{
"type": "FeatureCollection",
"features": [
	{"geometry":{"coordinates":[25.860704,35.115132],"type":"Point"},"properties":{"name":"\u00ce\u009c\u00ce\u00bd\u00ce\u00b7\u00ce\u00bc\u00ce\u00b5\u00ce\u00b9\u00ce\u00b1\u00ce\u00ba\u00ce\u00ae \u00ce\u0095\u00ce\u00bb\u00ce\u00b9\u00ce\u00ac \u00ce\u0091\u00ce\u00b6\u00ce\u00bf\u00cf\u0081\u00ce\u00b9\u00ce\u00ac","osm_id":"4226635164","tag":{"circumference":"14.2","denotation":"natural_monument","height":"6.9","leaf_type":"broadleaved","name:el":"\u00ce\u009c\u00ce\u00bd\u00ce\u00b7\u00ce\u00bc\u00ce\u00b5\u00ce\u00b9\u00ce\u00b1\u00ce\u00ba\u00ce\u00ae \u00ce\u0095\u00ce\u00bb\u00ce\u00b9\u00ce\u00ac \u00ce\u0091\u00ce\u00b6\u00ce\u00bf\u00cf\u0081\u00ce\u00b9\u00ce\u00ac","name:en":"Monumental Olive Tree of Azorias","name:fr":"Olivier antique","name:ru":"\u00d0\u00a1\u00d1\u0082\u00d0\u00b0\u00d1\u0080\u00d0\u00be\u00d0\u00b5 \u00d0\u00be\u00d0\u00bb\u00d0\u00b8\u00d0\u00b2\u00d0\u00ba\u00d0\u00be\u00d0\u00b2\u00d0\u00be\u00d0\u00b5 \u00d0\u00b4\u00d0\u00b5\u00d1\u0080\u00d0\u00b5\u00d0\u00b2\u00d0\u00be","natural":"tree","opening_hours":"24/7","species":"Olea europaea","tourism":"attraction"}},"type":"Feature"}
]
}
