{
"type": "FeatureCollection",
"features": [
	{"geometry":{"coordinates":[-116.97341,44.017708],"type":"Point"},"properties":{"osm_id":"5000734231","tag":{"amenity":"recycling","recycling_type":"compactor"}},"type":"Feature"},
	{"geometry":{"coordinates":[-116.973455,44.017721],"type":"Point"},"properties":{"osm_id":"5000734232","tag":{"amenity":"recycling","recycling_type":"container"}},"type":"Feature"},
	{"geometry":{"coordinates":[-116.973477,44.017801],"type":"Point"},"properties":{"osm_id":"5000734233","tag":{"amenity":"recycling","recycling_type":"container"}},"type":"Feature"},
	{"geometry":{"coordinates":[-116.943764,44.015566],"type":"Point"},"properties":{"osm_id":"5008637532","tag":{"amenity":"waste_basket"}},"type":"Feature"},
	{"geometry":{"coordinates":[-116.944404,44.015797],"type":"Point"},"properties":{"osm_id":"5008686673","tag":{"amenity":"waste_basket"}},"type":"Feature"},
	{"geometry":{"coordinates":[-116.944634,44.016231],"type":"Point"},"properties":{"osm_id":"5008686690","tag":{"amenity":"waste_basket"}},"type":"Feature"},
	{"geometry":{"coordinates":[-116.944188,44.016546],"type":"Point"},"properties":{"osm_id":"5008686694","tag":{"amenity":"waste_basket"}},"type":"Feature"},
	{"geometry":{"coordinates":[-116.944369,44.016464],"type":"Point"},"properties":{"osm_id":"5008686696","tag":{"amenity":"waste_basket"}},"type":"Feature"},
	{"geometry":{"coordinates":[-116.955444,44.020515],"type":"Point"},"properties":{"osm_id":"5031182984","tag":{"amenity":"waste_basket"}},"type":"Feature"},
	{"geometry":{"coordinates":[-116.956142,44.020679],"type":"Point"},"properties":{"osm_id":"5031183007","tag":{"amenity":"waste_basket"}},"type":"Feature"}
]
}
