{
"type": "FeatureCollection",
"lastupdate": "2020-08-01T00:00:00Z",
"features": [
	{"geometry":{"coordinates":[-38.639613,-3.844039],"type":"Point"},"properties":{"osm_id":"6441552596","tag":{"entrance":"yes"}},"type":"Feature"},
	{"geometry":{"coordinates":[-38.595692,-3.79559],"type":"Point"},"properties":{"name":"Colim Coletas","osm_id":"6618269798","tag":{"addr:city":"Fortaleza","addr:street":"Rua Doutor Fernando Augusto","addr:suburb":"Bom Jardim","amenity":"recycling","recycling_type":"centre"}},"type":"Feature"},
	{"geometry":{"coordinates":[-38.596793,-3.794334],"type":"Point"},"properties":{"name":"Colim Coletas","osm_id":"6624873244","tag":{"addr:city":"Fortaleza","addr:street":"Rua Coronel Jo\u00e3o Correia","addr:suburb":"Bom Jardim","amenity":"recycling","recycling:aluminium":"yes","recycling:cans":"yes","recycling:glass":"yes","recycling:glass_bottles":"yes","recycling:paper":"yes","recycling:plastic":"yes","recycling:plastic_packaging":"yes","recycling:scrap_metal":"yes","recycling_type":"centre"}},"type":"Feature"},
	{"geometry":{"coordinates":[-38.616323,-3.815519],"type":"Point"},"properties":{"name":"Ecoponto - Siqueira","osm_id":"7005270223","tag":{"addr:city":"Fortaleza","addr:street":"Travess Wilson Peixoto","addr:suburb":"Siqueira","amenity":"recycling","recycling_type":"centre"}},"type":"Feature"}
]
}
