{
"type": "FeatureCollection",
"features": [
	{"geometry":{"coordinates":[-86.522625,39.165852],"type":"Point"},"properties":{"name":"Sweetheart Tree","osm_id":"4491458481","tag":{"denotation":"landmark","leaf_cycle":"evergreen","leaf_type":"broadleaved","natural":"tree"}},"type":"Feature"},
	{"geometry":{"coordinates":[-86.534012,39.169859],"type":"Point"},"properties":{"osm_id":"6965342057","tag":{"natural":"tree"}},"type":"Feature"},
	{"geometry":{"coordinates":[-86.534073,39.169838],"type":"Point"},"properties":{"osm_id":"6965342058","tag":{"natural":"tree"}},"type":"Feature"},
	{"geometry":{"coordinates":[-86.534739,39.170221],"type":"Point"},"properties":{"osm_id":"6965342059","tag":{"natural":"tree"}},"type":"Feature"},
	{"geometry":{"coordinates":[-86.534736,39.170354],"type":"Point"},"properties":{"osm_id":"6965342060","tag":{"natural":"tree"}},"type":"Feature"},
	{"geometry":{"coordinates":[-86.534669,39.170425],"type":"Point"},"properties":{"osm_id":"6965342061","tag":{"natural":"tree"}},"type":"Feature"},
	{"geometry":{"coordinates":[-86.533593,39.170377],"type":"Point"},"properties":{"osm_id":"6965342062","tag":{"natural":"tree"}},"type":"Feature"},
	{"geometry":{"coordinates":[-86.533593,39.170254],"type":"Point"},"properties":{"osm_id":"6965342063","tag":{"natural":"tree"}},"type":"Feature"},
	{"geometry":{"coordinates":[-86.53343,39.169919],"type":"Point"},"properties":{"osm_id":"6965342064","tag":{"natural":"tree"}},"type":"Feature"},
	{"geometry":{"coordinates":[-86.534304,39.169429],"type":"Point"},"properties":{"osm_id":"6965342077","tag":{"natural":"tree"}},"type":"Feature"},
	{"geometry":{"coordinates":[-86.534696,39.168901],"type":"Point"},"properties":{"osm_id":"6965342078","tag":{"natural":"tree"}},"type":"Feature"},
	{"geometry":{"coordinates":[-86.534698,39.169285],"type":"Point"},"properties":{"osm_id":"6965342079","tag":{"natural":"tree"}},"type":"Feature"},
	{"geometry":{"coordinates":[-86.534701,39.169186],"type":"Point"},"properties":{"osm_id":"6965342080","tag":{"natural":"tree"}},"type":"Feature"},
	{"geometry":{"coordinates":[-86.536258,39.170042],"type":"Point"},"properties":{"osm_id":"6965358752","tag":{"natural":"tree"}},"type":"Feature"},
	{"geometry":{"coordinates":[-86.53636,39.169976],"type":"Point"},"properties":{"osm_id":"6965358753","tag":{"natural":"tree"}},"type":"Feature"},
	{"geometry":{"coordinates":[-86.536258,39.169888],"type":"Point"},"properties":{"osm_id":"6965358754","tag":{"natural":"tree"}},"type":"Feature"},
	{"geometry":{"coordinates":[-86.536408,39.169822],"type":"Point"},"properties":{"osm_id":"6965358755","tag":{"natural":"tree"}},"type":"Feature"},
	{"geometry":{"coordinates":[-86.532642,39.169834],"type":"Point"},"properties":{"osm_id":"6965358756","tag":{"natural":"tree"}},"type":"Feature"},
	{"geometry":{"coordinates":[-86.532771,39.169398],"type":"Point"},"properties":{"osm_id":"6965358757","tag":{"natural":"tree"}},"type":"Feature"},
	{"geometry":{"coordinates":[-86.532583,39.169647],"type":"Point"},"properties":{"osm_id":"6965358758","tag":{"natural":"tree"}},"type":"Feature"},
	{"geometry":{"coordinates":[-86.532471,39.170279],"type":"Point"},"properties":{"osm_id":"6965361031","tag":{"natural":"tree"}},"type":"Feature"},
	{"geometry":{"coordinates":[-86.53283,39.170342],"type":"Point"},"properties":{"osm_id":"6965361032","tag":{"natural":"tree"}},"type":"Feature"},
	{"geometry":{"coordinates":[-86.532626,39.170267],"type":"Point"},"properties":{"osm_id":"6965361033","tag":{"natural":"tree"}},"type":"Feature"},
	{"geometry":{"coordinates":[-86.532793,39.169826],"type":"Point"},"properties":{"osm_id":"6965361034","tag":{"natural":"tree"}},"type":"Feature"},
	{"geometry":{"coordinates":[-86.536462,39.168878],"type":"Point"},"properties":{"osm_id":"6965361035","tag":{"natural":"tree"}},"type":"Feature"},
	{"geometry":{"coordinates":[-86.536355,39.170179],"type":"Point"},"properties":{"osm_id":"6965361036","tag":{"natural":"tree"}},"type":"Feature"},
	{"geometry":{"coordinates":[-86.536199,39.169805],"type":"Point"},"properties":{"osm_id":"6965361037","tag":{"natural":"tree"}},"type":"Feature"},
	{"geometry":{"coordinates":[-86.494742,39.167287],"type":"Point"},"properties":{"osm_id":"7359968102","tag":{"natural":"tree"}},"type":"Feature"},
	{"geometry":{"coordinates":[-86.494746,39.167139],"type":"Point"},"properties":{"osm_id":"7359968103","tag":{"natural":"tree"}},"type":"Feature"},
	{"geometry":{"coordinates":[-86.494523,39.167005],"type":"Point"},"properties":{"osm_id":"7359968104","tag":{"natural":"tree"}},"type":"Feature"},
	{"geometry":{"coordinates":[-86.518764,39.168594],"type":"Point"},"properties":{"osm_id":"7457024225","tag":{"addr:city":"Bloomington","addr:street":"East 7th Street","denotation":"street","diameter":"102","genus":"Platanus","leaf_cycle":"deciduous","leaf_type":"broadleaved","natural":"tree","species":"Platanus \u00c3\u0097 acerifolia","species:en":"London planetree","species:es":"Pl\u00c3\u00a1tano de sombra"}},"type":"Feature"},
	{"geometry":{"coordinates":[-86.519139,39.168591],"type":"Point"},"properties":{"osm_id":"7457024264","tag":{"addr:city":"Bloomington","addr:street":"East 7th Street","denotation":"street","diameter":"422","genus":"Acer","leaf_cycle":"deciduous","leaf_type":"broadleaved","natural":"tree","species":"Acer pseudoplatanus","species:en":"Sycamore","species:es":"Falso pl\u00c3\u00a1tano"}},"type":"Feature"},
	{"geometry":{"coordinates":[-86.519125,39.168316],"type":"Point"},"properties":{"osm_id":"7457024265","tag":{"addr:city":"Bloomington","addr:street":"East 7th Street","denotation":"street","diameter":"230","genus":"Acer","leaf_cycle":"deciduous","leaf_type":"broadleaved","natural":"tree","species":"Acer pseudoplatanus","species:en":"Sycamore","species:es":"Falso pl\u00c3\u00a1tano"}},"type":"Feature"},
	{"geometry":{"coordinates":[-86.518756,39.168321],"type":"Point"},"properties":{"osm_id":"7457024266","tag":{"addr:city":"Bloomington","addr:street":"East 7th Street","denotation":"street","diameter":"385","genus":"Acer","leaf_cycle":"deciduous","leaf_type":"broadleaved","natural":"tree","species":"Acer pseudoplatanus","species:en":"Sycamore","species:es":"Falso pl\u00c3\u00a1tano"}},"type":"Feature"}
]
}
