{
"type": "FeatureCollection",
"features": [
	{"geometry":{"coordinates":[-87.92057,43.003604],"type":"Point"},"properties":{"osm_id":"4310300642","tag":{"amenity":"waste_basket"}},"type":"Feature"},
	{"geometry":{"coordinates":[-87.904536,42.950624],"type":"Point"},"properties":{"osm_id":"5256783530","tag":{"amenity":"waste_basket"}},"type":"Feature"},
	{"geometry":{"coordinates":[-87.904234,42.950703],"type":"Point"},"properties":{"osm_id":"5257134411","tag":{"amenity":"waste_basket","covered":"yes","location":"outdoor"}},"type":"Feature"},
	{"geometry":{"coordinates":[-87.909375,42.948114],"type":"Point"},"properties":{"osm_id":"5259117128","tag":{"amenity":"waste_basket"}},"type":"Feature"},
	{"geometry":{"coordinates":[-87.895205,42.958539],"type":"Point"},"properties":{"osm_id":"5269364871","tag":{"amenity":"waste_basket"}},"type":"Feature"},
	{"geometry":{"coordinates":[-87.894772,42.958845],"type":"Point"},"properties":{"osm_id":"5269364872","tag":{"amenity":"waste_basket"}},"type":"Feature"},
	{"geometry":{"coordinates":[-87.894545,42.95884],"type":"Point"},"properties":{"osm_id":"5269364873","tag":{"amenity":"waste_basket"}},"type":"Feature"},
	{"geometry":{"coordinates":[-87.894532,42.958686],"type":"Point"},"properties":{"osm_id":"5269364874","tag":{"amenity":"waste_basket"}},"type":"Feature"},
	{"geometry":{"coordinates":[-87.894811,42.958533],"type":"Point"},"properties":{"osm_id":"5269364875","tag":{"amenity":"waste_basket"}},"type":"Feature"},
	{"geometry":{"coordinates":[-87.895008,42.958532],"type":"Point"},"properties":{"osm_id":"5269364876","tag":{"amenity":"waste_basket"}},"type":"Feature"},
	{"geometry":{"coordinates":[-87.940021,42.98041],"type":"Point"},"properties":{"name":"Milwaukee A-1 Recycling Center","osm_id":"6633608837","tag":{"amenity":"recycling","operator":"Waste Management","recycling_type":"centre"}},"type":"Feature"}
]
}
