{
"type": "FeatureCollection",
"features": [
	{"geometry":{"coordinates":[-87.94048,42.041296],"type":"Point"},"properties":{"osm_id":"735982897","tag":{"amenity":"waste_basket"}},"type":"Feature"},
	{"geometry":{"coordinates":[-87.911469,42.03544],"type":"Point"},"properties":{"osm_id":"1420503325","tag":{"amenity":"waste_basket","check_date":"2021-04-11"}},"type":"Feature"},
	{"geometry":{"coordinates":[-87.911522,42.035285],"type":"Point"},"properties":{"osm_id":"1420503335","tag":{"amenity":"waste_basket","check_date":"2021-04-11"}},"type":"Feature"},
	{"geometry":{"coordinates":[-87.911522,42.035367],"type":"Point"},"properties":{"osm_id":"1420503336","tag":{"amenity":"waste_basket","check_date":"2021-04-11"}},"type":"Feature"},
	{"geometry":{"coordinates":[-87.948117,42.059835],"type":"Point"},"properties":{"osm_id":"8484317584","tag":{"access":"permissive","amenity":"waste_disposal","operator":"Lincoln Middle School","waste":"trash;recycling"}},"type":"Feature"},
	{"geometry":{"coordinates":[-87.911125,42.033586],"type":"Point"},"properties":{"osm_id":"8623288427","tag":{"amenity":"waste_basket","waste":"trash"}},"type":"Feature"},
	{"geometry":{"coordinates":[-87.910981,42.034474],"type":"Point"},"properties":{"osm_id":"8623288429","tag":{"amenity":"waste_basket","waste":"trash"}},"type":"Feature"},
	{"geometry":{"coordinates":[-87.928836,42.034184],"type":"Point"},"properties":{"osm_id":"8675854881","tag":{"amenity":"waste_basket"}},"type":"Feature"},
	{"geometry":{"coordinates":[-87.930146,42.03393],"type":"Point"},"properties":{"osm_id":"8675854887","tag":{"amenity":"waste_basket"}},"type":"Feature"},
	{"geometry":{"coordinates":[-87.929928,42.034549],"type":"Point"},"properties":{"osm_id":"8675854888","tag":{"amenity":"waste_basket"}},"type":"Feature"},
	{"geometry":{"coordinates":[-87.929166,42.034606],"type":"Point"},"properties":{"osm_id":"8675854891","tag":{"amenity":"waste_basket"}},"type":"Feature"}
]
}
