{
"type": "FeatureCollection",
"features": [
	{"geometry":{"coordinates":[17.175631,51.133041],"type":"Point"},"properties":{"osm_id":"1789081205","tag":{"amenity":"recycling","recycling_type":"container"}},"type":"Feature"},
	{"geometry":{"coordinates":[17.190908,51.135908],"type":"Point"},"properties":{"osm_id":"1789081210","tag":{"amenity":"recycling","recycling_type":"container"}},"type":"Feature"},
	{"geometry":{"coordinates":[17.213753,51.125923],"type":"Point"},"properties":{"osm_id":"1814560006","tag":{"addr:city":"\u00c5\u009aliwice","addr:postcode":"55-093","addr:street":"Topolowa","amenity":"recycling","recycling:glass":"yes","recycling:plastic":"yes","recycling_type":"container"}},"type":"Feature"},
	{"geometry":{"coordinates":[17.213927,51.142138],"type":"Point"},"properties":{"osm_id":"1827249097","tag":{"amenity":"recycling","recycling:glass":"yes","recycling:plastic":"yes","recycling_type":"container"}},"type":"Feature"},
	{"geometry":{"coordinates":[17.216634,51.142935],"type":"Point"},"properties":{"osm_id":"1829400889","tag":{"amenity":"recycling","recycling:glass":"yes","recycling:plastic":"yes","recycling_type":"container"}},"type":"Feature"},
	{"geometry":{"coordinates":[17.18028,51.141083],"type":"Point"},"properties":{"osm_id":"1839769395","tag":{"amenity":"recycling","recycling:glass":"yes","recycling:paper":"yes","recycling:plastic":"yes","recycling_type":"container"}},"type":"Feature"},
	{"geometry":{"coordinates":[17.222344,51.166979],"type":"Point"},"properties":{"osm_id":"1953071334","tag":{"amenity":"recycling","recycling_type":"container"}},"type":"Feature"},
	{"geometry":{"coordinates":[17.182818,51.173224],"type":"Point"},"properties":{"osm_id":"4465415647","tag":{"amenity":"waste_basket"}},"type":"Feature"},
	{"geometry":{"coordinates":[17.200023,51.17613],"type":"Point"},"properties":{"osm_id":"5501007596","tag":{"amenity":"waste_basket","waste":"trash"}},"type":"Feature"},
	{"geometry":{"coordinates":[17.200055,51.176211],"type":"Point"},"properties":{"osm_id":"5501007597","tag":{"amenity":"waste_basket","waste":"trash"}},"type":"Feature"},
	{"geometry":{"coordinates":[17.197289,51.177031],"type":"Point"},"properties":{"osm_id":"5501007603","tag":{"amenity":"waste_basket","waste":"trash"}},"type":"Feature"},
	{"geometry":{"coordinates":[17.197337,51.176884],"type":"Point"},"properties":{"osm_id":"5501007604","tag":{"amenity":"waste_basket","waste":"trash"}},"type":"Feature"},
	{"geometry":{"coordinates":[17.197384,51.176723],"type":"Point"},"properties":{"osm_id":"5501007605","tag":{"amenity":"waste_basket","waste":"trash"}},"type":"Feature"},
	{"geometry":{"coordinates":[17.199215,51.176351],"type":"Point"},"properties":{"osm_id":"5501007606","tag":{"amenity":"waste_basket","waste":"trash"}},"type":"Feature"},
	{"geometry":{"coordinates":[17.198711,51.176465],"type":"Point"},"properties":{"osm_id":"5501007607","tag":{"amenity":"waste_basket","waste":"trash"}},"type":"Feature"},
	{"geometry":{"coordinates":[17.198359,51.176494],"type":"Point"},"properties":{"osm_id":"5501007608","tag":{"amenity":"waste_basket","waste":"trash"}},"type":"Feature"},
	{"geometry":{"coordinates":[17.198079,51.176489],"type":"Point"},"properties":{"osm_id":"5754638701","tag":{"amenity":"waste_basket","waste":"trash"}},"type":"Feature"},
	{"geometry":{"coordinates":[17.183744,51.172862],"type":"Point"},"properties":{"osm_id":"6871766466","tag":{"amenity":"waste_basket"}},"type":"Feature"},
	{"geometry":{"coordinates":[17.184238,51.171334],"type":"Point"},"properties":{"osm_id":"6871766467","tag":{"amenity":"waste_basket"}},"type":"Feature"}
]
}
