{
"type": "FeatureCollection",
"features": [
	{"geometry":{"coordinates":[17.213711,49.594167],"type":"Point"},"properties":{"osm_id":"2479820864","tag":{"amenity":"recycling"}},"type":"Feature"},
	{"geometry":{"coordinates":[17.214388,49.594402],"type":"Point"},"properties":{"osm_id":"2479820866","tag":{"amenity":"recycling"}},"type":"Feature"},
	{"geometry":{"coordinates":[17.214957,49.59494],"type":"Point"},"properties":{"osm_id":"2479820868","tag":{"amenity":"recycling"}},"type":"Feature"},
	{"geometry":{"coordinates":[17.142548,49.557734],"type":"Point"},"properties":{"osm_id":"2544920604","tag":{"amenity":"recycling"}},"type":"Feature"},
	{"geometry":{"coordinates":[17.142145,49.558369],"type":"Point"},"properties":{"osm_id":"2544920624","tag":{"amenity":"waste_basket"}},"type":"Feature"},
	{"geometry":{"coordinates":[17.216921,49.597129],"type":"Point"},"properties":{"name":"Sb\u00c4\u009brov\u00c3\u00bd dv\u00c5\u00afr","osm_id":"2914431129","tag":{"amenity":"recycling","recycling:batteries":"yes","recycling:cans":"yes","recycling:clothes":"yes","recycling:glass":"yes","recycling:paper":"yes","recycling:scrap_metal":"yes","recycling_type":"centre"}},"type":"Feature"},
	{"geometry":{"coordinates":[17.174335,49.571065],"type":"Point"},"properties":{"osm_id":"3000228778","tag":{"amenity":"recycling","recycling_type":"container"}},"type":"Feature"},
	{"geometry":{"coordinates":[17.145577,49.554712],"type":"Point"},"properties":{"osm_id":"3287549529","tag":{"amenity":"recycling"}},"type":"Feature"},
	{"geometry":{"coordinates":[17.177068,49.570602],"type":"Point"},"properties":{"osm_id":"3287669441","tag":{"amenity":"recycling","recycling_type":"container"}},"type":"Feature"},
	{"geometry":{"coordinates":[17.179956,49.571741],"type":"Point"},"properties":{"osm_id":"3287669452","tag":{"amenity":"recycling"}},"type":"Feature"},
	{"geometry":{"coordinates":[17.226506,49.599404],"type":"Point"},"properties":{"osm_id":"5018063810","tag":{"amenity":"recycling","recycling:glass":"yes","recycling:paper":"yes","recycling:plastic":"yes","recycling_type":"container"}},"type":"Feature"},
	{"geometry":{"coordinates":[17.22389,49.576694],"type":"Point"},"properties":{"osm_id":"5080792474","tag":{"amenity":"recycling","recycling_type":"container"}},"type":"Feature"},
	{"geometry":{"coordinates":[17.216751,49.591889],"type":"Point"},"properties":{"osm_id":"5087252831","tag":{"amenity":"recycling","recycling:glass":"yes","recycling:paper":"yes","recycling:plastic":"yes","recycling_type":"container"}},"type":"Feature"},
	{"geometry":{"coordinates":[17.218626,49.593051],"type":"Point"},"properties":{"osm_id":"5087255366","tag":{"amenity":"waste_basket"}},"type":"Feature"},
	{"geometry":{"coordinates":[17.219196,49.593055],"type":"Point"},"properties":{"osm_id":"5087256251","tag":{"amenity":"waste_basket"}},"type":"Feature"},
	{"geometry":{"coordinates":[17.217893,49.593625],"type":"Point"},"properties":{"osm_id":"5087259824","tag":{"amenity":"recycling","recycling_type":"container"}},"type":"Feature"},
	{"geometry":{"coordinates":[17.22445,49.598339],"type":"Point"},"properties":{"osm_id":"5087318172","tag":{"amenity":"recycling","recycling_type":"container"}},"type":"Feature"},
	{"geometry":{"coordinates":[17.224445,49.598326],"type":"Point"},"properties":{"osm_id":"5087318517","tag":{"amenity":"waste_disposal"}},"type":"Feature"},
	{"geometry":{"coordinates":[17.224646,49.598526],"type":"Point"},"properties":{"osm_id":"5087340317","tag":{"amenity":"recycling","recycling_type":"container"}},"type":"Feature"},
	{"geometry":{"coordinates":[17.224675,49.598509],"type":"Point"},"properties":{"osm_id":"5087340318","tag":{"amenity":"waste_disposal"}},"type":"Feature"},
	{"geometry":{"coordinates":[17.225263,49.598862],"type":"Point"},"properties":{"osm_id":"5087340567","tag":{"amenity":"recycling","recycling_type":"container"}},"type":"Feature"},
	{"geometry":{"coordinates":[17.225244,49.598873],"type":"Point"},"properties":{"osm_id":"5087340607","tag":{"amenity":"waste_disposal"}},"type":"Feature"},
	{"geometry":{"coordinates":[17.224538,49.589556],"type":"Point"},"properties":{"osm_id":"5087364800","tag":{"amenity":"recycling","recycling:cans":"yes","recycling:glass":"yes","recycling:paper":"yes","recycling:plastic":"yes","recycling_type":"container"}},"type":"Feature"},
	{"geometry":{"coordinates":[17.224513,49.589552],"type":"Point"},"properties":{"osm_id":"5087365031","tag":{"amenity":"waste_disposal"}},"type":"Feature"},
	{"geometry":{"coordinates":[17.225508,49.582784],"type":"Point"},"properties":{"osm_id":"5087394394","tag":{"amenity":"waste_disposal"}},"type":"Feature"},
	{"geometry":{"coordinates":[17.2255,49.582803],"type":"Point"},"properties":{"osm_id":"5087394568","tag":{"amenity":"recycling","recycling:glass":"yes","recycling:paper":"yes","recycling:plastic":"yes","recycling_type":"container"}},"type":"Feature"},
	{"geometry":{"coordinates":[17.225815,49.583363],"type":"Point"},"properties":{"osm_id":"5087396275","tag":{"amenity":"recycling","recycling_type":"container"}},"type":"Feature"},
	{"geometry":{"coordinates":[17.226526,49.59377],"type":"Point"},"properties":{"osm_id":"5097826888","tag":{"amenity":"recycling","recycling_type":"container"}},"type":"Feature"},
	{"geometry":{"coordinates":[17.22428,49.580128],"type":"Point"},"properties":{"osm_id":"5103895782","tag":{"amenity":"recycling","recycling_type":"container"}},"type":"Feature"},
	{"geometry":{"coordinates":[17.225871,49.583229],"type":"Point"},"properties":{"osm_id":"5106288656","tag":{"amenity":"recycling","recycling_type":"container"}},"type":"Feature"},
	{"geometry":{"coordinates":[17.226076,49.582044],"type":"Point"},"properties":{"osm_id":"5106299951","tag":{"amenity":"recycling","recycling:glass":"yes","recycling:paper":"yes","recycling:plastic":"yes","recycling_type":"container"}},"type":"Feature"},
	{"geometry":{"coordinates":[17.225948,49.582217],"type":"Point"},"properties":{"osm_id":"5106310674","tag":{"amenity":"recycling","recycling:glass":"yes","recycling:paper":"yes","recycling:plastic":"yes","recycling_type":"container"}},"type":"Feature"},
	{"geometry":{"coordinates":[17.226491,49.583729],"type":"Point"},"properties":{"osm_id":"5106322058","tag":{"amenity":"recycling","recycling:glass":"yes","recycling:paper":"yes","recycling:plastic":"yes","recycling_type":"container"}},"type":"Feature"},
	{"geometry":{"coordinates":[17.222554,49.597208],"type":"Point"},"properties":{"osm_id":"6392984094","tag":{"amenity":"recycling","recycling_type":"container"}},"type":"Feature"},
	{"geometry":{"coordinates":[17.225535,49.590313],"type":"Point"},"properties":{"osm_id":"6531549204","tag":{"amenity":"recycling","recycling:beverage_cartons":"yes","recycling:glass":"yes","recycling:paper":"yes","recycling:plastic":"yes","recycling_type":"container"}},"type":"Feature"},
	{"geometry":{"coordinates":[17.211762,49.557284],"type":"Point"},"properties":{"osm_id":"6659110774","tag":{"amenity":"recycling","recycling:clothes":"yes","recycling:electrical_appliances":"yes","recycling:glass":"yes","recycling:glass_bottles":"yes","recycling:paper":"yes","recycling:plastic":"yes","recycling:small_appliances":"no","recycling_type":"container"}},"type":"Feature"},
	{"geometry":{"coordinates":[17.200512,49.591557],"type":"Point"},"properties":{"osm_id":"7169479206","tag":{"amenity":"recycling","recycling_type":"container"}},"type":"Feature"},
	{"geometry":{"coordinates":[17.16925,49.606776],"type":"Point"},"properties":{"osm_id":"7906018225","tag":{"amenity":"waste_basket"}},"type":"Feature"},
	{"geometry":{"coordinates":[17.181031,49.570764],"type":"Point"},"properties":{"osm_id":"8780900481","tag":{"amenity":"recycling","recycling_type":"container"}},"type":"Feature"}
]
}
