{
"type": "FeatureCollection",
"lastupdate": "2020-08-05T00:00:00Z",
"features": [
	{"geometry":{"coordinates":[17.210765,49.402151],"type":"Point"},"properties":{"osm_id":"1887526937","tag":{"amenity":"recycling","recycling_type":"container"}},"type":"Feature"},
	{"geometry":{"coordinates":[17.208754,49.403035],"type":"Point"},"properties":{"osm_id":"1887526979","tag":{"amenity":"recycling","recycling_type":"container"}},"type":"Feature"},
	{"geometry":{"coordinates":[17.206205,49.404197],"type":"Point"},"properties":{"osm_id":"1887528094","tag":{"amenity":"recycling","recycling_type":"container"}},"type":"Feature"},
	{"geometry":{"coordinates":[17.140767,49.420007],"type":"Point"},"properties":{"name":"DOKOV","osm_id":"3507288891","tag":{"addr:conscriptionnumber":"187","addr:housenumber":"187","addr:place":"V\u00fd\u0161ovice","addr:postcode":"79809","amenity":"recycling","ref:ruian:addr":"73650293"}},"type":"Feature"},
	{"geometry":{"coordinates":[17.14106,49.417069],"type":"Point"},"properties":{"osm_id":"4242738568","tag":{"amenity":"recycling","recycling_type":"container"}},"type":"Feature"},
	{"geometry":{"coordinates":[17.18457,49.384704],"type":"Point"},"properties":{"osm_id":"4450357223","tag":{"amenity":"waste_basket"}},"type":"Feature"},
	{"geometry":{"coordinates":[17.18325,49.384639],"type":"Point"},"properties":{"osm_id":"4450703822","tag":{"amenity":"waste_basket"}},"type":"Feature"},
	{"geometry":{"coordinates":[17.182354,49.384821],"type":"Point"},"properties":{"osm_id":"4450732831","tag":{"amenity":"waste_basket"}},"type":"Feature"},
	{"geometry":{"coordinates":[17.1835,49.384858],"type":"Point"},"properties":{"osm_id":"4450737383","tag":{"amenity":"waste_basket"}},"type":"Feature"},
	{"geometry":{"coordinates":[17.142134,49.397546],"type":"Point"},"properties":{"osm_id":"4458353937","tag":{"amenity":"waste_basket"}},"type":"Feature"},
	{"geometry":{"coordinates":[17.16903,49.405474],"type":"Point"},"properties":{"osm_id":"4475948994","tag":{"amenity":"waste_basket"}},"type":"Feature"},
	{"geometry":{"coordinates":[17.139544,49.416383],"type":"Point"},"properties":{"osm_id":"5037021044","tag":{"amenity":"waste_basket"}},"type":"Feature"},
	{"geometry":{"coordinates":[17.174179,49.403082],"type":"Point"},"properties":{"osm_id":"5037021090","tag":{"amenity":"waste_basket"}},"type":"Feature"},
	{"geometry":{"coordinates":[17.193565,49.412434],"type":"Point"},"properties":{"osm_id":"6578978725","tag":{"amenity":"recycling","recycling_type":"container"}},"type":"Feature"}
]
}
