{
"type": "FeatureCollection",
"features": [
	{"geometry":{"coordinates":[17.160554,48.206649],"type":"Point"},"properties":{"osm_id":"1372491056","tag":{"amenity":"recycling","recycling:scrap_metal":"yes","recycling_type":"V\u00c3\u00bdkus \u00c5\u00a1rotu"}},"type":"Feature"},
	{"geometry":{"coordinates":[17.167718,48.198624],"type":"Point"},"properties":{"osm_id":"2069990802","tag":{"amenity":"waste_disposal"}},"type":"Feature"},
	{"geometry":{"coordinates":[17.167711,48.198707],"type":"Point"},"properties":{"osm_id":"2069990805","tag":{"amenity":"recycling","recycling_type":"container"}},"type":"Feature"},
	{"geometry":{"coordinates":[17.166187,48.198819],"type":"Point"},"properties":{"osm_id":"2146330686","tag":{"amenity":"waste_disposal"}},"type":"Feature"},
	{"geometry":{"coordinates":[17.175105,48.172191],"type":"Point"},"properties":{"name":"Cvik","osm_id":"2708699876","tag":{"amenity":"recycling","opening_hours":"Mo-Fr 08:00-16:00; Sa 08:00-14:00","recycling:scrap_metal":"yes","recycling_type":"centre","website":"http://www.cvik.sk/"}},"type":"Feature"},
	{"geometry":{"coordinates":[17.177582,48.17327],"type":"Point"},"properties":{"name":"WIP autovrakovisko","osm_id":"2708699886","tag":{"amenity":"recycling","recycling:scrap_metal":"yes","recycling_type":"centre"}},"type":"Feature"},
	{"geometry":{"coordinates":[17.179535,48.171237],"type":"Point"},"properties":{"name":"Zbern\u00c3\u00bd dvor OLO, a.s.","osm_id":"2869160561","tag":{"amenity":"recycling","opening_hours":"Mo-Su 08:00-18:00","recycling:batteries":"yes","recycling:clothes":"no","recycling:glass":"yes","recycling:paper":"yes","recycling:plastic":"yes","recycling:scrap_metal":"yes","recycling:small_appliances":"yes","recycling:wood":"yes","recycling_type":"centre"}},"type":"Feature"},
	{"geometry":{"coordinates":[17.168906,48.169751],"type":"Point"},"properties":{"osm_id":"3921546511","tag":{"amenity":"waste_basket"}},"type":"Feature"},
	{"geometry":{"coordinates":[17.167752,48.166773],"type":"Point"},"properties":{"osm_id":"3923192219","tag":{"amenity":"waste_basket"}},"type":"Feature"},
	{"geometry":{"coordinates":[17.173245,48.170064],"type":"Point"},"properties":{"osm_id":"4003817372","tag":{"access":"private","amenity":"waste_disposal","covered":"yes"}},"type":"Feature"},
	{"geometry":{"coordinates":[17.16138,48.169906],"type":"Point"},"properties":{"osm_id":"4275568395","tag":{"access":"private","amenity":"waste_disposal"}},"type":"Feature"},
	{"geometry":{"coordinates":[17.167069,48.16614],"type":"Point"},"properties":{"osm_id":"4309407755","tag":{"amenity":"waste_basket"}},"type":"Feature"},
	{"geometry":{"coordinates":[17.17202,48.169459],"type":"Point"},"properties":{"osm_id":"4313456876","tag":{"access":"private","amenity":"waste_disposal"}},"type":"Feature"},
	{"geometry":{"coordinates":[17.142677,48.175087],"type":"Point"},"properties":{"name":"P+K","osm_id":"4355348445","tag":{"addr:street":"Vajnorsk\u00c3\u00a1","addr:streetnumber":"89","amenity":"recycling","email":"p-k@p-k.sk","opening_hours":"Mo-Fr 07:00-16:00","phone":"+421 911 289 790","recycling_type":"centre","website":"http://www.p-k.sk/"}},"type":"Feature"},
	{"geometry":{"coordinates":[17.139568,48.196559],"type":"Point"},"properties":{"osm_id":"4382512419","tag":{"amenity":"waste_basket","source:position":"measurement from curb (kapor)"}},"type":"Feature"},
	{"geometry":{"coordinates":[17.173487,48.170976],"type":"Point"},"properties":{"osm_id":"4525806939","tag":{"access":"private","amenity":"recycling","covered":"yes","recycling:beverage_cartons":"yes","recycling:books":"yes","recycling:cans":"yes","recycling:cardboard":"yes","recycling:glass":"yes","recycling:glass_bottles":"yes","recycling:magazines":"yes","recycling:newspaper":"yes","recycling:paper":"yes","recycling:paper_packaging":"yes","recycling:plastic":"yes","recycling:plastic_bottles":"yes","recycling:plastic_packaging":"yes","recycling:waste":"yes","recycling_type":"container"}},"type":"Feature"},
	{"geometry":{"coordinates":[17.218419,48.183235],"type":"Point"},"properties":{"osm_id":"4888510708","tag":{"amenity":"recycling","recycling_type":"centre"}},"type":"Feature"},
	{"geometry":{"coordinates":[17.140183,48.196549],"type":"Point"},"properties":{"osm_id":"4947159260","tag":{"amenity":"waste_basket","source:position":"measurement from curb (kapor)"}},"type":"Feature"},
	{"geometry":{"coordinates":[17.142272,48.195473],"type":"Point"},"properties":{"osm_id":"4947159263","tag":{"amenity":"waste_basket"}},"type":"Feature"},
	{"geometry":{"coordinates":[17.141255,48.194061],"type":"Point"},"properties":{"osm_id":"4947159264","tag":{"amenity":"waste_basket"}},"type":"Feature"},
	{"geometry":{"coordinates":[17.139754,48.196727],"type":"Point"},"properties":{"osm_id":"4947159267","tag":{"amenity":"waste_basket","source:position":"measurement from curb (kapor)"}},"type":"Feature"},
	{"geometry":{"coordinates":[17.141303,48.198939],"type":"Point"},"properties":{"osm_id":"4947420706","tag":{"amenity":"waste_basket"}},"type":"Feature"},
	{"geometry":{"coordinates":[17.141817,48.195566],"type":"Point"},"properties":{"osm_id":"4947420717","tag":{"amenity":"waste_basket"}},"type":"Feature"},
	{"geometry":{"coordinates":[17.142907,48.195208],"type":"Point"},"properties":{"osm_id":"4947420719","tag":{"amenity":"waste_basket"}},"type":"Feature"},
	{"geometry":{"coordinates":[17.141204,48.196117],"type":"Point"},"properties":{"osm_id":"4949326978","tag":{"amenity":"waste_basket","source:position":"measurement from curb (kapor)"}},"type":"Feature"},
	{"geometry":{"coordinates":[17.140171,48.19527],"type":"Point"},"properties":{"osm_id":"4971185858","tag":{"amenity":"waste_basket"}},"type":"Feature"},
	{"geometry":{"coordinates":[17.14082,48.197358],"type":"Point"},"properties":{"osm_id":"5141050043","tag":{"amenity":"waste_basket"}},"type":"Feature"},
	{"geometry":{"coordinates":[17.141085,48.197309],"type":"Point"},"properties":{"osm_id":"5141050044","tag":{"amenity":"waste_basket"}},"type":"Feature"},
	{"geometry":{"coordinates":[17.143533,48.195615],"type":"Point"},"properties":{"osm_id":"5143730026","tag":{"amenity":"waste_basket"}},"type":"Feature"},
	{"geometry":{"coordinates":[17.139686,48.197164],"type":"Point"},"properties":{"osm_id":"5202850149","tag":{"amenity":"waste_basket"}},"type":"Feature"},
	{"geometry":{"coordinates":[17.143163,48.195297],"type":"Point"},"properties":{"osm_id":"5216788170","tag":{"amenity":"waste_basket"}},"type":"Feature"},
	{"geometry":{"coordinates":[17.146244,48.204669],"type":"Point"},"properties":{"osm_id":"5237170202","tag":{"amenity":"waste_disposal"}},"type":"Feature"},
	{"geometry":{"coordinates":[17.145947,48.204885],"type":"Point"},"properties":{"osm_id":"5237170207","tag":{"amenity":"waste_disposal"}},"type":"Feature"},
	{"geometry":{"coordinates":[17.146626,48.204237],"type":"Point"},"properties":{"osm_id":"5237170443","tag":{"amenity":"waste_disposal"}},"type":"Feature"},
	{"geometry":{"coordinates":[17.14639,48.204623],"type":"Point"},"properties":{"barrier":"gate","osm_id":"5237170500"},"type":"Feature"},
	{"geometry":{"coordinates":[17.145944,48.204301],"type":"Point"},"properties":{"osm_id":"5237747515","tag":{"amenity":"waste_disposal"}},"type":"Feature"},
	{"geometry":{"coordinates":[17.145868,48.205035],"type":"Point"},"properties":{"barrier":"gate","osm_id":"5247712150"},"type":"Feature"},
	{"geometry":{"coordinates":[17.15492,48.211389],"type":"Point"},"properties":{"osm_id":"5286534968","tag":{"amenity":"waste_basket"}},"type":"Feature"},
	{"geometry":{"coordinates":[17.144609,48.201431],"type":"Point"},"properties":{"osm_id":"5299598301","tag":{"amenity":"waste_disposal"}},"type":"Feature"},
	{"geometry":{"coordinates":[17.141692,48.198992],"type":"Point"},"properties":{"osm_id":"5303286571","tag":{"amenity":"waste_basket"}},"type":"Feature"},
	{"geometry":{"coordinates":[17.141884,48.199205],"type":"Point"},"properties":{"osm_id":"5308315461","tag":{"amenity":"waste_disposal"}},"type":"Feature"},
	{"geometry":{"coordinates":[17.141824,48.199141],"type":"Point"},"properties":{"osm_id":"5308315462","tag":{"amenity":"waste_disposal"}},"type":"Feature"},
	{"geometry":{"coordinates":[17.141252,48.198537],"type":"Point"},"properties":{"osm_id":"5308315463","tag":{"amenity":"waste_disposal"}},"type":"Feature"},
	{"geometry":{"coordinates":[17.141032,48.198307],"type":"Point"},"properties":{"osm_id":"5308315464","tag":{"amenity":"waste_disposal"}},"type":"Feature"},
	{"geometry":{"coordinates":[17.140787,48.198049],"type":"Point"},"properties":{"osm_id":"5308315465","tag":{"amenity":"waste_disposal"}},"type":"Feature"},
	{"geometry":{"coordinates":[17.140584,48.197835],"type":"Point"},"properties":{"osm_id":"5308315466","tag":{"amenity":"waste_disposal"}},"type":"Feature"},
	{"geometry":{"coordinates":[17.140236,48.197467],"type":"Point"},"properties":{"osm_id":"5308315467","tag":{"amenity":"waste_disposal"}},"type":"Feature"},
	{"geometry":{"coordinates":[17.140686,48.198223],"type":"Point"},"properties":{"osm_id":"5308315474","tag":{"amenity":"waste_basket"}},"type":"Feature"},
	{"geometry":{"coordinates":[17.145992,48.20075],"type":"Point"},"properties":{"osm_id":"5310772715","tag":{"amenity":"waste_basket"}},"type":"Feature"},
	{"geometry":{"coordinates":[17.142869,48.198478],"type":"Point"},"properties":{"osm_id":"5310773347","tag":{"amenity":"waste_basket"}},"type":"Feature"},
	{"geometry":{"coordinates":[17.143769,48.197389],"type":"Point"},"properties":{"osm_id":"5311990213","tag":{"amenity":"waste_disposal"}},"type":"Feature"},
	{"geometry":{"coordinates":[17.144179,48.197827],"type":"Point"},"properties":{"osm_id":"5311990219","tag":{"amenity":"waste_disposal"}},"type":"Feature"},
	{"geometry":{"coordinates":[17.144668,48.19834],"type":"Point"},"properties":{"osm_id":"5311990220","tag":{"amenity":"waste_disposal"}},"type":"Feature"},
	{"geometry":{"coordinates":[17.145479,48.1992],"type":"Point"},"properties":{"osm_id":"5311993129","tag":{"amenity":"waste_disposal"}},"type":"Feature"},
	{"geometry":{"coordinates":[17.145058,48.201073],"type":"Point"},"properties":{"osm_id":"5313695112","tag":{"amenity":"waste_basket","waste":"dog_excrement"}},"type":"Feature"},
	{"geometry":{"coordinates":[17.145131,48.198004],"type":"Point"},"properties":{"osm_id":"5313695114","tag":{"amenity":"waste_basket"}},"type":"Feature"},
	{"geometry":{"coordinates":[17.145439,48.197649],"type":"Point"},"properties":{"osm_id":"5313836745","tag":{"amenity":"waste_basket","waste":"dog_excrement"}},"type":"Feature"},
	{"geometry":{"coordinates":[17.147089,48.199407],"type":"Point"},"properties":{"osm_id":"5314614661","tag":{"amenity":"waste_basket"}},"type":"Feature"},
	{"geometry":{"coordinates":[17.145308,48.198214],"type":"Point"},"properties":{"osm_id":"5314614667","tag":{"amenity":"waste_basket"}},"type":"Feature"},
	{"geometry":{"coordinates":[17.144361,48.196511],"type":"Point"},"properties":{"osm_id":"5314614669","tag":{"amenity":"waste_basket"}},"type":"Feature"},
	{"geometry":{"coordinates":[17.143883,48.196027],"type":"Point"},"properties":{"osm_id":"5314614670","tag":{"amenity":"waste_basket","waste":"dog_excrement"}},"type":"Feature"},
	{"geometry":{"coordinates":[17.145421,48.197915],"type":"Point"},"properties":{"osm_id":"5314614671","tag":{"amenity":"waste_basket"}},"type":"Feature"},
	{"geometry":{"coordinates":[17.141684,48.199283],"type":"Point"},"properties":{"osm_id":"5317179618","tag":{"amenity":"waste_basket"}},"type":"Feature"},
	{"geometry":{"coordinates":[17.143044,48.201268],"type":"Point"},"properties":{"osm_id":"5320999320","tag":{"amenity":"waste_disposal"}},"type":"Feature"},
	{"geometry":{"coordinates":[17.142605,48.200826],"type":"Point"},"properties":{"osm_id":"5321004837","tag":{"amenity":"waste_disposal"}},"type":"Feature"},
	{"geometry":{"coordinates":[17.143473,48.200886],"type":"Point"},"properties":{"osm_id":"5323644459","tag":{"amenity":"waste_disposal"}},"type":"Feature"},
	{"geometry":{"coordinates":[17.143511,48.200925],"type":"Point"},"properties":{"osm_id":"5323644460","tag":{"amenity":"waste_disposal"}},"type":"Feature"},
	{"geometry":{"coordinates":[17.143369,48.201056],"type":"Point"},"properties":{"osm_id":"5323644461","tag":{"amenity":"waste_basket"}},"type":"Feature"},
	{"geometry":{"coordinates":[17.138739,48.194955],"type":"Point"},"properties":{"osm_id":"5336849828","tag":{"amenity":"waste_basket"}},"type":"Feature"},
	{"geometry":{"coordinates":[17.14027,48.194759],"type":"Point"},"properties":{"barrier":"gate","osm_id":"5364266579"},"type":"Feature"},
	{"geometry":{"coordinates":[17.141986,48.196561],"type":"Point"},"properties":{"osm_id":"5385204546","tag":{"amenity":"waste_disposal"}},"type":"Feature"},
	{"geometry":{"coordinates":[17.141813,48.197697],"type":"Point"},"properties":{"osm_id":"5385204548","tag":{"amenity":"waste_basket","waste":"dog_excrement"}},"type":"Feature"},
	{"geometry":{"coordinates":[17.142688,48.197795],"type":"Point"},"properties":{"osm_id":"5405710307","tag":{"amenity":"waste_disposal"}},"type":"Feature"},
	{"geometry":{"coordinates":[17.14289,48.197698],"type":"Point"},"properties":{"osm_id":"5405710755","tag":{"amenity":"waste_basket"}},"type":"Feature"},
	{"geometry":{"coordinates":[17.143054,48.197573],"type":"Point"},"properties":{"osm_id":"5405777959","tag":{"amenity":"waste_basket"}},"type":"Feature"},
	{"geometry":{"coordinates":[17.142951,48.197465],"type":"Point"},"properties":{"osm_id":"5405777963","tag":{"amenity":"waste_basket"}},"type":"Feature"},
	{"geometry":{"coordinates":[17.14285,48.19736],"type":"Point"},"properties":{"osm_id":"5405777967","tag":{"amenity":"waste_basket"}},"type":"Feature"},
	{"geometry":{"coordinates":[17.142201,48.197483],"type":"Point"},"properties":{"osm_id":"5421053511","tag":{"amenity":"waste_basket"}},"type":"Feature"},
	{"geometry":{"coordinates":[17.142686,48.19732],"type":"Point"},"properties":{"osm_id":"5421055936","tag":{"amenity":"waste_disposal"}},"type":"Feature"},
	{"geometry":{"coordinates":[17.142513,48.197135],"type":"Point"},"properties":{"osm_id":"5421055957","tag":{"amenity":"waste_disposal"}},"type":"Feature"},
	{"geometry":{"coordinates":[17.140634,48.19671],"type":"Point"},"properties":{"osm_id":"5421055994","tag":{"amenity":"waste_disposal"}},"type":"Feature"},
	{"geometry":{"coordinates":[17.144184,48.198278],"type":"Point"},"properties":{"osm_id":"5436130405","tag":{"amenity":"waste_basket"}},"type":"Feature"},
	{"geometry":{"coordinates":[17.143643,48.198298],"type":"Point"},"properties":{"osm_id":"5436130436","tag":{"amenity":"waste_disposal"}},"type":"Feature"},
	{"geometry":{"coordinates":[17.14435,48.198399],"type":"Point"},"properties":{"osm_id":"5446659290","tag":{"amenity":"waste_basket"}},"type":"Feature"},
	{"geometry":{"coordinates":[17.144446,48.197921],"type":"Point"},"properties":{"osm_id":"5448982942","tag":{"amenity":"waste_disposal"}},"type":"Feature"},
	{"geometry":{"coordinates":[17.144591,48.201336],"type":"Point"},"properties":{"osm_id":"5449177326","tag":{"amenity":"waste_basket"}},"type":"Feature"},
	{"geometry":{"coordinates":[17.144967,48.201048],"type":"Point"},"properties":{"osm_id":"5450784515","tag":{"amenity":"waste_basket"}},"type":"Feature"},
	{"geometry":{"coordinates":[17.144296,48.200812],"type":"Point"},"properties":{"osm_id":"5455234892","tag":{"amenity":"waste_basket","waste":"dog_excrement"}},"type":"Feature"},
	{"geometry":{"coordinates":[17.143055,48.199466],"type":"Point"},"properties":{"osm_id":"5455235933","tag":{"amenity":"waste_basket"}},"type":"Feature"},
	{"geometry":{"coordinates":[17.14374,48.199742],"type":"Point"},"properties":{"osm_id":"5455235939","tag":{"amenity":"waste_basket"}},"type":"Feature"},
	{"geometry":{"coordinates":[17.142277,48.199619],"type":"Point"},"properties":{"osm_id":"5455235962","tag":{"amenity":"waste_disposal"}},"type":"Feature"},
	{"geometry":{"coordinates":[17.142082,48.199413],"type":"Point"},"properties":{"osm_id":"5455235967","tag":{"amenity":"waste_disposal"}},"type":"Feature"},
	{"geometry":{"coordinates":[17.142886,48.198839],"type":"Point"},"properties":{"osm_id":"5455235982","tag":{"amenity":"waste_basket"}},"type":"Feature"},
	{"geometry":{"coordinates":[17.143324,48.195471],"type":"Point"},"properties":{"osm_id":"5516079283","tag":{"amenity":"waste_basket"}},"type":"Feature"},
	{"geometry":{"coordinates":[17.139681,48.197738],"type":"Point"},"properties":{"osm_id":"5522451110","tag":{"amenity":"waste_disposal"}},"type":"Feature"},
	{"geometry":{"coordinates":[17.140356,48.198733],"type":"Point"},"properties":{"osm_id":"5522914971","tag":{"amenity":"waste_basket"}},"type":"Feature"},
	{"geometry":{"coordinates":[17.141331,48.199475],"type":"Point"},"properties":{"osm_id":"5525099649","tag":{"amenity":"waste_disposal"}},"type":"Feature"},
	{"geometry":{"coordinates":[17.142322,48.200527],"type":"Point"},"properties":{"osm_id":"5538426997","tag":{"amenity":"waste_disposal"}},"type":"Feature"},
	{"geometry":{"coordinates":[17.143112,48.201627],"type":"Point"},"properties":{"osm_id":"5538433930","tag":{"amenity":"waste_basket"}},"type":"Feature"},
	{"geometry":{"coordinates":[17.142348,48.195676],"type":"Point"},"properties":{"osm_id":"5548825838","tag":{"amenity":"waste_basket"}},"type":"Feature"},
	{"geometry":{"coordinates":[17.171208,48.17165],"type":"Point"},"properties":{"osm_id":"5730022651","tag":{"access":"private","amenity":"waste_disposal","covered":"yes"}},"type":"Feature"},
	{"geometry":{"coordinates":[17.15085,48.208208],"type":"Point"},"properties":{"osm_id":"5939122385","tag":{"amenity":"waste_basket"}},"type":"Feature"},
	{"geometry":{"coordinates":[17.178811,48.166421],"type":"Point"},"properties":{"osm_id":"5955473106","tag":{"amenity":"waste_basket"}},"type":"Feature"},
	{"geometry":{"coordinates":[17.178985,48.166473],"type":"Point"},"properties":{"osm_id":"5955473107","tag":{"amenity":"waste_basket"}},"type":"Feature"},
	{"geometry":{"coordinates":[17.179102,48.166557],"type":"Point"},"properties":{"osm_id":"5955473108","tag":{"amenity":"waste_basket"}},"type":"Feature"},
	{"geometry":{"coordinates":[17.17922,48.166605],"type":"Point"},"properties":{"osm_id":"5955473109","tag":{"amenity":"waste_basket"}},"type":"Feature"},
	{"geometry":{"coordinates":[17.179918,48.166785],"type":"Point"},"properties":{"osm_id":"5955473127","tag":{"amenity":"waste_basket"}},"type":"Feature"},
	{"geometry":{"coordinates":[17.179908,48.166725],"type":"Point"},"properties":{"osm_id":"5955473128","tag":{"amenity":"waste_basket"}},"type":"Feature"},
	{"geometry":{"coordinates":[17.179197,48.16735],"type":"Point"},"properties":{"osm_id":"5955473136","tag":{"amenity":"waste_basket"}},"type":"Feature"},
	{"geometry":{"coordinates":[17.141146,48.193257],"type":"Point"},"properties":{"osm_id":"6304558268","tag":{"amenity":"waste_basket","waste":"dog_excrement"}},"type":"Feature"},
	{"geometry":{"coordinates":[17.172859,48.170523],"type":"Point"},"properties":{"osm_id":"6361304068","tag":{"access":"private","amenity":"waste_disposal","covered":"yes"}},"type":"Feature"},
	{"geometry":{"coordinates":[17.171913,48.169369],"type":"Point"},"properties":{"osm_id":"6481681041","tag":{"amenity":"waste_basket","waste":"dog_excrement"}},"type":"Feature"},
	{"geometry":{"coordinates":[17.164648,48.166232],"type":"Point"},"properties":{"osm_id":"6481681042","tag":{"amenity":"waste_basket","waste":"dog_excrement"}},"type":"Feature"},
	{"geometry":{"coordinates":[17.164665,48.168569],"type":"Point"},"properties":{"osm_id":"6486644995","tag":{"access":"private","amenity":"recycling","covered":"yes","recycling:paper":"yes","recycling:plastic":"yes","recycling:waste":"yes","recycling_type":"container"}},"type":"Feature"},
	{"geometry":{"coordinates":[17.165819,48.170329],"type":"Point"},"properties":{"osm_id":"6486644996","tag":{"amenity":"waste_basket","waste":"trash"}},"type":"Feature"},
	{"geometry":{"coordinates":[17.166097,48.170086],"type":"Point"},"properties":{"osm_id":"6486644997","tag":{"amenity":"waste_basket","waste":"trash"}},"type":"Feature"},
	{"geometry":{"coordinates":[17.172121,48.166633],"type":"Point"},"properties":{"osm_id":"6489396743","tag":{"amenity":"waste_basket","waste":"dog_excrement"}},"type":"Feature"},
	{"geometry":{"coordinates":[17.172106,48.166625],"type":"Point"},"properties":{"osm_id":"6489396744","tag":{"access":"private","amenity":"waste_disposal","waste":"trash"}},"type":"Feature"},
	{"geometry":{"coordinates":[17.169115,48.171792],"type":"Point"},"properties":{"osm_id":"6502014145","tag":{"amenity":"waste_basket","waste":"trash"}},"type":"Feature"},
	{"geometry":{"coordinates":[17.168951,48.171459],"type":"Point"},"properties":{"osm_id":"6502014146","tag":{"amenity":"waste_basket","waste":"trash"}},"type":"Feature"},
	{"geometry":{"coordinates":[17.169165,48.172069],"type":"Point"},"properties":{"osm_id":"6502014149","tag":{"amenity":"waste_basket","waste":"trash"}},"type":"Feature"},
	{"geometry":{"coordinates":[17.172187,48.170914],"type":"Point"},"properties":{"osm_id":"6510751336","tag":{"amenity":"recycling","recycling:glass":"yes","recycling_type":"container"}},"type":"Feature"},
	{"geometry":{"coordinates":[17.172222,48.1709],"type":"Point"},"properties":{"osm_id":"6510751337","tag":{"access":"private","amenity":"waste_disposal","covered":"yes"}},"type":"Feature"},
	{"geometry":{"coordinates":[17.171246,48.171668],"type":"Point"},"properties":{"osm_id":"6510751338","tag":{"amenity":"recycling","recycling:glass":"yes","recycling:paper":"yes","recycling:plastic":"yes","recycling:waste":"yes","recycling_type":"container"}},"type":"Feature"},
	{"geometry":{"coordinates":[17.173279,48.170033],"type":"Point"},"properties":{"osm_id":"6510751339","tag":{"amenity":"recycling","recycling:glass":"no","recycling:glass_bottles":"yes","recycling_type":"container"}},"type":"Feature"},
	{"geometry":{"coordinates":[17.173728,48.17097],"type":"Point"},"properties":{"osm_id":"6835148013","tag":{"access":"private","amenity":"waste_disposal","covered":"yes"}},"type":"Feature"},
	{"geometry":{"coordinates":[17.19549,48.19856],"type":"Point"},"properties":{"osm_id":"7178797678","tag":{"amenity":"recycling","recycling:clothes":"yes","recycling_type":"container"}},"type":"Feature"},
	{"geometry":{"coordinates":[17.162194,48.167731],"type":"Point"},"properties":{"osm_id":"7295116135","tag":{"amenity":"recycling","recycling:cans":"yes","recycling:cardboard":"yes","recycling:glass":"yes","recycling:paper":"yes","recycling:plastic":"yes","recycling:plastic_bottles":"yes","recycling:plastic_packaging":"yes","recycling_type":"container"}},"type":"Feature"},
	{"geometry":{"coordinates":[17.160545,48.169802],"type":"Point"},"properties":{"osm_id":"7430253913","tag":{"amenity":"recycling","recycling:cardboard":"yes","recycling:paper":"yes","recycling:plastic":"yes","recycling:plastic_bottles":"yes","recycling:plastic_packaging":"yes","recycling:waste":"yes","recycling_type":"container"}},"type":"Feature"},
	{"geometry":{"coordinates":[17.161157,48.16966],"type":"Point"},"properties":{"osm_id":"7445027404","tag":{"access":"private","amenity":"recycling","covered":"yes","recycling:cardboard":"yes","recycling:paper":"yes","recycling:plastic":"yes","recycling:plastic_bottles":"yes","recycling:plastic_packaging":"yes","recycling:waste":"yes","recycling_type":"container"}},"type":"Feature"},
	{"geometry":{"coordinates":[17.192158,48.170486],"type":"Point"},"properties":{"osm_id":"7488219166","tag":{"amenity":"waste_disposal","waste":"trash"}},"type":"Feature"},
	{"geometry":{"coordinates":[17.190227,48.189176],"type":"Point"},"properties":{"osm_id":"7776132710","tag":{"amenity":"waste_basket"}},"type":"Feature"},
	{"geometry":{"coordinates":[17.189764,48.189278],"type":"Point"},"properties":{"osm_id":"7776132734","tag":{"amenity":"waste_disposal"}},"type":"Feature"},
	{"geometry":{"coordinates":[17.159053,48.174578],"type":"Point"},"properties":{"osm_id":"7905477078","tag":{"amenity":"waste_basket"}},"type":"Feature"},
	{"geometry":{"coordinates":[17.158667,48.174378],"type":"Point"},"properties":{"osm_id":"7905477079","tag":{"amenity":"waste_basket"}},"type":"Feature"},
	{"geometry":{"coordinates":[17.158992,48.174429],"type":"Point"},"properties":{"osm_id":"7905477082","tag":{"amenity":"waste_basket"}},"type":"Feature"}
]
}
