{
"type": "FeatureCollection",
"features": [
	{"geometry":{"coordinates":[17.149344,47.249866],"type":"Point"},"properties":{"osm_id":"293138901","tag":{"amenity":"recycling"}},"type":"Feature"},
	{"geometry":{"coordinates":[17.154283,47.256503],"type":"Point"},"properties":{"osm_id":"2961095041","tag":{"amenity":"waste_basket"}},"type":"Feature"},
	{"geometry":{"coordinates":[17.153632,47.256435],"type":"Point"},"properties":{"osm_id":"2961095042","tag":{"amenity":"waste_basket"}},"type":"Feature"},
	{"geometry":{"coordinates":[17.153571,47.256761],"type":"Point"},"properties":{"osm_id":"2961095043","tag":{"amenity":"waste_basket"}},"type":"Feature"},
	{"geometry":{"coordinates":[17.154198,47.256827],"type":"Point"},"properties":{"osm_id":"2961095044","tag":{"amenity":"waste_basket"}},"type":"Feature"},
	{"geometry":{"coordinates":[17.153136,47.263507],"type":"Point"},"properties":{"osm_id":"3407238149","tag":{"amenity":"recycling"}},"type":"Feature"},
	{"geometry":{"coordinates":[17.157333,47.2564],"type":"Point"},"properties":{"osm_id":"3487697745","tag":{"addr:street":"Celld\u00c3\u00b6m\u00c3\u00b6lk Fels\u00c5\u0091b\u00c3\u00bcki Nagy S\u00c3\u00a1ndor t\u00c3\u00a9r","amenity":"recycling","description":"A gimn\u00c3\u00a1zium el\u00c5\u0091tti park k\u00c3\u00b3rh\u00c3\u00a1z fel\u00c5\u0091li oldal\u00c3\u00a1n","source:date":"2011-09-06","url":"http://turistautak.hu/poi.php?id=81407"}},"type":"Feature"}
]
}
