{
"type": "FeatureCollection",
"features": [
	{"geometry":{"coordinates":[17.222907,40.994366],"type":"Point"},"properties":{"osm_id":"1537516807","tag":{"amenity":"recycling","recycling:cans":"yes","recycling:glass":"yes","recycling:paper":"yes","recycling_type":"container"}},"type":"Feature"},
	{"geometry":{"coordinates":[17.218815,40.995226],"type":"Point"},"properties":{"osm_id":"5855772867","tag":{"amenity":"waste_basket"}},"type":"Feature"},
	{"geometry":{"coordinates":[17.220257,40.994232],"type":"Point"},"properties":{"osm_id":"5865158998","tag":{"amenity":"waste_basket"}},"type":"Feature"},
	{"geometry":{"coordinates":[17.220101,40.996206],"type":"Point"},"properties":{"osm_id":"5894053966","tag":{"amenity":"recycling","recycling:cans":"yes","recycling:glass":"yes","recycling:paper":"yes","recycling:plastic":"yes","recycling:plastic_bottles":"yes","recycling:plastic_packaging":"yes","recycling:scrap_metal":"yes","recycling_type":"container"}},"type":"Feature"},
	{"geometry":{"coordinates":[17.220204,40.994762],"type":"Point"},"properties":{"osm_id":"5899835444","tag":{"amenity":"waste_basket"}},"type":"Feature"},
	{"geometry":{"coordinates":[17.219923,40.994923],"type":"Point"},"properties":{"osm_id":"5899835467","tag":{"amenity":"waste_basket"}},"type":"Feature"},
	{"geometry":{"coordinates":[17.219737,40.994922],"type":"Point"},"properties":{"osm_id":"5899835475","tag":{"amenity":"waste_basket"}},"type":"Feature"},
	{"geometry":{"coordinates":[17.222948,40.989797],"type":"Point"},"properties":{"highway":"stop","osm_id":"7876148865","tag":{"direction":"forward"}},"type":"Feature"},
	{"geometry":{"coordinates":[17.219046,40.997152],"type":"Point"},"properties":{"osm_id":"7902886883","tag":{"amenity":"waste_basket","waste":"cigarettes"}},"type":"Feature"}
]
}
