{
"type": "FeatureCollection",
"features": [
	{"geometry":{"coordinates":[-105.591993,41.311034],"type":"Point"},"properties":{"osm_id":"1435921849","tag":{"amenity":"waste_basket"}},"type":"Feature"},
	{"geometry":{"coordinates":[-105.591784,41.311022],"type":"Point"},"properties":{"osm_id":"1435921854","tag":{"amenity":"waste_basket"}},"type":"Feature"},
	{"geometry":{"coordinates":[-105.629393,41.314291],"type":"Point"},"properties":{"osm_id":"1435923109","tag":{"amenity":"recycling","recycling:green_waste":"yes","recycling_type":"container"}},"type":"Feature"},
	{"geometry":{"coordinates":[-105.628437,41.314658],"type":"Point"},"properties":{"osm_id":"1435923113","tag":{"amenity":"recycling","designation":"Aluminum Can Recycling","recycling:cans":"yes","recycling_type":"container"}},"type":"Feature"},
	{"geometry":{"coordinates":[-105.567018,41.323264],"type":"Point"},"properties":{"name":"Green Waste Drop-off","osm_id":"1435933079","tag":{"amenity":"recycling","recycling_type":"container"}},"type":"Feature"},
	{"geometry":{"coordinates":[-105.566731,41.32412],"type":"Point"},"properties":{"osm_id":"1435933103","tag":{"amenity":"recycling","recycling:cardboard":"yes","recycling:paper":"yes","recycling_type":"container"}},"type":"Feature"},
	{"geometry":{"coordinates":[-105.585487,41.320758],"type":"Point"},"properties":{"osm_id":"4243113584","tag":{"amenity":"recycling","operator":"City of Laramie","recycling:green_waste":"yes","recycling_type":"container"}},"type":"Feature"},
	{"geometry":{"coordinates":[-105.578804,41.317905],"type":"Point"},"properties":{"osm_id":"6287095012","tag":{"amenity":"waste_basket"}},"type":"Feature"},
	{"geometry":{"coordinates":[-105.578647,41.318176],"type":"Point"},"properties":{"osm_id":"6287095017","tag":{"amenity":"waste_basket"}},"type":"Feature"}
]
}
