{
"type": "FeatureCollection",
"features": [
	{"geometry":{"coordinates":[-105.610034,41.299816],"type":"Point"},"properties":{"name":"Trash can/Picnic Table","osm_id":"1435932617","tag":{"amenity":"waste_basket","cmt":"17-SEP-11 2:25:22PM"}},"type":"Feature"},
	{"geometry":{"coordinates":[-105.603441,41.292096],"type":"Point"},"properties":{"name":"Trash Can","osm_id":"1435932656","tag":{"amenity":"waste_basket","cmt":"17-SEP-11 2:42:24PM"}},"type":"Feature"},
	{"geometry":{"coordinates":[-105.605084,41.295325],"type":"Point"},"properties":{"name":"Trash can","osm_id":"1435932668","tag":{"amenity":"waste_basket","cmt":"17-SEP-11 2:46:49PM"}},"type":"Feature"},
	{"geometry":{"coordinates":[-105.605809,41.296459],"type":"Point"},"properties":{"name":"Trash Can","osm_id":"1435932681","tag":{"amenity":"waste_basket","cmt":"17-SEP-11 2:48:45PM"}},"type":"Feature"},
	{"geometry":{"coordinates":[-105.573151,41.306288],"type":"Point"},"properties":{"osm_id":"1435969530","tag":{"amenity":"waste_basket"}},"type":"Feature"},
	{"geometry":{"coordinates":[-105.580737,41.29202],"type":"Point"},"properties":{"name":"Green Waste Drop-off","osm_id":"1435983219","tag":{"amenity":"recycling","recycling_type":"container"}},"type":"Feature"},
	{"geometry":{"coordinates":[-105.56751,41.306726],"type":"Point"},"properties":{"osm_id":"1435993090","tag":{"amenity":"waste_basket"}},"type":"Feature"},
	{"geometry":{"coordinates":[-105.568443,41.306302],"type":"Point"},"properties":{"name":"Garbage Can/Recyling","osm_id":"1435993095","tag":{"amenity":"waste_basket"}},"type":"Feature"},
	{"geometry":{"coordinates":[-105.591302,41.305996],"type":"Point"},"properties":{"osm_id":"1435995984","tag":{"amenity":"waste_basket"}},"type":"Feature"},
	{"geometry":{"coordinates":[-105.591271,41.305464],"type":"Point"},"properties":{"osm_id":"1435996046","tag":{"amenity":"waste_basket"}},"type":"Feature"},
	{"geometry":{"coordinates":[-105.59143,41.305162],"type":"Point"},"properties":{"osm_id":"1436006286","tag":{"amenity":"waste_basket"}},"type":"Feature"},
	{"geometry":{"coordinates":[-105.591404,41.305027],"type":"Point"},"properties":{"osm_id":"1436006295","tag":{"amenity":"waste_basket"}},"type":"Feature"},
	{"geometry":{"coordinates":[-105.570923,41.307194],"type":"Point"},"properties":{"osm_id":"1436015857","tag":{"amenity":"waste_basket"}},"type":"Feature"},
	{"geometry":{"coordinates":[-105.567554,41.307043],"type":"Point"},"properties":{"name":"Wheel Chair Access\\Garbage Can","osm_id":"1436015881","tag":{"amenity":"waste_basket"}},"type":"Feature"},
	{"geometry":{"coordinates":[-105.564976,41.303922],"type":"Point"},"properties":{"osm_id":"1436017894","tag":{"amenity":"recycling","recycling:cans":"yes","recycling_type":"container"}},"type":"Feature"},
	{"geometry":{"coordinates":[-105.562025,41.301634],"type":"Point"},"properties":{"osm_id":"1436021824","tag":{"amenity":"recycling","recycling:green_waste":"yes","recycling_type":"container"}},"type":"Feature"},
	{"geometry":{"coordinates":[-105.562335,41.309784],"type":"Point"},"properties":{"osm_id":"1436027658","tag":{"amenity":"waste_basket"}},"type":"Feature"},
	{"geometry":{"coordinates":[-105.572842,41.307285],"type":"Point"},"properties":{"osm_id":"1436032093","tag":{"amenity":"waste_basket"}},"type":"Feature"},
	{"geometry":{"coordinates":[-105.570213,41.306587],"type":"Point"},"properties":{"osm_id":"1436032107","tag":{"amenity":"waste_basket"}},"type":"Feature"}
]
}
