{
"type": "FeatureCollection",
"features": [
	{"geometry":{"coordinates":[-105.608092,40.320508],"type":"Point"},"properties":{"osm_id":"4406251996","tag":{"amenity":"waste_disposal"}},"type":"Feature"},
	{"geometry":{"coordinates":[-105.595252,40.329476],"type":"Point"},"properties":{"osm_id":"4406252044","tag":{"amenity":"waste_disposal"}},"type":"Feature"},
	{"geometry":{"coordinates":[-105.605833,40.361567],"type":"Point"},"properties":{"osm_id":"4417801697","tag":{"amenity":"waste_disposal"}},"type":"Feature"},
	{"geometry":{"coordinates":[-105.583983,40.358399],"type":"Point"},"properties":{"osm_id":"6819034962","tag":{"amenity":"waste_basket"}},"type":"Feature"},
	{"geometry":{"coordinates":[-105.572312,40.340323],"type":"Point"},"properties":{"osm_id":"7535542220","tag":{"amenity":"waste_basket","waste":"trash"}},"type":"Feature"},
	{"geometry":{"coordinates":[-105.572327,40.340319],"type":"Point"},"properties":{"osm_id":"7535542221","tag":{"amenity":"recycling","indoor":"no","recycling:plastic":"yes","recycling_type":"container"}},"type":"Feature"},
	{"geometry":{"coordinates":[-105.573043,40.338568],"type":"Point"},"properties":{"osm_id":"7539707306","tag":{"amenity":"waste_disposal"}},"type":"Feature"},
	{"geometry":{"coordinates":[-105.574039,40.338383],"type":"Point"},"properties":{"osm_id":"7543238681","tag":{"amenity":"waste_disposal"}},"type":"Feature"},
	{"geometry":{"coordinates":[-105.57631,40.339825],"type":"Point"},"properties":{"osm_id":"7552968676","tag":{"amenity":"waste_basket","colour":"brown","indoor":"yes","material":"plastic"}},"type":"Feature"},
	{"geometry":{"coordinates":[-105.576324,40.339781],"type":"Point"},"properties":{"osm_id":"7552968677","tag":{"amenity":"recycling","colour":"yellow","indoor":"yes","material":"plastic","recycling:plastic":"yes","recycling_type":"container"}},"type":"Feature"},
	{"geometry":{"coordinates":[-105.571997,40.337792],"type":"Point"},"properties":{"osm_id":"7552972833","tag":{"amenity":"waste_disposal","colour":"brown","material":"metal"}},"type":"Feature"},
	{"geometry":{"coordinates":[-105.57166,40.342403],"type":"Point"},"properties":{"osm_id":"7623474160","tag":{"amenity":"recycling","recycling_type":"container"}},"type":"Feature"},
	{"geometry":{"coordinates":[-105.571659,40.34241],"type":"Point"},"properties":{"osm_id":"7623474164","tag":{"amenity":"waste_basket"}},"type":"Feature"},
	{"geometry":{"coordinates":[-105.573919,40.336841],"type":"Point"},"properties":{"osm_id":"7637146612","tag":{"amenity":"waste_basket","colour":"dark brown","covered":"no","indoor":"no","material":"metal"}},"type":"Feature"},
	{"geometry":{"coordinates":[-105.575989,40.340549],"type":"Point"},"properties":{"osm_id":"7840481612","tag":{"amenity":"waste_basket","waste":"trash"}},"type":"Feature"},
	{"geometry":{"coordinates":[-105.575985,40.340558],"type":"Point"},"properties":{"osm_id":"7840481613","tag":{"amenity":"waste_basket","waste":"trash"}},"type":"Feature"},
	{"geometry":{"coordinates":[-105.574287,40.340475],"type":"Point"},"properties":{"osm_id":"7840481615","tag":{"amenity":"recycling","recycling:cans":"yes","recycling:plastic":"yes","recycling_type":"container"}},"type":"Feature"},
	{"geometry":{"coordinates":[-105.574287,40.340465],"type":"Point"},"properties":{"osm_id":"7840481616","tag":{"amenity":"waste_basket","waste":"trash"}},"type":"Feature"},
	{"geometry":{"coordinates":[-105.574288,40.340453],"type":"Point"},"properties":{"osm_id":"7840481618","tag":{"amenity":"waste_basket","fee":"no","vending":"excrement_bags","waste":"dog_excrement"}},"type":"Feature"},
	{"geometry":{"coordinates":[-105.575586,40.340321],"type":"Point"},"properties":{"osm_id":"7840481624","tag":{"amenity":"waste_basket","fee":"no","vending":"excrement_bags","waste":"dog_excrement"}},"type":"Feature"},
	{"geometry":{"coordinates":[-105.57662,40.337956],"type":"Point"},"properties":{"osm_id":"7840546315","tag":{"amenity":"waste_basket","fee":"no","vending":"excrement_bags","waste":"dog_excrement"}},"type":"Feature"},
	{"geometry":{"coordinates":[-105.572197,40.340934],"type":"Point"},"properties":{"osm_id":"7843658508","tag":{"amenity":"waste_basket","fee":"no","vending":"excrement_bags","waste":"dog_excrement"}},"type":"Feature"},
	{"geometry":{"coordinates":[-105.572435,40.341073],"type":"Point"},"properties":{"osm_id":"7843658509","tag":{"amenity":"recycling","indoor":"no","recycling:plastic":"yes","recycling_type":"container"}},"type":"Feature"},
	{"geometry":{"coordinates":[-105.572432,40.341069],"type":"Point"},"properties":{"osm_id":"7843658510","tag":{"amenity":"waste_basket","waste":"trash"}},"type":"Feature"},
	{"geometry":{"coordinates":[-105.57206,40.341115],"type":"Point"},"properties":{"osm_id":"7843658511","tag":{"amenity":"recycling","indoor":"no","recycling:plastic":"yes","recycling_type":"container"}},"type":"Feature"},
	{"geometry":{"coordinates":[-105.572057,40.341111],"type":"Point"},"properties":{"osm_id":"7843658512","tag":{"amenity":"waste_basket","waste":"trash"}},"type":"Feature"},
	{"geometry":{"coordinates":[-105.572219,40.34093],"type":"Point"},"properties":{"osm_id":"7843658513","tag":{"amenity":"recycling","indoor":"no","recycling:plastic":"yes","recycling_type":"container"}},"type":"Feature"},
	{"geometry":{"coordinates":[-105.572211,40.340931],"type":"Point"},"properties":{"osm_id":"7843658514","tag":{"amenity":"waste_basket","waste":"trash"}},"type":"Feature"},
	{"geometry":{"coordinates":[-105.569794,40.340308],"type":"Point"},"properties":{"osm_id":"7846808670","tag":{"amenity":"waste_basket","waste":"trash"}},"type":"Feature"},
	{"geometry":{"coordinates":[-105.566927,40.338059],"type":"Point"},"properties":{"osm_id":"7847358206","tag":{"amenity":"waste_basket","waste":"trash"}},"type":"Feature"},
	{"geometry":{"coordinates":[-105.56693,40.338064],"type":"Point"},"properties":{"osm_id":"7847358207","tag":{"amenity":"recycling","indoor":"no","recycling:plastic":"yes","recycling_type":"container"}},"type":"Feature"},
	{"geometry":{"coordinates":[-105.631134,40.354793],"type":"Point"},"properties":{"osm_id":"7851576501","tag":{"amenity":"recycling","recycling:cans":"yes","recycling:glass":"yes","recycling:plastic":"yes","recycling_type":"container"}},"type":"Feature"},
	{"geometry":{"coordinates":[-105.631125,40.354792],"type":"Point"},"properties":{"osm_id":"7851576502","tag":{"amenity":"waste_basket","waste":"trash"}},"type":"Feature"},
	{"geometry":{"coordinates":[-105.619153,40.357379],"type":"Point"},"properties":{"osm_id":"7851576504","tag":{"amenity":"recycling","recycling:cans":"yes","recycling:glass":"yes","recycling:plastic":"yes","recycling_type":"container"}},"type":"Feature"},
	{"geometry":{"coordinates":[-105.619162,40.357393],"type":"Point"},"properties":{"osm_id":"7851576505","tag":{"amenity":"waste_basket","waste":"trash"}},"type":"Feature"}
]
}
