{
"type": "FeatureCollection",
"lastupdate": "2020-08-06T00:00:00Z",
"features": [
	{"geometry":{"coordinates":[135.821332,35.123501],"type":"Point"},"properties":{"osm_id":"3698397910","tag":{"amenity":"waste_basket"}},"type":"Feature"},
	{"geometry":{"coordinates":[135.821341,35.123502],"type":"Point"},"properties":{"osm_id":"3698397911","tag":{"amenity":"waste_basket"}},"type":"Feature"},
	{"geometry":{"coordinates":[135.821512,35.123514],"type":"Point"},"properties":{"osm_id":"3698397914","tag":{"amenity":"waste_basket"}},"type":"Feature"},
	{"geometry":{"coordinates":[135.821528,35.123514],"type":"Point"},"properties":{"osm_id":"3698397915","tag":{"amenity":"waste_basket"}},"type":"Feature"},
	{"geometry":{"coordinates":[135.83356,35.11897],"type":"Point"},"properties":{"osm_id":"6130899854","tag":{"amenity":"waste_basket"}},"type":"Feature"},
	{"geometry":{"coordinates":[135.833499,35.118793],"type":"Point"},"properties":{"osm_id":"6130899873","tag":{"amenity":"waste_basket"}},"type":"Feature"},
	{"geometry":{"coordinates":[135.869064,35.154592],"type":"Point"},"properties":{"name":"\u00e5\u008c\u0097\u00e9\u0083\u00a8\u00e3\u0082\u00af\u00e3\u0083\u00aa\u00e3\u0083\u00bc\u00e3\u0083\u00b3\u00e3\u0082\u00bb\u00e3\u0083\u00b3\u00e3\u0082\u00bf\u00e3\u0083\u00bc","osm_id":"6693653385","tag":{"amenity":"recycling","phone":"0775281761"}},"type":"Feature"}
]
}
