{
"type": "FeatureCollection",
"features": [
	{"geometry":{"coordinates":[135.875289,35.007804],"type":"Point"},"properties":{"name":"\u00e3\u0083\u0096\u00e3\u0083\u00a9\u00e3\u0083\u0083\u00e3\u0082\u00af\u00e3\u0083\u0090\u00e3\u0082\u00b9\u00e5\u009b\u009e\u00e5\u008f\u008e\u00e3\u0083\u009c\u00e3\u0083\u0083\u00e3\u0082\u00af\u00e3\u0082\u00b9","osm_id":"3555422910","tag":{"amenity":"waste_basket","waste":"Exotic fish"}},"type":"Feature"},
	{"geometry":{"coordinates":[135.873314,35.008587],"type":"Point"},"properties":{"name":"\u00e3\u0083\u0096\u00e3\u0083\u00a9\u00e3\u0083\u0083\u00e3\u0082\u00af\u00e3\u0083\u0090\u00e3\u0082\u00b9\u00e5\u009b\u009e\u00e5\u008f\u008e\u00e3\u0083\u009c\u00e3\u0083\u0083\u00e3\u0082\u00af\u00e3\u0082\u00b9","osm_id":"3555422911","tag":{"amenity":"waste_basket","waste":"Exotic fish"}},"type":"Feature"},
	{"geometry":{"coordinates":[135.794166,35.02728],"type":"Point"},"properties":{"osm_id":"3597595608","tag":{"amenity":"waste_basket"}},"type":"Feature"},
	{"geometry":{"coordinates":[135.796434,35.027188],"type":"Point"},"properties":{"osm_id":"3598159569","tag":{"amenity":"recycling"}},"type":"Feature"},
	{"geometry":{"coordinates":[135.797309,35.027663],"type":"Point"},"properties":{"osm_id":"3606930422","tag":{"amenity":"recycling"}},"type":"Feature"},
	{"geometry":{"coordinates":[135.795565,35.026586],"type":"Point"},"properties":{"osm_id":"3618535354","tag":{"amenity":"waste_basket"}},"type":"Feature"},
	{"geometry":{"coordinates":[135.795457,35.02665],"type":"Point"},"properties":{"osm_id":"3618535361","tag":{"amenity":"waste_basket"}},"type":"Feature"},
	{"geometry":{"coordinates":[135.795295,35.026979],"type":"Point"},"properties":{"osm_id":"3618535385","tag":{"amenity":"waste_basket"}},"type":"Feature"},
	{"geometry":{"coordinates":[135.79513,35.027121],"type":"Point"},"properties":{"osm_id":"3618535391","tag":{"amenity":"waste_basket"}},"type":"Feature"},
	{"geometry":{"coordinates":[135.795081,35.027159],"type":"Point"},"properties":{"osm_id":"3618535392","tag":{"amenity":"waste_basket"}},"type":"Feature"},
	{"geometry":{"coordinates":[135.79625,35.024993],"type":"Point"},"properties":{"osm_id":"3621002245","tag":{"amenity":"waste_basket"}},"type":"Feature"},
	{"geometry":{"coordinates":[135.795986,35.025337],"type":"Point"},"properties":{"osm_id":"3621002260","tag":{"amenity":"waste_basket"}},"type":"Feature"},
	{"geometry":{"coordinates":[135.79565,35.025758],"type":"Point"},"properties":{"osm_id":"3621002284","tag":{"amenity":"waste_basket"}},"type":"Feature"},
	{"geometry":{"coordinates":[135.793544,35.027425],"type":"Point"},"properties":{"osm_id":"3659559448","tag":{"amenity":"waste_basket"}},"type":"Feature"},
	{"geometry":{"coordinates":[135.793202,35.027506],"type":"Point"},"properties":{"osm_id":"3659559449","tag":{"amenity":"waste_basket"}},"type":"Feature"},
	{"geometry":{"coordinates":[135.795988,35.0255],"type":"Point"},"properties":{"osm_id":"5116839991","tag":{"amenity":"recycling","recycling:plastic_bottles":"yes"}},"type":"Feature"},
	{"geometry":{"coordinates":[135.817473,34.990596],"type":"Point"},"properties":{"osm_id":"5295528972","tag":{"amenity":"waste_basket"}},"type":"Feature"},
	{"geometry":{"coordinates":[135.809877,34.966003],"type":"Point"},"properties":{"osm_id":"5348420050","tag":{"amenity":"waste_basket"}},"type":"Feature"},
	{"geometry":{"coordinates":[135.810044,34.966019],"type":"Point"},"properties":{"osm_id":"5348420051","tag":{"amenity":"waste_basket"}},"type":"Feature"},
	{"geometry":{"coordinates":[135.817569,35.001774],"type":"Point"},"properties":{"osm_id":"6388634813","tag":{"amenity":"waste_basket"}},"type":"Feature"}
]
}
