{
"type": "FeatureCollection",
"features": [
	{"geometry":{"coordinates":[-104.772489,38.880016],"type":"Point"},"properties":{"osm_id":"2721626217","tag":{"amenity":"waste_basket"}},"type":"Feature"},
	{"geometry":{"coordinates":[-104.773657,38.88631],"type":"Point"},"properties":{"osm_id":"3099951792","tag":{"amenity":"waste_basket"}},"type":"Feature"},
	{"geometry":{"coordinates":[-104.815376,38.877172],"type":"Point"},"properties":{"name":"Keen Recycling","osm_id":"3884248621","tag":{"addr:city":"Colorado Springs","addr:housenumber":"3111","addr:postcode":"80907","addr:state":"CO","addr:street":"Stone Avenue","amenity":"recycling","operator":"Keen Recycling","phone":"719-203-4413","recycling:cans":"yes","recycling:glass":"yes","recycling:glass_bottles":"yes","recycling:paper":"yes","recycling:plastic":"yes","recycling_type":"centre","website":"keenrecycling.com"}},"type":"Feature"},
	{"geometry":{"coordinates":[-104.803659,38.854246],"type":"Point"},"properties":{"osm_id":"4340499491","tag":{"amenity":"waste_basket"}},"type":"Feature"},
	{"geometry":{"coordinates":[-104.803583,38.854343],"type":"Point"},"properties":{"osm_id":"4340499492","tag":{"amenity":"waste_basket"}},"type":"Feature"},
	{"geometry":{"coordinates":[-104.803642,38.854073],"type":"Point"},"properties":{"osm_id":"4340522092","tag":{"amenity":"waste_basket"}},"type":"Feature"},
	{"geometry":{"coordinates":[-104.784994,38.828724],"type":"Point"},"properties":{"osm_id":"5225494145","tag":{"amenity":"waste_disposal"}},"type":"Feature"},
	{"geometry":{"coordinates":[-104.785995,38.828448],"type":"Point"},"properties":{"osm_id":"5225494146","tag":{"amenity":"waste_disposal"}},"type":"Feature"},
	{"geometry":{"coordinates":[-104.785678,38.828004],"type":"Point"},"properties":{"osm_id":"5225494147","tag":{"amenity":"waste_disposal"}},"type":"Feature"},
	{"geometry":{"coordinates":[-104.783899,38.829202],"type":"Point"},"properties":{"osm_id":"5225494148","tag":{"amenity":"waste_disposal"}},"type":"Feature"},
	{"geometry":{"coordinates":[-104.783674,38.828037],"type":"Point"},"properties":{"osm_id":"5225494149","tag":{"amenity":"waste_disposal"}},"type":"Feature"},
	{"geometry":{"coordinates":[-104.783166,38.829741],"type":"Point"},"properties":{"osm_id":"5225494150","tag":{"amenity":"waste_disposal"}},"type":"Feature"}
]
}
