{
"type": "FeatureCollection",
"features": [
	{"geometry":{"coordinates":[1.501908,52.66556],"type":"Point"},"properties":{"osm_id":"3607711538","tag":{"amenity":"waste_basket","waste":"dog_excrement"}},"type":"Feature"},
	{"geometry":{"coordinates":[1.512931,52.669281],"type":"Point"},"properties":{"osm_id":"3607711568","tag":{"amenity":"waste_basket","waste":"dog_excrement"}},"type":"Feature"},
	{"geometry":{"coordinates":[1.53957,52.658216],"type":"Point"},"properties":{"osm_id":"3607711576","tag":{"amenity":"waste_basket","waste":"dog_excrement"}},"type":"Feature"},
	{"geometry":{"coordinates":[1.542629,52.657532],"type":"Point"},"properties":{"osm_id":"3607711675","tag":{"amenity":"waste_basket","waste":"dog_excrement"}},"type":"Feature"},
	{"geometry":{"coordinates":[1.539433,52.658243],"type":"Point"},"properties":{"osm_id":"3607711804","tag":{"amenity":"waste_basket"}},"type":"Feature"},
	{"geometry":{"coordinates":[1.542612,52.65754],"type":"Point"},"properties":{"osm_id":"3607711811","tag":{"amenity":"waste_basket"}},"type":"Feature"},
	{"geometry":{"coordinates":[1.551359,52.659536],"type":"Point"},"properties":{"osm_id":"5063565223","tag":{"amenity":"waste_basket"}},"type":"Feature"},
	{"geometry":{"coordinates":[1.547577,52.643066],"type":"Point"},"properties":{"osm_id":"7880606025","tag":{"amenity":"waste_basket","colour":"red","inscription":"No litter","waste":"dog_excrement"}},"type":"Feature"},
	{"geometry":{"coordinates":[1.547581,52.643082],"type":"Point"},"properties":{"osm_id":"7880606026","tag":{"amenity":"waste_basket","colour":"green","waste":"trash"}},"type":"Feature"},
	{"geometry":{"coordinates":[1.545123,52.656797],"type":"Point"},"properties":{"osm_id":"7880606048","tag":{"amenity":"waste_basket","waste":"dog_excrement"}},"type":"Feature"}
]
}
