{
"type": "FeatureCollection",
"features": [
	{"geometry":{"coordinates":[1.569118,52.45573],"type":"Point"},"properties":{"osm_id":"1562508755","tag":{"amenity":"recycling"}},"type":"Feature"},
	{"geometry":{"coordinates":[1.515989,52.472642],"type":"Point"},"properties":{"osm_id":"5733802689","tag":{"amenity":"waste_basket"}},"type":"Feature"},
	{"geometry":{"coordinates":[1.564649,52.461182],"type":"Point"},"properties":{"osm_id":"7795142385","tag":{"amenity":"recycling","recycling:glass":"yes","recycling_type":"container"}},"type":"Feature"},
	{"geometry":{"coordinates":[1.563836,52.463701],"type":"Point"},"properties":{"osm_id":"7795142444","tag":{"amenity":"waste_basket"}},"type":"Feature"},
	{"geometry":{"coordinates":[1.561913,52.460253],"type":"Point"},"properties":{"osm_id":"7796809084","tag":{"amenity":"waste_basket"}},"type":"Feature"},
	{"geometry":{"coordinates":[1.569518,52.449545],"type":"Point"},"properties":{"osm_id":"8592779082","tag":{"amenity":"waste_basket"}},"type":"Feature"},
	{"geometry":{"coordinates":[1.56366,52.461137],"type":"Point"},"properties":{"osm_id":"8592995615","tag":{"amenity":"waste_basket","waste":"dog_excrement"}},"type":"Feature"},
	{"geometry":{"coordinates":[1.562788,52.457837],"type":"Point"},"properties":{"osm_id":"8595095577","tag":{"amenity":"waste_basket"}},"type":"Feature"},
	{"geometry":{"coordinates":[1.563958,52.455787],"type":"Point"},"properties":{"osm_id":"8595698001","tag":{"amenity":"waste_basket"}},"type":"Feature"},
	{"geometry":{"coordinates":[1.563929,52.451769],"type":"Point"},"properties":{"osm_id":"8599973797","tag":{"amenity":"waste_basket"}},"type":"Feature"},
	{"geometry":{"coordinates":[1.569936,52.449216],"type":"Point"},"properties":{"osm_id":"8599976684","tag":{"amenity":"recycling","operator":"Salvation Army","recycling:clothes":"yes","recycling:shoes":"yes","recycling_type":"container"}},"type":"Feature"},
	{"geometry":{"coordinates":[1.568079,52.445871],"type":"Point"},"properties":{"osm_id":"8599976694","tag":{"amenity":"waste_basket"}},"type":"Feature"},
	{"geometry":{"coordinates":[1.567678,52.445839],"type":"Point"},"properties":{"osm_id":"8599976695","tag":{"amenity":"waste_basket"}},"type":"Feature"},
	{"geometry":{"coordinates":[1.563306,52.449492],"type":"Point"},"properties":{"osm_id":"8599976749","tag":{"amenity":"recycling","recycling:glass":"yes","recycling_type":"container"}},"type":"Feature"},
	{"geometry":{"coordinates":[1.558726,52.45464],"type":"Point"},"properties":{"osm_id":"8599976836","tag":{"amenity":"waste_basket"}},"type":"Feature"},
	{"geometry":{"coordinates":[1.560331,52.455949],"type":"Point"},"properties":{"osm_id":"8599976899","tag":{"amenity":"waste_basket"}},"type":"Feature"},
	{"geometry":{"coordinates":[1.565596,52.45622],"type":"Point"},"properties":{"osm_id":"8620984842","tag":{"amenity":"waste_basket","waste":"dog_excrement"}},"type":"Feature"},
	{"geometry":{"coordinates":[1.565526,52.455895],"type":"Point"},"properties":{"osm_id":"8622048021","tag":{"amenity":"waste_basket"}},"type":"Feature"},
	{"geometry":{"coordinates":[1.567865,52.454051],"type":"Point"},"properties":{"osm_id":"8622427807","tag":{"amenity":"waste_basket"}},"type":"Feature"},
	{"geometry":{"coordinates":[1.576965,52.447144],"type":"Point"},"properties":{"osm_id":"8625517147","tag":{"amenity":"waste_basket","waste":"dog_excrement"}},"type":"Feature"},
	{"geometry":{"coordinates":[1.574716,52.448661],"type":"Point"},"properties":{"osm_id":"8625517167","tag":{"amenity":"waste_basket"}},"type":"Feature"},
	{"geometry":{"coordinates":[1.569091,52.450534],"type":"Point"},"properties":{"osm_id":"8625517189","tag":{"amenity":"waste_basket","waste":"dog_excrement"}},"type":"Feature"},
	{"geometry":{"coordinates":[1.568791,52.451902],"type":"Point"},"properties":{"osm_id":"8625517201","tag":{"amenity":"waste_basket"}},"type":"Feature"},
	{"geometry":{"coordinates":[1.557751,52.446899],"type":"Point"},"properties":{"osm_id":"8634567029","tag":{"amenity":"waste_basket","waste":"dog_excrement"}},"type":"Feature"},
	{"geometry":{"coordinates":[1.561233,52.449998],"type":"Point"},"properties":{"osm_id":"8662420551","tag":{"amenity":"waste_basket","waste":"dog_excrement"}},"type":"Feature"},
	{"geometry":{"coordinates":[1.569688,52.448951],"type":"Point"},"properties":{"osm_id":"8662505272","tag":{"amenity":"waste_basket"}},"type":"Feature"},
	{"geometry":{"coordinates":[1.566945,52.450525],"type":"Point"},"properties":{"osm_id":"8662594849","tag":{"amenity":"waste_basket"}},"type":"Feature"},
	{"geometry":{"coordinates":[1.5639,52.457283],"type":"Point"},"properties":{"osm_id":"8692928899","tag":{"amenity":"waste_basket"}},"type":"Feature"},
	{"geometry":{"coordinates":[1.563141,52.457583],"type":"Point"},"properties":{"osm_id":"8692948063","tag":{"amenity":"waste_basket"}},"type":"Feature"},
	{"geometry":{"coordinates":[1.563076,52.457543],"type":"Point"},"properties":{"osm_id":"8692948064","tag":{"amenity":"waste_basket"}},"type":"Feature"},
	{"geometry":{"coordinates":[1.562968,52.456972],"type":"Point"},"properties":{"osm_id":"8692948103","tag":{"amenity":"waste_basket"}},"type":"Feature"},
	{"geometry":{"coordinates":[1.568922,52.460702],"type":"Point"},"properties":{"osm_id":"8694022075","tag":{"amenity":"waste_basket"}},"type":"Feature"},
	{"geometry":{"coordinates":[1.564424,52.463049],"type":"Point"},"properties":{"osm_id":"8694024209","tag":{"amenity":"waste_basket","waste":"dog_excrement"}},"type":"Feature"},
	{"geometry":{"coordinates":[1.563256,52.459533],"type":"Point"},"properties":{"osm_id":"8694288094","tag":{"amenity":"waste_basket"}},"type":"Feature"},
	{"geometry":{"coordinates":[1.563092,52.459425],"type":"Point"},"properties":{"osm_id":"8694288095","tag":{"amenity":"waste_basket"}},"type":"Feature"},
	{"geometry":{"coordinates":[1.562942,52.459431],"type":"Point"},"properties":{"osm_id":"8694288097","tag":{"amenity":"waste_basket"}},"type":"Feature"},
	{"geometry":{"coordinates":[1.56465,52.464672],"type":"Point"},"properties":{"osm_id":"9171859070","tag":{"amenity":"waste_basket","colour":"green","inscription":"Dog waste only","waste":"dog_excrement"}},"type":"Feature"},
	{"geometry":{"coordinates":[1.561237,52.45855],"type":"Point"},"properties":{"osm_id":"9171859077","tag":{"amenity":"waste_basket","colour":"black","waste":"trash"}},"type":"Feature"},
	{"geometry":{"coordinates":[1.556995,52.455251],"type":"Point"},"properties":{"osm_id":"9171859099","tag":{"amenity":"waste_basket","inscription":"Litter","waste":"trash"}},"type":"Feature"},
	{"geometry":{"coordinates":[1.51286,52.46974],"type":"Point"},"properties":{"osm_id":"9171867607","tag":{"amenity":"waste_basket","colour":"blue","inscription":"Dog waste only","waste":"dog_excrement"}},"type":"Feature"},
	{"geometry":{"coordinates":[1.514488,52.473053],"type":"Point"},"properties":{"osm_id":"9171867632","tag":{"amenity":"waste_basket","colour":"green","waste":"trash"}},"type":"Feature"},
	{"geometry":{"coordinates":[1.516151,52.472523],"type":"Point"},"properties":{"osm_id":"9171867641","tag":{"amenity":"waste_basket","colour":"blue","waste":"trash"}},"type":"Feature"},
	{"geometry":{"coordinates":[1.51614,52.472513],"type":"Point"},"properties":{"osm_id":"9171867642","tag":{"amenity":"recycling","colour":"red","recycling:glass":"yes"}},"type":"Feature"},
	{"geometry":{"coordinates":[1.516451,52.472402],"type":"Point"},"properties":{"osm_id":"9171867644","tag":{"amenity":"waste_basket","colour":"red","inscription":"Dog waste only","waste":"dog_excrement"}},"type":"Feature"},
	{"geometry":{"coordinates":[1.51644,52.47241],"type":"Point"},"properties":{"osm_id":"9171867645","tag":{"amenity":"waste_basket","waste":"trash"}},"type":"Feature"},
	{"geometry":{"coordinates":[1.563725,52.466087],"type":"Point"},"properties":{"osm_id":"9171867885","tag":{"amenity":"waste_basket","colour":"grey","waste":"trash"}},"type":"Feature"}
]
}
