{
"type": "FeatureCollection",
"features": [
	{"geometry":{"coordinates":[1.566446,45.415715],"type":"Point"},"properties":{"osm_id":"601537094","tag":{"amenity":"recycling","recycling:paper":"yes","recycling_type":"container"}},"type":"Feature"},
	{"geometry":{"coordinates":[1.567194,45.426385],"type":"Point"},"properties":{"osm_id":"601537135","tag":{"amenity":"waste_basket"}},"type":"Feature"},
	{"geometry":{"coordinates":[1.567057,45.428582],"type":"Point"},"properties":{"osm_id":"601537147","tag":{"amenity":"recycling","recycling:glass":"yes","recycling:paper":"yes","recycling_type":"container"}},"type":"Feature"},
	{"geometry":{"coordinates":[1.568039,45.400382],"type":"Point"},"properties":{"name":"D\u00c3\u00a9ch\u00c3\u00a8terie 19 Uzerche","osm_id":"2231903091","tag":{"amenity":"recycling","recycling_type":"centre"}},"type":"Feature"},
	{"geometry":{"coordinates":[1.554796,45.45287],"type":"Point"},"properties":{"osm_id":"5711956319","tag":{"amenity":"waste_disposal"}},"type":"Feature"},
	{"geometry":{"coordinates":[1.566455,45.415685],"type":"Point"},"properties":{"osm_id":"7506168071","tag":{"amenity":"recycling","recycling:glass_bottles":"yes","recycling_type":"container"}},"type":"Feature"},
	{"geometry":{"coordinates":[1.566436,45.415744],"type":"Point"},"properties":{"osm_id":"7506168072","tag":{"amenity":"recycling","recycling:plastic":"yes","recycling_type":"container"}},"type":"Feature"},
	{"geometry":{"coordinates":[1.565912,45.424335],"type":"Point"},"properties":{"osm_id":"7825996554","tag":{"amenity":"waste_basket"}},"type":"Feature"}
]
}
