{
"type": "FeatureCollection",
"features": [
	{"geometry":{"coordinates":[1.556645,45.165156],"type":"Point"},"properties":{"osm_id":"2489363396","tag":{"amenity":"recycling"}},"type":"Feature"},
	{"geometry":{"coordinates":[1.532858,45.160165],"type":"Point"},"properties":{"osm_id":"3545482056","tag":{"amenity":"waste_basket"}},"type":"Feature"},
	{"geometry":{"coordinates":[1.525928,45.166189],"type":"Point"},"properties":{"osm_id":"3609373652","tag":{"amenity":"recycling","recycling:glass":"yes"}},"type":"Feature"},
	{"geometry":{"coordinates":[1.535822,45.164611],"type":"Point"},"properties":{"osm_id":"3656285926","tag":{"addr:street":"Quai Tourny","amenity":"waste_basket"}},"type":"Feature"},
	{"geometry":{"coordinates":[1.536145,45.164243],"type":"Point"},"properties":{"osm_id":"3656289525","tag":{"addr:street":"Quai Tourny","amenity":"waste_basket"}},"type":"Feature"},
	{"geometry":{"coordinates":[1.566553,45.170383],"type":"Point"},"properties":{"osm_id":"4988148900","tag":{"amenity":"recycling","recycling_type":"container"}},"type":"Feature"},
	{"geometry":{"coordinates":[1.553956,45.158444],"type":"Point"},"properties":{"name":"Ressourcerie Gaillarde","osm_id":"6546975840","tag":{"amenity":"recycling","brand":"Ressourcerie","collection_times":"Tu-Fr 09:00-13:00,14:00-18:00","contact:email":"ressourceriegaillarde@gmail.com","contact:phone":"+33 5 55 92 59 77","contact:website":"http://www.laressourceriegaillarde.fr","network":"R\u00c3\u00a9seau national des ressourceries","opening_hours":"Tu-Fr 14:00-18:00; Th off","recycling_type":"centre","second_hand":"only","shop":"second_hand"}},"type":"Feature"},
	{"geometry":{"coordinates":[1.581195,45.165742],"type":"Point"},"properties":{"name":"Dechetterie","osm_id":"7346937008","tag":{"amenity":"recycling","recycling_type":"centre"}},"type":"Feature"},
	{"geometry":{"coordinates":[1.507425,45.192766],"type":"Point"},"properties":{"osm_id":"7746401586","tag":{"amenity":"waste_basket","survey:date":"2020-07-25"}},"type":"Feature"},
	{"geometry":{"coordinates":[1.507574,45.192818],"type":"Point"},"properties":{"osm_id":"7746426885","tag":{"amenity":"waste_basket","survey:date":"2020-07-25"}},"type":"Feature"},
	{"geometry":{"coordinates":[1.528033,45.153421],"type":"Point"},"properties":{"osm_id":"8422128591","tag":{"amenity":"recycling","recycling:cardboard":"yes","recycling:glass":"yes","recycling:paper":"yes","recycling_type":"container"}},"type":"Feature"},
	{"geometry":{"coordinates":[1.529916,45.152395],"type":"Point"},"properties":{"osm_id":"8516317444","tag":{"amenity":"recycling","recycling_type":"container"}},"type":"Feature"},
	{"geometry":{"coordinates":[1.516945,45.162911],"type":"Point"},"properties":{"osm_id":"8612004545","tag":{"amenity":"waste_basket"}},"type":"Feature"},
	{"geometry":{"coordinates":[1.51427,45.161193],"type":"Point"},"properties":{"osm_id":"8612004548","tag":{"amenity":"waste_basket"}},"type":"Feature"},
	{"geometry":{"coordinates":[1.515444,45.161877],"type":"Point"},"properties":{"osm_id":"8612004549","tag":{"amenity":"waste_basket"}},"type":"Feature"},
	{"geometry":{"coordinates":[1.513644,45.160862],"type":"Point"},"properties":{"osm_id":"8612004552","tag":{"amenity":"waste_basket"}},"type":"Feature"},
	{"geometry":{"coordinates":[1.5174,45.163198],"type":"Point"},"properties":{"osm_id":"8612004557","tag":{"amenity":"waste_basket"}},"type":"Feature"},
	{"geometry":{"coordinates":[1.520457,45.163474],"type":"Point"},"properties":{"osm_id":"8612004559","tag":{"amenity":"waste_basket"}},"type":"Feature"},
	{"geometry":{"coordinates":[1.514771,45.161453],"type":"Point"},"properties":{"osm_id":"8612004560","tag":{"amenity":"waste_basket"}},"type":"Feature"},
	{"geometry":{"coordinates":[1.512243,45.16068],"type":"Point"},"properties":{"osm_id":"8612004562","tag":{"amenity":"waste_basket"}},"type":"Feature"},
	{"geometry":{"coordinates":[1.516147,45.162402],"type":"Point"},"properties":{"osm_id":"8612004566","tag":{"amenity":"waste_basket"}},"type":"Feature"},
	{"geometry":{"coordinates":[1.518145,45.163581],"type":"Point"},"properties":{"osm_id":"8612004568","tag":{"amenity":"waste_basket"}},"type":"Feature"},
	{"geometry":{"coordinates":[1.513929,45.160992],"type":"Point"},"properties":{"osm_id":"8612004569","tag":{"amenity":"waste_basket"}},"type":"Feature"},
	{"geometry":{"coordinates":[1.515143,45.161672],"type":"Point"},"properties":{"osm_id":"8612004570","tag":{"amenity":"waste_basket"}},"type":"Feature"},
	{"geometry":{"coordinates":[1.513641,45.164821],"type":"Point"},"properties":{"osm_id":"8613658120","tag":{"amenity":"recycling","recycling_type":"container"}},"type":"Feature"},
	{"geometry":{"coordinates":[1.500481,45.160319],"type":"Point"},"properties":{"osm_id":"8615110649","tag":{"amenity":"waste_basket"}},"type":"Feature"},
	{"geometry":{"coordinates":[1.500267,45.160181],"type":"Point"},"properties":{"osm_id":"8615110660","tag":{"amenity":"waste_basket"}},"type":"Feature"},
	{"geometry":{"coordinates":[1.546742,45.160006],"type":"Point"},"properties":{"osm_id":"8615908397","tag":{"amenity":"recycling","recycling_type":"container"}},"type":"Feature"}
]
}
