{
"type": "FeatureCollection",
"features": [
	{"geometry":{"coordinates":[1.541462,43.553678],"type":"Point"},"properties":{"osm_id":"482748142","tag":{"amenity":"recycling","location":"overground","operator":"Toulouse M\u00c3\u00a9tropole","recycling:glass":"no","recycling:glass_bottles":"yes","recycling_type":"container"}},"type":"Feature"},
	{"geometry":{"coordinates":[1.536318,43.54942],"type":"Point"},"properties":{"osm_id":"485305441","tag":{"amenity":"recycling","location":"overground","operator":"Toulouse M\u00c3\u00a9tropole","recycling:glass":"no","recycling:glass_bottles":"yes","recycling_type":"container"}},"type":"Feature"},
	{"geometry":{"coordinates":[1.552208,43.531803],"type":"Point"},"properties":{"osm_id":"490171208","tag":{"amenity":"recycling","recycling:glass":"yes","recycling:paper":"yes"}},"type":"Feature"},
	{"geometry":{"coordinates":[1.53328,43.548695],"type":"Point"},"properties":{"osm_id":"631674750","tag":{"amenity":"waste_basket"}},"type":"Feature"},
	{"geometry":{"coordinates":[1.533515,43.548568],"type":"Point"},"properties":{"osm_id":"631674751","tag":{"amenity":"waste_basket"}},"type":"Feature"},
	{"geometry":{"coordinates":[1.546675,43.518275],"type":"Point"},"properties":{"osm_id":"940809142","tag":{"amenity":"waste_basket"}},"type":"Feature"},
	{"geometry":{"coordinates":[1.513455,43.567375],"type":"Point"},"properties":{"osm_id":"1467939541","tag":{"amenity":"recycling","location":"overground","operator":"Toulouse M\u00c3\u00a9tropole","recycling:cans":"yes","recycling:cardboard":"yes","recycling:glass":"no","recycling:glass_bottles":"yes","recycling:paper":"yes","recycling:plastic_bottles":"yes","recycling_type":"container"}},"type":"Feature"},
	{"geometry":{"coordinates":[1.4944,43.577922],"type":"Point"},"properties":{"osm_id":"3874495374","tag":{"amenity":"waste_basket"}},"type":"Feature"},
	{"geometry":{"coordinates":[1.513074,43.539114],"type":"Point"},"properties":{"osm_id":"3898007999","tag":{"amenity":"waste_basket"}},"type":"Feature"},
	{"geometry":{"coordinates":[1.514986,43.536537],"type":"Point"},"properties":{"osm_id":"3898008001","tag":{"amenity":"waste_basket"}},"type":"Feature"},
	{"geometry":{"coordinates":[1.513386,43.538994],"type":"Point"},"properties":{"osm_id":"3898008002","tag":{"amenity":"waste_basket"}},"type":"Feature"},
	{"geometry":{"coordinates":[1.511203,43.537578],"type":"Point"},"properties":{"osm_id":"3898008006","tag":{"amenity":"waste_basket"}},"type":"Feature"},
	{"geometry":{"coordinates":[1.513013,43.538087],"type":"Point"},"properties":{"osm_id":"3898008007","tag":{"amenity":"waste_basket"}},"type":"Feature"},
	{"geometry":{"coordinates":[1.514203,43.538851],"type":"Point"},"properties":{"osm_id":"3898008008","tag":{"amenity":"waste_basket"}},"type":"Feature"},
	{"geometry":{"coordinates":[1.51147,43.538822],"type":"Point"},"properties":{"osm_id":"3898008009","tag":{"amenity":"waste_basket"}},"type":"Feature"},
	{"geometry":{"coordinates":[1.515346,43.537756],"type":"Point"},"properties":{"osm_id":"3898008016","tag":{"amenity":"waste_basket"}},"type":"Feature"},
	{"geometry":{"coordinates":[1.512579,43.538788],"type":"Point"},"properties":{"osm_id":"3898008017","tag":{"amenity":"waste_basket"}},"type":"Feature"},
	{"geometry":{"coordinates":[1.512822,43.537597],"type":"Point"},"properties":{"osm_id":"3898008021","tag":{"amenity":"waste_basket"}},"type":"Feature"},
	{"geometry":{"coordinates":[1.512756,43.537809],"type":"Point"},"properties":{"osm_id":"3898008027","tag":{"amenity":"waste_basket"}},"type":"Feature"},
	{"geometry":{"coordinates":[1.515029,43.53851],"type":"Point"},"properties":{"osm_id":"3898008028","tag":{"amenity":"waste_basket"}},"type":"Feature"},
	{"geometry":{"coordinates":[1.516002,43.536911],"type":"Point"},"properties":{"osm_id":"3898008029","tag":{"amenity":"waste_basket"}},"type":"Feature"},
	{"geometry":{"coordinates":[1.511804,43.537334],"type":"Point"},"properties":{"osm_id":"3898008032","tag":{"amenity":"waste_basket"}},"type":"Feature"},
	{"geometry":{"coordinates":[1.565036,43.557076],"type":"Point"},"properties":{"osm_id":"4450934628","tag":{"amenity":"recycling","opening_hours":"24/7","recycling:clothes":"yes","recycling:shoes":"yes","recycling_type":"container"}},"type":"Feature"},
	{"geometry":{"coordinates":[1.56452,43.557092],"type":"Point"},"properties":{"osm_id":"4450934629","tag":{"amenity":"recycling","opening_hours":"24/7","recycling:glass_bottles":"yes","recycling_type":"container"}},"type":"Feature"},
	{"geometry":{"coordinates":[1.567412,43.554792],"type":"Point"},"properties":{"osm_id":"4450981189","tag":{"amenity":"recycling","opening_hours":"24/7","recycling:glass_bottles":"yes","recycling:green_waste":"yes","recycling_type":"container"}},"type":"Feature"},
	{"geometry":{"coordinates":[1.558404,43.557904],"type":"Point"},"properties":{"osm_id":"4450981190","tag":{"amenity":"recycling","opening_hours":"24/7","recycling:glass_bottles":"yes","recycling_type":"container"}},"type":"Feature"},
	{"geometry":{"coordinates":[1.518848,43.564648],"type":"Point"},"properties":{"osm_id":"4566690444","tag":{"amenity":"recycling","recycling:glass_bottles":"yes","recycling_type":"container"}},"type":"Feature"},
	{"geometry":{"coordinates":[1.501072,43.574099],"type":"Point"},"properties":{"osm_id":"4593301208","tag":{"amenity":"recycling","location":"overground","operator":"Toulouse M\u00c3\u00a9tropole","recycling:glass":"no","recycling:glass_bottles":"yes","recycling_type":"container"}},"type":"Feature"},
	{"geometry":{"coordinates":[1.500192,43.57321],"type":"Point"},"properties":{"osm_id":"4593301220","tag":{"amenity":"recycling","check_date:recycling":"2021-02-23","location":"overground","operator":"Toulouse M\u00c3\u00a9tropole","recycling:glass":"no","recycling:glass_bottles":"yes","recycling_type":"container"}},"type":"Feature"},
	{"geometry":{"coordinates":[1.497771,43.527348],"type":"Point"},"properties":{"osm_id":"4619213461","tag":{"amenity":"recycling","recycling:glass_bottles":"yes","recycling_type":"container"}},"type":"Feature"},
	{"geometry":{"coordinates":[1.518532,43.570796],"type":"Point"},"properties":{"osm_id":"4771683175","tag":{"amenity":"waste_basket"}},"type":"Feature"},
	{"geometry":{"coordinates":[1.513887,43.53928],"type":"Point"},"properties":{"osm_id":"4834599999","tag":{"amenity":"recycling","recycling:glass_bottles":"yes","recycling_type":"container"}},"type":"Feature"},
	{"geometry":{"coordinates":[1.516748,43.534995],"type":"Point"},"properties":{"osm_id":"4838688168","tag":{"amenity":"recycling","recycling:glass_bottles":"yes","recycling_type":"container"}},"type":"Feature"},
	{"geometry":{"coordinates":[1.49704,43.579167],"type":"Point"},"properties":{"osm_id":"4840540030","tag":{"amenity":"waste_basket"}},"type":"Feature"},
	{"geometry":{"coordinates":[1.496963,43.578346],"type":"Point"},"properties":{"osm_id":"4840540031","tag":{"amenity":"waste_basket"}},"type":"Feature"},
	{"geometry":{"coordinates":[1.496368,43.576614],"type":"Point"},"properties":{"osm_id":"4840540032","tag":{"amenity":"waste_basket"}},"type":"Feature"},
	{"geometry":{"coordinates":[1.495302,43.574512],"type":"Point"},"properties":{"osm_id":"4840540033","tag":{"amenity":"waste_basket"}},"type":"Feature"},
	{"geometry":{"coordinates":[1.506374,43.549189],"type":"Point"},"properties":{"osm_id":"5201563994","tag":{"amenity":"waste_basket"}},"type":"Feature"},
	{"geometry":{"coordinates":[1.495519,43.57702],"type":"Point"},"properties":{"osm_id":"5267915439","tag":{"amenity":"waste_basket"}},"type":"Feature"},
	{"geometry":{"coordinates":[1.49553,43.577565],"type":"Point"},"properties":{"osm_id":"5267915440","tag":{"amenity":"waste_basket"}},"type":"Feature"},
	{"geometry":{"coordinates":[1.495489,43.576834],"type":"Point"},"properties":{"osm_id":"5269835462","tag":{"amenity":"waste_basket"}},"type":"Feature"},
	{"geometry":{"coordinates":[1.495488,43.576769],"type":"Point"},"properties":{"osm_id":"5269835463","tag":{"amenity":"waste_basket"}},"type":"Feature"},
	{"geometry":{"coordinates":[1.494451,43.523242],"type":"Point"},"properties":{"osm_id":"5337941179","tag":{"amenity":"waste_basket"}},"type":"Feature"},
	{"geometry":{"coordinates":[1.494375,43.523168],"type":"Point"},"properties":{"osm_id":"5337941180","tag":{"amenity":"waste_basket"}},"type":"Feature"},
	{"geometry":{"coordinates":[1.520342,43.537596],"type":"Point"},"properties":{"osm_id":"5506321252","tag":{"amenity":"waste_basket","wheelchair":"yes"}},"type":"Feature"},
	{"geometry":{"coordinates":[1.507508,43.523176],"type":"Point"},"properties":{"osm_id":"5863925819","tag":{"amenity":"recycling","check_date:recycling":"2021-05-15","recycling:glass_bottles":"yes","recycling_type":"container"}},"type":"Feature"},
	{"geometry":{"coordinates":[1.498908,43.524893],"type":"Point"},"properties":{"osm_id":"5863926309","tag":{"amenity":"recycling","recycling:glass_bottles":"yes","recycling_type":"container"}},"type":"Feature"},
	{"geometry":{"coordinates":[1.543986,43.542365],"type":"Point"},"properties":{"osm_id":"5878307095","tag":{"amenity":"recycling","location":"overground","operator":"Toulouse M\u00c3\u00a9tropole","recycling:glass":"no","recycling:glass_bottles":"yes","recycling_type":"container"}},"type":"Feature"},
	{"geometry":{"coordinates":[1.544263,43.557394],"type":"Point"},"properties":{"osm_id":"5878327103","tag":{"amenity":"recycling","location":"overground","operator":"Toulouse M\u00c3\u00a9tropole","recycling:glass":"no","recycling:glass_bottles":"yes","recycling_type":"container"}},"type":"Feature"},
	{"geometry":{"coordinates":[1.520242,43.555952],"type":"Point"},"properties":{"osm_id":"5878341434","tag":{"amenity":"recycling","location":"overground","operator":"Toulouse M\u00c3\u00a9tropole","recycling:glass":"no","recycling:glass_bottles":"yes","recycling_type":"container"}},"type":"Feature"},
	{"geometry":{"coordinates":[1.529724,43.554411],"type":"Point"},"properties":{"osm_id":"5878341452","tag":{"amenity":"recycling","location":"overground","operator":"Toulouse M\u00c3\u00a9tropole","recycling:clothes":"yes","recycling:glass":"no","recycling:glass_bottles":"yes","recycling_type":"container"}},"type":"Feature"},
	{"geometry":{"coordinates":[1.501105,43.563897],"type":"Point"},"properties":{"osm_id":"5878345098","tag":{"amenity":"recycling","location":"overground","operator":"Toulouse M\u00c3\u00a9tropole","recycling:glass":"no","recycling:glass_bottles":"yes","recycling_type":"container"}},"type":"Feature"},
	{"geometry":{"coordinates":[1.502143,43.558691],"type":"Point"},"properties":{"osm_id":"5878345099","tag":{"amenity":"recycling","location":"overground","operator":"Toulouse M\u00c3\u00a9tropole","recycling:glass":"no","recycling:glass_bottles":"yes","recycling_type":"container"}},"type":"Feature"},
	{"geometry":{"coordinates":[1.515201,43.569677],"type":"Point"},"properties":{"osm_id":"5878351666","tag":{"amenity":"recycling","location":"overground","operator":"Toulouse M\u00c3\u00a9tropole","recycling:glass":"no","recycling:glass_bottles":"yes","recycling_type":"container"}},"type":"Feature"},
	{"geometry":{"coordinates":[1.507761,43.564659],"type":"Point"},"properties":{"osm_id":"5878351672","tag":{"amenity":"recycling","location":"overground","operator":"Toulouse M\u00c3\u00a9tropole","recycling:glass":"no","recycling:glass_bottles":"yes","recycling_type":"container"}},"type":"Feature"},
	{"geometry":{"coordinates":[1.499179,43.568838],"type":"Point"},"properties":{"osm_id":"5878369344","tag":{"amenity":"recycling","location":"overground","operator":"Toulouse M\u00c3\u00a9tropole","recycling:glass":"no","recycling:glass_bottles":"yes","recycling_type":"container"}},"type":"Feature"},
	{"geometry":{"coordinates":[1.499506,43.567978],"type":"Point"},"properties":{"osm_id":"5878369345","tag":{"amenity":"recycling","location":"overground","operator":"Toulouse M\u00c3\u00a9tropole","recycling:glass":"no","recycling:glass_bottles":"yes","recycling_type":"container"}},"type":"Feature"},
	{"geometry":{"coordinates":[1.545889,43.533788],"type":"Point"},"properties":{"osm_id":"5887699925","tag":{"amenity":"recycling","recycling:glass_bottles":"yes","recycling_type":"container"}},"type":"Feature"},
	{"geometry":{"coordinates":[1.525476,43.531131],"type":"Point"},"properties":{"osm_id":"5917722323","tag":{"amenity":"recycling","recycling:glass_bottles":"yes","recycling_type":"container"}},"type":"Feature"},
	{"geometry":{"coordinates":[1.495576,43.579922],"type":"Point"},"properties":{"osm_id":"5953998709","tag":{"amenity":"recycling","location":"overground","operator":"Toulouse M\u00c3\u00a9tropole","recycling:glass":"no","recycling:glass_bottles":"yes","recycling_type":"container"}},"type":"Feature"},
	{"geometry":{"coordinates":[1.514658,43.541535],"type":"Point"},"properties":{"osm_id":"6022172442","tag":{"amenity":"recycling","recycling:glass_bottles":"yes","recycling_type":"container"}},"type":"Feature"},
	{"geometry":{"coordinates":[1.511974,43.540351],"type":"Point"},"properties":{"osm_id":"6312459965","tag":{"amenity":"waste_basket"}},"type":"Feature"},
	{"geometry":{"coordinates":[1.507214,43.517273],"type":"Point"},"properties":{"osm_id":"6349833260","tag":{"amenity":"waste_basket"}},"type":"Feature"},
	{"geometry":{"coordinates":[1.504588,43.546911],"type":"Point"},"properties":{"osm_id":"6440406927","tag":{"amenity":"waste_basket"}},"type":"Feature"},
	{"geometry":{"coordinates":[1.494421,43.542527],"type":"Point"},"properties":{"osm_id":"6566538824","tag":{"amenity":"waste_basket"}},"type":"Feature"},
	{"geometry":{"coordinates":[1.498154,43.51696],"type":"Point"},"properties":{"osm_id":"6582272905","tag":{"amenity":"waste_basket","waste":"trash"}},"type":"Feature"},
	{"geometry":{"coordinates":[1.511564,43.543998],"type":"Point"},"properties":{"osm_id":"6646459018","tag":{"amenity":"recycling","recycling:glass_bottles":"yes","recycling_type":"container"}},"type":"Feature"},
	{"geometry":{"coordinates":[1.52775,43.531274],"type":"Point"},"properties":{"osm_id":"6811939272","tag":{"amenity":"recycling","operator":"Le Relais","recycling:clothes":"yes","recycling_type":"container","website":"https://www.lerelais.org"}},"type":"Feature"},
	{"geometry":{"coordinates":[1.494461,43.577595],"type":"Point"},"properties":{"osm_id":"6904748305","tag":{"amenity":"waste_basket"}},"type":"Feature"},
	{"geometry":{"coordinates":[1.515274,43.564912],"type":"Point"},"properties":{"osm_id":"6968813840","tag":{"amenity":"recycling","recycling:glass_bottles":"yes","recycling_type":"container"}},"type":"Feature"},
	{"geometry":{"coordinates":[1.501606,43.517798],"type":"Point"},"properties":{"osm_id":"7087829085","tag":{"amenity":"recycling","recycling:glass_bottles":"yes","recycling_type":"container"}},"type":"Feature"},
	{"geometry":{"coordinates":[1.511182,43.539684],"type":"Point"},"properties":{"osm_id":"7222544247","tag":{"amenity":"recycling","recycling:glass_bottles":"yes","recycling_type":"container"}},"type":"Feature"},
	{"geometry":{"coordinates":[1.516002,43.540027],"type":"Point"},"properties":{"osm_id":"7514956024","tag":{"amenity":"recycling","recycling:glass_bottles":"yes","recycling_type":"container"}},"type":"Feature"},
	{"geometry":{"coordinates":[1.515649,43.539352],"type":"Point"},"properties":{"osm_id":"7532355333","tag":{"amenity":"waste_basket"}},"type":"Feature"},
	{"geometry":{"coordinates":[1.503117,43.521294],"type":"Point"},"properties":{"osm_id":"7553470935","tag":{"amenity":"recycling","recycling_type":"container"}},"type":"Feature"},
	{"geometry":{"coordinates":[1.512689,43.543201],"type":"Point"},"properties":{"osm_id":"7687192311","tag":{"amenity":"waste_basket"}},"type":"Feature"},
	{"geometry":{"coordinates":[1.529248,43.529392],"type":"Point"},"properties":{"osm_id":"7784855418","tag":{"amenity":"recycling","recycling:glass_bottles":"yes","recycling:paper":"yes","recycling:plastic":"no","recycling:plastic_packaging":"yes","recycling_type":"container"}},"type":"Feature"},
	{"geometry":{"coordinates":[1.531508,43.529832],"type":"Point"},"properties":{"osm_id":"7784855419","tag":{"amenity":"recycling","recycling:glass_bottles":"yes","recycling:paper":"yes","recycling_type":"container"}},"type":"Feature"},
	{"geometry":{"coordinates":[1.507599,43.554709],"type":"Point"},"properties":{"osm_id":"7784855420","tag":{"amenity":"recycling","recycling:glass_bottles":"yes","recycling_type":"container"}},"type":"Feature"},
	{"geometry":{"coordinates":[1.529835,43.531039],"type":"Point"},"properties":{"osm_id":"7806501201","tag":{"amenity":"waste_disposal","waste":"glass"}},"type":"Feature"},
	{"geometry":{"coordinates":[1.511768,43.538667],"type":"Point"},"properties":{"osm_id":"7858856116","tag":{"amenity":"waste_basket"}},"type":"Feature"},
	{"geometry":{"coordinates":[1.515194,43.574013],"type":"Point"},"properties":{"osm_id":"8018087222","tag":{"amenity":"recycling","recycling:glass_bottles":"yes","recycling_type":"container"}},"type":"Feature"},
	{"geometry":{"coordinates":[1.509748,43.543852],"type":"Point"},"properties":{"osm_id":"8250972490","tag":{"amenity":"recycling","location":"underground","recycling:glass_bottles":"yes","recycling_type":"container"}},"type":"Feature"},
	{"geometry":{"coordinates":[1.50976,43.543862],"type":"Point"},"properties":{"osm_id":"8250972491","tag":{"amenity":"recycling","location":"underground","recycling:paper":"yes","recycling_type":"container"}},"type":"Feature"},
	{"geometry":{"coordinates":[1.509736,43.543842],"type":"Point"},"properties":{"osm_id":"8250972492","tag":{"amenity":"recycling","location":"underground","recycling:waste":"yes","recycling_type":"container"}},"type":"Feature"},
	{"geometry":{"coordinates":[1.565339,43.559365],"type":"Point"},"properties":{"osm_id":"8300237977","tag":{"amenity":"recycling","recycling:green_waste":"yes","recycling_type":"container"}},"type":"Feature"},
	{"geometry":{"coordinates":[1.511189,43.521954],"type":"Point"},"properties":{"osm_id":"8309389553","tag":{"amenity":"recycling","recycling:glass_bottles":"yes","recycling_type":"container"}},"type":"Feature"},
	{"geometry":{"coordinates":[1.508381,43.521868],"type":"Point"},"properties":{"osm_id":"8733985617","tag":{"amenity":"waste_basket","survey:date":"2021-05-15"}},"type":"Feature"},
	{"geometry":{"coordinates":[1.508723,43.521909],"type":"Point"},"properties":{"osm_id":"8733985620","tag":{"amenity":"waste_basket","survey:date":"2021-05-15"}},"type":"Feature"},
	{"geometry":{"coordinates":[1.508889,43.521973],"type":"Point"},"properties":{"osm_id":"8733985621","tag":{"amenity":"waste_basket","survey:date":"2021-05-15"}},"type":"Feature"},
	{"geometry":{"coordinates":[1.508574,43.522099],"type":"Point"},"properties":{"osm_id":"8733985918","tag":{"amenity":"waste_basket","survey:date":"2021-05-15"}},"type":"Feature"},
	{"geometry":{"coordinates":[1.508286,43.576704],"type":"Point"},"properties":{"osm_id":"9105244446","tag":{"amenity":"recycling","recycling:glass_bottles":"yes","recycling_type":"container"}},"type":"Feature"},
	{"geometry":{"coordinates":[1.51314,43.576033],"type":"Point"},"properties":{"osm_id":"9105244447","tag":{"amenity":"recycling","recycling:glass_bottles":"yes","recycling_type":"container"}},"type":"Feature"}
]
}
