{
"type": "FeatureCollection",
"features": [
	{"geometry":{"coordinates":[1.564479,41.236951],"type":"Point"},"properties":{"name":"Deixalleria Comarcal del Baix Pened\u00c3\u00a8s","osm_id":"1511807079","tag":{"amenity":"recycling","recycling:batteries":"yes","recycling_type":"centre"}},"type":"Feature"},
	{"geometry":{"coordinates":[1.577436,41.189539],"type":"Point"},"properties":{"osm_id":"3728258420","tag":{"amenity":"recycling","recycling_type":"container"}},"type":"Feature"},
	{"geometry":{"coordinates":[1.568378,41.190068],"type":"Point"},"properties":{"osm_id":"4383714365","tag":{"amenity":"recycling"}},"type":"Feature"},
	{"geometry":{"coordinates":[1.570138,41.19587],"type":"Point"},"properties":{"osm_id":"4385448949","tag":{"amenity":"recycling"}},"type":"Feature"},
	{"geometry":{"coordinates":[1.534604,41.24141],"type":"Point"},"properties":{"osm_id":"6775559317","tag":{"amenity":"recycling","recycling_type":"container"}},"type":"Feature"},
	{"geometry":{"coordinates":[1.532752,41.242825],"type":"Point"},"properties":{"osm_id":"6775559330","tag":{"amenity":"recycling","recycling_type":"container"}},"type":"Feature"},
	{"geometry":{"coordinates":[1.536851,41.24192],"type":"Point"},"properties":{"osm_id":"6775559340","tag":{"amenity":"recycling","recycling_type":"container"}},"type":"Feature"},
	{"geometry":{"coordinates":[1.535539,41.23611],"type":"Point"},"properties":{"osm_id":"6775559379","tag":{"amenity":"recycling","recycling_type":"container"}},"type":"Feature"}
]
}
