{
"type": "FeatureCollection",
"features": [
	{"geometry":{"coordinates":[3.200765,51.333338],"type":"Point"},"properties":{"osm_id":"1392964997","tag":{"access":"private","amenity":"recycling","operator":"RBSC Zeebrugge","operator:wikidata":"Q47485649","recycling_type":"container"}},"type":"Feature"},
	{"geometry":{"coordinates":[3.187823,51.29132],"type":"Point"},"properties":{"osm_id":"2182036576","tag":{"amenity":"waste_basket"}},"type":"Feature"},
	{"geometry":{"coordinates":[3.194736,51.29496],"type":"Point"},"properties":{"osm_id":"3854077260","tag":{"addr:city":"Brugge","addr:postcode":"8380","addr:street":"Pol Dhondtstraat","amenity":"recycling","recycling:cans":"no","recycling:clothes":"no","recycling:glass":"no","recycling:glass_bottles":"yes","recycling:paper":"no","recycling:plastic":"no","recycling_type":"container"}},"type":"Feature"},
	{"geometry":{"coordinates":[3.191956,51.292449],"type":"Point"},"properties":{"osm_id":"3854077857","tag":{"addr:city":"Brugge","addr:postcode":"8380","addr:street":"Canadezenstraat","amenity":"recycling","recycling:cans":"no","recycling:clothes":"no","recycling:glass":"no","recycling:glass_bottles":"yes","recycling:paper":"no","recycling:plastic":"no","recycling_type":"container"}},"type":"Feature"},
	{"geometry":{"coordinates":[3.207068,51.331716],"type":"Point"},"properties":{"osm_id":"4112541316","tag":{"amenity":"waste_basket"}},"type":"Feature"},
	{"geometry":{"coordinates":[3.213692,51.336349],"type":"Point"},"properties":{"osm_id":"4467868973","tag":{"amenity":"waste_basket"}},"type":"Feature"},
	{"geometry":{"coordinates":[3.20186,51.309488],"type":"Point"},"properties":{"osm_id":"4487747760","tag":{"amenity":"waste_basket"}},"type":"Feature"},
	{"geometry":{"coordinates":[3.184003,51.32989],"type":"Point"},"properties":{"osm_id":"4581978282","tag":{"amenity":"waste_basket","layer":"-1"}},"type":"Feature"},
	{"geometry":{"coordinates":[3.201037,51.329183],"type":"Point"},"properties":{"osm_id":"4975794073","tag":{"amenity":"recycling","recycling:glass_bottles":"yes","recycling_type":"container"}},"type":"Feature"},
	{"geometry":{"coordinates":[3.206115,51.293864],"type":"Point"},"properties":{"osm_id":"5633747681","tag":{"amenity":"waste_basket"}},"type":"Feature"},
	{"geometry":{"coordinates":[3.199266,51.294849],"type":"Point"},"properties":{"osm_id":"5876474725","tag":{"amenity":"waste_basket","waste":"trash"}},"type":"Feature"},
	{"geometry":{"coordinates":[3.236091,51.332162],"type":"Point"},"properties":{"osm_id":"6418853331","tag":{"amenity":"waste_disposal","operator":"De Vuurtoren"}},"type":"Feature"},
	{"geometry":{"coordinates":[3.209097,51.333668],"type":"Point"},"properties":{"osm_id":"6581663813","tag":{"amenity":"waste_basket"}},"type":"Feature"},
	{"geometry":{"coordinates":[3.209204,51.333759],"type":"Point"},"properties":{"osm_id":"6581663814","tag":{"amenity":"waste_basket"}},"type":"Feature"},
	{"geometry":{"coordinates":[3.207634,51.335103],"type":"Point"},"properties":{"osm_id":"6581770337","tag":{"amenity":"waste_basket"}},"type":"Feature"},
	{"geometry":{"coordinates":[3.207139,51.334975],"type":"Point"},"properties":{"osm_id":"6581770338","tag":{"amenity":"waste_basket"}},"type":"Feature"},
	{"geometry":{"coordinates":[3.206067,51.334699],"type":"Point"},"properties":{"osm_id":"6581770339","tag":{"amenity":"waste_basket"}},"type":"Feature"},
	{"geometry":{"coordinates":[3.205001,51.334428],"type":"Point"},"properties":{"osm_id":"6581770341","tag":{"amenity":"waste_basket"}},"type":"Feature"},
	{"geometry":{"coordinates":[3.204465,51.334287],"type":"Point"},"properties":{"osm_id":"6581770342","tag":{"amenity":"waste_basket"}},"type":"Feature"},
	{"geometry":{"coordinates":[3.203408,51.334017],"type":"Point"},"properties":{"osm_id":"6581770375","tag":{"amenity":"waste_basket"}},"type":"Feature"},
	{"geometry":{"coordinates":[3.20394,51.334153],"type":"Point"},"properties":{"osm_id":"6581770376","tag":{"amenity":"waste_basket"}},"type":"Feature"},
	{"geometry":{"coordinates":[3.197769,51.333024],"type":"Point"},"properties":{"osm_id":"6581770381","tag":{"amenity":"waste_basket"}},"type":"Feature"},
	{"geometry":{"coordinates":[3.197673,51.309845],"type":"Point"},"properties":{"osm_id":"6682047092","tag":{"amenity":"recycling","recycling:glass_bottles":"yes","recycling_type":"container"}},"type":"Feature"},
	{"geometry":{"coordinates":[3.203229,51.329559],"type":"Point"},"properties":{"osm_id":"6918445678","tag":{"amenity":"waste_basket"}},"type":"Feature"},
	{"geometry":{"coordinates":[3.177133,51.326864],"type":"Point"},"properties":{"osm_id":"6966296717","tag":{"amenity":"recycling","fee":"no","recycling:cardboard":"yes","recycling:paper":"yes","recycling_type":"container"}},"type":"Feature"},
	{"geometry":{"coordinates":[3.177118,51.326829],"type":"Point"},"properties":{"osm_id":"6966296718","tag":{"amenity":"recycling","charge":"1 EUR","fee":"yes","location":"underground","recycling:waste":"yes","recycling_type":"container"}},"type":"Feature"},
	{"geometry":{"coordinates":[3.210368,51.331325],"type":"Point"},"properties":{"osm_id":"6987416425","tag":{"amenity":"recycling","recycling:glass_bottles":"yes","recycling_type":"container"}},"type":"Feature"},
	{"geometry":{"coordinates":[3.212801,51.330455],"type":"Point"},"properties":{"osm_id":"6987416426","tag":{"amenity":"recycling","operator":"Oxfam","recycling:clothes":"yes","recycling:shoes":"yes","recycling_type":"container"}},"type":"Feature"},
	{"geometry":{"coordinates":[3.212747,51.330441],"type":"Point"},"properties":{"osm_id":"6987416427","tag":{"amenity":"recycling","recycling:glass_bottles":"yes","recycling_type":"container"}},"type":"Feature"},
	{"geometry":{"coordinates":[3.165892,51.324474],"type":"Point"},"properties":{"osm_id":"7477078448","tag":{"amenity":"waste_basket"}},"type":"Feature"},
	{"geometry":{"coordinates":[3.235507,51.337331],"type":"Point"},"properties":{"osm_id":"7635336874","tag":{"amenity":"waste_basket"}},"type":"Feature"},
	{"geometry":{"coordinates":[3.234862,51.335844],"type":"Point"},"properties":{"osm_id":"7639011274","tag":{"amenity":"waste_basket"}},"type":"Feature"}
]
}
