{
"type": "FeatureCollection",
"features": [
	{"geometry":{"coordinates":[3.247458,51.234973],"type":"Point"},"properties":{"osm_id":"2149955723","tag":{"amenity":"waste_basket"}},"type":"Feature"},
	{"geometry":{"coordinates":[3.248942,51.239041],"type":"Point"},"properties":{"osm_id":"2160170168","tag":{"amenity":"waste_basket"}},"type":"Feature"},
	{"geometry":{"coordinates":[3.230502,51.24967],"type":"Point"},"properties":{"osm_id":"2166138215","tag":{"amenity":"waste_basket"}},"type":"Feature"},
	{"geometry":{"coordinates":[3.194036,51.248538],"type":"Point"},"properties":{"osm_id":"2178508474","tag":{"amenity":"waste_basket"}},"type":"Feature"},
	{"geometry":{"coordinates":[3.194044,51.249119],"type":"Point"},"properties":{"osm_id":"2178508483","tag":{"amenity":"waste_basket"}},"type":"Feature"},
	{"geometry":{"coordinates":[3.211088,51.236087],"type":"Point"},"properties":{"osm_id":"2767808642","tag":{"amenity":"recycling","location":"underground","recycling_type":"container"}},"type":"Feature"},
	{"geometry":{"coordinates":[3.211046,51.236114],"type":"Point"},"properties":{"osm_id":"2767808656","tag":{"amenity":"recycling","location":"underground","recycling_type":"container"}},"type":"Feature"},
	{"geometry":{"coordinates":[3.233128,51.275694],"type":"Point"},"properties":{"osm_id":"3854064919","tag":{"amenity":"recycling","recycling:cans":"no","recycling:clothes":"no","recycling:glass":"no","recycling:glass_bottles":"yes","recycling:paper":"no","recycling:plastic":"no","recycling_type":"container"}},"type":"Feature"},
	{"geometry":{"coordinates":[3.248776,51.241445],"type":"Point"},"properties":{"osm_id":"3854069757","tag":{"addr:city":"Brugge","addr:postcode":"8000","addr:street":"Arendstraat","amenity":"recycling","recycling:cans":"no","recycling:clothes":"no","recycling:glass":"no","recycling:glass_bottles":"yes","recycling:paper":"no","recycling:plastic":"no","recycling_type":"container"}},"type":"Feature"},
	{"geometry":{"coordinates":[3.248806,51.241431],"type":"Point"},"properties":{"osm_id":"3854069758","tag":{"addr:city":"Brugge","addr:postcode":"8000","addr:street":"Arendstraat","amenity":"recycling","recycling:cans":"no","recycling:clothes":"yes","recycling:glass":"no","recycling:glass_bottles":"no","recycling:paper":"no","recycling:plastic":"no","recycling_type":"container"}},"type":"Feature"},
	{"geometry":{"coordinates":[3.200766,51.253942],"type":"Point"},"properties":{"osm_id":"4311938512","tag":{"amenity":"waste_basket"}},"type":"Feature"},
	{"geometry":{"coordinates":[3.182563,51.257523],"type":"Point"},"properties":{"osm_id":"4622664512","tag":{"amenity":"recycling","recycling:glass_bottles":"yes","recycling_type":"container"}},"type":"Feature"},
	{"geometry":{"coordinates":[3.201985,51.236836],"type":"Point"},"properties":{"osm_id":"5397182612","tag":{"amenity":"recycling","location":"overground","recycling:glass_bottles":"yes","recycling_type":"container"}},"type":"Feature"},
	{"geometry":{"coordinates":[3.202224,51.237106],"type":"Point"},"properties":{"osm_id":"5398311243","tag":{"amenity":"waste_basket"}},"type":"Feature"},
	{"geometry":{"coordinates":[3.222566,51.245922],"type":"Point"},"properties":{"osm_id":"5421278521","tag":{"amenity":"recycling","location":"overground","recycling:glass_bottles":"yes","recycling_type":"container"}},"type":"Feature"},
	{"geometry":{"coordinates":[3.223327,51.271895],"type":"Point"},"properties":{"osm_id":"5421279180","tag":{"amenity":"recycling","location":"overground","recycling:glass_bottles":"yes","recycling_type":"container"}},"type":"Feature"},
	{"geometry":{"coordinates":[3.208775,51.2504],"type":"Point"},"properties":{"barrier":"gate","osm_id":"5421331498"},"type":"Feature"},
	{"geometry":{"coordinates":[3.208783,51.25037],"type":"Point"},"properties":{"barrier":"gate","osm_id":"5421331499"},"type":"Feature"},
	{"geometry":{"coordinates":[3.182639,51.264011],"type":"Point"},"properties":{"osm_id":"5544935909","tag":{"amenity":"waste_basket","waste":"trash"}},"type":"Feature"},
	{"geometry":{"coordinates":[3.177032,51.25307],"type":"Point"},"properties":{"osm_id":"6576015928","tag":{"amenity":"waste_basket"}},"type":"Feature"},
	{"geometry":{"coordinates":[3.166505,51.283186],"type":"Point"},"properties":{"osm_id":"6839767201","tag":{"amenity":"recycling","recycling:clothes":"yes","recycling_type":"container"}},"type":"Feature"},
	{"geometry":{"coordinates":[3.188287,51.257478],"type":"Point"},"properties":{"osm_id":"6929884854","tag":{"amenity":"recycling","colour":"green","operator":"Vlaams Internationaal Centrum","recycling:clothes":"yes","recycling:curtains":"yes","recycling:shoes":"yes","recycling_type":"container"}},"type":"Feature"},
	{"geometry":{"coordinates":[3.188258,51.257476],"type":"Point"},"properties":{"osm_id":"6929899310","tag":{"amenity":"recycling","colour":"green","operator":"Vlaams Internationaal Centrum","recycling:clothes":"yes","recycling:curtains":"yes","recycling:shoes":"yes","recycling_type":"container"}},"type":"Feature"},
	{"geometry":{"coordinates":[3.211196,51.234866],"type":"Point"},"properties":{"osm_id":"7415442978","tag":{"amenity":"recycling","recycling:glass_bottles":"yes","recycling_type":"container"}},"type":"Feature"},
	{"geometry":{"coordinates":[3.250071,51.236202],"type":"Point"},"properties":{"osm_id":"7495098388","tag":{"amenity":"waste_basket"}},"type":"Feature"}
]
}
