{
"type": "FeatureCollection",
"features": [
	{"geometry":{"coordinates":[3.183594,51.19033],"type":"Point"},"properties":{"osm_id":"148658083","tag":{"traffic_calming":"table"}},"type":"Feature"},
	{"geometry":{"coordinates":[3.2078,51.200998],"type":"Point"},"properties":{"osm_id":"368235756","tag":{"amenity":"recycling","recycling:clothes":"yes","recycling:glass_bottles":"yes","recycling_type":"container"}},"type":"Feature"},
	{"geometry":{"coordinates":[3.215087,51.204659],"type":"Point"},"properties":{"osm_id":"375780160","tag":{"addr:city":"Brugge","addr:postcode":"8000","addr:street":"Sint-Maartensbilk","amenity":"recycling","recycling:cans":"no","recycling:clothes":"no","recycling:glass":"no","recycling:glass_bottles":"yes","recycling:paper":"no","recycling:plastic":"no","recycling_type":"container"}},"type":"Feature"},
	{"geometry":{"coordinates":[3.231753,51.227105],"type":"Point"},"properties":{"osm_id":"1024756867","tag":{"amenity":"recycling","location":"overground","recycling:glass_bottles":"yes","recycling_type":"container"}},"type":"Feature"},
	{"geometry":{"coordinates":[3.236912,51.213823],"type":"Point"},"properties":{"osm_id":"1271323690","tag":{"amenity":"waste_basket"}},"type":"Feature"},
	{"geometry":{"coordinates":[3.230991,51.206255],"type":"Point"},"properties":{"osm_id":"1321891819","tag":{"amenity":"waste_basket"}},"type":"Feature"},
	{"geometry":{"coordinates":[3.171746,51.1935],"type":"Point"},"properties":{"osm_id":"2146242929","tag":{"amenity":"waste_basket"}},"type":"Feature"},
	{"geometry":{"coordinates":[3.173472,51.190026],"type":"Point"},"properties":{"osm_id":"2153653009","tag":{"amenity":"waste_basket"}},"type":"Feature"},
	{"geometry":{"coordinates":[3.240374,51.206823],"type":"Point"},"properties":{"osm_id":"2158035434","tag":{"amenity":"waste_basket"}},"type":"Feature"},
	{"geometry":{"coordinates":[3.215424,51.208003],"type":"Point"},"properties":{"osm_id":"2159170364","tag":{"amenity":"waste_basket"}},"type":"Feature"},
	{"geometry":{"coordinates":[3.214987,51.208835],"type":"Point"},"properties":{"osm_id":"2159170379","tag":{"amenity":"waste_basket"}},"type":"Feature"},
	{"geometry":{"coordinates":[3.224304,51.204193],"type":"Point"},"properties":{"osm_id":"2161919529","tag":{"amenity":"waste_basket"}},"type":"Feature"},
	{"geometry":{"coordinates":[3.221333,51.182991],"type":"Point"},"properties":{"osm_id":"2162845721","tag":{"amenity":"waste_basket"}},"type":"Feature"},
	{"geometry":{"coordinates":[3.228424,51.230677],"type":"Point"},"properties":{"osm_id":"2166138103","tag":{"amenity":"waste_basket"}},"type":"Feature"},
	{"geometry":{"coordinates":[3.249401,51.19295],"type":"Point"},"properties":{"osm_id":"2167308387","tag":{"amenity":"waste_basket"}},"type":"Feature"},
	{"geometry":{"coordinates":[3.193656,51.229416],"type":"Point"},"properties":{"osm_id":"2399893878","tag":{"amenity":"waste_basket"}},"type":"Feature"},
	{"geometry":{"coordinates":[3.195293,51.230089],"type":"Point"},"properties":{"osm_id":"2399893997","tag":{"amenity":"waste_basket"}},"type":"Feature"},
	{"geometry":{"coordinates":[3.19517,51.23018],"type":"Point"},"properties":{"osm_id":"2399894102","tag":{"amenity":"waste_basket"}},"type":"Feature"},
	{"geometry":{"coordinates":[3.189714,51.230857],"type":"Point"},"properties":{"osm_id":"2399894298","tag":{"amenity":"waste_basket"}},"type":"Feature"},
	{"geometry":{"coordinates":[3.198721,51.232856],"type":"Point"},"properties":{"osm_id":"2399894751","tag":{"amenity":"waste_basket"}},"type":"Feature"},
	{"geometry":{"coordinates":[3.198958,51.233017],"type":"Point"},"properties":{"osm_id":"2399894801","tag":{"amenity":"waste_basket"}},"type":"Feature"},
	{"geometry":{"coordinates":[3.199116,51.233132],"type":"Point"},"properties":{"osm_id":"2399894851","tag":{"amenity":"waste_basket"}},"type":"Feature"},
	{"geometry":{"coordinates":[3.219495,51.196619],"type":"Point"},"properties":{"osm_id":"2407331170","tag":{"amenity":"waste_basket","indoor":"no","layer":"2"}},"type":"Feature"},
	{"geometry":{"coordinates":[3.218699,51.196741],"type":"Point"},"properties":{"osm_id":"2407331176","tag":{"amenity":"waste_basket","indoor":"no","layer":"2"}},"type":"Feature"},
	{"geometry":{"coordinates":[3.219429,51.19673],"type":"Point"},"properties":{"osm_id":"2407331179","tag":{"amenity":"waste_basket","layer":"2"}},"type":"Feature"},
	{"geometry":{"coordinates":[3.218901,51.196781],"type":"Point"},"properties":{"osm_id":"2407331183","tag":{"amenity":"waste_basket","indoor":"no","layer":"2"}},"type":"Feature"},
	{"geometry":{"coordinates":[3.231831,51.20476],"type":"Point"},"properties":{"osm_id":"2407331197","tag":{"amenity":"waste_basket"}},"type":"Feature"},
	{"geometry":{"coordinates":[3.225419,51.205156],"type":"Point"},"properties":{"osm_id":"2407331219","tag":{"amenity":"waste_basket"}},"type":"Feature"},
	{"geometry":{"coordinates":[3.225818,51.205295],"type":"Point"},"properties":{"osm_id":"2407331240","tag":{"amenity":"waste_basket"}},"type":"Feature"},
	{"geometry":{"coordinates":[3.225353,51.205361],"type":"Point"},"properties":{"osm_id":"2407331254","tag":{"amenity":"waste_basket"}},"type":"Feature"},
	{"geometry":{"coordinates":[3.231553,51.205829],"type":"Point"},"properties":{"osm_id":"2407331268","tag":{"amenity":"waste_basket"}},"type":"Feature"},
	{"geometry":{"coordinates":[3.232003,51.205953],"type":"Point"},"properties":{"osm_id":"2407331281","tag":{"amenity":"waste_basket"}},"type":"Feature"},
	{"geometry":{"coordinates":[3.231025,51.20601],"type":"Point"},"properties":{"osm_id":"2407331286","tag":{"amenity":"waste_basket"}},"type":"Feature"},
	{"geometry":{"coordinates":[3.230327,51.206934],"type":"Point"},"properties":{"osm_id":"2407331296","tag":{"amenity":"waste_basket"}},"type":"Feature"},
	{"geometry":{"coordinates":[3.22579,51.197816],"type":"Point"},"properties":{"osm_id":"2410017652","tag":{"amenity":"waste_basket"}},"type":"Feature"},
	{"geometry":{"coordinates":[3.226224,51.197975],"type":"Point"},"properties":{"osm_id":"2410017655","tag":{"amenity":"waste_basket"}},"type":"Feature"},
	{"geometry":{"coordinates":[3.225687,51.198092],"type":"Point"},"properties":{"osm_id":"2410017659","tag":{"amenity":"waste_basket"}},"type":"Feature"},
	{"geometry":{"coordinates":[3.226033,51.198159],"type":"Point"},"properties":{"osm_id":"2410017665","tag":{"amenity":"waste_basket"}},"type":"Feature"},
	{"geometry":{"coordinates":[3.223743,51.198483],"type":"Point"},"properties":{"osm_id":"2410017671","tag":{"amenity":"waste_basket"}},"type":"Feature"},
	{"geometry":{"coordinates":[3.224864,51.198636],"type":"Point"},"properties":{"osm_id":"2410017681","tag":{"amenity":"waste_basket"}},"type":"Feature"},
	{"geometry":{"coordinates":[3.22283,51.198656],"type":"Point"},"properties":{"osm_id":"2410017686","tag":{"amenity":"waste_basket"}},"type":"Feature"},
	{"geometry":{"coordinates":[3.224417,51.198741],"type":"Point"},"properties":{"osm_id":"2410017714","tag":{"amenity":"waste_basket"}},"type":"Feature"},
	{"geometry":{"coordinates":[3.223326,51.198762],"type":"Point"},"properties":{"osm_id":"2410017720","tag":{"amenity":"waste_basket"}},"type":"Feature"},
	{"geometry":{"coordinates":[3.22209,51.198787],"type":"Point"},"properties":{"osm_id":"2410017725","tag":{"amenity":"waste_basket"}},"type":"Feature"},
	{"geometry":{"coordinates":[3.219695,51.198817],"type":"Point"},"properties":{"osm_id":"2410017733","tag":{"amenity":"waste_basket"}},"type":"Feature"},
	{"geometry":{"coordinates":[3.224389,51.198859],"type":"Point"},"properties":{"osm_id":"2410017743","tag":{"amenity":"waste_basket"}},"type":"Feature"},
	{"geometry":{"coordinates":[3.224932,51.199077],"type":"Point"},"properties":{"osm_id":"2410017769","tag":{"amenity":"waste_basket"}},"type":"Feature"},
	{"geometry":{"coordinates":[3.225706,51.199115],"type":"Point"},"properties":{"osm_id":"2410017775","tag":{"amenity":"waste_basket"}},"type":"Feature"},
	{"geometry":{"coordinates":[3.226512,51.199183],"type":"Point"},"properties":{"osm_id":"2410017788","tag":{"amenity":"waste_basket"}},"type":"Feature"},
	{"geometry":{"coordinates":[3.2244,51.199223],"type":"Point"},"properties":{"osm_id":"2410017796","tag":{"amenity":"waste_basket"}},"type":"Feature"},
	{"geometry":{"coordinates":[3.224815,51.199238],"type":"Point"},"properties":{"osm_id":"2410017798","tag":{"amenity":"waste_basket"}},"type":"Feature"},
	{"geometry":{"coordinates":[3.224887,51.199316],"type":"Point"},"properties":{"osm_id":"2410017802","tag":{"amenity":"waste_basket"}},"type":"Feature"},
	{"geometry":{"coordinates":[3.225531,51.199626],"type":"Point"},"properties":{"osm_id":"2410017814","tag":{"amenity":"waste_basket"}},"type":"Feature"},
	{"geometry":{"coordinates":[3.226069,51.199874],"type":"Point"},"properties":{"osm_id":"2410017817","tag":{"amenity":"waste_basket"}},"type":"Feature"},
	{"geometry":{"coordinates":[3.224657,51.199935],"type":"Point"},"properties":{"osm_id":"2410017822","tag":{"amenity":"waste_basket"}},"type":"Feature"},
	{"geometry":{"coordinates":[3.219258,51.199926],"type":"Point"},"properties":{"osm_id":"2410017823","tag":{"amenity":"waste_basket"}},"type":"Feature"},
	{"geometry":{"coordinates":[3.225577,51.200184],"type":"Point"},"properties":{"osm_id":"2410017825","tag":{"amenity":"waste_basket"}},"type":"Feature"},
	{"geometry":{"coordinates":[3.225459,51.200361],"type":"Point"},"properties":{"osm_id":"2410017830","tag":{"amenity":"waste_basket"}},"type":"Feature"},
	{"geometry":{"coordinates":[3.218943,51.200591],"type":"Point"},"properties":{"osm_id":"2410017836","tag":{"amenity":"waste_basket"}},"type":"Feature"},
	{"geometry":{"coordinates":[3.21923,51.201012],"type":"Point"},"properties":{"osm_id":"2410017844","tag":{"amenity":"waste_basket"}},"type":"Feature"},
	{"geometry":{"coordinates":[3.218732,51.201279],"type":"Point"},"properties":{"osm_id":"2410017851","tag":{"amenity":"waste_basket"}},"type":"Feature"},
	{"geometry":{"coordinates":[3.218594,51.201405],"type":"Point"},"properties":{"osm_id":"2410017856","tag":{"amenity":"waste_basket"}},"type":"Feature"},
	{"geometry":{"coordinates":[3.218533,51.202147],"type":"Point"},"properties":{"osm_id":"2410017868","tag":{"amenity":"waste_basket"}},"type":"Feature"},
	{"geometry":{"coordinates":[3.21922,51.202369],"type":"Point"},"properties":{"osm_id":"2410017875","tag":{"amenity":"waste_basket"}},"type":"Feature"},
	{"geometry":{"coordinates":[3.219142,51.202629],"type":"Point"},"properties":{"osm_id":"2410017909","tag":{"amenity":"waste_basket"}},"type":"Feature"},
	{"geometry":{"coordinates":[3.219031,51.202774],"type":"Point"},"properties":{"osm_id":"2410017919","tag":{"amenity":"waste_basket"}},"type":"Feature"},
	{"geometry":{"coordinates":[3.218775,51.202846],"type":"Point"},"properties":{"osm_id":"2410017928","tag":{"amenity":"waste_basket"}},"type":"Feature"},
	{"geometry":{"coordinates":[3.218516,51.203278],"type":"Point"},"properties":{"osm_id":"2410017958","tag":{"amenity":"waste_basket"}},"type":"Feature"},
	{"geometry":{"coordinates":[3.217565,51.208621],"type":"Point"},"properties":{"osm_id":"2410018034","tag":{"amenity":"waste_basket"}},"type":"Feature"},
	{"geometry":{"coordinates":[3.218259,51.208822],"type":"Point"},"properties":{"osm_id":"2410018048","tag":{"amenity":"waste_basket"}},"type":"Feature"},
	{"geometry":{"coordinates":[3.217587,51.208869],"type":"Point"},"properties":{"osm_id":"2410018052","tag":{"amenity":"waste_basket"}},"type":"Feature"},
	{"geometry":{"coordinates":[3.218129,51.209169],"type":"Point"},"properties":{"osm_id":"2410018075","tag":{"amenity":"waste_basket"}},"type":"Feature"},
	{"geometry":{"coordinates":[3.218518,51.209171],"type":"Point"},"properties":{"osm_id":"2410018077","tag":{"amenity":"waste_basket"}},"type":"Feature"},
	{"geometry":{"coordinates":[3.217603,51.209314],"type":"Point"},"properties":{"osm_id":"2410018090","tag":{"amenity":"waste_basket"}},"type":"Feature"},
	{"geometry":{"coordinates":[3.217233,51.20958],"type":"Point"},"properties":{"osm_id":"2410018106","tag":{"amenity":"waste_basket"}},"type":"Feature"},
	{"geometry":{"coordinates":[3.218553,51.209564],"type":"Point"},"properties":{"osm_id":"2410018124","tag":{"amenity":"waste_basket"}},"type":"Feature"},
	{"geometry":{"coordinates":[3.21801,51.209627],"type":"Point"},"properties":{"osm_id":"2410018138","tag":{"amenity":"waste_basket"}},"type":"Feature"},
	{"geometry":{"coordinates":[3.217877,51.209692],"type":"Point"},"properties":{"osm_id":"2410018161","tag":{"amenity":"waste_basket"}},"type":"Feature"},
	{"geometry":{"coordinates":[3.217661,51.209952],"type":"Point"},"properties":{"osm_id":"2410018171","tag":{"amenity":"waste_basket"}},"type":"Feature"},
	{"geometry":{"coordinates":[3.211872,51.211787],"type":"Point"},"properties":{"osm_id":"2410018185","tag":{"amenity":"waste_basket"}},"type":"Feature"},
	{"geometry":{"coordinates":[3.213452,51.212132],"type":"Point"},"properties":{"osm_id":"2410018219","tag":{"amenity":"waste_basket","waste":"trash"}},"type":"Feature"},
	{"geometry":{"coordinates":[3.211903,51.212342],"type":"Point"},"properties":{"osm_id":"2410018233","tag":{"amenity":"waste_basket"}},"type":"Feature"},
	{"geometry":{"coordinates":[3.213588,51.212345],"type":"Point"},"properties":{"osm_id":"2410018234","tag":{"amenity":"waste_basket"}},"type":"Feature"},
	{"geometry":{"coordinates":[3.214124,51.21355],"type":"Point"},"properties":{"osm_id":"2410018238","tag":{"amenity":"waste_basket"}},"type":"Feature"},
	{"geometry":{"coordinates":[3.214789,51.214764],"type":"Point"},"properties":{"osm_id":"2410018240","tag":{"amenity":"waste_basket"}},"type":"Feature"},
	{"geometry":{"coordinates":[3.215919,51.215271],"type":"Point"},"properties":{"osm_id":"2410018243","tag":{"amenity":"waste_basket"}},"type":"Feature"},
	{"geometry":{"coordinates":[3.215304,51.215563],"type":"Point"},"properties":{"osm_id":"2410018246","tag":{"amenity":"waste_basket"}},"type":"Feature"},
	{"geometry":{"coordinates":[3.236519,51.213574],"type":"Point"},"properties":{"osm_id":"2411831663","tag":{"amenity":"waste_basket"}},"type":"Feature"},
	{"geometry":{"coordinates":[3.216714,51.213748],"type":"Point"},"properties":{"osm_id":"2411831685","tag":{"amenity":"waste_basket"}},"type":"Feature"},
	{"geometry":{"coordinates":[3.216318,51.213841],"type":"Point"},"properties":{"osm_id":"2411831710","tag":{"amenity":"waste_basket"}},"type":"Feature"},
	{"geometry":{"coordinates":[3.224657,51.218619],"type":"Point"},"properties":{"osm_id":"2411831749","tag":{"amenity":"waste_basket"}},"type":"Feature"},
	{"geometry":{"coordinates":[3.227881,51.219021],"type":"Point"},"properties":{"osm_id":"2411831773","tag":{"amenity":"waste_basket"}},"type":"Feature"},
	{"geometry":{"coordinates":[3.22862,51.219075],"type":"Point"},"properties":{"osm_id":"2411831780","tag":{"amenity":"waste_basket"}},"type":"Feature"},
	{"geometry":{"coordinates":[3.224689,51.219443],"type":"Point"},"properties":{"osm_id":"2411831804","tag":{"amenity":"waste_basket"}},"type":"Feature"},
	{"geometry":{"coordinates":[3.225821,51.219752],"type":"Point"},"properties":{"osm_id":"2411831811","tag":{"amenity":"waste_basket"}},"type":"Feature"},
	{"geometry":{"coordinates":[3.225765,51.219798],"type":"Point"},"properties":{"osm_id":"2411831822","tag":{"amenity":"waste_basket"}},"type":"Feature"},
	{"geometry":{"coordinates":[3.226162,51.219851],"type":"Point"},"properties":{"osm_id":"2411831832","tag":{"amenity":"waste_basket"}},"type":"Feature"},
	{"geometry":{"coordinates":[3.224177,51.22005],"type":"Point"},"properties":{"osm_id":"2411831861","tag":{"amenity":"waste_basket"}},"type":"Feature"},
	{"geometry":{"coordinates":[3.206034,51.187363],"type":"Point"},"properties":{"osm_id":"3192311825","tag":{"amenity":"waste_basket"}},"type":"Feature"},
	{"geometry":{"coordinates":[3.206483,51.187381],"type":"Point"},"properties":{"osm_id":"3192311829","tag":{"amenity":"waste_basket"}},"type":"Feature"},
	{"geometry":{"coordinates":[3.207434,51.187609],"type":"Point"},"properties":{"osm_id":"3192312683","tag":{"amenity":"waste_basket"}},"type":"Feature"},
	{"geometry":{"coordinates":[3.206718,51.187639],"type":"Point"},"properties":{"osm_id":"3192312688","tag":{"amenity":"waste_basket"}},"type":"Feature"},
	{"geometry":{"coordinates":[3.249908,51.213941],"type":"Point"},"properties":{"osm_id":"3298637357","tag":{"amenity":"recycling","recycling:cans":"no","recycling:clothes":"yes","recycling:glass":"no","recycling:paper":"no"}},"type":"Feature"},
	{"geometry":{"coordinates":[3.246625,51.216568],"type":"Point"},"properties":{"osm_id":"3298637555","tag":{"amenity":"recycling","location":"overground","recycling:glass_bottles":"yes","recycling_type":"container"}},"type":"Feature"},
	{"geometry":{"coordinates":[3.226349,51.201426],"type":"Point"},"properties":{"osm_id":"3368399593","tag":{"amenity":"waste_basket"}},"type":"Feature"},
	{"geometry":{"coordinates":[3.226155,51.201588],"type":"Point"},"properties":{"osm_id":"3368399605","tag":{"amenity":"waste_basket"}},"type":"Feature"},
	{"geometry":{"coordinates":[3.234877,51.203287],"type":"Point"},"properties":{"osm_id":"3368399660","tag":{"amenity":"waste_basket"}},"type":"Feature"},
	{"geometry":{"coordinates":[3.235638,51.203622],"type":"Point"},"properties":{"osm_id":"3368399663","tag":{"amenity":"waste_basket"}},"type":"Feature"},
	{"geometry":{"coordinates":[3.238785,51.207028],"type":"Point"},"properties":{"osm_id":"3368399669","tag":{"amenity":"waste_basket"}},"type":"Feature"},
	{"geometry":{"coordinates":[3.239595,51.207744],"type":"Point"},"properties":{"osm_id":"3368399673","tag":{"amenity":"waste_basket"}},"type":"Feature"},
	{"geometry":{"coordinates":[3.240346,51.208637],"type":"Point"},"properties":{"osm_id":"3368399676","tag":{"amenity":"waste_basket"}},"type":"Feature"},
	{"geometry":{"coordinates":[3.240245,51.212079],"type":"Point"},"properties":{"osm_id":"3368399685","tag":{"amenity":"waste_basket"}},"type":"Feature"},
	{"geometry":{"coordinates":[3.239854,51.212842],"type":"Point"},"properties":{"osm_id":"3368399691","tag":{"amenity":"waste_basket"}},"type":"Feature"},
	{"geometry":{"coordinates":[3.238753,51.214765],"type":"Point"},"properties":{"osm_id":"3368399796","tag":{"amenity":"waste_basket"}},"type":"Feature"},
	{"geometry":{"coordinates":[3.238216,51.215196],"type":"Point"},"properties":{"osm_id":"3368399801","tag":{"amenity":"waste_basket"}},"type":"Feature"},
	{"geometry":{"coordinates":[3.237041,51.216077],"type":"Point"},"properties":{"osm_id":"3368399802","tag":{"amenity":"waste_basket"}},"type":"Feature"},
	{"geometry":{"coordinates":[3.2359,51.218595],"type":"Point"},"properties":{"osm_id":"3368399805","tag":{"amenity":"waste_basket"}},"type":"Feature"},
	{"geometry":{"coordinates":[3.234081,51.220451],"type":"Point"},"properties":{"osm_id":"3368399821","tag":{"amenity":"waste_basket"}},"type":"Feature"},
	{"geometry":{"coordinates":[3.227977,51.221068],"type":"Point"},"properties":{"osm_id":"3368399823","tag":{"amenity":"waste_basket"}},"type":"Feature"},
	{"geometry":{"coordinates":[3.22559,51.221455],"type":"Point"},"properties":{"osm_id":"3368399830","tag":{"amenity":"waste_basket"}},"type":"Feature"},
	{"geometry":{"coordinates":[3.226949,51.221617],"type":"Point"},"properties":{"osm_id":"3368399838","tag":{"amenity":"recycling","recycling:glass_bottles":"yes","recycling_type":"container"}},"type":"Feature"},
	{"geometry":{"coordinates":[3.226986,51.221614],"type":"Point"},"properties":{"osm_id":"3368399839","tag":{"amenity":"recycling","recycling:glass_bottles":"yes","recycling_type":"container"}},"type":"Feature"},
	{"geometry":{"coordinates":[3.179171,51.184282],"type":"Point"},"properties":{"osm_id":"3661799018","tag":{"addr:city":"Sint-Andries","addr:postcode":"8200","addr:street":"Oorlogsvrijwilligerslaan","amenity":"recycling","recycling:cans":"no","recycling:clothes":"no","recycling:glass_bottles":"yes","recycling:paper":"no"}},"type":"Feature"},
	{"geometry":{"coordinates":[3.181215,51.197393],"type":"Point"},"properties":{"osm_id":"3664464513","tag":{"amenity":"waste_basket"}},"type":"Feature"},
	{"geometry":{"coordinates":[3.181161,51.197915],"type":"Point"},"properties":{"osm_id":"3664464515","tag":{"amenity":"waste_basket"}},"type":"Feature"},
	{"geometry":{"coordinates":[3.181121,51.198136],"type":"Point"},"properties":{"osm_id":"3664464516","tag":{"amenity":"waste_basket"}},"type":"Feature"},
	{"geometry":{"coordinates":[3.181048,51.198146],"type":"Point"},"properties":{"osm_id":"3664464517","tag":{"amenity":"recycling","location":"overground","recycling:cans":"no","recycling:clothes":"yes","recycling:glass":"no","recycling_type":"container"}},"type":"Feature"},
	{"geometry":{"coordinates":[3.18098,51.19814],"type":"Point"},"properties":{"osm_id":"3664464518","tag":{"amenity":"recycling","location":"overground","recycling:cans":"no","recycling:clothes":"no","recycling:glass_bottles":"yes","recycling:paper":"no","recycling_type":"container"}},"type":"Feature"},
	{"geometry":{"coordinates":[3.18055,51.198033],"type":"Point"},"properties":{"osm_id":"3664464519","tag":{"amenity":"waste_basket"}},"type":"Feature"},
	{"geometry":{"coordinates":[3.180665,51.197667],"type":"Point"},"properties":{"osm_id":"3664464520","tag":{"amenity":"waste_basket"}},"type":"Feature"},
	{"geometry":{"coordinates":[3.179648,51.195279],"type":"Point"},"properties":{"osm_id":"3664478925","tag":{"amenity":"waste_basket"}},"type":"Feature"},
	{"geometry":{"coordinates":[3.2087,51.187812],"type":"Point"},"properties":{"osm_id":"3737867568","tag":{"amenity":"waste_basket"}},"type":"Feature"},
	{"geometry":{"coordinates":[3.207291,51.187819],"type":"Point"},"properties":{"osm_id":"3737867570","tag":{"amenity":"waste_basket"}},"type":"Feature"},
	{"geometry":{"coordinates":[3.2088,51.18793],"type":"Point"},"properties":{"osm_id":"3737867571","tag":{"amenity":"waste_basket"}},"type":"Feature"},
	{"geometry":{"coordinates":[3.206446,51.187936],"type":"Point"},"properties":{"osm_id":"3737867572","tag":{"amenity":"waste_basket"}},"type":"Feature"},
	{"geometry":{"coordinates":[3.208662,51.188109],"type":"Point"},"properties":{"osm_id":"3737867578","tag":{"amenity":"waste_basket"}},"type":"Feature"},
	{"geometry":{"coordinates":[3.206505,51.18812],"type":"Point"},"properties":{"osm_id":"3737867579","tag":{"amenity":"waste_basket"}},"type":"Feature"},
	{"geometry":{"coordinates":[3.231463,51.19487],"type":"Point"},"properties":{"osm_id":"3845350666","tag":{"addr:city":"Brugge","addr:postcode":"8310","addr:street":"Baron Ruzettelaan","amenity":"recycling","recycling:cans":"no","recycling:clothes":"yes","recycling:glass":"no","recycling:glass_bottles":"yes","recycling:paper":"no","recycling:plastic":"no","recycling_type":"container"}},"type":"Feature"},
	{"geometry":{"coordinates":[3.234,51.179765],"type":"Point"},"properties":{"osm_id":"3845388131","tag":{"addr:city":"Brugge","addr:postcode":"8310","addr:street":"Baron Ruzettelaan","amenity":"recycling","recycling:clothes":"no","recycling:glass":"no","recycling:glass_bottles":"yes","recycling:paper":"no","recycling:plastic":"no","recycling_type":"container"}},"type":"Feature"},
	{"geometry":{"coordinates":[3.247039,51.201108],"type":"Point"},"properties":{"osm_id":"3845398671","tag":{"addr:city":"Brugge","addr:postcode":"8310","addr:street":"Gaston Roelandtsplein","amenity":"recycling","recycling:clothes":"no","recycling:glass":"no","recycling:glass_bottles":"yes","recycling:paper":"no","recycling:plastic":"no","recycling_type":"container"}},"type":"Feature"},
	{"geometry":{"coordinates":[3.23999,51.198637],"type":"Point"},"properties":{"osm_id":"3846441571","tag":{"addr:city":"Brugge","addr:postcode":"8310","addr:street":"Leliestraat","amenity":"recycling","recycling:cans":"no","recycling:clothes":"no","recycling:glass":"no","recycling:glass_bottles":"yes","recycling:plastic":"no","recycling_type":"container"}},"type":"Feature"},
	{"geometry":{"coordinates":[3.240013,51.19864],"type":"Point"},"properties":{"osm_id":"3846441572","tag":{"amenity":"waste_basket"}},"type":"Feature"},
	{"geometry":{"coordinates":[3.233574,51.188889],"type":"Point"},"properties":{"osm_id":"3846442265","tag":{"addr:city":"Brugge","addr:postcode":"8310","addr:street":"Oude Kortrijkstraat","amenity":"recycling","recycling:cans":"no","recycling:clothes":"no","recycling:glass":"no","recycling:glass_bottles":"yes","recycling:paper":"no","recycling:plastic":"no","recycling_type":"container"}},"type":"Feature"},
	{"geometry":{"coordinates":[3.250993,51.190135],"type":"Point"},"properties":{"osm_id":"3846445573","tag":{"addr:city":"Brugge","addr:postcode":"8310","addr:street":"Weidestraat","amenity":"recycling","recycling:cans":"no","recycling:clothes":"yes","recycling:glass":"no","recycling:glass_bottles":"yes","recycling:paper":"no","recycling:plastic":"no","recycling_type":"container"}},"type":"Feature"},
	{"geometry":{"coordinates":[3.242513,51.209184],"type":"Point"},"properties":{"osm_id":"3846451157","tag":{"amenity":"recycling","recycling:glass_bottles":"yes","recycling_type":"container"}},"type":"Feature"},
	{"geometry":{"coordinates":[3.22986,51.20683],"type":"Point"},"properties":{"osm_id":"3846454857","tag":{"addr:city":"Brugge","addr:postcode":"8000","addr:street":"Park","amenity":"recycling","location":"underground","recycling:cans":"no","recycling:clothes":"no","recycling:glass":"no","recycling:glass_bottles":"yes","recycling:paper":"no","recycling:plastic":"no","recycling_type":"container"}},"type":"Feature"},
	{"geometry":{"coordinates":[3.22444,51.215627],"type":"Point"},"properties":{"osm_id":"3846456279","tag":{"amenity":"recycling","location":"underground","recycling:glass_bottles":"yes","recycling_type":"container"}},"type":"Feature"},
	{"geometry":{"coordinates":[3.224645,51.215643],"type":"Point"},"properties":{"osm_id":"3846465740","tag":{"amenity":"waste_basket","waste":"dog_excrement"}},"type":"Feature"},
	{"geometry":{"coordinates":[3.238048,51.21454],"type":"Point"},"properties":{"osm_id":"3846469518","tag":{"amenity":"recycling","location":"underground","recycling:glass_bottles":"yes","recycling_type":"container"}},"type":"Feature"},
	{"geometry":{"coordinates":[3.201269,51.216861],"type":"Point"},"properties":{"osm_id":"3846639500","tag":{"amenity":"recycling","recycling:glass_bottles":"yes","recycling_type":"container"}},"type":"Feature"},
	{"geometry":{"coordinates":[3.202993,51.212696],"type":"Point"},"properties":{"osm_id":"3846647457","tag":{"addr:city":"Brugge","addr:postcode":"8000","addr:street":"Fosterpark","amenity":"recycling","recycling:cans":"no","recycling:clothes":"no","recycling:glass":"no","recycling:glass_bottles":"yes","recycling:paper":"no","recycling:plastic":"no","recycling_type":"container"}},"type":"Feature"},
	{"geometry":{"coordinates":[3.231584,51.201352],"type":"Point"},"properties":{"osm_id":"3846649192","tag":{"addr:city":"Brugge","addr:postcode":"8000","addr:street":"Gentpoortvest","amenity":"recycling","recycling:cans":"no","recycling:clothes":"no","recycling:glass":"no","recycling:glass_bottles":"yes","recycling:paper":"no","recycling:plastic":"no","recycling_type":"container"}},"type":"Feature"},
	{"geometry":{"coordinates":[3.226271,51.201256],"type":"Point"},"properties":{"osm_id":"3854040373","tag":{"addr:city":"Brugge","addr:postcode":"8000","addr:street":"Noordstraat","amenity":"recycling","recycling:cans":"no","recycling:clothes":"no","recycling:glass":"no","recycling:glass_bottles":"yes","recycling:paper":"no","recycling:plastic":"no","recycling_type":"container"}},"type":"Feature"},
	{"geometry":{"coordinates":[3.226234,51.196461],"type":"Point"},"properties":{"osm_id":"3854049548","tag":{"addr:city":"Brugge","addr:postcode":"8000","addr:street":"Bargeweg","amenity":"recycling","recycling:cans":"no","recycling:clothes":"no","recycling:glass":"no","recycling:glass_bottles":"yes","recycling:paper":"no","recycling:plastic":"no","recycling_type":"container"}},"type":"Feature"},
	{"geometry":{"coordinates":[3.238116,51.208015],"type":"Point"},"properties":{"osm_id":"3854053412","tag":{"addr:city":"Brugge","addr:postcode":"8000","addr:street":"Bilkske","amenity":"recycling","location":"underground","recycling:cans":"no","recycling:clothes":"no","recycling:glass":"no","recycling:glass_bottles":"yes","recycling:paper":"no","recycling:plastic":"no","recycling_type":"container"}},"type":"Feature"},
	{"geometry":{"coordinates":[3.217858,51.218918],"type":"Point"},"properties":{"osm_id":"3854055922","tag":{"addr:city":"Brugge","addr:postcode":"8000","addr:street":"Werfplein","amenity":"recycling","recycling:cans":"no","recycling:clothes":"no","recycling:glass":"no","recycling:glass_bottles":"yes","recycling:paper":"no","recycling:plastic":"no","recycling_type":"container"}},"type":"Feature"},
	{"geometry":{"coordinates":[3.248237,51.231834],"type":"Point"},"properties":{"osm_id":"3854074274","tag":{"addr:city":"Brugge","addr:postcode":"8000","addr:street":"Gemene Weidestraat","amenity":"recycling","recycling:cans":"no","recycling:clothes":"no","recycling:glass":"no","recycling:glass_bottles":"yes","recycling:plastic":"no","recycling_type":"container"}},"type":"Feature"},
	{"geometry":{"coordinates":[3.193077,51.19338],"type":"Point"},"properties":{"osm_id":"3854080004","tag":{"amenity":"recycling","recycling:glass_bottles":"yes","recycling_type":"container"}},"type":"Feature"},
	{"geometry":{"coordinates":[3.173937,51.195887],"type":"Point"},"properties":{"osm_id":"3854089403","tag":{"addr:city":"Brugge","addr:postcode":"8200","addr:street":"Gistelse Steenweg","amenity":"recycling","recycling:cans":"no","recycling:clothes":"no","recycling:glass":"no","recycling:glass_bottles":"yes","recycling:paper":"no","recycling:plastic":"no","recycling_type":"container"}},"type":"Feature"},
	{"geometry":{"coordinates":[3.179391,51.207168],"type":"Point"},"properties":{"osm_id":"3856083914","tag":{"addr:city":"Sint-Andries","addr:postcode":"8200","addr:street":"Knotwilgenlaan","amenity":"recycling","recycling:cans":"no","recycling:clothes":"no","recycling:glass":"no","recycling:glass_bottles":"yes","recycling:paper":"no","recycling:plastic":"no","recycling_type":"container"}},"type":"Feature"},
	{"geometry":{"coordinates":[3.180514,51.201068],"type":"Point"},"properties":{"osm_id":"3856085982","tag":{"addr:city":"Brugge","addr:postcode":"8200","addr:street":"Zandstraat","amenity":"recycling","recycling:cans":"no","recycling:clothes":"no","recycling:glass":"no","recycling:glass_bottles":"yes","recycling:paper":"no","recycling:plastic":"no","recycling_type":"container"}},"type":"Feature"},
	{"geometry":{"coordinates":[3.231752,51.227084],"type":"Point"},"properties":{"osm_id":"4388837171","tag":{"amenity":"recycling","location":"overground","recycling:glass_bottles":"yes","recycling_type":"container"}},"type":"Feature"},
	{"geometry":{"coordinates":[3.231912,51.227298],"type":"Point"},"properties":{"osm_id":"4388837185","tag":{"amenity":"waste_basket"}},"type":"Feature"},
	{"geometry":{"coordinates":[3.216494,51.196037],"type":"Point"},"properties":{"osm_id":"4962152096","tag":{"amenity":"waste_basket"}},"type":"Feature"},
	{"geometry":{"coordinates":[3.194395,51.202363],"type":"Point"},"properties":{"osm_id":"5016665181","tag":{"amenity":"recycling","recycling:clothes":"yes","recycling_type":"container"}},"type":"Feature"},
	{"geometry":{"coordinates":[3.194953,51.205643],"type":"Point"},"properties":{"osm_id":"5030201254","tag":{"addr:city":"Sint-Andries","addr:postcode":"8200","addr:street":"Legeweg","amenity":"recycling","recycling:glass_bottles":"yes","recycling_type":"container"}},"type":"Feature"},
	{"geometry":{"coordinates":[3.181687,51.200729],"type":"Point"},"properties":{"osm_id":"5030323767","tag":{"amenity":"waste_basket"}},"type":"Feature"},
	{"geometry":{"coordinates":[3.202017,51.18521],"type":"Point"},"properties":{"osm_id":"5089311186","tag":{"amenity":"recycling","recycling:glass_bottles":"yes","recycling_type":"container"}},"type":"Feature"},
	{"geometry":{"coordinates":[3.205329,51.190986],"type":"Point"},"properties":{"osm_id":"5099931315","tag":{"amenity":"waste_basket"}},"type":"Feature"},
	{"geometry":{"coordinates":[3.196425,51.197457],"type":"Point"},"properties":{"osm_id":"5113003806","tag":{"amenity":"recycling","recycling:glass_bottles":"yes","recycling_type":"container"}},"type":"Feature"},
	{"geometry":{"coordinates":[3.234936,51.209691],"type":"Point"},"properties":{"osm_id":"5151949992","tag":{"amenity":"waste_basket"}},"type":"Feature"},
	{"geometry":{"coordinates":[3.213446,51.18546],"type":"Point"},"properties":{"osm_id":"5159136113","tag":{"amenity":"recycling","location":"overground","recycling:bottles":"yes","recycling:clothes":"yes","recycling_type":"container"}},"type":"Feature"},
	{"geometry":{"coordinates":[3.213441,51.185435],"type":"Point"},"properties":{"osm_id":"5159146426","tag":{"amenity":"waste_basket"}},"type":"Feature"},
	{"geometry":{"coordinates":[3.199966,51.220079],"type":"Point"},"properties":{"osm_id":"5159768284","tag":{"amenity":"recycling","recycling:glass_bottles":"yes","recycling_type":"container"}},"type":"Feature"},
	{"geometry":{"coordinates":[3.199976,51.220061],"type":"Point"},"properties":{"osm_id":"5159768285","tag":{"amenity":"recycling","recycling:glass_bottles":"yes","recycling_type":"container"}},"type":"Feature"},
	{"geometry":{"coordinates":[3.191144,51.200442],"type":"Point"},"properties":{"osm_id":"5180337175","tag":{"amenity":"recycling","recycling:glass_bottles":"yes","recycling_type":"container"}},"type":"Feature"},
	{"geometry":{"coordinates":[3.207188,51.205601],"type":"Point"},"properties":{"osm_id":"5180337224","tag":{"addr:city":"Sint-Andries","addr:postcode":"8200","addr:street":"Legeweg","amenity":"recycling","recycling:glass_bottles":"yes","recycling_type":"container"}},"type":"Feature"},
	{"geometry":{"coordinates":[3.172238,51.192099],"type":"Point"},"properties":{"osm_id":"5180347167","tag":{"addr:city":"Sint-Andries","addr:postcode":"8200","addr:street":"Nieuwe Sint-Annadreef","amenity":"recycling","recycling:glass_bottles":"yes","recycling_type":"container"}},"type":"Feature"},
	{"geometry":{"coordinates":[3.188856,51.183117],"type":"Point"},"properties":{"osm_id":"5180369702","tag":{"addr:city":"Sint-Michiels","addr:postcode":"8200","addr:street":"Witte Molenstraat","amenity":"recycling","recycling:glass_bottles":"yes","recycling_type":"container"}},"type":"Feature"},
	{"geometry":{"coordinates":[3.20784,51.185623],"type":"Point"},"properties":{"osm_id":"5186121001","tag":{"amenity":"recycling","location":"overground","recycling:glass_bottles":"yes","recycling_type":"container"}},"type":"Feature"},
	{"geometry":{"coordinates":[3.206977,51.187855],"type":"Point"},"properties":{"osm_id":"5186122972","tag":{"amenity":"waste_basket"}},"type":"Feature"},
	{"geometry":{"coordinates":[3.228925,51.215647],"type":"Point"},"properties":{"osm_id":"5188924578","tag":{"amenity":"waste_basket"}},"type":"Feature"},
	{"geometry":{"coordinates":[3.226799,51.224521],"type":"Point"},"properties":{"osm_id":"5214520540","tag":{"amenity":"waste_basket"}},"type":"Feature"},
	{"geometry":{"coordinates":[3.221056,51.20829],"type":"Point"},"properties":{"osm_id":"5214583431","tag":{"amenity":"waste_basket"}},"type":"Feature"},
	{"geometry":{"coordinates":[3.221181,51.208278],"type":"Point"},"properties":{"osm_id":"5214594610","tag":{"amenity":"waste_basket"}},"type":"Feature"},
	{"geometry":{"coordinates":[3.218349,51.213446],"type":"Point"},"properties":{"osm_id":"5215085480","tag":{"amenity":"waste_basket"}},"type":"Feature"},
	{"geometry":{"coordinates":[3.218641,51.218711],"type":"Point"},"properties":{"osm_id":"5216138324","tag":{"amenity":"waste_basket"}},"type":"Feature"},
	{"geometry":{"coordinates":[3.217899,51.218889],"type":"Point"},"properties":{"osm_id":"5216138325","tag":{"amenity":"waste_basket"}},"type":"Feature"},
	{"geometry":{"coordinates":[3.218207,51.218692],"type":"Point"},"properties":{"osm_id":"5216138421","tag":{"amenity":"waste_basket"}},"type":"Feature"},
	{"geometry":{"coordinates":[3.211488,51.218042],"type":"Point"},"properties":{"osm_id":"5216216748","tag":{"amenity":"waste_basket"}},"type":"Feature"},
	{"geometry":{"coordinates":[3.208559,51.222987],"type":"Point"},"properties":{"osm_id":"5216216852","tag":{"amenity":"waste_basket"}},"type":"Feature"},
	{"geometry":{"coordinates":[3.205895,51.228735],"type":"Point"},"properties":{"osm_id":"5216226832","tag":{"amenity":"waste_basket"}},"type":"Feature"},
	{"geometry":{"coordinates":[3.206351,51.229153],"type":"Point"},"properties":{"osm_id":"5216318210","tag":{"amenity":"waste_basket"}},"type":"Feature"},
	{"geometry":{"coordinates":[3.192349,51.230094],"type":"Point"},"properties":{"osm_id":"5216319865","tag":{"amenity":"waste_basket"}},"type":"Feature"},
	{"geometry":{"coordinates":[3.200659,51.232777],"type":"Point"},"properties":{"osm_id":"5216320422","tag":{"amenity":"waste_basket"}},"type":"Feature"},
	{"geometry":{"coordinates":[3.196418,51.229196],"type":"Point"},"properties":{"osm_id":"5216320423","tag":{"amenity":"waste_basket"}},"type":"Feature"},
	{"geometry":{"coordinates":[3.193239,51.227065],"type":"Point"},"properties":{"osm_id":"5216320521","tag":{"amenity":"waste_basket"}},"type":"Feature"},
	{"geometry":{"coordinates":[3.213279,51.219413],"type":"Point"},"properties":{"osm_id":"5216416530","tag":{"amenity":"waste_basket"}},"type":"Feature"},
	{"geometry":{"coordinates":[3.215749,51.219859],"type":"Point"},"properties":{"osm_id":"5216416531","tag":{"amenity":"waste_basket"}},"type":"Feature"},
	{"geometry":{"coordinates":[3.19357,51.226465],"type":"Point"},"properties":{"osm_id":"5216416779","tag":{"amenity":"waste_basket"}},"type":"Feature"},
	{"geometry":{"coordinates":[3.210052,51.218666],"type":"Point"},"properties":{"osm_id":"5216416780","tag":{"amenity":"waste_basket"}},"type":"Feature"},
	{"geometry":{"coordinates":[3.196888,51.228815],"type":"Point"},"properties":{"osm_id":"5216608451","tag":{"amenity":"waste_basket"}},"type":"Feature"},
	{"geometry":{"coordinates":[3.200809,51.223731],"type":"Point"},"properties":{"osm_id":"5217106821","tag":{"amenity":"recycling","operator":"Curitas","recycling:textiles":"yes","recycling_type":"container"}},"type":"Feature"},
	{"geometry":{"coordinates":[3.196911,51.228372],"type":"Point"},"properties":{"osm_id":"5217126330","tag":{"amenity":"recycling","recycling:glass_bottles":"yes","recycling_type":"container"}},"type":"Feature"},
	{"geometry":{"coordinates":[3.244855,51.186735],"type":"Point"},"properties":{"osm_id":"5295620456","tag":{"amenity":"waste_basket"}},"type":"Feature"},
	{"geometry":{"coordinates":[3.215986,51.200476],"type":"Point"},"properties":{"osm_id":"5365039846","tag":{"amenity":"waste_basket"}},"type":"Feature"},
	{"geometry":{"coordinates":[3.247684,51.222112],"type":"Point"},"properties":{"osm_id":"5366416524","tag":{"amenity":"waste_basket"}},"type":"Feature"},
	{"geometry":{"coordinates":[3.233057,51.230632],"type":"Point"},"properties":{"osm_id":"5373713952","tag":{"amenity":"recycling","location":"overground","recycling:glass_bottles":"yes","recycling_type":"container"}},"type":"Feature"},
	{"geometry":{"coordinates":[3.219909,51.189147],"type":"Point"},"properties":{"osm_id":"5375686334","tag":{"amenity":"recycling","location":"overground","recycling:glass_bottles":"yes","recycling_type":"container"}},"type":"Feature"},
	{"geometry":{"coordinates":[3.208221,51.209766],"type":"Point"},"properties":{"osm_id":"5375715593","tag":{"amenity":"recycling","location":"overground","recycling:glass_bottles":"yes","recycling_type":"container"}},"type":"Feature"},
	{"geometry":{"coordinates":[3.207468,51.218758],"type":"Point"},"properties":{"osm_id":"5375854111","tag":{"amenity":"recycling","location":"overground","recycling:glass_bottles":"yes","recycling_type":"container"}},"type":"Feature"},
	{"geometry":{"coordinates":[3.213157,51.216553],"type":"Point"},"properties":{"osm_id":"5376011211","tag":{"amenity":"recycling","location":"overground","recycling:glass_bottles":"yes","recycling_type":"container"}},"type":"Feature"},
	{"geometry":{"coordinates":[3.232253,51.218839],"type":"Point"},"properties":{"osm_id":"5391371737","tag":{"amenity":"recycling","recycling_type":"container"}},"type":"Feature"},
	{"geometry":{"coordinates":[3.232236,51.218849],"type":"Point"},"properties":{"osm_id":"5391371738","tag":{"amenity":"recycling","recycling_type":"container"}},"type":"Feature"},
	{"geometry":{"coordinates":[3.23222,51.218865],"type":"Point"},"properties":{"osm_id":"5391371739","tag":{"amenity":"recycling","recycling_type":"container"}},"type":"Feature"},
	{"geometry":{"coordinates":[3.232197,51.218881],"type":"Point"},"properties":{"osm_id":"5391371740","tag":{"amenity":"recycling","recycling_type":"container"}},"type":"Feature"},
	{"geometry":{"coordinates":[3.232205,51.218875],"type":"Point"},"properties":{"osm_id":"5391371741","tag":{"amenity":"recycling","recycling_type":"container"}},"type":"Feature"},
	{"geometry":{"coordinates":[3.204524,51.227308],"type":"Point"},"properties":{"osm_id":"5396035610","tag":{"amenity":"recycling","location":"overground","recycling:glass_bottles":"yes","recycling_type":"container"}},"type":"Feature"},
	{"geometry":{"coordinates":[3.21369,51.223299],"type":"Point"},"properties":{"osm_id":"5397182613","tag":{"amenity":"recycling","location":"overground","recycling:glass_bottles":"yes","recycling_type":"container"}},"type":"Feature"},
	{"geometry":{"coordinates":[3.21372,51.223308],"type":"Point"},"properties":{"osm_id":"5397185259","tag":{"amenity":"recycling","location":"overground","recycling:glass_bottles":"yes","recycling_type":"container"}},"type":"Feature"},
	{"geometry":{"coordinates":[3.204508,51.227271],"type":"Point"},"properties":{"osm_id":"5397206065","tag":{"amenity":"recycling","location":"overground","operator":"Curitas N.V.","recycling:clothes":"yes","recycling_type":"container"}},"type":"Feature"},
	{"geometry":{"coordinates":[3.190058,51.193339],"type":"Point"},"properties":{"osm_id":"5407723385","tag":{"amenity":"waste_basket"}},"type":"Feature"},
	{"geometry":{"coordinates":[3.192875,51.193375],"type":"Point"},"properties":{"osm_id":"5407729580","tag":{"amenity":"waste_basket"}},"type":"Feature"},
	{"geometry":{"coordinates":[3.233173,51.196309],"type":"Point"},"properties":{"osm_id":"5414445402","tag":{"amenity":"waste_basket"}},"type":"Feature"},
	{"geometry":{"coordinates":[3.200424,51.216851],"type":"Point"},"properties":{"osm_id":"5467709986","tag":{"amenity":"waste_basket"}},"type":"Feature"},
	{"geometry":{"coordinates":[3.198609,51.21734],"type":"Point"},"properties":{"osm_id":"5467993868","tag":{"amenity":"waste_basket"}},"type":"Feature"},
	{"geometry":{"coordinates":[3.190295,51.217327],"type":"Point"},"properties":{"osm_id":"5468044202","tag":{"amenity":"waste_basket"}},"type":"Feature"},
	{"geometry":{"coordinates":[3.209417,51.227711],"type":"Point"},"properties":{"osm_id":"5516485917","tag":{"amenity":"waste_basket"}},"type":"Feature"},
	{"geometry":{"coordinates":[3.212478,51.226524],"type":"Point"},"properties":{"osm_id":"5516493127","tag":{"amenity":"recycling","recycling:glass_bottles":"yes","recycling_type":"container"}},"type":"Feature"},
	{"geometry":{"coordinates":[3.212222,51.226988],"type":"Point"},"properties":{"osm_id":"5516557956","ref":"Rest008","tag":{"amenity":"recycling","location":"underground","recycling:waste":"yes","recycling_type":"container"}},"type":"Feature"},
	{"geometry":{"coordinates":[3.212257,51.226998],"type":"Point"},"properties":{"osm_id":"5516557957","ref":"PMD004","tag":{"amenity":"recycling","location":"underground","recycling:cans":"yes","recycling:plastic_packaging":"yes","recycling_type":"container"}},"type":"Feature"},
	{"geometry":{"coordinates":[3.210097,51.226991],"type":"Point"},"properties":{"osm_id":"5516676549","tag":{"amenity":"waste_basket"}},"type":"Feature"},
	{"geometry":{"coordinates":[3.210169,51.227009],"type":"Point"},"properties":{"osm_id":"5516676550","tag":{"amenity":"waste_basket"}},"type":"Feature"},
	{"geometry":{"coordinates":[3.211705,51.227419],"type":"Point"},"properties":{"osm_id":"5516676552","tag":{"amenity":"waste_basket"}},"type":"Feature"},
	{"geometry":{"coordinates":[3.212449,51.227679],"type":"Point"},"properties":{"osm_id":"5516676555","tag":{"amenity":"waste_basket"}},"type":"Feature"},
	{"geometry":{"coordinates":[3.212956,51.227825],"type":"Point"},"properties":{"osm_id":"5516676556","tag":{"amenity":"waste_basket"}},"type":"Feature"},
	{"geometry":{"coordinates":[3.213438,51.227965],"type":"Point"},"properties":{"osm_id":"5516676559","tag":{"amenity":"waste_basket"}},"type":"Feature"},
	{"geometry":{"coordinates":[3.211902,51.225615],"type":"Point"},"properties":{"osm_id":"5516837904","tag":{"amenity":"waste_basket"}},"type":"Feature"},
	{"geometry":{"coordinates":[3.211938,51.225587],"type":"Point"},"properties":{"osm_id":"5516837905","tag":{"amenity":"waste_basket"}},"type":"Feature"},
	{"geometry":{"coordinates":[3.233913,51.212162],"type":"Point"},"properties":{"osm_id":"5540712175","tag":{"amenity":"waste_basket"}},"type":"Feature"},
	{"geometry":{"coordinates":[3.248371,51.193999],"type":"Point"},"properties":{"osm_id":"5600020406","tag":{"amenity":"recycling","location":"surface","recycling:glass_bottles":"yes","recycling_type":"container"}},"type":"Feature"},
	{"geometry":{"coordinates":[3.244604,51.189455],"type":"Point"},"properties":{"osm_id":"5613864584","tag":{"amenity":"waste_basket"}},"type":"Feature"},
	{"geometry":{"coordinates":[3.222703,51.199043],"type":"Point"},"properties":{"osm_id":"5642683616","tag":{"amenity":"recycling","recycling:glass_bottles":"yes","recycling_type":"container"}},"type":"Feature"},
	{"geometry":{"coordinates":[3.227965,51.218673],"type":"Point"},"properties":{"osm_id":"5728479489","tag":{"amenity":"waste_basket"}},"type":"Feature"},
	{"geometry":{"coordinates":[3.22825,51.2187],"type":"Point"},"properties":{"osm_id":"5728479495","tag":{"amenity":"waste_basket"}},"type":"Feature"},
	{"geometry":{"coordinates":[3.189754,51.193547],"type":"Point"},"properties":{"osm_id":"5732631784","tag":{"amenity":"waste_basket"}},"type":"Feature"},
	{"geometry":{"coordinates":[3.205124,51.203134],"type":"Point"},"properties":{"osm_id":"5775653596","tag":{"amenity":"recycling","recycling:cooking_oil":"yes","recycling_type":"container"}},"type":"Feature"},
	{"geometry":{"coordinates":[3.226447,51.201197],"type":"Point"},"properties":{"osm_id":"5810904051","tag":{"amenity":"waste_basket"}},"type":"Feature"},
	{"geometry":{"coordinates":[3.226459,51.201339],"type":"Point"},"properties":{"osm_id":"5810904052","tag":{"amenity":"waste_basket"}},"type":"Feature"},
	{"geometry":{"coordinates":[3.226661,51.201465],"type":"Point"},"properties":{"osm_id":"5810904053","tag":{"amenity":"waste_basket"}},"type":"Feature"},
	{"geometry":{"coordinates":[3.226965,51.201422],"type":"Point"},"properties":{"osm_id":"5810904054","tag":{"amenity":"waste_basket"}},"type":"Feature"},
	{"geometry":{"coordinates":[3.226406,51.201709],"type":"Point"},"properties":{"osm_id":"5810904080","tag":{"amenity":"waste_basket"}},"type":"Feature"},
	{"geometry":{"coordinates":[3.22639,51.201701],"type":"Point"},"properties":{"osm_id":"5810904081","tag":{"amenity":"waste_basket"}},"type":"Feature"},
	{"geometry":{"coordinates":[3.226578,51.201529],"type":"Point"},"properties":{"osm_id":"5810904082","tag":{"amenity":"waste_basket"}},"type":"Feature"},
	{"geometry":{"coordinates":[3.226598,51.201538],"type":"Point"},"properties":{"osm_id":"5810904083","tag":{"amenity":"waste_basket"}},"type":"Feature"},
	{"geometry":{"coordinates":[3.226807,51.201924],"type":"Point"},"properties":{"osm_id":"5810904085","tag":{"amenity":"waste_basket"}},"type":"Feature"},
	{"geometry":{"coordinates":[3.211101,51.231324],"type":"Point"},"properties":{"osm_id":"5906351877","tag":{"amenity":"recycling","recycling":"container","recycling:glass_bottles":"yes"}},"type":"Feature"},
	{"geometry":{"coordinates":[3.217233,51.205824],"type":"Point"},"properties":{"osm_id":"5959691705","tag":{"amenity":"waste_basket"}},"type":"Feature"},
	{"geometry":{"coordinates":[3.218145,51.20495],"type":"Point"},"properties":{"osm_id":"5959726452","tag":{"access":"private","amenity":"recycling","location":"underground","recycling:waste":"yes","recycling_type":"container"}},"type":"Feature"},
	{"geometry":{"coordinates":[3.220514,51.203109],"type":"Point"},"properties":{"osm_id":"5959746622","tag":{"amenity":"waste_basket"}},"type":"Feature"},
	{"geometry":{"coordinates":[3.216097,51.193131],"type":"Point"},"properties":{"osm_id":"6027842983","tag":{"amenity":"waste_basket","waste":"trash"}},"type":"Feature"},
	{"geometry":{"coordinates":[3.180919,51.202458],"type":"Point"},"properties":{"osm_id":"6032393238","tag":{"amenity":"waste_basket"}},"type":"Feature"},
	{"geometry":{"coordinates":[3.251156,51.192473],"type":"Point"},"properties":{"osm_id":"6033940505","tag":{"amenity":"waste_basket"}},"type":"Feature"},
	{"geometry":{"coordinates":[3.208749,51.18776],"type":"Point"},"properties":{"osm_id":"6142320490","tag":{"amenity":"waste_basket"}},"type":"Feature"},
	{"geometry":{"coordinates":[3.213487,51.212028],"type":"Point"},"properties":{"name":"Composthoekje Visartpark","osm_id":"6356951543","tag":{"amenity":"recycling","collection_times":"24/7","contact:facebook":"https://www.facebook.com/pg/CompostVisart","recycling:biodegradable":"yes","recycling:compost":"yes","recycling_type":"container"}},"type":"Feature"},
	{"geometry":{"coordinates":[3.184493,51.204408],"type":"Point"},"properties":{"osm_id":"6356999271","tag":{"amenity":"recycling","recycling:glass_bottles":"yes","recycling_type":"container"}},"type":"Feature"},
	{"geometry":{"coordinates":[3.222516,51.2097],"type":"Point"},"properties":{"osm_id":"6472533163","tag":{"amenity":"waste_basket"}},"type":"Feature"},
	{"geometry":{"coordinates":[3.183338,51.191639],"type":"Point"},"properties":{"osm_id":"6496276441","tag":{"amenity":"waste_basket"}},"type":"Feature"},
	{"geometry":{"coordinates":[3.183658,51.19131],"type":"Point"},"properties":{"osm_id":"6496276442","tag":{"amenity":"waste_basket"}},"type":"Feature"},
	{"geometry":{"coordinates":[3.183662,51.19207],"type":"Point"},"properties":{"osm_id":"6496276443","tag":{"amenity":"waste_basket"}},"type":"Feature"},
	{"geometry":{"coordinates":[3.184011,51.192533],"type":"Point"},"properties":{"osm_id":"6498443644","tag":{"amenity":"waste_basket"}},"type":"Feature"},
	{"geometry":{"coordinates":[3.183735,51.192552],"type":"Point"},"properties":{"osm_id":"6498443645","tag":{"amenity":"waste_basket"}},"type":"Feature"},
	{"geometry":{"coordinates":[3.193149,51.206146],"type":"Point"},"properties":{"osm_id":"6515161553","tag":{"amenity":"recycling","colour":"red","recycling:clothes":"yes","recycling_type":"container"}},"type":"Feature"},
	{"geometry":{"coordinates":[3.19269,51.206646],"type":"Point"},"properties":{"osm_id":"6515161554","tag":{"amenity":"recycling","colour":"#FFFFE0","recycling:clothes":"yes","recycling_type":"container"}},"type":"Feature"},
	{"geometry":{"coordinates":[3.193085,51.206558],"type":"Point"},"properties":{"osm_id":"6515161555","tag":{"amenity":"recycling","colour":"red","recycling:clothes":"yes","recycling_type":"container"}},"type":"Feature"},
	{"geometry":{"coordinates":[3.192425,51.207323],"type":"Point"},"properties":{"osm_id":"6515161556","tag":{"amenity":"recycling","colour":"green","recycling:clothes":"yes","recycling_type":"container"}},"type":"Feature"},
	{"geometry":{"coordinates":[3.206247,51.230361],"type":"Point"},"properties":{"osm_id":"6518459079","tag":{"amenity":"waste_basket"}},"type":"Feature"},
	{"geometry":{"coordinates":[3.206018,51.23075],"type":"Point"},"properties":{"osm_id":"6518478185","tag":{"amenity":"waste_basket"}},"type":"Feature"},
	{"geometry":{"coordinates":[3.222817,51.198565],"type":"Point"},"properties":{"osm_id":"6518500971","tag":{"amenity":"waste_basket"}},"type":"Feature"},
	{"geometry":{"coordinates":[3.229862,51.201064],"type":"Point"},"properties":{"osm_id":"6519004475","tag":{"amenity":"waste_basket"}},"type":"Feature"},
	{"geometry":{"coordinates":[3.209396,51.226947],"type":"Point"},"properties":{"osm_id":"6525535375","tag":{"amenity":"waste_basket"}},"type":"Feature"},
	{"geometry":{"coordinates":[3.23614,51.196415],"type":"Point"},"properties":{"osm_id":"6563509592","tag":{"amenity":"waste_basket"}},"type":"Feature"},
	{"geometry":{"coordinates":[3.240953,51.197959],"type":"Point"},"properties":{"osm_id":"6568777784","tag":{"amenity":"waste_basket"}},"type":"Feature"},
	{"geometry":{"coordinates":[3.245065,51.192511],"type":"Point"},"properties":{"osm_id":"6568803953","tag":{"amenity":"recycling","recycling:glass_bottles":"yes","recycling_type":"container"}},"type":"Feature"},
	{"geometry":{"coordinates":[3.241481,51.197928],"type":"Point"},"properties":{"osm_id":"6568824587","tag":{"amenity":"waste_basket"}},"type":"Feature"},
	{"geometry":{"coordinates":[3.241466,51.197662],"type":"Point"},"properties":{"osm_id":"6568824589","tag":{"amenity":"waste_basket"}},"type":"Feature"},
	{"geometry":{"coordinates":[3.214601,51.224133],"type":"Point"},"properties":{"osm_id":"6570592120","tag":{"amenity":"waste_basket"}},"type":"Feature"},
	{"geometry":{"coordinates":[3.211951,51.225343],"type":"Point"},"properties":{"osm_id":"6570592131","tag":{"amenity":"waste_basket"}},"type":"Feature"},
	{"geometry":{"coordinates":[3.213686,51.224495],"type":"Point"},"properties":{"osm_id":"6570592132","tag":{"amenity":"waste_basket"}},"type":"Feature"},
	{"geometry":{"coordinates":[3.215597,51.223751],"type":"Point"},"properties":{"osm_id":"6570619076","tag":{"amenity":"waste_basket"}},"type":"Feature"},
	{"geometry":{"coordinates":[3.220312,51.223215],"type":"Point"},"properties":{"osm_id":"6571807863","tag":{"amenity":"waste_basket"}},"type":"Feature"},
	{"geometry":{"coordinates":[3.221474,51.221693],"type":"Point"},"properties":{"osm_id":"6571852339","tag":{"amenity":"waste_basket"}},"type":"Feature"},
	{"geometry":{"coordinates":[3.21838,51.220545],"type":"Point"},"properties":{"osm_id":"6571911185","tag":{"amenity":"waste_basket"}},"type":"Feature"},
	{"geometry":{"coordinates":[3.224065,51.211083],"type":"Point"},"properties":{"osm_id":"6572705593","tag":{"amenity":"waste_basket"}},"type":"Feature"},
	{"geometry":{"coordinates":[3.220389,51.211576],"type":"Point"},"properties":{"osm_id":"6572705597","tag":{"amenity":"waste_basket"}},"type":"Feature"},
	{"geometry":{"coordinates":[3.226158,51.211717],"type":"Point"},"properties":{"osm_id":"6572881954","tag":{"amenity":"waste_basket"}},"type":"Feature"},
	{"geometry":{"coordinates":[3.224639,51.208975],"type":"Point"},"properties":{"osm_id":"6573959364","tag":{"amenity":"waste_basket"}},"type":"Feature"},
	{"geometry":{"coordinates":[3.223944,51.208804],"type":"Point"},"properties":{"osm_id":"6573985535","tag":{"amenity":"waste_basket"}},"type":"Feature"},
	{"geometry":{"coordinates":[3.227838,51.207265],"type":"Point"},"properties":{"osm_id":"6574094125","tag":{"amenity":"waste_basket"}},"type":"Feature"},
	{"geometry":{"coordinates":[3.223118,51.221324],"type":"Point"},"properties":{"osm_id":"6574657777","tag":{"amenity":"waste_basket"}},"type":"Feature"},
	{"geometry":{"coordinates":[3.227091,51.1962],"type":"Point"},"properties":{"osm_id":"6700144749","tag":{"amenity":"waste_basket"}},"type":"Feature"},
	{"geometry":{"coordinates":[3.242191,51.203095],"type":"Point"},"properties":{"osm_id":"6767554807","tag":{"amenity":"waste_basket"}},"type":"Feature"},
	{"geometry":{"coordinates":[3.245579,51.20309],"type":"Point"},"properties":{"osm_id":"6767746721","tag":{"amenity":"waste_basket"}},"type":"Feature"},
	{"geometry":{"coordinates":[3.202824,51.204935],"type":"Point"},"properties":{"osm_id":"6820985332","tag":{"amenity":"waste_basket","waste":"trash"}},"type":"Feature"},
	{"geometry":{"coordinates":[3.179338,51.184401],"type":"Point"},"properties":{"osm_id":"6856730041","tag":{"amenity":"waste_basket"}},"type":"Feature"},
	{"geometry":{"coordinates":[3.203879,51.197174],"type":"Point"},"properties":{"osm_id":"6858523991","tag":{"amenity":"waste_basket"}},"type":"Feature"},
	{"geometry":{"coordinates":[3.20347,51.193241],"type":"Point"},"properties":{"osm_id":"6858631312","tag":{"amenity":"waste_basket"}},"type":"Feature"},
	{"geometry":{"coordinates":[3.185182,51.188624],"type":"Point"},"properties":{"osm_id":"6866151722","tag":{"traffic_calming":"choker"}},"type":"Feature"},
	{"geometry":{"coordinates":[3.172279,51.19295],"type":"Point"},"properties":{"osm_id":"6919561992","tag":{"amenity":"waste_basket"}},"type":"Feature"},
	{"geometry":{"coordinates":[3.224261,51.208486],"type":"Point"},"properties":{"osm_id":"6942400832","tag":{"amenity":"waste_basket"}},"type":"Feature"},
	{"geometry":{"coordinates":[3.232193,51.186892],"type":"Point"},"properties":{"osm_id":"6987398039","tag":{"amenity":"waste_basket"}},"type":"Feature"},
	{"geometry":{"coordinates":[3.207537,51.214456],"type":"Point"},"properties":{"osm_id":"7005967184","tag":{"amenity":"waste_basket","waste":"trash"}},"type":"Feature"},
	{"geometry":{"coordinates":[3.213171,51.212181],"type":"Point"},"properties":{"osm_id":"7006293648","tag":{"amenity":"waste_basket","waste":"trash"}},"type":"Feature"},
	{"geometry":{"coordinates":[3.20137,51.188489],"type":"Point"},"properties":{"osm_id":"7043805289","tag":{"amenity":"waste_basket"}},"type":"Feature"},
	{"geometry":{"coordinates":[3.225785,51.186264],"type":"Point"},"properties":{"osm_id":"7425884652","tag":{"amenity":"recycling","recycling:glass_bottles":"yes","recycling_type":"container"}},"type":"Feature"},
	{"geometry":{"coordinates":[3.222981,51.21758],"type":"Point"},"properties":{"osm_id":"7606302684","tag":{"amenity":"waste_basket"}},"type":"Feature"},
	{"geometry":{"coordinates":[3.224436,51.206389],"type":"Point"},"properties":{"osm_id":"7804734108","tag":{"access":"private","amenity":"waste_disposal"}},"type":"Feature"},
	{"geometry":{"coordinates":[3.213149,51.216595],"type":"Point"},"properties":{"osm_id":"7843952482","tag":{"amenity":"recycling","location":"overground","operator":"Fritobox","recycling:cooking_oil":"yes","recycling_type":"container"}},"type":"Feature"},
	{"geometry":{"coordinates":[3.213681,51.216201],"type":"Point"},"properties":{"osm_id":"7843952483","tag":{"amenity":"recycling","location":"overground","recycling:clothes":"yes","recycling_type":"container"}},"type":"Feature"},
	{"geometry":{"coordinates":[3.242661,51.19514],"type":"Point"},"properties":{"osm_id":"7905069634","tag":{"amenity":"waste_basket","colour":"green","waste":"rest_afval"}},"type":"Feature"}
]
}
