{
"type": "FeatureCollection",
"features": [
	{"geometry":{"coordinates":[3.182294,51.176651],"type":"Point"},"properties":{"osm_id":"414025564","tag":{"addr:city":"Sint-Michiels","addr:postcode":"8200","addr:street":"Tillegempark","amenity":"recycling","recycling:glass_bottles":"yes","recycling_type":"container"}},"type":"Feature"},
	{"geometry":{"coordinates":[3.199066,51.158228],"type":"Point"},"properties":{"osm_id":"520586981","tag":{"amenity":"recycling","location":"overground","recycling:glass_bottles":"yes","recycling_type":"container"}},"type":"Feature"},
	{"geometry":{"coordinates":[3.176744,51.129111],"type":"Point"},"properties":{"osm_id":"1168728008","tag":{"amenity":"waste_basket"}},"type":"Feature"},
	{"geometry":{"coordinates":[3.177174,51.128486],"type":"Point"},"properties":{"osm_id":"1168728191","tag":{"amenity":"waste_basket"}},"type":"Feature"},
	{"geometry":{"coordinates":[3.233399,51.140781],"type":"Point"},"properties":{"osm_id":"1594474216","tag":{"amenity":"waste_basket"}},"type":"Feature"},
	{"geometry":{"coordinates":[3.238501,51.138913],"type":"Point"},"properties":{"osm_id":"1744641289","tag":{"amenity":"waste_basket"}},"type":"Feature"},
	{"geometry":{"coordinates":[3.187922,51.154663],"type":"Point"},"properties":{"osm_id":"5599314383","tag":{"amenity":"recycling","recycling:glass_bottles":"yes","recycling_type":"container"}},"type":"Feature"},
	{"geometry":{"coordinates":[3.164266,51.126957],"type":"Point"},"properties":{"osm_id":"5637960180","tag":{"amenity":"waste_basket"}},"type":"Feature"},
	{"geometry":{"coordinates":[3.164187,51.126882],"type":"Point"},"properties":{"osm_id":"5637960181","tag":{"amenity":"waste_basket"}},"type":"Feature"},
	{"geometry":{"coordinates":[3.219492,51.179131],"type":"Point"},"properties":{"osm_id":"5644370542","tag":{"amenity":"recycling","recycling:glass_bottles":"yes","recycling_type":"container"}},"type":"Feature"},
	{"geometry":{"coordinates":[3.219479,51.17915],"type":"Point"},"properties":{"osm_id":"5644370543","tag":{"amenity":"recycling","recycling:glass_bottles":"yes","recycling_type":"container"}},"type":"Feature"},
	{"geometry":{"coordinates":[3.249767,51.143612],"type":"Point"},"properties":{"osm_id":"6291340202","tag":{"amenity":"waste_basket"}},"type":"Feature"},
	{"geometry":{"coordinates":[3.209975,51.175746],"type":"Point"},"properties":{"osm_id":"6450856650","tag":{"amenity":"recycling","recycling:glass_bottles":"yes","recycling_type":"container"}},"type":"Feature"},
	{"geometry":{"coordinates":[3.168979,51.170321],"type":"Point"},"properties":{"osm_id":"6536026829","tag":{"amenity":"waste_basket"}},"type":"Feature"},
	{"geometry":{"coordinates":[3.176939,51.156369],"type":"Point"},"properties":{"osm_id":"7304050039","tag":{"amenity":"waste_basket","waste":"trash"}},"type":"Feature"},
	{"geometry":{"coordinates":[3.17051,51.129585],"type":"Point"},"properties":{"osm_id":"7367337286","tag":{"amenity":"recycling","recycling:glass_bottles":"yes","recycling_type":"container"}},"type":"Feature"},
	{"geometry":{"coordinates":[3.21794,51.178064],"type":"Point"},"properties":{"osm_id":"7439979220","tag":{"amenity":"waste_basket"}},"type":"Feature"},
	{"geometry":{"coordinates":[3.171552,51.158592],"type":"Point"},"properties":{"osm_id":"7529262983","tag":{"amenity":"waste_basket"}},"type":"Feature"},
	{"geometry":{"coordinates":[3.184014,51.133039],"type":"Point"},"properties":{"osm_id":"7556988720","tag":{"amenity":"waste_basket"}},"type":"Feature"},
	{"geometry":{"coordinates":[3.226516,51.134151],"type":"Point"},"properties":{"osm_id":"7705174404","tag":{"amenity":"recycling","recycling:clothes":"yes","recycling_type":"container"}},"type":"Feature"}
]
}
