{
"type": "FeatureCollection",
"features": [
	{"geometry":{"coordinates":[3.218682,51.102769],"type":"Point"},"properties":{"name":"Containerpark Ruddervoorde","osm_id":"1237663867","tag":{"amenity":"recycling","recycling_type":"centre"}},"type":"Feature"},
	{"geometry":{"coordinates":[3.194752,51.099809],"type":"Point"},"properties":{"osm_id":"6906196171","tag":{"amenity":"recycling","colour":"green","operator":"Vlaams Internationaal Centrum","recycling:clothes":"yes","recycling:curtains":"yes","recycling:shoes":"yes","recycling_type":"container"}},"type":"Feature"},
	{"geometry":{"coordinates":[3.224336,51.100756],"type":"Point"},"properties":{"osm_id":"6906235809","tag":{"amenity":"recycling","operator":"Vlaams Internationaal Centrum","recycling:clothes":"yes","recycling:curtains":"yes","recycling:shoes":"yes","recycling_type":"container"}},"type":"Feature"},
	{"geometry":{"coordinates":[3.22171,51.114845],"type":"Point"},"properties":{"osm_id":"8174542237","tag":{"amenity":"waste_basket"}},"type":"Feature"},
	{"geometry":{"coordinates":[3.22178,51.114814],"type":"Point"},"properties":{"osm_id":"8174542238","tag":{"amenity":"waste_basket"}},"type":"Feature"}
]
}
