{
"type": "FeatureCollection",
"features": [
	{"geometry":{"coordinates":[3.18185,50.799249],"type":"Point"},"properties":{"osm_id":"3222194313","tag":{"amenity":"waste_basket"}},"type":"Feature"},
	{"geometry":{"coordinates":[3.177276,50.79804],"type":"Point"},"properties":{"osm_id":"3222195536","tag":{"amenity":"waste_basket"}},"type":"Feature"},
	{"geometry":{"coordinates":[3.16843,50.796108],"type":"Point"},"properties":{"osm_id":"3222198943","tag":{"amenity":"waste_basket"}},"type":"Feature"},
	{"geometry":{"coordinates":[3.187275,50.792817],"type":"Point"},"properties":{"osm_id":"3276741203","tag":{"amenity":"waste_basket"}},"type":"Feature"},
	{"geometry":{"coordinates":[3.233983,50.804227],"type":"Point"},"properties":{"osm_id":"4100559200","tag":{"amenity":"waste_basket"}},"type":"Feature"},
	{"geometry":{"coordinates":[3.185772,50.792861],"type":"Point"},"properties":{"osm_id":"4327347839","tag":{"amenity":"recycling","location":"underground","recycling:glass_bottles":"yes","recycling_type":"container"}},"type":"Feature"},
	{"geometry":{"coordinates":[3.196277,50.797333],"type":"Point"},"properties":{"osm_id":"4358814533","tag":{"amenity":"recycling","recycling:glass_bottles":"yes","recycling_type":"container"}},"type":"Feature"},
	{"geometry":{"coordinates":[3.164412,50.840839],"type":"Point"},"properties":{"osm_id":"4390470896","tag":{"amenity":"recycling","location":"underground","recycling:glass_bottles":"yes","recycling_type":"container"}},"type":"Feature"},
	{"geometry":{"coordinates":[3.224169,50.825588],"type":"Point"},"properties":{"osm_id":"5262478529","tag":{"amenity":"recycling","recycling:glass_bottles":"yes","recycling_type":"container"}},"type":"Feature"},
	{"geometry":{"coordinates":[3.224779,50.825154],"type":"Point"},"properties":{"osm_id":"5262478600","tag":{"amenity":"waste_basket"}},"type":"Feature"},
	{"geometry":{"coordinates":[3.225273,50.824314],"type":"Point"},"properties":{"osm_id":"5262478748","tag":{"amenity":"waste_basket"}},"type":"Feature"},
	{"geometry":{"coordinates":[3.21129,50.843753],"type":"Point"},"properties":{"osm_id":"5863622148","tag":{"amenity":"recycling","recycling:glass_bottles":"yes","recycling_type":"container"}},"type":"Feature"},
	{"geometry":{"coordinates":[3.215148,50.846486],"type":"Point"},"properties":{"osm_id":"5863625377","tag":{"amenity":"recycling","recycling:glass_bottles":"yes","recycling_type":"container"}},"type":"Feature"},
	{"geometry":{"coordinates":[3.181696,50.810824],"type":"Point"},"properties":{"osm_id":"5972736378","tag":{"amenity":"recycling","operator":"Kringloop","recycling:clothes":"yes","recycling_type":"container"}},"type":"Feature"},
	{"geometry":{"coordinates":[3.184062,50.811935],"type":"Point"},"properties":{"osm_id":"5972766278","tag":{"amenity":"recycling","recycling:glass_bottles":"yes","recycling_type":"container"}},"type":"Feature"},
	{"geometry":{"coordinates":[3.17847,50.807599],"type":"Point"},"properties":{"osm_id":"6400590633","tag":{"amenity":"waste_basket"}},"type":"Feature"},
	{"geometry":{"coordinates":[3.178359,50.807701],"type":"Point"},"properties":{"osm_id":"6400602769","tag":{"amenity":"recycling","recycling:glass_bottles":"yes","recycling_type":"container"}},"type":"Feature"},
	{"geometry":{"coordinates":[3.177809,50.807589],"type":"Point"},"properties":{"osm_id":"6400622879","tag":{"amenity":"waste_basket"}},"type":"Feature"},
	{"geometry":{"coordinates":[3.181785,50.813817],"type":"Point"},"properties":{"osm_id":"6489867339","tag":{"amenity":"recycling","type":"glass"}},"type":"Feature"},
	{"geometry":{"coordinates":[3.240213,50.793532],"type":"Point"},"properties":{"osm_id":"6514109518","tag":{"amenity":"waste_basket"}},"type":"Feature"},
	{"geometry":{"coordinates":[3.201878,50.797667],"type":"Point"},"properties":{"osm_id":"6725071229","tag":{"amenity":"waste_basket"}},"type":"Feature"},
	{"geometry":{"coordinates":[3.200504,50.796739],"type":"Point"},"properties":{"osm_id":"6725089209","tag":{"amenity":"waste_basket"}},"type":"Feature"},
	{"geometry":{"coordinates":[3.201947,50.797138],"type":"Point"},"properties":{"osm_id":"6725108174","tag":{"amenity":"waste_basket"}},"type":"Feature"},
	{"geometry":{"coordinates":[3.243065,50.827102],"type":"Point"},"properties":{"osm_id":"6867448009","tag":{"amenity":"recycling","operator":"Curitas NV","recycling:clothes":"yes","recycling:curtains":"yes","recycling:shoes":"yes","recycling_type":"container"}},"type":"Feature"},
	{"geometry":{"coordinates":[3.241993,50.797763],"type":"Point"},"properties":{"osm_id":"6867584516","tag":{"amenity":"recycling","operator":"Curitas NV","recycling:clothes":"yes","recycling:curtains":"yes","recycling:shoes":"yes","recycling_type":"container"}},"type":"Feature"},
	{"geometry":{"coordinates":[3.185505,50.79421],"type":"Point"},"properties":{"osm_id":"6916768568","tag":{"amenity":"recycling","operator":"WMH","recycling:clothes":"yes","recycling:shoes":"yes","recycling_type":"container"}},"type":"Feature"},
	{"geometry":{"coordinates":[3.185505,50.794219],"type":"Point"},"properties":{"osm_id":"6916768569","tag":{"amenity":"recycling","operator":"WMH","recycling:clothes":"yes","recycling:shoes":"yes","recycling_type":"container"}},"type":"Feature"},
	{"geometry":{"coordinates":[3.233912,50.807451],"type":"Point"},"properties":{"osm_id":"6946164333","tag":{"amenity":"recycling","recycling:glass_bottles":"yes","recycling_type":"container"}},"type":"Feature"},
	{"geometry":{"coordinates":[3.233772,50.807453],"type":"Point"},"properties":{"osm_id":"6946164334","tag":{"amenity":"waste_basket"}},"type":"Feature"},
	{"geometry":{"coordinates":[3.18925,50.801477],"type":"Point"},"properties":{"man_made":"flagpole","osm_id":"7006602423","tag":{"amenity":"waste_basket"}},"type":"Feature"},
	{"geometry":{"coordinates":[3.18918,50.801451],"type":"Point"},"properties":{"man_made":"flagpole","osm_id":"7006602424","tag":{"amenity":"waste_basket"}},"type":"Feature"},
	{"geometry":{"coordinates":[3.184894,50.794672],"type":"Point"},"properties":{"osm_id":"7386297580","tag":{"amenity":"waste_basket"}},"type":"Feature"},
	{"geometry":{"coordinates":[3.186094,50.792964],"type":"Point"},"properties":{"osm_id":"7498984673","tag":{"amenity":"waste_basket"}},"type":"Feature"},
	{"geometry":{"coordinates":[3.186018,50.792961],"type":"Point"},"properties":{"osm_id":"7498984674","tag":{"amenity":"recycling","operator":"De Kringwinkel","recycling:clothes":"yes","recycling_type":"container"}},"type":"Feature"},
	{"geometry":{"coordinates":[3.188941,50.793326],"type":"Point"},"properties":{"osm_id":"7499065837","tag":{"access":"private","amenity":"recycling","recycling_type":"container"}},"type":"Feature"},
	{"geometry":{"coordinates":[3.188964,50.793323],"type":"Point"},"properties":{"osm_id":"7499065838","tag":{"access":"private","amenity":"recycling","recycling_type":"container"}},"type":"Feature"},
	{"geometry":{"coordinates":[3.188986,50.793319],"type":"Point"},"properties":{"osm_id":"7499065839","tag":{"access":"private","amenity":"recycling","recycling_type":"container"}},"type":"Feature"},
	{"geometry":{"coordinates":[3.189011,50.793316],"type":"Point"},"properties":{"osm_id":"7499065840","tag":{"access":"private","amenity":"recycling","recycling_type":"container"}},"type":"Feature"},
	{"geometry":{"coordinates":[3.189038,50.793313],"type":"Point"},"properties":{"osm_id":"7499065841","tag":{"access":"private","amenity":"recycling","recycling_type":"container"}},"type":"Feature"},
	{"geometry":{"coordinates":[3.229116,50.802125],"type":"Point"},"properties":{"osm_id":"7526814173","tag":{"amenity":"waste_basket"}},"type":"Feature"},
	{"geometry":{"coordinates":[3.22815,50.801526],"type":"Point"},"properties":{"osm_id":"7526814176","tag":{"amenity":"waste_basket"}},"type":"Feature"},
	{"geometry":{"coordinates":[3.170694,50.80645],"type":"Point"},"properties":{"osm_id":"7553693340","tag":{"amenity":"waste_basket"}},"type":"Feature"},
	{"geometry":{"coordinates":[3.168451,50.839953],"type":"Point"},"properties":{"osm_id":"7731644322","tag":{"amenity":"waste_basket"}},"type":"Feature"},
	{"geometry":{"coordinates":[3.184359,50.816631],"type":"Point"},"properties":{"osm_id":"7796235704","tag":{"amenity":"waste_basket"}},"type":"Feature"},
	{"geometry":{"coordinates":[3.204491,50.843917],"type":"Point"},"properties":{"osm_id":"7876600344","tag":{"amenity":"waste_basket"}},"type":"Feature"},
	{"geometry":{"coordinates":[3.205713,50.831912],"type":"Point"},"properties":{"osm_id":"7876621844","tag":{"amenity":"waste_basket"}},"type":"Feature"}
]
}
