{
"type": "FeatureCollection",
"features": [
	{"geometry":{"coordinates":[3.213764,50.729782],"type":"Point"},"properties":{"name":"Parc \u00c3\u00a0 containers","osm_id":"664050422","tag":{"amenity":"recycling"}},"type":"Feature"},
	{"geometry":{"coordinates":[3.178763,50.730751],"type":"Point"},"properties":{"osm_id":"1801367619","tag":{"amenity":"waste_basket"}},"type":"Feature"},
	{"geometry":{"coordinates":[3.212597,50.706748],"type":"Point"},"properties":{"osm_id":"3129400090","tag":{"amenity":"waste_basket"}},"type":"Feature"},
	{"geometry":{"coordinates":[3.213125,50.706997],"type":"Point"},"properties":{"osm_id":"3129400100","tag":{"amenity":"waste_basket"}},"type":"Feature"},
	{"geometry":{"coordinates":[3.211686,50.708983],"type":"Point"},"properties":{"osm_id":"3129682047","tag":{"amenity":"waste_basket"}},"type":"Feature"},
	{"geometry":{"coordinates":[3.211874,50.709065],"type":"Point"},"properties":{"osm_id":"3129682052","tag":{"amenity":"waste_basket"}},"type":"Feature"},
	{"geometry":{"coordinates":[3.210689,50.710196],"type":"Point"},"properties":{"osm_id":"3129682070","tag":{"amenity":"waste_basket"}},"type":"Feature"},
	{"geometry":{"coordinates":[3.214744,50.706648],"type":"Point"},"properties":{"osm_id":"3131083047","tag":{"amenity":"waste_basket"}},"type":"Feature"},
	{"geometry":{"coordinates":[3.215178,50.709399],"type":"Point"},"properties":{"osm_id":"3131083093","tag":{"amenity":"waste_basket"}},"type":"Feature"},
	{"geometry":{"coordinates":[3.209678,50.709484],"type":"Point"},"properties":{"osm_id":"3131083104","tag":{"amenity":"waste_basket"}},"type":"Feature"},
	{"geometry":{"coordinates":[3.209613,50.709666],"type":"Point"},"properties":{"osm_id":"3131083125","tag":{"amenity":"waste_basket","waste_disposal":"bag_dog"}},"type":"Feature"},
	{"geometry":{"coordinates":[3.213062,50.710839],"type":"Point"},"properties":{"osm_id":"3131083168","tag":{"amenity":"waste_basket"}},"type":"Feature"},
	{"geometry":{"coordinates":[3.21293,50.710949],"type":"Point"},"properties":{"osm_id":"3131083181","tag":{"amenity":"waste_basket"}},"type":"Feature"},
	{"geometry":{"coordinates":[3.211104,50.710973],"type":"Point"},"properties":{"osm_id":"3131083183","tag":{"amenity":"waste_disposal","waste_disposal":"dog_bag"}},"type":"Feature"},
	{"geometry":{"coordinates":[3.21059,50.711899],"type":"Point"},"properties":{"osm_id":"3131083318","tag":{"amenity":"waste_basket"}},"type":"Feature"},
	{"geometry":{"coordinates":[3.214932,50.712113],"type":"Point"},"properties":{"osm_id":"3131083340","tag":{"amenity":"waste_basket"}},"type":"Feature"},
	{"geometry":{"coordinates":[3.210551,50.712417],"type":"Point"},"properties":{"osm_id":"3131083365","tag":{"amenity":"waste_basket"}},"type":"Feature"},
	{"geometry":{"coordinates":[3.212148,50.712613],"type":"Point"},"properties":{"osm_id":"3131083385","tag":{"amenity":"waste_basket"}},"type":"Feature"},
	{"geometry":{"coordinates":[3.212941,50.709498],"type":"Point"},"properties":{"osm_id":"3131176969","tag":{"amenity":"waste_basket"}},"type":"Feature"},
	{"geometry":{"coordinates":[3.209693,50.709644],"type":"Point"},"properties":{"osm_id":"3131176975","tag":{"amenity":"waste_basket"}},"type":"Feature"},
	{"geometry":{"coordinates":[3.179006,50.716531],"type":"Point"},"properties":{"osm_id":"3934307197","tag":{"amenity":"recycling","recycling:clothes":"yes","recycling:shoes":"yes","recycling_type":"container"}},"type":"Feature"},
	{"geometry":{"coordinates":[3.171481,50.712711],"type":"Point"},"properties":{"osm_id":"5024320522","tag":{"amenity":"waste_basket"}},"type":"Feature"},
	{"geometry":{"coordinates":[3.171148,50.712743],"type":"Point"},"properties":{"osm_id":"5121842750","tag":{"amenity":"waste_basket"}},"type":"Feature"},
	{"geometry":{"coordinates":[3.177999,50.684544],"type":"Point"},"properties":{"name":"Ma campagne","osm_id":"7362649757","tag":{"access":"yes","amenity":"recycling","contact:website":"https://www.roubaixzerodechet.fr/contact/","description":"Composteur de quartier : Biobox+Compostage collectif","operator":"des Jardins et des Hommes","owner":"M\u00c3\u00a9tropole Europ\u00c3\u00a9enne de Lille","recycling:compost":"yes","recycling:organic":"yes","recycling_type":"container"}},"type":"Feature"},
	{"geometry":{"coordinates":[3.193693,50.705475],"type":"Point"},"properties":{"name":"Maison du projet La Laini\u00c3\u00a8re","osm_id":"7363746627","tag":{"access":"yes","amenity":"recycling","contact:website":"https://www.roubaixzerodechet.fr/contact/","description":"Biobox+Compostage collectif","operator":"association Jardin de Traverse","owner":"Ville de Roubaix","recycling:compost":"yes","recycling:organic":"yes","recycling_type":"container"}},"type":"Feature"},
	{"geometry":{"coordinates":[3.186617,50.697261],"type":"Point"},"properties":{"name":"R\u00c3\u00a9sidence La Minoterie","osm_id":"7363746628","tag":{"access":"destination","amenity":"recycling","contact:website":"https://www.roubaixzerodechet.fr/contact/","description":"Compostage partag\u00c3\u00a9","operator":"association Jardin de Traverse","owner":"Ville de Roubaix","recycling:compost":"yes","recycling:organic":"yes","recycling_type":"container"}},"type":"Feature"},
	{"geometry":{"coordinates":[3.192853,50.6949],"type":"Point"},"properties":{"name":"Jardin de Chlorophylle","osm_id":"7363746629","tag":{"access":"yes","amenity":"recycling","contact:website":"https://www.roubaixzerodechet.fr/contact/","description":"Biobox+Compostage collectif","operator":"association Jardin de Traverse","owner":"Ville de Roubaix","recycling:compost":"yes","recycling:organic":"yes","recycling_type":"container"}},"type":"Feature"},
	{"geometry":{"coordinates":[3.174118,50.724373],"type":"Point"},"properties":{"name":"MJC/CS du Virolois","osm_id":"7376020054","tag":{"access":"yes","amenity":"recycling","contact:email":"mjc.virolois@orange.fr","contact:website":"https://www.tourcoing.fr/Mes-loisirs/Nature-en-ville/Developpement-durable/Zero-dechet-Tourcoing","description":"Biobox - Acc\u00c3\u00a8s 24h/24 - Aux heures d\u00e2\u0080\u0099ouverture du Jardin partag\u00c3\u00a9","operator":"Ville de Tourcoing","owner":"Ville de Tourcoing","recycling:compost":"yes","recycling:organic":"yes","recycling_type":"container"}},"type":"Feature"},
	{"geometry":{"coordinates":[3.167152,50.724751],"type":"Point"},"properties":{"name":"Jardin botanique","osm_id":"7376020055","tag":{"access":"yes","amenity":"recycling","contact:email":"devdurable@ville-tourcoing.fr","contact:website":"https://www.tourcoing.fr/Mes-loisirs/Nature-en-ville/Developpement-durable/Zero-dechet-Tourcoing","description":"Biobox - Acc\u00c3\u00a8s 24h/24 par la rue du Moulin Fagot - Aux heures d\u00e2\u0080\u0099ouverture du Jardin Botanique","operator":"Ville de Tourcoing","owner":"Ville de Tourcoing","recycling:compost":"yes","recycling:organic":"yes","recycling_type":"container"}},"type":"Feature"},
	{"geometry":{"coordinates":[3.169986,50.710554],"type":"Point"},"properties":{"osm_id":"7617742898","tag":{"access":"destination","amenity":"recycling","operator":"ajonc","recycling:compost":"yes","recycling:organic":"yes","recycling_type":"container"}},"type":"Feature"},
	{"geometry":{"coordinates":[3.191649,50.694909],"type":"Point"},"properties":{"osm_id":"7900365904","tag":{"access":"customers","amenity":"recycling","operator":"Ajonc","recycling:compost":"yes","recycling:organic":"yes","recycling_type":"container"}},"type":"Feature"}
]
}
