{
"type": "FeatureCollection",
"features": [
	{"geometry":{"coordinates":[3.166861,50.637571],"type":"Point"},"properties":{"osm_id":"2450782731","tag":{"amenity":"waste_basket"}},"type":"Feature"},
	{"geometry":{"coordinates":[3.166364,50.637653],"type":"Point"},"properties":{"osm_id":"2450782735","tag":{"amenity":"waste_basket"}},"type":"Feature"},
	{"geometry":{"coordinates":[3.167592,50.638656],"type":"Point"},"properties":{"osm_id":"2450782740","tag":{"amenity":"waste_basket"}},"type":"Feature"},
	{"geometry":{"coordinates":[3.16463,50.639049],"type":"Point"},"properties":{"osm_id":"2450782742","tag":{"amenity":"waste_basket"}},"type":"Feature"},
	{"geometry":{"coordinates":[3.171526,50.633494],"type":"Point"},"properties":{"osm_id":"2453565814","tag":{"amenity":"waste_basket"}},"type":"Feature"},
	{"geometry":{"coordinates":[3.171969,50.63355],"type":"Point"},"properties":{"osm_id":"2453565817","tag":{"amenity":"waste_basket"}},"type":"Feature"},
	{"geometry":{"coordinates":[3.174967,50.636779],"type":"Point"},"properties":{"osm_id":"2469056669","tag":{"amenity":"waste_basket"}},"type":"Feature"},
	{"geometry":{"coordinates":[3.17316,50.636845],"type":"Point"},"properties":{"osm_id":"2469056672","tag":{"amenity":"waste_basket"}},"type":"Feature"},
	{"geometry":{"coordinates":[3.176253,50.63712],"type":"Point"},"properties":{"osm_id":"2469056676","tag":{"amenity":"waste_basket"}},"type":"Feature"},
	{"geometry":{"coordinates":[3.177071,50.637329],"type":"Point"},"properties":{"osm_id":"2469056684","tag":{"amenity":"waste_basket"}},"type":"Feature"},
	{"geometry":{"coordinates":[3.178716,50.638403],"type":"Point"},"properties":{"osm_id":"2470257328","tag":{"amenity":"waste_basket"}},"type":"Feature"},
	{"geometry":{"coordinates":[3.165174,50.645074],"type":"Point"},"properties":{"osm_id":"2529886628","tag":{"amenity":"waste_basket","material":"plastic"}},"type":"Feature"},
	{"geometry":{"coordinates":[3.164122,50.644087],"type":"Point"},"properties":{"osm_id":"2548300597","tag":{"amenity":"waste_basket","material":"plastic"}},"type":"Feature"},
	{"geometry":{"coordinates":[3.221859,50.648066],"type":"Point"},"properties":{"osm_id":"2675564742","tag":{"amenity":"recycling","recycling:clothes":"yes","recycling_type":"container"}},"type":"Feature"},
	{"geometry":{"coordinates":[3.19283,50.653407],"type":"Point"},"properties":{"osm_id":"6783805014","tag":{"amenity":"waste_basket","waste":"dog_excrement"}},"type":"Feature"},
	{"geometry":{"coordinates":[3.164092,50.645456],"type":"Point"},"properties":{"osm_id":"6852883128","tag":{"amenity":"waste_basket","material":"plastic","waste":"trash"}},"type":"Feature"},
	{"geometry":{"coordinates":[3.164443,50.645293],"type":"Point"},"properties":{"osm_id":"6852883132","tag":{"amenity":"waste_basket","material":"metal"}},"type":"Feature"},
	{"geometry":{"coordinates":[3.1641,50.643979],"type":"Point"},"properties":{"osm_id":"6852883138","tag":{"amenity":"waste_basket","material":"metal"}},"type":"Feature"},
	{"geometry":{"coordinates":[3.164127,50.643774],"type":"Point"},"properties":{"osm_id":"6852883141","tag":{"amenity":"waste_basket","material":"metal"}},"type":"Feature"},
	{"geometry":{"coordinates":[3.165734,50.644786],"type":"Point"},"properties":{"osm_id":"6852905668","tag":{"amenity":"waste_basket","material":"plastic"}},"type":"Feature"},
	{"geometry":{"coordinates":[3.166293,50.644381],"type":"Point"},"properties":{"osm_id":"6852905679","tag":{"amenity":"waste_basket","material":"plastic"}},"type":"Feature"},
	{"geometry":{"coordinates":[3.166431,50.644461],"type":"Point"},"properties":{"osm_id":"6852905681","tag":{"amenity":"waste_basket","material":"plastic"}},"type":"Feature"},
	{"geometry":{"coordinates":[3.22339,50.647926],"type":"Point"},"properties":{"name":"Les fabriques Saillysiennes","osm_id":"7362649759","tag":{"access":"yes","amenity":"recycling","operator":"des Jardins et des Hommes","owner":"M\u00c3\u00a9tropole Europ\u00c3\u00a9enne de Lille","recycling:compost":"yes","recycling:organic":"yes","recycling_type":"container"}},"type":"Feature"},
	{"geometry":{"coordinates":[3.191748,50.674109],"type":"Point"},"properties":{"name":"Jardins partag\u00c3\u00a9s de l'ADEP","osm_id":"7363746623","tag":{"access":"yes","amenity":"recycling","contact:website":"https://www.roubaixzerodechet.fr/contact/","description":"Compostage collectif","operator":"association Jardin de Traverse","owner":"Ville de Roubaix","recycling:compost":"yes","recycling:organic":"yes","recycling_type":"container"}},"type":"Feature"},
	{"geometry":{"coordinates":[3.18647,50.675232],"type":"Point"},"properties":{"name":"Espace Linn\u00c3\u00a9","osm_id":"7363746624","tag":{"access":"yes","amenity":"recycling","contact:website":"https://www.roubaixzerodechet.fr/contact/","description":"Biobox","operator":"association Jardin de Traverse","owner":"Ville de Roubaix","recycling:compost":"yes","recycling:organic":"yes","recycling_type":"container"}},"type":"Feature"},
	{"geometry":{"coordinates":[3.178091,50.674423],"type":"Point"},"properties":{"name":"Jardin de Myosotis","osm_id":"7363746625","tag":{"access":"yes","amenity":"recycling","description":"Biobox+Compostage collectif","operator":"association Jardin de Traverse","owner":"Ville de Roubaix","recycling:compost":"yes","recycling:organic":"yes","recycling_type":"container"}},"type":"Feature"},
	{"geometry":{"coordinates":[3.174588,50.674568],"type":"Point"},"properties":{"name":"R\u00c3\u00a9sidence Parc Beaumont","osm_id":"7363746626","tag":{"access":"yes","amenity":"recycling","contact:website":"https://www.roubaixzerodechet.fr/contact/","description":"Compostage partag\u00c3\u00a9","operator":"association Jardin de Traverse","owner":"Ville de Roubaix","recycling:compost":"yes","recycling:organic":"yes","recycling_type":"container"}},"type":"Feature"},
	{"geometry":{"coordinates":[3.192872,50.635037],"type":"Point"},"properties":{"osm_id":"7596190977","tag":{"amenity":"recycling","operator":"ajonc","recycling:compost":"yes","recycling:organic":"yes","recycling_type":"container"}},"type":"Feature"},
	{"geometry":{"coordinates":[3.168264,50.643759],"type":"Point"},"properties":{"osm_id":"7944975172","tag":{"amenity":"waste_basket","material":"plastic","waste":"trash"}},"type":"Feature"},
	{"geometry":{"coordinates":[3.189232,50.664085],"type":"Point"},"properties":{"osm_id":"7952387800","tag":{"amenity":"waste_basket","colour":"blue","material":"metal","waste":"trash"}},"type":"Feature"},
	{"geometry":{"coordinates":[3.189,50.66434],"type":"Point"},"properties":{"osm_id":"7952387805","tag":{"amenity":"waste_basket","colour":"blue","material":"metal","waste":"trash"}},"type":"Feature"},
	{"geometry":{"coordinates":[3.189326,50.663812],"type":"Point"},"properties":{"osm_id":"7952387806","tag":{"amenity":"waste_basket","colour":"blue","material":"metal","waste":"trash"}},"type":"Feature"}
]
}
