{
"type": "FeatureCollection",
"features": [
	{"geometry":{"coordinates":[3.251101,48.51274],"type":"Point"},"properties":{"osm_id":"2724197996","tag":{"amenity":"waste_basket"}},"type":"Feature"},
	{"geometry":{"coordinates":[3.250815,48.512978],"type":"Point"},"properties":{"osm_id":"2724198000","tag":{"amenity":"waste_basket"}},"type":"Feature"},
	{"geometry":{"coordinates":[3.250943,48.513056],"type":"Point"},"properties":{"osm_id":"2724198004","tag":{"amenity":"waste_basket"}},"type":"Feature"},
	{"geometry":{"coordinates":[3.25068,48.513089],"type":"Point"},"properties":{"osm_id":"2724198006","tag":{"amenity":"waste_basket"}},"type":"Feature"},
	{"geometry":{"coordinates":[3.251037,48.51309],"type":"Point"},"properties":{"osm_id":"2724198007","tag":{"amenity":"waste_basket"}},"type":"Feature"},
	{"geometry":{"coordinates":[3.250809,48.513301],"type":"Point"},"properties":{"osm_id":"2724198021","tag":{"amenity":"waste_basket"}},"type":"Feature"},
	{"geometry":{"coordinates":[3.250314,48.513366],"type":"Point"},"properties":{"osm_id":"2724198037","tag":{"amenity":"waste_basket"}},"type":"Feature"},
	{"geometry":{"coordinates":[3.250518,48.513372],"type":"Point"},"properties":{"osm_id":"2724198043","tag":{"amenity":"waste_basket","layer":"-1","level":"-1"}},"type":"Feature"},
	{"geometry":{"coordinates":[3.250586,48.513378],"type":"Point"},"properties":{"osm_id":"2724198045","tag":{"amenity":"waste_basket"}},"type":"Feature"},
	{"geometry":{"coordinates":[3.250078,48.513441],"type":"Point"},"properties":{"osm_id":"2724198058","tag":{"amenity":"waste_basket"}},"type":"Feature"},
	{"geometry":{"coordinates":[3.250275,48.513465],"type":"Point"},"properties":{"osm_id":"2724198066","tag":{"amenity":"waste_basket"}},"type":"Feature"},
	{"geometry":{"coordinates":[3.250106,48.513472],"type":"Point"},"properties":{"osm_id":"2724198068","tag":{"amenity":"waste_basket"}},"type":"Feature"},
	{"geometry":{"coordinates":[3.250159,48.513516],"type":"Point"},"properties":{"osm_id":"2724198092","tag":{"amenity":"waste_basket"}},"type":"Feature"},
	{"geometry":{"coordinates":[3.250397,48.513532],"type":"Point"},"properties":{"osm_id":"2724198097","tag":{"amenity":"waste_basket"}},"type":"Feature"},
	{"geometry":{"coordinates":[3.250049,48.513603],"type":"Point"},"properties":{"osm_id":"2724198116","tag":{"amenity":"waste_basket"}},"type":"Feature"},
	{"geometry":{"coordinates":[3.250374,48.513674],"type":"Point"},"properties":{"osm_id":"2724198129","tag":{"amenity":"waste_basket"}},"type":"Feature"},
	{"geometry":{"coordinates":[3.250197,48.513684],"type":"Point"},"properties":{"osm_id":"2724198131","tag":{"amenity":"waste_basket"}},"type":"Feature"},
	{"geometry":{"coordinates":[3.250003,48.513689],"type":"Point"},"properties":{"osm_id":"2724198133","tag":{"amenity":"waste_basket"}},"type":"Feature"},
	{"geometry":{"coordinates":[3.250022,48.513829],"type":"Point"},"properties":{"osm_id":"2724198153","tag":{"amenity":"waste_basket"}},"type":"Feature"},
	{"geometry":{"coordinates":[3.249791,48.513833],"type":"Point"},"properties":{"osm_id":"2724198157","tag":{"amenity":"waste_basket"}},"type":"Feature"},
	{"geometry":{"coordinates":[3.250124,48.513872],"type":"Point"},"properties":{"osm_id":"2724198161","tag":{"amenity":"waste_basket"}},"type":"Feature"},
	{"geometry":{"coordinates":[3.249717,48.513941],"type":"Point"},"properties":{"osm_id":"2724198183","tag":{"amenity":"waste_basket"}},"type":"Feature"},
	{"geometry":{"coordinates":[3.24969,48.51411],"type":"Point"},"properties":{"osm_id":"2724198197","tag":{"amenity":"waste_basket"}},"type":"Feature"},
	{"geometry":{"coordinates":[3.249814,48.514134],"type":"Point"},"properties":{"osm_id":"2724198201","tag":{"amenity":"waste_basket"}},"type":"Feature"},
	{"geometry":{"coordinates":[3.249739,48.514198],"type":"Point"},"properties":{"osm_id":"2724198203","tag":{"amenity":"waste_basket"}},"type":"Feature"},
	{"geometry":{"coordinates":[3.249563,48.514212],"type":"Point"},"properties":{"osm_id":"2724198207","tag":{"amenity":"waste_basket"}},"type":"Feature"},
	{"geometry":{"coordinates":[3.249453,48.5143],"type":"Point"},"properties":{"osm_id":"2724198209","tag":{"amenity":"waste_basket"}},"type":"Feature"},
	{"geometry":{"coordinates":[3.165097,48.515847],"type":"Point"},"properties":{"osm_id":"6635220843","tag":{"amenity":"recycling","recycling:glass_bottles":"yes","recycling_type":"container"}},"type":"Feature"}
]
}
