{
"type": "FeatureCollection",
"lastupdate": "2020-08-05T00:00:00Z",
"features": [
	{"geometry":{"coordinates":[3.201531,45.661029],"type":"Point"},"properties":{"osm_id":"2020486874","tag":{"amenity":"recycling"}},"type":"Feature"},
	{"geometry":{"coordinates":[3.195756,45.669753],"type":"Point"},"properties":{"osm_id":"2020487011","tag":{"amenity":"recycling","recycling_type":"container"}},"type":"Feature"},
	{"geometry":{"coordinates":[3.25147,45.691844],"type":"Point"},"properties":{"osm_id":"2255925945","tag":{"amenity":"recycling"}},"type":"Feature"},
	{"geometry":{"coordinates":[3.190786,45.684207],"type":"Point"},"properties":{"osm_id":"3489493650","tag":{"amenity":"recycling","recycling_type":"container"}},"type":"Feature"},
	{"geometry":{"coordinates":[3.19077,45.684209],"type":"Point"},"properties":{"osm_id":"3489493651","tag":{"amenity":"recycling","recycling_type":"container"}},"type":"Feature"},
	{"geometry":{"coordinates":[3.190788,45.684224],"type":"Point"},"properties":{"osm_id":"3489493652","tag":{"amenity":"recycling","recycling_type":"container"}},"type":"Feature"},
	{"geometry":{"coordinates":[3.190772,45.684226],"type":"Point"},"properties":{"osm_id":"3489493653","tag":{"amenity":"recycling","recycling_type":"container"}},"type":"Feature"},
	{"geometry":{"coordinates":[3.192657,45.686423],"type":"Point"},"properties":{"osm_id":"3489493663","tag":{"amenity":"recycling","recycling_type":"container"}},"type":"Feature"},
	{"geometry":{"coordinates":[3.192663,45.686427],"type":"Point"},"properties":{"osm_id":"3489493665","tag":{"amenity":"recycling","recycling_type":"container"}},"type":"Feature"},
	{"geometry":{"coordinates":[3.192669,45.686434],"type":"Point"},"properties":{"osm_id":"3489493666","tag":{"amenity":"recycling","recycling_type":"container"}},"type":"Feature"},
	{"geometry":{"coordinates":[3.193271,45.688022],"type":"Point"},"properties":{"osm_id":"3489493691","tag":{"amenity":"waste_basket"}},"type":"Feature"},
	{"geometry":{"coordinates":[3.236617,45.669137],"type":"Point"},"properties":{"osm_id":"5310360885","tag":{"amenity":"recycling","recycling:clothes":"yes","recycling:glass_bottles":"yes","recycling:shoes":"yes","recycling_type":"container","wheelchair":"yes"}},"type":"Feature"},
	{"geometry":{"coordinates":[3.229998,45.66405],"type":"Point"},"properties":{"osm_id":"5313879814","tag":{"amenity":"waste_basket"}},"type":"Feature"},
	{"geometry":{"coordinates":[3.225731,45.695826],"type":"Point"},"properties":{"osm_id":"7612507270","tag":{"amenity":"recycling"}},"type":"Feature"},
	{"geometry":{"coordinates":[3.207942,45.67114],"type":"Point"},"properties":{"osm_id":"7726627343","tag":{"amenity":"recycling","opening_hours":"24/7","operator":"Syndicat du Bois de l'Aum\u00f4ne","recycling:glass":"yes","recycling_type":"container"}},"type":"Feature"},
	{"geometry":{"coordinates":[3.208183,45.666149],"type":"Point"},"properties":{"osm_id":"7764765217","tag":{"amenity":"recycling","recycling:clothes":"yes","recycling_type":"container"}},"type":"Feature"}
]
}
