{
"type": "FeatureCollection",
"features": [
	{"geometry":{"coordinates":[3.179935,43.176127],"type":"Point"},"properties":{"osm_id":"2089992323","tag":{"amenity":"recycling","recycling_type":"centre"}},"type":"Feature"},
	{"geometry":{"coordinates":[3.18221,43.172575],"type":"Point"},"properties":{"osm_id":"2430681343","tag":{"amenity":"recycling"}},"type":"Feature"},
	{"geometry":{"coordinates":[3.182124,43.170868],"type":"Point"},"properties":{"osm_id":"7502839219","tag":{"amenity":"recycling","recycling:waste":"yes","recycling_type":"container"}},"type":"Feature"},
	{"geometry":{"coordinates":[3.182142,43.171451],"type":"Point"},"properties":{"osm_id":"7732203475","tag":{"amenity":"waste_disposal"}},"type":"Feature"},
	{"geometry":{"coordinates":[3.183467,43.172208],"type":"Point"},"properties":{"osm_id":"7734671485","tag":{"amenity":"waste_disposal"}},"type":"Feature"},
	{"geometry":{"coordinates":[3.1975,43.190436],"type":"Point"},"properties":{"osm_id":"8904848104","tag":{"amenity":"recycling","description":"M\u00c3\u00a9nag\u00c3\u00a8res, verre. Emballage"}},"type":"Feature"}
]
}
