{
"type": "FeatureCollection",
"features": [
	{"geometry":{"coordinates":[8.446559,55.485019],"type":"Point"},"properties":{"osm_id":"1089938039","tag":{"amenity":"waste_basket"}},"type":"Feature"},
	{"geometry":{"coordinates":[8.466482,55.497104],"type":"Point"},"properties":{"osm_id":"3781510207","tag":{"amenity":"waste_basket"}},"type":"Feature"},
	{"geometry":{"coordinates":[8.43825,55.52509],"type":"Point"},"properties":{"osm_id":"4263539921","tag":{"amenity":"waste_basket"}},"type":"Feature"},
	{"geometry":{"coordinates":[8.451399,55.510488],"type":"Point"},"properties":{"osm_id":"4263573144","tag":{"amenity":"waste_basket"}},"type":"Feature"},
	{"geometry":{"coordinates":[8.452377,55.509543],"type":"Point"},"properties":{"osm_id":"4263573145","tag":{"amenity":"waste_basket"}},"type":"Feature"},
	{"geometry":{"coordinates":[8.449855,55.509727],"type":"Point"},"properties":{"osm_id":"4263573146","tag":{"amenity":"waste_basket"}},"type":"Feature"},
	{"geometry":{"coordinates":[8.455197,55.508514],"type":"Point"},"properties":{"osm_id":"4263573148","tag":{"amenity":"waste_basket"}},"type":"Feature"},
	{"geometry":{"coordinates":[8.442625,55.514435],"type":"Point"},"properties":{"osm_id":"4263573149","tag":{"amenity":"waste_basket"}},"type":"Feature"},
	{"geometry":{"coordinates":[8.439035,55.509054],"type":"Point"},"properties":{"osm_id":"4263592080","tag":{"amenity":"waste_basket"}},"type":"Feature"},
	{"geometry":{"coordinates":[8.462096,55.525473],"type":"Point"},"properties":{"osm_id":"4263592696","tag":{"amenity":"waste_basket"}},"type":"Feature"},
	{"geometry":{"coordinates":[8.440802,55.489647],"type":"Point"},"properties":{"osm_id":"4263592700","tag":{"amenity":"waste_basket"}},"type":"Feature"},
	{"geometry":{"coordinates":[8.449761,55.507722],"type":"Point"},"properties":{"osm_id":"4291704824","tag":{"amenity":"waste_basket"}},"type":"Feature"},
	{"geometry":{"coordinates":[8.448695,55.507903],"type":"Point"},"properties":{"osm_id":"4291704825","tag":{"amenity":"waste_basket"}},"type":"Feature"},
	{"geometry":{"coordinates":[8.445537,55.513141],"type":"Point"},"properties":{"osm_id":"4291704826","tag":{"amenity":"waste_basket"}},"type":"Feature"},
	{"geometry":{"coordinates":[8.455511,55.511901],"type":"Point"},"properties":{"osm_id":"4291704827","tag":{"amenity":"waste_basket"}},"type":"Feature"},
	{"geometry":{"coordinates":[8.462923,55.508998],"type":"Point"},"properties":{"osm_id":"4291704828","tag":{"amenity":"waste_basket"}},"type":"Feature"},
	{"geometry":{"coordinates":[8.462909,55.508878],"type":"Point"},"properties":{"osm_id":"4291704829","tag":{"amenity":"waste_basket"}},"type":"Feature"},
	{"geometry":{"coordinates":[8.460866,55.526014],"type":"Point"},"properties":{"osm_id":"4365420863","tag":{"amenity":"waste_basket"}},"type":"Feature"},
	{"geometry":{"coordinates":[8.45545,55.511609],"type":"Point"},"properties":{"osm_id":"4365420864","tag":{"amenity":"waste_basket"}},"type":"Feature"},
	{"geometry":{"coordinates":[8.494786,55.478926],"type":"Point"},"properties":{"osm_id":"4439409762","tag":{"amenity":"waste_basket"}},"type":"Feature"},
	{"geometry":{"coordinates":[8.495722,55.479484],"type":"Point"},"properties":{"osm_id":"4439409763","tag":{"amenity":"waste_basket"}},"type":"Feature"},
	{"geometry":{"coordinates":[8.493159,55.478864],"type":"Point"},"properties":{"osm_id":"4439409996","tag":{"amenity":"waste_basket"}},"type":"Feature"},
	{"geometry":{"coordinates":[8.495884,55.479421],"type":"Point"},"properties":{"osm_id":"4439410180","tag":{"amenity":"waste_basket"}},"type":"Feature"},
	{"geometry":{"coordinates":[8.495515,55.479431],"type":"Point"},"properties":{"osm_id":"4439410181","tag":{"amenity":"waste_basket"}},"type":"Feature"},
	{"geometry":{"coordinates":[8.495769,55.479335],"type":"Point"},"properties":{"osm_id":"4439410182","tag":{"amenity":"waste_basket"}},"type":"Feature"},
	{"geometry":{"coordinates":[8.462655,55.527668],"type":"Point"},"properties":{"osm_id":"4439410203","tag":{"amenity":"waste_basket"}},"type":"Feature"},
	{"geometry":{"coordinates":[8.456163,55.527616],"type":"Point"},"properties":{"osm_id":"4439410204","tag":{"amenity":"waste_basket"}},"type":"Feature"},
	{"geometry":{"coordinates":[8.457692,55.52754],"type":"Point"},"properties":{"osm_id":"4459137436","tag":{"amenity":"waste_basket"}},"type":"Feature"},
	{"geometry":{"coordinates":[8.449393,55.509955],"type":"Point"},"properties":{"osm_id":"4881804851","tag":{"amenity":"waste_basket"}},"type":"Feature"},
	{"geometry":{"coordinates":[8.44349,55.482084],"type":"Point"},"properties":{"osm_id":"7156768892","tag":{"amenity":"waste_basket"}},"type":"Feature"},
	{"geometry":{"coordinates":[8.442599,55.482239],"type":"Point"},"properties":{"osm_id":"7156768899","tag":{"amenity":"waste_basket"}},"type":"Feature"},
	{"geometry":{"coordinates":[8.439736,55.484195],"type":"Point"},"properties":{"osm_id":"7156800720","tag":{"amenity":"waste_basket"}},"type":"Feature"},
	{"geometry":{"coordinates":[8.440175,55.48451],"type":"Point"},"properties":{"osm_id":"7156800726","tag":{"amenity":"waste_basket"}},"type":"Feature"},
	{"geometry":{"coordinates":[8.440127,55.483987],"type":"Point"},"properties":{"osm_id":"7156800730","tag":{"amenity":"waste_basket"}},"type":"Feature"},
	{"geometry":{"coordinates":[8.441256,55.483554],"type":"Point"},"properties":{"osm_id":"7156800734","tag":{"amenity":"waste_basket"}},"type":"Feature"},
	{"geometry":{"coordinates":[8.441911,55.48387],"type":"Point"},"properties":{"osm_id":"7156800737","tag":{"amenity":"waste_basket"}},"type":"Feature"},
	{"geometry":{"coordinates":[8.441957,55.483745],"type":"Point"},"properties":{"osm_id":"7156800739","tag":{"amenity":"waste_basket"}},"type":"Feature"},
	{"geometry":{"coordinates":[8.442565,55.482836],"type":"Point"},"properties":{"osm_id":"7156800741","tag":{"amenity":"waste_basket","leisure":"picnic_table"}},"type":"Feature"},
	{"geometry":{"coordinates":[8.44033,55.483812],"type":"Point"},"properties":{"osm_id":"7156800742","tag":{"amenity":"waste_basket"}},"type":"Feature"},
	{"geometry":{"coordinates":[8.460125,55.494529],"type":"Point"},"properties":{"osm_id":"7900764801","tag":{"amenity":"waste_basket","waste":"trash"}},"type":"Feature"}
]
}
