{
"type": "FeatureCollection",
"features": [
	{"geometry":{"coordinates":[8.441029,55.4633],"type":"Point"},"properties":{"osm_id":"677497876","tag":{"amenity":"waste_basket"}},"type":"Feature"},
	{"geometry":{"coordinates":[8.440635,55.461316],"type":"Point"},"properties":{"osm_id":"677497877","tag":{"amenity":"waste_basket"}},"type":"Feature"},
	{"geometry":{"coordinates":[8.440984,55.462958],"type":"Point"},"properties":{"osm_id":"677497880","tag":{"amenity":"waste_basket"}},"type":"Feature"},
	{"geometry":{"coordinates":[8.440948,55.462584],"type":"Point"},"properties":{"osm_id":"677497888","tag":{"amenity":"waste_basket"}},"type":"Feature"},
	{"geometry":{"coordinates":[8.50517,55.459209],"type":"Point"},"properties":{"barrier":"gate","osm_id":"1020492043"},"type":"Feature"},
	{"geometry":{"coordinates":[8.504986,55.459696],"type":"Point"},"properties":{"barrier":"gate","osm_id":"1020492085"},"type":"Feature"},
	{"geometry":{"coordinates":[8.488428,55.469507],"type":"Point"},"properties":{"osm_id":"1116377829","tag":{"amenity":"waste_basket"}},"type":"Feature"},
	{"geometry":{"coordinates":[8.490429,55.463847],"type":"Point"},"properties":{"osm_id":"2845176341","tag":{"amenity":"waste_basket"}},"type":"Feature"},
	{"geometry":{"coordinates":[8.458336,55.467748],"type":"Point"},"properties":{"osm_id":"3425409183","tag":{"amenity":"waste_basket"}},"type":"Feature"},
	{"geometry":{"coordinates":[8.512262,55.476632],"type":"Point"},"properties":{"osm_id":"4439409761","tag":{"amenity":"waste_basket"}},"type":"Feature"},
	{"geometry":{"coordinates":[8.492721,55.478467],"type":"Point"},"properties":{"osm_id":"4439409995","tag":{"amenity":"waste_basket"}},"type":"Feature"},
	{"geometry":{"coordinates":[8.439919,55.466813],"type":"Point"},"properties":{"osm_id":"4578708891","tag":{"amenity":"waste_basket"}},"type":"Feature"},
	{"geometry":{"coordinates":[8.457338,55.468008],"type":"Point"},"properties":{"osm_id":"4764854972","tag":{"amenity":"waste_basket"}},"type":"Feature"},
	{"geometry":{"coordinates":[8.442672,55.466289],"type":"Point"},"properties":{"osm_id":"5213219602","tag":{"amenity":"waste_disposal"}},"type":"Feature"},
	{"geometry":{"coordinates":[8.493054,55.478195],"type":"Point"},"properties":{"osm_id":"7159884970","tag":{"amenity":"recycling","operator":"Dansk Retursystem - Pantstation","recycling:plastic_bottles":"yes","recycling_type":"container"}},"type":"Feature"},
	{"geometry":{"coordinates":[8.505083,55.459453],"type":"Point"},"properties":{"barrier":"gate","osm_id":"7198617139"},"type":"Feature"},
	{"geometry":{"coordinates":[8.503166,55.458769],"type":"Point"},"properties":{"barrier":"gate","osm_id":"7198617155"},"type":"Feature"},
	{"geometry":{"coordinates":[8.487817,55.462004],"type":"Point"},"properties":{"osm_id":"7294403560","tag":{"amenity":"waste_basket","waste":"trash"}},"type":"Feature"},
	{"geometry":{"coordinates":[8.448394,55.468153],"type":"Point"},"properties":{"osm_id":"7523294566","tag":{"amenity":"waste_basket"}},"type":"Feature"},
	{"geometry":{"coordinates":[8.438674,55.467373],"type":"Point"},"properties":{"osm_id":"7746365501","tag":{"amenity":"waste_basket","waste":"trash"}},"type":"Feature"}
]
}
