{
"type": "FeatureCollection",
"features": [
	{"geometry":{"coordinates":[8.464209,53.325478],"type":"Point"},"properties":{"osm_id":"295093999","tag":{"amenity":"recycling","recycling:glass":"yes","recycling_type":"container"}},"type":"Feature"},
	{"geometry":{"coordinates":[8.481267,53.32955],"type":"Point"},"properties":{"osm_id":"312396570","tag":{"amenity":"recycling","recycling:glass":"yes","recycling_type":"container"}},"type":"Feature"},
	{"geometry":{"coordinates":[8.445908,53.323859],"type":"Point"},"properties":{"osm_id":"495492942","tag":{"amenity":"recycling","recycling:glass":"yes","recycling_type":"container"}},"type":"Feature"},
	{"geometry":{"coordinates":[8.472942,53.278507],"type":"Point"},"properties":{"osm_id":"927077068","tag":{"amenity":"recycling","recycling_type":"container"}},"type":"Feature"},
	{"geometry":{"coordinates":[8.471645,53.296831],"type":"Point"},"properties":{"name":"GIB Entsorgung","osm_id":"927107856","tag":{"addr:city":"Brake (Unterweser)","addr:country":"DE","addr:postcode":"26919","addr:street":"An der B212","amenity":"recycling","contact:phone":"+49 4401 97890","recycling_type":"centre","website":"https://www.gib-entsorgung.de/"}},"type":"Feature"},
	{"geometry":{"coordinates":[8.449507,53.288787],"type":"Point"},"properties":{"osm_id":"2725075958","tag":{"amenity":"recycling","recycling:glass":"yes","recycling_type":"container"}},"type":"Feature"},
	{"geometry":{"coordinates":[8.468928,53.326382],"type":"Point"},"properties":{"osm_id":"3208607965","tag":{"amenity":"recycling","recycling:glass":"yes","recycling_type":"container"}},"type":"Feature"},
	{"geometry":{"coordinates":[8.496233,53.294145],"type":"Point"},"properties":{"osm_id":"5803961857","tag":{"amenity":"waste_basket","waste":"trash"}},"type":"Feature"},
	{"geometry":{"coordinates":[8.496697,53.294032],"type":"Point"},"properties":{"osm_id":"5803961858","tag":{"amenity":"waste_basket","waste":"trash"}},"type":"Feature"},
	{"geometry":{"coordinates":[8.483212,53.303898],"type":"Point"},"properties":{"osm_id":"9150195980","tag":{"amenity":"recycling","recycling:glass":"yes","recycling_type":"container"}},"type":"Feature"}
]
}
