{
"type": "FeatureCollection",
"features": [
	{"geometry":{"coordinates":[8.523464,52.02856],"type":"Point"},"properties":{"osm_id":"280513323","tag":{"amenity":"recycling","recycling:glass_bottles":"yes","recycling_type":"container"}},"type":"Feature"},
	{"geometry":{"coordinates":[8.51773,52.037216],"type":"Point"},"properties":{"osm_id":"414610478","tag":{"amenity":"recycling","recycling:clothes":"yes","recycling:glass_bottles":"yes","recycling_type":"container"}},"type":"Feature"},
	{"geometry":{"coordinates":[8.499745,52.03628],"type":"Point"},"properties":{"osm_id":"420406019","tag":{"amenity":"recycling","recycling:glass_bottles":"yes","recycling_type":"container"}},"type":"Feature"},
	{"geometry":{"coordinates":[8.48605,52.044437],"type":"Point"},"properties":{"osm_id":"427564961","tag":{"amenity":"recycling","location":"overground","recycling:clothes":"yes","recycling:glass_bottles":"yes","recycling_type":"container"}},"type":"Feature"},
	{"geometry":{"coordinates":[8.522057,52.003118],"type":"Point"},"properties":{"osm_id":"440836313","tag":{"amenity":"recycling","recycling:glass_bottles":"yes"}},"type":"Feature"},
	{"geometry":{"coordinates":[8.504809,52.035873],"type":"Point"},"properties":{"osm_id":"443122856","tag":{"amenity":"recycling","recycling:glass_bottles":"yes","recycling_type":"container"}},"type":"Feature"},
	{"geometry":{"coordinates":[8.494924,52.021645],"type":"Point"},"properties":{"osm_id":"459960539","tag":{"amenity":"recycling","location":"overground","recycling:clothes":"yes","recycling:glass_bottles":"yes","recycling_type":"container"}},"type":"Feature"},
	{"geometry":{"coordinates":[8.509469,52.048594],"type":"Point"},"properties":{"osm_id":"470377332","tag":{"amenity":"recycling","recycling:clothes":"yes","recycling:glass_bottles":"yes","recycling_type":"container"}},"type":"Feature"},
	{"geometry":{"coordinates":[8.491964,52.039389],"type":"Point"},"properties":{"osm_id":"473400557","tag":{"amenity":"recycling","recycling:glass_bottles":"yes","recycling_type":"container"}},"type":"Feature"},
	{"geometry":{"coordinates":[8.493533,52.038788],"type":"Point"},"properties":{"osm_id":"473400558","tag":{"amenity":"recycling","recycling:glass_bottles":"yes","recycling_type":"container"}},"type":"Feature"},
	{"geometry":{"coordinates":[8.519917,52.048313],"type":"Point"},"properties":{"osm_id":"482823630","tag":{"amenity":"recycling","recycling:clothes":"yes","recycling:glass_bottles":"yes","recycling_type":"container"}},"type":"Feature"},
	{"geometry":{"coordinates":[8.510586,52.036261],"type":"Point"},"properties":{"osm_id":"618890235","tag":{"amenity":"recycling","recycling:glass_bottles":"yes","recycling_type":"container"}},"type":"Feature"},
	{"geometry":{"coordinates":[8.522842,52.033072],"type":"Point"},"properties":{"osm_id":"671534266","tag":{"amenity":"recycling","recycling:clothes":"yes","recycling:shoes":"yes","recycling_type":"container"}},"type":"Feature"},
	{"geometry":{"coordinates":[8.502153,52.049281],"type":"Point"},"properties":{"osm_id":"680241338","tag":{"amenity":"recycling","location":"overground","recycling:clothes":"yes","recycling_type":"container"}},"type":"Feature"},
	{"geometry":{"coordinates":[8.50239,52.04922],"type":"Point"},"properties":{"osm_id":"680241346","tag":{"amenity":"recycling","recycling:glass_bottles":"yes","recycling_type":"container"}},"type":"Feature"},
	{"geometry":{"coordinates":[8.522435,52.028778],"type":"Point"},"properties":{"osm_id":"715402403","tag":{"amenity":"waste_basket"}},"type":"Feature"},
	{"geometry":{"coordinates":[8.522222,52.028496],"type":"Point"},"properties":{"osm_id":"715402420","tag":{"amenity":"waste_basket"}},"type":"Feature"},
	{"geometry":{"coordinates":[8.522362,52.028616],"type":"Point"},"properties":{"osm_id":"715402423","tag":{"amenity":"waste_basket"}},"type":"Feature"},
	{"geometry":{"coordinates":[8.490737,52.029453],"type":"Point"},"properties":{"osm_id":"863886328","tag":{"amenity":"waste_basket"}},"type":"Feature"},
	{"geometry":{"coordinates":[8.522644,52.008638],"type":"Point"},"properties":{"osm_id":"894933278","tag":{"amenity":"waste_basket"}},"type":"Feature"},
	{"geometry":{"coordinates":[8.52534,52.011849],"type":"Point"},"properties":{"osm_id":"894933282","tag":{"amenity":"waste_basket"}},"type":"Feature"},
	{"geometry":{"coordinates":[8.522163,52.028166],"type":"Point"},"properties":{"osm_id":"1284886445","tag":{"amenity":"waste_basket"}},"type":"Feature"},
	{"geometry":{"coordinates":[8.522174,52.028359],"type":"Point"},"properties":{"osm_id":"1286204930","tag":{"amenity":"waste_basket"}},"type":"Feature"},
	{"geometry":{"coordinates":[8.522028,52.028056],"type":"Point"},"properties":{"osm_id":"1286204951","tag":{"amenity":"waste_basket"}},"type":"Feature"},
	{"geometry":{"coordinates":[8.522891,52.028109],"type":"Point"},"properties":{"osm_id":"1313528169","tag":{"amenity":"waste_basket"}},"type":"Feature"},
	{"geometry":{"coordinates":[8.525337,52.015885],"type":"Point"},"properties":{"osm_id":"1357203376","tag":{"amenity":"waste_basket"}},"type":"Feature"},
	{"geometry":{"coordinates":[8.511275,52.040662],"type":"Point"},"properties":{"osm_id":"1493339763","tag":{"amenity":"recycling","operator":"DESWOS e.V.","recycling:clothes":"yes"}},"type":"Feature"},
	{"geometry":{"coordinates":[8.511599,52.042742],"type":"Point"},"properties":{"osm_id":"1493366556","tag":{"amenity":"recycling","operator":"DESWOS e.V.","recycling:clothes":"yes"}},"type":"Feature"},
	{"geometry":{"coordinates":[8.513507,52.040523],"type":"Point"},"properties":{"osm_id":"1493379793","tag":{"amenity":"recycling","location":"overground","operator":"DESWOS e.V.","recycling:clothes":"yes","recycling_type":"container"}},"type":"Feature"},
	{"geometry":{"coordinates":[8.502721,52.044143],"type":"Point"},"properties":{"osm_id":"1659342940","tag":{"amenity":"waste_basket"}},"type":"Feature"},
	{"geometry":{"coordinates":[8.505508,52.044286],"type":"Point"},"properties":{"osm_id":"1659342943","tag":{"amenity":"waste_basket"}},"type":"Feature"},
	{"geometry":{"coordinates":[8.506736,52.045106],"type":"Point"},"properties":{"osm_id":"1659342953","tag":{"amenity":"waste_basket"}},"type":"Feature"},
	{"geometry":{"coordinates":[8.493705,52.005545],"type":"Point"},"properties":{"osm_id":"1672878373","tag":{"amenity":"waste_basket"}},"type":"Feature"},
	{"geometry":{"coordinates":[8.492605,52.005882],"type":"Point"},"properties":{"osm_id":"1672878375","tag":{"amenity":"waste_basket"}},"type":"Feature"},
	{"geometry":{"coordinates":[8.49041,52.010712],"type":"Point"},"properties":{"osm_id":"1672878393","tag":{"amenity":"waste_basket"}},"type":"Feature"},
	{"geometry":{"coordinates":[8.490345,52.010994],"type":"Point"},"properties":{"osm_id":"1672878394","tag":{"amenity":"waste_basket"}},"type":"Feature"},
	{"geometry":{"coordinates":[8.501665,52.009337],"type":"Point"},"properties":{"osm_id":"1673874201","tag":{"amenity":"recycling","recycling:glass_bottles":"yes","recycling_type":"container"}},"type":"Feature"},
	{"geometry":{"coordinates":[8.497327,52.003615],"type":"Point"},"properties":{"osm_id":"1674091144","tag":{"amenity":"waste_basket"}},"type":"Feature"},
	{"geometry":{"coordinates":[8.508552,52.021954],"type":"Point"},"properties":{"osm_id":"1685299504","tag":{"amenity":"waste_basket"}},"type":"Feature"},
	{"geometry":{"coordinates":[8.514559,52.021349],"type":"Point"},"properties":{"osm_id":"1696887286","tag":{"amenity":"waste_basket"}},"type":"Feature"},
	{"geometry":{"coordinates":[8.506111,52.040351],"type":"Point"},"properties":{"osm_id":"1696887301","tag":{"amenity":"waste_basket"}},"type":"Feature"},
	{"geometry":{"coordinates":[8.510396,52.041669],"type":"Point"},"properties":{"osm_id":"1696887304","tag":{"amenity":"waste_basket"}},"type":"Feature"},
	{"geometry":{"coordinates":[8.522721,52.016918],"type":"Point"},"properties":{"osm_id":"1698755483","tag":{"amenity":"waste_basket"}},"type":"Feature"},
	{"geometry":{"coordinates":[8.505163,52.025635],"type":"Point"},"properties":{"osm_id":"1859912710","tag":{"amenity":"waste_basket"}},"type":"Feature"},
	{"geometry":{"coordinates":[8.503064,52.026702],"type":"Point"},"properties":{"osm_id":"1859912713","tag":{"amenity":"waste_basket"}},"type":"Feature"},
	{"geometry":{"coordinates":[8.515894,52.027743],"type":"Point"},"properties":{"osm_id":"1859912752","tag":{"amenity":"waste_basket"}},"type":"Feature"},
	{"geometry":{"coordinates":[8.513226,52.025472],"type":"Point"},"properties":{"osm_id":"1862683528","tag":{"amenity":"waste_basket"}},"type":"Feature"},
	{"geometry":{"coordinates":[8.514399,52.026018],"type":"Point"},"properties":{"osm_id":"1862683569","tag":{"amenity":"waste_basket"}},"type":"Feature"},
	{"geometry":{"coordinates":[8.514971,52.026651],"type":"Point"},"properties":{"osm_id":"1862683573","tag":{"amenity":"waste_basket"}},"type":"Feature"},
	{"geometry":{"coordinates":[8.515486,52.026895],"type":"Point"},"properties":{"osm_id":"1862683579","tag":{"amenity":"waste_basket"}},"type":"Feature"},
	{"geometry":{"coordinates":[8.502045,52.014588],"type":"Point"},"properties":{"osm_id":"1863389614","tag":{"amenity":"waste_basket"}},"type":"Feature"},
	{"geometry":{"coordinates":[8.500431,52.016034],"type":"Point"},"properties":{"osm_id":"1863389653","tag":{"amenity":"waste_basket"}},"type":"Feature"},
	{"geometry":{"coordinates":[8.490823,52.022855],"type":"Point"},"properties":{"osm_id":"1863389765","tag":{"amenity":"waste_basket"}},"type":"Feature"},
	{"geometry":{"coordinates":[8.512475,52.027053],"type":"Point"},"properties":{"osm_id":"1863453887","tag":{"amenity":"waste_basket"}},"type":"Feature"},
	{"geometry":{"coordinates":[8.513992,52.027919],"type":"Point"},"properties":{"osm_id":"1863453898","tag":{"amenity":"waste_basket"}},"type":"Feature"},
	{"geometry":{"coordinates":[8.512661,52.026134],"type":"Point"},"properties":{"osm_id":"1867430857","tag":{"amenity":"waste_basket"}},"type":"Feature"},
	{"geometry":{"coordinates":[8.489811,52.001489],"type":"Point"},"properties":{"osm_id":"1901315228","tag":{"amenity":"recycling","recycling:clothes":"yes","recycling:glass_bottles":"yes","recycling_type":"container"}},"type":"Feature"},
	{"geometry":{"coordinates":[8.512681,52.027855],"type":"Point"},"properties":{"osm_id":"1909143294","tag":{"amenity":"waste_basket"}},"type":"Feature"},
	{"geometry":{"coordinates":[8.512746,52.028576],"type":"Point"},"properties":{"osm_id":"1909143321","tag":{"amenity":"recycling","recycling:glass_bottles":"yes","recycling_type":"container"}},"type":"Feature"},
	{"geometry":{"coordinates":[8.510579,52.032488],"type":"Point"},"properties":{"osm_id":"1909143429","tag":{"amenity":"waste_basket"}},"type":"Feature"},
	{"geometry":{"coordinates":[8.511742,52.033804],"type":"Point"},"properties":{"osm_id":"1909143445","tag":{"amenity":"waste_basket"}},"type":"Feature"},
	{"geometry":{"coordinates":[8.511635,52.033847],"type":"Point"},"properties":{"osm_id":"1909143451","tag":{"amenity":"waste_basket"}},"type":"Feature"},
	{"geometry":{"coordinates":[8.512661,52.035115],"type":"Point"},"properties":{"osm_id":"1909143476","tag":{"amenity":"waste_basket"}},"type":"Feature"},
	{"geometry":{"coordinates":[8.513567,52.035312],"type":"Point"},"properties":{"osm_id":"1909143493","tag":{"amenity":"waste_basket"}},"type":"Feature"},
	{"geometry":{"coordinates":[8.513773,52.035323],"type":"Point"},"properties":{"osm_id":"1909143494","tag":{"amenity":"waste_basket"}},"type":"Feature"},
	{"geometry":{"coordinates":[8.513916,52.035354],"type":"Point"},"properties":{"osm_id":"1909143509","tag":{"amenity":"waste_basket"}},"type":"Feature"},
	{"geometry":{"coordinates":[8.51807,52.036828],"type":"Point"},"properties":{"osm_id":"1909143517","tag":{"amenity":"waste_basket"}},"type":"Feature"},
	{"geometry":{"coordinates":[8.518318,52.037039],"type":"Point"},"properties":{"osm_id":"1909143520","tag":{"amenity":"waste_basket"}},"type":"Feature"},
	{"geometry":{"coordinates":[8.518968,52.038613],"type":"Point"},"properties":{"osm_id":"1909143550","tag":{"amenity":"waste_basket"}},"type":"Feature"},
	{"geometry":{"coordinates":[8.520074,52.038923],"type":"Point"},"properties":{"osm_id":"1909143563","tag":{"amenity":"waste_basket"}},"type":"Feature"},
	{"geometry":{"coordinates":[8.519889,52.040057],"type":"Point"},"properties":{"osm_id":"1909143577","tag":{"amenity":"waste_basket"}},"type":"Feature"},
	{"geometry":{"coordinates":[8.520956,52.040392],"type":"Point"},"properties":{"osm_id":"1909143590","tag":{"amenity":"waste_basket"}},"type":"Feature"},
	{"geometry":{"coordinates":[8.52235,52.040462],"type":"Point"},"properties":{"osm_id":"1909143591","tag":{"amenity":"waste_basket"}},"type":"Feature"},
	{"geometry":{"coordinates":[8.524376,52.042218],"type":"Point"},"properties":{"osm_id":"1909143622","tag":{"amenity":"waste_basket"}},"type":"Feature"},
	{"geometry":{"coordinates":[8.524304,52.042247],"type":"Point"},"properties":{"osm_id":"1909143627","tag":{"amenity":"waste_basket"}},"type":"Feature"},
	{"geometry":{"coordinates":[8.523208,52.042262],"type":"Point"},"properties":{"osm_id":"1909143628","tag":{"amenity":"waste_basket"}},"type":"Feature"},
	{"geometry":{"coordinates":[8.523795,52.042499],"type":"Point"},"properties":{"osm_id":"1909143635","tag":{"amenity":"waste_basket"}},"type":"Feature"},
	{"geometry":{"coordinates":[8.505257,52.038241],"type":"Point"},"properties":{"osm_id":"1958657563","tag":{"amenity":"waste_basket"}},"type":"Feature"},
	{"geometry":{"coordinates":[8.503511,52.038306],"type":"Point"},"properties":{"osm_id":"1958657565","tag":{"amenity":"waste_basket"}},"type":"Feature"},
	{"geometry":{"coordinates":[8.504662,52.038375],"type":"Point"},"properties":{"osm_id":"1958657567","tag":{"amenity":"waste_basket"}},"type":"Feature"},
	{"geometry":{"coordinates":[8.497463,52.040222],"type":"Point"},"properties":{"osm_id":"1958657579","tag":{"amenity":"waste_basket"}},"type":"Feature"},
	{"geometry":{"coordinates":[8.498289,52.040751],"type":"Point"},"properties":{"osm_id":"1958657587","tag":{"amenity":"waste_basket"}},"type":"Feature"},
	{"geometry":{"coordinates":[8.47419,52.039862],"type":"Point"},"properties":{"osm_id":"2159848982","tag":{"amenity":"waste_basket"}},"type":"Feature"},
	{"geometry":{"coordinates":[8.475252,52.040076],"type":"Point"},"properties":{"osm_id":"2159849000","tag":{"amenity":"waste_basket"}},"type":"Feature"},
	{"geometry":{"coordinates":[8.510409,52.000069],"type":"Point"},"properties":{"osm_id":"2242543734","tag":{"amenity":"waste_basket"}},"type":"Feature"},
	{"geometry":{"coordinates":[8.519316,52.036666],"type":"Point"},"properties":{"osm_id":"2252820513","tag":{"amenity":"waste_basket"}},"type":"Feature"},
	{"geometry":{"coordinates":[8.51367,52.028171],"type":"Point"},"properties":{"osm_id":"2269816515","tag":{"amenity":"waste_basket"}},"type":"Feature"},
	{"geometry":{"coordinates":[8.523125,52.028345],"type":"Point"},"properties":{"osm_id":"2273132817","tag":{"amenity":"waste_basket"}},"type":"Feature"},
	{"geometry":{"coordinates":[8.519963,52.016356],"type":"Point"},"properties":{"osm_id":"2278925861","tag":{"amenity":"waste_basket"}},"type":"Feature"},
	{"geometry":{"coordinates":[8.502568,52.020909],"type":"Point"},"properties":{"osm_id":"2285356918","tag":{"amenity":"waste_basket"}},"type":"Feature"},
	{"geometry":{"coordinates":[8.505782,52.022024],"type":"Point"},"properties":{"osm_id":"2285356930","tag":{"amenity":"waste_basket"}},"type":"Feature"},
	{"geometry":{"coordinates":[8.491238,52.004041],"type":"Point"},"properties":{"osm_id":"2300155152","tag":{"amenity":"waste_basket"}},"type":"Feature"},
	{"geometry":{"coordinates":[8.513126,52.031554],"type":"Point"},"properties":{"osm_id":"2439075621","tag":{"amenity":"waste_basket"}},"type":"Feature"},
	{"geometry":{"coordinates":[8.513667,52.031957],"type":"Point"},"properties":{"osm_id":"2439075623","tag":{"amenity":"waste_basket"}},"type":"Feature"},
	{"geometry":{"coordinates":[8.514007,52.032249],"type":"Point"},"properties":{"osm_id":"2439075626","tag":{"amenity":"waste_basket"}},"type":"Feature"},
	{"geometry":{"coordinates":[8.514439,52.032636],"type":"Point"},"properties":{"osm_id":"2439075629","tag":{"amenity":"waste_basket"}},"type":"Feature"},
	{"geometry":{"coordinates":[8.514799,52.032949],"type":"Point"},"properties":{"osm_id":"2439075631","tag":{"amenity":"waste_basket"}},"type":"Feature"},
	{"geometry":{"coordinates":[8.515116,52.033265],"type":"Point"},"properties":{"osm_id":"2439075633","tag":{"amenity":"waste_basket"}},"type":"Feature"},
	{"geometry":{"coordinates":[8.515499,52.035525],"type":"Point"},"properties":{"osm_id":"2439075637","tag":{"amenity":"waste_basket"}},"type":"Feature"},
	{"geometry":{"coordinates":[8.507446,52.032221],"type":"Point"},"properties":{"osm_id":"2448210872","tag":{"amenity":"waste_basket"}},"type":"Feature"},
	{"geometry":{"coordinates":[8.508511,52.032435],"type":"Point"},"properties":{"osm_id":"2448210876","tag":{"amenity":"waste_basket"}},"type":"Feature"},
	{"geometry":{"coordinates":[8.503122,52.032753],"type":"Point"},"properties":{"osm_id":"2448210881","tag":{"amenity":"waste_basket"}},"type":"Feature"},
	{"geometry":{"coordinates":[8.502973,52.032808],"type":"Point"},"properties":{"osm_id":"2448210886","tag":{"amenity":"waste_basket"}},"type":"Feature"},
	{"geometry":{"coordinates":[8.503464,52.033162],"type":"Point"},"properties":{"osm_id":"2448210890","tag":{"amenity":"waste_basket"}},"type":"Feature"},
	{"geometry":{"coordinates":[8.504777,52.036743],"type":"Point"},"properties":{"osm_id":"2448210897","tag":{"amenity":"waste_basket"}},"type":"Feature"},
	{"geometry":{"coordinates":[8.506435,52.037467],"type":"Point"},"properties":{"osm_id":"2448210900","tag":{"amenity":"waste_basket"}},"type":"Feature"},
	{"geometry":{"coordinates":[8.506976,52.038136],"type":"Point"},"properties":{"osm_id":"2448210901","tag":{"amenity":"waste_basket"}},"type":"Feature"},
	{"geometry":{"coordinates":[8.50846,52.03877],"type":"Point"},"properties":{"osm_id":"2448210904","tag":{"amenity":"waste_basket"}},"type":"Feature"},
	{"geometry":{"coordinates":[8.509385,52.038845],"type":"Point"},"properties":{"osm_id":"2448210907","tag":{"amenity":"waste_basket"}},"type":"Feature"},
	{"geometry":{"coordinates":[8.51111,52.040585],"type":"Point"},"properties":{"osm_id":"2448210912","tag":{"amenity":"waste_basket"}},"type":"Feature"},
	{"geometry":{"coordinates":[8.511151,52.040897],"type":"Point"},"properties":{"osm_id":"2448210914","tag":{"amenity":"waste_basket"}},"type":"Feature"},
	{"geometry":{"coordinates":[8.511042,52.040966],"type":"Point"},"properties":{"osm_id":"2448210917","tag":{"amenity":"waste_basket"}},"type":"Feature"},
	{"geometry":{"coordinates":[8.515755,52.045964],"type":"Point"},"properties":{"osm_id":"2448210920","tag":{"amenity":"waste_basket"}},"type":"Feature"},
	{"geometry":{"coordinates":[8.515899,52.046149],"type":"Point"},"properties":{"osm_id":"2448210923","tag":{"amenity":"waste_basket"}},"type":"Feature"},
	{"geometry":{"coordinates":[8.515634,52.046656],"type":"Point"},"properties":{"osm_id":"2448210925","tag":{"amenity":"waste_basket"}},"type":"Feature"},
	{"geometry":{"coordinates":[8.516557,52.047545],"type":"Point"},"properties":{"osm_id":"2448210928","tag":{"amenity":"waste_basket"}},"type":"Feature"},
	{"geometry":{"coordinates":[8.516122,52.047666],"type":"Point"},"properties":{"osm_id":"2448210931","tag":{"amenity":"waste_basket"}},"type":"Feature"},
	{"geometry":{"coordinates":[8.515061,52.048018],"type":"Point"},"properties":{"osm_id":"2448210934","tag":{"amenity":"waste_basket"}},"type":"Feature"},
	{"geometry":{"coordinates":[8.514791,52.048188],"type":"Point"},"properties":{"osm_id":"2448210936","tag":{"amenity":"waste_basket"}},"type":"Feature"},
	{"geometry":{"coordinates":[8.514604,52.048397],"type":"Point"},"properties":{"osm_id":"2448210940","tag":{"amenity":"waste_basket"}},"type":"Feature"},
	{"geometry":{"coordinates":[8.514287,52.048587],"type":"Point"},"properties":{"osm_id":"2448210948","tag":{"amenity":"waste_basket"}},"type":"Feature"},
	{"geometry":{"coordinates":[8.513907,52.048729],"type":"Point"},"properties":{"osm_id":"2448210951","tag":{"amenity":"waste_basket"}},"type":"Feature"},
	{"geometry":{"coordinates":[8.513222,52.049079],"type":"Point"},"properties":{"osm_id":"2448210954","tag":{"amenity":"waste_basket"}},"type":"Feature"},
	{"geometry":{"coordinates":[8.513037,52.04981],"type":"Point"},"properties":{"osm_id":"2448210957","tag":{"amenity":"waste_basket"}},"type":"Feature"},
	{"geometry":{"coordinates":[8.513299,52.050013],"type":"Point"},"properties":{"osm_id":"2448210961","tag":{"amenity":"waste_basket"}},"type":"Feature"},
	{"geometry":{"coordinates":[8.51501,52.050986],"type":"Point"},"properties":{"osm_id":"2448210963","tag":{"amenity":"waste_basket"}},"type":"Feature"},
	{"geometry":{"coordinates":[8.516799,52.052082],"type":"Point"},"properties":{"osm_id":"2448210966","tag":{"amenity":"waste_basket"}},"type":"Feature"},
	{"geometry":{"coordinates":[8.504048,52.032716],"type":"Point"},"properties":{"osm_id":"2457370118","tag":{"amenity":"waste_basket"}},"type":"Feature"},
	{"geometry":{"coordinates":[8.504796,52.033316],"type":"Point"},"properties":{"osm_id":"2457370146","tag":{"amenity":"waste_basket"}},"type":"Feature"},
	{"geometry":{"coordinates":[8.505329,52.033592],"type":"Point"},"properties":{"osm_id":"2457370157","tag":{"amenity":"waste_basket"}},"type":"Feature"},
	{"geometry":{"coordinates":[8.508228,52.034224],"type":"Point"},"properties":{"osm_id":"2457370182","tag":{"amenity":"waste_basket"}},"type":"Feature"},
	{"geometry":{"coordinates":[8.51039,52.034911],"type":"Point"},"properties":{"osm_id":"2457370193","tag":{"amenity":"waste_basket"}},"type":"Feature"},
	{"geometry":{"coordinates":[8.510641,52.034945],"type":"Point"},"properties":{"osm_id":"2457370200","tag":{"amenity":"waste_basket"}},"type":"Feature"},
	{"geometry":{"coordinates":[8.510997,52.035065],"type":"Point"},"properties":{"osm_id":"2457370209","tag":{"amenity":"waste_basket"}},"type":"Feature"},
	{"geometry":{"coordinates":[8.512588,52.035507],"type":"Point"},"properties":{"osm_id":"2457370213","tag":{"amenity":"waste_basket"}},"type":"Feature"},
	{"geometry":{"coordinates":[8.523332,52.041505],"type":"Point"},"properties":{"osm_id":"2457370218","tag":{"amenity":"waste_basket"}},"type":"Feature"},
	{"geometry":{"coordinates":[8.439785,52.020612],"type":"Point"},"properties":{"osm_id":"2478761472","tag":{"amenity":"waste_basket"}},"type":"Feature"},
	{"geometry":{"coordinates":[8.449097,52.017562],"type":"Point"},"properties":{"osm_id":"2479395944","tag":{"amenity":"waste_basket"}},"type":"Feature"},
	{"geometry":{"coordinates":[8.452735,52.022281],"type":"Point"},"properties":{"osm_id":"2479558750","tag":{"amenity":"waste_basket"}},"type":"Feature"},
	{"geometry":{"coordinates":[8.468604,52.016709],"type":"Point"},"properties":{"osm_id":"2501847988","tag":{"amenity":"waste_basket"}},"type":"Feature"},
	{"geometry":{"coordinates":[8.521088,52.034602],"type":"Point"},"properties":{"osm_id":"2597350744","tag":{"amenity":"waste_basket"}},"type":"Feature"},
	{"geometry":{"coordinates":[8.522269,52.027753],"type":"Point"},"properties":{"osm_id":"2663493097","tag":{"amenity":"waste_basket"}},"type":"Feature"},
	{"geometry":{"coordinates":[8.522484,52.027891],"type":"Point"},"properties":{"osm_id":"2663493098","tag":{"amenity":"waste_basket"}},"type":"Feature"},
	{"geometry":{"coordinates":[8.52281,52.028359],"type":"Point"},"properties":{"osm_id":"2663493113","tag":{"amenity":"waste_basket"}},"type":"Feature"},
	{"geometry":{"coordinates":[8.522521,52.028426],"type":"Point"},"properties":{"osm_id":"2663493115","tag":{"amenity":"waste_basket"}},"type":"Feature"},
	{"geometry":{"coordinates":[8.522763,52.002763],"type":"Point"},"properties":{"osm_id":"2675267775","tag":{"amenity":"waste_basket"}},"type":"Feature"},
	{"geometry":{"coordinates":[8.522343,52.002948],"type":"Point"},"properties":{"osm_id":"2675402100","tag":{"amenity":"recycling","recycling:clothes":"yes"}},"type":"Feature"},
	{"geometry":{"coordinates":[8.514311,52.028437],"type":"Point"},"properties":{"osm_id":"2685266175","tag":{"amenity":"waste_basket"}},"type":"Feature"},
	{"geometry":{"coordinates":[8.516499,52.028223],"type":"Point"},"properties":{"osm_id":"2688589928","tag":{"amenity":"waste_basket"}},"type":"Feature"},
	{"geometry":{"coordinates":[8.512689,52.025908],"type":"Point"},"properties":{"osm_id":"2688590224","tag":{"amenity":"waste_basket"}},"type":"Feature"},
	{"geometry":{"coordinates":[8.51244,52.026083],"type":"Point"},"properties":{"osm_id":"2688590303","tag":{"amenity":"waste_basket"}},"type":"Feature"},
	{"geometry":{"coordinates":[8.512182,52.026259],"type":"Point"},"properties":{"osm_id":"2688590392","tag":{"amenity":"waste_basket"}},"type":"Feature"},
	{"geometry":{"coordinates":[8.512615,52.026467],"type":"Point"},"properties":{"osm_id":"2688590433","tag":{"amenity":"waste_basket"}},"type":"Feature"},
	{"geometry":{"coordinates":[8.504684,52.036618],"type":"Point"},"properties":{"osm_id":"2688631136","tag":{"amenity":"waste_basket"}},"type":"Feature"},
	{"geometry":{"coordinates":[8.505719,52.036886],"type":"Point"},"properties":{"osm_id":"2688631183","tag":{"amenity":"waste_basket"}},"type":"Feature"},
	{"geometry":{"coordinates":[8.505702,52.03672],"type":"Point"},"properties":{"osm_id":"2688631187","tag":{"amenity":"waste_basket"}},"type":"Feature"},
	{"geometry":{"coordinates":[8.501208,52.031908],"type":"Point"},"properties":{"osm_id":"2689012915","tag":{"amenity":"recycling","location":"overground","recycling:clothes":"yes","recycling_type":"container"}},"type":"Feature"},
	{"geometry":{"coordinates":[8.499703,52.03385],"type":"Point"},"properties":{"osm_id":"2689012944","tag":{"amenity":"waste_basket"}},"type":"Feature"},
	{"geometry":{"coordinates":[8.518908,52.00873],"type":"Point"},"properties":{"osm_id":"2704124837","tag":{"amenity":"waste_basket"}},"type":"Feature"},
	{"geometry":{"coordinates":[8.517986,52.008961],"type":"Point"},"properties":{"osm_id":"2704124840","tag":{"amenity":"waste_basket"}},"type":"Feature"},
	{"geometry":{"coordinates":[8.517857,52.008895],"type":"Point"},"properties":{"osm_id":"2704124843","tag":{"amenity":"waste_basket"}},"type":"Feature"},
	{"geometry":{"coordinates":[8.495344,51.998659],"type":"Point"},"properties":{"osm_id":"2704137492","tag":{"amenity":"waste_basket"}},"type":"Feature"},
	{"geometry":{"coordinates":[8.495599,51.998797],"type":"Point"},"properties":{"osm_id":"2704137494","tag":{"amenity":"waste_basket"}},"type":"Feature"},
	{"geometry":{"coordinates":[8.495875,51.998959],"type":"Point"},"properties":{"osm_id":"2704137496","tag":{"amenity":"waste_basket"}},"type":"Feature"},
	{"geometry":{"coordinates":[8.496055,51.99911],"type":"Point"},"properties":{"osm_id":"2704137498","tag":{"amenity":"waste_basket"}},"type":"Feature"},
	{"geometry":{"coordinates":[8.501448,52.048119],"type":"Point"},"properties":{"osm_id":"2704709057","tag":{"amenity":"waste_basket"}},"type":"Feature"},
	{"geometry":{"coordinates":[8.50185,52.048116],"type":"Point"},"properties":{"osm_id":"2704729356","tag":{"amenity":"waste_basket"}},"type":"Feature"},
	{"geometry":{"coordinates":[8.498123,52.020835],"type":"Point"},"properties":{"osm_id":"2734527772","tag":{"amenity":"waste_basket"}},"type":"Feature"},
	{"geometry":{"coordinates":[8.505138,52.03604],"type":"Point"},"properties":{"osm_id":"2823638193","tag":{"amenity":"waste_basket"}},"type":"Feature"},
	{"geometry":{"coordinates":[8.500393,52.038462],"type":"Point"},"properties":{"osm_id":"2823638196","tag":{"amenity":"waste_basket"}},"type":"Feature"},
	{"geometry":{"coordinates":[8.499556,52.038492],"type":"Point"},"properties":{"osm_id":"2823638197","tag":{"amenity":"waste_basket"}},"type":"Feature"},
	{"geometry":{"coordinates":[8.50522,52.035718],"type":"Point"},"properties":{"osm_id":"2824825521","tag":{"amenity":"waste_basket"}},"type":"Feature"},
	{"geometry":{"coordinates":[8.505271,52.035694],"type":"Point"},"properties":{"osm_id":"2824825522","tag":{"amenity":"waste_basket"}},"type":"Feature"},
	{"geometry":{"coordinates":[8.500394,52.017677],"type":"Point"},"properties":{"osm_id":"2834815775","tag":{"amenity":"waste_basket"}},"type":"Feature"},
	{"geometry":{"coordinates":[8.499644,52.018291],"type":"Point"},"properties":{"osm_id":"2834815791","tag":{"amenity":"waste_basket"}},"type":"Feature"},
	{"geometry":{"coordinates":[8.499609,52.018392],"type":"Point"},"properties":{"osm_id":"2834815795","tag":{"amenity":"waste_basket"}},"type":"Feature"},
	{"geometry":{"coordinates":[8.501045,52.018461],"type":"Point"},"properties":{"osm_id":"2834815798","tag":{"amenity":"waste_basket"}},"type":"Feature"},
	{"geometry":{"coordinates":[8.499311,52.0185],"type":"Point"},"properties":{"osm_id":"2834815801","tag":{"amenity":"waste_basket"}},"type":"Feature"},
	{"geometry":{"coordinates":[8.500275,52.018892],"type":"Point"},"properties":{"osm_id":"2834815815","tag":{"amenity":"waste_basket"}},"type":"Feature"},
	{"geometry":{"coordinates":[8.502458,52.019554],"type":"Point"},"properties":{"osm_id":"2834815821","tag":{"amenity":"waste_basket"}},"type":"Feature"},
	{"geometry":{"coordinates":[8.503004,52.019848],"type":"Point"},"properties":{"osm_id":"2834815835","tag":{"amenity":"waste_basket"}},"type":"Feature"},
	{"geometry":{"coordinates":[8.50176,52.020325],"type":"Point"},"properties":{"osm_id":"2834815848","tag":{"amenity":"waste_basket"}},"type":"Feature"},
	{"geometry":{"coordinates":[8.503315,52.021046],"type":"Point"},"properties":{"osm_id":"2834815871","tag":{"amenity":"waste_basket"}},"type":"Feature"},
	{"geometry":{"coordinates":[8.504592,52.021376],"type":"Point"},"properties":{"osm_id":"2834815888","tag":{"amenity":"waste_basket"}},"type":"Feature"},
	{"geometry":{"coordinates":[8.525279,52.033348],"type":"Point"},"properties":{"osm_id":"2889292532","tag":{"amenity":"recycling","description":"Altglascontainer","recycling:cans":"no","recycling:clothes":"no","recycling:glass_bottles":"yes","recycling:paper":"no","recycling_type":"container"}},"type":"Feature"},
	{"geometry":{"coordinates":[8.520922,52.048356],"type":"Point"},"properties":{"osm_id":"2889294870","tag":{"amenity":"recycling","recycling:glass_bottles":"yes","recycling_type":"container"}},"type":"Feature"},
	{"geometry":{"coordinates":[8.48789,52.037958],"type":"Point"},"properties":{"osm_id":"2966826629","tag":{"amenity":"recycling","recycling:cans":"no","recycling:clothes":"no","recycling:glass_bottles":"yes","recycling:paper":"no","recycling_type":"container"}},"type":"Feature"},
	{"geometry":{"coordinates":[8.481979,52.042219],"type":"Point"},"properties":{"osm_id":"3076552293","tag":{"amenity":"recycling","location":"overground","recycling:clothes":"yes","recycling:glass_bottles":"yes","recycling_type":"container"}},"type":"Feature"},
	{"geometry":{"coordinates":[8.49093,52.042269],"type":"Point"},"properties":{"osm_id":"3163870577","tag":{"amenity":"recycling","recycling:clothes":"yes","recycling:glass_bottles":"yes","recycling_type":"container"}},"type":"Feature"},
	{"geometry":{"coordinates":[8.46246,52.010993],"type":"Point"},"properties":{"osm_id":"3306560761","tag":{"amenity":"recycling","recycling:glass_bottles":"yes","recycling_type":"container"}},"type":"Feature"},
	{"geometry":{"coordinates":[8.521883,52.017971],"type":"Point"},"properties":{"osm_id":"3357994074","tag":{"amenity":"waste_basket"}},"type":"Feature"},
	{"geometry":{"coordinates":[8.521103,52.018108],"type":"Point"},"properties":{"osm_id":"3357996209","tag":{"amenity":"waste_basket"}},"type":"Feature"},
	{"geometry":{"coordinates":[8.520798,52.018138],"type":"Point"},"properties":{"osm_id":"3357996215","tag":{"amenity":"waste_basket"}},"type":"Feature"},
	{"geometry":{"coordinates":[8.520163,52.018352],"type":"Point"},"properties":{"osm_id":"3357996276","tag":{"amenity":"waste_basket"}},"type":"Feature"},
	{"geometry":{"coordinates":[8.522435,52.018429],"type":"Point"},"properties":{"osm_id":"3357996283","tag":{"amenity":"waste_basket"}},"type":"Feature"},
	{"geometry":{"coordinates":[8.521269,52.018523],"type":"Point"},"properties":{"osm_id":"3357996288","tag":{"amenity":"waste_basket"}},"type":"Feature"},
	{"geometry":{"coordinates":[8.513381,52.026857],"type":"Point"},"properties":{"osm_id":"3376727989","tag":{"amenity":"waste_basket"}},"type":"Feature"},
	{"geometry":{"coordinates":[8.517479,52.009724],"type":"Point"},"properties":{"osm_id":"3384152991","tag":{"amenity":"recycling","recycling:glass_bottles":"yes","recycling_type":"container"}},"type":"Feature"},
	{"geometry":{"coordinates":[8.461552,52.032223],"type":"Point"},"properties":{"osm_id":"3423575099","tag":{"amenity":"recycling","location":"overground","recycling:glass_bottles":"yes","recycling_type":"container"}},"type":"Feature"},
	{"geometry":{"coordinates":[8.485425,52.035565],"type":"Point"},"properties":{"osm_id":"3667760528","tag":{"amenity":"waste_basket"}},"type":"Feature"},
	{"geometry":{"coordinates":[8.485153,52.035661],"type":"Point"},"properties":{"osm_id":"3667760534","tag":{"amenity":"waste_basket"}},"type":"Feature"},
	{"geometry":{"coordinates":[8.485848,52.035853],"type":"Point"},"properties":{"osm_id":"3667760537","tag":{"amenity":"waste_basket"}},"type":"Feature"},
	{"geometry":{"coordinates":[8.521396,52.018372],"type":"Point"},"properties":{"osm_id":"3683603144","tag":{"amenity":"waste_basket"}},"type":"Feature"},
	{"geometry":{"coordinates":[8.515023,52.020777],"type":"Point"},"properties":{"osm_id":"3683603153","tag":{"amenity":"waste_basket"}},"type":"Feature"},
	{"geometry":{"coordinates":[8.513114,52.021315],"type":"Point"},"properties":{"osm_id":"3683603157","tag":{"amenity":"waste_disposal"}},"type":"Feature"},
	{"geometry":{"coordinates":[8.513086,52.021409],"type":"Point"},"properties":{"osm_id":"3683603160","tag":{"amenity":"recycling","recycling:clothes":"no","recycling:glass_bottles":"yes","recycling_type":"container"}},"type":"Feature"},
	{"geometry":{"coordinates":[8.513062,52.021428],"type":"Point"},"properties":{"osm_id":"3683603161","tag":{"amenity":"recycling","operator":"Deutsches Rotes Kreuz","recycling:clothes":"yes","recycling_type":"container"}},"type":"Feature"},
	{"geometry":{"coordinates":[8.513981,52.021719],"type":"Point"},"properties":{"osm_id":"3683603165","tag":{"amenity":"waste_basket"}},"type":"Feature"},
	{"geometry":{"coordinates":[8.511919,52.022247],"type":"Point"},"properties":{"osm_id":"3683603168","tag":{"amenity":"waste_basket"}},"type":"Feature"},
	{"geometry":{"coordinates":[8.511903,52.022343],"type":"Point"},"properties":{"osm_id":"3683603177","tag":{"amenity":"waste_basket"}},"type":"Feature"},
	{"geometry":{"coordinates":[8.512022,52.022483],"type":"Point"},"properties":{"osm_id":"3683603185","tag":{"amenity":"waste_basket"}},"type":"Feature"},
	{"geometry":{"coordinates":[8.511928,52.022702],"type":"Point"},"properties":{"osm_id":"3683603215","tag":{"amenity":"waste_basket"}},"type":"Feature"},
	{"geometry":{"coordinates":[8.520401,52.033045],"type":"Point"},"properties":{"osm_id":"3743437384","tag":{"amenity":"waste_basket"}},"type":"Feature"},
	{"geometry":{"coordinates":[8.520468,52.033165],"type":"Point"},"properties":{"osm_id":"3743437388","tag":{"amenity":"waste_basket"}},"type":"Feature"},
	{"geometry":{"coordinates":[8.491936,52.044181],"type":"Point"},"properties":{"osm_id":"3755973189","tag":{"amenity":"waste_basket"}},"type":"Feature"},
	{"geometry":{"coordinates":[8.524135,52.025909],"type":"Point"},"properties":{"osm_id":"3757010347","tag":{"amenity":"waste_basket"}},"type":"Feature"},
	{"geometry":{"coordinates":[8.490616,52.04046],"type":"Point"},"properties":{"osm_id":"3757138670","tag":{"amenity":"waste_basket"}},"type":"Feature"},
	{"geometry":{"coordinates":[8.491247,52.040844],"type":"Point"},"properties":{"osm_id":"3757138683","tag":{"amenity":"waste_basket"}},"type":"Feature"},
	{"geometry":{"coordinates":[8.490888,52.041187],"type":"Point"},"properties":{"osm_id":"3757138694","tag":{"amenity":"waste_basket"}},"type":"Feature"},
	{"geometry":{"coordinates":[8.490907,52.041743],"type":"Point"},"properties":{"osm_id":"3757138696","tag":{"amenity":"waste_basket"}},"type":"Feature"},
	{"geometry":{"coordinates":[8.492445,52.044638],"type":"Point"},"properties":{"osm_id":"3757175502","tag":{"amenity":"waste_basket"}},"type":"Feature"},
	{"geometry":{"coordinates":[8.492659,52.044707],"type":"Point"},"properties":{"osm_id":"3757175503","tag":{"amenity":"waste_basket"}},"type":"Feature"},
	{"geometry":{"coordinates":[8.492901,52.04477],"type":"Point"},"properties":{"osm_id":"3757175504","tag":{"amenity":"waste_basket"}},"type":"Feature"},
	{"geometry":{"coordinates":[8.492327,52.044817],"type":"Point"},"properties":{"osm_id":"3757175505","tag":{"amenity":"waste_basket"}},"type":"Feature"},
	{"geometry":{"coordinates":[8.492539,52.044875],"type":"Point"},"properties":{"osm_id":"3757175506","tag":{"amenity":"waste_basket"}},"type":"Feature"},
	{"geometry":{"coordinates":[8.492781,52.044941],"type":"Point"},"properties":{"osm_id":"3757175507","tag":{"amenity":"waste_basket"}},"type":"Feature"},
	{"geometry":{"coordinates":[8.490854,52.040809],"type":"Point"},"properties":{"osm_id":"3757387857","tag":{"amenity":"waste_basket"}},"type":"Feature"},
	{"geometry":{"coordinates":[8.491347,52.041762],"type":"Point"},"properties":{"osm_id":"3762343317","tag":{"amenity":"waste_basket"}},"type":"Feature"},
	{"geometry":{"coordinates":[8.492253,52.044266],"type":"Point"},"properties":{"osm_id":"3762345659","tag":{"amenity":"waste_basket"}},"type":"Feature"},
	{"geometry":{"coordinates":[8.492063,52.039823],"type":"Point"},"properties":{"osm_id":"3762443231","tag":{"amenity":"waste_basket"}},"type":"Feature"},
	{"geometry":{"coordinates":[8.491201,52.04055],"type":"Point"},"properties":{"osm_id":"3762443250","tag":{"amenity":"waste_basket"}},"type":"Feature"},
	{"geometry":{"coordinates":[8.491361,52.040583],"type":"Point"},"properties":{"osm_id":"3762443253","tag":{"amenity":"waste_basket"}},"type":"Feature"},
	{"geometry":{"coordinates":[8.491781,52.040645],"type":"Point"},"properties":{"osm_id":"3762443254","tag":{"amenity":"waste_basket"}},"type":"Feature"},
	{"geometry":{"coordinates":[8.491467,52.040826],"type":"Point"},"properties":{"osm_id":"3762443865","tag":{"amenity":"waste_basket"}},"type":"Feature"},
	{"geometry":{"coordinates":[8.522292,52.028416],"type":"Point"},"properties":{"osm_id":"3762754361","tag":{"amenity":"waste_basket"}},"type":"Feature"},
	{"geometry":{"coordinates":[8.491896,52.040495],"type":"Point"},"properties":{"osm_id":"3787166349","tag":{"amenity":"waste_basket"}},"type":"Feature"},
	{"geometry":{"coordinates":[8.491957,52.040556],"type":"Point"},"properties":{"osm_id":"3787166350","tag":{"amenity":"waste_basket"}},"type":"Feature"},
	{"geometry":{"coordinates":[8.489998,52.042761],"type":"Point"},"properties":{"osm_id":"3787633496","tag":{"amenity":"waste_basket"}},"type":"Feature"},
	{"geometry":{"coordinates":[8.513339,52.043366],"type":"Point"},"properties":{"osm_id":"3807620942","tag":{"amenity":"waste_basket"}},"type":"Feature"},
	{"geometry":{"coordinates":[8.513338,52.043548],"type":"Point"},"properties":{"osm_id":"3807620944","tag":{"amenity":"waste_basket"}},"type":"Feature"},
	{"geometry":{"coordinates":[8.492826,52.039492],"type":"Point"},"properties":{"osm_id":"3813752014","tag":{"amenity":"waste_basket"}},"type":"Feature"},
	{"geometry":{"coordinates":[8.491978,52.039952],"type":"Point"},"properties":{"osm_id":"3813752018","tag":{"amenity":"waste_basket"}},"type":"Feature"},
	{"geometry":{"coordinates":[8.462408,52.010926],"type":"Point"},"properties":{"osm_id":"3849506424","tag":{"amenity":"recycling","recycling:clothes":"yes","recycling:shoes":"yes","recycling_type":"container"}},"type":"Feature"},
	{"geometry":{"coordinates":[8.507688,52.036297],"type":"Point"},"properties":{"osm_id":"3865342891","tag":{"amenity":"waste_basket"}},"type":"Feature"},
	{"geometry":{"coordinates":[8.507579,52.036297],"type":"Point"},"properties":{"osm_id":"3865342892","tag":{"amenity":"waste_basket"}},"type":"Feature"},
	{"geometry":{"coordinates":[8.507548,52.03642],"type":"Point"},"properties":{"osm_id":"3865342901","tag":{"amenity":"waste_basket"}},"type":"Feature"},
	{"geometry":{"coordinates":[8.509398,52.037092],"type":"Point"},"properties":{"osm_id":"3865342923","tag":{"amenity":"waste_basket"}},"type":"Feature"},
	{"geometry":{"coordinates":[8.509002,52.038542],"type":"Point"},"properties":{"osm_id":"3865342952","tag":{"amenity":"waste_basket"}},"type":"Feature"},
	{"geometry":{"coordinates":[8.49618,52.041753],"type":"Point"},"properties":{"osm_id":"3865835595","tag":{"amenity":"waste_basket"}},"type":"Feature"},
	{"geometry":{"coordinates":[8.496434,52.041937],"type":"Point"},"properties":{"osm_id":"3865835612","tag":{"amenity":"waste_basket"}},"type":"Feature"},
	{"geometry":{"coordinates":[8.506963,52.035789],"type":"Point"},"properties":{"osm_id":"3865924586","tag":{"amenity":"waste_basket"}},"type":"Feature"},
	{"geometry":{"coordinates":[8.493825,52.045095],"type":"Point"},"properties":{"osm_id":"4060166265","tag":{"amenity":"waste_basket"}},"type":"Feature"},
	{"geometry":{"coordinates":[8.494595,52.045305],"type":"Point"},"properties":{"osm_id":"4060166272","tag":{"amenity":"waste_basket"}},"type":"Feature"},
	{"geometry":{"coordinates":[8.506365,52.001998],"type":"Point"},"properties":{"osm_id":"4133547204","tag":{"amenity":"recycling","recycling:clothes":"yes","recycling:glass_bottles":"yes","recycling_type":"container"}},"type":"Feature"},
	{"geometry":{"coordinates":[8.490727,52.043022],"type":"Point"},"properties":{"osm_id":"4161426866","tag":{"amenity":"waste_basket"}},"type":"Feature"},
	{"geometry":{"coordinates":[8.490849,52.043341],"type":"Point"},"properties":{"osm_id":"4161426867","tag":{"amenity":"waste_basket"}},"type":"Feature"},
	{"geometry":{"coordinates":[8.491319,52.043801],"type":"Point"},"properties":{"osm_id":"4161426868","tag":{"amenity":"waste_basket"}},"type":"Feature"},
	{"geometry":{"coordinates":[8.49068,52.042749],"type":"Point"},"properties":{"osm_id":"4165765651","tag":{"amenity":"waste_basket"}},"type":"Feature"},
	{"geometry":{"coordinates":[8.490063,52.042417],"type":"Point"},"properties":{"osm_id":"4272278591","tag":{"amenity":"waste_basket"}},"type":"Feature"},
	{"geometry":{"coordinates":[8.489458,52.042769],"type":"Point"},"properties":{"osm_id":"4272278592","tag":{"amenity":"waste_basket"}},"type":"Feature"},
	{"geometry":{"coordinates":[8.489955,52.042477],"type":"Point"},"properties":{"osm_id":"4272280989","tag":{"amenity":"waste_basket"}},"type":"Feature"},
	{"geometry":{"coordinates":[8.489631,52.042663],"type":"Point"},"properties":{"osm_id":"4272280990","tag":{"amenity":"waste_basket"}},"type":"Feature"},
	{"geometry":{"coordinates":[8.492042,52.045408],"type":"Point"},"properties":{"osm_id":"4401048210","tag":{"amenity":"waste_basket"}},"type":"Feature"},
	{"geometry":{"coordinates":[8.505922,52.035769],"type":"Point"},"properties":{"osm_id":"4401533724","tag":{"amenity":"waste_basket"}},"type":"Feature"},
	{"geometry":{"coordinates":[8.506261,52.035882],"type":"Point"},"properties":{"osm_id":"4401533725","tag":{"amenity":"waste_basket"}},"type":"Feature"},
	{"geometry":{"coordinates":[8.504558,52.01544],"type":"Point"},"properties":{"osm_id":"4433269666","tag":{"amenity":"waste_basket"}},"type":"Feature"},
	{"geometry":{"coordinates":[8.512062,52.022887],"type":"Point"},"properties":{"osm_id":"4433269669","tag":{"amenity":"waste_basket"}},"type":"Feature"},
	{"geometry":{"coordinates":[8.492083,52.043961],"type":"Point"},"properties":{"osm_id":"4464693235","tag":{"amenity":"waste_basket"}},"type":"Feature"},
	{"geometry":{"coordinates":[8.492404,52.044046],"type":"Point"},"properties":{"osm_id":"4464693236","tag":{"amenity":"waste_basket"}},"type":"Feature"},
	{"geometry":{"coordinates":[8.520069,52.040578],"type":"Point"},"properties":{"osm_id":"4695822703","tag":{"amenity":"waste_disposal"}},"type":"Feature"},
	{"geometry":{"coordinates":[8.520538,52.040799],"type":"Point"},"properties":{"osm_id":"4695822704","tag":{"amenity":"waste_disposal"}},"type":"Feature"},
	{"geometry":{"coordinates":[8.519618,52.040436],"type":"Point"},"properties":{"osm_id":"4695822705","tag":{"amenity":"waste_disposal"}},"type":"Feature"},
	{"geometry":{"coordinates":[8.494252,52.032819],"type":"Point"},"properties":{"osm_id":"4868337076","tag":{"amenity":"recycling","recycling:glass_bottles":"yes","recycling_type":"container"}},"type":"Feature"},
	{"geometry":{"coordinates":[8.507814,52.023917],"type":"Point"},"properties":{"osm_id":"4920419694","tag":{"amenity":"waste_basket"}},"type":"Feature"},
	{"geometry":{"coordinates":[8.501829,52.025844],"type":"Point"},"properties":{"osm_id":"4922205812","tag":{"amenity":"waste_basket"}},"type":"Feature"},
	{"geometry":{"coordinates":[8.514901,52.026942],"type":"Point"},"properties":{"osm_id":"5126140120","tag":{"amenity":"waste_basket"}},"type":"Feature"},
	{"geometry":{"coordinates":[8.515414,52.027657],"type":"Point"},"properties":{"osm_id":"5126140428","tag":{"amenity":"waste_basket"}},"type":"Feature"},
	{"geometry":{"coordinates":[8.514162,52.027146],"type":"Point"},"properties":{"osm_id":"5126140430","tag":{"amenity":"waste_basket"}},"type":"Feature"},
	{"geometry":{"coordinates":[8.500974,52.019775],"type":"Point"},"properties":{"osm_id":"5258103272","tag":{"amenity":"waste_basket"}},"type":"Feature"},
	{"geometry":{"coordinates":[8.500958,52.019948],"type":"Point"},"properties":{"osm_id":"5258103282","tag":{"amenity":"waste_basket"}},"type":"Feature"},
	{"geometry":{"coordinates":[8.500595,52.019426],"type":"Point"},"properties":{"osm_id":"5258414131","tag":{"amenity":"waste_basket"}},"type":"Feature"},
	{"geometry":{"coordinates":[8.505341,52.02111],"type":"Point"},"properties":{"osm_id":"5273147317","tag":{"amenity":"waste_basket"}},"type":"Feature"},
	{"geometry":{"coordinates":[8.50113,52.020837],"type":"Point"},"properties":{"osm_id":"5273209175","tag":{"amenity":"waste_basket"}},"type":"Feature"},
	{"geometry":{"coordinates":[8.501116,52.020785],"type":"Point"},"properties":{"osm_id":"5273209185","tag":{"amenity":"waste_basket"}},"type":"Feature"},
	{"geometry":{"coordinates":[8.500139,52.020216],"type":"Point"},"properties":{"osm_id":"5273330163","tag":{"amenity":"waste_basket"}},"type":"Feature"},
	{"geometry":{"coordinates":[8.498956,52.019797],"type":"Point"},"properties":{"osm_id":"5273330852","tag":{"amenity":"waste_basket"}},"type":"Feature"},
	{"geometry":{"coordinates":[8.500405,52.0202],"type":"Point"},"properties":{"osm_id":"5273391768","tag":{"amenity":"waste_basket"}},"type":"Feature"},
	{"geometry":{"coordinates":[8.501543,52.019578],"type":"Point"},"properties":{"osm_id":"5273606896","tag":{"amenity":"waste_basket"}},"type":"Feature"},
	{"geometry":{"coordinates":[8.499608,52.01857],"type":"Point"},"properties":{"osm_id":"5273764689","tag":{"amenity":"waste_basket"}},"type":"Feature"},
	{"geometry":{"coordinates":[8.500032,52.018178],"type":"Point"},"properties":{"osm_id":"5279754284","tag":{"amenity":"waste_basket"}},"type":"Feature"},
	{"geometry":{"coordinates":[8.499784,52.018115],"type":"Point"},"properties":{"osm_id":"5279755225","tag":{"amenity":"waste_basket"}},"type":"Feature"},
	{"geometry":{"coordinates":[8.499659,52.018366],"type":"Point"},"properties":{"osm_id":"5282507214","tag":{"amenity":"waste_basket"}},"type":"Feature"},
	{"geometry":{"coordinates":[8.50105,52.017815],"type":"Point"},"properties":{"osm_id":"5283744182","tag":{"amenity":"waste_basket"}},"type":"Feature"},
	{"geometry":{"coordinates":[8.501133,52.018227],"type":"Point"},"properties":{"osm_id":"5283744201","tag":{"amenity":"waste_basket"}},"type":"Feature"},
	{"geometry":{"coordinates":[8.500403,52.018152],"type":"Point"},"properties":{"osm_id":"5286212250","tag":{"amenity":"waste_basket"}},"type":"Feature"},
	{"geometry":{"coordinates":[8.501291,52.02061],"type":"Point"},"properties":{"osm_id":"5331738273","tag":{"amenity":"waste_basket"}},"type":"Feature"},
	{"geometry":{"coordinates":[8.501374,52.018577],"type":"Point"},"properties":{"osm_id":"5343677370","tag":{"amenity":"waste_basket"}},"type":"Feature"},
	{"geometry":{"coordinates":[8.500815,52.019965],"type":"Point"},"properties":{"osm_id":"5376513050","tag":{"amenity":"waste_basket"}},"type":"Feature"},
	{"geometry":{"coordinates":[8.500509,52.017664],"type":"Point"},"properties":{"osm_id":"5377752120","tag":{"amenity":"waste_basket"}},"type":"Feature"},
	{"geometry":{"coordinates":[8.500394,52.018819],"type":"Point"},"properties":{"osm_id":"5377844038","tag":{"amenity":"waste_basket"}},"type":"Feature"},
	{"geometry":{"coordinates":[8.50237,52.019933],"type":"Point"},"properties":{"osm_id":"5378000461","tag":{"amenity":"waste_basket"}},"type":"Feature"},
	{"geometry":{"coordinates":[8.5029,52.020157],"type":"Point"},"properties":{"osm_id":"5378000479","tag":{"amenity":"waste_basket"}},"type":"Feature"},
	{"geometry":{"coordinates":[8.503787,52.020581],"type":"Point"},"properties":{"osm_id":"5378043630","tag":{"amenity":"waste_basket"}},"type":"Feature"},
	{"geometry":{"coordinates":[8.500183,52.018052],"type":"Point"},"properties":{"osm_id":"5401743580","tag":{"amenity":"waste_basket"}},"type":"Feature"},
	{"geometry":{"coordinates":[8.500471,52.017458],"type":"Point"},"properties":{"osm_id":"5403144896","tag":{"amenity":"waste_basket"}},"type":"Feature"},
	{"geometry":{"coordinates":[8.524089,52.01461],"type":"Point"},"properties":{"osm_id":"5446426689","tag":{"amenity":"waste_basket"}},"type":"Feature"},
	{"geometry":{"coordinates":[8.514204,52.027502],"type":"Point"},"properties":{"osm_id":"5454154795","tag":{"amenity":"waste_basket"}},"type":"Feature"},
	{"geometry":{"coordinates":[8.513496,52.025813],"type":"Point"},"properties":{"osm_id":"5454154796","tag":{"amenity":"waste_basket"}},"type":"Feature"},
	{"geometry":{"coordinates":[8.515082,52.028208],"type":"Point"},"properties":{"osm_id":"5454154798","tag":{"amenity":"waste_basket"}},"type":"Feature"},
	{"geometry":{"coordinates":[8.514717,52.027791],"type":"Point"},"properties":{"osm_id":"5454154802","tag":{"amenity":"waste_basket"}},"type":"Feature"},
	{"geometry":{"coordinates":[8.513267,52.026258],"type":"Point"},"properties":{"osm_id":"5454154808","tag":{"amenity":"waste_basket"}},"type":"Feature"},
	{"geometry":{"coordinates":[8.513231,52.025989],"type":"Point"},"properties":{"osm_id":"5454154811","tag":{"amenity":"waste_basket"}},"type":"Feature"},
	{"geometry":{"coordinates":[8.514978,52.027822],"type":"Point"},"properties":{"osm_id":"5454154818","tag":{"amenity":"waste_basket"}},"type":"Feature"},
	{"geometry":{"coordinates":[8.514313,52.028124],"type":"Point"},"properties":{"osm_id":"5454821921","tag":{"amenity":"waste_basket"}},"type":"Feature"},
	{"geometry":{"coordinates":[8.515416,52.027507],"type":"Point"},"properties":{"osm_id":"5454821964","tag":{"amenity":"waste_basket"}},"type":"Feature"},
	{"geometry":{"coordinates":[8.491256,52.036357],"type":"Point"},"properties":{"osm_id":"5534175781","tag":{"amenity":"waste_basket"}},"type":"Feature"},
	{"geometry":{"coordinates":[8.512634,52.049846],"type":"Point"},"properties":{"osm_id":"5648070202","tag":{"amenity":"waste_basket"}},"type":"Feature"},
	{"geometry":{"coordinates":[8.522837,52.007603],"type":"Point"},"properties":{"osm_id":"5658217191","tag":{"amenity":"waste_basket"}},"type":"Feature"},
	{"geometry":{"coordinates":[8.490098,52.045374],"type":"Point"},"properties":{"osm_id":"5789869236","tag":{"amenity":"waste_basket"}},"type":"Feature"},
	{"geometry":{"coordinates":[8.524648,52.009552],"type":"Point"},"properties":{"osm_id":"6700586888","tag":{"amenity":"waste_basket"}},"type":"Feature"},
	{"geometry":{"coordinates":[8.493111,52.04664],"type":"Point"},"properties":{"osm_id":"7573351558","tag":{"amenity":"waste_basket"}},"type":"Feature"},
	{"geometry":{"coordinates":[8.525008,52.011885],"type":"Point"},"properties":{"osm_id":"7589627450","tag":{"amenity":"waste_basket"}},"type":"Feature"},
	{"geometry":{"coordinates":[8.525109,52.012076],"type":"Point"},"properties":{"osm_id":"7589627464","tag":{"amenity":"waste_basket"}},"type":"Feature"}
]
}
