{
"type": "FeatureCollection",
"features": [
	{"geometry":{"coordinates":[8.482383,51.815475],"type":"Point"},"properties":{"osm_id":"260645242","tag":{"amenity":"recycling","location":"overground","recycling:clothes":"yes","recycling:glass_bottles":"yes","recycling:shoes":"yes","recycling_type":"container"}},"type":"Feature"},
	{"geometry":{"coordinates":[8.442852,51.831957],"type":"Point"},"properties":{"osm_id":"262805978","tag":{"amenity":"recycling","recycling_type":"container"}},"type":"Feature"},
	{"geometry":{"coordinates":[8.444528,51.835638],"type":"Point"},"properties":{"osm_id":"264467686","tag":{"amenity":"recycling"}},"type":"Feature"},
	{"geometry":{"coordinates":[8.45058,51.828693],"type":"Point"},"properties":{"osm_id":"300629414","tag":{"amenity":"recycling","recycling:batteries":"yes","recycling:glass":"yes","recycling_type":"container"}},"type":"Feature"},
	{"geometry":{"coordinates":[8.480585,51.815541],"type":"Point"},"properties":{"osm_id":"395502276","tag":{"amenity":"recycling","location":"overground","recycling:clothes":"yes","recycling:glass_bottles":"yes","recycling:shoes":"yes","recycling_type":"container"}},"type":"Feature"},
	{"geometry":{"coordinates":[8.439036,51.813723],"type":"Point"},"properties":{"osm_id":"408153563","tag":{"amenity":"recycling","recycling:clothes":"yes","recycling:glass_bottles":"yes","recycling_type":"container"}},"type":"Feature"},
	{"geometry":{"coordinates":[8.496724,51.7879],"type":"Point"},"properties":{"osm_id":"3480540699","tag":{"amenity":"recycling","recycling:cans":"no","recycling:clothes":"yes","recycling:glass":"yes","recycling:paper":"no","recycling_type":"container"}},"type":"Feature"},
	{"geometry":{"coordinates":[8.495731,51.797592],"type":"Point"},"properties":{"osm_id":"3628544763","tag":{"amenity":"waste_basket"}},"type":"Feature"},
	{"geometry":{"coordinates":[8.495416,51.797482],"type":"Point"},"properties":{"osm_id":"3628544766","tag":{"amenity":"waste_basket"}},"type":"Feature"},
	{"geometry":{"coordinates":[8.482941,51.815657],"type":"Point"},"properties":{"osm_id":"4034648266","tag":{"amenity":"recycling","recycling:clothes":"yes","recycling:glass_bottles":"yes","recycling_type":"container"}},"type":"Feature"},
	{"geometry":{"coordinates":[8.443131,51.820758],"type":"Point"},"properties":{"osm_id":"4200236689","tag":{"amenity":"waste_basket"}},"type":"Feature"},
	{"geometry":{"coordinates":[8.443657,51.821205],"type":"Point"},"properties":{"osm_id":"4200367592","tag":{"amenity":"waste_basket"}},"type":"Feature"},
	{"geometry":{"coordinates":[8.445606,51.821295],"type":"Point"},"properties":{"osm_id":"4200609964","tag":{"amenity":"waste_basket"}},"type":"Feature"},
	{"geometry":{"coordinates":[8.443722,51.820467],"type":"Point"},"properties":{"osm_id":"4212470493","tag":{"amenity":"waste_basket"}},"type":"Feature"},
	{"geometry":{"coordinates":[8.4424,51.834043],"type":"Point"},"properties":{"osm_id":"4280457989","tag":{"amenity":"waste_basket"}},"type":"Feature"},
	{"geometry":{"coordinates":[8.496936,51.797864],"type":"Point"},"properties":{"osm_id":"4464502739","tag":{"amenity":"waste_basket"}},"type":"Feature"},
	{"geometry":{"coordinates":[8.441837,51.8194],"type":"Point"},"properties":{"osm_id":"4867716997","tag":{"amenity":"waste_basket"}},"type":"Feature"},
	{"geometry":{"coordinates":[8.441993,51.820036],"type":"Point"},"properties":{"osm_id":"4867867713","tag":{"amenity":"waste_basket"}},"type":"Feature"},
	{"geometry":{"coordinates":[8.443979,51.811778],"type":"Point"},"properties":{"osm_id":"6259126141","tag":{"amenity":"waste_basket","waste":"trash"}},"type":"Feature"},
	{"geometry":{"coordinates":[8.437959,51.810437],"type":"Point"},"properties":{"osm_id":"6259126173","tag":{"amenity":"waste_basket","waste":"trash"}},"type":"Feature"},
	{"geometry":{"coordinates":[8.438999,51.808198],"type":"Point"},"properties":{"osm_id":"6259126174","tag":{"amenity":"waste_basket","waste":"trash"}},"type":"Feature"},
	{"geometry":{"coordinates":[8.439187,51.807953],"type":"Point"},"properties":{"osm_id":"6259126176","tag":{"amenity":"waste_basket","waste":"trash"}},"type":"Feature"},
	{"geometry":{"coordinates":[8.445905,51.821335],"type":"Point"},"properties":{"osm_id":"6259225244","tag":{"amenity":"waste_basket","waste":"trash"}},"type":"Feature"},
	{"geometry":{"coordinates":[8.44507,51.815236],"type":"Point"},"properties":{"osm_id":"6259225254","tag":{"amenity":"waste_basket","waste":"trash"}},"type":"Feature"},
	{"geometry":{"coordinates":[8.445526,51.814562],"type":"Point"},"properties":{"osm_id":"6259225255","tag":{"amenity":"waste_basket","waste":"trash"}},"type":"Feature"},
	{"geometry":{"coordinates":[8.444916,51.813827],"type":"Point"},"properties":{"osm_id":"6259225258","tag":{"amenity":"waste_basket","waste":"trash"}},"type":"Feature"},
	{"geometry":{"coordinates":[8.495792,51.815725],"type":"Point"},"properties":{"osm_id":"7476117511","tag":{"amenity":"recycling","recycling:clothes":"yes","recycling:electrical_appliances":"yes","recycling:glass_bottles":"yes","recycling:shoes":"yes","recycling_type":"container"}},"type":"Feature"},
	{"geometry":{"coordinates":[8.446642,51.826608],"type":"Point"},"properties":{"osm_id":"7544824535","tag":{"amenity":"waste_basket"}},"type":"Feature"},
	{"geometry":{"coordinates":[8.444131,51.834768],"type":"Point"},"properties":{"osm_id":"7602086662","tag":{"amenity":"recycling","recycling:clothes":"yes","recycling:electrical_appliances":"yes","recycling:glass_bottles":"yes","recycling_type":"container"}},"type":"Feature"},
	{"geometry":{"coordinates":[8.491441,51.787703],"type":"Point"},"properties":{"osm_id":"7911181572","tag":{"amenity":"waste_basket"}},"type":"Feature"},
	{"geometry":{"coordinates":[8.491186,51.791061],"type":"Point"},"properties":{"osm_id":"7911181573","tag":{"amenity":"waste_basket"}},"type":"Feature"},
	{"geometry":{"coordinates":[8.517766,51.787251],"type":"Point"},"properties":{"osm_id":"7912596712","tag":{"amenity":"waste_basket"}},"type":"Feature"}
]
}
