{
"type": "FeatureCollection",
"features": [
	{"geometry":{"coordinates":[8.52176,50.548902],"type":"Point"},"properties":{"osm_id":"243964782","tag":{"amenity":"recycling","recycling:clothes":"yes","recycling:glass_bottles":"yes","recycling:shoes":"yes","recycling_type":"container"}},"type":"Feature"},
	{"geometry":{"coordinates":[8.513991,50.552905],"type":"Point"},"properties":{"osm_id":"251727827","tag":{"amenity":"recycling","location":"overground","recycling:glass_bottles":"yes","recycling_type":"container"}},"type":"Feature"},
	{"geometry":{"coordinates":[8.521069,50.564552],"type":"Point"},"properties":{"osm_id":"280284610","tag":{"amenity":"recycling","mapillary":"1IiE7VM-Y4H1asJwBEfItw","recycling:clothes":"yes","recycling:glass_bottles":"yes","recycling:shoes":"yes","recycling_type":"container","survey:date":"2017-04-17"}},"type":"Feature"},
	{"geometry":{"coordinates":[8.50363,50.560114],"type":"Point"},"properties":{"osm_id":"287662389","tag":{"amenity":"recycling","location":"overground","recycling:clothes":"yes","recycling:glass_bottles":"yes","recycling:shoes":"yes","recycling_type":"container"}},"type":"Feature"},
	{"geometry":{"coordinates":[8.447275,50.559718],"type":"Point"},"properties":{"osm_id":"404530722","tag":{"amenity":"recycling","recycling:glass":"yes"}},"type":"Feature"},
	{"geometry":{"coordinates":[8.501982,50.551885],"type":"Point"},"properties":{"osm_id":"520550379","tag":{"amenity":"recycling","recycling:cans":"no","recycling:clothes":"yes","recycling:glass_bottles":"yes","recycling:paper":"yes","recycling_type":"container"}},"type":"Feature"},
	{"geometry":{"coordinates":[8.509596,50.557426],"type":"Point"},"properties":{"osm_id":"566693645","tag":{"amenity":"recycling","mapillary":"3K02C9FVHq5joW7lRKhBIQ","recycling:clothes":"yes","recycling:glass_bottles":"yes","recycling_type":"container","survey:date":"2019-08-14"}},"type":"Feature"},
	{"geometry":{"coordinates":[8.509214,50.558882],"type":"Point"},"properties":{"osm_id":"566693646","tag":{"amenity":"recycling","recycling:clothes":"yes"}},"type":"Feature"},
	{"geometry":{"coordinates":[8.519714,50.55907],"type":"Point"},"properties":{"osm_id":"566693647","tag":{"amenity":"recycling","location":"overground","recycling:clothes":"yes","recycling:glass":"yes","recycling_type":"container"}},"type":"Feature"},
	{"geometry":{"coordinates":[8.501397,50.542097],"type":"Point"},"properties":{"osm_id":"583772566","tag":{"amenity":"recycling","recycling_type":"container"}},"type":"Feature"},
	{"geometry":{"coordinates":[8.501683,50.539228],"type":"Point"},"properties":{"osm_id":"2781003426","tag":{"amenity":"recycling","recycling:glass_bottles":"yes","recycling_type":"container"}},"type":"Feature"},
	{"geometry":{"coordinates":[8.523475,50.541145],"type":"Point"},"properties":{"osm_id":"2781003430","tag":{"amenity":"recycling","location":"overground","recycling:glass_bottles":"yes","recycling_type":"container"}},"type":"Feature"},
	{"geometry":{"coordinates":[8.499945,50.539594],"type":"Point"},"properties":{"osm_id":"3216084050","tag":{"amenity":"recycling","recycling:glass":"yes","recycling:glass_bottles":"yes","recycling_type":"container"}},"type":"Feature"},
	{"geometry":{"coordinates":[8.50175,50.545847],"type":"Point"},"properties":{"osm_id":"3217656333","tag":{"amenity":"recycling","recycling:glass_bottles":"yes","recycling_type":"container"}},"type":"Feature"},
	{"geometry":{"coordinates":[8.510462,50.554007],"type":"Point"},"properties":{"osm_id":"3231448461","tag":{"amenity":"recycling","location":"overground","recycling_type":"container"}},"type":"Feature"},
	{"geometry":{"coordinates":[8.497181,50.554367],"type":"Point"},"properties":{"osm_id":"3300294993","tag":{"amenity":"recycling"}},"type":"Feature"},
	{"geometry":{"coordinates":[8.506865,50.553638],"type":"Point"},"properties":{"osm_id":"3931265738","tag":{"amenity":"waste_basket","check_date":"2021-04-16"}},"type":"Feature"},
	{"geometry":{"coordinates":[8.500006,50.540102],"type":"Point"},"properties":{"osm_id":"4031876426","tag":{"amenity":"waste_basket"}},"type":"Feature"},
	{"geometry":{"coordinates":[8.49994,50.541212],"type":"Point"},"properties":{"osm_id":"4034971205","tag":{"amenity":"waste_basket"}},"type":"Feature"},
	{"geometry":{"coordinates":[8.49939,50.535929],"type":"Point"},"properties":{"osm_id":"4041444928","tag":{"amenity":"waste_basket"}},"type":"Feature"},
	{"geometry":{"coordinates":[8.504849,50.553636],"type":"Point"},"properties":{"osm_id":"4047449643","tag":{"amenity":"waste_basket"}},"type":"Feature"},
	{"geometry":{"coordinates":[8.505034,50.553705],"type":"Point"},"properties":{"osm_id":"4047449652","tag":{"amenity":"waste_basket"}},"type":"Feature"},
	{"geometry":{"coordinates":[8.501507,50.539112],"type":"Point"},"properties":{"osm_id":"4070059055","tag":{"amenity":"waste_basket"}},"type":"Feature"},
	{"geometry":{"coordinates":[8.501685,50.539172],"type":"Point"},"properties":{"osm_id":"4070060092","tag":{"amenity":"waste_basket"}},"type":"Feature"},
	{"geometry":{"coordinates":[8.496337,50.548365],"type":"Point"},"properties":{"osm_id":"4516786814","tag":{"amenity":"waste_basket"}},"type":"Feature"},
	{"geometry":{"coordinates":[8.496573,50.548663],"type":"Point"},"properties":{"osm_id":"4516786816","tag":{"amenity":"waste_basket"}},"type":"Feature"},
	{"geometry":{"coordinates":[8.470085,50.551112],"type":"Point"},"properties":{"osm_id":"4558692423","tag":{"amenity":"recycling","operator":"Malteser","recycling:clothes":"yes","recycling:shoes":"yes","recycling_type":"container"}},"type":"Feature"},
	{"geometry":{"coordinates":[8.50167,50.539246],"type":"Point"},"properties":{"osm_id":"4839093534","tag":{"amenity":"recycling","recycling:clothes":"yes","recycling_type":"container"}},"type":"Feature"},
	{"geometry":{"coordinates":[8.516554,50.554667],"type":"Point"},"properties":{"osm_id":"5133778026","tag":{"amenity":"waste_basket"}},"type":"Feature"},
	{"geometry":{"coordinates":[8.516049,50.558306],"type":"Point"},"properties":{"osm_id":"5133778031","tag":{"amenity":"waste_basket"}},"type":"Feature"},
	{"geometry":{"coordinates":[8.511724,50.529897],"type":"Point"},"properties":{"osm_id":"5626705393","tag":{"amenity":"recycling","recycling:clothes":"yes","recycling_type":"container"}},"type":"Feature"},
	{"geometry":{"coordinates":[8.45578,50.539274],"type":"Point"},"properties":{"osm_id":"5998061440","tag":{"amenity":"waste_basket","wheelchair":"yes"}},"type":"Feature"},
	{"geometry":{"coordinates":[8.521319,50.565884],"type":"Point"},"properties":{"osm_id":"6371084406","tag":{"amenity":"waste_basket"}},"type":"Feature"},
	{"geometry":{"coordinates":[8.523374,50.566753],"type":"Point"},"properties":{"osm_id":"6371084408","tag":{"amenity":"waste_basket"}},"type":"Feature"},
	{"geometry":{"coordinates":[8.523935,50.567038],"type":"Point"},"properties":{"osm_id":"6371084410","tag":{"amenity":"waste_basket"}},"type":"Feature"},
	{"geometry":{"coordinates":[8.49071,50.553869],"type":"Point"},"properties":{"osm_id":"6373760059","tag":{"amenity":"waste_basket"}},"type":"Feature"},
	{"geometry":{"coordinates":[8.482134,50.549085],"type":"Point"},"properties":{"osm_id":"6374506974","tag":{"amenity":"waste_basket"}},"type":"Feature"},
	{"geometry":{"coordinates":[8.485013,50.549482],"type":"Point"},"properties":{"osm_id":"6374506982","tag":{"amenity":"waste_basket"}},"type":"Feature"},
	{"geometry":{"coordinates":[8.514625,50.544475],"type":"Point"},"properties":{"osm_id":"6712486102","tag":{"amenity":"waste_basket"}},"type":"Feature"},
	{"geometry":{"coordinates":[8.514753,50.544276],"type":"Point"},"properties":{"osm_id":"6712486104","tag":{"amenity":"waste_basket"}},"type":"Feature"},
	{"geometry":{"coordinates":[8.51503,50.544234],"type":"Point"},"properties":{"osm_id":"6712486106","tag":{"amenity":"waste_basket"}},"type":"Feature"},
	{"geometry":{"coordinates":[8.490814,50.530394],"type":"Point"},"properties":{"osm_id":"6716453436","tag":{"amenity":"waste_basket"}},"type":"Feature"},
	{"geometry":{"coordinates":[8.490766,50.530418],"type":"Point"},"properties":{"osm_id":"6716453437","tag":{"amenity":"waste_basket"}},"type":"Feature"},
	{"geometry":{"coordinates":[8.471392,50.564977],"type":"Point"},"properties":{"osm_id":"6804221077","tag":{"amenity":"waste_basket"}},"type":"Feature"},
	{"geometry":{"coordinates":[8.469316,50.565015],"type":"Point"},"properties":{"osm_id":"6804221082","tag":{"amenity":"waste_basket"}},"type":"Feature"},
	{"geometry":{"coordinates":[8.468392,50.564968],"type":"Point"},"properties":{"osm_id":"6804221083","tag":{"amenity":"waste_basket"}},"type":"Feature"},
	{"geometry":{"coordinates":[8.468179,50.564605],"type":"Point"},"properties":{"osm_id":"6804221084","tag":{"amenity":"waste_basket"}},"type":"Feature"},
	{"geometry":{"coordinates":[8.471711,50.56539],"type":"Point"},"properties":{"osm_id":"6804237227","tag":{"amenity":"waste_basket"}},"type":"Feature"},
	{"geometry":{"coordinates":[8.477357,50.562921],"type":"Point"},"properties":{"osm_id":"6804237262","tag":{"amenity":"waste_basket"}},"type":"Feature"},
	{"geometry":{"coordinates":[8.478399,50.561356],"type":"Point"},"properties":{"osm_id":"6804237263","tag":{"amenity":"waste_basket"}},"type":"Feature"},
	{"geometry":{"coordinates":[8.481041,50.562955],"type":"Point"},"properties":{"osm_id":"6804237264","tag":{"amenity":"waste_basket"}},"type":"Feature"},
	{"geometry":{"coordinates":[8.505842,50.542879],"type":"Point"},"properties":{"osm_id":"6824009120","tag":{"amenity":"waste_basket"}},"type":"Feature"},
	{"geometry":{"coordinates":[8.497784,50.554548],"type":"Point"},"properties":{"osm_id":"6878975852","tag":{"amenity":"recycling","opening_hours":"24/7","recycling:clothes":"yes","recycling_type":"container"}},"type":"Feature"},
	{"geometry":{"coordinates":[8.497806,50.554511],"type":"Point"},"properties":{"osm_id":"6878975853","tag":{"amenity":"recycling","opening_hours":"24/7","recycling:clothes":"yes","recycling:shoes":"yes","recycling_type":"container"}},"type":"Feature"},
	{"geometry":{"coordinates":[8.497818,50.554488],"type":"Point"},"properties":{"osm_id":"6878975854","tag":{"amenity":"recycling","opening_hours":"24/7","operator":"Baliz Textilwerke","recycling:clothes":"yes","recycling_type":"container"}},"type":"Feature"},
	{"geometry":{"coordinates":[8.497831,50.554453],"type":"Point"},"properties":{"osm_id":"6878975855","tag":{"amenity":"recycling","opening_hours":"24/7","operator":"Deutsches Rotes Kreuz","recycling:clothes":"yes","recycling_type":"container"}},"type":"Feature"},
	{"geometry":{"coordinates":[8.497872,50.554436],"type":"Point"},"properties":{"osm_id":"6878975856","tag":{"amenity":"recycling","opening_hours":"24/7","recycling:glass_bottles":"yes","recycling_type":"container"}},"type":"Feature"},
	{"geometry":{"coordinates":[8.497925,50.554384],"type":"Point"},"properties":{"osm_id":"6878975857","tag":{"amenity":"recycling","opening_hours":"24/7","operator":"Stadtreinigung Wetzlar","recycling:paper":"yes","recycling_type":"container"}},"type":"Feature"},
	{"geometry":{"coordinates":[8.454933,50.544146],"type":"Point"},"properties":{"osm_id":"6899767425","tag":{"amenity":"waste_basket"}},"type":"Feature"},
	{"geometry":{"coordinates":[8.502181,50.565947],"type":"Point"},"properties":{"osm_id":"7046931085","tag":{"amenity":"waste_basket"}},"type":"Feature"},
	{"geometry":{"coordinates":[8.502935,50.565998],"type":"Point"},"properties":{"osm_id":"7046931185","tag":{"amenity":"waste_basket"}},"type":"Feature"},
	{"geometry":{"coordinates":[8.50358,50.565298],"type":"Point"},"properties":{"osm_id":"7046962086","tag":{"amenity":"waste_basket"}},"type":"Feature"},
	{"geometry":{"coordinates":[8.50357,50.566022],"type":"Point"},"properties":{"osm_id":"7046975985","tag":{"amenity":"waste_basket"}},"type":"Feature"},
	{"geometry":{"coordinates":[8.501894,50.565897],"type":"Point"},"properties":{"osm_id":"7046977285","tag":{"amenity":"waste_basket"}},"type":"Feature"},
	{"geometry":{"coordinates":[8.482236,50.546603],"type":"Point"},"properties":{"name":"GWAB","osm_id":"7080629304","tag":{"addr:city":"Wetzlar","addr:housenumber":"15","addr:postcode":"35578","addr:street":"Westendstra\u00c3\u009fe","amenity":"recycling","email":"info@gwab.de","opening_hours":"Mo-Fr 10:00-19:00; Sa 10:00-14:00","operator":"GWAB","operator:type":"business","phone":"+49 6441 92 475-0","recycling:electrical_appliances":"yes","recycling_type":"centre","website":"gwab.de"}},"type":"Feature"},
	{"geometry":{"coordinates":[8.498737,50.554823],"type":"Point"},"properties":{"osm_id":"7358322888","tag":{"amenity":"waste_basket"}},"type":"Feature"},
	{"geometry":{"coordinates":[8.499663,50.560537],"type":"Point"},"properties":{"osm_id":"7399847486","tag":{"amenity":"waste_basket"}},"type":"Feature"},
	{"geometry":{"coordinates":[8.499798,50.560443],"type":"Point"},"properties":{"osm_id":"7399847585","tag":{"amenity":"waste_basket"}},"type":"Feature"},
	{"geometry":{"coordinates":[8.499494,50.560352],"type":"Point"},"properties":{"osm_id":"7399847587","tag":{"amenity":"waste_basket"}},"type":"Feature"},
	{"geometry":{"coordinates":[8.524992,50.54084],"type":"Point"},"properties":{"osm_id":"7656431409","tag":{"amenity":"waste_basket","waste":"trash"}},"type":"Feature"},
	{"geometry":{"coordinates":[8.525255,50.540345],"type":"Point"},"properties":{"osm_id":"7656431410","tag":{"amenity":"waste_basket","waste":"trash"}},"type":"Feature"},
	{"geometry":{"coordinates":[8.490879,50.556666],"type":"Point"},"properties":{"osm_id":"7873697814","tag":{"amenity":"waste_disposal"}},"type":"Feature"},
	{"geometry":{"coordinates":[8.453705,50.567327],"type":"Point"},"properties":{"osm_id":"7881032120","tag":{"amenity":"waste_basket"}},"type":"Feature"},
	{"geometry":{"coordinates":[8.524289,50.551347],"type":"Point"},"properties":{"osm_id":"7917607419","tag":{"amenity":"waste_basket","waste":"trash"}},"type":"Feature"},
	{"geometry":{"coordinates":[8.523696,50.551438],"type":"Point"},"properties":{"osm_id":"7917607422","tag":{"amenity":"waste_basket","waste":"trash"}},"type":"Feature"},
	{"geometry":{"coordinates":[8.521894,50.548867],"type":"Point"},"properties":{"osm_id":"7917607424","tag":{"amenity":"waste_basket","waste":"trash"}},"type":"Feature"},
	{"geometry":{"coordinates":[8.521919,50.551169],"type":"Point"},"properties":{"osm_id":"7917607429","tag":{"amenity":"waste_basket","waste":"trash"}},"type":"Feature"},
	{"geometry":{"coordinates":[8.522129,50.550622],"type":"Point"},"properties":{"osm_id":"7917607430","tag":{"amenity":"waste_basket","waste":"trash"}},"type":"Feature"},
	{"geometry":{"coordinates":[8.521785,50.551152],"type":"Point"},"properties":{"osm_id":"7917607435","tag":{"amenity":"waste_basket","waste":"trash"}},"type":"Feature"},
	{"geometry":{"coordinates":[8.522064,50.549164],"type":"Point"},"properties":{"osm_id":"7917607440","tag":{"amenity":"waste_basket","waste":"trash"}},"type":"Feature"},
	{"geometry":{"coordinates":[8.454967,50.514414],"type":"Point"},"properties":{"osm_id":"8341363720","tag":{"amenity":"recycling","recycling_type":"container"}},"type":"Feature"},
	{"geometry":{"coordinates":[8.454935,50.51442],"type":"Point"},"properties":{"osm_id":"8341363721","tag":{"amenity":"recycling","recycling_type":"container"}},"type":"Feature"},
	{"geometry":{"coordinates":[8.454913,50.514426],"type":"Point"},"properties":{"osm_id":"8341363722","tag":{"amenity":"recycling","recycling_type":"container"}},"type":"Feature"},
	{"geometry":{"coordinates":[8.454889,50.514433],"type":"Point"},"properties":{"osm_id":"8341363723","tag":{"amenity":"recycling","recycling_type":"container"}},"type":"Feature"},
	{"geometry":{"coordinates":[8.511903,50.530051],"type":"Point"},"properties":{"osm_id":"8518234345","tag":{"amenity":"recycling","opening_hours":"Mo-Su 07:00-20:00; PH closed","recycling:cardboard":"yes","recycling:glass":"yes","recycling:glass_bottles":"yes","recycling:paper":"yes","recycling_type":"container"}},"type":"Feature"},
	{"geometry":{"coordinates":[8.483178,50.568731],"type":"Point"},"properties":{"osm_id":"8564291370","tag":{"amenity":"waste_basket","waste":"trash"}},"type":"Feature"},
	{"geometry":{"coordinates":[8.501924,50.557563],"type":"Point"},"properties":{"osm_id":"8678890099","tag":{"amenity":"waste_basket"}},"type":"Feature"},
	{"geometry":{"coordinates":[8.478591,50.546785],"type":"Point"},"properties":{"osm_id":"9069894598","tag":{"amenity":"recycling","recycling:glass_bottles":"yes","recycling_type":"container"}},"type":"Feature"}
]
}
