{
"type": "FeatureCollection",
"lastupdate": "2020-08-02T00:00:00Z",
"features": [
	{"geometry":{"coordinates":[8.457994,49.985661],"type":"Point"},"properties":{"osm_id":"416599500","tag":{"amenity":"recycling","recycling:glass":"yes"}},"type":"Feature"},
	{"geometry":{"coordinates":[8.453303,50.007106],"type":"Point"},"properties":{"osm_id":"616649448","tag":{"amenity":"recycling","recycling:glass":"yes","recycling_type":"container"}},"type":"Feature"},
	{"geometry":{"coordinates":[8.453354,50.00707],"type":"Point"},"properties":{"osm_id":"616649450","tag":{"amenity":"recycling","commercial":"yes","recycling:clothes":"yes","recycling_type":"container"}},"type":"Feature"},
	{"geometry":{"coordinates":[8.443477,49.99595],"type":"Point"},"properties":{"osm_id":"1710595279","tag":{"amenity":"recycling"}},"type":"Feature"},
	{"geometry":{"coordinates":[8.446805,49.990596],"type":"Point"},"properties":{"osm_id":"2008008427","tag":{"amenity":"recycling","recycling:glass_bottles":"yes","recycling_type":"container"}},"type":"Feature"},
	{"geometry":{"coordinates":[8.443812,49.990888],"type":"Point"},"properties":{"osm_id":"2031693736","tag":{"amenity":"recycling","recycling:glass_bottles":"yes"}},"type":"Feature"},
	{"geometry":{"coordinates":[8.445728,49.992152],"type":"Point"},"properties":{"osm_id":"2031693739","tag":{"amenity":"recycling","operator":"Malteser","recycling:clothes":"yes"}},"type":"Feature"},
	{"geometry":{"coordinates":[8.445909,49.991782],"type":"Point"},"properties":{"osm_id":"2031693742","tag":{"amenity":"recycling","operator":"DESWOS","recycling:clothes":"yes","recycling_type":"container"}},"type":"Feature"},
	{"geometry":{"coordinates":[8.448653,49.99165],"type":"Point"},"properties":{"osm_id":"2031693757","tag":{"amenity":"recycling","operator":"DESWOS","recycling:clothes":"yes","recycling_type":"container"}},"type":"Feature"},
	{"geometry":{"coordinates":[8.449116,49.983482],"type":"Point"},"properties":{"osm_id":"2038209290","tag":{"amenity":"recycling","mapillary":"SUQ8pAjSl8VpouIGr1jq0Q","operator":"Fa. Recycling","recycling:clothes":"yes","recycling_type":"container","survey:date":"2019-08-05"}},"type":"Feature"},
	{"geometry":{"coordinates":[8.45018,49.984725],"type":"Point"},"properties":{"osm_id":"2038209292","tag":{"amenity":"recycling","mapillary":"jxoPnKkMyVWQiexMQbTMyQ","recycling:glass_bottles":"yes","recycling_type":"container","survey:date":"2019-08-05"}},"type":"Feature"},
	{"geometry":{"coordinates":[8.454588,50.007273],"type":"Point"},"properties":{"osm_id":"2195582966","tag":{"amenity":"waste_basket"}},"type":"Feature"},
	{"geometry":{"coordinates":[8.438738,49.990333],"type":"Point"},"properties":{"osm_id":"4095748599","tag":{"amenity":"waste_basket"}},"type":"Feature"},
	{"geometry":{"coordinates":[8.438572,49.990696],"type":"Point"},"properties":{"osm_id":"4095748602","tag":{"amenity":"waste_basket"}},"type":"Feature"},
	{"geometry":{"coordinates":[8.438652,49.990793],"type":"Point"},"properties":{"osm_id":"4095748604","tag":{"amenity":"waste_basket"}},"type":"Feature"},
	{"geometry":{"coordinates":[8.43876,49.990999],"type":"Point"},"properties":{"osm_id":"4095748607","tag":{"amenity":"waste_basket"}},"type":"Feature"},
	{"geometry":{"coordinates":[8.440041,49.991704],"type":"Point"},"properties":{"osm_id":"4095748609","tag":{"amenity":"waste_basket"}},"type":"Feature"},
	{"geometry":{"coordinates":[8.440432,49.991802],"type":"Point"},"properties":{"osm_id":"4095748611","tag":{"amenity":"waste_basket"}},"type":"Feature"},
	{"geometry":{"coordinates":[8.440573,49.991906],"type":"Point"},"properties":{"osm_id":"4095748613","tag":{"amenity":"waste_basket"}},"type":"Feature"},
	{"geometry":{"coordinates":[8.440738,49.99207],"type":"Point"},"properties":{"osm_id":"4095748616","tag":{"amenity":"waste_basket"}},"type":"Feature"},
	{"geometry":{"coordinates":[8.442174,49.992107],"type":"Point"},"properties":{"osm_id":"4095748618","tag":{"amenity":"waste_basket"}},"type":"Feature"},
	{"geometry":{"coordinates":[8.440716,49.992213],"type":"Point"},"properties":{"osm_id":"4095748620","tag":{"amenity":"waste_basket"}},"type":"Feature"},
	{"geometry":{"coordinates":[8.454017,49.996896],"type":"Point"},"properties":{"osm_id":"4095749727","tag":{"amenity":"waste_basket"}},"type":"Feature"},
	{"geometry":{"coordinates":[8.43931,49.988278],"type":"Point"},"properties":{"osm_id":"4316091998","tag":{"amenity":"waste_basket"}},"type":"Feature"},
	{"geometry":{"coordinates":[8.438962,49.990195],"type":"Point"},"properties":{"osm_id":"4316092068","tag":{"amenity":"waste_basket"}},"type":"Feature"},
	{"geometry":{"coordinates":[8.439138,49.990346],"type":"Point"},"properties":{"osm_id":"4316092071","tag":{"amenity":"waste_basket"}},"type":"Feature"},
	{"geometry":{"coordinates":[8.439282,49.990519],"type":"Point"},"properties":{"osm_id":"4316092074","tag":{"amenity":"waste_basket"}},"type":"Feature"},
	{"geometry":{"coordinates":[8.438435,49.990584],"type":"Point"},"properties":{"osm_id":"4316092075","tag":{"amenity":"waste_basket"}},"type":"Feature"},
	{"geometry":{"coordinates":[8.439401,49.990641],"type":"Point"},"properties":{"osm_id":"4316092076","tag":{"amenity":"waste_basket"}},"type":"Feature"},
	{"geometry":{"coordinates":[8.439516,49.990765],"type":"Point"},"properties":{"osm_id":"4316092080","tag":{"amenity":"waste_basket"}},"type":"Feature"},
	{"geometry":{"coordinates":[8.43958,49.991076],"type":"Point"},"properties":{"osm_id":"4316092084","tag":{"amenity":"waste_basket"}},"type":"Feature"},
	{"geometry":{"coordinates":[8.439439,49.991117],"type":"Point"},"properties":{"osm_id":"4316092087","tag":{"amenity":"waste_basket"}},"type":"Feature"},
	{"geometry":{"coordinates":[8.439274,49.991146],"type":"Point"},"properties":{"osm_id":"4316092090","tag":{"amenity":"waste_basket"}},"type":"Feature"},
	{"geometry":{"coordinates":[8.463713,49.990568],"type":"Point"},"properties":{"osm_id":"4823867235","tag":{"amenity":"waste_basket"}},"type":"Feature"},
	{"geometry":{"coordinates":[8.465957,49.997427],"type":"Point"},"properties":{"osm_id":"4823867236","tag":{"amenity":"waste_basket"}},"type":"Feature"},
	{"geometry":{"coordinates":[8.464599,50.004743],"type":"Point"},"properties":{"osm_id":"4823869512","tag":{"amenity":"waste_basket"}},"type":"Feature"},
	{"geometry":{"coordinates":[8.467861,50.002937],"type":"Point"},"properties":{"osm_id":"4844544234","tag":{"amenity":"waste_basket"}},"type":"Feature"},
	{"geometry":{"coordinates":[8.464728,50.004504],"type":"Point"},"properties":{"osm_id":"4846606673","tag":{"amenity":"waste_basket"}},"type":"Feature"},
	{"geometry":{"coordinates":[8.463666,50.00362],"type":"Point"},"properties":{"osm_id":"4846611085","tag":{"amenity":"waste_basket"}},"type":"Feature"},
	{"geometry":{"coordinates":[8.466092,50.005311],"type":"Point"},"properties":{"osm_id":"4846611087","tag":{"amenity":"waste_basket"}},"type":"Feature"},
	{"geometry":{"coordinates":[8.469154,50.006604],"type":"Point"},"properties":{"osm_id":"4856363792","tag":{"amenity":"waste_basket"}},"type":"Feature"},
	{"geometry":{"coordinates":[8.470009,49.976482],"type":"Point"},"properties":{"osm_id":"4937720855","tag":{"amenity":"waste_basket"}},"type":"Feature"},
	{"geometry":{"coordinates":[8.48856,49.97561],"type":"Point"},"properties":{"osm_id":"4937720856","tag":{"amenity":"waste_basket"}},"type":"Feature"},
	{"geometry":{"coordinates":[8.467842,49.971941],"type":"Point"},"properties":{"osm_id":"4944922302","tag":{"amenity":"waste_basket"}},"type":"Feature"},
	{"geometry":{"coordinates":[8.5199,49.97082],"type":"Point"},"properties":{"osm_id":"4947717309","tag":{"amenity":"waste_basket"}},"type":"Feature"},
	{"geometry":{"coordinates":[8.50744,49.977463],"type":"Point"},"properties":{"osm_id":"5021013499","tag":{"amenity":"recycling","recycling:glass_bottles":"yes","recycling_type":"container"}},"type":"Feature"},
	{"geometry":{"coordinates":[8.522773,49.989431],"type":"Point"},"properties":{"osm_id":"5087021385","tag":{"amenity":"waste_basket"}},"type":"Feature"},
	{"geometry":{"coordinates":[8.466465,49.997033],"type":"Point"},"properties":{"osm_id":"5309408059","tag":{"amenity":"waste_basket"}},"type":"Feature"},
	{"geometry":{"coordinates":[8.469564,49.997112],"type":"Point"},"properties":{"osm_id":"5309408060","tag":{"amenity":"waste_basket"}},"type":"Feature"},
	{"geometry":{"coordinates":[8.469031,49.998365],"type":"Point"},"properties":{"osm_id":"5309408105","tag":{"amenity":"waste_basket"}},"type":"Feature"},
	{"geometry":{"coordinates":[8.506831,49.973448],"type":"Point"},"properties":{"osm_id":"5339514972","tag":{"amenity":"waste_basket"}},"type":"Feature"},
	{"geometry":{"coordinates":[8.476502,49.987259],"type":"Point"},"properties":{"osm_id":"5381630023","tag":{"amenity":"waste_basket"}},"type":"Feature"},
	{"geometry":{"coordinates":[8.478509,49.986432],"type":"Point"},"properties":{"osm_id":"5381630025","tag":{"amenity":"waste_basket"}},"type":"Feature"},
	{"geometry":{"coordinates":[8.481932,49.98439],"type":"Point"},"properties":{"osm_id":"5381630027","tag":{"amenity":"waste_basket"}},"type":"Feature"},
	{"geometry":{"coordinates":[8.484665,49.983178],"type":"Point"},"properties":{"osm_id":"5381630029","tag":{"amenity":"waste_basket"}},"type":"Feature"},
	{"geometry":{"coordinates":[8.48829,49.98168],"type":"Point"},"properties":{"osm_id":"5381630031","tag":{"amenity":"waste_basket"}},"type":"Feature"},
	{"geometry":{"coordinates":[8.499358,49.978872],"type":"Point"},"properties":{"osm_id":"5381630034","tag":{"amenity":"waste_basket"}},"type":"Feature"},
	{"geometry":{"coordinates":[8.449406,49.992792],"type":"Point"},"properties":{"osm_id":"5585238972","tag":{"amenity":"waste_basket"}},"type":"Feature"},
	{"geometry":{"coordinates":[8.450041,49.992566],"type":"Point"},"properties":{"osm_id":"5585238975","tag":{"amenity":"waste_basket"}},"type":"Feature"},
	{"geometry":{"coordinates":[8.450374,49.992383],"type":"Point"},"properties":{"osm_id":"5585238978","tag":{"amenity":"waste_basket"}},"type":"Feature"},
	{"geometry":{"coordinates":[8.450591,49.992248],"type":"Point"},"properties":{"osm_id":"5585238981","tag":{"amenity":"waste_basket"}},"type":"Feature"},
	{"geometry":{"coordinates":[8.450775,49.992123],"type":"Point"},"properties":{"osm_id":"5585238984","tag":{"amenity":"waste_basket"}},"type":"Feature"},
	{"geometry":{"coordinates":[8.451057,49.991943],"type":"Point"},"properties":{"osm_id":"5585238987","tag":{"amenity":"waste_basket"}},"type":"Feature"},
	{"geometry":{"coordinates":[8.451477,49.991717],"type":"Point"},"properties":{"osm_id":"5585238990","tag":{"amenity":"waste_basket"}},"type":"Feature"},
	{"geometry":{"coordinates":[8.451862,49.99154],"type":"Point"},"properties":{"osm_id":"5585238993","tag":{"amenity":"waste_basket"}},"type":"Feature"},
	{"geometry":{"coordinates":[8.457991,49.991341],"type":"Point"},"properties":{"osm_id":"5585238996","tag":{"amenity":"waste_basket"}},"type":"Feature"},
	{"geometry":{"coordinates":[8.486037,49.959529],"type":"Point"},"properties":{"osm_id":"5724194083","tag":{"amenity":"waste_basket"}},"type":"Feature"},
	{"geometry":{"coordinates":[8.491522,49.955174],"type":"Point"},"properties":{"osm_id":"5724194084","tag":{"amenity":"waste_basket"}},"type":"Feature"},
	{"geometry":{"coordinates":[8.472002,49.985239],"type":"Point"},"properties":{"osm_id":"5729216490","tag":{"amenity":"waste_basket"}},"type":"Feature"},
	{"geometry":{"coordinates":[8.473007,49.97579],"type":"Point"},"properties":{"osm_id":"5734981930","tag":{"amenity":"waste_basket"}},"type":"Feature"},
	{"geometry":{"coordinates":[8.475346,50.005477],"type":"Point"},"properties":{"osm_id":"5734981931","tag":{"amenity":"waste_basket"}},"type":"Feature"},
	{"geometry":{"coordinates":[8.46448,50.005945],"type":"Point"},"properties":{"osm_id":"5734981933","tag":{"amenity":"waste_basket"}},"type":"Feature"},
	{"geometry":{"coordinates":[8.464123,50.006136],"type":"Point"},"properties":{"osm_id":"5734981935","tag":{"amenity":"waste_basket"}},"type":"Feature"},
	{"geometry":{"coordinates":[8.443659,49.99521],"type":"Point"},"properties":{"osm_id":"5750341382","tag":{"amenity":"waste_basket"}},"type":"Feature"},
	{"geometry":{"coordinates":[8.439991,49.99222],"type":"Point"},"properties":{"osm_id":"5750342554","tag":{"amenity":"waste_basket"}},"type":"Feature"},
	{"geometry":{"coordinates":[8.470252,49.99707],"type":"Point"},"properties":{"osm_id":"5774058797","tag":{"amenity":"waste_basket"}},"type":"Feature"},
	{"geometry":{"coordinates":[8.458055,49.981001],"type":"Point"},"properties":{"osm_id":"5912479690","tag":{"amenity":"waste_basket"}},"type":"Feature"},
	{"geometry":{"coordinates":[8.458348,49.980108],"type":"Point"},"properties":{"osm_id":"5912479691","tag":{"amenity":"waste_basket"}},"type":"Feature"},
	{"geometry":{"coordinates":[8.463042,49.983122],"type":"Point"},"properties":{"osm_id":"5912479697","tag":{"amenity":"waste_basket"}},"type":"Feature"},
	{"geometry":{"coordinates":[8.48801,50.006339],"type":"Point"},"properties":{"osm_id":"6424357040","tag":{"amenity":"waste_basket"}},"type":"Feature"}
]
}
