{
"type": "FeatureCollection",
"features": [
	{"geometry":{"coordinates":[8.456667,49.693776],"type":"Point"},"properties":{"osm_id":"28341233","tag":{"amenity":"recycling","recycling:bottles":"yes"}},"type":"Feature"},
	{"geometry":{"coordinates":[8.446631,49.686704],"type":"Point"},"properties":{"osm_id":"30727438","tag":{"amenity":"recycling","location":"overground","recycling:bottles":"yes","recycling:clothes":"yes","recycling_type":"container"}},"type":"Feature"},
	{"geometry":{"coordinates":[8.446071,49.687724],"type":"Point"},"properties":{"osm_id":"265093683","tag":{"amenity":"recycling","location":"overground","recycling:clothes":"yes","recycling:shoes":"yes","recycling_type":"container"}},"type":"Feature"},
	{"geometry":{"coordinates":[8.447201,49.68607],"type":"Point"},"properties":{"osm_id":"265558941","tag":{"amenity":"recycling","recycling:clothes":"yes","recycling:shoes":"yes"}},"type":"Feature"},
	{"geometry":{"coordinates":[8.479269,49.71707],"type":"Point"},"properties":{"osm_id":"411900905","tag":{"amenity":"recycling","recycling:clothes":"yes"}},"type":"Feature"},
	{"geometry":{"coordinates":[8.479414,49.714786],"type":"Point"},"properties":{"osm_id":"422022986","tag":{"amenity":"recycling","recycling:clothes":"yes","recycling:glass":"yes"}},"type":"Feature"},
	{"geometry":{"coordinates":[8.477573,49.711],"type":"Point"},"properties":{"osm_id":"422023025","tag":{"amenity":"recycling","recycling:glass":"yes"}},"type":"Feature"},
	{"geometry":{"coordinates":[8.464675,49.695494],"type":"Point"},"properties":{"osm_id":"425869465","tag":{"amenity":"recycling","recycling:clothes":"yes"}},"type":"Feature"},
	{"geometry":{"coordinates":[8.464602,49.695575],"type":"Point"},"properties":{"osm_id":"425869523","tag":{"amenity":"recycling","recycling:glass":"yes"}},"type":"Feature"},
	{"geometry":{"coordinates":[8.457126,49.688117],"type":"Point"},"properties":{"osm_id":"789553892","tag":{"amenity":"recycling"}},"type":"Feature"},
	{"geometry":{"coordinates":[8.472264,49.713081],"type":"Point"},"properties":{"osm_id":"1489332904","tag":{"amenity":"recycling"}},"type":"Feature"},
	{"geometry":{"coordinates":[8.452831,49.693694],"type":"Point"},"properties":{"name":"Wetzel","osm_id":"3429643493","tag":{"amenity":"recycling"}},"type":"Feature"},
	{"geometry":{"coordinates":[8.449855,49.688167],"type":"Point"},"properties":{"osm_id":"9029920017","tag":{"amenity":"recycling","recycling_type":"container"}},"type":"Feature"}
]
}
