{
"type": "FeatureCollection",
"features": [
	{"geometry":{"coordinates":[8.468063,49.63715],"type":"Point"},"properties":{"osm_id":"26735746","tag":{"amenity":"recycling","recycling_type":"container"}},"type":"Feature"},
	{"geometry":{"coordinates":[8.467796,49.648531],"type":"Point"},"properties":{"name":"Recyclinghof","osm_id":"26735767","tag":{"amenity":"recycling","recycling:green_waste":"yes","recycling:paper":"yes","recycling:white_goods":"yes","recycling:wood":"yes"}},"type":"Feature"},
	{"geometry":{"coordinates":[8.451885,49.662488],"type":"Point"},"properties":{"osm_id":"26912526","tag":{"addr:city":"Bobstadt","addr:country":"DE","addr:postcode":"68642","addr:street":"Lessingstra\u00c3\u009fe","amenity":"recycling"}},"type":"Feature"},
	{"geometry":{"coordinates":[8.443718,49.665838],"type":"Point"},"properties":{"osm_id":"26914137","tag":{"amenity":"recycling","recycling:clothes":"yes"}},"type":"Feature"},
	{"geometry":{"coordinates":[8.477731,49.63907],"type":"Point"},"properties":{"osm_id":"27226558","tag":{"amenity":"recycling","recycling:bottles":"yes","recycling_type":"container"}},"type":"Feature"},
	{"geometry":{"coordinates":[8.463924,49.643956],"type":"Point"},"properties":{"osm_id":"27374353","tag":{"amenity":"recycling","recycling:clothes":"yes"}},"type":"Feature"},
	{"geometry":{"coordinates":[8.454239,49.64596],"type":"Point"},"properties":{"osm_id":"27374354","tag":{"amenity":"recycling","recycling:bottles":"yes","recycling:clothes":"yes"}},"type":"Feature"},
	{"geometry":{"coordinates":[8.451814,49.652676],"type":"Point"},"properties":{"osm_id":"27374357","tag":{"amenity":"recycling","recycling:clothes":"yes"}},"type":"Feature"},
	{"geometry":{"coordinates":[8.475172,49.645222],"type":"Point"},"properties":{"osm_id":"27418583","tag":{"amenity":"recycling","location":"overground","recycling_type":"container"}},"type":"Feature"},
	{"geometry":{"coordinates":[8.452008,49.651939],"type":"Point"},"properties":{"osm_id":"28328735","tag":{"amenity":"recycling","recycling:bottles":"yes"}},"type":"Feature"},
	{"geometry":{"coordinates":[8.454948,49.637835],"type":"Point"},"properties":{"osm_id":"275563838","tag":{"amenity":"recycling","recycling:clothes":"yes"}},"type":"Feature"},
	{"geometry":{"coordinates":[8.488871,49.634292],"type":"Point"},"properties":{"osm_id":"671766343","tag":{"amenity":"waste_basket"}},"type":"Feature"},
	{"geometry":{"coordinates":[8.442912,49.665923],"type":"Point"},"properties":{"osm_id":"2562008498","tag":{"amenity":"recycling","recycling:glass":"yes","recycling:glass_bottles":"yes","recycling_type":"container"}},"type":"Feature"},
	{"geometry":{"coordinates":[8.459115,49.645133],"type":"Point"},"properties":{"osm_id":"3847716678","tag":{"amenity":"waste_basket"}},"type":"Feature"}
]
}
