{
"type": "FeatureCollection",
"features": [
	{"geometry":{"coordinates":[8.477797,49.59917],"type":"Point"},"properties":{"osm_id":"27191044","tag":{"amenity":"recycling","recycling_type":"container"}},"type":"Feature"},
	{"geometry":{"coordinates":[8.520521,49.603262],"type":"Point"},"properties":{"osm_id":"27191481","tag":{"amenity":"recycling","recycling:bottles":"yes","recycling_type":"container"}},"type":"Feature"},
	{"geometry":{"coordinates":[8.518977,49.601526],"type":"Point"},"properties":{"osm_id":"27191483","tag":{"amenity":"recycling","mapillary":"E47ZvAnLC5joTtAFUpag6A","recycling:glass_bottles":"yes","recycling_type":"container","survey:date":"2017-02-27"}},"type":"Feature"},
	{"geometry":{"coordinates":[8.518828,49.601591],"type":"Point"},"properties":{"osm_id":"27191484","tag":{"amenity":"recycling","recycling:clothes":"yes"}},"type":"Feature"},
	{"geometry":{"coordinates":[8.484708,49.596894],"type":"Point"},"properties":{"osm_id":"28388994","tag":{"amenity":"recycling","recycling:clothes":"yes"}},"type":"Feature"},
	{"geometry":{"coordinates":[8.481291,49.589782],"type":"Point"},"properties":{"osm_id":"28389000","tag":{"amenity":"recycling","recycling:bottles":"yes"}},"type":"Feature"},
	{"geometry":{"coordinates":[8.473331,49.592037],"type":"Point"},"properties":{"osm_id":"29561657","tag":{"addr:city":"Lampertheim","addr:country":"DE","amenity":"recycling","recycling:glass_bottles":"yes","recycling_type":"container"}},"type":"Feature"},
	{"geometry":{"coordinates":[8.487706,49.59675],"type":"Point"},"properties":{"osm_id":"29561719","tag":{"amenity":"recycling","recycling:clothes":"yes"}},"type":"Feature"},
	{"geometry":{"coordinates":[8.476945,49.60754],"type":"Point"},"properties":{"osm_id":"30319527","tag":{"amenity":"recycling","recycling:bottles":"yes"}},"type":"Feature"},
	{"geometry":{"coordinates":[8.469994,49.60184],"type":"Point"},"properties":{"osm_id":"30320259","tag":{"amenity":"recycling","recycling:glass":"no","recycling:glass_bottles":"yes","recycling_type":"container"}},"type":"Feature"},
	{"geometry":{"coordinates":[8.464631,49.603596],"type":"Point"},"properties":{"osm_id":"30324131","tag":{"amenity":"recycling","recycling:glass":"yes"}},"type":"Feature"},
	{"geometry":{"coordinates":[8.487866,49.592265],"type":"Point"},"properties":{"osm_id":"30561992","tag":{"amenity":"recycling","recycling:glass_bottles":"yes"}},"type":"Feature"},
	{"geometry":{"coordinates":[8.461201,49.601152],"type":"Point"},"properties":{"osm_id":"267410067","tag":{"amenity":"recycling","recycling:glass":"no","recycling:glass_bottles":"yes","recycling_type":"container"}},"type":"Feature"},
	{"geometry":{"coordinates":[8.46105,49.60081],"type":"Point"},"properties":{"osm_id":"267410073","tag":{"amenity":"recycling","recycling:clothes":"yes","recycling:shoes":"yes","recycling_type":"container"}},"type":"Feature"},
	{"geometry":{"coordinates":[8.454873,49.601338],"type":"Point"},"properties":{"osm_id":"267410087","tag":{"amenity":"recycling","mapillary":"xdQghFpbFziYyyQf5VrP6Q","recycling:bottles":"yes","recycling_type":"container","survey:date":"2018-08-23"}},"type":"Feature"},
	{"geometry":{"coordinates":[8.463184,49.600718],"type":"Point"},"properties":{"osm_id":"273362142","tag":{"amenity":"recycling","mapillary":"LlvyIcfEpnbvHtdMNzQUrg","recycling:glass":"no","recycling:glass_bottles":"yes","recycling_type":"container","survey:date":"2018-08-22"}},"type":"Feature"},
	{"geometry":{"coordinates":[8.45866,49.597275],"type":"Point"},"properties":{"osm_id":"273362143","tag":{"amenity":"recycling","recycling:clothes":"yes","recycling_type":"container"}},"type":"Feature"},
	{"geometry":{"coordinates":[8.453005,49.607138],"type":"Point"},"properties":{"osm_id":"274217883","tag":{"amenity":"recycling","mapillary":"m5tLfeLqaEk50AmxEp06aQ","recycling:bottles":"yes","recycling:clothes":"yes","recycling_type":"container","survey:date":"2018-07-03"}},"type":"Feature"},
	{"geometry":{"coordinates":[8.457811,49.60773],"type":"Point"},"properties":{"osm_id":"274217893","tag":{"addr:city":"Lampertheim","addr:country":"DE","amenity":"recycling","recycling:bottles":"yes"}},"type":"Feature"},
	{"geometry":{"coordinates":[8.460806,49.603154],"type":"Point"},"properties":{"osm_id":"274220144","tag":{"amenity":"recycling","recycling:glass":"yes"}},"type":"Feature"},
	{"geometry":{"coordinates":[8.459185,49.598784],"type":"Point"},"properties":{"osm_id":"275563814","tag":{"amenity":"recycling","mapillary":"WIv46lXrZEZ1w0GGgXchAQ","recycling:bottles":"yes","recycling_type":"container","survey:date":"2018-08-23"}},"type":"Feature"},
	{"geometry":{"coordinates":[8.466665,49.596752],"type":"Point"},"properties":{"osm_id":"275563818","tag":{"amenity":"recycling","recycling:clothes":"yes","recycling:glass_bottles":"yes","recycling_type":"container"}},"type":"Feature"},
	{"geometry":{"coordinates":[8.456377,49.597287],"type":"Point"},"properties":{"osm_id":"275563823","tag":{"amenity":"recycling","mapillary":"AKsLJkNvL4v8IiAGSD_kLw","recycling:bottles":"yes","recycling_type":"container","survey:date":"2018-08-23"}},"type":"Feature"},
	{"geometry":{"coordinates":[8.469201,49.605989],"type":"Point"},"properties":{"osm_id":"275563839","tag":{"amenity":"recycling","recycling:bottles":"yes"}},"type":"Feature"},
	{"geometry":{"coordinates":[8.474504,49.600679],"type":"Point"},"properties":{"osm_id":"277195837","tag":{"amenity":"recycling","recycling:glass":"yes","recycling_type":"container"}},"type":"Feature"},
	{"geometry":{"coordinates":[8.474309,49.595099],"type":"Point"},"properties":{"osm_id":"277195840","tag":{"amenity":"recycling","recycling:glass":"yes"}},"type":"Feature"},
	{"geometry":{"coordinates":[8.468898,49.59629],"type":"Point"},"properties":{"osm_id":"277195842","tag":{"amenity":"recycling","mapillary":"n4ICfyBy4eibifVVs7y2yQ","recycling:glass":"yes","recycling_type":"container","survey:date":"2018-08-22"}},"type":"Feature"},
	{"geometry":{"coordinates":[8.471328,49.594832],"type":"Point"},"properties":{"osm_id":"277195846","tag":{"addr:city":"Lampertheim","addr:country":"DE","amenity":"recycling","mapillary":"LWnlo31kjofTq0lDn3fMYA","recycling:glass":"yes","recycling_type":"container","survey:date":"2018-08-22"}},"type":"Feature"},
	{"geometry":{"coordinates":[8.48507,49.59332],"type":"Point"},"properties":{"osm_id":"277195853","tag":{"amenity":"recycling","location":"overground","recycling:bottles":"yes","recycling_type":"container"}},"type":"Feature"},
	{"geometry":{"coordinates":[8.482005,49.589238],"type":"Point"},"properties":{"osm_id":"277672766","tag":{"amenity":"recycling","recycling:bottles":"yes"}},"type":"Feature"},
	{"geometry":{"coordinates":[8.488392,49.583669],"type":"Point"},"properties":{"osm_id":"277672769","tag":{"amenity":"recycling","mapillary":"9SxWpfu-pZ9F_KfRW3bJuw","recycling:bottles":"yes","recycling_type":"container","survey:date":"2017-06-23"}},"type":"Feature"},
	{"geometry":{"coordinates":[8.492954,49.584062],"type":"Point"},"properties":{"osm_id":"277672771","tag":{"amenity":"recycling","recycling:bottles":"yes"}},"type":"Feature"},
	{"geometry":{"coordinates":[8.487093,49.587038],"type":"Point"},"properties":{"osm_id":"277672772","tag":{"amenity":"recycling","recycling:glass":"yes"}},"type":"Feature"},
	{"geometry":{"coordinates":[8.476101,49.590157],"type":"Point"},"properties":{"osm_id":"277672775","tag":{"amenity":"recycling","recycling:glass":"yes"}},"type":"Feature"},
	{"geometry":{"coordinates":[8.468258,49.59135],"type":"Point"},"properties":{"osm_id":"277672780","tag":{"amenity":"recycling","recycling:glass":"no","recycling:glass_bottles":"yes","recycling_type":"container"}},"type":"Feature"},
	{"geometry":{"coordinates":[8.455636,49.592164],"type":"Point"},"properties":{"osm_id":"277672810","tag":{"amenity":"recycling","recycling:bottles":"yes"}},"type":"Feature"},
	{"geometry":{"coordinates":[8.471046,49.597539],"type":"Point"},"properties":{"osm_id":"277672812","tag":{"amenity":"recycling","recycling:glass":"yes","recycling_type":"container"}},"type":"Feature"},
	{"geometry":{"coordinates":[8.510331,49.600506],"type":"Point"},"properties":{"osm_id":"281949702","tag":{"amenity":"recycling","recycling:bottles":"yes"}},"type":"Feature"},
	{"geometry":{"coordinates":[8.48266,49.593642],"type":"Point"},"properties":{"osm_id":"332609801","tag":{"amenity":"recycling","recycling:clothes":"yes"}},"type":"Feature"},
	{"geometry":{"coordinates":[8.481192,49.558078],"type":"Point"},"properties":{"osm_id":"1847292683","tag":{"amenity":"recycling","recycling:clothes":"yes","recycling:glass":"yes"}},"type":"Feature"},
	{"geometry":{"coordinates":[8.478147,49.560992],"type":"Point"},"properties":{"osm_id":"1847908884","tag":{"amenity":"recycling","recycling:clothes":"yes"}},"type":"Feature"},
	{"geometry":{"coordinates":[8.477964,49.561092],"type":"Point"},"properties":{"osm_id":"1847908895","tag":{"amenity":"recycling","recycling:glass":"no","recycling:glass_bottles":"yes","recycling_type":"container"}},"type":"Feature"},
	{"geometry":{"coordinates":[8.488536,49.58797],"type":"Point"},"properties":{"osm_id":"1903815941","tag":{"amenity":"recycling","recycling:glass":"yes"}},"type":"Feature"},
	{"geometry":{"coordinates":[8.482438,49.592196],"type":"Point"},"properties":{"osm_id":"3105002050","tag":{"amenity":"recycling","location":"overground","recycling:glass":"yes","recycling_type":"container"}},"type":"Feature"},
	{"geometry":{"coordinates":[8.489597,49.592811],"type":"Point"},"properties":{"osm_id":"3105220340","tag":{"amenity":"recycling","recycling:glass":"yes"}},"type":"Feature"},
	{"geometry":{"coordinates":[8.476551,49.604724],"type":"Point"},"properties":{"osm_id":"3106683368","tag":{"amenity":"recycling","recycling:glass":"yes"}},"type":"Feature"},
	{"geometry":{"coordinates":[8.489809,49.596441],"type":"Point"},"properties":{"osm_id":"3120117042","tag":{"amenity":"recycling","recycling:glass":"yes"}},"type":"Feature"},
	{"geometry":{"coordinates":[8.465008,49.593676],"type":"Point"},"properties":{"osm_id":"4146291594","tag":{"amenity":"recycling"}},"type":"Feature"},
	{"geometry":{"coordinates":[8.503498,49.560891],"type":"Point"},"properties":{"osm_id":"4209670148","tag":{"amenity":"waste_basket"}},"type":"Feature"},
	{"geometry":{"coordinates":[8.482662,49.603109],"type":"Point"},"properties":{"osm_id":"6401809522","tag":{"amenity":"waste_basket"}},"type":"Feature"},
	{"geometry":{"coordinates":[8.482628,49.603074],"type":"Point"},"properties":{"osm_id":"6401809523","tag":{"amenity":"recycling","recycling:glass_bottles":"yes","recycling_type":"container"}},"type":"Feature"},
	{"geometry":{"coordinates":[8.451507,49.597636],"type":"Point"},"properties":{"osm_id":"6475683018","tag":{"amenity":"waste_basket"}},"type":"Feature"},
	{"geometry":{"coordinates":[8.45476,49.59421],"type":"Point"},"properties":{"osm_id":"6516920500","tag":{"amenity":"waste_basket"}},"type":"Feature"},
	{"geometry":{"coordinates":[8.454434,49.594305],"type":"Point"},"properties":{"osm_id":"6516920501","tag":{"amenity":"waste_basket"}},"type":"Feature"}
]
}
