{
"type": "FeatureCollection",
"features": [
	{"geometry":{"coordinates":[8.485506,49.536426],"type":"Point"},"properties":{"osm_id":"30560637","tag":{"amenity":"recycling"}},"type":"Feature"},
	{"geometry":{"coordinates":[8.466958,49.50419],"type":"Point"},"properties":{"osm_id":"282076199","tag":{"amenity":"recycling","location":"overground","recycling:glass":"yes","recycling_type":"container"}},"type":"Feature"},
	{"geometry":{"coordinates":[8.451154,49.537536],"type":"Point"},"properties":{"osm_id":"360595354","tag":{"amenity":"recycling","recycling:clothes":"yes","recycling:glass":"yes","recycling_type":"container"}},"type":"Feature"},
	{"geometry":{"coordinates":[8.483945,49.497351],"type":"Point"},"properties":{"osm_id":"409783248","tag":{"amenity":"recycling","recycling:clothes":"yes","recycling:glass_bottles":"yes","recycling_type":"container"}},"type":"Feature"},
	{"geometry":{"coordinates":[8.457885,49.496868],"type":"Point"},"properties":{"osm_id":"418051687","tag":{"amenity":"recycling","recycling:glass":"yes"}},"type":"Feature"},
	{"geometry":{"coordinates":[8.509559,49.529846],"type":"Point"},"properties":{"osm_id":"471131321","tag":{"amenity":"recycling","location":"overground","recycling:clothes":"yes","recycling:glass":"yes","recycling_type":"container"}},"type":"Feature"},
	{"geometry":{"coordinates":[8.461766,49.499214],"type":"Point"},"properties":{"osm_id":"473212932","tag":{"amenity":"recycling","recycling:glass_bottles":"yes","recycling_type":"container"}},"type":"Feature"},
	{"geometry":{"coordinates":[8.496689,49.538208],"type":"Point"},"properties":{"osm_id":"572141845","tag":{"amenity":"recycling","recycling:glass_bottles":"yes","recycling_type":"container"}},"type":"Feature"},
	{"geometry":{"coordinates":[8.471615,49.498909],"type":"Point"},"properties":{"osm_id":"666987751","tag":{"amenity":"recycling","location":"overground","recycling:glass":"yes","recycling_type":"container"}},"type":"Feature"},
	{"geometry":{"coordinates":[8.467794,49.500501],"type":"Point"},"properties":{"osm_id":"747049153","tag":{"amenity":"recycling","recycling:clothes":"yes","recycling:glass_bottles":"yes","recycling:paper":"no","recycling_type":"container"}},"type":"Feature"},
	{"geometry":{"coordinates":[8.506398,49.535323],"type":"Point"},"properties":{"osm_id":"877229705","tag":{"amenity":"recycling","recycling:cans":"no","recycling:clothes":"yes","recycling:glass":"yes","recycling:glass_bottles":"yes","recycling:paper":"no","recycling:plastic":"no","recycling_type":"container"}},"type":"Feature"},
	{"geometry":{"coordinates":[8.47051,49.505417],"type":"Point"},"properties":{"osm_id":"893277830","tag":{"amenity":"recycling","location":"overground","recycling:clothes":"yes","recycling:glass":"yes","recycling:paper":"yes","recycling_type":"container"}},"type":"Feature"},
	{"geometry":{"coordinates":[8.475531,49.499838],"type":"Point"},"properties":{"osm_id":"894970526","tag":{"amenity":"recycling","location":"underground","recycling:clothes":"yes","recycling:glass":"yes","recycling_type":"container"}},"type":"Feature"},
	{"geometry":{"coordinates":[8.481534,49.526465],"type":"Point"},"properties":{"osm_id":"1180621484","tag":{"amenity":"recycling","location":"overground","recycling:glass_bottles":"yes","recycling_type":"container"}},"type":"Feature"},
	{"geometry":{"coordinates":[8.468527,49.542682],"type":"Point"},"properties":{"osm_id":"1180621490","tag":{"amenity":"recycling","opening_hours":"Mo-Sa 07:00-19:00; PH off","recycling:clothes":"yes","recycling:glass_bottles":"yes","recycling:shoes":"yes","recycling_type":"container"}},"type":"Feature"},
	{"geometry":{"coordinates":[8.468667,49.539505],"type":"Point"},"properties":{"osm_id":"1180621494","tag":{"amenity":"recycling","operator":"Deutsches Rotes Kreuz","recycling:clothes":"yes","recycling:shoes":"yes","recycling_type":"container"}},"type":"Feature"},
	{"geometry":{"coordinates":[8.467052,49.498508],"type":"Point"},"properties":{"osm_id":"1184391920","tag":{"amenity":"recycling","location":"overground","recycling:glass":"yes","recycling_type":"container"}},"type":"Feature"},
	{"geometry":{"coordinates":[8.472089,49.510966],"type":"Point"},"properties":{"osm_id":"1184984316","tag":{"amenity":"recycling","recycling:clothes":"yes","recycling:glass_bottles":"yes","recycling_type":"container"}},"type":"Feature"},
	{"geometry":{"coordinates":[8.457218,49.501008],"type":"Point"},"properties":{"osm_id":"1187011708","tag":{"amenity":"recycling","recycling:clothes":"yes"}},"type":"Feature"},
	{"geometry":{"coordinates":[8.461809,49.499193],"type":"Point"},"properties":{"osm_id":"1187011711","tag":{"amenity":"recycling","location":"overground","recycling:clothes":"yes","recycling_type":"container"}},"type":"Feature"},
	{"geometry":{"coordinates":[8.475938,49.516546],"type":"Point"},"properties":{"osm_id":"1193854272","tag":{"amenity":"recycling","recycling:glass_bottles":"yes","recycling_type":"container"}},"type":"Feature"},
	{"geometry":{"coordinates":[8.475425,49.515362],"type":"Point"},"properties":{"osm_id":"1193861871","tag":{"amenity":"recycling","recycling:glass_bottles":"yes","recycling_type":"container"}},"type":"Feature"},
	{"geometry":{"coordinates":[8.4729,49.536413],"type":"Point"},"properties":{"osm_id":"1193861872","tag":{"amenity":"recycling","recycling:glass_bottles":"yes","recycling_type":"container"}},"type":"Feature"},
	{"geometry":{"coordinates":[8.473564,49.54677],"type":"Point"},"properties":{"osm_id":"1193861873","tag":{"amenity":"recycling","recycling:glass_bottles":"yes"}},"type":"Feature"},
	{"geometry":{"coordinates":[8.465181,49.498971],"type":"Point"},"properties":{"osm_id":"1198519002","tag":{"amenity":"recycling","recycling:clothes":"yes","recycling:glass_bottles":"yes","recycling_type":"container"}},"type":"Feature"},
	{"geometry":{"coordinates":[8.483619,49.547455],"type":"Point"},"properties":{"osm_id":"1333848568","tag":{"amenity":"waste_basket"}},"type":"Feature"},
	{"geometry":{"coordinates":[8.466995,49.54657],"type":"Point"},"properties":{"osm_id":"1338053779","tag":{"amenity":"recycling","opening_hours":"Mo-Sa 07:00-19:00"}},"type":"Feature"},
	{"geometry":{"coordinates":[8.4861,49.546895],"type":"Point"},"properties":{"osm_id":"1341552669","tag":{"amenity":"waste_basket"}},"type":"Feature"},
	{"geometry":{"coordinates":[8.514005,49.536699],"type":"Point"},"properties":{"osm_id":"1342019804","tag":{"amenity":"waste_basket"}},"type":"Feature"},
	{"geometry":{"coordinates":[8.500076,49.541856],"type":"Point"},"properties":{"osm_id":"1342020411","tag":{"amenity":"waste_basket"}},"type":"Feature"},
	{"geometry":{"coordinates":[8.49051,49.548261],"type":"Point"},"properties":{"osm_id":"1342492240","tag":{"amenity":"waste_basket"}},"type":"Feature"},
	{"geometry":{"coordinates":[8.513548,49.53725],"type":"Point"},"properties":{"osm_id":"1343596569","tag":{"amenity":"waste_basket"}},"type":"Feature"},
	{"geometry":{"coordinates":[8.51455,49.536013],"type":"Point"},"properties":{"osm_id":"1343596571","tag":{"amenity":"waste_basket"}},"type":"Feature"},
	{"geometry":{"coordinates":[8.514115,49.536516],"type":"Point"},"properties":{"osm_id":"1343596575","tag":{"amenity":"waste_basket"}},"type":"Feature"},
	{"geometry":{"coordinates":[8.514211,49.536493],"type":"Point"},"properties":{"osm_id":"1343596577","tag":{"amenity":"waste_basket"}},"type":"Feature"},
	{"geometry":{"coordinates":[8.517852,49.535108],"type":"Point"},"properties":{"osm_id":"1344203156","tag":{"amenity":"waste_basket"}},"type":"Feature"},
	{"geometry":{"coordinates":[8.475127,49.544389],"type":"Point"},"properties":{"osm_id":"1345554152","tag":{"amenity":"waste_basket"}},"type":"Feature"},
	{"geometry":{"coordinates":[8.475735,49.544407],"type":"Point"},"properties":{"osm_id":"1345554153","tag":{"amenity":"waste_basket"}},"type":"Feature"},
	{"geometry":{"coordinates":[8.479021,49.544496],"type":"Point"},"properties":{"osm_id":"1345939107","tag":{"amenity":"waste_basket"}},"type":"Feature"},
	{"geometry":{"coordinates":[8.479552,49.544505],"type":"Point"},"properties":{"osm_id":"1345939108","tag":{"amenity":"waste_basket"}},"type":"Feature"},
	{"geometry":{"coordinates":[8.522405,49.533497],"type":"Point"},"properties":{"osm_id":"1349403988","tag":{"amenity":"waste_basket"}},"type":"Feature"},
	{"geometry":{"coordinates":[8.495978,49.543197],"type":"Point"},"properties":{"osm_id":"1354096257","tag":{"amenity":"waste_basket"}},"type":"Feature"},
	{"geometry":{"coordinates":[8.481341,49.547264],"type":"Point"},"properties":{"osm_id":"1354098368","tag":{"amenity":"waste_basket"}},"type":"Feature"},
	{"geometry":{"coordinates":[8.480893,49.546954],"type":"Point"},"properties":{"osm_id":"1354098369","tag":{"amenity":"waste_basket"}},"type":"Feature"},
	{"geometry":{"coordinates":[8.513818,49.536599],"type":"Point"},"properties":{"osm_id":"1359690690","tag":{"amenity":"waste_basket"}},"type":"Feature"},
	{"geometry":{"coordinates":[8.512893,49.521414],"type":"Point"},"properties":{"osm_id":"1364706282","tag":{"amenity":"recycling","location":"overground","recycling:clothes":"yes","recycling:glass":"yes","recycling:glass_bottles":"yes","recycling_type":"container"}},"type":"Feature"},
	{"geometry":{"coordinates":[8.505354,49.522153],"type":"Point"},"properties":{"osm_id":"1364981234","tag":{"amenity":"recycling","recycling:glass_bottles":"yes","recycling_type":"container"}},"type":"Feature"},
	{"geometry":{"coordinates":[8.478957,49.498004],"type":"Point"},"properties":{"osm_id":"1368741104","tag":{"amenity":"recycling","location":"overground","recycling:clothes":"yes","recycling:glass":"yes","recycling_type":"container"}},"type":"Feature"},
	{"geometry":{"coordinates":[8.516139,49.535701],"type":"Point"},"properties":{"osm_id":"1374836799","tag":{"amenity":"waste_basket"}},"type":"Feature"},
	{"geometry":{"coordinates":[8.477207,49.497918],"type":"Point"},"properties":{"osm_id":"1414842304","tag":{"amenity":"recycling","recycling:clothes":"yes","recycling:glass_bottles":"yes","recycling_type":"container"}},"type":"Feature"},
	{"geometry":{"coordinates":[8.487152,49.500712],"type":"Point"},"properties":{"osm_id":"1423335766","tag":{"amenity":"waste_basket"}},"type":"Feature"},
	{"geometry":{"coordinates":[8.487588,49.500833],"type":"Point"},"properties":{"osm_id":"1423335785","tag":{"amenity":"waste_basket"}},"type":"Feature"},
	{"geometry":{"coordinates":[8.486306,49.500945],"type":"Point"},"properties":{"osm_id":"1423335797","tag":{"amenity":"waste_basket"}},"type":"Feature"},
	{"geometry":{"coordinates":[8.487458,49.501149],"type":"Point"},"properties":{"osm_id":"1423335815","tag":{"amenity":"waste_basket"}},"type":"Feature"},
	{"geometry":{"coordinates":[8.487393,49.501243],"type":"Point"},"properties":{"osm_id":"1423335835","tag":{"amenity":"waste_basket"}},"type":"Feature"},
	{"geometry":{"coordinates":[8.487307,49.501347],"type":"Point"},"properties":{"osm_id":"1423335854","tag":{"amenity":"waste_basket"}},"type":"Feature"},
	{"geometry":{"coordinates":[8.487102,49.501539],"type":"Point"},"properties":{"osm_id":"1423335869","tag":{"amenity":"waste_basket"}},"type":"Feature"},
	{"geometry":{"coordinates":[8.486922,49.501747],"type":"Point"},"properties":{"osm_id":"1423335878","tag":{"amenity":"waste_basket"}},"type":"Feature"},
	{"geometry":{"coordinates":[8.48679,49.50176],"type":"Point"},"properties":{"osm_id":"1423335879","tag":{"amenity":"waste_basket"}},"type":"Feature"},
	{"geometry":{"coordinates":[8.486742,49.502062],"type":"Point"},"properties":{"osm_id":"1423335884","tag":{"amenity":"waste_basket"}},"type":"Feature"},
	{"geometry":{"coordinates":[8.486665,49.50215],"type":"Point"},"properties":{"osm_id":"1423335885","tag":{"amenity":"waste_basket"}},"type":"Feature"},
	{"geometry":{"coordinates":[8.486906,49.502975],"type":"Point"},"properties":{"osm_id":"1423335890","tag":{"amenity":"waste_basket"}},"type":"Feature"},
	{"geometry":{"coordinates":[8.486166,49.503458],"type":"Point"},"properties":{"osm_id":"1423335900","tag":{"amenity":"waste_basket"}},"type":"Feature"},
	{"geometry":{"coordinates":[8.484779,49.503695],"type":"Point"},"properties":{"osm_id":"1423335911","tag":{"amenity":"waste_basket"}},"type":"Feature"},
	{"geometry":{"coordinates":[8.48595,49.503808],"type":"Point"},"properties":{"osm_id":"1423335922","tag":{"amenity":"waste_basket"}},"type":"Feature"},
	{"geometry":{"coordinates":[8.485334,49.503867],"type":"Point"},"properties":{"osm_id":"1423335926","tag":{"amenity":"waste_basket"}},"type":"Feature"},
	{"geometry":{"coordinates":[8.48299,49.504349],"type":"Point"},"properties":{"osm_id":"1423336072","tag":{"amenity":"waste_basket"}},"type":"Feature"},
	{"geometry":{"coordinates":[8.478367,49.504709],"type":"Point"},"properties":{"osm_id":"1423336184","tag":{"amenity":"waste_basket"}},"type":"Feature"},
	{"geometry":{"coordinates":[8.51415,49.536641],"type":"Point"},"properties":{"osm_id":"1439024198","tag":{"amenity":"waste_basket"}},"type":"Feature"},
	{"geometry":{"coordinates":[8.47988,49.546949],"type":"Point"},"properties":{"osm_id":"1441950855","tag":{"addr:street":"Lilienthalstra\u00c3\u009fe","amenity":"waste_basket"}},"type":"Feature"},
	{"geometry":{"coordinates":[8.479544,49.546952],"type":"Point"},"properties":{"osm_id":"1441950860","tag":{"amenity":"waste_basket"}},"type":"Feature"},
	{"geometry":{"coordinates":[8.47776,49.546818],"type":"Point"},"properties":{"osm_id":"1441953288","tag":{"addr:street":"Lilienthalstra\u00c3\u009fe","amenity":"waste_basket"}},"type":"Feature"},
	{"geometry":{"coordinates":[8.473559,49.540868],"type":"Point"},"properties":{"osm_id":"1447190090","tag":{"amenity":"recycling","mapillary":"QgQTXa9-pHlOQSOn_B1WDQ","recycling:glass":"yes","recycling_type":"container","survey:date":"2017-08-16"}},"type":"Feature"},
	{"geometry":{"coordinates":[8.459258,49.524333],"type":"Point"},"properties":{"barrier":"gate","osm_id":"1528263243","tag":{"access":"destination","entrance":"main"}},"type":"Feature"},
	{"geometry":{"coordinates":[8.459312,49.523415],"type":"Point"},"properties":{"barrier":"gate","osm_id":"1528264882","tag":{"access":"no"}},"type":"Feature"},
	{"geometry":{"coordinates":[8.506253,49.507344],"type":"Point"},"properties":{"osm_id":"1528659641","tag":{"amenity":"recycling","recycling:glass":"yes","recycling_type":"container"}},"type":"Feature"},
	{"geometry":{"coordinates":[8.512515,49.508092],"type":"Point"},"properties":{"osm_id":"1588734202","tag":{"amenity":"recycling","recycling:glass":"no","recycling:glass_bottles":"yes","recycling_type":"container"}},"type":"Feature"},
	{"geometry":{"coordinates":[8.514584,49.50317],"type":"Point"},"properties":{"osm_id":"1593519476","tag":{"amenity":"recycling","recycling:clothes":"yes","recycling:glass":"yes"}},"type":"Feature"},
	{"geometry":{"coordinates":[8.515364,49.509828],"type":"Point"},"properties":{"osm_id":"1593519574","tag":{"amenity":"recycling","location":"overground","recycling:glass":"yes","recycling_type":"container"}},"type":"Feature"},
	{"geometry":{"coordinates":[8.506912,49.512547],"type":"Point"},"properties":{"osm_id":"1594508358","tag":{"amenity":"recycling","mapillary":"Y-J7BOgW7H1HaSpL8t86AA","recycling:clothes":"yes","recycling:glass":"yes","recycling_type":"container","survey:date":"2019-08-24"}},"type":"Feature"},
	{"geometry":{"coordinates":[8.485127,49.524682],"type":"Point"},"properties":{"osm_id":"1596026336","tag":{"amenity":"recycling","location":"overground","recycling:clothes":"yes","recycling_type":"container"}},"type":"Feature"},
	{"geometry":{"coordinates":[8.485259,49.524971],"type":"Point"},"properties":{"osm_id":"1596026354","tag":{"amenity":"recycling","location":"underground","recycling:glass":"yes","recycling:paper":"no","recycling_type":"container"}},"type":"Feature"},
	{"geometry":{"coordinates":[8.487459,49.52673],"type":"Point"},"properties":{"osm_id":"1596026447","tag":{"amenity":"recycling","mapillary":"paTtqueor13x6HXpL4p4bw","recycling:clothes":"yes","recycling:glass":"no","recycling:glass_bottles":"yes","recycling_type":"container","survey:date":"2017-08-30"}},"type":"Feature"},
	{"geometry":{"coordinates":[8.51083,49.526033],"type":"Point"},"properties":{"osm_id":"1599237678","tag":{"amenity":"recycling","recycling:cartons":"no","recycling:clothes":"no","recycling:electrical_appliances":"no","recycling:glass":"yes","recycling:glass_bottles":"yes","recycling:green_waste":"no","recycling:paper":"no","recycling:waste":"no","recycling:wood":"no","recycling_type":"container"}},"type":"Feature"},
	{"geometry":{"coordinates":[8.491515,49.49805],"type":"Point"},"properties":{"osm_id":"1602527590","tag":{"amenity":"recycling","mapillary":"cnbTwIeFnta905Ff9l1fLg","recycling:clothes":"yes","recycling_type":"container","survey:date":"2018-08-18"}},"type":"Feature"},
	{"geometry":{"coordinates":[8.495717,49.499282],"type":"Point"},"properties":{"osm_id":"1603290808","tag":{"amenity":"recycling","recycling:glass":"yes","recycling_type":"container"}},"type":"Feature"},
	{"geometry":{"coordinates":[8.496543,49.499777],"type":"Point"},"properties":{"osm_id":"1603290866","tag":{"amenity":"recycling","recycling:clothes":"yes"}},"type":"Feature"},
	{"geometry":{"coordinates":[8.494408,49.498325],"type":"Point"},"properties":{"osm_id":"1603477938","tag":{"amenity":"recycling","recycling:glass":"yes"}},"type":"Feature"},
	{"geometry":{"coordinates":[8.481487,49.498996],"type":"Point"},"properties":{"osm_id":"1607406898","tag":{"amenity":"recycling","recycling:clothes":"yes"}},"type":"Feature"},
	{"geometry":{"coordinates":[8.463439,49.504354],"type":"Point"},"properties":{"osm_id":"1614701834","tag":{"amenity":"recycling","recycling:clothes":"yes","recycling:glass_bottles":"yes","recycling_type":"container"}},"type":"Feature"},
	{"geometry":{"coordinates":[8.514183,49.503031],"type":"Point"},"properties":{"osm_id":"1647627381","tag":{"amenity":"recycling","recycling:clothes":"yes","recycling:glass_bottles":"yes","recycling_type":"container"}},"type":"Feature"},
	{"geometry":{"coordinates":[8.474354,49.496721],"type":"Point"},"properties":{"osm_id":"1651961977","tag":{"amenity":"recycling","recycling:clothes":"yes","recycling:glass":"yes","recycling_type":"container"}},"type":"Feature"},
	{"geometry":{"coordinates":[8.517034,49.507371],"type":"Point"},"properties":{"osm_id":"1721478968","tag":{"amenity":"recycling","recycling:clothes":"yes","recycling:glass_bottles":"yes","recycling_type":"container"}},"type":"Feature"},
	{"geometry":{"coordinates":[8.510319,49.506802],"type":"Point"},"properties":{"osm_id":"1722554876","tag":{"amenity":"recycling","opening_hours":"Mo-Sa 07:00-19:00; PH off","recycling:clothes":"yes","recycling:glass":"no","recycling:glass_bottles":"yes","recycling_type":"container"}},"type":"Feature"},
	{"geometry":{"coordinates":[8.504629,49.501012],"type":"Point"},"properties":{"osm_id":"1752064447","tag":{"amenity":"recycling","recycling:clothes":"yes","recycling:glass":"yes","recycling_type":"container"}},"type":"Feature"},
	{"geometry":{"coordinates":[8.49108,49.527741],"type":"Point"},"properties":{"osm_id":"1762309839","tag":{"amenity":"recycling","recycling:batteries":"no","recycling:glass_bottles":"yes","recycling:green_waste":"no","recycling:waste":"no","recycling:wood":"no","recycling_type":"container"}},"type":"Feature"},
	{"geometry":{"coordinates":[8.509438,49.513361],"type":"Point"},"properties":{"osm_id":"1812124956","tag":{"amenity":"recycling","recycling:batteries":"no","recycling:books":"no","recycling:cans":"no","recycling:cardboard":"no","recycling:cartons":"no","recycling:clothes":"no","recycling:electrical_appliances":"no","recycling:glass_bottles":"yes","recycling:green_waste":"no","recycling:magazines":"no","recycling:newspaper":"no","recycling:paper":"no","recycling:paper_packaging":"no","recycling:plastic":"no","recycling:plastic_bottles":"no","recycling:plastic_packaging":"no","recycling:scrap_metal":"no","recycling:shoes":"no","recycling:small_appliances":"no","recycling:waste":"no","recycling:wood":"no","recycling_type":"container"}},"type":"Feature"},
	{"geometry":{"coordinates":[8.509357,49.513348],"type":"Point"},"properties":{"osm_id":"1812480843","tag":{"amenity":"recycling","recycling:cans":"no","recycling:cardboard":"no","recycling:cartons":"no","recycling:clothes":"yes","recycling:electrical_appliances":"no","recycling:glass":"no","recycling:glass_bottles":"no","recycling:green_waste":"no","recycling:magazines":"no","recycling:newspaper":"no","recycling:paper":"no","recycling:paper_packaging":"no","recycling:plastic":"no","recycling:plastic_bottles":"no","recycling:plastic_packaging":"no","recycling:scrap_metal":"no","recycling:shoes":"yes","recycling:small_appliances":"no","recycling:waste":"no","recycling:wood":"no","recycling_type":"container"}},"type":"Feature"},
	{"geometry":{"coordinates":[8.473043,49.551014],"type":"Point"},"properties":{"osm_id":"1883500019","tag":{"amenity":"recycling"}},"type":"Feature"},
	{"geometry":{"coordinates":[8.512247,49.536425],"type":"Point"},"properties":{"osm_id":"1887223775","tag":{"amenity":"recycling","recycling:batteries":"no","recycling:books":"no","recycling:clothes":"no","recycling:electrical_appliances":"no","recycling:glass_bottles":"yes","recycling_type":"container"}},"type":"Feature"},
	{"geometry":{"coordinates":[8.487934,49.50435],"type":"Point"},"properties":{"osm_id":"1908048179","tag":{"amenity":"recycling","location":"overground","recycling:clothes":"yes","recycling:glass":"yes","recycling_type":"container"}},"type":"Feature"},
	{"geometry":{"coordinates":[8.490972,49.505986],"type":"Point"},"properties":{"osm_id":"1908048916","tag":{"amenity":"recycling","location":"overground","recycling:clothes":"yes","recycling:glass":"yes","recycling_type":"container"}},"type":"Feature"},
	{"geometry":{"coordinates":[8.469546,49.538304],"type":"Point"},"properties":{"osm_id":"1936611082","tag":{"amenity":"recycling","recycling:glass_bottles":"yes","recycling_type":"container"}},"type":"Feature"},
	{"geometry":{"coordinates":[8.449914,49.549433],"type":"Point"},"properties":{"osm_id":"1974820147","tag":{"amenity":"recycling","recycling:glass_bottles":"yes","recycling_type":"container"}},"type":"Feature"},
	{"geometry":{"coordinates":[8.443537,49.544665],"type":"Point"},"properties":{"osm_id":"2210944542","tag":{"amenity":"recycling","recycling:clothes":"no","recycling:glass":"yes"}},"type":"Feature"},
	{"geometry":{"coordinates":[8.459467,49.524296],"type":"Point"},"properties":{"barrier":"gate","osm_id":"2238311737","tag":{"access":"private"}},"type":"Feature"},
	{"geometry":{"coordinates":[8.454603,49.540279],"type":"Point"},"properties":{"osm_id":"2261326290","tag":{"amenity":"recycling","recycling:clothes":"yes","recycling:glass":"yes","recycling_type":"container"}},"type":"Feature"},
	{"geometry":{"coordinates":[8.502234,49.50305],"type":"Point"},"properties":{"osm_id":"2275856455","tag":{"amenity":"waste_basket"}},"type":"Feature"},
	{"geometry":{"coordinates":[8.473505,49.496957],"type":"Point"},"properties":{"osm_id":"2728670120","tag":{"amenity":"waste_basket"}},"type":"Feature"},
	{"geometry":{"coordinates":[8.512525,49.538251],"type":"Point"},"properties":{"osm_id":"2913164431","tag":{"amenity":"waste_basket"}},"type":"Feature"},
	{"geometry":{"coordinates":[8.512895,49.537868],"type":"Point"},"properties":{"osm_id":"2913165091","tag":{"amenity":"waste_basket"}},"type":"Feature"},
	{"geometry":{"coordinates":[8.513161,49.538318],"type":"Point"},"properties":{"osm_id":"2913166215","tag":{"amenity":"waste_basket"}},"type":"Feature"},
	{"geometry":{"coordinates":[8.499929,49.530342],"type":"Point"},"properties":{"osm_id":"3010432886","tag":{"amenity":"recycling","recycling:cans":"no","recycling:glass":"yes","recycling:paper":"no","recycling_type":"container"}},"type":"Feature"},
	{"geometry":{"coordinates":[8.477401,49.497557],"type":"Point"},"properties":{"osm_id":"3392565893","tag":{"amenity":"waste_basket"}},"type":"Feature"},
	{"geometry":{"coordinates":[8.474732,49.504021],"type":"Point"},"properties":{"osm_id":"3398919593","tag":{"amenity":"recycling","recycling:batteries":"no","recycling:cans":"no","recycling:clothes":"yes","recycling:glass":"no","recycling:paper":"no","recycling:scrap_metal":"no","recycling:shoes":"yes","recycling_type":"container"}},"type":"Feature"},
	{"geometry":{"coordinates":[8.515784,49.53882],"type":"Point"},"properties":{"osm_id":"3690073509","tag":{"amenity":"waste_basket"}},"type":"Feature"},
	{"geometry":{"coordinates":[8.477772,49.517091],"type":"Point"},"properties":{"osm_id":"3825423308","tag":{"amenity":"waste_basket"}},"type":"Feature"},
	{"geometry":{"coordinates":[8.482571,49.526009],"type":"Point"},"properties":{"osm_id":"3827640983","tag":{"amenity":"waste_basket"}},"type":"Feature"},
	{"geometry":{"coordinates":[8.482569,49.526295],"type":"Point"},"properties":{"osm_id":"3827640989","tag":{"amenity":"waste_basket"}},"type":"Feature"},
	{"geometry":{"coordinates":[8.482557,49.526627],"type":"Point"},"properties":{"osm_id":"3827640996","tag":{"amenity":"waste_basket"}},"type":"Feature"},
	{"geometry":{"coordinates":[8.482545,49.527127],"type":"Point"},"properties":{"osm_id":"3827641009","tag":{"amenity":"waste_basket"}},"type":"Feature"},
	{"geometry":{"coordinates":[8.496995,49.502685],"type":"Point"},"properties":{"osm_id":"4000803212","tag":{"amenity":"waste_basket"}},"type":"Feature"},
	{"geometry":{"coordinates":[8.497368,49.502743],"type":"Point"},"properties":{"osm_id":"4000803213","tag":{"amenity":"waste_basket"}},"type":"Feature"},
	{"geometry":{"coordinates":[8.501253,49.504574],"type":"Point"},"properties":{"osm_id":"4000803214","tag":{"amenity":"waste_basket"}},"type":"Feature"},
	{"geometry":{"coordinates":[8.489012,49.498143],"type":"Point"},"properties":{"osm_id":"4000900464","tag":{"amenity":"waste_basket"}},"type":"Feature"},
	{"geometry":{"coordinates":[8.489257,49.498386],"type":"Point"},"properties":{"osm_id":"4000900465","tag":{"amenity":"waste_basket"}},"type":"Feature"},
	{"geometry":{"coordinates":[8.491553,49.499654],"type":"Point"},"properties":{"osm_id":"4000900466","tag":{"amenity":"waste_basket"}},"type":"Feature"},
	{"geometry":{"coordinates":[8.49401,49.500949],"type":"Point"},"properties":{"osm_id":"4000900467","tag":{"amenity":"waste_basket"}},"type":"Feature"},
	{"geometry":{"coordinates":[8.494071,49.500976],"type":"Point"},"properties":{"osm_id":"4000900468","tag":{"amenity":"recycling","location":"overground","recycling:glass":"no","recycling:glass_bottles":"yes","recycling_type":"container"}},"type":"Feature"},
	{"geometry":{"coordinates":[8.487509,49.536131],"type":"Point"},"properties":{"osm_id":"4050078789","tag":{"amenity":"recycling","recycling:cans":"no","recycling:clothes":"no","recycling:glass":"yes","recycling:glass_bottles":"yes","recycling:paper":"no","recycling_type":"container"}},"type":"Feature"},
	{"geometry":{"coordinates":[8.493247,49.532973],"type":"Point"},"properties":{"osm_id":"4050078950","tag":{"amenity":"recycling","recycling:cans":"no","recycling:glass":"yes","recycling:glass_bottles":"yes","recycling:paper":"no","recycling:plastic":"no","recycling_type":"container"}},"type":"Feature"},
	{"geometry":{"coordinates":[8.484079,49.509909],"type":"Point"},"properties":{"osm_id":"4058507249","tag":{"amenity":"recycling","recycling:clothes":"yes","recycling:glass_bottles":"yes","recycling_type":"container"}},"type":"Feature"},
	{"geometry":{"coordinates":[8.47453,49.503964],"type":"Point"},"properties":{"osm_id":"4067902398","tag":{"amenity":"recycling","recycling:batteries":"no","recycling:cans":"no","recycling:clothes":"yes","recycling:glass":"no","recycling:paper":"no","recycling:scrap_metal":"no","recycling:shoes":"no","recycling_type":"container"}},"type":"Feature"},
	{"geometry":{"coordinates":[8.494862,49.533091],"type":"Point"},"properties":{"osm_id":"4127426226","tag":{"amenity":"waste_basket"}},"type":"Feature"},
	{"geometry":{"coordinates":[8.494805,49.533224],"type":"Point"},"properties":{"osm_id":"4127426236","tag":{"amenity":"waste_basket"}},"type":"Feature"},
	{"geometry":{"coordinates":[8.489612,49.498858],"type":"Point"},"properties":{"osm_id":"4281976507","tag":{"amenity":"waste_basket"}},"type":"Feature"},
	{"geometry":{"coordinates":[8.512559,49.507966],"type":"Point"},"properties":{"osm_id":"4311216611","tag":{"amenity":"waste_basket","operator":"Rhein-Neckar-Verkehr GmbH"}},"type":"Feature"},
	{"geometry":{"coordinates":[8.499394,49.521483],"type":"Point"},"properties":{"osm_id":"4383613770","tag":{"amenity":"recycling","recycling:clothes":"yes","recycling:shoes":"yes","recycling_type":"container"}},"type":"Feature"},
	{"geometry":{"coordinates":[8.470324,49.508757],"type":"Point"},"properties":{"osm_id":"4392784577","tag":{"amenity":"recycling","recycling:glass_bottles":"yes","recycling_type":"container"}},"type":"Feature"},
	{"geometry":{"coordinates":[8.516992,49.531373],"type":"Point"},"properties":{"osm_id":"4408467191","tag":{"amenity":"waste_basket"}},"type":"Feature"},
	{"geometry":{"coordinates":[8.515109,49.531408],"type":"Point"},"properties":{"osm_id":"4408467192","tag":{"amenity":"waste_basket"}},"type":"Feature"},
	{"geometry":{"coordinates":[8.524884,49.531538],"type":"Point"},"properties":{"osm_id":"4410563906","tag":{"amenity":"waste_basket"}},"type":"Feature"},
	{"geometry":{"coordinates":[8.480136,49.501386],"type":"Point"},"properties":{"osm_id":"4471835307","tag":{"amenity":"recycling","recycling:clothes":"yes","recycling:glass":"yes","recycling_type":"container"}},"type":"Feature"},
	{"geometry":{"coordinates":[8.472959,49.506516],"type":"Point"},"properties":{"osm_id":"4471835327","tag":{"access":"private","amenity":"recycling","recycling:paper":"yes","recycling_type":"container"}},"type":"Feature"},
	{"geometry":{"coordinates":[8.472985,49.50659],"type":"Point"},"properties":{"osm_id":"4471835348","tag":{"access":"private","amenity":"recycling","recycling:waste":"yes","recycling_type":"container"}},"type":"Feature"},
	{"geometry":{"coordinates":[8.472954,49.506503],"type":"Point"},"properties":{"osm_id":"4502111909","tag":{"access":"private","amenity":"recycling","recycling:paper":"yes","recycling_type":"container"}},"type":"Feature"},
	{"geometry":{"coordinates":[8.453819,49.521418],"type":"Point"},"properties":{"osm_id":"4567362277","tag":{"amenity":"waste_basket"}},"type":"Feature"},
	{"geometry":{"coordinates":[8.51074,49.537178],"type":"Point"},"properties":{"osm_id":"5135264383","tag":{"amenity":"waste_disposal"}},"type":"Feature"},
	{"geometry":{"coordinates":[8.511174,49.537166],"type":"Point"},"properties":{"osm_id":"5135264384","tag":{"amenity":"waste_basket"}},"type":"Feature"},
	{"geometry":{"coordinates":[8.511244,49.537257],"type":"Point"},"properties":{"osm_id":"5135264385","tag":{"amenity":"waste_basket"}},"type":"Feature"},
	{"geometry":{"coordinates":[8.513994,49.53717],"type":"Point"},"properties":{"osm_id":"5150101596","tag":{"amenity":"waste_basket"}},"type":"Feature"},
	{"geometry":{"coordinates":[8.518328,49.5361],"type":"Point"},"properties":{"osm_id":"5157559169","tag":{"amenity":"waste_basket"}},"type":"Feature"},
	{"geometry":{"coordinates":[8.520736,49.538116],"type":"Point"},"properties":{"osm_id":"5157559170","tag":{"amenity":"waste_basket"}},"type":"Feature"},
	{"geometry":{"coordinates":[8.521115,49.538156],"type":"Point"},"properties":{"osm_id":"5157559171","tag":{"amenity":"waste_basket"}},"type":"Feature"},
	{"geometry":{"coordinates":[8.525328,49.503888],"type":"Point"},"properties":{"osm_id":"5248019993","tag":{"amenity":"waste_basket"}},"type":"Feature"},
	{"geometry":{"coordinates":[8.52457,49.504544],"type":"Point"},"properties":{"osm_id":"5256571049","tag":{"amenity":"waste_basket"}},"type":"Feature"},
	{"geometry":{"coordinates":[8.524278,49.504185],"type":"Point"},"properties":{"osm_id":"5256571050","tag":{"amenity":"waste_basket"}},"type":"Feature"},
	{"geometry":{"coordinates":[8.523547,49.503685],"type":"Point"},"properties":{"osm_id":"5256571053","tag":{"amenity":"waste_basket"}},"type":"Feature"},
	{"geometry":{"coordinates":[8.494226,49.505182],"type":"Point"},"properties":{"osm_id":"5293292772","tag":{"amenity":"recycling","recycling:glass_bottles":"yes","recycling_type":"container"}},"type":"Feature"},
	{"geometry":{"coordinates":[8.481281,49.531362],"type":"Point"},"properties":{"osm_id":"5322624442","tag":{"amenity":"waste_basket"}},"type":"Feature"},
	{"geometry":{"coordinates":[8.487016,49.534126],"type":"Point"},"properties":{"osm_id":"5498706641","tag":{"amenity":"waste_disposal"}},"type":"Feature"},
	{"geometry":{"coordinates":[8.487011,49.534115],"type":"Point"},"properties":{"osm_id":"5498706642","tag":{"amenity":"waste_disposal"}},"type":"Feature"},
	{"geometry":{"coordinates":[8.487008,49.534104],"type":"Point"},"properties":{"osm_id":"5498706643","tag":{"amenity":"waste_disposal"}},"type":"Feature"},
	{"geometry":{"coordinates":[8.493063,49.534229],"type":"Point"},"properties":{"osm_id":"5498721277","tag":{"amenity":"waste_disposal"}},"type":"Feature"},
	{"geometry":{"coordinates":[8.493082,49.534224],"type":"Point"},"properties":{"osm_id":"5498721278","tag":{"amenity":"waste_disposal"}},"type":"Feature"},
	{"geometry":{"coordinates":[8.493112,49.534215],"type":"Point"},"properties":{"osm_id":"5498721279","tag":{"amenity":"waste_disposal"}},"type":"Feature"},
	{"geometry":{"coordinates":[8.479514,49.548494],"type":"Point"},"properties":{"osm_id":"5550953606","tag":{"amenity":"recycling","recycling:clothes":"yes","recycling:glass_bottles":"yes","recycling:shoes":"yes","recycling_type":"container"}},"type":"Feature"},
	{"geometry":{"coordinates":[8.476392,49.548383],"type":"Point"},"properties":{"osm_id":"5551023903","tag":{"amenity":"waste_basket","waste":"trash"}},"type":"Feature"},
	{"geometry":{"coordinates":[8.48773,49.504241],"type":"Point"},"properties":{"osm_id":"5628835195","tag":{"amenity":"recycling","recycling_type":"container"}},"type":"Feature"},
	{"geometry":{"coordinates":[8.488515,49.504654],"type":"Point"},"properties":{"osm_id":"5628835196","tag":{"amenity":"recycling","recycling_type":"container"}},"type":"Feature"},
	{"geometry":{"coordinates":[8.488724,49.504732],"type":"Point"},"properties":{"osm_id":"5628835197","tag":{"amenity":"recycling","recycling_type":"container"}},"type":"Feature"},
	{"geometry":{"coordinates":[8.489264,49.505054],"type":"Point"},"properties":{"osm_id":"5628835198","tag":{"amenity":"recycling","recycling_type":"container"}},"type":"Feature"},
	{"geometry":{"coordinates":[8.466188,49.541676],"type":"Point"},"properties":{"name":"Deutsches Rotes Kreuz","osm_id":"5651535388","tag":{"amenity":"recycling","recycling:clothes":"yes","recycling_type":"container"}},"type":"Feature"},
	{"geometry":{"coordinates":[8.475458,49.542527],"type":"Point"},"properties":{"osm_id":"5708259555","tag":{"amenity":"recycling","recycling:clothes":"yes","recycling_type":"container"}},"type":"Feature"},
	{"geometry":{"coordinates":[8.519319,49.515953],"type":"Point"},"properties":{"osm_id":"5826427731","tag":{"amenity":"waste_basket"}},"type":"Feature"},
	{"geometry":{"coordinates":[8.498023,49.505495],"type":"Point"},"properties":{"osm_id":"5922365994","tag":{"amenity":"waste_basket"}},"type":"Feature"},
	{"geometry":{"coordinates":[8.49768,49.505434],"type":"Point"},"properties":{"osm_id":"5922365995","tag":{"amenity":"waste_basket"}},"type":"Feature"},
	{"geometry":{"coordinates":[8.477782,49.547961],"type":"Point"},"properties":{"osm_id":"5932616903","tag":{"amenity":"recycling","recycling:glass_bottles":"yes","recycling_type":"container"}},"type":"Feature"},
	{"geometry":{"coordinates":[8.463507,49.49939],"type":"Point"},"properties":{"osm_id":"6024731284","tag":{"amenity":"waste_basket","waste":"trash"}},"type":"Feature"},
	{"geometry":{"coordinates":[8.463717,49.499521],"type":"Point"},"properties":{"osm_id":"6024733685","tag":{"amenity":"waste_basket","waste":"trash"}},"type":"Feature"},
	{"geometry":{"coordinates":[8.463882,49.499434],"type":"Point"},"properties":{"osm_id":"6024733686","tag":{"amenity":"waste_basket","waste":"trash"}},"type":"Feature"},
	{"geometry":{"coordinates":[8.516456,49.508521],"type":"Point"},"properties":{"osm_id":"6269362864","tag":{"amenity":"recycling","recycling:glass_bottles":"yes","recycling_type":"container"}},"type":"Feature"},
	{"geometry":{"coordinates":[8.506588,49.553452],"type":"Point"},"properties":{"osm_id":"6403537827","tag":{"amenity":"waste_basket","colour":"green"}},"type":"Feature"},
	{"geometry":{"coordinates":[8.476542,49.509428],"type":"Point"},"properties":{"name":"Altglascontainer","osm_id":"6539056716","tag":{"amenity":"recycling"}},"type":"Feature"},
	{"geometry":{"coordinates":[8.481078,49.532708],"type":"Point"},"properties":{"osm_id":"6793559835","tag":{"amenity":"waste_basket"}},"type":"Feature"},
	{"geometry":{"coordinates":[8.499685,49.52482],"type":"Point"},"properties":{"osm_id":"6935958213","tag":{"amenity":"recycling","recycling:glass_bottles":"yes","recycling_type":"container"}},"type":"Feature"},
	{"geometry":{"coordinates":[8.457503,49.547735],"type":"Point"},"properties":{"osm_id":"7272262841","tag":{"amenity":"recycling","operator":"Altkleidercontainer - DGW","recycling:clothes":"yes","recycling:shoes":"yes","recycling_type":"container"}},"type":"Feature"},
	{"geometry":{"coordinates":[8.48857,49.5249],"type":"Point"},"properties":{"osm_id":"7278059896","tag":{"amenity":"recycling","recycling:glass_bottles":"yes","recycling_type":"container"}},"type":"Feature"},
	{"geometry":{"coordinates":[8.466216,49.504184],"type":"Point"},"properties":{"osm_id":"7840025670","tag":{"amenity":"waste_basket","colour":"grey","material":"metal","operator":"Stadt Mannheim","waste":"trash;mixed"}},"type":"Feature"},
	{"geometry":{"coordinates":[8.467447,49.503811],"type":"Point"},"properties":{"osm_id":"7840054091","tag":{"amenity":"waste_basket","colour":"grey","material":"metal","operator":"Stadt Mannheim","vending":"excrement_bags","waste":"trash;dog_excrement;mixed"}},"type":"Feature"},
	{"geometry":{"coordinates":[8.463426,49.503575],"type":"Point"},"properties":{"osm_id":"7840081391","tag":{"amenity":"waste_basket","colour":"grey","material":"metal","operator":"Stadt Mannheim","vending":"excrement_bags","waste":"trash;dog_excrement;mixed"}},"type":"Feature"},
	{"geometry":{"coordinates":[8.485343,49.524856],"type":"Point"},"properties":{"osm_id":"7922834238","tag":{"amenity":"recycling","recycling:glass_bottles":"yes","recycling_type":"container"}},"type":"Feature"},
	{"geometry":{"coordinates":[8.49691,49.529965],"type":"Point"},"properties":{"osm_id":"7922843985","tag":{"amenity":"recycling","recycling_type":"container"}},"type":"Feature"}
]
}
