{
"type": "FeatureCollection",
"features": [
	{"geometry":{"coordinates":[8.505241,49.437076],"type":"Point"},"properties":{"osm_id":"410143284","tag":{"amenity":"waste_basket"}},"type":"Feature"},
	{"geometry":{"coordinates":[8.485661,49.430478],"type":"Point"},"properties":{"osm_id":"410143731","tag":{"amenity":"waste_basket"}},"type":"Feature"},
	{"geometry":{"coordinates":[8.438176,49.396988],"type":"Point"},"properties":{"osm_id":"1174746234","tag":{"amenity":"recycling","recycling:glass":"yes"}},"type":"Feature"},
	{"geometry":{"coordinates":[8.505848,49.436205],"type":"Point"},"properties":{"osm_id":"1618149700","tag":{"amenity":"waste_basket"}},"type":"Feature"},
	{"geometry":{"coordinates":[8.525157,49.436502],"type":"Point"},"properties":{"osm_id":"1759637030","tag":{"amenity":"recycling"}},"type":"Feature"},
	{"geometry":{"coordinates":[8.524925,49.432795],"type":"Point"},"properties":{"osm_id":"1759691404","tag":{"amenity":"recycling","recycling:clothes":"yes"}},"type":"Feature"},
	{"geometry":{"coordinates":[8.525363,49.438105],"type":"Point"},"properties":{"osm_id":"1775816290","tag":{"amenity":"recycling","mapillary":"CnzVNcLmeDL0ppi7B51AQA","recycling:clothes":"yes","recycling_type":"container","survey:date":"2018-08-08"}},"type":"Feature"},
	{"geometry":{"coordinates":[8.52432,49.43841],"type":"Point"},"properties":{"osm_id":"1775816310","tag":{"amenity":"recycling","location":"overground","recycling:glass":"yes","recycling_type":"container"}},"type":"Feature"},
	{"geometry":{"coordinates":[8.524541,49.432715],"type":"Point"},"properties":{"osm_id":"1856908973","tag":{"amenity":"recycling","recycling:clothes":"yes","recycling:glass":"yes"}},"type":"Feature"},
	{"geometry":{"coordinates":[8.501972,49.390178],"type":"Point"},"properties":{"osm_id":"4159456816","tag":{"amenity":"waste_basket"}},"type":"Feature"},
	{"geometry":{"coordinates":[8.51625,49.390534],"type":"Point"},"properties":{"osm_id":"4159456819","tag":{"amenity":"waste_basket"}},"type":"Feature"},
	{"geometry":{"coordinates":[8.501455,49.392042],"type":"Point"},"properties":{"osm_id":"4159456822","tag":{"amenity":"waste_basket"}},"type":"Feature"},
	{"geometry":{"coordinates":[8.501389,49.39222],"type":"Point"},"properties":{"osm_id":"4159456823","tag":{"amenity":"waste_basket"}},"type":"Feature"},
	{"geometry":{"coordinates":[8.511012,49.40473],"type":"Point"},"properties":{"osm_id":"4159456852","tag":{"amenity":"waste_basket"}},"type":"Feature"},
	{"geometry":{"coordinates":[8.505782,49.406024],"type":"Point"},"properties":{"osm_id":"4159456863","tag":{"amenity":"waste_basket"}},"type":"Feature"},
	{"geometry":{"coordinates":[8.503389,49.429656],"type":"Point"},"properties":{"osm_id":"4408240080","tag":{"amenity":"waste_basket"}},"type":"Feature"},
	{"geometry":{"coordinates":[8.439461,49.402684],"type":"Point"},"properties":{"osm_id":"4462932577","tag":{"amenity":"recycling","recycling_type":"centre"}},"type":"Feature"},
	{"geometry":{"coordinates":[8.520106,49.412531],"type":"Point"},"properties":{"osm_id":"7830300346","tag":{"amenity":"waste_basket","waste":"dog_excrement"}},"type":"Feature"}
]
}
