{
"type": "FeatureCollection",
"features": [
	{"geometry":{"coordinates":[8.473632,49.282325],"type":"Point"},"properties":{"osm_id":"363374065","tag":{"amenity":"recycling","opening_hours":"Mo-Sa 07:00-20:00; Su,PH off","opening_hours:note":"Einwurf nur werktags von 7-20 Uhr erlaubt","operator":"D\u00c3\u00a4sa Wiederverwertungs GmbH","recycling:batteries":"no","recycling:cans":"no","recycling:clothes":"yes","recycling:glass":"no","recycling:paper":"no","recycling:scrap_metal":"no","recycling:shoes":"yes","recycling_type":"container"}},"type":"Feature"},
	{"geometry":{"coordinates":[8.504016,49.296033],"type":"Point"},"properties":{"osm_id":"448222030","tag":{"amenity":"recycling","recycling:clothes":"yes","recycling:shoes":"yes","recycling_type":"container"}},"type":"Feature"},
	{"geometry":{"coordinates":[8.473399,49.27802],"type":"Point"},"properties":{"osm_id":"535895769","tag":{"amenity":"recycling","old_operator":"SITA Deutschland GmbH","opening_hours":"Mo-Sa 08:00-19:00;Su,PH off","opening_hours:note":"Einwurf nur werktags von 8-19 Uhr erlaubt","operator":"Suez S\u00c3\u00bcd GmbH","recycling:glass_bottles":"yes","recycling:glass_bottles:colour":"white;green;brown","recycling:others":"no","recycling_type":"container"}},"type":"Feature"},
	{"geometry":{"coordinates":[8.47301,49.274848],"type":"Point"},"properties":{"osm_id":"1077174133","tag":{"amenity":"waste_basket","waste":"trash"}},"type":"Feature"},
	{"geometry":{"coordinates":[8.472286,49.27514],"type":"Point"},"properties":{"osm_id":"1082236398","tag":{"amenity":"recycling","operator":"Weizenh\u00c3\u00b6fer","recycling:clothes":"yes","recycling:others":"no","recycling:shoes":"yes","recycling_type":"container"}},"type":"Feature"},
	{"geometry":{"coordinates":[8.46492,49.277654],"type":"Point"},"properties":{"osm_id":"1092784029","tag":{"amenity":"recycling","operator":"D\u00c3\u00a4sa Wiederverwertungs GmbH","recycling:batteries":"no","recycling:clothes":"no","recycling:glass_bottles":"yes","recycling:paper":"no","recycling:scrap_metal":"no","recycling:shoes":"yes","recycling_type":"container"}},"type":"Feature"},
	{"geometry":{"coordinates":[8.466211,49.279476],"type":"Point"},"properties":{"osm_id":"1106186461","tag":{"amenity":"waste_basket"}},"type":"Feature"},
	{"geometry":{"coordinates":[8.468794,49.280952],"type":"Point"},"properties":{"osm_id":"1106186462","tag":{"amenity":"waste_basket","waste":"trash"}},"type":"Feature"},
	{"geometry":{"coordinates":[8.476565,49.275856],"type":"Point"},"properties":{"osm_id":"1254949858","tag":{"amenity":"waste_basket","operator":"Gemeinde Oberhausen-Rheinhausen","waste":"trash"}},"type":"Feature"},
	{"geometry":{"coordinates":[8.476059,49.279099],"type":"Point"},"properties":{"osm_id":"1263514739","tag":{"amenity":"recycling","check_date":"2018-06","old_operator":"Alba","operator":"Suez S\u00c3\u00bcd GmbH","recycling:glass_bottles":"yes","recycling:glass_bottles:colour":"white;green;brown","recycling:others":"no","recycling_type":"container","start_date":"2011-03"}},"type":"Feature"},
	{"geometry":{"coordinates":[8.479048,49.278377],"type":"Point"},"properties":{"osm_id":"1333988776","tag":{"amenity":"waste_basket","operator":"Gemeinde Oberhausen-Rheinhausen","waste":"trash"}},"type":"Feature"},
	{"geometry":{"coordinates":[8.476534,49.275084],"type":"Point"},"properties":{"osm_id":"1438743286","tag":{"amenity":"waste_basket","operator":"Gemeinde Oberhausen-Rheinhausen","waste":"trash"}},"type":"Feature"},
	{"geometry":{"coordinates":[8.491029,49.295987],"type":"Point"},"properties":{"osm_id":"1439337354","tag":{"amenity":"waste_basket"}},"type":"Feature"},
	{"geometry":{"coordinates":[8.476943,49.275869],"type":"Point"},"properties":{"osm_id":"1447464006","tag":{"amenity":"waste_basket","operator":"Gemeinde Oberhausen-Rheinhausen","waste":"trash"}},"type":"Feature"},
	{"geometry":{"coordinates":[8.47367,49.268848],"type":"Point"},"properties":{"barrier":"gate","osm_id":"1450949672","tag":{"access":"permissive"}},"type":"Feature"},
	{"geometry":{"coordinates":[8.473939,49.269038],"type":"Point"},"properties":{"barrier":"gate","osm_id":"1450949694","tag":{"access":"permissive"}},"type":"Feature"},
	{"geometry":{"coordinates":[8.468544,49.280935],"type":"Point"},"properties":{"osm_id":"1627274614","tag":{"amenity":"recycling","operator":"Allgemeiner Rettungsverband Rhein-Neckar e. V.","operator:type":"charity","recycling:clothes":"yes","recycling:others":"no","recycling:shoes":"unknown","recycling_type":"container"}},"type":"Feature"},
	{"geometry":{"coordinates":[8.491006,49.294178],"type":"Point"},"properties":{"osm_id":"1660758140","tag":{"amenity":"waste_basket"}},"type":"Feature"},
	{"geometry":{"coordinates":[8.467234,49.28166],"type":"Point"},"properties":{"osm_id":"1935323865","tag":{"amenity":"waste_basket","waste":"trash"}},"type":"Feature"},
	{"geometry":{"coordinates":[8.45864,49.277408],"type":"Point"},"properties":{"osm_id":"1945693398","tag":{"amenity":"waste_basket"}},"type":"Feature"},
	{"geometry":{"coordinates":[8.450274,49.317052],"type":"Point"},"properties":{"osm_id":"2232623155","tag":{"amenity":"waste_basket"}},"type":"Feature"},
	{"geometry":{"coordinates":[8.450396,49.31712],"type":"Point"},"properties":{"osm_id":"2232623197","tag":{"amenity":"waste_basket"}},"type":"Feature"},
	{"geometry":{"coordinates":[8.450137,49.317247],"type":"Point"},"properties":{"osm_id":"2232623228","tag":{"amenity":"waste_basket"}},"type":"Feature"},
	{"geometry":{"coordinates":[8.476933,49.275092],"type":"Point"},"properties":{"osm_id":"2325875526","tag":{"amenity":"waste_basket","operator":"Gemeinde Oberhausen-Rheinhausen","waste":"trash"}},"type":"Feature"},
	{"geometry":{"coordinates":[8.476278,49.269641],"type":"Point"},"properties":{"osm_id":"2516431623","tag":{"amenity":"waste_disposal"}},"type":"Feature"},
	{"geometry":{"coordinates":[8.474796,49.279908],"type":"Point"},"properties":{"osm_id":"2617532409","tag":{"amenity":"waste_basket","colour":"#554e4a","operator":"Gemeinde Oberhausen-Rheinhausen","waste":"trash"}},"type":"Feature"},
	{"geometry":{"coordinates":[8.473253,49.281399],"type":"Point"},"properties":{"osm_id":"2661401446","tag":{"amenity":"waste_basket","waste":"trash"}},"type":"Feature"},
	{"geometry":{"coordinates":[8.4678,49.28206],"type":"Point"},"properties":{"osm_id":"2682135793","tag":{"amenity":"waste_basket","waste":"trash"}},"type":"Feature"},
	{"geometry":{"coordinates":[8.471199,49.281698],"type":"Point"},"properties":{"osm_id":"2704188924","tag":{"amenity":"waste_basket","waste":"trash"}},"type":"Feature"},
	{"geometry":{"coordinates":[8.466913,49.281747],"type":"Point"},"properties":{"osm_id":"2704188928","tag":{"amenity":"waste_basket","waste":"trash"}},"type":"Feature"},
	{"geometry":{"coordinates":[8.451875,49.2715],"type":"Point"},"properties":{"osm_id":"2712420074","tag":{"amenity":"waste_basket"}},"type":"Feature"},
	{"geometry":{"coordinates":[8.477717,49.27737],"type":"Point"},"properties":{"osm_id":"2734713631","tag":{"amenity":"waste_basket","operator":"Gemeinde Oberhausen-Rheinhausen","waste":"trash"}},"type":"Feature"},
	{"geometry":{"coordinates":[8.473885,49.283694],"type":"Point"},"properties":{"osm_id":"2741634209","tag":{"amenity":"waste_basket","waste":"trash"}},"type":"Feature"},
	{"geometry":{"coordinates":[8.475405,49.283967],"type":"Point"},"properties":{"osm_id":"2741634211","tag":{"amenity":"waste_basket","waste":"trash"}},"type":"Feature"},
	{"geometry":{"coordinates":[8.47263,49.281491],"type":"Point"},"properties":{"osm_id":"2882482469","tag":{"amenity":"waste_basket"}},"type":"Feature"},
	{"geometry":{"coordinates":[8.476091,49.280225],"type":"Point"},"properties":{"osm_id":"3124448618","tag":{"amenity":"waste_basket","operator":"Gemeinde Oberhausen-Rheinhausen","waste":"trash"}},"type":"Feature"},
	{"geometry":{"coordinates":[8.476948,49.280282],"type":"Point"},"properties":{"osm_id":"3124448623","tag":{"amenity":"waste_basket","operator":"Gemeinde Oberhausen-Rheinhausen","waste":"trash"}},"type":"Feature"},
	{"geometry":{"coordinates":[8.476926,49.280604],"type":"Point"},"properties":{"osm_id":"3124448628","tag":{"amenity":"waste_basket","operator":"Gemeinde Oberhausen-Rheinhausen","waste":"trash"}},"type":"Feature"},
	{"geometry":{"coordinates":[8.473413,49.282924],"type":"Point"},"properties":{"osm_id":"3124452137","tag":{"amenity":"waste_basket","waste":"trash"}},"type":"Feature"},
	{"geometry":{"coordinates":[8.448942,49.318289],"type":"Point"},"properties":{"osm_id":"3147102527","tag":{"amenity":"waste_basket"}},"type":"Feature"},
	{"geometry":{"coordinates":[8.477131,49.269438],"type":"Point"},"properties":{"osm_id":"3161152808","tag":{"amenity":"waste_disposal"}},"type":"Feature"},
	{"geometry":{"coordinates":[8.472809,49.28149],"type":"Point"},"properties":{"osm_id":"3199896321","tag":{"amenity":"waste_basket","waste":"trash"}},"type":"Feature"},
	{"geometry":{"coordinates":[8.478399,49.277151],"type":"Point"},"properties":{"osm_id":"3234509268","tag":{"amenity":"recycling","recycling:clothes":"yes","recycling:shoes":"yes","recycling_type":"container"}},"type":"Feature"},
	{"geometry":{"coordinates":[8.47344,49.278063],"type":"Point"},"properties":{"osm_id":"3241572991","tag":{"amenity":"recycling","operator":"D\u00c3\u00a4sa Wiederverwertungs GmbH","recycling:clothes":"no","recycling:others":"no","recycling:shoes":"yes","recycling_type":"container"}},"type":"Feature"},
	{"geometry":{"coordinates":[8.476246,49.279807],"type":"Point"},"properties":{"osm_id":"3256755446","tag":{"access":"private","amenity":"waste_disposal","operator":"Tennisclub Rheinhausen e.V."}},"type":"Feature"},
	{"geometry":{"coordinates":[8.476214,49.27981],"type":"Point"},"properties":{"osm_id":"3256755447","tag":{"access":"private","amenity":"waste_disposal","operator":"Tennisclub Rheinhausen e.V."}},"type":"Feature"},
	{"geometry":{"coordinates":[8.475467,49.278029],"type":"Point"},"properties":{"osm_id":"3267388290","tag":{"amenity":"recycling","operator":"D\u00c3\u00a4sa Wiederverwertungs GmbH","recycling:batteries":"no","recycling:cans":"no","recycling:clothes":"yes","recycling:glass_bottles":"no","recycling:paper":"no","recycling:scrap_metal":"no","recycling:shoes":"yes","recycling_type":"container"}},"type":"Feature"},
	{"geometry":{"coordinates":[8.474668,49.274962],"type":"Point"},"properties":{"osm_id":"3276460225","tag":{"amenity":"recycling","check_date":"2018-04","recycling:clothes":"yes","recycling:shoes":"yes","recycling_type":"container"}},"type":"Feature"},
	{"geometry":{"coordinates":[8.473682,49.282331],"type":"Point"},"properties":{"osm_id":"3276461826","tag":{"amenity":"recycling","old_operator":"Alba","opening_hours":"Mo-Sa 07:00-19:00; Su,PH off","opening_hours:note":"Einwurf nur werktags von 7-19 Uhr erlaubt","operator":"SITA Deutschland GmbH","recycling:batteries":"no","recycling:cans":"no","recycling:clothes":"no","recycling:glass_bottles":"yes","recycling:glass_bottles:colour":"white;green;brown","recycling:paper":"no","recycling:scrap_metal":"no","recycling:shoes":"no","recycling_type":"container"}},"type":"Feature"},
	{"geometry":{"coordinates":[8.464817,49.280858],"type":"Point"},"properties":{"osm_id":"3283889912","tag":{"amenity":"waste_basket","waste":"trash"}},"type":"Feature"},
	{"geometry":{"coordinates":[8.468572,49.28094],"type":"Point"},"properties":{"osm_id":"3283889913","tag":{"amenity":"recycling","opening_hours":"Mo-Sa 07:00-19:00; Su,PH off","opening_hours:note":"Einwurf nur werktags von 7-19 Uhr erlaubt","operator":"Suez S\u00c3\u00bcd GmbH","recycling:glass_bottles":"yes","recycling:glass_bottles:colour":"white;green;brown","recycling:others":"no","recycling_type":"container"}},"type":"Feature"},
	{"geometry":{"coordinates":[8.473701,49.282954],"type":"Point"},"properties":{"osm_id":"3293300206","tag":{"amenity":"waste_basket","waste":"trash"}},"type":"Feature"},
	{"geometry":{"coordinates":[8.473299,49.283407],"type":"Point"},"properties":{"osm_id":"3293300208","tag":{"amenity":"waste_basket","waste":"trash"}},"type":"Feature"},
	{"geometry":{"coordinates":[8.473983,49.283723],"type":"Point"},"properties":{"osm_id":"3293300212","tag":{"amenity":"waste_basket","colour":"orange","material":"plastic","waste":"trash"}},"type":"Feature"},
	{"geometry":{"coordinates":[8.474426,49.283803],"type":"Point"},"properties":{"osm_id":"3293300213","tag":{"amenity":"waste_basket","waste":"trash"}},"type":"Feature"},
	{"geometry":{"coordinates":[8.480159,49.279572],"type":"Point"},"properties":{"osm_id":"3331523648","tag":{"amenity":"waste_basket","operator":"Gemeinde Oberhausen-Rheinhausen","waste":"trash"}},"type":"Feature"},
	{"geometry":{"coordinates":[8.47223,49.275138],"type":"Point"},"properties":{"osm_id":"3340226042","tag":{"amenity":"recycling","old_operator":"SITA Deutschland GmbH","operator":"Suez S\u00c3\u00bcd GmbH","recycling:glass_bottles":"yes","recycling:others":"no","recycling_type":"container"}},"type":"Feature"},
	{"geometry":{"coordinates":[8.473464,49.277905],"type":"Point"},"properties":{"osm_id":"3373661245","tag":{"amenity":"waste_basket"}},"type":"Feature"},
	{"geometry":{"coordinates":[8.473259,49.278026],"type":"Point"},"properties":{"osm_id":"3373661255","tag":{"amenity":"waste_basket","colour":"orange","waste":"trash"}},"type":"Feature"},
	{"geometry":{"coordinates":[8.476144,49.279099],"type":"Point"},"properties":{"osm_id":"3373661284","tag":{"amenity":"recycling","check_date":"2018-06","operator":"Kolping Recycling GmbH","recycling:clothes":"yes","recycling:others":"no","recycling:shoes":"yes","recycling_type":"container"}},"type":"Feature"},
	{"geometry":{"coordinates":[8.476203,49.2791],"type":"Point"},"properties":{"osm_id":"3373661285","tag":{"amenity":"recycling","check_date":"2018-06","operator":"D\u00c3\u00a4sa Wiederverwertungs GmbH","recycling:clothes":"yes","recycling:others":"no","recycling:shoes":"yes","recycling_type":"container"}},"type":"Feature"},
	{"geometry":{"coordinates":[8.464883,49.277667],"type":"Point"},"properties":{"osm_id":"3382559179","tag":{"amenity":"recycling","operator":"SITA Deutschland GmbH","recycling:batteries":"no","recycling:clothes":"no","recycling:glass_bottles":"yes","recycling:glass_bottles:colour":"white;green;brown","recycling:paper":"no","recycling:scrap_metal":"no","recycling:shoes":"no","recycling_type":"container"}},"type":"Feature"},
	{"geometry":{"coordinates":[8.464846,49.27768],"type":"Point"},"properties":{"osm_id":"3382559180","tag":{"amenity":"recycling","recycling:batteries":"no","recycling:clothes":"yes","recycling:glass":"no","recycling:paper":"no","recycling:scrap_metal":"no","recycling:shoes":"yes","recycling_type":"container"}},"type":"Feature"},
	{"geometry":{"coordinates":[8.473297,49.281675],"type":"Point"},"properties":{"osm_id":"3396927936","tag":{"amenity":"waste_basket","operator":"Gemeinde Oberhausen-Rheinhausen","operator:type":"public","waste":"trash"}},"type":"Feature"},
	{"geometry":{"coordinates":[8.508353,49.291874],"type":"Point"},"properties":{"osm_id":"3451859211","tag":{"amenity":"recycling","operator":"D\u00c3\u00a4sa","recycling:clothes":"yes","recycling_type":"container"}},"type":"Feature"},
	{"geometry":{"coordinates":[8.47338,49.277997],"type":"Point"},"properties":{"osm_id":"3635717107","tag":{"amenity":"waste_basket","colour":"orange","waste":"trash"}},"type":"Feature"},
	{"geometry":{"coordinates":[8.494212,49.306641],"type":"Point"},"properties":{"osm_id":"3802427604","tag":{"amenity":"recycling","charity":"Sehbehinderten Selbsthilfe Kurpfalz-Odenwald e. V.","operator":"D\u00c3\u00a4sa Wiederverwertungs GmbH","recycling:clothes":"yes","recycling:others":"no","recycling:shoes":"no","recycling_type":"container"}},"type":"Feature"},
	{"geometry":{"coordinates":[8.512282,49.295168],"type":"Point"},"properties":{"osm_id":"3838017914","tag":{"amenity":"waste_basket","waste":"trash"}},"type":"Feature"},
	{"geometry":{"coordinates":[8.511218,49.295861],"type":"Point"},"properties":{"osm_id":"3838017972","tag":{"amenity":"waste_basket","waste":"trash"}},"type":"Feature"},
	{"geometry":{"coordinates":[8.503328,49.292787],"type":"Point"},"properties":{"osm_id":"3855345346","tag":{"amenity":"recycling","recycling:clothes":"yes","recycling_type":"container"}},"type":"Feature"},
	{"geometry":{"coordinates":[8.46786,49.282067],"type":"Point"},"properties":{"osm_id":"4183586794","tag":{"amenity":"waste_basket"}},"type":"Feature"},
	{"geometry":{"coordinates":[8.439723,49.309972],"type":"Point"},"properties":{"name":"Altkleidersammlung","osm_id":"4473010070","tag":{"amenity":"recycling","name:de":"Altkleidersammlung","operator":"Texaid","recycling:clothes":"yes","recycling:shoes":"yes","recycling_type":"container"}},"type":"Feature"},
	{"geometry":{"coordinates":[8.441762,49.31619],"type":"Point"},"properties":{"osm_id":"4484596239","tag":{"amenity":"waste_basket"}},"type":"Feature"},
	{"geometry":{"coordinates":[8.441356,49.316243],"type":"Point"},"properties":{"osm_id":"4484596242","tag":{"amenity":"waste_basket"}},"type":"Feature"},
	{"geometry":{"coordinates":[8.440742,49.317295],"type":"Point"},"properties":{"osm_id":"4484596248","tag":{"amenity":"waste_basket"}},"type":"Feature"},
	{"geometry":{"coordinates":[8.444648,49.317691],"type":"Point"},"properties":{"osm_id":"4507420761","tag":{"amenity":"waste_basket"}},"type":"Feature"},
	{"geometry":{"coordinates":[8.474431,49.271865],"type":"Point"},"properties":{"osm_id":"4868157706","tag":{"amenity":"waste_basket","operator":"Gemeinde Oberhausen-Rheinhausen","operator:type":"public","start_date":"2017-05","waste":"trash"}},"type":"Feature"},
	{"geometry":{"coordinates":[8.449901,49.317972],"type":"Point"},"properties":{"osm_id":"4951629403","tag":{"amenity":"waste_basket"}},"type":"Feature"},
	{"geometry":{"coordinates":[8.47391,49.2836],"type":"Point"},"properties":{"osm_id":"5338890580","tag":{"amenity":"waste_basket","check_date":"2018-01","colour":"green","colour:RAL":"RAL 6018","manufacturer":"Robi AG","model":"Robidog NOVO","start_date":"2017","support":"pole","waste":"dog_excrement"}},"type":"Feature"},
	{"geometry":{"coordinates":[8.443053,49.307887],"type":"Point"},"properties":{"name":"Altkleidersammlung","osm_id":"5463973115","tag":{"addr:city":"Speyer","addr:postcode":"67346","addr:street":"Im Lenhart","amenity":"recycling","recycling:cans":"no","recycling:clothes":"yes","recycling:glass":"no","recycling:glass_bottles":"no","recycling:paper":"no","recycling:plastic":"no","recycling_type":"container","wheelchair":"limited"}},"type":"Feature"},
	{"geometry":{"coordinates":[8.518659,49.299338],"type":"Point"},"properties":{"osm_id":"5503802013","tag":{"amenity":"recycling","check_date":"2018-03","operator":"D\u00c3\u00a4sa","recycling:clothes":"yes","recycling:others":"no","recycling:shoes":"yes","recycling_type":"container"}},"type":"Feature"},
	{"geometry":{"coordinates":[8.518612,49.299315],"type":"Point"},"properties":{"osm_id":"5503802014","tag":{"amenity":"waste_basket","capacity":"30l","colour":"#383e42","manufacturer":"Krueger Systeme","model":"Dogstation M4","operator":"Gemeinde Neulu\u00c3\u009fheim","operator:type":"public","waste":"dog_excrement"}},"type":"Feature"},
	{"geometry":{"coordinates":[8.449987,49.317311],"type":"Point"},"properties":{"osm_id":"6561513092","tag":{"amenity":"waste_basket"}},"type":"Feature"},
	{"geometry":{"coordinates":[8.441148,49.321391],"type":"Point"},"properties":{"osm_id":"6799671466","tag":{"amenity":"waste_basket"}},"type":"Feature"},
	{"geometry":{"coordinates":[8.440356,49.321449],"type":"Point"},"properties":{"osm_id":"6799682667","tag":{"amenity":"waste_basket"}},"type":"Feature"},
	{"geometry":{"coordinates":[8.440568,49.321224],"type":"Point"},"properties":{"osm_id":"6799683569","tag":{"amenity":"waste_basket"}},"type":"Feature"},
	{"geometry":{"coordinates":[8.440924,49.321275],"type":"Point"},"properties":{"osm_id":"6799734414","tag":{"amenity":"waste_basket"}},"type":"Feature"},
	{"geometry":{"coordinates":[8.441313,49.321255],"type":"Point"},"properties":{"osm_id":"6799742045","tag":{"amenity":"waste_basket"}},"type":"Feature"},
	{"geometry":{"coordinates":[8.439865,49.317346],"type":"Point"},"properties":{"osm_id":"6799770551","tag":{"amenity":"waste_basket"}},"type":"Feature"},
	{"geometry":{"coordinates":[8.444166,49.315553],"type":"Point"},"properties":{"osm_id":"6944853124","tag":{"amenity":"waste_basket","waste":"trash"}},"type":"Feature"},
	{"geometry":{"coordinates":[8.441601,49.316908],"type":"Point"},"properties":{"osm_id":"7295144256","tag":{"amenity":"waste_basket","waste":"trash"}},"type":"Feature"},
	{"geometry":{"coordinates":[8.441565,49.31665],"type":"Point"},"properties":{"osm_id":"7295144265","tag":{"amenity":"waste_basket","waste":"trash"}},"type":"Feature"},
	{"geometry":{"coordinates":[8.475489,49.280633],"type":"Point"},"properties":{"osm_id":"7340220203","tag":{"amenity":"waste_basket","operator":"Gemeinde Oberhausen-Rheinhausen","start_date":"2020-03","waste":"trash"}},"type":"Feature"},
	{"geometry":{"coordinates":[8.4477,49.318352],"type":"Point"},"properties":{"osm_id":"7609990480","tag":{"amenity":"waste_basket"}},"type":"Feature"},
	{"geometry":{"coordinates":[8.449065,49.31631],"type":"Point"},"properties":{"osm_id":"7629984375","tag":{"amenity":"waste_basket"}},"type":"Feature"},
	{"geometry":{"coordinates":[8.450207,49.317451],"type":"Point"},"properties":{"osm_id":"7629984376","tag":{"amenity":"waste_basket"}},"type":"Feature"},
	{"geometry":{"coordinates":[8.475435,49.280471],"type":"Point"},"properties":{"osm_id":"7666290761","tag":{"amenity":"waste_basket","operator":"Gemeinde Oberhausen-Rheinhausen","start_date":"2020-03","waste":"trash"}},"type":"Feature"},
	{"geometry":{"coordinates":[8.47144,49.285592],"type":"Point"},"properties":{"osm_id":"7922230420","tag":{"amenity":"waste_basket","waste":"trash"}},"type":"Feature"},
	{"geometry":{"coordinates":[8.477499,49.269116],"type":"Point"},"properties":{"osm_id":"8829653106","tag":{"amenity":"waste_disposal"}},"type":"Feature"},
	{"geometry":{"coordinates":[8.474642,49.269619],"type":"Point"},"properties":{"osm_id":"8829653147","tag":{"amenity":"waste_basket","operator":"Gemeinde Oberhausen-Rheinhausen"}},"type":"Feature"},
	{"geometry":{"coordinates":[8.474824,49.269448],"type":"Point"},"properties":{"osm_id":"8829653158","tag":{"amenity":"waste_basket","operator":"Gemeinde Oberhausen-Rheinhausen"}},"type":"Feature"},
	{"geometry":{"coordinates":[8.475024,49.279951],"type":"Point"},"properties":{"osm_id":"9123152880","tag":{"amenity":"waste_basket","colour":"#554e4a","operator":"Gemeinde Oberhausen-Rheinhausen","waste":"trash"}},"type":"Feature"}
]
}
