{
"type": "FeatureCollection",
"features": [
	{"geometry":{"coordinates":[8.490752,49.253015],"type":"Point"},"properties":{"osm_id":"283357281","tag":{"amenity":"recycling"}},"type":"Feature"},
	{"geometry":{"coordinates":[8.496423,49.258415],"type":"Point"},"properties":{"osm_id":"304548534","tag":{"amenity":"recycling"}},"type":"Feature"},
	{"geometry":{"coordinates":[8.44722,49.241705],"type":"Point"},"properties":{"name":"Wertstoffhof Philippsburg","osm_id":"503908471","tag":{"addr:city":"Philippsburg","addr:country":"DE","addr:postcode":"76661","addr:street":"Garnisionsm\u00c3\u00bchle","amenity":"recycling","recycling:batteries":"yes","recycling:cans":"yes","recycling:clothes":"yes","recycling:glass":"yes","recycling:paper":"yes","recycling:scrap_metal":"yes","recycling_type":"centre"}},"type":"Feature"},
	{"geometry":{"coordinates":[8.478792,49.264965],"type":"Point"},"properties":{"osm_id":"535895814","tag":{"amenity":"recycling","operator":"Suez S\u00c3\u00bcd GmbH","recycling:glass_bottles":"yes","recycling:others":"no","recycling_type":"container"}},"type":"Feature"},
	{"geometry":{"coordinates":[8.514028,49.232726],"type":"Point"},"properties":{"osm_id":"677363642","tag":{"amenity":"recycling","recycling:glass":"yes","recycling:glass_bottles":"yes","recycling_type":"container"}},"type":"Feature"},
	{"geometry":{"coordinates":[8.503049,49.231578],"type":"Point"},"properties":{"barrier":"gate","osm_id":"1168307035"},"type":"Feature"},
	{"geometry":{"coordinates":[8.502709,49.226251],"type":"Point"},"properties":{"osm_id":"1201929842","tag":{"amenity":"recycling","opening_hours":"Mo-Sa 08:00-20:00; Su,PH off","opening_hours:note":"Einwurf nur werktags von 8-20 Uhr erlaubt","operator":"SITA Deutschland GmbH","recycling:glass_bottles":"yes","recycling_type":"container"}},"type":"Feature"},
	{"geometry":{"coordinates":[8.501196,49.258067],"type":"Point"},"properties":{"osm_id":"1239814868","tag":{"amenity":"recycling","check_date":"2019-12","recycling:clothes":"yes","recycling:shoes":"yes","recycling_type":"container"}},"type":"Feature"},
	{"geometry":{"coordinates":[8.461712,49.239438],"type":"Point"},"properties":{"osm_id":"1333368670","tag":{"amenity":"recycling","recycling:clothes":"yes","recycling:glass":"yes","recycling_type":"container"}},"type":"Feature"},
	{"geometry":{"coordinates":[8.478094,49.266162],"type":"Point"},"properties":{"osm_id":"1642924436","tag":{"amenity":"recycling","opening_hours":"Mo-Sa 07:00-20:00","opening_hours:note":"Einwurf nur werktags von 7-20 Uhr erlaubt","operator":"Texaid Deutschland GmbH","recycling:clothes":"yes","recycling:shoes":"yes","recycling_type":"container"}},"type":"Feature"},
	{"geometry":{"coordinates":[8.482439,49.258766],"type":"Point"},"properties":{"osm_id":"1685795796","tag":{"amenity":"recycling","recycling:clothes":"yes","recycling:glass_bottles":"yes","recycling:shoes":"yes","recycling_type":"container"}},"type":"Feature"},
	{"geometry":{"coordinates":[8.46732,49.231511],"type":"Point"},"properties":{"osm_id":"2601145360","tag":{"amenity":"recycling","recycling:clothes":"yes","recycling:glass":"yes","recycling_type":"container"}},"type":"Feature"},
	{"geometry":{"coordinates":[8.508481,49.248344],"type":"Point"},"properties":{"osm_id":"2634074713","tag":{"amenity":"waste_basket","operator":"DB Station&Service AG"}},"type":"Feature"},
	{"geometry":{"coordinates":[8.50831,49.248437],"type":"Point"},"properties":{"osm_id":"2634074723","tag":{"amenity":"waste_basket","operator":"DB Station&Service AG"}},"type":"Feature"},
	{"geometry":{"coordinates":[8.453346,49.237918],"type":"Point"},"properties":{"osm_id":"2647429724","tag":{"amenity":"recycling","recycling_type":"container"}},"type":"Feature"},
	{"geometry":{"coordinates":[8.523628,49.257341],"type":"Point"},"properties":{"barrier":"gate","osm_id":"2692690074"},"type":"Feature"},
	{"geometry":{"coordinates":[8.482296,49.260747],"type":"Point"},"properties":{"osm_id":"2743236852","tag":{"amenity":"waste_basket"}},"type":"Feature"},
	{"geometry":{"coordinates":[8.478496,49.250901],"type":"Point"},"properties":{"osm_id":"2923788060","tag":{"amenity":"recycling","operator":"SITA Deutschland GmbH","recycling:glass_bottles":"yes","recycling:glass_bottles:colour":"white;green;brown","recycling_type":"container"}},"type":"Feature"},
	{"geometry":{"coordinates":[8.50844,49.248104],"type":"Point"},"properties":{"osm_id":"2984679159","tag":{"amenity":"waste_basket","layer":"-1"}},"type":"Feature"},
	{"geometry":{"coordinates":[8.499236,49.249751],"type":"Point"},"properties":{"osm_id":"3147597493","tag":{"amenity":"waste_basket","colour":"orange"}},"type":"Feature"},
	{"geometry":{"coordinates":[8.508404,49.247796],"type":"Point"},"properties":{"osm_id":"3209288845","tag":{"amenity":"waste_basket","operator":"DB Station&Service AG","waste":"trash"}},"type":"Feature"},
	{"geometry":{"coordinates":[8.508432,49.247837],"type":"Point"},"properties":{"osm_id":"3209288847","tag":{"amenity":"waste_basket","operator":"DB Station&Service AG","waste":"trash"}},"type":"Feature"},
	{"geometry":{"coordinates":[8.50846,49.247878],"type":"Point"},"properties":{"osm_id":"3209288849","tag":{"amenity":"waste_basket","operator":"DB Station&Service AG","waste":"trash"}},"type":"Feature"},
	{"geometry":{"coordinates":[8.508516,49.24796],"type":"Point"},"properties":{"osm_id":"3209288852","tag":{"amenity":"waste_basket","operator":"DB Station&Service AG","waste":"trash"}},"type":"Feature"},
	{"geometry":{"coordinates":[8.502544,49.225813],"type":"Point"},"properties":{"osm_id":"3240104590","tag":{"amenity":"waste_basket","operator":"DB Station&Service AG","waste":"trash"}},"type":"Feature"},
	{"geometry":{"coordinates":[8.502625,49.226082],"type":"Point"},"properties":{"osm_id":"3240104591","tag":{"amenity":"waste_basket","operator":"DB Station&Service AG","waste":"trash"}},"type":"Feature"},
	{"geometry":{"coordinates":[8.515656,49.248312],"type":"Point"},"properties":{"osm_id":"3241572964","tag":{"amenity":"waste_basket","start_date":"2014-12-14","waste":"trash"}},"type":"Feature"},
	{"geometry":{"coordinates":[8.487263,49.260789],"type":"Point"},"properties":{"osm_id":"3242530836","tag":{"amenity":"waste_basket"}},"type":"Feature"},
	{"geometry":{"coordinates":[8.481278,49.259694],"type":"Point"},"properties":{"osm_id":"3283889846","tag":{"amenity":"waste_basket"}},"type":"Feature"},
	{"geometry":{"coordinates":[8.481627,49.259943],"type":"Point"},"properties":{"osm_id":"3283889856","tag":{"amenity":"waste_basket"}},"type":"Feature"},
	{"geometry":{"coordinates":[8.482365,49.260201],"type":"Point"},"properties":{"osm_id":"3283889859","tag":{"amenity":"waste_basket"}},"type":"Feature"},
	{"geometry":{"coordinates":[8.47762,49.266289],"type":"Point"},"properties":{"osm_id":"3283889872","tag":{"amenity":"waste_basket","operator":"Wasgau","waste":"trash"}},"type":"Feature"},
	{"geometry":{"coordinates":[8.477538,49.266432],"type":"Point"},"properties":{"osm_id":"3283889881","tag":{"amenity":"waste_basket","operator":"Wasgau","waste":"trash"}},"type":"Feature"},
	{"geometry":{"coordinates":[8.477455,49.266503],"type":"Point"},"properties":{"osm_id":"3283889883","tag":{"amenity":"waste_basket","operator":"Wasgau","waste":"trash"}},"type":"Feature"},
	{"geometry":{"coordinates":[8.480253,49.263838],"type":"Point"},"properties":{"osm_id":"3293300105","tag":{"amenity":"waste_basket","operator":"Gemeinde Oberhausen-Rheinhausen","waste":"trash"}},"type":"Feature"},
	{"geometry":{"coordinates":[8.51569,49.248663],"type":"Point"},"properties":{"osm_id":"3304799702","tag":{"amenity":"waste_basket","waste":"trash"}},"type":"Feature"},
	{"geometry":{"coordinates":[8.482588,49.261105],"type":"Point"},"properties":{"osm_id":"3304800644","tag":{"amenity":"waste_basket","colour":"blue","waste":"trash"}},"type":"Feature"},
	{"geometry":{"coordinates":[8.502315,49.225509],"type":"Point"},"properties":{"osm_id":"3312193226","tag":{"amenity":"waste_basket","operator":"DB Station&Service AG","start_date":"2018-09","waste":"trash"}},"type":"Feature"},
	{"geometry":{"coordinates":[8.478728,49.264902],"type":"Point"},"properties":{"osm_id":"3331523491","tag":{"amenity":"recycling","operator":"Kolping Recycling GmbH","recycling:clothes":"yes","recycling:shoes":"yes","recycling_type":"container"}},"type":"Feature"},
	{"geometry":{"coordinates":[8.508337,49.255624],"type":"Point"},"properties":{"osm_id":"3352956638","tag":{"amenity":"waste_basket","operator":"Stadt Wagh\u00c3\u00a4usel","waste":"trash"}},"type":"Feature"},
	{"geometry":{"coordinates":[8.480719,49.261198],"type":"Point"},"properties":{"osm_id":"3378148014","tag":{"amenity":"waste_basket","operator":"Gemeinde Oberhausen-Rheinhausen","operator:type":"public","waste":"trash"}},"type":"Feature"},
	{"geometry":{"coordinates":[8.480728,49.261242],"type":"Point"},"properties":{"osm_id":"3378148018","tag":{"amenity":"waste_basket","operator":"Gemeinde Oberhausen-Rheinhausen","operator:type":"public","waste":"trash"}},"type":"Feature"},
	{"geometry":{"coordinates":[8.479987,49.261697],"type":"Point"},"properties":{"osm_id":"3378148061","tag":{"amenity":"recycling","operator":"Bruchsaler Tafel","operator:type":"charity","recycling:batteries":"no","recycling:cans":"no","recycling:clothes":"yes","recycling:glass":"no","recycling:paper":"no","recycling:scrap_metal":"no","recycling_type":"container"}},"type":"Feature"},
	{"geometry":{"coordinates":[8.481579,49.2554],"type":"Point"},"properties":{"osm_id":"3382557621","tag":{"amenity":"waste_basket","operator":"Gemeinde Oberhausen-Rheinhausen","operator:type":"public","waste":"trash"}},"type":"Feature"},
	{"geometry":{"coordinates":[8.499145,49.2577],"type":"Point"},"properties":{"osm_id":"3406804625","tag":{"amenity":"recycling","operator":"D\u00c3\u00a4sa Wiederverwertungs GmbH","recycling:clothes":"yes","recycling:shoes":"yes","recycling_type":"container"}},"type":"Feature"},
	{"geometry":{"coordinates":[8.47494,49.267652],"type":"Point"},"properties":{"osm_id":"3406804938","tag":{"amenity":"recycling","check_date":"2018-02","recycling:batteries":"no","recycling:cans":"no","recycling:clothes":"yes","recycling:glass":"no","recycling:paper":"no","recycling:scrap_metal":"no","recycling:shoes":"yes","recycling_type":"container"}},"type":"Feature"},
	{"geometry":{"coordinates":[8.494301,49.255269],"type":"Point"},"properties":{"osm_id":"3451851443","tag":{"amenity":"recycling","old_operator":"SITA Deutschland GmbH","operator":"Suez S\u00c3\u00bcd GmbH","recycling:glass_bottles":"yes","recycling_type":"container"}},"type":"Feature"},
	{"geometry":{"coordinates":[8.494361,49.255273],"type":"Point"},"properties":{"osm_id":"3451851444","tag":{"amenity":"recycling","operator":"Kolping Recycling GmbH","recycling:clothes":"yes","recycling_type":"container"}},"type":"Feature"},
	{"geometry":{"coordinates":[8.494447,49.256305],"type":"Point"},"properties":{"osm_id":"3451855917","tag":{"amenity":"waste_basket","operator":"Gemeinde Oberhausen-Rheinhausen","operator:type":"public","waste":"trash"}},"type":"Feature"},
	{"geometry":{"coordinates":[8.492629,49.255638],"type":"Point"},"properties":{"osm_id":"3508574171","tag":{"amenity":"waste_basket","operator":"Gemeinde Oberhausen-Rheinhausen","operator:type":"public"}},"type":"Feature"},
	{"geometry":{"coordinates":[8.501202,49.258111],"type":"Point"},"properties":{"osm_id":"3544959473","tag":{"amenity":"recycling","check_date":"2018-01","old_operator":"Sita","opening_hours":"Mo-Sa 08:00-19:00;Su,PH off","operator":"Suez S\u00c3\u00bcd GmbH","recycling:glass_bottles":"yes","recycling:glass_bottles:colour":"white;green;brown","recycling:others":"no","recycling_type":"container"}},"type":"Feature"},
	{"geometry":{"coordinates":[8.507884,49.255227],"type":"Point"},"properties":{"osm_id":"3594331293","tag":{"amenity":"recycling","check_date":"2018-02","operator":"Bruchsaler Tafel","operator:type":"charity","recycling:clothes":"yes","recycling:others":"no","recycling:shoes":"yes","recycling_type":"container"}},"type":"Feature"},
	{"geometry":{"coordinates":[8.507858,49.255232],"type":"Point"},"properties":{"osm_id":"3594331294","tag":{"amenity":"recycling","check_date":"2018-02","operator":"Kolping Recycling GmbH","recycling:clothes":"yes","recycling:others":"no","recycling:shoes":"yes","recycling_type":"container"}},"type":"Feature"},
	{"geometry":{"coordinates":[8.492835,49.255674],"type":"Point"},"properties":{"osm_id":"3609822048","tag":{"amenity":"waste_basket","colour":"orange","operator":"Gemeinde Oberhausen-Rheinhausen","operator:type":"public"}},"type":"Feature"},
	{"geometry":{"coordinates":[8.514633,49.220295],"type":"Point"},"properties":{"osm_id":"3654721454","tag":{"amenity":"recycling","recycling_type":"container"}},"type":"Feature"},
	{"geometry":{"coordinates":[8.517734,49.225289],"type":"Point"},"properties":{"osm_id":"3654781271","tag":{"amenity":"recycling","recycling:glass":"yes","recycling_type":"container"}},"type":"Feature"},
	{"geometry":{"coordinates":[8.525172,49.229692],"type":"Point"},"properties":{"osm_id":"3654781272","tag":{"amenity":"recycling","operator":"Allgemeiner Rettungsverband Rhein-Neckar e. V.","operator:type":"charity","recycling:clothes":"yes","recycling:others":"no","recycling_type":"container"}},"type":"Feature"},
	{"geometry":{"coordinates":[8.524477,49.22985],"type":"Point"},"properties":{"osm_id":"3658109080","tag":{"amenity":"waste_basket"}},"type":"Feature"},
	{"geometry":{"coordinates":[8.478579,49.250876],"type":"Point"},"properties":{"osm_id":"3761769798","tag":{"amenity":"recycling","recycling:clothes":"yes","recycling:shoes":"yes","recycling_type":"container"}},"type":"Feature"},
	{"geometry":{"coordinates":[8.478563,49.250882],"type":"Point"},"properties":{"osm_id":"3761769799","tag":{"amenity":"recycling","recycling:clothes":"yes","recycling:shoes":"yes","recycling_type":"container"}},"type":"Feature"},
	{"geometry":{"coordinates":[8.450043,49.234019],"type":"Point"},"properties":{"osm_id":"3782589760","tag":{"amenity":"waste_basket"}},"type":"Feature"},
	{"geometry":{"coordinates":[8.451758,49.233138],"type":"Point"},"properties":{"osm_id":"3782589762","tag":{"amenity":"waste_basket"}},"type":"Feature"},
	{"geometry":{"coordinates":[8.502291,49.246805],"type":"Point"},"properties":{"osm_id":"4366097824","tag":{"amenity":"recycling","recycling:clothes":"yes","recycling:shoes":"yes","recycling_type":"container"}},"type":"Feature"},
	{"geometry":{"coordinates":[8.483787,49.261006],"type":"Point"},"properties":{"osm_id":"4394511663","tag":{"amenity":"recycling","recycling:glass_bottles":"yes","recycling_type":"container"}},"type":"Feature"},
	{"geometry":{"coordinates":[8.491351,49.261731],"type":"Point"},"properties":{"osm_id":"4394511688","tag":{"amenity":"recycling","check_date":"2018-01","recycling:clothes":"yes","recycling_type":"container"}},"type":"Feature"},
	{"geometry":{"coordinates":[8.491393,49.261741],"type":"Point"},"properties":{"osm_id":"4394511989","tag":{"amenity":"recycling","check_date":"2018-01","recycling:glass_bottles":"yes","recycling:glass_bottles:colour":"white;green","recycling:others":"no","recycling_type":"container"}},"type":"Feature"},
	{"geometry":{"coordinates":[8.511459,49.252242],"type":"Point"},"properties":{"osm_id":"4460798144","tag":{"amenity":"waste_basket","operator":"Stadt Wagh\u00c3\u00a4usel","operator:type":"public","waste":"trash"}},"type":"Feature"},
	{"geometry":{"coordinates":[8.454041,49.237594],"type":"Point"},"properties":{"osm_id":"4461209918","tag":{"amenity":"waste_basket"}},"type":"Feature"},
	{"geometry":{"coordinates":[8.453911,49.237621],"type":"Point"},"properties":{"osm_id":"4461209924","tag":{"amenity":"waste_basket"}},"type":"Feature"},
	{"geometry":{"coordinates":[8.508957,49.254265],"type":"Point"},"properties":{"osm_id":"4717279056","tag":{"amenity":"waste_basket","ash_tray":"no","manufacturer":"Beck GmbH & Co. KG","model":"CITYrund Serie A7F","operator":"Stadt Wagh\u00c3\u00a4usel","operator:type":"public","waste":"trash"}},"type":"Feature"},
	{"geometry":{"coordinates":[8.511577,49.228045],"type":"Point"},"properties":{"osm_id":"4729806010","tag":{"amenity":"recycling","opening_hours":"Mo-Sa 07:00-19:00; Su,PH off","recycling:glass_bottles":"yes","recycling:others":"no","recycling_type":"container"}},"type":"Feature"},
	{"geometry":{"coordinates":[8.508861,49.25355],"type":"Point"},"properties":{"osm_id":"4797184492","tag":{"amenity":"waste_basket","ash_tray":"no","manufacturer":"Beck GmbH & Co. KG","model":"CITYrund Serie A7F","operator":"Stadt Wagh\u00c3\u00a4usel","operator:type":"public","waste":"trash"}},"type":"Feature"},
	{"geometry":{"coordinates":[8.5082,49.252853],"type":"Point"},"properties":{"osm_id":"4797184502","tag":{"amenity":"waste_basket","ash_tray":"no","manufacturer":"Beck GmbH & Co. KG","model":"CITYrund Serie A7F","operator":"Stadt Wagh\u00c3\u00a4usel","operator:type":"public","waste":"trash"}},"type":"Feature"},
	{"geometry":{"coordinates":[8.509181,49.253209],"type":"Point"},"properties":{"osm_id":"4797184925","tag":{"amenity":"waste_basket","ash_tray":"no","manufacturer":"Beck GmbH & Co. KG","model":"CITYrund Serie A7F","operator":"Stadt Wagh\u00c3\u00a4usel","operator:type":"public","waste":"trash"}},"type":"Feature"},
	{"geometry":{"coordinates":[8.509794,49.252638],"type":"Point"},"properties":{"osm_id":"4797184927","tag":{"amenity":"waste_basket","ash_tray":"no","manufacturer":"Beck GmbH & Co. KG","model":"CITYrund Serie A7F","operator":"Stadt Wagh\u00c3\u00a4usel","operator:type":"public","waste":"trash"}},"type":"Feature"},
	{"geometry":{"coordinates":[8.509708,49.252299],"type":"Point"},"properties":{"osm_id":"4811579194","tag":{"amenity":"waste_basket","ash_tray":"no","operator":"Stadt Wagh\u00c3\u00a4usel","operator:type":"public","waste":"trash"}},"type":"Feature"},
	{"geometry":{"coordinates":[8.509445,49.252337],"type":"Point"},"properties":{"osm_id":"4811579220","tag":{"amenity":"waste_basket","ash_tray":"no","manufacturer":"Beck GmbH & Co. KG","model":"CITYrund Serie A7F","operator":"Stadt Wagh\u00c3\u00a4usel","operator:type":"public","waste":"trash"}},"type":"Feature"},
	{"geometry":{"coordinates":[8.502304,49.247203],"type":"Point"},"properties":{"osm_id":"4812235934","tag":{"amenity":"recycling","recycling:clothes":"yes","recycling_type":"container"}},"type":"Feature"},
	{"geometry":{"coordinates":[8.525224,49.229681],"type":"Point"},"properties":{"osm_id":"4839594104","tag":{"amenity":"recycling","opening_hours":"Mo-Sa 07:00-19:00;Su,PH off","operator":"Sita","recycling:glass_bottles":"yes","recycling:glass_bottles:colour":"white;green;brown","recycling:others":"no","recycling_type":"container"}},"type":"Feature"},
	{"geometry":{"coordinates":[8.501236,49.253552],"type":"Point"},"properties":{"osm_id":"4895896191","tag":{"amenity":"waste_basket","colour":"orange"}},"type":"Feature"},
	{"geometry":{"coordinates":[8.507974,49.247944],"type":"Point"},"properties":{"osm_id":"5316662161","tag":{"amenity":"waste_basket","operator":"DB Station&Service AG","start_date":"2017"}},"type":"Feature"},
	{"geometry":{"coordinates":[8.454456,49.231302],"type":"Point"},"properties":{"osm_id":"5366446493","tag":{"amenity":"waste_basket","operator":"DB Station&Service AG","waste":"trash"}},"type":"Feature"},
	{"geometry":{"coordinates":[8.491405,49.26185],"type":"Point"},"properties":{"osm_id":"5366624479","tag":{"amenity":"waste_basket","check_date":"2018-01","colour":"green","colour:RAL":"RAL 6018","manufacturer":"Robi AG","model":"Robidog NOVO","start_date":"2017","support":"pole","waste":"dog_excrement"}},"type":"Feature"},
	{"geometry":{"coordinates":[8.463437,49.231332],"type":"Point"},"properties":{"osm_id":"5366892958","tag":{"amenity":"recycling","operator":"Suez S\u00c3\u00bcd GmbH","recycling:glass_bottles":"yes","recycling_type":"container"}},"type":"Feature"},
	{"geometry":{"coordinates":[8.48107,49.249606],"type":"Point"},"properties":{"osm_id":"5368582435","tag":{"amenity":"waste_basket","waste":"trash"}},"type":"Feature"},
	{"geometry":{"coordinates":[8.456031,49.245017],"type":"Point"},"properties":{"osm_id":"5404383863","tag":{"amenity":"recycling","check_date":"2018-01","recycling:clothes":"yes","recycling:others":"no","recycling:shoes":"unknown","recycling_type":"container"}},"type":"Feature"},
	{"geometry":{"coordinates":[8.456093,49.245036],"type":"Point"},"properties":{"osm_id":"5404383864","tag":{"amenity":"recycling","check_date":"2018-01","recycling:glass_bottles":"yes","recycling:others":"no","recycling_type":"container"}},"type":"Feature"},
	{"geometry":{"coordinates":[8.453284,49.232048],"type":"Point"},"properties":{"osm_id":"5522065530","tag":{"amenity":"waste_basket","operator":"DB Station&Service AG","waste":"trash"}},"type":"Feature"},
	{"geometry":{"coordinates":[8.45424,49.231411],"type":"Point"},"properties":{"osm_id":"5522065534","tag":{"amenity":"waste_basket","operator":"DB Station&Service AG","waste":"trash"}},"type":"Feature"},
	{"geometry":{"coordinates":[8.508131,49.247872],"type":"Point"},"properties":{"osm_id":"5842327378","tag":{"amenity":"waste_basket","operator":"DB Station&Service AG","start_date":"2018-06","waste":"trash"}},"type":"Feature"},
	{"geometry":{"coordinates":[8.508151,49.247898],"type":"Point"},"properties":{"osm_id":"5842327381","tag":{"amenity":"waste_basket","operator":"DB Station&Service AG","start_date":"2018-06","waste":"trash"}},"type":"Feature"},
	{"geometry":{"coordinates":[8.460197,49.23489],"type":"Point"},"properties":{"osm_id":"5859322196","tag":{"amenity":"waste_basket","waste":"trash"}},"type":"Feature"},
	{"geometry":{"coordinates":[8.460559,49.2348],"type":"Point"},"properties":{"osm_id":"5859322207","tag":{"amenity":"waste_basket","waste":"trash"}},"type":"Feature"},
	{"geometry":{"coordinates":[8.50241,49.225119],"type":"Point"},"properties":{"osm_id":"5875512783","tag":{"amenity":"waste_basket","operator":"DB Station&Service AG","waste":"trash"}},"type":"Feature"},
	{"geometry":{"coordinates":[8.508441,49.248356],"type":"Point"},"properties":{"osm_id":"5903906004","tag":{"amenity":"waste_basket","operator":"DB Station&Service AG"}},"type":"Feature"},
	{"geometry":{"coordinates":[8.508617,49.250678],"type":"Point"},"properties":{"osm_id":"5924230251","tag":{"amenity":"waste_basket","ash_tray":"no","manufacturer":"Beck GmbH & Co. KG","model":"CITYrund Serie A7F","operator":"Stadt Wagh\u00c3\u00a4usel","operator:type":"public","waste":"trash"}},"type":"Feature"},
	{"geometry":{"coordinates":[8.506801,49.249667],"type":"Point"},"properties":{"osm_id":"6002867250","tag":{"amenity":"waste_basket","operator":"Stadt Wagh\u00c3\u00a4usel","operator:type":"public","waste":"trash"}},"type":"Feature"},
	{"geometry":{"coordinates":[8.502614,49.224712],"type":"Point"},"properties":{"osm_id":"6017440213","tag":{"amenity":"waste_basket","operator":"Stadt Wagh\u00c3\u00a4usel","operator:type":"public","waste":"dog_excrement;trash"}},"type":"Feature"},
	{"geometry":{"coordinates":[8.50792,49.247115],"type":"Point"},"properties":{"osm_id":"6032263124","tag":{"amenity":"recycling","check_date":"2018-12","recycling:clothes":"yes","recycling:others":"no","recycling:shoes":"yes","recycling_type":"container"}},"type":"Feature"},
	{"geometry":{"coordinates":[8.502369,49.225832],"type":"Point"},"properties":{"osm_id":"6168314880","tag":{"amenity":"waste_basket","operator":"DB Station&Service AG","start_date":"2018-09","waste":"trash"}},"type":"Feature"},
	{"geometry":{"coordinates":[8.496782,49.255482],"type":"Point"},"properties":{"osm_id":"6434205552","tag":{"amenity":"waste_basket","brand":"Robidog","colour":"#61993b","manufacturer":"Robi AG","model":"Robidog Novo","waste":"dog_excrement"}},"type":"Feature"},
	{"geometry":{"coordinates":[8.488143,49.267645],"type":"Point"},"properties":{"osm_id":"6606040688","tag":{"amenity":"waste_basket","brand":"Robidog","manufacturer":"Robi AG","operator":"Gemeinde Oberhausen-Rheinhausen","waste":"dog_excrement;trash"}},"type":"Feature"},
	{"geometry":{"coordinates":[8.508527,49.238859],"type":"Point"},"properties":{"osm_id":"6872751921","tag":{"amenity":"waste_basket","waste":"trash"}},"type":"Feature"}
]
}
