{
"type": "FeatureCollection",
"features": [
	{"geometry":{"coordinates":[8.489988,49.163435],"type":"Point"},"properties":{"osm_id":"33117112","tag":{"amenity":"recycling","recycling:clothes":"yes","recycling:glass":"yes","recycling_type":"container"}},"type":"Feature"},
	{"geometry":{"coordinates":[8.465296,49.195256],"type":"Point"},"properties":{"osm_id":"246829143","tag":{"amenity":"recycling","recycling:clothes":"yes","recycling:glass_bottles":"yes"}},"type":"Feature"},
	{"geometry":{"coordinates":[8.474572,49.154834],"type":"Point"},"properties":{"osm_id":"290766301","tag":{"amenity":"recycling","recycling:clothes":"yes","recycling:glass":"yes"}},"type":"Feature"},
	{"geometry":{"coordinates":[8.487111,49.16622],"type":"Point"},"properties":{"osm_id":"291428473","tag":{"amenity":"recycling","recycling:clothes":"yes","recycling:glass":"yes","recycling:shoes":"yes"}},"type":"Feature"},
	{"geometry":{"coordinates":[8.49355,49.168563],"type":"Point"},"properties":{"osm_id":"292705603","tag":{"amenity":"recycling","recycling:clothes":"no","recycling:glass":"yes"}},"type":"Feature"},
	{"geometry":{"coordinates":[8.493748,49.17477],"type":"Point"},"properties":{"osm_id":"292707898","tag":{"amenity":"recycling","recycling:clothes":"yes","recycling:glass":"yes"}},"type":"Feature"},
	{"geometry":{"coordinates":[8.493749,49.176539],"type":"Point"},"properties":{"osm_id":"292709046","tag":{"amenity":"recycling","recycling:clothes":"yes","recycling:glass_bottles":"yes","recycling_type":"container"}},"type":"Feature"},
	{"geometry":{"coordinates":[8.50588,49.17492],"type":"Point"},"properties":{"osm_id":"292720427","tag":{"amenity":"recycling","recycling:clothes":"yes","recycling:glass":"yes","recycling:shoes":"yes"}},"type":"Feature"},
	{"geometry":{"coordinates":[8.502127,49.178362],"type":"Point"},"properties":{"osm_id":"292723289","tag":{"amenity":"recycling","recycling:clothes":"yes","recycling:glass":"yes"}},"type":"Feature"},
	{"geometry":{"coordinates":[8.501231,49.171524],"type":"Point"},"properties":{"osm_id":"292729250","tag":{"amenity":"recycling","recycling:clothes":"yes","recycling:glass":"yes","recycling_type":"container"}},"type":"Feature"},
	{"geometry":{"coordinates":[8.467838,49.204614],"type":"Point"},"properties":{"osm_id":"297042801","tag":{"amenity":"recycling","recycling:clothes":"yes","recycling:glass":"yes"}},"type":"Feature"},
	{"geometry":{"coordinates":[8.490978,49.178345],"type":"Point"},"properties":{"osm_id":"312784492","tag":{"amenity":"recycling","recycling:glass":"yes"}},"type":"Feature"},
	{"geometry":{"coordinates":[8.47273,49.196661],"type":"Point"},"properties":{"osm_id":"329117136","tag":{"amenity":"recycling","recycling:glass":"yes","recycling_type":"container"}},"type":"Feature"},
	{"geometry":{"coordinates":[8.452695,49.20093],"type":"Point"},"properties":{"osm_id":"329153726","tag":{"amenity":"recycling","recycling:green_waste":"yes"}},"type":"Feature"},
	{"geometry":{"coordinates":[8.462288,49.197775],"type":"Point"},"properties":{"osm_id":"1951647002","tag":{"amenity":"recycling"}},"type":"Feature"},
	{"geometry":{"coordinates":[8.490576,49.161956],"type":"Point"},"properties":{"osm_id":"3199019713","tag":{"amenity":"waste_basket"}},"type":"Feature"},
	{"geometry":{"coordinates":[8.490625,49.162171],"type":"Point"},"properties":{"osm_id":"3228681835","tag":{"amenity":"waste_basket","waste":"trash"}},"type":"Feature"},
	{"geometry":{"coordinates":[8.490847,49.16219],"type":"Point"},"properties":{"osm_id":"3228681836","tag":{"amenity":"waste_basket","waste":"trash"}},"type":"Feature"},
	{"geometry":{"coordinates":[8.490792,49.161944],"type":"Point"},"properties":{"osm_id":"3230177986","tag":{"amenity":"waste_basket","waste":"trash"}},"type":"Feature"},
	{"geometry":{"coordinates":[8.490721,49.161534],"type":"Point"},"properties":{"osm_id":"3284051794","tag":{"amenity":"waste_basket","waste":"trash"}},"type":"Feature"},
	{"geometry":{"coordinates":[8.490507,49.161548],"type":"Point"},"properties":{"osm_id":"3284051795","tag":{"amenity":"waste_basket","waste":"trash"}},"type":"Feature"},
	{"geometry":{"coordinates":[8.471968,49.201],"type":"Point"},"properties":{"osm_id":"3686793697","tag":{"amenity":"recycling","recycling:glass":"yes","recycling_type":"container"}},"type":"Feature"},
	{"geometry":{"coordinates":[8.492188,49.174383],"type":"Point"},"properties":{"osm_id":"3782580950","tag":{"amenity":"waste_basket"}},"type":"Feature"},
	{"geometry":{"coordinates":[8.490587,49.172545],"type":"Point"},"properties":{"osm_id":"3782582278","tag":{"amenity":"waste_basket"}},"type":"Feature"},
	{"geometry":{"coordinates":[8.490613,49.172638],"type":"Point"},"properties":{"osm_id":"3782582279","tag":{"amenity":"waste_basket"}},"type":"Feature"},
	{"geometry":{"coordinates":[8.477818,49.158993],"type":"Point"},"properties":{"osm_id":"5112457044","tag":{"amenity":"recycling","recycling:clothes":"yes","recycling:glass":"yes","recycling:glass_bottles":"yes","recycling_type":"container"}},"type":"Feature"},
	{"geometry":{"coordinates":[8.490552,49.164734],"type":"Point"},"properties":{"osm_id":"5712182472","tag":{"amenity":"recycling","operator":"Suez S\u00c3\u00bcd GmbH","recycling:glass_bottles":"yes","recycling:others":"no","recycling_type":"container"}},"type":"Feature"},
	{"geometry":{"coordinates":[8.472784,49.196968],"type":"Point"},"properties":{"osm_id":"6426549162","tag":{"amenity":"waste_basket","operator":"DB Station&Service AG","waste":"trash"}},"type":"Feature"},
	{"geometry":{"coordinates":[8.49423,49.178032],"type":"Point"},"properties":{"osm_id":"6822989069","tag":{"amenity":"waste_basket","waste":"trash"}},"type":"Feature"},
	{"geometry":{"coordinates":[8.49405,49.177796],"type":"Point"},"properties":{"osm_id":"6822989084","tag":{"amenity":"waste_basket","waste":"trash"}},"type":"Feature"},
	{"geometry":{"coordinates":[8.503866,49.181532],"type":"Point"},"properties":{"osm_id":"7879695892","tag":{"natural":"tree"}},"type":"Feature"},
	{"geometry":{"coordinates":[8.503928,49.178863],"type":"Point"},"properties":{"osm_id":"7879695893","tag":{"natural":"tree"}},"type":"Feature"},
	{"geometry":{"coordinates":[8.503627,49.178521],"type":"Point"},"properties":{"osm_id":"7879695894","tag":{"natural":"tree"}},"type":"Feature"},
	{"geometry":{"coordinates":[8.504386,49.17978],"type":"Point"},"properties":{"osm_id":"7879695895","tag":{"natural":"tree"}},"type":"Feature"},
	{"geometry":{"coordinates":[8.504325,49.179491],"type":"Point"},"properties":{"osm_id":"7879695896","tag":{"natural":"tree"}},"type":"Feature"},
	{"geometry":{"coordinates":[8.50492,49.179628],"type":"Point"},"properties":{"osm_id":"7879695897","tag":{"natural":"tree"}},"type":"Feature"},
	{"geometry":{"coordinates":[8.455855,49.187453],"type":"Point"},"properties":{"osm_id":"7886797486","tag":{"amenity":"waste_basket"}},"type":"Feature"}
]
}
