{
"type": "FeatureCollection",
"features": [
	{"geometry":{"coordinates":[8.481357,49.149932],"type":"Point"},"properties":{"osm_id":"246849216","tag":{"amenity":"recycling","recycling:clothes":"yes","recycling:glass":"yes","recycling:shoes":"yes"}},"type":"Feature"},
	{"geometry":{"coordinates":[8.470805,49.096429],"type":"Point"},"properties":{"osm_id":"258889846","tag":{"amenity":"recycling","recycling:clothes":"yes","recycling:glass":"yes","recycling:shoes":"yes"}},"type":"Feature"},
	{"geometry":{"coordinates":[8.470372,49.110851],"type":"Point"},"properties":{"osm_id":"260029184","tag":{"amenity":"recycling","recycling:glass":"yes"}},"type":"Feature"},
	{"geometry":{"coordinates":[8.470842,49.109329],"type":"Point"},"properties":{"osm_id":"260029941","tag":{"amenity":"recycling","recycling:clothes":"yes"}},"type":"Feature"},
	{"geometry":{"coordinates":[8.474609,49.111664],"type":"Point"},"properties":{"osm_id":"260029944","tag":{"amenity":"recycling","recycling:glass":"yes"}},"type":"Feature"},
	{"geometry":{"coordinates":[8.482613,49.101444],"type":"Point"},"properties":{"osm_id":"260033980","tag":{"amenity":"recycling","recycling:batteries":"yes","recycling:clothes":"yes","recycling:glass_bottles":"yes","recycling:low_energy_bulbs":"yes","recycling:mobile_phones":"yes","recycling_type":"container"}},"type":"Feature"},
	{"geometry":{"coordinates":[8.480653,49.108691],"type":"Point"},"properties":{"osm_id":"260037705","tag":{"amenity":"recycling","recycling:clothes":"yes","recycling:glass":"yes","recycling:shoes":"yes"}},"type":"Feature"},
	{"geometry":{"coordinates":[8.501407,49.111285],"type":"Point"},"properties":{"osm_id":"270532251","tag":{"amenity":"recycling","recycling:clothes":"yes","recycling_type":"container"}},"type":"Feature"},
	{"geometry":{"coordinates":[8.508398,49.108794],"type":"Point"},"properties":{"osm_id":"270532649","tag":{"amenity":"recycling","recycling:clothes":"yes","recycling:shoes":"yes","recycling_type":"container"}},"type":"Feature"},
	{"geometry":{"coordinates":[8.51391,49.118449],"type":"Point"},"properties":{"osm_id":"273486524","tag":{"amenity":"recycling","operator":"Suez S\u00c3\u00bcd GmbH","recycling:glass_bottles":"yes","recycling:others":"no","recycling_type":"container"}},"type":"Feature"},
	{"geometry":{"coordinates":[8.519026,49.130414],"type":"Point"},"properties":{"osm_id":"281177433","tag":{"amenity":"recycling","operator":"Suez S\u00c3\u00bcd GmbH","recycling:glass_bottles":"yes","recycling_type":"container"}},"type":"Feature"},
	{"geometry":{"coordinates":[8.514843,49.113972],"type":"Point"},"properties":{"osm_id":"281177434","tag":{"amenity":"recycling","recycling:glass":"yes"}},"type":"Feature"},
	{"geometry":{"coordinates":[8.519718,49.125677],"type":"Point"},"properties":{"osm_id":"286398414","tag":{"amenity":"recycling","recycling:clothes":"yes","recycling_type":"container"}},"type":"Feature"},
	{"geometry":{"coordinates":[8.518429,49.121342],"type":"Point"},"properties":{"osm_id":"286398415","tag":{"amenity":"recycling","recycling:glass":"yes","recycling_type":"container"}},"type":"Feature"},
	{"geometry":{"coordinates":[8.482884,49.103646],"type":"Point"},"properties":{"osm_id":"286763582","tag":{"amenity":"recycling","location":"overground","recycling:clothes":"yes","recycling:glass":"yes","recycling_type":"container"}},"type":"Feature"},
	{"geometry":{"coordinates":[8.473216,49.112248],"type":"Point"},"properties":{"osm_id":"288397116","tag":{"amenity":"recycling","recycling:clothes":"yes","recycling:glass":"yes","recycling_type":"container"}},"type":"Feature"},
	{"geometry":{"coordinates":[8.500919,49.115924],"type":"Point"},"properties":{"osm_id":"469481156","tag":{"amenity":"recycling","recycling:clothes":"yes","recycling:glass":"yes"}},"type":"Feature"},
	{"geometry":{"coordinates":[8.510031,49.121738],"type":"Point"},"properties":{"osm_id":"469481157","tag":{"amenity":"recycling","recycling:glass":"yes"}},"type":"Feature"},
	{"geometry":{"coordinates":[8.479227,49.09996],"type":"Point"},"properties":{"osm_id":"3013181979","tag":{"amenity":"recycling","recycling:clothes":"yes","recycling_type":"container"}},"type":"Feature"},
	{"geometry":{"coordinates":[8.474141,49.100288],"type":"Point"},"properties":{"osm_id":"3240104228","tag":{"amenity":"waste_basket","waste":"trash"}},"type":"Feature"},
	{"geometry":{"coordinates":[8.474315,49.101065],"type":"Point"},"properties":{"osm_id":"3240104229","tag":{"amenity":"waste_basket","operator":"DB Station&Service AG","start_date":"2014-12-14","waste":"trash"}},"type":"Feature"},
	{"geometry":{"coordinates":[8.473954,49.100554],"type":"Point"},"properties":{"osm_id":"3291173771","tag":{"amenity":"waste_basket","operator":"DB Station&Service AG","waste":"trash"}},"type":"Feature"},
	{"geometry":{"coordinates":[8.474079,49.101041],"type":"Point"},"properties":{"osm_id":"3298559418","tag":{"amenity":"waste_basket","operator":"DB Station&Service AG","start_date":"2014-12-14","waste":"trash"}},"type":"Feature"},
	{"geometry":{"coordinates":[8.465791,49.109955],"type":"Point"},"properties":{"osm_id":"3529080284","tag":{"amenity":"waste_basket"}},"type":"Feature"},
	{"geometry":{"coordinates":[8.503973,49.11241],"type":"Point"},"properties":{"osm_id":"3578349871","tag":{"amenity":"waste_basket"}},"type":"Feature"},
	{"geometry":{"coordinates":[8.504851,49.112592],"type":"Point"},"properties":{"osm_id":"3578349884","tag":{"amenity":"waste_basket"}},"type":"Feature"},
	{"geometry":{"coordinates":[8.505165,49.112779],"type":"Point"},"properties":{"osm_id":"3578350003","tag":{"amenity":"waste_basket"}},"type":"Feature"},
	{"geometry":{"coordinates":[8.477096,49.10988],"type":"Point"},"properties":{"osm_id":"3760130861","tag":{"amenity":"recycling","recycling:glass":"yes","recycling:glass_bottles":"yes","recycling_type":"container"}},"type":"Feature"},
	{"geometry":{"coordinates":[8.477118,49.109972],"type":"Point"},"properties":{"barrier":"gate","osm_id":"3760130863"},"type":"Feature"},
	{"geometry":{"coordinates":[8.477096,49.110138],"type":"Point"},"properties":{"barrier":"gate","osm_id":"3760130867","tag":{"traffic_sign:backward":"DE:267"}},"type":"Feature"},
	{"geometry":{"coordinates":[8.45434,49.116498],"type":"Point"},"properties":{"osm_id":"4098317091","tag":{"amenity":"waste_basket"}},"type":"Feature"},
	{"geometry":{"coordinates":[8.508428,49.108829],"type":"Point"},"properties":{"osm_id":"4238198438","tag":{"amenity":"recycling","recycling:glass_bottles":"yes","recycling_type":"container"}},"type":"Feature"},
	{"geometry":{"coordinates":[8.521124,49.124168],"type":"Point"},"properties":{"osm_id":"4389500164","tag":{"amenity":"recycling","capacity":"1","lastcheck":"2016-09-07","operator":"Sehbehinderten Selbsthilfe Kurpfalz-Odenwald e.V.","recycling:clothes":"yes","recycling_type":"container"}},"type":"Feature"},
	{"geometry":{"coordinates":[8.481921,49.102445],"type":"Point"},"properties":{"osm_id":"4717466853","tag":{"amenity":"waste_basket"}},"type":"Feature"},
	{"geometry":{"coordinates":[8.481895,49.102544],"type":"Point"},"properties":{"osm_id":"4717466855","tag":{"amenity":"waste_basket"}},"type":"Feature"},
	{"geometry":{"coordinates":[8.482651,49.101976],"type":"Point"},"properties":{"osm_id":"4717466871","tag":{"amenity":"waste_basket"}},"type":"Feature"},
	{"geometry":{"coordinates":[8.482867,49.102247],"type":"Point"},"properties":{"osm_id":"4717466872","tag":{"amenity":"waste_basket"}},"type":"Feature"},
	{"geometry":{"coordinates":[8.482552,49.102365],"type":"Point"},"properties":{"osm_id":"4717466873","tag":{"amenity":"waste_basket"}},"type":"Feature"},
	{"geometry":{"coordinates":[8.481563,49.102489],"type":"Point"},"properties":{"osm_id":"4717467245","tag":{"amenity":"waste_basket"}},"type":"Feature"},
	{"geometry":{"coordinates":[8.481962,49.102151],"type":"Point"},"properties":{"osm_id":"4740722159","tag":{"amenity":"waste_basket"}},"type":"Feature"},
	{"geometry":{"coordinates":[8.482074,49.102876],"type":"Point"},"properties":{"osm_id":"4740722354","tag":{"amenity":"waste_basket"}},"type":"Feature"},
	{"geometry":{"coordinates":[8.481645,49.102694],"type":"Point"},"properties":{"osm_id":"4740722356","tag":{"amenity":"waste_basket"}},"type":"Feature"},
	{"geometry":{"coordinates":[8.481908,49.102789],"type":"Point"},"properties":{"osm_id":"4740722357","tag":{"amenity":"waste_disposal"}},"type":"Feature"},
	{"geometry":{"coordinates":[8.481372,49.102597],"type":"Point"},"properties":{"osm_id":"4740722391","tag":{"amenity":"waste_basket"}},"type":"Feature"},
	{"geometry":{"coordinates":[8.482041,49.102313],"type":"Point"},"properties":{"osm_id":"4740722429","tag":{"amenity":"waste_basket"}},"type":"Feature"},
	{"geometry":{"coordinates":[8.516033,49.09801],"type":"Point"},"properties":{"osm_id":"4922460620","tag":{"amenity":"recycling","recycling:glass_bottles":"yes","recycling:green_waste":"yes","recycling_type":"container"}},"type":"Feature"},
	{"geometry":{"coordinates":[8.483697,49.101259],"type":"Point"},"properties":{"osm_id":"5557526038","tag":{"amenity":"waste_basket"}},"type":"Feature"},
	{"geometry":{"coordinates":[8.519054,49.130472],"type":"Point"},"properties":{"osm_id":"5611129394","tag":{"amenity":"recycling","operator":"D\u00c3\u00a4sa Wiederverwertungs GmbH","recycling:clothes":"yes","recycling:others":"no","recycling:shoes":"yes","recycling_type":"container"}},"type":"Feature"},
	{"geometry":{"coordinates":[8.513931,49.118446],"type":"Point"},"properties":{"osm_id":"5679982372","tag":{"amenity":"recycling","recycling:batteries":"yes","recycling:clothes":"yes","recycling:others":"no","recycling:shoes":"unknown","recycling_type":"container"}},"type":"Feature"},
	{"geometry":{"coordinates":[8.501392,49.111304],"type":"Point"},"properties":{"osm_id":"5732508329","tag":{"amenity":"recycling","operator":"Suez S\u00c3\u00bcd GmbH","recycling:glass_bottles":"yes","recycling:others":"no","recycling_type":"container"}},"type":"Feature"},
	{"geometry":{"coordinates":[8.496066,49.116453],"type":"Point"},"properties":{"osm_id":"5908865710","tag":{"amenity":"recycling","recycling:glass_bottles":"yes","recycling_type":"container"}},"type":"Feature"},
	{"geometry":{"coordinates":[8.496173,49.116416],"type":"Point"},"properties":{"osm_id":"5908865711","tag":{"amenity":"recycling","recycling:clothes":"yes","recycling_type":"container"}},"type":"Feature"},
	{"geometry":{"coordinates":[8.49612,49.116511],"type":"Point"},"properties":{"osm_id":"5908865712","tag":{"amenity":"recycling","recycling:green_waste":"yes","recycling_type":"container"}},"type":"Feature"},
	{"geometry":{"coordinates":[8.504573,49.112937],"type":"Point"},"properties":{"osm_id":"6404655080","tag":{"amenity":"recycling","check_date":"2019-04","operator":"Suez S\u00c3\u00bcd GmbH","recycling:glass_bottles":"yes","recycling:others":"no","recycling_type":"container"}},"type":"Feature"},
	{"geometry":{"coordinates":[8.505332,49.125717],"type":"Point"},"properties":{"osm_id":"7692927746","tag":{"amenity":"waste_basket"}},"type":"Feature"},
	{"geometry":{"coordinates":[8.483345,49.106533],"type":"Point"},"properties":{"osm_id":"7796885192","tag":{"amenity":"waste_basket"}},"type":"Feature"},
	{"geometry":{"coordinates":[8.48358,49.106571],"type":"Point"},"properties":{"osm_id":"7796885193","tag":{"amenity":"waste_basket"}},"type":"Feature"}
]
}
