{
"type": "FeatureCollection",
"features": [
	{"geometry":{"coordinates":[8.447435,49.039178],"type":"Point"},"properties":{"osm_id":"25313726","tag":{"amenity":"recycling","capacity":"6400l","capacity:brown":"1600l","capacity:green":"1600l","capacity:white":"3200l","check_date":"2018-01","location":"overground","manufacturer":"SSI Sch\u00c3\u00a4fer AG","model":"System Grumbach","opening_hours":"Mo-Sa 07:00-19:00;Su,PH off","operator":"Knettenbrech + Gurdulic Rhein-Neckar GmbH","recycling:glass_bottles":"yes","recycling:glass_bottles:colour":"white;green;brown","recycling:others":"no","recycling_type":"container","start_date":"2018-01"}},"type":"Feature"},
	{"geometry":{"coordinates":[8.446802,49.04174],"type":"Point"},"properties":{"osm_id":"25313736","tag":{"amenity":"recycling","capacity":"6400l","capacity:brown":"1600l","capacity:green":"1600l","capacity:white":"3200l","check_date":"2018-06","location":"overground","manufacturer":"SSI Sch\u00c3\u00a4fer AG","model":"System Grumbach","opening_hours":"Mo-Sa 07:00-19:00;Su,PH off","operator":"Knettenbrech + Gurdulic Rhein-Neckar GmbH","recycling:glass_bottles":"yes","recycling:glass_bottles:colour":"white;green;brown","recycling:others":"no","recycling_type":"container","start_date":"2018-01"}},"type":"Feature"},
	{"geometry":{"coordinates":[8.443009,49.042108],"type":"Point"},"properties":{"osm_id":"25313743","tag":{"amenity":"recycling","capacity":"6400l","capacity:brown":"1600l","capacity:green":"1600l","capacity:white":"3200l","check_date":"2018-01","location":"overground","manufacturer":"SSI Sch\u00c3\u00a4fer AG","model":"System Grumbach","opening_hours":"Mo-Sa 07:00-19:00;Su,PH off","operator":"Knettenbrech + Gurdulic Rhein-Neckar GmbH","recycling:glass_bottles":"yes","recycling:glass_bottles:colour":"white;green;brown","recycling:others":"no","recycling_type":"container","start_date":"2018-01"}},"type":"Feature"},
	{"geometry":{"coordinates":[8.440813,49.041514],"type":"Point"},"properties":{"osm_id":"25313744","tag":{"amenity":"recycling","capacity":"3000l","check_date":"2018-06","location":"overground","manufacturer":"Kinshofer Technik","opening_hours":"24/7","operator":"Stadt Karlsruhe","operator:type":"public","recycling:clothes":"yes","recycling:others":"no","recycling:shoes":"yes","recycling_type":"container"}},"type":"Feature"},
	{"geometry":{"coordinates":[8.447967,49.046176],"type":"Point"},"properties":{"osm_id":"25313803","tag":{"amenity":"recycling","capacity":"9600l","capacity:brown":"3200l","capacity:green":"3200l","capacity:white":"3200l","check_date":"2018-01","location":"overground","manufacturer":"SSI Sch\u00c3\u00a4fer AG","model":"System Grumbach","opening_hours":"Mo-Sa 07:00-19:00;Su,PH off","operator":"Knettenbrech + Gurdulic Rhein-Neckar GmbH","recycling:glass_bottles":"yes","recycling:glass_bottles:colour":"white;green;brown","recycling:others":"no","recycling_type":"container","start_date":"2018-01"}},"type":"Feature"},
	{"geometry":{"coordinates":[8.443304,49.039922],"type":"Point"},"properties":{"osm_id":"25313983","tag":{"amenity":"recycling","check_date":"2018-01","operator":"Stadt Karlsruhe","operator:type":"public","recycling:batteries":"yes","recycling_type":"container"}},"type":"Feature"},
	{"geometry":{"coordinates":[8.438253,49.039209],"type":"Point"},"properties":{"osm_id":"25313986","tag":{"amenity":"recycling","check_date":"2018-01","operator":"Stadt Karlsruhe","operator:type":"public","recycling:batteries":"yes","recycling:others":"no","recycling_type":"container"}},"type":"Feature"},
	{"geometry":{"coordinates":[8.438925,49.037897],"type":"Point"},"properties":{"osm_id":"25313996","tag":{"amenity":"recycling","capacity":"6400l","capacity:brown":"1600l","capacity:green":"1600l","capacity:white":"3200l","check_date":"2018-01","location":"overground","manufacturer":"SSI Sch\u00c3\u00a4fer AG","model":"System Grumbach","opening_hours":"Mo-Sa 07:00-19:00;Su,PH off","operator":"Knettenbrech + Gurdulic Rhein-Neckar GmbH","recycling:glass_bottles":"yes","recycling:glass_bottles:colour":"white;green;brown","recycling:others":"no","recycling_type":"container","start_date":"2018-01"}},"type":"Feature"},
	{"geometry":{"coordinates":[8.455553,49.042538],"type":"Point"},"properties":{"osm_id":"26292076","tag":{"amenity":"recycling"}},"type":"Feature"},
	{"geometry":{"coordinates":[8.466861,49.047875],"type":"Point"},"properties":{"osm_id":"41785915","tag":{"amenity":"recycling","check_date":"2018-04","location":"overground","old_operator":"Sita","opening_hours":"Mo-Sa 08:00-18:00;Su,PH off","operator":"Suez S\u00c3\u00bcd GmbH","recycling:glass_bottles":"yes","recycling:glass_bottles:colour":"white;green;brown","recycling:others":"no","recycling_type":"container"}},"type":"Feature"},
	{"geometry":{"coordinates":[8.466963,49.050674],"type":"Point"},"properties":{"osm_id":"41785935","tag":{"amenity":"recycling","operator":"Suez S\u00c3\u00bcd GmbH","recycling:glass_bottles":"yes","recycling:others":"no","recycling_type":"container"}},"type":"Feature"},
	{"geometry":{"coordinates":[8.474468,49.066241],"type":"Point"},"properties":{"osm_id":"252305721","tag":{"amenity":"recycling","recycling:clothes":"yes","recycling:glass":"yes"}},"type":"Feature"},
	{"geometry":{"coordinates":[8.462313,49.046174],"type":"Point"},"properties":{"osm_id":"306609377","tag":{"amenity":"recycling","recycling:batteries":"no","recycling:cans":"no","recycling:clothes":"no","recycling:glass":"yes","recycling:paper":"no","recycling:scrap_metal":"no","recycling:shoes":"no","recycling_type":"container"}},"type":"Feature"},
	{"geometry":{"coordinates":[8.510239,49.064959],"type":"Point"},"properties":{"osm_id":"307793627","tag":{"amenity":"recycling","recycling:glass_bottles":"yes"}},"type":"Feature"},
	{"geometry":{"coordinates":[8.467691,49.058793],"type":"Point"},"properties":{"osm_id":"806593146","tag":{"amenity":"recycling","check_date":"2020-05-24","operator":"Suez S\u00c3\u00bcd GmbH","recycling:glass_bottles":"yes","recycling:glass_bottles:colour":"white;green;brown","recycling:others":"no","recycling_type":"container"}},"type":"Feature"},
	{"geometry":{"coordinates":[8.46897,49.073788],"type":"Point"},"properties":{"osm_id":"833338123","tag":{"amenity":"recycling","recycling:glass":"yes","recycling_type":"container"}},"type":"Feature"},
	{"geometry":{"coordinates":[8.466132,49.057778],"type":"Point"},"properties":{"osm_id":"968010951","tag":{"amenity":"recycling","location":"overground","recycling:glass":"no","recycling:glass_bottles":"yes","recycling_type":"container"}},"type":"Feature"},
	{"geometry":{"coordinates":[8.520451,49.056895],"type":"Point"},"properties":{"osm_id":"2469033407","tag":{"amenity":"waste_basket"}},"type":"Feature"},
	{"geometry":{"coordinates":[8.465419,49.067932],"type":"Point"},"properties":{"osm_id":"2819592656","tag":{"amenity":"recycling","recycling:glass_bottles":"yes","recycling_type":"container"}},"type":"Feature"},
	{"geometry":{"coordinates":[8.465375,49.067951],"type":"Point"},"properties":{"osm_id":"2819592662","tag":{"amenity":"recycling","recycling:clothes":"yes","recycling_type":"container"}},"type":"Feature"},
	{"geometry":{"coordinates":[8.518615,49.04902],"type":"Point"},"properties":{"osm_id":"2917412158","tag":{"amenity":"recycling","description":"Altglas Container","recycling:glass_bottles":"yes","recycling:others":"no","recycling_type":"container"}},"type":"Feature"},
	{"geometry":{"coordinates":[8.518476,49.049175],"type":"Point"},"properties":{"osm_id":"2917412159","tag":{"amenity":"recycling","description":"Altkleider Sammelcontainer","recycling:clothes":"yes","recycling:others":"no","recycling_type":"container"}},"type":"Feature"},
	{"geometry":{"coordinates":[8.516028,49.052766],"type":"Point"},"properties":{"osm_id":"2917412179","tag":{"amenity":"waste_basket"}},"type":"Feature"},
	{"geometry":{"coordinates":[8.481496,49.072476],"type":"Point"},"properties":{"barrier":"gate","osm_id":"3131632331"},"type":"Feature"},
	{"geometry":{"coordinates":[8.481639,49.072594],"type":"Point"},"properties":{"osm_id":"3131632333","tag":{"amenity":"recycling","recycling:glass_bottles":"yes","recycling_type":"container"}},"type":"Feature"},
	{"geometry":{"coordinates":[8.467557,49.052628],"type":"Point"},"properties":{"barrier":"gate","osm_id":"3144600600"},"type":"Feature"},
	{"geometry":{"coordinates":[8.465086,49.067435],"type":"Point"},"properties":{"osm_id":"3209366441","tag":{"amenity":"waste_basket","waste":"trash"}},"type":"Feature"},
	{"geometry":{"coordinates":[8.46468,49.066699],"type":"Point"},"properties":{"osm_id":"3219421552","tag":{"amenity":"waste_basket","waste":"trash"}},"type":"Feature"},
	{"geometry":{"coordinates":[8.464901,49.066804],"type":"Point"},"properties":{"osm_id":"3219423770","tag":{"amenity":"waste_basket","waste":"trash"}},"type":"Feature"},
	{"geometry":{"coordinates":[8.464765,49.067008],"type":"Point"},"properties":{"osm_id":"3219423776","tag":{"amenity":"waste_basket","start_date":"2014-09","waste":"trash"}},"type":"Feature"},
	{"geometry":{"coordinates":[8.464193,49.048304],"type":"Point"},"properties":{"osm_id":"3221327491","tag":{"amenity":"recycling","recycling:cans":"no","recycling:clothes":"yes","recycling:paper":"no","recycling:shoes":"yes","recycling_type":"container"}},"type":"Feature"},
	{"geometry":{"coordinates":[8.470249,49.050698],"type":"Point"},"properties":{"osm_id":"3266205779","tag":{"amenity":"waste_basket","waste":"dog_excrement"}},"type":"Feature"},
	{"geometry":{"coordinates":[8.455148,49.066418],"type":"Point"},"properties":{"osm_id":"3296950821","tag":{"amenity":"recycling","operator":"Suez S\u00c3\u00bcd GmbH","recycling:glass_bottles":"yes","recycling:others":"no","recycling_type":"container"}},"type":"Feature"},
	{"geometry":{"coordinates":[8.461097,49.048437],"type":"Point"},"properties":{"osm_id":"3346895282","tag":{"amenity":"waste_basket","waste":"dog_excrement"}},"type":"Feature"},
	{"geometry":{"coordinates":[8.466697,49.056744],"type":"Point"},"properties":{"osm_id":"3346896894","tag":{"amenity":"waste_basket","waste":"dog_excrement"}},"type":"Feature"},
	{"geometry":{"coordinates":[8.461203,49.046415],"type":"Point"},"properties":{"osm_id":"3400353681","tag":{"amenity":"recycling","recycling:batteries":"no","recycling:cans":"no","recycling:clothes":"yes","recycling:glass":"no","recycling:paper":"no","recycling:scrap_metal":"no","recycling:shoes":"yes","recycling_type":"container"}},"type":"Feature"},
	{"geometry":{"coordinates":[8.462281,49.046217],"type":"Point"},"properties":{"osm_id":"3538528485","tag":{"amenity":"recycling","recycling:batteries":"no","recycling:cans":"no","recycling:clothes":"yes","recycling:glass":"no","recycling:paper":"no","recycling:scrap_metal":"no","recycling:shoes":"yes","recycling_type":"container"}},"type":"Feature"},
	{"geometry":{"coordinates":[8.460851,49.080052],"type":"Point"},"properties":{"osm_id":"3538539995","tag":{"amenity":"recycling","capacity":"1","lastcheck":"2016-09-07","operator":"Deutsches Rotes Kreuz","recycling:clothes":"yes","recycling_type":"container"}},"type":"Feature"},
	{"geometry":{"coordinates":[8.465249,49.055145],"type":"Point"},"properties":{"osm_id":"3646123020","tag":{"amenity":"waste_basket","waste":"trash"}},"type":"Feature"},
	{"geometry":{"coordinates":[8.480525,49.080137],"type":"Point"},"properties":{"osm_id":"3667700101","tag":{"amenity":"waste_basket"}},"type":"Feature"},
	{"geometry":{"coordinates":[8.45722,49.074284],"type":"Point"},"properties":{"osm_id":"3780665886","tag":{"amenity":"recycling","recycling:clothes":"yes","recycling_type":"container"}},"type":"Feature"},
	{"geometry":{"coordinates":[8.457142,49.074326],"type":"Point"},"properties":{"osm_id":"3780665887","tag":{"amenity":"recycling","recycling:clothes":"no","recycling:shoes":"yes","recycling_type":"container"}},"type":"Feature"},
	{"geometry":{"coordinates":[8.457442,49.074755],"type":"Point"},"properties":{"osm_id":"3780665891","tag":{"amenity":"waste_basket"}},"type":"Feature"},
	{"geometry":{"coordinates":[8.469454,49.057551],"type":"Point"},"properties":{"osm_id":"3942266282","tag":{"amenity":"recycling","check_date":"2018-06","location":"overground","operator":"Remitex GmbH","operator:type":"private","recycling:clothes":"yes","recycling:others":"no","recycling:shoes":"yes","recycling_type":"container"}},"type":"Feature"},
	{"geometry":{"coordinates":[8.510231,49.071483],"type":"Point"},"properties":{"osm_id":"4256529522","tag":{"amenity":"waste_basket"}},"type":"Feature"},
	{"geometry":{"coordinates":[8.510222,49.0715],"type":"Point"},"properties":{"osm_id":"4256529525","tag":{"amenity":"waste_basket"}},"type":"Feature"},
	{"geometry":{"coordinates":[8.510498,49.071937],"type":"Point"},"properties":{"osm_id":"4256529526","tag":{"amenity":"waste_basket"}},"type":"Feature"},
	{"geometry":{"coordinates":[8.470383,49.062484],"type":"Point"},"properties":{"osm_id":"4259108197","tag":{"amenity":"waste_basket"}},"type":"Feature"},
	{"geometry":{"coordinates":[8.461211,49.046427],"type":"Point"},"properties":{"osm_id":"4295344531","tag":{"amenity":"waste_basket"}},"type":"Feature"},
	{"geometry":{"coordinates":[8.472116,49.06487],"type":"Point"},"properties":{"osm_id":"4308042437","tag":{"amenity":"waste_basket"}},"type":"Feature"},
	{"geometry":{"coordinates":[8.472036,49.064878],"type":"Point"},"properties":{"osm_id":"4308042440","tag":{"amenity":"waste_basket"}},"type":"Feature"},
	{"geometry":{"coordinates":[8.523662,49.046075],"type":"Point"},"properties":{"name":"Altglascontainer","osm_id":"4326607460","tag":{"amenity":"waste_disposal"}},"type":"Feature"},
	{"geometry":{"coordinates":[8.467696,49.046623],"type":"Point"},"properties":{"osm_id":"4359970976","tag":{"amenity":"waste_basket"}},"type":"Feature"},
	{"geometry":{"coordinates":[8.467839,49.046867],"type":"Point"},"properties":{"osm_id":"4359970988","tag":{"amenity":"waste_basket"}},"type":"Feature"},
	{"geometry":{"coordinates":[8.469716,49.048039],"type":"Point"},"properties":{"osm_id":"4362476246","tag":{"amenity":"recycling","recycling:clothes":"yes","recycling:shoes":"yes","recycling_type":"container","wheelchair":"yes"}},"type":"Feature"},
	{"geometry":{"coordinates":[8.47327,49.049179],"type":"Point"},"properties":{"osm_id":"4362476247","tag":{"amenity":"recycling","recycling:glass":"yes","recycling:glass_bottles":"no","recycling_type":"container","wheelchair":"yes"}},"type":"Feature"},
	{"geometry":{"coordinates":[8.443194,49.042154],"type":"Point"},"properties":{"osm_id":"4405402048","tag":{"amenity":"waste_basket"}},"type":"Feature"},
	{"geometry":{"coordinates":[8.459354,49.076224],"type":"Point"},"properties":{"osm_id":"4427046467","tag":{"amenity":"recycling","recycling:glass":"yes","recycling:glass_bottles":"yes","recycling_type":"container"}},"type":"Feature"},
	{"geometry":{"coordinates":[8.458096,49.045352],"type":"Point"},"properties":{"osm_id":"4718334946","tag":{"amenity":"waste_basket","operator":"Stadt Karlsruhe","waste":"trash"}},"type":"Feature"},
	{"geometry":{"coordinates":[8.517961,49.049486],"type":"Point"},"properties":{"barrier":"gate","osm_id":"4842576040"},"type":"Feature"},
	{"geometry":{"coordinates":[8.510407,49.0574],"type":"Point"},"properties":{"barrier":"gate","osm_id":"4898078382"},"type":"Feature"},
	{"geometry":{"coordinates":[8.462076,49.059903],"type":"Point"},"properties":{"osm_id":"4921127385","tag":{"amenity":"waste_basket"}},"type":"Feature"},
	{"geometry":{"coordinates":[8.447941,49.046152],"type":"Point"},"properties":{"osm_id":"5062623796","tag":{"amenity":"recycling","capacity":"3000l","check_date":"2018-01","manufacturer":"Kinshofer Technik","operator":"Stadt Karlsruhe","recycling:clothes":"yes","recycling:others":"no","recycling:shoes":"yes","recycling_type":"container"}},"type":"Feature"},
	{"geometry":{"coordinates":[8.45064,49.040815],"type":"Point"},"properties":{"osm_id":"5202591345","tag":{"amenity":"waste_basket","operator":"Verkehrsbetriebe Karlsruhe GmbH"}},"type":"Feature"},
	{"geometry":{"coordinates":[8.450162,49.039789],"type":"Point"},"properties":{"osm_id":"5202760224","tag":{"amenity":"waste_basket","operator":"Stadt Karlsruhe","waste":"trash"}},"type":"Feature"},
	{"geometry":{"coordinates":[8.450478,49.038931],"type":"Point"},"properties":{"osm_id":"5202760608","tag":{"amenity":"waste_basket","operator":"Stadt Karlsruhe","waste":"trash"}},"type":"Feature"},
	{"geometry":{"coordinates":[8.450735,49.039347],"type":"Point"},"properties":{"osm_id":"5202760610","tag":{"amenity":"waste_basket","operator":"Stadt Karlsruhe","waste":"trash"}},"type":"Feature"},
	{"geometry":{"coordinates":[8.447978,49.046089],"type":"Point"},"properties":{"osm_id":"5339453221","tag":{"amenity":"recycling","check_date":"2018-01","operator":"Stadt Karlsruhe","recycling:batteries":"yes","recycling:others":"no","recycling_type":"container"}},"type":"Feature"},
	{"geometry":{"coordinates":[8.438229,49.039195],"type":"Point"},"properties":{"osm_id":"5339453246","tag":{"amenity":"recycling","capacity":"3000l","check_date":"2018-01","manufacturer":"Kinshofer Technik","operator":"Stadt Karlsruhe","recycling:clothes":"yes","recycling:others":"no","recycling:shoes":"yes","recycling_type":"container"}},"type":"Feature"},
	{"geometry":{"coordinates":[8.438228,49.039177],"type":"Point"},"properties":{"osm_id":"5339453247","tag":{"amenity":"recycling","capacity":"6400l","capacity:brown":"1600l","capacity:green":"1600l","capacity:white":"3200l","check_date":"2018-01","location":"overground","manufacturer":"SSI Sch\u00c3\u00a4fer AG","model":"System Grumbach","opening_hours":"Mo-Sa 07:00-19:00;Su,PH off","operator":"Knettenbrech + Gurdulic Rhein-Neckar GmbH","recycling:glass_bottles":"yes","recycling:glass_bottles:colour":"white;green;brown","recycling:others":"no","recycling_type":"container","start_date":"2018-01"}},"type":"Feature"},
	{"geometry":{"coordinates":[8.443278,49.039903],"type":"Point"},"properties":{"osm_id":"5339453250","tag":{"amenity":"recycling","capacity":"3000l","check_date":"2018-01","manufacturer":"Kinshofer Technik","operator":"Stadt Karlsruhe","recycling:clothes":"yes","recycling:others":"no","recycling:shoes":"yes","recycling_type":"container"}},"type":"Feature"},
	{"geometry":{"coordinates":[8.44701,49.039159],"type":"Point"},"properties":{"osm_id":"5339453251","tag":{"amenity":"recycling","check_date":"2018-01","operator":"Texaid","recycling:clothes":"yes","recycling_type":"container"}},"type":"Feature"},
	{"geometry":{"coordinates":[8.443011,49.042154],"type":"Point"},"properties":{"osm_id":"5352753968","tag":{"amenity":"recycling","check_date":"2018-01","operator":"Stadt Karlsruhe","operator:type":"public","recycling:batteries":"yes","recycling:others":"no","recycling_type":"container"}},"type":"Feature"},
	{"geometry":{"coordinates":[8.438914,49.037878],"type":"Point"},"properties":{"osm_id":"5352754010","tag":{"amenity":"recycling","capacity":"3000l","check_date":"2018-01","location":"overground","manufacturer":"Kinshofer Technik","operator":"Stadt Karlsruhe","recycling:clothes":"yes","recycling:others":"no","recycling:shoes":"yes","recycling_type":"container"}},"type":"Feature"},
	{"geometry":{"coordinates":[8.466972,49.047915],"type":"Point"},"properties":{"osm_id":"5586407022","tag":{"amenity":"waste_basket","waste":"trash"}},"type":"Feature"},
	{"geometry":{"coordinates":[8.466919,49.047884],"type":"Point"},"properties":{"osm_id":"5586407029","tag":{"amenity":"recycling","check_date":"2018-04","contact:phone":"+49 7843 99169-20","location":"overground","operator":"Terec GmbH","recycling:clothes":"yes","recycling:others":"no","recycling:shoes":"yes","recycling_type":"container"}},"type":"Feature"},
	{"geometry":{"coordinates":[8.454736,49.042353],"type":"Point"},"properties":{"osm_id":"5657135430","tag":{"amenity":"recycling","capacity":"9600l","capacity:brown":"3200l","capacity:green":"3200l","capacity:white":"3200l","check_date":"2018-05","location":"overground","manufacturer":"SSI Sch\u00c3\u00a4fer AG","model":"System Grumbach","opening_hours":"Mo-Sa 07:00-19:00;Su,PH off","operator":"Knettenbrech + Gurdulic Rhein-Neckar GmbH","recycling:glass_bottles":"yes","recycling:glass_bottles:colour":"white;green;brown","recycling:others":"no","recycling_type":"container","start_date":"2018-01"}},"type":"Feature"},
	{"geometry":{"coordinates":[8.454743,49.042534],"type":"Point"},"properties":{"osm_id":"5657135431","tag":{"amenity":"recycling","check_date":"2018-05","opening_hours":"24/7","operator":"Stadt Karlsruhe","operator:type":"public","recycling:batteries":"yes","recycling:others":"no","recycling_type":"container"}},"type":"Feature"},
	{"geometry":{"coordinates":[8.473708,49.053073],"type":"Point"},"properties":{"osm_id":"5659296758","tag":{"amenity":"waste_basket","operator":"Stadt Stutensee","waste":"trash"}},"type":"Feature"},
	{"geometry":{"coordinates":[8.473079,49.051848],"type":"Point"},"properties":{"osm_id":"5659296759","tag":{"amenity":"waste_basket","operator":"Stadt Stutensee","waste":"trash"}},"type":"Feature"},
	{"geometry":{"coordinates":[8.467641,49.058784],"type":"Point"},"properties":{"osm_id":"5659296792","tag":{"amenity":"recycling","check_date":"2020-05-24","recycling:clothes":"yes","recycling:others":"no","recycling:shoes":"yes","recycling_type":"container"}},"type":"Feature"},
	{"geometry":{"coordinates":[8.446853,49.041765],"type":"Point"},"properties":{"osm_id":"5715627449","tag":{"amenity":"recycling","check_date":"2018-06","location":"overground","operator":"Stadt Karlsruhe","operator:type":"public","recycling:batteries":"yes","recycling:others":"no","recycling_type":"container"}},"type":"Feature"},
	{"geometry":{"coordinates":[8.440807,49.041541],"type":"Point"},"properties":{"osm_id":"5715627599","tag":{"amenity":"recycling","check_date":"2018-06","location":"overground","operator":"Stadt Karlsruhe","operator:type":"public","recycling:batteries":"yes","recycling:others":"no","recycling_type":"container"}},"type":"Feature"},
	{"geometry":{"coordinates":[8.47899,49.058954],"type":"Point"},"properties":{"osm_id":"5891391200","tag":{"amenity":"waste_basket","waste":"trash"}},"type":"Feature"},
	{"geometry":{"coordinates":[8.47875,49.055573],"type":"Point"},"properties":{"osm_id":"5891391201","tag":{"amenity":"waste_basket","waste":"trash"}},"type":"Feature"},
	{"geometry":{"coordinates":[8.462836,49.062009],"type":"Point"},"properties":{"osm_id":"5950057245","tag":{"amenity":"waste_basket","waste":"trash"}},"type":"Feature"},
	{"geometry":{"coordinates":[8.440064,49.040646],"type":"Point"},"properties":{"osm_id":"6125125546","tag":{"amenity":"waste_basket","operator":"Stadt Karlsruhe"}},"type":"Feature"},
	{"geometry":{"coordinates":[8.46445,49.066702],"type":"Point"},"properties":{"osm_id":"6172809030","tag":{"amenity":"waste_basket","manufacturer":"Robi AG","waste":"dog_excrement;trash"}},"type":"Feature"},
	{"geometry":{"coordinates":[8.477871,49.067027],"type":"Point"},"properties":{"osm_id":"6372762959","tag":{"amenity":"waste_basket"}},"type":"Feature"},
	{"geometry":{"coordinates":[8.473792,49.058216],"type":"Point"},"properties":{"osm_id":"6516212220","tag":{"amenity":"waste_basket","manufacturer":"Robi AG","model":"Robidog","operator":"Stadt Stutensee","waste":"dog_excrement"}},"type":"Feature"},
	{"geometry":{"coordinates":[8.470147,49.066322],"type":"Point"},"properties":{"osm_id":"6780699004","tag":{"amenity":"recycling","opening_hours":"24/7","recycling:batteries":"yes","recycling_type":"container","wheelchair":"yes"}},"type":"Feature"},
	{"geometry":{"coordinates":[8.511339,49.091734],"type":"Point"},"properties":{"osm_id":"6780843107","tag":{"amenity":"waste_basket"}},"type":"Feature"},
	{"geometry":{"coordinates":[8.46696,49.05066],"type":"Point"},"properties":{"osm_id":"6847978700","tag":{"amenity":"recycling","operator":"Deutsches Rotes Kreuz","recycling:clothes":"yes","recycling:others":"no","recycling:shoes":"yes","recycling_type":"container"}},"type":"Feature"},
	{"geometry":{"coordinates":[8.466948,49.050598],"type":"Point"},"properties":{"osm_id":"6847978702","tag":{"amenity":"waste_basket"}},"type":"Feature"},
	{"geometry":{"coordinates":[8.467489,49.052525],"type":"Point"},"properties":{"osm_id":"6847978705","tag":{"amenity":"waste_basket"}},"type":"Feature"},
	{"geometry":{"coordinates":[8.468384,49.055301],"type":"Point"},"properties":{"osm_id":"6847978731","tag":{"amenity":"waste_basket"}},"type":"Feature"},
	{"geometry":{"coordinates":[8.469725,49.066865],"type":"Point"},"properties":{"osm_id":"6879698945","tag":{"amenity":"waste_basket"}},"type":"Feature"},
	{"geometry":{"coordinates":[8.47011,49.066762],"type":"Point"},"properties":{"osm_id":"6879698946","tag":{"amenity":"waste_basket"}},"type":"Feature"},
	{"geometry":{"coordinates":[8.470054,49.066725],"type":"Point"},"properties":{"osm_id":"6879698947","tag":{"amenity":"waste_basket"}},"type":"Feature"},
	{"geometry":{"coordinates":[8.463207,49.053139],"type":"Point"},"properties":{"osm_id":"7011143935","tag":{"amenity":"waste_basket","waste":"trash"}},"type":"Feature"},
	{"geometry":{"coordinates":[8.467363,49.057726],"type":"Point"},"properties":{"osm_id":"7051609296","tag":{"amenity":"waste_basket","waste":"trash"}},"type":"Feature"},
	{"geometry":{"coordinates":[8.460926,49.043211],"type":"Point"},"properties":{"osm_id":"7101873363","tag":{"amenity":"waste_basket","waste":"trash"}},"type":"Feature"},
	{"geometry":{"coordinates":[8.485916,49.066779],"type":"Point"},"properties":{"osm_id":"7553936193","tag":{"amenity":"waste_basket","waste":"trash"}},"type":"Feature"},
	{"geometry":{"coordinates":[8.451833,49.086061],"type":"Point"},"properties":{"osm_id":"7745089178","tag":{"amenity":"waste_basket","waste":"trash"}},"type":"Feature"},
	{"geometry":{"coordinates":[8.451596,49.086216],"type":"Point"},"properties":{"osm_id":"7745089179","tag":{"amenity":"waste_basket","waste":"trash"}},"type":"Feature"},
	{"geometry":{"coordinates":[8.518258,49.048633],"type":"Point"},"properties":{"barrier":"gate","osm_id":"7890878910"},"type":"Feature"}
]
}
