{
"type": "FeatureCollection",
"features": [
	{"geometry":{"coordinates":[8.464773,48.974484],"type":"Point"},"properties":{"osm_id":"25317222","tag":{"amenity":"recycling","covered":"no","recycling:batteries":"yes","recycling:clothes":"yes","recycling:glass":"yes","recycling_type":"container"}},"type":"Feature"},
	{"geometry":{"coordinates":[8.506679,48.956514],"type":"Point"},"properties":{"osm_id":"25507143","tag":{"amenity":"recycling"}},"type":"Feature"},
	{"geometry":{"coordinates":[8.514447,48.951142],"type":"Point"},"properties":{"osm_id":"25508370","tag":{"amenity":"recycling","recycling:batteries":"yes","recycling:glass":"yes","recycling_type":"container"}},"type":"Feature"},
	{"geometry":{"coordinates":[8.503536,48.952233],"type":"Point"},"properties":{"osm_id":"25508852","tag":{"amenity":"recycling"}},"type":"Feature"},
	{"geometry":{"coordinates":[8.503362,48.952558],"type":"Point"},"properties":{"osm_id":"25508855","tag":{"amenity":"recycling"}},"type":"Feature"},
	{"geometry":{"coordinates":[8.507785,48.949011],"type":"Point"},"properties":{"osm_id":"25508861","tag":{"amenity":"recycling"}},"type":"Feature"},
	{"geometry":{"coordinates":[8.489134,48.946291],"type":"Point"},"properties":{"osm_id":"25509998","tag":{"amenity":"recycling","recycling:clothes":"yes","recycling:glass_bottles":"yes","recycling_type":"container"}},"type":"Feature"},
	{"geometry":{"coordinates":[8.48063,48.947366],"type":"Point"},"properties":{"osm_id":"25510002","tag":{"amenity":"recycling","recycling_type":"container"}},"type":"Feature"},
	{"geometry":{"coordinates":[8.47689,48.954255],"type":"Point"},"properties":{"osm_id":"25510008","tag":{"amenity":"recycling","recycling:batteries":"yes","recycling:glass_bottles":"yes","recycling_type":"container"}},"type":"Feature"},
	{"geometry":{"coordinates":[8.474214,48.95817],"type":"Point"},"properties":{"osm_id":"25510013","tag":{"amenity":"recycling","location":"overground","recycling:glass":"no","recycling:glass_bottles":"yes","recycling_type":"container"}},"type":"Feature"},
	{"geometry":{"coordinates":[8.473676,48.957746],"type":"Point"},"properties":{"osm_id":"25510015","tag":{"amenity":"recycling","recycling:batteries":"yes"}},"type":"Feature"},
	{"geometry":{"coordinates":[8.466575,48.959213],"type":"Point"},"properties":{"osm_id":"25510017","tag":{"amenity":"recycling","recycling:glass":"yes"}},"type":"Feature"},
	{"geometry":{"coordinates":[8.451067,48.97766],"type":"Point"},"properties":{"osm_id":"29026958","tag":{"amenity":"recycling","recycling:batteries":"yes","recycling:clothes":"yes","recycling:glass":"yes"}},"type":"Feature"},
	{"geometry":{"coordinates":[8.45442,48.977848],"type":"Point"},"properties":{"osm_id":"34576052","tag":{"amenity":"recycling","recycling:batteries":"yes","recycling:clothes":"yes","recycling:glass":"yes"}},"type":"Feature"},
	{"geometry":{"coordinates":[8.454573,48.930287],"type":"Point"},"properties":{"osm_id":"250388780","tag":{"amenity":"recycling","recycling:glass":"yes"}},"type":"Feature"},
	{"geometry":{"coordinates":[8.45247,48.934274],"type":"Point"},"properties":{"osm_id":"250397386","tag":{"amenity":"recycling"}},"type":"Feature"},
	{"geometry":{"coordinates":[8.485013,48.922716],"type":"Point"},"properties":{"osm_id":"299399138","tag":{"amenity":"recycling"}},"type":"Feature"},
	{"geometry":{"coordinates":[8.485223,48.925881],"type":"Point"},"properties":{"osm_id":"309424909","tag":{"amenity":"recycling","recycling:glass":"yes","recycling_type":"container"}},"type":"Feature"},
	{"geometry":{"coordinates":[8.46763,48.93558],"type":"Point"},"properties":{"osm_id":"360830424","tag":{"amenity":"recycling","recycling:clothes":"yes","recycling:glass":"yes"}},"type":"Feature"},
	{"geometry":{"coordinates":[8.475068,48.972542],"type":"Point"},"properties":{"osm_id":"371148441","tag":{"amenity":"recycling","recycling:glass":"yes"}},"type":"Feature"},
	{"geometry":{"coordinates":[8.465819,48.956028],"type":"Point"},"properties":{"osm_id":"379665523","tag":{"amenity":"recycling","recycling:glass":"yes"}},"type":"Feature"},
	{"geometry":{"coordinates":[8.466626,48.972868],"type":"Point"},"properties":{"osm_id":"504664522","tag":{"amenity":"recycling","recycling:batteries":"yes","recycling:glass":"yes","recycling_type":"container"}},"type":"Feature"},
	{"geometry":{"coordinates":[8.49024,48.950979],"type":"Point"},"properties":{"osm_id":"650539453","tag":{"amenity":"waste_disposal"}},"type":"Feature"},
	{"geometry":{"coordinates":[8.462239,48.959989],"type":"Point"},"properties":{"osm_id":"734621727","tag":{"amenity":"waste_basket"}},"type":"Feature"},
	{"geometry":{"coordinates":[8.452859,48.974604],"type":"Point"},"properties":{"osm_id":"739485917","tag":{"amenity":"recycling","recycling:glass":"yes"}},"type":"Feature"},
	{"geometry":{"coordinates":[8.454802,48.972373],"type":"Point"},"properties":{"osm_id":"743237578","tag":{"amenity":"recycling","recycling:glass":"yes","recycling_type":"container"}},"type":"Feature"},
	{"geometry":{"coordinates":[8.470492,48.929155],"type":"Point"},"properties":{"osm_id":"925183081","tag":{"amenity":"waste_basket"}},"type":"Feature"},
	{"geometry":{"coordinates":[8.471645,48.929298],"type":"Point"},"properties":{"osm_id":"925183086","tag":{"amenity":"waste_basket"}},"type":"Feature"},
	{"geometry":{"coordinates":[8.471881,48.929354],"type":"Point"},"properties":{"osm_id":"925183091","tag":{"amenity":"waste_basket"}},"type":"Feature"},
	{"geometry":{"coordinates":[8.482106,48.96921],"type":"Point"},"properties":{"osm_id":"938127232","tag":{"amenity":"recycling","recycling:glass":"yes"}},"type":"Feature"},
	{"geometry":{"coordinates":[8.479775,48.935654],"type":"Point"},"properties":{"barrier":"gate","osm_id":"1126335337"},"type":"Feature"},
	{"geometry":{"coordinates":[8.475141,48.929929],"type":"Point"},"properties":{"osm_id":"1449076581","tag":{"amenity":"recycling","recycling:glass":"yes","recycling_type":"container"}},"type":"Feature"},
	{"geometry":{"coordinates":[8.441264,48.971366],"type":"Point"},"properties":{"osm_id":"1495850751","tag":{"amenity":"recycling","description":"Immer ge\u00c3\u00b6ffnet, da Container. Keine Absperrung.","recycling:garden_waste":"yes","recycling:green_waste":"yes","recycling:wood":"yes","recycling_type":"container"}},"type":"Feature"},
	{"geometry":{"coordinates":[8.505922,48.941078],"type":"Point"},"properties":{"osm_id":"1536519143","tag":{"amenity":"recycling","recycling_type":"container"}},"type":"Feature"},
	{"geometry":{"coordinates":[8.505232,48.941338],"type":"Point"},"properties":{"osm_id":"1536519210","tag":{"amenity":"recycling","recycling_type":"container"}},"type":"Feature"},
	{"geometry":{"coordinates":[8.498233,48.951806],"type":"Point"},"properties":{"osm_id":"1708100092","tag":{"amenity":"waste_basket"}},"type":"Feature"},
	{"geometry":{"coordinates":[8.467693,48.93808],"type":"Point"},"properties":{"osm_id":"1708279208","tag":{"amenity":"waste_basket"}},"type":"Feature"},
	{"geometry":{"coordinates":[8.471831,48.950941],"type":"Point"},"properties":{"barrier":"gate","osm_id":"1765167452"},"type":"Feature"},
	{"geometry":{"coordinates":[8.470996,48.964786],"type":"Point"},"properties":{"osm_id":"2293539298","tag":{"amenity":"recycling","recycling:compost":"yes","recycling_type":"container"}},"type":"Feature"},
	{"geometry":{"coordinates":[8.471236,48.964839],"type":"Point"},"properties":{"osm_id":"2293539299","tag":{"amenity":"recycling","recycling:glass":"yes","recycling_type":"container"}},"type":"Feature"},
	{"geometry":{"coordinates":[8.471254,48.964876],"type":"Point"},"properties":{"osm_id":"2293541132","tag":{"amenity":"recycling","recycling:clothes":"yes","recycling_type":"container"}},"type":"Feature"},
	{"geometry":{"coordinates":[8.476022,48.948862],"type":"Point"},"properties":{"osm_id":"3202885463","tag":{"amenity":"waste_basket"}},"type":"Feature"},
	{"geometry":{"coordinates":[8.452553,48.960135],"type":"Point"},"properties":{"osm_id":"3542307078","tag":{"amenity":"waste_basket"}},"type":"Feature"},
	{"geometry":{"coordinates":[8.467707,48.969806],"type":"Point"},"properties":{"osm_id":"3566651328","tag":{"amenity":"waste_basket"}},"type":"Feature"},
	{"geometry":{"coordinates":[8.468733,48.970228],"type":"Point"},"properties":{"osm_id":"3566651330","tag":{"amenity":"waste_basket"}},"type":"Feature"},
	{"geometry":{"coordinates":[8.516314,48.949283],"type":"Point"},"properties":{"osm_id":"3566701738","tag":{"amenity":"waste_basket"}},"type":"Feature"},
	{"geometry":{"coordinates":[8.456344,48.940973],"type":"Point"},"properties":{"osm_id":"3810426687","tag":{"amenity":"waste_basket"}},"type":"Feature"},
	{"geometry":{"coordinates":[8.451163,48.946685],"type":"Point"},"properties":{"osm_id":"4301174571","tag":{"amenity":"waste_basket"}},"type":"Feature"},
	{"geometry":{"coordinates":[8.457054,48.948155],"type":"Point"},"properties":{"osm_id":"4301174573","tag":{"amenity":"waste_basket"}},"type":"Feature"},
	{"geometry":{"coordinates":[8.458218,48.948815],"type":"Point"},"properties":{"osm_id":"4301174574","tag":{"amenity":"waste_basket"}},"type":"Feature"},
	{"geometry":{"coordinates":[8.461833,48.950717],"type":"Point"},"properties":{"osm_id":"4301174575","tag":{"amenity":"waste_basket"}},"type":"Feature"},
	{"geometry":{"coordinates":[8.472183,48.924906],"type":"Point"},"properties":{"osm_id":"4323680806","tag":{"amenity":"recycling","recycling:clothes":"yes","recycling:glass":"yes","recycling:glass_bottles":"yes","recycling_type":"container","wheelchair":"yes"}},"type":"Feature"},
	{"geometry":{"coordinates":[8.448482,48.93063],"type":"Point"},"properties":{"osm_id":"4406620353","tag":{"amenity":"recycling","opening_hours":"24/7","recycling:clothes":"yes","recycling:glass":"yes","recycling:glass_bottles":"yes","recycling:shoes":"yes","recycling_type":"container","wheelchair":"yes"}},"type":"Feature"},
	{"geometry":{"coordinates":[8.469231,48.930812],"type":"Point"},"properties":{"osm_id":"4410737425","tag":{"amenity":"recycling","recycling:clothes":"yes","recycling_type":"container"}},"type":"Feature"},
	{"geometry":{"coordinates":[8.441867,48.934023],"type":"Point"},"properties":{"osm_id":"4928926935","tag":{"amenity":"waste_basket"}},"type":"Feature"},
	{"geometry":{"coordinates":[8.47658,48.947934],"type":"Point"},"properties":{"osm_id":"4931062737","tag":{"amenity":"waste_basket"}},"type":"Feature"},
	{"geometry":{"coordinates":[8.442317,48.933817],"type":"Point"},"properties":{"osm_id":"4932118063","tag":{"amenity":"waste_basket"}},"type":"Feature"},
	{"geometry":{"coordinates":[8.470199,48.971171],"type":"Point"},"properties":{"osm_id":"5062968397","tag":{"amenity":"waste_basket"}},"type":"Feature"},
	{"geometry":{"coordinates":[8.453205,48.974741],"type":"Point"},"properties":{"osm_id":"5191311094","tag":{"amenity":"waste_basket"}},"type":"Feature"},
	{"geometry":{"coordinates":[8.482068,48.926618],"type":"Point"},"properties":{"osm_id":"6440866482","tag":{"amenity":"recycling","recycling:clothes":"yes","recycling_type":"container"}},"type":"Feature"},
	{"geometry":{"coordinates":[8.451005,48.956001],"type":"Point"},"properties":{"osm_id":"6448381987","tag":{"amenity":"waste_basket","waste":"trash"}},"type":"Feature"},
	{"geometry":{"coordinates":[8.481134,48.973392],"type":"Point"},"properties":{"osm_id":"6509981200","tag":{"amenity":"waste_basket","waste":"trash"}},"type":"Feature"},
	{"geometry":{"coordinates":[8.470922,48.927744],"type":"Point"},"properties":{"osm_id":"6860590519","tag":{"amenity":"waste_basket"}},"type":"Feature"},
	{"geometry":{"coordinates":[8.453552,48.968091],"type":"Point"},"properties":{"osm_id":"7326828730","tag":{"amenity":"waste_basket","waste":"trash"}},"type":"Feature"},
	{"geometry":{"coordinates":[8.462551,48.943678],"type":"Point"},"properties":{"osm_id":"7326828731","tag":{"amenity":"waste_basket","waste":"trash"}},"type":"Feature"},
	{"geometry":{"coordinates":[8.471149,48.944862],"type":"Point"},"properties":{"osm_id":"7326828735","tag":{"amenity":"waste_basket","waste":"trash"}},"type":"Feature"},
	{"geometry":{"coordinates":[8.475604,48.929915],"type":"Point"},"properties":{"osm_id":"7486371549","tag":{"amenity":"recycling","recycling:clothes":"yes","recycling_type":"container"}},"type":"Feature"},
	{"geometry":{"coordinates":[8.466696,48.9723],"type":"Point"},"properties":{"osm_id":"7801798029","tag":{"amenity":"waste_basket","covered":"no","indoor":"no","material":"metal"}},"type":"Feature"},
	{"geometry":{"coordinates":[8.467311,48.971381],"type":"Point"},"properties":{"osm_id":"7801798031","tag":{"amenity":"waste_basket","covered":"no","indoor":"no","material":"metal"}},"type":"Feature"},
	{"geometry":{"coordinates":[8.467698,48.97156],"type":"Point"},"properties":{"osm_id":"7801798034","tag":{"amenity":"waste_basket","covered":"no","indoor":"no","material":"metal"}},"type":"Feature"},
	{"geometry":{"coordinates":[8.467395,48.971374],"type":"Point"},"properties":{"osm_id":"7801798040","tag":{"amenity":"waste_basket","covered":"no","indoor":"no","material":"metal"}},"type":"Feature"},
	{"geometry":{"coordinates":[8.466246,48.972999],"type":"Point"},"properties":{"osm_id":"7801798046","tag":{"amenity":"waste_basket","covered":"no","indoor":"no","material":"metal"}},"type":"Feature"},
	{"geometry":{"coordinates":[8.468326,48.97222],"type":"Point"},"properties":{"osm_id":"7801798047","tag":{"amenity":"waste_basket","covered":"no","indoor":"no","material":"metal"}},"type":"Feature"},
	{"geometry":{"coordinates":[8.466978,48.972105],"type":"Point"},"properties":{"osm_id":"7801798048","tag":{"amenity":"waste_basket","covered":"no","indoor":"no","material":"metal"}},"type":"Feature"},
	{"geometry":{"coordinates":[8.466647,48.972595],"type":"Point"},"properties":{"osm_id":"7801798055","tag":{"amenity":"waste_basket","covered":"no","indoor":"no","material":"metal"}},"type":"Feature"},
	{"geometry":{"coordinates":[8.468432,48.97235],"type":"Point"},"properties":{"osm_id":"7801798056","tag":{"amenity":"waste_basket","covered":"no","indoor":"no","material":"metal"}},"type":"Feature"},
	{"geometry":{"coordinates":[8.467749,48.971876],"type":"Point"},"properties":{"osm_id":"7801798057","tag":{"amenity":"waste_basket","covered":"no","indoor":"no","material":"metal"}},"type":"Feature"}
]
}
