{
"type": "FeatureCollection",
"features": [
	{"geometry":{"coordinates":[8.507662,48.471705],"type":"Point"},"properties":{"osm_id":"418832682","tag":{"amenity":"recycling","recycling:clothes":"yes","recycling:glass":"yes","recycling_type":"container"}},"type":"Feature"},
	{"geometry":{"coordinates":[8.510136,48.466761],"type":"Point"},"properties":{"osm_id":"418832708","tag":{"amenity":"waste_basket"}},"type":"Feature"},
	{"geometry":{"coordinates":[8.446051,48.473443],"type":"Point"},"properties":{"osm_id":"597619420","tag":{"amenity":"recycling","recycling:glass":"yes","recycling:paper":"yes","recycling_type":"container"}},"type":"Feature"},
	{"geometry":{"coordinates":[8.508124,48.467892],"type":"Point"},"properties":{"osm_id":"610825066","tag":{"amenity":"recycling","recycling:clothes":"yes","recycling:glass":"yes","recycling:paper":"yes","recycling_type":"container"}},"type":"Feature"},
	{"geometry":{"coordinates":[8.479591,48.471723],"type":"Point"},"properties":{"osm_id":"673470282","tag":{"amenity":"recycling","recycling_type":"container"}},"type":"Feature"},
	{"geometry":{"coordinates":[8.486324,48.472379],"type":"Point"},"properties":{"osm_id":"1259308429","tag":{"amenity":"waste_basket"}},"type":"Feature"},
	{"geometry":{"coordinates":[8.500979,48.465637],"type":"Point"},"properties":{"osm_id":"1259434303","tag":{"amenity":"recycling","recycling:clothes":"yes","recycling:glass":"yes","recycling:paper":"yes","recycling_type":"container"}},"type":"Feature"},
	{"geometry":{"coordinates":[8.50226,48.478216],"type":"Point"},"properties":{"osm_id":"1259471707","tag":{"amenity":"waste_basket"}},"type":"Feature"},
	{"geometry":{"coordinates":[8.513434,48.467056],"type":"Point"},"properties":{"osm_id":"1260032216","tag":{"amenity":"waste_basket"}},"type":"Feature"},
	{"geometry":{"coordinates":[8.46416,48.512784],"type":"Point"},"properties":{"osm_id":"1849022594","tag":{"amenity":"waste_basket"}},"type":"Feature"},
	{"geometry":{"coordinates":[8.46415,48.512913],"type":"Point"},"properties":{"name":"Dogstation","osm_id":"1849047675","tag":{"amenity":"waste_basket"}},"type":"Feature"},
	{"geometry":{"coordinates":[8.495925,48.497876],"type":"Point"},"properties":{"osm_id":"2098021703","tag":{"amenity":"waste_basket"}},"type":"Feature"},
	{"geometry":{"coordinates":[8.502113,48.484711],"type":"Point"},"properties":{"osm_id":"2703870732","tag":{"amenity":"recycling","recycling:cans":"yes","recycling:clothes":"yes","recycling:glass":"yes","recycling:paper":"yes","recycling_type":"container"}},"type":"Feature"},
	{"geometry":{"coordinates":[8.468151,48.497841],"type":"Point"},"properties":{"osm_id":"3380035857","tag":{"amenity":"recycling","recycling:glass":"yes","recycling:paper":"yes","recycling_type":"container"}},"type":"Feature"},
	{"geometry":{"coordinates":[8.490916,48.472413],"type":"Point"},"properties":{"osm_id":"3535336119","tag":{"amenity":"recycling","recycling:paper":"yes","recycling_type":"container"}},"type":"Feature"},
	{"geometry":{"coordinates":[8.517792,48.514299],"type":"Point"},"properties":{"osm_id":"3884777647","tag":{"amenity":"waste_basket"}},"type":"Feature"},
	{"geometry":{"coordinates":[8.512185,48.465438],"type":"Point"},"properties":{"osm_id":"4359935971","tag":{"amenity":"recycling","recycling:glass":"yes","recycling:paper":"yes","recycling_type":"container"}},"type":"Feature"},
	{"geometry":{"coordinates":[8.464269,48.51269],"type":"Point"},"properties":{"osm_id":"5839640587","tag":{"amenity":"waste_basket"}},"type":"Feature"},
	{"geometry":{"coordinates":[8.447741,48.47055],"type":"Point"},"properties":{"osm_id":"5841455300","tag":{"amenity":"recycling","recycling_type":"container"}},"type":"Feature"},
	{"geometry":{"coordinates":[8.464416,48.487755],"type":"Point"},"properties":{"osm_id":"5907973068","tag":{"amenity":"recycling","recycling_type":"container"}},"type":"Feature"},
	{"geometry":{"coordinates":[8.462027,48.476377],"type":"Point"},"properties":{"osm_id":"7200067286","tag":{"amenity":"recycling","recycling:glass":"yes","recycling:paper":"yes","recycling_type":"container"}},"type":"Feature"},
	{"geometry":{"coordinates":[8.460885,48.475351],"type":"Point"},"properties":{"osm_id":"7255320098","tag":{"amenity":"waste_basket","waste":"trash"}},"type":"Feature"},
	{"geometry":{"coordinates":[8.460563,48.475345],"type":"Point"},"properties":{"osm_id":"7255320111","tag":{"amenity":"waste_basket","waste":"trash"}},"type":"Feature"}
]
}
