{
"type": "FeatureCollection",
"features": [
	{"geometry":{"coordinates":[8.465327,48.453617],"type":"Point"},"properties":{"osm_id":"256912242","tag":{"amenity":"recycling","opening_hours":"24/7","recycling:glass":"yes","recycling:paper":"yes","recycling_type":"container","wheelchair":"limited"}},"type":"Feature"},
	{"geometry":{"coordinates":[8.463776,48.408149],"type":"Point"},"properties":{"name":"Recyclingcenter Lo\u00c3\u009fburg","osm_id":"288423824","tag":{"amenity":"recycling","recycling:batteries":"yes","recycling:clothes":"yes","recycling:glass":"yes","recycling_type":"centre"}},"type":"Feature"},
	{"geometry":{"coordinates":[8.461089,48.451902],"type":"Point"},"properties":{"osm_id":"291088632","tag":{"amenity":"recycling","recycling_type":"container"}},"type":"Feature"},
	{"geometry":{"coordinates":[8.441149,48.423638],"type":"Point"},"properties":{"osm_id":"321381859","tag":{"amenity":"recycling","recycling:glass":"yes","recycling_type":"container"}},"type":"Feature"},
	{"geometry":{"coordinates":[8.443801,48.420199],"type":"Point"},"properties":{"osm_id":"321381861","tag":{"amenity":"recycling","recycling:glass":"yes","recycling_type":"container"}},"type":"Feature"},
	{"geometry":{"coordinates":[8.50997,48.446461],"type":"Point"},"properties":{"osm_id":"622113334","tag":{"amenity":"recycling","recycling_type":"container"}},"type":"Feature"},
	{"geometry":{"coordinates":[8.510803,48.414774],"type":"Point"},"properties":{"osm_id":"4556153801","tag":{"amenity":"recycling","recycling:paper":"yes","recycling_type":"container"}},"type":"Feature"},
	{"geometry":{"coordinates":[8.511361,48.415245],"type":"Point"},"properties":{"osm_id":"4556153806","tag":{"amenity":"waste_disposal"}},"type":"Feature"},
	{"geometry":{"coordinates":[8.452215,48.412874],"type":"Point"},"properties":{"osm_id":"4585301037","tag":{"amenity":"recycling","recycling_type":"container"}},"type":"Feature"},
	{"geometry":{"coordinates":[8.510743,48.414784],"type":"Point"},"properties":{"osm_id":"4598148520","tag":{"amenity":"recycling","recycling:glass":"yes","recycling_type":"container"}},"type":"Feature"}
]
}
