{
"type": "FeatureCollection",
"features": [
	{"geometry":{"coordinates":[8.509593,47.41361],"type":"Point"},"properties":{"osm_id":"89124715","tag":{"amenity":"recycling","description":"Container: Metall (3), Gr\u00c3\u00bcnglas (3), Weissglas (2), Braunglas (1)","opening_hours":"Mo-Sa 07:00-20:00","operator":"ERZ","recycling:aluminium":"yes","recycling:cans":"yes","recycling:glass_bottles":"yes","recycling_type":"container"}},"type":"Feature"},
	{"geometry":{"coordinates":[8.48247,47.415705],"type":"Point"},"properties":{"osm_id":"264600108","tag":{"amenity":"recycling","description":"Container: Braunglas (1), Weissglas (2), Gr\u00c3\u00bcnglas (4), Metall (3); Speise\u00c3\u00b6l/Mineral\u00c3\u00b6l","opening_hours":"Mo-Sa 07:00-20:00","operator":"ERZ","recycling:aluminium":"yes","recycling:cans":"yes","recycling:cooking_oil":"yes","recycling:engine_oil":"yes","recycling:glass_bottles":"yes","recycling_type":"container"}},"type":"Feature"},
	{"geometry":{"coordinates":[8.509492,47.420599],"type":"Point"},"properties":{"osm_id":"276353674","tag":{"amenity":"recycling","operator":"Texaid","recycling:clothes":"yes","recycling:shoes":"yes","recycling_type":"container"}},"type":"Feature"},
	{"geometry":{"coordinates":[8.512855,47.411865],"type":"Point"},"properties":{"osm_id":"299616477","tag":{"amenity":"recycling","description":"Container: Braunglas (1), Weissglas (1), Gr\u00c3\u00bcnglas (3), Metall (2)","opening_hours":"Mo-Sa 07:00-20:00","operator":"ERZ","recycling:aluminium":"yes","recycling:cans":"yes","recycling:glass_bottles":"yes","recycling_type":"container"}},"type":"Feature"},
	{"geometry":{"coordinates":[8.506697,47.416227],"type":"Point"},"properties":{"osm_id":"307753263","tag":{"amenity":"recycling","capacity":"2","operator":"Texaid","recycling:clothes":"yes","recycling:shoes":"yes","recycling_type":"container"}},"type":"Feature"},
	{"geometry":{"coordinates":[8.495116,47.398447],"type":"Point"},"properties":{"osm_id":"314934709","tag":{"amenity":"recycling","description":"Container: Braunglas (1), Weissglas (2), Gr\u00c3\u00bcnglas (3), Metall (2); Speise\u00c3\u00b6l/Mineral\u00c3\u00b6l","opening_hours":"Mo-Sa 07:00-20:00","operator":"ERZ","recycling:aluminium":"yes","recycling:cans":"yes","recycling:cooking_oil":"yes","recycling:engine_oil":"yes","recycling:glass_bottles":"yes","recycling_type":"container"}},"type":"Feature"},
	{"geometry":{"coordinates":[8.508548,47.407514],"type":"Point"},"properties":{"osm_id":"426767494","tag":{"amenity":"waste_basket"}},"type":"Feature"},
	{"geometry":{"coordinates":[8.475602,47.414796],"type":"Point"},"properties":{"osm_id":"452715398","tag":{"amenity":"recycling","description":"Container: Metall (2), Gr\u00c3\u00bcnglas (2), Weissglas (2), Braunglas (1)","opening_hours":"Mo-Sa 07:00-20:00","operator":"ERZ","recycling:aluminium":"yes","recycling:cans":"yes","recycling:glass_bottles":"yes","recycling_type":"container"}},"type":"Feature"},
	{"geometry":{"coordinates":[8.504682,47.404948],"type":"Point"},"properties":{"osm_id":"668049021","tag":{"amenity":"waste_basket"}},"type":"Feature"},
	{"geometry":{"coordinates":[8.515367,47.412263],"type":"Point"},"properties":{"osm_id":"668049025","tag":{"amenity":"waste_basket"}},"type":"Feature"},
	{"geometry":{"coordinates":[8.500984,47.421227],"type":"Point"},"properties":{"osm_id":"703430760","tag":{"amenity":"recycling","description":"Container: Metall (3), Gr\u00c3\u00bcnglas (2), Weissglas (2), Braunglas (1)","opening_hours":"Mo-Sa 07:00-20:00","operator":"ERZ","recycling:aluminium":"yes","recycling:cans":"yes","recycling:glass_bottles":"yes","recycling_type":"container"}},"type":"Feature"},
	{"geometry":{"coordinates":[8.507516,47.401219],"type":"Point"},"properties":{"osm_id":"765818108","tag":{"amenity":"recycling","description":"Container: Metall (1), Gr\u00c3\u00bcnglas (2), Weissglas (1), Braunglas (1)","opening_hours":"Mo-Sa 07:00-20:00","operator":"ERZ","recycling:aluminium":"yes","recycling:cans":"yes","recycling:glass_bottles":"yes","recycling_type":"container"}},"type":"Feature"},
	{"geometry":{"coordinates":[8.49955,47.425721],"type":"Point"},"properties":{"osm_id":"768845266","tag":{"amenity":"recycling"}},"type":"Feature"},
	{"geometry":{"coordinates":[8.498954,47.420974],"type":"Point"},"properties":{"osm_id":"772969651","tag":{"amenity":"recycling","description":"Container: Braunglas (1), Weissglas (1), Gr\u00c3\u00bcnglas (2), Metall (2)","opening_hours":"Mo-Sa 07:00-20:00","operator":"ERZ","recycling:aluminium":"yes","recycling:cans":"yes","recycling:glass_bottles":"yes","recycling_type":"container"}},"type":"Feature"},
	{"geometry":{"coordinates":[8.513572,47.404182],"type":"Point"},"properties":{"osm_id":"773325402","tag":{"amenity":"waste_basket"}},"type":"Feature"},
	{"geometry":{"coordinates":[8.497508,47.400739],"type":"Point"},"properties":{"osm_id":"773350437","tag":{"amenity":"waste_basket"}},"type":"Feature"},
	{"geometry":{"coordinates":[8.513868,47.41557],"type":"Point"},"properties":{"osm_id":"935501384","tag":{"amenity":"recycling","description":"Container: Metall (1), Gr\u00c3\u00bcnglas (2), Weissglas (1), Braunglas (1)","opening_hours":"Mo-Sa 07:00-20:00","operator":"ERZ","recycling:aluminium":"yes","recycling:cans":"yes","recycling:glass_bottles":"yes","recycling_type":"container"}},"type":"Feature"},
	{"geometry":{"coordinates":[8.511266,47.424438],"type":"Point"},"properties":{"osm_id":"935623484","tag":{"amenity":"recycling","operator":"Texaid","recycling:clothes":"yes","recycling:shoes":"yes","recycling_type":"container"}},"type":"Feature"},
	{"geometry":{"coordinates":[8.517335,47.415265],"type":"Point"},"properties":{"osm_id":"935804312","tag":{"amenity":"recycling","operator":"Texaid","recycling:clothes":"yes","recycling:shoes":"yes","recycling_type":"container"}},"type":"Feature"},
	{"geometry":{"coordinates":[8.49619,47.426058],"type":"Point"},"properties":{"osm_id":"1027136004","tag":{"amenity":"recycling","description":"Container: Braunglas (1), Weissglas (2), Gr\u00c3\u00bcnglas (3), Metall (3); Speise\u00c3\u00b6l/Mineral\u00c3\u00b6l","opening_hours":"Mo-Sa 07:00-20:00","operator":"ERZ","recycling:aluminium":"yes","recycling:cans":"yes","recycling:glass_bottles":"yes","recycling_type":"container"}},"type":"Feature"},
	{"geometry":{"coordinates":[8.504614,47.40509],"type":"Point"},"properties":{"osm_id":"1264149695","tag":{"amenity":"waste_basket"}},"type":"Feature"},
	{"geometry":{"coordinates":[8.503213,47.405468],"type":"Point"},"properties":{"osm_id":"1351710086","tag":{"amenity":"waste_basket","vending":"excrement_bags"}},"type":"Feature"},
	{"geometry":{"coordinates":[8.50405,47.40612],"type":"Point"},"properties":{"osm_id":"1351710091","tag":{"amenity":"waste_basket"}},"type":"Feature"},
	{"geometry":{"coordinates":[8.439785,47.456246],"type":"Point"},"properties":{"osm_id":"1444359223","tag":{"amenity":"recycling","operator":"Migros","recycling:PET":"yes","recycling:plastic_bottles":"yes","recycling_type":"container","website":"https://www.migros.ch/mediaObject/GenM/docs/de/RecyclingGuideD/original/RecyclingGuideD.pdf"}},"type":"Feature"},
	{"geometry":{"coordinates":[8.460828,47.440413],"type":"Point"},"properties":{"name":"Bruno R\u00c3\u00b6llin AG","osm_id":"1545913836","tag":{"amenity":"recycling","recycling:batteries":"yes","recycling:books":"no","recycling:cans":"no","recycling:cardboard":"yes","recycling:cartons":"yes","recycling:clothes":"no","recycling:electrical_appliances":"yes","recycling:glass":"yes","recycling:glass_bottles":"no","recycling:green_waste":"no","recycling:magazines":"no","recycling:newspaper":"no","recycling:paper":"no","recycling:paper_packaging":"no","recycling:plastic":"yes","recycling:plastic_bottles":"no","recycling:plastic_packaging":"yes","recycling:scrap_metal":"yes","recycling:small_appliances":"yes","recycling:waste":"no","recycling:wood":"yes","recycling_type":"centre","website":"https://roellin.ch/"}},"type":"Feature"},
	{"geometry":{"coordinates":[8.496187,47.403789],"type":"Point"},"properties":{"osm_id":"1625432106","tag":{"amenity":"recycling","description":"Container: Braunglas (2), Weissglas (2), Gr\u00c3\u00bcnglas (4), Metall (3); Speise\u00c3\u00b6l/Mineral\u00c3\u00b6l","opening_hours":"Mo-Sa 07:00-20:00","operator":"ERZ","recycling:aluminium":"yes","recycling:cans":"yes","recycling:cooking_oil":"yes","recycling:engine_oil":"yes","recycling:glass_bottles":"yes","recycling_type":"container"}},"type":"Feature"},
	{"geometry":{"coordinates":[8.490623,47.405307],"type":"Point"},"properties":{"osm_id":"1625432186","tag":{"amenity":"recycling","description":"Container: Metall (2), Gr\u00c3\u00bcnglas (3), Weissglas (2), Braunglas (1)","opening_hours":"Mo-Sa 07:00-20:00","operator":"ERZ","recycling:aluminium":"yes","recycling:cans":"yes","recycling:glass_bottles":"yes","recycling_type":"container"}},"type":"Feature"},
	{"geometry":{"coordinates":[8.504019,47.405077],"type":"Point"},"properties":{"osm_id":"2106183990","tag":{"amenity":"waste_basket"}},"type":"Feature"},
	{"geometry":{"coordinates":[8.511505,47.430389],"type":"Point"},"properties":{"osm_id":"2261798623","tag":{"amenity":"waste_basket"}},"type":"Feature"},
	{"geometry":{"coordinates":[8.511321,47.430508],"type":"Point"},"properties":{"osm_id":"2261798627","tag":{"amenity":"waste_basket"}},"type":"Feature"},
	{"geometry":{"coordinates":[8.511857,47.430511],"type":"Point"},"properties":{"osm_id":"2261798628","tag":{"amenity":"waste_basket"}},"type":"Feature"},
	{"geometry":{"coordinates":[8.490361,47.42825],"type":"Point"},"properties":{"osm_id":"2558690104","tag":{"amenity":"waste_basket"}},"type":"Feature"},
	{"geometry":{"coordinates":[8.507916,47.408552],"type":"Point"},"properties":{"osm_id":"2628802027","tag":{"amenity":"waste_basket"}},"type":"Feature"},
	{"geometry":{"coordinates":[8.51844,47.413512],"type":"Point"},"properties":{"osm_id":"2630488694","tag":{"amenity":"waste_basket"}},"type":"Feature"},
	{"geometry":{"coordinates":[8.508204,47.408925],"type":"Point"},"properties":{"osm_id":"2638869381","tag":{"amenity":"waste_basket"}},"type":"Feature"},
	{"geometry":{"coordinates":[8.507729,47.408963],"type":"Point"},"properties":{"osm_id":"2638869382","tag":{"amenity":"waste_basket"}},"type":"Feature"},
	{"geometry":{"coordinates":[8.514453,47.399636],"type":"Point"},"properties":{"osm_id":"3634962491","tag":{"amenity":"waste_basket"}},"type":"Feature"},
	{"geometry":{"coordinates":[8.515612,47.403202],"type":"Point"},"properties":{"osm_id":"3636049328","tag":{"amenity":"waste_basket"}},"type":"Feature"},
	{"geometry":{"coordinates":[8.514976,47.402896],"type":"Point"},"properties":{"osm_id":"3636049329","tag":{"amenity":"waste_basket"}},"type":"Feature"},
	{"geometry":{"coordinates":[8.514838,47.403079],"type":"Point"},"properties":{"osm_id":"3636049330","tag":{"amenity":"waste_basket"}},"type":"Feature"},
	{"geometry":{"coordinates":[8.468582,47.425723],"type":"Point"},"properties":{"osm_id":"3687840133","tag":{"amenity":"waste_basket"}},"type":"Feature"},
	{"geometry":{"coordinates":[8.447459,47.403056],"type":"Point"},"properties":{"osm_id":"3716940629","tag":{"amenity":"recycling","recycling:cans":"yes","recycling:clothes":"yes","recycling:glass_bottles":"yes","recycling_type":"container"}},"type":"Feature"},
	{"geometry":{"coordinates":[8.462545,47.400276],"type":"Point"},"properties":{"osm_id":"3744070528","tag":{"amenity":"recycling","recycling:cans":"yes","recycling:clothes":"yes","recycling:glass_bottles":"yes","recycling_type":"container"}},"type":"Feature"},
	{"geometry":{"coordinates":[8.496607,47.398563],"type":"Point"},"properties":{"osm_id":"3784107365","tag":{"amenity":"waste_basket"}},"type":"Feature"},
	{"geometry":{"coordinates":[8.495985,47.398645],"type":"Point"},"properties":{"osm_id":"3784107367","tag":{"amenity":"waste_basket"}},"type":"Feature"},
	{"geometry":{"coordinates":[8.452967,47.410898],"type":"Point"},"properties":{"osm_id":"3860873559","tag":{"amenity":"recycling","recycling:cans":"yes","recycling:glass_bottles":"yes","recycling_type":"container"}},"type":"Feature"},
	{"geometry":{"coordinates":[8.488269,47.433781],"type":"Point"},"properties":{"osm_id":"3867236160","tag":{"amenity":"waste_basket"}},"type":"Feature"},
	{"geometry":{"coordinates":[8.486618,47.432947],"type":"Point"},"properties":{"osm_id":"3867337857","tag":{"amenity":"waste_basket"}},"type":"Feature"},
	{"geometry":{"coordinates":[8.448427,47.413647],"type":"Point"},"properties":{"osm_id":"3883259364","tag":{"amenity":"recycling","recycling:glass_bottles":"yes","recycling_type":"container"}},"type":"Feature"},
	{"geometry":{"coordinates":[8.439256,47.456462],"type":"Point"},"properties":{"osm_id":"4123775328","tag":{"amenity":"recycling","recycling:aluminium":"yes","recycling:cans":"yes","recycling:glass":"yes","recycling:glass_bottles":"yes","recycling:scrap_metal":"yes","recycling_type":"container"}},"type":"Feature"},
	{"geometry":{"coordinates":[8.523877,47.413476],"type":"Point"},"properties":{"osm_id":"4131506418","tag":{"amenity":"waste_disposal","waste":"trash"}},"type":"Feature"},
	{"geometry":{"coordinates":[8.523857,47.413496],"type":"Point"},"properties":{"osm_id":"4131506419","tag":{"amenity":"waste_disposal","waste":"organic"}},"type":"Feature"},
	{"geometry":{"coordinates":[8.47002,47.44595],"type":"Point"},"properties":{"osm_id":"4199925042","tag":{"amenity":"waste_basket"}},"type":"Feature"},
	{"geometry":{"coordinates":[8.458642,47.444861],"type":"Point"},"properties":{"name":"immark Elektronik-Recycling Zentrum","osm_id":"4272743490","tag":{"amenity":"recycling","description":"Elektronikschrott Recycling","operator":"Immark AG","phone":"+41 58 360 75 75","website":"http://www.immark.ch"}},"type":"Feature"},
	{"geometry":{"coordinates":[8.481066,47.442306],"type":"Point"},"properties":{"osm_id":"4370373297","tag":{"amenity":"recycling","recycling:glass_bottles":"yes","recycling_type":"underfloor-container"}},"type":"Feature"},
	{"geometry":{"coordinates":[8.48113,47.44228],"type":"Point"},"properties":{"osm_id":"4370373298","tag":{"amenity":"recycling","recycling:clothes":"yes","recycling_type":"container"}},"type":"Feature"},
	{"geometry":{"coordinates":[8.510737,47.407359],"type":"Point"},"properties":{"osm_id":"4515274653","tag":{"amenity":"waste_basket"}},"type":"Feature"},
	{"geometry":{"coordinates":[8.510639,47.407767],"type":"Point"},"properties":{"osm_id":"4515274656","tag":{"amenity":"waste_basket"}},"type":"Feature"},
	{"geometry":{"coordinates":[8.510946,47.407641],"type":"Point"},"properties":{"osm_id":"4515274659","tag":{"amenity":"waste_basket"}},"type":"Feature"},
	{"geometry":{"coordinates":[8.510637,47.407185],"type":"Point"},"properties":{"osm_id":"4515274668","tag":{"amenity":"waste_basket"}},"type":"Feature"},
	{"geometry":{"coordinates":[8.513019,47.4071],"type":"Point"},"properties":{"osm_id":"4515274669","tag":{"amenity":"waste_basket"}},"type":"Feature"},
	{"geometry":{"coordinates":[8.509298,47.411765],"type":"Point"},"properties":{"osm_id":"4526947092","tag":{"amenity":"waste_basket"}},"type":"Feature"},
	{"geometry":{"coordinates":[8.510075,47.411548],"type":"Point"},"properties":{"osm_id":"4526959389","tag":{"amenity":"waste_basket"}},"type":"Feature"},
	{"geometry":{"coordinates":[8.49948,47.402205],"type":"Point"},"properties":{"osm_id":"4591535479","tag":{"amenity":"waste_basket"}},"type":"Feature"},
	{"geometry":{"coordinates":[8.481218,47.405551],"type":"Point"},"properties":{"osm_id":"4864530724","tag":{"amenity":"waste_basket"}},"type":"Feature"},
	{"geometry":{"coordinates":[8.500913,47.401605],"type":"Point"},"properties":{"osm_id":"4864530738","tag":{"amenity":"waste_basket"}},"type":"Feature"},
	{"geometry":{"coordinates":[8.480878,47.409366],"type":"Point"},"properties":{"osm_id":"4864530777","tag":{"amenity":"recycling","description":"Container: Braunglas (1), Weissglas (2), Gr\u00c3\u00bcnglas (3), Metall (2)","opening_hours":"Mo-Sa 07:00-20:00","operator":"ERZ","recycling:aluminium":"yes","recycling:cans":"yes","recycling:glass_bottles":"yes","recycling_type":"container"}},"type":"Feature"},
	{"geometry":{"coordinates":[8.512292,47.42247],"type":"Point"},"properties":{"osm_id":"4868938071","tag":{"amenity":"recycling","description":"Container: Metall (2), Gr\u00c3\u00bcnglas (1), Weissglas (1), Braunglas (1)","opening_hours":"Mo-Sa 07:00-20:00","operator":"ERZ","recycling:aluminium":"yes","recycling:cans":"yes","recycling:glass_bottles":"yes","recycling_type":"container"}},"type":"Feature"},
	{"geometry":{"coordinates":[8.511173,47.424859],"type":"Point"},"properties":{"osm_id":"4868938072","tag":{"amenity":"recycling","description":"Container: Metall (2), Gr\u00c3\u00bcnglas (3), Weissglas (2), Braunglas (1)","opening_hours":"Mo-Sa 07:00-20:00","operator":"ERZ","recycling:aluminium":"yes","recycling:cans":"yes","recycling:glass_bottles":"yes","recycling_type":"container"}},"type":"Feature"},
	{"geometry":{"coordinates":[8.509373,47.42061],"type":"Point"},"properties":{"osm_id":"4868938073","tag":{"amenity":"recycling","description":"Container: Braunglas (1), Weissglas (2), Gr\u00c3\u00bcnglas (2), Metall (3); Speise\u00c3\u00b6l/Mineral\u00c3\u00b6l","opening_hours":"Mo-Sa 07:00-20:00","operator":"ERZ","recycling:aluminium":"yes","recycling:cans":"yes","recycling:cooking_oil":"yes","recycling:engine_oil":"yes","recycling:glass_bottles":"yes","recycling_type":"container","wheelchair":"yes"}},"type":"Feature"},
	{"geometry":{"coordinates":[8.522866,47.423828],"type":"Point"},"properties":{"osm_id":"4868938077","tag":{"amenity":"recycling","description":"Container: Metall (1), Gr\u00c3\u00bcnglas (1), Weissglas (1), Braunglas (1)","opening_hours":"Mo-Sa 07:00-20:00","operator":"ERZ","recycling:aluminium":"yes","recycling:cans":"yes","recycling:glass_bottles":"yes","recycling_type":"container","wheelchair":"yes"}},"type":"Feature"},
	{"geometry":{"coordinates":[8.474364,47.435194],"type":"Point"},"properties":{"osm_id":"5048133239","tag":{"amenity":"waste_basket","waste":"trash"}},"type":"Feature"},
	{"geometry":{"coordinates":[8.470018,47.409021],"type":"Point"},"properties":{"osm_id":"5063552770","tag":{"amenity":"recycling","recycling:glass":"yes","recycling_type":"container"}},"type":"Feature"},
	{"geometry":{"coordinates":[8.5128,47.411882],"type":"Point"},"properties":{"osm_id":"5080299169","tag":{"amenity":"recycling","operator":"Texaid","recycling:clothes":"yes","recycling:shoes":"yes","recycling_type":"container"}},"type":"Feature"},
	{"geometry":{"coordinates":[8.50588,47.407593],"type":"Point"},"properties":{"osm_id":"5080302322","tag":{"amenity":"recycling","description":"Container: Braunglas (1), Weissglas (2), Gr\u00c3\u00bcnglas (2), Metall (2)","opening_hours":"Mo-Sa 07:00-20:00","operator":"ERZ","recycling:aluminium":"yes","recycling:cans":"yes","recycling:glass_bottles":"yes","recycling_type":"container"}},"type":"Feature"},
	{"geometry":{"coordinates":[8.506121,47.418719],"type":"Point"},"properties":{"osm_id":"5109434458","tag":{"amenity":"waste_basket"}},"type":"Feature"},
	{"geometry":{"coordinates":[8.50664,47.419417],"type":"Point"},"properties":{"osm_id":"5109434462","tag":{"amenity":"waste_basket"}},"type":"Feature"},
	{"geometry":{"coordinates":[8.50751,47.421463],"type":"Point"},"properties":{"osm_id":"5109434509","tag":{"amenity":"waste_basket"}},"type":"Feature"},
	{"geometry":{"coordinates":[8.509872,47.422088],"type":"Point"},"properties":{"osm_id":"5109437026","tag":{"amenity":"waste_basket"}},"type":"Feature"},
	{"geometry":{"coordinates":[8.509847,47.42189],"type":"Point"},"properties":{"osm_id":"5109437027","tag":{"amenity":"waste_basket"}},"type":"Feature"},
	{"geometry":{"coordinates":[8.507929,47.420921],"type":"Point"},"properties":{"osm_id":"5109437048","tag":{"amenity":"waste_basket"}},"type":"Feature"},
	{"geometry":{"coordinates":[8.473144,47.437166],"type":"Point"},"properties":{"osm_id":"5111040204","tag":{"amenity":"waste_basket"}},"type":"Feature"},
	{"geometry":{"coordinates":[8.472845,47.436874],"type":"Point"},"properties":{"osm_id":"5111040208","tag":{"amenity":"waste_basket"}},"type":"Feature"},
	{"geometry":{"coordinates":[8.472444,47.436255],"type":"Point"},"properties":{"osm_id":"5111040244","tag":{"amenity":"waste_basket"}},"type":"Feature"},
	{"geometry":{"coordinates":[8.472649,47.436218],"type":"Point"},"properties":{"osm_id":"5111040245","tag":{"amenity":"waste_basket"}},"type":"Feature"},
	{"geometry":{"coordinates":[8.522805,47.416923],"type":"Point"},"properties":{"osm_id":"5111045522","tag":{"amenity":"waste_basket"}},"type":"Feature"},
	{"geometry":{"coordinates":[8.522959,47.416848],"type":"Point"},"properties":{"osm_id":"5111045523","tag":{"amenity":"waste_basket"}},"type":"Feature"},
	{"geometry":{"coordinates":[8.501056,47.424904],"type":"Point"},"properties":{"osm_id":"5149582833","tag":{"amenity":"waste_basket"}},"type":"Feature"},
	{"geometry":{"coordinates":[8.501111,47.425011],"type":"Point"},"properties":{"osm_id":"5149582842","tag":{"amenity":"waste_basket"}},"type":"Feature"},
	{"geometry":{"coordinates":[8.516936,47.403287],"type":"Point"},"properties":{"osm_id":"5176392770","tag":{"amenity":"waste_basket"}},"type":"Feature"},
	{"geometry":{"coordinates":[8.517096,47.403112],"type":"Point"},"properties":{"osm_id":"5176392809","tag":{"amenity":"waste_basket","vending":"excrement_bags"}},"type":"Feature"},
	{"geometry":{"coordinates":[8.511973,47.400489],"type":"Point"},"properties":{"osm_id":"5176392850","tag":{"amenity":"waste_basket"}},"type":"Feature"},
	{"geometry":{"coordinates":[8.484878,47.444287],"type":"Point"},"properties":{"osm_id":"5182433056","tag":{"amenity":"waste_basket"}},"type":"Feature"},
	{"geometry":{"coordinates":[8.505151,47.42389],"type":"Point"},"properties":{"osm_id":"5198975471","tag":{"amenity":"waste_basket"}},"type":"Feature"},
	{"geometry":{"coordinates":[8.501735,47.421289],"type":"Point"},"properties":{"osm_id":"5202191359","tag":{"amenity":"waste_basket"}},"type":"Feature"},
	{"geometry":{"coordinates":[8.49866,47.423101],"type":"Point"},"properties":{"osm_id":"5202191361","tag":{"amenity":"recycling","operator":"Texaid","recycling:clothes":"yes","recycling:shoes":"yes","recycling_type":"container"}},"type":"Feature"},
	{"geometry":{"coordinates":[8.496693,47.42384],"type":"Point"},"properties":{"osm_id":"5202191368","tag":{"amenity":"waste_basket","manufacturer":"Anta Swiss"}},"type":"Feature"},
	{"geometry":{"coordinates":[8.512817,47.415899],"type":"Point"},"properties":{"osm_id":"5202191377","tag":{"amenity":"waste_basket"}},"type":"Feature"},
	{"geometry":{"coordinates":[8.513172,47.415519],"type":"Point"},"properties":{"osm_id":"5375489137","tag":{"amenity":"waste_basket"}},"type":"Feature"},
	{"geometry":{"coordinates":[8.524073,47.41078],"type":"Point"},"properties":{"osm_id":"5375489722","tag":{"amenity":"waste_basket"}},"type":"Feature"},
	{"geometry":{"coordinates":[8.524154,47.410504],"type":"Point"},"properties":{"osm_id":"5375489723","tag":{"amenity":"waste_basket"}},"type":"Feature"},
	{"geometry":{"coordinates":[8.523213,47.417003],"type":"Point"},"properties":{"osm_id":"5375490325","tag":{"amenity":"waste_basket","operator":"Robidog","vending":"excrement_bags"}},"type":"Feature"},
	{"geometry":{"coordinates":[8.523048,47.417345],"type":"Point"},"properties":{"osm_id":"5375490330","tag":{"amenity":"waste_basket"}},"type":"Feature"},
	{"geometry":{"coordinates":[8.501924,47.420968],"type":"Point"},"properties":{"osm_id":"5377673846","tag":{"amenity":"waste_basket"}},"type":"Feature"},
	{"geometry":{"coordinates":[8.50056,47.421218],"type":"Point"},"properties":{"osm_id":"5377673858","tag":{"amenity":"waste_basket"}},"type":"Feature"},
	{"geometry":{"coordinates":[8.486427,47.402938],"type":"Point"},"properties":{"osm_id":"5414514568","tag":{"amenity":"waste_basket"}},"type":"Feature"},
	{"geometry":{"coordinates":[8.486356,47.403778],"type":"Point"},"properties":{"osm_id":"5414514605","tag":{"amenity":"waste_basket"}},"type":"Feature"},
	{"geometry":{"coordinates":[8.486337,47.403701],"type":"Point"},"properties":{"osm_id":"5414514613","tag":{"amenity":"waste_basket"}},"type":"Feature"},
	{"geometry":{"coordinates":[8.487946,47.403531],"type":"Point"},"properties":{"osm_id":"5414515027","tag":{"amenity":"recycling","operator":"Texaid","recycling:clothes":"yes","recycling:shoes":"yes","recycling_type":"container"}},"type":"Feature"},
	{"geometry":{"coordinates":[8.509495,47.413896],"type":"Point"},"properties":{"osm_id":"5520273266","tag":{"amenity":"waste_basket"}},"type":"Feature"},
	{"geometry":{"coordinates":[8.506022,47.41259],"type":"Point"},"properties":{"osm_id":"5520276282","tag":{"amenity":"waste_basket"}},"type":"Feature"},
	{"geometry":{"coordinates":[8.512044,47.414191],"type":"Point"},"properties":{"osm_id":"5520276621","tag":{"amenity":"waste_basket"}},"type":"Feature"},
	{"geometry":{"coordinates":[8.50976,47.411891],"type":"Point"},"properties":{"osm_id":"5520276762","tag":{"amenity":"waste_basket"}},"type":"Feature"},
	{"geometry":{"coordinates":[8.506932,47.41626],"type":"Point"},"properties":{"osm_id":"5520276855","tag":{"amenity":"waste_basket"}},"type":"Feature"},
	{"geometry":{"coordinates":[8.50702,47.416061],"type":"Point"},"properties":{"osm_id":"5520276856","tag":{"amenity":"waste_basket"}},"type":"Feature"},
	{"geometry":{"coordinates":[8.503473,47.418803],"type":"Point"},"properties":{"osm_id":"5528138182","tag":{"amenity":"waste_basket"}},"type":"Feature"},
	{"geometry":{"coordinates":[8.503737,47.417821],"type":"Point"},"properties":{"osm_id":"5530579384","tag":{"amenity":"waste_basket"}},"type":"Feature"},
	{"geometry":{"coordinates":[8.505341,47.404049],"type":"Point"},"properties":{"osm_id":"5542481628","tag":{"amenity":"waste_basket","waste":"trash"}},"type":"Feature"},
	{"geometry":{"coordinates":[8.50673,47.402532],"type":"Point"},"properties":{"osm_id":"5542481645","tag":{"amenity":"waste_basket","waste":"trash"}},"type":"Feature"},
	{"geometry":{"coordinates":[8.494421,47.399977],"type":"Point"},"properties":{"osm_id":"5547964032","tag":{"amenity":"waste_basket"}},"type":"Feature"},
	{"geometry":{"coordinates":[8.492949,47.399636],"type":"Point"},"properties":{"osm_id":"5547964053","tag":{"amenity":"waste_basket","vending":"excrement_bags"}},"type":"Feature"},
	{"geometry":{"coordinates":[8.489373,47.399956],"type":"Point"},"properties":{"osm_id":"5547964068","tag":{"amenity":"waste_basket"}},"type":"Feature"},
	{"geometry":{"coordinates":[8.485673,47.400338],"type":"Point"},"properties":{"osm_id":"5547964074","tag":{"amenity":"waste_basket"}},"type":"Feature"},
	{"geometry":{"coordinates":[8.486323,47.401107],"type":"Point"},"properties":{"osm_id":"5547964080","tag":{"amenity":"waste_basket"}},"type":"Feature"},
	{"geometry":{"coordinates":[8.518243,47.398625],"type":"Point"},"properties":{"osm_id":"5578563235","tag":{"amenity":"waste_basket"}},"type":"Feature"},
	{"geometry":{"coordinates":[8.505328,47.405019],"type":"Point"},"properties":{"osm_id":"5584513770","tag":{"amenity":"waste_basket"}},"type":"Feature"},
	{"geometry":{"coordinates":[8.505008,47.404998],"type":"Point"},"properties":{"osm_id":"5584513772","tag":{"amenity":"waste_basket"}},"type":"Feature"},
	{"geometry":{"coordinates":[8.493174,47.43058],"type":"Point"},"properties":{"osm_id":"5599155346","tag":{"amenity":"waste_basket","waste":"trash"}},"type":"Feature"},
	{"geometry":{"coordinates":[8.491608,47.402841],"type":"Point"},"properties":{"osm_id":"5617894929","tag":{"amenity":"waste_basket"}},"type":"Feature"},
	{"geometry":{"coordinates":[8.491907,47.402674],"type":"Point"},"properties":{"osm_id":"5617894930","tag":{"amenity":"waste_basket"}},"type":"Feature"},
	{"geometry":{"coordinates":[8.475052,47.413232],"type":"Point"},"properties":{"osm_id":"5617894972","tag":{"amenity":"waste_basket"}},"type":"Feature"},
	{"geometry":{"coordinates":[8.475435,47.414356],"type":"Point"},"properties":{"osm_id":"5617897519","tag":{"amenity":"waste_basket"}},"type":"Feature"},
	{"geometry":{"coordinates":[8.482554,47.415651],"type":"Point"},"properties":{"osm_id":"5617898342","tag":{"amenity":"recycling","operator":"Texaid","recycling:clothes":"yes","recycling:shoes":"yes","recycling_type":"container"}},"type":"Feature"},
	{"geometry":{"coordinates":[8.501748,47.399251],"type":"Point"},"properties":{"osm_id":"5617898532","tag":{"amenity":"waste_basket"}},"type":"Feature"},
	{"geometry":{"coordinates":[8.502618,47.424093],"type":"Point"},"properties":{"osm_id":"5628488796","tag":{"amenity":"waste_disposal"}},"type":"Feature"},
	{"geometry":{"coordinates":[8.492411,47.40565],"type":"Point"},"properties":{"osm_id":"5635222409","tag":{"amenity":"waste_basket"}},"type":"Feature"},
	{"geometry":{"coordinates":[8.490031,47.407279],"type":"Point"},"properties":{"osm_id":"5635222416","tag":{"amenity":"waste_basket"}},"type":"Feature"},
	{"geometry":{"coordinates":[8.494764,47.400129],"type":"Point"},"properties":{"osm_id":"5635227375","tag":{"amenity":"waste_basket"}},"type":"Feature"},
	{"geometry":{"coordinates":[8.490296,47.401431],"type":"Point"},"properties":{"osm_id":"5635227386","tag":{"amenity":"waste_basket"}},"type":"Feature"},
	{"geometry":{"coordinates":[8.494815,47.403926],"type":"Point"},"properties":{"osm_id":"5635227407","tag":{"amenity":"waste_basket"}},"type":"Feature"},
	{"geometry":{"coordinates":[8.492771,47.405361],"type":"Point"},"properties":{"osm_id":"5635227417","tag":{"amenity":"waste_basket"}},"type":"Feature"},
	{"geometry":{"coordinates":[8.48966,47.407805],"type":"Point"},"properties":{"osm_id":"5635232030","tag":{"amenity":"waste_basket"}},"type":"Feature"},
	{"geometry":{"coordinates":[8.489034,47.408577],"type":"Point"},"properties":{"osm_id":"5635232053","tag":{"amenity":"waste_basket"}},"type":"Feature"},
	{"geometry":{"coordinates":[8.486025,47.410496],"type":"Point"},"properties":{"osm_id":"5635232267","tag":{"amenity":"waste_basket"}},"type":"Feature"},
	{"geometry":{"coordinates":[8.483801,47.412089],"type":"Point"},"properties":{"osm_id":"5635232287","tag":{"amenity":"waste_basket"}},"type":"Feature"},
	{"geometry":{"coordinates":[8.483994,47.412363],"type":"Point"},"properties":{"osm_id":"5635232291","tag":{"amenity":"waste_basket"}},"type":"Feature"},
	{"geometry":{"coordinates":[8.504673,47.399839],"type":"Point"},"properties":{"osm_id":"5635232316","tag":{"amenity":"waste_basket"}},"type":"Feature"},
	{"geometry":{"coordinates":[8.504749,47.399699],"type":"Point"},"properties":{"osm_id":"5635232320","tag":{"amenity":"waste_basket"}},"type":"Feature"},
	{"geometry":{"coordinates":[8.496303,47.402238],"type":"Point"},"properties":{"osm_id":"5635232706","tag":{"amenity":"waste_basket"}},"type":"Feature"},
	{"geometry":{"coordinates":[8.498218,47.403092],"type":"Point"},"properties":{"osm_id":"5635232921","tag":{"amenity":"waste_basket"}},"type":"Feature"},
	{"geometry":{"coordinates":[8.498232,47.40288],"type":"Point"},"properties":{"osm_id":"5635232922","tag":{"amenity":"waste_basket"}},"type":"Feature"},
	{"geometry":{"coordinates":[8.499586,47.402528],"type":"Point"},"properties":{"osm_id":"5635232930","tag":{"amenity":"waste_basket"}},"type":"Feature"},
	{"geometry":{"coordinates":[8.50752,47.408561],"type":"Point"},"properties":{"osm_id":"5637859351","tag":{"amenity":"waste_basket"}},"type":"Feature"},
	{"geometry":{"coordinates":[8.505346,47.404052],"type":"Point"},"properties":{"osm_id":"5637859952","tag":{"amenity":"waste_basket"}},"type":"Feature"},
	{"geometry":{"coordinates":[8.485147,47.405931],"type":"Point"},"properties":{"osm_id":"5647919298","tag":{"amenity":"waste_basket"}},"type":"Feature"},
	{"geometry":{"coordinates":[8.481582,47.407129],"type":"Point"},"properties":{"osm_id":"5647919789","tag":{"amenity":"waste_basket"}},"type":"Feature"},
	{"geometry":{"coordinates":[8.491451,47.405058],"type":"Point"},"properties":{"osm_id":"5647919801","tag":{"amenity":"waste_basket"}},"type":"Feature"},
	{"geometry":{"coordinates":[8.490565,47.405323],"type":"Point"},"properties":{"osm_id":"5647919810","tag":{"amenity":"recycling","operator":"Texaid","recycling:clothes":"yes","recycling:shoes":"yes","recycling_type":"container"}},"type":"Feature"},
	{"geometry":{"coordinates":[8.488685,47.405866],"type":"Point"},"properties":{"osm_id":"5647919812","tag":{"amenity":"waste_basket"}},"type":"Feature"},
	{"geometry":{"coordinates":[8.486629,47.407487],"type":"Point"},"properties":{"osm_id":"5647920640","tag":{"amenity":"waste_basket"}},"type":"Feature"},
	{"geometry":{"coordinates":[8.4802,47.409823],"type":"Point"},"properties":{"osm_id":"5647921053","tag":{"amenity":"waste_basket"}},"type":"Feature"},
	{"geometry":{"coordinates":[8.479489,47.410035],"type":"Point"},"properties":{"osm_id":"5647921069","tag":{"amenity":"waste_basket"}},"type":"Feature"},
	{"geometry":{"coordinates":[8.47981,47.410152],"type":"Point"},"properties":{"osm_id":"5647921070","tag":{"amenity":"waste_basket"}},"type":"Feature"},
	{"geometry":{"coordinates":[8.496226,47.401682],"type":"Point"},"properties":{"osm_id":"5647973163","tag":{"amenity":"waste_basket"}},"type":"Feature"},
	{"geometry":{"coordinates":[8.480183,47.414399],"type":"Point"},"properties":{"osm_id":"5649674244","tag":{"amenity":"waste_basket"}},"type":"Feature"},
	{"geometry":{"coordinates":[8.477474,47.413748],"type":"Point"},"properties":{"osm_id":"5649674252","tag":{"amenity":"waste_basket"}},"type":"Feature"},
	{"geometry":{"coordinates":[8.494685,47.400725],"type":"Point"},"properties":{"osm_id":"5649674278","tag":{"amenity":"waste_basket"}},"type":"Feature"},
	{"geometry":{"coordinates":[8.484655,47.410878],"type":"Point"},"properties":{"osm_id":"5649675532","tag":{"amenity":"waste_basket"}},"type":"Feature"},
	{"geometry":{"coordinates":[8.490787,47.401074],"type":"Point"},"properties":{"osm_id":"5649675541","tag":{"amenity":"waste_basket"}},"type":"Feature"},
	{"geometry":{"coordinates":[8.511341,47.423992],"type":"Point"},"properties":{"osm_id":"5649839100","tag":{"amenity":"waste_basket"}},"type":"Feature"},
	{"geometry":{"coordinates":[8.51121,47.424101],"type":"Point"},"properties":{"osm_id":"5649839102","tag":{"amenity":"waste_basket"}},"type":"Feature"},
	{"geometry":{"coordinates":[8.520802,47.423813],"type":"Point"},"properties":{"osm_id":"5649839115","tag":{"amenity":"waste_basket"}},"type":"Feature"},
	{"geometry":{"coordinates":[8.479228,47.409624],"type":"Point"},"properties":{"osm_id":"5651578183","tag":{"amenity":"waste_basket"}},"type":"Feature"},
	{"geometry":{"coordinates":[8.507668,47.400935],"type":"Point"},"properties":{"osm_id":"5651578204","tag":{"amenity":"recycling","capacity":"3","operator":"Texaid","recycling:clothes":"yes","recycling:shoes":"yes","recycling_type":"container"}},"type":"Feature"},
	{"geometry":{"coordinates":[8.510112,47.398817],"type":"Point"},"properties":{"osm_id":"5651578208","tag":{"amenity":"waste_basket"}},"type":"Feature"},
	{"geometry":{"coordinates":[8.489611,47.402318],"type":"Point"},"properties":{"osm_id":"5653825730","tag":{"amenity":"waste_basket"}},"type":"Feature"},
	{"geometry":{"coordinates":[8.490162,47.402242],"type":"Point"},"properties":{"osm_id":"5653825732","tag":{"amenity":"waste_basket"}},"type":"Feature"},
	{"geometry":{"coordinates":[8.498097,47.401226],"type":"Point"},"properties":{"osm_id":"5653825742","tag":{"amenity":"waste_basket"}},"type":"Feature"},
	{"geometry":{"coordinates":[8.497433,47.404896],"type":"Point"},"properties":{"osm_id":"5667002077","tag":{"amenity":"waste_basket"}},"type":"Feature"},
	{"geometry":{"coordinates":[8.495337,47.406478],"type":"Point"},"properties":{"osm_id":"5667003495","tag":{"amenity":"waste_basket"}},"type":"Feature"},
	{"geometry":{"coordinates":[8.494565,47.407892],"type":"Point"},"properties":{"osm_id":"5667003518","tag":{"amenity":"waste_basket"}},"type":"Feature"},
	{"geometry":{"coordinates":[8.494319,47.408418],"type":"Point"},"properties":{"osm_id":"5667003822","tag":{"amenity":"waste_basket"}},"type":"Feature"},
	{"geometry":{"coordinates":[8.494337,47.408648],"type":"Point"},"properties":{"osm_id":"5667003832","tag":{"amenity":"waste_basket"}},"type":"Feature"},
	{"geometry":{"coordinates":[8.495041,47.409214],"type":"Point"},"properties":{"osm_id":"5667003922","tag":{"amenity":"waste_basket"}},"type":"Feature"},
	{"geometry":{"coordinates":[8.513627,47.398878],"type":"Point"},"properties":{"osm_id":"5669948867","tag":{"amenity":"waste_basket"}},"type":"Feature"},
	{"geometry":{"coordinates":[8.513412,47.399082],"type":"Point"},"properties":{"osm_id":"5669948869","tag":{"amenity":"waste_basket"}},"type":"Feature"},
	{"geometry":{"coordinates":[8.498624,47.40257],"type":"Point"},"properties":{"osm_id":"5669948884","tag":{"amenity":"waste_basket"}},"type":"Feature"},
	{"geometry":{"coordinates":[8.490044,47.409307],"type":"Point"},"properties":{"osm_id":"5669952400","tag":{"amenity":"waste_basket"}},"type":"Feature"},
	{"geometry":{"coordinates":[8.485883,47.411785],"type":"Point"},"properties":{"osm_id":"5669952406","tag":{"amenity":"waste_basket"}},"type":"Feature"},
	{"geometry":{"coordinates":[8.509164,47.419226],"type":"Point"},"properties":{"osm_id":"5672904658","tag":{"amenity":"waste_basket","operator":"Robidog","vending":"excrement_bags"}},"type":"Feature"},
	{"geometry":{"coordinates":[8.52279,47.423696],"type":"Point"},"properties":{"osm_id":"5684864331","tag":{"amenity":"waste_basket"}},"type":"Feature"},
	{"geometry":{"coordinates":[8.491293,47.399333],"type":"Point"},"properties":{"osm_id":"5789035452","tag":{"amenity":"waste_basket"}},"type":"Feature"},
	{"geometry":{"coordinates":[8.480056,47.404439],"type":"Point"},"properties":{"osm_id":"5863379113","tag":{"amenity":"waste_basket"}},"type":"Feature"},
	{"geometry":{"coordinates":[8.473802,47.402858],"type":"Point"},"properties":{"osm_id":"5863380685","tag":{"amenity":"waste_basket"}},"type":"Feature"},
	{"geometry":{"coordinates":[8.472574,47.398394],"type":"Point"},"properties":{"osm_id":"5885030104","tag":{"amenity":"waste_basket","manufacturer":"Anta Swiss"}},"type":"Feature"},
	{"geometry":{"coordinates":[8.521412,47.443902],"type":"Point"},"properties":{"osm_id":"6508620582","tag":{"access":"yes","amenity":"waste_basket","leisure":"firepit","waste":"trash"}},"type":"Feature"},
	{"geometry":{"coordinates":[8.513738,47.451721],"type":"Point"},"properties":{"osm_id":"6508629051","tag":{"amenity":"waste_basket","waste":"dog_excrement"}},"type":"Feature"},
	{"geometry":{"coordinates":[8.47175,47.439701],"type":"Point"},"properties":{"name":"Labdoo Annahmestelle f\u00c3\u00bcr Laptops","osm_id":"6543130833","tag":{"addr:city":"Regensdorf","addr:housenumber":"80","addr:postcode":"8105","addr:street":"Althardstrasse","amenity":"recycling","brand":"Labdoo","charity":"yes","description":"Bei SAP (Schweiz) AG k\u00c3\u00b6nnen zu den \u00c3\u00bcblichen B\u00c3\u00bcrozeiten von Montag bis Freitag Laptops an der Rezeption bei Frau Irene G\u00c3\u00b6gl deponiert werden.","location":"indoor","operator":"SAP (Schweiz) AG","recycling:computers":"yes","recycling:mobile_phones":"yes","service_times":"Mo-Fr","website":"https://www.labdoo.org/de/hub?h=16415"}},"type":"Feature"},
	{"geometry":{"coordinates":[8.511325,47.43123],"type":"Point"},"properties":{"osm_id":"6555321614","tag":{"amenity":"waste_basket"}},"type":"Feature"},
	{"geometry":{"coordinates":[8.510796,47.431524],"type":"Point"},"properties":{"osm_id":"6555330788","tag":{"amenity":"waste_basket"}},"type":"Feature"},
	{"geometry":{"coordinates":[8.502242,47.436545],"type":"Point"},"properties":{"osm_id":"6585739631","tag":{"amenity":"waste_basket","waste":"trash"}},"type":"Feature"},
	{"geometry":{"coordinates":[8.457553,47.438377],"type":"Point"},"properties":{"name":"Entsorgungsplatz Furttal","osm_id":"6649845160","tag":{"amenity":"recycling","opening_hours":"Mo,We,Fr 14:00-18:00, Sa 09:00-15:00","recycling:batteries":"yes","recycling:cans":"yes","recycling:car_batteries":"yes","recycling:cardboard":"yes","recycling:clothes":"yes","recycling:cooking_oil":"yes","recycling:electrical_appliances":"yes","recycling:engine_oil":"yes","recycling:glass":"yes","recycling:glass_bottles":"yes","recycling:paper":"yes","recycling:polystyrene_foam":"yes","recycling:scrap_metal":"yes","recycling:shoes":"yes","recycling:tyres":"yes","recycling_type":"centre"}},"type":"Feature"},
	{"geometry":{"coordinates":[8.459179,47.405267],"type":"Point"},"properties":{"osm_id":"6653397192","tag":{"amenity":"waste_basket","waste":"trash"}},"type":"Feature"},
	{"geometry":{"coordinates":[8.455631,47.400315],"type":"Point"},"properties":{"osm_id":"6676118172","tag":{"amenity":"waste_basket"}},"type":"Feature"},
	{"geometry":{"coordinates":[8.489378,47.416729],"type":"Point"},"properties":{"osm_id":"6835550408","tag":{"amenity":"waste_basket","waste":"trash"}},"type":"Feature"},
	{"geometry":{"coordinates":[8.49239,47.444394],"type":"Point"},"properties":{"osm_id":"6919940497","tag":{"amenity":"waste_basket","waste":"trash"}},"type":"Feature"},
	{"geometry":{"coordinates":[8.490263,47.444971],"type":"Point"},"properties":{"osm_id":"6919948662","tag":{"amenity":"waste_basket","waste":"trash"}},"type":"Feature"},
	{"geometry":{"coordinates":[8.472869,47.455889],"type":"Point"},"properties":{"osm_id":"6919970566","tag":{"amenity":"waste_basket","waste":"trash"}},"type":"Feature"},
	{"geometry":{"coordinates":[8.487035,47.450352],"type":"Point"},"properties":{"osm_id":"6919991546","tag":{"amenity":"waste_basket","waste":"trash"}},"type":"Feature"},
	{"geometry":{"coordinates":[8.488114,47.447932],"type":"Point"},"properties":{"osm_id":"6919995967","tag":{"amenity":"waste_basket","waste":"dog_excrement"}},"type":"Feature"},
	{"geometry":{"coordinates":[8.461182,47.456119],"type":"Point"},"properties":{"osm_id":"6919999802","tag":{"amenity":"waste_basket","waste":"dog_excrement"}},"type":"Feature"},
	{"geometry":{"coordinates":[8.471531,47.455877],"type":"Point"},"properties":{"osm_id":"6920014313","tag":{"addr:street":"Dachsl\u00c3\u00b6cher-Ring","amenity":"waste_basket","waste":"trash"}},"type":"Feature"},
	{"geometry":{"coordinates":[8.47949,47.454],"type":"Point"},"properties":{"osm_id":"6920016853","tag":{"amenity":"waste_basket","waste":"trash"}},"type":"Feature"},
	{"geometry":{"coordinates":[8.467014,47.456276],"type":"Point"},"properties":{"osm_id":"6920020477","tag":{"amenity":"waste_basket","waste":"trash"}},"type":"Feature"},
	{"geometry":{"coordinates":[8.485469,47.450895],"type":"Point"},"properties":{"osm_id":"6920038325","tag":{"amenity":"waste_basket","waste":"dog_excrement"}},"type":"Feature"},
	{"geometry":{"coordinates":[8.493551,47.443477],"type":"Point"},"properties":{"osm_id":"6920048742","tag":{"amenity":"waste_basket","waste":"dog_excrement"}},"type":"Feature"},
	{"geometry":{"coordinates":[8.494487,47.440753],"type":"Point"},"properties":{"osm_id":"6920062191","tag":{"amenity":"waste_basket","waste":"dog_excrement"}},"type":"Feature"},
	{"geometry":{"coordinates":[8.462344,47.40889],"type":"Point"},"properties":{"osm_id":"6969240834","tag":{"amenity":"waste_basket","waste":"trash"}},"type":"Feature"},
	{"geometry":{"coordinates":[8.524682,47.450839],"type":"Point"},"properties":{"osm_id":"7190282202","tag":{"amenity":"waste_basket","waste":"dog_excrement"}},"type":"Feature"},
	{"geometry":{"coordinates":[8.443936,47.401287],"type":"Point"},"properties":{"osm_id":"7285452150","tag":{"amenity":"recycling","recycling:cartons":"yes","recycling:green_waste":"yes","recycling:paper":"yes","recycling:waste":"yes","recycling_type":"container"}},"type":"Feature"},
	{"geometry":{"coordinates":[8.493171,47.457438],"type":"Point"},"properties":{"osm_id":"7398614939","tag":{"amenity":"waste_basket","waste":"trash"}},"type":"Feature"},
	{"geometry":{"coordinates":[8.493006,47.457435],"type":"Point"},"properties":{"osm_id":"7398614942","tag":{"amenity":"waste_basket","waste":"dog_excrement"}},"type":"Feature"},
	{"geometry":{"coordinates":[8.498981,47.419196],"type":"Point"},"properties":{"osm_id":"7449199999","tag":{"amenity":"waste_basket","waste":"dog_excrement"}},"type":"Feature"},
	{"geometry":{"coordinates":[8.525325,47.44315],"type":"Point"},"properties":{"osm_id":"7503664462","tag":{"amenity":"waste_basket","waste":"trash"}},"type":"Feature"},
	{"geometry":{"coordinates":[8.521445,47.44385],"type":"Point"},"properties":{"osm_id":"7503683034","tag":{"amenity":"waste_basket","waste":"trash"}},"type":"Feature"},
	{"geometry":{"coordinates":[8.525021,47.442954],"type":"Point"},"properties":{"osm_id":"7504091879","tag":{"amenity":"waste_basket","waste":"trash"}},"type":"Feature"},
	{"geometry":{"coordinates":[8.467758,47.444976],"type":"Point"},"properties":{"osm_id":"7618687082","tag":{"amenity":"waste_basket"}},"type":"Feature"},
	{"geometry":{"coordinates":[8.469217,47.444986],"type":"Point"},"properties":{"osm_id":"7618687083","tag":{"amenity":"waste_basket"}},"type":"Feature"},
	{"geometry":{"coordinates":[8.465497,47.444051],"type":"Point"},"properties":{"osm_id":"7618687289","tag":{"amenity":"waste_basket"}},"type":"Feature"},
	{"geometry":{"coordinates":[8.466536,47.44812],"type":"Point"},"properties":{"osm_id":"7618687297","tag":{"amenity":"waste_basket"}},"type":"Feature"},
	{"geometry":{"coordinates":[8.466353,47.448046],"type":"Point"},"properties":{"osm_id":"7618687298","tag":{"amenity":"waste_basket"}},"type":"Feature"},
	{"geometry":{"coordinates":[8.470102,47.438336],"type":"Point"},"properties":{"osm_id":"7633179341","tag":{"amenity":"waste_basket"}},"type":"Feature"}
]
}
