{
"type": "FeatureCollection",
"features": [
	{"geometry":{"coordinates":[8.513371,47.381848],"type":"Point"},"properties":{"osm_id":"52727102","tag":{"amenity":"recycling","operator":"Texaid","recycling:clothes":"yes","recycling:shoes":"yes","recycling_type":"container"}},"type":"Feature"},
	{"geometry":{"coordinates":[8.517015,47.361302],"type":"Point"},"properties":{"osm_id":"267123823","tag":{"amenity":"recycling","description":"Container: Braunglas (1), Weissglas (2), Gr\u00c3\u00bcnglas (3), Metall (2)","opening_hours":"Mo-Sa 07:00-20:00","operator":"ERZ","recycling:aluminium":"yes","recycling:cans":"yes","recycling:glass_bottles":"yes","recycling_type":"container"}},"type":"Feature"},
	{"geometry":{"coordinates":[8.517181,47.358578],"type":"Point"},"properties":{"osm_id":"268119113","tag":{"amenity":"recycling","description":"Container: Metall (3), Gr\u00c3\u00bcnglas (4), Weissglas (2), Braunglas (2); Speise\u00c3\u00b6l/Mineral\u00c3\u00b6l","opening_hours":"Mo-Sa 07:00-20:00","operator":"ERZ","recycling:aluminium":"yes","recycling:cans":"yes","recycling:cooking_oil":"yes","recycling:engine_oil":"yes","recycling:glass_bottles":"yes","recycling_type":"container"}},"type":"Feature"},
	{"geometry":{"coordinates":[8.50612,47.362987],"type":"Point"},"properties":{"osm_id":"269199185","tag":{"amenity":"recycling","description":"Container: Braunglas (1), Weissglas (2), Gr\u00c3\u00bcnglas (3), Metall (2)","opening_hours":"Mo-Sa 07:00-20:00","operator":"ERZ","recycling:aluminium":"yes","recycling:cans":"yes","recycling:glass_bottles":"yes","recycling_type":"container"}},"type":"Feature"},
	{"geometry":{"coordinates":[8.521168,47.396429],"type":"Point"},"properties":{"osm_id":"283102858","tag":{"amenity":"recycling","description":"Container: Metall (2), Gr\u00c3\u00bcnglas (3), Weissglas (2), Braunglas (1)","opening_hours":"Mo-Sa 07:00-20:00","operator":"ERZ","recycling:aluminium":"yes","recycling:cans":"yes","recycling:glass_bottles":"yes","recycling_type":"container"}},"type":"Feature"},
	{"geometry":{"coordinates":[8.522305,47.371739],"type":"Point"},"properties":{"osm_id":"302377581","tag":{"amenity":"recycling","description":"Container: Braunglas (2), Weissglas (2), Gr\u00c3\u00bcnglas (3), Metall (2)","opening_hours":"Mo-Sa 07:00-20:00","operator":"ERZ","recycling:aluminium":"yes","recycling:cans":"yes","recycling:glass_bottles":"yes","recycling_type":"container"}},"type":"Feature"},
	{"geometry":{"coordinates":[8.43837,47.396398],"type":"Point"},"properties":{"osm_id":"310205993","tag":{"amenity":"recycling","opening_hours":"Mo-Sa 07:00-19:00;PH closed","recycling:batteries":"yes","recycling:cans":"yes","recycling:clothes":"yes","recycling:glass":"yes","recycling_type":"container","wheelchair":"limited"}},"type":"Feature"},
	{"geometry":{"coordinates":[8.516904,47.376005],"type":"Point"},"properties":{"osm_id":"315864798","tag":{"amenity":"recycling","operator":"Texaid","recycling:clothes":"yes","recycling:shoes":"yes","recycling_type":"container"}},"type":"Feature"},
	{"geometry":{"coordinates":[8.518295,47.375503],"type":"Point"},"properties":{"osm_id":"315872106","tag":{"amenity":"recycling","description":"Container: Metall (1), Gr\u00c3\u00bcnglas (2), Weissglas (1), Braunglas (1)","opening_hours":"Mo-Sa 07:00-20:00","operator":"ERZ","recycling:aluminium":"yes","recycling:cans":"yes","recycling:glass_bottles":"yes","recycling_type":"container","wheelchair":"yes"}},"type":"Feature"},
	{"geometry":{"coordinates":[8.519006,47.374217],"type":"Point"},"properties":{"osm_id":"315872324","tag":{"amenity":"recycling","description":"Container: Braunglas (1), Weissglas (1), Gr\u00c3\u00bcnglas (3), Metall (2)","opening_hours":"Mo-Sa 07:00-20:00","operator":"ERZ","recycling:aluminium":"yes","recycling:cans":"yes","recycling:glass_bottles":"yes","recycling_type":"container"}},"type":"Feature"},
	{"geometry":{"coordinates":[8.518349,47.378925],"type":"Point"},"properties":{"osm_id":"316677842","tag":{"amenity":"recycling","description":"Container: Metall (1), Gr\u00c3\u00bcnglas (2), Weissglas (1), Braunglas (1); Speise\u00c3\u00b6l/Mineral\u00c3\u00b6l","opening_hours":"Mo-Sa 07:00-20:00","operator":"ERZ","recycling:aluminium":"yes","recycling:cans":"yes","recycling:cooking_oil":"yes","recycling:engine_oil":"yes","recycling:glass_bottles":"yes","recycling_type":"container","wheelchair":"yes"}},"type":"Feature"},
	{"geometry":{"coordinates":[8.52331,47.391978],"type":"Point"},"properties":{"osm_id":"319530671","tag":{"amenity":"waste_basket"}},"type":"Feature"},
	{"geometry":{"coordinates":[8.502351,47.36511],"type":"Point"},"properties":{"osm_id":"331318089","tag":{"amenity":"recycling","description":"Container: Braunglas (1), Weissglas (2), Gr\u00c3\u00bcnglas (4), Metall (3); Speise\u00c3\u00b6l/Mineral\u00c3\u00b6l","opening_hours":"Mo-Sa 07:00-20:00","operator":"ERZ","recycling:aluminium":"yes","recycling:cans":"yes","recycling:cooking_oil":"yes","recycling:engine_oil":"yes","recycling:glass_bottles":"yes","recycling_type":"container"}},"type":"Feature"},
	{"geometry":{"coordinates":[8.511419,47.372791],"type":"Point"},"properties":{"osm_id":"473403365","tag":{"amenity":"recycling","description":"Container: Metall (2), Gr\u00c3\u00bcnglas (3), Weissglas (2), Braunglas (1)","opening_hours":"Mo-Sa 07:00-20:00","operator":"ERZ","recycling:aluminium":"yes","recycling:cans":"yes","recycling:glass_bottles":"yes","recycling_type":"container"}},"type":"Feature"},
	{"geometry":{"coordinates":[8.498264,47.377398],"type":"Point"},"properties":{"osm_id":"473848787","tag":{"amenity":"recycling","description":"Container: Metall (2), Gr\u00c3\u00bcnglas (3), Weissglas (2), Braunglas (1)","opening_hours":"Mo-Sa 07:00-20:00","operator":"ERZ","recycling:aluminium":"yes","recycling:cans":"yes","recycling:glass_bottles":"yes","recycling_type":"container"}},"type":"Feature"},
	{"geometry":{"coordinates":[8.496398,47.375585],"type":"Point"},"properties":{"osm_id":"474707599","tag":{"amenity":"recycling","description":"Container: Braunglas (1), Weissglas (2), Gr\u00c3\u00bcnglas (3), Metall (2)","opening_hours":"Mo-Sa 07:00-20:00","operator":"ERZ","recycling:aluminium":"yes","recycling:cans":"yes","recycling:glass_bottles":"yes","recycling_type":"container"}},"type":"Feature"},
	{"geometry":{"coordinates":[8.501093,47.369015],"type":"Point"},"properties":{"osm_id":"485409259","tag":{"amenity":"recycling","description":"Container: Metall (2), Gr\u00c3\u00bcnglas (2), Weissglas (1), Braunglas (1)","opening_hours":"Mo-Sa 07:00-20:00","operator":"ERZ","recycling:aluminium":"yes","recycling:cans":"yes","recycling:glass_bottles":"yes","recycling_type":"container","wheelchair":"yes"}},"type":"Feature"},
	{"geometry":{"coordinates":[8.495936,47.368652],"type":"Point"},"properties":{"osm_id":"495346193","tag":{"amenity":"recycling","description":"Container: Braunglas (1), Weissglas (2), Gr\u00c3\u00bcnglas (4), Metall (2); Speise\u00c3\u00b6l/Mineral\u00c3\u00b6l","opening_hours":"Mo-Sa 07:00-20:00","operator":"ERZ","recycling:aluminium":"yes","recycling:cans":"yes","recycling:cooking_oil":"yes","recycling:engine_oil":"yes","recycling:glass_bottles":"yes","recycling_type":"container","wheelchair":"no"}},"type":"Feature"},
	{"geometry":{"coordinates":[8.472671,47.388923],"type":"Point"},"properties":{"osm_id":"503707619","tag":{"amenity":"recycling","description":"Container: Braunglas (1), Weissglas (2), Gr\u00c3\u00bcnglas (3), Metall (2); Speise\u00c3\u00b6l/Mineral\u00c3\u00b6l","opening_hours":"Mo-Sa 07:00-20:00","operator":"ERZ","recycling:aluminium":"yes","recycling:cans":"yes","recycling:cooking_oil":"yes","recycling:engine_oil":"yes","recycling:glass_bottles":"yes","recycling_type":"container"}},"type":"Feature"},
	{"geometry":{"coordinates":[8.519056,47.377455],"type":"Point"},"properties":{"osm_id":"504484414","tag":{"amenity":"recycling","description":"Container: Braunglas (1), Weissglas (2), Gr\u00c3\u00bcnglas (3), Metall (2)","opening_hours":"Mo-Sa 07:00-20:00","operator":"ERZ","recycling:aluminium":"yes","recycling:cans":"yes","recycling:glass_bottles":"yes","recycling_type":"container"}},"type":"Feature"},
	{"geometry":{"coordinates":[8.48639,47.396773],"type":"Point"},"properties":{"osm_id":"524694956","tag":{"amenity":"recycling","description":"Container: Metall (2), Gr\u00c3\u00bcnglas (2), Weissglas (1), Braunglas (1)","opening_hours":"Mo-Sa 07:00-20:00","operator":"ERZ","recycling:aluminium":"yes","recycling:cans":"yes","recycling:glass_bottles":"yes","recycling_type":"container"}},"type":"Feature"},
	{"geometry":{"coordinates":[8.525357,47.391664],"type":"Point"},"properties":{"osm_id":"525716815","tag":{"amenity":"recycling","description":"Container: Metall (2), Gr\u00c3\u00bcnglas (3), Weissglas (2), Braunglas (1)","opening_hours":"Mo-Sa 07:00-20:00","operator":"ERZ","recycling:aluminium":"yes","recycling:cans":"yes","recycling:glass_bottles":"yes","recycling_type":"container"}},"type":"Feature"},
	{"geometry":{"coordinates":[8.438466,47.353311],"type":"Point"},"properties":{"osm_id":"560911738","tag":{"amenity":"recycling","recycling:glass":"yes"}},"type":"Feature"},
	{"geometry":{"coordinates":[8.473753,47.39231],"type":"Point"},"properties":{"osm_id":"599934189","tag":{"amenity":"recycling","description":"Container: Braunglas (1), Weissglas (1), Gr\u00c3\u00bcnglas (2), Metall (2)","opening_hours":"Mo-Sa 07:00-20:00","operator":"ERZ","recycling:aluminium":"yes","recycling:cans":"yes","recycling:glass_bottles":"yes","recycling_type":"container"}},"type":"Feature"},
	{"geometry":{"coordinates":[8.510226,47.369681],"type":"Point"},"properties":{"osm_id":"605262966","tag":{"amenity":"recycling","description":"Container: Metall (1), Gr\u00c3\u00bcnglas (2), Weissglas (1), Braunglas (1)","opening_hours":"Mo-Sa 07:00-20:00","operator":"ERZ","recycling:aluminium":"yes","recycling:cans":"yes","recycling:glass_bottles":"yes","recycling_type":"container","wheelchair":"yes"}},"type":"Feature"},
	{"geometry":{"coordinates":[8.512659,47.37597],"type":"Point"},"properties":{"osm_id":"614624179","tag":{"amenity":"recycling","description":"Container: Metall (3), Gr\u00c3\u00bcnglas (4), Weissglas (3), Braunglas (2)","opening_hours":"Mo-Sa 07:00-20:00","operator":"ERZ","recycling:aluminium":"yes","recycling:cans":"yes","recycling:glass_bottles":"yes","recycling_type":"container"}},"type":"Feature"},
	{"geometry":{"coordinates":[8.446544,47.395619],"type":"Point"},"properties":{"osm_id":"630410403","tag":{"amenity":"recycling","location":"underground","recycling_type":"container"}},"type":"Feature"},
	{"geometry":{"coordinates":[8.516065,47.398204],"type":"Point"},"properties":{"osm_id":"690692403","tag":{"amenity":"recycling","description":"Container: Braunglas (1), Weissglas (1), Gr\u00c3\u00bcnglas (2), Metall (1)","opening_hours":"Mo-Sa 07:00-20:00","operator":"ERZ","recycling:aluminium":"yes","recycling:cans":"yes","recycling:glass_bottles":"yes","recycling_type":"container"}},"type":"Feature"},
	{"geometry":{"coordinates":[8.521351,47.379398],"type":"Point"},"properties":{"osm_id":"848938699","tag":{"amenity":"recycling","operator":"Texaid","recycling:clothes":"yes","recycling:shoes":"yes","recycling_type":"container"}},"type":"Feature"},
	{"geometry":{"coordinates":[8.524452,47.343462],"type":"Point"},"properties":{"osm_id":"853831647","tag":{"amenity":"recycling","description":"Container: Braunglas (1), Weissglas (2), Gr\u00c3\u00bcnglas (3), Metall (1)","opening_hours":"Mo-Sa 07:00-20:00","operator":"ERZ","recycling:aluminium":"yes","recycling:cans":"yes","recycling:glass_bottles":"yes","recycling_type":"container"}},"type":"Feature"},
	{"geometry":{"coordinates":[8.519254,47.368589],"type":"Point"},"properties":{"osm_id":"876055100","tag":{"amenity":"recycling","description":"Container: Metall (2), Gr\u00c3\u00bcnglas (2), Weissglas (1), Braunglas (1); Grosscontainer","opening_hours":"Mo-Sa 07:00-20:00","operator":"ERZ","recycling:aluminium":"yes","recycling:cans":"yes","recycling:glass_bottles":"yes","recycling_type":"container"}},"type":"Feature"},
	{"geometry":{"coordinates":[8.510283,47.383675],"type":"Point"},"properties":{"osm_id":"1204180603","tag":{"amenity":"recycling","description":"Container: Braunglas (1), Weissglas (1), Gr\u00c3\u00bcnglas (2), Metall (2)","opening_hours":"Mo-Sa 07:00-20:00","operator":"ERZ","recycling:aluminium":"yes","recycling:cans":"yes","recycling:glass_bottles":"yes","recycling_type":"container"}},"type":"Feature"},
	{"geometry":{"coordinates":[8.486125,47.387104],"type":"Point"},"properties":{"osm_id":"1247623003","tag":{"amenity":"recycling","description":"Container: Metall (3), Gr\u00c3\u00bcnglas (3), Weissglas (2), Braunglas (1)","opening_hours":"Mo-Sa 07:00-20:00","operator":"ERZ","recycling:aluminium":"yes","recycling:cans":"yes","recycling:glass_bottles":"yes","recycling_type":"container"}},"type":"Feature"},
	{"geometry":{"coordinates":[8.511327,47.380923],"type":"Point"},"properties":{"osm_id":"1262272696","tag":{"amenity":"recycling","description":"Container: Metall (2), Gr\u00c3\u00bcnglas (3), Weissglas (2), Braunglas (1)","opening_hours":"Mo-Sa 07:00-20:00","operator":"ERZ","recycling:aluminium":"yes","recycling:cans":"yes","recycling:glass_bottles":"yes","recycling_type":"container"}},"type":"Feature"},
	{"geometry":{"coordinates":[8.487376,47.375859],"type":"Point"},"properties":{"osm_id":"1351709946","tag":{"amenity":"recycling","description":"Container: Braunglas (1), Weissglas (1), Gr\u00c3\u00bcnglas (1), Metall (1); Speise\u00c3\u00b6l/Mineral\u00c3\u00b6l","opening_hours":"Mo-Sa 07:00-20:00","operator":"ERZ","recycling:aluminium":"yes","recycling:cans":"yes","recycling:cooking_oil":"yes","recycling:engine_oil":"yes","recycling:glass_bottles":"yes","recycling_type":"container","wheelchair":"yes"}},"type":"Feature"},
	{"geometry":{"coordinates":[8.504211,47.3818],"type":"Point"},"properties":{"osm_id":"1351709953","tag":{"amenity":"waste_basket"}},"type":"Feature"},
	{"geometry":{"coordinates":[8.505008,47.38245],"type":"Point"},"properties":{"osm_id":"1351709961","tag":{"amenity":"waste_basket"}},"type":"Feature"},
	{"geometry":{"coordinates":[8.505552,47.383386],"type":"Point"},"properties":{"osm_id":"1351709970","tag":{"amenity":"waste_basket"}},"type":"Feature"},
	{"geometry":{"coordinates":[8.504712,47.38381],"type":"Point"},"properties":{"osm_id":"1351709977","tag":{"amenity":"waste_basket"}},"type":"Feature"},
	{"geometry":{"coordinates":[8.503787,47.384338],"type":"Point"},"properties":{"osm_id":"1351709982","tag":{"amenity":"waste_basket"}},"type":"Feature"},
	{"geometry":{"coordinates":[8.478584,47.384617],"type":"Point"},"properties":{"osm_id":"1351709990","tag":{"amenity":"waste_basket"}},"type":"Feature"},
	{"geometry":{"coordinates":[8.481097,47.386125],"type":"Point"},"properties":{"osm_id":"1351710000","tag":{"amenity":"waste_basket","vending":"excrement_bags"}},"type":"Feature"},
	{"geometry":{"coordinates":[8.474331,47.386147],"type":"Point"},"properties":{"osm_id":"1351710001","tag":{"amenity":"recycling","operator":"Texaid","recycling:clothes":"yes","recycling:shoes":"yes","recycling_type":"container"}},"type":"Feature"},
	{"geometry":{"coordinates":[8.469663,47.386646],"type":"Point"},"properties":{"osm_id":"1351710013","tag":{"amenity":"waste_basket"}},"type":"Feature"},
	{"geometry":{"coordinates":[8.473785,47.386655],"type":"Point"},"properties":{"osm_id":"1351710017","tag":{"amenity":"waste_basket","vending":"excrement_bags"}},"type":"Feature"},
	{"geometry":{"coordinates":[8.472859,47.387009],"type":"Point"},"properties":{"osm_id":"1351710044","tag":{"amenity":"recycling","description":"Container: Metall (2), Gr\u00c3\u00bcnglas (2), Weissglas (1), Braunglas (1)","opening_hours":"Mo-Sa 07:00-20:00","operator":"ERZ","recycling:aluminium":"yes","recycling:cans":"yes","recycling:glass_bottles":"yes","recycling_type":"container"}},"type":"Feature"},
	{"geometry":{"coordinates":[8.485514,47.387317],"type":"Point"},"properties":{"osm_id":"1351710052","tag":{"amenity":"waste_basket"}},"type":"Feature"},
	{"geometry":{"coordinates":[8.485798,47.387362],"type":"Point"},"properties":{"osm_id":"1351710053","tag":{"amenity":"waste_basket"}},"type":"Feature"},
	{"geometry":{"coordinates":[8.471751,47.387812],"type":"Point"},"properties":{"osm_id":"1351710061","tag":{"amenity":"waste_basket"}},"type":"Feature"},
	{"geometry":{"coordinates":[8.486797,47.389592],"type":"Point"},"properties":{"osm_id":"1351710066","tag":{"amenity":"waste_basket"}},"type":"Feature"},
	{"geometry":{"coordinates":[8.488277,47.39263],"type":"Point"},"properties":{"osm_id":"1351710071","tag":{"amenity":"waste_basket"}},"type":"Feature"},
	{"geometry":{"coordinates":[8.503036,47.398178],"type":"Point"},"properties":{"osm_id":"1351710075","tag":{"amenity":"waste_basket"}},"type":"Feature"},
	{"geometry":{"coordinates":[8.523629,47.367062],"type":"Point"},"properties":{"osm_id":"1415477014","tag":{"amenity":"waste_basket"}},"type":"Feature"},
	{"geometry":{"coordinates":[8.524296,47.366683],"type":"Point"},"properties":{"osm_id":"1415477015","tag":{"amenity":"waste_basket"}},"type":"Feature"},
	{"geometry":{"coordinates":[8.503397,47.373381],"type":"Point"},"properties":{"osm_id":"1460272516","tag":{"amenity":"recycling","description":"Container: Braunglas (2), Weissglas (2), Gr\u00c3\u00bcnglas (4), Metall (3); Speise\u00c3\u00b6l/Mineral\u00c3\u00b6l","opening_hours":"Mo-Sa 07:00-20:00","operator":"ERZ","recycling:aluminium":"yes","recycling:cans":"yes","recycling:cooking_oil":"yes","recycling:engine_oil":"yes","recycling:glass_bottles":"yes","recycling_type":"container","wheelchair":"no"}},"type":"Feature"},
	{"geometry":{"coordinates":[8.498713,47.369723],"type":"Point"},"properties":{"osm_id":"1516425096","tag":{"amenity":"waste_basket"}},"type":"Feature"},
	{"geometry":{"coordinates":[8.522422,47.368388],"type":"Point"},"properties":{"osm_id":"1520497574","tag":{"amenity":"waste_basket"}},"type":"Feature"},
	{"geometry":{"coordinates":[8.523241,47.369081],"type":"Point"},"properties":{"osm_id":"1521597791","tag":{"amenity":"waste_basket"}},"type":"Feature"},
	{"geometry":{"coordinates":[8.51284,47.36723],"type":"Point"},"properties":{"osm_id":"1545780679","tag":{"amenity":"recycling","description":"Container: Metall (1), Gr\u00c3\u00bcnglas (3), Weissglas (2), Braunglas (1); Speise\u00c3\u00b6l/Mineral\u00c3\u00b6l","opening_hours":"Mo-Sa 07:00-20:00","operator":"ERZ","recycling:aluminium":"yes","recycling:cans":"yes","recycling:cooking_oil":"yes","recycling:engine_oil":"yes","recycling:glass_bottles":"yes","recycling_type":"container"}},"type":"Feature"},
	{"geometry":{"coordinates":[8.51769,47.373176],"type":"Point"},"properties":{"osm_id":"1765655825","tag":{"amenity":"recycling","description":"Container: Metall (2), Gr\u00c3\u00bcnglas (3), Weissglas (1), Braunglas (1); Speise\u00c3\u00b6l/Mineral\u00c3\u00b6l","opening_hours":"Mo-Sa 07:00-20:00","operator":"ERZ","recycling:aluminium":"yes","recycling:cans":"yes","recycling:cooking_oil":"yes","recycling:engine_oil":"yes","recycling:glass_bottles":"yes","recycling_type":"container"}},"type":"Feature"},
	{"geometry":{"coordinates":[8.50918,47.361505],"type":"Point"},"properties":{"osm_id":"1838658864","tag":{"amenity":"recycling","operator":"Texaid","recycling:clothes":"yes","recycling:shoes":"yes","recycling_type":"container"}},"type":"Feature"},
	{"geometry":{"coordinates":[8.475015,47.340295],"type":"Point"},"properties":{"osm_id":"1871962910","tag":{"amenity":"waste_basket"}},"type":"Feature"},
	{"geometry":{"coordinates":[8.521854,47.365592],"type":"Point"},"properties":{"osm_id":"1903015998","tag":{"amenity":"waste_basket"}},"type":"Feature"},
	{"geometry":{"coordinates":[8.520294,47.369538],"type":"Point"},"properties":{"osm_id":"1903016057","tag":{"amenity":"waste_basket"}},"type":"Feature"},
	{"geometry":{"coordinates":[8.523205,47.371128],"type":"Point"},"properties":{"osm_id":"1920641586","tag":{"amenity":"waste_basket"}},"type":"Feature"},
	{"geometry":{"coordinates":[8.522048,47.37068],"type":"Point"},"properties":{"osm_id":"1924110526","tag":{"amenity":"waste_basket"}},"type":"Feature"},
	{"geometry":{"coordinates":[8.514624,47.37834],"type":"Point"},"properties":{"osm_id":"2017326771","tag":{"amenity":"recycling","description":"Container: Braunglas (1), Weissglas (1), Gr\u00c3\u00bcnglas (2), Metall (2)","opening_hours":"Mo-Sa 07:00-20:00","operator":"ERZ","recycling:aluminium":"yes","recycling:cans":"yes","recycling:glass_bottles":"yes","recycling_type":"container"}},"type":"Feature"},
	{"geometry":{"coordinates":[8.510637,47.354653],"type":"Point"},"properties":{"osm_id":"2018246336","tag":{"amenity":"recycling","description":"Container: Braunglas (1), Weissglas (1), Gr\u00c3\u00bcnglas (2), Metall (2)","opening_hours":"Mo-Sa 07:00-20:00","operator":"ERZ","recycling:aluminium":"yes","recycling:cans":"yes","recycling:glass_bottles":"yes","recycling_type":"container"}},"type":"Feature"},
	{"geometry":{"coordinates":[8.500413,47.392056],"type":"Point"},"properties":{"osm_id":"2043609193","tag":{"amenity":"waste_basket"}},"type":"Feature"},
	{"geometry":{"coordinates":[8.500416,47.392172],"type":"Point"},"properties":{"osm_id":"2043609198","tag":{"amenity":"waste_basket"}},"type":"Feature"},
	{"geometry":{"coordinates":[8.523017,47.368935],"type":"Point"},"properties":{"osm_id":"2222137070","tag":{"amenity":"recycling","description":"Container: Metall (1), Gr\u00c3\u00bcnglas (2), Weissglas (2), Braunglas (1)","opening_hours":"Mo-Sa 07:00-20:00","operator":"ERZ","recycling:aluminium":"yes","recycling:cans":"yes","recycling:glass_bottles":"yes","recycling_type":"container"}},"type":"Feature"},
	{"geometry":{"coordinates":[8.514389,47.374324],"type":"Point"},"properties":{"osm_id":"2222137079","tag":{"amenity":"recycling","description":"Container: Braunglas (1), Weissglas (1), Gr\u00c3\u00bcnglas (2), Metall (1)","opening_hours":"Mo-Sa 07:00-20:00","operator":"ERZ","recycling:aluminium":"yes","recycling:cans":"yes","recycling:glass_bottles":"yes","recycling_type":"container","wheelchair":"yes"}},"type":"Feature"},
	{"geometry":{"coordinates":[8.518769,47.387235],"type":"Point"},"properties":{"osm_id":"2258405958","tag":{"amenity":"waste_basket"}},"type":"Feature"},
	{"geometry":{"coordinates":[8.51145,47.389543],"type":"Point"},"properties":{"osm_id":"2258405960","tag":{"amenity":"waste_basket"}},"type":"Feature"},
	{"geometry":{"coordinates":[8.512617,47.389755],"type":"Point"},"properties":{"osm_id":"2266702349","tag":{"amenity":"waste_basket"}},"type":"Feature"},
	{"geometry":{"coordinates":[8.51171,47.389797],"type":"Point"},"properties":{"osm_id":"2266702352","tag":{"amenity":"waste_basket"}},"type":"Feature"},
	{"geometry":{"coordinates":[8.500691,47.393464],"type":"Point"},"properties":{"osm_id":"2269604845","tag":{"amenity":"waste_basket"}},"type":"Feature"},
	{"geometry":{"coordinates":[8.523419,47.378513],"type":"Point"},"properties":{"osm_id":"2277009916","tag":{"amenity":"recycling","description":"Container: Metall (3), Gr\u00c3\u00bcnglas (4), Weissglas (2), Braunglas (2)","opening_hours":"Mo-Sa 07:00-20:00","operator":"ERZ","recycling:aluminium":"yes","recycling:cans":"yes","recycling:glass_bottles":"yes","recycling_type":"container"}},"type":"Feature"},
	{"geometry":{"coordinates":[8.494558,47.393275],"type":"Point"},"properties":{"osm_id":"2277009939","tag":{"amenity":"waste_basket"}},"type":"Feature"},
	{"geometry":{"coordinates":[8.521806,47.38604],"type":"Point"},"properties":{"osm_id":"2286916847","tag":{"amenity":"waste_basket"}},"type":"Feature"},
	{"geometry":{"coordinates":[8.52247,47.386513],"type":"Point"},"properties":{"osm_id":"2286916850","tag":{"amenity":"waste_basket"}},"type":"Feature"},
	{"geometry":{"coordinates":[8.519241,47.387038],"type":"Point"},"properties":{"osm_id":"2286916852","tag":{"amenity":"waste_basket"}},"type":"Feature"},
	{"geometry":{"coordinates":[8.51012,47.39005],"type":"Point"},"properties":{"osm_id":"2286916854","tag":{"amenity":"waste_basket"}},"type":"Feature"},
	{"geometry":{"coordinates":[8.508445,47.390564],"type":"Point"},"properties":{"osm_id":"2286916855","tag":{"amenity":"waste_basket"}},"type":"Feature"},
	{"geometry":{"coordinates":[8.508548,47.390753],"type":"Point"},"properties":{"osm_id":"2286916856","tag":{"amenity":"waste_basket"}},"type":"Feature"},
	{"geometry":{"coordinates":[8.505645,47.39132],"type":"Point"},"properties":{"osm_id":"2286916857","tag":{"amenity":"waste_basket"}},"type":"Feature"},
	{"geometry":{"coordinates":[8.512087,47.38948],"type":"Point"},"properties":{"osm_id":"2290626678","tag":{"amenity":"waste_basket"}},"type":"Feature"},
	{"geometry":{"coordinates":[8.516207,47.391235],"type":"Point"},"properties":{"osm_id":"2296645865","tag":{"amenity":"waste_basket"}},"type":"Feature"},
	{"geometry":{"coordinates":[8.516379,47.391281],"type":"Point"},"properties":{"osm_id":"2296645870","tag":{"amenity":"waste_basket"}},"type":"Feature"},
	{"geometry":{"coordinates":[8.517668,47.391649],"type":"Point"},"properties":{"osm_id":"2296645874","tag":{"amenity":"waste_basket"}},"type":"Feature"},
	{"geometry":{"coordinates":[8.518853,47.391614],"type":"Point"},"properties":{"osm_id":"2296645875","tag":{"amenity":"waste_basket"}},"type":"Feature"},
	{"geometry":{"coordinates":[8.51826,47.391746],"type":"Point"},"properties":{"osm_id":"2296645876","tag":{"amenity":"waste_basket"}},"type":"Feature"},
	{"geometry":{"coordinates":[8.505911,47.391241],"type":"Point"},"properties":{"osm_id":"2322101573","tag":{"amenity":"waste_basket"}},"type":"Feature"},
	{"geometry":{"coordinates":[8.509695,47.390152],"type":"Point"},"properties":{"osm_id":"2324498743","tag":{"amenity":"waste_basket"}},"type":"Feature"},
	{"geometry":{"coordinates":[8.480966,47.388441],"type":"Point"},"properties":{"osm_id":"2330421251","tag":{"amenity":"recycling","description":"Container: Braunglas (1), Weissglas (2), Gr\u00c3\u00bcnglas (4), Metall (3)","opening_hours":"Mo-Sa 07:00-20:00","operator":"ERZ","recycling:aluminium":"yes","recycling:cans":"yes","recycling:cooking_oil":"yes","recycling:engine_oil":"yes","recycling:glass_bottles":"yes","recycling_type":"container"}},"type":"Feature"},
	{"geometry":{"coordinates":[8.502983,47.392515],"type":"Point"},"properties":{"osm_id":"2364640008","tag":{"amenity":"waste_basket"}},"type":"Feature"},
	{"geometry":{"coordinates":[8.502581,47.392514],"type":"Point"},"properties":{"osm_id":"2364640009","tag":{"amenity":"waste_basket"}},"type":"Feature"},
	{"geometry":{"coordinates":[8.518942,47.391862],"type":"Point"},"properties":{"osm_id":"2399106731","tag":{"amenity":"waste_basket"}},"type":"Feature"},
	{"geometry":{"coordinates":[8.523363,47.38676],"type":"Point"},"properties":{"osm_id":"2429335306","tag":{"amenity":"waste_basket"}},"type":"Feature"},
	{"geometry":{"coordinates":[8.481869,47.343394],"type":"Point"},"properties":{"osm_id":"2555415097","tag":{"amenity":"waste_basket","designation":"Robi Dog"}},"type":"Feature"},
	{"geometry":{"coordinates":[8.479159,47.343145],"type":"Point"},"properties":{"osm_id":"2566198945","tag":{"amenity":"waste_basket","designation":"Robi Dog"}},"type":"Feature"},
	{"geometry":{"coordinates":[8.4791,47.346778],"type":"Point"},"properties":{"osm_id":"2566198946","tag":{"amenity":"waste_basket","designation":"Robi Dog"}},"type":"Feature"},
	{"geometry":{"coordinates":[8.477228,47.350934],"type":"Point"},"properties":{"osm_id":"2566198947","tag":{"amenity":"waste_basket","designation":"Robi Dog"}},"type":"Feature"},
	{"geometry":{"coordinates":[8.483761,47.345308],"type":"Point"},"properties":{"osm_id":"2566205815","tag":{"amenity":"waste_basket","designation":"Robi Dog"}},"type":"Feature"},
	{"geometry":{"coordinates":[8.484763,47.34346],"type":"Point"},"properties":{"osm_id":"2566205816","tag":{"amenity":"waste_basket","designation":"Robi Dog"}},"type":"Feature"},
	{"geometry":{"coordinates":[8.487313,47.340386],"type":"Point"},"properties":{"osm_id":"2566216746","tag":{"amenity":"waste_basket","designation":"Robi Dog"}},"type":"Feature"},
	{"geometry":{"coordinates":[8.487852,47.33923],"type":"Point"},"properties":{"osm_id":"2566216752","tag":{"amenity":"waste_basket","designation":"Robi Dog"}},"type":"Feature"},
	{"geometry":{"coordinates":[8.48543,47.339922],"type":"Point"},"properties":{"osm_id":"2566216754","tag":{"amenity":"waste_basket","designation":"Robi Dog"}},"type":"Feature"},
	{"geometry":{"coordinates":[8.487366,47.342465],"type":"Point"},"properties":{"osm_id":"2566216755","tag":{"amenity":"waste_basket","designation":"Robi Dog"}},"type":"Feature"},
	{"geometry":{"coordinates":[8.485999,47.340614],"type":"Point"},"properties":{"osm_id":"2566216757","tag":{"amenity":"waste_basket","designation":"Robi Dog"}},"type":"Feature"},
	{"geometry":{"coordinates":[8.4841,47.342661],"type":"Point"},"properties":{"osm_id":"2566257160","tag":{"amenity":"waste_basket","designation":"Robi Dog"}},"type":"Feature"},
	{"geometry":{"coordinates":[8.481864,47.34504],"type":"Point"},"properties":{"osm_id":"2566257163","tag":{"amenity":"waste_basket","designation":"Robi Dog"}},"type":"Feature"},
	{"geometry":{"coordinates":[8.473571,47.393503],"type":"Point"},"properties":{"osm_id":"2665491758","tag":{"amenity":"waste_basket"}},"type":"Feature"},
	{"geometry":{"coordinates":[8.516625,47.377149],"type":"Point"},"properties":{"osm_id":"2688268305","tag":{"amenity":"waste_basket"}},"type":"Feature"},
	{"geometry":{"coordinates":[8.508844,47.355805],"type":"Point"},"properties":{"osm_id":"2725910457","tag":{"amenity":"recycling","description":"Container: Metall (2), Gr\u00c3\u00bcnglas (2), Weissglas (1), Braunglas (1)","opening_hours":"Mo-Sa 07:00-20:00","operator":"ERZ","recycling:aluminium":"yes","recycling:cans":"yes","recycling:glass_bottles":"yes","recycling_type":"container"}},"type":"Feature"},
	{"geometry":{"coordinates":[8.517026,47.373231],"type":"Point"},"properties":{"osm_id":"2972676415","tag":{"amenity":"waste_basket"}},"type":"Feature"},
	{"geometry":{"coordinates":[8.518151,47.371814],"type":"Point"},"properties":{"osm_id":"2972676416","tag":{"amenity":"waste_disposal","location":"underground"}},"type":"Feature"},
	{"geometry":{"coordinates":[8.448334,47.394752],"type":"Point"},"properties":{"osm_id":"3041717698","tag":{"amenity":"waste_basket"}},"type":"Feature"},
	{"geometry":{"coordinates":[8.467545,47.390477],"type":"Point"},"properties":{"osm_id":"3121785340","tag":{"amenity":"waste_basket"}},"type":"Feature"},
	{"geometry":{"coordinates":[8.486631,47.38459],"type":"Point"},"properties":{"osm_id":"3146596336","tag":{"amenity":"recycling","description":"Container: Metall (2), Gr\u00c3\u00bcnglas (3), Weissglas (2), Braunglas (1)","opening_hours":"Mo-Sa 07:00-20:00","operator":"ERZ","recycling:aluminium":"yes","recycling:cans":"yes","recycling:glass_bottles":"yes","recycling_type":"container"}},"type":"Feature"},
	{"geometry":{"coordinates":[8.488472,47.384164],"type":"Point"},"properties":{"osm_id":"3177342134","tag":{"amenity":"waste_basket"}},"type":"Feature"},
	{"geometry":{"coordinates":[8.488354,47.384486],"type":"Point"},"properties":{"osm_id":"3177342150","tag":{"amenity":"waste_basket"}},"type":"Feature"},
	{"geometry":{"coordinates":[8.518632,47.39116],"type":"Point"},"properties":{"osm_id":"3297129087","tag":{"amenity":"recycling","recycling:batteries":"yes","recycling:cans":"yes","recycling:cds":"yes","recycling:clothes":"no","recycling:glass":"no","recycling:low_energy_bulbs":"yes","recycling:paper":"no","recycling:pet":"yes","recycling:plastic_bottles":"yes","recycling:scrap_metal":"no","recycling_type":"container"}},"type":"Feature"},
	{"geometry":{"coordinates":[8.521847,47.372077],"type":"Point"},"properties":{"osm_id":"3559185683","tag":{"amenity":"waste_basket"}},"type":"Feature"},
	{"geometry":{"coordinates":[8.518277,47.375386],"type":"Point"},"properties":{"osm_id":"3559185684","tag":{"amenity":"waste_basket"}},"type":"Feature"},
	{"geometry":{"coordinates":[8.512756,47.39371],"type":"Point"},"properties":{"osm_id":"3578500994","tag":{"amenity":"recycling","description":"Container: Braunglas (1), Weissglas (1), Gr\u00c3\u00bcnglas (2), Metall (1)","opening_hours":"Mo-Sa 07:00-20:00","operator":"ERZ","recycling:aluminium":"yes","recycling:cans":"yes","recycling:glass_bottles":"yes","recycling_type":"container","wheelchair":"yes"}},"type":"Feature"},
	{"geometry":{"coordinates":[8.523662,47.394808],"type":"Point"},"properties":{"osm_id":"3578539993","tag":{"amenity":"waste_basket"}},"type":"Feature"},
	{"geometry":{"coordinates":[8.512623,47.388663],"type":"Point"},"properties":{"osm_id":"3670637928","tag":{"amenity":"waste_basket"}},"type":"Feature"},
	{"geometry":{"coordinates":[8.513434,47.388597],"type":"Point"},"properties":{"osm_id":"3670638126","tag":{"amenity":"waste_basket"}},"type":"Feature"},
	{"geometry":{"coordinates":[8.513848,47.388437],"type":"Point"},"properties":{"osm_id":"3670638326","tag":{"amenity":"waste_basket"}},"type":"Feature"},
	{"geometry":{"coordinates":[8.513088,47.388733],"type":"Point"},"properties":{"osm_id":"3670646425","tag":{"amenity":"waste_basket"}},"type":"Feature"},
	{"geometry":{"coordinates":[8.449036,47.398017],"type":"Point"},"properties":{"osm_id":"3684170226","tag":{"amenity":"recycling","recycling:cans":"yes","recycling:clothes":"yes","recycling:glass_bottles":"yes","recycling_type":"container","wheelchair":"yes"}},"type":"Feature"},
	{"geometry":{"coordinates":[8.519528,47.378525],"type":"Point"},"properties":{"osm_id":"3698314982","tag":{"amenity":"waste_basket"}},"type":"Feature"},
	{"geometry":{"coordinates":[8.447672,47.392994],"type":"Point"},"properties":{"osm_id":"3727816731","tag":{"amenity":"recycling","recycling:batteries":"yes","recycling:clothes":"yes","recycling:glass_bottles":"yes","recycling_type":"container"}},"type":"Feature"},
	{"geometry":{"coordinates":[8.447235,47.394529],"type":"Point"},"properties":{"osm_id":"3727852226","tag":{"amenity":"waste_basket"}},"type":"Feature"},
	{"geometry":{"coordinates":[8.463817,47.396001],"type":"Point"},"properties":{"osm_id":"3733058825","tag":{"amenity":"recycling","recycling:clothes":"yes","recycling:glass_bottles":"yes","recycling_type":"container"}},"type":"Feature"},
	{"geometry":{"coordinates":[8.503192,47.395144],"type":"Point"},"properties":{"osm_id":"3784107357","tag":{"amenity":"waste_basket"}},"type":"Feature"},
	{"geometry":{"coordinates":[8.502842,47.395371],"type":"Point"},"properties":{"osm_id":"3784107358","tag":{"amenity":"waste_basket"}},"type":"Feature"},
	{"geometry":{"coordinates":[8.501097,47.396621],"type":"Point"},"properties":{"osm_id":"3784107360","tag":{"amenity":"waste_basket"}},"type":"Feature"},
	{"geometry":{"coordinates":[8.522005,47.39225],"type":"Point"},"properties":{"osm_id":"3813193077","tag":{"amenity":"waste_basket"}},"type":"Feature"},
	{"geometry":{"coordinates":[8.522277,47.392195],"type":"Point"},"properties":{"osm_id":"3813193078","tag":{"amenity":"waste_basket"}},"type":"Feature"},
	{"geometry":{"coordinates":[8.522509,47.39214],"type":"Point"},"properties":{"osm_id":"3813193079","tag":{"amenity":"waste_basket"}},"type":"Feature"},
	{"geometry":{"coordinates":[8.52278,47.392085],"type":"Point"},"properties":{"osm_id":"3813193080","tag":{"amenity":"waste_basket"}},"type":"Feature"},
	{"geometry":{"coordinates":[8.523038,47.392033],"type":"Point"},"properties":{"osm_id":"3813193081","tag":{"amenity":"waste_basket"}},"type":"Feature"},
	{"geometry":{"coordinates":[8.521719,47.392302],"type":"Point"},"properties":{"osm_id":"3813193086","tag":{"amenity":"waste_basket"}},"type":"Feature"},
	{"geometry":{"coordinates":[8.521386,47.392303],"type":"Point"},"properties":{"osm_id":"3813193087","tag":{"amenity":"waste_basket"}},"type":"Feature"},
	{"geometry":{"coordinates":[8.515783,47.368835],"type":"Point"},"properties":{"osm_id":"3832917114","tag":{"amenity":"waste_basket"}},"type":"Feature"},
	{"geometry":{"coordinates":[8.515677,47.368797],"type":"Point"},"properties":{"osm_id":"3832917115","tag":{"amenity":"waste_basket"}},"type":"Feature"},
	{"geometry":{"coordinates":[8.516121,47.368662],"type":"Point"},"properties":{"osm_id":"3832917116","tag":{"amenity":"waste_basket"}},"type":"Feature"},
	{"geometry":{"coordinates":[8.51525,47.369001],"type":"Point"},"properties":{"osm_id":"3832917117","tag":{"amenity":"waste_basket"}},"type":"Feature"},
	{"geometry":{"coordinates":[8.523955,47.377149],"type":"Point"},"properties":{"osm_id":"4056185262","tag":{"amenity":"waste_basket"}},"type":"Feature"},
	{"geometry":{"coordinates":[8.520224,47.378576],"type":"Point"},"properties":{"osm_id":"4056185264","tag":{"amenity":"waste_basket"}},"type":"Feature"},
	{"geometry":{"coordinates":[8.505811,47.391866],"type":"Point"},"properties":{"osm_id":"4429439090","tag":{"amenity":"recycling","description":"Container: Metall (2), Gr\u00c3\u00bcnglas (3), Weissglas (2), Braunglas (2)","opening_hours":"Mo-Sa 07:00-20:00","operator":"ERZ","recycling:aluminium":"yes","recycling:cans":"yes","recycling:glass_bottles":"yes","recycling_type":"container"}},"type":"Feature"},
	{"geometry":{"coordinates":[8.516394,47.38737],"type":"Point"},"properties":{"osm_id":"4468280985","tag":{"amenity":"waste_disposal","waste":"trash"}},"type":"Feature"},
	{"geometry":{"coordinates":[8.512743,47.36312],"type":"Point"},"properties":{"osm_id":"4480386969","tag":{"amenity":"recycling","location":"underground","opening_hours":"24/7","recycling:waste":"yes","recycling_type":"container","wheelchair":"yes"}},"type":"Feature"},
	{"geometry":{"coordinates":[8.490113,47.37996],"type":"Point"},"properties":{"osm_id":"4491248091","tag":{"amenity":"waste_basket"}},"type":"Feature"},
	{"geometry":{"coordinates":[8.490284,47.380653],"type":"Point"},"properties":{"osm_id":"4491248092","tag":{"amenity":"waste_basket"}},"type":"Feature"},
	{"geometry":{"coordinates":[8.488456,47.3808],"type":"Point"},"properties":{"osm_id":"4579715894","tag":{"amenity":"waste_disposal"}},"type":"Feature"},
	{"geometry":{"coordinates":[8.489832,47.380165],"type":"Point"},"properties":{"osm_id":"4580112705","tag":{"amenity":"recycling","recycling:green_waste":"yes","recycling_type":"container"}},"type":"Feature"},
	{"geometry":{"coordinates":[8.515258,47.389129],"type":"Point"},"properties":{"osm_id":"4764556574","tag":{"amenity":"waste_basket"}},"type":"Feature"},
	{"geometry":{"coordinates":[8.515397,47.388693],"type":"Point"},"properties":{"osm_id":"4764556575","tag":{"amenity":"waste_basket"}},"type":"Feature"},
	{"geometry":{"coordinates":[8.515274,47.389022],"type":"Point"},"properties":{"osm_id":"4764556576","tag":{"amenity":"waste_basket"}},"type":"Feature"},
	{"geometry":{"coordinates":[8.515542,47.388481],"type":"Point"},"properties":{"osm_id":"4764556577","tag":{"amenity":"waste_basket"}},"type":"Feature"},
	{"geometry":{"coordinates":[8.51665,47.389755],"type":"Point"},"properties":{"osm_id":"4791945946","tag":{"amenity":"waste_basket"}},"type":"Feature"},
	{"geometry":{"coordinates":[8.516521,47.389574],"type":"Point"},"properties":{"osm_id":"4791945951","tag":{"amenity":"waste_basket"}},"type":"Feature"},
	{"geometry":{"coordinates":[8.51299,47.396322],"type":"Point"},"properties":{"osm_id":"4864530755","tag":{"amenity":"waste_basket"}},"type":"Feature"},
	{"geometry":{"coordinates":[8.507575,47.397578],"type":"Point"},"properties":{"osm_id":"4864530756","tag":{"amenity":"waste_basket"}},"type":"Feature"},
	{"geometry":{"coordinates":[8.481345,47.397838],"type":"Point"},"properties":{"name":"Recyclinghof Werdh\u00c3\u00b6lzli","osm_id":"4868938059","tag":{"addr:city":"Z\u00c3\u00bcrich","addr:country":"CH","addr:housenumber":"94","addr:postcode":"8064","addr:street":"B\u00c3\u00a4ndlistrasse","amenity":"recycling","opening_hours":"Tu, Th 14:00-19:00; Sa 07:30-14:00","operator":"ERZ","recycling:bicycles":"yes","recycling:cans":"no","recycling:cooking_oil":"no","recycling:electrical_appliances":"yes","recycling:engine_oil":"no","recycling:glass":"yes","recycling:glass_bottles":"no","recycling:green_waste":"no","recycling:plastic_bottles":"yes","recycling:plastic_packaging":"no","recycling:rubble":"yes","recycling:scrap_metal":"yes","recycling:small_appliances":"yes","recycling:tyres":"yes","recycling_type":"centre"}},"type":"Feature"},
	{"geometry":{"coordinates":[8.510919,47.379175],"type":"Point"},"properties":{"osm_id":"4868938060","tag":{"amenity":"recycling","description":"Container: Metall (2), Gr\u00c3\u00bcnglas (1), Weissglas (1), Braunglas (1); Speise\u00c3\u00b6l/Mineral\u00c3\u00b6l","opening_hours":"Mo-Sa 07:00-20:00","operator":"ERZ","recycling:aluminium":"yes","recycling:cans":"yes","recycling:cooking_oil":"yes","recycling:engine_oil":"yes","recycling:glass_bottles":"yes","recycling_type":"container","wheelchair":"yes"}},"type":"Feature"},
	{"geometry":{"coordinates":[8.50422,47.385535],"type":"Point"},"properties":{"osm_id":"4868938061","tag":{"amenity":"recycling","description":"Container: Metall (3), Gr\u00c3\u00bcnglas (4), Weissglas (2), Braunglas (2); Speise\u00c3\u00b6l/Mineral\u00c3\u00b6l","opening_hours":"Mo-Sa 07:00-20:00","operator":"ERZ","recycling:aluminium":"yes","recycling:cans":"yes","recycling:cooking_oil":"yes","recycling:engine_oil":"yes","recycling:glass_bottles":"yes","recycling_type":"container"}},"type":"Feature"},
	{"geometry":{"coordinates":[8.484136,47.373507],"type":"Point"},"properties":{"osm_id":"4868938062","tag":{"amenity":"recycling","description":"Container: Metall (3), Gr\u00c3\u00bcnglas (4), Weissglas (2), Braunglas (1)","opening_hours":"Mo-Sa 07:00-20:00","operator":"ERZ","recycling:aluminium":"yes","recycling:cans":"yes","recycling:glass_bottles":"yes","recycling_type":"container","wheelchair":"no"}},"type":"Feature"},
	{"geometry":{"coordinates":[8.50838,47.359725],"type":"Point"},"properties":{"osm_id":"4868938524","tag":{"amenity":"recycling","description":"Container: Metall (3), Gr\u00c3\u00bcnglas (2), Weissglas (2), Braunglas (1)","opening_hours":"Mo-Sa 07:00-20:00","operator":"ERZ","recycling:aluminium":"yes","recycling:cans":"yes","recycling:glass_bottles":"yes","recycling_type":"container"}},"type":"Feature"},
	{"geometry":{"coordinates":[8.517822,47.366657],"type":"Point"},"properties":{"osm_id":"4868938525","tag":{"amenity":"recycling","description":"Container: Braunglas (1), Weissglas (1), Gr\u00c3\u00bcnglas (2), Metall (1)","opening_hours":"Mo-Sa 07:00-20:00","operator":"ERZ","recycling:aluminium":"yes","recycling:cans":"yes","recycling:glass_bottles":"yes","recycling_type":"container","wheelchair":"yes"}},"type":"Feature"},
	{"geometry":{"coordinates":[8.489158,47.396009],"type":"Point"},"properties":{"osm_id":"4868938528","tag":{"amenity":"recycling","description":"Container: Braunglas (1), Weissglas (1), Gr\u00c3\u00bcnglas (2), Metall (2)","opening_hours":"Mo-Sa 07:00-20:00","operator":"ERZ","recycling:aluminium":"yes","recycling:cans":"yes","recycling:glass_bottles":"yes","recycling_type":"container"}},"type":"Feature"},
	{"geometry":{"coordinates":[8.484491,47.374495],"type":"Point"},"properties":{"osm_id":"4892030708","tag":{"amenity":"waste_basket"}},"type":"Feature"},
	{"geometry":{"coordinates":[8.484948,47.374515],"type":"Point"},"properties":{"osm_id":"4892030709","tag":{"amenity":"waste_basket"}},"type":"Feature"},
	{"geometry":{"coordinates":[8.484845,47.374566],"type":"Point"},"properties":{"osm_id":"4892030715","tag":{"amenity":"waste_basket"}},"type":"Feature"},
	{"geometry":{"coordinates":[8.486586,47.378803],"type":"Point"},"properties":{"osm_id":"4892033137","tag":{"amenity":"recycling","operator":"Texaid","recycling:clothes":"yes","recycling:shoes":"yes","recycling_type":"container"}},"type":"Feature"},
	{"geometry":{"coordinates":[8.486527,47.378777],"type":"Point"},"properties":{"osm_id":"4892033138","tag":{"amenity":"recycling","description":"Container: Metall (2), Gr\u00c3\u00bcnglas (2), Weissglas (1), Braunglas (1)","opening_hours":"Mo-Sa 07:00-20:00","operator":"ERZ","recycling:aluminium":"yes","recycling:cans":"yes","recycling:glass_bottles":"yes","recycling_type":"container"}},"type":"Feature"},
	{"geometry":{"coordinates":[8.48968,47.392513],"type":"Point"},"properties":{"osm_id":"4917185028","tag":{"amenity":"waste_basket"}},"type":"Feature"},
	{"geometry":{"coordinates":[8.489718,47.392566],"type":"Point"},"properties":{"osm_id":"4917185029","tag":{"amenity":"waste_basket"}},"type":"Feature"},
	{"geometry":{"coordinates":[8.489626,47.392421],"type":"Point"},"properties":{"osm_id":"4917185030","tag":{"amenity":"waste_basket"}},"type":"Feature"},
	{"geometry":{"coordinates":[8.515092,47.389186],"type":"Point"},"properties":{"osm_id":"4919285047","tag":{"amenity":"waste_basket"}},"type":"Feature"},
	{"geometry":{"coordinates":[8.515444,47.388966],"type":"Point"},"properties":{"osm_id":"4919285048","tag":{"amenity":"waste_basket"}},"type":"Feature"},
	{"geometry":{"coordinates":[8.50958,47.372467],"type":"Point"},"properties":{"osm_id":"4935627411","tag":{"amenity":"waste_basket"}},"type":"Feature"},
	{"geometry":{"coordinates":[8.520164,47.3885],"type":"Point"},"properties":{"osm_id":"4937236823","tag":{"amenity":"waste_basket","layer":"2"}},"type":"Feature"},
	{"geometry":{"coordinates":[8.499698,47.376849],"type":"Point"},"properties":{"osm_id":"4940639537","tag":{"amenity":"waste_basket"}},"type":"Feature"},
	{"geometry":{"coordinates":[8.499218,47.376945],"type":"Point"},"properties":{"osm_id":"4940639539","tag":{"amenity":"recycling","operator":"Texaid","recycling:clothes":"yes","recycling:shoes":"yes","recycling_type":"container"}},"type":"Feature"},
	{"geometry":{"coordinates":[8.49913,47.3771],"type":"Point"},"properties":{"osm_id":"4940639544","tag":{"amenity":"waste_basket"}},"type":"Feature"},
	{"geometry":{"coordinates":[8.499076,47.377492],"type":"Point"},"properties":{"osm_id":"4940639549","tag":{"amenity":"waste_basket"}},"type":"Feature"},
	{"geometry":{"coordinates":[8.498978,47.377396],"type":"Point"},"properties":{"osm_id":"4940639550","tag":{"amenity":"waste_basket"}},"type":"Feature"},
	{"geometry":{"coordinates":[8.499088,47.377373],"type":"Point"},"properties":{"osm_id":"4940639551","tag":{"amenity":"waste_basket"}},"type":"Feature"},
	{"geometry":{"coordinates":[8.507004,47.377124],"type":"Point"},"properties":{"osm_id":"4940639564","tag":{"amenity":"waste_basket"}},"type":"Feature"},
	{"geometry":{"coordinates":[8.506941,47.376962],"type":"Point"},"properties":{"osm_id":"4940639566","tag":{"amenity":"waste_basket","operator":"Robidog","vending":"excrement_bags"}},"type":"Feature"},
	{"geometry":{"coordinates":[8.504564,47.374872],"type":"Point"},"properties":{"osm_id":"4940639578","tag":{"amenity":"waste_basket"}},"type":"Feature"},
	{"geometry":{"coordinates":[8.501747,47.375095],"type":"Point"},"properties":{"osm_id":"4940639579","tag":{"amenity":"recycling","operator":"Texaid","recycling:clothes":"yes","recycling:shoes":"yes","recycling_type":"container"}},"type":"Feature"},
	{"geometry":{"coordinates":[8.503271,47.374077],"type":"Point"},"properties":{"osm_id":"4940639584","tag":{"amenity":"waste_basket"}},"type":"Feature"},
	{"geometry":{"coordinates":[8.503297,47.373858],"type":"Point"},"properties":{"osm_id":"4940639587","tag":{"amenity":"waste_basket","manufacturer":"Anta Swiss"}},"type":"Feature"},
	{"geometry":{"coordinates":[8.509079,47.372197],"type":"Point"},"properties":{"osm_id":"4940639616","tag":{"amenity":"waste_basket"}},"type":"Feature"},
	{"geometry":{"coordinates":[8.505303,47.370108],"type":"Point"},"properties":{"osm_id":"4948524158","tag":{"amenity":"waste_basket"}},"type":"Feature"},
	{"geometry":{"coordinates":[8.506539,47.369506],"type":"Point"},"properties":{"osm_id":"4948524164","tag":{"amenity":"waste_basket"}},"type":"Feature"},
	{"geometry":{"coordinates":[8.501837,47.368852],"type":"Point"},"properties":{"osm_id":"4948524179","tag":{"amenity":"waste_basket"}},"type":"Feature"},
	{"geometry":{"coordinates":[8.502144,47.368887],"type":"Point"},"properties":{"osm_id":"4948524184","tag":{"amenity":"waste_basket"}},"type":"Feature"},
	{"geometry":{"coordinates":[8.501778,47.368936],"type":"Point"},"properties":{"osm_id":"4948524185","tag":{"amenity":"waste_basket"}},"type":"Feature"},
	{"geometry":{"coordinates":[8.50207,47.368973],"type":"Point"},"properties":{"osm_id":"4948524186","tag":{"amenity":"waste_basket"}},"type":"Feature"},
	{"geometry":{"coordinates":[8.502429,47.369015],"type":"Point"},"properties":{"osm_id":"4948524196","tag":{"amenity":"waste_basket"}},"type":"Feature"},
	{"geometry":{"coordinates":[8.502494,47.368929],"type":"Point"},"properties":{"osm_id":"4948524197","tag":{"amenity":"waste_basket"}},"type":"Feature"},
	{"geometry":{"coordinates":[8.505547,47.369155],"type":"Point"},"properties":{"osm_id":"4948524218","tag":{"amenity":"waste_basket"}},"type":"Feature"},
	{"geometry":{"coordinates":[8.505691,47.3691],"type":"Point"},"properties":{"osm_id":"4948524421","tag":{"amenity":"waste_basket"}},"type":"Feature"},
	{"geometry":{"coordinates":[8.506711,47.36713],"type":"Point"},"properties":{"osm_id":"4948524440","tag":{"amenity":"waste_basket"}},"type":"Feature"},
	{"geometry":{"coordinates":[8.510607,47.36797],"type":"Point"},"properties":{"osm_id":"4948524450","tag":{"amenity":"waste_basket"}},"type":"Feature"},
	{"geometry":{"coordinates":[8.510811,47.368024],"type":"Point"},"properties":{"osm_id":"4948524458","tag":{"amenity":"waste_basket"}},"type":"Feature"},
	{"geometry":{"coordinates":[8.510123,47.37016],"type":"Point"},"properties":{"osm_id":"4948524467","tag":{"amenity":"waste_basket"}},"type":"Feature"},
	{"geometry":{"coordinates":[8.511038,47.36748],"type":"Point"},"properties":{"osm_id":"4948524538","tag":{"amenity":"waste_basket"}},"type":"Feature"},
	{"geometry":{"coordinates":[8.510877,47.36762],"type":"Point"},"properties":{"osm_id":"4948524541","tag":{"amenity":"waste_basket"}},"type":"Feature"},
	{"geometry":{"coordinates":[8.512877,47.367186],"type":"Point"},"properties":{"osm_id":"4948524566","tag":{"amenity":"recycling","operator":"Texaid","recycling:clothes":"yes","recycling:shoes":"yes","recycling_type":"container"}},"type":"Feature"},
	{"geometry":{"coordinates":[8.507264,47.352084],"type":"Point"},"properties":{"osm_id":"4948524595","tag":{"amenity":"waste_basket","manufacturer":"Anta Swiss"}},"type":"Feature"},
	{"geometry":{"coordinates":[8.507196,47.352243],"type":"Point"},"properties":{"osm_id":"4948524598","tag":{"amenity":"waste_basket","manufacturer":"Anta Swiss"}},"type":"Feature"},
	{"geometry":{"coordinates":[8.517486,47.358625],"type":"Point"},"properties":{"osm_id":"4948524620","tag":{"amenity":"waste_basket"}},"type":"Feature"},
	{"geometry":{"coordinates":[8.517645,47.358588],"type":"Point"},"properties":{"osm_id":"4948524623","tag":{"amenity":"waste_basket"}},"type":"Feature"},
	{"geometry":{"coordinates":[8.517394,47.358646],"type":"Point"},"properties":{"osm_id":"4948524624","tag":{"amenity":"waste_basket"}},"type":"Feature"},
	{"geometry":{"coordinates":[8.517388,47.358749],"type":"Point"},"properties":{"osm_id":"4948524627","tag":{"amenity":"waste_basket"}},"type":"Feature"},
	{"geometry":{"coordinates":[8.517801,47.358652],"type":"Point"},"properties":{"osm_id":"4948524629","tag":{"amenity":"waste_basket"}},"type":"Feature"},
	{"geometry":{"coordinates":[8.520549,47.357742],"type":"Point"},"properties":{"osm_id":"4948524634","tag":{"amenity":"waste_basket"}},"type":"Feature"},
	{"geometry":{"coordinates":[8.520668,47.357683],"type":"Point"},"properties":{"osm_id":"4948524635","tag":{"amenity":"waste_basket"}},"type":"Feature"},
	{"geometry":{"coordinates":[8.495296,47.368323],"type":"Point"},"properties":{"osm_id":"4949132240","tag":{"amenity":"waste_basket"}},"type":"Feature"},
	{"geometry":{"coordinates":[8.495188,47.368302],"type":"Point"},"properties":{"osm_id":"4949132241","tag":{"amenity":"waste_basket"}},"type":"Feature"},
	{"geometry":{"coordinates":[8.49552,47.36756],"type":"Point"},"properties":{"osm_id":"4949132246","tag":{"amenity":"waste_basket"}},"type":"Feature"},
	{"geometry":{"coordinates":[8.49555,47.368046],"type":"Point"},"properties":{"osm_id":"4949132249","tag":{"amenity":"waste_basket"}},"type":"Feature"},
	{"geometry":{"coordinates":[8.495274,47.36797],"type":"Point"},"properties":{"osm_id":"4949132251","tag":{"amenity":"waste_basket"}},"type":"Feature"},
	{"geometry":{"coordinates":[8.495433,47.367847],"type":"Point"},"properties":{"osm_id":"4949132252","tag":{"amenity":"waste_basket"}},"type":"Feature"},
	{"geometry":{"coordinates":[8.495621,47.367907],"type":"Point"},"properties":{"osm_id":"4949132253","tag":{"amenity":"waste_basket"}},"type":"Feature"},
	{"geometry":{"coordinates":[8.495646,47.367992],"type":"Point"},"properties":{"osm_id":"4949132254","tag":{"amenity":"waste_basket"}},"type":"Feature"},
	{"geometry":{"coordinates":[8.495773,47.368318],"type":"Point"},"properties":{"osm_id":"4949132257","tag":{"amenity":"waste_basket"}},"type":"Feature"},
	{"geometry":{"coordinates":[8.495397,47.367951],"type":"Point"},"properties":{"osm_id":"4949132260","tag":{"amenity":"waste_basket"}},"type":"Feature"},
	{"geometry":{"coordinates":[8.496799,47.366669],"type":"Point"},"properties":{"osm_id":"4949132264","tag":{"amenity":"waste_basket"}},"type":"Feature"},
	{"geometry":{"coordinates":[8.496538,47.366943],"type":"Point"},"properties":{"osm_id":"4949132266","tag":{"amenity":"waste_basket"}},"type":"Feature"},
	{"geometry":{"coordinates":[8.496258,47.367233],"type":"Point"},"properties":{"osm_id":"4949132268","tag":{"amenity":"waste_basket"}},"type":"Feature"},
	{"geometry":{"coordinates":[8.496052,47.367717],"type":"Point"},"properties":{"osm_id":"4949132272","tag":{"amenity":"waste_basket"}},"type":"Feature"},
	{"geometry":{"coordinates":[8.492936,47.366884],"type":"Point"},"properties":{"osm_id":"4949132277","tag":{"amenity":"waste_basket"}},"type":"Feature"},
	{"geometry":{"coordinates":[8.502688,47.364547],"type":"Point"},"properties":{"osm_id":"4951131379","tag":{"amenity":"waste_basket","manufacturer":"Anta Swiss"}},"type":"Feature"},
	{"geometry":{"coordinates":[8.502802,47.364801],"type":"Point"},"properties":{"osm_id":"4951131382","tag":{"amenity":"waste_basket","manufacturer":"Anta Swiss"}},"type":"Feature"},
	{"geometry":{"coordinates":[8.503428,47.36494],"type":"Point"},"properties":{"osm_id":"4951131385","tag":{"amenity":"waste_basket"}},"type":"Feature"},
	{"geometry":{"coordinates":[8.503806,47.36494],"type":"Point"},"properties":{"osm_id":"4951131393","tag":{"amenity":"waste_basket"}},"type":"Feature"},
	{"geometry":{"coordinates":[8.503075,47.364935],"type":"Point"},"properties":{"osm_id":"4951131400","tag":{"amenity":"waste_basket"}},"type":"Feature"},
	{"geometry":{"coordinates":[8.502693,47.365418],"type":"Point"},"properties":{"osm_id":"4951131414","tag":{"amenity":"waste_basket"}},"type":"Feature"},
	{"geometry":{"coordinates":[8.504084,47.366344],"type":"Point"},"properties":{"osm_id":"4951135088","tag":{"amenity":"waste_basket"}},"type":"Feature"},
	{"geometry":{"coordinates":[8.503832,47.366918],"type":"Point"},"properties":{"osm_id":"4951135096","tag":{"amenity":"waste_basket"}},"type":"Feature"},
	{"geometry":{"coordinates":[8.503919,47.366559],"type":"Point"},"properties":{"osm_id":"4951135097","tag":{"amenity":"waste_basket"}},"type":"Feature"},
	{"geometry":{"coordinates":[8.509442,47.369766],"type":"Point"},"properties":{"osm_id":"4951135130","tag":{"amenity":"waste_basket"}},"type":"Feature"},
	{"geometry":{"coordinates":[8.509602,47.369879],"type":"Point"},"properties":{"osm_id":"4951135135","tag":{"amenity":"waste_basket"}},"type":"Feature"},
	{"geometry":{"coordinates":[8.509332,47.369846],"type":"Point"},"properties":{"osm_id":"4951135136","tag":{"amenity":"waste_basket"}},"type":"Feature"},
	{"geometry":{"coordinates":[8.510573,47.373853],"type":"Point"},"properties":{"osm_id":"4951135165","tag":{"amenity":"waste_basket"}},"type":"Feature"},
	{"geometry":{"coordinates":[8.511225,47.353197],"type":"Point"},"properties":{"osm_id":"4951135187","tag":{"amenity":"waste_basket"}},"type":"Feature"},
	{"geometry":{"coordinates":[8.497403,47.366129],"type":"Point"},"properties":{"osm_id":"4952797088","tag":{"amenity":"waste_basket"}},"type":"Feature"},
	{"geometry":{"coordinates":[8.521433,47.374256],"type":"Point"},"properties":{"osm_id":"4952797100","tag":{"amenity":"waste_basket"}},"type":"Feature"},
	{"geometry":{"coordinates":[8.518298,47.362918],"type":"Point"},"properties":{"osm_id":"4952797102","tag":{"amenity":"waste_basket"}},"type":"Feature"},
	{"geometry":{"coordinates":[8.518156,47.362951],"type":"Point"},"properties":{"osm_id":"4952797103","tag":{"amenity":"waste_basket"}},"type":"Feature"},
	{"geometry":{"coordinates":[8.510949,47.361936],"type":"Point"},"properties":{"osm_id":"4952797115","tag":{"amenity":"waste_basket"}},"type":"Feature"},
	{"geometry":{"coordinates":[8.511657,47.362853],"type":"Point"},"properties":{"osm_id":"4952798626","tag":{"amenity":"waste_basket"}},"type":"Feature"},
	{"geometry":{"coordinates":[8.511619,47.364175],"type":"Point"},"properties":{"osm_id":"4952798665","tag":{"amenity":"waste_basket"}},"type":"Feature"},
	{"geometry":{"coordinates":[8.505058,47.362249],"type":"Point"},"properties":{"osm_id":"4952798732","tag":{"amenity":"waste_basket"}},"type":"Feature"},
	{"geometry":{"coordinates":[8.523298,47.37185],"type":"Point"},"properties":{"osm_id":"4954892387","tag":{"amenity":"waste_basket"}},"type":"Feature"},
	{"geometry":{"coordinates":[8.523723,47.371679],"type":"Point"},"properties":{"osm_id":"4954892399","tag":{"amenity":"waste_basket"}},"type":"Feature"},
	{"geometry":{"coordinates":[8.523943,47.37119],"type":"Point"},"properties":{"osm_id":"4954892404","tag":{"amenity":"waste_basket"}},"type":"Feature"},
	{"geometry":{"coordinates":[8.524289,47.371215],"type":"Point"},"properties":{"osm_id":"4954892413","tag":{"amenity":"waste_basket"}},"type":"Feature"},
	{"geometry":{"coordinates":[8.523971,47.371552],"type":"Point"},"properties":{"osm_id":"4954892416","tag":{"amenity":"waste_basket"}},"type":"Feature"},
	{"geometry":{"coordinates":[8.524412,47.371321],"type":"Point"},"properties":{"osm_id":"4954892646","tag":{"amenity":"waste_basket"}},"type":"Feature"},
	{"geometry":{"coordinates":[8.519034,47.368575],"type":"Point"},"properties":{"osm_id":"4954892656","tag":{"amenity":"waste_basket"}},"type":"Feature"},
	{"geometry":{"coordinates":[8.517271,47.368387],"type":"Point"},"properties":{"osm_id":"4954892659","tag":{"amenity":"waste_basket"}},"type":"Feature"},
	{"geometry":{"coordinates":[8.517516,47.369348],"type":"Point"},"properties":{"osm_id":"4954892665","tag":{"amenity":"waste_basket"}},"type":"Feature"},
	{"geometry":{"coordinates":[8.510244,47.372956],"type":"Point"},"properties":{"osm_id":"4956927621","tag":{"amenity":"waste_basket"}},"type":"Feature"},
	{"geometry":{"coordinates":[8.496038,47.365903],"type":"Point"},"properties":{"osm_id":"4956927625","tag":{"amenity":"waste_basket"}},"type":"Feature"},
	{"geometry":{"coordinates":[8.496372,47.365429],"type":"Point"},"properties":{"osm_id":"4956927628","tag":{"amenity":"waste_basket"}},"type":"Feature"},
	{"geometry":{"coordinates":[8.518475,47.363016],"type":"Point"},"properties":{"osm_id":"4956927645","tag":{"amenity":"waste_basket"}},"type":"Feature"},
	{"geometry":{"coordinates":[8.518128,47.362843],"type":"Point"},"properties":{"osm_id":"4956927648","tag":{"amenity":"waste_basket"}},"type":"Feature"},
	{"geometry":{"coordinates":[8.523161,47.368807],"type":"Point"},"properties":{"osm_id":"4956927773","tag":{"amenity":"waste_basket"}},"type":"Feature"},
	{"geometry":{"coordinates":[8.519729,47.370013],"type":"Point"},"properties":{"osm_id":"4956927850","tag":{"amenity":"waste_basket"}},"type":"Feature"},
	{"geometry":{"coordinates":[8.511583,47.373913],"type":"Point"},"properties":{"osm_id":"4958231186","tag":{"amenity":"waste_basket"}},"type":"Feature"},
	{"geometry":{"coordinates":[8.512035,47.374221],"type":"Point"},"properties":{"osm_id":"4958231195","tag":{"amenity":"waste_basket"}},"type":"Feature"},
	{"geometry":{"coordinates":[8.512299,47.374521],"type":"Point"},"properties":{"osm_id":"4958231206","tag":{"amenity":"waste_basket"}},"type":"Feature"},
	{"geometry":{"coordinates":[8.512134,47.374778],"type":"Point"},"properties":{"osm_id":"4958231213","tag":{"amenity":"waste_basket"}},"type":"Feature"},
	{"geometry":{"coordinates":[8.511003,47.376174],"type":"Point"},"properties":{"osm_id":"4958231215","tag":{"amenity":"waste_basket"}},"type":"Feature"},
	{"geometry":{"coordinates":[8.511111,47.375743],"type":"Point"},"properties":{"osm_id":"4958231220","tag":{"amenity":"waste_basket"}},"type":"Feature"},
	{"geometry":{"coordinates":[8.509081,47.378147],"type":"Point"},"properties":{"osm_id":"4958238440","tag":{"amenity":"waste_basket"}},"type":"Feature"},
	{"geometry":{"coordinates":[8.517629,47.375371],"type":"Point"},"properties":{"osm_id":"4958238472","tag":{"amenity":"waste_basket"}},"type":"Feature"},
	{"geometry":{"coordinates":[8.517492,47.375507],"type":"Point"},"properties":{"osm_id":"4958238473","tag":{"amenity":"waste_basket"}},"type":"Feature"},
	{"geometry":{"coordinates":[8.517313,47.375548],"type":"Point"},"properties":{"osm_id":"4958238474","tag":{"amenity":"waste_basket"}},"type":"Feature"},
	{"geometry":{"coordinates":[8.517447,47.375416],"type":"Point"},"properties":{"osm_id":"4958238475","tag":{"amenity":"waste_basket"}},"type":"Feature"},
	{"geometry":{"coordinates":[8.519153,47.370957],"type":"Point"},"properties":{"osm_id":"4958238483","tag":{"amenity":"waste_basket"}},"type":"Feature"},
	{"geometry":{"coordinates":[8.495062,47.364992],"type":"Point"},"properties":{"osm_id":"4958439556","tag":{"amenity":"waste_basket"}},"type":"Feature"},
	{"geometry":{"coordinates":[8.521126,47.374304],"type":"Point"},"properties":{"osm_id":"4961745824","tag":{"amenity":"waste_basket"}},"type":"Feature"},
	{"geometry":{"coordinates":[8.519497,47.374643],"type":"Point"},"properties":{"osm_id":"4961745825","tag":{"amenity":"waste_basket"}},"type":"Feature"},
	{"geometry":{"coordinates":[8.51616,47.377306],"type":"Point"},"properties":{"osm_id":"4961745867","tag":{"amenity":"waste_basket"}},"type":"Feature"},
	{"geometry":{"coordinates":[8.51624,47.379452],"type":"Point"},"properties":{"osm_id":"4961746016","tag":{"amenity":"waste_basket"}},"type":"Feature"},
	{"geometry":{"coordinates":[8.51593,47.379431],"type":"Point"},"properties":{"osm_id":"4961746237","tag":{"amenity":"waste_basket"}},"type":"Feature"},
	{"geometry":{"coordinates":[8.515189,47.382211],"type":"Point"},"properties":{"osm_id":"4961746255","tag":{"amenity":"waste_basket","manufacturer":"Anta Swiss"}},"type":"Feature"},
	{"geometry":{"coordinates":[8.515398,47.382188],"type":"Point"},"properties":{"osm_id":"4961746256","tag":{"amenity":"waste_basket","manufacturer":"Anta Swiss"}},"type":"Feature"},
	{"geometry":{"coordinates":[8.515431,47.382467],"type":"Point"},"properties":{"osm_id":"4961746264","tag":{"amenity":"waste_basket","manufacturer":"Anta Swiss"}},"type":"Feature"},
	{"geometry":{"coordinates":[8.514901,47.382935],"type":"Point"},"properties":{"osm_id":"4961746279","tag":{"amenity":"waste_basket"}},"type":"Feature"},
	{"geometry":{"coordinates":[8.513059,47.382672],"type":"Point"},"properties":{"osm_id":"4961746287","tag":{"amenity":"recycling","operator":"Texaid","recycling:clothes":"yes","recycling:shoes":"yes","recycling_type":"container"}},"type":"Feature"},
	{"geometry":{"coordinates":[8.513778,47.38139],"type":"Point"},"properties":{"osm_id":"4961746354","tag":{"amenity":"waste_basket"}},"type":"Feature"},
	{"geometry":{"coordinates":[8.503533,47.381211],"type":"Point"},"properties":{"osm_id":"4963456246","tag":{"amenity":"waste_basket"}},"type":"Feature"},
	{"geometry":{"coordinates":[8.503615,47.381309],"type":"Point"},"properties":{"osm_id":"4963456247","tag":{"amenity":"waste_basket"}},"type":"Feature"},
	{"geometry":{"coordinates":[8.503798,47.381231],"type":"Point"},"properties":{"osm_id":"4963456248","tag":{"amenity":"waste_basket"}},"type":"Feature"},
	{"geometry":{"coordinates":[8.503715,47.381146],"type":"Point"},"properties":{"osm_id":"4963456249","tag":{"amenity":"waste_basket"}},"type":"Feature"},
	{"geometry":{"coordinates":[8.507183,47.377723],"type":"Point"},"properties":{"osm_id":"4963456263","tag":{"amenity":"waste_basket"}},"type":"Feature"},
	{"geometry":{"coordinates":[8.507329,47.377751],"type":"Point"},"properties":{"osm_id":"4963456264","tag":{"amenity":"waste_basket"}},"type":"Feature"},
	{"geometry":{"coordinates":[8.507483,47.377689],"type":"Point"},"properties":{"osm_id":"4963456265","tag":{"amenity":"waste_basket"}},"type":"Feature"},
	{"geometry":{"coordinates":[8.50734,47.377661],"type":"Point"},"properties":{"osm_id":"4963456266","tag":{"amenity":"waste_basket"}},"type":"Feature"},
	{"geometry":{"coordinates":[8.519038,47.373148],"type":"Point"},"properties":{"osm_id":"4967620716","tag":{"amenity":"waste_basket"}},"type":"Feature"},
	{"geometry":{"coordinates":[8.519652,47.372648],"type":"Point"},"properties":{"osm_id":"4967620717","tag":{"amenity":"waste_basket"}},"type":"Feature"},
	{"geometry":{"coordinates":[8.51407,47.368595],"type":"Point"},"properties":{"osm_id":"4967622145","tag":{"amenity":"waste_basket"}},"type":"Feature"},
	{"geometry":{"coordinates":[8.514682,47.369048],"type":"Point"},"properties":{"osm_id":"4967622146","tag":{"amenity":"waste_basket"}},"type":"Feature"},
	{"geometry":{"coordinates":[8.515052,47.379643],"type":"Point"},"properties":{"osm_id":"4968281137","tag":{"amenity":"recycling","operator":"Texaid","recycling:clothes":"yes","recycling:shoes":"yes","recycling_type":"container"}},"type":"Feature"},
	{"geometry":{"coordinates":[8.515212,47.379058],"type":"Point"},"properties":{"osm_id":"4968281141","tag":{"amenity":"waste_basket"}},"type":"Feature"},
	{"geometry":{"coordinates":[8.512254,47.380748],"type":"Point"},"properties":{"osm_id":"4968281150","tag":{"amenity":"waste_basket"}},"type":"Feature"},
	{"geometry":{"coordinates":[8.508381,47.364932],"type":"Point"},"properties":{"osm_id":"4970752943","tag":{"amenity":"waste_basket"}},"type":"Feature"},
	{"geometry":{"coordinates":[8.508484,47.36499],"type":"Point"},"properties":{"osm_id":"4970752946","tag":{"amenity":"waste_basket"}},"type":"Feature"},
	{"geometry":{"coordinates":[8.503308,47.365867],"type":"Point"},"properties":{"osm_id":"4970752957","tag":{"amenity":"waste_basket"}},"type":"Feature"},
	{"geometry":{"coordinates":[8.523129,47.34817],"type":"Point"},"properties":{"osm_id":"4973302424","tag":{"amenity":"waste_basket"}},"type":"Feature"},
	{"geometry":{"coordinates":[8.501845,47.380236],"type":"Point"},"properties":{"osm_id":"4975615745","tag":{"amenity":"recycling","description":"Container: Metall (2), Gr\u00c3\u00bcnglas (2), Weissglas (1), Braunglas (1)","opening_hours":"Mo-Sa 07:00-20:00","operator":"ERZ","recycling:aluminium":"yes","recycling:cans":"yes","recycling:glass_bottles":"yes","recycling_type":"container","wheelchair":"yes"}},"type":"Feature"},
	{"geometry":{"coordinates":[8.499564,47.383225],"type":"Point"},"properties":{"osm_id":"4977482175","tag":{"amenity":"waste_basket"}},"type":"Feature"},
	{"geometry":{"coordinates":[8.499733,47.383144],"type":"Point"},"properties":{"osm_id":"4977482176","tag":{"amenity":"waste_basket"}},"type":"Feature"},
	{"geometry":{"coordinates":[8.495534,47.374214],"type":"Point"},"properties":{"osm_id":"4977950072","tag":{"amenity":"waste_basket"}},"type":"Feature"},
	{"geometry":{"coordinates":[8.495423,47.374294],"type":"Point"},"properties":{"osm_id":"4977950073","tag":{"amenity":"waste_basket"}},"type":"Feature"},
	{"geometry":{"coordinates":[8.503136,47.373535],"type":"Point"},"properties":{"osm_id":"5025385280","tag":{"amenity":"waste_basket"}},"type":"Feature"},
	{"geometry":{"coordinates":[8.483434,47.374344],"type":"Point"},"properties":{"osm_id":"5034034059","tag":{"amenity":"waste_basket"}},"type":"Feature"},
	{"geometry":{"coordinates":[8.483376,47.374629],"type":"Point"},"properties":{"osm_id":"5036946468","tag":{"amenity":"waste_basket"}},"type":"Feature"},
	{"geometry":{"coordinates":[8.487211,47.372147],"type":"Point"},"properties":{"osm_id":"5036946473","tag":{"amenity":"waste_basket"}},"type":"Feature"},
	{"geometry":{"coordinates":[8.487423,47.372197],"type":"Point"},"properties":{"osm_id":"5036946475","tag":{"amenity":"waste_basket"}},"type":"Feature"},
	{"geometry":{"coordinates":[8.49089,47.369506],"type":"Point"},"properties":{"osm_id":"5036946487","tag":{"amenity":"waste_basket"}},"type":"Feature"},
	{"geometry":{"coordinates":[8.49138,47.369438],"type":"Point"},"properties":{"osm_id":"5036946488","tag":{"amenity":"waste_basket"}},"type":"Feature"},
	{"geometry":{"coordinates":[8.506274,47.371798],"type":"Point"},"properties":{"osm_id":"5036946500","tag":{"amenity":"waste_basket"}},"type":"Feature"},
	{"geometry":{"coordinates":[8.507114,47.371591],"type":"Point"},"properties":{"osm_id":"5036946504","tag":{"amenity":"waste_basket"}},"type":"Feature"},
	{"geometry":{"coordinates":[8.497906,47.361006],"type":"Point"},"properties":{"osm_id":"5039517455","tag":{"amenity":"waste_basket"}},"type":"Feature"},
	{"geometry":{"coordinates":[8.498727,47.361032],"type":"Point"},"properties":{"osm_id":"5039517458","tag":{"amenity":"waste_basket"}},"type":"Feature"},
	{"geometry":{"coordinates":[8.499909,47.359639],"type":"Point"},"properties":{"osm_id":"5039517489","tag":{"amenity":"waste_basket"}},"type":"Feature"},
	{"geometry":{"coordinates":[8.501704,47.35832],"type":"Point"},"properties":{"osm_id":"5039517514","tag":{"amenity":"waste_basket"}},"type":"Feature"},
	{"geometry":{"coordinates":[8.501948,47.358006],"type":"Point"},"properties":{"osm_id":"5039517515","tag":{"amenity":"waste_basket"}},"type":"Feature"},
	{"geometry":{"coordinates":[8.502505,47.357497],"type":"Point"},"properties":{"osm_id":"5039517519","tag":{"amenity":"waste_basket"}},"type":"Feature"},
	{"geometry":{"coordinates":[8.503825,47.355889],"type":"Point"},"properties":{"osm_id":"5039521139","tag":{"amenity":"waste_basket"}},"type":"Feature"},
	{"geometry":{"coordinates":[8.506342,47.352883],"type":"Point"},"properties":{"osm_id":"5039521227","tag":{"amenity":"waste_basket"}},"type":"Feature"},
	{"geometry":{"coordinates":[8.506372,47.35265],"type":"Point"},"properties":{"osm_id":"5039521228","tag":{"amenity":"waste_basket"}},"type":"Feature"},
	{"geometry":{"coordinates":[8.504819,47.354371],"type":"Point"},"properties":{"osm_id":"5039521236","tag":{"amenity":"waste_basket"}},"type":"Feature"},
	{"geometry":{"coordinates":[8.504129,47.355127],"type":"Point"},"properties":{"osm_id":"5039521242","tag":{"amenity":"waste_basket"}},"type":"Feature"},
	{"geometry":{"coordinates":[8.500989,47.353151],"type":"Point"},"properties":{"osm_id":"5039521448","tag":{"amenity":"waste_basket"}},"type":"Feature"},
	{"geometry":{"coordinates":[8.506484,47.352334],"type":"Point"},"properties":{"osm_id":"5039521476","tag":{"amenity":"waste_basket"}},"type":"Feature"},
	{"geometry":{"coordinates":[8.51009,47.356627],"type":"Point"},"properties":{"osm_id":"5041308947","tag":{"amenity":"waste_basket"}},"type":"Feature"},
	{"geometry":{"coordinates":[8.508914,47.355727],"type":"Point"},"properties":{"osm_id":"5041308957","tag":{"amenity":"recycling","operator":"Texaid","recycling:clothes":"yes","recycling:shoes":"yes","recycling_type":"container"}},"type":"Feature"},
	{"geometry":{"coordinates":[8.508675,47.355665],"type":"Point"},"properties":{"osm_id":"5041308960","tag":{"amenity":"waste_basket"}},"type":"Feature"},
	{"geometry":{"coordinates":[8.499452,47.363114],"type":"Point"},"properties":{"osm_id":"5041310381","tag":{"amenity":"waste_basket"}},"type":"Feature"},
	{"geometry":{"coordinates":[8.50203,47.360986],"type":"Point"},"properties":{"osm_id":"5041310418","tag":{"amenity":"waste_basket"}},"type":"Feature"},
	{"geometry":{"coordinates":[8.502634,47.361157],"type":"Point"},"properties":{"osm_id":"5041310622","tag":{"amenity":"waste_basket"}},"type":"Feature"},
	{"geometry":{"coordinates":[8.495622,47.361898],"type":"Point"},"properties":{"osm_id":"5041310723","tag":{"amenity":"waste_basket"}},"type":"Feature"},
	{"geometry":{"coordinates":[8.496463,47.361418],"type":"Point"},"properties":{"osm_id":"5041310724","tag":{"amenity":"waste_basket"}},"type":"Feature"},
	{"geometry":{"coordinates":[8.496974,47.361136],"type":"Point"},"properties":{"osm_id":"5041310736","tag":{"amenity":"waste_basket"}},"type":"Feature"},
	{"geometry":{"coordinates":[8.497626,47.35876],"type":"Point"},"properties":{"osm_id":"5041311168","tag":{"amenity":"waste_basket"}},"type":"Feature"},
	{"geometry":{"coordinates":[8.465571,47.366084],"type":"Point"},"properties":{"osm_id":"5047714075","tag":{"amenity":"waste_basket"}},"type":"Feature"},
	{"geometry":{"coordinates":[8.495314,47.364987],"type":"Point"},"properties":{"osm_id":"5047714450","tag":{"amenity":"waste_basket"}},"type":"Feature"},
	{"geometry":{"coordinates":[8.484617,47.370281],"type":"Point"},"properties":{"osm_id":"5050667347","tag":{"amenity":"waste_basket"}},"type":"Feature"},
	{"geometry":{"coordinates":[8.487153,47.367854],"type":"Point"},"properties":{"osm_id":"5050667373","tag":{"amenity":"waste_basket"}},"type":"Feature"},
	{"geometry":{"coordinates":[8.48775,47.367679],"type":"Point"},"properties":{"osm_id":"5050667377","tag":{"amenity":"waste_basket"}},"type":"Feature"},
	{"geometry":{"coordinates":[8.515312,47.364023],"type":"Point"},"properties":{"osm_id":"5050668186","tag":{"amenity":"waste_basket"}},"type":"Feature"},
	{"geometry":{"coordinates":[8.476158,47.338994],"type":"Point"},"properties":{"osm_id":"5053952731","tag":{"amenity":"waste_basket"}},"type":"Feature"},
	{"geometry":{"coordinates":[8.515421,47.362623],"type":"Point"},"properties":{"osm_id":"5060635331","tag":{"amenity":"waste_basket"}},"type":"Feature"},
	{"geometry":{"coordinates":[8.514634,47.362995],"type":"Point"},"properties":{"osm_id":"5060635336","tag":{"amenity":"waste_basket"}},"type":"Feature"},
	{"geometry":{"coordinates":[8.514677,47.378317],"type":"Point"},"properties":{"osm_id":"5063937358","tag":{"amenity":"recycling","operator":"Texaid","recycling:clothes":"yes","recycling:shoes":"yes","recycling_type":"container"}},"type":"Feature"},
	{"geometry":{"coordinates":[8.499559,47.385703],"type":"Point"},"properties":{"osm_id":"5078371153","tag":{"amenity":"recycling","operator":"Texaid","recycling:clothes":"yes","recycling:shoes":"yes","recycling_type":"container"}},"type":"Feature"},
	{"geometry":{"coordinates":[8.508954,47.384791],"type":"Point"},"properties":{"osm_id":"5082714440","tag":{"amenity":"waste_basket"}},"type":"Feature"},
	{"geometry":{"coordinates":[8.508815,47.384832],"type":"Point"},"properties":{"osm_id":"5082714441","tag":{"amenity":"waste_basket"}},"type":"Feature"},
	{"geometry":{"coordinates":[8.512636,47.369045],"type":"Point"},"properties":{"osm_id":"5099928768","tag":{"amenity":"waste_disposal"}},"type":"Feature"},
	{"geometry":{"coordinates":[8.512625,47.369036],"type":"Point"},"properties":{"osm_id":"5099928769","tag":{"amenity":"waste_disposal"}},"type":"Feature"},
	{"geometry":{"coordinates":[8.512647,47.369055],"type":"Point"},"properties":{"osm_id":"5099928770","tag":{"amenity":"waste_disposal"}},"type":"Feature"},
	{"geometry":{"coordinates":[8.477933,47.378395],"type":"Point"},"properties":{"osm_id":"5113377078","tag":{"amenity":"waste_basket"}},"type":"Feature"},
	{"geometry":{"coordinates":[8.481929,47.374808],"type":"Point"},"properties":{"osm_id":"5113377099","tag":{"amenity":"waste_basket"}},"type":"Feature"},
	{"geometry":{"coordinates":[8.492218,47.3749],"type":"Point"},"properties":{"osm_id":"5129381813","tag":{"amenity":"waste_basket"}},"type":"Feature"},
	{"geometry":{"coordinates":[8.494842,47.37456],"type":"Point"},"properties":{"osm_id":"5129383222","tag":{"amenity":"waste_basket"}},"type":"Feature"},
	{"geometry":{"coordinates":[8.500057,47.373894],"type":"Point"},"properties":{"osm_id":"5129383241","tag":{"amenity":"waste_basket"}},"type":"Feature"},
	{"geometry":{"coordinates":[8.49176,47.369542],"type":"Point"},"properties":{"osm_id":"5129383252","tag":{"amenity":"waste_basket"}},"type":"Feature"},
	{"geometry":{"coordinates":[8.484888,47.396468],"type":"Point"},"properties":{"osm_id":"5129414663","tag":{"amenity":"waste_basket"}},"type":"Feature"},
	{"geometry":{"coordinates":[8.485094,47.396394],"type":"Point"},"properties":{"osm_id":"5129414664","tag":{"amenity":"waste_basket"}},"type":"Feature"},
	{"geometry":{"coordinates":[8.484956,47.396337],"type":"Point"},"properties":{"osm_id":"5129414666","tag":{"amenity":"waste_basket"}},"type":"Feature"},
	{"geometry":{"coordinates":[8.485088,47.396301],"type":"Point"},"properties":{"osm_id":"5129414669","tag":{"amenity":"waste_basket"}},"type":"Feature"},
	{"geometry":{"coordinates":[8.512487,47.357276],"type":"Point"},"properties":{"osm_id":"5133221553","tag":{"amenity":"recycling","recycling:biodegradable":"yes","recycling_type":"container"}},"type":"Feature"},
	{"geometry":{"coordinates":[8.512536,47.357217],"type":"Point"},"properties":{"osm_id":"5133221554","tag":{"amenity":"recycling","recycling:trash":"yes","recycling_type":"container"}},"type":"Feature"},
	{"geometry":{"coordinates":[8.515045,47.382345],"type":"Point"},"properties":{"osm_id":"5133734168","tag":{"amenity":"waste_basket","manufacturer":"Anta Swiss"}},"type":"Feature"},
	{"geometry":{"coordinates":[8.489208,47.38645],"type":"Point"},"properties":{"osm_id":"5149532548","tag":{"amenity":"recycling","operator":"Texaid","recycling:clothes":"yes","recycling:shoes":"yes","recycling_type":"container"}},"type":"Feature"},
	{"geometry":{"coordinates":[8.489454,47.38875],"type":"Point"},"properties":{"osm_id":"5151419711","tag":{"amenity":"waste_basket"}},"type":"Feature"},
	{"geometry":{"coordinates":[8.487614,47.385027],"type":"Point"},"properties":{"osm_id":"5151419730","tag":{"amenity":"waste_basket"}},"type":"Feature"},
	{"geometry":{"coordinates":[8.487042,47.382607],"type":"Point"},"properties":{"osm_id":"5151419763","tag":{"amenity":"waste_basket"}},"type":"Feature"},
	{"geometry":{"coordinates":[8.483838,47.382827],"type":"Point"},"properties":{"osm_id":"5151419775","tag":{"amenity":"waste_basket"}},"type":"Feature"},
	{"geometry":{"coordinates":[8.483487,47.380091],"type":"Point"},"properties":{"osm_id":"5151419789","tag":{"amenity":"waste_basket"}},"type":"Feature"},
	{"geometry":{"coordinates":[8.482414,47.377129],"type":"Point"},"properties":{"osm_id":"5151419806","tag":{"amenity":"recycling","operator":"Texaid","recycling:clothes":"yes","recycling:shoes":"yes","recycling_type":"container"}},"type":"Feature"},
	{"geometry":{"coordinates":[8.473257,47.382004],"type":"Point"},"properties":{"osm_id":"5168945595","tag":{"amenity":"waste_basket"}},"type":"Feature"},
	{"geometry":{"coordinates":[8.482756,47.389089],"type":"Point"},"properties":{"osm_id":"5168945609","tag":{"amenity":"waste_basket"}},"type":"Feature"},
	{"geometry":{"coordinates":[8.482871,47.389116],"type":"Point"},"properties":{"osm_id":"5168945611","tag":{"amenity":"waste_basket"}},"type":"Feature"},
	{"geometry":{"coordinates":[8.478419,47.384779],"type":"Point"},"properties":{"osm_id":"5168945804","tag":{"amenity":"waste_basket"}},"type":"Feature"},
	{"geometry":{"coordinates":[8.467419,47.388856],"type":"Point"},"properties":{"osm_id":"5168945879","tag":{"amenity":"waste_basket"}},"type":"Feature"},
	{"geometry":{"coordinates":[8.469137,47.389377],"type":"Point"},"properties":{"osm_id":"5168945895","tag":{"amenity":"waste_basket"}},"type":"Feature"},
	{"geometry":{"coordinates":[8.484089,47.386722],"type":"Point"},"properties":{"osm_id":"5173009409","tag":{"amenity":"waste_basket"}},"type":"Feature"},
	{"geometry":{"coordinates":[8.478606,47.384592],"type":"Point"},"properties":{"osm_id":"5173009471","tag":{"amenity":"waste_basket"}},"type":"Feature"},
	{"geometry":{"coordinates":[8.469862,47.39094],"type":"Point"},"properties":{"osm_id":"5173009485","tag":{"amenity":"waste_basket"}},"type":"Feature"},
	{"geometry":{"coordinates":[8.481321,47.391188],"type":"Point"},"properties":{"osm_id":"5173009522","tag":{"amenity":"waste_basket"}},"type":"Feature"},
	{"geometry":{"coordinates":[8.473682,47.392298],"type":"Point"},"properties":{"osm_id":"5173009539","tag":{"amenity":"waste_basket"}},"type":"Feature"},
	{"geometry":{"coordinates":[8.474192,47.390881],"type":"Point"},"properties":{"osm_id":"5173009628","tag":{"amenity":"waste_basket"}},"type":"Feature"},
	{"geometry":{"coordinates":[8.471378,47.392671],"type":"Point"},"properties":{"osm_id":"5173009640","tag":{"amenity":"waste_basket"}},"type":"Feature"},
	{"geometry":{"coordinates":[8.470625,47.39251],"type":"Point"},"properties":{"osm_id":"5173009642","tag":{"amenity":"waste_basket"}},"type":"Feature"},
	{"geometry":{"coordinates":[8.469782,47.391725],"type":"Point"},"properties":{"osm_id":"5173009660","tag":{"amenity":"waste_basket","vending":"excrement_bags"}},"type":"Feature"},
	{"geometry":{"coordinates":[8.472111,47.389482],"type":"Point"},"properties":{"osm_id":"5173009668","tag":{"amenity":"waste_basket"}},"type":"Feature"},
	{"geometry":{"coordinates":[8.472463,47.389449],"type":"Point"},"properties":{"osm_id":"5173009669","tag":{"amenity":"waste_basket"}},"type":"Feature"},
	{"geometry":{"coordinates":[8.47242,47.388689],"type":"Point"},"properties":{"osm_id":"5173009893","tag":{"amenity":"waste_basket"}},"type":"Feature"},
	{"geometry":{"coordinates":[8.469714,47.390907],"type":"Point"},"properties":{"osm_id":"5173009904","tag":{"amenity":"waste_basket"}},"type":"Feature"},
	{"geometry":{"coordinates":[8.475882,47.389219],"type":"Point"},"properties":{"osm_id":"5173798828","tag":{"amenity":"waste_basket"}},"type":"Feature"},
	{"geometry":{"coordinates":[8.480427,47.392539],"type":"Point"},"properties":{"osm_id":"5173798837","tag":{"amenity":"recycling","operator":"Texaid","recycling:clothes":"yes","recycling:shoes":"yes","recycling_type":"container"}},"type":"Feature"},
	{"geometry":{"coordinates":[8.476424,47.3912],"type":"Point"},"properties":{"osm_id":"5173798889","tag":{"amenity":"recycling","operator":"Texaid","recycling:clothes":"yes","recycling:shoes":"yes","recycling_type":"container"}},"type":"Feature"},
	{"geometry":{"coordinates":[8.486823,47.396613],"type":"Point"},"properties":{"osm_id":"5175727091","tag":{"amenity":"waste_basket"}},"type":"Feature"},
	{"geometry":{"coordinates":[8.489067,47.39512],"type":"Point"},"properties":{"osm_id":"5175727103","tag":{"amenity":"waste_basket"}},"type":"Feature"},
	{"geometry":{"coordinates":[8.489915,47.395148],"type":"Point"},"properties":{"osm_id":"5175727107","tag":{"amenity":"waste_basket"}},"type":"Feature"},
	{"geometry":{"coordinates":[8.489985,47.394951],"type":"Point"},"properties":{"osm_id":"5175727109","tag":{"amenity":"waste_basket","manufacturer":"Anta Swiss"}},"type":"Feature"},
	{"geometry":{"coordinates":[8.491215,47.394863],"type":"Point"},"properties":{"osm_id":"5175728640","tag":{"amenity":"waste_basket"}},"type":"Feature"},
	{"geometry":{"coordinates":[8.497456,47.396433],"type":"Point"},"properties":{"osm_id":"5175789091","tag":{"amenity":"waste_basket"}},"type":"Feature"},
	{"geometry":{"coordinates":[8.497474,47.396288],"type":"Point"},"properties":{"osm_id":"5175789092","tag":{"amenity":"waste_basket"}},"type":"Feature"},
	{"geometry":{"coordinates":[8.4897,47.395105],"type":"Point"},"properties":{"osm_id":"5175789110","tag":{"amenity":"waste_basket"}},"type":"Feature"},
	{"geometry":{"coordinates":[8.494571,47.397639],"type":"Point"},"properties":{"osm_id":"5177750670","tag":{"amenity":"waste_basket"}},"type":"Feature"},
	{"geometry":{"coordinates":[8.503916,47.39488],"type":"Point"},"properties":{"osm_id":"5177750690","tag":{"amenity":"waste_basket"}},"type":"Feature"},
	{"geometry":{"coordinates":[8.504298,47.394149],"type":"Point"},"properties":{"osm_id":"5177750693","tag":{"amenity":"waste_basket"}},"type":"Feature"},
	{"geometry":{"coordinates":[8.504216,47.394305],"type":"Point"},"properties":{"osm_id":"5177750698","tag":{"amenity":"waste_basket"}},"type":"Feature"},
	{"geometry":{"coordinates":[8.48404,47.394458],"type":"Point"},"properties":{"osm_id":"5204082683","tag":{"amenity":"waste_basket"}},"type":"Feature"},
	{"geometry":{"coordinates":[8.484188,47.394407],"type":"Point"},"properties":{"osm_id":"5204082685","tag":{"amenity":"waste_basket"}},"type":"Feature"},
	{"geometry":{"coordinates":[8.505059,47.34062],"type":"Point"},"properties":{"osm_id":"5204369264","tag":{"amenity":"waste_basket"}},"type":"Feature"},
	{"geometry":{"coordinates":[8.524122,47.3517],"type":"Point"},"properties":{"osm_id":"5215800443","tag":{"amenity":"waste_basket"}},"type":"Feature"},
	{"geometry":{"coordinates":[8.52297,47.338881],"type":"Point"},"properties":{"osm_id":"5218123779","tag":{"amenity":"waste_basket"}},"type":"Feature"},
	{"geometry":{"coordinates":[8.525275,47.340865],"type":"Point"},"properties":{"osm_id":"5224710590","tag":{"amenity":"waste_basket"}},"type":"Feature"},
	{"geometry":{"coordinates":[8.525135,47.341026],"type":"Point"},"properties":{"osm_id":"5224710597","tag":{"amenity":"waste_basket"}},"type":"Feature"},
	{"geometry":{"coordinates":[8.525173,47.346583],"type":"Point"},"properties":{"osm_id":"5229225606","tag":{"amenity":"waste_basket"}},"type":"Feature"},
	{"geometry":{"coordinates":[8.5231,47.358452],"type":"Point"},"properties":{"osm_id":"5302272766","tag":{"amenity":"waste_basket"}},"type":"Feature"},
	{"geometry":{"coordinates":[8.522797,47.359373],"type":"Point"},"properties":{"osm_id":"5302272767","tag":{"amenity":"waste_basket"}},"type":"Feature"},
	{"geometry":{"coordinates":[8.522699,47.358248],"type":"Point"},"properties":{"osm_id":"5302272768","tag":{"amenity":"waste_basket"}},"type":"Feature"},
	{"geometry":{"coordinates":[8.522961,47.359121],"type":"Point"},"properties":{"osm_id":"5302272769","tag":{"amenity":"waste_basket"}},"type":"Feature"},
	{"geometry":{"coordinates":[8.522935,47.359784],"type":"Point"},"properties":{"osm_id":"5302272770","tag":{"amenity":"waste_basket"}},"type":"Feature"},
	{"geometry":{"coordinates":[8.523093,47.358685],"type":"Point"},"properties":{"osm_id":"5302272771","tag":{"amenity":"waste_basket"}},"type":"Feature"},
	{"geometry":{"coordinates":[8.522521,47.358404],"type":"Point"},"properties":{"osm_id":"5302272772","tag":{"amenity":"waste_basket"}},"type":"Feature"},
	{"geometry":{"coordinates":[8.522661,47.359427],"type":"Point"},"properties":{"osm_id":"5302272773","tag":{"amenity":"waste_basket"}},"type":"Feature"},
	{"geometry":{"coordinates":[8.523242,47.358362],"type":"Point"},"properties":{"osm_id":"5302272774","tag":{"amenity":"waste_basket"}},"type":"Feature"},
	{"geometry":{"coordinates":[8.523035,47.358964],"type":"Point"},"properties":{"osm_id":"5302272775","tag":{"amenity":"waste_basket"}},"type":"Feature"},
	{"geometry":{"coordinates":[8.516713,47.391396],"type":"Point"},"properties":{"osm_id":"5333039448","tag":{"amenity":"waste_basket"}},"type":"Feature"},
	{"geometry":{"coordinates":[8.511953,47.392192],"type":"Point"},"properties":{"osm_id":"5333039505","tag":{"amenity":"waste_basket"}},"type":"Feature"},
	{"geometry":{"coordinates":[8.510488,47.390306],"type":"Point"},"properties":{"osm_id":"5333039583","tag":{"amenity":"waste_basket"}},"type":"Feature"},
	{"geometry":{"coordinates":[8.510639,47.39026],"type":"Point"},"properties":{"osm_id":"5333039584","tag":{"amenity":"waste_basket"}},"type":"Feature"},
	{"geometry":{"coordinates":[8.510783,47.390068],"type":"Point"},"properties":{"osm_id":"5333039623","tag":{"amenity":"waste_basket"}},"type":"Feature"},
	{"geometry":{"coordinates":[8.510622,47.390117],"type":"Point"},"properties":{"osm_id":"5333039624","tag":{"amenity":"waste_basket"}},"type":"Feature"},
	{"geometry":{"coordinates":[8.505685,47.391713],"type":"Point"},"properties":{"osm_id":"5333039653","tag":{"amenity":"waste_basket"}},"type":"Feature"},
	{"geometry":{"coordinates":[8.505854,47.391662],"type":"Point"},"properties":{"osm_id":"5333039654","tag":{"amenity":"waste_basket"}},"type":"Feature"},
	{"geometry":{"coordinates":[8.505866,47.39155],"type":"Point"},"properties":{"osm_id":"5333039672","tag":{"amenity":"waste_basket"}},"type":"Feature"},
	{"geometry":{"coordinates":[8.506035,47.391498],"type":"Point"},"properties":{"osm_id":"5333039673","tag":{"amenity":"waste_basket"}},"type":"Feature"},
	{"geometry":{"coordinates":[8.517279,47.39233],"type":"Point"},"properties":{"osm_id":"5335198298","tag":{"amenity":"waste_basket"}},"type":"Feature"},
	{"geometry":{"coordinates":[8.523646,47.369516],"type":"Point"},"properties":{"osm_id":"5335495643","tag":{"amenity":"waste_basket"}},"type":"Feature"},
	{"geometry":{"coordinates":[8.523052,47.38666],"type":"Point"},"properties":{"osm_id":"5341084591","tag":{"amenity":"waste_basket"}},"type":"Feature"},
	{"geometry":{"coordinates":[8.520984,47.385275],"type":"Point"},"properties":{"osm_id":"5341084611","tag":{"amenity":"waste_basket"}},"type":"Feature"},
	{"geometry":{"coordinates":[8.521067,47.384951],"type":"Point"},"properties":{"osm_id":"5346953293","tag":{"amenity":"recycling","operator":"Texaid","recycling:clothes":"yes","recycling:shoes":"yes","recycling_type":"container"}},"type":"Feature"},
	{"geometry":{"coordinates":[8.500775,47.393916],"type":"Point"},"properties":{"osm_id":"5475369254","tag":{"amenity":"waste_basket"}},"type":"Feature"},
	{"geometry":{"coordinates":[8.490346,47.381253],"type":"Point"},"properties":{"osm_id":"5501229503","tag":{"amenity":"waste_disposal"}},"type":"Feature"},
	{"geometry":{"coordinates":[8.488857,47.38126],"type":"Point"},"properties":{"osm_id":"5502722549","tag":{"amenity":"waste_basket"}},"type":"Feature"},
	{"geometry":{"coordinates":[8.488827,47.38107],"type":"Point"},"properties":{"osm_id":"5502725587","tag":{"amenity":"waste_basket"}},"type":"Feature"},
	{"geometry":{"coordinates":[8.48931,47.381375],"type":"Point"},"properties":{"osm_id":"5502725588","tag":{"amenity":"waste_basket"}},"type":"Feature"},
	{"geometry":{"coordinates":[8.490056,47.381435],"type":"Point"},"properties":{"osm_id":"5502729412","tag":{"amenity":"waste_basket"}},"type":"Feature"},
	{"geometry":{"coordinates":[8.489343,47.380662],"type":"Point"},"properties":{"osm_id":"5502729413","tag":{"amenity":"waste_basket"}},"type":"Feature"},
	{"geometry":{"coordinates":[8.488805,47.380588],"type":"Point"},"properties":{"osm_id":"5502729414","tag":{"amenity":"waste_basket"}},"type":"Feature"},
	{"geometry":{"coordinates":[8.488559,47.379443],"type":"Point"},"properties":{"osm_id":"5502733174","tag":{"amenity":"waste_basket"}},"type":"Feature"},
	{"geometry":{"coordinates":[8.488702,47.381136],"type":"Point"},"properties":{"osm_id":"5503222774","tag":{"amenity":"waste_basket"}},"type":"Feature"},
	{"geometry":{"coordinates":[8.489248,47.380762],"type":"Point"},"properties":{"osm_id":"5503341216","tag":{"amenity":"waste_basket"}},"type":"Feature"},
	{"geometry":{"coordinates":[8.489229,47.380038],"type":"Point"},"properties":{"osm_id":"5503341217","tag":{"amenity":"waste_basket"}},"type":"Feature"},
	{"geometry":{"coordinates":[8.489923,47.380358],"type":"Point"},"properties":{"osm_id":"5503341218","tag":{"amenity":"waste_basket"}},"type":"Feature"},
	{"geometry":{"coordinates":[8.489949,47.380607],"type":"Point"},"properties":{"osm_id":"5503341219","tag":{"amenity":"waste_basket"}},"type":"Feature"},
	{"geometry":{"coordinates":[8.489719,47.380472],"type":"Point"},"properties":{"osm_id":"5503344446","tag":{"amenity":"waste_basket"}},"type":"Feature"},
	{"geometry":{"coordinates":[8.490409,47.380185],"type":"Point"},"properties":{"osm_id":"5503350861","tag":{"amenity":"waste_basket"}},"type":"Feature"},
	{"geometry":{"coordinates":[8.489445,47.379381],"type":"Point"},"properties":{"osm_id":"5503350863","tag":{"amenity":"waste_basket"}},"type":"Feature"},
	{"geometry":{"coordinates":[8.489477,47.381007],"type":"Point"},"properties":{"osm_id":"5503450491","tag":{"amenity":"waste_basket"}},"type":"Feature"},
	{"geometry":{"coordinates":[8.489659,47.380971],"type":"Point"},"properties":{"osm_id":"5503609735","tag":{"amenity":"waste_basket"}},"type":"Feature"},
	{"geometry":{"coordinates":[8.49044,47.381053],"type":"Point"},"properties":{"osm_id":"5526115371","tag":{"amenity":"waste_basket"}},"type":"Feature"},
	{"geometry":{"coordinates":[8.491005,47.38114],"type":"Point"},"properties":{"osm_id":"5526159736","tag":{"amenity":"waste_basket"}},"type":"Feature"},
	{"geometry":{"coordinates":[8.488237,47.37933],"type":"Point"},"properties":{"osm_id":"5526250073","tag":{"amenity":"waste_basket"}},"type":"Feature"},
	{"geometry":{"coordinates":[8.488322,47.37976],"type":"Point"},"properties":{"osm_id":"5526297244","tag":{"amenity":"waste_basket"}},"type":"Feature"},
	{"geometry":{"coordinates":[8.488832,47.380168],"type":"Point"},"properties":{"osm_id":"5526297310","tag":{"amenity":"waste_basket"}},"type":"Feature"},
	{"geometry":{"coordinates":[8.523614,47.392638],"type":"Point"},"properties":{"osm_id":"5562298093","tag":{"amenity":"waste_basket"}},"type":"Feature"},
	{"geometry":{"coordinates":[8.523535,47.39252],"type":"Point"},"properties":{"osm_id":"5562298094","tag":{"amenity":"waste_basket"}},"type":"Feature"},
	{"geometry":{"coordinates":[8.520751,47.396061],"type":"Point"},"properties":{"osm_id":"5562301623","tag":{"amenity":"waste_basket"}},"type":"Feature"},
	{"geometry":{"coordinates":[8.522502,47.398096],"type":"Point"},"properties":{"osm_id":"5562302163","tag":{"amenity":"waste_basket"}},"type":"Feature"},
	{"geometry":{"coordinates":[8.516159,47.398223],"type":"Point"},"properties":{"osm_id":"5580638678","tag":{"amenity":"recycling","operator":"Texaid","recycling:clothes":"yes","recycling:shoes":"yes","recycling_type":"container"}},"type":"Feature"},
	{"geometry":{"coordinates":[8.518649,47.397086],"type":"Point"},"properties":{"osm_id":"5582587890","tag":{"amenity":"recycling","operator":"Texaid","recycling:clothes":"yes","recycling:shoes":"yes","recycling_type":"container"}},"type":"Feature"},
	{"geometry":{"coordinates":[8.519237,47.395203],"type":"Point"},"properties":{"osm_id":"5588649096","tag":{"amenity":"waste_basket"}},"type":"Feature"},
	{"geometry":{"coordinates":[8.518865,47.395471],"type":"Point"},"properties":{"osm_id":"5588649103","tag":{"amenity":"waste_basket"}},"type":"Feature"},
	{"geometry":{"coordinates":[8.518939,47.39532],"type":"Point"},"properties":{"osm_id":"5588649105","tag":{"amenity":"waste_basket"}},"type":"Feature"},
	{"geometry":{"coordinates":[8.519565,47.395353],"type":"Point"},"properties":{"osm_id":"5588649565","tag":{"amenity":"waste_basket","vending":"excrement_bags"}},"type":"Feature"},
	{"geometry":{"coordinates":[8.519198,47.395355],"type":"Point"},"properties":{"osm_id":"5588649566","tag":{"amenity":"waste_basket"}},"type":"Feature"},
	{"geometry":{"coordinates":[8.507565,47.397696],"type":"Point"},"properties":{"osm_id":"5588649570","tag":{"amenity":"waste_basket"}},"type":"Feature"},
	{"geometry":{"coordinates":[8.512954,47.396417],"type":"Point"},"properties":{"osm_id":"5588649735","tag":{"amenity":"waste_basket"}},"type":"Feature"},
	{"geometry":{"coordinates":[8.510301,47.397369],"type":"Point"},"properties":{"osm_id":"5596717354","tag":{"amenity":"waste_basket"}},"type":"Feature"},
	{"geometry":{"coordinates":[8.509483,47.397525],"type":"Point"},"properties":{"osm_id":"5635232639","tag":{"amenity":"waste_basket"}},"type":"Feature"},
	{"geometry":{"coordinates":[8.518984,47.392948],"type":"Point"},"properties":{"osm_id":"5637859362","tag":{"amenity":"waste_basket"}},"type":"Feature"},
	{"geometry":{"coordinates":[8.519159,47.392173],"type":"Point"},"properties":{"osm_id":"5649121998","tag":{"amenity":"waste_basket"}},"type":"Feature"},
	{"geometry":{"coordinates":[8.499768,47.370427],"type":"Point"},"properties":{"osm_id":"5649141144","tag":{"amenity":"waste_basket"}},"type":"Feature"},
	{"geometry":{"coordinates":[8.520056,47.340253],"type":"Point"},"properties":{"osm_id":"5725291280","tag":{"amenity":"recycling","description":"Container: Braunglas (1), Weissglas (2), Gr\u00c3\u00bcnglas (4), Metall (3)","opening_hours":"Mo-Sa 07:00-20:00","operator":"ERZ","recycling:aluminium":"yes","recycling:cans":"yes","recycling:glass_bottles":"yes","recycling_type":"container"}},"type":"Feature"},
	{"geometry":{"coordinates":[8.521909,47.39068],"type":"Point"},"properties":{"osm_id":"5725710598","tag":{"amenity":"waste_basket"}},"type":"Feature"},
	{"geometry":{"coordinates":[8.523163,47.390857],"type":"Point"},"properties":{"osm_id":"5725710616","tag":{"amenity":"waste_basket","manufacturer":"Anta Swiss"}},"type":"Feature"},
	{"geometry":{"coordinates":[8.482054,47.397852],"type":"Point"},"properties":{"osm_id":"5725766110","tag":{"access":"no","amenity":"waste_disposal"}},"type":"Feature"},
	{"geometry":{"coordinates":[8.482045,47.397833],"type":"Point"},"properties":{"osm_id":"5725766111","tag":{"amenity":"waste_basket"}},"type":"Feature"},
	{"geometry":{"coordinates":[8.524392,47.3667],"type":"Point"},"properties":{"osm_id":"5736721423","tag":{"amenity":"waste_basket"}},"type":"Feature"},
	{"geometry":{"coordinates":[8.519711,47.368712],"type":"Point"},"properties":{"osm_id":"5736721430","tag":{"amenity":"waste_basket"}},"type":"Feature"},
	{"geometry":{"coordinates":[8.519786,47.368616],"type":"Point"},"properties":{"osm_id":"5736721431","tag":{"amenity":"waste_basket"}},"type":"Feature"},
	{"geometry":{"coordinates":[8.508788,47.393806],"type":"Point"},"properties":{"osm_id":"5743443395","tag":{"amenity":"waste_basket"}},"type":"Feature"},
	{"geometry":{"coordinates":[8.491947,47.349523],"type":"Point"},"properties":{"osm_id":"5744867322","tag":{"amenity":"waste_basket"}},"type":"Feature"},
	{"geometry":{"coordinates":[8.491354,47.349609],"type":"Point"},"properties":{"osm_id":"5744867323","tag":{"amenity":"waste_basket"}},"type":"Feature"},
	{"geometry":{"coordinates":[8.523554,47.360349],"type":"Point"},"properties":{"osm_id":"5752012983","tag":{"amenity":"waste_basket"}},"type":"Feature"},
	{"geometry":{"coordinates":[8.520482,47.35873],"type":"Point"},"properties":{"osm_id":"5763309154","tag":{"amenity":"waste_basket"}},"type":"Feature"},
	{"geometry":{"coordinates":[8.52044,47.357908],"type":"Point"},"properties":{"osm_id":"5763820658","tag":{"amenity":"waste_basket"}},"type":"Feature"},
	{"geometry":{"coordinates":[8.520561,47.357849],"type":"Point"},"properties":{"osm_id":"5763820659","tag":{"amenity":"waste_basket"}},"type":"Feature"},
	{"geometry":{"coordinates":[8.521748,47.357071],"type":"Point"},"properties":{"osm_id":"5763820664","tag":{"amenity":"waste_basket","manufacturer":"Anta Swiss"}},"type":"Feature"},
	{"geometry":{"coordinates":[8.521699,47.357152],"type":"Point"},"properties":{"osm_id":"5763820665","tag":{"amenity":"waste_basket","manufacturer":"Anta Swiss"}},"type":"Feature"},
	{"geometry":{"coordinates":[8.516948,47.361232],"type":"Point"},"properties":{"osm_id":"5766057673","tag":{"amenity":"waste_basket"}},"type":"Feature"},
	{"geometry":{"coordinates":[8.517133,47.36125],"type":"Point"},"properties":{"osm_id":"5766057685","tag":{"amenity":"waste_basket","manufacturer":"Anta Swiss"}},"type":"Feature"},
	{"geometry":{"coordinates":[8.517036,47.361064],"type":"Point"},"properties":{"osm_id":"5766057686","tag":{"amenity":"waste_basket","manufacturer":"Anta Swiss"}},"type":"Feature"},
	{"geometry":{"coordinates":[8.516827,47.361197],"type":"Point"},"properties":{"osm_id":"5766057698","tag":{"amenity":"waste_basket"}},"type":"Feature"},
	{"geometry":{"coordinates":[8.516773,47.361066],"type":"Point"},"properties":{"osm_id":"5766057699","tag":{"amenity":"waste_basket"}},"type":"Feature"},
	{"geometry":{"coordinates":[8.516532,47.359298],"type":"Point"},"properties":{"osm_id":"5766058072","tag":{"amenity":"waste_basket"}},"type":"Feature"},
	{"geometry":{"coordinates":[8.521264,47.352275],"type":"Point"},"properties":{"osm_id":"5768273406","tag":{"amenity":"waste_basket"}},"type":"Feature"},
	{"geometry":{"coordinates":[8.493985,47.378392],"type":"Point"},"properties":{"osm_id":"5770084941","tag":{"amenity":"waste_basket","manufacturer":"Anta Swiss"}},"type":"Feature"},
	{"geometry":{"coordinates":[8.493812,47.378305],"type":"Point"},"properties":{"osm_id":"5770086453","tag":{"amenity":"waste_basket","manufacturer":"Anta Swiss"}},"type":"Feature"},
	{"geometry":{"coordinates":[8.493776,47.378413],"type":"Point"},"properties":{"osm_id":"5770086456","tag":{"amenity":"waste_basket","manufacturer":"Anta Swiss"}},"type":"Feature"},
	{"geometry":{"coordinates":[8.514991,47.382182],"type":"Point"},"properties":{"osm_id":"5774853025","tag":{"amenity":"waste_basket","manufacturer":"Anta Swiss"}},"type":"Feature"},
	{"geometry":{"coordinates":[8.514746,47.382545],"type":"Point"},"properties":{"osm_id":"5774853040","tag":{"amenity":"waste_basket","manufacturer":"Anta Swiss"}},"type":"Feature"},
	{"geometry":{"coordinates":[8.515259,47.382322],"type":"Point"},"properties":{"osm_id":"5774853041","tag":{"amenity":"waste_basket","manufacturer":"Anta Swiss"}},"type":"Feature"},
	{"geometry":{"coordinates":[8.522206,47.390348],"type":"Point"},"properties":{"osm_id":"5775102186","tag":{"amenity":"waste_basket","manufacturer":"Anta Swiss"}},"type":"Feature"},
	{"geometry":{"coordinates":[8.52128,47.389372],"type":"Point"},"properties":{"osm_id":"5775102193","tag":{"amenity":"waste_basket","manufacturer":"Anta Swiss"}},"type":"Feature"},
	{"geometry":{"coordinates":[8.521881,47.390183],"type":"Point"},"properties":{"osm_id":"5775102197","tag":{"amenity":"waste_basket","manufacturer":"Anta Swiss"}},"type":"Feature"},
	{"geometry":{"coordinates":[8.52208,47.390393],"type":"Point"},"properties":{"osm_id":"5775102199","tag":{"amenity":"waste_basket","manufacturer":"Anta Swiss"}},"type":"Feature"},
	{"geometry":{"coordinates":[8.522739,47.390783],"type":"Point"},"properties":{"osm_id":"5775102202","tag":{"amenity":"waste_basket","layer":"2","manufacturer":"Anta Swiss"}},"type":"Feature"},
	{"geometry":{"coordinates":[8.522581,47.390617],"type":"Point"},"properties":{"osm_id":"5775102203","tag":{"amenity":"waste_basket","layer":"2","manufacturer":"Anta Swiss"}},"type":"Feature"},
	{"geometry":{"coordinates":[8.523366,47.390284],"type":"Point"},"properties":{"osm_id":"5775103428","tag":{"amenity":"waste_basket","manufacturer":"Anta Swiss"}},"type":"Feature"},
	{"geometry":{"coordinates":[8.523647,47.390083],"type":"Point"},"properties":{"osm_id":"5775103429","tag":{"amenity":"waste_basket","manufacturer":"Anta Swiss"}},"type":"Feature"},
	{"geometry":{"coordinates":[8.523302,47.390165],"type":"Point"},"properties":{"osm_id":"5775103432","tag":{"amenity":"waste_basket","manufacturer":"Anta Swiss"}},"type":"Feature"},
	{"geometry":{"coordinates":[8.523545,47.389989],"type":"Point"},"properties":{"osm_id":"5775103433","tag":{"amenity":"waste_basket","manufacturer":"Anta Swiss"}},"type":"Feature"},
	{"geometry":{"coordinates":[8.495489,47.379435],"type":"Point"},"properties":{"osm_id":"5776730450","tag":{"amenity":"waste_basket"}},"type":"Feature"},
	{"geometry":{"coordinates":[8.515094,47.382677],"type":"Point"},"properties":{"osm_id":"5784299154","tag":{"amenity":"waste_basket","manufacturer":"Anta Swiss"}},"type":"Feature"},
	{"geometry":{"coordinates":[8.515325,47.382076],"type":"Point"},"properties":{"osm_id":"5784299155","tag":{"amenity":"waste_basket","manufacturer":"Anta Swiss"}},"type":"Feature"},
	{"geometry":{"coordinates":[8.512785,47.388885],"type":"Point"},"properties":{"osm_id":"5834542538","tag":{"amenity":"waste_basket","manufacturer":"Anta Swiss"}},"type":"Feature"},
	{"geometry":{"coordinates":[8.512526,47.388463],"type":"Point"},"properties":{"osm_id":"5834542539","tag":{"amenity":"waste_basket","manufacturer":"Anta Swiss"}},"type":"Feature"},
	{"geometry":{"coordinates":[8.46627,47.365705],"type":"Point"},"properties":{"osm_id":"5858822435","tag":{"amenity":"waste_basket"}},"type":"Feature"},
	{"geometry":{"coordinates":[8.466118,47.369908],"type":"Point"},"properties":{"osm_id":"5858822437","tag":{"amenity":"waste_basket"}},"type":"Feature"},
	{"geometry":{"coordinates":[8.471855,47.396533],"type":"Point"},"properties":{"osm_id":"5865736279","tag":{"amenity":"waste_basket","manufacturer":"Anta Swiss"}},"type":"Feature"},
	{"geometry":{"coordinates":[8.473816,47.398283],"type":"Point"},"properties":{"osm_id":"5885030131","tag":{"amenity":"waste_basket","manufacturer":"Anta Swiss"}},"type":"Feature"},
	{"geometry":{"coordinates":[8.473059,47.398181],"type":"Point"},"properties":{"osm_id":"5885030132","tag":{"amenity":"waste_basket","manufacturer":"Anta Swiss"}},"type":"Feature"},
	{"geometry":{"coordinates":[8.494739,47.364999],"type":"Point"},"properties":{"osm_id":"6026689123","tag":{"amenity":"waste_basket"}},"type":"Feature"},
	{"geometry":{"coordinates":[8.512763,47.38685],"type":"Point"},"properties":{"osm_id":"6297505210","tag":{"amenity":"recycling","location":"underground","opening_hours":"24/7","recycling:waste":"yes","recycling_type":"container","wheelchair":"yes"}},"type":"Feature"},
	{"geometry":{"coordinates":[8.514665,47.386921],"type":"Point"},"properties":{"osm_id":"6297574494","tag":{"amenity":"recycling","location":"underground","opening_hours":"24/7","recycling:waste":"yes","recycling_type":"container","wheelchair":"yes"}},"type":"Feature"},
	{"geometry":{"coordinates":[8.514525,47.386967],"type":"Point"},"properties":{"osm_id":"6297574495","tag":{"amenity":"recycling","location":"underground","opening_hours":"24/7","recycling:waste":"yes","recycling_type":"container","wheelchair":"yes"}},"type":"Feature"},
	{"geometry":{"coordinates":[8.515551,47.386211],"type":"Point"},"properties":{"osm_id":"6297579399","tag":{"amenity":"recycling","location":"underground","opening_hours":"24/7","recycling:waste":"yes","recycling_type":"container","wheelchair":"yes"}},"type":"Feature"},
	{"geometry":{"coordinates":[8.514232,47.38661],"type":"Point"},"properties":{"osm_id":"6297580301","tag":{"amenity":"recycling","location":"underground","opening_hours":"24/7","recycling:waste":"yes","recycling_type":"container","wheelchair":"yes"}},"type":"Feature"},
	{"geometry":{"coordinates":[8.51423,47.386372],"type":"Point"},"properties":{"osm_id":"6297580302","tag":{"amenity":"recycling","location":"underground","opening_hours":"24/7","recycling:waste":"yes","recycling_type":"container","wheelchair":"yes"}},"type":"Feature"},
	{"geometry":{"coordinates":[8.515098,47.387421],"type":"Point"},"properties":{"osm_id":"6297580919","tag":{"amenity":"recycling","location":"underground","opening_hours":"24/7","recycling:waste":"yes","recycling_type":"container","wheelchair":"yes"}},"type":"Feature"},
	{"geometry":{"coordinates":[8.514883,47.387472],"type":"Point"},"properties":{"osm_id":"6297580920","tag":{"amenity":"recycling","location":"underground","opening_hours":"24/7","recycling:waste":"yes","recycling_type":"container","wheelchair":"yes"}},"type":"Feature"},
	{"geometry":{"coordinates":[8.5241,47.362326],"type":"Point"},"properties":{"osm_id":"6305491703","tag":{"amenity":"waste_basket"}},"type":"Feature"},
	{"geometry":{"coordinates":[8.524022,47.36173],"type":"Point"},"properties":{"osm_id":"6305491704","tag":{"amenity":"waste_basket"}},"type":"Feature"},
	{"geometry":{"coordinates":[8.486674,47.376905],"type":"Point"},"properties":{"osm_id":"6345093521","tag":{"amenity":"waste_basket","mapillary":"0ayT0aJFek0GlXQWIoBtxA"}},"type":"Feature"},
	{"geometry":{"coordinates":[8.463782,47.369067],"type":"Point"},"properties":{"osm_id":"6445018252","tag":{"amenity":"recycling","recycling:cans":"yes","recycling:glass_bottles":"yes","recycling_type":"container","wheelchair":"yes"}},"type":"Feature"},
	{"geometry":{"coordinates":[8.522978,47.369251],"type":"Point"},"properties":{"osm_id":"6513200516","tag":{"amenity":"waste_basket"}},"type":"Feature"},
	{"geometry":{"coordinates":[8.502402,47.396751],"type":"Point"},"properties":{"osm_id":"6570267135","tag":{"amenity":"waste_basket"}},"type":"Feature"},
	{"geometry":{"coordinates":[8.502443,47.396578],"type":"Point"},"properties":{"osm_id":"6570267136","tag":{"amenity":"waste_basket"}},"type":"Feature"},
	{"geometry":{"coordinates":[8.511505,47.35307],"type":"Point"},"properties":{"osm_id":"6593673997","tag":{"amenity":"waste_basket"}},"type":"Feature"},
	{"geometry":{"coordinates":[8.485015,47.386611],"type":"Point"},"properties":{"osm_id":"6597163736","tag":{"amenity":"waste_basket"}},"type":"Feature"},
	{"geometry":{"coordinates":[8.472219,47.39505],"type":"Point"},"properties":{"osm_id":"6691735509","tag":{"amenity":"waste_basket"}},"type":"Feature"},
	{"geometry":{"coordinates":[8.47202,47.394463],"type":"Point"},"properties":{"osm_id":"6691735510","tag":{"amenity":"waste_basket"}},"type":"Feature"},
	{"geometry":{"coordinates":[8.472583,47.394738],"type":"Point"},"properties":{"osm_id":"6691735512","tag":{"amenity":"waste_basket","waste":"dog_excrement"}},"type":"Feature"},
	{"geometry":{"coordinates":[8.515167,47.387465],"type":"Point"},"properties":{"osm_id":"6737886403","tag":{"amenity":"recycling","location":"underground","opening_hours":"24/7","recycling:waste":"yes","recycling_type":"container","wheelchair":"yes"}},"type":"Feature"},
	{"geometry":{"coordinates":[8.494192,47.386365],"type":"Point"},"properties":{"osm_id":"6760594568","tag":{"amenity":"waste_basket"}},"type":"Feature"},
	{"geometry":{"coordinates":[8.495671,47.385897],"type":"Point"},"properties":{"osm_id":"6760608009","tag":{"amenity":"waste_basket"}},"type":"Feature"},
	{"geometry":{"coordinates":[8.469793,47.390843],"type":"Point"},"properties":{"osm_id":"6868155750","tag":{"amenity":"waste_disposal"}},"type":"Feature"},
	{"geometry":{"coordinates":[8.469558,47.391815],"type":"Point"},"properties":{"osm_id":"6868158742","tag":{"amenity":"waste_disposal"}},"type":"Feature"},
	{"geometry":{"coordinates":[8.496228,47.366232],"type":"Point"},"properties":{"osm_id":"7152447649","tag":{"amenity":"waste_basket"}},"type":"Feature"},
	{"geometry":{"coordinates":[8.472585,47.388513],"type":"Point"},"properties":{"osm_id":"7159997019","tag":{"amenity":"recycling","description":"Falls sie Sachen haben, die sie nicht mehr ben\u00c3\u00b6tigen & uns abgeben m\u00c3\u00b6chten, melden sie sich bitte am Empfang oder im Team B\u00c3\u00bcro.","recycling:toys":"yes"}},"type":"Feature"},
	{"geometry":{"coordinates":[8.517603,47.388832],"type":"Point"},"properties":{"osm_id":"7167733853","tag":{"amenity":"recycling","operator":"Foifi","recycling:clothes":"yes"}},"type":"Feature"},
	{"geometry":{"coordinates":[8.44222,47.390771],"type":"Point"},"properties":{"osm_id":"7177210450","tag":{"amenity":"waste_basket"}},"type":"Feature"},
	{"geometry":{"coordinates":[8.507807,47.377385],"type":"Point"},"properties":{"osm_id":"7196042301","tag":{"amenity":"recycling","brand":"Velafrica","charity":"yes","description":"Velafrica sammelt ausgediente Velos, macht sie wieder flott und verschifft sie nach Afrika.","location":"indoor","operator":"Basisbesch\u00c3\u00a4ftigung","recycling:bicycles":"yes","service_times":"Mo-Fr 08:00-15:00","website":"http://velafrica.ch/"}},"type":"Feature"},
	{"geometry":{"coordinates":[8.516571,47.379163],"type":"Point"},"properties":{"osm_id":"7402602369","tag":{"amenity":"recycling","covered":"no","level":"0","recycling_type":"container"}},"type":"Feature"},
	{"geometry":{"coordinates":[8.519969,47.370106],"type":"Point"},"properties":{"osm_id":"7598917587","tag":{"amenity":"recycling","covered":"yes","indoor":"no","operator":"Migros","recycling:PET":"yes","recycling:batteries":"yes","recycling:cds":"yes","recycling:coffee_capsules":"yes","recycling:led_bulbs":"yes","recycling:low_energy_bulbs":"yes","recycling:plastic_bottles":"yes","recycling:water_filter_cartridges":"yes","recycling_type":"container"}},"type":"Feature"},
	{"geometry":{"coordinates":[8.520423,47.369583],"type":"Point"},"properties":{"osm_id":"7606011342","tag":{"amenity":"waste_basket"}},"type":"Feature"},
	{"geometry":{"coordinates":[8.467361,47.358391],"type":"Point"},"properties":{"osm_id":"7635103525","tag":{"amenity":"recycling","recycling_type":"container"}},"type":"Feature"},
	{"geometry":{"coordinates":[8.491524,47.371421],"type":"Point"},"properties":{"name":"Labdoo Annahmestelle f\u00c3\u00bcr Laptops","osm_id":"7671718246","tag":{"addr:city":"Z\u00c3\u00bcrich","addr:housenumber":"21","addr:postcode":"8047","addr:street":"Altweg","amenity":"recycling","brand":"Labdoo","charity":"yes","description":"Bitte vorher mit M. Peloso, m.peloso@labdoo.org einen Termin vereinbaren. Die Annahmestelle ist mit den \u00c3\u00b6ffentlichen Verkehrsmitteln gut erreichbar und nur sieben Gehminuten vom Triemli entfernt.","email":"m.peloso@labdoo.org","location":"indoor","operator":"M. Peloso","recycling:computers":"yes","recycling:mobile_phones":"yes","service_times":"Mo-Fr 09:00-19:00","website":"https://www.labdoo.org/de/hub?h=63219","wheelchair":"yes"}},"type":"Feature"},
	{"geometry":{"coordinates":[8.492794,47.370544],"type":"Point"},"properties":{"osm_id":"7687669540","tag":{"amenity":"recycling","recycling:PET":"yes","recycling:batteries":"yes","recycling:cds":"yes","recycling:coffee_capsules":"yes","recycling:low_energy_bulbs":"yes","recycling:plastic_bottles":"yes","recycling_type":"container"}},"type":"Feature"},
	{"geometry":{"coordinates":[8.485608,47.375244],"type":"Point"},"properties":{"osm_id":"7741304983","tag":{"amenity":"recycling","recycling:PET":"yes","recycling:batteries":"yes","recycling:cds":"yes","recycling:coffee_capsules":"yes","recycling:low_energy_bulbs":"yes","recycling:plastic_bottles":"yes","recycling_type":"container"}},"type":"Feature"},
	{"geometry":{"coordinates":[8.517463,47.38646],"type":"Point"},"properties":{"osm_id":"7897371090","tag":{"amenity":"recycling","opening_hours":"24/7","recycling:PET":"yes","recycling_type":"container","wheelchair":"yes"}},"type":"Feature"},
	{"geometry":{"coordinates":[8.51766,47.38633],"type":"Point"},"properties":{"osm_id":"7897371094","tag":{"amenity":"waste_basket","waste":"trash"}},"type":"Feature"},
	{"geometry":{"coordinates":[8.517468,47.386451],"type":"Point"},"properties":{"osm_id":"7897371095","tag":{"amenity":"waste_basket","waste":"trash"}},"type":"Feature"},
	{"geometry":{"coordinates":[8.487343,47.388118],"type":"Point"},"properties":{"osm_id":"7931981966","tag":{"amenity":"recycling","level":"0","operator":"Genossenschaft Migros Z\u00c3\u00bcrich","recycling:PET":"yes","recycling:batteries":"yes","recycling:cds":"yes","recycling:coffee_capsules":"yes","recycling:led_bulbs":"yes","recycling:low_energy_bulbs":"yes","recycling:plastic_bottles":"yes","recycling_type":"container"}},"type":"Feature"}
]
}
