{
"type": "FeatureCollection",
"features": [
	{"geometry":{"coordinates":[8.51985,47.323944],"type":"Point"},"properties":{"osm_id":"84516808","tag":{"amenity":"recycling","recycling:aluminium":"yes","recycling:clothes":"yes","recycling:glass":"no","recycling:glass_bottles":"yes","recycling_type":"container"}},"type":"Feature"},
	{"geometry":{"coordinates":[8.471789,47.315005],"type":"Point"},"properties":{"osm_id":"360901363","tag":{"amenity":"recycling"}},"type":"Feature"},
	{"geometry":{"coordinates":[8.522127,47.302188],"type":"Point"},"properties":{"osm_id":"472277420","tag":{"amenity":"recycling"}},"type":"Feature"},
	{"geometry":{"coordinates":[8.469871,47.330244],"type":"Point"},"properties":{"osm_id":"1157674223","tag":{"amenity":"waste_basket"}},"type":"Feature"},
	{"geometry":{"coordinates":[8.50747,47.296582],"type":"Point"},"properties":{"osm_id":"1361974611","tag":{"amenity":"recycling","recycling:glass":"yes"}},"type":"Feature"},
	{"geometry":{"coordinates":[8.516226,47.280315],"type":"Point"},"properties":{"osm_id":"1728521784","tag":{"amenity":"waste_basket"}},"type":"Feature"},
	{"geometry":{"coordinates":[8.480163,47.337495],"type":"Point"},"properties":{"osm_id":"1800064896","tag":{"amenity":"waste_basket"}},"type":"Feature"},
	{"geometry":{"coordinates":[8.479179,47.33865],"type":"Point"},"properties":{"osm_id":"1800064928","tag":{"amenity":"waste_basket"}},"type":"Feature"},
	{"geometry":{"coordinates":[8.487828,47.336403],"type":"Point"},"properties":{"osm_id":"2566216747","tag":{"amenity":"waste_basket","designation":"Robi Dog"}},"type":"Feature"},
	{"geometry":{"coordinates":[8.489829,47.338408],"type":"Point"},"properties":{"osm_id":"2566216751","tag":{"amenity":"waste_basket","designation":"Robi Dog"}},"type":"Feature"},
	{"geometry":{"coordinates":[8.487469,47.337509],"type":"Point"},"properties":{"osm_id":"2566216756","tag":{"amenity":"waste_basket","designation":"Robi Dog"}},"type":"Feature"},
	{"geometry":{"coordinates":[8.489065,47.32787],"type":"Point"},"properties":{"osm_id":"2911963569","tag":{"amenity":"recycling","recycling:cans":"yes","recycling:glass":"yes","recycling:paper":"yes"}},"type":"Feature"},
	{"geometry":{"coordinates":[8.513151,47.32687],"type":"Point"},"properties":{"osm_id":"3000150542","tag":{"amenity":"recycling","description":"Container: Metall (3), Gr\u00c3\u00bcnglas (3), Weissglas (2), Braunglas (1); Speise\u00c3\u00b6l/Mineral\u00c3\u00b6l","opening_hours":"Mo-Sa 07:00-20:00","operator":"ERZ","recycling:aluminium":"yes","recycling:cans":"yes","recycling:glass_bottles":"yes","recycling_type":"container"}},"type":"Feature"},
	{"geometry":{"coordinates":[8.514403,47.332906],"type":"Point"},"properties":{"osm_id":"3000150543","tag":{"amenity":"recycling","description":"Container: Braunglas (1), Weissglas (2), Gr\u00c3\u00bcnglas (3), Metall (2)","opening_hours":"Mo-Sa 07:00-20:00","operator":"ERZ","recycling:aluminium":"yes","recycling:cans":"yes","recycling:glass_bottles":"yes","recycling_type":"container"}},"type":"Feature"},
	{"geometry":{"coordinates":[8.476529,47.316234],"type":"Point"},"properties":{"osm_id":"3441080013","tag":{"amenity":"waste_basket"}},"type":"Feature"},
	{"geometry":{"coordinates":[8.501468,47.326551],"type":"Point"},"properties":{"osm_id":"4498524494","tag":{"amenity":"waste_basket"}},"type":"Feature"},
	{"geometry":{"coordinates":[8.514618,47.323279],"type":"Point"},"properties":{"osm_id":"5003332103","tag":{"amenity":"waste_basket"}},"type":"Feature"},
	{"geometry":{"coordinates":[8.514172,47.323131],"type":"Point"},"properties":{"osm_id":"5003332115","tag":{"amenity":"waste_basket"}},"type":"Feature"},
	{"geometry":{"coordinates":[8.45979,47.285017],"type":"Point"},"properties":{"osm_id":"5098358190","tag":{"amenity":"waste_basket"}},"type":"Feature"},
	{"geometry":{"coordinates":[8.460511,47.284],"type":"Point"},"properties":{"osm_id":"5098358193","tag":{"amenity":"waste_basket"}},"type":"Feature"},
	{"geometry":{"coordinates":[8.463783,47.280255],"type":"Point"},"properties":{"osm_id":"5098358196","tag":{"amenity":"waste_basket"}},"type":"Feature"},
	{"geometry":{"coordinates":[8.464671,47.279583],"type":"Point"},"properties":{"osm_id":"5098358198","tag":{"amenity":"waste_basket"}},"type":"Feature"},
	{"geometry":{"coordinates":[8.446563,47.282742],"type":"Point"},"properties":{"osm_id":"5101853950","tag":{"amenity":"waste_basket"}},"type":"Feature"},
	{"geometry":{"coordinates":[8.447197,47.282091],"type":"Point"},"properties":{"osm_id":"5101853951","tag":{"amenity":"waste_basket"}},"type":"Feature"},
	{"geometry":{"coordinates":[8.458479,47.279383],"type":"Point"},"properties":{"osm_id":"5109625601","tag":{"amenity":"waste_basket"}},"type":"Feature"},
	{"geometry":{"coordinates":[8.454118,47.279507],"type":"Point"},"properties":{"osm_id":"5111300599","tag":{"amenity":"waste_basket"}},"type":"Feature"},
	{"geometry":{"coordinates":[8.458074,47.280207],"type":"Point"},"properties":{"osm_id":"5122194738","tag":{"amenity":"waste_basket"}},"type":"Feature"},
	{"geometry":{"coordinates":[8.450667,47.281564],"type":"Point"},"properties":{"osm_id":"5122243199","tag":{"amenity":"waste_basket"}},"type":"Feature"},
	{"geometry":{"coordinates":[8.450422,47.281628],"type":"Point"},"properties":{"osm_id":"5122243200","tag":{"amenity":"waste_basket"}},"type":"Feature"},
	{"geometry":{"coordinates":[8.46132,47.279737],"type":"Point"},"properties":{"osm_id":"5126645006","tag":{"amenity":"waste_basket"}},"type":"Feature"},
	{"geometry":{"coordinates":[8.505297,47.323593],"type":"Point"},"properties":{"osm_id":"5144054263","tag":{"amenity":"waste_basket"}},"type":"Feature"},
	{"geometry":{"coordinates":[8.507386,47.324879],"type":"Point"},"properties":{"osm_id":"5144054266","tag":{"amenity":"waste_basket"}},"type":"Feature"},
	{"geometry":{"coordinates":[8.509103,47.324705],"type":"Point"},"properties":{"osm_id":"5144054378","tag":{"amenity":"waste_basket"}},"type":"Feature"},
	{"geometry":{"coordinates":[8.513631,47.325052],"type":"Point"},"properties":{"osm_id":"5144054381","tag":{"amenity":"recycling","operator":"Texaid","recycling:clothes":"yes","recycling:shoes":"yes","recycling_type":"container"}},"type":"Feature"},
	{"geometry":{"coordinates":[8.507519,47.310104],"type":"Point"},"properties":{"osm_id":"5206680926","tag":{"amenity":"waste_basket"}},"type":"Feature"},
	{"geometry":{"coordinates":[8.520438,47.336872],"type":"Point"},"properties":{"osm_id":"5218123736","tag":{"amenity":"waste_basket"}},"type":"Feature"},
	{"geometry":{"coordinates":[8.522179,47.338536],"type":"Point"},"properties":{"osm_id":"5218123780","tag":{"amenity":"waste_basket"}},"type":"Feature"},
	{"geometry":{"coordinates":[8.516444,47.331523],"type":"Point"},"properties":{"osm_id":"5227159981","tag":{"amenity":"waste_basket","material":"metal"}},"type":"Feature"},
	{"geometry":{"coordinates":[8.513957,47.334344],"type":"Point"},"properties":{"osm_id":"5227163132","tag":{"amenity":"waste_basket"}},"type":"Feature"},
	{"geometry":{"coordinates":[8.515225,47.331915],"type":"Point"},"properties":{"osm_id":"5230296852","tag":{"amenity":"waste_basket","vending":"excrement_bags"}},"type":"Feature"},
	{"geometry":{"coordinates":[8.514199,47.333671],"type":"Point"},"properties":{"osm_id":"5230296857","tag":{"amenity":"waste_basket"}},"type":"Feature"},
	{"geometry":{"coordinates":[8.523624,47.334889],"type":"Point"},"properties":{"osm_id":"5239596205","tag":{"amenity":"waste_basket"}},"type":"Feature"},
	{"geometry":{"coordinates":[8.524897,47.335279],"type":"Point"},"properties":{"osm_id":"5239596219","tag":{"amenity":"waste_basket"}},"type":"Feature"},
	{"geometry":{"coordinates":[8.474762,47.334472],"type":"Point"},"properties":{"osm_id":"5552545521","tag":{"amenity":"waste_basket"}},"type":"Feature"},
	{"geometry":{"coordinates":[8.505725,47.314438],"type":"Point"},"properties":{"osm_id":"5669610908","tag":{"amenity":"waste_basket"}},"type":"Feature"},
	{"geometry":{"coordinates":[8.505515,47.314836],"type":"Point"},"properties":{"osm_id":"5669610916","tag":{"amenity":"waste_basket"}},"type":"Feature"},
	{"geometry":{"coordinates":[8.512322,47.334765],"type":"Point"},"properties":{"osm_id":"5674279877","tag":{"amenity":"waste_basket"}},"type":"Feature"},
	{"geometry":{"coordinates":[8.512567,47.334791],"type":"Point"},"properties":{"osm_id":"5674279879","tag":{"amenity":"waste_basket"}},"type":"Feature"},
	{"geometry":{"coordinates":[8.514203,47.336413],"type":"Point"},"properties":{"osm_id":"5674279880","tag":{"amenity":"waste_basket"}},"type":"Feature"},
	{"geometry":{"coordinates":[8.502041,47.336609],"type":"Point"},"properties":{"osm_id":"5682621816","tag":{"amenity":"waste_basket"}},"type":"Feature"},
	{"geometry":{"coordinates":[8.502098,47.336622],"type":"Point"},"properties":{"osm_id":"5682621817","tag":{"amenity":"waste_basket"}},"type":"Feature"},
	{"geometry":{"coordinates":[8.518316,47.333114],"type":"Point"},"properties":{"osm_id":"5725291495","tag":{"amenity":"waste_basket"}},"type":"Feature"},
	{"geometry":{"coordinates":[8.518546,47.332825],"type":"Point"},"properties":{"osm_id":"5725294284","tag":{"amenity":"waste_basket"}},"type":"Feature"},
	{"geometry":{"coordinates":[8.518942,47.333189],"type":"Point"},"properties":{"osm_id":"5725294285","tag":{"amenity":"waste_basket"}},"type":"Feature"},
	{"geometry":{"coordinates":[8.518534,47.333307],"type":"Point"},"properties":{"osm_id":"5725294287","tag":{"amenity":"waste_basket"}},"type":"Feature"},
	{"geometry":{"coordinates":[8.518931,47.333389],"type":"Point"},"properties":{"osm_id":"5725294288","tag":{"amenity":"waste_basket"}},"type":"Feature"},
	{"geometry":{"coordinates":[8.518773,47.333251],"type":"Point"},"properties":{"osm_id":"5725294294","tag":{"amenity":"waste_basket"}},"type":"Feature"},
	{"geometry":{"coordinates":[8.500284,47.327276],"type":"Point"},"properties":{"osm_id":"5768322710","tag":{"amenity":"waste_basket"}},"type":"Feature"},
	{"geometry":{"coordinates":[8.476559,47.33839],"type":"Point"},"properties":{"osm_id":"5863926645","tag":{"amenity":"waste_basket","waste":"dog_excrement"}},"type":"Feature"},
	{"geometry":{"coordinates":[8.516604,47.31119],"type":"Point"},"properties":{"osm_id":"5948488509","tag":{"amenity":"waste_basket"}},"type":"Feature"},
	{"geometry":{"coordinates":[8.519668,47.338153],"type":"Point"},"properties":{"osm_id":"6789721434","tag":{"amenity":"waste_basket"}},"type":"Feature"},
	{"geometry":{"coordinates":[8.519675,47.337769],"type":"Point"},"properties":{"osm_id":"6789787582","tag":{"amenity":"waste_basket"}},"type":"Feature"},
	{"geometry":{"coordinates":[8.519431,47.338689],"type":"Point"},"properties":{"osm_id":"6789788795","tag":{"amenity":"waste_basket"}},"type":"Feature"},
	{"geometry":{"coordinates":[8.519651,47.338512],"type":"Point"},"properties":{"osm_id":"6789790004","tag":{"amenity":"waste_basket"}},"type":"Feature"},
	{"geometry":{"coordinates":[8.519251,47.338527],"type":"Point"},"properties":{"osm_id":"6789801846","tag":{"amenity":"waste_basket"}},"type":"Feature"},
	{"geometry":{"coordinates":[8.510245,47.324051],"type":"Point"},"properties":{"osm_id":"7469446874","tag":{"amenity":"waste_basket"}},"type":"Feature"},
	{"geometry":{"coordinates":[8.509919,47.326193],"type":"Point"},"properties":{"osm_id":"7469466417","tag":{"amenity":"waste_basket"}},"type":"Feature"},
	{"geometry":{"coordinates":[8.445416,47.300878],"type":"Point"},"properties":{"osm_id":"7734663078","tag":{"amenity":"waste_basket","colour":"Black","material":"metal","operator":"Gemeinde Hedingen","waste":"trash"}},"type":"Feature"},
	{"geometry":{"coordinates":[8.513332,47.325119],"type":"Point"},"properties":{"osm_id":"7741572327","tag":{"amenity":"waste_basket"}},"type":"Feature"},
	{"geometry":{"coordinates":[8.500566,47.321563],"type":"Point"},"properties":{"osm_id":"7757321020","tag":{"amenity":"waste_basket"}},"type":"Feature"},
	{"geometry":{"coordinates":[8.441383,47.298461],"type":"Point"},"properties":{"osm_id":"7794864628","tag":{"amenity":"waste_basket","material":"steel","operator":"Gemeinde Hedingen","waste":"trash"}},"type":"Feature"},
	{"geometry":{"coordinates":[8.525068,47.312974],"type":"Point"},"properties":{"osm_id":"7904780078","tag":{"amenity":"recycling","opening_hours":"24/7","opening_hours:covid19":"same","operator":"coop","recycling:plastic_bottles":"yes","recycling_type":"container"}},"type":"Feature"},
	{"geometry":{"coordinates":[8.507862,47.297011],"type":"Point"},"properties":{"osm_id":"7945609782","tag":{"amenity":"waste_basket","waste":"trash"}},"type":"Feature"},
	{"geometry":{"coordinates":[8.507844,47.297053],"type":"Point"},"properties":{"osm_id":"7945609783","tag":{"amenity":"waste_basket","waste":"dog_excrement"}},"type":"Feature"}
]
}
