{
"type": "FeatureCollection",
"features": [
	{"geometry":{"coordinates":[8.483482,47.011654],"type":"Point"},"properties":{"osm_id":"3203040229","tag":{"amenity":"recycling","operator":"Gemeinde Vitznau / REAL","recycling:cans":"yes","recycling:clothes":"yes","recycling:glass":"yes","recycling:paper":"no"}},"type":"Feature"},
	{"geometry":{"coordinates":[8.482817,47.009641],"type":"Point"},"properties":{"osm_id":"3799591887","tag":{"amenity":"waste_basket"}},"type":"Feature"},
	{"geometry":{"coordinates":[8.482722,47.0103],"type":"Point"},"properties":{"osm_id":"3802295956","tag":{"amenity":"waste_basket"}},"type":"Feature"},
	{"geometry":{"coordinates":[8.482331,47.010605],"type":"Point"},"properties":{"osm_id":"3802299960","tag":{"amenity":"waste_basket"}},"type":"Feature"},
	{"geometry":{"coordinates":[8.482149,47.010872],"type":"Point"},"properties":{"osm_id":"3802299963","tag":{"amenity":"waste_basket"}},"type":"Feature"},
	{"geometry":{"coordinates":[8.482145,47.010875],"type":"Point"},"properties":{"osm_id":"3802299964","tag":{"amenity":"waste_basket"}},"type":"Feature"},
	{"geometry":{"coordinates":[8.443425,47.034246],"type":"Point"},"properties":{"osm_id":"4485296414","tag":{"amenity":"waste_basket"}},"type":"Feature"},
	{"geometry":{"coordinates":[8.450138,47.026611],"type":"Point"},"properties":{"osm_id":"4485319396","tag":{"amenity":"waste_basket"}},"type":"Feature"},
	{"geometry":{"coordinates":[8.449102,47.027302],"type":"Point"},"properties":{"osm_id":"4485325289","tag":{"amenity":"waste_basket"}},"type":"Feature"},
	{"geometry":{"coordinates":[8.447032,47.028781],"type":"Point"},"properties":{"osm_id":"4485326000","tag":{"amenity":"waste_basket"}},"type":"Feature"},
	{"geometry":{"coordinates":[8.445477,47.030061],"type":"Point"},"properties":{"osm_id":"4485349392","tag":{"amenity":"waste_basket"}},"type":"Feature"},
	{"geometry":{"coordinates":[8.443652,47.030817],"type":"Point"},"properties":{"osm_id":"4485412989","tag":{"addr:city":"Weggis","addr:postcode":"6353","addr:street":"Vorderacherstrasse","amenity":"recycling","recycling:aluminium":"yes","recycling:batteries":"yes","recycling:glass":"yes","recycling_type":"container"}},"type":"Feature"},
	{"geometry":{"coordinates":[8.454829,47.02371],"type":"Point"},"properties":{"osm_id":"4486551207","tag":{"amenity":"waste_basket"}},"type":"Feature"},
	{"geometry":{"coordinates":[8.454497,47.023764],"type":"Point"},"properties":{"osm_id":"4486551210","tag":{"amenity":"waste_basket"}},"type":"Feature"},
	{"geometry":{"coordinates":[8.454207,47.023899],"type":"Point"},"properties":{"osm_id":"4486551213","tag":{"amenity":"waste_basket"}},"type":"Feature"},
	{"geometry":{"coordinates":[8.440556,47.032581],"type":"Point"},"properties":{"osm_id":"4498985833","tag":{"amenity":"waste_basket"}},"type":"Feature"},
	{"geometry":{"coordinates":[8.440749,47.032522],"type":"Point"},"properties":{"osm_id":"4498986875","tag":{"amenity":"waste_basket"}},"type":"Feature"},
	{"geometry":{"coordinates":[8.445585,47.03527],"type":"Point"},"properties":{"osm_id":"4500003723","tag":{"amenity":"waste_basket"}},"type":"Feature"},
	{"geometry":{"coordinates":[8.438652,47.030991],"type":"Point"},"properties":{"osm_id":"4508774301","tag":{"amenity":"waste_basket"}},"type":"Feature"},
	{"geometry":{"coordinates":[8.440894,47.030966],"type":"Point"},"properties":{"osm_id":"4508796498","tag":{"amenity":"waste_basket"}},"type":"Feature"},
	{"geometry":{"coordinates":[8.437593,47.032864],"type":"Point"},"properties":{"osm_id":"4520488740","tag":{"amenity":"waste_basket"}},"type":"Feature"},
	{"geometry":{"coordinates":[8.441078,47.032892],"type":"Point"},"properties":{"osm_id":"4531641020","tag":{"amenity":"waste_basket"}},"type":"Feature"},
	{"geometry":{"coordinates":[8.441565,47.033427],"type":"Point"},"properties":{"osm_id":"4531641021","tag":{"amenity":"waste_basket"}},"type":"Feature"},
	{"geometry":{"coordinates":[8.452025,47.030053],"type":"Point"},"properties":{"osm_id":"4536221873","tag":{"amenity":"waste_basket"}},"type":"Feature"},
	{"geometry":{"coordinates":[8.461965,47.024604],"type":"Point"},"properties":{"osm_id":"4542914838","tag":{"amenity":"waste_basket"}},"type":"Feature"},
	{"geometry":{"coordinates":[8.46254,47.024548],"type":"Point"},"properties":{"osm_id":"4542914842","tag":{"amenity":"waste_basket"}},"type":"Feature"},
	{"geometry":{"coordinates":[8.461179,47.024681],"type":"Point"},"properties":{"osm_id":"4542937989","tag":{"amenity":"waste_basket"}},"type":"Feature"},
	{"geometry":{"coordinates":[8.440741,47.033957],"type":"Point"},"properties":{"osm_id":"4554462158","tag":{"amenity":"waste_basket"}},"type":"Feature"},
	{"geometry":{"coordinates":[8.440544,47.033835],"type":"Point"},"properties":{"osm_id":"4554462955","tag":{"amenity":"waste_basket"}},"type":"Feature"},
	{"geometry":{"coordinates":[8.456151,47.023558],"type":"Point"},"properties":{"osm_id":"4568767394","tag":{"amenity":"waste_basket"}},"type":"Feature"}
]
}
