{
"type": "FeatureCollection",
"features": [
	{"geometry":{"coordinates":[-1.215145,52.929502],"type":"Point"},"properties":{"is_in":"Nottingham,Nottinghamshire,United Kingdom","osm_id":"206128331","tag":{"amenity":"recycling","is_in:city":"Nottingham","is_in:county":"Nottinghamshire"}},"type":"Feature"},
	{"geometry":{"coordinates":[-1.20429,52.913004],"type":"Point"},"properties":{"osm_id":"354596885","tag":{"amenity":"waste_disposal"}},"type":"Feature"},
	{"geometry":{"coordinates":[-1.17306,52.951553],"type":"Point"},"properties":{"osm_id":"379542831","tag":{"amenity":"recycling","colour":"red","operator":"British Heart Foundation","recycling_type":"container"}},"type":"Feature"},
	{"geometry":{"coordinates":[-1.162896,52.945336],"type":"Point"},"properties":{"osm_id":"391097592","tag":{"amenity":"recycling","recycling:cans":"yes","recycling:cardboard":"yes","recycling:glass_bottles":"yes","recycling:paper":"yes","recycling:plastic_bottles":"yes"}},"type":"Feature"},
	{"geometry":{"coordinates":[-1.163632,52.960026],"type":"Point"},"properties":{"osm_id":"393454177","tag":{"amenity":"recycling"}},"type":"Feature"},
	{"geometry":{"coordinates":[-1.149965,52.942499],"type":"Point"},"properties":{"osm_id":"416471224","tag":{"amenity":"recycling","recycling_type":"container"}},"type":"Feature"},
	{"geometry":{"coordinates":[-1.175379,52.952817],"type":"Point"},"properties":{"name":"Marcus Garvey Recycling Centre","osm_id":"489865790","tag":{"amenity":"recycling","operator":"Nottingham City Council","recycling_type":"container"}},"type":"Feature"},
	{"geometry":{"coordinates":[-1.17345,52.95798],"type":"Point"},"properties":{"name":"John Carroll Recycling Centre","osm_id":"489965705","tag":{"amenity":"recycling"}},"type":"Feature"},
	{"geometry":{"coordinates":[-1.186825,52.941767],"type":"Point"},"properties":{"osm_id":"666472233","tag":{"amenity":"recycling"}},"type":"Feature"},
	{"geometry":{"coordinates":[-1.165411,52.940444],"type":"Point"},"properties":{"osm_id":"674826656","tag":{"amenity":"waste_basket"}},"type":"Feature"},
	{"geometry":{"coordinates":[-1.165384,52.940867],"type":"Point"},"properties":{"osm_id":"674826669","tag":{"amenity":"waste_basket"}},"type":"Feature"},
	{"geometry":{"coordinates":[-1.165373,52.941417],"type":"Point"},"properties":{"osm_id":"674826680","tag":{"amenity":"waste_basket"}},"type":"Feature"},
	{"geometry":{"coordinates":[-1.159602,52.943675],"type":"Point"},"properties":{"osm_id":"677668201","tag":{"amenity":"waste_basket"}},"type":"Feature"},
	{"geometry":{"coordinates":[-1.159278,52.943606],"type":"Point"},"properties":{"osm_id":"677668202","tag":{"amenity":"waste_basket"}},"type":"Feature"},
	{"geometry":{"coordinates":[-1.160313,52.942448],"type":"Point"},"properties":{"osm_id":"677668218","tag":{"amenity":"waste_basket"}},"type":"Feature"},
	{"geometry":{"coordinates":[-1.191379,52.941046],"type":"Point"},"properties":{"osm_id":"958626420","tag":{"amenity":"recycling"}},"type":"Feature"},
	{"geometry":{"coordinates":[-1.186503,52.95226],"type":"Point"},"properties":{"osm_id":"1018817698","tag":{"amenity":"recycling","location":"overground","recycling_type":"container"}},"type":"Feature"},
	{"geometry":{"coordinates":[-1.184755,52.952179],"type":"Point"},"properties":{"osm_id":"1018817866","tag":{"amenity":"waste_basket"}},"type":"Feature"},
	{"geometry":{"coordinates":[-1.187398,52.953852],"type":"Point"},"properties":{"osm_id":"1018817903","tag":{"amenity":"recycling"}},"type":"Feature"},
	{"geometry":{"coordinates":[-1.18436,52.951526],"type":"Point"},"properties":{"osm_id":"1018817913","tag":{"amenity":"waste_basket"}},"type":"Feature"},
	{"geometry":{"coordinates":[-1.216226,52.92218],"type":"Point"},"properties":{"osm_id":"1140131575","tag":{"amenity":"recycling"}},"type":"Feature"},
	{"geometry":{"coordinates":[-1.150345,52.960606],"type":"Point"},"properties":{"osm_id":"1316037931","tag":{"amenity":"waste_basket"}},"type":"Feature"},
	{"geometry":{"coordinates":[-1.149812,52.96015],"type":"Point"},"properties":{"osm_id":"1316037977","tag":{"amenity":"waste_basket"}},"type":"Feature"},
	{"geometry":{"coordinates":[-1.153489,52.954734],"type":"Point"},"properties":{"osm_id":"1317024677","tag":{"amenity":"waste_basket"}},"type":"Feature"},
	{"geometry":{"coordinates":[-1.153309,52.954612],"type":"Point"},"properties":{"osm_id":"1317024705","tag":{"amenity":"waste_basket"}},"type":"Feature"},
	{"geometry":{"coordinates":[-1.152496,52.954723],"type":"Point"},"properties":{"osm_id":"1317024749","tag":{"amenity":"waste_basket"}},"type":"Feature"},
	{"geometry":{"coordinates":[-1.152485,52.954865],"type":"Point"},"properties":{"osm_id":"1317024773","tag":{"amenity":"waste_basket"}},"type":"Feature"},
	{"geometry":{"coordinates":[-1.153603,52.954086],"type":"Point"},"properties":{"osm_id":"1317092814","tag":{"amenity":"waste_basket","recycling:cans":"yes","recycling:glass":"yes","recycling:plastic_bottles":"yes"}},"type":"Feature"},
	{"geometry":{"coordinates":[-1.153663,52.954007],"type":"Point"},"properties":{"osm_id":"1317092844","tag":{"amenity":"waste_basket"}},"type":"Feature"},
	{"geometry":{"coordinates":[-1.152895,52.953835],"type":"Point"},"properties":{"osm_id":"1317117661","tag":{"amenity":"waste_basket"}},"type":"Feature"},
	{"geometry":{"coordinates":[-1.152745,52.953806],"type":"Point"},"properties":{"osm_id":"1317117667","tag":{"amenity":"waste_basket","recycling:cans":"yes","recycling:glass":"yes","recycling:plastic_bottles":"yes"}},"type":"Feature"},
	{"geometry":{"coordinates":[-1.150229,52.955105],"type":"Point"},"properties":{"osm_id":"1346932858","tag":{"amenity":"waste_basket"}},"type":"Feature"},
	{"geometry":{"coordinates":[-1.198874,52.919687],"type":"Point"},"properties":{"osm_id":"2195003731","tag":{"amenity":"recycling","recycling:glass_bottles":"yes","recycling:shoes":"yes"}},"type":"Feature"},
	{"geometry":{"coordinates":[-1.212774,52.9291],"type":"Point"},"properties":{"osm_id":"2207147803","tag":{"amenity":"recycling","recycling:glass":"yes","recycling_type":"container"}},"type":"Feature"},
	{"geometry":{"coordinates":[-1.146725,52.942827],"type":"Point"},"properties":{"osm_id":"2347863780","tag":{"amenity":"recycling","recycling:cans":"yes","recycling:clothes":"yes","recycling:glass_bottles":"yes"}},"type":"Feature"},
	{"geometry":{"coordinates":[-1.191453,52.940694],"type":"Point"},"properties":{"osm_id":"2461468013","tag":{"amenity":"waste_disposal"}},"type":"Feature"},
	{"geometry":{"coordinates":[-1.195727,52.94172],"type":"Point"},"properties":{"osm_id":"2461478859","tag":{"amenity":"waste_basket"}},"type":"Feature"},
	{"geometry":{"coordinates":[-1.195077,52.942142],"type":"Point"},"properties":{"osm_id":"2461478860","tag":{"amenity":"waste_basket"}},"type":"Feature"},
	{"geometry":{"coordinates":[-1.195863,52.942159],"type":"Point"},"properties":{"osm_id":"2461478861","tag":{"amenity":"waste_basket"}},"type":"Feature"},
	{"geometry":{"coordinates":[-1.195638,52.940573],"type":"Point"},"properties":{"osm_id":"2461480319","tag":{"amenity":"waste_basket"}},"type":"Feature"},
	{"geometry":{"coordinates":[-1.150578,52.930861],"type":"Point"},"properties":{"osm_id":"2605097118","tag":{"amenity":"recycling"}},"type":"Feature"},
	{"geometry":{"coordinates":[-1.229525,52.948249],"type":"Point"},"properties":{"osm_id":"2693386223","tag":{"amenity":"recycling"}},"type":"Feature"},
	{"geometry":{"coordinates":[-1.152856,52.918223],"type":"Point"},"properties":{"osm_id":"2752867184","tag":{"amenity":"recycling","recycling:clothes":"yes","recycling:glass_bottles":"yes","recycling:shoes":"yes"}},"type":"Feature"},
	{"geometry":{"coordinates":[-1.149649,52.953567],"type":"Point"},"properties":{"osm_id":"2801394616","tag":{"amenity":"waste_basket"}},"type":"Feature"},
	{"geometry":{"coordinates":[-1.189251,52.9355],"type":"Point"},"properties":{"name":"Tennis Centre Recycling Site","osm_id":"2922158797","tag":{"amenity":"recycling","operator":"Nottingham City Council","recycling_type":"container"}},"type":"Feature"},
	{"geometry":{"coordinates":[-1.203741,52.941578],"type":"Point"},"properties":{"name":"Sherwood Hall Recycling Site","osm_id":"3020790068","tag":{"amenity":"recycling","operator":"Nottingham City Council"}},"type":"Feature"},
	{"geometry":{"coordinates":[-1.157787,52.955057],"type":"Point"},"properties":{"osm_id":"3783348880","tag":{"amenity":"waste_basket"}},"type":"Feature"},
	{"geometry":{"coordinates":[-1.152426,52.949323],"type":"Point"},"properties":{"osm_id":"3783425046","tag":{"amenity":"waste_basket"}},"type":"Feature"},
	{"geometry":{"coordinates":[-1.153514,52.950741],"type":"Point"},"properties":{"osm_id":"3783425053","tag":{"amenity":"waste_basket"}},"type":"Feature"},
	{"geometry":{"coordinates":[-1.156821,52.954089],"type":"Point"},"properties":{"osm_id":"3783456772","tag":{"amenity":"waste_basket"}},"type":"Feature"},
	{"geometry":{"coordinates":[-1.190157,52.940852],"type":"Point"},"properties":{"osm_id":"4150891442","tag":{"amenity":"waste_basket"}},"type":"Feature"},
	{"geometry":{"coordinates":[-1.181789,52.955505],"type":"Point"},"properties":{"osm_id":"4303483852","tag":{"amenity":"waste_basket"}},"type":"Feature"},
	{"geometry":{"coordinates":[-1.182978,52.955689],"type":"Point"},"properties":{"osm_id":"4303484198","tag":{"amenity":"waste_basket"}},"type":"Feature"},
	{"geometry":{"coordinates":[-1.182702,52.955861],"type":"Point"},"properties":{"osm_id":"4303484307","tag":{"amenity":"recycling","recycling:books":"yes","recycling:clothes":"yes","recycling_type":"container"}},"type":"Feature"},
	{"geometry":{"coordinates":[-1.212852,52.928533],"type":"Point"},"properties":{"osm_id":"4450812933","tag":{"amenity":"waste_basket"}},"type":"Feature"},
	{"geometry":{"coordinates":[-1.187744,52.948103],"type":"Point"},"properties":{"osm_id":"4884242875","tag":{"amenity":"waste_basket"}},"type":"Feature"},
	{"geometry":{"coordinates":[-1.203128,52.931729],"type":"Point"},"properties":{"osm_id":"5311028166","tag":{"amenity":"waste_basket"}},"type":"Feature"},
	{"geometry":{"coordinates":[-1.208904,52.933428],"type":"Point"},"properties":{"osm_id":"5311028203","tag":{"amenity":"recycling","recycling:clothes":"yes","recycling:glass_bottles":"yes","recycling_type":"container"}},"type":"Feature"},
	{"geometry":{"coordinates":[-1.199717,52.916951],"type":"Point"},"properties":{"osm_id":"5337521566","tag":{"amenity":"waste_basket"}},"type":"Feature"},
	{"geometry":{"coordinates":[-1.207374,52.928583],"type":"Point"},"properties":{"osm_id":"5646072352","tag":{"amenity":"waste_basket"}},"type":"Feature"},
	{"geometry":{"coordinates":[-1.213694,52.922571],"type":"Point"},"properties":{"osm_id":"5697670529","tag":{"amenity":"waste_basket"}},"type":"Feature"},
	{"geometry":{"coordinates":[-1.215624,52.923901],"type":"Point"},"properties":{"osm_id":"5697670540","tag":{"amenity":"waste_basket"}},"type":"Feature"},
	{"geometry":{"coordinates":[-1.149168,52.953132],"type":"Point"},"properties":{"osm_id":"5783350474","tag":{"amenity":"waste_basket"}},"type":"Feature"},
	{"geometry":{"coordinates":[-1.149193,52.953594],"type":"Point"},"properties":{"osm_id":"5914181738","tag":{"amenity":"waste_basket","brand":"BigBelly","solar_powered":"yes"}},"type":"Feature"},
	{"geometry":{"coordinates":[-1.14933,52.953742],"type":"Point"},"properties":{"osm_id":"5914181739","tag":{"amenity":"waste_basket","brand":"BigBelly","solar_powered":"yes"}},"type":"Feature"},
	{"geometry":{"coordinates":[-1.149489,52.954262],"type":"Point"},"properties":{"osm_id":"5916066034","tag":{"amenity":"waste_basket","brand":"BigBelly","solar_powered":"yes"}},"type":"Feature"},
	{"geometry":{"coordinates":[-1.149889,52.954992],"type":"Point"},"properties":{"osm_id":"5916066038","tag":{"amenity":"waste_basket","brand":"BigBelly","solar_powered":"yes"}},"type":"Feature"},
	{"geometry":{"coordinates":[-1.149352,52.954964],"type":"Point"},"properties":{"osm_id":"5916066040","tag":{"amenity":"waste_basket"}},"type":"Feature"},
	{"geometry":{"coordinates":[-1.148451,52.956243],"type":"Point"},"properties":{"osm_id":"5916066043","tag":{"amenity":"waste_basket"}},"type":"Feature"},
	{"geometry":{"coordinates":[-1.149461,52.955712],"type":"Point"},"properties":{"osm_id":"5916066044","tag":{"amenity":"waste_basket"}},"type":"Feature"},
	{"geometry":{"coordinates":[-1.14862,52.956734],"type":"Point"},"properties":{"osm_id":"5916066047","tag":{"amenity":"waste_basket"}},"type":"Feature"},
	{"geometry":{"coordinates":[-1.149512,52.955641],"type":"Point"},"properties":{"osm_id":"5916066048","tag":{"amenity":"waste_basket"}},"type":"Feature"},
	{"geometry":{"coordinates":[-1.1497,52.954174],"type":"Point"},"properties":{"osm_id":"5916066050","tag":{"amenity":"waste_basket","brand":"BigBelly","solar_powered":"yes"}},"type":"Feature"},
	{"geometry":{"coordinates":[-1.149697,52.955134],"type":"Point"},"properties":{"osm_id":"5916066051","tag":{"amenity":"waste_basket"}},"type":"Feature"},
	{"geometry":{"coordinates":[-1.150232,52.954655],"type":"Point"},"properties":{"osm_id":"5916066052","tag":{"amenity":"waste_basket","brand":"BigBelly","solar_powered":"yes"}},"type":"Feature"},
	{"geometry":{"coordinates":[-1.150059,52.954439],"type":"Point"},"properties":{"osm_id":"5916066053","tag":{"amenity":"waste_basket","brand":"BigBelly","solar_powered":"yes"}},"type":"Feature"},
	{"geometry":{"coordinates":[-1.150397,52.954827],"type":"Point"},"properties":{"osm_id":"5916066054","tag":{"amenity":"waste_basket","brand":"BigBelly","solar_powered":"yes"}},"type":"Feature"},
	{"geometry":{"coordinates":[-1.14955,52.953891],"type":"Point"},"properties":{"osm_id":"5916066055","tag":{"amenity":"waste_basket","brand":"BigBelly","solar_powered":"yes"}},"type":"Feature"},
	{"geometry":{"coordinates":[-1.153016,52.952368],"type":"Point"},"properties":{"osm_id":"5993982933","tag":{"amenity":"waste_basket","brand":"BigBelly","waste":"trash"}},"type":"Feature"},
	{"geometry":{"coordinates":[-1.145091,52.922332],"type":"Point"},"properties":{"osm_id":"5994606019","tag":{"amenity":"waste_basket"}},"type":"Feature"},
	{"geometry":{"coordinates":[-1.184962,52.947404],"type":"Point"},"properties":{"osm_id":"6121514023","tag":{"amenity":"recycling","operator":"British Heart Foundation","recycling:clothes":"yes","recycling:organic":"yes","recycling:shoes":"yes","recycling_type":"container"}},"type":"Feature"},
	{"geometry":{"coordinates":[-1.149522,52.952335],"type":"Point"},"properties":{"osm_id":"6210423365","tag":{"amenity":"waste_basket","brand":"BigBelly","solar_powered":"yes"}},"type":"Feature"},
	{"geometry":{"coordinates":[-1.171576,52.928562],"type":"Point"},"properties":{"osm_id":"6254245626","tag":{"amenity":"waste_basket"}},"type":"Feature"},
	{"geometry":{"coordinates":[-1.180303,52.944677],"type":"Point"},"properties":{"osm_id":"6254765447","tag":{"amenity":"waste_basket"}},"type":"Feature"},
	{"geometry":{"coordinates":[-1.165671,52.922667],"type":"Point"},"properties":{"osm_id":"6338569841","tag":{"amenity":"waste_basket"}},"type":"Feature"},
	{"geometry":{"coordinates":[-1.147021,52.91884],"type":"Point"},"properties":{"osm_id":"6356766372","tag":{"amenity":"waste_basket"}},"type":"Feature"},
	{"geometry":{"coordinates":[-1.14825,52.91845],"type":"Point"},"properties":{"osm_id":"6356766381","tag":{"amenity":"waste_basket"}},"type":"Feature"},
	{"geometry":{"coordinates":[-1.174518,52.948548],"type":"Point"},"properties":{"osm_id":"6378486384","tag":{"amenity":"recycling","colour":"red","container:count":"2","operator":"British Heart Foundation","recycling:books":"yes","recycling:clothes":"yes","recycling_type":"container"}},"type":"Feature"},
	{"geometry":{"coordinates":[-1.188183,52.951854],"type":"Point"},"properties":{"osm_id":"6398375460","tag":{"amenity":"waste_disposal"}},"type":"Feature"},
	{"geometry":{"coordinates":[-1.163411,52.956029],"type":"Point"},"properties":{"osm_id":"6434084520","tag":{"amenity":"waste_basket"}},"type":"Feature"},
	{"geometry":{"coordinates":[-1.227583,52.941177],"type":"Point"},"properties":{"osm_id":"6489434876","tag":{"amenity":"waste_basket"}},"type":"Feature"},
	{"geometry":{"coordinates":[-1.19593,52.938419],"type":"Point"},"properties":{"osm_id":"6492407262","tag":{"amenity":"waste_basket"}},"type":"Feature"},
	{"geometry":{"coordinates":[-1.19563,52.93847],"type":"Point"},"properties":{"osm_id":"6492407263","tag":{"amenity":"waste_basket"}},"type":"Feature"},
	{"geometry":{"coordinates":[-1.19988,52.935703],"type":"Point"},"properties":{"osm_id":"6496356351","tag":{"amenity":"waste_basket"}},"type":"Feature"},
	{"geometry":{"coordinates":[-1.205105,52.94211],"type":"Point"},"properties":{"osm_id":"6516904917","tag":{"amenity":"waste_basket"}},"type":"Feature"},
	{"geometry":{"coordinates":[-1.186105,52.955007],"type":"Point"},"properties":{"osm_id":"6532437929","tag":{"amenity":"waste_basket","waste":"trash"}},"type":"Feature"},
	{"geometry":{"coordinates":[-1.166579,52.919788],"type":"Point"},"properties":{"osm_id":"6575419561","tag":{"amenity":"waste_basket"}},"type":"Feature"},
	{"geometry":{"coordinates":[-1.167241,52.917405],"type":"Point"},"properties":{"osm_id":"6575419563","tag":{"amenity":"waste_basket"}},"type":"Feature"},
	{"geometry":{"coordinates":[-1.166972,52.919718],"type":"Point"},"properties":{"osm_id":"6575419566","tag":{"amenity":"waste_basket"}},"type":"Feature"},
	{"geometry":{"coordinates":[-1.167194,52.912695],"type":"Point"},"properties":{"osm_id":"6575430211","tag":{"amenity":"waste_basket"}},"type":"Feature"},
	{"geometry":{"coordinates":[-1.162404,52.911921],"type":"Point"},"properties":{"osm_id":"6575430215","tag":{"amenity":"waste_basket"}},"type":"Feature"},
	{"geometry":{"coordinates":[-1.167169,52.910623],"type":"Point"},"properties":{"osm_id":"6575430220","tag":{"amenity":"waste_basket"}},"type":"Feature"},
	{"geometry":{"coordinates":[-1.151028,52.929799],"type":"Point"},"properties":{"osm_id":"6592862988","tag":{"amenity":"waste_basket"}},"type":"Feature"},
	{"geometry":{"coordinates":[-1.151319,52.930452],"type":"Point"},"properties":{"osm_id":"6592866107","tag":{"amenity":"waste_basket"}},"type":"Feature"},
	{"geometry":{"coordinates":[-1.151516,52.930099],"type":"Point"},"properties":{"osm_id":"6592866108","tag":{"amenity":"waste_basket"}},"type":"Feature"},
	{"geometry":{"coordinates":[-1.171462,52.947154],"type":"Point"},"properties":{"osm_id":"6621001059","tag":{"amenity":"waste_basket"}},"type":"Feature"},
	{"geometry":{"coordinates":[-1.149506,52.953761],"type":"Point"},"properties":{"osm_id":"6643210209","tag":{"amenity":"waste_basket","brand":"BigBelly","solar_powered":"yes"}},"type":"Feature"},
	{"geometry":{"coordinates":[-1.209124,52.913309],"type":"Point"},"properties":{"osm_id":"6695753015","tag":{"amenity":"recycling"}},"type":"Feature"},
	{"geometry":{"coordinates":[-1.186261,52.95118],"type":"Point"},"properties":{"osm_id":"6989176775","tag":{"amenity":"waste_basket","waste":"trash"}},"type":"Feature"},
	{"geometry":{"coordinates":[-1.187644,52.950077],"type":"Point"},"properties":{"osm_id":"6989198694","tag":{"amenity":"waste_basket","waste":"trash"}},"type":"Feature"},
	{"geometry":{"coordinates":[-1.147099,52.9516],"type":"Point"},"properties":{"osm_id":"7051202737","tag":{"amenity":"waste_basket","brand":"BigBelly","solar_powered":"yes","waste":"trash"}},"type":"Feature"},
	{"geometry":{"coordinates":[-1.147549,52.953426],"type":"Point"},"properties":{"osm_id":"7063880365","tag":{"amenity":"waste_basket","brand":"BigBelly","waste":"trash"}},"type":"Feature"},
	{"geometry":{"coordinates":[-1.147564,52.953478],"type":"Point"},"properties":{"osm_id":"7063880369","tag":{"amenity":"waste_basket","brand":"BigBelly","waste":"trash"}},"type":"Feature"},
	{"geometry":{"coordinates":[-1.173489,52.951404],"type":"Point"},"properties":{"osm_id":"7124490285","tag":{"amenity":"waste_basket","waste":"trash"}},"type":"Feature"},
	{"geometry":{"coordinates":[-1.172612,52.951783],"type":"Point"},"properties":{"osm_id":"7124490294","tag":{"amenity":"waste_basket"}},"type":"Feature"},
	{"geometry":{"coordinates":[-1.172741,52.951741],"type":"Point"},"properties":{"osm_id":"7124490307","tag":{"amenity":"waste_basket"}},"type":"Feature"},
	{"geometry":{"coordinates":[-1.172807,52.951757],"type":"Point"},"properties":{"osm_id":"7124490318","tag":{"amenity":"waste_basket"}},"type":"Feature"},
	{"geometry":{"coordinates":[-1.220389,52.922301],"type":"Point"},"properties":{"osm_id":"7754354887","tag":{"amenity":"waste_basket"}},"type":"Feature"},
	{"geometry":{"coordinates":[-1.220718,52.922316],"type":"Point"},"properties":{"osm_id":"7754355003","tag":{"amenity":"waste_basket"}},"type":"Feature"},
	{"geometry":{"coordinates":[-1.220347,52.922406],"type":"Point"},"properties":{"osm_id":"7754355006","tag":{"amenity":"waste_basket"}},"type":"Feature"},
	{"geometry":{"coordinates":[-1.207716,52.920499],"type":"Point"},"properties":{"osm_id":"7756503754","tag":{"amenity":"waste_basket","waste":"dog_excrement; trash"}},"type":"Feature"},
	{"geometry":{"coordinates":[-1.207105,52.920648],"type":"Point"},"properties":{"osm_id":"7756503759","tag":{"amenity":"waste_basket"}},"type":"Feature"},
	{"geometry":{"coordinates":[-1.207235,52.920599],"type":"Point"},"properties":{"osm_id":"7756503762","tag":{"amenity":"waste_basket"}},"type":"Feature"},
	{"geometry":{"coordinates":[-1.197881,52.928316],"type":"Point"},"properties":{"osm_id":"7759206523","tag":{"amenity":"waste_basket"}},"type":"Feature"},
	{"geometry":{"coordinates":[-1.204495,52.927137],"type":"Point"},"properties":{"osm_id":"7762624509","tag":{"amenity":"waste_basket"}},"type":"Feature"},
	{"geometry":{"coordinates":[-1.146036,52.951561],"type":"Point"},"properties":{"osm_id":"7879116593","tag":{"amenity":"waste_basket"}},"type":"Feature"}
]
}
