{
"type": "FeatureCollection",
"features": [
	{"geometry":{"coordinates":[-1.160583,50.733038],"type":"Point"},"properties":{"osm_id":"4119299312","tag":{"amenity":"waste_basket","waste":"trash"}},"type":"Feature"},
	{"geometry":{"coordinates":[-1.160652,50.733019],"type":"Point"},"properties":{"osm_id":"4119299324","tag":{"amenity":"waste_basket","waste":"trash"}},"type":"Feature"},
	{"geometry":{"coordinates":[-1.148328,50.730432],"type":"Point"},"properties":{"osm_id":"4648521423","tag":{"addr:floor":"1","amenity":"recycling"}},"type":"Feature"},
	{"geometry":{"coordinates":[-1.162689,50.73324],"type":"Point"},"properties":{"osm_id":"6167972809","tag":{"amenity":"waste_basket","waste":"trash"}},"type":"Feature"},
	{"geometry":{"coordinates":[-1.161541,50.733162],"type":"Point"},"properties":{"osm_id":"6167972816","tag":{"amenity":"waste_basket","waste":"trash"}},"type":"Feature"},
	{"geometry":{"coordinates":[-1.16249,50.733443],"type":"Point"},"properties":{"osm_id":"6167972822","tag":{"amenity":"waste_basket","waste":"trash"}},"type":"Feature"},
	{"geometry":{"coordinates":[-1.161472,50.732128],"type":"Point"},"properties":{"osm_id":"6168767494","tag":{"amenity":"waste_basket","waste":"trash"}},"type":"Feature"},
	{"geometry":{"coordinates":[-1.16229,50.729924],"type":"Point"},"properties":{"osm_id":"6168767497","tag":{"amenity":"waste_basket","waste":"trash"}},"type":"Feature"},
	{"geometry":{"coordinates":[-1.162959,50.727841],"type":"Point"},"properties":{"osm_id":"6168767498","tag":{"amenity":"waste_basket","waste":"trash"}},"type":"Feature"},
	{"geometry":{"coordinates":[-1.162331,50.730793],"type":"Point"},"properties":{"osm_id":"6168767500","tag":{"amenity":"waste_basket","waste":"trash"}},"type":"Feature"},
	{"geometry":{"coordinates":[-1.16122,50.732257],"type":"Point"},"properties":{"osm_id":"6168767501","tag":{"amenity":"waste_basket","waste":"trash"}},"type":"Feature"},
	{"geometry":{"coordinates":[-1.162068,50.730944],"type":"Point"},"properties":{"osm_id":"6168767502","tag":{"amenity":"waste_basket","waste":"trash"}},"type":"Feature"},
	{"geometry":{"coordinates":[-1.163239,50.728674],"type":"Point"},"properties":{"osm_id":"6168767504","tag":{"amenity":"waste_basket","waste":"trash"}},"type":"Feature"},
	{"geometry":{"coordinates":[-1.162543,50.730185],"type":"Point"},"properties":{"osm_id":"6168767505","tag":{"amenity":"waste_basket","waste":"trash"}},"type":"Feature"},
	{"geometry":{"coordinates":[-1.160968,50.732699],"type":"Point"},"properties":{"osm_id":"6168767506","tag":{"amenity":"waste_basket","waste":"trash"}},"type":"Feature"},
	{"geometry":{"coordinates":[-1.163362,50.728192],"type":"Point"},"properties":{"osm_id":"6168767510","tag":{"amenity":"waste_basket","waste":"trash"}},"type":"Feature"},
	{"geometry":{"coordinates":[-1.160934,50.729786],"type":"Point"},"properties":{"osm_id":"6168767513","tag":{"amenity":"waste_basket","waste":"trash"}},"type":"Feature"},
	{"geometry":{"coordinates":[-1.162935,50.727797],"type":"Point"},"properties":{"osm_id":"6168767517","tag":{"amenity":"waste_basket","waste":"trash"}},"type":"Feature"},
	{"geometry":{"coordinates":[-1.162558,50.730454],"type":"Point"},"properties":{"osm_id":"6168767519","tag":{"amenity":"waste_basket","waste":"trash"}},"type":"Feature"},
	{"geometry":{"coordinates":[-1.163227,50.728631],"type":"Point"},"properties":{"osm_id":"6168767520","tag":{"amenity":"waste_basket","waste":"trash"}},"type":"Feature"},
	{"geometry":{"coordinates":[-1.161736,50.731718],"type":"Point"},"properties":{"osm_id":"6168767521","tag":{"amenity":"waste_basket","waste":"trash"}},"type":"Feature"},
	{"geometry":{"coordinates":[-1.163254,50.728205],"type":"Point"},"properties":{"osm_id":"6168767524","tag":{"amenity":"waste_basket","waste":"trash"}},"type":"Feature"},
	{"geometry":{"coordinates":[-1.161416,50.731935],"type":"Point"},"properties":{"osm_id":"6168767526","tag":{"amenity":"waste_basket","waste":"trash"}},"type":"Feature"},
	{"geometry":{"coordinates":[-1.162713,50.727177],"type":"Point"},"properties":{"osm_id":"6168767528","tag":{"amenity":"waste_basket","waste":"trash"}},"type":"Feature"},
	{"geometry":{"coordinates":[-1.161306,50.732388],"type":"Point"},"properties":{"osm_id":"6168767531","tag":{"amenity":"waste_basket","waste":"trash"}},"type":"Feature"},
	{"geometry":{"coordinates":[-1.162028,50.731263],"type":"Point"},"properties":{"osm_id":"6168767534","tag":{"amenity":"waste_basket","waste":"trash"}},"type":"Feature"},
	{"geometry":{"coordinates":[-1.18754,50.727217],"type":"Point"},"properties":{"osm_id":"6860605673","tag":{"amenity":"recycling","recycling_type":"container"}},"type":"Feature"}
]
}
