{
"type": "FeatureCollection",
"features": [
	{"geometry":{"coordinates":[-1.206187,50.665701],"type":"Point"},"properties":{"osm_id":"729063582","tag":{"amenity":"recycling","location":"overground","recycling:clothes":"yes","recycling:glass":"yes","recycling_type":"container"}},"type":"Feature"},
	{"geometry":{"coordinates":[-1.180633,50.646579],"type":"Point"},"properties":{"osm_id":"3868631544","tag":{"amenity":"recycling"}},"type":"Feature"},
	{"geometry":{"coordinates":[-1.172353,50.646939],"type":"Point"},"properties":{"osm_id":"3971485327","tag":{"amenity":"recycling","location":"overground","recycling:cans":"yes","recycling:clothes":"yes","recycling:glass_bottles":"yes","recycling:plastic":"yes","recycling_type":"container"}},"type":"Feature"},
	{"geometry":{"coordinates":[-1.142848,50.679773],"type":"Point"},"properties":{"osm_id":"3979185656","tag":{"amenity":"recycling"}},"type":"Feature"},
	{"geometry":{"coordinates":[-1.17984,50.645364],"type":"Point"},"properties":{"osm_id":"5141587334","tag":{"amenity":"recycling","recycling:clothes":"yes","recycling_type":"container"}},"type":"Feature"},
	{"geometry":{"coordinates":[-1.161756,50.65189],"type":"Point"},"properties":{"osm_id":"5686975078","tag":{"addr:city":"Sandown","addr:postcode":"PO36 9ET","addr:street":"Broadway","amenity":"recycling","recycling:clothes":"yes","recycling:glass":"yes","recycling:shoes":"yes","recycling_type":"container"}},"type":"Feature"},
	{"geometry":{"coordinates":[-1.170076,50.633622],"type":"Point"},"properties":{"osm_id":"6448482357","tag":{"amenity":"waste_basket","waste":"trash"}},"type":"Feature"},
	{"geometry":{"coordinates":[-1.171212,50.631513],"type":"Point"},"properties":{"osm_id":"6448482358","tag":{"amenity":"waste_basket","waste":"dog_excrement"}},"type":"Feature"},
	{"geometry":{"coordinates":[-1.171252,50.631499],"type":"Point"},"properties":{"osm_id":"6448482359","tag":{"amenity":"waste_basket","waste":"trash"}},"type":"Feature"},
	{"geometry":{"coordinates":[-1.172611,50.62914],"type":"Point"},"properties":{"osm_id":"6448482360","tag":{"amenity":"waste_basket","waste":"trash"}},"type":"Feature"},
	{"geometry":{"coordinates":[-1.172613,50.629125],"type":"Point"},"properties":{"osm_id":"6448482361","tag":{"amenity":"recycling","recycling_type":"container"}},"type":"Feature"},
	{"geometry":{"coordinates":[-1.173002,50.627331],"type":"Point"},"properties":{"osm_id":"6448482362","tag":{"amenity":"waste_basket","waste":"trash"}},"type":"Feature"},
	{"geometry":{"coordinates":[-1.173002,50.627346],"type":"Point"},"properties":{"osm_id":"6448482363","tag":{"amenity":"recycling","recycling_type":"container"}},"type":"Feature"},
	{"geometry":{"coordinates":[-1.172994,50.627367],"type":"Point"},"properties":{"osm_id":"6448482364","tag":{"amenity":"waste_basket","waste":"dog_excrement"}},"type":"Feature"},
	{"geometry":{"coordinates":[-1.172792,50.627839],"type":"Point"},"properties":{"osm_id":"6448482366","tag":{"amenity":"waste_basket","waste":"trash"}},"type":"Feature"},
	{"geometry":{"coordinates":[-1.172667,50.628213],"type":"Point"},"properties":{"osm_id":"6448482367","tag":{"amenity":"waste_basket","waste":"dog_excrement"}},"type":"Feature"},
	{"geometry":{"coordinates":[-1.172662,50.628234],"type":"Point"},"properties":{"osm_id":"6448482368","tag":{"amenity":"waste_basket","waste":"trash"}},"type":"Feature"},
	{"geometry":{"coordinates":[-1.172655,50.628261],"type":"Point"},"properties":{"osm_id":"6448482369","tag":{"amenity":"recycling","recycling_type":"container"}},"type":"Feature"},
	{"geometry":{"coordinates":[-1.172502,50.628793],"type":"Point"},"properties":{"osm_id":"6448482372","tag":{"amenity":"waste_basket","waste":"trash"}},"type":"Feature"},
	{"geometry":{"coordinates":[-1.172505,50.62881],"type":"Point"},"properties":{"osm_id":"6448482373","tag":{"amenity":"waste_basket","waste":"dog_excrement"}},"type":"Feature"},
	{"geometry":{"coordinates":[-1.172298,50.629477],"type":"Point"},"properties":{"osm_id":"6448482382","tag":{"amenity":"waste_basket","waste":"trash"}},"type":"Feature"},
	{"geometry":{"coordinates":[-1.17229,50.629491],"type":"Point"},"properties":{"osm_id":"6448482383","tag":{"amenity":"recycling","recycling_type":"container"}},"type":"Feature"},
	{"geometry":{"coordinates":[-1.172139,50.629808],"type":"Point"},"properties":{"osm_id":"6448482384","tag":{"amenity":"waste_basket","waste":"trash"}},"type":"Feature"},
	{"geometry":{"coordinates":[-1.171919,50.630228],"type":"Point"},"properties":{"osm_id":"6448482486","tag":{"amenity":"waste_basket","waste":"trash"}},"type":"Feature"},
	{"geometry":{"coordinates":[-1.171724,50.630538],"type":"Point"},"properties":{"osm_id":"6448482488","tag":{"amenity":"recycling","recycling_type":"container"}},"type":"Feature"},
	{"geometry":{"coordinates":[-1.171732,50.63053],"type":"Point"},"properties":{"osm_id":"6448482489","tag":{"amenity":"waste_basket","waste":"trash"}},"type":"Feature"},
	{"geometry":{"coordinates":[-1.171632,50.630663],"type":"Point"},"properties":{"osm_id":"6448482491","tag":{"amenity":"waste_basket","waste":"trash"}},"type":"Feature"},
	{"geometry":{"coordinates":[-1.171361,50.631046],"type":"Point"},"properties":{"osm_id":"6448482495","tag":{"amenity":"recycling","recycling_type":"container"}},"type":"Feature"},
	{"geometry":{"coordinates":[-1.171369,50.631038],"type":"Point"},"properties":{"osm_id":"6448482496","tag":{"amenity":"waste_basket","waste":"trash"}},"type":"Feature"},
	{"geometry":{"coordinates":[-1.170808,50.631845],"type":"Point"},"properties":{"osm_id":"6448482499","tag":{"amenity":"waste_basket","waste":"trash"}},"type":"Feature"},
	{"geometry":{"coordinates":[-1.17032,50.632557],"type":"Point"},"properties":{"osm_id":"6448482501","tag":{"amenity":"waste_basket","waste":"trash"}},"type":"Feature"},
	{"geometry":{"coordinates":[-1.170291,50.632607],"type":"Point"},"properties":{"osm_id":"6448482502","tag":{"amenity":"waste_basket","waste":"trash"}},"type":"Feature"},
	{"geometry":{"coordinates":[-1.170054,50.632968],"type":"Point"},"properties":{"osm_id":"6448482505","tag":{"amenity":"waste_basket","waste":"trash"}},"type":"Feature"},
	{"geometry":{"coordinates":[-1.16974,50.633425],"type":"Point"},"properties":{"osm_id":"6448482513","tag":{"amenity":"recycling","recycling_type":"container"}},"type":"Feature"},
	{"geometry":{"coordinates":[-1.169732,50.633434],"type":"Point"},"properties":{"osm_id":"6448482514","tag":{"amenity":"waste_basket","waste":"trash"}},"type":"Feature"},
	{"geometry":{"coordinates":[-1.169709,50.633497],"type":"Point"},"properties":{"osm_id":"6448482515","tag":{"amenity":"waste_basket","waste":"dog_excrement"}},"type":"Feature"},
	{"geometry":{"coordinates":[-1.171324,50.631335],"type":"Point"},"properties":{"osm_id":"6448482517","tag":{"amenity":"waste_basket","waste":"trash"}},"type":"Feature"},
	{"geometry":{"coordinates":[-1.171307,50.631361],"type":"Point"},"properties":{"osm_id":"6448482518","tag":{"amenity":"waste_basket","waste":"trash"}},"type":"Feature"},
	{"geometry":{"coordinates":[-1.172953,50.62746],"type":"Point"},"properties":{"osm_id":"6448482524","tag":{"amenity":"waste_basket","waste":"dog_excrement"}},"type":"Feature"},
	{"geometry":{"coordinates":[-1.172958,50.627449],"type":"Point"},"properties":{"osm_id":"6448482525","tag":{"amenity":"recycling","recycling_type":"container"}},"type":"Feature"},
	{"geometry":{"coordinates":[-1.172963,50.627442],"type":"Point"},"properties":{"osm_id":"6448482526","tag":{"amenity":"waste_basket","waste":"trash"}},"type":"Feature"},
	{"geometry":{"coordinates":[-1.177975,50.633374],"type":"Point"},"properties":{"osm_id":"6553072445","tag":{"amenity":"waste_basket","waste":"trash"}},"type":"Feature"},
	{"geometry":{"coordinates":[-1.178497,50.632122],"type":"Point"},"properties":{"osm_id":"6553072447","tag":{"amenity":"waste_basket","waste":"trash"}},"type":"Feature"},
	{"geometry":{"coordinates":[-1.175361,50.633174],"type":"Point"},"properties":{"osm_id":"6553072453","tag":{"amenity":"waste_basket","waste":"trash"}},"type":"Feature"},
	{"geometry":{"coordinates":[-1.178818,50.632783],"type":"Point"},"properties":{"osm_id":"6553072454","tag":{"amenity":"waste_basket","waste":"trash"}},"type":"Feature"},
	{"geometry":{"coordinates":[-1.178755,50.633503],"type":"Point"},"properties":{"osm_id":"6553072457","tag":{"amenity":"waste_basket","waste":"trash"}},"type":"Feature"},
	{"geometry":{"coordinates":[-1.175765,50.633269],"type":"Point"},"properties":{"osm_id":"6553072462","tag":{"amenity":"waste_basket","waste":"trash"}},"type":"Feature"},
	{"geometry":{"coordinates":[-1.179554,50.633585],"type":"Point"},"properties":{"osm_id":"6553072463","tag":{"amenity":"waste_basket","waste":"trash"}},"type":"Feature"},
	{"geometry":{"coordinates":[-1.166128,50.643991],"type":"Point"},"properties":{"osm_id":"6718636031","tag":{"amenity":"waste_basket","waste":"trash"}},"type":"Feature"},
	{"geometry":{"coordinates":[-1.157658,50.651487],"type":"Point"},"properties":{"osm_id":"6718636032","tag":{"amenity":"waste_basket","waste":"dog_excrement"}},"type":"Feature"},
	{"geometry":{"coordinates":[-1.162834,50.647515],"type":"Point"},"properties":{"osm_id":"6718636033","tag":{"amenity":"waste_basket","waste":"trash"}},"type":"Feature"},
	{"geometry":{"coordinates":[-1.163801,50.646443],"type":"Point"},"properties":{"osm_id":"6718636035","tag":{"amenity":"waste_basket","waste":"trash"}},"type":"Feature"},
	{"geometry":{"coordinates":[-1.157623,50.651515],"type":"Point"},"properties":{"osm_id":"6718636037","tag":{"amenity":"waste_basket","waste":"trash"}},"type":"Feature"},
	{"geometry":{"coordinates":[-1.160858,50.649142],"type":"Point"},"properties":{"osm_id":"6718636038","tag":{"amenity":"waste_basket","waste":"trash"}},"type":"Feature"},
	{"geometry":{"coordinates":[-1.159359,50.650394],"type":"Point"},"properties":{"osm_id":"6718636039","tag":{"amenity":"waste_basket","waste":"trash"}},"type":"Feature"},
	{"geometry":{"coordinates":[-1.161714,50.64846],"type":"Point"},"properties":{"osm_id":"6718636041","tag":{"amenity":"waste_basket","waste":"dog_excrement"}},"type":"Feature"},
	{"geometry":{"coordinates":[-1.169364,50.636133],"type":"Point"},"properties":{"osm_id":"6718636042","tag":{"amenity":"waste_basket","waste":"dog_excrement"}},"type":"Feature"},
	{"geometry":{"coordinates":[-1.164768,50.645342],"type":"Point"},"properties":{"osm_id":"6718636044","tag":{"amenity":"waste_basket","waste":"trash"}},"type":"Feature"},
	{"geometry":{"coordinates":[-1.164328,50.645789],"type":"Point"},"properties":{"osm_id":"6718636045","tag":{"amenity":"waste_basket","waste":"trash"}},"type":"Feature"},
	{"geometry":{"coordinates":[-1.16707,50.642954],"type":"Point"},"properties":{"osm_id":"6718636046","tag":{"amenity":"waste_basket","waste":"trash"}},"type":"Feature"},
	{"geometry":{"coordinates":[-1.163528,50.646772],"type":"Point"},"properties":{"osm_id":"6718636047","tag":{"amenity":"waste_basket","waste":"dog_excrement"}},"type":"Feature"},
	{"geometry":{"coordinates":[-1.168605,50.640472],"type":"Point"},"properties":{"osm_id":"6718636049","tag":{"amenity":"waste_basket","waste":"dog_excrement"}},"type":"Feature"},
	{"geometry":{"coordinates":[-1.171922,50.641721],"type":"Point"},"properties":{"osm_id":"6905732868","tag":{"amenity":"waste_basket","waste":"dog_excrement"}},"type":"Feature"},
	{"geometry":{"coordinates":[-1.178256,50.637196],"type":"Point"},"properties":{"osm_id":"6905732869","tag":{"amenity":"waste_basket","waste":"trash"}},"type":"Feature"},
	{"geometry":{"coordinates":[-1.172183,50.641933],"type":"Point"},"properties":{"osm_id":"6905732872","tag":{"amenity":"waste_basket","waste":"trash"}},"type":"Feature"},
	{"geometry":{"coordinates":[-1.150679,50.656229],"type":"Point"},"properties":{"osm_id":"7149163903","tag":{"amenity":"waste_basket","waste":"trash"}},"type":"Feature"},
	{"geometry":{"coordinates":[-1.159606,50.650233],"type":"Point"},"properties":{"osm_id":"7568728528","tag":{"amenity":"recycling","recycling:clothes":"yes","recycling_type":"container"}},"type":"Feature"},
	{"geometry":{"coordinates":[-1.169408,50.635684],"type":"Point"},"properties":{"osm_id":"7568728531","tag":{"amenity":"waste_basket","waste":"trash"}},"type":"Feature"},
	{"geometry":{"coordinates":[-1.17836,50.630768],"type":"Point"},"properties":{"osm_id":"7845859061","tag":{"amenity":"waste_basket","waste":"trash"}},"type":"Feature"},
	{"geometry":{"coordinates":[-1.178209,50.630079],"type":"Point"},"properties":{"osm_id":"7845859062","tag":{"amenity":"waste_basket","waste":"trash"}},"type":"Feature"},
	{"geometry":{"coordinates":[-1.178077,50.629892],"type":"Point"},"properties":{"osm_id":"7845859063","tag":{"amenity":"waste_basket","waste":"trash"}},"type":"Feature"},
	{"geometry":{"coordinates":[-1.178329,50.631146],"type":"Point"},"properties":{"osm_id":"7845859064","tag":{"amenity":"waste_basket","waste":"trash"}},"type":"Feature"},
	{"geometry":{"coordinates":[-1.15403,50.655247],"type":"Point"},"properties":{"osm_id":"7884192527","tag":{"amenity":"recycling","opening_hours":"24/7","recycling:clothes":"yes","recycling_type":"container"}},"type":"Feature"},
	{"geometry":{"coordinates":[-1.166906,50.643724],"type":"Point"},"properties":{"osm_id":"7884740473","tag":{"amenity":"waste_basket","waste":"dog_excrement"}},"type":"Feature"},
	{"geometry":{"coordinates":[-1.183839,50.666906],"type":"Point"},"properties":{"osm_id":"7928344447","tag":{"amenity":"waste_basket","waste":"dog_excrement"}},"type":"Feature"},
	{"geometry":{"coordinates":[-1.183825,50.666904],"type":"Point"},"properties":{"osm_id":"7928344449","tag":{"amenity":"waste_basket","waste":"trash"}},"type":"Feature"}
]
}
