{
"type": "FeatureCollection",
"features": [
	{"geometry":{"coordinates":[-1.211156,48.354204],"type":"Point"},"properties":{"osm_id":"4303007186","tag":{"amenity":"recycling","level":"0","operator":"Syndicat mixte de collecte et de traitement des ordures m\u00c3\u00a9nag\u00c3\u00a8res du Pays de Foug\u00c3\u00a8res","recycling:glass":"yes","recycling:glass_bottles":"yes","recycling_type":"container","wheelchair":"no"}},"type":"Feature"},
	{"geometry":{"coordinates":[-1.211173,48.355131],"type":"Point"},"properties":{"osm_id":"4551055677","tag":{"amenity":"waste_disposal"}},"type":"Feature"},
	{"geometry":{"coordinates":[-1.187048,48.342953],"type":"Point"},"properties":{"osm_id":"4832673243","tag":{"amenity":"waste_disposal"}},"type":"Feature"},
	{"geometry":{"coordinates":[-1.20357,48.347888],"type":"Point"},"properties":{"osm_id":"4920139163","tag":{"amenity":"recycling","recycling_type":"container"}},"type":"Feature"},
	{"geometry":{"coordinates":[-1.209674,48.353053],"type":"Point"},"properties":{"osm_id":"5460475662","tag":{"amenity":"waste_basket"}},"type":"Feature"},
	{"geometry":{"coordinates":[-1.194429,48.350642],"type":"Point"},"properties":{"osm_id":"5696987968","tag":{"amenity":"waste_basket"}},"type":"Feature"},
	{"geometry":{"coordinates":[-1.195529,48.350255],"type":"Point"},"properties":{"osm_id":"5696988028","tag":{"amenity":"waste_basket"}},"type":"Feature"},
	{"geometry":{"coordinates":[-1.195645,48.350321],"type":"Point"},"properties":{"osm_id":"5696988029","tag":{"amenity":"waste_basket"}},"type":"Feature"},
	{"geometry":{"coordinates":[-1.195626,48.350388],"type":"Point"},"properties":{"osm_id":"5696988030","tag":{"amenity":"waste_basket"}},"type":"Feature"},
	{"geometry":{"coordinates":[-1.195938,48.35013],"type":"Point"},"properties":{"osm_id":"5696988034","tag":{"amenity":"waste_basket"}},"type":"Feature"},
	{"geometry":{"coordinates":[-1.196072,48.350243],"type":"Point"},"properties":{"osm_id":"5696988035","tag":{"amenity":"waste_basket"}},"type":"Feature"},
	{"geometry":{"coordinates":[-1.196114,48.350282],"type":"Point"},"properties":{"osm_id":"5696988038","tag":{"amenity":"waste_basket"}},"type":"Feature"},
	{"geometry":{"coordinates":[-1.195863,48.350238],"type":"Point"},"properties":{"osm_id":"5696988068","tag":{"amenity":"waste_basket"}},"type":"Feature"},
	{"geometry":{"coordinates":[-1.195402,48.350156],"type":"Point"},"properties":{"osm_id":"5696988075","tag":{"amenity":"waste_basket"}},"type":"Feature"},
	{"geometry":{"coordinates":[-1.19499,48.349999],"type":"Point"},"properties":{"osm_id":"5696988084","tag":{"amenity":"waste_basket"}},"type":"Feature"},
	{"geometry":{"coordinates":[-1.194715,48.34968],"type":"Point"},"properties":{"osm_id":"5696988087","tag":{"amenity":"waste_basket"}},"type":"Feature"},
	{"geometry":{"coordinates":[-1.196016,48.345318],"type":"Point"},"properties":{"osm_id":"5704864047","tag":{"amenity":"waste_basket"}},"type":"Feature"},
	{"geometry":{"coordinates":[-1.19617,48.345174],"type":"Point"},"properties":{"osm_id":"5704864048","tag":{"amenity":"waste_basket"}},"type":"Feature"},
	{"geometry":{"coordinates":[-1.19578,48.344417],"type":"Point"},"properties":{"osm_id":"5704864051","tag":{"amenity":"waste_basket"}},"type":"Feature"},
	{"geometry":{"coordinates":[-1.201198,48.354668],"type":"Point"},"properties":{"osm_id":"5704864085","tag":{"amenity":"waste_basket"}},"type":"Feature"},
	{"geometry":{"coordinates":[-1.201083,48.354567],"type":"Point"},"properties":{"osm_id":"5704864086","tag":{"amenity":"waste_basket"}},"type":"Feature"},
	{"geometry":{"coordinates":[-1.190995,48.349603],"type":"Point"},"properties":{"osm_id":"5760561499","tag":{"amenity":"waste_basket"}},"type":"Feature"},
	{"geometry":{"coordinates":[-1.191083,48.349365],"type":"Point"},"properties":{"osm_id":"5760561508","tag":{"amenity":"waste_basket"}},"type":"Feature"},
	{"geometry":{"coordinates":[-1.183939,48.34714],"type":"Point"},"properties":{"osm_id":"5760604147","tag":{"amenity":"waste_basket"}},"type":"Feature"},
	{"geometry":{"coordinates":[-1.195303,48.350445],"type":"Point"},"properties":{"osm_id":"6073722084","tag":{"amenity":"waste_basket"}},"type":"Feature"},
	{"geometry":{"coordinates":[-1.192753,48.348618],"type":"Point"},"properties":{"osm_id":"6073722148","tag":{"amenity":"waste_disposal"}},"type":"Feature"},
	{"geometry":{"coordinates":[-1.193167,48.349085],"type":"Point"},"properties":{"osm_id":"6073722149","tag":{"amenity":"waste_disposal"}},"type":"Feature"},
	{"geometry":{"coordinates":[-1.193575,48.349546],"type":"Point"},"properties":{"osm_id":"6073722150","tag":{"amenity":"waste_disposal"}},"type":"Feature"},
	{"geometry":{"coordinates":[-1.185348,48.349278],"type":"Point"},"properties":{"osm_id":"6468233086","tag":{"amenity":"waste_basket"}},"type":"Feature"},
	{"geometry":{"coordinates":[-1.184961,48.349371],"type":"Point"},"properties":{"osm_id":"6468233185","tag":{"amenity":"recycling","recycling:organic":"yes","recycling_type":"container"}},"type":"Feature"},
	{"geometry":{"coordinates":[-1.19382,48.349868],"type":"Point"},"properties":{"osm_id":"6504836834","tag":{"amenity":"recycling","recycling:glass":"yes","recycling:paper":"yes","recycling_type":"container"}},"type":"Feature"},
	{"geometry":{"coordinates":[-1.201876,48.354601],"type":"Point"},"properties":{"osm_id":"6571050314","tag":{"amenity":"waste_basket"}},"type":"Feature"},
	{"geometry":{"coordinates":[-1.201805,48.354782],"type":"Point"},"properties":{"osm_id":"6571050319","tag":{"amenity":"waste_basket"}},"type":"Feature"},
	{"geometry":{"coordinates":[-1.197224,48.357105],"type":"Point"},"properties":{"osm_id":"7837901536","tag":{"amenity":"recycling","opening_hours":"24/7","operator":"Le Relais","recycling:clothes":"yes","recycling:shoes":"yes","recycling_type":"container"}},"type":"Feature"},
	{"geometry":{"coordinates":[-1.195101,48.354],"type":"Point"},"properties":{"osm_id":"7837998281","tag":{"amenity":"recycling","opening_hours":"24/7","recycling:glass":"yes","recycling:paper":"yes","recycling_type":"container"}},"type":"Feature"},
	{"geometry":{"coordinates":[-1.187466,48.352786],"type":"Point"},"properties":{"osm_id":"7837998282","tag":{"amenity":"recycling","recycling:glass_bottles":"yes","recycling:paper":"yes","recycling_type":"container"}},"type":"Feature"},
	{"geometry":{"coordinates":[-1.18047,48.346752],"type":"Point"},"properties":{"osm_id":"7838031189","tag":{"amenity":"recycling","recycling:batteries":"yes","recycling:small_appliances":"yes","recycling_type":"container"}},"type":"Feature"}
]
}
