{
"type": "FeatureCollection",
"lastupdate": "2020-08-06T00:00:00Z",
"features": [
	{"geometry":{"coordinates":[-1.213478,48.131625],"type":"Point"},"properties":{"osm_id":"1792851622","tag":{"amenity":"recycling","recycling:glass":"yes"}},"type":"Feature"},
	{"geometry":{"coordinates":[-1.209864,48.119021],"type":"Point"},"properties":{"osm_id":"1805890278","tag":{"amenity":"waste_basket"}},"type":"Feature"},
	{"geometry":{"coordinates":[-1.212035,48.123394],"type":"Point"},"properties":{"osm_id":"1822919371","tag":{"amenity":"recycling","recycling_type":"container","underground_container":"yes"}},"type":"Feature"},
	{"geometry":{"coordinates":[-1.21284,48.124886],"type":"Point"},"properties":{"osm_id":"1822919372","tag":{"amenity":"recycling","recycling_type":"container","underground_container":"yes"}},"type":"Feature"},
	{"geometry":{"coordinates":[-1.213592,48.12287],"type":"Point"},"properties":{"osm_id":"1822919374","tag":{"amenity":"recycling","recycling_type":"container","underground_container":"yes"}},"type":"Feature"},
	{"geometry":{"coordinates":[-1.209375,48.124542],"type":"Point"},"properties":{"osm_id":"1822919377","tag":{"amenity":"recycling","recycling_type":"container","underground_container":"yes"}},"type":"Feature"},
	{"geometry":{"coordinates":[-1.215106,48.123637],"type":"Point"},"properties":{"osm_id":"1823986603","tag":{"amenity":"recycling","recycling_type":"container","underground_container":"yes"}},"type":"Feature"},
	{"geometry":{"coordinates":[-1.210313,48.125151],"type":"Point"},"properties":{"osm_id":"1949048675","tag":{"amenity":"recycling","recycling_type":"container","underground_container":"yes"}},"type":"Feature"},
	{"geometry":{"coordinates":[-1.216797,48.113543],"type":"Point"},"properties":{"osm_id":"2018287451","tag":{"amenity":"recycling"}},"type":"Feature"},
	{"geometry":{"coordinates":[-1.214876,48.113292],"type":"Point"},"properties":{"osm_id":"2018320407","tag":{"amenity":"recycling","location":"overground","recycling_type":"container"}},"type":"Feature"},
	{"geometry":{"coordinates":[-1.214531,48.113601],"type":"Point"},"properties":{"osm_id":"2024932782","tag":{"amenity":"recycling","location":"overground","recycling_type":"container"}},"type":"Feature"},
	{"geometry":{"coordinates":[-1.21393,48.112366],"type":"Point"},"properties":{"osm_id":"2024932793","tag":{"amenity":"recycling","location":"overground","recycling_type":"container"}},"type":"Feature"},
	{"geometry":{"coordinates":[-1.21635,48.112609],"type":"Point"},"properties":{"osm_id":"2024932796","tag":{"amenity":"recycling"}},"type":"Feature"},
	{"geometry":{"coordinates":[-1.217224,48.112516],"type":"Point"},"properties":{"osm_id":"2024932797","tag":{"amenity":"recycling"}},"type":"Feature"},
	{"geometry":{"coordinates":[-1.213912,48.122405],"type":"Point"},"properties":{"osm_id":"4997260650","tag":{"amenity":"waste_basket"}},"type":"Feature"},
	{"geometry":{"coordinates":[-1.212437,48.122429],"type":"Point"},"properties":{"osm_id":"4997260659","tag":{"amenity":"waste_basket"}},"type":"Feature"},
	{"geometry":{"coordinates":[-1.212405,48.122556],"type":"Point"},"properties":{"osm_id":"4997260666","tag":{"amenity":"waste_basket"}},"type":"Feature"},
	{"geometry":{"coordinates":[-1.213164,48.122629],"type":"Point"},"properties":{"osm_id":"4997260698","tag":{"amenity":"waste_basket"}},"type":"Feature"},
	{"geometry":{"coordinates":[-1.211735,48.122642],"type":"Point"},"properties":{"osm_id":"4997260705","tag":{"amenity":"waste_basket"}},"type":"Feature"},
	{"geometry":{"coordinates":[-1.21162,48.122645],"type":"Point"},"properties":{"osm_id":"4997260707","tag":{"amenity":"waste_basket"}},"type":"Feature"},
	{"geometry":{"coordinates":[-1.211551,48.122662],"type":"Point"},"properties":{"osm_id":"4997260716","tag":{"amenity":"waste_basket"}},"type":"Feature"},
	{"geometry":{"coordinates":[-1.211893,48.122438],"type":"Point"},"properties":{"osm_id":"4997488178","tag":{"amenity":"waste_basket"}},"type":"Feature"},
	{"geometry":{"coordinates":[-1.211478,48.122461],"type":"Point"},"properties":{"osm_id":"4997488192","tag":{"amenity":"waste_basket"}},"type":"Feature"},
	{"geometry":{"coordinates":[-1.21343,48.122608],"type":"Point"},"properties":{"osm_id":"4997565785","tag":{"amenity":"waste_basket"}},"type":"Feature"},
	{"geometry":{"coordinates":[-1.211355,48.122809],"type":"Point"},"properties":{"osm_id":"5005018755","tag":{"amenity":"waste_basket"}},"type":"Feature"},
	{"geometry":{"coordinates":[-1.204351,48.108039],"type":"Point"},"properties":{"osm_id":"5184016158","tag":{"amenity":"recycling","recycling:glass":"yes","recycling:glass_bottles":"yes","recycling:paper":"yes","recycling_type":"container"}},"type":"Feature"},
	{"geometry":{"coordinates":[-1.219038,48.110648],"type":"Point"},"properties":{"osm_id":"5188809327","tag":{"amenity":"recycling","recycling:glass":"yes","recycling:glass_bottles":"yes","recycling:paper":"yes","recycling_type":"container"}},"type":"Feature"},
	{"geometry":{"coordinates":[-1.208725,48.11106],"type":"Point"},"properties":{"osm_id":"5188809334","tag":{"amenity":"recycling","recycling:glass":"yes","recycling:glass_bottles":"yes","recycling:paper":"yes","recycling_type":"container"}},"type":"Feature"},
	{"geometry":{"coordinates":[-1.198154,48.109198],"type":"Point"},"properties":{"osm_id":"5188809344","tag":{"amenity":"recycling","recycling:glass":"yes","recycling:glass_bottles":"yes","recycling:paper":"yes","recycling_type":"container"}},"type":"Feature"},
	{"geometry":{"coordinates":[-1.206577,48.119648],"type":"Point"},"properties":{"osm_id":"5741895237","tag":{"access":"yes","amenity":"recycling","fee":"no","operator":"Syndicat mixte intercommunal pour la collecte et le traitement des ordures m\u00e9nag\u00e8res Sud-Est 35","recycling:glass":"yes","recycling_type":"container","wheelchair":"yes"}},"type":"Feature"},
	{"geometry":{"coordinates":[-1.206579,48.119619],"type":"Point"},"properties":{"osm_id":"5741895238","tag":{"access":"yes","amenity":"recycling","fee":"no","operator":"Syndicat mixte intercommunal pour la collecte et le traitement des ordures m\u00e9nag\u00e8res Sud-Est 35","recycling:glass":"yes","recycling_type":"container","wheelchair":"yes"}},"type":"Feature"},
	{"geometry":{"coordinates":[-1.205348,48.11787],"type":"Point"},"properties":{"osm_id":"7612270763","tag":{"amenity":"waste_basket","colour":"verte fonc\u00e9"}},"type":"Feature"}
]
}
