{
"type": "FeatureCollection",
"lastupdate": "2020-08-03T00:00:00Z",
"features": [
	{"geometry":{"coordinates":[-1.193406,48.059985],"type":"Point"},"properties":{"osm_id":"1128311246","tag":{"amenity":"waste_basket"}},"type":"Feature"},
	{"geometry":{"coordinates":[-1.192003,48.102726],"type":"Point"},"properties":{"osm_id":"1889466595","tag":{"amenity":"recycling","recycling:glass":"yes","recycling_type":"container","underground_container":"yes"}},"type":"Feature"},
	{"geometry":{"coordinates":[-1.193867,48.105265],"type":"Point"},"properties":{"osm_id":"1889466596","tag":{"amenity":"recycling","recycling:glass":"yes","recycling_type":"container","underground_container":"yes"}},"type":"Feature"},
	{"geometry":{"coordinates":[-1.153139,48.057204],"type":"Point"},"properties":{"osm_id":"4840306817","tag":{"amenity":"waste_basket","wheelchair":"yes"}},"type":"Feature"},
	{"geometry":{"coordinates":[-1.213297,48.106962],"type":"Point"},"properties":{"osm_id":"5188809325","tag":{"amenity":"recycling","recycling:glass":"yes","recycling:glass_bottles":"yes","recycling:paper":"yes","recycling_type":"container"}},"type":"Feature"},
	{"geometry":{"coordinates":[-1.195411,48.056977],"type":"Point"},"properties":{"osm_id":"6235411901","tag":{"amenity":"waste_basket"}},"type":"Feature"},
	{"geometry":{"coordinates":[-1.193587,48.10702],"type":"Point"},"properties":{"osm_id":"7239633635","tag":{"amenity":"waste_basket"}},"type":"Feature"},
	{"geometry":{"coordinates":[-1.192986,48.10737],"type":"Point"},"properties":{"osm_id":"7239633636","tag":{"amenity":"waste_basket"}},"type":"Feature"},
	{"geometry":{"coordinates":[-1.159096,48.058719],"type":"Point"},"properties":{"osm_id":"7250289649","tag":{"amenity":"waste_basket"}},"type":"Feature"}
]
}
