{
"type": "FeatureCollection",
"features": [
	{"geometry":{"coordinates":[-1.188408,46.19552],"type":"Point"},"properties":{"name":"Bac recyclage","osm_id":"3982171305","tag":{"amenity":"recycling","recycling:glass":"yes","recycling:glass_bottles":"yes","recycling_type":"container"}},"type":"Feature"},
	{"geometry":{"coordinates":[-1.204923,46.202706],"type":"Point"},"properties":{"osm_id":"4319555418","tag":{"amenity":"recycling","recycling:glass_bottles":"yes","recycling_type":"container"}},"type":"Feature"},
	{"geometry":{"coordinates":[-1.160353,46.210675],"type":"Point"},"properties":{"osm_id":"4329043609","tag":{"amenity":"recycling","recycling:glass":"yes","recycling_type":"container"}},"type":"Feature"},
	{"geometry":{"coordinates":[-1.201006,46.201241],"type":"Point"},"properties":{"osm_id":"5062365482","tag":{"amenity":"recycling","recycling:glass_bottles":"yes","recycling_type":"container"}},"type":"Feature"},
	{"geometry":{"coordinates":[-1.164864,46.208592],"type":"Point"},"properties":{"osm_id":"6700441548","tag":{"amenity":"waste_basket"}},"type":"Feature"},
	{"geometry":{"coordinates":[-1.163448,46.209168],"type":"Point"},"properties":{"osm_id":"6700485442","tag":{"amenity":"waste_basket"}},"type":"Feature"},
	{"geometry":{"coordinates":[-1.164103,46.209054],"type":"Point"},"properties":{"osm_id":"6700487760","tag":{"amenity":"waste_basket"}},"type":"Feature"},
	{"geometry":{"coordinates":[-1.163051,46.208467],"type":"Point"},"properties":{"osm_id":"6700506676","tag":{"amenity":"waste_basket"}},"type":"Feature"},
	{"geometry":{"coordinates":[-1.163468,46.208424],"type":"Point"},"properties":{"osm_id":"6700508619","tag":{"amenity":"waste_basket"}},"type":"Feature"},
	{"geometry":{"coordinates":[-1.162933,46.208721],"type":"Point"},"properties":{"osm_id":"6700510518","tag":{"amenity":"waste_basket"}},"type":"Feature"},
	{"geometry":{"coordinates":[-1.16138,46.209421],"type":"Point"},"properties":{"osm_id":"6700519015","tag":{"amenity":"waste_basket"}},"type":"Feature"},
	{"geometry":{"coordinates":[-1.145144,46.232268],"type":"Point"},"properties":{"osm_id":"6819317450","tag":{"amenity":"waste_basket","waste":"trash"}},"type":"Feature"},
	{"geometry":{"coordinates":[-1.144861,46.232181],"type":"Point"},"properties":{"osm_id":"6819317455","tag":{"amenity":"recycling","recycling:glass":"yes","recycling:plastic_bottles":"yes","recycling_type":"container"}},"type":"Feature"}
]
}
