{
"type": "FeatureCollection",
"features": [
	{"geometry":{"coordinates":[-1.184132,45.692598],"type":"Point"},"properties":{"osm_id":"1280778754","tag":{"amenity":"recycling","recycling:glass_bottles":"yes","recycling_type":"container"}},"type":"Feature"},
	{"geometry":{"coordinates":[-1.146609,45.673998],"type":"Point"},"properties":{"osm_id":"2327252877","tag":{"amenity":"waste_basket"}},"type":"Feature"},
	{"geometry":{"coordinates":[-1.146986,45.674486],"type":"Point"},"properties":{"osm_id":"2327252878","tag":{"amenity":"waste_basket"}},"type":"Feature"},
	{"geometry":{"coordinates":[-1.148597,45.675709],"type":"Point"},"properties":{"osm_id":"2327252879","tag":{"amenity":"waste_basket"}},"type":"Feature"},
	{"geometry":{"coordinates":[-1.164939,45.684661],"type":"Point"},"properties":{"osm_id":"2327252897","tag":{"amenity":"waste_basket"}},"type":"Feature"},
	{"geometry":{"coordinates":[-1.165695,45.684903],"type":"Point"},"properties":{"osm_id":"2327252900","tag":{"amenity":"waste_basket"}},"type":"Feature"},
	{"geometry":{"coordinates":[-1.165428,45.684989],"type":"Point"},"properties":{"osm_id":"2327252903","tag":{"amenity":"waste_basket"}},"type":"Feature"},
	{"geometry":{"coordinates":[-1.165847,45.685217],"type":"Point"},"properties":{"osm_id":"2327252904","tag":{"amenity":"waste_basket"}},"type":"Feature"},
	{"geometry":{"coordinates":[-1.16915,45.687305],"type":"Point"},"properties":{"osm_id":"2327252925","tag":{"amenity":"recycling","recycling:glass_bottles":"yes","recycling_type":"container"}},"type":"Feature"},
	{"geometry":{"coordinates":[-1.180682,45.69035],"type":"Point"},"properties":{"osm_id":"3054647934","tag":{"amenity":"recycling","recycling:glass_bottles":"yes","recycling_type":"container"}},"type":"Feature"},
	{"geometry":{"coordinates":[-1.181063,45.688001],"type":"Point"},"properties":{"osm_id":"3058194433","tag":{"amenity":"recycling","recycling:glass_bottles":"yes","recycling_type":"container"}},"type":"Feature"},
	{"geometry":{"coordinates":[-1.147398,45.674879],"type":"Point"},"properties":{"osm_id":"3067713837","tag":{"amenity":"waste_basket"}},"type":"Feature"},
	{"geometry":{"coordinates":[-1.149134,45.676038],"type":"Point"},"properties":{"osm_id":"3067713839","tag":{"amenity":"waste_basket"}},"type":"Feature"},
	{"geometry":{"coordinates":[-1.151004,45.677297],"type":"Point"},"properties":{"osm_id":"3067713844","tag":{"amenity":"waste_basket"}},"type":"Feature"},
	{"geometry":{"coordinates":[-1.153683,45.679086],"type":"Point"},"properties":{"osm_id":"3067713845","tag":{"amenity":"waste_basket"}},"type":"Feature"},
	{"geometry":{"coordinates":[-1.178315,45.693285],"type":"Point"},"properties":{"osm_id":"3096555819","tag":{"amenity":"recycling","recycling:glass_bottles":"yes","recycling_type":"container"}},"type":"Feature"},
	{"geometry":{"coordinates":[-1.189143,45.691358],"type":"Point"},"properties":{"name":"Aires Service Station","osm_id":"3414978084","tag":{"amenity":"waste_disposal"}},"type":"Feature"},
	{"geometry":{"coordinates":[-1.173632,45.693956],"type":"Point"},"properties":{"osm_id":"3791578824","tag":{"amenity":"recycling","recycling:glass_bottles":"yes","recycling_type":"container"}},"type":"Feature"},
	{"geometry":{"coordinates":[-1.161719,45.675946],"type":"Point"},"properties":{"osm_id":"3865162978","tag":{"amenity":"waste_basket"}},"type":"Feature"},
	{"geometry":{"coordinates":[-1.17965,45.689405],"type":"Point"},"properties":{"osm_id":"3865162992","tag":{"amenity":"recycling","recycling:glass_bottles":"yes","recycling_type":"container"}},"type":"Feature"},
	{"geometry":{"coordinates":[-1.189471,45.690892],"type":"Point"},"properties":{"osm_id":"3865487327","tag":{"amenity":"recycling","recycling:glass_bottles":"yes","recycling_type":"container"}},"type":"Feature"},
	{"geometry":{"coordinates":[-1.22886,45.697212],"type":"Point"},"properties":{"osm_id":"3865487336","tag":{"amenity":"recycling","recycling:cans":"yes","recycling:glass_bottles":"yes","recycling:paper":"yes","recycling:plastic":"yes","recycling_type":"container"}},"type":"Feature"},
	{"geometry":{"coordinates":[-1.182953,45.692256],"type":"Point"},"properties":{"osm_id":"4747116378","tag":{"amenity":"recycling","recycling:glass_bottles":"yes","recycling_type":"container"}},"type":"Feature"},
	{"geometry":{"coordinates":[-1.199071,45.695766],"type":"Point"},"properties":{"osm_id":"5744083004","tag":{"amenity":"recycling","recycling:glass":"yes","recycling_type":"container"}},"type":"Feature"},
	{"geometry":{"coordinates":[-1.199149,45.695778],"type":"Point"},"properties":{"osm_id":"5744083005","tag":{"amenity":"waste_disposal"}},"type":"Feature"},
	{"geometry":{"coordinates":[-1.20159,45.696702],"type":"Point"},"properties":{"osm_id":"5744083006","tag":{"amenity":"waste_disposal"}},"type":"Feature"},
	{"geometry":{"coordinates":[-1.200913,45.697808],"type":"Point"},"properties":{"osm_id":"5744083007","tag":{"amenity":"waste_disposal"}},"type":"Feature"},
	{"geometry":{"coordinates":[-1.201763,45.697506],"type":"Point"},"properties":{"osm_id":"5744083008","tag":{"amenity":"waste_disposal"}},"type":"Feature"},
	{"geometry":{"coordinates":[-1.201885,45.695946],"type":"Point"},"properties":{"osm_id":"5744083009","tag":{"amenity":"waste_disposal"}},"type":"Feature"},
	{"geometry":{"coordinates":[-1.201914,45.695902],"type":"Point"},"properties":{"osm_id":"5744083010","tag":{"amenity":"recycling","recycling:glass":"yes","recycling_type":"container"}},"type":"Feature"},
	{"geometry":{"coordinates":[-1.199887,45.695245],"type":"Point"},"properties":{"osm_id":"5744083012","tag":{"amenity":"recycling","recycling:glass":"yes","recycling_type":"container"}},"type":"Feature"},
	{"geometry":{"coordinates":[-1.19992,45.695206],"type":"Point"},"properties":{"osm_id":"5744083013","tag":{"amenity":"waste_disposal"}},"type":"Feature"},
	{"geometry":{"coordinates":[-1.200826,45.69784],"type":"Point"},"properties":{"osm_id":"5744083657","tag":{"amenity":"recycling","recycling:glass":"yes","recycling_type":"container"}},"type":"Feature"},
	{"geometry":{"coordinates":[-1.201677,45.697494],"type":"Point"},"properties":{"osm_id":"5744083661","tag":{"amenity":"recycling","recycling:glass":"yes","recycling_type":"container"}},"type":"Feature"},
	{"geometry":{"coordinates":[-1.201583,45.696791],"type":"Point"},"properties":{"osm_id":"5744083662","tag":{"amenity":"recycling","recycling:glass":"yes","recycling_type":"container"}},"type":"Feature"},
	{"geometry":{"coordinates":[-1.197891,45.696637],"type":"Point"},"properties":{"osm_id":"5744102721","tag":{"amenity":"recycling","recycling:glass":"yes","recycling_type":"container"}},"type":"Feature"},
	{"geometry":{"coordinates":[-1.197957,45.696608],"type":"Point"},"properties":{"osm_id":"5744102722","tag":{"amenity":"waste_disposal"}},"type":"Feature"},
	{"geometry":{"coordinates":[-1.198692,45.697043],"type":"Point"},"properties":{"osm_id":"5744102723","tag":{"amenity":"waste_disposal"}},"type":"Feature"},
	{"geometry":{"coordinates":[-1.19871,45.696983],"type":"Point"},"properties":{"osm_id":"5744102724","tag":{"amenity":"recycling","recycling:glass":"yes","recycling_type":"container"}},"type":"Feature"},
	{"geometry":{"coordinates":[-1.199097,45.697853],"type":"Point"},"properties":{"osm_id":"5744102729","tag":{"amenity":"waste_disposal"}},"type":"Feature"},
	{"geometry":{"coordinates":[-1.19902,45.697851],"type":"Point"},"properties":{"osm_id":"5744102730","tag":{"amenity":"recycling","recycling:glass":"yes","recycling_type":"container"}},"type":"Feature"},
	{"geometry":{"coordinates":[-1.179589,45.689492],"type":"Point"},"properties":{"osm_id":"6566046981","tag":{"amenity":"recycling","recycling:glass":"yes","recycling_type":"container"}},"type":"Feature"},
	{"geometry":{"coordinates":[-1.16333,45.675656],"type":"Point"},"properties":{"osm_id":"6931282425","tag":{"amenity":"waste_basket"}},"type":"Feature"},
	{"geometry":{"coordinates":[-1.183335,45.685135],"type":"Point"},"properties":{"osm_id":"6931519844","tag":{"amenity":"waste_basket"}},"type":"Feature"},
	{"geometry":{"coordinates":[-1.183192,45.685098],"type":"Point"},"properties":{"osm_id":"6931519845","tag":{"amenity":"waste_basket"}},"type":"Feature"},
	{"geometry":{"coordinates":[-1.189959,45.689981],"type":"Point"},"properties":{"osm_id":"6931623839","tag":{"amenity":"waste_basket"}},"type":"Feature"},
	{"geometry":{"coordinates":[-1.214425,45.697713],"type":"Point"},"properties":{"osm_id":"6931779143","tag":{"amenity":"waste_basket"}},"type":"Feature"},
	{"geometry":{"coordinates":[-1.178317,45.681301],"type":"Point"},"properties":{"osm_id":"7889286002","tag":{"amenity":"waste_basket"}},"type":"Feature"},
	{"geometry":{"coordinates":[-1.179635,45.689681],"type":"Point"},"properties":{"osm_id":"7889635457","tag":{"amenity":"waste_basket"}},"type":"Feature"},
	{"geometry":{"coordinates":[-1.176749,45.695083],"type":"Point"},"properties":{"osm_id":"7889707742","tag":{"amenity":"recycling","recycling:glass_bottles":"yes","recycling_type":"container"}},"type":"Feature"}
]
}
