{
"type": "FeatureCollection",
"features": [
	{"geometry":{"coordinates":[-1.150175,45.362337],"type":"Point"},"properties":{"osm_id":"1835230583","tag":{"amenity":"waste_basket"}},"type":"Feature"},
	{"geometry":{"coordinates":[-1.15234,45.357764],"type":"Point"},"properties":{"osm_id":"1835230601","tag":{"amenity":"recycling","recycling:glass_bottles":"yes","recycling:plastic":"yes","recycling_type":"container","ref:FR:SMICOTOM":"fixme"}},"type":"Feature"},
	{"geometry":{"coordinates":[-1.150424,45.362403],"type":"Point"},"properties":{"osm_id":"1837045622","tag":{"amenity":"recycling","recycling:cans":"yes","recycling:glass_bottles":"yes","recycling:plastic":"yes","recycling:plastic_bottles":"yes","recycling:plastic_packaging":"yes","recycling_type":"container","ref:FR:SMICOTOM":"fixme"}},"type":"Feature"},
	{"geometry":{"coordinates":[-1.150427,45.360087],"type":"Point"},"properties":{"osm_id":"1839246649","tag":{"amenity":"waste_basket"}},"type":"Feature"},
	{"geometry":{"coordinates":[-1.150084,45.367269],"type":"Point"},"properties":{"osm_id":"1840617547","tag":{"amenity":"waste_basket"}},"type":"Feature"},
	{"geometry":{"coordinates":[-1.151945,45.368051],"type":"Point"},"properties":{"osm_id":"1840617552","tag":{"amenity":"waste_basket"}},"type":"Feature"},
	{"geometry":{"coordinates":[-1.150939,45.359333],"type":"Point"},"properties":{"osm_id":"1840617629","tag":{"amenity":"waste_basket"}},"type":"Feature"},
	{"geometry":{"coordinates":[-1.150363,45.360632],"type":"Point"},"properties":{"osm_id":"1841713535","tag":{"amenity":"waste_basket"}},"type":"Feature"},
	{"geometry":{"coordinates":[-1.15032,45.360632],"type":"Point"},"properties":{"osm_id":"1841713539","tag":{"amenity":"recycling","recycling:cans":"yes","recycling:plastic":"yes","recycling:plastic_bottles":"yes","recycling:plastic_packaging":"yes","recycling_type":"container"}},"type":"Feature"},
	{"geometry":{"coordinates":[-1.150605,45.359467],"type":"Point"},"properties":{"osm_id":"1841713565","tag":{"amenity":"recycling","recycling:glass_bottles":"yes","recycling_type":"container","ref:FR:SMICOTOM":"fixme"}},"type":"Feature"},
	{"geometry":{"coordinates":[-1.150288,45.361584],"type":"Point"},"properties":{"osm_id":"1841713573","tag":{"amenity":"waste_basket"}},"type":"Feature"},
	{"geometry":{"coordinates":[-1.150288,45.361616],"type":"Point"},"properties":{"osm_id":"1841713575","tag":{"amenity":"recycling","recycling:cans":"yes","recycling:plastic_bottles":"yes","recycling:plastic_packaging":"yes","recycling_type":"container","ref:FR:SMICOTOM":"fixme"}},"type":"Feature"},
	{"geometry":{"coordinates":[-1.147069,45.363398],"type":"Point"},"properties":{"osm_id":"1844604721","tag":{"amenity":"waste_basket"}},"type":"Feature"},
	{"geometry":{"coordinates":[-1.152409,45.356384],"type":"Point"},"properties":{"osm_id":"1846173555","tag":{"amenity":"recycling","recycling:cans":"yes","recycling:plastic":"yes","recycling:plastic_bottles":"yes","recycling:plastic_packaging":"yes","recycling_type":"container","ref:FR:SMICOTOM":"fixme"}},"type":"Feature"},
	{"geometry":{"coordinates":[-1.152412,45.356421],"type":"Point"},"properties":{"osm_id":"1846173558","tag":{"amenity":"waste_basket"}},"type":"Feature"},
	{"geometry":{"coordinates":[-1.146211,45.364301],"type":"Point"},"properties":{"osm_id":"1846173571","tag":{"amenity":"waste_basket"}},"type":"Feature"},
	{"geometry":{"coordinates":[-1.146211,45.364341],"type":"Point"},"properties":{"osm_id":"1846173572","tag":{"amenity":"recycling","recycling:cans":"yes","recycling:plastic":"yes","recycling:plastic_bottles":"yes","recycling:plastic_packaging":"yes","recycling_type":"container","ref:FR:SMICOTOM":"fixme"}},"type":"Feature"},
	{"geometry":{"coordinates":[-1.152559,45.36057],"type":"Point"},"properties":{"osm_id":"1849061802","tag":{"amenity":"waste_basket"}},"type":"Feature"},
	{"geometry":{"coordinates":[-1.152608,45.360554],"type":"Point"},"properties":{"osm_id":"1849061803","tag":{"amenity":"recycling","recycling:cans":"yes","recycling:plastic":"yes","recycling:plastic_bottles":"yes","recycling:plastic_packaging":"yes","recycling_type":"container","ref:FR:SMICOTOM":"fixme"}},"type":"Feature"},
	{"geometry":{"coordinates":[-1.15036,45.362398],"type":"Point"},"properties":{"osm_id":"1849061809","tag":{"amenity":"waste_basket"}},"type":"Feature"},
	{"geometry":{"coordinates":[-1.147128,45.3634],"type":"Point"},"properties":{"osm_id":"1850538440","tag":{"amenity":"recycling","recycling:cans":"yes","recycling:plastic":"yes","recycling:plastic_bottles":"yes","recycling:plastic_packaging":"yes","recycling_type":"container","ref:FR:SMICOTOM":"fixme"}},"type":"Feature"},
	{"geometry":{"coordinates":[-1.147951,45.363447],"type":"Point"},"properties":{"osm_id":"1850538528","tag":{"amenity":"waste_basket"}},"type":"Feature"},
	{"geometry":{"coordinates":[-1.14801,45.363449],"type":"Point"},"properties":{"osm_id":"1850538610","tag":{"amenity":"recycling","recycling:cans":"yes","recycling:plastic":"yes","recycling:plastic_bottles":"yes","recycling:plastic_packaging":"yes","recycling_type":"container","ref:FR:SMICOTOM":"fixme"}},"type":"Feature"},
	{"geometry":{"coordinates":[-1.147173,45.348688],"type":"Point"},"properties":{"osm_id":"2329343053","tag":{"amenity":"recycling","operator":"SMICOTOM","recycling:glass_bottles":"yes","recycling_type":"container","ref:FR:SMICOTOM":"3127;3128;3129"}},"type":"Feature"},
	{"geometry":{"coordinates":[-1.143023,45.375052],"type":"Point"},"properties":{"osm_id":"4149645295","tag":{"amenity":"recycling","operator":"SMICOTOM","recycling:glass_bottles":"yes","recycling_type":"container","ref:FR:SMICOTOM":"3122"}},"type":"Feature"},
	{"geometry":{"coordinates":[-1.1578,45.376389],"type":"Point"},"properties":{"osm_id":"4149645297","tag":{"amenity":"recycling","operator":"SMICOTOM","recycling:glass_bottles":"yes","recycling_type":"container","ref:FR:SMICOTOM":"3117"}},"type":"Feature"},
	{"geometry":{"coordinates":[-1.152154,45.377605],"type":"Point"},"properties":{"osm_id":"4149645298","tag":{"amenity":"recycling","operator":"SMICOTOM","recycling:glass_bottles":"yes","recycling_type":"container","ref:FR:SMICOTOM":"MARCHE"}},"type":"Feature"},
	{"geometry":{"coordinates":[-1.156641,45.380263],"type":"Point"},"properties":{"osm_id":"4149645300","tag":{"amenity":"recycling","operator":"SMICOTOM","recycling:glass_bottles":"yes","recycling_type":"container","ref:FR:SMICOTOM":"3115"}},"type":"Feature"},
	{"geometry":{"coordinates":[-1.157081,45.381292],"type":"Point"},"properties":{"osm_id":"4149645301","tag":{"amenity":"recycling","operator":"SMICOTOM","recycling:glass_bottles":"yes","recycling_type":"container","ref:FR:SMICOTOM":"3116"}},"type":"Feature"},
	{"geometry":{"coordinates":[-1.149463,45.384588],"type":"Point"},"properties":{"osm_id":"4149645302","tag":{"amenity":"recycling","operator":"SMICOTOM","recycling:glass_bottles":"yes","recycling_type":"container","ref:FR:SMICOTOM":"3113"}},"type":"Feature"},
	{"geometry":{"coordinates":[-1.143874,45.387363],"type":"Point"},"properties":{"osm_id":"4149645304","tag":{"amenity":"recycling","operator":"SMICOTOM","recycling:glass_bottles":"yes","recycling_type":"container","ref:FR:SMICOTOM":"3114"}},"type":"Feature"},
	{"geometry":{"coordinates":[-1.144646,45.370172],"type":"Point"},"properties":{"osm_id":"4149659187","tag":{"amenity":"recycling","operator":"SMICOTOM","recycling:glass_bottles":"yes","recycling_type":"container","ref:FR:SMICOTOM":"3124;3125;3126"}},"type":"Feature"},
	{"geometry":{"coordinates":[-1.145888,45.363084],"type":"Point"},"properties":{"osm_id":"4310533889","tag":{"amenity":"recycling","operator":"Le Relais","recycling:clothes":"yes","recycling_type":"container"}},"type":"Feature"},
	{"geometry":{"coordinates":[-1.149279,45.360604],"type":"Point"},"properties":{"osm_id":"5022726578","tag":{"amenity":"waste_basket"}},"type":"Feature"},
	{"geometry":{"coordinates":[-1.149233,45.360603],"type":"Point"},"properties":{"osm_id":"5022726579","tag":{"amenity":"recycling","recycling:cans":"yes","recycling:plastic":"yes","recycling:plastic_bottles":"yes","recycling:plastic_packaging":"yes","recycling_type":"container"}},"type":"Feature"},
	{"geometry":{"coordinates":[-1.159278,45.377982],"type":"Point"},"properties":{"osm_id":"6927517545","tag":{"amenity":"waste_basket"}},"type":"Feature"}
]
}
