{
"type": "FeatureCollection",
"features": [
	{"geometry":{"coordinates":[-1.179421,44.655546],"type":"Point"},"properties":{"osm_id":"655374905","tag":{"amenity":"recycling","recycling:clothes":"yes","recycling:glass":"yes","recycling:paper":"yes"}},"type":"Feature"},
	{"geometry":{"coordinates":[-1.172466,44.663415],"type":"Point"},"properties":{"osm_id":"3878594336","tag":{"amenity":"recycling","recycling:glass_bottles":"yes","recycling_type":"container"}},"type":"Feature"},
	{"geometry":{"coordinates":[-1.173674,44.663809],"type":"Point"},"properties":{"osm_id":"3878594350","tag":{"amenity":"waste_basket"}},"type":"Feature"},
	{"geometry":{"coordinates":[-1.148259,44.658129],"type":"Point"},"properties":{"osm_id":"3883794270","tag":{"amenity":"recycling","recycling:oil":"yes","recycling_type":"container"}},"type":"Feature"},
	{"geometry":{"coordinates":[-1.153149,44.659883],"type":"Point"},"properties":{"osm_id":"3883794277","tag":{"amenity":"recycling","recycling:glass_bottles":"yes","recycling_type":"container"}},"type":"Feature"},
	{"geometry":{"coordinates":[-1.152547,44.660187],"type":"Point"},"properties":{"osm_id":"3883794284","tag":{"amenity":"recycling","recycling:oil":"yes","recycling_type":"container"}},"type":"Feature"},
	{"geometry":{"coordinates":[-1.153117,44.660576],"type":"Point"},"properties":{"osm_id":"5128734300","tag":{"amenity":"waste_basket"}},"type":"Feature"},
	{"geometry":{"coordinates":[-1.154454,44.661512],"type":"Point"},"properties":{"osm_id":"5128734319","tag":{"amenity":"waste_basket"}},"type":"Feature"},
	{"geometry":{"coordinates":[-1.154631,44.661551],"type":"Point"},"properties":{"osm_id":"5128734320","tag":{"amenity":"waste_basket"}},"type":"Feature"},
	{"geometry":{"coordinates":[-1.154658,44.661466],"type":"Point"},"properties":{"osm_id":"5128749923","tag":{"amenity":"waste_basket"}},"type":"Feature"},
	{"geometry":{"coordinates":[-1.168611,44.663563],"type":"Point"},"properties":{"osm_id":"5128749928","tag":{"amenity":"waste_basket"}},"type":"Feature"},
	{"geometry":{"coordinates":[-1.168733,44.663533],"type":"Point"},"properties":{"osm_id":"5128749929","tag":{"amenity":"waste_basket"}},"type":"Feature"},
	{"geometry":{"coordinates":[-1.168731,44.663555],"type":"Point"},"properties":{"osm_id":"5128749930","tag":{"amenity":"waste_basket"}},"type":"Feature"},
	{"geometry":{"coordinates":[-1.168895,44.66339],"type":"Point"},"properties":{"osm_id":"5128749931","tag":{"amenity":"waste_basket"}},"type":"Feature"},
	{"geometry":{"coordinates":[-1.169819,44.663238],"type":"Point"},"properties":{"osm_id":"5128749935","tag":{"amenity":"waste_basket"}},"type":"Feature"},
	{"geometry":{"coordinates":[-1.169512,44.66321],"type":"Point"},"properties":{"osm_id":"5128749936","tag":{"amenity":"waste_basket"}},"type":"Feature"},
	{"geometry":{"coordinates":[-1.169206,44.663196],"type":"Point"},"properties":{"osm_id":"5128749940","tag":{"amenity":"waste_basket"}},"type":"Feature"},
	{"geometry":{"coordinates":[-1.168859,44.663222],"type":"Point"},"properties":{"osm_id":"5128749945","tag":{"amenity":"waste_basket"}},"type":"Feature"},
	{"geometry":{"coordinates":[-1.168039,44.663267],"type":"Point"},"properties":{"osm_id":"5128749947","tag":{"amenity":"waste_basket"}},"type":"Feature"},
	{"geometry":{"coordinates":[-1.168343,44.663256],"type":"Point"},"properties":{"osm_id":"5128749948","tag":{"amenity":"waste_basket"}},"type":"Feature"},
	{"geometry":{"coordinates":[-1.167798,44.663273],"type":"Point"},"properties":{"osm_id":"5128749953","tag":{"amenity":"waste_basket"}},"type":"Feature"},
	{"geometry":{"coordinates":[-1.167548,44.663281],"type":"Point"},"properties":{"osm_id":"5128749956","tag":{"amenity":"waste_basket"}},"type":"Feature"},
	{"geometry":{"coordinates":[-1.167273,44.663314],"type":"Point"},"properties":{"osm_id":"5128749959","tag":{"amenity":"waste_basket"}},"type":"Feature"},
	{"geometry":{"coordinates":[-1.167009,44.663336],"type":"Point"},"properties":{"osm_id":"5128749961","tag":{"amenity":"waste_basket"}},"type":"Feature"},
	{"geometry":{"coordinates":[-1.166852,44.663349],"type":"Point"},"properties":{"osm_id":"5128749962","tag":{"amenity":"waste_basket"}},"type":"Feature"},
	{"geometry":{"coordinates":[-1.166702,44.663357],"type":"Point"},"properties":{"osm_id":"5128749964","tag":{"amenity":"waste_basket"}},"type":"Feature"},
	{"geometry":{"coordinates":[-1.166501,44.663387],"type":"Point"},"properties":{"osm_id":"5128749965","tag":{"amenity":"waste_basket"}},"type":"Feature"},
	{"geometry":{"coordinates":[-1.165893,44.663453],"type":"Point"},"properties":{"osm_id":"5128749971","tag":{"amenity":"waste_basket"}},"type":"Feature"},
	{"geometry":{"coordinates":[-1.165715,44.663479],"type":"Point"},"properties":{"osm_id":"5128749973","tag":{"amenity":"waste_basket"}},"type":"Feature"},
	{"geometry":{"coordinates":[-1.165537,44.663501],"type":"Point"},"properties":{"osm_id":"5128749975","tag":{"amenity":"waste_basket"}},"type":"Feature"},
	{"geometry":{"coordinates":[-1.165099,44.663562],"type":"Point"},"properties":{"osm_id":"5128749979","tag":{"amenity":"waste_basket"}},"type":"Feature"},
	{"geometry":{"coordinates":[-1.164689,44.663621],"type":"Point"},"properties":{"osm_id":"5128749983","tag":{"amenity":"waste_basket"}},"type":"Feature"},
	{"geometry":{"coordinates":[-1.164474,44.663646],"type":"Point"},"properties":{"osm_id":"5128749984","tag":{"amenity":"waste_basket"}},"type":"Feature"},
	{"geometry":{"coordinates":[-1.16432,44.66367],"type":"Point"},"properties":{"osm_id":"5128749986","tag":{"amenity":"waste_basket"}},"type":"Feature"},
	{"geometry":{"coordinates":[-1.164075,44.663709],"type":"Point"},"properties":{"osm_id":"5128749989","tag":{"amenity":"waste_basket"}},"type":"Feature"},
	{"geometry":{"coordinates":[-1.163121,44.66375],"type":"Point"},"properties":{"osm_id":"5128750002","tag":{"amenity":"waste_basket"}},"type":"Feature"},
	{"geometry":{"coordinates":[-1.162978,44.663616],"type":"Point"},"properties":{"osm_id":"5128750004","tag":{"amenity":"waste_basket"}},"type":"Feature"},
	{"geometry":{"coordinates":[-1.156205,44.662175],"type":"Point"},"properties":{"osm_id":"5128750223","tag":{"amenity":"waste_basket"}},"type":"Feature"},
	{"geometry":{"coordinates":[-1.174102,44.663984],"type":"Point"},"properties":{"osm_id":"5484479475","tag":{"amenity":"waste_basket"}},"type":"Feature"},
	{"geometry":{"coordinates":[-1.164792,44.658992],"type":"Point"},"properties":{"osm_id":"5766682381","tag":{"amenity":"recycling","recycling:glass_bottles":"yes","recycling_type":"container"}},"type":"Feature"},
	{"geometry":{"coordinates":[-1.150773,44.662804],"type":"Point"},"properties":{"osm_id":"6846848266","tag":{"amenity":"waste_basket"}},"type":"Feature"},
	{"geometry":{"coordinates":[-1.150473,44.662692],"type":"Point"},"properties":{"osm_id":"6846848269","tag":{"amenity":"waste_basket"}},"type":"Feature"},
	{"geometry":{"coordinates":[-1.150235,44.662399],"type":"Point"},"properties":{"osm_id":"6846857696","tag":{"amenity":"waste_basket"}},"type":"Feature"},
	{"geometry":{"coordinates":[-1.150777,44.662202],"type":"Point"},"properties":{"osm_id":"6846857701","tag":{"amenity":"waste_basket"}},"type":"Feature"},
	{"geometry":{"coordinates":[-1.163867,44.663917],"type":"Point"},"properties":{"osm_id":"6848227009","tag":{"amenity":"waste_basket"}},"type":"Feature"},
	{"geometry":{"coordinates":[-1.163724,44.664217],"type":"Point"},"properties":{"osm_id":"6848227010","tag":{"amenity":"waste_basket"}},"type":"Feature"},
	{"geometry":{"coordinates":[-1.16369,44.66492],"type":"Point"},"properties":{"osm_id":"6848227011","tag":{"amenity":"waste_basket"}},"type":"Feature"},
	{"geometry":{"coordinates":[-1.163627,44.664919],"type":"Point"},"properties":{"osm_id":"6848227012","tag":{"amenity":"waste_basket"}},"type":"Feature"},
	{"geometry":{"coordinates":[-1.163533,44.664254],"type":"Point"},"properties":{"osm_id":"6848227015","tag":{"amenity":"waste_basket"}},"type":"Feature"},
	{"geometry":{"coordinates":[-1.162701,44.663433],"type":"Point"},"properties":{"osm_id":"6848227025","tag":{"amenity":"waste_basket"}},"type":"Feature"},
	{"geometry":{"coordinates":[-1.162709,44.663397],"type":"Point"},"properties":{"osm_id":"6848227026","tag":{"amenity":"waste_basket"}},"type":"Feature"},
	{"geometry":{"coordinates":[-1.159186,44.663061],"type":"Point"},"properties":{"osm_id":"6848227028","tag":{"amenity":"waste_basket"}},"type":"Feature"},
	{"geometry":{"coordinates":[-1.159313,44.663084],"type":"Point"},"properties":{"osm_id":"6848227029","tag":{"amenity":"waste_basket"}},"type":"Feature"},
	{"geometry":{"coordinates":[-1.154547,44.661421],"type":"Point"},"properties":{"osm_id":"6848227030","tag":{"amenity":"waste_basket"}},"type":"Feature"},
	{"geometry":{"coordinates":[-1.153593,44.661193],"type":"Point"},"properties":{"osm_id":"6848227031","tag":{"amenity":"waste_basket"}},"type":"Feature"},
	{"geometry":{"coordinates":[-1.185916,44.661778],"type":"Point"},"properties":{"osm_id":"6943354843","tag":{"amenity":"waste_basket"}},"type":"Feature"},
	{"geometry":{"coordinates":[-1.229688,44.698369],"type":"Point"},"properties":{"osm_id":"7765604339","tag":{"amenity":"recycling","recycling:glass":"yes","recycling_type":"container"}},"type":"Feature"},
	{"geometry":{"coordinates":[-1.228776,44.697784],"type":"Point"},"properties":{"osm_id":"7765604362","tag":{"amenity":"waste_basket","waste":"trash"}},"type":"Feature"},
	{"geometry":{"coordinates":[-1.167115,44.663465],"type":"Point"},"properties":{"osm_id":"7856069536","tag":{"amenity":"waste_basket"}},"type":"Feature"},
	{"geometry":{"coordinates":[-1.167154,44.663432],"type":"Point"},"properties":{"osm_id":"7856096281","tag":{"amenity":"waste_basket"}},"type":"Feature"}
]
}
