{
"type": "FeatureCollection",
"features": [
	{"geometry":{"coordinates":[-1.226619,44.058443],"type":"Point"},"properties":{"name":"Nasses","osm_id":"2741612811","tag":{"addr:city":"Saint-Julien-en-Born","addr:postcode":"40170","amenity":"recycling","operator":"SITCOM - C\u00c3\u00b4te sud des Landes","operator:wikidata":"Q90819597","recycling:batteries":"yes","recycling:cans":"yes","recycling:glass_bottles":"yes","recycling:paper":"yes","recycling:paper_packaging":"yes","recycling:plastic_bottles":"yes","recycling_type":"container","ref:FR:SITCOM":"PAV-374257"}},"type":"Feature"},
	{"geometry":{"coordinates":[-1.223795,44.057576],"type":"Point"},"properties":{"osm_id":"3622722366","tag":{"access":"customers","amenity":"waste_basket","description":"large waste containers (each on 4 wheels)","devices":"7","wheelchair":"limited"}},"type":"Feature"},
	{"geometry":{"coordinates":[-1.223998,44.057075],"type":"Point"},"properties":{"osm_id":"3622729529","tag":{"amenity":"waste_basket"}},"type":"Feature"},
	{"geometry":{"coordinates":[-1.223953,44.05674],"type":"Point"},"properties":{"osm_id":"3622785408","tag":{"amenity":"waste_basket"}},"type":"Feature"},
	{"geometry":{"coordinates":[-1.221604,44.05534],"type":"Point"},"properties":{"osm_id":"3622821269","tag":{"amenity":"waste_basket"}},"type":"Feature"},
	{"geometry":{"coordinates":[-1.222396,44.05651],"type":"Point"},"properties":{"osm_id":"3622831228","tag":{"amenity":"waste_basket"}},"type":"Feature"},
	{"geometry":{"coordinates":[-1.221955,44.056091],"type":"Point"},"properties":{"osm_id":"3622832151","tag":{"amenity":"waste_basket"}},"type":"Feature"},
	{"geometry":{"coordinates":[-1.220572,44.055763],"type":"Point"},"properties":{"osm_id":"3622869641","tag":{"access":"customers","amenity":"waste_basket","description":"large waste Containers (each on 4 wheels)","devices":"4"}},"type":"Feature"},
	{"geometry":{"coordinates":[-1.223409,44.057392],"type":"Point"},"properties":{"osm_id":"3623475574","tag":{"amenity":"waste_basket","devices":"2"}},"type":"Feature"},
	{"geometry":{"coordinates":[-1.223762,44.0577],"type":"Point"},"properties":{"osm_id":"3623475791","tag":{"amenity":"waste_basket","description":"large waste container on 4 wheels","devices":"1"}},"type":"Feature"},
	{"geometry":{"coordinates":[-1.220375,44.055827],"type":"Point"},"properties":{"osm_id":"3623479243","tag":{"amenity":"waste_basket","description":"large waste container on 4 wheels","devices":"1"}},"type":"Feature"},
	{"geometry":{"coordinates":[-1.223465,44.057158],"type":"Point"},"properties":{"osm_id":"3629471545","tag":{"amenity":"waste_basket","devices":"2"}},"type":"Feature"},
	{"geometry":{"coordinates":[-1.221239,44.055074],"type":"Point"},"properties":{"osm_id":"3629971608","tag":{"amenity":"waste_basket"}},"type":"Feature"},
	{"geometry":{"coordinates":[-1.223032,44.056667],"type":"Point"},"properties":{"osm_id":"3630025886","tag":{"amenity":"waste_basket"}},"type":"Feature"},
	{"geometry":{"coordinates":[-1.201239,44.032809],"type":"Point"},"properties":{"name":"Bourg","osm_id":"3680519599","tag":{"amenity":"recycling","operator":"SITCOM - C\u00c3\u00b4te sud des Landes","operator:wikidata":"Q90819597","recycling:batteries":"yes","recycling:beverage_cartons":"yes","recycling:cans":"yes","recycling:glass_bottles":"yes","recycling:paper":"yes","recycling:paper_packaging":"yes","recycling:plastic_bottles":"yes","recycling_type":"container","ref:FR:SITCOM":"PAV-374252"}},"type":"Feature"},
	{"geometry":{"coordinates":[-1.221763,44.056665],"type":"Point"},"properties":{"name":"Village Ocelandes","osm_id":"4816439980","tag":{"amenity":"recycling","description":"5 x containers above ground and 2 x containers below ground","operator":"SITCOM - C\u00c3\u00b4te sud des Landes","operator:wikidata":"Q90819597","recycling:beverage_cartons":"yes","recycling:cans":"yes","recycling:clothes":"no","recycling:glass_bottles":"yes","recycling:paper":"yes","recycling:paper_packaging":"yes","recycling:plastic_bottles":"yes","recycling_type":"container","ref:FR:SITCOM":"PAV-392573","wheelchair":"limited"}},"type":"Feature"},
	{"geometry":{"coordinates":[-1.223144,44.057041],"type":"Point"},"properties":{"osm_id":"4817785315","tag":{"amenity":"waste_basket"}},"type":"Feature"},
	{"geometry":{"coordinates":[-1.158726,44.071028],"type":"Point"},"properties":{"osm_id":"5353426374","tag":{"amenity":"recycling","recycling:clothes":"no","recycling:glass_bottles":"yes","recycling_type":"container"}},"type":"Feature"},
	{"geometry":{"coordinates":[-1.224209,44.062917],"type":"Point"},"properties":{"name":"Bourg route de Mezos","osm_id":"5368819969","tag":{"addr:city":"Saint-Julien-en-Born","addr:postcode":"40170","amenity":"recycling","operator":"SITCOM - C\u00c3\u00b4te sud des Landes","operator:wikidata":"Q90819597","recycling:batteries":"yes","recycling:cans":"yes","recycling:clothes":"no","recycling:glass_bottles":"yes","recycling:paper":"yes","recycling:paper_packaging":"yes","recycling:plastic_bottles":"yes","recycling_type":"container","ref:FR:SITCOM":"PAV-374253"}},"type":"Feature"},
	{"geometry":{"coordinates":[-1.225433,44.062481],"type":"Point"},"properties":{"name":"La Poste","osm_id":"7440802330","tag":{"access":"customers","amenity":"waste_disposal","operator":"SITCOM - C\u00c3\u00b4te sud des Landes","operator:wikidata":"Q90819597","ref:FR:SITCOM":"PAV-374348"}},"type":"Feature"},
	{"geometry":{"coordinates":[-1.227501,44.06258],"type":"Point"},"properties":{"name":"les halles","osm_id":"7440802342","tag":{"amenity":"waste_disposal","operator":"SITCOM - C\u00c3\u00b4te sud des Landes","operator:wikidata":"Q90819597","ref:FR:SITCOM":"PAV-485642"}},"type":"Feature"},
	{"geometry":{"coordinates":[-1.229586,44.068643],"type":"Point"},"properties":{"name":"C.La Passerelle","osm_id":"7440802369","tag":{"amenity":"recycling","operator":"SITCOM - C\u00c3\u00b4te sud des Landes","operator:wikidata":"Q90819597","recycling:cans":"yes","recycling:glass_bottles":"yes","recycling:paper":"yes","recycling:paper_packaging":"yes","recycling:plastic_bottles":"yes","recycling_type":"container","ref:FR:SITCOM":"PAV-374349"}},"type":"Feature"},
	{"geometry":{"coordinates":[-1.22174,44.056646],"type":"Point"},"properties":{"name":"Village Ocelandes","osm_id":"7592150246","tag":{"amenity":"waste_disposal","description":"5 x containers above ground and 2 x containers below ground","operator":"SITCOM - C\u00c3\u00b4te sud des Landes","operator:wikidata":"Q90819597","ref:FR:SITCOM":"PAV-392573","wheelchair":"limited"}},"type":"Feature"},
	{"geometry":{"coordinates":[-1.229582,44.068628],"type":"Point"},"properties":{"name":"C.La Passerelle","osm_id":"7592150269","tag":{"amenity":"waste_disposal","operator":"SITCOM - C\u00c3\u00b4te sud des Landes","operator:wikidata":"Q90819597","ref:FR:SITCOM":"PAV-374349"}},"type":"Feature"}
]
}
