{
"type": "FeatureCollection",
"features": [
	{"geometry":{"coordinates":[-1.163081,44.008518],"type":"Point"},"properties":{"osm_id":"7440802331","tag":{"amenity":"waste_disposal","operator":"SITCOM - C\u00c3\u00b4te sud des Landes","operator:wikidata":"Q90819597","ref:FR:SITCOM":"PAV-398541"}},"type":"Feature"},
	{"geometry":{"coordinates":[-1.160568,44.007985],"type":"Point"},"properties":{"osm_id":"7440802333","tag":{"amenity":"waste_disposal","operator":"SITCOM - C\u00c3\u00b4te sud des Landes","operator:wikidata":"Q90819597","ref:FR:SITCOM":"PAV-484541"}},"type":"Feature"},
	{"geometry":{"coordinates":[-1.159443,44.008763],"type":"Point"},"properties":{"osm_id":"7440802334","tag":{"amenity":"waste_disposal","operator":"SITCOM - C\u00c3\u00b4te sud des Landes","operator:wikidata":"Q90819597","ref:FR:SITCOM":"PAV-484542"}},"type":"Feature"},
	{"geometry":{"coordinates":[-1.16987,44.012768],"type":"Point"},"properties":{"osm_id":"7440802379","tag":{"amenity":"recycling","operator":"SITCOM - C\u00c3\u00b4te sud des Landes","operator:wikidata":"Q90819597","recycling:batteries":"yes","recycling:cans":"yes","recycling:glass_bottles":"yes","recycling:paper":"yes","recycling:paper_packaging":"yes","recycling:plastic_bottles":"yes","recycling_type":"container","ref:FR:SITCOM":"PAV-374250"}},"type":"Feature"},
	{"geometry":{"coordinates":[-1.170571,44.013115],"type":"Point"},"properties":{"name":"D\u00c3\u00a9ch\u00c3\u00a8terie de L\u00c3\u00a9vignacq","osm_id":"7466019846","tag":{"addr:city":"L\u00c3\u00a9vignacq","addr:housenumber":"40330","addr:postcode":"40170","addr:street":"D40","amenity":"recycling","phone":"+33 5 58 42 42 14","recycling_type":"centre","website":"https://ma-d\u00c3\u00a9chetterie.fr/decheterie-de-levignacq/"}},"type":"Feature"}
]
}
