{
"type": "FeatureCollection",
"features": [
	{"geometry":{"coordinates":[-1.144958,43.881297],"type":"Point"},"properties":{"name":"Bourg","osm_id":"7440802323","tag":{"amenity":"waste_disposal","operator":"SITCOM - C\u00c3\u00b4te sud des Landes","operator:wikidata":"Q90819597","ref:FR:SITCOM":"PAV-374240"}},"type":"Feature"},
	{"geometry":{"coordinates":[-1.146589,43.881971],"type":"Point"},"properties":{"name":"Centre Culturel","osm_id":"7440802325","tag":{"amenity":"waste_disposal","operator":"SITCOM - C\u00c3\u00b4te sud des Landes","operator:wikidata":"Q90819597","ref:FR:SITCOM":"PAV-395351"}},"type":"Feature"},
	{"geometry":{"coordinates":[-1.144777,43.881948],"type":"Point"},"properties":{"name":"Mairie","osm_id":"7440802326","tag":{"amenity":"waste_disposal","operator":"SITCOM - C\u00c3\u00b4te sud des Landes","operator:wikidata":"Q90819597","ref:FR:SITCOM":"PAV-395349"}},"type":"Feature"},
	{"geometry":{"coordinates":[-1.145202,43.883588],"type":"Point"},"properties":{"name":"Allee Du Lavoir","osm_id":"7440802328","tag":{"amenity":"waste_disposal","operator":"SITCOM - C\u00c3\u00b4te sud des Landes","operator:wikidata":"Q90819597","ref:FR:SITCOM":"PAV-408042"}},"type":"Feature"},
	{"geometry":{"coordinates":[-1.145469,43.882673],"type":"Point"},"properties":{"name":"Castebert","osm_id":"7440802350","tag":{"amenity":"waste_disposal","operator":"SITCOM - C\u00c3\u00b4te sud des Landes","operator:wikidata":"Q90819597","ref:FR:SITCOM":"PAV-407343"}},"type":"Feature"},
	{"geometry":{"coordinates":[-1.147914,43.887395],"type":"Point"},"properties":{"name":"La Fontaine Vive","osm_id":"7440802359","tag":{"amenity":"recycling","operator":"SITCOM - C\u00c3\u00b4te sud des Landes","operator:wikidata":"Q90819597","recycling:batteries":"yes","recycling:cans":"yes","recycling:glass_bottles":"yes","recycling:paper":"yes","recycling:paper_packaging":"yes","recycling:plastic_bottles":"yes","recycling_type":"container","ref:FR:SITCOM":"PAV-374248"}},"type":"Feature"},
	{"geometry":{"coordinates":[-1.153161,43.879268],"type":"Point"},"properties":{"name":"Eco-Qu Mouncaout","osm_id":"7440802363","tag":{"amenity":"recycling","operator":"SITCOM - C\u00c3\u00b4te sud des Landes","operator:wikidata":"Q90819597","recycling:batteries":"yes","recycling:cans":"yes","recycling:glass_bottles":"yes","recycling:paper":"yes","recycling:paper_packaging":"yes","recycling:plastic_bottles":"yes","recycling_type":"container","ref:FR:SITCOM":"PAV-423042"}},"type":"Feature"},
	{"geometry":{"coordinates":[-1.143709,43.876098],"type":"Point"},"properties":{"name":"Intermarche","osm_id":"7440803496","tag":{"amenity":"recycling","operator":"SITCOM - C\u00c3\u00b4te sud des Landes","operator:wikidata":"Q90819597","recycling:batteries":"yes","recycling:cans":"yes","recycling:glass_bottles":"yes","recycling:paper":"yes","recycling:paper_packaging":"yes","recycling:plastic_bottles":"yes","recycling_type":"container","ref:FR:SITCOM":"PAV-395641"}},"type":"Feature"},
	{"geometry":{"coordinates":[-1.153227,43.879244],"type":"Point"},"properties":{"name":"Eco-Qu Mouncaout","osm_id":"7592150250","tag":{"amenity":"waste_disposal","operator":"SITCOM - C\u00c3\u00b4te sud des Landes","operator:wikidata":"Q90819597","ref:FR:SITCOM":"PAV-423042"}},"type":"Feature"}
]
}
