{
"type": "FeatureCollection",
"features": [
	{"geometry":{"coordinates":[-1.212925,43.784478],"type":"Point"},"properties":{"name":"les berges de saumus","osm_id":"7440966424","tag":{"amenity":"waste_disposal","operator":"SITCOM - C\u00c3\u00b4te sud des Landes","operator:wikidata":"Q90819597","ref:FR:SITCOM":"PAV-488241"}},"type":"Feature"},
	{"geometry":{"coordinates":[-1.224834,43.788855],"type":"Point"},"properties":{"name":"Lot Cap Coste","osm_id":"7440966459","tag":{"amenity":"waste_disposal","operator":"SITCOM - C\u00c3\u00b4te sud des Landes","operator:wikidata":"Q90819597","ref:FR:SITCOM":"PAV-460241"}},"type":"Feature"},
	{"geometry":{"coordinates":[-1.217241,43.788386],"type":"Point"},"properties":{"name":"Lot Leporte D La Foret","osm_id":"7441357320","tag":{"amenity":"waste_disposal","operator":"SITCOM - C\u00c3\u00b4te sud des Landes","operator:wikidata":"Q90819597","ref:FR:SITCOM":"PAV-466241"}},"type":"Feature"},
	{"geometry":{"coordinates":[-1.226371,43.778168],"type":"Point"},"properties":{"name":"rue victor Hugo","osm_id":"7441357328","tag":{"amenity":"waste_disposal","operator":"SITCOM - C\u00c3\u00b4te sud des Landes","operator:wikidata":"Q90819597","ref:FR:SITCOM":"PAV-488242"}},"type":"Feature"},
	{"geometry":{"coordinates":[-1.218868,43.777939],"type":"Point"},"properties":{"name":"Relais De La Poste","osm_id":"7441357353","tag":{"access":"customers","amenity":"recycling","operator":"SITCOM - C\u00c3\u00b4te sud des Landes","operator:wikidata":"Q90819597","recycling:glass_bottles":"yes","recycling_type":"container","ref:FR:SITCOM":"PAV-394742"}},"type":"Feature"},
	{"geometry":{"coordinates":[-1.220706,43.783986],"type":"Point"},"properties":{"name":"R Rives De Magescq","osm_id":"7441923875","tag":{"amenity":"recycling","operator":"SITCOM - C\u00c3\u00b4te sud des Landes","operator:wikidata":"Q90819597","recycling:batteries":"yes","recycling:cans":"yes","recycling:glass_bottles":"yes","recycling:paper":"yes","recycling:paper_packaging":"yes","recycling:plastic_bottles":"yes","recycling_type":"container","ref:FR:SITCOM":"PAV-374155"}},"type":"Feature"},
	{"geometry":{"coordinates":[-1.216041,43.777007],"type":"Point"},"properties":{"name":"Cimetiere","osm_id":"7441937208","tag":{"amenity":"recycling","operator":"SITCOM - C\u00c3\u00b4te sud des Landes","operator:wikidata":"Q90819597","recycling:batteries":"yes","recycling:cans":"yes","recycling:glass_bottles":"yes","recycling:paper":"yes","recycling:paper_packaging":"yes","recycling:plastic_bottles":"yes","recycling_type":"container","ref:FR:SITCOM":"PAV-374154"}},"type":"Feature"},
	{"geometry":{"coordinates":[-1.223942,43.789745],"type":"Point"},"properties":{"name":"Mais Ac Autist Adul","osm_id":"7441937224","tag":{"access":"customers","amenity":"recycling","operator":"SITCOM - C\u00c3\u00b4te sud des Landes","operator:wikidata":"Q90819597","recycling:glass_bottles":"yes","recycling:paper_packaging":"yes","recycling:plastic_bottles":"yes","recycling_type":"container","ref:FR:SITCOM":"PAV-374156"}},"type":"Feature"},
	{"geometry":{"coordinates":[-1.145551,43.809046],"type":"Point"},"properties":{"name":"Bourg","osm_id":"7480197447","tag":{"amenity":"recycling","operator":"SITCOM - C\u00c3\u00b4te sud des Landes","operator:wikidata":"Q90819597","recycling:cans":"yes","recycling:glass_bottles":"yes","recycling:paper":"yes","recycling:paper_packaging":"yes","recycling:plastic_bottles":"yes","recycling_type":"container","ref:FR:SITCOM":"PAV-374407"}},"type":"Feature"},
	{"geometry":{"coordinates":[-1.205365,43.776914],"type":"Point"},"properties":{"osm_id":"7834259752","tag":{"amenity":"waste_basket"}},"type":"Feature"},
	{"geometry":{"coordinates":[-1.204936,43.776913],"type":"Point"},"properties":{"osm_id":"7834259754","tag":{"amenity":"waste_basket"}},"type":"Feature"},
	{"geometry":{"coordinates":[-1.205071,43.776616],"type":"Point"},"properties":{"osm_id":"7834259756","tag":{"amenity":"waste_basket"}},"type":"Feature"}
]
}
