{
"type": "FeatureCollection",
"features": [
	{"geometry":{"coordinates":[-1.228864,43.686778],"type":"Point"},"properties":{"osm_id":"6301628169","tag":{"amenity":"waste_disposal","contact:website":"https://www.sitcom40.fr/","operator":"SITCOM - C\u00c3\u00b4te sud des Landes","operator:wikidata":"Q90819597","ref:FR:SITCOM":"PAV-426642"}},"type":"Feature"},
	{"geometry":{"coordinates":[-1.228809,43.694247],"type":"Point"},"properties":{"osm_id":"6301628170","tag":{"amenity":"waste_disposal","operator":"SITCOM - C\u00c3\u00b4te sud des Landes","operator:wikidata":"Q90819597","ref:FR:SITCOM":"PAV-473748"}},"type":"Feature"},
	{"geometry":{"coordinates":[-1.224029,43.690649],"type":"Point"},"properties":{"osm_id":"6301628171","tag":{"amenity":"recycling","operator":"SITCOM - C\u00c3\u00b4te sud des Landes","operator:wikidata":"Q90819597","recycling:batteries":"yes","recycling:beverage_cartons":"yes","recycling:cans":"yes","recycling:glass_bottles":"yes","recycling:paper":"yes","recycling:paper_packaging":"yes","recycling:plastic_bottles":"yes","recycling_type":"container","ref:FR:SITCOM":"PAV-374140"}},"type":"Feature"},
	{"geometry":{"coordinates":[-1.222239,43.695309],"type":"Point"},"properties":{"osm_id":"6301628172","tag":{"amenity":"waste_disposal","operator":"SITCOM - C\u00c3\u00b4te sud des Landes","operator:wikidata":"Q90819597","ref:FR:SITCOM":"PAV-473747"}},"type":"Feature"},
	{"geometry":{"coordinates":[-1.226382,43.68903],"type":"Point"},"properties":{"osm_id":"6303574776","tag":{"amenity":"waste_disposal","operator":"SITCOM - C\u00c3\u00b4te sud des Landes","operator:wikidata":"Q90819597","ref:FR:SITCOM":"PAV-451741"}},"type":"Feature"},
	{"geometry":{"coordinates":[-1.225498,43.691728],"type":"Point"},"properties":{"osm_id":"6303574779","tag":{"amenity":"waste_disposal","operator":"SITCOM - C\u00c3\u00b4te sud des Landes","operator:wikidata":"Q90819597","ref:FR:SITCOM":"PAV-467942"}},"type":"Feature"},
	{"geometry":{"coordinates":[-1.192061,43.698416],"type":"Point"},"properties":{"osm_id":"7251514234","tag":{"amenity":"recycling","operator":"SITCOM - C\u00c3\u00b4te sud des Landes","operator:wikidata":"Q90819597","recycling:cans":"yes","recycling:glass_bottles":"yes","recycling:paper":"yes","recycling:paper_packaging":"yes","recycling:plastic_bottles":"yes","recycling_type":"container","ref:FR:SITCOM":"PAV-482741"}},"type":"Feature"},
	{"geometry":{"coordinates":[-1.188622,43.66089],"type":"Point"},"properties":{"osm_id":"7440966463","tag":{"amenity":"waste_disposal","operator":"SITCOM - C\u00c3\u00b4te sud des Landes","operator:wikidata":"Q90819597","ref:FR:SITCOM":"PAV-467646"}},"type":"Feature"},
	{"geometry":{"coordinates":[-1.22353,43.693415],"type":"Point"},"properties":{"osm_id":"7441357321","tag":{"amenity":"waste_disposal","operator":"SITCOM - C\u00c3\u00b4te sud des Landes","operator:wikidata":"Q90819597","ref:FR:SITCOM":"PAV-467941"}},"type":"Feature"},
	{"geometry":{"coordinates":[-1.226338,43.693871],"type":"Point"},"properties":{"osm_id":"7441357329","tag":{"amenity":"waste_disposal","operator":"SITCOM - C\u00c3\u00b4te sud des Landes","operator:wikidata":"Q90819597","ref:FR:SITCOM":"PAV-456641"}},"type":"Feature"},
	{"geometry":{"coordinates":[-1.192875,43.669434],"type":"Point"},"properties":{"osm_id":"7441357387","tag":{"amenity":"waste_disposal","operator":"SITCOM - C\u00c3\u00b4te sud des Landes","operator:wikidata":"Q90819597","ref:FR:SITCOM":"PAV-419241"}},"type":"Feature"},
	{"geometry":{"coordinates":[-1.187922,43.658428],"type":"Point"},"properties":{"osm_id":"7441357388","tag":{"amenity":"waste_disposal","operator":"SITCOM - C\u00c3\u00b4te sud des Landes","operator:wikidata":"Q90819597","ref:FR:SITCOM":"PAV-493341"}},"type":"Feature"},
	{"geometry":{"coordinates":[-1.18178,43.647509],"type":"Point"},"properties":{"osm_id":"7441488054","tag":{"amenity":"recycling","operator":"SITCOM - C\u00c3\u00b4te sud des Landes","operator:wikidata":"Q90819597","recycling:batteries":"yes","recycling:cans":"yes","recycling:glass_bottles":"yes","recycling:paper":"yes","recycling:paper_packaging":"yes","recycling:plastic_bottles":"yes","recycling_type":"container","ref:FR:SITCOM":"PAV-374138"}},"type":"Feature"},
	{"geometry":{"coordinates":[-1.193315,43.661537],"type":"Point"},"properties":{"osm_id":"7441856222","tag":{"amenity":"waste_disposal","operator":"SITCOM - C\u00c3\u00b4te sud des Landes","operator:wikidata":"Q90819597","ref:FR:SITCOM":"PAV-398546"}},"type":"Feature"},
	{"geometry":{"coordinates":[-1.228667,43.688685],"type":"Point"},"properties":{"osm_id":"7441937189","tag":{"amenity":"recycling","operator":"SITCOM - C\u00c3\u00b4te sud des Landes","operator:wikidata":"Q90819597","recycling:batteries":"yes","recycling:cans":"yes","recycling:glass_bottles":"yes","recycling:paper":"yes","recycling:paper_packaging":"yes","recycling:plastic_bottles":"yes","recycling_type":"container","ref:FR:SITCOM":"PAV-374141"}},"type":"Feature"},
	{"geometry":{"coordinates":[-1.193823,43.659293],"type":"Point"},"properties":{"osm_id":"7441937221","tag":{"amenity":"recycling","operator":"SITCOM - C\u00c3\u00b4te sud des Landes","operator:wikidata":"Q90819597","recycling:batteries":"yes","recycling:cans":"yes","recycling:glass_bottles":"yes","recycling:paper":"yes","recycling:paper_packaging":"yes","recycling:plastic_bottles":"yes","recycling_type":"container","ref:FR:SITCOM":"PAV-374139"}},"type":"Feature"},
	{"geometry":{"coordinates":[-1.186286,43.685424],"type":"Point"},"properties":{"osm_id":"7441937236","tag":{"access":"customers","amenity":"recycling","operator":"SITCOM - C\u00c3\u00b4te sud des Landes","operator:wikidata":"Q90819597","recycling:cans":"yes","recycling:glass_bottles":"yes","recycling:paper":"yes","recycling:plastic_bottles":"yes","recycling_type":"container","ref:FR:SITCOM":"PAV-374280"}},"type":"Feature"},
	{"geometry":{"coordinates":[-1.154074,43.678921],"type":"Point"},"properties":{"osm_id":"7480197440","tag":{"amenity":"recycling","operator":"SITCOM - C\u00c3\u00b4te sud des Landes","operator:wikidata":"Q90819597","recycling:cans":"yes","recycling:glass_bottles":"yes","recycling:paper":"yes","recycling:paper_packaging":"yes","recycling:plastic_bottles":"yes","recycling_type":"container","ref:FR:SITCOM":"PAV-487041"}},"type":"Feature"},
	{"geometry":{"coordinates":[-1.15801,43.695852],"type":"Point"},"properties":{"osm_id":"7480197464","tag":{"amenity":"recycling","operator":"SITCOM - C\u00c3\u00b4te sud des Landes","operator:wikidata":"Q90819597","recycling:cans":"yes","recycling:glass_bottles":"yes","recycling:paper":"yes","recycling:paper_packaging":"yes","recycling:plastic_bottles":"yes","recycling_type":"container","ref:FR:SITCOM":"PAV-374493"}},"type":"Feature"},
	{"geometry":{"coordinates":[-1.143561,43.67756],"type":"Point"},"properties":{"osm_id":"7480197475","tag":{"amenity":"recycling","operator":"SITCOM - C\u00c3\u00b4te sud des Landes","operator:wikidata":"Q90819597","recycling:cans":"yes","recycling:glass_bottles":"yes","recycling:paper":"yes","recycling:paper_packaging":"yes","recycling:plastic_bottles":"yes","recycling_type":"container","ref:FR:SITCOM":"PAV-374562"}},"type":"Feature"},
	{"geometry":{"coordinates":[-1.224058,43.690624],"type":"Point"},"properties":{"osm_id":"7592150247","tag":{"amenity":"waste_disposal","operator":"SITCOM - C\u00c3\u00b4te sud des Landes","operator:wikidata":"Q90819597","ref:FR:SITCOM":"PAV-374140"}},"type":"Feature"},
	{"geometry":{"coordinates":[-1.18489,43.656259],"type":"Point"},"properties":{"osm_id":"8553902146","tag":{"amenity":"waste_basket"}},"type":"Feature"},
	{"geometry":{"coordinates":[-1.153408,43.67885],"type":"Point"},"properties":{"osm_id":"8804552667","tag":{"amenity":"waste_disposal","description":"GD721","operator":"Communaut\u00c3\u00a9 d'Agglom\u00c3\u00a9ration du Grand Dax"}},"type":"Feature"},
	{"geometry":{"coordinates":[-1.153402,43.678871],"type":"Point"},"properties":{"osm_id":"8804552668","tag":{"amenity":"waste_disposal","description":"GD722","operator":"Communaut\u00c3\u00a9 d'Agglom\u00c3\u00a9ration du Grand Dax"}},"type":"Feature"}
]
}
