{
"type": "FeatureCollection",
"features": [
	{"geometry":{"coordinates":[-1.197908,43.520928],"type":"Point"},"properties":{"osm_id":"3496512538","tag":{"amenity":"recycling","recycling:clothes":"yes","recycling:glass_bottles":"yes","recycling_type":"container"}},"type":"Feature"},
	{"geometry":{"coordinates":[-1.179528,43.565922],"type":"Point"},"properties":{"name":"Allee Des Sports","osm_id":"7441135448","tag":{"amenity":"waste_disposal","operator":"SITCOM - C\u00c3\u00b4te sud des Landes","operator:wikidata":"Q90819597","ref:FR:SITCOM":"PAV-459153"}},"type":"Feature"},
	{"geometry":{"coordinates":[-1.170343,43.566078],"type":"Point"},"properties":{"name":"Za","osm_id":"7441135449","tag":{"amenity":"waste_disposal","operator":"SITCOM - C\u00c3\u00b4te sud des Landes","operator:wikidata":"Q90819597","ref:FR:SITCOM":"PAV-459151"}},"type":"Feature"},
	{"geometry":{"coordinates":[-1.14575,43.554736],"type":"Point"},"properties":{"name":"Rue De La Poste","osm_id":"7441139622","tag":{"amenity":"waste_disposal","operator":"SITCOM - C\u00c3\u00b4te sud des Landes","operator:wikidata":"Q90819597","ref:FR:SITCOM":"PAV-459144"}},"type":"Feature"},
	{"geometry":{"coordinates":[-1.15323,43.551077],"type":"Point"},"properties":{"name":"Route Des Lavoirs","osm_id":"7441209072","tag":{"amenity":"waste_disposal","operator":"SITCOM - C\u00c3\u00b4te sud des Landes","operator:wikidata":"Q90819597","ref:FR:SITCOM":"PAV-459141"}},"type":"Feature"},
	{"geometry":{"coordinates":[-1.157941,43.557908],"type":"Point"},"properties":{"name":"Chemin De Charpan","osm_id":"7441209073","tag":{"amenity":"waste_disposal","operator":"SITCOM - C\u00c3\u00b4te sud des Landes","operator:wikidata":"Q90819597","ref:FR:SITCOM":"PAV-461041"}},"type":"Feature"},
	{"geometry":{"coordinates":[-1.177033,43.567885],"type":"Point"},"properties":{"name":"lotissement la journade","osm_id":"7441209077","tag":{"amenity":"waste_disposal","operator":"SITCOM - C\u00c3\u00b4te sud des Landes","operator:wikidata":"Q90819597","ref:FR:SITCOM":"PAV-479141"}},"type":"Feature"},
	{"geometry":{"coordinates":[-1.149401,43.555699],"type":"Point"},"properties":{"name":"route de bayle","osm_id":"7441456136","tag":{"amenity":"waste_disposal","operator":"SITCOM - C\u00c3\u00b4te sud des Landes","operator:wikidata":"Q90819597","ref:FR:SITCOM":"PAV-473541"}},"type":"Feature"},
	{"geometry":{"coordinates":[-1.143451,43.553295],"type":"Point"},"properties":{"name":"Rue De Fontaine","osm_id":"7441456137","tag":{"amenity":"waste_disposal","operator":"SITCOM - C\u00c3\u00b4te sud des Landes","operator:wikidata":"Q90819597","ref:FR:SITCOM":"PAV-411841"}},"type":"Feature"},
	{"geometry":{"coordinates":[-1.147738,43.555651],"type":"Point"},"properties":{"name":"Rue De Mongay","osm_id":"7441456143","tag":{"amenity":"waste_disposal","operator":"SITCOM - C\u00c3\u00b4te sud des Landes","operator:wikidata":"Q90819597","ref:FR:SITCOM":"PAV-458641"}},"type":"Feature"},
	{"geometry":{"coordinates":[-1.14281,43.558378],"type":"Point"},"properties":{"name":"lot les hauts de Monein","osm_id":"7441456145","tag":{"amenity":"waste_disposal","operator":"SITCOM - C\u00c3\u00b4te sud des Landes","operator:wikidata":"Q90819597","ref:FR:SITCOM":"PAV-487541"}},"type":"Feature"},
	{"geometry":{"coordinates":[-1.15218,43.557176],"type":"Point"},"properties":{"name":"Ch Marticot","osm_id":"7441456146","tag":{"amenity":"waste_disposal","operator":"SITCOM - C\u00c3\u00b4te sud des Landes","operator:wikidata":"Q90819597","ref:FR:SITCOM":"PAV-410543"}},"type":"Feature"},
	{"geometry":{"coordinates":[-1.146474,43.551262],"type":"Point"},"properties":{"name":"Ch D Monein-Lavoir","osm_id":"7441456147","tag":{"amenity":"waste_disposal","operator":"SITCOM - C\u00c3\u00b4te sud des Landes","operator:wikidata":"Q90819597","ref:FR:SITCOM":"PAV-410544"}},"type":"Feature"},
	{"geometry":{"coordinates":[-1.148386,43.552985],"type":"Point"},"properties":{"name":"Rte Lahourcade","osm_id":"7441456148","tag":{"amenity":"waste_disposal","operator":"SITCOM - C\u00c3\u00b4te sud des Landes","operator:wikidata":"Q90819597","ref:FR:SITCOM":"PAV-410542"}},"type":"Feature"},
	{"geometry":{"coordinates":[-1.170643,43.566136],"type":"Point"},"properties":{"name":"La Z.A.","osm_id":"7441456161","tag":{"amenity":"recycling","operator":"SITCOM - C\u00c3\u00b4te sud des Landes","operator:wikidata":"Q90819597","recycling:batteries":"yes","recycling:cans":"yes","recycling:glass_bottles":"yes","recycling:paper":"yes","recycling:paper_packaging":"yes","recycling:plastic_bottles":"yes","recycling_type":"container","ref:FR:SITCOM":"PAV-392565"}},"type":"Feature"},
	{"geometry":{"coordinates":[-1.146962,43.534832],"type":"Point"},"properties":{"name":"Bourg","osm_id":"7441488044","tag":{"amenity":"recycling","operator":"SITCOM - C\u00c3\u00b4te sud des Landes","operator:wikidata":"Q90819597","recycling:batteries":"yes","recycling:cans":"yes","recycling:glass_bottles":"yes","recycling:paper":"yes","recycling:paper_packaging":"yes","recycling:plastic_bottles":"yes","recycling_type":"container","ref:FR:SITCOM":"PAV-374126"}},"type":"Feature"},
	{"geometry":{"coordinates":[-1.142974,43.561723],"type":"Point"},"properties":{"name":"Tourneur","osm_id":"7441488046","tag":{"amenity":"recycling","operator":"SITCOM - C\u00c3\u00b4te sud des Landes","operator:wikidata":"Q90819597","recycling:batteries":"yes","recycling:cans":"yes","recycling:glass_bottles":"yes","recycling:paper":"yes","recycling:paper_packaging":"yes","recycling:plastic_bottles":"yes","recycling_type":"container","ref:FR:SITCOM":"PAV-408941"}},"type":"Feature"},
	{"geometry":{"coordinates":[-1.17874,43.566137],"type":"Point"},"properties":{"name":"Salle Polyvalente","osm_id":"7522660401","tag":{"amenity":"recycling","operator":"SITCOM - C\u00c3\u00b4te sud des Landes","operator:wikidata":"Q90819597","recycling:batteries":"yes","recycling_type":"container","ref:FR:SITCOM":"PAV-374646"}},"type":"Feature"},
	{"geometry":{"coordinates":[-1.143001,43.561724],"type":"Point"},"properties":{"name":"Tourneur","osm_id":"7592150222","tag":{"amenity":"waste_disposal","operator":"SITCOM - C\u00c3\u00b4te sud des Landes","operator:wikidata":"Q90819597","ref:FR:SITCOM":"PAV-408941"}},"type":"Feature"},
	{"geometry":{"coordinates":[-1.197236,43.52123],"type":"Point"},"properties":{"osm_id":"7787803490","tag":{"amenity":"waste_basket","waste":"trash"}},"type":"Feature"}
]
}
