{
"type": "FeatureCollection",
"features": [
	{"geometry":{"coordinates":[-1.228248,43.175905],"type":"Point"},"properties":{"osm_id":"3988498947","tag":{"amenity":"recycling"}},"type":"Feature"},
	{"geometry":{"coordinates":[-1.214793,43.17884],"type":"Point"},"properties":{"osm_id":"3998634357","tag":{"amenity":"recycling"}},"type":"Feature"},
	{"geometry":{"coordinates":[-1.19558,43.165745],"type":"Point"},"properties":{"osm_id":"4012165216","tag":{"amenity":"recycling","recycling_type":"container"}},"type":"Feature"},
	{"geometry":{"coordinates":[-1.192228,43.19656],"type":"Point"},"properties":{"osm_id":"4492201126","tag":{"amenity":"recycling"}},"type":"Feature"},
	{"geometry":{"coordinates":[-1.199647,43.196895],"type":"Point"},"properties":{"osm_id":"5012720700","tag":{"amenity":"recycling","recycling_type":"container"}},"type":"Feature"},
	{"geometry":{"coordinates":[-1.193332,43.164533],"type":"Point"},"properties":{"osm_id":"5803218052","tag":{"amenity":"recycling","recycling:waste":"yes","recycling_type":"container"}},"type":"Feature"},
	{"geometry":{"coordinates":[-1.172227,43.163402],"type":"Point"},"properties":{"osm_id":"5926585017","tag":{"amenity":"recycling","recycling_type":"container"}},"type":"Feature"},
	{"geometry":{"coordinates":[-1.185794,43.177077],"type":"Point"},"properties":{"osm_id":"8726370946","tag":{"amenity":"recycling","recycling:glass_bottles":"yes","recycling_type":"container"}},"type":"Feature"}
]
}
