{
"type": "FeatureCollection",
"features": [
	{"geometry":{"coordinates":[-1.181996,38.068401],"type":"Point"},"properties":{"osm_id":"3766005395","tag":{"amenity":"recycling"}},"type":"Feature"},
	{"geometry":{"coordinates":[-1.181951,38.068054],"type":"Point"},"properties":{"osm_id":"3766005396","tag":{"amenity":"recycling"}},"type":"Feature"},
	{"geometry":{"coordinates":[-1.179668,38.066499],"type":"Point"},"properties":{"osm_id":"3766005397","tag":{"amenity":"recycling"}},"type":"Feature"},
	{"geometry":{"coordinates":[-1.174097,38.068384],"type":"Point"},"properties":{"osm_id":"5390803864","tag":{"amenity":"recycling","recycling_type":"container"}},"type":"Feature"},
	{"geometry":{"coordinates":[-1.174898,38.069421],"type":"Point"},"properties":{"osm_id":"5432285312","tag":{"amenity":"recycling","recycling_type":"container"}},"type":"Feature"},
	{"geometry":{"coordinates":[-1.181995,38.068381],"type":"Point"},"properties":{"osm_id":"5502142904","tag":{"amenity":"recycling"}},"type":"Feature"},
	{"geometry":{"coordinates":[-1.181994,38.068364],"type":"Point"},"properties":{"osm_id":"5502142905","tag":{"amenity":"recycling"}},"type":"Feature"},
	{"geometry":{"coordinates":[-1.181989,38.068348],"type":"Point"},"properties":{"osm_id":"5502142906","tag":{"amenity":"recycling","recycling:plastic":"yes"}},"type":"Feature"},
	{"geometry":{"coordinates":[-1.181988,38.06833],"type":"Point"},"properties":{"osm_id":"5502142907","tag":{"amenity":"recycling","recycling:plastic":"yes"}},"type":"Feature"},
	{"geometry":{"coordinates":[-1.18192,38.067874],"type":"Point"},"properties":{"osm_id":"5502143090","tag":{"amenity":"recycling","recycling:glass":"yes"}},"type":"Feature"},
	{"geometry":{"coordinates":[-1.181925,38.0679],"type":"Point"},"properties":{"osm_id":"5502143091","tag":{"amenity":"recycling","recycling:paper":"yes"}},"type":"Feature"},
	{"geometry":{"coordinates":[-1.181927,38.067916],"type":"Point"},"properties":{"osm_id":"5502143092","tag":{"amenity":"recycling","recycling:clothes":"yes"}},"type":"Feature"},
	{"geometry":{"coordinates":[-1.181943,38.068005],"type":"Point"},"properties":{"osm_id":"5502143093","tag":{"amenity":"recycling","recycling:plastic":"yes"}},"type":"Feature"},
	{"geometry":{"coordinates":[-1.181941,38.06799],"type":"Point"},"properties":{"osm_id":"5502143094","tag":{"amenity":"recycling","recycling:plastic":"yes"}},"type":"Feature"},
	{"geometry":{"coordinates":[-1.181954,38.06808],"type":"Point"},"properties":{"osm_id":"5502143095","tag":{"amenity":"recycling"}},"type":"Feature"},
	{"geometry":{"coordinates":[-1.179802,38.066502],"type":"Point"},"properties":{"osm_id":"5502143216","tag":{"amenity":"recycling","recycling:oil":"yes","recycling_type":"container"}},"type":"Feature"},
	{"geometry":{"coordinates":[-1.180641,38.066715],"type":"Point"},"properties":{"osm_id":"5502280117","tag":{"amenity":"recycling","recycling:plastic":"yes","recycling_type":"container"}},"type":"Feature"},
	{"geometry":{"coordinates":[-1.180657,38.06672],"type":"Point"},"properties":{"osm_id":"5502280118","tag":{"amenity":"recycling","recycling:plastic":"yes","recycling_type":"container"}},"type":"Feature"},
	{"geometry":{"coordinates":[-1.180672,38.066723],"type":"Point"},"properties":{"osm_id":"5502280119","tag":{"amenity":"recycling","recycling:glass":"yes","recycling_type":"container"}},"type":"Feature"},
	{"geometry":{"coordinates":[-1.207665,38.113976],"type":"Point"},"properties":{"osm_id":"6704192582","tag":{"access":"yes","amenity":"waste_disposal","colour":"green","material":"plastic"}},"type":"Feature"}
]
}
