{
"type": "FeatureCollection",
"features": [
	{"geometry":{"coordinates":[-1.146886,38.029491],"type":"Point"},"properties":{"osm_id":"1450967041","tag":{"amenity":"recycling","recycling:batteries":"yes","recycling:cans":"yes","recycling:clothes":"yes","recycling:glass":"yes","recycling:paper":"yes","recycling:scrap_metal":"yes","recycling_type":"movil"}},"type":"Feature"},
	{"geometry":{"coordinates":[-1.15792,38.003493],"type":"Point"},"properties":{"osm_id":"1708333721","tag":{"amenity":"waste_basket"}},"type":"Feature"},
	{"geometry":{"coordinates":[-1.158835,38.002996],"type":"Point"},"properties":{"osm_id":"1708333722","tag":{"amenity":"waste_basket"}},"type":"Feature"},
	{"geometry":{"coordinates":[-1.157462,38.005312],"type":"Point"},"properties":{"osm_id":"1708333723","tag":{"amenity":"waste_basket"}},"type":"Feature"},
	{"geometry":{"coordinates":[-1.158642,38.004944],"type":"Point"},"properties":{"osm_id":"1708333724","tag":{"amenity":"waste_basket"}},"type":"Feature"},
	{"geometry":{"coordinates":[-1.15714,38.004188],"type":"Point"},"properties":{"osm_id":"1708333727","tag":{"amenity":"waste_basket"}},"type":"Feature"},
	{"geometry":{"coordinates":[-1.163085,38.003418],"type":"Point"},"properties":{"osm_id":"1708333730","tag":{"amenity":"waste_basket"}},"type":"Feature"},
	{"geometry":{"coordinates":[-1.15847,38.003773],"type":"Point"},"properties":{"osm_id":"1708333733","tag":{"amenity":"waste_basket"}},"type":"Feature"},
	{"geometry":{"coordinates":[-1.158524,38.002277],"type":"Point"},"properties":{"osm_id":"1708333735","tag":{"amenity":"waste_basket"}},"type":"Feature"},
	{"geometry":{"coordinates":[-1.159902,38.004509],"type":"Point"},"properties":{"osm_id":"1708333737","tag":{"amenity":"waste_basket"}},"type":"Feature"},
	{"geometry":{"coordinates":[-1.177815,38.025986],"type":"Point"},"properties":{"osm_id":"2015372406","tag":{"amenity":"waste_basket"}},"type":"Feature"},
	{"geometry":{"coordinates":[-1.198342,38.060844],"type":"Point"},"properties":{"osm_id":"3447136710","tag":{"amenity":"waste_basket"}},"type":"Feature"}
]
}
