{
"type": "FeatureCollection",
"features": [
	{"geometry":{"coordinates":[8.7125,53.144297],"type":"Point"},"properties":{"osm_id":"173540466","tag":{"amenity":"recycling","recycling:clothes":"yes","recycling:glass":"yes"}},"type":"Feature"},
	{"geometry":{"coordinates":[8.710295,53.149708],"type":"Point"},"properties":{"osm_id":"173540477","tag":{"amenity":"recycling","recycling:clothes":"yes","recycling:glass":"yes","recycling_type":"container"}},"type":"Feature"},
	{"geometry":{"coordinates":[8.717818,53.154544],"type":"Point"},"properties":{"osm_id":"173608385","tag":{"amenity":"recycling","recycling:clothes":"yes","recycling:glass":"yes","recycling_type":"container"}},"type":"Feature"},
	{"geometry":{"coordinates":[8.716406,53.143901],"type":"Point"},"properties":{"osm_id":"206349295","tag":{"amenity":"recycling","recycling:clothes":"yes","recycling:glass":"yes","recycling_type":"container"}},"type":"Feature"},
	{"geometry":{"coordinates":[8.716995,53.151525],"type":"Point"},"properties":{"osm_id":"206349312","tag":{"amenity":"recycling","recycling:clothes":"yes","recycling:glass":"yes","recycling_type":"container"}},"type":"Feature"},
	{"geometry":{"coordinates":[8.725898,53.139607],"type":"Point"},"properties":{"osm_id":"206368049","tag":{"amenity":"recycling","recycling:glass":"yes","recycling_type":"container"}},"type":"Feature"},
	{"geometry":{"coordinates":[8.704883,53.158113],"type":"Point"},"properties":{"osm_id":"253617328","tag":{"amenity":"recycling","recycling:clothes":"yes","recycling:glass":"yes","recycling_type":"container"}},"type":"Feature"},
	{"geometry":{"coordinates":[8.702424,53.156407],"type":"Point"},"properties":{"osm_id":"283453311","tag":{"amenity":"recycling","recycling:clothes":"yes","recycling:glass":"yes","recycling_type":"container"}},"type":"Feature"},
	{"geometry":{"coordinates":[8.70334,53.171202],"type":"Point"},"properties":{"osm_id":"296077927","tag":{"amenity":"recycling","recycling:clothes":"yes","recycling:glass_bottles":"yes","recycling:paper":"yes"}},"type":"Feature"},
	{"geometry":{"coordinates":[8.707072,53.170669],"type":"Point"},"properties":{"osm_id":"298165560","tag":{"amenity":"recycling","recycling:clothes":"yes","recycling:glass":"yes","recycling_type":"container"}},"type":"Feature"},
	{"geometry":{"coordinates":[8.740637,53.13129],"type":"Point"},"properties":{"osm_id":"685008608","tag":{"amenity":"waste_basket"}},"type":"Feature"},
	{"geometry":{"coordinates":[8.737638,53.130137],"type":"Point"},"properties":{"osm_id":"685008609","tag":{"amenity":"waste_basket"}},"type":"Feature"},
	{"geometry":{"coordinates":[8.741544,53.125774],"type":"Point"},"properties":{"osm_id":"685989633","tag":{"amenity":"recycling","recycling:clothes":"yes","recycling:glass":"yes","recycling_type":"container"}},"type":"Feature"},
	{"geometry":{"coordinates":[8.738499,53.128418],"type":"Point"},"properties":{"osm_id":"687150784","tag":{"amenity":"waste_basket"}},"type":"Feature"},
	{"geometry":{"coordinates":[8.738656,53.128571],"type":"Point"},"properties":{"osm_id":"687150785","tag":{"amenity":"waste_basket"}},"type":"Feature"},
	{"geometry":{"coordinates":[8.738565,53.128676],"type":"Point"},"properties":{"osm_id":"687150815","tag":{"amenity":"waste_basket"}},"type":"Feature"},
	{"geometry":{"coordinates":[8.738835,53.127971],"type":"Point"},"properties":{"osm_id":"687150820","tag":{"amenity":"waste_basket"}},"type":"Feature"},
	{"geometry":{"coordinates":[8.739152,53.128216],"type":"Point"},"properties":{"osm_id":"687150821","tag":{"amenity":"waste_basket"}},"type":"Feature"},
	{"geometry":{"coordinates":[8.740284,53.130174],"type":"Point"},"properties":{"osm_id":"687150906","tag":{"amenity":"waste_basket"}},"type":"Feature"},
	{"geometry":{"coordinates":[8.741455,53.129933],"type":"Point"},"properties":{"osm_id":"687150909","tag":{"amenity":"waste_basket"}},"type":"Feature"},
	{"geometry":{"coordinates":[8.740184,53.131538],"type":"Point"},"properties":{"osm_id":"687150910","tag":{"amenity":"waste_basket"}},"type":"Feature"},
	{"geometry":{"coordinates":[8.739002,53.131398],"type":"Point"},"properties":{"osm_id":"687150925","tag":{"amenity":"waste_basket"}},"type":"Feature"},
	{"geometry":{"coordinates":[8.739328,53.131069],"type":"Point"},"properties":{"osm_id":"687150926","tag":{"amenity":"waste_basket"}},"type":"Feature"},
	{"geometry":{"coordinates":[8.739553,53.129636],"type":"Point"},"properties":{"osm_id":"687151014","tag":{"amenity":"waste_basket"}},"type":"Feature"},
	{"geometry":{"coordinates":[8.738751,53.129526],"type":"Point"},"properties":{"osm_id":"687151016","tag":{"amenity":"waste_basket"}},"type":"Feature"},
	{"geometry":{"coordinates":[8.73734,53.129067],"type":"Point"},"properties":{"osm_id":"687151017","tag":{"amenity":"waste_basket"}},"type":"Feature"},
	{"geometry":{"coordinates":[8.735843,53.130049],"type":"Point"},"properties":{"osm_id":"687151021","tag":{"amenity":"waste_basket"}},"type":"Feature"},
	{"geometry":{"coordinates":[8.735667,53.130636],"type":"Point"},"properties":{"osm_id":"687151022","tag":{"amenity":"waste_basket"}},"type":"Feature"},
	{"geometry":{"coordinates":[8.736917,53.129473],"type":"Point"},"properties":{"osm_id":"687151023","tag":{"amenity":"waste_basket"}},"type":"Feature"},
	{"geometry":{"coordinates":[8.741762,53.137253],"type":"Point"},"properties":{"osm_id":"828983827","tag":{"amenity":"waste_basket"}},"type":"Feature"},
	{"geometry":{"coordinates":[8.741728,53.137669],"type":"Point"},"properties":{"osm_id":"828986596","tag":{"amenity":"waste_basket"}},"type":"Feature"},
	{"geometry":{"coordinates":[8.741207,53.129677],"type":"Point"},"properties":{"osm_id":"951216813","tag":{"amenity":"waste_basket"}},"type":"Feature"},
	{"geometry":{"coordinates":[8.741242,53.130645],"type":"Point"},"properties":{"osm_id":"951216872","tag":{"amenity":"waste_basket"}},"type":"Feature"},
	{"geometry":{"coordinates":[8.711989,53.147476],"type":"Point"},"properties":{"osm_id":"1070968546","tag":{"amenity":"recycling","recycling:clothes":"yes","recycling:glass":"yes"}},"type":"Feature"},
	{"geometry":{"coordinates":[8.756643,53.121099],"type":"Point"},"properties":{"osm_id":"1581099591","ref":"GRUENZUG WEST STRALSUNDER STRASSE AM RONDELL","tag":{"amenity":"waste_basket","ref:tour":"HKB_2","waste_basket:excrement_bags":"yes"}},"type":"Feature"},
	{"geometry":{"coordinates":[8.749973,53.125952],"type":"Point"},"properties":{"osm_id":"1581099601","ref":"WISCHHUSENSTRASSE / EINGANG GRUENZUG WEST","tag":{"amenity":"waste_basket","ref:tour":"HKB_2","waste_basket:excrement_bags":"yes"}},"type":"Feature"},
	{"geometry":{"coordinates":[8.740142,53.129262],"type":"Point"},"properties":{"osm_id":"1581099604","ref":"AM NONNENBERG/STUBBENER STRASSE","tag":{"amenity":"waste_basket","ref:tour":"HKB_2","waste_basket:excrement_bags":"yes"}},"type":"Feature"},
	{"geometry":{"coordinates":[8.742788,53.133593],"type":"Point"},"properties":{"osm_id":"1581099608","ref":"SPERBERSTRASSE EINGANG SGO","tag":{"amenity":"waste_basket","ref:tour":"HKB_2","waste_basket:excrement_bags":"yes"}},"type":"Feature"},
	{"geometry":{"coordinates":[8.728019,53.137359],"type":"Point"},"properties":{"osm_id":"1581099613","ref":"IM GRUENZUG OSLEBSHAUSER HEERSTR UND REIHERSTR","tag":{"amenity":"waste_basket","ref:tour":"HKB_2","waste_basket:excrement_bags":"yes"}},"type":"Feature"},
	{"geometry":{"coordinates":[8.703765,53.158121],"type":"Point"},"properties":{"osm_id":"1581099617","ref":"BREMER HEERSTRASSE/AM LESUMDEICH","tag":{"amenity":"waste_basket","ref:tour":"HKB_5","waste_basket:excrement_bags":"yes"}},"type":"Feature"},
	{"geometry":{"coordinates":[8.71204,53.170613],"type":"Point"},"properties":{"osm_id":"1581099662","ref":"BURGDAMMER RING CAMMINER STRASSE","tag":{"amenity":"waste_basket","ref:tour":"HKB_4","waste_basket:excrement_bags":"yes"}},"type":"Feature"},
	{"geometry":{"coordinates":[8.707892,53.172779],"type":"Point"},"properties":{"osm_id":"1581099675","ref":"STARGARDER STOLPER STRASSE","tag":{"amenity":"waste_basket","ref:tour":"HKB_4","waste_basket:excrement_bags":"yes"}},"type":"Feature"},
	{"geometry":{"coordinates":[8.788516,53.123836],"type":"Point"},"properties":{"osm_id":"1816989488","tag":{"amenity":"waste_basket"}},"type":"Feature"},
	{"geometry":{"coordinates":[8.783451,53.127707],"type":"Point"},"properties":{"osm_id":"1816989495","tag":{"amenity":"waste_basket"}},"type":"Feature"},
	{"geometry":{"coordinates":[8.782789,53.127908],"type":"Point"},"properties":{"osm_id":"1816989496","tag":{"amenity":"waste_basket"}},"type":"Feature"},
	{"geometry":{"coordinates":[8.784043,53.128355],"type":"Point"},"properties":{"osm_id":"1816989497","tag":{"amenity":"waste_basket"}},"type":"Feature"},
	{"geometry":{"coordinates":[8.783399,53.128593],"type":"Point"},"properties":{"osm_id":"1816989498","tag":{"amenity":"waste_basket"}},"type":"Feature"},
	{"geometry":{"coordinates":[8.784408,53.128652],"type":"Point"},"properties":{"osm_id":"1816989499","tag":{"amenity":"waste_basket"}},"type":"Feature"},
	{"geometry":{"coordinates":[8.783869,53.128802],"type":"Point"},"properties":{"osm_id":"1816989500","tag":{"amenity":"waste_basket"}},"type":"Feature"},
	{"geometry":{"coordinates":[8.782946,53.12898],"type":"Point"},"properties":{"osm_id":"1816989504","tag":{"amenity":"waste_basket"}},"type":"Feature"},
	{"geometry":{"coordinates":[8.786609,53.129057],"type":"Point"},"properties":{"osm_id":"1816989523","tag":{"amenity":"waste_basket"}},"type":"Feature"},
	{"geometry":{"coordinates":[8.78539,53.129085],"type":"Point"},"properties":{"osm_id":"1816989524","tag":{"amenity":"waste_basket"}},"type":"Feature"},
	{"geometry":{"coordinates":[8.783898,53.129283],"type":"Point"},"properties":{"osm_id":"1816989527","tag":{"amenity":"waste_basket"}},"type":"Feature"},
	{"geometry":{"coordinates":[8.724025,53.133825],"type":"Point"},"properties":{"osm_id":"2179117286","tag":{"amenity":"recycling","recycling:clothes":"yes","recycling:glass":"yes","recycling_type":"container"}},"type":"Feature"},
	{"geometry":{"coordinates":[8.738378,53.13448],"type":"Point"},"properties":{"osm_id":"2241135367","tag":{"amenity":"waste_basket"}},"type":"Feature"},
	{"geometry":{"coordinates":[8.741426,53.136825],"type":"Point"},"properties":{"osm_id":"2385653038","tag":{"amenity":"waste_basket"}},"type":"Feature"},
	{"geometry":{"coordinates":[8.734492,53.13193],"type":"Point"},"properties":{"barrier":"gate","osm_id":"2395682560"},"type":"Feature"},
	{"geometry":{"coordinates":[8.730662,53.134846],"type":"Point"},"properties":{"osm_id":"2523643224","tag":{"amenity":"recycling","recycling:glass":"yes","recycling_type":"container"}},"type":"Feature"},
	{"geometry":{"coordinates":[8.753446,53.123083],"type":"Point"},"properties":{"osm_id":"2614898751","tag":{"amenity":"recycling","recycling:clothes":"yes","recycling_type":"container"}},"type":"Feature"},
	{"geometry":{"coordinates":[8.720487,53.142647],"type":"Point"},"properties":{"osm_id":"2637341403","tag":{"amenity":"recycling","recycling:clothes":"yes","recycling:glass":"yes","recycling_type":"container"}},"type":"Feature"},
	{"geometry":{"coordinates":[8.749895,53.124932],"type":"Point"},"properties":{"osm_id":"3056172593","tag":{"amenity":"recycling","recycling:glass":"yes","recycling_type":"container"}},"type":"Feature"},
	{"geometry":{"coordinates":[8.718827,53.134448],"type":"Point"},"properties":{"osm_id":"3056172594","tag":{"amenity":"recycling","recycling:clothes":"yes","recycling:glass":"yes","recycling_type":"container"}},"type":"Feature"},
	{"geometry":{"coordinates":[8.783084,53.12738],"type":"Point"},"properties":{"osm_id":"4394436132","tag":{"amenity":"waste_basket"}},"type":"Feature"},
	{"geometry":{"coordinates":[8.734786,53.136004],"type":"Point"},"properties":{"osm_id":"5752764522","tag":{"amenity":"waste_basket"}},"type":"Feature"},
	{"geometry":{"coordinates":[8.703621,53.148345],"type":"Point"},"properties":{"osm_id":"5752764523","tag":{"amenity":"waste_basket"}},"type":"Feature"},
	{"geometry":{"coordinates":[8.738584,53.137217],"type":"Point"},"properties":{"osm_id":"5752764621","tag":{"amenity":"waste_basket"}},"type":"Feature"},
	{"geometry":{"coordinates":[8.712107,53.147542],"type":"Point"},"properties":{"osm_id":"5752764721","tag":{"amenity":"waste_basket"}},"type":"Feature"},
	{"geometry":{"coordinates":[8.70517,53.169806],"type":"Point"},"properties":{"osm_id":"6409955649","tag":{"amenity":"waste_basket","waste":"dog_excrement"}},"type":"Feature"},
	{"geometry":{"coordinates":[8.708329,53.167708],"type":"Point"},"properties":{"osm_id":"6410086712","tag":{"amenity":"waste_basket","waste":"trash"}},"type":"Feature"},
	{"geometry":{"coordinates":[8.704673,53.156255],"type":"Point"},"properties":{"osm_id":"7495011643","tag":{"amenity":"waste_basket"}},"type":"Feature"}
]
}
