{
"type": "FeatureCollection",
"features": [
	{"geometry":{"coordinates":[8.746151,53.115614],"type":"Point"},"properties":{"osm_id":"252097704","tag":{"amenity":"waste_disposal"}},"type":"Feature"},
	{"geometry":{"coordinates":[8.78678,53.103533],"type":"Point"},"properties":{"osm_id":"294614439","tag":{"amenity":"recycling","recycling:clothes":"yes","recycling:electrical_appliances":"yes","recycling:glass":"yes","recycling_type":"container"}},"type":"Feature"},
	{"geometry":{"coordinates":[8.782021,53.113134],"type":"Point"},"properties":{"osm_id":"297316159","tag":{"amenity":"recycling","recycling:glass":"yes","recycling_type":"container"}},"type":"Feature"},
	{"geometry":{"coordinates":[8.763188,53.081212],"type":"Point"},"properties":{"osm_id":"394824469","tag":{"amenity":"recycling","recycling:clothes":"yes","recycling:glass":"yes","recycling_type":"container"}},"type":"Feature"},
	{"geometry":{"coordinates":[8.777102,53.076522],"type":"Point"},"properties":{"osm_id":"476456132","tag":{"amenity":"recycling","recycling:clothes":"yes","recycling:glass":"no","recycling:glass_bottles":"yes","recycling:shoes":"yes","recycling_type":"container"}},"type":"Feature"},
	{"geometry":{"coordinates":[8.770102,53.080367],"type":"Point"},"properties":{"osm_id":"537030462","tag":{"amenity":"recycling","recycling:glass":"no","recycling:glass_bottles":"yes","recycling_type":"container"}},"type":"Feature"},
	{"geometry":{"coordinates":[8.778624,53.075985],"type":"Point"},"properties":{"name":"BAV Bremer Autohandels- und Verwertungsges. mbH","osm_id":"654222907","tag":{"addr:city":"Bremen","addr:country":"DE","addr:housenumber":"38","addr:postcode":"28197","addr:street":"Simon-Bolivar-Stra\u00c3\u009fe","amenity":"recycling","recycling:cars":"yes","recycling_type":"centre"}},"type":"Feature"},
	{"geometry":{"coordinates":[8.769579,53.096241],"type":"Point"},"properties":{"osm_id":"674682814","tag":{"access":"customers","amenity":"recycling","recycling_type":"container"}},"type":"Feature"},
	{"geometry":{"coordinates":[8.711753,53.079493],"type":"Point"},"properties":{"osm_id":"813612954","tag":{"amenity":"recycling","recycling:glass":"yes","recycling_type":"container"}},"type":"Feature"},
	{"geometry":{"coordinates":[8.766109,53.072087],"type":"Point"},"properties":{"osm_id":"838049779","tag":{"amenity":"waste_basket"}},"type":"Feature"},
	{"geometry":{"coordinates":[8.788549,53.09052],"type":"Point"},"properties":{"osm_id":"918404497","tag":{"amenity":"recycling","recycling:clothes":"yes","recycling:glass":"no","recycling:glass_bottles":"yes","recycling_type":"container"}},"type":"Feature"},
	{"geometry":{"coordinates":[8.785403,53.090536],"type":"Point"},"properties":{"osm_id":"939811194","tag":{"amenity":"recycling","recycling:glass":"yes","recycling_type":"container"}},"type":"Feature"},
	{"geometry":{"coordinates":[8.751175,53.090725],"type":"Point"},"properties":{"osm_id":"1163811923","tag":{"amenity":"recycling","recycling:clothes":"yes","recycling:glass":"yes","recycling_type":"container"}},"type":"Feature"},
	{"geometry":{"coordinates":[8.785356,53.068431],"type":"Point"},"properties":{"osm_id":"1581098973","ref":"ERLENSTRASSE/LANGEMARCKSTRASSE 250","tag":{"amenity":"waste_basket","ref:tour":"HKB_1","waste_basket:excrement_bags":"yes"}},"type":"Feature"},
	{"geometry":{"coordinates":[8.784923,53.072198],"type":"Point"},"properties":{"osm_id":"1581099102","ref":"NECKARSTRASSE","tag":{"amenity":"waste_basket","ref:tour":"HKB_1","waste_basket:excrement_bags":"yes"}},"type":"Feature"},
	{"geometry":{"coordinates":[8.788731,53.072784],"type":"Point"},"properties":{"osm_id":"1581099115","ref":"HOHENTORSHEERSTRASSE/NEUSTADTSCONTRSCARPE","tag":{"amenity":"waste_basket","ref:tour":"HKB_1","waste_basket:excrement_bags":"yes"}},"type":"Feature"},
	{"geometry":{"coordinates":[8.76559,53.073967],"type":"Point"},"properties":{"osm_id":"1581099157","ref":"ALTER SCHUTZDEICH","tag":{"amenity":"waste_basket","ref:tour":"HKB_1","waste_basket:excrement_bags":"yes"}},"type":"Feature"},
	{"geometry":{"coordinates":[8.774918,53.076952],"type":"Point"},"properties":{"osm_id":"1581099236","ref":"HERMANN-RITTER-STRASSE","tag":{"amenity":"waste_basket","ref:tour":"HKB_1","waste_basket:excrement_bags":"yes"}},"type":"Feature"},
	{"geometry":{"coordinates":[8.764641,53.08306],"type":"Point"},"properties":{"osm_id":"1581099342","ref":"AUF DEM BONNENKAMP/RECHTENFLETHER STRASSE","tag":{"amenity":"waste_basket","ref:tour":"HKB_1","waste_basket:excrement_bags":"yes"}},"type":"Feature"},
	{"geometry":{"coordinates":[8.759125,53.086177],"type":"Point"},"properties":{"osm_id":"1581099411","ref":"AUF DEM BOHNENKAMP/KAMPHOFER DAMM","tag":{"amenity":"waste_basket","ref:tour":"HKB_1","waste_basket:excrement_bags":"yes"}},"type":"Feature"},
	{"geometry":{"coordinates":[8.763627,53.086474],"type":"Point"},"properties":{"osm_id":"1581099438","ref":"POKHANSGANG","tag":{"amenity":"waste_basket","ref:tour":"HKB_1","waste_basket:excrement_bags":"yes"}},"type":"Feature"},
	{"geometry":{"coordinates":[8.745176,53.091605],"type":"Point"},"properties":{"osm_id":"1581099486","ref":"MUEHLENHAUSER WEG","tag":{"amenity":"waste_basket","ref:tour":"HKB_1","waste_basket:excrement_bags":"yes"}},"type":"Feature"},
	{"geometry":{"coordinates":[8.785805,53.092701],"type":"Point"},"properties":{"osm_id":"1581099495","ref":"ST-MAGNUS-STRASSE AN DER KIRCHE","tag":{"amenity":"waste_basket","ref:tour":"HKB_2","waste_basket:excrement_bags":"yes"}},"type":"Feature"},
	{"geometry":{"coordinates":[8.750796,53.094923],"type":"Point"},"properties":{"osm_id":"1581099509","ref":"RABLINGHAUSER DEICH/WESERUFERPARK","tag":{"amenity":"waste_basket","ref:tour":"HKB_1","waste_basket:excrement_bags":"yes"}},"type":"Feature"},
	{"geometry":{"coordinates":[8.775491,53.094925],"type":"Point"},"properties":{"osm_id":"1581099512","ref":"BOGENSTRASSE/DURCHGANG ZUM HAFEN","tag":{"amenity":"waste_basket","ref:tour":"HKB_2","waste_basket:excrement_bags":"yes"}},"type":"Feature"},
	{"geometry":{"coordinates":[8.785283,53.097804],"type":"Point"},"properties":{"osm_id":"1581099533","ref":"DERFFLINGER STRASSE","tag":{"amenity":"waste_basket","ref:tour":"HKB_2","waste_basket:excrement_bags":"yes"}},"type":"Feature"},
	{"geometry":{"coordinates":[8.779562,53.099811],"type":"Point"},"properties":{"osm_id":"1581099543","ref":"WALLER RING/STEFFENSWEG","tag":{"amenity":"waste_basket","ref:tour":"HKB_2","waste_basket:excrement_bags":"yes"}},"type":"Feature"},
	{"geometry":{"coordinates":[8.776318,53.100271],"type":"Point"},"properties":{"osm_id":"1581099552","ref":"BREMERHAVENER STRASSE/AN DER RELING","tag":{"amenity":"waste_basket","ref:tour":"HKB_2","waste_basket:excrement_bags":"yes"}},"type":"Feature"},
	{"geometry":{"coordinates":[8.783313,53.105379],"type":"Point"},"properties":{"osm_id":"1581099555","ref":"ACHTERBERGSTRASSE","tag":{"amenity":"waste_basket","ref:tour":"HKB_2","waste":"dog_excrement","waste_basket:excrement_bags":"yes"}},"type":"Feature"},
	{"geometry":{"coordinates":[8.760485,53.112518],"type":"Point"},"properties":{"osm_id":"1581099557","ref":"GOOSESTRASSE/DOCKSTRASSE","tag":{"amenity":"waste_basket","ref:tour":"HKB_2","waste_basket:excrement_bags":"yes"}},"type":"Feature"},
	{"geometry":{"coordinates":[8.769066,53.112762],"type":"Point"},"properties":{"osm_id":"1581099562","ref":"IN DEN BARKEN/EINGANG GRUENZUG WEST","tag":{"amenity":"waste_basket","ref:tour":"HKB_2","waste_basket:excrement_bags":"yes"}},"type":"Feature"},
	{"geometry":{"coordinates":[8.760702,53.113005],"type":"Point"},"properties":{"osm_id":"1581099568","ref":"BUERGERMEISTER-EHLERS-PLATZ","tag":{"amenity":"waste_basket","ref:tour":"HKB_2","waste_basket:excrement_bags":"yes"}},"type":"Feature"},
	{"geometry":{"coordinates":[8.754518,53.116094],"type":"Point"},"properties":{"osm_id":"1581099569","ref":"Gr\u00c3\u00bcnfl\u00c3\u00a4che Waltjenstra\u00c3\u009fe","tag":{"amenity":"waste_basket","ref:tour":"HKB_2","waste_basket:excrement_bags":"yes"}},"type":"Feature"},
	{"geometry":{"coordinates":[8.765354,53.118658],"type":"Point"},"properties":{"osm_id":"1581099579","ref":"BROMBERGER/KULMER STRASSE","tag":{"amenity":"waste_basket","ref:tour":"HKB_2","waste_basket:excrement_bags":"yes"}},"type":"Feature"},
	{"geometry":{"coordinates":[8.782192,53.070335],"type":"Point"},"properties":{"osm_id":"1964258287","tag":{"amenity":"recycling","recycling:clothes":"yes","recycling:glass":"no","recycling:glass_bottles":"yes","recycling_type":"container"}},"type":"Feature"},
	{"geometry":{"coordinates":[8.779743,53.108561],"type":"Point"},"properties":{"osm_id":"2120735339","tag":{"amenity":"recycling","recycling:clothes":"yes","recycling:glass":"yes","recycling_type":"container"}},"type":"Feature"},
	{"geometry":{"coordinates":[8.787456,53.088212],"type":"Point"},"properties":{"osm_id":"2149778014","tag":{"amenity":"recycling","recycling:clothes":"yes","recycling:glass":"yes","recycling_type":"container"}},"type":"Feature"},
	{"geometry":{"coordinates":[8.716817,53.108567],"type":"Point"},"properties":{"osm_id":"2318930086","tag":{"amenity":"recycling","recycling:glass":"yes","recycling_type":"container"}},"type":"Feature"},
	{"geometry":{"coordinates":[8.769905,53.114451],"type":"Point"},"properties":{"osm_id":"2409357053","tag":{"amenity":"recycling","recycling:clothes":"yes","recycling:glass":"yes","recycling_type":"container"}},"type":"Feature"},
	{"geometry":{"coordinates":[8.788781,53.074578],"type":"Point"},"properties":{"osm_id":"2452996100","tag":{"amenity":"waste_basket"}},"type":"Feature"},
	{"geometry":{"coordinates":[8.764371,53.088875],"type":"Point"},"properties":{"osm_id":"2624601917","tag":{"amenity":"waste_basket"}},"type":"Feature"},
	{"geometry":{"coordinates":[8.763667,53.089121],"type":"Point"},"properties":{"osm_id":"2624601944","tag":{"amenity":"waste_basket"}},"type":"Feature"},
	{"geometry":{"coordinates":[8.758915,53.098744],"type":"Point"},"properties":{"osm_id":"2944683129","tag":{"amenity":"waste_basket"}},"type":"Feature"},
	{"geometry":{"coordinates":[8.759336,53.098969],"type":"Point"},"properties":{"osm_id":"2944683254","tag":{"amenity":"waste_basket","waste_basket:excrement_bags":"yes"}},"type":"Feature"},
	{"geometry":{"coordinates":[8.75989,53.099215],"type":"Point"},"properties":{"osm_id":"2944683282","tag":{"amenity":"waste_basket"}},"type":"Feature"},
	{"geometry":{"coordinates":[8.750925,53.108384],"type":"Point"},"properties":{"osm_id":"3056172585","tag":{"amenity":"recycling","recycling:glass":"yes","recycling_type":"container"}},"type":"Feature"},
	{"geometry":{"coordinates":[8.763144,53.109476],"type":"Point"},"properties":{"osm_id":"3056172586","tag":{"amenity":"recycling","recycling:clothes":"yes","recycling:glass":"yes","recycling_type":"container"}},"type":"Feature"},
	{"geometry":{"coordinates":[8.756454,53.113996],"type":"Point"},"properties":{"osm_id":"3098275345","tag":{"amenity":"waste_basket"}},"type":"Feature"},
	{"geometry":{"coordinates":[8.760664,53.099126],"type":"Point"},"properties":{"osm_id":"3180885360","tag":{"amenity":"waste_basket","waste_basket:excrement_bags":"yes"}},"type":"Feature"},
	{"geometry":{"coordinates":[8.760874,53.099227],"type":"Point"},"properties":{"osm_id":"3180891662","tag":{"amenity":"waste_basket"}},"type":"Feature"},
	{"geometry":{"coordinates":[8.7616,53.099663],"type":"Point"},"properties":{"osm_id":"3180891666","tag":{"amenity":"waste_basket"}},"type":"Feature"},
	{"geometry":{"coordinates":[8.762065,53.100054],"type":"Point"},"properties":{"osm_id":"3180891683","tag":{"amenity":"waste_basket"}},"type":"Feature"},
	{"geometry":{"coordinates":[8.761238,53.100122],"type":"Point"},"properties":{"osm_id":"3180891686","tag":{"amenity":"waste_basket"}},"type":"Feature"},
	{"geometry":{"coordinates":[8.7616,53.100413],"type":"Point"},"properties":{"osm_id":"3180891700","tag":{"amenity":"waste_basket"}},"type":"Feature"},
	{"geometry":{"coordinates":[8.762688,53.100528],"type":"Point"},"properties":{"osm_id":"3180891711","tag":{"amenity":"waste_basket"}},"type":"Feature"},
	{"geometry":{"coordinates":[8.762831,53.100801],"type":"Point"},"properties":{"osm_id":"3180891723","tag":{"amenity":"waste_basket"}},"type":"Feature"},
	{"geometry":{"coordinates":[8.762529,53.100893],"type":"Point"},"properties":{"osm_id":"3180891729","tag":{"amenity":"waste_basket"}},"type":"Feature"},
	{"geometry":{"coordinates":[8.75976,53.099274],"type":"Point"},"properties":{"osm_id":"3236201213","tag":{"amenity":"waste_basket","waste_basket:excrement_bags":"yes"}},"type":"Feature"},
	{"geometry":{"coordinates":[8.788816,53.079188],"type":"Point"},"properties":{"osm_id":"3554958329","tag":{"amenity":"waste_basket"}},"type":"Feature"},
	{"geometry":{"coordinates":[8.747217,53.09721],"type":"Point"},"properties":{"osm_id":"4159947861","tag":{"amenity":"waste_basket"}},"type":"Feature"},
	{"geometry":{"coordinates":[8.780697,53.086597],"type":"Point"},"properties":{"osm_id":"4525525000","tag":{"amenity":"waste_basket"}},"type":"Feature"},
	{"geometry":{"coordinates":[8.78054,53.086399],"type":"Point"},"properties":{"osm_id":"4525525001","tag":{"amenity":"waste_basket"}},"type":"Feature"},
	{"geometry":{"coordinates":[8.780888,53.086271],"type":"Point"},"properties":{"osm_id":"4525525002","tag":{"amenity":"waste_basket"}},"type":"Feature"},
	{"geometry":{"coordinates":[8.779965,53.08626],"type":"Point"},"properties":{"osm_id":"4525525003","tag":{"amenity":"waste_basket"}},"type":"Feature"},
	{"geometry":{"coordinates":[8.779564,53.086099],"type":"Point"},"properties":{"osm_id":"4525525004","tag":{"amenity":"waste_basket"}},"type":"Feature"},
	{"geometry":{"coordinates":[8.771172,53.095575],"type":"Point"},"properties":{"osm_id":"4807385218","tag":{"amenity":"recycling","recycling:clothes":"yes","recycling:glass_bottles":"yes","recycling_type":"container"}},"type":"Feature"},
	{"geometry":{"coordinates":[8.771038,53.096068],"type":"Point"},"properties":{"osm_id":"4987849506","tag":{"amenity":"waste_basket"}},"type":"Feature"},
	{"geometry":{"coordinates":[8.770793,53.095888],"type":"Point"},"properties":{"osm_id":"4987849507","tag":{"amenity":"waste_basket"}},"type":"Feature"},
	{"geometry":{"coordinates":[8.783646,53.098865],"type":"Point"},"properties":{"osm_id":"5162925792","tag":{"amenity":"waste_basket"}},"type":"Feature"},
	{"geometry":{"coordinates":[8.781422,53.074675],"type":"Point"},"properties":{"osm_id":"6905517126","tag":{"amenity":"recycling"}},"type":"Feature"},
	{"geometry":{"coordinates":[8.755748,53.113601],"type":"Point"},"properties":{"osm_id":"7297681889","tag":{"amenity":"waste_basket"}},"type":"Feature"},
	{"geometry":{"coordinates":[8.782456,53.098831],"type":"Point"},"properties":{"osm_id":"7518454876","tag":{"amenity":"waste_basket","waste":"trash"}},"type":"Feature"},
	{"geometry":{"coordinates":[8.781752,53.098589],"type":"Point"},"properties":{"osm_id":"7518463790","tag":{"amenity":"waste_basket","waste":"trash"}},"type":"Feature"},
	{"geometry":{"coordinates":[8.781646,53.098715],"type":"Point"},"properties":{"osm_id":"7518463792","tag":{"amenity":"waste_basket","waste":"trash"}},"type":"Feature"},
	{"geometry":{"coordinates":[8.781343,53.099071],"type":"Point"},"properties":{"osm_id":"7518463795","tag":{"amenity":"waste_basket","waste":"trash"}},"type":"Feature"},
	{"geometry":{"coordinates":[8.782623,53.099157],"type":"Point"},"properties":{"osm_id":"7518463799","tag":{"amenity":"waste_basket","waste":"trash"}},"type":"Feature"},
	{"geometry":{"coordinates":[8.783161,53.099075],"type":"Point"},"properties":{"osm_id":"7518463803","tag":{"amenity":"waste_basket","waste":"trash"}},"type":"Feature"},
	{"geometry":{"coordinates":[8.781437,53.107377],"type":"Point"},"properties":{"osm_id":"7532911085","tag":{"amenity":"waste_basket","waste":"trash"}},"type":"Feature"},
	{"geometry":{"coordinates":[8.744307,53.111279],"type":"Point"},"properties":{"osm_id":"7575187297","tag":{"amenity":"waste_basket","waste":"trash"}},"type":"Feature"},
	{"geometry":{"coordinates":[8.743406,53.110944],"type":"Point"},"properties":{"osm_id":"7575187298","tag":{"amenity":"waste_basket","waste":"trash"}},"type":"Feature"},
	{"geometry":{"coordinates":[8.744796,53.111132],"type":"Point"},"properties":{"osm_id":"7575187308","tag":{"amenity":"waste_basket","waste":"trash"}},"type":"Feature"},
	{"geometry":{"coordinates":[8.745253,53.111444],"type":"Point"},"properties":{"osm_id":"7575187309","tag":{"amenity":"waste_basket","waste":"trash"}},"type":"Feature"},
	{"geometry":{"coordinates":[8.744985,53.112036],"type":"Point"},"properties":{"osm_id":"7575187312","tag":{"amenity":"waste_basket","waste":"trash"}},"type":"Feature"},
	{"geometry":{"coordinates":[8.744555,53.112259],"type":"Point"},"properties":{"osm_id":"7575187315","tag":{"amenity":"waste_basket","waste":"trash"}},"type":"Feature"},
	{"geometry":{"coordinates":[8.744203,53.112535],"type":"Point"},"properties":{"osm_id":"7575187318","tag":{"amenity":"waste_basket","waste":"trash"}},"type":"Feature"},
	{"geometry":{"coordinates":[8.784602,53.084645],"type":"Point"},"properties":{"osm_id":"7620398049","tag":{"amenity":"waste_basket","waste":"trash"}},"type":"Feature"},
	{"geometry":{"coordinates":[8.78442,53.084419],"type":"Point"},"properties":{"osm_id":"7620398050","tag":{"amenity":"waste_basket","waste":"trash"}},"type":"Feature"},
	{"geometry":{"coordinates":[8.783304,53.105316],"type":"Point"},"properties":{"osm_id":"7674254269","tag":{"amenity":"waste_basket"}},"type":"Feature"},
	{"geometry":{"coordinates":[8.781478,53.097568],"type":"Point"},"properties":{"osm_id":"7728210053","tag":{"amenity":"waste_basket","waste":"trash"}},"type":"Feature"},
	{"geometry":{"coordinates":[8.780624,53.098083],"type":"Point"},"properties":{"osm_id":"7728210054","tag":{"amenity":"waste_basket","waste":"trash"}},"type":"Feature"},
	{"geometry":{"coordinates":[8.777856,53.09774],"type":"Point"},"properties":{"osm_id":"7728234170","tag":{"amenity":"waste_basket","waste":"trash"}},"type":"Feature"},
	{"geometry":{"coordinates":[8.777869,53.097609],"type":"Point"},"properties":{"osm_id":"7728234171","tag":{"amenity":"waste_basket","waste":"trash"}},"type":"Feature"},
	{"geometry":{"coordinates":[8.748243,53.105732],"type":"Point"},"properties":{"osm_id":"7729310089","tag":{"amenity":"waste_basket","waste":"trash"}},"type":"Feature"}
]
}
