{
"type": "FeatureCollection",
"features": [
	{"geometry":{"coordinates":[8.729249,53.023499],"type":"Point"},"properties":{"osm_id":"471807120","tag":{"amenity":"recycling","recycling:cans":"no","recycling:clothes":"no","recycling:glass":"no","recycling:paper":"yes","recycling_type":"container"}},"type":"Feature"},
	{"geometry":{"coordinates":[8.745342,53.049071],"type":"Point"},"properties":{"osm_id":"660599070","tag":{"access":"customers","amenity":"recycling","recycling_type":"container"}},"type":"Feature"},
	{"geometry":{"coordinates":[8.729928,53.046968],"type":"Point"},"properties":{"osm_id":"726561249","tag":{"amenity":"recycling","recycling:clothes":"yes","recycling:glass":"yes","recycling_type":"container"}},"type":"Feature"},
	{"geometry":{"coordinates":[8.73561,53.04771],"type":"Point"},"properties":{"osm_id":"726561275","tag":{"amenity":"recycling","recycling:clothes":"yes","recycling:glass":"yes","recycling_type":"container"}},"type":"Feature"},
	{"geometry":{"coordinates":[8.723898,53.046215],"type":"Point"},"properties":{"osm_id":"726561288","tag":{"amenity":"recycling","recycling:clothes":"yes","recycling:glass":"yes","recycling_type":"container"}},"type":"Feature"},
	{"geometry":{"coordinates":[8.727026,53.028721],"type":"Point"},"properties":{"osm_id":"897968062","tag":{"amenity":"recycling","recycling_type":"container"}},"type":"Feature"},
	{"geometry":{"coordinates":[8.712357,53.044099],"type":"Point"},"properties":{"osm_id":"1305066585","tag":{"amenity":"waste_basket"}},"type":"Feature"},
	{"geometry":{"coordinates":[8.746148,53.041694],"type":"Point"},"properties":{"osm_id":"1581098641","ref":"HOHENHORSTER WEG/EINGANG PARK LINKS DER WESER","tag":{"amenity":"waste_basket","ref:tour":"HKB_1","waste_basket:excrement_bags":"yes"}},"type":"Feature"},
	{"geometry":{"coordinates":[8.736769,53.047526],"type":"Point"},"properties":{"osm_id":"1581098679","ref":"WILLAKEDAMM/LUNEPLATE","tag":{"amenity":"waste_basket","ref:tour":"HKB_1","waste_basket:excrement_bags":"yes"}},"type":"Feature"},
	{"geometry":{"coordinates":[8.730943,53.04791],"type":"Point"},"properties":{"osm_id":"1581098707","ref":"DELFTER STRASSE/ZWISCHEN DEN DORPEN","tag":{"amenity":"waste_basket","ref:tour":"HKB_1","waste_basket:excrement_bags":"yes"}},"type":"Feature"},
	{"geometry":{"coordinates":[8.720319,53.053616],"type":"Point"},"properties":{"osm_id":"1581098753","ref":"LUXEMBURGER STRASSE/KREUZBLOECKENWEG","tag":{"amenity":"waste_basket","ref:tour":"HKB_1","waste_basket:excrement_bags":"yes"}},"type":"Feature"},
	{"geometry":{"coordinates":[8.763437,53.060012],"type":"Point"},"properties":{"osm_id":"1581098778","ref":"FRIESLANDSTRASSE/BRAKKAEMPE","tag":{"amenity":"waste_basket","ref:tour":"HKB_1","waste_basket:excrement_bags":"yes"}},"type":"Feature"},
	{"geometry":{"coordinates":[8.762104,53.061327],"type":"Point"},"properties":{"osm_id":"1581098792","ref":"STEDINGSEHRE/AM VORFELD","tag":{"amenity":"waste_basket","ref:tour":"HKB_1","waste_basket:excrement_bags":"yes"}},"type":"Feature"},
	{"geometry":{"coordinates":[8.78809,53.064963],"type":"Point"},"properties":{"osm_id":"1581098855","ref":"HELENE-KAISEN-WEG/INGELHEIMER STRASSE","tag":{"amenity":"waste_basket","ref:tour":"HKB_1","waste_basket:excrement_bags":"yes"}},"type":"Feature"},
	{"geometry":{"coordinates":[8.785977,53.064704],"type":"Point"},"properties":{"osm_id":"1630548556","ref":"Delmestra\u00c3\u009fe / Neuenlander Stra\u00c3\u009fe","tag":{"amenity":"waste_basket","waste_basket:excrement_bags":"yes"}},"type":"Feature"},
	{"geometry":{"coordinates":[8.723351,53.059742],"type":"Point"},"properties":{"osm_id":"1748695309","tag":{"amenity":"recycling","operator":"ASAN","recycling:clothes":"yes","recycling:shoes":"yes","recycling_type":"container"}},"type":"Feature"},
	{"geometry":{"coordinates":[8.736728,53.040363],"type":"Point"},"properties":{"osm_id":"1787991321","tag":{"amenity":"recycling","recycling:clothes":"yes","recycling:glass":"yes","recycling_type":"container"}},"type":"Feature"},
	{"geometry":{"coordinates":[8.736188,53.040496],"type":"Point"},"properties":{"osm_id":"1792504306","tag":{"amenity":"waste_basket"}},"type":"Feature"},
	{"geometry":{"coordinates":[8.715714,53.038423],"type":"Point"},"properties":{"osm_id":"1798815690","tag":{"amenity":"waste_basket"}},"type":"Feature"},
	{"geometry":{"coordinates":[8.715813,53.038542],"type":"Point"},"properties":{"osm_id":"1798815691","tag":{"amenity":"waste_basket"}},"type":"Feature"},
	{"geometry":{"coordinates":[8.724751,53.028236],"type":"Point"},"properties":{"osm_id":"2278535312","tag":{"amenity":"recycling","recycling:glass":"yes","recycling:glass_bottles":"yes","recycling_type":"container"}},"type":"Feature"},
	{"geometry":{"coordinates":[8.786783,53.052994],"type":"Point"},"properties":{"osm_id":"2337202779","tag":{"amenity":"waste_basket"}},"type":"Feature"},
	{"geometry":{"coordinates":[8.786939,53.05314],"type":"Point"},"properties":{"osm_id":"2337202786","tag":{"amenity":"waste_basket"}},"type":"Feature"},
	{"geometry":{"coordinates":[8.786358,53.053144],"type":"Point"},"properties":{"osm_id":"2337202789","tag":{"amenity":"waste_basket"}},"type":"Feature"},
	{"geometry":{"coordinates":[8.786525,53.053299],"type":"Point"},"properties":{"osm_id":"2337202800","tag":{"amenity":"waste_basket"}},"type":"Feature"},
	{"geometry":{"coordinates":[8.787117,53.053317],"type":"Point"},"properties":{"osm_id":"2337202806","tag":{"amenity":"waste_basket"}},"type":"Feature"},
	{"geometry":{"coordinates":[8.786696,53.053458],"type":"Point"},"properties":{"osm_id":"2337202817","tag":{"amenity":"waste_basket"}},"type":"Feature"},
	{"geometry":{"coordinates":[8.786664,53.05361],"type":"Point"},"properties":{"osm_id":"2337202824","tag":{"amenity":"waste_basket"}},"type":"Feature"},
	{"geometry":{"coordinates":[8.788119,53.054012],"type":"Point"},"properties":{"osm_id":"2337202865","tag":{"amenity":"waste_basket"}},"type":"Feature"},
	{"geometry":{"coordinates":[8.78724,53.054243],"type":"Point"},"properties":{"osm_id":"2337202871","tag":{"amenity":"waste_basket"}},"type":"Feature"},
	{"geometry":{"coordinates":[8.788664,53.054522],"type":"Point"},"properties":{"osm_id":"2337202896","tag":{"amenity":"waste_basket"}},"type":"Feature"},
	{"geometry":{"coordinates":[8.787576,53.05454],"type":"Point"},"properties":{"osm_id":"2337202898","tag":{"amenity":"waste_basket"}},"type":"Feature"},
	{"geometry":{"coordinates":[8.788877,53.054727],"type":"Point"},"properties":{"osm_id":"2337202905","tag":{"amenity":"waste_basket"}},"type":"Feature"},
	{"geometry":{"coordinates":[8.787787,53.054728],"type":"Point"},"properties":{"osm_id":"2337202908","tag":{"amenity":"waste_basket"}},"type":"Feature"},
	{"geometry":{"coordinates":[8.788041,53.054961],"type":"Point"},"properties":{"osm_id":"2337202918","tag":{"amenity":"waste_basket"}},"type":"Feature"},
	{"geometry":{"coordinates":[8.788255,53.055157],"type":"Point"},"properties":{"osm_id":"2337202942","tag":{"amenity":"waste_basket"}},"type":"Feature"},
	{"geometry":{"coordinates":[8.783491,53.053681],"type":"Point"},"properties":{"osm_id":"2362549180","tag":{"amenity":"waste_basket"}},"type":"Feature"},
	{"geometry":{"coordinates":[8.782556,53.053725],"type":"Point"},"properties":{"osm_id":"2362549183","tag":{"amenity":"waste_basket"}},"type":"Feature"},
	{"geometry":{"coordinates":[8.782563,53.053767],"type":"Point"},"properties":{"osm_id":"2362549187","tag":{"amenity":"waste_basket"}},"type":"Feature"},
	{"geometry":{"coordinates":[8.771081,53.063231],"type":"Point"},"properties":{"osm_id":"2369925708","tag":{"amenity":"recycling","recycling:clothes":"yes","recycling_type":"container"}},"type":"Feature"},
	{"geometry":{"coordinates":[8.737688,53.052432],"type":"Point"},"properties":{"barrier":"gate","osm_id":"2521748707"},"type":"Feature"},
	{"geometry":{"coordinates":[8.727088,53.024266],"type":"Point"},"properties":{"osm_id":"2791595025","tag":{"amenity":"waste_basket"}},"type":"Feature"},
	{"geometry":{"coordinates":[8.728517,53.023909],"type":"Point"},"properties":{"osm_id":"2818108451","tag":{"amenity":"recycling","recycling:cans":"no","recycling:clothes":"yes","recycling:glass":"no","recycling:paper":"no","recycling_type":"container"}},"type":"Feature"},
	{"geometry":{"coordinates":[8.769968,53.065283],"type":"Point"},"properties":{"osm_id":"2892203569","tag":{"amenity":"waste_basket"}},"type":"Feature"},
	{"geometry":{"coordinates":[8.766528,53.018794],"type":"Point"},"properties":{"osm_id":"2973368662","tag":{"amenity":"waste_basket"}},"type":"Feature"},
	{"geometry":{"coordinates":[8.766793,53.018947],"type":"Point"},"properties":{"osm_id":"2973373689","tag":{"amenity":"waste_basket"}},"type":"Feature"},
	{"geometry":{"coordinates":[8.732119,53.039986],"type":"Point"},"properties":{"osm_id":"3056172091","tag":{"amenity":"recycling","recycling:clothes":"yes","recycling:glass":"yes","recycling:scrap_metal":"yes","recycling_type":"container"}},"type":"Feature"},
	{"geometry":{"coordinates":[8.71942,53.041139],"type":"Point"},"properties":{"osm_id":"3056172097","tag":{"amenity":"recycling","recycling:clothes":"yes","recycling:glass":"yes","recycling_type":"container"}},"type":"Feature"},
	{"geometry":{"coordinates":[8.722468,53.04361],"type":"Point"},"properties":{"osm_id":"3056172099","tag":{"amenity":"recycling","recycling:glass":"yes","recycling_type":"container"}},"type":"Feature"},
	{"geometry":{"coordinates":[8.717615,53.046276],"type":"Point"},"properties":{"osm_id":"3056172357","tag":{"amenity":"recycling","recycling:clothes":"yes","recycling:glass_bottles":"yes","recycling_type":"container"}},"type":"Feature"},
	{"geometry":{"coordinates":[8.716394,53.047299],"type":"Point"},"properties":{"osm_id":"3056172377","tag":{"amenity":"recycling","recycling:clothes":"yes","recycling:glass_bottles":"yes","recycling_type":"container"}},"type":"Feature"},
	{"geometry":{"coordinates":[8.719542,53.053795],"type":"Point"},"properties":{"osm_id":"3056172551","tag":{"amenity":"recycling","recycling:clothes":"yes","recycling:glass":"yes","recycling_type":"container"}},"type":"Feature"},
	{"geometry":{"coordinates":[8.731047,53.054995],"type":"Point"},"properties":{"osm_id":"3056172581","tag":{"amenity":"recycling","recycling:glass":"yes","recycling_type":"container"}},"type":"Feature"},
	{"geometry":{"coordinates":[8.735977,53.055103],"type":"Point"},"properties":{"osm_id":"3056172582","tag":{"amenity":"recycling","recycling:clothes":"yes","recycling:glass":"yes","recycling_type":"container"}},"type":"Feature"},
	{"geometry":{"coordinates":[8.7616,53.05964],"type":"Point"},"properties":{"osm_id":"3056172583","tag":{"amenity":"recycling","recycling:clothes":"yes","recycling:glass":"no","recycling:glass_bottles":"yes","recycling_type":"container"}},"type":"Feature"},
	{"geometry":{"coordinates":[8.785923,53.052466],"type":"Point"},"properties":{"osm_id":"3774244503","tag":{"amenity":"waste_basket","indoor":"yes","level":"0"}},"type":"Feature"},
	{"geometry":{"coordinates":[8.785814,53.052519],"type":"Point"},"properties":{"osm_id":"3774244520","tag":{"amenity":"waste_basket","indoor":"yes","level":"0"}},"type":"Feature"},
	{"geometry":{"coordinates":[8.730708,53.042345],"type":"Point"},"properties":{"osm_id":"4090782832","tag":{"amenity":"waste_basket"}},"type":"Feature"},
	{"geometry":{"coordinates":[8.741186,53.043525],"type":"Point"},"properties":{"osm_id":"4112586308","tag":{"amenity":"waste_basket","waste_basket:excrement_bags":"yes"}},"type":"Feature"},
	{"geometry":{"coordinates":[8.770886,53.050232],"type":"Point"},"properties":{"osm_id":"6477501839","tag":{"amenity":"waste_basket","waste":"trash"}},"type":"Feature"},
	{"geometry":{"coordinates":[8.770522,53.05218],"type":"Point"},"properties":{"osm_id":"6477501843","tag":{"amenity":"waste_basket","waste":"trash"}},"type":"Feature"},
	{"geometry":{"coordinates":[8.737354,53.059164],"type":"Point"},"properties":{"osm_id":"7023387780","tag":{"amenity":"waste_disposal","waste":"trash"}},"type":"Feature"},
	{"geometry":{"coordinates":[8.788882,53.066443],"type":"Point"},"properties":{"osm_id":"7236235890","tag":{"amenity":"waste_basket"}},"type":"Feature"},
	{"geometry":{"coordinates":[8.779225,53.065193],"type":"Point"},"properties":{"osm_id":"7512214493","tag":{"amenity":"recycling","recycling:clothes":"yes","recycling_type":"container"}},"type":"Feature"}
]
}
