{
"type": "FeatureCollection",
"features": [
	{"geometry":{"coordinates":[8.73626,52.220542],"type":"Point"},"properties":{"osm_id":"32435234","tag":{"amenity":"recycling","recycling:glass_bottles":"yes","recycling_type":"container"}},"type":"Feature"},
	{"geometry":{"coordinates":[8.711534,52.221988],"type":"Point"},"properties":{"osm_id":"32435238","tag":{"amenity":"recycling"}},"type":"Feature"},
	{"geometry":{"coordinates":[8.71221,52.214886],"type":"Point"},"properties":{"osm_id":"32435249","tag":{"amenity":"recycling","location":"overground","recycling_type":"container"}},"type":"Feature"},
	{"geometry":{"coordinates":[8.737951,52.23264],"type":"Point"},"properties":{"osm_id":"32435251","tag":{"amenity":"recycling"}},"type":"Feature"},
	{"geometry":{"coordinates":[8.70417,52.242433],"type":"Point"},"properties":{"osm_id":"32435252","ref":"L\u00c3\u00bcbbecker Stra\u00c3\u009fe/Ecke Zur Helle","tag":{"amenity":"recycling"}},"type":"Feature"},
	{"geometry":{"coordinates":[8.783346,52.216531],"type":"Point"},"properties":{"osm_id":"391453105","tag":{"amenity":"recycling","location":"overground","recycling:clothes":"yes","recycling:glass":"yes","recycling_type":"container"}},"type":"Feature"},
	{"geometry":{"coordinates":[8.775904,52.251187],"type":"Point"},"properties":{"osm_id":"412192683","tag":{"amenity":"recycling","recycling:glass":"yes"}},"type":"Feature"},
	{"geometry":{"coordinates":[8.744912,52.252163],"type":"Point"},"properties":{"osm_id":"413060538","tag":{"amenity":"recycling","recycling:glass":"yes"}},"type":"Feature"},
	{"geometry":{"coordinates":[8.776835,52.264234],"type":"Point"},"properties":{"osm_id":"534594752","tag":{"amenity":"waste_basket"}},"type":"Feature"},
	{"geometry":{"coordinates":[8.760097,52.261051],"type":"Point"},"properties":{"osm_id":"747119106","tag":{"amenity":"waste_basket"}},"type":"Feature"},
	{"geometry":{"coordinates":[8.755123,52.266528],"type":"Point"},"properties":{"osm_id":"842114614","tag":{"amenity":"waste_basket"}},"type":"Feature"},
	{"geometry":{"coordinates":[8.755063,52.261907],"type":"Point"},"properties":{"osm_id":"842114654","tag":{"amenity":"waste_basket"}},"type":"Feature"},
	{"geometry":{"coordinates":[8.747047,52.253082],"type":"Point"},"properties":{"osm_id":"849503709","tag":{"amenity":"waste_basket"}},"type":"Feature"},
	{"geometry":{"coordinates":[8.747305,52.253076],"type":"Point"},"properties":{"osm_id":"849503740","tag":{"amenity":"waste_basket"}},"type":"Feature"},
	{"geometry":{"coordinates":[8.746625,52.253104],"type":"Point"},"properties":{"osm_id":"849503776","tag":{"amenity":"waste_basket"}},"type":"Feature"},
	{"geometry":{"coordinates":[8.747765,52.252819],"type":"Point"},"properties":{"osm_id":"849503793","tag":{"amenity":"waste_basket"}},"type":"Feature"},
	{"geometry":{"coordinates":[8.746622,52.252868],"type":"Point"},"properties":{"osm_id":"849503809","tag":{"amenity":"waste_basket"}},"type":"Feature"},
	{"geometry":{"coordinates":[8.731821,52.262237],"type":"Point"},"properties":{"osm_id":"1334972706","tag":{"amenity":"recycling"}},"type":"Feature"},
	{"geometry":{"coordinates":[8.78019,52.219772],"type":"Point"},"properties":{"osm_id":"1535616357","tag":{"amenity":"recycling","recycling:glass":"yes","recycling_type":"container"}},"type":"Feature"},
	{"geometry":{"coordinates":[8.778805,52.215034],"type":"Point"},"properties":{"osm_id":"2319890487","tag":{"amenity":"waste_basket"}},"type":"Feature"}
]
}
