{
"type": "FeatureCollection",
"features": [
	{"geometry":{"coordinates":[8.720959,52.206435],"type":"Point"},"properties":{"osm_id":"32435236","tag":{"amenity":"recycling","recycling:clothes":"yes","recycling:glass_bottles":"yes","recycling_type":"container"}},"type":"Feature"},
	{"geometry":{"coordinates":[8.709666,52.201052],"type":"Point"},"properties":{"osm_id":"32435237","tag":{"amenity":"recycling"}},"type":"Feature"},
	{"geometry":{"coordinates":[8.7627,52.193747],"type":"Point"},"properties":{"osm_id":"32435240","tag":{"amenity":"recycling","recycling:clothes":"yes","recycling:glass_bottles":"yes","recycling:shoes":"yes","recycling_type":"container"}},"type":"Feature"},
	{"geometry":{"coordinates":[8.714945,52.194307],"type":"Point"},"properties":{"osm_id":"32435241","tag":{"amenity":"recycling","location":"overground","recycling_type":"container"}},"type":"Feature"},
	{"geometry":{"coordinates":[8.726824,52.177026],"type":"Point"},"properties":{"osm_id":"32435242","tag":{"amenity":"recycling","recycling_type":"container"}},"type":"Feature"},
	{"geometry":{"coordinates":[8.770853,52.191652],"type":"Point"},"properties":{"name":"Wohngebiet Obergr\u00c3\u00bcnne","osm_id":"32435243","tag":{"amenity":"recycling"}},"type":"Feature"},
	{"geometry":{"coordinates":[8.741943,52.199043],"type":"Point"},"properties":{"name":"Industriestra\u00c3\u009fe/Kreuzbaum","osm_id":"32435244","tag":{"amenity":"recycling","designation":"Recycling B\u00c3\u00b6rse"}},"type":"Feature"},
	{"geometry":{"coordinates":[8.780736,52.198069],"type":"Point"},"properties":{"osm_id":"32435245","tag":{"amenity":"recycling","recycling:glass_bottles":"yes","recycling_type":"container"}},"type":"Feature"},
	{"geometry":{"coordinates":[8.733574,52.202315],"type":"Point"},"properties":{"name":"Mahnerfeld gegen\u00c3\u00bcber Einm\u00c3\u00bcndung Weidengrund","osm_id":"32435247","tag":{"amenity":"recycling"}},"type":"Feature"},
	{"geometry":{"coordinates":[8.760177,52.206896],"type":"Point"},"properties":{"name":"Br\u00c3\u00bcckenstra\u00c3\u009fe/Vogteistra\u00c3\u009fe","osm_id":"32435248","tag":{"amenity":"recycling"}},"type":"Feature"},
	{"geometry":{"coordinates":[8.720194,52.192199],"type":"Point"},"properties":{"osm_id":"32435253","tag":{"amenity":"recycling"}},"type":"Feature"},
	{"geometry":{"coordinates":[8.780617,52.204999],"type":"Point"},"properties":{"osm_id":"32435254","tag":{"amenity":"recycling"}},"type":"Feature"},
	{"geometry":{"coordinates":[8.777955,52.201971],"type":"Point"},"properties":{"name":"Nordbahnstra\u00c3\u009fe Parkplatz am Sportplatz","osm_id":"32435255","tag":{"amenity":"recycling","recycling:glass":"yes"}},"type":"Feature"},
	{"geometry":{"coordinates":[8.71502,52.203213],"type":"Point"},"properties":{"osm_id":"32435256","tag":{"amenity":"recycling"}},"type":"Feature"},
	{"geometry":{"coordinates":[8.715091,52.192078],"type":"Point"},"properties":{"name":"Franz v. Borriesstra\u00c3\u009fe Realschule Pavillon","osm_id":"32435257","tag":{"amenity":"recycling"}},"type":"Feature"},
	{"geometry":{"coordinates":[8.775955,52.197835],"type":"Point"},"properties":{"osm_id":"32435258","tag":{"amenity":"recycling"}},"type":"Feature"},
	{"geometry":{"coordinates":[8.722007,52.200929],"type":"Point"},"properties":{"name":"Rathausstra\u00c3\u009fe (Tennisplatz)","osm_id":"32435262","tag":{"amenity":"recycling","recycling:clothes":"yes","recycling:glass":"yes"}},"type":"Feature"},
	{"geometry":{"coordinates":[8.726102,52.209338],"type":"Point"},"properties":{"osm_id":"32435263","tag":{"amenity":"recycling","recycling:glass":"yes"}},"type":"Feature"},
	{"geometry":{"coordinates":[8.712227,52.189537],"type":"Point"},"properties":{"name":"Twelsiek Sportlerheim","osm_id":"32435264","tag":{"amenity":"recycling"}},"type":"Feature"},
	{"geometry":{"coordinates":[8.718094,52.195914],"type":"Point"},"properties":{"osm_id":"32435278","tag":{"amenity":"recycling"}},"type":"Feature"},
	{"geometry":{"coordinates":[8.757064,52.199292],"type":"Point"},"properties":{"osm_id":"32435281","tag":{"amenity":"recycling","recycling:clothes":"yes","recycling:glass_bottles":"yes","recycling:shoes":"yes","recycling_type":"container"}},"type":"Feature"},
	{"geometry":{"coordinates":[8.764617,52.203943],"type":"Point"},"properties":{"osm_id":"32435283","tag":{"amenity":"recycling"}},"type":"Feature"},
	{"geometry":{"coordinates":[8.777139,52.180304],"type":"Point"},"properties":{"osm_id":"32435286","tag":{"amenity":"recycling"}},"type":"Feature"},
	{"geometry":{"coordinates":[8.783919,52.197935],"type":"Point"},"properties":{"name":"B\u00c3\u00bcltestra\u00c3\u009fe","osm_id":"32435299","tag":{"amenity":"recycling","recycling:glass_bottles":"yes","recycling_type":"container"}},"type":"Feature"},
	{"geometry":{"coordinates":[8.709196,52.201294],"type":"Point"},"properties":{"osm_id":"32435300","tag":{"amenity":"recycling"}},"type":"Feature"},
	{"geometry":{"coordinates":[8.707465,52.192246],"type":"Point"},"properties":{"osm_id":"32435301","tag":{"amenity":"recycling","recycling:glass_bottles":"yes"}},"type":"Feature"},
	{"geometry":{"coordinates":[8.717452,52.184202],"type":"Point"},"properties":{"osm_id":"32435302","tag":{"amenity":"recycling"}},"type":"Feature"},
	{"geometry":{"coordinates":[8.786703,52.213133],"type":"Point"},"properties":{"osm_id":"432678143","tag":{"amenity":"waste_basket"}},"type":"Feature"},
	{"geometry":{"coordinates":[8.78752,52.212371],"type":"Point"},"properties":{"osm_id":"432678144","tag":{"amenity":"waste_basket"}},"type":"Feature"},
	{"geometry":{"coordinates":[8.787801,52.211663],"type":"Point"},"properties":{"osm_id":"432678148","tag":{"amenity":"waste_basket"}},"type":"Feature"},
	{"geometry":{"coordinates":[8.788109,52.188917],"type":"Point"},"properties":{"osm_id":"434458935","tag":{"amenity":"waste_basket"}},"type":"Feature"},
	{"geometry":{"coordinates":[8.783983,52.197726],"type":"Point"},"properties":{"osm_id":"440167088","tag":{"amenity":"waste_basket"}},"type":"Feature"},
	{"geometry":{"coordinates":[8.788078,52.201461],"type":"Point"},"properties":{"osm_id":"440167145","tag":{"amenity":"waste_basket"}},"type":"Feature"},
	{"geometry":{"coordinates":[8.781205,52.208203],"type":"Point"},"properties":{"osm_id":"440167183","tag":{"amenity":"waste_basket"}},"type":"Feature"},
	{"geometry":{"coordinates":[8.784459,52.196594],"type":"Point"},"properties":{"osm_id":"457887102","tag":{"amenity":"waste_basket"}},"type":"Feature"},
	{"geometry":{"coordinates":[8.785056,52.196621],"type":"Point"},"properties":{"osm_id":"457887104","tag":{"amenity":"waste_basket"}},"type":"Feature"},
	{"geometry":{"coordinates":[8.774113,52.208588],"type":"Point"},"properties":{"osm_id":"590463639","tag":{"amenity":"waste_basket"}},"type":"Feature"},
	{"geometry":{"coordinates":[8.787135,52.198785],"type":"Point"},"properties":{"osm_id":"952532662","tag":{"amenity":"recycling","recycling:glass":"yes"}},"type":"Feature"},
	{"geometry":{"coordinates":[8.788111,52.199121],"type":"Point"},"properties":{"osm_id":"1079674512","tag":{"amenity":"recycling","recycling:glass":"yes"}},"type":"Feature"},
	{"geometry":{"coordinates":[8.752396,52.178479],"type":"Point"},"properties":{"osm_id":"1234622393","tag":{"amenity":"recycling","recycling:clothes":"yes","recycling_type":"container"}},"type":"Feature"},
	{"geometry":{"coordinates":[8.775931,52.197876],"type":"Point"},"properties":{"osm_id":"1344798730","tag":{"amenity":"recycling","recycling:glass":"yes","recycling_type":"container"}},"type":"Feature"},
	{"geometry":{"coordinates":[8.784793,52.19964],"type":"Point"},"properties":{"osm_id":"1355210623","tag":{"amenity":"recycling","recycling:glass":"yes","recycling_type":"container"}},"type":"Feature"},
	{"geometry":{"coordinates":[8.778086,52.200606],"type":"Point"},"properties":{"osm_id":"1393573334","tag":{"amenity":"waste_basket"}},"type":"Feature"},
	{"geometry":{"coordinates":[8.778109,52.200683],"type":"Point"},"properties":{"osm_id":"1393573340","tag":{"amenity":"waste_basket"}},"type":"Feature"},
	{"geometry":{"coordinates":[8.778805,52.208638],"type":"Point"},"properties":{"osm_id":"1501444064","tag":{"amenity":"waste_basket"}},"type":"Feature"},
	{"geometry":{"coordinates":[8.779447,52.208824],"type":"Point"},"properties":{"osm_id":"1501444071","tag":{"amenity":"waste_basket"}},"type":"Feature"},
	{"geometry":{"coordinates":[8.77884,52.210012],"type":"Point"},"properties":{"osm_id":"1501444167","tag":{"amenity":"waste_basket"}},"type":"Feature"},
	{"geometry":{"coordinates":[8.778413,52.210054],"type":"Point"},"properties":{"osm_id":"1501444185","tag":{"amenity":"waste_basket"}},"type":"Feature"},
	{"geometry":{"coordinates":[8.721362,52.203907],"type":"Point"},"properties":{"osm_id":"1575990890","tag":{"amenity":"waste_basket"}},"type":"Feature"},
	{"geometry":{"coordinates":[8.721177,52.204104],"type":"Point"},"properties":{"osm_id":"1575991048","tag":{"amenity":"waste_basket"}},"type":"Feature"},
	{"geometry":{"coordinates":[8.721065,52.204167],"type":"Point"},"properties":{"osm_id":"1575991132","tag":{"amenity":"waste_basket"}},"type":"Feature"},
	{"geometry":{"coordinates":[8.720999,52.204215],"type":"Point"},"properties":{"osm_id":"1575991157","tag":{"amenity":"waste_basket"}},"type":"Feature"},
	{"geometry":{"coordinates":[8.720795,52.204723],"type":"Point"},"properties":{"osm_id":"1575991694","tag":{"amenity":"waste_basket"}},"type":"Feature"},
	{"geometry":{"coordinates":[8.742464,52.205269],"type":"Point"},"properties":{"osm_id":"1575992655","tag":{"amenity":"waste_basket"}},"type":"Feature"},
	{"geometry":{"coordinates":[8.759688,52.205504],"type":"Point"},"properties":{"osm_id":"1575992996","tag":{"amenity":"waste_basket"}},"type":"Feature"},
	{"geometry":{"coordinates":[8.738013,52.206676],"type":"Point"},"properties":{"osm_id":"1575994454","tag":{"amenity":"waste_basket"}},"type":"Feature"},
	{"geometry":{"coordinates":[8.766868,52.200864],"type":"Point"},"properties":{"osm_id":"1790567529","tag":{"amenity":"recycling","recycling:glass_bottles":"yes","recycling_type":"container"}},"type":"Feature"},
	{"geometry":{"coordinates":[8.756963,52.199959],"type":"Point"},"properties":{"osm_id":"1790748972","tag":{"amenity":"recycling","location":"overground","recycling_type":"container"}},"type":"Feature"},
	{"geometry":{"coordinates":[8.717393,52.198141],"type":"Point"},"properties":{"osm_id":"1793801606","tag":{"amenity":"waste_basket"}},"type":"Feature"},
	{"geometry":{"coordinates":[8.787508,52.210364],"type":"Point"},"properties":{"osm_id":"2284750567","tag":{"amenity":"waste_basket"}},"type":"Feature"},
	{"geometry":{"coordinates":[8.726701,52.19767],"type":"Point"},"properties":{"osm_id":"2319876406","tag":{"amenity":"waste_basket"}},"type":"Feature"},
	{"geometry":{"coordinates":[8.724603,52.199458],"type":"Point"},"properties":{"osm_id":"2319877224","tag":{"amenity":"waste_basket"}},"type":"Feature"},
	{"geometry":{"coordinates":[8.721758,52.201419],"type":"Point"},"properties":{"osm_id":"2319880272","tag":{"amenity":"waste_basket"}},"type":"Feature"},
	{"geometry":{"coordinates":[8.727558,52.17732],"type":"Point"},"properties":{"osm_id":"4417531897","tag":{"amenity":"waste_basket"}},"type":"Feature"},
	{"geometry":{"coordinates":[8.727414,52.177359],"type":"Point"},"properties":{"osm_id":"4417531903","tag":{"amenity":"waste_basket"}},"type":"Feature"},
	{"geometry":{"coordinates":[8.728105,52.177947],"type":"Point"},"properties":{"osm_id":"4418058789","tag":{"amenity":"waste_basket"}},"type":"Feature"},
	{"geometry":{"coordinates":[8.783376,52.209378],"type":"Point"},"properties":{"osm_id":"5777489203","tag":{"amenity":"waste_basket"}},"type":"Feature"},
	{"geometry":{"coordinates":[8.721383,52.180602],"type":"Point"},"properties":{"osm_id":"6614867126","tag":{"amenity":"waste_basket"}},"type":"Feature"},
	{"geometry":{"coordinates":[8.724896,52.186146],"type":"Point"},"properties":{"osm_id":"6614867128","tag":{"amenity":"waste_basket"}},"type":"Feature"},
	{"geometry":{"coordinates":[8.723496,52.192296],"type":"Point"},"properties":{"osm_id":"6614867131","tag":{"amenity":"waste_basket"}},"type":"Feature"}
]
}
