{
"type": "FeatureCollection",
"features": [
	{"geometry":{"coordinates":[8.778205,52.136289],"type":"Point"},"properties":{"osm_id":"278831225","tag":{"amenity":"recycling","recycling:clothes":"yes","recycling:glass_bottles":"yes","recycling_type":"container"}},"type":"Feature"},
	{"geometry":{"coordinates":[8.702618,52.108136],"type":"Point"},"properties":{"osm_id":"412563284","ref":"Wacholderweg","tag":{"amenity":"recycling","recycling:glass_bottles":"yes","recycling_type":"container"}},"type":"Feature"},
	{"geometry":{"coordinates":[8.702324,52.110299],"type":"Point"},"properties":{"osm_id":"412563286","ref":"Eibenweg","tag":{"amenity":"recycling","recycling:glass_bottles":"yes","recycling_type":"container"}},"type":"Feature"},
	{"geometry":{"coordinates":[8.706662,52.117643],"type":"Point"},"properties":{"osm_id":"412563332","ref":"W\u00c3\u00bcstener Weg","tag":{"amenity":"recycling","recycling:glass_bottles":"yes","recycling_type":"container"}},"type":"Feature"},
	{"geometry":{"coordinates":[8.704385,52.114371],"type":"Point"},"properties":{"osm_id":"2011362049","ref":"Stuckenbergstra\u00c3\u009fe","tag":{"amenity":"recycling","recycling:glass_bottles":"yes","recycling_type":"container"}},"type":"Feature"},
	{"geometry":{"coordinates":[8.764966,52.115555],"type":"Point"},"properties":{"osm_id":"4366934788","tag":{"amenity":"recycling","recycling:clothes":"yes","recycling:shoes":"yes","recycling_type":"container"}},"type":"Feature"},
	{"geometry":{"coordinates":[8.704254,52.111194],"type":"Point"},"properties":{"osm_id":"4708675094","tag":{"amenity":"waste_basket","waste":"trash;dog_excrement"}},"type":"Feature"},
	{"geometry":{"coordinates":[8.703882,52.111334],"type":"Point"},"properties":{"osm_id":"4708675095","tag":{"amenity":"waste_basket","waste":"trash;dog_excrement"}},"type":"Feature"},
	{"geometry":{"coordinates":[8.70421,52.111582],"type":"Point"},"properties":{"osm_id":"4708675096","tag":{"amenity":"waste_basket","waste":"trash;dog_excrement"}},"type":"Feature"},
	{"geometry":{"coordinates":[8.703213,52.111048],"type":"Point"},"properties":{"osm_id":"4708675098","tag":{"amenity":"waste_basket","waste":"trash;dog_excrement"}},"type":"Feature"},
	{"geometry":{"coordinates":[8.703085,52.110959],"type":"Point"},"properties":{"osm_id":"4708675099","tag":{"amenity":"waste_basket","waste":"trash;dog_excrement"}},"type":"Feature"},
	{"geometry":{"coordinates":[8.702798,52.110775],"type":"Point"},"properties":{"osm_id":"4708675100","tag":{"amenity":"waste_basket","waste":"trash;dog_excrement"}},"type":"Feature"},
	{"geometry":{"coordinates":[8.704416,52.11437],"type":"Point"},"properties":{"osm_id":"4708675104","tag":{"amenity":"recycling","recycling:clothes":"yes","recycling_type":"container"}},"type":"Feature"},
	{"geometry":{"coordinates":[8.707553,52.114447],"type":"Point"},"properties":{"osm_id":"4728198969","tag":{"amenity":"waste_basket"}},"type":"Feature"},
	{"geometry":{"coordinates":[8.712415,52.114439],"type":"Point"},"properties":{"osm_id":"4728198975","tag":{"amenity":"waste_basket"}},"type":"Feature"},
	{"geometry":{"coordinates":[8.708156,52.11375],"type":"Point"},"properties":{"osm_id":"4728198978","tag":{"amenity":"waste_basket"}},"type":"Feature"},
	{"geometry":{"coordinates":[8.707392,52.114219],"type":"Point"},"properties":{"osm_id":"4728198981","tag":{"amenity":"waste_basket"}},"type":"Feature"},
	{"geometry":{"coordinates":[8.707801,52.114837],"type":"Point"},"properties":{"osm_id":"4728200389","tag":{"amenity":"waste_basket"}},"type":"Feature"},
	{"geometry":{"coordinates":[8.7079,52.114986],"type":"Point"},"properties":{"osm_id":"4728200391","tag":{"amenity":"waste_basket"}},"type":"Feature"},
	{"geometry":{"coordinates":[8.736636,52.144219],"type":"Point"},"properties":{"osm_id":"4872917477","tag":{"amenity":"waste_basket"}},"type":"Feature"},
	{"geometry":{"coordinates":[8.712417,52.114212],"type":"Point"},"properties":{"osm_id":"4917768018","tag":{"amenity":"waste_basket","waste":"trash;dog_excrement"}},"type":"Feature"},
	{"geometry":{"coordinates":[8.712543,52.114095],"type":"Point"},"properties":{"osm_id":"4917768019","tag":{"amenity":"waste_basket","waste":"trash;dog_excrement"}},"type":"Feature"},
	{"geometry":{"coordinates":[8.712932,52.113968],"type":"Point"},"properties":{"osm_id":"4917768021","tag":{"amenity":"waste_basket"}},"type":"Feature"},
	{"geometry":{"coordinates":[8.714069,52.113477],"type":"Point"},"properties":{"osm_id":"4917768025","tag":{"amenity":"waste_basket"}},"type":"Feature"},
	{"geometry":{"coordinates":[8.717427,52.112126],"type":"Point"},"properties":{"osm_id":"4917768027","tag":{"amenity":"waste_basket","waste":"trash;dog_excrement"}},"type":"Feature"},
	{"geometry":{"coordinates":[8.712264,52.126878],"type":"Point"},"properties":{"osm_id":"5499674248","tag":{"amenity":"waste_basket"}},"type":"Feature"},
	{"geometry":{"coordinates":[8.713204,52.126183],"type":"Point"},"properties":{"osm_id":"5499674253","tag":{"amenity":"waste_basket"}},"type":"Feature"},
	{"geometry":{"coordinates":[8.714581,52.125562],"type":"Point"},"properties":{"osm_id":"5499674255","tag":{"amenity":"waste_basket"}},"type":"Feature"},
	{"geometry":{"coordinates":[8.716014,52.120462],"type":"Point"},"properties":{"osm_id":"6030506393","tag":{"amenity":"waste_basket","waste":"dog_excrement;trash"}},"type":"Feature"},
	{"geometry":{"coordinates":[8.716159,52.120422],"type":"Point"},"properties":{"osm_id":"6030506394","tag":{"amenity":"waste_basket","waste":"dog_excrement;trash"}},"type":"Feature"},
	{"geometry":{"coordinates":[8.704213,52.122003],"type":"Point"},"properties":{"osm_id":"6432917568","tag":{"amenity":"waste_basket"}},"type":"Feature"},
	{"geometry":{"coordinates":[8.706002,52.121111],"type":"Point"},"properties":{"osm_id":"6639154453","tag":{"amenity":"recycling","recycling:clothes":"yes","recycling_type":"container"}},"type":"Feature"},
	{"geometry":{"coordinates":[8.717877,52.120664],"type":"Point"},"properties":{"osm_id":"6649399717","tag":{"amenity":"waste_basket"}},"type":"Feature"},
	{"geometry":{"coordinates":[8.715645,52.120464],"type":"Point"},"properties":{"osm_id":"9075974910","tag":{"amenity":"waste_basket","waste":"dog_excrement;trash"}},"type":"Feature"},
	{"geometry":{"coordinates":[8.716201,52.120566],"type":"Point"},"properties":{"osm_id":"9075974914","tag":{"amenity":"waste_basket","waste":"dog_excrement;trash"}},"type":"Feature"},
	{"geometry":{"coordinates":[8.715328,52.12071],"type":"Point"},"properties":{"osm_id":"9075987118","tag":{"amenity":"waste_basket","waste":"dog_excrement;trash"}},"type":"Feature"},
	{"geometry":{"coordinates":[8.715909,52.120446],"type":"Point"},"properties":{"osm_id":"9075987123","tag":{"amenity":"waste_basket","waste":"dog_excrement;trash"}},"type":"Feature"},
	{"geometry":{"coordinates":[8.715597,52.12066],"type":"Point"},"properties":{"osm_id":"9075987129","tag":{"amenity":"waste_basket","waste":"dog_excrement;trash"}},"type":"Feature"},
	{"geometry":{"coordinates":[8.715778,52.120625],"type":"Point"},"properties":{"osm_id":"9075987134","tag":{"amenity":"waste_basket","waste":"dog_excrement;trash"}},"type":"Feature"},
	{"geometry":{"coordinates":[8.71553,52.120456],"type":"Point"},"properties":{"osm_id":"9075987137","tag":{"amenity":"waste_basket","waste":"dog_excrement;trash"}},"type":"Feature"},
	{"geometry":{"coordinates":[8.752588,52.12022],"type":"Point"},"properties":{"osm_id":"9078866721","tag":{"amenity":"waste_basket","waste":"trash;dog_excrement"}},"type":"Feature"},
	{"geometry":{"coordinates":[8.737233,52.109901],"type":"Point"},"properties":{"osm_id":"9078927934","tag":{"amenity":"waste_basket","waste":"trash;dog_excrement"}},"type":"Feature"},
	{"geometry":{"coordinates":[8.719543,52.111106],"type":"Point"},"properties":{"osm_id":"9090941006","tag":{"amenity":"waste_basket","waste":"trash;dog_excrement"}},"type":"Feature"}
]
}
