{
"type": "FeatureCollection",
"features": [
	{"geometry":{"coordinates":[8.725463,52.075367],"type":"Point"},"properties":{"name":"agape e.V.","osm_id":"35124826","tag":{"amenity":"recycling","recycling_type":"centre"}},"type":"Feature"},
	{"geometry":{"coordinates":[8.759968,52.07432],"type":"Point"},"properties":{"osm_id":"263784613","tag":{"amenity":"recycling","recycling_type":"container"}},"type":"Feature"},
	{"geometry":{"coordinates":[8.769126,52.06608],"type":"Point"},"properties":{"osm_id":"263815371","tag":{"amenity":"recycling","recycling_type":"container"}},"type":"Feature"},
	{"geometry":{"coordinates":[8.768235,52.075356],"type":"Point"},"properties":{"osm_id":"263816346","tag":{"amenity":"recycling","recycling:clothes":"yes","recycling:glass":"yes"}},"type":"Feature"},
	{"geometry":{"coordinates":[8.75492,52.069265],"type":"Point"},"properties":{"osm_id":"264197102","tag":{"amenity":"recycling","recycling:glass_bottles":"yes","recycling_type":"container"}},"type":"Feature"},
	{"geometry":{"coordinates":[8.753806,52.075342],"type":"Point"},"properties":{"osm_id":"265301281","tag":{"amenity":"recycling","recycling_type":"container"}},"type":"Feature"},
	{"geometry":{"coordinates":[8.751016,52.070383],"type":"Point"},"properties":{"osm_id":"271849050","tag":{"amenity":"recycling","recycling:glass_bottles":"yes","recycling_type":"container"}},"type":"Feature"},
	{"geometry":{"coordinates":[8.742137,52.080554],"type":"Point"},"properties":{"osm_id":"271893200","tag":{"amenity":"recycling","recycling:clothes":"yes","recycling:glass_bottles":"yes","recycling_type":"container"}},"type":"Feature"},
	{"geometry":{"coordinates":[8.764546,52.080786],"type":"Point"},"properties":{"osm_id":"272608299","tag":{"amenity":"recycling","recycling:clothes":"yes","recycling:glass_bottles":"yes","recycling_type":"container"}},"type":"Feature"},
	{"geometry":{"coordinates":[8.756876,52.085576],"type":"Point"},"properties":{"osm_id":"272811475","tag":{"amenity":"recycling","recycling_type":"container"}},"type":"Feature"},
	{"geometry":{"coordinates":[8.735073,52.087908],"type":"Point"},"properties":{"osm_id":"277193241","tag":{"amenity":"recycling","recycling:glass_bottles":"yes","recycling_type":"container"}},"type":"Feature"},
	{"geometry":{"coordinates":[8.725804,52.078542],"type":"Point"},"properties":{"osm_id":"280124073","tag":{"amenity":"recycling","recycling:clothes":"yes","recycling:glass_bottles":"yes","recycling_type":"container"}},"type":"Feature"},
	{"geometry":{"coordinates":[8.768681,52.069394],"type":"Point"},"properties":{"osm_id":"367032628","tag":{"amenity":"recycling","recycling:clothes":"yes"}},"type":"Feature"},
	{"geometry":{"coordinates":[8.727043,52.062244],"type":"Point"},"properties":{"osm_id":"476000338","tag":{"amenity":"recycling","recycling:glass":"yes"}},"type":"Feature"},
	{"geometry":{"coordinates":[8.749478,52.061487],"type":"Point"},"properties":{"osm_id":"498751137","tag":{"amenity":"recycling","location":"overground","recycling:glass_bottles":"yes","recycling_type":"container"}},"type":"Feature"},
	{"geometry":{"coordinates":[8.726596,52.099887],"type":"Point"},"properties":{"osm_id":"552386856","tag":{"amenity":"recycling","recycling:glass_bottles":"yes","recycling_type":"container"}},"type":"Feature"},
	{"geometry":{"coordinates":[8.72176,52.093818],"type":"Point"},"properties":{"osm_id":"552386891","tag":{"amenity":"recycling","recycling:glass_bottles":"yes","recycling_type":"container"}},"type":"Feature"},
	{"geometry":{"coordinates":[8.72124,52.085777],"type":"Point"},"properties":{"osm_id":"858293501","tag":{"amenity":"recycling","recycling:glass_bottles":"yes","recycling_type":"container"}},"type":"Feature"},
	{"geometry":{"coordinates":[8.730591,52.08755],"type":"Point"},"properties":{"name":"Riemeier Mulden","osm_id":"858293649","tag":{"amenity":"recycling","recycling:batteries":"no","recycling_type":"container"}},"type":"Feature"},
	{"geometry":{"coordinates":[8.758967,52.086316],"type":"Point"},"properties":{"osm_id":"859895087","tag":{"amenity":"recycling","operator":"Deutsches Rotes Kreuz","recycling:clothes":"yes","recycling_type":"container"}},"type":"Feature"},
	{"geometry":{"coordinates":[8.741922,52.072261],"type":"Point"},"properties":{"osm_id":"1693176644","tag":{"amenity":"recycling","recycling_type":"container"}},"type":"Feature"},
	{"geometry":{"coordinates":[8.75276,52.068926],"type":"Point"},"properties":{"osm_id":"2495257020","tag":{"amenity":"recycling","recycling:clothes":"yes","recycling_type":"container"}},"type":"Feature"},
	{"geometry":{"coordinates":[8.768164,52.066972],"type":"Point"},"properties":{"osm_id":"3741071384","tag":{"amenity":"recycling","opening_hours":"24/7","operator":"unknown","recycling:clothes":"yes","recycling:shoes":"yes","recycling_type":"container","wheelchair":"yes"}},"type":"Feature"},
	{"geometry":{"coordinates":[8.724621,52.098244],"type":"Point"},"properties":{"osm_id":"4315272243","tag":{"amenity":"waste_basket"}},"type":"Feature"},
	{"geometry":{"coordinates":[8.723188,52.056593],"type":"Point"},"properties":{"osm_id":"4380823294","tag":{"amenity":"recycling","recycling:glass_bottles":"yes","recycling_type":"container"}},"type":"Feature"},
	{"geometry":{"coordinates":[8.743812,52.096698],"type":"Point"},"properties":{"name":"Altglas-Recycling","osm_id":"4958558825","tag":{"amenity":"recycling","description":"Benutzungszeiten: Werktags (Mo.-Sa.) 8-19 Uhr","recycling:glass":"yes","recycling:glass_bottles":"yes","recycling_type":"container"}},"type":"Feature"},
	{"geometry":{"coordinates":[8.739356,52.086857],"type":"Point"},"properties":{"osm_id":"5291672548","tag":{"amenity":"waste_basket"}},"type":"Feature"},
	{"geometry":{"coordinates":[8.707955,52.089179],"type":"Point"},"properties":{"osm_id":"5343400608","tag":{"amenity":"waste_basket"}},"type":"Feature"},
	{"geometry":{"coordinates":[8.721082,52.104476],"type":"Point"},"properties":{"osm_id":"5712081534","tag":{"amenity":"waste_basket"}},"type":"Feature"},
	{"geometry":{"coordinates":[8.723643,52.102337],"type":"Point"},"properties":{"osm_id":"5712081536","tag":{"amenity":"waste_basket"}},"type":"Feature"},
	{"geometry":{"coordinates":[8.719367,52.106067],"type":"Point"},"properties":{"osm_id":"5712081557","tag":{"amenity":"waste_basket"}},"type":"Feature"},
	{"geometry":{"coordinates":[8.708147,52.08912],"type":"Point"},"properties":{"osm_id":"5747682338","tag":{"amenity":"waste_basket"}},"type":"Feature"},
	{"geometry":{"coordinates":[8.757635,52.096081],"type":"Point"},"properties":{"osm_id":"5747682344","tag":{"amenity":"waste_basket"}},"type":"Feature"},
	{"geometry":{"coordinates":[8.764591,52.065468],"type":"Point"},"properties":{"osm_id":"6502330961","tag":{"amenity":"waste_disposal","waste":"trash"}},"type":"Feature"},
	{"geometry":{"coordinates":[8.763927,52.066864],"type":"Point"},"properties":{"osm_id":"6502331127","tag":{"amenity":"waste_disposal","waste":"trash"}},"type":"Feature"},
	{"geometry":{"coordinates":[8.741291,52.081418],"type":"Point"},"properties":{"osm_id":"6634159266","tag":{"amenity":"waste_basket"}},"type":"Feature"},
	{"geometry":{"coordinates":[8.724205,52.106022],"type":"Point"},"properties":{"osm_id":"6693603340","tag":{"amenity":"waste_basket"}},"type":"Feature"},
	{"geometry":{"coordinates":[8.739483,52.063147],"type":"Point"},"properties":{"osm_id":"6703776685","tag":{"amenity":"recycling","recycling:glass":"yes"}},"type":"Feature"}
]
}
