{
"type": "FeatureCollection",
"features": [
	{"geometry":{"coordinates":[8.753734,52.049904],"type":"Point"},"properties":{"osm_id":"281692550","tag":{"amenity":"recycling","recycling:glass_bottles":"yes","recycling_type":"container"}},"type":"Feature"},
	{"geometry":{"coordinates":[8.755008,52.041786],"type":"Point"},"properties":{"osm_id":"281694389","tag":{"amenity":"recycling","recycling_type":"container"}},"type":"Feature"},
	{"geometry":{"coordinates":[8.723262,52.045486],"type":"Point"},"properties":{"osm_id":"429730788","tag":{"amenity":"recycling","recycling:clothes":"yes","recycling:glass":"yes","recycling_type":"container"}},"type":"Feature"},
	{"geometry":{"coordinates":[8.788633,52.001535],"type":"Point"},"properties":{"osm_id":"844594623","tag":{"amenity":"waste_basket"}},"type":"Feature"},
	{"geometry":{"coordinates":[8.785101,52.016376],"type":"Point"},"properties":{"osm_id":"1210716890","tag":{"amenity":"recycling","location":"overground","recycling:clothes":"yes","recycling:glass":"yes","recycling_type":"container"}},"type":"Feature"},
	{"geometry":{"coordinates":[8.772507,52.017895],"type":"Point"},"properties":{"osm_id":"1210717117","tag":{"amenity":"recycling","recycling:glass_bottles":"yes","recycling:paper":"no","recycling_type":"container"}},"type":"Feature"},
	{"geometry":{"coordinates":[8.768926,52.009069],"type":"Point"},"properties":{"osm_id":"1210717245","tag":{"amenity":"waste_basket"}},"type":"Feature"},
	{"geometry":{"coordinates":[8.761146,52.03022],"type":"Point"},"properties":{"osm_id":"4621379981","tag":{"addr:street":"Max-Planck-Stra\u00c3\u009fe","amenity":"recycling","opening_hours":"Mo-Fr 08:00-13:00,15:00-19:00; PH off","operator":"T\u00c3\u00b6nsmeier","recycling:glass_bottles":"yes","recycling_type":"container"}},"type":"Feature"},
	{"geometry":{"coordinates":[8.760576,52.031684],"type":"Point"},"properties":{"osm_id":"5114074087","tag":{"amenity":"waste_basket"}},"type":"Feature"},
	{"geometry":{"coordinates":[8.760061,52.030844],"type":"Point"},"properties":{"osm_id":"5114075894","tag":{"amenity":"waste_basket"}},"type":"Feature"}
]
}
