{
"type": "FeatureCollection",
"features": [
	{"geometry":{"coordinates":[8.750809,51.964754],"type":"Point"},"properties":{"osm_id":"186021720","tag":{"amenity":"recycling"}},"type":"Feature"},
	{"geometry":{"coordinates":[8.740232,51.9804],"type":"Point"},"properties":{"osm_id":"307389073","tag":{"amenity":"recycling","location":"overground","recycling:clothes":"yes","recycling:glass":"yes","recycling_type":"container"}},"type":"Feature"},
	{"geometry":{"coordinates":[8.708467,51.971177],"type":"Point"},"properties":{"osm_id":"310670613","tag":{"amenity":"recycling","recycling:glass_bottles":"yes"}},"type":"Feature"},
	{"geometry":{"coordinates":[8.715723,51.977342],"type":"Point"},"properties":{"osm_id":"320620988","tag":{"amenity":"recycling","recycling:glass_bottles":"yes","recycling_type":"container"}},"type":"Feature"},
	{"geometry":{"coordinates":[8.787454,51.98724],"type":"Point"},"properties":{"osm_id":"998095012","tag":{"amenity":"waste_basket"}},"type":"Feature"},
	{"geometry":{"coordinates":[8.783108,51.946376],"type":"Point"},"properties":{"name":"Flora Point","osm_id":"1204272609","tag":{"amenity":"waste_basket","shop":"florist","wheelchair":"yes"}},"type":"Feature"},
	{"geometry":{"coordinates":[8.788918,51.99313],"type":"Point"},"properties":{"osm_id":"1450160239","tag":{"amenity":"waste_basket"}},"type":"Feature"},
	{"geometry":{"coordinates":[8.767719,51.970767],"type":"Point"},"properties":{"osm_id":"1941179001","tag":{"amenity":"recycling","recycling:clothes":"yes","recycling:glass_bottles":"yes","recycling_type":"container"}},"type":"Feature"},
	{"geometry":{"coordinates":[8.758607,51.982246],"type":"Point"},"properties":{"osm_id":"1941208400","tag":{"amenity":"recycling","check_date:recycling":"2020-10-30","recycling:glass_bottles":"yes","recycling_type":"container"}},"type":"Feature"},
	{"geometry":{"coordinates":[8.712286,51.976648],"type":"Point"},"properties":{"osm_id":"2397651273","tag":{"amenity":"recycling","recycling:glass_bottles":"yes","recycling_type":"container"}},"type":"Feature"},
	{"geometry":{"coordinates":[8.712286,51.976624],"type":"Point"},"properties":{"osm_id":"2397651274","tag":{"amenity":"recycling","recycling:clothes":"yes","recycling_type":"container"}},"type":"Feature"},
	{"geometry":{"coordinates":[8.715773,51.977341],"type":"Point"},"properties":{"osm_id":"2537007400","tag":{"amenity":"recycling","recycling:clothes":"yes","recycling_type":"container"}},"type":"Feature"},
	{"geometry":{"coordinates":[8.753068,51.94571],"type":"Point"},"properties":{"osm_id":"2697903618","tag":{"amenity":"waste_basket"}},"type":"Feature"},
	{"geometry":{"coordinates":[8.753329,51.945826],"type":"Point"},"properties":{"osm_id":"2697903633","tag":{"amenity":"recycling","recycling:glass":"yes","recycling_type":"container"}},"type":"Feature"},
	{"geometry":{"coordinates":[8.753347,51.945836],"type":"Point"},"properties":{"osm_id":"2697903638","tag":{"amenity":"recycling","recycling:glass":"yes","recycling_type":"container"}},"type":"Feature"},
	{"geometry":{"coordinates":[8.753591,51.946191],"type":"Point"},"properties":{"osm_id":"2698059522","tag":{"amenity":"waste_basket"}},"type":"Feature"},
	{"geometry":{"coordinates":[8.785929,51.953192],"type":"Point"},"properties":{"osm_id":"5896967504","tag":{"amenity":"recycling","recycling:glass_bottles":"yes","recycling_type":"container"}},"type":"Feature"},
	{"geometry":{"coordinates":[8.784963,51.995429],"type":"Point"},"properties":{"osm_id":"6387151475","tag":{"amenity":"recycling","opening_hours":"Mo-Fr 08:00-13:00, 15:00-19:00","recycling:glass":"yes","recycling_type":"container"}},"type":"Feature"},
	{"geometry":{"coordinates":[8.784634,51.94541],"type":"Point"},"properties":{"osm_id":"6537029342","tag":{"amenity":"recycling","recycling:clothes":"yes","recycling:glass_bottles":"yes","recycling:shoes":"yes","recycling_type":"container"}},"type":"Feature"},
	{"geometry":{"coordinates":[8.785115,51.995847],"type":"Point"},"properties":{"osm_id":"6681557719","tag":{"amenity":"waste_basket","waste":"trash"}},"type":"Feature"},
	{"geometry":{"coordinates":[8.785271,51.995525],"type":"Point"},"properties":{"osm_id":"6681557720","tag":{"amenity":"waste_basket","waste":"trash"}},"type":"Feature"},
	{"geometry":{"coordinates":[8.78517,51.995594],"type":"Point"},"properties":{"osm_id":"6681557722","tag":{"amenity":"waste_basket","waste":"trash"}},"type":"Feature"},
	{"geometry":{"coordinates":[8.78544,51.993453],"type":"Point"},"properties":{"osm_id":"6892561743","tag":{"amenity":"waste_basket","waste":"trash"}},"type":"Feature"},
	{"geometry":{"coordinates":[8.710244,51.969643],"type":"Point"},"properties":{"osm_id":"7316834693","tag":{"amenity":"waste_basket","colour":"blue","material":"metal"}},"type":"Feature"},
	{"geometry":{"coordinates":[8.781893,51.992665],"type":"Point"},"properties":{"osm_id":"8702517443","tag":{"amenity":"recycling","recycling:glass_bottles":"yes","recycling_type":"container"}},"type":"Feature"}
]
}
