{
"type": "FeatureCollection",
"features": [
	{"geometry":{"coordinates":[8.717992,51.657557],"type":"Point"},"properties":{"osm_id":"361205977","tag":{"amenity":"recycling","recycling:glass_bottles":"yes","recycling_type":"container"}},"type":"Feature"},
	{"geometry":{"coordinates":[8.722666,51.655444],"type":"Point"},"properties":{"osm_id":"361206017","tag":{"amenity":"recycling","recycling:glass":"yes","recycling_type":"container"}},"type":"Feature"},
	{"geometry":{"coordinates":[8.728139,51.658813],"type":"Point"},"properties":{"osm_id":"361492190","tag":{"amenity":"recycling","recycling:clothes":"yes","recycling:glass_bottles":"yes","recycling_type":"container"}},"type":"Feature"},
	{"geometry":{"coordinates":[8.725326,51.669033],"type":"Point"},"properties":{"osm_id":"363887839","tag":{"amenity":"recycling","recycling:clothes":"yes","recycling:glass_bottles":"yes","recycling_type":"container"}},"type":"Feature"},
	{"geometry":{"coordinates":[8.72763,51.66482],"type":"Point"},"properties":{"osm_id":"364335860","tag":{"amenity":"recycling","recycling:clothes":"yes","recycling:electrical_items":"yes","recycling:glass":"yes","recycling:metal":"yes","recycling:shoes":"yes"}},"type":"Feature"},
	{"geometry":{"coordinates":[8.722561,51.656953],"type":"Point"},"properties":{"osm_id":"364337455","tag":{"amenity":"recycling","recycling:clothes":"yes","recycling:glass":"yes"}},"type":"Feature"},
	{"geometry":{"coordinates":[8.763766,51.633267],"type":"Point"},"properties":{"osm_id":"748276751","tag":{"amenity":"recycling","recycling:clothes":"yes","recycling:glass_bottles":"yes","recycling_type":"container"}},"type":"Feature"},
	{"geometry":{"coordinates":[8.762486,51.626286],"type":"Point"},"properties":{"osm_id":"763475080","tag":{"amenity":"recycling","recycling:clothes":"yes","recycling:glass":"yes","recycling_type":"container"}},"type":"Feature"},
	{"geometry":{"coordinates":[8.723752,51.667754],"type":"Point"},"properties":{"osm_id":"944923968","tag":{"amenity":"recycling","recycling:clothes":"yes","recycling:glass_bottles":"yes","recycling_type":"container"}},"type":"Feature"},
	{"geometry":{"coordinates":[8.70305,51.647483],"type":"Point"},"properties":{"osm_id":"1179895739","tag":{"amenity":"recycling","recycling:clothes":"yes","recycling:glass_bottles":"yes","recycling_type":"container"}},"type":"Feature"},
	{"geometry":{"coordinates":[8.775594,51.660642],"type":"Point"},"properties":{"osm_id":"1187394231","tag":{"amenity":"recycling","recycling:clothes":"yes","recycling:glass_bottles":"yes","recycling_type":"container"}},"type":"Feature"},
	{"geometry":{"coordinates":[8.723545,51.668461],"type":"Point"},"properties":{"osm_id":"1440166964","tag":{"amenity":"waste_basket"}},"type":"Feature"},
	{"geometry":{"coordinates":[8.739153,51.665432],"type":"Point"},"properties":{"osm_id":"1470138037","tag":{"amenity":"waste_basket"}},"type":"Feature"},
	{"geometry":{"coordinates":[8.735932,51.667695],"type":"Point"},"properties":{"osm_id":"1470138063","tag":{"amenity":"waste_basket"}},"type":"Feature"},
	{"geometry":{"coordinates":[8.712814,51.654992],"type":"Point"},"properties":{"osm_id":"1643189866","tag":{"amenity":"waste_basket"}},"type":"Feature"},
	{"geometry":{"coordinates":[8.714508,51.65726],"type":"Point"},"properties":{"osm_id":"1643189868","tag":{"amenity":"waste_basket"}},"type":"Feature"},
	{"geometry":{"coordinates":[8.716423,51.671607],"type":"Point"},"properties":{"osm_id":"1643189900","tag":{"amenity":"waste_basket"}},"type":"Feature"},
	{"geometry":{"coordinates":[8.770575,51.662145],"type":"Point"},"properties":{"osm_id":"1786044165","tag":{"amenity":"waste_basket"}},"type":"Feature"},
	{"geometry":{"coordinates":[8.734333,51.655143],"type":"Point"},"properties":{"osm_id":"1844691680","tag":{"amenity":"waste_basket"}},"type":"Feature"},
	{"geometry":{"coordinates":[8.726276,51.658069],"type":"Point"},"properties":{"osm_id":"1844937428","tag":{"amenity":"waste_basket"}},"type":"Feature"},
	{"geometry":{"coordinates":[8.722182,51.657314],"type":"Point"},"properties":{"osm_id":"1844948167","tag":{"amenity":"waste_basket"}},"type":"Feature"},
	{"geometry":{"coordinates":[8.721909,51.656679],"type":"Point"},"properties":{"osm_id":"1845648842","tag":{"amenity":"waste_basket"}},"type":"Feature"},
	{"geometry":{"coordinates":[8.721874,51.656725],"type":"Point"},"properties":{"osm_id":"1845648847","tag":{"amenity":"waste_basket"}},"type":"Feature"},
	{"geometry":{"coordinates":[8.723681,51.653126],"type":"Point"},"properties":{"osm_id":"1846027585","tag":{"amenity":"waste_basket"}},"type":"Feature"},
	{"geometry":{"coordinates":[8.722363,51.652607],"type":"Point"},"properties":{"osm_id":"1846080800","tag":{"amenity":"waste_basket"}},"type":"Feature"},
	{"geometry":{"coordinates":[8.715027,51.653053],"type":"Point"},"properties":{"osm_id":"1846196781","tag":{"amenity":"waste_basket"}},"type":"Feature"},
	{"geometry":{"coordinates":[8.701434,51.646399],"type":"Point"},"properties":{"osm_id":"1873660046","tag":{"amenity":"waste_basket"}},"type":"Feature"},
	{"geometry":{"coordinates":[8.701472,51.646453],"type":"Point"},"properties":{"osm_id":"1873660048","tag":{"amenity":"waste_basket"}},"type":"Feature"},
	{"geometry":{"coordinates":[8.702815,51.64656],"type":"Point"},"properties":{"osm_id":"1873660058","tag":{"amenity":"waste_basket"}},"type":"Feature"},
	{"geometry":{"coordinates":[8.72822,51.658949],"type":"Point"},"properties":{"osm_id":"1903157616","tag":{"amenity":"waste_basket"}},"type":"Feature"},
	{"geometry":{"coordinates":[8.763727,51.63328],"type":"Point"},"properties":{"osm_id":"1938814878","tag":{"amenity":"waste_basket"}},"type":"Feature"},
	{"geometry":{"coordinates":[8.757344,51.644552],"type":"Point"},"properties":{"osm_id":"1938814895","tag":{"amenity":"waste_basket"}},"type":"Feature"},
	{"geometry":{"coordinates":[8.761303,51.631719],"type":"Point"},"properties":{"osm_id":"1939338459","tag":{"amenity":"waste_basket"}},"type":"Feature"},
	{"geometry":{"coordinates":[8.763002,51.628279],"type":"Point"},"properties":{"osm_id":"1940650501","tag":{"amenity":"recycling","recycling:clothes":"yes","recycling:glass":"yes"}},"type":"Feature"},
	{"geometry":{"coordinates":[8.761738,51.619128],"type":"Point"},"properties":{"osm_id":"1941558974","tag":{"amenity":"waste_basket"}},"type":"Feature"},
	{"geometry":{"coordinates":[8.730031,51.66783],"type":"Point"},"properties":{"osm_id":"2003803109","tag":{"amenity":"waste_basket"}},"type":"Feature"},
	{"geometry":{"coordinates":[8.726446,51.647742],"type":"Point"},"properties":{"osm_id":"2201535193","tag":{"amenity":"waste_basket"}},"type":"Feature"},
	{"geometry":{"coordinates":[8.766908,51.628769],"type":"Point"},"properties":{"osm_id":"2324423738","tag":{"amenity":"waste_basket"}},"type":"Feature"},
	{"geometry":{"coordinates":[8.766883,51.629558],"type":"Point"},"properties":{"osm_id":"2324423776","tag":{"amenity":"waste_basket"}},"type":"Feature"},
	{"geometry":{"coordinates":[8.759602,51.629242],"type":"Point"},"properties":{"osm_id":"2325435768","tag":{"amenity":"waste_basket"}},"type":"Feature"},
	{"geometry":{"coordinates":[8.756167,51.629453],"type":"Point"},"properties":{"osm_id":"2325435796","tag":{"amenity":"waste_basket"}},"type":"Feature"},
	{"geometry":{"coordinates":[8.776115,51.660759],"type":"Point"},"properties":{"osm_id":"2420286265","tag":{"amenity":"waste_basket"}},"type":"Feature"},
	{"geometry":{"coordinates":[8.728209,51.666682],"type":"Point"},"properties":{"osm_id":"2554390381","tag":{"amenity":"waste_basket"}},"type":"Feature"},
	{"geometry":{"coordinates":[8.727987,51.664635],"type":"Point"},"properties":{"osm_id":"2843817697","tag":{"amenity":"waste_basket"}},"type":"Feature"},
	{"geometry":{"coordinates":[8.713095,51.669189],"type":"Point"},"properties":{"osm_id":"2927644649","tag":{"amenity":"waste_basket"}},"type":"Feature"},
	{"geometry":{"coordinates":[8.713864,51.669747],"type":"Point"},"properties":{"osm_id":"2927644650","tag":{"amenity":"waste_basket"}},"type":"Feature"},
	{"geometry":{"coordinates":[8.715151,51.670488],"type":"Point"},"properties":{"osm_id":"2927644651","tag":{"amenity":"waste_basket"}},"type":"Feature"},
	{"geometry":{"coordinates":[8.72087,51.659325],"type":"Point"},"properties":{"osm_id":"2934825199","tag":{"amenity":"waste_basket"}},"type":"Feature"},
	{"geometry":{"coordinates":[8.720863,51.659483],"type":"Point"},"properties":{"osm_id":"2934825513","tag":{"amenity":"waste_basket"}},"type":"Feature"},
	{"geometry":{"coordinates":[8.720751,51.659702],"type":"Point"},"properties":{"osm_id":"2934825526","tag":{"amenity":"waste_basket"}},"type":"Feature"},
	{"geometry":{"coordinates":[8.732368,51.659049],"type":"Point"},"properties":{"osm_id":"3141760495","tag":{"amenity":"recycling","recycling:clothes":"yes","recycling:glass_bottles":"yes","recycling_type":"container"}},"type":"Feature"},
	{"geometry":{"coordinates":[8.746767,51.665942],"type":"Point"},"properties":{"osm_id":"3141760762","tag":{"amenity":"waste_basket"}},"type":"Feature"},
	{"geometry":{"coordinates":[8.707394,51.651567],"type":"Point"},"properties":{"osm_id":"3373690387","tag":{"amenity":"waste_basket"}},"type":"Feature"},
	{"geometry":{"coordinates":[8.743159,51.637615],"type":"Point"},"properties":{"osm_id":"3450796189","tag":{"amenity":"waste_basket"}},"type":"Feature"},
	{"geometry":{"coordinates":[8.760841,51.643606],"type":"Point"},"properties":{"osm_id":"3453429730","tag":{"amenity":"waste_basket"}},"type":"Feature"},
	{"geometry":{"coordinates":[8.759879,51.643617],"type":"Point"},"properties":{"osm_id":"3453429740","tag":{"amenity":"waste_basket"}},"type":"Feature"},
	{"geometry":{"coordinates":[8.726072,51.654292],"type":"Point"},"properties":{"osm_id":"3651585545","tag":{"amenity":"waste_basket"}},"type":"Feature"},
	{"geometry":{"coordinates":[8.762016,51.6643],"type":"Point"},"properties":{"osm_id":"3652474560","tag":{"amenity":"waste_basket"}},"type":"Feature"},
	{"geometry":{"coordinates":[8.723173,51.65915],"type":"Point"},"properties":{"osm_id":"3944888340","tag":{"amenity":"waste_basket"}},"type":"Feature"},
	{"geometry":{"coordinates":[8.70289,51.669624],"type":"Point"},"properties":{"osm_id":"4155556437","tag":{"amenity":"waste_basket"}},"type":"Feature"},
	{"geometry":{"coordinates":[8.727544,51.666051],"type":"Point"},"properties":{"osm_id":"4584325976","tag":{"amenity":"waste_basket"}},"type":"Feature"},
	{"geometry":{"coordinates":[8.720883,51.654133],"type":"Point"},"properties":{"osm_id":"4596837447","tag":{"amenity":"waste_basket"}},"type":"Feature"},
	{"geometry":{"coordinates":[8.719067,51.653553],"type":"Point"},"properties":{"osm_id":"4781967451","tag":{"amenity":"waste_basket"}},"type":"Feature"},
	{"geometry":{"coordinates":[8.722147,51.652515],"type":"Point"},"properties":{"osm_id":"4781974438","tag":{"amenity":"waste_basket"}},"type":"Feature"},
	{"geometry":{"coordinates":[8.724669,51.654493],"type":"Point"},"properties":{"osm_id":"4781981659","tag":{"amenity":"waste_basket"}},"type":"Feature"},
	{"geometry":{"coordinates":[8.724977,51.653879],"type":"Point"},"properties":{"osm_id":"4781981660","tag":{"amenity":"waste_basket"}},"type":"Feature"},
	{"geometry":{"coordinates":[8.722933,51.672388],"type":"Point"},"properties":{"osm_id":"4854304927","tag":{"amenity":"recycling","recycling:clothes":"yes","recycling_type":"container"}},"type":"Feature"},
	{"geometry":{"coordinates":[8.725408,51.670047],"type":"Point"},"properties":{"osm_id":"4859830435","tag":{"amenity":"waste_basket"}},"type":"Feature"},
	{"geometry":{"coordinates":[8.728703,51.66862],"type":"Point"},"properties":{"osm_id":"4936595755","tag":{"amenity":"waste_basket"}},"type":"Feature"},
	{"geometry":{"coordinates":[8.723561,51.66904],"type":"Point"},"properties":{"osm_id":"5437037213","tag":{"amenity":"recycling","recycling:clothes":"yes","recycling_type":"container"}},"type":"Feature"},
	{"geometry":{"coordinates":[8.719475,51.666607],"type":"Point"},"properties":{"osm_id":"5437110228","tag":{"amenity":"waste_basket"}},"type":"Feature"},
	{"geometry":{"coordinates":[8.729161,51.651966],"type":"Point"},"properties":{"osm_id":"5451430778","tag":{"amenity":"waste_basket"}},"type":"Feature"},
	{"geometry":{"coordinates":[8.710698,51.664221],"type":"Point"},"properties":{"osm_id":"5912699444","tag":{"amenity":"waste_basket"}},"type":"Feature"},
	{"geometry":{"coordinates":[8.720179,51.657204],"type":"Point"},"properties":{"osm_id":"6708850900","tag":{"amenity":"waste_basket"}},"type":"Feature"},
	{"geometry":{"coordinates":[8.719953,51.658092],"type":"Point"},"properties":{"osm_id":"6708850907","tag":{"amenity":"waste_basket"}},"type":"Feature"},
	{"geometry":{"coordinates":[8.719888,51.658344],"type":"Point"},"properties":{"osm_id":"6708850924","tag":{"amenity":"waste_basket"}},"type":"Feature"},
	{"geometry":{"coordinates":[8.737479,51.650562],"type":"Point"},"properties":{"osm_id":"6913965117","tag":{"amenity":"waste_basket"}},"type":"Feature"},
	{"geometry":{"coordinates":[8.720733,51.666209],"type":"Point"},"properties":{"osm_id":"6965034375","tag":{"amenity":"waste_basket"}},"type":"Feature"},
	{"geometry":{"coordinates":[8.720107,51.665524],"type":"Point"},"properties":{"osm_id":"6965034376","tag":{"amenity":"waste_basket"}},"type":"Feature"},
	{"geometry":{"coordinates":[8.713698,51.666164],"type":"Point"},"properties":{"osm_id":"7495068856","tag":{"amenity":"waste_basket"}},"type":"Feature"},
	{"geometry":{"coordinates":[8.720637,51.653407],"type":"Point"},"properties":{"osm_id":"7655827535","tag":{"amenity":"waste_basket"}},"type":"Feature"},
	{"geometry":{"coordinates":[8.719426,51.666862],"type":"Point"},"properties":{"osm_id":"7710075867","tag":{"amenity":"waste_basket"}},"type":"Feature"}
]
}
