{
"type": "FeatureCollection",
"features": [
	{"geometry":{"coordinates":[8.713565,50.585075],"type":"Point"},"properties":{"osm_id":"245055138","tag":{"amenity":"recycling","recycling:batteries":"no","recycling:books":"no","recycling:cartons":"no","recycling:glass_bottles":"yes","recycling:green_waste":"no","recycling:magazines":"no","recycling:newspaper":"no","recycling:paper":"no","recycling:paper_packaging":"no","recycling:plastic":"no","recycling_type":"container"}},"type":"Feature"},
	{"geometry":{"coordinates":[8.747052,50.598499],"type":"Point"},"properties":{"osm_id":"245069000","tag":{"amenity":"recycling","recycling_type":"container"}},"type":"Feature"},
	{"geometry":{"coordinates":[8.751018,50.601018],"type":"Point"},"properties":{"osm_id":"245069190","tag":{"amenity":"recycling"}},"type":"Feature"},
	{"geometry":{"coordinates":[8.751933,50.611084],"type":"Point"},"properties":{"osm_id":"245409206","tag":{"amenity":"recycling"}},"type":"Feature"},
	{"geometry":{"coordinates":[8.748949,50.621508],"type":"Point"},"properties":{"osm_id":"245415959","tag":{"amenity":"recycling"}},"type":"Feature"},
	{"geometry":{"coordinates":[8.753165,50.619782],"type":"Point"},"properties":{"osm_id":"245423155","tag":{"amenity":"recycling"}},"type":"Feature"},
	{"geometry":{"coordinates":[8.749447,50.579485],"type":"Point"},"properties":{"osm_id":"247751992","tag":{"amenity":"recycling","location":"overground","recycling:glass_bottles":"yes","recycling_type":"container"}},"type":"Feature"},
	{"geometry":{"coordinates":[8.757544,50.577932],"type":"Point"},"properties":{"osm_id":"247752009","tag":{"amenity":"recycling"}},"type":"Feature"},
	{"geometry":{"coordinates":[8.77942,50.606492],"type":"Point"},"properties":{"osm_id":"253773445","tag":{"amenity":"recycling","recycling_type":"container"}},"type":"Feature"},
	{"geometry":{"coordinates":[8.788254,50.601176],"type":"Point"},"properties":{"osm_id":"253773847","tag":{"amenity":"recycling","recycling_type":"container"}},"type":"Feature"},
	{"geometry":{"coordinates":[8.78467,50.605258],"type":"Point"},"properties":{"osm_id":"253773860","tag":{"amenity":"recycling","recycling_type":"container"}},"type":"Feature"},
	{"geometry":{"coordinates":[8.71545,50.610233],"type":"Point"},"properties":{"osm_id":"282066926","tag":{"amenity":"recycling","recycling:batteries":"no","recycling:books":"no","recycling:cartons":"no","recycling:clothes":"yes","recycling:glass_bottles":"yes","recycling:green_waste":"no","recycling:magazines":"no","recycling:newspaper":"no","recycling:paper":"no","recycling:paper_packaging":"no","recycling:plastic":"no","recycling:shoes":"yes","recycling_type":"container"}},"type":"Feature"},
	{"geometry":{"coordinates":[8.711305,50.610604],"type":"Point"},"properties":{"osm_id":"297460931","tag":{"amenity":"recycling","recycling:batteries":"no","recycling:books":"no","recycling:cartons":"no","recycling:glass_bottles":"yes","recycling:green_waste":"no","recycling:magazines":"no","recycling:newspaper":"no","recycling:paper":"no","recycling:paper_packaging":"no","recycling:plastic":"no","recycling_type":"container"}},"type":"Feature"},
	{"geometry":{"coordinates":[8.705961,50.581661],"type":"Point"},"properties":{"osm_id":"312467834","tag":{"amenity":"recycling","recycling:clothes":"yes","recycling:glass_bottles":"yes","recycling_type":"container"}},"type":"Feature"},
	{"geometry":{"coordinates":[8.703896,50.604101],"type":"Point"},"properties":{"osm_id":"315577974","tag":{"amenity":"recycling"}},"type":"Feature"},
	{"geometry":{"coordinates":[8.788384,50.609033],"type":"Point"},"properties":{"osm_id":"318913288","tag":{"amenity":"recycling","recycling_type":"container"}},"type":"Feature"},
	{"geometry":{"coordinates":[8.73531,50.618877],"type":"Point"},"properties":{"osm_id":"334756250","tag":{"amenity":"recycling"}},"type":"Feature"},
	{"geometry":{"coordinates":[8.702125,50.613037],"type":"Point"},"properties":{"osm_id":"390564850","tag":{"amenity":"recycling","recycling:batteries":"no","recycling:books":"no","recycling:cartons":"no","recycling:clothes":"yes","recycling:glass_bottles":"yes","recycling:green_waste":"no","recycling:magazines":"no","recycling:newspaper":"no","recycling:paper":"no","recycling:paper_packaging":"no","recycling:plastic":"no","recycling_type":"container"}},"type":"Feature"},
	{"geometry":{"coordinates":[8.71399,50.607398],"type":"Point"},"properties":{"osm_id":"392688215","tag":{"amenity":"recycling","recycling:batteries":"no","recycling:books":"no","recycling:cartons":"no","recycling:clothes":"yes","recycling:glass_bottles":"yes","recycling:green_waste":"no","recycling:magazines":"no","recycling:newspaper":"no","recycling:paper":"no","recycling:paper_packaging":"no","recycling:plastic":"no","recycling_type":"container"}},"type":"Feature"},
	{"geometry":{"coordinates":[8.716452,50.588001],"type":"Point"},"properties":{"osm_id":"738105806","tag":{"amenity":"recycling","recycling:batteries":"no","recycling:books":"no","recycling:cartons":"no","recycling:glass_bottles":"yes","recycling:green_waste":"no","recycling:magazines":"no","recycling:newspaper":"no","recycling:paper":"no","recycling:paper_packaging":"no","recycling:plastic":"no","recycling_type":"container"}},"type":"Feature"},
	{"geometry":{"coordinates":[8.705961,50.587955],"type":"Point"},"properties":{"osm_id":"738106103","tag":{"amenity":"recycling","recycling:batteries":"no","recycling:books":"no","recycling:cartons":"no","recycling:clothes":"yes","recycling:glass_bottles":"yes","recycling:green_waste":"no","recycling:magazines":"no","recycling:newspaper":"no","recycling:paper":"no","recycling:paper_packaging":"no","recycling:plastic":"no","recycling_type":"container"}},"type":"Feature"},
	{"geometry":{"coordinates":[8.702867,50.589779],"type":"Point"},"properties":{"osm_id":"778177213","tag":{"amenity":"recycling","recycling:batteries":"no","recycling:books":"no","recycling:cartons":"no","recycling:clothes":"yes","recycling:glass_bottles":"yes","recycling:green_waste":"no","recycling:magazines":"no","recycling:newspaper":"no","recycling:paper":"no","recycling:paper_packaging":"no","recycling:plastic":"no","recycling_type":"container"}},"type":"Feature"},
	{"geometry":{"coordinates":[8.713604,50.589397],"type":"Point"},"properties":{"osm_id":"778177216","tag":{"amenity":"recycling","recycling:batteries":"no","recycling:books":"no","recycling:cartons":"no","recycling:clothes":"no","recycling:glass_bottles":"yes","recycling:green_waste":"no","recycling:magazines":"no","recycling:newspaper":"no","recycling:paper":"no","recycling:paper_packaging":"no","recycling:plastic":"no","recycling_type":"container"}},"type":"Feature"},
	{"geometry":{"coordinates":[8.752951,50.579459],"type":"Point"},"properties":{"osm_id":"808287427","tag":{"amenity":"waste_basket"}},"type":"Feature"},
	{"geometry":{"coordinates":[8.753428,50.602574],"type":"Point"},"properties":{"osm_id":"905598662","tag":{"amenity":"waste_basket"}},"type":"Feature"},
	{"geometry":{"coordinates":[8.750203,50.611554],"type":"Point"},"properties":{"osm_id":"1199956621","tag":{"amenity":"waste_basket"}},"type":"Feature"},
	{"geometry":{"coordinates":[8.750405,50.611538],"type":"Point"},"properties":{"osm_id":"1199956628","tag":{"amenity":"waste_basket"}},"type":"Feature"},
	{"geometry":{"coordinates":[8.727125,50.575694],"type":"Point"},"properties":{"osm_id":"1244418505","tag":{"amenity":"waste_basket"}},"type":"Feature"},
	{"geometry":{"coordinates":[8.750698,50.601035],"type":"Point"},"properties":{"osm_id":"2446048670","tag":{"amenity":"recycling","recycling:clothes":"yes","recycling_type":"container"}},"type":"Feature"},
	{"geometry":{"coordinates":[8.780129,50.605686],"type":"Point"},"properties":{"osm_id":"2449154384","tag":{"amenity":"recycling","recycling:clothes":"yes","recycling_type":"container"}},"type":"Feature"},
	{"geometry":{"coordinates":[8.709827,50.576209],"type":"Point"},"properties":{"osm_id":"2583492395","tag":{"amenity":"waste_basket"}},"type":"Feature"},
	{"geometry":{"coordinates":[8.709701,50.576518],"type":"Point"},"properties":{"osm_id":"2583492396","tag":{"amenity":"waste_basket"}},"type":"Feature"},
	{"geometry":{"coordinates":[8.706121,50.58154],"type":"Point"},"properties":{"osm_id":"2583492397","tag":{"amenity":"waste_basket"}},"type":"Feature"},
	{"geometry":{"coordinates":[8.713662,50.586912],"type":"Point"},"properties":{"osm_id":"2583492404","tag":{"amenity":"waste_basket"}},"type":"Feature"},
	{"geometry":{"coordinates":[8.713951,50.586931],"type":"Point"},"properties":{"osm_id":"2583492405","tag":{"amenity":"waste_basket"}},"type":"Feature"},
	{"geometry":{"coordinates":[8.71336,50.588757],"type":"Point"},"properties":{"osm_id":"2583492406","tag":{"amenity":"waste_basket"}},"type":"Feature"},
	{"geometry":{"coordinates":[8.712657,50.58908],"type":"Point"},"properties":{"osm_id":"2583492407","tag":{"amenity":"waste_basket"}},"type":"Feature"},
	{"geometry":{"coordinates":[8.714238,50.589201],"type":"Point"},"properties":{"osm_id":"2583492408","tag":{"amenity":"waste_basket"}},"type":"Feature"},
	{"geometry":{"coordinates":[8.716328,50.58978],"type":"Point"},"properties":{"osm_id":"2583492410","tag":{"amenity":"waste_basket"}},"type":"Feature"},
	{"geometry":{"coordinates":[8.717906,50.589932],"type":"Point"},"properties":{"osm_id":"2583492411","tag":{"amenity":"waste_basket"}},"type":"Feature"},
	{"geometry":{"coordinates":[8.751909,50.599388],"type":"Point"},"properties":{"osm_id":"3611208787","tag":{"amenity":"waste_basket"}},"type":"Feature"},
	{"geometry":{"coordinates":[8.728782,50.57291],"type":"Point"},"properties":{"osm_id":"3649369472","tag":{"amenity":"waste_basket"}},"type":"Feature"},
	{"geometry":{"coordinates":[8.701629,50.584896],"type":"Point"},"properties":{"osm_id":"3719079053","tag":{"amenity":"waste_basket"}},"type":"Feature"},
	{"geometry":{"coordinates":[8.729908,50.605277],"type":"Point"},"properties":{"osm_id":"3926122830","tag":{"amenity":"waste_basket"}},"type":"Feature"},
	{"geometry":{"coordinates":[8.72266,50.605715],"type":"Point"},"properties":{"osm_id":"3926122832","tag":{"amenity":"waste_basket"}},"type":"Feature"},
	{"geometry":{"coordinates":[8.739193,50.606583],"type":"Point"},"properties":{"osm_id":"3926122854","tag":{"amenity":"waste_basket"}},"type":"Feature"},
	{"geometry":{"coordinates":[8.703601,50.581334],"type":"Point"},"properties":{"osm_id":"3930641409","tag":{"amenity":"recycling","recycling:batteries":"no","recycling:books":"no","recycling:cartons":"no","recycling:clothes":"yes","recycling:glass_bottles":"yes","recycling:green_waste":"no","recycling:magazines":"no","recycling:newspaper":"no","recycling:paper":"no","recycling:paper_packaging":"no","recycling:plastic":"no","recycling_type":"container"}},"type":"Feature"},
	{"geometry":{"coordinates":[8.707228,50.606353],"type":"Point"},"properties":{"osm_id":"3936144488","tag":{"amenity":"recycling","recycling:green_waste":"yes","recycling_type":"container"}},"type":"Feature"},
	{"geometry":{"coordinates":[8.707222,50.606369],"type":"Point"},"properties":{"osm_id":"3936144490","tag":{"amenity":"waste_basket"}},"type":"Feature"},
	{"geometry":{"coordinates":[8.705897,50.607911],"type":"Point"},"properties":{"osm_id":"3936144546","tag":{"amenity":"waste_basket"}},"type":"Feature"},
	{"geometry":{"coordinates":[8.706841,50.608029],"type":"Point"},"properties":{"osm_id":"3936144552","tag":{"amenity":"recycling","recycling:green_waste":"yes","recycling_type":"container"}},"type":"Feature"},
	{"geometry":{"coordinates":[8.706864,50.608037],"type":"Point"},"properties":{"osm_id":"3936144553","tag":{"amenity":"waste_basket"}},"type":"Feature"},
	{"geometry":{"coordinates":[8.706025,50.608517],"type":"Point"},"properties":{"osm_id":"3936144561","tag":{"amenity":"waste_basket"}},"type":"Feature"},
	{"geometry":{"coordinates":[8.70571,50.608724],"type":"Point"},"properties":{"osm_id":"3936144565","tag":{"amenity":"waste_basket"}},"type":"Feature"},
	{"geometry":{"coordinates":[8.705519,50.608785],"type":"Point"},"properties":{"osm_id":"3936144566","tag":{"amenity":"waste_basket"}},"type":"Feature"},
	{"geometry":{"coordinates":[8.703935,50.590562],"type":"Point"},"properties":{"osm_id":"3951622793","tag":{"amenity":"waste_basket"}},"type":"Feature"},
	{"geometry":{"coordinates":[8.70369,50.59064],"type":"Point"},"properties":{"osm_id":"3951622797","tag":{"amenity":"waste_basket"}},"type":"Feature"},
	{"geometry":{"coordinates":[8.707034,50.601688],"type":"Point"},"properties":{"osm_id":"4050224522","tag":{"amenity":"waste_basket"}},"type":"Feature"},
	{"geometry":{"coordinates":[8.706685,50.601867],"type":"Point"},"properties":{"osm_id":"4050224532","tag":{"amenity":"waste_basket"}},"type":"Feature"},
	{"geometry":{"coordinates":[8.713834,50.606842],"type":"Point"},"properties":{"osm_id":"4063760664","tag":{"amenity":"waste_basket"}},"type":"Feature"},
	{"geometry":{"coordinates":[8.714076,50.607726],"type":"Point"},"properties":{"osm_id":"4063760666","tag":{"amenity":"waste_basket"}},"type":"Feature"},
	{"geometry":{"coordinates":[8.713809,50.608432],"type":"Point"},"properties":{"osm_id":"4063760668","tag":{"amenity":"waste_basket"}},"type":"Feature"},
	{"geometry":{"coordinates":[8.714407,50.610291],"type":"Point"},"properties":{"osm_id":"4063760672","tag":{"amenity":"waste_basket"}},"type":"Feature"},
	{"geometry":{"coordinates":[8.704218,50.575909],"type":"Point"},"properties":{"osm_id":"4066956430","tag":{"amenity":"waste_basket"}},"type":"Feature"},
	{"geometry":{"coordinates":[8.70554,50.579106],"type":"Point"},"properties":{"osm_id":"4066956432","tag":{"amenity":"waste_basket"}},"type":"Feature"},
	{"geometry":{"coordinates":[8.707674,50.5806],"type":"Point"},"properties":{"osm_id":"4066956435","tag":{"amenity":"waste_basket"}},"type":"Feature"},
	{"geometry":{"coordinates":[8.705413,50.579115],"type":"Point"},"properties":{"osm_id":"4066956440","tag":{"amenity":"waste_basket"}},"type":"Feature"},
	{"geometry":{"coordinates":[8.708624,50.580958],"type":"Point"},"properties":{"osm_id":"4066956445","tag":{"amenity":"waste_basket"}},"type":"Feature"},
	{"geometry":{"coordinates":[8.70549,50.57877],"type":"Point"},"properties":{"osm_id":"4066956447","tag":{"amenity":"waste_basket"}},"type":"Feature"},
	{"geometry":{"coordinates":[8.707484,50.579709],"type":"Point"},"properties":{"osm_id":"4068170824","tag":{"amenity":"waste_basket"}},"type":"Feature"},
	{"geometry":{"coordinates":[8.717826,50.587278],"type":"Point"},"properties":{"osm_id":"4068170884","tag":{"amenity":"waste_basket"}},"type":"Feature"},
	{"geometry":{"coordinates":[8.718136,50.587391],"type":"Point"},"properties":{"osm_id":"4068170890","tag":{"amenity":"waste_basket"}},"type":"Feature"},
	{"geometry":{"coordinates":[8.716964,50.587669],"type":"Point"},"properties":{"osm_id":"4068170929","tag":{"amenity":"waste_basket"}},"type":"Feature"},
	{"geometry":{"coordinates":[8.718939,50.587778],"type":"Point"},"properties":{"osm_id":"4068170939","tag":{"amenity":"waste_basket"}},"type":"Feature"},
	{"geometry":{"coordinates":[8.71675,50.587796],"type":"Point"},"properties":{"osm_id":"4068170945","tag":{"amenity":"waste_basket"}},"type":"Feature"},
	{"geometry":{"coordinates":[8.705931,50.583091],"type":"Point"},"properties":{"osm_id":"4124063191","tag":{"amenity":"waste_basket"}},"type":"Feature"},
	{"geometry":{"coordinates":[8.713238,50.606088],"type":"Point"},"properties":{"osm_id":"4124063207","tag":{"amenity":"waste_basket"}},"type":"Feature"},
	{"geometry":{"coordinates":[8.713514,50.606136],"type":"Point"},"properties":{"osm_id":"4124063209","tag":{"amenity":"waste_basket"}},"type":"Feature"},
	{"geometry":{"coordinates":[8.713306,50.606168],"type":"Point"},"properties":{"osm_id":"4124063210","tag":{"amenity":"waste_basket"}},"type":"Feature"},
	{"geometry":{"coordinates":[8.706361,50.58139],"type":"Point"},"properties":{"osm_id":"4145085253","tag":{"amenity":"waste_basket"}},"type":"Feature"},
	{"geometry":{"coordinates":[8.706587,50.581614],"type":"Point"},"properties":{"osm_id":"4145085267","tag":{"amenity":"waste_basket"}},"type":"Feature"},
	{"geometry":{"coordinates":[8.704971,50.584214],"type":"Point"},"properties":{"osm_id":"4145085702","tag":{"amenity":"waste_basket"}},"type":"Feature"},
	{"geometry":{"coordinates":[8.705229,50.584396],"type":"Point"},"properties":{"osm_id":"4145085708","tag":{"amenity":"waste_basket"}},"type":"Feature"},
	{"geometry":{"coordinates":[8.705435,50.584542],"type":"Point"},"properties":{"osm_id":"4145085709","tag":{"amenity":"waste_basket"}},"type":"Feature"},
	{"geometry":{"coordinates":[8.704205,50.584584],"type":"Point"},"properties":{"osm_id":"4145085712","tag":{"amenity":"waste_basket"}},"type":"Feature"},
	{"geometry":{"coordinates":[8.704393,50.58471],"type":"Point"},"properties":{"osm_id":"4145085715","tag":{"amenity":"waste_basket"}},"type":"Feature"},
	{"geometry":{"coordinates":[8.705275,50.584753],"type":"Point"},"properties":{"osm_id":"4145085719","tag":{"amenity":"waste_basket"}},"type":"Feature"},
	{"geometry":{"coordinates":[8.704615,50.584857],"type":"Point"},"properties":{"osm_id":"4145085723","tag":{"amenity":"waste_basket"}},"type":"Feature"},
	{"geometry":{"coordinates":[8.704838,50.584927],"type":"Point"},"properties":{"osm_id":"4145085725","tag":{"amenity":"waste_basket"}},"type":"Feature"},
	{"geometry":{"coordinates":[8.702215,50.585372],"type":"Point"},"properties":{"osm_id":"4145085733","tag":{"amenity":"waste_basket"}},"type":"Feature"},
	{"geometry":{"coordinates":[8.701854,50.585565],"type":"Point"},"properties":{"osm_id":"4145085738","tag":{"amenity":"waste_basket"}},"type":"Feature"},
	{"geometry":{"coordinates":[8.706947,50.578903],"type":"Point"},"properties":{"osm_id":"4161294614","tag":{"amenity":"recycling","recycling:glass":"yes","recycling_type":"container"}},"type":"Feature"},
	{"geometry":{"coordinates":[8.713549,50.610022],"type":"Point"},"properties":{"osm_id":"4161660789","tag":{"amenity":"waste_basket"}},"type":"Feature"},
	{"geometry":{"coordinates":[8.71332,50.589243],"type":"Point"},"properties":{"osm_id":"4166330334","tag":{"amenity":"recycling","recycling:batteries":"no","recycling:books":"no","recycling:cartons":"no","recycling:clothes":"yes","recycling:glass_bottles":"no","recycling:green_waste":"no","recycling:magazines":"no","recycling:newspaper":"no","recycling:paper":"no","recycling:paper_packaging":"no","recycling:plastic":"no","recycling_type":"container"}},"type":"Feature"},
	{"geometry":{"coordinates":[8.702807,50.61197],"type":"Point"},"properties":{"osm_id":"4167879652","tag":{"amenity":"waste_basket"}},"type":"Feature"},
	{"geometry":{"coordinates":[8.70721,50.605307],"type":"Point"},"properties":{"osm_id":"4173223089","tag":{"amenity":"waste_basket"}},"type":"Feature"},
	{"geometry":{"coordinates":[8.704291,50.610407],"type":"Point"},"properties":{"osm_id":"4173242946","tag":{"amenity":"waste_basket"}},"type":"Feature"},
	{"geometry":{"coordinates":[8.705954,50.581776],"type":"Point"},"properties":{"osm_id":"4173481396","tag":{"amenity":"recycling","recycling:clothes":"no","recycling:glass_bottles":"yes","recycling_type":"container"}},"type":"Feature"},
	{"geometry":{"coordinates":[8.711678,50.573573],"type":"Point"},"properties":{"osm_id":"4179018452","tag":{"amenity":"waste_basket"}},"type":"Feature"},
	{"geometry":{"coordinates":[8.707682,50.573591],"type":"Point"},"properties":{"osm_id":"4179018454","tag":{"amenity":"waste_basket"}},"type":"Feature"},
	{"geometry":{"coordinates":[8.712134,50.574073],"type":"Point"},"properties":{"osm_id":"4179018457","tag":{"amenity":"waste_basket"}},"type":"Feature"},
	{"geometry":{"coordinates":[8.789041,50.605475],"type":"Point"},"properties":{"osm_id":"4183390428","tag":{"amenity":"waste_basket"}},"type":"Feature"},
	{"geometry":{"coordinates":[8.711029,50.589755],"type":"Point"},"properties":{"osm_id":"4198805665","tag":{"amenity":"waste_basket"}},"type":"Feature"},
	{"geometry":{"coordinates":[8.710632,50.589822],"type":"Point"},"properties":{"osm_id":"4198805668","tag":{"amenity":"waste_basket"}},"type":"Feature"},
	{"geometry":{"coordinates":[8.71302,50.590075],"type":"Point"},"properties":{"osm_id":"4198805677","tag":{"amenity":"waste_basket"}},"type":"Feature"},
	{"geometry":{"coordinates":[8.71309,50.59013],"type":"Point"},"properties":{"osm_id":"4198805686","tag":{"amenity":"waste_basket"}},"type":"Feature"},
	{"geometry":{"coordinates":[8.713147,50.590212],"type":"Point"},"properties":{"osm_id":"4198805690","tag":{"amenity":"waste_basket"}},"type":"Feature"},
	{"geometry":{"coordinates":[8.749699,50.599911],"type":"Point"},"properties":{"osm_id":"4237639478","tag":{"amenity":"waste_basket"}},"type":"Feature"},
	{"geometry":{"coordinates":[8.750217,50.60026],"type":"Point"},"properties":{"osm_id":"4239294702","tag":{"amenity":"waste_basket"}},"type":"Feature"},
	{"geometry":{"coordinates":[8.753552,50.60304],"type":"Point"},"properties":{"osm_id":"4239328478","tag":{"amenity":"waste_basket"}},"type":"Feature"},
	{"geometry":{"coordinates":[8.753085,50.603128],"type":"Point"},"properties":{"osm_id":"4239328479","tag":{"amenity":"waste_basket"}},"type":"Feature"},
	{"geometry":{"coordinates":[8.753082,50.603245],"type":"Point"},"properties":{"osm_id":"4239328483","tag":{"amenity":"waste_basket"}},"type":"Feature"},
	{"geometry":{"coordinates":[8.702011,50.569774],"type":"Point"},"properties":{"osm_id":"4242985668","tag":{"amenity":"waste_basket"}},"type":"Feature"},
	{"geometry":{"coordinates":[8.70199,50.570085],"type":"Point"},"properties":{"osm_id":"4251346219","tag":{"amenity":"waste_basket"}},"type":"Feature"},
	{"geometry":{"coordinates":[8.701269,50.570634],"type":"Point"},"properties":{"osm_id":"4251346223","tag":{"amenity":"waste_basket"}},"type":"Feature"},
	{"geometry":{"coordinates":[8.776988,50.603841],"type":"Point"},"properties":{"osm_id":"4253454441","tag":{"amenity":"waste_basket"}},"type":"Feature"},
	{"geometry":{"coordinates":[8.710527,50.605973],"type":"Point"},"properties":{"osm_id":"4253454445","tag":{"amenity":"waste_basket"}},"type":"Feature"},
	{"geometry":{"coordinates":[8.701451,50.587494],"type":"Point"},"properties":{"osm_id":"4294996366","tag":{"amenity":"waste_basket"}},"type":"Feature"},
	{"geometry":{"coordinates":[8.703048,50.58855],"type":"Point"},"properties":{"osm_id":"4294996795","tag":{"amenity":"waste_basket"}},"type":"Feature"},
	{"geometry":{"coordinates":[8.702755,50.588937],"type":"Point"},"properties":{"osm_id":"4294996806","tag":{"amenity":"waste_basket"}},"type":"Feature"},
	{"geometry":{"coordinates":[8.702705,50.590338],"type":"Point"},"properties":{"osm_id":"4294996807","tag":{"amenity":"waste_basket"}},"type":"Feature"},
	{"geometry":{"coordinates":[8.702634,50.59096],"type":"Point"},"properties":{"osm_id":"4294996810","tag":{"amenity":"waste_basket"}},"type":"Feature"},
	{"geometry":{"coordinates":[8.704759,50.608576],"type":"Point"},"properties":{"osm_id":"4300711560","tag":{"amenity":"waste_basket"}},"type":"Feature"},
	{"geometry":{"coordinates":[8.704906,50.608666],"type":"Point"},"properties":{"osm_id":"4300711571","tag":{"amenity":"waste_basket"}},"type":"Feature"},
	{"geometry":{"coordinates":[8.704814,50.608675],"type":"Point"},"properties":{"osm_id":"4300711574","tag":{"amenity":"waste_basket"}},"type":"Feature"},
	{"geometry":{"coordinates":[8.784766,50.607732],"type":"Point"},"properties":{"osm_id":"4370317068","tag":{"amenity":"waste_basket"}},"type":"Feature"},
	{"geometry":{"coordinates":[8.701617,50.572619],"type":"Point"},"properties":{"osm_id":"4482332878","tag":{"amenity":"waste_basket"}},"type":"Feature"},
	{"geometry":{"coordinates":[8.701421,50.573348],"type":"Point"},"properties":{"osm_id":"4482332886","tag":{"amenity":"waste_basket"}},"type":"Feature"},
	{"geometry":{"coordinates":[8.70151,50.573444],"type":"Point"},"properties":{"osm_id":"4482332887","tag":{"amenity":"waste_basket"}},"type":"Feature"},
	{"geometry":{"coordinates":[8.701448,50.574027],"type":"Point"},"properties":{"osm_id":"4482335290","tag":{"amenity":"waste_basket"}},"type":"Feature"},
	{"geometry":{"coordinates":[8.711221,50.587504],"type":"Point"},"properties":{"osm_id":"4560353782","tag":{"amenity":"waste_basket"}},"type":"Feature"},
	{"geometry":{"coordinates":[8.705514,50.579605],"type":"Point"},"properties":{"osm_id":"4693949010","tag":{"amenity":"waste_basket"}},"type":"Feature"},
	{"geometry":{"coordinates":[8.705293,50.580976],"type":"Point"},"properties":{"osm_id":"4705489920","tag":{"amenity":"waste_basket"}},"type":"Feature"},
	{"geometry":{"coordinates":[8.706931,50.601854],"type":"Point"},"properties":{"osm_id":"4743016701","tag":{"amenity":"waste_basket"}},"type":"Feature"},
	{"geometry":{"coordinates":[8.787512,50.611911],"type":"Point"},"properties":{"osm_id":"4881995256","tag":{"amenity":"waste_basket"}},"type":"Feature"},
	{"geometry":{"coordinates":[8.78825,50.609838],"type":"Point"},"properties":{"osm_id":"4882021981","tag":{"amenity":"waste_basket"}},"type":"Feature"},
	{"geometry":{"coordinates":[8.78826,50.610754],"type":"Point"},"properties":{"osm_id":"4882021982","tag":{"amenity":"waste_basket"}},"type":"Feature"},
	{"geometry":{"coordinates":[8.748722,50.576543],"type":"Point"},"properties":{"osm_id":"4892066570","tag":{"amenity":"waste_basket"}},"type":"Feature"},
	{"geometry":{"coordinates":[8.716536,50.607252],"type":"Point"},"properties":{"osm_id":"4946829456","tag":{"amenity":"waste_basket"}},"type":"Feature"},
	{"geometry":{"coordinates":[8.708263,50.610288],"type":"Point"},"properties":{"osm_id":"5033007914","tag":{"amenity":"waste_basket"}},"type":"Feature"},
	{"geometry":{"coordinates":[8.764751,50.575541],"type":"Point"},"properties":{"osm_id":"5169627838","tag":{"amenity":"waste_basket"}},"type":"Feature"},
	{"geometry":{"coordinates":[8.751207,50.620439],"type":"Point"},"properties":{"osm_id":"5173216945","tag":{"amenity":"waste_basket"}},"type":"Feature"},
	{"geometry":{"coordinates":[8.749768,50.579667],"type":"Point"},"properties":{"osm_id":"5175295097","tag":{"amenity":"recycling","recycling:clothes":"yes","recycling_type":"container"}},"type":"Feature"},
	{"geometry":{"coordinates":[8.753191,50.574982],"type":"Point"},"properties":{"osm_id":"5239996367","tag":{"amenity":"waste_basket"}},"type":"Feature"},
	{"geometry":{"coordinates":[8.775466,50.607988],"type":"Point"},"properties":{"osm_id":"5555187485","tag":{"amenity":"waste_basket"}},"type":"Feature"},
	{"geometry":{"coordinates":[8.72928,50.572794],"type":"Point"},"properties":{"osm_id":"5562219804","tag":{"amenity":"waste_basket"}},"type":"Feature"},
	{"geometry":{"coordinates":[8.761772,50.611529],"type":"Point"},"properties":{"osm_id":"5718654334","tag":{"amenity":"waste_basket"}},"type":"Feature"},
	{"geometry":{"coordinates":[8.788625,50.609424],"type":"Point"},"properties":{"osm_id":"5730900136","tag":{"amenity":"waste_basket"}},"type":"Feature"},
	{"geometry":{"coordinates":[8.756296,50.597002],"type":"Point"},"properties":{"osm_id":"5769176552","tag":{"amenity":"waste_basket"}},"type":"Feature"},
	{"geometry":{"coordinates":[8.749156,50.594581],"type":"Point"},"properties":{"osm_id":"5769176954","tag":{"amenity":"waste_basket"}},"type":"Feature"},
	{"geometry":{"coordinates":[8.761143,50.587386],"type":"Point"},"properties":{"osm_id":"5868934423","tag":{"amenity":"waste_basket"}},"type":"Feature"},
	{"geometry":{"coordinates":[8.751694,50.578851],"type":"Point"},"properties":{"osm_id":"5868934451","tag":{"amenity":"waste_basket"}},"type":"Feature"},
	{"geometry":{"coordinates":[8.757302,50.577742],"type":"Point"},"properties":{"osm_id":"5868942485","tag":{"amenity":"waste_basket"}},"type":"Feature"},
	{"geometry":{"coordinates":[8.754092,50.585483],"type":"Point"},"properties":{"osm_id":"5868942574","tag":{"amenity":"waste_basket"}},"type":"Feature"},
	{"geometry":{"coordinates":[8.756999,50.579765],"type":"Point"},"properties":{"osm_id":"5868942720","tag":{"amenity":"waste_basket"}},"type":"Feature"},
	{"geometry":{"coordinates":[8.701763,50.597981],"type":"Point"},"properties":{"osm_id":"5926916506","tag":{"amenity":"waste_basket"}},"type":"Feature"},
	{"geometry":{"coordinates":[8.706649,50.600706],"type":"Point"},"properties":{"osm_id":"5926916509","tag":{"amenity":"waste_basket"}},"type":"Feature"},
	{"geometry":{"coordinates":[8.74218,50.592048],"type":"Point"},"properties":{"osm_id":"5926939287","tag":{"amenity":"waste_basket"}},"type":"Feature"},
	{"geometry":{"coordinates":[8.707021,50.607679],"type":"Point"},"properties":{"osm_id":"6289334720","tag":{"amenity":"waste_basket"}},"type":"Feature"},
	{"geometry":{"coordinates":[8.706998,50.607672],"type":"Point"},"properties":{"osm_id":"6289334721","tag":{"amenity":"recycling","recycling:green_waste":"yes","recycling_type":"container"}},"type":"Feature"},
	{"geometry":{"coordinates":[8.710589,50.60732],"type":"Point"},"properties":{"osm_id":"6443252772","tag":{"amenity":"waste_basket"}},"type":"Feature"},
	{"geometry":{"coordinates":[8.712799,50.605247],"type":"Point"},"properties":{"osm_id":"6443298227","tag":{"amenity":"waste_basket"}},"type":"Feature"},
	{"geometry":{"coordinates":[8.711765,50.610333],"type":"Point"},"properties":{"osm_id":"6577635963","tag":{"amenity":"waste_basket"}},"type":"Feature"},
	{"geometry":{"coordinates":[8.746828,50.62285],"type":"Point"},"properties":{"osm_id":"6586795690","tag":{"amenity":"waste_basket"}},"type":"Feature"},
	{"geometry":{"coordinates":[8.750868,50.616858],"type":"Point"},"properties":{"osm_id":"6586795692","tag":{"amenity":"waste_basket"}},"type":"Feature"},
	{"geometry":{"coordinates":[8.714741,50.612114],"type":"Point"},"properties":{"osm_id":"6614986672","tag":{"amenity":"waste_basket"}},"type":"Feature"},
	{"geometry":{"coordinates":[8.71466,50.612162],"type":"Point"},"properties":{"osm_id":"6614986673","tag":{"amenity":"waste_basket"}},"type":"Feature"},
	{"geometry":{"coordinates":[8.773931,50.603499],"type":"Point"},"properties":{"osm_id":"6964533735","tag":{"amenity":"waste_basket"}},"type":"Feature"},
	{"geometry":{"coordinates":[8.78118,50.610821],"type":"Point"},"properties":{"osm_id":"7389930857","tag":{"amenity":"waste_basket"}},"type":"Feature"},
	{"geometry":{"coordinates":[8.78079,50.610963],"type":"Point"},"properties":{"osm_id":"7389930865","tag":{"amenity":"waste_basket"}},"type":"Feature"},
	{"geometry":{"coordinates":[8.766611,50.585296],"type":"Point"},"properties":{"osm_id":"7667925195","tag":{"amenity":"waste_basket"}},"type":"Feature"}
]
}
