{
"type": "FeatureCollection",
"features": [
	{"geometry":{"coordinates":[8.717193,50.331655],"type":"Point"},"properties":{"osm_id":"153084869","tag":{"amenity":"recycling","recycling_type":"container"}},"type":"Feature"},
	{"geometry":{"coordinates":[8.725894,50.332977],"type":"Point"},"properties":{"osm_id":"153086946","tag":{"amenity":"recycling","recycling:cans":"no","recycling:clothes":"yes","recycling:glass":"yes","recycling:glass_bottles":"yes","recycling:paper":"no","recycling_type":"container"}},"type":"Feature"},
	{"geometry":{"coordinates":[8.721594,50.334957],"type":"Point"},"properties":{"osm_id":"209055003","tag":{"amenity":"recycling","recycling:glass_bottles":"yes","recycling_type":"container"}},"type":"Feature"},
	{"geometry":{"coordinates":[8.757063,50.343645],"type":"Point"},"properties":{"osm_id":"379621991","tag":{"amenity":"recycling","recycling:clothes":"yes","recycling:glass":"yes","recycling_type":"container"}},"type":"Feature"},
	{"geometry":{"coordinates":[8.752888,50.326909],"type":"Point"},"properties":{"osm_id":"379681012","tag":{"amenity":"recycling","recycling:glass_bottles":"yes"}},"type":"Feature"},
	{"geometry":{"coordinates":[8.746953,50.331467],"type":"Point"},"properties":{"osm_id":"383740227","tag":{"amenity":"recycling","recycling:glass":"yes","recycling_type":"container"}},"type":"Feature"},
	{"geometry":{"coordinates":[8.759103,50.316895],"type":"Point"},"properties":{"osm_id":"383880791","tag":{"amenity":"recycling","location":"overground","recycling:glass":"yes","recycling_type":"container"}},"type":"Feature"},
	{"geometry":{"coordinates":[8.737812,50.322054],"type":"Point"},"properties":{"osm_id":"383880796","tag":{"amenity":"recycling","recycling:glass":"yes","recycling_type":"container"}},"type":"Feature"},
	{"geometry":{"coordinates":[8.755612,50.330476],"type":"Point"},"properties":{"osm_id":"383882435","tag":{"amenity":"recycling","recycling:glass":"yes"}},"type":"Feature"},
	{"geometry":{"coordinates":[8.74389,50.327874],"type":"Point"},"properties":{"osm_id":"385455391","tag":{"amenity":"recycling","recycling:glass":"yes","recycling_type":"container"}},"type":"Feature"},
	{"geometry":{"coordinates":[8.756157,50.336325],"type":"Point"},"properties":{"osm_id":"385465257","tag":{"amenity":"recycling","recycling:glass":"yes"}},"type":"Feature"},
	{"geometry":{"coordinates":[8.753387,50.331194],"type":"Point"},"properties":{"osm_id":"401055130","tag":{"amenity":"recycling","recycling:clothes":"yes","recycling:glass":"yes"}},"type":"Feature"},
	{"geometry":{"coordinates":[8.762769,50.326751],"type":"Point"},"properties":{"osm_id":"436156560","tag":{"amenity":"recycling","recycling:paper":"yes"}},"type":"Feature"},
	{"geometry":{"coordinates":[8.758312,50.329312],"type":"Point"},"properties":{"osm_id":"436156590","tag":{"amenity":"recycling","recycling:clothes":"yes","recycling:glass":"yes"}},"type":"Feature"},
	{"geometry":{"coordinates":[8.762454,50.327293],"type":"Point"},"properties":{"osm_id":"437971853","tag":{"amenity":"recycling","recycling:glass":"yes"}},"type":"Feature"},
	{"geometry":{"coordinates":[8.749225,50.334673],"type":"Point"},"properties":{"osm_id":"506727496","tag":{"amenity":"recycling","recycling:clothes":"yes","recycling:glass":"yes","recycling_type":"container"}},"type":"Feature"},
	{"geometry":{"coordinates":[8.727654,50.331577],"type":"Point"},"properties":{"osm_id":"578391042","tag":{"addr:city":"Friedberg (Hessen)","addr:postcode":"61169","addr:street":"Friedberger Stra\u00c3\u009fe","amenity":"recycling","recycling:glass":"yes","recycling:glass_bottles":"yes","recycling_type":"container"}},"type":"Feature"},
	{"geometry":{"coordinates":[8.741624,50.330295],"type":"Point"},"properties":{"osm_id":"1212796253","tag":{"amenity":"recycling","recycling:glass_bottles":"yes","recycling_type":"container"}},"type":"Feature"},
	{"geometry":{"coordinates":[8.752253,50.34035],"type":"Point"},"properties":{"osm_id":"1371326880","tag":{"amenity":"recycling","recycling_type":"container"}},"type":"Feature"},
	{"geometry":{"coordinates":[8.7494,50.340071],"type":"Point"},"properties":{"osm_id":"1371326886","tag":{"amenity":"recycling","recycling:clothes":"no","recycling:glass_bottles":"yes","recycling:paper":"no","recycling_type":"container"}},"type":"Feature"},
	{"geometry":{"coordinates":[8.709445,50.29723],"type":"Point"},"properties":{"osm_id":"1418154568","tag":{"amenity":"recycling","recycling:clothes":"yes","recycling:glass":"no","recycling:glass_bottles":"yes","recycling_type":"container"}},"type":"Feature"},
	{"geometry":{"coordinates":[8.754307,50.340292],"type":"Point"},"properties":{"osm_id":"3184375537","tag":{"amenity":"waste_basket"}},"type":"Feature"},
	{"geometry":{"coordinates":[8.7557,50.340854],"type":"Point"},"properties":{"osm_id":"3187490870","tag":{"amenity":"waste_basket"}},"type":"Feature"},
	{"geometry":{"coordinates":[8.761547,50.344973],"type":"Point"},"properties":{"barrier":"gate","osm_id":"3203703802"},"type":"Feature"},
	{"geometry":{"coordinates":[8.765217,50.332178],"type":"Point"},"properties":{"osm_id":"3220000140","tag":{"amenity":"recycling"}},"type":"Feature"},
	{"geometry":{"coordinates":[8.775452,50.325245],"type":"Point"},"properties":{"osm_id":"3319677715","tag":{"amenity":"recycling"}},"type":"Feature"},
	{"geometry":{"coordinates":[8.744106,50.334235],"type":"Point"},"properties":{"osm_id":"3772980296","tag":{"amenity":"waste_basket"}},"type":"Feature"},
	{"geometry":{"coordinates":[8.744787,50.334937],"type":"Point"},"properties":{"osm_id":"3772980297","tag":{"amenity":"waste_basket"}},"type":"Feature"},
	{"geometry":{"coordinates":[8.744118,50.334945],"type":"Point"},"properties":{"osm_id":"3772980299","tag":{"amenity":"waste_basket"}},"type":"Feature"},
	{"geometry":{"coordinates":[8.741705,50.335077],"type":"Point"},"properties":{"osm_id":"3772988161","tag":{"amenity":"waste_basket"}},"type":"Feature"},
	{"geometry":{"coordinates":[8.743868,50.335219],"type":"Point"},"properties":{"osm_id":"3772988164","tag":{"amenity":"waste_basket"}},"type":"Feature"},
	{"geometry":{"coordinates":[8.744248,50.335541],"type":"Point"},"properties":{"osm_id":"3772998946","tag":{"amenity":"waste_basket"}},"type":"Feature"},
	{"geometry":{"coordinates":[8.744659,50.335256],"type":"Point"},"properties":{"osm_id":"3772999858","tag":{"amenity":"waste_basket"}},"type":"Feature"},
	{"geometry":{"coordinates":[8.745683,50.335269],"type":"Point"},"properties":{"osm_id":"3772999859","tag":{"amenity":"waste_basket"}},"type":"Feature"},
	{"geometry":{"coordinates":[8.744217,50.335882],"type":"Point"},"properties":{"osm_id":"3772999866","tag":{"amenity":"waste_basket"}},"type":"Feature"},
	{"geometry":{"coordinates":[8.745715,50.335494],"type":"Point"},"properties":{"osm_id":"3773002552","tag":{"amenity":"waste_basket"}},"type":"Feature"},
	{"geometry":{"coordinates":[8.746373,50.335706],"type":"Point"},"properties":{"osm_id":"3773002553","tag":{"amenity":"waste_basket"}},"type":"Feature"},
	{"geometry":{"coordinates":[8.745762,50.334469],"type":"Point"},"properties":{"osm_id":"3773007719","tag":{"amenity":"waste_basket"}},"type":"Feature"},
	{"geometry":{"coordinates":[8.743568,50.334226],"type":"Point"},"properties":{"osm_id":"3773126257","tag":{"amenity":"waste_basket"}},"type":"Feature"},
	{"geometry":{"coordinates":[8.737449,50.334825],"type":"Point"},"properties":{"osm_id":"4124410548","tag":{"amenity":"waste_basket"}},"type":"Feature"},
	{"geometry":{"coordinates":[8.732504,50.334836],"type":"Point"},"properties":{"osm_id":"4124410550","tag":{"amenity":"waste_basket"}},"type":"Feature"},
	{"geometry":{"coordinates":[8.730384,50.330519],"type":"Point"},"properties":{"osm_id":"4127110291","tag":{"amenity":"waste_basket"}},"type":"Feature"},
	{"geometry":{"coordinates":[8.76754,50.33981],"type":"Point"},"properties":{"osm_id":"4179746241","tag":{"amenity":"waste_basket"}},"type":"Feature"},
	{"geometry":{"coordinates":[8.767366,50.340052],"type":"Point"},"properties":{"osm_id":"4179746246","tag":{"amenity":"waste_basket"}},"type":"Feature"},
	{"geometry":{"coordinates":[8.759151,50.341919],"type":"Point"},"properties":{"osm_id":"4179746249","tag":{"amenity":"waste_basket"}},"type":"Feature"},
	{"geometry":{"coordinates":[8.751359,50.34319],"type":"Point"},"properties":{"osm_id":"4179792430","tag":{"amenity":"waste_basket"}},"type":"Feature"},
	{"geometry":{"coordinates":[8.749759,50.343838],"type":"Point"},"properties":{"osm_id":"4179792436","tag":{"amenity":"waste_basket"}},"type":"Feature"},
	{"geometry":{"coordinates":[8.745808,50.340586],"type":"Point"},"properties":{"osm_id":"4182204115","tag":{"amenity":"waste_basket"}},"type":"Feature"},
	{"geometry":{"coordinates":[8.744242,50.340863],"type":"Point"},"properties":{"osm_id":"4182204118","tag":{"amenity":"waste_basket"}},"type":"Feature"},
	{"geometry":{"coordinates":[8.74431,50.341142],"type":"Point"},"properties":{"osm_id":"4182204126","tag":{"amenity":"waste_basket"}},"type":"Feature"},
	{"geometry":{"coordinates":[8.747952,50.325241],"type":"Point"},"properties":{"osm_id":"4191918198","tag":{"amenity":"waste_basket"}},"type":"Feature"},
	{"geometry":{"coordinates":[8.748457,50.325445],"type":"Point"},"properties":{"osm_id":"4191918225","tag":{"amenity":"waste_basket"}},"type":"Feature"},
	{"geometry":{"coordinates":[8.728356,50.329057],"type":"Point"},"properties":{"osm_id":"4320543911","tag":{"amenity":"waste_basket","vending":"excrement_bags"}},"type":"Feature"},
	{"geometry":{"coordinates":[8.742225,50.326331],"type":"Point"},"properties":{"osm_id":"4328281458","tag":{"amenity":"waste_basket"}},"type":"Feature"},
	{"geometry":{"coordinates":[8.751552,50.318573],"type":"Point"},"properties":{"osm_id":"4328312721","tag":{"amenity":"waste_basket"}},"type":"Feature"},
	{"geometry":{"coordinates":[8.751547,50.318826],"type":"Point"},"properties":{"osm_id":"4328312734","tag":{"amenity":"waste_basket"}},"type":"Feature"},
	{"geometry":{"coordinates":[8.721869,50.330568],"type":"Point"},"properties":{"osm_id":"4329361553","tag":{"amenity":"waste_basket"}},"type":"Feature"},
	{"geometry":{"coordinates":[8.720022,50.331368],"type":"Point"},"properties":{"osm_id":"4329361554","tag":{"amenity":"waste_basket"}},"type":"Feature"},
	{"geometry":{"coordinates":[8.75636,50.328556],"type":"Point"},"properties":{"osm_id":"4409235787","tag":{"amenity":"recycling","recycling:glass":"yes"}},"type":"Feature"},
	{"geometry":{"coordinates":[8.710978,50.32921],"type":"Point"},"properties":{"osm_id":"4732366659","tag":{"amenity":"waste_basket"}},"type":"Feature"},
	{"geometry":{"coordinates":[8.75653,50.333737],"type":"Point"},"properties":{"osm_id":"6256616542","tag":{"amenity":"waste_basket"}},"type":"Feature"},
	{"geometry":{"coordinates":[8.748451,50.338197],"type":"Point"},"properties":{"osm_id":"6502378547","tag":{"amenity":"waste_basket"}},"type":"Feature"},
	{"geometry":{"coordinates":[8.761679,50.332762],"type":"Point"},"properties":{"osm_id":"6846375309","tag":{"amenity":"waste_basket","level":"0"}},"type":"Feature"},
	{"geometry":{"coordinates":[8.761665,50.332788],"type":"Point"},"properties":{"osm_id":"6846375310","tag":{"amenity":"waste_basket","level":"0"}},"type":"Feature"},
	{"geometry":{"coordinates":[8.770487,50.331124],"type":"Point"},"properties":{"osm_id":"6983127250","tag":{"amenity":"waste_basket"}},"type":"Feature"},
	{"geometry":{"coordinates":[8.764113,50.337191],"type":"Point"},"properties":{"osm_id":"6983127252","tag":{"amenity":"waste_basket"}},"type":"Feature"},
	{"geometry":{"coordinates":[8.754503,50.340542],"type":"Point"},"properties":{"osm_id":"7884005212","tag":{"amenity":"waste_basket"}},"type":"Feature"}
]
}
