{
"type": "FeatureCollection",
"features": [
	{"geometry":{"coordinates":[8.785297,50.215763],"type":"Point"},"properties":{"osm_id":"159988720","tag":{"amenity":"recycling","recycling:glass":"yes","recycling_type":"container"}},"type":"Feature"},
	{"geometry":{"coordinates":[8.750579,50.207074],"type":"Point"},"properties":{"osm_id":"274947479","tag":{"amenity":"recycling","opening_hours":"Mo-Sa 08:00-13:00, 15:00-19:00","recycling:clothes":"yes","recycling:glass_bottles":"yes","recycling:shoes":"yes","recycling_type":"container"}},"type":"Feature"},
	{"geometry":{"coordinates":[8.745882,50.187467],"type":"Point"},"properties":{"osm_id":"280127310","tag":{"amenity":"recycling","recycling:clothes":"yes","recycling:glass":"yes","recycling_type":"container"}},"type":"Feature"},
	{"geometry":{"coordinates":[8.776846,50.192746],"type":"Point"},"properties":{"osm_id":"280585016","tag":{"amenity":"recycling","recycling:clothes":"yes","recycling:glass":"yes","recycling:glass_bottles":"yes","recycling_type":"container"}},"type":"Feature"},
	{"geometry":{"coordinates":[8.780189,50.192587],"type":"Point"},"properties":{"osm_id":"280587255","tag":{"amenity":"recycling","operator":"Malteser","recycling:clothes":"yes","recycling_type":"container"}},"type":"Feature"},
	{"geometry":{"coordinates":[8.750014,50.186696],"type":"Point"},"properties":{"osm_id":"282078443","tag":{"amenity":"recycling","recycling:clothes":"yes","recycling_type":"container"}},"type":"Feature"},
	{"geometry":{"coordinates":[8.750091,50.186709],"type":"Point"},"properties":{"osm_id":"282078444","tag":{"amenity":"recycling","recycling:glass":"yes","recycling_type":"container"}},"type":"Feature"},
	{"geometry":{"coordinates":[8.757663,50.207136],"type":"Point"},"properties":{"osm_id":"282079973","tag":{"amenity":"recycling","recycling:clothes":"yes","recycling:glass":"yes","recycling_type":"container"}},"type":"Feature"},
	{"geometry":{"coordinates":[8.766103,50.231806],"type":"Point"},"properties":{"osm_id":"287229087","tag":{"amenity":"recycling","recycling:glass":"yes","recycling_type":"container"}},"type":"Feature"},
	{"geometry":{"coordinates":[8.773359,50.230879],"type":"Point"},"properties":{"osm_id":"293408607","tag":{"amenity":"recycling","recycling:glass":"yes","recycling_type":"container"}},"type":"Feature"},
	{"geometry":{"coordinates":[8.739559,50.209316],"type":"Point"},"properties":{"osm_id":"302960328","tag":{"amenity":"recycling","recycling:glass":"yes","recycling_type":"container"}},"type":"Feature"},
	{"geometry":{"coordinates":[8.760818,50.22858],"type":"Point"},"properties":{"osm_id":"314058961","tag":{"amenity":"recycling","recycling:glass":"yes","recycling_type":"container"}},"type":"Feature"},
	{"geometry":{"coordinates":[8.742904,50.231366],"type":"Point"},"properties":{"osm_id":"316884303","tag":{"amenity":"recycling","recycling:glass":"yes","recycling_type":"container"}},"type":"Feature"},
	{"geometry":{"coordinates":[8.775176,50.230003],"type":"Point"},"properties":{"osm_id":"320867790","tag":{"amenity":"recycling","recycling:glass":"yes","recycling_type":"container"}},"type":"Feature"},
	{"geometry":{"coordinates":[8.742077,50.203508],"type":"Point"},"properties":{"osm_id":"419032423","tag":{"amenity":"recycling","recycling:glass":"yes","recycling_type":"container"}},"type":"Feature"},
	{"geometry":{"coordinates":[8.77387,50.227341],"type":"Point"},"properties":{"osm_id":"444055224","tag":{"amenity":"recycling","recycling:glass":"yes","recycling_type":"container"}},"type":"Feature"},
	{"geometry":{"coordinates":[8.771447,50.225116],"type":"Point"},"properties":{"osm_id":"454351596","tag":{"amenity":"recycling","recycling:glass":"yes","recycling_type":"container"}},"type":"Feature"},
	{"geometry":{"coordinates":[8.712943,50.20206],"type":"Point"},"properties":{"osm_id":"490162897","tag":{"amenity":"recycling","recycling:glass_bottles":"yes","recycling_type":"container"}},"type":"Feature"},
	{"geometry":{"coordinates":[8.713133,50.202066],"type":"Point"},"properties":{"osm_id":"490162905","tag":{"amenity":"recycling","recycling:clothes":"yes","recycling_type":"container"}},"type":"Feature"},
	{"geometry":{"coordinates":[8.768952,50.229928],"type":"Point"},"properties":{"osm_id":"518158810","tag":{"amenity":"recycling","recycling:glass":"yes","recycling_type":"container"}},"type":"Feature"},
	{"geometry":{"coordinates":[8.788353,50.213582],"type":"Point"},"properties":{"osm_id":"571264584","tag":{"amenity":"recycling","recycling:glass":"yes","recycling_type":"container"}},"type":"Feature"},
	{"geometry":{"coordinates":[8.720932,50.190026],"type":"Point"},"properties":{"osm_id":"695836581","tag":{"amenity":"recycling","recycling_type":"container"}},"type":"Feature"},
	{"geometry":{"coordinates":[8.771442,50.22127],"type":"Point"},"properties":{"osm_id":"997720935","tag":{"amenity":"recycling","recycling:clothes":"no","recycling:glass":"yes","recycling_type":"container"}},"type":"Feature"},
	{"geometry":{"coordinates":[8.765675,50.221313],"type":"Point"},"properties":{"barrier":"gate","osm_id":"1685243701","tag":{"bicycle":"yes","foot":"yes","motorcar":"yes"}},"type":"Feature"},
	{"geometry":{"coordinates":[8.734468,50.178377],"type":"Point"},"properties":{"osm_id":"1725981820","tag":{"amenity":"recycling","recycling:clothes":"yes","recycling:glass":"yes","recycling_type":"container"}},"type":"Feature"},
	{"geometry":{"coordinates":[8.723916,50.178165],"type":"Point"},"properties":{"barrier":"gate","osm_id":"1826464244","tag":{"bicycle":"yes","foot":"yes","motor_vehicle":"yes"}},"type":"Feature"},
	{"geometry":{"coordinates":[8.744639,50.178119],"type":"Point"},"properties":{"osm_id":"1894534783","tag":{"amenity":"recycling","recycling_type":"container"}},"type":"Feature"},
	{"geometry":{"coordinates":[8.742177,50.190629],"type":"Point"},"properties":{"osm_id":"2007329050","tag":{"amenity":"waste_basket"}},"type":"Feature"},
	{"geometry":{"coordinates":[8.742099,50.190693],"type":"Point"},"properties":{"osm_id":"2007329056","tag":{"amenity":"waste_basket"}},"type":"Feature"},
	{"geometry":{"coordinates":[8.741933,50.190728],"type":"Point"},"properties":{"osm_id":"2007329058","tag":{"amenity":"waste_basket"}},"type":"Feature"},
	{"geometry":{"coordinates":[8.743775,50.185042],"type":"Point"},"properties":{"osm_id":"2083659234","tag":{"amenity":"recycling","recycling:glass":"yes","recycling_type":"container"}},"type":"Feature"},
	{"geometry":{"coordinates":[8.735567,50.178455],"type":"Point"},"properties":{"osm_id":"2209140944","tag":{"amenity":"waste_basket"}},"type":"Feature"},
	{"geometry":{"coordinates":[8.732686,50.176949],"type":"Point"},"properties":{"osm_id":"2437379243","tag":{"amenity":"recycling","operator":"Deutsches Rotes Kreuz","recycling:clothes":"yes","recycling_type":"container"}},"type":"Feature"},
	{"geometry":{"coordinates":[8.721404,50.194992],"type":"Point"},"properties":{"osm_id":"2975417498","tag":{"amenity":"recycling","recycling:cans":"no","recycling:clothes":"yes","recycling:glass":"yes","recycling:paper":"no","recycling_type":"container"}},"type":"Feature"},
	{"geometry":{"coordinates":[8.734141,50.188671],"type":"Point"},"properties":{"osm_id":"3020456988","tag":{"amenity":"recycling","recycling:clothes":"yes","recycling:glass":"yes","recycling_type":"container"}},"type":"Feature"},
	{"geometry":{"coordinates":[8.736662,50.177437],"type":"Point"},"properties":{"osm_id":"3146403215","tag":{"amenity":"recycling","recycling:glass":"yes","recycling_type":"container"}},"type":"Feature"},
	{"geometry":{"coordinates":[8.736819,50.177452],"type":"Point"},"properties":{"osm_id":"3146403219","tag":{"amenity":"waste_basket"}},"type":"Feature"},
	{"geometry":{"coordinates":[8.740091,50.178568],"type":"Point"},"properties":{"osm_id":"3146408529","tag":{"amenity":"recycling","recycling:clothes":"yes","recycling:glass":"yes","recycling_type":"container"}},"type":"Feature"},
	{"geometry":{"coordinates":[8.740045,50.178595],"type":"Point"},"properties":{"osm_id":"3149228335","tag":{"amenity":"waste_basket"}},"type":"Feature"},
	{"geometry":{"coordinates":[8.739855,50.178932],"type":"Point"},"properties":{"osm_id":"3149228338","tag":{"amenity":"waste_basket"}},"type":"Feature"},
	{"geometry":{"coordinates":[8.73949,50.179502],"type":"Point"},"properties":{"osm_id":"3149228343","tag":{"amenity":"waste_basket"}},"type":"Feature"},
	{"geometry":{"coordinates":[8.748049,50.180639],"type":"Point"},"properties":{"osm_id":"3255392617","tag":{"amenity":"recycling","recycling:clothes":"yes","recycling:glass":"yes","recycling_type":"container"}},"type":"Feature"},
	{"geometry":{"coordinates":[8.768829,50.186152],"type":"Point"},"properties":{"osm_id":"3476337059","tag":{"amenity":"waste_basket"}},"type":"Feature"},
	{"geometry":{"coordinates":[8.737918,50.188029],"type":"Point"},"properties":{"osm_id":"4171952038","tag":{"amenity":"recycling","recycling:clothes":"yes","recycling:glass":"yes","recycling_type":"container"}},"type":"Feature"},
	{"geometry":{"coordinates":[8.747988,50.177119],"type":"Point"},"properties":{"osm_id":"5354905384","tag":{"amenity":"recycling","recycling:clothes":"yes","recycling_type":"container"}},"type":"Feature"},
	{"geometry":{"coordinates":[8.766768,50.219212],"type":"Point"},"properties":{"osm_id":"5444955638","tag":{"amenity":"waste_basket","waste":"trash"}},"type":"Feature"},
	{"geometry":{"coordinates":[8.769444,50.221164],"type":"Point"},"properties":{"osm_id":"5444955640","tag":{"amenity":"waste_basket","waste":"trash"}},"type":"Feature"},
	{"geometry":{"coordinates":[8.776021,50.230148],"type":"Point"},"properties":{"osm_id":"6166317456","tag":{"amenity":"waste_basket","waste":"trash"}},"type":"Feature"},
	{"geometry":{"coordinates":[8.782601,50.230629],"type":"Point"},"properties":{"osm_id":"6166317458","tag":{"amenity":"waste_basket"}},"type":"Feature"},
	{"geometry":{"coordinates":[8.78443,50.224285],"type":"Point"},"properties":{"osm_id":"6166317461","tag":{"amenity":"waste_basket","waste":"trash"}},"type":"Feature"},
	{"geometry":{"coordinates":[8.784086,50.224159],"type":"Point"},"properties":{"osm_id":"6166317462","tag":{"amenity":"waste_basket","waste":"trash"}},"type":"Feature"},
	{"geometry":{"coordinates":[8.784147,50.223939],"type":"Point"},"properties":{"osm_id":"6166317463","tag":{"amenity":"waste_basket","waste":"trash"}},"type":"Feature"},
	{"geometry":{"coordinates":[8.784097,50.222139],"type":"Point"},"properties":{"osm_id":"6166317464","tag":{"amenity":"waste_basket","waste":"trash"}},"type":"Feature"},
	{"geometry":{"coordinates":[8.784281,50.22393],"type":"Point"},"properties":{"osm_id":"6170993699","tag":{"amenity":"recycling","recycling:glass":"yes","recycling_type":"container"}},"type":"Feature"},
	{"geometry":{"coordinates":[8.771006,50.225403],"type":"Point"},"properties":{"osm_id":"6170993701","tag":{"amenity":"waste_basket","waste":"trash"}},"type":"Feature"},
	{"geometry":{"coordinates":[8.770746,50.225522],"type":"Point"},"properties":{"osm_id":"6170993702","tag":{"amenity":"waste_basket","waste":"trash"}},"type":"Feature"},
	{"geometry":{"coordinates":[8.770902,50.223329],"type":"Point"},"properties":{"osm_id":"6170993703","tag":{"amenity":"waste_basket","waste":"trash"}},"type":"Feature"},
	{"geometry":{"coordinates":[8.772585,50.223314],"type":"Point"},"properties":{"osm_id":"6170993704","tag":{"amenity":"waste_basket","waste":"trash"}},"type":"Feature"},
	{"geometry":{"coordinates":[8.77094,50.218746],"type":"Point"},"properties":{"osm_id":"6238387132","tag":{"amenity":"waste_basket"}},"type":"Feature"},
	{"geometry":{"coordinates":[8.74124,50.231681],"type":"Point"},"properties":{"osm_id":"6444753395","tag":{"amenity":"recycling","recycling:glass_bottles":"yes","recycling_type":"container"}},"type":"Feature"},
	{"geometry":{"coordinates":[8.737906,50.183949],"type":"Point"},"properties":{"osm_id":"6499987450","tag":{"amenity":"recycling","recycling:glass":"yes","recycling_type":"container"}},"type":"Feature"},
	{"geometry":{"coordinates":[8.766124,50.231804],"type":"Point"},"properties":{"osm_id":"7020637852","tag":{"amenity":"recycling","recycling:glass":"yes","recycling_type":"container"}},"type":"Feature"},
	{"geometry":{"coordinates":[8.749422,50.191486],"type":"Point"},"properties":{"osm_id":"7411146237","tag":{"amenity":"waste_basket","waste":"trash"}},"type":"Feature"},
	{"geometry":{"coordinates":[8.74962,50.191559],"type":"Point"},"properties":{"osm_id":"7411146238","tag":{"amenity":"waste_basket","waste":"trash"}},"type":"Feature"},
	{"geometry":{"coordinates":[8.749706,50.191641],"type":"Point"},"properties":{"osm_id":"7411146239","tag":{"amenity":"waste_basket","waste":"trash"}},"type":"Feature"},
	{"geometry":{"coordinates":[8.74845,50.202599],"type":"Point"},"properties":{"osm_id":"7679552065","tag":{"amenity":"waste_basket","waste":"trash"}},"type":"Feature"},
	{"geometry":{"coordinates":[8.749104,50.203548],"type":"Point"},"properties":{"osm_id":"7679609537","tag":{"amenity":"waste_basket","waste":"trash"}},"type":"Feature"},
	{"geometry":{"coordinates":[8.750187,50.204131],"type":"Point"},"properties":{"osm_id":"7679715836","tag":{"amenity":"waste_basket","waste":"trash"}},"type":"Feature"}
]
}
