{
"type": "FeatureCollection",
"features": [
	{"geometry":{"coordinates":[8.748413,49.981752],"type":"Point"},"properties":{"osm_id":"248184141","tag":{"amenity":"recycling","recycling_type":"container"}},"type":"Feature"},
	{"geometry":{"coordinates":[8.742166,49.980678],"type":"Point"},"properties":{"osm_id":"248184153","tag":{"amenity":"recycling","location":"overground","recycling_type":"container"}},"type":"Feature"},
	{"geometry":{"coordinates":[8.74088,49.979261],"type":"Point"},"properties":{"osm_id":"248701458","tag":{"amenity":"recycling"}},"type":"Feature"},
	{"geometry":{"coordinates":[8.788933,49.968937],"type":"Point"},"properties":{"osm_id":"270194738","tag":{"amenity":"recycling","recycling:glass":"yes"}},"type":"Feature"},
	{"geometry":{"coordinates":[8.715022,50.001675],"type":"Point"},"properties":{"osm_id":"356682797","tag":{"amenity":"recycling","location":"overground","operator":"S.K.C.","recycling:shoes":"yes","recycling_type":"container"}},"type":"Feature"},
	{"geometry":{"coordinates":[8.708716,50.002448],"type":"Point"},"properties":{"osm_id":"356901395","tag":{"amenity":"recycling","location":"overground","recycling:glass_bottles":"yes","recycling_type":"container"}},"type":"Feature"},
	{"geometry":{"coordinates":[8.744098,49.977286],"type":"Point"},"properties":{"osm_id":"371560548","tag":{"amenity":"recycling"}},"type":"Feature"},
	{"geometry":{"coordinates":[8.766512,49.995248],"type":"Point"},"properties":{"osm_id":"390991611","tag":{"amenity":"recycling","note:operator:recycling:clothes":"nicht klar ersichtlich, wer Betreiber ist, aber laut Schild ist es gewerblich","operator:recycling:clothes":"gewerblich","recycling:clothes":"yes","recycling:glass":"yes","recycling:paper":"yes","recycling_type":"container"}},"type":"Feature"},
	{"geometry":{"coordinates":[8.709391,50.00711],"type":"Point"},"properties":{"osm_id":"403876360","tag":{"amenity":"recycling","recycling:glass_bottles":"yes"}},"type":"Feature"},
	{"geometry":{"coordinates":[8.777142,50.006234],"type":"Point"},"properties":{"osm_id":"449577230","tag":{"amenity":"recycling","recycling:clothes":"yes","recycling_type":"container"}},"type":"Feature"},
	{"geometry":{"coordinates":[8.70691,49.995966],"type":"Point"},"properties":{"osm_id":"470965535","tag":{"amenity":"recycling","opening_hours":"24/7","operator":"ASB","recycling:clothes":"yes","recycling_type":"container"}},"type":"Feature"},
	{"geometry":{"coordinates":[8.778017,49.979492],"type":"Point"},"properties":{"osm_id":"480766357","tag":{"amenity":"recycling","recycling:glass":"yes","recycling:paper":"yes"}},"type":"Feature"},
	{"geometry":{"coordinates":[8.769191,49.991261],"type":"Point"},"properties":{"osm_id":"481007200","tag":{"amenity":"recycling","recycling:clothes":"yes","recycling:glass":"yes","recycling:paper":"yes","recycling_type":"container"}},"type":"Feature"},
	{"geometry":{"coordinates":[8.770433,49.996354],"type":"Point"},"properties":{"osm_id":"494810566","tag":{"amenity":"recycling","recycling:glass":"yes","recycling:paper":"yes","recycling_type":"container"}},"type":"Feature"},
	{"geometry":{"coordinates":[8.777413,50.001697],"type":"Point"},"properties":{"barrier":"gate","osm_id":"953918491","tag":{"bicycle":"no","foot":"no"}},"type":"Feature"},
	{"geometry":{"coordinates":[8.738621,49.996675],"type":"Point"},"properties":{"osm_id":"1435173191","tag":{"amenity":"recycling","recycling:glass":"yes","recycling_type":"container"}},"type":"Feature"},
	{"geometry":{"coordinates":[8.725177,50.000353],"type":"Point"},"properties":{"osm_id":"1570551200","tag":{"amenity":"recycling","recycling:glass_bottles":"yes","recycling_type":"container"}},"type":"Feature"},
	{"geometry":{"coordinates":[8.731099,49.998875],"type":"Point"},"properties":{"osm_id":"1570551204","tag":{"amenity":"recycling","recycling:glass":"yes","recycling_type":"container"}},"type":"Feature"},
	{"geometry":{"coordinates":[8.729742,49.994529],"type":"Point"},"properties":{"osm_id":"1578196116","tag":{"amenity":"recycling","recycling:glass":"yes","recycling_type":"container"}},"type":"Feature"},
	{"geometry":{"coordinates":[8.71871,50.001677],"type":"Point"},"properties":{"osm_id":"1594378350","tag":{"amenity":"recycling","recycling:glass_bottles":"yes","recycling_type":"container"}},"type":"Feature"},
	{"geometry":{"coordinates":[8.777121,50.006209],"type":"Point"},"properties":{"osm_id":"1614240542","tag":{"amenity":"recycling","recycling:glass":"no","recycling:glass_bottles":"yes","recycling:paper":"yes","recycling_type":"container"}},"type":"Feature"},
	{"geometry":{"coordinates":[8.772905,50.005682],"type":"Point"},"properties":{"osm_id":"1615597771","tag":{"amenity":"recycling","recycling:glass":"yes","recycling:paper":"yes","recycling_type":"container"}},"type":"Feature"},
	{"geometry":{"coordinates":[8.777669,50.001728],"type":"Point"},"properties":{"barrier":"gate","osm_id":"2341401745","tag":{"entrance":"main"}},"type":"Feature"},
	{"geometry":{"coordinates":[8.787055,49.983643],"type":"Point"},"properties":{"osm_id":"2480677151","tag":{"amenity":"waste_basket","note:position":"nicht sehr genau"}},"type":"Feature"},
	{"geometry":{"coordinates":[8.763044,49.990809],"type":"Point"},"properties":{"osm_id":"3139324889","tag":{"amenity":"waste_basket"}},"type":"Feature"},
	{"geometry":{"coordinates":[8.73402,49.998861],"type":"Point"},"properties":{"osm_id":"3205877433","tag":{"amenity":"recycling","recycling:glass":"yes","recycling_type":"container"}},"type":"Feature"},
	{"geometry":{"coordinates":[8.736624,50.001229],"type":"Point"},"properties":{"osm_id":"3219444208","tag":{"amenity":"recycling","recycling:glass":"yes","recycling_type":"container"}},"type":"Feature"},
	{"geometry":{"coordinates":[8.735774,50.004053],"type":"Point"},"properties":{"osm_id":"3219915626","tag":{"amenity":"recycling","recycling:glass":"yes","recycling_type":"container"}},"type":"Feature"},
	{"geometry":{"coordinates":[8.735194,50.000177],"type":"Point"},"properties":{"osm_id":"3219927829","tag":{"amenity":"recycling","recycling:glass":"yes","recycling_type":"container"}},"type":"Feature"},
	{"geometry":{"coordinates":[8.742897,50.002273],"type":"Point"},"properties":{"osm_id":"3372692467","tag":{"amenity":"waste_basket","source:position":"gesch\u00c3\u00a4tzt mit gps"}},"type":"Feature"},
	{"geometry":{"coordinates":[8.777443,50.007427],"type":"Point"},"properties":{"osm_id":"3500071316","tag":{"amenity":"recycling","recycling:glass":"yes","recycling:paper":"yes","recycling_type":"container","source:position":"gesch\u00c3\u00a4tzt mit Besichtigung, bing, osm"}},"type":"Feature"},
	{"geometry":{"coordinates":[8.776733,50.00338],"type":"Point"},"properties":{"osm_id":"3785096835","tag":{"amenity":"recycling","operator":"Deutsches Rotes Kreuz","recycling:clothes":"yes","recycling_type":"container"}},"type":"Feature"},
	{"geometry":{"coordinates":[8.781278,50.005997],"type":"Point"},"properties":{"osm_id":"3812993143","tag":{"amenity":"waste_basket"}},"type":"Feature"},
	{"geometry":{"coordinates":[8.781261,50.006059],"type":"Point"},"properties":{"osm_id":"3812993147","tag":{"amenity":"waste_basket"}},"type":"Feature"},
	{"geometry":{"coordinates":[8.751959,49.981482],"type":"Point"},"properties":{"osm_id":"3918481658","tag":{"amenity":"recycling","recycling:clothes":"yes","recycling:clothes:operator":"commercial","recycling:glass":"yes","recycling:paper":"yes","recycling_type":"container"}},"type":"Feature"},
	{"geometry":{"coordinates":[8.73297,49.997645],"type":"Point"},"properties":{"osm_id":"5133052696","tag":{"amenity":"waste_basket"}},"type":"Feature"},
	{"geometry":{"coordinates":[8.70746,50.005183],"type":"Point"},"properties":{"osm_id":"5135608755","tag":{"amenity":"waste_basket"}},"type":"Feature"},
	{"geometry":{"coordinates":[8.713308,50.005509],"type":"Point"},"properties":{"osm_id":"6239550190","tag":{"amenity":"recycling","recycling:clothes":"yes","recycling:glass":"yes","recycling:paper":"no","recycling_type":"container"}},"type":"Feature"},
	{"geometry":{"coordinates":[8.706903,49.995949],"type":"Point"},"properties":{"osm_id":"6721646323","tag":{"amenity":"recycling","opening_hours":"24/7","operator":"Remondis","recycling:glass_bottles":"yes","recycling_type":"container"}},"type":"Feature"}
]
}
