{
"type": "FeatureCollection",
"features": [
	{"geometry":{"coordinates":[8.709908,49.617287],"type":"Point"},"properties":{"osm_id":"297049410","tag":{"amenity":"recycling","recycling:clothes":"no","recycling_type":"container","survey:date":"2020-07-03"}},"type":"Feature"},
	{"geometry":{"coordinates":[8.733257,49.624994],"type":"Point"},"properties":{"osm_id":"459525162","tag":{"amenity":"recycling","mapillary":"LFNslMMbbIjwQBo5b-XVYg","operator":"Jakob Becker","recycling:clothes":"yes","recycling:glass":"yes","recycling:shoes":"yes","recycling_type":"container","survey:date":"2017-04-09"}},"type":"Feature"},
	{"geometry":{"coordinates":[8.768244,49.665811],"type":"Point"},"properties":{"osm_id":"469268969","tag":{"amenity":"recycling","recycling:glass":"yes"}},"type":"Feature"},
	{"geometry":{"coordinates":[8.744974,49.666745],"type":"Point"},"properties":{"osm_id":"495583721","tag":{"amenity":"recycling","recycling:batteries":"yes","recycling:glass":"yes"}},"type":"Feature"},
	{"geometry":{"coordinates":[8.745901,49.666402],"type":"Point"},"properties":{"osm_id":"495584322","tag":{"amenity":"waste_basket"}},"type":"Feature"},
	{"geometry":{"coordinates":[8.753155,49.665524],"type":"Point"},"properties":{"osm_id":"495584506","tag":{"amenity":"waste_basket"}},"type":"Feature"},
	{"geometry":{"coordinates":[8.74474,49.660128],"type":"Point"},"properties":{"osm_id":"497336258","tag":{"amenity":"recycling","recycling:green_waste":"yes"}},"type":"Feature"},
	{"geometry":{"coordinates":[8.759439,49.658477],"type":"Point"},"properties":{"osm_id":"498418395","tag":{"amenity":"waste_basket"}},"type":"Feature"},
	{"geometry":{"coordinates":[8.756235,49.655556],"type":"Point"},"properties":{"osm_id":"498418502","tag":{"amenity":"recycling","recycling:glass":"yes"}},"type":"Feature"},
	{"geometry":{"coordinates":[8.760801,49.650865],"type":"Point"},"properties":{"osm_id":"498418594","tag":{"amenity":"recycling","recycling:clothes":"yes","recycling:shoes":"yes","recycling_type":"container"}},"type":"Feature"},
	{"geometry":{"coordinates":[8.772782,49.645961],"type":"Point"},"properties":{"osm_id":"511125590","tag":{"amenity":"waste_basket"}},"type":"Feature"},
	{"geometry":{"coordinates":[8.716799,49.613116],"type":"Point"},"properties":{"osm_id":"618975221","tag":{"amenity":"recycling","recycling:clothes":"yes","recycling_type":"container","survey:date":"2020-07-03"}},"type":"Feature"},
	{"geometry":{"coordinates":[8.709495,49.614604],"type":"Point"},"properties":{"osm_id":"765353703","tag":{"amenity":"waste_basket"}},"type":"Feature"},
	{"geometry":{"coordinates":[8.78415,49.648569],"type":"Point"},"properties":{"osm_id":"777386267","tag":{"amenity":"recycling","operator":"Deutsches Rotes Kreuz","recycling:clothes":"yes","recycling:shoes":"yes","recycling_type":"container"}},"type":"Feature"},
	{"geometry":{"coordinates":[8.779853,49.646254],"type":"Point"},"properties":{"osm_id":"777386273","tag":{"amenity":"waste_basket"}},"type":"Feature"},
	{"geometry":{"coordinates":[8.782802,49.648131],"type":"Point"},"properties":{"osm_id":"777386322","tag":{"amenity":"waste_basket"}},"type":"Feature"},
	{"geometry":{"coordinates":[8.781778,49.646743],"type":"Point"},"properties":{"osm_id":"777386465","tag":{"amenity":"waste_basket"}},"type":"Feature"},
	{"geometry":{"coordinates":[8.781585,49.646419],"type":"Point"},"properties":{"osm_id":"777386553","tag":{"amenity":"recycling","recycling:glass":"yes"}},"type":"Feature"},
	{"geometry":{"coordinates":[8.774662,49.645017],"type":"Point"},"properties":{"osm_id":"798456387","tag":{"amenity":"recycling","recycling:clothes":"yes","recycling:shoes":"yes"}},"type":"Feature"},
	{"geometry":{"coordinates":[8.782738,49.649068],"type":"Point"},"properties":{"osm_id":"798890769","tag":{"amenity":"recycling","recycling:clothes":"yes","recycling:glass":"yes","recycling:shoes":"yes"}},"type":"Feature"},
	{"geometry":{"coordinates":[8.78101,49.64874],"type":"Point"},"properties":{"osm_id":"798890809","tag":{"amenity":"waste_basket"}},"type":"Feature"},
	{"geometry":{"coordinates":[8.776635,49.646752],"type":"Point"},"properties":{"osm_id":"798891246","tag":{"amenity":"recycling","mapillary":"azeRO9kU_QBQ8Qo3sPN4vw","recycling:clothes":"yes","recycling_type":"container","survey:date":"2017-05-25"}},"type":"Feature"},
	{"geometry":{"coordinates":[8.781084,49.648631],"type":"Point"},"properties":{"osm_id":"798891413","tag":{"amenity":"waste_basket"}},"type":"Feature"},
	{"geometry":{"coordinates":[8.783393,49.649246],"type":"Point"},"properties":{"osm_id":"798891923","tag":{"amenity":"waste_basket"}},"type":"Feature"},
	{"geometry":{"coordinates":[8.777282,49.648348],"type":"Point"},"properties":{"osm_id":"798892486","tag":{"amenity":"recycling","recycling:clothes":"yes","recycling:shoes":"yes"}},"type":"Feature"},
	{"geometry":{"coordinates":[8.782849,49.650815],"type":"Point"},"properties":{"osm_id":"798892823","tag":{"amenity":"waste_basket"}},"type":"Feature"},
	{"geometry":{"coordinates":[8.784111,49.649284],"type":"Point"},"properties":{"osm_id":"798892825","tag":{"amenity":"waste_basket"}},"type":"Feature"},
	{"geometry":{"coordinates":[8.785904,49.652473],"type":"Point"},"properties":{"osm_id":"799564198","tag":{"amenity":"waste_basket"}},"type":"Feature"},
	{"geometry":{"coordinates":[8.785845,49.65295],"type":"Point"},"properties":{"osm_id":"799564987","tag":{"amenity":"waste_basket"}},"type":"Feature"},
	{"geometry":{"coordinates":[8.785449,49.652634],"type":"Point"},"properties":{"osm_id":"968144487","tag":{"amenity":"waste_basket"}},"type":"Feature"},
	{"geometry":{"coordinates":[8.780855,49.651437],"type":"Point"},"properties":{"osm_id":"969173687","tag":{"amenity":"waste_basket"}},"type":"Feature"},
	{"geometry":{"coordinates":[8.787258,49.657648],"type":"Point"},"properties":{"osm_id":"971170167","tag":{"amenity":"recycling","recycling:clothes":"yes","recycling:glass":"yes","recycling_type":"container"}},"type":"Feature"},
	{"geometry":{"coordinates":[8.786393,49.657499],"type":"Point"},"properties":{"osm_id":"971170550","tag":{"amenity":"waste_basket"}},"type":"Feature"},
	{"geometry":{"coordinates":[8.78249,49.653798],"type":"Point"},"properties":{"osm_id":"971170789","tag":{"amenity":"recycling","recycling:glass":"yes"}},"type":"Feature"},
	{"geometry":{"coordinates":[8.787145,49.658701],"type":"Point"},"properties":{"osm_id":"971170923","tag":{"amenity":"recycling","recycling:clothes":"yes","recycling:shoes":"yes","recycling_type":"container"}},"type":"Feature"},
	{"geometry":{"coordinates":[8.777477,49.650241],"type":"Point"},"properties":{"osm_id":"972619581","tag":{"amenity":"waste_basket"}},"type":"Feature"},
	{"geometry":{"coordinates":[8.7772,49.649875],"type":"Point"},"properties":{"osm_id":"972619648","tag":{"amenity":"waste_basket"}},"type":"Feature"},
	{"geometry":{"coordinates":[8.776123,49.651075],"type":"Point"},"properties":{"osm_id":"972619813","tag":{"amenity":"waste_basket"}},"type":"Feature"},
	{"geometry":{"coordinates":[8.778169,49.649753],"type":"Point"},"properties":{"osm_id":"974159750","tag":{"amenity":"waste_basket"}},"type":"Feature"},
	{"geometry":{"coordinates":[8.777128,49.648966],"type":"Point"},"properties":{"osm_id":"974159851","tag":{"amenity":"waste_basket"}},"type":"Feature"},
	{"geometry":{"coordinates":[8.777413,49.649131],"type":"Point"},"properties":{"osm_id":"974159937","tag":{"amenity":"recycling","recycling:glass_bottles":"yes","recycling_type":"container"}},"type":"Feature"},
	{"geometry":{"coordinates":[8.779543,49.649976],"type":"Point"},"properties":{"osm_id":"1009099384","tag":{"amenity":"waste_basket"}},"type":"Feature"},
	{"geometry":{"coordinates":[8.780014,49.650113],"type":"Point"},"properties":{"osm_id":"1009099564","tag":{"amenity":"waste_basket"}},"type":"Feature"},
	{"geometry":{"coordinates":[8.779955,49.650176],"type":"Point"},"properties":{"osm_id":"1009099602","tag":{"amenity":"waste_basket"}},"type":"Feature"},
	{"geometry":{"coordinates":[8.780285,49.650111],"type":"Point"},"properties":{"osm_id":"1009099677","tag":{"amenity":"waste_basket"}},"type":"Feature"},
	{"geometry":{"coordinates":[8.779988,49.650139],"type":"Point"},"properties":{"osm_id":"1009100052","tag":{"amenity":"waste_basket"}},"type":"Feature"},
	{"geometry":{"coordinates":[8.778093,49.649942],"type":"Point"},"properties":{"osm_id":"1036480794","tag":{"amenity":"waste_basket"}},"type":"Feature"},
	{"geometry":{"coordinates":[8.759231,49.617857],"type":"Point"},"properties":{"osm_id":"1126453485","tag":{"amenity":"recycling","recycling:clothes":"yes","recycling:glass":"yes","recycling:shoes":"yes"}},"type":"Feature"},
	{"geometry":{"coordinates":[8.762665,49.613006],"type":"Point"},"properties":{"osm_id":"1126453821","tag":{"amenity":"waste_basket"}},"type":"Feature"},
	{"geometry":{"coordinates":[8.764404,49.61879],"type":"Point"},"properties":{"osm_id":"1198465771","tag":{"amenity":"waste_basket"}},"type":"Feature"},
	{"geometry":{"coordinates":[8.764565,49.619002],"type":"Point"},"properties":{"osm_id":"1198465941","tag":{"amenity":"waste_basket"}},"type":"Feature"},
	{"geometry":{"coordinates":[8.764861,49.61889],"type":"Point"},"properties":{"osm_id":"1198466041","tag":{"amenity":"waste_basket"}},"type":"Feature"},
	{"geometry":{"coordinates":[8.764616,49.618711],"type":"Point"},"properties":{"osm_id":"1198466115","tag":{"amenity":"waste_basket"}},"type":"Feature"},
	{"geometry":{"coordinates":[8.715359,49.615443],"type":"Point"},"properties":{"osm_id":"1200220671","tag":{"amenity":"waste_basket"}},"type":"Feature"},
	{"geometry":{"coordinates":[8.760459,49.619269],"type":"Point"},"properties":{"osm_id":"1200426982","tag":{"amenity":"waste_basket"}},"type":"Feature"},
	{"geometry":{"coordinates":[8.761932,49.619258],"type":"Point"},"properties":{"osm_id":"1200427001","tag":{"amenity":"waste_basket"}},"type":"Feature"},
	{"geometry":{"coordinates":[8.768221,49.637929],"type":"Point"},"properties":{"osm_id":"1277504125","tag":{"amenity":"waste_basket"}},"type":"Feature"},
	{"geometry":{"coordinates":[8.768625,49.637003],"type":"Point"},"properties":{"osm_id":"1277504464","tag":{"amenity":"recycling","recycling:clothes":"yes"}},"type":"Feature"},
	{"geometry":{"coordinates":[8.769277,49.638596],"type":"Point"},"properties":{"osm_id":"1286153902","tag":{"amenity":"waste_basket"}},"type":"Feature"},
	{"geometry":{"coordinates":[8.776272,49.637937],"type":"Point"},"properties":{"osm_id":"1286153930","tag":{"amenity":"waste_basket"}},"type":"Feature"},
	{"geometry":{"coordinates":[8.769185,49.638669],"type":"Point"},"properties":{"osm_id":"1286154025","tag":{"amenity":"waste_basket"}},"type":"Feature"},
	{"geometry":{"coordinates":[8.766514,49.63806],"type":"Point"},"properties":{"osm_id":"1286868584","tag":{"amenity":"recycling","recycling:clothes":"yes","recycling:glass":"yes"}},"type":"Feature"},
	{"geometry":{"coordinates":[8.76534,49.638328],"type":"Point"},"properties":{"osm_id":"1286868970","tag":{"amenity":"waste_basket"}},"type":"Feature"},
	{"geometry":{"coordinates":[8.764719,49.638817],"type":"Point"},"properties":{"osm_id":"1288233303","tag":{"amenity":"waste_basket"}},"type":"Feature"},
	{"geometry":{"coordinates":[8.762459,49.627914],"type":"Point"},"properties":{"osm_id":"1288233327","tag":{"amenity":"recycling","recycling:clothes":"yes","recycling:shoes":"yes","recycling_type":"container"}},"type":"Feature"},
	{"geometry":{"coordinates":[8.765748,49.641783],"type":"Point"},"properties":{"osm_id":"1293773819","tag":{"amenity":"waste_basket"}},"type":"Feature"},
	{"geometry":{"coordinates":[8.762138,49.640002],"type":"Point"},"properties":{"osm_id":"1293773959","tag":{"amenity":"waste_basket"}},"type":"Feature"},
	{"geometry":{"coordinates":[8.75373,49.640363],"type":"Point"},"properties":{"osm_id":"1305174524","tag":{"amenity":"recycling","recycling:clothes":"yes","recycling:glass_bottles":"yes","recycling_type":"container"}},"type":"Feature"},
	{"geometry":{"coordinates":[8.758666,49.639255],"type":"Point"},"properties":{"osm_id":"1305174545","tag":{"amenity":"waste_basket"}},"type":"Feature"},
	{"geometry":{"coordinates":[8.753002,49.639536],"type":"Point"},"properties":{"osm_id":"1306188058","tag":{"amenity":"waste_basket"}},"type":"Feature"},
	{"geometry":{"coordinates":[8.752722,49.63961],"type":"Point"},"properties":{"osm_id":"1306188061","tag":{"amenity":"waste_basket"}},"type":"Feature"},
	{"geometry":{"coordinates":[8.757598,49.639299],"type":"Point"},"properties":{"osm_id":"1306188153","tag":{"amenity":"waste_basket"}},"type":"Feature"},
	{"geometry":{"coordinates":[8.752525,49.63969],"type":"Point"},"properties":{"osm_id":"1306188206","tag":{"amenity":"waste_basket"}},"type":"Feature"},
	{"geometry":{"coordinates":[8.755264,49.61851],"type":"Point"},"properties":{"osm_id":"1346955984","tag":{"amenity":"waste_basket"}},"type":"Feature"},
	{"geometry":{"coordinates":[8.756085,49.618522],"type":"Point"},"properties":{"osm_id":"1346955996","tag":{"amenity":"waste_basket"}},"type":"Feature"},
	{"geometry":{"coordinates":[8.75592,49.619638],"type":"Point"},"properties":{"osm_id":"1347313742","tag":{"amenity":"recycling","recycling:clothes":"yes","recycling:glass":"yes","recycling_type":"container"}},"type":"Feature"},
	{"geometry":{"coordinates":[8.754861,49.62012],"type":"Point"},"properties":{"osm_id":"1347314084","tag":{"amenity":"waste_basket"}},"type":"Feature"},
	{"geometry":{"coordinates":[8.754762,49.620313],"type":"Point"},"properties":{"osm_id":"1347314148","tag":{"amenity":"waste_basket"}},"type":"Feature"},
	{"geometry":{"coordinates":[8.755139,49.620511],"type":"Point"},"properties":{"osm_id":"1347314239","tag":{"amenity":"waste_basket"}},"type":"Feature"},
	{"geometry":{"coordinates":[8.755215,49.620559],"type":"Point"},"properties":{"osm_id":"1347314262","tag":{"amenity":"waste_basket"}},"type":"Feature"},
	{"geometry":{"coordinates":[8.755866,49.620926],"type":"Point"},"properties":{"osm_id":"1347314350","tag":{"amenity":"waste_basket"}},"type":"Feature"},
	{"geometry":{"coordinates":[8.754802,49.621281],"type":"Point"},"properties":{"osm_id":"1347314438","tag":{"amenity":"waste_basket"}},"type":"Feature"},
	{"geometry":{"coordinates":[8.754795,49.62129],"type":"Point"},"properties":{"osm_id":"1347314453","tag":{"amenity":"waste_basket"}},"type":"Feature"},
	{"geometry":{"coordinates":[8.756442,49.622787],"type":"Point"},"properties":{"osm_id":"1347955099","tag":{"amenity":"waste_basket"}},"type":"Feature"},
	{"geometry":{"coordinates":[8.758689,49.621301],"type":"Point"},"properties":{"osm_id":"1348310900","tag":{"amenity":"waste_basket"}},"type":"Feature"},
	{"geometry":{"coordinates":[8.758678,49.621733],"type":"Point"},"properties":{"osm_id":"1348310924","tag":{"amenity":"waste_basket"}},"type":"Feature"},
	{"geometry":{"coordinates":[8.757422,49.622399],"type":"Point"},"properties":{"osm_id":"1348310948","tag":{"amenity":"waste_basket"}},"type":"Feature"},
	{"geometry":{"coordinates":[8.757467,49.619751],"type":"Point"},"properties":{"osm_id":"1349640386","tag":{"amenity":"waste_basket"}},"type":"Feature"},
	{"geometry":{"coordinates":[8.757032,49.619782],"type":"Point"},"properties":{"osm_id":"1349640391","tag":{"amenity":"waste_basket"}},"type":"Feature"},
	{"geometry":{"coordinates":[8.756716,49.619815],"type":"Point"},"properties":{"osm_id":"1349640417","tag":{"amenity":"waste_basket"}},"type":"Feature"},
	{"geometry":{"coordinates":[8.756556,49.622776],"type":"Point"},"properties":{"osm_id":"1352558075","tag":{"amenity":"waste_basket"}},"type":"Feature"},
	{"geometry":{"coordinates":[8.756935,49.622997],"type":"Point"},"properties":{"osm_id":"1352558086","tag":{"amenity":"waste_basket"}},"type":"Feature"},
	{"geometry":{"coordinates":[8.756696,49.623],"type":"Point"},"properties":{"osm_id":"1352558087","tag":{"amenity":"waste_basket"}},"type":"Feature"},
	{"geometry":{"coordinates":[8.756695,49.623151],"type":"Point"},"properties":{"osm_id":"1352558104","tag":{"amenity":"waste_basket"}},"type":"Feature"},
	{"geometry":{"coordinates":[8.757246,49.623179],"type":"Point"},"properties":{"osm_id":"1352558106","tag":{"amenity":"waste_basket"}},"type":"Feature"},
	{"geometry":{"coordinates":[8.757019,49.623194],"type":"Point"},"properties":{"osm_id":"1352558107","tag":{"amenity":"waste_basket"}},"type":"Feature"},
	{"geometry":{"coordinates":[8.756808,49.623221],"type":"Point"},"properties":{"osm_id":"1352558110","tag":{"amenity":"waste_basket"}},"type":"Feature"},
	{"geometry":{"coordinates":[8.757352,49.623245],"type":"Point"},"properties":{"osm_id":"1352558112","tag":{"amenity":"waste_basket"}},"type":"Feature"},
	{"geometry":{"coordinates":[8.757012,49.623355],"type":"Point"},"properties":{"osm_id":"1352558121","tag":{"amenity":"waste_basket"}},"type":"Feature"},
	{"geometry":{"coordinates":[8.757348,49.623364],"type":"Point"},"properties":{"osm_id":"1352558122","tag":{"amenity":"waste_basket"}},"type":"Feature"},
	{"geometry":{"coordinates":[8.756666,49.623412],"type":"Point"},"properties":{"osm_id":"1352616203","tag":{"amenity":"waste_basket"}},"type":"Feature"},
	{"geometry":{"coordinates":[8.756799,49.623505],"type":"Point"},"properties":{"osm_id":"1352616238","tag":{"amenity":"waste_basket"}},"type":"Feature"},
	{"geometry":{"coordinates":[8.756898,49.623493],"type":"Point"},"properties":{"osm_id":"1352616242","tag":{"amenity":"waste_basket"}},"type":"Feature"},
	{"geometry":{"coordinates":[8.756905,49.623565],"type":"Point"},"properties":{"osm_id":"1352616263","tag":{"amenity":"waste_basket"}},"type":"Feature"},
	{"geometry":{"coordinates":[8.75886,49.621655],"type":"Point"},"properties":{"osm_id":"1355210881","tag":{"amenity":"waste_basket"}},"type":"Feature"},
	{"geometry":{"coordinates":[8.762401,49.619598],"type":"Point"},"properties":{"osm_id":"1356861471","tag":{"amenity":"waste_disposal"}},"type":"Feature"},
	{"geometry":{"coordinates":[8.762387,49.619649],"type":"Point"},"properties":{"osm_id":"1356861485","tag":{"amenity":"waste_disposal"}},"type":"Feature"},
	{"geometry":{"coordinates":[8.760919,49.620299],"type":"Point"},"properties":{"osm_id":"1356861851","tag":{"amenity":"waste_disposal"}},"type":"Feature"},
	{"geometry":{"coordinates":[8.76535,49.619177],"type":"Point"},"properties":{"osm_id":"1356999629","tag":{"amenity":"waste_basket"}},"type":"Feature"},
	{"geometry":{"coordinates":[8.764806,49.619218],"type":"Point"},"properties":{"osm_id":"1356999634","tag":{"amenity":"waste_basket"}},"type":"Feature"},
	{"geometry":{"coordinates":[8.765557,49.619222],"type":"Point"},"properties":{"osm_id":"1356999635","tag":{"amenity":"waste_basket"}},"type":"Feature"},
	{"geometry":{"coordinates":[8.765625,49.619295],"type":"Point"},"properties":{"osm_id":"1356999646","tag":{"amenity":"waste_basket"}},"type":"Feature"},
	{"geometry":{"coordinates":[8.765618,49.619342],"type":"Point"},"properties":{"osm_id":"1356999649","tag":{"amenity":"waste_basket"}},"type":"Feature"},
	{"geometry":{"coordinates":[8.764401,49.619512],"type":"Point"},"properties":{"osm_id":"1356999682","tag":{"amenity":"waste_basket"}},"type":"Feature"},
	{"geometry":{"coordinates":[8.764343,49.619549],"type":"Point"},"properties":{"osm_id":"1356999695","tag":{"amenity":"waste_basket"}},"type":"Feature"},
	{"geometry":{"coordinates":[8.764729,49.619616],"type":"Point"},"properties":{"osm_id":"1356999707","tag":{"amenity":"waste_basket"}},"type":"Feature"},
	{"geometry":{"coordinates":[8.766216,49.619096],"type":"Point"},"properties":{"osm_id":"1370375677","tag":{"amenity":"waste_basket"}},"type":"Feature"},
	{"geometry":{"coordinates":[8.764554,49.620078],"type":"Point"},"properties":{"osm_id":"1370375850","tag":{"amenity":"waste_basket"}},"type":"Feature"},
	{"geometry":{"coordinates":[8.764278,49.620484],"type":"Point"},"properties":{"osm_id":"1370375873","tag":{"amenity":"waste_basket"}},"type":"Feature"},
	{"geometry":{"coordinates":[8.761441,49.623862],"type":"Point"},"properties":{"osm_id":"1371141086","tag":{"amenity":"waste_basket"}},"type":"Feature"},
	{"geometry":{"coordinates":[8.760595,49.623987],"type":"Point"},"properties":{"osm_id":"1371141199","tag":{"amenity":"waste_basket"}},"type":"Feature"},
	{"geometry":{"coordinates":[8.759069,49.623242],"type":"Point"},"properties":{"osm_id":"1372380051","tag":{"amenity":"waste_basket"}},"type":"Feature"},
	{"geometry":{"coordinates":[8.764618,49.620643],"type":"Point"},"properties":{"osm_id":"1476801389","tag":{"amenity":"waste_basket"}},"type":"Feature"},
	{"geometry":{"coordinates":[8.765086,49.620801],"type":"Point"},"properties":{"osm_id":"1476801399","tag":{"amenity":"waste_basket"}},"type":"Feature"},
	{"geometry":{"coordinates":[8.772402,49.622593],"type":"Point"},"properties":{"osm_id":"1478090713","tag":{"amenity":"waste_basket"}},"type":"Feature"},
	{"geometry":{"coordinates":[8.763379,49.623971],"type":"Point"},"properties":{"osm_id":"1492579818","tag":{"amenity":"waste_basket"}},"type":"Feature"},
	{"geometry":{"coordinates":[8.759549,49.624113],"type":"Point"},"properties":{"osm_id":"1517807477","tag":{"amenity":"waste_basket"}},"type":"Feature"},
	{"geometry":{"coordinates":[8.758559,49.624473],"type":"Point"},"properties":{"osm_id":"1519843271","tag":{"amenity":"waste_basket"}},"type":"Feature"},
	{"geometry":{"coordinates":[8.75672,49.62675],"type":"Point"},"properties":{"osm_id":"1536618225","tag":{"amenity":"recycling","recycling:clothes":"yes","recycling:shoes":"yes","recycling_type":"container"}},"type":"Feature"},
	{"geometry":{"coordinates":[8.760208,49.627595],"type":"Point"},"properties":{"osm_id":"1583289906","tag":{"amenity":"recycling","recycling:clothes":"yes","recycling:glass":"yes","recycling:shoes":"yes","recycling_type":"container"}},"type":"Feature"},
	{"geometry":{"coordinates":[8.759307,49.623936],"type":"Point"},"properties":{"osm_id":"1600266848","tag":{"amenity":"waste_basket"}},"type":"Feature"},
	{"geometry":{"coordinates":[8.758134,49.624794],"type":"Point"},"properties":{"osm_id":"1600266857","tag":{"amenity":"waste_basket"}},"type":"Feature"},
	{"geometry":{"coordinates":[8.760141,49.623838],"type":"Point"},"properties":{"osm_id":"1600471543","tag":{"amenity":"waste_basket"}},"type":"Feature"},
	{"geometry":{"coordinates":[8.759545,49.623852],"type":"Point"},"properties":{"osm_id":"1600471558","tag":{"amenity":"waste_basket"}},"type":"Feature"},
	{"geometry":{"coordinates":[8.760611,49.623876],"type":"Point"},"properties":{"osm_id":"1600471583","tag":{"amenity":"waste_basket"}},"type":"Feature"},
	{"geometry":{"coordinates":[8.761072,49.623902],"type":"Point"},"properties":{"osm_id":"1600471585","tag":{"amenity":"waste_basket"}},"type":"Feature"},
	{"geometry":{"coordinates":[8.757123,49.627105],"type":"Point"},"properties":{"osm_id":"1609365231","tag":{"amenity":"waste_basket"}},"type":"Feature"},
	{"geometry":{"coordinates":[8.75055,49.628681],"type":"Point"},"properties":{"osm_id":"1627345677","tag":{"amenity":"waste_basket"}},"type":"Feature"},
	{"geometry":{"coordinates":[8.756959,49.626971],"type":"Point"},"properties":{"osm_id":"1630409499","tag":{"amenity":"waste_basket"}},"type":"Feature"},
	{"geometry":{"coordinates":[8.757479,49.626997],"type":"Point"},"properties":{"osm_id":"1630409538","tag":{"amenity":"recycling","recycling:glass":"yes","recycling_type":"container"}},"type":"Feature"},
	{"geometry":{"coordinates":[8.757379,49.627027],"type":"Point"},"properties":{"osm_id":"1630409546","tag":{"amenity":"recycling","recycling:clothes":"yes","recycling_type":"container"}},"type":"Feature"},
	{"geometry":{"coordinates":[8.764173,49.643811],"type":"Point"},"properties":{"name":"ZAKB Biomasse Wertstoff Hof F\u00c3\u00bcrth","osm_id":"1662249038","tag":{"amenity":"recycling","opening_hours":"Nov-Mar: We,Fr 14:00-17:00; Sa 09:30-15:00; Apr-Oct: We,Fr 14:00-18:00; Sa 09:30-15:00","operator":"ZAKB","recycling:batteries":"yes","recycling:fluorescent_tubes":"yes","recycling:green_waste":"yes","recycling:hardcode":"yes","recycling:plastic":"yes","recycling:scrap_metal":"yes","recycling:tyres":"yes","recycling:white_goods":"yes","recycling_type":"centre"}},"type":"Feature"},
	{"geometry":{"coordinates":[8.758596,49.62422],"type":"Point"},"properties":{"osm_id":"1663124247","tag":{"amenity":"waste_basket"}},"type":"Feature"},
	{"geometry":{"coordinates":[8.75404,49.623927],"type":"Point"},"properties":{"osm_id":"1666059838","tag":{"amenity":"waste_basket"}},"type":"Feature"},
	{"geometry":{"coordinates":[8.746246,49.620831],"type":"Point"},"properties":{"osm_id":"1669158910","tag":{"amenity":"waste_basket"}},"type":"Feature"},
	{"geometry":{"coordinates":[8.74848,49.623878],"type":"Point"},"properties":{"osm_id":"1669160451","tag":{"amenity":"recycling","recycling:shoes":"yes","recycling_type":"container"}},"type":"Feature"},
	{"geometry":{"coordinates":[8.748709,49.624488],"type":"Point"},"properties":{"osm_id":"1669160737","tag":{"amenity":"waste_basket"}},"type":"Feature"},
	{"geometry":{"coordinates":[8.730274,49.626383],"type":"Point"},"properties":{"osm_id":"1676228110","tag":{"amenity":"waste_basket"}},"type":"Feature"},
	{"geometry":{"coordinates":[8.729479,49.627799],"type":"Point"},"properties":{"osm_id":"1686437364","tag":{"amenity":"waste_basket"}},"type":"Feature"},
	{"geometry":{"coordinates":[8.731278,49.629026],"type":"Point"},"properties":{"osm_id":"1686437511","tag":{"amenity":"waste_basket"}},"type":"Feature"},
	{"geometry":{"coordinates":[8.710032,49.631103],"type":"Point"},"properties":{"osm_id":"1687750810","tag":{"amenity":"waste_basket"}},"type":"Feature"},
	{"geometry":{"coordinates":[8.710541,49.631148],"type":"Point"},"properties":{"osm_id":"1687750824","tag":{"amenity":"waste_basket"}},"type":"Feature"},
	{"geometry":{"coordinates":[8.733214,49.625018],"type":"Point"},"properties":{"osm_id":"1688814821","tag":{"amenity":"recycling","mapillary":"LFNslMMbbIjwQBo5b-XVYg","operator":"Sehbehinderten Selbsthilfe Kurpfalz-Odenwald e. V.","recycling:clothes":"yes","recycling:electrical_appliances":"yes","recycling:shoes":"yes","recycling_type":"container","survey:date":"2017-04-09"}},"type":"Feature"},
	{"geometry":{"coordinates":[8.729987,49.626238],"type":"Point"},"properties":{"osm_id":"1688815356","tag":{"amenity":"waste_basket"}},"type":"Feature"},
	{"geometry":{"coordinates":[8.728919,49.628094],"type":"Point"},"properties":{"osm_id":"1688816099","tag":{"amenity":"waste_basket"}},"type":"Feature"},
	{"geometry":{"coordinates":[8.720587,49.629715],"type":"Point"},"properties":{"osm_id":"1688816265","tag":{"amenity":"waste_basket"}},"type":"Feature"},
	{"geometry":{"coordinates":[8.721912,49.630397],"type":"Point"},"properties":{"osm_id":"1688816368","tag":{"amenity":"waste_basket"}},"type":"Feature"},
	{"geometry":{"coordinates":[8.718443,49.627517],"type":"Point"},"properties":{"osm_id":"1701564074","tag":{"amenity":"waste_basket"}},"type":"Feature"},
	{"geometry":{"coordinates":[8.726835,49.61627],"type":"Point"},"properties":{"osm_id":"2192627490","tag":{"amenity":"waste_basket"}},"type":"Feature"}
]
}
