{
"type": "FeatureCollection",
"features": [
	{"geometry":{"coordinates":[8.75259,49.442869],"type":"Point"},"properties":{"osm_id":"288587316","tag":{"amenity":"recycling","recycling:glass":"yes","source:position":"HiRes aerial imagery"}},"type":"Feature"},
	{"geometry":{"coordinates":[8.752323,49.442369],"type":"Point"},"properties":{"osm_id":"288587926","tag":{"amenity":"recycling","recycling:clothes":"yes"}},"type":"Feature"},
	{"geometry":{"coordinates":[8.740649,49.485696],"type":"Point"},"properties":{"osm_id":"624617848","tag":{"amenity":"recycling","operator":"Abfallverwertungsgesellschaft des Rhein-Neckar-Kreises","recycling:glass":"yes"}},"type":"Feature"},
	{"geometry":{"coordinates":[8.740644,49.48567],"type":"Point"},"properties":{"osm_id":"624617850","tag":{"amenity":"recycling","operator":"Deutsches Rotes Kreuz","recycling:clothes":"yes","recycling:shoes":"yes","recycling_type":"container"}},"type":"Feature"},
	{"geometry":{"coordinates":[8.705429,49.440041],"type":"Point"},"properties":{"osm_id":"2774185945","tag":{"amenity":"waste_basket"}},"type":"Feature"},
	{"geometry":{"coordinates":[8.702463,49.457695],"type":"Point"},"properties":{"osm_id":"2774186292","tag":{"amenity":"waste_basket"}},"type":"Feature"},
	{"geometry":{"coordinates":[8.737432,49.457065],"type":"Point"},"properties":{"osm_id":"2859208230","tag":{"amenity":"waste_basket"}},"type":"Feature"},
	{"geometry":{"coordinates":[8.751241,49.452661],"type":"Point"},"properties":{"osm_id":"3139441335","tag":{"amenity":"waste_basket"}},"type":"Feature"},
	{"geometry":{"coordinates":[8.764361,49.461695],"type":"Point"},"properties":{"osm_id":"3338847152","tag":{"amenity":"waste_basket"}},"type":"Feature"},
	{"geometry":{"coordinates":[8.765283,49.461838],"type":"Point"},"properties":{"osm_id":"3338847155","tag":{"amenity":"waste_basket"}},"type":"Feature"},
	{"geometry":{"coordinates":[8.76905,49.461911],"type":"Point"},"properties":{"osm_id":"3338847159","tag":{"amenity":"waste_basket"}},"type":"Feature"},
	{"geometry":{"coordinates":[8.760264,49.465092],"type":"Point"},"properties":{"osm_id":"3338847167","tag":{"amenity":"waste_basket"}},"type":"Feature"},
	{"geometry":{"coordinates":[8.771518,49.466045],"type":"Point"},"properties":{"osm_id":"3338847189","tag":{"amenity":"waste_basket"}},"type":"Feature"},
	{"geometry":{"coordinates":[8.768728,49.46006],"type":"Point"},"properties":{"osm_id":"3338852572","tag":{"amenity":"waste_basket"}},"type":"Feature"},
	{"geometry":{"coordinates":[8.763567,49.461445],"type":"Point"},"properties":{"osm_id":"3338852610","tag":{"amenity":"waste_basket"}},"type":"Feature"},
	{"geometry":{"coordinates":[8.760748,49.463232],"type":"Point"},"properties":{"osm_id":"3338852623","tag":{"amenity":"waste_basket"}},"type":"Feature"},
	{"geometry":{"coordinates":[8.772388,49.466636],"type":"Point"},"properties":{"osm_id":"3338852645","tag":{"amenity":"waste_basket"}},"type":"Feature"},
	{"geometry":{"coordinates":[8.755338,49.468728],"type":"Point"},"properties":{"osm_id":"3338852660","tag":{"amenity":"waste_basket"}},"type":"Feature"},
	{"geometry":{"coordinates":[8.753471,49.471203],"type":"Point"},"properties":{"osm_id":"3338852682","tag":{"amenity":"waste_basket"}},"type":"Feature"},
	{"geometry":{"coordinates":[8.756636,49.468248],"type":"Point"},"properties":{"osm_id":"3338852714","tag":{"amenity":"waste_basket"}},"type":"Feature"},
	{"geometry":{"coordinates":[8.764213,49.468681],"type":"Point"},"properties":{"osm_id":"3338852722","tag":{"amenity":"waste_basket"}},"type":"Feature"},
	{"geometry":{"coordinates":[8.764365,49.476874],"type":"Point"},"properties":{"osm_id":"3338852746","tag":{"amenity":"waste_basket"}},"type":"Feature"},
	{"geometry":{"coordinates":[8.762036,49.453324],"type":"Point"},"properties":{"osm_id":"3343725439","tag":{"amenity":"waste_basket","source:position":"HiRes aerial imagery"}},"type":"Feature"},
	{"geometry":{"coordinates":[8.778108,49.474753],"type":"Point"},"properties":{"osm_id":"3480387286","tag":{"amenity":"waste_basket"}},"type":"Feature"},
	{"geometry":{"coordinates":[8.752407,49.442518],"type":"Point"},"properties":{"osm_id":"3480397428","tag":{"amenity":"waste_basket"}},"type":"Feature"},
	{"geometry":{"coordinates":[8.752275,49.442636],"type":"Point"},"properties":{"osm_id":"3480397438","tag":{"amenity":"waste_basket","source:position":"HiRes aerial imagery"}},"type":"Feature"},
	{"geometry":{"coordinates":[8.752343,49.443206],"type":"Point"},"properties":{"osm_id":"3480397452","tag":{"amenity":"waste_basket","source:position":"HiRes aerial imagery"}},"type":"Feature"},
	{"geometry":{"coordinates":[8.760592,49.477538],"type":"Point"},"properties":{"osm_id":"3480397933","tag":{"amenity":"waste_basket"}},"type":"Feature"},
	{"geometry":{"coordinates":[8.760812,49.478074],"type":"Point"},"properties":{"osm_id":"3480397935","tag":{"amenity":"waste_basket"}},"type":"Feature"},
	{"geometry":{"coordinates":[8.770724,49.481644],"type":"Point"},"properties":{"osm_id":"3480397955","tag":{"amenity":"waste_basket"}},"type":"Feature"},
	{"geometry":{"coordinates":[8.754049,49.470102],"type":"Point"},"properties":{"osm_id":"3508471122","tag":{"amenity":"waste_basket"}},"type":"Feature"},
	{"geometry":{"coordinates":[8.753923,49.470217],"type":"Point"},"properties":{"osm_id":"3508471137","tag":{"amenity":"waste_basket"}},"type":"Feature"},
	{"geometry":{"coordinates":[8.759782,49.466875],"type":"Point"},"properties":{"osm_id":"3508472936","tag":{"amenity":"waste_basket"}},"type":"Feature"},
	{"geometry":{"coordinates":[8.758172,49.468112],"type":"Point"},"properties":{"osm_id":"3508472938","tag":{"amenity":"waste_basket"}},"type":"Feature"},
	{"geometry":{"coordinates":[8.763037,49.465575],"type":"Point"},"properties":{"osm_id":"3539242462","tag":{"amenity":"waste_basket"}},"type":"Feature"},
	{"geometry":{"coordinates":[8.761233,49.465015],"type":"Point"},"properties":{"osm_id":"3539243387","tag":{"amenity":"waste_basket"}},"type":"Feature"},
	{"geometry":{"coordinates":[8.786637,49.48325],"type":"Point"},"properties":{"osm_id":"3577098555","tag":{"amenity":"waste_basket"}},"type":"Feature"},
	{"geometry":{"coordinates":[8.752823,49.472096],"type":"Point"},"properties":{"osm_id":"4346606341","tag":{"amenity":"waste_basket"}},"type":"Feature"},
	{"geometry":{"coordinates":[8.750307,49.476699],"type":"Point"},"properties":{"osm_id":"4346615411","tag":{"amenity":"waste_basket"}},"type":"Feature"},
	{"geometry":{"coordinates":[8.776223,49.46367],"type":"Point"},"properties":{"osm_id":"5611807646","tag":{"amenity":"waste_basket","waste":"trash"}},"type":"Feature"},
	{"geometry":{"coordinates":[8.763123,49.478464],"type":"Point"},"properties":{"osm_id":"5643421958","tag":{"amenity":"waste_basket"}},"type":"Feature"},
	{"geometry":{"coordinates":[8.750213,49.474193],"type":"Point"},"properties":{"osm_id":"6283660412","tag":{"amenity":"waste_basket","waste":"trash"}},"type":"Feature"},
	{"geometry":{"coordinates":[8.767015,49.469745],"type":"Point"},"properties":{"osm_id":"7468189759","tag":{"amenity":"waste_basket","waste":"trash"}},"type":"Feature"}
]
}
