{
"type": "FeatureCollection",
"features": [
	{"geometry":{"coordinates":[8.756446,49.419181],"type":"Point"},"properties":{"osm_id":"294829393","tag":{"amenity":"recycling","recycling:glass":"yes","recycling:glass_bottles":"yes","recycling_type":"container","source:position":"HiRes aerial imagery"}},"type":"Feature"},
	{"geometry":{"coordinates":[8.756443,49.419202],"type":"Point"},"properties":{"osm_id":"294829396","tag":{"amenity":"recycling","recycling:glass":"yes","recycling_type":"container","source:position":"HiRes aerial imagery"}},"type":"Feature"},
	{"geometry":{"coordinates":[8.756402,49.419188],"type":"Point"},"properties":{"osm_id":"294829399","tag":{"amenity":"recycling","recycling:clothes":"yes","recycling_type":"container"}},"type":"Feature"},
	{"geometry":{"coordinates":[8.748673,49.434309],"type":"Point"},"properties":{"osm_id":"296444068","tag":{"amenity":"recycling","recycling:glass":"yes","recycling_type":"container","source:geometry":"HiRes aerial imagery"}},"type":"Feature"},
	{"geometry":{"coordinates":[8.743399,49.424354],"type":"Point"},"properties":{"osm_id":"296934648","tag":{"amenity":"recycling","recycling:clothes":"yes","recycling:glass":"yes"}},"type":"Feature"},
	{"geometry":{"coordinates":[8.727816,49.403196],"type":"Point"},"properties":{"osm_id":"335980121","tag":{"amenity":"recycling","recycling:glass":"yes","source:location":"HiRes aerial imagery"}},"type":"Feature"},
	{"geometry":{"coordinates":[8.715375,49.429013],"type":"Point"},"properties":{"osm_id":"414267115","tag":{"amenity":"waste_basket"}},"type":"Feature"},
	{"geometry":{"coordinates":[8.708819,49.416966],"type":"Point"},"properties":{"osm_id":"419293963","tag":{"amenity":"waste_basket"}},"type":"Feature"},
	{"geometry":{"coordinates":[8.71088,49.415283],"type":"Point"},"properties":{"osm_id":"419294111","tag":{"amenity":"waste_basket"}},"type":"Feature"},
	{"geometry":{"coordinates":[8.71133,49.415315],"type":"Point"},"properties":{"osm_id":"419294112","tag":{"amenity":"waste_basket"}},"type":"Feature"},
	{"geometry":{"coordinates":[8.712123,49.415357],"type":"Point"},"properties":{"osm_id":"419294113","tag":{"amenity":"waste_basket"}},"type":"Feature"},
	{"geometry":{"coordinates":[8.712596,49.415382],"type":"Point"},"properties":{"osm_id":"419294114","tag":{"amenity":"waste_basket"}},"type":"Feature"},
	{"geometry":{"coordinates":[8.763354,49.418661],"type":"Point"},"properties":{"osm_id":"426932023","tag":{"amenity":"recycling","recycling:glass":"yes","recycling_type":"container"}},"type":"Feature"},
	{"geometry":{"coordinates":[8.718455,49.41407],"type":"Point"},"properties":{"osm_id":"429842360","tag":{"amenity":"recycling","mapillary":"qxqx_kCe9HylXW-nQFQ-uQ","recycling:glass":"yes","recycling_type":"container","survey:date":"2017-12-31"}},"type":"Feature"},
	{"geometry":{"coordinates":[8.748623,49.427865],"type":"Point"},"properties":{"osm_id":"478172934","tag":{"amenity":"recycling","recycling:glass":"yes","recycling_type":"container","source:geometry":"HiRes aerial imagery"}},"type":"Feature"},
	{"geometry":{"coordinates":[8.778508,49.43189],"type":"Point"},"properties":{"osm_id":"478173210","tag":{"amenity":"waste_basket"}},"type":"Feature"},
	{"geometry":{"coordinates":[8.705131,49.431436],"type":"Point"},"properties":{"osm_id":"568721042","tag":{"amenity":"waste_basket"}},"type":"Feature"},
	{"geometry":{"coordinates":[8.705374,49.431562],"type":"Point"},"properties":{"osm_id":"568721069","tag":{"amenity":"waste_basket"}},"type":"Feature"},
	{"geometry":{"coordinates":[8.704761,49.431782],"type":"Point"},"properties":{"osm_id":"568721077","tag":{"amenity":"waste_basket"}},"type":"Feature"},
	{"geometry":{"coordinates":[8.705105,49.431696],"type":"Point"},"properties":{"osm_id":"568721093","tag":{"amenity":"waste_basket"}},"type":"Feature"},
	{"geometry":{"coordinates":[8.737104,49.386853],"type":"Point"},"properties":{"osm_id":"662605014","tag":{"amenity":"waste_basket","source:position":"HiRes aerial imagery"}},"type":"Feature"},
	{"geometry":{"coordinates":[8.739058,49.387336],"type":"Point"},"properties":{"osm_id":"662605028","tag":{"amenity":"waste_basket"}},"type":"Feature"},
	{"geometry":{"coordinates":[8.738491,49.387255],"type":"Point"},"properties":{"osm_id":"662605029","tag":{"amenity":"waste_basket"}},"type":"Feature"},
	{"geometry":{"coordinates":[8.736567,49.397577],"type":"Point"},"properties":{"osm_id":"669047424","tag":{"amenity":"waste_basket"}},"type":"Feature"},
	{"geometry":{"coordinates":[8.736575,49.397647],"type":"Point"},"properties":{"osm_id":"669047480","tag":{"amenity":"waste_basket"}},"type":"Feature"},
	{"geometry":{"coordinates":[8.776741,49.392896],"type":"Point"},"properties":{"osm_id":"763511413","tag":{"amenity":"waste_basket"}},"type":"Feature"},
	{"geometry":{"coordinates":[8.7636,49.388368],"type":"Point"},"properties":{"osm_id":"765058118","tag":{"amenity":"waste_basket"}},"type":"Feature"},
	{"geometry":{"coordinates":[8.763871,49.388242],"type":"Point"},"properties":{"osm_id":"765058143","tag":{"amenity":"waste_basket"}},"type":"Feature"},
	{"geometry":{"coordinates":[8.753388,49.404027],"type":"Point"},"properties":{"osm_id":"765058243","tag":{"amenity":"waste_basket"}},"type":"Feature"},
	{"geometry":{"coordinates":[8.753614,49.404157],"type":"Point"},"properties":{"osm_id":"765058268","tag":{"amenity":"waste_basket"}},"type":"Feature"},
	{"geometry":{"coordinates":[8.753724,49.404022],"type":"Point"},"properties":{"osm_id":"765058304","tag":{"amenity":"waste_basket"}},"type":"Feature"},
	{"geometry":{"coordinates":[8.735047,49.387179],"type":"Point"},"properties":{"osm_id":"765395504","tag":{"amenity":"recycling","recycling:glass":"yes","source:position":"HiRes aerial imagery"}},"type":"Feature"},
	{"geometry":{"coordinates":[8.741622,49.384982],"type":"Point"},"properties":{"osm_id":"765395730","tag":{"amenity":"waste_basket"}},"type":"Feature"},
	{"geometry":{"coordinates":[8.78291,49.389977],"type":"Point"},"properties":{"osm_id":"795825435","tag":{"amenity":"waste_basket"}},"type":"Feature"},
	{"geometry":{"coordinates":[8.708166,49.384596],"type":"Point"},"properties":{"osm_id":"844502193","tag":{"amenity":"recycling","recycling:glass":"yes"}},"type":"Feature"},
	{"geometry":{"coordinates":[8.735819,49.400241],"type":"Point"},"properties":{"osm_id":"853901122","tag":{"amenity":"waste_basket"}},"type":"Feature"},
	{"geometry":{"coordinates":[8.706823,49.408809],"type":"Point"},"properties":{"osm_id":"1029582740","tag":{"amenity":"recycling","recycling:glass_bottles":"yes","recycling_type":"container","source:position":"HiRes aerial imagery"}},"type":"Feature"},
	{"geometry":{"coordinates":[8.712592,49.410926],"type":"Point"},"properties":{"osm_id":"1029582753","tag":{"amenity":"recycling","mapillary":"ialDTc3pRDwFwXfKXtgsyw","recycling:glass":"yes","recycling_type":"container","source:position":"HiRes aerial imagery","survey:date":"2016-07-19"}},"type":"Feature"},
	{"geometry":{"coordinates":[8.713209,49.412406],"type":"Point"},"properties":{"osm_id":"1029582756","tag":{"amenity":"recycling","mapillary":"d64k0q2AY63FbPzp-KJ-fA","recycling:glass":"yes","recycling_type":"container","survey:date":"2017-08-17"}},"type":"Feature"},
	{"geometry":{"coordinates":[8.702758,49.412958],"type":"Point"},"properties":{"osm_id":"1029582757","tag":{"amenity":"recycling","recycling:glass":"yes","recycling_type":"container"}},"type":"Feature"},
	{"geometry":{"coordinates":[8.713608,49.413608],"type":"Point"},"properties":{"osm_id":"1029582759","tag":{"amenity":"recycling","recycling:glass_bottles":"yes","recycling:paper":"yes","recycling_type":"container","source:position":"Bing 2012"}},"type":"Feature"},
	{"geometry":{"coordinates":[8.705355,49.412913],"type":"Point"},"properties":{"osm_id":"1029582760","tag":{"amenity":"recycling","recycling:glass":"yes","recycling_type":"container"}},"type":"Feature"},
	{"geometry":{"coordinates":[8.71024,49.413431],"type":"Point"},"properties":{"osm_id":"1029582763","tag":{"amenity":"recycling","recycling:glass_bottles":"yes","recycling_type":"container"}},"type":"Feature"},
	{"geometry":{"coordinates":[8.71885,49.414646],"type":"Point"},"properties":{"osm_id":"1029582764","tag":{"amenity":"recycling","recycling:glass":"yes"}},"type":"Feature"},
	{"geometry":{"coordinates":[8.702227,49.408962],"type":"Point"},"properties":{"osm_id":"1029582770","tag":{"amenity":"recycling","location":"overground","recycling:clothes":"yes","recycling_type":"container"}},"type":"Feature"},
	{"geometry":{"coordinates":[8.723317,49.410546],"type":"Point"},"properties":{"osm_id":"1097406651","tag":{"amenity":"waste_basket"}},"type":"Feature"},
	{"geometry":{"coordinates":[8.731875,49.406275],"type":"Point"},"properties":{"osm_id":"1097406714","tag":{"amenity":"waste_basket"}},"type":"Feature"},
	{"geometry":{"coordinates":[8.724907,49.416878],"type":"Point"},"properties":{"osm_id":"1151524591","tag":{"amenity":"recycling","recycling:glass":"yes","recycling_type":"container"}},"type":"Feature"},
	{"geometry":{"coordinates":[8.744763,49.403275],"type":"Point"},"properties":{"osm_id":"1269937619","tag":{"amenity":"waste_basket"}},"type":"Feature"},
	{"geometry":{"coordinates":[8.746842,49.411514],"type":"Point"},"properties":{"osm_id":"1276543069","tag":{"amenity":"waste_basket"}},"type":"Feature"},
	{"geometry":{"coordinates":[8.746223,49.410979],"type":"Point"},"properties":{"osm_id":"1276543072","tag":{"amenity":"waste_basket"}},"type":"Feature"},
	{"geometry":{"coordinates":[8.771294,49.401859],"type":"Point"},"properties":{"osm_id":"1276543115","tag":{"amenity":"waste_basket"}},"type":"Feature"},
	{"geometry":{"coordinates":[8.738149,49.413332],"type":"Point"},"properties":{"osm_id":"1276543135","tag":{"amenity":"recycling","recycling:glass":"yes","recycling_type":"container","source:position":"HiRes aerial imagery"}},"type":"Feature"},
	{"geometry":{"coordinates":[8.73038,49.392623],"type":"Point"},"properties":{"osm_id":"1305304867","tag":{"amenity":"waste_basket"}},"type":"Feature"},
	{"geometry":{"coordinates":[8.730706,49.392312],"type":"Point"},"properties":{"osm_id":"1305304883","tag":{"amenity":"waste_basket"}},"type":"Feature"},
	{"geometry":{"coordinates":[8.735618,49.389189],"type":"Point"},"properties":{"osm_id":"1305304989","tag":{"amenity":"waste_basket"}},"type":"Feature"},
	{"geometry":{"coordinates":[8.756442,49.417366],"type":"Point"},"properties":{"osm_id":"1356965554","tag":{"amenity":"waste_basket","description":"unten am Neckar"}},"type":"Feature"},
	{"geometry":{"coordinates":[8.727813,49.403262],"type":"Point"},"properties":{"osm_id":"1810652486","tag":{"amenity":"waste_basket","source:location":"HiRes aerial imagery"}},"type":"Feature"},
	{"geometry":{"coordinates":[8.713201,49.41242],"type":"Point"},"properties":{"osm_id":"1826840491","tag":{"amenity":"recycling","mapillary":"d64k0q2AY63FbPzp-KJ-fA","recycling:glass":"yes","recycling_type":"container","survey:date":"2017-08-17"}},"type":"Feature"},
	{"geometry":{"coordinates":[8.763098,49.417453],"type":"Point"},"properties":{"osm_id":"1862784665","tag":{"amenity":"waste_basket","source:position":"HiRes aerial imagery"}},"type":"Feature"},
	{"geometry":{"coordinates":[8.743375,49.423442],"type":"Point"},"properties":{"osm_id":"1862785565","tag":{"amenity":"waste_basket","source:position":"HiRes aerial imagery"}},"type":"Feature"},
	{"geometry":{"coordinates":[8.708141,49.407011],"type":"Point"},"properties":{"osm_id":"1897490806","tag":{"amenity":"waste_basket","source:position":"HiRes aerial imagery"}},"type":"Feature"},
	{"geometry":{"coordinates":[8.708238,49.407313],"type":"Point"},"properties":{"osm_id":"1898227495","tag":{"amenity":"waste_basket","source:position":"HiRes aerial imagery"}},"type":"Feature"},
	{"geometry":{"coordinates":[8.708903,49.409035],"type":"Point"},"properties":{"osm_id":"1899287308","tag":{"amenity":"waste_basket"}},"type":"Feature"},
	{"geometry":{"coordinates":[8.713728,49.409818],"type":"Point"},"properties":{"osm_id":"1899287618","tag":{"amenity":"waste_basket"}},"type":"Feature"},
	{"geometry":{"coordinates":[8.712663,49.409925],"type":"Point"},"properties":{"osm_id":"1899287668","tag":{"amenity":"waste_basket","source:position":"HiRes aerial imagery"}},"type":"Feature"},
	{"geometry":{"coordinates":[8.713395,49.410081],"type":"Point"},"properties":{"osm_id":"1899287738","tag":{"amenity":"waste_basket"}},"type":"Feature"},
	{"geometry":{"coordinates":[8.713058,49.410088],"type":"Point"},"properties":{"osm_id":"1899287741","tag":{"amenity":"waste_basket","source:position":"HiRes aerial imagery"}},"type":"Feature"},
	{"geometry":{"coordinates":[8.713232,49.41023],"type":"Point"},"properties":{"osm_id":"1899287774","tag":{"amenity":"waste_basket"}},"type":"Feature"},
	{"geometry":{"coordinates":[8.7112,49.410293],"type":"Point"},"properties":{"osm_id":"1899287837","tag":{"amenity":"waste_basket"}},"type":"Feature"},
	{"geometry":{"coordinates":[8.712699,49.410967],"type":"Point"},"properties":{"osm_id":"1899287961","tag":{"amenity":"waste_basket","source:position":"HiRes aerial imagery"}},"type":"Feature"},
	{"geometry":{"coordinates":[8.710162,49.415244],"type":"Point"},"properties":{"osm_id":"2184900135","tag":{"amenity":"waste_basket"}},"type":"Feature"},
	{"geometry":{"coordinates":[8.711718,49.415292],"type":"Point"},"properties":{"osm_id":"2184900145","tag":{"amenity":"waste_basket"}},"type":"Feature"},
	{"geometry":{"coordinates":[8.71307,49.415371],"type":"Point"},"properties":{"osm_id":"2184900153","tag":{"amenity":"waste_basket"}},"type":"Feature"},
	{"geometry":{"coordinates":[8.760686,49.417158],"type":"Point"},"properties":{"osm_id":"2184900300","tag":{"amenity":"recycling","recycling:clothes":"yes","recycling_type":"container","source:geo":"HiRes aerial imagery"}},"type":"Feature"},
	{"geometry":{"coordinates":[8.760667,49.417161],"type":"Point"},"properties":{"osm_id":"2184900302","tag":{"amenity":"recycling","recycling:glass":"yes","recycling_type":"container","source:geo":"HiRes aerial imagery"}},"type":"Feature"},
	{"geometry":{"coordinates":[8.760644,49.417164],"type":"Point"},"properties":{"osm_id":"2184900305","tag":{"amenity":"recycling","recycling:glass":"yes","recycling_type":"container","source:geo":"HiRes aerial imagery"}},"type":"Feature"},
	{"geometry":{"coordinates":[8.704967,49.43124],"type":"Point"},"properties":{"osm_id":"2220282815","tag":{"amenity":"waste_basket"}},"type":"Feature"},
	{"geometry":{"coordinates":[8.704867,49.431319],"type":"Point"},"properties":{"osm_id":"2220282952","tag":{"amenity":"waste_basket"}},"type":"Feature"},
	{"geometry":{"coordinates":[8.705339,49.431322],"type":"Point"},"properties":{"osm_id":"2220282956","tag":{"amenity":"waste_basket"}},"type":"Feature"},
	{"geometry":{"coordinates":[8.705297,49.431609],"type":"Point"},"properties":{"osm_id":"2220283081","tag":{"amenity":"waste_basket"}},"type":"Feature"},
	{"geometry":{"coordinates":[8.705922,49.431701],"type":"Point"},"properties":{"osm_id":"2220283118","tag":{"amenity":"waste_basket"}},"type":"Feature"},
	{"geometry":{"coordinates":[8.747535,49.413749],"type":"Point"},"properties":{"osm_id":"2247612109","tag":{"amenity":"waste_basket","source:position":"HiRes aerial imagery"}},"type":"Feature"},
	{"geometry":{"coordinates":[8.750505,49.415183],"type":"Point"},"properties":{"osm_id":"2247612332","tag":{"amenity":"recycling","recycling:glass":"yes","recycling_type":"container","source:position":"HiRes aerial imagery"}},"type":"Feature"},
	{"geometry":{"coordinates":[8.742797,49.415554],"type":"Point"},"properties":{"osm_id":"2247612438","tag":{"amenity":"waste_basket"}},"type":"Feature"},
	{"geometry":{"coordinates":[8.758962,49.415602],"type":"Point"},"properties":{"osm_id":"2247612447","tag":{"amenity":"waste_basket","source:position":"HiRes aerial imagery"}},"type":"Feature"},
	{"geometry":{"coordinates":[8.742621,49.415669],"type":"Point"},"properties":{"osm_id":"2247612454","tag":{"amenity":"recycling","recycling:glass":"yes","recycling_type":"container"}},"type":"Feature"},
	{"geometry":{"coordinates":[8.742575,49.415679],"type":"Point"},"properties":{"osm_id":"2247612458","tag":{"amenity":"waste_basket","source:position":"HiRes aerial imagery"}},"type":"Feature"},
	{"geometry":{"coordinates":[8.745732,49.412568],"type":"Point"},"properties":{"osm_id":"2249419571","tag":{"amenity":"recycling","recycling:clothes":"yes","recycling:glass":"yes","recycling_type":"container","source:position":"HiRes aerial imagery"}},"type":"Feature"},
	{"geometry":{"coordinates":[8.760572,49.415118],"type":"Point"},"properties":{"osm_id":"2249419733","tag":{"amenity":"recycling","recycling:glass":"yes","recycling_type":"container","source:position":"HiRes aerial imagery"}},"type":"Feature"},
	{"geometry":{"coordinates":[8.752173,49.423528],"type":"Point"},"properties":{"osm_id":"2249582867","tag":{"amenity":"recycling","recycling:glass":"yes","recycling_type":"container","source:loc":"HiRes aerial imagery"}},"type":"Feature"},
	{"geometry":{"coordinates":[8.748617,49.427882],"type":"Point"},"properties":{"osm_id":"2249582929","tag":{"amenity":"recycling","recycling:glass":"yes","recycling_type":"container","source:geometry":"HiRes aerial imagery"}},"type":"Feature"},
	{"geometry":{"coordinates":[8.761935,49.415167],"type":"Point"},"properties":{"osm_id":"2251270520","tag":{"amenity":"waste_basket","source:position":"HiRes aerial imagery"}},"type":"Feature"},
	{"geometry":{"coordinates":[8.762054,49.415212],"type":"Point"},"properties":{"osm_id":"2251270525","tag":{"amenity":"waste_basket"}},"type":"Feature"},
	{"geometry":{"coordinates":[8.712375,49.413567],"type":"Point"},"properties":{"osm_id":"2280283644","tag":{"amenity":"waste_basket","waste":"trash"}},"type":"Feature"},
	{"geometry":{"coordinates":[8.714561,49.413829],"type":"Point"},"properties":{"osm_id":"2280283667","tag":{"amenity":"waste_basket","source:position":"HiRes aerial imagery"}},"type":"Feature"},
	{"geometry":{"coordinates":[8.714788,49.413885],"type":"Point"},"properties":{"osm_id":"2280283673","tag":{"amenity":"waste_basket","source:position":"HiRes aerial imagery"}},"type":"Feature"},
	{"geometry":{"coordinates":[8.721263,49.421472],"type":"Point"},"properties":{"osm_id":"2282549409","tag":{"amenity":"waste_basket"}},"type":"Feature"},
	{"geometry":{"coordinates":[8.706277,49.425345],"type":"Point"},"properties":{"osm_id":"2282684081","tag":{"amenity":"waste_basket"}},"type":"Feature"},
	{"geometry":{"coordinates":[8.740651,49.429877],"type":"Point"},"properties":{"osm_id":"2294195906","tag":{"amenity":"waste_basket"}},"type":"Feature"},
	{"geometry":{"coordinates":[8.72077,49.431471],"type":"Point"},"properties":{"osm_id":"2294195943","tag":{"amenity":"waste_basket"}},"type":"Feature"},
	{"geometry":{"coordinates":[8.710966,49.418324],"type":"Point"},"properties":{"osm_id":"2319482733","tag":{"amenity":"waste_basket","source:location":"HiRes aerial imagery"}},"type":"Feature"},
	{"geometry":{"coordinates":[8.711277,49.418353],"type":"Point"},"properties":{"osm_id":"2319482734","tag":{"amenity":"waste_basket","source:location":"HiRes aerial imagery"}},"type":"Feature"},
	{"geometry":{"coordinates":[8.711165,49.418546],"type":"Point"},"properties":{"osm_id":"2319482759","tag":{"amenity":"waste_basket","source:location":"HiRes aerial imagery"}},"type":"Feature"},
	{"geometry":{"coordinates":[8.73653,49.404088],"type":"Point"},"properties":{"osm_id":"2349309626","tag":{"amenity":"waste_basket"}},"type":"Feature"},
	{"geometry":{"coordinates":[8.716518,49.394728],"type":"Point"},"properties":{"osm_id":"2381864555","tag":{"amenity":"waste_basket","source:geometry":"HiRes aerial imagery"}},"type":"Feature"},
	{"geometry":{"coordinates":[8.74147,49.418153],"type":"Point"},"properties":{"osm_id":"2508986440","tag":{"amenity":"waste_basket","source:position":"HiRes aerial imagery"}},"type":"Feature"},
	{"geometry":{"coordinates":[8.749513,49.412416],"type":"Point"},"properties":{"osm_id":"2510994812","tag":{"amenity":"waste_basket"}},"type":"Feature"},
	{"geometry":{"coordinates":[8.749461,49.412517],"type":"Point"},"properties":{"osm_id":"2510994821","tag":{"amenity":"waste_basket"}},"type":"Feature"},
	{"geometry":{"coordinates":[8.749611,49.412707],"type":"Point"},"properties":{"osm_id":"2510994855","tag":{"amenity":"waste_basket"}},"type":"Feature"},
	{"geometry":{"coordinates":[8.763359,49.414774],"type":"Point"},"properties":{"osm_id":"2510994994","tag":{"amenity":"waste_basket","source:position":"HiRes aerial imagery"}},"type":"Feature"},
	{"geometry":{"coordinates":[8.762878,49.41491],"type":"Point"},"properties":{"osm_id":"2510995008","tag":{"amenity":"waste_basket","source:position":"HiRes aerial imagery"}},"type":"Feature"},
	{"geometry":{"coordinates":[8.762224,49.415012],"type":"Point"},"properties":{"osm_id":"2510995032","tag":{"amenity":"waste_basket","source:position":"HiRes aerial imagery"}},"type":"Feature"},
	{"geometry":{"coordinates":[8.765782,49.4158],"type":"Point"},"properties":{"osm_id":"2511495523","tag":{"amenity":"waste_basket","description":"unter dem Fu\u00c3\u009fweg"}},"type":"Feature"},
	{"geometry":{"coordinates":[8.764268,49.416036],"type":"Point"},"properties":{"osm_id":"2511495526","tag":{"amenity":"waste_basket","description":"unter dem Fu\u00c3\u009fweg"}},"type":"Feature"},
	{"geometry":{"coordinates":[8.718266,49.409486],"type":"Point"},"properties":{"osm_id":"2517897724","tag":{"amenity":"waste_basket"}},"type":"Feature"},
	{"geometry":{"coordinates":[8.78682,49.394867],"type":"Point"},"properties":{"osm_id":"2518035988","tag":{"amenity":"waste_basket"}},"type":"Feature"},
	{"geometry":{"coordinates":[8.770588,49.411459],"type":"Point"},"properties":{"osm_id":"2525352179","tag":{"amenity":"recycling","recycling:glass":"yes","recycling_type":"container","source:position":"HiRes aerial imagery"}},"type":"Feature"},
	{"geometry":{"coordinates":[8.770475,49.411144],"type":"Point"},"properties":{"osm_id":"2525352183","tag":{"amenity":"waste_basket"}},"type":"Feature"},
	{"geometry":{"coordinates":[8.78065,49.393444],"type":"Point"},"properties":{"osm_id":"2526031735","tag":{"amenity":"waste_basket"}},"type":"Feature"},
	{"geometry":{"coordinates":[8.782966,49.39391],"type":"Point"},"properties":{"osm_id":"2526031747","tag":{"amenity":"waste_basket"}},"type":"Feature"},
	{"geometry":{"coordinates":[8.784654,49.394388],"type":"Point"},"properties":{"osm_id":"2526031751","tag":{"amenity":"waste_basket"}},"type":"Feature"},
	{"geometry":{"coordinates":[8.76174,49.415113],"type":"Point"},"properties":{"osm_id":"2554409530","tag":{"amenity":"recycling","recycling:clothes":"yes","recycling_type":"container"}},"type":"Feature"},
	{"geometry":{"coordinates":[8.760355,49.415184],"type":"Point"},"properties":{"osm_id":"2560093727","tag":{"amenity":"recycling","recycling:clothes":"yes","recycling_type":"container"}},"type":"Feature"},
	{"geometry":{"coordinates":[8.770526,49.413817],"type":"Point"},"properties":{"osm_id":"2581103028","tag":{"amenity":"recycling","recycling_type":"container"}},"type":"Feature"},
	{"geometry":{"coordinates":[8.7699,49.414328],"type":"Point"},"properties":{"osm_id":"2769258682","tag":{"amenity":"recycling","recycling:cans":"no","recycling:clothes":"no","recycling:glass":"yes","recycling:paper":"no","recycling_type":"container"}},"type":"Feature"},
	{"geometry":{"coordinates":[8.714248,49.406705],"type":"Point"},"properties":{"osm_id":"3064973058","tag":{"amenity":"recycling","recycling:glass":"yes","recycling_type":"container","source:geo":"HiRes aerial imagery"}},"type":"Feature"},
	{"geometry":{"coordinates":[8.716764,49.409856],"type":"Point"},"properties":{"osm_id":"3071610483","tag":{"amenity":"waste_basket","source:position":"HiRes aerial imagery"}},"type":"Feature"},
	{"geometry":{"coordinates":[8.717016,49.409872],"type":"Point"},"properties":{"osm_id":"3071610484","tag":{"amenity":"waste_basket","source:position":"HiRes aerial imagery"}},"type":"Feature"},
	{"geometry":{"coordinates":[8.717384,49.409897],"type":"Point"},"properties":{"osm_id":"3071610485","tag":{"amenity":"waste_basket","source:position":"HiRes aerial imagery"}},"type":"Feature"},
	{"geometry":{"coordinates":[8.718056,49.409948],"type":"Point"},"properties":{"osm_id":"3071610486","tag":{"amenity":"waste_basket","source:position":"HiRes aerial imagery"}},"type":"Feature"},
	{"geometry":{"coordinates":[8.718486,49.409979],"type":"Point"},"properties":{"osm_id":"3071610487","tag":{"amenity":"waste_basket","source:position":"HiRes aerial imagery"}},"type":"Feature"},
	{"geometry":{"coordinates":[8.717098,49.409995],"type":"Point"},"properties":{"osm_id":"3071610488","tag":{"amenity":"waste_basket","source:position":"HiRes aerial imagery"}},"type":"Feature"},
	{"geometry":{"coordinates":[8.719423,49.410053],"type":"Point"},"properties":{"osm_id":"3071610489","tag":{"amenity":"waste_basket","source:position":"HiRes aerial imagery"}},"type":"Feature"},
	{"geometry":{"coordinates":[8.718762,49.410105],"type":"Point"},"properties":{"osm_id":"3071610490","tag":{"amenity":"waste_basket","source:position":"HiRes aerial imagery"}},"type":"Feature"},
	{"geometry":{"coordinates":[8.720602,49.412736],"type":"Point"},"properties":{"osm_id":"3071635715","tag":{"amenity":"recycling","recycling:glass":"yes","recycling_type":"container","source:position":"HiRes aerial imagery"}},"type":"Feature"},
	{"geometry":{"coordinates":[8.716256,49.409838],"type":"Point"},"properties":{"osm_id":"3093290143","tag":{"amenity":"waste_basket","source:position":"HiRes aerial imagery"}},"type":"Feature"},
	{"geometry":{"coordinates":[8.716876,49.41033],"type":"Point"},"properties":{"osm_id":"3093290159","tag":{"amenity":"waste_basket","source:position":"HiRes aerial imagery"}},"type":"Feature"},
	{"geometry":{"coordinates":[8.717804,49.410596],"type":"Point"},"properties":{"osm_id":"3093290169","tag":{"amenity":"waste_basket"}},"type":"Feature"},
	{"geometry":{"coordinates":[8.719125,49.410746],"type":"Point"},"properties":{"osm_id":"3093290178","tag":{"amenity":"waste_basket","source:position":"HiRes aerial imagery"}},"type":"Feature"},
	{"geometry":{"coordinates":[8.715598,49.410781],"type":"Point"},"properties":{"osm_id":"3093290181","tag":{"amenity":"waste_basket"}},"type":"Feature"},
	{"geometry":{"coordinates":[8.71816,49.411413],"type":"Point"},"properties":{"osm_id":"3093290198","tag":{"amenity":"waste_basket","source:position":"HiRes aerial imagery"}},"type":"Feature"},
	{"geometry":{"coordinates":[8.718239,49.410475],"type":"Point"},"properties":{"osm_id":"3093291724","tag":{"amenity":"waste_basket"}},"type":"Feature"},
	{"geometry":{"coordinates":[8.716879,49.410482],"type":"Point"},"properties":{"osm_id":"3093291725","tag":{"amenity":"waste_basket","source:position":"HiRes aerial imagery"}},"type":"Feature"},
	{"geometry":{"coordinates":[8.719142,49.409998],"type":"Point"},"properties":{"osm_id":"3093291832","tag":{"amenity":"waste_basket"}},"type":"Feature"},
	{"geometry":{"coordinates":[8.719217,49.410427],"type":"Point"},"properties":{"osm_id":"3093291846","tag":{"amenity":"waste_basket","source:position":"HiRes aerial imagery"}},"type":"Feature"},
	{"geometry":{"coordinates":[8.715649,49.410885],"type":"Point"},"properties":{"osm_id":"3093291870","tag":{"amenity":"waste_basket","source:position":"HiRes aerial imagery"}},"type":"Feature"},
	{"geometry":{"coordinates":[8.714823,49.411052],"type":"Point"},"properties":{"osm_id":"3093291876","tag":{"amenity":"waste_basket","layer":"-1"}},"type":"Feature"},
	{"geometry":{"coordinates":[8.714887,49.411064],"type":"Point"},"properties":{"osm_id":"3093291878","tag":{"amenity":"waste_basket"}},"type":"Feature"},
	{"geometry":{"coordinates":[8.715264,49.411557],"type":"Point"},"properties":{"osm_id":"3093291885","tag":{"amenity":"waste_basket","source:position":"HiRes aerial imagery"}},"type":"Feature"},
	{"geometry":{"coordinates":[8.71532,49.411638],"type":"Point"},"properties":{"osm_id":"3093291890","tag":{"amenity":"waste_basket","source:position":"HiRes aerial imagery"}},"type":"Feature"},
	{"geometry":{"coordinates":[8.718238,49.41096],"type":"Point"},"properties":{"osm_id":"3093291941","tag":{"amenity":"waste_basket","source:position":"HiRes aerial imagery"}},"type":"Feature"},
	{"geometry":{"coordinates":[8.715001,49.4111],"type":"Point"},"properties":{"osm_id":"3093291947","tag":{"amenity":"waste_basket"}},"type":"Feature"},
	{"geometry":{"coordinates":[8.715116,49.411137],"type":"Point"},"properties":{"osm_id":"3093291953","tag":{"amenity":"waste_basket"}},"type":"Feature"},
	{"geometry":{"coordinates":[8.718111,49.411654],"type":"Point"},"properties":{"osm_id":"3093291960","tag":{"amenity":"waste_basket"}},"type":"Feature"},
	{"geometry":{"coordinates":[8.77057,49.411469],"type":"Point"},"properties":{"osm_id":"3139428277","tag":{"amenity":"recycling","recycling:clothes":"yes","recycling_type":"container"}},"type":"Feature"},
	{"geometry":{"coordinates":[8.756704,49.418825],"type":"Point"},"properties":{"osm_id":"3139436618","tag":{"amenity":"waste_basket"}},"type":"Feature"},
	{"geometry":{"coordinates":[8.760299,49.421926],"type":"Point"},"properties":{"osm_id":"3139437515","tag":{"amenity":"recycling","recycling:glass":"yes","recycling_type":"container","source:geo":"HiRes aerial imagery"}},"type":"Feature"},
	{"geometry":{"coordinates":[8.756505,49.420644],"type":"Point"},"properties":{"osm_id":"3139440889","tag":{"amenity":"waste_basket","source:geo":"HiRes aerial imagery"}},"type":"Feature"},
	{"geometry":{"coordinates":[8.74214,49.423025],"type":"Point"},"properties":{"osm_id":"3152480301","tag":{"amenity":"waste_basket"}},"type":"Feature"},
	{"geometry":{"coordinates":[8.708211,49.415027],"type":"Point"},"properties":{"osm_id":"3191418213","tag":{"amenity":"waste_basket"}},"type":"Feature"},
	{"geometry":{"coordinates":[8.705513,49.409252],"type":"Point"},"properties":{"osm_id":"3211760390","tag":{"amenity":"waste_basket","source:position":"HiRes aerial imagery"}},"type":"Feature"},
	{"geometry":{"coordinates":[8.705675,49.409455],"type":"Point"},"properties":{"osm_id":"3211760411","tag":{"amenity":"waste_basket"}},"type":"Feature"},
	{"geometry":{"coordinates":[8.706337,49.409485],"type":"Point"},"properties":{"osm_id":"3211760419","tag":{"amenity":"waste_basket"}},"type":"Feature"},
	{"geometry":{"coordinates":[8.706342,49.410023],"type":"Point"},"properties":{"osm_id":"3211760427","tag":{"amenity":"recycling","description":"unterirdisch","recycling:glass":"yes","recycling_type":"container"}},"type":"Feature"},
	{"geometry":{"coordinates":[8.705865,49.410783],"type":"Point"},"properties":{"osm_id":"3211760432","tag":{"amenity":"waste_basket","source:position":"HiRes aerial imagery"}},"type":"Feature"},
	{"geometry":{"coordinates":[8.71129,49.412459],"type":"Point"},"properties":{"osm_id":"3211760448","tag":{"amenity":"recycling","recycling:glass":"yes","recycling_type":"container"}},"type":"Feature"},
	{"geometry":{"coordinates":[8.77533,49.407709],"type":"Point"},"properties":{"osm_id":"3222654138","tag":{"amenity":"waste_basket"}},"type":"Feature"},
	{"geometry":{"coordinates":[8.70672,49.408812],"type":"Point"},"properties":{"osm_id":"3263294771","tag":{"advertising":"column","amenity":"recycling","recycling:clothes":"yes","recycling_type":"container","source:position":"HiRes aerial imagery"}},"type":"Feature"},
	{"geometry":{"coordinates":[8.712973,49.413644],"type":"Point"},"properties":{"osm_id":"3280066442","tag":{"amenity":"waste_basket","waste":"trash"}},"type":"Feature"},
	{"geometry":{"coordinates":[8.788215,49.39334],"type":"Point"},"properties":{"osm_id":"3309531608","tag":{"amenity":"waste_basket"}},"type":"Feature"},
	{"geometry":{"coordinates":[8.756488,49.418056],"type":"Point"},"properties":{"osm_id":"3380935081","tag":{"amenity":"waste_basket"}},"type":"Feature"},
	{"geometry":{"coordinates":[8.756591,49.418509],"type":"Point"},"properties":{"osm_id":"3380935082","tag":{"amenity":"waste_basket"}},"type":"Feature"},
	{"geometry":{"coordinates":[8.756916,49.418269],"type":"Point"},"properties":{"osm_id":"3380935085","tag":{"amenity":"waste_basket"}},"type":"Feature"},
	{"geometry":{"coordinates":[8.749499,49.429929],"type":"Point"},"properties":{"osm_id":"3380952758","tag":{"amenity":"waste_basket"}},"type":"Feature"},
	{"geometry":{"coordinates":[8.756339,49.418338],"type":"Point"},"properties":{"osm_id":"3389461245","tag":{"amenity":"waste_basket"}},"type":"Feature"},
	{"geometry":{"coordinates":[8.749276,49.417345],"type":"Point"},"properties":{"osm_id":"3389467318","tag":{"amenity":"waste_basket"}},"type":"Feature"},
	{"geometry":{"coordinates":[8.74803,49.417352],"type":"Point"},"properties":{"osm_id":"3389467319","tag":{"amenity":"waste_basket"}},"type":"Feature"},
	{"geometry":{"coordinates":[8.75289,49.417422],"type":"Point"},"properties":{"osm_id":"3390248749","tag":{"amenity":"waste_basket"}},"type":"Feature"},
	{"geometry":{"coordinates":[8.756418,49.418329],"type":"Point"},"properties":{"osm_id":"3390263751","tag":{"amenity":"waste_basket"}},"type":"Feature"},
	{"geometry":{"coordinates":[8.756551,49.418621],"type":"Point"},"properties":{"osm_id":"3390263752","tag":{"amenity":"waste_basket"}},"type":"Feature"},
	{"geometry":{"coordinates":[8.756656,49.419024],"type":"Point"},"properties":{"osm_id":"3390263753","tag":{"amenity":"waste_basket"}},"type":"Feature"},
	{"geometry":{"coordinates":[8.753739,49.422616],"type":"Point"},"properties":{"osm_id":"3390263754","tag":{"amenity":"waste_basket"}},"type":"Feature"},
	{"geometry":{"coordinates":[8.754703,49.422084],"type":"Point"},"properties":{"osm_id":"3390263755","tag":{"amenity":"waste_basket"}},"type":"Feature"},
	{"geometry":{"coordinates":[8.751993,49.425119],"type":"Point"},"properties":{"osm_id":"3390263756","tag":{"amenity":"waste_basket"}},"type":"Feature"},
	{"geometry":{"coordinates":[8.751523,49.425391],"type":"Point"},"properties":{"osm_id":"3390263757","tag":{"amenity":"waste_basket"}},"type":"Feature"},
	{"geometry":{"coordinates":[8.750081,49.429291],"type":"Point"},"properties":{"osm_id":"3390271768","tag":{"amenity":"waste_basket"}},"type":"Feature"},
	{"geometry":{"coordinates":[8.743894,49.417519],"type":"Point"},"properties":{"osm_id":"3391240994","tag":{"amenity":"waste_basket"}},"type":"Feature"},
	{"geometry":{"coordinates":[8.744037,49.417421],"type":"Point"},"properties":{"osm_id":"3391240995","tag":{"amenity":"waste_basket"}},"type":"Feature"},
	{"geometry":{"coordinates":[8.761125,49.416927],"type":"Point"},"properties":{"osm_id":"3426425437","tag":{"amenity":"waste_basket"}},"type":"Feature"},
	{"geometry":{"coordinates":[8.760595,49.417816],"type":"Point"},"properties":{"osm_id":"3426427700","tag":{"amenity":"waste_basket"}},"type":"Feature"},
	{"geometry":{"coordinates":[8.758927,49.417964],"type":"Point"},"properties":{"osm_id":"3426427703","tag":{"amenity":"waste_basket"}},"type":"Feature"},
	{"geometry":{"coordinates":[8.756756,49.418236],"type":"Point"},"properties":{"osm_id":"3429510956","tag":{"amenity":"waste_basket"}},"type":"Feature"},
	{"geometry":{"coordinates":[8.760803,49.422525],"type":"Point"},"properties":{"osm_id":"3429510985","tag":{"amenity":"waste_basket","source:position":"HiRes aerial imagery"}},"type":"Feature"},
	{"geometry":{"coordinates":[8.782566,49.39238],"type":"Point"},"properties":{"osm_id":"3429528794","tag":{"amenity":"waste_basket"}},"type":"Feature"},
	{"geometry":{"coordinates":[8.727514,49.418261],"type":"Point"},"properties":{"osm_id":"3480360071","tag":{"amenity":"waste_basket"}},"type":"Feature"},
	{"geometry":{"coordinates":[8.718507,49.411199],"type":"Point"},"properties":{"osm_id":"3492149099","tag":{"amenity":"waste_basket"}},"type":"Feature"},
	{"geometry":{"coordinates":[8.757502,49.418055],"type":"Point"},"properties":{"osm_id":"3577099571","tag":{"amenity":"waste_basket","source:position":"HiRes aerial imagery"}},"type":"Feature"},
	{"geometry":{"coordinates":[8.710109,49.415191],"type":"Point"},"properties":{"osm_id":"3625161285","tag":{"amenity":"waste_basket"}},"type":"Feature"},
	{"geometry":{"coordinates":[8.713342,49.413455],"type":"Point"},"properties":{"osm_id":"3648747061","tag":{"amenity":"waste_basket"}},"type":"Feature"},
	{"geometry":{"coordinates":[8.713153,49.412458],"type":"Point"},"properties":{"osm_id":"3648755214","tag":{"amenity":"waste_basket"}},"type":"Feature"},
	{"geometry":{"coordinates":[8.706586,49.41692],"type":"Point"},"properties":{"osm_id":"3668603612","tag":{"amenity":"waste_basket","source:position":"HiRes aerial imagery"}},"type":"Feature"},
	{"geometry":{"coordinates":[8.702272,49.415602],"type":"Point"},"properties":{"osm_id":"3668603928","tag":{"amenity":"waste_basket","source:position":"HiRes aerial imagery"}},"type":"Feature"},
	{"geometry":{"coordinates":[8.7024,49.415837],"type":"Point"},"properties":{"osm_id":"3668603935","tag":{"amenity":"waste_basket"}},"type":"Feature"},
	{"geometry":{"coordinates":[8.701958,49.415942],"type":"Point"},"properties":{"osm_id":"3668603941","tag":{"amenity":"waste_basket"}},"type":"Feature"},
	{"geometry":{"coordinates":[8.711933,49.412342],"type":"Point"},"properties":{"osm_id":"3742363789","tag":{"amenity":"waste_basket"}},"type":"Feature"},
	{"geometry":{"coordinates":[8.727768,49.401674],"type":"Point"},"properties":{"osm_id":"3752214517","tag":{"amenity":"waste_basket","source:position":"HiRes aerial imagery"}},"type":"Feature"},
	{"geometry":{"coordinates":[8.727661,49.402317],"type":"Point"},"properties":{"osm_id":"3752214519","tag":{"amenity":"waste_basket","source:position":"HiRes aerial imagery"}},"type":"Feature"},
	{"geometry":{"coordinates":[8.711212,49.419845],"type":"Point"},"properties":{"osm_id":"3853403564","tag":{"amenity":"waste_basket"}},"type":"Feature"},
	{"geometry":{"coordinates":[8.703459,49.411411],"type":"Point"},"properties":{"osm_id":"3877205301","tag":{"amenity":"waste_basket"}},"type":"Feature"},
	{"geometry":{"coordinates":[8.706155,49.411643],"type":"Point"},"properties":{"osm_id":"3877205304","tag":{"amenity":"waste_basket"}},"type":"Feature"},
	{"geometry":{"coordinates":[8.704789,49.41147],"type":"Point"},"properties":{"osm_id":"3897495410","tag":{"amenity":"waste_basket"}},"type":"Feature"},
	{"geometry":{"coordinates":[8.730176,49.420123],"type":"Point"},"properties":{"osm_id":"3897495435","tag":{"amenity":"waste_basket"}},"type":"Feature"},
	{"geometry":{"coordinates":[8.708613,49.411758],"type":"Point"},"properties":{"osm_id":"3897495481","tag":{"amenity":"waste_basket"}},"type":"Feature"},
	{"geometry":{"coordinates":[8.76241,49.416593],"type":"Point"},"properties":{"osm_id":"3897495484","tag":{"amenity":"waste_basket"}},"type":"Feature"},
	{"geometry":{"coordinates":[8.703994,49.410605],"type":"Point"},"properties":{"osm_id":"3899648764","tag":{"amenity":"waste_basket"}},"type":"Feature"},
	{"geometry":{"coordinates":[8.704341,49.410649],"type":"Point"},"properties":{"osm_id":"3899648768","tag":{"amenity":"waste_basket"}},"type":"Feature"},
	{"geometry":{"coordinates":[8.703966,49.410718],"type":"Point"},"properties":{"osm_id":"3899648771","tag":{"amenity":"waste_basket"}},"type":"Feature"},
	{"geometry":{"coordinates":[8.704296,49.410758],"type":"Point"},"properties":{"osm_id":"3899648778","tag":{"amenity":"waste_basket"}},"type":"Feature"},
	{"geometry":{"coordinates":[8.708558,49.411264],"type":"Point"},"properties":{"osm_id":"3899648783","tag":{"amenity":"waste_basket"}},"type":"Feature"},
	{"geometry":{"coordinates":[8.706769,49.423407],"type":"Point"},"properties":{"osm_id":"3913084892","tag":{"amenity":"waste_basket","source:position":"HiRes aerial imagery"}},"type":"Feature"},
	{"geometry":{"coordinates":[8.705894,49.42346],"type":"Point"},"properties":{"osm_id":"3913084894","tag":{"amenity":"waste_basket","source:position":"HiRes aerial imagery"}},"type":"Feature"},
	{"geometry":{"coordinates":[8.706832,49.423643],"type":"Point"},"properties":{"osm_id":"3913084899","tag":{"amenity":"waste_basket","source:position":"HiRes aerial imagery"}},"type":"Feature"},
	{"geometry":{"coordinates":[8.706871,49.423839],"type":"Point"},"properties":{"osm_id":"3913084917","tag":{"amenity":"waste_basket","source:position":"HiRes aerial imagery"}},"type":"Feature"},
	{"geometry":{"coordinates":[8.705919,49.423895],"type":"Point"},"properties":{"osm_id":"3913087344","tag":{"amenity":"waste_basket","source:position":"HiRes aerial imagery"}},"type":"Feature"},
	{"geometry":{"coordinates":[8.709969,49.411854],"type":"Point"},"properties":{"osm_id":"3925318600","tag":{"amenity":"waste_basket"}},"type":"Feature"},
	{"geometry":{"coordinates":[8.719888,49.414843],"type":"Point"},"properties":{"osm_id":"4076390694","tag":{"amenity":"waste_basket","covered":"yes"}},"type":"Feature"},
	{"geometry":{"coordinates":[8.719938,49.414905],"type":"Point"},"properties":{"osm_id":"4076390695","tag":{"amenity":"waste_basket","covered":"yes"}},"type":"Feature"},
	{"geometry":{"coordinates":[8.720074,49.41493],"type":"Point"},"properties":{"osm_id":"4076390697","tag":{"amenity":"waste_basket","covered":"yes"}},"type":"Feature"},
	{"geometry":{"coordinates":[8.720512,49.414986],"type":"Point"},"properties":{"osm_id":"4076390698","tag":{"amenity":"waste_basket","covered":"yes"}},"type":"Feature"},
	{"geometry":{"coordinates":[8.720166,49.415006],"type":"Point"},"properties":{"osm_id":"4076390699","tag":{"amenity":"waste_basket","covered":"yes"}},"type":"Feature"},
	{"geometry":{"coordinates":[8.720155,49.415016],"type":"Point"},"properties":{"osm_id":"4076390701","tag":{"amenity":"waste_basket","covered":"yes"}},"type":"Feature"},
	{"geometry":{"coordinates":[8.719946,49.415055],"type":"Point"},"properties":{"osm_id":"4076390708","tag":{"amenity":"waste_basket","covered":"yes"}},"type":"Feature"},
	{"geometry":{"coordinates":[8.720289,49.415059],"type":"Point"},"properties":{"osm_id":"4076390709","tag":{"amenity":"waste_basket","covered":"yes"}},"type":"Feature"},
	{"geometry":{"coordinates":[8.720265,49.415079],"type":"Point"},"properties":{"osm_id":"4076390710","tag":{"amenity":"waste_basket","covered":"yes"}},"type":"Feature"},
	{"geometry":{"coordinates":[8.720074,49.415104],"type":"Point"},"properties":{"osm_id":"4076390711","tag":{"amenity":"waste_basket","covered":"yes"}},"type":"Feature"},
	{"geometry":{"coordinates":[8.706007,49.410922],"type":"Point"},"properties":{"osm_id":"4081111820","tag":{"advertising":"column","amenity":"recycling","recycling:clothes":"yes","recycling:shoes":"yes","recycling_type":"container","source:position":"HiRes aerial imagery"}},"type":"Feature"},
	{"geometry":{"coordinates":[8.706127,49.410934],"type":"Point"},"properties":{"osm_id":"4081111821","tag":{"amenity":"waste_basket"}},"type":"Feature"},
	{"geometry":{"coordinates":[8.706702,49.411025],"type":"Point"},"properties":{"osm_id":"4081111828","tag":{"amenity":"waste_basket"}},"type":"Feature"},
	{"geometry":{"coordinates":[8.703986,49.410071],"type":"Point"},"properties":{"osm_id":"4081112046","tag":{"amenity":"waste_basket"}},"type":"Feature"},
	{"geometry":{"coordinates":[8.703527,49.410124],"type":"Point"},"properties":{"osm_id":"4081112054","tag":{"amenity":"waste_basket"}},"type":"Feature"},
	{"geometry":{"coordinates":[8.706238,49.410618],"type":"Point"},"properties":{"osm_id":"4081112160","tag":{"amenity":"waste_basket"}},"type":"Feature"},
	{"geometry":{"coordinates":[8.706806,49.410707],"type":"Point"},"properties":{"osm_id":"4081112164","tag":{"amenity":"waste_basket"}},"type":"Feature"},
	{"geometry":{"coordinates":[8.724475,49.418753],"type":"Point"},"properties":{"osm_id":"4129812563","tag":{"amenity":"waste_basket"}},"type":"Feature"},
	{"geometry":{"coordinates":[8.724993,49.419096],"type":"Point"},"properties":{"osm_id":"4135124050","tag":{"amenity":"waste_basket"}},"type":"Feature"},
	{"geometry":{"coordinates":[8.70146,49.390732],"type":"Point"},"properties":{"osm_id":"4168255520","tag":{"amenity":"waste_basket"}},"type":"Feature"},
	{"geometry":{"coordinates":[8.708754,49.409597],"type":"Point"},"properties":{"osm_id":"4242166147","tag":{"amenity":"waste_basket"}},"type":"Feature"},
	{"geometry":{"coordinates":[8.708657,49.410686],"type":"Point"},"properties":{"osm_id":"4242166152","tag":{"amenity":"waste_basket"}},"type":"Feature"},
	{"geometry":{"coordinates":[8.71697,49.413783],"type":"Point"},"properties":{"osm_id":"4242166162","tag":{"amenity":"waste_basket"}},"type":"Feature"},
	{"geometry":{"coordinates":[8.750778,49.41666],"type":"Point"},"properties":{"osm_id":"4262196951","tag":{"amenity":"waste_basket","source:position":"HiRes aerial imagery"}},"type":"Feature"},
	{"geometry":{"coordinates":[8.715137,49.410738],"type":"Point"},"properties":{"osm_id":"4584159248","tag":{"amenity":"waste_basket"}},"type":"Feature"},
	{"geometry":{"coordinates":[8.715188,49.410673],"type":"Point"},"properties":{"osm_id":"4584159249","tag":{"amenity":"waste_basket"}},"type":"Feature"},
	{"geometry":{"coordinates":[8.710251,49.41341],"type":"Point"},"properties":{"osm_id":"4597142102","tag":{"amenity":"recycling","recycling:glass_bottles":"yes","recycling_type":"container"}},"type":"Feature"},
	{"geometry":{"coordinates":[8.70793,49.413344],"type":"Point"},"properties":{"osm_id":"4597142104","tag":{"amenity":"waste_basket"}},"type":"Feature"},
	{"geometry":{"coordinates":[8.705843,49.413369],"type":"Point"},"properties":{"osm_id":"4597142106","tag":{"amenity":"waste_basket"}},"type":"Feature"},
	{"geometry":{"coordinates":[8.709139,49.411968],"type":"Point"},"properties":{"osm_id":"4597142108","tag":{"amenity":"waste_basket"}},"type":"Feature"},
	{"geometry":{"coordinates":[8.709458,49.411822],"type":"Point"},"properties":{"osm_id":"4597142110","tag":{"amenity":"waste_basket"}},"type":"Feature"},
	{"geometry":{"coordinates":[8.710117,49.412336],"type":"Point"},"properties":{"osm_id":"4597142113","tag":{"amenity":"waste_basket"}},"type":"Feature"},
	{"geometry":{"coordinates":[8.710312,49.41236],"type":"Point"},"properties":{"osm_id":"4597142114","tag":{"amenity":"waste_basket"}},"type":"Feature"},
	{"geometry":{"coordinates":[8.711373,49.412111],"type":"Point"},"properties":{"osm_id":"4597142116","tag":{"amenity":"waste_basket"}},"type":"Feature"},
	{"geometry":{"coordinates":[8.711374,49.411962],"type":"Point"},"properties":{"osm_id":"4597142117","tag":{"amenity":"waste_basket"}},"type":"Feature"},
	{"geometry":{"coordinates":[8.713782,49.409378],"type":"Point"},"properties":{"osm_id":"4597142119","tag":{"amenity":"waste_basket"}},"type":"Feature"},
	{"geometry":{"coordinates":[8.714327,49.4105],"type":"Point"},"properties":{"osm_id":"4597142122","tag":{"amenity":"waste_basket","source:position":"HiRes aerial imagery"}},"type":"Feature"},
	{"geometry":{"coordinates":[8.714443,49.409858],"type":"Point"},"properties":{"osm_id":"4597142123","tag":{"amenity":"waste_basket","source:position":"HiRes aerial imagery"}},"type":"Feature"},
	{"geometry":{"coordinates":[8.707877,49.417306],"type":"Point"},"properties":{"osm_id":"4597142203","tag":{"amenity":"waste_basket"}},"type":"Feature"},
	{"geometry":{"coordinates":[8.710715,49.412307],"type":"Point"},"properties":{"osm_id":"4597142219","tag":{"amenity":"waste_basket"}},"type":"Feature"},
	{"geometry":{"coordinates":[8.710827,49.41201],"type":"Point"},"properties":{"osm_id":"4597142222","tag":{"amenity":"waste_basket"}},"type":"Feature"},
	{"geometry":{"coordinates":[8.714436,49.41012],"type":"Point"},"properties":{"osm_id":"4597142225","tag":{"amenity":"waste_basket"}},"type":"Feature"},
	{"geometry":{"coordinates":[8.709685,49.415202],"type":"Point"},"properties":{"osm_id":"4614188847","tag":{"amenity":"waste_basket"}},"type":"Feature"},
	{"geometry":{"coordinates":[8.702779,49.410398],"type":"Point"},"properties":{"osm_id":"4857343880","tag":{"amenity":"waste_basket"}},"type":"Feature"},
	{"geometry":{"coordinates":[8.71523,49.410442],"type":"Point"},"properties":{"osm_id":"4864661146","tag":{"amenity":"waste_basket"}},"type":"Feature"},
	{"geometry":{"coordinates":[8.715236,49.410417],"type":"Point"},"properties":{"osm_id":"4864661147","tag":{"amenity":"waste_basket"}},"type":"Feature"},
	{"geometry":{"coordinates":[8.715223,49.410468],"type":"Point"},"properties":{"osm_id":"4864661150","tag":{"amenity":"waste_basket"}},"type":"Feature"},
	{"geometry":{"coordinates":[8.715264,49.410317],"type":"Point"},"properties":{"osm_id":"4864661152","tag":{"amenity":"waste_basket"}},"type":"Feature"},
	{"geometry":{"coordinates":[8.71527,49.410294],"type":"Point"},"properties":{"osm_id":"4864661153","tag":{"amenity":"waste_basket"}},"type":"Feature"},
	{"geometry":{"coordinates":[8.702646,49.411654],"type":"Point"},"properties":{"osm_id":"4864899870","tag":{"amenity":"waste_basket"}},"type":"Feature"},
	{"geometry":{"coordinates":[8.702297,49.411818],"type":"Point"},"properties":{"osm_id":"4864900232","tag":{"amenity":"waste_basket"}},"type":"Feature"},
	{"geometry":{"coordinates":[8.702554,49.411646],"type":"Point"},"properties":{"osm_id":"4864900236","tag":{"amenity":"waste_basket"}},"type":"Feature"},
	{"geometry":{"coordinates":[8.714869,49.407189],"type":"Point"},"properties":{"osm_id":"4872983751","tag":{"amenity":"waste_basket"}},"type":"Feature"},
	{"geometry":{"coordinates":[8.713688,49.412865],"type":"Point"},"properties":{"osm_id":"4872984637","tag":{"amenity":"waste_basket"}},"type":"Feature"},
	{"geometry":{"coordinates":[8.711977,49.412524],"type":"Point"},"properties":{"osm_id":"4872984639","tag":{"amenity":"waste_basket"}},"type":"Feature"},
	{"geometry":{"coordinates":[8.703116,49.41136],"type":"Point"},"properties":{"osm_id":"4872984641","tag":{"amenity":"waste_basket"}},"type":"Feature"},
	{"geometry":{"coordinates":[8.704916,49.411561],"type":"Point"},"properties":{"osm_id":"4872984642","tag":{"amenity":"waste_basket"}},"type":"Feature"},
	{"geometry":{"coordinates":[8.714561,49.407229],"type":"Point"},"properties":{"osm_id":"4872984653","tag":{"amenity":"waste_basket"}},"type":"Feature"},
	{"geometry":{"coordinates":[8.750632,49.393288],"type":"Point"},"properties":{"osm_id":"4872984669","tag":{"amenity":"waste_basket"}},"type":"Feature"},
	{"geometry":{"coordinates":[8.755668,49.416162],"type":"Point"},"properties":{"osm_id":"4961900339","tag":{"amenity":"waste_basket"}},"type":"Feature"},
	{"geometry":{"coordinates":[8.708691,49.393823],"type":"Point"},"properties":{"osm_id":"4961901682","tag":{"amenity":"waste_basket"}},"type":"Feature"},
	{"geometry":{"coordinates":[8.709454,49.395509],"type":"Point"},"properties":{"osm_id":"4961901695","tag":{"amenity":"waste_basket"}},"type":"Feature"},
	{"geometry":{"coordinates":[8.706794,49.408683],"type":"Point"},"properties":{"osm_id":"5020169797","tag":{"amenity":"waste_basket"}},"type":"Feature"},
	{"geometry":{"coordinates":[8.706886,49.408453],"type":"Point"},"properties":{"osm_id":"5020173655","tag":{"amenity":"waste_basket"}},"type":"Feature"},
	{"geometry":{"coordinates":[8.701176,49.41239],"type":"Point"},"properties":{"osm_id":"5048772691","tag":{"amenity":"waste_basket"}},"type":"Feature"},
	{"geometry":{"coordinates":[8.709311,49.412345],"type":"Point"},"properties":{"osm_id":"5100400112","tag":{"amenity":"waste_basket"}},"type":"Feature"},
	{"geometry":{"coordinates":[8.712731,49.409],"type":"Point"},"properties":{"osm_id":"5100400926","tag":{"amenity":"waste_basket"}},"type":"Feature"},
	{"geometry":{"coordinates":[8.712904,49.409132],"type":"Point"},"properties":{"osm_id":"5100400930","tag":{"amenity":"waste_basket"}},"type":"Feature"},
	{"geometry":{"coordinates":[8.709887,49.383861],"type":"Point"},"properties":{"osm_id":"5113063764","tag":{"amenity":"waste_basket"}},"type":"Feature"},
	{"geometry":{"coordinates":[8.705883,49.422313],"type":"Point"},"properties":{"osm_id":"5183629181","tag":{"amenity":"waste_basket","source:position":"HiRes aerial imagery"}},"type":"Feature"},
	{"geometry":{"coordinates":[8.705807,49.422314],"type":"Point"},"properties":{"osm_id":"5183629182","tag":{"amenity":"waste_basket","source:position":"HiRes aerial imagery"}},"type":"Feature"},
	{"geometry":{"coordinates":[8.70591,49.423698],"type":"Point"},"properties":{"osm_id":"5183629183","tag":{"amenity":"waste_basket"}},"type":"Feature"},
	{"geometry":{"coordinates":[8.706351,49.425331],"type":"Point"},"properties":{"osm_id":"5183629185","tag":{"amenity":"waste_basket"}},"type":"Feature"},
	{"geometry":{"coordinates":[8.706103,49.426024],"type":"Point"},"properties":{"osm_id":"5183629186","tag":{"amenity":"waste_basket"}},"type":"Feature"},
	{"geometry":{"coordinates":[8.745751,49.412548],"type":"Point"},"properties":{"osm_id":"5227237233","tag":{"amenity":"recycling","recycling:clothes":"yes","recycling_type":"container"}},"type":"Feature"},
	{"geometry":{"coordinates":[8.760783,49.41535],"type":"Point"},"properties":{"osm_id":"5518224163","tag":{"amenity":"waste_basket"}},"type":"Feature"},
	{"geometry":{"coordinates":[8.76117,49.415432],"type":"Point"},"properties":{"osm_id":"5518224169","tag":{"amenity":"waste_basket"}},"type":"Feature"},
	{"geometry":{"coordinates":[8.761312,49.415054],"type":"Point"},"properties":{"osm_id":"5518224172","tag":{"amenity":"waste_basket"}},"type":"Feature"},
	{"geometry":{"coordinates":[8.762941,49.415018],"type":"Point"},"properties":{"osm_id":"5518224178","tag":{"amenity":"waste_basket"}},"type":"Feature"},
	{"geometry":{"coordinates":[8.757887,49.411303],"type":"Point"},"properties":{"osm_id":"5518227318","tag":{"amenity":"waste_basket"}},"type":"Feature"},
	{"geometry":{"coordinates":[8.705496,49.413073],"type":"Point"},"properties":{"osm_id":"5525318127","tag":{"amenity":"waste_basket"}},"type":"Feature"},
	{"geometry":{"coordinates":[8.706336,49.413161],"type":"Point"},"properties":{"osm_id":"5531029314","tag":{"amenity":"waste_basket"}},"type":"Feature"},
	{"geometry":{"coordinates":[8.706023,49.412973],"type":"Point"},"properties":{"osm_id":"5531029315","tag":{"amenity":"waste_basket"}},"type":"Feature"},
	{"geometry":{"coordinates":[8.774012,49.409359],"type":"Point"},"properties":{"osm_id":"5582470828","tag":{"amenity":"waste_basket","waste":"trash"}},"type":"Feature"},
	{"geometry":{"coordinates":[8.774143,49.409313],"type":"Point"},"properties":{"osm_id":"5582470832","tag":{"amenity":"waste_basket","waste":"trash"}},"type":"Feature"},
	{"geometry":{"coordinates":[8.711549,49.413305],"type":"Point"},"properties":{"osm_id":"6054574833","tag":{"amenity":"waste_basket","waste":"trash"}},"type":"Feature"},
	{"geometry":{"coordinates":[8.703684,49.410096],"type":"Point"},"properties":{"osm_id":"6145162165","tag":{"amenity":"waste_basket"}},"type":"Feature"},
	{"geometry":{"coordinates":[8.705709,49.411167],"type":"Point"},"properties":{"osm_id":"6389690610","tag":{"amenity":"waste_basket","waste":"trash"}},"type":"Feature"},
	{"geometry":{"coordinates":[8.709089,49.41228],"type":"Point"},"properties":{"osm_id":"6389690612","tag":{"amenity":"waste_basket","waste":"trash"}},"type":"Feature"},
	{"geometry":{"coordinates":[8.709375,49.41059],"type":"Point"},"properties":{"osm_id":"6484639618","tag":{"amenity":"waste_basket","waste":"trash"}},"type":"Feature"},
	{"geometry":{"coordinates":[8.709353,49.409623],"type":"Point"},"properties":{"osm_id":"6484640888","tag":{"amenity":"waste_basket","waste":"trash"}},"type":"Feature"},
	{"geometry":{"coordinates":[8.733791,49.393618],"type":"Point"},"properties":{"osm_id":"6741910164","tag":{"amenity":"waste_basket","waste":"trash"}},"type":"Feature"},
	{"geometry":{"coordinates":[8.706758,49.423369],"type":"Point"},"properties":{"osm_id":"6822289057","tag":{"amenity":"waste_basket","waste":"trash"}},"type":"Feature"},
	{"geometry":{"coordinates":[8.706429,49.424571],"type":"Point"},"properties":{"osm_id":"6822393333","tag":{"amenity":"waste_basket","waste":"trash"}},"type":"Feature"},
	{"geometry":{"coordinates":[8.727179,49.403881],"type":"Point"},"properties":{"osm_id":"6944744568","tag":{"amenity":"waste_basket","waste":"trash"}},"type":"Feature"},
	{"geometry":{"coordinates":[8.717874,49.414041],"type":"Point"},"properties":{"osm_id":"7023993504","tag":{"amenity":"waste_basket","waste":"trash"}},"type":"Feature"},
	{"geometry":{"coordinates":[8.712888,49.412561],"type":"Point"},"properties":{"osm_id":"7057272775","tag":{"amenity":"waste_basket","waste":"trash"}},"type":"Feature"},
	{"geometry":{"coordinates":[8.748321,49.421058],"type":"Point"},"properties":{"osm_id":"7208211379","tag":{"amenity":"waste_basket","waste":"trash"}},"type":"Feature"},
	{"geometry":{"coordinates":[8.717682,49.413985],"type":"Point"},"properties":{"osm_id":"7217989388","tag":{"amenity":"waste_basket","waste":"trash"}},"type":"Feature"},
	{"geometry":{"coordinates":[8.713049,49.412345],"type":"Point"},"properties":{"osm_id":"7218017410","tag":{"amenity":"waste_basket","waste":"trash"}},"type":"Feature"},
	{"geometry":{"coordinates":[8.719861,49.414842],"type":"Point"},"properties":{"osm_id":"7221097056","tag":{"amenity":"waste_basket","waste":"trash"}},"type":"Feature"},
	{"geometry":{"coordinates":[8.721154,49.415278],"type":"Point"},"properties":{"osm_id":"7221097057","tag":{"amenity":"waste_basket","waste":"trash"}},"type":"Feature"},
	{"geometry":{"coordinates":[8.721073,49.415388],"type":"Point"},"properties":{"osm_id":"7221097058","tag":{"amenity":"waste_basket","waste":"trash"}},"type":"Feature"},
	{"geometry":{"coordinates":[8.720623,49.41519],"type":"Point"},"properties":{"osm_id":"7221097059","tag":{"amenity":"waste_basket","waste":"trash"}},"type":"Feature"},
	{"geometry":{"coordinates":[8.720917,49.415179],"type":"Point"},"properties":{"osm_id":"7221097062","tag":{"amenity":"waste_basket","waste":"trash"}},"type":"Feature"},
	{"geometry":{"coordinates":[8.720843,49.415281],"type":"Point"},"properties":{"osm_id":"7221097064","tag":{"amenity":"waste_basket","waste":"trash"}},"type":"Feature"},
	{"geometry":{"coordinates":[8.721478,49.415403],"type":"Point"},"properties":{"osm_id":"7221097067","tag":{"amenity":"waste_basket","waste":"trash"}},"type":"Feature"},
	{"geometry":{"coordinates":[8.720706,49.4151],"type":"Point"},"properties":{"osm_id":"7221097069","tag":{"amenity":"waste_basket","waste":"trash"}},"type":"Feature"},
	{"geometry":{"coordinates":[8.721412,49.415533],"type":"Point"},"properties":{"osm_id":"7221097070","tag":{"amenity":"waste_basket","waste":"trash"}},"type":"Feature"},
	{"geometry":{"coordinates":[8.702541,49.411262],"type":"Point"},"properties":{"osm_id":"7278441996","tag":{"amenity":"waste_basket","waste":"trash"}},"type":"Feature"},
	{"geometry":{"coordinates":[8.713368,49.417896],"type":"Point"},"properties":{"osm_id":"7278441999","tag":{"amenity":"waste_basket","waste":"trash"}},"type":"Feature"},
	{"geometry":{"coordinates":[8.70873,49.417448],"type":"Point"},"properties":{"osm_id":"7370873593","tag":{"amenity":"waste_basket"}},"type":"Feature"},
	{"geometry":{"coordinates":[8.710714,49.413665],"type":"Point"},"properties":{"osm_id":"7416802269","tag":{"amenity":"waste_basket","waste":"trash"}},"type":"Feature"},
	{"geometry":{"coordinates":[8.71424,49.413637],"type":"Point"},"properties":{"osm_id":"7416812524","tag":{"amenity":"waste_basket","waste":"trash"}},"type":"Feature"},
	{"geometry":{"coordinates":[8.713592,49.413645],"type":"Point"},"properties":{"osm_id":"7416812526","tag":{"amenity":"waste_basket","waste":"trash"}},"type":"Feature"},
	{"geometry":{"coordinates":[8.715478,49.413284],"type":"Point"},"properties":{"osm_id":"7416812527","tag":{"amenity":"waste_basket","waste":"trash"}},"type":"Feature"},
	{"geometry":{"coordinates":[8.711856,49.413774],"type":"Point"},"properties":{"osm_id":"7416830323","tag":{"amenity":"waste_basket","waste":"trash"}},"type":"Feature"},
	{"geometry":{"coordinates":[8.706098,49.412027],"type":"Point"},"properties":{"osm_id":"7416830328","tag":{"amenity":"waste_basket","waste":"trash"}},"type":"Feature"},
	{"geometry":{"coordinates":[8.711308,49.413733],"type":"Point"},"properties":{"osm_id":"7416832390","tag":{"amenity":"waste_basket","waste":"trash"}},"type":"Feature"},
	{"geometry":{"coordinates":[8.711549,49.413751],"type":"Point"},"properties":{"osm_id":"7416832391","tag":{"amenity":"waste_basket","waste":"trash"}},"type":"Feature"},
	{"geometry":{"coordinates":[8.705948,49.409639],"type":"Point"},"properties":{"osm_id":"7433459921","tag":{"amenity":"waste_basket","waste":"trash"}},"type":"Feature"},
	{"geometry":{"coordinates":[8.705875,49.409635],"type":"Point"},"properties":{"osm_id":"7433459922","tag":{"amenity":"waste_basket","waste":"trash"}},"type":"Feature"},
	{"geometry":{"coordinates":[8.701697,49.409379],"type":"Point"},"properties":{"osm_id":"7433487544","tag":{"amenity":"waste_basket","waste":"trash"}},"type":"Feature"},
	{"geometry":{"coordinates":[8.770978,49.413747],"type":"Point"},"properties":{"osm_id":"7547689870","tag":{"amenity":"waste_basket","waste":"trash"}},"type":"Feature"},
	{"geometry":{"coordinates":[8.705907,49.411701],"type":"Point"},"properties":{"osm_id":"7601104120","tag":{"amenity":"waste_basket","waste":"trash"}},"type":"Feature"},
	{"geometry":{"coordinates":[8.787706,49.393661],"type":"Point"},"properties":{"osm_id":"7621583497","tag":{"amenity":"waste_basket","level":"0","waste":"trash"}},"type":"Feature"},
	{"geometry":{"coordinates":[8.788665,49.394054],"type":"Point"},"properties":{"osm_id":"7621583501","tag":{"amenity":"waste_basket","waste":"trash"}},"type":"Feature"},
	{"geometry":{"coordinates":[8.788159,49.393618],"type":"Point"},"properties":{"osm_id":"7621583513","tag":{"amenity":"waste_basket","waste":"trash"}},"type":"Feature"},
	{"geometry":{"coordinates":[8.788541,49.394022],"type":"Point"},"properties":{"osm_id":"7622964130","tag":{"amenity":"waste_basket","waste":"trash"}},"type":"Feature"},
	{"geometry":{"coordinates":[8.713274,49.41372],"type":"Point"},"properties":{"osm_id":"7692986968","tag":{"amenity":"waste_basket","waste":"trash"}},"type":"Feature"},
	{"geometry":{"coordinates":[8.717575,49.41639],"type":"Point"},"properties":{"osm_id":"7800516187","tag":{"amenity":"waste_basket","waste":"trash"}},"type":"Feature"},
	{"geometry":{"coordinates":[8.709202,49.410948],"type":"Point"},"properties":{"osm_id":"7881995948","tag":{"amenity":"waste_basket","material":"steel"}},"type":"Feature"},
	{"geometry":{"coordinates":[8.70932,49.410965],"type":"Point"},"properties":{"osm_id":"7881995949","tag":{"amenity":"waste_basket","material":"steel"}},"type":"Feature"}
]
}
