{
"type": "FeatureCollection",
"features": [
	{"geometry":{"coordinates":[8.705651,49.364012],"type":"Point"},"properties":{"osm_id":"329626354","tag":{"amenity":"recycling","recycling:clothes":"yes","recycling_type":"container","source:position":"Bing 2012"}},"type":"Feature"},
	{"geometry":{"coordinates":[8.705012,49.365803],"type":"Point"},"properties":{"osm_id":"329655962","tag":{"amenity":"recycling","recycling:glass":"yes","recycling_type":"container","source:position":"HiRes aerial imagery"}},"type":"Feature"},
	{"geometry":{"coordinates":[8.703847,49.372893],"type":"Point"},"properties":{"osm_id":"329655993","tag":{"amenity":"recycling","recycling:glass":"yes","recycling_type":"container"}},"type":"Feature"},
	{"geometry":{"coordinates":[8.758182,49.377849],"type":"Point"},"properties":{"osm_id":"662605080","tag":{"amenity":"waste_basket","source:geometry":"HiRes aerial imagery"}},"type":"Feature"},
	{"geometry":{"coordinates":[8.765994,49.36743],"type":"Point"},"properties":{"osm_id":"669912494","tag":{"amenity":"waste_basket"}},"type":"Feature"},
	{"geometry":{"coordinates":[8.769481,49.374103],"type":"Point"},"properties":{"osm_id":"763511379","tag":{"amenity":"waste_basket"}},"type":"Feature"},
	{"geometry":{"coordinates":[8.782992,49.357868],"type":"Point"},"properties":{"osm_id":"763609701","tag":{"amenity":"waste_basket"}},"type":"Feature"},
	{"geometry":{"coordinates":[8.772743,49.371342],"type":"Point"},"properties":{"osm_id":"763609714","tag":{"amenity":"waste_basket"}},"type":"Feature"},
	{"geometry":{"coordinates":[8.77951,49.36163],"type":"Point"},"properties":{"osm_id":"763609735","tag":{"amenity":"waste_basket"}},"type":"Feature"},
	{"geometry":{"coordinates":[8.7729,49.3689],"type":"Point"},"properties":{"osm_id":"763609742","tag":{"amenity":"waste_basket","waste":"trash"}},"type":"Feature"},
	{"geometry":{"coordinates":[8.78296,49.358022],"type":"Point"},"properties":{"osm_id":"763609779","tag":{"amenity":"waste_basket"}},"type":"Feature"},
	{"geometry":{"coordinates":[8.746799,49.381812],"type":"Point"},"properties":{"osm_id":"765395481","tag":{"amenity":"waste_basket","source:position":"HiRes aerial imagery"}},"type":"Feature"},
	{"geometry":{"coordinates":[8.776263,49.37824],"type":"Point"},"properties":{"osm_id":"765395528","tag":{"amenity":"waste_basket"}},"type":"Feature"},
	{"geometry":{"coordinates":[8.773658,49.377703],"type":"Point"},"properties":{"osm_id":"765395715","tag":{"amenity":"waste_basket"}},"type":"Feature"},
	{"geometry":{"coordinates":[8.771754,49.372252],"type":"Point"},"properties":{"osm_id":"767397458","tag":{"amenity":"waste_basket"}},"type":"Feature"},
	{"geometry":{"coordinates":[8.772696,49.371369],"type":"Point"},"properties":{"osm_id":"767397478","tag":{"amenity":"waste_basket"}},"type":"Feature"},
	{"geometry":{"coordinates":[8.767964,49.374475],"type":"Point"},"properties":{"osm_id":"775820662","tag":{"amenity":"waste_basket"}},"type":"Feature"},
	{"geometry":{"coordinates":[8.773209,49.37772],"type":"Point"},"properties":{"osm_id":"793983045","tag":{"amenity":"waste_basket"}},"type":"Feature"},
	{"geometry":{"coordinates":[8.781096,49.360993],"type":"Point"},"properties":{"osm_id":"1169038704","tag":{"amenity":"waste_basket"}},"type":"Feature"},
	{"geometry":{"coordinates":[8.781103,49.36092],"type":"Point"},"properties":{"osm_id":"1169038723","tag":{"amenity":"waste_basket"}},"type":"Feature"},
	{"geometry":{"coordinates":[8.747273,49.37356],"type":"Point"},"properties":{"osm_id":"1178460772","tag":{"amenity":"waste_basket"}},"type":"Feature"},
	{"geometry":{"coordinates":[8.781723,49.358361],"type":"Point"},"properties":{"osm_id":"1293931968","tag":{"amenity":"waste_basket"}},"type":"Feature"},
	{"geometry":{"coordinates":[8.781128,49.359082],"type":"Point"},"properties":{"osm_id":"1293931979","tag":{"amenity":"waste_basket"}},"type":"Feature"},
	{"geometry":{"coordinates":[8.783977,49.363409],"type":"Point"},"properties":{"osm_id":"1632090680","tag":{"amenity":"waste_basket"}},"type":"Feature"},
	{"geometry":{"coordinates":[8.765752,49.358386],"type":"Point"},"properties":{"osm_id":"1679168494","tag":{"amenity":"waste_basket"}},"type":"Feature"},
	{"geometry":{"coordinates":[8.770408,49.354845],"type":"Point"},"properties":{"osm_id":"1682502645","tag":{"amenity":"waste_basket"}},"type":"Feature"},
	{"geometry":{"coordinates":[8.778506,49.35743],"type":"Point"},"properties":{"osm_id":"1687020046","tag":{"amenity":"waste_basket"}},"type":"Feature"},
	{"geometry":{"coordinates":[8.781794,49.36152],"type":"Point"},"properties":{"osm_id":"1705272913","tag":{"amenity":"waste_basket","source:position":"HiRes aerial imagery"}},"type":"Feature"},
	{"geometry":{"coordinates":[8.769845,49.353039],"type":"Point"},"properties":{"osm_id":"1716974290","tag":{"amenity":"waste_basket"}},"type":"Feature"},
	{"geometry":{"coordinates":[8.740571,49.366979],"type":"Point"},"properties":{"osm_id":"1737940196","tag":{"amenity":"waste_basket"}},"type":"Feature"},
	{"geometry":{"coordinates":[8.74303,49.368254],"type":"Point"},"properties":{"osm_id":"1737940213","tag":{"amenity":"waste_basket","source:position":"HiRes aerial imagery"}},"type":"Feature"},
	{"geometry":{"coordinates":[8.743371,49.368437],"type":"Point"},"properties":{"osm_id":"1737940214","tag":{"amenity":"waste_basket"}},"type":"Feature"},
	{"geometry":{"coordinates":[8.720377,49.371512],"type":"Point"},"properties":{"osm_id":"1979888183","tag":{"amenity":"waste_basket","source:position":"HiRes aerial imagery"}},"type":"Feature"},
	{"geometry":{"coordinates":[8.784755,49.349897],"type":"Point"},"properties":{"osm_id":"2108123052","tag":{"amenity":"waste_basket"}},"type":"Feature"},
	{"geometry":{"coordinates":[8.779962,49.353981],"type":"Point"},"properties":{"osm_id":"2108123084","tag":{"amenity":"waste_basket"}},"type":"Feature"},
	{"geometry":{"coordinates":[8.779325,49.353991],"type":"Point"},"properties":{"osm_id":"2108123086","tag":{"amenity":"waste_basket"}},"type":"Feature"},
	{"geometry":{"coordinates":[8.7757,49.349605],"type":"Point"},"properties":{"osm_id":"2355957298","tag":{"amenity":"waste_basket"}},"type":"Feature"},
	{"geometry":{"coordinates":[8.776632,49.350173],"type":"Point"},"properties":{"osm_id":"2355957394","tag":{"amenity":"waste_basket","source:position":"HiRes aerial imagery"}},"type":"Feature"},
	{"geometry":{"coordinates":[8.775167,49.350207],"type":"Point"},"properties":{"osm_id":"2355957402","tag":{"amenity":"waste_basket","source:position":"HiRes aerial imagery"}},"type":"Feature"},
	{"geometry":{"coordinates":[8.775299,49.350678],"type":"Point"},"properties":{"osm_id":"2355957430","tag":{"amenity":"waste_basket"}},"type":"Feature"},
	{"geometry":{"coordinates":[8.757986,49.363307],"type":"Point"},"properties":{"osm_id":"2419144278","tag":{"amenity":"recycling","operator":"TEXAID Deutschland GmbH","recycling:clothes":"yes","recycling_type":"container"}},"type":"Feature"},
	{"geometry":{"coordinates":[8.75801,49.363313],"type":"Point"},"properties":{"osm_id":"2419144283","tag":{"amenity":"recycling","operator":"TEXAID Deutschland GmbH","recycling:clothes":"yes","recycling_type":"container"}},"type":"Feature"},
	{"geometry":{"coordinates":[8.704354,49.369404],"type":"Point"},"properties":{"osm_id":"2430794904","tag":{"amenity":"waste_basket"}},"type":"Feature"},
	{"geometry":{"coordinates":[8.712986,49.372123],"type":"Point"},"properties":{"osm_id":"2669163885","tag":{"amenity":"waste_basket"}},"type":"Feature"},
	{"geometry":{"coordinates":[8.70612,49.369247],"type":"Point"},"properties":{"osm_id":"2807789712","tag":{"amenity":"recycling","recycling:glass":"yes","recycling_type":"container"}},"type":"Feature"},
	{"geometry":{"coordinates":[8.706151,49.379049],"type":"Point"},"properties":{"osm_id":"2807789728","tag":{"amenity":"recycling","recycling:glass":"yes","recycling_type":"container"}},"type":"Feature"},
	{"geometry":{"coordinates":[8.770057,49.374023],"type":"Point"},"properties":{"osm_id":"3019911807","tag":{"amenity":"waste_basket","source:geo":"HiRes aerial imagery"}},"type":"Feature"},
	{"geometry":{"coordinates":[8.74984,49.362775],"type":"Point"},"properties":{"osm_id":"3083614876","tag":{"amenity":"waste_basket","source:geo":"HiRes aerial imagery"}},"type":"Feature"},
	{"geometry":{"coordinates":[8.723922,49.37981],"type":"Point"},"properties":{"osm_id":"3089851173","tag":{"amenity":"waste_basket"}},"type":"Feature"},
	{"geometry":{"coordinates":[8.716099,49.357156],"type":"Point"},"properties":{"osm_id":"3143626163","tag":{"amenity":"waste_basket","source:position":"HiRes aerial imagery"}},"type":"Feature"},
	{"geometry":{"coordinates":[8.71466,49.362048],"type":"Point"},"properties":{"osm_id":"3143626169","tag":{"amenity":"waste_basket"}},"type":"Feature"},
	{"geometry":{"coordinates":[8.77643,49.350072],"type":"Point"},"properties":{"osm_id":"3291424495","tag":{"amenity":"waste_basket"}},"type":"Feature"},
	{"geometry":{"coordinates":[8.784633,49.336116],"type":"Point"},"properties":{"osm_id":"3291425403","tag":{"amenity":"waste_basket","source:position":"HiRes aerial imagery"}},"type":"Feature"},
	{"geometry":{"coordinates":[8.776676,49.354748],"type":"Point"},"properties":{"osm_id":"3297904339","tag":{"amenity":"waste_basket"}},"type":"Feature"},
	{"geometry":{"coordinates":[8.785617,49.337111],"type":"Point"},"properties":{"osm_id":"3309532080","tag":{"amenity":"waste_basket","waste":"trash"}},"type":"Feature"},
	{"geometry":{"coordinates":[8.775731,49.355789],"type":"Point"},"properties":{"osm_id":"3369991977","tag":{"amenity":"waste_basket"}},"type":"Feature"},
	{"geometry":{"coordinates":[8.743471,49.371995],"type":"Point"},"properties":{"osm_id":"3452895056","tag":{"amenity":"waste_basket"}},"type":"Feature"},
	{"geometry":{"coordinates":[8.750835,49.361632],"type":"Point"},"properties":{"osm_id":"3454973680","tag":{"amenity":"waste_basket"}},"type":"Feature"},
	{"geometry":{"coordinates":[8.750361,49.366393],"type":"Point"},"properties":{"osm_id":"3454974711","tag":{"amenity":"waste_basket"}},"type":"Feature"},
	{"geometry":{"coordinates":[8.704825,49.364064],"type":"Point"},"properties":{"osm_id":"3584457275","tag":{"amenity":"waste_basket"}},"type":"Feature"},
	{"geometry":{"coordinates":[8.705629,49.363999],"type":"Point"},"properties":{"osm_id":"3584458583","tag":{"amenity":"recycling","recycling:glass":"yes","recycling_type":"container","source:position":"Bing 2012"}},"type":"Feature"},
	{"geometry":{"coordinates":[8.7052,49.362298],"type":"Point"},"properties":{"osm_id":"3588502365","tag":{"amenity":"recycling","recycling:glass_bottles":"yes","recycling_type":"container"}},"type":"Feature"},
	{"geometry":{"coordinates":[8.704927,49.371648],"type":"Point"},"properties":{"osm_id":"3596159001","tag":{"amenity":"waste_basket","source:position":"HiRes aerial imagery"}},"type":"Feature"},
	{"geometry":{"coordinates":[8.704676,49.372997],"type":"Point"},"properties":{"osm_id":"3596159026","tag":{"amenity":"waste_basket"}},"type":"Feature"},
	{"geometry":{"coordinates":[8.705191,49.37575],"type":"Point"},"properties":{"osm_id":"3596159056","tag":{"amenity":"waste_basket"}},"type":"Feature"},
	{"geometry":{"coordinates":[8.704833,49.364405],"type":"Point"},"properties":{"osm_id":"3603924094","tag":{"amenity":"waste_basket"}},"type":"Feature"},
	{"geometry":{"coordinates":[8.704805,49.364541],"type":"Point"},"properties":{"osm_id":"3604042201","tag":{"amenity":"waste_basket"}},"type":"Feature"},
	{"geometry":{"coordinates":[8.704814,49.364693],"type":"Point"},"properties":{"osm_id":"3604042202","tag":{"amenity":"waste_basket"}},"type":"Feature"},
	{"geometry":{"coordinates":[8.704775,49.366345],"type":"Point"},"properties":{"osm_id":"3604047710","tag":{"amenity":"waste_basket","source:position":"HiRes aerial imagery"}},"type":"Feature"},
	{"geometry":{"coordinates":[8.705115,49.36536],"type":"Point"},"properties":{"osm_id":"3604049301","tag":{"amenity":"waste_basket","source:position":"HiRes aerial imagery"}},"type":"Feature"},
	{"geometry":{"coordinates":[8.704501,49.369021],"type":"Point"},"properties":{"osm_id":"3604049954","tag":{"amenity":"waste_basket","source:position":"HiRes aerial imagery"}},"type":"Feature"},
	{"geometry":{"coordinates":[8.704795,49.369097],"type":"Point"},"properties":{"osm_id":"3604049956","tag":{"amenity":"waste_basket","source:position":"HiRes aerial imagery"}},"type":"Feature"},
	{"geometry":{"coordinates":[8.70455,49.368714],"type":"Point"},"properties":{"osm_id":"3604050237","tag":{"amenity":"waste_basket","source:position":"HiRes aerial imagery"}},"type":"Feature"},
	{"geometry":{"coordinates":[8.704612,49.368935],"type":"Point"},"properties":{"osm_id":"3604050244","tag":{"amenity":"waste_basket","source:position":"HiRes aerial imagery"}},"type":"Feature"},
	{"geometry":{"coordinates":[8.704419,49.365317],"type":"Point"},"properties":{"osm_id":"3604061331","tag":{"amenity":"waste_basket","source:position":"HiRes aerial imagery"}},"type":"Feature"},
	{"geometry":{"coordinates":[8.706303,49.373973],"type":"Point"},"properties":{"osm_id":"3611240260","tag":{"amenity":"waste_basket"}},"type":"Feature"},
	{"geometry":{"coordinates":[8.701622,49.376777],"type":"Point"},"properties":{"osm_id":"3611243192","tag":{"amenity":"waste_basket","source:position":"HiRes aerial imagery"}},"type":"Feature"},
	{"geometry":{"coordinates":[8.704019,49.377196],"type":"Point"},"properties":{"osm_id":"3611244071","tag":{"amenity":"recycling","recycling:glass_bottles":"yes","recycling_type":"container","source:position":"HiRes aerial imagery"}},"type":"Feature"},
	{"geometry":{"coordinates":[8.771458,49.373851],"type":"Point"},"properties":{"osm_id":"3758567159","tag":{"amenity":"waste_basket","source:position":"HiRes aerial imagery"}},"type":"Feature"},
	{"geometry":{"coordinates":[8.771458,49.373875],"type":"Point"},"properties":{"osm_id":"3758567160","tag":{"amenity":"waste_basket","source:position":"HiRes aerial imagery"}},"type":"Feature"},
	{"geometry":{"coordinates":[8.755124,49.341789],"type":"Point"},"properties":{"osm_id":"3936909897","tag":{"amenity":"waste_basket"}},"type":"Feature"},
	{"geometry":{"coordinates":[8.755199,49.347331],"type":"Point"},"properties":{"osm_id":"3940743132","tag":{"amenity":"waste_basket","source:position":"HiRes aerial imagery"}},"type":"Feature"},
	{"geometry":{"coordinates":[8.75497,49.344657],"type":"Point"},"properties":{"osm_id":"3940757892","tag":{"amenity":"recycling","recycling:clothes":"yes","recycling_type":"container"}},"type":"Feature"},
	{"geometry":{"coordinates":[8.755102,49.340804],"type":"Point"},"properties":{"osm_id":"3940788992","tag":{"amenity":"waste_basket"}},"type":"Feature"},
	{"geometry":{"coordinates":[8.752692,49.343981],"type":"Point"},"properties":{"osm_id":"3942711317","tag":{"amenity":"waste_basket"}},"type":"Feature"},
	{"geometry":{"coordinates":[8.747893,49.354462],"type":"Point"},"properties":{"osm_id":"3942711878","tag":{"amenity":"waste_basket","source:position":"HiRes aerial imagery"}},"type":"Feature"},
	{"geometry":{"coordinates":[8.776124,49.355814],"type":"Point"},"properties":{"osm_id":"3980815394","tag":{"amenity":"waste_basket"}},"type":"Feature"},
	{"geometry":{"coordinates":[8.742689,49.350676],"type":"Point"},"properties":{"osm_id":"4033880352","tag":{"amenity":"waste_basket"}},"type":"Feature"},
	{"geometry":{"coordinates":[8.701933,49.343017],"type":"Point"},"properties":{"osm_id":"4067844886","tag":{"amenity":"waste_basket"}},"type":"Feature"},
	{"geometry":{"coordinates":[8.717409,49.345388],"type":"Point"},"properties":{"osm_id":"4074152018","tag":{"amenity":"waste_basket"}},"type":"Feature"},
	{"geometry":{"coordinates":[8.752204,49.347217],"type":"Point"},"properties":{"osm_id":"4074152209","tag":{"amenity":"waste_basket"}},"type":"Feature"},
	{"geometry":{"coordinates":[8.752381,49.347334],"type":"Point"},"properties":{"osm_id":"4074152212","tag":{"amenity":"waste_basket","source:position":"HiRes aerial imagery"}},"type":"Feature"},
	{"geometry":{"coordinates":[8.704138,49.351775],"type":"Point"},"properties":{"osm_id":"4074195991","tag":{"amenity":"waste_basket"}},"type":"Feature"},
	{"geometry":{"coordinates":[8.723519,49.355801],"type":"Point"},"properties":{"osm_id":"4096327990","tag":{"amenity":"waste_basket","source:position":"HiRes aerial imagery"}},"type":"Feature"},
	{"geometry":{"coordinates":[8.736074,49.365901],"type":"Point"},"properties":{"osm_id":"4096328191","tag":{"amenity":"waste_basket"}},"type":"Feature"},
	{"geometry":{"coordinates":[8.706406,49.353527],"type":"Point"},"properties":{"osm_id":"4112853288","tag":{"amenity":"waste_basket"}},"type":"Feature"},
	{"geometry":{"coordinates":[8.724555,49.339275],"type":"Point"},"properties":{"osm_id":"4127113763","tag":{"amenity":"waste_basket"}},"type":"Feature"},
	{"geometry":{"coordinates":[8.705931,49.353399],"type":"Point"},"properties":{"osm_id":"4127114821","tag":{"amenity":"waste_basket","source:position":"HiRes aerial imagery"}},"type":"Feature"},
	{"geometry":{"coordinates":[8.706361,49.353692],"type":"Point"},"properties":{"osm_id":"4127114823","tag":{"amenity":"waste_basket"}},"type":"Feature"},
	{"geometry":{"coordinates":[8.706354,49.353693],"type":"Point"},"properties":{"osm_id":"4127114824","tag":{"amenity":"waste_basket"}},"type":"Feature"},
	{"geometry":{"coordinates":[8.705126,49.381116],"type":"Point"},"properties":{"osm_id":"4168255790","tag":{"amenity":"waste_basket","source:position":"HiRes aerial imagery"}},"type":"Feature"},
	{"geometry":{"coordinates":[8.739084,49.338506],"type":"Point"},"properties":{"osm_id":"4330817516","tag":{"amenity":"waste_basket","source:position":"HiRes aerial imagery"}},"type":"Feature"},
	{"geometry":{"coordinates":[8.738962,49.338552],"type":"Point"},"properties":{"osm_id":"4330817520","tag":{"amenity":"waste_basket","source:position":"HiRes aerial imagery"}},"type":"Feature"},
	{"geometry":{"coordinates":[8.728426,49.327408],"type":"Point"},"properties":{"osm_id":"4330817882","tag":{"amenity":"waste_basket"}},"type":"Feature"},
	{"geometry":{"coordinates":[8.719255,49.325499],"type":"Point"},"properties":{"osm_id":"4330818049","tag":{"amenity":"waste_basket"}},"type":"Feature"},
	{"geometry":{"coordinates":[8.719182,49.3255],"type":"Point"},"properties":{"osm_id":"4330818050","tag":{"amenity":"waste_basket"}},"type":"Feature"},
	{"geometry":{"coordinates":[8.738826,49.338134],"type":"Point"},"properties":{"osm_id":"4330818233","tag":{"amenity":"waste_basket"}},"type":"Feature"},
	{"geometry":{"coordinates":[8.772984,49.375956],"type":"Point"},"properties":{"osm_id":"4584159599","tag":{"amenity":"waste_basket"}},"type":"Feature"},
	{"geometry":{"coordinates":[8.750867,49.361607],"type":"Point"},"properties":{"osm_id":"4907165627","tag":{"amenity":"waste_basket"}},"type":"Feature"},
	{"geometry":{"coordinates":[8.753941,49.362319],"type":"Point"},"properties":{"osm_id":"4907165628","tag":{"amenity":"waste_basket"}},"type":"Feature"},
	{"geometry":{"coordinates":[8.74851,49.370389],"type":"Point"},"properties":{"osm_id":"5017514466","tag":{"amenity":"waste_basket"}},"type":"Feature"},
	{"geometry":{"coordinates":[8.765908,49.376548],"type":"Point"},"properties":{"osm_id":"5019569855","tag":{"amenity":"waste_basket"}},"type":"Feature"},
	{"geometry":{"coordinates":[8.764776,49.377245],"type":"Point"},"properties":{"osm_id":"5091041472","tag":{"amenity":"waste_basket"}},"type":"Feature"},
	{"geometry":{"coordinates":[8.785227,49.35706],"type":"Point"},"properties":{"osm_id":"5253037157","tag":{"amenity":"waste_basket"}},"type":"Feature"},
	{"geometry":{"coordinates":[8.770681,49.377808],"type":"Point"},"properties":{"osm_id":"5695478840","tag":{"amenity":"waste_basket","waste":"trash"}},"type":"Feature"},
	{"geometry":{"coordinates":[8.7809,49.357787],"type":"Point"},"properties":{"osm_id":"5929990175","tag":{"amenity":"waste_basket"}},"type":"Feature"},
	{"geometry":{"coordinates":[8.777464,49.356746],"type":"Point"},"properties":{"osm_id":"5971892260","tag":{"amenity":"waste_basket"}},"type":"Feature"},
	{"geometry":{"coordinates":[8.772082,49.347531],"type":"Point"},"properties":{"osm_id":"5971892265","tag":{"amenity":"waste_basket"}},"type":"Feature"},
	{"geometry":{"coordinates":[8.762056,49.33933],"type":"Point"},"properties":{"osm_id":"5971892272","tag":{"amenity":"waste_basket"}},"type":"Feature"},
	{"geometry":{"coordinates":[8.760265,49.341585],"type":"Point"},"properties":{"osm_id":"5971892278","tag":{"amenity":"waste_basket"}},"type":"Feature"},
	{"geometry":{"coordinates":[8.75625,49.341211],"type":"Point"},"properties":{"osm_id":"5971894383","tag":{"amenity":"waste_basket"}},"type":"Feature"},
	{"geometry":{"coordinates":[8.756123,49.341389],"type":"Point"},"properties":{"osm_id":"5971895131","tag":{"amenity":"waste_basket"}},"type":"Feature"},
	{"geometry":{"coordinates":[8.756441,49.3415],"type":"Point"},"properties":{"osm_id":"5971895132","tag":{"amenity":"waste_basket"}},"type":"Feature"},
	{"geometry":{"coordinates":[8.756406,49.341485],"type":"Point"},"properties":{"osm_id":"5971895133","tag":{"amenity":"waste_basket"}},"type":"Feature"},
	{"geometry":{"coordinates":[8.753375,49.34065],"type":"Point"},"properties":{"osm_id":"5971895137","tag":{"amenity":"waste_basket"}},"type":"Feature"},
	{"geometry":{"coordinates":[8.753216,49.340651],"type":"Point"},"properties":{"osm_id":"5971895142","tag":{"amenity":"waste_basket"}},"type":"Feature"},
	{"geometry":{"coordinates":[8.753141,49.340676],"type":"Point"},"properties":{"osm_id":"5971895143","tag":{"amenity":"waste_basket"}},"type":"Feature"},
	{"geometry":{"coordinates":[8.751545,49.338415],"type":"Point"},"properties":{"osm_id":"5971895146","tag":{"amenity":"waste_basket"}},"type":"Feature"},
	{"geometry":{"coordinates":[8.779496,49.356715],"type":"Point"},"properties":{"osm_id":"6504650507","tag":{"amenity":"waste_basket","waste":"trash"}},"type":"Feature"},
	{"geometry":{"coordinates":[8.756406,49.337896],"type":"Point"},"properties":{"osm_id":"6698110647","tag":{"amenity":"waste_basket","waste":"trash"}},"type":"Feature"},
	{"geometry":{"coordinates":[8.745082,49.339123],"type":"Point"},"properties":{"osm_id":"6698132876","tag":{"amenity":"waste_basket","waste":"trash"}},"type":"Feature"},
	{"geometry":{"coordinates":[8.743961,49.341471],"type":"Point"},"properties":{"osm_id":"6698132880","tag":{"amenity":"waste_basket","waste":"trash"}},"type":"Feature"},
	{"geometry":{"coordinates":[8.755735,49.339455],"type":"Point"},"properties":{"osm_id":"6698145135","tag":{"amenity":"waste_basket","waste":"trash"}},"type":"Feature"},
	{"geometry":{"coordinates":[8.776265,49.355894],"type":"Point"},"properties":{"osm_id":"6698160369","tag":{"amenity":"waste_basket","waste":"trash"}},"type":"Feature"},
	{"geometry":{"coordinates":[8.776252,49.355844],"type":"Point"},"properties":{"osm_id":"6698160370","tag":{"amenity":"waste_basket","waste":"trash"}},"type":"Feature"},
	{"geometry":{"coordinates":[8.746613,49.333801],"type":"Point"},"properties":{"osm_id":"6698165977","tag":{"amenity":"waste_basket","waste":"trash"}},"type":"Feature"},
	{"geometry":{"coordinates":[8.746232,49.337572],"type":"Point"},"properties":{"osm_id":"6698165978","tag":{"amenity":"waste_basket","waste":"trash"}},"type":"Feature"},
	{"geometry":{"coordinates":[8.702156,49.370723],"type":"Point"},"properties":{"osm_id":"6731324754","tag":{"amenity":"waste_basket","waste":"trash"}},"type":"Feature"},
	{"geometry":{"coordinates":[8.702725,49.371066],"type":"Point"},"properties":{"osm_id":"6731324756","tag":{"amenity":"waste_basket","waste":"trash"}},"type":"Feature"},
	{"geometry":{"coordinates":[8.704564,49.35133],"type":"Point"},"properties":{"osm_id":"6749156544","tag":{"amenity":"waste_basket","waste":"trash"}},"type":"Feature"},
	{"geometry":{"coordinates":[8.746426,49.371818],"type":"Point"},"properties":{"osm_id":"6749583833","tag":{"amenity":"waste_basket","waste":"trash"}},"type":"Feature"},
	{"geometry":{"coordinates":[8.779145,49.357315],"type":"Point"},"properties":{"osm_id":"6765931410","tag":{"amenity":"waste_basket","waste":"trash"}},"type":"Feature"},
	{"geometry":{"coordinates":[8.778289,49.352315],"type":"Point"},"properties":{"osm_id":"6785672891","tag":{"amenity":"waste_basket","waste":"trash"}},"type":"Feature"},
	{"geometry":{"coordinates":[8.779252,49.339262],"type":"Point"},"properties":{"osm_id":"6844835377","tag":{"amenity":"waste_basket","waste":"trash"}},"type":"Feature"},
	{"geometry":{"coordinates":[8.770514,49.346625],"type":"Point"},"properties":{"osm_id":"6844837516","tag":{"amenity":"waste_basket","waste":"trash"}},"type":"Feature"},
	{"geometry":{"coordinates":[8.783749,49.359527],"type":"Point"},"properties":{"osm_id":"7342599978","tag":{"amenity":"waste_basket","waste":"trash"}},"type":"Feature"},
	{"geometry":{"coordinates":[8.783584,49.359576],"type":"Point"},"properties":{"osm_id":"7342599984","tag":{"amenity":"waste_basket","waste":"trash"}},"type":"Feature"},
	{"geometry":{"coordinates":[8.70364,49.379747],"type":"Point"},"properties":{"osm_id":"7380197804","tag":{"amenity":"waste_basket"}},"type":"Feature"},
	{"geometry":{"coordinates":[8.702848,49.379113],"type":"Point"},"properties":{"osm_id":"7380197806","tag":{"amenity":"waste_basket"}},"type":"Feature"},
	{"geometry":{"coordinates":[8.750507,49.366158],"type":"Point"},"properties":{"osm_id":"7425910353","tag":{"amenity":"waste_basket","waste":"trash"}},"type":"Feature"},
	{"geometry":{"coordinates":[8.750578,49.367758],"type":"Point"},"properties":{"osm_id":"7425912454","tag":{"amenity":"waste_basket","waste":"trash"}},"type":"Feature"},
	{"geometry":{"coordinates":[8.705345,49.378107],"type":"Point"},"properties":{"osm_id":"7549324835","tag":{"amenity":"recycling","recycling:glass":"yes","recycling_type":"container"}},"type":"Feature"},
	{"geometry":{"coordinates":[8.701555,49.374969],"type":"Point"},"properties":{"osm_id":"7554070665","tag":{"amenity":"waste_basket"}},"type":"Feature"},
	{"geometry":{"coordinates":[8.701649,49.374951],"type":"Point"},"properties":{"osm_id":"7560353304","tag":{"amenity":"waste_basket","waste":"dog_excrement"}},"type":"Feature"},
	{"geometry":{"coordinates":[8.704291,49.374252],"type":"Point"},"properties":{"osm_id":"7560374818","tag":{"amenity":"recycling","recycling:glass":"yes","recycling_type":"container"}},"type":"Feature"},
	{"geometry":{"coordinates":[8.703397,49.370121],"type":"Point"},"properties":{"osm_id":"7560411032","tag":{"amenity":"waste_basket"}},"type":"Feature"},
	{"geometry":{"coordinates":[8.704186,49.369966],"type":"Point"},"properties":{"osm_id":"7560411033","tag":{"amenity":"waste_basket"}},"type":"Feature"},
	{"geometry":{"coordinates":[8.70161,49.372104],"type":"Point"},"properties":{"osm_id":"7613307426","tag":{"amenity":"waste_basket"}},"type":"Feature"},
	{"geometry":{"coordinates":[8.70143,49.37211],"type":"Point"},"properties":{"osm_id":"7613307427","tag":{"amenity":"waste_basket"}},"type":"Feature"},
	{"geometry":{"coordinates":[8.701629,49.376794],"type":"Point"},"properties":{"osm_id":"7613307439","tag":{"amenity":"waste_basket","waste":"dog_excrement"}},"type":"Feature"},
	{"geometry":{"coordinates":[8.707076,49.379863],"type":"Point"},"properties":{"osm_id":"7627128398","tag":{"amenity":"waste_basket"}},"type":"Feature"},
	{"geometry":{"coordinates":[8.702693,49.374584],"type":"Point"},"properties":{"osm_id":"7644346407","tag":{"amenity":"waste_basket"}},"type":"Feature"},
	{"geometry":{"coordinates":[8.705054,49.370595],"type":"Point"},"properties":{"osm_id":"7644387773","tag":{"amenity":"waste_basket"}},"type":"Feature"},
	{"geometry":{"coordinates":[8.704015,49.377224],"type":"Point"},"properties":{"osm_id":"7647389062","tag":{"amenity":"recycling","recycling:clothes":"yes","recycling:shoes":"yes","recycling_type":"container"}},"type":"Feature"},
	{"geometry":{"coordinates":[8.716835,49.351892],"type":"Point"},"properties":{"osm_id":"7853029056","tag":{"amenity":"waste_basket","waste":"dog_excrement"}},"type":"Feature"}
]
}
