{
"type": "FeatureCollection",
"features": [
	{"geometry":{"coordinates":[8.707182,49.106792],"type":"Point"},"properties":{"osm_id":"316975768","tag":{"amenity":"recycling","opening_hours":"24/7","recycling_type":"container","wheelchair":"yes"}},"type":"Feature"},
	{"geometry":{"coordinates":[8.73895,49.099888],"type":"Point"},"properties":{"osm_id":"318691485","tag":{"amenity":"recycling"}},"type":"Feature"},
	{"geometry":{"coordinates":[8.787719,49.118789],"type":"Point"},"properties":{"osm_id":"345406108","tag":{"amenity":"recycling","recycling:glass":"yes","recycling_type":"container"}},"type":"Feature"},
	{"geometry":{"coordinates":[8.774806,49.131495],"type":"Point"},"properties":{"osm_id":"347198935","tag":{"amenity":"recycling","recycling_type":"container"}},"type":"Feature"},
	{"geometry":{"coordinates":[8.718984,49.149657],"type":"Point"},"properties":{"name":"Fa. Frank","osm_id":"456809150","tag":{"amenity":"recycling","opening_hours":"Apr-Oct Mo-Fr 08:00-12:00,13:00-18:00; Th 08:00-12:00; Sa 08:00-15:00; Nov-Mar Mo-Fr 08:00-12:00,13:00-17:00; Th 08:00-12:00; Sa 08:00-15:00; PH off","recycling_type":"centre"}},"type":"Feature"},
	{"geometry":{"coordinates":[8.772895,49.14085],"type":"Point"},"properties":{"osm_id":"4360752584","tag":{"amenity":"waste_basket"}},"type":"Feature"},
	{"geometry":{"coordinates":[8.772378,49.141252],"type":"Point"},"properties":{"osm_id":"4360752585","tag":{"amenity":"recycling","recycling:clothes":"yes","recycling:shoes":"yes","recycling_type":"container"}},"type":"Feature"},
	{"geometry":{"coordinates":[8.719506,49.150297],"type":"Point"},"properties":{"osm_id":"4382370857","tag":{"amenity":"recycling","recycling:clothes":"yes","recycling:glass":"yes","recycling:shoes":"yes","recycling_type":"container"}},"type":"Feature"},
	{"geometry":{"coordinates":[8.711913,49.106759],"type":"Point"},"properties":{"osm_id":"5975030236","tag":{"amenity":"waste_basket"}},"type":"Feature"},
	{"geometry":{"coordinates":[8.718791,49.116631],"type":"Point"},"properties":{"osm_id":"6850816746","tag":{"amenity":"recycling","opening_hours":"Sa 10:00-15:00","recycling:green_waste":"yes","recycling_type":"centre"}},"type":"Feature"}
]
}
