{
"type": "FeatureCollection",
"features": [
	{"geometry":{"coordinates":[8.749834,49.020336],"type":"Point"},"properties":{"osm_id":"274336963","tag":{"amenity":"recycling","recycling:clothes":"yes","recycling_type":"container"}},"type":"Feature"},
	{"geometry":{"coordinates":[8.750023,49.021436],"type":"Point"},"properties":{"osm_id":"274849134","tag":{"amenity":"recycling","recycling:clothes":"yes","recycling_type":"container"}},"type":"Feature"},
	{"geometry":{"coordinates":[8.750667,49.029524],"type":"Point"},"properties":{"osm_id":"275038142","tag":{"amenity":"recycling","recycling:glass":"yes","recycling_type":"container"}},"type":"Feature"},
	{"geometry":{"coordinates":[8.744361,49.025763],"type":"Point"},"properties":{"osm_id":"276397421","tag":{"amenity":"recycling","recycling:clothes":"yes","recycling_type":"container"}},"type":"Feature"},
	{"geometry":{"coordinates":[8.766846,49.027982],"type":"Point"},"properties":{"osm_id":"279525499","tag":{"amenity":"recycling","recycling:glass":"yes"}},"type":"Feature"},
	{"geometry":{"coordinates":[8.746436,48.998843],"type":"Point"},"properties":{"osm_id":"350561845","tag":{"amenity":"recycling","recycling:glass":"yes","recycling_type":"container"}},"type":"Feature"},
	{"geometry":{"coordinates":[8.730015,49.007087],"type":"Point"},"properties":{"osm_id":"353533622","tag":{"amenity":"recycling","recycling:glass":"yes","recycling_type":"container"}},"type":"Feature"},
	{"geometry":{"coordinates":[8.722824,49.014499],"type":"Point"},"properties":{"osm_id":"353533895","tag":{"amenity":"recycling","recycling:glass":"yes","recycling_type":"container"}},"type":"Feature"},
	{"geometry":{"coordinates":[8.722599,49.012273],"type":"Point"},"properties":{"osm_id":"353533964","tag":{"amenity":"recycling","recycling:clothes":"yes","recycling:glass":"yes","recycling_type":"container"}},"type":"Feature"},
	{"geometry":{"coordinates":[8.714937,49.036474],"type":"Point"},"properties":{"osm_id":"658724027","tag":{"amenity":"recycling","recycling:glass":"yes","recycling_type":"container"}},"type":"Feature"},
	{"geometry":{"coordinates":[8.709872,49.025399],"type":"Point"},"properties":{"osm_id":"659536209","tag":{"amenity":"recycling","recycling:glass":"yes","recycling_type":"container"}},"type":"Feature"},
	{"geometry":{"coordinates":[8.705535,49.035061],"type":"Point"},"properties":{"osm_id":"662495622","tag":{"amenity":"recycling","recycling:clothes":"yes","recycling:glass":"yes","recycling_type":"container"}},"type":"Feature"},
	{"geometry":{"coordinates":[8.720685,49.03721],"type":"Point"},"properties":{"osm_id":"967046616","tag":{"amenity":"recycling","recycling:glass":"yes","recycling_type":"container"}},"type":"Feature"},
	{"geometry":{"coordinates":[8.703078,49.032936],"type":"Point"},"properties":{"osm_id":"1126316716","tag":{"amenity":"recycling","recycling:clothes":"yes","recycling_type":"container"}},"type":"Feature"},
	{"geometry":{"coordinates":[8.70295,49.033718],"type":"Point"},"properties":{"osm_id":"1126316724","tag":{"amenity":"recycling","recycling:clothes":"yes","recycling:glass":"yes","recycling_type":"container"}},"type":"Feature"},
	{"geometry":{"coordinates":[8.71799,49.031054],"type":"Point"},"properties":{"osm_id":"1163205148","tag":{"amenity":"recycling","recycling:glass":"yes","recycling_type":"container"}},"type":"Feature"},
	{"geometry":{"coordinates":[8.713445,49.034387],"type":"Point"},"properties":{"osm_id":"1163295669","tag":{"amenity":"recycling","recycling:clothes":"yes","recycling_type":"container"}},"type":"Feature"},
	{"geometry":{"coordinates":[8.709655,49.036834],"type":"Point"},"properties":{"osm_id":"1200673145","tag":{"amenity":"recycling","recycling:clothes":"yes","recycling:glass":"yes","recycling_type":"container"}},"type":"Feature"},
	{"geometry":{"coordinates":[8.709247,49.037352],"type":"Point"},"properties":{"osm_id":"1200673183","tag":{"amenity":"recycling","recycling:glass":"yes","recycling_type":"container"}},"type":"Feature"},
	{"geometry":{"coordinates":[8.709382,49.03022],"type":"Point"},"properties":{"osm_id":"1270730133","tag":{"amenity":"recycling","recycling:cans":"yes","recycling:clothes":"no","recycling:glass":"yes","recycling:glass_bottles":"yes","recycling:paper":"no","recycling:plastic":"no","recycling_type":"container"}},"type":"Feature"},
	{"geometry":{"coordinates":[8.701215,49.029756],"type":"Point"},"properties":{"osm_id":"1277697810","tag":{"amenity":"recycling","recycling:clothes":"yes","recycling_type":"container"}},"type":"Feature"},
	{"geometry":{"coordinates":[8.730862,49.01356],"type":"Point"},"properties":{"osm_id":"1323353945","tag":{"amenity":"waste_basket"}},"type":"Feature"},
	{"geometry":{"coordinates":[8.701466,49.033659],"type":"Point"},"properties":{"osm_id":"1334289485","tag":{"amenity":"waste_basket"}},"type":"Feature"},
	{"geometry":{"coordinates":[8.701755,49.033489],"type":"Point"},"properties":{"osm_id":"1334289488","tag":{"amenity":"waste_basket"}},"type":"Feature"},
	{"geometry":{"coordinates":[8.713077,49.011114],"type":"Point"},"properties":{"osm_id":"1435298313","tag":{"amenity":"waste_basket"}},"type":"Feature"},
	{"geometry":{"coordinates":[8.705836,49.032149],"type":"Point"},"properties":{"osm_id":"2217038140","tag":{"amenity":"recycling","recycling:clothes":"yes","recycling_type":"container"}},"type":"Feature"},
	{"geometry":{"coordinates":[8.713036,49.02766],"type":"Point"},"properties":{"osm_id":"2501579034","tag":{"amenity":"recycling","recycling:glass":"yes","recycling_type":"container"}},"type":"Feature"},
	{"geometry":{"coordinates":[8.731075,49.033043],"type":"Point"},"properties":{"name":"Gr\u00c3\u00bcnabfallsammelplatz Hetzenbaumh\u00c3\u00b6fe","osm_id":"2838313198","tag":{"amenity":"recycling","opening_hours":"Sa 10:00-17:00; Nov-Mar: We,Fr 13:00-17:00; Apr-Oct: We,Fr 13:00-18:00","recycling:green_waste":"yes","recycling_type":"centre","website":"http://www.bretten.de/cms/node/11843"}},"type":"Feature"},
	{"geometry":{"coordinates":[8.713244,49.03429],"type":"Point"},"properties":{"osm_id":"3823128681","tag":{"amenity":"waste_basket"}},"type":"Feature"},
	{"geometry":{"coordinates":[8.713464,49.033763],"type":"Point"},"properties":{"osm_id":"3823128682","tag":{"amenity":"waste_basket"}},"type":"Feature"},
	{"geometry":{"coordinates":[8.713706,49.033441],"type":"Point"},"properties":{"osm_id":"3823128683","tag":{"amenity":"waste_basket"}},"type":"Feature"},
	{"geometry":{"coordinates":[8.717004,49.031932],"type":"Point"},"properties":{"osm_id":"3823128684","tag":{"amenity":"waste_basket"}},"type":"Feature"},
	{"geometry":{"coordinates":[8.717099,49.032051],"type":"Point"},"properties":{"osm_id":"3823128685","tag":{"amenity":"waste_basket"}},"type":"Feature"},
	{"geometry":{"coordinates":[8.716865,49.032262],"type":"Point"},"properties":{"osm_id":"3823128686","tag":{"amenity":"waste_basket"}},"type":"Feature"},
	{"geometry":{"coordinates":[8.717457,49.032251],"type":"Point"},"properties":{"osm_id":"3823128687","tag":{"amenity":"waste_basket"}},"type":"Feature"},
	{"geometry":{"coordinates":[8.717348,49.031867],"type":"Point"},"properties":{"osm_id":"3823128688","tag":{"amenity":"waste_basket"}},"type":"Feature"},
	{"geometry":{"coordinates":[8.720934,49.031192],"type":"Point"},"properties":{"osm_id":"3823128689","tag":{"amenity":"waste_basket"}},"type":"Feature"},
	{"geometry":{"coordinates":[8.721088,49.03062],"type":"Point"},"properties":{"osm_id":"3823128690","tag":{"amenity":"waste_basket"}},"type":"Feature"},
	{"geometry":{"coordinates":[8.720718,49.030617],"type":"Point"},"properties":{"osm_id":"3823128691","tag":{"amenity":"waste_basket"}},"type":"Feature"},
	{"geometry":{"coordinates":[8.719647,49.03175],"type":"Point"},"properties":{"osm_id":"3823128692","tag":{"amenity":"waste_basket"}},"type":"Feature"},
	{"geometry":{"coordinates":[8.720456,49.032203],"type":"Point"},"properties":{"osm_id":"3823128693","tag":{"amenity":"waste_basket"}},"type":"Feature"},
	{"geometry":{"coordinates":[8.717684,49.035313],"type":"Point"},"properties":{"osm_id":"3823215764","tag":{"amenity":"waste_basket"}},"type":"Feature"},
	{"geometry":{"coordinates":[8.711734,49.030872],"type":"Point"},"properties":{"osm_id":"3849353111","tag":{"amenity":"waste_basket"}},"type":"Feature"},
	{"geometry":{"coordinates":[8.708426,49.030546],"type":"Point"},"properties":{"osm_id":"3859117494","tag":{"amenity":"waste_basket"}},"type":"Feature"},
	{"geometry":{"coordinates":[8.709572,49.030276],"type":"Point"},"properties":{"osm_id":"3859117495","tag":{"amenity":"waste_basket"}},"type":"Feature"},
	{"geometry":{"coordinates":[8.709644,49.030554],"type":"Point"},"properties":{"osm_id":"3859117496","tag":{"amenity":"waste_basket"}},"type":"Feature"},
	{"geometry":{"coordinates":[8.719117,49.030066],"type":"Point"},"properties":{"osm_id":"3873365210","tag":{"amenity":"waste_basket"}},"type":"Feature"},
	{"geometry":{"coordinates":[8.719004,49.030092],"type":"Point"},"properties":{"osm_id":"3873365211","tag":{"amenity":"waste_basket"}},"type":"Feature"},
	{"geometry":{"coordinates":[8.704587,49.03169],"type":"Point"},"properties":{"osm_id":"3909026644","tag":{"amenity":"recycling","opening_hours":"24/7","recycling:cardboard":"yes","recycling:paper":"yes","recycling:waste":"yes","recycling_type":"container","wheelchair":"yes"}},"type":"Feature"},
	{"geometry":{"coordinates":[8.710224,49.01827],"type":"Point"},"properties":{"osm_id":"4268478687","tag":{"amenity":"waste_basket"}},"type":"Feature"},
	{"geometry":{"coordinates":[8.723631,49.006252],"type":"Point"},"properties":{"osm_id":"4272214985","tag":{"amenity":"waste_disposal"}},"type":"Feature"},
	{"geometry":{"coordinates":[8.710339,49.037291],"type":"Point"},"properties":{"osm_id":"4299001417","tag":{"amenity":"waste_basket"}},"type":"Feature"},
	{"geometry":{"coordinates":[8.712524,49.02161],"type":"Point"},"properties":{"osm_id":"4314953666","tag":{"amenity":"waste_basket"}},"type":"Feature"},
	{"geometry":{"coordinates":[8.712469,49.021628],"type":"Point"},"properties":{"osm_id":"4314953670","tag":{"amenity":"waste_basket"}},"type":"Feature"},
	{"geometry":{"coordinates":[8.706355,49.02301],"type":"Point"},"properties":{"osm_id":"4316287979","tag":{"amenity":"waste_basket"}},"type":"Feature"},
	{"geometry":{"coordinates":[8.711049,49.037251],"type":"Point"},"properties":{"osm_id":"4329862122","tag":{"amenity":"waste_basket"}},"type":"Feature"},
	{"geometry":{"coordinates":[8.710855,49.037327],"type":"Point"},"properties":{"osm_id":"4329862128","tag":{"amenity":"waste_basket"}},"type":"Feature"},
	{"geometry":{"coordinates":[8.710923,49.037491],"type":"Point"},"properties":{"osm_id":"4329862133","tag":{"amenity":"waste_basket"}},"type":"Feature"},
	{"geometry":{"coordinates":[8.722588,49.011677],"type":"Point"},"properties":{"osm_id":"4403809050","tag":{"amenity":"waste_basket"}},"type":"Feature"},
	{"geometry":{"coordinates":[8.721241,49.012031],"type":"Point"},"properties":{"osm_id":"4403809056","tag":{"amenity":"waste_basket"}},"type":"Feature"},
	{"geometry":{"coordinates":[8.751348,49.029408],"type":"Point"},"properties":{"osm_id":"4419522979","tag":{"amenity":"waste_basket"}},"type":"Feature"},
	{"geometry":{"coordinates":[8.707772,49.030654],"type":"Point"},"properties":{"osm_id":"4462457038","tag":{"amenity":"waste_basket"}},"type":"Feature"},
	{"geometry":{"coordinates":[8.763687,49.027403],"type":"Point"},"properties":{"osm_id":"4471297736","tag":{"amenity":"waste_basket"}},"type":"Feature"},
	{"geometry":{"coordinates":[8.721995,49.009844],"type":"Point"},"properties":{"osm_id":"4900406120","tag":{"amenity":"waste_basket"}},"type":"Feature"},
	{"geometry":{"coordinates":[8.722077,49.009049],"type":"Point"},"properties":{"osm_id":"4902737823","tag":{"amenity":"waste_basket"}},"type":"Feature"},
	{"geometry":{"coordinates":[8.744237,48.993603],"type":"Point"},"properties":{"osm_id":"4909309760","tag":{"amenity":"waste_basket"}},"type":"Feature"},
	{"geometry":{"coordinates":[8.744549,48.993035],"type":"Point"},"properties":{"osm_id":"4909309801","tag":{"amenity":"waste_basket"}},"type":"Feature"},
	{"geometry":{"coordinates":[8.744462,48.993607],"type":"Point"},"properties":{"osm_id":"4909312013","tag":{"amenity":"waste_basket"}},"type":"Feature"},
	{"geometry":{"coordinates":[8.753704,48.985854],"type":"Point"},"properties":{"osm_id":"4913641884","tag":{"amenity":"waste_basket"}},"type":"Feature"},
	{"geometry":{"coordinates":[8.753452,48.985753],"type":"Point"},"properties":{"osm_id":"4913641907","tag":{"amenity":"waste_basket"}},"type":"Feature"},
	{"geometry":{"coordinates":[8.781617,48.983287],"type":"Point"},"properties":{"osm_id":"4931513239","tag":{"amenity":"waste_basket","level":"0"}},"type":"Feature"},
	{"geometry":{"coordinates":[8.722096,49.009905],"type":"Point"},"properties":{"osm_id":"4937302993","tag":{"amenity":"waste_basket"}},"type":"Feature"},
	{"geometry":{"coordinates":[8.753516,48.985635],"type":"Point"},"properties":{"osm_id":"4937353794","tag":{"amenity":"waste_basket"}},"type":"Feature"},
	{"geometry":{"coordinates":[8.701592,49.032385],"type":"Point"},"properties":{"osm_id":"5197011498","tag":{"amenity":"waste_basket"}},"type":"Feature"},
	{"geometry":{"coordinates":[8.701511,49.032667],"type":"Point"},"properties":{"osm_id":"5197011504","tag":{"amenity":"waste_basket"}},"type":"Feature"},
	{"geometry":{"coordinates":[8.702202,49.034079],"type":"Point"},"properties":{"osm_id":"5200658403","tag":{"amenity":"waste_basket"}},"type":"Feature"},
	{"geometry":{"coordinates":[8.701848,49.034316],"type":"Point"},"properties":{"osm_id":"5200658416","tag":{"amenity":"waste_basket"}},"type":"Feature"},
	{"geometry":{"coordinates":[8.701382,49.032844],"type":"Point"},"properties":{"osm_id":"5200662764","tag":{"amenity":"waste_basket"}},"type":"Feature"},
	{"geometry":{"coordinates":[8.759151,49.026687],"type":"Point"},"properties":{"osm_id":"7041773132","tag":{"amenity":"waste_basket"}},"type":"Feature"},
	{"geometry":{"coordinates":[8.747955,49.015498],"type":"Point"},"properties":{"osm_id":"7056838762","tag":{"amenity":"waste_basket"}},"type":"Feature"},
	{"geometry":{"coordinates":[8.763096,49.027613],"type":"Point"},"properties":{"osm_id":"7077639556","tag":{"amenity":"waste_basket"}},"type":"Feature"},
	{"geometry":{"coordinates":[8.704221,49.037512],"type":"Point"},"properties":{"osm_id":"7214147669","tag":{"amenity":"waste_basket","waste":"trash"}},"type":"Feature"},
	{"geometry":{"coordinates":[8.707355,49.037016],"type":"Point"},"properties":{"osm_id":"7214147671","tag":{"amenity":"waste_basket","waste":"trash"}},"type":"Feature"},
	{"geometry":{"coordinates":[8.705691,49.037195],"type":"Point"},"properties":{"osm_id":"7214147672","tag":{"amenity":"waste_basket","waste":"trash"}},"type":"Feature"},
	{"geometry":{"coordinates":[8.705276,49.037263],"type":"Point"},"properties":{"osm_id":"7214147673","tag":{"amenity":"waste_basket","waste":"trash"}},"type":"Feature"},
	{"geometry":{"coordinates":[8.706555,49.03699],"type":"Point"},"properties":{"osm_id":"7214147674","tag":{"amenity":"waste_basket","waste":"trash"}},"type":"Feature"},
	{"geometry":{"coordinates":[8.70474,49.037405],"type":"Point"},"properties":{"osm_id":"7214147675","tag":{"amenity":"waste_basket","waste":"trash"}},"type":"Feature"},
	{"geometry":{"coordinates":[8.706303,49.037008],"type":"Point"},"properties":{"osm_id":"7214147676","tag":{"amenity":"waste_basket","waste":"trash"}},"type":"Feature"},
	{"geometry":{"coordinates":[8.780394,49.027555],"type":"Point"},"properties":{"osm_id":"7427437841","tag":{"amenity":"waste_basket"}},"type":"Feature"},
	{"geometry":{"coordinates":[8.760797,48.988943],"type":"Point"},"properties":{"osm_id":"7897103374","tag":{"amenity":"waste_basket"}},"type":"Feature"}
]
}
