{
"type": "FeatureCollection",
"features": [
	{"geometry":{"coordinates":[8.704089,48.898111],"type":"Point"},"properties":{"osm_id":"255663461","tag":{"amenity":"recycling","recycling:clothes":"yes","recycling_type":"container"}},"type":"Feature"},
	{"geometry":{"coordinates":[8.722457,48.901323],"type":"Point"},"properties":{"osm_id":"255663463","tag":{"amenity":"recycling","recycling:glass":"yes","recycling_type":"container"}},"type":"Feature"},
	{"geometry":{"coordinates":[8.710756,48.88449],"type":"Point"},"properties":{"osm_id":"297692641","tag":{"amenity":"recycling","opening_hours":"Mo-Sa 08:00-19:00","recycling:glass":"yes","recycling:glass_bottles":"yes","recycling_type":"container"}},"type":"Feature"},
	{"geometry":{"coordinates":[8.709711,48.884561],"type":"Point"},"properties":{"osm_id":"298003332","tag":{"amenity":"recycling","recycling_type":"container"}},"type":"Feature"},
	{"geometry":{"coordinates":[8.712146,48.883179],"type":"Point"},"properties":{"osm_id":"298392877","tag":{"amenity":"recycling","recycling_type":"container"}},"type":"Feature"},
	{"geometry":{"coordinates":[8.713861,48.880606],"type":"Point"},"properties":{"osm_id":"300150844","tag":{"amenity":"recycling","recycling:clothes":"yes","recycling:glass_bottles":"yes","recycling_type":"container"}},"type":"Feature"},
	{"geometry":{"coordinates":[8.740324,48.881991],"type":"Point"},"properties":{"osm_id":"300170425","tag":{"amenity":"recycling","recycling:batteries":"yes","recycling:glass":"yes","recycling_type":"container"}},"type":"Feature"},
	{"geometry":{"coordinates":[8.743594,48.902744],"type":"Point"},"properties":{"osm_id":"300468674","tag":{"amenity":"recycling","recycling:batteries":"yes","recycling:glass":"yes","recycling_type":"container"}},"type":"Feature"},
	{"geometry":{"coordinates":[8.720857,48.898376],"type":"Point"},"properties":{"osm_id":"300468685","tag":{"amenity":"recycling","recycling:glass_bottles":"yes","recycling_type":"container"}},"type":"Feature"},
	{"geometry":{"coordinates":[8.738301,48.882696],"type":"Point"},"properties":{"osm_id":"302933279","tag":{"amenity":"recycling","recycling:batteries":"yes","recycling:clothes":"yes","recycling:glass_bottles":"yes","recycling_type":"container"}},"type":"Feature"},
	{"geometry":{"coordinates":[8.705832,48.896801],"type":"Point"},"properties":{"osm_id":"310099991","tag":{"amenity":"recycling","recycling:batteries":"yes","recycling:glass":"yes","recycling_type":"container"}},"type":"Feature"},
	{"geometry":{"coordinates":[8.70584,48.900317],"type":"Point"},"properties":{"osm_id":"310136454","tag":{"amenity":"recycling","recycling:batteries":"yes","recycling:clothes":"yes","recycling:glass_bottles":"yes","recycling_type":"container"}},"type":"Feature"},
	{"geometry":{"coordinates":[8.714429,48.903637],"type":"Point"},"properties":{"osm_id":"310136455","tag":{"amenity":"recycling","recycling:clothes":"yes","recycling:glass_bottles":"yes","recycling_type":"container"}},"type":"Feature"},
	{"geometry":{"coordinates":[8.712047,48.893725],"type":"Point"},"properties":{"osm_id":"311875713","tag":{"amenity":"recycling","recycling:glass":"yes","recycling_type":"container"}},"type":"Feature"},
	{"geometry":{"coordinates":[8.720116,48.900892],"type":"Point"},"properties":{"osm_id":"313529651","tag":{"amenity":"recycling","recycling:glass":"yes","recycling_type":"container"}},"type":"Feature"},
	{"geometry":{"coordinates":[8.719627,48.901421],"type":"Point"},"properties":{"osm_id":"313532834","tag":{"amenity":"recycling","recycling:batteries":"yes","recycling:glass_bottles":"yes","recycling_type":"container"}},"type":"Feature"},
	{"geometry":{"coordinates":[8.705005,48.909795],"type":"Point"},"properties":{"osm_id":"313543520","tag":{"amenity":"recycling","recycling:glass":"yes","recycling_type":"container"}},"type":"Feature"},
	{"geometry":{"coordinates":[8.75228,48.914805],"type":"Point"},"properties":{"osm_id":"313777147","tag":{"amenity":"recycling","recycling:glass_bottles":"yes","recycling_type":"container"}},"type":"Feature"},
	{"geometry":{"coordinates":[8.704125,48.894651],"type":"Point"},"properties":{"osm_id":"314664858","tag":{"amenity":"recycling","recycling:batteries":"no","recycling:cans":"no","recycling:clothes":"no","recycling:glass":"yes","recycling:paper":"no","recycling:scrap_metal":"no","recycling_type":"container"}},"type":"Feature"},
	{"geometry":{"coordinates":[8.741705,48.915126],"type":"Point"},"properties":{"osm_id":"315666881","tag":{"amenity":"recycling","recycling:batteries":"yes","recycling:glass":"yes","recycling_type":"container"}},"type":"Feature"},
	{"geometry":{"coordinates":[8.734748,48.885405],"type":"Point"},"properties":{"osm_id":"320329518","tag":{"amenity":"recycling","recycling:glass_bottles":"yes","recycling_type":"container"}},"type":"Feature"},
	{"geometry":{"coordinates":[8.782189,48.91465],"type":"Point"},"properties":{"osm_id":"345746209","tag":{"amenity":"recycling","recycling:glass":"yes","recycling_type":"container"}},"type":"Feature"},
	{"geometry":{"coordinates":[8.703702,48.888848],"type":"Point"},"properties":{"osm_id":"368268251","tag":{"amenity":"waste_basket","bin":"yes","fee":"no","operator":"Belloo","payment:none":"yes","vending":"excrement_bags","website":"https://www.belloo.com/"}},"type":"Feature"},
	{"geometry":{"coordinates":[8.746307,48.867687],"type":"Point"},"properties":{"osm_id":"386882518","tag":{"amenity":"recycling","recycling:glass":"yes","recycling_type":"container"}},"type":"Feature"},
	{"geometry":{"coordinates":[8.743451,48.910061],"type":"Point"},"properties":{"osm_id":"390487922","tag":{"amenity":"recycling","recycling:clothes":"yes","recycling:glass_bottles":"yes","recycling_type":"container"}},"type":"Feature"},
	{"geometry":{"coordinates":[8.720717,48.899254],"type":"Point"},"properties":{"osm_id":"534913950","tag":{"amenity":"recycling","recycling:batteries":"no","recycling:clothes":"yes","recycling:glass_bottles":"yes","recycling:shoes":"yes","recycling_type":"container"}},"type":"Feature"},
	{"geometry":{"coordinates":[8.75119,48.914472],"type":"Point"},"properties":{"osm_id":"1432608860","tag":{"amenity":"recycling","recycling:batteries":"yes","recycling_type":"container"}},"type":"Feature"},
	{"geometry":{"coordinates":[8.746364,48.915006],"type":"Point"},"properties":{"osm_id":"1432609184","tag":{"amenity":"recycling","recycling:batteries":"yes","recycling:clothes":"yes","recycling:glass_bottles":"yes","recycling_type":"container"}},"type":"Feature"},
	{"geometry":{"coordinates":[8.736933,48.904589],"type":"Point"},"properties":{"osm_id":"1489440626","tag":{"amenity":"recycling","recycling:shoes":"yes","recycling_type":"container"}},"type":"Feature"},
	{"geometry":{"coordinates":[8.707072,48.88656],"type":"Point"},"properties":{"osm_id":"1544059339","tag":{"amenity":"recycling","recycling:clothes":"yes","recycling_type":"container"}},"type":"Feature"},
	{"geometry":{"coordinates":[8.731272,48.888491],"type":"Point"},"properties":{"osm_id":"1550181065","tag":{"amenity":"recycling","recycling:glass_bottles":"yes","recycling_type":"container"}},"type":"Feature"},
	{"geometry":{"coordinates":[8.735003,48.883526],"type":"Point"},"properties":{"osm_id":"1573854313","tag":{"amenity":"recycling","recycling:batteries":"yes","recycling_type":"container"}},"type":"Feature"},
	{"geometry":{"coordinates":[8.735008,48.883588],"type":"Point"},"properties":{"osm_id":"1573854314","tag":{"amenity":"recycling","recycling:glass_bottles":"yes","recycling_type":"container"}},"type":"Feature"},
	{"geometry":{"coordinates":[8.735004,48.883559],"type":"Point"},"properties":{"osm_id":"1573854315","tag":{"amenity":"recycling","recycling:clothes":"yes","recycling_type":"container"}},"type":"Feature"},
	{"geometry":{"coordinates":[8.722572,48.878039],"type":"Point"},"properties":{"osm_id":"1575186671","tag":{"amenity":"recycling","recycling:glass_bottles":"yes"}},"type":"Feature"},
	{"geometry":{"coordinates":[8.711803,48.902104],"type":"Point"},"properties":{"osm_id":"1577779572","tag":{"amenity":"recycling","recycling:glass_bottles":"yes","recycling_type":"container"}},"type":"Feature"},
	{"geometry":{"coordinates":[8.711885,48.902159],"type":"Point"},"properties":{"osm_id":"1577779582","tag":{"amenity":"recycling","recycling:shoes":"yes","recycling_type":"container"}},"type":"Feature"},
	{"geometry":{"coordinates":[8.707245,48.890386],"type":"Point"},"properties":{"osm_id":"1577820582","tag":{"amenity":"recycling","recycling:batteries":"no","recycling:cans":"no","recycling:clothes":"yes","recycling:glass":"no","recycling:glass_bottles":"yes","recycling:paper":"no","recycling_type":"container"}},"type":"Feature"},
	{"geometry":{"coordinates":[8.713874,48.881845],"type":"Point"},"properties":{"osm_id":"1578148583","tag":{"amenity":"waste_basket"}},"type":"Feature"},
	{"geometry":{"coordinates":[8.711079,48.889216],"type":"Point"},"properties":{"osm_id":"1578149978","tag":{"amenity":"recycling","recycling:batteries":"no","recycling:clothes":"yes","recycling:glass_bottles":"yes","recycling:shoes":"yes","recycling_type":"container"}},"type":"Feature"},
	{"geometry":{"coordinates":[8.754508,48.88551],"type":"Point"},"properties":{"osm_id":"1578646102","tag":{"amenity":"recycling","recycling:batteries":"yes","recycling:glass_bottles":"yes","recycling_type":"container"}},"type":"Feature"},
	{"geometry":{"coordinates":[8.704499,48.883918],"type":"Point"},"properties":{"osm_id":"1583637961","tag":{"amenity":"recycling","recycling:batteries":"no","recycling:clothes":"yes","recycling:glass":"no","recycling:glass_bottles":"no","recycling:shoes":"yes","recycling_type":"container"}},"type":"Feature"},
	{"geometry":{"coordinates":[8.727079,48.884429],"type":"Point"},"properties":{"osm_id":"1583638043","tag":{"amenity":"recycling","recycling:batteries":"yes","recycling:clothes":"yes","recycling_type":"container"}},"type":"Feature"},
	{"geometry":{"coordinates":[8.727059,48.884453],"type":"Point"},"properties":{"osm_id":"1583638074","tag":{"amenity":"recycling","recycling:shoes":"yes","recycling_type":"container"}},"type":"Feature"},
	{"geometry":{"coordinates":[8.727039,48.884478],"type":"Point"},"properties":{"osm_id":"1583638107","tag":{"amenity":"recycling","recycling:glass_bottles":"yes","recycling_type":"container"}},"type":"Feature"},
	{"geometry":{"coordinates":[8.710177,48.885725],"type":"Point"},"properties":{"osm_id":"1583638297","tag":{"amenity":"waste_basket"}},"type":"Feature"},
	{"geometry":{"coordinates":[8.710365,48.886255],"type":"Point"},"properties":{"osm_id":"1583638355","tag":{"amenity":"waste_basket"}},"type":"Feature"},
	{"geometry":{"coordinates":[8.710055,48.886455],"type":"Point"},"properties":{"osm_id":"1583638395","tag":{"amenity":"waste_basket"}},"type":"Feature"},
	{"geometry":{"coordinates":[8.709765,48.88661],"type":"Point"},"properties":{"osm_id":"1583638433","tag":{"amenity":"waste_basket"}},"type":"Feature"},
	{"geometry":{"coordinates":[8.708606,48.886869],"type":"Point"},"properties":{"osm_id":"1583638462","tag":{"amenity":"waste_basket"}},"type":"Feature"},
	{"geometry":{"coordinates":[8.717327,48.896327],"type":"Point"},"properties":{"osm_id":"1583638738","tag":{"amenity":"waste_basket","fee":"no","operator":"Belloo","vending":"excrement_bags","website":"https://www.belloo.com/"}},"type":"Feature"},
	{"geometry":{"coordinates":[8.716294,48.881773],"type":"Point"},"properties":{"osm_id":"1614000226","tag":{"amenity":"recycling","opening_hours":"08:00-19:00","recycling:glass_bottles":"yes"}},"type":"Feature"},
	{"geometry":{"coordinates":[8.721647,48.883244],"type":"Point"},"properties":{"osm_id":"1614000400","tag":{"amenity":"recycling","recycling:clothes":"yes","recycling:glass_bottles":"yes","recycling:shoes":"yes","recycling_type":"container"}},"type":"Feature"},
	{"geometry":{"coordinates":[8.741153,48.880633],"type":"Point"},"properties":{"osm_id":"1633035247","tag":{"amenity":"recycling","recycling:shoes":"yes","recycling_type":"container"}},"type":"Feature"},
	{"geometry":{"coordinates":[8.747912,48.909947],"type":"Point"},"properties":{"osm_id":"1636357309","tag":{"amenity":"recycling","recycling:batteries":"yes","recycling:clothes":"yes","recycling:glass_bottles":"yes","recycling:shoes":"yes","recycling_type":"container"}},"type":"Feature"},
	{"geometry":{"coordinates":[8.746263,48.897725],"type":"Point"},"properties":{"osm_id":"1639437481","tag":{"amenity":"recycling","recycling:clothes":"yes","recycling_type":"container"}},"type":"Feature"},
	{"geometry":{"coordinates":[8.741981,48.91514],"type":"Point"},"properties":{"barrier":"gate","osm_id":"2432710194"},"type":"Feature"},
	{"geometry":{"coordinates":[8.708312,48.894827],"type":"Point"},"properties":{"name":"Nas Schrott","osm_id":"2901252256","tag":{"addr:housenumber":"3-5","addr:street":"G\u00c3\u00bcterbahnhof","amenity":"recycling","contact:email":"Nasschrott@hotmail.de","contact:fax":"+49 7231 6076839","contact:phone":"+49 1511 1698363","contact:website":"http://www.nasschrott.de/","lastcheck":"2016-03-21","recycling_type":"centre","wheelchair":"yes"}},"type":"Feature"},
	{"geometry":{"coordinates":[8.71864,48.891149],"type":"Point"},"properties":{"name":"K\u00c3\u00b6rper & K\u00c3\u00b6rper GbR Schrott","osm_id":"3282317173","tag":{"amenity":"recycling","contact:phone":"+49 7231 17499","recycling_type":"centre"}},"type":"Feature"},
	{"geometry":{"coordinates":[8.723367,48.896391],"type":"Point"},"properties":{"osm_id":"3286282661","tag":{"amenity":"recycling","recycling:clothes":"yes","recycling:shoes":"yes","recycling_type":"container"}},"type":"Feature"},
	{"geometry":{"coordinates":[8.708204,48.897521],"type":"Point"},"properties":{"osm_id":"3290975120","tag":{"amenity":"recycling","recycling:clothes":"yes","recycling:shoes":"yes","recycling_type":"container"}},"type":"Feature"},
	{"geometry":{"coordinates":[8.754221,48.915088],"type":"Point"},"properties":{"osm_id":"3297192097","tag":{"amenity":"recycling","recycling:clothes":"yes","recycling:shoes":"yes","recycling_type":"container"}},"type":"Feature"},
	{"geometry":{"coordinates":[8.703903,48.886892],"type":"Point"},"properties":{"osm_id":"3297314211","tag":{"amenity":"recycling","recycling:batteries":"no","recycling:clothes":"yes","recycling:glass_bottles":"yes","recycling:shoes":"yes","recycling_type":"container"}},"type":"Feature"},
	{"geometry":{"coordinates":[8.712961,48.889849],"type":"Point"},"properties":{"osm_id":"3305858104","tag":{"amenity":"waste_basket","bin":"yes","fee":"no","operator":"Belloo","vending":"excrement_bags","website":"https://www.belloo.com/"}},"type":"Feature"},
	{"geometry":{"coordinates":[8.712111,48.896618],"type":"Point"},"properties":{"osm_id":"3317389972","tag":{"amenity":"recycling","recycling:glass":"yes","recycling_type":"container"}},"type":"Feature"},
	{"geometry":{"coordinates":[8.7137,48.897],"type":"Point"},"properties":{"osm_id":"3317389978","tag":{"amenity":"recycling","recycling:clothes":"yes","recycling:shoes":"yes","recycling_type":"container"}},"type":"Feature"},
	{"geometry":{"coordinates":[8.711222,48.895995],"type":"Point"},"properties":{"osm_id":"3318502811","tag":{"amenity":"recycling","recycling:clothes":"yes","recycling:shoes":"yes","recycling_type":"container"}},"type":"Feature"},
	{"geometry":{"coordinates":[8.715151,48.893839],"type":"Point"},"properties":{"osm_id":"3342143162","tag":{"amenity":"recycling","recycling:clothes":"yes","recycling:glass_bottles":"yes","recycling:shoes":"yes","recycling_type":"container"}},"type":"Feature"},
	{"geometry":{"coordinates":[8.722826,48.897326],"type":"Point"},"properties":{"osm_id":"3342156266","tag":{"amenity":"recycling","recycling:clothes":"yes","recycling:glass_bottles":"yes","recycling:shoes":"yes","recycling_type":"container"}},"type":"Feature"},
	{"geometry":{"coordinates":[8.736094,48.903108],"type":"Point"},"properties":{"osm_id":"3347792795","tag":{"amenity":"recycling","recycling:clothes":"no","recycling:glass":"yes","recycling:shoes":"no","recycling_type":"container"}},"type":"Feature"},
	{"geometry":{"coordinates":[8.711103,48.889263],"type":"Point"},"properties":{"osm_id":"3355606093","tag":{"amenity":"waste_basket","bin":"yes","fee":"no","operator":"Belloo","vending":"excrement_bags","website":"https://www.belloo.com/"}},"type":"Feature"},
	{"geometry":{"coordinates":[8.723823,48.895511],"type":"Point"},"properties":{"osm_id":"3355611477","tag":{"amenity":"waste_basket"}},"type":"Feature"},
	{"geometry":{"coordinates":[8.711536,48.890142],"type":"Point"},"properties":{"osm_id":"3355620958","tag":{"amenity":"waste_basket"}},"type":"Feature"},
	{"geometry":{"coordinates":[8.712054,48.890377],"type":"Point"},"properties":{"osm_id":"3355620959","tag":{"amenity":"waste_basket"}},"type":"Feature"},
	{"geometry":{"coordinates":[8.713368,48.890636],"type":"Point"},"properties":{"osm_id":"3355620960","tag":{"amenity":"waste_basket"}},"type":"Feature"},
	{"geometry":{"coordinates":[8.711192,48.892499],"type":"Point"},"properties":{"osm_id":"3355621346","tag":{"amenity":"waste_basket"}},"type":"Feature"},
	{"geometry":{"coordinates":[8.724034,48.89619],"type":"Point"},"properties":{"osm_id":"3355740627","tag":{"amenity":"waste_basket"}},"type":"Feature"},
	{"geometry":{"coordinates":[8.707104,48.888651],"type":"Point"},"properties":{"osm_id":"3357740993","tag":{"amenity":"waste_basket","bin":"yes","fee":"no","operator":"Belloo","vending":"excrement_bags","website":"https://www.belloo.com/"}},"type":"Feature"},
	{"geometry":{"coordinates":[8.701492,48.891986],"type":"Point"},"properties":{"osm_id":"3357740994","tag":{"amenity":"waste_basket"}},"type":"Feature"},
	{"geometry":{"coordinates":[8.701601,48.891986],"type":"Point"},"properties":{"osm_id":"3357740995","tag":{"amenity":"waste_basket"}},"type":"Feature"},
	{"geometry":{"coordinates":[8.701723,48.891986],"type":"Point"},"properties":{"osm_id":"3357740996","tag":{"amenity":"waste_basket"}},"type":"Feature"},
	{"geometry":{"coordinates":[8.701845,48.891989],"type":"Point"},"properties":{"osm_id":"3357740997","tag":{"amenity":"waste_basket"}},"type":"Feature"},
	{"geometry":{"coordinates":[8.704202,48.892069],"type":"Point"},"properties":{"osm_id":"3357740998","tag":{"amenity":"waste_basket"}},"type":"Feature"},
	{"geometry":{"coordinates":[8.711694,48.894485],"type":"Point"},"properties":{"osm_id":"3357772970","tag":{"amenity":"waste_basket","bin":"yes","fee":"no","operator":"Belloo","vending":"excrement_bags","website":"https://www.belloo.com/"}},"type":"Feature"},
	{"geometry":{"coordinates":[8.712908,48.889586],"type":"Point"},"properties":{"osm_id":"3358113523","tag":{"amenity":"waste_basket"}},"type":"Feature"},
	{"geometry":{"coordinates":[8.708534,48.896096],"type":"Point"},"properties":{"osm_id":"3358254328","tag":{"amenity":"waste_basket","bin":"yes","fee":"no","operator":"Belloo","vending":"excrement_bags","website":"https://www.belloo.com/"}},"type":"Feature"},
	{"geometry":{"coordinates":[8.712419,48.893585],"type":"Point"},"properties":{"osm_id":"3359226259","tag":{"amenity":"waste_basket"}},"type":"Feature"},
	{"geometry":{"coordinates":[8.712304,48.893743],"type":"Point"},"properties":{"osm_id":"3359226263","tag":{"amenity":"waste_basket"}},"type":"Feature"},
	{"geometry":{"coordinates":[8.712645,48.893799],"type":"Point"},"properties":{"osm_id":"3359226268","tag":{"amenity":"waste_basket"}},"type":"Feature"},
	{"geometry":{"coordinates":[8.706838,48.891045],"type":"Point"},"properties":{"osm_id":"3359257629","tag":{"amenity":"waste_basket"}},"type":"Feature"},
	{"geometry":{"coordinates":[8.710497,48.892616],"type":"Point"},"properties":{"osm_id":"3359257630","tag":{"amenity":"waste_basket"}},"type":"Feature"},
	{"geometry":{"coordinates":[8.703634,48.88724],"type":"Point"},"properties":{"osm_id":"3359566847","tag":{"amenity":"waste_basket"}},"type":"Feature"},
	{"geometry":{"coordinates":[8.704209,48.887337],"type":"Point"},"properties":{"osm_id":"3359566848","tag":{"amenity":"waste_basket"}},"type":"Feature"},
	{"geometry":{"coordinates":[8.702165,48.88836],"type":"Point"},"properties":{"osm_id":"3359566851","tag":{"amenity":"waste_basket"}},"type":"Feature"},
	{"geometry":{"coordinates":[8.70248,48.888362],"type":"Point"},"properties":{"osm_id":"3359566853","tag":{"amenity":"waste_basket"}},"type":"Feature"},
	{"geometry":{"coordinates":[8.702723,48.888383],"type":"Point"},"properties":{"osm_id":"3359566859","tag":{"amenity":"waste_basket"}},"type":"Feature"},
	{"geometry":{"coordinates":[8.702965,48.888425],"type":"Point"},"properties":{"osm_id":"3359566862","tag":{"amenity":"waste_basket"}},"type":"Feature"},
	{"geometry":{"coordinates":[8.710696,48.888816],"type":"Point"},"properties":{"osm_id":"3359566864","tag":{"amenity":"waste_basket"}},"type":"Feature"},
	{"geometry":{"coordinates":[8.701191,48.888878],"type":"Point"},"properties":{"osm_id":"3359566865","tag":{"amenity":"waste_basket"}},"type":"Feature"},
	{"geometry":{"coordinates":[8.710554,48.888885],"type":"Point"},"properties":{"osm_id":"3359566866","tag":{"amenity":"waste_basket"}},"type":"Feature"},
	{"geometry":{"coordinates":[8.713327,48.889594],"type":"Point"},"properties":{"osm_id":"3359566878","tag":{"amenity":"waste_basket"}},"type":"Feature"},
	{"geometry":{"coordinates":[8.701306,48.889678],"type":"Point"},"properties":{"osm_id":"3359566880","tag":{"amenity":"waste_basket"}},"type":"Feature"},
	{"geometry":{"coordinates":[8.701464,48.889868],"type":"Point"},"properties":{"osm_id":"3359566884","tag":{"amenity":"waste_basket"}},"type":"Feature"},
	{"geometry":{"coordinates":[8.701874,48.887962],"type":"Point"},"properties":{"osm_id":"3359594031","tag":{"amenity":"waste_basket"}},"type":"Feature"},
	{"geometry":{"coordinates":[8.702459,48.888106],"type":"Point"},"properties":{"osm_id":"3359594036","tag":{"amenity":"waste_basket"}},"type":"Feature"},
	{"geometry":{"coordinates":[8.701581,48.888454],"type":"Point"},"properties":{"osm_id":"3359594037","tag":{"amenity":"waste_basket"}},"type":"Feature"},
	{"geometry":{"coordinates":[8.706536,48.88919],"type":"Point"},"properties":{"osm_id":"3359594039","tag":{"amenity":"waste_basket"}},"type":"Feature"},
	{"geometry":{"coordinates":[8.70672,48.889214],"type":"Point"},"properties":{"osm_id":"3359594040","tag":{"amenity":"waste_basket","bin":"yes","fee":"no","operator":"Belloo","vending":"excrement_bags","website":"https://www.belloo.com/"}},"type":"Feature"},
	{"geometry":{"coordinates":[8.708378,48.889475],"type":"Point"},"properties":{"osm_id":"3359594042","tag":{"amenity":"waste_basket"}},"type":"Feature"},
	{"geometry":{"coordinates":[8.708578,48.889499],"type":"Point"},"properties":{"osm_id":"3359594045","tag":{"amenity":"waste_basket","fee":"no","operator":"Belloo","vending":"excrement_bags","website":"https://www.belloo.com/"}},"type":"Feature"},
	{"geometry":{"coordinates":[8.709522,48.889628],"type":"Point"},"properties":{"osm_id":"3359594050","tag":{"amenity":"waste_basket"}},"type":"Feature"},
	{"geometry":{"coordinates":[8.70478,48.889789],"type":"Point"},"properties":{"osm_id":"3359594057","tag":{"amenity":"waste_basket"}},"type":"Feature"},
	{"geometry":{"coordinates":[8.704944,48.889808],"type":"Point"},"properties":{"osm_id":"3359594058","tag":{"amenity":"waste_basket"}},"type":"Feature"},
	{"geometry":{"coordinates":[8.710751,48.889884],"type":"Point"},"properties":{"osm_id":"3359594060","tag":{"amenity":"waste_basket"}},"type":"Feature"},
	{"geometry":{"coordinates":[8.704877,48.890095],"type":"Point"},"properties":{"osm_id":"3359594063","tag":{"amenity":"waste_basket"}},"type":"Feature"},
	{"geometry":{"coordinates":[8.711879,48.890302],"type":"Point"},"properties":{"osm_id":"3359594064","tag":{"amenity":"waste_basket","fee":"no","operator":"Belloo","vending":"excrement_bags","website":"https://www.belloo.com/"}},"type":"Feature"},
	{"geometry":{"coordinates":[8.703902,48.887933],"type":"Point"},"properties":{"osm_id":"3359687083","tag":{"amenity":"waste_basket"}},"type":"Feature"},
	{"geometry":{"coordinates":[8.703754,48.889799],"type":"Point"},"properties":{"osm_id":"3359687085","tag":{"amenity":"waste_basket"}},"type":"Feature"},
	{"geometry":{"coordinates":[8.715465,48.893765],"type":"Point"},"properties":{"osm_id":"3360099766","tag":{"amenity":"waste_basket"}},"type":"Feature"},
	{"geometry":{"coordinates":[8.704802,48.891549],"type":"Point"},"properties":{"osm_id":"3361656958","tag":{"amenity":"waste_basket"}},"type":"Feature"},
	{"geometry":{"coordinates":[8.702058,48.890243],"type":"Point"},"properties":{"osm_id":"3361712042","tag":{"amenity":"waste_basket"}},"type":"Feature"},
	{"geometry":{"coordinates":[8.70247,48.891469],"type":"Point"},"properties":{"osm_id":"3361712044","tag":{"amenity":"waste_basket"}},"type":"Feature"},
	{"geometry":{"coordinates":[8.703275,48.89128],"type":"Point"},"properties":{"osm_id":"3361753772","tag":{"amenity":"waste_basket"}},"type":"Feature"},
	{"geometry":{"coordinates":[8.701697,48.893142],"type":"Point"},"properties":{"osm_id":"3361879270","tag":{"amenity":"waste_basket"}},"type":"Feature"},
	{"geometry":{"coordinates":[8.702152,48.894431],"type":"Point"},"properties":{"osm_id":"3361879271","tag":{"amenity":"waste_basket"}},"type":"Feature"},
	{"geometry":{"coordinates":[8.704952,48.894455],"type":"Point"},"properties":{"osm_id":"3361879272","tag":{"amenity":"waste_basket"}},"type":"Feature"},
	{"geometry":{"coordinates":[8.702771,48.890979],"type":"Point"},"properties":{"osm_id":"3363269248","tag":{"amenity":"waste_basket"}},"type":"Feature"},
	{"geometry":{"coordinates":[8.702761,48.891136],"type":"Point"},"properties":{"osm_id":"3363269249","tag":{"amenity":"waste_basket"}},"type":"Feature"},
	{"geometry":{"coordinates":[8.703526,48.89151],"type":"Point"},"properties":{"osm_id":"3363269251","tag":{"amenity":"waste_basket"}},"type":"Feature"},
	{"geometry":{"coordinates":[8.718368,48.893685],"type":"Point"},"properties":{"osm_id":"3363838452","tag":{"amenity":"waste_basket"}},"type":"Feature"},
	{"geometry":{"coordinates":[8.706921,48.886896],"type":"Point"},"properties":{"osm_id":"3365921898","tag":{"amenity":"waste_basket"}},"type":"Feature"},
	{"geometry":{"coordinates":[8.702893,48.88281],"type":"Point"},"properties":{"osm_id":"3366250959","tag":{"amenity":"waste_basket"}},"type":"Feature"},
	{"geometry":{"coordinates":[8.702973,48.882952],"type":"Point"},"properties":{"osm_id":"3366250962","tag":{"amenity":"waste_basket"}},"type":"Feature"},
	{"geometry":{"coordinates":[8.71587,48.891898],"type":"Point"},"properties":{"osm_id":"3367974929","tag":{"amenity":"waste_basket"}},"type":"Feature"},
	{"geometry":{"coordinates":[8.716104,48.88474],"type":"Point"},"properties":{"osm_id":"3368075401","tag":{"amenity":"recycling","recycling:batteries":"no","recycling:clothes":"yes","recycling:glass_bottles":"yes","recycling:shoes":"yes","recycling_type":"container"}},"type":"Feature"},
	{"geometry":{"coordinates":[8.701184,48.882104],"type":"Point"},"properties":{"osm_id":"3368126907","tag":{"amenity":"recycling","recycling:batteries":"no","recycling:clothes":"yes","recycling:glass_bottles":"yes","recycling:shoes":"yes","recycling_type":"container"}},"type":"Feature"},
	{"geometry":{"coordinates":[8.709172,48.884296],"type":"Point"},"properties":{"osm_id":"3368126909","tag":{"amenity":"waste_basket"}},"type":"Feature"},
	{"geometry":{"coordinates":[8.710526,48.884296],"type":"Point"},"properties":{"osm_id":"3368126911","tag":{"amenity":"waste_basket"}},"type":"Feature"},
	{"geometry":{"coordinates":[8.710279,48.884433],"type":"Point"},"properties":{"osm_id":"3368126914","tag":{"amenity":"waste_basket"}},"type":"Feature"},
	{"geometry":{"coordinates":[8.705253,48.888415],"type":"Point"},"properties":{"osm_id":"3368999967","tag":{"amenity":"waste_basket","bin":"yes","fee":"no","operator":"Belloo","vending":"excrement_bags","website":"https://www.belloo.com/"}},"type":"Feature"},
	{"geometry":{"coordinates":[8.715857,48.895608],"type":"Point"},"properties":{"osm_id":"3374931327","tag":{"amenity":"waste_basket","bin":"yes","fee":"no","operator":"Belloo","vending":"excrement_bags","website":"https://www.belloo.com/"}},"type":"Feature"},
	{"geometry":{"coordinates":[8.703532,48.890069],"type":"Point"},"properties":{"osm_id":"3380086165","tag":{"amenity":"waste_basket"}},"type":"Feature"},
	{"geometry":{"coordinates":[8.70365,48.89009],"type":"Point"},"properties":{"osm_id":"3380086166","tag":{"amenity":"waste_basket"}},"type":"Feature"},
	{"geometry":{"coordinates":[8.702575,48.890211],"type":"Point"},"properties":{"osm_id":"3380086169","tag":{"amenity":"waste_basket"}},"type":"Feature"},
	{"geometry":{"coordinates":[8.708804,48.898597],"type":"Point"},"properties":{"osm_id":"3405160817","tag":{"amenity":"recycling","recycling:clothes":"yes","recycling:glass":"yes","recycling:shoes":"yes","recycling_type":"container"}},"type":"Feature"},
	{"geometry":{"coordinates":[8.714005,48.899817],"type":"Point"},"properties":{"osm_id":"3405168847","tag":{"amenity":"recycling","recycling:batteries":"no","recycling:clothes":"yes","recycling:glass_bottles":"yes","recycling:shoes":"yes","recycling_type":"container"}},"type":"Feature"},
	{"geometry":{"coordinates":[8.703517,48.892819],"type":"Point"},"properties":{"osm_id":"3405234530","tag":{"amenity":"waste_basket"}},"type":"Feature"},
	{"geometry":{"coordinates":[8.703433,48.892922],"type":"Point"},"properties":{"osm_id":"3405234531","tag":{"amenity":"waste_basket"}},"type":"Feature"},
	{"geometry":{"coordinates":[8.703665,48.893022],"type":"Point"},"properties":{"osm_id":"3405234533","tag":{"amenity":"waste_basket"}},"type":"Feature"},
	{"geometry":{"coordinates":[8.704948,48.894576],"type":"Point"},"properties":{"osm_id":"4051955797","tag":{"amenity":"waste_basket"}},"type":"Feature"},
	{"geometry":{"coordinates":[8.704404,48.894582],"type":"Point"},"properties":{"osm_id":"4051955809","tag":{"amenity":"waste_basket"}},"type":"Feature"},
	{"geometry":{"coordinates":[8.705033,48.894739],"type":"Point"},"properties":{"osm_id":"4051955855","tag":{"amenity":"waste_basket"}},"type":"Feature"},
	{"geometry":{"coordinates":[8.704608,48.894739],"type":"Point"},"properties":{"osm_id":"4051955856","tag":{"amenity":"waste_basket"}},"type":"Feature"},
	{"geometry":{"coordinates":[8.706204,48.892538],"type":"Point"},"properties":{"osm_id":"4293423768","tag":{"amenity":"waste_basket"}},"type":"Feature"},
	{"geometry":{"coordinates":[8.728631,48.88142],"type":"Point"},"properties":{"osm_id":"4580099433","tag":{"amenity":"recycling","recycling:glass":"yes","recycling_type":"container"}},"type":"Feature"},
	{"geometry":{"coordinates":[8.782057,48.920169],"type":"Point"},"properties":{"osm_id":"5477103497","tag":{"amenity":"waste_basket","waste":"trash"}},"type":"Feature"},
	{"geometry":{"coordinates":[8.72202,48.897784],"type":"Point"},"properties":{"osm_id":"6264620763","tag":{"amenity":"waste_basket"}},"type":"Feature"},
	{"geometry":{"coordinates":[8.732208,48.88163],"type":"Point"},"properties":{"osm_id":"6367109059","tag":{"amenity":"recycling","recycling:clothes":"yes","recycling:glass_bottles":"yes","recycling_type":"container"}},"type":"Feature"},
	{"geometry":{"coordinates":[8.738465,48.884286],"type":"Point"},"properties":{"osm_id":"6367109060","tag":{"amenity":"recycling","recycling:clothes":"yes","recycling_type":"container"}},"type":"Feature"},
	{"geometry":{"coordinates":[8.741775,48.882182],"type":"Point"},"properties":{"osm_id":"6367109061","tag":{"amenity":"recycling","recycling:clothes":"yes","recycling:glass_bottles":"yes","recycling_type":"container"}},"type":"Feature"},
	{"geometry":{"coordinates":[8.748601,48.911411],"type":"Point"},"properties":{"osm_id":"6367109066","tag":{"amenity":"recycling","recycling:clothes":"yes","recycling_type":"container"}},"type":"Feature"},
	{"geometry":{"coordinates":[8.731175,48.885087],"type":"Point"},"properties":{"osm_id":"6367808916","tag":{"amenity":"recycling","recycling:clothes":"yes","recycling_type":"container"}},"type":"Feature"},
	{"geometry":{"coordinates":[8.701333,48.894431],"type":"Point"},"properties":{"osm_id":"7488112966","tag":{"amenity":"waste_basket","waste":"trash"}},"type":"Feature"},
	{"geometry":{"coordinates":[8.702712,48.893795],"type":"Point"},"properties":{"osm_id":"7658723104","tag":{"amenity":"waste_basket","covered":"yes","level":"0","waste":"trash"}},"type":"Feature"},
	{"geometry":{"coordinates":[8.703183,48.893974],"type":"Point"},"properties":{"osm_id":"7658723139","tag":{"amenity":"waste_basket","covered":"yes","level":"0","waste":"trash"}},"type":"Feature"},
	{"geometry":{"coordinates":[8.703184,48.894131],"type":"Point"},"properties":{"osm_id":"7658723154","tag":{"amenity":"waste_basket","covered":"yes","level":"0","waste":"trash"}},"type":"Feature"}
]
}
