{
"type": "FeatureCollection",
"features": [
	{"geometry":{"coordinates":[8.744617,48.473539],"type":"Point"},"properties":{"osm_id":"283438506","tag":{"amenity":"recycling","mapillary":"rC02rBqNl6aOv4U_S9Sdjw","recycling_type":"container","survey:date":"2018-04-29"}},"type":"Feature"},
	{"geometry":{"coordinates":[8.748835,48.48115],"type":"Point"},"properties":{"osm_id":"345367171","tag":{"amenity":"recycling","recycling:glass":"yes","recycling:paper":"yes","recycling_type":"container"}},"type":"Feature"},
	{"geometry":{"coordinates":[8.752107,48.478849],"type":"Point"},"properties":{"osm_id":"1794028042","tag":{"amenity":"recycling","recycling:clothes":"yes","recycling_type":"container"}},"type":"Feature"},
	{"geometry":{"coordinates":[8.709844,48.514569],"type":"Point"},"properties":{"osm_id":"2109659491","tag":{"amenity":"waste_basket"}},"type":"Feature"},
	{"geometry":{"coordinates":[8.715323,48.465745],"type":"Point"},"properties":{"osm_id":"4849432156","tag":{"amenity":"waste_basket"}},"type":"Feature"},
	{"geometry":{"coordinates":[8.712711,48.502719],"type":"Point"},"properties":{"osm_id":"7033543962","tag":{"amenity":"waste_basket"}},"type":"Feature"},
	{"geometry":{"coordinates":[8.702938,48.47156],"type":"Point"},"properties":{"osm_id":"7544415163","tag":{"amenity":"waste_basket"}},"type":"Feature"},
	{"geometry":{"coordinates":[8.751229,48.512379],"type":"Point"},"properties":{"osm_id":"7663032383","tag":{"amenity":"recycling","opening_hours":"Mo-Su 10:00-19:00","recycling:clothes":"yes","recycling:shoes":"yes","recycling_type":"container"}},"type":"Feature"}
]
}
