{
"type": "FeatureCollection",
"features": [
	{"geometry":{"coordinates":[8.775142,48.456889],"type":"Point"},"properties":{"osm_id":"4328286791","tag":{"amenity":"waste_basket"}},"type":"Feature"},
	{"geometry":{"coordinates":[8.774549,48.456392],"type":"Point"},"properties":{"osm_id":"4328303993","tag":{"amenity":"waste_basket"}},"type":"Feature"},
	{"geometry":{"coordinates":[8.775115,48.456857],"type":"Point"},"properties":{"osm_id":"4328306292","tag":{"amenity":"waste_basket"}},"type":"Feature"},
	{"geometry":{"coordinates":[8.774586,48.456421],"type":"Point"},"properties":{"osm_id":"4328306296","tag":{"amenity":"waste_basket"}},"type":"Feature"},
	{"geometry":{"coordinates":[8.774118,48.456067],"type":"Point"},"properties":{"osm_id":"4328308400","tag":{"amenity":"waste_basket"}},"type":"Feature"},
	{"geometry":{"coordinates":[8.77406,48.456008],"type":"Point"},"properties":{"osm_id":"4328308401","tag":{"amenity":"waste_basket"}},"type":"Feature"},
	{"geometry":{"coordinates":[8.701642,48.437333],"type":"Point"},"properties":{"osm_id":"7085770467","tag":{"amenity":"recycling","recycling:clothes":"yes","recycling_type":"container"}},"type":"Feature"},
	{"geometry":{"coordinates":[8.738186,48.450978],"type":"Point"},"properties":{"osm_id":"7085770468","tag":{"amenity":"recycling","recycling:clothes":"yes","recycling_type":"container"}},"type":"Feature"},
	{"geometry":{"coordinates":[8.712368,48.431544],"type":"Point"},"properties":{"name":"Recyclinghof Nordstetten","osm_id":"7319681124","tag":{"amenity":"recycling","operator":"Landkreis Freudenstadt","recycling_type":"centre"}},"type":"Feature"},
	{"geometry":{"coordinates":[8.702716,48.451407],"type":"Point"},"properties":{"osm_id":"7544450397","tag":{"amenity":"waste_basket"}},"type":"Feature"},
	{"geometry":{"coordinates":[8.702681,48.447477],"type":"Point"},"properties":{"osm_id":"7544450398","tag":{"amenity":"waste_basket"}},"type":"Feature"},
	{"geometry":{"coordinates":[8.70236,48.447994],"type":"Point"},"properties":{"osm_id":"7544450403","tag":{"amenity":"waste_basket"}},"type":"Feature"},
	{"geometry":{"coordinates":[8.728331,48.401724],"type":"Point"},"properties":{"osm_id":"7809578737","tag":{"amenity":"waste_disposal"}},"type":"Feature"},
	{"geometry":{"coordinates":[8.784457,48.431364],"type":"Point"},"properties":{"osm_id":"8308443539","tag":{"amenity":"waste_basket"}},"type":"Feature"},
	{"geometry":{"coordinates":[8.784851,48.431253],"type":"Point"},"properties":{"osm_id":"8308443542","tag":{"amenity":"waste_basket"}},"type":"Feature"},
	{"geometry":{"coordinates":[8.70118,48.433985],"type":"Point"},"properties":{"osm_id":"8634509275","tag":{"amenity":"recycling","recycling:books":"yes","recycling:cardboard":"yes","recycling:clothes":"yes","recycling:glass_bottles":"yes","recycling:magazines":"yes","recycling:newspaper":"yes","recycling:paper":"yes","recycling:paper_packaging":"yes","recycling:shoes":"yes","recycling_type":"container"}},"type":"Feature"},
	{"geometry":{"coordinates":[8.727155,48.449872],"type":"Point"},"properties":{"osm_id":"8719547405","tag":{"amenity":"waste_basket","waste":"trash"}},"type":"Feature"},
	{"geometry":{"coordinates":[8.737556,48.410377],"type":"Point"},"properties":{"osm_id":"8721512082","tag":{"amenity":"waste_basket","waste":"trash"}},"type":"Feature"},
	{"geometry":{"coordinates":[8.732846,48.440166],"type":"Point"},"properties":{"osm_id":"8814166525","tag":{"amenity":"waste_basket"}},"type":"Feature"},
	{"geometry":{"coordinates":[8.755972,48.419541],"type":"Point"},"properties":{"osm_id":"8815141107","tag":{"amenity":"recycling","operator":"Remondis","recycling:glass_bottles":"yes","recycling_type":"container"}},"type":"Feature"},
	{"geometry":{"coordinates":[8.755966,48.419592],"type":"Point"},"properties":{"osm_id":"8815141108","tag":{"amenity":"recycling","operator":"Deutsches Rotes Kreuz","recycling:clothes":"yes","recycling:shoes":"yes","recycling_type":"container"}},"type":"Feature"},
	{"geometry":{"coordinates":[8.718059,48.446009],"type":"Point"},"properties":{"osm_id":"8823880923","tag":{"amenity":"waste_basket"}},"type":"Feature"}
]
}
