{
"type": "FeatureCollection",
"features": [
	{"geometry":{"coordinates":[8.778299,48.399773],"type":"Point"},"properties":{"osm_id":"279861931","tag":{"amenity":"recycling","recycling:batteries":"yes","recycling:glass_bottles":"yes","recycling:paper":"yes","recycling_type":"container"}},"type":"Feature"},
	{"geometry":{"coordinates":[8.721219,48.383599],"type":"Point"},"properties":{"osm_id":"857490626","tag":{"amenity":"recycling","operator":"Gemeinde Empfingen","recycling:hardcode":"yes"}},"type":"Feature"},
	{"geometry":{"coordinates":[8.761566,48.352302],"type":"Point"},"properties":{"osm_id":"936376083","tag":{"amenity":"waste_basket"}},"type":"Feature"},
	{"geometry":{"coordinates":[8.706064,48.373867],"type":"Point"},"properties":{"osm_id":"940648824","tag":{"amenity":"recycling","recycling:cans":"yes","recycling:glass":"yes","recycling:paper":"yes"}},"type":"Feature"},
	{"geometry":{"coordinates":[8.706058,48.373865],"type":"Point"},"properties":{"osm_id":"940648843","tag":{"amenity":"recycling","recycling:cans":"yes","recycling:glass":"yes","recycling:paper":"yes"}},"type":"Feature"},
	{"geometry":{"coordinates":[8.706071,48.373869],"type":"Point"},"properties":{"osm_id":"940648846","tag":{"amenity":"recycling","recycling:cans":"yes","recycling:glass":"yes","recycling:paper":"yes"}},"type":"Feature"},
	{"geometry":{"coordinates":[8.707607,48.375144],"type":"Point"},"properties":{"name":"Gr\u00c3\u00bcngutplatz","osm_id":"1373100938","tag":{"amenity":"recycling"}},"type":"Feature"},
	{"geometry":{"coordinates":[8.783167,48.365738],"type":"Point"},"properties":{"name":"Wertstoffhof","osm_id":"1535256804","tag":{"amenity":"recycling"}},"type":"Feature"},
	{"geometry":{"coordinates":[8.707256,48.391577],"type":"Point"},"properties":{"osm_id":"6966434321","tag":{"amenity":"waste_basket"}},"type":"Feature"},
	{"geometry":{"coordinates":[8.77554,48.37721],"type":"Point"},"properties":{"osm_id":"7544484148","tag":{"amenity":"waste_basket"}},"type":"Feature"}
]
}
