{
"type": "FeatureCollection",
"features": [
	{"geometry":{"coordinates":[8.718612,47.519351],"type":"Point"},"properties":{"osm_id":"29542897","tag":{"amenity":"recycling","recycling_type":"container"}},"type":"Feature"},
	{"geometry":{"coordinates":[8.764496,47.518323],"type":"Point"},"properties":{"osm_id":"321852394","tag":{"amenity":"recycling","recycling_type":"container"}},"type":"Feature"},
	{"geometry":{"coordinates":[8.770451,47.537716],"type":"Point"},"properties":{"osm_id":"847366901","tag":{"amenity":"waste_basket"}},"type":"Feature"},
	{"geometry":{"coordinates":[8.781929,47.543536],"type":"Point"},"properties":{"osm_id":"1765723172","tag":{"amenity":"waste_basket"}},"type":"Feature"},
	{"geometry":{"coordinates":[8.788205,47.523506],"type":"Point"},"properties":{"osm_id":"1842963260","tag":{"amenity":"waste_basket"}},"type":"Feature"},
	{"geometry":{"coordinates":[8.788673,47.525613],"type":"Point"},"properties":{"osm_id":"1842963264","tag":{"amenity":"waste_basket"}},"type":"Feature"},
	{"geometry":{"coordinates":[8.706288,47.54673],"type":"Point"},"properties":{"name":"Robidog","osm_id":"3219886378","tag":{"amenity":"waste_basket","vending":"excrement_bags"}},"type":"Feature"},
	{"geometry":{"coordinates":[8.706194,47.544753],"type":"Point"},"properties":{"name":"Abfallentsorgungsstelle","osm_id":"3228775192","tag":{"amenity":"recycling","operator":"Gemeinde Hettlingen","recycling:cans":"yes","recycling:glass":"yes","recycling_type":"container"}},"type":"Feature"},
	{"geometry":{"coordinates":[8.744842,47.56459],"type":"Point"},"properties":{"osm_id":"3479794130","tag":{"amenity":"waste_basket"}},"type":"Feature"},
	{"geometry":{"coordinates":[8.733649,47.525846],"type":"Point"},"properties":{"osm_id":"3536230167","tag":{"amenity":"waste_basket"}},"type":"Feature"},
	{"geometry":{"coordinates":[8.735764,47.525919],"type":"Point"},"properties":{"osm_id":"3536230172","tag":{"amenity":"waste_basket"}},"type":"Feature"},
	{"geometry":{"coordinates":[8.734293,47.525956],"type":"Point"},"properties":{"osm_id":"3536230175","tag":{"amenity":"waste_basket"}},"type":"Feature"},
	{"geometry":{"coordinates":[8.733589,47.526028],"type":"Point"},"properties":{"osm_id":"3536230180","tag":{"amenity":"waste_basket"}},"type":"Feature"},
	{"geometry":{"coordinates":[8.73454,47.526088],"type":"Point"},"properties":{"osm_id":"3536230183","tag":{"amenity":"waste_basket"}},"type":"Feature"},
	{"geometry":{"coordinates":[8.734268,47.526163],"type":"Point"},"properties":{"osm_id":"3536230187","tag":{"amenity":"waste_basket"}},"type":"Feature"},
	{"geometry":{"coordinates":[8.733142,47.526422],"type":"Point"},"properties":{"osm_id":"3536235596","tag":{"amenity":"waste_basket"}},"type":"Feature"},
	{"geometry":{"coordinates":[8.733315,47.526636],"type":"Point"},"properties":{"osm_id":"3536235605","tag":{"amenity":"waste_basket"}},"type":"Feature"},
	{"geometry":{"coordinates":[8.732746,47.526716],"type":"Point"},"properties":{"osm_id":"3536235606","tag":{"amenity":"waste_basket"}},"type":"Feature"},
	{"geometry":{"coordinates":[8.733909,47.526786],"type":"Point"},"properties":{"osm_id":"3536235612","tag":{"amenity":"waste_basket"}},"type":"Feature"},
	{"geometry":{"coordinates":[8.733344,47.526859],"type":"Point"},"properties":{"osm_id":"3536235621","tag":{"amenity":"waste_basket"}},"type":"Feature"},
	{"geometry":{"coordinates":[8.734168,47.526909],"type":"Point"},"properties":{"osm_id":"3536235624","tag":{"amenity":"waste_basket"}},"type":"Feature"},
	{"geometry":{"coordinates":[8.73463,47.525805],"type":"Point"},"properties":{"osm_id":"3536293526","tag":{"amenity":"waste_basket"}},"type":"Feature"},
	{"geometry":{"coordinates":[8.735168,47.525847],"type":"Point"},"properties":{"osm_id":"3536293527","tag":{"amenity":"waste_basket"}},"type":"Feature"},
	{"geometry":{"coordinates":[8.707857,47.546698],"type":"Point"},"properties":{"osm_id":"3537256605","tag":{"amenity":"recycling","recycling:clothes":"yes","recycling_type":"container"}},"type":"Feature"},
	{"geometry":{"coordinates":[8.716452,47.572522],"type":"Point"},"properties":{"osm_id":"3586929961","tag":{"amenity":"recycling","recycling:clothes":"yes","recycling_type":"container"}},"type":"Feature"},
	{"geometry":{"coordinates":[8.716341,47.572586],"type":"Point"},"properties":{"osm_id":"3586929962","tag":{"amenity":"recycling","recycling:clothes":"no","recycling:glass":"yes","recycling:glass_bottles":"no","recycling_type":"container"}},"type":"Feature"},
	{"geometry":{"coordinates":[8.726562,47.559752],"type":"Point"},"properties":{"osm_id":"3595071648","tag":{"amenity":"recycling","recycling:clothes":"yes","recycling:plastic_bottles":"yes","recycling_type":"container"}},"type":"Feature"},
	{"geometry":{"coordinates":[8.722445,47.56093],"type":"Point"},"properties":{"osm_id":"3595071704","tag":{"amenity":"waste_basket"}},"type":"Feature"},
	{"geometry":{"coordinates":[8.787897,47.521898],"type":"Point"},"properties":{"barrier":"gate","osm_id":"3600966529"},"type":"Feature"},
	{"geometry":{"coordinates":[8.788323,47.522467],"type":"Point"},"properties":{"osm_id":"3866183489","tag":{"amenity":"waste_basket"}},"type":"Feature"},
	{"geometry":{"coordinates":[8.746268,47.558614],"type":"Point"},"properties":{"osm_id":"4745575889","tag":{"amenity":"waste_basket","waste":"dog_excrement","waste_basket:excrement_bags":"yes"}},"type":"Feature"},
	{"geometry":{"coordinates":[8.74964,47.560291],"type":"Point"},"properties":{"osm_id":"4745577819","tag":{"amenity":"waste_basket","waste":"dog_excrement","waste_basket:excrement_bags":"yes"}},"type":"Feature"},
	{"geometry":{"coordinates":[8.71958,47.517682],"type":"Point"},"properties":{"osm_id":"4783747722","tag":{"amenity":"waste_basket"}},"type":"Feature"},
	{"geometry":{"coordinates":[8.72113,47.518639],"type":"Point"},"properties":{"osm_id":"4783748821","tag":{"amenity":"waste_basket"}},"type":"Feature"},
	{"geometry":{"coordinates":[8.754444,47.575102],"type":"Point"},"properties":{"osm_id":"4921119653","tag":{"amenity":"waste_basket"}},"type":"Feature"},
	{"geometry":{"coordinates":[8.754058,47.519939],"type":"Point"},"properties":{"osm_id":"5892530524","tag":{"amenity":"recycling","recycling:clothes":"yes","recycling_type":"container"}},"type":"Feature"},
	{"geometry":{"coordinates":[8.734186,47.527268],"type":"Point"},"properties":{"osm_id":"6496390801","tag":{"amenity":"waste_basket"}},"type":"Feature"},
	{"geometry":{"coordinates":[8.734625,47.527214],"type":"Point"},"properties":{"osm_id":"6496390802","tag":{"amenity":"waste_basket"}},"type":"Feature"},
	{"geometry":{"coordinates":[8.734703,47.526235],"type":"Point"},"properties":{"osm_id":"6496390850","tag":{"amenity":"waste_basket"}},"type":"Feature"},
	{"geometry":{"coordinates":[8.734036,47.534861],"type":"Point"},"properties":{"osm_id":"7076979561","tag":{"amenity":"recycling","recycling:clothes":"yes","recycling_type":"container"}},"type":"Feature"},
	{"geometry":{"coordinates":[8.74706,47.521599],"type":"Point"},"properties":{"osm_id":"7563070113","tag":{"amenity":"waste_basket","waste":"trash"}},"type":"Feature"}
]
}
