{
"type": "FeatureCollection",
"features": [
	{"geometry":{"coordinates":[8.728192,47.497593],"type":"Point"},"properties":{"osm_id":"29455090","tag":{"amenity":"recycling","recycling:aluminium":"yes","recycling:bags":"yes","recycling:cans":"yes","recycling:glass_bottles":"yes","recycling:oil":"yes","recycling:scrap_metal":"yes","recycling_type":"container"}},"type":"Feature"},
	{"geometry":{"coordinates":[8.72473,47.506736],"type":"Point"},"properties":{"osm_id":"29542901","tag":{"amenity":"recycling","location":"underground","recycling:aluminium":"yes","recycling:batteries":"yes","recycling:cans":"yes","recycling:glass_bottles":"yes","recycling:oil":"yes","recycling:scrap_metal":"yes","recycling_type":"container"}},"type":"Feature"},
	{"geometry":{"coordinates":[8.725105,47.49016],"type":"Point"},"properties":{"osm_id":"29744667","tag":{"amenity":"recycling","recycling_type":"container"}},"type":"Feature"},
	{"geometry":{"coordinates":[8.711382,47.485572],"type":"Point"},"properties":{"osm_id":"29744668","tag":{"amenity":"recycling","location":"underground","recycling:aluminium":"yes","recycling:cans":"yes","recycling:glass_bottles":"yes","recycling:scrap_metal":"yes","recycling_type":"container"}},"type":"Feature"},
	{"geometry":{"coordinates":[8.751823,47.498044],"type":"Point"},"properties":{"osm_id":"29744857","tag":{"amenity":"recycling","recycling_type":"centre"}},"type":"Feature"},
	{"geometry":{"coordinates":[8.742332,47.492223],"type":"Point"},"properties":{"osm_id":"29744858","tag":{"amenity":"recycling"}},"type":"Feature"},
	{"geometry":{"coordinates":[8.717045,47.502419],"type":"Point"},"properties":{"osm_id":"247804178","tag":{"amenity":"recycling","opening_hours":"Mo-Fr 07:30-18:30; Sa 07:30-17:00","recycling:batteries":"yes","recycling:car_batteries":"no","recycling:clothes":"no","recycling:cooking_oil":"yes","recycling:electrical_items":"no","recycling:engine_oil":"yes","recycling:glass_bottles":"yes","recycling:green_waste":"no","recycling:paper":"no","recycling:plastic":"no","recycling:plastic_bottles":"no","recycling:scrap_metal":"yes","recycling:tyres":"no","recycling_type":"container"}},"type":"Feature"},
	{"geometry":{"coordinates":[8.749402,47.491289],"type":"Point"},"properties":{"osm_id":"321850376","tag":{"amenity":"recycling"}},"type":"Feature"},
	{"geometry":{"coordinates":[8.763233,47.484789],"type":"Point"},"properties":{"osm_id":"321850636","tag":{"amenity":"recycling"}},"type":"Feature"},
	{"geometry":{"coordinates":[8.758928,47.511386],"type":"Point"},"properties":{"name":"Guggenb\u00c3\u00bchl","osm_id":"321851712","tag":{"amenity":"recycling","location":"underground","recycling:aluminium":"yes","recycling:batteries":"yes","recycling:cans":"yes","recycling:clothes":"yes","recycling:cooking_oil":"yes","recycling:glass_bottles":"yes","recycling:paper":"no","recycling:plastic":"no","recycling_type":"container"}},"type":"Feature"},
	{"geometry":{"coordinates":[8.757668,47.516571],"type":"Point"},"properties":{"name":"Zinzikon","osm_id":"321852095","tag":{"amenity":"recycling","recycling:aluminium":"yes","recycling:batteries":"yes","recycling:cans":"yes","recycling:clothes":"no","recycling:cooking_oil":"yes","recycling:glass_bottles":"yes","recycling:paper":"no","recycling:plastic":"no","recycling:scrap_metal":"yes","recycling_type":"container"}},"type":"Feature"},
	{"geometry":{"coordinates":[8.744623,47.499523],"type":"Point"},"properties":{"name":"Maag Recy-Hof","osm_id":"361066236","tag":{"addr:city":"Winterthur","addr:housenumber":"12","addr:postcode":"8400","addr:street":"Werkstrasse","amenity":"recycling","opening_hours":"Mo-We 07:15-12:00, 13:15-17:00; Th 07:15-12:00, 13:15-19:00; Fr 07:15-12:00, 13:15-16:00; Sa 08:00-12:00","operator":"Maag Recycling","recycling:cans":"yes","recycling:glass":"yes","recycling:glass_bottles":"yes","recycling:paper":"yes","recycling:plastic":"yes","recycling_type":"centre"}},"type":"Feature"},
	{"geometry":{"coordinates":[8.773282,47.458433],"type":"Point"},"properties":{"osm_id":"439854680","tag":{"amenity":"recycling"}},"type":"Feature"},
	{"geometry":{"coordinates":[8.724862,47.501086],"type":"Point"},"properties":{"osm_id":"1326824727","tag":{"amenity":"waste_basket"}},"type":"Feature"},
	{"geometry":{"coordinates":[8.727115,47.501259],"type":"Point"},"properties":{"osm_id":"1326824734","tag":{"amenity":"waste_basket"}},"type":"Feature"},
	{"geometry":{"coordinates":[8.720181,47.496918],"type":"Point"},"properties":{"osm_id":"1379323471","tag":{"amenity":"waste_basket"}},"type":"Feature"},
	{"geometry":{"coordinates":[8.720953,47.497509],"type":"Point"},"properties":{"osm_id":"1379323475","tag":{"amenity":"waste_basket"}},"type":"Feature"},
	{"geometry":{"coordinates":[8.704499,47.482706],"type":"Point"},"properties":{"osm_id":"1530235988","tag":{"amenity":"recycling","recycling:animal_remains":"yes","recycling_type":"container"}},"type":"Feature"},
	{"geometry":{"coordinates":[8.75858,47.484464],"type":"Point"},"properties":{"name":"Sammelstelle Coop Seen","osm_id":"1583851527","tag":{"amenity":"recycling","recycling:cans":"yes","recycling:clothes":"yes","recycling:glass_bottles":"yes","recycling:paper":"no","recycling:plastic":"no","recycling_type":"container"}},"type":"Feature"},
	{"geometry":{"coordinates":[8.741261,47.495618],"type":"Point"},"properties":{"osm_id":"1779718641","tag":{"amenity":"waste_basket"}},"type":"Feature"},
	{"geometry":{"coordinates":[8.741351,47.495519],"type":"Point"},"properties":{"osm_id":"1779718642","tag":{"amenity":"recycling","opening_hours":"24/7","recycling:plastic_bottles":"yes","recycling_type":"container","wheelchair":"yes"}},"type":"Feature"},
	{"geometry":{"coordinates":[8.741121,47.495782],"type":"Point"},"properties":{"osm_id":"1779718643","tag":{"amenity":"waste_basket"}},"type":"Feature"},
	{"geometry":{"coordinates":[8.725795,47.501934],"type":"Point"},"properties":{"osm_id":"1779718742","tag":{"amenity":"waste_basket"}},"type":"Feature"},
	{"geometry":{"coordinates":[8.73416,47.50401],"type":"Point"},"properties":{"osm_id":"1779718770","tag":{"amenity":"waste_basket"}},"type":"Feature"},
	{"geometry":{"coordinates":[8.72917,47.504425],"type":"Point"},"properties":{"osm_id":"1779718776","tag":{"amenity":"waste_basket"}},"type":"Feature"},
	{"geometry":{"coordinates":[8.731044,47.497984],"type":"Point"},"properties":{"osm_id":"1842799937","tag":{"amenity":"waste_basket"}},"type":"Feature"},
	{"geometry":{"coordinates":[8.727763,47.498225],"type":"Point"},"properties":{"osm_id":"1842799944","tag":{"amenity":"waste_basket"}},"type":"Feature"},
	{"geometry":{"coordinates":[8.727161,47.498338],"type":"Point"},"properties":{"osm_id":"1842799968","tag":{"amenity":"waste_basket"}},"type":"Feature"},
	{"geometry":{"coordinates":[8.731044,47.498429],"type":"Point"},"properties":{"osm_id":"1842799998","tag":{"amenity":"waste_basket"}},"type":"Feature"},
	{"geometry":{"coordinates":[8.726658,47.4985],"type":"Point"},"properties":{"osm_id":"1842800000","tag":{"amenity":"waste_basket"}},"type":"Feature"},
	{"geometry":{"coordinates":[8.732416,47.498982],"type":"Point"},"properties":{"osm_id":"1842800013","tag":{"amenity":"waste_basket"}},"type":"Feature"},
	{"geometry":{"coordinates":[8.726364,47.499791],"type":"Point"},"properties":{"osm_id":"1842800030","tag":{"amenity":"waste_basket"}},"type":"Feature"},
	{"geometry":{"coordinates":[8.733395,47.500163],"type":"Point"},"properties":{"osm_id":"1842800045","tag":{"amenity":"waste_basket"}},"type":"Feature"},
	{"geometry":{"coordinates":[8.73076,47.501094],"type":"Point"},"properties":{"osm_id":"1842800067","tag":{"amenity":"waste_basket"}},"type":"Feature"},
	{"geometry":{"coordinates":[8.730733,47.501379],"type":"Point"},"properties":{"osm_id":"1842800107","tag":{"amenity":"waste_basket"}},"type":"Feature"},
	{"geometry":{"coordinates":[8.730635,47.501985],"type":"Point"},"properties":{"osm_id":"1842800163","tag":{"amenity":"waste_basket"}},"type":"Feature"},
	{"geometry":{"coordinates":[8.740118,47.502267],"type":"Point"},"properties":{"osm_id":"1842939554","tag":{"amenity":"waste_basket"}},"type":"Feature"},
	{"geometry":{"coordinates":[8.759971,47.50827],"type":"Point"},"properties":{"osm_id":"1842939566","tag":{"amenity":"waste_basket","payment:none":"yes","vending":"excrement_bags"}},"type":"Feature"},
	{"geometry":{"coordinates":[8.763005,47.513592],"type":"Point"},"properties":{"osm_id":"1842939587","tag":{"amenity":"waste_basket"}},"type":"Feature"},
	{"geometry":{"coordinates":[8.763676,47.51422],"type":"Point"},"properties":{"osm_id":"1842939591","tag":{"amenity":"waste_basket"}},"type":"Feature"},
	{"geometry":{"coordinates":[8.764467,47.515],"type":"Point"},"properties":{"osm_id":"1842939597","tag":{"amenity":"waste_basket"}},"type":"Feature"},
	{"geometry":{"coordinates":[8.750032,47.489576],"type":"Point"},"properties":{"osm_id":"1891968781","tag":{"amenity":"waste_basket"}},"type":"Feature"},
	{"geometry":{"coordinates":[8.765323,47.493853],"type":"Point"},"properties":{"osm_id":"1996150443","tag":{"amenity":"waste_basket"}},"type":"Feature"},
	{"geometry":{"coordinates":[8.765257,47.496276],"type":"Point"},"properties":{"osm_id":"1996150834","tag":{"amenity":"waste_basket"}},"type":"Feature"},
	{"geometry":{"coordinates":[8.763534,47.472763],"type":"Point"},"properties":{"osm_id":"2065742409","tag":{"amenity":"waste_basket"}},"type":"Feature"},
	{"geometry":{"coordinates":[8.705064,47.467686],"type":"Point"},"properties":{"barrier":"gate","osm_id":"2082550443"},"type":"Feature"},
	{"geometry":{"coordinates":[8.701357,47.459145],"type":"Point"},"properties":{"osm_id":"2226251536","tag":{"amenity":"waste_basket"}},"type":"Feature"},
	{"geometry":{"coordinates":[8.741682,47.49779],"type":"Point"},"properties":{"osm_id":"2390207362","tag":{"amenity":"waste_basket"}},"type":"Feature"},
	{"geometry":{"coordinates":[8.741991,47.497794],"type":"Point"},"properties":{"osm_id":"2390207365","tag":{"amenity":"waste_basket"}},"type":"Feature"},
	{"geometry":{"coordinates":[8.741335,47.497954],"type":"Point"},"properties":{"osm_id":"2390207409","tag":{"amenity":"waste_basket"}},"type":"Feature"},
	{"geometry":{"coordinates":[8.740071,47.494792],"type":"Point"},"properties":{"osm_id":"2525439190","tag":{"amenity":"recycling","recycling:batteries":"yes","recycling:cds":"yes","recycling:cream_gas_bottles":"yes","recycling:plastic_bottles":"yes","recycling:water_filters":"yes","recycling_type":"container","wheelchair":"yes"}},"type":"Feature"},
	{"geometry":{"coordinates":[8.740411,47.494851],"type":"Point"},"properties":{"osm_id":"2525439191","tag":{"amenity":"recycling","opening_hours":"24/7","recycling:clothes":"yes","recycling_type":"container","wheelchair":"no"}},"type":"Feature"},
	{"geometry":{"coordinates":[8.731479,47.502241],"type":"Point"},"properties":{"osm_id":"2545630713","tag":{"amenity":"waste_basket"}},"type":"Feature"},
	{"geometry":{"coordinates":[8.735372,47.503564],"type":"Point"},"properties":{"osm_id":"2579578144","tag":{"amenity":"waste_basket"}},"type":"Feature"},
	{"geometry":{"coordinates":[8.734043,47.503922],"type":"Point"},"properties":{"osm_id":"2579578193","tag":{"amenity":"waste_basket"}},"type":"Feature"},
	{"geometry":{"coordinates":[8.721374,47.49971],"type":"Point"},"properties":{"osm_id":"3022542020","tag":{"amenity":"recycling","location":"underground","recycling:cans":"yes","recycling:clothes":"yes","recycling:glass_bottles":"yes","recycling:paper":"no","recycling:plastic":"no","recycling_type":"container"}},"type":"Feature"},
	{"geometry":{"coordinates":[8.724071,47.499594],"type":"Point"},"properties":{"osm_id":"3219540061","tag":{"amenity":"waste_basket"}},"type":"Feature"},
	{"geometry":{"coordinates":[8.723702,47.499745],"type":"Point"},"properties":{"osm_id":"3219540161","tag":{"amenity":"waste_basket"}},"type":"Feature"},
	{"geometry":{"coordinates":[8.724846,47.499586],"type":"Point"},"properties":{"osm_id":"3646788109","tag":{"amenity":"waste_basket"}},"type":"Feature"},
	{"geometry":{"coordinates":[8.727255,47.49995],"type":"Point"},"properties":{"osm_id":"3646788112","tag":{"amenity":"waste_basket"}},"type":"Feature"},
	{"geometry":{"coordinates":[8.706671,47.490576],"type":"Point"},"properties":{"name":"Sammelstelle Coop T\u00c3\u00b6ss","osm_id":"4117203529","tag":{"addr:street":"Zelglistrasse","amenity":"recycling","recycling:cans":"yes","recycling:clothes":"no","recycling:glass_bottles":"yes","recycling:paper":"no","recycling:plastic":"no","recycling_type":"container"}},"type":"Feature"},
	{"geometry":{"coordinates":[8.759165,47.50668],"type":"Point"},"properties":{"osm_id":"4127859148","tag":{"amenity":"recycling","recycling:clothes":"yes","recycling_type":"container"}},"type":"Feature"},
	{"geometry":{"coordinates":[8.771216,47.504051],"type":"Point"},"properties":{"osm_id":"4471606824","tag":{"amenity":"recycling","location":"underground","recycling:aluminium":"yes","recycling:cans":"yes","recycling:glass_bottles":"yes","recycling_type":"container"}},"type":"Feature"},
	{"geometry":{"coordinates":[8.71862,47.50769],"type":"Point"},"properties":{"osm_id":"4488285789","tag":{"amenity":"waste_basket"}},"type":"Feature"},
	{"geometry":{"coordinates":[8.712065,47.506952],"type":"Point"},"properties":{"osm_id":"4813954416","tag":{"amenity":"recycling","recycling_type":"container"}},"type":"Feature"},
	{"geometry":{"coordinates":[8.713524,47.506547],"type":"Point"},"properties":{"osm_id":"4815906321","tag":{"amenity":"recycling","recycling:clothes":"yes","recycling_type":"container"}},"type":"Feature"},
	{"geometry":{"coordinates":[8.759631,47.46667],"type":"Point"},"properties":{"osm_id":"4859763182","tag":{"amenity":"recycling","recycling_type":"container"}},"type":"Feature"},
	{"geometry":{"coordinates":[8.758164,47.462792],"type":"Point"},"properties":{"osm_id":"4864731537","tag":{"amenity":"waste_basket"}},"type":"Feature"},
	{"geometry":{"coordinates":[8.707588,47.505794],"type":"Point"},"properties":{"osm_id":"4866725940","tag":{"amenity":"waste_basket"}},"type":"Feature"},
	{"geometry":{"coordinates":[8.728601,47.49757],"type":"Point"},"properties":{"osm_id":"4866732407","tag":{"amenity":"waste_basket"}},"type":"Feature"},
	{"geometry":{"coordinates":[8.705736,47.484463],"type":"Point"},"properties":{"osm_id":"4917392756","tag":{"amenity":"waste_basket"}},"type":"Feature"},
	{"geometry":{"coordinates":[8.709163,47.48115],"type":"Point"},"properties":{"osm_id":"4917392762","tag":{"amenity":"waste_basket"}},"type":"Feature"},
	{"geometry":{"coordinates":[8.736433,47.463694],"type":"Point"},"properties":{"osm_id":"4951519110","tag":{"amenity":"waste_basket"}},"type":"Feature"},
	{"geometry":{"coordinates":[8.727351,47.49708],"type":"Point"},"properties":{"osm_id":"4951553502","tag":{"amenity":"waste_basket"}},"type":"Feature"},
	{"geometry":{"coordinates":[8.710104,47.502932],"type":"Point"},"properties":{"osm_id":"4964516623","tag":{"amenity":"waste_basket"}},"type":"Feature"},
	{"geometry":{"coordinates":[8.708604,47.508246],"type":"Point"},"properties":{"osm_id":"4993245734","tag":{"amenity":"waste_basket"}},"type":"Feature"},
	{"geometry":{"coordinates":[8.711039,47.507524],"type":"Point"},"properties":{"osm_id":"4993245735","tag":{"amenity":"waste_basket"}},"type":"Feature"},
	{"geometry":{"coordinates":[8.708205,47.473392],"type":"Point"},"properties":{"osm_id":"5025144005","tag":{"amenity":"waste_basket","waste":"dog_excrement","waste_basket:excrement_bags":"yes"}},"type":"Feature"},
	{"geometry":{"coordinates":[8.707323,47.472951],"type":"Point"},"properties":{"osm_id":"5025144011","tag":{"amenity":"waste_basket"}},"type":"Feature"},
	{"geometry":{"coordinates":[8.707248,47.472413],"type":"Point"},"properties":{"osm_id":"5025144013","tag":{"amenity":"waste_basket"}},"type":"Feature"},
	{"geometry":{"coordinates":[8.70848,47.469451],"type":"Point"},"properties":{"osm_id":"5025144015","tag":{"amenity":"waste_basket"}},"type":"Feature"},
	{"geometry":{"coordinates":[8.730219,47.458673],"type":"Point"},"properties":{"osm_id":"5025152433","tag":{"amenity":"waste_basket"}},"type":"Feature"},
	{"geometry":{"coordinates":[8.734105,47.461437],"type":"Point"},"properties":{"osm_id":"5025152452","tag":{"amenity":"waste_basket","waste_basket:excrement_bags":"yes"}},"type":"Feature"},
	{"geometry":{"coordinates":[8.717098,47.46893],"type":"Point"},"properties":{"osm_id":"5026808496","tag":{"amenity":"waste_basket"}},"type":"Feature"},
	{"geometry":{"coordinates":[8.71443,47.469059],"type":"Point"},"properties":{"osm_id":"5026808500","tag":{"amenity":"waste_basket"}},"type":"Feature"},
	{"geometry":{"coordinates":[8.711045,47.469112],"type":"Point"},"properties":{"osm_id":"5026808511","tag":{"amenity":"waste_basket"}},"type":"Feature"},
	{"geometry":{"coordinates":[8.710428,47.469194],"type":"Point"},"properties":{"osm_id":"5026808515","tag":{"amenity":"waste_basket"}},"type":"Feature"},
	{"geometry":{"coordinates":[8.708601,47.478196],"type":"Point"},"properties":{"osm_id":"5039640108","tag":{"amenity":"waste_basket"}},"type":"Feature"},
	{"geometry":{"coordinates":[8.709087,47.479253],"type":"Point"},"properties":{"osm_id":"5041647123","tag":{"amenity":"waste_basket"}},"type":"Feature"},
	{"geometry":{"coordinates":[8.725609,47.499826],"type":"Point"},"properties":{"osm_id":"5044385043","tag":{"amenity":"waste_basket"}},"type":"Feature"},
	{"geometry":{"coordinates":[8.726396,47.498293],"type":"Point"},"properties":{"osm_id":"5044385044","tag":{"amenity":"waste_basket"}},"type":"Feature"},
	{"geometry":{"coordinates":[8.726315,47.499389],"type":"Point"},"properties":{"osm_id":"5044385045","tag":{"amenity":"waste_basket"}},"type":"Feature"},
	{"geometry":{"coordinates":[8.708066,47.476986],"type":"Point"},"properties":{"osm_id":"5044425557","tag":{"amenity":"waste_basket"}},"type":"Feature"},
	{"geometry":{"coordinates":[8.725588,47.500934],"type":"Point"},"properties":{"osm_id":"5079378915","tag":{"amenity":"waste_basket"}},"type":"Feature"},
	{"geometry":{"coordinates":[8.728818,47.497139],"type":"Point"},"properties":{"osm_id":"5141154214","tag":{"amenity":"waste_basket"}},"type":"Feature"},
	{"geometry":{"coordinates":[8.727656,47.503716],"type":"Point"},"properties":{"osm_id":"5295099045","tag":{"amenity":"waste_basket"}},"type":"Feature"},
	{"geometry":{"coordinates":[8.7274,47.50297],"type":"Point"},"properties":{"osm_id":"5295099053","tag":{"amenity":"waste_basket"}},"type":"Feature"},
	{"geometry":{"coordinates":[8.727408,47.50298],"type":"Point"},"properties":{"osm_id":"5295099054","tag":{"amenity":"waste_basket"}},"type":"Feature"},
	{"geometry":{"coordinates":[8.727564,47.503603],"type":"Point"},"properties":{"osm_id":"5295099055","tag":{"amenity":"waste_basket"}},"type":"Feature"},
	{"geometry":{"coordinates":[8.748424,47.510092],"type":"Point"},"properties":{"osm_id":"5488802948","tag":{"amenity":"waste_basket"}},"type":"Feature"},
	{"geometry":{"coordinates":[8.721868,47.506864],"type":"Point"},"properties":{"osm_id":"5844655652","tag":{"amenity":"waste_basket"}},"type":"Feature"},
	{"geometry":{"coordinates":[8.72137,47.507167],"type":"Point"},"properties":{"osm_id":"5844655653","tag":{"amenity":"waste_basket"}},"type":"Feature"},
	{"geometry":{"coordinates":[8.722023,47.507181],"type":"Point"},"properties":{"osm_id":"5844655654","tag":{"amenity":"waste_basket"}},"type":"Feature"},
	{"geometry":{"coordinates":[8.72159,47.506698],"type":"Point"},"properties":{"osm_id":"5844655655","tag":{"amenity":"waste_basket"}},"type":"Feature"},
	{"geometry":{"coordinates":[8.721417,47.507281],"type":"Point"},"properties":{"osm_id":"5844655656","tag":{"amenity":"waste_basket"}},"type":"Feature"},
	{"geometry":{"coordinates":[8.721235,47.506787],"type":"Point"},"properties":{"osm_id":"5844670774","tag":{"amenity":"waste_basket"}},"type":"Feature"},
	{"geometry":{"coordinates":[8.721685,47.506649],"type":"Point"},"properties":{"osm_id":"5844670778","tag":{"amenity":"waste_basket"}},"type":"Feature"},
	{"geometry":{"coordinates":[8.750284,47.503833],"type":"Point"},"properties":{"osm_id":"5892507156","tag":{"amenity":"recycling","recycling:clothes":"yes","recycling_type":"container"}},"type":"Feature"},
	{"geometry":{"coordinates":[8.758948,47.511518],"type":"Point"},"properties":{"osm_id":"5892507524","tag":{"amenity":"recycling","recycling:clothes":"yes","recycling_type":"container"}},"type":"Feature"},
	{"geometry":{"coordinates":[8.720743,47.500755],"type":"Point"},"properties":{"osm_id":"6041630066","tag":{"amenity":"waste_basket","waste":"trash"}},"type":"Feature"},
	{"geometry":{"coordinates":[8.728697,47.498802],"type":"Point"},"properties":{"osm_id":"6354809207","tag":{"amenity":"waste_basket","waste":"trash"}},"type":"Feature"},
	{"geometry":{"coordinates":[8.729274,47.498846],"type":"Point"},"properties":{"osm_id":"6542788769","tag":{"amenity":"waste_basket","waste":"trash"}},"type":"Feature"},
	{"geometry":{"coordinates":[8.728907,47.498916],"type":"Point"},"properties":{"osm_id":"6542788772","tag":{"amenity":"waste_basket","waste":"trash"}},"type":"Feature"},
	{"geometry":{"coordinates":[8.752099,47.502936],"type":"Point"},"properties":{"name":"Labdoo Annahmestelle f\u00c3\u00bcr Laptops","osm_id":"6542877135","tag":{"addr:city":"Winterthur","addr:housenumber":"75","addr:postcode":"8404","addr:street":"Talackerstrasse","amenity":"recycling","brand":"Labdoo","charity":"yes","description":"Bitte vorher mit Markus Leutwyler, markus.leutwyler@labdoo.org einen Termin vereinbaren.","email":"markus.leutwyler@labdoo.org","location":"indoor","operator":"Markus Leutwyler","recycling:computers":"yes","recycling:mobile_phones":"yes","website":"https://www.labdoo.org/de/hub?h=71730"}},"type":"Feature"},
	{"geometry":{"coordinates":[8.730945,47.500069],"type":"Point"},"properties":{"osm_id":"6551183787","tag":{"amenity":"waste_basket"}},"type":"Feature"},
	{"geometry":{"coordinates":[8.722839,47.49916],"type":"Point"},"properties":{"osm_id":"6605953756","tag":{"amenity":"recycling","opening_hours":"24/7","operator":"SBB","recycling:PET":"yes","recycling:aluminium":"yes","recycling:paper":"yes","recycling:waste":"yes","recycling_type":"container","wheelchair":"yes"}},"type":"Feature"},
	{"geometry":{"coordinates":[8.720331,47.49859],"type":"Point"},"properties":{"osm_id":"6630996543","tag":{"amenity":"waste_basket"}},"type":"Feature"},
	{"geometry":{"coordinates":[8.741102,47.495265],"type":"Point"},"properties":{"osm_id":"6857376993","tag":{"amenity":"waste_basket","waste":"trash"}},"type":"Feature"},
	{"geometry":{"coordinates":[8.741343,47.495502],"type":"Point"},"properties":{"osm_id":"6857376994","tag":{"amenity":"waste_basket","waste":"trash"}},"type":"Feature"},
	{"geometry":{"coordinates":[8.74138,47.495401],"type":"Point"},"properties":{"osm_id":"6857376995","tag":{"amenity":"waste_basket","waste":"trash"}},"type":"Feature"},
	{"geometry":{"coordinates":[8.722606,47.499777],"type":"Point"},"properties":{"osm_id":"6858272381","tag":{"amenity":"recycling","opening_hours":"24/7","recycling:PET":"yes","recycling:aluminium":"yes","recycling:paper":"yes","recycling:waste":"yes","recycling_type":"container","wheelchair":"yes"}},"type":"Feature"},
	{"geometry":{"coordinates":[8.722953,47.499646],"type":"Point"},"properties":{"osm_id":"6858272382","tag":{"amenity":"recycling","opening_hours":"24/7","recycling:PET":"yes","recycling:aluminium":"yes","recycling:paper":"yes","recycling:waste":"yes","recycling_type":"container","wheelchair":"yes"}},"type":"Feature"},
	{"geometry":{"coordinates":[8.722774,47.499712],"type":"Point"},"properties":{"osm_id":"6858272383","tag":{"amenity":"recycling","opening_hours":"24/7","recycling:PET":"yes","recycling:aluminium":"yes","recycling:paper":"yes","recycling:waste":"yes","recycling_type":"container","wheelchair":"yes"}},"type":"Feature"},
	{"geometry":{"coordinates":[8.723168,47.50052],"type":"Point"},"properties":{"osm_id":"6860762217","tag":{"amenity":"recycling","opening_hours":"24/7","recycling:PET":"yes","recycling:aluminium":"yes","recycling:paper":"yes","recycling:waste":"yes","recycling_type":"container","wheelchair":"yes"}},"type":"Feature"},
	{"geometry":{"coordinates":[8.724577,47.501069],"type":"Point"},"properties":{"osm_id":"6860762218","tag":{"amenity":"recycling","opening_hours":"24/7","recycling:PET":"yes","recycling:aluminium":"yes","recycling:paper":"yes","recycling:waste":"yes","recycling_type":"container","wheelchair":"yes"}},"type":"Feature"},
	{"geometry":{"coordinates":[8.723297,47.500696],"type":"Point"},"properties":{"osm_id":"6860762219","tag":{"amenity":"recycling","opening_hours":"24/7","recycling:PET":"yes","recycling:aluminium":"yes","recycling:paper":"yes","recycling:waste":"yes","recycling_type":"container","wheelchair":"yes"}},"type":"Feature"},
	{"geometry":{"coordinates":[8.728246,47.501139],"type":"Point"},"properties":{"osm_id":"6945204737","tag":{"amenity":"waste_basket","waste":"trash"}},"type":"Feature"},
	{"geometry":{"coordinates":[8.728694,47.501083],"type":"Point"},"properties":{"osm_id":"6945204738","tag":{"amenity":"waste_basket","waste":"trash"}},"type":"Feature"},
	{"geometry":{"coordinates":[8.728272,47.501235],"type":"Point"},"properties":{"osm_id":"6945204739","tag":{"amenity":"waste_basket","waste":"trash"}},"type":"Feature"},
	{"geometry":{"coordinates":[8.727884,47.500581],"type":"Point"},"properties":{"osm_id":"6945204740","tag":{"amenity":"waste_basket","waste":"trash"}},"type":"Feature"},
	{"geometry":{"coordinates":[8.727953,47.501299],"type":"Point"},"properties":{"osm_id":"6945204741","tag":{"amenity":"waste_basket","waste":"trash"}},"type":"Feature"},
	{"geometry":{"coordinates":[8.728633,47.501222],"type":"Point"},"properties":{"osm_id":"6945215862","tag":{"amenity":"waste_basket","waste":"trash"}},"type":"Feature"},
	{"geometry":{"coordinates":[8.728869,47.501252],"type":"Point"},"properties":{"osm_id":"6945215872","tag":{"amenity":"waste_basket","waste":"trash"}},"type":"Feature"},
	{"geometry":{"coordinates":[8.740438,47.494795],"type":"Point"},"properties":{"osm_id":"6987060061","tag":{"amenity":"waste_basket","waste":"trash"}},"type":"Feature"},
	{"geometry":{"coordinates":[8.740773,47.494939],"type":"Point"},"properties":{"osm_id":"6987060062","tag":{"amenity":"waste_basket","waste":"trash"}},"type":"Feature"},
	{"geometry":{"coordinates":[8.740015,47.494532],"type":"Point"},"properties":{"osm_id":"6987103992","tag":{"amenity":"waste_basket","waste":"trash"}},"type":"Feature"},
	{"geometry":{"coordinates":[8.740689,47.494725],"type":"Point"},"properties":{"osm_id":"7008164048","tag":{"amenity":"waste_basket","waste":"trash"}},"type":"Feature"},
	{"geometry":{"coordinates":[8.727454,47.502215],"type":"Point"},"properties":{"osm_id":"7011191757","tag":{"amenity":"waste_basket","waste":"trash"}},"type":"Feature"},
	{"geometry":{"coordinates":[8.726889,47.500943],"type":"Point"},"properties":{"osm_id":"7011191758","tag":{"amenity":"waste_basket","waste":"trash"}},"type":"Feature"},
	{"geometry":{"coordinates":[8.727385,47.501085],"type":"Point"},"properties":{"osm_id":"7011191759","tag":{"amenity":"waste_basket","waste":"trash"}},"type":"Feature"},
	{"geometry":{"coordinates":[8.726924,47.500809],"type":"Point"},"properties":{"osm_id":"7011191760","tag":{"amenity":"waste_basket","waste":"trash"}},"type":"Feature"},
	{"geometry":{"coordinates":[8.727319,47.50197],"type":"Point"},"properties":{"osm_id":"7011191761","tag":{"amenity":"waste_basket","waste":"trash"}},"type":"Feature"},
	{"geometry":{"coordinates":[8.727249,47.501024],"type":"Point"},"properties":{"osm_id":"7011191763","tag":{"amenity":"waste_basket","waste":"trash"}},"type":"Feature"},
	{"geometry":{"coordinates":[8.727558,47.501263],"type":"Point"},"properties":{"osm_id":"7011191765","tag":{"amenity":"waste_basket","waste":"trash"}},"type":"Feature"},
	{"geometry":{"coordinates":[8.727217,47.502566],"type":"Point"},"properties":{"osm_id":"7017207842","tag":{"amenity":"waste_basket","waste":"trash"}},"type":"Feature"},
	{"geometry":{"coordinates":[8.729015,47.50112],"type":"Point"},"properties":{"osm_id":"7026018014","tag":{"amenity":"waste_basket","waste":"trash"}},"type":"Feature"},
	{"geometry":{"coordinates":[8.729854,47.500682],"type":"Point"},"properties":{"osm_id":"7026018015","tag":{"amenity":"waste_basket","waste":"trash"}},"type":"Feature"},
	{"geometry":{"coordinates":[8.729707,47.501185],"type":"Point"},"properties":{"osm_id":"7026018016","tag":{"amenity":"waste_basket","waste":"trash"}},"type":"Feature"},
	{"geometry":{"coordinates":[8.729855,47.501177],"type":"Point"},"properties":{"osm_id":"7026018017","tag":{"amenity":"waste_basket","waste":"trash"}},"type":"Feature"},
	{"geometry":{"coordinates":[8.727916,47.501243],"type":"Point"},"properties":{"osm_id":"7028598119","tag":{"amenity":"waste_basket","waste":"trash"}},"type":"Feature"},
	{"geometry":{"coordinates":[8.727986,47.500246],"type":"Point"},"properties":{"osm_id":"7028598120","tag":{"amenity":"waste_basket","waste":"trash"}},"type":"Feature"},
	{"geometry":{"coordinates":[8.727669,47.501073],"type":"Point"},"properties":{"osm_id":"7028598121","tag":{"amenity":"waste_basket","waste":"trash"}},"type":"Feature"},
	{"geometry":{"coordinates":[8.735645,47.497289],"type":"Point"},"properties":{"osm_id":"7038136717","tag":{"amenity":"waste_basket","waste":"trash"}},"type":"Feature"},
	{"geometry":{"coordinates":[8.727393,47.499588],"type":"Point"},"properties":{"osm_id":"7046640401","tag":{"amenity":"waste_basket","waste":"trash"}},"type":"Feature"},
	{"geometry":{"coordinates":[8.73042,47.498935],"type":"Point"},"properties":{"osm_id":"7051838263","tag":{"amenity":"waste_basket","waste":"trash"}},"type":"Feature"},
	{"geometry":{"coordinates":[8.735946,47.496753],"type":"Point"},"properties":{"osm_id":"7059965666","tag":{"amenity":"waste_basket","waste":"trash"}},"type":"Feature"},
	{"geometry":{"coordinates":[8.729888,47.500386],"type":"Point"},"properties":{"osm_id":"7069491784","tag":{"amenity":"waste_disposal","underground":"yes"}},"type":"Feature"},
	{"geometry":{"coordinates":[8.729349,47.501037],"type":"Point"},"properties":{"osm_id":"7069576389","tag":{"amenity":"waste_basket","waste":"trash"}},"type":"Feature"},
	{"geometry":{"coordinates":[8.729507,47.501037],"type":"Point"},"properties":{"osm_id":"7069576390","tag":{"amenity":"waste_basket","waste":"pizza_boxes"}},"type":"Feature"},
	{"geometry":{"coordinates":[8.726157,47.501425],"type":"Point"},"properties":{"osm_id":"7072029021","tag":{"amenity":"waste_basket","waste":"trash"}},"type":"Feature"},
	{"geometry":{"coordinates":[8.723524,47.499627],"type":"Point"},"properties":{"osm_id":"7079772498","tag":{"amenity":"recycling","level":"-1","recycling:PET":"yes","recycling:aluminium":"yes","recycling:paper":"yes","recycling:waste":"yes","recycling_type":"container","wheelchair":"yes"}},"type":"Feature"},
	{"geometry":{"coordinates":[8.723465,47.499553],"type":"Point"},"properties":{"osm_id":"7079772499","tag":{"amenity":"recycling","level":"-1","recycling:PET":"yes","recycling:aluminium":"yes","recycling:paper":"yes","recycling:waste":"yes","recycling_type":"container","wheelchair":"yes"}},"type":"Feature"},
	{"geometry":{"coordinates":[8.727306,47.503644],"type":"Point"},"properties":{"osm_id":"7114406494","tag":{"amenity":"waste_basket","waste":"trash"}},"type":"Feature"},
	{"geometry":{"coordinates":[8.727875,47.503491],"type":"Point"},"properties":{"osm_id":"7114406496","tag":{"amenity":"waste_basket","waste":"trash"}},"type":"Feature"},
	{"geometry":{"coordinates":[8.713383,47.488717],"type":"Point"},"properties":{"osm_id":"7116856624","tag":{"amenity":"waste_basket"}},"type":"Feature"},
	{"geometry":{"coordinates":[8.729455,47.501201],"type":"Point"},"properties":{"osm_id":"7119294551","tag":{"amenity":"waste_basket","waste":"trash"}},"type":"Feature"},
	{"geometry":{"coordinates":[8.729972,47.499833],"type":"Point"},"properties":{"osm_id":"7119294552","tag":{"amenity":"waste_basket","waste":"trash"}},"type":"Feature"},
	{"geometry":{"coordinates":[8.729286,47.499087],"type":"Point"},"properties":{"osm_id":"7124400606","tag":{"amenity":"waste_basket","waste":"trash"}},"type":"Feature"},
	{"geometry":{"coordinates":[8.728508,47.500606],"type":"Point"},"properties":{"osm_id":"7128347616","tag":{"amenity":"waste_basket","waste":"trash"}},"type":"Feature"},
	{"geometry":{"coordinates":[8.729387,47.500712],"type":"Point"},"properties":{"osm_id":"7128347619","tag":{"amenity":"waste_basket","waste":"trash"}},"type":"Feature"},
	{"geometry":{"coordinates":[8.73728,47.496806],"type":"Point"},"properties":{"osm_id":"7138925975","tag":{"amenity":"waste_basket","waste":"trash"}},"type":"Feature"},
	{"geometry":{"coordinates":[8.733597,47.498061],"type":"Point"},"properties":{"osm_id":"7146432488","tag":{"amenity":"waste_basket","waste":"trash"}},"type":"Feature"},
	{"geometry":{"coordinates":[8.73361,47.498072],"type":"Point"},"properties":{"osm_id":"7146432498","tag":{"amenity":"waste_basket","waste":"pizza_boxes"}},"type":"Feature"},
	{"geometry":{"coordinates":[8.732832,47.498749],"type":"Point"},"properties":{"osm_id":"7162967833","tag":{"amenity":"waste_basket","waste":"trash"}},"type":"Feature"},
	{"geometry":{"coordinates":[8.733758,47.4983],"type":"Point"},"properties":{"osm_id":"7162967843","tag":{"amenity":"waste_basket","waste":"trash"}},"type":"Feature"},
	{"geometry":{"coordinates":[8.727858,47.498984],"type":"Point"},"properties":{"osm_id":"7166388021","tag":{"amenity":"waste_basket","waste":"trash"}},"type":"Feature"},
	{"geometry":{"coordinates":[8.726332,47.498835],"type":"Point"},"properties":{"osm_id":"7174909423","tag":{"amenity":"waste_disposal","underground":"yes"}},"type":"Feature"},
	{"geometry":{"coordinates":[8.726425,47.49892],"type":"Point"},"properties":{"osm_id":"7174909424","tag":{"amenity":"waste_basket","waste":"trash"}},"type":"Feature"},
	{"geometry":{"coordinates":[8.726334,47.498819],"type":"Point"},"properties":{"osm_id":"7174909425","tag":{"amenity":"waste_disposal","underground":"yes"}},"type":"Feature"},
	{"geometry":{"coordinates":[8.731001,47.499988],"type":"Point"},"properties":{"osm_id":"7208340101","tag":{"amenity":"waste_disposal","underground":"yes"}},"type":"Feature"},
	{"geometry":{"coordinates":[8.731278,47.499694],"type":"Point"},"properties":{"osm_id":"7208340110","tag":{"amenity":"waste_basket","waste":"trash"}},"type":"Feature"},
	{"geometry":{"coordinates":[8.736447,47.497239],"type":"Point"},"properties":{"osm_id":"7208372787","tag":{"amenity":"waste_basket","waste":"trash"}},"type":"Feature"},
	{"geometry":{"coordinates":[8.733194,47.497981],"type":"Point"},"properties":{"osm_id":"7208531939","tag":{"amenity":"waste_basket","waste":"trash"}},"type":"Feature"},
	{"geometry":{"coordinates":[8.726817,47.498479],"type":"Point"},"properties":{"osm_id":"7232663762","tag":{"amenity":"waste_basket","waste":"trash"}},"type":"Feature"},
	{"geometry":{"coordinates":[8.716933,47.498056],"type":"Point"},"properties":{"osm_id":"7253950506","tag":{"amenity":"waste_basket"}},"type":"Feature"},
	{"geometry":{"coordinates":[8.730917,47.499932],"type":"Point"},"properties":{"osm_id":"7271773115","tag":{"amenity":"waste_basket","waste":"trash"}},"type":"Feature"},
	{"geometry":{"coordinates":[8.730484,47.49982],"type":"Point"},"properties":{"osm_id":"7271773116","tag":{"amenity":"waste_basket","waste":"trash"}},"type":"Feature"},
	{"geometry":{"coordinates":[8.732402,47.498053],"type":"Point"},"properties":{"osm_id":"7279669621","tag":{"amenity":"waste_basket","waste":"trash"}},"type":"Feature"},
	{"geometry":{"coordinates":[8.732658,47.498218],"type":"Point"},"properties":{"osm_id":"7279675068","tag":{"amenity":"waste_disposal"}},"type":"Feature"},
	{"geometry":{"coordinates":[8.721513,47.498529],"type":"Point"},"properties":{"osm_id":"7280989266","tag":{"amenity":"waste_basket","waste":"trash"}},"type":"Feature"},
	{"geometry":{"coordinates":[8.721786,47.499117],"type":"Point"},"properties":{"osm_id":"7280989268","tag":{"amenity":"waste_basket","waste":"trash"}},"type":"Feature"},
	{"geometry":{"coordinates":[8.72163,47.49837],"type":"Point"},"properties":{"osm_id":"7280989275","tag":{"amenity":"waste_basket","waste":"trash"}},"type":"Feature"},
	{"geometry":{"coordinates":[8.717103,47.495027],"type":"Point"},"properties":{"osm_id":"7280989276","tag":{"amenity":"waste_basket","waste":"trash"}},"type":"Feature"},
	{"geometry":{"coordinates":[8.703549,47.46922],"type":"Point"},"properties":{"barrier":"gate","osm_id":"7308571116"},"type":"Feature"},
	{"geometry":{"coordinates":[8.726439,47.477447],"type":"Point"},"properties":{"osm_id":"7319888370","tag":{"amenity":"waste_basket","waste":"trash"}},"type":"Feature"},
	{"geometry":{"coordinates":[8.718039,47.486607],"type":"Point"},"properties":{"osm_id":"7319888380","tag":{"amenity":"waste_basket","waste":"trash"}},"type":"Feature"},
	{"geometry":{"coordinates":[8.726397,47.477594],"type":"Point"},"properties":{"osm_id":"7319937205","tag":{"amenity":"waste_basket","waste":"trash"}},"type":"Feature"},
	{"geometry":{"coordinates":[8.728032,47.477698],"type":"Point"},"properties":{"osm_id":"7319937218","tag":{"amenity":"waste_basket","waste":"trash"}},"type":"Feature"},
	{"geometry":{"coordinates":[8.726673,47.47723],"type":"Point"},"properties":{"osm_id":"7319937230","tag":{"amenity":"waste_basket","waste":"trash"}},"type":"Feature"},
	{"geometry":{"coordinates":[8.728192,47.478077],"type":"Point"},"properties":{"osm_id":"7320524757","tag":{"amenity":"waste_basket","waste":"trash"}},"type":"Feature"},
	{"geometry":{"coordinates":[8.749907,47.500728],"type":"Point"},"properties":{"osm_id":"7538319339","tag":{"amenity":"waste_basket"}},"type":"Feature"},
	{"geometry":{"coordinates":[8.740053,47.513436],"type":"Point"},"properties":{"osm_id":"7563070109","tag":{"amenity":"waste_basket","waste":"trash"}},"type":"Feature"},
	{"geometry":{"coordinates":[8.736516,47.510896],"type":"Point"},"properties":{"osm_id":"7563070110","tag":{"amenity":"waste_basket","waste":"trash"}},"type":"Feature"},
	{"geometry":{"coordinates":[8.737422,47.507069],"type":"Point"},"properties":{"osm_id":"7563070111","tag":{"amenity":"waste_basket","waste":"trash"}},"type":"Feature"},
	{"geometry":{"coordinates":[8.736611,47.506697],"type":"Point"},"properties":{"osm_id":"7563070112","tag":{"amenity":"waste_basket","waste":"trash"}},"type":"Feature"},
	{"geometry":{"coordinates":[8.728745,47.513719],"type":"Point"},"properties":{"osm_id":"7563070114","tag":{"amenity":"waste_basket","waste":"trash"}},"type":"Feature"},
	{"geometry":{"coordinates":[8.737529,47.514326],"type":"Point"},"properties":{"osm_id":"7563070115","tag":{"amenity":"waste_basket","waste":"trash"}},"type":"Feature"},
	{"geometry":{"coordinates":[8.725479,47.510691],"type":"Point"},"properties":{"osm_id":"7563070116","tag":{"amenity":"waste_basket","waste":"trash"}},"type":"Feature"},
	{"geometry":{"coordinates":[8.733307,47.511412],"type":"Point"},"properties":{"osm_id":"7640643966","tag":{"amenity":"waste_basket"}},"type":"Feature"},
	{"geometry":{"coordinates":[8.729027,47.511245],"type":"Point"},"properties":{"osm_id":"7640643968","tag":{"amenity":"waste_basket"}},"type":"Feature"},
	{"geometry":{"coordinates":[8.725549,47.499727],"type":"Point"},"properties":{"osm_id":"7917356072","tag":{"amenity":"waste_disposal"}},"type":"Feature"}
]
}
