{
"type": "FeatureCollection",
"features": [
	{"geometry":{"coordinates":[8.740961,47.12291],"type":"Point"},"properties":{"name":"Recycling","osm_id":"461952387","tag":{"amenity":"recycling","recycling:cans":"yes","recycling:clothes":"yes","recycling:glass":"yes"}},"type":"Feature"},
	{"geometry":{"coordinates":[8.743716,47.12794],"type":"Point"},"properties":{"name":"Robidog","osm_id":"800657272","tag":{"amenity":"waste_basket","vending":"excrement_bags"}},"type":"Feature"},
	{"geometry":{"coordinates":[8.74241,47.134197],"type":"Point"},"properties":{"name":"Robidog","osm_id":"800657571","tag":{"amenity":"waste_basket","vending":"excrement_bags"}},"type":"Feature"},
	{"geometry":{"coordinates":[8.743336,47.127814],"type":"Point"},"properties":{"name":"Robidog","osm_id":"800658026","tag":{"amenity":"waste_basket","vending":"excrement_bags"}},"type":"Feature"},
	{"geometry":{"coordinates":[8.74561,47.131773],"type":"Point"},"properties":{"osm_id":"800658188","tag":{"amenity":"waste_basket"}},"type":"Feature"},
	{"geometry":{"coordinates":[8.749423,47.130762],"type":"Point"},"properties":{"osm_id":"800658564","tag":{"amenity":"waste_basket"}},"type":"Feature"},
	{"geometry":{"coordinates":[8.745829,47.13171],"type":"Point"},"properties":{"name":"Robidog","osm_id":"800658845","tag":{"amenity":"waste_basket","vending":"excrement_bags"}},"type":"Feature"},
	{"geometry":{"coordinates":[8.748844,47.131848],"type":"Point"},"properties":{"name":"Robidog","osm_id":"800658961","tag":{"amenity":"waste_basket","vending":"excrement_bags"}},"type":"Feature"},
	{"geometry":{"coordinates":[8.746305,47.127188],"type":"Point"},"properties":{"osm_id":"800658982","tag":{"amenity":"waste_basket"}},"type":"Feature"},
	{"geometry":{"coordinates":[8.747616,47.127126],"type":"Point"},"properties":{"osm_id":"805184892","tag":{"amenity":"waste_basket"}},"type":"Feature"},
	{"geometry":{"coordinates":[8.75855,47.124649],"type":"Point"},"properties":{"osm_id":"823581593","tag":{"amenity":"waste_basket","information":"guidepost","tourism":"information"}},"type":"Feature"},
	{"geometry":{"coordinates":[8.749349,47.128508],"type":"Point"},"properties":{"osm_id":"823581619","tag":{"amenity":"waste_basket"}},"type":"Feature"},
	{"geometry":{"coordinates":[8.755646,47.122317],"type":"Point"},"properties":{"name":"Robidog","osm_id":"823581632","tag":{"amenity":"waste_basket","vending":"excrement_bags"}},"type":"Feature"},
	{"geometry":{"coordinates":[8.75005,47.123405],"type":"Point"},"properties":{"osm_id":"823581655","tag":{"amenity":"waste_basket"}},"type":"Feature"},
	{"geometry":{"coordinates":[8.755455,47.123581],"type":"Point"},"properties":{"osm_id":"823581657","tag":{"amenity":"waste_basket","vending":"excrement_bags"}},"type":"Feature"},
	{"geometry":{"coordinates":[8.749687,47.126649],"type":"Point"},"properties":{"osm_id":"823581663","tag":{"amenity":"waste_basket"}},"type":"Feature"},
	{"geometry":{"coordinates":[8.758727,47.12328],"type":"Point"},"properties":{"osm_id":"823581772","tag":{"amenity":"waste_basket"}},"type":"Feature"},
	{"geometry":{"coordinates":[8.75137,47.126009],"type":"Point"},"properties":{"osm_id":"823581821","tag":{"amenity":"waste_basket"}},"type":"Feature"},
	{"geometry":{"coordinates":[8.745497,47.126984],"type":"Point"},"properties":{"name":"Recycling","osm_id":"823581857","tag":{"amenity":"recycling","recycling:clothes":"yes","recycling:glass":"yes","recycling:plastic":"yes","recycling:scrap_metal":"yes","wheelchair":"yes"}},"type":"Feature"},
	{"geometry":{"coordinates":[8.745107,47.127128],"type":"Point"},"properties":{"osm_id":"823581870","tag":{"amenity":"waste_basket"}},"type":"Feature"},
	{"geometry":{"coordinates":[8.761963,47.140176],"type":"Point"},"properties":{"osm_id":"847850294","tag":{"amenity":"waste_basket"}},"type":"Feature"},
	{"geometry":{"coordinates":[8.760405,47.142502],"type":"Point"},"properties":{"name":"Robidog","osm_id":"847850593","tag":{"amenity":"waste_basket","vending":"excrement_bags"}},"type":"Feature"},
	{"geometry":{"coordinates":[8.762973,47.128258],"type":"Point"},"properties":{"osm_id":"847850698","tag":{"amenity":"waste_basket","information":"guidepost","tourism":"information"}},"type":"Feature"},
	{"geometry":{"coordinates":[8.749975,47.128172],"type":"Point"},"properties":{"osm_id":"847850705","tag":{"amenity":"waste_basket"}},"type":"Feature"},
	{"geometry":{"coordinates":[8.763029,47.135337],"type":"Point"},"properties":{"osm_id":"847850929","tag":{"amenity":"waste_basket"}},"type":"Feature"},
	{"geometry":{"coordinates":[8.7577,47.127271],"type":"Point"},"properties":{"osm_id":"847850952","tag":{"amenity":"waste_basket"}},"type":"Feature"},
	{"geometry":{"coordinates":[8.755469,47.126088],"type":"Point"},"properties":{"name":"Robidog","osm_id":"847851077","tag":{"amenity":"waste_basket","vending":"excrement_bags"}},"type":"Feature"},
	{"geometry":{"coordinates":[8.752444,47.130976],"type":"Point"},"properties":{"name":"Robidog","osm_id":"847851187","tag":{"amenity":"waste_basket","vending":"excrement_bags"}},"type":"Feature"},
	{"geometry":{"coordinates":[8.763811,47.129074],"type":"Point"},"properties":{"osm_id":"847851251","tag":{"amenity":"waste_basket"}},"type":"Feature"},
	{"geometry":{"coordinates":[8.759964,47.146633],"type":"Point"},"properties":{"name":"Robidog","osm_id":"847851253","tag":{"amenity":"waste_basket","vending":"excrement_bags"}},"type":"Feature"},
	{"geometry":{"coordinates":[8.758948,47.139269],"type":"Point"},"properties":{"name":"Robidog","osm_id":"847851425","tag":{"amenity":"waste_basket","vending":"excrement_bags"}},"type":"Feature"},
	{"geometry":{"coordinates":[8.764384,47.149596],"type":"Point"},"properties":{"name":"Robidog","osm_id":"847851709","tag":{"amenity":"waste_basket","vending":"excrement_bags"}},"type":"Feature"},
	{"geometry":{"coordinates":[8.76796,47.133156],"type":"Point"},"properties":{"name":"Robidog","osm_id":"847852208","tag":{"amenity":"waste_basket","vending":"excrement_bags"}},"type":"Feature"},
	{"geometry":{"coordinates":[8.767636,47.12914],"type":"Point"},"properties":{"name":"Robidog","osm_id":"847852568","tag":{"amenity":"waste_basket","vending":"excrement_bags"}},"type":"Feature"},
	{"geometry":{"coordinates":[8.764849,47.136155],"type":"Point"},"properties":{"osm_id":"847852587","tag":{"amenity":"waste_basket"}},"type":"Feature"},
	{"geometry":{"coordinates":[8.76333,47.151153],"type":"Point"},"properties":{"osm_id":"847852682","tag":{"amenity":"waste_basket"}},"type":"Feature"},
	{"geometry":{"coordinates":[8.770278,47.127912],"type":"Point"},"properties":{"name":"Robidog","osm_id":"847853327","tag":{"amenity":"waste_basket","vending":"excrement_bags"}},"type":"Feature"},
	{"geometry":{"coordinates":[8.76558,47.114898],"type":"Point"},"properties":{"name":"Robidog","osm_id":"848784344","tag":{"amenity":"waste_basket","vending":"excrement_bags"}},"type":"Feature"},
	{"geometry":{"coordinates":[8.76553,47.105614],"type":"Point"},"properties":{"name":"Robidog","osm_id":"848784410","tag":{"amenity":"waste_basket","vending":"excrement_bags"}},"type":"Feature"},
	{"geometry":{"coordinates":[8.728588,47.148532],"type":"Point"},"properties":{"osm_id":"858927931","tag":{"amenity":"recycling","recycling:clothes":"yes","recycling:glass":"yes"}},"type":"Feature"},
	{"geometry":{"coordinates":[8.741422,47.142452],"type":"Point"},"properties":{"name":"Robidog","osm_id":"858928084","tag":{"amenity":"waste_basket","vending":"excrement_bags"}},"type":"Feature"},
	{"geometry":{"coordinates":[8.738595,47.124566],"type":"Point"},"properties":{"name":"Robidog","osm_id":"915619440","tag":{"amenity":"waste_basket","vending":"excrement_bags"}},"type":"Feature"},
	{"geometry":{"coordinates":[8.74251,47.126949],"type":"Point"},"properties":{"name":"Robidog","osm_id":"915619583","tag":{"amenity":"waste_basket","vending":"excrement_bags"}},"type":"Feature"},
	{"geometry":{"coordinates":[8.759784,47.131952],"type":"Point"},"properties":{"name":"Robidog","osm_id":"922996146","tag":{"amenity":"waste_basket","vending":"excrement_bags"}},"type":"Feature"},
	{"geometry":{"coordinates":[8.740955,47.117762],"type":"Point"},"properties":{"name":"Robidog","osm_id":"924094357","tag":{"amenity":"waste_basket","vending":"excrement_bags"}},"type":"Feature"},
	{"geometry":{"coordinates":[8.734254,47.131254],"type":"Point"},"properties":{"name":"Robidog","osm_id":"954680046","tag":{"amenity":"waste_basket","vending":"excrement_bags"}},"type":"Feature"},
	{"geometry":{"coordinates":[8.741528,47.130958],"type":"Point"},"properties":{"osm_id":"2039760836","tag":{"amenity":"waste_disposal"}},"type":"Feature"},
	{"geometry":{"coordinates":[8.775892,47.115472],"type":"Point"},"properties":{"osm_id":"2083310844","tag":{"amenity":"recycling","recycling:batteries":"no","recycling:cans":"yes","recycling:clothes":"yes","recycling:glass":"no","recycling:waste":"yes","recycling_type":"container"}},"type":"Feature"},
	{"geometry":{"coordinates":[8.740913,47.122924],"type":"Point"},"properties":{"osm_id":"2093349695","tag":{"amenity":"recycling"}},"type":"Feature"},
	{"geometry":{"coordinates":[8.74089,47.122941],"type":"Point"},"properties":{"osm_id":"2093349696","tag":{"amenity":"recycling"}},"type":"Feature"},
	{"geometry":{"coordinates":[8.740871,47.122958],"type":"Point"},"properties":{"osm_id":"2093349697","tag":{"amenity":"recycling"}},"type":"Feature"},
	{"geometry":{"coordinates":[8.740852,47.122973],"type":"Point"},"properties":{"osm_id":"2093349698","tag":{"amenity":"recycling"}},"type":"Feature"},
	{"geometry":{"coordinates":[8.740836,47.122987],"type":"Point"},"properties":{"osm_id":"2093349699","tag":{"amenity":"recycling"}},"type":"Feature"},
	{"geometry":{"coordinates":[8.740819,47.123001],"type":"Point"},"properties":{"osm_id":"2093349700","tag":{"amenity":"recycling"}},"type":"Feature"},
	{"geometry":{"coordinates":[8.742269,47.131487],"type":"Point"},"properties":{"osm_id":"2319255058","tag":{"amenity":"waste_disposal"}},"type":"Feature"},
	{"geometry":{"coordinates":[8.754095,47.13842],"type":"Point"},"properties":{"name":"Robidog","osm_id":"2434371306","tag":{"amenity":"waste_basket","vending":"excrement_bags"}},"type":"Feature"},
	{"geometry":{"coordinates":[8.736728,47.126214],"type":"Point"},"properties":{"osm_id":"2626007569","tag":{"amenity":"waste_disposal"}},"type":"Feature"},
	{"geometry":{"coordinates":[8.735694,47.125621],"type":"Point"},"properties":{"name":"Robidog","osm_id":"2626007910","tag":{"amenity":"waste_basket","vending":"excrement_bags"}},"type":"Feature"},
	{"geometry":{"coordinates":[8.750144,47.126055],"type":"Point"},"properties":{"osm_id":"2635389923","tag":{"amenity":"waste_basket"}},"type":"Feature"},
	{"geometry":{"coordinates":[8.737529,47.118948],"type":"Point"},"properties":{"name":"Robidog","osm_id":"2635389991","tag":{"amenity":"waste_basket","vending":"excrement_bags"}},"type":"Feature"},
	{"geometry":{"coordinates":[8.743196,47.121718],"type":"Point"},"properties":{"name":"Robidog","osm_id":"2635389992","tag":{"amenity":"waste_basket","vending":"excrement_bags"}},"type":"Feature"},
	{"geometry":{"coordinates":[8.745571,47.123816],"type":"Point"},"properties":{"name":"Robidog","osm_id":"2635389993","tag":{"amenity":"waste_basket","vending":"excrement_bags"}},"type":"Feature"},
	{"geometry":{"coordinates":[8.741197,47.124902],"type":"Point"},"properties":{"name":"Robidog","osm_id":"2635389994","tag":{"amenity":"waste_basket","vending":"excrement_bags"}},"type":"Feature"},
	{"geometry":{"coordinates":[8.74778,47.125481],"type":"Point"},"properties":{"name":"Robidog","osm_id":"2635389995","tag":{"amenity":"waste_basket","vending":"excrement_bags"}},"type":"Feature"},
	{"geometry":{"coordinates":[8.741945,47.131946],"type":"Point"},"properties":{"osm_id":"2638473673","tag":{"amenity":"waste_basket"}},"type":"Feature"},
	{"geometry":{"coordinates":[8.742977,47.133205],"type":"Point"},"properties":{"osm_id":"2638473869","tag":{"amenity":"waste_disposal"}},"type":"Feature"},
	{"geometry":{"coordinates":[8.738684,47.130619],"type":"Point"},"properties":{"name":"Robidog","osm_id":"2638473947","tag":{"amenity":"waste_basket","vending":"excrement_bags"}},"type":"Feature"},
	{"geometry":{"coordinates":[8.739592,47.131515],"type":"Point"},"properties":{"name":"Robidog","osm_id":"2638473954","tag":{"amenity":"waste_basket","vending":"excrement_bags"}},"type":"Feature"},
	{"geometry":{"coordinates":[8.744117,47.124724],"type":"Point"},"properties":{"name":"BRAVO","osm_id":"2645853427","tag":{"amenity":"waste_basket","vending":"excrement_bags"}},"type":"Feature"},
	{"geometry":{"coordinates":[8.744206,47.126179],"type":"Point"},"properties":{"osm_id":"2645853727","tag":{"amenity":"waste_basket"}},"type":"Feature"},
	{"geometry":{"coordinates":[8.741526,47.122468],"type":"Point"},"properties":{"name":"Robidog","osm_id":"2645853818","tag":{"amenity":"waste_basket","vending":"excrement_bags"}},"type":"Feature"},
	{"geometry":{"coordinates":[8.752437,47.134163],"type":"Point"},"properties":{"name":"Robidog","osm_id":"2657752119","tag":{"amenity":"waste_basket","vending":"excrement_bags"}},"type":"Feature"},
	{"geometry":{"coordinates":[8.749186,47.125817],"type":"Point"},"properties":{"osm_id":"2694701511","tag":{"amenity":"waste_basket"}},"type":"Feature"},
	{"geometry":{"coordinates":[8.748703,47.126784],"type":"Point"},"properties":{"osm_id":"2694701696","tag":{"amenity":"waste_basket"}},"type":"Feature"},
	{"geometry":{"coordinates":[8.730659,47.115438],"type":"Point"},"properties":{"osm_id":"2891778952","tag":{"amenity":"waste_basket"}},"type":"Feature"},
	{"geometry":{"coordinates":[8.737567,47.116582],"type":"Point"},"properties":{"osm_id":"2891779379","tag":{"amenity":"waste_basket"}},"type":"Feature"},
	{"geometry":{"coordinates":[8.734616,47.121304],"type":"Point"},"properties":{"osm_id":"2891779534","tag":{"amenity":"waste_basket","vending":"excrement_bags"}},"type":"Feature"},
	{"geometry":{"coordinates":[8.742807,47.127149],"type":"Point"},"properties":{"osm_id":"2891779839","tag":{"amenity":"waste_basket"}},"type":"Feature"},
	{"geometry":{"coordinates":[8.735093,47.115667],"type":"Point"},"properties":{"name":"Robidog","osm_id":"2891779849","tag":{"amenity":"waste_basket","vending":"excrement_bags"}},"type":"Feature"},
	{"geometry":{"coordinates":[8.734925,47.119327],"type":"Point"},"properties":{"name":"Robidog","osm_id":"2891779850","tag":{"amenity":"waste_basket","vending":"excrement_bags"}},"type":"Feature"},
	{"geometry":{"coordinates":[8.732698,47.121222],"type":"Point"},"properties":{"name":"Robidog","osm_id":"2891779851","tag":{"amenity":"waste_basket","vending":"excrement_bags"}},"type":"Feature"},
	{"geometry":{"coordinates":[8.740323,47.125484],"type":"Point"},"properties":{"name":"Robidog","osm_id":"2891779852","tag":{"amenity":"waste_basket","vending":"excrement_bags"}},"type":"Feature"},
	{"geometry":{"coordinates":[8.734782,47.115023],"type":"Point"},"properties":{"osm_id":"2892976804","tag":{"amenity":"waste_basket"}},"type":"Feature"},
	{"geometry":{"coordinates":[8.724511,47.104188],"type":"Point"},"properties":{"osm_id":"2904376908","tag":{"amenity":"waste_basket"}},"type":"Feature"},
	{"geometry":{"coordinates":[8.726619,47.107465],"type":"Point"},"properties":{"osm_id":"2904377338","tag":{"amenity":"waste_basket"}},"type":"Feature"},
	{"geometry":{"coordinates":[8.723945,47.105059],"type":"Point"},"properties":{"name":"Robidog","osm_id":"2904377354","tag":{"amenity":"waste_basket","vending":"excrement_bags"}},"type":"Feature"},
	{"geometry":{"coordinates":[8.726646,47.107541],"type":"Point"},"properties":{"name":"Robidog","osm_id":"2904377355","tag":{"amenity":"waste_basket","vending":"excrement_bags"}},"type":"Feature"},
	{"geometry":{"coordinates":[8.731633,47.110252],"type":"Point"},"properties":{"name":"Robidog","osm_id":"2904377356","tag":{"amenity":"waste_basket","vending":"excrement_bags"}},"type":"Feature"},
	{"geometry":{"coordinates":[8.752919,47.135555],"type":"Point"},"properties":{"osm_id":"2934525575","tag":{"amenity":"waste_basket"}},"type":"Feature"},
	{"geometry":{"coordinates":[8.727823,47.100482],"type":"Point"},"properties":{"osm_id":"3003234785","tag":{"amenity":"waste_basket"}},"type":"Feature"},
	{"geometry":{"coordinates":[8.728119,47.1017],"type":"Point"},"properties":{"osm_id":"3003234823","tag":{"amenity":"recycling"}},"type":"Feature"},
	{"geometry":{"coordinates":[8.728215,47.101581],"type":"Point"},"properties":{"name":"Robidog","osm_id":"3003234869","tag":{"amenity":"waste_basket","vending":"excrement_bags"}},"type":"Feature"},
	{"geometry":{"coordinates":[8.765737,47.107635],"type":"Point"},"properties":{"osm_id":"3075197542","tag":{"amenity":"waste_disposal"}},"type":"Feature"},
	{"geometry":{"coordinates":[8.778442,47.112735],"type":"Point"},"properties":{"osm_id":"3075197651","tag":{"amenity":"waste_basket"}},"type":"Feature"},
	{"geometry":{"coordinates":[8.755797,47.10824],"type":"Point"},"properties":{"name":"Robidog","osm_id":"3075197745","tag":{"amenity":"waste_basket","vending":"excrement_bags"}},"type":"Feature"},
	{"geometry":{"coordinates":[8.771871,47.111766],"type":"Point"},"properties":{"name":"Robidog","osm_id":"3075197746","tag":{"amenity":"waste_basket","vending":"excrement_bags"}},"type":"Feature"},
	{"geometry":{"coordinates":[8.781123,47.113642],"type":"Point"},"properties":{"name":"Robidog","osm_id":"3075197747","tag":{"amenity":"waste_basket","vending":"excrement_bags"}},"type":"Feature"},
	{"geometry":{"coordinates":[8.74943,47.128564],"type":"Point"},"properties":{"osm_id":"3190037342","tag":{"amenity":"waste_basket"}},"type":"Feature"},
	{"geometry":{"coordinates":[8.748718,47.131974],"type":"Point"},"properties":{"osm_id":"3302725737","tag":{"amenity":"waste_disposal"}},"type":"Feature"},
	{"geometry":{"coordinates":[8.748686,47.134771],"type":"Point"},"properties":{"osm_id":"3302732416","tag":{"amenity":"waste_disposal"}},"type":"Feature"},
	{"geometry":{"coordinates":[8.74874,47.131938],"type":"Point"},"properties":{"name":"Robidog","osm_id":"3302732426","tag":{"amenity":"waste_basket","vending":"excrement_bags"}},"type":"Feature"},
	{"geometry":{"coordinates":[8.74966,47.123996],"type":"Point"},"properties":{"osm_id":"3723275380","tag":{"amenity":"waste_basket"}},"type":"Feature"},
	{"geometry":{"coordinates":[8.750782,47.125393],"type":"Point"},"properties":{"osm_id":"3723278452","tag":{"amenity":"waste_basket"}},"type":"Feature"},
	{"geometry":{"coordinates":[8.779562,47.107448],"type":"Point"},"properties":{"osm_id":"3889257309","tag":{"amenity":"waste_basket","vending":"excrement_bags"}},"type":"Feature"},
	{"geometry":{"coordinates":[8.749823,47.149996],"type":"Point"},"properties":{"osm_id":"3904892521","tag":{"amenity":"waste_basket"}},"type":"Feature"},
	{"geometry":{"coordinates":[8.749834,47.150246],"type":"Point"},"properties":{"osm_id":"3904892534","tag":{"amenity":"recycling","recycling:clothes":"yes","recycling_type":"container"}},"type":"Feature"},
	{"geometry":{"coordinates":[8.749824,47.150268],"type":"Point"},"properties":{"osm_id":"3904892535","tag":{"amenity":"waste_disposal"}},"type":"Feature"},
	{"geometry":{"coordinates":[8.758098,47.150994],"type":"Point"},"properties":{"osm_id":"3904892545","tag":{"amenity":"waste_disposal"}},"type":"Feature"},
	{"geometry":{"coordinates":[8.758105,47.151017],"type":"Point"},"properties":{"osm_id":"3904892547","tag":{"amenity":"waste_disposal"}},"type":"Feature"},
	{"geometry":{"coordinates":[8.734292,47.153182],"type":"Point"},"properties":{"osm_id":"3904895430","tag":{"amenity":"waste_basket"}},"type":"Feature"},
	{"geometry":{"coordinates":[8.734453,47.153259],"type":"Point"},"properties":{"name":"Robidog","osm_id":"3904895724","tag":{"amenity":"waste_basket","vending":"excrement_bags"}},"type":"Feature"},
	{"geometry":{"coordinates":[8.744228,47.154752],"type":"Point"},"properties":{"name":"Robidog","osm_id":"3904895725","tag":{"amenity":"waste_basket","vending":"excrement_bags"}},"type":"Feature"},
	{"geometry":{"coordinates":[8.751499,47.128672],"type":"Point"},"properties":{"osm_id":"4360264264","tag":{"amenity":"recycling","recycling:aluminium":"yes","recycling:cans":"yes","recycling:glass_bottles":"yes","recycling:waste":"yes","recycling_type":"container"}},"type":"Feature"},
	{"geometry":{"coordinates":[8.739967,47.126498],"type":"Point"},"properties":{"osm_id":"4548854469","tag":{"amenity":"waste_disposal"}},"type":"Feature"},
	{"geometry":{"coordinates":[8.732459,47.129324],"type":"Point"},"properties":{"osm_id":"5061767721","tag":{"amenity":"waste_basket"}},"type":"Feature"},
	{"geometry":{"coordinates":[8.748691,47.127065],"type":"Point"},"properties":{"osm_id":"5088849633","tag":{"amenity":"waste_basket"}},"type":"Feature"},
	{"geometry":{"coordinates":[8.740338,47.127537],"type":"Point"},"properties":{"osm_id":"5117499508","tag":{"amenity":"waste_disposal"}},"type":"Feature"},
	{"geometry":{"coordinates":[8.747934,47.133781],"type":"Point"},"properties":{"osm_id":"5516423025","tag":{"amenity":"waste_basket"}},"type":"Feature"},
	{"geometry":{"coordinates":[8.739006,47.130886],"type":"Point"},"properties":{"osm_id":"5745250882","tag":{"amenity":"waste_basket"}},"type":"Feature"},
	{"geometry":{"coordinates":[8.783256,47.154061],"type":"Point"},"properties":{"osm_id":"5826584466","tag":{"amenity":"waste_disposal"}},"type":"Feature"},
	{"geometry":{"coordinates":[8.739906,47.130646],"type":"Point"},"properties":{"osm_id":"5849423526","tag":{"amenity":"waste_basket"}},"type":"Feature"},
	{"geometry":{"coordinates":[8.739983,47.121237],"type":"Point"},"properties":{"osm_id":"6389135683","tag":{"amenity":"waste_disposal"}},"type":"Feature"}
]
}
