{
"type": "FeatureCollection",
"features": [
	{"geometry":{"coordinates":[8.721836,47.099591],"type":"Point"},"properties":{"osm_id":"804208797","tag":{"amenity":"waste_basket"}},"type":"Feature"},
	{"geometry":{"coordinates":[8.786132,47.043238],"type":"Point"},"properties":{"name":"Robidog","osm_id":"1277456010","tag":{"amenity":"waste_basket","vending":"excrement_bags"}},"type":"Feature"},
	{"geometry":{"coordinates":[8.706942,47.045459],"type":"Point"},"properties":{"name":"Bello","osm_id":"1496478187","tag":{"amenity":"waste_basket","vending":"excrement_bags"}},"type":"Feature"},
	{"geometry":{"coordinates":[8.7242,47.097986],"type":"Point"},"properties":{"osm_id":"3003234599","tag":{"amenity":"waste_disposal"}},"type":"Feature"},
	{"geometry":{"coordinates":[8.726068,47.099108],"type":"Point"},"properties":{"highway":"street_lamp","osm_id":"3003234741","ref":"422","tag":{"amenity":"waste_basket"}},"type":"Feature"},
	{"geometry":{"coordinates":[8.724617,47.097492],"type":"Point"},"properties":{"name":"Robidog","osm_id":"3003234867","tag":{"amenity":"waste_basket","vending":"excrement_bags"}},"type":"Feature"},
	{"geometry":{"coordinates":[8.728082,47.097662],"type":"Point"},"properties":{"name":"Robidog","osm_id":"3003234868","tag":{"amenity":"waste_basket","vending":"excrement_bags"}},"type":"Feature"},
	{"geometry":{"coordinates":[8.756843,47.09922],"type":"Point"},"properties":{"name":"Robidog","osm_id":"3813545170","tag":{"amenity":"waste_basket","vending":"excrement_bags"}},"type":"Feature"},
	{"geometry":{"coordinates":[8.716273,47.067881],"type":"Point"},"properties":{"osm_id":"7925859023","tag":{"amenity":"waste_basket","vending":"excrement_bags"}},"type":"Feature"}
]
}
