{
"type": "FeatureCollection",
"features": [
	{"geometry":{"coordinates":[8.722412,41.912082],"type":"Point"},"properties":{"osm_id":"567027685","tag":{"amenity":"recycling","recycling:cans":"yes","recycling:glass":"yes","recycling:paper":"yes"}},"type":"Feature"},
	{"geometry":{"coordinates":[8.728975,41.913783],"type":"Point"},"properties":{"osm_id":"844550918","tag":{"amenity":"recycling","recycling:glass":"yes","recycling:paper":"yes","recycling_type":"container"}},"type":"Feature"},
	{"geometry":{"coordinates":[8.739959,41.918107],"type":"Point"},"properties":{"osm_id":"1888159924","tag":{"amenity":"recycling","recycling:batteries":"no","recycling:books":"no","recycling:cans":"no","recycling:waste":"yes","recycling_type":"container"}},"type":"Feature"},
	{"geometry":{"coordinates":[8.739906,41.917662],"type":"Point"},"properties":{"osm_id":"1888178425","tag":{"amenity":"recycling"}},"type":"Feature"},
	{"geometry":{"coordinates":[8.747161,41.934255],"type":"Point"},"properties":{"osm_id":"2905302111","tag":{"amenity":"recycling","recycling:glass":"yes","recycling:paper":"yes","recycling_type":"container"}},"type":"Feature"},
	{"geometry":{"coordinates":[8.730089,41.931083],"type":"Point"},"properties":{"name":"Point d'Apport Volontaire","osm_id":"4332049988","tag":{"addr:city":"Ajaccio","addr:postcode":"20090","addr:street":"Chemin du Loretto","amenity":"recycling","operator":"CAPA","recycling:books":"yes","recycling:glass":"yes","recycling:newspaper":"yes","recycling:paper":"yes","recycling:plastic":"yes","recycling:plastic_bottles":"yes"}},"type":"Feature"},
	{"geometry":{"coordinates":[8.726908,41.933954],"type":"Point"},"properties":{"name":"Bac Ordures M\u00c3\u00a9nag\u00c3\u00a8res","osm_id":"4332050807","tag":{"addr:city":"Ajaccio","addr:postcode":"20090","addr:street":"domaine du loretto","amenity":"waste_disposal"}},"type":"Feature"},
	{"geometry":{"coordinates":[8.725906,41.912847],"type":"Point"},"properties":{"osm_id":"4542733892","tag":{"amenity":"waste_disposal"}},"type":"Feature"},
	{"geometry":{"coordinates":[8.728357,41.912391],"type":"Point"},"properties":{"osm_id":"4542757996","tag":{"amenity":"waste_basket"}},"type":"Feature"},
	{"geometry":{"coordinates":[8.728092,41.912669],"type":"Point"},"properties":{"osm_id":"4542757997","tag":{"amenity":"waste_basket"}},"type":"Feature"},
	{"geometry":{"coordinates":[8.726657,41.912631],"type":"Point"},"properties":{"osm_id":"4542762893","tag":{"amenity":"waste_basket"}},"type":"Feature"},
	{"geometry":{"coordinates":[8.727293,41.915162],"type":"Point"},"properties":{"osm_id":"4542812893","tag":{"amenity":"recycling","recycling_type":"container"}},"type":"Feature"},
	{"geometry":{"coordinates":[8.727237,41.915126],"type":"Point"},"properties":{"osm_id":"4542858092","tag":{"amenity":"recycling","recycling_type":"container"}},"type":"Feature"},
	{"geometry":{"coordinates":[8.725572,41.912782],"type":"Point"},"properties":{"osm_id":"4549719510","tag":{"amenity":"waste_basket"}},"type":"Feature"},
	{"geometry":{"coordinates":[8.729369,41.912774],"type":"Point"},"properties":{"osm_id":"4549719511","tag":{"amenity":"waste_basket"}},"type":"Feature"},
	{"geometry":{"coordinates":[8.743331,41.937316],"type":"Point"},"properties":{"osm_id":"4903474428","tag":{"amenity":"waste_basket"}},"type":"Feature"},
	{"geometry":{"coordinates":[8.730692,41.917657],"type":"Point"},"properties":{"osm_id":"6465283187","tag":{"amenity":"waste_disposal"}},"type":"Feature"},
	{"geometry":{"coordinates":[8.739389,41.920998],"type":"Point"},"properties":{"osm_id":"7744445207","tag":{"amenity":"waste_basket"}},"type":"Feature"},
	{"geometry":{"coordinates":[8.739341,41.921804],"type":"Point"},"properties":{"osm_id":"7744445216","tag":{"amenity":"waste_basket"}},"type":"Feature"},
	{"geometry":{"coordinates":[8.739251,41.922257],"type":"Point"},"properties":{"osm_id":"7744445221","tag":{"amenity":"waste_basket"}},"type":"Feature"}
]
}
