{
"type": "FeatureCollection",
"features": [
	{"geometry":{"coordinates":[-80.452659,43.417239],"type":"Point"},"properties":{"osm_id":"1619097501","tag":{"addr:housenumber":"21","addr:street":"Manitou Drive","entrance":"yes"}},"type":"Feature"},
	{"geometry":{"coordinates":[-80.490344,43.449223],"type":"Point"},"properties":{"name":"Computer Recycling","osm_id":"2127975052","tag":{"amenity":"recycling","recycling:batteries":"yes","recycling:computers":"yes","recycling_type":"centre","website":"https://www.theworkingcentre.org/computer-recycling/2318-computer-recycling"}},"type":"Feature"},
	{"geometry":{"coordinates":[-80.484659,43.448478],"type":"Point"},"properties":{"name":"Recycle Cycles","osm_id":"2127978499","tag":{"amenity":"recycling","recycling:bicycles":"yes","recycling_type":"centre","service:bicycle:diy":"yes","service:bicycle:repair":"yes","service:bicycle:retail":"yes","service:bicycle:second_hand":"yes","shop":"bicycle"}},"type":"Feature"},
	{"geometry":{"coordinates":[-80.485175,43.449454],"type":"Point"},"properties":{"osm_id":"4960795457","tag":{"amenity":"waste_basket"}},"type":"Feature"},
	{"geometry":{"coordinates":[-80.43302,43.401492],"type":"Point"},"properties":{"osm_id":"5030769190","tag":{"amenity":"waste_basket","colour":"green"}},"type":"Feature"},
	{"geometry":{"coordinates":[-80.436774,43.405154],"type":"Point"},"properties":{"osm_id":"5037501620","tag":{"amenity":"waste_basket","colour":"green"}},"type":"Feature"},
	{"geometry":{"coordinates":[-80.438008,43.406361],"type":"Point"},"properties":{"osm_id":"5037503192","tag":{"amenity":"waste_basket","colour":"green"}},"type":"Feature"},
	{"geometry":{"coordinates":[-80.492319,43.440855],"type":"Point"},"properties":{"osm_id":"6874250019","tag":{"amenity":"waste_basket"}},"type":"Feature"},
	{"geometry":{"coordinates":[-80.503692,43.44404],"type":"Point"},"properties":{"osm_id":"7617097879","tag":{"amenity":"waste_basket"}},"type":"Feature"},
	{"geometry":{"coordinates":[-80.499477,43.443808],"type":"Point"},"properties":{"osm_id":"7949184750","tag":{"amenity":"waste_basket","waste":"trash"}},"type":"Feature"}
]
}
