{
"type": "FeatureCollection",
"features": [
	{"geometry":{"coordinates":[19.119472,50.444378],"type":"Point"},"properties":{"name":"Kosz","osm_id":"4169512787","tag":{"amenity":"waste_basket"}},"type":"Feature"},
	{"geometry":{"coordinates":[19.120385,50.444223],"type":"Point"},"properties":{"name":"Kosz","osm_id":"4169533298","tag":{"amenity":"waste_basket"}},"type":"Feature"},
	{"geometry":{"coordinates":[19.139516,50.424818],"type":"Point"},"properties":{"osm_id":"4690471075","tag":{"amenity":"waste_basket"}},"type":"Feature"},
	{"geometry":{"coordinates":[19.139516,50.424848],"type":"Point"},"properties":{"osm_id":"4690471076","tag":{"amenity":"waste_basket"}},"type":"Feature"},
	{"geometry":{"coordinates":[19.139519,50.424875],"type":"Point"},"properties":{"osm_id":"4690471077","tag":{"amenity":"waste_basket"}},"type":"Feature"},
	{"geometry":{"coordinates":[19.139607,50.446985],"type":"Point"},"properties":{"osm_id":"8663957216","tag":{"amenity":"waste_basket"}},"type":"Feature"},
	{"geometry":{"coordinates":[19.129092,50.44465],"type":"Point"},"properties":{"osm_id":"8663993934","tag":{"amenity":"waste_basket"}},"type":"Feature"},
	{"geometry":{"coordinates":[19.128303,50.43808],"type":"Point"},"properties":{"osm_id":"8663994002","tag":{"amenity":"waste_basket"}},"type":"Feature"},
	{"geometry":{"coordinates":[19.139661,50.437598],"type":"Point"},"properties":{"osm_id":"8663994014","tag":{"amenity":"waste_basket"}},"type":"Feature"},
	{"geometry":{"coordinates":[19.094554,50.451624],"type":"Point"},"properties":{"osm_id":"8663994078","tag":{"amenity":"waste_basket"}},"type":"Feature"},
	{"geometry":{"coordinates":[19.095337,50.451305],"type":"Point"},"properties":{"osm_id":"8663994079","tag":{"amenity":"waste_basket"}},"type":"Feature"},
	{"geometry":{"coordinates":[19.087282,50.436423],"type":"Point"},"properties":{"osm_id":"8780315510","tag":{"amenity":"waste_basket"}},"type":"Feature"},
	{"geometry":{"coordinates":[19.087394,50.436085],"type":"Point"},"properties":{"osm_id":"8780315511","tag":{"amenity":"waste_basket"}},"type":"Feature"},
	{"geometry":{"coordinates":[19.139698,50.406956],"type":"Point"},"properties":{"osm_id":"8811062154","tag":{"amenity":"waste_basket"}},"type":"Feature"},
	{"geometry":{"coordinates":[19.13698,50.405245],"type":"Point"},"properties":{"osm_id":"8811062156","tag":{"amenity":"waste_basket"}},"type":"Feature"},
	{"geometry":{"coordinates":[19.129043,50.44458],"type":"Point"},"properties":{"osm_id":"8909328106","tag":{"amenity":"waste_basket"}},"type":"Feature"},
	{"geometry":{"coordinates":[19.139222,50.42511],"type":"Point"},"properties":{"osm_id":"8943164237","tag":{"amenity":"waste_basket"}},"type":"Feature"},
	{"geometry":{"coordinates":[19.139605,50.424921],"type":"Point"},"properties":{"osm_id":"8943164238","tag":{"amenity":"waste_basket"}},"type":"Feature"},
	{"geometry":{"coordinates":[19.140018,50.424387],"type":"Point"},"properties":{"osm_id":"8943164267","tag":{"amenity":"waste_basket"}},"type":"Feature"},
	{"geometry":{"coordinates":[19.136831,50.414543],"type":"Point"},"properties":{"osm_id":"8955928810","tag":{"amenity":"waste_disposal"}},"type":"Feature"},
	{"geometry":{"coordinates":[19.126929,50.444372],"type":"Point"},"properties":{"osm_id":"8968515127","tag":{"amenity":"waste_basket"}},"type":"Feature"},
	{"geometry":{"coordinates":[19.092748,50.450059],"type":"Point"},"properties":{"osm_id":"8968515148","tag":{"amenity":"waste_basket"}},"type":"Feature"},
	{"geometry":{"coordinates":[19.08635,50.426461],"type":"Point"},"properties":{"osm_id":"8968515149","tag":{"amenity":"waste_basket"}},"type":"Feature"},
	{"geometry":{"coordinates":[19.087322,50.418514],"type":"Point"},"properties":{"osm_id":"8968515153","tag":{"amenity":"waste_basket"}},"type":"Feature"},
	{"geometry":{"coordinates":[19.087309,50.41821],"type":"Point"},"properties":{"osm_id":"8968515154","tag":{"amenity":"waste_basket"}},"type":"Feature"},
	{"geometry":{"coordinates":[19.077088,50.418138],"type":"Point"},"properties":{"osm_id":"8968515155","tag":{"amenity":"waste_basket"}},"type":"Feature"}
]
}
