{
"type": "FeatureCollection",
"features": [
	{"geometry":{"coordinates":[19.082904,50.348198],"type":"Point"},"properties":{"osm_id":"2508100086","tag":{"amenity":"waste_basket"}},"type":"Feature"},
	{"geometry":{"coordinates":[19.082938,50.348273],"type":"Point"},"properties":{"osm_id":"2508100108","tag":{"amenity":"waste_basket"}},"type":"Feature"},
	{"geometry":{"coordinates":[19.144809,50.358623],"type":"Point"},"properties":{"osm_id":"3528019953","tag":{"amenity":"recycling","recycling:glass":"yes","recycling:paper":"yes","recycling:plastic":"yes","recycling_type":"container"}},"type":"Feature"},
	{"geometry":{"coordinates":[19.144885,50.358661],"type":"Point"},"properties":{"osm_id":"3528019956","tag":{"access":"private","amenity":"waste_disposal","waste":"trash"}},"type":"Feature"},
	{"geometry":{"coordinates":[19.083216,50.349011],"type":"Point"},"properties":{"osm_id":"3538705411","tag":{"amenity":"waste_basket"}},"type":"Feature"},
	{"geometry":{"coordinates":[19.140556,50.357152],"type":"Point"},"properties":{"osm_id":"3538705758","tag":{"amenity":"waste_basket"}},"type":"Feature"},
	{"geometry":{"coordinates":[19.140978,50.357464],"type":"Point"},"properties":{"osm_id":"3538705767","tag":{"amenity":"waste_basket"}},"type":"Feature"},
	{"geometry":{"coordinates":[19.137645,50.353073],"type":"Point"},"properties":{"osm_id":"3821445365","tag":{"amenity":"waste_disposal"}},"type":"Feature"},
	{"geometry":{"coordinates":[19.136442,50.352055],"type":"Point"},"properties":{"osm_id":"3841145523","tag":{"amenity":"waste_disposal"}},"type":"Feature"},
	{"geometry":{"coordinates":[19.136474,50.352098],"type":"Point"},"properties":{"osm_id":"3841145529","tag":{"amenity":"recycling","recycling:glass":"yes","recycling:paper":"yes","recycling:plastic":"yes","recycling_type":"container"}},"type":"Feature"},
	{"geometry":{"coordinates":[19.137521,50.353192],"type":"Point"},"properties":{"osm_id":"3841145854","tag":{"amenity":"recycling","recycling:glass":"yes","recycling:paper":"yes","recycling:plastic":"yes","recycling_type":"container"}},"type":"Feature"},
	{"geometry":{"coordinates":[19.136611,50.352012],"type":"Point"},"properties":{"osm_id":"6339715417","tag":{"amenity":"recycling","recycling:clothes":"yes","recycling:glass":"no","recycling:paper":"no","recycling:plastic":"no","recycling_type":"container"}},"type":"Feature"},
	{"geometry":{"coordinates":[19.077673,50.370789],"type":"Point"},"properties":{"osm_id":"7441281051","tag":{"amenity":"waste_disposal"}},"type":"Feature"}
]
}
