{
"type": "FeatureCollection",
"features": [
	{"geometry":{"coordinates":[19.156629,50.295848],"type":"Point"},"properties":{"highway":"mini_roundabout","osm_id":"391102040"},"type":"Feature"},
	{"geometry":{"coordinates":[19.146409,50.32026],"type":"Point"},"properties":{"osm_id":"1865754595","tag":{"amenity":"recycling","recycling:glass":"yes","recycling:paper":"yes","recycling:plastic":"yes","recycling_type":"container"}},"type":"Feature"},
	{"geometry":{"coordinates":[19.132291,50.318679],"type":"Point"},"properties":{"osm_id":"2309893839","tag":{"amenity":"recycling","recycling:glass":"yes","recycling:paper":"yes","recycling:plastic":"yes","recycling_type":"container"}},"type":"Feature"},
	{"geometry":{"coordinates":[19.155039,50.318913],"type":"Point"},"properties":{"osm_id":"2309893840","tag":{"amenity":"recycling","recycling:glass":"yes","recycling:paper":"yes","recycling:plastic":"yes","recycling_type":"container"}},"type":"Feature"},
	{"geometry":{"coordinates":[19.153945,50.319315],"type":"Point"},"properties":{"osm_id":"2309893841","tag":{"amenity":"recycling","recycling:glass":"yes","recycling:paper":"yes","recycling:plastic":"yes","recycling_type":"container"}},"type":"Feature"},
	{"geometry":{"coordinates":[19.155893,50.319614],"type":"Point"},"properties":{"osm_id":"2309893842","tag":{"amenity":"recycling","recycling:glass":"yes","recycling:paper":"yes","recycling:plastic":"yes","recycling_type":"container"}},"type":"Feature"},
	{"geometry":{"coordinates":[19.158202,50.320355],"type":"Point"},"properties":{"osm_id":"2309893843","tag":{"amenity":"recycling","recycling:glass":"yes","recycling:paper":"yes","recycling:plastic":"yes","recycling_type":"container"}},"type":"Feature"},
	{"geometry":{"coordinates":[19.154662,50.321017],"type":"Point"},"properties":{"osm_id":"2309893844","tag":{"amenity":"recycling","recycling:glass":"yes","recycling:paper":"yes","recycling:plastic":"yes","recycling_type":"container"}},"type":"Feature"},
	{"geometry":{"coordinates":[19.155524,50.321048],"type":"Point"},"properties":{"osm_id":"2309893845","tag":{"amenity":"recycling","recycling:glass":"yes","recycling:paper":"yes","recycling:plastic":"yes","recycling_type":"container"}},"type":"Feature"},
	{"geometry":{"coordinates":[19.151994,50.321049],"type":"Point"},"properties":{"osm_id":"2309893846","tag":{"amenity":"recycling","recycling:glass":"yes","recycling:paper":"yes","recycling:plastic":"yes","recycling_type":"container"}},"type":"Feature"},
	{"geometry":{"coordinates":[19.159688,50.326867],"type":"Point"},"properties":{"osm_id":"2309893892","tag":{"amenity":"recycling","recycling:glass":"yes","recycling:paper":"yes","recycling:plastic":"yes","recycling_type":"container"}},"type":"Feature"},
	{"geometry":{"coordinates":[19.158581,50.326883],"type":"Point"},"properties":{"osm_id":"2309893893","tag":{"amenity":"recycling","recycling:glass":"yes","recycling:paper":"yes","recycling:plastic":"yes","recycling_type":"container"}},"type":"Feature"},
	{"geometry":{"coordinates":[19.153318,50.327592],"type":"Point"},"properties":{"osm_id":"2309893979","tag":{"amenity":"recycling","recycling:glass":"yes","recycling:paper":"yes","recycling:plastic":"yes","recycling_type":"container"}},"type":"Feature"},
	{"geometry":{"coordinates":[19.156219,50.327807],"type":"Point"},"properties":{"osm_id":"2309894024","tag":{"amenity":"recycling","recycling:glass":"yes","recycling:paper":"yes","recycling:plastic":"yes","recycling_type":"container"}},"type":"Feature"},
	{"geometry":{"coordinates":[19.151063,50.328157],"type":"Point"},"properties":{"osm_id":"2309894047","tag":{"amenity":"recycling","recycling:glass":"yes","recycling:paper":"yes","recycling:plastic":"yes","recycling_type":"container"}},"type":"Feature"},
	{"geometry":{"coordinates":[19.157246,50.329344],"type":"Point"},"properties":{"osm_id":"2309894077","tag":{"amenity":"recycling","recycling:glass":"yes","recycling:paper":"yes","recycling:plastic":"yes","recycling_type":"container"}},"type":"Feature"},
	{"geometry":{"coordinates":[19.154081,50.329492],"type":"Point"},"properties":{"osm_id":"2309894082","tag":{"amenity":"recycling","recycling:glass":"yes","recycling:paper":"yes","recycling:plastic":"yes","recycling_type":"container"}},"type":"Feature"},
	{"geometry":{"coordinates":[19.156167,50.329888],"type":"Point"},"properties":{"osm_id":"2309894143","tag":{"amenity":"recycling","recycling:glass":"yes","recycling:paper":"yes","recycling:plastic":"yes","recycling_type":"container"}},"type":"Feature"},
	{"geometry":{"coordinates":[19.159383,50.330089],"type":"Point"},"properties":{"osm_id":"2309894202","tag":{"amenity":"recycling","recycling:glass":"yes","recycling:paper":"yes","recycling:plastic":"yes","recycling_type":"container"}},"type":"Feature"},
	{"geometry":{"coordinates":[19.156556,50.319058],"type":"Point"},"properties":{"osm_id":"2319481100","tag":{"amenity":"recycling","recycling:glass":"yes","recycling:paper":"yes","recycling:plastic":"yes","recycling_type":"container"}},"type":"Feature"},
	{"geometry":{"coordinates":[19.129106,50.294109],"type":"Point"},"properties":{"osm_id":"2331554482","tag":{"amenity":"waste_disposal","waste":"trash"}},"type":"Feature"},
	{"geometry":{"coordinates":[19.128996,50.295048],"type":"Point"},"properties":{"osm_id":"2331554483","tag":{"amenity":"waste_disposal"}},"type":"Feature"},
	{"geometry":{"coordinates":[19.155341,50.320275],"type":"Point"},"properties":{"osm_id":"2357540662","tag":{"amenity":"recycling","recycling:glass":"yes","recycling:paper":"yes","recycling:plastic":"yes","recycling_type":"container"}},"type":"Feature"},
	{"geometry":{"coordinates":[19.134701,50.319944],"type":"Point"},"properties":{"osm_id":"2476765905","tag":{"amenity":"waste_basket"}},"type":"Feature"},
	{"geometry":{"coordinates":[19.134855,50.320015],"type":"Point"},"properties":{"osm_id":"2476765907","tag":{"amenity":"waste_basket"}},"type":"Feature"},
	{"geometry":{"coordinates":[19.134693,50.320189],"type":"Point"},"properties":{"osm_id":"2476765910","tag":{"amenity":"waste_basket"}},"type":"Feature"},
	{"geometry":{"coordinates":[19.134849,50.320215],"type":"Point"},"properties":{"osm_id":"2476765912","tag":{"amenity":"waste_basket"}},"type":"Feature"},
	{"geometry":{"coordinates":[19.134639,50.320339],"type":"Point"},"properties":{"osm_id":"2476765914","tag":{"amenity":"waste_basket"}},"type":"Feature"},
	{"geometry":{"coordinates":[19.134825,50.320465],"type":"Point"},"properties":{"osm_id":"2476765917","tag":{"amenity":"waste_basket"}},"type":"Feature"},
	{"geometry":{"coordinates":[19.134598,50.320561],"type":"Point"},"properties":{"osm_id":"2476765920","tag":{"amenity":"waste_basket"}},"type":"Feature"},
	{"geometry":{"coordinates":[19.134553,50.320661],"type":"Point"},"properties":{"osm_id":"2476765923","tag":{"amenity":"waste_basket"}},"type":"Feature"},
	{"geometry":{"coordinates":[19.134735,50.320662],"type":"Point"},"properties":{"osm_id":"2476765924","tag":{"amenity":"waste_basket"}},"type":"Feature"},
	{"geometry":{"coordinates":[19.134484,50.320811],"type":"Point"},"properties":{"osm_id":"2476765931","tag":{"amenity":"waste_basket"}},"type":"Feature"},
	{"geometry":{"coordinates":[19.134696,50.32084],"type":"Point"},"properties":{"osm_id":"2476765933","tag":{"amenity":"waste_basket"}},"type":"Feature"},
	{"geometry":{"coordinates":[19.134426,50.320936],"type":"Point"},"properties":{"osm_id":"2476765937","tag":{"amenity":"waste_basket"}},"type":"Feature"},
	{"geometry":{"coordinates":[19.134299,50.321212],"type":"Point"},"properties":{"osm_id":"2476765946","tag":{"amenity":"waste_basket"}},"type":"Feature"},
	{"geometry":{"coordinates":[19.134384,50.321291],"type":"Point"},"properties":{"osm_id":"2476765950","tag":{"amenity":"waste_basket"}},"type":"Feature"},
	{"geometry":{"coordinates":[19.134491,50.321342],"type":"Point"},"properties":{"osm_id":"2476765952","tag":{"amenity":"waste_basket"}},"type":"Feature"},
	{"geometry":{"coordinates":[19.134357,50.321372],"type":"Point"},"properties":{"osm_id":"2476765953","tag":{"amenity":"waste_basket"}},"type":"Feature"},
	{"geometry":{"coordinates":[19.13429,50.321624],"type":"Point"},"properties":{"osm_id":"2476765960","tag":{"amenity":"waste_basket"}},"type":"Feature"},
	{"geometry":{"coordinates":[19.13409,50.321658],"type":"Point"},"properties":{"osm_id":"2476765962","tag":{"amenity":"waste_basket"}},"type":"Feature"},
	{"geometry":{"coordinates":[19.134285,50.321732],"type":"Point"},"properties":{"osm_id":"2476765964","tag":{"amenity":"waste_basket"}},"type":"Feature"},
	{"geometry":{"coordinates":[19.13207,50.32194],"type":"Point"},"properties":{"osm_id":"2476765977","tag":{"amenity":"waste_basket"}},"type":"Feature"},
	{"geometry":{"coordinates":[19.132253,50.321958],"type":"Point"},"properties":{"osm_id":"2476765982","tag":{"amenity":"waste_basket"}},"type":"Feature"},
	{"geometry":{"coordinates":[19.133929,50.322003],"type":"Point"},"properties":{"osm_id":"2476765989","tag":{"amenity":"waste_basket"}},"type":"Feature"},
	{"geometry":{"coordinates":[19.132993,50.322065],"type":"Point"},"properties":{"osm_id":"2476765995","tag":{"amenity":"waste_basket"}},"type":"Feature"},
	{"geometry":{"coordinates":[19.13333,50.32218],"type":"Point"},"properties":{"osm_id":"2476766004","tag":{"amenity":"waste_basket"}},"type":"Feature"},
	{"geometry":{"coordinates":[19.1339,50.32243],"type":"Point"},"properties":{"osm_id":"2476766010","tag":{"amenity":"waste_basket"}},"type":"Feature"},
	{"geometry":{"coordinates":[19.133679,50.32253],"type":"Point"},"properties":{"osm_id":"2476766013","tag":{"amenity":"waste_basket"}},"type":"Feature"},
	{"geometry":{"coordinates":[19.133793,50.322609],"type":"Point"},"properties":{"osm_id":"2476766017","tag":{"amenity":"waste_basket"}},"type":"Feature"},
	{"geometry":{"coordinates":[19.133604,50.322691],"type":"Point"},"properties":{"osm_id":"2476766021","tag":{"amenity":"waste_basket"}},"type":"Feature"},
	{"geometry":{"coordinates":[19.133665,50.322923],"type":"Point"},"properties":{"osm_id":"2476766029","tag":{"amenity":"waste_basket"}},"type":"Feature"},
	{"geometry":{"coordinates":[19.13362,50.323055],"type":"Point"},"properties":{"osm_id":"2476766038","tag":{"amenity":"waste_basket"}},"type":"Feature"},
	{"geometry":{"coordinates":[19.133278,50.318277],"type":"Point"},"properties":{"osm_id":"2479262557","tag":{"amenity":"waste_basket"}},"type":"Feature"},
	{"geometry":{"coordinates":[19.133017,50.318445],"type":"Point"},"properties":{"osm_id":"2479262598","tag":{"amenity":"waste_basket"}},"type":"Feature"},
	{"geometry":{"coordinates":[19.133181,50.318488],"type":"Point"},"properties":{"osm_id":"2479262607","tag":{"amenity":"waste_basket"}},"type":"Feature"},
	{"geometry":{"coordinates":[19.133257,50.318508],"type":"Point"},"properties":{"osm_id":"2479262615","tag":{"amenity":"waste_basket"}},"type":"Feature"},
	{"geometry":{"coordinates":[19.135323,50.317765],"type":"Point"},"properties":{"osm_id":"2481689545","tag":{"amenity":"waste_basket"}},"type":"Feature"},
	{"geometry":{"coordinates":[19.147199,50.318828],"type":"Point"},"properties":{"osm_id":"2481689557","tag":{"amenity":"waste_basket"}},"type":"Feature"},
	{"geometry":{"coordinates":[19.148393,50.319055],"type":"Point"},"properties":{"osm_id":"2481689576","tag":{"amenity":"waste_basket"}},"type":"Feature"},
	{"geometry":{"coordinates":[19.147132,50.319141],"type":"Point"},"properties":{"osm_id":"2481689582","tag":{"amenity":"waste_basket"}},"type":"Feature"},
	{"geometry":{"coordinates":[19.147795,50.319174],"type":"Point"},"properties":{"osm_id":"2481689585","tag":{"amenity":"waste_basket"}},"type":"Feature"},
	{"geometry":{"coordinates":[19.129041,50.317312],"type":"Point"},"properties":{"osm_id":"2484130988","tag":{"amenity":"waste_basket"}},"type":"Feature"},
	{"geometry":{"coordinates":[19.130482,50.317621],"type":"Point"},"properties":{"osm_id":"2484131013","tag":{"amenity":"waste_basket"}},"type":"Feature"},
	{"geometry":{"coordinates":[19.13067,50.317681],"type":"Point"},"properties":{"osm_id":"2484131020","tag":{"amenity":"waste_basket"}},"type":"Feature"},
	{"geometry":{"coordinates":[19.128259,50.32634],"type":"Point"},"properties":{"osm_id":"2484131118","tag":{"amenity":"waste_basket"}},"type":"Feature"},
	{"geometry":{"coordinates":[19.127995,50.326411],"type":"Point"},"properties":{"osm_id":"2484131134","tag":{"amenity":"waste_basket"}},"type":"Feature"},
	{"geometry":{"coordinates":[19.127846,50.326412],"type":"Point"},"properties":{"osm_id":"2484131135","tag":{"amenity":"waste_basket"}},"type":"Feature"},
	{"geometry":{"coordinates":[19.128108,50.326456],"type":"Point"},"properties":{"osm_id":"2484131143","tag":{"amenity":"waste_basket"}},"type":"Feature"},
	{"geometry":{"coordinates":[19.128217,50.326507],"type":"Point"},"properties":{"osm_id":"2484131153","tag":{"amenity":"waste_basket"}},"type":"Feature"},
	{"geometry":{"coordinates":[19.128058,50.326541],"type":"Point"},"properties":{"osm_id":"2484131159","tag":{"amenity":"waste_basket"}},"type":"Feature"},
	{"geometry":{"coordinates":[19.128408,50.326553],"type":"Point"},"properties":{"osm_id":"2484131164","tag":{"amenity":"waste_basket"}},"type":"Feature"},
	{"geometry":{"coordinates":[19.128137,50.326692],"type":"Point"},"properties":{"osm_id":"2484131197","tag":{"amenity":"waste_basket"}},"type":"Feature"},
	{"geometry":{"coordinates":[19.127207,50.322281],"type":"Point"},"properties":{"osm_id":"2494199948","tag":{"amenity":"waste_basket"}},"type":"Feature"},
	{"geometry":{"coordinates":[19.128246,50.322693],"type":"Point"},"properties":{"osm_id":"2494199979","tag":{"amenity":"waste_basket"}},"type":"Feature"},
	{"geometry":{"coordinates":[19.127597,50.32273],"type":"Point"},"properties":{"osm_id":"2494199983","tag":{"amenity":"waste_basket"}},"type":"Feature"},
	{"geometry":{"coordinates":[19.127152,50.322827],"type":"Point"},"properties":{"osm_id":"2494200002","tag":{"amenity":"waste_basket"}},"type":"Feature"},
	{"geometry":{"coordinates":[19.127661,50.323156],"type":"Point"},"properties":{"osm_id":"2494200044","tag":{"amenity":"waste_basket"}},"type":"Feature"},
	{"geometry":{"coordinates":[19.127825,50.323214],"type":"Point"},"properties":{"osm_id":"2494200056","tag":{"amenity":"waste_basket"}},"type":"Feature"},
	{"geometry":{"coordinates":[19.128164,50.323314],"type":"Point"},"properties":{"osm_id":"2494200065","tag":{"amenity":"waste_basket"}},"type":"Feature"},
	{"geometry":{"coordinates":[19.127526,50.323393],"type":"Point"},"properties":{"osm_id":"2494200087","tag":{"amenity":"waste_basket"}},"type":"Feature"},
	{"geometry":{"coordinates":[19.12792,50.323397],"type":"Point"},"properties":{"osm_id":"2494200091","tag":{"amenity":"waste_basket"}},"type":"Feature"},
	{"geometry":{"coordinates":[19.127073,50.323585],"type":"Point"},"properties":{"osm_id":"2494200142","tag":{"amenity":"waste_basket"}},"type":"Feature"},
	{"geometry":{"coordinates":[19.127492,50.323706],"type":"Point"},"properties":{"osm_id":"2494200191","tag":{"amenity":"waste_basket"}},"type":"Feature"},
	{"geometry":{"coordinates":[19.127054,50.323793],"type":"Point"},"properties":{"osm_id":"2494200234","tag":{"amenity":"waste_basket"}},"type":"Feature"},
	{"geometry":{"coordinates":[19.128664,50.323797],"type":"Point"},"properties":{"osm_id":"2494200237","tag":{"amenity":"waste_basket"}},"type":"Feature"},
	{"geometry":{"coordinates":[19.130181,50.323937],"type":"Point"},"properties":{"osm_id":"2494200324","tag":{"amenity":"waste_basket"}},"type":"Feature"},
	{"geometry":{"coordinates":[19.130595,50.323944],"type":"Point"},"properties":{"osm_id":"2494200330","tag":{"amenity":"waste_basket"}},"type":"Feature"},
	{"geometry":{"coordinates":[19.130351,50.323981],"type":"Point"},"properties":{"osm_id":"2494200343","tag":{"amenity":"waste_basket"}},"type":"Feature"},
	{"geometry":{"coordinates":[19.130428,50.323994],"type":"Point"},"properties":{"osm_id":"2494200351","tag":{"amenity":"waste_basket"}},"type":"Feature"},
	{"geometry":{"coordinates":[19.130509,50.324014],"type":"Point"},"properties":{"osm_id":"2494200358","tag":{"amenity":"waste_basket"}},"type":"Feature"},
	{"geometry":{"coordinates":[19.130546,50.32404],"type":"Point"},"properties":{"osm_id":"2494200360","tag":{"amenity":"waste_basket"}},"type":"Feature"},
	{"geometry":{"coordinates":[19.130266,50.324068],"type":"Point"},"properties":{"osm_id":"2494200369","tag":{"amenity":"waste_basket"}},"type":"Feature"},
	{"geometry":{"coordinates":[19.13034,50.324081],"type":"Point"},"properties":{"osm_id":"2494200376","tag":{"amenity":"waste_basket"}},"type":"Feature"},
	{"geometry":{"coordinates":[19.130576,50.324096],"type":"Point"},"properties":{"osm_id":"2494200390","tag":{"amenity":"waste_basket"}},"type":"Feature"},
	{"geometry":{"coordinates":[19.130486,50.324134],"type":"Point"},"properties":{"osm_id":"2494200418","tag":{"amenity":"waste_basket"}},"type":"Feature"},
	{"geometry":{"coordinates":[19.127013,50.324198],"type":"Point"},"properties":{"osm_id":"2494200463","tag":{"amenity":"waste_basket"}},"type":"Feature"},
	{"geometry":{"coordinates":[19.130678,50.3242],"type":"Point"},"properties":{"osm_id":"2494200465","tag":{"amenity":"waste_basket"}},"type":"Feature"},
	{"geometry":{"coordinates":[19.130629,50.32422],"type":"Point"},"properties":{"osm_id":"2494200484","tag":{"amenity":"waste_basket"}},"type":"Feature"},
	{"geometry":{"coordinates":[19.130737,50.324238],"type":"Point"},"properties":{"osm_id":"2494200532","tag":{"amenity":"waste_basket"}},"type":"Feature"},
	{"geometry":{"coordinates":[19.130869,50.324294],"type":"Point"},"properties":{"osm_id":"2494200566","tag":{"amenity":"waste_basket"}},"type":"Feature"},
	{"geometry":{"coordinates":[19.126983,50.324495],"type":"Point"},"properties":{"osm_id":"2494200663","tag":{"amenity":"waste_basket"}},"type":"Feature"},
	{"geometry":{"coordinates":[19.126964,50.324703],"type":"Point"},"properties":{"osm_id":"2494200710","tag":{"amenity":"waste_basket"}},"type":"Feature"},
	{"geometry":{"coordinates":[19.126929,50.325046],"type":"Point"},"properties":{"osm_id":"2494200776","tag":{"amenity":"waste_basket"}},"type":"Feature"},
	{"geometry":{"coordinates":[19.126918,50.32518],"type":"Point"},"properties":{"osm_id":"2494200823","tag":{"amenity":"waste_basket"}},"type":"Feature"},
	{"geometry":{"coordinates":[19.133101,50.325396],"type":"Point"},"properties":{"osm_id":"2494200921","tag":{"amenity":"waste_basket"}},"type":"Feature"},
	{"geometry":{"coordinates":[19.132916,50.325474],"type":"Point"},"properties":{"osm_id":"2494200942","tag":{"amenity":"waste_basket"}},"type":"Feature"},
	{"geometry":{"coordinates":[19.135098,50.316903],"type":"Point"},"properties":{"osm_id":"2501903531","tag":{"amenity":"waste_basket"}},"type":"Feature"},
	{"geometry":{"coordinates":[19.134671,50.317012],"type":"Point"},"properties":{"osm_id":"2501903532","tag":{"amenity":"waste_basket"}},"type":"Feature"},
	{"geometry":{"coordinates":[19.13483,50.317105],"type":"Point"},"properties":{"osm_id":"2501903533","tag":{"amenity":"waste_basket"}},"type":"Feature"},
	{"geometry":{"coordinates":[19.134705,50.317137],"type":"Point"},"properties":{"osm_id":"2501903534","tag":{"amenity":"waste_basket"}},"type":"Feature"},
	{"geometry":{"coordinates":[19.134813,50.317182],"type":"Point"},"properties":{"osm_id":"2501903535","tag":{"amenity":"waste_basket"}},"type":"Feature"},
	{"geometry":{"coordinates":[19.134946,50.319003],"type":"Point"},"properties":{"osm_id":"2501903542","tag":{"amenity":"waste_basket"}},"type":"Feature"},
	{"geometry":{"coordinates":[19.128896,50.320381],"type":"Point"},"properties":{"osm_id":"2527805588","tag":{"amenity":"waste_basket"}},"type":"Feature"},
	{"geometry":{"coordinates":[19.129122,50.320435],"type":"Point"},"properties":{"osm_id":"2527805590","tag":{"amenity":"waste_basket"}},"type":"Feature"},
	{"geometry":{"coordinates":[19.128629,50.320472],"type":"Point"},"properties":{"osm_id":"2527805595","tag":{"amenity":"waste_basket"}},"type":"Feature"},
	{"geometry":{"coordinates":[19.129222,50.320524],"type":"Point"},"properties":{"osm_id":"2527805596","tag":{"amenity":"waste_basket"}},"type":"Feature"},
	{"geometry":{"coordinates":[19.128866,50.320551],"type":"Point"},"properties":{"osm_id":"2527805597","tag":{"amenity":"waste_basket"}},"type":"Feature"},
	{"geometry":{"coordinates":[19.117917,50.312892],"type":"Point"},"properties":{"osm_id":"2531343638","tag":{"amenity":"waste_basket"}},"type":"Feature"},
	{"geometry":{"coordinates":[19.117955,50.31293],"type":"Point"},"properties":{"osm_id":"2531343646","tag":{"amenity":"waste_basket"}},"type":"Feature"},
	{"geometry":{"coordinates":[19.117999,50.312978],"type":"Point"},"properties":{"osm_id":"2531343652","tag":{"amenity":"waste_basket"}},"type":"Feature"},
	{"geometry":{"coordinates":[19.15511,50.327384],"type":"Point"},"properties":{"osm_id":"2656332146","tag":{"amenity":"waste_basket"}},"type":"Feature"},
	{"geometry":{"coordinates":[19.155625,50.327508],"type":"Point"},"properties":{"osm_id":"2656332394","tag":{"amenity":"waste_basket"}},"type":"Feature"},
	{"geometry":{"coordinates":[19.155031,50.327534],"type":"Point"},"properties":{"osm_id":"2656332430","tag":{"amenity":"waste_basket"}},"type":"Feature"},
	{"geometry":{"coordinates":[19.155716,50.327569],"type":"Point"},"properties":{"osm_id":"2656332482","tag":{"amenity":"waste_basket"}},"type":"Feature"},
	{"geometry":{"coordinates":[19.155371,50.327588],"type":"Point"},"properties":{"osm_id":"2656332528","tag":{"amenity":"waste_basket"}},"type":"Feature"},
	{"geometry":{"coordinates":[19.156252,50.327608],"type":"Point"},"properties":{"osm_id":"2656332547","tag":{"amenity":"waste_basket"}},"type":"Feature"},
	{"geometry":{"coordinates":[19.155318,50.327677],"type":"Point"},"properties":{"osm_id":"2656332645","tag":{"amenity":"waste_basket"}},"type":"Feature"},
	{"geometry":{"coordinates":[19.137263,50.305548],"type":"Point"},"properties":{"osm_id":"2930051916","tag":{"amenity":"waste_basket"}},"type":"Feature"},
	{"geometry":{"coordinates":[19.136961,50.305585],"type":"Point"},"properties":{"osm_id":"2930051918","tag":{"amenity":"waste_basket"}},"type":"Feature"},
	{"geometry":{"coordinates":[19.137228,50.305596],"type":"Point"},"properties":{"osm_id":"2930051921","tag":{"amenity":"waste_basket"}},"type":"Feature"},
	{"geometry":{"coordinates":[19.136773,50.305605],"type":"Point"},"properties":{"osm_id":"2930051924","tag":{"amenity":"waste_basket"}},"type":"Feature"},
	{"geometry":{"coordinates":[19.159016,50.328273],"type":"Point"},"properties":{"osm_id":"2950968250","tag":{"amenity":"waste_basket"}},"type":"Feature"},
	{"geometry":{"coordinates":[19.158904,50.328405],"type":"Point"},"properties":{"osm_id":"2950968303","tag":{"amenity":"waste_basket"}},"type":"Feature"},
	{"geometry":{"coordinates":[19.12464,50.327354],"type":"Point"},"properties":{"osm_id":"3384489825","tag":{"amenity":"waste_basket"}},"type":"Feature"},
	{"geometry":{"coordinates":[19.135768,50.319612],"type":"Point"},"properties":{"osm_id":"3517903974","tag":{"amenity":"waste_basket"}},"type":"Feature"},
	{"geometry":{"coordinates":[19.154663,50.321067],"type":"Point"},"properties":{"osm_id":"3531210080","tag":{"access":"private","amenity":"waste_disposal","waste":"trash"}},"type":"Feature"},
	{"geometry":{"coordinates":[19.133151,50.303443],"type":"Point"},"properties":{"osm_id":"3556973489","tag":{"amenity":"waste_disposal"}},"type":"Feature"},
	{"geometry":{"coordinates":[19.133781,50.303539],"type":"Point"},"properties":{"osm_id":"3556973490","tag":{"amenity":"waste_disposal"}},"type":"Feature"},
	{"geometry":{"coordinates":[19.13493,50.303654],"type":"Point"},"properties":{"osm_id":"3556973492","tag":{"amenity":"waste_disposal"}},"type":"Feature"},
	{"geometry":{"coordinates":[19.136969,50.304252],"type":"Point"},"properties":{"osm_id":"3556974196","tag":{"amenity":"waste_disposal"}},"type":"Feature"},
	{"geometry":{"coordinates":[19.131156,50.304675],"type":"Point"},"properties":{"osm_id":"3556974200","tag":{"amenity":"waste_disposal"}},"type":"Feature"},
	{"geometry":{"coordinates":[19.132065,50.304719],"type":"Point"},"properties":{"osm_id":"3556974202","tag":{"amenity":"waste_disposal"}},"type":"Feature"},
	{"geometry":{"coordinates":[19.136768,50.305103],"type":"Point"},"properties":{"osm_id":"3556974212","tag":{"amenity":"waste_disposal"}},"type":"Feature"},
	{"geometry":{"coordinates":[19.136619,50.305771],"type":"Point"},"properties":{"osm_id":"3556974230","tag":{"amenity":"waste_disposal"}},"type":"Feature"},
	{"geometry":{"coordinates":[19.129727,50.305846],"type":"Point"},"properties":{"osm_id":"3556974234","tag":{"amenity":"waste_disposal"}},"type":"Feature"},
	{"geometry":{"coordinates":[19.131309,50.306025],"type":"Point"},"properties":{"osm_id":"3556974235","tag":{"amenity":"waste_disposal"}},"type":"Feature"},
	{"geometry":{"coordinates":[19.132579,50.306172],"type":"Point"},"properties":{"osm_id":"3556974243","tag":{"amenity":"waste_disposal"}},"type":"Feature"},
	{"geometry":{"coordinates":[19.134734,50.306314],"type":"Point"},"properties":{"osm_id":"3556974246","tag":{"amenity":"waste_disposal"}},"type":"Feature"},
	{"geometry":{"coordinates":[19.141102,50.293764],"type":"Point"},"properties":{"osm_id":"3656563417","tag":{"amenity":"waste_basket"}},"type":"Feature"},
	{"geometry":{"coordinates":[19.128557,50.326714],"type":"Point"},"properties":{"osm_id":"3880016723","tag":{"amenity":"waste_basket"}},"type":"Feature"},
	{"geometry":{"coordinates":[19.150504,50.321441],"type":"Point"},"properties":{"osm_id":"3925515312","tag":{"amenity":"waste_basket"}},"type":"Feature"},
	{"geometry":{"coordinates":[19.082618,50.314356],"type":"Point"},"properties":{"osm_id":"4486214157","tag":{"amenity":"recycling","recycling_type":"container"}},"type":"Feature"},
	{"geometry":{"coordinates":[19.073701,50.322188],"type":"Point"},"properties":{"osm_id":"4627995166","tag":{"amenity":"waste_basket"}},"type":"Feature"},
	{"geometry":{"coordinates":[19.073518,50.321843],"type":"Point"},"properties":{"osm_id":"4627995167","tag":{"amenity":"waste_basket"}},"type":"Feature"},
	{"geometry":{"coordinates":[19.073032,50.321045],"type":"Point"},"properties":{"osm_id":"4627997155","tag":{"amenity":"waste_basket"}},"type":"Feature"},
	{"geometry":{"coordinates":[19.073933,50.321184],"type":"Point"},"properties":{"osm_id":"4636942272","tag":{"amenity":"waste_basket"}},"type":"Feature"},
	{"geometry":{"coordinates":[19.0729,50.320521],"type":"Point"},"properties":{"osm_id":"4636944939","tag":{"amenity":"waste_basket"}},"type":"Feature"},
	{"geometry":{"coordinates":[19.126394,50.294509],"type":"Point"},"properties":{"osm_id":"4946110100","tag":{"amenity":"waste_disposal"}},"type":"Feature"},
	{"geometry":{"coordinates":[19.072774,50.320275],"type":"Point"},"properties":{"osm_id":"4996329147","tag":{"amenity":"waste_basket"}},"type":"Feature"},
	{"geometry":{"coordinates":[19.129661,50.29448],"type":"Point"},"properties":{"osm_id":"4999877083","tag":{"amenity":"waste_basket","waste":"dog_excrement"}},"type":"Feature"},
	{"geometry":{"coordinates":[19.075784,50.31862],"type":"Point"},"properties":{"osm_id":"5072857920","tag":{"amenity":"waste_basket"}},"type":"Feature"},
	{"geometry":{"coordinates":[19.077411,50.319464],"type":"Point"},"properties":{"osm_id":"5072858154","tag":{"amenity":"waste_basket"}},"type":"Feature"},
	{"geometry":{"coordinates":[19.081019,50.315305],"type":"Point"},"properties":{"osm_id":"5072858155","tag":{"amenity":"waste_basket"}},"type":"Feature"},
	{"geometry":{"coordinates":[19.076865,50.319532],"type":"Point"},"properties":{"osm_id":"5072858682","tag":{"amenity":"waste_basket"}},"type":"Feature"},
	{"geometry":{"coordinates":[19.078702,50.316211],"type":"Point"},"properties":{"osm_id":"5072858683","tag":{"amenity":"waste_basket"}},"type":"Feature"},
	{"geometry":{"coordinates":[19.077982,50.319514],"type":"Point"},"properties":{"osm_id":"5072859021","tag":{"amenity":"waste_basket"}},"type":"Feature"},
	{"geometry":{"coordinates":[19.074903,50.324333],"type":"Point"},"properties":{"osm_id":"5272366959","tag":{"amenity":"waste_basket"}},"type":"Feature"},
	{"geometry":{"coordinates":[19.076954,50.324625],"type":"Point"},"properties":{"osm_id":"5272384011","tag":{"amenity":"waste_basket"}},"type":"Feature"},
	{"geometry":{"coordinates":[19.076896,50.324508],"type":"Point"},"properties":{"osm_id":"5272385771","tag":{"amenity":"waste_basket"}},"type":"Feature"},
	{"geometry":{"coordinates":[19.077095,50.324452],"type":"Point"},"properties":{"osm_id":"5272387054","tag":{"amenity":"waste_basket"}},"type":"Feature"},
	{"geometry":{"coordinates":[19.07707,50.324392],"type":"Point"},"properties":{"osm_id":"5272387056","tag":{"amenity":"waste_basket"}},"type":"Feature"},
	{"geometry":{"coordinates":[19.134248,50.296327],"type":"Point"},"properties":{"osm_id":"5595026475","tag":{"amenity":"waste_basket","waste":"trash"}},"type":"Feature"},
	{"geometry":{"coordinates":[19.132489,50.296885],"type":"Point"},"properties":{"osm_id":"5614154332","tag":{"amenity":"waste_disposal","waste":"trash"}},"type":"Feature"},
	{"geometry":{"coordinates":[19.100132,50.318811],"type":"Point"},"properties":{"osm_id":"5706167791","tag":{"amenity":"waste_basket","waste":"trash"}},"type":"Feature"},
	{"geometry":{"coordinates":[19.110714,50.322645],"type":"Point"},"properties":{"osm_id":"6195570989","tag":{"amenity":"recycling","recycling_type":"container"}},"type":"Feature"},
	{"geometry":{"coordinates":[19.134576,50.297856],"type":"Point"},"properties":{"osm_id":"6318568729","tag":{"amenity":"waste_basket","waste":"trash"}},"type":"Feature"},
	{"geometry":{"coordinates":[19.133822,50.29744],"type":"Point"},"properties":{"osm_id":"6318568730","tag":{"amenity":"waste_basket","waste":"trash"}},"type":"Feature"},
	{"geometry":{"coordinates":[19.134311,50.296773],"type":"Point"},"properties":{"osm_id":"6318568731","tag":{"amenity":"waste_basket","waste":"trash"}},"type":"Feature"},
	{"geometry":{"coordinates":[19.133091,50.292969],"type":"Point"},"properties":{"osm_id":"6318568732","tag":{"amenity":"waste_basket","waste":"trash"}},"type":"Feature"},
	{"geometry":{"coordinates":[19.133491,50.292892],"type":"Point"},"properties":{"osm_id":"6318568733","tag":{"amenity":"waste_basket","waste":"trash"}},"type":"Feature"},
	{"geometry":{"coordinates":[19.133224,50.29371],"type":"Point"},"properties":{"osm_id":"6318568734","tag":{"amenity":"waste_basket","waste":"trash"}},"type":"Feature"},
	{"geometry":{"coordinates":[19.133678,50.293711],"type":"Point"},"properties":{"osm_id":"6318568735","tag":{"amenity":"waste_basket","waste":"trash"}},"type":"Feature"},
	{"geometry":{"coordinates":[19.13519,50.298933],"type":"Point"},"properties":{"osm_id":"6318578254","tag":{"amenity":"waste_basket","waste":"trash"}},"type":"Feature"},
	{"geometry":{"coordinates":[19.116338,50.321146],"type":"Point"},"properties":{"osm_id":"6957127576","tag":{"amenity":"recycling","recycling_type":"container"}},"type":"Feature"},
	{"geometry":{"coordinates":[19.115959,50.322397],"type":"Point"},"properties":{"osm_id":"6957170389","tag":{"amenity":"recycling","recycling_type":"container"}},"type":"Feature"},
	{"geometry":{"coordinates":[19.115981,50.322397],"type":"Point"},"properties":{"osm_id":"6957170390","tag":{"amenity":"waste_basket"}},"type":"Feature"},
	{"geometry":{"coordinates":[19.113795,50.321351],"type":"Point"},"properties":{"osm_id":"7017965273","tag":{"amenity":"waste_basket","waste":"dog_excrement"}},"type":"Feature"},
	{"geometry":{"coordinates":[19.114243,50.321276],"type":"Point"},"properties":{"osm_id":"7019144620","tag":{"amenity":"waste_basket"}},"type":"Feature"},
	{"geometry":{"coordinates":[19.115065,50.321314],"type":"Point"},"properties":{"osm_id":"7019144623","tag":{"amenity":"waste_basket"}},"type":"Feature"},
	{"geometry":{"coordinates":[19.113247,50.321964],"type":"Point"},"properties":{"osm_id":"7019197539","tag":{"amenity":"waste_basket","waste":"dog_excrement"}},"type":"Feature"},
	{"geometry":{"coordinates":[19.113339,50.320681],"type":"Point"},"properties":{"osm_id":"7026454557","tag":{"amenity":"waste_disposal"}},"type":"Feature"},
	{"geometry":{"coordinates":[19.113352,50.320685],"type":"Point"},"properties":{"osm_id":"7026454558","tag":{"amenity":"recycling","recycling_type":"container"}},"type":"Feature"},
	{"geometry":{"coordinates":[19.112886,50.321269],"type":"Point"},"properties":{"osm_id":"7026454559","tag":{"amenity":"waste_disposal"}},"type":"Feature"},
	{"geometry":{"coordinates":[19.110065,50.322588],"type":"Point"},"properties":{"osm_id":"7056283904","tag":{"amenity":"recycling","recycling_type":"container"}},"type":"Feature"},
	{"geometry":{"coordinates":[19.109474,50.322518],"type":"Point"},"properties":{"osm_id":"7056283905","tag":{"amenity":"recycling","recycling_type":"container"}},"type":"Feature"},
	{"geometry":{"coordinates":[19.109478,50.322506],"type":"Point"},"properties":{"osm_id":"7056283906","tag":{"amenity":"waste_disposal"}},"type":"Feature"},
	{"geometry":{"coordinates":[19.110069,50.322582],"type":"Point"},"properties":{"osm_id":"7056283907","tag":{"amenity":"waste_disposal"}},"type":"Feature"},
	{"geometry":{"coordinates":[19.110717,50.322637],"type":"Point"},"properties":{"osm_id":"7056283908","tag":{"amenity":"waste_disposal"}},"type":"Feature"},
	{"geometry":{"coordinates":[19.112903,50.321265],"type":"Point"},"properties":{"osm_id":"7056283909","tag":{"amenity":"recycling","recycling:glass":"yes","recycling:glass_bottles":"yes","recycling:plastic":"yes","recycling_type":"container"}},"type":"Feature"},
	{"geometry":{"coordinates":[19.11538,50.320007],"type":"Point"},"properties":{"osm_id":"7056294874","tag":{"amenity":"waste_disposal","waste":"mixed"}},"type":"Feature"},
	{"geometry":{"coordinates":[19.115406,50.320014],"type":"Point"},"properties":{"osm_id":"7056294875","tag":{"amenity":"recycling","recycling:glass":"yes","recycling:glass_bottles":"yes","recycling:paper":"yes","recycling:plastic":"yes","recycling:plastic_bottles":"yes","recycling_type":"container"}},"type":"Feature"},
	{"geometry":{"coordinates":[19.117193,50.32107],"type":"Point"},"properties":{"osm_id":"7056294876","tag":{"amenity":"waste_disposal"}},"type":"Feature"},
	{"geometry":{"coordinates":[19.117194,50.321094],"type":"Point"},"properties":{"osm_id":"7056294877","tag":{"amenity":"recycling","recycling_type":"container"}},"type":"Feature"},
	{"geometry":{"coordinates":[19.115181,50.320298],"type":"Point"},"properties":{"osm_id":"7056304418","tag":{"access":"private","amenity":"waste_disposal"}},"type":"Feature"},
	{"geometry":{"coordinates":[19.115177,50.320292],"type":"Point"},"properties":{"osm_id":"7056304421","tag":{"amenity":"recycling","recycling:glass":"yes","recycling:glass_bottles":"yes","recycling:paper":"yes","recycling:plastic":"yes","recycling_type":"container"}},"type":"Feature"},
	{"geometry":{"coordinates":[19.114497,50.320966],"type":"Point"},"properties":{"osm_id":"7056304422","tag":{"amenity":"recycling","recycling:glass":"yes","recycling:glass_bottles":"yes","recycling:paper":"yes","recycling_type":"container"}},"type":"Feature"},
	{"geometry":{"coordinates":[19.114499,50.32096],"type":"Point"},"properties":{"osm_id":"7056304423","tag":{"access":"private","amenity":"waste_disposal"}},"type":"Feature"},
	{"geometry":{"coordinates":[19.115542,50.320765],"type":"Point"},"properties":{"osm_id":"7056304424","tag":{"access":"private","amenity":"waste_disposal","operator":"Wsp\u00c3\u00b3lnota Mieszkaniowa \u00c5\u009amigielskiego 7a"}},"type":"Feature"},
	{"geometry":{"coordinates":[19.116485,50.320485],"type":"Point"},"properties":{"osm_id":"7056318686","tag":{"amenity":"recycling","recycling_type":"container"}},"type":"Feature"},
	{"geometry":{"coordinates":[19.116481,50.320502],"type":"Point"},"properties":{"osm_id":"7056318687","tag":{"amenity":"waste_disposal"}},"type":"Feature"},
	{"geometry":{"coordinates":[19.132946,50.319842],"type":"Point"},"properties":{"osm_id":"7056318688","tag":{"amenity":"waste_disposal"}},"type":"Feature"},
	{"geometry":{"coordinates":[19.132978,50.31985],"type":"Point"},"properties":{"osm_id":"7056318689","tag":{"amenity":"recycling","recycling_type":"container"}},"type":"Feature"},
	{"geometry":{"coordinates":[19.112086,50.320698],"type":"Point"},"properties":{"osm_id":"7056446935","tag":{"amenity":"recycling","recycling_type":"container"}},"type":"Feature"},
	{"geometry":{"coordinates":[19.112118,50.320683],"type":"Point"},"properties":{"osm_id":"7056446936","tag":{"amenity":"waste_disposal"}},"type":"Feature"},
	{"geometry":{"coordinates":[19.110373,50.320126],"type":"Point"},"properties":{"osm_id":"7056446937","tag":{"amenity":"waste_disposal"}},"type":"Feature"},
	{"geometry":{"coordinates":[19.110412,50.320119],"type":"Point"},"properties":{"osm_id":"7056446938","tag":{"amenity":"recycling","recycling_type":"container"}},"type":"Feature"},
	{"geometry":{"coordinates":[19.114152,50.322799],"type":"Point"},"properties":{"osm_id":"7056454012","tag":{"amenity":"recycling","recycling_type":"container"}},"type":"Feature"},
	{"geometry":{"coordinates":[19.114145,50.322787],"type":"Point"},"properties":{"osm_id":"7056454013","tag":{"amenity":"waste_disposal"}},"type":"Feature"},
	{"geometry":{"coordinates":[19.116855,50.322797],"type":"Point"},"properties":{"osm_id":"7056469523","tag":{"amenity":"waste_disposal"}},"type":"Feature"},
	{"geometry":{"coordinates":[19.116848,50.322785],"type":"Point"},"properties":{"osm_id":"7056469524","tag":{"amenity":"recycling","recycling_type":"container"}},"type":"Feature"},
	{"geometry":{"coordinates":[19.115908,50.322908],"type":"Point"},"properties":{"osm_id":"7056469525","tag":{"amenity":"recycling","recycling_type":"container"}},"type":"Feature"},
	{"geometry":{"coordinates":[19.115888,50.322912],"type":"Point"},"properties":{"osm_id":"7056469526","tag":{"amenity":"waste_disposal"}},"type":"Feature"},
	{"geometry":{"coordinates":[19.11778,50.323696],"type":"Point"},"properties":{"osm_id":"7056469527","tag":{"amenity":"waste_disposal"}},"type":"Feature"},
	{"geometry":{"coordinates":[19.11722,50.32365],"type":"Point"},"properties":{"osm_id":"7056469528","tag":{"amenity":"waste_disposal"}},"type":"Feature"},
	{"geometry":{"coordinates":[19.117252,50.32365],"type":"Point"},"properties":{"osm_id":"7056469529","tag":{"amenity":"recycling","recycling_type":"container"}},"type":"Feature"},
	{"geometry":{"coordinates":[19.11778,50.323684],"type":"Point"},"properties":{"osm_id":"7056469530","tag":{"amenity":"recycling","recycling_type":"container"}},"type":"Feature"},
	{"geometry":{"coordinates":[19.118978,50.323292],"type":"Point"},"properties":{"osm_id":"7056469531","tag":{"amenity":"recycling","recycling_type":"container"}},"type":"Feature"},
	{"geometry":{"coordinates":[19.119003,50.323285],"type":"Point"},"properties":{"osm_id":"7056469532","tag":{"amenity":"waste_disposal"}},"type":"Feature"},
	{"geometry":{"coordinates":[19.118716,50.32298],"type":"Point"},"properties":{"osm_id":"7056469533","tag":{"amenity":"waste_disposal"}},"type":"Feature"},
	{"geometry":{"coordinates":[19.118743,50.322975],"type":"Point"},"properties":{"osm_id":"7056469534","tag":{"amenity":"recycling","recycling_type":"container"}},"type":"Feature"},
	{"geometry":{"coordinates":[19.118322,50.322611],"type":"Point"},"properties":{"osm_id":"7056469535","tag":{"amenity":"recycling","recycling_type":"container"}},"type":"Feature"},
	{"geometry":{"coordinates":[19.118377,50.322604],"type":"Point"},"properties":{"osm_id":"7056469536","tag":{"amenity":"waste_disposal"}},"type":"Feature"},
	{"geometry":{"coordinates":[19.118559,50.320766],"type":"Point"},"properties":{"osm_id":"7056469537","tag":{"amenity":"waste_disposal"}},"type":"Feature"},
	{"geometry":{"coordinates":[19.118589,50.32077],"type":"Point"},"properties":{"osm_id":"7056469538","tag":{"amenity":"recycling","recycling_type":"container"}},"type":"Feature"},
	{"geometry":{"coordinates":[19.11904,50.320284],"type":"Point"},"properties":{"osm_id":"7056469539","tag":{"amenity":"recycling","recycling_type":"container"}},"type":"Feature"},
	{"geometry":{"coordinates":[19.119061,50.320283],"type":"Point"},"properties":{"osm_id":"7056469540","tag":{"amenity":"waste_disposal"}},"type":"Feature"},
	{"geometry":{"coordinates":[19.119028,50.319492],"type":"Point"},"properties":{"osm_id":"7056469541","tag":{"amenity":"waste_disposal"}},"type":"Feature"},
	{"geometry":{"coordinates":[19.119057,50.319496],"type":"Point"},"properties":{"osm_id":"7056469542","tag":{"amenity":"recycling","recycling_type":"container"}},"type":"Feature"},
	{"geometry":{"coordinates":[19.116826,50.31692],"type":"Point"},"properties":{"osm_id":"7056469543","tag":{"amenity":"recycling","recycling_type":"container"}},"type":"Feature"},
	{"geometry":{"coordinates":[19.116859,50.316931],"type":"Point"},"properties":{"osm_id":"7056469544","tag":{"amenity":"waste_disposal"}},"type":"Feature"},
	{"geometry":{"coordinates":[19.117076,50.316564],"type":"Point"},"properties":{"osm_id":"7056469545","tag":{"amenity":"waste_disposal"}},"type":"Feature"},
	{"geometry":{"coordinates":[19.117087,50.316551],"type":"Point"},"properties":{"osm_id":"7056469546","tag":{"amenity":"recycling","recycling_type":"container"}},"type":"Feature"},
	{"geometry":{"coordinates":[19.114908,50.31641],"type":"Point"},"properties":{"osm_id":"7056469547","tag":{"amenity":"recycling","recycling_type":"container"}},"type":"Feature"},
	{"geometry":{"coordinates":[19.11492,50.316401],"type":"Point"},"properties":{"osm_id":"7056469548","tag":{"amenity":"waste_disposal"}},"type":"Feature"},
	{"geometry":{"coordinates":[19.112798,50.316562],"type":"Point"},"properties":{"osm_id":"7056469549","tag":{"amenity":"waste_disposal"}},"type":"Feature"},
	{"geometry":{"coordinates":[19.112805,50.316545],"type":"Point"},"properties":{"osm_id":"7056469550","tag":{"amenity":"recycling","recycling_type":"container"}},"type":"Feature"},
	{"geometry":{"coordinates":[19.113428,50.314994],"type":"Point"},"properties":{"osm_id":"7056469551","tag":{"amenity":"recycling","recycling_type":"container"}},"type":"Feature"},
	{"geometry":{"coordinates":[19.113463,50.315],"type":"Point"},"properties":{"osm_id":"7056469552","tag":{"amenity":"waste_disposal"}},"type":"Feature"},
	{"geometry":{"coordinates":[19.112192,50.314624],"type":"Point"},"properties":{"osm_id":"7056469553","tag":{"amenity":"waste_disposal"}},"type":"Feature"},
	{"geometry":{"coordinates":[19.112203,50.314615],"type":"Point"},"properties":{"osm_id":"7056469554","tag":{"amenity":"recycling","recycling_type":"container"}},"type":"Feature"},
	{"geometry":{"coordinates":[19.110968,50.316229],"type":"Point"},"properties":{"osm_id":"7056469555","tag":{"amenity":"recycling","recycling_type":"container"}},"type":"Feature"},
	{"geometry":{"coordinates":[19.111,50.316242],"type":"Point"},"properties":{"osm_id":"7056469556","tag":{"amenity":"waste_disposal"}},"type":"Feature"},
	{"geometry":{"coordinates":[19.110737,50.316999],"type":"Point"},"properties":{"osm_id":"7056469557","tag":{"amenity":"waste_disposal"}},"type":"Feature"},
	{"geometry":{"coordinates":[19.110722,50.316989],"type":"Point"},"properties":{"osm_id":"7056469558","tag":{"amenity":"recycling","recycling_type":"container"}},"type":"Feature"},
	{"geometry":{"coordinates":[19.110583,50.317609],"type":"Point"},"properties":{"osm_id":"7056469559","tag":{"amenity":"waste_disposal"}},"type":"Feature"},
	{"geometry":{"coordinates":[19.110605,50.31762],"type":"Point"},"properties":{"osm_id":"7056469560","tag":{"amenity":"recycling","recycling_type":"container"}},"type":"Feature"},
	{"geometry":{"coordinates":[19.110298,50.318261],"type":"Point"},"properties":{"osm_id":"7056469561","tag":{"amenity":"recycling","recycling_type":"container"}},"type":"Feature"},
	{"geometry":{"coordinates":[19.110325,50.318269],"type":"Point"},"properties":{"osm_id":"7056469562","tag":{"amenity":"waste_disposal"}},"type":"Feature"},
	{"geometry":{"coordinates":[19.111013,50.318256],"type":"Point"},"properties":{"osm_id":"7056469563","tag":{"amenity":"waste_disposal"}},"type":"Feature"},
	{"geometry":{"coordinates":[19.11104,50.318263],"type":"Point"},"properties":{"osm_id":"7056469564","tag":{"amenity":"recycling","recycling_type":"container"}},"type":"Feature"},
	{"geometry":{"coordinates":[19.111614,50.318395],"type":"Point"},"properties":{"osm_id":"7056469565","tag":{"amenity":"recycling","recycling_type":"container"}},"type":"Feature"},
	{"geometry":{"coordinates":[19.111641,50.3184],"type":"Point"},"properties":{"osm_id":"7056469566","tag":{"amenity":"waste_disposal"}},"type":"Feature"},
	{"geometry":{"coordinates":[19.112585,50.318862],"type":"Point"},"properties":{"osm_id":"7056469567","tag":{"amenity":"waste_disposal"}},"type":"Feature"},
	{"geometry":{"coordinates":[19.112569,50.31885],"type":"Point"},"properties":{"osm_id":"7056469568","tag":{"amenity":"recycling","recycling_type":"container"}},"type":"Feature"},
	{"geometry":{"coordinates":[19.114398,50.318586],"type":"Point"},"properties":{"osm_id":"7056469569","tag":{"amenity":"recycling","recycling_type":"container"}},"type":"Feature"},
	{"geometry":{"coordinates":[19.11442,50.318581],"type":"Point"},"properties":{"osm_id":"7056469570","tag":{"amenity":"waste_disposal"}},"type":"Feature"},
	{"geometry":{"coordinates":[19.11444,50.318014],"type":"Point"},"properties":{"osm_id":"7056469571","tag":{"amenity":"waste_disposal"}},"type":"Feature"},
	{"geometry":{"coordinates":[19.114461,50.318024],"type":"Point"},"properties":{"osm_id":"7056469572","tag":{"amenity":"recycling","recycling_type":"container"}},"type":"Feature"},
	{"geometry":{"coordinates":[19.116097,50.318327],"type":"Point"},"properties":{"osm_id":"7056469573","tag":{"amenity":"recycling","recycling_type":"container"}},"type":"Feature"},
	{"geometry":{"coordinates":[19.116124,50.31833],"type":"Point"},"properties":{"osm_id":"7056469574","tag":{"amenity":"waste_disposal"}},"type":"Feature"},
	{"geometry":{"coordinates":[19.116274,50.318991],"type":"Point"},"properties":{"osm_id":"7056469575","tag":{"amenity":"waste_disposal"}},"type":"Feature"},
	{"geometry":{"coordinates":[19.116281,50.318974],"type":"Point"},"properties":{"osm_id":"7056469576","tag":{"amenity":"recycling","recycling_type":"container"}},"type":"Feature"},
	{"geometry":{"coordinates":[19.132136,50.320566],"type":"Point"},"properties":{"osm_id":"7056497633","tag":{"amenity":"recycling","recycling_type":"container"}},"type":"Feature"},
	{"geometry":{"coordinates":[19.132162,50.320574],"type":"Point"},"properties":{"osm_id":"7056497634","tag":{"amenity":"waste_disposal"}},"type":"Feature"},
	{"geometry":{"coordinates":[19.10135,50.306828],"type":"Point"},"properties":{"osm_id":"7073233572","tag":{"amenity":"recycling","recycling_type":"container"}},"type":"Feature"},
	{"geometry":{"coordinates":[19.128851,50.294374],"type":"Point"},"properties":{"osm_id":"7077866821","tag":{"amenity":"waste_basket","waste":"dog_excrement"}},"type":"Feature"},
	{"geometry":{"coordinates":[19.104345,50.301712],"type":"Point"},"properties":{"osm_id":"7088292964","tag":{"amenity":"recycling","recycling_type":"container"}},"type":"Feature"},
	{"geometry":{"coordinates":[19.104386,50.301714],"type":"Point"},"properties":{"osm_id":"7088292965","tag":{"amenity":"recycling","recycling_type":"container"}},"type":"Feature"},
	{"geometry":{"coordinates":[19.132188,50.296236],"type":"Point"},"properties":{"osm_id":"7146780157","tag":{"amenity":"waste_disposal","waste":"trash"}},"type":"Feature"},
	{"geometry":{"coordinates":[19.11421,50.328939],"type":"Point"},"properties":{"osm_id":"7196146884","tag":{"amenity":"waste_basket"}},"type":"Feature"},
	{"geometry":{"coordinates":[19.114237,50.328925],"type":"Point"},"properties":{"osm_id":"7196157185","tag":{"amenity":"recycling","recycling_type":"container"}},"type":"Feature"},
	{"geometry":{"coordinates":[19.131512,50.318318],"type":"Point"},"properties":{"osm_id":"7213796418","tag":{"amenity":"waste_disposal"}},"type":"Feature"},
	{"geometry":{"coordinates":[19.131485,50.318317],"type":"Point"},"properties":{"osm_id":"7213796419","tag":{"amenity":"recycling","recycling_type":"container"}},"type":"Feature"},
	{"geometry":{"coordinates":[19.156695,50.319643],"type":"Point"},"properties":{"osm_id":"7247293551","tag":{"amenity":"waste_basket"}},"type":"Feature"},
	{"geometry":{"coordinates":[19.156711,50.319635],"type":"Point"},"properties":{"osm_id":"7247293552","tag":{"amenity":"recycling","recycling_type":"container"}},"type":"Feature"},
	{"geometry":{"coordinates":[19.132619,50.319229],"type":"Point"},"properties":{"osm_id":"7469422283","tag":{"amenity":"waste_disposal"}},"type":"Feature"},
	{"geometry":{"coordinates":[19.132651,50.31924],"type":"Point"},"properties":{"osm_id":"7469422284","tag":{"amenity":"recycling","recycling_type":"container"}},"type":"Feature"},
	{"geometry":{"coordinates":[19.115155,50.319491],"type":"Point"},"properties":{"osm_id":"7485477480","tag":{"amenity":"waste_basket"}},"type":"Feature"},
	{"geometry":{"coordinates":[19.119615,50.32408],"type":"Point"},"properties":{"osm_id":"7485969832","tag":{"amenity":"waste_disposal"}},"type":"Feature"},
	{"geometry":{"coordinates":[19.119641,50.324074],"type":"Point"},"properties":{"osm_id":"7485969833","tag":{"amenity":"recycling","recycling_type":"container"}},"type":"Feature"},
	{"geometry":{"coordinates":[19.131095,50.321166],"type":"Point"},"properties":{"osm_id":"7548360898","tag":{"amenity":"waste_disposal"}},"type":"Feature"},
	{"geometry":{"coordinates":[19.131117,50.321183],"type":"Point"},"properties":{"osm_id":"7548360899","tag":{"amenity":"recycling","recycling_type":"container"}},"type":"Feature"},
	{"geometry":{"coordinates":[19.132269,50.318676],"type":"Point"},"properties":{"osm_id":"7548374631","tag":{"amenity":"waste_disposal"}},"type":"Feature"},
	{"geometry":{"coordinates":[19.110792,50.322564],"type":"Point"},"properties":{"osm_id":"7580211515","tag":{"amenity":"waste_disposal"}},"type":"Feature"},
	{"geometry":{"coordinates":[19.110752,50.322552],"type":"Point"},"properties":{"osm_id":"7580211516","tag":{"amenity":"recycling","recycling_type":"container"}},"type":"Feature"},
	{"geometry":{"coordinates":[19.110952,50.323735],"type":"Point"},"properties":{"osm_id":"7591944178","tag":{"amenity":"waste_basket"}},"type":"Feature"},
	{"geometry":{"coordinates":[19.116547,50.335059],"type":"Point"},"properties":{"osm_id":"7628876276","tag":{"amenity":"recycling","recycling_type":"container"}},"type":"Feature"},
	{"geometry":{"coordinates":[19.116544,50.335045],"type":"Point"},"properties":{"osm_id":"7628876277","tag":{"amenity":"waste_disposal"}},"type":"Feature"},
	{"geometry":{"coordinates":[19.115367,50.335545],"type":"Point"},"properties":{"osm_id":"7628876278","tag":{"amenity":"waste_disposal"}},"type":"Feature"},
	{"geometry":{"coordinates":[19.115318,50.335554],"type":"Point"},"properties":{"osm_id":"7628876279","tag":{"amenity":"recycling","recycling_type":"container"}},"type":"Feature"},
	{"geometry":{"coordinates":[19.114358,50.334878],"type":"Point"},"properties":{"osm_id":"7628876281","tag":{"amenity":"recycling","recycling_type":"container"}},"type":"Feature"},
	{"geometry":{"coordinates":[19.114358,50.334857],"type":"Point"},"properties":{"osm_id":"7628876282","tag":{"amenity":"waste_disposal"}},"type":"Feature"},
	{"geometry":{"coordinates":[19.136722,50.32473],"type":"Point"},"properties":{"osm_id":"7668681357","tag":{"amenity":"waste_disposal"}},"type":"Feature"},
	{"geometry":{"coordinates":[19.136702,50.324736],"type":"Point"},"properties":{"osm_id":"7668681358","tag":{"amenity":"recycling","recycling_type":"container"}},"type":"Feature"},
	{"geometry":{"coordinates":[19.108523,50.322756],"type":"Point"},"properties":{"osm_id":"7670858827","tag":{"amenity":"waste_disposal"}},"type":"Feature"},
	{"geometry":{"coordinates":[19.090848,50.344789],"type":"Point"},"properties":{"osm_id":"7676536709","tag":{"amenity":"waste_disposal"}},"type":"Feature"},
	{"geometry":{"coordinates":[19.13428,50.330312],"type":"Point"},"properties":{"osm_id":"7725524680","tag":{"amenity":"waste_basket","waste":"trash"}},"type":"Feature"},
	{"geometry":{"coordinates":[19.133685,50.330543],"type":"Point"},"properties":{"osm_id":"7725524682","tag":{"amenity":"waste_basket","waste":"trash"}},"type":"Feature"},
	{"geometry":{"coordinates":[19.133655,50.330502],"type":"Point"},"properties":{"osm_id":"7725524683","tag":{"amenity":"waste_basket","waste":"trash"}},"type":"Feature"},
	{"geometry":{"coordinates":[19.133752,50.330232],"type":"Point"},"properties":{"osm_id":"7725524684","tag":{"amenity":"waste_basket","waste":"trash"}},"type":"Feature"},
	{"geometry":{"coordinates":[19.134499,50.329859],"type":"Point"},"properties":{"osm_id":"7725535085","tag":{"amenity":"waste_basket","waste":"trash"}},"type":"Feature"},
	{"geometry":{"coordinates":[19.134625,50.329634],"type":"Point"},"properties":{"osm_id":"7725535086","tag":{"amenity":"waste_basket","waste":"trash"}},"type":"Feature"},
	{"geometry":{"coordinates":[19.134417,50.329748],"type":"Point"},"properties":{"osm_id":"7725535087","tag":{"amenity":"waste_basket","waste":"trash"}},"type":"Feature"},
	{"geometry":{"coordinates":[19.134373,50.32971],"type":"Point"},"properties":{"osm_id":"7725535088","tag":{"amenity":"waste_basket","waste":"trash"}},"type":"Feature"},
	{"geometry":{"coordinates":[19.13421,50.329531],"type":"Point"},"properties":{"osm_id":"7725535089","tag":{"amenity":"waste_basket","waste":"trash"}},"type":"Feature"},
	{"geometry":{"coordinates":[19.133686,50.329624],"type":"Point"},"properties":{"osm_id":"7725535090","tag":{"amenity":"waste_basket","waste":"trash"}},"type":"Feature"},
	{"geometry":{"coordinates":[19.133612,50.329697],"type":"Point"},"properties":{"osm_id":"7725535091","tag":{"amenity":"waste_basket","waste":"trash"}},"type":"Feature"},
	{"geometry":{"coordinates":[19.133874,50.329956],"type":"Point"},"properties":{"osm_id":"7725535092","tag":{"amenity":"waste_basket","waste":"trash"}},"type":"Feature"},
	{"geometry":{"coordinates":[19.133857,50.329927],"type":"Point"},"properties":{"osm_id":"7725535093","tag":{"amenity":"waste_basket","waste":"trash"}},"type":"Feature"},
	{"geometry":{"coordinates":[19.133981,50.330201],"type":"Point"},"properties":{"osm_id":"7725535094","tag":{"amenity":"waste_basket","waste":"trash"}},"type":"Feature"},
	{"geometry":{"coordinates":[19.133961,50.330202],"type":"Point"},"properties":{"osm_id":"7725535095","tag":{"amenity":"waste_basket","waste":"trash"}},"type":"Feature"},
	{"geometry":{"coordinates":[19.134134,50.330138],"type":"Point"},"properties":{"osm_id":"7725535096","tag":{"amenity":"waste_basket","waste":"trash"}},"type":"Feature"},
	{"geometry":{"coordinates":[19.134171,50.330128],"type":"Point"},"properties":{"osm_id":"7725535097","tag":{"amenity":"waste_basket","waste":"trash"}},"type":"Feature"},
	{"geometry":{"coordinates":[19.134287,50.330266],"type":"Point"},"properties":{"osm_id":"7725535098","tag":{"amenity":"waste_basket","waste":"trash"}},"type":"Feature"},
	{"geometry":{"coordinates":[19.134433,50.33035],"type":"Point"},"properties":{"osm_id":"7725535099","tag":{"amenity":"waste_basket","waste":"trash"}},"type":"Feature"},
	{"geometry":{"coordinates":[19.134267,50.33033],"type":"Point"},"properties":{"osm_id":"7725535100","tag":{"amenity":"waste_basket","waste":"trash"}},"type":"Feature"},
	{"geometry":{"coordinates":[19.134514,50.330515],"type":"Point"},"properties":{"osm_id":"7725535101","tag":{"amenity":"waste_basket","waste":"trash"}},"type":"Feature"},
	{"geometry":{"coordinates":[19.134043,50.33051],"type":"Point"},"properties":{"osm_id":"7725535102","tag":{"amenity":"waste_basket","waste":"trash"}},"type":"Feature"},
	{"geometry":{"coordinates":[19.113678,50.317782],"type":"Point"},"properties":{"osm_id":"7937708165","tag":{"amenity":"recycling","recycling_type":"container"}},"type":"Feature"},
	{"geometry":{"coordinates":[19.113656,50.317779],"type":"Point"},"properties":{"osm_id":"7937708166","tag":{"amenity":"waste_disposal"}},"type":"Feature"},
	{"geometry":{"coordinates":[19.094322,50.28958],"type":"Point"},"properties":{"osm_id":"7948476354","tag":{"amenity":"waste_basket"}},"type":"Feature"}
]
}
