{
"type": "FeatureCollection",
"features": [
	{"geometry":{"coordinates":[19.108344,47.854031],"type":"Point"},"properties":{"osm_id":"3607896325","tag":{"amenity":"recycling"}},"type":"Feature"},
	{"geometry":{"coordinates":[19.132496,47.850733],"type":"Point"},"properties":{"osm_id":"3799700558","tag":{"amenity":"waste_basket"}},"type":"Feature"},
	{"geometry":{"coordinates":[19.132751,47.850703],"type":"Point"},"properties":{"osm_id":"3799700559","tag":{"amenity":"waste_basket"}},"type":"Feature"},
	{"geometry":{"coordinates":[19.098367,47.8541],"type":"Point"},"properties":{"osm_id":"3848633457","tag":{"amenity":"recycling","url":"http://turistautak.hu/poi.php?id=178318"}},"type":"Feature"},
	{"geometry":{"coordinates":[19.102093,47.849532],"type":"Point"},"properties":{"osm_id":"4418172004","tag":{"amenity":"waste_basket"}},"type":"Feature"},
	{"geometry":{"coordinates":[19.101294,47.849781],"type":"Point"},"properties":{"osm_id":"4418172007","tag":{"amenity":"waste_basket"}},"type":"Feature"},
	{"geometry":{"coordinates":[19.101954,47.849215],"type":"Point"},"properties":{"osm_id":"4418172008","tag":{"amenity":"waste_basket"}},"type":"Feature"},
	{"geometry":{"coordinates":[19.101845,47.849252],"type":"Point"},"properties":{"osm_id":"4418172009","tag":{"amenity":"waste_basket"}},"type":"Feature"},
	{"geometry":{"coordinates":[19.102092,47.849545],"type":"Point"},"properties":{"osm_id":"4418173697","tag":{"amenity":"waste_basket"}},"type":"Feature"},
	{"geometry":{"coordinates":[19.101885,47.849259],"type":"Point"},"properties":{"osm_id":"4418173700","tag":{"amenity":"waste_basket"}},"type":"Feature"},
	{"geometry":{"coordinates":[19.105495,47.850444],"type":"Point"},"properties":{"osm_id":"6588513866","tag":{"amenity":"recycling","recycling:paper":"yes","recycling:plastic":"yes","recycling_type":"container"}},"type":"Feature"}
]
}
