{
"type": "FeatureCollection",
"features": [
	{"geometry":{"coordinates":[19.138688,47.770542],"type":"Point"},"properties":{"osm_id":"464729282","tag":{"amenity":"recycling"}},"type":"Feature"},
	{"geometry":{"coordinates":[19.116952,47.791162],"type":"Point"},"properties":{"osm_id":"1376519443","tag":{"amenity":"recycling","recycling_type":"container"}},"type":"Feature"},
	{"geometry":{"coordinates":[19.136795,47.784616],"type":"Point"},"properties":{"osm_id":"1942388539","tag":{"amenity":"recycling","recycling:glass":"yes","recycling:paper":"yes","recycling_type":"container"}},"type":"Feature"},
	{"geometry":{"coordinates":[19.137464,47.787729],"type":"Point"},"properties":{"osm_id":"1942388543","tag":{"amenity":"recycling","recycling:glass":"yes","recycling:paper":"yes","recycling_type":"container"}},"type":"Feature"},
	{"geometry":{"coordinates":[19.128389,47.788692],"type":"Point"},"properties":{"osm_id":"2091173086","tag":{"amenity":"recycling"}},"type":"Feature"},
	{"geometry":{"coordinates":[19.131003,47.783704],"type":"Point"},"properties":{"osm_id":"2094958197","tag":{"amenity":"recycling"}},"type":"Feature"},
	{"geometry":{"coordinates":[19.117673,47.787789],"type":"Point"},"properties":{"osm_id":"2094958198","tag":{"amenity":"recycling"}},"type":"Feature"},
	{"geometry":{"coordinates":[19.114105,47.790879],"type":"Point"},"properties":{"osm_id":"2094958200","tag":{"amenity":"recycling"}},"type":"Feature"},
	{"geometry":{"coordinates":[19.127443,47.783158],"type":"Point"},"properties":{"osm_id":"3059244663","tag":{"amenity":"waste_disposal"}},"type":"Feature"},
	{"geometry":{"coordinates":[19.127532,47.783194],"type":"Point"},"properties":{"osm_id":"3059244664","tag":{"amenity":"waste_basket"}},"type":"Feature"},
	{"geometry":{"coordinates":[19.127646,47.782994],"type":"Point"},"properties":{"osm_id":"3059244665","tag":{"amenity":"recycling","recycling:cans":"no","recycling:clothes":"no","recycling:glass":"yes","recycling:paper":"yes","recycling_type":"container"}},"type":"Feature"},
	{"geometry":{"coordinates":[19.129091,47.782246],"type":"Point"},"properties":{"osm_id":"3059244666","tag":{"amenity":"waste_disposal"}},"type":"Feature"},
	{"geometry":{"coordinates":[19.125788,47.784345],"type":"Point"},"properties":{"osm_id":"3059244667","tag":{"amenity":"waste_basket"}},"type":"Feature"},
	{"geometry":{"coordinates":[19.126942,47.778256],"type":"Point"},"properties":{"name":"haszn\u00c3\u00a1ltruha gy\u00c5\u00b1jt\u00c5\u0091","osm_id":"3076544227","tag":{"amenity":"recycling","recycling:clothes":"yes","recycling_type":"container"}},"type":"Feature"},
	{"geometry":{"coordinates":[19.130852,47.776998],"type":"Point"},"properties":{"osm_id":"3077137438","tag":{"amenity":"waste_basket"}},"type":"Feature"},
	{"geometry":{"coordinates":[19.09089,47.75586],"type":"Point"},"properties":{"osm_id":"3441705672","tag":{"amenity":"recycling","source:date":"2013-07-16","url":"http://turistautak.hu/poi.php?id=156409"}},"type":"Feature"},
	{"geometry":{"coordinates":[19.12995,47.772078],"type":"Point"},"properties":{"osm_id":"3456376430","tag":{"amenity":"recycling","source:date":"2014-11-12","url":"http://turistautak.hu/poi.php?id=173956"}},"type":"Feature"},
	{"geometry":{"coordinates":[19.130698,47.781905],"type":"Point"},"properties":{"osm_id":"3456376437","tag":{"amenity":"recycling","source:date":"2011-07-10","url":"http://turistautak.hu/poi.php?id=94999"}},"type":"Feature"},
	{"geometry":{"coordinates":[19.121133,47.7845],"type":"Point"},"properties":{"osm_id":"3456376442","tag":{"addr:street":"D\u00c3\u00b3zsa gy\u00c3\u00b6rgy utca","amenity":"recycling","source:date":"2012-11-21","url":"http://turistautak.hu/poi.php?id=56169"}},"type":"Feature"},
	{"geometry":{"coordinates":[19.138283,47.79005],"type":"Point"},"properties":{"osm_id":"3456376445","tag":{"addr:street":"V\u00c3\u00b6r\u00c3\u00b6smarty t\u00c3\u00a9rn\u00c3\u00a9l","amenity":"recycling","source:date":"2012-11-21","url":"http://turistautak.hu/poi.php?id=55436"}},"type":"Feature"},
	{"geometry":{"coordinates":[19.131302,47.790733],"type":"Point"},"properties":{"osm_id":"3456376447","tag":{"addr:street":"P\u00c3\u00a1rta utca","amenity":"recycling","source:date":"2011-07-10","url":"http://turistautak.hu/poi.php?id=94924"}},"type":"Feature"},
	{"geometry":{"coordinates":[19.1051,47.800117],"type":"Point"},"properties":{"osm_id":"3456376459","tag":{"addr:street":"K\u00c5\u0091h\u00c3\u00add utca eleje","amenity":"recycling","source:date":"2012-11-21","url":"http://turistautak.hu/poi.php?id=56168"}},"type":"Feature"},
	{"geometry":{"coordinates":[19.126214,47.776251],"type":"Point"},"properties":{"osm_id":"3481799802","tag":{"amenity":"waste_basket"}},"type":"Feature"},
	{"geometry":{"coordinates":[19.125515,47.777175],"type":"Point"},"properties":{"osm_id":"3481799803","tag":{"amenity":"waste_basket"}},"type":"Feature"},
	{"geometry":{"coordinates":[19.127769,47.774367],"type":"Point"},"properties":{"osm_id":"3481799806","tag":{"amenity":"waste_basket"}},"type":"Feature"},
	{"geometry":{"coordinates":[19.130066,47.771455],"type":"Point"},"properties":{"osm_id":"3481799807","tag":{"amenity":"waste_basket"}},"type":"Feature"},
	{"geometry":{"coordinates":[19.116434,47.786438],"type":"Point"},"properties":{"osm_id":"3514704593","tag":{"amenity":"waste_basket","waste":"dog_excrement"}},"type":"Feature"},
	{"geometry":{"coordinates":[19.120322,47.783058],"type":"Point"},"properties":{"osm_id":"3514704594","tag":{"amenity":"waste_basket","waste":"dog_excrement"}},"type":"Feature"},
	{"geometry":{"coordinates":[19.131714,47.783174],"type":"Point"},"properties":{"osm_id":"3670750550","tag":{"amenity":"waste_basket"}},"type":"Feature"},
	{"geometry":{"coordinates":[19.131628,47.78304],"type":"Point"},"properties":{"osm_id":"3670750553","tag":{"amenity":"waste_basket"}},"type":"Feature"},
	{"geometry":{"coordinates":[19.132,47.782936],"type":"Point"},"properties":{"osm_id":"3670750556","tag":{"amenity":"waste_basket"}},"type":"Feature"},
	{"geometry":{"coordinates":[19.132085,47.783067],"type":"Point"},"properties":{"osm_id":"3670750559","tag":{"amenity":"waste_basket"}},"type":"Feature"},
	{"geometry":{"coordinates":[19.132371,47.782829],"type":"Point"},"properties":{"osm_id":"3670750562","tag":{"amenity":"waste_basket"}},"type":"Feature"},
	{"geometry":{"coordinates":[19.132451,47.782967],"type":"Point"},"properties":{"osm_id":"3670750565","tag":{"amenity":"waste_basket"}},"type":"Feature"},
	{"geometry":{"coordinates":[19.132937,47.78284],"type":"Point"},"properties":{"osm_id":"3670750568","tag":{"amenity":"waste_basket"}},"type":"Feature"},
	{"geometry":{"coordinates":[19.132833,47.782689],"type":"Point"},"properties":{"osm_id":"3670750571","tag":{"amenity":"waste_basket"}},"type":"Feature"},
	{"geometry":{"coordinates":[19.133409,47.782708],"type":"Point"},"properties":{"osm_id":"3670750574","tag":{"amenity":"waste_basket"}},"type":"Feature"},
	{"geometry":{"coordinates":[19.133314,47.782555],"type":"Point"},"properties":{"osm_id":"3670750577","tag":{"amenity":"waste_basket"}},"type":"Feature"},
	{"geometry":{"coordinates":[19.130681,47.782022],"type":"Point"},"properties":{"osm_id":"3670845779","tag":{"amenity":"waste_basket"}},"type":"Feature"},
	{"geometry":{"coordinates":[19.129905,47.781994],"type":"Point"},"properties":{"osm_id":"3670846707","tag":{"amenity":"waste_basket"}},"type":"Feature"},
	{"geometry":{"coordinates":[19.129537,47.782293],"type":"Point"},"properties":{"osm_id":"3670846708","tag":{"amenity":"waste_basket"}},"type":"Feature"},
	{"geometry":{"coordinates":[19.129488,47.782315],"type":"Point"},"properties":{"osm_id":"3670846709","tag":{"amenity":"waste_basket"}},"type":"Feature"},
	{"geometry":{"coordinates":[19.129096,47.78236],"type":"Point"},"properties":{"osm_id":"3670846711","tag":{"amenity":"waste_basket"}},"type":"Feature"},
	{"geometry":{"coordinates":[19.129057,47.782301],"type":"Point"},"properties":{"osm_id":"3670846712","tag":{"amenity":"waste_disposal"}},"type":"Feature"},
	{"geometry":{"coordinates":[19.128691,47.78245],"type":"Point"},"properties":{"osm_id":"3670919621","tag":{"amenity":"waste_disposal"}},"type":"Feature"},
	{"geometry":{"coordinates":[19.127837,47.782822],"type":"Point"},"properties":{"osm_id":"3670921538","tag":{"amenity":"waste_disposal"}},"type":"Feature"},
	{"geometry":{"coordinates":[19.127451,47.782971],"type":"Point"},"properties":{"osm_id":"3670921539","tag":{"amenity":"waste_basket"}},"type":"Feature"},
	{"geometry":{"coordinates":[19.127059,47.782734],"type":"Point"},"properties":{"osm_id":"3670921549","tag":{"amenity":"waste_basket"}},"type":"Feature"},
	{"geometry":{"coordinates":[19.126965,47.783016],"type":"Point"},"properties":{"osm_id":"3670921551","tag":{"amenity":"waste_basket"}},"type":"Feature"},
	{"geometry":{"coordinates":[19.127033,47.782659],"type":"Point"},"properties":{"osm_id":"3670921552","tag":{"amenity":"waste_disposal"}},"type":"Feature"},
	{"geometry":{"coordinates":[19.127212,47.782561],"type":"Point"},"properties":{"osm_id":"3670921553","tag":{"amenity":"waste_basket"}},"type":"Feature"},
	{"geometry":{"coordinates":[19.127418,47.78249],"type":"Point"},"properties":{"osm_id":"3670921556","tag":{"amenity":"waste_disposal"}},"type":"Feature"},
	{"geometry":{"coordinates":[19.122399,47.787488],"type":"Point"},"properties":{"osm_id":"4345793196","tag":{"amenity":"waste_basket"}},"type":"Feature"},
	{"geometry":{"coordinates":[19.122267,47.787705],"type":"Point"},"properties":{"osm_id":"4345807993","tag":{"amenity":"waste_disposal"}},"type":"Feature"},
	{"geometry":{"coordinates":[19.122292,47.787981],"type":"Point"},"properties":{"osm_id":"4345808590","tag":{"amenity":"waste_basket"}},"type":"Feature"},
	{"geometry":{"coordinates":[19.122104,47.787795],"type":"Point"},"properties":{"osm_id":"4346038724","tag":{"amenity":"waste_basket"}},"type":"Feature"},
	{"geometry":{"coordinates":[19.129851,47.77851],"type":"Point"},"properties":{"osm_id":"5338271898","tag":{"amenity":"waste_basket"}},"type":"Feature"},
	{"geometry":{"coordinates":[19.12992,47.778428],"type":"Point"},"properties":{"osm_id":"5338271899","tag":{"amenity":"waste_basket"}},"type":"Feature"},
	{"geometry":{"coordinates":[19.130063,47.77821],"type":"Point"},"properties":{"osm_id":"5338271907","tag":{"amenity":"waste_basket"}},"type":"Feature"},
	{"geometry":{"coordinates":[19.130278,47.778476],"type":"Point"},"properties":{"osm_id":"5338271931","tag":{"amenity":"waste_basket"}},"type":"Feature"},
	{"geometry":{"coordinates":[19.129707,47.778288],"type":"Point"},"properties":{"osm_id":"5338271939","tag":{"amenity":"waste_basket"}},"type":"Feature"},
	{"geometry":{"coordinates":[19.129174,47.778997],"type":"Point"},"properties":{"osm_id":"5338286547","tag":{"amenity":"waste_basket"}},"type":"Feature"},
	{"geometry":{"coordinates":[19.129339,47.778906],"type":"Point"},"properties":{"osm_id":"5338286548","tag":{"amenity":"waste_basket"}},"type":"Feature"},
	{"geometry":{"coordinates":[19.129432,47.778859],"type":"Point"},"properties":{"osm_id":"5338286549","tag":{"amenity":"waste_basket"}},"type":"Feature"},
	{"geometry":{"coordinates":[19.141308,47.773866],"type":"Point"},"properties":{"osm_id":"5339804290","tag":{"amenity":"waste_basket"}},"type":"Feature"},
	{"geometry":{"coordinates":[19.141516,47.773899],"type":"Point"},"properties":{"osm_id":"5339804291","tag":{"amenity":"waste_basket"}},"type":"Feature"},
	{"geometry":{"coordinates":[19.141473,47.773822],"type":"Point"},"properties":{"osm_id":"5339804292","tag":{"amenity":"waste_basket"}},"type":"Feature"},
	{"geometry":{"coordinates":[19.123131,47.78467],"type":"Point"},"properties":{"osm_id":"5512605900","tag":{"amenity":"waste_basket"}},"type":"Feature"},
	{"geometry":{"coordinates":[19.123662,47.785217],"type":"Point"},"properties":{"osm_id":"5512606936","tag":{"amenity":"waste_basket"}},"type":"Feature"},
	{"geometry":{"coordinates":[19.1243,47.785526],"type":"Point"},"properties":{"osm_id":"5512606990","tag":{"amenity":"waste_basket"}},"type":"Feature"},
	{"geometry":{"coordinates":[19.137745,47.776299],"type":"Point"},"properties":{"osm_id":"5587069212","tag":{"amenity":"waste_disposal"}},"type":"Feature"},
	{"geometry":{"coordinates":[19.137883,47.776225],"type":"Point"},"properties":{"osm_id":"5587069213","tag":{"amenity":"recycling","recycling:glass_bottles":"yes","recycling:paper":"yes","recycling:paper_packaging":"yes","recycling:plastic_bottles":"yes","recycling:plastic_packaging":"yes","recycling_type":"container"}},"type":"Feature"},
	{"geometry":{"coordinates":[19.138475,47.775896],"type":"Point"},"properties":{"osm_id":"5587069220","tag":{"amenity":"waste_disposal"}},"type":"Feature"},
	{"geometry":{"coordinates":[19.131826,47.779517],"type":"Point"},"properties":{"osm_id":"5587117831","tag":{"amenity":"waste_basket"}},"type":"Feature"},
	{"geometry":{"coordinates":[19.140963,47.771327],"type":"Point"},"properties":{"osm_id":"5624616587","tag":{"amenity":"waste_disposal"}},"type":"Feature"},
	{"geometry":{"coordinates":[19.140864,47.771347],"type":"Point"},"properties":{"osm_id":"5624616588","tag":{"amenity":"recycling","recycling_type":"container"}},"type":"Feature"},
	{"geometry":{"coordinates":[19.143948,47.755184],"type":"Point"},"properties":{"osm_id":"5973428827","tag":{"amenity":"waste_basket"}},"type":"Feature"},
	{"geometry":{"coordinates":[19.14444,47.754918],"type":"Point"},"properties":{"osm_id":"5973428828","tag":{"amenity":"waste_basket"}},"type":"Feature"},
	{"geometry":{"coordinates":[19.130211,47.778541],"type":"Point"},"properties":{"osm_id":"6650867294","tag":{"amenity":"waste_basket"}},"type":"Feature"},
	{"geometry":{"coordinates":[19.123394,47.784372],"type":"Point"},"properties":{"osm_id":"6875342985","tag":{"amenity":"waste_basket"}},"type":"Feature"},
	{"geometry":{"coordinates":[19.123297,47.784313],"type":"Point"},"properties":{"osm_id":"6875342986","tag":{"amenity":"waste_basket"}},"type":"Feature"},
	{"geometry":{"coordinates":[19.123621,47.784653],"type":"Point"},"properties":{"osm_id":"6875342987","tag":{"amenity":"waste_basket"}},"type":"Feature"},
	{"geometry":{"coordinates":[19.12211,47.783907],"type":"Point"},"properties":{"osm_id":"6875385277","tag":{"amenity":"waste_basket"}},"type":"Feature"},
	{"geometry":{"coordinates":[19.122117,47.783832],"type":"Point"},"properties":{"osm_id":"6875385279","tag":{"amenity":"waste_basket"}},"type":"Feature"},
	{"geometry":{"coordinates":[19.122072,47.783577],"type":"Point"},"properties":{"osm_id":"6875448787","tag":{"amenity":"waste_basket"}},"type":"Feature"},
	{"geometry":{"coordinates":[19.154956,47.764424],"type":"Point"},"properties":{"osm_id":"6956567956","tag":{"amenity":"waste_disposal"}},"type":"Feature"},
	{"geometry":{"coordinates":[19.139185,47.770866],"type":"Point"},"properties":{"osm_id":"7414135531","tag":{"amenity":"waste_disposal"}},"type":"Feature"},
	{"geometry":{"coordinates":[19.139417,47.771286],"type":"Point"},"properties":{"osm_id":"7414177907","tag":{"amenity":"waste_disposal"}},"type":"Feature"},
	{"geometry":{"coordinates":[19.139408,47.771273],"type":"Point"},"properties":{"osm_id":"7414177908","tag":{"amenity":"recycling","recycling:cans":"yes","recycling:carton":"yes","recycling:paper":"yes","recycling:plastic":"yes","recycling_type":"container"}},"type":"Feature"},
	{"geometry":{"coordinates":[19.139805,47.772103],"type":"Point"},"properties":{"osm_id":"7430135972","tag":{"amenity":"waste_disposal"}},"type":"Feature"},
	{"geometry":{"coordinates":[19.138782,47.77052],"type":"Point"},"properties":{"osm_id":"7677794306","tag":{"amenity":"waste_basket"}},"type":"Feature"},
	{"geometry":{"coordinates":[19.13888,47.770266],"type":"Point"},"properties":{"osm_id":"7677794308","tag":{"amenity":"waste_basket"}},"type":"Feature"},
	{"geometry":{"coordinates":[19.139434,47.770752],"type":"Point"},"properties":{"osm_id":"7679608645","tag":{"amenity":"waste_basket"}},"type":"Feature"},
	{"geometry":{"coordinates":[19.088572,47.754281],"type":"Point"},"properties":{"osm_id":"7707471534","tag":{"amenity":"waste_basket"}},"type":"Feature"},
	{"geometry":{"coordinates":[19.139707,47.771791],"type":"Point"},"properties":{"osm_id":"7904823333","tag":{"amenity":"waste_disposal"}},"type":"Feature"},
	{"geometry":{"coordinates":[19.138997,47.771434],"type":"Point"},"properties":{"osm_id":"7936883078","tag":{"amenity":"waste_basket","waste":"dog_excrement"}},"type":"Feature"}
]
}
