{
"type": "FeatureCollection",
"features": [
	{"geometry":{"coordinates":[19.158778,47.636848],"type":"Point"},"properties":{"osm_id":"2484189607","tag":{"amenity":"recycling"}},"type":"Feature"},
	{"geometry":{"coordinates":[19.101209,47.690965],"type":"Point"},"properties":{"osm_id":"2958558393","tag":{"amenity":"waste_basket"}},"type":"Feature"},
	{"geometry":{"coordinates":[19.108359,47.662032],"type":"Point"},"properties":{"osm_id":"3441705221","tag":{"amenity":"recycling","opening_hours":"24/7","recycling_type":"container","source:date":"2012-11-12","url":"http://turistautak.hu/poi.php?id=145811","wheelchair":"yes"}},"type":"Feature"},
	{"geometry":{"coordinates":[19.109,47.666317],"type":"Point"},"properties":{"osm_id":"3441705228","tag":{"amenity":"recycling","source:date":"2012-11-12","url":"http://turistautak.hu/poi.php?id=145810"}},"type":"Feature"},
	{"geometry":{"coordinates":[19.11528,47.67641],"type":"Point"},"properties":{"osm_id":"3441705234","tag":{"amenity":"recycling","source:date":"2014-02-06","url":"http://turistautak.hu/poi.php?id=153639"}},"type":"Feature"},
	{"geometry":{"coordinates":[19.119505,47.680566],"type":"Point"},"properties":{"osm_id":"3441705237","tag":{"amenity":"recycling","source:date":"2012-11-12","url":"http://turistautak.hu/poi.php?id=106722"}},"type":"Feature"},
	{"geometry":{"coordinates":[19.11522,47.68151],"type":"Point"},"properties":{"osm_id":"3441705239","tag":{"amenity":"recycling","source:date":"2014-02-06","url":"http://turistautak.hu/poi.php?id=153638"}},"type":"Feature"},
	{"geometry":{"coordinates":[19.1062,47.68689],"type":"Point"},"properties":{"osm_id":"3441705248","tag":{"amenity":"recycling","source:date":"2013-05-18","url":"http://turistautak.hu/poi.php?id=153637"}},"type":"Feature"},
	{"geometry":{"coordinates":[19.10049,47.68846],"type":"Point"},"properties":{"osm_id":"3441705255","tag":{"amenity":"recycling","source:date":"2013-05-18","url":"http://turistautak.hu/poi.php?id=153636"}},"type":"Feature"},
	{"geometry":{"coordinates":[19.10162,47.68996],"type":"Point"},"properties":{"osm_id":"3441705263","tag":{"amenity":"recycling","source:date":"2013-05-18","url":"http://turistautak.hu/poi.php?id=153635"}},"type":"Feature"},
	{"geometry":{"coordinates":[19.10473,47.69047],"type":"Point"},"properties":{"osm_id":"3441705268","tag":{"amenity":"recycling","source:date":"2013-05-18","url":"http://turistautak.hu/poi.php?id=153634"}},"type":"Feature"},
	{"geometry":{"coordinates":[19.14135,47.639733],"type":"Point"},"properties":{"osm_id":"3470089737","tag":{"addr:city":"Dunakeszi","addr:housenumber":"36","addr:postcode":"2120","addr:street":"Z\u00c3\u00a1polya utca","amenity":"recycling","source:date":"2011-05-16","url":"http://turistautak.hu/poi.php?id=54397"}},"type":"Feature"},
	{"geometry":{"coordinates":[19.125407,47.643544],"type":"Point"},"properties":{"osm_id":"3470089743","tag":{"amenity":"recycling","source:date":"2015-06-13"}},"type":"Feature"},
	{"geometry":{"coordinates":[19.129814,47.647926],"type":"Point"},"properties":{"osm_id":"3470089747","tag":{"addr:city":"Dunakeszi","addr:housenumber":"43","addr:postcode":"2120","addr:street":"Liget utca","amenity":"recycling","recycling:glass":"yes","source:date":"2014-11-12","url":"http://turistautak.hu/poi.php?id=55286"}},"type":"Feature"},
	{"geometry":{"coordinates":[19.139233,47.647933],"type":"Point"},"properties":{"osm_id":"3470089748","tag":{"addr:city":"Dunakeszi","addr:housenumber":"32","addr:postcode":"2120","addr:street":"Mad\u00c3\u00a1ch Imre utca","amenity":"recycling","source:date":"2010-12-18","url":"http://turistautak.hu/poi.php?id=54385"}},"type":"Feature"},
	{"geometry":{"coordinates":[19.124438,47.656569],"type":"Point"},"properties":{"osm_id":"3470089753","tag":{"addr:city":"Dunakeszi","addr:housenumber":"1","addr:postcode":"2120","addr:street":"\u00c3\u009cd\u00c3\u00bcl\u00c5\u0091 sor","amenity":"recycling","source:date":"2014-11-12","url":"http://turistautak.hu/poi.php?id=54386"}},"type":"Feature"},
	{"geometry":{"coordinates":[19.124865,47.668377],"type":"Point"},"properties":{"osm_id":"3470089760","tag":{"amenity":"recycling","location":"overground","recycling:glass_bottles":"yes","recycling_type":"container","source:date":"2014-11-12","url":"http://turistautak.hu/poi.php?id=166232"}},"type":"Feature"},
	{"geometry":{"coordinates":[19.076536,47.666727],"type":"Point"},"properties":{"osm_id":"4276675569","tag":{"amenity":"waste_basket"}},"type":"Feature"},
	{"geometry":{"coordinates":[19.075605,47.667611],"type":"Point"},"properties":{"osm_id":"4276742432","tag":{"amenity":"waste_basket"}},"type":"Feature"},
	{"geometry":{"coordinates":[19.074809,47.660299],"type":"Point"},"properties":{"osm_id":"4313522208","tag":{"amenity":"waste_basket"}},"type":"Feature"},
	{"geometry":{"coordinates":[19.074955,47.660407],"type":"Point"},"properties":{"osm_id":"4313522209","tag":{"amenity":"waste_basket"}},"type":"Feature"},
	{"geometry":{"coordinates":[19.075043,47.660473],"type":"Point"},"properties":{"osm_id":"4313522210","tag":{"amenity":"waste_basket"}},"type":"Feature"},
	{"geometry":{"coordinates":[19.075147,47.660551],"type":"Point"},"properties":{"osm_id":"4313522211","tag":{"amenity":"waste_basket"}},"type":"Feature"},
	{"geometry":{"coordinates":[19.075178,47.660573],"type":"Point"},"properties":{"osm_id":"4313522212","tag":{"amenity":"waste_basket"}},"type":"Feature"},
	{"geometry":{"coordinates":[19.123696,47.647128],"type":"Point"},"properties":{"osm_id":"4610077366","tag":{"amenity":"recycling","opening_hours":"24/7","recycling:cans":"yes","recycling:cardboard":"yes","recycling:glass":"yes","recycling:paper":"yes","recycling:plastic":"yes","recycling:plastic_bottles":"yes","recycling:scrap_metal":"yes","recycling_type":"container","wheelchair":"no"}},"type":"Feature"},
	{"geometry":{"coordinates":[19.072273,47.646225],"type":"Point"},"properties":{"osm_id":"4695660688","tag":{"amenity":"recycling","recycling_type":"container"}},"type":"Feature"},
	{"geometry":{"coordinates":[19.079906,47.660488],"type":"Point"},"properties":{"osm_id":"4755328488","tag":{"amenity":"waste_basket"}},"type":"Feature"},
	{"geometry":{"coordinates":[19.098156,47.684864],"type":"Point"},"properties":{"osm_id":"4798852667","tag":{"amenity":"waste_disposal"}},"type":"Feature"},
	{"geometry":{"coordinates":[19.099356,47.687485],"type":"Point"},"properties":{"osm_id":"4798948807","tag":{"amenity":"waste_basket"}},"type":"Feature"},
	{"geometry":{"coordinates":[19.102159,47.687407],"type":"Point"},"properties":{"osm_id":"5017566341","tag":{"amenity":"waste_basket"}},"type":"Feature"},
	{"geometry":{"coordinates":[19.102857,47.68551],"type":"Point"},"properties":{"osm_id":"5095681205","tag":{"amenity":"waste_basket"}},"type":"Feature"},
	{"geometry":{"coordinates":[19.10256,47.685558],"type":"Point"},"properties":{"osm_id":"5095684990","tag":{"amenity":"waste_basket"}},"type":"Feature"},
	{"geometry":{"coordinates":[19.074022,47.661844],"type":"Point"},"properties":{"osm_id":"7171711484","tag":{"amenity":"waste_basket","waste":"trash"}},"type":"Feature"},
	{"geometry":{"coordinates":[19.120149,47.653325],"type":"Point"},"properties":{"osm_id":"8722510413","tag":{"amenity":"waste_basket","waste":"trash"}},"type":"Feature"},
	{"geometry":{"coordinates":[19.13698,47.68355],"type":"Point"},"properties":{"osm_id":"8740351448","tag":{"amenity":"recycling","recycling:books":"yes","recycling:cardboard":"yes","recycling:magazines":"yes","recycling:newspaper":"yes","recycling:paper":"yes","recycling:paper_packaging":"yes","recycling:plastic":"yes","recycling:plastic_bottles":"yes","recycling_type":"container"}},"type":"Feature"},
	{"geometry":{"coordinates":[19.082731,47.67661],"type":"Point"},"properties":{"osm_id":"8856160474","tag":{"amenity":"waste_basket"}},"type":"Feature"},
	{"geometry":{"coordinates":[19.082431,47.676887],"type":"Point"},"properties":{"osm_id":"8856160475","tag":{"amenity":"waste_basket","waste":"dog_excrement"}},"type":"Feature"},
	{"geometry":{"coordinates":[19.082512,47.676754],"type":"Point"},"properties":{"osm_id":"8856160476","tag":{"amenity":"waste_basket","waste":"dog_excrement"}},"type":"Feature"},
	{"geometry":{"coordinates":[19.082584,47.67663],"type":"Point"},"properties":{"osm_id":"8856160477","tag":{"amenity":"waste_basket","waste":"dog_excrement"}},"type":"Feature"},
	{"geometry":{"coordinates":[19.082679,47.676496],"type":"Point"},"properties":{"osm_id":"8856160478","tag":{"amenity":"waste_basket","waste":"dog_excrement"}},"type":"Feature"},
	{"geometry":{"coordinates":[19.082804,47.676313],"type":"Point"},"properties":{"osm_id":"8856160479","tag":{"amenity":"waste_basket","waste":"dog_excrement"}},"type":"Feature"},
	{"geometry":{"coordinates":[19.144578,47.642306],"type":"Point"},"properties":{"osm_id":"8979541363","tag":{"amenity":"recycling","recycling:glass":"yes","recycling_type":"container"}},"type":"Feature"},
	{"geometry":{"coordinates":[19.072521,47.667266],"type":"Point"},"properties":{"osm_id":"9010374518","tag":{"amenity":"waste_basket"}},"type":"Feature"},
	{"geometry":{"coordinates":[19.07635,47.667764],"type":"Point"},"properties":{"osm_id":"9010377032","tag":{"amenity":"waste_basket"}},"type":"Feature"},
	{"geometry":{"coordinates":[19.076281,47.662439],"type":"Point"},"properties":{"osm_id":"9010377519","tag":{"amenity":"waste_basket"}},"type":"Feature"},
	{"geometry":{"coordinates":[19.076463,47.667733],"type":"Point"},"properties":{"osm_id":"9010377523","tag":{"amenity":"waste_basket"}},"type":"Feature"}
]
}
