{
"type": "FeatureCollection",
"features": [
	{"geometry":{"coordinates":[19.131767,47.60745],"type":"Point"},"properties":{"osm_id":"910331608","tag":{"amenity":"recycling"}},"type":"Feature"},
	{"geometry":{"coordinates":[19.0851,47.58859],"type":"Point"},"properties":{"osm_id":"1449725838","tag":{"amenity":"recycling","recycling_type":"container"}},"type":"Feature"},
	{"geometry":{"coordinates":[19.08581,47.5826],"type":"Point"},"properties":{"osm_id":"1449726406","tag":{"amenity":"recycling","recycling_type":"container"}},"type":"Feature"},
	{"geometry":{"coordinates":[19.115766,47.593739],"type":"Point"},"properties":{"osm_id":"1461655256","tag":{"amenity":"recycling","recycling_type":"container"}},"type":"Feature"},
	{"geometry":{"coordinates":[19.12104,47.598385],"type":"Point"},"properties":{"osm_id":"1461656591","tag":{"amenity":"recycling","recycling_type":"container"}},"type":"Feature"},
	{"geometry":{"coordinates":[19.099627,47.581087],"type":"Point"},"properties":{"osm_id":"1476594305","tag":{"amenity":"recycling","recycling_type":"container"}},"type":"Feature"},
	{"geometry":{"coordinates":[19.11384,47.58836],"type":"Point"},"properties":{"osm_id":"1493003501","tag":{"amenity":"recycling","recycling_type":"container"}},"type":"Feature"},
	{"geometry":{"coordinates":[19.115355,47.57806],"type":"Point"},"properties":{"name":"Recycling","osm_id":"1705968588","tag":{"amenity":"recycling","recycling_type":"container"}},"type":"Feature"},
	{"geometry":{"coordinates":[19.156959,47.620504],"type":"Point"},"properties":{"osm_id":"2351225771","tag":{"amenity":"recycling","location":"overground","recycling_type":"container"}},"type":"Feature"},
	{"geometry":{"coordinates":[19.088476,47.580599],"type":"Point"},"properties":{"osm_id":"3251416375","tag":{"amenity":"waste_basket"}},"type":"Feature"},
	{"geometry":{"coordinates":[19.106354,47.578092],"type":"Point"},"properties":{"name":"Szelekt\u00c3\u00adv hullad\u00c3\u00a9kgy\u00c3\u00bcjt\u00c5\u0091","osm_id":"3329744131","tag":{"amenity":"recycling","recycling:cans":"yes","recycling:clothes":"yes","recycling:glass":"yes","recycling:paper":"yes","recycling_type":"container"}},"type":"Feature"},
	{"geometry":{"coordinates":[19.137105,47.62538],"type":"Point"},"properties":{"osm_id":"3470089722","tag":{"addr:street":"Verseny utca (Dunakeszi vas\u00c3\u00bat\u00c3\u00a1llom\u00c3\u00a1sn\u00c3\u00a1l)","amenity":"recycling","source:date":"2011-05-16","url":"http://turistautak.hu/poi.php?id=54395"}},"type":"Feature"},
	{"geometry":{"coordinates":[19.128067,47.627883],"type":"Point"},"properties":{"osm_id":"3470089724","tag":{"addr:street":"Szent Istv\u00c3\u00a1n \u00c3\u00bat, L\u00c3\u00a1szl\u00c3\u00b3 utca sarok","amenity":"recycling","source:date":"2011-05-16","url":"http://turistautak.hu/poi.php?id=54394"}},"type":"Feature"},
	{"geometry":{"coordinates":[19.13895,47.6294],"type":"Point"},"properties":{"osm_id":"3470089725","tag":{"addr:city":"Dunakeszi","addr:housenumber":"3","addr:postcode":"2120","addr:street":"F\u00c3\u00b3ti \u00c3\u00bat","amenity":"recycling","recycling:glass":"yes","recycling_type":"container","source:date":"2011-05-16","url":"http://turistautak.hu/poi.php?id=55435"}},"type":"Feature"},
	{"geometry":{"coordinates":[19.149767,47.63165],"type":"Point"},"properties":{"osm_id":"3470089731","tag":{"addr:city":"Dunakeszi","addr:housenumber":"63","addr:postcode":"2120","addr:street":"R\u00c3\u00a1k\u00c3\u00b3czi \u00c3\u00bat","amenity":"recycling","recycling:glass":"yes","source:date":"2011-05-16","url":"http://turistautak.hu/poi.php?id=54396"}},"type":"Feature"},
	{"geometry":{"coordinates":[19.132217,47.632083],"type":"Point"},"properties":{"osm_id":"3470089732","tag":{"addr:street":"Budai Nagy Antal utca","amenity":"recycling","source:date":"2011-05-16","url":"http://turistautak.hu/poi.php?id=56186"}},"type":"Feature"},
	{"geometry":{"coordinates":[19.12875,47.63525],"type":"Point"},"properties":{"osm_id":"3470089733","tag":{"addr:street":"Fels\u00c5\u0091tab\u00c3\u00a1n utc\u00c3\u00a1n\u00c3\u00a1l","amenity":"recycling","source:date":"2011-12-29","url":"http://turistautak.hu/poi.php?id=57398"}},"type":"Feature"},
	{"geometry":{"coordinates":[19.153588,47.632796],"type":"Point"},"properties":{"osm_id":"3496797600","tag":{"amenity":"recycling"}},"type":"Feature"},
	{"geometry":{"coordinates":[19.142295,47.61841],"type":"Point"},"properties":{"osm_id":"3596536129","tag":{"amenity":"waste_disposal"}},"type":"Feature"},
	{"geometry":{"coordinates":[19.140025,47.621149],"type":"Point"},"properties":{"osm_id":"3596536385","tag":{"amenity":"waste_disposal","source:date":"2015-06-13"}},"type":"Feature"},
	{"geometry":{"coordinates":[19.159353,47.633558],"type":"Point"},"properties":{"osm_id":"3791360290","tag":{"amenity":"recycling"}},"type":"Feature"},
	{"geometry":{"coordinates":[19.112541,47.582099],"type":"Point"},"properties":{"osm_id":"4487842996","tag":{"amenity":"waste_basket","waste":"dog_excrement"}},"type":"Feature"},
	{"geometry":{"coordinates":[19.120468,47.580264],"type":"Point"},"properties":{"osm_id":"4774674924","tag":{"amenity":"recycling","recycling_type":"container"}},"type":"Feature"},
	{"geometry":{"coordinates":[19.083324,47.618296],"type":"Point"},"properties":{"osm_id":"4961727718","tag":{"amenity":"waste_basket"}},"type":"Feature"},
	{"geometry":{"coordinates":[19.13325,47.587267],"type":"Point"},"properties":{"barrier":"gate","osm_id":"5534325864"},"type":"Feature"},
	{"geometry":{"coordinates":[19.131577,47.587428],"type":"Point"},"properties":{"barrier":"gate","osm_id":"5534327268","tag":{"access":"no"}},"type":"Feature"},
	{"geometry":{"coordinates":[19.107596,47.579077],"type":"Point"},"properties":{"osm_id":"5895746193","tag":{"amenity":"waste_basket"}},"type":"Feature"},
	{"geometry":{"coordinates":[19.092508,47.577748],"type":"Point"},"properties":{"osm_id":"5901904705","tag":{"amenity":"waste_basket"}},"type":"Feature"},
	{"geometry":{"coordinates":[19.087064,47.578781],"type":"Point"},"properties":{"osm_id":"5904113563","tag":{"amenity":"waste_basket"}},"type":"Feature"},
	{"geometry":{"coordinates":[19.087018,47.579],"type":"Point"},"properties":{"osm_id":"5904113566","tag":{"amenity":"waste_basket"}},"type":"Feature"},
	{"geometry":{"coordinates":[19.086978,47.578956],"type":"Point"},"properties":{"osm_id":"5904113567","tag":{"amenity":"waste_basket"}},"type":"Feature"},
	{"geometry":{"coordinates":[19.09184,47.583619],"type":"Point"},"properties":{"osm_id":"5943012079","tag":{"amenity":"waste_basket"}},"type":"Feature"},
	{"geometry":{"coordinates":[19.092935,47.58466],"type":"Point"},"properties":{"osm_id":"5943012084","tag":{"amenity":"waste_basket"}},"type":"Feature"},
	{"geometry":{"coordinates":[19.094531,47.586152],"type":"Point"},"properties":{"osm_id":"5943012996","tag":{"amenity":"waste_basket"}},"type":"Feature"},
	{"geometry":{"coordinates":[19.111455,47.594258],"type":"Point"},"properties":{"osm_id":"5948174140","tag":{"amenity":"waste_basket"}},"type":"Feature"},
	{"geometry":{"coordinates":[19.112272,47.594292],"type":"Point"},"properties":{"osm_id":"5948174141","tag":{"amenity":"waste_basket"}},"type":"Feature"},
	{"geometry":{"coordinates":[19.113145,47.595102],"type":"Point"},"properties":{"osm_id":"5948174143","tag":{"amenity":"waste_basket"}},"type":"Feature"},
	{"geometry":{"coordinates":[19.113149,47.595229],"type":"Point"},"properties":{"osm_id":"5948174144","tag":{"amenity":"waste_basket"}},"type":"Feature"},
	{"geometry":{"coordinates":[19.11316,47.594206],"type":"Point"},"properties":{"osm_id":"5948174146","tag":{"amenity":"waste_basket"}},"type":"Feature"},
	{"geometry":{"coordinates":[19.116779,47.593247],"type":"Point"},"properties":{"osm_id":"5948218644","tag":{"amenity":"waste_basket"}},"type":"Feature"},
	{"geometry":{"coordinates":[19.117826,47.593048],"type":"Point"},"properties":{"osm_id":"5948218658","tag":{"amenity":"waste_basket"}},"type":"Feature"},
	{"geometry":{"coordinates":[19.117637,47.593085],"type":"Point"},"properties":{"osm_id":"5948218659","tag":{"amenity":"waste_basket"}},"type":"Feature"},
	{"geometry":{"coordinates":[19.117854,47.592941],"type":"Point"},"properties":{"osm_id":"5948218661","tag":{"amenity":"waste_basket"}},"type":"Feature"},
	{"geometry":{"coordinates":[19.117562,47.592301],"type":"Point"},"properties":{"osm_id":"5948269928","tag":{"amenity":"waste_basket"}},"type":"Feature"},
	{"geometry":{"coordinates":[19.118975,47.5928],"type":"Point"},"properties":{"osm_id":"5948444251","tag":{"amenity":"waste_basket"}},"type":"Feature"},
	{"geometry":{"coordinates":[19.118819,47.592757],"type":"Point"},"properties":{"osm_id":"5948444253","tag":{"amenity":"waste_basket"}},"type":"Feature"},
	{"geometry":{"coordinates":[19.11963,47.592691],"type":"Point"},"properties":{"osm_id":"5948444255","tag":{"amenity":"waste_basket"}},"type":"Feature"},
	{"geometry":{"coordinates":[19.113703,47.595954],"type":"Point"},"properties":{"osm_id":"5951750630","tag":{"amenity":"waste_basket"}},"type":"Feature"},
	{"geometry":{"coordinates":[19.116532,47.597096],"type":"Point"},"properties":{"osm_id":"5951750651","tag":{"amenity":"waste_basket"}},"type":"Feature"},
	{"geometry":{"coordinates":[19.116447,47.596829],"type":"Point"},"properties":{"osm_id":"5951750655","tag":{"amenity":"waste_basket"}},"type":"Feature"},
	{"geometry":{"coordinates":[19.1166,47.596906],"type":"Point"},"properties":{"osm_id":"5951750657","tag":{"amenity":"waste_basket"}},"type":"Feature"},
	{"geometry":{"coordinates":[19.116713,47.596961],"type":"Point"},"properties":{"osm_id":"5951750658","tag":{"amenity":"waste_basket"}},"type":"Feature"},
	{"geometry":{"coordinates":[19.116855,47.597051],"type":"Point"},"properties":{"osm_id":"5951750659","tag":{"amenity":"waste_basket"}},"type":"Feature"},
	{"geometry":{"coordinates":[19.116955,47.597106],"type":"Point"},"properties":{"osm_id":"5951750660","tag":{"amenity":"waste_basket"}},"type":"Feature"},
	{"geometry":{"coordinates":[19.1171,47.597211],"type":"Point"},"properties":{"osm_id":"5951750661","tag":{"amenity":"waste_basket"}},"type":"Feature"},
	{"geometry":{"coordinates":[19.119506,47.595614],"type":"Point"},"properties":{"osm_id":"5953254538","tag":{"amenity":"waste_basket"}},"type":"Feature"},
	{"geometry":{"coordinates":[19.118797,47.596443],"type":"Point"},"properties":{"osm_id":"5953254540","tag":{"amenity":"waste_basket"}},"type":"Feature"},
	{"geometry":{"coordinates":[19.118805,47.596574],"type":"Point"},"properties":{"osm_id":"5953254542","tag":{"amenity":"waste_basket"}},"type":"Feature"},
	{"geometry":{"coordinates":[19.120302,47.597514],"type":"Point"},"properties":{"osm_id":"5953254548","tag":{"amenity":"waste_basket"}},"type":"Feature"},
	{"geometry":{"coordinates":[19.120509,47.598031],"type":"Point"},"properties":{"osm_id":"5953254549","tag":{"amenity":"waste_basket"}},"type":"Feature"},
	{"geometry":{"coordinates":[19.120569,47.598447],"type":"Point"},"properties":{"osm_id":"5953322206","tag":{"amenity":"waste_basket"}},"type":"Feature"},
	{"geometry":{"coordinates":[19.120274,47.594028],"type":"Point"},"properties":{"osm_id":"5953438168","tag":{"amenity":"waste_basket"}},"type":"Feature"},
	{"geometry":{"coordinates":[19.120491,47.593895],"type":"Point"},"properties":{"osm_id":"5953438169","tag":{"amenity":"waste_basket"}},"type":"Feature"},
	{"geometry":{"coordinates":[19.120413,47.593649],"type":"Point"},"properties":{"osm_id":"5953438171","tag":{"amenity":"waste_basket"}},"type":"Feature"},
	{"geometry":{"coordinates":[19.12026,47.593246],"type":"Point"},"properties":{"osm_id":"5953438173","tag":{"amenity":"waste_basket"}},"type":"Feature"},
	{"geometry":{"coordinates":[19.12004,47.592647],"type":"Point"},"properties":{"osm_id":"5953438175","tag":{"amenity":"waste_basket"}},"type":"Feature"},
	{"geometry":{"coordinates":[19.120213,47.592571],"type":"Point"},"properties":{"osm_id":"5953438176","tag":{"amenity":"waste_basket"}},"type":"Feature"},
	{"geometry":{"coordinates":[19.120071,47.592212],"type":"Point"},"properties":{"osm_id":"5953561327","tag":{"amenity":"waste_basket"}},"type":"Feature"},
	{"geometry":{"coordinates":[19.119966,47.59193],"type":"Point"},"properties":{"osm_id":"5953561328","tag":{"amenity":"waste_basket"}},"type":"Feature"},
	{"geometry":{"coordinates":[19.119228,47.591301],"type":"Point"},"properties":{"osm_id":"5953561365","tag":{"amenity":"waste_basket"}},"type":"Feature"},
	{"geometry":{"coordinates":[19.116184,47.589959],"type":"Point"},"properties":{"osm_id":"5953817052","tag":{"amenity":"waste_basket"}},"type":"Feature"},
	{"geometry":{"coordinates":[19.118044,47.587461],"type":"Point"},"properties":{"osm_id":"5953987160","tag":{"amenity":"waste_basket"}},"type":"Feature"},
	{"geometry":{"coordinates":[19.118161,47.587719],"type":"Point"},"properties":{"osm_id":"5953987172","tag":{"amenity":"waste_basket"}},"type":"Feature"},
	{"geometry":{"coordinates":[19.118206,47.587857],"type":"Point"},"properties":{"osm_id":"5953987173","tag":{"amenity":"waste_basket"}},"type":"Feature"},
	{"geometry":{"coordinates":[19.118366,47.587828],"type":"Point"},"properties":{"osm_id":"5953987174","tag":{"amenity":"waste_basket"}},"type":"Feature"},
	{"geometry":{"coordinates":[19.081365,47.576779],"type":"Point"},"properties":{"osm_id":"5968244229","tag":{"amenity":"waste_basket"}},"type":"Feature"},
	{"geometry":{"coordinates":[19.117498,47.58563],"type":"Point"},"properties":{"osm_id":"5974145777","tag":{"amenity":"waste_basket"}},"type":"Feature"},
	{"geometry":{"coordinates":[19.117313,47.585614],"type":"Point"},"properties":{"osm_id":"5974145778","tag":{"amenity":"waste_basket"}},"type":"Feature"},
	{"geometry":{"coordinates":[19.11737,47.585289],"type":"Point"},"properties":{"osm_id":"5974145780","tag":{"amenity":"waste_basket"}},"type":"Feature"},
	{"geometry":{"coordinates":[19.117216,47.585263],"type":"Point"},"properties":{"osm_id":"5974145781","tag":{"amenity":"waste_basket"}},"type":"Feature"},
	{"geometry":{"coordinates":[19.116675,47.58487],"type":"Point"},"properties":{"osm_id":"5974315667","tag":{"amenity":"waste_basket"}},"type":"Feature"},
	{"geometry":{"coordinates":[19.115883,47.583793],"type":"Point"},"properties":{"osm_id":"5974328389","tag":{"amenity":"recycling","recycling_type":"container"}},"type":"Feature"},
	{"geometry":{"coordinates":[19.115756,47.583798],"type":"Point"},"properties":{"osm_id":"5974328390","tag":{"amenity":"waste_basket"}},"type":"Feature"},
	{"geometry":{"coordinates":[19.114554,47.583937],"type":"Point"},"properties":{"osm_id":"5974328391","tag":{"amenity":"waste_basket"}},"type":"Feature"},
	{"geometry":{"coordinates":[19.114715,47.583831],"type":"Point"},"properties":{"osm_id":"5974328392","tag":{"amenity":"waste_basket"}},"type":"Feature"},
	{"geometry":{"coordinates":[19.115092,47.583954],"type":"Point"},"properties":{"osm_id":"5974328393","tag":{"amenity":"waste_basket"}},"type":"Feature"},
	{"geometry":{"coordinates":[19.115944,47.584732],"type":"Point"},"properties":{"osm_id":"5974328395","tag":{"amenity":"recycling","recycling_type":"container"}},"type":"Feature"},
	{"geometry":{"coordinates":[19.116247,47.583786],"type":"Point"},"properties":{"osm_id":"5974328397","tag":{"amenity":"waste_basket"}},"type":"Feature"},
	{"geometry":{"coordinates":[19.117042,47.582551],"type":"Point"},"properties":{"osm_id":"5974328404","tag":{"amenity":"waste_basket"}},"type":"Feature"},
	{"geometry":{"coordinates":[19.117049,47.582241],"type":"Point"},"properties":{"osm_id":"5974328406","tag":{"amenity":"waste_basket"}},"type":"Feature"},
	{"geometry":{"coordinates":[19.116866,47.582166],"type":"Point"},"properties":{"osm_id":"5974328407","tag":{"amenity":"waste_basket"}},"type":"Feature"},
	{"geometry":{"coordinates":[19.116407,47.581258],"type":"Point"},"properties":{"osm_id":"5974328415","tag":{"amenity":"waste_basket"}},"type":"Feature"},
	{"geometry":{"coordinates":[19.116313,47.580896],"type":"Point"},"properties":{"osm_id":"5974328416","tag":{"amenity":"waste_basket"}},"type":"Feature"},
	{"geometry":{"coordinates":[19.116231,47.580025],"type":"Point"},"properties":{"osm_id":"5974680972","tag":{"amenity":"waste_basket"}},"type":"Feature"},
	{"geometry":{"coordinates":[19.116031,47.579283],"type":"Point"},"properties":{"osm_id":"5974680973","tag":{"amenity":"waste_basket"}},"type":"Feature"},
	{"geometry":{"coordinates":[19.115582,47.578827],"type":"Point"},"properties":{"osm_id":"5974680977","tag":{"amenity":"waste_basket"}},"type":"Feature"},
	{"geometry":{"coordinates":[19.115469,47.578735],"type":"Point"},"properties":{"osm_id":"5974680978","tag":{"amenity":"waste_basket"}},"type":"Feature"},
	{"geometry":{"coordinates":[19.115448,47.578242],"type":"Point"},"properties":{"osm_id":"5974681603","tag":{"amenity":"waste_basket"}},"type":"Feature"},
	{"geometry":{"coordinates":[19.115455,47.577855],"type":"Point"},"properties":{"osm_id":"5974681604","tag":{"amenity":"waste_basket"}},"type":"Feature"},
	{"geometry":{"coordinates":[19.116022,47.577633],"type":"Point"},"properties":{"osm_id":"5974681605","tag":{"amenity":"waste_basket"}},"type":"Feature"},
	{"geometry":{"coordinates":[19.116086,47.577825],"type":"Point"},"properties":{"osm_id":"5974681606","tag":{"amenity":"waste_basket"}},"type":"Feature"},
	{"geometry":{"coordinates":[19.116157,47.578108],"type":"Point"},"properties":{"osm_id":"5974681607","tag":{"amenity":"waste_basket"}},"type":"Feature"},
	{"geometry":{"coordinates":[19.115871,47.577698],"type":"Point"},"properties":{"osm_id":"5974794990","tag":{"amenity":"waste_basket"}},"type":"Feature"},
	{"geometry":{"coordinates":[19.090619,47.58599],"type":"Point"},"properties":{"osm_id":"6170185632","tag":{"amenity":"waste_basket"}},"type":"Feature"},
	{"geometry":{"coordinates":[19.094103,47.585662],"type":"Point"},"properties":{"osm_id":"6170302787","tag":{"amenity":"waste_basket"}},"type":"Feature"},
	{"geometry":{"coordinates":[19.109356,47.579786],"type":"Point"},"properties":{"osm_id":"6172854682","tag":{"amenity":"waste_basket"}},"type":"Feature"},
	{"geometry":{"coordinates":[19.11489,47.577817],"type":"Point"},"properties":{"osm_id":"6172854683","tag":{"amenity":"waste_basket"}},"type":"Feature"},
	{"geometry":{"coordinates":[19.113819,47.594055],"type":"Point"},"properties":{"osm_id":"6172906135","tag":{"amenity":"waste_basket"}},"type":"Feature"},
	{"geometry":{"coordinates":[19.107929,47.592824],"type":"Point"},"properties":{"osm_id":"6172906136","tag":{"amenity":"waste_basket"}},"type":"Feature"},
	{"geometry":{"coordinates":[19.086029,47.582604],"type":"Point"},"properties":{"osm_id":"6176108813","tag":{"amenity":"waste_basket"}},"type":"Feature"},
	{"geometry":{"coordinates":[19.113232,47.580356],"type":"Point"},"properties":{"osm_id":"6695751587","tag":{"amenity":"waste_disposal","operator":"F K F V zrt"}},"type":"Feature"},
	{"geometry":{"coordinates":[19.113207,47.580373],"type":"Point"},"properties":{"osm_id":"6695751685","tag":{"amenity":"waste_disposal","operator":"fkfzrt 4 b"}},"type":"Feature"},
	{"geometry":{"coordinates":[19.13257,47.586821],"type":"Point"},"properties":{"barrier":"gate","osm_id":"7185192512","tag":{"access":"permit","motor_vehicle":"yes"}},"type":"Feature"},
	{"geometry":{"coordinates":[19.10875,47.610129],"type":"Point"},"properties":{"osm_id":"7416594221","tag":{"amenity":"waste_basket","waste":"trash"}},"type":"Feature"},
	{"geometry":{"coordinates":[19.107903,47.606236],"type":"Point"},"properties":{"osm_id":"7463224074","tag":{"amenity":"waste_basket"}},"type":"Feature"},
	{"geometry":{"coordinates":[19.109265,47.605533],"type":"Point"},"properties":{"osm_id":"7463224076","tag":{"amenity":"waste_basket"}},"type":"Feature"},
	{"geometry":{"coordinates":[19.110155,47.605333],"type":"Point"},"properties":{"osm_id":"7463224077","tag":{"amenity":"waste_basket"}},"type":"Feature"},
	{"geometry":{"coordinates":[19.107509,47.608155],"type":"Point"},"properties":{"osm_id":"7470542798","tag":{"amenity":"waste_basket"}},"type":"Feature"},
	{"geometry":{"coordinates":[19.081425,47.63194],"type":"Point"},"properties":{"osm_id":"7934408850","tag":{"amenity":"waste_basket"}},"type":"Feature"}
]
}
