{
"type": "FeatureCollection",
"features": [
	{"geometry":{"coordinates":[19.092835,47.564659],"type":"Point"},"properties":{"osm_id":"364952033","tag":{"amenity":"recycling","recycling:cans":"no","recycling:clothes":"yes","recycling:glass":"no","recycling:paper":"no","recycling_type":"container"}},"type":"Feature"},
	{"geometry":{"coordinates":[19.138412,47.55168],"type":"Point"},"properties":{"osm_id":"483597881","tag":{"amenity":"recycling","recycling_type":"container"}},"type":"Feature"},
	{"geometry":{"coordinates":[19.124752,47.55091],"type":"Point"},"properties":{"osm_id":"483597977","tag":{"amenity":"recycling","recycling_type":"container"}},"type":"Feature"},
	{"geometry":{"coordinates":[19.132999,47.524639],"type":"Point"},"properties":{"osm_id":"622949262","tag":{"amenity":"recycling","recycling_type":"container"}},"type":"Feature"},
	{"geometry":{"coordinates":[19.113823,47.541271],"type":"Point"},"properties":{"osm_id":"815014630","tag":{"amenity":"recycling","recycling_type":"container"}},"type":"Feature"},
	{"geometry":{"coordinates":[19.138121,47.542949],"type":"Point"},"properties":{"osm_id":"973564168","tag":{"amenity":"recycling","recycling:glass_bottles":"yes","recycling_type":"container"}},"type":"Feature"},
	{"geometry":{"coordinates":[19.136081,47.539461],"type":"Point"},"properties":{"osm_id":"973564169","tag":{"amenity":"recycling","recycling:glass":"yes","recycling_type":"container"}},"type":"Feature"},
	{"geometry":{"coordinates":[19.099132,47.560808],"type":"Point"},"properties":{"osm_id":"1345508162","tag":{"amenity":"recycling","description":"Megsz\u00c5\u00b1nt","recycling_type":"container"}},"type":"Feature"},
	{"geometry":{"coordinates":[19.101304,47.521445],"type":"Point"},"properties":{"osm_id":"1347068285","tag":{"amenity":"recycling","recycling_type":"container"}},"type":"Feature"},
	{"geometry":{"coordinates":[19.106616,47.560319],"type":"Point"},"properties":{"name":"FKF hullad\u00c3\u00a9kgy\u00c5\u00b1jt\u00c5\u0091 udvar","osm_id":"1355998985","tag":{"amenity":"recycling","opening_hours":"Mo-Fr 10:00-18:00; Sa 08:00-14:00","phone":"+36 30 567 4334","recycling:batteries":"yes","recycling:books":"yes","recycling:cans":"yes","recycling:cardboard":"yes","recycling:cartons":"yes","recycling:clothes":"no","recycling:electrical_appliances":"yes","recycling:glass":"yes","recycling:glass_bottles":"yes","recycling:magazines":"yes","recycling:newspaper":"yes","recycling:paper":"yes","recycling:paper_packaging":"yes","recycling:plastic":"yes","recycling:plastic_bottles":"yes","recycling:plastic_packaging":"yes","recycling:small_appliances":"yes","recycling_type":"centre","website":"https://www.fkf.hu/letesitmenyeink-hulladekudvar"}},"type":"Feature"},
	{"geometry":{"coordinates":[19.085839,47.556159],"type":"Point"},"properties":{"osm_id":"1359713959","tag":{"amenity":"recycling","recycling:cans":"yes","recycling:glass":"no","recycling:glass_bottles":"yes","recycling:paper":"yes","recycling_type":"container"}},"type":"Feature"},
	{"geometry":{"coordinates":[19.086453,47.544878],"type":"Point"},"properties":{"osm_id":"1366859084","tag":{"amenity":"recycling","recycling:glass_bottles":"yes","recycling_type":"container"}},"type":"Feature"},
	{"geometry":{"coordinates":[19.091307,47.551557],"type":"Point"},"properties":{"osm_id":"1368599618","tag":{"amenity":"recycling","recycling_type":"container"}},"type":"Feature"},
	{"geometry":{"coordinates":[19.080749,47.547039],"type":"Point"},"properties":{"osm_id":"1373997278","tag":{"amenity":"recycling","recycling_type":"container"}},"type":"Feature"},
	{"geometry":{"coordinates":[19.1032,47.55514],"type":"Point"},"properties":{"osm_id":"1375042109","tag":{"amenity":"recycling","recycling:cans":"yes","recycling:clothes":"no","recycling:glass":"yes","recycling:paper":"yes","recycling_type":"container"}},"type":"Feature"},
	{"geometry":{"coordinates":[19.089471,47.54639],"type":"Point"},"properties":{"osm_id":"1375406809","tag":{"amenity":"recycling","recycling_type":"container"}},"type":"Feature"},
	{"geometry":{"coordinates":[19.11672,47.54852],"type":"Point"},"properties":{"osm_id":"1380304140","tag":{"amenity":"recycling","recycling_type":"container"}},"type":"Feature"},
	{"geometry":{"coordinates":[19.081813,47.550321],"type":"Point"},"properties":{"osm_id":"1382034584","tag":{"amenity":"recycling","recycling_type":"container"}},"type":"Feature"},
	{"geometry":{"coordinates":[19.089762,47.551719],"type":"Point"},"properties":{"osm_id":"1382034828","tag":{"amenity":"recycling","recycling_type":"container"}},"type":"Feature"},
	{"geometry":{"coordinates":[19.077933,47.547154],"type":"Point"},"properties":{"osm_id":"1383271980","tag":{"amenity":"recycling","recycling_type":"container"}},"type":"Feature"},
	{"geometry":{"coordinates":[19.079954,47.549377],"type":"Point"},"properties":{"osm_id":"1383271996","tag":{"amenity":"recycling","recycling_type":"container"}},"type":"Feature"},
	{"geometry":{"coordinates":[19.076771,47.545647],"type":"Point"},"properties":{"osm_id":"1383272000","tag":{"amenity":"recycling","recycling_type":"container"}},"type":"Feature"},
	{"geometry":{"coordinates":[19.0738,47.53863],"type":"Point"},"properties":{"osm_id":"1385586175","tag":{"amenity":"recycling","recycling_type":"container"}},"type":"Feature"},
	{"geometry":{"coordinates":[19.10938,47.55587],"type":"Point"},"properties":{"osm_id":"1389526315","tag":{"amenity":"recycling","recycling_type":"container"}},"type":"Feature"},
	{"geometry":{"coordinates":[19.073229,47.542988],"type":"Point"},"properties":{"osm_id":"1395797313","tag":{"amenity":"recycling","recycling:glass":"yes","recycling:glass_bottles":"yes","recycling_type":"container"}},"type":"Feature"},
	{"geometry":{"coordinates":[19.08895,47.54083],"type":"Point"},"properties":{"osm_id":"1395809382","tag":{"amenity":"recycling","recycling_type":"container"}},"type":"Feature"},
	{"geometry":{"coordinates":[19.09462,47.5411],"type":"Point"},"properties":{"osm_id":"1395809442","tag":{"amenity":"recycling","recycling_type":"container"}},"type":"Feature"},
	{"geometry":{"coordinates":[19.110627,47.562926],"type":"Point"},"properties":{"osm_id":"1395974687","tag":{"amenity":"recycling","recycling_type":"container"}},"type":"Feature"},
	{"geometry":{"coordinates":[19.112505,47.562712],"type":"Point"},"properties":{"osm_id":"1395976430","tag":{"amenity":"recycling","recycling_type":"container"}},"type":"Feature"},
	{"geometry":{"coordinates":[19.10628,47.54895],"type":"Point"},"properties":{"osm_id":"1398794911","tag":{"amenity":"recycling","recycling_type":"container"}},"type":"Feature"},
	{"geometry":{"coordinates":[19.080682,47.53438],"type":"Point"},"properties":{"osm_id":"1399666384","tag":{"amenity":"recycling","recycling:glass":"yes","recycling_type":"container"}},"type":"Feature"},
	{"geometry":{"coordinates":[19.079682,47.532156],"type":"Point"},"properties":{"osm_id":"1399666389","tag":{"amenity":"recycling","recycling_type":"container"}},"type":"Feature"},
	{"geometry":{"coordinates":[19.076303,47.533354],"type":"Point"},"properties":{"osm_id":"1399666415","tag":{"amenity":"recycling","recycling_type":"container"}},"type":"Feature"},
	{"geometry":{"coordinates":[19.07369,47.53265],"type":"Point"},"properties":{"osm_id":"1400900275","tag":{"amenity":"recycling","recycling:green_waste":"yes","recycling_type":"container"}},"type":"Feature"},
	{"geometry":{"coordinates":[19.094883,47.568162],"type":"Point"},"properties":{"osm_id":"1402575885","tag":{"amenity":"recycling","recycling_type":"container"}},"type":"Feature"},
	{"geometry":{"coordinates":[19.08359,47.52645],"type":"Point"},"properties":{"osm_id":"1406128391","tag":{"amenity":"recycling","recycling_type":"container"}},"type":"Feature"},
	{"geometry":{"coordinates":[19.113711,47.544879],"type":"Point"},"properties":{"osm_id":"1408007427","tag":{"amenity":"recycling","recycling_type":"container"}},"type":"Feature"},
	{"geometry":{"coordinates":[19.10867,47.53925],"type":"Point"},"properties":{"osm_id":"1408007466","tag":{"amenity":"recycling","recycling_type":"container"}},"type":"Feature"},
	{"geometry":{"coordinates":[19.07947,47.548096],"type":"Point"},"properties":{"osm_id":"1412772263","tag":{"amenity":"recycling","recycling_type":"container"}},"type":"Feature"},
	{"geometry":{"coordinates":[19.08023,47.55225],"type":"Point"},"properties":{"osm_id":"1417291820","tag":{"amenity":"recycling","recycling_type":"container"}},"type":"Feature"},
	{"geometry":{"coordinates":[19.07648,47.54909],"type":"Point"},"properties":{"osm_id":"1417291860","tag":{"amenity":"recycling","recycling_type":"container"}},"type":"Feature"},
	{"geometry":{"coordinates":[19.072322,47.522999],"type":"Point"},"properties":{"osm_id":"1421169300","tag":{"amenity":"recycling","recycling_type":"container"}},"type":"Feature"},
	{"geometry":{"coordinates":[19.11825,47.545143],"type":"Point"},"properties":{"osm_id":"1436495226","tag":{"amenity":"recycling","recycling_type":"container"}},"type":"Feature"},
	{"geometry":{"coordinates":[19.104684,47.561875],"type":"Point"},"properties":{"osm_id":"1445454196","tag":{"amenity":"recycling","recycling_type":"container"}},"type":"Feature"},
	{"geometry":{"coordinates":[19.1083,47.56308],"type":"Point"},"properties":{"osm_id":"1445454701","tag":{"amenity":"recycling","recycling_type":"container"}},"type":"Feature"},
	{"geometry":{"coordinates":[19.098744,47.563853],"type":"Point"},"properties":{"osm_id":"1449253228","tag":{"amenity":"recycling","recycling:cans":"yes","recycling:clothes":"no","recycling:glass":"yes","recycling:paper":"yes","recycling:plastic":"yes","recycling_type":"container"}},"type":"Feature"},
	{"geometry":{"coordinates":[19.100682,47.532339],"type":"Point"},"properties":{"osm_id":"1696111219","tag":{"amenity":"recycling","recycling_type":"container"}},"type":"Feature"},
	{"geometry":{"coordinates":[19.106326,47.521432],"type":"Point"},"properties":{"osm_id":"1696111234","tag":{"amenity":"recycling","recycling:cans":"yes","recycling:clothes":"no","recycling:glass":"yes","recycling:paper":"yes","recycling_type":"container"}},"type":"Feature"},
	{"geometry":{"coordinates":[19.106524,47.538564],"type":"Point"},"properties":{"osm_id":"1696118977","tag":{"amenity":"recycling","recycling_type":"centre"}},"type":"Feature"},
	{"geometry":{"coordinates":[19.085241,47.538984],"type":"Point"},"properties":{"osm_id":"1715308825","tag":{"amenity":"recycling","recycling_type":"container"}},"type":"Feature"},
	{"geometry":{"coordinates":[19.129054,47.532281],"type":"Point"},"properties":{"osm_id":"1719077104","tag":{"amenity":"waste_basket","waste":"trash"}},"type":"Feature"},
	{"geometry":{"coordinates":[19.076146,47.551369],"type":"Point"},"properties":{"osm_id":"1849696007","tag":{"amenity":"recycling","recycling_type":"container"}},"type":"Feature"},
	{"geometry":{"coordinates":[19.110941,47.564889],"type":"Point"},"properties":{"osm_id":"1880482638","tag":{"amenity":"recycling","recycling_type":"container"}},"type":"Feature"},
	{"geometry":{"coordinates":[19.082514,47.552006],"type":"Point"},"properties":{"osm_id":"1904196883","tag":{"amenity":"recycling","recycling:cans":"yes","recycling:cartons":"yes","recycling:glass_bottles":"yes","recycling:paper":"yes","recycling:plastic_bottles":"yes","recycling_type":"container"}},"type":"Feature"},
	{"geometry":{"coordinates":[19.125598,47.527717],"type":"Point"},"properties":{"osm_id":"2022938216","tag":{"amenity":"waste_basket","waste":"dog_excrement"}},"type":"Feature"},
	{"geometry":{"coordinates":[19.127651,47.567331],"type":"Point"},"properties":{"osm_id":"2567580578","tag":{"amenity":"recycling","recycling:cans":"yes","recycling:clothes":"no","recycling:glass_bottles":"yes","recycling:paper":"yes","recycling_type":"container"}},"type":"Feature"},
	{"geometry":{"coordinates":[19.092532,47.537689],"type":"Point"},"properties":{"barrier":"gate","osm_id":"2667260015","tag":{"bicycle":"yes","foot":"yes"}},"type":"Feature"},
	{"geometry":{"coordinates":[19.093544,47.524594],"type":"Point"},"properties":{"osm_id":"2907764295","tag":{"amenity":"recycling","recycling:cans":"yes","recycling:glass":"yes","recycling:paper":"yes","recycling_type":"container"}},"type":"Feature"},
	{"geometry":{"coordinates":[19.081739,47.522702],"type":"Point"},"properties":{"osm_id":"2907785828","tag":{"amenity":"recycling","recycling:cans":"yes","recycling:glass":"yes","recycling:paper":"yes","recycling_type":"container"}},"type":"Feature"},
	{"geometry":{"coordinates":[19.078925,47.564853],"type":"Point"},"properties":{"osm_id":"2949471967","tag":{"amenity":"waste_basket"}},"type":"Feature"},
	{"geometry":{"coordinates":[19.080667,47.570438],"type":"Point"},"properties":{"osm_id":"2949471975","tag":{"amenity":"waste_basket"}},"type":"Feature"},
	{"geometry":{"coordinates":[19.09734,47.524513],"type":"Point"},"properties":{"osm_id":"3072756204","tag":{"amenity":"recycling","recycling:cans":"no","recycling:clothes":"no","recycling:glass":"yes","recycling:paper":"no","recycling_type":"container"}},"type":"Feature"},
	{"geometry":{"coordinates":[19.07245,47.517205],"type":"Point"},"properties":{"osm_id":"3092950780","tag":{"amenity":"recycling","recycling_type":"container"}},"type":"Feature"},
	{"geometry":{"coordinates":[19.137331,47.550006],"type":"Point"},"properties":{"osm_id":"3100700314","tag":{"amenity":"recycling","recycling:glass":"yes","recycling:paper":"no","recycling_type":"container"}},"type":"Feature"},
	{"geometry":{"coordinates":[19.094091,47.522368],"type":"Point"},"properties":{"osm_id":"3104317482","tag":{"amenity":"recycling","recycling_type":"container"}},"type":"Feature"},
	{"geometry":{"coordinates":[19.094643,47.555518],"type":"Point"},"properties":{"name":"Szelekt\u00c3\u00adv (\u00c3\u00bcveg)","osm_id":"3412448201","tag":{"amenity":"recycling","description":"Csak feh\u00c3\u00a9r \u00c3\u00a9s sz\u00c3\u00adnes \u00c3\u00bcveg","operator":"FKF","recycling:cans":"no","recycling:clothes":"no","recycling:glass":"yes","recycling:paper":"no","recycling_type":"container"}},"type":"Feature"},
	{"geometry":{"coordinates":[19.101771,47.55571],"type":"Point"},"properties":{"osm_id":"3412521909","tag":{"addr:city":"Budapest","addr:housenumber":"9","addr:postcode":"1045","addr:street":"R\u00c3\u00b3zsa utca","amenity":"recycling","recycling:cans":"no","recycling:clothes":"yes","recycling:glass":"yes","recycling:paper":"no","recycling_type":"container","website":"https://www.fkf.hu/portal/page/portal/fkfzrt/hulladekkez/szelektiv_gyujtes/gyujtoszig"}},"type":"Feature"},
	{"geometry":{"coordinates":[19.106853,47.560926],"type":"Point"},"properties":{"osm_id":"3412582759","tag":{"amenity":"recycling","recycling:cans":"no","recycling:clothes":"yes","recycling:glass":"no","recycling:paper":"no","recycling_type":"container"}},"type":"Feature"},
	{"geometry":{"coordinates":[19.095473,47.56151],"type":"Point"},"properties":{"osm_id":"3460103456","tag":{"amenity":"recycling","recycling:cans":"no","recycling:clothes":"no","recycling:glass":"yes","recycling:paper":"no","recycling_type":"container"}},"type":"Feature"},
	{"geometry":{"coordinates":[19.117878,47.533303],"type":"Point"},"properties":{"osm_id":"3495553639","tag":{"amenity":"recycling","recycling:cans":"yes","recycling:glass_bottles":"yes","recycling:paper":"yes","recycling:plastic":"no","recycling:plastic_packaging":"yes","recycling_type":"container"}},"type":"Feature"},
	{"geometry":{"coordinates":[19.10806,47.53858],"type":"Point"},"properties":{"osm_id":"3634905928","tag":{"amenity":"recycling","recycling_type":"centre"}},"type":"Feature"},
	{"geometry":{"coordinates":[19.073988,47.544179],"type":"Point"},"properties":{"osm_id":"3662435535","tag":{"amenity":"waste_basket"}},"type":"Feature"},
	{"geometry":{"coordinates":[19.07513,47.518463],"type":"Point"},"properties":{"osm_id":"4186003749","tag":{"amenity":"waste_basket"}},"type":"Feature"},
	{"geometry":{"coordinates":[19.075222,47.518499],"type":"Point"},"properties":{"osm_id":"4186003750","tag":{"amenity":"waste_basket"}},"type":"Feature"},
	{"geometry":{"coordinates":[19.146719,47.538729],"type":"Point"},"properties":{"name":"FKF Hullad\u00c3\u00a9kudvar","osm_id":"4333522392","tag":{"addr:city":"Budapest","addr:housenumber":"67","addr:postcode":"1157","addr:street":"Zs\u00c3\u00b3kav\u00c3\u00a1r utca","amenity":"recycling","contact:phone":"+36 30 567 4516","contact:website":"https://www.fkf.hu/letesitmenyeink-hulladekudvar","opening_hours":"Mo-Fr 10:00-18:00; Sa 08:00-14:00; PH off","operator":"FKF Nonprofit Zrt.","recycling_type":"centre"}},"type":"Feature"},
	{"geometry":{"coordinates":[19.084129,47.518005],"type":"Point"},"properties":{"osm_id":"4411857691","tag":{"amenity":"waste_basket","waste":"dog_excrement"}},"type":"Feature"},
	{"geometry":{"coordinates":[19.083515,47.517756],"type":"Point"},"properties":{"osm_id":"4411857692","tag":{"amenity":"waste_basket"}},"type":"Feature"},
	{"geometry":{"coordinates":[19.082636,47.517374],"type":"Point"},"properties":{"osm_id":"4411857693","tag":{"amenity":"waste_basket"}},"type":"Feature"},
	{"geometry":{"coordinates":[19.082633,47.517384],"type":"Point"},"properties":{"osm_id":"4411857694","tag":{"amenity":"waste_basket","waste":"dog_excrement"}},"type":"Feature"},
	{"geometry":{"coordinates":[19.124877,47.572249],"type":"Point"},"properties":{"osm_id":"4465518428","tag":{"amenity":"recycling","recycling:glass":"yes","recycling:paper":"yes","recycling:plastic":"yes","recycling_type":"container"}},"type":"Feature"},
	{"geometry":{"coordinates":[19.127033,47.519649],"type":"Point"},"properties":{"name":"Szelekt\u00c3\u00adv hullad\u00c3\u00a9kgy\u00c5\u00b1jt\u00c5\u0091 kont\u00c3\u00a9nerek","osm_id":"4466212691","tag":{"amenity":"recycling","operator":"FKF Zrt.","recycling:clothes":"no","recycling:glass":"yes"}},"type":"Feature"},
	{"geometry":{"coordinates":[19.082046,47.557481],"type":"Point"},"properties":{"osm_id":"4484727371","tag":{"amenity":"waste_basket","waste":"dog_excrement"}},"type":"Feature"},
	{"geometry":{"coordinates":[19.079528,47.544911],"type":"Point"},"properties":{"osm_id":"4489606193","tag":{"amenity":"waste_basket","waste":"dog_excrement"}},"type":"Feature"},
	{"geometry":{"coordinates":[19.079619,47.545108],"type":"Point"},"properties":{"osm_id":"4489606194","tag":{"amenity":"waste_basket","waste":"dog_excrement"}},"type":"Feature"},
	{"geometry":{"coordinates":[19.079879,47.545641],"type":"Point"},"properties":{"osm_id":"4489606195","tag":{"amenity":"waste_basket","waste":"dog_excrement"}},"type":"Feature"},
	{"geometry":{"coordinates":[19.080102,47.546127],"type":"Point"},"properties":{"osm_id":"4489606200","tag":{"amenity":"waste_basket","waste":"dog_excrement"}},"type":"Feature"},
	{"geometry":{"coordinates":[19.080443,47.546837],"type":"Point"},"properties":{"osm_id":"4489606201","tag":{"amenity":"waste_basket","waste":"dog_excrement"}},"type":"Feature"},
	{"geometry":{"coordinates":[19.080588,47.547165],"type":"Point"},"properties":{"osm_id":"4489606206","tag":{"amenity":"waste_basket","waste":"dog_excrement"}},"type":"Feature"},
	{"geometry":{"coordinates":[19.080942,47.547891],"type":"Point"},"properties":{"osm_id":"4489606207","tag":{"amenity":"waste_basket","waste":"dog_excrement"}},"type":"Feature"},
	{"geometry":{"coordinates":[19.08124,47.548532],"type":"Point"},"properties":{"osm_id":"4489606212","tag":{"amenity":"waste_basket","waste":"dog_excrement"}},"type":"Feature"},
	{"geometry":{"coordinates":[19.08175,47.549592],"type":"Point"},"properties":{"osm_id":"4489606213","tag":{"amenity":"waste_basket","waste":"dog_excrement"}},"type":"Feature"},
	{"geometry":{"coordinates":[19.082086,47.550128],"type":"Point"},"properties":{"osm_id":"4489606214","tag":{"amenity":"waste_basket","waste":"dog_excrement"}},"type":"Feature"},
	{"geometry":{"coordinates":[19.082852,47.551171],"type":"Point"},"properties":{"osm_id":"4489606215","tag":{"amenity":"waste_basket","waste":"dog_excrement"}},"type":"Feature"},
	{"geometry":{"coordinates":[19.083354,47.551709],"type":"Point"},"properties":{"osm_id":"4489606216","tag":{"amenity":"waste_basket","waste":"dog_excrement"}},"type":"Feature"},
	{"geometry":{"coordinates":[19.072604,47.526224],"type":"Point"},"properties":{"osm_id":"4489613173","tag":{"amenity":"waste_basket","waste":"dog_excrement"}},"type":"Feature"},
	{"geometry":{"coordinates":[19.140653,47.51807],"type":"Point"},"properties":{"osm_id":"4489615074","tag":{"amenity":"waste_basket","waste":"dog_excrement"}},"type":"Feature"},
	{"geometry":{"coordinates":[19.13335,47.521028],"type":"Point"},"properties":{"osm_id":"4489615833","tag":{"amenity":"waste_basket","waste":"dog_excrement"}},"type":"Feature"},
	{"geometry":{"coordinates":[19.149873,47.517579],"type":"Point"},"properties":{"osm_id":"4489615914","tag":{"amenity":"waste_basket","waste":"dog_excrement"}},"type":"Feature"},
	{"geometry":{"coordinates":[19.14158,47.542488],"type":"Point"},"properties":{"osm_id":"4844606832","tag":{"amenity":"waste_basket"}},"type":"Feature"},
	{"geometry":{"coordinates":[19.141236,47.542681],"type":"Point"},"properties":{"osm_id":"4844606841","tag":{"amenity":"waste_basket"}},"type":"Feature"},
	{"geometry":{"coordinates":[19.144325,47.541156],"type":"Point"},"properties":{"osm_id":"4846377368","tag":{"amenity":"waste_basket"}},"type":"Feature"},
	{"geometry":{"coordinates":[19.14392,47.541309],"type":"Point"},"properties":{"osm_id":"4846377369","tag":{"amenity":"waste_basket"}},"type":"Feature"},
	{"geometry":{"coordinates":[19.144125,47.541235],"type":"Point"},"properties":{"osm_id":"4846377370","tag":{"amenity":"waste_basket"}},"type":"Feature"},
	{"geometry":{"coordinates":[19.141044,47.542813],"type":"Point"},"properties":{"osm_id":"4846377397","tag":{"amenity":"waste_basket"}},"type":"Feature"},
	{"geometry":{"coordinates":[19.142412,47.54248],"type":"Point"},"properties":{"osm_id":"4846377413","tag":{"amenity":"waste_basket"}},"type":"Feature"},
	{"geometry":{"coordinates":[19.142239,47.542559],"type":"Point"},"properties":{"osm_id":"4846377414","tag":{"amenity":"waste_basket"}},"type":"Feature"},
	{"geometry":{"coordinates":[19.13697,47.537156],"type":"Point"},"properties":{"osm_id":"4854951971","tag":{"amenity":"waste_basket"}},"type":"Feature"},
	{"geometry":{"coordinates":[19.14113,47.540982],"type":"Point"},"properties":{"osm_id":"4856181910","tag":{"amenity":"waste_basket"}},"type":"Feature"},
	{"geometry":{"coordinates":[19.140947,47.5408],"type":"Point"},"properties":{"osm_id":"4856181911","tag":{"amenity":"waste_basket"}},"type":"Feature"},
	{"geometry":{"coordinates":[19.140575,47.540616],"type":"Point"},"properties":{"osm_id":"4856181912","tag":{"amenity":"waste_basket"}},"type":"Feature"},
	{"geometry":{"coordinates":[19.140377,47.540467],"type":"Point"},"properties":{"osm_id":"4856181918","tag":{"amenity":"waste_basket"}},"type":"Feature"},
	{"geometry":{"coordinates":[19.139982,47.540173],"type":"Point"},"properties":{"osm_id":"4856181919","tag":{"amenity":"waste_basket"}},"type":"Feature"},
	{"geometry":{"coordinates":[19.139536,47.539832],"type":"Point"},"properties":{"osm_id":"4856181920","tag":{"amenity":"waste_basket"}},"type":"Feature"},
	{"geometry":{"coordinates":[19.139305,47.539615],"type":"Point"},"properties":{"osm_id":"4856184521","tag":{"amenity":"waste_basket"}},"type":"Feature"},
	{"geometry":{"coordinates":[19.148492,47.520313],"type":"Point"},"properties":{"name":"FKF Hullad\u00c3\u00a9kudvar","osm_id":"4867681500","tag":{"addr:city":"Budapest","addr:housenumber":"2-4","addr:postcode":"1161","addr:street":"Cs\u00c3\u00b6m\u00c3\u00b6ri \u00c3\u00bat","amenity":"recycling","opening_hours":"Mo-Fr 10:00-18:00; Sa 8:00-14:00","operator":"FKF","phone":"+36 30 567 4361","recycling:batteries":"yes","recycling:clothes":"yes","recycling:electrical_appliances":"yes","recycling:glass":"yes","recycling:paper":"yes","recycling:plastic":"yes","recycling:scrap_metal":"yes","recycling_type":"centre","website":"https://www.fkf.hu/portal/page/portal/fkfzrt/hulladekkez/szelektiv_gyujtes/hulladekudvar"}},"type":"Feature"},
	{"geometry":{"coordinates":[19.12611,47.530178],"type":"Point"},"properties":{"osm_id":"5007870531","tag":{"amenity":"recycling","recycling:cans":"yes","recycling:cardboard":"yes","recycling:glass_bottles":"yes","recycling:paper":"yes","recycling:plastic":"yes","recycling_type":"container"}},"type":"Feature"},
	{"geometry":{"coordinates":[19.151345,47.541056],"type":"Point"},"properties":{"osm_id":"5274109752","tag":{"amenity":"recycling","location":"overground","recycling:glass":"yes","recycling_type":"container"}},"type":"Feature"},
	{"geometry":{"coordinates":[19.134919,47.535855],"type":"Point"},"properties":{"osm_id":"5451784037","tag":{"amenity":"waste_basket","waste":"trash"}},"type":"Feature"},
	{"geometry":{"coordinates":[19.134458,47.535498],"type":"Point"},"properties":{"osm_id":"5451784038","tag":{"amenity":"waste_basket","waste":"trash"}},"type":"Feature"},
	{"geometry":{"coordinates":[19.13372,47.534928],"type":"Point"},"properties":{"osm_id":"5451784039","tag":{"amenity":"waste_basket","waste":"trash"}},"type":"Feature"},
	{"geometry":{"coordinates":[19.133547,47.534837],"type":"Point"},"properties":{"osm_id":"5454303024","tag":{"amenity":"recycling","opening_hours":"24/7","operator":"FKF","recycling:glass_bottles":"yes","recycling_type":"container"}},"type":"Feature"},
	{"geometry":{"coordinates":[19.133521,47.534853],"type":"Point"},"properties":{"osm_id":"5454303025","tag":{"amenity":"recycling","opening_hours":"24/7","operator":"FKF","recycling:glass_bottles":"yes","recycling_type":"container"}},"type":"Feature"},
	{"geometry":{"coordinates":[19.133428,47.53434],"type":"Point"},"properties":{"osm_id":"5485325256","tag":{"amenity":"waste_basket","waste":"dog_excrement"}},"type":"Feature"},
	{"geometry":{"coordinates":[19.133768,47.534569],"type":"Point"},"properties":{"osm_id":"5485325257","tag":{"amenity":"waste_basket","waste":"dog_excrement"}},"type":"Feature"},
	{"geometry":{"coordinates":[19.133576,47.534412],"type":"Point"},"properties":{"osm_id":"5485325258","tag":{"amenity":"waste_basket","waste":"trash"}},"type":"Feature"},
	{"geometry":{"coordinates":[19.133796,47.534607],"type":"Point"},"properties":{"osm_id":"5485325259","tag":{"amenity":"waste_basket","waste":"trash"}},"type":"Feature"},
	{"geometry":{"coordinates":[19.132943,47.5339],"type":"Point"},"properties":{"osm_id":"5485325260","tag":{"amenity":"waste_basket","waste":"trash"}},"type":"Feature"},
	{"geometry":{"coordinates":[19.133124,47.535057],"type":"Point"},"properties":{"osm_id":"5485960217","tag":{"amenity":"waste_basket","waste":"trash"}},"type":"Feature"},
	{"geometry":{"coordinates":[19.134249,47.520151],"type":"Point"},"properties":{"osm_id":"5535278095","tag":{"amenity":"recycling","description":"A sporttelep nyitvatart\u00c3\u00a1si idej\u00c3\u00a9ben haszn\u00c3\u00a1lhat\u00c3\u00b3","recycling:glass":"yes","recycling:paper":"yes","recycling:plastic_bottles":"yes","recycling_type":"container"}},"type":"Feature"},
	{"geometry":{"coordinates":[19.130167,47.565461],"type":"Point"},"properties":{"osm_id":"5684222879","tag":{"amenity":"waste_basket"}},"type":"Feature"},
	{"geometry":{"coordinates":[19.082671,47.528619],"type":"Point"},"properties":{"osm_id":"5722967582","tag":{"amenity":"waste_basket"}},"type":"Feature"},
	{"geometry":{"coordinates":[19.082216,47.528968],"type":"Point"},"properties":{"osm_id":"5722967585","tag":{"amenity":"waste_basket"}},"type":"Feature"},
	{"geometry":{"coordinates":[19.080831,47.529973],"type":"Point"},"properties":{"osm_id":"5723043454","tag":{"amenity":"waste_basket"}},"type":"Feature"},
	{"geometry":{"coordinates":[19.080668,47.529688],"type":"Point"},"properties":{"osm_id":"5723043455","tag":{"amenity":"waste_basket"}},"type":"Feature"},
	{"geometry":{"coordinates":[19.079303,47.530235],"type":"Point"},"properties":{"osm_id":"5723073833","tag":{"amenity":"waste_basket"}},"type":"Feature"},
	{"geometry":{"coordinates":[19.079483,47.530535],"type":"Point"},"properties":{"osm_id":"5723073834","tag":{"amenity":"waste_basket"}},"type":"Feature"},
	{"geometry":{"coordinates":[19.079874,47.530775],"type":"Point"},"properties":{"osm_id":"5723073842","tag":{"amenity":"waste_basket"}},"type":"Feature"},
	{"geometry":{"coordinates":[19.08009,47.531061],"type":"Point"},"properties":{"osm_id":"5723123296","tag":{"amenity":"waste_basket"}},"type":"Feature"},
	{"geometry":{"coordinates":[19.080144,47.531168],"type":"Point"},"properties":{"osm_id":"5723123297","tag":{"amenity":"waste_basket"}},"type":"Feature"},
	{"geometry":{"coordinates":[19.080331,47.531536],"type":"Point"},"properties":{"osm_id":"5723123301","tag":{"amenity":"waste_basket"}},"type":"Feature"},
	{"geometry":{"coordinates":[19.080463,47.531367],"type":"Point"},"properties":{"osm_id":"5723133695","tag":{"amenity":"waste_basket"}},"type":"Feature"},
	{"geometry":{"coordinates":[19.092863,47.522594],"type":"Point"},"properties":{"osm_id":"5775652566","tag":{"amenity":"waste_basket"}},"type":"Feature"},
	{"geometry":{"coordinates":[19.092846,47.522567],"type":"Point"},"properties":{"osm_id":"5775652567","tag":{"amenity":"waste_basket"}},"type":"Feature"},
	{"geometry":{"coordinates":[19.0723,47.545786],"type":"Point"},"properties":{"osm_id":"5783474054","tag":{"amenity":"waste_basket"}},"type":"Feature"},
	{"geometry":{"coordinates":[19.081522,47.522253],"type":"Point"},"properties":{"osm_id":"5860679021","tag":{"amenity":"waste_basket"}},"type":"Feature"},
	{"geometry":{"coordinates":[19.081908,47.525039],"type":"Point"},"properties":{"osm_id":"5864956730","tag":{"amenity":"waste_basket"}},"type":"Feature"},
	{"geometry":{"coordinates":[19.082445,47.525852],"type":"Point"},"properties":{"osm_id":"5864976197","tag":{"amenity":"waste_basket"}},"type":"Feature"},
	{"geometry":{"coordinates":[19.082515,47.526045],"type":"Point"},"properties":{"osm_id":"5864976198","tag":{"amenity":"waste_basket"}},"type":"Feature"},
	{"geometry":{"coordinates":[19.083279,47.525561],"type":"Point"},"properties":{"osm_id":"5864976199","tag":{"amenity":"waste_basket"}},"type":"Feature"},
	{"geometry":{"coordinates":[19.083707,47.52388],"type":"Point"},"properties":{"osm_id":"5864976202","tag":{"amenity":"waste_basket"}},"type":"Feature"},
	{"geometry":{"coordinates":[19.08391,47.523796],"type":"Point"},"properties":{"osm_id":"5864976204","tag":{"amenity":"waste_basket"}},"type":"Feature"},
	{"geometry":{"coordinates":[19.082935,47.526624],"type":"Point"},"properties":{"osm_id":"5865084383","tag":{"amenity":"waste_basket"}},"type":"Feature"},
	{"geometry":{"coordinates":[19.082916,47.526685],"type":"Point"},"properties":{"osm_id":"5865084384","tag":{"amenity":"waste_basket"}},"type":"Feature"},
	{"geometry":{"coordinates":[19.083503,47.528216],"type":"Point"},"properties":{"osm_id":"5865085904","tag":{"amenity":"waste_basket"}},"type":"Feature"},
	{"geometry":{"coordinates":[19.084592,47.528924],"type":"Point"},"properties":{"osm_id":"5865159817","tag":{"amenity":"waste_basket"}},"type":"Feature"},
	{"geometry":{"coordinates":[19.08599,47.531475],"type":"Point"},"properties":{"osm_id":"5865205567","tag":{"amenity":"waste_basket"}},"type":"Feature"},
	{"geometry":{"coordinates":[19.08657,47.532896],"type":"Point"},"properties":{"osm_id":"5865205571","tag":{"amenity":"waste_basket"}},"type":"Feature"},
	{"geometry":{"coordinates":[19.087291,47.534261],"type":"Point"},"properties":{"osm_id":"5865205579","tag":{"amenity":"waste_basket"}},"type":"Feature"},
	{"geometry":{"coordinates":[19.08849,47.535619],"type":"Point"},"properties":{"osm_id":"5865280308","tag":{"amenity":"waste_basket"}},"type":"Feature"},
	{"geometry":{"coordinates":[19.089119,47.53666],"type":"Point"},"properties":{"osm_id":"5865280319","tag":{"amenity":"waste_basket"}},"type":"Feature"},
	{"geometry":{"coordinates":[19.089869,47.538642],"type":"Point"},"properties":{"osm_id":"5865311295","tag":{"amenity":"waste_basket"}},"type":"Feature"},
	{"geometry":{"coordinates":[19.090177,47.538607],"type":"Point"},"properties":{"osm_id":"5865311296","tag":{"amenity":"waste_basket"}},"type":"Feature"},
	{"geometry":{"coordinates":[19.089873,47.538516],"type":"Point"},"properties":{"osm_id":"5865311297","tag":{"amenity":"waste_basket"}},"type":"Feature"},
	{"geometry":{"coordinates":[19.090546,47.539238],"type":"Point"},"properties":{"osm_id":"5865361012","tag":{"amenity":"waste_basket"}},"type":"Feature"},
	{"geometry":{"coordinates":[19.091049,47.539988],"type":"Point"},"properties":{"osm_id":"5865361016","tag":{"amenity":"waste_basket"}},"type":"Feature"},
	{"geometry":{"coordinates":[19.090958,47.539969],"type":"Point"},"properties":{"osm_id":"5865361017","tag":{"amenity":"waste_basket"}},"type":"Feature"},
	{"geometry":{"coordinates":[19.091019,47.54007],"type":"Point"},"properties":{"osm_id":"5865361018","tag":{"amenity":"waste_basket"}},"type":"Feature"},
	{"geometry":{"coordinates":[19.090817,47.540139],"type":"Point"},"properties":{"osm_id":"5865361019","tag":{"amenity":"waste_basket"}},"type":"Feature"},
	{"geometry":{"coordinates":[19.090737,47.54002],"type":"Point"},"properties":{"osm_id":"5865361020","tag":{"amenity":"waste_basket"}},"type":"Feature"},
	{"geometry":{"coordinates":[19.091377,47.540642],"type":"Point"},"properties":{"osm_id":"5865515144","tag":{"amenity":"waste_basket"}},"type":"Feature"},
	{"geometry":{"coordinates":[19.091828,47.54144],"type":"Point"},"properties":{"osm_id":"5865515156","tag":{"amenity":"waste_basket"}},"type":"Feature"},
	{"geometry":{"coordinates":[19.092726,47.542947],"type":"Point"},"properties":{"osm_id":"5865542438","tag":{"amenity":"waste_basket"}},"type":"Feature"},
	{"geometry":{"coordinates":[19.092485,47.543005],"type":"Point"},"properties":{"osm_id":"5865542439","tag":{"amenity":"waste_basket"}},"type":"Feature"},
	{"geometry":{"coordinates":[19.093203,47.544342],"type":"Point"},"properties":{"osm_id":"5865559858","tag":{"amenity":"waste_basket"}},"type":"Feature"},
	{"geometry":{"coordinates":[19.091812,47.545931],"type":"Point"},"properties":{"osm_id":"5865639833","tag":{"amenity":"waste_basket"}},"type":"Feature"},
	{"geometry":{"coordinates":[19.088812,47.546364],"type":"Point"},"properties":{"osm_id":"5865767104","tag":{"amenity":"waste_basket"}},"type":"Feature"},
	{"geometry":{"coordinates":[19.088861,47.546364],"type":"Point"},"properties":{"osm_id":"5865767105","tag":{"amenity":"waste_basket"}},"type":"Feature"},
	{"geometry":{"coordinates":[19.088612,47.555789],"type":"Point"},"properties":{"osm_id":"5867567711","tag":{"amenity":"waste_basket"}},"type":"Feature"},
	{"geometry":{"coordinates":[19.089208,47.555867],"type":"Point"},"properties":{"osm_id":"5867567712","tag":{"amenity":"waste_basket"}},"type":"Feature"},
	{"geometry":{"coordinates":[19.093206,47.555488],"type":"Point"},"properties":{"osm_id":"5867674153","tag":{"amenity":"waste_basket"}},"type":"Feature"},
	{"geometry":{"coordinates":[19.090853,47.555674],"type":"Point"},"properties":{"osm_id":"5867674159","tag":{"amenity":"waste_basket"}},"type":"Feature"},
	{"geometry":{"coordinates":[19.090921,47.55567],"type":"Point"},"properties":{"osm_id":"5867674160","tag":{"amenity":"waste_basket"}},"type":"Feature"},
	{"geometry":{"coordinates":[19.088893,47.556737],"type":"Point"},"properties":{"osm_id":"5867695567","tag":{"amenity":"waste_basket"}},"type":"Feature"},
	{"geometry":{"coordinates":[19.08896,47.556661],"type":"Point"},"properties":{"osm_id":"5867695568","tag":{"amenity":"waste_basket"}},"type":"Feature"},
	{"geometry":{"coordinates":[19.092092,47.555332],"type":"Point"},"properties":{"osm_id":"5867989682","tag":{"amenity":"waste_basket"}},"type":"Feature"},
	{"geometry":{"coordinates":[19.094181,47.555501],"type":"Point"},"properties":{"osm_id":"5867999595","tag":{"amenity":"waste_basket"}},"type":"Feature"},
	{"geometry":{"coordinates":[19.097604,47.55529],"type":"Point"},"properties":{"osm_id":"5867999621","tag":{"amenity":"waste_basket"}},"type":"Feature"},
	{"geometry":{"coordinates":[19.097587,47.555329],"type":"Point"},"properties":{"osm_id":"5867999622","tag":{"amenity":"waste_basket"}},"type":"Feature"},
	{"geometry":{"coordinates":[19.097792,47.555279],"type":"Point"},"properties":{"osm_id":"5867999623","tag":{"amenity":"waste_basket"}},"type":"Feature"},
	{"geometry":{"coordinates":[19.095478,47.554499],"type":"Point"},"properties":{"osm_id":"5870471693","tag":{"amenity":"waste_basket"}},"type":"Feature"},
	{"geometry":{"coordinates":[19.093736,47.554456],"type":"Point"},"properties":{"osm_id":"5870471698","tag":{"amenity":"waste_basket"}},"type":"Feature"},
	{"geometry":{"coordinates":[19.09812,47.554459],"type":"Point"},"properties":{"osm_id":"5870471709","tag":{"amenity":"waste_basket"}},"type":"Feature"},
	{"geometry":{"coordinates":[19.10042,47.555404],"type":"Point"},"properties":{"osm_id":"5878693742","tag":{"amenity":"waste_basket"}},"type":"Feature"},
	{"geometry":{"coordinates":[19.100401,47.555255],"type":"Point"},"properties":{"osm_id":"5878693743","tag":{"amenity":"waste_basket"}},"type":"Feature"},
	{"geometry":{"coordinates":[19.101915,47.555034],"type":"Point"},"properties":{"osm_id":"5878693781","tag":{"amenity":"waste_basket"}},"type":"Feature"},
	{"geometry":{"coordinates":[19.101958,47.555215],"type":"Point"},"properties":{"osm_id":"5878693782","tag":{"amenity":"waste_basket"}},"type":"Feature"},
	{"geometry":{"coordinates":[19.101328,47.555706],"type":"Point"},"properties":{"osm_id":"5884934061","tag":{"amenity":"waste_basket"}},"type":"Feature"},
	{"geometry":{"coordinates":[19.101545,47.555914],"type":"Point"},"properties":{"osm_id":"5884934079","tag":{"amenity":"waste_basket"}},"type":"Feature"},
	{"geometry":{"coordinates":[19.100641,47.556839],"type":"Point"},"properties":{"osm_id":"5884934084","tag":{"amenity":"waste_basket"}},"type":"Feature"},
	{"geometry":{"coordinates":[19.100327,47.557026],"type":"Point"},"properties":{"osm_id":"5884934190","tag":{"amenity":"waste_basket"}},"type":"Feature"},
	{"geometry":{"coordinates":[19.10047,47.55787],"type":"Point"},"properties":{"osm_id":"5886871042","tag":{"amenity":"waste_basket"}},"type":"Feature"},
	{"geometry":{"coordinates":[19.099944,47.558072],"type":"Point"},"properties":{"osm_id":"5886871043","tag":{"amenity":"waste_basket"}},"type":"Feature"},
	{"geometry":{"coordinates":[19.099867,47.558234],"type":"Point"},"properties":{"osm_id":"5886871052","tag":{"amenity":"waste_basket"}},"type":"Feature"},
	{"geometry":{"coordinates":[19.099477,47.558845],"type":"Point"},"properties":{"osm_id":"5886871053","tag":{"amenity":"waste_basket"}},"type":"Feature"},
	{"geometry":{"coordinates":[19.099008,47.559466],"type":"Point"},"properties":{"osm_id":"5886871067","tag":{"amenity":"waste_basket"}},"type":"Feature"},
	{"geometry":{"coordinates":[19.099023,47.55962],"type":"Point"},"properties":{"osm_id":"5886871069","tag":{"amenity":"waste_basket"}},"type":"Feature"},
	{"geometry":{"coordinates":[19.099435,47.559367],"type":"Point"},"properties":{"osm_id":"5886871070","tag":{"amenity":"waste_basket"}},"type":"Feature"},
	{"geometry":{"coordinates":[19.0967,47.558977],"type":"Point"},"properties":{"osm_id":"5886871074","tag":{"amenity":"waste_basket"}},"type":"Feature"},
	{"geometry":{"coordinates":[19.095456,47.559011],"type":"Point"},"properties":{"osm_id":"5886871077","tag":{"amenity":"waste_basket"}},"type":"Feature"},
	{"geometry":{"coordinates":[19.09483,47.559101],"type":"Point"},"properties":{"osm_id":"5886871079","tag":{"amenity":"waste_basket"}},"type":"Feature"},
	{"geometry":{"coordinates":[19.094289,47.559159],"type":"Point"},"properties":{"osm_id":"5886953972","tag":{"amenity":"waste_basket"}},"type":"Feature"},
	{"geometry":{"coordinates":[19.092548,47.559239],"type":"Point"},"properties":{"osm_id":"5886953980","tag":{"amenity":"waste_basket"}},"type":"Feature"},
	{"geometry":{"coordinates":[19.090997,47.559393],"type":"Point"},"properties":{"osm_id":"5886953983","tag":{"amenity":"waste_basket"}},"type":"Feature"},
	{"geometry":{"coordinates":[19.090234,47.559465],"type":"Point"},"properties":{"osm_id":"5886953988","tag":{"amenity":"waste_basket"}},"type":"Feature"},
	{"geometry":{"coordinates":[19.090184,47.559467],"type":"Point"},"properties":{"osm_id":"5886953989","tag":{"amenity":"waste_basket"}},"type":"Feature"},
	{"geometry":{"coordinates":[19.089491,47.559652],"type":"Point"},"properties":{"osm_id":"5886953995","tag":{"amenity":"waste_basket"}},"type":"Feature"},
	{"geometry":{"coordinates":[19.089759,47.559489],"type":"Point"},"properties":{"osm_id":"5886953996","tag":{"amenity":"waste_basket"}},"type":"Feature"},
	{"geometry":{"coordinates":[19.089153,47.559557],"type":"Point"},"properties":{"osm_id":"5886954007","tag":{"amenity":"waste_basket"}},"type":"Feature"},
	{"geometry":{"coordinates":[19.089206,47.559471],"type":"Point"},"properties":{"osm_id":"5886954008","tag":{"amenity":"waste_basket"}},"type":"Feature"},
	{"geometry":{"coordinates":[19.098593,47.56041],"type":"Point"},"properties":{"osm_id":"5887078851","tag":{"amenity":"waste_basket"}},"type":"Feature"},
	{"geometry":{"coordinates":[19.099184,47.560223],"type":"Point"},"properties":{"osm_id":"5887078859","tag":{"amenity":"waste_basket"}},"type":"Feature"},
	{"geometry":{"coordinates":[19.09999,47.560722],"type":"Point"},"properties":{"osm_id":"5887078871","tag":{"amenity":"waste_basket"}},"type":"Feature"},
	{"geometry":{"coordinates":[19.101511,47.560848],"type":"Point"},"properties":{"osm_id":"5887078873","tag":{"amenity":"waste_basket"}},"type":"Feature"},
	{"geometry":{"coordinates":[19.097915,47.560203],"type":"Point"},"properties":{"osm_id":"5887210239","tag":{"amenity":"waste_basket"}},"type":"Feature"},
	{"geometry":{"coordinates":[19.097689,47.560151],"type":"Point"},"properties":{"osm_id":"5887210240","tag":{"amenity":"waste_basket"}},"type":"Feature"},
	{"geometry":{"coordinates":[19.096437,47.559726],"type":"Point"},"properties":{"osm_id":"5887250145","tag":{"amenity":"waste_basket"}},"type":"Feature"},
	{"geometry":{"coordinates":[19.094487,47.559937],"type":"Point"},"properties":{"osm_id":"5887250157","tag":{"amenity":"waste_basket"}},"type":"Feature"},
	{"geometry":{"coordinates":[19.092572,47.559936],"type":"Point"},"properties":{"osm_id":"5887250162","tag":{"amenity":"waste_basket"}},"type":"Feature"},
	{"geometry":{"coordinates":[19.092256,47.560205],"type":"Point"},"properties":{"osm_id":"5887250164","tag":{"amenity":"waste_basket"}},"type":"Feature"},
	{"geometry":{"coordinates":[19.091425,47.560287],"type":"Point"},"properties":{"osm_id":"5887250166","tag":{"amenity":"waste_basket"}},"type":"Feature"},
	{"geometry":{"coordinates":[19.099539,47.561713],"type":"Point"},"properties":{"osm_id":"5887450727","tag":{"amenity":"waste_basket"}},"type":"Feature"},
	{"geometry":{"coordinates":[19.099689,47.562136],"type":"Point"},"properties":{"osm_id":"5887450728","tag":{"amenity":"waste_basket"}},"type":"Feature"},
	{"geometry":{"coordinates":[19.09979,47.562454],"type":"Point"},"properties":{"osm_id":"5887450729","tag":{"amenity":"waste_basket"}},"type":"Feature"},
	{"geometry":{"coordinates":[19.099976,47.562963],"type":"Point"},"properties":{"osm_id":"5887450730","tag":{"amenity":"waste_basket"}},"type":"Feature"},
	{"geometry":{"coordinates":[19.100021,47.563137],"type":"Point"},"properties":{"osm_id":"5887450731","tag":{"amenity":"waste_basket"}},"type":"Feature"},
	{"geometry":{"coordinates":[19.099922,47.563341],"type":"Point"},"properties":{"osm_id":"5887450732","tag":{"amenity":"waste_basket"}},"type":"Feature"},
	{"geometry":{"coordinates":[19.099417,47.563715],"type":"Point"},"properties":{"osm_id":"5887450734","tag":{"amenity":"waste_basket"}},"type":"Feature"},
	{"geometry":{"coordinates":[19.09996,47.563683],"type":"Point"},"properties":{"osm_id":"5887450737","tag":{"amenity":"waste_basket"}},"type":"Feature"},
	{"geometry":{"coordinates":[19.100066,47.564738],"type":"Point"},"properties":{"osm_id":"5887450752","tag":{"amenity":"waste_basket"}},"type":"Feature"},
	{"geometry":{"coordinates":[19.100416,47.565036],"type":"Point"},"properties":{"osm_id":"5887450754","tag":{"amenity":"waste_basket"}},"type":"Feature"},
	{"geometry":{"coordinates":[19.098703,47.566675],"type":"Point"},"properties":{"osm_id":"5888203814","tag":{"amenity":"waste_basket"}},"type":"Feature"},
	{"geometry":{"coordinates":[19.103179,47.573874],"type":"Point"},"properties":{"osm_id":"5895619358","tag":{"amenity":"waste_basket"}},"type":"Feature"},
	{"geometry":{"coordinates":[19.103375,47.574534],"type":"Point"},"properties":{"osm_id":"5895619360","tag":{"amenity":"waste_basket"}},"type":"Feature"},
	{"geometry":{"coordinates":[19.104362,47.57537],"type":"Point"},"properties":{"osm_id":"5895619366","tag":{"amenity":"waste_basket"}},"type":"Feature"},
	{"geometry":{"coordinates":[19.088501,47.55739],"type":"Point"},"properties":{"osm_id":"5896303735","tag":{"amenity":"waste_basket"}},"type":"Feature"},
	{"geometry":{"coordinates":[19.087838,47.557493],"type":"Point"},"properties":{"osm_id":"5896303738","tag":{"amenity":"waste_basket"}},"type":"Feature"},
	{"geometry":{"coordinates":[19.087448,47.557465],"type":"Point"},"properties":{"osm_id":"5896303739","tag":{"amenity":"waste_basket"}},"type":"Feature"},
	{"geometry":{"coordinates":[19.088238,47.565565],"type":"Point"},"properties":{"osm_id":"5898757531","tag":{"amenity":"waste_basket"}},"type":"Feature"},
	{"geometry":{"coordinates":[19.091752,47.568355],"type":"Point"},"properties":{"osm_id":"5898757553","tag":{"amenity":"waste_basket"}},"type":"Feature"},
	{"geometry":{"coordinates":[19.09191,47.568704],"type":"Point"},"properties":{"osm_id":"5898800300","tag":{"amenity":"waste_basket"}},"type":"Feature"},
	{"geometry":{"coordinates":[19.09228,47.569009],"type":"Point"},"properties":{"osm_id":"5898800303","tag":{"amenity":"waste_basket"}},"type":"Feature"},
	{"geometry":{"coordinates":[19.09316,47.569698],"type":"Point"},"properties":{"osm_id":"5898800324","tag":{"amenity":"waste_basket"}},"type":"Feature"},
	{"geometry":{"coordinates":[19.087051,47.572756],"type":"Point"},"properties":{"osm_id":"5899055783","tag":{"amenity":"waste_basket"}},"type":"Feature"},
	{"geometry":{"coordinates":[19.135158,47.537114],"type":"Point"},"properties":{"osm_id":"5901286204","tag":{"amenity":"waste_basket"}},"type":"Feature"},
	{"geometry":{"coordinates":[19.13535,47.537222],"type":"Point"},"properties":{"osm_id":"5901286209","tag":{"amenity":"waste_basket"}},"type":"Feature"},
	{"geometry":{"coordinates":[19.091966,47.576433],"type":"Point"},"properties":{"osm_id":"5901805553","tag":{"amenity":"waste_basket"}},"type":"Feature"},
	{"geometry":{"coordinates":[19.077585,47.52604],"type":"Point"},"properties":{"osm_id":"5913558340","tag":{"amenity":"waste_basket"}},"type":"Feature"},
	{"geometry":{"coordinates":[19.078679,47.526881],"type":"Point"},"properties":{"osm_id":"5926535819","tag":{"amenity":"waste_basket"}},"type":"Feature"},
	{"geometry":{"coordinates":[19.079416,47.527617],"type":"Point"},"properties":{"osm_id":"5926535828","tag":{"amenity":"waste_basket"}},"type":"Feature"},
	{"geometry":{"coordinates":[19.079618,47.527981],"type":"Point"},"properties":{"osm_id":"5926535831","tag":{"amenity":"waste_basket"}},"type":"Feature"},
	{"geometry":{"coordinates":[19.079642,47.528037],"type":"Point"},"properties":{"osm_id":"5926535832","tag":{"amenity":"waste_basket"}},"type":"Feature"},
	{"geometry":{"coordinates":[19.07933,47.528131],"type":"Point"},"properties":{"osm_id":"5926561001","tag":{"amenity":"waste_basket"}},"type":"Feature"},
	{"geometry":{"coordinates":[19.079894,47.528479],"type":"Point"},"properties":{"osm_id":"5931139443","tag":{"amenity":"waste_basket"}},"type":"Feature"},
	{"geometry":{"coordinates":[19.079601,47.528605],"type":"Point"},"properties":{"osm_id":"5931139444","tag":{"amenity":"waste_basket"}},"type":"Feature"},
	{"geometry":{"coordinates":[19.07972,47.528875],"type":"Point"},"properties":{"osm_id":"5931139448","tag":{"amenity":"waste_basket"}},"type":"Feature"},
	{"geometry":{"coordinates":[19.080004,47.529365],"type":"Point"},"properties":{"osm_id":"5931139450","tag":{"amenity":"waste_basket"}},"type":"Feature"},
	{"geometry":{"coordinates":[19.080281,47.52985],"type":"Point"},"properties":{"osm_id":"5931139453","tag":{"amenity":"waste_basket"}},"type":"Feature"},
	{"geometry":{"coordinates":[19.081207,47.574156],"type":"Point"},"properties":{"osm_id":"5968244201","tag":{"amenity":"waste_basket"}},"type":"Feature"},
	{"geometry":{"coordinates":[19.081137,47.573572],"type":"Point"},"properties":{"osm_id":"5968244203","tag":{"amenity":"waste_basket"}},"type":"Feature"},
	{"geometry":{"coordinates":[19.08097,47.574407],"type":"Point"},"properties":{"osm_id":"5968244215","tag":{"amenity":"waste_basket"}},"type":"Feature"},
	{"geometry":{"coordinates":[19.081001,47.575356],"type":"Point"},"properties":{"osm_id":"5968244218","tag":{"amenity":"waste_basket"}},"type":"Feature"},
	{"geometry":{"coordinates":[19.152688,47.52188],"type":"Point"},"properties":{"osm_id":"6038801198","tag":{"amenity":"waste_basket"}},"type":"Feature"},
	{"geometry":{"coordinates":[19.123696,47.52586],"type":"Point"},"properties":{"osm_id":"6117878868","tag":{"amenity":"waste_basket","waste":"dog_excrement"}},"type":"Feature"},
	{"geometry":{"coordinates":[19.081911,47.522055],"type":"Point"},"properties":{"osm_id":"6172606985","tag":{"amenity":"waste_basket"}},"type":"Feature"},
	{"geometry":{"coordinates":[19.103016,47.573098],"type":"Point"},"properties":{"osm_id":"6172854681","tag":{"amenity":"waste_basket"}},"type":"Feature"},
	{"geometry":{"coordinates":[19.088875,47.556868],"type":"Point"},"properties":{"osm_id":"6172906138","tag":{"amenity":"waste_basket"}},"type":"Feature"},
	{"geometry":{"coordinates":[19.139511,47.544527],"type":"Point"},"properties":{"osm_id":"6200415794","tag":{"amenity":"waste_basket"}},"type":"Feature"},
	{"geometry":{"coordinates":[19.139505,47.54302],"type":"Point"},"properties":{"osm_id":"6200415797","tag":{"amenity":"waste_basket"}},"type":"Feature"},
	{"geometry":{"coordinates":[19.137158,47.539604],"type":"Point"},"properties":{"osm_id":"6200415801","tag":{"amenity":"waste_basket"}},"type":"Feature"},
	{"geometry":{"coordinates":[19.135924,47.538478],"type":"Point"},"properties":{"osm_id":"6200453641","tag":{"amenity":"waste_basket"}},"type":"Feature"},
	{"geometry":{"coordinates":[19.135443,47.537601],"type":"Point"},"properties":{"osm_id":"6200453644","tag":{"amenity":"waste_basket"}},"type":"Feature"},
	{"geometry":{"coordinates":[19.134224,47.536453],"type":"Point"},"properties":{"osm_id":"6200503530","tag":{"amenity":"waste_basket"}},"type":"Feature"},
	{"geometry":{"coordinates":[19.130682,47.533993],"type":"Point"},"properties":{"osm_id":"6200577507","tag":{"amenity":"waste_basket"}},"type":"Feature"},
	{"geometry":{"coordinates":[19.130629,47.533904],"type":"Point"},"properties":{"osm_id":"6200577511","tag":{"amenity":"waste_basket"}},"type":"Feature"},
	{"geometry":{"coordinates":[19.124414,47.528564],"type":"Point"},"properties":{"osm_id":"6200713932","tag":{"amenity":"waste_basket"}},"type":"Feature"},
	{"geometry":{"coordinates":[19.12399,47.528603],"type":"Point"},"properties":{"osm_id":"6200713942","tag":{"amenity":"waste_basket"}},"type":"Feature"},
	{"geometry":{"coordinates":[19.118941,47.539511],"type":"Point"},"properties":{"osm_id":"6205215132","tag":{"amenity":"waste_basket"}},"type":"Feature"},
	{"geometry":{"coordinates":[19.118947,47.540853],"type":"Point"},"properties":{"osm_id":"6207578370","tag":{"amenity":"waste_basket"}},"type":"Feature"},
	{"geometry":{"coordinates":[19.114184,47.544039],"type":"Point"},"properties":{"osm_id":"6207766531","tag":{"amenity":"waste_basket"}},"type":"Feature"},
	{"geometry":{"coordinates":[19.113414,47.544886],"type":"Point"},"properties":{"osm_id":"6207766569","tag":{"amenity":"waste_basket"}},"type":"Feature"},
	{"geometry":{"coordinates":[19.115345,47.547806],"type":"Point"},"properties":{"osm_id":"6208027610","tag":{"amenity":"waste_basket"}},"type":"Feature"},
	{"geometry":{"coordinates":[19.115861,47.548252],"type":"Point"},"properties":{"osm_id":"6208027615","tag":{"amenity":"waste_basket"}},"type":"Feature"},
	{"geometry":{"coordinates":[19.116663,47.548895],"type":"Point"},"properties":{"osm_id":"6208027632","tag":{"amenity":"waste_basket"}},"type":"Feature"},
	{"geometry":{"coordinates":[19.116538,47.549047],"type":"Point"},"properties":{"osm_id":"6208027633","tag":{"amenity":"waste_basket"}},"type":"Feature"},
	{"geometry":{"coordinates":[19.117396,47.550574],"type":"Point"},"properties":{"osm_id":"6210353318","tag":{"amenity":"waste_basket"}},"type":"Feature"},
	{"geometry":{"coordinates":[19.117068,47.550281],"type":"Point"},"properties":{"osm_id":"6210353322","tag":{"amenity":"waste_basket"}},"type":"Feature"},
	{"geometry":{"coordinates":[19.117699,47.551776],"type":"Point"},"properties":{"osm_id":"6210395436","tag":{"amenity":"waste_basket"}},"type":"Feature"},
	{"geometry":{"coordinates":[19.118011,47.551948],"type":"Point"},"properties":{"osm_id":"6210395464","tag":{"amenity":"waste_basket"}},"type":"Feature"},
	{"geometry":{"coordinates":[19.118628,47.55329],"type":"Point"},"properties":{"osm_id":"6210395472","tag":{"amenity":"waste_basket"}},"type":"Feature"},
	{"geometry":{"coordinates":[19.118334,47.553366],"type":"Point"},"properties":{"osm_id":"6210395477","tag":{"amenity":"waste_basket"}},"type":"Feature"},
	{"geometry":{"coordinates":[19.118958,47.554298],"type":"Point"},"properties":{"osm_id":"6210417911","tag":{"amenity":"waste_basket"}},"type":"Feature"},
	{"geometry":{"coordinates":[19.118745,47.554358],"type":"Point"},"properties":{"osm_id":"6210417912","tag":{"amenity":"waste_basket"}},"type":"Feature"},
	{"geometry":{"coordinates":[19.120597,47.558573],"type":"Point"},"properties":{"osm_id":"6213396197","tag":{"amenity":"waste_basket"}},"type":"Feature"},
	{"geometry":{"coordinates":[19.120735,47.558936],"type":"Point"},"properties":{"osm_id":"6213396208","tag":{"amenity":"waste_basket"}},"type":"Feature"},
	{"geometry":{"coordinates":[19.120878,47.559279],"type":"Point"},"properties":{"osm_id":"6213396218","tag":{"amenity":"waste_basket"}},"type":"Feature"},
	{"geometry":{"coordinates":[19.121436,47.55964],"type":"Point"},"properties":{"osm_id":"6213585950","tag":{"amenity":"waste_basket"}},"type":"Feature"},
	{"geometry":{"coordinates":[19.119931,47.560288],"type":"Point"},"properties":{"osm_id":"6213587095","tag":{"amenity":"waste_basket"}},"type":"Feature"},
	{"geometry":{"coordinates":[19.120177,47.560142],"type":"Point"},"properties":{"osm_id":"6213587100","tag":{"amenity":"waste_basket"}},"type":"Feature"},
	{"geometry":{"coordinates":[19.123344,47.562211],"type":"Point"},"properties":{"osm_id":"6215758801","tag":{"amenity":"waste_basket"}},"type":"Feature"},
	{"geometry":{"coordinates":[19.127911,47.567432],"type":"Point"},"properties":{"osm_id":"6216053352","tag":{"amenity":"waste_basket"}},"type":"Feature"},
	{"geometry":{"coordinates":[19.126439,47.568177],"type":"Point"},"properties":{"osm_id":"6216053373","tag":{"amenity":"waste_basket"}},"type":"Feature"},
	{"geometry":{"coordinates":[19.126132,47.568168],"type":"Point"},"properties":{"osm_id":"6216053382","tag":{"amenity":"waste_basket"}},"type":"Feature"},
	{"geometry":{"coordinates":[19.125932,47.568119],"type":"Point"},"properties":{"osm_id":"6218195261","tag":{"amenity":"waste_basket"}},"type":"Feature"},
	{"geometry":{"coordinates":[19.125493,47.567691],"type":"Point"},"properties":{"osm_id":"6218195263","tag":{"amenity":"waste_basket"}},"type":"Feature"},
	{"geometry":{"coordinates":[19.124975,47.56746],"type":"Point"},"properties":{"osm_id":"6218195283","tag":{"amenity":"waste_basket"}},"type":"Feature"},
	{"geometry":{"coordinates":[19.124804,47.567466],"type":"Point"},"properties":{"osm_id":"6218196085","tag":{"amenity":"waste_basket"}},"type":"Feature"},
	{"geometry":{"coordinates":[19.124532,47.567279],"type":"Point"},"properties":{"osm_id":"6218196089","tag":{"amenity":"waste_basket"}},"type":"Feature"},
	{"geometry":{"coordinates":[19.112142,47.5197],"type":"Point"},"properties":{"osm_id":"6221024415","tag":{"amenity":"waste_basket"}},"type":"Feature"},
	{"geometry":{"coordinates":[19.112203,47.519749],"type":"Point"},"properties":{"osm_id":"6221024416","tag":{"amenity":"waste_basket"}},"type":"Feature"},
	{"geometry":{"coordinates":[19.112287,47.519834],"type":"Point"},"properties":{"osm_id":"6221024417","tag":{"amenity":"waste_basket"}},"type":"Feature"},
	{"geometry":{"coordinates":[19.113203,47.520518],"type":"Point"},"properties":{"osm_id":"6221024423","tag":{"amenity":"waste_basket"}},"type":"Feature"},
	{"geometry":{"coordinates":[19.113927,47.520622],"type":"Point"},"properties":{"osm_id":"6221140407","tag":{"amenity":"waste_basket"}},"type":"Feature"},
	{"geometry":{"coordinates":[19.092989,47.521106],"type":"Point"},"properties":{"osm_id":"6224569426","tag":{"amenity":"waste_basket"}},"type":"Feature"},
	{"geometry":{"coordinates":[19.092304,47.520666],"type":"Point"},"properties":{"osm_id":"6224569430","tag":{"amenity":"waste_basket"}},"type":"Feature"},
	{"geometry":{"coordinates":[19.091858,47.521712],"type":"Point"},"properties":{"osm_id":"6224888627","tag":{"amenity":"waste_basket"}},"type":"Feature"},
	{"geometry":{"coordinates":[19.137433,47.537629],"type":"Point"},"properties":{"osm_id":"6225227658","tag":{"amenity":"waste_basket"}},"type":"Feature"},
	{"geometry":{"coordinates":[19.108628,47.542944],"type":"Point"},"properties":{"osm_id":"6232347430","tag":{"amenity":"waste_basket"}},"type":"Feature"},
	{"geometry":{"coordinates":[19.112898,47.555429],"type":"Point"},"properties":{"osm_id":"6233170016","tag":{"amenity":"waste_basket"}},"type":"Feature"},
	{"geometry":{"coordinates":[19.113505,47.55751],"type":"Point"},"properties":{"osm_id":"6233170053","tag":{"amenity":"waste_basket"}},"type":"Feature"},
	{"geometry":{"coordinates":[19.115558,47.562383],"type":"Point"},"properties":{"osm_id":"6235813758","tag":{"amenity":"waste_basket"}},"type":"Feature"},
	{"geometry":{"coordinates":[19.115842,47.562781],"type":"Point"},"properties":{"osm_id":"6235813767","tag":{"amenity":"waste_basket"}},"type":"Feature"},
	{"geometry":{"coordinates":[19.106901,47.562171],"type":"Point"},"properties":{"osm_id":"6236266531","tag":{"amenity":"waste_basket"}},"type":"Feature"},
	{"geometry":{"coordinates":[19.107018,47.562583],"type":"Point"},"properties":{"osm_id":"6236266551","tag":{"amenity":"waste_basket"}},"type":"Feature"},
	{"geometry":{"coordinates":[19.108861,47.562771],"type":"Point"},"properties":{"osm_id":"6236266564","tag":{"amenity":"waste_basket"}},"type":"Feature"},
	{"geometry":{"coordinates":[19.110382,47.563609],"type":"Point"},"properties":{"osm_id":"6236266575","tag":{"amenity":"waste_basket"}},"type":"Feature"},
	{"geometry":{"coordinates":[19.112464,47.563331],"type":"Point"},"properties":{"osm_id":"6241435849","tag":{"amenity":"waste_basket"}},"type":"Feature"},
	{"geometry":{"coordinates":[19.112344,47.56323],"type":"Point"},"properties":{"osm_id":"6241435854","tag":{"amenity":"waste_basket"}},"type":"Feature"},
	{"geometry":{"coordinates":[19.116612,47.562847],"type":"Point"},"properties":{"osm_id":"6241567896","tag":{"amenity":"waste_basket"}},"type":"Feature"},
	{"geometry":{"coordinates":[19.120432,47.563369],"type":"Point"},"properties":{"osm_id":"6241580632","tag":{"amenity":"waste_basket"}},"type":"Feature"},
	{"geometry":{"coordinates":[19.10454,47.561725],"type":"Point"},"properties":{"osm_id":"6243945183","tag":{"amenity":"waste_basket"}},"type":"Feature"},
	{"geometry":{"coordinates":[19.103776,47.561484],"type":"Point"},"properties":{"osm_id":"6243946189","tag":{"amenity":"waste_basket"}},"type":"Feature"},
	{"geometry":{"coordinates":[19.10286,47.561037],"type":"Point"},"properties":{"osm_id":"6243946206","tag":{"amenity":"waste_basket"}},"type":"Feature"},
	{"geometry":{"coordinates":[19.102017,47.562547],"type":"Point"},"properties":{"osm_id":"6244331281","tag":{"amenity":"waste_basket"}},"type":"Feature"},
	{"geometry":{"coordinates":[19.101951,47.562142],"type":"Point"},"properties":{"osm_id":"6244343805","tag":{"amenity":"waste_basket"}},"type":"Feature"},
	{"geometry":{"coordinates":[19.099021,47.560543],"type":"Point"},"properties":{"highway":"street_lamp","osm_id":"6244371719","tag":{"amenity":"waste_basket"}},"type":"Feature"},
	{"geometry":{"coordinates":[19.079923,47.547862],"type":"Point"},"properties":{"osm_id":"6274314158","tag":{"amenity":"waste_basket"}},"type":"Feature"},
	{"geometry":{"coordinates":[19.080088,47.547741],"type":"Point"},"properties":{"osm_id":"6274314159","tag":{"amenity":"waste_basket"}},"type":"Feature"},
	{"geometry":{"coordinates":[19.080269,47.548077],"type":"Point"},"properties":{"osm_id":"6274314163","tag":{"amenity":"waste_basket"}},"type":"Feature"},
	{"geometry":{"coordinates":[19.080011,47.54775],"type":"Point"},"properties":{"osm_id":"6274314165","tag":{"amenity":"waste_basket"}},"type":"Feature"},
	{"geometry":{"coordinates":[19.080162,47.547809],"type":"Point"},"properties":{"osm_id":"6274314167","tag":{"amenity":"waste_basket"}},"type":"Feature"},
	{"geometry":{"coordinates":[19.092943,47.562131],"type":"Point"},"properties":{"osm_id":"6695751586","tag":{"amenity":"waste_disposal","operator":"F\u00c5\u0091v\u00c3\u00a1rosi k\u00c3\u00b6zter\u00c3\u00bclet fentart\u00c3\u00b3 zrt"}},"type":"Feature"},
	{"geometry":{"coordinates":[19.101221,47.53566],"type":"Point"},"properties":{"name":"Bencsics Kont\u00c3\u00a9ner","osm_id":"6779426777","tag":{"addr:city":"Budapest","addr:housenumber":"14","addr:postcode":"1142","addr:street":"Kom\u00c3\u00a1romi \u00c3\u00bat","amenity":"waste_disposal","description":"kont\u00c3\u00a9neres sittsz\u00c3\u00a1ll\u00c3\u00adt\u00c3\u00a1s","phone":"+36 1 784 1310","website":"http://www.bencsicskontener.hu"}},"type":"Feature"},
	{"geometry":{"coordinates":[19.14028,47.554097],"type":"Point"},"properties":{"osm_id":"6872717679","tag":{"amenity":"waste_disposal"}},"type":"Feature"},
	{"geometry":{"coordinates":[19.140137,47.553982],"type":"Point"},"properties":{"osm_id":"6872717680","tag":{"amenity":"waste_disposal"}},"type":"Feature"},
	{"geometry":{"coordinates":[19.080004,47.557795],"type":"Point"},"properties":{"osm_id":"7111423701","tag":{"amenity":"waste_basket"}},"type":"Feature"},
	{"geometry":{"coordinates":[19.07314,47.550503],"type":"Point"},"properties":{"osm_id":"7115123362","tag":{"amenity":"recycling","level":"0","recycling:paper":"yes","recycling:plastic":"yes","recycling_type":"container"}},"type":"Feature"},
	{"geometry":{"coordinates":[19.098723,47.544018],"type":"Point"},"properties":{"osm_id":"7209181195","tag":{"amenity":"waste_basket","colour":"gray","material":"steel","waste":"trash"}},"type":"Feature"},
	{"geometry":{"coordinates":[19.098464,47.544129],"type":"Point"},"properties":{"osm_id":"7209181200","tag":{"amenity":"waste_basket","colour":"gray","material":"steel","waste":"trash"}},"type":"Feature"},
	{"geometry":{"coordinates":[19.098041,47.544308],"type":"Point"},"properties":{"osm_id":"7209181204","tag":{"amenity":"waste_basket","colour":"gray","material":"steel","waste":"trash"}},"type":"Feature"},
	{"geometry":{"coordinates":[19.097863,47.544391],"type":"Point"},"properties":{"osm_id":"7209181208","tag":{"amenity":"waste_basket","colour":"gray","material":"steel","waste":"trash"}},"type":"Feature"},
	{"geometry":{"coordinates":[19.099351,47.543549],"type":"Point"},"properties":{"osm_id":"7209181262","tag":{"amenity":"waste_basket","colour":"gray","material":"steel","waste":"trash"}},"type":"Feature"},
	{"geometry":{"coordinates":[19.099599,47.543398],"type":"Point"},"properties":{"osm_id":"7209181265","tag":{"amenity":"waste_basket","colour":"gray","material":"steel","waste":"trash"}},"type":"Feature"},
	{"geometry":{"coordinates":[19.099855,47.543219],"type":"Point"},"properties":{"osm_id":"7209181268","tag":{"amenity":"waste_basket","colour":"gray","material":"steel","waste":"trash"}},"type":"Feature"},
	{"geometry":{"coordinates":[19.100048,47.543068],"type":"Point"},"properties":{"osm_id":"7209181271","tag":{"amenity":"waste_basket","colour":"gray","material":"steel","waste":"trash"}},"type":"Feature"},
	{"geometry":{"coordinates":[19.091316,47.541623],"type":"Point"},"properties":{"osm_id":"7359322235","tag":{"amenity":"waste_basket"}},"type":"Feature"},
	{"geometry":{"coordinates":[19.129043,47.532265],"type":"Point"},"properties":{"osm_id":"7395144184","tag":{"amenity":"waste_basket","waste":"dog_excrement"}},"type":"Feature"},
	{"geometry":{"coordinates":[19.119438,47.519979],"type":"Point"},"properties":{"osm_id":"7411019821","tag":{"amenity":"waste_basket","waste":"dog_excrement"}},"type":"Feature"},
	{"geometry":{"coordinates":[19.084581,47.549844],"type":"Point"},"properties":{"osm_id":"7440583964","tag":{"amenity":"waste_basket","waste":"trash"}},"type":"Feature"},
	{"geometry":{"coordinates":[19.084627,47.5499],"type":"Point"},"properties":{"osm_id":"7440583965","tag":{"amenity":"waste_basket","waste":"trash"}},"type":"Feature"},
	{"geometry":{"coordinates":[19.082376,47.547835],"type":"Point"},"properties":{"osm_id":"7441795729","tag":{"amenity":"waste_basket","waste":"trash"}},"type":"Feature"},
	{"geometry":{"coordinates":[19.124534,47.568545],"type":"Point"},"properties":{"osm_id":"7448382374","tag":{"amenity":"waste_basket"}},"type":"Feature"},
	{"geometry":{"coordinates":[19.125509,47.568527],"type":"Point"},"properties":{"osm_id":"7448382375","tag":{"accuracy":"2","amenity":"waste_basket"}},"type":"Feature"},
	{"geometry":{"coordinates":[19.100065,47.56583],"type":"Point"},"properties":{"osm_id":"7466712535","tag":{"access":"private","amenity":"waste_disposal"}},"type":"Feature"},
	{"geometry":{"coordinates":[19.124667,47.568462],"type":"Point"},"properties":{"osm_id":"7839258257","tag":{"amenity":"waste_basket"}},"type":"Feature"},
	{"geometry":{"coordinates":[19.124851,47.568865],"type":"Point"},"properties":{"osm_id":"7886785237","tag":{"amenity":"waste_basket","waste":"dog_excrement"}},"type":"Feature"},
	{"geometry":{"coordinates":[19.12514,47.568721],"type":"Point"},"properties":{"osm_id":"7886785239","tag":{"amenity":"waste_basket"}},"type":"Feature"},
	{"geometry":{"coordinates":[19.127059,47.568486],"type":"Point"},"properties":{"osm_id":"7886785240","tag":{"amenity":"waste_basket","waste":"trash"}},"type":"Feature"},
	{"geometry":{"coordinates":[19.109757,47.535459],"type":"Point"},"properties":{"osm_id":"7933339029","tag":{"amenity":"waste_basket"}},"type":"Feature"}
]
}
