{
"type": "FeatureCollection",
"features": [
	{"geometry":{"coordinates":[19.135551,47.504759],"type":"Point"},"properties":{"osm_id":"482746083","tag":{"amenity":"recycling","recycling_type":"container"}},"type":"Feature"},
	{"geometry":{"coordinates":[19.151257,47.48151],"type":"Point"},"properties":{"osm_id":"702938265","tag":{"amenity":"recycling","recycling_type":"container"}},"type":"Feature"},
	{"geometry":{"coordinates":[19.152448,47.480494],"type":"Point"},"properties":{"osm_id":"702938799","tag":{"amenity":"recycling","recycling_type":"container"}},"type":"Feature"},
	{"geometry":{"coordinates":[19.114167,47.469741],"type":"Point"},"properties":{"osm_id":"966071041","tag":{"amenity":"recycling","recycling_type":"container"}},"type":"Feature"},
	{"geometry":{"coordinates":[19.089569,47.503776],"type":"Point"},"properties":{"osm_id":"985001870","tag":{"amenity":"recycling","recycling:cans":"yes","recycling:glass":"yes","recycling:paper":"yes","recycling:scrap_metal":"yes","recycling_type":"container"}},"type":"Feature"},
	{"geometry":{"coordinates":[19.141428,47.458819],"type":"Point"},"properties":{"osm_id":"991105078","tag":{"amenity":"recycling","recycling_type":"container"}},"type":"Feature"},
	{"geometry":{"coordinates":[19.141884,47.459283],"type":"Point"},"properties":{"osm_id":"991105088","tag":{"amenity":"recycling","recycling_type":"container"}},"type":"Feature"},
	{"geometry":{"coordinates":[19.099183,47.483255],"type":"Point"},"properties":{"osm_id":"1121646453","tag":{"addr:city":"Budapest","addr:street":"Bl\u00c3\u00a1thy Ott\u00c3\u00b3 utca","amenity":"recycling"}},"type":"Feature"},
	{"geometry":{"coordinates":[19.100959,47.500529],"type":"Point"},"properties":{"osm_id":"1218308234","tag":{"amenity":"recycling"}},"type":"Feature"},
	{"geometry":{"coordinates":[19.091254,47.485129],"type":"Point"},"properties":{"name":"Hullad\u00c3\u00a9kgy\u00c5\u00b1jt\u00c5\u0091 udvar","osm_id":"1458146218","tag":{"addr:city":"Budapest","addr:housenumber":"5","addr:postcode":"1089","addr:street":"S\u00c3\u00a1rk\u00c3\u00a1ny utca","amenity":"recycling","recycling:batteries":"yes","recycling:electrical_appliances":"yes","recycling_type":"centre"}},"type":"Feature"},
	{"geometry":{"coordinates":[19.100231,47.511883],"type":"Point"},"properties":{"osm_id":"1585390979","tag":{"amenity":"recycling","recycling_type":"container"}},"type":"Feature"},
	{"geometry":{"coordinates":[19.096896,47.479349],"type":"Point"},"properties":{"osm_id":"1654494465","tag":{"amenity":"recycling"}},"type":"Feature"},
	{"geometry":{"coordinates":[19.085349,47.485335],"type":"Point"},"properties":{"osm_id":"1674648938","tag":{"amenity":"recycling"}},"type":"Feature"},
	{"geometry":{"coordinates":[19.119574,47.514209],"type":"Point"},"properties":{"osm_id":"1696118981","tag":{"amenity":"recycling","recycling_type":"container"}},"type":"Feature"},
	{"geometry":{"coordinates":[19.124746,47.512785],"type":"Point"},"properties":{"osm_id":"1698441537","tag":{"amenity":"recycling","recycling_type":"container"}},"type":"Feature"},
	{"geometry":{"coordinates":[19.143494,47.485341],"type":"Point"},"properties":{"osm_id":"1835855737","tag":{"amenity":"recycling","recycling_type":"container"}},"type":"Feature"},
	{"geometry":{"coordinates":[19.143387,47.486107],"type":"Point"},"properties":{"name":"Szem\u00c3\u00a9tledob\u00c3\u00b3","osm_id":"1835855741","tag":{"amenity":"waste_basket","recycling:glass":"no","recycling:glass_bottles":"no","recycling_type":"container"}},"type":"Feature"},
	{"geometry":{"coordinates":[19.080115,47.486925],"type":"Point"},"properties":{"osm_id":"1964568317","tag":{"addr:city":"Budapest","addr:street":"Szigony utca","amenity":"recycling"}},"type":"Feature"},
	{"geometry":{"coordinates":[19.080384,47.479232],"type":"Point"},"properties":{"osm_id":"1978707882","tag":{"amenity":"recycling","recycling_type":"container"}},"type":"Feature"},
	{"geometry":{"coordinates":[19.11077,47.490472],"type":"Point"},"properties":{"osm_id":"1994240786","tag":{"amenity":"recycling","recycling_type":"container"}},"type":"Feature"},
	{"geometry":{"coordinates":[19.157021,47.505973],"type":"Point"},"properties":{"osm_id":"2003689906","tag":{"amenity":"recycling","recycling_type":"container"}},"type":"Feature"},
	{"geometry":{"coordinates":[19.118755,47.504416],"type":"Point"},"properties":{"osm_id":"2328198346","tag":{"amenity":"recycling","recycling_type":"container"}},"type":"Feature"},
	{"geometry":{"coordinates":[19.096062,47.478682],"type":"Point"},"properties":{"osm_id":"2512977476","tag":{"amenity":"waste_basket"}},"type":"Feature"},
	{"geometry":{"coordinates":[19.096642,47.479305],"type":"Point"},"properties":{"osm_id":"2512980715","tag":{"amenity":"waste_basket"}},"type":"Feature"},
	{"geometry":{"coordinates":[19.097196,47.479428],"type":"Point"},"properties":{"osm_id":"2512985494","tag":{"amenity":"waste_basket"}},"type":"Feature"},
	{"geometry":{"coordinates":[19.098407,47.478928],"type":"Point"},"properties":{"osm_id":"2512988830","tag":{"amenity":"waste_basket"}},"type":"Feature"},
	{"geometry":{"coordinates":[19.099147,47.47867],"type":"Point"},"properties":{"osm_id":"2512989089","tag":{"amenity":"waste_basket"}},"type":"Feature"},
	{"geometry":{"coordinates":[19.150576,47.513958],"type":"Point"},"properties":{"name":"FKF Zrt. szelekt\u00c3\u00adv hullad\u00c3\u00a9kudvar","osm_id":"2528585531","tag":{"amenity":"waste_basket"}},"type":"Feature"},
	{"geometry":{"coordinates":[19.150087,47.46446],"type":"Point"},"properties":{"osm_id":"2571740742","tag":{"amenity":"waste_basket"}},"type":"Feature"},
	{"geometry":{"coordinates":[19.157136,47.465455],"type":"Point"},"properties":{"osm_id":"2571740863","tag":{"amenity":"waste_basket"}},"type":"Feature"},
	{"geometry":{"coordinates":[19.15355,47.466764],"type":"Point"},"properties":{"osm_id":"2571741051","tag":{"amenity":"waste_basket"}},"type":"Feature"},
	{"geometry":{"coordinates":[19.154272,47.466805],"type":"Point"},"properties":{"osm_id":"2579721705","tag":{"amenity":"waste_basket"}},"type":"Feature"},
	{"geometry":{"coordinates":[19.153781,47.466911],"type":"Point"},"properties":{"osm_id":"2579721720","tag":{"amenity":"waste_basket"}},"type":"Feature"},
	{"geometry":{"coordinates":[19.076628,47.493098],"type":"Point"},"properties":{"osm_id":"3316347345","tag":{"amenity":"recycling","opening_hours":"24/7","recycling:glass":"yes","recycling:glass_bottles":"yes","recycling_type":"container","wheelchair":"yes"}},"type":"Feature"},
	{"geometry":{"coordinates":[19.074021,47.491163],"type":"Point"},"properties":{"osm_id":"3316347346","tag":{"amenity":"recycling","location":"overground","recycling:glass":"yes","recycling_type":"container"}},"type":"Feature"},
	{"geometry":{"coordinates":[19.155753,47.512333],"type":"Point"},"properties":{"osm_id":"3426080200","tag":{"amenity":"waste_basket"}},"type":"Feature"},
	{"geometry":{"coordinates":[19.116218,47.468285],"type":"Point"},"properties":{"osm_id":"3472235596","tag":{"amenity":"recycling","recycling:cans":"yes","recycling:clothes":"yes","recycling:glass":"yes","recycling:paper":"yes","recycling_type":"container"}},"type":"Feature"},
	{"geometry":{"coordinates":[19.117494,47.4616],"type":"Point"},"properties":{"osm_id":"3478476025","tag":{"amenity":"recycling","recycling_type":"container"}},"type":"Feature"},
	{"geometry":{"coordinates":[19.120181,47.463871],"type":"Point"},"properties":{"osm_id":"3478484346","tag":{"amenity":"recycling","recycling_type":"container"}},"type":"Feature"},
	{"geometry":{"coordinates":[19.117992,47.46371],"type":"Point"},"properties":{"osm_id":"3478485236","tag":{"amenity":"recycling","recycling_type":"container"}},"type":"Feature"},
	{"geometry":{"coordinates":[19.114719,47.45993],"type":"Point"},"properties":{"osm_id":"3478518052","tag":{"amenity":"recycling","recycling_type":"container"}},"type":"Feature"},
	{"geometry":{"coordinates":[19.118174,47.4663],"type":"Point"},"properties":{"osm_id":"3478523292","tag":{"amenity":"recycling","recycling_type":"container"}},"type":"Feature"},
	{"geometry":{"coordinates":[19.112587,47.461836],"type":"Point"},"properties":{"osm_id":"3485931491","tag":{"amenity":"recycling","recycling_type":"container"}},"type":"Feature"},
	{"geometry":{"coordinates":[19.076932,47.480832],"type":"Point"},"properties":{"osm_id":"3632933957","tag":{"amenity":"waste_basket"}},"type":"Feature"},
	{"geometry":{"coordinates":[19.076401,47.480994],"type":"Point"},"properties":{"osm_id":"3632933964","tag":{"amenity":"waste_basket"}},"type":"Feature"},
	{"geometry":{"coordinates":[19.076205,47.481013],"type":"Point"},"properties":{"osm_id":"3632933971","tag":{"amenity":"waste_basket"}},"type":"Feature"},
	{"geometry":{"coordinates":[19.075206,47.481367],"type":"Point"},"properties":{"osm_id":"3632933979","tag":{"amenity":"waste_basket"}},"type":"Feature"},
	{"geometry":{"coordinates":[19.075416,47.481386],"type":"Point"},"properties":{"osm_id":"3632933981","tag":{"amenity":"waste_basket"}},"type":"Feature"},
	{"geometry":{"coordinates":[19.072395,47.51135],"type":"Point"},"properties":{"osm_id":"3663214600","tag":{"amenity":"waste_basket"}},"type":"Feature"},
	{"geometry":{"coordinates":[19.135001,47.506075],"type":"Point"},"properties":{"name":"Szelekt\u00c3\u00adv hullad\u00c3\u00a9kgy\u00c5\u00b1jt\u00c5\u0091","osm_id":"3667219830","tag":{"amenity":"recycling","recycling:cans":"yes","recycling:clothes":"yes","recycling:glass":"yes","recycling:paper":"yes","recycling:plastic":"yes","recycling_type":"container"}},"type":"Feature"},
	{"geometry":{"coordinates":[19.131545,47.510301],"type":"Point"},"properties":{"name":"Szelekt\u00c3\u00adv hullad\u00c3\u00a9kgy\u00c5\u00b1jt\u00c5\u0091","osm_id":"3667223517","tag":{"amenity":"recycling","recycling:glass":"yes","recycling:paper":"yes","recycling:plastic":"yes","recycling:scrap_metal":"yes","recycling_type":"container"}},"type":"Feature"},
	{"geometry":{"coordinates":[19.142552,47.510113],"type":"Point"},"properties":{"name":"szelekt\u00c3\u00adv hullad\u00c3\u00a9kgy\u00c5\u00b1jt\u00c5\u0091","osm_id":"3680949620","tag":{"amenity":"recycling","operator":"FKF Zrt.","recycling:cans":"yes","recycling:clothes":"no","recycling:glass":"yes","recycling:paper":"yes","recycling:plastic":"yes","recycling_type":"container"}},"type":"Feature"},
	{"geometry":{"coordinates":[19.138783,47.505117],"type":"Point"},"properties":{"name":"haszn\u00c3\u00a1ltruha gy\u00c5\u00b1jt\u00c5\u0091","osm_id":"3680972366","tag":{"amenity":"recycling","recycling:cans":"no","recycling:clothes":"yes","recycling:glass":"no","recycling:paper":"no","recycling_type":"container"}},"type":"Feature"},
	{"geometry":{"coordinates":[19.10307,47.505838],"type":"Point"},"properties":{"osm_id":"3846996775","tag":{"amenity":"recycling","recycling:cans":"no","recycling:clothes":"no","recycling:glass":"yes","recycling:glass_bottles":"yes","recycling:paper":"no","recycling:plastic":"no","recycling_type":"container"}},"type":"Feature"},
	{"geometry":{"coordinates":[19.145056,47.479934],"type":"Point"},"properties":{"name":"Kutya\u00c3\u00bcr\u00c3\u00bcl\u00c3\u00a9k gy\u00c5\u00b1jt\u00c5\u0091","osm_id":"3991641219","tag":{"amenity":"waste_basket"}},"type":"Feature"},
	{"geometry":{"coordinates":[19.09095,47.510963],"type":"Point"},"properties":{"osm_id":"4129064949","tag":{"amenity":"recycling","recycling:cans":"yes","recycling:clothes":"no","recycling:glass":"yes","recycling:glass_bottles":"yes","recycling:paper":"yes","recycling:plastic":"yes","recycling_type":"container"}},"type":"Feature"},
	{"geometry":{"coordinates":[19.081747,47.516967],"type":"Point"},"properties":{"osm_id":"4411857695","tag":{"amenity":"waste_basket"}},"type":"Feature"},
	{"geometry":{"coordinates":[19.080638,47.516598],"type":"Point"},"properties":{"osm_id":"4411857696","tag":{"amenity":"waste_basket"}},"type":"Feature"},
	{"geometry":{"coordinates":[19.080199,47.516398],"type":"Point"},"properties":{"osm_id":"4411857697","tag":{"amenity":"waste_basket"}},"type":"Feature"},
	{"geometry":{"coordinates":[19.107897,47.496367],"type":"Point"},"properties":{"osm_id":"4447388134","tag":{"amenity":"recycling","location":"overground","operator":"FKF Zrt.","recycling:cans":"yes","recycling:glass":"yes","recycling:paper":"yes","recycling:plastic":"yes","recycling_type":"container"}},"type":"Feature"},
	{"geometry":{"coordinates":[19.100809,47.504088],"type":"Point"},"properties":{"osm_id":"4478531272","tag":{"addr:city":"Budapest","addr:street":"Stef\u00c3\u00a1nia \u00c3\u00bat","amenity":"recycling","location":"overground","recycling:cans":"yes","recycling:glass":"yes","recycling:paper":"yes","recycling:plastic":"yes","recycling:scrap_metal":"yes","recycling_type":"container"}},"type":"Feature"},
	{"geometry":{"coordinates":[19.092465,47.505627],"type":"Point"},"properties":{"name":"haszn\u00c3\u00a1ltruhagy\u00c5\u00b1jt\u00c5\u0091 kont\u00c3\u00a9ner","osm_id":"4483749790","tag":{"amenity":"recycling","recycling:clothes":"yes","recycling_type":"container"}},"type":"Feature"},
	{"geometry":{"coordinates":[19.100806,47.465353],"type":"Point"},"properties":{"osm_id":"4487866459","tag":{"amenity":"waste_basket","waste":"dog_excrement"}},"type":"Feature"},
	{"geometry":{"coordinates":[19.123764,47.504861],"type":"Point"},"properties":{"osm_id":"4489613425","tag":{"amenity":"waste_basket","waste":"dog_excrement"}},"type":"Feature"},
	{"geometry":{"coordinates":[19.153464,47.5071],"type":"Point"},"properties":{"osm_id":"4489614831","tag":{"amenity":"waste_basket","waste":"dog_excrement"}},"type":"Feature"},
	{"geometry":{"coordinates":[19.110395,47.467768],"type":"Point"},"properties":{"osm_id":"4549463782","tag":{"amenity":"waste_basket"}},"type":"Feature"},
	{"geometry":{"coordinates":[19.111186,47.467211],"type":"Point"},"properties":{"osm_id":"4549464824","tag":{"amenity":"waste_basket"}},"type":"Feature"},
	{"geometry":{"coordinates":[19.111535,47.46728],"type":"Point"},"properties":{"osm_id":"4549464825","tag":{"amenity":"waste_basket"}},"type":"Feature"},
	{"geometry":{"coordinates":[19.1116,47.466808],"type":"Point"},"properties":{"osm_id":"4549464826","tag":{"amenity":"waste_basket"}},"type":"Feature"},
	{"geometry":{"coordinates":[19.111958,47.466934],"type":"Point"},"properties":{"osm_id":"4549464827","tag":{"amenity":"waste_basket"}},"type":"Feature"},
	{"geometry":{"coordinates":[19.111908,47.466377],"type":"Point"},"properties":{"osm_id":"4549464828","tag":{"amenity":"waste_basket"}},"type":"Feature"},
	{"geometry":{"coordinates":[19.112538,47.465964],"type":"Point"},"properties":{"osm_id":"4549464829","tag":{"amenity":"waste_basket"}},"type":"Feature"},
	{"geometry":{"coordinates":[19.135394,47.505003],"type":"Point"},"properties":{"osm_id":"4555736500","tag":{"amenity":"waste_basket","waste":"dog_excrement"}},"type":"Feature"},
	{"geometry":{"coordinates":[19.112091,47.464519],"type":"Point"},"properties":{"osm_id":"4662100545","tag":{"amenity":"recycling","recycling_type":"container"}},"type":"Feature"},
	{"geometry":{"coordinates":[19.092914,47.486571],"type":"Point"},"properties":{"osm_id":"4781980837","tag":{"amenity":"recycling","recycling_type":"container"}},"type":"Feature"},
	{"geometry":{"coordinates":[19.150015,47.461891],"type":"Point"},"properties":{"osm_id":"4816257402","tag":{"amenity":"waste_basket"}},"type":"Feature"},
	{"geometry":{"coordinates":[19.156956,47.469465],"type":"Point"},"properties":{"osm_id":"4816257460","tag":{"amenity":"waste_basket"}},"type":"Feature"},
	{"geometry":{"coordinates":[19.137261,47.490572],"type":"Point"},"properties":{"osm_id":"4816257466","tag":{"amenity":"waste_basket"}},"type":"Feature"},
	{"geometry":{"coordinates":[19.157684,47.470149],"type":"Point"},"properties":{"osm_id":"4816257472","tag":{"amenity":"waste_basket"}},"type":"Feature"},
	{"geometry":{"coordinates":[19.151778,47.478383],"type":"Point"},"properties":{"osm_id":"4816258032","tag":{"amenity":"waste_basket"}},"type":"Feature"},
	{"geometry":{"coordinates":[19.156812,47.469333],"type":"Point"},"properties":{"osm_id":"4816258037","tag":{"amenity":"waste_basket"}},"type":"Feature"},
	{"geometry":{"coordinates":[19.151995,47.47827],"type":"Point"},"properties":{"osm_id":"4816258132","tag":{"amenity":"waste_basket"}},"type":"Feature"},
	{"geometry":{"coordinates":[19.151625,47.50549],"type":"Point"},"properties":{"osm_id":"4825272021","tag":{"amenity":"waste_basket"}},"type":"Feature"},
	{"geometry":{"coordinates":[19.097532,47.510317],"type":"Point"},"properties":{"osm_id":"4845212425","tag":{"amenity":"waste_basket"}},"type":"Feature"},
	{"geometry":{"coordinates":[19.097895,47.510208],"type":"Point"},"properties":{"osm_id":"4845212426","tag":{"amenity":"waste_basket"}},"type":"Feature"},
	{"geometry":{"coordinates":[19.098376,47.509882],"type":"Point"},"properties":{"osm_id":"4845212427","tag":{"amenity":"waste_basket"}},"type":"Feature"},
	{"geometry":{"coordinates":[19.09883,47.509537],"type":"Point"},"properties":{"osm_id":"4845212428","tag":{"amenity":"waste_basket"}},"type":"Feature"},
	{"geometry":{"coordinates":[19.097895,47.510543],"type":"Point"},"properties":{"osm_id":"4845212431","tag":{"amenity":"waste_basket"}},"type":"Feature"},
	{"geometry":{"coordinates":[19.098625,47.511218],"type":"Point"},"properties":{"osm_id":"4845212432","tag":{"amenity":"waste_basket"}},"type":"Feature"},
	{"geometry":{"coordinates":[19.098775,47.511209],"type":"Point"},"properties":{"osm_id":"4845212433","tag":{"amenity":"waste_basket"}},"type":"Feature"},
	{"geometry":{"coordinates":[19.098853,47.51127],"type":"Point"},"properties":{"osm_id":"4845212434","tag":{"amenity":"waste_basket"}},"type":"Feature"},
	{"geometry":{"coordinates":[19.099053,47.511396],"type":"Point"},"properties":{"osm_id":"4845212435","tag":{"amenity":"waste_basket"}},"type":"Feature"},
	{"geometry":{"coordinates":[19.099251,47.511622],"type":"Point"},"properties":{"osm_id":"4845212436","tag":{"amenity":"waste_basket"}},"type":"Feature"},
	{"geometry":{"coordinates":[19.074459,47.489544],"type":"Point"},"properties":{"osm_id":"4871750857","tag":{"amenity":"waste_basket"}},"type":"Feature"},
	{"geometry":{"coordinates":[19.075827,47.489228],"type":"Point"},"properties":{"osm_id":"4871865791","tag":{"amenity":"waste_basket"}},"type":"Feature"},
	{"geometry":{"coordinates":[19.07511,47.489434],"type":"Point"},"properties":{"osm_id":"4872089716","tag":{"amenity":"waste_basket"}},"type":"Feature"},
	{"geometry":{"coordinates":[19.075126,47.489231],"type":"Point"},"properties":{"osm_id":"4872089717","tag":{"amenity":"waste_basket"}},"type":"Feature"},
	{"geometry":{"coordinates":[19.074519,47.489267],"type":"Point"},"properties":{"osm_id":"4885400425","tag":{"amenity":"waste_basket"}},"type":"Feature"},
	{"geometry":{"coordinates":[19.075246,47.489411],"type":"Point"},"properties":{"osm_id":"4885400427","tag":{"amenity":"waste_basket"}},"type":"Feature"},
	{"geometry":{"coordinates":[19.075876,47.489408],"type":"Point"},"properties":{"osm_id":"4886312401","tag":{"amenity":"waste_basket"}},"type":"Feature"},
	{"geometry":{"coordinates":[19.075844,47.489464],"type":"Point"},"properties":{"osm_id":"4886312406","tag":{"amenity":"waste_basket"}},"type":"Feature"},
	{"geometry":{"coordinates":[19.148692,47.469689],"type":"Point"},"properties":{"osm_id":"4894501159","tag":{"amenity":"recycling"}},"type":"Feature"},
	{"geometry":{"coordinates":[19.150653,47.468606],"type":"Point"},"properties":{"osm_id":"4894501160","tag":{"amenity":"waste_basket"}},"type":"Feature"},
	{"geometry":{"coordinates":[19.151711,47.468787],"type":"Point"},"properties":{"osm_id":"4894501161","tag":{"amenity":"waste_disposal"}},"type":"Feature"},
	{"geometry":{"coordinates":[19.139864,47.50644],"type":"Point"},"properties":{"osm_id":"5267587082","tag":{"amenity":"recycling","recycling:cans":"yes","recycling:glass":"yes","recycling:glass_bottles":"yes","recycling:paper":"yes","recycling:plastic":"yes","recycling_type":"container"}},"type":"Feature"},
	{"geometry":{"coordinates":[19.152332,47.468788],"type":"Point"},"properties":{"osm_id":"5275981402","tag":{"amenity":"recycling","recycling_type":"container"}},"type":"Feature"},
	{"geometry":{"coordinates":[19.151943,47.468817],"type":"Point"},"properties":{"osm_id":"5275981403","tag":{"amenity":"waste_basket"}},"type":"Feature"},
	{"geometry":{"coordinates":[19.152187,47.46912],"type":"Point"},"properties":{"osm_id":"5275981424","tag":{"amenity":"waste_disposal"}},"type":"Feature"},
	{"geometry":{"coordinates":[19.078249,47.493074],"type":"Point"},"properties":{"osm_id":"5418619396","tag":{"amenity":"waste_basket"}},"type":"Feature"},
	{"geometry":{"coordinates":[19.073941,47.492771],"type":"Point"},"properties":{"osm_id":"5418619398","tag":{"amenity":"waste_basket"}},"type":"Feature"},
	{"geometry":{"coordinates":[19.090647,47.514223],"type":"Point"},"properties":{"osm_id":"5469482354","tag":{"amenity":"waste_basket"}},"type":"Feature"},
	{"geometry":{"coordinates":[19.137694,47.480954],"type":"Point"},"properties":{"osm_id":"5503230617","tag":{"amenity":"waste_basket"}},"type":"Feature"},
	{"geometry":{"coordinates":[19.137859,47.481081],"type":"Point"},"properties":{"osm_id":"5503230618","tag":{"amenity":"waste_basket"}},"type":"Feature"},
	{"geometry":{"coordinates":[19.138712,47.480581],"type":"Point"},"properties":{"osm_id":"5503367542","tag":{"amenity":"waste_basket"}},"type":"Feature"},
	{"geometry":{"coordinates":[19.092589,47.489051],"type":"Point"},"properties":{"osm_id":"5663999660","tag":{"amenity":"waste_basket"}},"type":"Feature"},
	{"geometry":{"coordinates":[19.09092,47.489346],"type":"Point"},"properties":{"osm_id":"5663999661","tag":{"amenity":"waste_basket"}},"type":"Feature"},
	{"geometry":{"coordinates":[19.087663,47.489463],"type":"Point"},"properties":{"osm_id":"5664032424","tag":{"amenity":"waste_basket"}},"type":"Feature"},
	{"geometry":{"coordinates":[19.08476,47.489275],"type":"Point"},"properties":{"osm_id":"5664061426","tag":{"amenity":"waste_basket"}},"type":"Feature"},
	{"geometry":{"coordinates":[19.083656,47.488683],"type":"Point"},"properties":{"osm_id":"5664103762","tag":{"amenity":"waste_basket"}},"type":"Feature"},
	{"geometry":{"coordinates":[19.082665,47.488999],"type":"Point"},"properties":{"osm_id":"5664103763","tag":{"amenity":"waste_basket"}},"type":"Feature"},
	{"geometry":{"coordinates":[19.081129,47.489028],"type":"Point"},"properties":{"osm_id":"5664103767","tag":{"amenity":"waste_basket"}},"type":"Feature"},
	{"geometry":{"coordinates":[19.080563,47.489033],"type":"Point"},"properties":{"osm_id":"5664103768","tag":{"amenity":"waste_basket"}},"type":"Feature"},
	{"geometry":{"coordinates":[19.08047,47.489259],"type":"Point"},"properties":{"osm_id":"5664103770","tag":{"amenity":"waste_basket"}},"type":"Feature"},
	{"geometry":{"coordinates":[19.07816,47.489479],"type":"Point"},"properties":{"osm_id":"5664132736","tag":{"amenity":"waste_basket"}},"type":"Feature"},
	{"geometry":{"coordinates":[19.07616,47.489709],"type":"Point"},"properties":{"osm_id":"5664132738","tag":{"amenity":"waste_basket"}},"type":"Feature"},
	{"geometry":{"coordinates":[19.074362,47.48979],"type":"Point"},"properties":{"osm_id":"5664169578","tag":{"amenity":"waste_basket"}},"type":"Feature"},
	{"geometry":{"coordinates":[19.073118,47.489736],"type":"Point"},"properties":{"osm_id":"5664169585","tag":{"amenity":"waste_basket"}},"type":"Feature"},
	{"geometry":{"coordinates":[19.07318,47.489591],"type":"Point"},"properties":{"osm_id":"5664169586","tag":{"amenity":"waste_basket"}},"type":"Feature"},
	{"geometry":{"coordinates":[19.113558,47.48485],"type":"Point"},"properties":{"osm_id":"5665757894","tag":{"amenity":"waste_basket"}},"type":"Feature"},
	{"geometry":{"coordinates":[19.113559,47.484748],"type":"Point"},"properties":{"osm_id":"5665757895","tag":{"amenity":"waste_basket"}},"type":"Feature"},
	{"geometry":{"coordinates":[19.113617,47.484985],"type":"Point"},"properties":{"osm_id":"5665757896","tag":{"amenity":"waste_basket"}},"type":"Feature"},
	{"geometry":{"coordinates":[19.127645,47.484939],"type":"Point"},"properties":{"osm_id":"5671659064","tag":{"amenity":"waste_basket"}},"type":"Feature"},
	{"geometry":{"coordinates":[19.129474,47.485525],"type":"Point"},"properties":{"osm_id":"5671659065","tag":{"amenity":"waste_basket"}},"type":"Feature"},
	{"geometry":{"coordinates":[19.13119,47.48666],"type":"Point"},"properties":{"osm_id":"5671659066","tag":{"amenity":"waste_basket"}},"type":"Feature"},
	{"geometry":{"coordinates":[19.131118,47.486756],"type":"Point"},"properties":{"osm_id":"5671659067","tag":{"amenity":"waste_basket"}},"type":"Feature"},
	{"geometry":{"coordinates":[19.130926,47.486741],"type":"Point"},"properties":{"osm_id":"5671659068","tag":{"amenity":"waste_basket"}},"type":"Feature"},
	{"geometry":{"coordinates":[19.130017,47.487958],"type":"Point"},"properties":{"osm_id":"5671751053","tag":{"amenity":"waste_basket"}},"type":"Feature"},
	{"geometry":{"coordinates":[19.126385,47.486619],"type":"Point"},"properties":{"osm_id":"5671837601","tag":{"amenity":"waste_basket"}},"type":"Feature"},
	{"geometry":{"coordinates":[19.126543,47.486751],"type":"Point"},"properties":{"osm_id":"5671837603","tag":{"amenity":"waste_basket"}},"type":"Feature"},
	{"geometry":{"coordinates":[19.12674,47.484576],"type":"Point"},"properties":{"osm_id":"5671837606","tag":{"amenity":"waste_basket"}},"type":"Feature"},
	{"geometry":{"coordinates":[19.133409,47.490898],"type":"Point"},"properties":{"osm_id":"5671922072","tag":{"amenity":"waste_basket"}},"type":"Feature"},
	{"geometry":{"coordinates":[19.133814,47.490964],"type":"Point"},"properties":{"osm_id":"5671922073","tag":{"amenity":"waste_basket"}},"type":"Feature"},
	{"geometry":{"coordinates":[19.129223,47.488972],"type":"Point"},"properties":{"osm_id":"5671939525","tag":{"amenity":"waste_basket"}},"type":"Feature"},
	{"geometry":{"coordinates":[19.123638,47.491665],"type":"Point"},"properties":{"osm_id":"5677536094","tag":{"amenity":"waste_basket"}},"type":"Feature"},
	{"geometry":{"coordinates":[19.076469,47.493269],"type":"Point"},"properties":{"osm_id":"5691412548","tag":{"amenity":"waste_basket"}},"type":"Feature"},
	{"geometry":{"coordinates":[19.076179,47.493206],"type":"Point"},"properties":{"osm_id":"5691412549","tag":{"amenity":"waste_basket"}},"type":"Feature"},
	{"geometry":{"coordinates":[19.084166,47.510245],"type":"Point"},"properties":{"osm_id":"5763724108","tag":{"amenity":"waste_basket"}},"type":"Feature"},
	{"geometry":{"coordinates":[19.084366,47.510326],"type":"Point"},"properties":{"osm_id":"5763724109","tag":{"amenity":"waste_basket"}},"type":"Feature"},
	{"geometry":{"coordinates":[19.073086,47.515333],"type":"Point"},"properties":{"osm_id":"5765031048","tag":{"amenity":"waste_basket"}},"type":"Feature"},
	{"geometry":{"coordinates":[19.073183,47.515258],"type":"Point"},"properties":{"osm_id":"5765031051","tag":{"amenity":"waste_basket"}},"type":"Feature"},
	{"geometry":{"coordinates":[19.073078,47.515203],"type":"Point"},"properties":{"osm_id":"5765031052","tag":{"amenity":"waste_basket"}},"type":"Feature"},
	{"geometry":{"coordinates":[19.072894,47.515344],"type":"Point"},"properties":{"osm_id":"5765031754","tag":{"amenity":"waste_basket"}},"type":"Feature"},
	{"geometry":{"coordinates":[19.074441,47.514072],"type":"Point"},"properties":{"osm_id":"5765031756","tag":{"amenity":"waste_basket"}},"type":"Feature"},
	{"geometry":{"coordinates":[19.074329,47.514101],"type":"Point"},"properties":{"osm_id":"5765031758","tag":{"amenity":"waste_basket"}},"type":"Feature"},
	{"geometry":{"coordinates":[19.075302,47.51349],"type":"Point"},"properties":{"osm_id":"5765031761","tag":{"amenity":"waste_basket"}},"type":"Feature"},
	{"geometry":{"coordinates":[19.075168,47.5134],"type":"Point"},"properties":{"osm_id":"5765031762","tag":{"amenity":"waste_basket"}},"type":"Feature"},
	{"geometry":{"coordinates":[19.075655,47.513213],"type":"Point"},"properties":{"osm_id":"5765031764","tag":{"amenity":"waste_basket"}},"type":"Feature"},
	{"geometry":{"coordinates":[19.075667,47.513256],"type":"Point"},"properties":{"osm_id":"5765031765","tag":{"amenity":"waste_basket"}},"type":"Feature"},
	{"geometry":{"coordinates":[19.07546,47.51321],"type":"Point"},"properties":{"osm_id":"5765031767","tag":{"amenity":"waste_basket"}},"type":"Feature"},
	{"geometry":{"coordinates":[19.07632,47.512649],"type":"Point"},"properties":{"osm_id":"5765040981","tag":{"amenity":"waste_basket"}},"type":"Feature"},
	{"geometry":{"coordinates":[19.076461,47.512597],"type":"Point"},"properties":{"osm_id":"5765040983","tag":{"amenity":"waste_basket"}},"type":"Feature"},
	{"geometry":{"coordinates":[19.076238,47.512591],"type":"Point"},"properties":{"osm_id":"5765040984","tag":{"amenity":"waste_basket"}},"type":"Feature"},
	{"geometry":{"coordinates":[19.076903,47.511934],"type":"Point"},"properties":{"osm_id":"5765040985","tag":{"amenity":"waste_basket"}},"type":"Feature"},
	{"geometry":{"coordinates":[19.077082,47.512061],"type":"Point"},"properties":{"osm_id":"5765040986","tag":{"amenity":"waste_basket"}},"type":"Feature"},
	{"geometry":{"coordinates":[19.077156,47.512059],"type":"Point"},"properties":{"osm_id":"5765040987","tag":{"amenity":"waste_basket"}},"type":"Feature"},
	{"geometry":{"coordinates":[19.079998,47.47306],"type":"Point"},"properties":{"osm_id":"5769788673","tag":{"amenity":"waste_basket"}},"type":"Feature"},
	{"geometry":{"coordinates":[19.080187,47.472855],"type":"Point"},"properties":{"osm_id":"5769788674","tag":{"amenity":"waste_basket"}},"type":"Feature"},
	{"geometry":{"coordinates":[19.080702,47.473374],"type":"Point"},"properties":{"osm_id":"5769788678","tag":{"amenity":"waste_basket"}},"type":"Feature"},
	{"geometry":{"coordinates":[19.079915,47.473619],"type":"Point"},"properties":{"osm_id":"5769788681","tag":{"amenity":"waste_basket"}},"type":"Feature"},
	{"geometry":{"coordinates":[19.085992,47.506676],"type":"Point"},"properties":{"osm_id":"5837826835","tag":{"amenity":"waste_basket"}},"type":"Feature"},
	{"geometry":{"coordinates":[19.085572,47.506682],"type":"Point"},"properties":{"osm_id":"5837826836","tag":{"amenity":"waste_basket"}},"type":"Feature"},
	{"geometry":{"coordinates":[19.085544,47.506795],"type":"Point"},"properties":{"osm_id":"5837826838","tag":{"amenity":"waste_basket"}},"type":"Feature"},
	{"geometry":{"coordinates":[19.086618,47.501879],"type":"Point"},"properties":{"osm_id":"5896060859","tag":{"amenity":"waste_basket"}},"type":"Feature"},
	{"geometry":{"coordinates":[19.087541,47.501878],"type":"Point"},"properties":{"osm_id":"5896060863","tag":{"amenity":"waste_basket"}},"type":"Feature"},
	{"geometry":{"coordinates":[19.089841,47.501887],"type":"Point"},"properties":{"osm_id":"5896060866","tag":{"amenity":"waste_basket"}},"type":"Feature"},
	{"geometry":{"coordinates":[19.083153,47.508782],"type":"Point"},"properties":{"osm_id":"5896060868","tag":{"amenity":"waste_basket"}},"type":"Feature"},
	{"geometry":{"coordinates":[19.083189,47.508716],"type":"Point"},"properties":{"osm_id":"5896060869","tag":{"amenity":"waste_basket"}},"type":"Feature"},
	{"geometry":{"coordinates":[19.077813,47.513575],"type":"Point"},"properties":{"osm_id":"5896060874","tag":{"amenity":"waste_basket"}},"type":"Feature"},
	{"geometry":{"coordinates":[19.077716,47.513525],"type":"Point"},"properties":{"osm_id":"5896060875","tag":{"amenity":"waste_basket"}},"type":"Feature"},
	{"geometry":{"coordinates":[19.080367,47.490121],"type":"Point"},"properties":{"osm_id":"5919201761","tag":{"amenity":"waste_basket","colour":"green","waste":"trash"}},"type":"Feature"},
	{"geometry":{"coordinates":[19.078251,47.489309],"type":"Point"},"properties":{"osm_id":"5919201762","tag":{"amenity":"waste_basket","colour":"green","waste":"trash"}},"type":"Feature"},
	{"geometry":{"coordinates":[19.089755,47.511543],"type":"Point"},"properties":{"osm_id":"5926689293","tag":{"amenity":"waste_basket"}},"type":"Feature"},
	{"geometry":{"coordinates":[19.090085,47.511414],"type":"Point"},"properties":{"osm_id":"5926689294","tag":{"amenity":"waste_basket"}},"type":"Feature"},
	{"geometry":{"coordinates":[19.090042,47.511519],"type":"Point"},"properties":{"osm_id":"5926689295","tag":{"amenity":"waste_basket"}},"type":"Feature"},
	{"geometry":{"coordinates":[19.090194,47.51175],"type":"Point"},"properties":{"osm_id":"5926689296","tag":{"amenity":"waste_basket"}},"type":"Feature"},
	{"geometry":{"coordinates":[19.090272,47.511806],"type":"Point"},"properties":{"osm_id":"5926689297","tag":{"amenity":"waste_basket"}},"type":"Feature"},
	{"geometry":{"coordinates":[19.09053,47.512062],"type":"Point"},"properties":{"osm_id":"5926689303","tag":{"amenity":"waste_basket"}},"type":"Feature"},
	{"geometry":{"coordinates":[19.090539,47.512164],"type":"Point"},"properties":{"osm_id":"5926689304","tag":{"amenity":"waste_basket"}},"type":"Feature"},
	{"geometry":{"coordinates":[19.090537,47.512373],"type":"Point"},"properties":{"osm_id":"5926689305","tag":{"amenity":"waste_basket"}},"type":"Feature"},
	{"geometry":{"coordinates":[19.091284,47.511796],"type":"Point"},"properties":{"osm_id":"5926689306","tag":{"amenity":"waste_basket"}},"type":"Feature"},
	{"geometry":{"coordinates":[19.091666,47.511843],"type":"Point"},"properties":{"osm_id":"5926689307","tag":{"amenity":"recycling","recycling_type":"container"}},"type":"Feature"},
	{"geometry":{"coordinates":[19.091164,47.511578],"type":"Point"},"properties":{"osm_id":"5926689313","tag":{"amenity":"waste_basket"}},"type":"Feature"},
	{"geometry":{"coordinates":[19.086974,47.516999],"type":"Point"},"properties":{"osm_id":"5978165626","tag":{"amenity":"waste_basket"}},"type":"Feature"},
	{"geometry":{"coordinates":[19.087449,47.516837],"type":"Point"},"properties":{"osm_id":"5978165652","tag":{"amenity":"recycling","recycling_type":"container"}},"type":"Feature"},
	{"geometry":{"coordinates":[19.087923,47.516536],"type":"Point"},"properties":{"osm_id":"5978165658","tag":{"amenity":"waste_basket"}},"type":"Feature"},
	{"geometry":{"coordinates":[19.088075,47.516537],"type":"Point"},"properties":{"osm_id":"5978165683","tag":{"amenity":"waste_basket"}},"type":"Feature"},
	{"geometry":{"coordinates":[19.088231,47.516631],"type":"Point"},"properties":{"osm_id":"5978165994","tag":{"amenity":"waste_basket"}},"type":"Feature"},
	{"geometry":{"coordinates":[19.080205,47.462718],"type":"Point"},"properties":{"osm_id":"5978255006","tag":{"amenity":"waste_basket"}},"type":"Feature"},
	{"geometry":{"coordinates":[19.078747,47.464891],"type":"Point"},"properties":{"osm_id":"5978472560","tag":{"amenity":"waste_basket"}},"type":"Feature"},
	{"geometry":{"coordinates":[19.078672,47.465194],"type":"Point"},"properties":{"osm_id":"5978472561","tag":{"amenity":"waste_basket"}},"type":"Feature"},
	{"geometry":{"coordinates":[19.078497,47.465285],"type":"Point"},"properties":{"osm_id":"5978472562","tag":{"amenity":"waste_basket"}},"type":"Feature"},
	{"geometry":{"coordinates":[19.078076,47.465834],"type":"Point"},"properties":{"osm_id":"5978612584","tag":{"amenity":"waste_basket"}},"type":"Feature"},
	{"geometry":{"coordinates":[19.077322,47.466704],"type":"Point"},"properties":{"osm_id":"5978618090","tag":{"amenity":"waste_basket"}},"type":"Feature"},
	{"geometry":{"coordinates":[19.077203,47.467069],"type":"Point"},"properties":{"osm_id":"5978618091","tag":{"amenity":"waste_basket"}},"type":"Feature"},
	{"geometry":{"coordinates":[19.136587,47.503725],"type":"Point"},"properties":{"osm_id":"5999149376","tag":{"amenity":"waste_basket"}},"type":"Feature"},
	{"geometry":{"coordinates":[19.100449,47.512316],"type":"Point"},"properties":{"osm_id":"6112916808","tag":{"amenity":"waste_basket"}},"type":"Feature"},
	{"geometry":{"coordinates":[19.100768,47.512361],"type":"Point"},"properties":{"osm_id":"6112920139","tag":{"amenity":"waste_basket"}},"type":"Feature"},
	{"geometry":{"coordinates":[19.073638,47.470982],"type":"Point"},"properties":{"osm_id":"6128020430","tag":{"amenity":"waste_basket"}},"type":"Feature"},
	{"geometry":{"coordinates":[19.074784,47.469701],"type":"Point"},"properties":{"osm_id":"6130135731","tag":{"amenity":"waste_basket"}},"type":"Feature"},
	{"geometry":{"coordinates":[19.074109,47.468912],"type":"Point"},"properties":{"osm_id":"6130135783","tag":{"amenity":"waste_basket"}},"type":"Feature"},
	{"geometry":{"coordinates":[19.078884,47.468749],"type":"Point"},"properties":{"osm_id":"6130277442","tag":{"amenity":"waste_basket"}},"type":"Feature"},
	{"geometry":{"coordinates":[19.082128,47.509811],"type":"Point"},"properties":{"osm_id":"6151694198","tag":{"amenity":"waste_basket"}},"type":"Feature"},
	{"geometry":{"coordinates":[19.142997,47.460294],"type":"Point"},"properties":{"osm_id":"6187594131","tag":{"amenity":"waste_basket","waste":"trash"}},"type":"Feature"},
	{"geometry":{"coordinates":[19.146225,47.460489],"type":"Point"},"properties":{"osm_id":"6210892404","tag":{"amenity":"waste_basket","waste":"trash"}},"type":"Feature"},
	{"geometry":{"coordinates":[19.146676,47.505955],"type":"Point"},"properties":{"osm_id":"6247907912","tag":{"amenity":"waste_basket"}},"type":"Feature"},
	{"geometry":{"coordinates":[19.146723,47.505962],"type":"Point"},"properties":{"osm_id":"6247907913","tag":{"amenity":"waste_basket"}},"type":"Feature"},
	{"geometry":{"coordinates":[19.146676,47.505993],"type":"Point"},"properties":{"osm_id":"6247907914","tag":{"amenity":"waste_basket"}},"type":"Feature"},
	{"geometry":{"coordinates":[19.087622,47.459845],"type":"Point"},"properties":{"osm_id":"6251421212","tag":{"amenity":"waste_basket"}},"type":"Feature"},
	{"geometry":{"coordinates":[19.087873,47.459731],"type":"Point"},"properties":{"osm_id":"6251421213","tag":{"amenity":"waste_basket"}},"type":"Feature"},
	{"geometry":{"coordinates":[19.094605,47.478799],"type":"Point"},"properties":{"osm_id":"6267943182","tag":{"amenity":"recycling","recycling:glass":"yes","recycling_type":"container"}},"type":"Feature"},
	{"geometry":{"coordinates":[19.108878,47.470338],"type":"Point"},"properties":{"osm_id":"6305360502","tag":{"amenity":"waste_basket"}},"type":"Feature"},
	{"geometry":{"coordinates":[19.110848,47.47096],"type":"Point"},"properties":{"osm_id":"6305527584","tag":{"amenity":"waste_basket"}},"type":"Feature"},
	{"geometry":{"coordinates":[19.11103,47.47056],"type":"Point"},"properties":{"osm_id":"6305527585","tag":{"amenity":"waste_basket"}},"type":"Feature"},
	{"geometry":{"coordinates":[19.081031,47.507645],"type":"Point"},"properties":{"osm_id":"6342981367","tag":{"amenity":"waste_basket","waste":"trash"}},"type":"Feature"},
	{"geometry":{"coordinates":[19.080845,47.507755],"type":"Point"},"properties":{"osm_id":"6342981369","tag":{"amenity":"waste_basket","waste":"trash"}},"type":"Feature"},
	{"geometry":{"coordinates":[19.091112,47.480908],"type":"Point"},"properties":{"osm_id":"6559632892","tag":{"amenity":"waste_basket"}},"type":"Feature"},
	{"geometry":{"coordinates":[19.130504,47.477233],"type":"Point"},"properties":{"name":"FEMBI Kft","osm_id":"6583530810","tag":{"addr:city":"Budapest","addr:housenumber":"1/b","addr:postcode":"1107","addr:street":"M\u00c3\u00a1zsa utca","alt_name":"FEMBI Magyar-Olasz Kft","amenity":"recycling","description":"Vas-, pap\u00c3\u00adr-, sz\u00c3\u00adnesf\u00c3\u00a9m-hullad\u00c3\u00a9k felv\u00c3\u00a1s\u00c3\u00a1rl\u00c3\u00a1s","phone":"+36 20 554 9888","recycling:metal":"yes","recycling:paper":"yes","recycling:scrap_metal":"yes","recycling_type":"centre","url":"https://www.nemzeticegtar.hu/fembi-kft-c0109073276.html"}},"type":"Feature"},
	{"geometry":{"coordinates":[19.076658,47.474369],"type":"Point"},"properties":{"osm_id":"6799330355","tag":{"amenity":"recycling","recycling:glass_bottles":"yes","recycling:paper":"yes","recycling:plastic":"yes","recycling:scrap_metal":"yes","recycling_type":"container"}},"type":"Feature"},
	{"geometry":{"coordinates":[19.092834,47.498977],"type":"Point"},"properties":{"osm_id":"6873095907","tag":{"amenity":"waste_basket","waste":"trash"}},"type":"Feature"},
	{"geometry":{"coordinates":[19.092718,47.498978],"type":"Point"},"properties":{"osm_id":"6873095908","tag":{"amenity":"waste_basket","waste":"trash"}},"type":"Feature"},
	{"geometry":{"coordinates":[19.139948,47.511849],"type":"Point"},"properties":{"osm_id":"6893426807","tag":{"amenity":"waste_basket","waste":"dog_excrement"}},"type":"Feature"},
	{"geometry":{"coordinates":[19.108553,47.500379],"type":"Point"},"properties":{"osm_id":"6995917262","tag":{"amenity":"waste_basket"}},"type":"Feature"},
	{"geometry":{"coordinates":[19.115142,47.505614],"type":"Point"},"properties":{"osm_id":"7218082845","tag":{"amenity":"recycling","recycling:clothes":"yes","recycling:glass":"yes","recycling:paper":"yes","recycling:plastic":"yes","recycling_type":"container"}},"type":"Feature"},
	{"geometry":{"coordinates":[19.082319,47.509524],"type":"Point"},"properties":{"osm_id":"7652724381","tag":{"amenity":"waste_basket"}},"type":"Feature"},
	{"geometry":{"coordinates":[19.077336,47.478012],"type":"Point"},"properties":{"osm_id":"7679723116","tag":{"amenity":"waste_basket","waste":"trash"}},"type":"Feature"},
	{"geometry":{"coordinates":[19.147586,47.458106],"type":"Point"},"properties":{"osm_id":"7880288985","tag":{"amenity":"waste_basket"}},"type":"Feature"},
	{"geometry":{"coordinates":[19.076241,47.486716],"type":"Point"},"properties":{"osm_id":"7941368116","tag":{"amenity":"waste_basket","waste":"trash"}},"type":"Feature"}
]
}
