{
"type": "FeatureCollection",
"features": [
	{"geometry":{"coordinates":[19.096822,43.144242],"type":"Point"},"properties":{"osm_id":"4312085091","tag":{"amenity":"waste_basket"}},"type":"Feature"},
	{"geometry":{"coordinates":[19.073773,43.159071],"type":"Point"},"properties":{"osm_id":"4313118992","tag":{"amenity":"waste_basket"}},"type":"Feature"},
	{"geometry":{"coordinates":[19.097283,43.147985],"type":"Point"},"properties":{"osm_id":"4811412685","tag":{"amenity":"waste_basket"}},"type":"Feature"},
	{"geometry":{"coordinates":[19.096792,43.148039],"type":"Point"},"properties":{"osm_id":"4811412686","tag":{"amenity":"waste_basket"}},"type":"Feature"},
	{"geometry":{"coordinates":[19.123602,43.15179],"type":"Point"},"properties":{"osm_id":"4852858707","tag":{"amenity":"waste_basket"}},"type":"Feature"},
	{"geometry":{"coordinates":[19.123808,43.150929],"type":"Point"},"properties":{"osm_id":"4852858777","tag":{"amenity":"waste_basket"}},"type":"Feature"},
	{"geometry":{"coordinates":[19.127231,43.151114],"type":"Point"},"properties":{"osm_id":"4852861337","tag":{"amenity":"waste_basket"}},"type":"Feature"},
	{"geometry":{"coordinates":[19.134302,43.164029],"type":"Point"},"properties":{"name":"Recikla\u00c5\u00beni centar","osm_id":"4857196021","tag":{"amenity":"recycling","recycling_type":"centre"}},"type":"Feature"},
	{"geometry":{"coordinates":[19.124061,43.155143],"type":"Point"},"properties":{"osm_id":"4857212037","tag":{"amenity":"waste_disposal"}},"type":"Feature"},
	{"geometry":{"coordinates":[19.122157,43.154488],"type":"Point"},"properties":{"osm_id":"4859905958","tag":{"amenity":"waste_disposal"}},"type":"Feature"}
]
}
