{
"type": "FeatureCollection",
"lastupdate": "2020-08-02T00:00:00Z",
"features": [
	{"geometry":{"coordinates":[50.183924,53.207489],"type":"Point"},"properties":{"osm_id":"1426804271","tag":{"amenity":"waste_basket"}},"type":"Feature"},
	{"geometry":{"coordinates":[50.132897,53.2044],"type":"Point"},"properties":{"osm_id":"1447922973","tag":{"amenity":"waste_basket"}},"type":"Feature"},
	{"geometry":{"coordinates":[50.113192,53.191585],"type":"Point"},"properties":{"osm_id":"1748828666","tag":{"amenity":"waste_basket"}},"type":"Feature"},
	{"geometry":{"coordinates":[50.123747,53.207121],"type":"Point"},"properties":{"osm_id":"3820355702","tag":{"amenity":"waste_basket"}},"type":"Feature"},
	{"geometry":{"coordinates":[50.123974,53.20609],"type":"Point"},"properties":{"osm_id":"3820387615","tag":{"amenity":"waste_basket"}},"type":"Feature"},
	{"geometry":{"coordinates":[50.133325,53.214401],"type":"Point"},"properties":{"osm_id":"5849414886","tag":{"amenity":"waste_basket"}},"type":"Feature"},
	{"geometry":{"coordinates":[50.185203,53.205718],"type":"Point"},"properties":{"osm_id":"6044110111","tag":{"amenity":"waste_basket"}},"type":"Feature"},
	{"geometry":{"coordinates":[50.159885,53.202753],"type":"Point"},"properties":{"osm_id":"6067987186","tag":{"amenity":"waste_basket"}},"type":"Feature"},
	{"geometry":{"coordinates":[50.159953,53.202801],"type":"Point"},"properties":{"osm_id":"6067987187","tag":{"amenity":"waste_basket"}},"type":"Feature"},
	{"geometry":{"coordinates":[50.162025,53.20498],"type":"Point"},"properties":{"osm_id":"6068013787","tag":{"amenity":"waste_basket"}},"type":"Feature"},
	{"geometry":{"coordinates":[50.142529,53.202871],"type":"Point"},"properties":{"osm_id":"6070301586","tag":{"amenity":"waste_basket"}},"type":"Feature"},
	{"geometry":{"coordinates":[50.143342,53.205436],"type":"Point"},"properties":{"name":"\u00d0\u0093\u00d0\u00a3\u00d0\u009f \"\u00d0\u00ad\u00d0\u00ba\u00d0\u00be\u00d0\u00bb\u00d0\u00be\u00d0\u00b3\u00d0\u00b8\u00d1\u008f\"","osm_id":"6844536824","tag":{"addr:city":"\u0421\u0430\u043c\u0430\u0440\u0430","addr:housenumber":"74","addr:street":"\u0443\u043b\u0438\u0446\u0430 \u041c\u0438\u0447\u0443\u0440\u0438\u043d\u0430","amenity":"recycling","building":"house","opening_hours":"Mo-Fr 08:30-16:00","operator":"\u0413\u0423\u041f \"\u042d\u043a\u043e\u043b\u043e\u0433\u0438\u044f\"","operator:type":"government","recycling:thermometers":"yes","recycling_type":"centre"}},"type":"Feature"},
	{"geometry":{"coordinates":[50.171925,53.195265],"type":"Point"},"properties":{"osm_id":"6899896984","tag":{"amenity":"waste_basket","waste":"trash"}},"type":"Feature"},
	{"geometry":{"coordinates":[50.171915,53.195334],"type":"Point"},"properties":{"osm_id":"6899902188","tag":{"amenity":"waste_basket"}},"type":"Feature"},
	{"geometry":{"coordinates":[50.175203,53.210334],"type":"Point"},"properties":{"osm_id":"7669738257","tag":{"amenity":"waste_basket"}},"type":"Feature"}
]
}
