{
"type": "FeatureCollection",
"features": [
	{"geometry":{"coordinates":[11.169787,60.300451],"type":"Point"},"properties":{"osm_id":"4909414326","tag":{"amenity":"waste_basket"}},"type":"Feature"},
	{"geometry":{"coordinates":[11.197802,60.291341],"type":"Point"},"properties":{"osm_id":"4913608756","tag":{"amenity":"recycling","description":"Nyg\u00c3\u00a5rdskrysset B\u00c3\u00b8n","recycling:glass_bottles":"yes","recycling_type":"container","ref:sortere":"478"}},"type":"Feature"},
	{"geometry":{"coordinates":[11.197774,60.291388],"type":"Point"},"properties":{"osm_id":"4913608757","tag":{"amenity":"recycling","recycling:clothes":"yes","recycling:shoes":"yes","recycling_type":"container"}},"type":"Feature"},
	{"geometry":{"coordinates":[11.19569,60.287306],"type":"Point"},"properties":{"osm_id":"4919261113","tag":{"amenity":"recycling","recycling:clothes":"yes","recycling:shoes":"yes","recycling_type":"container"}},"type":"Feature"},
	{"geometry":{"coordinates":[11.243503,60.323533],"type":"Point"},"properties":{"osm_id":"4922798236","tag":{"amenity":"waste_disposal"}},"type":"Feature"},
	{"geometry":{"coordinates":[11.245044,60.323706],"type":"Point"},"properties":{"osm_id":"4922798268","tag":{"amenity":"waste_basket"}},"type":"Feature"},
	{"geometry":{"coordinates":[11.245038,60.323694],"type":"Point"},"properties":{"osm_id":"4922798269","tag":{"amenity":"waste_basket"}},"type":"Feature"},
	{"geometry":{"coordinates":[11.244495,60.323709],"type":"Point"},"properties":{"osm_id":"4922798290","tag":{"amenity":"waste_disposal"}},"type":"Feature"},
	{"geometry":{"coordinates":[11.24477,60.324118],"type":"Point"},"properties":{"osm_id":"4922798292","tag":{"amenity":"waste_basket"}},"type":"Feature"},
	{"geometry":{"coordinates":[11.243915,60.323111],"type":"Point"},"properties":{"osm_id":"4922798310","tag":{"amenity":"waste_disposal"}},"type":"Feature"},
	{"geometry":{"coordinates":[11.243364,60.323127],"type":"Point"},"properties":{"osm_id":"4922798311","tag":{"amenity":"waste_basket"}},"type":"Feature"},
	{"geometry":{"coordinates":[11.24408,60.3228],"type":"Point"},"properties":{"osm_id":"4922798357","tag":{"amenity":"waste_disposal"}},"type":"Feature"},
	{"geometry":{"coordinates":[11.244203,60.322523],"type":"Point"},"properties":{"osm_id":"4922798362","tag":{"amenity":"waste_disposal"}},"type":"Feature"},
	{"geometry":{"coordinates":[11.243251,60.322521],"type":"Point"},"properties":{"osm_id":"4922798363","tag":{"amenity":"waste_disposal"}},"type":"Feature"},
	{"geometry":{"coordinates":[11.242993,60.322017],"type":"Point"},"properties":{"osm_id":"4922798374","tag":{"amenity":"waste_disposal"}},"type":"Feature"},
	{"geometry":{"coordinates":[11.242091,60.322057],"type":"Point"},"properties":{"osm_id":"4922798377","tag":{"amenity":"waste_disposal"}},"type":"Feature"},
	{"geometry":{"coordinates":[11.243427,60.322209],"type":"Point"},"properties":{"osm_id":"4922798387","tag":{"amenity":"waste_disposal"}},"type":"Feature"},
	{"geometry":{"coordinates":[11.24425,60.321503],"type":"Point"},"properties":{"osm_id":"4922798408","tag":{"amenity":"waste_disposal"}},"type":"Feature"},
	{"geometry":{"coordinates":[11.244441,60.321879],"type":"Point"},"properties":{"osm_id":"4922798411","tag":{"amenity":"waste_disposal"}},"type":"Feature"},
	{"geometry":{"coordinates":[11.244791,60.322334],"type":"Point"},"properties":{"osm_id":"4922798413","tag":{"amenity":"waste_disposal"}},"type":"Feature"},
	{"geometry":{"coordinates":[11.243439,60.321907],"type":"Point"},"properties":{"osm_id":"4922798415","tag":{"amenity":"waste_disposal"}},"type":"Feature"},
	{"geometry":{"coordinates":[11.172614,60.283416],"type":"Point"},"properties":{"osm_id":"6195514021","tag":{"amenity":"recycling","description":"S\u00c3\u00b8ndre Samfunn","recycling_type":"container","ref:sortere":"17527"}},"type":"Feature"}
]
}
