{
"type": "FeatureCollection",
"lastupdate": "2020-08-05T00:00:00Z",
"features": [
	{"geometry":{"coordinates":[11.228105,60.020784],"type":"Point"},"properties":{"osm_id":"363641234","tag":{"amenity":"recycling","description":"Haldenvegen 321, Parkeringsplass L\u00f8renfallet","recycling:clothes":"yes","recycling:glass_bottles":"yes","recycling_type":"container","ref:sortere":"19285"}},"type":"Feature"},
	{"geometry":{"coordinates":[11.203788,59.989015],"type":"Point"},"properties":{"osm_id":"5156160690","tag":{"amenity":"waste_basket"}},"type":"Feature"},
	{"geometry":{"coordinates":[11.234864,60.006419],"type":"Point"},"properties":{"osm_id":"5156909197","tag":{"amenity":"waste_basket"}},"type":"Feature"},
	{"geometry":{"coordinates":[11.234834,60.006423],"type":"Point"},"properties":{"osm_id":"5156909198","tag":{"amenity":"waste_basket"}},"type":"Feature"},
	{"geometry":{"coordinates":[11.234124,60.007697],"type":"Point"},"properties":{"osm_id":"5156909219","tag":{"amenity":"waste_basket"}},"type":"Feature"},
	{"geometry":{"coordinates":[11.234125,60.007683],"type":"Point"},"properties":{"osm_id":"5156909220","tag":{"amenity":"waste_basket"}},"type":"Feature"},
	{"geometry":{"coordinates":[11.23484,60.006873],"type":"Point"},"properties":{"osm_id":"5156910450","tag":{"amenity":"waste_basket"}},"type":"Feature"},
	{"geometry":{"coordinates":[11.234838,60.006857],"type":"Point"},"properties":{"osm_id":"5156910451","tag":{"amenity":"waste_basket"}},"type":"Feature"},
	{"geometry":{"coordinates":[11.235214,60.007713],"type":"Point"},"properties":{"osm_id":"5156910483","tag":{"amenity":"waste_basket"}},"type":"Feature"},
	{"geometry":{"coordinates":[11.235212,60.007698],"type":"Point"},"properties":{"osm_id":"5156910484","tag":{"amenity":"waste_basket"}},"type":"Feature"},
	{"geometry":{"coordinates":[11.234548,60.008173],"type":"Point"},"properties":{"osm_id":"5156910551","tag":{"amenity":"waste_basket"}},"type":"Feature"},
	{"geometry":{"coordinates":[11.234581,60.008173],"type":"Point"},"properties":{"osm_id":"5156910552","tag":{"amenity":"waste_basket"}},"type":"Feature"},
	{"geometry":{"coordinates":[11.234484,60.008535],"type":"Point"},"properties":{"osm_id":"5156910556","tag":{"amenity":"waste_basket"}},"type":"Feature"},
	{"geometry":{"coordinates":[11.234482,60.008522],"type":"Point"},"properties":{"osm_id":"5156910557","tag":{"amenity":"waste_basket"}},"type":"Feature"},
	{"geometry":{"coordinates":[11.231435,60.016332],"type":"Point"},"properties":{"osm_id":"5157497217","tag":{"amenity":"waste_basket"}},"type":"Feature"},
	{"geometry":{"coordinates":[11.241814,59.987084],"type":"Point"},"properties":{"osm_id":"5555193943","tag":{"amenity":"recycling","description":"Kuskerudvegen 9","recycling:glass_bottles":"yes","recycling_type":"container","ref:sortere":"19289"}},"type":"Feature"},
	{"geometry":{"coordinates":[11.232792,59.980105],"type":"Point"},"properties":{"osm_id":"5555193953","tag":{"amenity":"recycling","description":"Magnus S\u00f8rlis Veg 1, S\u00f8rumsand Skole","recycling:glass_bottles":"yes","recycling_type":"container","ref:sortere":"19282"}},"type":"Feature"},
	{"geometry":{"coordinates":[11.227953,59.985181],"type":"Point"},"properties":{"osm_id":"5555206709","tag":{"amenity":"recycling","description":"Jenny Westbys Veg 1","recycling:glass_bottles":"yes","recycling_type":"container","ref:sortere":"21110"}},"type":"Feature"},
	{"geometry":{"coordinates":[11.245743,59.978124],"type":"Point"},"properties":{"osm_id":"5555207043","tag":{"amenity":"recycling","description":"Orderudvegen 20 v/Sennerud bhg","recycling:glass_bottles":"yes","recycling_type":"container","ref:sortere":"21093"}},"type":"Feature"}
]
}
