{
"type": "FeatureCollection",
"features": [
	{"geometry":{"coordinates":[11.164446,59.583158],"type":"Point"},"properties":{"osm_id":"6861974119","tag":{"amenity":"waste_basket","colour":"darkgreen","flickr":"https://www.flickr.com/photos/mtbboy1993/37257762515","material":"metal"}},"type":"Feature"},
	{"geometry":{"coordinates":[11.164501,59.583067],"type":"Point"},"properties":{"osm_id":"6872820197","tag":{"amenity":"waste_basket"}},"type":"Feature"},
	{"geometry":{"coordinates":[11.164297,59.583096],"type":"Point"},"properties":{"osm_id":"6872820198","tag":{"amenity":"waste_basket"}},"type":"Feature"},
	{"geometry":{"coordinates":[11.173752,59.591936],"type":"Point"},"properties":{"osm_id":"6901306268","tag":{"amenity":"waste_basket","material":"metal"}},"type":"Feature"},
	{"geometry":{"coordinates":[11.175071,59.591491],"type":"Point"},"properties":{"osm_id":"6901347542","tag":{"amenity":"waste_basket"}},"type":"Feature"},
	{"geometry":{"coordinates":[11.174809,59.591495],"type":"Point"},"properties":{"osm_id":"6901347543","tag":{"amenity":"waste_basket"}},"type":"Feature"},
	{"geometry":{"coordinates":[11.171125,59.587361],"type":"Point"},"properties":{"osm_id":"6917137379","tag":{"amenity":"waste_basket"}},"type":"Feature"},
	{"geometry":{"coordinates":[11.189882,59.591112],"type":"Point"},"properties":{"highway":"street_lamp","osm_id":"6923814227","tag":{"amenity":"waste_basket","direction":"210","flickr":"https://www.flickr.com/photos/mtbboy1993/43774699140/","material":"metal"}},"type":"Feature"},
	{"geometry":{"coordinates":[11.198457,59.590157],"type":"Point"},"properties":{"osm_id":"6932309629","tag":{"amenity":"waste_basket","material":"plastic"}},"type":"Feature"},
	{"geometry":{"coordinates":[11.172698,59.581182],"type":"Point"},"properties":{"highway":"street_lamp","osm_id":"6964695860","tag":{"amenity":"waste_basket","colour":"green","direction":"190;-80","material":"metal","traffic_sign":"NO:522.0"}},"type":"Feature"},
	{"geometry":{"coordinates":[11.177231,59.590928],"type":"Point"},"properties":{"osm_id":"6993406956","tag":{"amenity":"waste_basket","colour":"darkgreen","material":"metal","waste":"trash"}},"type":"Feature"},
	{"geometry":{"coordinates":[11.163135,59.582498],"type":"Point"},"properties":{"osm_id":"7039274672","tag":{"amenity":"waste_basket","waste":"trash"}},"type":"Feature"},
	{"geometry":{"coordinates":[11.169266,59.579945],"type":"Point"},"properties":{"osm_id":"7061617229","tag":{"amenity":"waste_basket","colour":"green","material":"plastic","waste":"trash"}},"type":"Feature"},
	{"geometry":{"coordinates":[11.166707,59.583073],"type":"Point"},"properties":{"osm_id":"7070278946","tag":{"amenity":"waste_basket"}},"type":"Feature"},
	{"geometry":{"coordinates":[11.163316,59.582248],"type":"Point"},"properties":{"osm_id":"7099294439","tag":{"amenity":"waste_basket","colour":"blue","material":"metal","waste":"trash"}},"type":"Feature"},
	{"geometry":{"coordinates":[11.177926,59.579343],"type":"Point"},"properties":{"osm_id":"7106694654","tag":{"amenity":"waste_basket","waste":"trash"}},"type":"Feature"},
	{"geometry":{"coordinates":[11.166715,59.583009],"type":"Point"},"properties":{"osm_id":"7290201862","tag":{"amenity":"waste_basket","colour":"green","material":"metal","waste":"trash"}},"type":"Feature"},
	{"geometry":{"coordinates":[11.164436,59.583452],"type":"Point"},"properties":{"osm_id":"7328931955","tag":{"amenity":"waste_basket","colour":"dark grey","material":"steel","waste":"trash"}},"type":"Feature"},
	{"geometry":{"coordinates":[11.164043,59.58352],"type":"Point"},"properties":{"osm_id":"7328931956","tag":{"amenity":"waste_basket","colour":"dark grey","material":"steel","waste":"trash"}},"type":"Feature"},
	{"geometry":{"coordinates":[11.191225,59.594496],"type":"Point"},"properties":{"osm_id":"7341042375","tag":{"amenity":"waste_basket","colour":"darkgreen","description":"rund s\u00c3\u00b8ppelkasse av metall, m\u00c3\u00b8rke gr\u00c3\u00b8nn, st\u00c3\u00a5r ved trafikkskiltsetene. round metal garbage can, dark green, stands at the traffic sign.","material":"meet"}},"type":"Feature"}
]
}
