{
"type": "FeatureCollection",
"features": [
	{"geometry":{"coordinates":[11.189548,54.482096],"type":"Point"},"properties":{"osm_id":"1856014754","tag":{"amenity":"recycling","recycling:glass":"yes"}},"type":"Feature"},
	{"geometry":{"coordinates":[11.208539,54.49431],"type":"Point"},"properties":{"name":"von Sch\u00c3\u00b6nfels","osm_id":"1921440280","tag":{"amenity":"recycling","email":"kontakt@von-schoenfels.de","opening_hours":"Mo-Fr 07:30-17:00; Sa 09:00-12:00","phone":"+49 4371 501010","recycling_type":"centre","website":"https://www.von-schoenfels.de/"}},"type":"Feature"},
	{"geometry":{"coordinates":[11.174621,54.473261],"type":"Point"},"properties":{"osm_id":"2420247839","tag":{"amenity":"waste_basket"}},"type":"Feature"},
	{"geometry":{"coordinates":[11.217193,54.503824],"type":"Point"},"properties":{"osm_id":"2441120858","tag":{"amenity":"recycling","location":"overground","recycling:glass_bottles":"yes","recycling:paper":"yes","recycling_type":"container"}},"type":"Feature"},
	{"geometry":{"coordinates":[11.224332,54.503783],"type":"Point"},"properties":{"osm_id":"2459967500","tag":{"amenity":"waste_basket"}},"type":"Feature"},
	{"geometry":{"coordinates":[11.243543,54.486071],"type":"Point"},"properties":{"osm_id":"6532211240","tag":{"amenity":"waste_basket"}},"type":"Feature"},
	{"geometry":{"coordinates":[11.249716,54.475524],"type":"Point"},"properties":{"osm_id":"6532261717","tag":{"amenity":"waste_basket"}},"type":"Feature"},
	{"geometry":{"coordinates":[11.245976,54.482106],"type":"Point"},"properties":{"osm_id":"6532282521","tag":{"amenity":"waste_basket"}},"type":"Feature"},
	{"geometry":{"coordinates":[11.246414,54.481174],"type":"Point"},"properties":{"osm_id":"6532282522","tag":{"amenity":"waste_basket"}},"type":"Feature"},
	{"geometry":{"coordinates":[11.244976,54.484472],"type":"Point"},"properties":{"osm_id":"6532317527","tag":{"amenity":"waste_basket"}},"type":"Feature"},
	{"geometry":{"coordinates":[11.242836,54.48933],"type":"Point"},"properties":{"osm_id":"6532317529","tag":{"amenity":"waste_basket"}},"type":"Feature"},
	{"geometry":{"coordinates":[11.224499,54.500809],"type":"Point"},"properties":{"osm_id":"6594178572","tag":{"amenity":"waste_basket"}},"type":"Feature"},
	{"geometry":{"coordinates":[11.223664,54.49986],"type":"Point"},"properties":{"osm_id":"6594178574","tag":{"amenity":"waste_basket"}},"type":"Feature"},
	{"geometry":{"coordinates":[11.224281,54.500917],"type":"Point"},"properties":{"osm_id":"6594178575","tag":{"amenity":"waste_basket"}},"type":"Feature"},
	{"geometry":{"coordinates":[11.223956,54.500437],"type":"Point"},"properties":{"osm_id":"6594178576","tag":{"amenity":"waste_basket"}},"type":"Feature"},
	{"geometry":{"coordinates":[11.22453,54.500854],"type":"Point"},"properties":{"osm_id":"6594178577","tag":{"amenity":"waste_basket"}},"type":"Feature"},
	{"geometry":{"coordinates":[11.223797,54.500167],"type":"Point"},"properties":{"osm_id":"6594178578","tag":{"amenity":"waste_basket"}},"type":"Feature"}
]
}
