{
"type": "FeatureCollection",
"features": [
	{"geometry":{"coordinates":[11.212903,54.412814],"type":"Point"},"properties":{"osm_id":"1846941916","tag":{"amenity":"recycling","recycling:glass_bottles":"yes","recycling:paper":"yes","recycling_type":"container"}},"type":"Feature"},
	{"geometry":{"coordinates":[11.211209,54.411493],"type":"Point"},"properties":{"osm_id":"2425969496","tag":{"amenity":"waste_basket"}},"type":"Feature"},
	{"geometry":{"coordinates":[11.216729,54.41201],"type":"Point"},"properties":{"osm_id":"2425969520","tag":{"amenity":"waste_basket"}},"type":"Feature"},
	{"geometry":{"coordinates":[11.21802,54.412068],"type":"Point"},"properties":{"osm_id":"2425969529","tag":{"amenity":"waste_basket"}},"type":"Feature"},
	{"geometry":{"coordinates":[11.21883,54.412125],"type":"Point"},"properties":{"osm_id":"2425969534","tag":{"amenity":"waste_basket"}},"type":"Feature"},
	{"geometry":{"coordinates":[11.221716,54.412225],"type":"Point"},"properties":{"osm_id":"2425969548","tag":{"amenity":"waste_basket"}},"type":"Feature"},
	{"geometry":{"coordinates":[11.223694,54.412334],"type":"Point"},"properties":{"osm_id":"2425969561","tag":{"amenity":"waste_basket","lastcheck":"2015-08-23"}},"type":"Feature"},
	{"geometry":{"coordinates":[11.20098,54.411944],"type":"Point"},"properties":{"osm_id":"2430793785","tag":{"amenity":"recycling","recycling:glass_bottles":"yes","recycling:paper":"yes","recycling_type":"container"}},"type":"Feature"},
	{"geometry":{"coordinates":[11.201023,54.411946],"type":"Point"},"properties":{"osm_id":"2430793786","ref":"Abfallsammelstelle 2","tag":{"amenity":"waste_disposal"}},"type":"Feature"},
	{"geometry":{"coordinates":[11.198404,54.41199],"type":"Point"},"properties":{"osm_id":"2430793787","ref":"Abfallsammelstelle 1","tag":{"amenity":"waste_disposal"}},"type":"Feature"},
	{"geometry":{"coordinates":[11.198361,54.411995],"type":"Point"},"properties":{"osm_id":"2430793788","tag":{"amenity":"recycling","recycling:glass_bottles":"yes","recycling:paper":"yes","recycling_type":"container"}},"type":"Feature"},
	{"geometry":{"coordinates":[11.198222,54.410536],"type":"Point"},"properties":{"osm_id":"2431400298","tag":{"amenity":"recycling","recycling:glass_bottles":"yes","recycling:paper":"yes","recycling_type":"container"}},"type":"Feature"},
	{"geometry":{"coordinates":[11.201988,54.410625],"type":"Point"},"properties":{"osm_id":"2431400299","tag":{"amenity":"recycling","recycling:glass_bottles":"yes","recycling:paper":"yes","recycling_type":"container"}},"type":"Feature"},
	{"geometry":{"coordinates":[11.211589,54.412469],"type":"Point"},"properties":{"osm_id":"3014439580","tag":{"amenity":"recycling","recycling:glass_bottles":"yes","recycling_type":"container"}},"type":"Feature"},
	{"geometry":{"coordinates":[11.193674,54.412049],"type":"Point"},"properties":{"osm_id":"3687921325","tag":{"amenity":"waste_basket","lastcheck":"2015-08-23"}},"type":"Feature"},
	{"geometry":{"coordinates":[11.194477,54.41335],"type":"Point"},"properties":{"osm_id":"3687921326","tag":{"amenity":"waste_basket","lastcheck":"2015-08-23"}},"type":"Feature"},
	{"geometry":{"coordinates":[11.177469,54.405625],"type":"Point"},"properties":{"osm_id":"5098395226","tag":{"amenity":"waste_basket"}},"type":"Feature"},
	{"geometry":{"coordinates":[11.17737,54.405349],"type":"Point"},"properties":{"name":"Entsorgungsstation","osm_id":"5098395227","tag":{"amenity":"recycling","opening_hours":"09:00-13:00, 15:00-19:00","recycling_type":"container"}},"type":"Feature"},
	{"geometry":{"coordinates":[11.176947,54.405274],"type":"Point"},"properties":{"osm_id":"5098395228","tag":{"amenity":"waste_basket"}},"type":"Feature"},
	{"geometry":{"coordinates":[11.177681,54.405697],"type":"Point"},"properties":{"osm_id":"5098423021","tag":{"amenity":"waste_basket"}},"type":"Feature"},
	{"geometry":{"coordinates":[11.176293,54.404637],"type":"Point"},"properties":{"osm_id":"5098454421","tag":{"amenity":"waste_basket"}},"type":"Feature"},
	{"geometry":{"coordinates":[11.175629,54.403745],"type":"Point"},"properties":{"osm_id":"5098459421","tag":{"amenity":"waste_basket"}},"type":"Feature"},
	{"geometry":{"coordinates":[11.179256,54.404343],"type":"Point"},"properties":{"osm_id":"5099994424","tag":{"amenity":"waste_basket"}},"type":"Feature"},
	{"geometry":{"coordinates":[11.180662,54.404107],"type":"Point"},"properties":{"osm_id":"5099994426","tag":{"amenity":"waste_basket"}},"type":"Feature"},
	{"geometry":{"coordinates":[11.181164,54.404334],"type":"Point"},"properties":{"osm_id":"5099994427","tag":{"amenity":"waste_basket"}},"type":"Feature"},
	{"geometry":{"coordinates":[11.177856,54.403744],"type":"Point"},"properties":{"osm_id":"5100031323","tag":{"amenity":"waste_basket"}},"type":"Feature"},
	{"geometry":{"coordinates":[11.180945,54.404179],"type":"Point"},"properties":{"osm_id":"5100064923","tag":{"amenity":"waste_basket"}},"type":"Feature"},
	{"geometry":{"coordinates":[11.178878,54.404138],"type":"Point"},"properties":{"osm_id":"5100066921","tag":{"amenity":"waste_basket"}},"type":"Feature"},
	{"geometry":{"coordinates":[11.180351,54.404034],"type":"Point"},"properties":{"osm_id":"5100066923","tag":{"amenity":"waste_basket"}},"type":"Feature"},
	{"geometry":{"coordinates":[11.179986,54.40396],"type":"Point"},"properties":{"osm_id":"5100070921","tag":{"amenity":"waste_basket"}},"type":"Feature"},
	{"geometry":{"coordinates":[11.181459,54.404904],"type":"Point"},"properties":{"osm_id":"5100086921","tag":{"amenity":"waste_basket"}},"type":"Feature"},
	{"geometry":{"coordinates":[11.177705,54.402603],"type":"Point"},"properties":{"osm_id":"5100149731","tag":{"amenity":"waste_basket"}},"type":"Feature"},
	{"geometry":{"coordinates":[11.177307,54.402472],"type":"Point"},"properties":{"osm_id":"5100149733","tag":{"amenity":"waste_basket"}},"type":"Feature"},
	{"geometry":{"coordinates":[11.178575,54.404851],"type":"Point"},"properties":{"osm_id":"5100149929","tag":{"amenity":"waste_basket"}},"type":"Feature"},
	{"geometry":{"coordinates":[11.177558,54.403881],"type":"Point"},"properties":{"osm_id":"5100156722","tag":{"amenity":"waste_basket"}},"type":"Feature"},
	{"geometry":{"coordinates":[11.175573,54.402166],"type":"Point"},"properties":{"osm_id":"5101396424","tag":{"amenity":"waste_basket"}},"type":"Feature"},
	{"geometry":{"coordinates":[11.174979,54.40211],"type":"Point"},"properties":{"osm_id":"5101476104","tag":{"amenity":"waste_basket"}},"type":"Feature"},
	{"geometry":{"coordinates":[11.176829,54.406632],"type":"Point"},"properties":{"osm_id":"5105341425","tag":{"amenity":"waste_basket"}},"type":"Feature"},
	{"geometry":{"coordinates":[11.176443,54.406545],"type":"Point"},"properties":{"osm_id":"5105341522","tag":{"amenity":"waste_basket"}},"type":"Feature"},
	{"geometry":{"coordinates":[11.17382,54.4031],"type":"Point"},"properties":{"osm_id":"5107929727","tag":{"amenity":"waste_basket"}},"type":"Feature"},
	{"geometry":{"coordinates":[11.175938,54.405821],"type":"Point"},"properties":{"osm_id":"5107977021","tag":{"amenity":"waste_basket"}},"type":"Feature"},
	{"geometry":{"coordinates":[11.175567,54.40597],"type":"Point"},"properties":{"osm_id":"5107977121","tag":{"amenity":"waste_basket"}},"type":"Feature"},
	{"geometry":{"coordinates":[11.174893,54.406259],"type":"Point"},"properties":{"osm_id":"5107977122","tag":{"amenity":"waste_basket"}},"type":"Feature"},
	{"geometry":{"coordinates":[11.17513,54.406207],"type":"Point"},"properties":{"osm_id":"5107977221","tag":{"amenity":"waste_basket"}},"type":"Feature"},
	{"geometry":{"coordinates":[11.175682,54.401991],"type":"Point"},"properties":{"osm_id":"5879400691","tag":{"amenity":"waste_basket"}},"type":"Feature"},
	{"geometry":{"coordinates":[11.169505,54.402885],"type":"Point"},"properties":{"osm_id":"5879431285","tag":{"amenity":"waste_basket"}},"type":"Feature"},
	{"geometry":{"coordinates":[11.167856,54.402998],"type":"Point"},"properties":{"osm_id":"5879435185","tag":{"amenity":"waste_basket"}},"type":"Feature"},
	{"geometry":{"coordinates":[11.166676,54.404221],"type":"Point"},"properties":{"osm_id":"5879445785","tag":{"amenity":"waste_basket"}},"type":"Feature"},
	{"geometry":{"coordinates":[11.165194,54.404608],"type":"Point"},"properties":{"osm_id":"5879445786","tag":{"amenity":"waste_basket"}},"type":"Feature"},
	{"geometry":{"coordinates":[11.162172,54.405189],"type":"Point"},"properties":{"osm_id":"5879448889","tag":{"amenity":"waste_basket"}},"type":"Feature"},
	{"geometry":{"coordinates":[11.162272,54.405174],"type":"Point"},"properties":{"osm_id":"5879454385","tag":{"amenity":"waste_basket"}},"type":"Feature"},
	{"geometry":{"coordinates":[11.21035,54.417876],"type":"Point"},"properties":{"osm_id":"6534925463","tag":{"amenity":"waste_basket"}},"type":"Feature"},
	{"geometry":{"coordinates":[11.205472,54.417607],"type":"Point"},"properties":{"osm_id":"6534936919","tag":{"amenity":"waste_basket"}},"type":"Feature"},
	{"geometry":{"coordinates":[11.211429,54.417433],"type":"Point"},"properties":{"osm_id":"6534979829","tag":{"amenity":"waste_basket"}},"type":"Feature"},
	{"geometry":{"coordinates":[11.211529,54.41609],"type":"Point"},"properties":{"osm_id":"6534979831","tag":{"amenity":"waste_basket"}},"type":"Feature"},
	{"geometry":{"coordinates":[11.211487,54.416665],"type":"Point"},"properties":{"osm_id":"6534979833","tag":{"amenity":"waste_basket"}},"type":"Feature"},
	{"geometry":{"coordinates":[11.211618,54.414301],"type":"Point"},"properties":{"osm_id":"6534979835","tag":{"amenity":"waste_basket"}},"type":"Feature"}
]
}
