{
"type": "FeatureCollection",
"features": [
	{"geometry":{"coordinates":[11.241882,52.029638],"type":"Point"},"properties":{"osm_id":"3069902992","tag":{"amenity":"recycling","recycling_type":"container"}},"type":"Feature"},
	{"geometry":{"coordinates":[11.237456,52.038298],"type":"Point"},"properties":{"osm_id":"3087760798","tag":{"amenity":"recycling","recycling:cans":"yes","recycling:paper":"yes","recycling_type":"container"}},"type":"Feature"},
	{"geometry":{"coordinates":[11.23763,52.038914],"type":"Point"},"properties":{"osm_id":"3087763333","tag":{"amenity":"recycling","recycling_type":"container"}},"type":"Feature"},
	{"geometry":{"coordinates":[11.236053,52.035189],"type":"Point"},"properties":{"osm_id":"3087821908","tag":{"amenity":"recycling","recycling_type":"container"}},"type":"Feature"},
	{"geometry":{"coordinates":[11.236211,52.035829],"type":"Point"},"properties":{"osm_id":"3087821913","tag":{"amenity":"recycling","recycling_type":"container"}},"type":"Feature"},
	{"geometry":{"coordinates":[11.236435,52.036195],"type":"Point"},"properties":{"osm_id":"3087821920","tag":{"amenity":"recycling","recycling_type":"container"}},"type":"Feature"},
	{"geometry":{"coordinates":[11.236689,52.036246],"type":"Point"},"properties":{"osm_id":"3087821924","tag":{"amenity":"recycling","recycling_type":"container"}},"type":"Feature"},
	{"geometry":{"coordinates":[11.236659,52.036629],"type":"Point"},"properties":{"osm_id":"3087843188","tag":{"amenity":"recycling","recycling_type":"container"}},"type":"Feature"},
	{"geometry":{"coordinates":[11.233234,52.037196],"type":"Point"},"properties":{"osm_id":"3088962860","tag":{"amenity":"recycling","recycling_type":"container"}},"type":"Feature"},
	{"geometry":{"coordinates":[11.238617,52.037874],"type":"Point"},"properties":{"osm_id":"3089506943","tag":{"amenity":"recycling","recycling_type":"container"}},"type":"Feature"},
	{"geometry":{"coordinates":[11.232689,52.034691],"type":"Point"},"properties":{"osm_id":"3091193199","tag":{"amenity":"recycling","recycling_type":"container"}},"type":"Feature"},
	{"geometry":{"coordinates":[11.231516,52.035666],"type":"Point"},"properties":{"osm_id":"3093875361","tag":{"amenity":"recycling","recycling_type":"container"}},"type":"Feature"},
	{"geometry":{"coordinates":[11.232115,52.036171],"type":"Point"},"properties":{"osm_id":"3093875402","tag":{"amenity":"recycling","recycling_type":"container"}},"type":"Feature"},
	{"geometry":{"coordinates":[11.23228,52.037469],"type":"Point"},"properties":{"osm_id":"3093917435","tag":{"amenity":"recycling","recycling_type":"container"}},"type":"Feature"},
	{"geometry":{"coordinates":[11.234348,52.035541],"type":"Point"},"properties":{"osm_id":"3093935965","tag":{"amenity":"recycling","recycling_type":"container"}},"type":"Feature"},
	{"geometry":{"coordinates":[11.238394,52.037518],"type":"Point"},"properties":{"osm_id":"3095293492","tag":{"amenity":"recycling","recycling_type":"container"}},"type":"Feature"},
	{"geometry":{"coordinates":[11.23866,52.037949],"type":"Point"},"properties":{"osm_id":"3095293514","tag":{"amenity":"recycling","recycling_type":"container"}},"type":"Feature"},
	{"geometry":{"coordinates":[11.238803,52.03828],"type":"Point"},"properties":{"osm_id":"3095310953","tag":{"amenity":"recycling","recycling_type":"container"}},"type":"Feature"},
	{"geometry":{"coordinates":[11.238958,52.038618],"type":"Point"},"properties":{"osm_id":"3095310983","tag":{"amenity":"recycling","recycling_type":"container"}},"type":"Feature"},
	{"geometry":{"coordinates":[11.23911,52.03896],"type":"Point"},"properties":{"osm_id":"3095311000","tag":{"amenity":"recycling","recycling_type":"container"}},"type":"Feature"},
	{"geometry":{"coordinates":[11.238134,52.0395],"type":"Point"},"properties":{"osm_id":"3095390414","tag":{"amenity":"recycling","recycling_type":"container"}},"type":"Feature"},
	{"geometry":{"coordinates":[11.239527,52.039763],"type":"Point"},"properties":{"osm_id":"3095390435","tag":{"amenity":"recycling","recycling_type":"container"}},"type":"Feature"},
	{"geometry":{"coordinates":[11.230257,52.037244],"type":"Point"},"properties":{"osm_id":"3105405536","tag":{"amenity":"recycling","recycling_type":"container"}},"type":"Feature"},
	{"geometry":{"coordinates":[11.231817,52.037623],"type":"Point"},"properties":{"osm_id":"3105405748","tag":{"amenity":"recycling","recycling_type":"container"}},"type":"Feature"},
	{"geometry":{"coordinates":[11.230575,52.036527],"type":"Point"},"properties":{"osm_id":"3106642217","tag":{"amenity":"recycling","recycling_type":"container"}},"type":"Feature"},
	{"geometry":{"coordinates":[11.230371,52.035296],"type":"Point"},"properties":{"osm_id":"3106902548","tag":{"amenity":"recycling","recycling_type":"container"}},"type":"Feature"},
	{"geometry":{"coordinates":[11.23076,52.035849],"type":"Point"},"properties":{"osm_id":"3106904269","tag":{"amenity":"recycling","recycling_type":"container"}},"type":"Feature"},
	{"geometry":{"coordinates":[11.232235,52.025274],"type":"Point"},"properties":{"osm_id":"3115226170","tag":{"amenity":"recycling","recycling_type":"container"}},"type":"Feature"},
	{"geometry":{"coordinates":[11.229448,52.032523],"type":"Point"},"properties":{"osm_id":"3122461720","tag":{"amenity":"recycling","recycling_type":"container"}},"type":"Feature"},
	{"geometry":{"coordinates":[11.240628,52.034016],"type":"Point"},"properties":{"osm_id":"3139798742","tag":{"amenity":"recycling","recycling_type":"container"}},"type":"Feature"},
	{"geometry":{"coordinates":[11.241235,52.034272],"type":"Point"},"properties":{"osm_id":"3139798743","tag":{"amenity":"recycling","recycling_type":"container"}},"type":"Feature"},
	{"geometry":{"coordinates":[11.226455,52.022221],"type":"Point"},"properties":{"osm_id":"3184242951","tag":{"amenity":"recycling","recycling_type":"container"}},"type":"Feature"},
	{"geometry":{"coordinates":[11.229893,52.02141],"type":"Point"},"properties":{"osm_id":"3186976775","tag":{"amenity":"recycling","recycling:clothes":"yes","recycling:glass":"yes","recycling_type":"container"}},"type":"Feature"},
	{"geometry":{"coordinates":[11.223061,52.025423],"type":"Point"},"properties":{"osm_id":"3225367330","tag":{"amenity":"recycling","recycling_type":"container"}},"type":"Feature"},
	{"geometry":{"coordinates":[11.228513,52.025303],"type":"Point"},"properties":{"osm_id":"3242613187","tag":{"amenity":"recycling","recycling_type":"container"}},"type":"Feature"},
	{"geometry":{"coordinates":[11.230219,52.026596],"type":"Point"},"properties":{"osm_id":"3258687674","tag":{"amenity":"recycling","recycling_type":"container"}},"type":"Feature"},
	{"geometry":{"coordinates":[11.230109,52.027129],"type":"Point"},"properties":{"osm_id":"3258687690","tag":{"amenity":"recycling","recycling_type":"container"}},"type":"Feature"},
	{"geometry":{"coordinates":[11.230023,52.027515],"type":"Point"},"properties":{"osm_id":"3258687704","tag":{"amenity":"recycling","recycling_type":"container"}},"type":"Feature"},
	{"geometry":{"coordinates":[11.230832,52.02626],"type":"Point"},"properties":{"osm_id":"3259588107","tag":{"amenity":"recycling","recycling_type":"container"}},"type":"Feature"},
	{"geometry":{"coordinates":[11.218404,52.027272],"type":"Point"},"properties":{"osm_id":"3277324736","tag":{"amenity":"recycling","recycling_type":"container"}},"type":"Feature"},
	{"geometry":{"coordinates":[11.220117,52.026911],"type":"Point"},"properties":{"osm_id":"3278087193","tag":{"amenity":"recycling","recycling_type":"container"}},"type":"Feature"},
	{"geometry":{"coordinates":[11.2184,52.028639],"type":"Point"},"properties":{"osm_id":"3292123950","tag":{"amenity":"recycling","recycling_type":"container"}},"type":"Feature"},
	{"geometry":{"coordinates":[11.228763,52.027021],"type":"Point"},"properties":{"osm_id":"3437459221","tag":{"amenity":"recycling","recycling_type":"container"}},"type":"Feature"},
	{"geometry":{"coordinates":[11.230516,52.027818],"type":"Point"},"properties":{"osm_id":"3441075389","tag":{"amenity":"recycling","recycling_type":"container"}},"type":"Feature"},
	{"geometry":{"coordinates":[11.234766,52.032017],"type":"Point"},"properties":{"osm_id":"3523422738","tag":{"amenity":"recycling","height":"8","leaf_cycle":"evergreen","leaf_type":"needleleaved","natural":"tree","recycling_type":"container"}},"type":"Feature"},
	{"geometry":{"coordinates":[11.236384,52.032664],"type":"Point"},"properties":{"osm_id":"3546745093","tag":{"amenity":"recycling","recycling_type":"container"}},"type":"Feature"},
	{"geometry":{"coordinates":[11.238705,52.033475],"type":"Point"},"properties":{"osm_id":"3551127219","tag":{"amenity":"recycling","recycling_type":"container"}},"type":"Feature"},
	{"geometry":{"coordinates":[11.234458,52.034209],"type":"Point"},"properties":{"osm_id":"3560910478","tag":{"amenity":"recycling","recycling_type":"container"}},"type":"Feature"},
	{"geometry":{"coordinates":[11.236259,52.032391],"type":"Point"},"properties":{"osm_id":"3566023901","tag":{"amenity":"recycling","recycling_type":"container"}},"type":"Feature"},
	{"geometry":{"coordinates":[11.236559,52.03421],"type":"Point"},"properties":{"osm_id":"3583936573","tag":{"amenity":"recycling","recycling_type":"container"}},"type":"Feature"},
	{"geometry":{"coordinates":[11.234729,52.035006],"type":"Point"},"properties":{"osm_id":"3588014405","tag":{"amenity":"recycling","recycling_type":"container"}},"type":"Feature"},
	{"geometry":{"coordinates":[11.234767,52.035086],"type":"Point"},"properties":{"osm_id":"3588014409","tag":{"amenity":"recycling","recycling_type":"container"}},"type":"Feature"},
	{"geometry":{"coordinates":[11.237392,52.035291],"type":"Point"},"properties":{"osm_id":"3589747966","tag":{"amenity":"recycling","recycling_type":"container"}},"type":"Feature"},
	{"geometry":{"coordinates":[11.237605,52.035723],"type":"Point"},"properties":{"osm_id":"3596772747","tag":{"amenity":"recycling","recycling_type":"container"}},"type":"Feature"},
	{"geometry":{"coordinates":[11.237993,52.036527],"type":"Point"},"properties":{"osm_id":"3600530313","tag":{"amenity":"recycling","recycling_type":"container"}},"type":"Feature"}
]
}
