{
"type": "FeatureCollection",
"features": [
	{"geometry":{"coordinates":[11.230284,50.143325],"type":"Point"},"properties":{"osm_id":"831955103","tag":{"amenity":"recycling","recycling:cans":"yes","recycling:clothes":"yes","recycling:glass_bottles":"yes","recycling:shoes":"yes","recycling_type":"container"}},"type":"Feature"},
	{"geometry":{"coordinates":[11.24742,50.139243],"type":"Point"},"properties":{"osm_id":"1427802520","tag":{"amenity":"recycling","recycling:cans":"yes","recycling:glass":"yes","recycling:glass_bottles":"yes","recycling_type":"container"}},"type":"Feature"},
	{"geometry":{"coordinates":[11.198561,50.173857],"type":"Point"},"properties":{"name":"Recyclinghof","osm_id":"2159868275","tag":{"amenity":"recycling"}},"type":"Feature"},
	{"geometry":{"coordinates":[11.211198,50.169578],"type":"Point"},"properties":{"osm_id":"2176533323","tag":{"amenity":"waste_basket"}},"type":"Feature"},
	{"geometry":{"coordinates":[11.171227,50.165534],"type":"Point"},"properties":{"osm_id":"4373165550","tag":{"amenity":"waste_basket"}},"type":"Feature"},
	{"geometry":{"coordinates":[11.191991,50.124614],"type":"Point"},"properties":{"osm_id":"4395014215","tag":{"amenity":"waste_basket"}},"type":"Feature"},
	{"geometry":{"coordinates":[11.234375,50.130634],"type":"Point"},"properties":{"osm_id":"4408271037","tag":{"amenity":"waste_basket"}},"type":"Feature"},
	{"geometry":{"coordinates":[11.23786,50.132438],"type":"Point"},"properties":{"osm_id":"4408271061","tag":{"amenity":"waste_basket"}},"type":"Feature"},
	{"geometry":{"coordinates":[11.216026,50.140403],"type":"Point"},"properties":{"osm_id":"4408271893","tag":{"amenity":"waste_basket"}},"type":"Feature"},
	{"geometry":{"coordinates":[11.24472,50.138283],"type":"Point"},"properties":{"osm_id":"4408409522","tag":{"amenity":"waste_basket"}},"type":"Feature"},
	{"geometry":{"coordinates":[11.181591,50.142131],"type":"Point"},"properties":{"osm_id":"4416282780","tag":{"amenity":"recycling","recycling:cans":"yes","recycling:glass_bottles":"yes","recycling_type":"container"}},"type":"Feature"},
	{"geometry":{"coordinates":[11.201032,50.156176],"type":"Point"},"properties":{"osm_id":"4416314390","tag":{"amenity":"recycling","recycling:cans":"yes","recycling:clothes":"yes","recycling:glass_bottles":"yes","recycling:shoes":"yes","recycling_type":"container"}},"type":"Feature"},
	{"geometry":{"coordinates":[11.206758,50.169163],"type":"Point"},"properties":{"osm_id":"4416332581","tag":{"amenity":"waste_basket"}},"type":"Feature"},
	{"geometry":{"coordinates":[11.171418,50.16618],"type":"Point"},"properties":{"osm_id":"4416406291","tag":{"amenity":"waste_basket"}},"type":"Feature"},
	{"geometry":{"coordinates":[11.172076,50.166201],"type":"Point"},"properties":{"osm_id":"4416406296","tag":{"amenity":"waste_basket"}},"type":"Feature"},
	{"geometry":{"coordinates":[11.173172,50.166423],"type":"Point"},"properties":{"osm_id":"4416406306","tag":{"amenity":"recycling","recycling:cans":"yes","recycling:clothes":"yes","recycling:glass_bottles":"yes","recycling_type":"container"}},"type":"Feature"},
	{"geometry":{"coordinates":[11.220615,50.173623],"type":"Point"},"properties":{"osm_id":"4427969221","tag":{"amenity":"waste_basket"}},"type":"Feature"},
	{"geometry":{"coordinates":[11.220529,50.173695],"type":"Point"},"properties":{"osm_id":"4427969223","tag":{"amenity":"recycling","recycling:cans":"yes","recycling:glass_bottles":"yes","recycling_type":"container"}},"type":"Feature"},
	{"geometry":{"coordinates":[11.247034,50.160548],"type":"Point"},"properties":{"osm_id":"4450448465","tag":{"amenity":"recycling","recycling:cans":"yes","recycling:clothes":"yes","recycling:glass":"yes","recycling:shoes":"yes","recycling_type":"container"}},"type":"Feature"},
	{"geometry":{"coordinates":[11.249823,50.124947],"type":"Point"},"properties":{"osm_id":"4483909050","tag":{"amenity":"waste_basket"}},"type":"Feature"},
	{"geometry":{"coordinates":[11.212453,50.176038],"type":"Point"},"properties":{"osm_id":"4485491338","tag":{"amenity":"waste_basket"}},"type":"Feature"},
	{"geometry":{"coordinates":[11.215454,50.176738],"type":"Point"},"properties":{"osm_id":"4485491342","tag":{"amenity":"waste_basket"}},"type":"Feature"},
	{"geometry":{"coordinates":[11.209137,50.175204],"type":"Point"},"properties":{"osm_id":"4866550450","tag":{"amenity":"waste_basket"}},"type":"Feature"},
	{"geometry":{"coordinates":[11.180823,50.176323],"type":"Point"},"properties":{"osm_id":"4945686971","tag":{"amenity":"waste_basket"}},"type":"Feature"},
	{"geometry":{"coordinates":[11.165485,50.163781],"type":"Point"},"properties":{"osm_id":"4945784389","tag":{"amenity":"waste_basket"}},"type":"Feature"},
	{"geometry":{"coordinates":[11.171024,50.166622],"type":"Point"},"properties":{"osm_id":"4945784522","tag":{"amenity":"waste_basket"}},"type":"Feature"},
	{"geometry":{"coordinates":[11.175445,50.166332],"type":"Point"},"properties":{"osm_id":"4945784529","tag":{"amenity":"waste_basket"}},"type":"Feature"},
	{"geometry":{"coordinates":[11.175413,50.139369],"type":"Point"},"properties":{"osm_id":"5336989802","tag":{"amenity":"waste_basket"}},"type":"Feature"},
	{"geometry":{"coordinates":[11.175765,50.127651],"type":"Point"},"properties":{"osm_id":"5336990140","tag":{"amenity":"waste_basket"}},"type":"Feature"},
	{"geometry":{"coordinates":[11.208023,50.129255],"type":"Point"},"properties":{"osm_id":"5418409784","tag":{"amenity":"waste_basket"}},"type":"Feature"},
	{"geometry":{"coordinates":[11.243555,50.137529],"type":"Point"},"properties":{"osm_id":"5514152694","tag":{"amenity":"waste_basket"}},"type":"Feature"},
	{"geometry":{"coordinates":[11.247117,50.142153],"type":"Point"},"properties":{"osm_id":"5514152713","tag":{"amenity":"waste_basket"}},"type":"Feature"},
	{"geometry":{"coordinates":[11.248839,50.147428],"type":"Point"},"properties":{"osm_id":"5514153728","tag":{"amenity":"waste_basket"}},"type":"Feature"},
	{"geometry":{"coordinates":[11.175392,50.153288],"type":"Point"},"properties":{"osm_id":"5777021696","tag":{"amenity":"recycling","recycling:cans":"yes","recycling:clothes":"yes","recycling:glass_bottles":"yes","recycling:shoes":"yes","recycling_type":"container"}},"type":"Feature"},
	{"geometry":{"coordinates":[11.1818,50.161493],"type":"Point"},"properties":{"osm_id":"5777087430","tag":{"amenity":"recycling","recycling:cans":"yes","recycling:clothes":"yes","recycling:glass_bottles":"yes","recycling:shoes":"yes","recycling_type":"container"}},"type":"Feature"},
	{"geometry":{"coordinates":[11.163528,50.165927],"type":"Point"},"properties":{"osm_id":"6643570428","tag":{"amenity":"waste_basket"}},"type":"Feature"},
	{"geometry":{"coordinates":[11.223192,50.12341],"type":"Point"},"properties":{"osm_id":"7711057249","tag":{"amenity":"waste_basket"}},"type":"Feature"},
	{"geometry":{"coordinates":[11.226852,50.121615],"type":"Point"},"properties":{"osm_id":"7711057251","tag":{"amenity":"waste_basket"}},"type":"Feature"}
]
}
