{
"type": "FeatureCollection",
"features": [
	{"geometry":{"coordinates":[11.207043,49.23552],"type":"Point"},"properties":{"osm_id":"252504176","tag":{"amenity":"recycling","recycling:batteries":"no","recycling:cans":"no","recycling:clothes":"yes","recycling:glass":"yes","recycling:paper":"no","recycling:scrap_metal":"yes","recycling_type":"container"}},"type":"Feature"},
	{"geometry":{"coordinates":[11.217612,49.263473],"type":"Point"},"properties":{"osm_id":"292638313","tag":{"amenity":"recycling","recycling:batteries":"no","recycling:cans":"yes","recycling:clothes":"no","recycling:glass":"yes","recycling:paper":"no","recycling:scrap_metal":"no","recycling_type":"container"}},"type":"Feature"},
	{"geometry":{"coordinates":[11.171555,49.250734],"type":"Point"},"properties":{"osm_id":"472332984","tag":{"amenity":"recycling","recycling:glass":"yes","recycling:scrap_metal":"yes"}},"type":"Feature"},
	{"geometry":{"coordinates":[11.232186,49.250488],"type":"Point"},"properties":{"osm_id":"526145473","tag":{"amenity":"recycling","recycling:cans":"yes","recycling:clothes":"yes","recycling:glass":"yes"}},"type":"Feature"},
	{"geometry":{"coordinates":[11.245924,49.248556],"type":"Point"},"properties":{"osm_id":"529973785","tag":{"amenity":"recycling","recycling:cans":"yes","recycling:clothes":"yes","recycling:glass":"yes"}},"type":"Feature"},
	{"geometry":{"coordinates":[11.232887,49.258182],"type":"Point"},"properties":{"osm_id":"530718366","tag":{"amenity":"recycling","recycling:clothes":"yes"}},"type":"Feature"},
	{"geometry":{"coordinates":[11.239858,49.256773],"type":"Point"},"properties":{"osm_id":"530736634","tag":{"amenity":"recycling","recycling:cans":"yes","recycling:clothes":"yes","recycling:glass":"yes"}},"type":"Feature"},
	{"geometry":{"coordinates":[11.246165,49.254493],"type":"Point"},"properties":{"osm_id":"530754599","tag":{"amenity":"recycling","recycling:clothes":"yes","recycling_type":"container"}},"type":"Feature"},
	{"geometry":{"coordinates":[11.194455,49.230232],"type":"Point"},"properties":{"osm_id":"738726548","tag":{"amenity":"recycling","location":"overground","recycling:glass_bottles":"yes","recycling:scrap_metal":"yes","recycling_type":"container"}},"type":"Feature"},
	{"geometry":{"coordinates":[11.19642,49.230632],"type":"Point"},"properties":{"osm_id":"738726614","tag":{"amenity":"recycling","recycling:batteries":"no","recycling:cans":"no","recycling:clothes":"no","recycling:glass":"yes","recycling:paper":"no","recycling:scrap_metal":"yes","recycling_type":"container"}},"type":"Feature"},
	{"geometry":{"coordinates":[11.198047,49.227895],"type":"Point"},"properties":{"osm_id":"738726660","tag":{"amenity":"waste_disposal","waste":"trash"}},"type":"Feature"},
	{"geometry":{"coordinates":[11.200794,49.229233],"type":"Point"},"properties":{"osm_id":"738726728","tag":{"amenity":"recycling","location":"overground","recycling:glass":"no","recycling:glass_bottles":"yes","recycling:scrap_metal":"yes","recycling_type":"container"}},"type":"Feature"},
	{"geometry":{"coordinates":[11.187648,49.213169],"type":"Point"},"properties":{"osm_id":"738727188","tag":{"amenity":"recycling"}},"type":"Feature"},
	{"geometry":{"coordinates":[11.185797,49.210874],"type":"Point"},"properties":{"osm_id":"929951740","tag":{"amenity":"recycling","recycling:cans":"yes","recycling:glass":"yes","recycling:scrap_metal":"no","recycling_type":"container"}},"type":"Feature"},
	{"geometry":{"coordinates":[11.186327,49.211171],"type":"Point"},"properties":{"osm_id":"2008355335","tag":{"amenity":"recycling","recycling:cans":"yes","recycling:glass":"yes","recycling:scrap_metal":"no","recycling_type":"container"}},"type":"Feature"},
	{"geometry":{"coordinates":[11.21218,49.261947],"type":"Point"},"properties":{"osm_id":"2183107880","tag":{"amenity":"waste_basket"}},"type":"Feature"},
	{"geometry":{"coordinates":[11.212839,49.262674],"type":"Point"},"properties":{"osm_id":"2283888698","tag":{"amenity":"waste_basket"}},"type":"Feature"},
	{"geometry":{"coordinates":[11.211349,49.262232],"type":"Point"},"properties":{"osm_id":"2348426414","tag":{"amenity":"waste_basket"}},"type":"Feature"},
	{"geometry":{"coordinates":[11.211632,49.262255],"type":"Point"},"properties":{"osm_id":"2348426419","tag":{"amenity":"waste_basket"}},"type":"Feature"},
	{"geometry":{"coordinates":[11.229722,49.257503],"type":"Point"},"properties":{"osm_id":"2460137910","tag":{"amenity":"recycling","recycling:batteries":"no","recycling:cans":"no","recycling:clothes":"yes","recycling:glass":"no","recycling:paper":"no","recycling:scrap_metal":"no","recycling:shoes":"yes","recycling_type":"container"}},"type":"Feature"},
	{"geometry":{"coordinates":[11.199689,49.228656],"type":"Point"},"properties":{"osm_id":"2597106896","tag":{"amenity":"waste_basket"}},"type":"Feature"},
	{"geometry":{"coordinates":[11.199726,49.22867],"type":"Point"},"properties":{"osm_id":"2597106897","tag":{"amenity":"waste_basket"}},"type":"Feature"},
	{"geometry":{"coordinates":[11.212618,49.239862],"type":"Point"},"properties":{"osm_id":"2597114485","tag":{"amenity":"waste_basket"}},"type":"Feature"},
	{"geometry":{"coordinates":[11.196373,49.230702],"type":"Point"},"properties":{"osm_id":"2597857664","tag":{"amenity":"waste_basket"}},"type":"Feature"},
	{"geometry":{"coordinates":[11.197521,49.231561],"type":"Point"},"properties":{"osm_id":"2597857665","tag":{"amenity":"waste_basket"}},"type":"Feature"},
	{"geometry":{"coordinates":[11.204622,49.234025],"type":"Point"},"properties":{"osm_id":"2597862649","tag":{"amenity":"waste_basket"}},"type":"Feature"},
	{"geometry":{"coordinates":[11.207022,49.235537],"type":"Point"},"properties":{"osm_id":"2597862658","tag":{"amenity":"waste_basket"}},"type":"Feature"},
	{"geometry":{"coordinates":[11.208756,49.238621],"type":"Point"},"properties":{"osm_id":"2597862738","tag":{"amenity":"waste_basket"}},"type":"Feature"},
	{"geometry":{"coordinates":[11.209602,49.239111],"type":"Point"},"properties":{"osm_id":"2597862741","tag":{"amenity":"waste_basket"}},"type":"Feature"},
	{"geometry":{"coordinates":[11.20398,49.237968],"type":"Point"},"properties":{"osm_id":"2597866292","tag":{"amenity":"waste_basket"}},"type":"Feature"},
	{"geometry":{"coordinates":[11.198273,49.23249],"type":"Point"},"properties":{"osm_id":"2598787418","tag":{"amenity":"waste_basket"}},"type":"Feature"},
	{"geometry":{"coordinates":[11.245265,49.253753],"type":"Point"},"properties":{"osm_id":"2598805445","tag":{"amenity":"recycling","recycling:batteries":"no","recycling:cans":"no","recycling:clothes":"yes","recycling:glass":"no","recycling:paper":"no","recycling:scrap_metal":"no","recycling_type":"container"}},"type":"Feature"},
	{"geometry":{"coordinates":[11.212695,49.26239],"type":"Point"},"properties":{"osm_id":"3928204619","tag":{"amenity":"waste_basket","level":"1"}},"type":"Feature"},
	{"geometry":{"coordinates":[11.172263,49.218987],"type":"Point"},"properties":{"osm_id":"9105996654","tag":{"amenity":"waste_basket"}},"type":"Feature"},
	{"geometry":{"coordinates":[11.1906,49.221507],"type":"Point"},"properties":{"osm_id":"9105996655","tag":{"amenity":"waste_basket"}},"type":"Feature"},
	{"geometry":{"coordinates":[11.190265,49.227057],"type":"Point"},"properties":{"osm_id":"9105996656","tag":{"amenity":"waste_basket"}},"type":"Feature"},
	{"geometry":{"coordinates":[11.179539,49.22555],"type":"Point"},"properties":{"osm_id":"9105996657","tag":{"amenity":"waste_basket"}},"type":"Feature"},
	{"geometry":{"coordinates":[11.189657,49.217984],"type":"Point"},"properties":{"osm_id":"9105996658","tag":{"amenity":"waste_basket"}},"type":"Feature"},
	{"geometry":{"coordinates":[11.192582,49.223121],"type":"Point"},"properties":{"osm_id":"9105996659","tag":{"amenity":"waste_basket"}},"type":"Feature"},
	{"geometry":{"coordinates":[11.173095,49.223057],"type":"Point"},"properties":{"osm_id":"9105996662","tag":{"amenity":"waste_basket"}},"type":"Feature"},
	{"geometry":{"coordinates":[11.190355,49.221097],"type":"Point"},"properties":{"osm_id":"9105996663","tag":{"amenity":"waste_basket"}},"type":"Feature"},
	{"geometry":{"coordinates":[11.183535,49.226212],"type":"Point"},"properties":{"osm_id":"9105996664","tag":{"amenity":"waste_basket"}},"type":"Feature"},
	{"geometry":{"coordinates":[11.187439,49.215966],"type":"Point"},"properties":{"osm_id":"9105996665","tag":{"amenity":"waste_basket"}},"type":"Feature"},
	{"geometry":{"coordinates":[11.190846,49.221315],"type":"Point"},"properties":{"osm_id":"9105996667","tag":{"amenity":"waste_basket"}},"type":"Feature"},
	{"geometry":{"coordinates":[11.190222,49.227047],"type":"Point"},"properties":{"osm_id":"9105996668","tag":{"amenity":"waste_basket"}},"type":"Feature"},
	{"geometry":{"coordinates":[11.189155,49.218832],"type":"Point"},"properties":{"osm_id":"9105996670","tag":{"amenity":"waste_basket"}},"type":"Feature"},
	{"geometry":{"coordinates":[11.185438,49.226082],"type":"Point"},"properties":{"osm_id":"9105996672","tag":{"amenity":"waste_basket"}},"type":"Feature"},
	{"geometry":{"coordinates":[11.170523,49.221198],"type":"Point"},"properties":{"osm_id":"9105996674","tag":{"amenity":"waste_basket"}},"type":"Feature"},
	{"geometry":{"coordinates":[11.189258,49.217255],"type":"Point"},"properties":{"osm_id":"9105996678","tag":{"amenity":"waste_basket"}},"type":"Feature"},
	{"geometry":{"coordinates":[11.182035,49.210796],"type":"Point"},"properties":{"osm_id":"9105996679","tag":{"amenity":"waste_basket"}},"type":"Feature"},
	{"geometry":{"coordinates":[11.191368,49.222213],"type":"Point"},"properties":{"osm_id":"9105996680","tag":{"amenity":"waste_basket"}},"type":"Feature"},
	{"geometry":{"coordinates":[11.179,49.224834],"type":"Point"},"properties":{"osm_id":"9105996683","tag":{"amenity":"waste_basket"}},"type":"Feature"},
	{"geometry":{"coordinates":[11.192357,49.224075],"type":"Point"},"properties":{"osm_id":"9105996685","tag":{"amenity":"waste_basket"}},"type":"Feature"}
]
}
