{
"type": "FeatureCollection",
"features": [
	{"geometry":{"coordinates":[11.186056,49.187578],"type":"Point"},"properties":{"osm_id":"253560807","tag":{"amenity":"recycling","capacity":"17","description":"17 Container","recycling:clothes":"yes","recycling:glass":"yes","recycling:scrap_metal":"yes","recycling:shoes":"yes","recycling:used_fat":"yes","recycling_type":"container"}},"type":"Feature"},
	{"geometry":{"coordinates":[11.187255,49.196578],"type":"Point"},"properties":{"osm_id":"262194357","tag":{"amenity":"recycling","last_checked":"2017-06","recycling:clothes":"yes","recycling:glass":"yes","recycling:paper":"no","recycling:scrap_metal":"yes","recycling_type":"container"}},"type":"Feature"},
	{"geometry":{"coordinates":[11.204633,49.195983],"type":"Point"},"properties":{"osm_id":"281087717","tag":{"amenity":"recycling","location":"overground","recycling:cans":"yes","recycling:glass":"yes","recycling:glass_bottles":"yes","recycling_type":"container"}},"type":"Feature"},
	{"geometry":{"coordinates":[11.168568,49.179584],"type":"Point"},"properties":{"osm_id":"297674986","tag":{"amenity":"recycling"}},"type":"Feature"},
	{"geometry":{"coordinates":[11.173042,49.158495],"type":"Point"},"properties":{"osm_id":"302311106","tag":{"amenity":"recycling"}},"type":"Feature"},
	{"geometry":{"coordinates":[11.195577,49.208406],"type":"Point"},"properties":{"osm_id":"302322627","tag":{"amenity":"recycling","recycling_type":"container"}},"type":"Feature"},
	{"geometry":{"coordinates":[11.217373,49.182977],"type":"Point"},"properties":{"osm_id":"1270805112","tag":{"amenity":"recycling","recycling_type":"container"}},"type":"Feature"},
	{"geometry":{"coordinates":[11.1835,49.19268],"type":"Point"},"properties":{"osm_id":"1580649019","tag":{"amenity":"recycling","operator":"Bayerisches Rotes Kreuz","recycling:clothes":"yes","recycling:shoes":"yes","recycling_type":"container"}},"type":"Feature"},
	{"geometry":{"coordinates":[11.187772,49.193021],"type":"Point"},"properties":{"osm_id":"1654142153","tag":{"amenity":"recycling","operator":"Bayerisches Rotes Kreuz","recycling:clothes":"yes","recycling:glass":"no","recycling:paper":"no","recycling:shoes":"yes"}},"type":"Feature"},
	{"geometry":{"coordinates":[11.185691,49.182314],"type":"Point"},"properties":{"osm_id":"1705109618","tag":{"amenity":"recycling","description":"drei Altkleider-Container","recycling:batteries":"no","recycling:cans":"no","recycling:clothes":"yes","recycling:glass":"no","recycling:paper":"no","recycling:scrap_metal":"no","recycling_type":"container"}},"type":"Feature"},
	{"geometry":{"coordinates":[11.188334,49.187076],"type":"Point"},"properties":{"osm_id":"1705109671","tag":{"amenity":"waste_basket"}},"type":"Feature"},
	{"geometry":{"coordinates":[11.172473,49.182103],"type":"Point"},"properties":{"osm_id":"1741373710","tag":{"amenity":"recycling","recycling:batteries":"no","recycling:cans":"no","recycling:clothes":"yes","recycling:glass":"no","recycling:paper":"no","recycling:scrap_metal":"no","recycling_type":"container"}},"type":"Feature"},
	{"geometry":{"coordinates":[11.186569,49.189414],"type":"Point"},"properties":{"osm_id":"1758173090","tag":{"amenity":"waste_basket"}},"type":"Feature"},
	{"geometry":{"coordinates":[11.188653,49.193042],"type":"Point"},"properties":{"osm_id":"1758173096","tag":{"amenity":"waste_basket"}},"type":"Feature"},
	{"geometry":{"coordinates":[11.187791,49.186438],"type":"Point"},"properties":{"osm_id":"1931823067","tag":{"amenity":"recycling","last_checked":"2017-06","recycling:batteries":"no","recycling:cans":"no","recycling:clothes":"yes","recycling:glass":"no","recycling:paper":"no","recycling:scrap_metal":"no","recycling_type":"container"}},"type":"Feature"},
	{"geometry":{"coordinates":[11.179365,49.191541],"type":"Point"},"properties":{"osm_id":"1931823093","tag":{"amenity":"waste_basket"}},"type":"Feature"},
	{"geometry":{"coordinates":[11.187864,49.208939],"type":"Point"},"properties":{"osm_id":"2008351610","tag":{"amenity":"waste_disposal","waste":"grey_water"}},"type":"Feature"},
	{"geometry":{"coordinates":[11.185012,49.194764],"type":"Point"},"properties":{"osm_id":"2035491854","tag":{"amenity":"waste_basket"}},"type":"Feature"},
	{"geometry":{"coordinates":[11.184969,49.195199],"type":"Point"},"properties":{"osm_id":"2035491857","tag":{"amenity":"waste_basket"}},"type":"Feature"},
	{"geometry":{"coordinates":[11.182013,49.196166],"type":"Point"},"properties":{"osm_id":"2035491873","tag":{"amenity":"waste_basket"}},"type":"Feature"},
	{"geometry":{"coordinates":[11.182089,49.196524],"type":"Point"},"properties":{"osm_id":"2035491874","tag":{"amenity":"waste_basket"}},"type":"Feature"},
	{"geometry":{"coordinates":[11.188581,49.196883],"type":"Point"},"properties":{"osm_id":"2035491875","tag":{"amenity":"recycling","recycling:clothes":"yes","recycling_type":"container"}},"type":"Feature"},
	{"geometry":{"coordinates":[11.189309,49.186265],"type":"Point"},"properties":{"osm_id":"2035879469","tag":{"amenity":"waste_basket"}},"type":"Feature"},
	{"geometry":{"coordinates":[11.18827,49.186415],"type":"Point"},"properties":{"osm_id":"2035879471","tag":{"amenity":"waste_basket"}},"type":"Feature"},
	{"geometry":{"coordinates":[11.187457,49.187182],"type":"Point"},"properties":{"osm_id":"2035879472","tag":{"amenity":"recycling","recycling:clothes":"yes","recycling:shoes":"yes","recycling_type":"container"}},"type":"Feature"},
	{"geometry":{"coordinates":[11.189348,49.191859],"type":"Point"},"properties":{"osm_id":"2035879473","tag":{"amenity":"waste_basket"}},"type":"Feature"},
	{"geometry":{"coordinates":[11.189307,49.191983],"type":"Point"},"properties":{"osm_id":"2035879474","tag":{"amenity":"waste_basket"}},"type":"Feature"},
	{"geometry":{"coordinates":[11.189582,49.192137],"type":"Point"},"properties":{"osm_id":"2035879475","tag":{"amenity":"waste_basket"}},"type":"Feature"},
	{"geometry":{"coordinates":[11.191357,49.19346],"type":"Point"},"properties":{"osm_id":"2035879483","tag":{"amenity":"waste_basket"}},"type":"Feature"},
	{"geometry":{"coordinates":[11.187575,49.185428],"type":"Point"},"properties":{"osm_id":"2119602320","tag":{"amenity":"waste_basket"}},"type":"Feature"},
	{"geometry":{"coordinates":[11.187228,49.185603],"type":"Point"},"properties":{"osm_id":"2119602321","tag":{"amenity":"waste_basket"}},"type":"Feature"},
	{"geometry":{"coordinates":[11.187583,49.19688],"type":"Point"},"properties":{"osm_id":"2190843433","tag":{"amenity":"recycling","recycling:batteries":"no","recycling:cans":"no","recycling:clothes":"yes","recycling:glass":"no","recycling:paper":"no","recycling:scrap_metal":"no","recycling:shoes":"yes","recycling_type":"container"}},"type":"Feature"},
	{"geometry":{"coordinates":[11.208887,49.185075],"type":"Point"},"properties":{"osm_id":"2273556536","tag":{"amenity":"waste_basket"}},"type":"Feature"},
	{"geometry":{"coordinates":[11.206455,49.185637],"type":"Point"},"properties":{"osm_id":"2273556566","tag":{"amenity":"waste_basket"}},"type":"Feature"},
	{"geometry":{"coordinates":[11.200566,49.186317],"type":"Point"},"properties":{"osm_id":"2273556574","tag":{"amenity":"waste_basket"}},"type":"Feature"},
	{"geometry":{"coordinates":[11.192351,49.187815],"type":"Point"},"properties":{"osm_id":"2328038342","tag":{"amenity":"waste_basket"}},"type":"Feature"},
	{"geometry":{"coordinates":[11.195984,49.190842],"type":"Point"},"properties":{"osm_id":"2356893929","tag":{"amenity":"waste_basket"}},"type":"Feature"},
	{"geometry":{"coordinates":[11.19606,49.19208],"type":"Point"},"properties":{"osm_id":"2356893957","tag":{"amenity":"waste_basket"}},"type":"Feature"},
	{"geometry":{"coordinates":[11.195929,49.192121],"type":"Point"},"properties":{"osm_id":"2356893965","tag":{"amenity":"waste_basket"}},"type":"Feature"},
	{"geometry":{"coordinates":[11.195943,49.192391],"type":"Point"},"properties":{"osm_id":"2356894013","tag":{"amenity":"waste_basket"}},"type":"Feature"},
	{"geometry":{"coordinates":[11.194739,49.186235],"type":"Point"},"properties":{"osm_id":"2360678709","tag":{"amenity":"waste_basket"}},"type":"Feature"},
	{"geometry":{"coordinates":[11.198494,49.189075],"type":"Point"},"properties":{"osm_id":"2360678751","tag":{"amenity":"waste_basket"}},"type":"Feature"},
	{"geometry":{"coordinates":[11.195035,49.189088],"type":"Point"},"properties":{"osm_id":"2360678753","tag":{"amenity":"waste_basket"}},"type":"Feature"},
	{"geometry":{"coordinates":[11.197255,49.188795],"type":"Point"},"properties":{"osm_id":"2365357850","tag":{"amenity":"waste_basket"}},"type":"Feature"},
	{"geometry":{"coordinates":[11.198042,49.188832],"type":"Point"},"properties":{"osm_id":"2365357852","tag":{"amenity":"waste_basket"}},"type":"Feature"},
	{"geometry":{"coordinates":[11.197649,49.188968],"type":"Point"},"properties":{"osm_id":"2365357854","tag":{"amenity":"waste_basket"}},"type":"Feature"},
	{"geometry":{"coordinates":[11.19572,49.189027],"type":"Point"},"properties":{"osm_id":"2365357855","tag":{"amenity":"waste_basket"}},"type":"Feature"},
	{"geometry":{"coordinates":[11.193519,49.191315],"type":"Point"},"properties":{"osm_id":"2365357882","tag":{"amenity":"waste_basket"}},"type":"Feature"},
	{"geometry":{"coordinates":[11.164506,49.178897],"type":"Point"},"properties":{"osm_id":"2457315659","tag":{"amenity":"waste_basket"}},"type":"Feature"},
	{"geometry":{"coordinates":[11.165664,49.180429],"type":"Point"},"properties":{"osm_id":"2457315692","tag":{"amenity":"waste_basket"}},"type":"Feature"},
	{"geometry":{"coordinates":[11.196939,49.19549],"type":"Point"},"properties":{"osm_id":"2517225147","tag":{"amenity":"recycling","recycling:batteries":"no","recycling:cans":"no","recycling:clothes":"yes","recycling:glass":"no","recycling:paper":"no","recycling:scrap_metal":"no","recycling_type":"container"}},"type":"Feature"},
	{"geometry":{"coordinates":[11.187601,49.182813],"type":"Point"},"properties":{"osm_id":"2761160684","tag":{"amenity":"recycling","recycling:clothes":"yes","recycling_type":"container"}},"type":"Feature"},
	{"geometry":{"coordinates":[11.196517,49.17708],"type":"Point"},"properties":{"osm_id":"2897904220","tag":{"amenity":"recycling","recycling:glass":"yes","recycling:scrap_metal":"yes","recycling_type":"container"}},"type":"Feature"},
	{"geometry":{"coordinates":[11.187893,49.188279],"type":"Point"},"properties":{"osm_id":"2948415081","tag":{"amenity":"waste_basket"}},"type":"Feature"},
	{"geometry":{"coordinates":[11.190158,49.189505],"type":"Point"},"properties":{"osm_id":"2948415094","tag":{"amenity":"waste_basket"}},"type":"Feature"},
	{"geometry":{"coordinates":[11.185853,49.183739],"type":"Point"},"properties":{"osm_id":"3497660228","tag":{"amenity":"recycling","recycling:clothes":"yes","recycling_type":"container"}},"type":"Feature"},
	{"geometry":{"coordinates":[11.193294,49.192018],"type":"Point"},"properties":{"osm_id":"4268777539","tag":{"amenity":"waste_basket"}},"type":"Feature"},
	{"geometry":{"coordinates":[11.188439,49.192632],"type":"Point"},"properties":{"osm_id":"4944798234","tag":{"amenity":"recycling","description":"Grube f\u00c3\u00bcr Gr\u00c3\u00bcnabf\u00c3\u00a4lle"}},"type":"Feature"},
	{"geometry":{"coordinates":[11.187527,49.18651],"type":"Point"},"properties":{"osm_id":"4944821321","tag":{"amenity":"recycling","description":"Altkleider- und Schuh-Container","recycling_type":"container"}},"type":"Feature"},
	{"geometry":{"coordinates":[11.184273,49.182242],"type":"Point"},"properties":{"osm_id":"6173387046","tag":{"amenity":"recycling","description":"Recyclingautomat f\u00c3\u00bcr Altspeisefett","start_date":"2018"}},"type":"Feature"},
	{"geometry":{"coordinates":[11.189286,49.190687],"type":"Point"},"properties":{"osm_id":"6173387721","tag":{"amenity":"waste_basket"}},"type":"Feature"},
	{"geometry":{"coordinates":[11.175384,49.188031],"type":"Point"},"properties":{"osm_id":"6173387967","tag":{"amenity":"waste_basket"}},"type":"Feature"},
	{"geometry":{"coordinates":[11.188026,49.196157],"type":"Point"},"properties":{"osm_id":"6345772488","tag":{"amenity":"recycling","description":"Recyclingautomat f\u00c3\u00bcr Altspeisefett","recycling":"container"}},"type":"Feature"},
	{"geometry":{"coordinates":[11.188443,49.18666],"type":"Point"},"properties":{"osm_id":"6513985591","tag":{"amenity":"waste_basket"}},"type":"Feature"},
	{"geometry":{"coordinates":[11.186655,49.204554],"type":"Point"},"properties":{"osm_id":"6726914133","tag":{"access":"customers","amenity":"waste_disposal","operator":"Stadt Hilpolstein"}},"type":"Feature"},
	{"geometry":{"coordinates":[11.193294,49.191381],"type":"Point"},"properties":{"osm_id":"6841883689","tag":{"amenity":"waste_basket"}},"type":"Feature"},
	{"geometry":{"coordinates":[11.180877,49.188566],"type":"Point"},"properties":{"osm_id":"7071620418","tag":{"amenity":"recycling","description":"Altkleidercontainer","operator":"Kolping","recycling:clothes":"yes","recycling_type":"container"}},"type":"Feature"},
	{"geometry":{"coordinates":[11.199537,49.192969],"type":"Point"},"properties":{"osm_id":"7846528183","tag":{"amenity":"recycling","description":"Container f\u00c3\u00bcr Gr\u00c3\u00bcnabf\u00c3\u00a4lle","recycling:green_waste":"yes","recycling_type":"container"}},"type":"Feature"}
]
}
