{
"type": "FeatureCollection",
"features": [
	{"geometry":{"coordinates":[11.184647,48.490642],"type":"Point"},"properties":{"osm_id":"736622419","tag":{"amenity":"recycling","recycling:glass":"yes","recycling_type":"container"}},"type":"Feature"},
	{"geometry":{"coordinates":[11.168475,48.472719],"type":"Point"},"properties":{"osm_id":"876326854","tag":{"amenity":"waste_basket"}},"type":"Feature"},
	{"geometry":{"coordinates":[11.215039,48.475591],"type":"Point"},"properties":{"osm_id":"4427992447","tag":{"amenity":"recycling","operator":"Remondis","recycling:brown_glass":"yes","recycling:cans":"yes","recycling:glass_bottles":"yes","recycling:green_glass":"yes","recycling:white_glass":"yes","recycling_type":"container"}},"type":"Feature"},
	{"geometry":{"coordinates":[11.180093,48.494026],"type":"Point"},"properties":{"osm_id":"4748433815","tag":{"amenity":"recycling","recycling:clothes":"yes","recycling:glass_bottles":"yes","recycling_type":"container"}},"type":"Feature"},
	{"geometry":{"coordinates":[11.176943,48.487112],"type":"Point"},"properties":{"osm_id":"8554681935","tag":{"amenity":"recycling","recycling:clothes":"yes","recycling_type":"container"}},"type":"Feature"}
]
}
