{
"type": "FeatureCollection",
"features": [
	{"geometry":{"coordinates":[11.184038,48.07771],"type":"Point"},"properties":{"osm_id":"904439917","tag":{"amenity":"recycling","recycling:clothes":"yes","recycling:glass":"yes"}},"type":"Feature"},
	{"geometry":{"coordinates":[11.201222,48.0689],"type":"Point"},"properties":{"osm_id":"966208009","tag":{"amenity":"recycling","recycling:clothes":"yes","recycling_type":"container"}},"type":"Feature"},
	{"geometry":{"coordinates":[11.241994,48.068409],"type":"Point"},"properties":{"osm_id":"983033791","tag":{"amenity":"recycling","recycling:glass":"yes"}},"type":"Feature"},
	{"geometry":{"coordinates":[11.17724,48.084111],"type":"Point"},"properties":{"osm_id":"1112172203","tag":{"amenity":"recycling","recycling:cans":"yes","recycling:glass":"yes"}},"type":"Feature"},
	{"geometry":{"coordinates":[11.249116,48.076992],"type":"Point"},"properties":{"osm_id":"1269213251","tag":{"amenity":"recycling","recycling:cans":"no","recycling:clothes":"yes","recycling:glass":"yes","recycling_type":"container"}},"type":"Feature"},
	{"geometry":{"coordinates":[11.196043,48.085094],"type":"Point"},"properties":{"barrier":"gate","osm_id":"1547065233"},"type":"Feature"},
	{"geometry":{"coordinates":[11.206124,48.071923],"type":"Point"},"properties":{"osm_id":"3006931583","tag":{"amenity":"recycling","recycling:clothes":"yes","recycling:glass_bottles":"yes","recycling_type":"container"}},"type":"Feature"},
	{"geometry":{"coordinates":[11.201623,48.072374],"type":"Point"},"properties":{"osm_id":"3165710194","tag":{"amenity":"recycling","recycling:clothes":"yes","recycling_type":"container"}},"type":"Feature"},
	{"geometry":{"coordinates":[11.248072,48.070919],"type":"Point"},"properties":{"osm_id":"4410573467","tag":{"amenity":"waste_basket","check_date":"2021-05-03","waste_basket:excrement_bags":"yes"}},"type":"Feature"},
	{"geometry":{"coordinates":[11.187695,48.076567],"type":"Point"},"properties":{"osm_id":"4774387724","tag":{"amenity":"waste_basket","description":"Hundet\u00c3\u00bctenspender mit Abfalleimer","vending":"excrement_bags","waste":"dog_excrement"}},"type":"Feature"},
	{"geometry":{"coordinates":[11.199823,48.082327],"type":"Point"},"properties":{"osm_id":"4897087635","tag":{"amenity":"recycling","recycling:cans":"yes","recycling:glass_bottles":"yes","recycling:paper":"yes","recycling_type":"container"}},"type":"Feature"},
	{"geometry":{"coordinates":[11.188967,48.075483],"type":"Point"},"properties":{"osm_id":"5489765074","tag":{"amenity":"waste_basket","description":"Hundet\u00c3\u00bctenspender mit Abfalleimer","vending":"excrement_bags","waste":"dog_excrement"}},"type":"Feature"},
	{"geometry":{"coordinates":[11.194549,48.078594],"type":"Point"},"properties":{"osm_id":"5489765075","tag":{"amenity":"waste_basket","description":"Hundet\u00c3\u00bctenspender mit Abfalleimer","vending":"excrement_bags","waste":"dog_excrement"}},"type":"Feature"},
	{"geometry":{"coordinates":[11.196601,48.084122],"type":"Point"},"properties":{"osm_id":"5489765076","tag":{"amenity":"waste_basket","description":"Hundet\u00c3\u00bctenspender mit Abfalleimer","vending":"excrement_bags","waste":"dog_excrement"}},"type":"Feature"},
	{"geometry":{"coordinates":[11.16429,48.074131],"type":"Point"},"properties":{"osm_id":"7986233737","tag":{"amenity":"waste_basket"}},"type":"Feature"},
	{"geometry":{"coordinates":[11.207469,48.061759],"type":"Point"},"properties":{"osm_id":"8721816517","tag":{"amenity":"waste_basket"}},"type":"Feature"},
	{"geometry":{"coordinates":[11.245829,48.077421],"type":"Point"},"properties":{"osm_id":"8732208413","tag":{"access":"private","amenity":"waste_disposal","operator":"Siedlung Katzenstein e.V."}},"type":"Feature"},
	{"geometry":{"coordinates":[11.246496,48.077415],"type":"Point"},"properties":{"osm_id":"8732286842","tag":{"amenity":"waste_basket","material":"steel","operator":"Siedlung Katzenstein e.V.","waste":"trash"}},"type":"Feature"},
	{"geometry":{"coordinates":[11.246493,48.077356],"type":"Point"},"properties":{"osm_id":"8732286843","tag":{"amenity":"waste_basket","material":"steel","operator":"Siedlung Katzenstein e.V.","waste":"trash"}},"type":"Feature"},
	{"geometry":{"coordinates":[11.207745,48.073195],"type":"Point"},"properties":{"osm_id":"8733706718","tag":{"amenity":"waste_basket"}},"type":"Feature"},
	{"geometry":{"coordinates":[11.220323,48.059564],"type":"Point"},"properties":{"osm_id":"8789590017","tag":{"amenity":"waste_basket"}},"type":"Feature"},
	{"geometry":{"coordinates":[11.20018,48.066737],"type":"Point"},"properties":{"osm_id":"8818648217","tag":{"amenity":"waste_basket"}},"type":"Feature"},
	{"geometry":{"coordinates":[11.200198,48.066741],"type":"Point"},"properties":{"osm_id":"8818648317","tag":{"amenity":"waste_basket"}},"type":"Feature"},
	{"geometry":{"coordinates":[11.200163,48.066733],"type":"Point"},"properties":{"osm_id":"8818648318","tag":{"amenity":"waste_basket"}},"type":"Feature"}
]
}
