{
"type": "FeatureCollection",
"features": [
	{"geometry":{"coordinates":[11.243976,47.273389],"type":"Point"},"properties":{"osm_id":"310409633","tag":{"amenity":"recycling","recycling:glass":"yes"}},"type":"Feature"},
	{"geometry":{"coordinates":[11.237405,47.274197],"type":"Point"},"properties":{"osm_id":"322153176","tag":{"amenity":"recycling","recycling:cans":"yes","recycling:scrap_metal":"yes"}},"type":"Feature"},
	{"geometry":{"coordinates":[11.235316,47.274963],"type":"Point"},"properties":{"osm_id":"322153181","tag":{"amenity":"recycling","recycling:cans":"yes","recycling:scrap_metal":"yes"}},"type":"Feature"},
	{"geometry":{"coordinates":[11.211561,47.268337],"type":"Point"},"properties":{"name":"Recyclinghof Inzing","osm_id":"1337342926","tag":{"amenity":"recycling","recycling_type":"centre"}},"type":"Feature"},
	{"geometry":{"coordinates":[11.235365,47.278461],"type":"Point"},"properties":{"osm_id":"1933889003","tag":{"amenity":"waste_basket"}},"type":"Feature"},
	{"geometry":{"coordinates":[11.23655,47.278574],"type":"Point"},"properties":{"osm_id":"1933889010","tag":{"amenity":"waste_basket"}},"type":"Feature"},
	{"geometry":{"coordinates":[11.245559,47.27554],"type":"Point"},"properties":{"osm_id":"4338748610","tag":{"amenity":"waste_basket"}},"type":"Feature"},
	{"geometry":{"coordinates":[11.234603,47.268082],"type":"Point"},"properties":{"osm_id":"4642767814","tag":{"amenity":"waste_basket"}},"type":"Feature"},
	{"geometry":{"coordinates":[11.231405,47.271888],"type":"Point"},"properties":{"osm_id":"4642767816","tag":{"amenity":"waste_basket"}},"type":"Feature"},
	{"geometry":{"coordinates":[11.229488,47.272894],"type":"Point"},"properties":{"osm_id":"4642767819","tag":{"amenity":"waste_basket"}},"type":"Feature"},
	{"geometry":{"coordinates":[11.225798,47.274403],"type":"Point"},"properties":{"osm_id":"4642767820","tag":{"amenity":"waste_basket"}},"type":"Feature"},
	{"geometry":{"coordinates":[11.221514,47.275197],"type":"Point"},"properties":{"osm_id":"4642767823","tag":{"amenity":"waste_basket"}},"type":"Feature"},
	{"geometry":{"coordinates":[11.241592,47.270883],"type":"Point"},"properties":{"osm_id":"5044985830","tag":{"amenity":"waste_basket"}},"type":"Feature"},
	{"geometry":{"coordinates":[11.241566,47.274023],"type":"Point"},"properties":{"osm_id":"5044985845","tag":{"amenity":"waste_basket"}},"type":"Feature"},
	{"geometry":{"coordinates":[11.242282,47.27274],"type":"Point"},"properties":{"osm_id":"5044985846","tag":{"amenity":"waste_basket"}},"type":"Feature"},
	{"geometry":{"coordinates":[11.242136,47.271908],"type":"Point"},"properties":{"osm_id":"5044985850","tag":{"amenity":"waste_basket"}},"type":"Feature"},
	{"geometry":{"coordinates":[11.243999,47.276186],"type":"Point"},"properties":{"osm_id":"5045015301","tag":{"amenity":"recycling","recycling:glass":"yes","recycling:scrap_metal":"yes","recycling_type":"container"}},"type":"Feature"},
	{"geometry":{"coordinates":[11.241258,47.273792],"type":"Point"},"properties":{"highway":"crossing","osm_id":"5045021517","tag":{"amenity":"waste_basket","crossing":"uncontrolled"}},"type":"Feature"},
	{"geometry":{"coordinates":[11.230952,47.273537],"type":"Point"},"properties":{"osm_id":"5534743110","tag":{"amenity":"waste_basket"}},"type":"Feature"},
	{"geometry":{"coordinates":[11.233394,47.227329],"type":"Point"},"properties":{"osm_id":"5615839652","tag":{"amenity":"waste_basket"}},"type":"Feature"},
	{"geometry":{"coordinates":[11.241238,47.235049],"type":"Point"},"properties":{"osm_id":"5615839771","tag":{"amenity":"waste_basket"}},"type":"Feature"},
	{"geometry":{"coordinates":[11.205348,47.267041],"type":"Point"},"properties":{"osm_id":"5615839857","tag":{"amenity":"waste_basket"}},"type":"Feature"},
	{"geometry":{"coordinates":[11.218151,47.23747],"type":"Point"},"properties":{"osm_id":"5864950887","tag":{"amenity":"waste_basket"}},"type":"Feature"},
	{"geometry":{"coordinates":[11.21927,47.237509],"type":"Point"},"properties":{"osm_id":"5865059685","tag":{"amenity":"waste_basket"}},"type":"Feature"},
	{"geometry":{"coordinates":[11.204411,47.272834],"type":"Point"},"properties":{"osm_id":"6615670086","tag":{"amenity":"waste_disposal"}},"type":"Feature"}
]
}
