{
"type": "FeatureCollection",
"features": [
	{"geometry":{"coordinates":[11.200075,47.097669],"type":"Point"},"properties":{"name":"Schranke","osm_id":"9091855475","tag":{"amenity":"waste_basket"}},"type":"Feature"},
	{"geometry":{"coordinates":[11.167601,47.08758],"type":"Point"},"properties":{"name":"Wasserspeicher","osm_id":"9091886388","tag":{"amenity":"waste_basket"}},"type":"Feature"},
	{"geometry":{"coordinates":[11.207152,47.099935],"type":"Point"},"properties":{"name":"Schranke","osm_id":"9091977871","tag":{"amenity":"waste_basket"}},"type":"Feature"},
	{"geometry":{"coordinates":[11.202544,47.099168],"type":"Point"},"properties":{"name":"Weiderost","osm_id":"9091982676","tag":{"amenity":"waste_basket"}},"type":"Feature"},
	{"geometry":{"coordinates":[11.185746,47.09418],"type":"Point"},"properties":{"name":"Stufen","osm_id":"9092079748","tag":{"amenity":"waste_basket"}},"type":"Feature"},
	{"geometry":{"coordinates":[11.166677,47.086523],"type":"Point"},"properties":{"name":"Ausstieg","osm_id":"9092282895","tag":{"amenity":"waste_basket"}},"type":"Feature"},
	{"geometry":{"coordinates":[11.166705,47.086115],"type":"Point"},"properties":{"name":"Einstieg","osm_id":"9092297403","tag":{"amenity":"waste_basket"}},"type":"Feature"}
]
}
