{
"type": "FeatureCollection",
"features": [
	{"geometry":{"coordinates":[11.220244,46.701115],"type":"Point"},"properties":{"osm_id":"1365322668","tag":{"amenity":"waste_basket"}},"type":"Feature"},
	{"geometry":{"coordinates":[11.20229,46.727305],"type":"Point"},"properties":{"name":"Minirecyclinghof Saltaus","osm_id":"2371509830","tag":{"amenity":"recycling","opening_hours":"Sa 08:30-09:30","recycling:cans":"yes","recycling:cartons":"yes","recycling:glass":"yes","recycling:paper":"yes","recycling:plastic":"yes","recycling_type":"centre"}},"type":"Feature"},
	{"geometry":{"coordinates":[11.19482,46.696908],"type":"Point"},"properties":{"osm_id":"3502162860","tag":{"amenity":"recycling","recycling_type":"centre"}},"type":"Feature"},
	{"geometry":{"coordinates":[11.187705,46.689296],"type":"Point"},"properties":{"osm_id":"3502452721","tag":{"amenity":"waste_basket"}},"type":"Feature"},
	{"geometry":{"coordinates":[11.200737,46.728486],"type":"Point"},"properties":{"osm_id":"4881679167","tag":{"amenity":"waste_basket","source:date":"2017-05-13","waste":"dog_excrement"}},"type":"Feature"},
	{"geometry":{"coordinates":[11.187139,46.689819],"type":"Point"},"properties":{"osm_id":"5004623187","tag":{"amenity":"waste_basket"}},"type":"Feature"},
	{"geometry":{"coordinates":[11.198635,46.683231],"type":"Point"},"properties":{"osm_id":"5063319941","tag":{"amenity":"waste_basket"}},"type":"Feature"},
	{"geometry":{"coordinates":[11.195549,46.694474],"type":"Point"},"properties":{"osm_id":"5855856597","tag":{"amenity":"waste_basket","waste":"dog_excrement"}},"type":"Feature"},
	{"geometry":{"coordinates":[11.227389,46.734255],"type":"Point"},"properties":{"osm_id":"8907286319","tag":{"amenity":"waste_basket","waste":"dog_excrement"}},"type":"Feature"},
	{"geometry":{"coordinates":[11.200295,46.728133],"type":"Point"},"properties":{"osm_id":"8907332035","tag":{"amenity":"waste_basket","waste":"dog_excrement"}},"type":"Feature"}
]
}
