{
"type": "FeatureCollection",
"features": [
	{"geometry":{"coordinates":[11.183581,46.555627],"type":"Point"},"properties":{"name":"Kl\u00c3\u00a4rwerk - Impianto di trattamento delle acque reflue","osm_id":"532331939","tag":{"amenity":"recycling","name:de":"Kl\u00c3\u00a4rwerk","name:it":"Impianto di trattamento delle acque reflue"}},"type":"Feature"},
	{"geometry":{"coordinates":[11.249312,46.518313],"type":"Point"},"properties":{"osm_id":"6796653618","tag":{"amenity":"waste_basket"}},"type":"Feature"},
	{"geometry":{"coordinates":[11.245433,46.523437],"type":"Point"},"properties":{"osm_id":"6796653648","tag":{"amenity":"waste_basket"}},"type":"Feature"},
	{"geometry":{"coordinates":[11.242136,46.52902],"type":"Point"},"properties":{"osm_id":"6796653653","tag":{"amenity":"waste_basket"}},"type":"Feature"},
	{"geometry":{"coordinates":[11.228925,46.542797],"type":"Point"},"properties":{"osm_id":"7279028371","tag":{"amenity":"waste_basket"}},"type":"Feature"},
	{"geometry":{"coordinates":[11.220617,46.551902],"type":"Point"},"properties":{"osm_id":"7279028378","tag":{"amenity":"waste_basket"}},"type":"Feature"},
	{"geometry":{"coordinates":[11.226672,46.543627],"type":"Point"},"properties":{"osm_id":"7279028379","tag":{"amenity":"waste_basket"}},"type":"Feature"},
	{"geometry":{"coordinates":[11.234492,46.538889],"type":"Point"},"properties":{"osm_id":"7279028380","tag":{"amenity":"waste_basket"}},"type":"Feature"},
	{"geometry":{"coordinates":[11.23332,46.518834],"type":"Point"},"properties":{"osm_id":"7722318798","tag":{"amenity":"waste_basket"}},"type":"Feature"},
	{"geometry":{"coordinates":[11.240409,46.521126],"type":"Point"},"properties":{"osm_id":"7722318799","tag":{"amenity":"waste_basket"}},"type":"Feature"},
	{"geometry":{"coordinates":[11.233262,46.519748],"type":"Point"},"properties":{"osm_id":"7722318806","tag":{"amenity":"waste_basket"}},"type":"Feature"},
	{"geometry":{"coordinates":[11.233468,46.518901],"type":"Point"},"properties":{"osm_id":"7722318813","tag":{"amenity":"waste_basket"}},"type":"Feature"},
	{"geometry":{"coordinates":[11.2336,46.518574],"type":"Point"},"properties":{"osm_id":"7722318817","tag":{"amenity":"waste_basket"}},"type":"Feature"},
	{"geometry":{"coordinates":[11.231825,46.513404],"type":"Point"},"properties":{"osm_id":"7722318827","tag":{"amenity":"waste_basket"}},"type":"Feature"},
	{"geometry":{"coordinates":[11.233566,46.518771],"type":"Point"},"properties":{"osm_id":"7722318832","tag":{"amenity":"waste_basket"}},"type":"Feature"},
	{"geometry":{"coordinates":[11.232545,46.515826],"type":"Point"},"properties":{"osm_id":"7722318836","tag":{"amenity":"waste_basket"}},"type":"Feature"},
	{"geometry":{"coordinates":[11.233548,46.518741],"type":"Point"},"properties":{"osm_id":"7722318841","tag":{"amenity":"waste_basket"}},"type":"Feature"}
]
}
