{
"type": "FeatureCollection",
"features": [
	{"geometry":{"coordinates":[11.2214,46.141836],"type":"Point"},"properties":{"osm_id":"1789111513","tag":{"amenity":"waste_basket"}},"type":"Feature"},
	{"geometry":{"coordinates":[11.249638,46.172807],"type":"Point"},"properties":{"osm_id":"1792951434","tag":{"amenity":"recycling","recycling_type":"container"}},"type":"Feature"},
	{"geometry":{"coordinates":[11.188525,46.160084],"type":"Point"},"properties":{"osm_id":"1887564293","tag":{"amenity":"recycling","recycling_type":"container"}},"type":"Feature"},
	{"geometry":{"coordinates":[11.190012,46.160405],"type":"Point"},"properties":{"osm_id":"1887564322","tag":{"amenity":"recycling","recycling_type":"container"}},"type":"Feature"},
	{"geometry":{"coordinates":[11.233037,46.159273],"type":"Point"},"properties":{"osm_id":"2258915558","tag":{"amenity":"recycling","recycling_type":"container"}},"type":"Feature"},
	{"geometry":{"coordinates":[11.217814,46.173906],"type":"Point"},"properties":{"osm_id":"3743200786","tag":{"amenity":"recycling","recycling_type":"container"}},"type":"Feature"},
	{"geometry":{"coordinates":[11.225207,46.177612],"type":"Point"},"properties":{"osm_id":"3743200826","tag":{"amenity":"recycling","recycling_type":"container"}},"type":"Feature"},
	{"geometry":{"coordinates":[11.227131,46.178911],"type":"Point"},"properties":{"osm_id":"3743200876","tag":{"amenity":"recycling","recycling_type":"container"}},"type":"Feature"},
	{"geometry":{"coordinates":[11.188492,46.160095],"type":"Point"},"properties":{"osm_id":"8734253368","tag":{"amenity":"recycling","recycling:plastic":"yes","recycling_type":"container"}},"type":"Feature"},
	{"geometry":{"coordinates":[11.169737,46.18999],"type":"Point"},"properties":{"osm_id":"8781360763","tag":{"amenity":"waste_basket"}},"type":"Feature"},
	{"geometry":{"coordinates":[11.16674,46.175731],"type":"Point"},"properties":{"osm_id":"8781408490","tag":{"amenity":"waste_basket"}},"type":"Feature"},
	{"geometry":{"coordinates":[11.223792,46.173388],"type":"Point"},"properties":{"osm_id":"8904552559","tag":{"amenity":"recycling","recycling:glass":"yes","recycling:glass_bottles":"yes","recycling:organic":"yes","recycling:paper":"yes","recycling:plastic":"yes","recycling:plastic_bottles":"yes","recycling:waste":"yes","recycling_type":"container"}},"type":"Feature"}
]
}
