{
"type": "FeatureCollection",
"features": [
	{"geometry":{"coordinates":[11.184245,46.091615],"type":"Point"},"properties":{"osm_id":"269349992","tag":{"amenity":"recycling"}},"type":"Feature"},
	{"geometry":{"coordinates":[11.248491,46.119193],"type":"Point"},"properties":{"name":"C.R.M. AMNU - Centro Raccolta Materiali","osm_id":"269608638","tag":{"amenity":"recycling"}},"type":"Feature"},
	{"geometry":{"coordinates":[11.214844,46.085752],"type":"Point"},"properties":{"osm_id":"319980632","tag":{"amenity":"recycling","recycling_type":"container"}},"type":"Feature"},
	{"geometry":{"coordinates":[11.213271,46.085413],"type":"Point"},"properties":{"osm_id":"319980634","tag":{"amenity":"recycling","recycling_type":"container"}},"type":"Feature"},
	{"geometry":{"coordinates":[11.222281,46.084153],"type":"Point"},"properties":{"osm_id":"1660841865","tag":{"amenity":"recycling","recycling_type":"container"}},"type":"Feature"},
	{"geometry":{"coordinates":[11.218297,46.084161],"type":"Point"},"properties":{"osm_id":"1660841878","tag":{"amenity":"recycling","recycling_type":"container"}},"type":"Feature"},
	{"geometry":{"coordinates":[11.214021,46.085085],"type":"Point"},"properties":{"osm_id":"1660841909","tag":{"amenity":"waste_basket"}},"type":"Feature"},
	{"geometry":{"coordinates":[11.205316,46.114948],"type":"Point"},"properties":{"osm_id":"2308603499","tag":{"amenity":"recycling","recycling:cans":"yes","recycling:glass":"yes","recycling:paper":"yes","recycling_type":"container"}},"type":"Feature"},
	{"geometry":{"coordinates":[11.204129,46.116809],"type":"Point"},"properties":{"osm_id":"2308603534","tag":{"amenity":"recycling","recycling:cans":"yes","recycling:glass":"yes","recycling:paper":"yes","recycling_type":"container"}},"type":"Feature"},
	{"geometry":{"coordinates":[11.205792,46.119122],"type":"Point"},"properties":{"osm_id":"2308603576","tag":{"amenity":"recycling","recycling:cans":"yes","recycling:glass":"yes","recycling:paper":"yes","recycling_type":"container"}},"type":"Feature"},
	{"geometry":{"coordinates":[11.209058,46.120702],"type":"Point"},"properties":{"osm_id":"2308603651","tag":{"amenity":"recycling","recycling:cans":"yes","recycling:glass":"yes","recycling:paper":"yes","recycling_type":"container"}},"type":"Feature"},
	{"geometry":{"coordinates":[11.237073,46.098596],"type":"Point"},"properties":{"osm_id":"2363360744","tag":{"amenity":"recycling","recycling_type":"container"}},"type":"Feature"},
	{"geometry":{"coordinates":[11.170926,46.11098],"type":"Point"},"properties":{"osm_id":"2701524491","tag":{"amenity":"recycling"}},"type":"Feature"},
	{"geometry":{"coordinates":[11.180956,46.125723],"type":"Point"},"properties":{"osm_id":"3891619349","tag":{"amenity":"waste_basket","hiking":"yes"}},"type":"Feature"},
	{"geometry":{"coordinates":[11.18102,46.125737],"type":"Point"},"properties":{"osm_id":"3891619350","tag":{"amenity":"waste_basket","hiking":"yes","tourism":"picnic_site"}},"type":"Feature"},
	{"geometry":{"coordinates":[11.23456,46.10115],"type":"Point"},"properties":{"osm_id":"3937983902","tag":{"amenity":"recycling","recycling_type":"container"}},"type":"Feature"},
	{"geometry":{"coordinates":[11.236397,46.106815],"type":"Point"},"properties":{"osm_id":"3937985201","tag":{"amenity":"recycling","recycling_type":"container"}},"type":"Feature"},
	{"geometry":{"coordinates":[11.163122,46.073618],"type":"Point"},"properties":{"osm_id":"4215511752","tag":{"amenity":"waste_basket"}},"type":"Feature"},
	{"geometry":{"coordinates":[11.226541,46.101079],"type":"Point"},"properties":{"osm_id":"4384954397","tag":{"amenity":"waste_basket"}},"type":"Feature"},
	{"geometry":{"coordinates":[11.223065,46.100239],"type":"Point"},"properties":{"osm_id":"4384954970","tag":{"amenity":"waste_basket"}},"type":"Feature"},
	{"geometry":{"coordinates":[11.184354,46.088845],"type":"Point"},"properties":{"osm_id":"4832799946","tag":{"amenity":"recycling","recycling_type":"container"}},"type":"Feature"},
	{"geometry":{"coordinates":[11.182998,46.106706],"type":"Point"},"properties":{"osm_id":"5846460403","tag":{"amenity":"recycling","recycling_type":"container"}},"type":"Feature"},
	{"geometry":{"coordinates":[11.183992,46.107329],"type":"Point"},"properties":{"osm_id":"5846460404","tag":{"amenity":"recycling","recycling_type":"container"}},"type":"Feature"},
	{"geometry":{"coordinates":[11.183535,46.108138],"type":"Point"},"properties":{"osm_id":"5846460405","tag":{"amenity":"recycling","recycling_type":"container"}},"type":"Feature"},
	{"geometry":{"coordinates":[11.236515,46.098469],"type":"Point"},"properties":{"osm_id":"6072758884","tag":{"amenity":"waste_basket"}},"type":"Feature"},
	{"geometry":{"coordinates":[11.233942,46.092571],"type":"Point"},"properties":{"osm_id":"7526382526","tag":{"amenity":"waste_basket"}},"type":"Feature"},
	{"geometry":{"coordinates":[11.246087,46.132262],"type":"Point"},"properties":{"osm_id":"7775575374","tag":{"amenity":"recycling","opening_hours":"24/7","opening_hours:covid19":"same","recycling:glass":"yes","recycling:organic":"yes","recycling:paper":"yes","recycling:plastic":"yes","recycling:plastic_packaging":"yes","recycling:waste":"yes","recycling_type":"container"}},"type":"Feature"}
]
}
