{
"type": "FeatureCollection",
"features": [
	{"geometry":{"coordinates":[11.231496,46.068013],"type":"Point"},"properties":{"osm_id":"268423109","tag":{"amenity":"recycling"}},"type":"Feature"},
	{"geometry":{"coordinates":[11.233829,46.068543],"type":"Point"},"properties":{"name":"AMNU","osm_id":"317916326","tag":{"amenity":"recycling"}},"type":"Feature"},
	{"geometry":{"coordinates":[11.234379,46.059558],"type":"Point"},"properties":{"osm_id":"417675340","tag":{"amenity":"recycling"}},"type":"Feature"},
	{"geometry":{"coordinates":[11.23373,46.057825],"type":"Point"},"properties":{"osm_id":"417675343","tag":{"amenity":"recycling","recycling_type":"container"}},"type":"Feature"},
	{"geometry":{"coordinates":[11.233698,46.047374],"type":"Point"},"properties":{"osm_id":"417675376","tag":{"addr:city":"Pergine Valsugana","addr:postcode":"38057","addr:street":"Via dell'Angi","amenity":"recycling","recycling:cans":"yes","recycling:clothes":"yes","recycling:glass":"yes","recycling:paper":"no","recycling_type":"container"}},"type":"Feature"},
	{"geometry":{"coordinates":[11.23227,46.044335],"type":"Point"},"properties":{"osm_id":"417675386","tag":{"amenity":"recycling","recycling:cans":"yes","recycling:clothes":"no","recycling:glass":"yes","recycling:paper":"yes","recycling:plastic":"yes","recycling_type":"container"}},"type":"Feature"},
	{"geometry":{"coordinates":[11.227472,46.028488],"type":"Point"},"properties":{"osm_id":"417675959","tag":{"amenity":"recycling","recycling:glass":"yes","recycling:plastic":"yes"}},"type":"Feature"},
	{"geometry":{"coordinates":[11.229086,46.066245],"type":"Point"},"properties":{"osm_id":"417680265","tag":{"amenity":"recycling"}},"type":"Feature"},
	{"geometry":{"coordinates":[11.220523,46.035123],"type":"Point"},"properties":{"osm_id":"417707398","tag":{"amenity":"recycling"}},"type":"Feature"},
	{"geometry":{"coordinates":[11.222613,46.049917],"type":"Point"},"properties":{"osm_id":"417707627","tag":{"amenity":"recycling","recycling_type":"container"}},"type":"Feature"},
	{"geometry":{"coordinates":[11.222888,46.050479],"type":"Point"},"properties":{"osm_id":"417707628","tag":{"amenity":"recycling","recycling_type":"container"}},"type":"Feature"},
	{"geometry":{"coordinates":[11.21429,46.05783],"type":"Point"},"properties":{"osm_id":"417707847","tag":{"amenity":"recycling","recycling:glass":"yes","recycling_type":"container"}},"type":"Feature"},
	{"geometry":{"coordinates":[11.222018,46.064334],"type":"Point"},"properties":{"osm_id":"417709114","tag":{"amenity":"recycling"}},"type":"Feature"},
	{"geometry":{"coordinates":[11.215539,46.058137],"type":"Point"},"properties":{"osm_id":"417969052","tag":{"amenity":"recycling","recycling_type":"container"}},"type":"Feature"},
	{"geometry":{"coordinates":[11.227864,46.064256],"type":"Point"},"properties":{"osm_id":"417969163","tag":{"amenity":"recycling","recycling_type":"container"}},"type":"Feature"},
	{"geometry":{"coordinates":[11.230142,46.064626],"type":"Point"},"properties":{"osm_id":"417969164","tag":{"amenity":"recycling"}},"type":"Feature"},
	{"geometry":{"coordinates":[11.228615,46.065788],"type":"Point"},"properties":{"osm_id":"417969166","tag":{"amenity":"recycling"}},"type":"Feature"},
	{"geometry":{"coordinates":[11.239026,46.060343],"type":"Point"},"properties":{"osm_id":"417969168","tag":{"amenity":"recycling"}},"type":"Feature"},
	{"geometry":{"coordinates":[11.162872,46.071686],"type":"Point"},"properties":{"osm_id":"678059806","tag":{"amenity":"recycling","recycling:cans":"yes","recycling:clothes":"yes","recycling:glass":"yes","recycling:paper":"yes","recycling:scrap_metal":"yes"}},"type":"Feature"},
	{"geometry":{"coordinates":[11.17673,46.071822],"type":"Point"},"properties":{"osm_id":"678084020","tag":{"amenity":"recycling","recycling:cans":"yes","recycling:clothes":"yes","recycling:glass":"yes","recycling:paper":"yes","recycling:scrap_metal":"yes"}},"type":"Feature"},
	{"geometry":{"coordinates":[11.24981,46.05192],"type":"Point"},"properties":{"osm_id":"1108435357","tag":{"amenity":"recycling","recycling:glass":"yes","recycling:paper":"yes","recycling_type":"container"}},"type":"Feature"},
	{"geometry":{"coordinates":[11.238846,46.072899],"type":"Point"},"properties":{"osm_id":"1511543832","tag":{"amenity":"recycling"}},"type":"Feature"},
	{"geometry":{"coordinates":[11.237257,46.07175],"type":"Point"},"properties":{"osm_id":"1511543835","tag":{"amenity":"recycling","recycling_type":"container"}},"type":"Feature"},
	{"geometry":{"coordinates":[11.209788,46.067384],"type":"Point"},"properties":{"osm_id":"1977210182","tag":{"amenity":"recycling","recycling_type":"container"}},"type":"Feature"},
	{"geometry":{"coordinates":[11.20744,46.069138],"type":"Point"},"properties":{"osm_id":"1977210583","tag":{"amenity":"recycling","recycling_type":"container"}},"type":"Feature"},
	{"geometry":{"coordinates":[11.241262,46.054082],"type":"Point"},"properties":{"osm_id":"2113093387","tag":{"amenity":"recycling","recycling:glass":"yes","recycling:paper":"yes","recycling_type":"container"}},"type":"Feature"},
	{"geometry":{"coordinates":[11.240025,46.055457],"type":"Point"},"properties":{"osm_id":"2113093567","tag":{"amenity":"recycling","recycling:glass":"yes","recycling:paper":"yes","recycling_type":"container"}},"type":"Feature"},
	{"geometry":{"coordinates":[11.223101,46.067332],"type":"Point"},"properties":{"osm_id":"2113094045","tag":{"amenity":"waste_basket"}},"type":"Feature"},
	{"geometry":{"coordinates":[11.222228,46.070047],"type":"Point"},"properties":{"osm_id":"2113094118","tag":{"amenity":"waste_basket"}},"type":"Feature"},
	{"geometry":{"coordinates":[11.172189,46.06545],"type":"Point"},"properties":{"osm_id":"2569653262","tag":{"amenity":"waste_basket"}},"type":"Feature"},
	{"geometry":{"coordinates":[11.228961,46.063405],"type":"Point"},"properties":{"osm_id":"2802284151","tag":{"amenity":"recycling","recycling_type":"container"}},"type":"Feature"},
	{"geometry":{"coordinates":[11.23191,46.063709],"type":"Point"},"properties":{"osm_id":"2802284168","tag":{"amenity":"recycling","recycling_type":"container"}},"type":"Feature"},
	{"geometry":{"coordinates":[11.236188,46.06551],"type":"Point"},"properties":{"osm_id":"2802284367","tag":{"amenity":"recycling","recycling_type":"container"}},"type":"Feature"},
	{"geometry":{"coordinates":[11.239874,46.068725],"type":"Point"},"properties":{"osm_id":"2802284638","tag":{"amenity":"recycling","recycling_type":"container"}},"type":"Feature"},
	{"geometry":{"coordinates":[11.245328,46.064723],"type":"Point"},"properties":{"osm_id":"2802428549","tag":{"amenity":"recycling","recycling_type":"container"}},"type":"Feature"},
	{"geometry":{"coordinates":[11.247735,46.065347],"type":"Point"},"properties":{"osm_id":"2802428590","tag":{"amenity":"recycling","recycling_type":"container"}},"type":"Feature"},
	{"geometry":{"coordinates":[11.24637,46.066063],"type":"Point"},"properties":{"osm_id":"2802428604","tag":{"amenity":"recycling","recycling_type":"container"}},"type":"Feature"},
	{"geometry":{"coordinates":[11.248135,46.06676],"type":"Point"},"properties":{"osm_id":"2802428636","tag":{"amenity":"recycling","recycling_type":"container"}},"type":"Feature"},
	{"geometry":{"coordinates":[11.234713,46.066791],"type":"Point"},"properties":{"osm_id":"2802428638","tag":{"amenity":"recycling","recycling_type":"container"}},"type":"Feature"},
	{"geometry":{"coordinates":[11.245467,46.067235],"type":"Point"},"properties":{"osm_id":"2802428670","tag":{"amenity":"recycling","recycling_type":"container"}},"type":"Feature"},
	{"geometry":{"coordinates":[11.248997,46.067769],"type":"Point"},"properties":{"osm_id":"2802428684","tag":{"amenity":"recycling","recycling_type":"container"}},"type":"Feature"},
	{"geometry":{"coordinates":[11.23255,46.06832],"type":"Point"},"properties":{"osm_id":"2802428720","tag":{"amenity":"recycling","recycling_type":"container"}},"type":"Feature"},
	{"geometry":{"coordinates":[11.236005,46.042246],"type":"Point"},"properties":{"osm_id":"2807133130","tag":{"amenity":"recycling","recycling_type":"container"}},"type":"Feature"},
	{"geometry":{"coordinates":[11.223351,46.070959],"type":"Point"},"properties":{"osm_id":"3850288482","tag":{"amenity":"recycling","recycling_type":"container"}},"type":"Feature"},
	{"geometry":{"coordinates":[11.244371,46.062201],"type":"Point"},"properties":{"osm_id":"3900001361","tag":{"amenity":"recycling","recycling_type":"container"}},"type":"Feature"},
	{"geometry":{"coordinates":[11.226467,46.052559],"type":"Point"},"properties":{"osm_id":"3900350789","tag":{"amenity":"recycling","recycling_type":"container"}},"type":"Feature"},
	{"geometry":{"coordinates":[11.247757,46.072886],"type":"Point"},"properties":{"osm_id":"3923713642","tag":{"amenity":"waste_disposal"}},"type":"Feature"},
	{"geometry":{"coordinates":[11.240128,46.063049],"type":"Point"},"properties":{"osm_id":"3950175819","tag":{"amenity":"waste_basket"}},"type":"Feature"},
	{"geometry":{"coordinates":[11.240622,46.06327],"type":"Point"},"properties":{"osm_id":"3950175822","tag":{"amenity":"waste_basket"}},"type":"Feature"},
	{"geometry":{"coordinates":[11.241146,46.063481],"type":"Point"},"properties":{"osm_id":"3950175826","tag":{"amenity":"waste_basket"}},"type":"Feature"},
	{"geometry":{"coordinates":[11.241508,46.063616],"type":"Point"},"properties":{"osm_id":"3950175829","tag":{"amenity":"waste_basket"}},"type":"Feature"},
	{"geometry":{"coordinates":[11.243011,46.062326],"type":"Point"},"properties":{"osm_id":"3950221145","tag":{"amenity":"waste_basket"}},"type":"Feature"},
	{"geometry":{"coordinates":[11.242996,46.062348],"type":"Point"},"properties":{"osm_id":"3950221146","tag":{"amenity":"recycling","recycling:drugs":"yes","recycling_type":"container"}},"type":"Feature"},
	{"geometry":{"coordinates":[11.242828,46.062757],"type":"Point"},"properties":{"osm_id":"3950221149","tag":{"amenity":"recycling","recycling:batteries":"yes","recycling_type":"container"}},"type":"Feature"},
	{"geometry":{"coordinates":[11.242747,46.062933],"type":"Point"},"properties":{"osm_id":"3950828677","tag":{"amenity":"waste_basket"}},"type":"Feature"},
	{"geometry":{"coordinates":[11.241448,46.063135],"type":"Point"},"properties":{"osm_id":"3950828678","tag":{"amenity":"waste_basket"}},"type":"Feature"},
	{"geometry":{"coordinates":[11.241339,46.060517],"type":"Point"},"properties":{"osm_id":"3951262752","tag":{"amenity":"waste_basket"}},"type":"Feature"},
	{"geometry":{"coordinates":[11.242964,46.061535],"type":"Point"},"properties":{"osm_id":"3951267365","tag":{"amenity":"waste_basket"}},"type":"Feature"},
	{"geometry":{"coordinates":[11.243168,46.061711],"type":"Point"},"properties":{"osm_id":"3951267366","tag":{"amenity":"waste_basket"}},"type":"Feature"},
	{"geometry":{"coordinates":[11.241536,46.060403],"type":"Point"},"properties":{"osm_id":"3951277754","tag":{"amenity":"waste_basket"}},"type":"Feature"},
	{"geometry":{"coordinates":[11.239911,46.060406],"type":"Point"},"properties":{"osm_id":"3952806178","tag":{"amenity":"waste_basket"}},"type":"Feature"},
	{"geometry":{"coordinates":[11.227028,46.017588],"type":"Point"},"properties":{"osm_id":"3959727946","tag":{"amenity":"recycling","recycling_type":"container"}},"type":"Feature"},
	{"geometry":{"coordinates":[11.228407,46.023189],"type":"Point"},"properties":{"osm_id":"3964480558","tag":{"amenity":"recycling","recycling_type":"container"}},"type":"Feature"},
	{"geometry":{"coordinates":[11.228655,46.025253],"type":"Point"},"properties":{"osm_id":"3964480564","tag":{"amenity":"recycling","recycling_type":"container"}},"type":"Feature"},
	{"geometry":{"coordinates":[11.162571,46.072845],"type":"Point"},"properties":{"osm_id":"3964903912","tag":{"amenity":"waste_basket"}},"type":"Feature"},
	{"geometry":{"coordinates":[11.162495,46.072806],"type":"Point"},"properties":{"osm_id":"3964903913","tag":{"amenity":"waste_basket"}},"type":"Feature"},
	{"geometry":{"coordinates":[11.227048,46.017534],"type":"Point"},"properties":{"osm_id":"3977877171","tag":{"amenity":"waste_basket"}},"type":"Feature"},
	{"geometry":{"coordinates":[11.230486,46.024404],"type":"Point"},"properties":{"osm_id":"4033490093","tag":{"amenity":"recycling","recycling_type":"container"}},"type":"Feature"},
	{"geometry":{"coordinates":[11.230248,46.027008],"type":"Point"},"properties":{"osm_id":"4033490112","tag":{"amenity":"recycling","recycling_type":"container"}},"type":"Feature"},
	{"geometry":{"coordinates":[11.234189,46.016141],"type":"Point"},"properties":{"osm_id":"4033612969","tag":{"amenity":"recycling","recycling_type":"container"}},"type":"Feature"},
	{"geometry":{"coordinates":[11.228916,46.04267],"type":"Point"},"properties":{"osm_id":"4039059827","tag":{"amenity":"recycling","recycling_type":"container"}},"type":"Feature"},
	{"geometry":{"coordinates":[11.234499,46.038473],"type":"Point"},"properties":{"osm_id":"4046069864","tag":{"amenity":"recycling","recycling_type":"container"}},"type":"Feature"},
	{"geometry":{"coordinates":[11.223047,46.050542],"type":"Point"},"properties":{"osm_id":"4216192835","tag":{"amenity":"waste_basket"}},"type":"Feature"},
	{"geometry":{"coordinates":[11.233097,46.065142],"type":"Point"},"properties":{"name":"Isola ecologica","osm_id":"4454970703","tag":{"addr:city":"Pergine Valsugana","addr:street":"Via Francesco Petrarca","amenity":"recycling"}},"type":"Feature"},
	{"geometry":{"coordinates":[11.249913,46.067642],"type":"Point"},"properties":{"osm_id":"4523360574","tag":{"amenity":"recycling","recycling_type":"container"}},"type":"Feature"},
	{"geometry":{"coordinates":[11.247675,46.072304],"type":"Point"},"properties":{"osm_id":"4524888841","tag":{"amenity":"waste_basket"}},"type":"Feature"},
	{"geometry":{"coordinates":[11.238924,46.058222],"type":"Point"},"properties":{"osm_id":"4527992723","tag":{"amenity":"recycling","recycling_type":"container"}},"type":"Feature"},
	{"geometry":{"coordinates":[11.237612,46.057252],"type":"Point"},"properties":{"osm_id":"4527992724","tag":{"amenity":"recycling","recycling_type":"container"}},"type":"Feature"},
	{"geometry":{"coordinates":[11.237663,46.057352],"type":"Point"},"properties":{"osm_id":"4527992725","tag":{"amenity":"waste_basket"}},"type":"Feature"},
	{"geometry":{"coordinates":[11.239721,46.059904],"type":"Point"},"properties":{"osm_id":"4527992727","tag":{"amenity":"recycling","recycling_type":"container"}},"type":"Feature"},
	{"geometry":{"coordinates":[11.247622,46.066581],"type":"Point"},"properties":{"osm_id":"4527994724","tag":{"amenity":"recycling","recycling_type":"container"}},"type":"Feature"},
	{"geometry":{"coordinates":[11.2389,46.056179],"type":"Point"},"properties":{"osm_id":"4528554598","tag":{"amenity":"waste_basket"}},"type":"Feature"},
	{"geometry":{"coordinates":[11.241928,46.061672],"type":"Point"},"properties":{"osm_id":"4533639686","tag":{"amenity":"waste_basket"}},"type":"Feature"},
	{"geometry":{"coordinates":[11.241861,46.061581],"type":"Point"},"properties":{"osm_id":"4533639687","tag":{"amenity":"waste_basket"}},"type":"Feature"},
	{"geometry":{"coordinates":[11.241185,46.061201],"type":"Point"},"properties":{"osm_id":"4533639688","tag":{"amenity":"waste_basket"}},"type":"Feature"},
	{"geometry":{"coordinates":[11.240452,46.060579],"type":"Point"},"properties":{"osm_id":"4533639994","tag":{"amenity":"waste_basket"}},"type":"Feature"},
	{"geometry":{"coordinates":[11.240881,46.060884],"type":"Point"},"properties":{"osm_id":"4535724633","tag":{"amenity":"waste_basket"}},"type":"Feature"}
]
}
