{
"type": "FeatureCollection",
"features": [
	{"geometry":{"coordinates":[11.204263,45.999883],"type":"Point"},"properties":{"barrier":"gate","osm_id":"1923448292"},"type":"Feature"},
	{"geometry":{"coordinates":[11.243636,46.006377],"type":"Point"},"properties":{"osm_id":"2329880426","tag":{"amenity":"recycling","recycling_type":"container"}},"type":"Feature"},
	{"geometry":{"coordinates":[11.243208,46.004004],"type":"Point"},"properties":{"osm_id":"2331890846","tag":{"amenity":"recycling","recycling_type":"container"}},"type":"Feature"},
	{"geometry":{"coordinates":[11.240229,46.007364],"type":"Point"},"properties":{"osm_id":"2331891215","tag":{"amenity":"recycling","recycling_type":"container"}},"type":"Feature"},
	{"geometry":{"coordinates":[11.248047,46.002275],"type":"Point"},"properties":{"osm_id":"2403582364","tag":{"amenity":"recycling","recycling_type":"container"}},"type":"Feature"},
	{"geometry":{"coordinates":[11.247575,46.002797],"type":"Point"},"properties":{"osm_id":"2403584087","tag":{"amenity":"recycling","recycling_type":"container"}},"type":"Feature"},
	{"geometry":{"coordinates":[11.230326,46.007162],"type":"Point"},"properties":{"osm_id":"3988625962","tag":{"amenity":"waste_basket"}},"type":"Feature"},
	{"geometry":{"coordinates":[11.225176,46.005103],"type":"Point"},"properties":{"osm_id":"4051134977","tag":{"amenity":"waste_basket"}},"type":"Feature"},
	{"geometry":{"coordinates":[11.204932,45.999467],"type":"Point"},"properties":{"barrier":"gate","osm_id":"7618631409"},"type":"Feature"},
	{"geometry":{"coordinates":[11.21612,45.992121],"type":"Point"},"properties":{"osm_id":"8666656364","tag":{"amenity":"recycling","recycling:green_waste":"yes","recycling_type":"container"}},"type":"Feature"},
	{"geometry":{"coordinates":[11.21838,45.991661],"type":"Point"},"properties":{"osm_id":"8666656365","tag":{"amenity":"recycling","recycling:garden_waste":"yes","recycling_type":"container"}},"type":"Feature"},
	{"geometry":{"coordinates":[11.218894,45.993903],"type":"Point"},"properties":{"osm_id":"8666656366","tag":{"amenity":"recycling","recycling:paper":"yes","recycling_type":"container"}},"type":"Feature"},
	{"geometry":{"coordinates":[11.225096,45.99314],"type":"Point"},"properties":{"osm_id":"8666656367","tag":{"amenity":"recycling","recycling:paper":"yes","recycling_type":"container"}},"type":"Feature"},
	{"geometry":{"coordinates":[11.216298,45.994509],"type":"Point"},"properties":{"osm_id":"8666656368","tag":{"amenity":"recycling","recycling:paper":"yes","recycling_type":"container"}},"type":"Feature"},
	{"geometry":{"coordinates":[11.213283,45.996303],"type":"Point"},"properties":{"osm_id":"8666656369","tag":{"amenity":"recycling","recycling:paper":"yes","recycling_type":"container"}},"type":"Feature"},
	{"geometry":{"coordinates":[11.216105,45.992122],"type":"Point"},"properties":{"osm_id":"8669040050","tag":{"amenity":"recycling","recycling:paper":"yes","recycling_type":"container"}},"type":"Feature"},
	{"geometry":{"coordinates":[11.216087,45.992121],"type":"Point"},"properties":{"osm_id":"8669040051","tag":{"amenity":"recycling","recycling:glass":"yes","recycling_type":"container"}},"type":"Feature"},
	{"geometry":{"coordinates":[11.216682,45.992791],"type":"Point"},"properties":{"osm_id":"8669060993","tag":{"amenity":"recycling","recycling:waste":"yes","recycling_type":"container"}},"type":"Feature"},
	{"geometry":{"coordinates":[11.204661,45.999631],"type":"Point"},"properties":{"osm_id":"8669060994","tag":{"amenity":"recycling","recycling:clothes":"yes","recycling_type":"container"}},"type":"Feature"},
	{"geometry":{"coordinates":[11.195093,46.004425],"type":"Point"},"properties":{"osm_id":"8669060995","tag":{"amenity":"recycling","recycling:drugs":"yes","recycling_type":"container"}},"type":"Feature"},
	{"geometry":{"coordinates":[11.217045,45.992946],"type":"Point"},"properties":{"osm_id":"8669060996","tag":{"amenity":"recycling","recycling:green_waste":"yes","recycling_type":"container"}},"type":"Feature"},
	{"geometry":{"coordinates":[11.216194,45.993767],"type":"Point"},"properties":{"osm_id":"8674901640","tag":{"amenity":"recycling","recycling:green_waste":"yes","recycling_type":"container"}},"type":"Feature"},
	{"geometry":{"coordinates":[11.217436,45.993942],"type":"Point"},"properties":{"osm_id":"8674901641","tag":{"amenity":"recycling","recycling:green_waste":"yes","recycling_type":"container"}},"type":"Feature"},
	{"geometry":{"coordinates":[11.217782,45.99183],"type":"Point"},"properties":{"osm_id":"8674907378","tag":{"amenity":"recycling","recycling:paper":"yes","recycling_type":"container"}},"type":"Feature"},
	{"geometry":{"coordinates":[11.217807,45.991829],"type":"Point"},"properties":{"osm_id":"8676825894","tag":{"amenity":"recycling","recycling:green_waste":"yes","recycling_type":"container"}},"type":"Feature"},
	{"geometry":{"coordinates":[11.217833,45.991824],"type":"Point"},"properties":{"osm_id":"8676825895","tag":{"amenity":"recycling","recycling:glass":"yes","recycling_type":"container"}},"type":"Feature"},
	{"geometry":{"coordinates":[11.218786,45.992663],"type":"Point"},"properties":{"osm_id":"8676825896","tag":{"amenity":"recycling","recycling:paper":"yes","recycling_type":"container"}},"type":"Feature"},
	{"geometry":{"coordinates":[11.21705,45.996468],"type":"Point"},"properties":{"osm_id":"8676834900","tag":{"amenity":"recycling","recycling:green_waste":"yes","recycling_type":"container"}},"type":"Feature"},
	{"geometry":{"coordinates":[11.217076,45.996474],"type":"Point"},"properties":{"osm_id":"8676834901","tag":{"amenity":"recycling","recycling:glass":"yes","recycling_type":"container"}},"type":"Feature"},
	{"geometry":{"coordinates":[11.2171,45.996482],"type":"Point"},"properties":{"osm_id":"8676834902","tag":{"amenity":"recycling","recycling:garden_waste":"yes","recycling_type":"container"}},"type":"Feature"},
	{"geometry":{"coordinates":[11.218784,45.992649],"type":"Point"},"properties":{"osm_id":"8676880739","tag":{"amenity":"recycling","recycling:plastic":"yes","recycling_type":"container"}},"type":"Feature"},
	{"geometry":{"coordinates":[11.21896,45.992586],"type":"Point"},"properties":{"osm_id":"8676880740","tag":{"amenity":"recycling","recycling:waste":"yes","recycling_type":"container"}},"type":"Feature"},
	{"geometry":{"coordinates":[11.219102,45.992628],"type":"Point"},"properties":{"osm_id":"8676880741","tag":{"amenity":"recycling","recycling:green_waste":"yes","recycling_type":"container"}},"type":"Feature"},
	{"geometry":{"coordinates":[11.219078,45.992616],"type":"Point"},"properties":{"osm_id":"8676880742","tag":{"amenity":"recycling","recycling:glass":"yes","recycling_type":"container"}},"type":"Feature"},
	{"geometry":{"coordinates":[11.219942,45.991762],"type":"Point"},"properties":{"osm_id":"8676880871","tag":{"amenity":"waste_basket"}},"type":"Feature"},
	{"geometry":{"coordinates":[11.218974,45.992595],"type":"Point"},"properties":{"osm_id":"8676880872","tag":{"amenity":"waste_basket"}},"type":"Feature"},
	{"geometry":{"coordinates":[11.219838,45.991307],"type":"Point"},"properties":{"osm_id":"8676898114","tag":{"amenity":"waste_basket"}},"type":"Feature"},
	{"geometry":{"coordinates":[11.224667,45.993137],"type":"Point"},"properties":{"osm_id":"8677384433","tag":{"amenity":"waste_basket"}},"type":"Feature"},
	{"geometry":{"coordinates":[11.222597,45.992172],"type":"Point"},"properties":{"osm_id":"8677398313","tag":{"amenity":"recycling","recycling:green_waste":"yes","recycling_type":"container"}},"type":"Feature"},
	{"geometry":{"coordinates":[11.225118,45.993143],"type":"Point"},"properties":{"osm_id":"8677398314","tag":{"amenity":"recycling","recycling:green_waste":"yes","recycling_type":"container"}},"type":"Feature"},
	{"geometry":{"coordinates":[11.22258,45.992167],"type":"Point"},"properties":{"osm_id":"8677398315","tag":{"amenity":"recycling","recycling:glass":"yes","recycling_type":"container"}},"type":"Feature"},
	{"geometry":{"coordinates":[11.225129,45.993143],"type":"Point"},"properties":{"osm_id":"8677398316","tag":{"amenity":"recycling","recycling:glass":"yes","recycling_type":"container"}},"type":"Feature"},
	{"geometry":{"coordinates":[11.22514,45.993145],"type":"Point"},"properties":{"osm_id":"8677403954","tag":{"amenity":"recycling","recycling:waste":"yes","recycling_type":"container"}},"type":"Feature"},
	{"geometry":{"coordinates":[11.222633,45.992203],"type":"Point"},"properties":{"osm_id":"8677409617","tag":{"amenity":"recycling","recycling:paper":"yes","recycling_type":"container"}},"type":"Feature"},
	{"geometry":{"coordinates":[11.222615,45.992186],"type":"Point"},"properties":{"osm_id":"8677409618","tag":{"amenity":"recycling","recycling:plastic":"yes","recycling_type":"container"}},"type":"Feature"},
	{"geometry":{"coordinates":[11.225108,45.993142],"type":"Point"},"properties":{"osm_id":"8677409619","tag":{"amenity":"recycling","recycling:garden_waste":"yes","recycling_type":"container"}},"type":"Feature"},
	{"geometry":{"coordinates":[11.225207,45.993256],"type":"Point"},"properties":{"osm_id":"8677412916","tag":{"amenity":"recycling","recycling:batteries":"yes","recycling_type":"container"}},"type":"Feature"},
	{"geometry":{"coordinates":[11.221511,45.993635],"type":"Point"},"properties":{"osm_id":"8677425042","tag":{"amenity":"recycling","recycling:drugs":"yes","recycling_type":"container"}},"type":"Feature"},
	{"geometry":{"coordinates":[11.221328,45.99311],"type":"Point"},"properties":{"osm_id":"8677486885","tag":{"amenity":"recycling","recycling:glass":"yes","recycling_type":"container"}},"type":"Feature"},
	{"geometry":{"coordinates":[11.221313,45.993119],"type":"Point"},"properties":{"osm_id":"8677486886","tag":{"amenity":"recycling","recycling:green_waste":"yes","recycling_type":"container"}},"type":"Feature"},
	{"geometry":{"coordinates":[11.221414,45.993548],"type":"Point"},"properties":{"osm_id":"8677493933","tag":{"amenity":"waste_basket"}},"type":"Feature"},
	{"geometry":{"coordinates":[11.221649,45.99418],"type":"Point"},"properties":{"osm_id":"8677506185","tag":{"amenity":"waste_basket"}},"type":"Feature"},
	{"geometry":{"coordinates":[11.220777,45.994172],"type":"Point"},"properties":{"osm_id":"8677523140","tag":{"amenity":"recycling","recycling:paper":"yes","recycling_type":"container"}},"type":"Feature"},
	{"geometry":{"coordinates":[11.220762,45.99418],"type":"Point"},"properties":{"osm_id":"8677523141","tag":{"amenity":"recycling","recycling:glass":"yes","recycling_type":"container"}},"type":"Feature"},
	{"geometry":{"coordinates":[11.219725,45.994888],"type":"Point"},"properties":{"osm_id":"8677523142","tag":{"amenity":"recycling","recycling:glass":"yes","recycling_type":"container"}},"type":"Feature"},
	{"geometry":{"coordinates":[11.220749,45.994188],"type":"Point"},"properties":{"osm_id":"8677525537","tag":{"amenity":"recycling","recycling:green_waste":"yes","recycling_type":"container"}},"type":"Feature"},
	{"geometry":{"coordinates":[11.219743,45.994884],"type":"Point"},"properties":{"osm_id":"8677525538","tag":{"amenity":"recycling","recycling:green_waste":"yes","recycling_type":"container"}},"type":"Feature"},
	{"geometry":{"coordinates":[11.219703,45.994892],"type":"Point"},"properties":{"osm_id":"8677525539","tag":{"amenity":"recycling","recycling:plastic":"yes","recycling_type":"container"}},"type":"Feature"},
	{"geometry":{"coordinates":[11.21968,45.994896],"type":"Point"},"properties":{"osm_id":"8677525540","tag":{"amenity":"recycling","recycling:garden_waste":"yes","recycling_type":"container"}},"type":"Feature"},
	{"geometry":{"coordinates":[11.222792,45.992495],"type":"Point"},"properties":{"osm_id":"8678657246","tag":{"amenity":"waste_basket"}},"type":"Feature"},
	{"geometry":{"coordinates":[11.216231,45.996071],"type":"Point"},"properties":{"osm_id":"8678768722","tag":{"amenity":"waste_basket"}},"type":"Feature"},
	{"geometry":{"coordinates":[11.213258,45.996307],"type":"Point"},"properties":{"osm_id":"8678779235","tag":{"amenity":"recycling","recycling:glass":"yes","recycling_type":"container"}},"type":"Feature"},
	{"geometry":{"coordinates":[11.213234,45.996315],"type":"Point"},"properties":{"osm_id":"8678779236","tag":{"amenity":"recycling","recycling:green_waste":"yes","recycling_type":"container"}},"type":"Feature"},
	{"geometry":{"coordinates":[11.215928,45.993783],"type":"Point"},"properties":{"osm_id":"8678793596","tag":{"amenity":"waste_basket"}},"type":"Feature"},
	{"geometry":{"coordinates":[11.214923,45.994472],"type":"Point"},"properties":{"osm_id":"8678811255","tag":{"amenity":"recycling","recycling:green_waste":"yes","recycling_type":"container"}},"type":"Feature"},
	{"geometry":{"coordinates":[11.216294,45.994499],"type":"Point"},"properties":{"osm_id":"8678811256","tag":{"amenity":"recycling","recycling:garden_waste":"yes","recycling_type":"container"}},"type":"Feature"},
	{"geometry":{"coordinates":[11.216302,45.994521],"type":"Point"},"properties":{"osm_id":"8678811257","tag":{"amenity":"recycling","recycling:glass":"yes","recycling_type":"container"}},"type":"Feature"},
	{"geometry":{"coordinates":[11.214946,45.994477],"type":"Point"},"properties":{"osm_id":"8678847648","tag":{"amenity":"waste_basket"}},"type":"Feature"},
	{"geometry":{"coordinates":[11.218608,45.994138],"type":"Point"},"properties":{"osm_id":"8678893965","tag":{"amenity":"recycling","recycling:batteries":"yes","recycling_type":"container"}},"type":"Feature"},
	{"geometry":{"coordinates":[11.218884,45.993911],"type":"Point"},"properties":{"osm_id":"8678911722","tag":{"amenity":"recycling","recycling:plastic":"yes","recycling_type":"container"}},"type":"Feature"},
	{"geometry":{"coordinates":[11.218901,45.993896],"type":"Point"},"properties":{"osm_id":"8678911723","tag":{"amenity":"recycling","recycling:green_waste":"yes","recycling_type":"container"}},"type":"Feature"},
	{"geometry":{"coordinates":[11.218908,45.99389],"type":"Point"},"properties":{"osm_id":"8678911724","tag":{"amenity":"recycling","recycling:glass":"yes","recycling_type":"container"}},"type":"Feature"},
	{"geometry":{"coordinates":[11.219221,45.993529],"type":"Point"},"properties":{"osm_id":"8678912650","tag":{"amenity":"waste_basket"}},"type":"Feature"},
	{"geometry":{"coordinates":[11.220146,45.992712],"type":"Point"},"properties":{"osm_id":"8678942764","tag":{"amenity":"waste_basket"}},"type":"Feature"},
	{"geometry":{"coordinates":[11.220103,45.992727],"type":"Point"},"properties":{"osm_id":"8678942766","tag":{"amenity":"recycling","recycling:paper":"yes","recycling_type":"container"}},"type":"Feature"},
	{"geometry":{"coordinates":[11.220115,45.992724],"type":"Point"},"properties":{"osm_id":"8678942767","tag":{"amenity":"recycling","recycling:glass":"yes","recycling_type":"container"}},"type":"Feature"},
	{"geometry":{"coordinates":[11.220123,45.992723],"type":"Point"},"properties":{"osm_id":"8678942768","tag":{"amenity":"recycling","recycling:green_waste":"yes","recycling_type":"container"}},"type":"Feature"},
	{"geometry":{"coordinates":[11.225801,46.002196],"type":"Point"},"properties":{"osm_id":"8685508480","tag":{"amenity":"recycling","recycling:paper":"yes","recycling_type":"container"}},"type":"Feature"},
	{"geometry":{"coordinates":[11.225218,46.001968],"type":"Point"},"properties":{"osm_id":"8685591396","tag":{"amenity":"waste_basket"}},"type":"Feature"},
	{"geometry":{"coordinates":[11.197293,46.003548],"type":"Point"},"properties":{"osm_id":"8694165954","tag":{"amenity":"waste_basket"}},"type":"Feature"},
	{"geometry":{"coordinates":[11.195861,46.003936],"type":"Point"},"properties":{"osm_id":"8694167036","tag":{"amenity":"waste_basket"}},"type":"Feature"},
	{"geometry":{"coordinates":[11.195307,46.00431],"type":"Point"},"properties":{"osm_id":"8694167037","tag":{"amenity":"waste_basket"}},"type":"Feature"},
	{"geometry":{"coordinates":[11.19209,46.005899],"type":"Point"},"properties":{"osm_id":"8694167038","tag":{"amenity":"waste_basket"}},"type":"Feature"},
	{"geometry":{"coordinates":[11.188904,46.005896],"type":"Point"},"properties":{"osm_id":"8694169197","tag":{"amenity":"waste_basket"}},"type":"Feature"},
	{"geometry":{"coordinates":[11.18886,46.005924],"type":"Point"},"properties":{"osm_id":"8694169207","tag":{"amenity":"recycling","recycling:green_waste":"yes","recycling_type":"container"}},"type":"Feature"},
	{"geometry":{"coordinates":[11.184918,46.00531],"type":"Point"},"properties":{"osm_id":"8694169208","tag":{"amenity":"recycling","recycling:green_waste":"yes","recycling_type":"container"}},"type":"Feature"},
	{"geometry":{"coordinates":[11.188835,46.005928],"type":"Point"},"properties":{"osm_id":"8694179399","tag":{"amenity":"recycling","recycling:glass":"yes","recycling_type":"container"}},"type":"Feature"},
	{"geometry":{"coordinates":[11.214362,45.98723],"type":"Point"},"properties":{"osm_id":"8705564418","tag":{"amenity":"waste_basket"}},"type":"Feature"},
	{"geometry":{"coordinates":[11.223748,46.002083],"type":"Point"},"properties":{"osm_id":"8720486467","tag":{"amenity":"recycling","recycling:drugs":"yes","recycling_type":"container"}},"type":"Feature"},
	{"geometry":{"coordinates":[11.218642,45.994202],"type":"Point"},"properties":{"osm_id":"8720568101","tag":{"amenity":"waste_basket"}},"type":"Feature"},
	{"geometry":{"coordinates":[11.223712,46.002285],"type":"Point"},"properties":{"osm_id":"8720568102","tag":{"amenity":"waste_basket"}},"type":"Feature"},
	{"geometry":{"coordinates":[11.215699,45.99943],"type":"Point"},"properties":{"osm_id":"8733343465","tag":{"amenity":"recycling","recycling:glass":"yes","recycling_type":"container"}},"type":"Feature"},
	{"geometry":{"coordinates":[11.215722,45.999429],"type":"Point"},"properties":{"osm_id":"8733343466","tag":{"amenity":"recycling","recycling:green_waste":"yes","recycling_type":"container"}},"type":"Feature"},
	{"geometry":{"coordinates":[11.21574,45.999426],"type":"Point"},"properties":{"osm_id":"8733343467","tag":{"amenity":"recycling","recycling:paper":"yes","recycling_type":"container"}},"type":"Feature"},
	{"geometry":{"coordinates":[11.221367,46.000778],"type":"Point"},"properties":{"osm_id":"8733380113","tag":{"amenity":"recycling","recycling:green_waste":"yes","recycling_type":"container"}},"type":"Feature"},
	{"geometry":{"coordinates":[11.221383,46.000781],"type":"Point"},"properties":{"osm_id":"8733380114","tag":{"amenity":"recycling","recycling:waste":"yes","recycling_type":"container"}},"type":"Feature"},
	{"geometry":{"coordinates":[11.224362,46.001217],"type":"Point"},"properties":{"osm_id":"8733386163","tag":{"amenity":"recycling","recycling:paper":"yes","recycling_type":"container"}},"type":"Feature"},
	{"geometry":{"coordinates":[11.223301,46.001315],"type":"Point"},"properties":{"osm_id":"8733439962","tag":{"amenity":"waste_basket"}},"type":"Feature"},
	{"geometry":{"coordinates":[11.228869,46.011304],"type":"Point"},"properties":{"osm_id":"8733451180","tag":{"amenity":"recycling","recycling:green_waste":"yes","recycling_type":"container"}},"type":"Feature"},
	{"geometry":{"coordinates":[11.228058,46.002874],"type":"Point"},"properties":{"osm_id":"8733453275","tag":{"amenity":"recycling","recycling:paper":"yes","recycling_type":"container"}},"type":"Feature"},
	{"geometry":{"coordinates":[11.228042,46.002868],"type":"Point"},"properties":{"osm_id":"8733453276","tag":{"amenity":"recycling","recycling:garden_waste":"yes","recycling_type":"container"}},"type":"Feature"},
	{"geometry":{"coordinates":[11.228,46.002847],"type":"Point"},"properties":{"osm_id":"8733453277","tag":{"amenity":"recycling","recycling:glass":"yes","recycling_type":"container"}},"type":"Feature"},
	{"geometry":{"coordinates":[11.228025,46.002862],"type":"Point"},"properties":{"osm_id":"8733453278","tag":{"amenity":"recycling","recycling:green_waste":"yes","recycling_type":"container"}},"type":"Feature"},
	{"geometry":{"coordinates":[11.227871,46.003742],"type":"Point"},"properties":{"osm_id":"8733456426","tag":{"amenity":"recycling","recycling:glass":"yes","recycling_type":"container"}},"type":"Feature"},
	{"geometry":{"coordinates":[11.227893,46.00373],"type":"Point"},"properties":{"osm_id":"8733456427","tag":{"amenity":"recycling","recycling:green_waste":"yes","recycling_type":"container"}},"type":"Feature"},
	{"geometry":{"coordinates":[11.227913,46.003724],"type":"Point"},"properties":{"osm_id":"8733456428","tag":{"amenity":"recycling","recycling:waste":"yes","recycling_type":"container"}},"type":"Feature"},
	{"geometry":{"coordinates":[11.224352,46.00177],"type":"Point"},"properties":{"osm_id":"8733463071","tag":{"amenity":"waste_basket"}},"type":"Feature"},
	{"geometry":{"coordinates":[11.226941,46.003125],"type":"Point"},"properties":{"osm_id":"8733493528","tag":{"amenity":"waste_basket"}},"type":"Feature"},
	{"geometry":{"coordinates":[11.225893,46.002621],"type":"Point"},"properties":{"osm_id":"8733498002","tag":{"amenity":"recycling","recycling:waste":"yes","recycling_type":"container"}},"type":"Feature"},
	{"geometry":{"coordinates":[11.225797,46.002239],"type":"Point"},"properties":{"osm_id":"8733719069","tag":{"amenity":"recycling","recycling:glass":"yes","recycling_type":"container"}},"type":"Feature"},
	{"geometry":{"coordinates":[11.2258,46.002219],"type":"Point"},"properties":{"osm_id":"8733719070","tag":{"amenity":"recycling","recycling:garden_waste":"yes","recycling_type":"container"}},"type":"Feature"},
	{"geometry":{"coordinates":[11.225801,46.002173],"type":"Point"},"properties":{"osm_id":"8733719071","tag":{"amenity":"recycling","recycling:plastic":"yes","recycling_type":"container"}},"type":"Feature"},
	{"geometry":{"coordinates":[11.225582,46.001503],"type":"Point"},"properties":{"osm_id":"8733719072","tag":{"amenity":"waste_basket"}},"type":"Feature"},
	{"geometry":{"coordinates":[11.225621,46.001513],"type":"Point"},"properties":{"osm_id":"8733719073","tag":{"amenity":"recycling","recycling:batteries":"yes","recycling_type":"container"}},"type":"Feature"},
	{"geometry":{"coordinates":[11.225672,46.001638],"type":"Point"},"properties":{"osm_id":"8733722055","tag":{"amenity":"waste_basket"}},"type":"Feature"},
	{"geometry":{"coordinates":[11.223727,46.002119],"type":"Point"},"properties":{"osm_id":"8733741651","tag":{"amenity":"recycling","recycling:glass":"yes","recycling_type":"container"}},"type":"Feature"},
	{"geometry":{"coordinates":[11.223716,46.002119],"type":"Point"},"properties":{"osm_id":"8733741652","tag":{"amenity":"recycling","recycling:green_waste":"yes","recycling_type":"container"}},"type":"Feature"},
	{"geometry":{"coordinates":[11.223714,46.002131],"type":"Point"},"properties":{"osm_id":"8733741653","tag":{"amenity":"recycling","private":"yes","recycling:waste":"yes","recycling_type":"container"}},"type":"Feature"},
	{"geometry":{"coordinates":[11.224737,46.002564],"type":"Point"},"properties":{"osm_id":"8733915520","tag":{"amenity":"recycling","recycling:waste":"yes","recycling_type":"container"}},"type":"Feature"},
	{"geometry":{"coordinates":[11.224794,46.002579],"type":"Point"},"properties":{"osm_id":"8733915521","tag":{"amenity":"recycling","recycling:batteries":"yes","recycling_type":"container"}},"type":"Feature"},
	{"geometry":{"coordinates":[11.224673,46.002548],"type":"Point"},"properties":{"osm_id":"8733915522","tag":{"amenity":"recycling","recycling:garden_waste":"yes","recycling_type":"container"}},"type":"Feature"},
	{"geometry":{"coordinates":[11.224766,46.002573],"type":"Point"},"properties":{"osm_id":"8733915523","tag":{"amenity":"recycling","recycling:green_waste":"yes","recycling_type":"container"}},"type":"Feature"},
	{"geometry":{"coordinates":[11.224708,46.002557],"type":"Point"},"properties":{"osm_id":"8733915524","tag":{"amenity":"recycling","recycling:glass":"yes","recycling_type":"container"}},"type":"Feature"},
	{"geometry":{"coordinates":[11.225255,46.002696],"type":"Point"},"properties":{"osm_id":"8733931157","tag":{"amenity":"recycling","recycling:paper":"yes","recycling_type":"container"}},"type":"Feature"},
	{"geometry":{"coordinates":[11.2254,46.002706],"type":"Point"},"properties":{"osm_id":"8733931158","tag":{"amenity":"waste_basket"}},"type":"Feature"},
	{"geometry":{"coordinates":[11.225235,46.002691],"type":"Point"},"properties":{"osm_id":"8733931159","tag":{"amenity":"recycling","recycling:plastic":"yes","recycling_type":"container"}},"type":"Feature"},
	{"geometry":{"coordinates":[11.222034,46.002181],"type":"Point"},"properties":{"osm_id":"8733954383","tag":{"amenity":"recycling","recycling:waste":"yes","recycling_type":"container"}},"type":"Feature"},
	{"geometry":{"coordinates":[11.22202,46.002178],"type":"Point"},"properties":{"osm_id":"8733954384","tag":{"amenity":"recycling","recycling:green_waste":"yes","recycling_type":"container"}},"type":"Feature"},
	{"geometry":{"coordinates":[11.220459,46.001238],"type":"Point"},"properties":{"osm_id":"8733954385","tag":{"amenity":"recycling","recycling:green_waste":"yes","recycling_type":"container"}},"type":"Feature"},
	{"geometry":{"coordinates":[11.221176,46.001561],"type":"Point"},"properties":{"osm_id":"8733954386","tag":{"amenity":"recycling","recycling:paper":"yes","recycling_type":"container"}},"type":"Feature"},
	{"geometry":{"coordinates":[11.220458,46.001253],"type":"Point"},"properties":{"osm_id":"8733954387","tag":{"amenity":"recycling","recycling:glass":"yes","recycling_type":"container"}},"type":"Feature"},
	{"geometry":{"coordinates":[11.220177,46.001845],"type":"Point"},"properties":{"osm_id":"8733954388","tag":{"amenity":"recycling","recycling:glass":"yes","recycling_type":"container"}},"type":"Feature"},
	{"geometry":{"coordinates":[11.220154,46.001844],"type":"Point"},"properties":{"osm_id":"8733954389","tag":{"amenity":"recycling","recycling:green_waste":"yes","recycling_type":"container"}},"type":"Feature"},
	{"geometry":{"coordinates":[11.221173,46.001554],"type":"Point"},"properties":{"osm_id":"8733954390","tag":{"amenity":"recycling","recycling:glass":"yes","recycling_type":"container"}},"type":"Feature"},
	{"geometry":{"coordinates":[11.221094,46.001242],"type":"Point"},"properties":{"osm_id":"8733954391","tag":{"amenity":"recycling","recycling:green_waste":"yes","recycling_type":"container"}},"type":"Feature"},
	{"geometry":{"coordinates":[11.221109,46.001243],"type":"Point"},"properties":{"osm_id":"8733954392","tag":{"amenity":"recycling","recycling:garden_waste":"yes","recycling_type":"container"}},"type":"Feature"},
	{"geometry":{"coordinates":[11.22248,46.001238],"type":"Point"},"properties":{"osm_id":"8733954393","tag":{"amenity":"recycling","recycling:glass":"yes","recycling_type":"container"}},"type":"Feature"},
	{"geometry":{"coordinates":[11.22247,46.001191],"type":"Point"},"properties":{"osm_id":"8733964646","tag":{"amenity":"waste_basket"}},"type":"Feature"},
	{"geometry":{"coordinates":[11.222789,46.001227],"type":"Point"},"properties":{"osm_id":"8733976272","tag":{"amenity":"recycling","recycling:green_waste":"yes","recycling_type":"container"}},"type":"Feature"},
	{"geometry":{"coordinates":[11.222831,46.00123],"type":"Point"},"properties":{"osm_id":"8733976273","tag":{"amenity":"recycling","recycling:paper":"yes","recycling_type":"container"}},"type":"Feature"},
	{"geometry":{"coordinates":[11.222817,46.001228],"type":"Point"},"properties":{"osm_id":"8733976274","tag":{"amenity":"recycling","recycling:plastic":"yes","recycling_type":"container"}},"type":"Feature"},
	{"geometry":{"coordinates":[11.236069,45.978224],"type":"Point"},"properties":{"osm_id":"8734280576","tag":{"amenity":"recycling","recycling:green_waste":"yes","recycling_type":"container"}},"type":"Feature"},
	{"geometry":{"coordinates":[11.236107,45.978274],"type":"Point"},"properties":{"osm_id":"8734280577","tag":{"amenity":"recycling","recycling:paper":"yes","recycling_type":"container"}},"type":"Feature"},
	{"geometry":{"coordinates":[11.236092,45.978258],"type":"Point"},"properties":{"osm_id":"8734280578","tag":{"amenity":"recycling","recycling:plastic":"yes","recycling_type":"container"}},"type":"Feature"},
	{"geometry":{"coordinates":[11.236084,45.978241],"type":"Point"},"properties":{"osm_id":"8734280579","tag":{"amenity":"recycling","recycling:garden_waste":"yes","recycling_type":"container"}},"type":"Feature"},
	{"geometry":{"coordinates":[11.236055,45.978205],"type":"Point"},"properties":{"osm_id":"8734280580","tag":{"amenity":"recycling","recycling:glass":"yes","recycling_type":"container"}},"type":"Feature"},
	{"geometry":{"coordinates":[11.236042,45.978191],"type":"Point"},"properties":{"osm_id":"8734280581","tag":{"amenity":"recycling","recycling:waste":"yes","recycling_type":"container"}},"type":"Feature"},
	{"geometry":{"coordinates":[11.238123,45.984901],"type":"Point"},"properties":{"osm_id":"8734353744","tag":{"amenity":"recycling","recycling:waste":"yes","recycling_type":"container"}},"type":"Feature"},
	{"geometry":{"coordinates":[11.238111,45.984917],"type":"Point"},"properties":{"osm_id":"8734353745","tag":{"amenity":"recycling","recycling:paper":"yes","recycling_type":"container"}},"type":"Feature"},
	{"geometry":{"coordinates":[11.2381,45.984932],"type":"Point"},"properties":{"osm_id":"8734353746","tag":{"amenity":"recycling","recycling:glass":"yes","recycling_type":"container"}},"type":"Feature"},
	{"geometry":{"coordinates":[11.238087,45.984951],"type":"Point"},"properties":{"osm_id":"8734353747","tag":{"amenity":"recycling","recycling:garden_waste":"yes","recycling_type":"container"}},"type":"Feature"},
	{"geometry":{"coordinates":[11.238074,45.984968],"type":"Point"},"properties":{"osm_id":"8734353748","tag":{"amenity":"recycling","recycling:green_waste":"yes","recycling_type":"container"}},"type":"Feature"},
	{"geometry":{"coordinates":[11.209085,45.997661],"type":"Point"},"properties":{"osm_id":"8750384410","tag":{"amenity":"waste_basket"}},"type":"Feature"},
	{"geometry":{"coordinates":[11.197372,46.00421],"type":"Point"},"properties":{"osm_id":"8750385753","tag":{"amenity":"waste_basket"}},"type":"Feature"},
	{"geometry":{"coordinates":[11.206193,45.998563],"type":"Point"},"properties":{"osm_id":"8750393035","tag":{"amenity":"recycling","recycling:green_waste":"yes","recycling_type":"container"}},"type":"Feature"},
	{"geometry":{"coordinates":[11.20841,46.000519],"type":"Point"},"properties":{"osm_id":"8750393036","tag":{"amenity":"recycling","recycling:green_waste":"yes","recycling_type":"container"}},"type":"Feature"},
	{"geometry":{"coordinates":[11.195836,46.003883],"type":"Point"},"properties":{"osm_id":"8750393037","tag":{"amenity":"recycling","recycling:green_waste":"yes","recycling_type":"container"}},"type":"Feature"},
	{"geometry":{"coordinates":[11.187118,46.007196],"type":"Point"},"properties":{"osm_id":"8750393038","tag":{"amenity":"recycling","recycling:green_waste":"yes","recycling_type":"container"}},"type":"Feature"},
	{"geometry":{"coordinates":[11.191441,46.006459],"type":"Point"},"properties":{"osm_id":"8750393039","tag":{"amenity":"recycling","recycling:green_waste":"yes","recycling_type":"container"}},"type":"Feature"},
	{"geometry":{"coordinates":[11.208404,46.00051],"type":"Point"},"properties":{"osm_id":"8750393040","tag":{"amenity":"recycling","recycling:glass":"yes","recycling_type":"container"}},"type":"Feature"},
	{"geometry":{"coordinates":[11.197117,46.003092],"type":"Point"},"properties":{"osm_id":"8750393041","tag":{"amenity":"recycling","recycling:glass":"yes","recycling_type":"container"}},"type":"Feature"},
	{"geometry":{"coordinates":[11.208426,46.000206],"type":"Point"},"properties":{"osm_id":"8750393042","tag":{"amenity":"recycling","recycling:paper":"yes","recycling_type":"container"}},"type":"Feature"},
	{"geometry":{"coordinates":[11.197135,46.003149],"type":"Point"},"properties":{"osm_id":"8750393043","tag":{"amenity":"recycling","recycling:paper":"yes","recycling_type":"container"}},"type":"Feature"},
	{"geometry":{"coordinates":[11.193096,46.005595],"type":"Point"},"properties":{"osm_id":"8750412533","tag":{"amenity":"recycling","recycling:green_waste":"yes","recycling_type":"container"}},"type":"Feature"},
	{"geometry":{"coordinates":[11.195838,46.005568],"type":"Point"},"properties":{"osm_id":"8750412534","tag":{"amenity":"recycling","recycling:green_waste":"yes","recycling_type":"container"}},"type":"Feature"},
	{"geometry":{"coordinates":[11.19586,46.005568],"type":"Point"},"properties":{"osm_id":"8750412535","tag":{"amenity":"recycling","recycling:glass":"yes","recycling_type":"container"}},"type":"Feature"},
	{"geometry":{"coordinates":[11.193082,46.005596],"type":"Point"},"properties":{"osm_id":"8750412536","tag":{"amenity":"recycling","recycling:glass":"yes","recycling_type":"container"}},"type":"Feature"},
	{"geometry":{"coordinates":[11.198187,45.999875],"type":"Point"},"properties":{"osm_id":"8750469269","tag":{"amenity":"recycling","recycling:garden_waste":"yes","recycling_type":"container"}},"type":"Feature"},
	{"geometry":{"coordinates":[11.194761,46.005638],"type":"Point"},"properties":{"osm_id":"8750469270","tag":{"amenity":"recycling","recycling:garden_waste":"yes","recycling_type":"container"}},"type":"Feature"},
	{"geometry":{"coordinates":[11.19479,46.00561],"type":"Point"},"properties":{"osm_id":"8750469271","tag":{"amenity":"recycling","recycling:glass":"yes","recycling_type":"container"}},"type":"Feature"},
	{"geometry":{"coordinates":[11.194775,46.005625],"type":"Point"},"properties":{"osm_id":"8750469272","tag":{"amenity":"recycling","recycling:paper":"yes","recycling_type":"container"}},"type":"Feature"},
	{"geometry":{"coordinates":[11.194696,46.005696],"type":"Point"},"properties":{"osm_id":"8750469273","tag":{"amenity":"recycling","recycling:green_waste":"yes","recycling_type":"container"}},"type":"Feature"},
	{"geometry":{"coordinates":[11.194587,46.005644],"type":"Point"},"properties":{"osm_id":"8750525317","tag":{"amenity":"recycling","recycling:batteries":"yes","recycling_type":"container"}},"type":"Feature"},
	{"geometry":{"coordinates":[11.194297,46.005526],"type":"Point"},"properties":{"osm_id":"8750540003","tag":{"amenity":"waste_basket"}},"type":"Feature"},
	{"geometry":{"coordinates":[11.194606,46.005435],"type":"Point"},"properties":{"osm_id":"8750569635","tag":{"amenity":"waste_basket"}},"type":"Feature"},
	{"geometry":{"coordinates":[11.19477,45.99841],"type":"Point"},"properties":{"osm_id":"8750577872","tag":{"amenity":"recycling","recycling:waste":"yes","recycling_type":"container"}},"type":"Feature"},
	{"geometry":{"coordinates":[11.195817,46.005568],"type":"Point"},"properties":{"osm_id":"8750577873","tag":{"amenity":"recycling","recycling:waste":"yes","recycling_type":"container"}},"type":"Feature"},
	{"geometry":{"coordinates":[11.195881,46.005569],"type":"Point"},"properties":{"osm_id":"8750577874","tag":{"amenity":"recycling","recycling:paper":"yes","recycling_type":"container"}},"type":"Feature"},
	{"geometry":{"coordinates":[11.196171,46.007195],"type":"Point"},"properties":{"osm_id":"8750581144","tag":{"amenity":"recycling","recycling:glass":"yes","recycling_type":"container"}},"type":"Feature"},
	{"geometry":{"coordinates":[11.19713,46.003133],"type":"Point"},"properties":{"osm_id":"8750581145","tag":{"amenity":"recycling","recycling:plastic":"yes","recycling_type":"container"}},"type":"Feature"},
	{"geometry":{"coordinates":[11.196188,46.007209],"type":"Point"},"properties":{"osm_id":"8750581146","tag":{"amenity":"recycling","recycling:plastic":"yes","recycling_type":"container"}},"type":"Feature"},
	{"geometry":{"coordinates":[11.196199,46.007218],"type":"Point"},"properties":{"osm_id":"8750581147","tag":{"amenity":"recycling","recycling:paper":"yes","recycling_type":"container"}},"type":"Feature"},
	{"geometry":{"coordinates":[11.196463,46.008789],"type":"Point"},"properties":{"osm_id":"8750595866","tag":{"amenity":"recycling","recycling:green_waste":"yes","recycling_type":"container"}},"type":"Feature"},
	{"geometry":{"coordinates":[11.197158,46.007164],"type":"Point"},"properties":{"osm_id":"8750628630","tag":{"amenity":"recycling","recycling:garden_waste":"yes","recycling_type":"container"}},"type":"Feature"},
	{"geometry":{"coordinates":[11.197168,46.007165],"type":"Point"},"properties":{"osm_id":"8750628631","tag":{"amenity":"recycling","recycling:green_waste":"yes","recycling_type":"container"}},"type":"Feature"},
	{"geometry":{"coordinates":[11.199216,46.007659],"type":"Point"},"properties":{"osm_id":"8750656543","tag":{"amenity":"recycling","recycling:green_waste":"yes","recycling_type":"container"}},"type":"Feature"},
	{"geometry":{"coordinates":[11.197992,46.007285],"type":"Point"},"properties":{"osm_id":"8750670078","tag":{"amenity":"waste_basket"}},"type":"Feature"},
	{"geometry":{"coordinates":[11.198461,46.007387],"type":"Point"},"properties":{"osm_id":"8750670079","tag":{"amenity":"recycling","recycling:glass":"yes","recycling_type":"container"}},"type":"Feature"},
	{"geometry":{"coordinates":[11.199215,46.007669],"type":"Point"},"properties":{"osm_id":"8750670081","tag":{"amenity":"recycling","recycling:plastic":"yes","recycling_type":"container"}},"type":"Feature"},
	{"geometry":{"coordinates":[11.199217,46.007683],"type":"Point"},"properties":{"osm_id":"8750670082","tag":{"amenity":"recycling","recycling:paper":"yes","recycling_type":"container"}},"type":"Feature"},
	{"geometry":{"coordinates":[11.19846,46.010651],"type":"Point"},"properties":{"osm_id":"8750690584","tag":{"amenity":"recycling","recycling:glass":"yes","recycling_type":"container"}},"type":"Feature"},
	{"geometry":{"coordinates":[11.200855,46.006172],"type":"Point"},"properties":{"osm_id":"8751709478","tag":{"amenity":"recycling","recycling:green_waste":"yes","recycling_type":"container"}},"type":"Feature"},
	{"geometry":{"coordinates":[11.200872,46.006169],"type":"Point"},"properties":{"osm_id":"8751709479","tag":{"amenity":"recycling","recycling:glass":"yes","recycling_type":"container"}},"type":"Feature"},
	{"geometry":{"coordinates":[11.199319,46.006308],"type":"Point"},"properties":{"osm_id":"8751717972","tag":{"amenity":"recycling","recycling:glass":"yes","recycling_type":"container"}},"type":"Feature"},
	{"geometry":{"coordinates":[11.199319,46.006322],"type":"Point"},"properties":{"osm_id":"8751717973","tag":{"amenity":"recycling","recycling:green_waste":"yes","recycling_type":"container"}},"type":"Feature"},
	{"geometry":{"coordinates":[11.199319,46.006296],"type":"Point"},"properties":{"osm_id":"8751717974","tag":{"amenity":"recycling","recycling:paper":"yes","recycling_type":"container"}},"type":"Feature"},
	{"geometry":{"coordinates":[11.199334,46.006396],"type":"Point"},"properties":{"osm_id":"8751724552","tag":{"amenity":"waste_basket"}},"type":"Feature"},
	{"geometry":{"coordinates":[11.201051,46.004856],"type":"Point"},"properties":{"osm_id":"8751742457","tag":{"amenity":"recycling","recycling:green_waste":"yes","recycling_type":"container"}},"type":"Feature"},
	{"geometry":{"coordinates":[11.201309,46.004838],"type":"Point"},"properties":{"osm_id":"8751742460","tag":{"amenity":"recycling","recycling:glass":"yes","recycling_type":"container"}},"type":"Feature"},
	{"geometry":{"coordinates":[11.203205,46.004039],"type":"Point"},"properties":{"osm_id":"8751742461","tag":{"amenity":"recycling","recycling:green_waste":"yes","recycling_type":"container"}},"type":"Feature"},
	{"geometry":{"coordinates":[11.201386,46.004836],"type":"Point"},"properties":{"osm_id":"8751742463","tag":{"amenity":"waste_basket"}},"type":"Feature"},
	{"geometry":{"coordinates":[11.203609,46.004989],"type":"Point"},"properties":{"osm_id":"8751748184","tag":{"amenity":"recycling","recycling:glass":"yes","recycling_type":"container"}},"type":"Feature"},
	{"geometry":{"coordinates":[11.203632,46.004991],"type":"Point"},"properties":{"osm_id":"8751748185","tag":{"amenity":"recycling","recycling:green_waste":"yes","recycling_type":"container"}},"type":"Feature"},
	{"geometry":{"coordinates":[11.200108,46.005484],"type":"Point"},"properties":{"osm_id":"8751748186","tag":{"amenity":"recycling","recycling:green_waste":"yes","recycling_type":"container"}},"type":"Feature"},
	{"geometry":{"coordinates":[11.197124,46.003115],"type":"Point"},"properties":{"osm_id":"8751748189","tag":{"amenity":"recycling","recycling:green_waste":"yes","recycling_type":"container"}},"type":"Feature"},
	{"geometry":{"coordinates":[11.205563,46.005545],"type":"Point"},"properties":{"osm_id":"8751762465","tag":{"amenity":"recycling","recycling:green_waste":"yes","recycling_type":"container"}},"type":"Feature"},
	{"geometry":{"coordinates":[11.207152,46.005409],"type":"Point"},"properties":{"osm_id":"8751794806","tag":{"amenity":"waste_basket"}},"type":"Feature"},
	{"geometry":{"coordinates":[11.206479,46.005581],"type":"Point"},"properties":{"osm_id":"8751794807","tag":{"amenity":"waste_basket"}},"type":"Feature"},
	{"geometry":{"coordinates":[11.201059,46.004844],"type":"Point"},"properties":{"osm_id":"8753490811","tag":{"amenity":"recycling","recycling:paper":"yes","recycling_type":"container"}},"type":"Feature"},
	{"geometry":{"coordinates":[11.203684,46.004997],"type":"Point"},"properties":{"osm_id":"8753490812","tag":{"amenity":"recycling","recycling:paper":"yes","recycling_type":"container"}},"type":"Feature"},
	{"geometry":{"coordinates":[11.20366,46.004994],"type":"Point"},"properties":{"osm_id":"8753490813","tag":{"amenity":"recycling","recycling:garden_waste":"yes","recycling_type":"container"}},"type":"Feature"},
	{"geometry":{"coordinates":[11.202317,46.004777],"type":"Point"},"properties":{"osm_id":"8754774813","tag":{"amenity":"recycling","recycling:glass":"yes","recycling_type":"container"}},"type":"Feature"},
	{"geometry":{"coordinates":[11.202305,46.004778],"type":"Point"},"properties":{"osm_id":"8754774814","tag":{"amenity":"recycling","recycling:green_waste":"yes","recycling_type":"container"}},"type":"Feature"},
	{"geometry":{"coordinates":[11.202291,46.004779],"type":"Point"},"properties":{"osm_id":"8754774815","tag":{"amenity":"recycling","recycling:paper":"yes","recycling_type":"container"}},"type":"Feature"},
	{"geometry":{"coordinates":[11.202279,46.004781],"type":"Point"},"properties":{"osm_id":"8754774816","tag":{"amenity":"recycling","recycling:plastic":"yes","recycling_type":"container"}},"type":"Feature"},
	{"geometry":{"coordinates":[11.19985,46.005366],"type":"Point"},"properties":{"osm_id":"8754778377","tag":{"amenity":"waste_basket"}},"type":"Feature"},
	{"geometry":{"coordinates":[11.199718,46.005435],"type":"Point"},"properties":{"osm_id":"8754778378","tag":{"amenity":"waste_basket"}},"type":"Feature"},
	{"geometry":{"coordinates":[11.199108,46.005126],"type":"Point"},"properties":{"osm_id":"8754796602","tag":{"amenity":"waste_basket"}},"type":"Feature"},
	{"geometry":{"coordinates":[11.198508,46.004952],"type":"Point"},"properties":{"osm_id":"8754798065","tag":{"amenity":"waste_basket"}},"type":"Feature"},
	{"geometry":{"coordinates":[11.197786,46.004951],"type":"Point"},"properties":{"osm_id":"8754798066","tag":{"amenity":"waste_basket"}},"type":"Feature"},
	{"geometry":{"coordinates":[11.199546,46.005427],"type":"Point"},"properties":{"osm_id":"8754798152","tag":{"amenity":"waste_basket"}},"type":"Feature"},
	{"geometry":{"coordinates":[11.1974,46.004476],"type":"Point"},"properties":{"osm_id":"8754798496","tag":{"amenity":"recycling","recycling:green_waste":"yes","recycling_type":"container"}},"type":"Feature"},
	{"geometry":{"coordinates":[11.1974,46.004471],"type":"Point"},"properties":{"osm_id":"8754798497","tag":{"amenity":"recycling","recycling:glass":"yes","recycling_type":"container"}},"type":"Feature"},
	{"geometry":{"coordinates":[11.200066,46.00548],"type":"Point"},"properties":{"osm_id":"8754798723","tag":{"amenity":"recycling","recycling:plastic":"yes","recycling_type":"container"}},"type":"Feature"},
	{"geometry":{"coordinates":[11.200096,46.005482],"type":"Point"},"properties":{"osm_id":"8754798724","tag":{"amenity":"recycling","recycling:glass":"yes","recycling_type":"container"}},"type":"Feature"},
	{"geometry":{"coordinates":[11.200087,46.005482],"type":"Point"},"properties":{"osm_id":"8754798725","tag":{"amenity":"recycling","recycling:batteries":"yes","recycling_type":"container"}},"type":"Feature"},
	{"geometry":{"coordinates":[11.200078,46.005481],"type":"Point"},"properties":{"osm_id":"8754798726","tag":{"amenity":"recycling","recycling:paper":"yes","recycling_type":"container"}},"type":"Feature"},
	{"geometry":{"coordinates":[11.198855,46.005048],"type":"Point"},"properties":{"osm_id":"8754798849","tag":{"amenity":"recycling","recycling:batteries":"yes","recycling_type":"container"}},"type":"Feature"},
	{"geometry":{"coordinates":[11.199133,46.005026],"type":"Point"},"properties":{"osm_id":"8754798850","tag":{"amenity":"recycling","recycling:green_waste":"yes","recycling_type":"container"}},"type":"Feature"},
	{"geometry":{"coordinates":[11.197382,46.004321],"type":"Point"},"properties":{"osm_id":"8754807165","tag":{"amenity":"recycling","recycling:paper":"yes","recycling_type":"container"}},"type":"Feature"},
	{"geometry":{"coordinates":[11.197237,46.004922],"type":"Point"},"properties":{"osm_id":"8754814600","tag":{"amenity":"waste_basket"}},"type":"Feature"},
	{"geometry":{"coordinates":[11.198996,46.003439],"type":"Point"},"properties":{"osm_id":"8754959460","tag":{"amenity":"recycling","recycling:glass":"yes","recycling_type":"container"}},"type":"Feature"},
	{"geometry":{"coordinates":[11.19899,46.003446],"type":"Point"},"properties":{"osm_id":"8754959461","tag":{"amenity":"recycling","recycling:green_waste":"yes","recycling_type":"container"}},"type":"Feature"},
	{"geometry":{"coordinates":[11.199003,46.003431],"type":"Point"},"properties":{"osm_id":"8754959462","tag":{"amenity":"recycling","recycling:paper":"yes","recycling_type":"container"}},"type":"Feature"},
	{"geometry":{"coordinates":[11.199407,46.003764],"type":"Point"},"properties":{"osm_id":"8754967363","tag":{"amenity":"recycling","recycling:glass":"yes","recycling_type":"container"}},"type":"Feature"},
	{"geometry":{"coordinates":[11.200053,46.003725],"type":"Point"},"properties":{"osm_id":"8754967364","tag":{"amenity":"recycling","recycling:glass":"yes","recycling_type":"container"}},"type":"Feature"},
	{"geometry":{"coordinates":[11.200026,46.003728],"type":"Point"},"properties":{"osm_id":"8754967365","tag":{"amenity":"recycling","recycling:green_waste":"yes","recycling_type":"container"}},"type":"Feature"},
	{"geometry":{"coordinates":[11.200002,46.00373],"type":"Point"},"properties":{"osm_id":"8754967366","tag":{"amenity":"recycling","recycling:paper":"yes","recycling_type":"container"}},"type":"Feature"},
	{"geometry":{"coordinates":[11.199975,46.003733],"type":"Point"},"properties":{"osm_id":"8754967367","tag":{"amenity":"recycling","recycling:plastic":"yes","recycling_type":"container"}},"type":"Feature"},
	{"geometry":{"coordinates":[11.195816,46.003887],"type":"Point"},"properties":{"osm_id":"8754969561","tag":{"amenity":"recycling","recycling:paper":"yes","recycling_type":"container"}},"type":"Feature"},
	{"geometry":{"coordinates":[11.195646,46.003805],"type":"Point"},"properties":{"osm_id":"8754969562","tag":{"amenity":"recycling","recycling:plastic":"yes","recycling_type":"container"}},"type":"Feature"},
	{"geometry":{"coordinates":[11.195663,46.003841],"type":"Point"},"properties":{"osm_id":"8754969563","tag":{"amenity":"recycling","recycling:glass":"yes","recycling_type":"container"}},"type":"Feature"},
	{"geometry":{"coordinates":[11.195653,46.003826],"type":"Point"},"properties":{"osm_id":"8754969564","tag":{"amenity":"recycling","recycling:garden_waste":"yes","recycling_type":"container"}},"type":"Feature"},
	{"geometry":{"coordinates":[11.203227,46.004041],"type":"Point"},"properties":{"osm_id":"8755024429","tag":{"amenity":"recycling","recycling:paper":"yes","recycling_type":"container"}},"type":"Feature"},
	{"geometry":{"coordinates":[11.203247,46.004042],"type":"Point"},"properties":{"osm_id":"8755024430","tag":{"amenity":"recycling","recycling:glass":"yes","recycling_type":"container"}},"type":"Feature"},
	{"geometry":{"coordinates":[11.197695,46.003506],"type":"Point"},"properties":{"osm_id":"8755043595","tag":{"amenity":"recycling","recycling:glass":"yes","recycling_type":"container"}},"type":"Feature"},
	{"geometry":{"coordinates":[11.197349,46.00358],"type":"Point"},"properties":{"osm_id":"8755043596","tag":{"amenity":"recycling","recycling:waste":"yes","recycling_type":"container"}},"type":"Feature"},
	{"geometry":{"coordinates":[11.196687,46.003645],"type":"Point"},"properties":{"osm_id":"8755043597","tag":{"amenity":"waste_basket"}},"type":"Feature"},
	{"geometry":{"coordinates":[11.197136,46.003167],"type":"Point"},"properties":{"osm_id":"8755082065","tag":{"amenity":"recycling","recycling:batteries":"yes","recycling_type":"container"}},"type":"Feature"},
	{"geometry":{"coordinates":[11.194751,45.998416],"type":"Point"},"properties":{"osm_id":"8755126424","tag":{"amenity":"recycling","recycling:plastic":"yes","recycling_type":"container"}},"type":"Feature"},
	{"geometry":{"coordinates":[11.194782,45.998405],"type":"Point"},"properties":{"osm_id":"8755126425","tag":{"amenity":"recycling","recycling:garden_waste":"yes","recycling_type":"container"}},"type":"Feature"},
	{"geometry":{"coordinates":[11.198183,45.99984],"type":"Point"},"properties":{"osm_id":"8755126426","tag":{"amenity":"recycling","recycling:glass":"yes","recycling_type":"container"}},"type":"Feature"},
	{"geometry":{"coordinates":[11.194806,45.998316],"type":"Point"},"properties":{"osm_id":"8755126427","tag":{"amenity":"recycling","recycling:glass":"yes","recycling_type":"container"}},"type":"Feature"},
	{"geometry":{"coordinates":[11.198179,45.999819],"type":"Point"},"properties":{"osm_id":"8755126428","tag":{"amenity":"recycling","recycling:green_waste":"yes","recycling_type":"container"}},"type":"Feature"},
	{"geometry":{"coordinates":[11.19481,45.998304],"type":"Point"},"properties":{"osm_id":"8755126429","tag":{"amenity":"recycling","recycling:green_waste":"yes","recycling_type":"container"}},"type":"Feature"},
	{"geometry":{"coordinates":[11.19819,45.999899],"type":"Point"},"properties":{"osm_id":"8755126430","tag":{"amenity":"recycling","recycling:paper":"yes","recycling_type":"container"}},"type":"Feature"},
	{"geometry":{"coordinates":[11.194171,45.99819],"type":"Point"},"properties":{"osm_id":"8755126431","tag":{"amenity":"recycling","recycling:paper":"yes","recycling_type":"container"}},"type":"Feature"},
	{"geometry":{"coordinates":[11.220018,45.993593],"type":"Point"},"properties":{"osm_id":"8839839752","tag":{"amenity":"waste_basket"}},"type":"Feature"},
	{"geometry":{"coordinates":[11.217294,46.001928],"type":"Point"},"properties":{"osm_id":"8839839753","tag":{"amenity":"waste_basket"}},"type":"Feature"},
	{"geometry":{"coordinates":[11.214514,46.003062],"type":"Point"},"properties":{"osm_id":"8839839754","tag":{"amenity":"waste_basket"}},"type":"Feature"},
	{"geometry":{"coordinates":[11.238048,45.984994],"type":"Point"},"properties":{"osm_id":"8839848292","tag":{"amenity":"recycling","recycling:batteries":"yes","recycling_type":"container"}},"type":"Feature"}
]
}
