{
"type": "FeatureCollection",
"features": [
	{"geometry":{"coordinates":[11.233411,44.939312],"type":"Point"},"properties":{"osm_id":"2944731514","tag":{"addr:housenumber":"3/C","addr:street":"Via Giulio Natta","entrance":"main"}},"type":"Feature"},
	{"geometry":{"coordinates":[11.230578,44.936704],"type":"Point"},"properties":{"osm_id":"2944737184","tag":{"amenity":"waste_disposal"}},"type":"Feature"},
	{"geometry":{"coordinates":[11.230595,44.936768],"type":"Point"},"properties":{"osm_id":"2944737185","tag":{"amenity":"recycling"}},"type":"Feature"},
	{"geometry":{"coordinates":[11.234514,44.936816],"type":"Point"},"properties":{"osm_id":"2944737187","tag":{"amenity":"waste_disposal"}},"type":"Feature"},
	{"geometry":{"coordinates":[11.234533,44.936846],"type":"Point"},"properties":{"osm_id":"2944737188","tag":{"amenity":"recycling"}},"type":"Feature"},
	{"geometry":{"coordinates":[11.246438,44.960019],"type":"Point"},"properties":{"osm_id":"3105856341","tag":{"amenity":"recycling"}},"type":"Feature"},
	{"geometry":{"coordinates":[11.24771,44.960321],"type":"Point"},"properties":{"osm_id":"3105856353","tag":{"amenity":"recycling"}},"type":"Feature"}
]
}
