{
"type": "FeatureCollection",
"features": [
	{"geometry":{"coordinates":[11.215449,43.823253],"type":"Point"},"properties":{"osm_id":"2606796236","tag":{"amenity":"recycling"}},"type":"Feature"},
	{"geometry":{"coordinates":[11.215473,43.823253],"type":"Point"},"properties":{"osm_id":"2606796237","tag":{"amenity":"recycling"}},"type":"Feature"},
	{"geometry":{"coordinates":[11.215501,43.82326],"type":"Point"},"properties":{"osm_id":"2606796238","tag":{"amenity":"recycling"}},"type":"Feature"},
	{"geometry":{"coordinates":[11.215527,43.823264],"type":"Point"},"properties":{"osm_id":"2606796239","tag":{"amenity":"recycling"}},"type":"Feature"},
	{"geometry":{"coordinates":[11.215555,43.823265],"type":"Point"},"properties":{"osm_id":"2606796240","tag":{"amenity":"recycling"}},"type":"Feature"},
	{"geometry":{"coordinates":[11.215583,43.82327],"type":"Point"},"properties":{"osm_id":"2606796241","tag":{"amenity":"recycling"}},"type":"Feature"},
	{"geometry":{"coordinates":[11.215609,43.823273],"type":"Point"},"properties":{"osm_id":"2606796242","tag":{"amenity":"recycling"}},"type":"Feature"},
	{"geometry":{"coordinates":[11.215634,43.823276],"type":"Point"},"properties":{"osm_id":"2606796243","tag":{"amenity":"recycling"}},"type":"Feature"},
	{"geometry":{"coordinates":[11.215662,43.82328],"type":"Point"},"properties":{"osm_id":"2606796244","tag":{"amenity":"recycling"}},"type":"Feature"},
	{"geometry":{"coordinates":[11.215689,43.823281],"type":"Point"},"properties":{"osm_id":"2606796245","tag":{"amenity":"recycling"}},"type":"Feature"},
	{"geometry":{"coordinates":[11.175057,43.792243],"type":"Point"},"properties":{"osm_id":"3990718217","tag":{"amenity":"waste_basket"}},"type":"Feature"},
	{"geometry":{"coordinates":[11.234523,43.783572],"type":"Point"},"properties":{"osm_id":"4220203689","tag":{"amenity":"waste_disposal"}},"type":"Feature"},
	{"geometry":{"coordinates":[11.234166,43.782786],"type":"Point"},"properties":{"osm_id":"4220203789","tag":{"amenity":"waste_disposal"}},"type":"Feature"},
	{"geometry":{"coordinates":[11.235824,43.782743],"type":"Point"},"properties":{"osm_id":"4222534092","tag":{"amenity":"waste_disposal"}},"type":"Feature"},
	{"geometry":{"coordinates":[11.239617,43.772218],"type":"Point"},"properties":{"osm_id":"4222560092","tag":{"amenity":"waste_disposal"}},"type":"Feature"},
	{"geometry":{"coordinates":[11.238598,43.778043],"type":"Point"},"properties":{"osm_id":"4224966395","tag":{"amenity":"waste_disposal"}},"type":"Feature"},
	{"geometry":{"coordinates":[11.238818,43.778002],"type":"Point"},"properties":{"osm_id":"4224966396","tag":{"amenity":"waste_disposal"}},"type":"Feature"},
	{"geometry":{"coordinates":[11.246194,43.772033],"type":"Point"},"properties":{"osm_id":"4715083292","tag":{"amenity":"recycling"}},"type":"Feature"},
	{"geometry":{"coordinates":[11.247884,43.771127],"type":"Point"},"properties":{"osm_id":"4715083315","tag":{"amenity":"recycling","location":"underground","operator":"Alia","recycling:green_waste":"yes","recycling:plastic":"yes","recycling:waste":"yes","recycling_type":"container"}},"type":"Feature"},
	{"geometry":{"coordinates":[11.205312,43.795779],"type":"Point"},"properties":{"osm_id":"5279760887","tag":{"amenity":"recycling","recycling_type":"container"}},"type":"Feature"},
	{"geometry":{"coordinates":[11.215129,43.797889],"type":"Point"},"properties":{"osm_id":"5496042367","tag":{"amenity":"recycling","recycling:glass":"yes","recycling:organic_waste":"yes","recycling:paper":"yes","recycling:plastic":"yes","recycling_type":"container"}},"type":"Feature"},
	{"geometry":{"coordinates":[11.228687,43.79475],"type":"Point"},"properties":{"name":"Centro di Raccolta Firenze San Donato","osm_id":"6307819143","tag":{"addr:city":"Firenze","addr:housenumber":"37","addr:street":"Viale Alessandro Guidoni","amenity":"recycling","opening_hours":"Mo-Sa 09:00-19:30; Tu,Th 13:00-14:30 off; Su 08:00-14:00","operator":"Alia","recycling:batteries":"yes","recycling:books":"yes","recycling:cans":"yes","recycling:cardboard":"yes","recycling:cartons":"yes","recycling:clothes":"yes","recycling:electrical_appliances":"yes","recycling:glass":"yes","recycling:glass_bottles":"yes","recycling:green_waste":"yes","recycling:magazines":"yes","recycling:newspaper":"yes","recycling:paper":"yes","recycling:paper_packaging":"yes","recycling:plastic":"yes","recycling:plastic_bottles":"yes","recycling:plastic_packaging":"yes","recycling:scrap_metal":"yes","recycling:small_appliances":"yes","recycling:waste":"yes","recycling:wood":"yes","recycling_type":"centre"}},"type":"Feature"},
	{"geometry":{"coordinates":[11.248333,43.784114],"type":"Point"},"properties":{"osm_id":"6312522334","tag":{"amenity":"recycling","location":"overground","recycling_type":"container"}},"type":"Feature"},
	{"geometry":{"coordinates":[11.227231,43.772143],"type":"Point"},"properties":{"osm_id":"6336404919","tag":{"amenity":"recycling"}},"type":"Feature"},
	{"geometry":{"coordinates":[11.235374,43.771355],"type":"Point"},"properties":{"osm_id":"6336404925","tag":{"amenity":"recycling"}},"type":"Feature"},
	{"geometry":{"coordinates":[11.232829,43.771834],"type":"Point"},"properties":{"osm_id":"6336404958","tag":{"amenity":"recycling"}},"type":"Feature"},
	{"geometry":{"coordinates":[11.234819,43.771514],"type":"Point"},"properties":{"osm_id":"6336404980","tag":{"amenity":"recycling"}},"type":"Feature"},
	{"geometry":{"coordinates":[11.233435,43.773734],"type":"Point"},"properties":{"osm_id":"6339446361","tag":{"amenity":"recycling"}},"type":"Feature"},
	{"geometry":{"coordinates":[11.222757,43.775469],"type":"Point"},"properties":{"osm_id":"6349518738","tag":{"amenity":"recycling"}},"type":"Feature"},
	{"geometry":{"coordinates":[11.24805,43.791316],"type":"Point"},"properties":{"osm_id":"6401491605","tag":{"amenity":"recycling"}},"type":"Feature"},
	{"geometry":{"coordinates":[11.247103,43.791703],"type":"Point"},"properties":{"osm_id":"6401491634","tag":{"amenity":"waste_basket"}},"type":"Feature"},
	{"geometry":{"coordinates":[11.246492,43.791612],"type":"Point"},"properties":{"osm_id":"6401491637","tag":{"amenity":"recycling","location":"overground","recycling_type":"container"}},"type":"Feature"},
	{"geometry":{"coordinates":[11.201418,43.798052],"type":"Point"},"properties":{"osm_id":"6401758502","tag":{"amenity":"recycling"}},"type":"Feature"},
	{"geometry":{"coordinates":[11.210162,43.77845],"type":"Point"},"properties":{"osm_id":"6436983440","tag":{"amenity":"recycling"}},"type":"Feature"},
	{"geometry":{"coordinates":[11.209352,43.778641],"type":"Point"},"properties":{"osm_id":"6436983480","tag":{"amenity":"recycling"}},"type":"Feature"},
	{"geometry":{"coordinates":[11.237447,43.803939],"type":"Point"},"properties":{"osm_id":"6739612167","tag":{"amenity":"waste_disposal"}},"type":"Feature"},
	{"geometry":{"coordinates":[11.23748,43.803938],"type":"Point"},"properties":{"osm_id":"6739612168","tag":{"amenity":"waste_disposal"}},"type":"Feature"},
	{"geometry":{"coordinates":[11.237505,43.803937],"type":"Point"},"properties":{"osm_id":"6739612169","tag":{"amenity":"waste_disposal"}},"type":"Feature"},
	{"geometry":{"coordinates":[11.237538,43.803935],"type":"Point"},"properties":{"osm_id":"6739612170","tag":{"amenity":"waste_disposal"}},"type":"Feature"},
	{"geometry":{"coordinates":[11.237563,43.803933],"type":"Point"},"properties":{"osm_id":"6739612171","tag":{"amenity":"waste_disposal"}},"type":"Feature"},
	{"geometry":{"coordinates":[11.239741,43.803737],"type":"Point"},"properties":{"osm_id":"6739612172","tag":{"amenity":"waste_disposal"}},"type":"Feature"},
	{"geometry":{"coordinates":[11.239779,43.803738],"type":"Point"},"properties":{"osm_id":"6739612173","tag":{"amenity":"waste_disposal"}},"type":"Feature"},
	{"geometry":{"coordinates":[11.239808,43.803731],"type":"Point"},"properties":{"osm_id":"6739612174","tag":{"amenity":"waste_disposal"}},"type":"Feature"},
	{"geometry":{"coordinates":[11.239845,43.803733],"type":"Point"},"properties":{"osm_id":"6739612175","tag":{"amenity":"waste_disposal"}},"type":"Feature"},
	{"geometry":{"coordinates":[11.240283,43.803697],"type":"Point"},"properties":{"osm_id":"6739612176","tag":{"amenity":"waste_disposal"}},"type":"Feature"},
	{"geometry":{"coordinates":[11.240313,43.803696],"type":"Point"},"properties":{"osm_id":"6739612177","tag":{"amenity":"waste_disposal"}},"type":"Feature"},
	{"geometry":{"coordinates":[11.240652,43.803659],"type":"Point"},"properties":{"osm_id":"6739612178","tag":{"amenity":"waste_disposal"}},"type":"Feature"},
	{"geometry":{"coordinates":[11.240676,43.803662],"type":"Point"},"properties":{"osm_id":"6739612179","tag":{"amenity":"waste_disposal"}},"type":"Feature"},
	{"geometry":{"coordinates":[11.240703,43.803659],"type":"Point"},"properties":{"osm_id":"6739612180","tag":{"amenity":"waste_disposal"}},"type":"Feature"},
	{"geometry":{"coordinates":[11.240874,43.804297],"type":"Point"},"properties":{"osm_id":"6739612181","tag":{"amenity":"waste_disposal"}},"type":"Feature"},
	{"geometry":{"coordinates":[11.240907,43.804293],"type":"Point"},"properties":{"osm_id":"6739612182","tag":{"amenity":"waste_disposal"}},"type":"Feature"},
	{"geometry":{"coordinates":[11.240933,43.804294],"type":"Point"},"properties":{"osm_id":"6739612183","tag":{"amenity":"waste_disposal"}},"type":"Feature"},
	{"geometry":{"coordinates":[11.240135,43.804366],"type":"Point"},"properties":{"osm_id":"6739612184","tag":{"amenity":"waste_disposal"}},"type":"Feature"},
	{"geometry":{"coordinates":[11.240156,43.804368],"type":"Point"},"properties":{"osm_id":"6739612285","tag":{"amenity":"waste_disposal"}},"type":"Feature"},
	{"geometry":{"coordinates":[11.238407,43.80546],"type":"Point"},"properties":{"osm_id":"6739612286","tag":{"amenity":"waste_disposal"}},"type":"Feature"},
	{"geometry":{"coordinates":[11.238423,43.805494],"type":"Point"},"properties":{"osm_id":"6739612287","tag":{"amenity":"waste_disposal"}},"type":"Feature"},
	{"geometry":{"coordinates":[11.23845,43.805512],"type":"Point"},"properties":{"osm_id":"6739612288","tag":{"amenity":"waste_disposal"}},"type":"Feature"},
	{"geometry":{"coordinates":[11.238474,43.805536],"type":"Point"},"properties":{"osm_id":"6739612289","tag":{"amenity":"waste_disposal"}},"type":"Feature"},
	{"geometry":{"coordinates":[11.239219,43.805752],"type":"Point"},"properties":{"osm_id":"6739612290","tag":{"amenity":"waste_disposal"}},"type":"Feature"},
	{"geometry":{"coordinates":[11.239242,43.805775],"type":"Point"},"properties":{"osm_id":"6739612291","tag":{"amenity":"waste_disposal"}},"type":"Feature"},
	{"geometry":{"coordinates":[11.239258,43.805804],"type":"Point"},"properties":{"osm_id":"6739612292","tag":{"amenity":"waste_disposal"}},"type":"Feature"},
	{"geometry":{"coordinates":[11.227856,43.789733],"type":"Point"},"properties":{"osm_id":"6785035828","tag":{"amenity":"recycling"}},"type":"Feature"},
	{"geometry":{"coordinates":[11.236197,43.806897],"type":"Point"},"properties":{"osm_id":"6864124633","tag":{"amenity":"recycling"}},"type":"Feature"},
	{"geometry":{"coordinates":[11.23532,43.807641],"type":"Point"},"properties":{"osm_id":"6864124673","tag":{"amenity":"recycling"}},"type":"Feature"},
	{"geometry":{"coordinates":[11.234962,43.804071],"type":"Point"},"properties":{"osm_id":"6864772254","tag":{"amenity":"recycling"}},"type":"Feature"},
	{"geometry":{"coordinates":[11.235401,43.803806],"type":"Point"},"properties":{"osm_id":"6864772270","tag":{"amenity":"recycling"}},"type":"Feature"},
	{"geometry":{"coordinates":[11.233728,43.809338],"type":"Point"},"properties":{"osm_id":"6864772280","tag":{"amenity":"recycling"}},"type":"Feature"},
	{"geometry":{"coordinates":[11.233455,43.805561],"type":"Point"},"properties":{"osm_id":"6864773601","tag":{"amenity":"recycling"}},"type":"Feature"},
	{"geometry":{"coordinates":[11.233757,43.804763],"type":"Point"},"properties":{"osm_id":"6864773779","tag":{"amenity":"recycling"}},"type":"Feature"},
	{"geometry":{"coordinates":[11.23331,43.805693],"type":"Point"},"properties":{"osm_id":"6864773844","tag":{"amenity":"recycling"}},"type":"Feature"},
	{"geometry":{"coordinates":[11.24187,43.79771],"type":"Point"},"properties":{"osm_id":"6866919218","tag":{"amenity":"recycling"}},"type":"Feature"},
	{"geometry":{"coordinates":[11.244516,43.790203],"type":"Point"},"properties":{"osm_id":"6869668019","tag":{"amenity":"recycling"}},"type":"Feature"},
	{"geometry":{"coordinates":[11.244759,43.796629],"type":"Point"},"properties":{"osm_id":"6896705793","tag":{"amenity":"recycling"}},"type":"Feature"},
	{"geometry":{"coordinates":[11.240915,43.794386],"type":"Point"},"properties":{"osm_id":"6896705814","tag":{"amenity":"recycling"}},"type":"Feature"},
	{"geometry":{"coordinates":[11.241393,43.794491],"type":"Point"},"properties":{"osm_id":"6896705824","tag":{"amenity":"recycling"}},"type":"Feature"},
	{"geometry":{"coordinates":[11.240067,43.79628],"type":"Point"},"properties":{"osm_id":"6913711041","tag":{"amenity":"waste_basket"}},"type":"Feature"},
	{"geometry":{"coordinates":[11.239939,43.797033],"type":"Point"},"properties":{"osm_id":"6913711078","tag":{"amenity":"recycling"}},"type":"Feature"},
	{"geometry":{"coordinates":[11.239056,43.797405],"type":"Point"},"properties":{"osm_id":"6913736918","tag":{"amenity":"recycling"}},"type":"Feature"},
	{"geometry":{"coordinates":[11.238357,43.809928],"type":"Point"},"properties":{"osm_id":"6913805300","tag":{"amenity":"recycling"}},"type":"Feature"},
	{"geometry":{"coordinates":[11.238839,43.807549],"type":"Point"},"properties":{"osm_id":"6913805316","tag":{"amenity":"recycling"}},"type":"Feature"},
	{"geometry":{"coordinates":[11.244936,43.779485],"type":"Point"},"properties":{"osm_id":"6938225141","tag":{"amenity":"recycling"}},"type":"Feature"},
	{"geometry":{"coordinates":[11.245166,43.780976],"type":"Point"},"properties":{"osm_id":"6938225144","tag":{"amenity":"recycling"}},"type":"Feature"},
	{"geometry":{"coordinates":[11.244437,43.78266],"type":"Point"},"properties":{"osm_id":"6938225148","tag":{"amenity":"recycling"}},"type":"Feature"},
	{"geometry":{"coordinates":[11.21964,43.794477],"type":"Point"},"properties":{"osm_id":"7171638897","tag":{"amenity":"recycling"}},"type":"Feature"},
	{"geometry":{"coordinates":[11.217832,43.796234],"type":"Point"},"properties":{"osm_id":"7171678299","tag":{"amenity":"recycling"}},"type":"Feature"},
	{"geometry":{"coordinates":[11.234561,43.798165],"type":"Point"},"properties":{"osm_id":"7172103851","tag":{"amenity":"recycling"}},"type":"Feature"},
	{"geometry":{"coordinates":[11.234098,43.800094],"type":"Point"},"properties":{"osm_id":"7172119793","tag":{"amenity":"recycling"}},"type":"Feature"},
	{"geometry":{"coordinates":[11.234813,43.799621],"type":"Point"},"properties":{"osm_id":"7172119855","tag":{"amenity":"recycling"}},"type":"Feature"},
	{"geometry":{"coordinates":[11.224059,43.800802],"type":"Point"},"properties":{"osm_id":"7172119896","tag":{"amenity":"recycling"}},"type":"Feature"},
	{"geometry":{"coordinates":[11.234337,43.797326],"type":"Point"},"properties":{"osm_id":"7172120006","tag":{"amenity":"recycling"}},"type":"Feature"},
	{"geometry":{"coordinates":[11.229112,43.800051],"type":"Point"},"properties":{"osm_id":"7172120020","tag":{"amenity":"recycling"}},"type":"Feature"},
	{"geometry":{"coordinates":[11.233128,43.797796],"type":"Point"},"properties":{"osm_id":"7172120060","tag":{"amenity":"recycling"}},"type":"Feature"},
	{"geometry":{"coordinates":[11.234673,43.796601],"type":"Point"},"properties":{"osm_id":"7172120061","tag":{"amenity":"recycling"}},"type":"Feature"},
	{"geometry":{"coordinates":[11.249606,43.784132],"type":"Point"},"properties":{"osm_id":"7172664189","tag":{"amenity":"recycling"}},"type":"Feature"},
	{"geometry":{"coordinates":[11.249749,43.78583],"type":"Point"},"properties":{"osm_id":"7172664233","tag":{"amenity":"recycling"}},"type":"Feature"},
	{"geometry":{"coordinates":[11.225352,43.789205],"type":"Point"},"properties":{"osm_id":"7176891881","tag":{"amenity":"recycling"}},"type":"Feature"},
	{"geometry":{"coordinates":[11.225905,43.788289],"type":"Point"},"properties":{"osm_id":"7176918428","tag":{"amenity":"recycling"}},"type":"Feature"},
	{"geometry":{"coordinates":[11.223266,43.788659],"type":"Point"},"properties":{"osm_id":"7176918446","tag":{"amenity":"recycling"}},"type":"Feature"},
	{"geometry":{"coordinates":[11.224644,43.789598],"type":"Point"},"properties":{"osm_id":"7176918491","tag":{"amenity":"recycling"}},"type":"Feature"},
	{"geometry":{"coordinates":[11.219406,43.787832],"type":"Point"},"properties":{"osm_id":"7176918504","tag":{"amenity":"recycling"}},"type":"Feature"},
	{"geometry":{"coordinates":[11.225647,43.787495],"type":"Point"},"properties":{"osm_id":"7176918545","tag":{"amenity":"recycling"}},"type":"Feature"},
	{"geometry":{"coordinates":[11.223933,43.788804],"type":"Point"},"properties":{"osm_id":"7176918555","tag":{"amenity":"recycling"}},"type":"Feature"},
	{"geometry":{"coordinates":[11.221297,43.787627],"type":"Point"},"properties":{"osm_id":"7176918579","tag":{"amenity":"recycling"}},"type":"Feature"},
	{"geometry":{"coordinates":[11.22481,43.788065],"type":"Point"},"properties":{"osm_id":"7176918584","tag":{"amenity":"recycling"}},"type":"Feature"},
	{"geometry":{"coordinates":[11.219832,43.787699],"type":"Point"},"properties":{"osm_id":"7176918585","tag":{"amenity":"recycling"}},"type":"Feature"},
	{"geometry":{"coordinates":[11.223823,43.789904],"type":"Point"},"properties":{"osm_id":"7176918604","tag":{"amenity":"recycling"}},"type":"Feature"},
	{"geometry":{"coordinates":[11.224655,43.788473],"type":"Point"},"properties":{"osm_id":"7176918637","tag":{"amenity":"recycling"}},"type":"Feature"},
	{"geometry":{"coordinates":[11.222439,43.774216],"type":"Point"},"properties":{"osm_id":"7181821420","tag":{"amenity":"recycling"}},"type":"Feature"},
	{"geometry":{"coordinates":[11.214286,43.773478],"type":"Point"},"properties":{"osm_id":"7181821428","tag":{"amenity":"recycling"}},"type":"Feature"},
	{"geometry":{"coordinates":[11.218008,43.773589],"type":"Point"},"properties":{"osm_id":"7181821456","tag":{"amenity":"recycling"}},"type":"Feature"},
	{"geometry":{"coordinates":[11.213541,43.77454],"type":"Point"},"properties":{"osm_id":"7181859293","tag":{"amenity":"recycling"}},"type":"Feature"},
	{"geometry":{"coordinates":[11.226488,43.774673],"type":"Point"},"properties":{"osm_id":"7181859294","tag":{"amenity":"recycling"}},"type":"Feature"},
	{"geometry":{"coordinates":[11.219157,43.773707],"type":"Point"},"properties":{"osm_id":"7181859328","tag":{"amenity":"recycling"}},"type":"Feature"},
	{"geometry":{"coordinates":[11.217781,43.773821],"type":"Point"},"properties":{"osm_id":"7181859392","tag":{"amenity":"recycling"}},"type":"Feature"},
	{"geometry":{"coordinates":[11.223328,43.774566],"type":"Point"},"properties":{"osm_id":"7181859438","tag":{"amenity":"recycling"}},"type":"Feature"},
	{"geometry":{"coordinates":[11.215589,43.773295],"type":"Point"},"properties":{"osm_id":"7181859448","tag":{"amenity":"recycling"}},"type":"Feature"},
	{"geometry":{"coordinates":[11.221035,43.773833],"type":"Point"},"properties":{"osm_id":"7181859464","tag":{"amenity":"recycling"}},"type":"Feature"},
	{"geometry":{"coordinates":[11.233739,43.77419],"type":"Point"},"properties":{"osm_id":"7181927202","tag":{"amenity":"recycling"}},"type":"Feature"},
	{"geometry":{"coordinates":[11.200714,43.773999],"type":"Point"},"properties":{"osm_id":"7182151537","tag":{"amenity":"recycling"}},"type":"Feature"},
	{"geometry":{"coordinates":[11.202342,43.775545],"type":"Point"},"properties":{"osm_id":"7182152142","tag":{"amenity":"recycling"}},"type":"Feature"},
	{"geometry":{"coordinates":[11.207435,43.772452],"type":"Point"},"properties":{"osm_id":"7182152182","tag":{"amenity":"recycling"}},"type":"Feature"},
	{"geometry":{"coordinates":[11.203273,43.774394],"type":"Point"},"properties":{"osm_id":"7182152213","tag":{"amenity":"recycling"}},"type":"Feature"},
	{"geometry":{"coordinates":[11.201974,43.774468],"type":"Point"},"properties":{"osm_id":"7182152289","tag":{"amenity":"recycling"}},"type":"Feature"},
	{"geometry":{"coordinates":[11.206073,43.773389],"type":"Point"},"properties":{"osm_id":"7182165988","tag":{"amenity":"recycling"}},"type":"Feature"},
	{"geometry":{"coordinates":[11.206486,43.773015],"type":"Point"},"properties":{"osm_id":"7182174691","tag":{"amenity":"recycling"}},"type":"Feature"},
	{"geometry":{"coordinates":[11.197455,43.779223],"type":"Point"},"properties":{"osm_id":"7182468463","tag":{"amenity":"recycling"}},"type":"Feature"},
	{"geometry":{"coordinates":[11.190822,43.781152],"type":"Point"},"properties":{"osm_id":"7182468472","tag":{"amenity":"recycling"}},"type":"Feature"},
	{"geometry":{"coordinates":[11.198586,43.775143],"type":"Point"},"properties":{"osm_id":"7182509589","tag":{"amenity":"recycling","location":"overground","recycling_type":"container"}},"type":"Feature"},
	{"geometry":{"coordinates":[11.189344,43.781685],"type":"Point"},"properties":{"osm_id":"7182509701","tag":{"amenity":"recycling"}},"type":"Feature"},
	{"geometry":{"coordinates":[11.200115,43.778526],"type":"Point"},"properties":{"osm_id":"7182509878","tag":{"amenity":"recycling"}},"type":"Feature"},
	{"geometry":{"coordinates":[11.202693,43.777544],"type":"Point"},"properties":{"osm_id":"7182509957","tag":{"amenity":"recycling"}},"type":"Feature"},
	{"geometry":{"coordinates":[11.200166,43.776316],"type":"Point"},"properties":{"osm_id":"7182509959","tag":{"amenity":"recycling"}},"type":"Feature"},
	{"geometry":{"coordinates":[11.197532,43.779123],"type":"Point"},"properties":{"osm_id":"7182510065","tag":{"amenity":"recycling"}},"type":"Feature"},
	{"geometry":{"coordinates":[11.186736,43.782626],"type":"Point"},"properties":{"osm_id":"7182510125","tag":{"amenity":"recycling"}},"type":"Feature"},
	{"geometry":{"coordinates":[11.217249,43.778888],"type":"Point"},"properties":{"osm_id":"7182510186","tag":{"amenity":"recycling"}},"type":"Feature"},
	{"geometry":{"coordinates":[11.204224,43.77756],"type":"Point"},"properties":{"osm_id":"7182510210","tag":{"amenity":"recycling"}},"type":"Feature"},
	{"geometry":{"coordinates":[11.206705,43.779175],"type":"Point"},"properties":{"osm_id":"7182510343","tag":{"amenity":"recycling"}},"type":"Feature"},
	{"geometry":{"coordinates":[11.220479,43.775236],"type":"Point"},"properties":{"osm_id":"7193013743","tag":{"amenity":"recycling"}},"type":"Feature"},
	{"geometry":{"coordinates":[11.214446,43.775809],"type":"Point"},"properties":{"osm_id":"7193014643","tag":{"amenity":"recycling"}},"type":"Feature"},
	{"geometry":{"coordinates":[11.220543,43.774427],"type":"Point"},"properties":{"osm_id":"7193014794","tag":{"amenity":"recycling"}},"type":"Feature"},
	{"geometry":{"coordinates":[11.218413,43.775058],"type":"Point"},"properties":{"osm_id":"7193014924","tag":{"amenity":"recycling"}},"type":"Feature"},
	{"geometry":{"coordinates":[11.176901,43.779615],"type":"Point"},"properties":{"osm_id":"7195613813","tag":{"amenity":"recycling"}},"type":"Feature"},
	{"geometry":{"coordinates":[11.232086,43.792012],"type":"Point"},"properties":{"osm_id":"7204063633","tag":{"amenity":"recycling"}},"type":"Feature"},
	{"geometry":{"coordinates":[11.234807,43.791176],"type":"Point"},"properties":{"osm_id":"7206359017","tag":{"amenity":"recycling"}},"type":"Feature"},
	{"geometry":{"coordinates":[11.226106,43.817139],"type":"Point"},"properties":{"osm_id":"7208204920","tag":{"amenity":"recycling"}},"type":"Feature"},
	{"geometry":{"coordinates":[11.202423,43.796645],"type":"Point"},"properties":{"osm_id":"7212731175","tag":{"amenity":"recycling"}},"type":"Feature"},
	{"geometry":{"coordinates":[11.163445,43.795503],"type":"Point"},"properties":{"osm_id":"7212757641","tag":{"amenity":"recycling"}},"type":"Feature"},
	{"geometry":{"coordinates":[11.201479,43.771589],"type":"Point"},"properties":{"osm_id":"7249938675","tag":{"amenity":"recycling"}},"type":"Feature"},
	{"geometry":{"coordinates":[11.198292,43.782188],"type":"Point"},"properties":{"osm_id":"7250002789","tag":{"amenity":"recycling","location":"overground","recycling_type":"container"}},"type":"Feature"},
	{"geometry":{"coordinates":[11.194851,43.780964],"type":"Point"},"properties":{"osm_id":"7250002804","tag":{"amenity":"recycling"}},"type":"Feature"},
	{"geometry":{"coordinates":[11.197916,43.780854],"type":"Point"},"properties":{"osm_id":"7250002815","tag":{"amenity":"recycling"}},"type":"Feature"},
	{"geometry":{"coordinates":[11.196696,43.780585],"type":"Point"},"properties":{"osm_id":"7250002840","tag":{"amenity":"recycling"}},"type":"Feature"},
	{"geometry":{"coordinates":[11.195599,43.782723],"type":"Point"},"properties":{"osm_id":"7250002874","tag":{"amenity":"recycling"}},"type":"Feature"},
	{"geometry":{"coordinates":[11.210509,43.780805],"type":"Point"},"properties":{"osm_id":"7250103178","tag":{"amenity":"recycling","location":"overground","recycling_type":"container"}},"type":"Feature"},
	{"geometry":{"coordinates":[11.212019,43.778243],"type":"Point"},"properties":{"osm_id":"7250103184","tag":{"amenity":"recycling","location":"overground","recycling:cans":"yes","recycling:glass_bottles":"yes","recycling:green_waste":"yes","recycling:paper":"yes","recycling:plastic":"yes","recycling_type":"container"}},"type":"Feature"},
	{"geometry":{"coordinates":[11.180664,43.798385],"type":"Point"},"properties":{"osm_id":"7288462230","tag":{"amenity":"recycling"}},"type":"Feature"},
	{"geometry":{"coordinates":[11.176997,43.798201],"type":"Point"},"properties":{"osm_id":"7288462258","tag":{"amenity":"recycling"}},"type":"Feature"},
	{"geometry":{"coordinates":[11.171323,43.795455],"type":"Point"},"properties":{"osm_id":"7288462495","tag":{"amenity":"recycling"}},"type":"Feature"},
	{"geometry":{"coordinates":[11.174458,43.797051],"type":"Point"},"properties":{"osm_id":"7288462711","tag":{"amenity":"recycling"}},"type":"Feature"},
	{"geometry":{"coordinates":[11.176989,43.796037],"type":"Point"},"properties":{"osm_id":"7288462757","tag":{"amenity":"recycling"}},"type":"Feature"},
	{"geometry":{"coordinates":[11.172578,43.797166],"type":"Point"},"properties":{"osm_id":"7288462782","tag":{"amenity":"recycling"}},"type":"Feature"},
	{"geometry":{"coordinates":[11.182746,43.797838],"type":"Point"},"properties":{"osm_id":"7288462814","tag":{"amenity":"recycling"}},"type":"Feature"},
	{"geometry":{"coordinates":[11.168906,43.796475],"type":"Point"},"properties":{"osm_id":"7288490040","tag":{"amenity":"recycling"}},"type":"Feature"},
	{"geometry":{"coordinates":[11.232232,43.78754],"type":"Point"},"properties":{"osm_id":"7288604668","tag":{"amenity":"recycling"}},"type":"Feature"},
	{"geometry":{"coordinates":[11.233342,43.787435],"type":"Point"},"properties":{"osm_id":"7288604669","tag":{"amenity":"recycling"}},"type":"Feature"},
	{"geometry":{"coordinates":[11.233707,43.78688],"type":"Point"},"properties":{"osm_id":"7288604671","tag":{"amenity":"recycling"}},"type":"Feature"},
	{"geometry":{"coordinates":[11.166178,43.796382],"type":"Point"},"properties":{"osm_id":"7288808089","tag":{"amenity":"recycling"}},"type":"Feature"},
	{"geometry":{"coordinates":[11.167608,43.793895],"type":"Point"},"properties":{"osm_id":"7288818311","tag":{"amenity":"recycling"}},"type":"Feature"},
	{"geometry":{"coordinates":[11.214858,43.796729],"type":"Point"},"properties":{"osm_id":"7288952681","tag":{"amenity":"recycling"}},"type":"Feature"},
	{"geometry":{"coordinates":[11.216333,43.796207],"type":"Point"},"properties":{"osm_id":"7288952690","tag":{"amenity":"recycling"}},"type":"Feature"},
	{"geometry":{"coordinates":[11.222097,43.794253],"type":"Point"},"properties":{"osm_id":"7288952693","tag":{"amenity":"recycling"}},"type":"Feature"},
	{"geometry":{"coordinates":[11.214837,43.793729],"type":"Point"},"properties":{"osm_id":"7288952714","tag":{"amenity":"recycling"}},"type":"Feature"},
	{"geometry":{"coordinates":[11.220245,43.79568],"type":"Point"},"properties":{"osm_id":"7288952821","tag":{"amenity":"recycling"}},"type":"Feature"},
	{"geometry":{"coordinates":[11.217165,43.795783],"type":"Point"},"properties":{"osm_id":"7288952852","tag":{"amenity":"recycling"}},"type":"Feature"},
	{"geometry":{"coordinates":[11.22004,43.795764],"type":"Point"},"properties":{"osm_id":"7288952940","tag":{"amenity":"recycling"}},"type":"Feature"},
	{"geometry":{"coordinates":[11.224699,43.815749],"type":"Point"},"properties":{"osm_id":"7289649905","tag":{"amenity":"recycling"}},"type":"Feature"},
	{"geometry":{"coordinates":[11.223802,43.807982],"type":"Point"},"properties":{"osm_id":"7291604703","tag":{"amenity":"recycling"}},"type":"Feature"},
	{"geometry":{"coordinates":[11.213079,43.796667],"type":"Point"},"properties":{"osm_id":"7291674525","tag":{"amenity":"recycling"}},"type":"Feature"},
	{"geometry":{"coordinates":[11.222352,43.772366],"type":"Point"},"properties":{"osm_id":"7292162767","tag":{"amenity":"recycling"}},"type":"Feature"},
	{"geometry":{"coordinates":[11.237813,43.78293],"type":"Point"},"properties":{"osm_id":"7294788160","tag":{"amenity":"recycling"}},"type":"Feature"},
	{"geometry":{"coordinates":[11.238865,43.780712],"type":"Point"},"properties":{"osm_id":"7294794219","tag":{"amenity":"recycling"}},"type":"Feature"},
	{"geometry":{"coordinates":[11.239651,43.780054],"type":"Point"},"properties":{"osm_id":"7294794220","tag":{"amenity":"recycling"}},"type":"Feature"},
	{"geometry":{"coordinates":[11.238213,43.783853],"type":"Point"},"properties":{"osm_id":"7294794221","tag":{"amenity":"recycling"}},"type":"Feature"},
	{"geometry":{"coordinates":[11.240007,43.782562],"type":"Point"},"properties":{"osm_id":"7294794222","tag":{"amenity":"recycling"}},"type":"Feature"},
	{"geometry":{"coordinates":[11.238559,43.782124],"type":"Point"},"properties":{"osm_id":"7294794223","tag":{"amenity":"recycling"}},"type":"Feature"},
	{"geometry":{"coordinates":[11.227259,43.789083],"type":"Point"},"properties":{"osm_id":"7296680821","tag":{"amenity":"recycling"}},"type":"Feature"},
	{"geometry":{"coordinates":[11.22476,43.791338],"type":"Point"},"properties":{"osm_id":"7296680823","tag":{"amenity":"recycling"}},"type":"Feature"},
	{"geometry":{"coordinates":[11.222263,43.792482],"type":"Point"},"properties":{"osm_id":"7296680827","tag":{"amenity":"recycling"}},"type":"Feature"},
	{"geometry":{"coordinates":[11.220749,43.791088],"type":"Point"},"properties":{"osm_id":"7296680830","tag":{"amenity":"recycling"}},"type":"Feature"},
	{"geometry":{"coordinates":[11.214637,43.792606],"type":"Point"},"properties":{"osm_id":"7296680846","tag":{"amenity":"recycling"}},"type":"Feature"},
	{"geometry":{"coordinates":[11.221297,43.792928],"type":"Point"},"properties":{"osm_id":"7296680849","tag":{"amenity":"recycling"}},"type":"Feature"},
	{"geometry":{"coordinates":[11.220065,43.793026],"type":"Point"},"properties":{"osm_id":"7296680852","tag":{"amenity":"recycling"}},"type":"Feature"},
	{"geometry":{"coordinates":[11.217273,43.792444],"type":"Point"},"properties":{"osm_id":"7296680856","tag":{"amenity":"recycling"}},"type":"Feature"},
	{"geometry":{"coordinates":[11.221449,43.791855],"type":"Point"},"properties":{"osm_id":"7296680858","tag":{"amenity":"recycling"}},"type":"Feature"},
	{"geometry":{"coordinates":[11.215449,43.793046],"type":"Point"},"properties":{"osm_id":"7296680859","tag":{"amenity":"recycling"}},"type":"Feature"},
	{"geometry":{"coordinates":[11.2184,43.793954],"type":"Point"},"properties":{"osm_id":"7296680861","tag":{"amenity":"recycling"}},"type":"Feature"},
	{"geometry":{"coordinates":[11.217957,43.791962],"type":"Point"},"properties":{"osm_id":"7296680862","tag":{"amenity":"recycling"}},"type":"Feature"},
	{"geometry":{"coordinates":[11.218596,43.793054],"type":"Point"},"properties":{"osm_id":"7296680863","tag":{"amenity":"recycling"}},"type":"Feature"},
	{"geometry":{"coordinates":[11.219043,43.793272],"type":"Point"},"properties":{"osm_id":"7296680866","tag":{"amenity":"recycling"}},"type":"Feature"},
	{"geometry":{"coordinates":[11.216576,43.794446],"type":"Point"},"properties":{"osm_id":"7296680867","tag":{"amenity":"recycling"}},"type":"Feature"},
	{"geometry":{"coordinates":[11.219499,43.793569],"type":"Point"},"properties":{"osm_id":"7296680871","tag":{"amenity":"recycling"}},"type":"Feature"},
	{"geometry":{"coordinates":[11.220258,43.795198],"type":"Point"},"properties":{"osm_id":"7296718247","tag":{"amenity":"recycling"}},"type":"Feature"},
	{"geometry":{"coordinates":[11.195504,43.778415],"type":"Point"},"properties":{"osm_id":"7316304002","tag":{"amenity":"recycling","location":"overground","recycling_type":"container"}},"type":"Feature"},
	{"geometry":{"coordinates":[11.196062,43.778204],"type":"Point"},"properties":{"osm_id":"7316304009","tag":{"amenity":"recycling"}},"type":"Feature"},
	{"geometry":{"coordinates":[11.248328,43.773626],"type":"Point"},"properties":{"osm_id":"7476789805","tag":{"amenity":"recycling"}},"type":"Feature"},
	{"geometry":{"coordinates":[11.248944,43.773298],"type":"Point"},"properties":{"osm_id":"7476789811","tag":{"amenity":"waste_basket"}},"type":"Feature"},
	{"geometry":{"coordinates":[11.240793,43.776875],"type":"Point"},"properties":{"osm_id":"7476848436","tag":{"amenity":"recycling"}},"type":"Feature"},
	{"geometry":{"coordinates":[11.218701,43.820393],"type":"Point"},"properties":{"osm_id":"7476921520","tag":{"amenity":"recycling"}},"type":"Feature"},
	{"geometry":{"coordinates":[11.248666,43.771999],"type":"Point"},"properties":{"osm_id":"7485085135","tag":{"amenity":"recycling","location":"overground","recycling_type":"container"}},"type":"Feature"},
	{"geometry":{"coordinates":[11.23163,43.78425],"type":"Point"},"properties":{"osm_id":"7489921356","tag":{"amenity":"recycling"}},"type":"Feature"},
	{"geometry":{"coordinates":[11.238633,43.782438],"type":"Point"},"properties":{"osm_id":"7494994443","tag":{"amenity":"waste_basket"}},"type":"Feature"},
	{"geometry":{"coordinates":[11.240694,43.784114],"type":"Point"},"properties":{"osm_id":"7494994454","tag":{"amenity":"recycling"}},"type":"Feature"},
	{"geometry":{"coordinates":[11.235095,43.787878],"type":"Point"},"properties":{"osm_id":"7495067890","tag":{"amenity":"recycling"}},"type":"Feature"},
	{"geometry":{"coordinates":[11.229009,43.788447],"type":"Point"},"properties":{"osm_id":"7495067897","tag":{"amenity":"recycling"}},"type":"Feature"},
	{"geometry":{"coordinates":[11.228486,43.787948],"type":"Point"},"properties":{"osm_id":"7495067901","tag":{"amenity":"recycling"}},"type":"Feature"},
	{"geometry":{"coordinates":[11.240589,43.778742],"type":"Point"},"properties":{"osm_id":"7933488180","tag":{"amenity":"recycling","recycling_type":"container"}},"type":"Feature"},
	{"geometry":{"coordinates":[11.213801,43.779314],"type":"Point"},"properties":{"osm_id":"7933515008","tag":{"amenity":"recycling","recycling_type":"container"}},"type":"Feature"},
	{"geometry":{"coordinates":[11.212383,43.780059],"type":"Point"},"properties":{"osm_id":"7933515009","tag":{"amenity":"recycling","recycling_type":"container"}},"type":"Feature"},
	{"geometry":{"coordinates":[11.211345,43.78052],"type":"Point"},"properties":{"osm_id":"7933515011","tag":{"amenity":"recycling","recycling_type":"container"}},"type":"Feature"},
	{"geometry":{"coordinates":[11.24243,43.781178],"type":"Point"},"properties":{"osm_id":"7936589851","tag":{"amenity":"recycling","recycling_type":"container"}},"type":"Feature"},
	{"geometry":{"coordinates":[11.217236,43.779406],"type":"Point"},"properties":{"osm_id":"7938029051","tag":{"amenity":"recycling","recycling_type":"container"}},"type":"Feature"}
]
}
