{
"type": "FeatureCollection",
"features": [
	{"geometry":{"coordinates":[11.242041,43.759782],"type":"Point"},"properties":{"osm_id":"3519959650","tag":{"amenity":"waste_basket"}},"type":"Feature"},
	{"geometry":{"coordinates":[11.24328,43.7574],"type":"Point"},"properties":{"osm_id":"3519959973","tag":{"amenity":"waste_basket"}},"type":"Feature"},
	{"geometry":{"coordinates":[11.242227,43.760145],"type":"Point"},"properties":{"osm_id":"3519960106","tag":{"amenity":"waste_basket"}},"type":"Feature"},
	{"geometry":{"coordinates":[11.245358,43.756851],"type":"Point"},"properties":{"osm_id":"3519960321","tag":{"amenity":"recycling","recycling_type":"container"}},"type":"Feature"},
	{"geometry":{"coordinates":[11.241953,43.759948],"type":"Point"},"properties":{"osm_id":"3519960593","tag":{"amenity":"waste_basket"}},"type":"Feature"},
	{"geometry":{"coordinates":[11.178412,43.74823],"type":"Point"},"properties":{"osm_id":"4639630344","tag":{"amenity":"recycling","recycling_type":"container"}},"type":"Feature"},
	{"geometry":{"coordinates":[11.240001,43.764006],"type":"Point"},"properties":{"osm_id":"4874987745","tag":{"amenity":"recycling"}},"type":"Feature"},
	{"geometry":{"coordinates":[11.245099,43.768963],"type":"Point"},"properties":{"osm_id":"5200383122","tag":{"amenity":"waste_basket"}},"type":"Feature"},
	{"geometry":{"coordinates":[11.249809,43.765836],"type":"Point"},"properties":{"osm_id":"6008487181","tag":{"amenity":"waste_basket"}},"type":"Feature"},
	{"geometry":{"coordinates":[11.247253,43.76627],"type":"Point"},"properties":{"osm_id":"6304518405","tag":{"amenity":"waste_basket"}},"type":"Feature"},
	{"geometry":{"coordinates":[11.246885,43.766279],"type":"Point"},"properties":{"osm_id":"6304518407","tag":{"amenity":"recycling","location":"underground","operator":"Alia","recycling:green_waste":"yes","recycling_type":"container"}},"type":"Feature"},
	{"geometry":{"coordinates":[11.246779,43.766494],"type":"Point"},"properties":{"osm_id":"6304518411","tag":{"amenity":"waste_basket"}},"type":"Feature"},
	{"geometry":{"coordinates":[11.247003,43.766495],"type":"Point"},"properties":{"osm_id":"6304518998","tag":{"amenity":"waste_basket"}},"type":"Feature"},
	{"geometry":{"coordinates":[11.247108,43.76638],"type":"Point"},"properties":{"osm_id":"6304519006","tag":{"amenity":"waste_basket"}},"type":"Feature"},
	{"geometry":{"coordinates":[11.245988,43.767384],"type":"Point"},"properties":{"osm_id":"6304538573","tag":{"amenity":"recycling","location":"underground","operator":"Alia","recycling_type":"container"}},"type":"Feature"},
	{"geometry":{"coordinates":[11.247916,43.770792],"type":"Point"},"properties":{"osm_id":"6311696614","tag":{"amenity":"waste_basket"}},"type":"Feature"},
	{"geometry":{"coordinates":[11.248564,43.771059],"type":"Point"},"properties":{"osm_id":"6311696619","tag":{"amenity":"waste_basket"}},"type":"Feature"},
	{"geometry":{"coordinates":[11.220724,43.769336],"type":"Point"},"properties":{"osm_id":"6336210310","tag":{"amenity":"recycling"}},"type":"Feature"},
	{"geometry":{"coordinates":[11.216502,43.767568],"type":"Point"},"properties":{"osm_id":"6336210315","tag":{"amenity":"recycling"}},"type":"Feature"},
	{"geometry":{"coordinates":[11.218465,43.76852],"type":"Point"},"properties":{"osm_id":"6336210345","tag":{"amenity":"recycling"}},"type":"Feature"},
	{"geometry":{"coordinates":[11.217859,43.766799],"type":"Point"},"properties":{"osm_id":"6336210347","tag":{"amenity":"recycling"}},"type":"Feature"},
	{"geometry":{"coordinates":[11.218755,43.767492],"type":"Point"},"properties":{"osm_id":"6336210348","tag":{"amenity":"recycling"}},"type":"Feature"},
	{"geometry":{"coordinates":[11.19546,43.769988],"type":"Point"},"properties":{"osm_id":"6336263134","tag":{"amenity":"recycling"}},"type":"Feature"},
	{"geometry":{"coordinates":[11.215153,43.770075],"type":"Point"},"properties":{"osm_id":"6336344720","tag":{"amenity":"recycling"}},"type":"Feature"},
	{"geometry":{"coordinates":[11.219678,43.770497],"type":"Point"},"properties":{"osm_id":"6336344768","tag":{"amenity":"recycling"}},"type":"Feature"},
	{"geometry":{"coordinates":[11.213334,43.770635],"type":"Point"},"properties":{"osm_id":"6336344778","tag":{"amenity":"recycling"}},"type":"Feature"},
	{"geometry":{"coordinates":[11.218439,43.770093],"type":"Point"},"properties":{"osm_id":"6336345088","tag":{"amenity":"recycling"}},"type":"Feature"},
	{"geometry":{"coordinates":[11.221502,43.77023],"type":"Point"},"properties":{"osm_id":"6336345092","tag":{"amenity":"recycling"}},"type":"Feature"},
	{"geometry":{"coordinates":[11.248228,43.765231],"type":"Point"},"properties":{"osm_id":"6389267038","tag":{"amenity":"recycling","location":"underground"}},"type":"Feature"},
	{"geometry":{"coordinates":[11.227662,43.740407],"type":"Point"},"properties":{"osm_id":"6434652947","tag":{"amenity":"recycling"}},"type":"Feature"},
	{"geometry":{"coordinates":[11.204042,43.759477],"type":"Point"},"properties":{"osm_id":"6436955137","tag":{"amenity":"recycling"}},"type":"Feature"},
	{"geometry":{"coordinates":[11.247524,43.766721],"type":"Point"},"properties":{"osm_id":"6564734591","tag":{"amenity":"waste_basket"}},"type":"Feature"},
	{"geometry":{"coordinates":[11.247663,43.766943],"type":"Point"},"properties":{"osm_id":"6564742060","tag":{"amenity":"waste_basket"}},"type":"Feature"},
	{"geometry":{"coordinates":[11.247563,43.766694],"type":"Point"},"properties":{"osm_id":"6564742275","tag":{"amenity":"waste_basket"}},"type":"Feature"},
	{"geometry":{"coordinates":[11.248153,43.766903],"type":"Point"},"properties":{"osm_id":"6564742689","tag":{"amenity":"waste_basket"}},"type":"Feature"},
	{"geometry":{"coordinates":[11.237446,43.748592],"type":"Point"},"properties":{"osm_id":"6988308900","tag":{"amenity":"recycling"}},"type":"Feature"},
	{"geometry":{"coordinates":[11.207697,43.759743],"type":"Point"},"properties":{"osm_id":"7019195099","tag":{"amenity":"recycling"}},"type":"Feature"},
	{"geometry":{"coordinates":[11.207886,43.759655],"type":"Point"},"properties":{"osm_id":"7019195305","tag":{"amenity":"recycling"}},"type":"Feature"},
	{"geometry":{"coordinates":[11.223503,43.76833],"type":"Point"},"properties":{"osm_id":"7062689093","tag":{"amenity":"recycling"}},"type":"Feature"},
	{"geometry":{"coordinates":[11.247506,43.769559],"type":"Point"},"properties":{"osm_id":"7104513096","tag":{"amenity":"waste_disposal","operator":"Alia Eco\u00c2\u00b0"}},"type":"Feature"},
	{"geometry":{"coordinates":[11.217959,43.765726],"type":"Point"},"properties":{"osm_id":"7183946071","tag":{"amenity":"recycling"}},"type":"Feature"},
	{"geometry":{"coordinates":[11.218977,43.764286],"type":"Point"},"properties":{"osm_id":"7183961562","tag":{"amenity":"recycling"}},"type":"Feature"},
	{"geometry":{"coordinates":[11.218347,43.771038],"type":"Point"},"properties":{"osm_id":"7184021765","tag":{"amenity":"recycling"}},"type":"Feature"},
	{"geometry":{"coordinates":[11.235582,43.76972],"type":"Point"},"properties":{"osm_id":"7184382221","tag":{"amenity":"recycling"}},"type":"Feature"},
	{"geometry":{"coordinates":[11.238988,43.768698],"type":"Point"},"properties":{"osm_id":"7184382236","tag":{"amenity":"recycling"}},"type":"Feature"},
	{"geometry":{"coordinates":[11.234762,43.769735],"type":"Point"},"properties":{"osm_id":"7184393111","tag":{"amenity":"recycling"}},"type":"Feature"},
	{"geometry":{"coordinates":[11.238855,43.766417],"type":"Point"},"properties":{"osm_id":"7184393116","tag":{"amenity":"recycling"}},"type":"Feature"},
	{"geometry":{"coordinates":[11.2363,43.768835],"type":"Point"},"properties":{"osm_id":"7184393261","tag":{"amenity":"recycling"}},"type":"Feature"},
	{"geometry":{"coordinates":[11.234693,43.769601],"type":"Point"},"properties":{"osm_id":"7184393283","tag":{"amenity":"recycling"}},"type":"Feature"},
	{"geometry":{"coordinates":[11.235114,43.748853],"type":"Point"},"properties":{"osm_id":"7227072777","tag":{"amenity":"recycling"}},"type":"Feature"},
	{"geometry":{"coordinates":[11.223437,43.739325],"type":"Point"},"properties":{"osm_id":"7227080952","tag":{"amenity":"recycling"}},"type":"Feature"},
	{"geometry":{"coordinates":[11.217399,43.7326],"type":"Point"},"properties":{"osm_id":"7230327053","tag":{"amenity":"recycling"}},"type":"Feature"},
	{"geometry":{"coordinates":[11.244515,43.763257],"type":"Point"},"properties":{"osm_id":"7231494187","tag":{"amenity":"recycling"}},"type":"Feature"},
	{"geometry":{"coordinates":[11.206283,43.770413],"type":"Point"},"properties":{"osm_id":"7249942242","tag":{"amenity":"recycling"}},"type":"Feature"},
	{"geometry":{"coordinates":[11.18886,43.76706],"type":"Point"},"properties":{"osm_id":"7292022690","tag":{"amenity":"recycling"}},"type":"Feature"},
	{"geometry":{"coordinates":[11.217431,43.768793],"type":"Point"},"properties":{"osm_id":"7294745401","tag":{"amenity":"recycling"}},"type":"Feature"},
	{"geometry":{"coordinates":[11.248109,43.759571],"type":"Point"},"properties":{"osm_id":"7319935804","tag":{"amenity":"recycling"}},"type":"Feature"},
	{"geometry":{"coordinates":[11.248114,43.760654],"type":"Point"},"properties":{"osm_id":"7319938072","tag":{"amenity":"recycling"}},"type":"Feature"},
	{"geometry":{"coordinates":[11.24349,43.751633],"type":"Point"},"properties":{"osm_id":"7365236449","tag":{"amenity":"recycling","location":"overground","recycling:cans":"yes","recycling:glass_bottles":"yes","recycling:green_waste":"yes","recycling:paper":"yes","recycling:plastic":"no","recycling:plastic_packaging":"yes","recycling_type":"container"}},"type":"Feature"},
	{"geometry":{"coordinates":[11.238398,43.760598],"type":"Point"},"properties":{"osm_id":"7473524053","tag":{"amenity":"recycling"}},"type":"Feature"},
	{"geometry":{"coordinates":[11.24113,43.758818],"type":"Point"},"properties":{"osm_id":"7473653037","tag":{"amenity":"recycling"}},"type":"Feature"},
	{"geometry":{"coordinates":[11.225893,43.738332],"type":"Point"},"properties":{"osm_id":"7474423195","tag":{"amenity":"recycling"}},"type":"Feature"},
	{"geometry":{"coordinates":[11.224131,43.736447],"type":"Point"},"properties":{"osm_id":"7474423206","tag":{"amenity":"recycling"}},"type":"Feature"},
	{"geometry":{"coordinates":[11.237544,43.738953],"type":"Point"},"properties":{"osm_id":"7474423218","tag":{"amenity":"recycling"}},"type":"Feature"},
	{"geometry":{"coordinates":[11.22725,43.73686],"type":"Point"},"properties":{"osm_id":"7474423226","tag":{"amenity":"recycling"}},"type":"Feature"},
	{"geometry":{"coordinates":[11.23623,43.738631],"type":"Point"},"properties":{"osm_id":"7474423253","tag":{"amenity":"recycling"}},"type":"Feature"},
	{"geometry":{"coordinates":[11.241117,43.739133],"type":"Point"},"properties":{"osm_id":"7474423265","tag":{"amenity":"recycling"}},"type":"Feature"},
	{"geometry":{"coordinates":[11.224394,43.739024],"type":"Point"},"properties":{"osm_id":"7474423277","tag":{"amenity":"recycling"}},"type":"Feature"},
	{"geometry":{"coordinates":[11.234074,43.738247],"type":"Point"},"properties":{"osm_id":"7474423280","tag":{"amenity":"recycling"}},"type":"Feature"}
]
}
