{
"type": "FeatureCollection",
"features": [
	{"geometry":{"coordinates":[-6.546758,53.380972],"type":"Point"},"properties":{"name":"green waste","osm_id":"338751265","tag":{"amenity":"waste_disposal","name:ga":"Dramhail ghlas"}},"type":"Feature"},
	{"geometry":{"coordinates":[-6.58903,53.380717],"type":"Point"},"properties":{"osm_id":"432504596","tag":{"amenity":"recycling","recycling:cans":"yes","recycling:clothes":"yes","recycling:glass":"yes","recycling:paper":"yes","recycling:scrap_metal":"yes"}},"type":"Feature"},
	{"geometry":{"coordinates":[-6.580875,53.381718],"type":"Point"},"properties":{"osm_id":"470244852","tag":{"amenity":"recycling","recycling:cans":"yes","recycling:clothes":"yes","recycling:glass":"yes","recycling_type":"centre"}},"type":"Feature"},
	{"geometry":{"coordinates":[-6.542492,53.34391],"type":"Point"},"properties":{"name":"Tesco Car Park","osm_id":"700834194","tag":{"amenity":"recycling","description":"Glass and clothes recycling centre"}},"type":"Feature"},
	{"geometry":{"coordinates":[-6.528399,53.349048],"type":"Point"},"properties":{"osm_id":"1243040389","tag":{"amenity":"waste_basket","waste":"dog_excrement"}},"type":"Feature"},
	{"geometry":{"coordinates":[-6.529071,53.33138],"type":"Point"},"properties":{"osm_id":"1261993586","tag":{"amenity":"recycling","recycling:cans":"yes","recycling:glass":"yes","recycling:glass_bottles":"yes","recycling_type":"container"}},"type":"Feature"},
	{"geometry":{"coordinates":[-6.514937,53.371199],"type":"Point"},"properties":{"osm_id":"1470723127","tag":{"amenity":"recycling","location":"overground","recycling_type":"container"}},"type":"Feature"},
	{"geometry":{"coordinates":[-6.591504,53.382177],"type":"Point"},"properties":{"osm_id":"1827758991","tag":{"amenity":"waste_basket"}},"type":"Feature"},
	{"geometry":{"coordinates":[-6.59153,53.38262],"type":"Point"},"properties":{"osm_id":"1827759006","tag":{"amenity":"waste_basket"}},"type":"Feature"},
	{"geometry":{"coordinates":[-6.538183,53.340113],"type":"Point"},"properties":{"osm_id":"2439265932","tag":{"amenity":"waste_basket"}},"type":"Feature"},
	{"geometry":{"coordinates":[-6.532673,53.338896],"type":"Point"},"properties":{"osm_id":"2497794889","tag":{"amenity":"recycling","recycling:cans":"yes","recycling:glass":"yes","recycling_type":"container"}},"type":"Feature"},
	{"geometry":{"coordinates":[-6.591422,53.381482],"type":"Point"},"properties":{"osm_id":"5016442123","tag":{"amenity":"waste_basket"}},"type":"Feature"},
	{"geometry":{"coordinates":[-6.591217,53.381435],"type":"Point"},"properties":{"osm_id":"5016442124","tag":{"amenity":"waste_basket"}},"type":"Feature"},
	{"geometry":{"coordinates":[-6.589914,53.381921],"type":"Point"},"properties":{"osm_id":"5016442126","tag":{"amenity":"waste_basket"}},"type":"Feature"},
	{"geometry":{"coordinates":[-6.591404,53.381487],"type":"Point"},"properties":{"osm_id":"5016464122","tag":{"amenity":"waste_basket"}},"type":"Feature"},
	{"geometry":{"coordinates":[-6.590622,53.381709],"type":"Point"},"properties":{"osm_id":"5016464123","tag":{"amenity":"waste_basket"}},"type":"Feature"},
	{"geometry":{"coordinates":[-6.590607,53.381715],"type":"Point"},"properties":{"osm_id":"5016464124","tag":{"amenity":"waste_basket"}},"type":"Feature"},
	{"geometry":{"coordinates":[-6.589588,53.382056],"type":"Point"},"properties":{"osm_id":"5016464222","tag":{"amenity":"waste_basket"}},"type":"Feature"},
	{"geometry":{"coordinates":[-6.591741,53.381382],"type":"Point"},"properties":{"osm_id":"5016464422","tag":{"amenity":"waste_basket"}},"type":"Feature"},
	{"geometry":{"coordinates":[-6.59178,53.381234],"type":"Point"},"properties":{"osm_id":"5016465021","tag":{"amenity":"waste_basket"}},"type":"Feature"},
	{"geometry":{"coordinates":[-6.59047,53.381663],"type":"Point"},"properties":{"osm_id":"5016465026","tag":{"amenity":"waste_basket"}},"type":"Feature"},
	{"geometry":{"coordinates":[-6.589184,53.382018],"type":"Point"},"properties":{"osm_id":"5016465028","tag":{"amenity":"waste_basket"}},"type":"Feature"},
	{"geometry":{"coordinates":[-6.586416,53.374112],"type":"Point"},"properties":{"osm_id":"5643812085","tag":{"amenity":"waste_basket"}},"type":"Feature"},
	{"geometry":{"coordinates":[-6.506231,53.344598],"type":"Point"},"properties":{"osm_id":"5673948028","tag":{"amenity":"waste_basket"}},"type":"Feature"},
	{"geometry":{"coordinates":[-6.511614,53.343372],"type":"Point"},"properties":{"osm_id":"5673948043","tag":{"amenity":"waste_basket"}},"type":"Feature"},
	{"geometry":{"coordinates":[-6.587447,53.377877],"type":"Point"},"properties":{"osm_id":"5888608591","tag":{"amenity":"waste_basket"}},"type":"Feature"},
	{"geometry":{"coordinates":[-6.530168,53.335973],"type":"Point"},"properties":{"osm_id":"7332874882","tag":{"amenity":"waste_basket","bin":"yes","waste":"trash"}},"type":"Feature"}
]
}
