{
"type": "FeatureCollection",
"lastupdate": "2020-08-03T00:00:00Z",
"features": [
	{"geometry":{"coordinates":[-6.590288,42.548683],"type":"Point"},"properties":{"osm_id":"990477898","tag":{"addr:city":"Ponferrada","addr:postcode":"24401","amenity":"recycling","recycling_type":"container"}},"type":"Feature"},
	{"geometry":{"coordinates":[-6.589608,42.549355],"type":"Point"},"properties":{"osm_id":"990477902","tag":{"addr:city":"Ponferrada","addr:postcode":"24401","amenity":"recycling","recycling_type":"container"}},"type":"Feature"},
	{"geometry":{"coordinates":[-6.590302,42.548269],"type":"Point"},"properties":{"osm_id":"990477904","tag":{"addr:city":"Ponferrada","addr:postcode":"24401","amenity":"recycling","recycling_type":"container"}},"type":"Feature"},
	{"geometry":{"coordinates":[-6.5892,42.550408],"type":"Point"},"properties":{"osm_id":"990477905","tag":{"addr:city":"Ponferrada","addr:postcode":"24401","amenity":"recycling","recycling_type":"container"}},"type":"Feature"},
	{"geometry":{"coordinates":[-6.584032,42.550489],"type":"Point"},"properties":{"osm_id":"3013736113","tag":{"amenity":"recycling","mapillary":"xqKSdSU6pWyMERo5Te6GVA","recycling:cans":"yes","recycling:glass_bottles":"yes","recycling:paper":"yes","recycling_type":"container","survey:date":"2019-03-24"}},"type":"Feature"},
	{"geometry":{"coordinates":[-6.588483,42.545795],"type":"Point"},"properties":{"osm_id":"3443324058","tag":{"amenity":"recycling","recycling:cans":"yes","recycling:glass_bottles":"yes","recycling:paper":"yes","recycling_type":"container"}},"type":"Feature"}
]
}
