{
"type": "FeatureCollection",
"features": [
	{"geometry":{"coordinates":[-6.561114,37.891662],"type":"Point"},"properties":{"osm_id":"3984778544","tag":{"amenity":"waste_disposal"}},"type":"Feature"},
	{"geometry":{"coordinates":[-6.564086,37.893735],"type":"Point"},"properties":{"osm_id":"3984778545","tag":{"amenity":"waste_disposal","recycling:cans":"no","recycling:clothes":"no","recycling:glass":"no","recycling:glass_bottles":"no","recycling:paper":"yes","recycling_type":"container"}},"type":"Feature"},
	{"geometry":{"coordinates":[-6.561669,37.894366],"type":"Point"},"properties":{"osm_id":"3984778546","tag":{"amenity":"waste_disposal"}},"type":"Feature"},
	{"geometry":{"coordinates":[-6.563461,37.893386],"type":"Point"},"properties":{"osm_id":"3984778547","tag":{"amenity":"recycling","recycling:glass_bottles":"yes","recycling:plastic":"yes","recycling:waste":"yes"}},"type":"Feature"},
	{"geometry":{"coordinates":[-6.563992,37.89394],"type":"Point"},"properties":{"osm_id":"4002437335","tag":{"amenity":"recycling","recycling:cans":"no","recycling:clothes":"yes","recycling:glass":"no","recycling:glass_bottles":"no","recycling:paper":"no","recycling:plastic":"no","recycling_type":"container"}},"type":"Feature"},
	{"geometry":{"coordinates":[-6.568029,37.890931],"type":"Point"},"properties":{"osm_id":"4013504117","tag":{"amenity":"recycling"}},"type":"Feature"},
	{"geometry":{"coordinates":[-6.571269,37.887085],"type":"Point"},"properties":{"osm_id":"4013504118","tag":{"amenity":"recycling"}},"type":"Feature"},
	{"geometry":{"coordinates":[-6.566168,37.892492],"type":"Point"},"properties":{"osm_id":"4031300589","tag":{"amenity":"recycling","recycling:clothes":"no"}},"type":"Feature"},
	{"geometry":{"coordinates":[-6.57384,37.886566],"type":"Point"},"properties":{"osm_id":"4050158444","tag":{"addr:street":"Plaza del Cercado de Reyes","amenity":"recycling","recycling:cans":"yes","recycling:glass":"yes","recycling:glass_bottles":"yes","recycling:paper":"yes","recycling_type":"container"}},"type":"Feature"},
	{"geometry":{"coordinates":[-6.563748,37.89592],"type":"Point"},"properties":{"osm_id":"4069074466","tag":{"amenity":"waste_disposal"}},"type":"Feature"},
	{"geometry":{"coordinates":[-6.568642,37.891466],"type":"Point"},"properties":{"osm_id":"4535595804","tag":{"amenity":"waste_disposal"}},"type":"Feature"}
]
}
