{
"type": "FeatureCollection",
"features": [
	{"geometry":{"coordinates":[54.16069,17.09177],"type":"Point"},"properties":{"osm_id":"4320678794","tag":{"amenity":"waste_disposal","operator":"\u00d9\u0085\u00d9\u0086\u00d8\u00b2\u00d9\u0084 \u00d8\u00b5\u00d9\u0084\u00d8\u00a7\u00d9\u0084\u00d8\u00a9"}},"type":"Feature"},
	{"geometry":{"coordinates":[54.156837,17.088781],"type":"Point"},"properties":{"osm_id":"4320702191","tag":{"amenity":"waste_disposal"}},"type":"Feature"},
	{"geometry":{"coordinates":[54.156701,17.08825],"type":"Point"},"properties":{"osm_id":"4320719989","tag":{"amenity":"waste_disposal","operator":"\u00d8\u00b4\u00d9\u0082\u00d8\u00aa\u00d9\u0086\u00d8\u00a7"}},"type":"Feature"},
	{"geometry":{"coordinates":[54.160701,17.073079],"type":"Point"},"properties":{"osm_id":"4968806655","tag":{"amenity":"recycling","recycling_type":"container"}},"type":"Feature"},
	{"geometry":{"coordinates":[54.150336,17.085524],"type":"Point"},"properties":{"osm_id":"4968825190","tag":{"amenity":"recycling","recycling_type":"container"}},"type":"Feature"},
	{"geometry":{"coordinates":[54.151309,17.08208],"type":"Point"},"properties":{"osm_id":"4968860657","tag":{"amenity":"recycling","recycling_type":"container"}},"type":"Feature"},
	{"geometry":{"coordinates":[54.151315,17.059912],"type":"Point"},"properties":{"osm_id":"4969015137","tag":{"addr:street":"Ibn Batuta Street","amenity":"recycling","recycling_type":"container"}},"type":"Feature"},
	{"geometry":{"coordinates":[54.160228,17.064079],"type":"Point"},"properties":{"osm_id":"4969234046","tag":{"amenity":"recycling","recycling_type":"container"}},"type":"Feature"}
]
}
