{
"type": "FeatureCollection",
"features": [
	{"geometry":{"coordinates":[-94.518445,39.089159],"type":"Point"},"properties":{"osm_id":"191152808","tag":{"access":"destination","amenity":"waste_disposal"}},"type":"Feature"},
	{"geometry":{"coordinates":[-94.564741,39.091123],"type":"Point"},"properties":{"osm_id":"1775264164","tag":{"amenity":"recycling","recycling:batteries":"no","recycling:books":"no","recycling:cans":"yes","recycling:clothes":"no","recycling:electrical_appliances":"no","recycling:glass":"no","recycling:glass_bottles":"no","recycling:plastic_bottles":"yes","recycling_type":"container"}},"type":"Feature"},
	{"geometry":{"coordinates":[-94.565123,39.095047],"type":"Point"},"properties":{"name":"Planet Aid Clothing Donation","osm_id":"1837932975","tag":{"amenity":"recycling","recycling:clothes":"yes","recycling_type":"container"}},"type":"Feature"},
	{"geometry":{"coordinates":[-94.564716,39.091123],"type":"Point"},"properties":{"osm_id":"1837935932","tag":{"amenity":"waste_basket"}},"type":"Feature"},
	{"geometry":{"coordinates":[-94.55913,39.059397],"type":"Point"},"properties":{"osm_id":"1868755824","tag":{"amenity":"waste_basket"}},"type":"Feature"},
	{"geometry":{"coordinates":[-94.558521,39.058581],"type":"Point"},"properties":{"osm_id":"1868944429","tag":{"amenity":"waste_basket"}},"type":"Feature"},
	{"geometry":{"coordinates":[-94.562673,39.044221],"type":"Point"},"properties":{"osm_id":"1870710175","tag":{"amenity":"waste_basket"}},"type":"Feature"},
	{"geometry":{"coordinates":[-94.550849,39.095648],"type":"Point"},"properties":{"osm_id":"1914714626","tag":{"amenity":"recycling","recycling:cardboard":"yes","recycling_type":"container"}},"type":"Feature"},
	{"geometry":{"coordinates":[-94.556498,39.068811],"type":"Point"},"properties":{"osm_id":"5470044661","tag":{"amenity":"waste_basket"}},"type":"Feature"},
	{"geometry":{"coordinates":[-94.556856,39.068819],"type":"Point"},"properties":{"osm_id":"5470044666","tag":{"amenity":"waste_basket"}},"type":"Feature"},
	{"geometry":{"coordinates":[-94.492867,39.071248],"type":"Point"},"properties":{"name":"Advantage Metals Recycling LLC","osm_id":"6215049661","tag":{"amenity":"recycling","description":"Ferrous scrap pile","recycling:scrap_metal":"yes","recycling_type":"container"}},"type":"Feature"},
	{"geometry":{"coordinates":[-94.542796,39.03858],"type":"Point"},"properties":{"osm_id":"6313324130","tag":{"amenity":"waste_basket"}},"type":"Feature"},
	{"geometry":{"coordinates":[-94.542535,39.038157],"type":"Point"},"properties":{"osm_id":"6313324131","tag":{"amenity":"waste_basket"}},"type":"Feature"},
	{"geometry":{"coordinates":[-94.543893,39.069475],"type":"Point"},"properties":{"osm_id":"6604108186","tag":{"amenity":"waste_basket"}},"type":"Feature"},
	{"geometry":{"coordinates":[-94.544459,39.05529],"type":"Point"},"properties":{"osm_id":"6604108198","tag":{"amenity":"waste_basket"}},"type":"Feature"},
	{"geometry":{"coordinates":[-94.544282,39.054987],"type":"Point"},"properties":{"osm_id":"6604108200","tag":{"amenity":"waste_basket"}},"type":"Feature"},
	{"geometry":{"coordinates":[-94.544454,39.051406],"type":"Point"},"properties":{"osm_id":"6604108203","tag":{"amenity":"waste_basket"}},"type":"Feature"},
	{"geometry":{"coordinates":[-94.562846,39.043661],"type":"Point"},"properties":{"osm_id":"6604502043","tag":{"amenity":"waste_basket"}},"type":"Feature"},
	{"geometry":{"coordinates":[-94.564265,39.091173],"type":"Point"},"properties":{"osm_id":"6606669582","tag":{"amenity":"waste_basket"}},"type":"Feature"},
	{"geometry":{"coordinates":[-94.560793,39.094856],"type":"Point"},"properties":{"osm_id":"6615846487","tag":{"amenity":"waste_basket"}},"type":"Feature"},
	{"geometry":{"coordinates":[-94.558501,39.090356],"type":"Point"},"properties":{"name":"Midwest Recycling Center","osm_id":"7314136592","tag":{"addr:city":"Kansas City","addr:housenumber":"2000","addr:postcode":"64127","addr:state":"MO","addr:street":"East 19th Street","amenity":"recycling","opening_hours":"Mo-Fr 08:30-17:00","recycling:electrical_appliances":"yes","recycling_type":"centre","website":"https://mrcrecycling.net/electronics-recycling-kansas-city-mo"}},"type":"Feature"}
]
}
