{
"type": "FeatureCollection",
"features": [
	{"geometry":{"coordinates":[18.882867,50.384437],"type":"Point"},"properties":{"osm_id":"2153158547","tag":{"amenity":"waste_basket"}},"type":"Feature"},
	{"geometry":{"coordinates":[18.882702,50.38607],"type":"Point"},"properties":{"osm_id":"2153158553","tag":{"amenity":"waste_basket"}},"type":"Feature"},
	{"geometry":{"coordinates":[18.866489,50.39589],"type":"Point"},"properties":{"osm_id":"2153201629","tag":{"amenity":"waste_basket"}},"type":"Feature"},
	{"geometry":{"coordinates":[18.871225,50.393854],"type":"Point"},"properties":{"osm_id":"2153209275","tag":{"amenity":"waste_basket"}},"type":"Feature"},
	{"geometry":{"coordinates":[18.875061,50.395136],"type":"Point"},"properties":{"osm_id":"2153220502","tag":{"amenity":"waste_basket"}},"type":"Feature"},
	{"geometry":{"coordinates":[18.879173,50.395453],"type":"Point"},"properties":{"osm_id":"2153222377","tag":{"amenity":"waste_basket"}},"type":"Feature"},
	{"geometry":{"coordinates":[18.881933,50.392497],"type":"Point"},"properties":{"osm_id":"2153225288","tag":{"amenity":"waste_basket"}},"type":"Feature"},
	{"geometry":{"coordinates":[18.881992,50.392574],"type":"Point"},"properties":{"osm_id":"2153225291","tag":{"amenity":"waste_basket"}},"type":"Feature"},
	{"geometry":{"coordinates":[18.881254,50.389625],"type":"Point"},"properties":{"osm_id":"2153232619","tag":{"amenity":"waste_basket"}},"type":"Feature"},
	{"geometry":{"coordinates":[18.880962,50.389856],"type":"Point"},"properties":{"osm_id":"2153232639","tag":{"amenity":"waste_basket"}},"type":"Feature"},
	{"geometry":{"coordinates":[18.885788,50.393118],"type":"Point"},"properties":{"osm_id":"2153242731","tag":{"amenity":"waste_basket"}},"type":"Feature"},
	{"geometry":{"coordinates":[18.886866,50.393434],"type":"Point"},"properties":{"osm_id":"2153242739","tag":{"amenity":"waste_basket"}},"type":"Feature"},
	{"geometry":{"coordinates":[18.887629,50.379009],"type":"Point"},"properties":{"osm_id":"2153295865","tag":{"amenity":"waste_basket"}},"type":"Feature"},
	{"geometry":{"coordinates":[18.887582,50.379062],"type":"Point"},"properties":{"osm_id":"2153295868","tag":{"amenity":"waste_basket"}},"type":"Feature"},
	{"geometry":{"coordinates":[18.886314,50.380135],"type":"Point"},"properties":{"osm_id":"2153295874","tag":{"amenity":"waste_basket"}},"type":"Feature"},
	{"geometry":{"coordinates":[18.88587,50.380617],"type":"Point"},"properties":{"osm_id":"2153295876","tag":{"amenity":"waste_basket"}},"type":"Feature"},
	{"geometry":{"coordinates":[18.885779,50.380718],"type":"Point"},"properties":{"osm_id":"2153295877","tag":{"amenity":"waste_basket"}},"type":"Feature"},
	{"geometry":{"coordinates":[18.883695,50.392311],"type":"Point"},"properties":{"osm_id":"3184758130","tag":{"amenity":"waste_disposal"}},"type":"Feature"},
	{"geometry":{"coordinates":[18.841642,50.361844],"type":"Point"},"properties":{"osm_id":"4010664427","tag":{"amenity":"waste_disposal"}},"type":"Feature"},
	{"geometry":{"coordinates":[18.840125,50.362018],"type":"Point"},"properties":{"osm_id":"4010664595","tag":{"amenity":"waste_disposal"}},"type":"Feature"},
	{"geometry":{"coordinates":[18.843107,50.361883],"type":"Point"},"properties":{"osm_id":"4010714889","tag":{"amenity":"waste_disposal"}},"type":"Feature"},
	{"geometry":{"coordinates":[18.879646,50.396008],"type":"Point"},"properties":{"osm_id":"4362452140","tag":{"amenity":"waste_basket"}},"type":"Feature"},
	{"geometry":{"coordinates":[18.852728,50.369956],"type":"Point"},"properties":{"osm_id":"4451112535","tag":{"amenity":"waste_basket"}},"type":"Feature"},
	{"geometry":{"coordinates":[18.84663,50.366935],"type":"Point"},"properties":{"osm_id":"4723912780","tag":{"amenity":"waste_disposal"}},"type":"Feature"},
	{"geometry":{"coordinates":[18.845422,50.367081],"type":"Point"},"properties":{"osm_id":"4723912781","tag":{"amenity":"waste_disposal"}},"type":"Feature"},
	{"geometry":{"coordinates":[18.84748,50.366481],"type":"Point"},"properties":{"osm_id":"4723912782","tag":{"amenity":"waste_disposal"}},"type":"Feature"},
	{"geometry":{"coordinates":[18.845715,50.366071],"type":"Point"},"properties":{"osm_id":"4723912783","tag":{"amenity":"waste_disposal"}},"type":"Feature"},
	{"geometry":{"coordinates":[18.84556,50.365362],"type":"Point"},"properties":{"osm_id":"4723912784","tag":{"amenity":"waste_disposal"}},"type":"Feature"},
	{"geometry":{"coordinates":[18.847549,50.365089],"type":"Point"},"properties":{"osm_id":"4723912785","tag":{"amenity":"waste_disposal"}},"type":"Feature"},
	{"geometry":{"coordinates":[18.847742,50.366028],"type":"Point"},"properties":{"osm_id":"4723913291","tag":{"amenity":"waste_disposal"}},"type":"Feature"},
	{"geometry":{"coordinates":[18.850822,50.369455],"type":"Point"},"properties":{"osm_id":"4735920194","tag":{"amenity":"waste_disposal"}},"type":"Feature"},
	{"geometry":{"coordinates":[18.839069,50.365538],"type":"Point"},"properties":{"osm_id":"4748369457","tag":{"amenity":"waste_disposal"}},"type":"Feature"},
	{"geometry":{"coordinates":[18.854209,50.365616],"type":"Point"},"properties":{"osm_id":"4771232644","tag":{"amenity":"waste_basket"}},"type":"Feature"},
	{"geometry":{"coordinates":[18.854296,50.366292],"type":"Point"},"properties":{"osm_id":"4774647401","tag":{"amenity":"waste_basket"}},"type":"Feature"},
	{"geometry":{"coordinates":[18.837356,50.37284],"type":"Point"},"properties":{"osm_id":"4922729829","tag":{"amenity":"waste_basket"}},"type":"Feature"},
	{"geometry":{"coordinates":[18.887255,50.393049],"type":"Point"},"properties":{"osm_id":"6333413083","tag":{"amenity":"waste_disposal"}},"type":"Feature"},
	{"geometry":{"coordinates":[18.888327,50.393552],"type":"Point"},"properties":{"osm_id":"6333413084","tag":{"amenity":"waste_disposal"}},"type":"Feature"},
	{"geometry":{"coordinates":[18.886832,50.392288],"type":"Point"},"properties":{"osm_id":"6333413285","tag":{"amenity":"waste_disposal"}},"type":"Feature"},
	{"geometry":{"coordinates":[18.881117,50.397823],"type":"Point"},"properties":{"osm_id":"6333413286","tag":{"amenity":"waste_disposal"}},"type":"Feature"},
	{"geometry":{"coordinates":[18.880112,50.397116],"type":"Point"},"properties":{"osm_id":"6333413287","tag":{"amenity":"waste_disposal"}},"type":"Feature"},
	{"geometry":{"coordinates":[18.88556,50.39852],"type":"Point"},"properties":{"osm_id":"6333413288","tag":{"amenity":"waste_disposal"}},"type":"Feature"},
	{"geometry":{"coordinates":[18.884381,50.398693],"type":"Point"},"properties":{"osm_id":"6333413289","tag":{"amenity":"waste_disposal"}},"type":"Feature"},
	{"geometry":{"coordinates":[18.882372,50.396657],"type":"Point"},"properties":{"osm_id":"6333413290","tag":{"amenity":"waste_disposal"}},"type":"Feature"},
	{"geometry":{"coordinates":[18.883614,50.393882],"type":"Point"},"properties":{"osm_id":"6333413291","tag":{"amenity":"waste_disposal"}},"type":"Feature"},
	{"geometry":{"coordinates":[18.886285,50.393401],"type":"Point"},"properties":{"osm_id":"6333413292","tag":{"amenity":"waste_disposal"}},"type":"Feature"},
	{"geometry":{"coordinates":[18.881969,50.392731],"type":"Point"},"properties":{"osm_id":"6333413293","tag":{"amenity":"waste_disposal"}},"type":"Feature"},
	{"geometry":{"coordinates":[18.881498,50.393575],"type":"Point"},"properties":{"osm_id":"6333413294","tag":{"amenity":"waste_disposal"}},"type":"Feature"},
	{"geometry":{"coordinates":[18.881202,50.395131],"type":"Point"},"properties":{"osm_id":"6333413295","tag":{"amenity":"waste_disposal"}},"type":"Feature"},
	{"geometry":{"coordinates":[18.881533,50.395242],"type":"Point"},"properties":{"osm_id":"6333413296","tag":{"amenity":"waste_disposal"}},"type":"Feature"},
	{"geometry":{"coordinates":[18.882539,50.39557],"type":"Point"},"properties":{"osm_id":"6333413297","tag":{"amenity":"waste_disposal"}},"type":"Feature"},
	{"geometry":{"coordinates":[18.884693,50.395805],"type":"Point"},"properties":{"osm_id":"6333413298","tag":{"amenity":"waste_disposal"}},"type":"Feature"},
	{"geometry":{"coordinates":[18.885841,50.396195],"type":"Point"},"properties":{"osm_id":"6333413299","tag":{"amenity":"waste_disposal"}},"type":"Feature"},
	{"geometry":{"coordinates":[18.887604,50.396698],"type":"Point"},"properties":{"osm_id":"6333413300","tag":{"amenity":"waste_disposal"}},"type":"Feature"},
	{"geometry":{"coordinates":[18.890791,50.397608],"type":"Point"},"properties":{"osm_id":"6333413301","tag":{"amenity":"waste_disposal"}},"type":"Feature"},
	{"geometry":{"coordinates":[18.891047,50.39835],"type":"Point"},"properties":{"osm_id":"6333413302","tag":{"amenity":"waste_disposal"}},"type":"Feature"},
	{"geometry":{"coordinates":[18.892357,50.398277],"type":"Point"},"properties":{"osm_id":"6333413303","tag":{"amenity":"waste_disposal"}},"type":"Feature"},
	{"geometry":{"coordinates":[18.891586,50.398661],"type":"Point"},"properties":{"osm_id":"6333413304","tag":{"amenity":"waste_disposal"}},"type":"Feature"},
	{"geometry":{"coordinates":[18.881091,50.384925],"type":"Point"},"properties":{"osm_id":"6335081670","tag":{"amenity":"waste_disposal"}},"type":"Feature"},
	{"geometry":{"coordinates":[18.880848,50.385937],"type":"Point"},"properties":{"osm_id":"6335081671","tag":{"amenity":"waste_disposal"}},"type":"Feature"},
	{"geometry":{"coordinates":[18.879538,50.38708],"type":"Point"},"properties":{"osm_id":"6335081672","tag":{"amenity":"waste_disposal"}},"type":"Feature"},
	{"geometry":{"coordinates":[18.881252,50.386908],"type":"Point"},"properties":{"osm_id":"6335081673","tag":{"amenity":"waste_disposal"}},"type":"Feature"},
	{"geometry":{"coordinates":[18.878336,50.389004],"type":"Point"},"properties":{"osm_id":"6335081674","tag":{"amenity":"waste_disposal"}},"type":"Feature"},
	{"geometry":{"coordinates":[18.880137,50.388973],"type":"Point"},"properties":{"osm_id":"6335081675","tag":{"amenity":"waste_disposal"}},"type":"Feature"},
	{"geometry":{"coordinates":[18.884719,50.386338],"type":"Point"},"properties":{"osm_id":"6335081676","tag":{"amenity":"waste_disposal"}},"type":"Feature"},
	{"geometry":{"coordinates":[18.882919,50.388195],"type":"Point"},"properties":{"osm_id":"6335081677","tag":{"amenity":"waste_disposal"}},"type":"Feature"},
	{"geometry":{"coordinates":[18.883879,50.38787],"type":"Point"},"properties":{"osm_id":"6335081678","tag":{"amenity":"waste_disposal"}},"type":"Feature"},
	{"geometry":{"coordinates":[18.872293,50.396772],"type":"Point"},"properties":{"osm_id":"6444690196","tag":{"amenity":"waste_disposal"}},"type":"Feature"},
	{"geometry":{"coordinates":[18.872833,50.397412],"type":"Point"},"properties":{"osm_id":"6444690197","tag":{"amenity":"waste_disposal"}},"type":"Feature"},
	{"geometry":{"coordinates":[18.875453,50.397644],"type":"Point"},"properties":{"osm_id":"6444690200","tag":{"amenity":"waste_disposal"}},"type":"Feature"},
	{"geometry":{"coordinates":[18.87473,50.397678],"type":"Point"},"properties":{"osm_id":"6444690204","tag":{"amenity":"waste_disposal"}},"type":"Feature"},
	{"geometry":{"coordinates":[18.873962,50.397518],"type":"Point"},"properties":{"osm_id":"6444690213","tag":{"amenity":"waste_disposal"}},"type":"Feature"},
	{"geometry":{"coordinates":[18.875606,50.397892],"type":"Point"},"properties":{"osm_id":"6444690214","tag":{"amenity":"waste_disposal"}},"type":"Feature"},
	{"geometry":{"coordinates":[18.866848,50.385463],"type":"Point"},"properties":{"osm_id":"7837838614","tag":{"amenity":"waste_basket","covered":"no","tourism":"picnic_site"}},"type":"Feature"}
]
}
