{
"type": "FeatureCollection",
"features": [
	{"geometry":{"coordinates":[18.881264,47.815771],"type":"Point"},"properties":{"osm_id":"3439051562","tag":{"amenity":"recycling","source:date":"2013-06-22","url":"http://turistautak.hu/poi.php?id=101818"}},"type":"Feature"},
	{"geometry":{"coordinates":[18.86234,47.816603],"type":"Point"},"properties":{"osm_id":"3439051569","tag":{"amenity":"recycling","source:date":"2013-06-22","url":"http://turistautak.hu/poi.php?id=104157"}},"type":"Feature"},
	{"geometry":{"coordinates":[18.869705,47.817522],"type":"Point"},"properties":{"osm_id":"3439051577","tag":{"amenity":"recycling","source:date":"2011-06-28","url":"http://turistautak.hu/poi.php?id=101820"}},"type":"Feature"},
	{"geometry":{"coordinates":[18.857032,47.824314],"type":"Point"},"properties":{"osm_id":"3439051603","tag":{"amenity":"recycling","source:date":"2011-06-28","url":"http://turistautak.hu/poi.php?id=101827"}},"type":"Feature"},
	{"geometry":{"coordinates":[18.87577,47.86469],"type":"Point"},"properties":{"osm_id":"3439051893","tag":{"amenity":"recycling","description":"P2501-es","source:date":"2013-07-21","url":"http://turistautak.hu/poi.php?id=156693"}},"type":"Feature"},
	{"geometry":{"coordinates":[18.869626,47.86517],"type":"Point"},"properties":{"osm_id":"3439051895","tag":{"amenity":"recycling","recycling:clothes":"yes","recycling_type":"container","url":"http://turistautak.hu/poi.php?id=104132"}},"type":"Feature"},
	{"geometry":{"coordinates":[18.870212,47.864818],"type":"Point"},"properties":{"osm_id":"5259747624","tag":{"amenity":"recycling","mapillary":"wEHs2cZT-BUqYCRaDWLDpg","operator":"20/569-8365","recycling:clothes":"yes","recycling:shoes":"yes","recycling_type":"container"}},"type":"Feature"},
	{"geometry":{"coordinates":[18.824923,47.829052],"type":"Point"},"properties":{"osm_id":"6001450381","tag":{"amenity":"recycling","recycling_type":"container","survey:date":"2018-10-20"}},"type":"Feature"},
	{"geometry":{"coordinates":[18.827594,47.829894],"type":"Point"},"properties":{"osm_id":"6001450384","tag":{"amenity":"recycling","recycling_type":"container","survey:date":"2018-10-20"}},"type":"Feature"},
	{"geometry":{"coordinates":[18.829255,47.832406],"type":"Point"},"properties":{"osm_id":"6001451388","tag":{"amenity":"recycling","recycling_type":"container","survey:date":"2018-10-20"}},"type":"Feature"},
	{"geometry":{"coordinates":[18.870544,47.864528],"type":"Point"},"properties":{"osm_id":"7367493525","tag":{"amenity":"waste_basket","waste":"trash"}},"type":"Feature"},
	{"geometry":{"coordinates":[18.870721,47.864491],"type":"Point"},"properties":{"osm_id":"7606919363","tag":{"amenity":"waste_basket"}},"type":"Feature"},
	{"geometry":{"coordinates":[18.869862,47.865125],"type":"Point"},"properties":{"osm_id":"7606919364","tag":{"amenity":"waste_basket"}},"type":"Feature"},
	{"geometry":{"coordinates":[18.828797,47.841715],"type":"Point"},"properties":{"osm_id":"7861983802","tag":{"amenity":"waste_basket"}},"type":"Feature"},
	{"geometry":{"coordinates":[18.827685,47.843015],"type":"Point"},"properties":{"osm_id":"8567669677","tag":{"amenity":"waste_basket"}},"type":"Feature"}
]
}
