{
"type": "FeatureCollection",
"features": [
	{"geometry":{"coordinates":[86.061359,55.344092],"type":"Point"},"properties":{"osm_id":"1176430354","tag":{"amenity":"recycling"}},"type":"Feature"},
	{"geometry":{"coordinates":[86.131079,55.342979],"type":"Point"},"properties":{"osm_id":"2332698226","tag":{"amenity":"waste_basket"}},"type":"Feature"},
	{"geometry":{"coordinates":[86.104931,55.347835],"type":"Point"},"properties":{"osm_id":"2334959328","tag":{"amenity":"waste_basket"}},"type":"Feature"},
	{"geometry":{"coordinates":[86.10624,55.347837],"type":"Point"},"properties":{"osm_id":"2334959391","tag":{"amenity":"waste_basket"}},"type":"Feature"},
	{"geometry":{"coordinates":[86.105618,55.347843],"type":"Point"},"properties":{"osm_id":"2334959392","tag":{"amenity":"waste_basket"}},"type":"Feature"},
	{"geometry":{"coordinates":[86.132696,55.330271],"type":"Point"},"properties":{"osm_id":"2806166154","tag":{"amenity":"waste_basket"}},"type":"Feature"},
	{"geometry":{"coordinates":[86.064432,55.341333],"type":"Point"},"properties":{"osm_id":"3357277663","tag":{"amenity":"waste_basket"}},"type":"Feature"},
	{"geometry":{"coordinates":[86.064617,55.341336],"type":"Point"},"properties":{"osm_id":"3357277665","tag":{"amenity":"waste_basket"}},"type":"Feature"},
	{"geometry":{"coordinates":[86.062473,55.34156],"type":"Point"},"properties":{"osm_id":"3357277674","tag":{"amenity":"waste_basket"}},"type":"Feature"},
	{"geometry":{"coordinates":[86.062825,55.341585],"type":"Point"},"properties":{"osm_id":"3357277677","tag":{"amenity":"waste_basket"}},"type":"Feature"},
	{"geometry":{"coordinates":[86.106629,55.346051],"type":"Point"},"properties":{"osm_id":"3578362149","tag":{"amenity":"waste_disposal"}},"type":"Feature"},
	{"geometry":{"coordinates":[86.083241,55.348419],"type":"Point"},"properties":{"osm_id":"3578362155","tag":{"amenity":"waste_disposal"}},"type":"Feature"},
	{"geometry":{"coordinates":[86.074518,55.357425],"type":"Point"},"properties":{"osm_id":"3579701365","tag":{"amenity":"waste_disposal"}},"type":"Feature"},
	{"geometry":{"coordinates":[86.062992,55.33789],"type":"Point"},"properties":{"osm_id":"7081078886","tag":{"amenity":"waste_basket"}},"type":"Feature"}
]
}
