{
"type": "FeatureCollection",
"features": [
	{"geometry":{"coordinates":[9.668678,54.305962],"type":"Point"},"properties":{"osm_id":"486066604","tag":{"amenity":"recycling","recycling:engine_oil":"yes"}},"type":"Feature"},
	{"geometry":{"coordinates":[9.692955,54.305718],"type":"Point"},"properties":{"osm_id":"853047169","tag":{"amenity":"recycling","location":"overground","recycling:glass":"yes","recycling_type":"container"}},"type":"Feature"},
	{"geometry":{"coordinates":[9.708728,54.294563],"type":"Point"},"properties":{"osm_id":"895549094","tag":{"amenity":"recycling","recycling:glass_bottles":"yes","recycling_type":"container"}},"type":"Feature"},
	{"geometry":{"coordinates":[9.719544,54.308446],"type":"Point"},"properties":{"osm_id":"1277584098","tag":{"amenity":"waste_basket"}},"type":"Feature"},
	{"geometry":{"coordinates":[9.722892,54.310225],"type":"Point"},"properties":{"osm_id":"1277584100","tag":{"amenity":"waste_basket"}},"type":"Feature"},
	{"geometry":{"coordinates":[9.721433,54.309323],"type":"Point"},"properties":{"osm_id":"1277584110","tag":{"amenity":"waste_basket"}},"type":"Feature"},
	{"geometry":{"coordinates":[9.722501,54.312648],"type":"Point"},"properties":{"osm_id":"1280521941","tag":{"amenity":"recycling","operator":"UFF","recycling:clothes":"yes"}},"type":"Feature"},
	{"geometry":{"coordinates":[9.712187,54.305764],"type":"Point"},"properties":{"osm_id":"1298662849","tag":{"amenity":"waste_disposal"}},"type":"Feature"},
	{"geometry":{"coordinates":[9.712182,54.305811],"type":"Point"},"properties":{"osm_id":"1298662862","tag":{"amenity":"recycling","recycling:glass":"yes","recycling:green_waste":"yes","recycling:paper":"yes","recycling:plastic_packaging":"yes","recycling_type":"container"}},"type":"Feature"},
	{"geometry":{"coordinates":[9.725506,54.310165],"type":"Point"},"properties":{"osm_id":"1400080124","tag":{"amenity":"recycling","recycling:clothes":"yes","recycling:glass":"yes"}},"type":"Feature"},
	{"geometry":{"coordinates":[9.734142,54.30944],"type":"Point"},"properties":{"osm_id":"1605054455","tag":{"amenity":"waste_basket"}},"type":"Feature"},
	{"geometry":{"coordinates":[9.730915,54.309378],"type":"Point"},"properties":{"osm_id":"1626776114","tag":{"amenity":"waste_basket"}},"type":"Feature"},
	{"geometry":{"coordinates":[9.68109,54.308786],"type":"Point"},"properties":{"osm_id":"1672243024","tag":{"amenity":"recycling","recycling:clothes":"yes","recycling:glass":"yes","recycling_type":"container"}},"type":"Feature"},
	{"geometry":{"coordinates":[9.717236,54.297388],"type":"Point"},"properties":{"osm_id":"2076643893","tag":{"amenity":"recycling","opening_hours":"sunrise-sunset","operator":"AWR","recycling:clothes":"yes","recycling:glass":"no","recycling_type":"container","wheelchair":"yes"}},"type":"Feature"},
	{"geometry":{"coordinates":[9.75448,54.311964],"type":"Point"},"properties":{"name":"Firma Wilhelm Hamkens","osm_id":"2457156091","tag":{"amenity":"recycling","contact:website":"http://www.hamkens.de","description:de":"Deponie f\u00c3\u00bcr unbelasteten Boden sowie zwei Lagerpl\u00c3\u00a4tze f\u00c3\u00bcr Bauabf\u00c3\u00a4lle. Dort d\u00c3\u00bcrfen Fliesen und Keramik und unbelasteter Bauschutt, Betonaufbruch und Asphaltaufbruch gekippt werden!","opening_hours":"Mo-Fr 07:00-16:00;Sa 07:00-12:00","recycling:hardcore":"yes","recycling:rubble":"yes"}},"type":"Feature"},
	{"geometry":{"coordinates":[9.679923,54.292237],"type":"Point"},"properties":{"osm_id":"2477981886","tag":{"amenity":"waste_basket"}},"type":"Feature"},
	{"geometry":{"coordinates":[9.701131,54.28881],"type":"Point"},"properties":{"osm_id":"2600901048","tag":{"amenity":"waste_basket"}},"type":"Feature"},
	{"geometry":{"coordinates":[9.700086,54.290344],"type":"Point"},"properties":{"osm_id":"2600901060","tag":{"amenity":"waste_basket"}},"type":"Feature"},
	{"geometry":{"coordinates":[9.704219,54.284994],"type":"Point"},"properties":{"osm_id":"2600901409","tag":{"amenity":"waste_basket"}},"type":"Feature"},
	{"geometry":{"coordinates":[9.737088,54.300484],"type":"Point"},"properties":{"osm_id":"2810645326","tag":{"amenity":"recycling","opening_hours":"sunrise-sunset","operator":"AWR","recycling:clothes":"yes","recycling:glass":"yes","recycling:glass_bottles":"yes","recycling_type":"container","wheelchair":"yes"}},"type":"Feature"},
	{"geometry":{"coordinates":[9.671613,54.293104],"type":"Point"},"properties":{"osm_id":"3977914978","tag":{"amenity":"recycling","description":"Recycling Kreishafen","recycling:clothes":"yes","recycling:glass":"yes","recycling_type":"container"}},"type":"Feature"},
	{"geometry":{"coordinates":[9.675924,54.300078],"type":"Point"},"properties":{"name":"Recycling Nordmarkhalle","osm_id":"3984572534","tag":{"amenity":"recycling","recycling:cans":"no","recycling:clothes":"no","recycling:glass":"no","recycling:glass_bottles":"yes","recycling:paper":"no","recycling:plastic":"no","recycling_type":"container"}},"type":"Feature"},
	{"geometry":{"coordinates":[9.71234,54.28619],"type":"Point"},"properties":{"osm_id":"4046226610","tag":{"amenity":"recycling","recycling:glass":"yes"}},"type":"Feature"},
	{"geometry":{"coordinates":[9.719227,54.30455],"type":"Point"},"properties":{"osm_id":"4838567663","tag":{"amenity":"recycling","opening_hours":"sunrise-sunset","operator":"AWR","recycling:clothes":"yes","recycling:glass_bottles":"yes","recycling:shoes":"yes","recycling_type":"container","wheelchair":"yes"}},"type":"Feature"},
	{"geometry":{"coordinates":[9.693227,54.289915],"type":"Point"},"properties":{"osm_id":"5842228589","tag":{"amenity":"recycling","recycling:glass":"yes","recycling:green_glass":"yes","recycling_type":"container"}},"type":"Feature"},
	{"geometry":{"coordinates":[9.693235,54.2899],"type":"Point"},"properties":{"osm_id":"5848611337","tag":{"amenity":"recycling","recycling:glass":"yes","recycling:glass_white":"yes","recycling_type":"container"}},"type":"Feature"},
	{"geometry":{"coordinates":[9.695163,54.30145],"type":"Point"},"properties":{"osm_id":"5863009636","tag":{"amenity":"recycling","recycling:glass":"yes","recycling_type":"container"}},"type":"Feature"},
	{"geometry":{"coordinates":[9.69518,54.301431],"type":"Point"},"properties":{"osm_id":"5863009637","tag":{"amenity":"recycling","recycling:clothes":"yes","recycling_type":"container"}},"type":"Feature"},
	{"geometry":{"coordinates":[9.695188,54.301417],"type":"Point"},"properties":{"osm_id":"5863009638","tag":{"amenity":"recycling","recycling:clothes":"yes","recycling_type":"container"}},"type":"Feature"},
	{"geometry":{"coordinates":[9.69516,54.301468],"type":"Point"},"properties":{"osm_id":"5863009639","tag":{"amenity":"recycling","recycling:clothes":"yes","recycling_type":"container"}},"type":"Feature"},
	{"geometry":{"coordinates":[9.681962,54.294378],"type":"Point"},"properties":{"osm_id":"6069054966","tag":{"amenity":"recycling","recycling_type":"container"}},"type":"Feature"},
	{"geometry":{"coordinates":[9.681908,54.294395],"type":"Point"},"properties":{"osm_id":"6070514430","tag":{"amenity":"waste_disposal"}},"type":"Feature"},
	{"geometry":{"coordinates":[9.698122,54.28536],"type":"Point"},"properties":{"osm_id":"6374468372","tag":{"amenity":"recycling","recycling:clothes":"yes","recycling_type":"container"}},"type":"Feature"},
	{"geometry":{"coordinates":[9.698131,54.28535],"type":"Point"},"properties":{"osm_id":"6500715862","tag":{"amenity":"recycling","description":"Mo-Sa ; 7:00-22:00","recycling:glass":"yes","recycling:glass_bottles":"yes","recycling:glass_white":"yes","recycling_type":"container"}},"type":"Feature"},
	{"geometry":{"coordinates":[9.698139,54.285344],"type":"Point"},"properties":{"osm_id":"6500715863","tag":{"amenity":"recycling","description":"Mo-Sa ; 7:00-22:00","recycling:glass_bottles":"yes","recycling:glass_green":"yes","recycling_type":"container"}},"type":"Feature"},
	{"geometry":{"coordinates":[9.680104,54.296623],"type":"Point"},"properties":{"osm_id":"6788492871","tag":{"amenity":"waste_basket","waste":"trash"}},"type":"Feature"},
	{"geometry":{"coordinates":[9.705622,54.295685],"type":"Point"},"properties":{"osm_id":"6794640427","tag":{"amenity":"waste_basket"}},"type":"Feature"},
	{"geometry":{"coordinates":[9.678054,54.2992],"type":"Point"},"properties":{"osm_id":"7798148088","tag":{"amenity":"waste_basket","waste":"trash"}},"type":"Feature"},
	{"geometry":{"coordinates":[9.70096,54.300586],"type":"Point"},"properties":{"osm_id":"7798231880","tag":{"amenity":"waste_basket","waste":"trash"}},"type":"Feature"},
	{"geometry":{"coordinates":[9.688249,54.296412],"type":"Point"},"properties":{"osm_id":"7798248811","tag":{"amenity":"waste_basket","waste":"trash"}},"type":"Feature"},
	{"geometry":{"coordinates":[9.696961,54.299046],"type":"Point"},"properties":{"osm_id":"7798255130","tag":{"amenity":"waste_basket","waste":"trash"}},"type":"Feature"},
	{"geometry":{"coordinates":[9.716387,54.305333],"type":"Point"},"properties":{"osm_id":"7798350827","tag":{"amenity":"waste_basket","waste":"trash"}},"type":"Feature"},
	{"geometry":{"coordinates":[9.711159,54.312853],"type":"Point"},"properties":{"osm_id":"7801823266","tag":{"amenity":"waste_basket"}},"type":"Feature"},
	{"geometry":{"coordinates":[9.713188,54.308763],"type":"Point"},"properties":{"osm_id":"7815332667","tag":{"amenity":"waste_basket"}},"type":"Feature"},
	{"geometry":{"coordinates":[9.713152,54.308679],"type":"Point"},"properties":{"osm_id":"7815332675","tag":{"amenity":"waste_basket"}},"type":"Feature"}
]
}
