{
"type": "FeatureCollection",
"features": [
	{"geometry":{"coordinates":[9.735004,53.45386],"type":"Point"},"properties":{"osm_id":"1204476480","tag":{"amenity":"recycling","recycling:clothes":"yes","recycling_type":"container"}},"type":"Feature"},
	{"geometry":{"coordinates":[9.688018,53.458542],"type":"Point"},"properties":{"osm_id":"2408043234","tag":{"amenity":"recycling","recycling:clothes":"yes","recycling:glass_bottles":"yes","recycling:paper":"yes","recycling_type":"container"}},"type":"Feature"},
	{"geometry":{"coordinates":[9.680706,53.460516],"type":"Point"},"properties":{"osm_id":"2410201945","tag":{"amenity":"waste_basket","survey:date":"2013-08-07"}},"type":"Feature"},
	{"geometry":{"coordinates":[9.686269,53.462711],"type":"Point"},"properties":{"osm_id":"2410202379","tag":{"amenity":"recycling","recycling:clothes":"yes","recycling_type":"container"}},"type":"Feature"},
	{"geometry":{"coordinates":[9.684027,53.46821],"type":"Point"},"properties":{"osm_id":"2423417956","tag":{"amenity":"waste_basket"}},"type":"Feature"},
	{"geometry":{"coordinates":[9.670398,53.456161],"type":"Point"},"properties":{"osm_id":"2429222864","tag":{"amenity":"waste_basket"}},"type":"Feature"},
	{"geometry":{"coordinates":[9.686868,53.466833],"type":"Point"},"properties":{"osm_id":"2429224231","tag":{"amenity":"recycling","operator":"Deutsche Lebens-Rettungs-Gesellschaft e.V.","recycling:clothes":"yes","recycling_type":"container"}},"type":"Feature"},
	{"geometry":{"coordinates":[9.670124,53.454634],"type":"Point"},"properties":{"osm_id":"2432169966","tag":{"amenity":"waste_basket"}},"type":"Feature"},
	{"geometry":{"coordinates":[9.680671,53.46838],"type":"Point"},"properties":{"osm_id":"2457193771","tag":{"amenity":"recycling","capacity":"2","recycling:clothes":"yes"}},"type":"Feature"},
	{"geometry":{"coordinates":[9.674937,53.46853],"type":"Point"},"properties":{"osm_id":"2457193772","tag":{"amenity":"recycling","recycling:clothes":"yes"}},"type":"Feature"},
	{"geometry":{"coordinates":[9.681447,53.468912],"type":"Point"},"properties":{"osm_id":"2457193774","tag":{"amenity":"recycling","recycling:clothes":"yes","recycling:glass_bottles":"yes","recycling:paper":"yes","recycling_type":"container"}},"type":"Feature"},
	{"geometry":{"coordinates":[9.674697,53.466603],"type":"Point"},"properties":{"osm_id":"2463357987","tag":{"amenity":"recycling","recycling:clothes":"yes","recycling_type":"container"}},"type":"Feature"},
	{"geometry":{"coordinates":[9.671432,53.467514],"type":"Point"},"properties":{"osm_id":"2464928897","tag":{"amenity":"recycling","recycling:clothes":"yes","recycling:glass_bottles":"yes","recycling:paper":"yes","recycling_type":"container"}},"type":"Feature"},
	{"geometry":{"coordinates":[9.680003,53.469044],"type":"Point"},"properties":{"osm_id":"2464928920","tag":{"amenity":"waste_basket"}},"type":"Feature"},
	{"geometry":{"coordinates":[9.67786,53.469143],"type":"Point"},"properties":{"osm_id":"2464928928","tag":{"amenity":"waste_basket"}},"type":"Feature"},
	{"geometry":{"coordinates":[9.676725,53.469221],"type":"Point"},"properties":{"osm_id":"2464928934","tag":{"amenity":"waste_basket"}},"type":"Feature"},
	{"geometry":{"coordinates":[9.675926,53.469374],"type":"Point"},"properties":{"osm_id":"2464928960","tag":{"amenity":"recycling","recycling:clothes":"yes"}},"type":"Feature"},
	{"geometry":{"coordinates":[9.729368,53.458065],"type":"Point"},"properties":{"osm_id":"2492618138","tag":{"amenity":"recycling","recycling:clothes":"yes","recycling_type":"container"}},"type":"Feature"},
	{"geometry":{"coordinates":[9.701393,53.460236],"type":"Point"},"properties":{"osm_id":"2501143912","tag":{"amenity":"recycling","recycling:glass_bottles":"yes","recycling:paper":"yes","recycling_type":"container"}},"type":"Feature"},
	{"geometry":{"coordinates":[9.679451,53.463122],"type":"Point"},"properties":{"osm_id":"2881606820","tag":{"amenity":"waste_basket"}},"type":"Feature"},
	{"geometry":{"coordinates":[9.693816,53.480623],"type":"Point"},"properties":{"osm_id":"2969159801","tag":{"amenity":"waste_basket"}},"type":"Feature"},
	{"geometry":{"coordinates":[9.684941,53.474418],"type":"Point"},"properties":{"osm_id":"3010646526","tag":{"amenity":"recycling","recycling:paper":"yes","recycling_type":"container"}},"type":"Feature"},
	{"geometry":{"coordinates":[9.684649,53.478759],"type":"Point"},"properties":{"osm_id":"3010647632","tag":{"amenity":"waste_basket"}},"type":"Feature"},
	{"geometry":{"coordinates":[9.70439,53.470228],"type":"Point"},"properties":{"osm_id":"3105986573","tag":{"amenity":"waste_basket"}},"type":"Feature"},
	{"geometry":{"coordinates":[9.701602,53.471101],"type":"Point"},"properties":{"osm_id":"3105986860","tag":{"amenity":"recycling","recycling:clothes":"yes","recycling_type":"container"}},"type":"Feature"},
	{"geometry":{"coordinates":[9.701781,53.471103],"type":"Point"},"properties":{"osm_id":"3105986861","tag":{"amenity":"recycling","recycling:clothes":"yes","recycling:shoes":"yes","recycling_type":"container"}},"type":"Feature"},
	{"geometry":{"coordinates":[9.70174,53.471105],"type":"Point"},"properties":{"osm_id":"3105986863","tag":{"amenity":"recycling","recycling:glass_bottles":"yes","recycling_type":"container"}},"type":"Feature"},
	{"geometry":{"coordinates":[9.70153,53.471108],"type":"Point"},"properties":{"osm_id":"3105986865","tag":{"amenity":"recycling","recycling:paper":"yes","recycling_type":"container"}},"type":"Feature"},
	{"geometry":{"coordinates":[9.70608,53.471657],"type":"Point"},"properties":{"osm_id":"3105986994","tag":{"amenity":"waste_basket"}},"type":"Feature"},
	{"geometry":{"coordinates":[9.709397,53.471761],"type":"Point"},"properties":{"osm_id":"3105987057","tag":{"amenity":"waste_basket"}},"type":"Feature"},
	{"geometry":{"coordinates":[9.707201,53.471842],"type":"Point"},"properties":{"osm_id":"3105987089","tag":{"amenity":"waste_basket"}},"type":"Feature"},
	{"geometry":{"coordinates":[9.706799,53.471879],"type":"Point"},"properties":{"osm_id":"3105987100","tag":{"amenity":"waste_basket"}},"type":"Feature"},
	{"geometry":{"coordinates":[9.700043,53.472295],"type":"Point"},"properties":{"osm_id":"3105987212","tag":{"amenity":"waste_basket"}},"type":"Feature"},
	{"geometry":{"coordinates":[9.704772,53.47232],"type":"Point"},"properties":{"osm_id":"3105987224","tag":{"amenity":"waste_basket"}},"type":"Feature"},
	{"geometry":{"coordinates":[9.700146,53.472386],"type":"Point"},"properties":{"osm_id":"3105987233","tag":{"amenity":"waste_basket"}},"type":"Feature"},
	{"geometry":{"coordinates":[9.700356,53.472534],"type":"Point"},"properties":{"osm_id":"3105987279","tag":{"amenity":"waste_basket"}},"type":"Feature"},
	{"geometry":{"coordinates":[9.702167,53.473431],"type":"Point"},"properties":{"osm_id":"3105987567","tag":{"amenity":"waste_basket"}},"type":"Feature"},
	{"geometry":{"coordinates":[9.701142,53.473447],"type":"Point"},"properties":{"osm_id":"3105987569","tag":{"amenity":"waste_basket"}},"type":"Feature"},
	{"geometry":{"coordinates":[9.701464,53.473854],"type":"Point"},"properties":{"osm_id":"3105987657","tag":{"amenity":"waste_basket"}},"type":"Feature"},
	{"geometry":{"coordinates":[9.705152,53.468872],"type":"Point"},"properties":{"osm_id":"3107758055","tag":{"amenity":"waste_basket"}},"type":"Feature"},
	{"geometry":{"coordinates":[9.709874,53.469055],"type":"Point"},"properties":{"osm_id":"3107758056","tag":{"amenity":"waste_basket"}},"type":"Feature"},
	{"geometry":{"coordinates":[9.702078,53.469087],"type":"Point"},"properties":{"osm_id":"3107758057","tag":{"amenity":"waste_basket"}},"type":"Feature"},
	{"geometry":{"coordinates":[9.697059,53.470524],"type":"Point"},"properties":{"osm_id":"3107758064","tag":{"amenity":"waste_basket"}},"type":"Feature"},
	{"geometry":{"coordinates":[9.697324,53.470565],"type":"Point"},"properties":{"osm_id":"3107758066","tag":{"amenity":"waste_basket"}},"type":"Feature"},
	{"geometry":{"coordinates":[9.713978,53.472136],"type":"Point"},"properties":{"osm_id":"3107758070","tag":{"amenity":"waste_basket"}},"type":"Feature"},
	{"geometry":{"coordinates":[9.710463,53.47181],"type":"Point"},"properties":{"osm_id":"3131487978","tag":{"amenity":"waste_basket"}},"type":"Feature"},
	{"geometry":{"coordinates":[9.709681,53.476495],"type":"Point"},"properties":{"osm_id":"3131490320","tag":{"amenity":"waste_basket"}},"type":"Feature"},
	{"geometry":{"coordinates":[9.709767,53.476695],"type":"Point"},"properties":{"osm_id":"3146087749","tag":{"amenity":"waste_basket"}},"type":"Feature"},
	{"geometry":{"coordinates":[9.702602,53.477691],"type":"Point"},"properties":{"osm_id":"3146087781","tag":{"amenity":"waste_basket"}},"type":"Feature"},
	{"geometry":{"coordinates":[9.70333,53.478647],"type":"Point"},"properties":{"osm_id":"3146087919","tag":{"amenity":"waste_basket"}},"type":"Feature"},
	{"geometry":{"coordinates":[9.703419,53.478729],"type":"Point"},"properties":{"osm_id":"3146087933","tag":{"amenity":"waste_basket"}},"type":"Feature"},
	{"geometry":{"coordinates":[9.703513,53.478824],"type":"Point"},"properties":{"osm_id":"3146087940","tag":{"amenity":"waste_basket"}},"type":"Feature"},
	{"geometry":{"coordinates":[9.705138,53.480053],"type":"Point"},"properties":{"osm_id":"3146088015","tag":{"amenity":"waste_basket"}},"type":"Feature"},
	{"geometry":{"coordinates":[9.69451,53.476579],"type":"Point"},"properties":{"osm_id":"3207924899","tag":{"amenity":"waste_basket"}},"type":"Feature"},
	{"geometry":{"coordinates":[9.688957,53.480178],"type":"Point"},"properties":{"osm_id":"3207924957","tag":{"amenity":"recycling","recycling:clothes":"yes","recycling:glass_bottles":"yes","recycling:paper":"yes","recycling_type":"container"}},"type":"Feature"},
	{"geometry":{"coordinates":[9.712294,53.466627],"type":"Point"},"properties":{"osm_id":"3492995079","tag":{"amenity":"recycling","recycling:cans":"no","recycling:clothes":"yes","recycling:glass_bottles":"yes","recycling:paper":"yes","recycling_type":"container"}},"type":"Feature"},
	{"geometry":{"coordinates":[9.69488,53.471281],"type":"Point"},"properties":{"osm_id":"3510447534","tag":{"amenity":"waste_disposal","waste":"trash"}},"type":"Feature"},
	{"geometry":{"coordinates":[9.692934,53.472492],"type":"Point"},"properties":{"osm_id":"3515177351","tag":{"amenity":"waste_basket"}},"type":"Feature"},
	{"geometry":{"coordinates":[9.693031,53.472553],"type":"Point"},"properties":{"osm_id":"3515177352","tag":{"amenity":"waste_basket"}},"type":"Feature"},
	{"geometry":{"coordinates":[9.692619,53.472683],"type":"Point"},"properties":{"osm_id":"3554735307","tag":{"amenity":"waste_basket"}},"type":"Feature"},
	{"geometry":{"coordinates":[9.695878,53.474653],"type":"Point"},"properties":{"osm_id":"3554735316","tag":{"amenity":"waste_basket"}},"type":"Feature"},
	{"geometry":{"coordinates":[9.696415,53.474955],"type":"Point"},"properties":{"osm_id":"3554735317","tag":{"amenity":"waste_basket"}},"type":"Feature"},
	{"geometry":{"coordinates":[9.687545,53.47],"type":"Point"},"properties":{"osm_id":"3569242421","tag":{"amenity":"recycling","recycling:clothes":"yes","recycling_type":"container"}},"type":"Feature"},
	{"geometry":{"coordinates":[9.690033,53.470389],"type":"Point"},"properties":{"osm_id":"3569242425","tag":{"amenity":"waste_basket"}},"type":"Feature"},
	{"geometry":{"coordinates":[9.688327,53.470559],"type":"Point"},"properties":{"osm_id":"3569242430","tag":{"amenity":"waste_basket"}},"type":"Feature"},
	{"geometry":{"coordinates":[9.687723,53.470615],"type":"Point"},"properties":{"osm_id":"3569242431","tag":{"amenity":"waste_basket"}},"type":"Feature"},
	{"geometry":{"coordinates":[9.698409,53.475525],"type":"Point"},"properties":{"osm_id":"3569242434","tag":{"amenity":"waste_basket"}},"type":"Feature"},
	{"geometry":{"coordinates":[9.700059,53.476357],"type":"Point"},"properties":{"osm_id":"3569242439","tag":{"amenity":"waste_basket"}},"type":"Feature"},
	{"geometry":{"coordinates":[9.755345,53.450924],"type":"Point"},"properties":{"osm_id":"3627834214","tag":{"amenity":"recycling","recycling:clothes":"yes","recycling:glass_bottles":"yes","recycling_type":"container"}},"type":"Feature"},
	{"geometry":{"coordinates":[9.747891,53.451556],"type":"Point"},"properties":{"osm_id":"3627834217","tag":{"amenity":"recycling","recycling:clothes":"yes","recycling:glass_bottles":"yes","recycling_type":"container"}},"type":"Feature"},
	{"geometry":{"coordinates":[9.710032,53.480804],"type":"Point"},"properties":{"osm_id":"3673232444","tag":{"amenity":"recycling","recycling:clothes":"yes","recycling_type":"container"}},"type":"Feature"},
	{"geometry":{"coordinates":[9.671033,53.4532],"type":"Point"},"properties":{"osm_id":"3679609528","tag":{"amenity":"waste_basket"}},"type":"Feature"},
	{"geometry":{"coordinates":[9.668461,53.453827],"type":"Point"},"properties":{"osm_id":"3679609549","tag":{"amenity":"waste_basket"}},"type":"Feature"},
	{"geometry":{"coordinates":[9.685243,53.468595],"type":"Point"},"properties":{"osm_id":"3679610179","tag":{"amenity":"waste_basket"}},"type":"Feature"},
	{"geometry":{"coordinates":[9.730543,53.444851],"type":"Point"},"properties":{"osm_id":"3690606755","tag":{"amenity":"recycling","recycling:clothes":"yes","recycling:glass_bottles":"yes","recycling_type":"container"}},"type":"Feature"},
	{"geometry":{"coordinates":[9.689388,53.469279],"type":"Point"},"properties":{"osm_id":"3690607528","tag":{"amenity":"waste_basket"}},"type":"Feature"},
	{"geometry":{"coordinates":[9.689625,53.469696],"type":"Point"},"properties":{"osm_id":"3690607531","tag":{"amenity":"waste_basket"}},"type":"Feature"},
	{"geometry":{"coordinates":[9.689516,53.469711],"type":"Point"},"properties":{"osm_id":"3690607533","tag":{"amenity":"waste_basket"}},"type":"Feature"},
	{"geometry":{"coordinates":[9.689808,53.470097],"type":"Point"},"properties":{"osm_id":"3690607536","tag":{"amenity":"waste_basket"}},"type":"Feature"},
	{"geometry":{"coordinates":[9.689691,53.470177],"type":"Point"},"properties":{"osm_id":"3690607538","tag":{"amenity":"waste_basket"}},"type":"Feature"},
	{"geometry":{"coordinates":[9.690211,53.470428],"type":"Point"},"properties":{"osm_id":"3690607539","tag":{"amenity":"waste_basket"}},"type":"Feature"},
	{"geometry":{"coordinates":[9.691073,53.471661],"type":"Point"},"properties":{"osm_id":"3690607540","tag":{"amenity":"waste_basket"}},"type":"Feature"},
	{"geometry":{"coordinates":[9.691587,53.472051],"type":"Point"},"properties":{"osm_id":"3690607541","tag":{"amenity":"waste_basket"}},"type":"Feature"},
	{"geometry":{"coordinates":[9.692499,53.472613],"type":"Point"},"properties":{"osm_id":"3690607542","tag":{"amenity":"waste_basket"}},"type":"Feature"},
	{"geometry":{"coordinates":[9.692767,53.472759],"type":"Point"},"properties":{"osm_id":"3690607544","tag":{"amenity":"waste_basket"}},"type":"Feature"},
	{"geometry":{"coordinates":[9.693721,53.473486],"type":"Point"},"properties":{"osm_id":"3690607545","tag":{"amenity":"waste_basket"}},"type":"Feature"},
	{"geometry":{"coordinates":[9.695422,53.474244],"type":"Point"},"properties":{"osm_id":"3690607569","tag":{"amenity":"waste_basket"}},"type":"Feature"},
	{"geometry":{"coordinates":[9.695598,53.475435],"type":"Point"},"properties":{"osm_id":"3690607573","tag":{"amenity":"waste_basket"}},"type":"Feature"},
	{"geometry":{"coordinates":[9.693454,53.475487],"type":"Point"},"properties":{"osm_id":"3690607574","tag":{"amenity":"waste_basket"}},"type":"Feature"},
	{"geometry":{"coordinates":[9.694996,53.47565],"type":"Point"},"properties":{"osm_id":"3690607576","tag":{"amenity":"waste_basket"}},"type":"Feature"},
	{"geometry":{"coordinates":[9.695661,53.475701],"type":"Point"},"properties":{"osm_id":"3690607578","tag":{"amenity":"waste_basket"}},"type":"Feature"},
	{"geometry":{"coordinates":[9.694232,53.475891],"type":"Point"},"properties":{"osm_id":"3690607582","tag":{"amenity":"waste_basket"}},"type":"Feature"},
	{"geometry":{"coordinates":[9.695841,53.475911],"type":"Point"},"properties":{"osm_id":"3690607584","tag":{"amenity":"waste_basket"}},"type":"Feature"},
	{"geometry":{"coordinates":[9.696117,53.476195],"type":"Point"},"properties":{"osm_id":"3690607585","tag":{"amenity":"waste_basket"}},"type":"Feature"},
	{"geometry":{"coordinates":[9.695313,53.476373],"type":"Point"},"properties":{"osm_id":"3690607587","tag":{"amenity":"waste_basket"}},"type":"Feature"},
	{"geometry":{"coordinates":[9.697486,53.477603],"type":"Point"},"properties":{"osm_id":"3690607599","tag":{"amenity":"waste_basket"}},"type":"Feature"},
	{"geometry":{"coordinates":[9.720604,53.460333],"type":"Point"},"properties":{"osm_id":"3712594018","tag":{"amenity":"recycling","recycling:cardboard":"yes","recycling:clothes":"yes","recycling:glass_bottles":"yes","recycling:paper":"yes","recycling:shoes":"yes","recycling_type":"container"}},"type":"Feature"},
	{"geometry":{"coordinates":[9.703335,53.46155],"type":"Point"},"properties":{"osm_id":"3712594041","tag":{"amenity":"recycling","recycling:glass_bottles":"yes","recycling_type":"container"}},"type":"Feature"},
	{"geometry":{"coordinates":[9.719473,53.460422],"type":"Point"},"properties":{"name":"Relectro","osm_id":"3712594531","tag":{"amenity":"recycling","contact:email":"joerg.westphal@bnvhs.de","contact:fax":"+49 4161 85971","contact:phone":"+49 4161 89942","opening_hours":"Mo-Th 07:00-16:00; Fr 07:00-13:00; PH off","opening_hours:lastcheck":"2015-08-21","recycling:electrical_items":"yes","recycling:fluorescent_tubes":"yes","recycling:low_energy_bulbs":"yes","recycling:small_appliances":"yes","recycling:white_goods":"yes","recycling_type":"centre","website":"http://www.relectro-elektrorecycling.de/"}},"type":"Feature"},
	{"geometry":{"coordinates":[9.690655,53.465975],"type":"Point"},"properties":{"osm_id":"4523173347","tag":{"amenity":"waste_basket"}},"type":"Feature"},
	{"geometry":{"coordinates":[9.74895,53.438785],"type":"Point"},"properties":{"osm_id":"4937358424","tag":{"amenity":"recycling","recycling_type":"centre"}},"type":"Feature"},
	{"geometry":{"coordinates":[9.688536,53.472695],"type":"Point"},"properties":{"osm_id":"5683339101","tag":{"amenity":"recycling","recycling:clothes":"yes","recycling:glass_bottles":"yes","recycling:paper":"yes","recycling_type":"container"}},"type":"Feature"},
	{"geometry":{"coordinates":[9.688723,53.470047],"type":"Point"},"properties":{"osm_id":"5683339102","tag":{"amenity":"recycling","recycling:glass_bottles":"yes","recycling_type":"container"}},"type":"Feature"},
	{"geometry":{"coordinates":[9.679209,53.462941],"type":"Point"},"properties":{"osm_id":"5683339104","tag":{"amenity":"recycling","recycling:clothes":"yes","recycling:glass_bottles":"yes","recycling:paper":"yes","recycling_type":"container"}},"type":"Feature"},
	{"geometry":{"coordinates":[9.702798,53.481814],"type":"Point"},"properties":{"osm_id":"5683339105","tag":{"amenity":"recycling","recycling:glass_bottles":"yes","recycling_type":"container"}},"type":"Feature"},
	{"geometry":{"coordinates":[9.695394,53.470611],"type":"Point"},"properties":{"osm_id":"7566191542","tag":{"amenity":"waste_basket","waste":"trash"}},"type":"Feature"},
	{"geometry":{"coordinates":[9.695498,53.47114],"type":"Point"},"properties":{"osm_id":"7566191543","tag":{"amenity":"waste_basket","waste":"trash"}},"type":"Feature"},
	{"geometry":{"coordinates":[9.695757,53.471021],"type":"Point"},"properties":{"osm_id":"7566191545","tag":{"amenity":"waste_basket","waste":"dog_excrement"}},"type":"Feature"}
]
}
