{
"type": "FeatureCollection",
"features": [
	{"geometry":{"coordinates":[9.691684,52.852931],"type":"Point"},"properties":{"osm_id":"2829274701","tag":{"amenity":"waste_basket"}},"type":"Feature"},
	{"geometry":{"coordinates":[9.69158,52.853052],"type":"Point"},"properties":{"osm_id":"2829277401","tag":{"amenity":"waste_basket"}},"type":"Feature"},
	{"geometry":{"coordinates":[9.691558,52.852959],"type":"Point"},"properties":{"osm_id":"2829278201","tag":{"amenity":"recycling","recycling:cans":"yes","recycling_type":"container"}},"type":"Feature"},
	{"geometry":{"coordinates":[9.691401,52.853061],"type":"Point"},"properties":{"osm_id":"2829281401","tag":{"amenity":"waste_basket"}},"type":"Feature"},
	{"geometry":{"coordinates":[9.691146,52.85307],"type":"Point"},"properties":{"osm_id":"2829282701","tag":{"amenity":"waste_basket"}},"type":"Feature"},
	{"geometry":{"coordinates":[9.671769,52.825735],"type":"Point"},"properties":{"osm_id":"2929927224","tag":{"amenity":"recycling","recycling_type":"container"}},"type":"Feature"},
	{"geometry":{"coordinates":[9.726543,52.853082],"type":"Point"},"properties":{"osm_id":"6417727849","tag":{"amenity":"recycling","recycling:clothes":"yes","recycling:glass":"yes","recycling:shoes":"yes","recycling_type":"container"}},"type":"Feature"},
	{"geometry":{"coordinates":[9.700945,52.849392],"type":"Point"},"properties":{"name":"RHF","osm_id":"7607951641","tag":{"addr:city":"Bad Fallingbostel","addr:housenumber":"5","addr:postcode":"29683","addr:street":"Von-Siemens-Stra\u00c3\u009fe","alt_name":"Recycling Hof Fallingbostel","amenity":"recycling","description":"Recycling, Verkauf von Baumaterial, Verleih von Baumaschinen und Container","email":"info@recyclinghof-fallingbostel.de","fax":"+49 5162 979428","opening_hours":"Mo-Fr 07:00-17:00; Sa 08:00-12:30; PH off","phone":"+49 5162 979457","recycling_type":"centre","rental":"construction_machines","shop":"trade","website":"https://www.recyclinghof-fallingbostel.de"}},"type":"Feature"}
]
}
