{
"type": "FeatureCollection",
"features": [
	{"geometry":{"coordinates":[9.749184,52.430908],"type":"Point"},"properties":{"osm_id":"257498212","tag":{"amenity":"recycling","recycling:clothes":"yes","recycling:glass_bottles":"yes","recycling:paper":"yes","recycling_type":"container"}},"type":"Feature"},
	{"geometry":{"coordinates":[9.716264,52.429353],"type":"Point"},"properties":{"osm_id":"257498264","tag":{"amenity":"recycling","recycling_type":"container"}},"type":"Feature"},
	{"geometry":{"coordinates":[9.677017,52.449782],"type":"Point"},"properties":{"osm_id":"378300747","tag":{"amenity":"recycling","location":"overground","recycling_type":"container"}},"type":"Feature"},
	{"geometry":{"coordinates":[9.693351,52.44079],"type":"Point"},"properties":{"osm_id":"520935092","tag":{"amenity":"waste_basket"}},"type":"Feature"},
	{"geometry":{"coordinates":[9.693353,52.440783],"type":"Point"},"properties":{"osm_id":"520935094","tag":{"amenity":"waste_basket"}},"type":"Feature"},
	{"geometry":{"coordinates":[9.693258,52.441343],"type":"Point"},"properties":{"osm_id":"520935095","tag":{"amenity":"waste_basket"}},"type":"Feature"},
	{"geometry":{"coordinates":[9.693266,52.441323],"type":"Point"},"properties":{"osm_id":"520935111","tag":{"amenity":"waste_basket"}},"type":"Feature"},
	{"geometry":{"coordinates":[9.693155,52.441726],"type":"Point"},"properties":{"osm_id":"520935113","tag":{"amenity":"waste_basket"}},"type":"Feature"},
	{"geometry":{"coordinates":[9.693149,52.441745],"type":"Point"},"properties":{"osm_id":"520935115","tag":{"amenity":"waste_basket"}},"type":"Feature"},
	{"geometry":{"coordinates":[9.692356,52.439927],"type":"Point"},"properties":{"osm_id":"522035483","tag":{"amenity":"waste_basket"}},"type":"Feature"},
	{"geometry":{"coordinates":[9.692338,52.439926],"type":"Point"},"properties":{"osm_id":"522035484","tag":{"amenity":"waste_basket"}},"type":"Feature"},
	{"geometry":{"coordinates":[9.692146,52.440395],"type":"Point"},"properties":{"osm_id":"522035489","tag":{"amenity":"waste_basket"}},"type":"Feature"},
	{"geometry":{"coordinates":[9.692144,52.440407],"type":"Point"},"properties":{"osm_id":"522035491","tag":{"amenity":"waste_basket"}},"type":"Feature"},
	{"geometry":{"coordinates":[9.692069,52.440744],"type":"Point"},"properties":{"osm_id":"522035495","tag":{"amenity":"waste_basket"}},"type":"Feature"},
	{"geometry":{"coordinates":[9.692072,52.440732],"type":"Point"},"properties":{"osm_id":"522035497","tag":{"amenity":"waste_basket"}},"type":"Feature"},
	{"geometry":{"coordinates":[9.692794,52.441225],"type":"Point"},"properties":{"osm_id":"522035499","tag":{"amenity":"waste_basket"}},"type":"Feature"},
	{"geometry":{"coordinates":[9.6928,52.44122],"type":"Point"},"properties":{"osm_id":"522035501","tag":{"amenity":"waste_basket"}},"type":"Feature"},
	{"geometry":{"coordinates":[9.693037,52.442197],"type":"Point"},"properties":{"osm_id":"522035553","tag":{"amenity":"waste_basket"}},"type":"Feature"},
	{"geometry":{"coordinates":[9.693025,52.442216],"type":"Point"},"properties":{"osm_id":"522035555","tag":{"amenity":"waste_basket"}},"type":"Feature"},
	{"geometry":{"coordinates":[9.693389,52.440363],"type":"Point"},"properties":{"osm_id":"522035563","tag":{"amenity":"waste_basket"}},"type":"Feature"},
	{"geometry":{"coordinates":[9.693418,52.440368],"type":"Point"},"properties":{"osm_id":"522035565","tag":{"amenity":"waste_basket"}},"type":"Feature"},
	{"geometry":{"coordinates":[9.693019,52.440319],"type":"Point"},"properties":{"osm_id":"522035571","tag":{"amenity":"waste_basket"}},"type":"Feature"},
	{"geometry":{"coordinates":[9.693016,52.440333],"type":"Point"},"properties":{"osm_id":"522035573","tag":{"amenity":"waste_basket"}},"type":"Feature"},
	{"geometry":{"coordinates":[9.692874,52.440871],"type":"Point"},"properties":{"osm_id":"522035609","tag":{"amenity":"waste_basket"}},"type":"Feature"},
	{"geometry":{"coordinates":[9.692866,52.440899],"type":"Point"},"properties":{"osm_id":"522035610","tag":{"amenity":"waste_basket"}},"type":"Feature"},
	{"geometry":{"coordinates":[9.696821,52.433289],"type":"Point"},"properties":{"osm_id":"666750716","tag":{"amenity":"recycling"}},"type":"Feature"},
	{"geometry":{"coordinates":[9.751375,52.439808],"type":"Point"},"properties":{"osm_id":"3356908993","tag":{"amenity":"recycling","recycling:cans":"yes","recycling:clothes":"yes","recycling:glass":"yes","recycling:paper":"yes","recycling_type":"container"}},"type":"Feature"},
	{"geometry":{"coordinates":[9.751338,52.449055],"type":"Point"},"properties":{"osm_id":"3356908994","tag":{"amenity":"recycling","recycling:cans":"yes","recycling:clothes":"yes","recycling:glass":"yes","recycling:paper":"yes","recycling_type":"container"}},"type":"Feature"},
	{"geometry":{"coordinates":[9.745412,52.440064],"type":"Point"},"properties":{"osm_id":"3356909094","tag":{"amenity":"recycling","recycling:cans":"yes","recycling:clothes":"yes","recycling:glass":"yes","recycling:paper":"yes","recycling_type":"container"}},"type":"Feature"},
	{"geometry":{"coordinates":[9.755078,52.440046],"type":"Point"},"properties":{"osm_id":"3356909095","tag":{"amenity":"recycling","recycling:clothes":"yes","recycling_type":"container"}},"type":"Feature"},
	{"geometry":{"coordinates":[9.753159,52.430474],"type":"Point"},"properties":{"osm_id":"3770841022","tag":{"amenity":"recycling","recycling_type":"container"}},"type":"Feature"},
	{"geometry":{"coordinates":[9.736994,52.437379],"type":"Point"},"properties":{"osm_id":"3886434517","tag":{"amenity":"recycling","operator":"aha Zweckverband Abfallwirtschaft Region Hannover","recycling:cans":"no","recycling:clothes":"yes","recycling:glass":"no","recycling:glass_bottles":"yes","recycling:paper":"yes","recycling:plastic":"no","recycling_type":"container"}},"type":"Feature"},
	{"geometry":{"coordinates":[9.731184,52.440706],"type":"Point"},"properties":{"osm_id":"4033483183","tag":{"amenity":"recycling","operator":"aha Zweckverband Abfallwirtschaft Region Hannover","recycling:clothes":"yes","recycling:glass_bottles":"yes","recycling:paper":"yes","recycling_type":"container"}},"type":"Feature"},
	{"geometry":{"coordinates":[9.740547,52.440776],"type":"Point"},"properties":{"osm_id":"4476015267","tag":{"amenity":"waste_basket"}},"type":"Feature"},
	{"geometry":{"coordinates":[9.740813,52.440629],"type":"Point"},"properties":{"osm_id":"4476019318","tag":{"amenity":"waste_basket"}},"type":"Feature"},
	{"geometry":{"coordinates":[9.734806,52.480695],"type":"Point"},"properties":{"osm_id":"4683391428","tag":{"amenity":"recycling","recycling_type":"container"}},"type":"Feature"},
	{"geometry":{"coordinates":[9.67291,52.441546],"type":"Point"},"properties":{"osm_id":"4798794726","tag":{"amenity":"recycling","recycling:clothes":"yes","recycling:shoes":"yes","recycling_type":"container"}},"type":"Feature"},
	{"geometry":{"coordinates":[9.729984,52.437129],"type":"Point"},"properties":{"osm_id":"5275617595","tag":{"amenity":"waste_basket"}},"type":"Feature"},
	{"geometry":{"coordinates":[9.681775,52.443214],"type":"Point"},"properties":{"osm_id":"5761417135","tag":{"amenity":"waste_basket"}},"type":"Feature"},
	{"geometry":{"coordinates":[9.682056,52.444622],"type":"Point"},"properties":{"osm_id":"5761417139","tag":{"amenity":"waste_basket"}},"type":"Feature"},
	{"geometry":{"coordinates":[9.678571,52.444917],"type":"Point"},"properties":{"osm_id":"5761417142","tag":{"amenity":"waste_basket"}},"type":"Feature"},
	{"geometry":{"coordinates":[9.677505,52.443104],"type":"Point"},"properties":{"osm_id":"5761417145","tag":{"amenity":"waste_basket"}},"type":"Feature"},
	{"geometry":{"coordinates":[9.754819,52.432796],"type":"Point"},"properties":{"osm_id":"6175295602","tag":{"amenity":"waste_basket"}},"type":"Feature"},
	{"geometry":{"coordinates":[9.694585,52.435979],"type":"Point"},"properties":{"osm_id":"7263608919","tag":{"amenity":"waste_basket"}},"type":"Feature"},
	{"geometry":{"coordinates":[9.694798,52.434442],"type":"Point"},"properties":{"osm_id":"7263608921","tag":{"amenity":"waste_basket"}},"type":"Feature"},
	{"geometry":{"coordinates":[9.677725,52.441807],"type":"Point"},"properties":{"osm_id":"7389286492","tag":{"amenity":"waste_basket","colour":"gray","mapillary":"qTqTTZKd59FdJhv0abd-og","material":"metal"}},"type":"Feature"},
	{"geometry":{"coordinates":[9.728579,52.474724],"type":"Point"},"properties":{"osm_id":"7514088955","tag":{"amenity":"recycling","covered":"no","indoor":"no","level":"0","recycling:glass":"yes","recycling:glass_bottles":"yes","recycling:paper":"yes","recycling_type":"container"}},"type":"Feature"},
	{"geometry":{"coordinates":[9.734673,52.480548],"type":"Point"},"properties":{"osm_id":"7863691646","tag":{"amenity":"recycling","covered":"no","indoor":"no","opening_hours":"24/7","recycling:glass":"yes","recycling:paper":"yes","recycling_type":"container"}},"type":"Feature"},
	{"geometry":{"coordinates":[9.714646,52.479036],"type":"Point"},"properties":{"name":"Gr\u00c3\u00bcngut-Annahmestelle","osm_id":"7868980094","tag":{"amenity":"recycling","opening_hours":"Mi 16:00-18:00; Sa 09:00-12:00","recycling_type":"centre"}},"type":"Feature"}
]
}
