{
"type": "FeatureCollection",
"features": [
	{"geometry":{"coordinates":[9.723183,52.394803],"type":"Point"},"properties":{"osm_id":"60335937","tag":{"addr:street":"Petersstra\u00c3\u009fe","amenity":"recycling","operator":"AHA","recycling:clothes":"yes","recycling:glass_bottles":"yes","recycling:shoes":"yes","recycling_type":"container"}},"type":"Feature"},
	{"geometry":{"coordinates":[9.727674,52.391308],"type":"Point"},"properties":{"osm_id":"60335938","tag":{"addr:city":"Hannover","addr:street":"Emil-Meyer-Stra\u00c3\u009fe","amenity":"recycling","operator":"AHA","recycling:clothes":"yes","recycling:glass_bottles":"yes","recycling:shoes":"yes","recycling_type":"container"}},"type":"Feature"},
	{"geometry":{"coordinates":[9.714403,52.403883],"type":"Point"},"properties":{"osm_id":"61103758","tag":{"addr:city":"Hannover","addr:street":"Voltmerstra\u00c3\u009fe","amenity":"recycling","operator":"AHA","recycling:clothes":"yes","recycling:glass_bottles":"yes","recycling:shoes":"yes","recycling_type":"container"}},"type":"Feature"},
	{"geometry":{"coordinates":[9.713798,52.414651],"type":"Point"},"properties":{"osm_id":"61103760","tag":{"addr:city":"Hannover","addr:street":"Friedenauer Stra\u00c3\u009fe","amenity":"recycling","operator":"AHA","recycling:clothes":"yes","recycling:glass_bottles":"yes","recycling:shoes":"yes","recycling_type":"container"}},"type":"Feature"},
	{"geometry":{"coordinates":[9.673834,52.398597],"type":"Point"},"properties":{"osm_id":"64758057","tag":{"amenity":"recycling","description":"Glascontainer","recycling:glass":"yes","recycling_type":"container"}},"type":"Feature"},
	{"geometry":{"coordinates":[9.693965,52.393303],"type":"Point"},"properties":{"osm_id":"66425782","tag":{"amenity":"recycling","recycling:cardboard":"yes","recycling:clothes":"yes","recycling:glass_bottles":"yes","recycling:paper":"yes","recycling_type":"container","wheelchair":"no"}},"type":"Feature"},
	{"geometry":{"coordinates":[9.685709,52.391464],"type":"Point"},"properties":{"osm_id":"84760361","tag":{"amenity":"recycling","recycling:clothes":"yes","recycling:glass_bottles":"yes","recycling:paper":"yes","recycling_type":"container"}},"type":"Feature"},
	{"geometry":{"coordinates":[9.70377,52.416904],"type":"Point"},"properties":{"osm_id":"92801877","tag":{"amenity":"recycling","recycling:cans":"no","recycling:clothes":"yes","recycling:glass":"yes","recycling:paper":"no","recycling_type":"container"}},"type":"Feature"},
	{"geometry":{"coordinates":[9.736255,52.427881],"type":"Point"},"properties":{"osm_id":"101065016","tag":{"amenity":"recycling","recycling:glass_bottles":"yes","recycling:paper":"yes","recycling_type":"container"}},"type":"Feature"},
	{"geometry":{"coordinates":[9.739839,52.402897],"type":"Point"},"properties":{"osm_id":"253229148","tag":{"addr:city":"Hannover","addr:street":"Pl\u00c3\u00bcschowstra\u00c3\u009fe","amenity":"recycling","operator":"AHA","recycling:clothes":"yes","recycling:glass_bottles":"yes","recycling:shoes":"yes","recycling_type":"container"}},"type":"Feature"},
	{"geometry":{"coordinates":[9.737346,52.387817],"type":"Point"},"properties":{"osm_id":"253271539","tag":{"addr:city":"Hannover","addr:street":"Rolandstra\u00c3\u009fe","amenity":"recycling","recycling:clothes":"yes","recycling:glass_bottles":"yes","recycling:shoes":"yes","recycling_type":"container"}},"type":"Feature"},
	{"geometry":{"coordinates":[9.746095,52.393163],"type":"Point"},"properties":{"osm_id":"256857005","tag":{"amenity":"recycling","operator":"aha Zweckverband Abfallwirtschaft Region Hannover","recycling:clothes":"yes","recycling:glass":"no","recycling:glass_bottles":"yes","recycling_type":"container"}},"type":"Feature"},
	{"geometry":{"coordinates":[9.749115,52.398736],"type":"Point"},"properties":{"osm_id":"256859701","tag":{"amenity":"recycling","recycling:clothes":"yes","recycling:glass":"yes","recycling_type":"container"}},"type":"Feature"},
	{"geometry":{"coordinates":[9.682265,52.393501],"type":"Point"},"properties":{"osm_id":"258337893","tag":{"amenity":"recycling","recycling:glass_bottles":"yes","recycling_type":"container"}},"type":"Feature"},
	{"geometry":{"coordinates":[9.713021,52.389172],"type":"Point"},"properties":{"osm_id":"259609277","tag":{"amenity":"recycling","recycling:clothes":"yes","recycling:glass":"yes","recycling_type":"container"}},"type":"Feature"},
	{"geometry":{"coordinates":[9.732005,52.389522],"type":"Point"},"properties":{"osm_id":"264255532","tag":{"addr:city":"Hannover","addr:street":"Philipsbornstra\u00c3\u009fe","amenity":"recycling","operator":"AHA","recycling:clothes":"yes","recycling:glass_bottles":"yes","recycling:shoes":"yes","recycling_type":"container"}},"type":"Feature"},
	{"geometry":{"coordinates":[9.728963,52.387665],"type":"Point"},"properties":{"osm_id":"267556370","tag":{"amenity":"recycling","recycling:glass":"yes","recycling_type":"container"}},"type":"Feature"},
	{"geometry":{"coordinates":[9.735986,52.383769],"type":"Point"},"properties":{"osm_id":"270293777","tag":{"amenity":"recycling","recycling:glass_bottles":"yes","recycling_type":"container"}},"type":"Feature"},
	{"geometry":{"coordinates":[9.69055,52.39645],"type":"Point"},"properties":{"osm_id":"292362812","tag":{"amenity":"recycling","recycling:glass":"yes","recycling_type":"container"}},"type":"Feature"},
	{"geometry":{"coordinates":[9.68856,52.393488],"type":"Point"},"properties":{"osm_id":"292882778","tag":{"amenity":"recycling","location":"underground","recycling:clothes":"yes","recycling_type":"container"}},"type":"Feature"},
	{"geometry":{"coordinates":[9.723232,52.390684],"type":"Point"},"properties":{"osm_id":"305351055","tag":{"amenity":"recycling","recycling:glass":"yes","recycling_type":"container"}},"type":"Feature"},
	{"geometry":{"coordinates":[9.72969,52.379335],"type":"Point"},"properties":{"osm_id":"308929778","tag":{"amenity":"recycling","recycling_type":"container"}},"type":"Feature"},
	{"geometry":{"coordinates":[9.728003,52.381608],"type":"Point"},"properties":{"osm_id":"308930046","tag":{"amenity":"recycling","recycling:clothes":"yes","recycling:glass":"yes","recycling:glass_bottles":"yes","recycling_type":"container"}},"type":"Feature"},
	{"geometry":{"coordinates":[9.695342,52.391472],"type":"Point"},"properties":{"osm_id":"313498472","tag":{"access":"no","amenity":"recycling"}},"type":"Feature"},
	{"geometry":{"coordinates":[9.71203,52.408689],"type":"Point"},"properties":{"osm_id":"460630843","tag":{"addr:city":"Hannover","addr:street":"Krepenstra\u00c3\u009fe","amenity":"recycling","operator":"AHA","recycling:clothes":"yes","recycling:glass_bottles":"yes","recycling:shoes":"yes","recycling_type":"container"}},"type":"Feature"},
	{"geometry":{"coordinates":[9.746052,52.38861],"type":"Point"},"properties":{"osm_id":"471288244","tag":{"amenity":"recycling","recycling:glass_bottles":"yes","recycling_type":"container"}},"type":"Feature"},
	{"geometry":{"coordinates":[9.687882,52.378555],"type":"Point"},"properties":{"osm_id":"503988127","tag":{"amenity":"recycling","recycling:clothes":"yes","recycling:glass_bottles":"yes","recycling_type":"container"}},"type":"Feature"},
	{"geometry":{"coordinates":[9.694609,52.375651],"type":"Point"},"properties":{"osm_id":"503988278","tag":{"amenity":"recycling","operator":"aha Zweckverband Abfallwirtschaft Region Hannover","recycling:glass_bottles":"yes","recycling_type":"container"}},"type":"Feature"},
	{"geometry":{"coordinates":[9.752715,52.382132],"type":"Point"},"properties":{"osm_id":"618841400","tag":{"amenity":"recycling","recycling:clothes":"yes","recycling:glass":"yes","recycling:paper":"no"}},"type":"Feature"},
	{"geometry":{"coordinates":[9.738841,52.390998],"type":"Point"},"properties":{"osm_id":"655145658","tag":{"addr:city":"Hannover","addr:street":"Isernhagener Stra\u00c3\u009fe","amenity":"recycling","operator":"AHA","recycling:clothes":"yes","recycling:glass_bottles":"yes","recycling:shoes":"yes","recycling_type":"container"}},"type":"Feature"},
	{"geometry":{"coordinates":[9.71926,52.385259],"type":"Point"},"properties":{"osm_id":"1080687544","tag":{"amenity":"waste_basket"}},"type":"Feature"},
	{"geometry":{"coordinates":[9.718695,52.385394],"type":"Point"},"properties":{"osm_id":"1080687551","tag":{"amenity":"waste_basket"}},"type":"Feature"},
	{"geometry":{"coordinates":[9.716734,52.384235],"type":"Point"},"properties":{"osm_id":"1080687566","tag":{"amenity":"waste_basket"}},"type":"Feature"},
	{"geometry":{"coordinates":[9.71924,52.38527],"type":"Point"},"properties":{"osm_id":"1080687610","tag":{"amenity":"waste_basket"}},"type":"Feature"},
	{"geometry":{"coordinates":[9.716701,52.384226],"type":"Point"},"properties":{"osm_id":"1080687622","tag":{"amenity":"waste_basket"}},"type":"Feature"},
	{"geometry":{"coordinates":[9.719868,52.384466],"type":"Point"},"properties":{"osm_id":"1080687688","tag":{"amenity":"waste_basket"}},"type":"Feature"},
	{"geometry":{"coordinates":[9.71755,52.384567],"type":"Point"},"properties":{"osm_id":"1080687705","tag":{"amenity":"waste_basket"}},"type":"Feature"},
	{"geometry":{"coordinates":[9.719727,52.384789],"type":"Point"},"properties":{"osm_id":"1080687720","tag":{"amenity":"waste_basket"}},"type":"Feature"},
	{"geometry":{"coordinates":[9.715793,52.383517],"type":"Point"},"properties":{"osm_id":"1080687724","tag":{"amenity":"waste_basket"}},"type":"Feature"},
	{"geometry":{"coordinates":[9.719611,52.385031],"type":"Point"},"properties":{"osm_id":"1080687730","tag":{"amenity":"waste_basket"}},"type":"Feature"},
	{"geometry":{"coordinates":[9.719601,52.385037],"type":"Point"},"properties":{"osm_id":"1080687747","tag":{"amenity":"waste_basket"}},"type":"Feature"},
	{"geometry":{"coordinates":[9.727862,52.387955],"type":"Point"},"properties":{"barrier":"gate","osm_id":"1253192935"},"type":"Feature"},
	{"geometry":{"coordinates":[9.721564,52.385751],"type":"Point"},"properties":{"osm_id":"1319555158","tag":{"amenity":"waste_basket"}},"type":"Feature"},
	{"geometry":{"coordinates":[9.721392,52.385837],"type":"Point"},"properties":{"osm_id":"1319555171","tag":{"amenity":"waste_basket"}},"type":"Feature"},
	{"geometry":{"coordinates":[9.722401,52.37977],"type":"Point"},"properties":{"osm_id":"1336969005","tag":{"amenity":"recycling","recycling_type":"container"}},"type":"Feature"},
	{"geometry":{"coordinates":[9.722561,52.379997],"type":"Point"},"properties":{"osm_id":"1336969039","tag":{"amenity":"recycling","recycling_type":"container"}},"type":"Feature"},
	{"geometry":{"coordinates":[9.722842,52.379609],"type":"Point"},"properties":{"osm_id":"1336969088","tag":{"amenity":"recycling","recycling_type":"container"}},"type":"Feature"},
	{"geometry":{"coordinates":[9.722993,52.379482],"type":"Point"},"properties":{"osm_id":"1336969156","tag":{"amenity":"recycling","recycling_type":"container"}},"type":"Feature"},
	{"geometry":{"coordinates":[9.720066,52.388929],"type":"Point"},"properties":{"barrier":"gate","osm_id":"1389400628"},"type":"Feature"},
	{"geometry":{"coordinates":[9.729151,52.385621],"type":"Point"},"properties":{"osm_id":"1408729951","tag":{"amenity":"recycling","recycling:clothes":"yes","recycling:glass":"yes","recycling_type":"container"}},"type":"Feature"},
	{"geometry":{"coordinates":[9.699855,52.385598],"type":"Point"},"properties":{"osm_id":"1408757942","tag":{"amenity":"waste_basket"}},"type":"Feature"},
	{"geometry":{"coordinates":[9.69047,52.404095],"type":"Point"},"properties":{"osm_id":"1560428217","tag":{"amenity":"recycling","operator":"aha Zweckverband Abfallwirtschaft Region Hannover","recycling:clothes":"yes","recycling:glass":"yes","recycling_type":"container"}},"type":"Feature"},
	{"geometry":{"coordinates":[9.741261,52.397947],"type":"Point"},"properties":{"osm_id":"1565038522","tag":{"addr:city":"Hannover","addr:street":"Isernhagener Stra\u00c3\u009fe","amenity":"recycling","operator":"AHA","recycling:clothes":"yes","recycling:glass_bottles":"yes","recycling:shoes":"yes","recycling_type":"container"}},"type":"Feature"},
	{"geometry":{"coordinates":[9.712965,52.401043],"type":"Point"},"properties":{"osm_id":"1579944104","tag":{"addr:city":"Hannover","addr:street":"Schulenburger Landstra\u00c3\u009fe","amenity":"recycling","operator":"AHA","recycling:clothes":"yes","recycling:glass_bottles":"yes","recycling:shoes":"yes","recycling_type":"container"}},"type":"Feature"},
	{"geometry":{"coordinates":[9.717028,52.388393],"type":"Point"},"properties":{"osm_id":"1596930039","tag":{"amenity":"waste_basket"}},"type":"Feature"},
	{"geometry":{"coordinates":[9.711937,52.391862],"type":"Point"},"properties":{"osm_id":"1760778574","tag":{"amenity":"recycling","recycling_type":"container"}},"type":"Feature"},
	{"geometry":{"coordinates":[9.678453,52.396008],"type":"Point"},"properties":{"osm_id":"1892989749","tag":{"amenity":"recycling","recycling:clothes":"yes","recycling:glass":"yes","recycling:shoes":"yes","recycling_type":"container"}},"type":"Feature"},
	{"geometry":{"coordinates":[9.66915,52.385951],"type":"Point"},"properties":{"osm_id":"1942442819","tag":{"amenity":"recycling","operator":"aha Zweckverband Abfallwirtschaft Region Hannover","recycling:clothes":"yes","recycling:glass":"no","recycling:glass_bottles":"yes","recycling_type":"container"}},"type":"Feature"},
	{"geometry":{"coordinates":[9.69206,52.386393],"type":"Point"},"properties":{"osm_id":"2177354306","tag":{"amenity":"waste_basket"}},"type":"Feature"},
	{"geometry":{"coordinates":[9.692913,52.388815],"type":"Point"},"properties":{"osm_id":"2177354308","tag":{"amenity":"waste_basket"}},"type":"Feature"},
	{"geometry":{"coordinates":[9.741292,52.385806],"type":"Point"},"properties":{"osm_id":"2179857629","tag":{"amenity":"recycling","opening_hours":"Mo-Sa 07:00-19:00; Su, PH off","recycling:clothes":"yes","recycling:glass_bottles":"yes","recycling_type":"container"}},"type":"Feature"},
	{"geometry":{"coordinates":[9.684423,52.393664],"type":"Point"},"properties":{"osm_id":"2392674325","tag":{"amenity":"waste_basket"}},"type":"Feature"},
	{"geometry":{"coordinates":[9.73146,52.383981],"type":"Point"},"properties":{"osm_id":"2420896352","tag":{"amenity":"waste_basket"}},"type":"Feature"},
	{"geometry":{"coordinates":[9.733664,52.380211],"type":"Point"},"properties":{"barrier":"gate","osm_id":"2421998007","tag":{"bicycle":"no","foot":"yes"}},"type":"Feature"},
	{"geometry":{"coordinates":[9.73367,52.380245],"type":"Point"},"properties":{"barrier":"gate","osm_id":"2421998011","tag":{"bicycle":"no","foot":"yes"}},"type":"Feature"},
	{"geometry":{"coordinates":[9.707172,52.384474],"type":"Point"},"properties":{"osm_id":"2426830673","tag":{"amenity":"waste_basket"}},"type":"Feature"},
	{"geometry":{"coordinates":[9.711956,52.388345],"type":"Point"},"properties":{"osm_id":"2439643044","tag":{"amenity":"waste_basket"}},"type":"Feature"},
	{"geometry":{"coordinates":[9.712039,52.3885],"type":"Point"},"properties":{"osm_id":"2439643047","tag":{"amenity":"waste_basket"}},"type":"Feature"},
	{"geometry":{"coordinates":[9.718394,52.385063],"type":"Point"},"properties":{"osm_id":"2451282491","tag":{"amenity":"waste_basket"}},"type":"Feature"},
	{"geometry":{"coordinates":[9.728135,52.388047],"type":"Point"},"properties":{"barrier":"gate","osm_id":"2496074278","tag":{"bicycle":"yes","foot":"yes","motorcar":"yes","motorcycle":"yes"}},"type":"Feature"},
	{"geometry":{"coordinates":[9.722198,52.390564],"type":"Point"},"properties":{"osm_id":"2521599431","tag":{"amenity":"recycling","recycling:shoes":"yes","recycling_type":"container"}},"type":"Feature"},
	{"geometry":{"coordinates":[9.723089,52.390628],"type":"Point"},"properties":{"osm_id":"2521599434","tag":{"amenity":"recycling","recycling:clothes":"yes","recycling_type":"container"}},"type":"Feature"},
	{"geometry":{"coordinates":[9.723164,52.390657],"type":"Point"},"properties":{"osm_id":"2521599436","tag":{"amenity":"waste_basket"}},"type":"Feature"},
	{"geometry":{"coordinates":[9.690137,52.422046],"type":"Point"},"properties":{"osm_id":"2547172812","tag":{"amenity":"waste_basket"}},"type":"Feature"},
	{"geometry":{"coordinates":[9.689792,52.422661],"type":"Point"},"properties":{"osm_id":"2547172813","tag":{"amenity":"waste_basket"}},"type":"Feature"},
	{"geometry":{"coordinates":[9.735261,52.394155],"type":"Point"},"properties":{"osm_id":"2560159758","tag":{"amenity":"waste_basket"}},"type":"Feature"},
	{"geometry":{"coordinates":[9.735386,52.394145],"type":"Point"},"properties":{"osm_id":"2560159759","tag":{"amenity":"waste_basket"}},"type":"Feature"},
	{"geometry":{"coordinates":[9.749059,52.393522],"type":"Point"},"properties":{"osm_id":"2610704878","tag":{"amenity":"recycling","recycling:cans":"no","recycling:clothes":"yes","recycling:glass":"yes","recycling:paper":"no","recycling_type":"container"}},"type":"Feature"},
	{"geometry":{"coordinates":[9.75257,52.394746],"type":"Point"},"properties":{"osm_id":"2610710319","tag":{"amenity":"recycling","recycling:cans":"no","recycling:clothes":"yes","recycling:glass":"yes","recycling:paper":"no","recycling_type":"container"}},"type":"Feature"},
	{"geometry":{"coordinates":[9.750558,52.389939],"type":"Point"},"properties":{"osm_id":"2725037238","tag":{"amenity":"recycling","recycling:cans":"no","recycling:clothes":"yes","recycling:glass":"yes","recycling_type":"container"}},"type":"Feature"},
	{"geometry":{"coordinates":[9.752726,52.389861],"type":"Point"},"properties":{"osm_id":"2727293869","tag":{"amenity":"waste_basket"}},"type":"Feature"},
	{"geometry":{"coordinates":[9.711365,52.383215],"type":"Point"},"properties":{"osm_id":"2971622483","tag":{"amenity":"waste_basket"}},"type":"Feature"},
	{"geometry":{"coordinates":[9.704149,52.39299],"type":"Point"},"properties":{"osm_id":"3122007215","tag":{"amenity":"recycling","recycling_type":"container"}},"type":"Feature"},
	{"geometry":{"coordinates":[9.689845,52.407256],"type":"Point"},"properties":{"osm_id":"3136621440","tag":{"amenity":"recycling","operator":"aha Zweckverband Abfallwirtschaft Region Hannover","recycling:clothes":"yes","recycling:glass":"yes","recycling_type":"container"}},"type":"Feature"},
	{"geometry":{"coordinates":[9.685317,52.391881],"type":"Point"},"properties":{"osm_id":"3182698857","tag":{"amenity":"recycling","recycling:paper":"yes","recycling_type":"container"}},"type":"Feature"},
	{"geometry":{"coordinates":[9.723973,52.390267],"type":"Point"},"properties":{"osm_id":"3429767450","tag":{"amenity":"waste_basket"}},"type":"Feature"},
	{"geometry":{"coordinates":[9.731481,52.423574],"type":"Point"},"properties":{"osm_id":"3599514312","tag":{"amenity":"recycling","recycling:shoes":"yes","recycling_type":"container"}},"type":"Feature"},
	{"geometry":{"coordinates":[9.684909,52.375656],"type":"Point"},"properties":{"osm_id":"3665274957","tag":{"amenity":"recycling","recycling:clothes":"yes","recycling:glass":"yes","recycling:glass_bottles":"yes","recycling_type":"container"}},"type":"Feature"},
	{"geometry":{"coordinates":[9.741282,52.413184],"type":"Point"},"properties":{"osm_id":"3696161331","tag":{"addr:city":"Hannover","addr:street":"Th\u00c3\u00bcringer Stra\u00c3\u009fe","amenity":"recycling","operator":"AHA","recycling:clothes":"yes","recycling:glass_bottles":"yes","recycling:shoes":"yes","recycling_type":"container"}},"type":"Feature"},
	{"geometry":{"coordinates":[9.734851,52.40782],"type":"Point"},"properties":{"osm_id":"3706537474","tag":{"amenity":"waste_basket"}},"type":"Feature"},
	{"geometry":{"coordinates":[9.734931,52.40794],"type":"Point"},"properties":{"osm_id":"3706537475","tag":{"amenity":"waste_basket"}},"type":"Feature"},
	{"geometry":{"coordinates":[9.730704,52.379762],"type":"Point"},"properties":{"osm_id":"3800875357","tag":{"amenity":"waste_basket"}},"type":"Feature"},
	{"geometry":{"coordinates":[9.684957,52.394054],"type":"Point"},"properties":{"osm_id":"3837764080","tag":{"amenity":"waste_basket"}},"type":"Feature"},
	{"geometry":{"coordinates":[9.714197,52.382755],"type":"Point"},"properties":{"osm_id":"3866882577","tag":{"amenity":"waste_basket"}},"type":"Feature"},
	{"geometry":{"coordinates":[9.712753,52.383433],"type":"Point"},"properties":{"osm_id":"3866882578","tag":{"amenity":"waste_basket"}},"type":"Feature"},
	{"geometry":{"coordinates":[9.711729,52.38222],"type":"Point"},"properties":{"osm_id":"3866882579","tag":{"amenity":"waste_basket"}},"type":"Feature"},
	{"geometry":{"coordinates":[9.714432,52.380661],"type":"Point"},"properties":{"osm_id":"3866882581","tag":{"amenity":"waste_basket"}},"type":"Feature"},
	{"geometry":{"coordinates":[9.714839,52.381693],"type":"Point"},"properties":{"osm_id":"3866951659","tag":{"amenity":"waste_basket"}},"type":"Feature"},
	{"geometry":{"coordinates":[9.713395,52.38097],"type":"Point"},"properties":{"osm_id":"3866976760","tag":{"amenity":"waste_basket"}},"type":"Feature"},
	{"geometry":{"coordinates":[9.714802,52.380668],"type":"Point"},"properties":{"osm_id":"3866976762","tag":{"amenity":"waste_basket"}},"type":"Feature"},
	{"geometry":{"coordinates":[9.714654,52.380653],"type":"Point"},"properties":{"osm_id":"3866996165","tag":{"amenity":"waste_basket"}},"type":"Feature"},
	{"geometry":{"coordinates":[9.711791,52.3821],"type":"Point"},"properties":{"osm_id":"3866996273","tag":{"amenity":"waste_basket"}},"type":"Feature"},
	{"geometry":{"coordinates":[9.712815,52.381188],"type":"Point"},"properties":{"osm_id":"3866996274","tag":{"amenity":"waste_basket"}},"type":"Feature"},
	{"geometry":{"coordinates":[9.704165,52.38542],"type":"Point"},"properties":{"osm_id":"3874969561","tag":{"amenity":"waste_basket"}},"type":"Feature"},
	{"geometry":{"coordinates":[9.71102,52.384635],"type":"Point"},"properties":{"osm_id":"3874969564","tag":{"amenity":"waste_basket"}},"type":"Feature"},
	{"geometry":{"coordinates":[9.716704,52.384229],"type":"Point"},"properties":{"osm_id":"3874969566","tag":{"amenity":"waste_basket"}},"type":"Feature"},
	{"geometry":{"coordinates":[9.703591,52.385937],"type":"Point"},"properties":{"osm_id":"3874970064","tag":{"amenity":"waste_basket"}},"type":"Feature"},
	{"geometry":{"coordinates":[9.707189,52.385208],"type":"Point"},"properties":{"osm_id":"3874970065","tag":{"amenity":"waste_basket"}},"type":"Feature"},
	{"geometry":{"coordinates":[9.707567,52.385835],"type":"Point"},"properties":{"osm_id":"3874970066","tag":{"amenity":"waste_basket"}},"type":"Feature"},
	{"geometry":{"coordinates":[9.707835,52.386056],"type":"Point"},"properties":{"osm_id":"3874970068","tag":{"amenity":"waste_basket"}},"type":"Feature"},
	{"geometry":{"coordinates":[9.708419,52.386333],"type":"Point"},"properties":{"osm_id":"3874970069","tag":{"amenity":"waste_basket"}},"type":"Feature"},
	{"geometry":{"coordinates":[9.715253,52.384118],"type":"Point"},"properties":{"osm_id":"3874970070","tag":{"amenity":"waste_basket"}},"type":"Feature"},
	{"geometry":{"coordinates":[9.707431,52.385687],"type":"Point"},"properties":{"osm_id":"3874985857","tag":{"amenity":"waste_basket"}},"type":"Feature"},
	{"geometry":{"coordinates":[9.708782,52.385662],"type":"Point"},"properties":{"osm_id":"3874985859","tag":{"amenity":"waste_basket"}},"type":"Feature"},
	{"geometry":{"coordinates":[9.708722,52.385361],"type":"Point"},"properties":{"osm_id":"3874985860","tag":{"amenity":"waste_basket"}},"type":"Feature"},
	{"geometry":{"coordinates":[9.7085,52.384395],"type":"Point"},"properties":{"osm_id":"3874985861","tag":{"amenity":"waste_basket"}},"type":"Feature"},
	{"geometry":{"coordinates":[9.713559,52.384899],"type":"Point"},"properties":{"osm_id":"3874985864","tag":{"amenity":"waste_basket"}},"type":"Feature"},
	{"geometry":{"coordinates":[9.713761,52.384266],"type":"Point"},"properties":{"osm_id":"3874985865","tag":{"amenity":"waste_basket"}},"type":"Feature"},
	{"geometry":{"coordinates":[9.713821,52.384179],"type":"Point"},"properties":{"osm_id":"3874985866","tag":{"amenity":"waste_basket"}},"type":"Feature"},
	{"geometry":{"coordinates":[9.719334,52.383033],"type":"Point"},"properties":{"osm_id":"3874985867","tag":{"amenity":"waste_basket"}},"type":"Feature"},
	{"geometry":{"coordinates":[9.671276,52.385218],"type":"Point"},"properties":{"osm_id":"3886468667","tag":{"addr:city":"Hannover","addr:postcode":"30453","addr:street":"Am Bahndamm","amenity":"recycling","operator":"unbekannt, evtl. ohne Genehmigung","recycling:cans":"no","recycling:clothes":"yes","recycling:glass":"no","recycling:glass_bottles":"no","recycling:paper":"no","recycling:plastic":"no","recycling_type":"container"}},"type":"Feature"},
	{"geometry":{"coordinates":[9.738491,52.376029],"type":"Point"},"properties":{"osm_id":"3903604868","tag":{"amenity":"waste_basket"}},"type":"Feature"},
	{"geometry":{"coordinates":[9.741136,52.376494],"type":"Point"},"properties":{"osm_id":"3975868822","tag":{"amenity":"waste_basket","level":"0"}},"type":"Feature"},
	{"geometry":{"coordinates":[9.741071,52.376524],"type":"Point"},"properties":{"osm_id":"3975868829","tag":{"amenity":"waste_basket","level":"0"}},"type":"Feature"},
	{"geometry":{"coordinates":[9.740941,52.376607],"type":"Point"},"properties":{"osm_id":"3975868846","tag":{"amenity":"waste_basket","level":"0"}},"type":"Feature"},
	{"geometry":{"coordinates":[9.740945,52.3768],"type":"Point"},"properties":{"osm_id":"4048984711","tag":{"amenity":"waste_basket","level":"0"}},"type":"Feature"},
	{"geometry":{"coordinates":[9.700447,52.387275],"type":"Point"},"properties":{"osm_id":"4117207812","tag":{"amenity":"waste_basket"}},"type":"Feature"},
	{"geometry":{"coordinates":[9.725739,52.379932],"type":"Point"},"properties":{"osm_id":"4273278498","tag":{"amenity":"waste_basket"}},"type":"Feature"},
	{"geometry":{"coordinates":[9.724932,52.379949],"type":"Point"},"properties":{"osm_id":"4273278904","tag":{"amenity":"waste_basket"}},"type":"Feature"},
	{"geometry":{"coordinates":[9.725713,52.377824],"type":"Point"},"properties":{"osm_id":"4283809692","tag":{"amenity":"waste_basket"}},"type":"Feature"},
	{"geometry":{"coordinates":[9.693866,52.400397],"type":"Point"},"properties":{"osm_id":"4318458364","tag":{"addr:city":"Hannover","addr:housenumber":"19","addr:postcode":"30419","addr:street":"Vinnhorster Weg","amenity":"recycling","operator":"aha","recycling:clothes":"yes","recycling:glass":"yes","recycling_type":"container"}},"type":"Feature"},
	{"geometry":{"coordinates":[9.731812,52.405585],"type":"Point"},"properties":{"osm_id":"4442355371","tag":{"addr:city":"Hannover","addr:postcode":"30165","addr:street":"B\u00c3\u00bcttnerstra\u00c3\u009fe","amenity":"recycling","operator":"AHA","recycling:clothes":"yes","recycling:glass_bottles":"yes","recycling:shoes":"yes","recycling_type":"container"}},"type":"Feature"},
	{"geometry":{"coordinates":[9.729699,52.398366],"type":"Point"},"properties":{"osm_id":"4463438974","tag":{"addr:city":"Hannover","addr:street":"Melanchthonstra\u00c3\u009fe","amenity":"recycling","check_date":"2016-10-17","operator":"private","recycling:clothes":"yes","recycling:shoes":"yes","recycling_type":"container"}},"type":"Feature"},
	{"geometry":{"coordinates":[9.726901,52.378241],"type":"Point"},"properties":{"osm_id":"4517070690","tag":{"amenity":"waste_basket"}},"type":"Feature"},
	{"geometry":{"coordinates":[9.727999,52.378637],"type":"Point"},"properties":{"osm_id":"4517129290","tag":{"amenity":"waste_basket"}},"type":"Feature"},
	{"geometry":{"coordinates":[9.736192,52.406383],"type":"Point"},"properties":{"osm_id":"4686216109","tag":{"addr:city":"Hannover","addr:street":"Windausstra\u00c3\u009fe","amenity":"recycling","operator":"AHA","recycling:clothes":"yes","recycling:glass_bottles":"yes","recycling:shoes":"yes","recycling_type":"container"}},"type":"Feature"},
	{"geometry":{"coordinates":[9.741256,52.413146],"type":"Point"},"properties":{"osm_id":"4686235911","tag":{"amenity":"waste_basket","operator":"AHA"}},"type":"Feature"},
	{"geometry":{"coordinates":[9.723426,52.390031],"type":"Point"},"properties":{"osm_id":"5210294238","tag":{"amenity":"waste_basket"}},"type":"Feature"},
	{"geometry":{"coordinates":[9.72332,52.390133],"type":"Point"},"properties":{"osm_id":"5210294239","tag":{"amenity":"waste_basket"}},"type":"Feature"},
	{"geometry":{"coordinates":[9.719446,52.382605],"type":"Point"},"properties":{"osm_id":"5212818678","tag":{"amenity":"recycling","operator":"LUH","recycling_type":"container"}},"type":"Feature"},
	{"geometry":{"coordinates":[9.753936,52.392096],"type":"Point"},"properties":{"osm_id":"5298360852","tag":{"amenity":"recycling","location":"overground","recycling:clothes":"yes","recycling:glass":"yes","recycling_type":"container"}},"type":"Feature"},
	{"geometry":{"coordinates":[9.721974,52.380107],"type":"Point"},"properties":{"osm_id":"5577948270","tag":{"amenity":"recycling","recycling:beverage_cartons":"yes","recycling:cartons":"yes","recycling:glass":"yes","recycling:green_waste":"yes","recycling:paper":"yes","recycling:plastic":"yes","recycling:plastic_packaging":"yes","recycling:waste":"yes","recycling_type":"container"}},"type":"Feature"},
	{"geometry":{"coordinates":[9.712212,52.402105],"type":"Point"},"properties":{"osm_id":"5647289961","tag":{"amenity":"waste_basket","waste":"trash"}},"type":"Feature"},
	{"geometry":{"coordinates":[9.726288,52.384174],"type":"Point"},"properties":{"osm_id":"5903462897","tag":{"amenity":"waste_disposal","waste":"trash"}},"type":"Feature"},
	{"geometry":{"coordinates":[9.729549,52.387342],"type":"Point"},"properties":{"osm_id":"5922943785","tag":{"amenity":"waste_disposal"}},"type":"Feature"},
	{"geometry":{"coordinates":[9.740206,52.394311],"type":"Point"},"properties":{"osm_id":"6123264759","tag":{"amenity":"recycling","recycling:clothes":"yes","recycling:glass_bottles":"yes","recycling:shoes":"yes","recycling_type":"container"}},"type":"Feature"},
	{"geometry":{"coordinates":[9.73999,52.408893],"type":"Point"},"properties":{"osm_id":"6304588102","tag":{"amenity":"waste_basket"}},"type":"Feature"},
	{"geometry":{"coordinates":[9.739772,52.408515],"type":"Point"},"properties":{"osm_id":"6304588104","tag":{"amenity":"waste_basket"}},"type":"Feature"},
	{"geometry":{"coordinates":[9.740184,52.409464],"type":"Point"},"properties":{"osm_id":"6304588105","tag":{"amenity":"recycling","recycling:paper":"yes","recycling_type":"container"}},"type":"Feature"},
	{"geometry":{"coordinates":[9.733305,52.399782],"type":"Point"},"properties":{"osm_id":"6330528638","tag":{"amenity":"waste_basket"}},"type":"Feature"},
	{"geometry":{"coordinates":[9.730742,52.385858],"type":"Point"},"properties":{"osm_id":"6468615290","tag":{"amenity":"waste_disposal","waste":"trash"}},"type":"Feature"},
	{"geometry":{"coordinates":[9.730597,52.385961],"type":"Point"},"properties":{"osm_id":"6468615291","tag":{"amenity":"waste_disposal","waste":"trash"}},"type":"Feature"},
	{"geometry":{"coordinates":[9.731422,52.385894],"type":"Point"},"properties":{"osm_id":"6468615292","tag":{"amenity":"waste_basket","waste":"trash"}},"type":"Feature"},
	{"geometry":{"coordinates":[9.731063,52.385826],"type":"Point"},"properties":{"osm_id":"6468615293","tag":{"amenity":"waste_basket","waste":"trash"}},"type":"Feature"},
	{"geometry":{"coordinates":[9.74035,52.376195],"type":"Point"},"properties":{"osm_id":"6491163910","tag":{"amenity":"waste_basket"}},"type":"Feature"},
	{"geometry":{"coordinates":[9.711699,52.387779],"type":"Point"},"properties":{"osm_id":"6511715020","tag":{"amenity":"waste_basket"}},"type":"Feature"},
	{"geometry":{"coordinates":[9.711269,52.388151],"type":"Point"},"properties":{"osm_id":"6511715022","tag":{"amenity":"waste_basket"}},"type":"Feature"},
	{"geometry":{"coordinates":[9.728705,52.385369],"type":"Point"},"properties":{"osm_id":"6699192483","tag":{"amenity":"waste_disposal","waste":"trash"}},"type":"Feature"},
	{"geometry":{"coordinates":[9.726823,52.384909],"type":"Point"},"properties":{"osm_id":"6699228026","tag":{"amenity":"waste_disposal","waste":"trash"}},"type":"Feature"},
	{"geometry":{"coordinates":[9.745325,52.386787],"type":"Point"},"properties":{"osm_id":"6805732099","tag":{"amenity":"waste_basket","waste":"trash"}},"type":"Feature"},
	{"geometry":{"coordinates":[9.684626,52.39362],"type":"Point"},"properties":{"osm_id":"6958600535","tag":{"amenity":"waste_basket","waste":"trash"}},"type":"Feature"},
	{"geometry":{"coordinates":[9.715477,52.386486],"type":"Point"},"properties":{"osm_id":"6985640770","tag":{"amenity":"waste_basket","waste":"trash"}},"type":"Feature"},
	{"geometry":{"coordinates":[9.714902,52.387571],"type":"Point"},"properties":{"osm_id":"7251434468","tag":{"amenity":"waste_basket"}},"type":"Feature"},
	{"geometry":{"coordinates":[9.714863,52.387689],"type":"Point"},"properties":{"osm_id":"7251434469","tag":{"amenity":"waste_basket"}},"type":"Feature"},
	{"geometry":{"coordinates":[9.749366,52.388856],"type":"Point"},"properties":{"osm_id":"7553649680","tag":{"amenity":"waste_basket","colour":"gray","material":"metal","operator":"aha","waste":"trash"}},"type":"Feature"},
	{"geometry":{"coordinates":[9.74627,52.383977],"type":"Point"},"properties":{"osm_id":"7555400962","tag":{"amenity":"waste_basket","waste":"trash"}},"type":"Feature"},
	{"geometry":{"coordinates":[9.745229,52.385573],"type":"Point"},"properties":{"osm_id":"7555403912","tag":{"amenity":"waste_basket","operator":"aha","waste":"trash"}},"type":"Feature"},
	{"geometry":{"coordinates":[9.7455,52.385167],"type":"Point"},"properties":{"osm_id":"7555403914","tag":{"amenity":"waste_basket","colour":"grey","covered":"no","indoor":"no","operator":"aha","waste":"trash"}},"type":"Feature"},
	{"geometry":{"coordinates":[9.744179,52.386975],"type":"Point"},"properties":{"osm_id":"7555408393","tag":{"amenity":"waste_basket","colour":"grey","covered":"no","indoor":"no","operator":"aha","waste":"trash"}},"type":"Feature"},
	{"geometry":{"coordinates":[9.742232,52.389973],"type":"Point"},"properties":{"osm_id":"7555414205","tag":{"amenity":"waste_basket","colour":"grey","covered":"no","indoor":"no","operator":"aha","waste":"trash"}},"type":"Feature"},
	{"geometry":{"coordinates":[9.743962,52.378847],"type":"Point"},"properties":{"osm_id":"7555420609","tag":{"amenity":"waste_basket"}},"type":"Feature"},
	{"geometry":{"coordinates":[9.743471,52.378555],"type":"Point"},"properties":{"osm_id":"7555420610","tag":{"amenity":"waste_basket"}},"type":"Feature"},
	{"geometry":{"coordinates":[9.71636,52.386006],"type":"Point"},"properties":{"osm_id":"7903388796","tag":{"amenity":"waste_basket","waste":"trash"}},"type":"Feature"},
	{"geometry":{"coordinates":[9.716607,52.385774],"type":"Point"},"properties":{"osm_id":"7903388802","tag":{"amenity":"waste_basket","waste":"trash"}},"type":"Feature"}
]
}
