{
"type": "FeatureCollection",
"features": [
	{"geometry":{"coordinates":[9.722323,52.317028],"type":"Point"},"properties":{"osm_id":"316922147","tag":{"amenity":"recycling","operator":"aha - Zweckverband Abfallwirtschaft Region Hannover","recycling:clothes":"yes","recycling:glass_bottles":"yes","recycling:paper":"yes","recycling_type":"container","wheelchair":"limited"}},"type":"Feature"},
	{"geometry":{"coordinates":[9.725729,52.308417],"type":"Point"},"properties":{"osm_id":"331272433","tag":{"amenity":"recycling","operator":"Betriebshof der Stadt Hemmingen","recycling:glass":"yes","recycling:glass_bottles":"yes","recycling:green_waste":"yes","recycling:paper":"yes","recycling_type":"centre"}},"type":"Feature"},
	{"geometry":{"coordinates":[9.742118,52.296111],"type":"Point"},"properties":{"osm_id":"600675202","tag":{"amenity":"recycling","recycling:clothes":"yes","recycling:glass_bottles":"yes","recycling:paper":"yes","recycling:shoes":"yes","recycling_type":"container"}},"type":"Feature"},
	{"geometry":{"coordinates":[9.734035,52.295633],"type":"Point"},"properties":{"osm_id":"985781808","tag":{"amenity":"recycling","operator":"aha - Zweckverband Abfallwirtschaft Region Hannover","recycling:clothes":"yes","recycling:glass":"yes","recycling:glass_bottles":"yes","recycling:paper":"yes","recycling:shoes":"yes","recycling_type":"container","wheelchair":"yes"}},"type":"Feature"},
	{"geometry":{"coordinates":[9.739661,52.298577],"type":"Point"},"properties":{"osm_id":"2098309160","tag":{"amenity":"recycling","recycling:clothes":"yes","recycling_type":"container"}},"type":"Feature"},
	{"geometry":{"coordinates":[9.722092,52.285631],"type":"Point"},"properties":{"name":"Gr\u00c3\u00bcngutannahmestelle Hiddestorf/Ohlendorf","osm_id":"2112805845","tag":{"addr:city":"Hemmingen","addr:housenumber":"20","addr:postcode":"30966","addr:street":"Bruchweg","amenity":"recycling","collection_times":"We 16:00-18:00; Sa 09:00-12:00","opening_hours":"We 16:00-18:00; Sa 09:00-12:00","operator":"AHA Hannover","recycling:clothes":"yes","recycling:glass":"yes","recycling:green_waste":"yes","recycling_type":"centre","wheelchair":"no"}},"type":"Feature"},
	{"geometry":{"coordinates":[9.731402,52.288925],"type":"Point"},"properties":{"osm_id":"2745410283","tag":{"amenity":"waste_basket"}},"type":"Feature"},
	{"geometry":{"coordinates":[9.739647,52.301972],"type":"Point"},"properties":{"osm_id":"2951150414","tag":{"amenity":"waste_basket"}},"type":"Feature"},
	{"geometry":{"coordinates":[9.739929,52.303148],"type":"Point"},"properties":{"osm_id":"4607667319","tag":{"amenity":"waste_basket"}},"type":"Feature"},
	{"geometry":{"coordinates":[9.736629,52.301697],"type":"Point"},"properties":{"osm_id":"4607667325","tag":{"amenity":"waste_basket"}},"type":"Feature"},
	{"geometry":{"coordinates":[9.733972,52.299284],"type":"Point"},"properties":{"osm_id":"4607667326","tag":{"amenity":"waste_basket"}},"type":"Feature"},
	{"geometry":{"coordinates":[9.739512,52.3204],"type":"Point"},"properties":{"osm_id":"4988794688","tag":{"amenity":"waste_basket"}},"type":"Feature"},
	{"geometry":{"coordinates":[9.737483,52.321313],"type":"Point"},"properties":{"osm_id":"4988794694","tag":{"amenity":"waste_basket"}},"type":"Feature"},
	{"geometry":{"coordinates":[9.742677,52.319131],"type":"Point"},"properties":{"osm_id":"4988794738","tag":{"amenity":"waste_basket"}},"type":"Feature"},
	{"geometry":{"coordinates":[9.734229,52.321846],"type":"Point"},"properties":{"osm_id":"4997964087","tag":{"amenity":"waste_basket"}},"type":"Feature"},
	{"geometry":{"coordinates":[9.727879,52.320028],"type":"Point"},"properties":{"osm_id":"5001884045","tag":{"amenity":"recycling","opening_hours":"24/7","operator":"aha","recycling:paper":"yes","recycling_type":"container"}},"type":"Feature"},
	{"geometry":{"coordinates":[9.727879,52.320054],"type":"Point"},"properties":{"osm_id":"5001884060","tag":{"amenity":"recycling","opening_hours":"Mo-Sa 07:00-19:00; Su,PH off","operator":"Rhenus","recycling:glass_bottles":"yes","recycling_type":"container"}},"type":"Feature"},
	{"geometry":{"coordinates":[9.72791,52.320036],"type":"Point"},"properties":{"osm_id":"5001884088","tag":{"amenity":"recycling","opening_hours":"07:00-19:00","operator":"aha","recycling:clothes":"yes","recycling_type":"container"}},"type":"Feature"},
	{"geometry":{"coordinates":[9.735461,52.308158],"type":"Point"},"properties":{"osm_id":"5300864592","tag":{"amenity":"waste_basket"}},"type":"Feature"},
	{"geometry":{"coordinates":[9.700935,52.300256],"type":"Point"},"properties":{"osm_id":"8376405325","tag":{"amenity":"waste_basket"}},"type":"Feature"}
]
}
