{
"type": "FeatureCollection",
"features": [
	{"geometry":{"coordinates":[9.740513,51.535506],"type":"Point"},"properties":{"osm_id":"1629691105","ref":"284;331","tag":{"amenity":"recycling","opening_hours":"Mo-Sa 07:00-19:00; PH off","operator":"Fehr","recycling:glass":"no","recycling:glass_bottles":"yes","recycling_type":"container","survey:date":"2021-03-10"}},"type":"Feature"},
	{"geometry":{"coordinates":[9.72884,51.520968],"type":"Point"},"properties":{"osm_id":"3900348347","tag":{"amenity":"waste_basket","survey:date":"2015-12-19"}},"type":"Feature"},
	{"geometry":{"coordinates":[9.727621,51.520998],"type":"Point"},"properties":{"osm_id":"3900348349","tag":{"amenity":"waste_basket","survey:date":"2015-12-19"}},"type":"Feature"},
	{"geometry":{"coordinates":[9.739485,51.539009],"type":"Point"},"properties":{"osm_id":"5731170479","tag":{"amenity":"waste_basket","survey:date":"2018-06-28"}},"type":"Feature"},
	{"geometry":{"coordinates":[9.739262,51.539489],"type":"Point"},"properties":{"osm_id":"5731170489","tag":{"amenity":"waste_basket","survey:date":"2018-06-28"}},"type":"Feature"},
	{"geometry":{"coordinates":[9.70326,51.521165],"type":"Point"},"properties":{"osm_id":"5869387789","ref":"400","tag":{"amenity":"recycling","opening_hours":"Mo-Sa 07:00-19:00; PH off","operator":"Fehr","recycling:glass":"no","recycling:glass_bottles":"yes","recycling_type":"container","survey:date":"2019-09-11"}},"type":"Feature"},
	{"geometry":{"coordinates":[9.703246,51.521143],"type":"Point"},"properties":{"osm_id":"5869387790","tag":{"amenity":"recycling","operator":"Darbo Recycling","recycling:clothes":"yes","recycling:shoes":"yes","recycling_type":"container","survey:date":"2018-10-14"}},"type":"Feature"},
	{"geometry":{"coordinates":[9.680636,51.513083],"type":"Point"},"properties":{"osm_id":"5979606530","tag":{"amenity":"waste_basket","material":"metal","survey:date":"2020-05-31"}},"type":"Feature"},
	{"geometry":{"coordinates":[9.707717,51.520201],"type":"Point"},"properties":{"osm_id":"5984033092","tag":{"amenity":"waste_basket","survey:date":"2018-10-14"}},"type":"Feature"},
	{"geometry":{"coordinates":[9.703277,51.520539],"type":"Point"},"properties":{"osm_id":"5984033442","tag":{"amenity":"waste_basket","survey:date":"2018-10-14"}},"type":"Feature"},
	{"geometry":{"coordinates":[9.697068,51.519555],"type":"Point"},"properties":{"osm_id":"5984047797","ref":"202","tag":{"amenity":"recycling","opening_hours":"Mo-Sa 07:00-19:00; PH off","operator":"Fehr","recycling:glass":"no","recycling:glass_bottles":"yes","recycling_type":"container","survey:date":"2019-09-11"}},"type":"Feature"},
	{"geometry":{"coordinates":[9.729915,51.521489],"type":"Point"},"properties":{"osm_id":"6017673474","tag":{"amenity":"waste_basket","survey:date":"2018-10-14"}},"type":"Feature"},
	{"geometry":{"coordinates":[9.728787,51.52242],"type":"Point"},"properties":{"osm_id":"6018154607","ref":"391","tag":{"amenity":"recycling","opening_hours":"Mo-Sa 07:00-19:00; PH off","operator":"Fehr","recycling:glass":"no","recycling:glass_bottles":"yes","recycling_type":"container","survey:date":"2019-09-14"}},"type":"Feature"},
	{"geometry":{"coordinates":[9.728832,51.522265],"type":"Point"},"properties":{"osm_id":"6018154608","tag":{"amenity":"recycling","operator":"Darbo Recycling","recycling:clothes":"yes","recycling:shoes":"yes","recycling_type":"container","survey:date":"2018-10-14"}},"type":"Feature"},
	{"geometry":{"coordinates":[9.731581,51.519615],"type":"Point"},"properties":{"osm_id":"6018155076","tag":{"amenity":"waste_basket","survey:date":"2018-10-14"}},"type":"Feature"},
	{"geometry":{"coordinates":[9.730091,51.519605],"type":"Point"},"properties":{"osm_id":"6018155385","tag":{"amenity":"waste_basket","survey:date":"2018-10-14"}},"type":"Feature"},
	{"geometry":{"coordinates":[9.680998,51.512829],"type":"Point"},"properties":{"osm_id":"6789621599","tag":{"amenity":"waste_basket","survey:date":"2019-09-11"}},"type":"Feature"},
	{"geometry":{"coordinates":[9.681912,51.512486],"type":"Point"},"properties":{"osm_id":"6789621652","tag":{"amenity":"waste_basket","survey:date":"2019-09-11"}},"type":"Feature"},
	{"geometry":{"coordinates":[9.683243,51.51056],"type":"Point"},"properties":{"osm_id":"6789621681","tag":{"amenity":"waste_basket","material":"metal","support":"pole","survey:date":"2020-05-31"}},"type":"Feature"},
	{"geometry":{"coordinates":[9.683481,51.510403],"type":"Point"},"properties":{"osm_id":"6789621683","tag":{"amenity":"waste_basket","survey:date":"2019-09-11"}},"type":"Feature"},
	{"geometry":{"coordinates":[9.676126,51.510884],"type":"Point"},"properties":{"osm_id":"6789672793","tag":{"amenity":"recycling","operator":"Darbo Recycling","recycling:clothes":"yes","recycling:shoes":"yes","recycling_type":"container","survey:date":"2019-09-11"}},"type":"Feature"},
	{"geometry":{"coordinates":[9.676093,51.510888],"type":"Point"},"properties":{"osm_id":"6789672794","ref":"332","tag":{"amenity":"recycling","opening_hours":"Mo-Sa 07:00-19:00; PH off","operator":"Fehr","recycling:glass":"no","recycling:glass_bottles":"yes","recycling_type":"container","survey:date":"2020-05-31"}},"type":"Feature"},
	{"geometry":{"coordinates":[9.729737,51.522461],"type":"Point"},"properties":{"osm_id":"6795990785","tag":{"amenity":"waste_basket","survey:date":"2019-09-14"}},"type":"Feature"},
	{"geometry":{"coordinates":[9.73656,51.520027],"type":"Point"},"properties":{"osm_id":"6795990813","tag":{"amenity":"waste_basket","survey:date":"2019-09-14"}},"type":"Feature"},
	{"geometry":{"coordinates":[9.736698,51.519694],"type":"Point"},"properties":{"osm_id":"6795990814","tag":{"amenity":"waste_basket","survey:date":"2019-09-14"}},"type":"Feature"},
	{"geometry":{"coordinates":[9.728883,51.5195],"type":"Point"},"properties":{"osm_id":"7573528784","tag":{"amenity":"waste_basket","material":"metal","survey:date":"2020-05-30"}},"type":"Feature"},
	{"geometry":{"coordinates":[9.707934,51.520102],"type":"Point"},"properties":{"osm_id":"7573529390","tag":{"amenity":"waste_basket","material":"metal","survey:date":"2020-05-30"}},"type":"Feature"},
	{"geometry":{"coordinates":[9.674947,51.511071],"type":"Point"},"properties":{"osm_id":"7576189114","tag":{"amenity":"waste_basket","material":"metal","support":"pole","survey:date":"2020-05-31"}},"type":"Feature"},
	{"geometry":{"coordinates":[9.739856,51.536354],"type":"Point"},"properties":{"osm_id":"8504727776","tag":{"amenity":"waste_basket","material":"metal","survey:date":"2021-03-10"}},"type":"Feature"},
	{"geometry":{"coordinates":[9.740557,51.535478],"type":"Point"},"properties":{"osm_id":"8504727793","tag":{"amenity":"recycling","recycling:shoes":"yes","recycling_type":"container","survey:date":"2021-03-10"}},"type":"Feature"}
]
}
