{
"type": "FeatureCollection",
"features": [
	{"geometry":{"coordinates":[9.72868,51.462198],"type":"Point"},"properties":{"osm_id":"278694927","ref":"384;355;378","tag":{"amenity":"recycling","operator":"Fehr","recycling:glass":"no","recycling:glass_bottles":"yes","recycling_type":"container","survey:date":"2020-05-26"}},"type":"Feature"},
	{"geometry":{"coordinates":[9.709563,51.50188],"type":"Point"},"properties":{"osm_id":"309353154","ref":"361;401","tag":{"amenity":"recycling","operator":"Fehr","recycling:glass":"no","recycling:glass_bottles":"yes","recycling_type":"container","survey:date":"2019-09-14"}},"type":"Feature"},
	{"geometry":{"coordinates":[9.725301,51.460155],"type":"Point"},"properties":{"osm_id":"3898310665","tag":{"amenity":"waste_basket","material":"metal","survey:date":"202-0"}},"type":"Feature"},
	{"geometry":{"coordinates":[9.724983,51.460391],"type":"Point"},"properties":{"osm_id":"3898310673","tag":{"amenity":"waste_basket","material":"metal","survey:date":"202-0"}},"type":"Feature"},
	{"geometry":{"coordinates":[9.709619,51.502929],"type":"Point"},"properties":{"osm_id":"3900336546","tag":{"amenity":"waste_basket","survey:date":"2015-12-19"}},"type":"Feature"},
	{"geometry":{"coordinates":[9.684552,51.483122],"type":"Point"},"properties":{"osm_id":"4557103883","tag":{"amenity":"recycling","operator":"Darbo Recycling","recycling:clothes":"yes","recycling:shoes":"yes","recycling_type":"container","survey:date":"2019-09-11"}},"type":"Feature"},
	{"geometry":{"coordinates":[9.684455,51.48324],"type":"Point"},"properties":{"osm_id":"4557103884","ref":"302;304","tag":{"amenity":"recycling","operator":"Fehr","recycling:glass_bottles":"yes","recycling_type":"container","survey:date":"2019-09-11"}},"type":"Feature"},
	{"geometry":{"coordinates":[9.709531,51.501874],"type":"Point"},"properties":{"osm_id":"6795989482","tag":{"amenity":"recycling","operator":"Darbo Recycling","recycling:clothes":"yes","recycling:shoes":"yes","recycling_type":"container","survey:date":"2019-09-14"}},"type":"Feature"},
	{"geometry":{"coordinates":[9.705046,51.468737],"type":"Point"},"properties":{"osm_id":"7204271438","tag":{"amenity":"waste_basket","material":"metal","survey:date":"2020-05-30"}},"type":"Feature"},
	{"geometry":{"coordinates":[9.693454,51.456513],"type":"Point"},"properties":{"osm_id":"7561072138","tag":{"amenity":"waste_basket","material":"metal","survey:date":"2020-05-26"}},"type":"Feature"},
	{"geometry":{"coordinates":[9.699574,51.455063],"type":"Point"},"properties":{"osm_id":"7561072297","ref":"374","tag":{"amenity":"recycling","opening_hours":"Mo-Sa 07:00-19:00; PH off","operator":"Fehr","recycling:glass":"no","recycling:glass_bottles":"yes","recycling_type":"container","survey:date":"2020-05-26"}},"type":"Feature"},
	{"geometry":{"coordinates":[9.699579,51.45508],"type":"Point"},"properties":{"osm_id":"7561072298","tag":{"amenity":"recycling","operator":"SP Textilverwertung","recycling:clothes":"yes","recycling:shoes":"yes","recycling_type":"container","survey:date":"2020-05-26"}},"type":"Feature"},
	{"geometry":{"coordinates":[9.727293,51.458004],"type":"Point"},"properties":{"osm_id":"7562963663","tag":{"amenity":"waste_basket","survey:date":"2020-05-26"}},"type":"Feature"},
	{"geometry":{"coordinates":[9.727629,51.459522],"type":"Point"},"properties":{"osm_id":"7562963673","tag":{"amenity":"waste_basket","survey:date":"2020-05-26"}},"type":"Feature"},
	{"geometry":{"coordinates":[9.728731,51.462241],"type":"Point"},"properties":{"osm_id":"7562963737","tag":{"amenity":"recycling","operator":"Retextil","recycling:clothes":"yes","recycling:shoes":"yes","recycling_type":"container","survey:date":"2020-05-26"}},"type":"Feature"},
	{"geometry":{"coordinates":[9.729039,51.462286],"type":"Point"},"properties":{"osm_id":"7562963921","tag":{"amenity":"waste_basket","survey:date":"2020-05-26"}},"type":"Feature"},
	{"geometry":{"coordinates":[9.70137,51.454046],"type":"Point"},"properties":{"osm_id":"7563007763","tag":{"amenity":"waste_basket","material":"metal","survey:date":"2020-05-26"}},"type":"Feature"},
	{"geometry":{"coordinates":[9.709599,51.502293],"type":"Point"},"properties":{"osm_id":"7573516334","tag":{"amenity":"waste_basket","material":"metal","survey:date":"2020-05-30"}},"type":"Feature"},
	{"geometry":{"coordinates":[9.711213,51.466837],"type":"Point"},"properties":{"osm_id":"7573633565","ref":"400","tag":{"amenity":"recycling","operator":"Fehr","recycling:glass":"no","recycling:glass_bottles":"yes","recycling_type":"container","survey:date":"2020-05-30"}},"type":"Feature"},
	{"geometry":{"coordinates":[9.712997,51.47013],"type":"Point"},"properties":{"osm_id":"7573633582","tag":{"amenity":"waste_basket","survey:date":"2020-05-30"}},"type":"Feature"},
	{"geometry":{"coordinates":[9.713032,51.470167],"type":"Point"},"properties":{"osm_id":"7573633583","tag":{"amenity":"waste_basket","survey:date":"2020-05-30"}},"type":"Feature"},
	{"geometry":{"coordinates":[9.707039,51.468734],"type":"Point"},"properties":{"osm_id":"7573633614","tag":{"amenity":"waste_basket","material":"metal","support":"pole","survey:date":"2020-05-30"}},"type":"Feature"},
	{"geometry":{"coordinates":[9.731776,51.457545],"type":"Point"},"properties":{"osm_id":"7574138056","tag":{"amenity":"waste_basket","survey:date":"2020-05-30"}},"type":"Feature"},
	{"geometry":{"coordinates":[9.731991,51.457418],"type":"Point"},"properties":{"osm_id":"7574138063","tag":{"amenity":"waste_basket","survey:date":"2020-05-30"}},"type":"Feature"},
	{"geometry":{"coordinates":[9.721879,51.459101],"type":"Point"},"properties":{"osm_id":"7578963953","tag":{"amenity":"waste_basket","material":"metal","survey:date":"202-0"}},"type":"Feature"},
	{"geometry":{"coordinates":[9.720321,51.458764],"type":"Point"},"properties":{"osm_id":"7578963969","tag":{"amenity":"waste_basket","survey:date":"2020-05-31"}},"type":"Feature"},
	{"geometry":{"coordinates":[9.732945,51.461471],"type":"Point"},"properties":{"osm_id":"7579109500","tag":{"amenity":"waste_basket","material":"metal","support":"pole","survey:date":"2020-05-31"}},"type":"Feature"},
	{"geometry":{"coordinates":[9.732773,51.461532],"type":"Point"},"properties":{"osm_id":"7579109501","tag":{"amenity":"waste_basket","material":"metal","support":"pole","survey:date":"2020-05-31"}},"type":"Feature"},
	{"geometry":{"coordinates":[9.735917,51.461663],"type":"Point"},"properties":{"osm_id":"7579109582","tag":{"amenity":"waste_basket","material":"metal","support":"pole","survey:date":"2020-05-31"}},"type":"Feature"},
	{"geometry":{"coordinates":[9.718273,51.457633],"type":"Point"},"properties":{"osm_id":"7579122847","tag":{"amenity":"waste_basket","material":"metal","support":"pole","survey:date":"2020-05-31"}},"type":"Feature"}
]
}
