{
"type": "FeatureCollection",
"features": [
	{"geometry":{"coordinates":[9.728523,50.243942],"type":"Point"},"properties":{"osm_id":"6780899284","tag":{"amenity":"recycling","description":"Gr\u00fcnglas; Wei\u00dfglas","email":"info@ms-umweltservice.de","fax":"+49 (0) 9352 60577 20","opening_hours":"Mo-Fr 07:00-13:00, Mo-Fr 15:00-19:00","operator":"MS Umweltservice GmbH","phone":"+49 (0) 9352 60577 0","recycling:glass_bottles":"yes","recycling_type":"container","website":"https://ms-umweltservice.bayern/","wheelchair":"yes"}},"type":"Feature"},
	{"geometry":{"coordinates":[9.728545,50.243962],"type":"Point"},"properties":{"osm_id":"6780899285","tag":{"amenity":"recycling","description":"Braunglas; Dosen / Wei\u00dfblech","email":"info@ms-umweltservice.de","fax":"+49 (0) 9352 60577 20","opening_hours":"Mo-Fr 07:00-13:00, Mo-Fr 15:00-20:00","operator":"MS Umweltservice GmbH","phone":"+49 (0) 9352 60577 0","recycling:cans":"yes","recycling:glass_bottles":"yes","recycling_type":"container","website":"https://ms-umweltservice.bayern/","wheelchair":"yes"}},"type":"Feature"},
	{"geometry":{"coordinates":[9.728568,50.243983],"type":"Point"},"properties":{"osm_id":"6780899286","tag":{"amenity":"recycling","description":"Kleidung; Bett- und Haushaltsw\u00e4sche; Schuhe (paarweise gep\u00fcndelt). In Plastiks\u00e4cke verpackt einwerfen","email":"info@kvbad-kissingen.brk.de","fax":"+49 971 7272 170","image":"https://upload.wikimedia.org/wikipedia/commons/0/0b/BRK_Logo.svg","operator":"Bayerisches Rotes Kreuz","phone":"+49 971 7272 0","recycling:clothes":"yes","recycling:shoes":"yes","recycling_type":"container","website":"http://www.kvbad-kissingen.brk.de/","wheelchair":"yes","wikipedia":"de:Bayerisches Rotes Kreuz"}},"type":"Feature"},
	{"geometry":{"coordinates":[9.728635,50.240068],"type":"Point"},"properties":{"osm_id":"7228553318","tag":{"amenity":"waste_basket","email":"info@belloo.com","operator":"practica GmbH","phone":"+49 7621 913749","support":"traffic_sign","waste":"dog_excrement","website":"https://www.belloo.com/"}},"type":"Feature"}
]
}
