{
"type": "FeatureCollection",
"features": [
	{"geometry":{"coordinates":[9.670084,49.623854],"type":"Point"},"properties":{"osm_id":"427562084","tag":{"amenity":"recycling","recycling:clothes":"yes","recycling_type":"container"}},"type":"Feature"},
	{"geometry":{"coordinates":[9.671796,49.613781],"type":"Point"},"properties":{"osm_id":"1716293864","tag":{"amenity":"waste_basket","designation":"Here is a park bench with a trash"}},"type":"Feature"},
	{"geometry":{"coordinates":[9.670779,49.614374],"type":"Point"},"properties":{"osm_id":"1716304684","tag":{"amenity":"waste_basket"}},"type":"Feature"},
	{"geometry":{"coordinates":[9.66889,49.615298],"type":"Point"},"properties":{"osm_id":"1716305258","tag":{"amenity":"waste_basket","check_date":"2021-08-10","designation":"Here is a park bench with a trash"}},"type":"Feature"},
	{"geometry":{"coordinates":[9.731597,49.621315],"type":"Point"},"properties":{"osm_id":"5825749344","tag":{"amenity":"waste_basket"}},"type":"Feature"},
	{"geometry":{"coordinates":[9.730938,49.621369],"type":"Point"},"properties":{"osm_id":"5825749349","tag":{"amenity":"waste_basket"}},"type":"Feature"},
	{"geometry":{"coordinates":[9.730734,49.622351],"type":"Point"},"properties":{"osm_id":"5825749350","tag":{"amenity":"waste_basket"}},"type":"Feature"},
	{"geometry":{"coordinates":[9.731396,49.621172],"type":"Point"},"properties":{"osm_id":"5825749352","tag":{"amenity":"waste_basket"}},"type":"Feature"}
]
}
