{
"type": "FeatureCollection",
"features": [
	{"geometry":{"coordinates":[9.744351,48.758807],"type":"Point"},"properties":{"osm_id":"242135587","tag":{"amenity":"recycling"}},"type":"Feature"},
	{"geometry":{"coordinates":[9.684298,48.768779],"type":"Point"},"properties":{"name":"Kompostplatz","osm_id":"277035183","tag":{"amenity":"recycling","recycling:green_waste":"yes","recycling_type":"centre"}},"type":"Feature"},
	{"geometry":{"coordinates":[9.695105,48.760521],"type":"Point"},"properties":{"osm_id":"282741605","tag":{"amenity":"recycling","recycling:glass_bottles":"yes","recycling_type":"container"}},"type":"Feature"},
	{"geometry":{"coordinates":[9.691671,48.757665],"type":"Point"},"properties":{"osm_id":"286031760","tag":{"amenity":"recycling","recycling:cans":"yes","recycling:glass_bottles":"yes","recycling_type":"container"}},"type":"Feature"},
	{"geometry":{"coordinates":[9.680923,48.756766],"type":"Point"},"properties":{"name":"Wertstoffhof","osm_id":"299392706","tag":{"amenity":"recycling","recycling_type":"centre"}},"type":"Feature"},
	{"geometry":{"coordinates":[9.691178,48.7974],"type":"Point"},"properties":{"osm_id":"305462555","tag":{"amenity":"recycling","recycling:cans":"yes","recycling:glass_bottles":"yes","recycling_type":"container"}},"type":"Feature"},
	{"geometry":{"coordinates":[9.683818,48.768605],"type":"Point"},"properties":{"osm_id":"599616317","tag":{"amenity":"recycling","recycling:cans":"yes","recycling:clothes":"no","recycling:glass":"yes","recycling:paper":"no"}},"type":"Feature"},
	{"geometry":{"coordinates":[9.699128,48.796763],"type":"Point"},"properties":{"osm_id":"691224052","tag":{"amenity":"recycling","recycling:clothes":"yes","recycling:glass_bottles":"yes","recycling_type":"container"}},"type":"Feature"},
	{"geometry":{"coordinates":[9.685443,48.798689],"type":"Point"},"properties":{"osm_id":"877604190","tag":{"amenity":"recycling","recycling:cans":"yes","recycling:clothes":"yes","recycling:glass_bottles":"yes","recycling_type":"container"}},"type":"Feature"},
	{"geometry":{"coordinates":[9.679124,48.799392],"type":"Point"},"properties":{"osm_id":"877604192","tag":{"amenity":"recycling","recycling:cans":"yes","recycling:clothes":"yes","recycling:glass_bottles":"yes","recycling_type":"container"}},"type":"Feature"},
	{"geometry":{"coordinates":[9.718655,48.755824],"type":"Point"},"properties":{"osm_id":"919732003","tag":{"amenity":"recycling","recycling:cans":"yes","recycling:glass":"yes"}},"type":"Feature"},
	{"geometry":{"coordinates":[9.719871,48.791525],"type":"Point"},"properties":{"osm_id":"3794207048","tag":{"amenity":"waste_basket"}},"type":"Feature"},
	{"geometry":{"coordinates":[9.72406,48.764151],"type":"Point"},"properties":{"osm_id":"4050868753","tag":{"amenity":"waste_basket"}},"type":"Feature"},
	{"geometry":{"coordinates":[9.723607,48.764565],"type":"Point"},"properties":{"osm_id":"4050868767","tag":{"amenity":"waste_basket"}},"type":"Feature"},
	{"geometry":{"coordinates":[9.691841,48.797885],"type":"Point"},"properties":{"osm_id":"4801442253","tag":{"amenity":"waste_basket"}},"type":"Feature"},
	{"geometry":{"coordinates":[9.6916,48.797251],"type":"Point"},"properties":{"osm_id":"4807355394","tag":{"amenity":"waste_basket"}},"type":"Feature"},
	{"geometry":{"coordinates":[9.691257,48.797395],"type":"Point"},"properties":{"osm_id":"4824591073","tag":{"amenity":"waste_basket"}},"type":"Feature"},
	{"geometry":{"coordinates":[9.683138,48.783058],"type":"Point"},"properties":{"osm_id":"5041863032","tag":{"amenity":"recycling","recycling:cans":"yes","recycling:glass_bottles":"yes","recycling_type":"container"}},"type":"Feature"},
	{"geometry":{"coordinates":[9.679929,48.795968],"type":"Point"},"properties":{"osm_id":"5161969633","tag":{"amenity":"recycling","location":"overground","recycling:cans":"yes","recycling:clothes":"yes","recycling:glass_bottles":"yes","recycling_type":"container"}},"type":"Feature"},
	{"geometry":{"coordinates":[9.686813,48.804787],"type":"Point"},"properties":{"osm_id":"5161969725","tag":{"amenity":"recycling","recycling:cans":"yes","recycling:clothes":"yes","recycling:glass_bottles":"yes","recycling_type":"container"}},"type":"Feature"},
	{"geometry":{"coordinates":[9.686268,48.798155],"type":"Point"},"properties":{"osm_id":"5253859839","tag":{"amenity":"waste_basket"}},"type":"Feature"},
	{"geometry":{"coordinates":[9.704625,48.79919],"type":"Point"},"properties":{"osm_id":"5806364679","tag":{"amenity":"waste_basket"}},"type":"Feature"},
	{"geometry":{"coordinates":[9.705594,48.799838],"type":"Point"},"properties":{"osm_id":"5808395596","tag":{"amenity":"waste_basket"}},"type":"Feature"},
	{"geometry":{"coordinates":[9.689567,48.752944],"type":"Point"},"properties":{"osm_id":"5920668750","tag":{"amenity":"waste_basket"}},"type":"Feature"},
	{"geometry":{"coordinates":[9.698067,48.796889],"type":"Point"},"properties":{"osm_id":"7577496448","tag":{"amenity":"recycling","recycling:clothes":"yes"}},"type":"Feature"}
]
}
