{
"type": "FeatureCollection",
"features": [
	{"geometry":{"coordinates":[9.685728,48.672008],"type":"Point"},"properties":{"osm_id":"298013483","tag":{"amenity":"recycling","recycling:cans":"yes","recycling:glass":"yes"}},"type":"Feature"},
	{"geometry":{"coordinates":[9.702925,48.686275],"type":"Point"},"properties":{"osm_id":"309021428","tag":{"amenity":"recycling","recycling:cans":"yes","recycling:glass":"yes"}},"type":"Feature"},
	{"geometry":{"coordinates":[9.74471,48.684436],"type":"Point"},"properties":{"osm_id":"356931816","tag":{"amenity":"recycling","location":"overground","recycling:glass":"yes","recycling_type":"container"}},"type":"Feature"},
	{"geometry":{"coordinates":[9.720514,48.690201],"type":"Point"},"properties":{"osm_id":"368380471","tag":{"amenity":"recycling","recycling:cans":"yes","recycling:glass_bottles":"yes"}},"type":"Feature"},
	{"geometry":{"coordinates":[9.672389,48.683137],"type":"Point"},"properties":{"osm_id":"427988644","tag":{"amenity":"recycling","recycling:ct":"yes"}},"type":"Feature"},
	{"geometry":{"coordinates":[9.671029,48.68449],"type":"Point"},"properties":{"osm_id":"428754320","tag":{"amenity":"recycling","recycling:glass":"yes"}},"type":"Feature"},
	{"geometry":{"coordinates":[9.739888,48.688969],"type":"Point"},"properties":{"osm_id":"462682831","tag":{"amenity":"recycling","recycling:clothes":"yes","recycling:glass":"yes"}},"type":"Feature"},
	{"geometry":{"coordinates":[9.693475,48.670482],"type":"Point"},"properties":{"osm_id":"915266973","tag":{"amenity":"recycling","recycling:shoes":"yes","recycling_type":"container"}},"type":"Feature"},
	{"geometry":{"coordinates":[9.693344,48.671996],"type":"Point"},"properties":{"osm_id":"915266978","tag":{"amenity":"recycling","recycling:cans":"yes","recycling:glass":"yes"}},"type":"Feature"},
	{"geometry":{"coordinates":[9.693387,48.674204],"type":"Point"},"properties":{"osm_id":"915266984","tag":{"amenity":"recycling","recycling:cans":"yes","recycling:clothes":"yes","recycling:glass":"yes"}},"type":"Feature"},
	{"geometry":{"coordinates":[9.744756,48.678612],"type":"Point"},"properties":{"osm_id":"1730378656","tag":{"entrance":"yes"}},"type":"Feature"},
	{"geometry":{"coordinates":[9.673377,48.671343],"type":"Point"},"properties":{"osm_id":"2270550257","tag":{"amenity":"waste_basket"}},"type":"Feature"},
	{"geometry":{"coordinates":[9.673732,48.657828],"type":"Point"},"properties":{"osm_id":"2502555904","tag":{"amenity":"recycling","recycling_type":"container"}},"type":"Feature"},
	{"geometry":{"coordinates":[9.6875,48.675798],"type":"Point"},"properties":{"osm_id":"3270785045","tag":{"amenity":"recycling","recycling:clothes":"yes","recycling_type":"container"}},"type":"Feature"},
	{"geometry":{"coordinates":[9.688698,48.690164],"type":"Point"},"properties":{"osm_id":"5440582141","tag":{"amenity":"waste_basket"}},"type":"Feature"},
	{"geometry":{"coordinates":[9.704504,48.635243],"type":"Point"},"properties":{"osm_id":"5704579942","tag":{"amenity":"waste_basket","waste":"trash"}},"type":"Feature"},
	{"geometry":{"coordinates":[9.669597,48.656869],"type":"Point"},"properties":{"osm_id":"6173934124","tag":{"amenity":"recycling","recycling:cans":"yes","recycling:glass":"yes","recycling_type":"container"}},"type":"Feature"},
	{"geometry":{"coordinates":[9.668781,48.653372],"type":"Point"},"properties":{"osm_id":"6173934187","tag":{"amenity":"waste_basket"}},"type":"Feature"},
	{"geometry":{"coordinates":[9.696317,48.690256],"type":"Point"},"properties":{"osm_id":"6854812864","tag":{"amenity":"waste_basket","waste":"trash"}},"type":"Feature"}
]
}
