{
"type": "FeatureCollection",
"features": [
	{"geometry":{"coordinates":[9.668683,48.308184],"type":"Point"},"properties":{"osm_id":"764556243","tag":{"amenity":"waste_basket"}},"type":"Feature"},
	{"geometry":{"coordinates":[9.706492,48.283459],"type":"Point"},"properties":{"osm_id":"3175791202","tag":{"amenity":"waste_basket"}},"type":"Feature"},
	{"geometry":{"coordinates":[9.741347,48.28719],"type":"Point"},"properties":{"osm_id":"3771612634","tag":{"amenity":"recycling","recycling:glass_bottles":"yes","recycling_type":"container"}},"type":"Feature"},
	{"geometry":{"coordinates":[9.727307,48.287834],"type":"Point"},"properties":{"osm_id":"4329095803","tag":{"amenity":"waste_basket"}},"type":"Feature"},
	{"geometry":{"coordinates":[9.727135,48.288031],"type":"Point"},"properties":{"osm_id":"4329095805","tag":{"amenity":"waste_basket"}},"type":"Feature"},
	{"geometry":{"coordinates":[9.722107,48.297242],"type":"Point"},"properties":{"osm_id":"4733896389","tag":{"amenity":"waste_basket"}},"type":"Feature"},
	{"geometry":{"coordinates":[9.724669,48.295013],"type":"Point"},"properties":{"osm_id":"4733896390","tag":{"amenity":"waste_basket"}},"type":"Feature"},
	{"geometry":{"coordinates":[9.726672,48.292191],"type":"Point"},"properties":{"osm_id":"4733896394","tag":{"amenity":"waste_basket"}},"type":"Feature"},
	{"geometry":{"coordinates":[9.70979,48.29246],"type":"Point"},"properties":{"osm_id":"4963553753","tag":{"amenity":"waste_basket"}},"type":"Feature"},
	{"geometry":{"coordinates":[9.698408,48.295934],"type":"Point"},"properties":{"osm_id":"4963553755","tag":{"amenity":"waste_basket"}},"type":"Feature"},
	{"geometry":{"coordinates":[9.686464,48.295916],"type":"Point"},"properties":{"osm_id":"4963862429","tag":{"amenity":"waste_basket"}},"type":"Feature"},
	{"geometry":{"coordinates":[9.710653,48.288671],"type":"Point"},"properties":{"osm_id":"5803412933","tag":{"amenity":"recycling","recycling_type":"container"}},"type":"Feature"},
	{"geometry":{"coordinates":[9.714771,48.320719],"type":"Point"},"properties":{"osm_id":"5961399543","tag":{"amenity":"recycling","collection_times":"Mo-Sa 07:00-19:00; PH off","recycling:clothes":"yes","recycling:glass_bottles":"yes","recycling_type":"container"}},"type":"Feature"},
	{"geometry":{"coordinates":[9.695256,48.288992],"type":"Point"},"properties":{"osm_id":"6068433319","tag":{"amenity":"recycling","recycling:cardboard":"yes","recycling:clothes":"yes","recycling:glass_bottles":"yes","recycling:paper":"yes","recycling:paper_packaging":"yes","recycling_type":"container"}},"type":"Feature"},
	{"geometry":{"coordinates":[9.717655,48.328282],"type":"Point"},"properties":{"osm_id":"6835427145","tag":{"amenity":"waste_basket"}},"type":"Feature"},
	{"geometry":{"coordinates":[9.725502,48.335081],"type":"Point"},"properties":{"osm_id":"7126393746","tag":{"amenity":"waste_basket"}},"type":"Feature"},
	{"geometry":{"coordinates":[9.725017,48.2848],"type":"Point"},"properties":{"osm_id":"7244134276","tag":{"amenity":"waste_basket"}},"type":"Feature"},
	{"geometry":{"coordinates":[9.722886,48.32775],"type":"Point"},"properties":{"osm_id":"7417217766","tag":{"amenity":"waste_basket"}},"type":"Feature"}
]
}
