{
"type": "FeatureCollection",
"features": [
	{"geometry":{"coordinates":[9.710151,47.576826],"type":"Point"},"properties":{"osm_id":"655163761","tag":{"amenity":"recycling","recycling:cans":"yes","recycling:glass":"yes","recycling:glass_bottles":"yes","recycling:paper":"yes","recycling:scrap_metal":"no","recycling_type":"container","wheelchair":"limited"}},"type":"Feature"},
	{"geometry":{"coordinates":[9.716853,47.580373],"type":"Point"},"properties":{"osm_id":"655164487","tag":{"amenity":"recycling","recycling:cans":"yes","recycling:glass":"yes","recycling:glass_bottles":"yes","recycling:paper":"yes","recycling_type":"container","wheelchair":"limited"}},"type":"Feature"},
	{"geometry":{"coordinates":[9.710777,47.577019],"type":"Point"},"properties":{"osm_id":"727346447","tag":{"addr:city":"Lindau (Bodensee)","addr:country":"DE","addr:postcode":"88131","addr:street":"Kemptener Stra\u00c3\u009fe","amenity":"recycling","recycling:green_waste":"yes","recycling_type":"centre","wheelchair":"yes"}},"type":"Feature"},
	{"geometry":{"coordinates":[9.755308,47.634047],"type":"Point"},"properties":{"osm_id":"790449875","tag":{"amenity":"recycling","recycling:cans":"yes","recycling:glass_bottles":"yes","recycling:paper":"yes","recycling:scrap_metal":"yes","recycling_type":"container"}},"type":"Feature"},
	{"geometry":{"coordinates":[9.702476,47.585166],"type":"Point"},"properties":{"osm_id":"1411279346","tag":{"amenity":"recycling","recycling:glass_bottles":"yes","recycling:paper":"yes","recycling:scrap_metal":"yes","recycling_type":"container"}},"type":"Feature"},
	{"geometry":{"coordinates":[9.685513,47.59773],"type":"Point"},"properties":{"osm_id":"1582412866","tag":{"amenity":"recycling","recycling_type":"container"}},"type":"Feature"},
	{"geometry":{"coordinates":[9.681394,47.592828],"type":"Point"},"properties":{"osm_id":"1582413799","tag":{"amenity":"recycling","recycling:glass_bottles":"yes","recycling:paper":"yes","recycling:scrap_metal":"yes","recycling_type":"container"}},"type":"Feature"},
	{"geometry":{"coordinates":[9.747053,47.589243],"type":"Point"},"properties":{"osm_id":"1670702052","tag":{"amenity":"recycling","recycling:glass_bottles":"yes","recycling:paper":"yes","recycling:scrap_metal":"yes","recycling_type":"container"}},"type":"Feature"},
	{"geometry":{"coordinates":[9.727446,47.581756],"type":"Point"},"properties":{"osm_id":"1705892154","tag":{"amenity":"recycling","recycling:cans":"yes","recycling:glass":"yes","recycling:glass_bottles":"yes","recycling:paper":"yes","recycling:scrap_metal":"yes","recycling_type":"container","wheelchair":"yes"}},"type":"Feature"},
	{"geometry":{"coordinates":[9.733609,47.587552],"type":"Point"},"properties":{"osm_id":"1705892215","tag":{"amenity":"recycling","recycling:glass_bottles":"yes","recycling:paper":"yes","recycling:scrap_metal":"yes","recycling_type":"container"}},"type":"Feature"},
	{"geometry":{"coordinates":[9.753125,47.628444],"type":"Point"},"properties":{"osm_id":"4374615512","tag":{"amenity":"waste_basket"}},"type":"Feature"},
	{"geometry":{"coordinates":[9.750053,47.623868],"type":"Point"},"properties":{"osm_id":"4374615513","tag":{"amenity":"waste_basket"}},"type":"Feature"},
	{"geometry":{"coordinates":[9.751464,47.625976],"type":"Point"},"properties":{"osm_id":"4374615514","tag":{"amenity":"waste_basket"}},"type":"Feature"},
	{"geometry":{"coordinates":[9.750777,47.625103],"type":"Point"},"properties":{"osm_id":"4374650111","tag":{"amenity":"waste_basket"}},"type":"Feature"},
	{"geometry":{"coordinates":[9.749478,47.624694],"type":"Point"},"properties":{"osm_id":"4374705616","tag":{"amenity":"recycling","operator":"Altglas, Dosen und Altkleider","recycling_type":"container"}},"type":"Feature"},
	{"geometry":{"coordinates":[9.755517,47.634998],"type":"Point"},"properties":{"osm_id":"4374732789","tag":{"amenity":"waste_basket"}},"type":"Feature"},
	{"geometry":{"coordinates":[9.749782,47.624828],"type":"Point"},"properties":{"osm_id":"4376061593","tag":{"amenity":"waste_basket"}},"type":"Feature"},
	{"geometry":{"coordinates":[9.717013,47.580519],"type":"Point"},"properties":{"osm_id":"4718321489","tag":{"amenity":"waste_basket"}},"type":"Feature"},
	{"geometry":{"coordinates":[9.705981,47.585253],"type":"Point"},"properties":{"osm_id":"4796490948","tag":{"amenity":"recycling","recycling:cans":"yes","recycling:glass":"yes","recycling:glass_bottles":"yes","recycling:green_waste":"yes","recycling:paper":"yes","recycling:scrap_metal":"yes","recycling_type":"container"}},"type":"Feature"},
	{"geometry":{"coordinates":[9.730185,47.590973],"type":"Point"},"properties":{"osm_id":"4797994850","tag":{"amenity":"recycling","recycling:cans":"yes","recycling:clothes":"yes","recycling:glass":"yes","recycling:glass_bottles":"yes","recycling:paper":"yes","recycling:scrap_metal":"yes","recycling_type":"container"}},"type":"Feature"},
	{"geometry":{"coordinates":[9.75483,47.634265],"type":"Point"},"properties":{"osm_id":"5632299169","tag":{"amenity":"waste_basket"}},"type":"Feature"},
	{"geometry":{"coordinates":[9.747072,47.589823],"type":"Point"},"properties":{"name":"Wertstoffhof Sigmarszell","osm_id":"7823680205","tag":{"amenity":"recycling","opening_hours":"Tu,Fr 15:00-17:00; Sa 09:30-11:30","recycling:cans":"yes","recycling:clothes":"yes","recycling:glass":"yes","recycling:paper":"yes","recycling_type":"centre","website":"https://www.zak-kempten.de/wertstoffhof-sigmarszell.html"}},"type":"Feature"}
]
}
