{
"type": "FeatureCollection",
"features": [
	{"geometry":{"coordinates":[9.700539,47.553784],"type":"Point"},"properties":{"osm_id":"293354189","tag":{"amenity":"recycling","recycling_type":"container"}},"type":"Feature"},
	{"geometry":{"coordinates":[9.683135,47.55437],"type":"Point"},"properties":{"osm_id":"360080308","tag":{"amenity":"recycling","location":"overground","recycling_type":"container"}},"type":"Feature"},
	{"geometry":{"coordinates":[9.680164,47.55828],"type":"Point"},"properties":{"osm_id":"654991627","tag":{"amenity":"recycling","recycling_type":"container"}},"type":"Feature"},
	{"geometry":{"coordinates":[9.685455,47.558404],"type":"Point"},"properties":{"osm_id":"656486791","tag":{"amenity":"recycling","location":"overground","recycling_type":"container"}},"type":"Feature"},
	{"geometry":{"coordinates":[9.677834,47.564816],"type":"Point"},"properties":{"osm_id":"659024669","tag":{"amenity":"recycling","recycling_type":"container"}},"type":"Feature"},
	{"geometry":{"coordinates":[9.675138,47.57476],"type":"Point"},"properties":{"osm_id":"659024670","tag":{"amenity":"recycling","recycling:PET":"yes","recycling:glass":"yes","recycling:paper":"yes","recycling_type":"container"}},"type":"Feature"},
	{"geometry":{"coordinates":[9.687609,47.549104],"type":"Point"},"properties":{"osm_id":"667924982","tag":{"amenity":"recycling","opening_hours":"Mo-Fr 07:00-12:00,14:00-20:00; Sa 07:00-12:00,14:00-17:00","recycling:glass_bottles":"yes","recycling:paper":"yes","recycling:plastic":"yes","recycling_type":"container"}},"type":"Feature"},
	{"geometry":{"coordinates":[9.695408,47.559872],"type":"Point"},"properties":{"osm_id":"829823645","tag":{"amenity":"recycling","recycling:glass_bottles":"yes","recycling:paper":"yes","recycling:scrap_metal":"yes"}},"type":"Feature"},
	{"geometry":{"coordinates":[9.683136,47.552524],"type":"Point"},"properties":{"osm_id":"920420290","tag":{"amenity":"recycling","location":"overground","recycling_type":"container"}},"type":"Feature"},
	{"geometry":{"coordinates":[9.681371,47.548115],"type":"Point"},"properties":{"osm_id":"920420329","tag":{"amenity":"recycling","recycling_type":"container"}},"type":"Feature"},
	{"geometry":{"coordinates":[9.681175,47.543257],"type":"Point"},"properties":{"osm_id":"922433252","tag":{"amenity":"recycling","recycling_type":"container"}},"type":"Feature"},
	{"geometry":{"coordinates":[9.725033,47.552099],"type":"Point"},"properties":{"name":"Wertstoffhof Lindau","osm_id":"989291201","tag":{"addr:city":"Lindau (Bodensee)","addr:country":"DE","addr:housenumber":"19","addr:postcode":"88131","addr:street":"Robert-Bosch-Stra\u00c3\u009fe","amenity":"recycling","opening_hours":"Mo-Th 14:00-18:00; Fr 10:00-18:00; Sa 09:00-12:00","operator":"ZAK Kempten","recycling:batteries":"yes","recycling:cans":"yes","recycling:clothes":"yes","recycling:computers":"yes","recycling:cork":"yes","recycling:furniture":"yes","recycling:glass":"yes","recycling:hardcore":"yes","recycling:hazardous_waste":"yes","recycling:paper":"yes","recycling:plastic":"yes","recycling:polystyrene_foam":"yes","recycling:rubble":"yes","recycling:scrap_metal":"yes","recycling:small_appliances":"yes","recycling_type":"centre","website":"https://www.zak-kempten.de/wertstoffhof-lindau.html"}},"type":"Feature"},
	{"geometry":{"coordinates":[9.717648,47.557092],"type":"Point"},"properties":{"osm_id":"1306615762","tag":{"amenity":"recycling","location":"overground","recycling_type":"container"}},"type":"Feature"},
	{"geometry":{"coordinates":[9.713078,47.556895],"type":"Point"},"properties":{"osm_id":"1306615785","tag":{"amenity":"recycling"}},"type":"Feature"},
	{"geometry":{"coordinates":[9.720191,47.556243],"type":"Point"},"properties":{"osm_id":"1306615809","tag":{"amenity":"recycling","location":"overground","recycling_type":"container"}},"type":"Feature"},
	{"geometry":{"coordinates":[9.708099,47.557942],"type":"Point"},"properties":{"osm_id":"1333508610","tag":{"amenity":"recycling","recycling:cardboard":"yes","recycling:glass":"no","recycling:glass_bottles":"yes","recycling:green_waste":"yes","recycling:magazines":"yes","recycling:newspaper":"yes","recycling:paper":"yes","recycling:paper_packaging":"yes","recycling:plastic":"no","recycling_type":"container"}},"type":"Feature"},
	{"geometry":{"coordinates":[9.677838,47.547381],"type":"Point"},"properties":{"osm_id":"1379330653","tag":{"amenity":"waste_basket"}},"type":"Feature"},
	{"geometry":{"coordinates":[9.707719,47.562607],"type":"Point"},"properties":{"osm_id":"1460125236","tag":{"amenity":"recycling","location":"overground","recycling_type":"container"}},"type":"Feature"},
	{"geometry":{"coordinates":[9.706085,47.55956],"type":"Point"},"properties":{"osm_id":"1851692443","tag":{"amenity":"recycling","recycling:batteries":"no","recycling:cans":"yes","recycling:cardboard":"yes","recycling:cartons":"yes","recycling:electrical_appliances":"no","recycling:glass":"no","recycling:glass_bottles":"yes","recycling:magazines":"yes","recycling:newspaper":"yes","recycling:paper":"yes","recycling:waste":"no","recycling_type":"container"}},"type":"Feature"},
	{"geometry":{"coordinates":[9.677221,47.562021],"type":"Point"},"properties":{"osm_id":"1993248103","tag":{"amenity":"waste_basket","payment:none":"yes","vending":"excrement_bags","waste":"dog_excrement"}},"type":"Feature"},
	{"geometry":{"coordinates":[9.684555,47.558473],"type":"Point"},"properties":{"osm_id":"1993254353","tag":{"amenity":"waste_basket","payment:none":"yes","vending":"excrement_bags","waste":"dog_excrement"}},"type":"Feature"},
	{"geometry":{"coordinates":[9.717797,47.565985],"type":"Point"},"properties":{"osm_id":"2111936610","tag":{"amenity":"recycling","location":"overground","recycling:cans":"yes","recycling:glass_bottles":"yes","recycling:paper":"yes","recycling_type":"container"}},"type":"Feature"},
	{"geometry":{"coordinates":[9.71402,47.552601],"type":"Point"},"properties":{"osm_id":"2577038852","tag":{"amenity":"recycling","location":"overground","recycling_type":"container"}},"type":"Feature"},
	{"geometry":{"coordinates":[9.700436,47.564378],"type":"Point"},"properties":{"osm_id":"3389553169","tag":{"amenity":"recycling"}},"type":"Feature"},
	{"geometry":{"coordinates":[9.691514,47.559357],"type":"Point"},"properties":{"osm_id":"3398429155","tag":{"amenity":"recycling","recycling_type":"container"}},"type":"Feature"},
	{"geometry":{"coordinates":[9.73103,47.537886],"type":"Point"},"properties":{"osm_id":"3597077246","tag":{"amenity":"recycling","recycling:cans":"yes","recycling:glass_bottles":"yes","recycling:paper":"yes","recycling:scrap_metal":"yes","recycling_type":"container"}},"type":"Feature"},
	{"geometry":{"coordinates":[9.731007,47.537909],"type":"Point"},"properties":{"osm_id":"3597077247","tag":{"access":"private","amenity":"waste_disposal"}},"type":"Feature"},
	{"geometry":{"coordinates":[9.731045,47.538236],"type":"Point"},"properties":{"osm_id":"3601257081","tag":{"amenity":"recycling","recycling:cans":"yes","recycling:glass_bottles":"yes","recycling:paper":"yes","recycling:scrap_metal":"yes","recycling_type":"container"}},"type":"Feature"},
	{"geometry":{"coordinates":[9.722446,47.562293],"type":"Point"},"properties":{"osm_id":"3602733363","tag":{"amenity":"waste_basket"}},"type":"Feature"},
	{"geometry":{"coordinates":[9.72372,47.548217],"type":"Point"},"properties":{"osm_id":"3611186835","tag":{"amenity":"waste_basket"}},"type":"Feature"},
	{"geometry":{"coordinates":[9.739807,47.538888],"type":"Point"},"properties":{"osm_id":"3632112793","tag":{"amenity":"waste_basket"}},"type":"Feature"},
	{"geometry":{"coordinates":[9.694695,47.556164],"type":"Point"},"properties":{"osm_id":"3889788943","tag":{"amenity":"recycling","location":"overground","recycling_type":"container"}},"type":"Feature"},
	{"geometry":{"coordinates":[9.690635,47.568663],"type":"Point"},"properties":{"osm_id":"4006353566","tag":{"amenity":"recycling","recycling_type":"container"}},"type":"Feature"},
	{"geometry":{"coordinates":[9.725368,47.541725],"type":"Point"},"properties":{"osm_id":"4907215622","tag":{"amenity":"waste_basket"}},"type":"Feature"},
	{"geometry":{"coordinates":[9.680923,47.54512],"type":"Point"},"properties":{"osm_id":"5141021027","tag":{"amenity":"waste_basket"}},"type":"Feature"},
	{"geometry":{"coordinates":[9.737385,47.545084],"type":"Point"},"properties":{"osm_id":"6329340514","tag":{"amenity":"waste_basket"}},"type":"Feature"},
	{"geometry":{"coordinates":[9.691397,47.550779],"type":"Point"},"properties":{"osm_id":"6473084493","tag":{"amenity":"recycling","recycling_type":"container"}},"type":"Feature"},
	{"geometry":{"coordinates":[9.68232,47.543962],"type":"Point"},"properties":{"osm_id":"6720897826","tag":{"amenity":"waste_basket"}},"type":"Feature"},
	{"geometry":{"coordinates":[9.689248,47.564985],"type":"Point"},"properties":{"osm_id":"6721927465","tag":{"amenity":"waste_basket","payment:none":"yes","vending":"excrement_bags","waste":"dog_excrement"}},"type":"Feature"},
	{"geometry":{"coordinates":[9.691558,47.551925],"type":"Point"},"properties":{"osm_id":"7048008232","tag":{"amenity":"recycling","recycling_type":"container"}},"type":"Feature"},
	{"geometry":{"coordinates":[9.686438,47.549325],"type":"Point"},"properties":{"osm_id":"7876341528","tag":{"amenity":"waste_basket"}},"type":"Feature"}
]
}
