{
"type": "FeatureCollection",
"features": [
	{"geometry":{"coordinates":[9.732244,47.474466],"type":"Point"},"properties":{"osm_id":"618751758","tag":{"amenity":"recycling","location":"overground","recycling:clothes":"yes","recycling_type":"container"}},"type":"Feature"},
	{"geometry":{"coordinates":[9.724274,47.479235],"type":"Point"},"properties":{"osm_id":"623717327","tag":{"amenity":"recycling","recycling:batteries":"no","recycling:cans":"yes","recycling:glass":"yes","recycling:glass_bottles":"yes","recycling:paper":"yes","recycling:scrap_metal":"no","recycling_type":"container"}},"type":"Feature"},
	{"geometry":{"coordinates":[9.729598,47.473458],"type":"Point"},"properties":{"osm_id":"626118759","tag":{"amenity":"recycling","recycling:cans":"yes","recycling:clothes":"yes","recycling:glass":"yes","recycling:paper":"yes","recycling:scrap_metal":"yes","recycling_type":"container"}},"type":"Feature"},
	{"geometry":{"coordinates":[9.724177,47.474399],"type":"Point"},"properties":{"osm_id":"631533892","tag":{"amenity":"recycling","recycling:glass":"yes","recycling:paper":"yes","recycling:scrap_metal":"yes"}},"type":"Feature"},
	{"geometry":{"coordinates":[9.720004,47.470983],"type":"Point"},"properties":{"osm_id":"637051141","tag":{"amenity":"recycling","recycling:clothes":"no","recycling:glass":"yes","recycling:paper":"yes","recycling:scrap_metal":"yes"}},"type":"Feature"},
	{"geometry":{"coordinates":[9.721411,47.492643],"type":"Point"},"properties":{"osm_id":"646678491","tag":{"amenity":"waste_basket"}},"type":"Feature"},
	{"geometry":{"coordinates":[9.721332,47.493013],"type":"Point"},"properties":{"osm_id":"646678496","tag":{"amenity":"waste_basket"}},"type":"Feature"},
	{"geometry":{"coordinates":[9.738425,47.501064],"type":"Point"},"properties":{"osm_id":"761578889","tag":{"amenity":"recycling","location":"overground","recycling:cans":"yes","recycling:glass":"yes","recycling:paper":"yes","recycling:scrap_metal":"yes","recycling_type":"container"}},"type":"Feature"},
	{"geometry":{"coordinates":[9.747908,47.499692],"type":"Point"},"properties":{"osm_id":"764091828","tag":{"amenity":"recycling","recycling_type":"container"}},"type":"Feature"},
	{"geometry":{"coordinates":[9.74679,47.500281],"type":"Point"},"properties":{"osm_id":"764092252","tag":{"amenity":"recycling"}},"type":"Feature"},
	{"geometry":{"coordinates":[9.74402,47.502775],"type":"Point"},"properties":{"osm_id":"764092615","tag":{"amenity":"recycling","recycling:cans":"yes","recycling:clothes":"no","recycling:glass":"yes","recycling:paper":"yes","recycling_type":"container"}},"type":"Feature"},
	{"geometry":{"coordinates":[9.702276,47.487513],"type":"Point"},"properties":{"osm_id":"773498026","tag":{"amenity":"recycling","recycling:cans":"yes","recycling:glass":"yes","recycling:paper":"yes","recycling:scrap_metal":"yes"}},"type":"Feature"},
	{"geometry":{"coordinates":[9.699709,47.489516],"type":"Point"},"properties":{"osm_id":"773498029","tag":{"amenity":"recycling","recycling:cans":"yes","recycling:glass_bottles":"yes","recycling:scrap_metal":"yes","recycling_type":"container"}},"type":"Feature"},
	{"geometry":{"coordinates":[9.698017,47.484377],"type":"Point"},"properties":{"osm_id":"773498030","tag":{"amenity":"recycling","recycling:cans":"yes","recycling:glass":"yes","recycling:paper":"yes","recycling:scrap_metal":"yes"}},"type":"Feature"},
	{"geometry":{"coordinates":[9.695585,47.496239],"type":"Point"},"properties":{"osm_id":"773498031","tag":{"amenity":"recycling","recycling:cans":"yes","recycling:glass_bottles":"yes","recycling:scrap_metal":"yes","recycling_type":"container"}},"type":"Feature"},
	{"geometry":{"coordinates":[9.693192,47.490161],"type":"Point"},"properties":{"osm_id":"773498034","tag":{"amenity":"recycling","recycling:cans":"yes","recycling:glass":"yes","recycling:paper":"yes","recycling:scrap_metal":"yes","recycling_type":"container"}},"type":"Feature"},
	{"geometry":{"coordinates":[9.683887,47.490993],"type":"Point"},"properties":{"osm_id":"773499267","tag":{"amenity":"recycling","recycling:cans":"yes","recycling:glass_bottles":"yes","recycling:scrap_metal":"yes","recycling_type":"container"}},"type":"Feature"},
	{"geometry":{"coordinates":[9.706214,47.490587],"type":"Point"},"properties":{"osm_id":"816417675","tag":{"amenity":"recycling","recycling:cans":"yes","recycling:glass":"yes","recycling:paper":"yes","recycling:scrap_metal":"yes","recycling_type":"container"}},"type":"Feature"},
	{"geometry":{"coordinates":[9.682483,47.483442],"type":"Point"},"properties":{"osm_id":"823526499","tag":{"amenity":"recycling","recycling:cans":"yes","recycling:glass":"yes","recycling:paper":"yes","recycling:scrap_metal":"yes"}},"type":"Feature"},
	{"geometry":{"coordinates":[9.680828,47.484399],"type":"Point"},"properties":{"osm_id":"823526544","tag":{"amenity":"recycling","recycling:cans":"yes","recycling:glass":"yes","recycling:paper":"yes","recycling:scrap_metal":"yes"}},"type":"Feature"},
	{"geometry":{"coordinates":[9.679118,47.481615],"type":"Point"},"properties":{"osm_id":"823526573","tag":{"amenity":"recycling","recycling:cans":"yes","recycling:glass":"yes","recycling:paper":"yes","recycling:scrap_metal":"yes"}},"type":"Feature"},
	{"geometry":{"coordinates":[9.693091,47.494795],"type":"Point"},"properties":{"osm_id":"825752593","tag":{"amenity":"recycling","recycling:cans":"yes","recycling:glass_bottles":"yes","recycling:scrap_metal":"yes","recycling_type":"container"}},"type":"Feature"},
	{"geometry":{"coordinates":[9.699229,47.488797],"type":"Point"},"properties":{"osm_id":"825752597","tag":{"amenity":"recycling","recycling:cans":"yes","recycling:glass_bottles":"yes","recycling:scrap_metal":"yes","recycling_type":"container"}},"type":"Feature"},
	{"geometry":{"coordinates":[9.724821,47.492504],"type":"Point"},"properties":{"osm_id":"828715647","tag":{"amenity":"recycling"}},"type":"Feature"},
	{"geometry":{"coordinates":[9.709592,47.485153],"type":"Point"},"properties":{"osm_id":"828715652","tag":{"amenity":"recycling","recycling:cans":"yes","recycling:glass":"yes","recycling:paper":"yes","recycling:scrap_metal":"yes"}},"type":"Feature"},
	{"geometry":{"coordinates":[9.710876,47.486576],"type":"Point"},"properties":{"osm_id":"828715659","tag":{"amenity":"recycling","recycling:cans":"yes","recycling:glass":"yes","recycling:paper":"yes","recycling:scrap_metal":"yes"}},"type":"Feature"},
	{"geometry":{"coordinates":[9.710194,47.487067],"type":"Point"},"properties":{"osm_id":"828715670","tag":{"amenity":"recycling","recycling:cans":"yes","recycling:glass":"yes","recycling:paper":"yes","recycling:scrap_metal":"yes"}},"type":"Feature"},
	{"geometry":{"coordinates":[9.746309,47.506736],"type":"Point"},"properties":{"name":"Big Belly Solar","osm_id":"861971360","tag":{"amenity":"waste_basket"}},"type":"Feature"},
	{"geometry":{"coordinates":[9.693359,47.482418],"type":"Point"},"properties":{"osm_id":"907919725","tag":{"amenity":"recycling","recycling:cans":"yes","recycling:glass":"yes","recycling:paper":"yes","recycling:scrap_metal":"yes"}},"type":"Feature"},
	{"geometry":{"coordinates":[9.684896,47.477449],"type":"Point"},"properties":{"osm_id":"912309427","tag":{"amenity":"recycling","recycling:cans":"yes","recycling:glass":"yes","recycling:paper":"yes","recycling:scrap_metal":"yes"}},"type":"Feature"},
	{"geometry":{"coordinates":[9.750341,47.49985],"type":"Point"},"properties":{"osm_id":"921136000","tag":{"amenity":"recycling"}},"type":"Feature"},
	{"geometry":{"coordinates":[9.695687,47.497877],"type":"Point"},"properties":{"osm_id":"954536457","tag":{"amenity":"recycling","recycling:cans":"yes","recycling:glass_bottles":"yes","recycling:scrap_metal":"yes","recycling_type":"container"}},"type":"Feature"},
	{"geometry":{"coordinates":[9.721868,47.486384],"type":"Point"},"properties":{"osm_id":"1245776045","tag":{"amenity":"recycling","recycling:cans":"yes","recycling:glass":"yes","recycling:glass_bottles":"yes","recycling_type":"container"}},"type":"Feature"},
	{"geometry":{"coordinates":[9.72581,47.505863],"type":"Point"},"properties":{"osm_id":"1274148522","tag":{"amenity":"recycling","opening_hours":"24/7","operator":"Bregenzer Segelclub","recycling:waste":"yes","recycling_type":"container","wheelchair":"yes"}},"type":"Feature"},
	{"geometry":{"coordinates":[9.727379,47.503633],"type":"Point"},"properties":{"osm_id":"1342601671","tag":{"entrance":"main"}},"type":"Feature"},
	{"geometry":{"coordinates":[9.741257,47.4731],"type":"Point"},"properties":{"barrier":"lift_gate","osm_id":"1665032094","tag":{"entrance":"main"}},"type":"Feature"},
	{"geometry":{"coordinates":[9.754797,47.508077],"type":"Point"},"properties":{"osm_id":"2445527779","tag":{"amenity":"recycling"}},"type":"Feature"},
	{"geometry":{"coordinates":[9.741343,47.494233],"type":"Point"},"properties":{"osm_id":"2445527782","tag":{"amenity":"recycling"}},"type":"Feature"},
	{"geometry":{"coordinates":[9.740453,47.488767],"type":"Point"},"properties":{"osm_id":"2445529513","tag":{"amenity":"recycling"}},"type":"Feature"},
	{"geometry":{"coordinates":[9.751172,47.481152],"type":"Point"},"properties":{"osm_id":"3202753171","tag":{"amenity":"recycling"}},"type":"Feature"},
	{"geometry":{"coordinates":[9.748648,47.473152],"type":"Point"},"properties":{"osm_id":"3846633905","tag":{"amenity":"recycling"}},"type":"Feature"},
	{"geometry":{"coordinates":[9.732776,47.499449],"type":"Point"},"properties":{"osm_id":"3893992088","tag":{"amenity":"recycling","recycling_type":"container"}},"type":"Feature"},
	{"geometry":{"coordinates":[9.722665,47.487423],"type":"Point"},"properties":{"osm_id":"4114716630","tag":{"amenity":"recycling","recycling_type":"container"}},"type":"Feature"},
	{"geometry":{"coordinates":[9.715347,47.494697],"type":"Point"},"properties":{"osm_id":"4275558107","tag":{"amenity":"recycling","recycling:cans":"yes","recycling:clothes":"no","recycling:glass_bottles":"yes","recycling:plastic":"no","recycling:plastic_bottles":"no","recycling:plastic_packaging":"no","recycling_type":"container"}},"type":"Feature"},
	{"geometry":{"coordinates":[9.74973,47.507551],"type":"Point"},"properties":{"osm_id":"4377968590","tag":{"amenity":"waste_basket"}},"type":"Feature"},
	{"geometry":{"coordinates":[9.741956,47.498399],"type":"Point"},"properties":{"osm_id":"4512151078","tag":{"amenity":"recycling","recycling_type":"container"}},"type":"Feature"},
	{"geometry":{"coordinates":[9.732314,47.503101],"type":"Point"},"properties":{"osm_id":"4678312060","tag":{"amenity":"waste_basket"}},"type":"Feature"},
	{"geometry":{"coordinates":[9.735884,47.503821],"type":"Point"},"properties":{"osm_id":"4678360290","tag":{"amenity":"waste_basket"}},"type":"Feature"},
	{"geometry":{"coordinates":[9.73575,47.50395],"type":"Point"},"properties":{"osm_id":"4678360292","tag":{"amenity":"waste_basket"}},"type":"Feature"},
	{"geometry":{"coordinates":[9.735966,47.503911],"type":"Point"},"properties":{"osm_id":"4678360293","tag":{"amenity":"waste_basket"}},"type":"Feature"},
	{"geometry":{"coordinates":[9.736344,47.504005],"type":"Point"},"properties":{"osm_id":"4678360294","tag":{"amenity":"waste_basket"}},"type":"Feature"},
	{"geometry":{"coordinates":[9.735402,47.503202],"type":"Point"},"properties":{"osm_id":"4678360332","tag":{"amenity":"waste_basket"}},"type":"Feature"},
	{"geometry":{"coordinates":[9.736063,47.503316],"type":"Point"},"properties":{"osm_id":"4678385424","tag":{"amenity":"waste_basket"}},"type":"Feature"},
	{"geometry":{"coordinates":[9.7362,47.503448],"type":"Point"},"properties":{"osm_id":"4678385425","tag":{"amenity":"waste_basket"}},"type":"Feature"},
	{"geometry":{"coordinates":[9.736082,47.503463],"type":"Point"},"properties":{"osm_id":"4678385426","tag":{"amenity":"waste_basket"}},"type":"Feature"},
	{"geometry":{"coordinates":[9.73579,47.50348],"type":"Point"},"properties":{"osm_id":"4678385439","tag":{"amenity":"waste_basket"}},"type":"Feature"},
	{"geometry":{"coordinates":[9.735462,47.504017],"type":"Point"},"properties":{"osm_id":"4678402673","tag":{"amenity":"waste_basket"}},"type":"Feature"},
	{"geometry":{"coordinates":[9.735398,47.504845],"type":"Point"},"properties":{"osm_id":"4678483252","tag":{"amenity":"waste_basket"}},"type":"Feature"},
	{"geometry":{"coordinates":[9.73513,47.504885],"type":"Point"},"properties":{"osm_id":"4678483253","tag":{"amenity":"waste_basket"}},"type":"Feature"},
	{"geometry":{"coordinates":[9.729228,47.505405],"type":"Point"},"properties":{"osm_id":"4678507783","tag":{"amenity":"waste_basket"}},"type":"Feature"},
	{"geometry":{"coordinates":[9.7301,47.505697],"type":"Point"},"properties":{"osm_id":"4678507784","tag":{"amenity":"waste_basket"}},"type":"Feature"},
	{"geometry":{"coordinates":[9.730609,47.505716],"type":"Point"},"properties":{"osm_id":"4678507787","tag":{"amenity":"waste_basket"}},"type":"Feature"},
	{"geometry":{"coordinates":[9.731097,47.505705],"type":"Point"},"properties":{"osm_id":"4678507788","tag":{"amenity":"waste_basket"}},"type":"Feature"},
	{"geometry":{"coordinates":[9.727063,47.505943],"type":"Point"},"properties":{"osm_id":"4678680007","tag":{"amenity":"waste_basket"}},"type":"Feature"},
	{"geometry":{"coordinates":[9.727296,47.505922],"type":"Point"},"properties":{"osm_id":"4678680010","tag":{"amenity":"waste_basket"}},"type":"Feature"},
	{"geometry":{"coordinates":[9.727897,47.50586],"type":"Point"},"properties":{"osm_id":"4678680011","tag":{"amenity":"waste_basket"}},"type":"Feature"},
	{"geometry":{"coordinates":[9.728206,47.50583],"type":"Point"},"properties":{"osm_id":"4678680017","tag":{"amenity":"waste_basket"}},"type":"Feature"},
	{"geometry":{"coordinates":[9.725446,47.506808],"type":"Point"},"properties":{"osm_id":"4678715830","tag":{"amenity":"waste_basket"}},"type":"Feature"},
	{"geometry":{"coordinates":[9.724775,47.506267],"type":"Point"},"properties":{"osm_id":"4678715839","tag":{"amenity":"waste_basket"}},"type":"Feature"},
	{"geometry":{"coordinates":[9.724706,47.506145],"type":"Point"},"properties":{"osm_id":"4678715845","tag":{"amenity":"waste_basket"}},"type":"Feature"},
	{"geometry":{"coordinates":[9.725095,47.506113],"type":"Point"},"properties":{"osm_id":"4678715850","tag":{"amenity":"waste_basket"}},"type":"Feature"},
	{"geometry":{"coordinates":[9.725008,47.506636],"type":"Point"},"properties":{"osm_id":"4678755151","tag":{"amenity":"waste_basket"}},"type":"Feature"},
	{"geometry":{"coordinates":[9.727551,47.476498],"type":"Point"},"properties":{"osm_id":"5091547725","tag":{"amenity":"recycling","opening_hours":"Mo-Sa 07:00-20:00","recycling:cans":"yes","recycling:glass":"yes","recycling_type":"container"}},"type":"Feature"},
	{"geometry":{"coordinates":[9.722479,47.467209],"type":"Point"},"properties":{"barrier":"lift_gate","osm_id":"5210067737","tag":{"entrance":"main"}},"type":"Feature"},
	{"geometry":{"coordinates":[9.713693,47.481678],"type":"Point"},"properties":{"osm_id":"6341380198","tag":{"amenity":"recycling","recycling_type":"container"}},"type":"Feature"},
	{"geometry":{"coordinates":[9.730958,47.481287],"type":"Point"},"properties":{"osm_id":"6387434526","tag":{"amenity":"recycling","recycling_type":"container"}},"type":"Feature"},
	{"geometry":{"coordinates":[9.674474,47.493883],"type":"Point"},"properties":{"osm_id":"7023224618","tag":{"amenity":"waste_basket","waste":"trash"}},"type":"Feature"},
	{"geometry":{"coordinates":[9.674474,47.493926],"type":"Point"},"properties":{"osm_id":"7023224619","tag":{"amenity":"waste_basket","waste":"trash"}},"type":"Feature"},
	{"geometry":{"coordinates":[9.674674,47.497176],"type":"Point"},"properties":{"osm_id":"7023224621","tag":{"amenity":"waste_basket","waste":"trash"}},"type":"Feature"},
	{"geometry":{"coordinates":[9.674674,47.497201],"type":"Point"},"properties":{"osm_id":"7023224622","tag":{"amenity":"waste_basket","waste":"trash"}},"type":"Feature"},
	{"geometry":{"coordinates":[9.744421,47.478778],"type":"Point"},"properties":{"osm_id":"7028887066","tag":{"amenity":"recycling","recycling_type":"container"}},"type":"Feature"},
	{"geometry":{"coordinates":[9.722787,47.466833],"type":"Point"},"properties":{"barrier":"gate","osm_id":"7124488018","tag":{"entrance":"main"}},"type":"Feature"},
	{"geometry":{"coordinates":[9.731447,47.466885],"type":"Point"},"properties":{"osm_id":"7272223702","tag":{"amenity":"recycling","recycling_type":"container"}},"type":"Feature"},
	{"geometry":{"coordinates":[9.738371,47.491204],"type":"Point"},"properties":{"osm_id":"7359550838","tag":{"amenity":"recycling","recycling_type":"container"}},"type":"Feature"},
	{"geometry":{"coordinates":[9.720259,47.491558],"type":"Point"},"properties":{"osm_id":"7444991203","tag":{"amenity":"recycling","recycling_type":"container"}},"type":"Feature"},
	{"geometry":{"coordinates":[9.727836,47.504301],"type":"Point"},"properties":{"osm_id":"7500695336","tag":{"entrance":"main"}},"type":"Feature"},
	{"geometry":{"coordinates":[9.72604,47.505965],"type":"Point"},"properties":{"name":"Recycling","osm_id":"7566735222","tag":{"access":"yes","addr:city":"Bregenz","addr:country":"AT","addr:housenumber":"47","addr:postcode":"6900","addr:street":"Strandbad Bregenz","amenity":"recycling","fee":"no","opening_hours":"24/7","operator":"Stadt Bregenz","recycling:batteries":"yes","recycling:cans":"yes","recycling:cardboard":"yes","recycling:glass":"yes","recycling:glass_bottles":"yes","recycling:paper":"yes","recycling:plastic":"yes","recycling:plastic_bottles":"yes","recycling:scrap_metal":"yes","recycling:waste":"yes","recycling_type":"centre","sanitary_dump_station:basin":"yes","wheelchair":"yes"}},"type":"Feature"},
	{"geometry":{"coordinates":[9.716993,47.492844],"type":"Point"},"properties":{"osm_id":"7762354983","tag":{"amenity":"recycling","recycling:green_waste":"yes","recycling_type":"container"}},"type":"Feature"},
	{"geometry":{"coordinates":[9.716336,47.493303],"type":"Point"},"properties":{"osm_id":"7777635452","tag":{"amenity":"recycling","recycling:cans":"no","recycling:clothes":"yes","recycling:glass_bottles":"no","recycling:plastic":"no","recycling:plastic_bottles":"no","recycling:plastic_packaging":"no","recycling_type":"container"}},"type":"Feature"}
]
}
