{
"type": "FeatureCollection",
"lastupdate": "2020-08-06T00:00:00Z",
"features": [
	{"geometry":{"coordinates":[153.428666,-27.998848],"type":"Point"},"properties":{"osm_id":"5360444884","tag":{"amenity":"waste_basket"}},"type":"Feature"},
	{"geometry":{"coordinates":[153.43113,-28.000067],"type":"Point"},"properties":{"osm_id":"5360448816","tag":{"amenity":"waste_basket"}},"type":"Feature"},
	{"geometry":{"coordinates":[153.430964,-27.998535],"type":"Point"},"properties":{"osm_id":"6222998718","tag":{"amenity":"waste_basket"}},"type":"Feature"},
	{"geometry":{"coordinates":[153.431006,-27.998055],"type":"Point"},"properties":{"osm_id":"6223007012","tag":{"amenity":"waste_basket"}},"type":"Feature"},
	{"geometry":{"coordinates":[153.42439,-27.994991],"type":"Point"},"properties":{"osm_id":"6223007285","tag":{"amenity":"waste_basket"}},"type":"Feature"},
	{"geometry":{"coordinates":[153.43085,-28.02952],"type":"Point"},"properties":{"osm_id":"7130341553","tag":{"amenity":"waste_basket"}},"type":"Feature"},
	{"geometry":{"coordinates":[153.433302,-28.03461],"type":"Point"},"properties":{"name":"Return-It (10c return scheme)","osm_id":"7774834987","tag":{"amenity":"recycling"}},"type":"Feature"}
]
}
