{
"type": "FeatureCollection",
"features": [
	{"geometry":{"coordinates":[39.296087,-5.733197],"type":"Point"},"properties":{"osm_id":"7976691007","tag":{"amenity":"waste_disposal"}},"type":"Feature"},
	{"geometry":{"coordinates":[39.296719,-5.731156],"type":"Point"},"properties":{"osm_id":"7976691008","tag":{"amenity":"waste_disposal"}},"type":"Feature"},
	{"geometry":{"coordinates":[39.297231,-5.732143],"type":"Point"},"properties":{"osm_id":"7976691009","tag":{"amenity":"waste_disposal"}},"type":"Feature"},
	{"geometry":{"coordinates":[39.297258,-5.730965],"type":"Point"},"properties":{"osm_id":"7976691010","tag":{"amenity":"waste_disposal"}},"type":"Feature"},
	{"geometry":{"coordinates":[39.297487,-5.732032],"type":"Point"},"properties":{"osm_id":"7976691011","tag":{"amenity":"waste_disposal"}},"type":"Feature"},
	{"geometry":{"coordinates":[39.295403,-5.732831],"type":"Point"},"properties":{"osm_id":"7976691012","tag":{"amenity":"waste_disposal"}},"type":"Feature"},
	{"geometry":{"coordinates":[39.29755,-5.730636],"type":"Point"},"properties":{"osm_id":"7976691013","tag":{"amenity":"waste_disposal"}},"type":"Feature"},
	{"geometry":{"coordinates":[39.297724,-5.731959],"type":"Point"},"properties":{"osm_id":"7976691014","tag":{"amenity":"waste_disposal"}},"type":"Feature"},
	{"geometry":{"coordinates":[39.295133,-5.73282],"type":"Point"},"properties":{"osm_id":"7976691015","tag":{"amenity":"waste_disposal"}},"type":"Feature"},
	{"geometry":{"coordinates":[39.295866,-5.733573],"type":"Point"},"properties":{"osm_id":"7976691016","tag":{"amenity":"waste_disposal"}},"type":"Feature"},
	{"geometry":{"coordinates":[39.297695,-5.732793],"type":"Point"},"properties":{"osm_id":"7976691017","tag":{"amenity":"waste_disposal"}},"type":"Feature"},
	{"geometry":{"coordinates":[39.294973,-5.730488],"type":"Point"},"properties":{"osm_id":"7976691018","tag":{"amenity":"waste_disposal"}},"type":"Feature"},
	{"geometry":{"coordinates":[39.295907,-5.733391],"type":"Point"},"properties":{"osm_id":"7976691019","tag":{"amenity":"waste_disposal"}},"type":"Feature"},
	{"geometry":{"coordinates":[39.296676,-5.733671],"type":"Point"},"properties":{"osm_id":"7976691021","tag":{"amenity":"waste_disposal"}},"type":"Feature"},
	{"geometry":{"coordinates":[39.29528,-5.729959],"type":"Point"},"properties":{"osm_id":"7976691022","tag":{"amenity":"waste_disposal"}},"type":"Feature"},
	{"geometry":{"coordinates":[39.292716,-5.728164],"type":"Point"},"properties":{"osm_id":"7976837068","tag":{"amenity":"waste_disposal"}},"type":"Feature"},
	{"geometry":{"coordinates":[39.293039,-5.727167],"type":"Point"},"properties":{"osm_id":"7976837069","tag":{"amenity":"waste_disposal"}},"type":"Feature"},
	{"geometry":{"coordinates":[39.298559,-5.74185],"type":"Point"},"properties":{"osm_id":"7976891050","tag":{"amenity":"waste_disposal","amenity_wa":"waste_disposal"}},"type":"Feature"},
	{"geometry":{"coordinates":[39.299193,-5.74068],"type":"Point"},"properties":{"osm_id":"7976891051","tag":{"amenity":"recycling","recycling_type":"centre"}},"type":"Feature"},
	{"geometry":{"coordinates":[39.29805,-5.733862],"type":"Point"},"properties":{"osm_id":"7976891052","tag":{"amenity":"waste_disposal"}},"type":"Feature"},
	{"geometry":{"coordinates":[39.307088,-5.730918],"type":"Point"},"properties":{"osm_id":"7977227869","tag":{"amenity":"waste_disposal"}},"type":"Feature"},
	{"geometry":{"coordinates":[39.307033,-5.730967],"type":"Point"},"properties":{"osm_id":"7977227870","tag":{"amenity":"waste_disposal"}},"type":"Feature"},
	{"geometry":{"coordinates":[39.307637,-5.730945],"type":"Point"},"properties":{"osm_id":"7977227879","tag":{"amenity":"waste_disposal"}},"type":"Feature"},
	{"geometry":{"coordinates":[39.304235,-5.724185],"type":"Point"},"properties":{"osm_id":"7977352486","tag":{"amenity":"waste_disposal","features":"solid_waste","type":"amenity","waypoints":"24"}},"type":"Feature"}
]
}
