{
"type": "FeatureCollection",
"features": [
	{"geometry":{"coordinates":[-87.367819,36.535998],"type":"Point"},"properties":{"osm_id":"4190985675","tag":{"amenity":"waste_basket"}},"type":"Feature"},
	{"geometry":{"coordinates":[-87.389856,36.584407],"type":"Point"},"properties":{"osm_id":"4395425702","tag":{"amenity":"waste_basket"}},"type":"Feature"},
	{"geometry":{"coordinates":[-87.396317,36.5427],"type":"Point"},"properties":{"osm_id":"7432373852","tag":{"amenity":"waste_disposal"}},"type":"Feature"},
	{"geometry":{"coordinates":[-87.396318,36.542664],"type":"Point"},"properties":{"osm_id":"7432373853","tag":{"amenity":"waste_disposal"}},"type":"Feature"},
	{"geometry":{"coordinates":[-87.396315,36.542632],"type":"Point"},"properties":{"osm_id":"7432373854","tag":{"amenity":"waste_disposal"}},"type":"Feature"},
	{"geometry":{"coordinates":[-87.396097,36.542576],"type":"Point"},"properties":{"osm_id":"7432373855","tag":{"amenity":"waste_disposal","waste":"trash"}},"type":"Feature"},
	{"geometry":{"coordinates":[-87.395846,36.542618],"type":"Point"},"properties":{"osm_id":"7432373856","tag":{"amenity":"waste_disposal","waste":"controlled_waste"}},"type":"Feature"},
	{"geometry":{"coordinates":[-87.395845,36.54263],"type":"Point"},"properties":{"osm_id":"7432373857","tag":{"amenity":"waste_disposal","waste":"controlled_waste"}},"type":"Feature"},
	{"geometry":{"coordinates":[-87.395842,36.542647],"type":"Point"},"properties":{"osm_id":"7432373858","tag":{"amenity":"waste_disposal","waste":"controlled_waste"}},"type":"Feature"},
	{"geometry":{"coordinates":[-87.395873,36.542703],"type":"Point"},"properties":{"osm_id":"7432373859","tag":{"amenity":"waste_disposal","waste":"cardboard"}},"type":"Feature"},
	{"geometry":{"coordinates":[-87.395892,36.542766],"type":"Point"},"properties":{"osm_id":"7432373860","tag":{"amenity":"waste_disposal","waste":"metal"}},"type":"Feature"},
	{"geometry":{"coordinates":[-87.395898,36.542798],"type":"Point"},"properties":{"osm_id":"7432373861","tag":{"amenity":"waste_disposal","waste":"glass"}},"type":"Feature"},
	{"geometry":{"coordinates":[-87.395933,36.542813],"type":"Point"},"properties":{"osm_id":"7432373862","tag":{"amenity":"waste_disposal","waste":"glass"}},"type":"Feature"},
	{"geometry":{"coordinates":[-87.395961,36.542815],"type":"Point"},"properties":{"osm_id":"7432373863","tag":{"amenity":"waste_disposal","waste":"glass"}},"type":"Feature"},
	{"geometry":{"coordinates":[-87.39601,36.542812],"type":"Point"},"properties":{"osm_id":"7432373864","tag":{"amenity":"waste_disposal","waste":"oil"}},"type":"Feature"},
	{"geometry":{"coordinates":[-87.396044,36.542813],"type":"Point"},"properties":{"osm_id":"7432373865","tag":{"amenity":"waste_disposal","waste":"oil"}},"type":"Feature"},
	{"geometry":{"coordinates":[-87.396078,36.542819],"type":"Point"},"properties":{"osm_id":"7432373866","tag":{"amenity":"waste_disposal","waste":"aluminum"}},"type":"Feature"},
	{"geometry":{"coordinates":[-87.396106,36.542816],"type":"Point"},"properties":{"osm_id":"7432373867","tag":{"amenity":"waste_disposal","waste":"aluminum"}},"type":"Feature"},
	{"geometry":{"coordinates":[-87.396129,36.542816],"type":"Point"},"properties":{"osm_id":"7432373868","tag":{"amenity":"waste_disposal","waste":"paper"}},"type":"Feature"},
	{"geometry":{"coordinates":[-87.396157,36.542815],"type":"Point"},"properties":{"osm_id":"7432373869","tag":{"amenity":"waste_disposal","waste":"paper"}},"type":"Feature"},
	{"geometry":{"coordinates":[-87.396183,36.542815],"type":"Point"},"properties":{"osm_id":"7432373870","tag":{"amenity":"waste_disposal","waste":"paper"}},"type":"Feature"}
]
}
