{
"type": "FeatureCollection",
"features": [
	{"geometry":{"coordinates":[-81.670156,36.209659],"type":"Point"},"properties":{"osm_id":"2187376223","tag":{"amenity":"recycling"}},"type":"Feature"},
	{"geometry":{"coordinates":[-81.694016,36.222498],"type":"Point"},"properties":{"osm_id":"6896713708","tag":{"access":"customers","amenity":"waste_disposal","operator":"Boone High Country Rentals","operator:type":"private"}},"type":"Feature"},
	{"geometry":{"coordinates":[-81.701324,36.207523],"type":"Point"},"properties":{"osm_id":"6943544288","tag":{"amenity":"waste_disposal"}},"type":"Feature"},
	{"geometry":{"coordinates":[-81.710071,36.213622],"type":"Point"},"properties":{"osm_id":"6944181965","tag":{"amenity":"waste_disposal"}},"type":"Feature"},
	{"geometry":{"coordinates":[-81.672781,36.216478],"type":"Point"},"properties":{"osm_id":"6946546731","tag":{"access":"private","amenity":"waste_disposal"}},"type":"Feature"},
	{"geometry":{"coordinates":[-81.66042,36.201389],"type":"Point"},"properties":{"osm_id":"7638461368","tag":{"amenity":"waste_disposal"}},"type":"Feature"},
	{"geometry":{"coordinates":[-81.661657,36.201866],"type":"Point"},"properties":{"osm_id":"7638461369","tag":{"amenity":"waste_disposal"}},"type":"Feature"},
	{"geometry":{"coordinates":[-81.662222,36.202196],"type":"Point"},"properties":{"osm_id":"7638461370","tag":{"amenity":"waste_disposal"}},"type":"Feature"},
	{"geometry":{"coordinates":[-81.662819,36.202606],"type":"Point"},"properties":{"osm_id":"7638461371","tag":{"amenity":"waste_disposal"}},"type":"Feature"}
]
}
