{
"type": "FeatureCollection",
"features": [
	{"geometry":{"coordinates":[-81.722,26.129603],"type":"Point"},"properties":{"osm_id":"4501707612","tag":{"amenity":"waste_disposal"}},"type":"Feature"},
	{"geometry":{"coordinates":[-81.72228,26.129788],"type":"Point"},"properties":{"osm_id":"4501707613","tag":{"amenity":"waste_disposal"}},"type":"Feature"},
	{"geometry":{"coordinates":[-81.724423,26.129688],"type":"Point"},"properties":{"osm_id":"4501707614","tag":{"amenity":"waste_disposal"}},"type":"Feature"},
	{"geometry":{"coordinates":[-81.724236,26.131312],"type":"Point"},"properties":{"osm_id":"4501707615","tag":{"amenity":"waste_disposal"}},"type":"Feature"},
	{"geometry":{"coordinates":[-81.72355,26.131654],"type":"Point"},"properties":{"osm_id":"4501707616","tag":{"amenity":"waste_disposal"}},"type":"Feature"},
	{"geometry":{"coordinates":[-81.723464,26.133135],"type":"Point"},"properties":{"osm_id":"4501707617","tag":{"amenity":"waste_disposal"}},"type":"Feature"},
	{"geometry":{"coordinates":[-81.722163,26.131535],"type":"Point"},"properties":{"osm_id":"4501707618","tag":{"amenity":"waste_disposal"}},"type":"Feature"},
	{"geometry":{"coordinates":[-81.722422,26.131189],"type":"Point"},"properties":{"osm_id":"4501707619","tag":{"amenity":"waste_disposal"}},"type":"Feature"},
	{"geometry":{"coordinates":[-81.720747,26.132107],"type":"Point"},"properties":{"osm_id":"4501707620","tag":{"amenity":"waste_disposal"}},"type":"Feature"},
	{"geometry":{"coordinates":[-81.719804,26.132297],"type":"Point"},"properties":{"osm_id":"4501707621","tag":{"amenity":"waste_disposal"}},"type":"Feature"},
	{"geometry":{"coordinates":[-81.719002,26.132582],"type":"Point"},"properties":{"osm_id":"4501707622","tag":{"amenity":"waste_disposal"}},"type":"Feature"},
	{"geometry":{"coordinates":[-81.719823,26.134614],"type":"Point"},"properties":{"osm_id":"4501707623","tag":{"amenity":"waste_disposal"}},"type":"Feature"},
	{"geometry":{"coordinates":[-81.720521,26.134657],"type":"Point"},"properties":{"osm_id":"4501707624","tag":{"amenity":"waste_disposal"}},"type":"Feature"},
	{"geometry":{"coordinates":[-81.721219,26.135273],"type":"Point"},"properties":{"osm_id":"4501707625","tag":{"amenity":"waste_disposal"}},"type":"Feature"},
	{"geometry":{"coordinates":[-81.720305,26.13522],"type":"Point"},"properties":{"osm_id":"4501707626","tag":{"amenity":"waste_disposal"}},"type":"Feature"},
	{"geometry":{"coordinates":[-81.721491,26.134105],"type":"Point"},"properties":{"osm_id":"4501707627","tag":{"amenity":"waste_disposal"}},"type":"Feature"},
	{"geometry":{"coordinates":[-81.720372,26.134504],"type":"Point"},"properties":{"osm_id":"4501707628","tag":{"amenity":"waste_disposal"}},"type":"Feature"},
	{"geometry":{"coordinates":[-81.720907,26.132673],"type":"Point"},"properties":{"osm_id":"4501707629","tag":{"amenity":"waste_disposal"}},"type":"Feature"},
	{"geometry":{"coordinates":[-81.719311,26.133386],"type":"Point"},"properties":{"osm_id":"4501707630","tag":{"amenity":"waste_disposal"}},"type":"Feature"},
	{"geometry":{"coordinates":[-81.72415,26.135927],"type":"Point"},"properties":{"osm_id":"4503505645","tag":{"amenity":"waste_disposal"}},"type":"Feature"},
	{"geometry":{"coordinates":[-81.724047,26.137867],"type":"Point"},"properties":{"osm_id":"4503505650","tag":{"amenity":"waste_disposal"}},"type":"Feature"},
	{"geometry":{"coordinates":[-81.658051,26.157041],"type":"Point"},"properties":{"name":"Collier County Landfill (Household Hazardous Waste Facility)","osm_id":"5736191336","tag":{"addr:postcode":"34117","addr:street":"3730 White Lake Blvd","amenity":"recycling","opening_hours":"Mo-Sa 07:00-16:30","phone":"(239) 252-8489","recycling_type":"centre","website":"http://www.colliergov.net/index.aspx?page=2747"}},"type":"Feature"}
]
}
