{
"type": "FeatureCollection",
"features": [
	{"geometry":{"coordinates":[121.536397,25.05104],"type":"Point"},"properties":{"osm_id":"2179826564","tag":{"amenity":"waste_basket"}},"type":"Feature"},
	{"geometry":{"coordinates":[121.536447,25.051577],"type":"Point"},"properties":{"osm_id":"2179826598","tag":{"amenity":"waste_basket"}},"type":"Feature"},
	{"geometry":{"coordinates":[121.536512,25.050803],"type":"Point"},"properties":{"osm_id":"2184992854","tag":{"amenity":"waste_basket"}},"type":"Feature"},
	{"geometry":{"coordinates":[121.53695,25.057684],"type":"Point"},"properties":{"osm_id":"2188368744","tag":{"amenity":"waste_basket"}},"type":"Feature"},
	{"geometry":{"coordinates":[121.536505,25.057701],"type":"Point"},"properties":{"osm_id":"2188368925","tag":{"amenity":"waste_basket"}},"type":"Feature"},
	{"geometry":{"coordinates":[121.535354,25.057759],"type":"Point"},"properties":{"osm_id":"2188373390","tag":{"amenity":"waste_basket"}},"type":"Feature"},
	{"geometry":{"coordinates":[121.534986,25.057762],"type":"Point"},"properties":{"osm_id":"2188376759","tag":{"amenity":"waste_basket"}},"type":"Feature"},
	{"geometry":{"coordinates":[121.533452,25.057783],"type":"Point"},"properties":{"osm_id":"2188386412","tag":{"amenity":"waste_basket"}},"type":"Feature"},
	{"geometry":{"coordinates":[121.533338,25.057777],"type":"Point"},"properties":{"osm_id":"2188387720","tag":{"amenity":"waste_basket"}},"type":"Feature"},
	{"geometry":{"coordinates":[121.533436,25.058049],"type":"Point"},"properties":{"osm_id":"2188389694","tag":{"amenity":"waste_basket"}},"type":"Feature"},
	{"geometry":{"coordinates":[121.509175,25.044295],"type":"Point"},"properties":{"osm_id":"2192118611","tag":{"amenity":"waste_basket"}},"type":"Feature"},
	{"geometry":{"coordinates":[121.543722,25.026079],"type":"Point"},"properties":{"osm_id":"2238341083","tag":{"amenity":"waste_basket"}},"type":"Feature"},
	{"geometry":{"coordinates":[121.543744,25.026001],"type":"Point"},"properties":{"osm_id":"2238341165","tag":{"amenity":"waste_basket"}},"type":"Feature"},
	{"geometry":{"coordinates":[121.551292,25.029636],"type":"Point"},"properties":{"osm_id":"2415942446","tag":{"amenity":"waste_basket"}},"type":"Feature"},
	{"geometry":{"coordinates":[121.478637,25.027989],"type":"Point"},"properties":{"name":"Used Cloth Recycle","osm_id":"2473958375","tag":{"amenity":"waste_basket"}},"type":"Feature"},
	{"geometry":{"coordinates":[121.513062,25.035943],"type":"Point"},"properties":{"osm_id":"2543217901","tag":{"amenity":"waste_basket"}},"type":"Feature"},
	{"geometry":{"coordinates":[121.513207,25.036747],"type":"Point"},"properties":{"osm_id":"2543218041","tag":{"amenity":"waste_basket"}},"type":"Feature"},
	{"geometry":{"coordinates":[121.513285,25.03624],"type":"Point"},"properties":{"osm_id":"2543218052","tag":{"amenity":"waste_basket"}},"type":"Feature"},
	{"geometry":{"coordinates":[121.510809,25.055309],"type":"Point"},"properties":{"name":"\u00e8\u0088\u008a\u00e8\u00a1\u00a3\u00e5\u009b\u009e\u00e6\u0094\u00b6\u00e7\u00ae\u00b1","osm_id":"2562696068","tag":{"amenity":"recycling","recycling:clothes":"yes"}},"type":"Feature"},
	{"geometry":{"coordinates":[121.509028,25.056063],"type":"Point"},"properties":{"name":"\u00e8\u0088\u008a\u00e8\u00a1\u00a3\u00e5\u009b\u009e\u00e6\u0094\u00b6\u00e7\u00ae\u00b1","osm_id":"2563841542","tag":{"amenity":"recycling","recycling:clothes":"yes"}},"type":"Feature"},
	{"geometry":{"coordinates":[121.507654,25.04335],"type":"Point"},"properties":{"name":"\u00e5\u009e\u0083\u00e5\u009c\u00be\u00e6\u00a1\u00b6","osm_id":"2572568041","tag":{"amenity":"waste_basket"}},"type":"Feature"},
	{"geometry":{"coordinates":[121.526916,25.041339],"type":"Point"},"properties":{"osm_id":"2575216311","tag":{"amenity":"recycling","recycling:clothes":"yes"}},"type":"Feature"},
	{"geometry":{"coordinates":[121.515692,25.055348],"type":"Point"},"properties":{"osm_id":"2575904204","tag":{"amenity":"recycling","recycling:clothes":"yes"}},"type":"Feature"},
	{"geometry":{"coordinates":[121.510939,25.05448],"type":"Point"},"properties":{"name":"\u00e8\u0088\u008a\u00e8\u00a1\u00a3\u00e5\u009b\u009e\u00e6\u0094\u00b6\u00e7\u00ae\u00b1","osm_id":"2634592130","tag":{"amenity":"recycling","recycling:clothes":"yes"}},"type":"Feature"},
	{"geometry":{"coordinates":[121.540956,25.045389],"type":"Point"},"properties":{"name":"\u00e6\u0085\u0088\u00e6\u00bf\u009f\u00e5\u0085\u00ab\u00e5\u00be\u00b7\u00e7\u0092\u00b0\u00e4\u00bf\u009d\u00e6\u0095\u0099\u00e8\u0082\u00b2\u00e7\u00ab\u0099","osm_id":"2810365563","tag":{"amenity":"recycling"}},"type":"Feature"},
	{"geometry":{"coordinates":[121.539877,25.036323],"type":"Point"},"properties":{"name":"\u00e8\u00b3\u0087\u00e6\u00ba\u0090\u00e5\u009b\u009e\u00e6\u0094\u00b6\u00e5\u00a0\u00b4","osm_id":"2843414680","tag":{"amenity":"recycling"}},"type":"Feature"},
	{"geometry":{"coordinates":[121.517681,25.07676],"type":"Point"},"properties":{"name":"\u00e5\u009b\u009e\u00e6\u0094\u00b6\u00e5\u00a0\u00b4","osm_id":"2857244451","tag":{"amenity":"recycling"}},"type":"Feature"},
	{"geometry":{"coordinates":[121.549169,25.039418],"type":"Point"},"properties":{"name":"\u00e5\u009e\u0083\u00e5\u009c\u00be\u00e6\u00a1\u00b6","osm_id":"2886368741","tag":{"amenity":"waste_basket"}},"type":"Feature"},
	{"geometry":{"coordinates":[121.551907,25.038024],"type":"Point"},"properties":{"name":"\u00e5\u009e\u0083\u00e5\u009c\u00be\u00e6\u00a1\u00b6","osm_id":"2886368743","tag":{"amenity":"waste_basket"}},"type":"Feature"},
	{"geometry":{"coordinates":[121.549162,25.039202],"type":"Point"},"properties":{"name":"\u00e5\u009e\u0083\u00e5\u009c\u00be\u00e6\u00a1\u00b6","osm_id":"2886368746","tag":{"amenity":"waste_basket"}},"type":"Feature"},
	{"geometry":{"coordinates":[121.550903,25.038036],"type":"Point"},"properties":{"name":"\u00e5\u009e\u0083\u00e5\u009c\u00be\u00e6\u00a1\u00b6","osm_id":"2886368761","tag":{"amenity":"waste_basket"}},"type":"Feature"},
	{"geometry":{"coordinates":[121.550974,25.037539],"type":"Point"},"properties":{"name":"\u00e5\u009e\u0083\u00e5\u009c\u00be\u00e6\u00a1\u00b6","osm_id":"2886368765","tag":{"amenity":"waste_basket"}},"type":"Feature"},
	{"geometry":{"coordinates":[121.54916,25.040858],"type":"Point"},"properties":{"name":"\u00e5\u009e\u0083\u00e5\u009c\u00be\u00e6\u00a1\u00b6","osm_id":"2886387166","tag":{"amenity":"waste_basket"}},"type":"Feature"},
	{"geometry":{"coordinates":[121.543493,25.020907],"type":"Point"},"properties":{"osm_id":"2917411048","tag":{"amenity":"waste_basket"}},"type":"Feature"},
	{"geometry":{"coordinates":[121.520247,25.0268],"type":"Point"},"properties":{"osm_id":"2926239937","tag":{"amenity":"waste_basket"}},"type":"Feature"},
	{"geometry":{"coordinates":[121.525497,25.039457],"type":"Point"},"properties":{"osm_id":"2969057102","tag":{"amenity":"waste_basket"}},"type":"Feature"},
	{"geometry":{"coordinates":[121.509233,25.044566],"type":"Point"},"properties":{"osm_id":"3076871478","tag":{"amenity":"waste_basket"}},"type":"Feature"},
	{"geometry":{"coordinates":[121.508754,25.043108],"type":"Point"},"properties":{"osm_id":"3076885838","tag":{"amenity":"waste_basket"}},"type":"Feature"},
	{"geometry":{"coordinates":[121.46791,25.016787],"type":"Point"},"properties":{"osm_id":"3389163256","tag":{"amenity":"waste_basket"}},"type":"Feature"},
	{"geometry":{"coordinates":[121.515455,25.041457],"type":"Point"},"properties":{"osm_id":"3440694297","tag":{"amenity":"waste_basket"}},"type":"Feature"},
	{"geometry":{"coordinates":[121.516077,25.042306],"type":"Point"},"properties":{"osm_id":"3440694299","tag":{"amenity":"waste_basket"}},"type":"Feature"},
	{"geometry":{"coordinates":[121.534566,25.013466],"type":"Point"},"properties":{"osm_id":"3701536040","tag":{"amenity":"recycling","location":"overground","recycling:clothes":"yes","recycling_type":"container"}},"type":"Feature"},
	{"geometry":{"coordinates":[121.536319,25.012395],"type":"Point"},"properties":{"osm_id":"3723319572","tag":{"amenity":"waste_basket"}},"type":"Feature"},
	{"geometry":{"coordinates":[121.536069,25.012752],"type":"Point"},"properties":{"osm_id":"3723319582","tag":{"amenity":"waste_basket"}},"type":"Feature"},
	{"geometry":{"coordinates":[121.543282,25.026069],"type":"Point"},"properties":{"osm_id":"3724738502","tag":{"amenity":"waste_basket"}},"type":"Feature"},
	{"geometry":{"coordinates":[121.515378,25.04128],"type":"Point"},"properties":{"osm_id":"3724767623","tag":{"amenity":"waste_basket"}},"type":"Feature"},
	{"geometry":{"coordinates":[121.514492,25.04256],"type":"Point"},"properties":{"osm_id":"3724767624","tag":{"amenity":"waste_basket"}},"type":"Feature"},
	{"geometry":{"coordinates":[121.51441,25.042839],"type":"Point"},"properties":{"osm_id":"3724770025","tag":{"amenity":"waste_basket"}},"type":"Feature"},
	{"geometry":{"coordinates":[121.533189,25.053754],"type":"Point"},"properties":{"osm_id":"3727895074","tag":{"amenity":"waste_basket"}},"type":"Feature"},
	{"geometry":{"coordinates":[121.512586,25.037288],"type":"Point"},"properties":{"osm_id":"3770195064","tag":{"amenity":"waste_basket"}},"type":"Feature"},
	{"geometry":{"coordinates":[121.515093,25.038172],"type":"Point"},"properties":{"osm_id":"3770195764","tag":{"amenity":"waste_basket"}},"type":"Feature"},
	{"geometry":{"coordinates":[121.512555,25.036825],"type":"Point"},"properties":{"osm_id":"3770195766","tag":{"amenity":"waste_basket"}},"type":"Feature"},
	{"geometry":{"coordinates":[121.512458,25.035885],"type":"Point"},"properties":{"osm_id":"3770195768","tag":{"amenity":"waste_basket"}},"type":"Feature"},
	{"geometry":{"coordinates":[121.512834,25.038274],"type":"Point"},"properties":{"osm_id":"3770196320","tag":{"amenity":"waste_basket"}},"type":"Feature"},
	{"geometry":{"coordinates":[121.512775,25.037671],"type":"Point"},"properties":{"osm_id":"3770196322","tag":{"amenity":"waste_basket"}},"type":"Feature"},
	{"geometry":{"coordinates":[121.528162,25.026227],"type":"Point"},"properties":{"name":"\u00e6\u00a8\u0082\u00e6\u0099\u00ba\u00e6\u00a8\u0093\u00e5\u009e\u0083\u00e5\u009c\u00be\u00e6\u00a1\u00b6","osm_id":"3790957525","tag":{"amenity":"waste_basket","level":"1","recycling":"no"}},"type":"Feature"},
	{"geometry":{"coordinates":[121.522995,25.057126],"type":"Point"},"properties":{"osm_id":"3811445880","tag":{"amenity":"waste_basket"}},"type":"Feature"},
	{"geometry":{"coordinates":[121.530184,25.053211],"type":"Point"},"properties":{"osm_id":"3840857813","tag":{"amenity":"recycling","recycling:clothes":"yes","recycling_type":"container"}},"type":"Feature"},
	{"geometry":{"coordinates":[121.520841,25.042899],"type":"Point"},"properties":{"osm_id":"3851546361","tag":{"amenity":"waste_basket"}},"type":"Feature"},
	{"geometry":{"coordinates":[121.520309,25.043021],"type":"Point"},"properties":{"osm_id":"3851546363","tag":{"amenity":"waste_basket"}},"type":"Feature"},
	{"geometry":{"coordinates":[121.519026,25.043126],"type":"Point"},"properties":{"osm_id":"3851546364","tag":{"amenity":"waste_basket"}},"type":"Feature"},
	{"geometry":{"coordinates":[121.523662,25.044607],"type":"Point"},"properties":{"osm_id":"3851546367","tag":{"amenity":"waste_basket"}},"type":"Feature"},
	{"geometry":{"coordinates":[121.523378,25.04468],"type":"Point"},"properties":{"osm_id":"3851546368","tag":{"amenity":"waste_basket"}},"type":"Feature"},
	{"geometry":{"coordinates":[121.522974,25.045019],"type":"Point"},"properties":{"osm_id":"3851546369","tag":{"amenity":"waste_basket"}},"type":"Feature"},
	{"geometry":{"coordinates":[121.5227,25.045095],"type":"Point"},"properties":{"osm_id":"3851546370","tag":{"amenity":"waste_basket"}},"type":"Feature"},
	{"geometry":{"coordinates":[121.533255,25.054847],"type":"Point"},"properties":{"osm_id":"3867794082","tag":{"amenity":"waste_basket"}},"type":"Feature"},
	{"geometry":{"coordinates":[121.532815,25.054828],"type":"Point"},"properties":{"osm_id":"3887817080","tag":{"amenity":"waste_basket"}},"type":"Feature"},
	{"geometry":{"coordinates":[121.534714,25.030868],"type":"Point"},"properties":{"osm_id":"3926303546","tag":{"amenity":"waste_basket"}},"type":"Feature"},
	{"geometry":{"coordinates":[121.536919,25.031453],"type":"Point"},"properties":{"osm_id":"3926304532","tag":{"amenity":"waste_basket"}},"type":"Feature"},
	{"geometry":{"coordinates":[121.529209,25.026417],"type":"Point"},"properties":{"osm_id":"3939158303","tag":{"amenity":"recycling","recycling_type":"container"}},"type":"Feature"},
	{"geometry":{"coordinates":[121.531397,25.026437],"type":"Point"},"properties":{"osm_id":"3939158304","tag":{"amenity":"waste_basket"}},"type":"Feature"},
	{"geometry":{"coordinates":[121.537025,25.049057],"type":"Point"},"properties":{"osm_id":"3944641109","tag":{"amenity":"waste_basket"}},"type":"Feature"},
	{"geometry":{"coordinates":[121.534325,25.014572],"type":"Point"},"properties":{"osm_id":"3944641111","tag":{"amenity":"waste_basket"}},"type":"Feature"},
	{"geometry":{"coordinates":[121.535317,25.054806],"type":"Point"},"properties":{"osm_id":"3944644391","tag":{"amenity":"waste_basket"}},"type":"Feature"},
	{"geometry":{"coordinates":[121.531769,25.040322],"type":"Point"},"properties":{"osm_id":"3944645657","tag":{"amenity":"recycling","location":"overground","recycling_type":"container"}},"type":"Feature"},
	{"geometry":{"coordinates":[121.514217,25.029122],"type":"Point"},"properties":{"name":"\u00e5\u009e\u0083\u00e5\u009c\u00be\u00e8\u00bb\u008a","osm_id":"4025303019","tag":{"amenity":"waste_basket","owner":"\u00e5\u008f\u00b0\u00e5\u008c\u0097\u00e4\u00ba\u00ba"}},"type":"Feature"},
	{"geometry":{"coordinates":[121.537879,25.040527],"type":"Point"},"properties":{"osm_id":"4031296876","tag":{"amenity":"waste_basket"}},"type":"Feature"},
	{"geometry":{"coordinates":[121.533114,25.048985],"type":"Point"},"properties":{"osm_id":"4031297307","tag":{"amenity":"waste_basket"}},"type":"Feature"},
	{"geometry":{"coordinates":[121.544791,25.051698],"type":"Point"},"properties":{"osm_id":"4031297354","tag":{"amenity":"waste_basket"}},"type":"Feature"},
	{"geometry":{"coordinates":[121.533183,25.054425],"type":"Point"},"properties":{"osm_id":"4031297425","tag":{"amenity":"waste_basket"}},"type":"Feature"},
	{"geometry":{"coordinates":[121.53629,25.012931],"type":"Point"},"properties":{"osm_id":"4085092838","tag":{"amenity":"waste_basket"}},"type":"Feature"},
	{"geometry":{"coordinates":[121.535754,25.013632],"type":"Point"},"properties":{"osm_id":"4085092841","tag":{"amenity":"waste_basket"}},"type":"Feature"},
	{"geometry":{"coordinates":[121.534297,25.054849],"type":"Point"},"properties":{"osm_id":"4104246792","tag":{"amenity":"waste_basket"}},"type":"Feature"},
	{"geometry":{"coordinates":[121.534594,25.01438],"type":"Point"},"properties":{"osm_id":"4122373589","tag":{"amenity":"waste_basket"}},"type":"Feature"},
	{"geometry":{"coordinates":[121.535768,25.013159],"type":"Point"},"properties":{"osm_id":"4122381690","tag":{"amenity":"waste_basket"}},"type":"Feature"},
	{"geometry":{"coordinates":[121.53491,25.014025],"type":"Point"},"properties":{"osm_id":"4149564859","tag":{"amenity":"waste_basket"}},"type":"Feature"},
	{"geometry":{"coordinates":[121.518577,25.053161],"type":"Point"},"properties":{"osm_id":"4205229916","tag":{"amenity":"waste_basket"}},"type":"Feature"},
	{"geometry":{"coordinates":[121.531073,25.018063],"type":"Point"},"properties":{"osm_id":"4236824120","tag":{"amenity":"waste_basket"}},"type":"Feature"},
	{"geometry":{"coordinates":[121.5285,25.025919],"type":"Point"},"properties":{"osm_id":"4236824125","tag":{"amenity":"waste_basket"}},"type":"Feature"},
	{"geometry":{"coordinates":[121.533125,25.063458],"type":"Point"},"properties":{"osm_id":"4236824138","tag":{"amenity":"waste_basket"}},"type":"Feature"},
	{"geometry":{"coordinates":[121.540615,25.051786],"type":"Point"},"properties":{"osm_id":"4269582577","tag":{"amenity":"waste_basket"}},"type":"Feature"},
	{"geometry":{"coordinates":[121.533844,25.015413],"type":"Point"},"properties":{"osm_id":"4298881356","tag":{"amenity":"waste_basket"}},"type":"Feature"},
	{"geometry":{"coordinates":[121.533722,25.042305],"type":"Point"},"properties":{"osm_id":"4301001274","tag":{"amenity":"waste_basket"}},"type":"Feature"},
	{"geometry":{"coordinates":[121.533485,25.052133],"type":"Point"},"properties":{"osm_id":"4325694160","tag":{"amenity":"waste_basket"}},"type":"Feature"},
	{"geometry":{"coordinates":[121.535509,25.01345],"type":"Point"},"properties":{"osm_id":"4328118442","tag":{"amenity":"waste_basket"}},"type":"Feature"},
	{"geometry":{"coordinates":[121.53538,25.013577],"type":"Point"},"properties":{"osm_id":"4328118443","tag":{"amenity":"waste_basket"}},"type":"Feature"},
	{"geometry":{"coordinates":[121.525344,25.084637],"type":"Point"},"properties":{"osm_id":"4329769328","tag":{"amenity":"waste_basket"}},"type":"Feature"},
	{"geometry":{"coordinates":[121.533081,25.048165],"type":"Point"},"properties":{"osm_id":"4334083608","tag":{"amenity":"waste_basket"}},"type":"Feature"},
	{"geometry":{"coordinates":[121.533135,25.049872],"type":"Point"},"properties":{"osm_id":"4334083609","tag":{"amenity":"waste_basket"}},"type":"Feature"},
	{"geometry":{"coordinates":[121.518838,25.031664],"type":"Point"},"properties":{"osm_id":"4340638093","tag":{"amenity":"waste_basket"}},"type":"Feature"},
	{"geometry":{"coordinates":[121.527517,25.05187],"type":"Point"},"properties":{"osm_id":"4344542484","tag":{"amenity":"waste_basket"}},"type":"Feature"},
	{"geometry":{"coordinates":[121.533759,25.05492],"type":"Point"},"properties":{"osm_id":"4360384162","tag":{"amenity":"recycling","recycling:clothes":"yes","recycling_type":"container"}},"type":"Feature"},
	{"geometry":{"coordinates":[121.533092,25.043909],"type":"Point"},"properties":{"osm_id":"4384259087","tag":{"amenity":"waste_basket"}},"type":"Feature"},
	{"geometry":{"coordinates":[121.536611,25.006553],"type":"Point"},"properties":{"osm_id":"4410800876","tag":{"amenity":"recycling","recycling:clothes":"yes","recycling_type":"container"}},"type":"Feature"},
	{"geometry":{"coordinates":[121.536751,25.009537],"type":"Point"},"properties":{"osm_id":"4410800877","tag":{"amenity":"recycling","recycling:clothes":"yes","recycling_type":"container"}},"type":"Feature"},
	{"geometry":{"coordinates":[121.535731,25.006012],"type":"Point"},"properties":{"osm_id":"4426135712","tag":{"amenity":"recycling","recycling:clothes":"yes","recycling_type":"container"}},"type":"Feature"},
	{"geometry":{"coordinates":[121.54091,25.021055],"type":"Point"},"properties":{"osm_id":"4436343756","tag":{"amenity":"waste_basket"}},"type":"Feature"},
	{"geometry":{"coordinates":[121.538123,25.022597],"type":"Point"},"properties":{"osm_id":"4436477966","tag":{"amenity":"waste_basket"}},"type":"Feature"},
	{"geometry":{"coordinates":[121.518993,25.054367],"type":"Point"},"properties":{"osm_id":"4449794860","tag":{"amenity":"waste_basket"}},"type":"Feature"},
	{"geometry":{"coordinates":[121.521374,25.049752],"type":"Point"},"properties":{"osm_id":"4452616503","tag":{"amenity":"waste_basket"}},"type":"Feature"},
	{"geometry":{"coordinates":[121.544688,25.017318],"type":"Point"},"properties":{"osm_id":"4524863692","tag":{"amenity":"waste_basket"}},"type":"Feature"},
	{"geometry":{"coordinates":[121.533229,25.057314],"type":"Point"},"properties":{"osm_id":"4524863749","tag":{"amenity":"waste_basket"}},"type":"Feature"},
	{"geometry":{"coordinates":[121.543594,25.040834],"type":"Point"},"properties":{"osm_id":"4524864020","tag":{"amenity":"waste_basket"}},"type":"Feature"},
	{"geometry":{"coordinates":[121.517204,25.053445],"type":"Point"},"properties":{"osm_id":"4524864132","tag":{"amenity":"waste_basket"}},"type":"Feature"},
	{"geometry":{"coordinates":[121.50998,25.050074],"type":"Point"},"properties":{"osm_id":"4524864158","tag":{"amenity":"waste_basket"}},"type":"Feature"},
	{"geometry":{"coordinates":[121.550319,25.061434],"type":"Point"},"properties":{"osm_id":"4837986504","tag":{"amenity":"waste_basket"}},"type":"Feature"},
	{"geometry":{"coordinates":[121.533216,25.055313],"type":"Point"},"properties":{"osm_id":"4837986593","tag":{"amenity":"waste_basket"}},"type":"Feature"},
	{"geometry":{"coordinates":[121.508541,25.044134],"type":"Point"},"properties":{"osm_id":"4838087659","tag":{"amenity":"waste_basket"}},"type":"Feature"},
	{"geometry":{"coordinates":[121.508842,25.045316],"type":"Point"},"properties":{"osm_id":"4838087745","tag":{"amenity":"waste_basket"}},"type":"Feature"},
	{"geometry":{"coordinates":[121.532891,25.033283],"type":"Point"},"properties":{"osm_id":"5110242819","tag":{"amenity":"waste_basket"}},"type":"Feature"},
	{"geometry":{"coordinates":[121.507586,25.038947],"type":"Point"},"properties":{"osm_id":"5110488708","tag":{"amenity":"waste_basket"}},"type":"Feature"},
	{"geometry":{"coordinates":[121.525352,25.053331],"type":"Point"},"properties":{"osm_id":"5110489295","tag":{"amenity":"waste_basket"}},"type":"Feature"},
	{"geometry":{"coordinates":[121.549128,25.02965],"type":"Point"},"properties":{"osm_id":"5220513005","tag":{"amenity":"recycling","recycling_type":"container"}},"type":"Feature"},
	{"geometry":{"coordinates":[121.506839,25.038152],"type":"Point"},"properties":{"osm_id":"5304389644","tag":{"amenity":"waste_basket"}},"type":"Feature"},
	{"geometry":{"coordinates":[121.514907,25.036591],"type":"Point"},"properties":{"osm_id":"5325066447","tag":{"amenity":"waste_basket"}},"type":"Feature"},
	{"geometry":{"coordinates":[121.520706,25.033348],"type":"Point"},"properties":{"osm_id":"5325068626","tag":{"amenity":"waste_basket"}},"type":"Feature"},
	{"geometry":{"coordinates":[121.547757,25.041361],"type":"Point"},"properties":{"osm_id":"5335616822","tag":{"amenity":"waste_basket"}},"type":"Feature"},
	{"geometry":{"coordinates":[121.518932,25.026033],"type":"Point"},"properties":{"osm_id":"5342423548","tag":{"amenity":"recycling","recycling:clothes":"yes","recycling_type":"container"}},"type":"Feature"},
	{"geometry":{"coordinates":[121.550363,25.041362],"type":"Point"},"properties":{"osm_id":"5346630128","tag":{"amenity":"waste_basket"}},"type":"Feature"},
	{"geometry":{"coordinates":[121.548189,25.079525],"type":"Point"},"properties":{"osm_id":"5348347827","tag":{"amenity":"waste_basket"}},"type":"Feature"},
	{"geometry":{"coordinates":[121.548364,25.079049],"type":"Point"},"properties":{"osm_id":"5351182131","tag":{"amenity":"waste_basket"}},"type":"Feature"},
	{"geometry":{"coordinates":[121.542378,25.041504],"type":"Point"},"properties":{"osm_id":"5351219522","tag":{"amenity":"waste_basket"}},"type":"Feature"},
	{"geometry":{"coordinates":[121.527384,25.021175],"type":"Point"},"properties":{"osm_id":"5352355709","tag":{"amenity":"waste_basket","waste":"trash"}},"type":"Feature"},
	{"geometry":{"coordinates":[121.527376,25.021182],"type":"Point"},"properties":{"osm_id":"5352355710","tag":{"amenity":"waste_basket","waste":"trash"}},"type":"Feature"},
	{"geometry":{"coordinates":[121.543624,25.042159],"type":"Point"},"properties":{"osm_id":"5464180021","tag":{"amenity":"waste_basket"}},"type":"Feature"},
	{"geometry":{"coordinates":[121.543676,25.043624],"type":"Point"},"properties":{"osm_id":"5581924721","tag":{"amenity":"waste_basket"}},"type":"Feature"},
	{"geometry":{"coordinates":[121.550907,25.061207],"type":"Point"},"properties":{"osm_id":"5583640563","tag":{"amenity":"waste_basket"}},"type":"Feature"},
	{"geometry":{"coordinates":[121.53813,25.041545],"type":"Point"},"properties":{"osm_id":"5602810023","tag":{"amenity":"waste_basket"}},"type":"Feature"},
	{"geometry":{"coordinates":[121.552415,25.041529],"type":"Point"},"properties":{"osm_id":"5655453732","tag":{"amenity":"waste_basket"}},"type":"Feature"},
	{"geometry":{"coordinates":[121.541149,25.041754],"type":"Point"},"properties":{"osm_id":"5815630555","tag":{"amenity":"waste_basket"}},"type":"Feature"},
	{"geometry":{"coordinates":[121.534928,25.0421],"type":"Point"},"properties":{"osm_id":"5815671853","tag":{"amenity":"waste_basket"}},"type":"Feature"},
	{"geometry":{"coordinates":[121.532983,25.042594],"type":"Point"},"properties":{"osm_id":"5815672053","tag":{"amenity":"waste_basket"}},"type":"Feature"},
	{"geometry":{"coordinates":[121.549384,25.057996],"type":"Point"},"properties":{"osm_id":"5815672153","tag":{"amenity":"waste_basket"}},"type":"Feature"},
	{"geometry":{"coordinates":[121.550523,25.060367],"type":"Point"},"properties":{"osm_id":"5815672154","tag":{"amenity":"waste_basket"}},"type":"Feature"},
	{"geometry":{"coordinates":[121.547768,25.051871],"type":"Point"},"properties":{"osm_id":"5844442986","tag":{"amenity":"waste_basket"}},"type":"Feature"},
	{"geometry":{"coordinates":[121.543936,25.054672],"type":"Point"},"properties":{"osm_id":"5873947085","tag":{"amenity":"waste_basket"}},"type":"Feature"},
	{"geometry":{"coordinates":[121.548812,25.051976],"type":"Point"},"properties":{"osm_id":"5873947286","tag":{"amenity":"waste_basket"}},"type":"Feature"},
	{"geometry":{"coordinates":[121.502698,25.040455],"type":"Point"},"properties":{"osm_id":"6114008362","tag":{"amenity":"waste_basket"}},"type":"Feature"},
	{"geometry":{"coordinates":[121.515971,25.062874],"type":"Point"},"properties":{"osm_id":"6114012751","tag":{"amenity":"waste_basket"}},"type":"Feature"},
	{"geometry":{"coordinates":[121.518369,25.06253],"type":"Point"},"properties":{"osm_id":"6114014946","tag":{"amenity":"waste_basket"}},"type":"Feature"},
	{"geometry":{"coordinates":[121.546412,25.053527],"type":"Point"},"properties":{"osm_id":"6114015023","tag":{"amenity":"waste_basket"}},"type":"Feature"},
	{"geometry":{"coordinates":[121.514954,25.054098],"type":"Point"},"properties":{"osm_id":"6114015234","tag":{"amenity":"waste_basket"}},"type":"Feature"},
	{"geometry":{"coordinates":[121.531163,25.070647],"type":"Point"},"properties":{"osm_id":"6222670085","tag":{"amenity":"waste_basket"}},"type":"Feature"},
	{"geometry":{"coordinates":[121.517436,25.0355],"type":"Point"},"properties":{"osm_id":"6435608026","tag":{"amenity":"waste_basket"}},"type":"Feature"},
	{"geometry":{"coordinates":[121.517462,25.035578],"type":"Point"},"properties":{"osm_id":"6435608467","tag":{"amenity":"waste_basket"}},"type":"Feature"},
	{"geometry":{"coordinates":[121.510445,25.05086],"type":"Point"},"properties":{"osm_id":"6579661160","tag":{"amenity":"recycling","recycling:clothes":"yes","recycling_type":"container"}},"type":"Feature"},
	{"geometry":{"coordinates":[121.53464,25.014456],"type":"Point"},"properties":{"osm_id":"6778495949","tag":{"amenity":"waste_basket"}},"type":"Feature"},
	{"geometry":{"coordinates":[121.524485,25.043109],"type":"Point"},"properties":{"name":"\u00e8\u00b3\u0087\u00e6\u00ba\u0090\u00e5\u009b\u009e\u00e6\u0094\u00b6\u00e5\u00a0\u00b4","osm_id":"6844666583","tag":{"addr:city":"\u00e8\u0087\u00ba\u00e5\u008c\u0097\u00e5\u00b8\u0082","addr:district":"\u00e4\u00b8\u00ad\u00e6\u00ad\u00a3\u00e5\u008d\u0080","amenity":"recycling","recycling_type":"centre"}},"type":"Feature"},
	{"geometry":{"coordinates":[121.529687,25.031566],"type":"Point"},"properties":{"osm_id":"6888072085","tag":{"amenity":"waste_basket","colour":"brown","material":"wood;metal"}},"type":"Feature"},
	{"geometry":{"coordinates":[121.510435,25.049338],"type":"Point"},"properties":{"osm_id":"6924514574","tag":{"amenity":"waste_basket"}},"type":"Feature"},
	{"geometry":{"coordinates":[121.510327,25.048322],"type":"Point"},"properties":{"osm_id":"6924514580","tag":{"amenity":"waste_basket","waste":"trash"}},"type":"Feature"},
	{"geometry":{"coordinates":[121.510257,25.048587],"type":"Point"},"properties":{"osm_id":"6924533486","tag":{"amenity":"waste_basket","waste":"trash"}},"type":"Feature"},
	{"geometry":{"coordinates":[121.509511,25.047403],"type":"Point"},"properties":{"osm_id":"6924533489","tag":{"amenity":"waste_basket","waste":"trash"}},"type":"Feature"},
	{"geometry":{"coordinates":[121.530481,25.03913],"type":"Point"},"properties":{"osm_id":"6924533498","tag":{"amenity":"recycling","opening_hours":"24/7","recycling:clothes":"yes","recycling_type":"container"}},"type":"Feature"},
	{"geometry":{"coordinates":[121.50952,25.047431],"type":"Point"},"properties":{"osm_id":"6924533499","tag":{"amenity":"recycling","opening_hours":"24/7","recycling:plastic_bottles":"yes","recycling_type":"container","wheelchair":"yes"}},"type":"Feature"},
	{"geometry":{"coordinates":[121.523604,25.039357],"type":"Point"},"properties":{"osm_id":"6924533502","tag":{"amenity":"recycling","opening_hours":"24/7","recycling:clothes":"yes","recycling_type":"container","wheelchair":"no"}},"type":"Feature"},
	{"geometry":{"coordinates":[121.528572,25.024789],"type":"Point"},"properties":{"osm_id":"6936432798","tag":{"amenity":"recycling","opening_hours":"24/7","recycling:clothes":"yes","recycling_type":"container"}},"type":"Feature"},
	{"geometry":{"coordinates":[121.517309,25.038373],"type":"Point"},"properties":{"osm_id":"6950761059","tag":{"amenity":"waste_basket"}},"type":"Feature"},
	{"geometry":{"coordinates":[121.504202,25.020376],"type":"Point"},"properties":{"osm_id":"7183111445","tag":{"amenity":"waste_basket"}},"type":"Feature"},
	{"geometry":{"coordinates":[121.514547,25.038873],"type":"Point"},"properties":{"osm_id":"7229469314","tag":{"amenity":"waste_basket"}},"type":"Feature"},
	{"geometry":{"coordinates":[121.511623,25.07494],"type":"Point"},"properties":{"osm_id":"7259848272","tag":{"amenity":"waste_basket"}},"type":"Feature"},
	{"geometry":{"coordinates":[121.517846,25.038403],"type":"Point"},"properties":{"osm_id":"7262674796","tag":{"amenity":"waste_basket"}},"type":"Feature"},
	{"geometry":{"coordinates":[121.552186,25.017022],"type":"Point"},"properties":{"osm_id":"7308191443","tag":{"amenity":"waste_basket"}},"type":"Feature"},
	{"geometry":{"coordinates":[121.55217,25.017026],"type":"Point"},"properties":{"osm_id":"7308191444","tag":{"amenity":"waste_basket"}},"type":"Feature"},
	{"geometry":{"coordinates":[121.514306,25.041047],"type":"Point"},"properties":{"osm_id":"7330891647","tag":{"amenity":"recycling","recycling:cans":"yes","recycling:glass":"yes","recycling:glass_bottles":"yes","recycling:paper":"yes","recycling:plastic":"yes","recycling:plastic_bottles":"yes","recycling_type":"container"}},"type":"Feature"},
	{"geometry":{"coordinates":[121.514331,25.041047],"type":"Point"},"properties":{"osm_id":"7330891648","tag":{"amenity":"waste_basket","waste":"trash"}},"type":"Feature"},
	{"geometry":{"coordinates":[121.514636,25.041087],"type":"Point"},"properties":{"osm_id":"7330891649","tag":{"amenity":"recycling","recycling:cans":"yes","recycling:glass":"yes","recycling:glass_bottles":"yes","recycling:paper":"yes","recycling:plastic":"yes","recycling:plastic_bottles":"yes","recycling_type":"container"}},"type":"Feature"},
	{"geometry":{"coordinates":[121.514664,25.041093],"type":"Point"},"properties":{"osm_id":"7330891650","tag":{"amenity":"waste_basket","waste":"trash"}},"type":"Feature"},
	{"geometry":{"coordinates":[121.514727,25.041448],"type":"Point"},"properties":{"osm_id":"7330891653","tag":{"amenity":"waste_basket","waste":"trash"}},"type":"Feature"},
	{"geometry":{"coordinates":[121.514748,25.041455],"type":"Point"},"properties":{"osm_id":"7330891654","tag":{"amenity":"recycling","recycling:cans":"yes","recycling:glass":"yes","recycling:glass_bottles":"yes","recycling:paper":"yes","recycling:plastic":"yes","recycling:plastic_bottles":"yes","recycling_type":"container"}},"type":"Feature"},
	{"geometry":{"coordinates":[121.54036,25.021617],"type":"Point"},"properties":{"osm_id":"7594589822","tag":{"amenity":"recycling","recycling:clothes":"yes","recycling_type":"container"}},"type":"Feature"},
	{"geometry":{"coordinates":[121.54034,25.054752],"type":"Point"},"properties":{"osm_id":"7728572996","tag":{"amenity":"recycling","recycling:clothes":"yes","recycling_type":"container"}},"type":"Feature"},
	{"geometry":{"coordinates":[121.549691,25.045795],"type":"Point"},"properties":{"name":"\u00e7\u0091\u00aa\u00e9\u00bb\u0091\u00e9\u00a4\u0090\u00e9\u0085\u0092","osm_id":"7800576495","tag":{"amenity":"restaurant"}},"type":"Feature"}
]
}
