{
"type": "FeatureCollection",
"lastupdate": "2020-08-04T00:00:00Z",
"features": [
	{"geometry":{"coordinates":[121.506051,24.980224],"type":"Point"},"properties":{"name":"\u00e5\u009e\u0083\u00e5\u009c\u00be\u00e5\u0088\u0086\u00e9\u00a1\u009e\u00e5\u009b\u009e\u00e6\u0094\u00b6\u00e7\u00ab\u0099","osm_id":"2825633134","tag":{"amenity":"recycling"}},"type":"Feature"},
	{"geometry":{"coordinates":[121.532126,24.949345],"type":"Point"},"properties":{"osm_id":"3433284893","tag":{"amenity":"waste_basket"}},"type":"Feature"},
	{"geometry":{"coordinates":[121.494913,24.996167],"type":"Point"},"properties":{"osm_id":"3450799210","tag":{"amenity":"recycling","recycling:clothes":"yes"}},"type":"Feature"},
	{"geometry":{"coordinates":[121.499954,25.000938],"type":"Point"},"properties":{"osm_id":"3462988618","tag":{"amenity":"recycling","recycling:clothes":"yes"}},"type":"Feature"},
	{"geometry":{"coordinates":[121.497606,24.996163],"type":"Point"},"properties":{"osm_id":"3464575491","tag":{"amenity":"recycling","recycling:clothes":"yes"}},"type":"Feature"},
	{"geometry":{"coordinates":[121.534771,24.954223],"type":"Point"},"properties":{"osm_id":"3464977710","tag":{"amenity":"waste_basket"}},"type":"Feature"},
	{"geometry":{"coordinates":[121.497649,24.99718],"type":"Point"},"properties":{"osm_id":"3481683682","tag":{"amenity":"recycling","recycling:clothes":"yes"}},"type":"Feature"},
	{"geometry":{"coordinates":[121.495391,24.994405],"type":"Point"},"properties":{"osm_id":"3512628804","tag":{"amenity":"recycling","recycling:clothes":"yes"}},"type":"Feature"},
	{"geometry":{"coordinates":[121.497762,25.002607],"type":"Point"},"properties":{"osm_id":"3512628805","tag":{"amenity":"recycling","recycling:clothes":"yes"}},"type":"Feature"},
	{"geometry":{"coordinates":[121.498224,24.996599],"type":"Point"},"properties":{"osm_id":"3523782379","tag":{"amenity":"recycling","recycling:clothes":"yes"}},"type":"Feature"},
	{"geometry":{"coordinates":[121.541215,24.96667],"type":"Point"},"properties":{"osm_id":"3695574980","tag":{"amenity":"recycling","recycling:electrical_appliances":"yes","recycling_type":"container"}},"type":"Feature"},
	{"geometry":{"coordinates":[121.539817,24.990762],"type":"Point"},"properties":{"osm_id":"3740347204","tag":{"amenity":"waste_basket"}},"type":"Feature"},
	{"geometry":{"coordinates":[121.543154,24.992694],"type":"Point"},"properties":{"osm_id":"3929888417","tag":{"amenity":"recycling","recycling:clothes":"yes","recycling_type":"container"}},"type":"Feature"},
	{"geometry":{"coordinates":[121.540914,24.993641],"type":"Point"},"properties":{"osm_id":"4282217995","tag":{"amenity":"waste_basket"}},"type":"Feature"},
	{"geometry":{"coordinates":[121.538948,24.957023],"type":"Point"},"properties":{"osm_id":"4384259034","tag":{"amenity":"waste_basket","waste":"dog_excrement"}},"type":"Feature"},
	{"geometry":{"coordinates":[121.548835,24.998964],"type":"Point"},"properties":{"osm_id":"4524319695","tag":{"amenity":"recycling","recycling:clothes":"yes","recycling_type":"container"}},"type":"Feature"},
	{"geometry":{"coordinates":[121.531492,24.969661],"type":"Point"},"properties":{"osm_id":"4834782613","tag":{"amenity":"waste_basket"}},"type":"Feature"},
	{"geometry":{"coordinates":[121.536753,24.956392],"type":"Point"},"properties":{"osm_id":"4834782616","tag":{"amenity":"waste_basket"}},"type":"Feature"},
	{"geometry":{"coordinates":[121.536922,24.958196],"type":"Point"},"properties":{"osm_id":"4834782620","tag":{"amenity":"waste_basket"}},"type":"Feature"},
	{"geometry":{"coordinates":[121.53741,24.986653],"type":"Point"},"properties":{"barrier":"gate","osm_id":"5078327666","tag":{"addr:city":"\u65b0\u5317\u5e02","addr:country":"TW","addr:district":"\u65b0\u5e97\u5340","addr:housenumber":"356","addr:postcode":"231","addr:street":"\u5efa\u570b\u8def","entrance":"main"}},"type":"Feature"},
	{"geometry":{"coordinates":[121.536324,25.00344],"type":"Point"},"properties":{"osm_id":"5504533387","tag":{"amenity":"recycling"}},"type":"Feature"},
	{"geometry":{"coordinates":[121.538339,25.000322],"type":"Point"},"properties":{"osm_id":"5504533401","tag":{"amenity":"recycling","recycling:clothes":"yes","recycling_type":"container"}},"type":"Feature"},
	{"geometry":{"coordinates":[121.53926,25.000438],"type":"Point"},"properties":{"osm_id":"5505377635","tag":{"amenity":"recycling","recycling:clothes":"yes","recycling_type":"container"}},"type":"Feature"},
	{"geometry":{"coordinates":[121.516326,24.990704],"type":"Point"},"properties":{"name":"\u00e7\u00a7\u0080\u00e5\u00a3\u00ab\u00e9\u0087\u008c\u00e8\u00b3\u0087\u00e6\u00ba\u0090\u00e5\u009b\u009e\u00e6\u0094\u00b6\u00e5\u00a0\u00b4","osm_id":"5936233629","tag":{"amenity":"recycling","recycling_type":"centre"}},"type":"Feature"},
	{"geometry":{"coordinates":[121.496005,24.957931],"type":"Point"},"properties":{"barrier":"gate","osm_id":"6183179556"},"type":"Feature"}
]
}
