{
"type": "FeatureCollection",
"features": [
	{"geometry":{"coordinates":[8.045017,44.662403],"type":"Point"},"properties":{"osm_id":"858301477","tag":{"natural":"tree"}},"type":"Feature"},
	{"geometry":{"coordinates":[8.034166,44.700695],"type":"Point"},"properties":{"osm_id":"4212147489","tag":{"natural":"tree"}},"type":"Feature"},
	{"geometry":{"coordinates":[8.034095,44.70071],"type":"Point"},"properties":{"osm_id":"4212147490","tag":{"natural":"tree"}},"type":"Feature"},
	{"geometry":{"coordinates":[8.034016,44.700724],"type":"Point"},"properties":{"osm_id":"4212147491","tag":{"natural":"tree"}},"type":"Feature"},
	{"geometry":{"coordinates":[8.033947,44.700742],"type":"Point"},"properties":{"osm_id":"4212147492","tag":{"natural":"tree"}},"type":"Feature"},
	{"geometry":{"coordinates":[8.033882,44.700757],"type":"Point"},"properties":{"osm_id":"4212147493","tag":{"natural":"tree"}},"type":"Feature"},
	{"geometry":{"coordinates":[8.033814,44.700771],"type":"Point"},"properties":{"osm_id":"4212147494","tag":{"natural":"tree"}},"type":"Feature"},
	{"geometry":{"coordinates":[8.034192,44.700766],"type":"Point"},"properties":{"osm_id":"4212147495","tag":{"natural":"tree"}},"type":"Feature"},
	{"geometry":{"coordinates":[8.034135,44.700779],"type":"Point"},"properties":{"osm_id":"4212147496","tag":{"natural":"tree"}},"type":"Feature"},
	{"geometry":{"coordinates":[8.034056,44.700793],"type":"Point"},"properties":{"osm_id":"4212147497","tag":{"natural":"tree"}},"type":"Feature"},
	{"geometry":{"coordinates":[8.033987,44.70081],"type":"Point"},"properties":{"osm_id":"4212147498","tag":{"natural":"tree"}},"type":"Feature"},
	{"geometry":{"coordinates":[8.033922,44.700826],"type":"Point"},"properties":{"osm_id":"4212147499","tag":{"natural":"tree"}},"type":"Feature"},
	{"geometry":{"coordinates":[8.033503,44.701738],"type":"Point"},"properties":{"osm_id":"4212200721","tag":{"natural":"tree"}},"type":"Feature"},
	{"geometry":{"coordinates":[8.033568,44.701714],"type":"Point"},"properties":{"osm_id":"4212200722","tag":{"natural":"tree"}},"type":"Feature"},
	{"geometry":{"coordinates":[8.032939,44.702194],"type":"Point"},"properties":{"osm_id":"4212656028","tag":{"natural":"tree"}},"type":"Feature"},
	{"geometry":{"coordinates":[8.032983,44.702178],"type":"Point"},"properties":{"osm_id":"4212656029","tag":{"natural":"tree"}},"type":"Feature"},
	{"geometry":{"coordinates":[8.033027,44.702165],"type":"Point"},"properties":{"osm_id":"4212656030","tag":{"natural":"tree"}},"type":"Feature"},
	{"geometry":{"coordinates":[8.033079,44.702147],"type":"Point"},"properties":{"osm_id":"4212656031","tag":{"natural":"tree"}},"type":"Feature"},
	{"geometry":{"coordinates":[8.033119,44.702133],"type":"Point"},"properties":{"osm_id":"4212656032","tag":{"natural":"tree"}},"type":"Feature"},
	{"geometry":{"coordinates":[8.033171,44.702117],"type":"Point"},"properties":{"osm_id":"4212656033","tag":{"natural":"tree"}},"type":"Feature"},
	{"geometry":{"coordinates":[8.033217,44.702102],"type":"Point"},"properties":{"osm_id":"4212656034","tag":{"natural":"tree"}},"type":"Feature"},
	{"geometry":{"coordinates":[8.033271,44.702085],"type":"Point"},"properties":{"osm_id":"4212656035","tag":{"natural":"tree"}},"type":"Feature"},
	{"geometry":{"coordinates":[8.036133,44.698766],"type":"Point"},"properties":{"osm_id":"4212696792","tag":{"natural":"tree"}},"type":"Feature"},
	{"geometry":{"coordinates":[8.036135,44.698816],"type":"Point"},"properties":{"osm_id":"4212696793","tag":{"natural":"tree"}},"type":"Feature"},
	{"geometry":{"coordinates":[8.036137,44.698873],"type":"Point"},"properties":{"osm_id":"4212696794","tag":{"natural":"tree"}},"type":"Feature"},
	{"geometry":{"coordinates":[8.036137,44.69893],"type":"Point"},"properties":{"osm_id":"4212696795","tag":{"natural":"tree"}},"type":"Feature"},
	{"geometry":{"coordinates":[8.036142,44.698988],"type":"Point"},"properties":{"osm_id":"4212696796","tag":{"natural":"tree"}},"type":"Feature"},
	{"geometry":{"coordinates":[8.032429,44.697195],"type":"Point"},"properties":{"name":"Faggio a foglie di asplenio","osm_id":"5630045141","tag":{"circumference":"2.30","denotation":"natural_monument","height":"13.0","leaf_cycle":"deciduous","leaf_type":"broadleaved","name:de":"Farnbl\u00c3\u00a4ttrige Buche","name:en":"Beech","name:es":"Haya com\u00c3\u00ban","name:fr":"H\u00c3\u00aatre commun","natural":"tree","species":"Fagus sylvatica L. cv. asplenifolia","species:de":"Farnbl\u00c3\u00a4ttrige Buche","species:en":"Common Beech","species:es":"Haya com\u00c3\u00ban","species:fr":"H\u00c3\u00aatre commun","taxon":"Fagus sylvatica asplenifolia"}},"type":"Feature"},
	{"geometry":{"coordinates":[8.007342,44.683018],"type":"Point"},"properties":{"name":"Gelso bianco","osm_id":"5630045142","tag":{"circumference":"3,00","denotation":"natural_monument","height":"6.0","leaf_cycle":"deciduous","leaf_type":"broadleaved","name:de":"Wei\u00c3\u009fe Maulbeere","name:en":"White mulberry","name:es":"Morera","name:fr":"M\u00c3\u00bbrier blanc","natural":"tree","species":"Morus alba","species:de":"Wei\u00c3\u009fe Maulbeere","species:en":"White mulberry","species:es":"Morera","species:fr":"M\u00c3\u00bbrier blanc","taxon":"Morus alba"}},"type":"Feature"},
	{"geometry":{"coordinates":[8.018631,44.691219],"type":"Point"},"properties":{"osm_id":"7066383704","tag":{"natural":"tree"}},"type":"Feature"},
	{"geometry":{"coordinates":[8.019608,44.691722],"type":"Point"},"properties":{"osm_id":"7066383705","tag":{"natural":"tree"}},"type":"Feature"},
	{"geometry":{"coordinates":[8.019833,44.691764],"type":"Point"},"properties":{"osm_id":"7066383706","tag":{"natural":"tree"}},"type":"Feature"},
	{"geometry":{"coordinates":[8.016293,44.693076],"type":"Point"},"properties":{"osm_id":"7066438889","tag":{"natural":"tree"}},"type":"Feature"},
	{"geometry":{"coordinates":[8.048967,44.653629],"type":"Point"},"properties":{"osm_id":"7369306030","tag":{"natural":"tree"}},"type":"Feature"}
]
}
