{
"type": "FeatureCollection",
"features": [
	{"geometry":{"coordinates":[-18.099442,65.687639],"type":"Point"},"properties":{"osm_id":"321398005","tag":{"amenity":"recycling","recycling:cardboard":"yes","recycling:magazines":"yes"}},"type":"Feature"},
	{"geometry":{"coordinates":[-18.079649,65.665207],"type":"Point"},"properties":{"osm_id":"3272584523","tag":{"amenity":"waste_basket"}},"type":"Feature"},
	{"geometry":{"coordinates":[-18.080136,65.666886],"type":"Point"},"properties":{"osm_id":"3272584528","tag":{"amenity":"waste_basket"}},"type":"Feature"},
	{"geometry":{"coordinates":[-18.080541,65.667859],"type":"Point"},"properties":{"osm_id":"3272584533","tag":{"amenity":"waste_basket"}},"type":"Feature"},
	{"geometry":{"coordinates":[-18.085162,65.673408],"type":"Point"},"properties":{"osm_id":"3272584557","tag":{"amenity":"waste_basket"}},"type":"Feature"},
	{"geometry":{"coordinates":[-18.086226,65.674284],"type":"Point"},"properties":{"osm_id":"3272584561","tag":{"amenity":"waste_basket"}},"type":"Feature"},
	{"geometry":{"coordinates":[-18.087621,65.675691],"type":"Point"},"properties":{"osm_id":"3272584565","tag":{"amenity":"waste_basket"}},"type":"Feature"},
	{"geometry":{"coordinates":[-18.087965,65.677614],"type":"Point"},"properties":{"osm_id":"3272584573","tag":{"amenity":"waste_basket"}},"type":"Feature"},
	{"geometry":{"coordinates":[-18.087532,65.678637],"type":"Point"},"properties":{"osm_id":"3272584578","tag":{"amenity":"waste_basket"}},"type":"Feature"},
	{"geometry":{"coordinates":[-18.087146,65.679752],"type":"Point"},"properties":{"osm_id":"3272584581","tag":{"amenity":"waste_basket"}},"type":"Feature"},
	{"geometry":{"coordinates":[-18.09258,65.674893],"type":"Point"},"properties":{"osm_id":"4988538326","tag":{"amenity":"waste_disposal"}},"type":"Feature"},
	{"geometry":{"coordinates":[-18.09274,65.69032],"type":"Point"},"properties":{"name":"Plasti\u00c3\u00b0jan Bjarg","osm_id":"6468575847","tag":{"amenity":"recycling","email":"evhf@evhf.is","opening_hours":"Mo-We 10:00-16:00, Th 10:00-18:00, Fr 10:00-15:00, Sa off, Su off","operator":"Endurvinnslan hf","phone":"+3544614606","recycling:cans":"yes","recycling:glass_bottles":"yes","recycling:plastic_bottles":"yes","recycling_type":"centre","website":"http://www.endurvinnslan.is/"}},"type":"Feature"}
]
}
