{
"type": "FeatureCollection",
"features": [
	{"geometry":{"coordinates":[-96.798774,46.883433],"type":"Point"},"properties":{"osm_id":"701424641","tag":{"amenity":"recycling","recycling:cans":"yes","recycling:cardboard":"yes","recycling:clothes":"yes","recycling:glass":"yes","recycling:plastic_bottles":"yes"}},"type":"Feature"},
	{"geometry":{"coordinates":[-96.790017,46.915447],"type":"Point"},"properties":{"osm_id":"701424674","tag":{"amenity":"recycling","recycling:cans":"yes","recycling:glass":"yes","recycling:newspaper":"yes","recycling:plastic_bottles":"yes","recycling_type":"container"}},"type":"Feature"},
	{"geometry":{"coordinates":[-96.796682,46.912317],"type":"Point"},"properties":{"osm_id":"701424679","tag":{"amenity":"recycling"}},"type":"Feature"},
	{"geometry":{"coordinates":[-96.792992,46.902268],"type":"Point"},"properties":{"osm_id":"986081910","tag":{"amenity":"recycling","recycling:cans":"yes","recycling:cardboard":"yes","recycling:glass":"yes","recycling:green_waste":"yes","recycling:magazines":"yes","recycling:newspaper":"yes","recycling:plastic_bottles":"yes","recycling_type":"container"}},"type":"Feature"},
	{"geometry":{"coordinates":[-96.800577,46.905538],"type":"Point"},"properties":{"osm_id":"1124303031","tag":{"amenity":"recycling","recycling:cans":"yes","recycling:clothes":"no","recycling:glass":"yes"}},"type":"Feature"},
	{"geometry":{"coordinates":[-96.776515,46.916878],"type":"Point"},"properties":{"osm_id":"1428027080","tag":{"amenity":"recycling","recycling:cans":"yes","recycling:cardboard":"yes","recycling:glass":"yes","recycling:green_waste":"yes","recycling:magazines":"yes","recycling:newspaper":"yes","recycling:plastic_bottles":"yes"}},"type":"Feature"},
	{"geometry":{"coordinates":[-96.807509,46.892498],"type":"Point"},"properties":{"osm_id":"1739804050","tag":{"amenity":"recycling","recycling:cans":"no","recycling:glass":"yes"}},"type":"Feature"},
	{"geometry":{"coordinates":[-96.805616,46.893123],"type":"Point"},"properties":{"osm_id":"1739804072","tag":{"amenity":"recycling","recycling:cans":"yes","recycling:cardboard":"yes","recycling:glass":"yes","recycling:plastic":"yes"}},"type":"Feature"},
	{"geometry":{"coordinates":[-96.776888,46.885236],"type":"Point"},"properties":{"osm_id":"1752646750","tag":{"amenity":"recycling","recycling:cans":"yes","recycling:cardboard":"yes","recycling:glass":"yes","recycling:green_waste":"yes","recycling:magazines":"yes","recycling:newspaper":"yes","recycling:plastic":"yes"}},"type":"Feature"},
	{"geometry":{"coordinates":[-96.850152,46.872862],"type":"Point"},"properties":{"osm_id":"2514430670","tag":{"amenity":"recycling"}},"type":"Feature"},
	{"geometry":{"coordinates":[-96.779279,46.870019],"type":"Point"},"properties":{"name":"Woodlawn Area Recycling","osm_id":"2876983449","tag":{"amenity":"recycling","location":"overground","recycling:cans":"yes","recycling:glass":"yes","recycling:paper":"yes","recycling_type":"container"}},"type":"Feature"},
	{"geometry":{"coordinates":[-96.787597,46.881965],"type":"Point"},"properties":{"osm_id":"3219531036","tag":{"amenity":"waste_basket"}},"type":"Feature"},
	{"geometry":{"coordinates":[-96.78784,46.881961],"type":"Point"},"properties":{"osm_id":"3219531037","tag":{"amenity":"waste_basket"}},"type":"Feature"},
	{"geometry":{"coordinates":[-96.787603,46.879955],"type":"Point"},"properties":{"osm_id":"3220983426","tag":{"amenity":"waste_basket"}},"type":"Feature"},
	{"geometry":{"coordinates":[-96.7878,46.879958],"type":"Point"},"properties":{"osm_id":"3220983427","tag":{"amenity":"waste_basket"}},"type":"Feature"},
	{"geometry":{"coordinates":[-96.787614,46.880256],"type":"Point"},"properties":{"osm_id":"3220983435","tag":{"amenity":"waste_basket"}},"type":"Feature"},
	{"geometry":{"coordinates":[-96.787809,46.88025],"type":"Point"},"properties":{"osm_id":"3220983436","tag":{"amenity":"waste_basket"}},"type":"Feature"},
	{"geometry":{"coordinates":[-96.787847,46.881013],"type":"Point"},"properties":{"osm_id":"3220983440","tag":{"amenity":"waste_basket"}},"type":"Feature"},
	{"geometry":{"coordinates":[-96.787609,46.884139],"type":"Point"},"properties":{"osm_id":"3220983967","tag":{"amenity":"waste_basket"}},"type":"Feature"},
	{"geometry":{"coordinates":[-96.787947,46.884708],"type":"Point"},"properties":{"osm_id":"3220983986","tag":{"amenity":"waste_basket"}},"type":"Feature"},
	{"geometry":{"coordinates":[-96.787617,46.884752],"type":"Point"},"properties":{"osm_id":"3220983990","tag":{"amenity":"waste_basket"}},"type":"Feature"},
	{"geometry":{"coordinates":[-96.787578,46.877825],"type":"Point"},"properties":{"osm_id":"3231501967","tag":{"amenity":"waste_basket"}},"type":"Feature"},
	{"geometry":{"coordinates":[-96.787583,46.878181],"type":"Point"},"properties":{"osm_id":"3231501972","tag":{"amenity":"waste_basket"}},"type":"Feature"},
	{"geometry":{"coordinates":[-96.787582,46.87886],"type":"Point"},"properties":{"osm_id":"3231501981","tag":{"amenity":"waste_basket"}},"type":"Feature"},
	{"geometry":{"coordinates":[-96.787622,46.881141],"type":"Point"},"properties":{"osm_id":"3231501995","tag":{"amenity":"waste_basket"}},"type":"Feature"},
	{"geometry":{"coordinates":[-96.787848,46.881247],"type":"Point"},"properties":{"osm_id":"3232206987","tag":{"amenity":"waste_basket"}},"type":"Feature"},
	{"geometry":{"coordinates":[-96.787766,46.876083],"type":"Point"},"properties":{"osm_id":"3236451128","tag":{"amenity":"waste_basket"}},"type":"Feature"},
	{"geometry":{"coordinates":[-96.787772,46.876785],"type":"Point"},"properties":{"osm_id":"3236451150","tag":{"amenity":"waste_basket"}},"type":"Feature"},
	{"geometry":{"coordinates":[-96.786088,46.875787],"type":"Point"},"properties":{"osm_id":"3267124329","tag":{"amenity":"waste_basket"}},"type":"Feature"},
	{"geometry":{"coordinates":[-96.805674,46.903882],"type":"Point"},"properties":{"osm_id":"5378475751","tag":{"amenity":"waste_disposal"}},"type":"Feature"},
	{"geometry":{"coordinates":[-96.797387,46.904161],"type":"Point"},"properties":{"osm_id":"5378475805","tag":{"amenity":"waste_disposal"}},"type":"Feature"},
	{"geometry":{"coordinates":[-96.848353,46.861057],"type":"Point"},"properties":{"osm_id":"6049397705","tag":{"amenity":"waste_disposal"}},"type":"Feature"}
]
}
