{
"type": "FeatureCollection",
"features": [
	{"geometry":{"coordinates":[54.375565,24.491164],"type":"Point"},"properties":{"osm_id":"4114505879","tag":{"amenity":"waste_disposal"}},"type":"Feature"},
	{"geometry":{"coordinates":[54.374685,24.490528],"type":"Point"},"properties":{"osm_id":"4114508353","tag":{"amenity":"waste_disposal"}},"type":"Feature"},
	{"geometry":{"coordinates":[54.375468,24.491097],"type":"Point"},"properties":{"osm_id":"4114510009","tag":{"amenity":"waste_disposal"}},"type":"Feature"},
	{"geometry":{"coordinates":[54.349944,24.486417],"type":"Point"},"properties":{"osm_id":"4143877791","tag":{"amenity":"waste_disposal"}},"type":"Feature"},
	{"geometry":{"coordinates":[54.349627,24.487448],"type":"Point"},"properties":{"osm_id":"4143877891","tag":{"amenity":"waste_disposal"}},"type":"Feature"},
	{"geometry":{"coordinates":[54.347389,24.480608],"type":"Point"},"properties":{"osm_id":"4154061626","tag":{"amenity":"waste_disposal"}},"type":"Feature"},
	{"geometry":{"coordinates":[54.348714,24.482268],"type":"Point"},"properties":{"osm_id":"4156743091","tag":{"amenity":"waste_disposal"}},"type":"Feature"},
	{"geometry":{"coordinates":[54.348567,24.481953],"type":"Point"},"properties":{"osm_id":"4156744291","tag":{"amenity":"waste_disposal"}},"type":"Feature"},
	{"geometry":{"coordinates":[54.348561,24.482122],"type":"Point"},"properties":{"osm_id":"4156744292","tag":{"amenity":"waste_disposal"}},"type":"Feature"},
	{"geometry":{"coordinates":[54.350292,24.474567],"type":"Point"},"properties":{"osm_id":"4158672993","tag":{"amenity":"recycling"}},"type":"Feature"},
	{"geometry":{"coordinates":[54.351399,24.475309],"type":"Point"},"properties":{"osm_id":"4158705492","tag":{"amenity":"recycling","recycling:clothes":"yes","recycling_type":"container"}},"type":"Feature"},
	{"geometry":{"coordinates":[54.390142,24.472619],"type":"Point"},"properties":{"osm_id":"4172003996","tag":{"amenity":"waste_basket"}},"type":"Feature"},
	{"geometry":{"coordinates":[54.390637,24.473223],"type":"Point"},"properties":{"osm_id":"4172004991","tag":{"amenity":"waste_basket"}},"type":"Feature"},
	{"geometry":{"coordinates":[54.389405,24.472484],"type":"Point"},"properties":{"osm_id":"4172004992","tag":{"amenity":"waste_basket"}},"type":"Feature"},
	{"geometry":{"coordinates":[54.389701,24.472599],"type":"Point"},"properties":{"osm_id":"4172005091","tag":{"amenity":"waste_basket"}},"type":"Feature"},
	{"geometry":{"coordinates":[54.369874,24.494198],"type":"Point"},"properties":{"osm_id":"4172691091","tag":{"amenity":"waste_disposal"}},"type":"Feature"},
	{"geometry":{"coordinates":[54.386882,24.471065],"type":"Point"},"properties":{"osm_id":"4176406691","tag":{"amenity":"recycling"}},"type":"Feature"},
	{"geometry":{"coordinates":[54.339248,24.468844],"type":"Point"},"properties":{"osm_id":"4180030596","tag":{"amenity":"waste_disposal"}},"type":"Feature"},
	{"geometry":{"coordinates":[54.337594,24.468271],"type":"Point"},"properties":{"osm_id":"4180075889","tag":{"amenity":"waste_disposal"}},"type":"Feature"},
	{"geometry":{"coordinates":[54.341368,24.469193],"type":"Point"},"properties":{"osm_id":"4180075892","tag":{"amenity":"recycling"}},"type":"Feature"},
	{"geometry":{"coordinates":[54.37181,24.49229],"type":"Point"},"properties":{"osm_id":"4190214090","tag":{"amenity":"waste_disposal"}},"type":"Feature"},
	{"geometry":{"coordinates":[54.371872,24.489449],"type":"Point"},"properties":{"osm_id":"4191019195","tag":{"amenity":"recycling"}},"type":"Feature"},
	{"geometry":{"coordinates":[54.37241,24.491343],"type":"Point"},"properties":{"osm_id":"4193429590","tag":{"amenity":"recycling"}},"type":"Feature"},
	{"geometry":{"coordinates":[54.371619,24.489479],"type":"Point"},"properties":{"osm_id":"4193429889","tag":{"amenity":"waste_disposal"}},"type":"Feature"},
	{"geometry":{"coordinates":[54.371377,24.49],"type":"Point"},"properties":{"osm_id":"4193430089","tag":{"amenity":"waste_disposal"}},"type":"Feature"},
	{"geometry":{"coordinates":[54.370813,24.495952],"type":"Point"},"properties":{"osm_id":"4207058889","tag":{"amenity":"recycling"}},"type":"Feature"},
	{"geometry":{"coordinates":[54.370272,24.492622],"type":"Point"},"properties":{"osm_id":"4207058989","tag":{"addr:street":"Wam Street","amenity":"recycling","recycling_type":"container"}},"type":"Feature"},
	{"geometry":{"coordinates":[54.371692,24.506384],"type":"Point"},"properties":{"osm_id":"4231223304","tag":{"amenity":"waste_disposal"}},"type":"Feature"},
	{"geometry":{"coordinates":[54.372719,24.506852],"type":"Point"},"properties":{"osm_id":"4231235091","tag":{"amenity":"waste_disposal"}},"type":"Feature"},
	{"geometry":{"coordinates":[54.372026,24.506362],"type":"Point"},"properties":{"osm_id":"4231236289","tag":{"amenity":"waste_disposal"}},"type":"Feature"},
	{"geometry":{"coordinates":[54.380369,24.491337],"type":"Point"},"properties":{"osm_id":"4241672289","tag":{"amenity":"recycling","operator":"Emirates Red Crescent"}},"type":"Feature"},
	{"geometry":{"coordinates":[54.360179,24.486056],"type":"Point"},"properties":{"osm_id":"4244461307","tag":{"amenity":"recycling"}},"type":"Feature"},
	{"geometry":{"coordinates":[54.37463,24.492059],"type":"Point"},"properties":{"osm_id":"4269588592","tag":{"amenity":"recycling"}},"type":"Feature"},
	{"geometry":{"coordinates":[54.390552,24.447751],"type":"Point"},"properties":{"osm_id":"4289272191","tag":{"amenity":"waste_basket"}},"type":"Feature"},
	{"geometry":{"coordinates":[54.37749,24.493402],"type":"Point"},"properties":{"osm_id":"4296021289","tag":{"amenity":"recycling"}},"type":"Feature"},
	{"geometry":{"coordinates":[54.363808,24.500147],"type":"Point"},"properties":{"osm_id":"4316213994","tag":{"amenity":"waste_basket"}},"type":"Feature"},
	{"geometry":{"coordinates":[54.327591,24.461374],"type":"Point"},"properties":{"osm_id":"4326565991","tag":{"amenity":"waste_basket"}},"type":"Feature"},
	{"geometry":{"coordinates":[54.328671,24.460703],"type":"Point"},"properties":{"osm_id":"4326588592","tag":{"amenity":"waste_basket"}},"type":"Feature"},
	{"geometry":{"coordinates":[54.327224,24.461126],"type":"Point"},"properties":{"osm_id":"4326591089","tag":{"amenity":"waste_basket"}},"type":"Feature"},
	{"geometry":{"coordinates":[54.369361,24.494956],"type":"Point"},"properties":{"osm_id":"4333699899","tag":{"amenity":"waste_disposal"}},"type":"Feature"},
	{"geometry":{"coordinates":[54.370893,24.496969],"type":"Point"},"properties":{"osm_id":"4333712304","tag":{"amenity":"recycling"}},"type":"Feature"},
	{"geometry":{"coordinates":[54.370703,24.49681],"type":"Point"},"properties":{"osm_id":"4333712707","tag":{"amenity":"recycling"}},"type":"Feature"},
	{"geometry":{"coordinates":[54.371664,24.500536],"type":"Point"},"properties":{"osm_id":"4534811303","tag":{"amenity":"waste_disposal"}},"type":"Feature"},
	{"geometry":{"coordinates":[54.360154,24.492728],"type":"Point"},"properties":{"osm_id":"4643884490","tag":{"amenity":"recycling","website":"http://www.awqaf.gov.ae"}},"type":"Feature"},
	{"geometry":{"coordinates":[54.369889,24.49163],"type":"Point"},"properties":{"osm_id":"4643959992","tag":{"amenity":"waste_disposal"}},"type":"Feature"},
	{"geometry":{"coordinates":[54.369933,24.491659],"type":"Point"},"properties":{"osm_id":"4643962699","tag":{"amenity":"waste_disposal"}},"type":"Feature"},
	{"geometry":{"coordinates":[54.369846,24.491603],"type":"Point"},"properties":{"osm_id":"4643962700","tag":{"amenity":"waste_disposal"}},"type":"Feature"},
	{"geometry":{"coordinates":[54.370008,24.491699],"type":"Point"},"properties":{"osm_id":"4643976589","tag":{"amenity":"waste_disposal"}},"type":"Feature"},
	{"geometry":{"coordinates":[54.369968,24.491679],"type":"Point"},"properties":{"osm_id":"4643976689","tag":{"amenity":"waste_disposal"}},"type":"Feature"},
	{"geometry":{"coordinates":[54.363453,24.486796],"type":"Point"},"properties":{"osm_id":"4649686390","tag":{"amenity":"waste_disposal","operator":"viola"}},"type":"Feature"},
	{"geometry":{"coordinates":[54.322675,24.469324],"type":"Point"},"properties":{"osm_id":"4680167190","tag":{"amenity":"waste_basket"}},"type":"Feature"},
	{"geometry":{"coordinates":[54.323443,24.464444],"type":"Point"},"properties":{"osm_id":"4680167193","tag":{"amenity":"waste_basket"}},"type":"Feature"},
	{"geometry":{"coordinates":[54.323576,24.464112],"type":"Point"},"properties":{"osm_id":"4680167194","tag":{"amenity":"waste_basket"}},"type":"Feature"},
	{"geometry":{"coordinates":[54.325133,24.464146],"type":"Point"},"properties":{"osm_id":"4680167195","tag":{"amenity":"waste_basket"}},"type":"Feature"},
	{"geometry":{"coordinates":[54.322933,24.467699],"type":"Point"},"properties":{"osm_id":"4680178395","tag":{"amenity":"waste_basket"}},"type":"Feature"},
	{"geometry":{"coordinates":[54.325957,24.464381],"type":"Point"},"properties":{"osm_id":"4680178397","tag":{"amenity":"waste_basket"}},"type":"Feature"},
	{"geometry":{"coordinates":[54.326343,24.464456],"type":"Point"},"properties":{"osm_id":"4680178398","tag":{"amenity":"waste_basket"}},"type":"Feature"},
	{"geometry":{"coordinates":[54.328869,24.466047],"type":"Point"},"properties":{"osm_id":"4680178596","tag":{"amenity":"waste_basket"}},"type":"Feature"},
	{"geometry":{"coordinates":[54.326961,24.464853],"type":"Point"},"properties":{"osm_id":"4680185394","tag":{"amenity":"waste_basket"}},"type":"Feature"},
	{"geometry":{"coordinates":[54.323521,24.464261],"type":"Point"},"properties":{"osm_id":"4680194092","tag":{"amenity":"waste_basket"}},"type":"Feature"},
	{"geometry":{"coordinates":[54.326725,24.464706],"type":"Point"},"properties":{"osm_id":"4680194093","tag":{"amenity":"waste_basket"}},"type":"Feature"},
	{"geometry":{"coordinates":[54.324597,24.463826],"type":"Point"},"properties":{"osm_id":"4680194194","tag":{"amenity":"waste_basket"}},"type":"Feature"},
	{"geometry":{"coordinates":[54.327568,24.46521],"type":"Point"},"properties":{"osm_id":"4680194195","tag":{"amenity":"waste_basket"}},"type":"Feature"},
	{"geometry":{"coordinates":[54.327719,24.465278],"type":"Point"},"properties":{"osm_id":"4680194196","tag":{"amenity":"waste_basket"}},"type":"Feature"},
	{"geometry":{"coordinates":[54.329154,24.466152],"type":"Point"},"properties":{"osm_id":"4680194199","tag":{"amenity":"waste_basket"}},"type":"Feature"},
	{"geometry":{"coordinates":[54.322811,24.468654],"type":"Point"},"properties":{"osm_id":"4680212089","tag":{"amenity":"waste_basket"}},"type":"Feature"},
	{"geometry":{"coordinates":[54.32319,24.465948],"type":"Point"},"properties":{"osm_id":"4680212093","tag":{"amenity":"waste_basket"}},"type":"Feature"},
	{"geometry":{"coordinates":[54.32423,24.463618],"type":"Point"},"properties":{"osm_id":"4680212094","tag":{"amenity":"waste_basket"}},"type":"Feature"},
	{"geometry":{"coordinates":[54.32489,24.463999],"type":"Point"},"properties":{"osm_id":"4680212095","tag":{"amenity":"waste_basket"}},"type":"Feature"},
	{"geometry":{"coordinates":[54.325305,24.464256],"type":"Point"},"properties":{"osm_id":"4680212096","tag":{"amenity":"waste_basket"}},"type":"Feature"},
	{"geometry":{"coordinates":[54.36975,24.479973],"type":"Point"},"properties":{"osm_id":"4690178295","tag":{"amenity":"waste_basket"}},"type":"Feature"},
	{"geometry":{"coordinates":[54.328018,24.461595],"type":"Point"},"properties":{"osm_id":"4731959415","tag":{"amenity":"waste_basket"}},"type":"Feature"},
	{"geometry":{"coordinates":[54.373234,24.489031],"type":"Point"},"properties":{"osm_id":"4735554422","tag":{"amenity":"waste_basket"}},"type":"Feature"},
	{"geometry":{"coordinates":[54.373342,24.489108],"type":"Point"},"properties":{"osm_id":"4735554423","tag":{"amenity":"waste_basket"}},"type":"Feature"},
	{"geometry":{"coordinates":[54.359165,24.480326],"type":"Point"},"properties":{"osm_id":"4736398523","tag":{"addr:street":"Al Yahar Street","amenity":"recycling","recycling:clothes":"yes","recycling_type":"container"}},"type":"Feature"},
	{"geometry":{"coordinates":[54.350741,24.481494],"type":"Point"},"properties":{"osm_id":"4736870885","tag":{"amenity":"recycling","recycling:clothes":"yes","recycling_type":"container"}},"type":"Feature"},
	{"geometry":{"coordinates":[54.346857,24.473356],"type":"Point"},"properties":{"osm_id":"4738735262","tag":{"amenity":"recycling","recycling:clothes":"yes","recycling_type":"container"}},"type":"Feature"},
	{"geometry":{"coordinates":[54.371891,24.478961],"type":"Point"},"properties":{"osm_id":"4745586077","tag":{"amenity":"recycling","recycling:clothes":"yes","recycling_type":"container"}},"type":"Feature"},
	{"geometry":{"coordinates":[54.373743,24.480901],"type":"Point"},"properties":{"osm_id":"4745593617","tag":{"amenity":"recycling","recycling:clothes":"yes","recycling_type":"container"}},"type":"Feature"},
	{"geometry":{"coordinates":[54.38291,24.48955],"type":"Point"},"properties":{"osm_id":"4745939702","tag":{"amenity":"recycling","recycling:clothes":"yes","recycling_type":"container"}},"type":"Feature"},
	{"geometry":{"coordinates":[54.378501,24.493488],"type":"Point"},"properties":{"osm_id":"4747623513","tag":{"amenity":"recycling","recycling:clothes":"yes","recycling_type":"container"}},"type":"Feature"},
	{"geometry":{"coordinates":[54.33585,24.469269],"type":"Point"},"properties":{"osm_id":"4753294077","tag":{"amenity":"waste_basket"}},"type":"Feature"},
	{"geometry":{"coordinates":[54.33285,24.46836],"type":"Point"},"properties":{"osm_id":"4753294096","tag":{"amenity":"waste_basket"}},"type":"Feature"},
	{"geometry":{"coordinates":[54.335659,24.470046],"type":"Point"},"properties":{"osm_id":"4753294099","tag":{"amenity":"waste_basket"}},"type":"Feature"},
	{"geometry":{"coordinates":[54.336856,24.470821],"type":"Point"},"properties":{"osm_id":"4753294105","tag":{"amenity":"waste_basket"}},"type":"Feature"},
	{"geometry":{"coordinates":[54.336702,24.469399],"type":"Point"},"properties":{"osm_id":"4753294144","tag":{"amenity":"waste_basket"}},"type":"Feature"},
	{"geometry":{"coordinates":[54.33635,24.46916],"type":"Point"},"properties":{"osm_id":"4753294146","tag":{"amenity":"waste_disposal"}},"type":"Feature"},
	{"geometry":{"coordinates":[54.332261,24.468009],"type":"Point"},"properties":{"osm_id":"4753294157","tag":{"amenity":"waste_basket"}},"type":"Feature"},
	{"geometry":{"coordinates":[54.333129,24.468522],"type":"Point"},"properties":{"osm_id":"4753294158","tag":{"amenity":"waste_basket"}},"type":"Feature"},
	{"geometry":{"coordinates":[54.333965,24.469076],"type":"Point"},"properties":{"osm_id":"4753294159","tag":{"amenity":"waste_basket"}},"type":"Feature"},
	{"geometry":{"coordinates":[54.33377,24.468132],"type":"Point"},"properties":{"osm_id":"4753304730","tag":{"amenity":"waste_basket"}},"type":"Feature"},
	{"geometry":{"coordinates":[54.38159,24.476048],"type":"Point"},"properties":{"osm_id":"4798014721","tag":{"amenity":"waste_disposal"}},"type":"Feature"},
	{"geometry":{"coordinates":[54.377748,24.473505],"type":"Point"},"properties":{"osm_id":"4798014821","tag":{"amenity":"waste_disposal"}},"type":"Feature"},
	{"geometry":{"coordinates":[54.381478,24.456334],"type":"Point"},"properties":{"osm_id":"4798813032","tag":{"amenity":"waste_basket"}},"type":"Feature"},
	{"geometry":{"coordinates":[54.381377,24.456259],"type":"Point"},"properties":{"osm_id":"4798813033","tag":{"amenity":"waste_basket"}},"type":"Feature"},
	{"geometry":{"coordinates":[54.381295,24.456192],"type":"Point"},"properties":{"osm_id":"4798813034","tag":{"amenity":"waste_basket"}},"type":"Feature"},
	{"geometry":{"coordinates":[54.382242,24.456375],"type":"Point"},"properties":{"osm_id":"4798813035","tag":{"amenity":"waste_disposal"}},"type":"Feature"},
	{"geometry":{"coordinates":[54.378561,24.463026],"type":"Point"},"properties":{"osm_id":"4798813125","tag":{"amenity":"waste_disposal"}},"type":"Feature"},
	{"geometry":{"coordinates":[54.379162,24.462366],"type":"Point"},"properties":{"osm_id":"4798813126","tag":{"amenity":"waste_disposal"}},"type":"Feature"},
	{"geometry":{"coordinates":[54.379102,24.462426],"type":"Point"},"properties":{"osm_id":"4798813225","tag":{"amenity":"waste_disposal"}},"type":"Feature"},
	{"geometry":{"coordinates":[54.340943,24.473359],"type":"Point"},"properties":{"osm_id":"4807283929","tag":{"amenity":"waste_basket"}},"type":"Feature"},
	{"geometry":{"coordinates":[54.343459,24.47634],"type":"Point"},"properties":{"osm_id":"4807292026","tag":{"amenity":"waste_basket"}},"type":"Feature"},
	{"geometry":{"coordinates":[54.342167,24.474537],"type":"Point"},"properties":{"osm_id":"4807292124","tag":{"amenity":"waste_basket"}},"type":"Feature"},
	{"geometry":{"coordinates":[54.341975,24.474219],"type":"Point"},"properties":{"osm_id":"4807295227","tag":{"amenity":"waste_disposal"}},"type":"Feature"},
	{"geometry":{"coordinates":[54.341584,24.474003],"type":"Point"},"properties":{"osm_id":"4807295324","tag":{"amenity":"waste_basket"}},"type":"Feature"},
	{"geometry":{"coordinates":[54.346299,24.480609],"type":"Point"},"properties":{"osm_id":"4814759835","tag":{"amenity":"waste_basket"}},"type":"Feature"},
	{"geometry":{"coordinates":[54.355001,24.491431],"type":"Point"},"properties":{"osm_id":"4814759842","tag":{"amenity":"waste_basket"}},"type":"Feature"},
	{"geometry":{"coordinates":[54.372853,24.494377],"type":"Point"},"properties":{"osm_id":"4814759846","tag":{"amenity":"recycling"}},"type":"Feature"},
	{"geometry":{"coordinates":[54.346469,24.481084],"type":"Point"},"properties":{"osm_id":"4814798025","tag":{"amenity":"waste_basket"}},"type":"Feature"},
	{"geometry":{"coordinates":[54.337752,24.471645],"type":"Point"},"properties":{"osm_id":"4824700823","tag":{"amenity":"waste_basket"}},"type":"Feature"},
	{"geometry":{"coordinates":[54.339501,24.471495],"type":"Point"},"properties":{"osm_id":"4824700828","tag":{"amenity":"waste_disposal"}},"type":"Feature"},
	{"geometry":{"coordinates":[54.338785,24.470961],"type":"Point"},"properties":{"osm_id":"4824700829","tag":{"amenity":"waste_basket"}},"type":"Feature"},
	{"geometry":{"coordinates":[54.337413,24.469739],"type":"Point"},"properties":{"osm_id":"4824700831","tag":{"amenity":"waste_basket"}},"type":"Feature"},
	{"geometry":{"coordinates":[54.339759,24.471444],"type":"Point"},"properties":{"osm_id":"4824706023","tag":{"amenity":"recycling"}},"type":"Feature"},
	{"geometry":{"coordinates":[54.383841,24.458563],"type":"Point"},"properties":{"osm_id":"4841618221","tag":{"amenity":"recycling"}},"type":"Feature"},
	{"geometry":{"coordinates":[54.349449,24.48672],"type":"Point"},"properties":{"osm_id":"4849269822","tag":{"amenity":"waste_basket"}},"type":"Feature"},
	{"geometry":{"coordinates":[54.349136,24.486824],"type":"Point"},"properties":{"osm_id":"4849269823","tag":{"amenity":"waste_basket"}},"type":"Feature"},
	{"geometry":{"coordinates":[54.374737,24.48224],"type":"Point"},"properties":{"osm_id":"4855498621","tag":{"amenity":"waste_basket"}},"type":"Feature"},
	{"geometry":{"coordinates":[54.380955,24.49698],"type":"Point"},"properties":{"osm_id":"4855943129","tag":{"amenity":"waste_disposal"}},"type":"Feature"},
	{"geometry":{"coordinates":[54.38066,24.497387],"type":"Point"},"properties":{"osm_id":"4855943131","tag":{"amenity":"waste_disposal"}},"type":"Feature"},
	{"geometry":{"coordinates":[54.381963,24.457237],"type":"Point"},"properties":{"osm_id":"4858865321","tag":{"amenity":"waste_basket"}},"type":"Feature"},
	{"geometry":{"coordinates":[54.381537,24.478261],"type":"Point"},"properties":{"osm_id":"4858865322","tag":{"amenity":"waste_basket"}},"type":"Feature"},
	{"geometry":{"coordinates":[54.376703,24.482307],"type":"Point"},"properties":{"osm_id":"4858865323","tag":{"amenity":"waste_basket"}},"type":"Feature"},
	{"geometry":{"coordinates":[54.372633,24.491059],"type":"Point"},"properties":{"osm_id":"4858865325","tag":{"amenity":"waste_disposal"}},"type":"Feature"},
	{"geometry":{"coordinates":[54.385365,24.460389],"type":"Point"},"properties":{"osm_id":"4858865421","tag":{"amenity":"waste_basket"}},"type":"Feature"},
	{"geometry":{"coordinates":[54.373331,24.488817],"type":"Point"},"properties":{"osm_id":"4858865422","tag":{"amenity":"waste_basket"}},"type":"Feature"},
	{"geometry":{"coordinates":[54.375137,24.473124],"type":"Point"},"properties":{"osm_id":"4865707221","tag":{"amenity":"waste_basket"}},"type":"Feature"},
	{"geometry":{"coordinates":[54.367483,24.467149],"type":"Point"},"properties":{"osm_id":"4866232122","tag":{"amenity":"waste_disposal"}},"type":"Feature"},
	{"geometry":{"coordinates":[54.376232,24.45528],"type":"Point"},"properties":{"osm_id":"4866236222","tag":{"amenity":"waste_basket"}},"type":"Feature"},
	{"geometry":{"coordinates":[54.366688,24.466449],"type":"Point"},"properties":{"osm_id":"4866245021","tag":{"amenity":"waste_basket"}},"type":"Feature"},
	{"geometry":{"coordinates":[54.367238,24.464773],"type":"Point"},"properties":{"osm_id":"4866245221","tag":{"amenity":"waste_basket"}},"type":"Feature"},
	{"geometry":{"coordinates":[54.385157,24.460907],"type":"Point"},"properties":{"osm_id":"4866245621","tag":{"amenity":"waste_disposal"}},"type":"Feature"},
	{"geometry":{"coordinates":[54.373799,24.457872],"type":"Point"},"properties":{"osm_id":"4867951621","tag":{"amenity":"waste_basket"}},"type":"Feature"},
	{"geometry":{"coordinates":[54.365662,24.486254],"type":"Point"},"properties":{"osm_id":"4869525330","tag":{"amenity":"waste_basket"}},"type":"Feature"},
	{"geometry":{"coordinates":[54.381254,24.478056],"type":"Point"},"properties":{"osm_id":"4869785121","tag":{"amenity":"waste_basket"}},"type":"Feature"},
	{"geometry":{"coordinates":[54.368055,24.489216],"type":"Point"},"properties":{"osm_id":"4870041622","tag":{"amenity":"waste_basket"}},"type":"Feature"},
	{"geometry":{"coordinates":[54.367314,24.488653],"type":"Point"},"properties":{"osm_id":"4870074621","tag":{"amenity":"waste_basket"}},"type":"Feature"},
	{"geometry":{"coordinates":[54.369332,24.490013],"type":"Point"},"properties":{"osm_id":"4870074622","tag":{"amenity":"waste_basket"}},"type":"Feature"},
	{"geometry":{"coordinates":[54.374004,24.472825],"type":"Point"},"properties":{"osm_id":"4872002123","tag":{"amenity":"waste_basket"}},"type":"Feature"},
	{"geometry":{"coordinates":[54.372322,24.471622],"type":"Point"},"properties":{"osm_id":"4872002124","tag":{"amenity":"waste_basket"}},"type":"Feature"},
	{"geometry":{"coordinates":[54.370885,24.479533],"type":"Point"},"properties":{"osm_id":"4872095723","tag":{"amenity":"waste_basket"}},"type":"Feature"},
	{"geometry":{"coordinates":[54.371433,24.479909],"type":"Point"},"properties":{"osm_id":"4872095724","tag":{"amenity":"waste_basket"}},"type":"Feature"},
	{"geometry":{"coordinates":[54.372605,24.487316],"type":"Point"},"properties":{"osm_id":"4872095725","tag":{"amenity":"waste_basket"}},"type":"Feature"},
	{"geometry":{"coordinates":[54.373424,24.467542],"type":"Point"},"properties":{"osm_id":"4872098022","tag":{"amenity":"waste_basket"}},"type":"Feature"},
	{"geometry":{"coordinates":[54.37227,24.48789],"type":"Point"},"properties":{"osm_id":"4872098024","tag":{"amenity":"waste_basket"}},"type":"Feature"},
	{"geometry":{"coordinates":[54.373352,24.475991],"type":"Point"},"properties":{"osm_id":"4872124621","tag":{"amenity":"waste_basket"}},"type":"Feature"},
	{"geometry":{"coordinates":[54.374033,24.489594],"type":"Point"},"properties":{"osm_id":"4872124921","tag":{"amenity":"waste_basket"}},"type":"Feature"},
	{"geometry":{"coordinates":[54.373858,24.489452],"type":"Point"},"properties":{"osm_id":"4872124922","tag":{"amenity":"waste_basket"}},"type":"Feature"},
	{"geometry":{"coordinates":[54.375449,24.484037],"type":"Point"},"properties":{"osm_id":"4873260125","tag":{"amenity":"waste_basket"}},"type":"Feature"},
	{"geometry":{"coordinates":[54.370483,24.479147],"type":"Point"},"properties":{"osm_id":"4873279521","tag":{"amenity":"waste_basket"}},"type":"Feature"},
	{"geometry":{"coordinates":[54.375116,24.489914],"type":"Point"},"properties":{"osm_id":"4874070844","tag":{"amenity":"waste_basket"}},"type":"Feature"},
	{"geometry":{"coordinates":[54.383658,24.454309],"type":"Point"},"properties":{"osm_id":"4874070926","tag":{"amenity":"waste_basket"}},"type":"Feature"},
	{"geometry":{"coordinates":[54.3833,24.454488],"type":"Point"},"properties":{"osm_id":"4874070927","tag":{"amenity":"waste_basket"}},"type":"Feature"},
	{"geometry":{"coordinates":[54.375087,24.489478],"type":"Point"},"properties":{"osm_id":"4874091438","tag":{"amenity":"waste_basket"}},"type":"Feature"},
	{"geometry":{"coordinates":[54.38355,24.454687],"type":"Point"},"properties":{"osm_id":"4874091439","tag":{"amenity":"waste_basket"}},"type":"Feature"},
	{"geometry":{"coordinates":[54.383588,24.454269],"type":"Point"},"properties":{"osm_id":"4874091440","tag":{"amenity":"waste_basket"}},"type":"Feature"},
	{"geometry":{"coordinates":[54.375402,24.489094],"type":"Point"},"properties":{"osm_id":"4874092134","tag":{"amenity":"waste_basket"}},"type":"Feature"},
	{"geometry":{"coordinates":[54.383411,24.454537],"type":"Point"},"properties":{"osm_id":"4874092135","tag":{"amenity":"waste_basket"}},"type":"Feature"},
	{"geometry":{"coordinates":[54.383464,24.454497],"type":"Point"},"properties":{"osm_id":"4874092136","tag":{"amenity":"waste_basket"}},"type":"Feature"},
	{"geometry":{"coordinates":[54.383569,24.454388],"type":"Point"},"properties":{"osm_id":"4874092222","tag":{"amenity":"waste_basket"}},"type":"Feature"},
	{"geometry":{"coordinates":[54.38351,24.454451],"type":"Point"},"properties":{"osm_id":"4874092223","tag":{"amenity":"waste_basket"}},"type":"Feature"},
	{"geometry":{"coordinates":[54.374844,24.48969],"type":"Point"},"properties":{"osm_id":"4874092323","tag":{"amenity":"waste_basket"}},"type":"Feature"},
	{"geometry":{"coordinates":[54.383387,24.454329],"type":"Point"},"properties":{"osm_id":"4874092324","tag":{"amenity":"waste_basket"}},"type":"Feature"},
	{"geometry":{"coordinates":[54.376347,24.483167],"type":"Point"},"properties":{"osm_id":"4875276822","tag":{"amenity":"waste_basket"}},"type":"Feature"},
	{"geometry":{"coordinates":[54.396314,24.45193],"type":"Point"},"properties":{"osm_id":"4875277022","tag":{"amenity":"waste_basket"}},"type":"Feature"},
	{"geometry":{"coordinates":[54.380842,24.478859],"type":"Point"},"properties":{"osm_id":"4875277023","tag":{"amenity":"waste_basket"}},"type":"Feature"},
	{"geometry":{"coordinates":[54.377062,24.487071],"type":"Point"},"properties":{"osm_id":"4875277024","tag":{"amenity":"waste_basket"}},"type":"Feature"},
	{"geometry":{"coordinates":[54.375669,24.490763],"type":"Point"},"properties":{"osm_id":"4875277025","tag":{"amenity":"waste_basket"}},"type":"Feature"},
	{"geometry":{"coordinates":[54.396469,24.450914],"type":"Point"},"properties":{"osm_id":"4875277026","tag":{"amenity":"waste_basket"}},"type":"Feature"},
	{"geometry":{"coordinates":[54.395708,24.452583],"type":"Point"},"properties":{"osm_id":"4875278921","tag":{"amenity":"waste_basket"}},"type":"Feature"},
	{"geometry":{"coordinates":[54.375688,24.482853],"type":"Point"},"properties":{"osm_id":"4875278922","tag":{"amenity":"waste_basket"}},"type":"Feature"},
	{"geometry":{"coordinates":[54.371325,24.479718],"type":"Point"},"properties":{"osm_id":"4875278923","tag":{"amenity":"waste_basket"}},"type":"Feature"},
	{"geometry":{"coordinates":[54.374865,24.484711],"type":"Point"},"properties":{"osm_id":"4875278924","tag":{"amenity":"waste_basket"}},"type":"Feature"},
	{"geometry":{"coordinates":[54.381483,24.477605],"type":"Point"},"properties":{"osm_id":"4875279021","tag":{"amenity":"waste_basket"}},"type":"Feature"},
	{"geometry":{"coordinates":[54.37271,24.480773],"type":"Point"},"properties":{"osm_id":"4875280621","tag":{"amenity":"waste_basket"}},"type":"Feature"},
	{"geometry":{"coordinates":[54.374823,24.482696],"type":"Point"},"properties":{"osm_id":"4876087821","tag":{"amenity":"waste_basket"}},"type":"Feature"},
	{"geometry":{"coordinates":[54.374404,24.482398],"type":"Point"},"properties":{"osm_id":"4876087822","tag":{"amenity":"waste_basket"}},"type":"Feature"},
	{"geometry":{"coordinates":[54.372258,24.476581],"type":"Point"},"properties":{"osm_id":"4876088021","tag":{"amenity":"waste_basket"}},"type":"Feature"},
	{"geometry":{"coordinates":[54.384127,24.456238],"type":"Point"},"properties":{"osm_id":"4876088022","tag":{"amenity":"waste_basket"}},"type":"Feature"},
	{"geometry":{"coordinates":[54.383229,24.457161],"type":"Point"},"properties":{"osm_id":"4876088023","tag":{"amenity":"waste_basket"}},"type":"Feature"},
	{"geometry":{"coordinates":[54.378791,24.461934],"type":"Point"},"properties":{"osm_id":"4876088024","tag":{"amenity":"waste_basket"}},"type":"Feature"},
	{"geometry":{"coordinates":[54.37069,24.478729],"type":"Point"},"properties":{"osm_id":"4876088025","tag":{"amenity":"waste_basket"}},"type":"Feature"},
	{"geometry":{"coordinates":[54.383688,24.454803],"type":"Point"},"properties":{"osm_id":"4876088121","tag":{"amenity":"waste_basket"}},"type":"Feature"},
	{"geometry":{"coordinates":[54.383558,24.455002],"type":"Point"},"properties":{"osm_id":"4876088221","tag":{"amenity":"waste_disposal"}},"type":"Feature"},
	{"geometry":{"coordinates":[54.379769,24.488283],"type":"Point"},"properties":{"osm_id":"4876489623","tag":{"amenity":"waste_basket"}},"type":"Feature"},
	{"geometry":{"coordinates":[54.377138,24.491209],"type":"Point"},"properties":{"osm_id":"4876489624","tag":{"amenity":"waste_basket"}},"type":"Feature"},
	{"geometry":{"coordinates":[54.354588,24.468908],"type":"Point"},"properties":{"osm_id":"4878598722","tag":{"amenity":"waste_basket"}},"type":"Feature"},
	{"geometry":{"coordinates":[54.347912,24.483903],"type":"Point"},"properties":{"osm_id":"4878598724","tag":{"amenity":"waste_basket"}},"type":"Feature"},
	{"geometry":{"coordinates":[54.348193,24.484397],"type":"Point"},"properties":{"osm_id":"4878598725","tag":{"amenity":"waste_basket"}},"type":"Feature"},
	{"geometry":{"coordinates":[54.37876,24.45272],"type":"Point"},"properties":{"osm_id":"4878605021","tag":{"amenity":"waste_basket"}},"type":"Feature"},
	{"geometry":{"coordinates":[54.347533,24.483124],"type":"Point"},"properties":{"osm_id":"4878605122","tag":{"amenity":"waste_basket"}},"type":"Feature"},
	{"geometry":{"coordinates":[54.347739,24.483389],"type":"Point"},"properties":{"osm_id":"4878605124","tag":{"amenity":"waste_basket"}},"type":"Feature"},
	{"geometry":{"coordinates":[54.348048,24.484177],"type":"Point"},"properties":{"osm_id":"4878605126","tag":{"amenity":"waste_basket"}},"type":"Feature"},
	{"geometry":{"coordinates":[54.348263,24.484534],"type":"Point"},"properties":{"osm_id":"4878605129","tag":{"amenity":"waste_basket"}},"type":"Feature"},
	{"geometry":{"coordinates":[54.348354,24.484691],"type":"Point"},"properties":{"osm_id":"4878605130","tag":{"amenity":"waste_basket"}},"type":"Feature"},
	{"geometry":{"coordinates":[54.348029,24.484605],"type":"Point"},"properties":{"osm_id":"4878605131","tag":{"amenity":"waste_basket"}},"type":"Feature"},
	{"geometry":{"coordinates":[54.348546,24.485093],"type":"Point"},"properties":{"osm_id":"4878605133","tag":{"amenity":"waste_basket"}},"type":"Feature"},
	{"geometry":{"coordinates":[54.348293,24.484982],"type":"Point"},"properties":{"osm_id":"4878605923","tag":{"amenity":"waste_basket"}},"type":"Feature"},
	{"geometry":{"coordinates":[54.348596,24.485023],"type":"Point"},"properties":{"osm_id":"4878605925","tag":{"amenity":"waste_basket"}},"type":"Feature"},
	{"geometry":{"coordinates":[54.34871,24.485472],"type":"Point"},"properties":{"osm_id":"4878606322","tag":{"amenity":"waste_basket"}},"type":"Feature"},
	{"geometry":{"coordinates":[54.348904,24.485885],"type":"Point"},"properties":{"osm_id":"4878606323","tag":{"amenity":"waste_basket"}},"type":"Feature"},
	{"geometry":{"coordinates":[54.349679,24.486669],"type":"Point"},"properties":{"osm_id":"4878606325","tag":{"amenity":"waste_basket"}},"type":"Feature"},
	{"geometry":{"coordinates":[54.349826,24.486339],"type":"Point"},"properties":{"osm_id":"4878606326","tag":{"amenity":"waste_basket"}},"type":"Feature"},
	{"geometry":{"coordinates":[54.350064,24.486825],"type":"Point"},"properties":{"osm_id":"4878606821","tag":{"amenity":"waste_basket"}},"type":"Feature"},
	{"geometry":{"coordinates":[54.381345,24.449989],"type":"Point"},"properties":{"osm_id":"4879805422","tag":{"amenity":"waste_basket"}},"type":"Feature"},
	{"geometry":{"coordinates":[54.381188,24.449563],"type":"Point"},"properties":{"osm_id":"4879805721","tag":{"amenity":"waste_basket"}},"type":"Feature"},
	{"geometry":{"coordinates":[54.374922,24.490225],"type":"Point"},"properties":{"osm_id":"4881070122","tag":{"amenity":"waste_basket"}},"type":"Feature"},
	{"geometry":{"coordinates":[54.354204,24.46892],"type":"Point"},"properties":{"osm_id":"4881407122","tag":{"amenity":"waste_basket"}},"type":"Feature"},
	{"geometry":{"coordinates":[54.376224,24.482754],"type":"Point"},"properties":{"osm_id":"4883201122","tag":{"amenity":"waste_basket"}},"type":"Feature"},
	{"geometry":{"coordinates":[54.369128,24.478255],"type":"Point"},"properties":{"osm_id":"4883786621","tag":{"amenity":"waste_basket"}},"type":"Feature"},
	{"geometry":{"coordinates":[54.366036,24.475882],"type":"Point"},"properties":{"osm_id":"4885451523","tag":{"amenity":"waste_basket"}},"type":"Feature"},
	{"geometry":{"coordinates":[54.378855,24.452614],"type":"Point"},"properties":{"osm_id":"4885459325","tag":{"amenity":"waste_basket"}},"type":"Feature"},
	{"geometry":{"coordinates":[54.397036,24.451371],"type":"Point"},"properties":{"osm_id":"4886208422","tag":{"amenity":"waste_basket"}},"type":"Feature"},
	{"geometry":{"coordinates":[54.38775,24.452435],"type":"Point"},"properties":{"osm_id":"4887731822","tag":{"amenity":"waste_basket"}},"type":"Feature"},
	{"geometry":{"coordinates":[54.385439,24.460064],"type":"Point"},"properties":{"osm_id":"4887731823","tag":{"amenity":"waste_basket"}},"type":"Feature"},
	{"geometry":{"coordinates":[54.372378,24.476983],"type":"Point"},"properties":{"osm_id":"4887731824","tag":{"amenity":"waste_basket"}},"type":"Feature"},
	{"geometry":{"coordinates":[54.388419,24.451633],"type":"Point"},"properties":{"osm_id":"4887751721","tag":{"amenity":"waste_basket"}},"type":"Feature"},
	{"geometry":{"coordinates":[54.368391,24.489446],"type":"Point"},"properties":{"osm_id":"4892068835","tag":{"amenity":"waste_basket"}},"type":"Feature"},
	{"geometry":{"coordinates":[54.344024,24.469953],"type":"Point"},"properties":{"osm_id":"4892071630","tag":{"amenity":"waste_basket"}},"type":"Feature"},
	{"geometry":{"coordinates":[54.366326,24.487975],"type":"Point"},"properties":{"osm_id":"4892071631","tag":{"amenity":"waste_basket"}},"type":"Feature"},
	{"geometry":{"coordinates":[54.34134,24.472929],"type":"Point"},"properties":{"osm_id":"4892071633","tag":{"amenity":"waste_basket"}},"type":"Feature"},
	{"geometry":{"coordinates":[54.362412,24.485183],"type":"Point"},"properties":{"osm_id":"4892088934","tag":{"amenity":"waste_basket"}},"type":"Feature"},
	{"geometry":{"coordinates":[54.382711,24.453933],"type":"Point"},"properties":{"osm_id":"4893223121","tag":{"amenity":"waste_basket"}},"type":"Feature"},
	{"geometry":{"coordinates":[54.365224,24.482901],"type":"Point"},"properties":{"osm_id":"4893230121","tag":{"amenity":"waste_basket"}},"type":"Feature"},
	{"geometry":{"coordinates":[54.365267,24.482832],"type":"Point"},"properties":{"osm_id":"4893230221","tag":{"amenity":"recycling"}},"type":"Feature"},
	{"geometry":{"coordinates":[54.383105,24.45394],"type":"Point"},"properties":{"osm_id":"4893500223","tag":{"amenity":"waste_basket"}},"type":"Feature"},
	{"geometry":{"coordinates":[54.383057,24.456338],"type":"Point"},"properties":{"osm_id":"4895182822","tag":{"amenity":"waste_basket"}},"type":"Feature"},
	{"geometry":{"coordinates":[54.368999,24.489816],"type":"Point"},"properties":{"osm_id":"4896352223","tag":{"amenity":"waste_basket"}},"type":"Feature"},
	{"geometry":{"coordinates":[54.360465,24.484374],"type":"Point"},"properties":{"osm_id":"4902460524","tag":{"amenity":"waste_basket"}},"type":"Feature"},
	{"geometry":{"coordinates":[54.359227,24.483387],"type":"Point"},"properties":{"osm_id":"4902478821","tag":{"amenity":"waste_basket"}},"type":"Feature"},
	{"geometry":{"coordinates":[54.383405,24.454169],"type":"Point"},"properties":{"osm_id":"4913262221","tag":{"amenity":"waste_basket"}},"type":"Feature"},
	{"geometry":{"coordinates":[54.369825,24.490871],"type":"Point"},"properties":{"osm_id":"4945349522","tag":{"amenity":"waste_basket"}},"type":"Feature"},
	{"geometry":{"coordinates":[54.373496,24.493063],"type":"Point"},"properties":{"osm_id":"4949087826","tag":{"amenity":"waste_basket"}},"type":"Feature"},
	{"geometry":{"coordinates":[54.374555,24.494482],"type":"Point"},"properties":{"osm_id":"4949087827","tag":{"amenity":"waste_basket"}},"type":"Feature"},
	{"geometry":{"coordinates":[54.373758,24.520886],"type":"Point"},"properties":{"osm_id":"4949087829","tag":{"amenity":"waste_basket"}},"type":"Feature"},
	{"geometry":{"coordinates":[54.368744,24.491568],"type":"Point"},"properties":{"osm_id":"4949102223","tag":{"amenity":"waste_basket"}},"type":"Feature"},
	{"geometry":{"coordinates":[54.397743,24.450635],"type":"Point"},"properties":{"osm_id":"4949102228","tag":{"amenity":"waste_basket"}},"type":"Feature"},
	{"geometry":{"coordinates":[54.373816,24.493237],"type":"Point"},"properties":{"osm_id":"4949102524","tag":{"amenity":"waste_basket"}},"type":"Feature"},
	{"geometry":{"coordinates":[54.359355,24.485637],"type":"Point"},"properties":{"osm_id":"4970866922","tag":{"amenity":"waste_disposal"}},"type":"Feature"},
	{"geometry":{"coordinates":[54.376926,24.47481],"type":"Point"},"properties":{"osm_id":"5062235624","tag":{"amenity":"waste_basket"}},"type":"Feature"},
	{"geometry":{"coordinates":[54.377303,24.475087],"type":"Point"},"properties":{"osm_id":"5062235626","tag":{"amenity":"waste_basket"}},"type":"Feature"},
	{"geometry":{"coordinates":[54.332906,24.466706],"type":"Point"},"properties":{"osm_id":"5071030421","tag":{"amenity":"waste_basket"}},"type":"Feature"},
	{"geometry":{"coordinates":[54.373393,24.486398],"type":"Point"},"properties":{"osm_id":"5100992224","tag":{"amenity":"waste_basket"}},"type":"Feature"},
	{"geometry":{"coordinates":[54.379636,24.471007],"type":"Point"},"properties":{"osm_id":"5147969224","tag":{"amenity":"waste_disposal"}},"type":"Feature"},
	{"geometry":{"coordinates":[54.343235,24.474607],"type":"Point"},"properties":{"osm_id":"5156435323","tag":{"amenity":"waste_basket"}},"type":"Feature"},
	{"geometry":{"coordinates":[54.356659,24.463089],"type":"Point"},"properties":{"osm_id":"5156435421","tag":{"amenity":"recycling"}},"type":"Feature"},
	{"geometry":{"coordinates":[54.343121,24.474467],"type":"Point"},"properties":{"osm_id":"5156435422","tag":{"amenity":"waste_basket"}},"type":"Feature"},
	{"geometry":{"coordinates":[54.382571,24.493801],"type":"Point"},"properties":{"osm_id":"5174868024","tag":{"amenity":"waste_basket"}},"type":"Feature"},
	{"geometry":{"coordinates":[54.349915,24.488019],"type":"Point"},"properties":{"osm_id":"5178391823","tag":{"amenity":"waste_basket"}},"type":"Feature"},
	{"geometry":{"coordinates":[54.332527,24.467298],"type":"Point"},"properties":{"osm_id":"5196204232","tag":{"amenity":"waste_basket"}},"type":"Feature"},
	{"geometry":{"coordinates":[54.332481,24.467281],"type":"Point"},"properties":{"osm_id":"5196204233","tag":{"amenity":"waste_basket"}},"type":"Feature"},
	{"geometry":{"coordinates":[54.378618,24.498101],"type":"Point"},"properties":{"osm_id":"5196215928","tag":{"amenity":"waste_basket"}},"type":"Feature"},
	{"geometry":{"coordinates":[54.332493,24.468832],"type":"Point"},"properties":{"osm_id":"5196227324","tag":{"amenity":"waste_basket"}},"type":"Feature"},
	{"geometry":{"coordinates":[54.332515,24.467823],"type":"Point"},"properties":{"osm_id":"5196227325","tag":{"amenity":"waste_basket"}},"type":"Feature"},
	{"geometry":{"coordinates":[54.332407,24.467481],"type":"Point"},"properties":{"osm_id":"5196232221","tag":{"amenity":"waste_basket"}},"type":"Feature"},
	{"geometry":{"coordinates":[54.373242,24.492858],"type":"Point"},"properties":{"osm_id":"5197878422","tag":{"amenity":"waste_basket"}},"type":"Feature"},
	{"geometry":{"coordinates":[54.374967,24.494931],"type":"Point"},"properties":{"osm_id":"5197879624","tag":{"amenity":"waste_basket"}},"type":"Feature"},
	{"geometry":{"coordinates":[54.369192,24.491039],"type":"Point"},"properties":{"osm_id":"5204401850","tag":{"amenity":"waste_basket"}},"type":"Feature"},
	{"geometry":{"coordinates":[54.377239,24.496191],"type":"Point"},"properties":{"osm_id":"5206264331","tag":{"amenity":"waste_basket"}},"type":"Feature"},
	{"geometry":{"coordinates":[54.374957,24.495593],"type":"Point"},"properties":{"osm_id":"5206264342","tag":{"amenity":"waste_disposal"}},"type":"Feature"},
	{"geometry":{"coordinates":[54.37168,24.492723],"type":"Point"},"properties":{"osm_id":"5206264524","tag":{"amenity":"waste_basket"}},"type":"Feature"},
	{"geometry":{"coordinates":[54.371612,24.491697],"type":"Point"},"properties":{"osm_id":"5206287621","tag":{"amenity":"waste_basket"}},"type":"Feature"},
	{"geometry":{"coordinates":[54.371753,24.492292],"type":"Point"},"properties":{"osm_id":"5206287622","tag":{"amenity":"waste_basket"}},"type":"Feature"},
	{"geometry":{"coordinates":[54.372149,24.491985],"type":"Point"},"properties":{"osm_id":"5206895422","tag":{"amenity":"waste_basket"}},"type":"Feature"},
	{"geometry":{"coordinates":[54.37162,24.490165],"type":"Point"},"properties":{"name":"Make A Wish","osm_id":"5215442322","tag":{"amenity":"recycling","name:en":"Make A Wish","recycling:clothes":"yes","recycling_type":"container"}},"type":"Feature"},
	{"geometry":{"coordinates":[54.391449,24.447668],"type":"Point"},"properties":{"osm_id":"5217712122","tag":{"amenity":"waste_basket"}},"type":"Feature"},
	{"geometry":{"coordinates":[54.373802,24.491478],"type":"Point"},"properties":{"name":"Make A Wish","osm_id":"5217714521","tag":{"amenity":"recycling","name:en":"Make A Wish (668)"}},"type":"Feature"},
	{"geometry":{"coordinates":[54.37263,24.500046],"type":"Point"},"properties":{"name":"Make A Wish","osm_id":"5219220427","tag":{"amenity":"recycling","name:en":"Make A Wish"}},"type":"Feature"},
	{"geometry":{"coordinates":[54.368359,24.468793],"type":"Point"},"properties":{"osm_id":"5219625327","tag":{"amenity":"waste_basket"}},"type":"Feature"},
	{"geometry":{"coordinates":[54.380026,24.479208],"type":"Point"},"properties":{"osm_id":"5220107221","tag":{"amenity":"waste_basket"}},"type":"Feature"},
	{"geometry":{"coordinates":[54.342375,24.474287],"type":"Point"},"properties":{"osm_id":"5221013428","tag":{"amenity":"waste_basket"}},"type":"Feature"},
	{"geometry":{"coordinates":[54.341955,24.474144],"type":"Point"},"properties":{"osm_id":"5221013430","tag":{"amenity":"waste_basket"}},"type":"Feature"},
	{"geometry":{"coordinates":[54.342453,24.474475],"type":"Point"},"properties":{"osm_id":"5221015126","tag":{"amenity":"waste_basket"}},"type":"Feature"},
	{"geometry":{"coordinates":[54.381779,24.45754],"type":"Point"},"properties":{"osm_id":"5222887523","tag":{"amenity":"waste_basket"}},"type":"Feature"},
	{"geometry":{"coordinates":[54.37318,24.499248],"type":"Point"},"properties":{"osm_id":"5225985341","tag":{"amenity":"recycling"}},"type":"Feature"},
	{"geometry":{"coordinates":[54.377685,24.45325],"type":"Point"},"properties":{"osm_id":"5225985347","tag":{"amenity":"waste_basket"}},"type":"Feature"},
	{"geometry":{"coordinates":[54.374797,24.4981],"type":"Point"},"properties":{"osm_id":"5225985531","tag":{"amenity":"waste_basket"}},"type":"Feature"},
	{"geometry":{"coordinates":[54.373876,24.500923],"type":"Point"},"properties":{"osm_id":"5226015122","tag":{"amenity":"recycling"}},"type":"Feature"},
	{"geometry":{"coordinates":[54.348103,24.482043],"type":"Point"},"properties":{"osm_id":"5236654022","tag":{"amenity":"waste_basket"}},"type":"Feature"},
	{"geometry":{"coordinates":[54.348969,24.482266],"type":"Point"},"properties":{"osm_id":"5236654027","tag":{"amenity":"waste_basket"}},"type":"Feature"},
	{"geometry":{"coordinates":[54.348924,24.48261],"type":"Point"},"properties":{"osm_id":"5236654030","tag":{"amenity":"waste_basket"}},"type":"Feature"},
	{"geometry":{"coordinates":[54.348979,24.484074],"type":"Point"},"properties":{"osm_id":"5236654034","tag":{"amenity":"waste_basket"}},"type":"Feature"},
	{"geometry":{"coordinates":[54.348763,24.483683],"type":"Point"},"properties":{"osm_id":"5236654035","tag":{"amenity":"waste_basket"}},"type":"Feature"},
	{"geometry":{"coordinates":[54.348557,24.482755],"type":"Point"},"properties":{"osm_id":"5236654038","tag":{"amenity":"waste_basket"}},"type":"Feature"},
	{"geometry":{"coordinates":[54.347749,24.481923],"type":"Point"},"properties":{"osm_id":"5236691523","tag":{"amenity":"waste_basket"}},"type":"Feature"},
	{"geometry":{"coordinates":[54.349367,24.482572],"type":"Point"},"properties":{"osm_id":"5236691525","tag":{"amenity":"waste_basket"}},"type":"Feature"},
	{"geometry":{"coordinates":[54.349285,24.483416],"type":"Point"},"properties":{"osm_id":"5236691529","tag":{"amenity":"waste_basket"}},"type":"Feature"},
	{"geometry":{"coordinates":[54.348754,24.483372],"type":"Point"},"properties":{"osm_id":"5236691533","tag":{"amenity":"waste_basket"}},"type":"Feature"},
	{"geometry":{"coordinates":[54.349143,24.48313],"type":"Point"},"properties":{"osm_id":"5236700322","tag":{"amenity":"waste_basket"}},"type":"Feature"},
	{"geometry":{"coordinates":[54.348506,24.483121],"type":"Point"},"properties":{"osm_id":"5236700325","tag":{"amenity":"waste_basket"}},"type":"Feature"},
	{"geometry":{"coordinates":[54.382978,24.454771],"type":"Point"},"properties":{"osm_id":"5250168123","tag":{"amenity":"waste_basket"}},"type":"Feature"},
	{"geometry":{"coordinates":[54.383104,24.454644],"type":"Point"},"properties":{"osm_id":"5250170523","tag":{"amenity":"waste_basket"}},"type":"Feature"},
	{"geometry":{"coordinates":[54.386777,24.471257],"type":"Point"},"properties":{"osm_id":"5250208425","tag":{"amenity":"recycling"}},"type":"Feature"},
	{"geometry":{"coordinates":[54.383229,24.45451],"type":"Point"},"properties":{"osm_id":"5250208427","tag":{"amenity":"waste_basket"}},"type":"Feature"},
	{"geometry":{"coordinates":[54.382912,24.454839],"type":"Point"},"properties":{"osm_id":"5250208428","tag":{"amenity":"waste_basket"}},"type":"Feature"},
	{"geometry":{"coordinates":[54.371785,24.496717],"type":"Point"},"properties":{"name":"Make A Wish","osm_id":"5251484923","tag":{"amenity":"recycling","name:en":"Make A Wish"}},"type":"Feature"},
	{"geometry":{"coordinates":[54.370613,24.496669],"type":"Point"},"properties":{"osm_id":"5251484936","tag":{"amenity":"recycling"}},"type":"Feature"},
	{"geometry":{"coordinates":[54.372669,24.49004],"type":"Point"},"properties":{"name":"Make A Wish","osm_id":"5265397322","tag":{"amenity":"recycling","name:en":"Make A Wish"}},"type":"Feature"},
	{"geometry":{"coordinates":[54.332349,24.477671],"type":"Point"},"properties":{"osm_id":"5272333022","tag":{"amenity":"waste_basket"}},"type":"Feature"},
	{"geometry":{"coordinates":[54.332125,24.477923],"type":"Point"},"properties":{"osm_id":"5272333124","tag":{"amenity":"waste_basket"}},"type":"Feature"},
	{"geometry":{"coordinates":[54.332333,24.477732],"type":"Point"},"properties":{"osm_id":"5272333126","tag":{"amenity":"waste_basket"}},"type":"Feature"},
	{"geometry":{"coordinates":[54.332552,24.477454],"type":"Point"},"properties":{"osm_id":"5272333223","tag":{"amenity":"waste_basket"}},"type":"Feature"},
	{"geometry":{"coordinates":[54.33264,24.478698],"type":"Point"},"properties":{"osm_id":"5272333228","tag":{"amenity":"waste_basket"}},"type":"Feature"},
	{"geometry":{"coordinates":[54.332196,24.477813],"type":"Point"},"properties":{"osm_id":"5272333321","tag":{"amenity":"waste_basket"}},"type":"Feature"},
	{"geometry":{"coordinates":[54.332406,24.477615],"type":"Point"},"properties":{"osm_id":"5272333322","tag":{"amenity":"waste_basket"}},"type":"Feature"},
	{"geometry":{"coordinates":[54.332296,24.477461],"type":"Point"},"properties":{"osm_id":"5272333323","tag":{"amenity":"waste_basket"}},"type":"Feature"},
	{"geometry":{"coordinates":[54.33296,24.478076],"type":"Point"},"properties":{"osm_id":"5272333326","tag":{"amenity":"waste_basket"}},"type":"Feature"},
	{"geometry":{"coordinates":[54.377324,24.47456],"type":"Point"},"properties":{"osm_id":"5293196221","tag":{"amenity":"recycling"}},"type":"Feature"},
	{"geometry":{"coordinates":[54.35988,24.491858],"type":"Point"},"properties":{"osm_id":"5294356422","tag":{"amenity":"waste_basket"}},"type":"Feature"},
	{"geometry":{"coordinates":[54.360322,24.492286],"type":"Point"},"properties":{"osm_id":"5294356423","tag":{"amenity":"waste_disposal"}},"type":"Feature"},
	{"geometry":{"coordinates":[54.360437,24.492161],"type":"Point"},"properties":{"osm_id":"5294356722","tag":{"amenity":"waste_disposal"}},"type":"Feature"},
	{"geometry":{"coordinates":[54.360097,24.492031],"type":"Point"},"properties":{"osm_id":"5294357021","tag":{"amenity":"waste_basket"}},"type":"Feature"},
	{"geometry":{"coordinates":[54.357112,24.49089],"type":"Point"},"properties":{"osm_id":"5299371224","tag":{"amenity":"recycling"}},"type":"Feature"},
	{"geometry":{"coordinates":[54.377106,24.496521],"type":"Point"},"properties":{"osm_id":"5323373522","tag":{"amenity":"waste_basket"}},"type":"Feature"},
	{"geometry":{"coordinates":[54.376885,24.496802],"type":"Point"},"properties":{"osm_id":"5323373523","tag":{"amenity":"waste_basket"}},"type":"Feature"},
	{"geometry":{"coordinates":[54.376728,24.4967],"type":"Point"},"properties":{"osm_id":"5323373524","tag":{"amenity":"waste_basket"}},"type":"Feature"},
	{"geometry":{"coordinates":[54.376878,24.496373],"type":"Point"},"properties":{"osm_id":"5323373525","tag":{"amenity":"waste_basket"}},"type":"Feature"},
	{"geometry":{"coordinates":[54.375983,24.496627],"type":"Point"},"properties":{"osm_id":"5323373530","tag":{"amenity":"waste_basket"}},"type":"Feature"},
	{"geometry":{"coordinates":[54.376451,24.496523],"type":"Point"},"properties":{"osm_id":"5323389621","tag":{"amenity":"waste_basket"}},"type":"Feature"},
	{"geometry":{"coordinates":[54.375779,24.496657],"type":"Point"},"properties":{"osm_id":"5324916821","tag":{"amenity":"waste_basket"}},"type":"Feature"},
	{"geometry":{"coordinates":[54.376516,24.495983],"type":"Point"},"properties":{"osm_id":"5324916822","tag":{"amenity":"waste_basket"}},"type":"Feature"},
	{"geometry":{"coordinates":[54.374597,24.455956],"type":"Point"},"properties":{"osm_id":"5344789324","tag":{"amenity":"waste_basket"}},"type":"Feature"},
	{"geometry":{"coordinates":[54.374651,24.456104],"type":"Point"},"properties":{"osm_id":"5344789325","tag":{"amenity":"waste_basket"}},"type":"Feature"},
	{"geometry":{"coordinates":[54.374768,24.455964],"type":"Point"},"properties":{"osm_id":"5344810123","tag":{"amenity":"waste_basket"}},"type":"Feature"},
	{"geometry":{"coordinates":[54.380809,24.450588],"type":"Point"},"properties":{"osm_id":"5358572728","tag":{"amenity":"waste_basket"}},"type":"Feature"},
	{"geometry":{"coordinates":[54.37061,24.495862],"type":"Point"},"properties":{"osm_id":"5375073630","tag":{"amenity":"waste_disposal"}},"type":"Feature"},
	{"geometry":{"coordinates":[54.372396,24.488951],"type":"Point"},"properties":{"osm_id":"5375073631","tag":{"amenity":"waste_disposal"}},"type":"Feature"},
	{"geometry":{"coordinates":[54.370133,24.496282],"type":"Point"},"properties":{"name":"Make A Wish","osm_id":"5375095222","tag":{"amenity":"recycling","name:en":"Make A Wish"}},"type":"Feature"},
	{"geometry":{"coordinates":[54.373503,24.457723],"type":"Point"},"properties":{"osm_id":"5426265021","tag":{"amenity":"waste_basket"}},"type":"Feature"},
	{"geometry":{"coordinates":[54.374921,24.456255],"type":"Point"},"properties":{"osm_id":"5426265123","tag":{"amenity":"waste_basket"}},"type":"Feature"},
	{"geometry":{"coordinates":[54.379756,24.453597],"type":"Point"},"properties":{"osm_id":"5461466134","tag":{"amenity":"waste_basket"}},"type":"Feature"},
	{"geometry":{"coordinates":[54.380164,24.453123],"type":"Point"},"properties":{"osm_id":"5461466136","tag":{"amenity":"waste_basket"}},"type":"Feature"},
	{"geometry":{"coordinates":[54.378309,24.453794],"type":"Point"},"properties":{"osm_id":"5461483833","tag":{"amenity":"waste_basket"}},"type":"Feature"},
	{"geometry":{"coordinates":[54.379541,24.453957],"type":"Point"},"properties":{"osm_id":"5461483836","tag":{"amenity":"waste_basket"}},"type":"Feature"},
	{"geometry":{"coordinates":[54.380307,24.454781],"type":"Point"},"properties":{"osm_id":"5461484521","tag":{"amenity":"waste_basket"}},"type":"Feature"},
	{"geometry":{"coordinates":[54.378434,24.453632],"type":"Point"},"properties":{"osm_id":"5461484524","tag":{"amenity":"waste_basket"}},"type":"Feature"},
	{"geometry":{"coordinates":[54.380042,24.453503],"type":"Point"},"properties":{"osm_id":"5461484527","tag":{"amenity":"waste_basket"}},"type":"Feature"},
	{"geometry":{"coordinates":[54.381716,24.452227],"type":"Point"},"properties":{"osm_id":"5461484530","tag":{"amenity":"waste_basket"}},"type":"Feature"},
	{"geometry":{"coordinates":[54.381029,24.451199],"type":"Point"},"properties":{"osm_id":"5461484829","tag":{"amenity":"waste_basket"}},"type":"Feature"},
	{"geometry":{"coordinates":[54.380611,24.454432],"type":"Point"},"properties":{"osm_id":"5461485121","tag":{"amenity":"waste_basket"}},"type":"Feature"},
	{"geometry":{"coordinates":[54.381599,24.452177],"type":"Point"},"properties":{"osm_id":"5461486722","tag":{"amenity":"waste_basket"}},"type":"Feature"},
	{"geometry":{"coordinates":[54.374548,24.455753],"type":"Point"},"properties":{"osm_id":"5487657421","tag":{"amenity":"recycling"}},"type":"Feature"},
	{"geometry":{"coordinates":[54.36823,24.49416],"type":"Point"},"properties":{"osm_id":"5505172423","tag":{"amenity":"waste_disposal"}},"type":"Feature"},
	{"geometry":{"coordinates":[54.380059,24.49523],"type":"Point"},"properties":{"osm_id":"5509116923","tag":{"amenity":"recycling"}},"type":"Feature"},
	{"geometry":{"coordinates":[54.330935,24.476945],"type":"Point"},"properties":{"osm_id":"5520748929","tag":{"amenity":"waste_basket"}},"type":"Feature"},
	{"geometry":{"coordinates":[54.332662,24.477806],"type":"Point"},"properties":{"osm_id":"5520748932","tag":{"amenity":"waste_basket"}},"type":"Feature"},
	{"geometry":{"coordinates":[54.333093,24.478289],"type":"Point"},"properties":{"osm_id":"5520748933","tag":{"amenity":"waste_disposal"}},"type":"Feature"},
	{"geometry":{"coordinates":[54.331687,24.477741],"type":"Point"},"properties":{"osm_id":"5520748941","tag":{"amenity":"waste_basket"}},"type":"Feature"},
	{"geometry":{"coordinates":[54.332603,24.477724],"type":"Point"},"properties":{"osm_id":"5520773924","tag":{"amenity":"waste_basket"}},"type":"Feature"},
	{"geometry":{"coordinates":[54.331881,24.478301],"type":"Point"},"properties":{"osm_id":"5520774128","tag":{"amenity":"waste_basket"}},"type":"Feature"},
	{"geometry":{"coordinates":[54.345456,24.470178],"type":"Point"},"properties":{"osm_id":"5552581725","tag":{"amenity":"waste_disposal"}},"type":"Feature"},
	{"geometry":{"coordinates":[54.345552,24.468364],"type":"Point"},"properties":{"osm_id":"5552581729","tag":{"amenity":"waste_basket"}},"type":"Feature"},
	{"geometry":{"coordinates":[54.345693,24.4697],"type":"Point"},"properties":{"osm_id":"5552604121","tag":{"amenity":"waste_basket"}},"type":"Feature"},
	{"geometry":{"coordinates":[54.345819,24.46941],"type":"Point"},"properties":{"osm_id":"5552604222","tag":{"amenity":"waste_basket"}},"type":"Feature"},
	{"geometry":{"coordinates":[54.371523,24.505715],"type":"Point"},"properties":{"osm_id":"5563366832","tag":{"amenity":"waste_basket"}},"type":"Feature"},
	{"geometry":{"coordinates":[54.371388,24.505856],"type":"Point"},"properties":{"osm_id":"5563366833","tag":{"amenity":"waste_basket"}},"type":"Feature"},
	{"geometry":{"coordinates":[54.381663,24.450726],"type":"Point"},"properties":{"osm_id":"5563386022","tag":{"amenity":"waste_basket"}},"type":"Feature"},
	{"geometry":{"coordinates":[54.371898,24.505963],"type":"Point"},"properties":{"osm_id":"5563386024","tag":{"amenity":"waste_basket"}},"type":"Feature"},
	{"geometry":{"coordinates":[54.373579,24.50727],"type":"Point"},"properties":{"osm_id":"5563386028","tag":{"amenity":"waste_basket"}},"type":"Feature"},
	{"geometry":{"coordinates":[54.374054,24.507923],"type":"Point"},"properties":{"osm_id":"5563386032","tag":{"amenity":"waste_basket"}},"type":"Feature"},
	{"geometry":{"coordinates":[54.372885,24.507084],"type":"Point"},"properties":{"osm_id":"5563386123","tag":{"amenity":"waste_basket"}},"type":"Feature"},
	{"geometry":{"coordinates":[54.37141,24.505358],"type":"Point"},"properties":{"osm_id":"5563386222","tag":{"amenity":"waste_basket"}},"type":"Feature"},
	{"geometry":{"coordinates":[54.371493,24.505713],"type":"Point"},"properties":{"osm_id":"5563386223","tag":{"amenity":"waste_basket"}},"type":"Feature"},
	{"geometry":{"coordinates":[54.373288,24.507029],"type":"Point"},"properties":{"osm_id":"5563386224","tag":{"amenity":"waste_basket"}},"type":"Feature"},
	{"geometry":{"coordinates":[54.373966,24.50832],"type":"Point"},"properties":{"osm_id":"5563386226","tag":{"amenity":"waste_basket"}},"type":"Feature"},
	{"geometry":{"coordinates":[54.372829,24.5072],"type":"Point"},"properties":{"osm_id":"5563386229","tag":{"amenity":"waste_basket"}},"type":"Feature"},
	{"geometry":{"coordinates":[54.371358,24.505672],"type":"Point"},"properties":{"osm_id":"5563386232","tag":{"amenity":"waste_basket"}},"type":"Feature"},
	{"geometry":{"coordinates":[54.3736,24.507957],"type":"Point"},"properties":{"osm_id":"5563386525","tag":{"amenity":"waste_basket"}},"type":"Feature"},
	{"geometry":{"coordinates":[54.371164,24.505496],"type":"Point"},"properties":{"osm_id":"5563386529","tag":{"amenity":"waste_basket"}},"type":"Feature"},
	{"geometry":{"coordinates":[54.37234,24.506944],"type":"Point"},"properties":{"osm_id":"5563386723","tag":{"amenity":"waste_basket"}},"type":"Feature"},
	{"geometry":{"coordinates":[54.376675,24.458426],"type":"Point"},"properties":{"osm_id":"5590436821","tag":{"amenity":"waste_basket"}},"type":"Feature"},
	{"geometry":{"coordinates":[54.376191,24.454359],"type":"Point"},"properties":{"name":"Make A wish","osm_id":"5591437727","tag":{"amenity":"recycling","name:en":"Make A wish"}},"type":"Feature"},
	{"geometry":{"coordinates":[54.380402,24.458828],"type":"Point"},"properties":{"osm_id":"5591448023","tag":{"amenity":"waste_basket"}},"type":"Feature"},
	{"geometry":{"coordinates":[54.380915,24.458241],"type":"Point"},"properties":{"osm_id":"5591448024","tag":{"amenity":"waste_disposal"}},"type":"Feature"},
	{"geometry":{"coordinates":[54.381138,24.458242],"type":"Point"},"properties":{"name":"Make A wish","osm_id":"5591448025","tag":{"amenity":"recycling","name:en":"Make A wish"}},"type":"Feature"},
	{"geometry":{"coordinates":[54.385288,24.450155],"type":"Point"},"properties":{"osm_id":"5591448034","tag":{"amenity":"waste_basket"}},"type":"Feature"},
	{"geometry":{"coordinates":[54.386521,24.452205],"type":"Point"},"properties":{"name":"Make A wish","osm_id":"5591454121","tag":{"amenity":"recycling","name:en":"Make A wish"}},"type":"Feature"},
	{"geometry":{"coordinates":[54.371941,24.456998],"type":"Point"},"properties":{"osm_id":"5613746123","tag":{"amenity":"recycling"}},"type":"Feature"},
	{"geometry":{"coordinates":[54.359373,24.484766],"type":"Point"},"properties":{"name":"Make A Wish","osm_id":"5616373423","tag":{"amenity":"recycling","name:en":"Make A Wish"}},"type":"Feature"},
	{"geometry":{"coordinates":[54.358813,24.469902],"type":"Point"},"properties":{"osm_id":"5642888833","tag":{"amenity":"waste_basket"}},"type":"Feature"},
	{"geometry":{"coordinates":[54.3587,24.470075],"type":"Point"},"properties":{"osm_id":"5642888840","tag":{"amenity":"waste_basket"}},"type":"Feature"},
	{"geometry":{"coordinates":[54.358623,24.469993],"type":"Point"},"properties":{"osm_id":"5642888841","tag":{"amenity":"waste_basket"}},"type":"Feature"},
	{"geometry":{"coordinates":[54.372284,24.454947],"type":"Point"},"properties":{"osm_id":"5642898568","tag":{"amenity":"recycling"}},"type":"Feature"},
	{"geometry":{"coordinates":[54.374159,24.455207],"type":"Point"},"properties":{"name":"Make A Wish","osm_id":"5642898569","tag":{"amenity":"recycling","name:en":"Make A Wish"}},"type":"Feature"},
	{"geometry":{"coordinates":[54.372473,24.488901],"type":"Point"},"properties":{"osm_id":"5722455429","tag":{"amenity":"recycling"}},"type":"Feature"},
	{"geometry":{"coordinates":[54.347195,24.473582],"type":"Point"},"properties":{"osm_id":"5826999186","tag":{"amenity":"recycling"}},"type":"Feature"},
	{"geometry":{"coordinates":[54.347287,24.473515],"type":"Point"},"properties":{"osm_id":"5826999485","tag":{"amenity":"waste_disposal"}},"type":"Feature"},
	{"geometry":{"coordinates":[54.365569,24.47628],"type":"Point"},"properties":{"osm_id":"5917442885","tag":{"amenity":"waste_basket"}},"type":"Feature"},
	{"geometry":{"coordinates":[54.381986,24.456578],"type":"Point"},"properties":{"name":"Make a Wish","osm_id":"5992821987","tag":{"amenity":"recycling","name:en":"Make a Wish"}},"type":"Feature"},
	{"geometry":{"coordinates":[54.38185,24.45665],"type":"Point"},"properties":{"name":"Emirates Red Crescent","osm_id":"5992873389","tag":{"amenity":"recycling","name:en":"Emirates Red Crescent"}},"type":"Feature"},
	{"geometry":{"coordinates":[54.374786,24.455848],"type":"Point"},"properties":{"name":"Emirates Red Crescent","osm_id":"6033283887","tag":{"amenity":"recycling","name:en":"Emirates Red Crescent"}},"type":"Feature"},
	{"geometry":{"coordinates":[54.347224,24.47307],"type":"Point"},"properties":{"osm_id":"6052600289","tag":{"amenity":"waste_basket"}},"type":"Feature"},
	{"geometry":{"coordinates":[54.366454,24.476903],"type":"Point"},"properties":{"osm_id":"6052607285","tag":{"amenity":"recycling"}},"type":"Feature"},
	{"geometry":{"coordinates":[54.379343,24.491971],"type":"Point"},"properties":{"osm_id":"6108816790","tag":{"amenity":"waste_disposal"}},"type":"Feature"},
	{"geometry":{"coordinates":[54.3819,24.488623],"type":"Point"},"properties":{"osm_id":"6126697695","tag":{"amenity":"recycling"}},"type":"Feature"},
	{"geometry":{"coordinates":[54.379722,24.489333],"type":"Point"},"properties":{"osm_id":"6126697894","tag":{"amenity":"waste_basket"}},"type":"Feature"},
	{"geometry":{"coordinates":[54.383019,24.489453],"type":"Point"},"properties":{"osm_id":"6127533809","tag":{"amenity":"recycling"}},"type":"Feature"},
	{"geometry":{"coordinates":[54.383245,24.488627],"type":"Point"},"properties":{"osm_id":"6127533823","tag":{"amenity":"waste_basket"}},"type":"Feature"},
	{"geometry":{"coordinates":[54.382527,24.488901],"type":"Point"},"properties":{"osm_id":"6127533825","tag":{"amenity":"waste_disposal"}},"type":"Feature"},
	{"geometry":{"coordinates":[54.381801,24.489347],"type":"Point"},"properties":{"osm_id":"6127534588","tag":{"amenity":"waste_basket"}},"type":"Feature"},
	{"geometry":{"coordinates":[54.382038,24.489476],"type":"Point"},"properties":{"name":"Make A Wish","osm_id":"6127534886","tag":{"amenity":"recycling","name:en":"Make A Wish"}},"type":"Feature"},
	{"geometry":{"coordinates":[54.377115,24.49544],"type":"Point"},"properties":{"osm_id":"6128479588","tag":{"amenity":"recycling"}},"type":"Feature"},
	{"geometry":{"coordinates":[54.379547,24.494262],"type":"Point"},"properties":{"name":"Make A Wish","osm_id":"6128513585","tag":{"amenity":"recycling","name:en":"Make A Wish"}},"type":"Feature"},
	{"geometry":{"coordinates":[54.378771,24.495661],"type":"Point"},"properties":{"name":"Make A Wish","osm_id":"6128513586","tag":{"amenity":"recycling","name:en":"Make A Wish"}},"type":"Feature"},
	{"geometry":{"coordinates":[54.375926,24.493709],"type":"Point"},"properties":{"osm_id":"6128514287","tag":{"amenity":"waste_basket"}},"type":"Feature"},
	{"geometry":{"coordinates":[54.376902,24.492581],"type":"Point"},"properties":{"osm_id":"6130382386","tag":{"amenity":"waste_basket"}},"type":"Feature"},
	{"geometry":{"coordinates":[54.377196,24.492269],"type":"Point"},"properties":{"osm_id":"6130405386","tag":{"amenity":"waste_basket"}},"type":"Feature"},
	{"geometry":{"coordinates":[54.37454,24.515334],"type":"Point"},"properties":{"osm_id":"6142847187","tag":{"amenity":"waste_disposal"}},"type":"Feature"},
	{"geometry":{"coordinates":[54.38183,24.488719],"type":"Point"},"properties":{"osm_id":"6149055385","tag":{"amenity":"recycling"}},"type":"Feature"},
	{"geometry":{"coordinates":[54.359296,24.461941],"type":"Point"},"properties":{"name":"Make A Wish","osm_id":"6153595586","tag":{"amenity":"recycling","name:en":"Make A Wish"}},"type":"Feature"},
	{"geometry":{"coordinates":[54.359385,24.461894],"type":"Point"},"properties":{"osm_id":"6153595587","tag":{"amenity":"waste_basket"}},"type":"Feature"},
	{"geometry":{"coordinates":[54.359331,24.46195],"type":"Point"},"properties":{"osm_id":"6153595685","tag":{"amenity":"waste_disposal"}},"type":"Feature"},
	{"geometry":{"coordinates":[54.359252,24.461962],"type":"Point"},"properties":{"osm_id":"6153595687","tag":{"amenity":"waste_basket"}},"type":"Feature"},
	{"geometry":{"coordinates":[54.379396,24.474771],"type":"Point"},"properties":{"osm_id":"6191923088","tag":{"amenity":"waste_disposal"}},"type":"Feature"},
	{"geometry":{"coordinates":[54.348368,24.473981],"type":"Point"},"properties":{"osm_id":"6198203186","tag":{"amenity":"waste_basket"}},"type":"Feature"},
	{"geometry":{"coordinates":[54.376113,24.455023],"type":"Point"},"properties":{"osm_id":"6198211785","tag":{"amenity":"waste_basket"}},"type":"Feature"},
	{"geometry":{"coordinates":[54.347283,24.474183],"type":"Point"},"properties":{"osm_id":"6285447488","tag":{"amenity":"recycling","name:en":"Make A Wish"}},"type":"Feature"},
	{"geometry":{"coordinates":[54.371904,24.457088],"type":"Point"},"properties":{"osm_id":"6285449187","tag":{"amenity":"waste_disposal"}},"type":"Feature"},
	{"geometry":{"coordinates":[54.348886,24.471317],"type":"Point"},"properties":{"osm_id":"6300812385","tag":{"amenity":"recycling","name:en":"Clothes & Shoes box"}},"type":"Feature"},
	{"geometry":{"coordinates":[54.345963,24.475902],"type":"Point"},"properties":{"osm_id":"6328586487","tag":{"amenity":"recycling","name:en":"Make A Wish (106)"}},"type":"Feature"},
	{"geometry":{"coordinates":[54.343913,24.469978],"type":"Point"},"properties":{"osm_id":"6328598085","tag":{"amenity":"recycling","name:ru":"\u00d0\u0091\u00d1\u0083\u00d0\u00bc\u00d0\u00b0\u00d0\u00b3\u00d0\u00b0,"}},"type":"Feature"},
	{"geometry":{"coordinates":[54.373462,24.455871],"type":"Point"},"properties":{"osm_id":"6369998886","tag":{"amenity":"recycling","name:en":"Make A Wish"}},"type":"Feature"},
	{"geometry":{"coordinates":[54.372775,24.455217],"type":"Point"},"properties":{"osm_id":"6370001885","tag":{"amenity":"waste_disposal"}},"type":"Feature"},
	{"geometry":{"coordinates":[54.331255,24.477212],"type":"Point"},"properties":{"osm_id":"6380052785","tag":{"amenity":"waste_basket"}},"type":"Feature"},
	{"geometry":{"coordinates":[54.365931,24.502192],"type":"Point"},"properties":{"osm_id":"6384010194","tag":{"amenity":"waste_basket"}},"type":"Feature"},
	{"geometry":{"coordinates":[54.365995,24.502095],"type":"Point"},"properties":{"osm_id":"6384010195","tag":{"amenity":"waste_basket"}},"type":"Feature"},
	{"geometry":{"coordinates":[54.353179,24.477274],"type":"Point"},"properties":{"osm_id":"6466374290","tag":{"amenity":"recycling"}},"type":"Feature"},
	{"geometry":{"coordinates":[54.367473,24.478199],"type":"Point"},"properties":{"osm_id":"6482323193","tag":{"amenity":"recycling"}},"type":"Feature"},
	{"geometry":{"coordinates":[54.378789,24.474762],"type":"Point"},"properties":{"osm_id":"6483935790","tag":{"amenity":"recycling"}},"type":"Feature"},
	{"geometry":{"coordinates":[54.378827,24.474789],"type":"Point"},"properties":{"osm_id":"6483941386","tag":{"amenity":"recycling"}},"type":"Feature"},
	{"geometry":{"coordinates":[54.386676,24.452552],"type":"Point"},"properties":{"osm_id":"6499827285","tag":{"amenity":"recycling"}},"type":"Feature"},
	{"geometry":{"coordinates":[54.386483,24.452633],"type":"Point"},"properties":{"osm_id":"6499827286","tag":{"amenity":"recycling"}},"type":"Feature"},
	{"geometry":{"coordinates":[54.386962,24.452598],"type":"Point"},"properties":{"osm_id":"6499827385","tag":{"amenity":"waste_basket"}},"type":"Feature"},
	{"geometry":{"coordinates":[54.375797,24.482357],"type":"Point"},"properties":{"osm_id":"6514917987","tag":{"amenity":"recycling"}},"type":"Feature"},
	{"geometry":{"coordinates":[54.387439,24.47518],"type":"Point"},"properties":{"osm_id":"6514917988","tag":{"amenity":"recycling","name:en":"GENERAL AUTHORITY OF ISLAMIC AFFAIRS & ENDOWMENTS"}},"type":"Feature"},
	{"geometry":{"coordinates":[54.367727,24.477604],"type":"Point"},"properties":{"osm_id":"6783573114","tag":{"amenity":"waste_basket"}},"type":"Feature"},
	{"geometry":{"coordinates":[54.370011,24.478781],"type":"Point"},"properties":{"osm_id":"6875612387","tag":{"amenity":"waste_basket"}},"type":"Feature"},
	{"geometry":{"coordinates":[54.370161,24.479507],"type":"Point"},"properties":{"osm_id":"6875612388","tag":{"amenity":"waste_basket"}},"type":"Feature"},
	{"geometry":{"coordinates":[54.363061,24.490064],"type":"Point"},"properties":{"osm_id":"6875637085","tag":{"amenity":"waste_basket"}},"type":"Feature"},
	{"geometry":{"coordinates":[54.347317,24.474329],"type":"Point"},"properties":{"osm_id":"6880413985","tag":{"amenity":"recycling","name:en":"Make a Wish"}},"type":"Feature"},
	{"geometry":{"coordinates":[54.373731,24.49171],"type":"Point"},"properties":{"osm_id":"6934339085","tag":{"amenity":"recycling","name:en":"GENERAL AUTHORITY OF ISLAMIC AFFAIRS & ENDOWMENTS (117)"}},"type":"Feature"},
	{"geometry":{"coordinates":[54.347644,24.470023],"type":"Point"},"properties":{"osm_id":"7012969185","tag":{"amenity":"recycling","name:en":"Clothes and Shoes Box"}},"type":"Feature"},
	{"geometry":{"coordinates":[54.374654,24.481998],"type":"Point"},"properties":{"osm_id":"7096007489","tag":{"amenity":"recycling"}},"type":"Feature"},
	{"geometry":{"coordinates":[54.350312,24.473476],"type":"Point"},"properties":{"osm_id":"7112322187","tag":{"amenity":"recycling"}},"type":"Feature"},
	{"geometry":{"coordinates":[54.350376,24.476608],"type":"Point"},"properties":{"osm_id":"7185868392","tag":{"amenity":"waste_disposal"}},"type":"Feature"},
	{"geometry":{"coordinates":[54.359621,24.482847],"type":"Point"},"properties":{"osm_id":"7185868485","tag":{"amenity":"waste_basket"}},"type":"Feature"},
	{"geometry":{"coordinates":[54.361439,24.484882],"type":"Point"},"properties":{"osm_id":"7189306687","tag":{"amenity":"waste_basket"}},"type":"Feature"},
	{"geometry":{"coordinates":[54.386647,24.462128],"type":"Point"},"properties":{"osm_id":"7196104989","tag":{"amenity":"waste_basket"}},"type":"Feature"},
	{"geometry":{"coordinates":[54.339692,24.471383],"type":"Point"},"properties":{"osm_id":"7238443986","tag":{"amenity":"recycling"}},"type":"Feature"}
]
}
