{
"type": "FeatureCollection",
"features": [
	{"geometry":{"coordinates":[54.39186,24.439988],"type":"Point"},"properties":{"osm_id":"4133504092","tag":{"amenity":"waste_disposal"}},"type":"Feature"},
	{"geometry":{"coordinates":[54.390451,24.442651],"type":"Point"},"properties":{"osm_id":"4134781992","tag":{"amenity":"waste_basket"}},"type":"Feature"},
	{"geometry":{"coordinates":[54.391117,24.443171],"type":"Point"},"properties":{"osm_id":"4134783890","tag":{"amenity":"waste_basket"}},"type":"Feature"},
	{"geometry":{"coordinates":[54.390135,24.44267],"type":"Point"},"properties":{"osm_id":"4134803292","tag":{"amenity":"waste_basket"}},"type":"Feature"},
	{"geometry":{"coordinates":[54.389944,24.44225],"type":"Point"},"properties":{"osm_id":"4134803293","tag":{"amenity":"waste_basket"}},"type":"Feature"},
	{"geometry":{"coordinates":[54.389411,24.441875],"type":"Point"},"properties":{"osm_id":"4134803294","tag":{"amenity":"waste_basket"}},"type":"Feature"},
	{"geometry":{"coordinates":[54.389631,24.44206],"type":"Point"},"properties":{"osm_id":"4134810994","tag":{"amenity":"waste_basket"}},"type":"Feature"},
	{"geometry":{"coordinates":[54.390928,24.443307],"type":"Point"},"properties":{"osm_id":"4134812191","tag":{"amenity":"waste_basket"}},"type":"Feature"},
	{"geometry":{"coordinates":[54.39086,24.442969],"type":"Point"},"properties":{"osm_id":"4134812290","tag":{"amenity":"waste_basket"}},"type":"Feature"},
	{"geometry":{"coordinates":[54.389793,24.442411],"type":"Point"},"properties":{"osm_id":"4137608991","tag":{"amenity":"waste_basket"}},"type":"Feature"},
	{"geometry":{"coordinates":[54.391698,24.443886],"type":"Point"},"properties":{"osm_id":"4137608994","tag":{"amenity":"waste_basket"}},"type":"Feature"},
	{"geometry":{"coordinates":[54.391369,24.443378],"type":"Point"},"properties":{"osm_id":"4137640791","tag":{"amenity":"waste_basket"}},"type":"Feature"},
	{"geometry":{"coordinates":[54.391792,24.443755],"type":"Point"},"properties":{"osm_id":"4137655592","tag":{"amenity":"waste_basket"}},"type":"Feature"},
	{"geometry":{"coordinates":[54.392098,24.444238],"type":"Point"},"properties":{"osm_id":"4137656490","tag":{"amenity":"waste_basket"}},"type":"Feature"},
	{"geometry":{"coordinates":[54.391547,24.443795],"type":"Point"},"properties":{"osm_id":"4137656689","tag":{"amenity":"waste_basket"}},"type":"Feature"},
	{"geometry":{"coordinates":[54.392185,24.443968],"type":"Point"},"properties":{"osm_id":"4146391589","tag":{"amenity":"waste_basket"}},"type":"Feature"},
	{"geometry":{"coordinates":[54.39285,24.44477],"type":"Point"},"properties":{"osm_id":"4146391789","tag":{"amenity":"waste_basket"}},"type":"Feature"},
	{"geometry":{"coordinates":[54.393185,24.445048],"type":"Point"},"properties":{"osm_id":"4182524893","tag":{"amenity":"waste_basket"}},"type":"Feature"},
	{"geometry":{"coordinates":[54.393384,24.444977],"type":"Point"},"properties":{"osm_id":"4182524895","tag":{"amenity":"waste_basket"}},"type":"Feature"},
	{"geometry":{"coordinates":[54.393133,24.444756],"type":"Point"},"properties":{"osm_id":"4182557492","tag":{"amenity":"waste_basket"}},"type":"Feature"},
	{"geometry":{"coordinates":[54.393016,24.444923],"type":"Point"},"properties":{"osm_id":"4182584389","tag":{"amenity":"waste_basket"}},"type":"Feature"},
	{"geometry":{"coordinates":[54.390658,24.443084],"type":"Point"},"properties":{"osm_id":"4202779991","tag":{"amenity":"waste_basket"}},"type":"Feature"},
	{"geometry":{"coordinates":[54.392971,24.44461],"type":"Point"},"properties":{"osm_id":"4205230499","tag":{"amenity":"waste_basket"}},"type":"Feature"},
	{"geometry":{"coordinates":[54.395143,24.432563],"type":"Point"},"properties":{"osm_id":"4235208589","tag":{"amenity":"waste_basket"}},"type":"Feature"},
	{"geometry":{"coordinates":[54.389546,24.442213],"type":"Point"},"properties":{"osm_id":"4280807210","tag":{"amenity":"waste_basket"}},"type":"Feature"},
	{"geometry":{"coordinates":[54.393602,24.442498],"type":"Point"},"properties":{"osm_id":"4312162790","tag":{"amenity":"waste_disposal"}},"type":"Feature"},
	{"geometry":{"coordinates":[54.394178,24.431107],"type":"Point"},"properties":{"osm_id":"4392945591","tag":{"amenity":"waste_disposal"}},"type":"Feature"},
	{"geometry":{"coordinates":[54.389363,24.442058],"type":"Point"},"properties":{"osm_id":"4747035544","tag":{"amenity":"waste_basket"}},"type":"Feature"},
	{"geometry":{"coordinates":[54.390338,24.442354],"type":"Point"},"properties":{"osm_id":"4747035546","tag":{"amenity":"waste_disposal"}},"type":"Feature"},
	{"geometry":{"coordinates":[54.393724,24.441477],"type":"Point"},"properties":{"osm_id":"4747035547","tag":{"amenity":"waste_disposal"}},"type":"Feature"},
	{"geometry":{"coordinates":[54.393193,24.44118],"type":"Point"},"properties":{"osm_id":"4747035548","tag":{"amenity":"waste_disposal"}},"type":"Feature"},
	{"geometry":{"coordinates":[54.392578,24.444319],"type":"Point"},"properties":{"osm_id":"4753294082","tag":{"amenity":"waste_basket"}},"type":"Feature"},
	{"geometry":{"coordinates":[54.384606,24.430877],"type":"Point"},"properties":{"osm_id":"4756576029","tag":{"amenity":"waste_basket"}},"type":"Feature"},
	{"geometry":{"coordinates":[54.385179,24.430764],"type":"Point"},"properties":{"osm_id":"4756621821","tag":{"amenity":"waste_basket"}},"type":"Feature"},
	{"geometry":{"coordinates":[54.385279,24.430712],"type":"Point"},"properties":{"osm_id":"4756621822","tag":{"amenity":"waste_basket"}},"type":"Feature"},
	{"geometry":{"coordinates":[54.390584,24.441192],"type":"Point"},"properties":{"osm_id":"4778411612","tag":{"amenity":"waste_disposal"}},"type":"Feature"},
	{"geometry":{"coordinates":[54.392328,24.442945],"type":"Point"},"properties":{"osm_id":"4798014621","tag":{"amenity":"waste_disposal"}},"type":"Feature"},
	{"geometry":{"coordinates":[54.394838,24.442527],"type":"Point"},"properties":{"osm_id":"4814797923","tag":{"amenity":"waste_disposal"}},"type":"Feature"},
	{"geometry":{"coordinates":[54.392037,24.444549],"type":"Point"},"properties":{"osm_id":"4866552021","tag":{"amenity":"waste_disposal"}},"type":"Feature"},
	{"geometry":{"coordinates":[54.392319,24.444427],"type":"Point"},"properties":{"osm_id":"4866552121","tag":{"amenity":"waste_basket"}},"type":"Feature"},
	{"geometry":{"coordinates":[54.394643,24.429228],"type":"Point"},"properties":{"osm_id":"4870251524","tag":{"amenity":"waste_basket"}},"type":"Feature"},
	{"geometry":{"coordinates":[54.395971,24.430831],"type":"Point"},"properties":{"osm_id":"4870258822","tag":{"amenity":"waste_disposal"}},"type":"Feature"},
	{"geometry":{"coordinates":[54.397993,24.433587],"type":"Point"},"properties":{"osm_id":"4870258823","tag":{"amenity":"waste_basket"}},"type":"Feature"},
	{"geometry":{"coordinates":[54.397827,24.441208],"type":"Point"},"properties":{"osm_id":"4876087824","tag":{"amenity":"waste_basket"}},"type":"Feature"},
	{"geometry":{"coordinates":[54.397525,24.441452],"type":"Point"},"properties":{"osm_id":"4876088222","tag":{"amenity":"waste_basket"}},"type":"Feature"},
	{"geometry":{"coordinates":[54.382516,24.443407],"type":"Point"},"properties":{"osm_id":"4880282724","tag":{"amenity":"waste_basket"}},"type":"Feature"},
	{"geometry":{"coordinates":[54.386407,24.442843],"type":"Point"},"properties":{"osm_id":"4880299523","tag":{"amenity":"waste_basket"}},"type":"Feature"},
	{"geometry":{"coordinates":[54.384868,24.441634],"type":"Point"},"properties":{"osm_id":"4880299524","tag":{"amenity":"waste_basket"}},"type":"Feature"},
	{"geometry":{"coordinates":[54.382684,24.443126],"type":"Point"},"properties":{"osm_id":"4880299525","tag":{"amenity":"waste_basket"}},"type":"Feature"},
	{"geometry":{"coordinates":[54.374908,24.428692],"type":"Point"},"properties":{"osm_id":"4924692721","tag":{"amenity":"waste_basket"}},"type":"Feature"},
	{"geometry":{"coordinates":[54.374665,24.428489],"type":"Point"},"properties":{"osm_id":"4924692821","tag":{"amenity":"waste_basket"}},"type":"Feature"},
	{"geometry":{"coordinates":[54.375183,24.428093],"type":"Point"},"properties":{"osm_id":"4924692921","tag":{"amenity":"waste_basket"}},"type":"Feature"},
	{"geometry":{"coordinates":[54.38925,24.441683],"type":"Point"},"properties":{"osm_id":"5048599928","tag":{"amenity":"waste_basket"}},"type":"Feature"},
	{"geometry":{"coordinates":[54.377133,24.427846],"type":"Point"},"properties":{"osm_id":"5167442023","tag":{"amenity":"waste_basket"}},"type":"Feature"},
	{"geometry":{"coordinates":[54.382409,24.439699],"type":"Point"},"properties":{"osm_id":"5221015125","tag":{"amenity":"waste_basket"}},"type":"Feature"},
	{"geometry":{"coordinates":[54.397672,24.433836],"type":"Point"},"properties":{"osm_id":"5222887422","tag":{"amenity":"waste_basket"}},"type":"Feature"},
	{"geometry":{"coordinates":[54.377015,24.427835],"type":"Point"},"properties":{"osm_id":"5226015021","tag":{"amenity":"waste_basket"}},"type":"Feature"},
	{"geometry":{"coordinates":[54.377039,24.427716],"type":"Point"},"properties":{"osm_id":"5226015121","tag":{"amenity":"waste_basket"}},"type":"Feature"},
	{"geometry":{"coordinates":[54.377514,24.42755],"type":"Point"},"properties":{"osm_id":"5294325831","tag":{"amenity":"waste_basket"}},"type":"Feature"},
	{"geometry":{"coordinates":[54.377183,24.42766],"type":"Point"},"properties":{"osm_id":"5294325832","tag":{"amenity":"waste_basket"}},"type":"Feature"},
	{"geometry":{"coordinates":[54.377708,24.427483],"type":"Point"},"properties":{"osm_id":"5294350926","tag":{"amenity":"waste_basket"}},"type":"Feature"},
	{"geometry":{"coordinates":[54.377388,24.427591],"type":"Point"},"properties":{"osm_id":"5294350927","tag":{"amenity":"waste_basket"}},"type":"Feature"},
	{"geometry":{"coordinates":[54.377271,24.427633],"type":"Point"},"properties":{"osm_id":"5294356323","tag":{"amenity":"waste_basket"}},"type":"Feature"},
	{"geometry":{"coordinates":[54.377105,24.427692],"type":"Point"},"properties":{"osm_id":"5294356324","tag":{"amenity":"waste_basket"}},"type":"Feature"},
	{"geometry":{"coordinates":[54.386246,24.444811],"type":"Point"},"properties":{"osm_id":"5358572724","tag":{"amenity":"waste_basket"}},"type":"Feature"},
	{"geometry":{"coordinates":[54.390545,24.442842],"type":"Point"},"properties":{"name":"Make A Wish","osm_id":"5552581723","tag":{"amenity":"recycling","name:en":"Make A Wish"}},"type":"Feature"},
	{"geometry":{"coordinates":[54.402195,24.44696],"type":"Point"},"properties":{"osm_id":"5784560753","tag":{"amenity":"waste_disposal"}},"type":"Feature"},
	{"geometry":{"coordinates":[54.391897,24.444037],"type":"Point"},"properties":{"name":"Emirates Red Crescent","osm_id":"5992873385","tag":{"amenity":"recycling","name:en":"Emirates Red Crescent"}},"type":"Feature"},
	{"geometry":{"coordinates":[54.392002,24.44392],"type":"Point"},"properties":{"name":"Emirates Red Crescent","osm_id":"5992873386","tag":{"amenity":"recycling","name:en":"Emirates Red Crescent"}},"type":"Feature"},
	{"geometry":{"coordinates":[54.40208,24.446872],"type":"Point"},"properties":{"name":"Make A Wish","osm_id":"6033289287","tag":{"amenity":"recycling","name:en":"Make A Wish"}},"type":"Feature"}
]
}
