{
"type": "FeatureCollection",
"lastupdate": "2020-08-04T00:00:00Z",
"features": [
	{"geometry":{"coordinates":[-82.801351,27.805164],"type":"Point"},"properties":{"osm_id":"844172891","tag":{"amenity":"recycling"}},"type":"Feature"},
	{"geometry":{"coordinates":[-82.826727,27.823202],"type":"Point"},"properties":{"osm_id":"844178360","tag":{"amenity":"recycling"}},"type":"Feature"},
	{"geometry":{"coordinates":[-82.81242,27.834667],"type":"Point"},"properties":{"osm_id":"7472751990","tag":{"amenity":"waste_basket","waste":"trash"}},"type":"Feature"},
	{"geometry":{"coordinates":[-82.812413,27.834665],"type":"Point"},"properties":{"osm_id":"7472751991","tag":{"amenity":"waste_basket","waste":"trash"}},"type":"Feature"},
	{"geometry":{"coordinates":[-82.812405,27.834662],"type":"Point"},"properties":{"osm_id":"7472751992","tag":{"amenity":"waste_basket","waste":"recycling;plastic;bottles;cans"}},"type":"Feature"},
	{"geometry":{"coordinates":[-82.813857,27.835128],"type":"Point"},"properties":{"osm_id":"7476666985","tag":{"amenity":"waste_basket","colour":"#DDDFE1","waste":"trash"}},"type":"Feature"},
	{"geometry":{"coordinates":[-82.813835,27.835121],"type":"Point"},"properties":{"osm_id":"7476673585","tag":{"amenity":"waste_basket","colour":"#014589","waste":"recycling;plastic;cans;glass;paper;cardboard"}},"type":"Feature"}
]
}
