{
"type": "FeatureCollection",
"features": [
	{"geometry":{"coordinates":[-0.900645,51.660334],"type":"Point"},"properties":{"osm_id":"808467298","tag":{"amenity":"recycling"}},"type":"Feature"},
	{"geometry":{"coordinates":[-0.883866,51.657306],"type":"Point"},"properties":{"name":"Mudds Bank","osm_id":"2281795152","tag":{"amenity":"recycling","recycling_type":"container"}},"type":"Feature"},
	{"geometry":{"coordinates":[-0.898332,51.658704],"type":"Point"},"properties":{"osm_id":"5644689787","tag":{"amenity":"waste_basket","waste":"trash"}},"type":"Feature"},
	{"geometry":{"coordinates":[-0.90754,51.660268],"type":"Point"},"properties":{"osm_id":"5644689968","tag":{"amenity":"waste_basket","waste":"trash"}},"type":"Feature"},
	{"geometry":{"coordinates":[-0.901841,51.660046],"type":"Point"},"properties":{"osm_id":"5644690164","tag":{"amenity":"waste_basket","waste":"trash"}},"type":"Feature"},
	{"geometry":{"coordinates":[-0.901419,51.660167],"type":"Point"},"properties":{"osm_id":"5644690165","tag":{"amenity":"waste_basket","waste":"trash"}},"type":"Feature"},
	{"geometry":{"coordinates":[-0.902068,51.660114],"type":"Point"},"properties":{"osm_id":"5644690168","tag":{"amenity":"waste_basket","waste":"trash"}},"type":"Feature"},
	{"geometry":{"coordinates":[-0.902693,51.660225],"type":"Point"},"properties":{"osm_id":"5644690169","tag":{"amenity":"waste_basket","waste":"trash"}},"type":"Feature"},
	{"geometry":{"coordinates":[-0.902792,51.660601],"type":"Point"},"properties":{"osm_id":"5644690174","tag":{"amenity":"waste_basket","waste":"trash"}},"type":"Feature"},
	{"geometry":{"coordinates":[-0.90294,51.660628],"type":"Point"},"properties":{"osm_id":"5644690180","tag":{"amenity":"waste_basket","waste":"trash"}},"type":"Feature"},
	{"geometry":{"coordinates":[-0.902962,51.660549],"type":"Point"},"properties":{"osm_id":"5644690182","tag":{"amenity":"waste_basket","waste":"trash"}},"type":"Feature"},
	{"geometry":{"coordinates":[-0.9034,51.660426],"type":"Point"},"properties":{"osm_id":"5644690183","tag":{"amenity":"waste_basket","waste":"trash"}},"type":"Feature"},
	{"geometry":{"coordinates":[-0.903615,51.660467],"type":"Point"},"properties":{"osm_id":"5644690185","tag":{"amenity":"waste_basket","waste":"trash"}},"type":"Feature"},
	{"geometry":{"coordinates":[-0.903048,51.660744],"type":"Point"},"properties":{"osm_id":"5644690186","tag":{"amenity":"waste_basket","waste":"trash"}},"type":"Feature"},
	{"geometry":{"coordinates":[-0.902818,51.661136],"type":"Point"},"properties":{"osm_id":"5644690188","tag":{"amenity":"waste_basket","waste":"trash"}},"type":"Feature"},
	{"geometry":{"coordinates":[-0.902215,51.66111],"type":"Point"},"properties":{"osm_id":"5644690189","tag":{"amenity":"waste_basket","waste":"trash"}},"type":"Feature"},
	{"geometry":{"coordinates":[-0.90151,51.662189],"type":"Point"},"properties":{"osm_id":"5644690400","tag":{"amenity":"waste_basket","waste":"trash"}},"type":"Feature"},
	{"geometry":{"coordinates":[-0.901096,51.66219],"type":"Point"},"properties":{"osm_id":"5644690413","tag":{"amenity":"waste_basket","waste":"trash"}},"type":"Feature"},
	{"geometry":{"coordinates":[-0.90043,51.662481],"type":"Point"},"properties":{"osm_id":"5644690680","tag":{"amenity":"waste_basket","waste":"trash"}},"type":"Feature"}
]
}
