{
"type": "FeatureCollection",
"features": [
	{"geometry":{"coordinates":[-0.933376,51.445235],"type":"Point"},"properties":{"osm_id":"14396075","tag":{"amenity":"waste_basket"}},"type":"Feature"},
	{"geometry":{"coordinates":[-0.965906,51.445474],"type":"Point"},"properties":{"osm_id":"16055364","tag":{"amenity":"recycling","recycling:glass":"yes","recycling:glass_bottles":"yes","recycling_type":"container"}},"type":"Feature"},
	{"geometry":{"coordinates":[-0.945037,51.442298],"type":"Point"},"properties":{"osm_id":"16094589","tag":{"amenity":"recycling","recycling:cardboard":"yes","recycling:newspaper":"yes"}},"type":"Feature"},
	{"geometry":{"coordinates":[-0.946458,51.441664],"type":"Point"},"properties":{"osm_id":"16094590","tag":{"amenity":"recycling","recycling:cardboard":"yes","recycling:paper":"yes"}},"type":"Feature"},
	{"geometry":{"coordinates":[-0.946144,51.439598],"type":"Point"},"properties":{"osm_id":"16094591","tag":{"amenity":"recycling","recycling:cans":"yes","recycling:cardboard":"yes","recycling:magazines":"yes","recycling:paper":"yes","recycling:plastic_bottles":"yes"}},"type":"Feature"},
	{"geometry":{"coordinates":[-0.94096,51.437584],"type":"Point"},"properties":{"osm_id":"16094592","tag":{"amenity":"recycling","recycling:cans":"yes","recycling:cardboard":"yes","recycling:magazines":"yes","recycling:paper":"yes","recycling:plastic_bottles":"yes"}},"type":"Feature"},
	{"geometry":{"coordinates":[-0.940407,51.438544],"type":"Point"},"properties":{"osm_id":"16094593","tag":{"amenity":"recycling","recycling:cardboard":"yes","recycling:paper":"yes"}},"type":"Feature"},
	{"geometry":{"coordinates":[-0.94304,51.440529],"type":"Point"},"properties":{"osm_id":"16094594","tag":{"amenity":"recycling","recycling:cans":"yes","recycling:cardboard":"yes","recycling:glass_bottles":"yes","recycling:magazines":"yes","recycling:paper":"yes","recycling:plastic_bottles":"yes"}},"type":"Feature"},
	{"geometry":{"coordinates":[-0.942416,51.438831],"type":"Point"},"properties":{"osm_id":"16094596","tag":{"amenity":"recycling","recycling:cardboard":"yes","recycling:paper":"yes"}},"type":"Feature"},
	{"geometry":{"coordinates":[-0.942271,51.439129],"type":"Point"},"properties":{"osm_id":"16094597","tag":{"amenity":"recycling","recycling:cardboard":"yes","recycling:paper":"yes"}},"type":"Feature"},
	{"geometry":{"coordinates":[-0.937603,51.439047],"type":"Point"},"properties":{"osm_id":"16094741","tag":{"amenity":"recycling","recycling:cardboard":"yes","recycling:paper":"yes"}},"type":"Feature"},
	{"geometry":{"coordinates":[-0.933677,51.439961],"type":"Point"},"properties":{"osm_id":"16094742","tag":{"amenity":"recycling","recycling:cardboard":"yes","recycling:paper":"yes"}},"type":"Feature"},
	{"geometry":{"coordinates":[-0.944235,51.440994],"type":"Point"},"properties":{"osm_id":"16251749","tag":{"amenity":"recycling","recycling:cans":"yes","recycling:paper":"yes"}},"type":"Feature"},
	{"geometry":{"coordinates":[-0.945333,51.440208],"type":"Point"},"properties":{"osm_id":"16251750","tag":{"amenity":"recycling","recycling:cans":"yes","recycling:paper":"yes"}},"type":"Feature"},
	{"geometry":{"coordinates":[-0.962336,51.440749],"type":"Point"},"properties":{"osm_id":"476525807","tag":{"amenity":"recycling","recycling:glass":"yes","recycling_type":"container"}},"type":"Feature"},
	{"geometry":{"coordinates":[-0.965209,51.413922],"type":"Point"},"properties":{"osm_id":"520595140","tag":{"amenity":"recycling","recycling:glass":"yes"}},"type":"Feature"},
	{"geometry":{"coordinates":[-0.959478,51.423243],"type":"Point"},"properties":{"osm_id":"520595256","tag":{"amenity":"recycling","recycling:clothes":"yes","recycling:glass":"yes"}},"type":"Feature"},
	{"geometry":{"coordinates":[-0.948948,51.430549],"type":"Point"},"properties":{"osm_id":"603604964","tag":{"amenity":"recycling","recycling:clothes":"yes","recycling:glass":"yes","recycling:paper":"yes"}},"type":"Feature"},
	{"geometry":{"coordinates":[-0.937232,51.423593],"type":"Point"},"properties":{"osm_id":"610917328","tag":{"amenity":"waste_basket"}},"type":"Feature"},
	{"geometry":{"coordinates":[-0.935225,51.423528],"type":"Point"},"properties":{"osm_id":"610917330","tag":{"amenity":"waste_basket"}},"type":"Feature"},
	{"geometry":{"coordinates":[-0.936427,51.423087],"type":"Point"},"properties":{"osm_id":"610917331","tag":{"amenity":"waste_basket"}},"type":"Feature"},
	{"geometry":{"coordinates":[-0.93587,51.423281],"type":"Point"},"properties":{"osm_id":"610917333","tag":{"amenity":"waste_basket"}},"type":"Feature"},
	{"geometry":{"coordinates":[-0.935236,51.424073],"type":"Point"},"properties":{"osm_id":"610917334","tag":{"amenity":"waste_basket"}},"type":"Feature"},
	{"geometry":{"coordinates":[-0.935071,51.423607],"type":"Point"},"properties":{"osm_id":"610917336","tag":{"amenity":"waste_basket"}},"type":"Feature"},
	{"geometry":{"coordinates":[-0.936613,51.424474],"type":"Point"},"properties":{"osm_id":"610917339","tag":{"amenity":"waste_basket"}},"type":"Feature"},
	{"geometry":{"coordinates":[-0.93715,51.424262],"type":"Point"},"properties":{"osm_id":"610917340","tag":{"amenity":"waste_basket"}},"type":"Feature"},
	{"geometry":{"coordinates":[-0.946304,51.427519],"type":"Point"},"properties":{"osm_id":"638980460","tag":{"amenity":"recycling","recycling:cans":"yes","recycling:clothes":"no","recycling:glass":"yes","recycling:paper":"yes","recycling_type":"container"}},"type":"Feature"},
	{"geometry":{"coordinates":[-0.933784,51.424006],"type":"Point"},"properties":{"osm_id":"638980464","tag":{"amenity":"waste_basket"}},"type":"Feature"},
	{"geometry":{"coordinates":[-0.945087,51.446199],"type":"Point"},"properties":{"osm_id":"638980470","tag":{"amenity":"waste_basket"}},"type":"Feature"},
	{"geometry":{"coordinates":[-0.927125,51.42843],"type":"Point"},"properties":{"osm_id":"648148486","tag":{"amenity":"waste_basket"}},"type":"Feature"},
	{"geometry":{"coordinates":[-0.922304,51.433081],"type":"Point"},"properties":{"osm_id":"648148536","tag":{"amenity":"waste_basket"}},"type":"Feature"},
	{"geometry":{"coordinates":[-0.920918,51.432786],"type":"Point"},"properties":{"osm_id":"648148555","tag":{"amenity":"waste_basket"}},"type":"Feature"},
	{"geometry":{"coordinates":[-0.921205,51.432624],"type":"Point"},"properties":{"osm_id":"648148559","tag":{"amenity":"waste_basket"}},"type":"Feature"},
	{"geometry":{"coordinates":[-0.934591,51.450836],"type":"Point"},"properties":{"osm_id":"649718039","tag":{"amenity":"waste_basket"}},"type":"Feature"},
	{"geometry":{"coordinates":[-0.921651,51.432813],"type":"Point"},"properties":{"osm_id":"662682913","tag":{"amenity":"waste_basket"}},"type":"Feature"},
	{"geometry":{"coordinates":[-0.944994,51.427154],"type":"Point"},"properties":{"osm_id":"665900903","tag":{"amenity":"waste_basket"}},"type":"Feature"},
	{"geometry":{"coordinates":[-0.945847,51.427253],"type":"Point"},"properties":{"osm_id":"666266784","tag":{"amenity":"waste_basket"}},"type":"Feature"},
	{"geometry":{"coordinates":[-0.942162,51.425865],"type":"Point"},"properties":{"osm_id":"666266786","tag":{"amenity":"waste_basket"}},"type":"Feature"},
	{"geometry":{"coordinates":[-0.926409,51.444674],"type":"Point"},"properties":{"osm_id":"667052975","tag":{"amenity":"waste_basket"}},"type":"Feature"},
	{"geometry":{"coordinates":[-0.9141,51.447051],"type":"Point"},"properties":{"osm_id":"672266124","tag":{"amenity":"waste_basket"}},"type":"Feature"},
	{"geometry":{"coordinates":[-0.910996,51.436012],"type":"Point"},"properties":{"osm_id":"672869720","tag":{"amenity":"waste_basket"}},"type":"Feature"},
	{"geometry":{"coordinates":[-0.91021,51.435397],"type":"Point"},"properties":{"osm_id":"672869731","tag":{"amenity":"waste_basket"}},"type":"Feature"},
	{"geometry":{"coordinates":[-0.910044,51.435813],"type":"Point"},"properties":{"osm_id":"672869739","tag":{"amenity":"waste_basket"}},"type":"Feature"},
	{"geometry":{"coordinates":[-0.910048,51.435821],"type":"Point"},"properties":{"osm_id":"672869740","tag":{"amenity":"waste_basket"}},"type":"Feature"},
	{"geometry":{"coordinates":[-0.910459,51.436044],"type":"Point"},"properties":{"osm_id":"672869753","tag":{"amenity":"waste_basket"}},"type":"Feature"},
	{"geometry":{"coordinates":[-0.932125,51.423645],"type":"Point"},"properties":{"osm_id":"688539664","tag":{"amenity":"recycling","recycling:cans":"yes","recycling:clothes":"yes","recycling:glass":"yes","recycling:paper":"yes"}},"type":"Feature"},
	{"geometry":{"coordinates":[-0.949473,51.446835],"type":"Point"},"properties":{"osm_id":"695694735","tag":{"amenity":"waste_basket"}},"type":"Feature"},
	{"geometry":{"coordinates":[-0.87927,51.424886],"type":"Point"},"properties":{"osm_id":"709183132","tag":{"amenity":"waste_basket"}},"type":"Feature"},
	{"geometry":{"coordinates":[-0.944253,51.43884],"type":"Point"},"properties":{"osm_id":"723163286","tag":{"amenity":"recycling","recycling:cardboard":"yes","recycling:paper":"yes"}},"type":"Feature"},
	{"geometry":{"coordinates":[-0.941454,51.422361],"type":"Point"},"properties":{"osm_id":"755797688","tag":{"amenity":"waste_basket"}},"type":"Feature"},
	{"geometry":{"coordinates":[-0.943497,51.429589],"type":"Point"},"properties":{"osm_id":"793033414","tag":{"amenity":"waste_basket"}},"type":"Feature"},
	{"geometry":{"coordinates":[-0.884926,51.434672],"type":"Point"},"properties":{"osm_id":"794140438","tag":{"amenity":"waste_basket"}},"type":"Feature"},
	{"geometry":{"coordinates":[-0.963505,51.417118],"type":"Point"},"properties":{"osm_id":"797802927","tag":{"amenity":"recycling","recycling:glass":"yes"}},"type":"Feature"},
	{"geometry":{"coordinates":[-0.886426,51.42191],"type":"Point"},"properties":{"osm_id":"798772101","tag":{"amenity":"waste_basket"}},"type":"Feature"},
	{"geometry":{"coordinates":[-0.886013,51.422091],"type":"Point"},"properties":{"osm_id":"798772273","tag":{"amenity":"waste_basket"}},"type":"Feature"},
	{"geometry":{"coordinates":[-0.93821,51.426127],"type":"Point"},"properties":{"osm_id":"802713399","tag":{"amenity":"waste_basket"}},"type":"Feature"},
	{"geometry":{"coordinates":[-0.925958,51.429013],"type":"Point"},"properties":{"osm_id":"847932734","tag":{"amenity":"waste_basket"}},"type":"Feature"},
	{"geometry":{"coordinates":[-0.926164,51.429342],"type":"Point"},"properties":{"osm_id":"847932784","tag":{"amenity":"waste_basket"}},"type":"Feature"},
	{"geometry":{"coordinates":[-0.92481,51.421579],"type":"Point"},"properties":{"osm_id":"865207117","tag":{"amenity":"waste_basket"}},"type":"Feature"},
	{"geometry":{"coordinates":[-0.943284,51.421549],"type":"Point"},"properties":{"osm_id":"865207244","tag":{"amenity":"waste_basket"}},"type":"Feature"},
	{"geometry":{"coordinates":[-0.905655,51.451618],"type":"Point"},"properties":{"osm_id":"936136224","tag":{"amenity":"recycling","recycling:clothes":"yes","recycling:glass":"yes","recycling_type":"container"}},"type":"Feature"},
	{"geometry":{"coordinates":[-0.917758,51.423896],"type":"Point"},"properties":{"osm_id":"938795668","tag":{"amenity":"waste_basket"}},"type":"Feature"},
	{"geometry":{"coordinates":[-0.912946,51.42838],"type":"Point"},"properties":{"osm_id":"941732764","tag":{"amenity":"waste_basket"}},"type":"Feature"},
	{"geometry":{"coordinates":[-0.919358,51.423454],"type":"Point"},"properties":{"osm_id":"959851934","tag":{"amenity":"waste_basket"}},"type":"Feature"},
	{"geometry":{"coordinates":[-0.88186,51.427909],"type":"Point"},"properties":{"osm_id":"968193677","tag":{"amenity":"waste_basket"}},"type":"Feature"},
	{"geometry":{"coordinates":[-0.959689,51.427736],"type":"Point"},"properties":{"osm_id":"973488082","tag":{"amenity":"recycling","recycling:clothes":"yes","recycling:glass":"yes","recycling:paper":"yes"}},"type":"Feature"},
	{"geometry":{"coordinates":[-0.916984,51.429848],"type":"Point"},"properties":{"osm_id":"1112155310","tag":{"amenity":"waste_basket"}},"type":"Feature"},
	{"geometry":{"coordinates":[-0.959682,51.427826],"type":"Point"},"properties":{"osm_id":"1127939426","tag":{"amenity":"waste_basket"}},"type":"Feature"},
	{"geometry":{"coordinates":[-0.893137,51.449866],"type":"Point"},"properties":{"osm_id":"1232035004","tag":{"amenity":"waste_basket"}},"type":"Feature"},
	{"geometry":{"coordinates":[-0.904515,51.448408],"type":"Point"},"properties":{"osm_id":"1233405085","tag":{"amenity":"waste_basket"}},"type":"Feature"},
	{"geometry":{"coordinates":[-0.949075,51.439255],"type":"Point"},"properties":{"osm_id":"1243868358","tag":{"amenity":"recycling","recycling:glass":"yes","recycling:glass_bottles":"yes","recycling_type":"container"}},"type":"Feature"},
	{"geometry":{"coordinates":[-0.945941,51.440812],"type":"Point"},"properties":{"osm_id":"1298715244","tag":{"amenity":"waste_basket"}},"type":"Feature"},
	{"geometry":{"coordinates":[-0.914236,51.453325],"type":"Point"},"properties":{"osm_id":"1300225702","tag":{"amenity":"waste_basket"}},"type":"Feature"},
	{"geometry":{"coordinates":[-0.89186,51.45042],"type":"Point"},"properties":{"osm_id":"1305944348","tag":{"amenity":"waste_basket"}},"type":"Feature"},
	{"geometry":{"coordinates":[-0.904102,51.448376],"type":"Point"},"properties":{"osm_id":"1474275449","tag":{"amenity":"waste_basket"}},"type":"Feature"},
	{"geometry":{"coordinates":[-0.907918,51.453816],"type":"Point"},"properties":{"osm_id":"1508552346","tag":{"amenity":"waste_basket"}},"type":"Feature"},
	{"geometry":{"coordinates":[-0.904367,51.45297],"type":"Point"},"properties":{"osm_id":"1577722367","tag":{"amenity":"recycling","recycling:clothes":"yes","recycling:glass":"yes","recycling_type":"container"}},"type":"Feature"},
	{"geometry":{"coordinates":[-0.902357,51.44071],"type":"Point"},"properties":{"osm_id":"1600014396","tag":{"amenity":"recycling","recycling:clothes":"yes","recycling_type":"container"}},"type":"Feature"},
	{"geometry":{"coordinates":[-0.904167,51.445763],"type":"Point"},"properties":{"osm_id":"1657628879","tag":{"amenity":"waste_basket"}},"type":"Feature"},
	{"geometry":{"coordinates":[-0.901822,51.443838],"type":"Point"},"properties":{"osm_id":"1666568434","tag":{"amenity":"waste_basket"}},"type":"Feature"},
	{"geometry":{"coordinates":[-0.909833,51.443335],"type":"Point"},"properties":{"osm_id":"1705543502","tag":{"amenity":"waste_basket"}},"type":"Feature"},
	{"geometry":{"coordinates":[-0.914026,51.446057],"type":"Point"},"properties":{"osm_id":"1705543551","tag":{"amenity":"recycling","location":"overground","recycling:clothes":"yes","recycling:glass":"no","recycling:glass_bottles":"yes","recycling:paper":"yes","recycling_type":"container"}},"type":"Feature"},
	{"geometry":{"coordinates":[-0.914378,51.446142],"type":"Point"},"properties":{"osm_id":"1705543561","tag":{"amenity":"waste_basket"}},"type":"Feature"},
	{"geometry":{"coordinates":[-0.914478,51.446229],"type":"Point"},"properties":{"osm_id":"1705543570","tag":{"amenity":"waste_basket"}},"type":"Feature"},
	{"geometry":{"coordinates":[-0.907739,51.442933],"type":"Point"},"properties":{"osm_id":"1706919843","tag":{"amenity":"waste_basket"}},"type":"Feature"},
	{"geometry":{"coordinates":[-0.918238,51.442416],"type":"Point"},"properties":{"osm_id":"1708340728","tag":{"amenity":"waste_basket"}},"type":"Feature"},
	{"geometry":{"coordinates":[-0.915076,51.446679],"type":"Point"},"properties":{"osm_id":"1727089611","tag":{"amenity":"waste_basket"}},"type":"Feature"},
	{"geometry":{"coordinates":[-0.916975,51.44843],"type":"Point"},"properties":{"osm_id":"1727089863","tag":{"amenity":"waste_basket"}},"type":"Feature"},
	{"geometry":{"coordinates":[-0.916121,51.450027],"type":"Point"},"properties":{"osm_id":"1727089976","tag":{"amenity":"waste_basket"}},"type":"Feature"},
	{"geometry":{"coordinates":[-0.89967,51.446285],"type":"Point"},"properties":{"osm_id":"1745983075","tag":{"amenity":"recycling","recycling:clothes":"yes"}},"type":"Feature"},
	{"geometry":{"coordinates":[-0.909418,51.44047],"type":"Point"},"properties":{"osm_id":"1758393905","tag":{"amenity":"waste_basket"}},"type":"Feature"},
	{"geometry":{"coordinates":[-0.946443,51.427941],"type":"Point"},"properties":{"osm_id":"1790357874","tag":{"amenity":"recycling","location":"overground","recycling_type":"container"}},"type":"Feature"},
	{"geometry":{"coordinates":[-0.91866,51.437819],"type":"Point"},"properties":{"osm_id":"1826852362","tag":{"amenity":"waste_basket"}},"type":"Feature"},
	{"geometry":{"coordinates":[-0.908393,51.440698],"type":"Point"},"properties":{"osm_id":"1826852490","tag":{"amenity":"waste_basket"}},"type":"Feature"},
	{"geometry":{"coordinates":[-0.893447,51.450393],"type":"Point"},"properties":{"osm_id":"1850724619","tag":{"amenity":"waste_basket"}},"type":"Feature"},
	{"geometry":{"coordinates":[-0.892149,51.451643],"type":"Point"},"properties":{"osm_id":"1850725035","tag":{"amenity":"waste_basket"}},"type":"Feature"},
	{"geometry":{"coordinates":[-0.883084,51.453946],"type":"Point"},"properties":{"osm_id":"1854645305","tag":{"amenity":"waste_basket"}},"type":"Feature"},
	{"geometry":{"coordinates":[-0.926054,51.438344],"type":"Point"},"properties":{"osm_id":"2181320162","tag":{"amenity":"waste_basket"}},"type":"Feature"},
	{"geometry":{"coordinates":[-0.926185,51.43857],"type":"Point"},"properties":{"osm_id":"2181320163","tag":{"amenity":"waste_basket"}},"type":"Feature"},
	{"geometry":{"coordinates":[-0.926515,51.440664],"type":"Point"},"properties":{"osm_id":"2181320209","tag":{"amenity":"waste_basket"}},"type":"Feature"},
	{"geometry":{"coordinates":[-0.92513,51.441658],"type":"Point"},"properties":{"osm_id":"2181320239","tag":{"amenity":"waste_basket"}},"type":"Feature"},
	{"geometry":{"coordinates":[-0.926196,51.441824],"type":"Point"},"properties":{"osm_id":"2181320244","tag":{"amenity":"waste_basket"}},"type":"Feature"},
	{"geometry":{"coordinates":[-0.928766,51.442423],"type":"Point"},"properties":{"osm_id":"2181320250","tag":{"amenity":"waste_basket"}},"type":"Feature"},
	{"geometry":{"coordinates":[-0.884256,51.421259],"type":"Point"},"properties":{"osm_id":"3018703876","tag":{"amenity":"waste_basket"}},"type":"Feature"},
	{"geometry":{"coordinates":[-0.926219,51.436481],"type":"Point"},"properties":{"osm_id":"3810589263","tag":{"amenity":"waste_basket"}},"type":"Feature"},
	{"geometry":{"coordinates":[-0.925873,51.436679],"type":"Point"},"properties":{"osm_id":"3810589264","tag":{"amenity":"waste_basket"}},"type":"Feature"},
	{"geometry":{"coordinates":[-0.925697,51.436586],"type":"Point"},"properties":{"osm_id":"3810589267","tag":{"amenity":"waste_basket"}},"type":"Feature"},
	{"geometry":{"coordinates":[-0.926473,51.436727],"type":"Point"},"properties":{"osm_id":"3810594147","tag":{"amenity":"waste_basket"}},"type":"Feature"},
	{"geometry":{"coordinates":[-0.904741,51.443735],"type":"Point"},"properties":{"osm_id":"4095011064","tag":{"amenity":"waste_basket"}},"type":"Feature"},
	{"geometry":{"coordinates":[-0.897453,51.453736],"type":"Point"},"properties":{"osm_id":"5001340194","tag":{"amenity":"waste_basket"}},"type":"Feature"},
	{"geometry":{"coordinates":[-0.934237,51.442488],"type":"Point"},"properties":{"osm_id":"5648412233","tag":{"amenity":"waste_basket"}},"type":"Feature"},
	{"geometry":{"coordinates":[-0.935051,51.443265],"type":"Point"},"properties":{"osm_id":"5648412234","tag":{"amenity":"waste_basket","waste":"dog_excrement"}},"type":"Feature"},
	{"geometry":{"coordinates":[-0.935898,51.443541],"type":"Point"},"properties":{"osm_id":"5648412235","tag":{"amenity":"waste_basket"}},"type":"Feature"},
	{"geometry":{"coordinates":[-0.935862,51.443624],"type":"Point"},"properties":{"osm_id":"5648412236","tag":{"amenity":"waste_basket"}},"type":"Feature"},
	{"geometry":{"coordinates":[-0.934009,51.445658],"type":"Point"},"properties":{"osm_id":"5651994522","tag":{"amenity":"waste_basket"}},"type":"Feature"},
	{"geometry":{"coordinates":[-0.936849,51.45026],"type":"Point"},"properties":{"osm_id":"5651994546","tag":{"amenity":"waste_basket"}},"type":"Feature"},
	{"geometry":{"coordinates":[-0.937776,51.451127],"type":"Point"},"properties":{"osm_id":"5651994559","tag":{"amenity":"waste_basket"}},"type":"Feature"},
	{"geometry":{"coordinates":[-0.938005,51.451026],"type":"Point"},"properties":{"osm_id":"5651994560","tag":{"amenity":"waste_basket"}},"type":"Feature"},
	{"geometry":{"coordinates":[-0.938701,51.451865],"type":"Point"},"properties":{"osm_id":"5651994584","tag":{"amenity":"waste_basket"}},"type":"Feature"},
	{"geometry":{"coordinates":[-0.942308,51.451311],"type":"Point"},"properties":{"osm_id":"5651994593","tag":{"amenity":"waste_basket"}},"type":"Feature"},
	{"geometry":{"coordinates":[-0.932014,51.44263],"type":"Point"},"properties":{"osm_id":"5911925427","tag":{"amenity":"waste_basket"}},"type":"Feature"},
	{"geometry":{"coordinates":[-0.936293,51.443077],"type":"Point"},"properties":{"osm_id":"5911925428","tag":{"amenity":"recycling","recycling:books":"yes","recycling:clothes":"yes","recycling:glass":"yes","recycling:shoes":"yes","recycling_type":"container"}},"type":"Feature"},
	{"geometry":{"coordinates":[-0.932325,51.442832],"type":"Point"},"properties":{"osm_id":"5911925446","tag":{"amenity":"recycling","recycling:clothes":"yes","recycling_type":"container"}},"type":"Feature"},
	{"geometry":{"coordinates":[-0.949041,51.440224],"type":"Point"},"properties":{"osm_id":"6034686935","tag":{"amenity":"recycling","recycling:cans":"yes","recycling:cardboard":"yes","recycling:paper":"yes","recycling:plastic":"yes","recycling_type":"container"}},"type":"Feature"},
	{"geometry":{"coordinates":[-0.949159,51.439252],"type":"Point"},"properties":{"osm_id":"6034786901","tag":{"amenity":"recycling","operator":"Thames Valley Air Ambulance","recycling:clothes":"yes","recycling:shoes":"yes","recycling_type":"container"}},"type":"Feature"},
	{"geometry":{"coordinates":[-0.948988,51.439257],"type":"Point"},"properties":{"osm_id":"6034786902","tag":{"amenity":"recycling","operator":"Cystic Fibrosis Trust","recycling:clothes":"yes","recycling:shoes":"yes","recycling_type":"container"}},"type":"Feature"},
	{"geometry":{"coordinates":[-0.94558,51.437557],"type":"Point"},"properties":{"osm_id":"6034786910","tag":{"amenity":"recycling","recycling:cans":"yes","recycling:cardboard":"yes","recycling:paper":"yes","recycling:plastic":"yes","recycling_type":"container"}},"type":"Feature"},
	{"geometry":{"coordinates":[-0.944163,51.438347],"type":"Point"},"properties":{"osm_id":"6034786918","tag":{"amenity":"recycling","recycling:cans":"yes","recycling:plastic":"yes","recycling_type":"container"}},"type":"Feature"},
	{"geometry":{"coordinates":[-0.964032,51.440816],"type":"Point"},"properties":{"osm_id":"6034825948","tag":{"amenity":"waste_basket"}},"type":"Feature"},
	{"geometry":{"coordinates":[-0.962407,51.438737],"type":"Point"},"properties":{"osm_id":"6223314939","tag":{"amenity":"waste_basket"}},"type":"Feature"},
	{"geometry":{"coordinates":[-0.96241,51.438789],"type":"Point"},"properties":{"osm_id":"6223314940","tag":{"amenity":"recycling","recycling:cans":"yes","recycling:cardboard":"yes","recycling:paper":"yes","recycling:plastic_bottles":"yes","recycling_type":"container"}},"type":"Feature"},
	{"geometry":{"coordinates":[-0.962305,51.439299],"type":"Point"},"properties":{"osm_id":"6223314943","tag":{"amenity":"waste_basket"}},"type":"Feature"},
	{"geometry":{"coordinates":[-0.962336,51.440783],"type":"Point"},"properties":{"osm_id":"6223314949","tag":{"amenity":"recycling","operator":"Cystic Fibrosis Trust","recycling:clothes":"yes","recycling:shoes":"yes","recycling_type":"container"}},"type":"Feature"},
	{"geometry":{"coordinates":[-0.962338,51.4408],"type":"Point"},"properties":{"osm_id":"6223314950","tag":{"amenity":"waste_basket"}},"type":"Feature"},
	{"geometry":{"coordinates":[-0.963792,51.441301],"type":"Point"},"properties":{"osm_id":"6223314966","tag":{"amenity":"waste_basket"}},"type":"Feature"},
	{"geometry":{"coordinates":[-0.965917,51.445442],"type":"Point"},"properties":{"osm_id":"6276841387","tag":{"amenity":"recycling","operator":"Cystic Fibrosis Trust","recycling:clothes":"yes","recycling:shoes":"yes","recycling_type":"container"}},"type":"Feature"},
	{"geometry":{"coordinates":[-0.965896,51.445509],"type":"Point"},"properties":{"osm_id":"6276841388","tag":{"amenity":"waste_basket"}},"type":"Feature"},
	{"geometry":{"coordinates":[-0.965842,51.44549],"type":"Point"},"properties":{"osm_id":"6276841389","tag":{"amenity":"waste_basket"}},"type":"Feature"},
	{"geometry":{"coordinates":[-0.962486,51.441508],"type":"Point"},"properties":{"osm_id":"6294380803","tag":{"amenity":"waste_basket"}},"type":"Feature"},
	{"geometry":{"coordinates":[-0.953848,51.453503],"type":"Point"},"properties":{"osm_id":"6944251246","tag":{"amenity":"waste_basket"}},"type":"Feature"},
	{"geometry":{"coordinates":[-0.953995,51.453525],"type":"Point"},"properties":{"osm_id":"6944251247","tag":{"amenity":"waste_basket"}},"type":"Feature"},
	{"geometry":{"coordinates":[-0.954052,51.453525],"type":"Point"},"properties":{"osm_id":"6944251248","tag":{"amenity":"waste_basket","waste":"recycling"}},"type":"Feature"},
	{"geometry":{"coordinates":[-0.888934,51.422668],"type":"Point"},"properties":{"osm_id":"7080385674","tag":{"amenity":"recycling","recycling:glass":"yes","recycling_type":"container"}},"type":"Feature"},
	{"geometry":{"coordinates":[-0.947442,51.449108],"type":"Point"},"properties":{"osm_id":"7575236342","tag":{"amenity":"recycling","recycling:clothes":"yes","recycling:glass_bottles":"yes","recycling_type":"container"}},"type":"Feature"},
	{"geometry":{"coordinates":[-0.88328,51.450981],"type":"Point"},"properties":{"osm_id":"7642995016","tag":{"amenity":"recycling","recycling:glass":"yes","recycling_type":"container"}},"type":"Feature"}
]
}
