{
"type": "FeatureCollection",
"features": [
	{"geometry":{"coordinates":[-0.939355,48.657081],"type":"Point"},"properties":{"osm_id":"1690674283","tag":{"amenity":"recycling","recycling_type":"container"}},"type":"Feature"},
	{"geometry":{"coordinates":[-0.949219,48.649236],"type":"Point"},"properties":{"osm_id":"1761167727","tag":{"amenity":"waste_basket"}},"type":"Feature"},
	{"geometry":{"coordinates":[-0.949455,48.649389],"type":"Point"},"properties":{"osm_id":"1761167736","tag":{"amenity":"waste_basket"}},"type":"Feature"},
	{"geometry":{"coordinates":[-0.946888,48.649814],"type":"Point"},"properties":{"osm_id":"1761167740","tag":{"amenity":"waste_basket"}},"type":"Feature"},
	{"geometry":{"coordinates":[-0.947019,48.64982],"type":"Point"},"properties":{"osm_id":"1761167742","tag":{"amenity":"waste_basket"}},"type":"Feature"},
	{"geometry":{"coordinates":[-0.947735,48.651015],"type":"Point"},"properties":{"osm_id":"1761167759","tag":{"amenity":"waste_basket"}},"type":"Feature"},
	{"geometry":{"coordinates":[-0.944461,48.653549],"type":"Point"},"properties":{"osm_id":"1764628796","tag":{"amenity":"waste_basket"}},"type":"Feature"},
	{"geometry":{"coordinates":[-0.946465,48.636105],"type":"Point"},"properties":{"name":"D\u00c3\u00a9ch\u00c3\u00a8terie\u00c2\u00a0de\u00c2\u00a0Mortain","osm_id":"6960408980","tag":{"amenity":"recycling","operator":"Sphere","phone":"+33 2 33 51 94 78","recycling_type":"centre","ref:FR:SINOE":"50138","start_date":"2003-01-21"}},"type":"Feature"}
]
}
