{
"type": "FeatureCollection",
"features": [
	{"geometry":{"coordinates":[-0.927301,44.012433],"type":"Point"},"properties":{"osm_id":"8709519205","tag":{"amenity":"recycling","operator":"Syndicat d'Elimination des D\u00c3\u00a9chets de la Haute Lande","recycling:glass_bottles":"yes","recycling_type":"container"}},"type":"Feature"},
	{"geometry":{"coordinates":[-0.928391,44.01242],"type":"Point"},"properties":{"osm_id":"8709589007","tag":{"amenity":"waste_basket"}},"type":"Feature"},
	{"geometry":{"coordinates":[-0.928899,44.013274],"type":"Point"},"properties":{"osm_id":"8718460503","tag":{"amenity":"recycling","operator":"Syndicat d'Elimination des D\u00c3\u00a9chets de la Haute Lande","recycling:glass_bottles":"yes","recycling:paper":"yes","recycling:plastic_bottles":"yes","recycling_type":"container"}},"type":"Feature"},
	{"geometry":{"coordinates":[-0.926495,44.015308],"type":"Point"},"properties":{"osm_id":"8718465464","tag":{"amenity":"recycling","operator":"Syndicat d'Elimination des D\u00c3\u00a9chets de la Haute Lande","recycling:glass_bottles":"yes","recycling:paper":"yes","recycling:plastic_bottles":"yes","recycling_type":"container"}},"type":"Feature"},
	{"geometry":{"coordinates":[-0.928598,44.017133],"type":"Point"},"properties":{"osm_id":"8996265693","tag":{"amenity":"recycling","recycling_type":"container"}},"type":"Feature"}
]
}
