{
"type": "FeatureCollection",
"features": [
	{"geometry":{"coordinates":[-0.880921,43.715539],"type":"Point"},"properties":{"osm_id":"7894843590","tag":{"amenity":"waste_basket"}},"type":"Feature"},
	{"geometry":{"coordinates":[-0.880885,43.71536],"type":"Point"},"properties":{"osm_id":"7894843594","tag":{"amenity":"waste_basket"}},"type":"Feature"},
	{"geometry":{"coordinates":[-0.907712,43.754464],"type":"Point"},"properties":{"osm_id":"8411260042","tag":{"amenity":"waste_basket","material":"wood"}},"type":"Feature"},
	{"geometry":{"coordinates":[-0.908929,43.757253],"type":"Point"},"properties":{"osm_id":"8475047283","tag":{"amenity":"recycling","recycling_type":"container"}},"type":"Feature"},
	{"geometry":{"coordinates":[-0.90408,43.765392],"type":"Point"},"properties":{"osm_id":"8475059321","tag":{"amenity":"recycling","recycling_type":"container"}},"type":"Feature"},
	{"geometry":{"coordinates":[-0.891509,43.756527],"type":"Point"},"properties":{"osm_id":"8475064180","tag":{"amenity":"recycling","recycling_type":"container"}},"type":"Feature"},
	{"geometry":{"coordinates":[-0.927532,43.748743],"type":"Point"},"properties":{"osm_id":"8475129574","tag":{"amenity":"recycling","recycling_type":"container"}},"type":"Feature"},
	{"geometry":{"coordinates":[-0.900828,43.728917],"type":"Point"},"properties":{"osm_id":"8475898694","tag":{"amenity":"recycling","recycling_type":"container"}},"type":"Feature"},
	{"geometry":{"coordinates":[-0.918708,43.729412],"type":"Point"},"properties":{"osm_id":"8475928176","tag":{"amenity":"recycling","recycling_type":"container"}},"type":"Feature"},
	{"geometry":{"coordinates":[-0.881011,43.715467],"type":"Point"},"properties":{"osm_id":"8478915388","tag":{"amenity":"waste_basket","colour":"brown","material":"wood"}},"type":"Feature"},
	{"geometry":{"coordinates":[-0.899159,43.708441],"type":"Point"},"properties":{"osm_id":"8479065546","tag":{"amenity":"waste_basket","colour":"brown","material":"wood"}},"type":"Feature"},
	{"geometry":{"coordinates":[-0.940395,43.722292],"type":"Point"},"properties":{"osm_id":"8524109493","tag":{"amenity":"waste_basket","material":"wood"}},"type":"Feature"},
	{"geometry":{"coordinates":[-0.92983,43.766682],"type":"Point"},"properties":{"osm_id":"8524281393","tag":{"access":"yes","amenity":"waste_disposal","description":"Containers pour des ordures m\u00c3\u00a9nag\u00c3\u00a8res"}},"type":"Feature"},
	{"geometry":{"coordinates":[-0.907151,43.755104],"type":"Point"},"properties":{"osm_id":"8643591381","tag":{"amenity":"waste_basket","material":"wood"}},"type":"Feature"},
	{"geometry":{"coordinates":[-0.909522,43.757636],"type":"Point"},"properties":{"osm_id":"8643712714","tag":{"amenity":"waste_basket","material":"metal"}},"type":"Feature"},
	{"geometry":{"coordinates":[-0.909904,43.757515],"type":"Point"},"properties":{"osm_id":"8643747236","tag":{"amenity":"waste_basket","material":"metal"}},"type":"Feature"},
	{"geometry":{"coordinates":[-0.908741,43.758053],"type":"Point"},"properties":{"osm_id":"8643749496","tag":{"amenity":"waste_basket","material":"metal"}},"type":"Feature"},
	{"geometry":{"coordinates":[-0.91279,43.759982],"type":"Point"},"properties":{"osm_id":"8643793995","tag":{"access":"yes","amenity":"waste_disposal"}},"type":"Feature"},
	{"geometry":{"coordinates":[-0.901214,43.729092],"type":"Point"},"properties":{"osm_id":"8654792866","tag":{"access":"yes","amenity":"waste_disposal"}},"type":"Feature"},
	{"geometry":{"coordinates":[-0.921423,43.727023],"type":"Point"},"properties":{"osm_id":"8654806908","tag":{"access":"yes","amenity":"waste_disposal"}},"type":"Feature"},
	{"geometry":{"coordinates":[-0.911057,43.735036],"type":"Point"},"properties":{"osm_id":"8654848398","tag":{"access":"yes","amenity":"waste_disposal"}},"type":"Feature"},
	{"geometry":{"coordinates":[-0.918697,43.729711],"type":"Point"},"properties":{"osm_id":"8654850480","tag":{"access":"yes","amenity":"waste_disposal"}},"type":"Feature"},
	{"geometry":{"coordinates":[-0.905745,43.739807],"type":"Point"},"properties":{"osm_id":"8654850949","tag":{"access":"yes","amenity":"waste_disposal"}},"type":"Feature"},
	{"geometry":{"coordinates":[-0.922483,43.726398],"type":"Point"},"properties":{"osm_id":"8654864546","tag":{"access":"yes","amenity":"waste_disposal"}},"type":"Feature"},
	{"geometry":{"coordinates":[-0.899562,43.728978],"type":"Point"},"properties":{"osm_id":"8655345336","tag":{"access":"yes","amenity":"waste_disposal"}},"type":"Feature"},
	{"geometry":{"coordinates":[-0.898984,43.729442],"type":"Point"},"properties":{"osm_id":"8655355209","tag":{"amenity":"waste_basket","material":"metal"}},"type":"Feature"},
	{"geometry":{"coordinates":[-0.912574,43.729792],"type":"Point"},"properties":{"osm_id":"8655355218","tag":{"access":"yes","amenity":"waste_disposal"}},"type":"Feature"},
	{"geometry":{"coordinates":[-0.898651,43.728799],"type":"Point"},"properties":{"osm_id":"8655364249","tag":{"amenity":"waste_basket","material":"metal"}},"type":"Feature"},
	{"geometry":{"coordinates":[-0.899623,43.729303],"type":"Point"},"properties":{"osm_id":"8655377466","tag":{"amenity":"waste_basket","material":"metal"}},"type":"Feature"},
	{"geometry":{"coordinates":[-0.899084,43.729266],"type":"Point"},"properties":{"osm_id":"8655388953","tag":{"amenity":"waste_basket","material":"metal"}},"type":"Feature"},
	{"geometry":{"coordinates":[-0.901472,43.730699],"type":"Point"},"properties":{"osm_id":"8655391561","tag":{"access":"yes","amenity":"waste_disposal"}},"type":"Feature"},
	{"geometry":{"coordinates":[-0.904504,43.732568],"type":"Point"},"properties":{"osm_id":"8655418416","tag":{"access":"yes","amenity":"waste_disposal"}},"type":"Feature"},
	{"geometry":{"coordinates":[-0.900012,43.729334],"type":"Point"},"properties":{"osm_id":"8655425476","tag":{"amenity":"waste_basket","material":"metal"}},"type":"Feature"},
	{"geometry":{"coordinates":[-0.902085,43.731356],"type":"Point"},"properties":{"osm_id":"8655447333","tag":{"access":"yes","amenity":"waste_disposal"}},"type":"Feature"},
	{"geometry":{"coordinates":[-0.911993,43.733404],"type":"Point"},"properties":{"osm_id":"8655479029","tag":{"access":"yes","amenity":"waste_disposal"}},"type":"Feature"},
	{"geometry":{"coordinates":[-0.901571,43.726908],"type":"Point"},"properties":{"osm_id":"8655481703","tag":{"access":"yes","amenity":"waste_disposal"}},"type":"Feature"},
	{"geometry":{"coordinates":[-0.948111,43.716177],"type":"Point"},"properties":{"osm_id":"8979930836","tag":{"amenity":"waste_disposal"}},"type":"Feature"},
	{"geometry":{"coordinates":[-0.93961,43.721743],"type":"Point"},"properties":{"osm_id":"8979930837","tag":{"amenity":"waste_disposal"}},"type":"Feature"},
	{"geometry":{"coordinates":[-0.935439,43.707778],"type":"Point"},"properties":{"osm_id":"8979930885","tag":{"amenity":"waste_disposal"}},"type":"Feature"}
]
}
