{
"type": "FeatureCollection",
"features": [
	{"geometry":{"coordinates":[-0.933263,43.68406],"type":"Point"},"properties":{"osm_id":"5881116303","tag":{"amenity":"recycling","recycling_type":"container"}},"type":"Feature"},
	{"geometry":{"coordinates":[-0.948351,43.699179],"type":"Point"},"properties":{"osm_id":"8069082843","tag":{"amenity":"recycling","recycling:glass_bottles":"yes","recycling_type":"container"}},"type":"Feature"},
	{"geometry":{"coordinates":[-0.948383,43.699177],"type":"Point"},"properties":{"osm_id":"8069082844","tag":{"amenity":"recycling","recycling:cardboard":"yes","recycling:paper":"yes","recycling_type":"container"}},"type":"Feature"},
	{"geometry":{"coordinates":[-0.948416,43.699175],"type":"Point"},"properties":{"osm_id":"8069082845","tag":{"amenity":"recycling","recycling:cans":"yes","recycling:plastic_bottles":"yes","recycling_type":"container"}},"type":"Feature"},
	{"geometry":{"coordinates":[-0.95347,43.699333],"type":"Point"},"properties":{"osm_id":"8069082850","tag":{"amenity":"waste_basket"}},"type":"Feature"},
	{"geometry":{"coordinates":[-0.953034,43.699322],"type":"Point"},"properties":{"osm_id":"8069082864","tag":{"amenity":"waste_basket"}},"type":"Feature"},
	{"geometry":{"coordinates":[-0.903582,43.648292],"type":"Point"},"properties":{"osm_id":"8475702074","tag":{"amenity":"recycling","recycling_type":"container"}},"type":"Feature"},
	{"geometry":{"coordinates":[-0.919679,43.652541],"type":"Point"},"properties":{"osm_id":"8475711396","tag":{"amenity":"recycling","recycling_type":"container"}},"type":"Feature"},
	{"geometry":{"coordinates":[-0.903054,43.672645],"type":"Point"},"properties":{"osm_id":"8475917859","tag":{"amenity":"recycling","recycling_type":"container"}},"type":"Feature"},
	{"geometry":{"coordinates":[-0.924906,43.703426],"type":"Point"},"properties":{"osm_id":"8475947487","tag":{"amenity":"recycling","recycling:glass_bottles":"yes","recycling:paper":"yes","recycling:plastic":"yes","recycling:plastic_bottles":"yes","recycling_type":"container"}},"type":"Feature"},
	{"geometry":{"coordinates":[-0.925741,43.700383],"type":"Point"},"properties":{"osm_id":"8475954064","tag":{"amenity":"recycling","recycling_type":"container"}},"type":"Feature"},
	{"geometry":{"coordinates":[-0.915505,43.703389],"type":"Point"},"properties":{"osm_id":"8475966645","tag":{"amenity":"recycling","recycling_type":"container"}},"type":"Feature"},
	{"geometry":{"coordinates":[-0.931816,43.705798],"type":"Point"},"properties":{"osm_id":"8475970702","tag":{"amenity":"recycling","recycling_type":"container"}},"type":"Feature"},
	{"geometry":{"coordinates":[-0.960703,43.656561],"type":"Point"},"properties":{"osm_id":"8625514120","tag":{"amenity":"recycling","operator":"SIETOM de Chalosse","recycling:beverage_cartons":"yes","recycling:cans":"yes","recycling:glass_bottles":"yes","recycling:paper":"yes","recycling:paper_packaging":"yes","recycling:plastic_bottles":"yes","recycling_type":"container","website":"https://www.sietomdechalosse.fr/"}},"type":"Feature"}
]
}
