{
"type": "FeatureCollection",
"features": [
	{"geometry":{"coordinates":[-0.88115,43.522695],"type":"Point"},"properties":{"osm_id":"1429973261","tag":{"amenity":"recycling","recycling:glass_bottles":"yes","recycling_type":"container"}},"type":"Feature"},
	{"geometry":{"coordinates":[-0.916929,43.517589],"type":"Point"},"properties":{"osm_id":"7992226537","tag":{"amenity":"recycling","recycling:glass":"yes","recycling:glass_bottles":"yes","recycling_type":"container"}},"type":"Feature"},
	{"geometry":{"coordinates":[-0.928266,43.57409],"type":"Point"},"properties":{"osm_id":"8510046725","tag":{"amenity":"recycling","operator":"SIETOM de Chalosse","recycling:beverage_cartons":"yes","recycling:cans":"yes","recycling:glass_bottles":"yes","recycling:paper":"yes","recycling:paper_packaging":"yes","recycling:plastic_bottles":"yes","recycling_type":"container","website":"https://www.sietomdechalosse.fr/"}},"type":"Feature"},
	{"geometry":{"coordinates":[-0.927597,43.576887],"type":"Point"},"properties":{"osm_id":"8625349681","tag":{"amenity":"recycling","operator":"SIETOM de Chalosse","recycling:beverage_cartons":"yes","recycling:cans":"yes","recycling:glass_bottles":"yes","recycling:paper":"yes","recycling:paper_packaging":"yes","recycling:plastic_bottles":"yes","recycling_type":"container","website":"https://www.sietomdechalosse.fr/"}},"type":"Feature"},
	{"geometry":{"coordinates":[-0.929551,43.570285],"type":"Point"},"properties":{"osm_id":"8625398877","tag":{"amenity":"recycling","operator":"SIETOM de Chalosse","recycling:beverage_cartons":"yes","recycling:cans":"yes","recycling:glass_bottles":"yes","recycling:paper":"yes","recycling:paper_packaging":"yes","recycling:plastic_bottles":"yes","recycling_type":"container","website":"https://www.sietomdechalosse.fr/"}},"type":"Feature"},
	{"geometry":{"coordinates":[-0.881357,43.557717],"type":"Point"},"properties":{"osm_id":"8625704063","tag":{"amenity":"recycling","operator":"SIETOM de Chalosse","recycling:beverage_cartons":"yes","recycling:cans":"yes","recycling:glass_bottles":"yes","recycling:paper":"yes","recycling:paper_packaging":"yes","recycling:plastic_bottles":"yes","recycling_type":"container","website":"https://www.sietomdechalosse.fr/"}},"type":"Feature"},
	{"geometry":{"coordinates":[-0.883628,43.566494],"type":"Point"},"properties":{"osm_id":"8976639344","tag":{"amenity":"waste_disposal"}},"type":"Feature"},
	{"geometry":{"coordinates":[-0.898427,43.570925],"type":"Point"},"properties":{"osm_id":"8976639356","tag":{"amenity":"waste_disposal"}},"type":"Feature"},
	{"geometry":{"coordinates":[-0.927893,43.571336],"type":"Point"},"properties":{"osm_id":"8976639383","tag":{"amenity":"waste_disposal"}},"type":"Feature"},
	{"geometry":{"coordinates":[-0.933165,43.574051],"type":"Point"},"properties":{"osm_id":"8976639404","tag":{"amenity":"waste_disposal"}},"type":"Feature"},
	{"geometry":{"coordinates":[-0.926279,43.573546],"type":"Point"},"properties":{"osm_id":"8976662057","tag":{"amenity":"waste_disposal"}},"type":"Feature"},
	{"geometry":{"coordinates":[-0.92987,43.570921],"type":"Point"},"properties":{"osm_id":"8976662089","tag":{"amenity":"waste_disposal"}},"type":"Feature"}
]
}
