{
"type": "FeatureCollection",
"lastupdate": "2020-08-01T00:00:00Z",
"features": [
	{"geometry":{"coordinates":[-0.927594,43.473381],"type":"Point"},"properties":{"osm_id":"3743268837","tag":{"amenity":"waste_basket"}},"type":"Feature"},
	{"geometry":{"coordinates":[-0.924292,43.471511],"type":"Point"},"properties":{"osm_id":"3752102529","tag":{"amenity":"waste_basket"}},"type":"Feature"},
	{"geometry":{"coordinates":[-0.925311,43.47171],"type":"Point"},"properties":{"osm_id":"3770134461","tag":{"amenity":"waste_basket"}},"type":"Feature"},
	{"geometry":{"coordinates":[-0.924245,43.472705],"type":"Point"},"properties":{"osm_id":"3770142362","tag":{"amenity":"waste_basket"}},"type":"Feature"},
	{"geometry":{"coordinates":[-0.921341,43.469879],"type":"Point"},"properties":{"osm_id":"3774667198","ref":"109","tag":{"amenity":"waste_basket"}},"type":"Feature"},
	{"geometry":{"coordinates":[-0.925366,43.470756],"type":"Point"},"properties":{"osm_id":"3779791671","tag":{"amenity":"waste_basket"}},"type":"Feature"},
	{"geometry":{"coordinates":[-0.925793,43.469528],"type":"Point"},"properties":{"osm_id":"3785902470","tag":{"amenity":"waste_basket"}},"type":"Feature"},
	{"geometry":{"coordinates":[-0.922974,43.474771],"type":"Point"},"properties":{"osm_id":"3787227982","tag":{"amenity":"waste_basket"}},"type":"Feature"},
	{"geometry":{"coordinates":[-0.92878,43.471585],"type":"Point"},"properties":{"osm_id":"3787228662","tag":{"amenity":"waste_basket"}},"type":"Feature"},
	{"geometry":{"coordinates":[-0.931976,43.475905],"type":"Point"},"properties":{"osm_id":"3805689457","tag":{"amenity":"recycling","recycling:glass_bottles":"yes","recycling_type":"container"}},"type":"Feature"},
	{"geometry":{"coordinates":[-0.916907,43.457839],"type":"Point"},"properties":{"osm_id":"3811037209","tag":{"amenity":"recycling","recycling:glass_bottles":"yes","recycling_type":"container"}},"type":"Feature"},
	{"geometry":{"coordinates":[-0.92738,43.470833],"type":"Point"},"properties":{"osm_id":"3856598765","tag":{"amenity":"recycling","recycling:glass_bottles":"yes","recycling_type":"container"}},"type":"Feature"},
	{"geometry":{"coordinates":[-0.918319,43.476683],"type":"Point"},"properties":{"osm_id":"3856598773","tag":{"amenity":"waste_basket"}},"type":"Feature"},
	{"geometry":{"coordinates":[-0.918067,43.47672],"type":"Point"},"properties":{"osm_id":"3856599567","tag":{"amenity":"recycling","recycling:glass_bottles":"yes","recycling_type":"container"}},"type":"Feature"},
	{"geometry":{"coordinates":[-0.92636,43.472964],"type":"Point"},"properties":{"osm_id":"3856599657","tag":{"amenity":"waste_basket"}},"type":"Feature"},
	{"geometry":{"coordinates":[-0.916677,43.474586],"type":"Point"},"properties":{"osm_id":"4908742126","tag":{"amenity":"recycling","recycling:glass_bottles":"yes","recycling_type":"container","source:date":"2016"}},"type":"Feature"},
	{"geometry":{"coordinates":[-0.926973,43.473483],"type":"Point"},"properties":{"osm_id":"4908742127","tag":{"amenity":"waste_basket","source:date":"2017"}},"type":"Feature"},
	{"geometry":{"coordinates":[-0.927621,43.468283],"type":"Point"},"properties":{"osm_id":"5001883928","tag":{"amenity":"recycling","recycling:clothes":"yes","recycling:glass_bottles":"yes","recycling_type":"container","source:date":"2017"}},"type":"Feature"}
]
}
