{
"type": "FeatureCollection",
"features": [
	{"geometry":{"coordinates":[-0.883648,41.668889],"type":"Point"},"properties":{"osm_id":"1332581578","tag":{"amenity":"recycling","recycling:green_waste":"yes","recycling_type":"container"}},"type":"Feature"},
	{"geometry":{"coordinates":[-0.87961,41.662049],"type":"Point"},"properties":{"osm_id":"1345707693","tag":{"amenity":"recycling","recycling:cans":"yes","recycling:glass":"yes","recycling:paper":"yes"}},"type":"Feature"},
	{"geometry":{"coordinates":[-0.883626,41.668888],"type":"Point"},"properties":{"osm_id":"1607041160","tag":{"amenity":"recycling","recycling:green_waste":"yes","recycling_type":"container"}},"type":"Feature"},
	{"geometry":{"coordinates":[-0.883648,41.668931],"type":"Point"},"properties":{"osm_id":"1607041170","tag":{"amenity":"recycling","recycling:glass_bottles":"yes","recycling_type":"container"}},"type":"Feature"},
	{"geometry":{"coordinates":[-0.883625,41.668946],"type":"Point"},"properties":{"osm_id":"1607041171","tag":{"amenity":"recycling","recycling:cardboard":"yes","recycling:paper":"yes","recycling_type":"container"}},"type":"Feature"},
	{"geometry":{"coordinates":[-0.883648,41.668946],"type":"Point"},"properties":{"osm_id":"1607041172","tag":{"amenity":"recycling","recycling:cans":"yes","recycling_type":"container"}},"type":"Feature"},
	{"geometry":{"coordinates":[-0.883277,41.670067],"type":"Point"},"properties":{"osm_id":"1607041203","tag":{"amenity":"recycling","recycling:green_waste":"yes","recycling_type":"container"}},"type":"Feature"},
	{"geometry":{"coordinates":[-0.883297,41.670069],"type":"Point"},"properties":{"osm_id":"1607041206","tag":{"amenity":"recycling","recycling:green_waste":"yes","recycling_type":"container"}},"type":"Feature"},
	{"geometry":{"coordinates":[-0.883762,41.670071],"type":"Point"},"properties":{"osm_id":"1607041212","tag":{"amenity":"recycling","recycling:green_waste":"yes","recycling_type":"container"}},"type":"Feature"},
	{"geometry":{"coordinates":[-0.88378,41.670071],"type":"Point"},"properties":{"osm_id":"1607041225","tag":{"amenity":"recycling","recycling:cans":"yes","recycling_type":"container"}},"type":"Feature"},
	{"geometry":{"coordinates":[-0.883794,41.670072],"type":"Point"},"properties":{"osm_id":"1607041226","tag":{"amenity":"recycling","recycling:cardboard":"yes","recycling:paper":"yes","recycling_type":"container"}},"type":"Feature"},
	{"geometry":{"coordinates":[-0.883807,41.670072],"type":"Point"},"properties":{"osm_id":"1607041228","tag":{"amenity":"recycling","recycling:glass_bottles":"yes","recycling_type":"container"}},"type":"Feature"},
	{"geometry":{"coordinates":[-0.884395,41.670077],"type":"Point"},"properties":{"osm_id":"1607041234","tag":{"amenity":"recycling","recycling:green_waste":"yes","recycling_type":"container"}},"type":"Feature"},
	{"geometry":{"coordinates":[-0.894685,41.67262],"type":"Point"},"properties":{"osm_id":"1607041288","tag":{"amenity":"recycling","recycling:cans":"yes","recycling_type":"container"}},"type":"Feature"},
	{"geometry":{"coordinates":[-0.894708,41.67262],"type":"Point"},"properties":{"osm_id":"1607041291","tag":{"amenity":"recycling","recycling:cardboard":"yes","recycling:paper":"yes","recycling_type":"container"}},"type":"Feature"},
	{"geometry":{"coordinates":[-0.894732,41.67262],"type":"Point"},"properties":{"osm_id":"1607041295","tag":{"amenity":"recycling","recycling:glass_bottles":"yes","recycling_type":"container"}},"type":"Feature"},
	{"geometry":{"coordinates":[-0.882988,41.668234],"type":"Point"},"properties":{"osm_id":"1614486927","tag":{"amenity":"waste_basket"}},"type":"Feature"},
	{"geometry":{"coordinates":[-0.883558,41.668252],"type":"Point"},"properties":{"osm_id":"1614486928","tag":{"amenity":"waste_basket"}},"type":"Feature"},
	{"geometry":{"coordinates":[-0.883664,41.668739],"type":"Point"},"properties":{"osm_id":"1614486934","tag":{"amenity":"waste_basket"}},"type":"Feature"},
	{"geometry":{"coordinates":[-0.880979,41.657174],"type":"Point"},"properties":{"osm_id":"1776117885","tag":{"amenity":"waste_basket"}},"type":"Feature"},
	{"geometry":{"coordinates":[-0.879295,41.652564],"type":"Point"},"properties":{"osm_id":"1778879975","tag":{"amenity":"waste_basket"}},"type":"Feature"},
	{"geometry":{"coordinates":[-0.887363,41.640164],"type":"Point"},"properties":{"osm_id":"2089394500","tag":{"amenity":"recycling","recycling:batteries":"no","recycling:books":"yes","recycling:cans":"yes","recycling:cardboard":"yes","recycling:cartons":"yes","recycling:clothes":"no","recycling:electrical_appliances":"no","recycling:glass_bottles":"yes","recycling:green_waste":"no","recycling:magazines":"yes","recycling:newspaper":"yes","recycling:paper":"yes","recycling:paper_packaging":"yes","recycling:plastic":"yes","recycling:plastic_bottles":"yes","recycling:plastic_packaging":"yes","recycling:scrap_metal":"yes","recycling:small_appliances":"no","recycling:waste":"no","recycling:wood":"no","recycling_type":"container"}},"type":"Feature"},
	{"geometry":{"coordinates":[-0.888678,41.650384],"type":"Point"},"properties":{"osm_id":"3027477833","tag":{"amenity":"recycling","recycling:batteries":"yes","recycling:cans":"no","recycling:clothes":"no","recycling:glass":"no","recycling:paper":"no","recycling:scrap_metal":"no","recycling_type":"container"}},"type":"Feature"},
	{"geometry":{"coordinates":[-0.88965,41.650621],"type":"Point"},"properties":{"osm_id":"3027477835","tag":{"amenity":"recycling","recycling:batteries":"no","recycling:cans":"no","recycling:clothes":"no","recycling:glass_bottles":"yes","recycling:paper":"yes","recycling:scrap_metal":"no","recycling_type":"container"}},"type":"Feature"},
	{"geometry":{"coordinates":[-0.88882,41.650212],"type":"Point"},"properties":{"osm_id":"3027477933","tag":{"amenity":"recycling","recycling:batteries":"no","recycling:cans":"no","recycling:clothes":"no","recycling:glass_bottles":"yes","recycling:paper":"no","recycling:scrap_metal":"no","recycling_type":"container"}},"type":"Feature"},
	{"geometry":{"coordinates":[-0.88584,41.650959],"type":"Point"},"properties":{"osm_id":"3027564834","tag":{"amenity":"recycling","mapillary":"I4pWREEwlFRFkIpUzgZRuw","recycling:batteries":"no","recycling:cans":"yes","recycling:clothes":"no","recycling:glass_bottles":"yes","recycling:paper":"yes","recycling:plastic":"yes","recycling:scrap_metal":"no","recycling_type":"container"}},"type":"Feature"},
	{"geometry":{"coordinates":[-0.885757,41.649287],"type":"Point"},"properties":{"osm_id":"3027565034","tag":{"amenity":"recycling","recycling:batteries":"no","recycling:cans":"no","recycling:clothes":"no","recycling:glass_bottles":"yes","recycling:paper":"yes","recycling:scrap_metal":"no","recycling_type":"container"}},"type":"Feature"},
	{"geometry":{"coordinates":[-0.887003,41.65064],"type":"Point"},"properties":{"osm_id":"3027576133","tag":{"amenity":"recycling","recycling:batteries":"no","recycling:cans":"no","recycling:clothes":"no","recycling:glass_bottles":"yes","recycling:paper":"yes","recycling:scrap_metal":"no","recycling_type":"container"}},"type":"Feature"},
	{"geometry":{"coordinates":[-0.88529,41.649604],"type":"Point"},"properties":{"osm_id":"3027579434","tag":{"amenity":"recycling","recycling:batteries":"no","recycling:cans":"no","recycling:clothes":"yes","recycling:glass":"no","recycling:paper":"no","recycling:scrap_metal":"no","recycling_type":"container"}},"type":"Feature"},
	{"geometry":{"coordinates":[-0.88247,41.648609],"type":"Point"},"properties":{"osm_id":"3034490434","tag":{"amenity":"recycling","recycling:batteries":"no","recycling:cans":"no","recycling:clothes":"no","recycling:glass_bottles":"yes","recycling:paper":"yes","recycling:scrap_metal":"no","recycling_type":"container"}},"type":"Feature"},
	{"geometry":{"coordinates":[-0.886899,41.648555],"type":"Point"},"properties":{"osm_id":"3034497433","tag":{"amenity":"recycling","recycling:batteries":"no","recycling:cans":"no","recycling:clothes":"no","recycling:glass_bottles":"yes","recycling:paper":"yes","recycling:scrap_metal":"no","recycling_type":"container"}},"type":"Feature"},
	{"geometry":{"coordinates":[-0.882468,41.647704],"type":"Point"},"properties":{"osm_id":"3034497533","tag":{"amenity":"recycling","recycling:batteries":"no","recycling:cans":"no","recycling:clothes":"no","recycling:glass_bottles":"yes","recycling:paper":"yes","recycling:scrap_metal":"no","recycling_type":"container"}},"type":"Feature"},
	{"geometry":{"coordinates":[-0.886019,41.668886],"type":"Point"},"properties":{"osm_id":"3207694297","tag":{"amenity":"recycling","operator":"FCC","recycling:cartons":"yes","recycling:glass_bottles":"yes","recycling:plastic":"yes","recycling:plastic_bottles":"yes","recycling:plastic_packaging":"yes","recycling_type":"container"}},"type":"Feature"},
	{"geometry":{"coordinates":[-0.885373,41.668935],"type":"Point"},"properties":{"osm_id":"3207694327","tag":{"amenity":"recycling","recycling:cartons":"yes","recycling:glass_bottles":"yes","recycling:magazines":"yes","recycling:newspaper":"yes","recycling:paper":"yes","recycling:paper_packaging":"yes","recycling:plastic":"yes","recycling:plastic_bottles":"yes","recycling:plastic_packaging":"yes","recycling_type":"container"}},"type":"Feature"},
	{"geometry":{"coordinates":[-0.884968,41.669395],"type":"Point"},"properties":{"osm_id":"3207737607","tag":{"amenity":"waste_basket"}},"type":"Feature"},
	{"geometry":{"coordinates":[-0.886679,41.669684],"type":"Point"},"properties":{"osm_id":"3207753148","tag":{"amenity":"waste_basket"}},"type":"Feature"},
	{"geometry":{"coordinates":[-0.884965,41.669636],"type":"Point"},"properties":{"osm_id":"3207753479","tag":{"amenity":"waste_basket"}},"type":"Feature"},
	{"geometry":{"coordinates":[-0.885502,41.670041],"type":"Point"},"properties":{"osm_id":"3207753669","tag":{"amenity":"waste_basket"}},"type":"Feature"},
	{"geometry":{"coordinates":[-0.884917,41.668933],"type":"Point"},"properties":{"osm_id":"3207754766","tag":{"amenity":"waste_basket"}},"type":"Feature"},
	{"geometry":{"coordinates":[-0.884909,41.668253],"type":"Point"},"properties":{"osm_id":"3207755169","tag":{"amenity":"waste_basket"}},"type":"Feature"},
	{"geometry":{"coordinates":[-0.886923,41.669558],"type":"Point"},"properties":{"osm_id":"3207755553","tag":{"amenity":"waste_basket"}},"type":"Feature"},
	{"geometry":{"coordinates":[-0.884907,41.670062],"type":"Point"},"properties":{"osm_id":"3519619022","tag":{"amenity":"waste_basket"}},"type":"Feature"},
	{"geometry":{"coordinates":[-0.885991,41.670723],"type":"Point"},"properties":{"osm_id":"3519659070","tag":{"amenity":"waste_basket"}},"type":"Feature"},
	{"geometry":{"coordinates":[-0.885905,41.671068],"type":"Point"},"properties":{"osm_id":"3519659071","tag":{"amenity":"waste_basket"}},"type":"Feature"},
	{"geometry":{"coordinates":[-0.887164,41.683007],"type":"Point"},"properties":{"osm_id":"3729041489","tag":{"amenity":"recycling","operator":"FCC","recycling:cans":"yes","recycling:glass_bottles":"yes","recycling:paper":"yes","recycling:plastic":"yes","recycling_type":"container"}},"type":"Feature"},
	{"geometry":{"coordinates":[-0.88843,41.68423],"type":"Point"},"properties":{"osm_id":"3735084413","tag":{"amenity":"recycling","operator":"FCC","recycling:cans":"yes","recycling:glass_bottles":"yes","recycling:paper":"yes","recycling:plastic":"yes","recycling_type":"container"}},"type":"Feature"},
	{"geometry":{"coordinates":[-0.884437,41.652362],"type":"Point"},"properties":{"osm_id":"3746412405","tag":{"amenity":"recycling","recycling:cans":"yes","recycling:glass_bottles":"yes","recycling:paper":"yes","recycling:plastic":"yes","recycling_type":"container"}},"type":"Feature"},
	{"geometry":{"coordinates":[-0.90572,41.647664],"type":"Point"},"properties":{"osm_id":"3752740333","tag":{"amenity":"recycling"}},"type":"Feature"},
	{"geometry":{"coordinates":[-0.88205,41.642536],"type":"Point"},"properties":{"osm_id":"3755691151","tag":{"amenity":"recycling","mapillary":"lB1vhmMLeTqPjmjfURkHtg","recycling_type":"container","survey:date":"2018-07-27"}},"type":"Feature"},
	{"geometry":{"coordinates":[-0.88683,41.666349],"type":"Point"},"properties":{"osm_id":"3768712706","tag":{"amenity":"waste_basket"}},"type":"Feature"},
	{"geometry":{"coordinates":[-0.887157,41.684225],"type":"Point"},"properties":{"osm_id":"3827560918","tag":{"amenity":"recycling","operator":"FCC","recycling:cans":"yes","recycling:glass_bottles":"yes","recycling:paper":"yes","recycling:plastic":"yes","recycling_type":"container"}},"type":"Feature"},
	{"geometry":{"coordinates":[-0.885203,41.673166],"type":"Point"},"properties":{"osm_id":"3827728446","tag":{"amenity":"recycling","operator":"FCC","recycling:cans":"yes","recycling:glass_bottles":"yes","recycling:paper":"yes","recycling_type":"container"}},"type":"Feature"},
	{"geometry":{"coordinates":[-0.943352,41.658774],"type":"Point"},"properties":{"osm_id":"3835860533","tag":{"amenity":"recycling","operator":"FCC","recycling:cans":"yes","recycling:glass_bottles":"yes","recycling:paper":"yes","recycling:plastic":"yes","recycling_type":"container"}},"type":"Feature"},
	{"geometry":{"coordinates":[-0.94119,41.658631],"type":"Point"},"properties":{"osm_id":"3835860534","tag":{"amenity":"recycling","operator":"FCC","recycling:cans":"yes","recycling:glass_bottles":"yes","recycling:paper":"yes","recycling:plastic":"yes","recycling_type":"container"}},"type":"Feature"},
	{"geometry":{"coordinates":[-0.882984,41.664832],"type":"Point"},"properties":{"osm_id":"3844274689","tag":{"amenity":"recycling","operator":"FCC","recycling:cans":"yes","recycling:glass_bottles":"yes","recycling:paper":"yes","recycling:plastic":"yes","recycling_type":"container"}},"type":"Feature"},
	{"geometry":{"coordinates":[-0.88888,41.656736],"type":"Point"},"properties":{"osm_id":"3848884242","tag":{"amenity":"recycling","operator":"FCC","recycling:cans":"yes","recycling:glass_bottles":"yes","recycling:paper":"yes","recycling:plastic":"yes","recycling_type":"container"}},"type":"Feature"},
	{"geometry":{"coordinates":[-0.888434,41.657813],"type":"Point"},"properties":{"osm_id":"3848885724","tag":{"amenity":"recycling","operator":"FCC","recycling:cans":"yes","recycling:glass_bottles":"yes","recycling:paper":"yes","recycling:plastic":"yes","recycling_type":"container"}},"type":"Feature"},
	{"geometry":{"coordinates":[-0.889345,41.658173],"type":"Point"},"properties":{"osm_id":"3848885725","tag":{"amenity":"recycling","operator":"FCC","recycling:cans":"yes","recycling:glass_bottles":"yes","recycling:paper":"yes","recycling:plastic":"yes","recycling_type":"container"}},"type":"Feature"},
	{"geometry":{"coordinates":[-0.907221,41.646896],"type":"Point"},"properties":{"name":"aRopa2","osm_id":"3874375432","tag":{"amenity":"recycling","operator":"Ayuntamiento de Zaragoza","recycling:clothes":"yes"}},"type":"Feature"},
	{"geometry":{"coordinates":[-0.903238,41.655061],"type":"Point"},"properties":{"osm_id":"4020448765","tag":{"amenity":"recycling","operator":"FCC","recycling:cans":"yes","recycling:glass_bottles":"yes","recycling:paper":"yes","recycling:plastic":"yes","recycling_type":"container"}},"type":"Feature"},
	{"geometry":{"coordinates":[-0.910124,41.659191],"type":"Point"},"properties":{"osm_id":"4020479195","tag":{"amenity":"recycling","operator":"FCC","recycling:cans":"yes","recycling:glass_bottles":"yes","recycling:paper":"yes","recycling:plastic":"yes","recycling_type":"container"}},"type":"Feature"},
	{"geometry":{"coordinates":[-0.897194,41.670635],"type":"Point"},"properties":{"osm_id":"4187457718","tag":{"amenity":"recycling","operator":"FCC","recycling:cans":"yes","recycling:glass_bottles":"yes","recycling:paper":"yes","recycling:plastic":"yes","recycling_type":"container"}},"type":"Feature"},
	{"geometry":{"coordinates":[-0.887861,41.658463],"type":"Point"},"properties":{"osm_id":"4196793695","tag":{"amenity":"recycling","operator":"FCC","recycling:glass":"yes","recycling:paper":"yes","recycling:plastic":"yes"}},"type":"Feature"},
	{"geometry":{"coordinates":[-0.880935,41.657155],"type":"Point"},"properties":{"osm_id":"4202437899","tag":{"amenity":"waste_basket"}},"type":"Feature"},
	{"geometry":{"coordinates":[-0.880979,41.656998],"type":"Point"},"properties":{"osm_id":"4202437900","tag":{"amenity":"waste_basket"}},"type":"Feature"},
	{"geometry":{"coordinates":[-0.882713,41.663517],"type":"Point"},"properties":{"osm_id":"4395993742","tag":{"amenity":"recycling","operator":"FCC"}},"type":"Feature"},
	{"geometry":{"coordinates":[-0.879611,41.653763],"type":"Point"},"properties":{"osm_id":"4412508249","tag":{"amenity":"waste_basket"}},"type":"Feature"},
	{"geometry":{"coordinates":[-0.88024,41.654023],"type":"Point"},"properties":{"highway":"street_lamp","osm_id":"4412508261","tag":{"amenity":"waste_basket"}},"type":"Feature"},
	{"geometry":{"coordinates":[-0.880434,41.654621],"type":"Point"},"properties":{"osm_id":"4412508415","tag":{"amenity":"waste_basket"}},"type":"Feature"},
	{"geometry":{"coordinates":[-0.879041,41.654869],"type":"Point"},"properties":{"osm_id":"4418171325","tag":{"amenity":"waste_basket"}},"type":"Feature"},
	{"geometry":{"coordinates":[-0.879392,41.655694],"type":"Point"},"properties":{"osm_id":"4418189388","tag":{"amenity":"waste_basket"}},"type":"Feature"},
	{"geometry":{"coordinates":[-0.88645,41.640234],"type":"Point"},"properties":{"osm_id":"4419236089","tag":{"amenity":"waste_basket"}},"type":"Feature"},
	{"geometry":{"coordinates":[-0.893557,41.655665],"type":"Point"},"properties":{"osm_id":"4430319790","tag":{"amenity":"recycling","location":"overground","operator":"FCC","recycling:glass_bottles":"yes","recycling:paper":"yes","recycling:plastic":"yes","recycling_type":"container"}},"type":"Feature"},
	{"geometry":{"coordinates":[-0.885902,41.65119],"type":"Point"},"properties":{"osm_id":"4471599274","tag":{"amenity":"waste_basket"}},"type":"Feature"},
	{"geometry":{"coordinates":[-0.891316,41.658827],"type":"Point"},"properties":{"osm_id":"4477274995","tag":{"amenity":"recycling","recycling:aluminium":"yes","recycling:cans":"yes","recycling:cardboard":"yes","recycling:glass_bottles":"yes","recycling:paper":"yes","recycling:plastic":"yes","recycling:plastic_bottles":"yes","recycling:plastic_packaging":"yes","recycling_type":"container"}},"type":"Feature"},
	{"geometry":{"coordinates":[-0.886761,41.666492],"type":"Point"},"properties":{"osm_id":"4491444474","tag":{"amenity":"waste_basket"}},"type":"Feature"},
	{"geometry":{"coordinates":[-0.894298,41.641116],"type":"Point"},"properties":{"osm_id":"4511212038","tag":{"amenity":"waste_basket"}},"type":"Feature"},
	{"geometry":{"coordinates":[-0.89493,41.647193],"type":"Point"},"properties":{"osm_id":"4876094945","tag":{"amenity":"recycling","recycling:glass_bottles":"yes","recycling:paper":"yes","recycling:plastic":"yes","recycling_type":"container"}},"type":"Feature"},
	{"geometry":{"coordinates":[-0.893045,41.671079],"type":"Point"},"properties":{"osm_id":"5122093861","tag":{"amenity":"recycling","recycling:aluminium":"yes","recycling:beverage_cartons":"yes","recycling:cans":"yes","recycling:plastic":"yes","recycling:plastic_bottles":"yes","recycling:plastic_packaging":"yes","recycling_type":"container"}},"type":"Feature"},
	{"geometry":{"coordinates":[-0.893006,41.671095],"type":"Point"},"properties":{"osm_id":"5122093862","tag":{"amenity":"recycling","recycling:books":"yes","recycling:cardboard":"yes","recycling:magazines":"yes","recycling:newspaper":"yes","recycling:paper":"yes","recycling:paper_packaging":"yes","recycling_type":"container"}},"type":"Feature"},
	{"geometry":{"coordinates":[-0.893071,41.671098],"type":"Point"},"properties":{"osm_id":"5122093863","tag":{"amenity":"recycling","recycling:glass_bottles":"yes","recycling_type":"container"}},"type":"Feature"},
	{"geometry":{"coordinates":[-0.893069,41.671139],"type":"Point"},"properties":{"osm_id":"5122093864","tag":{"amenity":"recycling","recycling:green_waste":"yes","recycling:organic":"yes","recycling:waste":"yes","recycling_type":"container"}},"type":"Feature"},
	{"geometry":{"coordinates":[-0.893102,41.671137],"type":"Point"},"properties":{"osm_id":"5122093865","tag":{"amenity":"recycling","recycling:green_waste":"yes","recycling:organic":"yes","recycling:waste":"yes","recycling_type":"container"}},"type":"Feature"},
	{"geometry":{"coordinates":[-0.879165,41.650285],"type":"Point"},"properties":{"osm_id":"5612118230","tag":{"amenity":"waste_disposal"}},"type":"Feature"},
	{"geometry":{"coordinates":[-0.892481,41.641397],"type":"Point"},"properties":{"osm_id":"5615577732","tag":{"amenity":"waste_disposal"}},"type":"Feature"},
	{"geometry":{"coordinates":[-0.892103,41.641791],"type":"Point"},"properties":{"osm_id":"5615732924","tag":{"amenity":"waste_disposal"}},"type":"Feature"},
	{"geometry":{"coordinates":[-0.881975,41.653877],"type":"Point"},"properties":{"osm_id":"5627425732","tag":{"amenity":"waste_disposal"}},"type":"Feature"},
	{"geometry":{"coordinates":[-0.882373,41.654201],"type":"Point"},"properties":{"osm_id":"5627427922","tag":{"amenity":"waste_disposal"}},"type":"Feature"},
	{"geometry":{"coordinates":[-0.883739,41.64673],"type":"Point"},"properties":{"osm_id":"5630834940","tag":{"amenity":"waste_disposal"}},"type":"Feature"},
	{"geometry":{"coordinates":[-0.882805,41.647063],"type":"Point"},"properties":{"osm_id":"5630849123","tag":{"amenity":"waste_disposal"}},"type":"Feature"},
	{"geometry":{"coordinates":[-0.879545,41.649332],"type":"Point"},"properties":{"osm_id":"5633574822","tag":{"amenity":"waste_disposal"}},"type":"Feature"},
	{"geometry":{"coordinates":[-0.882061,41.649788],"type":"Point"},"properties":{"osm_id":"5638268431","tag":{"amenity":"waste_disposal"}},"type":"Feature"},
	{"geometry":{"coordinates":[-0.919055,41.650211],"type":"Point"},"properties":{"osm_id":"5921499248","tag":{"amenity":"recycling","recycling_type":"container"}},"type":"Feature"},
	{"geometry":{"coordinates":[-0.890993,41.658259],"type":"Point"},"properties":{"osm_id":"6008080989","tag":{"amenity":"recycling","recycling:glass_bottles":"yes","recycling:paper":"yes","recycling:plastic":"yes","recycling_type":"container"}},"type":"Feature"},
	{"geometry":{"coordinates":[-0.943294,41.65925],"type":"Point"},"properties":{"osm_id":"6308424321","tag":{"amenity":"recycling","recycling:clothes":"yes","recycling_type":"container"}},"type":"Feature"},
	{"geometry":{"coordinates":[-0.887535,41.683365],"type":"Point"},"properties":{"osm_id":"6336577516","tag":{"amenity":"recycling","level":"2","recycling:cans":"yes","recycling_type":"container"}},"type":"Feature"},
	{"geometry":{"coordinates":[-0.883944,41.64595],"type":"Point"},"properties":{"osm_id":"6443900085","tag":{"amenity":"recycling","recycling:paper":"yes","recycling:plastic":"yes","recycling_type":"container"}},"type":"Feature"},
	{"geometry":{"coordinates":[-0.888811,41.669423],"type":"Point"},"properties":{"osm_id":"6618396336","tag":{"amenity":"waste_basket"}},"type":"Feature"},
	{"geometry":{"coordinates":[-0.884921,41.650184],"type":"Point"},"properties":{"osm_id":"6655786330","tag":{"amenity":"recycling","recycling:batteries":"yes","recycling_type":"container"}},"type":"Feature"},
	{"geometry":{"coordinates":[-0.916599,41.650394],"type":"Point"},"properties":{"osm_id":"6738099528","tag":{"amenity":"recycling","recycling_type":"container"}},"type":"Feature"},
	{"geometry":{"coordinates":[-0.91512,41.651197],"type":"Point"},"properties":{"osm_id":"6738099529","tag":{"amenity":"recycling","recycling_type":"container"}},"type":"Feature"},
	{"geometry":{"coordinates":[-0.929551,41.66241],"type":"Point"},"properties":{"osm_id":"6761865160","tag":{"amenity":"recycling","recycling_type":"container"}},"type":"Feature"},
	{"geometry":{"coordinates":[-0.893842,41.640332],"type":"Point"},"properties":{"osm_id":"6777825400","tag":{"amenity":"recycling","recycling_type":"container"}},"type":"Feature"},
	{"geometry":{"coordinates":[-0.893662,41.640239],"type":"Point"},"properties":{"osm_id":"6777825401","tag":{"amenity":"waste_basket"}},"type":"Feature"},
	{"geometry":{"coordinates":[-0.893393,41.640305],"type":"Point"},"properties":{"osm_id":"6777825405","tag":{"amenity":"waste_basket"}},"type":"Feature"},
	{"geometry":{"coordinates":[-0.893515,41.640194],"type":"Point"},"properties":{"osm_id":"6777825409","tag":{"amenity":"waste_basket"}},"type":"Feature"},
	{"geometry":{"coordinates":[-0.892031,41.655114],"type":"Point"},"properties":{"osm_id":"7069192057","tag":{"amenity":"recycling","location":"underground","recycling:cans":"yes","recycling:glass_bottles":"yes","recycling:paper":"yes","recycling:plastic_bottles":"yes","recycling:plastic_packaging":"yes","recycling_type":"container"}},"type":"Feature"},
	{"geometry":{"coordinates":[-0.884098,41.653757],"type":"Point"},"properties":{"osm_id":"7069192058","tag":{"amenity":"recycling","recycling:cans":"yes","recycling:glass_bottles":"yes","recycling:paper":"yes","recycling:plastic_bottles":"yes","recycling:plastic_packaging":"yes","recycling_type":"container"}},"type":"Feature"},
	{"geometry":{"coordinates":[-0.883653,41.646736],"type":"Point"},"properties":{"osm_id":"7105500041","tag":{"amenity":"recycling","recycling:clothes":"yes","recycling:glass_bottles":"yes","recycling:paper":"yes","recycling:plastic":"yes","recycling_type":"container"}},"type":"Feature"},
	{"geometry":{"coordinates":[-0.884243,41.646264],"type":"Point"},"properties":{"osm_id":"7105500042","tag":{"amenity":"recycling","recycling:glass_bottles":"yes","recycling:paper":"no","recycling:plastic":"no","recycling_type":"container"}},"type":"Feature"},
	{"geometry":{"coordinates":[-0.880111,41.657549],"type":"Point"},"properties":{"osm_id":"7350582506","tag":{"amenity":"recycling","recycling_type":"container"}},"type":"Feature"},
	{"geometry":{"coordinates":[-0.885008,41.662863],"type":"Point"},"properties":{"osm_id":"7547237986","tag":{"amenity":"recycling","recycling_type":"container"}},"type":"Feature"},
	{"geometry":{"coordinates":[-0.885719,41.662508],"type":"Point"},"properties":{"osm_id":"7547237987","tag":{"amenity":"recycling","recycling_type":"container"}},"type":"Feature"},
	{"geometry":{"coordinates":[-0.896785,41.642087],"type":"Point"},"properties":{"osm_id":"7713085292","tag":{"amenity":"waste_basket"}},"type":"Feature"},
	{"geometry":{"coordinates":[-0.887501,41.673998],"type":"Point"},"properties":{"osm_id":"7883256347","tag":{"amenity":"recycling","recycling_type":"container"}},"type":"Feature"}
]
}
