{
"type": "FeatureCollection",
"features": [
	{"geometry":{"coordinates":[-0.934911,41.584348],"type":"Point"},"properties":{"name":"Punto Limpio Cuarte","osm_id":"1377624276","tag":{"amenity":"recycling"}},"type":"Feature"},
	{"geometry":{"coordinates":[-0.879345,41.632282],"type":"Point"},"properties":{"osm_id":"3727915196","tag":{"amenity":"recycling","mapillary":"qBYAxutCiFwkphXTJ2shBg","recycling:cans":"yes","recycling:clothes":"no","recycling:glass":"yes","recycling:paper":"yes","recycling_type":"container","survey:date":"2019-05-22"}},"type":"Feature"},
	{"geometry":{"coordinates":[-0.907724,41.629605],"type":"Point"},"properties":{"osm_id":"3828451976","tag":{"amenity":"recycling","operator":"FCC","recycling:cans":"yes","recycling:glass_bottles":"yes","recycling:paper":"yes","recycling:plastic":"yes","recycling_type":"container"}},"type":"Feature"},
	{"geometry":{"coordinates":[-0.910216,41.630712],"type":"Point"},"properties":{"osm_id":"3828458977","tag":{"amenity":"recycling","operator":"FCC","recycling:cans":"yes","recycling:glass_bottles":"yes","recycling:paper":"yes","recycling:plastic":"yes","recycling_type":"container"}},"type":"Feature"},
	{"geometry":{"coordinates":[-0.911733,41.632223],"type":"Point"},"properties":{"osm_id":"3833604376","tag":{"amenity":"recycling","operator":"FCC","recycling:cans":"yes","recycling:glass_bottles":"yes","recycling:paper":"yes","recycling:plastic":"yes","recycling_type":"container"}},"type":"Feature"},
	{"geometry":{"coordinates":[-0.882726,41.630019],"type":"Point"},"properties":{"name":"aRopa2","osm_id":"3835601388","tag":{"amenity":"recycling","operator":"Ayuntamiento de Zaragoza","recycling:clothes":"yes","recycling_type":"container","website":"http://www.aropa2.com"}},"type":"Feature"},
	{"geometry":{"coordinates":[-0.881805,41.634534],"type":"Point"},"properties":{"osm_id":"3844357996","tag":{"amenity":"recycling","operator":"FCC","recycling:cans":"yes","recycling:glass_bottles":"yes","recycling:paper":"yes","recycling:plastic":"yes","recycling_type":"container"}},"type":"Feature"},
	{"geometry":{"coordinates":[-0.882556,41.631176],"type":"Point"},"properties":{"osm_id":"3845938835","tag":{"amenity":"recycling","operator":"FCC","recycling:cans":"yes","recycling:glass_bottles":"yes","recycling:paper":"yes","recycling:plastic":"yes","recycling_type":"container"}},"type":"Feature"},
	{"geometry":{"coordinates":[-0.884815,41.638502],"type":"Point"},"properties":{"osm_id":"4014512390","tag":{"amenity":"recycling","location":"overground","mapillary":"Pkk8bAiLFV-efpHMBFlOsA","operator":"FCC","recycling:cans":"yes","recycling:glass_bottles":"yes","recycling:paper":"yes","recycling:plastic":"yes","recycling_type":"container"}},"type":"Feature"},
	{"geometry":{"coordinates":[-0.881851,41.627964],"type":"Point"},"properties":{"osm_id":"4174826031","tag":{"amenity":"recycling","location":"overground","operator":"FCC","recycling:cardboard":"yes","recycling:paper":"yes","recycling:plastic":"yes","recycling:plastic_bottles":"yes","recycling_type":"container"}},"type":"Feature"},
	{"geometry":{"coordinates":[-0.884977,41.634184],"type":"Point"},"properties":{"osm_id":"4200671688","tag":{"amenity":"waste_disposal"}},"type":"Feature"},
	{"geometry":{"coordinates":[-0.884976,41.634202],"type":"Point"},"properties":{"osm_id":"4200672089","tag":{"amenity":"waste_disposal"}},"type":"Feature"},
	{"geometry":{"coordinates":[-0.88654,41.640011],"type":"Point"},"properties":{"osm_id":"4419237690","tag":{"amenity":"waste_basket"}},"type":"Feature"},
	{"geometry":{"coordinates":[-0.884421,41.636844],"type":"Point"},"properties":{"osm_id":"4473059496","tag":{"amenity":"recycling","location":"overground","recycling_type":"container"}},"type":"Feature"},
	{"geometry":{"coordinates":[-0.898084,41.639614],"type":"Point"},"properties":{"osm_id":"4493084469","tag":{"amenity":"recycling","recycling:PET":"yes","recycling:aluminium":"yes","recycling:cans":"yes","recycling:cardboard":"yes","recycling:glass_bottles":"yes","recycling:green_waste":"yes","recycling:paper":"yes","recycling:plastic_bottles":"yes","recycling:plastic_packaging":"yes","recycling:waste":"yes","recycling_type":"container"}},"type":"Feature"},
	{"geometry":{"coordinates":[-0.880572,41.629982],"type":"Point"},"properties":{"osm_id":"4512031695","tag":{"amenity":"waste_disposal","mapillary":"I9riGMg7WZjy6DCaHHDuNA"}},"type":"Feature"},
	{"geometry":{"coordinates":[-0.880228,41.630267],"type":"Point"},"properties":{"osm_id":"4522138479","tag":{"amenity":"waste_basket"}},"type":"Feature"},
	{"geometry":{"coordinates":[-0.889058,41.608458],"type":"Point"},"properties":{"osm_id":"5615380429","tag":{"amenity":"waste_disposal"}},"type":"Feature"},
	{"geometry":{"coordinates":[-0.88515,41.633519],"type":"Point"},"properties":{"name":"Punto Limpio M\u00c3\u00b3vil de Torrero","osm_id":"5711444299","tag":{"amenity":"recycling","opening_hours":"Mo,Th 10:30-12:15","recycling_type":"centre"}},"type":"Feature"},
	{"geometry":{"coordinates":[-0.881851,41.632023],"type":"Point"},"properties":{"highway":"street_lamp","osm_id":"5983424698","tag":{"amenity":"waste_basket"}},"type":"Feature"},
	{"geometry":{"coordinates":[-0.882077,41.632614],"type":"Point"},"properties":{"osm_id":"5983424699","tag":{"amenity":"waste_basket"}},"type":"Feature"},
	{"geometry":{"coordinates":[-0.882493,41.632666],"type":"Point"},"properties":{"osm_id":"6561702562","tag":{"amenity":"waste_basket"}},"type":"Feature"},
	{"geometry":{"coordinates":[-0.882406,41.6321],"type":"Point"},"properties":{"osm_id":"6561702563","tag":{"amenity":"waste_basket"}},"type":"Feature"},
	{"geometry":{"coordinates":[-0.911386,41.629163],"type":"Point"},"properties":{"osm_id":"6592206721","tag":{"amenity":"recycling","operator":"C\u00c3\u00a1ritas","recycling:clothes":"yes","recycling_type":"container"}},"type":"Feature"},
	{"geometry":{"coordinates":[-0.879121,41.629404],"type":"Point"},"properties":{"osm_id":"6597302246","tag":{"amenity":"waste_basket"}},"type":"Feature"},
	{"geometry":{"coordinates":[-0.879952,41.629285],"type":"Point"},"properties":{"osm_id":"6597302247","tag":{"amenity":"waste_basket"}},"type":"Feature"},
	{"geometry":{"coordinates":[-0.894142,41.638323],"type":"Point"},"properties":{"osm_id":"6750831848","tag":{"amenity":"recycling","recycling_type":"container"}},"type":"Feature"},
	{"geometry":{"coordinates":[-0.941589,41.62653],"type":"Point"},"properties":{"osm_id":"7117178690","tag":{"amenity":"recycling","recycling_type":"container"}},"type":"Feature"},
	{"geometry":{"coordinates":[-0.944704,41.628961],"type":"Point"},"properties":{"osm_id":"7117178691","tag":{"amenity":"recycling","recycling_type":"container"}},"type":"Feature"},
	{"geometry":{"coordinates":[-0.941468,41.632755],"type":"Point"},"properties":{"osm_id":"7117178695","tag":{"amenity":"recycling","recycling_type":"container"}},"type":"Feature"},
	{"geometry":{"coordinates":[-0.944766,41.638916],"type":"Point"},"properties":{"osm_id":"7117178718","tag":{"amenity":"recycling","recycling_type":"container"}},"type":"Feature"},
	{"geometry":{"coordinates":[-0.946104,41.635194],"type":"Point"},"properties":{"osm_id":"7603237640","tag":{"amenity":"recycling","recycling:glass":"yes","recycling:paper":"yes","recycling:plastic":"yes","recycling:waste":"yes","recycling_type":"container"}},"type":"Feature"},
	{"geometry":{"coordinates":[-0.946531,41.634341],"type":"Point"},"properties":{"osm_id":"7603237660","tag":{"amenity":"recycling","recycling:glass":"yes","recycling:paper":"yes","recycling:plastic":"yes","recycling:waste":"yes","recycling_type":"container"}},"type":"Feature"},
	{"geometry":{"coordinates":[-0.902892,41.632809],"type":"Point"},"properties":{"osm_id":"7638252669","tag":{"amenity":"recycling","recycling_type":"container"}},"type":"Feature"},
	{"geometry":{"coordinates":[-0.879658,41.628624],"type":"Point"},"properties":{"osm_id":"7655674587","tag":{"amenity":"waste_basket"}},"type":"Feature"},
	{"geometry":{"coordinates":[-0.879847,41.628474],"type":"Point"},"properties":{"osm_id":"7655674593","tag":{"amenity":"waste_basket"}},"type":"Feature"},
	{"geometry":{"coordinates":[-0.879668,41.628569],"type":"Point"},"properties":{"osm_id":"7655674594","tag":{"amenity":"waste_basket"}},"type":"Feature"},
	{"geometry":{"coordinates":[-0.879605,41.628746],"type":"Point"},"properties":{"osm_id":"7655674596","tag":{"amenity":"waste_basket"}},"type":"Feature"},
	{"geometry":{"coordinates":[-0.879747,41.628844],"type":"Point"},"properties":{"osm_id":"7655674599","tag":{"amenity":"waste_basket"}},"type":"Feature"},
	{"geometry":{"coordinates":[-0.90641,41.633108],"type":"Point"},"properties":{"osm_id":"7658579449","tag":{"amenity":"recycling","recycling_type":"container"}},"type":"Feature"},
	{"geometry":{"coordinates":[-0.888133,41.633819],"type":"Point"},"properties":{"osm_id":"7746311138","tag":{"amenity":"recycling","operator":"C\u00c3\u00a1ritas","recycling:clothes":"yes","recycling_type":"container"}},"type":"Feature"},
	{"geometry":{"coordinates":[-0.883437,41.628725],"type":"Point"},"properties":{"osm_id":"7859192844","tag":{"amenity":"recycling","recycling_type":"container"}},"type":"Feature"},
	{"geometry":{"coordinates":[-0.882436,41.628797],"type":"Point"},"properties":{"osm_id":"7859192847","tag":{"amenity":"recycling","recycling_type":"container"}},"type":"Feature"},
	{"geometry":{"coordinates":[-0.890916,41.629367],"type":"Point"},"properties":{"osm_id":"7859256363","tag":{"amenity":"recycling","recycling_type":"container"}},"type":"Feature"}
]
}
