{
"type": "FeatureCollection",
"features": [
	{"geometry":{"coordinates":[-3.109535,56.217071],"type":"Point"},"properties":{"osm_id":"1068183483","tag":{"amenity":"waste_basket"}},"type":"Feature"},
	{"geometry":{"coordinates":[-3.135659,56.201705],"type":"Point"},"properties":{"osm_id":"2661168944","tag":{"amenity":"recycling"}},"type":"Feature"},
	{"geometry":{"coordinates":[-3.127338,56.18589],"type":"Point"},"properties":{"osm_id":"2677424893","tag":{"amenity":"recycling","recycling:cans":"yes","recycling:clothes":"yes","recycling:glass":"yes","recycling:paper":"yes"}},"type":"Feature"},
	{"geometry":{"coordinates":[-3.124645,56.184933],"type":"Point"},"properties":{"osm_id":"2809758810","tag":{"amenity":"recycling","recycling:cans":"yes","recycling:clothes":"yes","recycling:glass":"yes","recycling:paper":"yes"}},"type":"Feature"},
	{"geometry":{"coordinates":[-3.163583,56.182093],"type":"Point"},"properties":{"name":"Glamis centre recycling point","osm_id":"4269661090","tag":{"amenity":"recycling"}},"type":"Feature"},
	{"geometry":{"coordinates":[-3.134709,56.204282],"type":"Point"},"properties":{"osm_id":"4442476066","tag":{"amenity":"recycling"}},"type":"Feature"}
]
}
