{
"type": "FeatureCollection",
"features": [
	{"geometry":{"coordinates":[-3.106147,55.938355],"type":"Point"},"properties":{"osm_id":"27719682","tag":{"amenity":"recycling"}},"type":"Feature"},
	{"geometry":{"coordinates":[-3.162922,55.926147],"type":"Point"},"properties":{"osm_id":"312789996","tag":{"amenity":"recycling","location":"overground","recycling:clothes":"yes","recycling_type":"container"}},"type":"Feature"},
	{"geometry":{"coordinates":[-3.146173,55.931189],"type":"Point"},"properties":{"osm_id":"313210568","tag":{"amenity":"recycling"}},"type":"Feature"},
	{"geometry":{"coordinates":[-3.093471,55.933837],"type":"Point"},"properties":{"osm_id":"322801532","tag":{"amenity":"recycling","location":"overground","recycling_type":"container"}},"type":"Feature"},
	{"geometry":{"coordinates":[-3.093968,55.948182],"type":"Point"},"properties":{"osm_id":"324632688","tag":{"amenity":"recycling","recycling_type":"container"}},"type":"Feature"},
	{"geometry":{"coordinates":[-3.11681,55.956432],"type":"Point"},"properties":{"osm_id":"364518389","tag":{"amenity":"recycling"}},"type":"Feature"},
	{"geometry":{"coordinates":[-3.133522,55.95611],"type":"Point"},"properties":{"osm_id":"495010191","tag":{"amenity":"recycling"}},"type":"Feature"},
	{"geometry":{"coordinates":[-3.134229,55.95565],"type":"Point"},"properties":{"osm_id":"495010194","tag":{"amenity":"recycling"}},"type":"Feature"},
	{"geometry":{"coordinates":[-3.134942,55.955962],"type":"Point"},"properties":{"osm_id":"495010195","tag":{"amenity":"recycling"}},"type":"Feature"},
	{"geometry":{"coordinates":[-3.12906,55.931225],"type":"Point"},"properties":{"osm_id":"496979620","tag":{"amenity":"recycling"}},"type":"Feature"},
	{"geometry":{"coordinates":[-3.160988,55.971484],"type":"Point"},"properties":{"osm_id":"588704750","tag":{"amenity":"recycling","recycling:cans":"yes","recycling:paper":"yes","recycling:plastic":"yes","recycling_type":"container"}},"type":"Feature"},
	{"geometry":{"coordinates":[-3.10279,55.951505],"type":"Point"},"properties":{"osm_id":"603758615","tag":{"amenity":"recycling","recycling:cans":"yes","recycling:paper":"yes","recycling:plastic":"yes"}},"type":"Feature"},
	{"geometry":{"coordinates":[-3.147339,55.925612],"type":"Point"},"properties":{"osm_id":"765185665","tag":{"amenity":"recycling","location":"overground","recycling_type":"container"}},"type":"Feature"},
	{"geometry":{"coordinates":[-3.147317,55.925556],"type":"Point"},"properties":{"osm_id":"765185667","tag":{"amenity":"recycling","location":"overground","recycling_type":"container"}},"type":"Feature"},
	{"geometry":{"coordinates":[-3.14713,55.925485],"type":"Point"},"properties":{"osm_id":"765185682","tag":{"amenity":"recycling","location":"overground","recycling_type":"container"}},"type":"Feature"},
	{"geometry":{"coordinates":[-3.147337,55.925589],"type":"Point"},"properties":{"osm_id":"765185693","tag":{"amenity":"recycling","location":"overground","recycling_type":"container"}},"type":"Feature"},
	{"geometry":{"coordinates":[-3.147301,55.925545],"type":"Point"},"properties":{"osm_id":"765185705","tag":{"amenity":"recycling","location":"overground","recycling_type":"container"}},"type":"Feature"},
	{"geometry":{"coordinates":[-3.147249,55.925524],"type":"Point"},"properties":{"osm_id":"765185710","tag":{"amenity":"recycling","location":"overground","recycling_type":"container"}},"type":"Feature"},
	{"geometry":{"coordinates":[-3.147193,55.925507],"type":"Point"},"properties":{"osm_id":"765185728","tag":{"amenity":"recycling","location":"overground","recycling_type":"container"}},"type":"Feature"},
	{"geometry":{"coordinates":[-3.147337,55.925642],"type":"Point"},"properties":{"osm_id":"765185755","tag":{"amenity":"recycling","location":"overground","recycling_type":"container"}},"type":"Feature"},
	{"geometry":{"coordinates":[-3.147163,55.925497],"type":"Point"},"properties":{"osm_id":"765185757","tag":{"amenity":"recycling","location":"overground","recycling_type":"container"}},"type":"Feature"},
	{"geometry":{"coordinates":[-3.147092,55.925477],"type":"Point"},"properties":{"osm_id":"765185770","tag":{"amenity":"recycling","location":"overground","recycling_type":"container"}},"type":"Feature"},
	{"geometry":{"coordinates":[-3.147266,55.925528],"type":"Point"},"properties":{"osm_id":"765185782","tag":{"amenity":"recycling","location":"overground","recycling_type":"container"}},"type":"Feature"},
	{"geometry":{"coordinates":[-3.147281,55.925536],"type":"Point"},"properties":{"osm_id":"765185792","tag":{"amenity":"recycling","location":"overground","recycling_type":"container"}},"type":"Feature"},
	{"geometry":{"coordinates":[-3.147226,55.925518],"type":"Point"},"properties":{"osm_id":"765185798","tag":{"amenity":"recycling","location":"overground","recycling_type":"container"}},"type":"Feature"},
	{"geometry":{"coordinates":[-3.151273,55.941164],"type":"Point"},"properties":{"osm_id":"811413905","tag":{"amenity":"waste_basket"}},"type":"Feature"},
	{"geometry":{"coordinates":[-3.122488,55.948305],"type":"Point"},"properties":{"osm_id":"811413915","tag":{"amenity":"waste_basket"}},"type":"Feature"},
	{"geometry":{"coordinates":[-3.152448,55.943973],"type":"Point"},"properties":{"osm_id":"811413920","tag":{"amenity":"waste_basket"}},"type":"Feature"},
	{"geometry":{"coordinates":[-3.152918,55.944824],"type":"Point"},"properties":{"osm_id":"811413936","tag":{"amenity":"waste_basket"}},"type":"Feature"},
	{"geometry":{"coordinates":[-3.144933,55.942306],"type":"Point"},"properties":{"osm_id":"811413940","tag":{"amenity":"waste_basket"}},"type":"Feature"},
	{"geometry":{"coordinates":[-3.152902,55.945007],"type":"Point"},"properties":{"osm_id":"811413941","tag":{"amenity":"waste_basket"}},"type":"Feature"},
	{"geometry":{"coordinates":[-3.134458,55.9458],"type":"Point"},"properties":{"osm_id":"811413945","tag":{"amenity":"waste_basket"}},"type":"Feature"},
	{"geometry":{"coordinates":[-3.145156,55.942161],"type":"Point"},"properties":{"osm_id":"811413950","tag":{"amenity":"waste_basket"}},"type":"Feature"},
	{"geometry":{"coordinates":[-3.136937,55.944849],"type":"Point"},"properties":{"osm_id":"811413952","tag":{"amenity":"waste_basket"}},"type":"Feature"},
	{"geometry":{"coordinates":[-3.11949,55.949693],"type":"Point"},"properties":{"osm_id":"811413953","tag":{"amenity":"waste_basket"}},"type":"Feature"},
	{"geometry":{"coordinates":[-3.115408,55.952196],"type":"Point"},"properties":{"osm_id":"811413957","tag":{"amenity":"waste_basket"}},"type":"Feature"},
	{"geometry":{"coordinates":[-3.130619,55.946986],"type":"Point"},"properties":{"osm_id":"811413962","tag":{"amenity":"waste_basket"}},"type":"Feature"},
	{"geometry":{"coordinates":[-3.15253,55.944616],"type":"Point"},"properties":{"osm_id":"811413972","tag":{"amenity":"waste_basket"}},"type":"Feature"},
	{"geometry":{"coordinates":[-3.142205,55.943486],"type":"Point"},"properties":{"osm_id":"811413977","tag":{"amenity":"waste_basket"}},"type":"Feature"},
	{"geometry":{"coordinates":[-3.131127,55.94691],"type":"Point"},"properties":{"osm_id":"811413979","tag":{"amenity":"waste_basket"}},"type":"Feature"},
	{"geometry":{"coordinates":[-3.123828,55.948105],"type":"Point"},"properties":{"osm_id":"811413990","tag":{"amenity":"waste_basket"}},"type":"Feature"},
	{"geometry":{"coordinates":[-3.132487,55.94647],"type":"Point"},"properties":{"osm_id":"811414008","tag":{"amenity":"waste_basket"}},"type":"Feature"},
	{"geometry":{"coordinates":[-3.118313,55.950436],"type":"Point"},"properties":{"osm_id":"811414010","tag":{"amenity":"waste_basket"}},"type":"Feature"},
	{"geometry":{"coordinates":[-3.116739,55.951407],"type":"Point"},"properties":{"osm_id":"811414018","tag":{"amenity":"waste_basket"}},"type":"Feature"},
	{"geometry":{"coordinates":[-3.121242,55.95951],"type":"Point"},"properties":{"osm_id":"811506452","tag":{"amenity":"waste_basket"}},"type":"Feature"},
	{"geometry":{"coordinates":[-3.111967,55.955527],"type":"Point"},"properties":{"osm_id":"811506455","tag":{"amenity":"waste_basket"}},"type":"Feature"},
	{"geometry":{"coordinates":[-3.125953,55.962352],"type":"Point"},"properties":{"osm_id":"811506456","tag":{"amenity":"waste_basket"}},"type":"Feature"},
	{"geometry":{"coordinates":[-3.114108,55.956388],"type":"Point"},"properties":{"osm_id":"811506458","tag":{"amenity":"waste_basket"}},"type":"Feature"},
	{"geometry":{"coordinates":[-3.113673,55.956106],"type":"Point"},"properties":{"osm_id":"811506460","tag":{"amenity":"waste_basket"}},"type":"Feature"},
	{"geometry":{"coordinates":[-3.119171,55.958607],"type":"Point"},"properties":{"osm_id":"811506462","tag":{"amenity":"waste_basket"}},"type":"Feature"},
	{"geometry":{"coordinates":[-3.111605,55.955376],"type":"Point"},"properties":{"osm_id":"811506463","tag":{"amenity":"waste_basket"}},"type":"Feature"},
	{"geometry":{"coordinates":[-3.118493,55.958242],"type":"Point"},"properties":{"osm_id":"811506480","tag":{"amenity":"waste_basket"}},"type":"Feature"},
	{"geometry":{"coordinates":[-3.115904,55.956749],"type":"Point"},"properties":{"osm_id":"811506484","tag":{"amenity":"waste_basket"}},"type":"Feature"},
	{"geometry":{"coordinates":[-3.1125,55.955728],"type":"Point"},"properties":{"osm_id":"811506489","tag":{"amenity":"waste_basket"}},"type":"Feature"},
	{"geometry":{"coordinates":[-3.119685,55.958644],"type":"Point"},"properties":{"osm_id":"811506495","tag":{"amenity":"waste_basket"}},"type":"Feature"},
	{"geometry":{"coordinates":[-3.111358,55.955282],"type":"Point"},"properties":{"osm_id":"811506499","tag":{"amenity":"waste_basket"}},"type":"Feature"},
	{"geometry":{"coordinates":[-3.116517,55.956896],"type":"Point"},"properties":{"osm_id":"811506504","tag":{"amenity":"waste_basket"}},"type":"Feature"},
	{"geometry":{"coordinates":[-3.112914,55.955908],"type":"Point"},"properties":{"osm_id":"811506505","tag":{"amenity":"waste_basket"}},"type":"Feature"},
	{"geometry":{"coordinates":[-3.111055,55.955178],"type":"Point"},"properties":{"osm_id":"811506510","tag":{"amenity":"waste_basket"}},"type":"Feature"},
	{"geometry":{"coordinates":[-3.113375,55.956121],"type":"Point"},"properties":{"osm_id":"811506524","tag":{"amenity":"waste_basket"}},"type":"Feature"},
	{"geometry":{"coordinates":[-3.111446,55.955319],"type":"Point"},"properties":{"osm_id":"811506535","tag":{"amenity":"waste_basket"}},"type":"Feature"},
	{"geometry":{"coordinates":[-3.123389,55.960797],"type":"Point"},"properties":{"osm_id":"811506550","tag":{"amenity":"waste_basket"}},"type":"Feature"},
	{"geometry":{"coordinates":[-3.118321,55.958135],"type":"Point"},"properties":{"osm_id":"811506555","tag":{"amenity":"waste_basket"}},"type":"Feature"},
	{"geometry":{"coordinates":[-3.113274,55.95607],"type":"Point"},"properties":{"osm_id":"811506563","tag":{"amenity":"waste_basket"}},"type":"Feature"},
	{"geometry":{"coordinates":[-3.129043,55.964256],"type":"Point"},"properties":{"osm_id":"811506564","tag":{"amenity":"waste_basket"}},"type":"Feature"},
	{"geometry":{"coordinates":[-3.117957,55.95785],"type":"Point"},"properties":{"osm_id":"811506569","tag":{"amenity":"waste_basket"}},"type":"Feature"},
	{"geometry":{"coordinates":[-3.117181,55.957321],"type":"Point"},"properties":{"osm_id":"811506570","tag":{"amenity":"waste_basket"}},"type":"Feature"},
	{"geometry":{"coordinates":[-3.11215,55.955599],"type":"Point"},"properties":{"osm_id":"811506571","tag":{"amenity":"waste_basket"}},"type":"Feature"},
	{"geometry":{"coordinates":[-3.14645,55.96994],"type":"Point"},"properties":{"osm_id":"811643368","tag":{"amenity":"waste_basket"}},"type":"Feature"},
	{"geometry":{"coordinates":[-3.150967,55.959339],"type":"Point"},"properties":{"osm_id":"811643389","tag":{"amenity":"waste_basket"}},"type":"Feature"},
	{"geometry":{"coordinates":[-3.152432,55.961732],"type":"Point"},"properties":{"osm_id":"811643393","tag":{"amenity":"waste_basket"}},"type":"Feature"},
	{"geometry":{"coordinates":[-3.152399,55.970949],"type":"Point"},"properties":{"osm_id":"811643455","tag":{"amenity":"waste_basket"}},"type":"Feature"},
	{"geometry":{"coordinates":[-3.15837,55.958015],"type":"Point"},"properties":{"osm_id":"811643481","tag":{"amenity":"waste_basket"}},"type":"Feature"},
	{"geometry":{"coordinates":[-3.155371,55.95922],"type":"Point"},"properties":{"osm_id":"811643483","tag":{"amenity":"waste_basket"}},"type":"Feature"},
	{"geometry":{"coordinates":[-3.154054,55.963599],"type":"Point"},"properties":{"osm_id":"811643541","tag":{"amenity":"waste_basket"}},"type":"Feature"},
	{"geometry":{"coordinates":[-3.143707,55.969264],"type":"Point"},"properties":{"osm_id":"811643553","tag":{"amenity":"waste_basket"}},"type":"Feature"},
	{"geometry":{"coordinates":[-3.150679,55.959924],"type":"Point"},"properties":{"osm_id":"811643586","tag":{"amenity":"waste_basket"}},"type":"Feature"},
	{"geometry":{"coordinates":[-3.158599,55.968627],"type":"Point"},"properties":{"osm_id":"936971630","tag":{"amenity":"recycling","recycling:cans":"yes","recycling:paper":"yes","recycling:plastic":"yes"}},"type":"Feature"},
	{"geometry":{"coordinates":[-3.162336,55.964575],"type":"Point"},"properties":{"osm_id":"1406344687","tag":{"amenity":"recycling"}},"type":"Feature"},
	{"geometry":{"coordinates":[-3.163949,55.957625],"type":"Point"},"properties":{"osm_id":"1487729861","tag":{"amenity":"recycling","recycling:cans":"yes","recycling:cardboard":"yes","recycling:glass":"yes","recycling:plastic":"yes","recycling_type":"container"}},"type":"Feature"},
	{"geometry":{"coordinates":[-3.163876,55.966229],"type":"Point"},"properties":{"name":"Woodville Terrace Recycling point","osm_id":"1670572632","tag":{"amenity":"recycling","recycling:batteries":"no","recycling:books":"yes","recycling:cans":"yes","recycling:cardboard":"yes","recycling:cartons":"yes","recycling:clothes":"no","recycling:electrical_appliances":"no","recycling:glass":"no","recycling:glass_bottles":"no","recycling:green_waste":"no","recycling:magazines":"yes","recycling:newspaper":"yes","recycling:paper":"yes","recycling:paper_packaging":"yes","recycling:plastic":"yes","recycling:plastic_bottles":"yes","recycling:scrap_metal":"no","recycling:small_appliances":"no","recycling:waste":"no","recycling:wood":"no","recycling_type":"container"}},"type":"Feature"},
	{"geometry":{"coordinates":[-3.110187,55.950725],"type":"Point"},"properties":{"name":"Paper Recycling","osm_id":"1773814876","tag":{"amenity":"recycling","recycling:batteries":"no","recycling:books":"no","recycling:cans":"no","recycling:cardboard":"no","recycling:cartons":"no","recycling:clothes":"no","recycling:electrical_appliances":"no","recycling:glass":"no","recycling:glass_bottles":"no","recycling:paper":"yes","recycling:plastic":"no","recycling:plastic_bottles":"no","recycling:plastic_packaging":"no","recycling:scrap_metal":"no","recycling:small_appliances":"no","recycling:waste":"no","recycling:wood":"no","recycling_type":"container"}},"type":"Feature"},
	{"geometry":{"coordinates":[-3.123335,55.927825],"type":"Point"},"properties":{"osm_id":"2510317232","tag":{"amenity":"recycling","recycling:cans":"yes","recycling:clothes":"yes","recycling:glass":"yes","recycling:paper":"yes","recycling_type":"container"}},"type":"Feature"},
	{"geometry":{"coordinates":[-3.162362,55.969452],"type":"Point"},"properties":{"osm_id":"3237434240","tag":{"amenity":"recycling","recycling:paper":"yes","recycling:plastic":"yes","recycling_type":"container"}},"type":"Feature"},
	{"geometry":{"coordinates":[-3.131331,55.930328],"type":"Point"},"properties":{"osm_id":"3916749005","tag":{"amenity":"recycling","recycling:food_waste":"yes","recycling:glass_bottles":"yes","recycling:mixed_dry_packaging":"yes","recycling:paper":"yes","recycling_type":"container"}},"type":"Feature"},
	{"geometry":{"coordinates":[-3.132414,55.948062],"type":"Point"},"properties":{"osm_id":"4069140896","tag":{"amenity":"waste_basket"}},"type":"Feature"},
	{"geometry":{"coordinates":[-3.128234,55.949609],"type":"Point"},"properties":{"osm_id":"4069144658","tag":{"amenity":"waste_basket"}},"type":"Feature"},
	{"geometry":{"coordinates":[-3.131224,55.949142],"type":"Point"},"properties":{"osm_id":"4069145536","tag":{"amenity":"waste_basket"}},"type":"Feature"},
	{"geometry":{"coordinates":[-3.132792,55.948227],"type":"Point"},"properties":{"osm_id":"4069145541","tag":{"amenity":"waste_basket"}},"type":"Feature"},
	{"geometry":{"coordinates":[-3.125155,55.950605],"type":"Point"},"properties":{"osm_id":"4069149355","tag":{"amenity":"waste_basket"}},"type":"Feature"},
	{"geometry":{"coordinates":[-3.125316,55.950444],"type":"Point"},"properties":{"osm_id":"4069149359","tag":{"amenity":"waste_basket"}},"type":"Feature"},
	{"geometry":{"coordinates":[-3.12732,55.950181],"type":"Point"},"properties":{"osm_id":"4069149367","tag":{"amenity":"waste_basket"}},"type":"Feature"},
	{"geometry":{"coordinates":[-3.121262,55.951107],"type":"Point"},"properties":{"osm_id":"4069154728","tag":{"amenity":"waste_basket"}},"type":"Feature"},
	{"geometry":{"coordinates":[-3.123421,55.951242],"type":"Point"},"properties":{"osm_id":"4069154729","tag":{"amenity":"waste_basket"}},"type":"Feature"},
	{"geometry":{"coordinates":[-3.119086,55.952233],"type":"Point"},"properties":{"osm_id":"4069174779","tag":{"amenity":"waste_basket"}},"type":"Feature"},
	{"geometry":{"coordinates":[-3.117531,55.943593],"type":"Point"},"properties":{"osm_id":"4210919353","tag":{"amenity":"waste_basket"}},"type":"Feature"},
	{"geometry":{"coordinates":[-3.163413,55.959543],"type":"Point"},"properties":{"osm_id":"4356167952","tag":{"amenity":"recycling","recycling_type":"container"}},"type":"Feature"},
	{"geometry":{"coordinates":[-3.109732,55.95457],"type":"Point"},"properties":{"osm_id":"4795408903","tag":{"amenity":"waste_basket"}},"type":"Feature"},
	{"geometry":{"coordinates":[-3.110471,55.954891],"type":"Point"},"properties":{"osm_id":"4795408904","tag":{"amenity":"waste_basket"}},"type":"Feature"},
	{"geometry":{"coordinates":[-3.113384,55.955982],"type":"Point"},"properties":{"osm_id":"4795408907","tag":{"amenity":"waste_basket"}},"type":"Feature"},
	{"geometry":{"coordinates":[-3.158549,55.931721],"type":"Point"},"properties":{"osm_id":"4881769571","tag":{"amenity":"waste_basket"}},"type":"Feature"},
	{"geometry":{"coordinates":[-3.15874,55.93185],"type":"Point"},"properties":{"osm_id":"4881769579","tag":{"amenity":"waste_basket"}},"type":"Feature"},
	{"geometry":{"coordinates":[-3.158746,55.931914],"type":"Point"},"properties":{"osm_id":"4881769586","tag":{"amenity":"waste_basket"}},"type":"Feature"},
	{"geometry":{"coordinates":[-3.158605,55.9322],"type":"Point"},"properties":{"osm_id":"4881769601","tag":{"amenity":"waste_basket"}},"type":"Feature"},
	{"geometry":{"coordinates":[-3.162794,55.954757],"type":"Point"},"properties":{"osm_id":"5783653970","tag":{"amenity":"waste_basket"}},"type":"Feature"},
	{"geometry":{"coordinates":[-3.145663,55.954813],"type":"Point"},"properties":{"osm_id":"6149554686","tag":{"amenity":"recycling","opening_hours":"24/7","operator":"The Salvation Army","recycling:clothes":"yes","recycling:shoes":"yes","recycling_type":"container"}},"type":"Feature"},
	{"geometry":{"coordinates":[-3.140042,55.954025],"type":"Point"},"properties":{"osm_id":"6149554753","tag":{"amenity":"recycling","recycling:clothes":"yes","recycling:paper":"yes","recycling:plastic_packaging":"yes","recycling_type":"container"}},"type":"Feature"},
	{"geometry":{"coordinates":[-3.163178,55.924866],"type":"Point"},"properties":{"osm_id":"6327247424","tag":{"amenity":"waste_basket","colour":"green","material":"metal"}},"type":"Feature"},
	{"geometry":{"coordinates":[-3.162801,55.925056],"type":"Point"},"properties":{"osm_id":"6327247425","tag":{"amenity":"waste_basket","colour":"green","material":"metal"}},"type":"Feature"},
	{"geometry":{"coordinates":[-3.159406,55.92501],"type":"Point"},"properties":{"osm_id":"6327247429","tag":{"amenity":"waste_basket","colour":"green","material":"metal"}},"type":"Feature"},
	{"geometry":{"coordinates":[-3.158302,55.925986],"type":"Point"},"properties":{"osm_id":"6327247431","tag":{"amenity":"waste_basket","colour":"green","material":"metal"}},"type":"Feature"},
	{"geometry":{"coordinates":[-3.156901,55.926221],"type":"Point"},"properties":{"osm_id":"6327247432","tag":{"amenity":"waste_basket","colour":"green","material":"metal"}},"type":"Feature"},
	{"geometry":{"coordinates":[-3.156486,55.926243],"type":"Point"},"properties":{"osm_id":"6327247433","tag":{"amenity":"waste_basket"}},"type":"Feature"},
	{"geometry":{"coordinates":[-3.155416,55.926554],"type":"Point"},"properties":{"osm_id":"6327247434","tag":{"amenity":"waste_basket","colour":"green","material":"metal"}},"type":"Feature"},
	{"geometry":{"coordinates":[-3.163685,55.928323],"type":"Point"},"properties":{"osm_id":"6331837314","tag":{"amenity":"waste_basket"}},"type":"Feature"},
	{"geometry":{"coordinates":[-3.161633,55.928285],"type":"Point"},"properties":{"osm_id":"6331837315","tag":{"amenity":"waste_basket"}},"type":"Feature"},
	{"geometry":{"coordinates":[-3.161202,55.927768],"type":"Point"},"properties":{"osm_id":"6331837316","tag":{"amenity":"waste_basket"}},"type":"Feature"},
	{"geometry":{"coordinates":[-3.161943,55.926992],"type":"Point"},"properties":{"osm_id":"6331837317","tag":{"amenity":"waste_basket","colour":"red","material":"plastic","waste":"dog_excrement"}},"type":"Feature"},
	{"geometry":{"coordinates":[-3.163559,55.925281],"type":"Point"},"properties":{"osm_id":"6331837318","tag":{"amenity":"waste_basket"}},"type":"Feature"},
	{"geometry":{"coordinates":[-3.161828,55.926975],"type":"Point"},"properties":{"osm_id":"6331837319","tag":{"amenity":"waste_basket","colour":"green","material":"metal"}},"type":"Feature"},
	{"geometry":{"coordinates":[-3.163069,55.925761],"type":"Point"},"properties":{"osm_id":"6331837320","tag":{"amenity":"waste_basket","waste":"dog_excrement"}},"type":"Feature"},
	{"geometry":{"coordinates":[-3.160089,55.928546],"type":"Point"},"properties":{"osm_id":"6331837321","tag":{"amenity":"waste_basket"}},"type":"Feature"},
	{"geometry":{"coordinates":[-3.15594,55.927233],"type":"Point"},"properties":{"osm_id":"6331837322","tag":{"amenity":"waste_basket"}},"type":"Feature"},
	{"geometry":{"coordinates":[-3.147945,55.926684],"type":"Point"},"properties":{"osm_id":"6331837323","tag":{"amenity":"waste_basket"}},"type":"Feature"},
	{"geometry":{"coordinates":[-3.147966,55.926691],"type":"Point"},"properties":{"osm_id":"6331837324","tag":{"amenity":"waste_basket"}},"type":"Feature"},
	{"geometry":{"coordinates":[-3.150782,55.925209],"type":"Point"},"properties":{"osm_id":"6331837325","tag":{"amenity":"waste_basket"}},"type":"Feature"},
	{"geometry":{"coordinates":[-3.124662,55.924774],"type":"Point"},"properties":{"osm_id":"6347859951","tag":{"amenity":"waste_basket"}},"type":"Feature"},
	{"geometry":{"coordinates":[-3.122896,55.937539],"type":"Point"},"properties":{"osm_id":"6349745468","tag":{"amenity":"waste_basket"}},"type":"Feature"},
	{"geometry":{"coordinates":[-3.118988,55.938286],"type":"Point"},"properties":{"osm_id":"6349745469","tag":{"amenity":"waste_basket"}},"type":"Feature"},
	{"geometry":{"coordinates":[-3.114258,55.940259],"type":"Point"},"properties":{"osm_id":"6349745470","tag":{"amenity":"waste_basket"}},"type":"Feature"},
	{"geometry":{"coordinates":[-3.112551,55.940452],"type":"Point"},"properties":{"osm_id":"6349745471","tag":{"amenity":"waste_basket"}},"type":"Feature"},
	{"geometry":{"coordinates":[-3.110462,55.940545],"type":"Point"},"properties":{"osm_id":"6349745472","tag":{"amenity":"waste_basket"}},"type":"Feature"},
	{"geometry":{"coordinates":[-3.105564,55.940725],"type":"Point"},"properties":{"osm_id":"6349745473","tag":{"amenity":"waste_basket"}},"type":"Feature"},
	{"geometry":{"coordinates":[-3.102861,55.940749],"type":"Point"},"properties":{"osm_id":"6349745474","tag":{"amenity":"waste_basket"}},"type":"Feature"},
	{"geometry":{"coordinates":[-3.10236,55.941959],"type":"Point"},"properties":{"osm_id":"6349745475","tag":{"amenity":"waste_basket"}},"type":"Feature"},
	{"geometry":{"coordinates":[-3.100616,55.94261],"type":"Point"},"properties":{"osm_id":"6349745476","tag":{"amenity":"waste_basket"}},"type":"Feature"},
	{"geometry":{"coordinates":[-3.078715,55.94603],"type":"Point"},"properties":{"osm_id":"6349745477","tag":{"amenity":"waste_basket"}},"type":"Feature"},
	{"geometry":{"coordinates":[-3.081274,55.946959],"type":"Point"},"properties":{"osm_id":"6349745478","tag":{"amenity":"waste_basket"}},"type":"Feature"},
	{"geometry":{"coordinates":[-3.084033,55.948042],"type":"Point"},"properties":{"osm_id":"6349745479","tag":{"amenity":"waste_basket"}},"type":"Feature"},
	{"geometry":{"coordinates":[-3.08706,55.948568],"type":"Point"},"properties":{"osm_id":"6349745480","tag":{"amenity":"waste_basket"}},"type":"Feature"},
	{"geometry":{"coordinates":[-3.088967,55.948479],"type":"Point"},"properties":{"osm_id":"6349745481","tag":{"amenity":"waste_basket"}},"type":"Feature"},
	{"geometry":{"coordinates":[-3.095476,55.949056],"type":"Point"},"properties":{"osm_id":"6349745482","tag":{"amenity":"waste_basket"}},"type":"Feature"},
	{"geometry":{"coordinates":[-3.098583,55.950186],"type":"Point"},"properties":{"osm_id":"6349745483","tag":{"amenity":"waste_basket"}},"type":"Feature"},
	{"geometry":{"coordinates":[-3.099735,55.95062],"type":"Point"},"properties":{"osm_id":"6349747489","tag":{"amenity":"waste_basket"}},"type":"Feature"},
	{"geometry":{"coordinates":[-3.100121,55.950758],"type":"Point"},"properties":{"osm_id":"6349747490","tag":{"amenity":"waste_basket"}},"type":"Feature"},
	{"geometry":{"coordinates":[-3.101097,55.951134],"type":"Point"},"properties":{"osm_id":"6349747504","tag":{"amenity":"waste_basket"}},"type":"Feature"},
	{"geometry":{"coordinates":[-3.103221,55.952085],"type":"Point"},"properties":{"osm_id":"6349747512","tag":{"amenity":"waste_basket"}},"type":"Feature"},
	{"geometry":{"coordinates":[-3.105816,55.952961],"type":"Point"},"properties":{"osm_id":"6349747519","tag":{"amenity":"waste_basket"}},"type":"Feature"},
	{"geometry":{"coordinates":[-3.107021,55.953434],"type":"Point"},"properties":{"osm_id":"6349747520","tag":{"amenity":"waste_basket"}},"type":"Feature"},
	{"geometry":{"coordinates":[-3.107733,55.95373],"type":"Point"},"properties":{"osm_id":"6349747521","tag":{"amenity":"waste_basket"}},"type":"Feature"},
	{"geometry":{"coordinates":[-3.108824,55.9542],"type":"Point"},"properties":{"osm_id":"6349747531","tag":{"amenity":"waste_basket"}},"type":"Feature"},
	{"geometry":{"coordinates":[-3.117258,55.933836],"type":"Point"},"properties":{"osm_id":"6349772851","tag":{"amenity":"waste_basket"}},"type":"Feature"},
	{"geometry":{"coordinates":[-3.120486,55.93424],"type":"Point"},"properties":{"osm_id":"6349772852","tag":{"amenity":"waste_basket"}},"type":"Feature"},
	{"geometry":{"coordinates":[-3.122849,55.934533],"type":"Point"},"properties":{"osm_id":"6349772853","tag":{"amenity":"waste_basket"}},"type":"Feature"},
	{"geometry":{"coordinates":[-3.124201,55.936485],"type":"Point"},"properties":{"osm_id":"6349772854","tag":{"amenity":"waste_basket"}},"type":"Feature"},
	{"geometry":{"coordinates":[-3.124298,55.936881],"type":"Point"},"properties":{"osm_id":"6349772855","tag":{"amenity":"waste_basket"}},"type":"Feature"},
	{"geometry":{"coordinates":[-3.087658,55.933665],"type":"Point"},"properties":{"osm_id":"6534050368","tag":{"amenity":"waste_basket"}},"type":"Feature"},
	{"geometry":{"coordinates":[-3.087369,55.933757],"type":"Point"},"properties":{"osm_id":"6534050369","tag":{"amenity":"waste_basket"}},"type":"Feature"},
	{"geometry":{"coordinates":[-3.16299,55.926136],"type":"Point"},"properties":{"osm_id":"6591773023","tag":{"amenity":"recycling","recycling:glass":"yes","recycling_type":"container"}},"type":"Feature"},
	{"geometry":{"coordinates":[-3.162875,55.926136],"type":"Point"},"properties":{"osm_id":"6591773024","tag":{"amenity":"recycling","recycling:paper":"yes","recycling_type":"container"}},"type":"Feature"},
	{"geometry":{"coordinates":[-3.118778,55.958363],"type":"Point"},"properties":{"osm_id":"6813995855","tag":{"amenity":"waste_basket"}},"type":"Feature"},
	{"geometry":{"coordinates":[-3.124718,55.949128],"type":"Point"},"properties":{"osm_id":"7119901920","tag":{"amenity":"waste_basket","waste":"trash"}},"type":"Feature"},
	{"geometry":{"coordinates":[-3.122897,55.948504],"type":"Point"},"properties":{"osm_id":"7119901942","tag":{"amenity":"waste_basket","material":"metal","waste":"trash"}},"type":"Feature"},
	{"geometry":{"coordinates":[-3.121647,55.949347],"type":"Point"},"properties":{"osm_id":"7119901945","tag":{"amenity":"waste_basket","ele:msl":"72.6","ele:source":"GPS","material":"metal","waste":"trash"}},"type":"Feature"},
	{"geometry":{"coordinates":[-3.140006,55.960048],"type":"Point"},"properties":{"osm_id":"7151753409","tag":{"amenity":"waste_basket","waste":"trash"}},"type":"Feature"},
	{"geometry":{"coordinates":[-3.098884,55.946552],"type":"Point"},"properties":{"osm_id":"7255146569","tag":{"amenity":"waste_basket"}},"type":"Feature"},
	{"geometry":{"coordinates":[-3.139794,55.941003],"type":"Point"},"properties":{"osm_id":"7320077753","tag":{"amenity":"waste_basket","waste":"trash"}},"type":"Feature"},
	{"geometry":{"coordinates":[-3.162358,55.925117],"type":"Point"},"properties":{"osm_id":"7434471008","tag":{"amenity":"waste_basket","colour":"green","material":"metal"}},"type":"Feature"},
	{"geometry":{"coordinates":[-3.147096,55.930959],"type":"Point"},"properties":{"osm_id":"7473597653","tag":{"amenity":"waste_basket"}},"type":"Feature"},
	{"geometry":{"coordinates":[-3.153482,55.94265],"type":"Point"},"properties":{"osm_id":"7674329149","tag":{"amenity":"waste_basket"}},"type":"Feature"},
	{"geometry":{"coordinates":[-3.152225,55.943319],"type":"Point"},"properties":{"osm_id":"7674329151","tag":{"amenity":"waste_basket"}},"type":"Feature"},
	{"geometry":{"coordinates":[-3.156919,55.941251],"type":"Point"},"properties":{"osm_id":"7674329158","tag":{"amenity":"waste_basket"}},"type":"Feature"},
	{"geometry":{"coordinates":[-3.150282,55.948142],"type":"Point"},"properties":{"osm_id":"7692407361","tag":{"amenity":"waste_basket"}},"type":"Feature"},
	{"geometry":{"coordinates":[-3.15028,55.948935],"type":"Point"},"properties":{"osm_id":"7692407364","tag":{"amenity":"waste_basket"}},"type":"Feature"},
	{"geometry":{"coordinates":[-3.153031,55.946965],"type":"Point"},"properties":{"osm_id":"7692407368","tag":{"amenity":"waste_basket"}},"type":"Feature"},
	{"geometry":{"coordinates":[-3.150256,55.948567],"type":"Point"},"properties":{"osm_id":"7692407370","tag":{"amenity":"waste_basket"}},"type":"Feature"},
	{"geometry":{"coordinates":[-3.150313,55.949313],"type":"Point"},"properties":{"osm_id":"7692407373","tag":{"amenity":"waste_basket"}},"type":"Feature"}
]
}
