{
"type": "FeatureCollection",
"features": [
	{"geometry":{"coordinates":[-3.098827,53.383908],"type":"Point"},"properties":{"osm_id":"2616337697","tag":{"amenity":"waste_basket"}},"type":"Feature"},
	{"geometry":{"coordinates":[-3.099106,53.384481],"type":"Point"},"properties":{"osm_id":"2616339015","tag":{"amenity":"waste_basket"}},"type":"Feature"},
	{"geometry":{"coordinates":[-3.098927,53.384732],"type":"Point"},"properties":{"osm_id":"2616339030","tag":{"amenity":"waste_basket"}},"type":"Feature"},
	{"geometry":{"coordinates":[-3.098676,53.385038],"type":"Point"},"properties":{"osm_id":"2616340031","tag":{"amenity":"waste_basket"}},"type":"Feature"},
	{"geometry":{"coordinates":[-3.099161,53.385175],"type":"Point"},"properties":{"osm_id":"2616341550","tag":{"amenity":"waste_basket"}},"type":"Feature"},
	{"geometry":{"coordinates":[-3.098107,53.384806],"type":"Point"},"properties":{"osm_id":"2616341833","tag":{"amenity":"waste_basket"}},"type":"Feature"},
	{"geometry":{"coordinates":[-3.09804,53.384885],"type":"Point"},"properties":{"osm_id":"2616343740","tag":{"amenity":"waste_basket"}},"type":"Feature"},
	{"geometry":{"coordinates":[-3.09782,53.38465],"type":"Point"},"properties":{"osm_id":"2616346270","tag":{"amenity":"waste_basket"}},"type":"Feature"},
	{"geometry":{"coordinates":[-3.0971,53.384664],"type":"Point"},"properties":{"osm_id":"2616346556","tag":{"amenity":"waste_basket"}},"type":"Feature"},
	{"geometry":{"coordinates":[-3.097226,53.38465],"type":"Point"},"properties":{"osm_id":"2616346712","tag":{"amenity":"waste_basket"}},"type":"Feature"},
	{"geometry":{"coordinates":[-3.096603,53.384819],"type":"Point"},"properties":{"osm_id":"2616347266","tag":{"amenity":"waste_basket"}},"type":"Feature"},
	{"geometry":{"coordinates":[-3.092025,53.384281],"type":"Point"},"properties":{"osm_id":"2616439887","tag":{"amenity":"recycling","recycling:magazines":"yes","recycling:newspaper":"yes","recycling_type":"container"}},"type":"Feature"}
]
}
