{
"type": "FeatureCollection",
"features": [
	{"geometry":{"coordinates":[-3.100485,53.234758],"type":"Point"},"properties":{"name":"Rockliffe Household Recycling Centre","osm_id":"8227521059","tag":{"addr:city":"Oakenholt","addr:housename":"Rockliffe Household Recycling Centre","addr:postcode":"CH6 5SF","addr:street":"Chester Road","amenity":"recycling","building":"no","opening_hours":"Mo-Sa 09:00-16:50","opening_hours:covid19":"same","operator":"Flintshire County Council","operator:type":"county_government","recycling:batteries":"yes","recycling:bulbs":"yes","recycling:cans":"yes","recycling:cardboard":"yes","recycling:carpets":"yes","recycling:clothes":"yes","recycling:computers":"yes","recycling:electrical_appliances":"yes","recycling:fluorescent_tubes":"yes","recycling:fridge_and_freezer":"yes","recycling:garden_waste":"yes","recycling:gas_bottles":"yes","recycling:gas_canisters":"yes","recycling:gas_cylinders":"yes","recycling:general_waste":"yes","recycling:glass":"yes","recycling:green_waste":"yes","recycling:hazardous_waste":"yes","recycling:mattresses":"yes","recycling:monitor":"yes","recycling:oil_filters":"yes","recycling:oils":"yes","recycling:paint":"yes","recycling:paper":"yes","recycling:plasterboard":"yes","recycling:plastic_bottles":"yes","recycling:plastics":"yes","recycling:rubble":"yes","recycling:shoes":"yes","recycling:soil":"yes","recycling:tetrapak":"yes","recycling:textiles":"yes","recycling:tv_monitor":"yes","recycling:tyres":"yes","recycling:wood":"yes","recycling_type":"centre"}},"type":"Feature"}
]
}
