{
"type": "FeatureCollection",
"features": [
	{"geometry":{"coordinates":[-3.160591,51.502466],"type":"Point"},"properties":{"name":"Wedal Road Refuse","osm_id":"553078683","tag":{"amenity":"recycling"}},"type":"Feature"},
	{"geometry":{"coordinates":[-3.162498,51.454707],"type":"Point"},"properties":{"osm_id":"4801338635","tag":{"amenity":"waste_basket"}},"type":"Feature"},
	{"geometry":{"coordinates":[-3.162523,51.454774],"type":"Point"},"properties":{"osm_id":"5312828159","tag":{"amenity":"waste_basket"}},"type":"Feature"},
	{"geometry":{"coordinates":[-3.161899,51.454217],"type":"Point"},"properties":{"osm_id":"7710522012","tag":{"amenity":"waste_basket"}},"type":"Feature"},
	{"geometry":{"coordinates":[-3.161885,51.454086],"type":"Point"},"properties":{"osm_id":"7710522013","tag":{"amenity":"waste_basket"}},"type":"Feature"},
	{"geometry":{"coordinates":[-3.161846,51.454135],"type":"Point"},"properties":{"osm_id":"7710522014","tag":{"amenity":"waste_basket"}},"type":"Feature"},
	{"geometry":{"coordinates":[-3.161963,51.454321],"type":"Point"},"properties":{"osm_id":"7710522015","tag":{"amenity":"waste_basket"}},"type":"Feature"},
	{"geometry":{"coordinates":[-3.16206,51.454455],"type":"Point"},"properties":{"osm_id":"7710522016","tag":{"amenity":"waste_basket"}},"type":"Feature"},
	{"geometry":{"coordinates":[-3.162163,51.454087],"type":"Point"},"properties":{"osm_id":"7710522017","tag":{"amenity":"waste_basket"}},"type":"Feature"},
	{"geometry":{"coordinates":[-3.162336,51.454163],"type":"Point"},"properties":{"osm_id":"7710522018","tag":{"amenity":"waste_basket"}},"type":"Feature"},
	{"geometry":{"coordinates":[-3.162481,51.454183],"type":"Point"},"properties":{"osm_id":"7710522019","tag":{"amenity":"waste_basket"}},"type":"Feature"}
]
}
