{
"type": "FeatureCollection",
"features": [
	{"geometry":{"coordinates":[-3.117446,51.02504],"type":"Point"},"properties":{"osm_id":"3694953151","tag":{"amenity":"waste_basket","waste":"trash"}},"type":"Feature"},
	{"geometry":{"coordinates":[-3.082944,51.022034],"type":"Point"},"properties":{"barrier":"gate","osm_id":"4352455758","tag":{"access":"private","height":"1.8","material":"wood"}},"type":"Feature"},
	{"geometry":{"coordinates":[-3.134785,51.018739],"type":"Point"},"properties":{"osm_id":"4397403753","tag":{"amenity":"waste_basket","waste_basket":"dog_excrement"}},"type":"Feature"},
	{"geometry":{"coordinates":[-3.138676,51.027317],"type":"Point"},"properties":{"osm_id":"4408359314","tag":{"amenity":"waste_basket","waste":"trash"}},"type":"Feature"},
	{"geometry":{"coordinates":[-3.097597,51.021183],"type":"Point"},"properties":{"osm_id":"4695430741","tag":{"amenity":"waste_basket","waste":"dog_excrement"}},"type":"Feature"},
	{"geometry":{"coordinates":[-3.130363,51.018252],"type":"Point"},"properties":{"osm_id":"4893982467","tag":{"amenity":"waste_basket","waste":"trash"}},"type":"Feature"},
	{"geometry":{"coordinates":[-3.140503,51.027104],"type":"Point"},"properties":{"osm_id":"4903917359","tag":{"amenity":"waste_basket","waste":"dog_excrement"}},"type":"Feature"},
	{"geometry":{"coordinates":[-3.141971,51.02634],"type":"Point"},"properties":{"osm_id":"4903917360","tag":{"amenity":"waste_basket","waste":"trash"}},"type":"Feature"},
	{"geometry":{"coordinates":[-3.096919,51.013939],"type":"Point"},"properties":{"osm_id":"4909436020","tag":{"amenity":"waste_basket","waste":"trash"}},"type":"Feature"},
	{"geometry":{"coordinates":[-3.145877,51.023887],"type":"Point"},"properties":{"name":"Dog waste","osm_id":"4932732301","tag":{"amenity":"waste_basket","waste":"dog_excrement"}},"type":"Feature"},
	{"geometry":{"coordinates":[-3.135471,51.028712],"type":"Point"},"properties":{"name":"Dog waste","osm_id":"4945994901","tag":{"amenity":"waste_basket","waste":"dog_excrement"}},"type":"Feature"},
	{"geometry":{"coordinates":[-3.084177,51.017882],"type":"Point"},"properties":{"osm_id":"4968460960","tag":{"amenity":"waste_basket","waste":"trash"}},"type":"Feature"},
	{"geometry":{"coordinates":[-3.089241,51.020203],"type":"Point"},"properties":{"osm_id":"4968460961","tag":{"amenity":"waste_basket","waste":"trash"}},"type":"Feature"},
	{"geometry":{"coordinates":[-3.087626,51.029264],"type":"Point"},"properties":{"osm_id":"5098539513","tag":{"amenity":"waste_basket","waste":"dog_excrement"}},"type":"Feature"},
	{"geometry":{"coordinates":[-3.087611,51.02935],"type":"Point"},"properties":{"osm_id":"5098539514","tag":{"amenity":"waste_basket","waste":"trash"}},"type":"Feature"},
	{"geometry":{"coordinates":[-3.148272,51.026033],"type":"Point"},"properties":{"osm_id":"5157272283","tag":{"amenity":"waste_basket","waste":"trash"}},"type":"Feature"},
	{"geometry":{"coordinates":[-3.148909,51.026119],"type":"Point"},"properties":{"osm_id":"5157272287","tag":{"amenity":"waste_basket","waste":"trash"}},"type":"Feature"},
	{"geometry":{"coordinates":[-3.148951,51.026057],"type":"Point"},"properties":{"osm_id":"5157272288","tag":{"amenity":"waste_basket","waste":"trash"}},"type":"Feature"},
	{"geometry":{"coordinates":[-3.148841,51.026224],"type":"Point"},"properties":{"osm_id":"5157272291","tag":{"amenity":"waste_basket","waste":"trash"}},"type":"Feature"},
	{"geometry":{"coordinates":[-3.148313,51.026315],"type":"Point"},"properties":{"osm_id":"5157272294","tag":{"amenity":"waste_basket","waste":"trash"}},"type":"Feature"},
	{"geometry":{"coordinates":[-3.149365,51.024869],"type":"Point"},"properties":{"osm_id":"5971938053","tag":{"amenity":"waste_basket","layer":"1","waste":"dog_excrement"}},"type":"Feature"},
	{"geometry":{"coordinates":[-3.138736,51.02734],"type":"Point"},"properties":{"osm_id":"6517092274","tag":{"amenity":"waste_basket","waste":"dog_excrement"}},"type":"Feature"},
	{"geometry":{"coordinates":[-3.111388,51.060215],"type":"Point"},"properties":{"osm_id":"6754443689","tag":{"amenity":"waste_basket","waste":"trash"}},"type":"Feature"},
	{"geometry":{"coordinates":[-3.114533,51.060909],"type":"Point"},"properties":{"osm_id":"6754443723","tag":{"amenity":"waste_basket","waste":"trash"}},"type":"Feature"},
	{"geometry":{"coordinates":[-3.150933,51.038104],"type":"Point"},"properties":{"osm_id":"6754444420","tag":{"amenity":"recycling","recycling:clothes":"yes","recycling_type":"container"}},"type":"Feature"},
	{"geometry":{"coordinates":[-3.151035,51.03813],"type":"Point"},"properties":{"osm_id":"6754444421","tag":{"amenity":"recycling","recycling:clothes":"yes","recycling_type":"container"}},"type":"Feature"},
	{"geometry":{"coordinates":[-3.102736,51.020193],"type":"Point"},"properties":{"osm_id":"6754453248","tag":{"amenity":"waste_basket","covered":"yes","waste":"trash"}},"type":"Feature"},
	{"geometry":{"coordinates":[-3.10268,51.02018],"type":"Point"},"properties":{"osm_id":"6754453249","tag":{"amenity":"waste_basket","covered":"yes","waste":"trash"}},"type":"Feature"},
	{"geometry":{"coordinates":[-3.102634,51.020258],"type":"Point"},"properties":{"osm_id":"6754453267","tag":{"amenity":"waste_basket","covered":"yes","waste":"trash"}},"type":"Feature"},
	{"geometry":{"coordinates":[-3.102689,51.02027],"type":"Point"},"properties":{"osm_id":"6754453268","tag":{"amenity":"waste_basket","covered":"yes","waste":"trash"}},"type":"Feature"},
	{"geometry":{"coordinates":[-3.14108,51.029864],"type":"Point"},"properties":{"osm_id":"6754455771","tag":{"amenity":"waste_basket","waste":"dog_excrement"}},"type":"Feature"},
	{"geometry":{"coordinates":[-3.139998,51.02934],"type":"Point"},"properties":{"osm_id":"6754455776","tag":{"amenity":"waste_basket","waste":"trash"}},"type":"Feature"},
	{"geometry":{"coordinates":[-3.145893,51.023886],"type":"Point"},"properties":{"osm_id":"7009809333","tag":{"amenity":"waste_basket"}},"type":"Feature"},
	{"geometry":{"coordinates":[-3.144687,51.02623],"type":"Point"},"properties":{"osm_id":"7009809334","tag":{"amenity":"waste_basket"}},"type":"Feature"},
	{"geometry":{"coordinates":[-3.146758,51.028365],"type":"Point"},"properties":{"osm_id":"7141492976","tag":{"amenity":"waste_basket","waste":"dog_excrement"}},"type":"Feature"},
	{"geometry":{"coordinates":[-3.146687,51.028349],"type":"Point"},"properties":{"osm_id":"7141492977","tag":{"amenity":"waste_basket"}},"type":"Feature"},
	{"geometry":{"coordinates":[-3.103278,51.015643],"type":"Point"},"properties":{"osm_id":"7477284829","tag":{"amenity":"waste_basket","colour":"black","material":"metal","waste":"trash"}},"type":"Feature"},
	{"geometry":{"coordinates":[-3.103141,51.015243],"type":"Point"},"properties":{"osm_id":"7477284830","tag":{"amenity":"waste_basket","colour":"black","material":"metal","waste":"trash"}},"type":"Feature"},
	{"geometry":{"coordinates":[-3.104408,51.015185],"type":"Point"},"properties":{"osm_id":"7477284846","tag":{"amenity":"waste_basket","colour":"black","material":"metal","waste":"trash"}},"type":"Feature"},
	{"geometry":{"coordinates":[-3.104594,51.014917],"type":"Point"},"properties":{"osm_id":"7477284852","tag":{"amenity":"waste_basket","colour":"black","material":"metal","waste":"trash"}},"type":"Feature"},
	{"geometry":{"coordinates":[-3.104904,51.014749],"type":"Point"},"properties":{"osm_id":"7477284874","tag":{"amenity":"waste_basket","colour":"grey","material":"plastic","waste":"trash"}},"type":"Feature"},
	{"geometry":{"coordinates":[-3.105038,51.014923],"type":"Point"},"properties":{"osm_id":"7477286571","tag":{"amenity":"waste_basket","colour":"black","material":"metal","waste":"trash"}},"type":"Feature"}
]
}
