{
"type": "FeatureCollection",
"features": [
	{"geometry":{"coordinates":[-3.141665,48.557708],"type":"Point"},"properties":{"osm_id":"1319390584","tag":{"amenity":"recycling","recycling:glass":"yes","recycling_type":"container"}},"type":"Feature"},
	{"geometry":{"coordinates":[-3.144395,48.558399],"type":"Point"},"properties":{"osm_id":"3721570070","tag":{"amenity":"waste_basket"}},"type":"Feature"},
	{"geometry":{"coordinates":[-3.146535,48.560861],"type":"Point"},"properties":{"osm_id":"3721570121","tag":{"amenity":"waste_basket"}},"type":"Feature"},
	{"geometry":{"coordinates":[-3.143261,48.555625],"type":"Point"},"properties":{"osm_id":"4476607751","tag":{"amenity":"waste_basket","indoor":"yes","level":"0"}},"type":"Feature"},
	{"geometry":{"coordinates":[-3.143309,48.555678],"type":"Point"},"properties":{"osm_id":"5023936497","tag":{"amenity":"waste_basket","indoor":"yes","level":"0"}},"type":"Feature"},
	{"geometry":{"coordinates":[-3.143234,48.555292],"type":"Point"},"properties":{"osm_id":"5024164122","tag":{"amenity":"waste_basket"}},"type":"Feature"},
	{"geometry":{"coordinates":[-3.142027,48.555609],"type":"Point"},"properties":{"osm_id":"5024164160","tag":{"amenity":"waste_basket"}},"type":"Feature"},
	{"geometry":{"coordinates":[-3.143366,48.555398],"type":"Point"},"properties":{"osm_id":"5024164177","tag":{"amenity":"waste_basket"}},"type":"Feature"},
	{"geometry":{"coordinates":[-3.144123,48.555452],"type":"Point"},"properties":{"osm_id":"5024164189","tag":{"amenity":"waste_basket"}},"type":"Feature"},
	{"geometry":{"coordinates":[-3.142098,48.555778],"type":"Point"},"properties":{"osm_id":"5024164209","tag":{"amenity":"waste_basket"}},"type":"Feature"},
	{"geometry":{"coordinates":[-3.14153,48.555997],"type":"Point"},"properties":{"osm_id":"5024583484","tag":{"amenity":"waste_basket"}},"type":"Feature"},
	{"geometry":{"coordinates":[-3.143234,48.556071],"type":"Point"},"properties":{"osm_id":"5024583532","tag":{"amenity":"waste_basket"}},"type":"Feature"},
	{"geometry":{"coordinates":[-3.143667,48.556002],"type":"Point"},"properties":{"osm_id":"5024583542","tag":{"amenity":"waste_basket"}},"type":"Feature"},
	{"geometry":{"coordinates":[-3.143541,48.555723],"type":"Point"},"properties":{"osm_id":"5024583553","tag":{"amenity":"waste_basket"}},"type":"Feature"},
	{"geometry":{"coordinates":[-3.143731,48.555759],"type":"Point"},"properties":{"osm_id":"5024583572","tag":{"amenity":"waste_basket"}},"type":"Feature"},
	{"geometry":{"coordinates":[-3.143932,48.555894],"type":"Point"},"properties":{"osm_id":"5024658792","tag":{"amenity":"recycling","location":"underground","recycling:glass":"yes","recycling_type":"container"}},"type":"Feature"}
]
}
