{
"type": "FeatureCollection",
"features": [
	{"geometry":{"coordinates":[-3.122836,43.323345],"type":"Point"},"properties":{"osm_id":"2595357319","tag":{"amenity":"recycling","recycling:cans":"yes","recycling:clothes":"no","recycling:glass_bottles":"yes","recycling:paper":"yes","recycling_type":"container"}},"type":"Feature"},
	{"geometry":{"coordinates":[-3.113079,43.322027],"type":"Point"},"properties":{"osm_id":"2595492859","tag":{"amenity":"recycling","recycling:cans":"yes","recycling:clothes":"yes","recycling:glass_bottles":"yes","recycling:paper":"yes","recycling_type":"container"}},"type":"Feature"},
	{"geometry":{"coordinates":[-3.118778,43.320488],"type":"Point"},"properties":{"osm_id":"2747533945","tag":{"amenity":"recycling","recycling:cans":"yes","recycling:glass_bottles":"yes","recycling:paper":"yes","recycling_type":"container"}},"type":"Feature"},
	{"geometry":{"coordinates":[-3.127116,43.318649],"type":"Point"},"properties":{"osm_id":"3288575302","tag":{"amenity":"recycling","recycling:cans":"yes","recycling:clothes":"no","recycling:glass_bottles":"yes","recycling:paper":"yes","recycling_type":"container"}},"type":"Feature"},
	{"geometry":{"coordinates":[-3.126947,43.319274],"type":"Point"},"properties":{"osm_id":"3288578228","tag":{"amenity":"recycling","recycling:cans":"yes","recycling:clothes":"no","recycling:glass_bottles":"yes","recycling:paper":"yes","recycling_type":"container"}},"type":"Feature"},
	{"geometry":{"coordinates":[-3.12849,43.320131],"type":"Point"},"properties":{"osm_id":"3288578229","tag":{"amenity":"recycling","recycling:cans":"yes","recycling:clothes":"no","recycling:glass_bottles":"yes","recycling:paper":"yes","recycling_type":"container"}},"type":"Feature"},
	{"geometry":{"coordinates":[-3.126828,43.31799],"type":"Point"},"properties":{"osm_id":"3288609939","tag":{"addr:city":"Muskiz","addr:postcode":"48550","addr:street":"Barrio La Caser\u00c3\u00ada","amenity":"recycling","recycling:cans":"no","recycling:clothes":"no","recycling:glass":"no","recycling:paper":"no","recycling_type":"container"}},"type":"Feature"},
	{"geometry":{"coordinates":[-3.123385,43.318661],"type":"Point"},"properties":{"osm_id":"3288714685","tag":{"addr:city":"Muskiz","addr:postcode":"48550","addr:street":"Calle Las Acacias","amenity":"recycling","recycling:cans":"yes","recycling:clothes":"no","recycling:glass_bottles":"yes","recycling:paper":"yes","recycling_type":"container"}},"type":"Feature"},
	{"geometry":{"coordinates":[-3.124516,43.321707],"type":"Point"},"properties":{"osm_id":"3288724560","tag":{"amenity":"recycling","recycling_type":"container"}},"type":"Feature"},
	{"geometry":{"coordinates":[-3.128721,43.321054],"type":"Point"},"properties":{"osm_id":"3289502288","tag":{"addr:city":"Muskiz","addr:housenumber":"12","addr:postcode":"48550","addr:street":"Calle Artekale kalea","amenity":"recycling","recycling:cans":"yes","recycling:clothes":"no","recycling:glass_bottles":"yes","recycling:paper":"yes"}},"type":"Feature"},
	{"geometry":{"coordinates":[-3.12799,43.319864],"type":"Point"},"properties":{"osm_id":"3289503340","tag":{"amenity":"recycling","recycling:cans":"no","recycling:clothes":"yes","recycling:glass":"no","recycling:paper":"no","recycling_type":"container"}},"type":"Feature"},
	{"geometry":{"coordinates":[-3.130332,43.320898],"type":"Point"},"properties":{"osm_id":"3289523261","tag":{"addr:city":"Muskiz","addr:postcode":"48550","addr:street":"Calle Las Acacias","amenity":"recycling","recycling:cans":"yes","recycling:clothes":"no","recycling:glass_bottles":"yes","recycling:paper":"yes","recycling_type":"container"}},"type":"Feature"},
	{"geometry":{"coordinates":[-3.128939,43.322226],"type":"Point"},"properties":{"osm_id":"3292073177","tag":{"addr:city":"Muskiz","addr:postcode":"48550","addr:street":"Calle Errota Zahar kalea","amenity":"recycling","recycling:cans":"yes","recycling:clothes":"no","recycling:glass_bottles":"yes","recycling:paper":"yes","recycling_type":"container"}},"type":"Feature"},
	{"geometry":{"coordinates":[-3.129625,43.321728],"type":"Point"},"properties":{"osm_id":"3313818881","tag":{"addr:city":"Muskiz","addr:postcode":"48550","addr:street":"Calle Artekale kalea","amenity":"recycling","recycling:cans":"yes","recycling:glass_bottles":"yes","recycling:paper":"yes"}},"type":"Feature"},
	{"geometry":{"coordinates":[-3.127052,43.320391],"type":"Point"},"properties":{"osm_id":"3313820902","tag":{"amenity":"recycling","recycling:cans":"yes","recycling:glass_bottles":"yes","recycling:paper":"yes","recycling_type":"container"}},"type":"Feature"}
]
}
