{
"type": "FeatureCollection",
"features": [
	{"geometry":{"coordinates":[-3.124971,37.911896],"type":"Point"},"properties":{"osm_id":"2769320494","tag":{"amenity":"recycling","recycling:batteries":"no","recycling:cans":"yes","recycling:glass":"yes","recycling:paper":"yes","recycling_type":"container"}},"type":"Feature"},
	{"geometry":{"coordinates":[-3.116917,37.913732],"type":"Point"},"properties":{"osm_id":"2769939846","tag":{"amenity":"waste_disposal"}},"type":"Feature"},
	{"geometry":{"coordinates":[-3.133378,37.907831],"type":"Point"},"properties":{"osm_id":"2769954247","tag":{"amenity":"recycling"}},"type":"Feature"},
	{"geometry":{"coordinates":[-3.132418,37.911293],"type":"Point"},"properties":{"osm_id":"2769954298","tag":{"amenity":"waste_disposal"}},"type":"Feature"},
	{"geometry":{"coordinates":[-3.133615,37.911299],"type":"Point"},"properties":{"osm_id":"2769954300","tag":{"amenity":"recycling"}},"type":"Feature"},
	{"geometry":{"coordinates":[-3.12971,37.911376],"type":"Point"},"properties":{"osm_id":"2769954309","tag":{"amenity":"waste_disposal"}},"type":"Feature"},
	{"geometry":{"coordinates":[-3.133167,37.911432],"type":"Point"},"properties":{"osm_id":"2769954316","tag":{"amenity":"waste_disposal"}},"type":"Feature"},
	{"geometry":{"coordinates":[-3.129659,37.911607],"type":"Point"},"properties":{"osm_id":"2769954323","tag":{"amenity":"recycling"}},"type":"Feature"},
	{"geometry":{"coordinates":[-3.131664,37.91208],"type":"Point"},"properties":{"osm_id":"2769954332","tag":{"amenity":"waste_disposal"}},"type":"Feature"},
	{"geometry":{"coordinates":[-3.132432,37.912208],"type":"Point"},"properties":{"osm_id":"2769954345","tag":{"amenity":"waste_disposal"}},"type":"Feature"},
	{"geometry":{"coordinates":[-3.129001,37.912416],"type":"Point"},"properties":{"osm_id":"2769954357","tag":{"amenity":"waste_disposal"}},"type":"Feature"},
	{"geometry":{"coordinates":[-3.128352,37.912641],"type":"Point"},"properties":{"osm_id":"2769954362","tag":{"amenity":"waste_disposal"}},"type":"Feature"},
	{"geometry":{"coordinates":[-3.13366,37.912795],"type":"Point"},"properties":{"osm_id":"2769954365","tag":{"amenity":"waste_disposal"}},"type":"Feature"},
	{"geometry":{"coordinates":[-3.132845,37.912819],"type":"Point"},"properties":{"osm_id":"2769954366","tag":{"amenity":"waste_disposal"}},"type":"Feature"},
	{"geometry":{"coordinates":[-3.134181,37.912783],"type":"Point"},"properties":{"osm_id":"2769954368","tag":{"amenity":"recycling"}},"type":"Feature"},
	{"geometry":{"coordinates":[-3.129228,37.912911],"type":"Point"},"properties":{"osm_id":"2769954377","tag":{"amenity":"waste_disposal"}},"type":"Feature"},
	{"geometry":{"coordinates":[-3.131444,37.912963],"type":"Point"},"properties":{"osm_id":"2769954380","tag":{"amenity":"recycling"}},"type":"Feature"},
	{"geometry":{"coordinates":[-3.130727,37.913186],"type":"Point"},"properties":{"osm_id":"2769954391","tag":{"amenity":"waste_disposal"}},"type":"Feature"},
	{"geometry":{"coordinates":[-3.129363,37.913328],"type":"Point"},"properties":{"osm_id":"2769954396","tag":{"amenity":"waste_disposal"}},"type":"Feature"},
	{"geometry":{"coordinates":[-3.130163,37.913346],"type":"Point"},"properties":{"osm_id":"2769954401","tag":{"amenity":"waste_disposal"}},"type":"Feature"},
	{"geometry":{"coordinates":[-3.129562,37.91344],"type":"Point"},"properties":{"osm_id":"2769954412","tag":{"amenity":"recycling"}},"type":"Feature"},
	{"geometry":{"coordinates":[-3.128678,37.91346],"type":"Point"},"properties":{"osm_id":"2769954418","tag":{"amenity":"waste_disposal"}},"type":"Feature"},
	{"geometry":{"coordinates":[-3.128785,37.91113],"type":"Point"},"properties":{"osm_id":"2769971076","tag":{"amenity":"recycling","recycling:cans":"yes"}},"type":"Feature"},
	{"geometry":{"coordinates":[-3.085374,37.861718],"type":"Point"},"properties":{"osm_id":"2770024357","tag":{"amenity":"recycling","recycling:glass":"yes"}},"type":"Feature"},
	{"geometry":{"coordinates":[-3.085348,37.861779],"type":"Point"},"properties":{"osm_id":"2770024362","tag":{"amenity":"recycling","recycling:paper":"yes"}},"type":"Feature"},
	{"geometry":{"coordinates":[-3.085342,37.861841],"type":"Point"},"properties":{"osm_id":"2770024374","tag":{"amenity":"waste_disposal"}},"type":"Feature"},
	{"geometry":{"coordinates":[-3.085932,37.86191],"type":"Point"},"properties":{"osm_id":"2770024384","tag":{"amenity":"waste_disposal"}},"type":"Feature"},
	{"geometry":{"coordinates":[-3.121214,37.915823],"type":"Point"},"properties":{"osm_id":"2770042404","tag":{"amenity":"recycling"}},"type":"Feature"},
	{"geometry":{"coordinates":[-3.121088,37.916136],"type":"Point"},"properties":{"osm_id":"2770042470","tag":{"amenity":"recycling"}},"type":"Feature"},
	{"geometry":{"coordinates":[-3.121758,37.916238],"type":"Point"},"properties":{"osm_id":"2770042486","tag":{"amenity":"recycling"}},"type":"Feature"},
	{"geometry":{"coordinates":[-3.122552,37.916375],"type":"Point"},"properties":{"osm_id":"2770042530","tag":{"amenity":"recycling"}},"type":"Feature"},
	{"geometry":{"coordinates":[-3.121008,37.91645],"type":"Point"},"properties":{"osm_id":"2770042539","tag":{"amenity":"recycling"}},"type":"Feature"},
	{"geometry":{"coordinates":[-3.120226,37.916568],"type":"Point"},"properties":{"osm_id":"2770042554","tag":{"amenity":"recycling"}},"type":"Feature"},
	{"geometry":{"coordinates":[-3.122041,37.916735],"type":"Point"},"properties":{"osm_id":"2770042610","tag":{"amenity":"recycling"}},"type":"Feature"},
	{"geometry":{"coordinates":[-3.120871,37.916978],"type":"Point"},"properties":{"osm_id":"2770042625","tag":{"amenity":"recycling"}},"type":"Feature"},
	{"geometry":{"coordinates":[-3.120904,37.917465],"type":"Point"},"properties":{"osm_id":"2770042650","tag":{"amenity":"recycling"}},"type":"Feature"},
	{"geometry":{"coordinates":[-3.124954,37.911772],"type":"Point"},"properties":{"osm_id":"2770086641","tag":{"amenity":"waste_disposal"}},"type":"Feature"},
	{"geometry":{"coordinates":[-3.121349,37.914046],"type":"Point"},"properties":{"osm_id":"2770169054","tag":{"amenity":"recycling"}},"type":"Feature"},
	{"geometry":{"coordinates":[-3.119648,37.914667],"type":"Point"},"properties":{"osm_id":"2770169213","tag":{"amenity":"recycling"}},"type":"Feature"},
	{"geometry":{"coordinates":[-3.11884,37.914828],"type":"Point"},"properties":{"osm_id":"2770169245","tag":{"amenity":"recycling"}},"type":"Feature"},
	{"geometry":{"coordinates":[-3.121461,37.915084],"type":"Point"},"properties":{"osm_id":"2770169326","tag":{"amenity":"recycling"}},"type":"Feature"},
	{"geometry":{"coordinates":[-3.121343,37.915434],"type":"Point"},"properties":{"osm_id":"2770169387","tag":{"amenity":"recycling"}},"type":"Feature"},
	{"geometry":{"coordinates":[-3.120836,37.915456],"type":"Point"},"properties":{"osm_id":"2770169408","tag":{"amenity":"waste_basket"}},"type":"Feature"},
	{"geometry":{"coordinates":[-3.121006,37.915456],"type":"Point"},"properties":{"osm_id":"2770169411","tag":{"amenity":"waste_basket"}},"type":"Feature"},
	{"geometry":{"coordinates":[-3.120403,37.915593],"type":"Point"},"properties":{"osm_id":"2770169467","tag":{"amenity":"recycling"}},"type":"Feature"},
	{"geometry":{"coordinates":[-3.11261,37.915812],"type":"Point"},"properties":{"osm_id":"2770202570","tag":{"amenity":"waste_disposal"}},"type":"Feature"},
	{"geometry":{"coordinates":[-3.112644,37.915846],"type":"Point"},"properties":{"osm_id":"2770202579","tag":{"amenity":"waste_disposal"}},"type":"Feature"},
	{"geometry":{"coordinates":[-3.121784,37.913842],"type":"Point"},"properties":{"osm_id":"2770205164","tag":{"amenity":"recycling"}},"type":"Feature"},
	{"geometry":{"coordinates":[-3.121836,37.914017],"type":"Point"},"properties":{"osm_id":"2770205176","tag":{"amenity":"waste_basket"}},"type":"Feature"},
	{"geometry":{"coordinates":[-3.121788,37.914409],"type":"Point"},"properties":{"osm_id":"2770205222","tag":{"amenity":"recycling"}},"type":"Feature"},
	{"geometry":{"coordinates":[-3.120777,37.914449],"type":"Point"},"properties":{"osm_id":"2770205225","tag":{"amenity":"recycling"}},"type":"Feature"},
	{"geometry":{"coordinates":[-3.1205,37.914501],"type":"Point"},"properties":{"osm_id":"2770205231","tag":{"amenity":"recycling"}},"type":"Feature"},
	{"geometry":{"coordinates":[-3.119937,37.914839],"type":"Point"},"properties":{"osm_id":"2770205271","tag":{"amenity":"waste_basket"}},"type":"Feature"},
	{"geometry":{"coordinates":[-3.11988,37.9149],"type":"Point"},"properties":{"osm_id":"2770205285","tag":{"amenity":"waste_basket"}},"type":"Feature"},
	{"geometry":{"coordinates":[-3.120753,37.915454],"type":"Point"},"properties":{"osm_id":"2770205336","tag":{"amenity":"waste_basket"}},"type":"Feature"},
	{"geometry":{"coordinates":[-3.120926,37.915455],"type":"Point"},"properties":{"osm_id":"2770205339","tag":{"amenity":"waste_basket"}},"type":"Feature"},
	{"geometry":{"coordinates":[-3.119859,37.915564],"type":"Point"},"properties":{"osm_id":"2770205365","tag":{"amenity":"recycling"}},"type":"Feature"},
	{"geometry":{"coordinates":[-3.125867,37.915632],"type":"Point"},"properties":{"osm_id":"2770234741","tag":{"amenity":"waste_basket"}},"type":"Feature"},
	{"geometry":{"coordinates":[-3.123342,37.91412],"type":"Point"},"properties":{"osm_id":"2770242221","tag":{"amenity":"recycling","recycling:cans":"yes","recycling_type":"container"}},"type":"Feature"},
	{"geometry":{"coordinates":[-3.123365,37.914137],"type":"Point"},"properties":{"osm_id":"2770242222","tag":{"amenity":"recycling","recycling:paper":"yes","recycling_type":"container"}},"type":"Feature"},
	{"geometry":{"coordinates":[-3.131555,37.913492],"type":"Point"},"properties":{"osm_id":"2770245040","tag":{"amenity":"recycling","recycling:paper":"yes"}},"type":"Feature"},
	{"geometry":{"coordinates":[-3.128347,37.914138],"type":"Point"},"properties":{"osm_id":"2770245062","tag":{"amenity":"recycling","recycling:glass":"yes"}},"type":"Feature"},
	{"geometry":{"coordinates":[-3.128409,37.914152],"type":"Point"},"properties":{"osm_id":"2770245066","tag":{"amenity":"recycling","recycling:paper":"yes"}},"type":"Feature"},
	{"geometry":{"coordinates":[-3.128471,37.914171],"type":"Point"},"properties":{"osm_id":"2770245067","tag":{"amenity":"recycling","recycling:cans":"yes"}},"type":"Feature"},
	{"geometry":{"coordinates":[-3.130905,37.914807],"type":"Point"},"properties":{"osm_id":"2770245137","tag":{"amenity":"recycling","recycling:paper":"yes"}},"type":"Feature"},
	{"geometry":{"coordinates":[-3.131576,37.915493],"type":"Point"},"properties":{"osm_id":"2770245167","tag":{"amenity":"recycling","recycling:paper":"yes"}},"type":"Feature"},
	{"geometry":{"coordinates":[-3.122227,37.915399],"type":"Point"},"properties":{"osm_id":"2770254230","tag":{"amenity":"recycling","recycling:cans":"yes","recycling:paper":"yes"}},"type":"Feature"},
	{"geometry":{"coordinates":[-3.122263,37.915419],"type":"Point"},"properties":{"osm_id":"2770254235","tag":{"amenity":"recycling","recycling:cans":"yes","recycling:paper":"yes"}},"type":"Feature"},
	{"geometry":{"coordinates":[-3.127017,37.914429],"type":"Point"},"properties":{"osm_id":"2770256899","tag":{"amenity":"waste_disposal"}},"type":"Feature"},
	{"geometry":{"coordinates":[-3.124645,37.915559],"type":"Point"},"properties":{"osm_id":"2770259464","tag":{"amenity":"recycling","recycling:cans":"yes","recycling:paper":"yes"}},"type":"Feature"},
	{"geometry":{"coordinates":[-3.123448,37.915875],"type":"Point"},"properties":{"osm_id":"2770259468","tag":{"amenity":"recycling","recycling:cans":"yes","recycling:paper":"yes"}},"type":"Feature"},
	{"geometry":{"coordinates":[-3.123416,37.91595],"type":"Point"},"properties":{"osm_id":"2770259473","tag":{"amenity":"recycling","recycling:cans":"yes","recycling:paper":"yes"}},"type":"Feature"},
	{"geometry":{"coordinates":[-3.123416,37.915952],"type":"Point"},"properties":{"osm_id":"2770259477","tag":{"amenity":"recycling","recycling:cans":"yes","recycling:paper":"yes"}},"type":"Feature"},
	{"geometry":{"coordinates":[-3.126254,37.916149],"type":"Point"},"properties":{"osm_id":"2770267103","tag":{"amenity":"recycling","recycling:cans":"yes","recycling:paper":"yes"}},"type":"Feature"},
	{"geometry":{"coordinates":[-3.126266,37.916226],"type":"Point"},"properties":{"osm_id":"2770267109","tag":{"amenity":"recycling","recycling:cans":"yes","recycling:paper":"yes"}},"type":"Feature"},
	{"geometry":{"coordinates":[-3.115504,37.912788],"type":"Point"},"properties":{"osm_id":"2771946546","tag":{"amenity":"waste_disposal"}},"type":"Feature"},
	{"geometry":{"coordinates":[-3.116014,37.91373],"type":"Point"},"properties":{"osm_id":"2771946547","tag":{"amenity":"waste_disposal"}},"type":"Feature"},
	{"geometry":{"coordinates":[-3.11618,37.913826],"type":"Point"},"properties":{"osm_id":"2771946549","tag":{"amenity":"recycling","recycling:glass":"yes"}},"type":"Feature"},
	{"geometry":{"coordinates":[-3.116358,37.913826],"type":"Point"},"properties":{"osm_id":"2771946550","tag":{"amenity":"recycling","recycling:paper":"yes"}},"type":"Feature"},
	{"geometry":{"coordinates":[-3.123379,37.914146],"type":"Point"},"properties":{"osm_id":"2771968372","tag":{"amenity":"waste_disposal"}},"type":"Feature"},
	{"geometry":{"coordinates":[-3.12339,37.914153],"type":"Point"},"properties":{"osm_id":"2771968374","tag":{"amenity":"waste_disposal"}},"type":"Feature"},
	{"geometry":{"coordinates":[-3.115663,37.913715],"type":"Point"},"properties":{"osm_id":"2771971857","tag":{"amenity":"recycling","recycling:glass":"yes","recycling:paper":"no"}},"type":"Feature"},
	{"geometry":{"coordinates":[-3.115368,37.913848],"type":"Point"},"properties":{"osm_id":"2771971870","tag":{"amenity":"waste_disposal"}},"type":"Feature"},
	{"geometry":{"coordinates":[-3.112581,37.915126],"type":"Point"},"properties":{"osm_id":"2771972411","tag":{"amenity":"waste_disposal"}},"type":"Feature"},
	{"geometry":{"coordinates":[-3.112851,37.915212],"type":"Point"},"properties":{"osm_id":"2771972413","tag":{"amenity":"recycling","recycling:cans":"yes"}},"type":"Feature"},
	{"geometry":{"coordinates":[-3.114663,37.915781],"type":"Point"},"properties":{"osm_id":"2771974186","tag":{"amenity":"waste_disposal"}},"type":"Feature"},
	{"geometry":{"coordinates":[-3.1147,37.916009],"type":"Point"},"properties":{"osm_id":"2771974189","tag":{"amenity":"recycling","recycling:glass":"yes"}},"type":"Feature"},
	{"geometry":{"coordinates":[-3.114715,37.916045],"type":"Point"},"properties":{"osm_id":"2771974191","tag":{"amenity":"recycling","recycling:paper":"yes"}},"type":"Feature"},
	{"geometry":{"coordinates":[-3.114749,37.916089],"type":"Point"},"properties":{"osm_id":"2771974193","tag":{"amenity":"recycling","recycling:cans":"yes"}},"type":"Feature"},
	{"geometry":{"coordinates":[-3.113515,37.913198],"type":"Point"},"properties":{"osm_id":"2771978893","tag":{"amenity":"recycling","recycling:paper":"yes"}},"type":"Feature"},
	{"geometry":{"coordinates":[-3.114839,37.913729],"type":"Point"},"properties":{"osm_id":"2771978900","tag":{"amenity":"waste_disposal"}},"type":"Feature"},
	{"geometry":{"coordinates":[-3.114905,37.913733],"type":"Point"},"properties":{"osm_id":"2771978901","tag":{"amenity":"recycling","recycling:cans":"yes"}},"type":"Feature"},
	{"geometry":{"coordinates":[-3.127203,37.912164],"type":"Point"},"properties":{"osm_id":"2772001297","tag":{"amenity":"waste_disposal"}},"type":"Feature"},
	{"geometry":{"coordinates":[-3.127077,37.912197],"type":"Point"},"properties":{"osm_id":"2772001300","tag":{"amenity":"waste_basket"}},"type":"Feature"},
	{"geometry":{"coordinates":[-3.126739,37.912545],"type":"Point"},"properties":{"osm_id":"2772001308","tag":{"amenity":"waste_basket"}},"type":"Feature"},
	{"geometry":{"coordinates":[-3.126871,37.912619],"type":"Point"},"properties":{"osm_id":"2772001315","tag":{"amenity":"waste_disposal"}},"type":"Feature"},
	{"geometry":{"coordinates":[-3.126843,37.912631],"type":"Point"},"properties":{"osm_id":"2772001316","tag":{"amenity":"waste_basket"}},"type":"Feature"},
	{"geometry":{"coordinates":[-3.12637,37.912633],"type":"Point"},"properties":{"osm_id":"2772001318","tag":{"amenity":"waste_basket"}},"type":"Feature"},
	{"geometry":{"coordinates":[-3.126406,37.912718],"type":"Point"},"properties":{"osm_id":"2772001328","tag":{"amenity":"waste_basket"}},"type":"Feature"},
	{"geometry":{"coordinates":[-3.126472,37.912808],"type":"Point"},"properties":{"osm_id":"2772001336","tag":{"amenity":"waste_basket"}},"type":"Feature"},
	{"geometry":{"coordinates":[-3.083988,37.857963],"type":"Point"},"properties":{"osm_id":"2772045457","tag":{"amenity":"waste_disposal"}},"type":"Feature"},
	{"geometry":{"coordinates":[-3.083996,37.858016],"type":"Point"},"properties":{"osm_id":"2772045464","tag":{"amenity":"recycling","recycling:glass_bottles":"yes","recycling_type":"container"}},"type":"Feature"},
	{"geometry":{"coordinates":[-3.084005,37.858066],"type":"Point"},"properties":{"osm_id":"2772045469","tag":{"amenity":"recycling","recycling:paper":"yes","recycling_type":"container"}},"type":"Feature"},
	{"geometry":{"coordinates":[-3.117377,37.914197],"type":"Point"},"properties":{"osm_id":"2772103532","tag":{"amenity":"waste_disposal"}},"type":"Feature"},
	{"geometry":{"coordinates":[-3.11857,37.914194],"type":"Point"},"properties":{"osm_id":"2772103536","tag":{"amenity":"recycling","recycling:cans":"yes","recycling:glass":"yes","recycling:paper":"yes","recycling_type":"container"}},"type":"Feature"},
	{"geometry":{"coordinates":[-3.118535,37.914196],"type":"Point"},"properties":{"osm_id":"2772103539","tag":{"amenity":"waste_disposal"}},"type":"Feature"},
	{"geometry":{"coordinates":[-3.11752,37.914843],"type":"Point"},"properties":{"osm_id":"2772103540","tag":{"amenity":"recycling","recycling:cans":"yes","recycling_type":"container"}},"type":"Feature"},
	{"geometry":{"coordinates":[-3.116298,37.914837],"type":"Point"},"properties":{"osm_id":"2772103541","tag":{"amenity":"waste_disposal"}},"type":"Feature"},
	{"geometry":{"coordinates":[-3.117468,37.914828],"type":"Point"},"properties":{"osm_id":"2772103542","tag":{"amenity":"waste_disposal"}},"type":"Feature"},
	{"geometry":{"coordinates":[-3.116356,37.915427],"type":"Point"},"properties":{"osm_id":"2772103544","tag":{"amenity":"waste_disposal"}},"type":"Feature"},
	{"geometry":{"coordinates":[-3.116416,37.915427],"type":"Point"},"properties":{"osm_id":"2772103545","tag":{"amenity":"recycling","recycling:cans":"yes","recycling_type":"container"}},"type":"Feature"},
	{"geometry":{"coordinates":[-3.118315,37.915817],"type":"Point"},"properties":{"osm_id":"2772103547","tag":{"amenity":"recycling","recycling:cans":"yes","recycling:glass":"yes","recycling:paper":"yes","recycling_type":"container"}},"type":"Feature"},
	{"geometry":{"coordinates":[-3.118253,37.915853],"type":"Point"},"properties":{"osm_id":"2772103548","tag":{"amenity":"waste_disposal"}},"type":"Feature"},
	{"geometry":{"coordinates":[-3.123233,37.91076],"type":"Point"},"properties":{"osm_id":"2772104817","tag":{"amenity":"recycling","recycling:paper":"yes"}},"type":"Feature"},
	{"geometry":{"coordinates":[-3.127943,37.915284],"type":"Point"},"properties":{"osm_id":"2772111829","tag":{"amenity":"recycling","recycling:glass":"yes"}},"type":"Feature"},
	{"geometry":{"coordinates":[-3.111624,37.913352],"type":"Point"},"properties":{"osm_id":"2772117557","tag":{"amenity":"waste_disposal"}},"type":"Feature"},
	{"geometry":{"coordinates":[-3.112748,37.913815],"type":"Point"},"properties":{"osm_id":"2772117570","tag":{"amenity":"recycling","recycling:paper":"yes","recycling_type":"container"}},"type":"Feature"},
	{"geometry":{"coordinates":[-3.112824,37.913815],"type":"Point"},"properties":{"osm_id":"2772117571","tag":{"amenity":"waste_disposal"}},"type":"Feature"},
	{"geometry":{"coordinates":[-3.111601,37.913847],"type":"Point"},"properties":{"osm_id":"2772117579","tag":{"amenity":"waste_disposal"}},"type":"Feature"},
	{"geometry":{"coordinates":[-3.113918,37.913875],"type":"Point"},"properties":{"osm_id":"2772117585","tag":{"amenity":"waste_disposal"}},"type":"Feature"},
	{"geometry":{"coordinates":[-3.110113,37.914047],"type":"Point"},"properties":{"osm_id":"2772117619","tag":{"amenity":"waste_disposal"}},"type":"Feature"},
	{"geometry":{"coordinates":[-3.110251,37.914047],"type":"Point"},"properties":{"osm_id":"2772117620","tag":{"amenity":"waste_disposal"}},"type":"Feature"},
	{"geometry":{"coordinates":[-3.107117,37.91411],"type":"Point"},"properties":{"osm_id":"2772117632","tag":{"amenity":"recycling","recycling:glass":"yes"}},"type":"Feature"},
	{"geometry":{"coordinates":[-3.107206,37.914118],"type":"Point"},"properties":{"osm_id":"2772117633","tag":{"amenity":"recycling","recycling:glass":"yes"}},"type":"Feature"},
	{"geometry":{"coordinates":[-3.1073,37.914129],"type":"Point"},"properties":{"osm_id":"2772117638","tag":{"amenity":"waste_disposal"}},"type":"Feature"},
	{"geometry":{"coordinates":[-3.112179,37.914485],"type":"Point"},"properties":{"osm_id":"2785981146","tag":{"amenity":"waste_basket"}},"type":"Feature"},
	{"geometry":{"coordinates":[-3.109201,37.91449],"type":"Point"},"properties":{"osm_id":"2785981149","tag":{"amenity":"recycling"}},"type":"Feature"},
	{"geometry":{"coordinates":[-3.111616,37.91451],"type":"Point"},"properties":{"osm_id":"2785981157","tag":{"amenity":"waste_basket"}},"type":"Feature"},
	{"geometry":{"coordinates":[-3.108776,37.914513],"type":"Point"},"properties":{"osm_id":"2785981159","tag":{"amenity":"recycling"}},"type":"Feature"},
	{"geometry":{"coordinates":[-3.111129,37.914523],"type":"Point"},"properties":{"osm_id":"2785981164","tag":{"amenity":"waste_basket"}},"type":"Feature"},
	{"geometry":{"coordinates":[-3.110881,37.91455],"type":"Point"},"properties":{"osm_id":"2785981169","tag":{"amenity":"recycling"}},"type":"Feature"},
	{"geometry":{"coordinates":[-3.111608,37.914942],"type":"Point"},"properties":{"osm_id":"2785981182","tag":{"amenity":"waste_basket"}},"type":"Feature"},
	{"geometry":{"coordinates":[-3.112508,37.915083],"type":"Point"},"properties":{"osm_id":"2785981206","tag":{"amenity":"recycling"}},"type":"Feature"},
	{"geometry":{"coordinates":[-3.108979,37.915336],"type":"Point"},"properties":{"osm_id":"2785981241","tag":{"amenity":"recycling"}},"type":"Feature"},
	{"geometry":{"coordinates":[-3.109091,37.915431],"type":"Point"},"properties":{"osm_id":"2786017683","tag":{"amenity":"recycling"}},"type":"Feature"},
	{"geometry":{"coordinates":[-3.110603,37.91573],"type":"Point"},"properties":{"osm_id":"2786017708","tag":{"amenity":"recycling"}},"type":"Feature"},
	{"geometry":{"coordinates":[-3.110587,37.915735],"type":"Point"},"properties":{"osm_id":"2786017712","tag":{"amenity":"recycling"}},"type":"Feature"},
	{"geometry":{"coordinates":[-3.110558,37.915745],"type":"Point"},"properties":{"osm_id":"2786017725","tag":{"amenity":"recycling"}},"type":"Feature"},
	{"geometry":{"coordinates":[-3.118858,37.9155],"type":"Point"},"properties":{"osm_id":"2787785961","tag":{"amenity":"waste_disposal"}},"type":"Feature"},
	{"geometry":{"coordinates":[-3.119312,37.917747],"type":"Point"},"properties":{"osm_id":"2787786006","tag":{"amenity":"waste_disposal"}},"type":"Feature"},
	{"geometry":{"coordinates":[-3.116087,37.914347],"type":"Point"},"properties":{"osm_id":"2788377460","tag":{"amenity":"waste_disposal"}},"type":"Feature"},
	{"geometry":{"coordinates":[-3.116248,37.915135],"type":"Point"},"properties":{"osm_id":"2788377475","tag":{"amenity":"recycling","recycling:cans":"yes","recycling_type":"container"}},"type":"Feature"},
	{"geometry":{"coordinates":[-3.117419,37.915493],"type":"Point"},"properties":{"osm_id":"2788377482","tag":{"amenity":"waste_disposal"}},"type":"Feature"},
	{"geometry":{"coordinates":[-3.117302,37.913834],"type":"Point"},"properties":{"osm_id":"2788444224","tag":{"amenity":"waste_disposal"}},"type":"Feature"},
	{"geometry":{"coordinates":[-3.122379,37.91366],"type":"Point"},"properties":{"osm_id":"2803220162","tag":{"amenity":"recycling","recycling:glass":"yes","recycling_type":"container"}},"type":"Feature"},
	{"geometry":{"coordinates":[-3.122404,37.913679],"type":"Point"},"properties":{"osm_id":"2803220163","tag":{"amenity":"recycling","recycling:paper":"yes","recycling_type":"container"}},"type":"Feature"},
	{"geometry":{"coordinates":[-3.124246,37.914577],"type":"Point"},"properties":{"osm_id":"2803378647","tag":{"amenity":"recycling","recycling:paper":"yes","recycling:scrap_metal":"no","recycling_type":"container"}},"type":"Feature"},
	{"geometry":{"coordinates":[-3.124036,37.915629],"type":"Point"},"properties":{"osm_id":"2803378660","tag":{"amenity":"waste_disposal"}},"type":"Feature"},
	{"geometry":{"coordinates":[-3.125793,37.915991],"type":"Point"},"properties":{"osm_id":"2803378670","tag":{"amenity":"waste_disposal"}},"type":"Feature"},
	{"geometry":{"coordinates":[-3.125738,37.915609],"type":"Point"},"properties":{"osm_id":"2803483269","tag":{"amenity":"waste_disposal"}},"type":"Feature"},
	{"geometry":{"coordinates":[-3.124198,37.913385],"type":"Point"},"properties":{"osm_id":"2803813632","tag":{"amenity":"waste_basket"}},"type":"Feature"},
	{"geometry":{"coordinates":[-3.124392,37.913937],"type":"Point"},"properties":{"osm_id":"2803813636","tag":{"amenity":"waste_disposal"}},"type":"Feature"},
	{"geometry":{"coordinates":[-3.122655,37.91373],"type":"Point"},"properties":{"osm_id":"2803970043","tag":{"amenity":"waste_disposal"}},"type":"Feature"},
	{"geometry":{"coordinates":[-3.12658,37.914116],"type":"Point"},"properties":{"osm_id":"2803970053","tag":{"amenity":"recycling","recycling:cans":"yes","recycling_type":"container"}},"type":"Feature"},
	{"geometry":{"coordinates":[-3.126523,37.914123],"type":"Point"},"properties":{"osm_id":"2803970055","tag":{"amenity":"waste_disposal"}},"type":"Feature"},
	{"geometry":{"coordinates":[-3.125525,37.914371],"type":"Point"},"properties":{"osm_id":"2803970060","tag":{"amenity":"waste_disposal"}},"type":"Feature"},
	{"geometry":{"coordinates":[-3.125849,37.914716],"type":"Point"},"properties":{"osm_id":"2803970068","tag":{"amenity":"waste_disposal"}},"type":"Feature"}
]
}
