{
"type": "FeatureCollection",
"features": [
	{"geometry":{"coordinates":[23.499658,40.028782],"type":"Point"},"properties":{"osm_id":"2817627093","tag":{"amenity":"waste_disposal"}},"type":"Feature"},
	{"geometry":{"coordinates":[23.507397,40.001545],"type":"Point"},"properties":{"osm_id":"2819396945","tag":{"amenity":"waste_disposal"}},"type":"Feature"},
	{"geometry":{"coordinates":[23.480203,40.03288],"type":"Point"},"properties":{"osm_id":"2833165324","tag":{"amenity":"waste_disposal"}},"type":"Feature"},
	{"geometry":{"coordinates":[23.481225,40.03289],"type":"Point"},"properties":{"osm_id":"2833165325","tag":{"amenity":"waste_disposal"}},"type":"Feature"},
	{"geometry":{"coordinates":[23.479234,40.033182],"type":"Point"},"properties":{"osm_id":"2833165332","tag":{"amenity":"waste_disposal"}},"type":"Feature"},
	{"geometry":{"coordinates":[23.47329,40.036059],"type":"Point"},"properties":{"osm_id":"2833165342","tag":{"amenity":"waste_disposal"}},"type":"Feature"},
	{"geometry":{"coordinates":[23.523445,40.016532],"type":"Point"},"properties":{"osm_id":"2849315325","tag":{"amenity":"waste_disposal"}},"type":"Feature"},
	{"geometry":{"coordinates":[23.495122,40.032975],"type":"Point"},"properties":{"osm_id":"3105338405","tag":{"amenity":"waste_basket"}},"type":"Feature"},
	{"geometry":{"coordinates":[23.494223,40.033539],"type":"Point"},"properties":{"osm_id":"3105338416","tag":{"amenity":"waste_basket"}},"type":"Feature"},
	{"geometry":{"coordinates":[23.493513,40.034068],"type":"Point"},"properties":{"osm_id":"3105338421","tag":{"amenity":"waste_basket"}},"type":"Feature"},
	{"geometry":{"coordinates":[23.539454,40.012736],"type":"Point"},"properties":{"osm_id":"3322959246","tag":{"amenity":"waste_disposal"}},"type":"Feature"},
	{"geometry":{"coordinates":[23.53861,40.013213],"type":"Point"},"properties":{"osm_id":"3323174828","tag":{"amenity":"waste_disposal"}},"type":"Feature"},
	{"geometry":{"coordinates":[23.529174,40.013377],"type":"Point"},"properties":{"osm_id":"3323174839","tag":{"amenity":"waste_disposal"}},"type":"Feature"},
	{"geometry":{"coordinates":[23.529876,40.013517],"type":"Point"},"properties":{"osm_id":"3323174843","tag":{"amenity":"waste_disposal"}},"type":"Feature"},
	{"geometry":{"coordinates":[23.526447,40.014406],"type":"Point"},"properties":{"osm_id":"3323382098","tag":{"amenity":"waste_disposal"}},"type":"Feature"},
	{"geometry":{"coordinates":[23.523075,40.016962],"type":"Point"},"properties":{"osm_id":"3323382116","tag":{"amenity":"waste_disposal"}},"type":"Feature"},
	{"geometry":{"coordinates":[23.47627,40.033501],"type":"Point"},"properties":{"osm_id":"3323984478","tag":{"amenity":"waste_disposal"}},"type":"Feature"},
	{"geometry":{"coordinates":[23.47711,40.033254],"type":"Point"},"properties":{"osm_id":"3671937843","tag":{"amenity":"recycling","recycling:glass_bottles":"yes"}},"type":"Feature"},
	{"geometry":{"coordinates":[23.518442,40.010601],"type":"Point"},"properties":{"osm_id":"6770377561","tag":{"amenity":"waste_basket"}},"type":"Feature"},
	{"geometry":{"coordinates":[23.512442,40.007685],"type":"Point"},"properties":{"osm_id":"6770377562","tag":{"amenity":"waste_basket"}},"type":"Feature"},
	{"geometry":{"coordinates":[23.510494,40.006933],"type":"Point"},"properties":{"osm_id":"6770377563","tag":{"amenity":"waste_basket"}},"type":"Feature"}
]
}
