{
"type": "FeatureCollection",
"features": [
	{"geometry":{"coordinates":[-7.115557,52.263202],"type":"Point"},"properties":{"osm_id":"2170338574","tag":{"amenity":"waste_basket"}},"type":"Feature"},
	{"geometry":{"coordinates":[-7.115383,52.263167],"type":"Point"},"properties":{"osm_id":"2170338591","tag":{"amenity":"waste_basket"}},"type":"Feature"},
	{"geometry":{"coordinates":[-7.087133,52.243745],"type":"Point"},"properties":{"name":"Tesco recycling centre","osm_id":"5553411765","tag":{"amenity":"recycling","name:ga":"Ionad Athch\u00c3\u00bars\u00c3\u00a1la","recycling_type":"centre"}},"type":"Feature"},
	{"geometry":{"coordinates":[-7.074821,52.234493],"type":"Point"},"properties":{"osm_id":"6315139714","tag":{"amenity":"waste_basket"}},"type":"Feature"},
	{"geometry":{"coordinates":[-7.078361,52.246904],"type":"Point"},"properties":{"osm_id":"6372204014","tag":{"amenity":"waste_basket"}},"type":"Feature"},
	{"geometry":{"coordinates":[-7.068751,52.241462],"type":"Point"},"properties":{"osm_id":"6372204015","tag":{"amenity":"waste_basket"}},"type":"Feature"},
	{"geometry":{"coordinates":[-7.111424,52.257405],"type":"Point"},"properties":{"osm_id":"6374629065","tag":{"amenity":"waste_basket"}},"type":"Feature"},
	{"geometry":{"coordinates":[-7.109,52.258623],"type":"Point"},"properties":{"osm_id":"6374629096","tag":{"amenity":"waste_basket"}},"type":"Feature"},
	{"geometry":{"coordinates":[-7.110068,52.258113],"type":"Point"},"properties":{"osm_id":"6374629097","tag":{"amenity":"waste_basket"}},"type":"Feature"},
	{"geometry":{"coordinates":[-7.10194,52.254725],"type":"Point"},"properties":{"osm_id":"6389066544","tag":{"amenity":"waste_basket"}},"type":"Feature"},
	{"geometry":{"coordinates":[-7.102789,52.257408],"type":"Point"},"properties":{"osm_id":"6389066545","tag":{"amenity":"waste_basket"}},"type":"Feature"},
	{"geometry":{"coordinates":[-7.105228,52.259169],"type":"Point"},"properties":{"osm_id":"6389066546","tag":{"amenity":"waste_basket"}},"type":"Feature"},
	{"geometry":{"coordinates":[-7.105259,52.259296],"type":"Point"},"properties":{"osm_id":"6389066547","tag":{"amenity":"waste_basket"}},"type":"Feature"},
	{"geometry":{"coordinates":[-7.104439,52.259171],"type":"Point"},"properties":{"osm_id":"6389066548","tag":{"amenity":"waste_basket"}},"type":"Feature"},
	{"geometry":{"coordinates":[-7.062857,52.2295],"type":"Point"},"properties":{"osm_id":"6389066549","tag":{"amenity":"waste_basket"}},"type":"Feature"},
	{"geometry":{"coordinates":[-7.103019,52.257726],"type":"Point"},"properties":{"osm_id":"6389066550","tag":{"amenity":"waste_basket"}},"type":"Feature"},
	{"geometry":{"coordinates":[-7.103214,52.257974],"type":"Point"},"properties":{"osm_id":"6389066551","tag":{"amenity":"waste_basket"}},"type":"Feature"},
	{"geometry":{"coordinates":[-7.110905,52.260389],"type":"Point"},"properties":{"osm_id":"6389066552","tag":{"amenity":"waste_basket"}},"type":"Feature"},
	{"geometry":{"coordinates":[-7.111036,52.260413],"type":"Point"},"properties":{"osm_id":"6389066553","tag":{"amenity":"waste_basket"}},"type":"Feature"},
	{"geometry":{"coordinates":[-7.114078,52.260076],"type":"Point"},"properties":{"osm_id":"6389066554","tag":{"amenity":"waste_basket"}},"type":"Feature"},
	{"geometry":{"coordinates":[-7.115793,52.261032],"type":"Point"},"properties":{"osm_id":"7650168442","tag":{"amenity":"recycling","recycling_type":"centre"}},"type":"Feature"},
	{"geometry":{"coordinates":[-7.111327,52.259422],"type":"Point"},"properties":{"osm_id":"7899515851","tag":{"amenity":"waste_basket","colour":"grey","material":"steel","operator":"Waterford City and County","waste":"trash"}},"type":"Feature"},
	{"geometry":{"coordinates":[-7.111044,52.260267],"type":"Point"},"properties":{"osm_id":"7899515878","tag":{"amenity":"waste_basket","colour":"grey","material":"steel","operator":"Waterford City and County","waste":"trash"}},"type":"Feature"}
]
}
