{
"type": "FeatureCollection",
"features": [
	{"geometry":{"coordinates":[8.395878,55.43598],"type":"Point"},"properties":{"osm_id":"370010720","tag":{"amenity":"waste_basket"}},"type":"Feature"},
	{"geometry":{"coordinates":[8.40692,55.449337],"type":"Point"},"properties":{"osm_id":"677510626","tag":{"amenity":"waste_basket"}},"type":"Feature"},
	{"geometry":{"coordinates":[8.364186,55.432449],"type":"Point"},"properties":{"osm_id":"762081211","tag":{"amenity":"waste_basket"}},"type":"Feature"},
	{"geometry":{"coordinates":[8.36435,55.432289],"type":"Point"},"properties":{"osm_id":"762081251","tag":{"amenity":"waste_basket"}},"type":"Feature"},
	{"geometry":{"coordinates":[8.36473,55.433129],"type":"Point"},"properties":{"osm_id":"762081257","tag":{"amenity":"waste_basket","check_date":"2021-10-14"}},"type":"Feature"},
	{"geometry":{"coordinates":[8.375324,55.429095],"type":"Point"},"properties":{"osm_id":"2302942364","tag":{"amenity":"recycling","opening_hours":"24/7","recycling:cans":"yes","recycling:cardboard":"yes","recycling:glass_bottles":"yes","recycling:green_waste":"yes","recycling:paper":"yes","recycling:plastic_bottles":"yes","recycling:waste":"yes","recycling_type":"container","wheelchair":"limited"}},"type":"Feature"},
	{"geometry":{"coordinates":[8.385759,55.438714],"type":"Point"},"properties":{"osm_id":"2305597366","tag":{"amenity":"recycling","recycling:cans":"yes","recycling:cardboard":"yes","recycling:glass_bottles":"yes","recycling:organic":"yes","recycling:paper":"yes","recycling:plastic_bottles":"yes","recycling:plastic_packaging":"yes","recycling:waste":"yes","recycling_type":"container"}},"type":"Feature"},
	{"geometry":{"coordinates":[8.407615,55.449649],"type":"Point"},"properties":{"osm_id":"4427482045","tag":{"amenity":"waste_basket"}},"type":"Feature"},
	{"geometry":{"coordinates":[8.407163,55.449959],"type":"Point"},"properties":{"osm_id":"4427482050","tag":{"amenity":"waste_basket","check_date":"2021-07-11"}},"type":"Feature"},
	{"geometry":{"coordinates":[8.424288,55.470179],"type":"Point"},"properties":{"osm_id":"6828110913","tag":{"amenity":"waste_basket"}},"type":"Feature"},
	{"geometry":{"coordinates":[8.364713,55.434615],"type":"Point"},"properties":{"osm_id":"7095750362","tag":{"amenity":"waste_basket","waste":"trash"}},"type":"Feature"},
	{"geometry":{"coordinates":[8.399731,55.444951],"type":"Point"},"properties":{"osm_id":"9162886398","tag":{"amenity":"recycling","opening_hours":"24/7","recycling:beverage_cartons":"no","recycling:cans":"yes","recycling:glass_bottles":"yes","recycling:paper":"yes","recycling:plastic":"no","recycling:plastic_bottles":"yes","recycling:plastic_packaging":"no","recycling_type":"container"}},"type":"Feature"},
	{"geometry":{"coordinates":[8.401428,55.443619],"type":"Point"},"properties":{"osm_id":"9162886453","tag":{"amenity":"recycling","recycling_type":"container"}},"type":"Feature"}
]
}
