{
"type": "FeatureCollection",
"features": [
	{"geometry":{"coordinates":[8.40646,55.413788],"type":"Point"},"properties":{"osm_id":"370010968","tag":{"amenity":"recycling","recycling:cans":"yes","recycling:glass":"yes","recycling:paper":"yes","recycling_type":"container","wheelchair":"limited","wpt_symbol":"Container"}},"type":"Feature"},
	{"geometry":{"coordinates":[8.384049,55.422594],"type":"Point"},"properties":{"osm_id":"1791715450","tag":{"amenity":"recycling","opening_hours":"24/7","recycling:cans":"yes","recycling:cardboard":"yes","recycling:glass_bottles":"yes","recycling:green_waste":"yes","recycling:paper":"yes","recycling:plastic_bottles":"yes","recycling_type":"container","wheelchair":"limited"}},"type":"Feature"},
	{"geometry":{"coordinates":[8.413877,55.407908],"type":"Point"},"properties":{"osm_id":"4413792318","tag":{"amenity":"waste_basket"}},"type":"Feature"},
	{"geometry":{"coordinates":[8.385656,55.409525],"type":"Point"},"properties":{"osm_id":"4414807236","tag":{"amenity":"waste_basket"}},"type":"Feature"},
	{"geometry":{"coordinates":[8.384353,55.410958],"type":"Point"},"properties":{"osm_id":"4414807238","tag":{"amenity":"waste_basket"}},"type":"Feature"},
	{"geometry":{"coordinates":[8.382658,55.412521],"type":"Point"},"properties":{"osm_id":"4414807240","tag":{"amenity":"waste_basket"}},"type":"Feature"},
	{"geometry":{"coordinates":[8.381032,55.41443],"type":"Point"},"properties":{"osm_id":"4414807242","tag":{"amenity":"waste_basket"}},"type":"Feature"},
	{"geometry":{"coordinates":[8.379734,55.415746],"type":"Point"},"properties":{"osm_id":"4414807244","tag":{"amenity":"waste_basket"}},"type":"Feature"},
	{"geometry":{"coordinates":[8.376676,55.419177],"type":"Point"},"properties":{"osm_id":"4414807245","tag":{"amenity":"waste_basket"}},"type":"Feature"},
	{"geometry":{"coordinates":[8.42354,55.380521],"type":"Point"},"properties":{"osm_id":"4422545379","tag":{"amenity":"waste_basket"}},"type":"Feature"},
	{"geometry":{"coordinates":[8.423589,55.380546],"type":"Point"},"properties":{"osm_id":"4422545383","tag":{"amenity":"waste_basket"}},"type":"Feature"},
	{"geometry":{"coordinates":[8.423571,55.380685],"type":"Point"},"properties":{"osm_id":"4422545989","tag":{"amenity":"waste_basket"}},"type":"Feature"},
	{"geometry":{"coordinates":[8.423533,55.380726],"type":"Point"},"properties":{"osm_id":"4422545990","tag":{"amenity":"waste_basket"}},"type":"Feature"},
	{"geometry":{"coordinates":[8.423492,55.380774],"type":"Point"},"properties":{"osm_id":"4422545991","tag":{"amenity":"waste_basket"}},"type":"Feature"},
	{"geometry":{"coordinates":[8.423451,55.380819],"type":"Point"},"properties":{"osm_id":"4422545992","tag":{"amenity":"waste_basket"}},"type":"Feature"},
	{"geometry":{"coordinates":[8.41826,55.387993],"type":"Point"},"properties":{"osm_id":"4422546222","tag":{"amenity":"waste_basket"}},"type":"Feature"},
	{"geometry":{"coordinates":[8.418587,55.388143],"type":"Point"},"properties":{"osm_id":"4422546225","tag":{"amenity":"waste_basket"}},"type":"Feature"},
	{"geometry":{"coordinates":[8.423644,55.389638],"type":"Point"},"properties":{"osm_id":"4422546231","tag":{"amenity":"waste_basket"}},"type":"Feature"},
	{"geometry":{"coordinates":[8.424165,55.389877],"type":"Point"},"properties":{"osm_id":"4422546233","tag":{"amenity":"waste_basket"}},"type":"Feature"},
	{"geometry":{"coordinates":[8.376604,55.42019],"type":"Point"},"properties":{"osm_id":"4424037609","tag":{"amenity":"waste_basket"}},"type":"Feature"},
	{"geometry":{"coordinates":[8.374507,55.421324],"type":"Point"},"properties":{"osm_id":"4424037611","tag":{"amenity":"waste_basket"}},"type":"Feature"},
	{"geometry":{"coordinates":[8.373541,55.42224],"type":"Point"},"properties":{"osm_id":"4424037612","tag":{"amenity":"waste_basket"}},"type":"Feature"},
	{"geometry":{"coordinates":[8.36849,55.427261],"type":"Point"},"properties":{"osm_id":"4424037616","tag":{"amenity":"waste_basket"}},"type":"Feature"},
	{"geometry":{"coordinates":[8.371621,55.424073],"type":"Point"},"properties":{"osm_id":"4425457765","tag":{"amenity":"waste_basket"}},"type":"Feature"},
	{"geometry":{"coordinates":[8.366839,55.428865],"type":"Point"},"properties":{"osm_id":"4425457767","tag":{"amenity":"waste_basket"}},"type":"Feature"},
	{"geometry":{"coordinates":[8.382554,55.422499],"type":"Point"},"properties":{"osm_id":"6106719137","tag":{"amenity":"waste_basket"}},"type":"Feature"},
	{"geometry":{"coordinates":[8.382809,55.422451],"type":"Point"},"properties":{"osm_id":"6106719138","tag":{"amenity":"waste_basket"}},"type":"Feature"}
]
}
