{
"type": "FeatureCollection",
"features": [
	{"geometry":{"coordinates":[8.375548,51.800861],"type":"Point"},"properties":{"osm_id":"259777999","tag":{"amenity":"recycling","recycling:glass":"yes","recycling:glass_bottles":"yes","recycling_type":"container"}},"type":"Feature"},
	{"geometry":{"coordinates":[8.414983,51.809909],"type":"Point"},"properties":{"osm_id":"259778069","tag":{"amenity":"recycling"}},"type":"Feature"},
	{"geometry":{"coordinates":[8.422439,51.810851],"type":"Point"},"properties":{"osm_id":"259778070","tag":{"amenity":"recycling","recycling:clothes":"yes","recycling:glass_bottles":"yes","recycling_type":"container"}},"type":"Feature"},
	{"geometry":{"coordinates":[8.433165,51.826558],"type":"Point"},"properties":{"osm_id":"259837422","tag":{"amenity":"recycling","recycling_type":"container"}},"type":"Feature"},
	{"geometry":{"coordinates":[8.434206,51.824706],"type":"Point"},"properties":{"osm_id":"259837425","tag":{"amenity":"recycling","recycling_type":"container"}},"type":"Feature"},
	{"geometry":{"coordinates":[8.402458,51.827498],"type":"Point"},"properties":{"osm_id":"260723116","tag":{"amenity":"recycling","recycling:glass_bottles":"yes","recycling_type":"container"}},"type":"Feature"},
	{"geometry":{"coordinates":[8.420824,51.80816],"type":"Point"},"properties":{"osm_id":"262440655","tag":{"amenity":"recycling"}},"type":"Feature"},
	{"geometry":{"coordinates":[8.426164,51.815703],"type":"Point"},"properties":{"osm_id":"301594506","tag":{"amenity":"recycling","recycling:clothes":"yes","recycling:glass":"yes"}},"type":"Feature"},
	{"geometry":{"coordinates":[8.380077,51.802175],"type":"Point"},"properties":{"osm_id":"313128902","tag":{"amenity":"recycling","recycling:clothes":"yes","recycling:glass_bottles":"yes","recycling_type":"container"}},"type":"Feature"},
	{"geometry":{"coordinates":[8.42727,51.793963],"type":"Point"},"properties":{"osm_id":"407984390","tag":{"amenity":"recycling","recycling:clothes":"yes","recycling_type":"container"}},"type":"Feature"},
	{"geometry":{"coordinates":[8.425822,51.804762],"type":"Point"},"properties":{"osm_id":"455539332","tag":{"amenity":"recycling","recycling:glass_bottles":"yes","recycling_type":"container"}},"type":"Feature"},
	{"geometry":{"coordinates":[8.363461,51.835597],"type":"Point"},"properties":{"osm_id":"509130842","tag":{"amenity":"recycling","mapillary":"v4LrR8dT_0-PgVH9pBckMg","recycling:glass":"no","recycling:glass_bottles":"yes","recycling_type":"container","survey:date":"2019-05-16"}},"type":"Feature"},
	{"geometry":{"coordinates":[8.41091,51.835096],"type":"Point"},"properties":{"osm_id":"737890598","tag":{"amenity":"waste_basket","check_date":"2021-05-22"}},"type":"Feature"},
	{"geometry":{"coordinates":[8.427174,51.806214],"type":"Point"},"properties":{"osm_id":"4770776396","tag":{"amenity":"waste_basket"}},"type":"Feature"},
	{"geometry":{"coordinates":[8.427389,51.806203],"type":"Point"},"properties":{"osm_id":"4770776397","tag":{"amenity":"waste_basket"}},"type":"Feature"},
	{"geometry":{"coordinates":[8.424627,51.810414],"type":"Point"},"properties":{"osm_id":"4770956409","tag":{"amenity":"waste_basket"}},"type":"Feature"},
	{"geometry":{"coordinates":[8.423895,51.810349],"type":"Point"},"properties":{"osm_id":"4770975722","tag":{"amenity":"waste_basket"}},"type":"Feature"},
	{"geometry":{"coordinates":[8.434426,51.806881],"type":"Point"},"properties":{"osm_id":"6257230630","tag":{"amenity":"waste_basket","waste":"trash"}},"type":"Feature"},
	{"geometry":{"coordinates":[8.434124,51.807185],"type":"Point"},"properties":{"osm_id":"6257230633","tag":{"amenity":"waste_basket","waste":"trash"}},"type":"Feature"},
	{"geometry":{"coordinates":[8.42601,51.809897],"type":"Point"},"properties":{"osm_id":"7877393047","tag":{"amenity":"waste_basket","waste":"trash"}},"type":"Feature"},
	{"geometry":{"coordinates":[8.422062,51.810718],"type":"Point"},"properties":{"osm_id":"7877393063","tag":{"amenity":"waste_basket","waste":"trash"}},"type":"Feature"},
	{"geometry":{"coordinates":[8.428357,51.795862],"type":"Point"},"properties":{"osm_id":"8582319405","tag":{"amenity":"waste_basket"}},"type":"Feature"}
]
}
