{
"type": "FeatureCollection",
"features": [
	{"geometry":{"coordinates":[8.397756,51.684764],"type":"Point"},"properties":{"osm_id":"1364985193","tag":{"amenity":"waste_basket"}},"type":"Feature"},
	{"geometry":{"coordinates":[8.40847,51.687046],"type":"Point"},"properties":{"osm_id":"1364985194","tag":{"amenity":"waste_basket"}},"type":"Feature"},
	{"geometry":{"coordinates":[8.360164,51.683754],"type":"Point"},"properties":{"osm_id":"1365002157","tag":{"amenity":"recycling","recycling:clothes":"yes","recycling:glass":"yes"}},"type":"Feature"},
	{"geometry":{"coordinates":[8.351101,51.6872],"type":"Point"},"properties":{"osm_id":"2253010157","tag":{"amenity":"recycling","recycling:glass_bottles":"yes","recycling_type":"container"}},"type":"Feature"},
	{"geometry":{"coordinates":[8.351183,51.674081],"type":"Point"},"properties":{"osm_id":"2388205382","tag":{"amenity":"recycling","recycling:clothes":"yes","recycling:electronics":"yes","recycling:glass_bottles":"yes","recycling:shoes":"yes"}},"type":"Feature"},
	{"geometry":{"coordinates":[8.372978,51.673933],"type":"Point"},"properties":{"osm_id":"2661462822","tag":{"amenity":"recycling","recycling:glass":"yes","recycling_type":"container"}},"type":"Feature"},
	{"geometry":{"coordinates":[8.366442,51.706917],"type":"Point"},"properties":{"osm_id":"3228014955","tag":{"amenity":"recycling","recycling:clothes":"yes","recycling:glass":"yes"}},"type":"Feature"},
	{"geometry":{"coordinates":[8.365472,51.707933],"type":"Point"},"properties":{"osm_id":"3228017433","tag":{"amenity":"waste_basket"}},"type":"Feature"},
	{"geometry":{"coordinates":[8.364522,51.709532],"type":"Point"},"properties":{"osm_id":"3228026487","tag":{"amenity":"recycling","recycling:plastic_bottles":"yes"}},"type":"Feature"},
	{"geometry":{"coordinates":[8.365982,51.707748],"type":"Point"},"properties":{"osm_id":"3250536247","tag":{"amenity":"waste_basket"}},"type":"Feature"},
	{"geometry":{"coordinates":[8.363779,51.710111],"type":"Point"},"properties":{"osm_id":"3359626524","tag":{"amenity":"recycling","recycling:glass":"yes","recycling_type":"container"}},"type":"Feature"},
	{"geometry":{"coordinates":[8.403109,51.700312],"type":"Point"},"properties":{"osm_id":"3658448274","tag":{"amenity":"waste_basket"}},"type":"Feature"},
	{"geometry":{"coordinates":[8.402628,51.700384],"type":"Point"},"properties":{"osm_id":"3658448275","tag":{"amenity":"waste_basket"}},"type":"Feature"},
	{"geometry":{"coordinates":[8.40844,51.701742],"type":"Point"},"properties":{"osm_id":"3696242212","tag":{"amenity":"recycling","recycling:glass_bottles":"yes","recycling_type":"container"}},"type":"Feature"},
	{"geometry":{"coordinates":[8.355346,51.693682],"type":"Point"},"properties":{"osm_id":"3912586959","tag":{"amenity":"recycling","recycling:electrical_appliances":"yes","recycling:glass":"yes","recycling_type":"container"}},"type":"Feature"},
	{"geometry":{"coordinates":[8.402692,51.700189],"type":"Point"},"properties":{"osm_id":"4343920070","tag":{"amenity":"waste_basket"}},"type":"Feature"},
	{"geometry":{"coordinates":[8.402199,51.700401],"type":"Point"},"properties":{"osm_id":"4343920071","tag":{"amenity":"waste_basket"}},"type":"Feature"},
	{"geometry":{"coordinates":[8.429019,51.701542],"type":"Point"},"properties":{"osm_id":"4376751650","tag":{"amenity":"waste_basket"}},"type":"Feature"},
	{"geometry":{"coordinates":[8.351142,51.687194],"type":"Point"},"properties":{"osm_id":"4568638648","tag":{"amenity":"recycling","recycling:clothes":"yes","recycling_type":"container"}},"type":"Feature"},
	{"geometry":{"coordinates":[8.403067,51.719441],"type":"Point"},"properties":{"osm_id":"6149966337","tag":{"amenity":"waste_basket"}},"type":"Feature"},
	{"geometry":{"coordinates":[8.354313,51.67875],"type":"Point"},"properties":{"osm_id":"6161159076","tag":{"amenity":"waste_basket"}},"type":"Feature"},
	{"geometry":{"coordinates":[8.351463,51.678853],"type":"Point"},"properties":{"osm_id":"6163673597","tag":{"amenity":"waste_basket"}},"type":"Feature"},
	{"geometry":{"coordinates":[8.349934,51.678766],"type":"Point"},"properties":{"osm_id":"6164534178","tag":{"amenity":"waste_basket","colour":"green"}},"type":"Feature"},
	{"geometry":{"coordinates":[8.349817,51.677808],"type":"Point"},"properties":{"osm_id":"6164534593","tag":{"amenity":"waste_basket"}},"type":"Feature"},
	{"geometry":{"coordinates":[8.406288,51.690378],"type":"Point"},"properties":{"osm_id":"7237142869","tag":{"amenity":"waste_basket"}},"type":"Feature"},
	{"geometry":{"coordinates":[8.407736,51.690657],"type":"Point"},"properties":{"osm_id":"7237142871","tag":{"amenity":"waste_basket"}},"type":"Feature"},
	{"geometry":{"coordinates":[8.405055,51.690316],"type":"Point"},"properties":{"osm_id":"7238161157","tag":{"amenity":"waste_basket"}},"type":"Feature"},
	{"geometry":{"coordinates":[8.432666,51.689464],"type":"Point"},"properties":{"osm_id":"7241017032","tag":{"amenity":"recycling","recycling:clothes":"yes","recycling_type":"container"}},"type":"Feature"},
	{"geometry":{"coordinates":[8.437092,51.690919],"type":"Point"},"properties":{"osm_id":"7243259532","tag":{"amenity":"waste_basket","colour":"green"}},"type":"Feature"},
	{"geometry":{"coordinates":[8.436864,51.690562],"type":"Point"},"properties":{"osm_id":"7243259534","tag":{"amenity":"waste_basket","colour":"green"}},"type":"Feature"},
	{"geometry":{"coordinates":[8.436633,51.690631],"type":"Point"},"properties":{"osm_id":"7243259541","tag":{"amenity":"waste_basket","colour":"green"}},"type":"Feature"},
	{"geometry":{"coordinates":[8.373859,51.685087],"type":"Point"},"properties":{"osm_id":"7919852390","tag":{"amenity":"waste_basket"}},"type":"Feature"},
	{"geometry":{"coordinates":[8.352545,51.679374],"type":"Point"},"properties":{"osm_id":"7919888668","tag":{"amenity":"waste_basket"}},"type":"Feature"},
	{"geometry":{"coordinates":[8.353509,51.679778],"type":"Point"},"properties":{"osm_id":"7919888669","tag":{"amenity":"waste_basket"}},"type":"Feature"},
	{"geometry":{"coordinates":[8.370869,51.684692],"type":"Point"},"properties":{"osm_id":"7919888684","tag":{"amenity":"waste_basket"}},"type":"Feature"},
	{"geometry":{"coordinates":[8.43584,51.688528],"type":"Point"},"properties":{"osm_id":"7933975155","tag":{"amenity":"recycling","recycling:glass":"yes","recycling_type":"container"}},"type":"Feature"},
	{"geometry":{"coordinates":[8.399191,51.683781],"type":"Point"},"properties":{"osm_id":"7934149166","tag":{"amenity":"waste_basket"}},"type":"Feature"}
]
}
