{
"type": "FeatureCollection",
"features": [
	{"geometry":{"coordinates":[8.355686,51.456191],"type":"Point"},"properties":{"osm_id":"1511855513","tag":{"amenity":"recycling","recycling:clothes":"yes","recycling:glass":"yes"}},"type":"Feature"},
	{"geometry":{"coordinates":[8.382422,51.455666],"type":"Point"},"properties":{"osm_id":"2280434943","tag":{"amenity":"recycling","recycling:clothes":"yes","recycling:glass":"yes","recycling:shoes":"yes"}},"type":"Feature"},
	{"geometry":{"coordinates":[8.433539,51.494763],"type":"Point"},"properties":{"osm_id":"2668766827","tag":{"amenity":"recycling","recycling:glass_bottles":"yes","recycling:small_appliances":"yes","recycling:small_electrical_appliances":"yes","recycling_type":"container"}},"type":"Feature"},
	{"geometry":{"coordinates":[8.37045,51.454102],"type":"Point"},"properties":{"osm_id":"2907340675","tag":{"amenity":"recycling","recycling:clothes":"yes","recycling_type":"container"}},"type":"Feature"},
	{"geometry":{"coordinates":[8.368232,51.464253],"type":"Point"},"properties":{"osm_id":"4211314752","tag":{"amenity":"waste_basket"}},"type":"Feature"},
	{"geometry":{"coordinates":[8.380916,51.459134],"type":"Point"},"properties":{"osm_id":"4214414108","tag":{"amenity":"waste_basket"}},"type":"Feature"},
	{"geometry":{"coordinates":[8.379093,51.463457],"type":"Point"},"properties":{"osm_id":"4214414184","tag":{"amenity":"waste_basket"}},"type":"Feature"},
	{"geometry":{"coordinates":[8.425344,51.490885],"type":"Point"},"properties":{"osm_id":"6646759796","tag":{"amenity":"waste_basket"}},"type":"Feature"}
]
}
