{
"type": "FeatureCollection",
"features": [
	{"geometry":{"coordinates":[8.420416,51.370964],"type":"Point"},"properties":{"osm_id":"321206502","tag":{"amenity":"recycling","recycling:glass_bottles":"yes","recycling_type":"container"}},"type":"Feature"},
	{"geometry":{"coordinates":[8.401134,51.362292],"type":"Point"},"properties":{"osm_id":"954768646","tag":{"amenity":"recycling","recycling:clothes":"yes","recycling:glass":"yes"}},"type":"Feature"},
	{"geometry":{"coordinates":[8.407866,51.364952],"type":"Point"},"properties":{"osm_id":"954768649","tag":{"amenity":"recycling","recycling:shoes":"yes","recycling_type":"container"}},"type":"Feature"},
	{"geometry":{"coordinates":[8.425612,51.370558],"type":"Point"},"properties":{"osm_id":"954770535","tag":{"amenity":"recycling","recycling:clothes":"yes","recycling:glass":"yes","recycling:shoes":"yes","recycling_type":"container"}},"type":"Feature"},
	{"geometry":{"coordinates":[8.405353,51.353359],"type":"Point"},"properties":{"osm_id":"954787378","tag":{"amenity":"recycling","recycling:green_waste":"yes","recycling:paper":"yes"}},"type":"Feature"},
	{"geometry":{"coordinates":[8.419126,51.371018],"type":"Point"},"properties":{"osm_id":"993977444","tag":{"amenity":"recycling","recycling:green_waste":"yes"}},"type":"Feature"},
	{"geometry":{"coordinates":[8.376204,51.390035],"type":"Point"},"properties":{"osm_id":"1284631840","tag":{"amenity":"waste_basket"}},"type":"Feature"},
	{"geometry":{"coordinates":[8.431351,51.375623],"type":"Point"},"properties":{"osm_id":"1701370759","tag":{"amenity":"waste_basket"}},"type":"Feature"},
	{"geometry":{"coordinates":[8.387355,51.357966],"type":"Point"},"properties":{"osm_id":"1850226922","tag":{"amenity":"recycling","recycling:glass":"yes","recycling_type":"container"}},"type":"Feature"},
	{"geometry":{"coordinates":[8.403437,51.362342],"type":"Point"},"properties":{"osm_id":"2295001005","tag":{"amenity":"waste_basket"}},"type":"Feature"},
	{"geometry":{"coordinates":[8.403385,51.362414],"type":"Point"},"properties":{"osm_id":"2295001023","tag":{"amenity":"waste_basket"}},"type":"Feature"},
	{"geometry":{"coordinates":[8.409458,51.350103],"type":"Point"},"properties":{"osm_id":"2333701360","tag":{"amenity":"waste_basket"}},"type":"Feature"},
	{"geometry":{"coordinates":[8.359933,51.353944],"type":"Point"},"properties":{"osm_id":"2601612977","tag":{"amenity":"recycling","recycling:electrical_items":"yes","recycling:low_energy_bulbs":"yes","recycling:mobile_phones":"yes","recycling:small_appliances":"yes"}},"type":"Feature"},
	{"geometry":{"coordinates":[8.396046,51.376369],"type":"Point"},"properties":{"osm_id":"2707319147","tag":{"amenity":"waste_basket"}},"type":"Feature"},
	{"geometry":{"coordinates":[8.396031,51.376416],"type":"Point"},"properties":{"osm_id":"2707319153","tag":{"amenity":"waste_basket"}},"type":"Feature"},
	{"geometry":{"coordinates":[8.395607,51.377929],"type":"Point"},"properties":{"osm_id":"2707319190","tag":{"amenity":"waste_basket"}},"type":"Feature"},
	{"geometry":{"coordinates":[8.380951,51.358288],"type":"Point"},"properties":{"osm_id":"3499774228","tag":{"amenity":"waste_basket"}},"type":"Feature"},
	{"geometry":{"coordinates":[8.384652,51.358442],"type":"Point"},"properties":{"osm_id":"3499774234","tag":{"amenity":"waste_basket"}},"type":"Feature"},
	{"geometry":{"coordinates":[8.389791,51.360559],"type":"Point"},"properties":{"osm_id":"3499774259","tag":{"amenity":"waste_basket"}},"type":"Feature"},
	{"geometry":{"coordinates":[8.362628,51.358518],"type":"Point"},"properties":{"osm_id":"3719033502","tag":{"amenity":"waste_basket"}},"type":"Feature"},
	{"geometry":{"coordinates":[8.362212,51.35852],"type":"Point"},"properties":{"osm_id":"3719033503","tag":{"amenity":"waste_basket"}},"type":"Feature"},
	{"geometry":{"coordinates":[8.362427,51.358536],"type":"Point"},"properties":{"osm_id":"3719033511","tag":{"amenity":"waste_basket"}},"type":"Feature"},
	{"geometry":{"coordinates":[8.419762,51.355293],"type":"Point"},"properties":{"osm_id":"3751755973","tag":{"amenity":"waste_basket"}},"type":"Feature"},
	{"geometry":{"coordinates":[8.365176,51.359604],"type":"Point"},"properties":{"osm_id":"5123848393","tag":{"amenity":"waste_basket"}},"type":"Feature"},
	{"geometry":{"coordinates":[8.378111,51.358791],"type":"Point"},"properties":{"osm_id":"5123848395","tag":{"amenity":"recycling","recycling:glass":"yes","recycling_type":"container"}},"type":"Feature"},
	{"geometry":{"coordinates":[8.378074,51.35879],"type":"Point"},"properties":{"osm_id":"5123848396","tag":{"amenity":"recycling","recycling:glass":"yes","recycling_type":"container"}},"type":"Feature"},
	{"geometry":{"coordinates":[8.417178,51.359479],"type":"Point"},"properties":{"osm_id":"5718451551","tag":{"amenity":"waste_basket"}},"type":"Feature"},
	{"geometry":{"coordinates":[8.41713,51.359773],"type":"Point"},"properties":{"osm_id":"5718451552","tag":{"amenity":"waste_basket"}},"type":"Feature"},
	{"geometry":{"coordinates":[8.417473,51.359619],"type":"Point"},"properties":{"osm_id":"5718451553","tag":{"amenity":"waste_basket"}},"type":"Feature"},
	{"geometry":{"coordinates":[8.417816,51.360063],"type":"Point"},"properties":{"osm_id":"5718451554","tag":{"amenity":"waste_basket"}},"type":"Feature"},
	{"geometry":{"coordinates":[8.417939,51.359834],"type":"Point"},"properties":{"osm_id":"5718451555","tag":{"amenity":"waste_basket"}},"type":"Feature"},
	{"geometry":{"coordinates":[8.418628,51.359276],"type":"Point"},"properties":{"osm_id":"5718451559","tag":{"amenity":"recycling","recycling:glass":"yes","recycling_type":"container"}},"type":"Feature"},
	{"geometry":{"coordinates":[8.398856,51.364045],"type":"Point"},"properties":{"osm_id":"5873080545","tag":{"amenity":"waste_basket"}},"type":"Feature"},
	{"geometry":{"coordinates":[8.424798,51.369969],"type":"Point"},"properties":{"osm_id":"6100842811","tag":{"amenity":"waste_basket"}},"type":"Feature"},
	{"geometry":{"coordinates":[8.389409,51.373403],"type":"Point"},"properties":{"osm_id":"6181772739","tag":{"amenity":"waste_basket"}},"type":"Feature"},
	{"geometry":{"coordinates":[8.385188,51.371063],"type":"Point"},"properties":{"osm_id":"6181773700","tag":{"amenity":"waste_basket"}},"type":"Feature"},
	{"geometry":{"coordinates":[8.358373,51.360127],"type":"Point"},"properties":{"osm_id":"6498616158","tag":{"amenity":"waste_basket"}},"type":"Feature"},
	{"geometry":{"coordinates":[8.367454,51.359605],"type":"Point"},"properties":{"osm_id":"6504181975","tag":{"amenity":"waste_basket"}},"type":"Feature"},
	{"geometry":{"coordinates":[8.370018,51.359362],"type":"Point"},"properties":{"osm_id":"6504181979","tag":{"amenity":"waste_basket"}},"type":"Feature"},
	{"geometry":{"coordinates":[8.403406,51.358327],"type":"Point"},"properties":{"osm_id":"6504185219","tag":{"amenity":"waste_basket"}},"type":"Feature"},
	{"geometry":{"coordinates":[8.401666,51.370272],"type":"Point"},"properties":{"osm_id":"6917497125","tag":{"amenity":"waste_basket"}},"type":"Feature"},
	{"geometry":{"coordinates":[8.40189,51.370599],"type":"Point"},"properties":{"osm_id":"6917497126","tag":{"amenity":"waste_basket"}},"type":"Feature"},
	{"geometry":{"coordinates":[8.402247,51.370775],"type":"Point"},"properties":{"osm_id":"6917497127","tag":{"amenity":"waste_basket"}},"type":"Feature"},
	{"geometry":{"coordinates":[8.402239,51.37052],"type":"Point"},"properties":{"osm_id":"6917497128","tag":{"amenity":"waste_basket"}},"type":"Feature"},
	{"geometry":{"coordinates":[8.402672,51.37053],"type":"Point"},"properties":{"osm_id":"6917497129","tag":{"amenity":"waste_basket"}},"type":"Feature"},
	{"geometry":{"coordinates":[8.402253,51.370338],"type":"Point"},"properties":{"osm_id":"6917497130","tag":{"amenity":"waste_basket"}},"type":"Feature"},
	{"geometry":{"coordinates":[8.401835,51.370142],"type":"Point"},"properties":{"osm_id":"6917497131","tag":{"amenity":"waste_basket"}},"type":"Feature"},
	{"geometry":{"coordinates":[8.401426,51.369933],"type":"Point"},"properties":{"osm_id":"6917497132","tag":{"amenity":"waste_basket"}},"type":"Feature"},
	{"geometry":{"coordinates":[8.401177,51.370249],"type":"Point"},"properties":{"osm_id":"6917497133","tag":{"amenity":"waste_basket"}},"type":"Feature"},
	{"geometry":{"coordinates":[8.40101,51.370173],"type":"Point"},"properties":{"osm_id":"6917497134","tag":{"amenity":"waste_basket"}},"type":"Feature"},
	{"geometry":{"coordinates":[8.400861,51.37009],"type":"Point"},"properties":{"osm_id":"6917497135","tag":{"amenity":"waste_basket"}},"type":"Feature"},
	{"geometry":{"coordinates":[8.400978,51.369934],"type":"Point"},"properties":{"osm_id":"6917497136","tag":{"amenity":"waste_basket"}},"type":"Feature"},
	{"geometry":{"coordinates":[8.401073,51.369799],"type":"Point"},"properties":{"osm_id":"6917497137","tag":{"amenity":"waste_basket"}},"type":"Feature"},
	{"geometry":{"coordinates":[8.405001,51.371209],"type":"Point"},"properties":{"osm_id":"6920482490","tag":{"amenity":"waste_basket"}},"type":"Feature"},
	{"geometry":{"coordinates":[8.405405,51.371375],"type":"Point"},"properties":{"osm_id":"6920482491","tag":{"amenity":"waste_basket"}},"type":"Feature"},
	{"geometry":{"coordinates":[8.405803,51.37155],"type":"Point"},"properties":{"osm_id":"6920482492","tag":{"amenity":"waste_basket"}},"type":"Feature"},
	{"geometry":{"coordinates":[8.406282,51.371749],"type":"Point"},"properties":{"osm_id":"6920482493","tag":{"amenity":"waste_basket"}},"type":"Feature"},
	{"geometry":{"coordinates":[8.4067,51.371914],"type":"Point"},"properties":{"osm_id":"6920482494","tag":{"amenity":"waste_basket"}},"type":"Feature"},
	{"geometry":{"coordinates":[8.406767,51.371795],"type":"Point"},"properties":{"osm_id":"6920482495","tag":{"amenity":"waste_basket"}},"type":"Feature"},
	{"geometry":{"coordinates":[8.406688,51.371735],"type":"Point"},"properties":{"osm_id":"6920482496","tag":{"amenity":"waste_basket"}},"type":"Feature"},
	{"geometry":{"coordinates":[8.406866,51.371642],"type":"Point"},"properties":{"osm_id":"6920482497","tag":{"amenity":"waste_basket"}},"type":"Feature"},
	{"geometry":{"coordinates":[8.406782,51.371571],"type":"Point"},"properties":{"osm_id":"6920482498","tag":{"amenity":"waste_basket"}},"type":"Feature"},
	{"geometry":{"coordinates":[8.406647,51.371515],"type":"Point"},"properties":{"osm_id":"6920482499","tag":{"amenity":"waste_basket"}},"type":"Feature"},
	{"geometry":{"coordinates":[8.406519,51.37146],"type":"Point"},"properties":{"osm_id":"6920482500","tag":{"amenity":"waste_basket"}},"type":"Feature"},
	{"geometry":{"coordinates":[8.405999,51.371405],"type":"Point"},"properties":{"osm_id":"6920482501","tag":{"amenity":"waste_basket"}},"type":"Feature"},
	{"geometry":{"coordinates":[8.405397,51.371221],"type":"Point"},"properties":{"osm_id":"6920482502","tag":{"amenity":"waste_basket"}},"type":"Feature"},
	{"geometry":{"coordinates":[8.405583,51.371036],"type":"Point"},"properties":{"osm_id":"6920482503","tag":{"amenity":"waste_basket"}},"type":"Feature"},
	{"geometry":{"coordinates":[8.405069,51.370889],"type":"Point"},"properties":{"osm_id":"6920482504","tag":{"amenity":"waste_basket"}},"type":"Feature"}
]
}
