{
"type": "FeatureCollection",
"features": [
	{"geometry":{"coordinates":[8.409492,50.294457],"type":"Point"},"properties":{"osm_id":"298844994","tag":{"amenity":"recycling","recycling_type":"container"}},"type":"Feature"},
	{"geometry":{"coordinates":[8.426436,50.310594],"type":"Point"},"properties":{"name":"Taunus Mobil Camp","osm_id":"1842566539","tag":{"amenity":"waste_disposal","capacity":"50","fee":"yes","power_supply":"yes","tourism":"caravan_site","website":"https://www.taunus-mobilcamp.de/"}},"type":"Feature"},
	{"geometry":{"coordinates":[8.433713,50.334376],"type":"Point"},"properties":{"osm_id":"2665659750","tag":{"amenity":"recycling","recycling:clothes":"yes","recycling:glass":"yes","recycling_type":"container"}},"type":"Feature"},
	{"geometry":{"coordinates":[8.434073,50.295899],"type":"Point"},"properties":{"osm_id":"4889611833","tag":{"amenity":"recycling","recycling:clothes":"yes","recycling:glass_bottles":"yes","recycling:shoes":"yes","recycling_type":"container"}},"type":"Feature"},
	{"geometry":{"coordinates":[8.404841,50.31971],"type":"Point"},"properties":{"name":"Gr\u00c3\u00bcnecke","osm_id":"5238461863","tag":{"amenity":"recycling","opening_hours":"Mo-Sa 07:00-20:00; PH off","recycling:green_waste":"yes","recycling_type":"container"}},"type":"Feature"},
	{"geometry":{"coordinates":[8.380899,50.338795],"type":"Point"},"properties":{"osm_id":"7775035540","tag":{"amenity":"recycling","operator":"Deutsches Rotes Kreuz","recycling:clothes":"yes","recycling_type":"container"}},"type":"Feature"}
]
}
