{
"type": "FeatureCollection",
"features": [
	{"geometry":{"coordinates":[8.403516,50.217975],"type":"Point"},"properties":{"osm_id":"316755945","tag":{"amenity":"recycling","recycling:glass":"yes","recycling_type":"container"}},"type":"Feature"},
	{"geometry":{"coordinates":[8.406563,50.222212],"type":"Point"},"properties":{"osm_id":"331815755","tag":{"amenity":"recycling","recycling:glass":"yes","recycling_type":"container"}},"type":"Feature"},
	{"geometry":{"coordinates":[8.405679,50.221747],"type":"Point"},"properties":{"osm_id":"2957079733","tag":{"amenity":"recycling","recycling:clothes":"yes","recycling_type":"container"}},"type":"Feature"},
	{"geometry":{"coordinates":[8.380917,50.200752],"type":"Point"},"properties":{"osm_id":"5735341021","tag":{"amenity":"recycling","operator":"B\u00c3\u00b6rdner","recycling:glass_bottles":"yes","recycling_type":"container"}},"type":"Feature"},
	{"geometry":{"coordinates":[8.384602,50.195753],"type":"Point"},"properties":{"osm_id":"5735341855","tag":{"amenity":"recycling","recycling:glass_bottles":"yes","recycling_type":"container"}},"type":"Feature"},
	{"geometry":{"coordinates":[8.366648,50.197341],"type":"Point"},"properties":{"osm_id":"8672283514","tag":{"amenity":"waste_basket","colour":"brown","material":"wood","waste":"trash"}},"type":"Feature"},
	{"geometry":{"coordinates":[8.367081,50.197325],"type":"Point"},"properties":{"osm_id":"8672303417","tag":{"amenity":"waste_basket","colour":"brown","material":"wood","waste":"trash"}},"type":"Feature"},
	{"geometry":{"coordinates":[8.363747,50.177916],"type":"Point"},"properties":{"osm_id":"9124324466","tag":{"amenity":"waste_basket","colour":"gray","material":"metal","waste":"trash"}},"type":"Feature"},
	{"geometry":{"coordinates":[8.373954,50.176979],"type":"Point"},"properties":{"osm_id":"9124473026","tag":{"amenity":"waste_basket","colour":"gray","material":"metal","waste":"trash"}},"type":"Feature"},
	{"geometry":{"coordinates":[8.381134,50.20107],"type":"Point"},"properties":{"osm_id":"9124531905","tag":{"amenity":"recycling","operator":"Malteser","recycling:clothes":"yes","recycling:shoes":"yes","recycling_type":"container"}},"type":"Feature"}
]
}
