{
"type": "FeatureCollection",
"features": [
	{"geometry":{"coordinates":[8.41048,49.925316],"type":"Point"},"properties":{"osm_id":"696591740","tag":{"amenity":"recycling","location":"overground","recycling_type":"container"}},"type":"Feature"},
	{"geometry":{"coordinates":[8.379955,49.937093],"type":"Point"},"properties":{"osm_id":"773474976","tag":{"amenity":"recycling","recycling:glass":"yes","recycling_type":"container"}},"type":"Feature"},
	{"geometry":{"coordinates":[8.403038,49.927844],"type":"Point"},"properties":{"osm_id":"855325849","tag":{"amenity":"recycling","location":"overground","recycling:glass":"yes","recycling_type":"container"}},"type":"Feature"},
	{"geometry":{"coordinates":[8.401259,49.931361],"type":"Point"},"properties":{"osm_id":"860452280","tag":{"amenity":"recycling","location":"overground","recycling:glass":"yes","recycling_type":"container"}},"type":"Feature"},
	{"geometry":{"coordinates":[8.416691,49.923889],"type":"Point"},"properties":{"osm_id":"2947396853","tag":{"amenity":"recycling","recycling:glass":"yes"}},"type":"Feature"},
	{"geometry":{"coordinates":[8.399085,49.924076],"type":"Point"},"properties":{"osm_id":"3387488370","tag":{"amenity":"recycling","recycling_type":"centre"}},"type":"Feature"},
	{"geometry":{"coordinates":[8.373948,49.933321],"type":"Point"},"properties":{"osm_id":"4108693027","tag":{"amenity":"recycling","operator":"Gemeinde Trebur","recycling:green_waste":"yes","recycling_type":"container"}},"type":"Feature"}
]
}
