{
"type": "FeatureCollection",
"features": [
	{"geometry":{"coordinates":[8.43362,49.86043],"type":"Point"},"properties":{"osm_id":"126490534","tag":{"amenity":"recycling"}},"type":"Feature"},
	{"geometry":{"coordinates":[8.356222,49.86645],"type":"Point"},"properties":{"osm_id":"281031993","tag":{"amenity":"recycling","mapillary":"uSM-GacTFkbh_lT0Yk3R4A","recycling:bottles":"yes","recycling_type":"container","survey:date":"2017-04-02"}},"type":"Feature"},
	{"geometry":{"coordinates":[8.424174,49.862044],"type":"Point"},"properties":{"osm_id":"1011438442","tag":{"amenity":"recycling","recycling:glass":"yes","recycling:glass_bottles":"yes"}},"type":"Feature"},
	{"geometry":{"coordinates":[8.391444,49.886786],"type":"Point"},"properties":{"osm_id":"3870492131","tag":{"amenity":"recycling","recycling:glass_bottles":"yes","recycling_type":"container"}},"type":"Feature"},
	{"geometry":{"coordinates":[8.39542,49.885116],"type":"Point"},"properties":{"osm_id":"3870493966","tag":{"amenity":"recycling","recycling:glass_bottles":"yes","recycling_type":"container"}},"type":"Feature"},
	{"geometry":{"coordinates":[8.398684,49.881873],"type":"Point"},"properties":{"osm_id":"3876713071","tag":{"amenity":"recycling","recycling:glass_bottles":"yes","recycling_type":"container"}},"type":"Feature"},
	{"geometry":{"coordinates":[8.369281,49.854814],"type":"Point"},"properties":{"osm_id":"3925002461","tag":{"amenity":"recycling","recycling_type":"container"}},"type":"Feature"},
	{"geometry":{"coordinates":[8.39603,49.879227],"type":"Point"},"properties":{"osm_id":"5215585485","tag":{"amenity":"recycling","recycling_type":"container"}},"type":"Feature"},
	{"geometry":{"coordinates":[8.366051,49.859193],"type":"Point"},"properties":{"osm_id":"5773067586","tag":{"amenity":"waste_basket"}},"type":"Feature"},
	{"geometry":{"coordinates":[8.393097,49.880937],"type":"Point"},"properties":{"osm_id":"6697452987","tag":{"amenity":"recycling","recycling:glass_bottles":"yes","recycling_type":"container"}},"type":"Feature"},
	{"geometry":{"coordinates":[8.412655,49.854887],"type":"Point"},"properties":{"osm_id":"7412125816","tag":{"amenity":"waste_basket","waste":"trash"}},"type":"Feature"},
	{"geometry":{"coordinates":[8.413339,49.856155],"type":"Point"},"properties":{"osm_id":"7412125819","tag":{"amenity":"waste_basket","waste":"trash"}},"type":"Feature"}
]
}
