{
"type": "FeatureCollection",
"features": [
	{"geometry":{"coordinates":[8.409966,49.659733],"type":"Point"},"properties":{"osm_id":"27408521","tag":{"amenity":"recycling","recycling:clothes":"no","recycling:glass":"yes"}},"type":"Feature"},
	{"geometry":{"coordinates":[8.390214,49.635901],"type":"Point"},"properties":{"osm_id":"27561478","tag":{"amenity":"recycling","recycling:bottles":"yes"}},"type":"Feature"},
	{"geometry":{"coordinates":[8.423874,49.656867],"type":"Point"},"properties":{"osm_id":"29870458","tag":{"amenity":"recycling","recycling:clothes":"yes"}},"type":"Feature"},
	{"geometry":{"coordinates":[8.415842,49.657727],"type":"Point"},"properties":{"osm_id":"29870469","tag":{"amenity":"recycling","recycling:clothes":"yes"}},"type":"Feature"},
	{"geometry":{"coordinates":[8.416363,49.660139],"type":"Point"},"properties":{"osm_id":"29870938","tag":{"amenity":"recycling","recycling:bottles":"yes"}},"type":"Feature"},
	{"geometry":{"coordinates":[8.409787,49.660767],"type":"Point"},"properties":{"osm_id":"30110837","tag":{"amenity":"recycling"}},"type":"Feature"},
	{"geometry":{"coordinates":[8.360199,49.627946],"type":"Point"},"properties":{"osm_id":"30206619","tag":{"amenity":"recycling","recycling_type":"container"}},"type":"Feature"},
	{"geometry":{"coordinates":[8.372349,49.632254],"type":"Point"},"properties":{"osm_id":"30207021","tag":{"amenity":"recycling","location":"overground","recycling_type":"container"}},"type":"Feature"},
	{"geometry":{"coordinates":[8.371336,49.630221],"type":"Point"},"properties":{"osm_id":"30207407","tag":{"amenity":"recycling"}},"type":"Feature"},
	{"geometry":{"coordinates":[8.376176,49.628885],"type":"Point"},"properties":{"osm_id":"268285217","tag":{"amenity":"recycling","recycling:bottles":"yes"}},"type":"Feature"},
	{"geometry":{"coordinates":[8.371228,49.634991],"type":"Point"},"properties":{"osm_id":"270781648","tag":{"amenity":"recycling","location":"overground","recycling_type":"container"}},"type":"Feature"},
	{"geometry":{"coordinates":[8.366336,49.636075],"type":"Point"},"properties":{"osm_id":"270781658","tag":{"amenity":"recycling"}},"type":"Feature"},
	{"geometry":{"coordinates":[8.361318,49.64179],"type":"Point"},"properties":{"osm_id":"271330652","tag":{"amenity":"recycling","location":"overground","recycling:bottles":"yes","recycling_type":"container"}},"type":"Feature"},
	{"geometry":{"coordinates":[8.360425,49.645753],"type":"Point"},"properties":{"osm_id":"271330655","tag":{"amenity":"recycling","recycling:bottles":"yes","recycling:glass_bottles":"yes"}},"type":"Feature"},
	{"geometry":{"coordinates":[8.358822,49.639833],"type":"Point"},"properties":{"osm_id":"271330657","tag":{"amenity":"recycling","covered":"no","indoor":"no","level":"0","location":"overground","recycling:bottles":"yes","recycling_type":"container"}},"type":"Feature"},
	{"geometry":{"coordinates":[8.412987,49.660648],"type":"Point"},"properties":{"osm_id":"388495929","tag":{"amenity":"recycling","recycling:glass":"yes"}},"type":"Feature"},
	{"geometry":{"coordinates":[8.402305,49.653901],"type":"Point"},"properties":{"osm_id":"406871112","tag":{"amenity":"recycling","recycling:glass":"yes"}},"type":"Feature"},
	{"geometry":{"coordinates":[8.354959,49.631859],"type":"Point"},"properties":{"osm_id":"727369922","tag":{"amenity":"recycling","location":"overground","recycling:glass":"no","recycling:glass_bottles":"yes","recycling_type":"container"}},"type":"Feature"},
	{"geometry":{"coordinates":[8.355613,49.627589],"type":"Point"},"properties":{"osm_id":"3261494312","tag":{"amenity":"recycling","recycling:glass":"yes"}},"type":"Feature"},
	{"geometry":{"coordinates":[8.353391,49.635836],"type":"Point"},"properties":{"osm_id":"3261494314","tag":{"amenity":"recycling","location":"overground","recycling:clothes":"yes","recycling_type":"container"}},"type":"Feature"},
	{"geometry":{"coordinates":[8.353292,49.635997],"type":"Point"},"properties":{"osm_id":"3261494319","tag":{"amenity":"recycling","location":"overground","recycling:glass":"yes","recycling_type":"container"}},"type":"Feature"},
	{"geometry":{"coordinates":[8.354824,49.634291],"type":"Point"},"properties":{"osm_id":"5309132329","tag":{"amenity":"recycling","recycling:glass_bottles":"yes","recycling_type":"container"}},"type":"Feature"},
	{"geometry":{"coordinates":[8.363991,49.629418],"type":"Point"},"properties":{"osm_id":"5502248439","tag":{"amenity":"recycling","location":"overground","recycling:glass_bottles":"yes","recycling_type":"container"}},"type":"Feature"},
	{"geometry":{"coordinates":[8.362865,49.644336],"type":"Point"},"properties":{"osm_id":"5508797957","tag":{"amenity":"recycling","location":"overground","recycling:glass":"yes","recycling_type":"container"}},"type":"Feature"},
	{"geometry":{"coordinates":[8.365869,49.628866],"type":"Point"},"properties":{"osm_id":"5608725114","tag":{"amenity":"recycling","recycling:glass":"yes","recycling_type":"container"}},"type":"Feature"},
	{"geometry":{"coordinates":[8.354814,49.640303],"type":"Point"},"properties":{"osm_id":"5931416224","tag":{"amenity":"waste_basket"}},"type":"Feature"},
	{"geometry":{"coordinates":[8.3558,49.638851],"type":"Point"},"properties":{"osm_id":"5931418919","tag":{"amenity":"waste_basket"}},"type":"Feature"},
	{"geometry":{"coordinates":[8.354317,49.638956],"type":"Point"},"properties":{"osm_id":"5931422258","tag":{"amenity":"waste_basket","amenity_1":"dog_waste_bin"}},"type":"Feature"},
	{"geometry":{"coordinates":[8.352982,49.639063],"type":"Point"},"properties":{"osm_id":"5931426142","tag":{"amenity":"waste_basket"}},"type":"Feature"},
	{"geometry":{"coordinates":[8.354632,49.640532],"type":"Point"},"properties":{"osm_id":"5931434083","tag":{"amenity":"waste_basket"}},"type":"Feature"},
	{"geometry":{"coordinates":[8.354612,49.640465],"type":"Point"},"properties":{"osm_id":"5931435586","tag":{"amenity":"waste_basket"}},"type":"Feature"},
	{"geometry":{"coordinates":[8.354592,49.64033],"type":"Point"},"properties":{"osm_id":"5931436098","tag":{"amenity":"waste_basket"}},"type":"Feature"},
	{"geometry":{"coordinates":[8.354701,49.635092],"type":"Point"},"properties":{"osm_id":"5933409362","tag":{"amenity":"waste_basket","ash_tray":"yes"}},"type":"Feature"},
	{"geometry":{"coordinates":[8.354969,49.6353],"type":"Point"},"properties":{"osm_id":"5933411266","tag":{"amenity":"waste_basket","ash_tray":"yes"}},"type":"Feature"},
	{"geometry":{"coordinates":[8.354808,49.636122],"type":"Point"},"properties":{"osm_id":"5933413939","tag":{"amenity":"waste_basket"}},"type":"Feature"},
	{"geometry":{"coordinates":[8.353177,49.636507],"type":"Point"},"properties":{"osm_id":"5933416770","tag":{"amenity":"waste_basket"}},"type":"Feature"},
	{"geometry":{"coordinates":[8.356619,49.640279],"type":"Point"},"properties":{"osm_id":"5933576825","tag":{"amenity":"waste_basket"}},"type":"Feature"},
	{"geometry":{"coordinates":[8.351882,49.640881],"type":"Point"},"properties":{"osm_id":"5933754551","tag":{"amenity":"waste_basket"}},"type":"Feature"},
	{"geometry":{"coordinates":[8.349649,49.640602],"type":"Point"},"properties":{"osm_id":"5933762355","tag":{"amenity":"waste_basket"}},"type":"Feature"},
	{"geometry":{"coordinates":[8.350869,49.639223],"type":"Point"},"properties":{"osm_id":"5933774910","tag":{"amenity":"waste_basket"}},"type":"Feature"},
	{"geometry":{"coordinates":[8.352195,49.640764],"type":"Point"},"properties":{"osm_id":"6127881546","tag":{"amenity":"recycling","recycling:glass":"yes","recycling_type":"container"}},"type":"Feature"},
	{"geometry":{"coordinates":[8.356745,49.640379],"type":"Point"},"properties":{"osm_id":"6137226552","tag":{"amenity":"recycling","recycling:glass":"yes","recycling:glass_bottles":"yes","recycling_type":"container"}},"type":"Feature"},
	{"geometry":{"coordinates":[8.357944,49.628643],"type":"Point"},"properties":{"osm_id":"6549274771","tag":{"amenity":"waste_basket"}},"type":"Feature"},
	{"geometry":{"coordinates":[8.364555,49.63137],"type":"Point"},"properties":{"osm_id":"6549803871","tag":{"amenity":"waste_basket"}},"type":"Feature"},
	{"geometry":{"coordinates":[8.351855,49.641204],"type":"Point"},"properties":{"osm_id":"6669992032","tag":{"amenity":"waste_basket","ashtray":"yes"}},"type":"Feature"},
	{"geometry":{"coordinates":[8.352006,49.641056],"type":"Point"},"properties":{"osm_id":"6669992033","tag":{"amenity":"waste_basket","ashtray":"yes"}},"type":"Feature"},
	{"geometry":{"coordinates":[8.357738,49.63682],"type":"Point"},"properties":{"osm_id":"6789744165","tag":{"amenity":"waste_basket"}},"type":"Feature"},
	{"geometry":{"coordinates":[8.358391,49.637165],"type":"Point"},"properties":{"osm_id":"6789744166","tag":{"amenity":"waste_basket"}},"type":"Feature"},
	{"geometry":{"coordinates":[8.357983,49.636735],"type":"Point"},"properties":{"osm_id":"6789744167","tag":{"amenity":"waste_basket"}},"type":"Feature"},
	{"geometry":{"coordinates":[8.358868,49.637747],"type":"Point"},"properties":{"osm_id":"6789744168","tag":{"amenity":"waste_basket"}},"type":"Feature"},
	{"geometry":{"coordinates":[8.358799,49.636341],"type":"Point"},"properties":{"osm_id":"6789744170","tag":{"amenity":"waste_basket"}},"type":"Feature"},
	{"geometry":{"coordinates":[8.359164,49.638376],"type":"Point"},"properties":{"osm_id":"6789744171","tag":{"amenity":"waste_basket"}},"type":"Feature"},
	{"geometry":{"coordinates":[8.358682,49.637066],"type":"Point"},"properties":{"osm_id":"6789744172","tag":{"amenity":"waste_basket"}},"type":"Feature"},
	{"geometry":{"coordinates":[8.358767,49.637472],"type":"Point"},"properties":{"osm_id":"6789744173","tag":{"amenity":"waste_basket"}},"type":"Feature"},
	{"geometry":{"coordinates":[8.357833,49.637331],"type":"Point"},"properties":{"osm_id":"6789744175","tag":{"amenity":"waste_basket"}},"type":"Feature"},
	{"geometry":{"coordinates":[8.35845,49.636642],"type":"Point"},"properties":{"osm_id":"6789744176","tag":{"amenity":"waste_basket"}},"type":"Feature"},
	{"geometry":{"coordinates":[8.359017,49.638063],"type":"Point"},"properties":{"osm_id":"6789744177","tag":{"amenity":"waste_basket"}},"type":"Feature"},
	{"geometry":{"coordinates":[8.357449,49.635036],"type":"Point"},"properties":{"osm_id":"6789762718","tag":{"amenity":"waste_basket"}},"type":"Feature"},
	{"geometry":{"coordinates":[8.357907,49.634974],"type":"Point"},"properties":{"osm_id":"6789762720","tag":{"amenity":"waste_basket"}},"type":"Feature"},
	{"geometry":{"coordinates":[8.371362,49.61485],"type":"Point"},"properties":{"osm_id":"6853759538","tag":{"amenity":"waste_basket"}},"type":"Feature"},
	{"geometry":{"coordinates":[8.369917,49.622448],"type":"Point"},"properties":{"osm_id":"7093175088","tag":{"amenity":"waste_basket"}},"type":"Feature"},
	{"geometry":{"coordinates":[8.369612,49.622906],"type":"Point"},"properties":{"osm_id":"7099627652","tag":{"amenity":"waste_basket"}},"type":"Feature"},
	{"geometry":{"coordinates":[8.37105,49.621634],"type":"Point"},"properties":{"osm_id":"7099627654","tag":{"amenity":"waste_basket"}},"type":"Feature"},
	{"geometry":{"coordinates":[8.371264,49.621069],"type":"Point"},"properties":{"osm_id":"7099700709","tag":{"amenity":"waste_basket"}},"type":"Feature"},
	{"geometry":{"coordinates":[8.353961,49.619831],"type":"Point"},"properties":{"osm_id":"7114136402","tag":{"amenity":"recycling","recycling:glass":"yes","recycling:glass_bottles":"yes","recycling_type":"container"}},"type":"Feature"},
	{"geometry":{"coordinates":[8.362879,49.6443],"type":"Point"},"properties":{"osm_id":"7117472115","tag":{"amenity":"recycling","location":"overground","recycling:clothes":"yes","recycling:glass":"no","recycling:shoes":"yes","recycling_type":"container"}},"type":"Feature"},
	{"geometry":{"coordinates":[8.419114,49.654651],"type":"Point"},"properties":{"osm_id":"7236982266","tag":{"amenity":"recycling","recycling:glass":"yes","recycling_type":"container"}},"type":"Feature"},
	{"geometry":{"coordinates":[8.42708,49.659129],"type":"Point"},"properties":{"osm_id":"7236982280","tag":{"amenity":"recycling","recycling:glass":"yes","recycling_type":"container"}},"type":"Feature"},
	{"geometry":{"coordinates":[8.370591,49.621153],"type":"Point"},"properties":{"osm_id":"7874850617","tag":{"amenity":"waste_basket"}},"type":"Feature"},
	{"geometry":{"coordinates":[8.371213,49.620861],"type":"Point"},"properties":{"osm_id":"7874850619","tag":{"amenity":"waste_basket"}},"type":"Feature"}
]
}
