{
"type": "FeatureCollection",
"features": [
	{"geometry":{"coordinates":[8.385845,49.526847],"type":"Point"},"properties":{"osm_id":"291620802","tag":{"amenity":"recycling","mapillary":"7EBdK9yoAWmzFyQ9WbH1lQ","recycling:clothes":"yes","recycling:glass":"yes","recycling:shoes":"yes","recycling_type":"container","survey:date":"2018-07-13"}},"type":"Feature"},
	{"geometry":{"coordinates":[8.389101,49.525137],"type":"Point"},"properties":{"osm_id":"291620803","tag":{"amenity":"recycling","mapillary":"hao7I79ed8tTeDAYdAdPeQ","recycling:clothes":"yes","recycling:glass":"yes","recycling_type":"container","survey:date":"2018-07-13"}},"type":"Feature"},
	{"geometry":{"coordinates":[8.389953,49.536543],"type":"Point"},"properties":{"osm_id":"292266668","tag":{"amenity":"recycling","location":"overground","recycling:clothes":"yes","recycling:glass":"yes","recycling_type":"container"}},"type":"Feature"},
	{"geometry":{"coordinates":[8.398031,49.522518],"type":"Point"},"properties":{"osm_id":"434300721","tag":{"amenity":"recycling","recycling:cans":"no","recycling:clothes":"no","recycling:glass":"yes","recycling:paper":"no","recycling_type":"container"}},"type":"Feature"},
	{"geometry":{"coordinates":[8.402062,49.521298],"type":"Point"},"properties":{"osm_id":"435239414","tag":{"amenity":"recycling","recycling:clothes":"yes","recycling:glass":"yes","recycling_type":"container"}},"type":"Feature"},
	{"geometry":{"coordinates":[8.395458,49.525781],"type":"Point"},"properties":{"osm_id":"444773603","tag":{"amenity":"recycling","mapillary":"k0ZiwriN6YGySqqoijbcyw","recycling:glass":"yes","recycling_type":"container","survey:date":"2018-07-14"}},"type":"Feature"},
	{"geometry":{"coordinates":[8.355847,49.535559],"type":"Point"},"properties":{"osm_id":"835399258","tag":{"amenity":"waste_basket"}},"type":"Feature"},
	{"geometry":{"coordinates":[8.358559,49.524702],"type":"Point"},"properties":{"osm_id":"870216053","tag":{"amenity":"recycling","recycling:glass":"yes"}},"type":"Feature"},
	{"geometry":{"coordinates":[8.363167,49.533911],"type":"Point"},"properties":{"osm_id":"1328437014","tag":{"amenity":"recycling","recycling:glass":"yes","recycling_type":"container"}},"type":"Feature"},
	{"geometry":{"coordinates":[8.360645,49.527897],"type":"Point"},"properties":{"osm_id":"1431878129","tag":{"amenity":"recycling"}},"type":"Feature"},
	{"geometry":{"coordinates":[8.409423,49.516096],"type":"Point"},"properties":{"osm_id":"1507202248","tag":{"amenity":"recycling","location":"overground","recycling:glass":"yes","recycling_type":"container"}},"type":"Feature"},
	{"geometry":{"coordinates":[8.40843,49.507005],"type":"Point"},"properties":{"osm_id":"1507210531","tag":{"amenity":"recycling","location":"overground","recycling_type":"container"}},"type":"Feature"},
	{"geometry":{"coordinates":[8.354059,49.531696],"type":"Point"},"properties":{"osm_id":"1720504472","tag":{"amenity":"waste_basket"}},"type":"Feature"},
	{"geometry":{"coordinates":[8.350239,49.53509],"type":"Point"},"properties":{"osm_id":"1732050516","tag":{"amenity":"waste_basket"}},"type":"Feature"},
	{"geometry":{"coordinates":[8.35788,49.54508],"type":"Point"},"properties":{"osm_id":"1745086756","tag":{"amenity":"recycling","recycling:glass_bottles":"yes","recycling_type":"container"}},"type":"Feature"},
	{"geometry":{"coordinates":[8.356391,49.551517],"type":"Point"},"properties":{"osm_id":"1745086780","tag":{"amenity":"recycling","operator":"Deutsches Rotes Kreuz","recycling:clothes":"yes","recycling_type":"container"}},"type":"Feature"},
	{"geometry":{"coordinates":[8.360174,49.543786],"type":"Point"},"properties":{"osm_id":"1762577109","tag":{"amenity":"recycling","recycling:clothes":"yes","recycling:glass":"yes","recycling_type":"container"}},"type":"Feature"},
	{"geometry":{"coordinates":[8.354873,49.539426],"type":"Point"},"properties":{"osm_id":"1766029619","tag":{"amenity":"recycling","recycling:clothes":"yes","recycling:glass":"yes","recycling_type":"container"}},"type":"Feature"},
	{"geometry":{"coordinates":[8.361198,49.532089],"type":"Point"},"properties":{"osm_id":"1769147988","tag":{"amenity":"recycling","recycling:clothes":"yes","recycling:glass":"yes","recycling_type":"container"}},"type":"Feature"},
	{"geometry":{"coordinates":[8.356235,49.530676],"type":"Point"},"properties":{"osm_id":"1770120920","tag":{"amenity":"recycling","recycling:clothes":"yes","recycling:glass":"yes","recycling_type":"container"}},"type":"Feature"},
	{"geometry":{"coordinates":[8.412368,49.498355],"type":"Point"},"properties":{"osm_id":"1770655578","tag":{"amenity":"recycling","mapillary":"TtEdEnmYus1-itwqISkrtQ","recycling:clothes":"yes","recycling:glass":"yes","recycling_type":"container","survey:date":"2018-07-05"}},"type":"Feature"},
	{"geometry":{"coordinates":[8.353921,49.548565],"type":"Point"},"properties":{"osm_id":"1772139553","tag":{"amenity":"recycling","recycling:glass":"yes","recycling:paper":"yes","recycling_type":"container"}},"type":"Feature"},
	{"geometry":{"coordinates":[8.351797,49.545827],"type":"Point"},"properties":{"osm_id":"1773526508","tag":{"amenity":"recycling","recycling:clothes":"yes","recycling_type":"container"}},"type":"Feature"},
	{"geometry":{"coordinates":[8.352547,49.54585],"type":"Point"},"properties":{"osm_id":"1773526513","tag":{"amenity":"recycling","recycling:clothes":"yes","recycling_type":"container"}},"type":"Feature"},
	{"geometry":{"coordinates":[8.352319,49.547605],"type":"Point"},"properties":{"osm_id":"1773526632","tag":{"amenity":"recycling","recycling:clothes":"yes","recycling:glass":"yes","recycling_type":"container"}},"type":"Feature"},
	{"geometry":{"coordinates":[8.359254,49.537741],"type":"Point"},"properties":{"osm_id":"1775193750","tag":{"amenity":"recycling","recycling:clothes":"yes","recycling:glass":"yes","recycling_type":"container"}},"type":"Feature"},
	{"geometry":{"coordinates":[8.365419,49.538611],"type":"Point"},"properties":{"osm_id":"1775193973","tag":{"amenity":"recycling","recycling:clothes":"yes","recycling:glass":"yes","recycling_type":"container"}},"type":"Feature"},
	{"geometry":{"coordinates":[8.350636,49.542132],"type":"Point"},"properties":{"osm_id":"1776693030","tag":{"amenity":"recycling","recycling:glass":"yes","recycling_type":"container"}},"type":"Feature"},
	{"geometry":{"coordinates":[8.353369,49.542826],"type":"Point"},"properties":{"osm_id":"1777546899","tag":{"amenity":"recycling","recycling:clothes":"yes","recycling:glass":"yes","recycling_type":"container"}},"type":"Feature"},
	{"geometry":{"coordinates":[8.360943,49.540829],"type":"Point"},"properties":{"osm_id":"1782119804","tag":{"amenity":"recycling","recycling:clothes":"yes","recycling:glass":"yes","recycling_type":"container"}},"type":"Feature"},
	{"geometry":{"coordinates":[8.360834,49.540953],"type":"Point"},"properties":{"osm_id":"1782119807","tag":{"amenity":"recycling","recycling:clothes":"yes","recycling_type":"container"}},"type":"Feature"},
	{"geometry":{"coordinates":[8.371268,49.542611],"type":"Point"},"properties":{"osm_id":"1788129220","tag":{"amenity":"recycling","recycling:clothes":"yes","recycling:glass":"yes","recycling_type":"container"}},"type":"Feature"},
	{"geometry":{"coordinates":[8.377885,49.540994],"type":"Point"},"properties":{"osm_id":"1795297553","tag":{"amenity":"recycling","recycling:clothes":"yes","recycling:glass":"yes","recycling_type":"container"}},"type":"Feature"},
	{"geometry":{"coordinates":[8.375056,49.536256],"type":"Point"},"properties":{"osm_id":"1801208570","tag":{"amenity":"recycling","recycling:glass":"yes","recycling_type":"container"}},"type":"Feature"},
	{"geometry":{"coordinates":[8.363786,49.534697],"type":"Point"},"properties":{"osm_id":"1809564265","tag":{"amenity":"recycling","recycling:glass":"yes","recycling_type":"container"}},"type":"Feature"},
	{"geometry":{"coordinates":[8.36149,49.535253],"type":"Point"},"properties":{"osm_id":"1814414196","tag":{"amenity":"recycling","recycling:clothes":"yes","recycling_type":"container"}},"type":"Feature"},
	{"geometry":{"coordinates":[8.35991,49.535332],"type":"Point"},"properties":{"osm_id":"2351649591","tag":{"amenity":"recycling","recycling:glass":"yes","recycling_type":"container"}},"type":"Feature"},
	{"geometry":{"coordinates":[8.351067,49.531837],"type":"Point"},"properties":{"osm_id":"2359472064","tag":{"amenity":"recycling","recycling:clothes":"yes","recycling:glass":"yes","recycling_type":"container"}},"type":"Feature"},
	{"geometry":{"coordinates":[8.351321,49.529506],"type":"Point"},"properties":{"osm_id":"2376297491","tag":{"amenity":"recycling","recycling:glass":"yes","recycling_type":"container"}},"type":"Feature"},
	{"geometry":{"coordinates":[8.365981,49.528239],"type":"Point"},"properties":{"osm_id":"2411400395","tag":{"amenity":"recycling","recycling:clothes":"yes","recycling:glass":"yes","recycling_type":"container"}},"type":"Feature"},
	{"geometry":{"coordinates":[8.357238,49.524233],"type":"Point"},"properties":{"osm_id":"2413976774","tag":{"amenity":"recycling","recycling:clothes":"yes","recycling:glass":"yes"}},"type":"Feature"},
	{"geometry":{"coordinates":[8.358256,49.522752],"type":"Point"},"properties":{"osm_id":"2414626715","tag":{"amenity":"recycling","recycling:glass":"yes","recycling_type":"container"}},"type":"Feature"},
	{"geometry":{"coordinates":[8.420795,49.499627],"type":"Point"},"properties":{"osm_id":"2632208190","tag":{"amenity":"recycling","location":"overground","recycling_type":"container"}},"type":"Feature"},
	{"geometry":{"coordinates":[8.352258,49.530813],"type":"Point"},"properties":{"osm_id":"2665201003","tag":{"amenity":"waste_basket"}},"type":"Feature"},
	{"geometry":{"coordinates":[8.35564,49.517202],"type":"Point"},"properties":{"osm_id":"2924639106","tag":{"amenity":"waste_basket"}},"type":"Feature"},
	{"geometry":{"coordinates":[8.400533,49.516427],"type":"Point"},"properties":{"osm_id":"3006719194","tag":{"amenity":"recycling","recycling:cans":"no","recycling:clothes":"yes","recycling:glass":"yes","recycling:glass_bottles":"yes","recycling:paper":"no","recycling_type":"container"}},"type":"Feature"},
	{"geometry":{"coordinates":[8.424156,49.496763],"type":"Point"},"properties":{"osm_id":"3009840530","tag":{"amenity":"recycling","mapillary":"XNbAP8VXQjUiB_2yxV6WNg","recycling:glass":"yes","recycling_type":"container","survey:date":"2017-03-11"}},"type":"Feature"},
	{"geometry":{"coordinates":[8.397486,49.513246],"type":"Point"},"properties":{"osm_id":"3031492499","tag":{"amenity":"recycling","mapillary":"q1radchu8K3pfbLCfNpokQ","operator":"Knettenbrech+Gurdulic","recycling:glass":"yes","recycling_type":"container","survey:date":"2020-09-25"}},"type":"Feature"},
	{"geometry":{"coordinates":[8.398083,49.524093],"type":"Point"},"properties":{"osm_id":"3032033071","tag":{"amenity":"recycling","location":"overground","recycling:glass":"yes","recycling_type":"container"}},"type":"Feature"},
	{"geometry":{"coordinates":[8.405819,49.499971],"type":"Point"},"properties":{"osm_id":"3034104727","tag":{"amenity":"recycling","recycling:glass":"yes"}},"type":"Feature"},
	{"geometry":{"coordinates":[8.406666,49.51568],"type":"Point"},"properties":{"osm_id":"3046275103","tag":{"amenity":"recycling","location":"overground","recycling:clothes":"yes","recycling:glass":"yes","recycling_type":"container"}},"type":"Feature"},
	{"geometry":{"coordinates":[8.394415,49.522284],"type":"Point"},"properties":{"osm_id":"3080607472","tag":{"amenity":"recycling","location":"overground","operator":"Knettenbrech+Gurdulic","recycling:cans":"no","recycling:clothes":"no","recycling:glass":"yes","recycling:paper":"no","recycling_type":"container"}},"type":"Feature"},
	{"geometry":{"coordinates":[8.392808,49.532302],"type":"Point"},"properties":{"osm_id":"3281918150","tag":{"amenity":"recycling","recycling:glass_bottles":"yes","recycling_type":"container"}},"type":"Feature"},
	{"geometry":{"coordinates":[8.375368,49.509319],"type":"Point"},"properties":{"osm_id":"3398776890","tag":{"amenity":"recycling","recycling:cans":"no","recycling:clothes":"yes","recycling:glass":"yes","recycling:glass_bottles":"yes","recycling:paper":"no","recycling:plastic":"no","recycling_type":"container"}},"type":"Feature"},
	{"geometry":{"coordinates":[8.376163,49.505711],"type":"Point"},"properties":{"osm_id":"3398777221","tag":{"amenity":"recycling","recycling:cans":"no","recycling:clothes":"yes","recycling:glass":"no","recycling:glass_bottles":"no","recycling:paper":"no","recycling:plastic":"no","recycling_type":"container"}},"type":"Feature"},
	{"geometry":{"coordinates":[8.374268,49.505397],"type":"Point"},"properties":{"osm_id":"3780714105","tag":{"amenity":"recycling","recycling:cans":"no","recycling:clothes":"no","recycling:glass":"yes","recycling:glass_bottles":"yes","recycling:paper":"no","recycling:plastic":"no","recycling_type":"container"}},"type":"Feature"},
	{"geometry":{"coordinates":[8.349672,49.523007],"type":"Point"},"properties":{"osm_id":"3804702362","tag":{"amenity":"waste_basket"}},"type":"Feature"},
	{"geometry":{"coordinates":[8.349648,49.535976],"type":"Point"},"properties":{"osm_id":"3804702632","tag":{"amenity":"waste_basket"}},"type":"Feature"},
	{"geometry":{"coordinates":[8.349638,49.535976],"type":"Point"},"properties":{"osm_id":"3804702633","tag":{"amenity":"waste_basket"}},"type":"Feature"},
	{"geometry":{"coordinates":[8.349633,49.535805],"type":"Point"},"properties":{"osm_id":"3804702793","tag":{"amenity":"waste_basket"}},"type":"Feature"},
	{"geometry":{"coordinates":[8.349646,49.535805],"type":"Point"},"properties":{"osm_id":"3804702794","tag":{"amenity":"waste_basket"}},"type":"Feature"},
	{"geometry":{"coordinates":[8.349873,49.535812],"type":"Point"},"properties":{"osm_id":"3804702795","tag":{"amenity":"waste_basket"}},"type":"Feature"},
	{"geometry":{"coordinates":[8.349869,49.535504],"type":"Point"},"properties":{"osm_id":"3874593442","tag":{"amenity":"waste_basket"}},"type":"Feature"},
	{"geometry":{"coordinates":[8.350158,49.535621],"type":"Point"},"properties":{"osm_id":"3874593462","tag":{"amenity":"waste_basket"}},"type":"Feature"},
	{"geometry":{"coordinates":[8.364628,49.518838],"type":"Point"},"properties":{"osm_id":"6223522663","tag":{"amenity":"waste_basket"}},"type":"Feature"},
	{"geometry":{"coordinates":[8.366818,49.521792],"type":"Point"},"properties":{"osm_id":"6223522665","tag":{"amenity":"waste_basket"}},"type":"Feature"},
	{"geometry":{"coordinates":[8.367056,49.524976],"type":"Point"},"properties":{"osm_id":"6223522667","tag":{"amenity":"waste_basket"}},"type":"Feature"},
	{"geometry":{"coordinates":[8.366801,49.527059],"type":"Point"},"properties":{"osm_id":"6223522669","tag":{"amenity":"waste_basket"}},"type":"Feature"},
	{"geometry":{"coordinates":[8.369497,49.526458],"type":"Point"},"properties":{"osm_id":"6223522671","tag":{"amenity":"waste_basket"}},"type":"Feature"},
	{"geometry":{"coordinates":[8.374427,49.525015],"type":"Point"},"properties":{"osm_id":"6223522676","tag":{"amenity":"waste_basket","waste":"trash"}},"type":"Feature"},
	{"geometry":{"coordinates":[8.383935,49.527268],"type":"Point"},"properties":{"osm_id":"6484431514","tag":{"amenity":"waste_basket"}},"type":"Feature"},
	{"geometry":{"coordinates":[8.390414,49.524813],"type":"Point"},"properties":{"osm_id":"6484431515","tag":{"amenity":"waste_basket"}},"type":"Feature"},
	{"geometry":{"coordinates":[8.388406,49.525637],"type":"Point"},"properties":{"osm_id":"6496497713","tag":{"amenity":"waste_basket"}},"type":"Feature"},
	{"geometry":{"coordinates":[8.387778,49.525417],"type":"Point"},"properties":{"osm_id":"6496497717","tag":{"amenity":"waste_basket"}},"type":"Feature"},
	{"geometry":{"coordinates":[8.387409,49.525587],"type":"Point"},"properties":{"osm_id":"6496497719","tag":{"amenity":"waste_basket"}},"type":"Feature"},
	{"geometry":{"coordinates":[8.387376,49.525604],"type":"Point"},"properties":{"osm_id":"6496497720","tag":{"amenity":"waste_basket"}},"type":"Feature"},
	{"geometry":{"coordinates":[8.384931,49.522613],"type":"Point"},"properties":{"osm_id":"6496497947","tag":{"amenity":"recycling","recycling:glass":"yes","recycling_type":"container"}},"type":"Feature"},
	{"geometry":{"coordinates":[8.4101,49.523866],"type":"Point"},"properties":{"osm_id":"7167523724","tag":{"amenity":"recycling","operator":"Kettenbrech+Gurdulic","recycling:glass":"yes","recycling_type":"container"}},"type":"Feature"},
	{"geometry":{"coordinates":[8.401804,49.514616],"type":"Point"},"properties":{"osm_id":"7169176093","tag":{"amenity":"waste_basket"}},"type":"Feature"},
	{"geometry":{"coordinates":[8.40354,49.515071],"type":"Point"},"properties":{"osm_id":"7169176094","tag":{"amenity":"waste_basket"}},"type":"Feature"},
	{"geometry":{"coordinates":[8.403658,49.515238],"type":"Point"},"properties":{"osm_id":"7169176095","tag":{"amenity":"waste_basket"}},"type":"Feature"},
	{"geometry":{"coordinates":[8.40626,49.515398],"type":"Point"},"properties":{"osm_id":"7169176096","tag":{"amenity":"recycling","recycling:clothes":"yes","recycling:shoes":"yes","recycling_type":"container"}},"type":"Feature"},
	{"geometry":{"coordinates":[8.406349,49.515596],"type":"Point"},"properties":{"osm_id":"7192993347","tag":{"amenity":"waste_basket"}},"type":"Feature"},
	{"geometry":{"coordinates":[8.405646,49.51566],"type":"Point"},"properties":{"osm_id":"7192993348","tag":{"amenity":"waste_basket"}},"type":"Feature"},
	{"geometry":{"coordinates":[8.397311,49.52497],"type":"Point"},"properties":{"osm_id":"7389583505","tag":{"amenity":"recycling","operator":"Deutsches Rotes Kreuz","recycling:clothes":"yes","recycling:shoes":"yes","recycling_type":"container"}},"type":"Feature"},
	{"geometry":{"coordinates":[8.392968,49.520455],"type":"Point"},"properties":{"osm_id":"7389583542","tag":{"amenity":"waste_disposal"}},"type":"Feature"},
	{"geometry":{"coordinates":[8.393434,49.519699],"type":"Point"},"properties":{"osm_id":"7389583543","tag":{"amenity":"waste_disposal"}},"type":"Feature"},
	{"geometry":{"coordinates":[8.39421,49.519503],"type":"Point"},"properties":{"osm_id":"7389583638","tag":{"amenity":"waste_disposal"}},"type":"Feature"},
	{"geometry":{"coordinates":[8.394159,49.518902],"type":"Point"},"properties":{"osm_id":"7389583759","tag":{"amenity":"waste_basket"}},"type":"Feature"},
	{"geometry":{"coordinates":[8.41477,49.502203],"type":"Point"},"properties":{"osm_id":"7499193504","tag":{"amenity":"recycling","operator":"Knettenbrech+Gurdulic","recycling:glass":"yes","recycling_type":"container"}},"type":"Feature"},
	{"geometry":{"coordinates":[8.414817,49.502157],"type":"Point"},"properties":{"osm_id":"7499193505","tag":{"amenity":"recycling","brand":"Malteser","operator":"FWS GmbH","recycling:clothes":"yes","recycling:shoes":"yes","recycling_type":"container"}},"type":"Feature"},
	{"geometry":{"coordinates":[8.410056,49.523845],"type":"Point"},"properties":{"osm_id":"7575876681","tag":{"amenity":"recycling","operator":"Weizenh\u00c3\u00b6fer Textilverwertung","recycling:clothes":"yes","recycling:shoes":"yes","recycling_type":"container"}},"type":"Feature"},
	{"geometry":{"coordinates":[8.372566,49.531093],"type":"Point"},"properties":{"osm_id":"7887487032","tag":{"amenity":"waste_basket"}},"type":"Feature"},
	{"geometry":{"coordinates":[8.37044,49.530805],"type":"Point"},"properties":{"osm_id":"7887487040","tag":{"amenity":"waste_basket"}},"type":"Feature"},
	{"geometry":{"coordinates":[8.37131,49.530905],"type":"Point"},"properties":{"osm_id":"7887487042","tag":{"amenity":"waste_basket"}},"type":"Feature"}
]
}
