{
"type": "FeatureCollection",
"features": [
	{"geometry":{"coordinates":[8.436155,49.308549],"type":"Point"},"properties":{"osm_id":"925205635","tag":{"amenity":"recycling","recycling:clothes":"yes"}},"type":"Feature"},
	{"geometry":{"coordinates":[8.394491,49.268472],"type":"Point"},"properties":{"osm_id":"1331583180","tag":{"amenity":"waste_basket"}},"type":"Feature"},
	{"geometry":{"coordinates":[8.402076,49.274242],"type":"Point"},"properties":{"osm_id":"1331583723","tag":{"amenity":"waste_basket"}},"type":"Feature"},
	{"geometry":{"coordinates":[8.412293,49.276176],"type":"Point"},"properties":{"osm_id":"1331584149","tag":{"amenity":"waste_basket"}},"type":"Feature"},
	{"geometry":{"coordinates":[8.407845,49.295233],"type":"Point"},"properties":{"osm_id":"1467584599","tag":{"amenity":"waste_basket"}},"type":"Feature"},
	{"geometry":{"coordinates":[8.407616,49.295431],"type":"Point"},"properties":{"osm_id":"1467584622","tag":{"amenity":"waste_basket"}},"type":"Feature"},
	{"geometry":{"coordinates":[8.393948,49.283209],"type":"Point"},"properties":{"osm_id":"1469191596","tag":{"amenity":"waste_basket"}},"type":"Feature"},
	{"geometry":{"coordinates":[8.396835,49.284976],"type":"Point"},"properties":{"osm_id":"1469191664","tag":{"amenity":"waste_basket"}},"type":"Feature"},
	{"geometry":{"coordinates":[8.409757,49.294004],"type":"Point"},"properties":{"osm_id":"1469191740","tag":{"amenity":"waste_basket"}},"type":"Feature"},
	{"geometry":{"coordinates":[8.409993,49.294015],"type":"Point"},"properties":{"osm_id":"1469191744","tag":{"amenity":"waste_basket"}},"type":"Feature"},
	{"geometry":{"coordinates":[8.432672,49.318532],"type":"Point"},"properties":{"osm_id":"1478227327","tag":{"amenity":"waste_basket"}},"type":"Feature"},
	{"geometry":{"coordinates":[8.399264,49.281729],"type":"Point"},"properties":{"osm_id":"1481064415","tag":{"amenity":"waste_basket"}},"type":"Feature"},
	{"geometry":{"coordinates":[8.414888,49.279231],"type":"Point"},"properties":{"osm_id":"1493211122","tag":{"amenity":"waste_basket"}},"type":"Feature"},
	{"geometry":{"coordinates":[8.411365,49.279481],"type":"Point"},"properties":{"osm_id":"1493211175","tag":{"amenity":"waste_basket"}},"type":"Feature"},
	{"geometry":{"coordinates":[8.409356,49.291211],"type":"Point"},"properties":{"osm_id":"1736164016","tag":{"amenity":"waste_basket"}},"type":"Feature"},
	{"geometry":{"coordinates":[8.434228,49.31296],"type":"Point"},"properties":{"osm_id":"1758108035","tag":{"amenity":"waste_basket"}},"type":"Feature"},
	{"geometry":{"coordinates":[8.433846,49.313142],"type":"Point"},"properties":{"osm_id":"1758108036","tag":{"amenity":"waste_basket"}},"type":"Feature"},
	{"geometry":{"coordinates":[8.433397,49.313299],"type":"Point"},"properties":{"osm_id":"1758108042","tag":{"amenity":"waste_basket"}},"type":"Feature"},
	{"geometry":{"coordinates":[8.426173,49.324987],"type":"Point"},"properties":{"osm_id":"1925232693","tag":{"amenity":"waste_basket"}},"type":"Feature"},
	{"geometry":{"coordinates":[8.413763,49.32411],"type":"Point"},"properties":{"osm_id":"2752240773","tag":{"amenity":"waste_basket"}},"type":"Feature"},
	{"geometry":{"coordinates":[8.412445,49.324006],"type":"Point"},"properties":{"osm_id":"2791014668","tag":{"amenity":"waste_basket"}},"type":"Feature"},
	{"geometry":{"coordinates":[8.384428,49.320218],"type":"Point"},"properties":{"osm_id":"3471152888","tag":{"amenity":"recycling","recycling_type":"container"}},"type":"Feature"},
	{"geometry":{"coordinates":[8.384931,49.320527],"type":"Point"},"properties":{"osm_id":"3508992074","tag":{"amenity":"recycling","recycling:cans":"no","recycling:clothes":"yes","recycling:glass":"no","recycling:paper":"no"}},"type":"Feature"},
	{"geometry":{"coordinates":[8.402178,49.284583],"type":"Point"},"properties":{"osm_id":"3602449184","tag":{"addr:city":"R\u00c3\u00b6merberg","addr:country":"DE","addr:postcode":"67354","addr:street":"Lina-Sommer-Stra\u00c3\u009fe","amenity":"recycling","recycling:cans":"no","recycling:clothes":"yes","recycling:glass":"no","recycling:paper":"no"}},"type":"Feature"},
	{"geometry":{"coordinates":[8.414089,49.314823],"type":"Point"},"properties":{"osm_id":"4441277652","tag":{"amenity":"waste_basket"}},"type":"Feature"},
	{"geometry":{"coordinates":[8.414057,49.31483],"type":"Point"},"properties":{"osm_id":"4441277654","tag":{"amenity":"waste_basket"}},"type":"Feature"},
	{"geometry":{"coordinates":[8.414118,49.314834],"type":"Point"},"properties":{"osm_id":"4441277657","tag":{"amenity":"waste_basket"}},"type":"Feature"},
	{"geometry":{"coordinates":[8.434835,49.30913],"type":"Point"},"properties":{"osm_id":"4450907169","tag":{"amenity":"recycling","recycling:clothes":"yes","recycling:shoes":"yes","recycling_type":"container"}},"type":"Feature"},
	{"geometry":{"coordinates":[8.426453,49.310614],"type":"Point"},"properties":{"osm_id":"4450926024","tag":{"amenity":"recycling","recycling:clothes":"yes","recycling:shoes":"yes","recycling_type":"container"}},"type":"Feature"},
	{"geometry":{"coordinates":[8.434597,49.312955],"type":"Point"},"properties":{"osm_id":"4450926025","tag":{"amenity":"recycling","recycling:clothes":"yes","recycling:shoes":"yes","recycling_type":"container"}},"type":"Feature"},
	{"geometry":{"coordinates":[8.428603,49.31694],"type":"Point"},"properties":{"osm_id":"4483154728","tag":{"amenity":"waste_basket"}},"type":"Feature"},
	{"geometry":{"coordinates":[8.428415,49.317111],"type":"Point"},"properties":{"osm_id":"4483154737","tag":{"amenity":"waste_basket"}},"type":"Feature"},
	{"geometry":{"coordinates":[8.431373,49.319767],"type":"Point"},"properties":{"osm_id":"4483154819","tag":{"amenity":"waste_basket"}},"type":"Feature"},
	{"geometry":{"coordinates":[8.430663,49.317126],"type":"Point"},"properties":{"osm_id":"4584102509","tag":{"amenity":"waste_basket"}},"type":"Feature"},
	{"geometry":{"coordinates":[8.428551,49.324051],"type":"Point"},"properties":{"osm_id":"4728268694","tag":{"amenity":"waste_basket"}},"type":"Feature"},
	{"geometry":{"coordinates":[8.42855,49.324065],"type":"Point"},"properties":{"osm_id":"4728268695","tag":{"amenity":"waste_basket"}},"type":"Feature"},
	{"geometry":{"coordinates":[8.428541,49.324138],"type":"Point"},"properties":{"osm_id":"4728268696","tag":{"amenity":"waste_basket"}},"type":"Feature"},
	{"geometry":{"coordinates":[8.428535,49.324191],"type":"Point"},"properties":{"osm_id":"4728268726","tag":{"amenity":"waste_basket"}},"type":"Feature"},
	{"geometry":{"coordinates":[8.433081,49.317524],"type":"Point"},"properties":{"osm_id":"4827947120","tag":{"amenity":"waste_basket"}},"type":"Feature"},
	{"geometry":{"coordinates":[8.433136,49.317419],"type":"Point"},"properties":{"osm_id":"4827947721","tag":{"amenity":"waste_basket"}},"type":"Feature"},
	{"geometry":{"coordinates":[8.433409,49.317417],"type":"Point"},"properties":{"osm_id":"4827947724","tag":{"amenity":"waste_basket"}},"type":"Feature"},
	{"geometry":{"coordinates":[8.433945,49.317421],"type":"Point"},"properties":{"osm_id":"4827947731","tag":{"amenity":"waste_basket"}},"type":"Feature"},
	{"geometry":{"coordinates":[8.431355,49.317493],"type":"Point"},"properties":{"osm_id":"6030220121","tag":{"amenity":"waste_basket"}},"type":"Feature"},
	{"geometry":{"coordinates":[8.419815,49.316942],"type":"Point"},"properties":{"osm_id":"6223013747","tag":{"amenity":"waste_basket"}},"type":"Feature"},
	{"geometry":{"coordinates":[8.419806,49.316971],"type":"Point"},"properties":{"osm_id":"6223013748","tag":{"amenity":"waste_basket"}},"type":"Feature"},
	{"geometry":{"coordinates":[8.43143,49.306382],"type":"Point"},"properties":{"osm_id":"6799522724","tag":{"amenity":"recycling","operator":"Remitex Textilrecycling","recycling:clothes":"yes","recycling_type":"container"}},"type":"Feature"},
	{"geometry":{"coordinates":[8.437424,49.321685],"type":"Point"},"properties":{"osm_id":"6799621200","tag":{"amenity":"recycling","operator":"FWS AltkleiderContainerService","recycling:clothes":"yes","recycling_type":"container"}},"type":"Feature"},
	{"geometry":{"coordinates":[8.431371,49.31749],"type":"Point"},"properties":{"osm_id":"6799814421","tag":{"amenity":"waste_basket"}},"type":"Feature"},
	{"geometry":{"coordinates":[8.437219,49.317353],"type":"Point"},"properties":{"osm_id":"6799824407","tag":{"amenity":"waste_basket"}},"type":"Feature"},
	{"geometry":{"coordinates":[8.436139,49.317435],"type":"Point"},"properties":{"osm_id":"6799827325","tag":{"amenity":"waste_basket"}},"type":"Feature"},
	{"geometry":{"coordinates":[8.432699,49.309396],"type":"Point"},"properties":{"osm_id":"7216088306","tag":{"amenity":"waste_basket","waste":"trash"}},"type":"Feature"},
	{"geometry":{"coordinates":[8.432522,49.309266],"type":"Point"},"properties":{"osm_id":"7216088308","tag":{"amenity":"waste_basket"}},"type":"Feature"},
	{"geometry":{"coordinates":[8.432873,49.3095],"type":"Point"},"properties":{"osm_id":"7216088310","tag":{"amenity":"waste_basket","waste":"trash"}},"type":"Feature"},
	{"geometry":{"coordinates":[8.436488,49.310539],"type":"Point"},"properties":{"osm_id":"7216357999","tag":{"amenity":"waste_basket","waste":"trash"}},"type":"Feature"},
	{"geometry":{"coordinates":[8.43664,49.310149],"type":"Point"},"properties":{"osm_id":"7216358002","tag":{"amenity":"waste_basket","waste":"trash"}},"type":"Feature"},
	{"geometry":{"coordinates":[8.433876,49.31],"type":"Point"},"properties":{"osm_id":"7216409728","tag":{"amenity":"waste_basket","waste":"trash"}},"type":"Feature"},
	{"geometry":{"coordinates":[8.399179,49.322626],"type":"Point"},"properties":{"osm_id":"7540828601","tag":{"amenity":"waste_basket"}},"type":"Feature"}
]
}
