{
"type": "FeatureCollection",
"features": [
	{"geometry":{"coordinates":[8.402515,49.095491],"type":"Point"},"properties":{"osm_id":"60380130","tag":{"amenity":"recycling","location":"overground","recycling:clothes":"yes","recycling:glass":"yes","recycling_type":"container"}},"type":"Feature"},
	{"geometry":{"coordinates":[8.401192,49.097111],"type":"Point"},"properties":{"osm_id":"60636253","tag":{"amenity":"recycling","recycling:clothes":"yes","recycling:glass":"yes","recycling_type":"container"}},"type":"Feature"},
	{"geometry":{"coordinates":[8.40373,49.100672],"type":"Point"},"properties":{"osm_id":"60636323","tag":{"amenity":"recycling","recycling:glass":"yes","recycling_type":"container"}},"type":"Feature"},
	{"geometry":{"coordinates":[8.39462,49.096962],"type":"Point"},"properties":{"osm_id":"60699676","tag":{"amenity":"recycling","recycling:clothes":"yes","recycling:glass":"yes"}},"type":"Feature"},
	{"geometry":{"coordinates":[8.389213,49.102602],"type":"Point"},"properties":{"osm_id":"60758730","tag":{"amenity":"recycling","recycling:clothes":"yes","recycling:glass":"yes","recycling_type":"container"}},"type":"Feature"},
	{"geometry":{"coordinates":[8.400163,49.100317],"type":"Point"},"properties":{"osm_id":"60759861","tag":{"amenity":"recycling","recycling:clothes":"yes","recycling:glass":"yes","recycling_type":"container"}},"type":"Feature"},
	{"geometry":{"coordinates":[8.414408,49.115371],"type":"Point"},"properties":{"osm_id":"60895995","tag":{"amenity":"recycling","recycling:clothes":"yes","recycling:glass":"yes","recycling_type":"container"}},"type":"Feature"},
	{"geometry":{"coordinates":[8.416084,49.119471],"type":"Point"},"properties":{"osm_id":"60896027","tag":{"amenity":"recycling","recycling:clothes":"yes","recycling:glass_bottles":"yes","recycling_type":"container"}},"type":"Feature"},
	{"geometry":{"coordinates":[8.416148,49.129555],"type":"Point"},"properties":{"osm_id":"63782422","tag":{"amenity":"recycling","recycling:glass":"yes","recycling_type":"container"}},"type":"Feature"},
	{"geometry":{"coordinates":[8.41896,49.12871],"type":"Point"},"properties":{"osm_id":"71586174","tag":{"amenity":"recycling","recycling:clothes":"yes","recycling_type":"container"}},"type":"Feature"},
	{"geometry":{"coordinates":[8.41306,49.12585],"type":"Point"},"properties":{"osm_id":"71634627","tag":{"amenity":"recycling","recycling:clothes":"yes","recycling:glass":"yes","recycling:shoes":"yes","recycling_type":"container"}},"type":"Feature"},
	{"geometry":{"coordinates":[8.404298,49.130709],"type":"Point"},"properties":{"osm_id":"71675882","tag":{"amenity":"recycling","recycling:glass_bottles":"yes","recycling_type":"container"}},"type":"Feature"},
	{"geometry":{"coordinates":[8.412107,49.12826],"type":"Point"},"properties":{"osm_id":"71699028","tag":{"amenity":"recycling","recycling:clothes":"yes","recycling:glass":"yes","recycling_type":"container"}},"type":"Feature"},
	{"geometry":{"coordinates":[8.409244,49.133207],"type":"Point"},"properties":{"osm_id":"73921858","tag":{"amenity":"recycling","recycling:clothes":"yes","recycling:glass":"yes","recycling_type":"container"}},"type":"Feature"},
	{"geometry":{"coordinates":[8.408497,49.141573],"type":"Point"},"properties":{"osm_id":"76759318","tag":{"amenity":"recycling","recycling:clothes":"yes","recycling:glass":"yes","recycling_type":"container"}},"type":"Feature"},
	{"geometry":{"coordinates":[8.411657,49.142266],"type":"Point"},"properties":{"osm_id":"76766582","tag":{"amenity":"recycling","recycling:glass":"yes"}},"type":"Feature"},
	{"geometry":{"coordinates":[8.414879,49.138022],"type":"Point"},"properties":{"osm_id":"76782374","tag":{"amenity":"recycling","recycling:glass":"yes"}},"type":"Feature"},
	{"geometry":{"coordinates":[8.416305,49.135136],"type":"Point"},"properties":{"osm_id":"90424443","tag":{"amenity":"recycling","recycling:clothes":"yes","recycling:glass":"yes","recycling:shoes":"yes","recycling_type":"container"}},"type":"Feature"},
	{"geometry":{"coordinates":[8.416426,49.128479],"type":"Point"},"properties":{"osm_id":"649221265","tag":{"amenity":"recycling","recycling:clothes":"yes","recycling:glass":"yes","recycling:shoes":"yes","recycling_type":"container"}},"type":"Feature"},
	{"geometry":{"coordinates":[8.35574,49.122814],"type":"Point"},"properties":{"osm_id":"2626540014","tag":{"amenity":"waste_basket"}},"type":"Feature"},
	{"geometry":{"coordinates":[8.353773,49.124768],"type":"Point"},"properties":{"osm_id":"2631152627","tag":{"amenity":"waste_basket"}},"type":"Feature"},
	{"geometry":{"coordinates":[8.415692,49.117681],"type":"Point"},"properties":{"osm_id":"3378325857","tag":{"amenity":"waste_basket"}},"type":"Feature"},
	{"geometry":{"coordinates":[8.403394,49.144754],"type":"Point"},"properties":{"barrier":"gate","osm_id":"3421892076"},"type":"Feature"},
	{"geometry":{"coordinates":[8.420771,49.11459],"type":"Point"},"properties":{"osm_id":"3448521330","tag":{"amenity":"waste_basket"}},"type":"Feature"},
	{"geometry":{"coordinates":[8.408875,49.119981],"type":"Point"},"properties":{"osm_id":"3448521335","tag":{"amenity":"waste_basket"}},"type":"Feature"},
	{"geometry":{"coordinates":[8.377292,49.099312],"type":"Point"},"properties":{"osm_id":"3479746512","tag":{"amenity":"waste_basket"}},"type":"Feature"},
	{"geometry":{"coordinates":[8.418043,49.124574],"type":"Point"},"properties":{"osm_id":"3523909505","tag":{"amenity":"recycling","recycling:glass":"yes"}},"type":"Feature"},
	{"geometry":{"coordinates":[8.418078,49.124675],"type":"Point"},"properties":{"osm_id":"3523909506","tag":{"amenity":"recycling","recycling:clothes":"yes"}},"type":"Feature"},
	{"geometry":{"coordinates":[8.41824,49.131433],"type":"Point"},"properties":{"osm_id":"3554337519","tag":{"amenity":"waste_basket"}},"type":"Feature"},
	{"geometry":{"coordinates":[8.416739,49.130538],"type":"Point"},"properties":{"osm_id":"3571890698","tag":{"amenity":"waste_basket"}},"type":"Feature"},
	{"geometry":{"coordinates":[8.415811,49.13745],"type":"Point"},"properties":{"osm_id":"3578540482","tag":{"amenity":"waste_basket"}},"type":"Feature"},
	{"geometry":{"coordinates":[8.416579,49.137381],"type":"Point"},"properties":{"osm_id":"3578540483","tag":{"amenity":"waste_basket"}},"type":"Feature"},
	{"geometry":{"coordinates":[8.417298,49.13727],"type":"Point"},"properties":{"osm_id":"3578540484","tag":{"amenity":"waste_basket"}},"type":"Feature"},
	{"geometry":{"coordinates":[8.416038,49.128821],"type":"Point"},"properties":{"osm_id":"3637346766","tag":{"amenity":"recycling","recycling:clothes":"yes","recycling_type":"container"}},"type":"Feature"},
	{"geometry":{"coordinates":[8.371576,49.139022],"type":"Point"},"properties":{"osm_id":"3732097008","tag":{"amenity":"waste_basket"}},"type":"Feature"},
	{"geometry":{"coordinates":[8.413137,49.126575],"type":"Point"},"properties":{"osm_id":"3942007261","tag":{"amenity":"waste_basket"}},"type":"Feature"},
	{"geometry":{"coordinates":[8.35077,49.123755],"type":"Point"},"properties":{"osm_id":"4283611076","tag":{"amenity":"waste_basket"}},"type":"Feature"},
	{"geometry":{"coordinates":[8.404374,49.098769],"type":"Point"},"properties":{"name":"Glascontainer f\u00c3\u00bcr Braun,Gr\u00c3\u00bcn und Wei\u00c3\u009fglas","osm_id":"4449524494","tag":{"amenity":"recycling","location":"overground","recycling_type":"container"}},"type":"Feature"},
	{"geometry":{"coordinates":[8.3818,49.101086],"type":"Point"},"properties":{"osm_id":"6071531386","tag":{"amenity":"waste_basket","waste":"trash"}},"type":"Feature"},
	{"geometry":{"coordinates":[8.379067,49.149341],"type":"Point"},"properties":{"osm_id":"7677093992","tag":{"amenity":"waste_basket"}},"type":"Feature"},
	{"geometry":{"coordinates":[8.373589,49.147299],"type":"Point"},"properties":{"osm_id":"7679247444","tag":{"amenity":"waste_basket"}},"type":"Feature"},
	{"geometry":{"coordinates":[8.373784,49.14805],"type":"Point"},"properties":{"osm_id":"7679247445","tag":{"amenity":"waste_basket"}},"type":"Feature"},
	{"geometry":{"coordinates":[8.373973,49.148747],"type":"Point"},"properties":{"osm_id":"7679247446","tag":{"amenity":"waste_basket"}},"type":"Feature"},
	{"geometry":{"coordinates":[8.365606,49.116009],"type":"Point"},"properties":{"osm_id":"7679668209","tag":{"amenity":"waste_basket"}},"type":"Feature"},
	{"geometry":{"coordinates":[8.365685,49.116367],"type":"Point"},"properties":{"osm_id":"7679668212","tag":{"amenity":"waste_basket"}},"type":"Feature"},
	{"geometry":{"coordinates":[8.362087,49.115747],"type":"Point"},"properties":{"osm_id":"7679826481","tag":{"amenity":"waste_basket"}},"type":"Feature"},
	{"geometry":{"coordinates":[8.351039,49.102272],"type":"Point"},"properties":{"osm_id":"7680723474","tag":{"amenity":"waste_basket"}},"type":"Feature"}
]
}
