{
"type": "FeatureCollection",
"features": [
	{"geometry":{"coordinates":[8.414069,48.977681],"type":"Point"},"properties":{"osm_id":"24465311","tag":{"amenity":"recycling","location":"overground","recycling:clothes":"yes","recycling:glass":"yes","recycling_type":"container"}},"type":"Feature"},
	{"geometry":{"coordinates":[8.410793,48.966439],"type":"Point"},"properties":{"osm_id":"24554425","tag":{"amenity":"recycling","recycling:batteries":"yes","recycling:clothes":"yes","recycling:glass":"yes","recycling_type":"container"}},"type":"Feature"},
	{"geometry":{"coordinates":[8.416798,48.969888],"type":"Point"},"properties":{"osm_id":"24914190","tag":{"amenity":"recycling","location":"overground","recycling:batteries":"yes","recycling:glass":"yes","recycling_type":"container"}},"type":"Feature"},
	{"geometry":{"coordinates":[8.404641,48.971482],"type":"Point"},"properties":{"osm_id":"25185809","tag":{"amenity":"recycling","recycling:clothes":"yes","recycling:glass":"yes","recycling_type":"container"}},"type":"Feature"},
	{"geometry":{"coordinates":[8.404338,48.965978],"type":"Point"},"properties":{"osm_id":"25187702","tag":{"amenity":"recycling","location":"overground","recycling:batteries":"yes","recycling:clothes":"yes","recycling:glass":"no","recycling:glass_bottles":"yes","recycling_type":"container"}},"type":"Feature"},
	{"geometry":{"coordinates":[8.400589,48.965412],"type":"Point"},"properties":{"osm_id":"25187858","tag":{"amenity":"recycling","recycling:batteries":"yes","recycling:glass":"yes"}},"type":"Feature"},
	{"geometry":{"coordinates":[8.409626,48.969152],"type":"Point"},"properties":{"osm_id":"25187973","tag":{"amenity":"recycling","recycling:batteries":"yes","recycling:clothes":"yes","recycling:glass":"yes"}},"type":"Feature"},
	{"geometry":{"coordinates":[8.380543,48.926498],"type":"Point"},"properties":{"osm_id":"25875452","tag":{"amenity":"recycling","recycling:glass":"yes","recycling_type":"container"}},"type":"Feature"},
	{"geometry":{"coordinates":[8.410989,48.947595],"type":"Point"},"properties":{"osm_id":"26609247","tag":{"amenity":"recycling","recycling:glass":"yes","recycling_type":"container"}},"type":"Feature"},
	{"geometry":{"coordinates":[8.401641,48.951237],"type":"Point"},"properties":{"osm_id":"26609254","tag":{"amenity":"recycling","recycling:clothes":"yes","recycling:glass":"yes","recycling_type":"container"}},"type":"Feature"},
	{"geometry":{"coordinates":[8.396947,48.948706],"type":"Point"},"properties":{"osm_id":"29791582","tag":{"amenity":"recycling","recycling:glass":"yes","recycling_type":"container"}},"type":"Feature"},
	{"geometry":{"coordinates":[8.402228,48.948709],"type":"Point"},"properties":{"osm_id":"29793463","tag":{"amenity":"recycling","recycling:clothes":"yes","recycling:glass":"yes","recycling_type":"container"}},"type":"Feature"},
	{"geometry":{"coordinates":[8.406432,48.95205],"type":"Point"},"properties":{"osm_id":"29793995","tag":{"amenity":"recycling","recycling:clothes":"yes","recycling:glass":"yes","recycling_type":"container"}},"type":"Feature"},
	{"geometry":{"coordinates":[8.411143,48.964763],"type":"Point"},"properties":{"osm_id":"29795108","tag":{"amenity":"recycling","recycling:clothes":"yes","recycling:glass":"yes"}},"type":"Feature"},
	{"geometry":{"coordinates":[8.409211,48.972361],"type":"Point"},"properties":{"osm_id":"29795346","tag":{"amenity":"recycling","location":"overground","recycling:batteries":"yes","recycling:glass":"yes","recycling_type":"container"}},"type":"Feature"},
	{"geometry":{"coordinates":[8.42044,48.946481],"type":"Point"},"properties":{"osm_id":"29911894","tag":{"amenity":"recycling","recycling:clothes":"yes","recycling:glass":"yes","recycling_type":"container"}},"type":"Feature"},
	{"geometry":{"coordinates":[8.41223,48.946394],"type":"Point"},"properties":{"osm_id":"29911899","tag":{"amenity":"recycling","operator":"obskur","recycling:clothes":"yes","recycling:shoes":"yes","recycling_type":"container"}},"type":"Feature"},
	{"geometry":{"coordinates":[8.406722,48.944011],"type":"Point"},"properties":{"osm_id":"30083665","tag":{"amenity":"recycling","recycling:glass":"yes","recycling_type":"container"}},"type":"Feature"},
	{"geometry":{"coordinates":[8.403087,48.94469],"type":"Point"},"properties":{"osm_id":"30084705","tag":{"amenity":"recycling","recycling:clothes":"yes","recycling_type":"container"}},"type":"Feature"},
	{"geometry":{"coordinates":[8.409602,48.937392],"type":"Point"},"properties":{"osm_id":"30085778","tag":{"amenity":"recycling","recycling:clothes":"yes","recycling_type":"container"}},"type":"Feature"},
	{"geometry":{"coordinates":[8.413853,48.936383],"type":"Point"},"properties":{"osm_id":"30085791","tag":{"amenity":"recycling","recycling:clothes":"yes","recycling_type":"container"}},"type":"Feature"},
	{"geometry":{"coordinates":[8.416924,48.935826],"type":"Point"},"properties":{"osm_id":"30085795","tag":{"amenity":"recycling","recycling:glass":"yes","recycling_type":"container"}},"type":"Feature"},
	{"geometry":{"coordinates":[8.417495,48.936148],"type":"Point"},"properties":{"osm_id":"30085796","tag":{"amenity":"recycling","recycling:glass":"yes","recycling_type":"container"}},"type":"Feature"},
	{"geometry":{"coordinates":[8.417677,48.936057],"type":"Point"},"properties":{"osm_id":"30085797","tag":{"amenity":"recycling","recycling:clothes":"yes","recycling_type":"container"}},"type":"Feature"},
	{"geometry":{"coordinates":[8.400046,48.936979],"type":"Point"},"properties":{"osm_id":"30087166","tag":{"amenity":"recycling","recycling:glass":"yes","recycling_type":"container"}},"type":"Feature"},
	{"geometry":{"coordinates":[8.403433,48.972464],"type":"Point"},"properties":{"osm_id":"30119976","tag":{"amenity":"recycling","recycling:batteries":"yes","recycling:clothes":"yes","recycling:glass":"yes","recycling_type":"container"}},"type":"Feature"},
	{"geometry":{"coordinates":[8.386511,48.956887],"type":"Point"},"properties":{"osm_id":"30482840","tag":{"amenity":"recycling","recycling:glass":"yes","recycling_type":"container"}},"type":"Feature"},
	{"geometry":{"coordinates":[8.38534,48.95262],"type":"Point"},"properties":{"osm_id":"30483571","tag":{"amenity":"recycling","recycling:clothes":"yes"}},"type":"Feature"},
	{"geometry":{"coordinates":[8.382237,48.953779],"type":"Point"},"properties":{"osm_id":"30483580","tag":{"amenity":"recycling","recycling:clothes":"yes","recycling:glass":"yes","recycling_type":"container"}},"type":"Feature"},
	{"geometry":{"coordinates":[8.379978,48.953477],"type":"Point"},"properties":{"osm_id":"30483592","tag":{"amenity":"recycling","recycling:clothes":"yes"}},"type":"Feature"},
	{"geometry":{"coordinates":[8.375727,48.949019],"type":"Point"},"properties":{"osm_id":"30484225","tag":{"amenity":"recycling","recycling:glass_bottles":"yes","recycling_type":"container"}},"type":"Feature"},
	{"geometry":{"coordinates":[8.377067,48.951231],"type":"Point"},"properties":{"osm_id":"30484245","tag":{"amenity":"recycling","recycling:clothes":"yes","recycling:glass":"yes"}},"type":"Feature"},
	{"geometry":{"coordinates":[8.384333,48.948603],"type":"Point"},"properties":{"osm_id":"30484255","tag":{"amenity":"recycling","recycling:clothes":"yes","recycling_type":"container"}},"type":"Feature"},
	{"geometry":{"coordinates":[8.388116,48.949676],"type":"Point"},"properties":{"osm_id":"30484258","tag":{"amenity":"recycling","recycling:glass":"yes","recycling_type":"container"}},"type":"Feature"},
	{"geometry":{"coordinates":[8.397021,48.939654],"type":"Point"},"properties":{"osm_id":"30883224","tag":{"amenity":"recycling","recycling:clothes":"yes","recycling_type":"container"}},"type":"Feature"},
	{"geometry":{"coordinates":[8.392949,48.943969],"type":"Point"},"properties":{"osm_id":"30883232","tag":{"amenity":"recycling","recycling:glass":"yes","recycling_type":"container"}},"type":"Feature"},
	{"geometry":{"coordinates":[8.395137,48.937958],"type":"Point"},"properties":{"osm_id":"30883318","tag":{"amenity":"recycling","count":"6","recycling:glass":"yes","recycling_type":"container"}},"type":"Feature"},
	{"geometry":{"coordinates":[8.407209,48.976102],"type":"Point"},"properties":{"osm_id":"33312248","tag":{"addr:city":"Karlsruhe","addr:country":"DE","addr:housenumber":"2","addr:postcode":"76199","addr:street":"Im Gr\u00c3\u00bcn","amenity":"recycling","location":"overground","recycling:batteries":"yes","recycling:clothes":"yes","recycling:glass":"yes","recycling_type":"container","source:addr":"Maps4BW, LGL, www.lgl-bw.de"}},"type":"Feature"},
	{"geometry":{"coordinates":[8.38999,48.930177],"type":"Point"},"properties":{"osm_id":"34823841","tag":{"amenity":"recycling","recycling:glass":"yes","recycling_type":"container"}},"type":"Feature"},
	{"geometry":{"coordinates":[8.415049,48.947398],"type":"Point"},"properties":{"osm_id":"298113977","tag":{"amenity":"recycling","recycling:clothes":"yes","recycling:glass":"yes","recycling_type":"container"}},"type":"Feature"},
	{"geometry":{"coordinates":[8.370886,48.924109],"type":"Point"},"properties":{"osm_id":"313342084","tag":{"amenity":"recycling","recycling:glass":"yes","recycling_type":"container"}},"type":"Feature"},
	{"geometry":{"coordinates":[8.366124,48.924509],"type":"Point"},"properties":{"osm_id":"313343525","tag":{"amenity":"recycling","recycling:glass":"yes","recycling_type":"container"}},"type":"Feature"},
	{"geometry":{"coordinates":[8.409552,48.945854],"type":"Point"},"properties":{"osm_id":"475958049","tag":{"amenity":"recycling","recycling:glass":"yes","recycling_type":"container"}},"type":"Feature"},
	{"geometry":{"coordinates":[8.361973,48.925949],"type":"Point"},"properties":{"osm_id":"558563320","tag":{"amenity":"recycling","recycling:glass":"yes","recycling_type":"container"}},"type":"Feature"},
	{"geometry":{"coordinates":[8.366467,48.92467],"type":"Point"},"properties":{"osm_id":"563669570","tag":{"amenity":"recycling","recycling:clothes":"yes","recycling_type":"container"}},"type":"Feature"},
	{"geometry":{"coordinates":[8.388962,48.957205],"type":"Point"},"properties":{"name":"Wertstoffhof","osm_id":"727821099","tag":{"addr:city":"Ettlingen","addr:country":"DE","addr:housenumber":"79","addr:postcode":"76275","addr:street":"Lindenweg","amenity":"recycling","recycling:batteries":"yes","recycling:demolition_waste":"yes","recycling:electronic_scrap":"yes","recycling:glass":"yes","recycling:paper":"yes","recycling:scrap_metal":"yes","recycling:styrofoam":"yes","recycling:wood_waste":"yes","recycling_type":"centre"}},"type":"Feature"},
	{"geometry":{"coordinates":[8.416638,48.939809],"type":"Point"},"properties":{"osm_id":"778512281","tag":{"amenity":"waste_basket"}},"type":"Feature"},
	{"geometry":{"coordinates":[8.416343,48.940096],"type":"Point"},"properties":{"osm_id":"778512327","tag":{"amenity":"waste_basket"}},"type":"Feature"},
	{"geometry":{"coordinates":[8.364466,48.926709],"type":"Point"},"properties":{"osm_id":"890333439","tag":{"amenity":"recycling","recycling:glass_bottles":"yes","recycling_type":"container"}},"type":"Feature"},
	{"geometry":{"coordinates":[8.414644,48.971983],"type":"Point"},"properties":{"osm_id":"922245585","tag":{"amenity":"recycling","recycling:clothes":"yes","recycling:glass_bottles":"yes","recycling:green_waste":"yes","recycling_type":"container"}},"type":"Feature"},
	{"geometry":{"coordinates":[8.404565,48.953479],"type":"Point"},"properties":{"osm_id":"1189730173","tag":{"amenity":"recycling","recycling:glass":"yes","recycling_type":"container"}},"type":"Feature"},
	{"geometry":{"coordinates":[8.41927,48.937204],"type":"Point"},"properties":{"osm_id":"1342580625","tag":{"amenity":"waste_basket"}},"type":"Feature"},
	{"geometry":{"coordinates":[8.421228,48.935833],"type":"Point"},"properties":{"osm_id":"1342580627","tag":{"amenity":"waste_basket"}},"type":"Feature"},
	{"geometry":{"coordinates":[8.420225,48.936531],"type":"Point"},"properties":{"osm_id":"1342580628","tag":{"amenity":"waste_basket"}},"type":"Feature"},
	{"geometry":{"coordinates":[8.360519,48.932109],"type":"Point"},"properties":{"name":"Gr\u00c3\u00bcnschnittplatz","osm_id":"1370001727","tag":{"amenity":"recycling","recycling:green_waste":"yes","recycling_type":"centre"}},"type":"Feature"},
	{"geometry":{"coordinates":[8.418011,48.937564],"type":"Point"},"properties":{"osm_id":"2305379400","tag":{"amenity":"waste_basket"}},"type":"Feature"},
	{"geometry":{"coordinates":[8.38455,48.928229],"type":"Point"},"properties":{"osm_id":"2408526038","tag":{"amenity":"recycling","recycling:glass":"yes","recycling_type":"container"}},"type":"Feature"},
	{"geometry":{"coordinates":[8.384427,48.928703],"type":"Point"},"properties":{"osm_id":"2408526039","tag":{"amenity":"recycling","recycling:clothes":"yes","recycling_type":"container"}},"type":"Feature"},
	{"geometry":{"coordinates":[8.395264,48.937838],"type":"Point"},"properties":{"osm_id":"3194422492","tag":{"amenity":"recycling","operator":"Deutsches Rotes Kreuz","recycling:clothes":"yes","recycling_type":"container"}},"type":"Feature"},
	{"geometry":{"coordinates":[8.414532,48.97193],"type":"Point"},"properties":{"name":"Gr\u00c3\u00bcnabf\u00c3\u00a4lle Diakonissenkrankenhaus","osm_id":"3272615978","tag":{"amenity":"recycling","opening_hours":"24/7","operator":"Stadt Karlsruhe","recycling_type":"centre"}},"type":"Feature"},
	{"geometry":{"coordinates":[8.399822,48.974965],"type":"Point"},"properties":{"osm_id":"3330615715","tag":{"amenity":"waste_basket"}},"type":"Feature"},
	{"geometry":{"coordinates":[8.399807,48.978695],"type":"Point"},"properties":{"osm_id":"3330615716","tag":{"amenity":"waste_basket"}},"type":"Feature"},
	{"geometry":{"coordinates":[8.422738,48.970687],"type":"Point"},"properties":{"osm_id":"3420725617","tag":{"amenity":"waste_basket"}},"type":"Feature"},
	{"geometry":{"coordinates":[8.417179,48.947244],"type":"Point"},"properties":{"osm_id":"3439828785","tag":{"amenity":"waste_basket"}},"type":"Feature"},
	{"geometry":{"coordinates":[8.424091,48.940299],"type":"Point"},"properties":{"osm_id":"3542428959","tag":{"amenity":"waste_basket"}},"type":"Feature"},
	{"geometry":{"coordinates":[8.421623,48.942992],"type":"Point"},"properties":{"osm_id":"3542428960","tag":{"amenity":"waste_basket"}},"type":"Feature"},
	{"geometry":{"coordinates":[8.420916,48.946539],"type":"Point"},"properties":{"osm_id":"3542428961","tag":{"amenity":"waste_basket"}},"type":"Feature"},
	{"geometry":{"coordinates":[8.421255,48.946859],"type":"Point"},"properties":{"osm_id":"3542428962","tag":{"amenity":"waste_basket"}},"type":"Feature"},
	{"geometry":{"coordinates":[8.398585,48.971073],"type":"Point"},"properties":{"osm_id":"3912932368","tag":{"amenity":"waste_basket"}},"type":"Feature"},
	{"geometry":{"coordinates":[8.404603,48.976316],"type":"Point"},"properties":{"osm_id":"3912932369","tag":{"amenity":"waste_basket"}},"type":"Feature"},
	{"geometry":{"coordinates":[8.373745,48.923943],"type":"Point"},"properties":{"osm_id":"4009806250","tag":{"amenity":"waste_basket"}},"type":"Feature"},
	{"geometry":{"coordinates":[8.374334,48.924204],"type":"Point"},"properties":{"osm_id":"4016690368","tag":{"amenity":"waste_basket"}},"type":"Feature"},
	{"geometry":{"coordinates":[8.387752,48.946919],"type":"Point"},"properties":{"osm_id":"4016692495","tag":{"amenity":"waste_basket"}},"type":"Feature"},
	{"geometry":{"coordinates":[8.387942,48.946984],"type":"Point"},"properties":{"osm_id":"4016692499","tag":{"amenity":"waste_basket"}},"type":"Feature"},
	{"geometry":{"coordinates":[8.387949,48.947038],"type":"Point"},"properties":{"osm_id":"4016692500","tag":{"amenity":"waste_basket"}},"type":"Feature"},
	{"geometry":{"coordinates":[8.415757,48.965935],"type":"Point"},"properties":{"osm_id":"4220468146","tag":{"amenity":"waste_basket"}},"type":"Feature"},
	{"geometry":{"coordinates":[8.400833,48.972116],"type":"Point"},"properties":{"osm_id":"4971000431","tag":{"amenity":"waste_basket"}},"type":"Feature"},
	{"geometry":{"coordinates":[8.402241,48.973153],"type":"Point"},"properties":{"osm_id":"4971011721","tag":{"amenity":"waste_basket"}},"type":"Feature"},
	{"geometry":{"coordinates":[8.40209,48.968347],"type":"Point"},"properties":{"osm_id":"5751157389","tag":{"amenity":"recycling","operator":"Knettenbrech-Gurdulic","recycling:glass_bottles":"yes","recycling_type":"container"}},"type":"Feature"},
	{"geometry":{"coordinates":[8.409091,48.977807],"type":"Point"},"properties":{"osm_id":"5752169541","tag":{"amenity":"waste_basket"}},"type":"Feature"},
	{"geometry":{"coordinates":[8.402419,48.968395],"type":"Point"},"properties":{"osm_id":"5752193484","tag":{"amenity":"waste_basket"}},"type":"Feature"},
	{"geometry":{"coordinates":[8.385832,48.952077],"type":"Point"},"properties":{"osm_id":"5760637823","tag":{"amenity":"recycling","recycling:clothes":"yes","recycling:shoes":"yes"}},"type":"Feature"},
	{"geometry":{"coordinates":[8.384905,48.9507],"type":"Point"},"properties":{"osm_id":"5760641155","tag":{"amenity":"recycling","recycling:clothes":"yes","recycling:shoes":"yes"}},"type":"Feature"},
	{"geometry":{"coordinates":[8.385672,48.951785],"type":"Point"},"properties":{"osm_id":"5760641849","tag":{"amenity":"waste_basket"}},"type":"Feature"},
	{"geometry":{"coordinates":[8.408336,48.977328],"type":"Point"},"properties":{"osm_id":"5764299818","tag":{"amenity":"waste_basket"}},"type":"Feature"},
	{"geometry":{"coordinates":[8.409742,48.969322],"type":"Point"},"properties":{"osm_id":"5779956506","tag":{"amenity":"waste_basket"}},"type":"Feature"},
	{"geometry":{"coordinates":[8.414263,48.977775],"type":"Point"},"properties":{"osm_id":"5779956509","tag":{"amenity":"recycling","recycling:batteries":"yes","recycling_type":"container"}},"type":"Feature"},
	{"geometry":{"coordinates":[8.412712,48.940131],"type":"Point"},"properties":{"osm_id":"5838870549","tag":{"amenity":"waste_basket"}},"type":"Feature"},
	{"geometry":{"coordinates":[8.392715,48.945083],"type":"Point"},"properties":{"osm_id":"6829634474","tag":{"amenity":"recycling","recycling:glass":"yes","recycling_type":"container"}},"type":"Feature"},
	{"geometry":{"coordinates":[8.375763,48.94901],"type":"Point"},"properties":{"osm_id":"7057095692","tag":{"amenity":"recycling","capacity":"2","lastcheck":"2019-12-14","operator":"Remitex Textilrecycling","recycling:clothes":"yes","recycling_type":"container"}},"type":"Feature"},
	{"geometry":{"coordinates":[8.39168,48.9278],"type":"Point"},"properties":{"osm_id":"7194231082","tag":{"amenity":"waste_basket","waste":"trash"}},"type":"Feature"},
	{"geometry":{"coordinates":[8.373741,48.939418],"type":"Point"},"properties":{"osm_id":"7612671879","tag":{"amenity":"recycling","recycling:clothes":"yes","recycling:glass_bottles":"yes","recycling_type":"container"}},"type":"Feature"},
	{"geometry":{"coordinates":[8.408105,48.943361],"type":"Point"},"properties":{"osm_id":"7797234886","tag":{"amenity":"waste_basket"}},"type":"Feature"},
	{"geometry":{"coordinates":[8.40608,48.940222],"type":"Point"},"properties":{"osm_id":"7907036008","tag":{"amenity":"waste_basket"}},"type":"Feature"},
	{"geometry":{"coordinates":[8.405524,48.940445],"type":"Point"},"properties":{"osm_id":"7907036009","tag":{"amenity":"waste_basket"}},"type":"Feature"},
	{"geometry":{"coordinates":[8.405999,48.940441],"type":"Point"},"properties":{"osm_id":"7907036011","tag":{"amenity":"waste_basket"}},"type":"Feature"}
]
}
