{
"type": "FeatureCollection",
"features": [
	{"geometry":{"coordinates":[8.350859,48.734044],"type":"Point"},"properties":{"osm_id":"4066696757","tag":{"amenity":"recycling","capacity":"1","lastcheck":"2016-03-18","recycling:clothes":"yes","recycling_type":"container"}},"type":"Feature"},
	{"geometry":{"coordinates":[8.352868,48.726674],"type":"Point"},"properties":{"osm_id":"4453726050","tag":{"amenity":"waste_basket","lastcheck":"2016-10-18"}},"type":"Feature"},
	{"geometry":{"coordinates":[8.353854,48.729184],"type":"Point"},"properties":{"osm_id":"5080815997","tag":{"amenity":"waste_basket"}},"type":"Feature"},
	{"geometry":{"coordinates":[8.354375,48.728792],"type":"Point"},"properties":{"osm_id":"5080815998","tag":{"amenity":"waste_basket"}},"type":"Feature"},
	{"geometry":{"coordinates":[8.385254,48.733441],"type":"Point"},"properties":{"osm_id":"5637054930","tag":{"amenity":"waste_basket","waste":"trash"}},"type":"Feature"},
	{"geometry":{"coordinates":[8.352982,48.729526],"type":"Point"},"properties":{"osm_id":"8353962549","tag":{"amenity":"waste_basket"}},"type":"Feature"},
	{"geometry":{"coordinates":[8.358966,48.72285],"type":"Point"},"properties":{"osm_id":"8511234323","tag":{"amenity":"waste_basket"}},"type":"Feature"},
	{"geometry":{"coordinates":[8.360144,48.721713],"type":"Point"},"properties":{"osm_id":"8696530740","tag":{"amenity":"waste_basket"}},"type":"Feature"},
	{"geometry":{"coordinates":[8.355448,48.715356],"type":"Point"},"properties":{"osm_id":"8696530787","tag":{"amenity":"waste_basket"}},"type":"Feature"},
	{"geometry":{"coordinates":[8.368079,48.701601],"type":"Point"},"properties":{"osm_id":"9038429840","tag":{"amenity":"waste_disposal","waste":"dog_excrement"}},"type":"Feature"}
]
}
