{
"type": "FeatureCollection",
"features": [
	{"geometry":{"coordinates":[8.403784,48.471345],"type":"Point"},"properties":{"osm_id":"268316258","tag":{"amenity":"recycling","recycling:clothes":"yes","recycling:glass":"yes","recycling:paper":"yes","recycling_type":"container"}},"type":"Feature"},
	{"geometry":{"coordinates":[8.404894,48.463005],"type":"Point"},"properties":{"osm_id":"311986774","tag":{"amenity":"recycling","recycling_type":"container"}},"type":"Feature"},
	{"geometry":{"coordinates":[8.413378,48.470563],"type":"Point"},"properties":{"osm_id":"931664161","tag":{"amenity":"recycling","recycling:cans":"no","recycling:clothes":"yes","recycling:glass":"yes","recycling:paper":"yes","recycling:scrap_metal":"no","recycling_type":"container"}},"type":"Feature"},
	{"geometry":{"coordinates":[8.408122,48.47117],"type":"Point"},"properties":{"osm_id":"931664167","tag":{"amenity":"recycling","recycling:glass_bottles":"yes","recycling:paper":"yes","recycling_type":"container"}},"type":"Feature"},
	{"geometry":{"coordinates":[8.413469,48.467488],"type":"Point"},"properties":{"osm_id":"1275849704","tag":{"amenity":"recycling","recycling:glass":"yes","recycling:paper":"yes","recycling_type":"container"}},"type":"Feature"},
	{"geometry":{"coordinates":[8.403569,48.476362],"type":"Point"},"properties":{"osm_id":"1365293639","tag":{"amenity":"recycling","recycling_type":"container"}},"type":"Feature"},
	{"geometry":{"coordinates":[8.426111,48.460078],"type":"Point"},"properties":{"osm_id":"1390956811","tag":{"amenity":"recycling","emergency":"fire_hydrant","fire_hydrant:type":"pillar","recycling_type":"container"}},"type":"Feature"},
	{"geometry":{"coordinates":[8.40925,48.46751],"type":"Point"},"properties":{"osm_id":"1774814335","tag":{"amenity":"recycling","recycling:cans":"no","recycling:clothes":"no","recycling:glass":"yes","recycling:paper":"yes","recycling:scrap_metal":"no","recycling_type":"container"}},"type":"Feature"},
	{"geometry":{"coordinates":[8.371413,48.504392],"type":"Point"},"properties":{"osm_id":"1809924948","tag":{"amenity":"recycling","recycling:glass":"yes","recycling:paper":"yes","recycling_type":"container"}},"type":"Feature"},
	{"geometry":{"coordinates":[8.402952,48.477021],"type":"Point"},"properties":{"osm_id":"1871445956","tag":{"amenity":"recycling","recycling:glass":"yes","recycling:paper":"yes","recycling_type":"container"}},"type":"Feature"},
	{"geometry":{"coordinates":[8.405085,48.460557],"type":"Point"},"properties":{"osm_id":"1906793370","tag":{"amenity":"recycling","recycling:glass":"yes","recycling:paper":"yes","recycling_type":"container"}},"type":"Feature"},
	{"geometry":{"coordinates":[8.421192,48.461872],"type":"Point"},"properties":{"osm_id":"2346599910","tag":{"amenity":"recycling","recycling:glass_bottles":"yes","recycling:paper":"yes","recycling_type":"container"}},"type":"Feature"},
	{"geometry":{"coordinates":[8.396404,48.47759],"type":"Point"},"properties":{"osm_id":"2499759079","tag":{"amenity":"waste_basket"}},"type":"Feature"},
	{"geometry":{"coordinates":[8.420907,48.46783],"type":"Point"},"properties":{"osm_id":"2593910906","tag":{"amenity":"waste_basket"}},"type":"Feature"},
	{"geometry":{"coordinates":[8.416015,48.471463],"type":"Point"},"properties":{"osm_id":"2593911197","tag":{"amenity":"waste_basket"}},"type":"Feature"},
	{"geometry":{"coordinates":[8.416184,48.471524],"type":"Point"},"properties":{"osm_id":"2593911199","tag":{"amenity":"waste_basket"}},"type":"Feature"},
	{"geometry":{"coordinates":[8.416198,48.471549],"type":"Point"},"properties":{"osm_id":"2593911201","tag":{"amenity":"waste_basket"}},"type":"Feature"},
	{"geometry":{"coordinates":[8.404212,48.470353],"type":"Point"},"properties":{"osm_id":"2805527797","tag":{"amenity":"waste_basket"}},"type":"Feature"},
	{"geometry":{"coordinates":[8.413544,48.474787],"type":"Point"},"properties":{"osm_id":"2805532822","tag":{"amenity":"waste_basket"}},"type":"Feature"},
	{"geometry":{"coordinates":[8.433675,48.460785],"type":"Point"},"properties":{"osm_id":"3151672265","tag":{"amenity":"recycling","recycling:cans":"yes","recycling:glass":"yes","recycling:paper":"yes","recycling_type":"container"}},"type":"Feature"},
	{"geometry":{"coordinates":[8.410397,48.463743],"type":"Point"},"properties":{"osm_id":"3151672266","tag":{"amenity":"waste_basket"}},"type":"Feature"},
	{"geometry":{"coordinates":[8.420025,48.464979],"type":"Point"},"properties":{"osm_id":"4391804264","tag":{"amenity":"recycling","opening_hours":"mo-sa 08:00-19:00","operator":"Remondis","recycling:cans":"no","recycling:clothes":"yes","recycling:glass":"yes","recycling:glass_bottles":"yes","recycling:paper":"yes","recycling_type":"container","wheelchair":"yes"}},"type":"Feature"},
	{"geometry":{"coordinates":[8.408401,48.46622],"type":"Point"},"properties":{"osm_id":"4799715844","tag":{"amenity":"recycling","opening_hours":"24/7","operator":"Deutsches Rotes Kreuz","recycling:clothes":"yes","recycling_type":"container","website":"https://www.drk.de/"}},"type":"Feature"},
	{"geometry":{"coordinates":[8.408038,48.466883],"type":"Point"},"properties":{"osm_id":"4799715845","tag":{"amenity":"recycling","opening_hours":"24/7","operator":"Deutsches Rotes Kreuz","recycling:clothes":"yes","recycling_type":"container","website":"https://www.drk.de/"}},"type":"Feature"},
	{"geometry":{"coordinates":[8.373765,48.458558],"type":"Point"},"properties":{"osm_id":"5527599895","tag":{"amenity":"waste_disposal"}},"type":"Feature"},
	{"geometry":{"coordinates":[8.373737,48.458562],"type":"Point"},"properties":{"osm_id":"5527599896","tag":{"amenity":"recycling","recycling_type":"container"}},"type":"Feature"},
	{"geometry":{"coordinates":[8.371944,48.510515],"type":"Point"},"properties":{"osm_id":"5881955895","tag":{"amenity":"recycling","capacity":"1","lastcheck":"2018-09-04","recycling:clothes":"yes","recycling_type":"container"}},"type":"Feature"},
	{"geometry":{"coordinates":[8.416221,48.465036],"type":"Point"},"properties":{"osm_id":"6002664435","tag":{"amenity":"recycling","recycling:cans":"no","recycling:cardboard":"yes","recycling:glass":"yes","recycling:glass_bottles":"yes","recycling:paper":"yes","recycling_type":"container"}},"type":"Feature"},
	{"geometry":{"coordinates":[8.368487,48.51206],"type":"Point"},"properties":{"osm_id":"7255943593","tag":{"amenity":"waste_basket"}},"type":"Feature"},
	{"geometry":{"coordinates":[8.372101,48.503469],"type":"Point"},"properties":{"osm_id":"7900038634","tag":{"amenity":"waste_basket","waste":"trash"}},"type":"Feature"},
	{"geometry":{"coordinates":[8.372244,48.503937],"type":"Point"},"properties":{"osm_id":"7900038648","tag":{"amenity":"waste_basket","waste":"trash"}},"type":"Feature"},
	{"geometry":{"coordinates":[8.372182,48.504134],"type":"Point"},"properties":{"osm_id":"7900038649","tag":{"amenity":"waste_basket","waste":"trash"}},"type":"Feature"},
	{"geometry":{"coordinates":[8.37591,48.51062],"type":"Point"},"properties":{"osm_id":"7900103714","tag":{"amenity":"waste_basket","waste":"trash"}},"type":"Feature"}
]
}
