{
"type": "FeatureCollection",
"features": [
	{"geometry":{"coordinates":[8.408035,48.395719],"type":"Point"},"properties":{"osm_id":"321381849","tag":{"amenity":"recycling","recycling:glass":"yes","recycling:paper":"yes"}},"type":"Feature"},
	{"geometry":{"coordinates":[8.411597,48.346289],"type":"Point"},"properties":{"osm_id":"592435342","tag":{"amenity":"recycling","recycling:glass":"yes","recycling:paper":"yes"}},"type":"Feature"},
	{"geometry":{"coordinates":[8.396867,48.342762],"type":"Point"},"properties":{"osm_id":"6173546214","tag":{"amenity":"recycling","recycling_type":"container"}},"type":"Feature"},
	{"geometry":{"coordinates":[8.401334,48.343941],"type":"Point"},"properties":{"osm_id":"6740285261","tag":{"amenity":"waste_basket","waste":"trash"}},"type":"Feature"},
	{"geometry":{"coordinates":[8.401778,48.343234],"type":"Point"},"properties":{"osm_id":"7792725880","tag":{"amenity":"waste_disposal","waste":"garden_waste"}},"type":"Feature"},
	{"geometry":{"coordinates":[8.402816,48.343634],"type":"Point"},"properties":{"osm_id":"7792761212","tag":{"amenity":"waste_disposal","waste":"garden_waste"}},"type":"Feature"},
	{"geometry":{"coordinates":[8.401563,48.343804],"type":"Point"},"properties":{"osm_id":"7818271977","tag":{"amenity":"waste_disposal","waste":"garden_waste"}},"type":"Feature"},
	{"geometry":{"coordinates":[8.404806,48.346101],"type":"Point"},"properties":{"osm_id":"7818298809","tag":{"amenity":"waste_basket"}},"type":"Feature"},
	{"geometry":{"coordinates":[8.405659,48.345235],"type":"Point"},"properties":{"osm_id":"7818298825","tag":{"amenity":"waste_basket"}},"type":"Feature"}
]
}
