{
"type": "FeatureCollection",
"features": [
	{"geometry":{"coordinates":[8.361781,47.426242],"type":"Point"},"properties":{"osm_id":"289891456","tag":{"amenity":"recycling","recycling:clothes":"yes","recycling:glass":"yes","recycling_type":"container"}},"type":"Feature"},
	{"geometry":{"coordinates":[8.405116,47.406686],"type":"Point"},"properties":{"osm_id":"428299273","tag":{"amenity":"recycling","opening_hours":"Mo-Sa 07:00-18:30;PH closed","recycling:cans":"yes","recycling:glass_bottles":"yes","recycling_type":"centre"}},"type":"Feature"},
	{"geometry":{"coordinates":[8.3981,47.401963],"type":"Point"},"properties":{"name":"Hauptsammelstelle Zelgli","osm_id":"429190789","tag":{"amenity":"recycling","opening_hours":"Mo,We-Th 13:15-17:00;Tu 08:00-12:00,13:15-17:00;Sa 08:00-16:00;PH closed","recycling:cans":"yes","recycling:cardboard":"yes","recycling:clothes":"yes","recycling:coffee_capsules":"yes","recycling:cooking_oil":"yes","recycling:glass_bottles":"yes","recycling_type":"container","wheelchair":"limited"}},"type":"Feature"},
	{"geometry":{"coordinates":[8.403816,47.40634],"type":"Point"},"properties":{"osm_id":"429222182","tag":{"amenity":"recycling","location":"overground","recycling:clothes":"yes","recycling_type":"container"}},"type":"Feature"},
	{"geometry":{"coordinates":[8.392419,47.400846],"type":"Point"},"properties":{"osm_id":"1617097174","tag":{"amenity":"recycling","opening_hours":"Mo-Sa 07:00-18:30; PH closed","recycling:aluminium":"yes","recycling:batteries":"no","recycling:cans":"yes","recycling:clothes":"yes","recycling:glass_bottles":"yes","recycling:paper":"no","recycling:scrap_metal":"no","recycling_type":"container","wheelchair":"yes"}},"type":"Feature"},
	{"geometry":{"coordinates":[8.390528,47.405606],"type":"Point"},"properties":{"osm_id":"1682949168","tag":{"amenity":"recycling","opening_hours":"Mo-Sa 07:00-18:30; PH closed","recycling:cans":"yes","recycling:clothes":"yes","recycling:glass_bottles":"yes","recycling_type":"container","wheelchair":"limited"}},"type":"Feature"},
	{"geometry":{"coordinates":[8.399367,47.404357],"type":"Point"},"properties":{"osm_id":"1920521793","tag":{"amenity":"waste_basket"}},"type":"Feature"},
	{"geometry":{"coordinates":[8.357896,47.445566],"type":"Point"},"properties":{"osm_id":"1941253067","tag":{"amenity":"recycling","recycling_type":"container"}},"type":"Feature"},
	{"geometry":{"coordinates":[8.402562,47.405216],"type":"Point"},"properties":{"osm_id":"2261794017","tag":{"amenity":"waste_basket"}},"type":"Feature"},
	{"geometry":{"coordinates":[8.405272,47.404423],"type":"Point"},"properties":{"osm_id":"2697713829","tag":{"amenity":"waste_basket"}},"type":"Feature"},
	{"geometry":{"coordinates":[8.401752,47.403355],"type":"Point"},"properties":{"osm_id":"2796403108","tag":{"amenity":"waste_basket"}},"type":"Feature"},
	{"geometry":{"coordinates":[8.402578,47.404412],"type":"Point"},"properties":{"osm_id":"2796403115","tag":{"amenity":"waste_basket"}},"type":"Feature"},
	{"geometry":{"coordinates":[8.366951,47.426121],"type":"Point"},"properties":{"osm_id":"2816090744","tag":{"amenity":"waste_basket"}},"type":"Feature"},
	{"geometry":{"coordinates":[8.367253,47.426131],"type":"Point"},"properties":{"osm_id":"2816090745","tag":{"amenity":"waste_basket"}},"type":"Feature"},
	{"geometry":{"coordinates":[8.372984,47.424698],"type":"Point"},"properties":{"osm_id":"2920361473","tag":{"amenity":"waste_basket"}},"type":"Feature"},
	{"geometry":{"coordinates":[8.3978,47.409004],"type":"Point"},"properties":{"osm_id":"2959892370","tag":{"amenity":"waste_basket"}},"type":"Feature"},
	{"geometry":{"coordinates":[8.397721,47.409012],"type":"Point"},"properties":{"osm_id":"2959892556","tag":{"amenity":"waste_basket"}},"type":"Feature"},
	{"geometry":{"coordinates":[8.414212,47.411838],"type":"Point"},"properties":{"osm_id":"3067413558","tag":{"amenity":"waste_basket"}},"type":"Feature"},
	{"geometry":{"coordinates":[8.418833,47.420955],"type":"Point"},"properties":{"osm_id":"3089197268","tag":{"amenity":"waste_basket"}},"type":"Feature"},
	{"geometry":{"coordinates":[8.367388,47.421148],"type":"Point"},"properties":{"osm_id":"3141872330","tag":{"amenity":"waste_basket"}},"type":"Feature"},
	{"geometry":{"coordinates":[8.435297,47.420953],"type":"Point"},"properties":{"name":"Abfall-Sammelstelle Weiningen","osm_id":"3153335709","tag":{"addr:city":"Weiningen (ZH)","addr:housenumber":"8","addr:postcode":"8104","addr:street":"Bachstrasse","amenity":"recycling","operator":"Gemeinde Weiningen","recycling:cans":"yes","recycling:clothes":"yes","recycling:glass":"yes","recycling:paper":"no","website":"http://www.weiningen.ch/de/verwaltung/abfall/abfallorte/?action=show&object_id=329"}},"type":"Feature"},
	{"geometry":{"coordinates":[8.365844,47.417956],"type":"Point"},"properties":{"osm_id":"3198477461","tag":{"amenity":"waste_basket"}},"type":"Feature"},
	{"geometry":{"coordinates":[8.367498,47.398837],"type":"Point"},"properties":{"osm_id":"3210802363","tag":{"amenity":"waste_basket"}},"type":"Feature"},
	{"geometry":{"coordinates":[8.370217,47.416867],"type":"Point"},"properties":{"osm_id":"3343944993","tag":{"amenity":"waste_basket"}},"type":"Feature"},
	{"geometry":{"coordinates":[8.371631,47.41601],"type":"Point"},"properties":{"osm_id":"3343945093","tag":{"amenity":"recycling","recycling:batteries":"no","recycling:cans":"yes","recycling:clothes":"yes","recycling:glass_bottles":"yes","recycling:paper":"no","recycling:scrap_metal":"no","recycling_type":"container"}},"type":"Feature"},
	{"geometry":{"coordinates":[8.387239,47.408086],"type":"Point"},"properties":{"osm_id":"3347941502","tag":{"amenity":"waste_basket"}},"type":"Feature"},
	{"geometry":{"coordinates":[8.394865,47.399255],"type":"Point"},"properties":{"osm_id":"3352087593","tag":{"amenity":"waste_basket"}},"type":"Feature"},
	{"geometry":{"coordinates":[8.403691,47.407639],"type":"Point"},"properties":{"osm_id":"3359446293","tag":{"amenity":"waste_basket"}},"type":"Feature"},
	{"geometry":{"coordinates":[8.404145,47.407251],"type":"Point"},"properties":{"osm_id":"3359446493","tag":{"amenity":"waste_basket"}},"type":"Feature"},
	{"geometry":{"coordinates":[8.35544,47.433678],"type":"Point"},"properties":{"osm_id":"3484266280","tag":{"amenity":"recycling","recycling:clothes":"yes","recycling:glass":"no","recycling_type":"container"}},"type":"Feature"},
	{"geometry":{"coordinates":[8.355339,47.434177],"type":"Point"},"properties":{"osm_id":"3484266281","tag":{"amenity":"recycling","recycling:glass":"yes","recycling_type":"container"}},"type":"Feature"},
	{"geometry":{"coordinates":[8.422616,47.412703],"type":"Point"},"properties":{"name":"Gemeindesammelstelle","osm_id":"3497704037","tag":{"addr:city":"Weiningen (ZH)","addr:postcode":"8104","addr:street":"Niederholzstrasse","amenity":"recycling","operator":"Gemeinde Weiningen","recycling:cans":"no","recycling:clothes":"no","recycling:glass":"no","recycling:paper":"no"}},"type":"Feature"},
	{"geometry":{"coordinates":[8.404095,47.418148],"type":"Point"},"properties":{"osm_id":"3710300630","tag":{"amenity":"waste_basket"}},"type":"Feature"},
	{"geometry":{"coordinates":[8.394187,47.429132],"type":"Point"},"properties":{"osm_id":"3808699457","tag":{"amenity":"recycling","recycling:glass_bottles":"yes","recycling_type":"container"}},"type":"Feature"},
	{"geometry":{"coordinates":[8.391703,47.42722],"type":"Point"},"properties":{"osm_id":"3815596376","tag":{"amenity":"waste_basket"}},"type":"Feature"},
	{"geometry":{"coordinates":[8.389421,47.428289],"type":"Point"},"properties":{"osm_id":"3815596470","tag":{"amenity":"waste_basket"}},"type":"Feature"},
	{"geometry":{"coordinates":[8.388781,47.428336],"type":"Point"},"properties":{"osm_id":"3815604964","tag":{"amenity":"waste_basket"}},"type":"Feature"},
	{"geometry":{"coordinates":[8.390076,47.428071],"type":"Point"},"properties":{"osm_id":"3815615457","tag":{"amenity":"waste_basket"}},"type":"Feature"},
	{"geometry":{"coordinates":[8.400776,47.423739],"type":"Point"},"properties":{"osm_id":"3817363082","tag":{"amenity":"waste_basket"}},"type":"Feature"},
	{"geometry":{"coordinates":[8.394061,47.426735],"type":"Point"},"properties":{"osm_id":"3817363084","tag":{"amenity":"waste_basket"}},"type":"Feature"},
	{"geometry":{"coordinates":[8.393388,47.427975],"type":"Point"},"properties":{"osm_id":"3817409557","tag":{"amenity":"recycling","recycling:clothes":"yes","recycling:glass_bottles":"yes","recycling_type":"container"}},"type":"Feature"},
	{"geometry":{"coordinates":[8.371955,47.432136],"type":"Point"},"properties":{"name":"Entsorgungspark","osm_id":"3912352188","tag":{"addr:housenumber":"7","addr:street":"Kesselstrasse","amenity":"recycling","recycling:cans":"yes","recycling:clothes":"yes","recycling:glass":"yes","recycling:glass_bottles":"yes","recycling:paper":"yes","recycling:plastic":"yes","website":"http://www.daetwiler.com/unsere-dienstleistungen/entsorgungsparks/#scroll=Adresse/tab=spreitenbach"}},"type":"Feature"},
	{"geometry":{"coordinates":[8.434369,47.419538],"type":"Point"},"properties":{"osm_id":"3955208763","tag":{"amenity":"waste_basket"}},"type":"Feature"},
	{"geometry":{"coordinates":[8.362972,47.421328],"type":"Point"},"properties":{"osm_id":"4109512795","tag":{"amenity":"waste_basket"}},"type":"Feature"},
	{"geometry":{"coordinates":[8.353451,47.433437],"type":"Point"},"properties":{"osm_id":"4183899765","tag":{"amenity":"recycling","recycling:clothes":"yes","recycling_type":"container"}},"type":"Feature"},
	{"geometry":{"coordinates":[8.361139,47.421553],"type":"Point"},"properties":{"osm_id":"4208763792","tag":{"amenity":"recycling","recycling:cans":"yes","recycling:clothes":"yes","recycling:glass_bottles":"yes","recycling_type":"container"}},"type":"Feature"},
	{"geometry":{"coordinates":[8.351557,47.39954],"type":"Point"},"properties":{"osm_id":"4215311390","tag":{"amenity":"waste_basket"}},"type":"Feature"},
	{"geometry":{"coordinates":[8.408802,47.40143],"type":"Point"},"properties":{"osm_id":"4268613684","tag":{"amenity":"waste_basket"}},"type":"Feature"},
	{"geometry":{"coordinates":[8.359631,47.40262],"type":"Point"},"properties":{"osm_id":"4392222793","tag":{"amenity":"waste_basket"}},"type":"Feature"},
	{"geometry":{"coordinates":[8.360579,47.399604],"type":"Point"},"properties":{"osm_id":"4392646157","tag":{"amenity":"waste_basket"}},"type":"Feature"},
	{"geometry":{"coordinates":[8.360269,47.40102],"type":"Point"},"properties":{"osm_id":"4392646165","tag":{"amenity":"waste_basket"}},"type":"Feature"},
	{"geometry":{"coordinates":[8.357064,47.427734],"type":"Point"},"properties":{"osm_id":"4684987640","tag":{"amenity":"recycling","recycling:aluminium":"yes","recycling:cans":"yes","recycling:clothes":"yes","recycling:glass_bottles":"yes","recycling_type":"container"}},"type":"Feature"},
	{"geometry":{"coordinates":[8.405779,47.403139],"type":"Point"},"properties":{"osm_id":"5039341222","tag":{"amenity":"recycling","recycling:PET":"yes","recycling:plastic_bottles":"yes","recycling_type":"container"}},"type":"Feature"},
	{"geometry":{"coordinates":[8.403088,47.410128],"type":"Point"},"properties":{"osm_id":"5051463171","tag":{"amenity":"recycling","opening_hours":"Mo-Sa 07:00-18:30;PH closed","recycling:cans":"yes","recycling:glass_bottles":"yes","recycling_type":"container","wheelchair":"yes"}},"type":"Feature"},
	{"geometry":{"coordinates":[8.395832,47.4202],"type":"Point"},"properties":{"name":"Labdoo Annahmestelle f\u00c3\u00bcr Laptops","osm_id":"6543296232","tag":{"addr:city":"Dietikon","addr:housenumber":"14","addr:postcode":"8953","addr:street":"Riedstrasse","amenity":"recycling","brand":"Labdoo","charity":"yes","description":"Zu Gesch\u00c3\u00a4ftszeiten k\u00c3\u00b6nnen Laptops unter dem Hinweis auf Labdoo und Christoph Borner deponiert werden. Direkte Kontaktaufnahme auch via eigens aufgeschalteter Webseite: http://www.computacenter.ch/labdoo","location":"indoor","operator":"Computacenter AG","recycling:computers":"yes","recycling:mobile_phones":"yes","service_times":"Mo-Fr 08:00-12:00,13:00-17:00","website":"https://www.computacenter.ch/labdoo"}},"type":"Feature"},
	{"geometry":{"coordinates":[8.37354,47.423409],"type":"Point"},"properties":{"osm_id":"6564856098","tag":{"amenity":"waste_basket"}},"type":"Feature"},
	{"geometry":{"coordinates":[8.372297,47.423977],"type":"Point"},"properties":{"osm_id":"6564864988","tag":{"amenity":"waste_basket"}},"type":"Feature"},
	{"geometry":{"coordinates":[8.405889,47.445757],"type":"Point"},"properties":{"osm_id":"6780897622","tag":{"amenity":"waste_basket","waste":"trash"}},"type":"Feature"},
	{"geometry":{"coordinates":[8.41964,47.399732],"type":"Point"},"properties":{"osm_id":"6894724959","tag":{"amenity":"waste_basket"}},"type":"Feature"},
	{"geometry":{"coordinates":[8.419357,47.399836],"type":"Point"},"properties":{"osm_id":"6894724960","tag":{"amenity":"waste_basket"}},"type":"Feature"},
	{"geometry":{"coordinates":[8.418994,47.399745],"type":"Point"},"properties":{"osm_id":"6894724962","tag":{"amenity":"waste_basket"}},"type":"Feature"},
	{"geometry":{"coordinates":[8.419273,47.399227],"type":"Point"},"properties":{"osm_id":"7049248537","tag":{"amenity":"waste_basket"}},"type":"Feature"},
	{"geometry":{"coordinates":[8.363864,47.417773],"type":"Point"},"properties":{"osm_id":"7398245447","tag":{"amenity":"waste_basket","waste":"trash"}},"type":"Feature"},
	{"geometry":{"coordinates":[8.378902,47.406959],"type":"Point"},"properties":{"osm_id":"7426432991","tag":{"amenity":"waste_basket","waste":"trash"}},"type":"Feature"},
	{"geometry":{"coordinates":[8.39409,47.398998],"type":"Point"},"properties":{"osm_id":"7476249281","tag":{"amenity":"waste_basket","waste":"trash"}},"type":"Feature"},
	{"geometry":{"coordinates":[8.395819,47.399587],"type":"Point"},"properties":{"osm_id":"7476259305","tag":{"amenity":"waste_basket","waste":"trash"}},"type":"Feature"},
	{"geometry":{"coordinates":[8.387942,47.405245],"type":"Point"},"properties":{"osm_id":"7511431248","tag":{"amenity":"waste_basket","waste":"trash"}},"type":"Feature"},
	{"geometry":{"coordinates":[8.393719,47.399609],"type":"Point"},"properties":{"osm_id":"7511431268","tag":{"amenity":"waste_basket","waste":"trash"}},"type":"Feature"},
	{"geometry":{"coordinates":[8.394146,47.39994],"type":"Point"},"properties":{"osm_id":"7511431275","tag":{"amenity":"waste_basket","waste":"trash"}},"type":"Feature"},
	{"geometry":{"coordinates":[8.386659,47.406121],"type":"Point"},"properties":{"osm_id":"7511431276","tag":{"amenity":"waste_basket","waste":"trash"}},"type":"Feature"},
	{"geometry":{"coordinates":[8.36857,47.420036],"type":"Point"},"properties":{"osm_id":"7553461605","tag":{"amenity":"recycling","recycling_type":"centre"}},"type":"Feature"},
	{"geometry":{"coordinates":[8.387312,47.401973],"type":"Point"},"properties":{"osm_id":"7606307050","tag":{"amenity":"waste_basket","waste":"cigarettes;waste;dog_excrement"}},"type":"Feature"},
	{"geometry":{"coordinates":[8.421045,47.4005],"type":"Point"},"properties":{"osm_id":"7872923692","tag":{"amenity":"waste_basket","layer":"-1","waste":"trash"}},"type":"Feature"},
	{"geometry":{"coordinates":[8.405272,47.406529],"type":"Point"},"properties":{"osm_id":"7917815766","tag":{"addr:street":"Bahnstrasse","amenity":"waste_basket"}},"type":"Feature"}
]
}
