{
"type": "FeatureCollection",
"features": [
	{"geometry":{"coordinates":[8.432794,47.057457],"type":"Point"},"properties":{"osm_id":"1789840183","tag":{"amenity":"recycling","recycling:batteries":"yes","recycling:cans":"yes","recycling:clothes":"yes","recycling:glass":"yes","recycling_type":"container"}},"type":"Feature"},
	{"geometry":{"coordinates":[8.417572,47.040753],"type":"Point"},"properties":{"name":"\u00c3\u0096kihof R\u00c3\u00b6hrli","osm_id":"3203015886","tag":{"addr:city":"Weggis","addr:postcode":"6353","addr:street":"R\u00f6hrlistrasse","amenity":"recycling","operator":"Gemeinde Weggis / REAL","recycling:cans":"yes","recycling:clothes":"yes","recycling:glass":"yes","recycling:paper":"yes","website":"http://www.gemeinde-weggis.ch"}},"type":"Feature"},
	{"geometry":{"coordinates":[8.367748,47.044897],"type":"Point"},"properties":{"osm_id":"3530228794","tag":{"amenity":"recycling","recycling:cans":"no","recycling:clothes":"yes","recycling:glass":"yes","recycling:paper":"no"}},"type":"Feature"},
	{"geometry":{"coordinates":[8.373211,47.042799],"type":"Point"},"properties":{"osm_id":"3530356707","tag":{"amenity":"recycling","recycling:glass_bottles":"yes","recycling_type":"container"}},"type":"Feature"},
	{"geometry":{"coordinates":[8.430152,47.07873],"type":"Point"},"properties":{"osm_id":"3740981806","tag":{"amenity":"waste_basket"}},"type":"Feature"},
	{"geometry":{"coordinates":[8.430426,47.078754],"type":"Point"},"properties":{"osm_id":"3740981814","tag":{"amenity":"waste_basket"}},"type":"Feature"},
	{"geometry":{"coordinates":[8.435009,47.077162],"type":"Point"},"properties":{"osm_id":"4562515094","tag":{"amenity":"waste_basket"}},"type":"Feature"},
	{"geometry":{"coordinates":[8.435153,47.077012],"type":"Point"},"properties":{"osm_id":"4562515097","tag":{"amenity":"waste_basket"}},"type":"Feature"},
	{"geometry":{"coordinates":[8.35045,47.066187],"type":"Point"},"properties":{"osm_id":"4680287489","tag":{"amenity":"waste_basket"}},"type":"Feature"},
	{"geometry":{"coordinates":[8.350814,47.068288],"type":"Point"},"properties":{"osm_id":"4680308189","tag":{"amenity":"waste_basket"}},"type":"Feature"},
	{"geometry":{"coordinates":[8.356161,47.097972],"type":"Point"},"properties":{"osm_id":"5923995391","tag":{"amenity":"waste_basket"}},"type":"Feature"},
	{"geometry":{"coordinates":[8.350463,47.09554],"type":"Point"},"properties":{"osm_id":"5924003985","tag":{"amenity":"waste_basket"}},"type":"Feature"},
	{"geometry":{"coordinates":[8.354436,47.096919],"type":"Point"},"properties":{"osm_id":"5924009885","tag":{"amenity":"waste_basket"}},"type":"Feature"},
	{"geometry":{"coordinates":[8.357999,47.09513],"type":"Point"},"properties":{"osm_id":"5940417789","tag":{"amenity":"waste_basket"}},"type":"Feature"},
	{"geometry":{"coordinates":[8.354646,47.093301],"type":"Point"},"properties":{"osm_id":"5940432385","tag":{"amenity":"waste_basket"}},"type":"Feature"},
	{"geometry":{"coordinates":[8.367936,47.095047],"type":"Point"},"properties":{"osm_id":"5940444987","tag":{"amenity":"waste_basket"}},"type":"Feature"},
	{"geometry":{"coordinates":[8.350251,47.080966],"type":"Point"},"properties":{"osm_id":"5982854488","tag":{"amenity":"waste_basket"}},"type":"Feature"},
	{"geometry":{"coordinates":[8.354182,47.082067],"type":"Point"},"properties":{"osm_id":"5982872487","tag":{"amenity":"waste_basket"}},"type":"Feature"},
	{"geometry":{"coordinates":[8.356925,47.084302],"type":"Point"},"properties":{"osm_id":"5982872894","tag":{"amenity":"waste_basket"}},"type":"Feature"},
	{"geometry":{"coordinates":[8.434892,47.08462],"type":"Point"},"properties":{"osm_id":"6466432332","tag":{"amenity":"recycling","recycling:cans":"yes","recycling:glass":"yes","recycling_type":"container"}},"type":"Feature"},
	{"geometry":{"coordinates":[8.350973,47.08484],"type":"Point"},"properties":{"osm_id":"7109246688","tag":{"amenity":"waste_basket"}},"type":"Feature"},
	{"geometry":{"coordinates":[8.353356,47.087031],"type":"Point"},"properties":{"osm_id":"7109261986","tag":{"amenity":"recycling"}},"type":"Feature"},
	{"geometry":{"coordinates":[8.3532,47.086274],"type":"Point"},"properties":{"osm_id":"7109262885","tag":{"amenity":"waste_basket"}},"type":"Feature"},
	{"geometry":{"coordinates":[8.368908,47.097242],"type":"Point"},"properties":{"osm_id":"7109323585","tag":{"amenity":"recycling"}},"type":"Feature"},
	{"geometry":{"coordinates":[8.373086,47.098785],"type":"Point"},"properties":{"osm_id":"7109330785","tag":{"amenity":"waste_basket"}},"type":"Feature"},
	{"geometry":{"coordinates":[8.382465,47.063254],"type":"Point"},"properties":{"osm_id":"7301604454","tag":{"amenity":"waste_basket"}},"type":"Feature"},
	{"geometry":{"coordinates":[8.377272,47.06156],"type":"Point"},"properties":{"osm_id":"7301604480","tag":{"amenity":"waste_basket"}},"type":"Feature"},
	{"geometry":{"coordinates":[8.357509,47.062657],"type":"Point"},"properties":{"osm_id":"7597927575","tag":{"amenity":"waste_basket","waste":"dog_excrement"}},"type":"Feature"},
	{"geometry":{"coordinates":[8.356086,47.053617],"type":"Point"},"properties":{"osm_id":"7820150957","tag":{"amenity":"waste_basket"}},"type":"Feature"}
]
}
