{
"type": "FeatureCollection",
"features": [
	{"geometry":{"coordinates":[8.39465,46.909947],"type":"Point"},"properties":{"name":"Altsmaterialsammelstelle Wolfenschiessen","osm_id":"1853993456","tag":{"addr:city":"Wolfenschiessen","addr:housenumber":"5","addr:postcode":"6386","addr:street":"Gewerbe an der Aa","amenity":"recycling","recycling:cans":"yes","recycling:glass":"yes","recycling:paper":"yes","recycling_type":"centre","website":"https://www.wolfenschiessen.ch/abfallorte/1884"}},"type":"Feature"},
	{"geometry":{"coordinates":[8.367124,46.913994],"type":"Point"},"properties":{"osm_id":"2467291259","tag":{"amenity":"recycling","recycling:glass":"yes","recycling:paper":"yes"}},"type":"Feature"},
	{"geometry":{"coordinates":[8.421279,46.883447],"type":"Point"},"properties":{"osm_id":"3399990183","tag":{"amenity":"waste_basket"}},"type":"Feature"},
	{"geometry":{"coordinates":[8.370517,46.909833],"type":"Point"},"properties":{"osm_id":"8094723188","tag":{"amenity":"waste_basket"}},"type":"Feature"},
	{"geometry":{"coordinates":[8.396844,46.909035],"type":"Point"},"properties":{"osm_id":"8977473210","tag":{"amenity":"waste_basket","waste":"dog_excrement"}},"type":"Feature"}
]
}
