{
"type": "FeatureCollection",
"features": [
	{"geometry":{"coordinates":[8.425891,45.321881],"type":"Point"},"properties":{"osm_id":"2001198262","tag":{"amenity":"recycling","recycling_type":"container"}},"type":"Feature"},
	{"geometry":{"coordinates":[8.434833,45.321295],"type":"Point"},"properties":{"osm_id":"2203502707","tag":{"amenity":"recycling"}},"type":"Feature"},
	{"geometry":{"coordinates":[8.416593,45.329373],"type":"Point"},"properties":{"osm_id":"2373069882","tag":{"amenity":"waste_basket"}},"type":"Feature"},
	{"geometry":{"coordinates":[8.428148,45.319434],"type":"Point"},"properties":{"osm_id":"2412090497","tag":{"amenity":"waste_basket"}},"type":"Feature"},
	{"geometry":{"coordinates":[8.426649,45.320688],"type":"Point"},"properties":{"osm_id":"2412090498","tag":{"amenity":"recycling","recycling:batteries":"yes","recycling:cans":"no","recycling:clothes":"no","recycling:glass":"no","recycling:paper":"no","recycling:scrap_metal":"no","recycling_type":"container"}},"type":"Feature"},
	{"geometry":{"coordinates":[8.422892,45.32114],"type":"Point"},"properties":{"osm_id":"2412090499","tag":{"amenity":"waste_basket"}},"type":"Feature"},
	{"geometry":{"coordinates":[8.422464,45.321257],"type":"Point"},"properties":{"osm_id":"2412090500","tag":{"amenity":"waste_basket"}},"type":"Feature"},
	{"geometry":{"coordinates":[8.42192,45.321381],"type":"Point"},"properties":{"osm_id":"2412090501","tag":{"amenity":"waste_basket"}},"type":"Feature"},
	{"geometry":{"coordinates":[8.42113,45.321559],"type":"Point"},"properties":{"osm_id":"2412090502","tag":{"amenity":"waste_basket"}},"type":"Feature"},
	{"geometry":{"coordinates":[8.420679,45.321645],"type":"Point"},"properties":{"osm_id":"2412090503","tag":{"amenity":"waste_basket"}},"type":"Feature"},
	{"geometry":{"coordinates":[8.419041,45.320634],"type":"Point"},"properties":{"osm_id":"2421266132","tag":{"amenity":"waste_basket"}},"type":"Feature"},
	{"geometry":{"coordinates":[8.419105,45.320685],"type":"Point"},"properties":{"osm_id":"2421266133","tag":{"amenity":"recycling","recycling:batteries":"yes","recycling:cans":"no","recycling:clothes":"no","recycling:glass":"no","recycling:paper":"no","recycling:scrap_metal":"no","recycling_type":"container"}},"type":"Feature"},
	{"geometry":{"coordinates":[8.42039,45.321663],"type":"Point"},"properties":{"osm_id":"2421266134","tag":{"amenity":"waste_basket"}},"type":"Feature"},
	{"geometry":{"coordinates":[8.420468,45.321854],"type":"Point"},"properties":{"osm_id":"2421266135","tag":{"amenity":"waste_basket"}},"type":"Feature"},
	{"geometry":{"coordinates":[8.427389,45.316888],"type":"Point"},"properties":{"osm_id":"2433575832","tag":{"amenity":"waste_basket"}},"type":"Feature"},
	{"geometry":{"coordinates":[8.418189,45.323362],"type":"Point"},"properties":{"osm_id":"2433575851","tag":{"amenity":"waste_basket"}},"type":"Feature"},
	{"geometry":{"coordinates":[8.42208,45.323723],"type":"Point"},"properties":{"osm_id":"2441985199","tag":{"amenity":"waste_basket"}},"type":"Feature"},
	{"geometry":{"coordinates":[8.421768,45.323908],"type":"Point"},"properties":{"osm_id":"2441985212","tag":{"amenity":"waste_basket"}},"type":"Feature"},
	{"geometry":{"coordinates":[8.422847,45.323939],"type":"Point"},"properties":{"osm_id":"2441985222","tag":{"amenity":"waste_basket"}},"type":"Feature"},
	{"geometry":{"coordinates":[8.422087,45.323951],"type":"Point"},"properties":{"osm_id":"2441985224","tag":{"amenity":"waste_basket"}},"type":"Feature"},
	{"geometry":{"coordinates":[8.423089,45.324014],"type":"Point"},"properties":{"osm_id":"2441985228","tag":{"amenity":"waste_basket"}},"type":"Feature"},
	{"geometry":{"coordinates":[8.423275,45.324014],"type":"Point"},"properties":{"osm_id":"2441985231","tag":{"amenity":"waste_basket"}},"type":"Feature"},
	{"geometry":{"coordinates":[8.423376,45.314794],"type":"Point"},"properties":{"osm_id":"2452642952","tag":{"amenity":"waste_basket"}},"type":"Feature"},
	{"geometry":{"coordinates":[8.422341,45.314986],"type":"Point"},"properties":{"osm_id":"2452642954","tag":{"amenity":"waste_basket"}},"type":"Feature"},
	{"geometry":{"coordinates":[8.425436,45.311362],"type":"Point"},"properties":{"osm_id":"2454118271","tag":{"amenity":"waste_basket"}},"type":"Feature"},
	{"geometry":{"coordinates":[8.417752,45.326649],"type":"Point"},"properties":{"osm_id":"2456881376","tag":{"amenity":"waste_basket"}},"type":"Feature"},
	{"geometry":{"coordinates":[8.420785,45.333489],"type":"Point"},"properties":{"osm_id":"2462749424","tag":{"amenity":"recycling","recycling:batteries":"yes","recycling:cans":"no","recycling:clothes":"no","recycling:glass":"no","recycling:paper":"no","recycling:scrap_metal":"no","recycling_type":"container"}},"type":"Feature"},
	{"geometry":{"coordinates":[8.420823,45.333527],"type":"Point"},"properties":{"osm_id":"2462749431","tag":{"amenity":"waste_basket"}},"type":"Feature"},
	{"geometry":{"coordinates":[8.425959,45.327487],"type":"Point"},"properties":{"osm_id":"2500798759","tag":{"amenity":"waste_basket"}},"type":"Feature"},
	{"geometry":{"coordinates":[8.423408,45.325703],"type":"Point"},"properties":{"osm_id":"2544892834","tag":{"amenity":"waste_basket"}},"type":"Feature"},
	{"geometry":{"coordinates":[8.422748,45.325711],"type":"Point"},"properties":{"osm_id":"2544892835","tag":{"amenity":"waste_basket"}},"type":"Feature"},
	{"geometry":{"coordinates":[8.422736,45.326067],"type":"Point"},"properties":{"osm_id":"2544892838","tag":{"amenity":"waste_basket"}},"type":"Feature"},
	{"geometry":{"coordinates":[8.423031,45.326194],"type":"Point"},"properties":{"osm_id":"2544892839","tag":{"amenity":"recycling"}},"type":"Feature"},
	{"geometry":{"coordinates":[8.429726,45.318379],"type":"Point"},"properties":{"osm_id":"2545491123","tag":{"amenity":"recycling"}},"type":"Feature"},
	{"geometry":{"coordinates":[8.427382,45.313309],"type":"Point"},"properties":{"osm_id":"2567857398","tag":{"amenity":"recycling"}},"type":"Feature"},
	{"geometry":{"coordinates":[8.426874,45.31368],"type":"Point"},"properties":{"osm_id":"2567857416","tag":{"amenity":"recycling"}},"type":"Feature"},
	{"geometry":{"coordinates":[8.391637,45.322859],"type":"Point"},"properties":{"osm_id":"2577155111","tag":{"amenity":"waste_basket"}},"type":"Feature"},
	{"geometry":{"coordinates":[8.391653,45.32286],"type":"Point"},"properties":{"osm_id":"2577155112","tag":{"amenity":"recycling","recycling:batteries":"yes","recycling:cans":"no","recycling:clothes":"no","recycling:glass":"no","recycling:paper":"no","recycling:scrap_metal":"no","recycling_type":"container"}},"type":"Feature"},
	{"geometry":{"coordinates":[8.391724,45.322897],"type":"Point"},"properties":{"osm_id":"2577155113","tag":{"amenity":"waste_basket"}},"type":"Feature"},
	{"geometry":{"coordinates":[8.426702,45.313697],"type":"Point"},"properties":{"osm_id":"2581341398","tag":{"access":"private","amenity":"recycling","recycling:organic":"yes"}},"type":"Feature"},
	{"geometry":{"coordinates":[8.418788,45.319655],"type":"Point"},"properties":{"osm_id":"2705374224","tag":{"amenity":"recycling","operator":"Cooperativa Sociale Lavoro e Solidariet\u00c3\u00a0","recycling:clothes":"yes","recycling_type":"container"}},"type":"Feature"},
	{"geometry":{"coordinates":[8.393084,45.320714],"type":"Point"},"properties":{"osm_id":"2705374225","tag":{"amenity":"recycling","operator":"Humana","recycling:clothes":"yes","recycling_type":"container"}},"type":"Feature"},
	{"geometry":{"coordinates":[8.393069,45.320734],"type":"Point"},"properties":{"osm_id":"2705374226","tag":{"amenity":"recycling","operator":"Humana","recycling:clothes":"yes","recycling_type":"container"}},"type":"Feature"},
	{"geometry":{"coordinates":[8.418771,45.319656],"type":"Point"},"properties":{"osm_id":"2727077737","tag":{"amenity":"recycling","operator":"Cooperativa Sociale Lavoro e Solidariet\u00c3\u00a0","recycling:clothes":"yes","recycling_type":"container"}},"type":"Feature"},
	{"geometry":{"coordinates":[8.421218,45.326984],"type":"Point"},"properties":{"osm_id":"2755829231","tag":{"amenity":"recycling","recycling:batteries":"yes","recycling_type":"container"}},"type":"Feature"},
	{"geometry":{"coordinates":[8.434866,45.323607],"type":"Point"},"properties":{"osm_id":"2792222619","tag":{"amenity":"recycling","operator":"Humana","recycling:clothes":"yes","recycling_type":"container"}},"type":"Feature"},
	{"geometry":{"coordinates":[8.415868,45.328738],"type":"Point"},"properties":{"osm_id":"2792222674","tag":{"amenity":"recycling","operator":"Humana","recycling:clothes":"yes","recycling_type":"container"}},"type":"Feature"},
	{"geometry":{"coordinates":[8.399222,45.30501],"type":"Point"},"properties":{"osm_id":"2952261827","tag":{"amenity":"recycling"}},"type":"Feature"},
	{"geometry":{"coordinates":[8.399264,45.305108],"type":"Point"},"properties":{"osm_id":"2952261828","tag":{"amenity":"recycling"}},"type":"Feature"},
	{"geometry":{"coordinates":[8.408154,45.330617],"type":"Point"},"properties":{"osm_id":"2965872353","tag":{"amenity":"recycling"}},"type":"Feature"},
	{"geometry":{"coordinates":[8.401639,45.33507],"type":"Point"},"properties":{"osm_id":"2965872717","tag":{"amenity":"recycling"}},"type":"Feature"},
	{"geometry":{"coordinates":[8.407053,45.332061],"type":"Point"},"properties":{"osm_id":"2968791247","tag":{"amenity":"recycling"}},"type":"Feature"},
	{"geometry":{"coordinates":[8.407483,45.332808],"type":"Point"},"properties":{"osm_id":"2968791329","tag":{"amenity":"recycling"}},"type":"Feature"},
	{"geometry":{"coordinates":[8.406539,45.336428],"type":"Point"},"properties":{"osm_id":"2977979770","tag":{"amenity":"recycling"}},"type":"Feature"},
	{"geometry":{"coordinates":[8.41902,45.329192],"type":"Point"},"properties":{"osm_id":"2985828603","tag":{"amenity":"recycling"}},"type":"Feature"},
	{"geometry":{"coordinates":[8.405463,45.324041],"type":"Point"},"properties":{"osm_id":"2987900175","tag":{"amenity":"recycling"}},"type":"Feature"},
	{"geometry":{"coordinates":[8.405512,45.324584],"type":"Point"},"properties":{"osm_id":"2987900228","tag":{"amenity":"recycling"}},"type":"Feature"},
	{"geometry":{"coordinates":[8.420324,45.326796],"type":"Point"},"properties":{"osm_id":"2989231927","tag":{"amenity":"recycling"}},"type":"Feature"},
	{"geometry":{"coordinates":[8.413187,45.317227],"type":"Point"},"properties":{"osm_id":"3066519963","tag":{"amenity":"waste_basket"}},"type":"Feature"},
	{"geometry":{"coordinates":[8.428162,45.326635],"type":"Point"},"properties":{"osm_id":"3452459502","tag":{"amenity":"waste_basket"}},"type":"Feature"},
	{"geometry":{"coordinates":[8.432891,45.308778],"type":"Point"},"properties":{"osm_id":"4070175193","tag":{"amenity":"recycling"}},"type":"Feature"},
	{"geometry":{"coordinates":[8.427665,45.311548],"type":"Point"},"properties":{"osm_id":"4070175214","tag":{"amenity":"recycling"}},"type":"Feature"},
	{"geometry":{"coordinates":[8.417787,45.327691],"type":"Point"},"properties":{"osm_id":"4543265143","tag":{"amenity":"waste_basket"}},"type":"Feature"},
	{"geometry":{"coordinates":[8.418593,45.327431],"type":"Point"},"properties":{"osm_id":"4543265151","tag":{"amenity":"waste_basket"}},"type":"Feature"},
	{"geometry":{"coordinates":[8.418488,45.327321],"type":"Point"},"properties":{"osm_id":"4543265152","tag":{"amenity":"waste_basket"}},"type":"Feature"},
	{"geometry":{"coordinates":[8.418289,45.327562],"type":"Point"},"properties":{"osm_id":"4543265153","tag":{"amenity":"waste_basket"}},"type":"Feature"},
	{"geometry":{"coordinates":[8.41819,45.327453],"type":"Point"},"properties":{"osm_id":"4543265154","tag":{"amenity":"waste_basket"}},"type":"Feature"},
	{"geometry":{"coordinates":[8.419265,45.327386],"type":"Point"},"properties":{"osm_id":"4544513930","tag":{"amenity":"waste_basket"}},"type":"Feature"},
	{"geometry":{"coordinates":[8.418471,45.327776],"type":"Point"},"properties":{"osm_id":"4544513931","tag":{"amenity":"waste_basket"}},"type":"Feature"},
	{"geometry":{"coordinates":[8.418644,45.32701],"type":"Point"},"properties":{"osm_id":"4549455486","tag":{"amenity":"waste_basket"}},"type":"Feature"},
	{"geometry":{"coordinates":[8.418844,45.327922],"type":"Point"},"properties":{"osm_id":"4549455487","tag":{"amenity":"waste_basket"}},"type":"Feature"},
	{"geometry":{"coordinates":[8.395756,45.324779],"type":"Point"},"properties":{"osm_id":"4565008973","tag":{"amenity":"waste_basket"}},"type":"Feature"},
	{"geometry":{"coordinates":[8.395752,45.325141],"type":"Point"},"properties":{"osm_id":"4565008974","tag":{"amenity":"waste_basket"}},"type":"Feature"},
	{"geometry":{"coordinates":[8.395761,45.325487],"type":"Point"},"properties":{"osm_id":"4565008975","tag":{"amenity":"waste_basket"}},"type":"Feature"},
	{"geometry":{"coordinates":[8.41787,45.323367],"type":"Point"},"properties":{"osm_id":"6192939846","tag":{"amenity":"recycling","recycling:batteries":"yes","recycling:drugs":"yes","recycling_type":"container"}},"type":"Feature"},
	{"geometry":{"coordinates":[8.414664,45.318422],"type":"Point"},"properties":{"name":"Batterie Usate / Farmaci Scaduti","osm_id":"6192939847","tag":{"amenity":"recycling","recycling:batteries":"yes","recycling:drugs":"yes","recycling_type":"container"}},"type":"Feature"},
	{"geometry":{"coordinates":[8.420943,45.321586],"type":"Point"},"properties":{"name":"Batterie Usate / Farmaci Scaduti","osm_id":"6192939848","tag":{"amenity":"recycling","recycling:batteries":"yes","recycling:drugs":"yes","recycling_type":"container"}},"type":"Feature"},
	{"geometry":{"coordinates":[8.427353,45.314009],"type":"Point"},"properties":{"name":"Humana","osm_id":"6192939849","tag":{"amenity":"recycling","recycling:clothes":"yes","recycling_type":"container"}},"type":"Feature"},
	{"geometry":{"coordinates":[8.42388,45.314905],"type":"Point"},"properties":{"name":"Humana","osm_id":"6192939850","tag":{"amenity":"recycling","recycling:clothes":"yes","recycling_type":"container"}},"type":"Feature"},
	{"geometry":{"coordinates":[8.42519,45.31859],"type":"Point"},"properties":{"name":"Batterie Usate / Farmaci Scaduti","osm_id":"6192939851","tag":{"amenity":"recycling","recycling:batteries":"yes","recycling:drugs":"yes","recycling_type":"container"}},"type":"Feature"},
	{"geometry":{"coordinates":[8.423014,45.312892],"type":"Point"},"properties":{"name":"Batterie Usate / Farmaci Scaduti","osm_id":"6195438467","tag":{"amenity":"recycling","recycling:batteries":"yes","recycling:drugs":"yes","recycling_type":"container"}},"type":"Feature"},
	{"geometry":{"coordinates":[8.417365,45.327482],"type":"Point"},"properties":{"osm_id":"6196606434","tag":{"amenity":"recycling","recycling:batteries":"yes","recycling:drugs":"yes","recycling_type":"container"}},"type":"Feature"},
	{"geometry":{"coordinates":[8.417589,45.325911],"type":"Point"},"properties":{"osm_id":"6196606435","tag":{"amenity":"recycling","recycling:batteries":"yes","recycling:drugs":"yes","recycling_type":"container"}},"type":"Feature"},
	{"geometry":{"coordinates":[8.428032,45.327781],"type":"Point"},"properties":{"name":"Batterie Usate / Farmaci Scaduti","osm_id":"6199667411","tag":{"amenity":"recycling","recycling:batteries":"yes","recycling:drugs":"yes","recycling_type":"container"}},"type":"Feature"},
	{"geometry":{"coordinates":[8.419891,45.330219],"type":"Point"},"properties":{"osm_id":"6199667412","tag":{"amenity":"recycling","recycling:batteries":"yes","recycling:drugs":"yes","recycling_type":"container"}},"type":"Feature"},
	{"geometry":{"coordinates":[8.407188,45.334541],"type":"Point"},"properties":{"name":"Batterie Usate / Farmaci Scaduti","osm_id":"6199667413","tag":{"amenity":"recycling","recycling:batteries":"yes","recycling:drugs":"yes","recycling_type":"container"}},"type":"Feature"},
	{"geometry":{"coordinates":[8.422815,45.323944],"type":"Point"},"properties":{"name":"Batterie Usate / Farmaci Scaduti","osm_id":"6210446003","tag":{"amenity":"recycling","recycling:batteries":"yes","recycling:drugs":"yes","recycling_type":"container"}},"type":"Feature"},
	{"geometry":{"coordinates":[8.416404,45.317788],"type":"Point"},"properties":{"name":"Batterie Usate / Farmaci Scaduti","osm_id":"6245417884","tag":{"amenity":"recycling","recycling:batteries":"yes","recycling:drugs":"yes","recycling_type":"container"}},"type":"Feature"},
	{"geometry":{"coordinates":[8.425352,45.311005],"type":"Point"},"properties":{"name":"Batterie Usate / Farmaci Scaduti","osm_id":"6268541285","tag":{"amenity":"recycling","recycling:batteries":"yes","recycling:drugs":"yes","recycling_type":"container"}},"type":"Feature"},
	{"geometry":{"coordinates":[8.415007,45.323031],"type":"Point"},"properties":{"name":"Batterie Usate / Farmaci Scaduti","osm_id":"6333016539","tag":{"amenity":"recycling","recycling:batteries":"yes","recycling:drugs":"yes","recycling_type":"container"}},"type":"Feature"},
	{"geometry":{"coordinates":[8.430992,45.317404],"type":"Point"},"properties":{"name":"Batterie Usate / Farmaci Scaduti","osm_id":"6407524277","tag":{"amenity":"recycling","recycling:batteries":"yes","recycling:drugs":"yes","recycling_type":"container"}},"type":"Feature"},
	{"geometry":{"coordinates":[8.430962,45.324834],"type":"Point"},"properties":{"name":"Batterie Usate / Farmaci Scaduti","osm_id":"6414862590","tag":{"amenity":"recycling","recycling:batteries":"yes","recycling:drugs":"yes","recycling_type":"container"}},"type":"Feature"},
	{"geometry":{"coordinates":[8.394856,45.324952],"type":"Point"},"properties":{"osm_id":"6839482975","tag":{"amenity":"waste_basket"}},"type":"Feature"},
	{"geometry":{"coordinates":[8.411941,45.326101],"type":"Point"},"properties":{"osm_id":"6930075835","tag":{"amenity":"recycling"}},"type":"Feature"},
	{"geometry":{"coordinates":[8.412259,45.326095],"type":"Point"},"properties":{"osm_id":"6930075836","tag":{"amenity":"recycling"}},"type":"Feature"},
	{"geometry":{"coordinates":[8.424095,45.325854],"type":"Point"},"properties":{"osm_id":"6946156525","tag":{"amenity":"waste_basket"}},"type":"Feature"}
]
}
