{
"type": "FeatureCollection",
"features": [
	{"geometry":{"coordinates":[14.881107,50.076227],"type":"Point"},"properties":{"osm_id":"956013256","tag":{"amenity":"recycling","recycling:cartons":"yes","recycling:glass":"yes","recycling:papers":"yes","recycling:plastics":"yes"}},"type":"Feature"},
	{"geometry":{"coordinates":[14.883973,50.074337],"type":"Point"},"properties":{"osm_id":"956013257","tag":{"amenity":"recycling","recycling:electronics":"yes","recycling:glass":"yes","recycling:paper":"yes","recycling:plastic":"yes","recycling:scrap_metal":"yes","recycling_type":"container"}},"type":"Feature"},
	{"geometry":{"coordinates":[14.884272,50.076442],"type":"Point"},"properties":{"osm_id":"956013258","tag":{"amenity":"recycling"}},"type":"Feature"},
	{"geometry":{"coordinates":[14.884951,50.072108],"type":"Point"},"properties":{"osm_id":"956013259","tag":{"amenity":"recycling"}},"type":"Feature"},
	{"geometry":{"coordinates":[14.863522,50.070942],"type":"Point"},"properties":{"osm_id":"1005980226","tag":{"amenity":"recycling"}},"type":"Feature"},
	{"geometry":{"coordinates":[14.853668,50.070389],"type":"Point"},"properties":{"name":"Technick\u00c3\u00a9 slu\u00c5\u00beby \u00c4\u008cesk\u00c3\u00bd Brod","osm_id":"2393097522","tag":{"addr:city":"\u00c4\u008cesk\u00c3\u00bd Brod","addr:conscriptionnumber":"339","addr:country":"CZ","addr:housenumber":"339","addr:place":"\u00c4\u008cesk\u00c3\u00bd Brod","addr:postcode":"28201","addr:street":"Palack\u00c3\u00a9ho","amenity":"recycling","ref:ruian:addr":"14482169"}},"type":"Feature"},
	{"geometry":{"coordinates":[14.88044,50.075518],"type":"Point"},"properties":{"osm_id":"5607352115","tag":{"amenity":"recycling","recycling:paper":"yes","recycling:plastic":"yes","recycling_type":"container"}},"type":"Feature"},
	{"geometry":{"coordinates":[14.905479,50.094904],"type":"Point"},"properties":{"osm_id":"7215826045","tag":{"amenity":"recycling","recycling:glass":"yes","recycling:paper":"yes","recycling:plastic":"yes","recycling_type":"container"}},"type":"Feature"},
	{"geometry":{"coordinates":[14.859723,50.074391],"type":"Point"},"properties":{"osm_id":"9117786882","tag":{"amenity":"recycling","recycling_type":"container"}},"type":"Feature"}
]
}
