{
"type": "FeatureCollection",
"features": [
	{"geometry":{"coordinates":[-68.134231,-16.497643],"type":"Point"},"properties":{"osm_id":"3313411915","tag":{"amenity":"waste_basket","waste_basket":"trash"}},"type":"Feature"},
	{"geometry":{"coordinates":[-68.126535,-16.50046],"type":"Point"},"properties":{"osm_id":"3681278238","tag":{"amenity":"waste_basket"}},"type":"Feature"},
	{"geometry":{"coordinates":[-68.126203,-16.487796],"type":"Point"},"properties":{"osm_id":"4356686674","tag":{"amenity":"waste_disposal"}},"type":"Feature"},
	{"geometry":{"coordinates":[-68.120858,-16.517125],"type":"Point"},"properties":{"osm_id":"4366825589","tag":{"amenity":"waste_disposal","operator":"Ema verde"}},"type":"Feature"},
	{"geometry":{"coordinates":[-68.15585,-16.514886],"type":"Point"},"properties":{"osm_id":"4389866280","tag":{"amenity":"recycling"}},"type":"Feature"},
	{"geometry":{"coordinates":[-68.123064,-16.495962],"type":"Point"},"properties":{"osm_id":"4455975430","tag":{"amenity":"waste_disposal"}},"type":"Feature"},
	{"geometry":{"coordinates":[-68.132054,-16.499842],"type":"Point"},"properties":{"osm_id":"4535061390","tag":{"amenity":"waste_disposal","operator":"Guidex"}},"type":"Feature"},
	{"geometry":{"coordinates":[-68.124329,-16.502712],"type":"Point"},"properties":{"osm_id":"4538946987","tag":{"amenity":"waste_basket"}},"type":"Feature"},
	{"geometry":{"coordinates":[-68.124423,-16.502767],"type":"Point"},"properties":{"osm_id":"4538946988","tag":{"amenity":"waste_basket"}},"type":"Feature"},
	{"geometry":{"coordinates":[-68.124248,-16.502871],"type":"Point"},"properties":{"osm_id":"4538947395","tag":{"amenity":"waste_basket"}},"type":"Feature"},
	{"geometry":{"coordinates":[-68.154932,-16.487215],"type":"Point"},"properties":{"osm_id":"4599751316","tag":{"amenity":"waste_disposal"}},"type":"Feature"},
	{"geometry":{"coordinates":[-68.158519,-16.4896],"type":"Point"},"properties":{"osm_id":"4603576902","tag":{"amenity":"waste_disposal","operator":"GAMLP"}},"type":"Feature"},
	{"geometry":{"coordinates":[-68.119936,-16.502792],"type":"Point"},"properties":{"osm_id":"4671506495","tag":{"amenity":"waste_basket"}},"type":"Feature"},
	{"geometry":{"coordinates":[-68.119964,-16.502785],"type":"Point"},"properties":{"osm_id":"4671506496","tag":{"amenity":"waste_basket"}},"type":"Feature"},
	{"geometry":{"coordinates":[-68.115296,-16.495498],"type":"Point"},"properties":{"osm_id":"4671551192","tag":{"amenity":"waste_disposal","operator":"GAMLP"}},"type":"Feature"},
	{"geometry":{"coordinates":[-68.146525,-16.485482],"type":"Point"},"properties":{"osm_id":"4674974591","tag":{"amenity":"waste_disposal","operator":"GAMLP"}},"type":"Feature"},
	{"geometry":{"coordinates":[-68.161138,-16.488927],"type":"Point"},"properties":{"osm_id":"4755719553","tag":{"amenity":"waste_basket"}},"type":"Feature"},
	{"geometry":{"coordinates":[-68.130226,-16.49734],"type":"Point"},"properties":{"osm_id":"4836998916","tag":{"amenity":"waste_disposal"}},"type":"Feature"},
	{"geometry":{"coordinates":[-68.129421,-16.512294],"type":"Point"},"properties":{"osm_id":"4888437521","tag":{"amenity":"waste_disposal","operator":"GAMLP"}},"type":"Feature"},
	{"geometry":{"coordinates":[-68.128648,-16.508226],"type":"Point"},"properties":{"osm_id":"4888445122","tag":{"amenity":"waste_disposal","operator":"GAMLP"}},"type":"Feature"},
	{"geometry":{"coordinates":[-68.129722,-16.505421],"type":"Point"},"properties":{"osm_id":"4888453121","tag":{"amenity":"waste_disposal","operator":"GAMLP"}},"type":"Feature"},
	{"geometry":{"coordinates":[-68.132444,-16.49795],"type":"Point"},"properties":{"osm_id":"4888604222","tag":{"amenity":"waste_disposal","operator":"GAMLP"}},"type":"Feature"},
	{"geometry":{"coordinates":[-68.132491,-16.497894],"type":"Point"},"properties":{"osm_id":"4888604223","tag":{"amenity":"waste_disposal","operator":"GAMLP"}},"type":"Feature"},
	{"geometry":{"coordinates":[-68.13252,-16.498737],"type":"Point"},"properties":{"osm_id":"4888604522","tag":{"amenity":"waste_disposal","operator":"GAMLP"}},"type":"Feature"},
	{"geometry":{"coordinates":[-68.132309,-16.497983],"type":"Point"},"properties":{"osm_id":"4888606122","tag":{"amenity":"waste_disposal","operator":"GAMLP"}},"type":"Feature"},
	{"geometry":{"coordinates":[-68.131419,-16.498567],"type":"Point"},"properties":{"osm_id":"4888608621","tag":{"amenity":"waste_disposal","operator":"GAMLP"}},"type":"Feature"},
	{"geometry":{"coordinates":[-68.131339,-16.49859],"type":"Point"},"properties":{"osm_id":"4888608622","tag":{"amenity":"waste_disposal","operator":"GAMLP"}},"type":"Feature"},
	{"geometry":{"coordinates":[-68.132535,-16.497829],"type":"Point"},"properties":{"osm_id":"4888612221","tag":{"amenity":"waste_disposal","operator":"GAMLP"}},"type":"Feature"},
	{"geometry":{"coordinates":[-68.132764,-16.497613],"type":"Point"},"properties":{"osm_id":"4888612222","tag":{"amenity":"waste_disposal","operator":"GAMLP"}},"type":"Feature"},
	{"geometry":{"coordinates":[-68.134924,-16.496397],"type":"Point"},"properties":{"osm_id":"4888612223","tag":{"amenity":"waste_disposal","operator":"GAMLP"}},"type":"Feature"},
	{"geometry":{"coordinates":[-68.134717,-16.496514],"type":"Point"},"properties":{"osm_id":"4888621521","tag":{"amenity":"waste_disposal","operator":"GAMLP"}},"type":"Feature"},
	{"geometry":{"coordinates":[-68.135325,-16.49616],"type":"Point"},"properties":{"osm_id":"4888621522","tag":{"amenity":"waste_disposal","operator":"GAMLP"}},"type":"Feature"},
	{"geometry":{"coordinates":[-68.136594,-16.494453],"type":"Point"},"properties":{"osm_id":"4888629121","tag":{"amenity":"waste_disposal","operator":"GAMLP"}},"type":"Feature"},
	{"geometry":{"coordinates":[-68.135527,-16.494973],"type":"Point"},"properties":{"osm_id":"4888629123","tag":{"amenity":"waste_disposal","operator":"GAMLP"}},"type":"Feature"},
	{"geometry":{"coordinates":[-68.133966,-16.495543],"type":"Point"},"properties":{"osm_id":"4890529722","tag":{"amenity":"waste_disposal","operator":"GAMLP"}},"type":"Feature"},
	{"geometry":{"coordinates":[-68.134146,-16.495716],"type":"Point"},"properties":{"osm_id":"4890537521","tag":{"amenity":"waste_disposal","operator":"GAMLP"}},"type":"Feature"},
	{"geometry":{"coordinates":[-68.133458,-16.499247],"type":"Point"},"properties":{"osm_id":"4890671021","tag":{"amenity":"waste_disposal","operator":"GAMLP"}},"type":"Feature"},
	{"geometry":{"coordinates":[-68.134981,-16.502233],"type":"Point"},"properties":{"osm_id":"4917332123","tag":{"amenity":"waste_basket"}},"type":"Feature"},
	{"geometry":{"coordinates":[-68.127252,-16.513729],"type":"Point"},"properties":{"osm_id":"4917332131","tag":{"amenity":"waste_basket"}},"type":"Feature"},
	{"geometry":{"coordinates":[-68.128888,-16.506018],"type":"Point"},"properties":{"osm_id":"4917335727","tag":{"amenity":"waste_basket"}},"type":"Feature"},
	{"geometry":{"coordinates":[-68.133772,-16.495137],"type":"Point"},"properties":{"osm_id":"4917736323","tag":{"amenity":"waste_basket"}},"type":"Feature"},
	{"geometry":{"coordinates":[-68.133749,-16.495381],"type":"Point"},"properties":{"osm_id":"4917736324","tag":{"amenity":"waste_basket"}},"type":"Feature"},
	{"geometry":{"coordinates":[-68.133665,-16.495325],"type":"Point"},"properties":{"osm_id":"4917736923","tag":{"amenity":"waste_basket"}},"type":"Feature"},
	{"geometry":{"coordinates":[-68.13357,-16.495292],"type":"Point"},"properties":{"osm_id":"4917737322","tag":{"amenity":"waste_basket"}},"type":"Feature"},
	{"geometry":{"coordinates":[-68.125784,-16.515684],"type":"Point"},"properties":{"osm_id":"4919509127","tag":{"amenity":"waste_basket"}},"type":"Feature"},
	{"geometry":{"coordinates":[-68.126139,-16.515099],"type":"Point"},"properties":{"osm_id":"4919509128","tag":{"amenity":"waste_basket"}},"type":"Feature"},
	{"geometry":{"coordinates":[-68.126152,-16.509258],"type":"Point"},"properties":{"osm_id":"4919509134","tag":{"amenity":"waste_basket"}},"type":"Feature"},
	{"geometry":{"coordinates":[-68.126902,-16.508303],"type":"Point"},"properties":{"osm_id":"4919509135","tag":{"amenity":"waste_basket"}},"type":"Feature"},
	{"geometry":{"coordinates":[-68.126148,-16.51533],"type":"Point"},"properties":{"osm_id":"4919509428","tag":{"amenity":"waste_basket"}},"type":"Feature"},
	{"geometry":{"coordinates":[-68.126146,-16.514896],"type":"Point"},"properties":{"osm_id":"4919509430","tag":{"amenity":"waste_basket"}},"type":"Feature"},
	{"geometry":{"coordinates":[-68.132726,-16.496898],"type":"Point"},"properties":{"osm_id":"4920982326","tag":{"amenity":"waste_basket"}},"type":"Feature"},
	{"geometry":{"coordinates":[-68.132627,-16.496774],"type":"Point"},"properties":{"osm_id":"4920989821","tag":{"amenity":"waste_basket"}},"type":"Feature"},
	{"geometry":{"coordinates":[-68.133904,-16.495466],"type":"Point"},"properties":{"osm_id":"4927244328","tag":{"amenity":"waste_basket"}},"type":"Feature"},
	{"geometry":{"coordinates":[-68.135577,-16.497993],"type":"Point"},"properties":{"osm_id":"4927252924","tag":{"amenity":"waste_basket"}},"type":"Feature"},
	{"geometry":{"coordinates":[-68.131117,-16.501791],"type":"Point"},"properties":{"osm_id":"4927252927","tag":{"amenity":"waste_basket"}},"type":"Feature"},
	{"geometry":{"coordinates":[-68.131795,-16.499321],"type":"Point"},"properties":{"osm_id":"4927252928","tag":{"amenity":"waste_basket"}},"type":"Feature"},
	{"geometry":{"coordinates":[-68.135577,-16.494046],"type":"Point"},"properties":{"osm_id":"4927253223","tag":{"amenity":"waste_basket"}},"type":"Feature"},
	{"geometry":{"coordinates":[-68.131531,-16.501452],"type":"Point"},"properties":{"osm_id":"4927253225","tag":{"amenity":"waste_basket"}},"type":"Feature"},
	{"geometry":{"coordinates":[-68.131748,-16.499283],"type":"Point"},"properties":{"osm_id":"4927253226","tag":{"amenity":"waste_basket"}},"type":"Feature"},
	{"geometry":{"coordinates":[-68.13073,-16.502048],"type":"Point"},"properties":{"osm_id":"4927256423","tag":{"amenity":"waste_basket"}},"type":"Feature"},
	{"geometry":{"coordinates":[-68.132746,-16.496637],"type":"Point"},"properties":{"osm_id":"4927256424","tag":{"amenity":"waste_basket"}},"type":"Feature"},
	{"geometry":{"coordinates":[-68.133774,-16.495292],"type":"Point"},"properties":{"osm_id":"4927256425","tag":{"amenity":"waste_basket"}},"type":"Feature"},
	{"geometry":{"coordinates":[-68.132143,-16.494183],"type":"Point"},"properties":{"osm_id":"4927256521","tag":{"amenity":"waste_basket"}},"type":"Feature"},
	{"geometry":{"coordinates":[-68.141962,-16.492975],"type":"Point"},"properties":{"osm_id":"4927613733","tag":{"amenity":"waste_basket"}},"type":"Feature"},
	{"geometry":{"coordinates":[-68.132681,-16.501133],"type":"Point"},"properties":{"osm_id":"4927613744","tag":{"amenity":"waste_basket"}},"type":"Feature"},
	{"geometry":{"coordinates":[-68.135479,-16.502652],"type":"Point"},"properties":{"osm_id":"4931361522","tag":{"amenity":"waste_basket"}},"type":"Feature"},
	{"geometry":{"coordinates":[-68.143687,-16.511307],"type":"Point"},"properties":{"osm_id":"4931374021","tag":{"amenity":"waste_basket"}},"type":"Feature"},
	{"geometry":{"coordinates":[-68.127542,-16.494447],"type":"Point"},"properties":{"osm_id":"4932703824","tag":{"amenity":"waste_basket"}},"type":"Feature"},
	{"geometry":{"coordinates":[-68.12739,-16.494375],"type":"Point"},"properties":{"osm_id":"4932703825","tag":{"amenity":"waste_basket"}},"type":"Feature"},
	{"geometry":{"coordinates":[-68.127433,-16.495372],"type":"Point"},"properties":{"osm_id":"4932703831","tag":{"amenity":"waste_basket"}},"type":"Feature"},
	{"geometry":{"coordinates":[-68.127538,-16.495352],"type":"Point"},"properties":{"osm_id":"4932703832","tag":{"amenity":"waste_basket"}},"type":"Feature"},
	{"geometry":{"coordinates":[-68.127464,-16.494411],"type":"Point"},"properties":{"osm_id":"4932705126","tag":{"amenity":"waste_basket"}},"type":"Feature"},
	{"geometry":{"coordinates":[-68.127501,-16.494894],"type":"Point"},"properties":{"osm_id":"4932705129","tag":{"amenity":"waste_basket"}},"type":"Feature"},
	{"geometry":{"coordinates":[-68.127474,-16.495488],"type":"Point"},"properties":{"osm_id":"4932706021","tag":{"amenity":"waste_basket"}},"type":"Feature"},
	{"geometry":{"coordinates":[-68.127525,-16.495483],"type":"Point"},"properties":{"osm_id":"4932706121","tag":{"amenity":"waste_basket"}},"type":"Feature"},
	{"geometry":{"coordinates":[-68.131981,-16.502613],"type":"Point"},"properties":{"osm_id":"4933278731","tag":{"amenity":"waste_basket"}},"type":"Feature"},
	{"geometry":{"coordinates":[-68.132054,-16.502696],"type":"Point"},"properties":{"osm_id":"4933292622","tag":{"amenity":"waste_basket"}},"type":"Feature"},
	{"geometry":{"coordinates":[-68.132148,-16.502734],"type":"Point"},"properties":{"osm_id":"4933292623","tag":{"amenity":"waste_basket"}},"type":"Feature"},
	{"geometry":{"coordinates":[-68.132255,-16.502782],"type":"Point"},"properties":{"osm_id":"4933292624","tag":{"amenity":"waste_basket"}},"type":"Feature"},
	{"geometry":{"coordinates":[-68.129495,-16.507308],"type":"Point"},"properties":{"osm_id":"4933301921","tag":{"amenity":"waste_disposal","operator":"GAMLP"}},"type":"Feature"},
	{"geometry":{"coordinates":[-68.131929,-16.502905],"type":"Point"},"properties":{"osm_id":"4934491022","tag":{"amenity":"waste_basket"}},"type":"Feature"},
	{"geometry":{"coordinates":[-68.150849,-16.523634],"type":"Point"},"properties":{"osm_id":"4947509824","tag":{"amenity":"waste_basket","operator":"GAMEA"}},"type":"Feature"},
	{"geometry":{"coordinates":[-68.148591,-16.535263],"type":"Point"},"properties":{"osm_id":"4986865723","tag":{"amenity":"waste_disposal","operator":"GAMEA"}},"type":"Feature"},
	{"geometry":{"coordinates":[-68.148822,-16.535239],"type":"Point"},"properties":{"osm_id":"4986873721","tag":{"amenity":"waste_disposal","operator":"GAMEA"}},"type":"Feature"},
	{"geometry":{"coordinates":[-68.151663,-16.520332],"type":"Point"},"properties":{"osm_id":"5016695323","tag":{"amenity":"waste_disposal","operator":"GAMEA"}},"type":"Feature"},
	{"geometry":{"coordinates":[-68.128739,-16.50479],"type":"Point"},"properties":{"osm_id":"5048449221","tag":{"amenity":"waste_disposal","operator":"GAMLP"}},"type":"Feature"},
	{"geometry":{"coordinates":[-68.129507,-16.512009],"type":"Point"},"properties":{"osm_id":"5049839422","tag":{"amenity":"recycling","location":"overground","operator":"GAMLP","recycling_type":"container"}},"type":"Feature"},
	{"geometry":{"coordinates":[-68.158864,-16.492544],"type":"Point"},"properties":{"osm_id":"5051632122","tag":{"amenity":"waste_disposal","operator":"La Paz Limpia"}},"type":"Feature"},
	{"geometry":{"coordinates":[-68.138033,-16.509597],"type":"Point"},"properties":{"osm_id":"5075237821","tag":{"amenity":"waste_disposal","operator":"GAMLP"}},"type":"Feature"},
	{"geometry":{"coordinates":[-68.135887,-16.506939],"type":"Point"},"properties":{"osm_id":"5075237822","tag":{"amenity":"waste_disposal","operator":"GAMLP"}},"type":"Feature"},
	{"geometry":{"coordinates":[-68.136762,-16.508151],"type":"Point"},"properties":{"osm_id":"5075237921","tag":{"amenity":"waste_disposal","operator":"GAMLP"}},"type":"Feature"},
	{"geometry":{"coordinates":[-68.134865,-16.505133],"type":"Point"},"properties":{"osm_id":"5075238021","tag":{"amenity":"waste_disposal","operator":"GAMLP"}},"type":"Feature"},
	{"geometry":{"coordinates":[-68.128984,-16.513371],"type":"Point"},"properties":{"osm_id":"5084479921","tag":{"amenity":"waste_disposal","operator":"GAMLP"}},"type":"Feature"},
	{"geometry":{"coordinates":[-68.133373,-16.505576],"type":"Point"},"properties":{"osm_id":"5089867522","tag":{"amenity":"waste_disposal","operator":"GAMLP"}},"type":"Feature"},
	{"geometry":{"coordinates":[-68.132775,-16.504752],"type":"Point"},"properties":{"osm_id":"5089942721","tag":{"amenity":"waste_disposal","operator":"GAMLP"}},"type":"Feature"},
	{"geometry":{"coordinates":[-68.134126,-16.514162],"type":"Point"},"properties":{"osm_id":"5100879921","tag":{"amenity":"waste_disposal","operator":"GAMLP"}},"type":"Feature"},
	{"geometry":{"coordinates":[-68.133638,-16.504121],"type":"Point"},"properties":{"osm_id":"5102030125","tag":{"amenity":"waste_disposal","operator":"GAMLP"}},"type":"Feature"},
	{"geometry":{"coordinates":[-68.14728,-16.479976],"type":"Point"},"properties":{"osm_id":"5109652528","tag":{"amenity":"waste_disposal"}},"type":"Feature"},
	{"geometry":{"coordinates":[-68.159021,-16.498366],"type":"Point"},"properties":{"osm_id":"5113938221","tag":{"amenity":"waste_disposal","operator":"basurero"}},"type":"Feature"},
	{"geometry":{"coordinates":[-68.129237,-16.510661],"type":"Point"},"properties":{"osm_id":"5118504221","tag":{"amenity":"waste_disposal","operator":"GAMLP"}},"type":"Feature"},
	{"geometry":{"coordinates":[-68.12887,-16.511926],"type":"Point"},"properties":{"osm_id":"5120599922","tag":{"amenity":"waste_disposal","operator":"GAMLP"}},"type":"Feature"},
	{"geometry":{"coordinates":[-68.130033,-16.514903],"type":"Point"},"properties":{"osm_id":"5120616221","tag":{"amenity":"waste_disposal","operator":"GAMLP"}},"type":"Feature"},
	{"geometry":{"coordinates":[-68.130041,-16.509588],"type":"Point"},"properties":{"osm_id":"5122813421","tag":{"amenity":"waste_disposal","operator":"GAMLP"}},"type":"Feature"},
	{"geometry":{"coordinates":[-68.130401,-16.508143],"type":"Point"},"properties":{"osm_id":"5122813422","tag":{"amenity":"waste_disposal","operator":"GAMLP"}},"type":"Feature"},
	{"geometry":{"coordinates":[-68.12992,-16.505522],"type":"Point"},"properties":{"osm_id":"5122845222","tag":{"amenity":"waste_disposal","operator":"GAMLP"}},"type":"Feature"},
	{"geometry":{"coordinates":[-68.119566,-16.473733],"type":"Point"},"properties":{"osm_id":"5136138335","tag":{"amenity":"waste_disposal"}},"type":"Feature"},
	{"geometry":{"coordinates":[-68.120906,-16.476742],"type":"Point"},"properties":{"osm_id":"5136138336","tag":{"amenity":"waste_disposal"}},"type":"Feature"},
	{"geometry":{"coordinates":[-68.120427,-16.478646],"type":"Point"},"properties":{"osm_id":"5136138337","tag":{"amenity":"waste_disposal"}},"type":"Feature"},
	{"geometry":{"coordinates":[-68.122078,-16.475705],"type":"Point"},"properties":{"osm_id":"5143294547","tag":{"amenity":"waste_disposal"}},"type":"Feature"},
	{"geometry":{"coordinates":[-68.142814,-16.488526],"type":"Point"},"properties":{"osm_id":"5143430371","tag":{"amenity":"waste_disposal"}},"type":"Feature"},
	{"geometry":{"coordinates":[-68.143311,-16.522905],"type":"Point"},"properties":{"osm_id":"5143837721","tag":{"amenity":"waste_disposal","operator":"GAMLP"}},"type":"Feature"},
	{"geometry":{"coordinates":[-68.141162,-16.51061],"type":"Point"},"properties":{"osm_id":"5143838022","tag":{"amenity":"waste_disposal","operator":"GAMLP"}},"type":"Feature"},
	{"geometry":{"coordinates":[-68.12885,-16.514346],"type":"Point"},"properties":{"osm_id":"5154226630","tag":{"amenity":"waste_disposal","operator":"GAMLP"}},"type":"Feature"},
	{"geometry":{"coordinates":[-68.125859,-16.510747],"type":"Point"},"properties":{"osm_id":"5154244021","tag":{"amenity":"waste_disposal","operator":"GAMLP"}},"type":"Feature"},
	{"geometry":{"coordinates":[-68.120864,-16.476692],"type":"Point"},"properties":{"osm_id":"5154277424","tag":{"amenity":"waste_disposal","operator":"GAMLP"}},"type":"Feature"},
	{"geometry":{"coordinates":[-68.121296,-16.479547],"type":"Point"},"properties":{"osm_id":"5154287221","tag":{"amenity":"waste_disposal","operator":"GAMLP"}},"type":"Feature"},
	{"geometry":{"coordinates":[-68.136976,-16.510305],"type":"Point"},"properties":{"osm_id":"5172923322","tag":{"amenity":"waste_disposal","operator":"GAMLP"}},"type":"Feature"},
	{"geometry":{"coordinates":[-68.135496,-16.508789],"type":"Point"},"properties":{"osm_id":"5172923323","tag":{"amenity":"waste_disposal","operator":"GAMLP"}},"type":"Feature"},
	{"geometry":{"coordinates":[-68.138264,-16.510993],"type":"Point"},"properties":{"osm_id":"5172947224","tag":{"amenity":"waste_disposal","operator":"GAMLP"}},"type":"Feature"},
	{"geometry":{"coordinates":[-68.126445,-16.50437],"type":"Point"},"properties":{"osm_id":"5173005322","tag":{"amenity":"waste_disposal","operator":"GAMLP"}},"type":"Feature"},
	{"geometry":{"coordinates":[-68.136092,-16.503685],"type":"Point"},"properties":{"osm_id":"5180126324","tag":{"amenity":"waste_disposal","operator":"GAMLP"}},"type":"Feature"},
	{"geometry":{"coordinates":[-68.135677,-16.504101],"type":"Point"},"properties":{"osm_id":"5180159123","tag":{"amenity":"waste_disposal","operator":"GAMLP"}},"type":"Feature"},
	{"geometry":{"coordinates":[-68.128584,-16.516117],"type":"Point"},"properties":{"osm_id":"5194834222","tag":{"amenity":"waste_disposal","operator":"GAMLP"}},"type":"Feature"},
	{"geometry":{"coordinates":[-68.129728,-16.516209],"type":"Point"},"properties":{"osm_id":"5194850721","tag":{"amenity":"waste_disposal","operator":"GAMLP"}},"type":"Feature"},
	{"geometry":{"coordinates":[-68.125956,-16.497808],"type":"Point"},"properties":{"osm_id":"5203153622","tag":{"amenity":"waste_disposal","operator":"GAMLP"}},"type":"Feature"},
	{"geometry":{"coordinates":[-68.142384,-16.521785],"type":"Point"},"properties":{"osm_id":"5220402921","tag":{"amenity":"waste_disposal","operator":"GAMLP"}},"type":"Feature"},
	{"geometry":{"coordinates":[-68.13456,-16.515339],"type":"Point"},"properties":{"osm_id":"5221747423","tag":{"amenity":"waste_disposal","operator":"GAMLP"}},"type":"Feature"},
	{"geometry":{"coordinates":[-68.136119,-16.515149],"type":"Point"},"properties":{"osm_id":"5221751422","tag":{"amenity":"waste_disposal","operator":"GAMLP"}},"type":"Feature"},
	{"geometry":{"coordinates":[-68.119692,-16.512478],"type":"Point"},"properties":{"osm_id":"5233393321","tag":{"amenity":"waste_disposal","operator":"G. A. M. L. P. Z."}},"type":"Feature"},
	{"geometry":{"coordinates":[-68.126669,-16.500743],"type":"Point"},"properties":{"osm_id":"5237744621","tag":{"amenity":"waste_disposal","operator":"GAMLP"}},"type":"Feature"},
	{"geometry":{"coordinates":[-68.126489,-16.500627],"type":"Point"},"properties":{"osm_id":"5237746621","tag":{"amenity":"waste_disposal","operator":"GAMLP"}},"type":"Feature"},
	{"geometry":{"coordinates":[-68.126077,-16.500374],"type":"Point"},"properties":{"osm_id":"5237746721","tag":{"amenity":"waste_disposal","operator":"GAMLP"}},"type":"Feature"},
	{"geometry":{"coordinates":[-68.121013,-16.514572],"type":"Point"},"properties":{"osm_id":"5256589722","tag":{"amenity":"waste_disposal","operator":"GAMLP"}},"type":"Feature"},
	{"geometry":{"coordinates":[-68.117958,-16.495559],"type":"Point"},"properties":{"osm_id":"5268888221","tag":{"amenity":"recycling","recycling_type":"centre"}},"type":"Feature"},
	{"geometry":{"coordinates":[-68.118456,-16.498409],"type":"Point"},"properties":{"osm_id":"5310974022","tag":{"amenity":"waste_disposal","operator":"GAMLP"}},"type":"Feature"},
	{"geometry":{"coordinates":[-68.119224,-16.497695],"type":"Point"},"properties":{"osm_id":"5310974023","tag":{"amenity":"waste_disposal","operator":"GAMLP"}},"type":"Feature"},
	{"geometry":{"coordinates":[-68.119748,-16.496522],"type":"Point"},"properties":{"osm_id":"5311010822","tag":{"amenity":"waste_disposal","operator":"GAMLP"}},"type":"Feature"},
	{"geometry":{"coordinates":[-68.120404,-16.495531],"type":"Point"},"properties":{"osm_id":"5311015721","tag":{"amenity":"waste_disposal","operator":"GAMLP"}},"type":"Feature"},
	{"geometry":{"coordinates":[-68.121234,-16.494167],"type":"Point"},"properties":{"osm_id":"5311018121","tag":{"amenity":"waste_disposal","operator":"GAMLP"}},"type":"Feature"},
	{"geometry":{"coordinates":[-68.121303,-16.493017],"type":"Point"},"properties":{"osm_id":"5311018122","tag":{"amenity":"waste_disposal","operator":"GAMLP"}},"type":"Feature"},
	{"geometry":{"coordinates":[-68.151814,-16.531937],"type":"Point"},"properties":{"osm_id":"5375657025","tag":{"amenity":"waste_disposal","operator":"GAMEA"}},"type":"Feature"},
	{"geometry":{"coordinates":[-68.133055,-16.495795],"type":"Point"},"properties":{"osm_id":"5420197646","tag":{"amenity":"waste_basket"}},"type":"Feature"},
	{"geometry":{"coordinates":[-68.117913,-16.495572],"type":"Point"},"properties":{"osm_id":"5457915023","tag":{"amenity":"recycling","recycling_type":"centre"}},"type":"Feature"},
	{"geometry":{"coordinates":[-68.118494,-16.49923],"type":"Point"},"properties":{"osm_id":"5457915030","tag":{"amenity":"waste_disposal"}},"type":"Feature"},
	{"geometry":{"coordinates":[-68.1183,-16.499472],"type":"Point"},"properties":{"osm_id":"5457915128","tag":{"amenity":"waste_disposal"}},"type":"Feature"},
	{"geometry":{"coordinates":[-68.116443,-16.49949],"type":"Point"},"properties":{"osm_id":"5481665924","tag":{"amenity":"waste_disposal"}},"type":"Feature"},
	{"geometry":{"coordinates":[-68.117078,-16.499802],"type":"Point"},"properties":{"osm_id":"5481666022","tag":{"amenity":"waste_disposal"}},"type":"Feature"},
	{"geometry":{"coordinates":[-68.12832,-16.504319],"type":"Point"},"properties":{"osm_id":"5481666223","tag":{"amenity":"waste_disposal"}},"type":"Feature"},
	{"geometry":{"coordinates":[-68.11705,-16.499881],"type":"Point"},"properties":{"osm_id":"5481667221","tag":{"amenity":"waste_disposal"}},"type":"Feature"},
	{"geometry":{"coordinates":[-68.116371,-16.499601],"type":"Point"},"properties":{"osm_id":"5481667321","tag":{"amenity":"waste_disposal"}},"type":"Feature"},
	{"geometry":{"coordinates":[-68.118612,-16.516157],"type":"Point"},"properties":{"osm_id":"5483534122","tag":{"amenity":"waste_disposal"}},"type":"Feature"},
	{"geometry":{"coordinates":[-68.119044,-16.516207],"type":"Point"},"properties":{"osm_id":"5483541822","tag":{"amenity":"waste_disposal"}},"type":"Feature"},
	{"geometry":{"coordinates":[-68.142268,-16.511813],"type":"Point"},"properties":{"osm_id":"5483704921","tag":{"amenity":"waste_disposal","operator":"GAMLP"}},"type":"Feature"},
	{"geometry":{"coordinates":[-68.128931,-16.502139],"type":"Point"},"properties":{"osm_id":"5483712733","tag":{"amenity":"waste_disposal"}},"type":"Feature"},
	{"geometry":{"coordinates":[-68.126483,-16.502176],"type":"Point"},"properties":{"osm_id":"5483713122","tag":{"amenity":"waste_disposal"}},"type":"Feature"},
	{"geometry":{"coordinates":[-68.125332,-16.502319],"type":"Point"},"properties":{"osm_id":"5483713221","tag":{"amenity":"waste_disposal"}},"type":"Feature"},
	{"geometry":{"coordinates":[-68.128573,-16.503516],"type":"Point"},"properties":{"osm_id":"5489380023","tag":{"amenity":"waste_disposal"}},"type":"Feature"},
	{"geometry":{"coordinates":[-68.128803,-16.502853],"type":"Point"},"properties":{"osm_id":"5489661521","tag":{"amenity":"waste_disposal"}},"type":"Feature"},
	{"geometry":{"coordinates":[-68.118669,-16.500644],"type":"Point"},"properties":{"osm_id":"5497694726","tag":{"amenity":"waste_disposal"}},"type":"Feature"},
	{"geometry":{"coordinates":[-68.151417,-16.502899],"type":"Point"},"properties":{"osm_id":"5503776723","tag":{"amenity":"recycling"}},"type":"Feature"},
	{"geometry":{"coordinates":[-68.121185,-16.483969],"type":"Point"},"properties":{"osm_id":"5635736021","tag":{"amenity":"waste_basket"}},"type":"Feature"},
	{"geometry":{"coordinates":[-68.143226,-16.510311],"type":"Point"},"properties":{"osm_id":"5635736524","tag":{"amenity":"waste_basket"}},"type":"Feature"},
	{"geometry":{"coordinates":[-68.1215,-16.493952],"type":"Point"},"properties":{"osm_id":"5640739822","tag":{"amenity":"waste_basket"}},"type":"Feature"},
	{"geometry":{"coordinates":[-68.120969,-16.471278],"type":"Point"},"properties":{"osm_id":"5646732009","tag":{"amenity":"waste_disposal"}},"type":"Feature"},
	{"geometry":{"coordinates":[-68.122865,-16.473479],"type":"Point"},"properties":{"osm_id":"5646732018","tag":{"amenity":"waste_disposal"}},"type":"Feature"},
	{"geometry":{"coordinates":[-68.121592,-16.47446],"type":"Point"},"properties":{"osm_id":"5646732228","tag":{"amenity":"waste_disposal"}},"type":"Feature"},
	{"geometry":{"coordinates":[-68.122362,-16.471961],"type":"Point"},"properties":{"osm_id":"5646732236","tag":{"amenity":"waste_disposal"}},"type":"Feature"},
	{"geometry":{"coordinates":[-68.123735,-16.472765],"type":"Point"},"properties":{"osm_id":"5646732249","tag":{"amenity":"waste_disposal"}},"type":"Feature"},
	{"geometry":{"coordinates":[-68.12354,-16.471966],"type":"Point"},"properties":{"name":"Marecvol","osm_id":"5646779389","tag":{"amenity":"recycling","recycling_type":"centre"}},"type":"Feature"},
	{"geometry":{"coordinates":[-68.152109,-16.487377],"type":"Point"},"properties":{"osm_id":"5666742922","tag":{"amenity":"waste_disposal"}},"type":"Feature"},
	{"geometry":{"coordinates":[-68.152243,-16.488203],"type":"Point"},"properties":{"osm_id":"5666749921","tag":{"amenity":"waste_disposal"}},"type":"Feature"},
	{"geometry":{"coordinates":[-68.11982,-16.484548],"type":"Point"},"properties":{"osm_id":"5678382145","tag":{"amenity":"waste_disposal","operator":"GAMLP"}},"type":"Feature"},
	{"geometry":{"coordinates":[-68.118936,-16.483485],"type":"Point"},"properties":{"osm_id":"5678391126","tag":{"amenity":"waste_disposal","operator":"GAMLP"}},"type":"Feature"},
	{"geometry":{"coordinates":[-68.118496,-16.482743],"type":"Point"},"properties":{"osm_id":"5678391127","tag":{"amenity":"waste_disposal","operator":"GAMLP"}},"type":"Feature"},
	{"geometry":{"coordinates":[-68.15109,-16.523742],"type":"Point"},"properties":{"osm_id":"5882582085","tag":{"amenity":"waste_basket","operator":"Trebol"}},"type":"Feature"},
	{"geometry":{"coordinates":[-68.121362,-16.507734],"type":"Point"},"properties":{"osm_id":"6073692489","tag":{"amenity":"waste_disposal","operator":"GAMLP"}},"type":"Feature"},
	{"geometry":{"coordinates":[-68.121179,-16.505804],"type":"Point"},"properties":{"osm_id":"6073714285","tag":{"amenity":"waste_disposal","operator":"GAMLP"}},"type":"Feature"},
	{"geometry":{"coordinates":[-68.12068,-16.504234],"type":"Point"},"properties":{"osm_id":"6073714286","tag":{"amenity":"waste_disposal"}},"type":"Feature"},
	{"geometry":{"coordinates":[-68.115602,-16.497682],"type":"Point"},"properties":{"osm_id":"6093975727","tag":{"amenity":"waste_disposal"}},"type":"Feature"},
	{"geometry":{"coordinates":[-68.125738,-16.515518],"type":"Point"},"properties":{"osm_id":"6146423887","tag":{"amenity":"waste_disposal","operator":"GAMLP"}},"type":"Feature"},
	{"geometry":{"coordinates":[-68.147937,-16.495253],"type":"Point"},"properties":{"osm_id":"6238641886","tag":{"amenity":"waste_disposal","operator":"GAMLP"}},"type":"Feature"},
	{"geometry":{"coordinates":[-68.148287,-16.494498],"type":"Point"},"properties":{"osm_id":"6238664485","tag":{"amenity":"waste_disposal","operator":"GAMLP"}},"type":"Feature"},
	{"geometry":{"coordinates":[-68.142745,-16.498089],"type":"Point"},"properties":{"osm_id":"6238723285","tag":{"amenity":"waste_disposal","operator":"GAMLP"}},"type":"Feature"},
	{"geometry":{"coordinates":[-68.141932,-16.497621],"type":"Point"},"properties":{"osm_id":"6238723585","tag":{"amenity":"waste_disposal","operator":"GAMLP"}},"type":"Feature"},
	{"geometry":{"coordinates":[-68.139277,-16.49799],"type":"Point"},"properties":{"osm_id":"6238747286","tag":{"amenity":"waste_disposal","operator":"GAMLP"}},"type":"Feature"},
	{"geometry":{"coordinates":[-68.136953,-16.498396],"type":"Point"},"properties":{"osm_id":"6238761585","tag":{"amenity":"waste_disposal"}},"type":"Feature"},
	{"geometry":{"coordinates":[-68.136094,-16.499761],"type":"Point"},"properties":{"osm_id":"6238767085","tag":{"amenity":"waste_disposal"}},"type":"Feature"},
	{"geometry":{"coordinates":[-68.143743,-16.516616],"type":"Point"},"properties":{"osm_id":"6238776386","tag":{"amenity":"waste_disposal","operator":"GAMLP"}},"type":"Feature"},
	{"geometry":{"coordinates":[-68.141305,-16.51167],"type":"Point"},"properties":{"osm_id":"6238788785","tag":{"amenity":"waste_disposal","operator":"GAMLP"}},"type":"Feature"},
	{"geometry":{"coordinates":[-68.143854,-16.515511],"type":"Point"},"properties":{"osm_id":"6238791185","tag":{"amenity":"waste_disposal","operator":"GAMLP"}},"type":"Feature"},
	{"geometry":{"coordinates":[-68.119263,-16.497585],"type":"Point"},"properties":{"osm_id":"6324588380","tag":{"amenity":"recycling","operator":"GAMLP","recycling:paper_packaging":"yes","recycling:plastic_bottles":"yes","recycling_type":"container"}},"type":"Feature"},
	{"geometry":{"coordinates":[-68.121173,-16.494314],"type":"Point"},"properties":{"osm_id":"6324588381","tag":{"amenity":"recycling","operator":"GAMLP","recycling:plastic":"yes","recycling:plastic_bottles":"yes","recycling_type":"container"}},"type":"Feature"},
	{"geometry":{"coordinates":[-68.121258,-16.494254],"type":"Point"},"properties":{"osm_id":"6324588382","tag":{"amenity":"recycling","operator":"GAMLP","recycling:glass_bottles":"yes","recycling:paper":"yes","recycling:scrap_metal":"yes","recycling_type":"container"}},"type":"Feature"},
	{"geometry":{"coordinates":[-68.152127,-16.52639],"type":"Point"},"properties":{"osm_id":"6525030189","tag":{"amenity":"waste_basket"}},"type":"Feature"},
	{"geometry":{"coordinates":[-68.151306,-16.524506],"type":"Point"},"properties":{"osm_id":"6635494453","tag":{"amenity":"waste_basket"}},"type":"Feature"},
	{"geometry":{"coordinates":[-68.151518,-16.524535],"type":"Point"},"properties":{"osm_id":"6635494454","tag":{"amenity":"waste_basket"}},"type":"Feature"},
	{"geometry":{"coordinates":[-68.151428,-16.524159],"type":"Point"},"properties":{"osm_id":"6635494455","tag":{"amenity":"waste_basket"}},"type":"Feature"},
	{"geometry":{"coordinates":[-68.15135,-16.523979],"type":"Point"},"properties":{"osm_id":"6635494456","tag":{"amenity":"waste_basket"}},"type":"Feature"},
	{"geometry":{"coordinates":[-68.151167,-16.523998],"type":"Point"},"properties":{"osm_id":"6635494457","tag":{"amenity":"waste_basket"}},"type":"Feature"},
	{"geometry":{"coordinates":[-68.151118,-16.524254],"type":"Point"},"properties":{"osm_id":"6635494458","tag":{"amenity":"waste_basket"}},"type":"Feature"},
	{"geometry":{"coordinates":[-68.15184,-16.526309],"type":"Point"},"properties":{"osm_id":"6653799294","tag":{"amenity":"waste_basket"}},"type":"Feature"},
	{"geometry":{"coordinates":[-68.155093,-16.529543],"type":"Point"},"properties":{"osm_id":"6685117802","tag":{"amenity":"waste_disposal","recycling:glass_bottles":"yes","recycling:paper":"yes","recycling:plastic":"yes"}},"type":"Feature"},
	{"geometry":{"coordinates":[-68.123124,-16.487934],"type":"Point"},"properties":{"osm_id":"6733054185","tag":{"amenity":"waste_disposal","operator":"GAMLP"}},"type":"Feature"},
	{"geometry":{"coordinates":[-68.150455,-16.522996],"type":"Point"},"properties":{"osm_id":"6753809002","tag":{"amenity":"waste_basket"}},"type":"Feature"},
	{"geometry":{"coordinates":[-68.150786,-16.523404],"type":"Point"},"properties":{"osm_id":"6753809015","tag":{"amenity":"waste_basket"}},"type":"Feature"},
	{"geometry":{"coordinates":[-68.151513,-16.526633],"type":"Point"},"properties":{"osm_id":"6793980334","tag":{"amenity":"waste_basket"}},"type":"Feature"},
	{"geometry":{"coordinates":[-68.124147,-16.521212],"type":"Point"},"properties":{"osm_id":"6859018454","tag":{"amenity":"recycling","recycling_type":"container"}},"type":"Feature"},
	{"geometry":{"coordinates":[-68.158441,-16.523908],"type":"Point"},"properties":{"osm_id":"7100679028","tag":{"amenity":"waste_basket"}},"type":"Feature"},
	{"geometry":{"coordinates":[-68.158115,-16.522909],"type":"Point"},"properties":{"osm_id":"7100679118","tag":{"amenity":"waste_basket"}},"type":"Feature"},
	{"geometry":{"coordinates":[-68.158382,-16.523539],"type":"Point"},"properties":{"osm_id":"7100679119","tag":{"amenity":"waste_basket"}},"type":"Feature"},
	{"geometry":{"coordinates":[-68.158033,-16.522425],"type":"Point"},"properties":{"osm_id":"7100679179","tag":{"amenity":"waste_basket"}},"type":"Feature"},
	{"geometry":{"coordinates":[-68.157867,-16.522364],"type":"Point"},"properties":{"osm_id":"7100679180","tag":{"amenity":"waste_basket"}},"type":"Feature"},
	{"geometry":{"coordinates":[-68.157747,-16.522023],"type":"Point"},"properties":{"osm_id":"7100679186","tag":{"amenity":"waste_basket"}},"type":"Feature"},
	{"geometry":{"coordinates":[-68.15755,-16.521619],"type":"Point"},"properties":{"osm_id":"7100679250","tag":{"amenity":"waste_basket"}},"type":"Feature"},
	{"geometry":{"coordinates":[-68.157296,-16.520913],"type":"Point"},"properties":{"osm_id":"7100679279","tag":{"amenity":"waste_basket"}},"type":"Feature"},
	{"geometry":{"coordinates":[-68.157206,-16.520715],"type":"Point"},"properties":{"osm_id":"7100679506","tag":{"amenity":"waste_basket"}},"type":"Feature"},
	{"geometry":{"coordinates":[-68.150481,-16.518033],"type":"Point"},"properties":{"osm_id":"7313104285","tag":{"amenity":"waste_disposal"}},"type":"Feature"},
	{"geometry":{"coordinates":[-68.159825,-16.488392],"type":"Point"},"properties":{"osm_id":"7366751310","tag":{"amenity":"waste_disposal"}},"type":"Feature"},
	{"geometry":{"coordinates":[-68.159605,-16.489596],"type":"Point"},"properties":{"osm_id":"7367068790","tag":{"amenity":"waste_disposal"}},"type":"Feature"},
	{"geometry":{"coordinates":[-68.16212,-16.489092],"type":"Point"},"properties":{"osm_id":"7367130262","tag":{"amenity":"waste_disposal"}},"type":"Feature"},
	{"geometry":{"coordinates":[-68.157325,-16.489515],"type":"Point"},"properties":{"osm_id":"7367136872","tag":{"amenity":"waste_disposal"}},"type":"Feature"},
	{"geometry":{"coordinates":[-68.158467,-16.48954],"type":"Point"},"properties":{"osm_id":"7367136875","tag":{"amenity":"waste_disposal"}},"type":"Feature"},
	{"geometry":{"coordinates":[-68.157616,-16.487965],"type":"Point"},"properties":{"osm_id":"7367198051","tag":{"amenity":"waste_disposal"}},"type":"Feature"},
	{"geometry":{"coordinates":[-68.159189,-16.491141],"type":"Point"},"properties":{"osm_id":"7367371100","tag":{"amenity":"waste_disposal"}},"type":"Feature"},
	{"geometry":{"coordinates":[-68.155984,-16.490902],"type":"Point"},"properties":{"osm_id":"7367447297","tag":{"amenity":"waste_disposal"}},"type":"Feature"},
	{"geometry":{"coordinates":[-68.156595,-16.49014],"type":"Point"},"properties":{"osm_id":"7367513946","tag":{"amenity":"waste_disposal"}},"type":"Feature"},
	{"geometry":{"coordinates":[-68.155467,-16.489968],"type":"Point"},"properties":{"osm_id":"7367513959","tag":{"amenity":"waste_disposal"}},"type":"Feature"},
	{"geometry":{"coordinates":[-68.15613,-16.489652],"type":"Point"},"properties":{"osm_id":"7367513968","tag":{"amenity":"waste_disposal"}},"type":"Feature"},
	{"geometry":{"coordinates":[-68.154931,-16.489129],"type":"Point"},"properties":{"osm_id":"7367513974","tag":{"amenity":"waste_disposal"}},"type":"Feature"},
	{"geometry":{"coordinates":[-68.156201,-16.488228],"type":"Point"},"properties":{"osm_id":"7367552139","tag":{"amenity":"waste_disposal"}},"type":"Feature"},
	{"geometry":{"coordinates":[-68.15616,-16.488211],"type":"Point"},"properties":{"osm_id":"7367552140","tag":{"amenity":"waste_disposal"}},"type":"Feature"},
	{"geometry":{"coordinates":[-68.155504,-16.486064],"type":"Point"},"properties":{"osm_id":"7367552166","tag":{"amenity":"waste_disposal"}},"type":"Feature"},
	{"geometry":{"coordinates":[-68.155541,-16.486015],"type":"Point"},"properties":{"osm_id":"7367552167","tag":{"amenity":"waste_disposal"}},"type":"Feature"},
	{"geometry":{"coordinates":[-68.159044,-16.486962],"type":"Point"},"properties":{"osm_id":"7367560442","tag":{"amenity":"waste_disposal"}},"type":"Feature"},
	{"geometry":{"coordinates":[-68.158701,-16.486352],"type":"Point"},"properties":{"osm_id":"7367560443","tag":{"amenity":"waste_disposal"}},"type":"Feature"},
	{"geometry":{"coordinates":[-68.158308,-16.485873],"type":"Point"},"properties":{"osm_id":"7367560446","tag":{"amenity":"waste_disposal"}},"type":"Feature"},
	{"geometry":{"coordinates":[-68.164341,-16.487367],"type":"Point"},"properties":{"osm_id":"7367589647","tag":{"amenity":"waste_disposal"}},"type":"Feature"},
	{"geometry":{"coordinates":[-68.163918,-16.488516],"type":"Point"},"properties":{"osm_id":"7367620800","tag":{"amenity":"waste_disposal"}},"type":"Feature"},
	{"geometry":{"coordinates":[-68.155196,-16.529435],"type":"Point"},"properties":{"osm_id":"7524628454","tag":{"amenity":"waste_basket"}},"type":"Feature"},
	{"geometry":{"coordinates":[-68.152269,-16.526134],"type":"Point"},"properties":{"osm_id":"7926421710","tag":{"amenity":"waste_basket"}},"type":"Feature"}
]
}
