{
"type": "FeatureCollection",
"features": [
	{"geometry":{"coordinates":[-94.445207,39.046132],"type":"Point"},"properties":{"name":"Clothing Donation","osm_id":"1868998123","tag":{"amenity":"recycling","recycling:clothes":"yes","recycling_type":"container"}},"type":"Feature"},
	{"geometry":{"coordinates":[-94.412437,39.044422],"type":"Point"},"properties":{"osm_id":"1876930855","tag":{"amenity":"recycling","recycling:cardboard":"no","recycling:newspaper":"yes","recycling:paper":"yes","recycling_type":"container"}},"type":"Feature"},
	{"geometry":{"coordinates":[-94.412524,39.044261],"type":"Point"},"properties":{"osm_id":"1876930856","tag":{"amenity":"recycling","recycling:glass_bottles":"yes","recycling_type":"container"}},"type":"Feature"},
	{"geometry":{"coordinates":[-94.446507,39.047882],"type":"Point"},"properties":{"osm_id":"1966138257","tag":{"amenity":"waste_disposal"}},"type":"Feature"},
	{"geometry":{"coordinates":[-94.440005,39.080281],"type":"Point"},"properties":{"osm_id":"5620631830","tag":{"amenity":"recycling","recycling:paper":"yes","recycling_type":"container"}},"type":"Feature"},
	{"geometry":{"coordinates":[-94.474317,39.050592],"type":"Point"},"properties":{"osm_id":"8699599809","tag":{"amenity":"waste_disposal"}},"type":"Feature"},
	{"geometry":{"coordinates":[-94.474377,39.050614],"type":"Point"},"properties":{"osm_id":"8699599810","tag":{"amenity":"waste_disposal"}},"type":"Feature"},
	{"geometry":{"coordinates":[-94.480683,39.048256],"type":"Point"},"properties":{"osm_id":"8703005848","tag":{"amenity":"waste_disposal"}},"type":"Feature"},
	{"geometry":{"coordinates":[-94.482337,39.048181],"type":"Point"},"properties":{"osm_id":"8703329883","tag":{"amenity":"waste_disposal"}},"type":"Feature"},
	{"geometry":{"coordinates":[-94.480962,39.048066],"type":"Point"},"properties":{"osm_id":"8703329955","tag":{"amenity":"waste_disposal"}},"type":"Feature"},
	{"geometry":{"coordinates":[-94.479905,39.048828],"type":"Point"},"properties":{"osm_id":"8703330035","tag":{"amenity":"waste_disposal"}},"type":"Feature"},
	{"geometry":{"coordinates":[-94.479606,39.049036],"type":"Point"},"properties":{"osm_id":"8711148099","tag":{"amenity":"waste_disposal"}},"type":"Feature"},
	{"geometry":{"coordinates":[-94.478988,39.048525],"type":"Point"},"properties":{"osm_id":"8711165464","tag":{"amenity":"waste_disposal"}},"type":"Feature"},
	{"geometry":{"coordinates":[-94.478968,39.048507],"type":"Point"},"properties":{"osm_id":"8711165465","tag":{"amenity":"waste_disposal"}},"type":"Feature"},
	{"geometry":{"coordinates":[-94.480041,39.047719],"type":"Point"},"properties":{"osm_id":"8711165659","tag":{"amenity":"waste_disposal"}},"type":"Feature"},
	{"geometry":{"coordinates":[-94.48002,39.047698],"type":"Point"},"properties":{"osm_id":"8711165660","tag":{"amenity":"waste_disposal"}},"type":"Feature"},
	{"geometry":{"coordinates":[-94.480303,39.047511],"type":"Point"},"properties":{"osm_id":"8711165698","tag":{"amenity":"waste_disposal"}},"type":"Feature"},
	{"geometry":{"coordinates":[-94.480318,39.047528],"type":"Point"},"properties":{"osm_id":"8711165699","tag":{"amenity":"waste_disposal"}},"type":"Feature"},
	{"geometry":{"coordinates":[-94.481789,39.04643],"type":"Point"},"properties":{"osm_id":"8711165785","tag":{"amenity":"waste_disposal"}},"type":"Feature"},
	{"geometry":{"coordinates":[-94.48103,39.045799],"type":"Point"},"properties":{"osm_id":"8711165787","tag":{"amenity":"waste_disposal"}},"type":"Feature"},
	{"geometry":{"coordinates":[-94.480896,39.045679],"type":"Point"},"properties":{"osm_id":"8711165789","tag":{"amenity":"waste_disposal"}},"type":"Feature"},
	{"geometry":{"coordinates":[-94.480389,39.04962],"type":"Point"},"properties":{"osm_id":"8711214496","tag":{"amenity":"waste_disposal"}},"type":"Feature"},
	{"geometry":{"coordinates":[-94.479287,39.048299],"type":"Point"},"properties":{"osm_id":"8711216517","tag":{"amenity":"waste_disposal"}},"type":"Feature"}
]
}
