{
"type": "FeatureCollection",
"lastupdate": "2020-08-02T00:00:00Z",
"features": [
	{"geometry":{"coordinates":[-122.335085,49.05109],"type":"Point"},"properties":{"osm_id":"3477798969","tag":{"entrance":"yes"}},"type":"Feature"},
	{"geometry":{"coordinates":[-122.338549,49.04796],"type":"Point"},"properties":{"name":"Recycling Centre","osm_id":"3498450319","tag":{"amenity":"recycling"}},"type":"Feature"},
	{"geometry":{"coordinates":[-122.289602,49.050349],"type":"Point"},"properties":{"osm_id":"3574628293","tag":{"amenity":"recycling"}},"type":"Feature"},
	{"geometry":{"coordinates":[-122.335026,49.051112],"type":"Point"},"properties":{"osm_id":"3615348395","tag":{"entrance":"exit"}},"type":"Feature"},
	{"geometry":{"coordinates":[-122.286436,49.046078],"type":"Point"},"properties":{"osm_id":"3889820559","tag":{"amenity":"recycling","operator":"Abbotsford Fire Fights Association","recycling:clothes":"yes","website":"http://iaff2864.org"}},"type":"Feature"},
	{"geometry":{"coordinates":[-122.283901,49.044352],"type":"Point"},"properties":{"osm_id":"3890653263","tag":{"amenity":"recycling","description":"Drop off centre","entrance":"service","recycling:clothes":"yes","recycling_type":"centre"}},"type":"Feature"},
	{"geometry":{"coordinates":[-122.278593,49.043502],"type":"Point"},"properties":{"name":"Thrift Store","osm_id":"3903081161","tag":{"amenity":"recycling","collection_times":"Mo-Fr 09:00-16:00; Sa 09:00-15:00","opening_hours":"Mo-Sa 09:00-17:00","operator":"Salvation Army","phone":"+1-604-852-9305","recycling:clothes":"yes","recycling_type":"container","shop":"charity"}},"type":"Feature"},
	{"geometry":{"coordinates":[-122.308182,49.060571],"type":"Point"},"properties":{"osm_id":"3996720600","tag":{"amenity":"waste_basket"}},"type":"Feature"},
	{"geometry":{"coordinates":[-122.31313,49.055993],"type":"Point"},"properties":{"osm_id":"3996720601","tag":{"amenity":"waste_basket"}},"type":"Feature"},
	{"geometry":{"coordinates":[-122.329994,49.051531],"type":"Point"},"properties":{"osm_id":"4002951489","tag":{"amenity":"recycling","operator":"Developmental Disabilities Association","recycling:clothes":"yes","recycling_type":"container"}},"type":"Feature"},
	{"geometry":{"coordinates":[-122.336979,49.058076],"type":"Point"},"properties":{"osm_id":"4003015189","tag":{"amenity":"recycling","operator":"Canadian Diabetes Association","recycling:clothes":"yes","recycling_type":"container"}},"type":"Feature"},
	{"geometry":{"coordinates":[-122.326901,49.0672],"type":"Point"},"properties":{"osm_id":"4004471889","tag":{"amenity":"recycling","recycling:cans":"yes","recycling_type":"container"}},"type":"Feature"},
	{"geometry":{"coordinates":[-122.316819,49.053403],"type":"Point"},"properties":{"osm_id":"4018869798","tag":{"amenity":"waste_basket"}},"type":"Feature"},
	{"geometry":{"coordinates":[-122.334596,49.067524],"type":"Point"},"properties":{"osm_id":"4057305291","tag":{"amenity":"waste_basket"}},"type":"Feature"},
	{"geometry":{"coordinates":[-122.29375,49.058812],"type":"Point"},"properties":{"osm_id":"4079566693","tag":{"amenity":"recycling","operator":"Transtextile.com","recycling_type":"container"}},"type":"Feature"},
	{"geometry":{"coordinates":[-122.293718,49.058813],"type":"Point"},"properties":{"osm_id":"4079566789","tag":{"amenity":"recycling","operator":"discoverbooks.com","recycling_type":"container"}},"type":"Feature"},
	{"geometry":{"coordinates":[-122.312788,49.065699],"type":"Point"},"properties":{"osm_id":"4131410493","tag":{"amenity":"waste_basket"}},"type":"Feature"},
	{"geometry":{"coordinates":[-122.315517,49.065883],"type":"Point"},"properties":{"osm_id":"4239382301","tag":{"amenity":"recycling","recycling:glass":"no","recycling_type":"container"}},"type":"Feature"},
	{"geometry":{"coordinates":[-122.308277,49.062698],"type":"Point"},"properties":{"osm_id":"4239386108","tag":{"amenity":"waste_basket"}},"type":"Feature"},
	{"geometry":{"coordinates":[-122.315517,49.065899],"type":"Point"},"properties":{"osm_id":"4239394790","tag":{"amenity":"recycling","recycling:clothes":"yes","recycling_type":"container"}},"type":"Feature"},
	{"geometry":{"coordinates":[-122.314915,49.064886],"type":"Point"},"properties":{"osm_id":"4239544994","tag":{"amenity":"waste_basket"}},"type":"Feature"},
	{"geometry":{"coordinates":[-122.261611,49.048009],"type":"Point"},"properties":{"osm_id":"4274710943","tag":{"amenity":"waste_basket"}},"type":"Feature"},
	{"geometry":{"coordinates":[-122.261178,49.048244],"type":"Point"},"properties":{"osm_id":"4274710945","tag":{"amenity":"waste_basket"}},"type":"Feature"},
	{"geometry":{"coordinates":[-122.307215,49.043447],"type":"Point"},"properties":{"osm_id":"4283513791","tag":{"amenity":"waste_basket"}},"type":"Feature"},
	{"geometry":{"coordinates":[-122.324901,49.050114],"type":"Point"},"properties":{"osm_id":"4286963993","tag":{"amenity":"waste_basket"}},"type":"Feature"},
	{"geometry":{"coordinates":[-122.325346,49.050095],"type":"Point"},"properties":{"osm_id":"4286985090","tag":{"amenity":"recycling","amenity:waste_basket":"yes","recycling:cans":"yes","recycling:glass_bottles":"yes","recycling:paper":"yes","recycling_type":"container"}},"type":"Feature"},
	{"geometry":{"coordinates":[-122.325398,49.050069],"type":"Point"},"properties":{"osm_id":"4287008990","tag":{"amenity":"waste_basket"}},"type":"Feature"},
	{"geometry":{"coordinates":[-122.323916,49.049671],"type":"Point"},"properties":{"osm_id":"4287014589","tag":{"amenity":"waste_basket"}},"type":"Feature"},
	{"geometry":{"coordinates":[-122.323945,49.049834],"type":"Point"},"properties":{"osm_id":"4287014789","tag":{"amenity":"recycling","amenity:waste_basket":"yes","recycling:cans":"yes","recycling:glass_bottles":"yes","recycling:paper":"yes","recycling_type":"container"}},"type":"Feature"},
	{"geometry":{"coordinates":[-122.324521,49.050099],"type":"Point"},"properties":{"osm_id":"4287014989","tag":{"amenity":"recycling","amenity:waste_basket":"yes","recycling:cans":"yes","recycling:glass_bottles":"yes","recycling:paper":"yes","recycling_type":"container"}},"type":"Feature"},
	{"geometry":{"coordinates":[-122.329513,49.048185],"type":"Point"},"properties":{"osm_id":"4293742415","tag":{"amenity":"waste_basket"}},"type":"Feature"},
	{"geometry":{"coordinates":[-122.317884,49.043104],"type":"Point"},"properties":{"osm_id":"4312790709","tag":{"amenity":"waste_basket"}},"type":"Feature"},
	{"geometry":{"coordinates":[-122.311969,49.046231],"type":"Point"},"properties":{"osm_id":"4312790713","tag":{"amenity":"waste_basket"}},"type":"Feature"},
	{"geometry":{"coordinates":[-122.30722,49.047059],"type":"Point"},"properties":{"osm_id":"4312790719","tag":{"amenity":"recycling","recycling:cans":"no","recycling:glass":"no","recycling_type":"container"}},"type":"Feature"},
	{"geometry":{"coordinates":[-122.31198,49.046526],"type":"Point"},"properties":{"osm_id":"4312807102","tag":{"amenity":"recycling","recycling:cans":"no","recycling:glass":"no","recycling_type":"container"}},"type":"Feature"},
	{"geometry":{"coordinates":[-122.313161,49.046205],"type":"Point"},"properties":{"osm_id":"4312807103","tag":{"amenity":"waste_basket"}},"type":"Feature"},
	{"geometry":{"coordinates":[-122.313126,49.046217],"type":"Point"},"properties":{"osm_id":"4312917193","tag":{"amenity":"recycling","recycling:cans":"no","recycling:glass":"no","recycling_type":"container"}},"type":"Feature"},
	{"geometry":{"coordinates":[-122.306009,49.044888],"type":"Point"},"properties":{"osm_id":"4312917196","tag":{"amenity":"waste_basket"}},"type":"Feature"},
	{"geometry":{"coordinates":[-122.311951,49.046237],"type":"Point"},"properties":{"osm_id":"4312918297","tag":{"amenity":"recycling","recycling:cans":"no","recycling:glass":"no","recycling_type":"container"}},"type":"Feature"},
	{"geometry":{"coordinates":[-122.317879,49.043107],"type":"Point"},"properties":{"osm_id":"4312927695","tag":{"amenity":"recycling","recycling:cans":"yes","recycling:glass_bottles":"yes","recycling_type":"container"}},"type":"Feature"},
	{"geometry":{"coordinates":[-122.307225,49.04705],"type":"Point"},"properties":{"osm_id":"4312953791","tag":{"amenity":"waste_basket"}},"type":"Feature"},
	{"geometry":{"coordinates":[-122.306005,49.044902],"type":"Point"},"properties":{"osm_id":"4312953793","tag":{"amenity":"recycling","recycling:cans":"yes","recycling:glass_bottles":"yes","recycling_type":"container"}},"type":"Feature"},
	{"geometry":{"coordinates":[-122.311999,49.046523],"type":"Point"},"properties":{"osm_id":"4312955389","tag":{"amenity":"waste_basket"}},"type":"Feature"},
	{"geometry":{"coordinates":[-122.305721,49.04538],"type":"Point"},"properties":{"osm_id":"4324240710","tag":{"amenity":"waste_basket"}},"type":"Feature"},
	{"geometry":{"coordinates":[-122.3057,49.045382],"type":"Point"},"properties":{"osm_id":"4324320192","tag":{"amenity":"recycling","recycling_type":"container"}},"type":"Feature"},
	{"geometry":{"coordinates":[-122.309501,49.042621],"type":"Point"},"properties":{"osm_id":"4324320196","tag":{"amenity":"recycling","recycling_type":"container"}},"type":"Feature"},
	{"geometry":{"coordinates":[-122.309501,49.042613],"type":"Point"},"properties":{"osm_id":"4324429590","tag":{"amenity":"waste_basket"}},"type":"Feature"},
	{"geometry":{"coordinates":[-122.309802,49.042903],"type":"Point"},"properties":{"osm_id":"4324456491","tag":{"amenity":"recycling","recycling_type":"container"}},"type":"Feature"},
	{"geometry":{"coordinates":[-122.310746,49.042798],"type":"Point"},"properties":{"osm_id":"4324456492","tag":{"amenity":"waste_basket"}},"type":"Feature"},
	{"geometry":{"coordinates":[-122.30981,49.042898],"type":"Point"},"properties":{"osm_id":"4324456689","tag":{"amenity":"waste_basket"}},"type":"Feature"},
	{"geometry":{"coordinates":[-122.310746,49.042803],"type":"Point"},"properties":{"osm_id":"4324456790","tag":{"amenity":"recycling","recycling_type":"container"}},"type":"Feature"},
	{"geometry":{"coordinates":[-122.338053,49.068776],"type":"Point"},"properties":{"osm_id":"4340650731","tag":{"amenity":"waste_basket"}},"type":"Feature"},
	{"geometry":{"coordinates":[-122.307991,49.064164],"type":"Point"},"properties":{"osm_id":"4359427488","tag":{"amenity":"waste_basket"}},"type":"Feature"},
	{"geometry":{"coordinates":[-122.317348,49.043378],"type":"Point"},"properties":{"osm_id":"4359712819","tag":{"amenity":"waste_basket"}},"type":"Feature"},
	{"geometry":{"coordinates":[-122.316983,49.043819],"type":"Point"},"properties":{"osm_id":"4363453492","tag":{"amenity":"waste_basket"}},"type":"Feature"},
	{"geometry":{"coordinates":[-122.317243,49.043461],"type":"Point"},"properties":{"osm_id":"4363454491","tag":{"amenity":"recycling","recycling:cans":"yes","recycling:glass_bottles":"yes","recycling_type":"container"}},"type":"Feature"},
	{"geometry":{"coordinates":[-122.316852,49.043973],"type":"Point"},"properties":{"osm_id":"4363454492","tag":{"amenity":"recycling","recycling:cans":"yes","recycling:glass_bottles":"yes","recycling_type":"container"}},"type":"Feature"},
	{"geometry":{"coordinates":[-122.317094,49.043869],"type":"Point"},"properties":{"osm_id":"4363553097","tag":{"amenity":"waste_basket"}},"type":"Feature"},
	{"geometry":{"coordinates":[-122.317104,49.043869],"type":"Point"},"properties":{"osm_id":"4363553098","tag":{"amenity":"recycling","recycling:cans":"yes","recycling:glass_bottles":"yes","recycling_type":"container"}},"type":"Feature"},
	{"geometry":{"coordinates":[-122.316863,49.043968],"type":"Point"},"properties":{"osm_id":"4363582290","tag":{"amenity":"waste_basket"}},"type":"Feature"},
	{"geometry":{"coordinates":[-122.309654,49.043403],"type":"Point"},"properties":{"osm_id":"4363795594","tag":{"amenity":"waste_basket"}},"type":"Feature"},
	{"geometry":{"coordinates":[-122.309669,49.043414],"type":"Point"},"properties":{"osm_id":"4363795595","tag":{"amenity":"recycling","recycling_type":"container"}},"type":"Feature"},
	{"geometry":{"coordinates":[-122.315421,49.045137],"type":"Point"},"properties":{"osm_id":"4376697392","tag":{"amenity":"waste_basket"}},"type":"Feature"},
	{"geometry":{"coordinates":[-122.315428,49.045128],"type":"Point"},"properties":{"osm_id":"4377214189","tag":{"amenity":"recycling","recycling:cans":"yes","recycling:glass_bottles":"yes","recycling_type":"container"}},"type":"Feature"},
	{"geometry":{"coordinates":[-122.316595,49.04326],"type":"Point"},"properties":{"osm_id":"4379702893","tag":{"amenity":"waste_basket"}},"type":"Feature"},
	{"geometry":{"coordinates":[-122.3157,49.042874],"type":"Point"},"properties":{"osm_id":"4379703091","tag":{"amenity":"waste_basket"}},"type":"Feature"},
	{"geometry":{"coordinates":[-122.315761,49.04312],"type":"Point"},"properties":{"osm_id":"4379703190","tag":{"amenity":"recycling","recycling:cans":"yes","recycling:glass_bottles":"yes","recycling_type":"container"}},"type":"Feature"},
	{"geometry":{"coordinates":[-122.316606,49.04325],"type":"Point"},"properties":{"osm_id":"4379703293","tag":{"amenity":"recycling","recycling:cans":"yes","recycling:glass_bottles":"yes","recycling_type":"container"}},"type":"Feature"},
	{"geometry":{"coordinates":[-122.315751,49.043125],"type":"Point"},"properties":{"osm_id":"4379723889","tag":{"amenity":"waste_basket"}},"type":"Feature"},
	{"geometry":{"coordinates":[-122.309505,49.045544],"type":"Point"},"properties":{"osm_id":"4379834293","tag":{"amenity":"waste_basket"}},"type":"Feature"},
	{"geometry":{"coordinates":[-122.309503,49.045538],"type":"Point"},"properties":{"osm_id":"4379936189","tag":{"amenity":"recycling","recycling:cans":"no","recycling:glass":"no","recycling_type":"container"}},"type":"Feature"},
	{"geometry":{"coordinates":[-122.305148,49.044325],"type":"Point"},"properties":{"osm_id":"4388476996","tag":{"amenity":"waste_basket"}},"type":"Feature"},
	{"geometry":{"coordinates":[-122.305147,49.044334],"type":"Point"},"properties":{"osm_id":"4388476997","tag":{"amenity":"recycling","recycling_type":"container"}},"type":"Feature"},
	{"geometry":{"coordinates":[-122.306021,49.044134],"type":"Point"},"properties":{"osm_id":"4388477192","tag":{"amenity":"waste_basket"}},"type":"Feature"},
	{"geometry":{"coordinates":[-122.305544,49.044099],"type":"Point"},"properties":{"osm_id":"4388477391","tag":{"amenity":"waste_basket"}},"type":"Feature"},
	{"geometry":{"coordinates":[-122.305148,49.044343],"type":"Point"},"properties":{"osm_id":"4388493789","tag":{"amenity":"waste_basket"}},"type":"Feature"},
	{"geometry":{"coordinates":[-122.315471,49.050775],"type":"Point"},"properties":{"osm_id":"4396687652","tag":{"amenity":"waste_basket"}},"type":"Feature"},
	{"geometry":{"coordinates":[-122.313574,49.042961],"type":"Point"},"properties":{"osm_id":"4446937889","tag":{"amenity":"waste_basket"}},"type":"Feature"},
	{"geometry":{"coordinates":[-122.305302,49.043507],"type":"Point"},"properties":{"osm_id":"4459448589","tag":{"amenity":"waste_basket"}},"type":"Feature"},
	{"geometry":{"coordinates":[-122.335672,49.058236],"type":"Point"},"properties":{"osm_id":"4461173430","tag":{"amenity":"waste_basket"}},"type":"Feature"},
	{"geometry":{"coordinates":[-122.313569,49.050049],"type":"Point"},"properties":{"osm_id":"4505547991","tag":{"amenity":"waste_basket"}},"type":"Feature"},
	{"geometry":{"coordinates":[-122.317019,49.054544],"type":"Point"},"properties":{"osm_id":"4532947691","tag":{"amenity":"recycling","level":"0","recycling:books":"yes","recycling:clothes":"yes","recycling:shoes":"yes","recycling_type":"container"}},"type":"Feature"},
	{"geometry":{"coordinates":[-122.319152,49.044607],"type":"Point"},"properties":{"osm_id":"4548417789","tag":{"amenity":"recycling","recycling_type":"container"}},"type":"Feature"},
	{"geometry":{"coordinates":[-122.338774,49.050125],"type":"Point"},"properties":{"osm_id":"4562013796","tag":{"amenity":"waste_basket"}},"type":"Feature"},
	{"geometry":{"coordinates":[-122.338603,49.049596],"type":"Point"},"properties":{"osm_id":"4562013797","tag":{"amenity":"waste_basket"}},"type":"Feature"},
	{"geometry":{"coordinates":[-122.339824,49.049028],"type":"Point"},"properties":{"osm_id":"4562013798","tag":{"amenity":"waste_basket"}},"type":"Feature"},
	{"geometry":{"coordinates":[-122.339091,49.049859],"type":"Point"},"properties":{"osm_id":"4562014093","tag":{"amenity":"waste_basket"}},"type":"Feature"},
	{"geometry":{"coordinates":[-122.337942,49.050122],"type":"Point"},"properties":{"osm_id":"4562072689","tag":{"amenity":"waste_basket"}},"type":"Feature"},
	{"geometry":{"coordinates":[-122.338535,49.049783],"type":"Point"},"properties":{"osm_id":"4562072789","tag":{"amenity":"waste_basket"}},"type":"Feature"},
	{"geometry":{"coordinates":[-122.333301,49.067549],"type":"Point"},"properties":{"osm_id":"4595532795","tag":{"amenity":"waste_basket"}},"type":"Feature"},
	{"geometry":{"coordinates":[-122.336364,49.069508],"type":"Point"},"properties":{"osm_id":"4595556504","tag":{"amenity":"recycling","recycling_type":"container"}},"type":"Feature"},
	{"geometry":{"coordinates":[-122.336358,49.069521],"type":"Point"},"properties":{"osm_id":"4595556505","tag":{"amenity":"waste_basket"}},"type":"Feature"},
	{"geometry":{"coordinates":[-122.33464,49.069987],"type":"Point"},"properties":{"osm_id":"4595556506","tag":{"amenity":"waste_basket"}},"type":"Feature"},
	{"geometry":{"coordinates":[-122.334269,49.069706],"type":"Point"},"properties":{"osm_id":"4595556507","tag":{"amenity":"waste_basket"}},"type":"Feature"},
	{"geometry":{"coordinates":[-122.33709,49.069025],"type":"Point"},"properties":{"osm_id":"4595556713","tag":{"amenity":"recycling","recycling_type":"container"}},"type":"Feature"},
	{"geometry":{"coordinates":[-122.337083,49.069036],"type":"Point"},"properties":{"osm_id":"4595556714","tag":{"amenity":"waste_basket"}},"type":"Feature"},
	{"geometry":{"coordinates":[-122.336989,49.068847],"type":"Point"},"properties":{"osm_id":"4595556715","tag":{"amenity":"waste_basket"}},"type":"Feature"},
	{"geometry":{"coordinates":[-122.334834,49.070045],"type":"Point"},"properties":{"osm_id":"4595556717","tag":{"amenity":"waste_basket"}},"type":"Feature"},
	{"geometry":{"coordinates":[-122.334656,49.069835],"type":"Point"},"properties":{"osm_id":"4595560501","tag":{"amenity":"waste_basket"}},"type":"Feature"},
	{"geometry":{"coordinates":[-122.334203,49.069805],"type":"Point"},"properties":{"osm_id":"4595560502","tag":{"amenity":"waste_basket"}},"type":"Feature"},
	{"geometry":{"coordinates":[-122.333982,49.069796],"type":"Point"},"properties":{"osm_id":"4595560503","tag":{"amenity":"waste_basket"}},"type":"Feature"},
	{"geometry":{"coordinates":[-122.336432,49.069252],"type":"Point"},"properties":{"osm_id":"4595569994","tag":{"amenity":"recycling","recycling_type":"container"}},"type":"Feature"},
	{"geometry":{"coordinates":[-122.272941,49.057263],"type":"Point"},"properties":{"osm_id":"4600861391","tag":{"amenity":"waste_basket"}},"type":"Feature"},
	{"geometry":{"coordinates":[-122.273607,49.05697],"type":"Point"},"properties":{"osm_id":"4600861394","tag":{"amenity":"recycling","recycling:clothes":"yes","recycling_type":"container"}},"type":"Feature"},
	{"geometry":{"coordinates":[-122.273359,49.05686],"type":"Point"},"properties":{"osm_id":"4600997091","tag":{"amenity":"waste_basket"}},"type":"Feature"},
	{"geometry":{"coordinates":[-122.298884,49.045278],"type":"Point"},"properties":{"osm_id":"4895030122","tag":{"amenity":"waste_basket"}},"type":"Feature"},
	{"geometry":{"coordinates":[-122.285403,49.047919],"type":"Point"},"properties":{"osm_id":"4899710952","tag":{"amenity":"recycling","recycling:books":"yes","recycling:clothes":"yes","recycling:furniture":"yes","recycling_type":"centre"}},"type":"Feature"},
	{"geometry":{"coordinates":[-122.259799,49.082109],"type":"Point"},"properties":{"osm_id":"5043734349","tag":{"amenity":"waste_basket"}},"type":"Feature"},
	{"geometry":{"coordinates":[-122.322995,49.04993],"type":"Point"},"properties":{"osm_id":"5157153522","tag":{"amenity":"recycling","amenity:recycling":"yes","amenity:waste_basket":"yes","recycling:cans":"yes","recycling:glass_bottles":"yes","recycling:paper":"yes","recycling_type":"container"}},"type":"Feature"},
	{"geometry":{"coordinates":[-122.326828,49.050985],"type":"Point"},"properties":{"osm_id":"5157153525","tag":{"amenity":"waste_basket"}},"type":"Feature"},
	{"geometry":{"coordinates":[-122.308823,49.048339],"type":"Point"},"properties":{"osm_id":"5223040221","tag":{"amenity":"waste_basket"}},"type":"Feature"},
	{"geometry":{"coordinates":[-122.316902,49.045184],"type":"Point"},"properties":{"osm_id":"5324121382","tag":{"amenity":"recycling","recycling_type":"container"}},"type":"Feature"},
	{"geometry":{"coordinates":[-122.316934,49.045189],"type":"Point"},"properties":{"osm_id":"5324161825","tag":{"amenity":"waste_basket"}},"type":"Feature"},
	{"geometry":{"coordinates":[-122.290521,49.04879],"type":"Point"},"properties":{"osm_id":"5795072954","tag":{"amenity":"waste_basket"}},"type":"Feature"},
	{"geometry":{"coordinates":[-122.291494,49.048394],"type":"Point"},"properties":{"osm_id":"5795073553","tag":{"amenity":"waste_basket"}},"type":"Feature"},
	{"geometry":{"coordinates":[-122.293342,49.046743],"type":"Point"},"properties":{"osm_id":"6029446940","tag":{"amenity":"waste_basket"}},"type":"Feature"},
	{"geometry":{"coordinates":[-122.263443,49.073872],"type":"Point"},"properties":{"osm_id":"6449405287","tag":{"amenity":"waste_basket"}},"type":"Feature"},
	{"geometry":{"coordinates":[-122.280137,49.07437],"type":"Point"},"properties":{"osm_id":"6450850710","tag":{"amenity":"waste_basket"}},"type":"Feature"},
	{"geometry":{"coordinates":[-122.292664,49.047896],"type":"Point"},"properties":{"osm_id":"6689929176","tag":{"amenity":"waste_basket"}},"type":"Feature"},
	{"geometry":{"coordinates":[-122.2929,49.047768],"type":"Point"},"properties":{"osm_id":"6689950890","tag":{"amenity":"waste_basket"}},"type":"Feature"},
	{"geometry":{"coordinates":[-122.292356,49.048056],"type":"Point"},"properties":{"osm_id":"6689950903","tag":{"amenity":"waste_basket"}},"type":"Feature"},
	{"geometry":{"coordinates":[-122.293276,49.047654],"type":"Point"},"properties":{"osm_id":"6689950963","tag":{"amenity":"waste_basket"}},"type":"Feature"},
	{"geometry":{"coordinates":[-122.312858,49.04883],"type":"Point"},"properties":{"name":"Comingled recycling","osm_id":"6960072722","tag":{"amenity":"recycling","recycling_type":"container"}},"type":"Feature"},
	{"geometry":{"coordinates":[-122.329325,49.053354],"type":"Point"},"properties":{"osm_id":"7392440988","tag":{"amenity":"waste_basket"}},"type":"Feature"},
	{"geometry":{"coordinates":[-122.328684,49.054279],"type":"Point"},"properties":{"osm_id":"7392440993","tag":{"amenity":"waste_basket"}},"type":"Feature"}
]
}
