{
"type": "FeatureCollection",
"lastupdate": "2020-07-31T00:00:00Z",
"features": [
	{"geometry":{"coordinates":[-122.327576,47.81949],"type":"Point"},"properties":{"name":"Horticulture Bulk Soil / Compost","osm_id":"3518111671","tag":{"amenity":"recycling","recycling_type":"container"}},"type":"Feature"},
	{"geometry":{"coordinates":[-122.276684,47.824067],"type":"Point"},"properties":{"osm_id":"5154501028","tag":{"amenity":"waste_basket"}},"type":"Feature"},
	{"geometry":{"coordinates":[-122.276687,47.824221],"type":"Point"},"properties":{"osm_id":"5154501030","tag":{"amenity":"waste_basket"}},"type":"Feature"},
	{"geometry":{"coordinates":[-122.275781,47.824635],"type":"Point"},"properties":{"osm_id":"5154501031","tag":{"amenity":"waste_basket"}},"type":"Feature"},
	{"geometry":{"coordinates":[-122.276667,47.823689],"type":"Point"},"properties":{"osm_id":"5154501032","tag":{"amenity":"waste_basket"}},"type":"Feature"},
	{"geometry":{"coordinates":[-122.275202,47.824626],"type":"Point"},"properties":{"osm_id":"5154501033","tag":{"amenity":"waste_basket"}},"type":"Feature"},
	{"geometry":{"coordinates":[-122.276644,47.824453],"type":"Point"},"properties":{"osm_id":"5154501034","tag":{"amenity":"waste_basket"}},"type":"Feature"},
	{"geometry":{"coordinates":[-122.274899,47.824634],"type":"Point"},"properties":{"osm_id":"5154501035","tag":{"amenity":"waste_basket"}},"type":"Feature"},
	{"geometry":{"coordinates":[-122.276149,47.824635],"type":"Point"},"properties":{"osm_id":"5154501036","tag":{"amenity":"waste_basket"}},"type":"Feature"},
	{"geometry":{"coordinates":[-122.276477,47.824593],"type":"Point"},"properties":{"osm_id":"5154501037","tag":{"amenity":"waste_basket"}},"type":"Feature"},
	{"geometry":{"coordinates":[-122.266664,47.832942],"type":"Point"},"properties":{"osm_id":"5154549616","tag":{"amenity":"waste_basket"}},"type":"Feature"},
	{"geometry":{"coordinates":[-122.266651,47.832725],"type":"Point"},"properties":{"osm_id":"5154549620","tag":{"amenity":"waste_basket"}},"type":"Feature"},
	{"geometry":{"coordinates":[-122.268091,47.833259],"type":"Point"},"properties":{"osm_id":"5154550021","tag":{"amenity":"waste_basket"}},"type":"Feature"},
	{"geometry":{"coordinates":[-122.267667,47.833261],"type":"Point"},"properties":{"osm_id":"5154550022","tag":{"amenity":"waste_basket"}},"type":"Feature"},
	{"geometry":{"coordinates":[-122.267156,47.833263],"type":"Point"},"properties":{"osm_id":"5154550023","tag":{"amenity":"waste_basket"}},"type":"Feature"},
	{"geometry":{"coordinates":[-122.266814,47.833268],"type":"Point"},"properties":{"osm_id":"5154550024","tag":{"amenity":"waste_basket"}},"type":"Feature"},
	{"geometry":{"coordinates":[-122.276581,47.823568],"type":"Point"},"properties":{"osm_id":"6086676983","tag":{"amenity":"waste_basket"}},"type":"Feature"}
]
}
