{
"type": "FeatureCollection",
"features": [
	{"geometry":{"coordinates":[-122.292688,47.788938],"type":"Point"},"properties":{"highway":"turning_circle","osm_id":"50710808"},"type":"Feature"},
	{"geometry":{"coordinates":[-122.293549,47.808634],"type":"Point"},"properties":{"highway":"turning_circle","osm_id":"50710822"},"type":"Feature"},
	{"geometry":{"coordinates":[-122.269982,47.789743],"type":"Point"},"properties":{"highway":"turning_circle","osm_id":"50783213"},"type":"Feature"},
	{"geometry":{"coordinates":[-122.291991,47.789677],"type":"Point"},"properties":{"highway":"stop","osm_id":"2297382361"},"type":"Feature"},
	{"geometry":{"coordinates":[-122.292285,47.78973],"type":"Point"},"properties":{"highway":"stop","osm_id":"4115275011"},"type":"Feature"},
	{"geometry":{"coordinates":[-122.313536,47.754246],"type":"Point"},"properties":{"osm_id":"4449772691","tag":{"amenity":"waste_basket"}},"type":"Feature"},
	{"geometry":{"coordinates":[-122.313297,47.754233],"type":"Point"},"properties":{"osm_id":"4449871094","tag":{"amenity":"waste_basket"}},"type":"Feature"},
	{"geometry":{"coordinates":[-122.313299,47.754492],"type":"Point"},"properties":{"osm_id":"4449871095","tag":{"amenity":"waste_basket"}},"type":"Feature"},
	{"geometry":{"coordinates":[-122.319199,47.762706],"type":"Point"},"properties":{"osm_id":"4449972088","tag":{"amenity":"waste_disposal"}},"type":"Feature"},
	{"geometry":{"coordinates":[-122.316312,47.805628],"type":"Point"},"properties":{"name":"Southwest Recycling Center","osm_id":"5217490730","tag":{"amenity":"recycling","recycling_type":"centre","website":"http://www.cityofmlt.com/1728/Southwest-Transfer-Recycling-Station"}},"type":"Feature"},
	{"geometry":{"coordinates":[-122.332419,47.761042],"type":"Point"},"properties":{"osm_id":"5301342707","tag":{"amenity":"waste_basket"}},"type":"Feature"},
	{"geometry":{"coordinates":[-122.332425,47.759696],"type":"Point"},"properties":{"osm_id":"5301342708","tag":{"amenity":"waste_basket"}},"type":"Feature"},
	{"geometry":{"coordinates":[-122.333935,47.758838],"type":"Point"},"properties":{"osm_id":"5301342712","tag":{"amenity":"waste_basket"}},"type":"Feature"},
	{"geometry":{"coordinates":[-122.263615,47.758516],"type":"Point"},"properties":{"osm_id":"5767154599","tag":{"amenity":"recycling","recycling:clothes":"yes","recycling:shoes":"yes","recycling_type":"container"}},"type":"Feature"},
	{"geometry":{"coordinates":[-122.262432,47.758542],"type":"Point"},"properties":{"osm_id":"5767154602","tag":{"amenity":"recycling","recycling:clothes":"yes","recycling:shoes":"yes","recycling_type":"container"}},"type":"Feature"},
	{"geometry":{"coordinates":[-122.263476,47.758438],"type":"Point"},"properties":{"osm_id":"5767154609","tag":{"amenity":"waste_basket"}},"type":"Feature"},
	{"geometry":{"coordinates":[-122.32707,47.764451],"type":"Point"},"properties":{"osm_id":"6767939155","tag":{"amenity":"waste_basket"}},"type":"Feature"}
]
}
