{
"type": "FeatureCollection",
"features": [
	{"geometry":{"coordinates":[-122.324103,47.702013],"type":"Point"},"properties":{"osm_id":"434680675","tag":{"amenity":"waste_basket"}},"type":"Feature"},
	{"geometry":{"coordinates":[-122.317906,47.736551],"type":"Point"},"properties":{"osm_id":"2551837251","tag":{"amenity":"waste_basket"}},"type":"Feature"},
	{"geometry":{"coordinates":[-122.294877,47.720129],"type":"Point"},"properties":{"osm_id":"3618565293","tag":{"amenity":"waste_basket"}},"type":"Feature"},
	{"geometry":{"coordinates":[-122.294471,47.72079],"type":"Point"},"properties":{"osm_id":"3618565294","tag":{"amenity":"recycling","recycling_type":"container"}},"type":"Feature"},
	{"geometry":{"coordinates":[-122.294455,47.720811],"type":"Point"},"properties":{"osm_id":"3618568693","tag":{"amenity":"waste_basket"}},"type":"Feature"},
	{"geometry":{"coordinates":[-122.294124,47.720924],"type":"Point"},"properties":{"osm_id":"3618568793","tag":{"amenity":"waste_basket"}},"type":"Feature"},
	{"geometry":{"coordinates":[-122.324747,47.702522],"type":"Point"},"properties":{"osm_id":"3699247156","tag":{"amenity":"waste_basket"}},"type":"Feature"},
	{"geometry":{"coordinates":[-122.32952,47.737907],"type":"Point"},"properties":{"osm_id":"3729768225","tag":{"amenity":"waste_basket"}},"type":"Feature"},
	{"geometry":{"coordinates":[-122.329248,47.739224],"type":"Point"},"properties":{"osm_id":"3729768326","tag":{"amenity":"waste_basket"}},"type":"Feature"},
	{"geometry":{"coordinates":[-122.330359,47.740036],"type":"Point"},"properties":{"osm_id":"3729793225","tag":{"amenity":"waste_basket"}},"type":"Feature"},
	{"geometry":{"coordinates":[-122.329892,47.74029],"type":"Point"},"properties":{"osm_id":"3729793326","tag":{"amenity":"waste_basket"}},"type":"Feature"},
	{"geometry":{"coordinates":[-122.330159,47.740494],"type":"Point"},"properties":{"osm_id":"3729793327","tag":{"amenity":"waste_basket"}},"type":"Feature"},
	{"geometry":{"coordinates":[-122.330141,47.740467],"type":"Point"},"properties":{"osm_id":"3729793425","tag":{"amenity":"recycling","recycling_type":"container"}},"type":"Feature"},
	{"geometry":{"coordinates":[-122.330149,47.740919],"type":"Point"},"properties":{"osm_id":"3729793427","tag":{"amenity":"waste_basket"}},"type":"Feature"},
	{"geometry":{"coordinates":[-122.320667,47.740519],"type":"Point"},"properties":{"osm_id":"3729917026","tag":{"amenity":"waste_basket"}},"type":"Feature"},
	{"geometry":{"coordinates":[-122.292981,47.724274],"type":"Point"},"properties":{"osm_id":"4350360794","tag":{"amenity":"recycling","recycling:clothes":"yes","recycling_type":"container"}},"type":"Feature"},
	{"geometry":{"coordinates":[-122.292932,47.724271],"type":"Point"},"properties":{"osm_id":"4350360891","tag":{"amenity":"waste_basket"}},"type":"Feature"},
	{"geometry":{"coordinates":[-122.293337,47.724331],"type":"Point"},"properties":{"osm_id":"4350371889","tag":{"amenity":"waste_basket"}},"type":"Feature"},
	{"geometry":{"coordinates":[-122.293041,47.724449],"type":"Point"},"properties":{"osm_id":"4350371989","tag":{"amenity":"waste_basket"}},"type":"Feature"},
	{"geometry":{"coordinates":[-122.32461,47.708776],"type":"Point"},"properties":{"osm_id":"4513064059","tag":{"amenity":"waste_basket"}},"type":"Feature"},
	{"geometry":{"coordinates":[-122.324588,47.708974],"type":"Point"},"properties":{"osm_id":"4513064060","tag":{"amenity":"waste_basket"}},"type":"Feature"},
	{"geometry":{"coordinates":[-122.324606,47.708913],"type":"Point"},"properties":{"osm_id":"4513064061","tag":{"amenity":"waste_basket"}},"type":"Feature"},
	{"geometry":{"coordinates":[-122.324501,47.708936],"type":"Point"},"properties":{"osm_id":"4513064062","tag":{"amenity":"waste_basket"}},"type":"Feature"},
	{"geometry":{"coordinates":[-122.325416,47.702424],"type":"Point"},"properties":{"osm_id":"4551711317","tag":{"amenity":"waste_basket"}},"type":"Feature"},
	{"geometry":{"coordinates":[-122.324785,47.702707],"type":"Point"},"properties":{"osm_id":"4551715415","tag":{"amenity":"waste_basket"}},"type":"Feature"},
	{"geometry":{"coordinates":[-122.324977,47.702834],"type":"Point"},"properties":{"osm_id":"4551715418","tag":{"amenity":"waste_basket"}},"type":"Feature"},
	{"geometry":{"coordinates":[-122.324561,47.702785],"type":"Point"},"properties":{"osm_id":"4551715419","tag":{"amenity":"waste_basket"}},"type":"Feature"},
	{"geometry":{"coordinates":[-122.325077,47.702512],"type":"Point"},"properties":{"osm_id":"4551715420","tag":{"amenity":"waste_basket"}},"type":"Feature"},
	{"geometry":{"coordinates":[-122.32508,47.702727],"type":"Point"},"properties":{"osm_id":"4551715422","tag":{"amenity":"waste_basket"}},"type":"Feature"},
	{"geometry":{"coordinates":[-122.324621,47.702579],"type":"Point"},"properties":{"osm_id":"4551715425","tag":{"amenity":"waste_basket"}},"type":"Feature"},
	{"geometry":{"coordinates":[-122.325652,47.702313],"type":"Point"},"properties":{"osm_id":"4551716688","tag":{"amenity":"waste_basket"}},"type":"Feature"},
	{"geometry":{"coordinates":[-122.326975,47.705582],"type":"Point"},"properties":{"osm_id":"4551733031","tag":{"amenity":"waste_basket"}},"type":"Feature"},
	{"geometry":{"coordinates":[-122.326457,47.705955],"type":"Point"},"properties":{"osm_id":"4551733032","tag":{"amenity":"waste_basket"}},"type":"Feature"},
	{"geometry":{"coordinates":[-122.325366,47.70242],"type":"Point"},"properties":{"osm_id":"4960763206","tag":{"amenity":"recycling","recycling_type":"container"}},"type":"Feature"},
	{"geometry":{"coordinates":[-122.325036,47.702507],"type":"Point"},"properties":{"osm_id":"4960763207","tag":{"amenity":"recycling","recycling_type":"container"}},"type":"Feature"},
	{"geometry":{"coordinates":[-122.322619,47.705997],"type":"Point"},"properties":{"osm_id":"4972771017","tag":{"amenity":"waste_basket"}},"type":"Feature"},
	{"geometry":{"coordinates":[-122.262916,47.72925],"type":"Point"},"properties":{"osm_id":"5472147198","tag":{"amenity":"waste_basket","waste":"trash"}},"type":"Feature"},
	{"geometry":{"coordinates":[-122.339207,47.698745],"type":"Point"},"properties":{"osm_id":"5575027193","tag":{"amenity":"waste_basket"}},"type":"Feature"},
	{"geometry":{"coordinates":[-122.338379,47.697821],"type":"Point"},"properties":{"osm_id":"5575027198","tag":{"amenity":"waste_basket"}},"type":"Feature"},
	{"geometry":{"coordinates":[-122.339219,47.69841],"type":"Point"},"properties":{"osm_id":"5575027200","tag":{"amenity":"waste_basket"}},"type":"Feature"},
	{"geometry":{"coordinates":[-122.322424,47.70587],"type":"Point"},"properties":{"osm_id":"5581525006","tag":{"amenity":"waste_basket"}},"type":"Feature"},
	{"geometry":{"coordinates":[-122.322453,47.705869],"type":"Point"},"properties":{"osm_id":"5581525007","tag":{"amenity":"recycling","recycling_type":"container"}},"type":"Feature"},
	{"geometry":{"coordinates":[-122.322652,47.705872],"type":"Point"},"properties":{"osm_id":"5581525010","tag":{"amenity":"waste_basket"}},"type":"Feature"},
	{"geometry":{"coordinates":[-122.276389,47.75338],"type":"Point"},"properties":{"osm_id":"6285193239","tag":{"amenity":"waste_basket"}},"type":"Feature"},
	{"geometry":{"coordinates":[-122.276433,47.753323],"type":"Point"},"properties":{"osm_id":"6285193241","tag":{"amenity":"waste_basket"}},"type":"Feature"},
	{"geometry":{"coordinates":[-122.277186,47.753047],"type":"Point"},"properties":{"osm_id":"6285193244","tag":{"amenity":"waste_basket"}},"type":"Feature"},
	{"geometry":{"coordinates":[-122.323679,47.700808],"type":"Point"},"properties":{"name":"Kaiser Permanente Pharmacy Northgate","osm_id":"6290121454","tag":{"amenity":"waste_basket","waste_disposal":"medicine"}},"type":"Feature"},
	{"geometry":{"coordinates":[-122.31058,47.733419],"type":"Point"},"properties":{"name":"QFC Pharmacy #858","osm_id":"6290127470","tag":{"amenity":"waste_basket","waste_disposal":"medicine"}},"type":"Feature"},
	{"geometry":{"coordinates":[-122.317229,47.709282],"type":"Point"},"properties":{"name":"QFC Pharmacy #866","osm_id":"6290141118","tag":{"amenity":"waste_basket","waste_disposal":"medicine"}},"type":"Feature"},
	{"geometry":{"coordinates":[-122.337592,47.712664],"type":"Point"},"properties":{"name":"Northwest Prescriptions","osm_id":"6290142079","tag":{"amenity":"waste_basket","waste_disposal":"medicine"}},"type":"Feature"},
	{"geometry":{"coordinates":[-122.291728,47.723686],"type":"Point"},"properties":{"osm_id":"6669263854","tag":{"amenity":"waste_basket","waste":"trash"}},"type":"Feature"},
	{"geometry":{"coordinates":[-122.33798,47.699136],"type":"Point"},"properties":{"osm_id":"7698042969","tag":{"amenity":"waste_basket"}},"type":"Feature"}
]
}
