{
"type": "FeatureCollection",
"features": [
	{"geometry":{"coordinates":[-122.319923,47.686701],"type":"Point"},"properties":{"osm_id":"476157673","tag":{"amenity":"waste_basket"}},"type":"Feature"},
	{"geometry":{"coordinates":[-122.317696,47.683571],"type":"Point"},"properties":{"osm_id":"479473930","tag":{"amenity":"waste_basket"}},"type":"Feature"},
	{"geometry":{"coordinates":[-122.316961,47.654469],"type":"Point"},"properties":{"osm_id":"2620555504","tag":{"amenity":"waste_basket"}},"type":"Feature"},
	{"geometry":{"coordinates":[-122.312126,47.672223],"type":"Point"},"properties":{"osm_id":"3033578675","tag":{"amenity":"waste_basket"}},"type":"Feature"},
	{"geometry":{"coordinates":[-122.325279,47.675848],"type":"Point"},"properties":{"osm_id":"3040158033","tag":{"amenity":"waste_basket"}},"type":"Feature"},
	{"geometry":{"coordinates":[-122.325259,47.675847],"type":"Point"},"properties":{"osm_id":"3040158034","tag":{"amenity":"recycling"}},"type":"Feature"},
	{"geometry":{"coordinates":[-122.324576,47.680464],"type":"Point"},"properties":{"osm_id":"3746555425","tag":{"amenity":"waste_basket"}},"type":"Feature"},
	{"geometry":{"coordinates":[-122.33558,47.661471],"type":"Point"},"properties":{"osm_id":"3884010240","tag":{"amenity":"waste_basket"}},"type":"Feature"},
	{"geometry":{"coordinates":[-122.335345,47.661289],"type":"Point"},"properties":{"osm_id":"3884010241","tag":{"amenity":"waste_basket"}},"type":"Feature"},
	{"geometry":{"coordinates":[-122.326402,47.661282],"type":"Point"},"properties":{"osm_id":"3884051979","tag":{"amenity":"waste_basket"}},"type":"Feature"},
	{"geometry":{"coordinates":[-122.325393,47.66143],"type":"Point"},"properties":{"osm_id":"3884051981","tag":{"amenity":"waste_basket"}},"type":"Feature"},
	{"geometry":{"coordinates":[-122.321262,47.661493],"type":"Point"},"properties":{"osm_id":"3884051982","tag":{"amenity":"waste_basket"}},"type":"Feature"},
	{"geometry":{"coordinates":[-122.317972,47.661371],"type":"Point"},"properties":{"osm_id":"3884057830","tag":{"amenity":"waste_basket"}},"type":"Feature"},
	{"geometry":{"coordinates":[-122.3174,47.661208],"type":"Point"},"properties":{"osm_id":"3884057831","tag":{"amenity":"waste_basket"}},"type":"Feature"},
	{"geometry":{"coordinates":[-122.312208,47.656431],"type":"Point"},"properties":{"osm_id":"3884332793","tag":{"amenity":"waste_basket"}},"type":"Feature"},
	{"geometry":{"coordinates":[-122.312205,47.656503],"type":"Point"},"properties":{"osm_id":"3884332794","tag":{"amenity":"waste_basket"}},"type":"Feature"},
	{"geometry":{"coordinates":[-122.311925,47.655769],"type":"Point"},"properties":{"osm_id":"3884332796","tag":{"amenity":"waste_basket"}},"type":"Feature"},
	{"geometry":{"coordinates":[-122.311925,47.655712],"type":"Point"},"properties":{"osm_id":"3884332797","tag":{"amenity":"waste_basket"}},"type":"Feature"},
	{"geometry":{"coordinates":[-122.34081,47.682089],"type":"Point"},"properties":{"osm_id":"4253694101","tag":{"amenity":"waste_basket"}},"type":"Feature"},
	{"geometry":{"coordinates":[-122.339618,47.682316],"type":"Point"},"properties":{"osm_id":"4253704793","tag":{"amenity":"recycling","recycling_type":"container"}},"type":"Feature"},
	{"geometry":{"coordinates":[-122.339797,47.682417],"type":"Point"},"properties":{"osm_id":"4253707890","tag":{"amenity":"waste_basket"}},"type":"Feature"},
	{"geometry":{"coordinates":[-122.339412,47.682495],"type":"Point"},"properties":{"osm_id":"4253708890","tag":{"amenity":"recycling","recycling_type":"container"}},"type":"Feature"},
	{"geometry":{"coordinates":[-122.339805,47.682396],"type":"Point"},"properties":{"osm_id":"4253709091","tag":{"amenity":"recycling","recycling_type":"container"}},"type":"Feature"},
	{"geometry":{"coordinates":[-122.339323,47.683743],"type":"Point"},"properties":{"osm_id":"4253741091","tag":{"amenity":"waste_basket"}},"type":"Feature"},
	{"geometry":{"coordinates":[-122.336361,47.685395],"type":"Point"},"properties":{"osm_id":"4253741094","tag":{"amenity":"waste_basket"}},"type":"Feature"},
	{"geometry":{"coordinates":[-122.336664,47.685123],"type":"Point"},"properties":{"osm_id":"4253741291","tag":{"amenity":"waste_basket"}},"type":"Feature"},
	{"geometry":{"coordinates":[-122.338618,47.6848],"type":"Point"},"properties":{"osm_id":"4253743890","tag":{"amenity":"waste_basket"}},"type":"Feature"},
	{"geometry":{"coordinates":[-122.337728,47.685016],"type":"Point"},"properties":{"osm_id":"4253743892","tag":{"amenity":"waste_basket"}},"type":"Feature"},
	{"geometry":{"coordinates":[-122.336577,47.685344],"type":"Point"},"properties":{"osm_id":"4253743990","tag":{"amenity":"waste_basket"}},"type":"Feature"},
	{"geometry":{"coordinates":[-122.336879,47.685078],"type":"Point"},"properties":{"osm_id":"4253744089","tag":{"amenity":"waste_basket"}},"type":"Feature"},
	{"geometry":{"coordinates":[-122.337093,47.68499],"type":"Point"},"properties":{"osm_id":"4253744189","tag":{"amenity":"waste_basket"}},"type":"Feature"},
	{"geometry":{"coordinates":[-122.337314,47.685794],"type":"Point"},"properties":{"osm_id":"4253744390","tag":{"amenity":"waste_basket"}},"type":"Feature"},
	{"geometry":{"coordinates":[-122.340829,47.682082],"type":"Point"},"properties":{"osm_id":"4253776489","tag":{"amenity":"recycling","recycling_type":"container"}},"type":"Feature"},
	{"geometry":{"coordinates":[-122.305632,47.653449],"type":"Point"},"properties":{"osm_id":"4340533276","tag":{"amenity":"recycling","recycling_type":"container"}},"type":"Feature"},
	{"geometry":{"coordinates":[-122.305612,47.653477],"type":"Point"},"properties":{"osm_id":"4340533277","tag":{"amenity":"waste_basket"}},"type":"Feature"},
	{"geometry":{"coordinates":[-122.303983,47.652964],"type":"Point"},"properties":{"osm_id":"4340533353","tag":{"amenity":"recycling","recycling_type":"container"}},"type":"Feature"},
	{"geometry":{"coordinates":[-122.304019,47.652972],"type":"Point"},"properties":{"osm_id":"4340536632","tag":{"amenity":"waste_basket"}},"type":"Feature"},
	{"geometry":{"coordinates":[-122.298781,47.663432],"type":"Point"},"properties":{"osm_id":"4350527489","tag":{"amenity":"waste_basket"}},"type":"Feature"},
	{"geometry":{"coordinates":[-122.289989,47.675486],"type":"Point"},"properties":{"osm_id":"4365535995","tag":{"amenity":"recycling","recycling:clothes":"yes","recycling_type":"container"}},"type":"Feature"},
	{"geometry":{"coordinates":[-122.290394,47.68291],"type":"Point"},"properties":{"osm_id":"4365535996","tag":{"amenity":"waste_basket"}},"type":"Feature"},
	{"geometry":{"coordinates":[-122.290793,47.690003],"type":"Point"},"properties":{"osm_id":"4367781702","tag":{"amenity":"recycling","recycling_type":"container"}},"type":"Feature"},
	{"geometry":{"coordinates":[-122.290802,47.689978],"type":"Point"},"properties":{"osm_id":"4367843295","tag":{"amenity":"waste_basket"}},"type":"Feature"},
	{"geometry":{"coordinates":[-122.312144,47.677059],"type":"Point"},"properties":{"osm_id":"4454415191","tag":{"amenity":"waste_basket"}},"type":"Feature"},
	{"geometry":{"coordinates":[-122.312132,47.677565],"type":"Point"},"properties":{"osm_id":"4454416389","tag":{"amenity":"waste_basket"}},"type":"Feature"},
	{"geometry":{"coordinates":[-122.312141,47.677362],"type":"Point"},"properties":{"osm_id":"4454416489","tag":{"amenity":"waste_basket"}},"type":"Feature"},
	{"geometry":{"coordinates":[-122.3426,47.655246],"type":"Point"},"properties":{"osm_id":"4484169202","tag":{"amenity":"waste_basket"}},"type":"Feature"},
	{"geometry":{"coordinates":[-122.307032,47.660333],"type":"Point"},"properties":{"osm_id":"4495346684","tag":{"amenity":"waste_basket"}},"type":"Feature"},
	{"geometry":{"coordinates":[-122.307117,47.66033],"type":"Point"},"properties":{"osm_id":"4495346685","tag":{"amenity":"waste_basket"}},"type":"Feature"},
	{"geometry":{"coordinates":[-122.307228,47.659916],"type":"Point"},"properties":{"osm_id":"4495349532","tag":{"amenity":"recycling","recycling:cans":"yes","recycling:glass_bottles":"yes","recycling:paper":"yes","recycling:plastic":"no","recycling:plastic_bottles":"yes","recycling:plastic_packaging":"no","recycling_type":"container"}},"type":"Feature"},
	{"geometry":{"coordinates":[-122.310723,47.653372],"type":"Point"},"properties":{"osm_id":"4506602684","tag":{"amenity":"waste_basket"}},"type":"Feature"},
	{"geometry":{"coordinates":[-122.298235,47.664226],"type":"Point"},"properties":{"osm_id":"4507639747","tag":{"amenity":"waste_basket"}},"type":"Feature"},
	{"geometry":{"coordinates":[-122.298594,47.66431],"type":"Point"},"properties":{"osm_id":"4507639748","tag":{"amenity":"waste_basket"}},"type":"Feature"},
	{"geometry":{"coordinates":[-122.313166,47.668371],"type":"Point"},"properties":{"osm_id":"4522485243","tag":{"amenity":"waste_basket"}},"type":"Feature"},
	{"geometry":{"coordinates":[-122.312893,47.668675],"type":"Point"},"properties":{"osm_id":"4522486623","tag":{"amenity":"waste_basket"}},"type":"Feature"},
	{"geometry":{"coordinates":[-122.31316,47.669372],"type":"Point"},"properties":{"osm_id":"4522486625","tag":{"amenity":"waste_basket"}},"type":"Feature"},
	{"geometry":{"coordinates":[-122.313178,47.664641],"type":"Point"},"properties":{"osm_id":"4522490178","tag":{"amenity":"waste_basket"}},"type":"Feature"},
	{"geometry":{"coordinates":[-122.313203,47.665046],"type":"Point"},"properties":{"osm_id":"4522490179","tag":{"amenity":"waste_basket"}},"type":"Feature"},
	{"geometry":{"coordinates":[-122.312983,47.664783],"type":"Point"},"properties":{"osm_id":"4522490180","tag":{"amenity":"waste_basket"}},"type":"Feature"},
	{"geometry":{"coordinates":[-122.30372,47.649603],"type":"Point"},"properties":{"osm_id":"4538714939","tag":{"amenity":"waste_basket"}},"type":"Feature"},
	{"geometry":{"coordinates":[-122.304126,47.649466],"type":"Point"},"properties":{"osm_id":"4538714941","tag":{"amenity":"waste_basket"}},"type":"Feature"},
	{"geometry":{"coordinates":[-122.290276,47.646593],"type":"Point"},"properties":{"osm_id":"4560808093","tag":{"amenity":"waste_basket"}},"type":"Feature"},
	{"geometry":{"coordinates":[-122.2905,47.646025],"type":"Point"},"properties":{"osm_id":"4560843491","tag":{"amenity":"waste_basket"}},"type":"Feature"},
	{"geometry":{"coordinates":[-122.295141,47.639366],"type":"Point"},"properties":{"osm_id":"4560869599","tag":{"amenity":"waste_basket"}},"type":"Feature"},
	{"geometry":{"coordinates":[-122.34184,47.649204],"type":"Point"},"properties":{"barrier":"gate","osm_id":"4633851635","tag":{"access":"no"}},"type":"Feature"},
	{"geometry":{"coordinates":[-122.312837,47.67361],"type":"Point"},"properties":{"osm_id":"4789178469","tag":{"amenity":"waste_basket"}},"type":"Feature"},
	{"geometry":{"coordinates":[-122.291493,47.657783],"type":"Point"},"properties":{"osm_id":"4827953281","tag":{"amenity":"waste_basket"}},"type":"Feature"},
	{"geometry":{"coordinates":[-122.328944,47.681158],"type":"Point"},"properties":{"osm_id":"4936308756","tag":{"amenity":"waste_basket"}},"type":"Feature"},
	{"geometry":{"coordinates":[-122.335227,47.684348],"type":"Point"},"properties":{"osm_id":"4936308767","tag":{"amenity":"waste_basket"}},"type":"Feature"},
	{"geometry":{"coordinates":[-122.329095,47.680593],"type":"Point"},"properties":{"osm_id":"4936308768","tag":{"amenity":"waste_basket"}},"type":"Feature"},
	{"geometry":{"coordinates":[-122.334985,47.683423],"type":"Point"},"properties":{"osm_id":"4936308771","tag":{"amenity":"waste_basket"}},"type":"Feature"},
	{"geometry":{"coordinates":[-122.328978,47.681152],"type":"Point"},"properties":{"osm_id":"4936308773","tag":{"amenity":"recycling","recycling_type":"container"}},"type":"Feature"},
	{"geometry":{"coordinates":[-122.334292,47.683043],"type":"Point"},"properties":{"osm_id":"4936308788","tag":{"amenity":"waste_basket"}},"type":"Feature"},
	{"geometry":{"coordinates":[-122.330492,47.68189],"type":"Point"},"properties":{"osm_id":"4936308789","tag":{"amenity":"waste_basket"}},"type":"Feature"},
	{"geometry":{"coordinates":[-122.336058,47.684616],"type":"Point"},"properties":{"osm_id":"4936308790","tag":{"amenity":"waste_basket"}},"type":"Feature"},
	{"geometry":{"coordinates":[-122.32906,47.680591],"type":"Point"},"properties":{"osm_id":"4936308799","tag":{"amenity":"recycling","recycling_type":"container"}},"type":"Feature"},
	{"geometry":{"coordinates":[-122.331981,47.682035],"type":"Point"},"properties":{"osm_id":"4936308800","tag":{"amenity":"waste_basket"}},"type":"Feature"},
	{"geometry":{"coordinates":[-122.328553,47.680425],"type":"Point"},"properties":{"osm_id":"4936317821","tag":{"amenity":"recycling","recycling_type":"container"}},"type":"Feature"},
	{"geometry":{"coordinates":[-122.329128,47.679994],"type":"Point"},"properties":{"osm_id":"4936317823","tag":{"amenity":"waste_basket"}},"type":"Feature"},
	{"geometry":{"coordinates":[-122.328891,47.679924],"type":"Point"},"properties":{"osm_id":"4936317824","tag":{"amenity":"waste_basket"}},"type":"Feature"},
	{"geometry":{"coordinates":[-122.328574,47.680425],"type":"Point"},"properties":{"osm_id":"4936317825","tag":{"amenity":"waste_basket"}},"type":"Feature"},
	{"geometry":{"coordinates":[-122.327932,47.680097],"type":"Point"},"properties":{"osm_id":"4936326272","tag":{"amenity":"waste_basket"}},"type":"Feature"},
	{"geometry":{"coordinates":[-122.327907,47.680373],"type":"Point"},"properties":{"osm_id":"4936326273","tag":{"amenity":"waste_basket"}},"type":"Feature"},
	{"geometry":{"coordinates":[-122.327924,47.680082],"type":"Point"},"properties":{"osm_id":"4936326290","tag":{"amenity":"recycling","recycling_type":"container"}},"type":"Feature"},
	{"geometry":{"coordinates":[-122.327243,47.680529],"type":"Point"},"properties":{"osm_id":"4936328427","tag":{"amenity":"waste_basket"}},"type":"Feature"},
	{"geometry":{"coordinates":[-122.327345,47.680381],"type":"Point"},"properties":{"osm_id":"4936328432","tag":{"amenity":"waste_basket"}},"type":"Feature"},
	{"geometry":{"coordinates":[-122.326679,47.680206],"type":"Point"},"properties":{"osm_id":"4936328439","tag":{"amenity":"waste_basket"}},"type":"Feature"},
	{"geometry":{"coordinates":[-122.303628,47.671632],"type":"Point"},"properties":{"osm_id":"5001967109","tag":{"amenity":"waste_basket"}},"type":"Feature"},
	{"geometry":{"coordinates":[-122.317333,47.665041],"type":"Point"},"properties":{"osm_id":"5062706703","tag":{"amenity":"waste_basket"}},"type":"Feature"},
	{"geometry":{"coordinates":[-122.317336,47.665063],"type":"Point"},"properties":{"osm_id":"5062706704","tag":{"amenity":"recycling","recycling_type":"container"}},"type":"Feature"},
	{"geometry":{"coordinates":[-122.317519,47.665054],"type":"Point"},"properties":{"osm_id":"5062706707","tag":{"amenity":"recycling","recycling_type":"container"}},"type":"Feature"},
	{"geometry":{"coordinates":[-122.31752,47.665036],"type":"Point"},"properties":{"osm_id":"5062706711","tag":{"amenity":"waste_basket"}},"type":"Feature"},
	{"geometry":{"coordinates":[-122.337243,47.661318],"type":"Point"},"properties":{"osm_id":"5139864591","tag":{"amenity":"waste_basket"}},"type":"Feature"},
	{"geometry":{"coordinates":[-122.336056,47.661466],"type":"Point"},"properties":{"osm_id":"5139871738","tag":{"amenity":"waste_basket"}},"type":"Feature"},
	{"geometry":{"coordinates":[-122.336707,47.661435],"type":"Point"},"properties":{"osm_id":"5139871739","tag":{"amenity":"recycling","recycling_type":"container"}},"type":"Feature"},
	{"geometry":{"coordinates":[-122.336683,47.661435],"type":"Point"},"properties":{"osm_id":"5139871741","tag":{"amenity":"waste_basket"}},"type":"Feature"},
	{"geometry":{"coordinates":[-122.336094,47.661466],"type":"Point"},"properties":{"osm_id":"5139871742","tag":{"amenity":"recycling","recycling_type":"container"}},"type":"Feature"},
	{"geometry":{"coordinates":[-122.33651,47.661336],"type":"Point"},"properties":{"osm_id":"5139876236","tag":{"amenity":"recycling","recycling_type":"container"}},"type":"Feature"},
	{"geometry":{"coordinates":[-122.336447,47.661338],"type":"Point"},"properties":{"osm_id":"5139876237","tag":{"amenity":"waste_basket"}},"type":"Feature"},
	{"geometry":{"coordinates":[-122.332697,47.661454],"type":"Point"},"properties":{"osm_id":"5139902175","tag":{"amenity":"waste_basket"}},"type":"Feature"},
	{"geometry":{"coordinates":[-122.332472,47.661465],"type":"Point"},"properties":{"osm_id":"5139902176","tag":{"amenity":"recycling","recycling_type":"container"}},"type":"Feature"},
	{"geometry":{"coordinates":[-122.332453,47.661465],"type":"Point"},"properties":{"osm_id":"5139902178","tag":{"amenity":"waste_basket"}},"type":"Feature"},
	{"geometry":{"coordinates":[-122.330359,47.661453],"type":"Point"},"properties":{"osm_id":"5139938857","tag":{"amenity":"waste_basket"}},"type":"Feature"},
	{"geometry":{"coordinates":[-122.324697,47.661282],"type":"Point"},"properties":{"osm_id":"5139982034","tag":{"amenity":"waste_basket"}},"type":"Feature"},
	{"geometry":{"coordinates":[-122.313512,47.6766],"type":"Point"},"properties":{"osm_id":"5301916971","tag":{"amenity":"waste_basket"}},"type":"Feature"},
	{"geometry":{"coordinates":[-122.343489,47.65227],"type":"Point"},"properties":{"osm_id":"5328380281","tag":{"amenity":"waste_disposal"}},"type":"Feature"},
	{"geometry":{"coordinates":[-122.342527,47.651812],"type":"Point"},"properties":{"osm_id":"5341575927","ref":"A1680476","tag":{"amenity":"waste_basket","power":"pole","vending":"excrement_bags"}},"type":"Feature"},
	{"geometry":{"coordinates":[-122.342631,47.650283],"type":"Point"},"properties":{"osm_id":"5341575931","tag":{"amenity":"waste_basket"}},"type":"Feature"},
	{"geometry":{"coordinates":[-122.342648,47.649912],"type":"Point"},"properties":{"osm_id":"5341575936","tag":{"amenity":"waste_basket"}},"type":"Feature"},
	{"geometry":{"coordinates":[-122.310577,47.652154],"type":"Point"},"properties":{"osm_id":"5463460021","tag":{"amenity":"waste_basket"}},"type":"Feature"},
	{"geometry":{"coordinates":[-122.301215,47.665591],"type":"Point"},"properties":{"osm_id":"5629469435","tag":{"amenity":"waste_basket"}},"type":"Feature"},
	{"geometry":{"coordinates":[-122.30303,47.669167],"type":"Point"},"properties":{"osm_id":"5648505732","tag":{"amenity":"waste_basket"}},"type":"Feature"},
	{"geometry":{"coordinates":[-122.302891,47.669142],"type":"Point"},"properties":{"osm_id":"5648505739","tag":{"amenity":"recycling","recycling_type":"container"}},"type":"Feature"},
	{"geometry":{"coordinates":[-122.302706,47.669168],"type":"Point"},"properties":{"osm_id":"5648505751","tag":{"amenity":"waste_basket"}},"type":"Feature"},
	{"geometry":{"coordinates":[-122.302915,47.66914],"type":"Point"},"properties":{"osm_id":"5648505756","tag":{"amenity":"waste_basket"}},"type":"Feature"},
	{"geometry":{"coordinates":[-122.314065,47.67333],"type":"Point"},"properties":{"osm_id":"5648527839","tag":{"amenity":"waste_basket"}},"type":"Feature"},
	{"geometry":{"coordinates":[-122.311759,47.673363],"type":"Point"},"properties":{"osm_id":"5648527840","tag":{"amenity":"waste_basket"}},"type":"Feature"},
	{"geometry":{"coordinates":[-122.302022,47.668536],"type":"Point"},"properties":{"osm_id":"5648557485","tag":{"amenity":"waste_basket"}},"type":"Feature"},
	{"geometry":{"coordinates":[-122.300985,47.668703],"type":"Point"},"properties":{"osm_id":"5648587345","tag":{"amenity":"waste_basket"}},"type":"Feature"},
	{"geometry":{"coordinates":[-122.317809,47.66101],"type":"Point"},"properties":{"osm_id":"5696841075","tag":{"amenity":"waste_basket"}},"type":"Feature"},
	{"geometry":{"coordinates":[-122.32084,47.661668],"type":"Point"},"properties":{"osm_id":"5697063299","tag":{"amenity":"waste_basket"}},"type":"Feature"},
	{"geometry":{"coordinates":[-122.333645,47.675653],"type":"Point"},"properties":{"osm_id":"5739943921","tag":{"amenity":"waste_basket"}},"type":"Feature"},
	{"geometry":{"coordinates":[-122.332528,47.677487],"type":"Point"},"properties":{"osm_id":"5739943922","tag":{"amenity":"waste_basket"}},"type":"Feature"},
	{"geometry":{"coordinates":[-122.333616,47.675666],"type":"Point"},"properties":{"osm_id":"5739943924","tag":{"amenity":"recycling","recycling_type":"container"}},"type":"Feature"},
	{"geometry":{"coordinates":[-122.334619,47.675057],"type":"Point"},"properties":{"osm_id":"5739943925","tag":{"amenity":"waste_basket"}},"type":"Feature"},
	{"geometry":{"coordinates":[-122.332911,47.676371],"type":"Point"},"properties":{"osm_id":"5739943926","tag":{"amenity":"waste_basket"}},"type":"Feature"},
	{"geometry":{"coordinates":[-122.337636,47.672728],"type":"Point"},"properties":{"osm_id":"5739961037","tag":{"amenity":"waste_basket"}},"type":"Feature"},
	{"geometry":{"coordinates":[-122.336132,47.673703],"type":"Point"},"properties":{"osm_id":"5739961043","tag":{"amenity":"waste_basket"}},"type":"Feature"},
	{"geometry":{"coordinates":[-122.342515,47.671272],"type":"Point"},"properties":{"osm_id":"5739961046","tag":{"amenity":"waste_basket"}},"type":"Feature"},
	{"geometry":{"coordinates":[-122.336915,47.673147],"type":"Point"},"properties":{"osm_id":"5739961047","tag":{"amenity":"waste_basket"}},"type":"Feature"},
	{"geometry":{"coordinates":[-122.339378,47.649085],"type":"Point"},"properties":{"osm_id":"5895201342","tag":{"amenity":"recycling","recycling_type":"container"}},"type":"Feature"},
	{"geometry":{"coordinates":[-122.339402,47.649087],"type":"Point"},"properties":{"osm_id":"5895201343","tag":{"amenity":"waste_basket"}},"type":"Feature"},
	{"geometry":{"coordinates":[-122.339033,47.648252],"type":"Point"},"properties":{"osm_id":"5895208119","tag":{"amenity":"waste_basket"}},"type":"Feature"},
	{"geometry":{"coordinates":[-122.339034,47.648261],"type":"Point"},"properties":{"osm_id":"5895208121","tag":{"amenity":"recycling","recycling_type":"container"}},"type":"Feature"},
	{"geometry":{"coordinates":[-122.313152,47.66399],"type":"Point"},"properties":{"osm_id":"5908493075","tag":{"amenity":"waste_basket"}},"type":"Feature"},
	{"geometry":{"coordinates":[-122.313133,47.663987],"type":"Point"},"properties":{"osm_id":"5908493076","tag":{"amenity":"recycling","recycling_type":"container"}},"type":"Feature"},
	{"geometry":{"coordinates":[-122.313198,47.663234],"type":"Point"},"properties":{"osm_id":"5908517100","tag":{"amenity":"recycling","recycling_type":"container"}},"type":"Feature"},
	{"geometry":{"coordinates":[-122.313199,47.663241],"type":"Point"},"properties":{"osm_id":"5908517101","tag":{"amenity":"waste_basket"}},"type":"Feature"},
	{"geometry":{"coordinates":[-122.313203,47.662933],"type":"Point"},"properties":{"osm_id":"5908521638","tag":{"amenity":"waste_basket"}},"type":"Feature"},
	{"geometry":{"coordinates":[-122.313204,47.662922],"type":"Point"},"properties":{"osm_id":"5908521639","tag":{"amenity":"recycling","recycling_type":"container"}},"type":"Feature"},
	{"geometry":{"coordinates":[-122.313225,47.661464],"type":"Point"},"properties":{"osm_id":"5908583915","tag":{"amenity":"waste_basket"}},"type":"Feature"},
	{"geometry":{"coordinates":[-122.313224,47.661476],"type":"Point"},"properties":{"osm_id":"5908583916","tag":{"amenity":"recycling","recycling_type":"container"}},"type":"Feature"},
	{"geometry":{"coordinates":[-122.313233,47.661032],"type":"Point"},"properties":{"osm_id":"5908593771","tag":{"amenity":"recycling","recycling_type":"container"}},"type":"Feature"},
	{"geometry":{"coordinates":[-122.313229,47.661045],"type":"Point"},"properties":{"osm_id":"5908593772","tag":{"amenity":"waste_basket"}},"type":"Feature"},
	{"geometry":{"coordinates":[-122.317523,47.66298],"type":"Point"},"properties":{"osm_id":"5908782323","tag":{"amenity":"waste_basket"}},"type":"Feature"},
	{"geometry":{"coordinates":[-122.317526,47.663002],"type":"Point"},"properties":{"osm_id":"5908782324","tag":{"amenity":"recycling","recycling_type":"container"}},"type":"Feature"},
	{"geometry":{"coordinates":[-122.293785,47.639297],"type":"Point"},"properties":{"osm_id":"6001292150","tag":{"amenity":"waste_basket"}},"type":"Feature"},
	{"geometry":{"coordinates":[-122.294374,47.639766],"type":"Point"},"properties":{"osm_id":"6001292154","tag":{"amenity":"waste_basket"}},"type":"Feature"},
	{"geometry":{"coordinates":[-122.296326,47.639518],"type":"Point"},"properties":{"osm_id":"6001335371","tag":{"amenity":"waste_basket"}},"type":"Feature"},
	{"geometry":{"coordinates":[-122.296916,47.637616],"type":"Point"},"properties":{"osm_id":"6001363055","tag":{"amenity":"waste_basket"}},"type":"Feature"},
	{"geometry":{"coordinates":[-122.2976,47.636567],"type":"Point"},"properties":{"osm_id":"6001414226","tag":{"amenity":"waste_basket"}},"type":"Feature"},
	{"geometry":{"coordinates":[-122.294349,47.639637],"type":"Point"},"properties":{"osm_id":"6006066065","tag":{"amenity":"waste_basket"}},"type":"Feature"},
	{"geometry":{"coordinates":[-122.296567,47.662414],"type":"Point"},"properties":{"name":"QFC Pharmacy #807","osm_id":"6287188160","tag":{"amenity":"waste_basket","waste_disposal":"medicine"}},"type":"Feature"},
	{"geometry":{"coordinates":[-122.325648,47.640405],"type":"Point"},"properties":{"name":"Union Center Pharmacy","osm_id":"6287452875","tag":{"amenity":"waste_basket","waste":"drugs"}},"type":"Feature"},
	{"geometry":{"coordinates":[-122.306855,47.64888],"type":"Point"},"properties":{"name":"University of Washington Medical Center Pharmacy Operations","osm_id":"6290088623","tag":{"amenity":"waste_basket","waste_disposal":"medicine"}},"type":"Feature"},
	{"geometry":{"coordinates":[-122.312463,47.654399],"type":"Point"},"properties":{"name":"UW Police Department","osm_id":"6290089365","tag":{"amenity":"waste_basket","waste_disposal":"medicine"}},"type":"Feature"},
	{"geometry":{"coordinates":[-122.318244,47.658854],"type":"Point"},"properties":{"name":"University of Washington Roosevelt Medical Center Pharmacy","osm_id":"6290101162","tag":{"amenity":"waste_basket","waste_disposal":"medicine"}},"type":"Feature"},
	{"geometry":{"coordinates":[-122.319746,47.662411],"type":"Point"},"properties":{"osm_id":"6328016102","tag":{"amenity":"waste_basket"}},"type":"Feature"},
	{"geometry":{"coordinates":[-122.284197,47.667393],"type":"Point"},"properties":{"osm_id":"6594020359","tag":{"amenity":"waste_basket"}},"type":"Feature"},
	{"geometry":{"coordinates":[-122.284637,47.667236],"type":"Point"},"properties":{"osm_id":"6594020366","tag":{"amenity":"waste_basket"}},"type":"Feature"},
	{"geometry":{"coordinates":[-122.294453,47.637699],"type":"Point"},"properties":{"osm_id":"6655572523","tag":{"amenity":"waste_basket","wheelchair":"yes"}},"type":"Feature"},
	{"geometry":{"coordinates":[-122.316286,47.636293],"type":"Point"},"properties":{"osm_id":"6655590055","tag":{"amenity":"waste_basket"}},"type":"Feature"},
	{"geometry":{"coordinates":[-122.343326,47.649278],"type":"Point"},"properties":{"osm_id":"6698262147","tag":{"amenity":"recycling","operator":"InterConnection","recycling:computers":"yes","recycling_type":"centre"}},"type":"Feature"},
	{"geometry":{"coordinates":[-122.300058,47.684388],"type":"Point"},"properties":{"osm_id":"6704631548","tag":{"amenity":"waste_basket"}},"type":"Feature"},
	{"geometry":{"coordinates":[-122.300324,47.684258],"type":"Point"},"properties":{"osm_id":"6704631553","tag":{"amenity":"waste_basket"}},"type":"Feature"},
	{"geometry":{"coordinates":[-122.299684,47.684219],"type":"Point"},"properties":{"osm_id":"6704631555","tag":{"amenity":"recycling","recycling_type":"container"}},"type":"Feature"},
	{"geometry":{"coordinates":[-122.299684,47.684187],"type":"Point"},"properties":{"osm_id":"6704631558","tag":{"amenity":"waste_basket"}},"type":"Feature"},
	{"geometry":{"coordinates":[-122.297843,47.661691],"type":"Point"},"properties":{"osm_id":"6734011182","tag":{"amenity":"waste_basket"}},"type":"Feature"},
	{"geometry":{"coordinates":[-122.329541,47.639849],"type":"Point"},"properties":{"osm_id":"6958666149","tag":{"amenity":"recycling","recycling_type":"container"}},"type":"Feature"},
	{"geometry":{"coordinates":[-122.329541,47.639846],"type":"Point"},"properties":{"osm_id":"6958666150","tag":{"amenity":"waste_basket"}},"type":"Feature"},
	{"geometry":{"coordinates":[-122.313187,47.666539],"type":"Point"},"properties":{"osm_id":"7030789655","tag":{"amenity":"recycling","recycling_type":"container"}},"type":"Feature"},
	{"geometry":{"coordinates":[-122.313188,47.666546],"type":"Point"},"properties":{"osm_id":"7030789656","tag":{"amenity":"waste_basket","waste":"trash"}},"type":"Feature"},
	{"geometry":{"coordinates":[-122.318549,47.664377],"type":"Point"},"properties":{"osm_id":"7797741078","tag":{"amenity":"waste_basket","waste":"trash"}},"type":"Feature"},
	{"geometry":{"coordinates":[-122.319696,47.66456],"type":"Point"},"properties":{"osm_id":"7797741079","tag":{"amenity":"waste_basket","waste":"trash"}},"type":"Feature"},
	{"geometry":{"coordinates":[-122.319776,47.664441],"type":"Point"},"properties":{"osm_id":"7797741080","tag":{"amenity":"waste_basket","waste":"trash"}},"type":"Feature"},
	{"geometry":{"coordinates":[-122.319633,47.664376],"type":"Point"},"properties":{"osm_id":"7797741081","tag":{"amenity":"waste_basket","waste":"trash"}},"type":"Feature"},
	{"geometry":{"coordinates":[-122.319628,47.664221],"type":"Point"},"properties":{"osm_id":"7797741082","tag":{"amenity":"waste_basket","waste":"trash"}},"type":"Feature"},
	{"geometry":{"coordinates":[-122.319858,47.664229],"type":"Point"},"properties":{"osm_id":"7797741083","tag":{"amenity":"waste_basket","waste":"trash"}},"type":"Feature"},
	{"geometry":{"coordinates":[-122.275942,47.66812],"type":"Point"},"properties":{"osm_id":"7814336270","tag":{"amenity":"waste_basket"}},"type":"Feature"},
	{"geometry":{"coordinates":[-122.276519,47.668235],"type":"Point"},"properties":{"osm_id":"7814336274","tag":{"amenity":"waste_basket"}},"type":"Feature"},
	{"geometry":{"coordinates":[-122.276655,47.66824],"type":"Point"},"properties":{"osm_id":"7814336275","tag":{"amenity":"waste_basket"}},"type":"Feature"},
	{"geometry":{"coordinates":[-122.277037,47.668276],"type":"Point"},"properties":{"osm_id":"7814336277","tag":{"amenity":"waste_basket"}},"type":"Feature"},
	{"geometry":{"coordinates":[-122.342286,47.655096],"type":"Point"},"properties":{"osm_id":"7817273599","tag":{"amenity":"waste_basket"}},"type":"Feature"},
	{"geometry":{"coordinates":[-122.295417,47.664251],"type":"Point"},"properties":{"osm_id":"7817300029","tag":{"amenity":"recycling","recycling:books":"yes","recycling_type":"container"}},"type":"Feature"},
	{"geometry":{"coordinates":[-122.295443,47.664269],"type":"Point"},"properties":{"osm_id":"7817300030","tag":{"amenity":"recycling","recycling:books":"yes","recycling_type":"container"}},"type":"Feature"}
]
}
