{
"type": "FeatureCollection",
"features": [
	{"geometry":{"coordinates":[-122.294102,47.58291],"type":"Point"},"properties":{"osm_id":"53093548","tag":{"traffic_calming":"island"}},"type":"Feature"},
	{"geometry":{"coordinates":[-122.328743,47.609605],"type":"Point"},"properties":{"osm_id":"1950289013","tag":{"amenity":"recycling","recycling_type":"container"}},"type":"Feature"},
	{"geometry":{"coordinates":[-122.328808,47.60958],"type":"Point"},"properties":{"osm_id":"1950291825","tag":{"amenity":"waste_basket"}},"type":"Feature"},
	{"geometry":{"coordinates":[-122.33142,47.606766],"type":"Point"},"properties":{"osm_id":"1950295507","tag":{"amenity":"waste_basket"}},"type":"Feature"},
	{"geometry":{"coordinates":[-122.286379,47.585951],"type":"Point"},"properties":{"osm_id":"1950311449","tag":{"amenity":"recycling","recycling_type":"container"}},"type":"Feature"},
	{"geometry":{"coordinates":[-122.286842,47.582804],"type":"Point"},"properties":{"osm_id":"1950329758","tag":{"amenity":"waste_basket"}},"type":"Feature"},
	{"geometry":{"coordinates":[-122.286994,47.582915],"type":"Point"},"properties":{"osm_id":"1950329765","tag":{"amenity":"waste_basket"}},"type":"Feature"},
	{"geometry":{"coordinates":[-122.283636,47.57897],"type":"Point"},"properties":{"osm_id":"1950333200","tag":{"amenity":"waste_basket"}},"type":"Feature"},
	{"geometry":{"coordinates":[-122.286524,47.59055],"type":"Point"},"properties":{"osm_id":"1950337363","tag":{"amenity":"waste_basket"}},"type":"Feature"},
	{"geometry":{"coordinates":[-122.286375,47.600977],"type":"Point"},"properties":{"osm_id":"1950342552","tag":{"amenity":"waste_basket"}},"type":"Feature"},
	{"geometry":{"coordinates":[-122.28625,47.60068],"type":"Point"},"properties":{"osm_id":"1951239839","tag":{"amenity":"waste_basket"}},"type":"Feature"},
	{"geometry":{"coordinates":[-122.285382,47.600762],"type":"Point"},"properties":{"osm_id":"1951239850","tag":{"amenity":"waste_basket"}},"type":"Feature"},
	{"geometry":{"coordinates":[-122.287442,47.600544],"type":"Point"},"properties":{"osm_id":"1951239928","tag":{"amenity":"waste_basket"}},"type":"Feature"},
	{"geometry":{"coordinates":[-122.287458,47.583204],"type":"Point"},"properties":{"osm_id":"1951257723","tag":{"amenity":"recycling","image":"http://flic.kr/p/dhmVA4"}},"type":"Feature"},
	{"geometry":{"coordinates":[-122.339416,47.610399],"type":"Point"},"properties":{"osm_id":"1953045564","tag":{"amenity":"waste_basket"}},"type":"Feature"},
	{"geometry":{"coordinates":[-122.339629,47.610209],"type":"Point"},"properties":{"osm_id":"1953049083","tag":{"addr:city":"Seattle","addr:country":"US","addr:postcode":"98121","addr:state":"WA","addr:street":"Pine Street","amenity":"waste_basket"}},"type":"Feature"},
	{"geometry":{"coordinates":[-122.339635,47.610225],"type":"Point"},"properties":{"osm_id":"1953180908","tag":{"addr:street":"Second Avenue","amenity":"recycling","recycling_type":"container"}},"type":"Feature"},
	{"geometry":{"coordinates":[-122.340756,47.609776],"type":"Point"},"properties":{"osm_id":"1953533124","tag":{"amenity":"waste_basket"}},"type":"Feature"},
	{"geometry":{"coordinates":[-122.340253,47.6089],"type":"Point"},"properties":{"osm_id":"1953590457","tag":{"amenity":"waste_basket"}},"type":"Feature"},
	{"geometry":{"coordinates":[-122.340082,47.609037],"type":"Point"},"properties":{"osm_id":"1953592442","tag":{"amenity":"waste_basket"}},"type":"Feature"},
	{"geometry":{"coordinates":[-122.340259,47.608891],"type":"Point"},"properties":{"osm_id":"1953593696","tag":{"amenity":"recycling","recycling_type":"container"}},"type":"Feature"},
	{"geometry":{"coordinates":[-122.339751,47.609018],"type":"Point"},"properties":{"osm_id":"1953596040","tag":{"amenity":"waste_basket"}},"type":"Feature"},
	{"geometry":{"coordinates":[-122.339698,47.608964],"type":"Point"},"properties":{"osm_id":"1953597053","tag":{"amenity":"recycling","recycling_type":"container"}},"type":"Feature"},
	{"geometry":{"coordinates":[-122.339746,47.609002],"type":"Point"},"properties":{"osm_id":"1953598759","tag":{"amenity":"recycling","recycling_type":"container"}},"type":"Feature"},
	{"geometry":{"coordinates":[-122.336955,47.608632],"type":"Point"},"properties":{"osm_id":"1953624753","tag":{"amenity":"waste_basket"}},"type":"Feature"},
	{"geometry":{"coordinates":[-122.33682,47.608578],"type":"Point"},"properties":{"osm_id":"1953625226","tag":{"amenity":"recycling","recycling_type":"container"}},"type":"Feature"},
	{"geometry":{"coordinates":[-122.307882,47.601723],"type":"Point"},"properties":{"osm_id":"1953676367","tag":{"amenity":"waste_basket"}},"type":"Feature"},
	{"geometry":{"coordinates":[-122.306445,47.601754],"type":"Point"},"properties":{"osm_id":"1953678304","tag":{"amenity":"waste_basket"}},"type":"Feature"},
	{"geometry":{"coordinates":[-122.288685,47.599207],"type":"Point"},"properties":{"osm_id":"1955901745","tag":{"amenity":"recycling","recycling_type":"container"}},"type":"Feature"},
	{"geometry":{"coordinates":[-122.288712,47.599198],"type":"Point"},"properties":{"osm_id":"1955901751","tag":{"amenity":"waste_basket"}},"type":"Feature"},
	{"geometry":{"coordinates":[-122.286043,47.600584],"type":"Point"},"properties":{"osm_id":"1956089219","tag":{"amenity":"waste_basket"}},"type":"Feature"},
	{"geometry":{"coordinates":[-122.28551,47.601581],"type":"Point"},"properties":{"osm_id":"1956089410","tag":{"amenity":"waste_basket"}},"type":"Feature"},
	{"geometry":{"coordinates":[-122.286825,47.585918],"type":"Point"},"properties":{"osm_id":"1968653709","tag":{"amenity":"waste_basket"}},"type":"Feature"},
	{"geometry":{"coordinates":[-122.286975,47.58576],"type":"Point"},"properties":{"osm_id":"1968676341","tag":{"amenity":"waste_basket"}},"type":"Feature"},
	{"geometry":{"coordinates":[-122.286665,47.585475],"type":"Point"},"properties":{"osm_id":"1968740307","tag":{"amenity":"waste_basket"}},"type":"Feature"},
	{"geometry":{"coordinates":[-122.28664,47.585749],"type":"Point"},"properties":{"osm_id":"1968740322","tag":{"amenity":"waste_basket"}},"type":"Feature"},
	{"geometry":{"coordinates":[-122.29212,47.598027],"type":"Point"},"properties":{"osm_id":"1976773002","tag":{"amenity":"waste_basket"}},"type":"Feature"},
	{"geometry":{"coordinates":[-122.282902,47.607971],"type":"Point"},"properties":{"osm_id":"1998213712","tag":{"amenity":"waste_basket"}},"type":"Feature"},
	{"geometry":{"coordinates":[-122.28294,47.607831],"type":"Point"},"properties":{"osm_id":"1998213716","tag":{"amenity":"waste_basket"}},"type":"Feature"},
	{"geometry":{"coordinates":[-122.283254,47.607251],"type":"Point"},"properties":{"osm_id":"1998213784","tag":{"amenity":"waste_basket"}},"type":"Feature"},
	{"geometry":{"coordinates":[-122.283228,47.607636],"type":"Point"},"properties":{"osm_id":"1998213794","tag":{"amenity":"waste_basket"}},"type":"Feature"},
	{"geometry":{"coordinates":[-122.283301,47.605709],"type":"Point"},"properties":{"osm_id":"1998218255","tag":{"amenity":"waste_basket"}},"type":"Feature"},
	{"geometry":{"coordinates":[-122.283294,47.605562],"type":"Point"},"properties":{"osm_id":"1998218364","tag":{"amenity":"waste_basket"}},"type":"Feature"},
	{"geometry":{"coordinates":[-122.306878,47.601483],"type":"Point"},"properties":{"osm_id":"2000713200","tag":{"amenity":"waste_basket"}},"type":"Feature"},
	{"geometry":{"coordinates":[-122.306492,47.601608],"type":"Point"},"properties":{"osm_id":"2000713203","tag":{"amenity":"waste_basket"}},"type":"Feature"},
	{"geometry":{"coordinates":[-122.307417,47.6016],"type":"Point"},"properties":{"osm_id":"2000713208","tag":{"amenity":"waste_basket"}},"type":"Feature"},
	{"geometry":{"coordinates":[-122.307543,47.600796],"type":"Point"},"properties":{"osm_id":"2000713212","tag":{"amenity":"waste_basket"}},"type":"Feature"},
	{"geometry":{"coordinates":[-122.306985,47.601148],"type":"Point"},"properties":{"osm_id":"2000713224","tag":{"amenity":"waste_basket"}},"type":"Feature"},
	{"geometry":{"coordinates":[-122.292479,47.599247],"type":"Point"},"properties":{"osm_id":"2018460176","tag":{"amenity":"waste_basket"}},"type":"Feature"},
	{"geometry":{"coordinates":[-122.337022,47.62415],"type":"Point"},"properties":{"osm_id":"2312244800","tag":{"amenity":"waste_basket"}},"type":"Feature"},
	{"geometry":{"coordinates":[-122.337572,47.611019],"type":"Point"},"properties":{"osm_id":"3616084097","tag":{"amenity":"waste_basket"}},"type":"Feature"},
	{"geometry":{"coordinates":[-122.337448,47.611044],"type":"Point"},"properties":{"osm_id":"3616084098","tag":{"amenity":"waste_basket"}},"type":"Feature"},
	{"geometry":{"coordinates":[-122.337484,47.61134],"type":"Point"},"properties":{"osm_id":"3616084099","tag":{"amenity":"waste_basket"}},"type":"Feature"},
	{"geometry":{"coordinates":[-122.337655,47.611401],"type":"Point"},"properties":{"osm_id":"3616084100","tag":{"amenity":"waste_basket"}},"type":"Feature"},
	{"geometry":{"coordinates":[-122.337834,47.611192],"type":"Point"},"properties":{"osm_id":"3616084101","tag":{"amenity":"waste_basket"}},"type":"Feature"},
	{"geometry":{"coordinates":[-122.337828,47.611285],"type":"Point"},"properties":{"osm_id":"3616084102","tag":{"amenity":"waste_basket"}},"type":"Feature"},
	{"geometry":{"coordinates":[-122.337851,47.611319],"type":"Point"},"properties":{"osm_id":"3616084103","tag":{"amenity":"waste_basket"}},"type":"Feature"},
	{"geometry":{"coordinates":[-122.336733,47.613023],"type":"Point"},"properties":{"osm_id":"3618340704","tag":{"amenity":"waste_basket"}},"type":"Feature"},
	{"geometry":{"coordinates":[-122.336627,47.612911],"type":"Point"},"properties":{"osm_id":"3618340705","tag":{"amenity":"waste_basket"}},"type":"Feature"},
	{"geometry":{"coordinates":[-122.335345,47.614786],"type":"Point"},"properties":{"osm_id":"3620723936","tag":{"amenity":"waste_basket"}},"type":"Feature"},
	{"geometry":{"coordinates":[-122.337182,47.6113],"type":"Point"},"properties":{"osm_id":"3620723937","tag":{"amenity":"waste_basket"}},"type":"Feature"},
	{"geometry":{"coordinates":[-122.336891,47.61142],"type":"Point"},"properties":{"osm_id":"3620723938","tag":{"amenity":"waste_basket"}},"type":"Feature"},
	{"geometry":{"coordinates":[-122.33704,47.611354],"type":"Point"},"properties":{"osm_id":"3620723939","tag":{"amenity":"waste_basket"}},"type":"Feature"},
	{"geometry":{"coordinates":[-122.336703,47.611665],"type":"Point"},"properties":{"osm_id":"3620723940","tag":{"amenity":"waste_basket"}},"type":"Feature"},
	{"geometry":{"coordinates":[-122.335393,47.614761],"type":"Point"},"properties":{"osm_id":"3620908683","tag":{"amenity":"waste_basket"}},"type":"Feature"},
	{"geometry":{"coordinates":[-122.334415,47.614043],"type":"Point"},"properties":{"osm_id":"3631768892","tag":{"amenity":"waste_basket"}},"type":"Feature"},
	{"geometry":{"coordinates":[-122.335954,47.614318],"type":"Point"},"properties":{"osm_id":"3631773093","tag":{"amenity":"waste_basket"}},"type":"Feature"},
	{"geometry":{"coordinates":[-122.335843,47.613241],"type":"Point"},"properties":{"osm_id":"3632054405","tag":{"amenity":"waste_basket"}},"type":"Feature"},
	{"geometry":{"coordinates":[-122.335378,47.613438],"type":"Point"},"properties":{"osm_id":"3632054406","tag":{"amenity":"waste_basket"}},"type":"Feature"},
	{"geometry":{"coordinates":[-122.334071,47.613922],"type":"Point"},"properties":{"osm_id":"3632054408","tag":{"amenity":"waste_basket"}},"type":"Feature"},
	{"geometry":{"coordinates":[-122.333397,47.614575],"type":"Point"},"properties":{"osm_id":"3632057610","tag":{"amenity":"waste_basket"}},"type":"Feature"},
	{"geometry":{"coordinates":[-122.323459,47.596772],"type":"Point"},"properties":{"osm_id":"3633629246","tag":{"amenity":"waste_basket"}},"type":"Feature"},
	{"geometry":{"coordinates":[-122.323595,47.596971],"type":"Point"},"properties":{"osm_id":"3633629247","tag":{"amenity":"waste_basket"}},"type":"Feature"},
	{"geometry":{"coordinates":[-122.341449,47.612616],"type":"Point"},"properties":{"osm_id":"3639510430","tag":{"amenity":"waste_basket"}},"type":"Feature"},
	{"geometry":{"coordinates":[-122.341248,47.612511],"type":"Point"},"properties":{"osm_id":"3639510431","tag":{"amenity":"waste_basket"}},"type":"Feature"},
	{"geometry":{"coordinates":[-122.341267,47.612516],"type":"Point"},"properties":{"osm_id":"3639510432","tag":{"amenity":"waste_basket"}},"type":"Feature"},
	{"geometry":{"coordinates":[-122.341274,47.612731],"type":"Point"},"properties":{"osm_id":"3639510433","tag":{"amenity":"waste_basket"}},"type":"Feature"},
	{"geometry":{"coordinates":[-122.337835,47.612564],"type":"Point"},"properties":{"osm_id":"3639510434","tag":{"amenity":"waste_basket"}},"type":"Feature"},
	{"geometry":{"coordinates":[-122.333083,47.597078],"type":"Point"},"properties":{"osm_id":"3641371797","tag":{"amenity":"recycling","recycling_type":"container"}},"type":"Feature"},
	{"geometry":{"coordinates":[-122.33308,47.597341],"type":"Point"},"properties":{"osm_id":"3641371901","tag":{"amenity":"waste_basket"}},"type":"Feature"},
	{"geometry":{"coordinates":[-122.333084,47.597304],"type":"Point"},"properties":{"osm_id":"3641371902","tag":{"amenity":"recycling","recycling_type":"container"}},"type":"Feature"},
	{"geometry":{"coordinates":[-122.333082,47.597069],"type":"Point"},"properties":{"osm_id":"3641371903","tag":{"amenity":"waste_basket"}},"type":"Feature"},
	{"geometry":{"coordinates":[-122.336132,47.613044],"type":"Point"},"properties":{"osm_id":"3645055324","tag":{"amenity":"waste_basket"}},"type":"Feature"},
	{"geometry":{"coordinates":[-122.336263,47.612974],"type":"Point"},"properties":{"osm_id":"3645055325","tag":{"amenity":"waste_basket"}},"type":"Feature"},
	{"geometry":{"coordinates":[-122.341899,47.613112],"type":"Point"},"properties":{"osm_id":"3649272828","tag":{"amenity":"waste_basket"}},"type":"Feature"},
	{"geometry":{"coordinates":[-122.342461,47.613206],"type":"Point"},"properties":{"osm_id":"3649272829","tag":{"amenity":"waste_basket"}},"type":"Feature"},
	{"geometry":{"coordinates":[-122.341276,47.613676],"type":"Point"},"properties":{"osm_id":"3649292342","tag":{"amenity":"waste_basket"}},"type":"Feature"},
	{"geometry":{"coordinates":[-122.34129,47.613684],"type":"Point"},"properties":{"osm_id":"3649292343","tag":{"amenity":"waste_basket"}},"type":"Feature"},
	{"geometry":{"coordinates":[-122.340613,47.6133],"type":"Point"},"properties":{"osm_id":"3649305704","tag":{"amenity":"waste_basket"}},"type":"Feature"},
	{"geometry":{"coordinates":[-122.334427,47.606279],"type":"Point"},"properties":{"osm_id":"3655950333","tag":{"amenity":"waste_basket"}},"type":"Feature"},
	{"geometry":{"coordinates":[-122.334406,47.606253],"type":"Point"},"properties":{"osm_id":"3655950931","tag":{"amenity":"recycling","recycling_type":"container"}},"type":"Feature"},
	{"geometry":{"coordinates":[-122.335112,47.606457],"type":"Point"},"properties":{"osm_id":"3655966927","tag":{"amenity":"waste_basket"}},"type":"Feature"},
	{"geometry":{"coordinates":[-122.335041,47.606886],"type":"Point"},"properties":{"osm_id":"3655990926","tag":{"amenity":"waste_basket"}},"type":"Feature"},
	{"geometry":{"coordinates":[-122.335047,47.606327],"type":"Point"},"properties":{"osm_id":"3655991026","tag":{"amenity":"recycling","recycling_type":"container"}},"type":"Feature"},
	{"geometry":{"coordinates":[-122.335037,47.606347],"type":"Point"},"properties":{"osm_id":"3655991325","tag":{"amenity":"waste_basket"}},"type":"Feature"},
	{"geometry":{"coordinates":[-122.341732,47.617167],"type":"Point"},"properties":{"osm_id":"3668968290","tag":{"amenity":"waste_basket"}},"type":"Feature"},
	{"geometry":{"coordinates":[-122.342405,47.627392],"type":"Point"},"properties":{"osm_id":"3668968293","tag":{"amenity":"waste_basket"}},"type":"Feature"},
	{"geometry":{"coordinates":[-122.342262,47.627375],"type":"Point"},"properties":{"osm_id":"3668968294","tag":{"amenity":"waste_basket"}},"type":"Feature"},
	{"geometry":{"coordinates":[-122.338564,47.617831],"type":"Point"},"properties":{"osm_id":"3668968297","tag":{"amenity":"waste_basket"}},"type":"Feature"},
	{"geometry":{"coordinates":[-122.335709,47.612573],"type":"Point"},"properties":{"osm_id":"3669043689","tag":{"amenity":"waste_basket"}},"type":"Feature"},
	{"geometry":{"coordinates":[-122.340005,47.612926],"type":"Point"},"properties":{"osm_id":"3670595797","tag":{"amenity":"waste_basket"}},"type":"Feature"},
	{"geometry":{"coordinates":[-122.339989,47.612917],"type":"Point"},"properties":{"osm_id":"3670595798","tag":{"amenity":"waste_basket"}},"type":"Feature"},
	{"geometry":{"coordinates":[-122.338243,47.614213],"type":"Point"},"properties":{"osm_id":"3670595799","tag":{"amenity":"waste_basket"}},"type":"Feature"},
	{"geometry":{"coordinates":[-122.342504,47.62169],"type":"Point"},"properties":{"osm_id":"3675684784","tag":{"amenity":"waste_basket"}},"type":"Feature"},
	{"geometry":{"coordinates":[-122.338621,47.618044],"type":"Point"},"properties":{"osm_id":"3682801656","tag":{"amenity":"waste_basket"}},"type":"Feature"},
	{"geometry":{"coordinates":[-122.336958,47.61703],"type":"Point"},"properties":{"osm_id":"3682801657","tag":{"amenity":"waste_basket"}},"type":"Feature"},
	{"geometry":{"coordinates":[-122.337111,47.617279],"type":"Point"},"properties":{"osm_id":"3682801658","tag":{"amenity":"waste_basket"}},"type":"Feature"},
	{"geometry":{"coordinates":[-122.312782,47.623153],"type":"Point"},"properties":{"osm_id":"3688613826","tag":{"amenity":"waste_basket"}},"type":"Feature"},
	{"geometry":{"coordinates":[-122.312847,47.623155],"type":"Point"},"properties":{"osm_id":"3688649225","tag":{"amenity":"recycling","recycling_type":"container"}},"type":"Feature"},
	{"geometry":{"coordinates":[-122.312718,47.624134],"type":"Point"},"properties":{"osm_id":"3688649226","tag":{"amenity":"recycling","recycling_type":"container"}},"type":"Feature"},
	{"geometry":{"coordinates":[-122.312523,47.623347],"type":"Point"},"properties":{"osm_id":"3688649325","tag":{"amenity":"waste_basket"}},"type":"Feature"},
	{"geometry":{"coordinates":[-122.312525,47.62332],"type":"Point"},"properties":{"osm_id":"3688649326","tag":{"amenity":"recycling","recycling_type":"container"}},"type":"Feature"},
	{"geometry":{"coordinates":[-122.312725,47.624107],"type":"Point"},"properties":{"osm_id":"3688649626","tag":{"amenity":"waste_basket"}},"type":"Feature"},
	{"geometry":{"coordinates":[-122.343331,47.632609],"type":"Point"},"properties":{"osm_id":"3692588837","tag":{"amenity":"waste_basket"}},"type":"Feature"},
	{"geometry":{"coordinates":[-122.343695,47.632291],"type":"Point"},"properties":{"osm_id":"3692588838","tag":{"amenity":"waste_basket"}},"type":"Feature"},
	{"geometry":{"coordinates":[-122.34279,47.618484],"type":"Point"},"properties":{"osm_id":"3693938274","tag":{"amenity":"waste_basket"}},"type":"Feature"},
	{"geometry":{"coordinates":[-122.323688,47.609849],"type":"Point"},"properties":{"osm_id":"3696396470","tag":{"amenity":"waste_basket"}},"type":"Feature"},
	{"geometry":{"coordinates":[-122.33617,47.615608],"type":"Point"},"properties":{"osm_id":"3708407850","tag":{"amenity":"waste_basket"}},"type":"Feature"},
	{"geometry":{"coordinates":[-122.3361,47.615568],"type":"Point"},"properties":{"osm_id":"3708407851","tag":{"amenity":"waste_basket"}},"type":"Feature"},
	{"geometry":{"coordinates":[-122.336027,47.614696],"type":"Point"},"properties":{"osm_id":"3708568529","tag":{"amenity":"waste_basket"}},"type":"Feature"},
	{"geometry":{"coordinates":[-122.321474,47.615345],"type":"Point"},"properties":{"osm_id":"3709849220","tag":{"amenity":"waste_basket"}},"type":"Feature"},
	{"geometry":{"coordinates":[-122.322024,47.615087],"type":"Point"},"properties":{"osm_id":"3709849222","tag":{"amenity":"waste_basket"}},"type":"Feature"},
	{"geometry":{"coordinates":[-122.324617,47.615175],"type":"Point"},"properties":{"osm_id":"3709850425","tag":{"amenity":"waste_basket"}},"type":"Feature"},
	{"geometry":{"coordinates":[-122.336015,47.622796],"type":"Point"},"properties":{"osm_id":"3709855027","tag":{"amenity":"waste_basket"}},"type":"Feature"},
	{"geometry":{"coordinates":[-122.336727,47.622766],"type":"Point"},"properties":{"osm_id":"3709855028","tag":{"amenity":"waste_basket"}},"type":"Feature"},
	{"geometry":{"coordinates":[-122.336027,47.622403],"type":"Point"},"properties":{"osm_id":"3709855029","tag":{"amenity":"waste_basket"}},"type":"Feature"},
	{"geometry":{"coordinates":[-122.336506,47.6225],"type":"Point"},"properties":{"osm_id":"3709855030","tag":{"amenity":"waste_basket"}},"type":"Feature"},
	{"geometry":{"coordinates":[-122.336528,47.6225],"type":"Point"},"properties":{"osm_id":"3709855031","tag":{"amenity":"waste_basket"}},"type":"Feature"},
	{"geometry":{"coordinates":[-122.336549,47.622499],"type":"Point"},"properties":{"osm_id":"3709855032","tag":{"amenity":"waste_basket"}},"type":"Feature"},
	{"geometry":{"coordinates":[-122.336636,47.622469],"type":"Point"},"properties":{"osm_id":"3709856821","tag":{"amenity":"waste_basket"}},"type":"Feature"},
	{"geometry":{"coordinates":[-122.333954,47.602161],"type":"Point"},"properties":{"osm_id":"3711521416","tag":{"amenity":"waste_basket"}},"type":"Feature"},
	{"geometry":{"coordinates":[-122.334044,47.602056],"type":"Point"},"properties":{"osm_id":"3711521725","tag":{"amenity":"waste_basket"}},"type":"Feature"},
	{"geometry":{"coordinates":[-122.332699,47.601644],"type":"Point"},"properties":{"osm_id":"3711546317","tag":{"amenity":"waste_basket"}},"type":"Feature"},
	{"geometry":{"coordinates":[-122.332676,47.601644],"type":"Point"},"properties":{"osm_id":"3711546318","tag":{"amenity":"waste_basket"}},"type":"Feature"},
	{"geometry":{"coordinates":[-122.307704,47.591567],"type":"Point"},"properties":{"osm_id":"3731463264","tag":{"amenity":"waste_basket"}},"type":"Feature"},
	{"geometry":{"coordinates":[-122.303618,47.592557],"type":"Point"},"properties":{"osm_id":"3732405829","tag":{"amenity":"waste_basket"}},"type":"Feature"},
	{"geometry":{"coordinates":[-122.303446,47.592876],"type":"Point"},"properties":{"osm_id":"3732405930","tag":{"amenity":"waste_basket"}},"type":"Feature"},
	{"geometry":{"coordinates":[-122.303468,47.594446],"type":"Point"},"properties":{"osm_id":"3732410928","tag":{"amenity":"waste_basket"}},"type":"Feature"},
	{"geometry":{"coordinates":[-122.303683,47.593099],"type":"Point"},"properties":{"osm_id":"3732411629","tag":{"amenity":"waste_basket"}},"type":"Feature"},
	{"geometry":{"coordinates":[-122.30347,47.593867],"type":"Point"},"properties":{"osm_id":"3732411930","tag":{"amenity":"waste_basket"}},"type":"Feature"},
	{"geometry":{"coordinates":[-122.303607,47.592712],"type":"Point"},"properties":{"osm_id":"3732411931","tag":{"amenity":"waste_basket"}},"type":"Feature"},
	{"geometry":{"coordinates":[-122.303467,47.59348],"type":"Point"},"properties":{"osm_id":"3732414925","tag":{"amenity":"waste_basket"}},"type":"Feature"},
	{"geometry":{"coordinates":[-122.30353,47.592644],"type":"Point"},"properties":{"osm_id":"3732414926","tag":{"amenity":"waste_basket"}},"type":"Feature"},
	{"geometry":{"coordinates":[-122.304051,47.592633],"type":"Point"},"properties":{"osm_id":"3732414928","tag":{"amenity":"waste_basket"}},"type":"Feature"},
	{"geometry":{"coordinates":[-122.303532,47.592769],"type":"Point"},"properties":{"osm_id":"3732415125","tag":{"amenity":"waste_basket"}},"type":"Feature"},
	{"geometry":{"coordinates":[-122.336818,47.60886],"type":"Point"},"properties":{"osm_id":"3733766925","tag":{"amenity":"waste_basket"}},"type":"Feature"},
	{"geometry":{"coordinates":[-122.3378,47.609596],"type":"Point"},"properties":{"osm_id":"3757713839","tag":{"amenity":"waste_basket"}},"type":"Feature"},
	{"geometry":{"coordinates":[-122.338004,47.609562],"type":"Point"},"properties":{"osm_id":"3757713840","tag":{"amenity":"waste_basket"}},"type":"Feature"},
	{"geometry":{"coordinates":[-122.3376,47.609701],"type":"Point"},"properties":{"osm_id":"3757713841","tag":{"amenity":"waste_basket"}},"type":"Feature"},
	{"geometry":{"coordinates":[-122.337684,47.609869],"type":"Point"},"properties":{"osm_id":"3757713843","tag":{"amenity":"waste_basket"}},"type":"Feature"},
	{"geometry":{"coordinates":[-122.337755,47.609917],"type":"Point"},"properties":{"osm_id":"3757713844","tag":{"amenity":"waste_basket"}},"type":"Feature"},
	{"geometry":{"coordinates":[-122.337249,47.609915],"type":"Point"},"properties":{"osm_id":"3757713845","tag":{"amenity":"waste_basket"}},"type":"Feature"},
	{"geometry":{"coordinates":[-122.337282,47.609905],"type":"Point"},"properties":{"osm_id":"3757713846","tag":{"amenity":"waste_basket"}},"type":"Feature"},
	{"geometry":{"coordinates":[-122.337309,47.609897],"type":"Point"},"properties":{"osm_id":"3757713847","tag":{"amenity":"waste_basket"}},"type":"Feature"},
	{"geometry":{"coordinates":[-122.336957,47.610174],"type":"Point"},"properties":{"osm_id":"3757713848","tag":{"amenity":"waste_basket"}},"type":"Feature"},
	{"geometry":{"coordinates":[-122.336811,47.610444],"type":"Point"},"properties":{"osm_id":"3757713850","tag":{"amenity":"waste_basket"}},"type":"Feature"},
	{"geometry":{"coordinates":[-122.336472,47.610119],"type":"Point"},"properties":{"osm_id":"3757713851","tag":{"amenity":"waste_basket"}},"type":"Feature"},
	{"geometry":{"coordinates":[-122.33639,47.617865],"type":"Point"},"properties":{"osm_id":"3757723664","tag":{"amenity":"waste_basket"}},"type":"Feature"},
	{"geometry":{"coordinates":[-122.336805,47.613574],"type":"Point"},"properties":{"osm_id":"3767570598","tag":{"amenity":"waste_basket"}},"type":"Feature"},
	{"geometry":{"coordinates":[-122.336822,47.61365],"type":"Point"},"properties":{"osm_id":"3767570599","tag":{"amenity":"waste_basket"}},"type":"Feature"},
	{"geometry":{"coordinates":[-122.335445,47.615444],"type":"Point"},"properties":{"osm_id":"3767570600","tag":{"amenity":"waste_basket"}},"type":"Feature"},
	{"geometry":{"coordinates":[-122.338964,47.613471],"type":"Point"},"properties":{"osm_id":"3767627758","tag":{"amenity":"waste_basket"}},"type":"Feature"},
	{"geometry":{"coordinates":[-122.338945,47.613462],"type":"Point"},"properties":{"osm_id":"3767627759","tag":{"amenity":"waste_basket"}},"type":"Feature"},
	{"geometry":{"coordinates":[-122.338172,47.616154],"type":"Point"},"properties":{"osm_id":"3768015663","tag":{"amenity":"waste_basket"}},"type":"Feature"},
	{"geometry":{"coordinates":[-122.338163,47.616149],"type":"Point"},"properties":{"osm_id":"3768015664","tag":{"amenity":"waste_basket"}},"type":"Feature"},
	{"geometry":{"coordinates":[-122.338623,47.618669],"type":"Point"},"properties":{"osm_id":"3768015677","tag":{"amenity":"waste_basket"}},"type":"Feature"},
	{"geometry":{"coordinates":[-122.338624,47.618681],"type":"Point"},"properties":{"osm_id":"3768015678","tag":{"amenity":"waste_basket"}},"type":"Feature"},
	{"geometry":{"coordinates":[-122.33861,47.62099],"type":"Point"},"properties":{"osm_id":"3768037253","tag":{"amenity":"waste_basket"}},"type":"Feature"},
	{"geometry":{"coordinates":[-122.33861,47.620998],"type":"Point"},"properties":{"osm_id":"3768037254","tag":{"amenity":"waste_basket"}},"type":"Feature"},
	{"geometry":{"coordinates":[-122.338588,47.621309],"type":"Point"},"properties":{"osm_id":"3768037255","tag":{"amenity":"waste_basket"}},"type":"Feature"},
	{"geometry":{"coordinates":[-122.337652,47.61294],"type":"Point"},"properties":{"osm_id":"3799548635","tag":{"amenity":"waste_basket"}},"type":"Feature"},
	{"geometry":{"coordinates":[-122.337577,47.613047],"type":"Point"},"properties":{"osm_id":"3799548638","tag":{"amenity":"waste_basket"}},"type":"Feature"},
	{"geometry":{"coordinates":[-122.337155,47.612915],"type":"Point"},"properties":{"osm_id":"3799564977","tag":{"amenity":"waste_basket"}},"type":"Feature"},
	{"geometry":{"coordinates":[-122.337006,47.615868],"type":"Point"},"properties":{"osm_id":"3799599320","tag":{"amenity":"waste_basket"}},"type":"Feature"},
	{"geometry":{"coordinates":[-122.336761,47.624036],"type":"Point"},"properties":{"osm_id":"3807663976","tag":{"amenity":"waste_basket"}},"type":"Feature"},
	{"geometry":{"coordinates":[-122.337039,47.623781],"type":"Point"},"properties":{"osm_id":"3807663977","tag":{"amenity":"waste_basket"}},"type":"Feature"},
	{"geometry":{"coordinates":[-122.341165,47.618297],"type":"Point"},"properties":{"osm_id":"3808912562","tag":{"amenity":"waste_basket"}},"type":"Feature"},
	{"geometry":{"coordinates":[-122.341096,47.61826],"type":"Point"},"properties":{"osm_id":"3808912563","tag":{"amenity":"waste_basket"}},"type":"Feature"},
	{"geometry":{"coordinates":[-122.339354,47.614737],"type":"Point"},"properties":{"osm_id":"3831131717","tag":{"amenity":"waste_basket"}},"type":"Feature"},
	{"geometry":{"coordinates":[-122.333878,47.607247],"type":"Point"},"properties":{"osm_id":"3831148002","tag":{"amenity":"waste_basket"}},"type":"Feature"},
	{"geometry":{"coordinates":[-122.333899,47.607268],"type":"Point"},"properties":{"osm_id":"3831148003","tag":{"amenity":"waste_basket"}},"type":"Feature"},
	{"geometry":{"coordinates":[-122.33909,47.607947],"type":"Point"},"properties":{"osm_id":"3942806657","tag":{"amenity":"waste_basket"}},"type":"Feature"},
	{"geometry":{"coordinates":[-122.339082,47.607939],"type":"Point"},"properties":{"osm_id":"3942806658","tag":{"amenity":"recycling","recycling_type":"container"}},"type":"Feature"},
	{"geometry":{"coordinates":[-122.338149,47.615313],"type":"Point"},"properties":{"osm_id":"4038846163","tag":{"amenity":"waste_basket"}},"type":"Feature"},
	{"geometry":{"coordinates":[-122.338824,47.615024],"type":"Point"},"properties":{"osm_id":"4089241800","tag":{"amenity":"waste_basket"}},"type":"Feature"},
	{"geometry":{"coordinates":[-122.338684,47.615127],"type":"Point"},"properties":{"osm_id":"4089241801","tag":{"amenity":"waste_basket"}},"type":"Feature"},
	{"geometry":{"coordinates":[-122.338564,47.615127],"type":"Point"},"properties":{"osm_id":"4089241802","tag":{"amenity":"waste_basket"}},"type":"Feature"},
	{"geometry":{"coordinates":[-122.333224,47.606692],"type":"Point"},"properties":{"osm_id":"4098502007","tag":{"amenity":"waste_basket","layer":"-1"}},"type":"Feature"},
	{"geometry":{"coordinates":[-122.332981,47.606383],"type":"Point"},"properties":{"osm_id":"4098502008","tag":{"amenity":"waste_basket"}},"type":"Feature"},
	{"geometry":{"coordinates":[-122.334672,47.60815],"type":"Point"},"properties":{"osm_id":"4100407814","tag":{"amenity":"waste_basket"}},"type":"Feature"},
	{"geometry":{"coordinates":[-122.334637,47.608227],"type":"Point"},"properties":{"osm_id":"4100407815","tag":{"amenity":"waste_basket"}},"type":"Feature"},
	{"geometry":{"coordinates":[-122.334874,47.608073],"type":"Point"},"properties":{"osm_id":"4100407816","tag":{"amenity":"waste_basket"}},"type":"Feature"},
	{"geometry":{"coordinates":[-122.334518,47.609609],"type":"Point"},"properties":{"osm_id":"4100769300","tag":{"amenity":"waste_basket"}},"type":"Feature"},
	{"geometry":{"coordinates":[-122.334912,47.60967],"type":"Point"},"properties":{"osm_id":"4100769301","tag":{"amenity":"waste_basket"}},"type":"Feature"},
	{"geometry":{"coordinates":[-122.334606,47.61102],"type":"Point"},"properties":{"osm_id":"4100769302","tag":{"amenity":"waste_basket"}},"type":"Feature"},
	{"geometry":{"coordinates":[-122.334713,47.61114],"type":"Point"},"properties":{"osm_id":"4100769303","tag":{"amenity":"waste_basket"}},"type":"Feature"},
	{"geometry":{"coordinates":[-122.335184,47.612131],"type":"Point"},"properties":{"osm_id":"4100849716","tag":{"amenity":"waste_basket"}},"type":"Feature"},
	{"geometry":{"coordinates":[-122.335282,47.612257],"type":"Point"},"properties":{"osm_id":"4100849717","tag":{"amenity":"waste_basket"}},"type":"Feature"},
	{"geometry":{"coordinates":[-122.335075,47.612349],"type":"Point"},"properties":{"osm_id":"4106668640","tag":{"amenity":"waste_basket"}},"type":"Feature"},
	{"geometry":{"coordinates":[-122.336991,47.621338],"type":"Point"},"properties":{"osm_id":"4184443047","tag":{"amenity":"waste_basket"}},"type":"Feature"},
	{"geometry":{"coordinates":[-122.337255,47.62186],"type":"Point"},"properties":{"osm_id":"4184443048","tag":{"amenity":"waste_basket"}},"type":"Feature"},
	{"geometry":{"coordinates":[-122.340742,47.609761],"type":"Point"},"properties":{"osm_id":"4212679624","tag":{"amenity":"recycling","recycling_type":"container"}},"type":"Feature"},
	{"geometry":{"coordinates":[-122.317208,47.609459],"type":"Point"},"properties":{"osm_id":"4238251897","tag":{"amenity":"waste_basket","wheelchair":"yes"}},"type":"Feature"},
	{"geometry":{"coordinates":[-122.317207,47.609441],"type":"Point"},"properties":{"osm_id":"4238251898","tag":{"amenity":"recycling","operator":"Seattle University","recycling:cans":"no","recycling:clothes":"no","recycling:glass":"no","recycling:glass_bottles":"no","recycling:paper":"no","recycling:plastic":"no","recycling_type":"container","wheelchair":"yes"}},"type":"Feature"},
	{"geometry":{"coordinates":[-122.317209,47.609451],"type":"Point"},"properties":{"osm_id":"4238251899","tag":{"amenity":"recycling","operator":"Seattle University","recycling:cans":"yes","recycling:clothes":"no","recycling:glass":"yes","recycling:glass_bottles":"yes","recycling:paper":"yes","recycling:plastic":"yes","recycling_type":"container","wheelchair":"yes"}},"type":"Feature"},
	{"geometry":{"coordinates":[-122.317551,47.609209],"type":"Point"},"properties":{"osm_id":"4238254591","tag":{"amenity":"waste_basket","wheelchair":"yes"}},"type":"Feature"},
	{"geometry":{"coordinates":[-122.317551,47.609197],"type":"Point"},"properties":{"osm_id":"4238254593","tag":{"amenity":"recycling","operator":"Seattle University","recycling:cans":"no","recycling:clothes":"no","recycling:glass":"no","recycling:glass_bottles":"no","recycling:paper":"no","recycling:plastic":"no","recycling_type":"container"}},"type":"Feature"},
	{"geometry":{"coordinates":[-122.317552,47.609203],"type":"Point"},"properties":{"osm_id":"4238254594","tag":{"amenity":"recycling","operator":"Seattle University","recycling:cans":"yes","recycling:clothes":"no","recycling:glass":"yes","recycling:paper":"yes","recycling:plastic":"yes","recycling_type":"container","wheelchair":"yes"}},"type":"Feature"},
	{"geometry":{"coordinates":[-122.317638,47.609429],"type":"Point"},"properties":{"osm_id":"4238289792","tag":{"amenity":"recycling","operator":"Seattle University","recycling:cans":"yes","recycling:clothes":"no","recycling:glass":"yes","recycling:glass_bottles":"yes","recycling:paper":"yes","recycling:plastic":"yes","recycling_type":"container","wheelchair":"yes"}},"type":"Feature"},
	{"geometry":{"coordinates":[-122.317638,47.609451],"type":"Point"},"properties":{"osm_id":"4238289793","tag":{"amenity":"waste_basket","wheelchair":"yes"}},"type":"Feature"},
	{"geometry":{"coordinates":[-122.317638,47.60941],"type":"Point"},"properties":{"osm_id":"4238293177","tag":{"amenity":"recycling","operator":"Seattle University","recycling:cans":"no","recycling:clothes":"no","recycling:glass":"no","recycling:glass_bottles":"no","recycling:paper":"no","recycling:plastic":"no","recycling_type":"container","wheelchair":"yes"}},"type":"Feature"},
	{"geometry":{"coordinates":[-122.317141,47.606245],"type":"Point"},"properties":{"osm_id":"4238680693","tag":{"amenity":"waste_basket"}},"type":"Feature"},
	{"geometry":{"coordinates":[-122.314039,47.606889],"type":"Point"},"properties":{"osm_id":"4238680695","tag":{"amenity":"waste_basket"}},"type":"Feature"},
	{"geometry":{"coordinates":[-122.314338,47.607874],"type":"Point"},"properties":{"osm_id":"4238680696","tag":{"amenity":"recycling","recycling_type":"container"}},"type":"Feature"},
	{"geometry":{"coordinates":[-122.314044,47.606934],"type":"Point"},"properties":{"osm_id":"4238680792","tag":{"amenity":"recycling","recycling_type":"container"}},"type":"Feature"},
	{"geometry":{"coordinates":[-122.316435,47.607328],"type":"Point"},"properties":{"osm_id":"4238692289","tag":{"amenity":"waste_basket"}},"type":"Feature"},
	{"geometry":{"coordinates":[-122.316443,47.607351],"type":"Point"},"properties":{"osm_id":"4238692389","tag":{"amenity":"recycling","recycling_type":"container"}},"type":"Feature"},
	{"geometry":{"coordinates":[-122.314305,47.607872],"type":"Point"},"properties":{"osm_id":"4238692989","tag":{"amenity":"waste_basket"}},"type":"Feature"},
	{"geometry":{"coordinates":[-122.319044,47.606696],"type":"Point"},"properties":{"osm_id":"4239833987","tag":{"amenity":"recycling","operator":"Seattle University","recycling:organic":"yes","recycling_type":"container","website":"https://seattleu.edu/cejs/sustainability/what-su-is-doing/compost/"}},"type":"Feature"},
	{"geometry":{"coordinates":[-122.319044,47.606699],"type":"Point"},"properties":{"osm_id":"4239833988","tag":{"amenity":"recycling","operator":"Seattle University","recycling:organic":"no","recycling_type":"container","website":"https://seattleu.edu/cejs/sustainability/what-su-is-doing/compost/"}},"type":"Feature"},
	{"geometry":{"coordinates":[-122.319044,47.606702],"type":"Point"},"properties":{"osm_id":"4239840189","tag":{"amenity":"waste_basket","operator":"Seattle University"}},"type":"Feature"},
	{"geometry":{"coordinates":[-122.319594,47.607564],"type":"Point"},"properties":{"osm_id":"4239840193","tag":{"amenity":"waste_basket","operator":"Seattle University"}},"type":"Feature"},
	{"geometry":{"coordinates":[-122.31959,47.607568],"type":"Point"},"properties":{"osm_id":"4239840194","tag":{"amenity":"recycling","operator":"Seattle University","recycling:organic":"no","recycling_type":"container","website":"https://seattleu.edu/cejs/sustainability/what-su-is-doing/compost/"}},"type":"Feature"},
	{"geometry":{"coordinates":[-122.319586,47.607571],"type":"Point"},"properties":{"osm_id":"4239840195","tag":{"amenity":"recycling","operator":"Seattle University","recycling:organic":"yes","recycling_type":"container","website":"https://seattleu.edu/cejs/sustainability/what-su-is-doing/compost/"}},"type":"Feature"},
	{"geometry":{"coordinates":[-122.317118,47.607959],"type":"Point"},"properties":{"osm_id":"4239840198","tag":{"amenity":"recycling","operator":"Seattle University","recycling:organic":"yes","recycling_type":"container","website":"https://seattleu.edu/cejs/sustainability/what-su-is-doing/compost/"}},"type":"Feature"},
	{"geometry":{"coordinates":[-122.31711,47.607959],"type":"Point"},"properties":{"osm_id":"4239840199","tag":{"amenity":"recycling","operator":"Seattle University","recycling:organic":"no","recycling_type":"container","website":"https://seattleu.edu/cejs/sustainability/what-su-is-doing/compost/"}},"type":"Feature"},
	{"geometry":{"coordinates":[-122.317103,47.607959],"type":"Point"},"properties":{"osm_id":"4239840200","tag":{"amenity":"waste_basket","operator":"Seattle University"}},"type":"Feature"},
	{"geometry":{"coordinates":[-122.317297,47.608225],"type":"Point"},"properties":{"osm_id":"4239840201","tag":{"amenity":"recycling","operator":"Seattle University","recycling:organic":"yes","recycling_type":"container","website":"https://seattleu.edu/cejs/sustainability/what-su-is-doing/compost/"}},"type":"Feature"},
	{"geometry":{"coordinates":[-122.317289,47.608225],"type":"Point"},"properties":{"osm_id":"4239840202","tag":{"amenity":"recycling","operator":"Seattle University","recycling:organic":"no","recycling_type":"container","website":"https://seattleu.edu/cejs/sustainability/what-su-is-doing/compost/"}},"type":"Feature"},
	{"geometry":{"coordinates":[-122.31728,47.608226],"type":"Point"},"properties":{"osm_id":"4239840203","tag":{"amenity":"waste_basket","operator":"Seattle University"}},"type":"Feature"},
	{"geometry":{"coordinates":[-122.31842,47.608591],"type":"Point"},"properties":{"osm_id":"4239840206","tag":{"amenity":"recycling","operator":"Seattle University","recycling:organic":"no","recycling_type":"container","website":"https://seattleu.edu/cejs/sustainability/what-su-is-doing/compost/"}},"type":"Feature"},
	{"geometry":{"coordinates":[-122.318415,47.608592],"type":"Point"},"properties":{"osm_id":"4239840207","tag":{"amenity":"waste_basket","operator":"Seattle University"}},"type":"Feature"},
	{"geometry":{"coordinates":[-122.318426,47.608592],"type":"Point"},"properties":{"osm_id":"4239840208","tag":{"amenity":"recycling","operator":"Seattle University","recycling:organic":"yes","recycling_type":"container","website":"https://seattleu.edu/cejs/sustainability/what-su-is-doing/compost/"}},"type":"Feature"},
	{"geometry":{"coordinates":[-122.318017,47.608748],"type":"Point"},"properties":{"osm_id":"4239840210","tag":{"amenity":"waste_basket","operator":"Seattle University"}},"type":"Feature"},
	{"geometry":{"coordinates":[-122.318017,47.608754],"type":"Point"},"properties":{"osm_id":"4239840211","tag":{"amenity":"recycling","operator":"Seattle University","recycling:organic":"no","recycling_type":"container","website":"https://seattleu.edu/cejs/sustainability/what-su-is-doing/compost/"}},"type":"Feature"},
	{"geometry":{"coordinates":[-122.318017,47.60876],"type":"Point"},"properties":{"osm_id":"4239840212","tag":{"amenity":"recycling","operator":"Seattle University","recycling:organic":"yes","recycling_type":"container","website":"https://seattleu.edu/cejs/sustainability/what-su-is-doing/compost/"}},"type":"Feature"},
	{"geometry":{"coordinates":[-122.317631,47.608942],"type":"Point"},"properties":{"osm_id":"4239840215","tag":{"amenity":"recycling","operator":"Seattle University","recycling:organic":"yes","recycling_type":"container","website":"https://seattleu.edu/cejs/sustainability/what-su-is-doing/compost/"}},"type":"Feature"},
	{"geometry":{"coordinates":[-122.317622,47.608942],"type":"Point"},"properties":{"osm_id":"4239840216","tag":{"amenity":"recycling","operator":"Seattle University","recycling:organic":"no","recycling_type":"container","website":"https://seattleu.edu/cejs/sustainability/what-su-is-doing/compost/"}},"type":"Feature"},
	{"geometry":{"coordinates":[-122.317614,47.608943],"type":"Point"},"properties":{"osm_id":"4239840217","tag":{"amenity":"waste_basket","operator":"Seattle University"}},"type":"Feature"},
	{"geometry":{"coordinates":[-122.318537,47.609044],"type":"Point"},"properties":{"osm_id":"4239840220","tag":{"amenity":"recycling","operator":"Seattle University","recycling:cans":"no","recycling:clothes":"no","recycling:glass":"no","recycling:glass_bottles":"no","recycling:paper":"no","recycling:plastic":"no","recycling_type":"container"}},"type":"Feature"},
	{"geometry":{"coordinates":[-122.318548,47.609044],"type":"Point"},"properties":{"osm_id":"4239840221","tag":{"amenity":"recycling","operator":"Seattle University","recycling:cans":"yes","recycling:clothes":"no","recycling:glass":"yes","recycling:paper":"yes","recycling:plastic":"yes","recycling_type":"container","wheelchair":"yes"}},"type":"Feature"},
	{"geometry":{"coordinates":[-122.318543,47.609044],"type":"Point"},"properties":{"osm_id":"4239840222","tag":{"amenity":"waste_basket","operator":"Seattle University","wheelchair":"yes"}},"type":"Feature"},
	{"geometry":{"coordinates":[-122.31932,47.609178],"type":"Point"},"properties":{"osm_id":"4239840224","tag":{"amenity":"waste_basket","operator":"Seattle University","wheelchair":"yes"}},"type":"Feature"},
	{"geometry":{"coordinates":[-122.319321,47.609186],"type":"Point"},"properties":{"osm_id":"4239840225","tag":{"amenity":"recycling","operator":"Seattle University","recycling:cans":"yes","recycling:clothes":"no","recycling:glass":"yes","recycling:paper":"yes","recycling:plastic":"yes","recycling_type":"container","wheelchair":"yes"}},"type":"Feature"},
	{"geometry":{"coordinates":[-122.319321,47.609195],"type":"Point"},"properties":{"osm_id":"4239840226","tag":{"amenity":"recycling","operator":"Seattle University","recycling:cans":"no","recycling:clothes":"no","recycling:glass":"no","recycling:glass_bottles":"no","recycling:paper":"no","recycling:plastic":"no","recycling_type":"container"}},"type":"Feature"},
	{"geometry":{"coordinates":[-122.318808,47.609462],"type":"Point"},"properties":{"osm_id":"4239840230","tag":{"amenity":"recycling","operator":"Seattle University","recycling:cans":"no","recycling:clothes":"no","recycling:glass":"no","recycling:glass_bottles":"no","recycling:paper":"no","recycling:plastic":"no","recycling_type":"container"}},"type":"Feature"},
	{"geometry":{"coordinates":[-122.318808,47.60947],"type":"Point"},"properties":{"osm_id":"4239840231","tag":{"amenity":"recycling","operator":"Seattle University","recycling:cans":"yes","recycling:clothes":"no","recycling:glass":"yes","recycling:paper":"yes","recycling:plastic":"yes","recycling_type":"container","wheelchair":"yes"}},"type":"Feature"},
	{"geometry":{"coordinates":[-122.318808,47.609477],"type":"Point"},"properties":{"osm_id":"4239840232","tag":{"amenity":"waste_basket","operator":"Seattle University","wheelchair":"yes"}},"type":"Feature"},
	{"geometry":{"coordinates":[-122.319288,47.609508],"type":"Point"},"properties":{"osm_id":"4239840233","tag":{"amenity":"recycling","operator":"Seattle University","recycling:cans":"no","recycling:clothes":"no","recycling:glass":"no","recycling:glass_bottles":"no","recycling:paper":"no","recycling:plastic":"no","recycling_type":"container"}},"type":"Feature"},
	{"geometry":{"coordinates":[-122.319289,47.609514],"type":"Point"},"properties":{"osm_id":"4239840234","tag":{"amenity":"recycling","operator":"Seattle University","recycling:cans":"yes","recycling:clothes":"no","recycling:glass":"yes","recycling:paper":"yes","recycling:plastic":"yes","recycling_type":"container","wheelchair":"yes"}},"type":"Feature"},
	{"geometry":{"coordinates":[-122.319289,47.60952],"type":"Point"},"properties":{"osm_id":"4239840235","tag":{"amenity":"waste_basket","operator":"Seattle University","wheelchair":"yes"}},"type":"Feature"},
	{"geometry":{"coordinates":[-122.319465,47.60964],"type":"Point"},"properties":{"osm_id":"4239840238","tag":{"amenity":"waste_basket","operator":"Seattle University","wheelchair":"yes"}},"type":"Feature"},
	{"geometry":{"coordinates":[-122.319454,47.609641],"type":"Point"},"properties":{"osm_id":"4239840239","tag":{"amenity":"recycling","operator":"Seattle University","recycling:cans":"yes","recycling:clothes":"no","recycling:glass":"yes","recycling:paper":"yes","recycling:plastic":"yes","recycling_type":"container","wheelchair":"yes"}},"type":"Feature"},
	{"geometry":{"coordinates":[-122.319446,47.609641],"type":"Point"},"properties":{"osm_id":"4239840240","tag":{"amenity":"recycling","operator":"Seattle University","recycling:cans":"no","recycling:clothes":"no","recycling:glass":"no","recycling:glass_bottles":"no","recycling:paper":"no","recycling:plastic":"no","recycling_type":"container"}},"type":"Feature"},
	{"geometry":{"coordinates":[-122.318645,47.609703],"type":"Point"},"properties":{"osm_id":"4239840241","tag":{"amenity":"recycling","operator":"Seattle University","recycling:cans":"no","recycling:clothes":"no","recycling:glass":"no","recycling:glass_bottles":"no","recycling:paper":"no","recycling:plastic":"no","recycling_type":"container"}},"type":"Feature"},
	{"geometry":{"coordinates":[-122.318655,47.609704],"type":"Point"},"properties":{"osm_id":"4239840242","tag":{"amenity":"recycling","operator":"Seattle University","recycling:cans":"yes","recycling:clothes":"no","recycling:glass":"yes","recycling:paper":"yes","recycling:plastic":"yes","recycling_type":"container","wheelchair":"yes"}},"type":"Feature"},
	{"geometry":{"coordinates":[-122.318666,47.609704],"type":"Point"},"properties":{"osm_id":"4239840243","tag":{"amenity":"waste_basket","operator":"Seattle University","wheelchair":"yes"}},"type":"Feature"},
	{"geometry":{"coordinates":[-122.319058,47.609887],"type":"Point"},"properties":{"osm_id":"4239840244","tag":{"amenity":"recycling","operator":"Seattle University","recycling:cans":"no","recycling:clothes":"no","recycling:glass":"no","recycling:glass_bottles":"no","recycling:paper":"no","recycling:plastic":"no","recycling_type":"container"}},"type":"Feature"},
	{"geometry":{"coordinates":[-122.319064,47.609892],"type":"Point"},"properties":{"osm_id":"4239840245","tag":{"amenity":"recycling","operator":"Seattle University","recycling:cans":"yes","recycling:clothes":"no","recycling:glass":"yes","recycling:paper":"yes","recycling:plastic":"yes","recycling_type":"container","wheelchair":"yes"}},"type":"Feature"},
	{"geometry":{"coordinates":[-122.319071,47.609896],"type":"Point"},"properties":{"osm_id":"4239840246","tag":{"amenity":"waste_basket","operator":"Seattle University","wheelchair":"yes"}},"type":"Feature"},
	{"geometry":{"coordinates":[-122.319204,47.610018],"type":"Point"},"properties":{"osm_id":"4239840247","tag":{"amenity":"recycling","operator":"Seattle University","recycling:cans":"no","recycling:clothes":"no","recycling:glass":"no","recycling:glass_bottles":"no","recycling:paper":"no","recycling:plastic":"no","recycling_type":"container"}},"type":"Feature"},
	{"geometry":{"coordinates":[-122.319204,47.610025],"type":"Point"},"properties":{"osm_id":"4239840248","tag":{"amenity":"recycling","operator":"Seattle University","recycling:cans":"yes","recycling:clothes":"no","recycling:glass":"yes","recycling:paper":"yes","recycling:plastic":"yes","recycling_type":"container","wheelchair":"yes"}},"type":"Feature"},
	{"geometry":{"coordinates":[-122.319203,47.610031],"type":"Point"},"properties":{"osm_id":"4239840249","tag":{"amenity":"waste_basket","operator":"Seattle University","wheelchair":"yes"}},"type":"Feature"},
	{"geometry":{"coordinates":[-122.316622,47.610151],"type":"Point"},"properties":{"osm_id":"4239840250","tag":{"amenity":"waste_basket","operator":"Seattle University","wheelchair":"yes"}},"type":"Feature"},
	{"geometry":{"coordinates":[-122.316622,47.610157],"type":"Point"},"properties":{"osm_id":"4239840251","tag":{"amenity":"recycling","operator":"Seattle University","recycling:cans":"yes","recycling:clothes":"no","recycling:glass":"yes","recycling:paper":"yes","recycling:plastic":"yes","recycling_type":"container","wheelchair":"yes"}},"type":"Feature"},
	{"geometry":{"coordinates":[-122.316622,47.610164],"type":"Point"},"properties":{"osm_id":"4239840252","tag":{"amenity":"recycling","operator":"Seattle University","recycling:cans":"no","recycling:clothes":"no","recycling:glass":"no","recycling:glass_bottles":"no","recycling:paper":"no","recycling:plastic":"no","recycling_type":"container"}},"type":"Feature"},
	{"geometry":{"coordinates":[-122.3188,47.610196],"type":"Point"},"properties":{"osm_id":"4239840254","tag":{"amenity":"waste_basket","operator":"Seattle University","wheelchair":"yes"}},"type":"Feature"},
	{"geometry":{"coordinates":[-122.318802,47.610202],"type":"Point"},"properties":{"osm_id":"4239840255","tag":{"amenity":"recycling","operator":"Seattle University","recycling:cans":"yes","recycling:clothes":"no","recycling:glass":"yes","recycling:paper":"yes","recycling:plastic":"yes","recycling_type":"container","wheelchair":"yes"}},"type":"Feature"},
	{"geometry":{"coordinates":[-122.318802,47.610209],"type":"Point"},"properties":{"osm_id":"4239840256","tag":{"amenity":"recycling","operator":"Seattle University","recycling:cans":"no","recycling:clothes":"no","recycling:glass":"no","recycling:glass_bottles":"no","recycling:paper":"no","recycling:plastic":"no","recycling_type":"container"}},"type":"Feature"},
	{"geometry":{"coordinates":[-122.319518,47.610369],"type":"Point"},"properties":{"osm_id":"4239840257","tag":{"amenity":"waste_basket","operator":"Seattle University","wheelchair":"yes"}},"type":"Feature"},
	{"geometry":{"coordinates":[-122.319517,47.610375],"type":"Point"},"properties":{"osm_id":"4239840258","tag":{"amenity":"recycling","operator":"Seattle University","recycling:cans":"yes","recycling:clothes":"no","recycling:glass":"yes","recycling:paper":"yes","recycling:plastic":"yes","recycling_type":"container","wheelchair":"yes"}},"type":"Feature"},
	{"geometry":{"coordinates":[-122.319881,47.610376],"type":"Point"},"properties":{"osm_id":"4239840259","tag":{"amenity":"recycling","operator":"Seattle University","recycling:cans":"no","recycling:clothes":"no","recycling:glass":"no","recycling:glass_bottles":"no","recycling:paper":"no","recycling:plastic":"no","recycling_type":"container"}},"type":"Feature"},
	{"geometry":{"coordinates":[-122.31987,47.610376],"type":"Point"},"properties":{"osm_id":"4239840260","tag":{"amenity":"recycling","operator":"Seattle University","recycling:cans":"yes","recycling:clothes":"no","recycling:glass":"yes","recycling:paper":"yes","recycling:plastic":"yes","recycling_type":"container","wheelchair":"yes"}},"type":"Feature"},
	{"geometry":{"coordinates":[-122.31986,47.610376],"type":"Point"},"properties":{"osm_id":"4239840261","tag":{"amenity":"waste_basket","operator":"Seattle University","wheelchair":"yes"}},"type":"Feature"},
	{"geometry":{"coordinates":[-122.319517,47.61038],"type":"Point"},"properties":{"osm_id":"4239840262","tag":{"amenity":"recycling","operator":"Seattle University","recycling:cans":"no","recycling:clothes":"no","recycling:glass":"no","recycling:glass_bottles":"no","recycling:paper":"no","recycling:plastic":"no","recycling_type":"container"}},"type":"Feature"},
	{"geometry":{"coordinates":[-122.320346,47.610398],"type":"Point"},"properties":{"osm_id":"4239840263","tag":{"amenity":"recycling","operator":"Seattle University","recycling:cans":"no","recycling:clothes":"no","recycling:glass":"no","recycling:glass_bottles":"no","recycling:paper":"no","recycling:plastic":"no","recycling_type":"container"}},"type":"Feature"},
	{"geometry":{"coordinates":[-122.320334,47.610398],"type":"Point"},"properties":{"osm_id":"4239840264","tag":{"amenity":"recycling","operator":"Seattle University","recycling:cans":"yes","recycling:clothes":"no","recycling:glass":"yes","recycling:paper":"yes","recycling:plastic":"yes","recycling_type":"container","wheelchair":"yes"}},"type":"Feature"},
	{"geometry":{"coordinates":[-122.320325,47.610398],"type":"Point"},"properties":{"osm_id":"4239840265","tag":{"amenity":"waste_basket","operator":"Seattle University","wheelchair":"yes"}},"type":"Feature"},
	{"geometry":{"coordinates":[-122.318919,47.610459],"type":"Point"},"properties":{"osm_id":"4239840266","tag":{"amenity":"recycling","operator":"Seattle University","recycling:cans":"no","recycling:clothes":"no","recycling:glass":"no","recycling:glass_bottles":"no","recycling:paper":"no","recycling:plastic":"no","recycling_type":"container"}},"type":"Feature"},
	{"geometry":{"coordinates":[-122.318919,47.610467],"type":"Point"},"properties":{"osm_id":"4239840268","tag":{"amenity":"recycling","operator":"Seattle University","recycling:cans":"yes","recycling:clothes":"no","recycling:glass":"yes","recycling:paper":"yes","recycling:plastic":"yes","recycling_type":"container","wheelchair":"yes"}},"type":"Feature"},
	{"geometry":{"coordinates":[-122.318918,47.610476],"type":"Point"},"properties":{"osm_id":"4239840269","tag":{"amenity":"waste_basket","operator":"Seattle University","wheelchair":"yes"}},"type":"Feature"},
	{"geometry":{"coordinates":[-122.319435,47.610616],"type":"Point"},"properties":{"osm_id":"4239840270","tag":{"amenity":"recycling","operator":"Seattle University","recycling:cans":"no","recycling:clothes":"no","recycling:glass":"no","recycling:glass_bottles":"no","recycling:paper":"no","recycling:plastic":"no","recycling_type":"container"}},"type":"Feature"},
	{"geometry":{"coordinates":[-122.319441,47.610619],"type":"Point"},"properties":{"osm_id":"4239840271","tag":{"amenity":"recycling","operator":"Seattle University","recycling:cans":"yes","recycling:clothes":"no","recycling:glass":"yes","recycling:paper":"yes","recycling:plastic":"yes","recycling_type":"container","wheelchair":"yes"}},"type":"Feature"},
	{"geometry":{"coordinates":[-122.319448,47.610621],"type":"Point"},"properties":{"osm_id":"4239840272","tag":{"amenity":"waste_basket","operator":"Seattle University","wheelchair":"yes"}},"type":"Feature"},
	{"geometry":{"coordinates":[-122.319704,47.610822],"type":"Point"},"properties":{"osm_id":"4239840273","tag":{"amenity":"recycling","operator":"Seattle University","recycling:cans":"no","recycling:clothes":"no","recycling:glass":"no","recycling:glass_bottles":"no","recycling:paper":"no","recycling:plastic":"no","recycling_type":"container"}},"type":"Feature"},
	{"geometry":{"coordinates":[-122.319721,47.610822],"type":"Point"},"properties":{"osm_id":"4239840274","tag":{"amenity":"waste_basket","operator":"Seattle University","wheelchair":"yes"}},"type":"Feature"},
	{"geometry":{"coordinates":[-122.319712,47.610822],"type":"Point"},"properties":{"osm_id":"4239840275","tag":{"amenity":"recycling","operator":"Seattle University","recycling:cans":"yes","recycling:clothes":"no","recycling:glass":"yes","recycling:paper":"yes","recycling:plastic":"yes","recycling_type":"container","wheelchair":"yes"}},"type":"Feature"},
	{"geometry":{"coordinates":[-122.318784,47.611055],"type":"Point"},"properties":{"osm_id":"4239840278","tag":{"amenity":"waste_basket","operator":"Seattle University","wheelchair":"yes"}},"type":"Feature"},
	{"geometry":{"coordinates":[-122.318764,47.611055],"type":"Point"},"properties":{"osm_id":"4239840279","tag":{"amenity":"recycling","operator":"Seattle University","recycling:cans":"no","recycling:clothes":"no","recycling:glass":"no","recycling:glass_bottles":"no","recycling:paper":"no","recycling:plastic":"no","recycling_type":"container"}},"type":"Feature"},
	{"geometry":{"coordinates":[-122.318774,47.611055],"type":"Point"},"properties":{"osm_id":"4239840280","tag":{"amenity":"recycling","operator":"Seattle University","recycling:cans":"yes","recycling:clothes":"no","recycling:glass":"yes","recycling:paper":"yes","recycling:plastic":"yes","recycling_type":"container","wheelchair":"yes"}},"type":"Feature"},
	{"geometry":{"coordinates":[-122.319499,47.611112],"type":"Point"},"properties":{"osm_id":"4239840281","tag":{"amenity":"recycling","operator":"Seattle University","recycling:cans":"no","recycling:clothes":"no","recycling:glass":"no","recycling:glass_bottles":"no","recycling:paper":"no","recycling:plastic":"no","recycling_type":"container"}},"type":"Feature"},
	{"geometry":{"coordinates":[-122.319488,47.611113],"type":"Point"},"properties":{"osm_id":"4239840282","tag":{"amenity":"recycling","operator":"Seattle University","recycling:cans":"yes","recycling:clothes":"no","recycling:glass":"yes","recycling:paper":"yes","recycling:plastic":"yes","recycling_type":"container","wheelchair":"yes"}},"type":"Feature"},
	{"geometry":{"coordinates":[-122.319478,47.611113],"type":"Point"},"properties":{"osm_id":"4239840283","tag":{"amenity":"waste_basket","operator":"Seattle University","wheelchair":"yes"}},"type":"Feature"},
	{"geometry":{"coordinates":[-122.320477,47.611193],"type":"Point"},"properties":{"osm_id":"4239840284","tag":{"amenity":"waste_basket","wheelchair":"yes"}},"type":"Feature"},
	{"geometry":{"coordinates":[-122.317519,47.611505],"type":"Point"},"properties":{"osm_id":"4239840287","tag":{"amenity":"recycling","operator":"Seattle University","recycling:cans":"no","recycling:clothes":"no","recycling:glass":"no","recycling:glass_bottles":"no","recycling:paper":"no","recycling:plastic":"no","recycling_type":"container"}},"type":"Feature"},
	{"geometry":{"coordinates":[-122.317543,47.611505],"type":"Point"},"properties":{"osm_id":"4239840288","tag":{"amenity":"waste_basket","operator":"Seattle University","wheelchair":"yes"}},"type":"Feature"},
	{"geometry":{"coordinates":[-122.31753,47.611506],"type":"Point"},"properties":{"osm_id":"4239840289","tag":{"amenity":"recycling","operator":"Seattle University","recycling:cans":"yes","recycling:clothes":"no","recycling:glass":"yes","recycling:paper":"yes","recycling:plastic":"yes","recycling_type":"container","wheelchair":"yes"}},"type":"Feature"},
	{"geometry":{"coordinates":[-122.31866,47.611516],"type":"Point"},"properties":{"osm_id":"4239840291","tag":{"amenity":"recycling","operator":"Seattle University","recycling:cans":"no","recycling:clothes":"no","recycling:glass":"no","recycling:glass_bottles":"no","recycling:paper":"no","recycling:plastic":"no","recycling_type":"container"}},"type":"Feature"},
	{"geometry":{"coordinates":[-122.318649,47.611516],"type":"Point"},"properties":{"osm_id":"4239840292","tag":{"amenity":"recycling","operator":"Seattle University","recycling:cans":"yes","recycling:clothes":"no","recycling:glass":"yes","recycling:paper":"yes","recycling:plastic":"yes","recycling_type":"container","wheelchair":"yes"}},"type":"Feature"},
	{"geometry":{"coordinates":[-122.318639,47.611517],"type":"Point"},"properties":{"osm_id":"4239840293","tag":{"amenity":"waste_basket","operator":"Seattle University","wheelchair":"yes"}},"type":"Feature"},
	{"geometry":{"coordinates":[-122.319338,47.611571],"type":"Point"},"properties":{"osm_id":"4239840294","tag":{"amenity":"recycling","operator":"Seattle University","recycling:cans":"no","recycling:clothes":"no","recycling:glass":"no","recycling:glass_bottles":"no","recycling:paper":"no","recycling:plastic":"no","recycling_type":"container"}},"type":"Feature"},
	{"geometry":{"coordinates":[-122.319343,47.611576],"type":"Point"},"properties":{"osm_id":"4239840295","tag":{"amenity":"recycling","operator":"Seattle University","recycling:cans":"yes","recycling:clothes":"no","recycling:glass":"yes","recycling:paper":"yes","recycling:plastic":"yes","recycling_type":"container","wheelchair":"yes"}},"type":"Feature"},
	{"geometry":{"coordinates":[-122.319347,47.611581],"type":"Point"},"properties":{"osm_id":"4239840296","tag":{"amenity":"waste_basket","operator":"Seattle University","wheelchair":"yes"}},"type":"Feature"},
	{"geometry":{"coordinates":[-122.317229,47.611617],"type":"Point"},"properties":{"osm_id":"4239840297","tag":{"amenity":"recycling","operator":"Seattle University","recycling:cans":"no","recycling:clothes":"no","recycling:glass":"no","recycling:glass_bottles":"no","recycling:paper":"no","recycling:plastic":"no","recycling_type":"container"}},"type":"Feature"},
	{"geometry":{"coordinates":[-122.317217,47.611617],"type":"Point"},"properties":{"osm_id":"4239840298","tag":{"amenity":"recycling","operator":"Seattle University","recycling:cans":"yes","recycling:clothes":"no","recycling:glass":"yes","recycling:paper":"yes","recycling:plastic":"yes","recycling_type":"container","wheelchair":"yes"}},"type":"Feature"},
	{"geometry":{"coordinates":[-122.317208,47.611618],"type":"Point"},"properties":{"osm_id":"4239840299","tag":{"amenity":"waste_basket","operator":"Seattle University","wheelchair":"yes"}},"type":"Feature"},
	{"geometry":{"coordinates":[-122.337756,47.609546],"type":"Point"},"properties":{"osm_id":"4345197579","tag":{"amenity":"recycling","recycling_type":"container"}},"type":"Feature"},
	{"geometry":{"coordinates":[-122.33837,47.625608],"type":"Point"},"properties":{"osm_id":"4346619101","tag":{"amenity":"waste_basket"}},"type":"Feature"},
	{"geometry":{"coordinates":[-122.328678,47.613449],"type":"Point"},"properties":{"osm_id":"4400512002","tag":{"amenity":"waste_basket"}},"type":"Feature"},
	{"geometry":{"coordinates":[-122.339392,47.622447],"type":"Point"},"properties":{"osm_id":"4435188897","tag":{"amenity":"waste_basket"}},"type":"Feature"},
	{"geometry":{"coordinates":[-122.335709,47.621044],"type":"Point"},"properties":{"osm_id":"4435188898","tag":{"amenity":"waste_basket"}},"type":"Feature"},
	{"geometry":{"coordinates":[-122.339988,47.61641],"type":"Point"},"properties":{"osm_id":"4454480749","tag":{"amenity":"waste_basket"}},"type":"Feature"},
	{"geometry":{"coordinates":[-122.3357,47.61484],"type":"Point"},"properties":{"osm_id":"4480184084","tag":{"amenity":"waste_basket"}},"type":"Feature"},
	{"geometry":{"coordinates":[-122.335569,47.614931],"type":"Point"},"properties":{"osm_id":"4480184086","tag":{"amenity":"waste_basket"}},"type":"Feature"},
	{"geometry":{"coordinates":[-122.335878,47.614828],"type":"Point"},"properties":{"osm_id":"4480195639","tag":{"amenity":"waste_basket"}},"type":"Feature"},
	{"geometry":{"coordinates":[-122.336261,47.614624],"type":"Point"},"properties":{"osm_id":"4480206214","tag":{"amenity":"waste_basket"}},"type":"Feature"},
	{"geometry":{"coordinates":[-122.336097,47.614513],"type":"Point"},"properties":{"osm_id":"4480206215","tag":{"amenity":"waste_basket"}},"type":"Feature"},
	{"geometry":{"coordinates":[-122.336184,47.614686],"type":"Point"},"properties":{"osm_id":"4480206216","tag":{"amenity":"waste_basket"}},"type":"Feature"},
	{"geometry":{"coordinates":[-122.336403,47.613293],"type":"Point"},"properties":{"osm_id":"4480213363","tag":{"amenity":"waste_basket"}},"type":"Feature"},
	{"geometry":{"coordinates":[-122.337732,47.613645],"type":"Point"},"properties":{"osm_id":"4480310895","tag":{"amenity":"waste_basket"}},"type":"Feature"},
	{"geometry":{"coordinates":[-122.337169,47.612583],"type":"Point"},"properties":{"osm_id":"4480347638","tag":{"amenity":"waste_basket"}},"type":"Feature"},
	{"geometry":{"coordinates":[-122.340013,47.615787],"type":"Point"},"properties":{"osm_id":"4504996980","tag":{"amenity":"waste_basket"}},"type":"Feature"},
	{"geometry":{"coordinates":[-122.338888,47.614844],"type":"Point"},"properties":{"osm_id":"4511369461","tag":{"amenity":"waste_basket"}},"type":"Feature"},
	{"geometry":{"coordinates":[-122.324653,47.609441],"type":"Point"},"properties":{"osm_id":"4518345880","tag":{"amenity":"waste_basket"}},"type":"Feature"},
	{"geometry":{"coordinates":[-122.324912,47.609335],"type":"Point"},"properties":{"osm_id":"4518345881","tag":{"amenity":"waste_basket"}},"type":"Feature"},
	{"geometry":{"coordinates":[-122.324166,47.609632],"type":"Point"},"properties":{"osm_id":"4518345882","tag":{"amenity":"waste_basket"}},"type":"Feature"},
	{"geometry":{"coordinates":[-122.32435,47.609548],"type":"Point"},"properties":{"osm_id":"4518345883","tag":{"amenity":"waste_basket"}},"type":"Feature"},
	{"geometry":{"coordinates":[-122.323797,47.609322],"type":"Point"},"properties":{"osm_id":"4518348451","tag":{"amenity":"waste_basket"}},"type":"Feature"},
	{"geometry":{"coordinates":[-122.338328,47.623056],"type":"Point"},"properties":{"osm_id":"4522421824","tag":{"amenity":"waste_basket"}},"type":"Feature"},
	{"geometry":{"coordinates":[-122.338663,47.624291],"type":"Point"},"properties":{"osm_id":"4522425326","tag":{"amenity":"waste_basket"}},"type":"Feature"},
	{"geometry":{"coordinates":[-122.335756,47.609063],"type":"Point"},"properties":{"osm_id":"4531030089","tag":{"amenity":"recycling","recycling_type":"container"}},"type":"Feature"},
	{"geometry":{"coordinates":[-122.332144,47.60165],"type":"Point"},"properties":{"osm_id":"4538644905","tag":{"amenity":"waste_basket"}},"type":"Feature"},
	{"geometry":{"coordinates":[-122.331928,47.601823],"type":"Point"},"properties":{"osm_id":"4538644906","tag":{"amenity":"waste_basket"}},"type":"Feature"},
	{"geometry":{"coordinates":[-122.33173,47.601607],"type":"Point"},"properties":{"osm_id":"4538644907","tag":{"amenity":"waste_basket"}},"type":"Feature"},
	{"geometry":{"coordinates":[-122.330614,47.599971],"type":"Point"},"properties":{"osm_id":"4538653246","tag":{"amenity":"waste_basket"}},"type":"Feature"},
	{"geometry":{"coordinates":[-122.330174,47.60015],"type":"Point"},"properties":{"osm_id":"4538653247","tag":{"amenity":"waste_basket"}},"type":"Feature"},
	{"geometry":{"coordinates":[-122.330389,47.600335],"type":"Point"},"properties":{"osm_id":"4538653248","tag":{"amenity":"waste_basket"}},"type":"Feature"},
	{"geometry":{"coordinates":[-122.330272,47.599118],"type":"Point"},"properties":{"osm_id":"4538658882","tag":{"amenity":"waste_basket"}},"type":"Feature"},
	{"geometry":{"coordinates":[-122.33,47.599356],"type":"Point"},"properties":{"osm_id":"4538658883","tag":{"amenity":"waste_basket"}},"type":"Feature"},
	{"geometry":{"coordinates":[-122.330088,47.598547],"type":"Point"},"properties":{"osm_id":"4538671315","tag":{"amenity":"waste_basket"}},"type":"Feature"},
	{"geometry":{"coordinates":[-122.330078,47.598889],"type":"Point"},"properties":{"osm_id":"4538671317","tag":{"amenity":"waste_basket"}},"type":"Feature"},
	{"geometry":{"coordinates":[-122.330256,47.598405],"type":"Point"},"properties":{"osm_id":"4538671318","tag":{"amenity":"waste_basket"}},"type":"Feature"},
	{"geometry":{"coordinates":[-122.330269,47.597656],"type":"Point"},"properties":{"osm_id":"4538673076","tag":{"amenity":"waste_basket"}},"type":"Feature"},
	{"geometry":{"coordinates":[-122.328877,47.598743],"type":"Point"},"properties":{"osm_id":"4538674065","tag":{"amenity":"waste_basket"}},"type":"Feature"},
	{"geometry":{"coordinates":[-122.328774,47.599339],"type":"Point"},"properties":{"osm_id":"4538678370","tag":{"amenity":"waste_basket"}},"type":"Feature"},
	{"geometry":{"coordinates":[-122.324866,47.600785],"type":"Point"},"properties":{"osm_id":"4538698550","tag":{"amenity":"waste_basket"}},"type":"Feature"},
	{"geometry":{"coordinates":[-122.324552,47.600562],"type":"Point"},"properties":{"osm_id":"4538698551","tag":{"amenity":"waste_basket"}},"type":"Feature"},
	{"geometry":{"coordinates":[-122.324762,47.60067],"type":"Point"},"properties":{"osm_id":"4538698555","tag":{"amenity":"waste_basket"}},"type":"Feature"},
	{"geometry":{"coordinates":[-122.320982,47.618617],"type":"Point"},"properties":{"osm_id":"4538725660","tag":{"amenity":"waste_basket"}},"type":"Feature"},
	{"geometry":{"coordinates":[-122.320995,47.618884],"type":"Point"},"properties":{"osm_id":"4538727209","tag":{"amenity":"waste_basket"}},"type":"Feature"},
	{"geometry":{"coordinates":[-122.32074,47.618913],"type":"Point"},"properties":{"osm_id":"4538727210","tag":{"amenity":"waste_basket"}},"type":"Feature"},
	{"geometry":{"coordinates":[-122.321009,47.619758],"type":"Point"},"properties":{"osm_id":"4538728005","tag":{"amenity":"waste_basket","waste":"trash"}},"type":"Feature"},
	{"geometry":{"coordinates":[-122.336013,47.621657],"type":"Point"},"properties":{"osm_id":"4543964385","tag":{"amenity":"waste_basket"}},"type":"Feature"},
	{"geometry":{"coordinates":[-122.33495,47.619293],"type":"Point"},"properties":{"osm_id":"4543970777","tag":{"amenity":"waste_basket"}},"type":"Feature"},
	{"geometry":{"coordinates":[-122.334262,47.616539],"type":"Point"},"properties":{"osm_id":"4543999867","tag":{"amenity":"waste_basket"}},"type":"Feature"},
	{"geometry":{"coordinates":[-122.334776,47.61552],"type":"Point"},"properties":{"osm_id":"4544000562","tag":{"amenity":"waste_basket"}},"type":"Feature"},
	{"geometry":{"coordinates":[-122.334828,47.615476],"type":"Point"},"properties":{"osm_id":"4544000564","tag":{"amenity":"waste_basket"}},"type":"Feature"},
	{"geometry":{"coordinates":[-122.338197,47.618295],"type":"Point"},"properties":{"osm_id":"4554901113","tag":{"amenity":"waste_basket"}},"type":"Feature"},
	{"geometry":{"coordinates":[-122.338203,47.618203],"type":"Point"},"properties":{"osm_id":"4554901114","tag":{"amenity":"waste_basket"}},"type":"Feature"},
	{"geometry":{"coordinates":[-122.338085,47.618228],"type":"Point"},"properties":{"osm_id":"4554901116","tag":{"amenity":"waste_basket"}},"type":"Feature"},
	{"geometry":{"coordinates":[-122.335645,47.610831],"type":"Point"},"properties":{"osm_id":"4735308791","tag":{"amenity":"waste_basket"}},"type":"Feature"},
	{"geometry":{"coordinates":[-122.337968,47.609837],"type":"Point"},"properties":{"osm_id":"4735308792","tag":{"amenity":"waste_basket"}},"type":"Feature"},
	{"geometry":{"coordinates":[-122.338767,47.609438],"type":"Point"},"properties":{"osm_id":"4735308794","tag":{"amenity":"waste_basket"}},"type":"Feature"},
	{"geometry":{"coordinates":[-122.338794,47.609425],"type":"Point"},"properties":{"osm_id":"4735308796","tag":{"amenity":"recycling","recycling_type":"container"}},"type":"Feature"},
	{"geometry":{"coordinates":[-122.336906,47.610297],"type":"Point"},"properties":{"osm_id":"4735308797","tag":{"amenity":"waste_basket"}},"type":"Feature"},
	{"geometry":{"coordinates":[-122.338946,47.609498],"type":"Point"},"properties":{"osm_id":"4735308798","tag":{"amenity":"recycling","recycling_type":"container"}},"type":"Feature"},
	{"geometry":{"coordinates":[-122.338931,47.609468],"type":"Point"},"properties":{"osm_id":"4735308800","tag":{"amenity":"waste_basket"}},"type":"Feature"},
	{"geometry":{"coordinates":[-122.336991,47.610158],"type":"Point"},"properties":{"osm_id":"4735308801","tag":{"amenity":"recycling","recycling_type":"container"}},"type":"Feature"},
	{"geometry":{"coordinates":[-122.340019,47.614931],"type":"Point"},"properties":{"osm_id":"4813977244","tag":{"amenity":"waste_basket"}},"type":"Feature"},
	{"geometry":{"coordinates":[-122.339974,47.61563],"type":"Point"},"properties":{"osm_id":"4814017554","tag":{"amenity":"waste_basket"}},"type":"Feature"},
	{"geometry":{"coordinates":[-122.341142,47.608431],"type":"Point"},"properties":{"osm_id":"4816606151","tag":{"amenity":"waste_basket"}},"type":"Feature"},
	{"geometry":{"coordinates":[-122.34127,47.608373],"type":"Point"},"properties":{"osm_id":"4816606152","tag":{"amenity":"waste_basket"}},"type":"Feature"},
	{"geometry":{"coordinates":[-122.332974,47.605892],"type":"Point"},"properties":{"osm_id":"4867291521","tag":{"amenity":"recycling","recycling_type":"container"}},"type":"Feature"},
	{"geometry":{"coordinates":[-122.337521,47.609582],"type":"Point"},"properties":{"osm_id":"4888662535","tag":{"amenity":"waste_basket"}},"type":"Feature"},
	{"geometry":{"coordinates":[-122.340109,47.621096],"type":"Point"},"properties":{"osm_id":"4897946738","tag":{"amenity":"waste_basket"}},"type":"Feature"},
	{"geometry":{"coordinates":[-122.335674,47.623395],"type":"Point"},"properties":{"osm_id":"4927490738","tag":{"amenity":"waste_basket"}},"type":"Feature"},
	{"geometry":{"coordinates":[-122.336743,47.623152],"type":"Point"},"properties":{"osm_id":"4927491722","tag":{"amenity":"waste_basket"}},"type":"Feature"},
	{"geometry":{"coordinates":[-122.339603,47.622583],"type":"Point"},"properties":{"osm_id":"4967028154","tag":{"amenity":"waste_basket"}},"type":"Feature"},
	{"geometry":{"coordinates":[-122.326202,47.59855],"type":"Point"},"properties":{"osm_id":"5003876563","tag":{"amenity":"waste_basket"}},"type":"Feature"},
	{"geometry":{"coordinates":[-122.326049,47.598476],"type":"Point"},"properties":{"osm_id":"5003876564","tag":{"amenity":"waste_basket"}},"type":"Feature"},
	{"geometry":{"coordinates":[-122.326454,47.598469],"type":"Point"},"properties":{"osm_id":"5003876565","tag":{"amenity":"waste_basket"}},"type":"Feature"},
	{"geometry":{"coordinates":[-122.325684,47.598516],"type":"Point"},"properties":{"osm_id":"5003876566","tag":{"amenity":"waste_basket"}},"type":"Feature"},
	{"geometry":{"coordinates":[-122.324856,47.598434],"type":"Point"},"properties":{"osm_id":"5003882821","tag":{"amenity":"waste_basket"}},"type":"Feature"},
	{"geometry":{"coordinates":[-122.32527,47.598313],"type":"Point"},"properties":{"osm_id":"5003882822","tag":{"amenity":"waste_basket"}},"type":"Feature"},
	{"geometry":{"coordinates":[-122.334566,47.611026],"type":"Point"},"properties":{"osm_id":"5054942160","tag":{"amenity":"recycling","recycling_type":"container"}},"type":"Feature"},
	{"geometry":{"coordinates":[-122.307259,47.624016],"type":"Point"},"properties":{"osm_id":"5074755809","tag":{"amenity":"waste_basket"}},"type":"Feature"},
	{"geometry":{"coordinates":[-122.334883,47.609679],"type":"Point"},"properties":{"osm_id":"5146272917","tag":{"amenity":"recycling","recycling_type":"container"}},"type":"Feature"},
	{"geometry":{"coordinates":[-122.335843,47.609443],"type":"Point"},"properties":{"osm_id":"5146272919","tag":{"amenity":"waste_basket"}},"type":"Feature"},
	{"geometry":{"coordinates":[-122.335828,47.609422],"type":"Point"},"properties":{"osm_id":"5146272920","tag":{"amenity":"recycling","recycling_type":"container"}},"type":"Feature"},
	{"geometry":{"coordinates":[-122.320975,47.615641],"type":"Point"},"properties":{"osm_id":"5201089793","tag":{"amenity":"waste_basket"}},"type":"Feature"},
	{"geometry":{"coordinates":[-122.321591,47.615765],"type":"Point"},"properties":{"osm_id":"5201089794","tag":{"amenity":"waste_basket"}},"type":"Feature"},
	{"geometry":{"coordinates":[-122.321219,47.61582],"type":"Point"},"properties":{"osm_id":"5201089796","tag":{"amenity":"waste_basket"}},"type":"Feature"},
	{"geometry":{"coordinates":[-122.321066,47.615898],"type":"Point"},"properties":{"osm_id":"5201089797","tag":{"amenity":"waste_basket"}},"type":"Feature"},
	{"geometry":{"coordinates":[-122.320917,47.616255],"type":"Point"},"properties":{"osm_id":"5201089798","tag":{"amenity":"waste_basket"}},"type":"Feature"},
	{"geometry":{"coordinates":[-122.321,47.616203],"type":"Point"},"properties":{"osm_id":"5201089799","tag":{"amenity":"waste_basket"}},"type":"Feature"},
	{"geometry":{"coordinates":[-122.321089,47.616511],"type":"Point"},"properties":{"osm_id":"5201089800","tag":{"amenity":"waste_basket"}},"type":"Feature"},
	{"geometry":{"coordinates":[-122.320919,47.617072],"type":"Point"},"properties":{"osm_id":"5201089801","tag":{"amenity":"waste_basket"}},"type":"Feature"},
	{"geometry":{"coordinates":[-122.32115,47.615507],"type":"Point"},"properties":{"osm_id":"5201089802","tag":{"amenity":"waste_basket"}},"type":"Feature"},
	{"geometry":{"coordinates":[-122.337428,47.607487],"type":"Point"},"properties":{"osm_id":"5222221339","tag":{"amenity":"waste_basket"}},"type":"Feature"},
	{"geometry":{"coordinates":[-122.333288,47.608081],"type":"Point"},"properties":{"osm_id":"5222221341","tag":{"amenity":"waste_basket"}},"type":"Feature"},
	{"geometry":{"coordinates":[-122.333132,47.608125],"type":"Point"},"properties":{"osm_id":"5222221343","tag":{"amenity":"waste_basket"}},"type":"Feature"},
	{"geometry":{"coordinates":[-122.333701,47.608521],"type":"Point"},"properties":{"osm_id":"5222221344","tag":{"amenity":"waste_basket"}},"type":"Feature"},
	{"geometry":{"coordinates":[-122.334746,47.609877],"type":"Point"},"properties":{"osm_id":"5222221346","tag":{"amenity":"waste_basket"}},"type":"Feature"},
	{"geometry":{"coordinates":[-122.334225,47.609306],"type":"Point"},"properties":{"osm_id":"5222221348","tag":{"amenity":"waste_basket"}},"type":"Feature"},
	{"geometry":{"coordinates":[-122.336547,47.606838],"type":"Point"},"properties":{"osm_id":"5222221350","tag":{"amenity":"waste_basket"}},"type":"Feature"},
	{"geometry":{"coordinates":[-122.338018,47.608129],"type":"Point"},"properties":{"osm_id":"5222221352","tag":{"amenity":"waste_basket"}},"type":"Feature"},
	{"geometry":{"coordinates":[-122.334562,47.609827],"type":"Point"},"properties":{"osm_id":"5222221353","tag":{"amenity":"waste_basket"}},"type":"Feature"},
	{"geometry":{"coordinates":[-122.333607,47.608625],"type":"Point"},"properties":{"osm_id":"5222221354","tag":{"amenity":"waste_basket"}},"type":"Feature"},
	{"geometry":{"coordinates":[-122.33381,47.608845],"type":"Point"},"properties":{"osm_id":"5222221355","tag":{"amenity":"waste_basket"}},"type":"Feature"},
	{"geometry":{"coordinates":[-122.333975,47.610682],"type":"Point"},"properties":{"osm_id":"5222221358","tag":{"amenity":"waste_basket"}},"type":"Feature"},
	{"geometry":{"coordinates":[-122.33405,47.608911],"type":"Point"},"properties":{"osm_id":"5222221359","tag":{"amenity":"waste_basket"}},"type":"Feature"},
	{"geometry":{"coordinates":[-122.334196,47.610972],"type":"Point"},"properties":{"osm_id":"5222221360","tag":{"amenity":"waste_basket"}},"type":"Feature"},
	{"geometry":{"coordinates":[-122.335741,47.609046],"type":"Point"},"properties":{"osm_id":"5650531842","tag":{"amenity":"waste_basket"}},"type":"Feature"},
	{"geometry":{"coordinates":[-122.327325,47.58011],"type":"Point"},"properties":{"osm_id":"5680515484","tag":{"amenity":"recycling","recycling_type":"container"}},"type":"Feature"},
	{"geometry":{"coordinates":[-122.32889,47.579576],"type":"Point"},"properties":{"osm_id":"5695200789","tag":{"amenity":"waste_basket"}},"type":"Feature"},
	{"geometry":{"coordinates":[-122.327463,47.580586],"type":"Point"},"properties":{"osm_id":"5695205557","tag":{"amenity":"recycling","recycling_type":"container"}},"type":"Feature"},
	{"geometry":{"coordinates":[-122.327463,47.580458],"type":"Point"},"properties":{"osm_id":"5695205558","tag":{"amenity":"waste_basket"}},"type":"Feature"},
	{"geometry":{"coordinates":[-122.311927,47.578697],"type":"Point"},"properties":{"osm_id":"5695257761","tag":{"amenity":"recycling","recycling_type":"container"}},"type":"Feature"},
	{"geometry":{"coordinates":[-122.312311,47.57923],"type":"Point"},"properties":{"osm_id":"5695257762","tag":{"amenity":"waste_basket"}},"type":"Feature"},
	{"geometry":{"coordinates":[-122.311903,47.5787],"type":"Point"},"properties":{"osm_id":"5695257763","tag":{"amenity":"waste_basket"}},"type":"Feature"},
	{"geometry":{"coordinates":[-122.297148,47.576771],"type":"Point"},"properties":{"osm_id":"5695313230","tag":{"amenity":"waste_basket"}},"type":"Feature"},
	{"geometry":{"coordinates":[-122.336673,47.60869],"type":"Point"},"properties":{"osm_id":"5809588339","tag":{"amenity":"waste_basket"}},"type":"Feature"},
	{"geometry":{"coordinates":[-122.33596,47.60757],"type":"Point"},"properties":{"osm_id":"5830423134","tag":{"amenity":"waste_basket"}},"type":"Feature"},
	{"geometry":{"coordinates":[-122.342219,47.619037],"type":"Point"},"properties":{"osm_id":"5977047638","tag":{"amenity":"waste_basket"}},"type":"Feature"},
	{"geometry":{"coordinates":[-122.297461,47.633638],"type":"Point"},"properties":{"osm_id":"6001423599","tag":{"amenity":"waste_basket"}},"type":"Feature"},
	{"geometry":{"coordinates":[-122.296938,47.633085],"type":"Point"},"properties":{"osm_id":"6001433096","tag":{"amenity":"waste_basket"}},"type":"Feature"},
	{"geometry":{"coordinates":[-122.296771,47.631789],"type":"Point"},"properties":{"osm_id":"6005446714","tag":{"amenity":"waste_basket"}},"type":"Feature"},
	{"geometry":{"coordinates":[-122.296809,47.631681],"type":"Point"},"properties":{"osm_id":"6005446715","tag":{"amenity":"waste_basket","node":"0"}},"type":"Feature"},
	{"geometry":{"coordinates":[-122.339449,47.627033],"type":"Point"},"properties":{"osm_id":"6053238508","tag":{"amenity":"waste_basket"}},"type":"Feature"},
	{"geometry":{"coordinates":[-122.326622,47.607458],"type":"Point"},"properties":{"osm_id":"6177471616","tag":{"amenity":"waste_basket"}},"type":"Feature"},
	{"geometry":{"coordinates":[-122.324908,47.605854],"type":"Point"},"properties":{"osm_id":"6177484486","tag":{"amenity":"waste_basket"}},"type":"Feature"},
	{"geometry":{"coordinates":[-122.324899,47.605841],"type":"Point"},"properties":{"osm_id":"6177484487","tag":{"amenity":"recycling","recycling_type":"container"}},"type":"Feature"},
	{"geometry":{"coordinates":[-122.327248,47.608542],"type":"Point"},"properties":{"osm_id":"6186617952","tag":{"amenity":"waste_basket"}},"type":"Feature"},
	{"geometry":{"coordinates":[-122.327225,47.608553],"type":"Point"},"properties":{"osm_id":"6186617953","tag":{"amenity":"recycling","recycling_type":"container"}},"type":"Feature"},
	{"geometry":{"coordinates":[-122.325638,47.609227],"type":"Point"},"properties":{"osm_id":"6186617954","tag":{"amenity":"waste_basket"}},"type":"Feature"},
	{"geometry":{"coordinates":[-122.325626,47.609233],"type":"Point"},"properties":{"osm_id":"6186617955","tag":{"amenity":"recycling","recycling_type":"container"}},"type":"Feature"},
	{"geometry":{"coordinates":[-122.328364,47.609896],"type":"Point"},"properties":{"osm_id":"6187050693","tag":{"amenity":"waste_basket"}},"type":"Feature"},
	{"geometry":{"coordinates":[-122.328355,47.609899],"type":"Point"},"properties":{"osm_id":"6187050694","tag":{"amenity":"recycling","recycling_type":"container"}},"type":"Feature"},
	{"geometry":{"coordinates":[-122.327893,47.610246],"type":"Point"},"properties":{"osm_id":"6187050695","tag":{"amenity":"waste_basket"}},"type":"Feature"},
	{"geometry":{"coordinates":[-122.327886,47.61025],"type":"Point"},"properties":{"osm_id":"6187050696","tag":{"amenity":"recycling","recycling_type":"container"}},"type":"Feature"},
	{"geometry":{"coordinates":[-122.324558,47.611635],"type":"Point"},"properties":{"osm_id":"6187055210","tag":{"amenity":"waste_basket"}},"type":"Feature"},
	{"geometry":{"coordinates":[-122.321433,47.622436],"type":"Point"},"properties":{"osm_id":"6287449662","tag":{"amenity":"waste_basket","waste":"drugs"}},"type":"Feature"},
	{"geometry":{"coordinates":[-122.324176,47.604048],"type":"Point"},"properties":{"name":"Harborview Ninth and Jefferson Street Pharmacy","osm_id":"6287462040","tag":{"amenity":"waste_basket","waste":"drugs"}},"type":"Feature"},
	{"geometry":{"coordinates":[-122.322053,47.596124],"type":"Point"},"properties":{"name":"ICHS - International District","osm_id":"6289977988","tag":{"amenity":"waste_basket","waste_disposal":"medicine"}},"type":"Feature"},
	{"geometry":{"coordinates":[-122.328764,47.60714],"type":"Point"},"properties":{"name":"Kelley Ross Pharmacy","osm_id":"6289989569","tag":{"amenity":"waste_basket","waste_disposal":"medicine"}},"type":"Feature"},
	{"geometry":{"coordinates":[-122.322077,47.610258],"type":"Point"},"properties":{"name":"Seattle Meds Pharmacy","osm_id":"6290068956","tag":{"amenity":"waste_basket","waste_disposal":"medicine"}},"type":"Feature"},
	{"geometry":{"coordinates":[-122.323085,47.609903],"type":"Point"},"properties":{"name":"Swedish Arnold Pavilion Pharmacy","osm_id":"6290074819","tag":{"amenity":"waste_basket","waste_disposal":"medicine"}},"type":"Feature"},
	{"geometry":{"coordinates":[-122.329733,47.626432],"type":"Point"},"properties":{"name":"Seattle Cancer Care Alliance Pharmacy","osm_id":"6290114643","tag":{"amenity":"waste_basket","waste_disposal":"medicine"}},"type":"Feature"},
	{"geometry":{"coordinates":[-122.306981,47.623424],"type":"Point"},"properties":{"name":"Country Doctor Community Health Clinic Pharmacy","osm_id":"6290118775","tag":{"amenity":"waste_basket","waste_disposal":"medicine"}},"type":"Feature"},
	{"geometry":{"coordinates":[-122.31249,47.619575],"type":"Point"},"properties":{"name":"Kaiser Permamente Pharmacy Capitol Hill","osm_id":"6290119428","tag":{"amenity":"waste_basket","waste_disposal":"medicine"}},"type":"Feature"},
	{"geometry":{"coordinates":[-122.318154,47.597215],"type":"Point"},"properties":{"name":"Seattle Indian Health Board","osm_id":"6290132743","tag":{"amenity":"waste_basket","waste_disposal":"medicine"}},"type":"Feature"},
	{"geometry":{"coordinates":[-122.342112,47.614535],"type":"Point"},"properties":{"name":"Downtown Public Health Center","osm_id":"6290136028","tag":{"amenity":"waste_basket","waste_disposal":"medicine"}},"type":"Feature"},
	{"geometry":{"coordinates":[-122.304478,47.601348],"type":"Point"},"properties":{"name":"Carolyn Downs Community Health Clinic Pharmacy","osm_id":"6290140783","tag":{"amenity":"waste_basket","waste_disposal":"medicine"}},"type":"Feature"},
	{"geometry":{"coordinates":[-122.332405,47.613481],"type":"Point"},"properties":{"osm_id":"6381684498","tag":{"amenity":"waste_basket"}},"type":"Feature"},
	{"geometry":{"coordinates":[-122.333785,47.627613],"type":"Point"},"properties":{"osm_id":"6465904122","tag":{"amenity":"waste_basket"}},"type":"Feature"},
	{"geometry":{"coordinates":[-122.333597,47.628373],"type":"Point"},"properties":{"osm_id":"6465904123","tag":{"amenity":"waste_basket"}},"type":"Feature"},
	{"geometry":{"coordinates":[-122.334139,47.627715],"type":"Point"},"properties":{"osm_id":"6465904148","tag":{"amenity":"waste_basket"}},"type":"Feature"},
	{"geometry":{"coordinates":[-122.333204,47.62805],"type":"Point"},"properties":{"osm_id":"6465905601","tag":{"amenity":"waste_basket"}},"type":"Feature"},
	{"geometry":{"coordinates":[-122.333409,47.62802],"type":"Point"},"properties":{"osm_id":"6465905603","tag":{"amenity":"waste_basket"}},"type":"Feature"},
	{"geometry":{"coordinates":[-122.332796,47.627722],"type":"Point"},"properties":{"osm_id":"6465906690","tag":{"amenity":"waste_basket"}},"type":"Feature"},
	{"geometry":{"coordinates":[-122.333316,47.627624],"type":"Point"},"properties":{"osm_id":"6465908103","tag":{"amenity":"waste_basket"}},"type":"Feature"},
	{"geometry":{"coordinates":[-122.32105,47.622871],"type":"Point"},"properties":{"osm_id":"6466823641","tag":{"amenity":"waste_basket"}},"type":"Feature"},
	{"geometry":{"coordinates":[-122.32104,47.622505],"type":"Point"},"properties":{"osm_id":"6466828998","tag":{"amenity":"waste_basket"}},"type":"Feature"},
	{"geometry":{"coordinates":[-122.321081,47.621462],"type":"Point"},"properties":{"osm_id":"6466846951","tag":{"amenity":"waste_basket"}},"type":"Feature"},
	{"geometry":{"coordinates":[-122.320982,47.618628],"type":"Point"},"properties":{"osm_id":"6466897251","tag":{"amenity":"recycling","recycling_type":"container"}},"type":"Feature"},
	{"geometry":{"coordinates":[-122.320995,47.618874],"type":"Point"},"properties":{"osm_id":"6466897930","tag":{"amenity":"recycling","recycling_type":"container"}},"type":"Feature"},
	{"geometry":{"coordinates":[-122.284533,47.622633],"type":"Point"},"properties":{"osm_id":"6507764519","tag":{"amenity":"waste_basket"}},"type":"Feature"},
	{"geometry":{"coordinates":[-122.339391,47.616562],"type":"Point"},"properties":{"osm_id":"6582458895","tag":{"amenity":"waste_basket"}},"type":"Feature"},
	{"geometry":{"coordinates":[-122.339035,47.616679],"type":"Point"},"properties":{"osm_id":"6582458900","tag":{"amenity":"waste_basket"}},"type":"Feature"},
	{"geometry":{"coordinates":[-122.293214,47.63176],"type":"Point"},"properties":{"osm_id":"6655438706","tag":{"amenity":"waste_basket"}},"type":"Feature"},
	{"geometry":{"coordinates":[-122.29451,47.630317],"type":"Point"},"properties":{"osm_id":"6655520093","tag":{"amenity":"waste_basket","wheelchair":"yes"}},"type":"Feature"},
	{"geometry":{"coordinates":[-122.294277,47.629984],"type":"Point"},"properties":{"osm_id":"6655520095","tag":{"amenity":"waste_basket","wheelchair":"yes"}},"type":"Feature"},
	{"geometry":{"coordinates":[-122.294477,47.630741],"type":"Point"},"properties":{"osm_id":"6655520096","tag":{"amenity":"waste_basket","wheelchair":"yes"}},"type":"Feature"},
	{"geometry":{"coordinates":[-122.295016,47.635104],"type":"Point"},"properties":{"osm_id":"6655559365","tag":{"amenity":"waste_basket","wheelchair":"yes"}},"type":"Feature"},
	{"geometry":{"coordinates":[-122.319283,47.614164],"type":"Point"},"properties":{"osm_id":"6695969475","tag":{"amenity":"waste_basket"}},"type":"Feature"},
	{"geometry":{"coordinates":[-122.319283,47.614013],"type":"Point"},"properties":{"osm_id":"6695969476","tag":{"amenity":"waste_basket"}},"type":"Feature"},
	{"geometry":{"coordinates":[-122.320488,47.613997],"type":"Point"},"properties":{"osm_id":"6695969478","tag":{"amenity":"waste_basket"}},"type":"Feature"},
	{"geometry":{"coordinates":[-122.319783,47.61416],"type":"Point"},"properties":{"osm_id":"6695969479","tag":{"amenity":"waste_basket"}},"type":"Feature"},
	{"geometry":{"coordinates":[-122.318585,47.614004],"type":"Point"},"properties":{"osm_id":"6695969481","tag":{"amenity":"waste_basket"}},"type":"Feature"},
	{"geometry":{"coordinates":[-122.319968,47.61401],"type":"Point"},"properties":{"osm_id":"6695969482","tag":{"amenity":"waste_basket"}},"type":"Feature"},
	{"geometry":{"coordinates":[-122.318043,47.613815],"type":"Point"},"properties":{"osm_id":"6695984847","tag":{"amenity":"waste_basket"}},"type":"Feature"},
	{"geometry":{"coordinates":[-122.31799,47.614172],"type":"Point"},"properties":{"osm_id":"6695984852","tag":{"amenity":"waste_basket"}},"type":"Feature"},
	{"geometry":{"coordinates":[-122.317979,47.614025],"type":"Point"},"properties":{"osm_id":"6695984854","tag":{"amenity":"waste_basket"}},"type":"Feature"},
	{"geometry":{"coordinates":[-122.318546,47.615414],"type":"Point"},"properties":{"osm_id":"6695999171","tag":{"amenity":"waste_basket"}},"type":"Feature"},
	{"geometry":{"coordinates":[-122.319698,47.615402],"type":"Point"},"properties":{"osm_id":"6695999173","tag":{"amenity":"waste_basket"}},"type":"Feature"},
	{"geometry":{"coordinates":[-122.318254,47.614878],"type":"Point"},"properties":{"osm_id":"6695999174","tag":{"amenity":"waste_basket"}},"type":"Feature"},
	{"geometry":{"coordinates":[-122.319277,47.6154],"type":"Point"},"properties":{"osm_id":"6695999180","tag":{"amenity":"waste_basket"}},"type":"Feature"},
	{"geometry":{"coordinates":[-122.319749,47.6154],"type":"Point"},"properties":{"osm_id":"6695999181","tag":{"amenity":"waste_basket"}},"type":"Feature"},
	{"geometry":{"coordinates":[-122.318378,47.615471],"type":"Point"},"properties":{"osm_id":"6696005088","tag":{"amenity":"waste_basket"}},"type":"Feature"},
	{"geometry":{"coordinates":[-122.318035,47.615203],"type":"Point"},"properties":{"osm_id":"6696005089","tag":{"amenity":"waste_basket"}},"type":"Feature"},
	{"geometry":{"coordinates":[-122.318842,47.615399],"type":"Point"},"properties":{"osm_id":"6696005090","tag":{"amenity":"waste_basket"}},"type":"Feature"},
	{"geometry":{"coordinates":[-122.322023,47.613872],"type":"Point"},"properties":{"osm_id":"6696024470","tag":{"amenity":"waste_basket"}},"type":"Feature"},
	{"geometry":{"coordinates":[-122.322015,47.614382],"type":"Point"},"properties":{"osm_id":"6696024471","tag":{"amenity":"waste_basket"}},"type":"Feature"},
	{"geometry":{"coordinates":[-122.321916,47.61399],"type":"Point"},"properties":{"osm_id":"6696024473","tag":{"amenity":"waste_basket"}},"type":"Feature"},
	{"geometry":{"coordinates":[-122.323173,47.613983],"type":"Point"},"properties":{"osm_id":"6696024474","tag":{"amenity":"waste_basket"}},"type":"Feature"},
	{"geometry":{"coordinates":[-122.321234,47.613997],"type":"Point"},"properties":{"osm_id":"6696024475","tag":{"amenity":"waste_basket"}},"type":"Feature"},
	{"geometry":{"coordinates":[-122.320995,47.613947],"type":"Point"},"properties":{"osm_id":"6696024478","tag":{"amenity":"waste_basket"}},"type":"Feature"},
	{"geometry":{"coordinates":[-122.321018,47.613959],"type":"Point"},"properties":{"osm_id":"6696024479","tag":{"amenity":"waste_basket"}},"type":"Feature"},
	{"geometry":{"coordinates":[-122.320893,47.613734],"type":"Point"},"properties":{"osm_id":"6696024483","tag":{"amenity":"waste_basket"}},"type":"Feature"},
	{"geometry":{"coordinates":[-122.321077,47.615702],"type":"Point"},"properties":{"osm_id":"6696084717","tag":{"amenity":"waste_basket"}},"type":"Feature"},
	{"geometry":{"coordinates":[-122.319603,47.615191],"type":"Point"},"properties":{"osm_id":"6696112000","tag":{"amenity":"waste_basket"}},"type":"Feature"},
	{"geometry":{"coordinates":[-122.338003,47.617006],"type":"Point"},"properties":{"osm_id":"6770832881","tag":{"amenity":"waste_basket"}},"type":"Feature"},
	{"geometry":{"coordinates":[-122.337883,47.616912],"type":"Point"},"properties":{"osm_id":"6770832883","tag":{"amenity":"waste_basket"}},"type":"Feature"},
	{"geometry":{"coordinates":[-122.337611,47.616903],"type":"Point"},"properties":{"osm_id":"6770832884","tag":{"amenity":"waste_basket"}},"type":"Feature"},
	{"geometry":{"coordinates":[-122.32088,47.605342],"type":"Point"},"properties":{"osm_id":"6797639080","tag":{"amenity":"waste_basket"}},"type":"Feature"},
	{"geometry":{"coordinates":[-122.309534,47.617474],"type":"Point"},"properties":{"osm_id":"7041093564","tag":{"amenity":"recycling","recycling_type":"container"}},"type":"Feature"},
	{"geometry":{"coordinates":[-122.309597,47.617526],"type":"Point"},"properties":{"osm_id":"7041093565","tag":{"access":"private","amenity":"waste_disposal","waste":"trash"}},"type":"Feature"},
	{"geometry":{"coordinates":[-122.323097,47.613083],"type":"Point"},"properties":{"osm_id":"7111008440","tag":{"amenity":"waste_basket","waste":"dog_excrement"}},"type":"Feature"},
	{"geometry":{"coordinates":[-122.320893,47.614235],"type":"Point"},"properties":{"osm_id":"7175841732","tag":{"amenity":"waste_basket"}},"type":"Feature"},
	{"geometry":{"coordinates":[-122.320771,47.614982],"type":"Point"},"properties":{"osm_id":"7175841734","tag":{"amenity":"waste_basket"}},"type":"Feature"},
	{"geometry":{"coordinates":[-122.295614,47.633337],"type":"Point"},"properties":{"osm_id":"7196355836","tag":{"amenity":"waste_basket"}},"type":"Feature"},
	{"geometry":{"coordinates":[-122.33055,47.619862],"type":"Point"},"properties":{"osm_id":"7213030110","tag":{"amenity":"waste_basket"}},"type":"Feature"},
	{"geometry":{"coordinates":[-122.320534,47.602509],"type":"Point"},"properties":{"osm_id":"7686173456","tag":{"amenity":"waste_basket"}},"type":"Feature"},
	{"geometry":{"coordinates":[-122.322045,47.616025],"type":"Point"},"properties":{"osm_id":"7755010177","tag":{"amenity":"waste_basket"}},"type":"Feature"}
]
}
