{
"type": "FeatureCollection",
"features": [
	{"geometry":{"coordinates":[-122.280484,47.573469],"type":"Point"},"properties":{"osm_id":"1950333465","tag":{"amenity":"waste_basket"}},"type":"Feature"},
	{"geometry":{"coordinates":[-122.256363,47.552375],"type":"Point"},"properties":{"osm_id":"2338236654","tag":{"amenity":"waste_basket"}},"type":"Feature"},
	{"geometry":{"coordinates":[-122.257505,47.551216],"type":"Point"},"properties":{"osm_id":"2338293726","tag":{"amenity":"recycling"}},"type":"Feature"},
	{"geometry":{"coordinates":[-122.257538,47.551079],"type":"Point"},"properties":{"osm_id":"2338293727","tag":{"amenity":"waste_basket"}},"type":"Feature"},
	{"geometry":{"coordinates":[-122.257131,47.550747],"type":"Point"},"properties":{"osm_id":"2338293728","tag":{"amenity":"waste_basket"}},"type":"Feature"},
	{"geometry":{"coordinates":[-122.257524,47.551402],"type":"Point"},"properties":{"osm_id":"2338293736","tag":{"amenity":"waste_basket"}},"type":"Feature"},
	{"geometry":{"coordinates":[-122.256342,47.550107],"type":"Point"},"properties":{"osm_id":"2338301611","tag":{"amenity":"waste_basket"}},"type":"Feature"},
	{"geometry":{"coordinates":[-122.256371,47.549562],"type":"Point"},"properties":{"osm_id":"2338301615","tag":{"amenity":"recycling"}},"type":"Feature"},
	{"geometry":{"coordinates":[-122.256327,47.549563],"type":"Point"},"properties":{"osm_id":"2338301617","tag":{"amenity":"waste_basket"}},"type":"Feature"},
	{"geometry":{"coordinates":[-122.256397,47.54971],"type":"Point"},"properties":{"osm_id":"2338301618","tag":{"amenity":"waste_basket"}},"type":"Feature"},
	{"geometry":{"coordinates":[-122.256662,47.54941],"type":"Point"},"properties":{"osm_id":"2338301620","tag":{"amenity":"waste_basket"}},"type":"Feature"},
	{"geometry":{"coordinates":[-122.255898,47.549171],"type":"Point"},"properties":{"osm_id":"2338307684","tag":{"amenity":"recycling"}},"type":"Feature"},
	{"geometry":{"coordinates":[-122.309815,47.571319],"type":"Point"},"properties":{"osm_id":"3672461595","tag":{"amenity":"waste_basket"}},"type":"Feature"},
	{"geometry":{"coordinates":[-122.309914,47.571369],"type":"Point"},"properties":{"osm_id":"3672461602","tag":{"amenity":"recycling","recycling_type":"container"}},"type":"Feature"},
	{"geometry":{"coordinates":[-122.309901,47.571383],"type":"Point"},"properties":{"osm_id":"3672461604","tag":{"amenity":"waste_basket"}},"type":"Feature"},
	{"geometry":{"coordinates":[-122.311604,47.57147],"type":"Point"},"properties":{"osm_id":"3672461619","tag":{"amenity":"waste_basket"}},"type":"Feature"},
	{"geometry":{"coordinates":[-122.311617,47.571478],"type":"Point"},"properties":{"osm_id":"3672461620","tag":{"amenity":"recycling","recycling_type":"container"}},"type":"Feature"},
	{"geometry":{"coordinates":[-122.286219,47.537864],"type":"Point"},"properties":{"osm_id":"4354683953","tag":{"amenity":"waste_basket"}},"type":"Feature"},
	{"geometry":{"coordinates":[-122.286217,47.537877],"type":"Point"},"properties":{"osm_id":"4354683954","tag":{"amenity":"recycling","recycling:cans":"yes","recycling:glass_bottles":"yes","recycling:plastic_bottles":"yes"}},"type":"Feature"},
	{"geometry":{"coordinates":[-122.286979,47.560528],"type":"Point"},"properties":{"osm_id":"5695366074","tag":{"amenity":"waste_basket"}},"type":"Feature"},
	{"geometry":{"coordinates":[-122.27805,47.523188],"type":"Point"},"properties":{"osm_id":"5695451781","tag":{"amenity":"waste_basket"}},"type":"Feature"},
	{"geometry":{"coordinates":[-122.312139,47.567837],"type":"Point"},"properties":{"osm_id":"5876682969","tag":{"amenity":"waste_basket"}},"type":"Feature"},
	{"geometry":{"coordinates":[-122.284159,47.536856],"type":"Point"},"properties":{"name":"ICHS - Holly Park","osm_id":"6290132815","tag":{"amenity":"waste_basket","waste_disposal":"medicine"}},"type":"Feature"},
	{"geometry":{"coordinates":[-122.329771,47.565123],"type":"Point"},"properties":{"name":"Costco Pharmacy #001","osm_id":"6290142786","tag":{"amenity":"waste_basket","waste_disposal":"medicine"}},"type":"Feature"},
	{"geometry":{"coordinates":[-122.320971,47.548376],"type":"Point"},"properties":{"name":"The Recycling Center","osm_id":"6329706896","tag":{"amenity":"recycling"}},"type":"Feature"},
	{"geometry":{"coordinates":[-122.262156,47.519808],"type":"Point"},"properties":{"osm_id":"7572765720","tag":{"amenity":"waste_disposal"}},"type":"Feature"}
]
}
