{
"type": "FeatureCollection",
"features": [
	{"geometry":{"coordinates":[-122.306971,47.420695],"type":"Point"},"properties":{"osm_id":"2884472572","tag":{"amenity":"waste_basket"}},"type":"Feature"},
	{"geometry":{"coordinates":[-122.327848,47.405951],"type":"Point"},"properties":{"osm_id":"3076201728","tag":{"amenity":"waste_basket"}},"type":"Feature"},
	{"geometry":{"coordinates":[-122.325983,47.409549],"type":"Point"},"properties":{"osm_id":"3076203278","tag":{"amenity":"waste_basket"}},"type":"Feature"},
	{"geometry":{"coordinates":[-122.308407,47.415642],"type":"Point"},"properties":{"osm_id":"3076203769","tag":{"amenity":"waste_basket"}},"type":"Feature"},
	{"geometry":{"coordinates":[-122.315431,47.412279],"type":"Point"},"properties":{"name":"Trash can","osm_id":"3076203770","tag":{"amenity":"waste_basket"}},"type":"Feature"},
	{"geometry":{"coordinates":[-122.325643,47.399086],"type":"Point"},"properties":{"osm_id":"4214680992","tag":{"amenity":"recycling","recycling_type":"container"}},"type":"Feature"},
	{"geometry":{"coordinates":[-122.292457,47.4288],"type":"Point"},"properties":{"osm_id":"4344856620","tag":{"amenity":"waste_basket"}},"type":"Feature"},
	{"geometry":{"coordinates":[-122.329063,47.40297],"type":"Point"},"properties":{"osm_id":"4350084824","tag":{"amenity":"waste_basket"}},"type":"Feature"},
	{"geometry":{"coordinates":[-122.328862,47.402686],"type":"Point"},"properties":{"osm_id":"4350084831","tag":{"amenity":"waste_basket"}},"type":"Feature"},
	{"geometry":{"coordinates":[-122.272697,47.40502],"type":"Point"},"properties":{"osm_id":"4400540093","tag":{"amenity":"waste_basket"}},"type":"Feature"},
	{"geometry":{"coordinates":[-122.273494,47.405264],"type":"Point"},"properties":{"osm_id":"4400571089","tag":{"amenity":"waste_basket"}},"type":"Feature"},
	{"geometry":{"coordinates":[-122.272981,47.405065],"type":"Point"},"properties":{"osm_id":"4400571189","tag":{"amenity":"waste_basket"}},"type":"Feature"},
	{"geometry":{"coordinates":[-122.328094,47.405429],"type":"Point"},"properties":{"osm_id":"4405134591","tag":{"amenity":"waste_basket"}},"type":"Feature"},
	{"geometry":{"coordinates":[-122.262494,47.446054],"type":"Point"},"properties":{"osm_id":"4692922520","tag":{"amenity":"recycling"}},"type":"Feature"},
	{"geometry":{"coordinates":[-122.331152,47.402348],"type":"Point"},"properties":{"osm_id":"5521397033","tag":{"amenity":"recycling","recycling_type":"container"}},"type":"Feature"},
	{"geometry":{"coordinates":[-122.331145,47.402342],"type":"Point"},"properties":{"osm_id":"5521397035","tag":{"amenity":"waste_basket"}},"type":"Feature"},
	{"geometry":{"coordinates":[-122.331219,47.402294],"type":"Point"},"properties":{"osm_id":"5521399758","tag":{"amenity":"waste_basket"}},"type":"Feature"},
	{"geometry":{"coordinates":[-122.285587,47.399028],"type":"Point"},"properties":{"osm_id":"5894657865","tag":{"amenity":"waste_basket","waste":"dog_excrement"}},"type":"Feature"},
	{"geometry":{"coordinates":[-122.284509,47.398664],"type":"Point"},"properties":{"osm_id":"5904945538","tag":{"amenity":"waste_basket","project":"opensidewalks"}},"type":"Feature"},
	{"geometry":{"coordinates":[-122.260683,47.433924],"type":"Point"},"properties":{"osm_id":"6690935878","tag":{"amenity":"waste_basket","colour":"gray","material":"plastic","waste":"trash"}},"type":"Feature"},
	{"geometry":{"coordinates":[-122.260143,47.433936],"type":"Point"},"properties":{"osm_id":"6690935879","tag":{"amenity":"waste_basket","colour":"gray","material":"plastic","waste":"trash"}},"type":"Feature"},
	{"geometry":{"coordinates":[-122.257947,47.4315],"type":"Point"},"properties":{"osm_id":"6690935884","tag":{"amenity":"waste_basket","colour":"black","material":"metal","waste":"trash"}},"type":"Feature"},
	{"geometry":{"coordinates":[-122.299749,47.445534],"type":"Point"},"properties":{"osm_id":"6721021248","tag":{"amenity":"waste_basket"}},"type":"Feature"},
	{"geometry":{"coordinates":[-122.298896,47.450432],"type":"Point"},"properties":{"osm_id":"6784294187","tag":{"amenity":"recycling"}},"type":"Feature"},
	{"geometry":{"coordinates":[-122.299327,47.449918],"type":"Point"},"properties":{"osm_id":"6784297086","tag":{"amenity":"waste_basket"}},"type":"Feature"},
	{"geometry":{"coordinates":[-122.298921,47.450458],"type":"Point"},"properties":{"osm_id":"6784297087","tag":{"amenity":"waste_basket"}},"type":"Feature"},
	{"geometry":{"coordinates":[-122.298723,47.449208],"type":"Point"},"properties":{"osm_id":"6784303001","tag":{"amenity":"waste_basket"}},"type":"Feature"},
	{"geometry":{"coordinates":[-122.305998,47.408835],"type":"Point"},"properties":{"barrier":"kerb","osm_id":"7401818731","tag":{"kerb":"lowered","project":"opensidewalks","tactile_paving":"yes"}},"type":"Feature"}
]
}
