{
"type": "FeatureCollection",
"features": [
	{"geometry":{"coordinates":[-122.26271,38.109694],"type":"Point"},"properties":{"osm_id":"2284862096","tag":{"addr:city":"Vallejo","addr:state":"CA","addr:street":"Quincy Alley","amenity":"waste_disposal","waste":"trash"}},"type":"Feature"},
	{"geometry":{"coordinates":[-122.26265,38.110027],"type":"Point"},"properties":{"osm_id":"2284862097","tag":{"addr:city":"Vallejo","addr:state":"CA","addr:street":"Tennessee Street","amenity":"waste_basket","waste":"trash"}},"type":"Feature"},
	{"geometry":{"coordinates":[-122.263279,38.109801],"type":"Point"},"properties":{"osm_id":"2285675108","tag":{"addr:city":"Vallejo","addr:state":"CA","addr:street":"Butte Street","amenity":"waste_basket","waste":"trash","wheelchair":"yes"}},"type":"Feature"},
	{"geometry":{"coordinates":[-122.270591,38.11131],"type":"Point"},"properties":{"osm_id":"5474690731","tag":{"amenity":"waste_basket"}},"type":"Feature"},
	{"geometry":{"coordinates":[-122.270922,38.111675],"type":"Point"},"properties":{"osm_id":"5474690732","tag":{"amenity":"waste_basket"}},"type":"Feature"},
	{"geometry":{"coordinates":[-122.271441,38.112148],"type":"Point"},"properties":{"osm_id":"5474690734","tag":{"amenity":"waste_basket"}},"type":"Feature"},
	{"geometry":{"coordinates":[-122.258667,38.123618],"type":"Point"},"properties":{"name":"EcoThrift Shop","osm_id":"5474696324","tag":{"amenity":"recycling"}},"type":"Feature"},
	{"geometry":{"coordinates":[-122.26658,38.106766],"type":"Point"},"properties":{"osm_id":"5474696333","tag":{"amenity":"waste_basket"}},"type":"Feature"},
	{"geometry":{"coordinates":[-122.267758,38.108574],"type":"Point"},"properties":{"osm_id":"5474696337","tag":{"amenity":"waste_disposal"}},"type":"Feature"},
	{"geometry":{"coordinates":[-122.267992,38.108747],"type":"Point"},"properties":{"osm_id":"5474696338","tag":{"amenity":"waste_basket"}},"type":"Feature"},
	{"geometry":{"coordinates":[-122.26859,38.108969],"type":"Point"},"properties":{"osm_id":"5474696339","tag":{"amenity":"waste_basket"}},"type":"Feature"},
	{"geometry":{"coordinates":[-122.268884,38.109267],"type":"Point"},"properties":{"osm_id":"5474696340","tag":{"amenity":"waste_basket"}},"type":"Feature"},
	{"geometry":{"coordinates":[-122.269097,38.109522],"type":"Point"},"properties":{"osm_id":"5474696342","tag":{"amenity":"waste_basket"}},"type":"Feature"},
	{"geometry":{"coordinates":[-122.270176,38.112715],"type":"Point"},"properties":{"osm_id":"5474696344","tag":{"amenity":"waste_basket"}},"type":"Feature"},
	{"geometry":{"coordinates":[-122.272599,38.115897],"type":"Point"},"properties":{"osm_id":"5474696346","tag":{"amenity":"waste_basket"}},"type":"Feature"},
	{"geometry":{"coordinates":[-122.269573,38.110081],"type":"Point"},"properties":{"osm_id":"5474708142","tag":{"amenity":"waste_basket"}},"type":"Feature"},
	{"geometry":{"coordinates":[-122.26975,38.11031],"type":"Point"},"properties":{"osm_id":"5474708143","tag":{"amenity":"waste_basket"}},"type":"Feature"},
	{"geometry":{"coordinates":[-122.271623,38.113906],"type":"Point"},"properties":{"osm_id":"5474708147","tag":{"amenity":"waste_basket"}},"type":"Feature"},
	{"geometry":{"coordinates":[-122.273047,38.116505],"type":"Point"},"properties":{"osm_id":"5474708148","tag":{"amenity":"waste_basket"}},"type":"Feature"},
	{"geometry":{"coordinates":[-122.273297,38.118449],"type":"Point"},"properties":{"osm_id":"5474708149","tag":{"amenity":"waste_basket"}},"type":"Feature"},
	{"geometry":{"coordinates":[-122.267253,38.107824],"type":"Point"},"properties":{"osm_id":"5474741628","tag":{"amenity":"waste_basket"}},"type":"Feature"}
]
}
