{
"type": "FeatureCollection",
"features": [
	{"geometry":{"coordinates":[-122.305586,37.879178],"type":"Point"},"properties":{"name":"City of Berkeley Recycling","osm_id":"560189339","tag":{"amenity":"recycling","recycling_type":"centre"}},"type":"Feature"},
	{"geometry":{"coordinates":[-122.299252,37.919428],"type":"Point"},"properties":{"name":"El Cerrito Recycling Center","osm_id":"1256306250","tag":{"amenity":"recycling","designation":"LEED Platinum","recycling:batteries":"yes","recycling:books":"yes","recycling:cans":"yes","recycling:cardboard":"yes","recycling:cartons":"yes","recycling:clothes":"yes","recycling:cork":"yes","recycling:electrical_appliances":"yes","recycling:glass":"yes","recycling:glass_bottles":"yes","recycling:green_waste":"no","recycling:hazardous_waste":"no","recycling:magazines":"yes","recycling:newspaper":"yes","recycling:paint":"no","recycling:paper":"yes","recycling:paper_packaging":"yes","recycling:plastic":"yes","recycling:plastic_bottles":"yes","recycling:plastic_packaging":"yes","recycling:scrap_metal":"yes","recycling:small_appliances":"yes","recycling:waste":"no","recycling:wood":"no","recycling_type":"centre","toilets":"yes","website":"http://www.el-cerrito.org/index.aspx?NID=336"}},"type":"Feature"},
	{"geometry":{"coordinates":[-122.272767,37.892131],"type":"Point"},"properties":{"osm_id":"1643882812","tag":{"amenity":"waste_basket"}},"type":"Feature"},
	{"geometry":{"coordinates":[-122.261161,37.905754],"type":"Point"},"properties":{"osm_id":"1669520234","tag":{"amenity":"waste_basket"}},"type":"Feature"},
	{"geometry":{"coordinates":[-122.270731,37.871965],"type":"Point"},"properties":{"osm_id":"1715342305","tag":{"amenity":"waste_basket","check_date":"2021-05-02"}},"type":"Feature"},
	{"geometry":{"coordinates":[-122.270498,37.871991],"type":"Point"},"properties":{"osm_id":"1715343111","tag":{"amenity":"waste_basket","check_date":"2021-05-02"}},"type":"Feature"},
	{"geometry":{"coordinates":[-122.268959,37.868221],"type":"Point"},"properties":{"osm_id":"1715363361","tag":{"amenity":"waste_basket"}},"type":"Feature"},
	{"geometry":{"coordinates":[-122.27523,37.885363],"type":"Point"},"properties":{"osm_id":"1717026193","tag":{"amenity":"waste_basket","check_date":"2021-03-28"}},"type":"Feature"},
	{"geometry":{"coordinates":[-122.283421,37.874799],"type":"Point"},"properties":{"osm_id":"1718639894","tag":{"amenity":"waste_basket"}},"type":"Feature"},
	{"geometry":{"coordinates":[-122.287189,37.876342],"type":"Point"},"properties":{"osm_id":"1718646278","tag":{"amenity":"waste_basket"}},"type":"Feature"},
	{"geometry":{"coordinates":[-122.287639,37.877002],"type":"Point"},"properties":{"osm_id":"1718646698","tag":{"amenity":"waste_basket"}},"type":"Feature"},
	{"geometry":{"coordinates":[-122.283476,37.880737],"type":"Point"},"properties":{"osm_id":"1718661933","tag":{"amenity":"waste_basket"}},"type":"Feature"},
	{"geometry":{"coordinates":[-122.268983,37.878536],"type":"Point"},"properties":{"osm_id":"1723538598","tag":{"amenity":"waste_basket"}},"type":"Feature"},
	{"geometry":{"coordinates":[-122.269296,37.878599],"type":"Point"},"properties":{"osm_id":"1723539229","tag":{"amenity":"waste_basket"}},"type":"Feature"},
	{"geometry":{"coordinates":[-122.3005,37.867354],"type":"Point"},"properties":{"osm_id":"1736688021","tag":{"amenity":"waste_basket","check_date":"2021-04-13"}},"type":"Feature"},
	{"geometry":{"coordinates":[-122.278443,37.88327],"type":"Point"},"properties":{"osm_id":"1746079298","tag":{"amenity":"waste_basket","check_date":"2021-03-28"}},"type":"Feature"},
	{"geometry":{"coordinates":[-122.275153,37.87116],"type":"Point"},"properties":{"osm_id":"1753250974","tag":{"amenity":"waste_basket"}},"type":"Feature"},
	{"geometry":{"coordinates":[-122.275382,37.871139],"type":"Point"},"properties":{"osm_id":"1753251313","tag":{"amenity":"waste_basket"}},"type":"Feature"},
	{"geometry":{"coordinates":[-122.269165,37.869164],"type":"Point"},"properties":{"osm_id":"1762461863","tag":{"amenity":"waste_basket"}},"type":"Feature"},
	{"geometry":{"coordinates":[-122.267697,37.872095],"type":"Point"},"properties":{"osm_id":"1986284874","tag":{"amenity":"waste_basket","check_date":"2021-04-13"}},"type":"Feature"},
	{"geometry":{"coordinates":[-122.267975,37.872069],"type":"Point"},"properties":{"osm_id":"1986284875","tag":{"amenity":"waste_basket"}},"type":"Feature"},
	{"geometry":{"coordinates":[-122.278301,37.896838],"type":"Point"},"properties":{"osm_id":"2052296463","tag":{"amenity":"waste_basket"}},"type":"Feature"},
	{"geometry":{"coordinates":[-122.272778,37.871707],"type":"Point"},"properties":{"osm_id":"2059086892","tag":{"amenity":"waste_basket","check_date":"2020-12-26"}},"type":"Feature"},
	{"geometry":{"coordinates":[-122.26771,37.868302],"type":"Point"},"properties":{"osm_id":"2095570654","tag":{"amenity":"waste_basket"}},"type":"Feature"},
	{"geometry":{"coordinates":[-122.268033,37.86836],"type":"Point"},"properties":{"osm_id":"2095584413","tag":{"amenity":"waste_basket"}},"type":"Feature"},
	{"geometry":{"coordinates":[-122.268111,37.868583],"type":"Point"},"properties":{"osm_id":"2095585599","tag":{"amenity":"waste_basket"}},"type":"Feature"},
	{"geometry":{"coordinates":[-122.267585,37.867711],"type":"Point"},"properties":{"osm_id":"2095614452","tag":{"amenity":"waste_basket"}},"type":"Feature"},
	{"geometry":{"coordinates":[-122.267563,37.86755],"type":"Point"},"properties":{"osm_id":"2095615858","tag":{"amenity":"waste_basket"}},"type":"Feature"},
	{"geometry":{"coordinates":[-122.268017,37.867675],"type":"Point"},"properties":{"osm_id":"2095617454","tag":{"amenity":"waste_basket"}},"type":"Feature"},
	{"geometry":{"coordinates":[-122.267996,37.867476],"type":"Point"},"properties":{"osm_id":"2095618141","tag":{"amenity":"waste_basket"}},"type":"Feature"},
	{"geometry":{"coordinates":[-122.293941,37.875072],"type":"Point"},"properties":{"osm_id":"2131544315","tag":{"amenity":"waste_basket","check_date":"2021-03-20"}},"type":"Feature"},
	{"geometry":{"coordinates":[-122.292801,37.871576],"type":"Point"},"properties":{"osm_id":"2131558690","tag":{"amenity":"waste_basket"}},"type":"Feature"},
	{"geometry":{"coordinates":[-122.269825,37.869206],"type":"Point"},"properties":{"osm_id":"2259159884","tag":{"amenity":"waste_basket"}},"type":"Feature"},
	{"geometry":{"coordinates":[-122.288699,37.878873],"type":"Point"},"properties":{"osm_id":"2300191251","tag":{"amenity":"waste_basket"}},"type":"Feature"},
	{"geometry":{"coordinates":[-122.268097,37.868146],"type":"Point"},"properties":{"osm_id":"2322529142","tag":{"amenity":"waste_basket"}},"type":"Feature"},
	{"geometry":{"coordinates":[-122.278301,37.903714],"type":"Point"},"properties":{"osm_id":"3009192550","tag":{"amenity":"waste_basket"}},"type":"Feature"},
	{"geometry":{"coordinates":[-122.269042,37.859504],"type":"Point"},"properties":{"osm_id":"3335476693","tag":{"amenity":"recycling","recycling:cans":"yes","recycling:gas_bottles":"yes","recycling:glass":"yes","recycling:shoes":"yes"}},"type":"Feature"},
	{"geometry":{"coordinates":[-122.26238,37.868694],"type":"Point"},"properties":{"osm_id":"3351169104","tag":{"amenity":"recycling","indoor":"yes","recycling:cans":"yes","recycling:shoes":"yes","recycling_type":"container"}},"type":"Feature"},
	{"geometry":{"coordinates":[-122.307295,37.910089],"type":"Point"},"properties":{"name":"Bay Area Free Book Exchange","osm_id":"3367045175","tag":{"addr:city":"El Cerrito","addr:housenumber":"10520","addr:street":"San Pablo Avenue","amenity":"recycling","description":"Free book exchange (donate or pick up)","phone":"510-705-1200","recycling:books":"yes","recycling_type":"slot","transit_access":"AC Transit line 72, BART","website":"http://bayareafreebookexchange.com/"}},"type":"Feature"},
	{"geometry":{"coordinates":[-122.290487,37.869163],"type":"Point"},"properties":{"osm_id":"3374130696","tag":{"amenity":"recycling","recycling:batteries":"yes","recycling_type":"container"}},"type":"Feature"},
	{"geometry":{"coordinates":[-122.258468,37.919761],"type":"Point"},"properties":{"osm_id":"4621408152","tag":{"amenity":"waste_basket"}},"type":"Feature"},
	{"geometry":{"coordinates":[-122.265608,37.870609],"type":"Point"},"properties":{"osm_id":"4824241362","tag":{"amenity":"waste_basket"}},"type":"Feature"},
	{"geometry":{"coordinates":[-122.279114,37.891473],"type":"Point"},"properties":{"osm_id":"5811270505","tag":{"amenity":"waste_basket"}},"type":"Feature"},
	{"geometry":{"coordinates":[-122.272843,37.871471],"type":"Point"},"properties":{"osm_id":"6068706847","tag":{"amenity":"waste_basket","check_date":"2020-12-26"}},"type":"Feature"},
	{"geometry":{"coordinates":[-122.267186,37.860712],"type":"Point"},"properties":{"osm_id":"6298566916","tag":{"amenity":"waste_basket"}},"type":"Feature"},
	{"geometry":{"coordinates":[-122.267492,37.863144],"type":"Point"},"properties":{"osm_id":"6298567006","tag":{"amenity":"waste_basket"}},"type":"Feature"},
	{"geometry":{"coordinates":[-122.267524,37.863806],"type":"Point"},"properties":{"osm_id":"6298567023","tag":{"amenity":"waste_basket"}},"type":"Feature"},
	{"geometry":{"coordinates":[-122.267136,37.863921],"type":"Point"},"properties":{"osm_id":"6298567028","tag":{"amenity":"waste_basket"}},"type":"Feature"},
	{"geometry":{"coordinates":[-122.267576,37.864044],"type":"Point"},"properties":{"osm_id":"6298567029","tag":{"amenity":"waste_basket"}},"type":"Feature"},
	{"geometry":{"coordinates":[-122.267185,37.864084],"type":"Point"},"properties":{"osm_id":"6298567033","tag":{"amenity":"waste_basket"}},"type":"Feature"},
	{"geometry":{"coordinates":[-122.267701,37.864779],"type":"Point"},"properties":{"osm_id":"6298567056","tag":{"amenity":"waste_basket"}},"type":"Feature"},
	{"geometry":{"coordinates":[-122.267706,37.864943],"type":"Point"},"properties":{"osm_id":"6298567058","tag":{"amenity":"waste_basket"}},"type":"Feature"},
	{"geometry":{"coordinates":[-122.267322,37.865051],"type":"Point"},"properties":{"osm_id":"6298567065","tag":{"amenity":"waste_basket"}},"type":"Feature"},
	{"geometry":{"coordinates":[-122.267772,37.865606],"type":"Point"},"properties":{"osm_id":"6298567074","tag":{"amenity":"waste_basket"}},"type":"Feature"},
	{"geometry":{"coordinates":[-122.267402,37.865719],"type":"Point"},"properties":{"osm_id":"6298567087","tag":{"amenity":"waste_basket"}},"type":"Feature"},
	{"geometry":{"coordinates":[-122.267782,37.865858],"type":"Point"},"properties":{"osm_id":"6298567088","tag":{"amenity":"waste_basket"}},"type":"Feature"},
	{"geometry":{"coordinates":[-122.267386,37.865903],"type":"Point"},"properties":{"osm_id":"6298567092","tag":{"amenity":"waste_basket"}},"type":"Feature"},
	{"geometry":{"coordinates":[-122.267899,37.866761],"type":"Point"},"properties":{"osm_id":"6298567129","tag":{"amenity":"waste_basket"}},"type":"Feature"},
	{"geometry":{"coordinates":[-122.268043,37.868236],"type":"Point"},"properties":{"osm_id":"6298567170","tag":{"amenity":"waste_basket"}},"type":"Feature"},
	{"geometry":{"coordinates":[-122.267694,37.868326],"type":"Point"},"properties":{"osm_id":"6298567172","tag":{"amenity":"waste_basket"}},"type":"Feature"},
	{"geometry":{"coordinates":[-122.267746,37.868608],"type":"Point"},"properties":{"osm_id":"6298567179","tag":{"amenity":"waste_basket"}},"type":"Feature"},
	{"geometry":{"coordinates":[-122.268189,37.869262],"type":"Point"},"properties":{"osm_id":"6298567305","tag":{"amenity":"waste_basket"}},"type":"Feature"},
	{"geometry":{"coordinates":[-122.305108,37.875334],"type":"Point"},"properties":{"name":"ewasteCollective","osm_id":"6471289088","tag":{"addr:housenumber":"620","amenity":"recycling","opening_hours":"Mo-Fr 9:00-17:00; Sa 10:00-17:00","recycling:computers":"yes","recycling_type":"centre"}},"type":"Feature"},
	{"geometry":{"coordinates":[-122.273323,37.895605],"type":"Point"},"properties":{"osm_id":"6517845686","tag":{"amenity":"waste_basket"}},"type":"Feature"},
	{"geometry":{"coordinates":[-122.272143,37.888949],"type":"Point"},"properties":{"osm_id":"6550874879","tag":{"amenity":"waste_basket"}},"type":"Feature"},
	{"geometry":{"coordinates":[-122.317033,37.865044],"type":"Point"},"properties":{"osm_id":"6743276373","tag":{"amenity":"waste_disposal"}},"type":"Feature"},
	{"geometry":{"coordinates":[-122.317339,37.865868],"type":"Point"},"properties":{"osm_id":"6743286401","tag":{"amenity":"waste_disposal"}},"type":"Feature"},
	{"geometry":{"coordinates":[-122.285579,37.891164],"type":"Point"},"properties":{"osm_id":"7180595715","tag":{"amenity":"waste_basket"}},"type":"Feature"},
	{"geometry":{"coordinates":[-122.290137,37.881527],"type":"Point"},"properties":{"osm_id":"7205914918","tag":{"amenity":"waste_basket"}},"type":"Feature"},
	{"geometry":{"coordinates":[-122.285715,37.890927],"type":"Point"},"properties":{"osm_id":"7208055973","tag":{"amenity":"waste_basket"}},"type":"Feature"},
	{"geometry":{"coordinates":[-122.285913,37.8911],"type":"Point"},"properties":{"osm_id":"7208055974","tag":{"amenity":"waste_basket"}},"type":"Feature"},
	{"geometry":{"coordinates":[-122.287047,37.890838],"type":"Point"},"properties":{"osm_id":"7208067690","tag":{"amenity":"waste_basket"}},"type":"Feature"},
	{"geometry":{"coordinates":[-122.284651,37.890983],"type":"Point"},"properties":{"osm_id":"7211219839","tag":{"amenity":"waste_basket"}},"type":"Feature"},
	{"geometry":{"coordinates":[-122.281533,37.89117],"type":"Point"},"properties":{"osm_id":"7211219861","tag":{"amenity":"waste_basket"}},"type":"Feature"},
	{"geometry":{"coordinates":[-122.281752,37.891331],"type":"Point"},"properties":{"osm_id":"7211237585","tag":{"amenity":"waste_basket"}},"type":"Feature"},
	{"geometry":{"coordinates":[-122.283654,37.891185],"type":"Point"},"properties":{"osm_id":"7211237595","tag":{"amenity":"waste_basket"}},"type":"Feature"},
	{"geometry":{"coordinates":[-122.291626,37.884762],"type":"Point"},"properties":{"osm_id":"7213764560","tag":{"amenity":"waste_basket"}},"type":"Feature"},
	{"geometry":{"coordinates":[-122.283275,37.874007],"type":"Point"},"properties":{"osm_id":"7215526810","tag":{"amenity":"waste_basket"}},"type":"Feature"},
	{"geometry":{"coordinates":[-122.283311,37.874053],"type":"Point"},"properties":{"osm_id":"7215526811","tag":{"amenity":"waste_basket"}},"type":"Feature"},
	{"geometry":{"coordinates":[-122.292752,37.890703],"type":"Point"},"properties":{"osm_id":"7257503161","tag":{"amenity":"waste_basket"}},"type":"Feature"},
	{"geometry":{"coordinates":[-122.293002,37.890544],"type":"Point"},"properties":{"osm_id":"7257503169","tag":{"amenity":"waste_basket"}},"type":"Feature"},
	{"geometry":{"coordinates":[-122.315612,37.888555],"type":"Point"},"properties":{"osm_id":"7387571611","tag":{"amenity":"waste_basket"}},"type":"Feature"},
	{"geometry":{"coordinates":[-122.310659,37.889121],"type":"Point"},"properties":{"osm_id":"7387575547","tag":{"amenity":"waste_basket"}},"type":"Feature"},
	{"geometry":{"coordinates":[-122.280571,37.872757],"type":"Point"},"properties":{"osm_id":"7504024264","tag":{"amenity":"waste_basket"}},"type":"Feature"},
	{"geometry":{"coordinates":[-122.280834,37.873093],"type":"Point"},"properties":{"osm_id":"7519885439","tag":{"amenity":"waste_basket"}},"type":"Feature"},
	{"geometry":{"coordinates":[-122.281418,37.873113],"type":"Point"},"properties":{"osm_id":"7532825234","tag":{"amenity":"waste_basket"}},"type":"Feature"},
	{"geometry":{"coordinates":[-122.317643,37.870211],"type":"Point"},"properties":{"osm_id":"7678661047","tag":{"amenity":"waste_basket"}},"type":"Feature"},
	{"geometry":{"coordinates":[-122.316739,37.870343],"type":"Point"},"properties":{"osm_id":"7678700919","tag":{"amenity":"waste_basket"}},"type":"Feature"},
	{"geometry":{"coordinates":[-122.272517,37.867933],"type":"Point"},"properties":{"osm_id":"7833195446","tag":{"amenity":"waste_basket"}},"type":"Feature"},
	{"geometry":{"coordinates":[-122.256658,37.860949],"type":"Point"},"properties":{"osm_id":"7973881600","tag":{"amenity":"waste_basket","waste":"trash;recycling"}},"type":"Feature"},
	{"geometry":{"coordinates":[-122.256705,37.860668],"type":"Point"},"properties":{"osm_id":"7973891577","tag":{"amenity":"waste_basket","waste":"trash"}},"type":"Feature"},
	{"geometry":{"coordinates":[-122.256735,37.860839],"type":"Point"},"properties":{"osm_id":"7973908210","tag":{"amenity":"waste_basket","waste":"trash;recycling"}},"type":"Feature"},
	{"geometry":{"coordinates":[-122.290825,37.894961],"type":"Point"},"properties":{"osm_id":"8737083741","tag":{"amenity":"waste_basket"}},"type":"Feature"}
]
}
