{
"type": "FeatureCollection",
"features": [
	{"geometry":{"coordinates":[2.770826,50.28911],"type":"Point"},"properties":{"osm_id":"457709742","tag":{"amenity":"recycling","recycling:glass_bottles":"yes","recycling_type":"container"}},"type":"Feature"},
	{"geometry":{"coordinates":[2.75492,50.287431],"type":"Point"},"properties":{"osm_id":"918935116","tag":{"amenity":"recycling","recycling:cans":"yes","recycling:glass_bottles":"yes","recycling:paper":"yes","recycling_type":"container"}},"type":"Feature"},
	{"geometry":{"coordinates":[2.784326,50.282055],"type":"Point"},"properties":{"osm_id":"2139353883","tag":{"amenity":"waste_basket"}},"type":"Feature"},
	{"geometry":{"coordinates":[2.784725,50.281767],"type":"Point"},"properties":{"osm_id":"2334383600","tag":{"amenity":"waste_basket"}},"type":"Feature"},
	{"geometry":{"coordinates":[2.785359,50.281971],"type":"Point"},"properties":{"osm_id":"2334383605","tag":{"amenity":"waste_basket","check_date":"2020-12-24"}},"type":"Feature"},
	{"geometry":{"coordinates":[2.784962,50.282025],"type":"Point"},"properties":{"osm_id":"2335400207","tag":{"amenity":"waste_basket","check_date":"2020-12-25"}},"type":"Feature"},
	{"geometry":{"coordinates":[2.782261,50.286064],"type":"Point"},"properties":{"osm_id":"2675713460","tag":{"amenity":"recycling","recycling:glass_bottles":"yes","recycling_type":"container"}},"type":"Feature"},
	{"geometry":{"coordinates":[2.785161,50.28168],"type":"Point"},"properties":{"osm_id":"3522972881","tag":{"amenity":"recycling","recycling:cans":"yes","recycling:scrap_metal":"yes","recycling_type":"container"}},"type":"Feature"},
	{"geometry":{"coordinates":[2.759492,50.255455],"type":"Point"},"properties":{"name":"poubelle de verres","osm_id":"3992618857","tag":{"amenity":"waste_basket"}},"type":"Feature"},
	{"geometry":{"coordinates":[2.789636,50.267246],"type":"Point"},"properties":{"osm_id":"4870426695","tag":{"amenity":"recycling","recycling:glass_bottles":"yes","recycling_type":"container"}},"type":"Feature"},
	{"geometry":{"coordinates":[2.770863,50.289095],"type":"Point"},"properties":{"osm_id":"4909168630","tag":{"amenity":"recycling","recycling:paper":"yes","recycling_type":"container"}},"type":"Feature"},
	{"geometry":{"coordinates":[2.733196,50.284125],"type":"Point"},"properties":{"osm_id":"5232739415","tag":{"amenity":"waste_basket"}},"type":"Feature"},
	{"geometry":{"coordinates":[2.732323,50.283884],"type":"Point"},"properties":{"osm_id":"5232739416","tag":{"amenity":"waste_basket"}},"type":"Feature"},
	{"geometry":{"coordinates":[2.775265,50.285],"type":"Point"},"properties":{"osm_id":"5585884143","tag":{"amenity":"recycling","check_date:recycling":"2021-05-16","recycling:glass":"no","recycling:glass_bottles":"yes","recycling_type":"container"}},"type":"Feature"},
	{"geometry":{"coordinates":[2.776609,50.288642],"type":"Point"},"properties":{"osm_id":"5669218405","tag":{"amenity":"waste_basket"}},"type":"Feature"},
	{"geometry":{"coordinates":[2.787081,50.286248],"type":"Point"},"properties":{"osm_id":"6020041578","tag":{"amenity":"waste_basket"}},"type":"Feature"},
	{"geometry":{"coordinates":[2.787513,50.286294],"type":"Point"},"properties":{"osm_id":"6020041579","tag":{"amenity":"waste_basket"}},"type":"Feature"},
	{"geometry":{"coordinates":[2.785849,50.287027],"type":"Point"},"properties":{"osm_id":"6020341478","tag":{"amenity":"waste_basket"}},"type":"Feature"},
	{"geometry":{"coordinates":[2.785538,50.286545],"type":"Point"},"properties":{"osm_id":"6020341479","tag":{"amenity":"waste_basket"}},"type":"Feature"},
	{"geometry":{"coordinates":[2.755969,50.272944],"type":"Point"},"properties":{"osm_id":"6052564234","tag":{"amenity":"recycling","recycling:glass_bottles":"yes","recycling_type":"container"}},"type":"Feature"},
	{"geometry":{"coordinates":[2.756016,50.27295],"type":"Point"},"properties":{"osm_id":"6052564235","tag":{"amenity":"recycling","recycling:clothes":"yes","recycling_type":"container"}},"type":"Feature"},
	{"geometry":{"coordinates":[2.780727,50.270593],"type":"Point"},"properties":{"osm_id":"6286950867","tag":{"amenity":"recycling","recycling:glass_bottles":"yes","recycling:plastic_bottles":"no","recycling_type":"container"}},"type":"Feature"},
	{"geometry":{"coordinates":[2.780237,50.288296],"type":"Point"},"properties":{"osm_id":"6990604556","tag":{"amenity":"recycling","recycling:waste":"yes","recycling_type":"container"}},"type":"Feature"},
	{"geometry":{"coordinates":[2.780318,50.288333],"type":"Point"},"properties":{"osm_id":"6990604557","tag":{"amenity":"recycling","recycling:waste":"yes","recycling_type":"container"}},"type":"Feature"},
	{"geometry":{"coordinates":[2.780264,50.288309],"type":"Point"},"properties":{"osm_id":"6990604558","tag":{"amenity":"recycling","recycling:glass_bottles":"yes","recycling_type":"container"}},"type":"Feature"},
	{"geometry":{"coordinates":[2.780291,50.288321],"type":"Point"},"properties":{"osm_id":"6990604559","tag":{"amenity":"recycling","recycling:cans":"no","recycling:cardboard":"yes","recycling:paper":"yes","recycling:plastic_bottles":"yes","recycling:scrap_metal":"yes","recycling_type":"container"}},"type":"Feature"},
	{"geometry":{"coordinates":[2.779349,50.287851],"type":"Point"},"properties":{"osm_id":"6990604841","tag":{"amenity":"recycling","recycling:glass_bottles":"yes","recycling_type":"container"}},"type":"Feature"},
	{"geometry":{"coordinates":[2.779376,50.287863],"type":"Point"},"properties":{"osm_id":"6990604842","tag":{"amenity":"recycling","recycling:cans":"no","recycling:cardboard":"yes","recycling:paper":"yes","recycling:plastic_bottles":"yes","recycling:scrap_metal":"yes","recycling_type":"container"}},"type":"Feature"},
	{"geometry":{"coordinates":[2.779322,50.287839],"type":"Point"},"properties":{"osm_id":"6990604843","tag":{"amenity":"recycling","recycling:waste":"yes","recycling_type":"container"}},"type":"Feature"},
	{"geometry":{"coordinates":[2.779403,50.287875],"type":"Point"},"properties":{"osm_id":"6990604844","tag":{"amenity":"recycling","recycling:waste":"yes","recycling_type":"container"}},"type":"Feature"},
	{"geometry":{"coordinates":[2.730074,50.283062],"type":"Point"},"properties":{"osm_id":"7012321627","tag":{"amenity":"waste_basket"}},"type":"Feature"},
	{"geometry":{"coordinates":[2.770139,50.285654],"type":"Point"},"properties":{"osm_id":"7021593062","tag":{"amenity":"recycling","recycling:glass_bottles":"yes","recycling_type":"container"}},"type":"Feature"},
	{"geometry":{"coordinates":[2.786933,50.282033],"type":"Point"},"properties":{"name":"Composteur","osm_id":"7040855063","tag":{"amenity":"recycling","recycling:green_waste":"yes","recycling_type":"container"}},"type":"Feature"},
	{"geometry":{"coordinates":[2.78409,50.282019],"type":"Point"},"properties":{"osm_id":"7044980918","tag":{"amenity":"recycling","recycling:cans":"yes","recycling:scrap_metal":"yes","recycling_type":"container"}},"type":"Feature"},
	{"geometry":{"coordinates":[2.784043,50.282002],"type":"Point"},"properties":{"osm_id":"7044980919","tag":{"amenity":"recycling","recycling:waste":"yes","recycling_type":"container"}},"type":"Feature"},
	{"geometry":{"coordinates":[2.784019,50.281993],"type":"Point"},"properties":{"osm_id":"7044980920","tag":{"amenity":"recycling","recycling:waste":"yes","recycling_type":"container"}},"type":"Feature"},
	{"geometry":{"coordinates":[2.784066,50.28201],"type":"Point"},"properties":{"osm_id":"7044980921","tag":{"amenity":"recycling","recycling:glass_bottles":"yes","recycling:waste":"no","recycling_type":"container"}},"type":"Feature"},
	{"geometry":{"coordinates":[2.78521,50.281703],"type":"Point"},"properties":{"osm_id":"7044980922","tag":{"amenity":"recycling","recycling:waste":"yes","recycling_type":"container"}},"type":"Feature"},
	{"geometry":{"coordinates":[2.785234,50.281715],"type":"Point"},"properties":{"osm_id":"7044980923","tag":{"amenity":"recycling","recycling:waste":"yes","recycling_type":"container"}},"type":"Feature"},
	{"geometry":{"coordinates":[2.785186,50.281692],"type":"Point"},"properties":{"osm_id":"7044980924","tag":{"amenity":"recycling","recycling:glass_bottles":"yes","recycling:waste":"no","recycling_type":"container"}},"type":"Feature"},
	{"geometry":{"coordinates":[2.786637,50.281469],"type":"Point"},"properties":{"osm_id":"7045025398","tag":{"amenity":"recycling","recycling:cans":"yes","recycling:scrap_metal":"yes","recycling_type":"container"}},"type":"Feature"},
	{"geometry":{"coordinates":[2.786656,50.281454],"type":"Point"},"properties":{"osm_id":"7045025399","tag":{"amenity":"recycling","recycling:glass_bottles":"yes","recycling:waste":"no","recycling_type":"container"}},"type":"Feature"},
	{"geometry":{"coordinates":[2.786675,50.28144],"type":"Point"},"properties":{"osm_id":"7045025400","tag":{"amenity":"recycling","recycling:waste":"yes","recycling_type":"container"}},"type":"Feature"},
	{"geometry":{"coordinates":[2.783935,50.281785],"type":"Point"},"properties":{"osm_id":"7047627950","tag":{"amenity":"waste_basket"}},"type":"Feature"},
	{"geometry":{"coordinates":[2.784463,50.281991],"type":"Point"},"properties":{"osm_id":"7047671967","tag":{"amenity":"waste_basket"}},"type":"Feature"},
	{"geometry":{"coordinates":[2.784205,50.281655],"type":"Point"},"properties":{"osm_id":"7047671968","tag":{"amenity":"waste_basket"}},"type":"Feature"},
	{"geometry":{"coordinates":[2.786708,50.264104],"type":"Point"},"properties":{"osm_id":"7058003477","tag":{"amenity":"recycling","recycling:waste":"yes","recycling_type":"container"}},"type":"Feature"},
	{"geometry":{"coordinates":[2.786712,50.264082],"type":"Point"},"properties":{"osm_id":"7058003478","tag":{"amenity":"recycling","recycling:cans":"yes","recycling:cardboard":"yes","recycling:paper":"yes","recycling:plastic":"no","recycling:plastic_bottles":"yes","recycling_type":"container"}},"type":"Feature"},
	{"geometry":{"coordinates":[2.786695,50.26409],"type":"Point"},"properties":{"osm_id":"7058003479","tag":{"amenity":"recycling","recycling:waste":"yes","recycling_type":"container"}},"type":"Feature"},
	{"geometry":{"coordinates":[2.786726,50.264098],"type":"Point"},"properties":{"osm_id":"7058003480","tag":{"amenity":"recycling","recycling:glass":"no","recycling:glass_bottles":"yes","recycling_type":"container"}},"type":"Feature"},
	{"geometry":{"coordinates":[2.780433,50.281885],"type":"Point"},"properties":{"osm_id":"7082877771","tag":{"amenity":"waste_basket"}},"type":"Feature"},
	{"geometry":{"coordinates":[2.781995,50.286391],"type":"Point"},"properties":{"osm_id":"7084085210","tag":{"amenity":"waste_basket"}},"type":"Feature"},
	{"geometry":{"coordinates":[2.787087,50.281733],"type":"Point"},"properties":{"osm_id":"7084144225","tag":{"amenity":"recycling","recycling:cans":"yes","recycling:scrap_metal":"yes","recycling_type":"container"}},"type":"Feature"},
	{"geometry":{"coordinates":[2.787108,50.281745],"type":"Point"},"properties":{"osm_id":"7084144226","tag":{"amenity":"recycling","recycling:glass_bottles":"yes","recycling:waste":"no","recycling_type":"container"}},"type":"Feature"},
	{"geometry":{"coordinates":[2.78713,50.281757],"type":"Point"},"properties":{"osm_id":"7084144227","tag":{"amenity":"recycling","recycling:waste":"yes","recycling_type":"container"}},"type":"Feature"},
	{"geometry":{"coordinates":[2.78212,50.279686],"type":"Point"},"properties":{"osm_id":"7084170309","tag":{"amenity":"recycling","recycling:cans":"yes","recycling:scrap_metal":"yes","recycling_type":"container"}},"type":"Feature"},
	{"geometry":{"coordinates":[2.782154,50.279697],"type":"Point"},"properties":{"osm_id":"7084170310","tag":{"amenity":"recycling","recycling:glass_bottles":"yes","recycling:waste":"no","recycling_type":"container"}},"type":"Feature"},
	{"geometry":{"coordinates":[2.782086,50.279675],"type":"Point"},"properties":{"osm_id":"7084170311","tag":{"amenity":"recycling","recycling:waste":"yes","recycling_type":"container"}},"type":"Feature"},
	{"geometry":{"coordinates":[2.745752,50.283394],"type":"Point"},"properties":{"osm_id":"7141761925","tag":{"amenity":"waste_basket"}},"type":"Feature"},
	{"geometry":{"coordinates":[2.781096,50.281401],"type":"Point"},"properties":{"osm_id":"7323608741","tag":{"amenity":"recycling","recycling:glass_bottles":"yes","recycling:plastic_bottles":"no","recycling_type":"container"}},"type":"Feature"},
	{"geometry":{"coordinates":[2.791579,50.251671],"type":"Point"},"properties":{"osm_id":"7374506389","tag":{"amenity":"waste_basket"}},"type":"Feature"},
	{"geometry":{"coordinates":[2.791359,50.251619],"type":"Point"},"properties":{"osm_id":"7374506392","tag":{"amenity":"waste_basket"}},"type":"Feature"},
	{"geometry":{"coordinates":[2.788416,50.285943],"type":"Point"},"properties":{"osm_id":"8184728833","tag":{"amenity":"recycling","recycling:glass_bottles":"yes","recycling:waste":"no","recycling_type":"container"}},"type":"Feature"},
	{"geometry":{"coordinates":[2.788146,50.281471],"type":"Point"},"properties":{"osm_id":"8184728834","tag":{"amenity":"recycling","recycling:glass_bottles":"yes","recycling:waste":"no","recycling_type":"container"}},"type":"Feature"},
	{"geometry":{"coordinates":[2.790678,50.286047],"type":"Point"},"properties":{"osm_id":"8195950983","tag":{"amenity":"recycling","recycling:glass_bottles":"yes","recycling:waste":"no","recycling_type":"container"}},"type":"Feature"},
	{"geometry":{"coordinates":[2.787953,50.286407],"type":"Point"},"properties":{"name":"Composteurs","osm_id":"8195967161","tag":{"amenity":"recycling","operator":"SMAV","recycling:green_waste":"yes","recycling_type":"container"}},"type":"Feature"},
	{"geometry":{"coordinates":[2.793593,50.285163],"type":"Point"},"properties":{"osm_id":"8302314957","tag":{"amenity":"waste_basket","waste":"trash"}},"type":"Feature"},
	{"geometry":{"coordinates":[2.793066,50.280217],"type":"Point"},"properties":{"osm_id":"8302436597","tag":{"amenity":"recycling","opening_hours":"24/7","operator":"SMAV","recycling:glass":"no","recycling:glass_bottles":"yes","recycling_type":"container"}},"type":"Feature"},
	{"geometry":{"coordinates":[2.793082,50.280231],"type":"Point"},"properties":{"osm_id":"8302436598","tag":{"amenity":"recycling","opening_hours":"24/7","operator":"SMAV","recycling:cans":"yes","recycling:cardboard":"yes","recycling:glass_bottles":"no","recycling:magazines":"yes","recycling:newspaper":"yes","recycling:paper":"yes","recycling:plastic_bottles":"yes","recycling:plastic_packaging":"no","recycling_type":"container"}},"type":"Feature"},
	{"geometry":{"coordinates":[2.793099,50.280244],"type":"Point"},"properties":{"osm_id":"8302436599","tag":{"amenity":"recycling","opening_hours":"24/7","operator":"SMAV","recycling:waste":"yes","recycling_type":"container"}},"type":"Feature"},
	{"geometry":{"coordinates":[2.791676,50.279061],"type":"Point"},"properties":{"osm_id":"8302436600","tag":{"amenity":"recycling","opening_hours":"24/7","operator":"SMAV","recycling:glass":"no","recycling:glass_bottles":"yes","recycling_type":"container"}},"type":"Feature"},
	{"geometry":{"coordinates":[2.791693,50.279075],"type":"Point"},"properties":{"osm_id":"8302436601","tag":{"amenity":"recycling","opening_hours":"24/7","operator":"SMAV","recycling:cans":"yes","recycling:cardboard":"yes","recycling:glass_bottles":"no","recycling:magazines":"yes","recycling:newspaper":"yes","recycling:paper":"yes","recycling:plastic_bottles":"yes","recycling:plastic_packaging":"no","recycling_type":"container"}},"type":"Feature"},
	{"geometry":{"coordinates":[2.79171,50.279089],"type":"Point"},"properties":{"osm_id":"8302436602","tag":{"amenity":"recycling","opening_hours":"24/7","operator":"SMAV","recycling:waste":"yes","recycling_type":"container"}},"type":"Feature"},
	{"geometry":{"coordinates":[2.785977,50.280357],"type":"Point"},"properties":{"osm_id":"8302983239","tag":{"amenity":"recycling","opening_hours":"24/7","operator":"SMAV","recycling:cans":"yes","recycling:cardboard":"yes","recycling:glass_bottles":"no","recycling:magazines":"yes","recycling:newspaper":"yes","recycling:paper":"yes","recycling:plastic_bottles":"yes","recycling:plastic_packaging":"no","recycling_type":"container"}},"type":"Feature"},
	{"geometry":{"coordinates":[2.785985,50.280384],"type":"Point"},"properties":{"osm_id":"8302983240","tag":{"amenity":"recycling","opening_hours":"24/7","operator":"SMAV","recycling:waste":"yes","recycling_type":"container"}},"type":"Feature"},
	{"geometry":{"coordinates":[2.786003,50.280369],"type":"Point"},"properties":{"osm_id":"8302983241","tag":{"amenity":"recycling","opening_hours":"24/7","operator":"SMAV","recycling:cans":"yes","recycling:cardboard":"yes","recycling:glass_bottles":"no","recycling:magazines":"yes","recycling:newspaper":"yes","recycling:paper":"yes","recycling:plastic_bottles":"yes","recycling:plastic_packaging":"no","recycling_type":"container"}},"type":"Feature"},
	{"geometry":{"coordinates":[2.785934,50.280361],"type":"Point"},"properties":{"osm_id":"8302983242","tag":{"amenity":"recycling","opening_hours":"24/7","operator":"SMAV","recycling:glass":"no","recycling:glass_bottles":"yes","recycling_type":"container"}},"type":"Feature"},
	{"geometry":{"coordinates":[2.78596,50.280372],"type":"Point"},"properties":{"osm_id":"8302983243","tag":{"amenity":"recycling","opening_hours":"24/7","operator":"SMAV","recycling:waste":"yes","recycling_type":"container"}},"type":"Feature"},
	{"geometry":{"coordinates":[2.767491,50.285678],"type":"Point"},"properties":{"osm_id":"8314952335","tag":{"amenity":"recycling","recycling:glass_bottles":"yes","recycling_type":"container"}},"type":"Feature"},
	{"geometry":{"coordinates":[2.762409,50.283278],"type":"Point"},"properties":{"osm_id":"8387804638","tag":{"amenity":"recycling","operator":"SMAV","recycling:cans":"no","recycling:cardboard":"no","recycling:glass_bottles":"yes","recycling:magazines":"no","recycling:newspaper":"no","recycling:paper":"no","recycling:paper_packaging":"no","recycling:plastic":"no","recycling:plastic_bottles":"no","recycling:plastic_packaging":"no","recycling:wood":"no","recycling_type":"container"}},"type":"Feature"},
	{"geometry":{"coordinates":[2.762388,50.283269],"type":"Point"},"properties":{"osm_id":"8387804639","tag":{"amenity":"recycling","operator":"SMAV","recycling:cans":"no","recycling:cardboard":"no","recycling:glass_bottles":"no","recycling:magazines":"no","recycling:newspaper":"no","recycling:paper":"no","recycling:paper_packaging":"yes","recycling:plastic_bottles":"no","recycling:plastic_packaging":"no","recycling:waste":"yes","recycling:wood":"no","recycling_type":"container"}},"type":"Feature"},
	{"geometry":{"coordinates":[2.762368,50.283255],"type":"Point"},"properties":{"osm_id":"8387804640","tag":{"amenity":"recycling","operator":"SMAV","recycling:cans":"yes","recycling:cardboard":"yes","recycling:glass_bottles":"no","recycling:magazines":"yes","recycling:newspaper":"yes","recycling:paper":"yes","recycling:paper_packaging":"yes","recycling:plastic_bottles":"yes","recycling:plastic_packaging":"no","recycling:wood":"no","recycling_type":"container"}},"type":"Feature"},
	{"geometry":{"coordinates":[2.768555,50.271696],"type":"Point"},"properties":{"osm_id":"8394728794","tag":{"amenity":"recycling","recycling:cardboard":"no","recycling:magazines":"no","recycling:newspaper":"no","recycling:paper":"no","recycling:waste":"yes","recycling_type":"container"}},"type":"Feature"},
	{"geometry":{"coordinates":[2.768575,50.271685],"type":"Point"},"properties":{"osm_id":"8394728795","tag":{"amenity":"recycling","recycling:cardboard":"no","recycling:glass_bottles":"yes","recycling:magazines":"no","recycling:newspaper":"no","recycling:paper":"no","recycling:plastic_bottles":"no","recycling:plastic_packaging":"no","recycling_type":"container"}},"type":"Feature"},
	{"geometry":{"coordinates":[2.768533,50.271707],"type":"Point"},"properties":{"osm_id":"8394728796","tag":{"amenity":"recycling","recycling:cans":"yes","recycling:cardboard":"yes","recycling:magazines":"yes","recycling:newspaper":"yes","recycling:paper":"yes","recycling:plastic_bottles":"yes","recycling:plastic_packaging":"yes","recycling:scrap_metal":"no","recycling_type":"container"}},"type":"Feature"},
	{"geometry":{"coordinates":[2.788125,50.281682],"type":"Point"},"properties":{"osm_id":"8401892970","tag":{"amenity":"waste_basket","waste":"trash"}},"type":"Feature"},
	{"geometry":{"coordinates":[2.783713,50.288191],"type":"Point"},"properties":{"osm_id":"8513315854","tag":{"amenity":"recycling","operator":"SMAV","recycling:glass_bottles":"yes","recycling_type":"container"}},"type":"Feature"},
	{"geometry":{"coordinates":[2.78658,50.286306],"type":"Point"},"properties":{"osm_id":"8540620503","tag":{"amenity":"waste_basket"}},"type":"Feature"},
	{"geometry":{"coordinates":[2.786694,50.286838],"type":"Point"},"properties":{"osm_id":"8540620504","tag":{"amenity":"waste_basket"}},"type":"Feature"},
	{"geometry":{"coordinates":[2.785149,50.286962],"type":"Point"},"properties":{"osm_id":"9053515536","tag":{"amenity":"waste_basket"}},"type":"Feature"},
	{"geometry":{"coordinates":[2.792563,50.279796],"type":"Point"},"properties":{"osm_id":"9079188769","tag":{"amenity":"recycling","opening_hours":"24/7","operator":"SMAV","recycling:cans":"yes","recycling:cardboard":"yes","recycling:glass_bottles":"no","recycling:magazines":"yes","recycling:newspaper":"yes","recycling:paper":"yes","recycling:plastic_bottles":"yes","recycling:plastic_packaging":"no","recycling_type":"container"}},"type":"Feature"},
	{"geometry":{"coordinates":[2.792546,50.279782],"type":"Point"},"properties":{"osm_id":"9079188770","tag":{"amenity":"recycling","opening_hours":"24/7","operator":"SMAV","recycling:glass":"no","recycling:glass_bottles":"yes","recycling_type":"container"}},"type":"Feature"},
	{"geometry":{"coordinates":[2.792579,50.27981],"type":"Point"},"properties":{"osm_id":"9079188771","tag":{"amenity":"recycling","opening_hours":"24/7","operator":"SMAV","recycling:waste":"yes","recycling_type":"container"}},"type":"Feature"},
	{"geometry":{"coordinates":[2.792275,50.279559],"type":"Point"},"properties":{"osm_id":"9079188772","tag":{"amenity":"recycling","opening_hours":"24/7","operator":"SMAV","recycling:glass":"no","recycling:glass_bottles":"yes","recycling_type":"container"}},"type":"Feature"},
	{"geometry":{"coordinates":[2.792292,50.279573],"type":"Point"},"properties":{"osm_id":"9079188773","tag":{"amenity":"recycling","opening_hours":"24/7","operator":"SMAV","recycling:cans":"yes","recycling:cardboard":"yes","recycling:glass_bottles":"no","recycling:magazines":"yes","recycling:newspaper":"yes","recycling:paper":"yes","recycling:plastic_bottles":"yes","recycling:plastic_packaging":"no","recycling_type":"container"}},"type":"Feature"},
	{"geometry":{"coordinates":[2.792309,50.279587],"type":"Point"},"properties":{"osm_id":"9079188774","tag":{"amenity":"recycling","opening_hours":"24/7","operator":"SMAV","recycling:waste":"yes","recycling_type":"container"}},"type":"Feature"}
]
}
