{
"type": "FeatureCollection",
"lastupdate": "2020-07-31T00:00:00Z",
"features": [
	{"geometry":{"coordinates":[2.798248,49.640727],"type":"Point"},"properties":{"osm_id":"6444029944","tag":{"amenity":"waste_basket","waste":"trash"}},"type":"Feature"},
	{"geometry":{"coordinates":[2.799607,49.629138],"type":"Point"},"properties":{"name":"Poubelle","osm_id":"6758768508","tag":{"amenity":"waste_basket"}},"type":"Feature"},
	{"geometry":{"coordinates":[2.733632,49.626669],"type":"Point"},"properties":{"osm_id":"7335345719","tag":{"amenity":"waste_basket"}},"type":"Feature"},
	{"geometry":{"coordinates":[2.733503,49.626813],"type":"Point"},"properties":{"osm_id":"7335345721","tag":{"amenity":"waste_basket"}},"type":"Feature"},
	{"geometry":{"coordinates":[2.757041,49.6638],"type":"Point"},"properties":{"osm_id":"7342489161","tag":{"amenity":"waste_basket"}},"type":"Feature"},
	{"geometry":{"coordinates":[2.757159,49.663335],"type":"Point"},"properties":{"osm_id":"7342489168","tag":{"amenity":"waste_basket"}},"type":"Feature"}
]
}
