{
"type": "FeatureCollection",
"features": [
	{"geometry":{"coordinates":[2.797761,49.398094],"type":"Point"},"properties":{"osm_id":"1541225478","tag":{"amenity":"recycling"}},"type":"Feature"},
	{"geometry":{"coordinates":[2.806417,49.404456],"type":"Point"},"properties":{"osm_id":"1548496149","tag":{"amenity":"recycling"}},"type":"Feature"},
	{"geometry":{"coordinates":[2.810767,49.404049],"type":"Point"},"properties":{"osm_id":"1632719527","tag":{"amenity":"recycling"}},"type":"Feature"},
	{"geometry":{"coordinates":[2.810526,49.406699],"type":"Point"},"properties":{"osm_id":"2401469478","tag":{"addr:street":"Rue du Mar\u00c3\u00a9chal Koenig","amenity":"recycling","location":"overground","recycling:clothes":"yes","recycling_type":"container"}},"type":"Feature"},
	{"geometry":{"coordinates":[2.800726,49.39318],"type":"Point"},"properties":{"osm_id":"3451920856","tag":{"amenity":"waste_basket"}},"type":"Feature"},
	{"geometry":{"coordinates":[2.800408,49.393362],"type":"Point"},"properties":{"osm_id":"3451920861","tag":{"amenity":"recycling","recycling:glass":"yes","recycling_type":"container"}},"type":"Feature"},
	{"geometry":{"coordinates":[2.811827,49.413781],"type":"Point"},"properties":{"osm_id":"3498833538","tag":{"amenity":"recycling","recycling:glass":"yes","recycling_type":"container"}},"type":"Feature"},
	{"geometry":{"coordinates":[2.811324,49.424838],"type":"Point"},"properties":{"osm_id":"3499886389","tag":{"amenity":"recycling","recycling:glass_bottles":"yes","recycling_type":"container"}},"type":"Feature"},
	{"geometry":{"coordinates":[2.811537,49.423023],"type":"Point"},"properties":{"osm_id":"3523611925","tag":{"amenity":"recycling","recycling:clothes":"yes","recycling:glass_bottles":"yes","recycling_type":"container"}},"type":"Feature"},
	{"geometry":{"coordinates":[2.807423,49.425337],"type":"Point"},"properties":{"osm_id":"3901585225","tag":{"amenity":"recycling","recycling:glass_bottles":"yes","recycling_type":"container"}},"type":"Feature"},
	{"geometry":{"coordinates":[2.807441,49.425358],"type":"Point"},"properties":{"osm_id":"3901585227","tag":{"amenity":"recycling","recycling:clothes":"yes","recycling_type":"container"}},"type":"Feature"},
	{"geometry":{"coordinates":[2.809963,49.409135],"type":"Point"},"properties":{"osm_id":"4058987280","tag":{"amenity":"waste_basket"}},"type":"Feature"},
	{"geometry":{"coordinates":[2.810699,49.409549],"type":"Point"},"properties":{"osm_id":"4058987288","tag":{"amenity":"waste_basket"}},"type":"Feature"},
	{"geometry":{"coordinates":[2.812371,49.41004],"type":"Point"},"properties":{"osm_id":"4058987400","tag":{"amenity":"recycling","recycling:glass":"yes","recycling_type":"container"}},"type":"Feature"},
	{"geometry":{"coordinates":[2.81239,49.410048],"type":"Point"},"properties":{"osm_id":"4058987401","tag":{"amenity":"waste_basket"}},"type":"Feature"},
	{"geometry":{"coordinates":[2.788288,49.39688],"type":"Point"},"properties":{"osm_id":"4189675790","tag":{"amenity":"recycling","recycling:clothes":"yes","recycling_type":"container"}},"type":"Feature"},
	{"geometry":{"coordinates":[2.800695,49.407249],"type":"Point"},"properties":{"osm_id":"4266413561","tag":{"amenity":"waste_basket"}},"type":"Feature"},
	{"geometry":{"coordinates":[2.802481,49.407596],"type":"Point"},"properties":{"osm_id":"4266413565","tag":{"amenity":"waste_basket"}},"type":"Feature"},
	{"geometry":{"coordinates":[2.779273,49.39794],"type":"Point"},"properties":{"osm_id":"4577270190","tag":{"amenity":"waste_basket"}},"type":"Feature"},
	{"geometry":{"coordinates":[2.779372,49.39797],"type":"Point"},"properties":{"osm_id":"4577389939","tag":{"amenity":"recycling","recycling:glass":"yes","recycling_type":"container"}},"type":"Feature"},
	{"geometry":{"coordinates":[2.80071,49.437304],"type":"Point"},"properties":{"name":"Recyclerie de l'Agglom\u00c3\u00a9ration du Compi\u00c3\u00a8gnois","osm_id":"5371039679","tag":{"addr:city":"Margny-l\u00c3\u00a8s-Compi\u00c3\u00a8gne","addr:postcode":"60280","addr:street":"Rue Ren\u00c3\u00a9 Caudron","amenity":"recycling","opening_hours":"Mo-Fr 09:00-12:30,13:30-17:30","recycling_type":"centre"}},"type":"Feature"},
	{"geometry":{"coordinates":[2.803588,49.394642],"type":"Point"},"properties":{"osm_id":"5381599944","tag":{"amenity":"recycling","recycling:glass_bottles":"yes","recycling_type":"container"}},"type":"Feature"},
	{"geometry":{"coordinates":[2.800723,49.415947],"type":"Point"},"properties":{"osm_id":"5387375429","tag":{"amenity":"waste_basket"}},"type":"Feature"},
	{"geometry":{"coordinates":[2.803604,49.415486],"type":"Point"},"properties":{"osm_id":"5387404049","tag":{"amenity":"recycling","recycling:glass_bottles":"yes","recycling_type":"container"}},"type":"Feature"},
	{"geometry":{"coordinates":[2.791842,49.387131],"type":"Point"},"properties":{"osm_id":"5392917873","tag":{"amenity":"recycling","recycling:clothes":"yes","recycling:shoes":"yes","recycling_type":"container"}},"type":"Feature"},
	{"geometry":{"coordinates":[2.809885,49.407144],"type":"Point"},"properties":{"osm_id":"5395250370","tag":{"amenity":"recycling","recycling:clothes":"yes","recycling:shoes":"yes","recycling_type":"container"}},"type":"Feature"},
	{"geometry":{"coordinates":[2.809861,49.407163],"type":"Point"},"properties":{"osm_id":"5395251346","tag":{"amenity":"recycling","recycling:glass_bottles":"yes","recycling_type":"container"}},"type":"Feature"},
	{"geometry":{"coordinates":[2.799898,49.401311],"type":"Point"},"properties":{"osm_id":"5395550924","tag":{"amenity":"recycling","recycling:glass_bottles":"yes","recycling_type":"container"}},"type":"Feature"},
	{"geometry":{"coordinates":[2.802648,49.419903],"type":"Point"},"properties":{"osm_id":"5404111890","tag":{"amenity":"waste_basket"}},"type":"Feature"},
	{"geometry":{"coordinates":[2.791235,49.413804],"type":"Point"},"properties":{"osm_id":"5404112414","tag":{"amenity":"recycling","recycling:glass_bottles":"yes","recycling_type":"container"}},"type":"Feature"},
	{"geometry":{"coordinates":[2.804539,49.419903],"type":"Point"},"properties":{"osm_id":"5404131093","tag":{"amenity":"recycling","recycling:clothes":"yes","recycling:shoes":"yes","recycling_type":"container"}},"type":"Feature"},
	{"geometry":{"coordinates":[2.804535,49.419874],"type":"Point"},"properties":{"osm_id":"5404131095","tag":{"amenity":"recycling","recycling:glass_bottles":"yes","recycling_type":"container"}},"type":"Feature"},
	{"geometry":{"coordinates":[2.80451,49.419809],"type":"Point"},"properties":{"osm_id":"5404131096","tag":{"amenity":"waste_basket"}},"type":"Feature"},
	{"geometry":{"coordinates":[2.810992,49.424568],"type":"Point"},"properties":{"osm_id":"5418840450","tag":{"amenity":"waste_basket","waste":"dog_excrement"}},"type":"Feature"},
	{"geometry":{"coordinates":[2.811314,49.424851],"type":"Point"},"properties":{"osm_id":"5418857928","tag":{"amenity":"recycling","recycling:clothes":"yes","recycling:shoes":"yes","recycling_type":"container"}},"type":"Feature"},
	{"geometry":{"coordinates":[2.793404,49.400111],"type":"Point"},"properties":{"osm_id":"5420772529","tag":{"amenity":"recycling","recycling:glass_bottles":"yes","recycling_type":"container"}},"type":"Feature"},
	{"geometry":{"coordinates":[2.807917,49.409125],"type":"Point"},"properties":{"osm_id":"5433718252","tag":{"amenity":"recycling","recycling:glass_bottles":"yes","recycling_type":"container"}},"type":"Feature"},
	{"geometry":{"coordinates":[2.81154,49.422992],"type":"Point"},"properties":{"osm_id":"5503457546","tag":{"amenity":"waste_basket","waste":"trash"}},"type":"Feature"},
	{"geometry":{"coordinates":[2.811519,49.423013],"type":"Point"},"properties":{"osm_id":"5503457550","tag":{"amenity":"recycling","recycling:clothes":"yes","recycling:shoes":"yes","recycling_type":"container"}},"type":"Feature"},
	{"geometry":{"coordinates":[2.731887,49.389498],"type":"Point"},"properties":{"osm_id":"6384183009","tag":{"amenity":"waste_basket","waste":"trash"}},"type":"Feature"},
	{"geometry":{"coordinates":[2.726624,49.390382],"type":"Point"},"properties":{"osm_id":"6384183039","tag":{"amenity":"recycling","recycling:glass_bottles":"yes","recycling_type":"container"}},"type":"Feature"},
	{"geometry":{"coordinates":[2.81111,49.407416],"type":"Point"},"properties":{"osm_id":"6408814437","tag":{"amenity":"waste_basket"}},"type":"Feature"},
	{"geometry":{"coordinates":[2.811094,49.40715],"type":"Point"},"properties":{"osm_id":"6408814438","tag":{"amenity":"waste_basket"}},"type":"Feature"},
	{"geometry":{"coordinates":[2.809623,49.413198],"type":"Point"},"properties":{"osm_id":"6473809098","tag":{"amenity":"waste_basket","waste":"trash"}},"type":"Feature"},
	{"geometry":{"coordinates":[2.810031,49.413328],"type":"Point"},"properties":{"osm_id":"6473809103","tag":{"amenity":"waste_basket","waste":"trash"}},"type":"Feature"},
	{"geometry":{"coordinates":[2.80908,49.413004],"type":"Point"},"properties":{"osm_id":"6473809104","tag":{"amenity":"waste_basket","waste":"trash"}},"type":"Feature"},
	{"geometry":{"coordinates":[2.781378,49.407847],"type":"Point"},"properties":{"osm_id":"7325969405","tag":{"amenity":"waste_basket","material":"steel","waste":"mixed"}},"type":"Feature"},
	{"geometry":{"coordinates":[2.81081,49.430887],"type":"Point"},"properties":{"osm_id":"7399087554","tag":{"amenity":"recycling","recycling:glass_bottles":"yes","recycling_type":"container"}},"type":"Feature"},
	{"geometry":{"coordinates":[2.807406,49.426005],"type":"Point"},"properties":{"osm_id":"7406329586","tag":{"amenity":"waste_basket","waste":"trash"}},"type":"Feature"},
	{"geometry":{"coordinates":[2.807924,49.426253],"type":"Point"},"properties":{"osm_id":"7406329587","tag":{"amenity":"waste_basket","waste":"trash"}},"type":"Feature"},
	{"geometry":{"coordinates":[2.806999,49.426178],"type":"Point"},"properties":{"osm_id":"7406329589","tag":{"amenity":"waste_basket","waste":"trash"}},"type":"Feature"},
	{"geometry":{"coordinates":[2.810773,49.426589],"type":"Point"},"properties":{"osm_id":"7414714152","tag":{"amenity":"recycling","recycling:glass_bottles":"yes","recycling_type":"container"}},"type":"Feature"},
	{"geometry":{"coordinates":[2.811281,49.424788],"type":"Point"},"properties":{"osm_id":"7414714153","tag":{"amenity":"waste_basket","waste":"trash"}},"type":"Feature"},
	{"geometry":{"coordinates":[2.810488,49.422637],"type":"Point"},"properties":{"osm_id":"7446692517","tag":{"amenity":"waste_basket","waste":"trash"}},"type":"Feature"},
	{"geometry":{"coordinates":[2.757703,49.385111],"type":"Point"},"properties":{"osm_id":"7470832158","tag":{"amenity":"recycling","recycling:glass_bottles":"yes","recycling_type":"container"}},"type":"Feature"},
	{"geometry":{"coordinates":[2.809387,49.410486],"type":"Point"},"properties":{"osm_id":"7494233412","tag":{"amenity":"recycling","recycling:glass_bottles":"yes","recycling_type":"container"}},"type":"Feature"},
	{"geometry":{"coordinates":[2.807343,49.406281],"type":"Point"},"properties":{"osm_id":"7494233413","tag":{"amenity":"recycling","recycling:glass_bottles":"yes","recycling_type":"container"}},"type":"Feature"},
	{"geometry":{"coordinates":[2.807323,49.406291],"type":"Point"},"properties":{"osm_id":"7494233414","tag":{"amenity":"recycling","recycling:glass_bottles":"yes","recycling_type":"container"}},"type":"Feature"},
	{"geometry":{"coordinates":[2.806487,49.408656],"type":"Point"},"properties":{"osm_id":"7494233415","tag":{"amenity":"recycling","recycling:glass_bottles":"yes","recycling_type":"container"}},"type":"Feature"},
	{"geometry":{"coordinates":[2.80606,49.407524],"type":"Point"},"properties":{"osm_id":"7494233416","tag":{"amenity":"recycling","recycling:glass_bottles":"yes","recycling_type":"container"}},"type":"Feature"},
	{"geometry":{"coordinates":[2.806036,49.407511],"type":"Point"},"properties":{"osm_id":"7494233417","tag":{"amenity":"recycling","recycling:glass_bottles":"yes","recycling_type":"container"}},"type":"Feature"},
	{"geometry":{"coordinates":[2.802813,49.409761],"type":"Point"},"properties":{"osm_id":"7494233418","tag":{"amenity":"waste_basket","waste":"trash"}},"type":"Feature"},
	{"geometry":{"coordinates":[2.802652,49.409797],"type":"Point"},"properties":{"osm_id":"7494233419","tag":{"amenity":"waste_basket","waste":"trash"}},"type":"Feature"},
	{"geometry":{"coordinates":[2.802617,49.409805],"type":"Point"},"properties":{"osm_id":"7494233420","tag":{"amenity":"recycling","recycling:glass_bottles":"yes","recycling_type":"container"}},"type":"Feature"},
	{"geometry":{"coordinates":[2.802584,49.407513],"type":"Point"},"properties":{"osm_id":"7494233421","tag":{"amenity":"recycling","recycling:glass_bottles":"yes","recycling_type":"container"}},"type":"Feature"},
	{"geometry":{"coordinates":[2.802573,49.407535],"type":"Point"},"properties":{"osm_id":"7494233422","tag":{"amenity":"recycling","recycling:clothes":"yes","recycling:shoes":"yes","recycling_type":"container"}},"type":"Feature"},
	{"geometry":{"coordinates":[2.793439,49.40817],"type":"Point"},"properties":{"osm_id":"7494233424","tag":{"amenity":"recycling","recycling:glass_bottles":"yes","recycling_type":"container"}},"type":"Feature"},
	{"geometry":{"coordinates":[2.805792,49.414357],"type":"Point"},"properties":{"osm_id":"7494233425","tag":{"amenity":"recycling","recycling:glass_bottles":"yes","recycling_type":"container"}},"type":"Feature"},
	{"geometry":{"coordinates":[2.799013,49.415643],"type":"Point"},"properties":{"osm_id":"7494233426","tag":{"amenity":"recycling","recycling:glass_bottles":"yes","recycling_type":"container"}},"type":"Feature"},
	{"geometry":{"coordinates":[2.810033,49.420878],"type":"Point"},"properties":{"osm_id":"7494233437","tag":{"amenity":"recycling","recycling:glass_bottles":"yes","recycling_type":"container"}},"type":"Feature"},
	{"geometry":{"coordinates":[2.738899,49.389071],"type":"Point"},"properties":{"osm_id":"7494286579","tag":{"amenity":"recycling","recycling:glass_bottles":"yes","recycling_type":"container"}},"type":"Feature"},
	{"geometry":{"coordinates":[2.777373,49.386611],"type":"Point"},"properties":{"osm_id":"7494286580","tag":{"amenity":"recycling","recycling:clothes":"yes","recycling:shoes":"yes","recycling_type":"container"}},"type":"Feature"},
	{"geometry":{"coordinates":[2.77738,49.386625],"type":"Point"},"properties":{"osm_id":"7494286581","tag":{"amenity":"recycling","recycling:glass_bottles":"yes","recycling_type":"container"}},"type":"Feature"},
	{"geometry":{"coordinates":[2.777393,49.386641],"type":"Point"},"properties":{"osm_id":"7494286582","tag":{"amenity":"recycling","recycling:glass_bottles":"yes","recycling_type":"container"}},"type":"Feature"},
	{"geometry":{"coordinates":[2.777642,49.391723],"type":"Point"},"properties":{"osm_id":"7494286583","tag":{"amenity":"recycling","recycling:glass_bottles":"yes","recycling_type":"container"}},"type":"Feature"},
	{"geometry":{"coordinates":[2.800229,49.403646],"type":"Point"},"properties":{"osm_id":"7494286584","tag":{"amenity":"recycling","recycling:clothes":"yes","recycling:shoes":"yes","recycling_type":"container"}},"type":"Feature"},
	{"geometry":{"coordinates":[2.800191,49.403668],"type":"Point"},"properties":{"osm_id":"7494305885","tag":{"amenity":"recycling","recycling:glass_bottles":"yes","recycling_type":"container"}},"type":"Feature"},
	{"geometry":{"coordinates":[2.797842,49.405164],"type":"Point"},"properties":{"osm_id":"7494305886","tag":{"amenity":"recycling","recycling:glass_bottles":"yes","recycling_type":"container"}},"type":"Feature"},
	{"geometry":{"coordinates":[2.808771,49.408054],"type":"Point"},"properties":{"osm_id":"7941507656","tag":{"amenity":"waste_basket","colour":"verte fonc\u00c3\u00a9e","waste":"trash;mixed"}},"type":"Feature"}
]
}
