{
"type": "FeatureCollection",
"features": [
	{"geometry":{"coordinates":[2.799465,48.852345],"type":"Point"},"properties":{"name":"D\u00c3\u00a9chetterie de Bailly-Romainvilliers","osm_id":"603023596","tag":{"amenity":"recycling","recycling_type":"centre"}},"type":"Feature"},
	{"geometry":{"coordinates":[2.771696,48.856012],"type":"Point"},"properties":{"osm_id":"2187140532","tag":{"amenity":"recycling","recycling:glass":"yes","recycling_type":"container"}},"type":"Feature"},
	{"geometry":{"coordinates":[2.788802,48.8464],"type":"Point"},"properties":{"osm_id":"2901139878","tag":{"amenity":"recycling","recycling:clothes":"yes"}},"type":"Feature"},
	{"geometry":{"coordinates":[2.739124,48.85627],"type":"Point"},"properties":{"osm_id":"5862283480","tag":{"amenity":"waste_basket"}},"type":"Feature"},
	{"geometry":{"coordinates":[2.739166,48.856367],"type":"Point"},"properties":{"osm_id":"5862283481","tag":{"amenity":"waste_basket"}},"type":"Feature"},
	{"geometry":{"coordinates":[2.739075,48.85639],"type":"Point"},"properties":{"osm_id":"5862283482","tag":{"amenity":"waste_basket"}},"type":"Feature"},
	{"geometry":{"coordinates":[2.73897,48.856368],"type":"Point"},"properties":{"osm_id":"5862283483","tag":{"amenity":"waste_basket"}},"type":"Feature"},
	{"geometry":{"coordinates":[2.736328,48.860627],"type":"Point"},"properties":{"osm_id":"5979602749","tag":{"amenity":"waste_basket"}},"type":"Feature"},
	{"geometry":{"coordinates":[2.733196,48.859725],"type":"Point"},"properties":{"osm_id":"5979602750","tag":{"amenity":"waste_basket"}},"type":"Feature"},
	{"geometry":{"coordinates":[2.742524,48.855907],"type":"Point"},"properties":{"osm_id":"6044518393","tag":{"amenity":"waste_basket"}},"type":"Feature"},
	{"geometry":{"coordinates":[2.811637,48.825577],"type":"Point"},"properties":{"osm_id":"6869753875","tag":{"amenity":"waste_disposal"}},"type":"Feature"},
	{"geometry":{"coordinates":[2.80747,48.831064],"type":"Point"},"properties":{"osm_id":"6887963332","tag":{"amenity":"recycling","recycling_type":"container"}},"type":"Feature"},
	{"geometry":{"coordinates":[2.806442,48.831412],"type":"Point"},"properties":{"osm_id":"6887963333","tag":{"amenity":"recycling","recycling_type":"container"}},"type":"Feature"},
	{"geometry":{"coordinates":[2.807553,48.831853],"type":"Point"},"properties":{"osm_id":"6887963334","tag":{"amenity":"recycling","recycling_type":"container"}},"type":"Feature"},
	{"geometry":{"coordinates":[2.807832,48.831398],"type":"Point"},"properties":{"osm_id":"6887963335","tag":{"amenity":"recycling","recycling_type":"container"}},"type":"Feature"},
	{"geometry":{"coordinates":[2.760683,48.855117],"type":"Point"},"properties":{"osm_id":"7487206762","tag":{"amenity":"waste_basket","waste":"dog_excrement"}},"type":"Feature"},
	{"geometry":{"coordinates":[2.760565,48.855085],"type":"Point"},"properties":{"osm_id":"7487206763","tag":{"amenity":"waste_basket","waste":"trash"}},"type":"Feature"},
	{"geometry":{"coordinates":[2.758761,48.857398],"type":"Point"},"properties":{"osm_id":"7487206780","tag":{"amenity":"waste_basket","mapillary":"WdH2rPbJ1J5hxrUYGpnAAQ","waste":"trash"}},"type":"Feature"},
	{"geometry":{"coordinates":[2.756845,48.858362],"type":"Point"},"properties":{"osm_id":"7487222388","tag":{"amenity":"waste_basket","mapillary":"MA2Q0jNIE4GbppisLBg0PQ","waste":"trash"}},"type":"Feature"},
	{"geometry":{"coordinates":[2.724936,48.847276],"type":"Point"},"properties":{"osm_id":"7752801547","tag":{"amenity":"waste_basket","waste":"trash"}},"type":"Feature"}
]
}
