{
"type": "FeatureCollection",
"features": [
	{"geometry":{"coordinates":[2.736106,48.180953],"type":"Point"},"properties":{"osm_id":"2682568328","tag":{"amenity":"waste_basket"}},"type":"Feature"},
	{"geometry":{"coordinates":[2.735752,48.181174],"type":"Point"},"properties":{"osm_id":"2682568338","tag":{"amenity":"waste_basket"}},"type":"Feature"},
	{"geometry":{"coordinates":[2.735653,48.18138],"type":"Point"},"properties":{"osm_id":"2682568354","tag":{"amenity":"waste_basket"}},"type":"Feature"},
	{"geometry":{"coordinates":[2.73544,48.181548],"type":"Point"},"properties":{"osm_id":"2682568369","tag":{"amenity":"waste_basket"}},"type":"Feature"},
	{"geometry":{"coordinates":[2.735068,48.181787],"type":"Point"},"properties":{"osm_id":"2682568405","tag":{"amenity":"waste_basket"}},"type":"Feature"},
	{"geometry":{"coordinates":[2.734836,48.181782],"type":"Point"},"properties":{"osm_id":"2682568407","tag":{"amenity":"waste_basket"}},"type":"Feature"},
	{"geometry":{"coordinates":[2.735291,48.181813],"type":"Point"},"properties":{"osm_id":"2682568419","tag":{"amenity":"recycling","recycling:glass_bottles":"yes"}},"type":"Feature"},
	{"geometry":{"coordinates":[2.735316,48.18145],"type":"Point"},"properties":{"osm_id":"2793286032","tag":{"amenity":"waste_basket"}},"type":"Feature"},
	{"geometry":{"coordinates":[2.73513,48.181584],"type":"Point"},"properties":{"osm_id":"2793286038","tag":{"amenity":"waste_basket"}},"type":"Feature"},
	{"geometry":{"coordinates":[2.734987,48.181862],"type":"Point"},"properties":{"osm_id":"2793286048","tag":{"amenity":"waste_basket"}},"type":"Feature"},
	{"geometry":{"coordinates":[2.734737,48.181978],"type":"Point"},"properties":{"osm_id":"2793286054","tag":{"amenity":"waste_basket"}},"type":"Feature"},
	{"geometry":{"coordinates":[2.735163,48.181806],"type":"Point"},"properties":{"osm_id":"2987455498","tag":{"amenity":"waste_basket"}},"type":"Feature"},
	{"geometry":{"coordinates":[2.730181,48.180012],"type":"Point"},"properties":{"osm_id":"3270984596","tag":{"amenity":"waste_basket"}},"type":"Feature"},
	{"geometry":{"coordinates":[2.732211,48.180534],"type":"Point"},"properties":{"osm_id":"3270984612","tag":{"amenity":"waste_basket"}},"type":"Feature"},
	{"geometry":{"coordinates":[2.730638,48.180828],"type":"Point"},"properties":{"osm_id":"3270984617","tag":{"amenity":"waste_basket"}},"type":"Feature"},
	{"geometry":{"coordinates":[2.732328,48.182315],"type":"Point"},"properties":{"osm_id":"3270984634","tag":{"amenity":"waste_basket"}},"type":"Feature"},
	{"geometry":{"coordinates":[2.731763,48.182413],"type":"Point"},"properties":{"osm_id":"3270984640","tag":{"amenity":"waste_basket"}},"type":"Feature"},
	{"geometry":{"coordinates":[2.733162,48.182446],"type":"Point"},"properties":{"osm_id":"3270984641","tag":{"amenity":"waste_basket"}},"type":"Feature"},
	{"geometry":{"coordinates":[2.731294,48.182504],"type":"Point"},"properties":{"osm_id":"3270984647","tag":{"amenity":"waste_basket"}},"type":"Feature"},
	{"geometry":{"coordinates":[2.732976,48.182769],"type":"Point"},"properties":{"osm_id":"3270984656","tag":{"amenity":"waste_basket"}},"type":"Feature"},
	{"geometry":{"coordinates":[2.732062,48.1832],"type":"Point"},"properties":{"osm_id":"3270984762","tag":{"amenity":"waste_basket"}},"type":"Feature"},
	{"geometry":{"coordinates":[2.729953,48.183234],"type":"Point"},"properties":{"osm_id":"3270984764","tag":{"amenity":"waste_basket"}},"type":"Feature"},
	{"geometry":{"coordinates":[2.732866,48.183318],"type":"Point"},"properties":{"osm_id":"3270984767","tag":{"amenity":"waste_basket"}},"type":"Feature"},
	{"geometry":{"coordinates":[2.733298,48.18393],"type":"Point"},"properties":{"osm_id":"3270984786","tag":{"amenity":"waste_basket"}},"type":"Feature"},
	{"geometry":{"coordinates":[2.729809,48.184744],"type":"Point"},"properties":{"osm_id":"3270984825","tag":{"amenity":"waste_basket"}},"type":"Feature"},
	{"geometry":{"coordinates":[2.730012,48.184844],"type":"Point"},"properties":{"osm_id":"3270984828","tag":{"amenity":"waste_basket"}},"type":"Feature"},
	{"geometry":{"coordinates":[2.732304,48.185809],"type":"Point"},"properties":{"osm_id":"3270984843","tag":{"amenity":"waste_basket"}},"type":"Feature"},
	{"geometry":{"coordinates":[2.73183,48.186115],"type":"Point"},"properties":{"osm_id":"3270984851","tag":{"amenity":"waste_basket"}},"type":"Feature"},
	{"geometry":{"coordinates":[2.731678,48.186228],"type":"Point"},"properties":{"osm_id":"3270984963","tag":{"amenity":"waste_basket"}},"type":"Feature"},
	{"geometry":{"coordinates":[2.731332,48.186713],"type":"Point"},"properties":{"osm_id":"3270984972","tag":{"amenity":"waste_basket"}},"type":"Feature"},
	{"geometry":{"coordinates":[2.731216,48.186794],"type":"Point"},"properties":{"osm_id":"3270984975","tag":{"amenity":"waste_basket"}},"type":"Feature"},
	{"geometry":{"coordinates":[2.727928,48.189458],"type":"Point"},"properties":{"osm_id":"3270984979","tag":{"amenity":"waste_basket"}},"type":"Feature"},
	{"geometry":{"coordinates":[2.735599,48.181939],"type":"Point"},"properties":{"osm_id":"3864796550","tag":{"amenity":"waste_basket"}},"type":"Feature"},
	{"geometry":{"coordinates":[2.735163,48.182266],"type":"Point"},"properties":{"osm_id":"3864797459","tag":{"amenity":"waste_basket"}},"type":"Feature"},
	{"geometry":{"coordinates":[2.733909,48.182676],"type":"Point"},"properties":{"osm_id":"3864797461","tag":{"amenity":"waste_basket"}},"type":"Feature"},
	{"geometry":{"coordinates":[2.734965,48.183398],"type":"Point"},"properties":{"osm_id":"3864797463","tag":{"amenity":"waste_basket"}},"type":"Feature"},
	{"geometry":{"coordinates":[2.755388,48.182718],"type":"Point"},"properties":{"osm_id":"7835544064","tag":{"amenity":"waste_basket"}},"type":"Feature"},
	{"geometry":{"coordinates":[2.738359,48.184711],"type":"Point"},"properties":{"osm_id":"7835841127","tag":{"amenity":"waste_basket"}},"type":"Feature"},
	{"geometry":{"coordinates":[2.737986,48.184775],"type":"Point"},"properties":{"highway":"crossing","osm_id":"7835841142"},"type":"Feature"},
	{"geometry":{"coordinates":[2.738384,48.184727],"type":"Point"},"properties":{"osm_id":"7835844232","tag":{"amenity":"recycling","recycling_type":"container"}},"type":"Feature"}
]
}
