{
"type": "FeatureCollection",
"features": [
	{"geometry":{"coordinates":[2.734111,47.991617],"type":"Point"},"properties":{"osm_id":"841874612","tag":{"amenity":"recycling","recycling:glass_bottles":"yes"}},"type":"Feature"},
	{"geometry":{"coordinates":[2.734146,47.994843],"type":"Point"},"properties":{"osm_id":"2191410666","tag":{"amenity":"recycling","recycling:glass_bottles":"yes"}},"type":"Feature"},
	{"geometry":{"coordinates":[2.735003,48.002288],"type":"Point"},"properties":{"osm_id":"2547848568","tag":{"amenity":"recycling","description":"Collecte : verre, ordures m\u00c3\u00a9nag\u00c3\u00a8res","recycling:glass_bottles":"yes","recycling:waste":"yes","recycling_type":"container"}},"type":"Feature"},
	{"geometry":{"coordinates":[2.734853,48.002304],"type":"Point"},"properties":{"osm_id":"2547848569","tag":{"amenity":"waste_basket"}},"type":"Feature"},
	{"geometry":{"coordinates":[2.735439,48.00266],"type":"Point"},"properties":{"osm_id":"2547848589","tag":{"amenity":"waste_basket"}},"type":"Feature"},
	{"geometry":{"coordinates":[2.735783,48.002804],"type":"Point"},"properties":{"osm_id":"2547848618","tag":{"amenity":"waste_basket"}},"type":"Feature"},
	{"geometry":{"coordinates":[2.73578,48.002834],"type":"Point"},"properties":{"osm_id":"2547848622","tag":{"amenity":"waste_basket"}},"type":"Feature"},
	{"geometry":{"coordinates":[2.736057,48.002933],"type":"Point"},"properties":{"osm_id":"2547848625","tag":{"amenity":"waste_basket"}},"type":"Feature"},
	{"geometry":{"coordinates":[2.736672,48.003543],"type":"Point"},"properties":{"osm_id":"2547848946","tag":{"amenity":"waste_basket"}},"type":"Feature"},
	{"geometry":{"coordinates":[2.736335,48.003686],"type":"Point"},"properties":{"osm_id":"2547848966","tag":{"amenity":"waste_basket"}},"type":"Feature"},
	{"geometry":{"coordinates":[2.737077,48.004275],"type":"Point"},"properties":{"osm_id":"2547849015","tag":{"amenity":"waste_basket"}},"type":"Feature"},
	{"geometry":{"coordinates":[2.737424,48.004429],"type":"Point"},"properties":{"osm_id":"2547849018","tag":{"amenity":"waste_basket"}},"type":"Feature"},
	{"geometry":{"coordinates":[2.738899,48.006388],"type":"Point"},"properties":{"osm_id":"2547849149","tag":{"amenity":"waste_basket"}},"type":"Feature"},
	{"geometry":{"coordinates":[2.732058,47.998749],"type":"Point"},"properties":{"osm_id":"3250214818","tag":{"amenity":"recycling","recycling:cans":"yes","recycling:glass_bottles":"yes","recycling:paper":"yes"}},"type":"Feature"},
	{"geometry":{"coordinates":[2.737096,48.012758],"type":"Point"},"properties":{"osm_id":"3275178131","tag":{"amenity":"waste_basket"}},"type":"Feature"},
	{"geometry":{"coordinates":[2.731211,48.012917],"type":"Point"},"properties":{"osm_id":"3275178150","tag":{"amenity":"waste_basket"}},"type":"Feature"},
	{"geometry":{"coordinates":[2.73555,48.012932],"type":"Point"},"properties":{"osm_id":"3275178153","tag":{"amenity":"waste_basket"}},"type":"Feature"},
	{"geometry":{"coordinates":[2.731834,48.012979],"type":"Point"},"properties":{"osm_id":"3275178162","tag":{"amenity":"waste_basket"}},"type":"Feature"},
	{"geometry":{"coordinates":[2.731376,48.012987],"type":"Point"},"properties":{"osm_id":"3275178165","tag":{"amenity":"waste_basket"}},"type":"Feature"},
	{"geometry":{"coordinates":[2.729694,48.013079],"type":"Point"},"properties":{"osm_id":"3275178193","tag":{"amenity":"waste_basket"}},"type":"Feature"},
	{"geometry":{"coordinates":[2.731608,48.01313],"type":"Point"},"properties":{"osm_id":"3275178200","tag":{"amenity":"waste_basket"}},"type":"Feature"},
	{"geometry":{"coordinates":[2.731373,48.013193],"type":"Point"},"properties":{"osm_id":"3275178213","tag":{"amenity":"waste_basket"}},"type":"Feature"},
	{"geometry":{"coordinates":[2.725377,48.029225],"type":"Point"},"properties":{"osm_id":"3691302489","tag":{"amenity":"waste_basket"}},"type":"Feature"},
	{"geometry":{"coordinates":[2.72491,48.028989],"type":"Point"},"properties":{"osm_id":"3691302491","tag":{"amenity":"waste_basket"}},"type":"Feature"},
	{"geometry":{"coordinates":[2.743898,48.047928],"type":"Point"},"properties":{"osm_id":"3691404294","tag":{"amenity":"waste_basket"}},"type":"Feature"},
	{"geometry":{"coordinates":[2.74456,48.048375],"type":"Point"},"properties":{"osm_id":"3691404308","tag":{"amenity":"waste_basket"}},"type":"Feature"},
	{"geometry":{"coordinates":[2.751809,47.990213],"type":"Point"},"properties":{"osm_id":"3702520203","tag":{"amenity":"recycling"}},"type":"Feature"},
	{"geometry":{"coordinates":[2.745932,48.001275],"type":"Point"},"properties":{"osm_id":"3702520206","tag":{"amenity":"recycling"}},"type":"Feature"},
	{"geometry":{"coordinates":[2.741995,47.996652],"type":"Point"},"properties":{"osm_id":"3702520208","tag":{"amenity":"recycling"}},"type":"Feature"},
	{"geometry":{"coordinates":[2.742507,47.997512],"type":"Point"},"properties":{"osm_id":"3710275202","tag":{"amenity":"recycling"}},"type":"Feature"},
	{"geometry":{"coordinates":[2.739455,48.002602],"type":"Point"},"properties":{"osm_id":"5510443567","tag":{"amenity":"waste_basket"}},"type":"Feature"},
	{"geometry":{"coordinates":[2.738024,48.004972],"type":"Point"},"properties":{"osm_id":"5511045521","tag":{"amenity":"recycling","description":"Conteneur enterr\u00c3\u00a9 \u00c3\u00a0 verre","recycling:glass_bottles":"yes","recycling_type":"container"}},"type":"Feature"},
	{"geometry":{"coordinates":[2.793852,48.044142],"type":"Point"},"properties":{"osm_id":"5717998900","tag":{"amenity":"recycling","recycling:glass_bottles":"yes","recycling_type":"container"}},"type":"Feature"},
	{"geometry":{"coordinates":[2.793892,48.044153],"type":"Point"},"properties":{"osm_id":"5717998901","tag":{"amenity":"recycling","recycling:paper":"yes","recycling_type":"container"}},"type":"Feature"},
	{"geometry":{"coordinates":[2.793933,48.044162],"type":"Point"},"properties":{"osm_id":"5717998902","tag":{"amenity":"recycling","recycling:cans":"yes","recycling_type":"container"}},"type":"Feature"},
	{"geometry":{"coordinates":[2.734698,47.997778],"type":"Point"},"properties":{"osm_id":"6067967666","tag":{"amenity":"waste_basket"}},"type":"Feature"},
	{"geometry":{"coordinates":[2.733036,47.998614],"type":"Point"},"properties":{"osm_id":"6067983548","tag":{"amenity":"waste_basket"}},"type":"Feature"},
	{"geometry":{"coordinates":[2.731261,48.000107],"type":"Point"},"properties":{"osm_id":"6068034651","tag":{"amenity":"waste_basket"}},"type":"Feature"},
	{"geometry":{"coordinates":[2.732875,47.9983],"type":"Point"},"properties":{"osm_id":"6068829506","tag":{"amenity":"waste_basket"}},"type":"Feature"},
	{"geometry":{"coordinates":[2.732762,47.996756],"type":"Point"},"properties":{"osm_id":"6068849002","tag":{"amenity":"waste_basket"}},"type":"Feature"},
	{"geometry":{"coordinates":[2.732718,47.996644],"type":"Point"},"properties":{"osm_id":"6068849068","tag":{"amenity":"waste_basket"}},"type":"Feature"},
	{"geometry":{"coordinates":[2.732868,47.996503],"type":"Point"},"properties":{"osm_id":"6068899798","tag":{"amenity":"waste_basket"}},"type":"Feature"},
	{"geometry":{"coordinates":[2.732595,47.996061],"type":"Point"},"properties":{"osm_id":"6068899800","tag":{"amenity":"waste_basket"}},"type":"Feature"},
	{"geometry":{"coordinates":[2.732636,47.995967],"type":"Point"},"properties":{"osm_id":"6068899803","tag":{"amenity":"waste_basket"}},"type":"Feature"},
	{"geometry":{"coordinates":[2.732482,47.99507],"type":"Point"},"properties":{"osm_id":"6068899804","tag":{"amenity":"waste_basket"}},"type":"Feature"},
	{"geometry":{"coordinates":[2.741116,48.006827],"type":"Point"},"properties":{"osm_id":"6140873713","tag":{"amenity":"waste_basket","waste":"trash"}},"type":"Feature"},
	{"geometry":{"coordinates":[2.741209,48.005903],"type":"Point"},"properties":{"osm_id":"6140873746","tag":{"amenity":"waste_basket","waste":"trash"}},"type":"Feature"},
	{"geometry":{"coordinates":[2.741456,48.005529],"type":"Point"},"properties":{"osm_id":"6140873748","tag":{"amenity":"waste_basket","waste":"trash"}},"type":"Feature"},
	{"geometry":{"coordinates":[2.741791,48.004387],"type":"Point"},"properties":{"osm_id":"6140873751","tag":{"amenity":"waste_basket","waste":"trash"}},"type":"Feature"},
	{"geometry":{"coordinates":[2.741729,48.003927],"type":"Point"},"properties":{"osm_id":"6140873752","tag":{"amenity":"waste_basket","waste":"trash"}},"type":"Feature"},
	{"geometry":{"coordinates":[2.741682,48.003619],"type":"Point"},"properties":{"osm_id":"6140873753","tag":{"amenity":"waste_basket","waste":"trash"}},"type":"Feature"},
	{"geometry":{"coordinates":[2.738883,48.001016],"type":"Point"},"properties":{"osm_id":"6413708012","tag":{"amenity":"recycling","recycling:glass_bottles":"yes","recycling:paper":"yes","recycling:waste":"yes","recycling_type":"container"}},"type":"Feature"},
	{"geometry":{"coordinates":[2.741642,47.998576],"type":"Point"},"properties":{"osm_id":"6413794813","tag":{"amenity":"recycling","recycling_type":"container"}},"type":"Feature"},
	{"geometry":{"coordinates":[2.74072,47.998561],"type":"Point"},"properties":{"osm_id":"6413794814","tag":{"amenity":"recycling","recycling_type":"container"}},"type":"Feature"},
	{"geometry":{"coordinates":[2.728817,47.997777],"type":"Point"},"properties":{"osm_id":"7114192424","tag":{"amenity":"recycling","recycling_type":"container"}},"type":"Feature"}
]
}
