{
"type": "FeatureCollection",
"features": [
	{"geometry":{"coordinates":[2.762201,44.520528],"type":"Point"},"properties":{"osm_id":"2428215509","tag":{"amenity":"waste_basket"}},"type":"Feature"},
	{"geometry":{"coordinates":[2.748861,44.516865],"type":"Point"},"properties":{"osm_id":"3041546447","tag":{"amenity":"recycling","recycling:glass_bottles":"yes","recycling_type":"container"}},"type":"Feature"},
	{"geometry":{"coordinates":[2.763525,44.521192],"type":"Point"},"properties":{"osm_id":"4534579327","tag":{"amenity":"waste_basket","colour":"black","material":"plastic"}},"type":"Feature"},
	{"geometry":{"coordinates":[2.761778,44.520783],"type":"Point"},"properties":{"osm_id":"4534581451","tag":{"amenity":"waste_basket","colour":"black","material":"plastic","support":"wall_mounted"}},"type":"Feature"},
	{"geometry":{"coordinates":[2.761453,44.52061],"type":"Point"},"properties":{"osm_id":"4534581454","tag":{"amenity":"waste_basket"}},"type":"Feature"},
	{"geometry":{"coordinates":[2.760587,44.52098],"type":"Point"},"properties":{"osm_id":"4534581486","tag":{"amenity":"waste_basket"}},"type":"Feature"},
	{"geometry":{"coordinates":[2.760206,44.521092],"type":"Point"},"properties":{"osm_id":"4534581502","tag":{"amenity":"recycling","recycling:magazines":"yes","recycling:newspaper":"yes","recycling:paper":"yes","recycling_type":"container"}},"type":"Feature"},
	{"geometry":{"coordinates":[2.760203,44.521117],"type":"Point"},"properties":{"osm_id":"4534581506","tag":{"amenity":"recycling","recycling:magazines":"yes","recycling:newspaper":"yes","recycling:paper":"yes","recycling_type":"container"}},"type":"Feature"},
	{"geometry":{"coordinates":[2.760212,44.521136],"type":"Point"},"properties":{"osm_id":"4534581507","tag":{"amenity":"recycling","recycling:glass_bottles":"yes","recycling_type":"container"}},"type":"Feature"},
	{"geometry":{"coordinates":[2.760218,44.521147],"type":"Point"},"properties":{"osm_id":"4534581508","tag":{"amenity":"recycling","recycling:glass_bottles":"yes","recycling_type":"container"}},"type":"Feature"},
	{"geometry":{"coordinates":[2.759618,44.524121],"type":"Point"},"properties":{"osm_id":"4534581554","tag":{"amenity":"recycling","recycling:glass_bottles":"yes","recycling_type":"container"}},"type":"Feature"},
	{"geometry":{"coordinates":[2.760258,44.523991],"type":"Point"},"properties":{"osm_id":"4534581557","tag":{"amenity":"waste_basket","material":"wood"}},"type":"Feature"},
	{"geometry":{"coordinates":[2.762376,44.522751],"type":"Point"},"properties":{"osm_id":"4534581568","tag":{"amenity":"waste_basket","material":"wood"}},"type":"Feature"},
	{"geometry":{"coordinates":[2.763634,44.523211],"type":"Point"},"properties":{"osm_id":"4534581576","tag":{"amenity":"waste_basket","colour":"black","material":"plastic"}},"type":"Feature"},
	{"geometry":{"coordinates":[2.763998,44.522747],"type":"Point"},"properties":{"osm_id":"4534581642","tag":{"amenity":"waste_basket","colour":"black","material":"plastic"}},"type":"Feature"},
	{"geometry":{"coordinates":[2.763406,44.52224],"type":"Point"},"properties":{"osm_id":"4534581646","tag":{"amenity":"waste_basket","colour":"black","material":"plastic"}},"type":"Feature"},
	{"geometry":{"coordinates":[2.766441,44.521418],"type":"Point"},"properties":{"osm_id":"4534581661","tag":{"amenity":"waste_basket","fee":"no","vending":"excrement_bags"}},"type":"Feature"},
	{"geometry":{"coordinates":[2.765728,44.52124],"type":"Point"},"properties":{"osm_id":"4534581668","tag":{"amenity":"waste_basket","fee":"no","vending":"excrement_bags"}},"type":"Feature"},
	{"geometry":{"coordinates":[2.763768,44.521551],"type":"Point"},"properties":{"osm_id":"4534581685","tag":{"amenity":"waste_basket","colour":"black","material":"plastic"}},"type":"Feature"},
	{"geometry":{"coordinates":[2.764423,44.521143],"type":"Point"},"properties":{"osm_id":"4534581721","tag":{"amenity":"waste_basket","material":"wood"}},"type":"Feature"},
	{"geometry":{"coordinates":[2.765521,44.520471],"type":"Point"},"properties":{"osm_id":"4534581736","tag":{"amenity":"recycling","recycling:magazines":"yes","recycling:newspaper":"yes","recycling:paper":"yes","recycling_type":"container"}},"type":"Feature"},
	{"geometry":{"coordinates":[2.765546,44.520474],"type":"Point"},"properties":{"osm_id":"4534581737","tag":{"amenity":"recycling","recycling:glass_bottles":"yes","recycling_type":"container"}},"type":"Feature"},
	{"geometry":{"coordinates":[2.765572,44.520476],"type":"Point"},"properties":{"osm_id":"4534581738","tag":{"amenity":"recycling","recycling:glass_bottles":"yes","recycling_type":"container"}},"type":"Feature"},
	{"geometry":{"coordinates":[2.764555,44.520493],"type":"Point"},"properties":{"osm_id":"4551077812","tag":{"amenity":"waste_basket","colour":"black"}},"type":"Feature"},
	{"geometry":{"coordinates":[2.801511,44.496017],"type":"Point"},"properties":{"osm_id":"4769747578","tag":{"amenity":"waste_basket"}},"type":"Feature"},
	{"geometry":{"coordinates":[2.764475,44.525192],"type":"Point"},"properties":{"osm_id":"5600362863","tag":{"amenity":"recycling","recycling_type":"container"}},"type":"Feature"},
	{"geometry":{"coordinates":[2.731019,44.473778],"type":"Point"},"properties":{"osm_id":"5818453357","tag":{"amenity":"recycling","recycling_type":"container"}},"type":"Feature"},
	{"geometry":{"coordinates":[2.763389,44.488549],"type":"Point"},"properties":{"osm_id":"5818489553","tag":{"amenity":"recycling","recycling_type":"container"}},"type":"Feature"},
	{"geometry":{"coordinates":[2.778848,44.527041],"type":"Point"},"properties":{"osm_id":"6032837935","tag":{"amenity":"waste_basket"}},"type":"Feature"},
	{"geometry":{"coordinates":[2.762383,44.520465],"type":"Point"},"properties":{"osm_id":"6570215629","tag":{"amenity":"waste_disposal"}},"type":"Feature"},
	{"geometry":{"coordinates":[2.762346,44.520482],"type":"Point"},"properties":{"osm_id":"6570215630","tag":{"amenity":"recycling","recycling_type":"container"}},"type":"Feature"},
	{"geometry":{"coordinates":[2.784933,44.519921],"type":"Point"},"properties":{"name":"Smictom de la Region d'Espalion","osm_id":"7390606746","tag":{"amenity":"recycling","phone":"+33 5 65 51 46 18","recycling_type":"centre"}},"type":"Feature"},
	{"geometry":{"coordinates":[2.741698,44.516965],"type":"Point"},"properties":{"osm_id":"7623816461","tag":{"amenity":"recycling","recycling:glass_bottles":"yes","recycling_type":"container"}},"type":"Feature"}
]
}
