{
"type": "FeatureCollection",
"features": [
	{"geometry":{"coordinates":[2.788801,42.683826],"type":"Point"},"properties":{"osm_id":"4428630480","tag":{"amenity":"waste_disposal"}},"type":"Feature"},
	{"geometry":{"coordinates":[2.788999,42.683826],"type":"Point"},"properties":{"osm_id":"4428630481","tag":{"amenity":"waste_disposal"}},"type":"Feature"},
	{"geometry":{"coordinates":[2.788982,42.68338],"type":"Point"},"properties":{"osm_id":"4428631290","tag":{"amenity":"waste_disposal"}},"type":"Feature"},
	{"geometry":{"coordinates":[2.787734,42.68266],"type":"Point"},"properties":{"osm_id":"4428658644","tag":{"amenity":"waste_basket"}},"type":"Feature"},
	{"geometry":{"coordinates":[2.787007,42.682687],"type":"Point"},"properties":{"osm_id":"4428658649","tag":{"amenity":"waste_basket"}},"type":"Feature"},
	{"geometry":{"coordinates":[2.785337,42.682745],"type":"Point"},"properties":{"osm_id":"4428663880","tag":{"amenity":"waste_basket"}},"type":"Feature"},
	{"geometry":{"coordinates":[2.784617,42.6829],"type":"Point"},"properties":{"osm_id":"4428663883","tag":{"amenity":"waste_basket"}},"type":"Feature"},
	{"geometry":{"coordinates":[2.784778,42.683147],"type":"Point"},"properties":{"osm_id":"4428664229","tag":{"amenity":"waste_basket"}},"type":"Feature"},
	{"geometry":{"coordinates":[2.784694,42.683055],"type":"Point"},"properties":{"osm_id":"4428664232","tag":{"amenity":"waste_basket"}},"type":"Feature"},
	{"geometry":{"coordinates":[2.78503,42.683224],"type":"Point"},"properties":{"osm_id":"4428666240","tag":{"amenity":"waste_basket"}},"type":"Feature"},
	{"geometry":{"coordinates":[2.785542,42.683344],"type":"Point"},"properties":{"osm_id":"4428666242","tag":{"amenity":"waste_basket"}},"type":"Feature"},
	{"geometry":{"coordinates":[2.786028,42.683341],"type":"Point"},"properties":{"osm_id":"4428670772","tag":{"amenity":"waste_basket"}},"type":"Feature"},
	{"geometry":{"coordinates":[2.786097,42.683112],"type":"Point"},"properties":{"osm_id":"4428670773","tag":{"amenity":"waste_basket"}},"type":"Feature"},
	{"geometry":{"coordinates":[2.786959,42.68359],"type":"Point"},"properties":{"osm_id":"4428677746","tag":{"amenity":"waste_basket"}},"type":"Feature"},
	{"geometry":{"coordinates":[2.787668,42.683546],"type":"Point"},"properties":{"osm_id":"4428695353","tag":{"amenity":"waste_basket"}},"type":"Feature"},
	{"geometry":{"coordinates":[2.787748,42.683435],"type":"Point"},"properties":{"osm_id":"4428695355","tag":{"amenity":"waste_basket"}},"type":"Feature"},
	{"geometry":{"coordinates":[2.787802,42.683369],"type":"Point"},"properties":{"osm_id":"4428695357","tag":{"amenity":"waste_basket"}},"type":"Feature"},
	{"geometry":{"coordinates":[2.78776,42.683309],"type":"Point"},"properties":{"osm_id":"4428695359","tag":{"amenity":"waste_basket"}},"type":"Feature"},
	{"geometry":{"coordinates":[2.787542,42.683292],"type":"Point"},"properties":{"osm_id":"4428695361","tag":{"amenity":"waste_basket"}},"type":"Feature"},
	{"geometry":{"coordinates":[2.787388,42.683236],"type":"Point"},"properties":{"osm_id":"4428695363","tag":{"amenity":"waste_basket"}},"type":"Feature"},
	{"geometry":{"coordinates":[2.787274,42.683175],"type":"Point"},"properties":{"osm_id":"4428695365","tag":{"amenity":"waste_basket"}},"type":"Feature"},
	{"geometry":{"coordinates":[2.787113,42.683032],"type":"Point"},"properties":{"osm_id":"4428695368","tag":{"amenity":"waste_basket"}},"type":"Feature"},
	{"geometry":{"coordinates":[2.787004,42.683038],"type":"Point"},"properties":{"osm_id":"4428695370","tag":{"amenity":"waste_basket"}},"type":"Feature"},
	{"geometry":{"coordinates":[2.7869,42.683109],"type":"Point"},"properties":{"osm_id":"4428695371","tag":{"amenity":"waste_basket"}},"type":"Feature"},
	{"geometry":{"coordinates":[2.786884,42.683173],"type":"Point"},"properties":{"osm_id":"4428695372","tag":{"amenity":"waste_basket"}},"type":"Feature"},
	{"geometry":{"coordinates":[2.78689,42.683338],"type":"Point"},"properties":{"osm_id":"4428695375","tag":{"amenity":"waste_basket"}},"type":"Feature"},
	{"geometry":{"coordinates":[2.786936,42.683448],"type":"Point"},"properties":{"osm_id":"4428695377","tag":{"amenity":"waste_basket"}},"type":"Feature"},
	{"geometry":{"coordinates":[2.787109,42.683523],"type":"Point"},"properties":{"osm_id":"4428695380","tag":{"amenity":"waste_basket"}},"type":"Feature"},
	{"geometry":{"coordinates":[2.787254,42.683569],"type":"Point"},"properties":{"osm_id":"4428695383","tag":{"amenity":"waste_basket"}},"type":"Feature"},
	{"geometry":{"coordinates":[2.789843,42.683288],"type":"Point"},"properties":{"name":"recyclage du verre","osm_id":"4428721025","tag":{"amenity":"recycling"}},"type":"Feature"},
	{"geometry":{"coordinates":[2.797806,42.693307],"type":"Point"},"properties":{"osm_id":"4530232126","tag":{"amenity":"recycling","recycling_type":"container"}},"type":"Feature"},
	{"geometry":{"coordinates":[2.797524,42.692814],"type":"Point"},"properties":{"osm_id":"4542722447","tag":{"amenity":"recycling","recycling_type":"container"}},"type":"Feature"},
	{"geometry":{"coordinates":[2.797698,42.695139],"type":"Point"},"properties":{"osm_id":"4542751986","tag":{"amenity":"recycling","recycling_type":"container"}},"type":"Feature"},
	{"geometry":{"coordinates":[2.801058,42.693707],"type":"Point"},"properties":{"osm_id":"4542818112","tag":{"amenity":"recycling","recycling_type":"container"}},"type":"Feature"},
	{"geometry":{"coordinates":[2.800353,42.695872],"type":"Point"},"properties":{"osm_id":"4542893589","tag":{"amenity":"recycling","recycling_type":"container"}},"type":"Feature"},
	{"geometry":{"coordinates":[2.777735,42.700097],"type":"Point"},"properties":{"osm_id":"4781650921","tag":{"amenity":"recycling","recycling:glass_bottles":"yes","recycling_type":"container"}},"type":"Feature"},
	{"geometry":{"coordinates":[2.767724,42.694346],"type":"Point"},"properties":{"osm_id":"4793927680","tag":{"amenity":"recycling","recycling:glass_bottles":"yes","recycling_type":"container"}},"type":"Feature"},
	{"geometry":{"coordinates":[2.769803,42.694745],"type":"Point"},"properties":{"osm_id":"4794860242","tag":{"amenity":"recycling","recycling:waste":"yes","recycling_type":"container"}},"type":"Feature"},
	{"geometry":{"coordinates":[2.769783,42.694751],"type":"Point"},"properties":{"osm_id":"4794860243","tag":{"amenity":"recycling","recycling:cans":"yes","recycling:cardboard":"yes","recycling:paper":"yes","recycling:plastic":"yes","recycling:plastic_bottles":"yes","recycling:plastic_packaging":"yes","recycling_type":"container"}},"type":"Feature"},
	{"geometry":{"coordinates":[2.769761,42.694759],"type":"Point"},"properties":{"osm_id":"4794860244","tag":{"amenity":"recycling","recycling:glass_bottles":"yes","recycling_type":"container"}},"type":"Feature"},
	{"geometry":{"coordinates":[2.768983,42.694132],"type":"Point"},"properties":{"osm_id":"4796419968","tag":{"amenity":"recycling","recycling:glass_bottles":"yes","recycling_type":"container"}},"type":"Feature"},
	{"geometry":{"coordinates":[2.768967,42.694151],"type":"Point"},"properties":{"osm_id":"4796419969","tag":{"amenity":"recycling","recycling:cans":"yes","recycling:cardboard":"yes","recycling:paper":"yes","recycling:plastic":"yes","recycling:plastic_bottles":"yes","recycling:plastic_packaging":"yes","recycling_type":"container"}},"type":"Feature"},
	{"geometry":{"coordinates":[2.768951,42.694172],"type":"Point"},"properties":{"osm_id":"4796419970","tag":{"amenity":"recycling","recycling:waste":"yes","recycling_type":"container"}},"type":"Feature"},
	{"geometry":{"coordinates":[2.771865,42.695508],"type":"Point"},"properties":{"osm_id":"4796477490","tag":{"amenity":"recycling","recycling:cans":"yes","recycling:cardboard":"yes","recycling:paper":"yes","recycling:plastic":"yes","recycling:plastic_bottles":"yes","recycling:plastic_packaging":"yes","recycling_type":"container"}},"type":"Feature"},
	{"geometry":{"coordinates":[2.771864,42.695467],"type":"Point"},"properties":{"osm_id":"4796477491","tag":{"amenity":"recycling","recycling:glass_bottles":"yes","recycling_type":"container"}},"type":"Feature"},
	{"geometry":{"coordinates":[2.771864,42.695485],"type":"Point"},"properties":{"osm_id":"4796477492","tag":{"amenity":"recycling","recycling:waste":"yes","recycling_type":"container"}},"type":"Feature"},
	{"geometry":{"coordinates":[2.769717,42.693855],"type":"Point"},"properties":{"osm_id":"4796477496","tag":{"amenity":"recycling","recycling:cans":"yes","recycling:cardboard":"yes","recycling:paper":"yes","recycling:plastic":"yes","recycling:plastic_bottles":"yes","recycling:plastic_packaging":"yes","recycling_type":"container"}},"type":"Feature"},
	{"geometry":{"coordinates":[2.769683,42.693856],"type":"Point"},"properties":{"osm_id":"4796477497","tag":{"amenity":"recycling","recycling:waste":"yes","recycling_type":"container"}},"type":"Feature"},
	{"geometry":{"coordinates":[2.734536,42.694784],"type":"Point"},"properties":{"osm_id":"5145523379","tag":{"amenity":"waste_basket"}},"type":"Feature"},
	{"geometry":{"coordinates":[2.734537,42.694844],"type":"Point"},"properties":{"osm_id":"5145523380","tag":{"amenity":"waste_basket"}},"type":"Feature"},
	{"geometry":{"coordinates":[2.734549,42.694936],"type":"Point"},"properties":{"osm_id":"5145523381","tag":{"amenity":"waste_basket"}},"type":"Feature"},
	{"geometry":{"coordinates":[2.734556,42.695013],"type":"Point"},"properties":{"osm_id":"5145523382","tag":{"amenity":"waste_basket"}},"type":"Feature"},
	{"geometry":{"coordinates":[2.734571,42.695108],"type":"Point"},"properties":{"osm_id":"5145523383","tag":{"amenity":"waste_basket"}},"type":"Feature"},
	{"geometry":{"coordinates":[2.802467,42.693158],"type":"Point"},"properties":{"osm_id":"5160634754","tag":{"amenity":"recycling","recycling_type":"container"}},"type":"Feature"},
	{"geometry":{"coordinates":[2.800595,42.693055],"type":"Point"},"properties":{"osm_id":"5160634761","tag":{"amenity":"recycling","recycling_type":"container"}},"type":"Feature"},
	{"geometry":{"coordinates":[2.804301,42.692582],"type":"Point"},"properties":{"osm_id":"5160634766","tag":{"amenity":"recycling","recycling:cardboard":"yes","recycling:paper":"yes","recycling:plastic":"yes","recycling:plastic_bottles":"yes","recycling:plastic_packaging":"yes","recycling_type":"container"}},"type":"Feature"},
	{"geometry":{"coordinates":[2.804321,42.692589],"type":"Point"},"properties":{"osm_id":"5160634767","tag":{"amenity":"recycling","recycling:waste":"yes","recycling_type":"container"}},"type":"Feature"},
	{"geometry":{"coordinates":[2.804342,42.692598],"type":"Point"},"properties":{"osm_id":"5160634768","tag":{"amenity":"recycling","recycling:glass_bottles":"yes","recycling_type":"container"}},"type":"Feature"},
	{"geometry":{"coordinates":[2.730694,42.696528],"type":"Point"},"properties":{"osm_id":"5307781889","tag":{"amenity":"recycling","recycling:cardboard":"yes","recycling:glass":"no","recycling:glass_bottles":"yes","recycling:plastic_bottles":"yes","recycling:plastic_packaging":"yes","recycling_type":"container"}},"type":"Feature"},
	{"geometry":{"coordinates":[2.761254,42.691618],"type":"Point"},"properties":{"osm_id":"7726640238","tag":{"amenity":"waste_basket"}},"type":"Feature"},
	{"geometry":{"coordinates":[2.760914,42.688111],"type":"Point"},"properties":{"osm_id":"7726640240","tag":{"amenity":"waste_basket"}},"type":"Feature"},
	{"geometry":{"coordinates":[2.761283,42.689478],"type":"Point"},"properties":{"osm_id":"7726640242","tag":{"amenity":"waste_basket"}},"type":"Feature"},
	{"geometry":{"coordinates":[2.761102,42.692949],"type":"Point"},"properties":{"osm_id":"7726640243","tag":{"amenity":"waste_basket"}},"type":"Feature"},
	{"geometry":{"coordinates":[2.794833,42.683379],"type":"Point"},"properties":{"osm_id":"7756279205","tag":{"amenity":"recycling","recycling_type":"container"}},"type":"Feature"},
	{"geometry":{"coordinates":[2.793332,42.683748],"type":"Point"},"properties":{"osm_id":"7756969440","tag":{"amenity":"recycling","recycling:cardboard":"yes","recycling:magazines":"yes","recycling:newspaper":"yes","recycling:paper":"yes","recycling:paper_packaging":"yes","recycling:plastic_bottles":"yes","recycling:plastic_packaging":"yes","recycling:waste":"yes","recycling_type":"container"}},"type":"Feature"},
	{"geometry":{"coordinates":[2.733861,42.698729],"type":"Point"},"properties":{"osm_id":"9005714839","tag":{"amenity":"recycling","recycling:glass_bottles":"yes","recycling_type":"container"}},"type":"Feature"},
	{"geometry":{"coordinates":[2.734571,42.69535],"type":"Point"},"properties":{"osm_id":"9005714843","tag":{"amenity":"recycling","recycling:glass_bottles":"yes","recycling:paper":"yes","recycling:paper_packaging":"yes","recycling:plastic_packaging":"yes","recycling_type":"container"}},"type":"Feature"},
	{"geometry":{"coordinates":[2.733959,42.694095],"type":"Point"},"properties":{"osm_id":"9131653076","tag":{"amenity":"waste_basket"}},"type":"Feature"}
]
}
