{
"type": "FeatureCollection",
"features": [
	{"geometry":{"coordinates":[2.810819,41.975342],"type":"Point"},"properties":{"osm_id":"825068267","tag":{"amenity":"waste_basket"}},"type":"Feature"},
	{"geometry":{"coordinates":[2.811312,41.9754],"type":"Point"},"properties":{"osm_id":"825068285","tag":{"amenity":"waste_basket"}},"type":"Feature"},
	{"geometry":{"coordinates":[2.810874,41.974984],"type":"Point"},"properties":{"osm_id":"825068326","tag":{"amenity":"waste_basket"}},"type":"Feature"},
	{"geometry":{"coordinates":[2.811858,41.975388],"type":"Point"},"properties":{"osm_id":"825068496","tag":{"amenity":"recycling"}},"type":"Feature"},
	{"geometry":{"coordinates":[2.811229,41.975191],"type":"Point"},"properties":{"osm_id":"825068625","tag":{"amenity":"waste_basket"}},"type":"Feature"},
	{"geometry":{"coordinates":[2.811615,41.975519],"type":"Point"},"properties":{"osm_id":"825068658","tag":{"amenity":"waste_basket"}},"type":"Feature"},
	{"geometry":{"coordinates":[2.812033,41.975517],"type":"Point"},"properties":{"osm_id":"837149720","tag":{"amenity":"waste_basket"}},"type":"Feature"},
	{"geometry":{"coordinates":[2.811102,41.976695],"type":"Point"},"properties":{"osm_id":"837149727","tag":{"amenity":"recycling","location":"overground","recycling_type":"container"}},"type":"Feature"},
	{"geometry":{"coordinates":[2.811502,41.97577],"type":"Point"},"properties":{"osm_id":"837149730","tag":{"amenity":"waste_basket"}},"type":"Feature"},
	{"geometry":{"coordinates":[2.810681,41.975243],"type":"Point"},"properties":{"osm_id":"837149735","tag":{"amenity":"waste_basket"}},"type":"Feature"},
	{"geometry":{"coordinates":[2.798319,41.971104],"type":"Point"},"properties":{"name":"Taca d'Oli","osm_id":"2288583220","tag":{"addr:city":"Salt","addr:housenumber":"91","addr:street":"Carrer Doctor Castany","amenity":"recycling","recycling_type":"centre"}},"type":"Feature"},
	{"geometry":{"coordinates":[2.808416,42.014863],"type":"Point"},"properties":{"osm_id":"2770704556","tag":{"amenity":"recycling","recycling:glass":"no","recycling:paper":"no","recycling_type":"container"}},"type":"Feature"},
	{"geometry":{"coordinates":[2.798835,41.973072],"type":"Point"},"properties":{"osm_id":"2977240273","tag":{"amenity":"recycling","location":"overground","recycling:cans":"yes","recycling:glass_bottles":"yes","recycling:paper":"yes","recycling_type":"container"}},"type":"Feature"},
	{"geometry":{"coordinates":[2.800323,41.974227],"type":"Point"},"properties":{"osm_id":"2977240274","tag":{"amenity":"recycling","location":"overground","recycling:cans":"yes","recycling:glass_bottles":"yes","recycling:paper":"yes","recycling_type":"container"}},"type":"Feature"},
	{"geometry":{"coordinates":[2.811587,41.983307],"type":"Point"},"properties":{"osm_id":"5370502428","tag":{"amenity":"waste_basket"}},"type":"Feature"},
	{"geometry":{"coordinates":[2.738848,41.967896],"type":"Point"},"properties":{"osm_id":"6559567562","tag":{"amenity":"recycling","recycling_type":"container"}},"type":"Feature"},
	{"geometry":{"coordinates":[2.763675,41.969723],"type":"Point"},"properties":{"osm_id":"6560161456","tag":{"amenity":"recycling","recycling_type":"container"}},"type":"Feature"},
	{"geometry":{"coordinates":[2.755288,41.99167],"type":"Point"},"properties":{"osm_id":"6584262625","tag":{"amenity":"waste_disposal"}},"type":"Feature"},
	{"geometry":{"coordinates":[2.755252,41.99161],"type":"Point"},"properties":{"osm_id":"6584262626","tag":{"amenity":"recycling","recycling_type":"container"}},"type":"Feature"},
	{"geometry":{"coordinates":[2.758785,41.990703],"type":"Point"},"properties":{"osm_id":"6584331720","tag":{"amenity":"recycling","recycling_type":"container"}},"type":"Feature"},
	{"geometry":{"coordinates":[2.759089,41.991472],"type":"Point"},"properties":{"osm_id":"6584342976","tag":{"amenity":"waste_disposal"}},"type":"Feature"},
	{"geometry":{"coordinates":[2.759114,41.991513],"type":"Point"},"properties":{"osm_id":"6584342977","tag":{"amenity":"recycling","recycling_type":"container"}},"type":"Feature"},
	{"geometry":{"coordinates":[2.757012,41.993345],"type":"Point"},"properties":{"osm_id":"6584342979","tag":{"amenity":"waste_disposal"}},"type":"Feature"},
	{"geometry":{"coordinates":[2.760723,41.989992],"type":"Point"},"properties":{"osm_id":"6584347630","tag":{"amenity":"waste_disposal"}},"type":"Feature"},
	{"geometry":{"coordinates":[2.760724,41.989964],"type":"Point"},"properties":{"osm_id":"6584347631","tag":{"amenity":"recycling","recycling_type":"container"}},"type":"Feature"},
	{"geometry":{"coordinates":[2.800676,41.974075],"type":"Point"},"properties":{"osm_id":"7049312169","tag":{"amenity":"recycling","recycling_type":"container"}},"type":"Feature"},
	{"geometry":{"coordinates":[2.798738,41.974311],"type":"Point"},"properties":{"osm_id":"7049312170","tag":{"amenity":"recycling","recycling_type":"container"}},"type":"Feature"},
	{"geometry":{"coordinates":[2.798641,41.974879],"type":"Point"},"properties":{"osm_id":"7049312171","tag":{"amenity":"recycling","recycling_type":"container"}},"type":"Feature"},
	{"geometry":{"coordinates":[2.800366,41.970735],"type":"Point"},"properties":{"osm_id":"7049312172","tag":{"amenity":"recycling","recycling_type":"container"}},"type":"Feature"},
	{"geometry":{"coordinates":[2.802503,41.97021],"type":"Point"},"properties":{"osm_id":"7049312173","tag":{"amenity":"recycling","recycling_type":"container"}},"type":"Feature"}
]
}
