{
"type": "FeatureCollection",
"features": [
	{"geometry":{"coordinates":[145.035913,-37.961743],"type":"Point"},"properties":{"name":"Bayside Council Rubbish Transfer Depot","osm_id":"1019733245","tag":{"amenity":"recycling"}},"type":"Feature"},
	{"geometry":{"coordinates":[145.090409,-37.970144],"type":"Point"},"properties":{"osm_id":"3911922481","tag":{"amenity":"waste_basket"}},"type":"Feature"},
	{"geometry":{"coordinates":[145.021254,-37.92698],"type":"Point"},"properties":{"osm_id":"5423732070","tag":{"amenity":"waste_basket"}},"type":"Feature"},
	{"geometry":{"coordinates":[145.070477,-37.92904],"type":"Point"},"properties":{"osm_id":"8004834255","tag":{"amenity":"waste_basket"}},"type":"Feature"},
	{"geometry":{"coordinates":[145.026587,-37.958402],"type":"Point"},"properties":{"osm_id":"8778202761","tag":{"amenity":"waste_basket","indoor":"no","material":"plastic","waste":"trash"}},"type":"Feature"},
	{"geometry":{"coordinates":[145.028306,-37.960423],"type":"Point"},"properties":{"osm_id":"8778202762","tag":{"amenity":"waste_basket","covered":"no","indoor":"no"}},"type":"Feature"},
	{"geometry":{"coordinates":[145.026643,-37.957517],"type":"Point"},"properties":{"osm_id":"8778202763","tag":{"amenity":"waste_basket","indoor":"no","material":"plastic","waste":"mixed"}},"type":"Feature"}
]
}
