{
"type": "FeatureCollection",
"features": [
	{"geometry":{"coordinates":[-89.957302,38.811585],"type":"Point"},"properties":{"osm_id":"6691296264","tag":{"access":"no","amenity":"waste_disposal"}},"type":"Feature"},
	{"geometry":{"coordinates":[-89.955442,38.812486],"type":"Point"},"properties":{"osm_id":"6691313213","tag":{"amenity":"waste_disposal"}},"type":"Feature"},
	{"geometry":{"coordinates":[-89.951047,38.806489],"type":"Point"},"properties":{"osm_id":"6707801780","tag":{"access":"no","amenity":"waste_disposal"}},"type":"Feature"},
	{"geometry":{"coordinates":[-89.957264,38.813923],"type":"Point"},"properties":{"osm_id":"6708177209","tag":{"access":"no","amenity":"waste_disposal"}},"type":"Feature"},
	{"geometry":{"coordinates":[-89.956433,38.812934],"type":"Point"},"properties":{"osm_id":"6708178621","tag":{"access":"no","amenity":"waste_disposal"}},"type":"Feature"},
	{"geometry":{"coordinates":[-89.977511,38.786411],"type":"Point"},"properties":{"osm_id":"6735489598","tag":{"access":"no","amenity":"waste_disposal"}},"type":"Feature"},
	{"geometry":{"coordinates":[-89.950472,38.792518],"type":"Point"},"properties":{"osm_id":"6788987910","tag":{"amenity":"waste_disposal"}},"type":"Feature"},
	{"geometry":{"coordinates":[-89.95041,38.792459],"type":"Point"},"properties":{"osm_id":"6789056397","tag":{"amenity":"waste_disposal"}},"type":"Feature"},
	{"geometry":{"coordinates":[-89.969654,38.764082],"type":"Point"},"properties":{"osm_id":"6858181157","tag":{"access":"no","amenity":"waste_disposal"}},"type":"Feature"},
	{"geometry":{"coordinates":[-89.950292,38.78192],"type":"Point"},"properties":{"osm_id":"6860591273","tag":{"access":"no","amenity":"waste_disposal"}},"type":"Feature"},
	{"geometry":{"coordinates":[-89.949485,38.805755],"type":"Point"},"properties":{"osm_id":"6993172017","tag":{"amenity":"waste_disposal"}},"type":"Feature"},
	{"geometry":{"coordinates":[-89.961834,38.810439],"type":"Point"},"properties":{"osm_id":"7036562952","tag":{"access":"no","amenity":"waste_disposal","description":"Dumpster for First Baptist Church with a vinyl fence around it.  "}},"type":"Feature"},
	{"geometry":{"coordinates":[-89.950243,38.78613],"type":"Point"},"properties":{"osm_id":"7143356568","tag":{"amenity":"waste_disposal","operator":"Waste Management"}},"type":"Feature"},
	{"geometry":{"coordinates":[-89.950292,38.784121],"type":"Point"},"properties":{"osm_id":"7143434805","tag":{"amenity":"waste_disposal"}},"type":"Feature"},
	{"geometry":{"coordinates":[-89.950239,38.784595],"type":"Point"},"properties":{"osm_id":"7143442607","tag":{"amenity":"waste_disposal"}},"type":"Feature"},
	{"geometry":{"coordinates":[-89.951342,38.807656],"type":"Point"},"properties":{"osm_id":"7206174245","tag":{"access":"private","amenity":"waste_disposal"}},"type":"Feature"},
	{"geometry":{"coordinates":[-89.951677,38.808763],"type":"Point"},"properties":{"osm_id":"7206215141","tag":{"amenity":"waste_disposal"}},"type":"Feature"},
	{"geometry":{"coordinates":[-89.951543,38.776305],"type":"Point"},"properties":{"osm_id":"7241076087","tag":{"access":"private","amenity":"waste_disposal","operator":"Republic"}},"type":"Feature"}
]
}
