{
"type": "FeatureCollection",
"lastupdate": "2020-08-04T00:00:00Z",
"features": [
	{"geometry":{"coordinates":[-8.331848,51.849083],"type":"Point"},"properties":{"osm_id":"329190954","tag":{"amenity":"recycling","recycling:cans":"yes","recycling:glass":"yes"}},"type":"Feature"},
	{"geometry":{"coordinates":[-8.295515,51.860174],"type":"Point"},"properties":{"osm_id":"363765649","tag":{"amenity":"recycling"}},"type":"Feature"},
	{"geometry":{"coordinates":[-8.310512,51.854058],"type":"Point"},"properties":{"name":"Keatings","osm_id":"654190041","tag":{"amenity":"recycling"}},"type":"Feature"},
	{"geometry":{"coordinates":[-8.295005,51.850409],"type":"Point"},"properties":{"osm_id":"5812979853","tag":{"amenity":"waste_basket"}},"type":"Feature"},
	{"geometry":{"coordinates":[-8.29489,51.850304],"type":"Point"},"properties":{"osm_id":"5813034156","tag":{"amenity":"waste_basket"}},"type":"Feature"},
	{"geometry":{"coordinates":[-8.295268,51.850434],"type":"Point"},"properties":{"osm_id":"5813071253","tag":{"amenity":"waste_basket"}},"type":"Feature"},
	{"geometry":{"coordinates":[-8.288709,51.855012],"type":"Point"},"properties":{"osm_id":"5813252653","tag":{"amenity":"waste_basket"}},"type":"Feature"}
]
}
