{
"type": "FeatureCollection",
"features": [
	{"geometry":{"coordinates":[-8.314427,41.715583],"type":"Point"},"properties":{"osm_id":"2745955705","tag":{"amenity":"recycling","recycling_type":"container"}},"type":"Feature"},
	{"geometry":{"coordinates":[-8.328627,41.707551],"type":"Point"},"properties":{"osm_id":"2745955734","tag":{"amenity":"recycling"}},"type":"Feature"},
	{"geometry":{"coordinates":[-8.278097,41.73031],"type":"Point"},"properties":{"name":"Ecoponto","osm_id":"3658951731","tag":{"amenity":"recycling"}},"type":"Feature"},
	{"geometry":{"coordinates":[-8.304629,41.729218],"type":"Point"},"properties":{"name":"Ecoponto","osm_id":"4118671193","tag":{"amenity":"recycling","recycling_type":"container"}},"type":"Feature"},
	{"geometry":{"coordinates":[-8.305346,41.717931],"type":"Point"},"properties":{"name":"Ecoponto","osm_id":"4452613515","tag":{"amenity":"recycling","description":"Embalagens, Papel\u00c3\u00a3o, Pilh\u00c3\u00a3o e Vidr\u00c3\u00a3o","operator":"BRAVAL"}},"type":"Feature"},
	{"geometry":{"coordinates":[-8.310858,41.717263],"type":"Point"},"properties":{"name":"Ecoponto","osm_id":"4453173621","tag":{"amenity":"recycling","operator":"Braval"}},"type":"Feature"},
	{"geometry":{"coordinates":[-8.305309,41.717921],"type":"Point"},"properties":{"osm_id":"4453878308","tag":{"amenity":"recycling","operator":"BRAVAL"}},"type":"Feature"},
	{"geometry":{"coordinates":[-8.336826,41.713326],"type":"Point"},"properties":{"name":"Ecoponto","osm_id":"4701290453","tag":{"amenity":"recycling"}},"type":"Feature"},
	{"geometry":{"coordinates":[-8.289452,41.762844],"type":"Point"},"properties":{"osm_id":"7300276677","tag":{"amenity":"waste_disposal"}},"type":"Feature"},
	{"geometry":{"coordinates":[-8.267266,41.755525],"type":"Point"},"properties":{"osm_id":"7313820324","tag":{"amenity":"waste_disposal"}},"type":"Feature"}
]
}
