{
"type": "FeatureCollection",
"features": [
	{"geometry":{"coordinates":[-8.278266,41.46652],"type":"Point"},"properties":{"osm_id":"1936829951","tag":{"amenity":"recycling","recycling:glass_bottles":"yes","recycling:paper":"no","recycling:scrap_metal":"no","recycling_type":"container"}},"type":"Feature"},
	{"geometry":{"coordinates":[-8.277786,41.467465],"type":"Point"},"properties":{"osm_id":"1936864854","tag":{"amenity":"recycling","recycling:batteries":"yes","recycling:glass":"yes","recycling:paper":"yes","recycling:scrap_metal":"yes"}},"type":"Feature"},
	{"geometry":{"coordinates":[-8.266401,41.477431],"type":"Point"},"properties":{"osm_id":"1936916532","tag":{"amenity":"recycling","recycling:batteries":"yes","recycling:glass_bottles":"yes","recycling:paper":"yes","recycling:scrap_metal":"yes","recycling_type":"container"}},"type":"Feature"},
	{"geometry":{"coordinates":[-8.293847,41.470302],"type":"Point"},"properties":{"osm_id":"1953481622","tag":{"amenity":"recycling","recycling_type":"container"}},"type":"Feature"},
	{"geometry":{"coordinates":[-8.307389,41.444222],"type":"Point"},"properties":{"osm_id":"1953481778","tag":{"amenity":"recycling","recycling:cardboard":"yes","recycling:glass_bottles":"yes","recycling:magazines":"yes","recycling:newspaper":"yes","recycling:paper":"yes","recycling:paper_packaging":"yes","recycling:plastic":"yes","recycling:plastic_bottles":"yes","recycling:plastic_packaging":"yes","recycling:scrap_metal":"yes","recycling_type":"container"}},"type":"Feature"},
	{"geometry":{"coordinates":[-8.306686,41.444951],"type":"Point"},"properties":{"osm_id":"1953487636","tag":{"amenity":"recycling","recycling:books":"yes","recycling:cardboard":"yes","recycling:glass_bottles":"yes","recycling:magazines":"yes","recycling:newspaper":"yes","recycling:paper":"yes","recycling:paper_packaging":"yes","recycling:plastic":"yes","recycling:plastic_bottles":"yes","recycling:plastic_packaging":"yes","recycling:scrap_metal":"yes","recycling_type":"container"}},"type":"Feature"},
	{"geometry":{"coordinates":[-8.307054,41.467487],"type":"Point"},"properties":{"osm_id":"2149260872","tag":{"amenity":"recycling","recycling_type":"centre"}},"type":"Feature"},
	{"geometry":{"coordinates":[-8.325435,41.480549],"type":"Point"},"properties":{"osm_id":"2167150010","tag":{"amenity":"recycling","recycling:batteries":"yes","recycling:cans":"yes","recycling:glass_bottles":"yes","recycling:paper":"yes","recycling:plastic":"yes","recycling_type":"container"}},"type":"Feature"},
	{"geometry":{"coordinates":[-8.310249,41.445359],"type":"Point"},"properties":{"osm_id":"2211632245","tag":{"amenity":"recycling","recycling:cans":"yes","recycling:glass_bottles":"yes","recycling:paper":"yes","recycling:plastic":"yes","recycling:scrap_metal":"yes","recycling_type":"container"}},"type":"Feature"},
	{"geometry":{"coordinates":[-8.309003,41.445762],"type":"Point"},"properties":{"osm_id":"2211632246","tag":{"amenity":"waste_disposal"}},"type":"Feature"},
	{"geometry":{"coordinates":[-8.30969,41.445516],"type":"Point"},"properties":{"osm_id":"2214497068","tag":{"amenity":"waste_disposal"}},"type":"Feature"},
	{"geometry":{"coordinates":[-8.30924,41.444485],"type":"Point"},"properties":{"highway":"street_lamp","osm_id":"2214624471","tag":{"amenity":"waste_basket"}},"type":"Feature"},
	{"geometry":{"coordinates":[-8.30966,41.444879],"type":"Point"},"properties":{"highway":"street_lamp","osm_id":"2214624477","tag":{"amenity":"waste_basket"}},"type":"Feature"},
	{"geometry":{"coordinates":[-8.310049,41.445237],"type":"Point"},"properties":{"osm_id":"2214624506","tag":{"amenity":"waste_basket","public_transport":"platform"}},"type":"Feature"},
	{"geometry":{"coordinates":[-8.310352,41.445293],"type":"Point"},"properties":{"osm_id":"2214624509","tag":{"amenity":"waste_basket"}},"type":"Feature"},
	{"geometry":{"coordinates":[-8.309801,41.445423],"type":"Point"},"properties":{"highway":"street_lamp","osm_id":"2214624517","tag":{"amenity":"waste_basket"}},"type":"Feature"},
	{"geometry":{"coordinates":[-8.309054,41.445528],"type":"Point"},"properties":{"osm_id":"2214624531","tag":{"amenity":"waste_basket"}},"type":"Feature"},
	{"geometry":{"coordinates":[-8.308978,41.445672],"type":"Point"},"properties":{"highway":"street_lamp","osm_id":"2214624572","tag":{"amenity":"waste_basket"}},"type":"Feature"},
	{"geometry":{"coordinates":[-8.333838,41.498116],"type":"Point"},"properties":{"name":"Ecoponto","osm_id":"2616449985","tag":{"amenity":"recycling","service":"recycling"}},"type":"Feature"},
	{"geometry":{"coordinates":[-8.278727,41.468116],"type":"Point"},"properties":{"osm_id":"2678663410","tag":{"amenity":"recycling"}},"type":"Feature"},
	{"geometry":{"coordinates":[-8.337806,41.477409],"type":"Point"},"properties":{"osm_id":"2967425222","tag":{"amenity":"recycling"}},"type":"Feature"},
	{"geometry":{"coordinates":[-8.336155,41.495432],"type":"Point"},"properties":{"name":"Ecoponto","osm_id":"3207650892","tag":{"amenity":"recycling","service":"recycling"}},"type":"Feature"},
	{"geometry":{"coordinates":[-8.328403,41.501198],"type":"Point"},"properties":{"name":"Ecoponto","osm_id":"3207813935","tag":{"amenity":"recycling"}},"type":"Feature"},
	{"geometry":{"coordinates":[-8.294592,41.450837],"type":"Point"},"properties":{"osm_id":"3304376383","tag":{"amenity":"recycling","recycling:cans":"yes","recycling:paper":"yes"}},"type":"Feature"},
	{"geometry":{"coordinates":[-8.295382,41.451301],"type":"Point"},"properties":{"osm_id":"3304393484","tag":{"amenity":"waste_disposal","waste":"trash"}},"type":"Feature"},
	{"geometry":{"coordinates":[-8.329249,41.469899],"type":"Point"},"properties":{"name":"Ecoponto","osm_id":"3533331261","tag":{"amenity":"recycling"}},"type":"Feature"},
	{"geometry":{"coordinates":[-8.268988,41.453903],"type":"Point"},"properties":{"name":"Ecoponto","osm_id":"3535117842","tag":{"amenity":"recycling"}},"type":"Feature"},
	{"geometry":{"coordinates":[-8.294804,41.449606],"type":"Point"},"properties":{"name":"Ecoponto","osm_id":"3612722041","tag":{"amenity":"recycling"}},"type":"Feature"},
	{"geometry":{"coordinates":[-8.295154,41.446475],"type":"Point"},"properties":{"name":"Ecoponto","osm_id":"3612805904","tag":{"amenity":"recycling"}},"type":"Feature"},
	{"geometry":{"coordinates":[-8.31288,41.460208],"type":"Point"},"properties":{"name":"Ecoponto","osm_id":"4063357938","tag":{"amenity":"recycling"}},"type":"Feature"},
	{"geometry":{"coordinates":[-8.307549,41.445125],"type":"Point"},"properties":{"name":"Ecoponto","osm_id":"4063477464","tag":{"amenity":"recycling","recycling_type":"container"}},"type":"Feature"},
	{"geometry":{"coordinates":[-8.297748,41.448413],"type":"Point"},"properties":{"name":"Ecoponto","osm_id":"4136054695","tag":{"amenity":"recycling"}},"type":"Feature"}
]
}
