{
"type": "FeatureCollection",
"features": [
	{"geometry":{"coordinates":[-8.334409,41.199125],"type":"Point"},"properties":{"osm_id":"1401032351","tag":{"entrance":"yes"}},"type":"Feature"},
	{"geometry":{"coordinates":[-8.32522,41.202781],"type":"Point"},"properties":{"osm_id":"3598990577","tag":{"amenity":"waste_disposal"}},"type":"Feature"},
	{"geometry":{"coordinates":[-8.325751,41.201372],"type":"Point"},"properties":{"osm_id":"3932440966","tag":{"amenity":"waste_disposal"}},"type":"Feature"},
	{"geometry":{"coordinates":[-8.326198,41.199949],"type":"Point"},"properties":{"osm_id":"3932444977","tag":{"amenity":"waste_basket"}},"type":"Feature"},
	{"geometry":{"coordinates":[-8.327262,41.198394],"type":"Point"},"properties":{"osm_id":"3978057230","tag":{"amenity":"waste_disposal"}},"type":"Feature"},
	{"geometry":{"coordinates":[-8.326354,41.201113],"type":"Point"},"properties":{"osm_id":"3978057231","tag":{"amenity":"recycling"}},"type":"Feature"},
	{"geometry":{"coordinates":[-8.324916,41.201368],"type":"Point"},"properties":{"osm_id":"4364498674","tag":{"amenity":"waste_disposal"}},"type":"Feature"},
	{"geometry":{"coordinates":[-8.342034,41.202486],"type":"Point"},"properties":{"osm_id":"4409760097","tag":{"amenity":"waste_disposal"}},"type":"Feature"},
	{"geometry":{"coordinates":[-8.329049,41.208646],"type":"Point"},"properties":{"osm_id":"4421865959","tag":{"amenity":"waste_disposal"}},"type":"Feature"},
	{"geometry":{"coordinates":[-8.337774,41.193521],"type":"Point"},"properties":{"osm_id":"5200255197","tag":{"amenity":"waste_disposal"}},"type":"Feature"},
	{"geometry":{"coordinates":[-8.333833,41.204485],"type":"Point"},"properties":{"osm_id":"5709697506","tag":{"amenity":"waste_disposal","waste":"trash"}},"type":"Feature"},
	{"geometry":{"coordinates":[-8.333843,41.204491],"type":"Point"},"properties":{"osm_id":"5709697507","tag":{"amenity":"waste_disposal","waste":"trash"}},"type":"Feature"},
	{"geometry":{"coordinates":[-8.335334,41.208326],"type":"Point"},"properties":{"osm_id":"6309157242","tag":{"amenity":"waste_basket"}},"type":"Feature"}
]
}
