{
"type": "FeatureCollection",
"features": [
	{"geometry":{"coordinates":[-118.292019,34.10009],"type":"Point"},"properties":{"osm_id":"902322547","tag":{"amenity":"recycling"}},"type":"Feature"},
	{"geometry":{"coordinates":[-118.252528,34.144559],"type":"Point"},"properties":{"osm_id":"1364652855","tag":{"amenity":"waste_basket"}},"type":"Feature"},
	{"geometry":{"coordinates":[-118.272391,34.138751],"type":"Point"},"properties":{"name":"LA City Hazardous Waste Collection","osm_id":"1791111331","tag":{"amenity":"recycling"}},"type":"Feature"},
	{"geometry":{"coordinates":[-118.25528,34.1584],"type":"Point"},"properties":{"osm_id":"6601804001","tag":{"amenity":"waste_basket"}},"type":"Feature"},
	{"geometry":{"coordinates":[-118.263824,34.133033],"type":"Point"},"properties":{"name":"The City of Glendale Recycling Center","osm_id":"6625254250","tag":{"amenity":"recycling","recycling_type":"centre"}},"type":"Feature"},
	{"geometry":{"coordinates":[-118.291936,34.089386],"type":"Point"},"properties":{"osm_id":"8309994553","tag":{"amenity":"waste_basket"}},"type":"Feature"},
	{"geometry":{"coordinates":[-118.291889,34.090186],"type":"Point"},"properties":{"osm_id":"8309994812","tag":{"amenity":"waste_basket"}},"type":"Feature"},
	{"geometry":{"coordinates":[-118.291892,34.090269],"type":"Point"},"properties":{"osm_id":"8309994814","tag":{"amenity":"waste_basket"}},"type":"Feature"},
	{"geometry":{"coordinates":[-118.291941,34.090293],"type":"Point"},"properties":{"osm_id":"8309994817","tag":{"amenity":"waste_basket"}},"type":"Feature"},
	{"geometry":{"coordinates":[-118.291897,34.090558],"type":"Point"},"properties":{"osm_id":"8309994821","tag":{"amenity":"waste_basket"}},"type":"Feature"},
	{"geometry":{"coordinates":[-118.29207,34.090755],"type":"Point"},"properties":{"osm_id":"8309994833","tag":{"amenity":"waste_basket"}},"type":"Feature"},
	{"geometry":{"coordinates":[-118.292191,34.090743],"type":"Point"},"properties":{"osm_id":"8309994842","tag":{"amenity":"waste_basket"}},"type":"Feature"},
	{"geometry":{"coordinates":[-118.292061,34.090558],"type":"Point"},"properties":{"osm_id":"8309994844","tag":{"amenity":"waste_basket"}},"type":"Feature"},
	{"geometry":{"coordinates":[-118.291919,34.089085],"type":"Point"},"properties":{"osm_id":"8312835404","tag":{"amenity":"waste_basket"}},"type":"Feature"},
	{"geometry":{"coordinates":[-118.291971,34.089087],"type":"Point"},"properties":{"osm_id":"8312835405","tag":{"amenity":"waste_basket"}},"type":"Feature"}
]
}
