{
"type": "FeatureCollection",
"features": [
	{"geometry":{"coordinates":[-118.248678,34.046397],"type":"Point"},"properties":{"osm_id":"4227033278","tag":{"amenity":"waste_basket"}},"type":"Feature"},
	{"geometry":{"coordinates":[-118.248818,34.04624],"type":"Point"},"properties":{"osm_id":"4227033279","tag":{"amenity":"waste_basket"}},"type":"Feature"},
	{"geometry":{"coordinates":[-118.245457,34.051763],"type":"Point"},"properties":{"osm_id":"4269128754","tag":{"amenity":"waste_basket"}},"type":"Feature"},
	{"geometry":{"coordinates":[-118.235604,34.056081],"type":"Point"},"properties":{"osm_id":"4409181653","tag":{"amenity":"waste_basket","level":"0"}},"type":"Feature"},
	{"geometry":{"coordinates":[-118.235603,34.056085],"type":"Point"},"properties":{"osm_id":"4409181654","tag":{"amenity":"waste_basket","level":"0"}},"type":"Feature"},
	{"geometry":{"coordinates":[-118.256852,34.047359],"type":"Point"},"properties":{"osm_id":"5002215221","tag":{"amenity":"waste_basket"}},"type":"Feature"},
	{"geometry":{"coordinates":[-118.253626,34.045257],"type":"Point"},"properties":{"osm_id":"5002216524","tag":{"amenity":"waste_basket"}},"type":"Feature"},
	{"geometry":{"coordinates":[-118.250658,34.043299],"type":"Point"},"properties":{"osm_id":"5002216529","tag":{"amenity":"waste_basket"}},"type":"Feature"},
	{"geometry":{"coordinates":[-118.251612,34.043928],"type":"Point"},"properties":{"osm_id":"5002229022","tag":{"amenity":"waste_basket"}},"type":"Feature"},
	{"geometry":{"coordinates":[-118.258433,34.037035],"type":"Point"},"properties":{"osm_id":"5002237725","tag":{"amenity":"waste_basket"}},"type":"Feature"},
	{"geometry":{"coordinates":[-118.258166,34.037033],"type":"Point"},"properties":{"osm_id":"5002237726","tag":{"amenity":"waste_basket"}},"type":"Feature"},
	{"geometry":{"coordinates":[-118.258346,34.03512],"type":"Point"},"properties":{"osm_id":"5002237727","tag":{"amenity":"waste_basket"}},"type":"Feature"},
	{"geometry":{"coordinates":[-118.259264,34.035719],"type":"Point"},"properties":{"osm_id":"5002246022","tag":{"amenity":"waste_basket"}},"type":"Feature"},
	{"geometry":{"coordinates":[-118.252361,34.041774],"type":"Point"},"properties":{"osm_id":"5002246023","tag":{"amenity":"waste_basket"}},"type":"Feature"},
	{"geometry":{"coordinates":[-118.254013,34.032712],"type":"Point"},"properties":{"osm_id":"5002249321","tag":{"amenity":"waste_basket"}},"type":"Feature"},
	{"geometry":{"coordinates":[-118.258602,34.025944],"type":"Point"},"properties":{"osm_id":"5002249422","tag":{"amenity":"waste_basket"}},"type":"Feature"},
	{"geometry":{"coordinates":[-118.255978,34.029731],"type":"Point"},"properties":{"osm_id":"5002264621","tag":{"amenity":"waste_basket"}},"type":"Feature"},
	{"geometry":{"coordinates":[-118.256085,34.033971],"type":"Point"},"properties":{"osm_id":"5002264623","tag":{"amenity":"waste_basket"}},"type":"Feature"},
	{"geometry":{"coordinates":[-118.256992,34.038449],"type":"Point"},"properties":{"osm_id":"5002264624","tag":{"amenity":"waste_basket"}},"type":"Feature"},
	{"geometry":{"coordinates":[-118.251162,34.043963],"type":"Point"},"properties":{"osm_id":"5002264626","tag":{"amenity":"waste_basket"}},"type":"Feature"},
	{"geometry":{"coordinates":[-118.251837,34.044341],"type":"Point"},"properties":{"osm_id":"5002264627","tag":{"amenity":"waste_basket"}},"type":"Feature"},
	{"geometry":{"coordinates":[-118.257095,34.034523],"type":"Point"},"properties":{"osm_id":"5002265022","tag":{"amenity":"waste_basket"}},"type":"Feature"},
	{"geometry":{"coordinates":[-118.254122,34.040601],"type":"Point"},"properties":{"osm_id":"5002265023","tag":{"amenity":"waste_basket"}},"type":"Feature"},
	{"geometry":{"coordinates":[-118.258335,34.036794],"type":"Point"},"properties":{"osm_id":"5002265221","tag":{"amenity":"waste_basket"}},"type":"Feature"},
	{"geometry":{"coordinates":[-118.253154,34.045195],"type":"Point"},"properties":{"osm_id":"5002266127","tag":{"amenity":"waste_basket"}},"type":"Feature"},
	{"geometry":{"coordinates":[-118.256417,34.047298],"type":"Point"},"properties":{"osm_id":"5002268224","tag":{"amenity":"waste_basket"}},"type":"Feature"},
	{"geometry":{"coordinates":[-118.254199,34.045874],"type":"Point"},"properties":{"osm_id":"5002268422","tag":{"amenity":"waste_basket"}},"type":"Feature"},
	{"geometry":{"coordinates":[-118.280891,34.025878],"type":"Point"},"properties":{"osm_id":"6047237637","tag":{"amenity":"waste_disposal"}},"type":"Feature"},
	{"geometry":{"coordinates":[-118.282478,34.025231],"type":"Point"},"properties":{"osm_id":"6047237638","tag":{"amenity":"waste_disposal"}},"type":"Feature"}
]
}
