{
"type": "FeatureCollection",
"features": [
	{"geometry":{"coordinates":[-105.261457,40.041405],"type":"Point"},"properties":{"highway":"turning_circle","osm_id":"176525370"},"type":"Feature"},
	{"geometry":{"coordinates":[-105.236152,40.023972],"type":"Point"},"properties":{"osm_id":"985540353","tag":{"amenity":"recycling","website":"http://www.ecocycle.org/charm/"}},"type":"Feature"},
	{"geometry":{"coordinates":[-105.249922,39.988307],"type":"Point"},"properties":{"osm_id":"1068730187","tag":{"amenity":"recycling","recycling:cans":"yes","recycling:glass":"yes"}},"type":"Feature"},
	{"geometry":{"coordinates":[-105.280285,39.998811],"type":"Point"},"properties":{"osm_id":"1211146601","tag":{"amenity":"recycling","recycling_type":"container"}},"type":"Feature"},
	{"geometry":{"coordinates":[-105.279627,39.998574],"type":"Point"},"properties":{"osm_id":"1211146665","tag":{"amenity":"recycling","recycling_type":"container"}},"type":"Feature"},
	{"geometry":{"coordinates":[-105.285411,39.991581],"type":"Point"},"properties":{"osm_id":"1211528540","tag":{"amenity":"waste_basket"}},"type":"Feature"},
	{"geometry":{"coordinates":[-105.282579,39.995812],"type":"Point"},"properties":{"osm_id":"1211528542","tag":{"amenity":"waste_basket"}},"type":"Feature"},
	{"geometry":{"coordinates":[-105.282923,39.999617],"type":"Point"},"properties":{"osm_id":"1211528558","tag":{"amenity":"waste_basket"}},"type":"Feature"},
	{"geometry":{"coordinates":[-105.282945,39.998756],"type":"Point"},"properties":{"osm_id":"1211528565","tag":{"amenity":"waste_basket"}},"type":"Feature"},
	{"geometry":{"coordinates":[-105.261013,40.034673],"type":"Point"},"properties":{"osm_id":"1266321659","tag":{"amenity":"waste_basket"}},"type":"Feature"},
	{"geometry":{"coordinates":[-105.276259,40.033908],"type":"Point"},"properties":{"osm_id":"1269468593","tag":{"amenity":"waste_basket"}},"type":"Feature"},
	{"geometry":{"coordinates":[-105.261058,40.015124],"type":"Point"},"properties":{"name":"Aspen Eyewear","osm_id":"1270009480","tag":{"amenity":"waste_basket","shop":"optician"}},"type":"Feature"},
	{"geometry":{"coordinates":[-105.264187,40.014001],"type":"Point"},"properties":{"osm_id":"1305395221","tag":{"amenity":"recycling","recycling_type":"container"}},"type":"Feature"},
	{"geometry":{"coordinates":[-105.265345,40.014362],"type":"Point"},"properties":{"osm_id":"1305395280","tag":{"amenity":"recycling","recycling_type":"container"}},"type":"Feature"},
	{"geometry":{"coordinates":[-105.24155,40.016831],"type":"Point"},"properties":{"osm_id":"1344026648","tag":{"amenity":"waste_basket"}},"type":"Feature"},
	{"geometry":{"coordinates":[-105.292505,40.005955],"type":"Point"},"properties":{"osm_id":"1366790801","tag":{"amenity":"recycling","recycling_type":"container"}},"type":"Feature"},
	{"geometry":{"coordinates":[-105.237092,39.984595],"type":"Point"},"properties":{"osm_id":"1433474459","tag":{"amenity":"recycling"}},"type":"Feature"},
	{"geometry":{"coordinates":[-105.237092,39.984613],"type":"Point"},"properties":{"osm_id":"1433474461","tag":{"amenity":"waste_disposal"}},"type":"Feature"},
	{"geometry":{"coordinates":[-105.235956,39.984556],"type":"Point"},"properties":{"osm_id":"1437420725","tag":{"amenity":"recycling","recycling:glass":"no","recycling_type":"container"}},"type":"Feature"},
	{"geometry":{"coordinates":[-105.287149,39.991152],"type":"Point"},"properties":{"osm_id":"2312040923","tag":{"amenity":"waste_basket"}},"type":"Feature"},
	{"geometry":{"coordinates":[-105.262308,40.007148],"type":"Point"},"properties":{"osm_id":"2490092101","tag":{"amenity":"waste_basket","recycling:cans":"yes","recycling:glass":"yes","recycling:paper":"yes"}},"type":"Feature"},
	{"geometry":{"coordinates":[-105.264905,40.007351],"type":"Point"},"properties":{"osm_id":"2501146378","tag":{"amenity":"waste_basket"}},"type":"Feature"},
	{"geometry":{"coordinates":[-105.265269,40.00725],"type":"Point"},"properties":{"osm_id":"2501146382","tag":{"amenity":"waste_basket"}},"type":"Feature"},
	{"geometry":{"coordinates":[-105.265686,40.0066],"type":"Point"},"properties":{"osm_id":"2501146397","tag":{"amenity":"waste_basket"}},"type":"Feature"},
	{"geometry":{"coordinates":[-105.251698,40.009925],"type":"Point"},"properties":{"osm_id":"2631461764","tag":{"amenity":"recycling"}},"type":"Feature"},
	{"geometry":{"coordinates":[-105.25911,40.003781],"type":"Point"},"properties":{"osm_id":"2702906726","tag":{"amenity":"waste_basket"}},"type":"Feature"},
	{"geometry":{"coordinates":[-105.261052,40.005216],"type":"Point"},"properties":{"osm_id":"2702906737","tag":{"amenity":"waste_basket"}},"type":"Feature"},
	{"geometry":{"coordinates":[-105.261176,40.00507],"type":"Point"},"properties":{"osm_id":"2702906740","tag":{"amenity":"waste_basket"}},"type":"Feature"},
	{"geometry":{"coordinates":[-105.267072,40.013152],"type":"Point"},"properties":{"osm_id":"2703176692","tag":{"amenity":"waste_basket"}},"type":"Feature"},
	{"geometry":{"coordinates":[-105.261993,40.00739],"type":"Point"},"properties":{"osm_id":"2703448385","tag":{"amenity":"waste_basket"}},"type":"Feature"},
	{"geometry":{"coordinates":[-105.262011,40.00739],"type":"Point"},"properties":{"osm_id":"2703448386","tag":{"amenity":"recycling","recycling:cans":"yes","recycling:glass":"yes"}},"type":"Feature"},
	{"geometry":{"coordinates":[-105.262283,40.007148],"type":"Point"},"properties":{"osm_id":"2703448399","tag":{"amenity":"waste_basket"}},"type":"Feature"},
	{"geometry":{"coordinates":[-105.262258,40.007147],"type":"Point"},"properties":{"osm_id":"2703448400","tag":{"amenity":"recycling","recycling:cans":"yes","recycling:glass":"yes"}},"type":"Feature"},
	{"geometry":{"coordinates":[-105.256472,40.021329],"type":"Point"},"properties":{"osm_id":"2703678241","tag":{"amenity":"waste_basket"}},"type":"Feature"},
	{"geometry":{"coordinates":[-105.256009,40.019311],"type":"Point"},"properties":{"osm_id":"2703678244","tag":{"amenity":"waste_basket"}},"type":"Feature"},
	{"geometry":{"coordinates":[-105.256209,40.01827],"type":"Point"},"properties":{"osm_id":"2703688026","tag":{"amenity":"waste_basket"}},"type":"Feature"},
	{"geometry":{"coordinates":[-105.255772,40.017999],"type":"Point"},"properties":{"osm_id":"2703689290","tag":{"amenity":"waste_basket"}},"type":"Feature"},
	{"geometry":{"coordinates":[-105.255999,40.01757],"type":"Point"},"properties":{"osm_id":"2703689293","tag":{"amenity":"waste_basket"}},"type":"Feature"},
	{"geometry":{"coordinates":[-105.256236,40.016953],"type":"Point"},"properties":{"osm_id":"2703689295","tag":{"amenity":"waste_basket"}},"type":"Feature"},
	{"geometry":{"coordinates":[-105.235333,40.013317],"type":"Point"},"properties":{"osm_id":"2703752706","tag":{"amenity":"recycling"}},"type":"Feature"},
	{"geometry":{"coordinates":[-105.235334,40.01331],"type":"Point"},"properties":{"osm_id":"2703752708","tag":{"amenity":"waste_basket"}},"type":"Feature"},
	{"geometry":{"coordinates":[-105.247125,40.006644],"type":"Point"},"properties":{"osm_id":"2901835709","tag":{"amenity":"waste_disposal","survey:date":"2014-06-05"}},"type":"Feature"},
	{"geometry":{"coordinates":[-105.24715,40.006841],"type":"Point"},"properties":{"osm_id":"2901835722","tag":{"amenity":"recycling","survey:date":"2014-06-05"}},"type":"Feature"},
	{"geometry":{"coordinates":[-105.247407,40.007049],"type":"Point"},"properties":{"osm_id":"2901835727","tag":{"amenity":"waste_disposal","survey:date":"2014-06-05"}},"type":"Feature"},
	{"geometry":{"coordinates":[-105.255631,39.981643],"type":"Point"},"properties":{"osm_id":"3476676593","tag":{"amenity":"recycling","recycling_type":"container","wheelchair":"yes"}},"type":"Feature"},
	{"geometry":{"coordinates":[-105.268793,40.012708],"type":"Point"},"properties":{"osm_id":"3906715424","tag":{"amenity":"recycling","recycling_type":"container"}},"type":"Feature"},
	{"geometry":{"coordinates":[-105.268803,40.012687],"type":"Point"},"properties":{"osm_id":"3906715425","tag":{"amenity":"waste_disposal"}},"type":"Feature"},
	{"geometry":{"coordinates":[-105.252707,40.008615],"type":"Point"},"properties":{"osm_id":"3936488908","tag":{"amenity":"recycling"}},"type":"Feature"},
	{"geometry":{"coordinates":[-105.252707,40.008642],"type":"Point"},"properties":{"osm_id":"3936488909","tag":{"amenity":"waste_basket"}},"type":"Feature"},
	{"geometry":{"coordinates":[-105.27508,40.015657],"type":"Point"},"properties":{"osm_id":"4232933850","tag":{"amenity":"waste_basket"}},"type":"Feature"},
	{"geometry":{"coordinates":[-105.27496,40.01527],"type":"Point"},"properties":{"osm_id":"4232933851","tag":{"amenity":"waste_basket"}},"type":"Feature"},
	{"geometry":{"coordinates":[-105.269946,40.012685],"type":"Point"},"properties":{"osm_id":"4407254801","tag":{"amenity":"waste_disposal"}},"type":"Feature"},
	{"geometry":{"coordinates":[-105.269944,40.012655],"type":"Point"},"properties":{"osm_id":"4407254802","tag":{"amenity":"recycling"}},"type":"Feature"},
	{"geometry":{"coordinates":[-105.252043,40.007885],"type":"Point"},"properties":{"osm_id":"4407580939","tag":{"amenity":"waste_disposal"}},"type":"Feature"},
	{"geometry":{"coordinates":[-105.252042,40.007864],"type":"Point"},"properties":{"osm_id":"4407580940","tag":{"amenity":"recycling"}},"type":"Feature"},
	{"geometry":{"coordinates":[-105.251806,40.009865],"type":"Point"},"properties":{"osm_id":"4407580941","tag":{"amenity":"waste_disposal"}},"type":"Feature"},
	{"geometry":{"coordinates":[-105.265367,40.014367],"type":"Point"},"properties":{"osm_id":"4407585885","tag":{"amenity":"waste_disposal"}},"type":"Feature"},
	{"geometry":{"coordinates":[-105.252802,40.009615],"type":"Point"},"properties":{"osm_id":"4424519500","tag":{"amenity":"waste_disposal"}},"type":"Feature"},
	{"geometry":{"coordinates":[-105.252805,40.009652],"type":"Point"},"properties":{"osm_id":"4424543061","tag":{"amenity":"recycling"}},"type":"Feature"},
	{"geometry":{"coordinates":[-105.278627,40.018109],"type":"Point"},"properties":{"osm_id":"4624256862","tag":{"amenity":"waste_basket"}},"type":"Feature"},
	{"geometry":{"coordinates":[-105.278724,40.01809],"type":"Point"},"properties":{"osm_id":"4624256863","tag":{"amenity":"waste_basket"}},"type":"Feature"},
	{"geometry":{"coordinates":[-105.278768,40.018224],"type":"Point"},"properties":{"osm_id":"4624256864","tag":{"amenity":"waste_basket"}},"type":"Feature"},
	{"geometry":{"coordinates":[-105.278671,40.018239],"type":"Point"},"properties":{"osm_id":"4624256865","tag":{"amenity":"waste_basket"}},"type":"Feature"},
	{"geometry":{"coordinates":[-105.277696,40.018303],"type":"Point"},"properties":{"osm_id":"4624256883","tag":{"amenity":"waste_basket"}},"type":"Feature"},
	{"geometry":{"coordinates":[-105.281204,40.025455],"type":"Point"},"properties":{"osm_id":"4675710421","tag":{"amenity":"waste_basket"}},"type":"Feature"},
	{"geometry":{"coordinates":[-105.268351,40.013595],"type":"Point"},"properties":{"osm_id":"4682790592","tag":{"amenity":"waste_disposal"}},"type":"Feature"},
	{"geometry":{"coordinates":[-105.250394,39.983509],"type":"Point"},"properties":{"osm_id":"5046827521","tag":{"amenity":"waste_disposal"}},"type":"Feature"},
	{"geometry":{"coordinates":[-105.282945,39.998778],"type":"Point"},"properties":{"osm_id":"5084925787","tag":{"amenity":"recycling"}},"type":"Feature"},
	{"geometry":{"coordinates":[-105.282572,39.995745],"type":"Point"},"properties":{"osm_id":"5084925792","tag":{"amenity":"recycling"}},"type":"Feature"},
	{"geometry":{"coordinates":[-105.282375,39.9955],"type":"Point"},"properties":{"osm_id":"5084948519","tag":{"amenity":"waste_basket"}},"type":"Feature"},
	{"geometry":{"coordinates":[-105.282379,39.995435],"type":"Point"},"properties":{"osm_id":"5084948524","tag":{"amenity":"recycling"}},"type":"Feature"},
	{"geometry":{"coordinates":[-105.279579,39.998555],"type":"Point"},"properties":{"osm_id":"5085140721","tag":{"amenity":"waste_basket"}},"type":"Feature"},
	{"geometry":{"coordinates":[-105.281065,39.998682],"type":"Point"},"properties":{"osm_id":"5085179697","tag":{"amenity":"waste_basket"}},"type":"Feature"},
	{"geometry":{"coordinates":[-105.281131,39.998665],"type":"Point"},"properties":{"osm_id":"5085179716","tag":{"amenity":"recycling"}},"type":"Feature"},
	{"geometry":{"coordinates":[-105.281901,39.997946],"type":"Point"},"properties":{"osm_id":"5087540673","tag":{"amenity":"waste_basket"}},"type":"Feature"},
	{"geometry":{"coordinates":[-105.281904,39.997984],"type":"Point"},"properties":{"osm_id":"5087540675","tag":{"amenity":"recycling","recycling:cans":"yes","recycling:cardboard":"yes","recycling:cartons":"yes","recycling:clothes":"no","recycling:electrical_appliances":"no","recycling:glass":"yes","recycling:glass_bottles":"yes","recycling:green_waste":"yes","recycling:magazines":"yes","recycling:newspaper":"yes","recycling:paper":"yes","recycling:paper_packaging":"yes","recycling:plastic_bottles":"yes","recycling:small_appliances":"no","recycling:waste":"no","recycling:wood":"no","recycling_type":"container"}},"type":"Feature"},
	{"geometry":{"coordinates":[-105.281033,39.998257],"type":"Point"},"properties":{"osm_id":"5087556726","tag":{"amenity":"recycling","recycling:cans":"yes","recycling:cardboard":"yes","recycling:cartons":"yes","recycling:clothes":"no","recycling:electrical_appliances":"no","recycling:glass":"yes","recycling:glass_bottles":"yes","recycling:green_waste":"yes","recycling:magazines":"yes","recycling:newspaper":"yes","recycling:paper":"yes","recycling:paper_packaging":"yes","recycling:plastic_bottles":"yes","recycling:small_appliances":"no","recycling:waste":"no","recycling:wood":"no","recycling_type":"container"}},"type":"Feature"},
	{"geometry":{"coordinates":[-105.281883,39.997047],"type":"Point"},"properties":{"osm_id":"5087556729","tag":{"amenity":"waste_basket"}},"type":"Feature"},
	{"geometry":{"coordinates":[-105.2804,39.997983],"type":"Point"},"properties":{"osm_id":"5087556731","tag":{"amenity":"recycling","recycling:cans":"yes","recycling:cardboard":"yes","recycling:cartons":"yes","recycling:clothes":"no","recycling:electrical_appliances":"no","recycling:glass":"yes","recycling:glass_bottles":"yes","recycling:green_waste":"yes","recycling:magazines":"yes","recycling:newspaper":"yes","recycling:paper":"yes","recycling:paper_packaging":"yes","recycling:plastic_bottles":"yes","recycling:small_appliances":"no","recycling:waste":"no","recycling:wood":"no","recycling_type":"container"}},"type":"Feature"},
	{"geometry":{"coordinates":[-105.280445,39.997962],"type":"Point"},"properties":{"osm_id":"5087556735","tag":{"amenity":"waste_basket"}},"type":"Feature"},
	{"geometry":{"coordinates":[-105.28211,39.996567],"type":"Point"},"properties":{"osm_id":"5087556736","tag":{"amenity":"waste_basket"}},"type":"Feature"},
	{"geometry":{"coordinates":[-105.280982,39.998258],"type":"Point"},"properties":{"osm_id":"5087556737","tag":{"amenity":"waste_basket"}},"type":"Feature"},
	{"geometry":{"coordinates":[-105.282049,39.996565],"type":"Point"},"properties":{"osm_id":"5087556738","tag":{"amenity":"recycling","recycling:cans":"yes","recycling:cardboard":"yes","recycling:cartons":"yes","recycling:clothes":"no","recycling:electrical_appliances":"no","recycling:glass":"yes","recycling:glass_bottles":"yes","recycling:green_waste":"yes","recycling:magazines":"yes","recycling:newspaper":"yes","recycling:paper":"yes","recycling:paper_packaging":"yes","recycling:plastic_bottles":"yes","recycling:small_appliances":"no","recycling:waste":"no","recycling:wood":"no","recycling_type":"container"}},"type":"Feature"},
	{"geometry":{"coordinates":[-105.281617,39.997039],"type":"Point"},"properties":{"osm_id":"5087556742","tag":{"amenity":"recycling","recycling:cans":"yes","recycling:cardboard":"yes","recycling:cartons":"yes","recycling:clothes":"no","recycling:electrical_appliances":"no","recycling:glass":"yes","recycling:glass_bottles":"yes","recycling:green_waste":"yes","recycling:magazines":"yes","recycling:newspaper":"yes","recycling:paper":"yes","recycling:paper_packaging":"yes","recycling:plastic_bottles":"yes","recycling:small_appliances":"no","recycling:waste":"no","recycling:wood":"no","recycling_type":"container"}},"type":"Feature"},
	{"geometry":{"coordinates":[-105.282219,39.999053],"type":"Point"},"properties":{"osm_id":"5087612132","tag":{"amenity":"waste_basket"}},"type":"Feature"},
	{"geometry":{"coordinates":[-105.28218,39.999013],"type":"Point"},"properties":{"osm_id":"5087612172","tag":{"amenity":"recycling","recycling_type":"container"}},"type":"Feature"},
	{"geometry":{"coordinates":[-105.280226,39.998841],"type":"Point"},"properties":{"osm_id":"5087643853","tag":{"amenity":"waste_basket"}},"type":"Feature"},
	{"geometry":{"coordinates":[-105.214756,40.022941],"type":"Point"},"properties":{"osm_id":"5952616294","tag":{"amenity":"waste_basket"}},"type":"Feature"},
	{"geometry":{"coordinates":[-105.26384,40.010971],"type":"Point"},"properties":{"osm_id":"6816554114","tag":{"amenity":"recycling","recycling_type":"container"}},"type":"Feature"},
	{"geometry":{"coordinates":[-105.263837,40.010979],"type":"Point"},"properties":{"osm_id":"6816554115","tag":{"amenity":"waste_basket"}},"type":"Feature"}
]
}
