{
"type": "FeatureCollection",
"features": [
	{"geometry":{"coordinates":[138.621575,-34.90519],"type":"Point"},"properties":{"osm_id":"2037705467","tag":{"amenity":"waste_basket"}},"type":"Feature"},
	{"geometry":{"coordinates":[138.61069,-34.911102],"type":"Point"},"properties":{"barrier":"gate","osm_id":"2499512093"},"type":"Feature"},
	{"geometry":{"coordinates":[138.634652,-34.942858],"type":"Point"},"properties":{"osm_id":"4608890627","tag":{"amenity":"waste_basket"}},"type":"Feature"},
	{"geometry":{"coordinates":[138.6799,-34.912617],"type":"Point"},"properties":{"name":"Magill Recycling","osm_id":"4691931560","tag":{"amenity":"recycling","opening_hours":"Mo-Fr 08:00-17:00; Sa 08:00-13:00; Su,PH 09:00-13:00","recycling_type":"centre","wheelchair":"yes"}},"type":"Feature"},
	{"geometry":{"coordinates":[138.632971,-34.915695],"type":"Point"},"properties":{"osm_id":"8067513328","tag":{"amenity":"waste_basket"}},"type":"Feature"},
	{"geometry":{"coordinates":[138.632922,-34.916182],"type":"Point"},"properties":{"osm_id":"8067513335","tag":{"amenity":"waste_basket"}},"type":"Feature"},
	{"geometry":{"coordinates":[138.632775,-34.916135],"type":"Point"},"properties":{"osm_id":"8067513344","tag":{"amenity":"waste_basket"}},"type":"Feature"},
	{"geometry":{"coordinates":[138.633121,-34.916148],"type":"Point"},"properties":{"osm_id":"8067513348","tag":{"amenity":"waste_basket"}},"type":"Feature"},
	{"geometry":{"coordinates":[138.632696,-34.91549],"type":"Point"},"properties":{"osm_id":"8067599323","tag":{"amenity":"waste_basket"}},"type":"Feature"},
	{"geometry":{"coordinates":[138.632594,-34.91579],"type":"Point"},"properties":{"osm_id":"8067599346","tag":{"amenity":"waste_basket"}},"type":"Feature"},
	{"geometry":{"coordinates":[138.632824,-34.915893],"type":"Point"},"properties":{"osm_id":"8067599349","tag":{"amenity":"waste_basket","vending":"excrement_bags"}},"type":"Feature"}
]
}
