{
"type": "FeatureCollection",
"features": [
	{"geometry":{"coordinates":[18.56038,59.414359],"type":"Point"},"properties":{"osm_id":"863394590","tag":{"amenity":"recycling","recycling:cans":"yes","recycling:glass_bottles":"yes"}},"type":"Feature"},
	{"geometry":{"coordinates":[18.559544,59.416761],"type":"Point"},"properties":{"osm_id":"863394640","tag":{"amenity":"recycling","recycling:cans":"yes","recycling:glass_bottles":"yes"}},"type":"Feature"},
	{"geometry":{"coordinates":[18.558532,59.410555],"type":"Point"},"properties":{"osm_id":"863394642","tag":{"amenity":"waste_basket"}},"type":"Feature"},
	{"geometry":{"coordinates":[18.558839,59.418906],"type":"Point"},"properties":{"osm_id":"863394702","tag":{"amenity":"waste_basket"}},"type":"Feature"},
	{"geometry":{"coordinates":[18.557754,59.413444],"type":"Point"},"properties":{"osm_id":"863394722","tag":{"amenity":"waste_basket"}},"type":"Feature"},
	{"geometry":{"coordinates":[18.557924,59.409478],"type":"Point"},"properties":{"osm_id":"863394736","tag":{"amenity":"waste_basket"}},"type":"Feature"},
	{"geometry":{"coordinates":[18.557417,59.412648],"type":"Point"},"properties":{"osm_id":"863394777","tag":{"amenity":"waste_basket"}},"type":"Feature"},
	{"geometry":{"coordinates":[18.558845,59.418913],"type":"Point"},"properties":{"osm_id":"863394780","tag":{"amenity":"recycling","recycling:cans":"yes","recycling:glass_bottles":"yes"}},"type":"Feature"},
	{"geometry":{"coordinates":[18.559084,59.416257],"type":"Point"},"properties":{"osm_id":"863394830","tag":{"amenity":"waste_basket"}},"type":"Feature"},
	{"geometry":{"coordinates":[18.557742,59.413437],"type":"Point"},"properties":{"osm_id":"863394850","tag":{"amenity":"recycling","recycling:cans":"yes","recycling:glass_bottles":"yes"}},"type":"Feature"},
	{"geometry":{"coordinates":[18.560234,59.411421],"type":"Point"},"properties":{"osm_id":"863394877","tag":{"amenity":"waste_basket"}},"type":"Feature"},
	{"geometry":{"coordinates":[18.558931,59.418332],"type":"Point"},"properties":{"osm_id":"863394892","tag":{"amenity":"waste_basket"}},"type":"Feature"},
	{"geometry":{"coordinates":[18.559098,59.416277],"type":"Point"},"properties":{"osm_id":"863394908","tag":{"amenity":"recycling","recycling:cans":"yes","recycling:glass_bottles":"yes"}},"type":"Feature"},
	{"geometry":{"coordinates":[18.557428,59.412638],"type":"Point"},"properties":{"osm_id":"863394917","tag":{"amenity":"recycling","recycling:cans":"yes","recycling:glass_bottles":"yes"}},"type":"Feature"},
	{"geometry":{"coordinates":[18.557912,59.40946],"type":"Point"},"properties":{"osm_id":"863394935","tag":{"amenity":"recycling","recycling:cans":"yes","recycling:glass_bottles":"yes"}},"type":"Feature"},
	{"geometry":{"coordinates":[18.560384,59.41433],"type":"Point"},"properties":{"osm_id":"863394944","tag":{"amenity":"waste_basket"}},"type":"Feature"},
	{"geometry":{"coordinates":[18.557634,59.417721],"type":"Point"},"properties":{"osm_id":"863394967","tag":{"amenity":"waste_basket"}},"type":"Feature"},
	{"geometry":{"coordinates":[18.558919,59.418313],"type":"Point"},"properties":{"osm_id":"863394983","tag":{"amenity":"recycling","recycling:cans":"yes","recycling:glass_bottles":"yes"}},"type":"Feature"},
	{"geometry":{"coordinates":[18.559585,59.416752],"type":"Point"},"properties":{"osm_id":"863394999","tag":{"amenity":"waste_basket"}},"type":"Feature"},
	{"geometry":{"coordinates":[18.559927,59.407535],"type":"Point"},"properties":{"osm_id":"863423235","tag":{"amenity":"recycling"}},"type":"Feature"},
	{"geometry":{"coordinates":[18.558339,59.407773],"type":"Point"},"properties":{"osm_id":"863423252","tag":{"amenity":"waste_basket"}},"type":"Feature"},
	{"geometry":{"coordinates":[18.560038,59.407511],"type":"Point"},"properties":{"osm_id":"863423294","tag":{"amenity":"recycling","recycling:compost":"yes"}},"type":"Feature"},
	{"geometry":{"coordinates":[18.561957,59.407423],"type":"Point"},"properties":{"osm_id":"863423298","tag":{"amenity":"recycling","recycling:cans":"yes","recycling:glass_bottles":"yes"}},"type":"Feature"},
	{"geometry":{"coordinates":[18.558099,59.411924],"type":"Point"},"properties":{"osm_id":"863423304","tag":{"amenity":"waste_basket"}},"type":"Feature"},
	{"geometry":{"coordinates":[18.558088,59.411916],"type":"Point"},"properties":{"osm_id":"863423362","tag":{"amenity":"recycling","recycling:cans":"yes","recycling:glass_bottles":"yes"}},"type":"Feature"},
	{"geometry":{"coordinates":[18.556438,59.407087],"type":"Point"},"properties":{"osm_id":"4239095025","tag":{"amenity":"waste_basket"}},"type":"Feature"}
]
}
