{
"type": "FeatureCollection",
"features": [
	{"geometry":{"coordinates":[18.555548,54.45281],"type":"Point"},"properties":{"osm_id":"1802495011","tag":{"amenity":"waste_basket"}},"type":"Feature"},
	{"geometry":{"coordinates":[18.555173,54.453052],"type":"Point"},"properties":{"osm_id":"1802495016","tag":{"amenity":"waste_basket"}},"type":"Feature"},
	{"geometry":{"coordinates":[18.557144,54.441748],"type":"Point"},"properties":{"osm_id":"1818085610","tag":{"amenity":"waste_basket"}},"type":"Feature"},
	{"geometry":{"coordinates":[18.557019,54.441961],"type":"Point"},"properties":{"osm_id":"1818085687","tag":{"amenity":"waste_basket"}},"type":"Feature"},
	{"geometry":{"coordinates":[18.563045,54.443322],"type":"Point"},"properties":{"osm_id":"1818883047","tag":{"amenity":"waste_basket"}},"type":"Feature"},
	{"geometry":{"coordinates":[18.577219,54.425617],"type":"Point"},"properties":{"osm_id":"4160676412","tag":{"amenity":"waste_basket"}},"type":"Feature"},
	{"geometry":{"coordinates":[18.577133,54.425716],"type":"Point"},"properties":{"osm_id":"4160676413","tag":{"amenity":"waste_basket"}},"type":"Feature"},
	{"geometry":{"coordinates":[18.55461,54.458378],"type":"Point"},"properties":{"osm_id":"4312578141","tag":{"amenity":"waste_basket"}},"type":"Feature"},
	{"geometry":{"coordinates":[18.554186,54.463103],"type":"Point"},"properties":{"osm_id":"4321019722","tag":{"amenity":"waste_basket"}},"type":"Feature"},
	{"geometry":{"coordinates":[18.553797,54.463235],"type":"Point"},"properties":{"osm_id":"4321019725","tag":{"amenity":"waste_basket"}},"type":"Feature"},
	{"geometry":{"coordinates":[18.554743,54.459364],"type":"Point"},"properties":{"osm_id":"5110653687","tag":{"amenity":"waste_basket"}},"type":"Feature"},
	{"geometry":{"coordinates":[18.555863,54.44958],"type":"Point"},"properties":{"osm_id":"5682530227","tag":{"amenity":"waste_basket"}},"type":"Feature"},
	{"geometry":{"coordinates":[18.561688,54.458941],"type":"Point"},"properties":{"osm_id":"5762052329","tag":{"amenity":"waste_basket"}},"type":"Feature"},
	{"geometry":{"coordinates":[18.580145,54.422758],"type":"Point"},"properties":{"osm_id":"6047369969","tag":{"amenity":"waste_disposal"}},"type":"Feature"},
	{"geometry":{"coordinates":[18.580192,54.422784],"type":"Point"},"properties":{"osm_id":"6047369971","tag":{"amenity":"waste_basket"}},"type":"Feature"},
	{"geometry":{"coordinates":[18.569953,54.4208],"type":"Point"},"properties":{"osm_id":"6109309717","tag":{"amenity":"waste_basket"}},"type":"Feature"},
	{"geometry":{"coordinates":[18.570287,54.420843],"type":"Point"},"properties":{"osm_id":"6109309718","tag":{"amenity":"waste_basket"}},"type":"Feature"},
	{"geometry":{"coordinates":[18.562471,54.443169],"type":"Point"},"properties":{"osm_id":"6697478686","tag":{"amenity":"waste_basket"}},"type":"Feature"},
	{"geometry":{"coordinates":[18.563333,54.433653],"type":"Point"},"properties":{"osm_id":"6775677428","tag":{"amenity":"recycling","opening_hours":"Mo-Fr 07:30-15:30; Sa 07:30-12:00","recycling:paper":"yes","recycling:scrap_metal":"yes","recycling_type":"centre"}},"type":"Feature"},
	{"geometry":{"coordinates":[18.546456,54.439645],"type":"Point"},"properties":{"osm_id":"6830792786","tag":{"amenity":"waste_basket"}},"type":"Feature"},
	{"geometry":{"coordinates":[18.545739,54.439718],"type":"Point"},"properties":{"osm_id":"6830792885","tag":{"amenity":"waste_basket"}},"type":"Feature"},
	{"geometry":{"coordinates":[18.563574,54.439277],"type":"Point"},"properties":{"osm_id":"6832360154","tag":{"amenity":"recycling","recycling_type":"container"}},"type":"Feature"},
	{"geometry":{"coordinates":[18.553385,54.43656],"type":"Point"},"properties":{"osm_id":"6851227785","tag":{"amenity":"waste_basket"}},"type":"Feature"},
	{"geometry":{"coordinates":[18.552181,54.436444],"type":"Point"},"properties":{"osm_id":"6851227786","tag":{"amenity":"waste_basket"}},"type":"Feature"},
	{"geometry":{"coordinates":[18.545042,54.438813],"type":"Point"},"properties":{"osm_id":"6851520990","tag":{"amenity":"waste_basket"}},"type":"Feature"},
	{"geometry":{"coordinates":[18.545095,54.43912],"type":"Point"},"properties":{"osm_id":"6851590285","tag":{"amenity":"waste_basket","waste":"Na psie odchody, na baterie, inne"}},"type":"Feature"},
	{"geometry":{"coordinates":[18.545608,54.440384],"type":"Point"},"properties":{"osm_id":"6851629285","tag":{"amenity":"waste_basket"}},"type":"Feature"},
	{"geometry":{"coordinates":[18.551118,54.440388],"type":"Point"},"properties":{"osm_id":"6851629287","tag":{"amenity":"waste_basket"}},"type":"Feature"},
	{"geometry":{"coordinates":[18.55013,54.440355],"type":"Point"},"properties":{"osm_id":"6851629485","tag":{"amenity":"waste_basket"}},"type":"Feature"},
	{"geometry":{"coordinates":[18.551365,54.443672],"type":"Point"},"properties":{"osm_id":"6851641986","tag":{"amenity":"waste_basket"}},"type":"Feature"},
	{"geometry":{"coordinates":[18.550854,54.443738],"type":"Point"},"properties":{"osm_id":"6851674286","tag":{"amenity":"waste_basket"}},"type":"Feature"},
	{"geometry":{"coordinates":[18.552029,54.443255],"type":"Point"},"properties":{"osm_id":"6851674289","tag":{"amenity":"waste_basket"}},"type":"Feature"},
	{"geometry":{"coordinates":[18.551959,54.443224],"type":"Point"},"properties":{"osm_id":"6851674585","tag":{"amenity":"waste_basket"}},"type":"Feature"},
	{"geometry":{"coordinates":[18.549471,54.450871],"type":"Point"},"properties":{"osm_id":"6852116085","tag":{"amenity":"waste_basket"}},"type":"Feature"},
	{"geometry":{"coordinates":[18.549474,54.450935],"type":"Point"},"properties":{"osm_id":"6852116185","tag":{"amenity":"waste_basket"}},"type":"Feature"},
	{"geometry":{"coordinates":[18.548965,54.453983],"type":"Point"},"properties":{"osm_id":"6852199491","tag":{"amenity":"waste_basket"}},"type":"Feature"},
	{"geometry":{"coordinates":[18.549487,54.45239],"type":"Point"},"properties":{"osm_id":"6852199686","tag":{"amenity":"waste_basket"}},"type":"Feature"},
	{"geometry":{"coordinates":[18.54927,54.453248],"type":"Point"},"properties":{"osm_id":"6852199687","tag":{"amenity":"waste_basket"}},"type":"Feature"},
	{"geometry":{"coordinates":[18.551128,54.455753],"type":"Point"},"properties":{"osm_id":"6852252450","tag":{"amenity":"waste_basket"}},"type":"Feature"},
	{"geometry":{"coordinates":[18.551201,54.455762],"type":"Point"},"properties":{"osm_id":"6852252451","tag":{"amenity":"waste_basket"}},"type":"Feature"},
	{"geometry":{"coordinates":[18.552795,54.456121],"type":"Point"},"properties":{"osm_id":"6852252455","tag":{"amenity":"waste_basket"}},"type":"Feature"},
	{"geometry":{"coordinates":[18.551389,54.455774],"type":"Point"},"properties":{"osm_id":"6852263031","tag":{"amenity":"waste_basket"}},"type":"Feature"},
	{"geometry":{"coordinates":[18.552868,54.456145],"type":"Point"},"properties":{"osm_id":"6852263895","tag":{"amenity":"waste_basket"}},"type":"Feature"},
	{"geometry":{"coordinates":[18.579744,54.423211],"type":"Point"},"properties":{"osm_id":"7937560367","tag":{"amenity":"waste_basket","waste":"trash"}},"type":"Feature"}
]
}
