{
"type": "FeatureCollection",
"features": [
	{"geometry":{"coordinates":[18.592694,54.307517],"type":"Point"},"properties":{"osm_id":"1633614443","tag":{"amenity":"waste_basket"}},"type":"Feature"},
	{"geometry":{"coordinates":[18.593123,54.308965],"type":"Point"},"properties":{"name":"Hokejowa","osm_id":"1633614444","tag":{"amenity":"recycling"}},"type":"Feature"},
	{"geometry":{"coordinates":[18.592128,54.307668],"type":"Point"},"properties":{"osm_id":"1633614455","tag":{"amenity":"waste_basket"}},"type":"Feature"},
	{"geometry":{"coordinates":[18.589916,54.309189],"type":"Point"},"properties":{"osm_id":"1633637844","tag":{"amenity":"recycling"}},"type":"Feature"},
	{"geometry":{"coordinates":[18.58869,54.309147],"type":"Point"},"properties":{"osm_id":"1633731781","tag":{"amenity":"recycling"}},"type":"Feature"},
	{"geometry":{"coordinates":[18.592499,54.3084],"type":"Point"},"properties":{"osm_id":"1639020771","tag":{"amenity":"recycling","recycling_type":"centre"}},"type":"Feature"},
	{"geometry":{"coordinates":[18.594918,54.308629],"type":"Point"},"properties":{"osm_id":"1639020775","tag":{"amenity":"recycling","recycling_type":"centre"}},"type":"Feature"},
	{"geometry":{"coordinates":[18.578457,54.302607],"type":"Point"},"properties":{"osm_id":"1673828025","tag":{"amenity":"recycling","recycling:glass":"yes","recycling:glass_bottles":"yes","recycling_type":"container"}},"type":"Feature"},
	{"geometry":{"coordinates":[18.56888,54.304238],"type":"Point"},"properties":{"osm_id":"1936459893","tag":{"amenity":"waste_basket"}},"type":"Feature"},
	{"geometry":{"coordinates":[18.570006,54.305021],"type":"Point"},"properties":{"osm_id":"1936459897","tag":{"amenity":"waste_basket"}},"type":"Feature"},
	{"geometry":{"coordinates":[18.569463,54.305105],"type":"Point"},"properties":{"osm_id":"1936459898","tag":{"amenity":"waste_basket"}},"type":"Feature"},
	{"geometry":{"coordinates":[18.569382,54.306581],"type":"Point"},"properties":{"osm_id":"1936459899","tag":{"amenity":"waste_basket"}},"type":"Feature"},
	{"geometry":{"coordinates":[18.569554,54.308178],"type":"Point"},"properties":{"osm_id":"1936459900","tag":{"amenity":"waste_basket"}},"type":"Feature"},
	{"geometry":{"coordinates":[18.56702,54.308335],"type":"Point"},"properties":{"osm_id":"1936459901","tag":{"amenity":"waste_basket"}},"type":"Feature"},
	{"geometry":{"coordinates":[18.566842,54.310153],"type":"Point"},"properties":{"osm_id":"1936459902","tag":{"amenity":"waste_basket"}},"type":"Feature"},
	{"geometry":{"coordinates":[18.566409,54.310754],"type":"Point"},"properties":{"osm_id":"1936459903","tag":{"amenity":"waste_basket"}},"type":"Feature"},
	{"geometry":{"coordinates":[18.571705,54.311917],"type":"Point"},"properties":{"osm_id":"1936459904","tag":{"amenity":"waste_basket"}},"type":"Feature"},
	{"geometry":{"coordinates":[18.570401,54.313885],"type":"Point"},"properties":{"osm_id":"1936459905","tag":{"amenity":"waste_basket"}},"type":"Feature"},
	{"geometry":{"coordinates":[18.570453,54.305129],"type":"Point"},"properties":{"osm_id":"1936464986","tag":{"amenity":"waste_basket"}},"type":"Feature"},
	{"geometry":{"coordinates":[18.571163,54.305131],"type":"Point"},"properties":{"osm_id":"1936464990","tag":{"amenity":"waste_basket"}},"type":"Feature"},
	{"geometry":{"coordinates":[18.571296,54.305189],"type":"Point"},"properties":{"osm_id":"1936464995","tag":{"amenity":"waste_basket"}},"type":"Feature"},
	{"geometry":{"coordinates":[18.56053,54.309902],"type":"Point"},"properties":{"osm_id":"1936479992","tag":{"amenity":"waste_basket"}},"type":"Feature"},
	{"geometry":{"coordinates":[18.56995,54.304882],"type":"Point"},"properties":{"osm_id":"1936802519","tag":{"amenity":"waste_basket"}},"type":"Feature"},
	{"geometry":{"coordinates":[18.567112,54.306799],"type":"Point"},"properties":{"osm_id":"1936802520","tag":{"amenity":"waste_basket"}},"type":"Feature"},
	{"geometry":{"coordinates":[18.567136,54.307406],"type":"Point"},"properties":{"osm_id":"1936802521","tag":{"amenity":"waste_basket"}},"type":"Feature"},
	{"geometry":{"coordinates":[18.567079,54.308505],"type":"Point"},"properties":{"osm_id":"1936802522","tag":{"amenity":"waste_basket"}},"type":"Feature"},
	{"geometry":{"coordinates":[18.567182,54.309372],"type":"Point"},"properties":{"osm_id":"1936802523","tag":{"amenity":"waste_basket"}},"type":"Feature"},
	{"geometry":{"coordinates":[18.567129,54.309741],"type":"Point"},"properties":{"osm_id":"1936802524","tag":{"amenity":"waste_basket"}},"type":"Feature"},
	{"geometry":{"coordinates":[18.566844,54.310256],"type":"Point"},"properties":{"osm_id":"1936802525","tag":{"amenity":"waste_basket"}},"type":"Feature"},
	{"geometry":{"coordinates":[18.559745,54.310636],"type":"Point"},"properties":{"osm_id":"1936802526","tag":{"amenity":"waste_basket"}},"type":"Feature"},
	{"geometry":{"coordinates":[18.566129,54.310674],"type":"Point"},"properties":{"osm_id":"1936802527","tag":{"amenity":"waste_basket"}},"type":"Feature"},
	{"geometry":{"coordinates":[18.5648,54.310878],"type":"Point"},"properties":{"osm_id":"1936802528","tag":{"amenity":"waste_basket"}},"type":"Feature"},
	{"geometry":{"coordinates":[18.564878,54.310914],"type":"Point"},"properties":{"osm_id":"1936802529","tag":{"amenity":"waste_basket"}},"type":"Feature"},
	{"geometry":{"coordinates":[18.56617,54.311232],"type":"Point"},"properties":{"osm_id":"1936802530","tag":{"amenity":"waste_basket"}},"type":"Feature"},
	{"geometry":{"coordinates":[18.568987,54.311172],"type":"Point"},"properties":{"osm_id":"1936803138","tag":{"amenity":"waste_basket"}},"type":"Feature"},
	{"geometry":{"coordinates":[18.567272,54.305512],"type":"Point"},"properties":{"osm_id":"1936997937","tag":{"amenity":"waste_basket"}},"type":"Feature"},
	{"geometry":{"coordinates":[18.567142,54.305981],"type":"Point"},"properties":{"osm_id":"1936997939","tag":{"amenity":"waste_basket"}},"type":"Feature"},
	{"geometry":{"coordinates":[18.568514,54.30491],"type":"Point"},"properties":{"osm_id":"1937003750","tag":{"amenity":"waste_basket"}},"type":"Feature"},
	{"geometry":{"coordinates":[18.570885,54.30567],"type":"Point"},"properties":{"osm_id":"1937003753","tag":{"amenity":"waste_basket"}},"type":"Feature"},
	{"geometry":{"coordinates":[18.570028,54.306123],"type":"Point"},"properties":{"osm_id":"1937003757","tag":{"amenity":"waste_basket"}},"type":"Feature"},
	{"geometry":{"coordinates":[18.569506,54.306179],"type":"Point"},"properties":{"osm_id":"1937003759","tag":{"amenity":"waste_basket"}},"type":"Feature"},
	{"geometry":{"coordinates":[18.569022,54.308751],"type":"Point"},"properties":{"osm_id":"1937003764","tag":{"amenity":"waste_basket"}},"type":"Feature"},
	{"geometry":{"coordinates":[18.570368,54.310667],"type":"Point"},"properties":{"osm_id":"1937003766","tag":{"amenity":"waste_basket"}},"type":"Feature"},
	{"geometry":{"coordinates":[18.571242,54.311183],"type":"Point"},"properties":{"osm_id":"1937003771","tag":{"amenity":"waste_basket"}},"type":"Feature"},
	{"geometry":{"coordinates":[18.572282,54.311331],"type":"Point"},"properties":{"osm_id":"1937248916","tag":{"amenity":"waste_basket"}},"type":"Feature"},
	{"geometry":{"coordinates":[18.57133,54.313716],"type":"Point"},"properties":{"osm_id":"1937248917","tag":{"amenity":"waste_basket"}},"type":"Feature"},
	{"geometry":{"coordinates":[18.571095,54.31376],"type":"Point"},"properties":{"osm_id":"1937248918","tag":{"amenity":"waste_basket"}},"type":"Feature"},
	{"geometry":{"coordinates":[18.569217,54.31396],"type":"Point"},"properties":{"osm_id":"1937248920","tag":{"amenity":"waste_basket"}},"type":"Feature"},
	{"geometry":{"coordinates":[18.579991,54.315643],"type":"Point"},"properties":{"osm_id":"1937248921","tag":{"amenity":"waste_basket"}},"type":"Feature"},
	{"geometry":{"coordinates":[18.569768,54.315647],"type":"Point"},"properties":{"osm_id":"1937248922","tag":{"amenity":"waste_basket"}},"type":"Feature"},
	{"geometry":{"coordinates":[18.580886,54.31588],"type":"Point"},"properties":{"osm_id":"1937248923","tag":{"amenity":"waste_basket"}},"type":"Feature"},
	{"geometry":{"coordinates":[18.578466,54.316027],"type":"Point"},"properties":{"osm_id":"1937248924","tag":{"amenity":"waste_basket"}},"type":"Feature"},
	{"geometry":{"coordinates":[18.581614,54.316179],"type":"Point"},"properties":{"osm_id":"1937248925","tag":{"amenity":"waste_basket"}},"type":"Feature"},
	{"geometry":{"coordinates":[18.56954,54.316291],"type":"Point"},"properties":{"osm_id":"1937248926","tag":{"amenity":"waste_basket"}},"type":"Feature"},
	{"geometry":{"coordinates":[18.577436,54.316504],"type":"Point"},"properties":{"osm_id":"1937248927","tag":{"amenity":"waste_basket"}},"type":"Feature"},
	{"geometry":{"coordinates":[18.576924,54.301159],"type":"Point"},"properties":{"osm_id":"1937331938","tag":{"amenity":"waste_basket"}},"type":"Feature"},
	{"geometry":{"coordinates":[18.581149,54.305639],"type":"Point"},"properties":{"osm_id":"1937331944","tag":{"amenity":"waste_basket"}},"type":"Feature"},
	{"geometry":{"coordinates":[18.588435,54.309913],"type":"Point"},"properties":{"osm_id":"1937331947","tag":{"amenity":"waste_basket"}},"type":"Feature"},
	{"geometry":{"coordinates":[18.588787,54.310485],"type":"Point"},"properties":{"osm_id":"1937331948","tag":{"amenity":"waste_basket"}},"type":"Feature"},
	{"geometry":{"coordinates":[18.569152,54.308177],"type":"Point"},"properties":{"osm_id":"1937740138","tag":{"amenity":"waste_basket"}},"type":"Feature"},
	{"geometry":{"coordinates":[18.569185,54.308214],"type":"Point"},"properties":{"osm_id":"1937740140","tag":{"amenity":"waste_basket"}},"type":"Feature"},
	{"geometry":{"coordinates":[18.569404,54.30823],"type":"Point"},"properties":{"osm_id":"1937740142","tag":{"amenity":"waste_basket"}},"type":"Feature"},
	{"geometry":{"coordinates":[18.576941,54.301191],"type":"Point"},"properties":{"osm_id":"1940498834","tag":{"amenity":"waste_basket"}},"type":"Feature"},
	{"geometry":{"coordinates":[18.568947,54.311051],"type":"Point"},"properties":{"osm_id":"1940498852","tag":{"amenity":"waste_basket"}},"type":"Feature"},
	{"geometry":{"coordinates":[18.569206,54.311181],"type":"Point"},"properties":{"osm_id":"1940498855","tag":{"amenity":"waste_basket"}},"type":"Feature"},
	{"geometry":{"coordinates":[18.570979,54.311877],"type":"Point"},"properties":{"osm_id":"1940498857","tag":{"amenity":"waste_basket"}},"type":"Feature"},
	{"geometry":{"coordinates":[18.580673,54.301619],"type":"Point"},"properties":{"osm_id":"2468013074","tag":{"amenity":"recycling","recycling:glass":"yes","recycling:glass_bottles":"yes","recycling_type":"container"}},"type":"Feature"},
	{"geometry":{"coordinates":[18.580635,54.30175],"type":"Point"},"properties":{"osm_id":"2468013075","tag":{"amenity":"recycling","recycling:glass":"yes","recycling:glass_bottles":"yes","recycling_type":"container"}},"type":"Feature"},
	{"geometry":{"coordinates":[18.57809,54.301412],"type":"Point"},"properties":{"osm_id":"4485964689","tag":{"amenity":"recycling","recycling:glass":"yes","recycling:magazines":"yes","recycling:newspaper":"yes","recycling:paper":"yes","recycling:paper_packaging":"yes","recycling:plastic":"yes","recycling:plastic_bottles":"yes","recycling:plastic_packaging":"yes","recycling:waste":"yes","recycling_type":"container"}},"type":"Feature"},
	{"geometry":{"coordinates":[18.632584,54.298068],"type":"Point"},"properties":{"osm_id":"5139045131","tag":{"amenity":"waste_basket"}},"type":"Feature"}
]
}
