{
"type": "FeatureCollection",
"features": [
	{"geometry":{"coordinates":[18.60067,53.02757],"type":"Point"},"properties":{"osm_id":"1709725757","tag":{"amenity":"waste_basket"}},"type":"Feature"},
	{"geometry":{"coordinates":[18.598569,53.026584],"type":"Point"},"properties":{"osm_id":"1709725784","tag":{"amenity":"waste_basket"}},"type":"Feature"},
	{"geometry":{"coordinates":[18.600072,53.026522],"type":"Point"},"properties":{"osm_id":"1709725790","tag":{"amenity":"waste_basket"}},"type":"Feature"},
	{"geometry":{"coordinates":[18.598883,53.027387],"type":"Point"},"properties":{"osm_id":"1709731356","tag":{"amenity":"waste_basket"}},"type":"Feature"},
	{"geometry":{"coordinates":[18.600642,53.027284],"type":"Point"},"properties":{"osm_id":"1709731361","tag":{"amenity":"waste_basket"}},"type":"Feature"},
	{"geometry":{"coordinates":[18.600891,53.030382],"type":"Point"},"properties":{"osm_id":"1710738571","tag":{"amenity":"waste_basket"}},"type":"Feature"},
	{"geometry":{"coordinates":[18.600912,53.03187],"type":"Point"},"properties":{"osm_id":"1711149950","tag":{"amenity":"waste_basket"}},"type":"Feature"},
	{"geometry":{"coordinates":[18.574718,53.018099],"type":"Point"},"properties":{"osm_id":"2483373353","tag":{"amenity":"waste_basket"}},"type":"Feature"},
	{"geometry":{"coordinates":[18.603645,53.021065],"type":"Point"},"properties":{"osm_id":"2801081560","tag":{"amenity":"recycling"}},"type":"Feature"},
	{"geometry":{"coordinates":[18.606456,53.022798],"type":"Point"},"properties":{"osm_id":"3257332040","tag":{"amenity":"waste_basket"}},"type":"Feature"},
	{"geometry":{"coordinates":[18.605888,53.023669],"type":"Point"},"properties":{"osm_id":"3257367564","tag":{"amenity":"waste_basket"}},"type":"Feature"},
	{"geometry":{"coordinates":[18.605599,53.024454],"type":"Point"},"properties":{"osm_id":"3258998671","tag":{"amenity":"waste_basket"}},"type":"Feature"},
	{"geometry":{"coordinates":[18.616667,53.024658],"type":"Point"},"properties":{"osm_id":"3330484142","tag":{"amenity":"waste_basket"}},"type":"Feature"},
	{"geometry":{"coordinates":[18.615879,53.024532],"type":"Point"},"properties":{"osm_id":"3330526834","tag":{"amenity":"waste_basket"}},"type":"Feature"},
	{"geometry":{"coordinates":[18.615552,53.024727],"type":"Point"},"properties":{"osm_id":"3330884694","tag":{"amenity":"waste_basket"}},"type":"Feature"},
	{"geometry":{"coordinates":[18.608224,53.025633],"type":"Point"},"properties":{"osm_id":"3338531106","tag":{"amenity":"waste_basket"}},"type":"Feature"},
	{"geometry":{"coordinates":[18.606175,53.026202],"type":"Point"},"properties":{"osm_id":"3338531107","tag":{"amenity":"waste_basket"}},"type":"Feature"},
	{"geometry":{"coordinates":[18.602795,53.01482],"type":"Point"},"properties":{"osm_id":"3713659402","tag":{"amenity":"waste_basket"}},"type":"Feature"},
	{"geometry":{"coordinates":[18.602781,53.014793],"type":"Point"},"properties":{"osm_id":"3713659403","tag":{"amenity":"waste_basket"}},"type":"Feature"},
	{"geometry":{"coordinates":[18.602845,53.014924],"type":"Point"},"properties":{"osm_id":"3713659405","tag":{"amenity":"waste_basket"}},"type":"Feature"},
	{"geometry":{"coordinates":[18.602858,53.015039],"type":"Point"},"properties":{"osm_id":"3713659406","tag":{"amenity":"waste_basket"}},"type":"Feature"},
	{"geometry":{"coordinates":[18.602771,53.015164],"type":"Point"},"properties":{"osm_id":"3713659407","tag":{"amenity":"waste_basket"}},"type":"Feature"},
	{"geometry":{"coordinates":[18.602449,53.015489],"type":"Point"},"properties":{"osm_id":"3713659411","tag":{"amenity":"waste_basket"}},"type":"Feature"},
	{"geometry":{"coordinates":[18.602092,53.016487],"type":"Point"},"properties":{"osm_id":"3713659412","tag":{"amenity":"waste_basket"}},"type":"Feature"},
	{"geometry":{"coordinates":[18.603821,53.024966],"type":"Point"},"properties":{"osm_id":"4350961811","tag":{"amenity":"waste_disposal"}},"type":"Feature"},
	{"geometry":{"coordinates":[18.607955,53.0155],"type":"Point"},"properties":{"osm_id":"5409846125","tag":{"amenity":"waste_basket"}},"type":"Feature"},
	{"geometry":{"coordinates":[18.607724,53.015438],"type":"Point"},"properties":{"osm_id":"5409846126","tag":{"amenity":"waste_basket"}},"type":"Feature"},
	{"geometry":{"coordinates":[18.607511,53.015228],"type":"Point"},"properties":{"osm_id":"5409846130","tag":{"amenity":"waste_basket"}},"type":"Feature"},
	{"geometry":{"coordinates":[18.607553,53.015244],"type":"Point"},"properties":{"osm_id":"5409846132","tag":{"amenity":"waste_basket"}},"type":"Feature"},
	{"geometry":{"coordinates":[18.607117,53.015095],"type":"Point"},"properties":{"osm_id":"5409846134","tag":{"amenity":"waste_basket"}},"type":"Feature"},
	{"geometry":{"coordinates":[18.607171,53.015113],"type":"Point"},"properties":{"osm_id":"5409846135","tag":{"amenity":"waste_basket"}},"type":"Feature"},
	{"geometry":{"coordinates":[18.60682,53.015033],"type":"Point"},"properties":{"osm_id":"5409846136","tag":{"amenity":"waste_basket"}},"type":"Feature"},
	{"geometry":{"coordinates":[18.606685,53.014828],"type":"Point"},"properties":{"osm_id":"5409846137","tag":{"amenity":"waste_basket"}},"type":"Feature"},
	{"geometry":{"coordinates":[18.608385,53.015438],"type":"Point"},"properties":{"osm_id":"5410322598","tag":{"amenity":"waste_basket"}},"type":"Feature"},
	{"geometry":{"coordinates":[18.606131,53.01613],"type":"Point"},"properties":{"osm_id":"5410346152","tag":{"amenity":"waste_basket"}},"type":"Feature"},
	{"geometry":{"coordinates":[18.606268,53.015796],"type":"Point"},"properties":{"osm_id":"5410346157","tag":{"amenity":"waste_basket"}},"type":"Feature"},
	{"geometry":{"coordinates":[18.606426,53.015487],"type":"Point"},"properties":{"osm_id":"5410346158","tag":{"amenity":"waste_basket"}},"type":"Feature"},
	{"geometry":{"coordinates":[18.606907,53.015589],"type":"Point"},"properties":{"osm_id":"5410346161","tag":{"amenity":"waste_basket"}},"type":"Feature"},
	{"geometry":{"coordinates":[18.606704,53.015567],"type":"Point"},"properties":{"osm_id":"5410346162","tag":{"amenity":"waste_basket"}},"type":"Feature"},
	{"geometry":{"coordinates":[18.600502,53.032858],"type":"Point"},"properties":{"osm_id":"5457640646","tag":{"amenity":"waste_basket"}},"type":"Feature"},
	{"geometry":{"coordinates":[18.620301,53.029339],"type":"Point"},"properties":{"osm_id":"6417666460","tag":{"amenity":"waste_basket"}},"type":"Feature"},
	{"geometry":{"coordinates":[18.620482,53.029195],"type":"Point"},"properties":{"osm_id":"6417666463","tag":{"amenity":"waste_basket"}},"type":"Feature"},
	{"geometry":{"coordinates":[18.619303,53.029148],"type":"Point"},"properties":{"osm_id":"6417666465","tag":{"amenity":"waste_basket"}},"type":"Feature"},
	{"geometry":{"coordinates":[18.619285,53.029042],"type":"Point"},"properties":{"osm_id":"6417666467","tag":{"amenity":"waste_basket"}},"type":"Feature"},
	{"geometry":{"coordinates":[18.617377,53.026615],"type":"Point"},"properties":{"osm_id":"6428852329","tag":{"amenity":"waste_basket"}},"type":"Feature"},
	{"geometry":{"coordinates":[18.604479,53.053649],"type":"Point"},"properties":{"osm_id":"6477316159","tag":{"amenity":"recycling","recycling:glass":"yes","recycling:paper":"yes","recycling:waste":"yes","recycling_type":"container"}},"type":"Feature"},
	{"geometry":{"coordinates":[18.604925,53.053303],"type":"Point"},"properties":{"osm_id":"6477316160","tag":{"amenity":"recycling","recycling:glass":"yes","recycling:paper":"yes","recycling:waste":"yes","recycling_type":"container"}},"type":"Feature"},
	{"geometry":{"coordinates":[18.62155,53.021391],"type":"Point"},"properties":{"osm_id":"6779957647","tag":{"amenity":"recycling","recycling:plastic":"yes","recycling_type":"container"}},"type":"Feature"},
	{"geometry":{"coordinates":[18.571739,53.017489],"type":"Point"},"properties":{"osm_id":"6898395651","tag":{"amenity":"waste_basket"}},"type":"Feature"},
	{"geometry":{"coordinates":[18.571159,53.017495],"type":"Point"},"properties":{"osm_id":"6898395652","tag":{"amenity":"waste_basket"}},"type":"Feature"},
	{"geometry":{"coordinates":[18.591074,53.03352],"type":"Point"},"properties":{"osm_id":"7009194269","tag":{"amenity":"recycling","recycling_type":"container"}},"type":"Feature"},
	{"geometry":{"coordinates":[18.591066,53.033531],"type":"Point"},"properties":{"osm_id":"7009194270","tag":{"amenity":"recycling","recycling_type":"container"}},"type":"Feature"},
	{"geometry":{"coordinates":[18.591125,53.033537],"type":"Point"},"properties":{"osm_id":"7009194271","tag":{"amenity":"recycling","recycling_type":"container"}},"type":"Feature"},
	{"geometry":{"coordinates":[18.609341,53.018151],"type":"Point"},"properties":{"osm_id":"7747059878","tag":{"amenity":"recycling","recycling_type":"container"}},"type":"Feature"}
]
}
