{
"type": "FeatureCollection",
"features": [
	{"geometry":{"coordinates":[18.567736,51.220692],"type":"Point"},"properties":{"osm_id":"2626028608","tag":{"amenity":"waste_basket"}},"type":"Feature"},
	{"geometry":{"coordinates":[18.566984,51.220846],"type":"Point"},"properties":{"osm_id":"2626028616","tag":{"amenity":"waste_basket"}},"type":"Feature"},
	{"geometry":{"coordinates":[18.570521,51.220082],"type":"Point"},"properties":{"osm_id":"2626051223","tag":{"amenity":"waste_basket"}},"type":"Feature"},
	{"geometry":{"coordinates":[18.570154,51.220191],"type":"Point"},"properties":{"osm_id":"2626051224","tag":{"amenity":"waste_basket"}},"type":"Feature"},
	{"geometry":{"coordinates":[18.568106,51.220409],"type":"Point"},"properties":{"osm_id":"2626051242","tag":{"amenity":"waste_basket"}},"type":"Feature"},
	{"geometry":{"coordinates":[18.567713,51.220443],"type":"Point"},"properties":{"osm_id":"2626051244","tag":{"amenity":"waste_basket"}},"type":"Feature"},
	{"geometry":{"coordinates":[18.566784,51.220523],"type":"Point"},"properties":{"osm_id":"2626051245","tag":{"amenity":"waste_basket"}},"type":"Feature"},
	{"geometry":{"coordinates":[18.567765,51.220529],"type":"Point"},"properties":{"osm_id":"2626051247","tag":{"amenity":"waste_basket"}},"type":"Feature"},
	{"geometry":{"coordinates":[18.568276,51.220536],"type":"Point"},"properties":{"osm_id":"2626051249","tag":{"amenity":"waste_basket"}},"type":"Feature"},
	{"geometry":{"coordinates":[18.566727,51.220647],"type":"Point"},"properties":{"osm_id":"2626051253","tag":{"amenity":"waste_basket"}},"type":"Feature"},
	{"geometry":{"coordinates":[18.56947,51.220816],"type":"Point"},"properties":{"osm_id":"2626051258","tag":{"amenity":"waste_basket"}},"type":"Feature"},
	{"geometry":{"coordinates":[18.570537,51.220821],"type":"Point"},"properties":{"osm_id":"2626051259","tag":{"amenity":"waste_basket","check_date":"2021-08-18"}},"type":"Feature"},
	{"geometry":{"coordinates":[18.569987,51.220856],"type":"Point"},"properties":{"osm_id":"2626051261","tag":{"amenity":"waste_basket","check_date":"2021-08-18"}},"type":"Feature"},
	{"geometry":{"coordinates":[18.568699,51.220889],"type":"Point"},"properties":{"osm_id":"2626051263","tag":{"amenity":"waste_basket"}},"type":"Feature"},
	{"geometry":{"coordinates":[18.568343,51.220919],"type":"Point"},"properties":{"osm_id":"2626066090","tag":{"amenity":"waste_basket"}},"type":"Feature"},
	{"geometry":{"coordinates":[18.569373,51.222627],"type":"Point"},"properties":{"osm_id":"2626075579","tag":{"amenity":"waste_disposal"}},"type":"Feature"},
	{"geometry":{"coordinates":[18.569387,51.222629],"type":"Point"},"properties":{"osm_id":"2626075581","tag":{"amenity":"waste_disposal"}},"type":"Feature"},
	{"geometry":{"coordinates":[18.569402,51.22263],"type":"Point"},"properties":{"osm_id":"2626075584","tag":{"amenity":"waste_disposal"}},"type":"Feature"},
	{"geometry":{"coordinates":[18.561711,51.210996],"type":"Point"},"properties":{"osm_id":"2626077640","tag":{"amenity":"waste_disposal"}},"type":"Feature"},
	{"geometry":{"coordinates":[18.561723,51.211009],"type":"Point"},"properties":{"osm_id":"2626077641","tag":{"amenity":"waste_disposal"}},"type":"Feature"},
	{"geometry":{"coordinates":[18.561738,51.21102],"type":"Point"},"properties":{"osm_id":"2626077642","tag":{"amenity":"waste_disposal"}},"type":"Feature"},
	{"geometry":{"coordinates":[18.568846,51.218888],"type":"Point"},"properties":{"osm_id":"2665614917","tag":{"amenity":"waste_basket"}},"type":"Feature"},
	{"geometry":{"coordinates":[18.568659,51.218948],"type":"Point"},"properties":{"osm_id":"2665614921","tag":{"amenity":"waste_basket"}},"type":"Feature"},
	{"geometry":{"coordinates":[18.568571,51.218976],"type":"Point"},"properties":{"osm_id":"2665614924","tag":{"amenity":"waste_basket"}},"type":"Feature"},
	{"geometry":{"coordinates":[18.568483,51.219008],"type":"Point"},"properties":{"osm_id":"2665614925","tag":{"amenity":"waste_basket"}},"type":"Feature"},
	{"geometry":{"coordinates":[18.568242,51.219062],"type":"Point"},"properties":{"osm_id":"2665614928","tag":{"amenity":"waste_basket"}},"type":"Feature"},
	{"geometry":{"coordinates":[18.568072,51.219145],"type":"Point"},"properties":{"osm_id":"2665614933","tag":{"amenity":"waste_basket"}},"type":"Feature"},
	{"geometry":{"coordinates":[18.567941,51.219199],"type":"Point"},"properties":{"osm_id":"2665614934","tag":{"amenity":"waste_basket"}},"type":"Feature"},
	{"geometry":{"coordinates":[18.567822,51.219239],"type":"Point"},"properties":{"osm_id":"2665614938","tag":{"amenity":"waste_basket"}},"type":"Feature"},
	{"geometry":{"coordinates":[18.567941,51.219271],"type":"Point"},"properties":{"osm_id":"2665614946","tag":{"amenity":"waste_basket"}},"type":"Feature"},
	{"geometry":{"coordinates":[18.567742,51.219301],"type":"Point"},"properties":{"osm_id":"2665614950","tag":{"amenity":"waste_basket"}},"type":"Feature"},
	{"geometry":{"coordinates":[18.567573,51.219377],"type":"Point"},"properties":{"osm_id":"2665614953","tag":{"amenity":"waste_basket"}},"type":"Feature"},
	{"geometry":{"coordinates":[18.567346,51.219432],"type":"Point"},"properties":{"osm_id":"2665614956","tag":{"amenity":"waste_basket"}},"type":"Feature"},
	{"geometry":{"coordinates":[18.566993,51.219453],"type":"Point"},"properties":{"osm_id":"2665614960","tag":{"amenity":"waste_basket"}},"type":"Feature"},
	{"geometry":{"coordinates":[18.566801,51.219649],"type":"Point"},"properties":{"osm_id":"2665614964","tag":{"amenity":"waste_basket"}},"type":"Feature"},
	{"geometry":{"coordinates":[18.566488,51.219686],"type":"Point"},"properties":{"osm_id":"2665614967","tag":{"amenity":"waste_basket"}},"type":"Feature"},
	{"geometry":{"coordinates":[18.566502,51.219731],"type":"Point"},"properties":{"osm_id":"2665614973","tag":{"amenity":"waste_basket"}},"type":"Feature"},
	{"geometry":{"coordinates":[18.567158,51.21973],"type":"Point"},"properties":{"osm_id":"2665614975","tag":{"amenity":"waste_basket"}},"type":"Feature"},
	{"geometry":{"coordinates":[18.566973,51.2198],"type":"Point"},"properties":{"osm_id":"2665614982","tag":{"amenity":"waste_basket"}},"type":"Feature"},
	{"geometry":{"coordinates":[18.566566,51.219965],"type":"Point"},"properties":{"osm_id":"2665614985","tag":{"amenity":"waste_basket"}},"type":"Feature"},
	{"geometry":{"coordinates":[18.566627,51.220186],"type":"Point"},"properties":{"osm_id":"2665614988","tag":{"amenity":"waste_basket"}},"type":"Feature"},
	{"geometry":{"coordinates":[18.566765,51.220255],"type":"Point"},"properties":{"osm_id":"2665614993","tag":{"amenity":"waste_basket"}},"type":"Feature"},
	{"geometry":{"coordinates":[18.566615,51.220356],"type":"Point"},"properties":{"osm_id":"2665614997","tag":{"amenity":"waste_basket"}},"type":"Feature"},
	{"geometry":{"coordinates":[18.5673,51.220572],"type":"Point"},"properties":{"osm_id":"2665615000","tag":{"amenity":"waste_basket"}},"type":"Feature"},
	{"geometry":{"coordinates":[18.567197,51.219415],"type":"Point"},"properties":{"osm_id":"2665632832","tag":{"amenity":"waste_basket"}},"type":"Feature"},
	{"geometry":{"coordinates":[18.566959,51.219503],"type":"Point"},"properties":{"osm_id":"2665632834","tag":{"amenity":"waste_basket"}},"type":"Feature"},
	{"geometry":{"coordinates":[18.567297,51.219642],"type":"Point"},"properties":{"osm_id":"2665632836","tag":{"amenity":"waste_basket"}},"type":"Feature"},
	{"geometry":{"coordinates":[18.567188,51.219802],"type":"Point"},"properties":{"osm_id":"2665632838","tag":{"amenity":"waste_basket"}},"type":"Feature"},
	{"geometry":{"coordinates":[18.566066,51.220992],"type":"Point"},"properties":{"osm_id":"2665673859","tag":{"amenity":"waste_basket"}},"type":"Feature"},
	{"geometry":{"coordinates":[18.56558,51.221067],"type":"Point"},"properties":{"osm_id":"2665673867","tag":{"amenity":"waste_basket"}},"type":"Feature"},
	{"geometry":{"coordinates":[18.566106,51.221083],"type":"Point"},"properties":{"osm_id":"2665673870","tag":{"amenity":"waste_basket"}},"type":"Feature"},
	{"geometry":{"coordinates":[18.565098,51.221142],"type":"Point"},"properties":{"osm_id":"2665673873","tag":{"amenity":"waste_basket"}},"type":"Feature"},
	{"geometry":{"coordinates":[18.56562,51.221159],"type":"Point"},"properties":{"osm_id":"2665673876","tag":{"amenity":"waste_basket"}},"type":"Feature"},
	{"geometry":{"coordinates":[18.564614,51.221217],"type":"Point"},"properties":{"osm_id":"2665673879","tag":{"amenity":"waste_basket"}},"type":"Feature"},
	{"geometry":{"coordinates":[18.565137,51.221233],"type":"Point"},"properties":{"osm_id":"2665673882","tag":{"amenity":"waste_basket"}},"type":"Feature"},
	{"geometry":{"coordinates":[18.563639,51.221368],"type":"Point"},"properties":{"osm_id":"2665673887","tag":{"amenity":"waste_basket"}},"type":"Feature"},
	{"geometry":{"coordinates":[18.563678,51.221459],"type":"Point"},"properties":{"osm_id":"2665673890","tag":{"amenity":"waste_basket"}},"type":"Feature"},
	{"geometry":{"coordinates":[18.569458,51.220284],"type":"Point"},"properties":{"osm_id":"2812853427","tag":{"amenity":"waste_basket"}},"type":"Feature"},
	{"geometry":{"coordinates":[18.559797,51.221611],"type":"Point"},"properties":{"osm_id":"2812854244","tag":{"amenity":"waste_basket"}},"type":"Feature"},
	{"geometry":{"coordinates":[18.562245,51.222829],"type":"Point"},"properties":{"osm_id":"2812854245","tag":{"amenity":"waste_basket"}},"type":"Feature"},
	{"geometry":{"coordinates":[18.561341,51.222838],"type":"Point"},"properties":{"osm_id":"2812854257","tag":{"amenity":"waste_basket"}},"type":"Feature"},
	{"geometry":{"coordinates":[18.56251,51.221564],"type":"Point"},"properties":{"osm_id":"2812889672","tag":{"amenity":"waste_basket"}},"type":"Feature"},
	{"geometry":{"coordinates":[18.561639,51.222507],"type":"Point"},"properties":{"osm_id":"2812918435","tag":{"amenity":"waste_basket"}},"type":"Feature"},
	{"geometry":{"coordinates":[18.559381,51.222092],"type":"Point"},"properties":{"osm_id":"2812970075","tag":{"amenity":"waste_basket"}},"type":"Feature"},
	{"geometry":{"coordinates":[18.569286,51.219451],"type":"Point"},"properties":{"osm_id":"2813007908","tag":{"amenity":"waste_basket"}},"type":"Feature"},
	{"geometry":{"coordinates":[18.554639,51.22146],"type":"Point"},"properties":{"osm_id":"2813053423","tag":{"amenity":"recycling","recycling:glass_bottles":"yes","recycling_type":"container"}},"type":"Feature"},
	{"geometry":{"coordinates":[18.554635,51.221468],"type":"Point"},"properties":{"osm_id":"2813055173","tag":{"amenity":"recycling","recycling:paper":"yes","recycling_type":"container"}},"type":"Feature"},
	{"geometry":{"coordinates":[18.554632,51.221475],"type":"Point"},"properties":{"osm_id":"2813055174","tag":{"amenity":"recycling","recycling:plastic":"yes","recycling_type":"container"}},"type":"Feature"},
	{"geometry":{"coordinates":[18.557317,51.22168],"type":"Point"},"properties":{"osm_id":"2816021756","tag":{"amenity":"waste_basket"}},"type":"Feature"},
	{"geometry":{"coordinates":[18.560248,51.226064],"type":"Point"},"properties":{"osm_id":"2816027021","tag":{"amenity":"waste_basket"}},"type":"Feature"},
	{"geometry":{"coordinates":[18.56163,51.225287],"type":"Point"},"properties":{"osm_id":"2816028515","tag":{"amenity":"waste_basket"}},"type":"Feature"},
	{"geometry":{"coordinates":[18.578605,51.222685],"type":"Point"},"properties":{"osm_id":"5845759885","tag":{"amenity":"waste_disposal","operator":"miejsce zrzutu nieczysto\u00c5\u009bci z kampera"}},"type":"Feature"},
	{"geometry":{"coordinates":[18.581743,51.224162],"type":"Point"},"properties":{"osm_id":"8297419798","tag":{"amenity":"waste_basket"}},"type":"Feature"},
	{"geometry":{"coordinates":[18.581852,51.224019],"type":"Point"},"properties":{"osm_id":"8297419799","tag":{"amenity":"waste_basket"}},"type":"Feature"},
	{"geometry":{"coordinates":[18.582022,51.223919],"type":"Point"},"properties":{"osm_id":"8297419801","tag":{"amenity":"waste_basket"}},"type":"Feature"}
]
}
