{
"type": "FeatureCollection",
"features": [
	{"geometry":{"coordinates":[18.568967,50.108725],"type":"Point"},"properties":{"osm_id":"2415710858","tag":{"amenity":"waste_basket"}},"type":"Feature"},
	{"geometry":{"coordinates":[18.549334,50.09478],"type":"Point"},"properties":{"osm_id":"2573285387","tag":{"amenity":"waste_disposal","source:geometry":"geoportal.gov.pl:ortofoto","waste":"trash"}},"type":"Feature"},
	{"geometry":{"coordinates":[18.57473,50.099721],"type":"Point"},"properties":{"osm_id":"3636809376","tag":{"amenity":"waste_basket","waste":"trash"}},"type":"Feature"},
	{"geometry":{"coordinates":[18.545702,50.100023],"type":"Point"},"properties":{"osm_id":"4290851479","tag":{"amenity":"waste_basket","check_date":"2021-05-31"}},"type":"Feature"},
	{"geometry":{"coordinates":[18.588537,50.100105],"type":"Point"},"properties":{"osm_id":"5351491519","tag":{"amenity":"waste_basket","waste":"trash"}},"type":"Feature"},
	{"geometry":{"coordinates":[18.586334,50.111286],"type":"Point"},"properties":{"osm_id":"5351493396","tag":{"amenity":"waste_basket","waste":"trash"}},"type":"Feature"},
	{"geometry":{"coordinates":[18.592434,50.099282],"type":"Point"},"properties":{"osm_id":"5353148393","tag":{"amenity":"waste_basket","waste":"trash"}},"type":"Feature"},
	{"geometry":{"coordinates":[18.57924,50.117979],"type":"Point"},"properties":{"osm_id":"5568302537","tag":{"amenity":"waste_basket"}},"type":"Feature"},
	{"geometry":{"coordinates":[18.582386,50.099567],"type":"Point"},"properties":{"osm_id":"8792174302","tag":{"amenity":"waste_basket","waste":"trash"}},"type":"Feature"},
	{"geometry":{"coordinates":[18.582128,50.099575],"type":"Point"},"properties":{"osm_id":"8792174303","tag":{"amenity":"waste_basket","waste":"trash"}},"type":"Feature"},
	{"geometry":{"coordinates":[18.581996,50.099526],"type":"Point"},"properties":{"osm_id":"8792174310","tag":{"amenity":"waste_basket","waste":"trash"}},"type":"Feature"},
	{"geometry":{"coordinates":[18.582805,50.099517],"type":"Point"},"properties":{"osm_id":"8812778660","tag":{"amenity":"waste_basket","waste":"trash"}},"type":"Feature"},
	{"geometry":{"coordinates":[18.583447,50.099679],"type":"Point"},"properties":{"osm_id":"8812778662","tag":{"amenity":"waste_basket","waste":"trash"}},"type":"Feature"},
	{"geometry":{"coordinates":[18.582648,50.098874],"type":"Point"},"properties":{"osm_id":"8812778663","tag":{"amenity":"waste_basket","waste":"trash"}},"type":"Feature"},
	{"geometry":{"coordinates":[18.582483,50.098882],"type":"Point"},"properties":{"osm_id":"8812778664","tag":{"amenity":"waste_basket","waste":"trash"}},"type":"Feature"},
	{"geometry":{"coordinates":[18.573851,50.100181],"type":"Point"},"properties":{"osm_id":"8817919881","tag":{"amenity":"waste_basket","waste":"trash"}},"type":"Feature"},
	{"geometry":{"coordinates":[18.574342,50.099931],"type":"Point"},"properties":{"osm_id":"8817919883","tag":{"amenity":"waste_basket","waste":"trash"}},"type":"Feature"},
	{"geometry":{"coordinates":[18.580122,50.099639],"type":"Point"},"properties":{"osm_id":"8817919893","tag":{"amenity":"waste_basket","waste":"trash"}},"type":"Feature"},
	{"geometry":{"coordinates":[18.579673,50.099627],"type":"Point"},"properties":{"osm_id":"8817919895","tag":{"amenity":"waste_basket","waste":"trash"}},"type":"Feature"},
	{"geometry":{"coordinates":[18.579234,50.099664],"type":"Point"},"properties":{"osm_id":"8817919897","tag":{"amenity":"waste_basket","waste":"trash"}},"type":"Feature"},
	{"geometry":{"coordinates":[18.578825,50.099759],"type":"Point"},"properties":{"osm_id":"8817919898","tag":{"amenity":"waste_basket","waste":"trash"}},"type":"Feature"},
	{"geometry":{"coordinates":[18.578424,50.099937],"type":"Point"},"properties":{"osm_id":"8817919900","tag":{"amenity":"waste_basket","waste":"trash"}},"type":"Feature"},
	{"geometry":{"coordinates":[18.57584,50.099558],"type":"Point"},"properties":{"osm_id":"8817919910","tag":{"amenity":"waste_basket","waste":"trash"}},"type":"Feature"},
	{"geometry":{"coordinates":[18.576074,50.099701],"type":"Point"},"properties":{"osm_id":"8817919911","tag":{"amenity":"waste_basket","waste":"trash"}},"type":"Feature"},
	{"geometry":{"coordinates":[18.576554,50.099904],"type":"Point"},"properties":{"osm_id":"8817919912","tag":{"amenity":"waste_basket","waste":"trash"}},"type":"Feature"},
	{"geometry":{"coordinates":[18.576609,50.100029],"type":"Point"},"properties":{"osm_id":"8817919913","tag":{"amenity":"waste_basket","waste":"trash"}},"type":"Feature"},
	{"geometry":{"coordinates":[18.576894,50.100204],"type":"Point"},"properties":{"osm_id":"8817919914","tag":{"amenity":"waste_basket","waste":"trash"}},"type":"Feature"},
	{"geometry":{"coordinates":[18.577216,50.100402],"type":"Point"},"properties":{"osm_id":"8817919915","tag":{"amenity":"waste_basket","waste":"trash"}},"type":"Feature"}
]
}
