{
"type": "FeatureCollection",
"features": [
	{"geometry":{"coordinates":[18.60888,48.765012],"type":"Point"},"properties":{"barrier":"gate","osm_id":"301577965","tag":{"bicycle":"yes","foot":"yes","motorcar":"yes","motorcycle":"yes"}},"type":"Feature"},
	{"geometry":{"coordinates":[18.596074,48.774861],"type":"Point"},"properties":{"osm_id":"902849550","tag":{"amenity":"waste_basket","waste":"trash"}},"type":"Feature"},
	{"geometry":{"coordinates":[18.597727,48.774017],"type":"Point"},"properties":{"osm_id":"916912482","tag":{"amenity":"waste_basket","waste":"trash"}},"type":"Feature"},
	{"geometry":{"coordinates":[18.624011,48.771867],"type":"Point"},"properties":{"osm_id":"929972845","tag":{"amenity":"waste_basket"}},"type":"Feature"},
	{"geometry":{"coordinates":[18.622993,48.771452],"type":"Point"},"properties":{"is_in":"Prievidza","osm_id":"929972857","tag":{"amenity":"waste_basket"}},"type":"Feature"},
	{"geometry":{"coordinates":[18.623071,48.771497],"type":"Point"},"properties":{"is_in":"Prievidza","osm_id":"929972863","tag":{"amenity":"waste_basket"}},"type":"Feature"},
	{"geometry":{"coordinates":[18.623725,48.771462],"type":"Point"},"properties":{"osm_id":"929972888","tag":{"amenity":"waste_basket","waste":"trash"}},"type":"Feature"},
	{"geometry":{"coordinates":[18.623649,48.771421],"type":"Point"},"properties":{"osm_id":"929972898","tag":{"amenity":"waste_basket","waste":"trash"}},"type":"Feature"},
	{"geometry":{"coordinates":[18.623393,48.771482],"type":"Point"},"properties":{"osm_id":"929972926","tag":{"amenity":"waste_basket","waste":"trash"}},"type":"Feature"},
	{"geometry":{"coordinates":[18.626321,48.773564],"type":"Point"},"properties":{"is_in":"Prievidza","osm_id":"937867107","tag":{"amenity":"waste_basket"}},"type":"Feature"},
	{"geometry":{"coordinates":[18.623165,48.772309],"type":"Point"},"properties":{"osm_id":"937867135","tag":{"amenity":"waste_basket","waste":"trash"}},"type":"Feature"},
	{"geometry":{"coordinates":[18.623892,48.772406],"type":"Point"},"properties":{"osm_id":"937867151","tag":{"amenity":"waste_basket","waste":"trash"}},"type":"Feature"},
	{"geometry":{"coordinates":[18.622865,48.772376],"type":"Point"},"properties":{"osm_id":"937867407","tag":{"amenity":"waste_basket","waste":"trash"}},"type":"Feature"},
	{"geometry":{"coordinates":[18.623406,48.772412],"type":"Point"},"properties":{"osm_id":"937867443","tag":{"amenity":"waste_basket","waste":"trash"}},"type":"Feature"},
	{"geometry":{"coordinates":[18.623519,48.772289],"type":"Point"},"properties":{"osm_id":"937867451","tag":{"amenity":"waste_basket","waste":"trash"}},"type":"Feature"},
	{"geometry":{"coordinates":[18.619916,48.768896],"type":"Point"},"properties":{"is_in":"Prievidza","osm_id":"979085471","tag":{"amenity":"waste_basket"}},"type":"Feature"},
	{"geometry":{"coordinates":[18.620686,48.768664],"type":"Point"},"properties":{"osm_id":"985798854","tag":{"amenity":"waste_basket"}},"type":"Feature"},
	{"geometry":{"coordinates":[18.62495,48.771461],"type":"Point"},"properties":{"osm_id":"997463900","tag":{"amenity":"waste_basket"}},"type":"Feature"},
	{"geometry":{"coordinates":[18.624056,48.774443],"type":"Point"},"properties":{"osm_id":"1001168772","tag":{"amenity":"waste_basket","waste":"trash"}},"type":"Feature"},
	{"geometry":{"coordinates":[18.580799,48.779511],"type":"Point"},"properties":{"osm_id":"1012601903","tag":{"amenity":"waste_basket"}},"type":"Feature"},
	{"geometry":{"coordinates":[18.579899,48.779805],"type":"Point"},"properties":{"osm_id":"1012601927","tag":{"amenity":"waste_basket"}},"type":"Feature"},
	{"geometry":{"coordinates":[18.621464,48.771712],"type":"Point"},"properties":{"osm_id":"1121786074","tag":{"amenity":"waste_basket","waste":"trash"}},"type":"Feature"},
	{"geometry":{"coordinates":[18.624539,48.772858],"type":"Point"},"properties":{"osm_id":"1121786170","tag":{"amenity":"waste_basket","waste":"trash"}},"type":"Feature"},
	{"geometry":{"coordinates":[18.624885,48.772973],"type":"Point"},"properties":{"osm_id":"1121786179","tag":{"amenity":"waste_basket","waste":"trash"}},"type":"Feature"},
	{"geometry":{"coordinates":[18.578357,48.778795],"type":"Point"},"properties":{"osm_id":"1615285168","tag":{"amenity":"waste_basket"}},"type":"Feature"},
	{"geometry":{"coordinates":[18.596257,48.77674],"type":"Point"},"properties":{"osm_id":"2028404622","tag":{"amenity":"waste_basket","waste":"trash"}},"type":"Feature"},
	{"geometry":{"coordinates":[18.589614,48.782576],"type":"Point"},"properties":{"osm_id":"2089611282","tag":{"amenity":"waste_basket"}},"type":"Feature"},
	{"geometry":{"coordinates":[18.625381,48.779096],"type":"Point"},"properties":{"osm_id":"2122669241","tag":{"amenity":"waste_basket"}},"type":"Feature"},
	{"geometry":{"coordinates":[18.578659,48.779296],"type":"Point"},"properties":{"osm_id":"2616478413","tag":{"amenity":"waste_basket"}},"type":"Feature"},
	{"geometry":{"coordinates":[18.578914,48.779496],"type":"Point"},"properties":{"osm_id":"2616478415","tag":{"amenity":"waste_basket"}},"type":"Feature"},
	{"geometry":{"coordinates":[18.577727,48.781148],"type":"Point"},"properties":{"osm_id":"2616478434","tag":{"amenity":"waste_basket"}},"type":"Feature"},
	{"geometry":{"coordinates":[18.605308,48.770803],"type":"Point"},"properties":{"osm_id":"2699627850","tag":{"amenity":"waste_basket"}},"type":"Feature"},
	{"geometry":{"coordinates":[18.597575,48.773888],"type":"Point"},"properties":{"osm_id":"3164691866","tag":{"amenity":"waste_basket","waste":"trash"}},"type":"Feature"},
	{"geometry":{"coordinates":[18.597605,48.773918],"type":"Point"},"properties":{"osm_id":"3164691869","tag":{"amenity":"waste_basket","waste":"trash"}},"type":"Feature"},
	{"geometry":{"coordinates":[18.597478,48.77393],"type":"Point"},"properties":{"osm_id":"3164691872","tag":{"amenity":"waste_basket","waste":"trash"}},"type":"Feature"},
	{"geometry":{"coordinates":[18.597507,48.77396],"type":"Point"},"properties":{"osm_id":"3164691875","tag":{"amenity":"waste_basket","waste":"trash"}},"type":"Feature"},
	{"geometry":{"coordinates":[18.596201,48.774494],"type":"Point"},"properties":{"osm_id":"3164691880","tag":{"amenity":"waste_basket","waste":"trash"}},"type":"Feature"},
	{"geometry":{"coordinates":[18.597358,48.776079],"type":"Point"},"properties":{"osm_id":"3168655653","tag":{"amenity":"waste_basket","waste":"trash"}},"type":"Feature"},
	{"geometry":{"coordinates":[18.582767,48.779864],"type":"Point"},"properties":{"osm_id":"4084761601","tag":{"amenity":"waste_basket"}},"type":"Feature"},
	{"geometry":{"coordinates":[18.624242,48.772588],"type":"Point"},"properties":{"osm_id":"4329295335","tag":{"amenity":"waste_basket"}},"type":"Feature"},
	{"geometry":{"coordinates":[18.570063,48.776072],"type":"Point"},"properties":{"osm_id":"4408372388","tag":{"amenity":"waste_basket"}},"type":"Feature"},
	{"geometry":{"coordinates":[18.596247,48.768726],"type":"Point"},"properties":{"osm_id":"4443396901","tag":{"amenity":"waste_basket"}},"type":"Feature"},
	{"geometry":{"coordinates":[18.593128,48.770786],"type":"Point"},"properties":{"osm_id":"4443396902","tag":{"amenity":"waste_basket"}},"type":"Feature"},
	{"geometry":{"coordinates":[18.603522,48.771589],"type":"Point"},"properties":{"osm_id":"4927915773","tag":{"amenity":"waste_basket"}},"type":"Feature"},
	{"geometry":{"coordinates":[18.60315,48.770888],"type":"Point"},"properties":{"osm_id":"4927915774","tag":{"amenity":"waste_basket"}},"type":"Feature"},
	{"geometry":{"coordinates":[18.602753,48.770145],"type":"Point"},"properties":{"osm_id":"4927915775","tag":{"amenity":"waste_basket"}},"type":"Feature"},
	{"geometry":{"coordinates":[18.57893,48.781153],"type":"Point"},"properties":{"osm_id":"4952821219","tag":{"amenity":"waste_basket"}},"type":"Feature"},
	{"geometry":{"coordinates":[18.578353,48.781197],"type":"Point"},"properties":{"osm_id":"4952821220","tag":{"amenity":"waste_basket"}},"type":"Feature"},
	{"geometry":{"coordinates":[18.580172,48.779716],"type":"Point"},"properties":{"osm_id":"4964535599","tag":{"amenity":"waste_basket"}},"type":"Feature"},
	{"geometry":{"coordinates":[18.580576,48.779687],"type":"Point"},"properties":{"osm_id":"4964535610","tag":{"amenity":"waste_basket"}},"type":"Feature"},
	{"geometry":{"coordinates":[18.581588,48.779355],"type":"Point"},"properties":{"osm_id":"4964535620","tag":{"amenity":"waste_basket"}},"type":"Feature"},
	{"geometry":{"coordinates":[18.581876,48.779263],"type":"Point"},"properties":{"osm_id":"4964536821","tag":{"amenity":"waste_basket"}},"type":"Feature"},
	{"geometry":{"coordinates":[18.582354,48.779103],"type":"Point"},"properties":{"osm_id":"4964536822","tag":{"amenity":"waste_basket"}},"type":"Feature"},
	{"geometry":{"coordinates":[18.582758,48.778955],"type":"Point"},"properties":{"osm_id":"4964536833","tag":{"amenity":"waste_basket"}},"type":"Feature"},
	{"geometry":{"coordinates":[18.582466,48.778966],"type":"Point"},"properties":{"osm_id":"4964536838","tag":{"amenity":"waste_basket"}},"type":"Feature"},
	{"geometry":{"coordinates":[18.582227,48.779044],"type":"Point"},"properties":{"osm_id":"4964536839","tag":{"amenity":"waste_basket"}},"type":"Feature"},
	{"geometry":{"coordinates":[18.582065,48.779096],"type":"Point"},"properties":{"osm_id":"4964536842","tag":{"amenity":"waste_basket"}},"type":"Feature"},
	{"geometry":{"coordinates":[18.581776,48.779191],"type":"Point"},"properties":{"osm_id":"4964536849","tag":{"amenity":"waste_basket"}},"type":"Feature"},
	{"geometry":{"coordinates":[18.581356,48.779328],"type":"Point"},"properties":{"osm_id":"4964536856","tag":{"amenity":"waste_basket"}},"type":"Feature"},
	{"geometry":{"coordinates":[18.581078,48.779419],"type":"Point"},"properties":{"osm_id":"4964536863","tag":{"amenity":"waste_basket"}},"type":"Feature"},
	{"geometry":{"coordinates":[18.580446,48.779626],"type":"Point"},"properties":{"osm_id":"4964536876","tag":{"amenity":"waste_basket"}},"type":"Feature"},
	{"geometry":{"coordinates":[18.579618,48.779821],"type":"Point"},"properties":{"osm_id":"4964536882","tag":{"amenity":"waste_basket"}},"type":"Feature"},
	{"geometry":{"coordinates":[18.579521,48.77987],"type":"Point"},"properties":{"osm_id":"4964536883","tag":{"amenity":"waste_basket"}},"type":"Feature"},
	{"geometry":{"coordinates":[18.579263,48.780412],"type":"Point"},"properties":{"osm_id":"4964536884","tag":{"amenity":"waste_basket"}},"type":"Feature"},
	{"geometry":{"coordinates":[18.57307,48.774583],"type":"Point"},"properties":{"osm_id":"4964536893","tag":{"amenity":"waste_basket"}},"type":"Feature"},
	{"geometry":{"coordinates":[18.579402,48.780622],"type":"Point"},"properties":{"osm_id":"4964536898","tag":{"amenity":"waste_basket"}},"type":"Feature"},
	{"geometry":{"coordinates":[18.578926,48.780217],"type":"Point"},"properties":{"osm_id":"4964536903","tag":{"amenity":"waste_basket"}},"type":"Feature"},
	{"geometry":{"coordinates":[18.578995,48.779895],"type":"Point"},"properties":{"osm_id":"4964536904","tag":{"amenity":"waste_basket"}},"type":"Feature"},
	{"geometry":{"coordinates":[18.577781,48.778624],"type":"Point"},"properties":{"osm_id":"4964536914","tag":{"amenity":"waste_basket"}},"type":"Feature"},
	{"geometry":{"coordinates":[18.577898,48.77837],"type":"Point"},"properties":{"osm_id":"4964536919","tag":{"amenity":"waste_basket"}},"type":"Feature"},
	{"geometry":{"coordinates":[18.577634,48.778477],"type":"Point"},"properties":{"osm_id":"4964536924","tag":{"amenity":"waste_basket"}},"type":"Feature"},
	{"geometry":{"coordinates":[18.57748,48.778078],"type":"Point"},"properties":{"osm_id":"4964536927","tag":{"amenity":"waste_basket"}},"type":"Feature"},
	{"geometry":{"coordinates":[18.577326,48.777928],"type":"Point"},"properties":{"osm_id":"4964536929","tag":{"amenity":"waste_basket"}},"type":"Feature"},
	{"geometry":{"coordinates":[18.577164,48.778259],"type":"Point"},"properties":{"osm_id":"4964536930","tag":{"amenity":"waste_basket"}},"type":"Feature"},
	{"geometry":{"coordinates":[18.576726,48.7781],"type":"Point"},"properties":{"osm_id":"4964536935","tag":{"amenity":"waste_basket"}},"type":"Feature"},
	{"geometry":{"coordinates":[18.576928,48.778459],"type":"Point"},"properties":{"osm_id":"4964536936","tag":{"amenity":"waste_basket"}},"type":"Feature"},
	{"geometry":{"coordinates":[18.577002,48.778516],"type":"Point"},"properties":{"osm_id":"4964536937","tag":{"amenity":"waste_basket"}},"type":"Feature"},
	{"geometry":{"coordinates":[18.577356,48.778557],"type":"Point"},"properties":{"osm_id":"4964536946","tag":{"amenity":"waste_basket"}},"type":"Feature"},
	{"geometry":{"coordinates":[18.57724,48.778677],"type":"Point"},"properties":{"osm_id":"4964536948","tag":{"amenity":"waste_basket"}},"type":"Feature"},
	{"geometry":{"coordinates":[18.577404,48.780864],"type":"Point"},"properties":{"osm_id":"4964536955","tag":{"amenity":"waste_basket"}},"type":"Feature"},
	{"geometry":{"coordinates":[18.577283,48.780905],"type":"Point"},"properties":{"osm_id":"4964536956","tag":{"amenity":"waste_basket"}},"type":"Feature"},
	{"geometry":{"coordinates":[18.577707,48.780714],"type":"Point"},"properties":{"osm_id":"4964536958","tag":{"amenity":"waste_basket"}},"type":"Feature"},
	{"geometry":{"coordinates":[18.579059,48.780879],"type":"Point"},"properties":{"osm_id":"4964536959","tag":{"amenity":"waste_basket"}},"type":"Feature"},
	{"geometry":{"coordinates":[18.578045,48.780618],"type":"Point"},"properties":{"osm_id":"4964536960","tag":{"amenity":"waste_basket"}},"type":"Feature"},
	{"geometry":{"coordinates":[18.578497,48.780681],"type":"Point"},"properties":{"osm_id":"4964536964","tag":{"amenity":"waste_basket"}},"type":"Feature"},
	{"geometry":{"coordinates":[18.578752,48.780511],"type":"Point"},"properties":{"osm_id":"4964536966","tag":{"amenity":"waste_basket"}},"type":"Feature"},
	{"geometry":{"coordinates":[18.578889,48.780337],"type":"Point"},"properties":{"osm_id":"4964536967","tag":{"amenity":"waste_basket"}},"type":"Feature"},
	{"geometry":{"coordinates":[18.586941,48.782901],"type":"Point"},"properties":{"osm_id":"4966920490","tag":{"amenity":"waste_basket","waste":"trash"}},"type":"Feature"},
	{"geometry":{"coordinates":[18.588423,48.782666],"type":"Point"},"properties":{"osm_id":"5005228061","tag":{"amenity":"waste_basket","waste":"dog_excrement"}},"type":"Feature"},
	{"geometry":{"coordinates":[18.588237,48.782715],"type":"Point"},"properties":{"osm_id":"5005228063","tag":{"amenity":"waste_basket","waste":"dog_excrement"}},"type":"Feature"},
	{"geometry":{"coordinates":[18.629271,48.78475],"type":"Point"},"properties":{"osm_id":"5020285752","tag":{"amenity":"waste_basket"}},"type":"Feature"},
	{"geometry":{"coordinates":[18.626923,48.774172],"type":"Point"},"properties":{"osm_id":"5044281410","tag":{"amenity":"recycling","recycling:cans":"yes","recycling:clothes":"yes","recycling:glass":"yes","recycling:paper":"yes","recycling:plastic":"yes","recycling_type":"container"}},"type":"Feature"},
	{"geometry":{"coordinates":[18.581838,48.785851],"type":"Point"},"properties":{"osm_id":"5048356709","tag":{"amenity":"recycling","recycling:glass":"yes","recycling:paper":"yes","recycling:plastic":"yes","recycling_type":"container"}},"type":"Feature"},
	{"geometry":{"coordinates":[18.579861,48.780389],"type":"Point"},"properties":{"osm_id":"5048356710","tag":{"amenity":"recycling","recycling:glass":"yes","recycling_type":"container"}},"type":"Feature"},
	{"geometry":{"coordinates":[18.587452,48.780039],"type":"Point"},"properties":{"osm_id":"5048356711","tag":{"amenity":"recycling","recycling:cans":"yes","recycling:glass":"yes","recycling:paper":"yes","recycling:plastic":"yes","recycling_type":"container"}},"type":"Feature"},
	{"geometry":{"coordinates":[18.598926,48.770437],"type":"Point"},"properties":{"osm_id":"5048356714","tag":{"amenity":"recycling","recycling:cans":"yes","recycling:glass":"yes","recycling:paper":"yes","recycling:plastic":"yes","recycling_type":"container"}},"type":"Feature"},
	{"geometry":{"coordinates":[18.588331,48.783521],"type":"Point"},"properties":{"osm_id":"5048357697","tag":{"amenity":"recycling","recycling:cans":"yes","recycling:glass":"yes","recycling:paper":"yes","recycling:plastic":"yes","recycling_type":"container"}},"type":"Feature"},
	{"geometry":{"coordinates":[18.588538,48.784644],"type":"Point"},"properties":{"osm_id":"5048357698","tag":{"amenity":"recycling","recycling:glass":"yes","recycling:paper":"yes","recycling:plastic":"yes","recycling_type":"container"}},"type":"Feature"},
	{"geometry":{"coordinates":[18.587281,48.791985],"type":"Point"},"properties":{"osm_id":"5048357699","tag":{"amenity":"recycling","recycling:cans":"yes","recycling:glass":"yes","recycling:paper":"yes","recycling:plastic":"yes","recycling_type":"container"}},"type":"Feature"},
	{"geometry":{"coordinates":[18.579973,48.789127],"type":"Point"},"properties":{"osm_id":"5048357700","tag":{"amenity":"recycling","recycling:glass":"yes","recycling:paper":"yes","recycling:plastic":"yes","recycling_type":"container"}},"type":"Feature"},
	{"geometry":{"coordinates":[18.58968,48.783181],"type":"Point"},"properties":{"osm_id":"5048357701","tag":{"amenity":"recycling","recycling:cans":"yes","recycling:glass":"yes","recycling:paper":"yes","recycling:plastic":"yes","recycling_type":"container"}},"type":"Feature"},
	{"geometry":{"coordinates":[18.599169,48.771647],"type":"Point"},"properties":{"osm_id":"5052153295","tag":{"amenity":"recycling","recycling:clothes":"yes","recycling:glass":"yes","recycling:paper":"yes","recycling:plastic":"yes","recycling_type":"container"}},"type":"Feature"},
	{"geometry":{"coordinates":[18.603191,48.769561],"type":"Point"},"properties":{"osm_id":"5052153315","tag":{"amenity":"recycling","recycling:clothes":"yes","recycling:glass":"yes","recycling:paper":"yes","recycling:plastic":"yes","recycling_type":"container"}},"type":"Feature"},
	{"geometry":{"coordinates":[18.603689,48.77001],"type":"Point"},"properties":{"osm_id":"5052153316","tag":{"amenity":"recycling","recycling:glass":"yes","recycling:paper":"yes","recycling:plastic":"yes","recycling_type":"container"}},"type":"Feature"},
	{"geometry":{"coordinates":[18.602249,48.770622],"type":"Point"},"properties":{"osm_id":"5052153317","tag":{"amenity":"recycling","recycling:cans":"yes","recycling:glass":"yes","recycling:paper":"yes","recycling:plastic":"yes","recycling_type":"container"}},"type":"Feature"},
	{"geometry":{"coordinates":[18.600922,48.770888],"type":"Point"},"properties":{"osm_id":"5052153318","tag":{"amenity":"recycling","recycling:clothes":"yes","recycling:glass":"yes","recycling:paper":"yes","recycling:plastic":"yes","recycling_type":"container"}},"type":"Feature"},
	{"geometry":{"coordinates":[18.604202,48.771265],"type":"Point"},"properties":{"osm_id":"5052153319","tag":{"amenity":"recycling","recycling:clothes":"yes","recycling:glass":"yes","recycling:paper":"yes","recycling:plastic":"yes","recycling_type":"container"}},"type":"Feature"},
	{"geometry":{"coordinates":[18.604633,48.771779],"type":"Point"},"properties":{"osm_id":"5052153320","tag":{"amenity":"recycling","recycling:glass":"yes","recycling:paper":"yes","recycling:plastic":"yes","recycling_type":"container"}},"type":"Feature"},
	{"geometry":{"coordinates":[18.602921,48.771821],"type":"Point"},"properties":{"osm_id":"5052153621","tag":{"amenity":"recycling","recycling:glass":"yes","recycling:paper":"yes","recycling:plastic":"yes","recycling_type":"container"}},"type":"Feature"},
	{"geometry":{"coordinates":[18.60129,48.772554],"type":"Point"},"properties":{"osm_id":"5052153622","tag":{"amenity":"recycling","recycling:glass":"yes","recycling:paper":"yes","recycling:plastic":"yes","recycling_type":"container"}},"type":"Feature"},
	{"geometry":{"coordinates":[18.58749,48.783544],"type":"Point"},"properties":{"osm_id":"5052153680","tag":{"amenity":"recycling","recycling:clothes":"yes","recycling:glass":"yes","recycling:paper":"yes","recycling_type":"container"}},"type":"Feature"},
	{"geometry":{"coordinates":[18.603507,48.773031],"type":"Point"},"properties":{"osm_id":"5052153681","tag":{"amenity":"recycling","recycling:clothes":"yes","recycling:glass":"yes","recycling:paper":"yes","recycling:plastic":"yes","recycling_type":"container"}},"type":"Feature"},
	{"geometry":{"coordinates":[18.587996,48.777586],"type":"Point"},"properties":{"osm_id":"5052153682","tag":{"amenity":"recycling","recycling:glass":"yes","recycling:paper":"yes","recycling:plastic":"yes","recycling_type":"container"}},"type":"Feature"},
	{"geometry":{"coordinates":[18.605295,48.770499],"type":"Point"},"properties":{"osm_id":"5052153684","tag":{"amenity":"recycling","recycling:clothes":"yes","recycling_type":"container"}},"type":"Feature"},
	{"geometry":{"coordinates":[18.606241,48.770451],"type":"Point"},"properties":{"osm_id":"5052153685","tag":{"amenity":"recycling","recycling:clothes":"yes","recycling:glass":"yes","recycling:paper":"yes","recycling:plastic":"yes","recycling_type":"container"}},"type":"Feature"},
	{"geometry":{"coordinates":[18.60939,48.773447],"type":"Point"},"properties":{"osm_id":"5052153686","tag":{"amenity":"recycling","recycling:clothes":"yes","recycling_type":"container"}},"type":"Feature"},
	{"geometry":{"coordinates":[18.599289,48.773839],"type":"Point"},"properties":{"osm_id":"5052153687","tag":{"amenity":"recycling","recycling:beverage_cartons":"yes","recycling:glass":"yes","recycling:paper":"yes","recycling:plastic":"yes","recycling_type":"container"}},"type":"Feature"},
	{"geometry":{"coordinates":[18.601937,48.773898],"type":"Point"},"properties":{"osm_id":"5052153688","tag":{"amenity":"recycling","recycling:clothes":"yes","recycling:glass":"yes","recycling:paper":"yes","recycling:plastic":"yes","recycling_type":"container"}},"type":"Feature"},
	{"geometry":{"coordinates":[18.60238,48.773363],"type":"Point"},"properties":{"osm_id":"5052153689","tag":{"amenity":"recycling","recycling:glass":"yes","recycling:paper":"yes","recycling:plastic":"yes","recycling_type":"container"}},"type":"Feature"},
	{"geometry":{"coordinates":[18.60297,48.773495],"type":"Point"},"properties":{"osm_id":"5052153690","tag":{"amenity":"recycling","recycling:glass":"yes","recycling:paper":"yes","recycling:plastic":"yes","recycling_type":"container"}},"type":"Feature"},
	{"geometry":{"coordinates":[18.602657,48.774186],"type":"Point"},"properties":{"osm_id":"5052153691","tag":{"amenity":"recycling","recycling:clothes":"yes","recycling:glass":"yes","recycling:paper":"yes","recycling:plastic":"yes","recycling_type":"container"}},"type":"Feature"},
	{"geometry":{"coordinates":[18.603957,48.773798],"type":"Point"},"properties":{"osm_id":"5052153692","tag":{"amenity":"recycling","recycling:cans":"yes","recycling:glass":"yes","recycling:paper":"yes","recycling:plastic":"yes","recycling_type":"container"}},"type":"Feature"},
	{"geometry":{"coordinates":[18.603197,48.775681],"type":"Point"},"properties":{"osm_id":"5052153693","tag":{"amenity":"recycling","recycling:glass":"yes","recycling:paper":"yes","recycling:plastic":"yes","recycling_type":"container"}},"type":"Feature"},
	{"geometry":{"coordinates":[18.603537,48.775005],"type":"Point"},"properties":{"osm_id":"5052153694","tag":{"amenity":"recycling","recycling:glass":"yes","recycling:paper":"yes","recycling:plastic":"yes","recycling_type":"container"}},"type":"Feature"},
	{"geometry":{"coordinates":[18.603779,48.775437],"type":"Point"},"properties":{"osm_id":"5052153695","tag":{"amenity":"recycling","recycling:glass":"yes","recycling:paper":"yes","recycling:plastic":"yes","recycling_type":"container"}},"type":"Feature"},
	{"geometry":{"coordinates":[18.604381,48.775309],"type":"Point"},"properties":{"osm_id":"5052153696","tag":{"amenity":"recycling","recycling:clothes":"yes","recycling:glass":"yes","recycling:paper":"yes","recycling:plastic":"yes","recycling_type":"container"}},"type":"Feature"},
	{"geometry":{"coordinates":[18.605021,48.775145],"type":"Point"},"properties":{"osm_id":"5052153697","tag":{"amenity":"recycling","recycling:beverage_cartons":"yes","recycling:cans":"yes","recycling:glass":"yes","recycling:paper":"yes","recycling:plastic":"yes","recycling_type":"container"}},"type":"Feature"},
	{"geometry":{"coordinates":[18.605933,48.774998],"type":"Point"},"properties":{"osm_id":"5052153701","tag":{"amenity":"recycling","recycling:glass":"yes","recycling:paper":"yes","recycling:plastic":"yes","recycling_type":"container"}},"type":"Feature"},
	{"geometry":{"coordinates":[18.605795,48.77497],"type":"Point"},"properties":{"osm_id":"5052153702","tag":{"amenity":"recycling","recycling:glass":"yes","recycling:paper":"yes","recycling:plastic":"yes","recycling_type":"container"}},"type":"Feature"},
	{"geometry":{"coordinates":[18.607136,48.774471],"type":"Point"},"properties":{"osm_id":"5052153703","tag":{"amenity":"recycling","recycling:glass":"yes","recycling:paper":"yes","recycling:plastic":"yes","recycling_type":"container"}},"type":"Feature"},
	{"geometry":{"coordinates":[18.606494,48.774688],"type":"Point"},"properties":{"osm_id":"5052153704","tag":{"amenity":"recycling","recycling:clothes":"yes","recycling:glass":"yes","recycling:paper":"yes","recycling:plastic":"yes","recycling_type":"container"}},"type":"Feature"},
	{"geometry":{"coordinates":[18.606754,48.774182],"type":"Point"},"properties":{"osm_id":"5052153705","tag":{"amenity":"recycling","recycling:glass":"yes","recycling:paper":"yes","recycling:plastic":"yes","recycling_type":"container"}},"type":"Feature"},
	{"geometry":{"coordinates":[18.606378,48.773046],"type":"Point"},"properties":{"osm_id":"5052153706","tag":{"amenity":"recycling","recycling:clothes":"yes","recycling:glass":"yes","recycling:paper":"yes","recycling:plastic":"yes","recycling_type":"container"}},"type":"Feature"},
	{"geometry":{"coordinates":[18.606064,48.772499],"type":"Point"},"properties":{"osm_id":"5052153707","tag":{"amenity":"recycling","recycling:beverage_cartons":"yes","recycling:cans":"yes","recycling:glass":"yes","recycling:paper":"yes","recycling:plastic":"yes","recycling_type":"container"}},"type":"Feature"},
	{"geometry":{"coordinates":[18.606546,48.772268],"type":"Point"},"properties":{"osm_id":"5052153710","tag":{"amenity":"recycling","recycling:glass":"yes","recycling:paper":"yes","recycling:plastic":"yes","recycling_type":"container"}},"type":"Feature"},
	{"geometry":{"coordinates":[18.607391,48.772364],"type":"Point"},"properties":{"osm_id":"5052153711","tag":{"amenity":"recycling","recycling:cans":"yes","recycling:glass":"yes","recycling:paper":"yes","recycling:plastic":"yes","recycling_type":"container"}},"type":"Feature"},
	{"geometry":{"coordinates":[18.608174,48.773211],"type":"Point"},"properties":{"osm_id":"5052153712","tag":{"amenity":"recycling","recycling:glass":"yes","recycling:paper":"yes","recycling:plastic":"yes","recycling_type":"container"}},"type":"Feature"},
	{"geometry":{"coordinates":[18.6088,48.773685],"type":"Point"},"properties":{"osm_id":"5052153714","tag":{"amenity":"recycling","recycling:glass":"yes","recycling:paper":"yes","recycling:plastic":"yes","recycling_type":"container"}},"type":"Feature"},
	{"geometry":{"coordinates":[18.610027,48.773326],"type":"Point"},"properties":{"osm_id":"5052153715","tag":{"amenity":"recycling","recycling:glass":"yes","recycling:paper":"yes","recycling:plastic":"yes","recycling_type":"container"}},"type":"Feature"},
	{"geometry":{"coordinates":[18.609597,48.772596],"type":"Point"},"properties":{"osm_id":"5052153720","tag":{"amenity":"recycling","recycling:glass":"yes","recycling:paper":"yes","recycling:plastic":"yes","recycling_type":"container"}},"type":"Feature"},
	{"geometry":{"coordinates":[18.60963,48.771935],"type":"Point"},"properties":{"osm_id":"5052153821","tag":{"amenity":"recycling","recycling:glass":"yes","recycling:paper":"yes","recycling:plastic":"yes","recycling_type":"container"}},"type":"Feature"},
	{"geometry":{"coordinates":[18.607927,48.770774],"type":"Point"},"properties":{"osm_id":"5052153822","tag":{"amenity":"recycling","recycling:glass":"yes","recycling:paper":"yes","recycling:plastic":"yes","recycling_type":"container"}},"type":"Feature"},
	{"geometry":{"coordinates":[18.606455,48.771048],"type":"Point"},"properties":{"osm_id":"5052153823","tag":{"amenity":"recycling","recycling:glass":"yes","recycling:paper":"yes","recycling:plastic":"yes","recycling_type":"container"}},"type":"Feature"},
	{"geometry":{"coordinates":[18.605507,48.771321],"type":"Point"},"properties":{"osm_id":"5052153824","tag":{"amenity":"recycling","recycling:glass":"yes","recycling:paper":"yes","recycling:plastic":"yes","recycling_type":"container"}},"type":"Feature"},
	{"geometry":{"coordinates":[18.60212,48.771112],"type":"Point"},"properties":{"osm_id":"5052153825","tag":{"amenity":"recycling","recycling:glass":"yes","recycling:paper":"yes","recycling:plastic":"yes","recycling_type":"container"}},"type":"Feature"},
	{"geometry":{"coordinates":[18.601575,48.771603],"type":"Point"},"properties":{"osm_id":"5052153826","tag":{"amenity":"recycling","recycling:glass":"yes","recycling:paper":"yes","recycling:plastic":"yes","recycling_type":"container"}},"type":"Feature"},
	{"geometry":{"coordinates":[18.586289,48.787517],"type":"Point"},"properties":{"osm_id":"5052153828","tag":{"amenity":"recycling","recycling:cans":"yes","recycling:glass":"yes","recycling:paper":"yes","recycling:plastic":"yes","recycling_type":"container"}},"type":"Feature"},
	{"geometry":{"coordinates":[18.566673,48.780364],"type":"Point"},"properties":{"osm_id":"5064788541","tag":{"amenity":"waste_basket"}},"type":"Feature"},
	{"geometry":{"coordinates":[18.57484,48.771374],"type":"Point"},"properties":{"osm_id":"5108305134","tag":{"amenity":"recycling","recycling:glass":"yes","recycling:plastic":"yes","recycling_type":"container"}},"type":"Feature"},
	{"geometry":{"coordinates":[18.574925,48.764028],"type":"Point"},"properties":{"osm_id":"5108305139","tag":{"amenity":"recycling","recycling:glass":"yes","recycling:plastic":"yes","recycling_type":"container"}},"type":"Feature"},
	{"geometry":{"coordinates":[18.5756,48.764741],"type":"Point"},"properties":{"osm_id":"5108305140","tag":{"amenity":"recycling","recycling:glass":"yes","recycling:plastic":"yes","recycling_type":"container"}},"type":"Feature"},
	{"geometry":{"coordinates":[18.584599,48.795006],"type":"Point"},"properties":{"osm_id":"5139581291","tag":{"amenity":"recycling","recycling:cans":"yes","recycling:glass":"yes","recycling:paper":"yes","recycling:plastic":"yes","recycling_type":"container"}},"type":"Feature"},
	{"geometry":{"coordinates":[18.632361,48.77013],"type":"Point"},"properties":{"osm_id":"5151621904","tag":{"amenity":"recycling","recycling:clothes":"yes","recycling_type":"container"}},"type":"Feature"},
	{"geometry":{"coordinates":[18.632512,48.769821],"type":"Point"},"properties":{"osm_id":"5151621905","tag":{"amenity":"recycling","recycling:glass":"yes","recycling:paper":"yes","recycling:plastic":"yes","recycling_type":"container"}},"type":"Feature"},
	{"geometry":{"coordinates":[18.614671,48.780145],"type":"Point"},"properties":{"osm_id":"5151622641","tag":{"amenity":"waste_basket","waste":"trash"}},"type":"Feature"},
	{"geometry":{"coordinates":[18.616249,48.770323],"type":"Point"},"properties":{"osm_id":"5151623099","tag":{"amenity":"recycling","recycling:cans":"yes","recycling:clothes":"yes","recycling:glass":"yes","recycling:paper":"yes","recycling:plastic":"yes","recycling_type":"container"}},"type":"Feature"},
	{"geometry":{"coordinates":[18.632052,48.786317],"type":"Point"},"properties":{"osm_id":"5151623120","tag":{"amenity":"recycling","recycling:clothes":"yes","recycling:glass":"yes","recycling:paper":"yes","recycling:plastic":"yes","recycling_type":"container"}},"type":"Feature"},
	{"geometry":{"coordinates":[18.632471,48.785968],"type":"Point"},"properties":{"osm_id":"5151623521","tag":{"amenity":"recycling","recycling:glass":"yes","recycling:paper":"yes","recycling:plastic":"yes","recycling_type":"container"}},"type":"Feature"},
	{"geometry":{"coordinates":[18.622408,48.769381],"type":"Point"},"properties":{"osm_id":"5260405791","tag":{"amenity":"waste_basket"}},"type":"Feature"},
	{"geometry":{"coordinates":[18.622258,48.769718],"type":"Point"},"properties":{"osm_id":"5260405792","tag":{"amenity":"waste_basket"}},"type":"Feature"},
	{"geometry":{"coordinates":[18.628,48.785728],"type":"Point"},"properties":{"osm_id":"5352241329","tag":{"amenity":"waste_basket"}},"type":"Feature"},
	{"geometry":{"coordinates":[18.628111,48.785006],"type":"Point"},"properties":{"osm_id":"5352241330","tag":{"amenity":"waste_basket"}},"type":"Feature"},
	{"geometry":{"coordinates":[18.628265,48.786175],"type":"Point"},"properties":{"osm_id":"5352241334","tag":{"amenity":"waste_basket"}},"type":"Feature"},
	{"geometry":{"coordinates":[18.599172,48.77166],"type":"Point"},"properties":{"osm_id":"5440153472","tag":{"amenity":"waste_disposal","waste":"trash"}},"type":"Feature"},
	{"geometry":{"coordinates":[18.598901,48.770446],"type":"Point"},"properties":{"osm_id":"5440153473","tag":{"amenity":"waste_disposal","waste":"trash"}},"type":"Feature"},
	{"geometry":{"coordinates":[18.598731,48.769678],"type":"Point"},"properties":{"osm_id":"5440153476","tag":{"amenity":"waste_disposal","waste":"trash"}},"type":"Feature"},
	{"geometry":{"coordinates":[18.598974,48.768859],"type":"Point"},"properties":{"osm_id":"5440153477","tag":{"amenity":"waste_disposal","waste":"trash"}},"type":"Feature"},
	{"geometry":{"coordinates":[18.599521,48.768328],"type":"Point"},"properties":{"osm_id":"5440153478","tag":{"amenity":"waste_disposal","waste":"trash"}},"type":"Feature"},
	{"geometry":{"coordinates":[18.600164,48.767779],"type":"Point"},"properties":{"osm_id":"5440153479","tag":{"amenity":"waste_disposal","waste":"trash"}},"type":"Feature"},
	{"geometry":{"coordinates":[18.600962,48.76986],"type":"Point"},"properties":{"osm_id":"5440153480","tag":{"amenity":"waste_disposal","waste":"trash"}},"type":"Feature"},
	{"geometry":{"coordinates":[18.601203,48.769346],"type":"Point"},"properties":{"osm_id":"5440153481","tag":{"amenity":"waste_disposal","waste":"trash"}},"type":"Feature"},
	{"geometry":{"coordinates":[18.600404,48.767426],"type":"Point"},"properties":{"osm_id":"5440153482","tag":{"amenity":"waste_disposal","waste":"trash"}},"type":"Feature"},
	{"geometry":{"coordinates":[18.610023,48.773303],"type":"Point"},"properties":{"osm_id":"5488344875","tag":{"amenity":"waste_disposal","waste":"trash"}},"type":"Feature"},
	{"geometry":{"coordinates":[18.625974,48.770846],"type":"Point"},"properties":{"osm_id":"5711167521","tag":{"amenity":"waste_basket"}},"type":"Feature"},
	{"geometry":{"coordinates":[18.577175,48.778445],"type":"Point"},"properties":{"osm_id":"5741402543","tag":{"amenity":"waste_basket"}},"type":"Feature"},
	{"geometry":{"coordinates":[18.580954,48.777342],"type":"Point"},"properties":{"osm_id":"5762111736","tag":{"amenity":"waste_basket"}},"type":"Feature"},
	{"geometry":{"coordinates":[18.580937,48.77735],"type":"Point"},"properties":{"osm_id":"5762111737","tag":{"amenity":"waste_basket"}},"type":"Feature"},
	{"geometry":{"coordinates":[18.606724,48.779919],"type":"Point"},"properties":{"osm_id":"5799354660","tag":{"amenity":"waste_basket","level":"0","waste":"trash"}},"type":"Feature"},
	{"geometry":{"coordinates":[18.607902,48.770717],"type":"Point"},"properties":{"osm_id":"5810000551","tag":{"amenity":"waste_disposal","waste":"trash"}},"type":"Feature"},
	{"geometry":{"coordinates":[18.606299,48.770461],"type":"Point"},"properties":{"osm_id":"5810000552","tag":{"amenity":"waste_disposal","waste":"trash"}},"type":"Feature"},
	{"geometry":{"coordinates":[18.604466,48.770145],"type":"Point"},"properties":{"osm_id":"5810002353","tag":{"amenity":"waste_disposal","waste":"trash"}},"type":"Feature"},
	{"geometry":{"coordinates":[18.603666,48.770034],"type":"Point"},"properties":{"osm_id":"5810002354","tag":{"amenity":"waste_disposal","waste":"trash"}},"type":"Feature"},
	{"geometry":{"coordinates":[18.603174,48.769574],"type":"Point"},"properties":{"osm_id":"5810002359","tag":{"amenity":"waste_disposal","waste":"trash"}},"type":"Feature"},
	{"geometry":{"coordinates":[18.602252,48.769404],"type":"Point"},"properties":{"osm_id":"5810002360","tag":{"amenity":"waste_disposal","waste":"trash"}},"type":"Feature"},
	{"geometry":{"coordinates":[18.632488,48.785991],"type":"Point"},"properties":{"osm_id":"5812695023","tag":{"amenity":"waste_disposal","waste":"trash"}},"type":"Feature"},
	{"geometry":{"coordinates":[18.631993,48.786336],"type":"Point"},"properties":{"osm_id":"5812695026","tag":{"amenity":"waste_disposal","waste":"trash"}},"type":"Feature"},
	{"geometry":{"coordinates":[18.608946,48.780202],"type":"Point"},"properties":{"osm_id":"5826858027","tag":{"amenity":"waste_basket","level":"0","waste":"trash"}},"type":"Feature"},
	{"geometry":{"coordinates":[18.609042,48.780214],"type":"Point"},"properties":{"osm_id":"5826858029","tag":{"amenity":"waste_basket","level":"0","waste":"trash"}},"type":"Feature"},
	{"geometry":{"coordinates":[18.608128,48.780098],"type":"Point"},"properties":{"osm_id":"5826858033","tag":{"amenity":"waste_basket","level":"0","waste":"trash"}},"type":"Feature"},
	{"geometry":{"coordinates":[18.60789,48.780068],"type":"Point"},"properties":{"osm_id":"5826858036","tag":{"amenity":"waste_basket","level":"0","waste":"trash"}},"type":"Feature"},
	{"geometry":{"coordinates":[18.607619,48.780033],"type":"Point"},"properties":{"osm_id":"5826858038","tag":{"amenity":"waste_basket","level":"0","waste":"trash"}},"type":"Feature"},
	{"geometry":{"coordinates":[18.607695,48.780029],"type":"Point"},"properties":{"osm_id":"5826858040","tag":{"amenity":"waste_basket","level":"1","waste":"trash"}},"type":"Feature"},
	{"geometry":{"coordinates":[18.607442,48.780011],"type":"Point"},"properties":{"osm_id":"5826858041","tag":{"amenity":"waste_basket","level":"1","waste":"trash"}},"type":"Feature"},
	{"geometry":{"coordinates":[18.609435,48.780265],"type":"Point"},"properties":{"osm_id":"5826858048","tag":{"amenity":"waste_basket","level":"1","waste":"trash"}},"type":"Feature"},
	{"geometry":{"coordinates":[18.609319,48.78025],"type":"Point"},"properties":{"osm_id":"5826858049","tag":{"amenity":"waste_basket","level":"1","waste":"trash"}},"type":"Feature"},
	{"geometry":{"coordinates":[18.608718,48.780173],"type":"Point"},"properties":{"osm_id":"5826858053","tag":{"amenity":"waste_basket","level":"1","waste":"trash"}},"type":"Feature"},
	{"geometry":{"coordinates":[18.608219,48.78011],"type":"Point"},"properties":{"osm_id":"5826858055","tag":{"amenity":"waste_basket","level":"1","waste":"trash"}},"type":"Feature"},
	{"geometry":{"coordinates":[18.607074,48.779964],"type":"Point"},"properties":{"osm_id":"5826858057","tag":{"amenity":"waste_basket","level":"0","waste":"trash"}},"type":"Feature"},
	{"geometry":{"coordinates":[18.604792,48.769219],"type":"Point"},"properties":{"osm_id":"5834513537","tag":{"amenity":"waste_basket","waste":"dog_excrement"}},"type":"Feature"},
	{"geometry":{"coordinates":[18.609072,48.770048],"type":"Point"},"properties":{"osm_id":"5834513539","tag":{"amenity":"waste_basket","waste":"dog_excrement"}},"type":"Feature"},
	{"geometry":{"coordinates":[18.615884,48.783614],"type":"Point"},"properties":{"osm_id":"5834517893","tag":{"amenity":"waste_basket","waste":"dog_excrement"}},"type":"Feature"},
	{"geometry":{"coordinates":[18.626461,48.779505],"type":"Point"},"properties":{"osm_id":"5834517899","tag":{"amenity":"waste_basket","waste":"dog_excrement"}},"type":"Feature"},
	{"geometry":{"coordinates":[18.63207,48.786472],"type":"Point"},"properties":{"osm_id":"5834517944","tag":{"amenity":"waste_basket","waste":"dog_excrement"}},"type":"Feature"},
	{"geometry":{"coordinates":[18.596971,48.776303],"type":"Point"},"properties":{"osm_id":"5834517996","tag":{"amenity":"waste_basket","waste":"dog_excrement"}},"type":"Feature"},
	{"geometry":{"coordinates":[18.616812,48.769446],"type":"Point"},"properties":{"osm_id":"5834518010","tag":{"amenity":"waste_basket","waste":"dog_excrement"}},"type":"Feature"},
	{"geometry":{"coordinates":[18.617646,48.769315],"type":"Point"},"properties":{"osm_id":"5834518011","tag":{"amenity":"waste_basket","waste":"dog_excrement"}},"type":"Feature"},
	{"geometry":{"coordinates":[18.607432,48.772333],"type":"Point"},"properties":{"osm_id":"5836562593","tag":{"amenity":"waste_disposal","waste":"trash"}},"type":"Feature"},
	{"geometry":{"coordinates":[18.629247,48.784207],"type":"Point"},"properties":{"osm_id":"5836562658","tag":{"amenity":"waste_basket","waste":"trash"}},"type":"Feature"},
	{"geometry":{"coordinates":[18.629128,48.784469],"type":"Point"},"properties":{"osm_id":"5836562667","tag":{"amenity":"waste_basket","waste":"trash"}},"type":"Feature"},
	{"geometry":{"coordinates":[18.580464,48.779366],"type":"Point"},"properties":{"osm_id":"5836562802","tag":{"amenity":"waste_disposal","waste":"trash"}},"type":"Feature"},
	{"geometry":{"coordinates":[18.617828,48.777757],"type":"Point"},"properties":{"osm_id":"5849347517","tag":{"amenity":"recycling","recycling:clothes":"yes","recycling:glass":"yes","recycling:paper":"yes","recycling:plastic":"yes","recycling_type":"container"}},"type":"Feature"},
	{"geometry":{"coordinates":[18.619083,48.779069],"type":"Point"},"properties":{"osm_id":"5849347518","tag":{"amenity":"waste_basket","waste":"trash"}},"type":"Feature"},
	{"geometry":{"coordinates":[18.619266,48.779243],"type":"Point"},"properties":{"osm_id":"5849347519","tag":{"amenity":"recycling","recycling:clothes":"yes","recycling:glass":"yes","recycling:paper":"yes","recycling:plastic":"yes","recycling_type":"container"}},"type":"Feature"},
	{"geometry":{"coordinates":[18.619889,48.783341],"type":"Point"},"properties":{"osm_id":"5849347532","tag":{"amenity":"waste_basket"}},"type":"Feature"},
	{"geometry":{"coordinates":[18.619327,48.783608],"type":"Point"},"properties":{"osm_id":"5849347541","tag":{"amenity":"waste_basket"}},"type":"Feature"},
	{"geometry":{"coordinates":[18.589396,48.783425],"type":"Point"},"properties":{"osm_id":"5851498016","tag":{"amenity":"waste_basket","waste":"trash"}},"type":"Feature"},
	{"geometry":{"coordinates":[18.589257,48.783516],"type":"Point"},"properties":{"osm_id":"5851498048","tag":{"amenity":"waste_basket","waste":"trash"}},"type":"Feature"},
	{"geometry":{"coordinates":[18.589094,48.782557],"type":"Point"},"properties":{"osm_id":"5851498058","tag":{"amenity":"waste_basket","waste":"trash"}},"type":"Feature"},
	{"geometry":{"coordinates":[18.587555,48.791578],"type":"Point"},"properties":{"osm_id":"5851498390","tag":{"amenity":"waste_basket","waste":"dog_excrement"}},"type":"Feature"},
	{"geometry":{"coordinates":[18.585545,48.791745],"type":"Point"},"properties":{"osm_id":"5851498472","tag":{"amenity":"waste_basket","waste":"dog_excrement"}},"type":"Feature"},
	{"geometry":{"coordinates":[18.586687,48.785545],"type":"Point"},"properties":{"osm_id":"5851498474","tag":{"amenity":"waste_basket","waste":"dog_excrement"}},"type":"Feature"},
	{"geometry":{"coordinates":[18.588267,48.783987],"type":"Point"},"properties":{"osm_id":"5851498478","tag":{"amenity":"waste_basket","waste":"trash"}},"type":"Feature"},
	{"geometry":{"coordinates":[18.588177,48.783694],"type":"Point"},"properties":{"osm_id":"5851498480","tag":{"amenity":"waste_basket","waste":"trash"}},"type":"Feature"},
	{"geometry":{"coordinates":[18.587472,48.783493],"type":"Point"},"properties":{"osm_id":"5851498481","tag":{"amenity":"waste_basket","waste":"trash"}},"type":"Feature"},
	{"geometry":{"coordinates":[18.587562,48.783653],"type":"Point"},"properties":{"osm_id":"5851498482","tag":{"amenity":"waste_basket","waste":"dog_excrement"}},"type":"Feature"},
	{"geometry":{"coordinates":[18.588089,48.784963],"type":"Point"},"properties":{"osm_id":"5851498483","tag":{"amenity":"waste_basket"}},"type":"Feature"},
	{"geometry":{"coordinates":[18.588685,48.784581],"type":"Point"},"properties":{"osm_id":"5851498485","tag":{"amenity":"waste_basket","waste":"dog_excrement"}},"type":"Feature"},
	{"geometry":{"coordinates":[18.589167,48.784448],"type":"Point"},"properties":{"osm_id":"5851498486","tag":{"amenity":"waste_basket","waste":"dog_excrement"}},"type":"Feature"},
	{"geometry":{"coordinates":[18.59034,48.783234],"type":"Point"},"properties":{"osm_id":"5851498487","tag":{"amenity":"waste_basket","waste":"dog_excrement"}},"type":"Feature"},
	{"geometry":{"coordinates":[18.589394,48.782563],"type":"Point"},"properties":{"osm_id":"5851498488","tag":{"amenity":"waste_basket","waste":"dog_excrement"}},"type":"Feature"},
	{"geometry":{"coordinates":[18.594847,48.775676],"type":"Point"},"properties":{"osm_id":"5882409660","tag":{"amenity":"waste_basket","waste":"trash"}},"type":"Feature"},
	{"geometry":{"coordinates":[18.596754,48.776663],"type":"Point"},"properties":{"osm_id":"5882409668","tag":{"amenity":"waste_basket","waste":"trash"}},"type":"Feature"},
	{"geometry":{"coordinates":[18.595567,48.775685],"type":"Point"},"properties":{"osm_id":"5882409673","tag":{"amenity":"waste_basket","waste":"trash"}},"type":"Feature"},
	{"geometry":{"coordinates":[18.595807,48.776781],"type":"Point"},"properties":{"osm_id":"5882409677","tag":{"amenity":"waste_basket","waste":"trash"}},"type":"Feature"},
	{"geometry":{"coordinates":[18.581966,48.779357],"type":"Point"},"properties":{"osm_id":"5884656729","tag":{"amenity":"waste_basket","waste":"trash"}},"type":"Feature"},
	{"geometry":{"coordinates":[18.582474,48.779554],"type":"Point"},"properties":{"osm_id":"5884656731","tag":{"amenity":"waste_basket","waste":"trash"}},"type":"Feature"},
	{"geometry":{"coordinates":[18.583256,48.779498],"type":"Point"},"properties":{"osm_id":"5884656732","tag":{"amenity":"waste_basket","waste":"trash"}},"type":"Feature"},
	{"geometry":{"coordinates":[18.583147,48.779366],"type":"Point"},"properties":{"osm_id":"5884656737","tag":{"amenity":"waste_basket","waste":"trash"}},"type":"Feature"},
	{"geometry":{"coordinates":[18.595952,48.77821],"type":"Point"},"properties":{"osm_id":"5884656988","tag":{"amenity":"waste_basket","waste":"trash"}},"type":"Feature"},
	{"geometry":{"coordinates":[18.589928,48.782333],"type":"Point"},"properties":{"osm_id":"5884657001","tag":{"amenity":"waste_basket","waste":"trash"}},"type":"Feature"},
	{"geometry":{"coordinates":[18.590133,48.782423],"type":"Point"},"properties":{"osm_id":"5884657007","tag":{"amenity":"waste_basket","waste":"trash"}},"type":"Feature"},
	{"geometry":{"coordinates":[18.584124,48.780989],"type":"Point"},"properties":{"osm_id":"5884657010","tag":{"amenity":"waste_basket","waste":"trash"}},"type":"Feature"},
	{"geometry":{"coordinates":[18.581795,48.78595],"type":"Point"},"properties":{"osm_id":"5884657017","tag":{"amenity":"waste_basket","waste":"dog_excrement"}},"type":"Feature"},
	{"geometry":{"coordinates":[18.583666,48.778825],"type":"Point"},"properties":{"osm_id":"5884657080","tag":{"amenity":"waste_basket"}},"type":"Feature"},
	{"geometry":{"coordinates":[18.584094,48.77872],"type":"Point"},"properties":{"osm_id":"5884657082","tag":{"amenity":"waste_basket"}},"type":"Feature"},
	{"geometry":{"coordinates":[18.586756,48.778158],"type":"Point"},"properties":{"osm_id":"5884657310","tag":{"amenity":"waste_basket","waste":"dog_excrement"}},"type":"Feature"},
	{"geometry":{"coordinates":[18.577122,48.766437],"type":"Point"},"properties":{"osm_id":"5923908547","tag":{"amenity":"waste_basket","waste":"dog_excrement"}},"type":"Feature"},
	{"geometry":{"coordinates":[18.576196,48.76504],"type":"Point"},"properties":{"osm_id":"5923908548","tag":{"amenity":"waste_basket","waste":"dog_excrement"}},"type":"Feature"},
	{"geometry":{"coordinates":[18.575775,48.764155],"type":"Point"},"properties":{"osm_id":"5923908549","tag":{"amenity":"waste_basket","waste":"dog_excrement"}},"type":"Feature"},
	{"geometry":{"coordinates":[18.574109,48.762991],"type":"Point"},"properties":{"osm_id":"5923908550","tag":{"amenity":"waste_basket","waste":"dog_excrement"}},"type":"Feature"},
	{"geometry":{"coordinates":[18.572639,48.76211],"type":"Point"},"properties":{"osm_id":"5923908551","tag":{"amenity":"waste_basket","waste":"dog_excrement"}},"type":"Feature"},
	{"geometry":{"coordinates":[18.617936,48.781991],"type":"Point"},"properties":{"osm_id":"5975671645","tag":{"amenity":"recycling","recycling:cans":"yes","recycling:glass":"yes","recycling:paper":"yes","recycling:plastic":"yes","recycling_type":"container"}},"type":"Feature"},
	{"geometry":{"coordinates":[18.617479,48.781569],"type":"Point"},"properties":{"osm_id":"5975671652","tag":{"amenity":"recycling","recycling:cans":"yes","recycling:glass":"yes","recycling:paper":"yes","recycling:plastic":"yes","recycling_type":"container"}},"type":"Feature"},
	{"geometry":{"coordinates":[18.616877,48.781012],"type":"Point"},"properties":{"osm_id":"5975671655","tag":{"amenity":"recycling","recycling:glass":"yes","recycling:paper":"yes","recycling:plastic":"yes","recycling_type":"container"}},"type":"Feature"},
	{"geometry":{"coordinates":[18.615902,48.780086],"type":"Point"},"properties":{"osm_id":"5975671656","tag":{"amenity":"recycling","recycling:cans":"yes","recycling:glass":"yes","recycling:paper":"yes","recycling:plastic":"yes","recycling_type":"container"}},"type":"Feature"},
	{"geometry":{"coordinates":[18.61422,48.780858],"type":"Point"},"properties":{"osm_id":"5975671657","tag":{"amenity":"recycling","recycling:cans":"yes","recycling:glass":"yes","recycling:paper":"yes","recycling:plastic":"yes","recycling_type":"container"}},"type":"Feature"},
	{"geometry":{"coordinates":[18.575022,48.777121],"type":"Point"},"properties":{"osm_id":"5985609091","tag":{"amenity":"waste_basket","waste":"trash"}},"type":"Feature"},
	{"geometry":{"coordinates":[18.575299,48.777357],"type":"Point"},"properties":{"osm_id":"5985609093","tag":{"amenity":"waste_basket","waste":"trash"}},"type":"Feature"},
	{"geometry":{"coordinates":[18.575484,48.77752],"type":"Point"},"properties":{"osm_id":"5985609094","tag":{"amenity":"waste_basket","waste":"trash"}},"type":"Feature"},
	{"geometry":{"coordinates":[18.572398,48.776415],"type":"Point"},"properties":{"osm_id":"5985609334","tag":{"amenity":"waste_basket","waste":"trash"}},"type":"Feature"},
	{"geometry":{"coordinates":[18.569868,48.774348],"type":"Point"},"properties":{"osm_id":"5985609335","tag":{"amenity":"waste_basket","waste":"trash"}},"type":"Feature"},
	{"geometry":{"coordinates":[18.569212,48.776759],"type":"Point"},"properties":{"osm_id":"5985609336","tag":{"amenity":"waste_basket","waste":"trash"}},"type":"Feature"},
	{"geometry":{"coordinates":[18.571989,48.772744],"type":"Point"},"properties":{"osm_id":"5985609490","tag":{"amenity":"waste_basket","waste":"trash"}},"type":"Feature"},
	{"geometry":{"coordinates":[18.571896,48.772635],"type":"Point"},"properties":{"osm_id":"5985609491","tag":{"amenity":"waste_basket","waste":"trash"}},"type":"Feature"},
	{"geometry":{"coordinates":[18.575384,48.77342],"type":"Point"},"properties":{"osm_id":"5985609634","tag":{"amenity":"waste_basket","waste":"trash"}},"type":"Feature"},
	{"geometry":{"coordinates":[18.5776,48.780583],"type":"Point"},"properties":{"osm_id":"5985610003","tag":{"amenity":"waste_basket"}},"type":"Feature"},
	{"geometry":{"coordinates":[18.582584,48.780074],"type":"Point"},"properties":{"osm_id":"5985610034","tag":{"amenity":"recycling","recycling:cans":"yes","recycling:glass":"yes","recycling:plastic":"yes","recycling_type":"container"}},"type":"Feature"},
	{"geometry":{"coordinates":[18.582356,48.785823],"type":"Point"},"properties":{"osm_id":"5985610934","tag":{"amenity":"waste_disposal","waste":"trash"}},"type":"Feature"},
	{"geometry":{"coordinates":[18.604427,48.772545],"type":"Point"},"properties":{"osm_id":"6049031505","tag":{"amenity":"waste_basket","waste":"trash"}},"type":"Feature"},
	{"geometry":{"coordinates":[18.604602,48.77274],"type":"Point"},"properties":{"osm_id":"6049031506","tag":{"amenity":"waste_basket","waste":"trash"}},"type":"Feature"},
	{"geometry":{"coordinates":[18.622782,48.771771],"type":"Point"},"properties":{"osm_id":"6049032024","tag":{"amenity":"waste_basket","waste":"trash"}},"type":"Feature"},
	{"geometry":{"coordinates":[18.624711,48.771427],"type":"Point"},"properties":{"osm_id":"6049032054","tag":{"amenity":"waste_basket","waste":"trash"}},"type":"Feature"},
	{"geometry":{"coordinates":[18.624227,48.771433],"type":"Point"},"properties":{"osm_id":"6049032056","tag":{"amenity":"waste_basket","waste":"trash"}},"type":"Feature"},
	{"geometry":{"coordinates":[18.620977,48.772848],"type":"Point"},"properties":{"osm_id":"6049032366","tag":{"amenity":"waste_basket","waste":"trash"}},"type":"Feature"},
	{"geometry":{"coordinates":[18.621426,48.772802],"type":"Point"},"properties":{"osm_id":"6049032367","tag":{"amenity":"waste_basket","waste":"trash"}},"type":"Feature"},
	{"geometry":{"coordinates":[18.620694,48.772877],"type":"Point"},"properties":{"osm_id":"6049032368","tag":{"amenity":"waste_basket","waste":"trash"}},"type":"Feature"},
	{"geometry":{"coordinates":[18.624038,48.772092],"type":"Point"},"properties":{"osm_id":"6049032493","tag":{"amenity":"waste_basket","waste":"trash"}},"type":"Feature"},
	{"geometry":{"coordinates":[18.623984,48.771639],"type":"Point"},"properties":{"osm_id":"6049032494","tag":{"amenity":"waste_basket","waste":"trash"}},"type":"Feature"},
	{"geometry":{"coordinates":[18.622971,48.771883],"type":"Point"},"properties":{"osm_id":"6049032506","tag":{"amenity":"waste_basket","waste":"trash"}},"type":"Feature"},
	{"geometry":{"coordinates":[18.622978,48.771988],"type":"Point"},"properties":{"osm_id":"6049032507","tag":{"amenity":"waste_basket","waste":"trash"}},"type":"Feature"},
	{"geometry":{"coordinates":[18.622589,48.771636],"type":"Point"},"properties":{"osm_id":"6049032534","tag":{"amenity":"waste_basket","waste":"trash"}},"type":"Feature"},
	{"geometry":{"coordinates":[18.621996,48.771671],"type":"Point"},"properties":{"osm_id":"6049032538","tag":{"amenity":"waste_basket","waste":"trash"}},"type":"Feature"},
	{"geometry":{"coordinates":[18.622779,48.771737],"type":"Point"},"properties":{"osm_id":"6049032564","tag":{"amenity":"waste_basket","waste":"trash"}},"type":"Feature"},
	{"geometry":{"coordinates":[18.622813,48.771949],"type":"Point"},"properties":{"osm_id":"6049032565","tag":{"amenity":"waste_basket","waste":"trash"}},"type":"Feature"},
	{"geometry":{"coordinates":[18.622842,48.772158],"type":"Point"},"properties":{"osm_id":"6049032568","tag":{"amenity":"waste_basket","waste":"trash"}},"type":"Feature"},
	{"geometry":{"coordinates":[18.601323,48.772967],"type":"Point"},"properties":{"osm_id":"6049032703","tag":{"amenity":"waste_basket","waste":"trash"}},"type":"Feature"},
	{"geometry":{"coordinates":[18.603066,48.77246],"type":"Point"},"properties":{"osm_id":"6049032704","tag":{"amenity":"waste_basket","waste":"trash"}},"type":"Feature"},
	{"geometry":{"coordinates":[18.603802,48.77227],"type":"Point"},"properties":{"osm_id":"6049032705","tag":{"amenity":"waste_basket","waste":"trash"}},"type":"Feature"},
	{"geometry":{"coordinates":[18.604122,48.7722],"type":"Point"},"properties":{"osm_id":"6049032706","tag":{"amenity":"waste_basket","waste":"trash"}},"type":"Feature"},
	{"geometry":{"coordinates":[18.605152,48.772389],"type":"Point"},"properties":{"osm_id":"6049032707","tag":{"amenity":"waste_basket","waste":"trash"}},"type":"Feature"},
	{"geometry":{"coordinates":[18.605199,48.772477],"type":"Point"},"properties":{"osm_id":"6049032709","tag":{"amenity":"waste_basket","waste":"trash"}},"type":"Feature"},
	{"geometry":{"coordinates":[18.60524,48.77256],"type":"Point"},"properties":{"osm_id":"6049032711","tag":{"amenity":"waste_basket","waste":"trash"}},"type":"Feature"},
	{"geometry":{"coordinates":[18.604738,48.772362],"type":"Point"},"properties":{"osm_id":"6049032717","tag":{"amenity":"waste_basket","waste":"trash"}},"type":"Feature"},
	{"geometry":{"coordinates":[18.604982,48.772001],"type":"Point"},"properties":{"osm_id":"6049032718","tag":{"amenity":"waste_basket","waste":"trash"}},"type":"Feature"},
	{"geometry":{"coordinates":[18.605305,48.771892],"type":"Point"},"properties":{"osm_id":"6049032719","tag":{"amenity":"waste_basket","waste":"trash"}},"type":"Feature"},
	{"geometry":{"coordinates":[18.605994,48.771761],"type":"Point"},"properties":{"osm_id":"6049032720","tag":{"amenity":"waste_basket","waste":"trash"}},"type":"Feature"},
	{"geometry":{"coordinates":[18.606833,48.771563],"type":"Point"},"properties":{"osm_id":"6049032721","tag":{"amenity":"waste_basket","waste":"trash"}},"type":"Feature"},
	{"geometry":{"coordinates":[18.607812,48.771333],"type":"Point"},"properties":{"osm_id":"6049032722","tag":{"amenity":"waste_basket","waste":"trash"}},"type":"Feature"},
	{"geometry":{"coordinates":[18.60861,48.771145],"type":"Point"},"properties":{"osm_id":"6049032723","tag":{"amenity":"waste_basket","waste":"trash"}},"type":"Feature"},
	{"geometry":{"coordinates":[18.609142,48.771025],"type":"Point"},"properties":{"osm_id":"6049032724","tag":{"amenity":"waste_basket","waste":"trash"}},"type":"Feature"},
	{"geometry":{"coordinates":[18.609672,48.770902],"type":"Point"},"properties":{"osm_id":"6049032725","tag":{"amenity":"waste_basket","waste":"trash"}},"type":"Feature"},
	{"geometry":{"coordinates":[18.609865,48.770598],"type":"Point"},"properties":{"osm_id":"6049032726","tag":{"amenity":"waste_basket","waste":"trash"}},"type":"Feature"},
	{"geometry":{"coordinates":[18.610388,48.77061],"type":"Point"},"properties":{"osm_id":"6049032729","tag":{"amenity":"waste_basket","waste":"trash"}},"type":"Feature"},
	{"geometry":{"coordinates":[18.610278,48.770622],"type":"Point"},"properties":{"osm_id":"6049032733","tag":{"amenity":"waste_basket","waste":"trash"}},"type":"Feature"},
	{"geometry":{"coordinates":[18.61707,48.771676],"type":"Point"},"properties":{"osm_id":"6049032734","tag":{"amenity":"recycling","recycling:glass":"yes","recycling:paper":"yes","recycling:plastic":"yes","recycling_type":"container"}},"type":"Feature"},
	{"geometry":{"coordinates":[18.618372,48.772589],"type":"Point"},"properties":{"osm_id":"6049032743","tag":{"amenity":"waste_basket","waste":"trash"}},"type":"Feature"},
	{"geometry":{"coordinates":[18.618255,48.772494],"type":"Point"},"properties":{"osm_id":"6049032749","tag":{"amenity":"waste_basket","waste":"trash"}},"type":"Feature"},
	{"geometry":{"coordinates":[18.618495,48.77229],"type":"Point"},"properties":{"osm_id":"6049032758","tag":{"amenity":"waste_basket","waste":"trash"}},"type":"Feature"},
	{"geometry":{"coordinates":[18.618862,48.772356],"type":"Point"},"properties":{"osm_id":"6049032763","tag":{"amenity":"waste_basket","waste":"trash"}},"type":"Feature"},
	{"geometry":{"coordinates":[18.618645,48.772693],"type":"Point"},"properties":{"osm_id":"6049032767","tag":{"amenity":"waste_basket","waste":"trash"}},"type":"Feature"},
	{"geometry":{"coordinates":[18.618368,48.772734],"type":"Point"},"properties":{"osm_id":"6049032769","tag":{"amenity":"waste_basket","waste":"trash"}},"type":"Feature"},
	{"geometry":{"coordinates":[18.595813,48.774928],"type":"Point"},"properties":{"osm_id":"6049032772","tag":{"amenity":"waste_basket","waste":"trash"}},"type":"Feature"},
	{"geometry":{"coordinates":[18.596336,48.7746],"type":"Point"},"properties":{"osm_id":"6049032773","tag":{"amenity":"waste_basket","waste":"trash"}},"type":"Feature"},
	{"geometry":{"coordinates":[18.597167,48.774296],"type":"Point"},"properties":{"osm_id":"6049032774","tag":{"amenity":"waste_basket","waste":"trash"}},"type":"Feature"},
	{"geometry":{"coordinates":[18.599927,48.773518],"type":"Point"},"properties":{"osm_id":"6049032775","tag":{"amenity":"waste_basket","waste":"trash"}},"type":"Feature"},
	{"geometry":{"coordinates":[18.600922,48.773043],"type":"Point"},"properties":{"osm_id":"6049032778","tag":{"amenity":"waste_basket","waste":"trash"}},"type":"Feature"},
	{"geometry":{"coordinates":[18.60099,48.77315],"type":"Point"},"properties":{"osm_id":"6049032779","tag":{"amenity":"waste_basket","waste":"trash"}},"type":"Feature"},
	{"geometry":{"coordinates":[18.601084,48.773289],"type":"Point"},"properties":{"osm_id":"6049032780","tag":{"amenity":"waste_basket","waste":"trash"}},"type":"Feature"},
	{"geometry":{"coordinates":[18.601468,48.773158],"type":"Point"},"properties":{"osm_id":"6049032781","tag":{"amenity":"waste_basket","waste":"trash"}},"type":"Feature"},
	{"geometry":{"coordinates":[18.601629,48.772871],"type":"Point"},"properties":{"osm_id":"6049032782","tag":{"amenity":"waste_basket","waste":"trash"}},"type":"Feature"},
	{"geometry":{"coordinates":[18.60391,48.77252],"type":"Point"},"properties":{"osm_id":"6049032783","tag":{"amenity":"waste_basket","waste":"trash"}},"type":"Feature"},
	{"geometry":{"coordinates":[18.60616,48.772016],"type":"Point"},"properties":{"osm_id":"6049032784","tag":{"amenity":"waste_basket","waste":"trash"}},"type":"Feature"},
	{"geometry":{"coordinates":[18.606996,48.771824],"type":"Point"},"properties":{"osm_id":"6049032785","tag":{"amenity":"waste_basket","waste":"trash"}},"type":"Feature"},
	{"geometry":{"coordinates":[18.607429,48.771721],"type":"Point"},"properties":{"osm_id":"6049032786","tag":{"amenity":"waste_basket","waste":"trash"}},"type":"Feature"},
	{"geometry":{"coordinates":[18.607905,48.771609],"type":"Point"},"properties":{"osm_id":"6049032787","tag":{"amenity":"waste_basket","waste":"trash"}},"type":"Feature"},
	{"geometry":{"coordinates":[18.608284,48.771521],"type":"Point"},"properties":{"osm_id":"6049032788","tag":{"amenity":"waste_basket","waste":"trash"}},"type":"Feature"},
	{"geometry":{"coordinates":[18.608746,48.771413],"type":"Point"},"properties":{"osm_id":"6049032789","tag":{"amenity":"waste_basket","waste":"trash"}},"type":"Feature"},
	{"geometry":{"coordinates":[18.609279,48.771289],"type":"Point"},"properties":{"osm_id":"6049032790","tag":{"amenity":"waste_basket","waste":"trash"}},"type":"Feature"},
	{"geometry":{"coordinates":[18.610017,48.771116],"type":"Point"},"properties":{"osm_id":"6049032791","tag":{"amenity":"waste_basket","waste":"trash"}},"type":"Feature"},
	{"geometry":{"coordinates":[18.61192,48.770796],"type":"Point"},"properties":{"osm_id":"6049032792","tag":{"amenity":"waste_basket","waste":"trash"}},"type":"Feature"},
	{"geometry":{"coordinates":[18.61255,48.770718],"type":"Point"},"properties":{"osm_id":"6049032793","tag":{"amenity":"waste_basket","waste":"trash"}},"type":"Feature"},
	{"geometry":{"coordinates":[18.614016,48.770225],"type":"Point"},"properties":{"osm_id":"6049032794","tag":{"amenity":"waste_basket","waste":"trash"}},"type":"Feature"},
	{"geometry":{"coordinates":[18.615311,48.77126],"type":"Point"},"properties":{"osm_id":"6049032795","tag":{"amenity":"recycling","recycling:cans":"yes","recycling:glass":"yes","recycling:paper":"yes","recycling:plastic":"yes","recycling_type":"container"}},"type":"Feature"},
	{"geometry":{"coordinates":[18.615384,48.772352],"type":"Point"},"properties":{"osm_id":"6049032796","tag":{"amenity":"recycling","recycling:cans":"yes","recycling:clothes":"yes","recycling:glass":"yes","recycling:paper":"yes","recycling:plastic":"yes","recycling_type":"container"}},"type":"Feature"},
	{"geometry":{"coordinates":[18.581085,48.778389],"type":"Point"},"properties":{"osm_id":"6073326931","tag":{"amenity":"recycling","recycling:glass":"yes","recycling:paper":"yes","recycling:plastic":"yes","recycling_type":"container"}},"type":"Feature"},
	{"geometry":{"coordinates":[18.623697,48.77373],"type":"Point"},"properties":{"osm_id":"6151697947","tag":{"amenity":"waste_disposal"}},"type":"Feature"},
	{"geometry":{"coordinates":[18.600688,48.772295],"type":"Point"},"properties":{"osm_id":"6151697980","tag":{"amenity":"recycling","recycling:cans":"yes","recycling:glass":"yes","recycling:paper":"yes","recycling:plastic":"yes","recycling_type":"container"}},"type":"Feature"},
	{"geometry":{"coordinates":[18.611085,48.775155],"type":"Point"},"properties":{"osm_id":"6151699101","tag":{"amenity":"recycling","recycling:cans":"yes","recycling:glass":"yes","recycling:paper":"yes","recycling:plastic":"yes","recycling_type":"container"}},"type":"Feature"},
	{"geometry":{"coordinates":[18.605447,48.773675],"type":"Point"},"properties":{"osm_id":"6151699123","tag":{"amenity":"recycling","recycling:cans":"yes","recycling:glass":"yes","recycling:paper":"yes","recycling:plastic":"yes","recycling_type":"container"}},"type":"Feature"},
	{"geometry":{"coordinates":[18.607928,48.774561],"type":"Point"},"properties":{"osm_id":"6151699126","tag":{"amenity":"recycling","recycling:cans":"yes","recycling:glass":"yes","recycling:paper":"yes","recycling:plastic":"yes","recycling_type":"container"}},"type":"Feature"},
	{"geometry":{"coordinates":[18.607241,48.778118],"type":"Point"},"properties":{"osm_id":"6151699223","tag":{"amenity":"waste_basket","waste":"trash"}},"type":"Feature"},
	{"geometry":{"coordinates":[18.607767,48.779776],"type":"Point"},"properties":{"osm_id":"6151699225","tag":{"amenity":"waste_basket","waste":"trash"}},"type":"Feature"},
	{"geometry":{"coordinates":[18.608581,48.779944],"type":"Point"},"properties":{"osm_id":"6151699226","tag":{"amenity":"waste_basket","waste":"trash"}},"type":"Feature"},
	{"geometry":{"coordinates":[18.60847,48.779928],"type":"Point"},"properties":{"osm_id":"6151699227","tag":{"amenity":"waste_basket","waste":"trash"}},"type":"Feature"},
	{"geometry":{"coordinates":[18.619991,48.774168],"type":"Point"},"properties":{"osm_id":"6151699241","tag":{"amenity":"recycling","recycling:cans":"yes","recycling:glass":"yes","recycling:paper":"yes","recycling:plastic":"yes","recycling_type":"container"}},"type":"Feature"},
	{"geometry":{"coordinates":[18.622644,48.77382],"type":"Point"},"properties":{"osm_id":"6151699245","tag":{"amenity":"waste_basket"}},"type":"Feature"},
	{"geometry":{"coordinates":[18.616558,48.782194],"type":"Point"},"properties":{"osm_id":"6151699271","tag":{"amenity":"recycling","recycling:cans":"yes","recycling:clothes":"yes","recycling:glass":"yes","recycling:paper":"yes","recycling:plastic":"yes","recycling_type":"container"}},"type":"Feature"},
	{"geometry":{"coordinates":[18.615575,48.77977],"type":"Point"},"properties":{"osm_id":"6151699275","tag":{"amenity":"recycling","recycling:cans":"yes","recycling:glass":"yes","recycling:paper":"yes","recycling:plastic":"yes","recycling_type":"container"}},"type":"Feature"},
	{"geometry":{"coordinates":[18.614861,48.77921],"type":"Point"},"properties":{"osm_id":"6151699279","tag":{"amenity":"recycling","recycling:cans":"yes","recycling:clothes":"yes","recycling:glass":"yes","recycling:paper":"yes","recycling:plastic":"yes","recycling_type":"container"}},"type":"Feature"},
	{"geometry":{"coordinates":[18.606574,48.779956],"type":"Point"},"properties":{"osm_id":"6151699327","tag":{"amenity":"waste_basket","waste":"trash"}},"type":"Feature"},
	{"geometry":{"coordinates":[18.606608,48.779842],"type":"Point"},"properties":{"osm_id":"6151699328","tag":{"amenity":"waste_basket","waste":"trash"}},"type":"Feature"},
	{"geometry":{"coordinates":[18.608981,48.778054],"type":"Point"},"properties":{"osm_id":"6151699329","tag":{"amenity":"recycling","recycling:cans":"yes","recycling:glass":"yes","recycling:paper":"yes","recycling:plastic":"yes","recycling_type":"container"}},"type":"Feature"},
	{"geometry":{"coordinates":[18.607636,48.778827],"type":"Point"},"properties":{"osm_id":"6151699504","tag":{"amenity":"waste_basket","waste":"trash"}},"type":"Feature"},
	{"geometry":{"coordinates":[18.601009,48.769847],"type":"Point"},"properties":{"osm_id":"6224478770","tag":{"amenity":"recycling","recycling:glass":"yes","recycling:paper":"yes","recycling:plastic":"yes","recycling_type":"container"}},"type":"Feature"},
	{"geometry":{"coordinates":[18.602267,48.769447],"type":"Point"},"properties":{"osm_id":"6224478771","tag":{"amenity":"recycling","recycling:glass":"yes","recycling:paper":"yes","recycling:plastic":"yes","recycling_type":"container"}},"type":"Feature"},
	{"geometry":{"coordinates":[18.601243,48.769331],"type":"Point"},"properties":{"osm_id":"6224478772","tag":{"amenity":"recycling","recycling:glass":"yes","recycling:paper":"yes","recycling:plastic":"yes","recycling_type":"container"}},"type":"Feature"},
	{"geometry":{"coordinates":[18.587672,48.779984],"type":"Point"},"properties":{"osm_id":"6244771596","tag":{"amenity":"waste_basket","waste":"trash"}},"type":"Feature"},
	{"geometry":{"coordinates":[18.625523,48.77956],"type":"Point"},"properties":{"osm_id":"6244834573","tag":{"amenity":"recycling","recycling:cans":"yes","recycling:glass":"yes","recycling:paper":"yes","recycling:plastic":"yes","recycling_type":"container"}},"type":"Feature"},
	{"geometry":{"coordinates":[18.621337,48.772106],"type":"Point"},"properties":{"osm_id":"6244834724","tag":{"amenity":"waste_basket","waste":"trash"}},"type":"Feature"},
	{"geometry":{"coordinates":[18.601831,48.767553],"type":"Point"},"properties":{"osm_id":"6244834737","tag":{"amenity":"waste_disposal","waste":"trash"}},"type":"Feature"},
	{"geometry":{"coordinates":[18.601875,48.767601],"type":"Point"},"properties":{"osm_id":"6244834738","tag":{"amenity":"recycling","recycling:cans":"yes","recycling:glass":"yes","recycling:paper":"yes","recycling:plastic":"yes","recycling_type":"container"}},"type":"Feature"},
	{"geometry":{"coordinates":[18.624748,48.776589],"type":"Point"},"properties":{"osm_id":"6253859431","tag":{"amenity":"recycling","recycling:cans":"yes","recycling:glass":"yes","recycling:paper":"yes","recycling:plastic":"yes","recycling_type":"container"}},"type":"Feature"},
	{"geometry":{"coordinates":[18.623383,48.777651],"type":"Point"},"properties":{"osm_id":"6253859432","tag":{"amenity":"recycling","recycling:cans":"yes","recycling:clothes":"yes","recycling:glass":"yes","recycling:paper":"yes","recycling:plastic":"yes","recycling_type":"container"}},"type":"Feature"},
	{"geometry":{"coordinates":[18.623114,48.777311],"type":"Point"},"properties":{"osm_id":"6253859433","tag":{"amenity":"recycling","recycling:cans":"yes","recycling:glass":"yes","recycling:paper":"yes","recycling:plastic":"yes","recycling_type":"container"}},"type":"Feature"},
	{"geometry":{"coordinates":[18.624195,48.778007],"type":"Point"},"properties":{"osm_id":"6253859434","tag":{"amenity":"recycling","recycling:cans":"yes","recycling:glass":"yes","recycling:paper":"yes","recycling:plastic":"yes","recycling_type":"container"}},"type":"Feature"},
	{"geometry":{"coordinates":[18.624476,48.768278],"type":"Point"},"properties":{"osm_id":"6253859792","tag":{"amenity":"recycling","recycling:paper":"yes","recycling:plastic":"yes","recycling_type":"container"}},"type":"Feature"},
	{"geometry":{"coordinates":[18.628717,48.782473],"type":"Point"},"properties":{"osm_id":"6253859920","tag":{"amenity":"recycling","recycling:paper":"yes","recycling:plastic":"yes","recycling_type":"container"}},"type":"Feature"},
	{"geometry":{"coordinates":[18.604482,48.77018],"type":"Point"},"properties":{"osm_id":"6291197816","tag":{"amenity":"recycling","recycling:cans":"yes","recycling:glass":"yes","recycling:paper":"yes","recycling:plastic":"yes","recycling_type":"container"}},"type":"Feature"},
	{"geometry":{"coordinates":[18.625495,48.771503],"type":"Point"},"properties":{"osm_id":"6291197982","tag":{"amenity":"waste_basket"}},"type":"Feature"},
	{"geometry":{"coordinates":[18.625495,48.771466],"type":"Point"},"properties":{"osm_id":"6291197983","tag":{"amenity":"waste_basket"}},"type":"Feature"},
	{"geometry":{"coordinates":[18.624949,48.771497],"type":"Point"},"properties":{"osm_id":"6291197984","tag":{"amenity":"waste_basket"}},"type":"Feature"},
	{"geometry":{"coordinates":[18.623579,48.771097],"type":"Point"},"properties":{"osm_id":"6291198001","tag":{"amenity":"recycling","recycling:cans":"yes","recycling:glass":"yes","recycling:paper":"yes","recycling:plastic":"yes","recycling_type":"container"}},"type":"Feature"},
	{"geometry":{"coordinates":[18.619502,48.780159],"type":"Point"},"properties":{"osm_id":"6291198101","tag":{"amenity":"recycling","recycling:cans":"yes","recycling:clothes":"yes","recycling:glass":"yes","recycling:paper":"yes","recycling:plastic":"yes","recycling_type":"container"}},"type":"Feature"},
	{"geometry":{"coordinates":[18.617059,48.784131],"type":"Point"},"properties":{"osm_id":"6291198103","tag":{"amenity":"recycling","recycling:cans":"yes","recycling:glass":"yes","recycling:paper":"yes","recycling:plastic":"yes","recycling_type":"container"}},"type":"Feature"},
	{"geometry":{"coordinates":[18.618864,48.783664],"type":"Point"},"properties":{"osm_id":"6291198104","tag":{"amenity":"recycling","recycling:cans":"yes","recycling:glass":"yes","recycling:paper":"yes","recycling:plastic":"yes","recycling_type":"container"}},"type":"Feature"},
	{"geometry":{"coordinates":[18.617427,48.784355],"type":"Point"},"properties":{"osm_id":"6291198108","tag":{"amenity":"recycling","recycling:cans":"yes","recycling:glass":"yes","recycling:paper":"yes","recycling:plastic":"yes","recycling_type":"container"}},"type":"Feature"},
	{"geometry":{"coordinates":[18.618981,48.78214],"type":"Point"},"properties":{"osm_id":"6291198110","tag":{"amenity":"recycling","recycling:cans":"yes","recycling:glass":"yes","recycling:paper":"yes","recycling:plastic":"yes","recycling_type":"container"}},"type":"Feature"},
	{"geometry":{"coordinates":[18.619316,48.78171],"type":"Point"},"properties":{"osm_id":"6291198112","tag":{"amenity":"recycling","recycling:cans":"yes","recycling:clothes":"yes","recycling:glass":"yes","recycling:paper":"yes","recycling:plastic":"yes","recycling_type":"container"}},"type":"Feature"},
	{"geometry":{"coordinates":[18.618482,48.781038],"type":"Point"},"properties":{"osm_id":"6291198128","tag":{"amenity":"recycling","recycling:cans":"yes","recycling:glass":"yes","recycling:paper":"yes","recycling:plastic":"yes","recycling_type":"container"}},"type":"Feature"},
	{"geometry":{"coordinates":[18.618561,48.780443],"type":"Point"},"properties":{"osm_id":"6291198138","tag":{"amenity":"recycling","recycling:cans":"yes","recycling:glass":"yes","recycling:paper":"yes","recycling:plastic":"yes","recycling_type":"container"}},"type":"Feature"},
	{"geometry":{"coordinates":[18.618327,48.780319],"type":"Point"},"properties":{"osm_id":"6291198139","tag":{"amenity":"recycling","recycling:cans":"yes","recycling:glass":"yes","recycling:paper":"yes","recycling:plastic":"yes","recycling_type":"container"}},"type":"Feature"},
	{"geometry":{"coordinates":[18.617386,48.779233],"type":"Point"},"properties":{"osm_id":"6291198153","tag":{"amenity":"recycling","recycling:cans":"yes","recycling:glass":"yes","recycling:paper":"yes","recycling:plastic":"yes","recycling_type":"container"}},"type":"Feature"},
	{"geometry":{"coordinates":[18.618238,48.778723],"type":"Point"},"properties":{"osm_id":"6291198154","tag":{"amenity":"recycling","recycling:cans":"yes","recycling:glass":"yes","recycling:paper":"yes","recycling:plastic":"yes","recycling_type":"container"}},"type":"Feature"},
	{"geometry":{"coordinates":[18.618469,48.771159],"type":"Point"},"properties":{"osm_id":"6291198177","tag":{"amenity":"recycling","recycling:cans":"yes","recycling:clothes":"yes","recycling:glass":"yes","recycling:paper":"yes","recycling:plastic":"yes","recycling_type":"container"}},"type":"Feature"},
	{"geometry":{"coordinates":[18.617484,48.771265],"type":"Point"},"properties":{"osm_id":"6291198178","tag":{"amenity":"recycling","recycling:cans":"yes","recycling:glass":"yes","recycling:paper":"yes","recycling:plastic":"yes","recycling_type":"container"}},"type":"Feature"},
	{"geometry":{"coordinates":[18.623016,48.783145],"type":"Point"},"properties":{"osm_id":"6291198306","tag":{"amenity":"recycling","recycling:beverage_cartons":"yes","recycling:cans":"yes","recycling:glass":"yes","recycling:paper":"yes","recycling:plastic":"yes","recycling_type":"container"}},"type":"Feature"},
	{"geometry":{"coordinates":[18.623091,48.783039],"type":"Point"},"properties":{"osm_id":"6291198307","tag":{"amenity":"recycling","recycling:beverage_cartons":"yes","recycling:cans":"yes","recycling:glass":"yes","recycling:paper":"yes","recycling:plastic":"yes","recycling_type":"container"}},"type":"Feature"},
	{"geometry":{"coordinates":[18.621535,48.78309],"type":"Point"},"properties":{"osm_id":"6291198309","tag":{"amenity":"recycling","recycling:cans":"yes","recycling:glass":"yes","recycling:paper":"yes","recycling:plastic":"yes","recycling_type":"container"}},"type":"Feature"},
	{"geometry":{"coordinates":[18.622317,48.782721],"type":"Point"},"properties":{"osm_id":"6291198310","tag":{"amenity":"recycling","recycling:cans":"yes","recycling:glass":"yes","recycling:paper":"yes","recycling:plastic":"yes","recycling_type":"container"}},"type":"Feature"},
	{"geometry":{"coordinates":[18.620232,48.783096],"type":"Point"},"properties":{"osm_id":"6291198311","tag":{"amenity":"recycling","recycling:cans":"yes","recycling:clothes":"yes","recycling:glass":"yes","recycling:paper":"yes","recycling:plastic":"yes","recycling_type":"container"}},"type":"Feature"},
	{"geometry":{"coordinates":[18.621818,48.782275],"type":"Point"},"properties":{"osm_id":"6291198312","tag":{"amenity":"recycling","recycling:beverage_cartons":"yes","recycling:cans":"yes","recycling:clothes":"yes","recycling:glass":"yes","recycling:paper":"yes","recycling:plastic":"yes","recycling_type":"container"}},"type":"Feature"},
	{"geometry":{"coordinates":[18.617642,48.770001],"type":"Point"},"properties":{"osm_id":"6314353044","tag":{"amenity":"recycling","recycling:cans":"yes","recycling:glass":"yes","recycling:paper":"yes","recycling:plastic":"yes","recycling_type":"container"}},"type":"Feature"},
	{"geometry":{"coordinates":[18.623183,48.77011],"type":"Point"},"properties":{"osm_id":"6314353162","tag":{"amenity":"recycling","location":"underground","recycling:cans":"yes","recycling:glass":"yes","recycling:paper":"yes","recycling:plastic":"yes","recycling_type":"container"}},"type":"Feature"},
	{"geometry":{"coordinates":[18.624594,48.770096],"type":"Point"},"properties":{"osm_id":"6314353183","tag":{"amenity":"recycling","location":"underground","recycling:cans":"yes","recycling:glass":"yes","recycling:paper":"yes","recycling:plastic":"yes","recycling_type":"container"}},"type":"Feature"},
	{"geometry":{"coordinates":[18.627493,48.770336],"type":"Point"},"properties":{"osm_id":"6314353202","tag":{"amenity":"recycling","location":"underground","recycling:cans":"yes","recycling:glass":"yes","recycling:paper":"yes","recycling:plastic":"yes","recycling_type":"container"}},"type":"Feature"},
	{"geometry":{"coordinates":[18.628662,48.770364],"type":"Point"},"properties":{"osm_id":"6314353203","tag":{"amenity":"recycling","location":"underground","recycling:cans":"yes","recycling:glass":"yes","recycling:paper":"yes","recycling:plastic":"yes","recycling_type":"container"}},"type":"Feature"},
	{"geometry":{"coordinates":[18.63093,48.769797],"type":"Point"},"properties":{"osm_id":"6314353217","tag":{"amenity":"recycling","location":"underground","recycling:cans":"yes","recycling:glass":"yes","recycling:paper":"yes","recycling:plastic":"yes","recycling_type":"container"}},"type":"Feature"},
	{"geometry":{"coordinates":[18.632322,48.770125],"type":"Point"},"properties":{"osm_id":"6314353238","tag":{"amenity":"recycling","location":"underground","recycling:cans":"yes","recycling:glass":"yes","recycling:paper":"yes","recycling:plastic":"yes","recycling_type":"container"}},"type":"Feature"},
	{"geometry":{"coordinates":[18.630439,48.770546],"type":"Point"},"properties":{"osm_id":"6314353239","tag":{"amenity":"recycling","location":"underground","recycling:cans":"yes","recycling:glass":"yes","recycling:paper":"yes","recycling:plastic":"yes","recycling_type":"container"}},"type":"Feature"},
	{"geometry":{"coordinates":[18.626511,48.770672],"type":"Point"},"properties":{"osm_id":"6314353241","tag":{"amenity":"waste_basket","waste":"trash"}},"type":"Feature"},
	{"geometry":{"coordinates":[18.630718,48.769895],"type":"Point"},"properties":{"osm_id":"6314353259","tag":{"amenity":"recycling","recycling:cans":"yes","recycling:clothes":"yes","recycling:glass":"yes","recycling:paper":"yes","recycling:plastic":"yes","recycling_type":"container"}},"type":"Feature"},
	{"geometry":{"coordinates":[18.629332,48.769874],"type":"Point"},"properties":{"osm_id":"6314353265","tag":{"amenity":"recycling","location":"underground","recycling:cans":"yes","recycling:glass":"yes","recycling:paper":"yes","recycling:plastic":"yes","recycling_type":"container"}},"type":"Feature"},
	{"geometry":{"coordinates":[18.626737,48.769584],"type":"Point"},"properties":{"osm_id":"6314353501","tag":{"amenity":"recycling","location":"underground","recycling:cans":"yes","recycling:glass":"yes","recycling:paper":"yes","recycling:plastic":"yes","recycling_type":"container"}},"type":"Feature"},
	{"geometry":{"coordinates":[18.632022,48.76898],"type":"Point"},"properties":{"osm_id":"6314353551","tag":{"amenity":"recycling","recycling:cans":"yes","recycling:glass":"yes","recycling:paper":"yes","recycling:plastic":"yes","recycling_type":"container"}},"type":"Feature"},
	{"geometry":{"coordinates":[18.631563,48.769138],"type":"Point"},"properties":{"osm_id":"6314353552","tag":{"amenity":"recycling","recycling:cans":"yes","recycling:glass":"yes","recycling:paper":"yes","recycling:plastic":"yes","recycling_type":"container"}},"type":"Feature"},
	{"geometry":{"coordinates":[18.629217,48.769184],"type":"Point"},"properties":{"osm_id":"6314353560","tag":{"amenity":"recycling","recycling:cans":"yes","recycling:glass":"yes","recycling:paper":"yes","recycling:plastic":"yes","recycling_type":"container"}},"type":"Feature"},
	{"geometry":{"coordinates":[18.628443,48.770015],"type":"Point"},"properties":{"osm_id":"6314353561","tag":{"amenity":"waste_basket","waste":"trash"}},"type":"Feature"},
	{"geometry":{"coordinates":[18.62825,48.770285],"type":"Point"},"properties":{"osm_id":"6314353575","tag":{"amenity":"recycling","recycling:cans":"yes","recycling:glass":"yes","recycling:paper":"yes","recycling:plastic":"yes","recycling_type":"container"}},"type":"Feature"},
	{"geometry":{"coordinates":[18.627221,48.770254],"type":"Point"},"properties":{"osm_id":"6314353576","tag":{"amenity":"recycling","recycling:cans":"yes","recycling:glass":"yes","recycling:paper":"yes","recycling:plastic":"yes","recycling_type":"container"}},"type":"Feature"},
	{"geometry":{"coordinates":[18.627161,48.770368],"type":"Point"},"properties":{"osm_id":"6314353581","tag":{"amenity":"recycling","recycling:clothes":"yes","recycling_type":"container"}},"type":"Feature"},
	{"geometry":{"coordinates":[18.628125,48.770392],"type":"Point"},"properties":{"osm_id":"6314353582","tag":{"amenity":"recycling","recycling:cans":"yes","recycling:glass":"yes","recycling:paper":"yes","recycling:plastic":"yes","recycling_type":"container"}},"type":"Feature"},
	{"geometry":{"coordinates":[18.631521,48.78381],"type":"Point"},"properties":{"osm_id":"6365120354","tag":{"amenity":"recycling","recycling:cans":"yes","recycling:clothes":"yes","recycling:glass":"yes","recycling:paper":"yes","recycling:plastic":"yes","recycling_type":"container"}},"type":"Feature"},
	{"geometry":{"coordinates":[18.632303,48.783525],"type":"Point"},"properties":{"osm_id":"6365120355","tag":{"amenity":"recycling","recycling:cans":"yes","recycling:glass":"yes","recycling:paper":"yes","recycling:plastic":"yes","recycling_type":"container"}},"type":"Feature"},
	{"geometry":{"coordinates":[18.632322,48.784951],"type":"Point"},"properties":{"osm_id":"6365120696","tag":{"amenity":"recycling","recycling:cans":"yes","recycling:clothes":"yes","recycling:glass":"yes","recycling:paper":"yes","recycling:plastic":"yes","recycling_type":"container"}},"type":"Feature"},
	{"geometry":{"coordinates":[18.631948,48.784888],"type":"Point"},"properties":{"osm_id":"6365120697","tag":{"amenity":"recycling","recycling:cans":"yes","recycling:glass":"yes","recycling:paper":"yes","recycling:plastic":"yes","recycling_type":"container"}},"type":"Feature"},
	{"geometry":{"coordinates":[18.632553,48.785592],"type":"Point"},"properties":{"osm_id":"6365120702","tag":{"amenity":"recycling","recycling:cans":"yes","recycling:glass":"yes","recycling:paper":"yes","recycling:plastic":"yes","recycling_type":"container"}},"type":"Feature"},
	{"geometry":{"coordinates":[18.631121,48.786189],"type":"Point"},"properties":{"osm_id":"6365120730","tag":{"amenity":"recycling","recycling:cans":"yes","recycling:glass":"yes","recycling:paper":"yes","recycling:plastic":"yes","recycling_type":"container"}},"type":"Feature"},
	{"geometry":{"coordinates":[18.630746,48.785536],"type":"Point"},"properties":{"osm_id":"6365120735","tag":{"amenity":"recycling","recycling:cans":"yes","recycling:clothes":"yes","recycling:glass":"yes","recycling:paper":"yes","recycling:plastic":"yes","recycling_type":"container"}},"type":"Feature"},
	{"geometry":{"coordinates":[18.631072,48.785158],"type":"Point"},"properties":{"osm_id":"6365120759","tag":{"amenity":"recycling","recycling:cans":"yes","recycling:glass":"yes","recycling:paper":"yes","recycling:plastic":"yes","recycling_type":"container"}},"type":"Feature"},
	{"geometry":{"coordinates":[18.630369,48.785302],"type":"Point"},"properties":{"osm_id":"6365120762","tag":{"amenity":"recycling","recycling:cans":"yes","recycling:glass":"yes","recycling:paper":"yes","recycling:plastic":"yes","recycling_type":"container"}},"type":"Feature"},
	{"geometry":{"coordinates":[18.60499,48.776656],"type":"Point"},"properties":{"osm_id":"6365120876","tag":{"amenity":"waste_basket","waste":"trash"}},"type":"Feature"},
	{"geometry":{"coordinates":[18.603906,48.777037],"type":"Point"},"properties":{"osm_id":"6365120933","tag":{"amenity":"waste_basket","waste":"trash"}},"type":"Feature"},
	{"geometry":{"coordinates":[18.601371,48.77415],"type":"Point"},"properties":{"osm_id":"6365120953","tag":{"amenity":"recycling","recycling:cans":"yes","recycling:glass":"yes","recycling:paper":"yes","recycling:plastic":"yes","recycling_type":"container"}},"type":"Feature"},
	{"geometry":{"coordinates":[18.610514,48.77404],"type":"Point"},"properties":{"osm_id":"6365121036","tag":{"amenity":"recycling","recycling:cans":"yes","recycling:glass":"yes","recycling:paper":"yes","recycling:plastic":"yes","recycling_type":"container"}},"type":"Feature"},
	{"geometry":{"coordinates":[18.599577,48.769552],"type":"Point"},"properties":{"osm_id":"6365121059","tag":{"amenity":"recycling","recycling:cans":"yes","recycling:glass":"yes","recycling:paper":"yes","recycling:plastic":"yes","recycling_type":"container"}},"type":"Feature"},
	{"geometry":{"coordinates":[18.606477,48.76794],"type":"Point"},"properties":{"osm_id":"6365121084","tag":{"amenity":"recycling","recycling:cans":"yes","recycling:glass":"yes","recycling:paper":"yes","recycling:plastic":"yes","recycling_type":"container"}},"type":"Feature"},
	{"geometry":{"coordinates":[18.607189,48.768281],"type":"Point"},"properties":{"osm_id":"6365121185","tag":{"amenity":"recycling","recycling:cans":"yes","recycling:glass":"yes","recycling:paper":"yes","recycling:plastic":"yes","recycling_type":"container"}},"type":"Feature"},
	{"geometry":{"coordinates":[18.607886,48.768633],"type":"Point"},"properties":{"osm_id":"6365121186","tag":{"amenity":"recycling","recycling:cans":"yes","recycling:glass":"yes","recycling:paper":"yes","recycling:plastic":"yes","recycling_type":"container"}},"type":"Feature"},
	{"geometry":{"coordinates":[18.608541,48.76902],"type":"Point"},"properties":{"osm_id":"6365121187","tag":{"amenity":"recycling","recycling:cans":"yes","recycling:glass":"yes","recycling:paper":"yes","recycling:plastic":"yes","recycling_type":"container"}},"type":"Feature"},
	{"geometry":{"coordinates":[18.620114,48.778154],"type":"Point"},"properties":{"osm_id":"6365121432","tag":{"amenity":"waste_basket","waste":"trash"}},"type":"Feature"},
	{"geometry":{"coordinates":[18.618231,48.775553],"type":"Point"},"properties":{"osm_id":"6365121443","tag":{"amenity":"waste_basket","waste":"trash"}},"type":"Feature"},
	{"geometry":{"coordinates":[18.618279,48.773275],"type":"Point"},"properties":{"osm_id":"6365121624","tag":{"amenity":"waste_basket","waste":"trash"}},"type":"Feature"},
	{"geometry":{"coordinates":[18.617511,48.784671],"type":"Point"},"properties":{"osm_id":"6365121669","tag":{"amenity":"recycling","recycling:cans":"yes","recycling:glass":"yes","recycling:paper":"yes","recycling:plastic":"yes","recycling_type":"container"}},"type":"Feature"},
	{"geometry":{"coordinates":[18.617965,48.785288],"type":"Point"},"properties":{"osm_id":"6365121674","tag":{"amenity":"recycling","recycling:cans":"yes","recycling:glass":"yes","recycling:paper":"yes","recycling:plastic":"yes","recycling_type":"container"}},"type":"Feature"},
	{"geometry":{"coordinates":[18.617712,48.785566],"type":"Point"},"properties":{"osm_id":"6365121675","tag":{"amenity":"recycling","recycling:cans":"yes","recycling:glass":"yes","recycling:paper":"yes","recycling:plastic":"yes","recycling_type":"container"}},"type":"Feature"},
	{"geometry":{"coordinates":[18.617091,48.785919],"type":"Point"},"properties":{"osm_id":"6365121679","tag":{"amenity":"recycling","recycling:cans":"yes","recycling:glass":"yes","recycling:paper":"yes","recycling:plastic":"yes","recycling_type":"container"}},"type":"Feature"},
	{"geometry":{"coordinates":[18.626242,48.775802],"type":"Point"},"properties":{"osm_id":"6398507254","tag":{"amenity":"recycling","recycling:cans":"yes","recycling:glass":"yes","recycling:paper":"yes","recycling:plastic":"yes","recycling_type":"container"}},"type":"Feature"},
	{"geometry":{"coordinates":[18.626562,48.774818],"type":"Point"},"properties":{"osm_id":"6398507270","tag":{"amenity":"recycling","recycling:cans":"yes","recycling:glass":"yes","recycling:paper":"yes","recycling:plastic":"yes","recycling_type":"container"}},"type":"Feature"},
	{"geometry":{"coordinates":[18.625855,48.77736],"type":"Point"},"properties":{"osm_id":"6398508848","tag":{"amenity":"waste_basket","waste":"trash"}},"type":"Feature"},
	{"geometry":{"coordinates":[18.627592,48.769508],"type":"Point"},"properties":{"osm_id":"6430859056","tag":{"amenity":"recycling","location":"underground","recycling:cans":"yes","recycling:glass":"yes","recycling:paper":"yes","recycling:plastic":"yes","recycling_type":"container"}},"type":"Feature"},
	{"geometry":{"coordinates":[18.608913,48.780507],"type":"Point"},"properties":{"osm_id":"6455087882","tag":{"amenity":"waste_basket","waste":"trash"}},"type":"Feature"},
	{"geometry":{"coordinates":[18.607818,48.780371],"type":"Point"},"properties":{"osm_id":"6455087883","tag":{"amenity":"waste_basket","waste":"trash"}},"type":"Feature"},
	{"geometry":{"coordinates":[18.608012,48.780398],"type":"Point"},"properties":{"osm_id":"6455090889","tag":{"amenity":"waste_basket","waste":"trash"}},"type":"Feature"},
	{"geometry":{"coordinates":[18.608247,48.780423],"type":"Point"},"properties":{"osm_id":"6455090890","tag":{"amenity":"waste_basket","waste":"trash"}},"type":"Feature"},
	{"geometry":{"coordinates":[18.608536,48.780462],"type":"Point"},"properties":{"osm_id":"6455090891","tag":{"amenity":"waste_basket","waste":"trash"}},"type":"Feature"},
	{"geometry":{"coordinates":[18.60941,48.780573],"type":"Point"},"properties":{"osm_id":"6455090892","tag":{"amenity":"waste_basket","waste":"trash"}},"type":"Feature"},
	{"geometry":{"coordinates":[18.621895,48.784381],"type":"Point"},"properties":{"osm_id":"6455090911","tag":{"amenity":"recycling","recycling:cans":"yes","recycling:glass":"yes","recycling:plastic":"yes","recycling_type":"container"}},"type":"Feature"},
	{"geometry":{"coordinates":[18.62227,48.784208],"type":"Point"},"properties":{"osm_id":"6455090912","tag":{"amenity":"recycling","recycling:cans":"yes","recycling:glass":"yes","recycling:paper":"yes","recycling:plastic":"yes","recycling_type":"container"}},"type":"Feature"},
	{"geometry":{"coordinates":[18.622183,48.784125],"type":"Point"},"properties":{"osm_id":"6455090913","tag":{"amenity":"recycling","recycling:cans":"yes","recycling:glass":"yes","recycling:paper":"yes","recycling:plastic":"yes","recycling_type":"container"}},"type":"Feature"},
	{"geometry":{"coordinates":[18.621038,48.7833],"type":"Point"},"properties":{"osm_id":"6455090914","tag":{"amenity":"recycling","recycling:cans":"yes","recycling:glass":"yes","recycling:plastic":"yes","recycling_type":"container"}},"type":"Feature"},
	{"geometry":{"coordinates":[18.618348,48.784629],"type":"Point"},"properties":{"osm_id":"6455091109","tag":{"amenity":"recycling","recycling:cans":"yes","recycling:glass":"yes","recycling:paper":"yes","recycling:plastic":"yes","recycling_type":"container"}},"type":"Feature"},
	{"geometry":{"coordinates":[18.61921,48.784224],"type":"Point"},"properties":{"osm_id":"6455091112","tag":{"amenity":"recycling","recycling:cans":"yes","recycling:glass":"yes","recycling:paper":"yes","recycling:plastic":"yes","recycling_type":"container"}},"type":"Feature"},
	{"geometry":{"coordinates":[18.617758,48.786218],"type":"Point"},"properties":{"osm_id":"6455091122","tag":{"amenity":"recycling","recycling:cans":"yes","recycling:glass":"yes","recycling:paper":"yes","recycling:plastic":"yes","recycling_type":"container"}},"type":"Feature"},
	{"geometry":{"coordinates":[18.617431,48.786374],"type":"Point"},"properties":{"osm_id":"6455091123","tag":{"amenity":"recycling","recycling:cans":"yes","recycling:glass":"yes","recycling:paper":"yes","recycling:plastic":"yes","recycling_type":"container"}},"type":"Feature"},
	{"geometry":{"coordinates":[18.616193,48.782639],"type":"Point"},"properties":{"osm_id":"6455091155","tag":{"amenity":"recycling","recycling:glass":"yes","recycling:paper":"yes","recycling:plastic":"yes","recycling_type":"container"}},"type":"Feature"},
	{"geometry":{"coordinates":[18.615217,48.786061],"type":"Point"},"properties":{"osm_id":"6455091171","tag":{"amenity":"recycling","recycling:cans":"yes","recycling:glass":"yes","recycling:paper":"yes","recycling:plastic":"yes","recycling_type":"container"}},"type":"Feature"},
	{"geometry":{"coordinates":[18.617285,48.782666],"type":"Point"},"properties":{"osm_id":"6455091183","tag":{"amenity":"recycling","recycling:cans":"yes","recycling:clothes":"yes","recycling:glass":"yes","recycling:paper":"yes","recycling:plastic":"yes","recycling_type":"container"}},"type":"Feature"},
	{"geometry":{"coordinates":[18.616323,48.781987],"type":"Point"},"properties":{"osm_id":"6455091488","tag":{"amenity":"recycling","recycling:cans":"yes","recycling:glass":"yes","recycling:paper":"yes","recycling:plastic":"yes","recycling_type":"container"}},"type":"Feature"},
	{"geometry":{"coordinates":[18.616131,48.785836],"type":"Point"},"properties":{"osm_id":"6455091493","tag":{"amenity":"recycling","recycling:cans":"yes","recycling:clothes":"yes","recycling:glass":"yes","recycling:paper":"yes","recycling:plastic":"yes","recycling_type":"container"}},"type":"Feature"},
	{"geometry":{"coordinates":[18.616309,48.785823],"type":"Point"},"properties":{"osm_id":"6455091494","tag":{"amenity":"recycling","recycling:cans":"yes","recycling:glass":"yes","recycling:paper":"yes","recycling:plastic":"yes","recycling_type":"container"}},"type":"Feature"},
	{"geometry":{"coordinates":[18.616206,48.778064],"type":"Point"},"properties":{"osm_id":"6455091887","tag":{"amenity":"recycling","recycling:glass":"yes","recycling:paper":"yes","recycling:plastic":"yes","recycling_type":"container"}},"type":"Feature"},
	{"geometry":{"coordinates":[18.588633,48.784906],"type":"Point"},"properties":{"osm_id":"6501900445","tag":{"amenity":"waste_basket","waste":"trash"}},"type":"Feature"},
	{"geometry":{"coordinates":[18.588961,48.785053],"type":"Point"},"properties":{"osm_id":"6501900446","tag":{"amenity":"waste_basket","waste":"trash"}},"type":"Feature"},
	{"geometry":{"coordinates":[18.622624,48.792051],"type":"Point"},"properties":{"osm_id":"6501900455","tag":{"amenity":"recycling","recycling:glass":"yes","recycling:paper":"yes","recycling:plastic":"yes","recycling_type":"container"}},"type":"Feature"},
	{"geometry":{"coordinates":[18.588787,48.786093],"type":"Point"},"properties":{"osm_id":"6501901065","tag":{"amenity":"waste_basket","waste":"trash"}},"type":"Feature"},
	{"geometry":{"coordinates":[18.58871,48.786308],"type":"Point"},"properties":{"osm_id":"6501901069","tag":{"amenity":"waste_basket","waste":"trash"}},"type":"Feature"},
	{"geometry":{"coordinates":[18.589046,48.786249],"type":"Point"},"properties":{"osm_id":"6501901071","tag":{"amenity":"waste_basket","waste":"trash"}},"type":"Feature"},
	{"geometry":{"coordinates":[18.603664,48.774045],"type":"Point"},"properties":{"osm_id":"6542537227","tag":{"amenity":"recycling","recycling:cans":"yes","recycling:glass":"yes","recycling:paper":"yes","recycling:plastic":"yes","recycling_type":"container"}},"type":"Feature"},
	{"geometry":{"coordinates":[18.601988,48.772357],"type":"Point"},"properties":{"osm_id":"6542537228","tag":{"amenity":"recycling","recycling:cans":"yes","recycling:clothes":"yes","recycling:glass":"yes","recycling:paper":"yes","recycling:plastic":"yes","recycling_type":"container"}},"type":"Feature"},
	{"geometry":{"coordinates":[18.602966,48.767269],"type":"Point"},"properties":{"osm_id":"6542537229","tag":{"amenity":"recycling","recycling:cans":"yes","recycling:glass":"yes","recycling:paper":"yes","recycling:plastic":"yes","recycling_type":"container"}},"type":"Feature"},
	{"geometry":{"coordinates":[18.604273,48.768052],"type":"Point"},"properties":{"osm_id":"6542537255","tag":{"amenity":"recycling","recycling:cans":"yes","recycling:clothes":"yes","recycling:glass":"yes","recycling:paper":"yes","recycling:plastic":"yes","recycling_type":"container"}},"type":"Feature"},
	{"geometry":{"coordinates":[18.603542,48.767739],"type":"Point"},"properties":{"osm_id":"6542537256","tag":{"amenity":"recycling","recycling:cans":"yes","recycling:glass":"yes","recycling:paper":"yes","recycling:plastic":"yes","recycling_type":"container"}},"type":"Feature"},
	{"geometry":{"coordinates":[18.622161,48.783308],"type":"Point"},"properties":{"osm_id":"6766600903","tag":{"amenity":"waste_basket","waste":"trash"}},"type":"Feature"},
	{"geometry":{"coordinates":[18.625388,48.77791],"type":"Point"},"properties":{"osm_id":"6815441861","tag":{"amenity":"recycling","recycling:clothes":"yes","recycling:glass":"yes","recycling:paper":"yes","recycling:plastic":"yes","recycling_type":"container"}},"type":"Feature"},
	{"geometry":{"coordinates":[18.615531,48.779322],"type":"Point"},"properties":{"osm_id":"7036072784","tag":{"amenity":"waste_basket","waste":"trash"}},"type":"Feature"},
	{"geometry":{"coordinates":[18.615933,48.779127],"type":"Point"},"properties":{"osm_id":"7036072785","tag":{"amenity":"waste_basket","waste":"trash"}},"type":"Feature"},
	{"geometry":{"coordinates":[18.617197,48.780772],"type":"Point"},"properties":{"osm_id":"7036072797","tag":{"amenity":"waste_basket","waste":"trash"}},"type":"Feature"},
	{"geometry":{"coordinates":[18.617665,48.78131],"type":"Point"},"properties":{"osm_id":"7036072800","tag":{"amenity":"waste_basket","waste":"trash"}},"type":"Feature"},
	{"geometry":{"coordinates":[18.618016,48.781154],"type":"Point"},"properties":{"osm_id":"7036072801","tag":{"amenity":"waste_basket","waste":"trash"}},"type":"Feature"},
	{"geometry":{"coordinates":[18.616801,48.780366],"type":"Point"},"properties":{"osm_id":"7036072826","tag":{"amenity":"waste_basket","waste":"trash"}},"type":"Feature"},
	{"geometry":{"coordinates":[18.616907,48.780323],"type":"Point"},"properties":{"osm_id":"7036072827","tag":{"amenity":"waste_basket","waste":"trash"}},"type":"Feature"},
	{"geometry":{"coordinates":[18.607018,48.779957],"type":"Point"},"properties":{"osm_id":"7036072897","tag":{"amenity":"waste_basket","level":"1","waste":"trash"}},"type":"Feature"},
	{"geometry":{"coordinates":[18.629863,48.784218],"type":"Point"},"properties":{"osm_id":"7036072984","tag":{"amenity":"waste_basket"}},"type":"Feature"},
	{"geometry":{"coordinates":[18.630739,48.783977],"type":"Point"},"properties":{"osm_id":"7036072992","tag":{"amenity":"recycling","recycling:cans":"yes","recycling:glass":"yes","recycling:paper":"yes","recycling:plastic":"yes","recycling_type":"container"}},"type":"Feature"},
	{"geometry":{"coordinates":[18.624896,48.7755],"type":"Point"},"properties":{"osm_id":"7116615879","tag":{"amenity":"waste_basket","waste":"trash"}},"type":"Feature"},
	{"geometry":{"coordinates":[18.630082,48.773941],"type":"Point"},"properties":{"osm_id":"7122835670","tag":{"amenity":"waste_basket","waste":"trash"}},"type":"Feature"},
	{"geometry":{"coordinates":[18.619449,48.75547],"type":"Point"},"properties":{"osm_id":"7148717400","tag":{"amenity":"waste_basket","waste":"trash"}},"type":"Feature"},
	{"geometry":{"coordinates":[18.576516,48.778134],"type":"Point"},"properties":{"osm_id":"7247552807","tag":{"amenity":"waste_basket","waste":"trash"}},"type":"Feature"},
	{"geometry":{"coordinates":[18.5801,48.779844],"type":"Point"},"properties":{"osm_id":"7306317928","tag":{"amenity":"waste_basket"}},"type":"Feature"},
	{"geometry":{"coordinates":[18.581036,48.779537],"type":"Point"},"properties":{"osm_id":"7306317929","tag":{"amenity":"waste_basket"}},"type":"Feature"},
	{"geometry":{"coordinates":[18.598099,48.774815],"type":"Point"},"properties":{"osm_id":"7354174605","tag":{"amenity":"recycling","recycling:cans":"yes","recycling:glass":"yes","recycling:paper":"yes","recycling:plastic":"yes","recycling_type":"container"}},"type":"Feature"},
	{"geometry":{"coordinates":[18.598019,48.772261],"type":"Point"},"properties":{"osm_id":"7354174618","tag":{"amenity":"waste_basket","waste":"trash"}},"type":"Feature"},
	{"geometry":{"coordinates":[18.574757,48.763084],"type":"Point"},"properties":{"osm_id":"7503345107","tag":{"amenity":"waste_basket","waste":"dog_excrement"}},"type":"Feature"},
	{"geometry":{"coordinates":[18.571595,48.761642],"type":"Point"},"properties":{"osm_id":"7503345108","tag":{"amenity":"waste_basket","waste":"dog_excrement"}},"type":"Feature"},
	{"geometry":{"coordinates":[18.576545,48.766751],"type":"Point"},"properties":{"osm_id":"7617954984","tag":{"amenity":"recycling","recycling:glass":"yes","recycling_type":"container"}},"type":"Feature"},
	{"geometry":{"coordinates":[18.56985,48.765869],"type":"Point"},"properties":{"osm_id":"7617955099","tag":{"amenity":"recycling","recycling:green_waste":"yes","recycling:plastic":"yes","recycling_type":"container"}},"type":"Feature"},
	{"geometry":{"coordinates":[18.570976,48.761895],"type":"Point"},"properties":{"osm_id":"7617955255","tag":{"amenity":"waste_basket","waste":"trash"}},"type":"Feature"},
	{"geometry":{"coordinates":[18.570877,48.761937],"type":"Point"},"properties":{"osm_id":"7617955256","tag":{"amenity":"waste_basket","waste":"trash"}},"type":"Feature"},
	{"geometry":{"coordinates":[18.570876,48.761995],"type":"Point"},"properties":{"osm_id":"7617955257","tag":{"amenity":"waste_basket","waste":"trash"}},"type":"Feature"},
	{"geometry":{"coordinates":[18.570954,48.76205],"type":"Point"},"properties":{"osm_id":"7617955258","tag":{"amenity":"waste_basket","waste":"trash"}},"type":"Feature"},
	{"geometry":{"coordinates":[18.570769,48.761899],"type":"Point"},"properties":{"osm_id":"7617955259","tag":{"amenity":"waste_basket","waste":"trash"}},"type":"Feature"},
	{"geometry":{"coordinates":[18.623346,48.783707],"type":"Point"},"properties":{"osm_id":"7649278298","tag":{"amenity":"recycling","recycling:beverage_cartons":"yes","recycling:cans":"yes","recycling:glass":"yes","recycling:paper":"yes","recycling:plastic":"yes","recycling_type":"container"}},"type":"Feature"},
	{"geometry":{"coordinates":[18.623245,48.783633],"type":"Point"},"properties":{"osm_id":"7649278299","tag":{"amenity":"recycling","recycling:beverage_cartons":"yes","recycling:cans":"yes","recycling:clothes":"yes","recycling:glass":"yes","recycling:paper":"yes","recycling:plastic":"yes","recycling_type":"container"}},"type":"Feature"},
	{"geometry":{"coordinates":[18.613846,48.779991],"type":"Point"},"properties":{"osm_id":"7649278480","tag":{"amenity":"recycling","recycling:glass":"yes","recycling:paper":"yes","recycling:plastic":"yes","recycling_type":"container"}},"type":"Feature"},
	{"geometry":{"coordinates":[18.621731,48.771229],"type":"Point"},"properties":{"osm_id":"7649278555","tag":{"amenity":"waste_basket","level":"0","waste":"trash"}},"type":"Feature"},
	{"geometry":{"coordinates":[18.621398,48.771223],"type":"Point"},"properties":{"osm_id":"7649278556","tag":{"amenity":"waste_basket","level":"0","waste":"trash"}},"type":"Feature"},
	{"geometry":{"coordinates":[18.621489,48.771477],"type":"Point"},"properties":{"osm_id":"7649278557","tag":{"amenity":"waste_basket","level":"1","waste":"trash"}},"type":"Feature"},
	{"geometry":{"coordinates":[18.621436,48.77149],"type":"Point"},"properties":{"osm_id":"7649278558","tag":{"amenity":"waste_basket","level":"0","waste":"trash"}},"type":"Feature"},
	{"geometry":{"coordinates":[18.571265,48.764025],"type":"Point"},"properties":{"osm_id":"7670876672","tag":{"amenity":"waste_basket","waste":"trash"}},"type":"Feature"},
	{"geometry":{"coordinates":[18.571511,48.76381],"type":"Point"},"properties":{"osm_id":"7670876673","tag":{"amenity":"waste_basket","waste":"trash"}},"type":"Feature"},
	{"geometry":{"coordinates":[18.571517,48.763373],"type":"Point"},"properties":{"osm_id":"7670876674","tag":{"amenity":"waste_basket","waste":"trash"}},"type":"Feature"},
	{"geometry":{"coordinates":[18.571306,48.763],"type":"Point"},"properties":{"osm_id":"7670876677","tag":{"amenity":"waste_basket","waste":"trash"}},"type":"Feature"},
	{"geometry":{"coordinates":[18.571002,48.762459],"type":"Point"},"properties":{"osm_id":"7670876678","tag":{"amenity":"waste_basket","waste":"trash"}},"type":"Feature"},
	{"geometry":{"coordinates":[18.571136,48.762703],"type":"Point"},"properties":{"osm_id":"7670876679","tag":{"amenity":"waste_basket","waste":"trash"}},"type":"Feature"},
	{"geometry":{"coordinates":[18.617723,48.783583],"type":"Point"},"properties":{"osm_id":"7840320187","tag":{"amenity":"waste_basket","waste":"trash"}},"type":"Feature"},
	{"geometry":{"coordinates":[18.61927,48.780913],"type":"Point"},"properties":{"osm_id":"7840320196","tag":{"amenity":"waste_basket","waste":"trash"}},"type":"Feature"},
	{"geometry":{"coordinates":[18.598993,48.768838],"type":"Point"},"properties":{"osm_id":"7840320323","tag":{"amenity":"recycling","recycling:cans":"yes","recycling:glass":"yes","recycling:paper":"yes","recycling:paper_packaging":"yes","recycling:plastic":"yes","recycling_type":"container"}},"type":"Feature"},
	{"geometry":{"coordinates":[18.617275,48.776425],"type":"Point"},"properties":{"osm_id":"7840320373","tag":{"amenity":"waste_basket","waste":"trash"}},"type":"Feature"},
	{"geometry":{"coordinates":[18.617676,48.777117],"type":"Point"},"properties":{"osm_id":"7840320376","tag":{"amenity":"waste_basket","waste":"trash"}},"type":"Feature"},
	{"geometry":{"coordinates":[18.624459,48.774642],"type":"Point"},"properties":{"osm_id":"7840320408","tag":{"amenity":"waste_basket","waste":"trash"}},"type":"Feature"},
	{"geometry":{"coordinates":[18.62554,48.77516],"type":"Point"},"properties":{"osm_id":"7840320409","tag":{"amenity":"waste_basket","waste":"trash"}},"type":"Feature"},
	{"geometry":{"coordinates":[18.625984,48.774618],"type":"Point"},"properties":{"osm_id":"7840320413","tag":{"amenity":"waste_basket","waste":"trash"}},"type":"Feature"}
]
}
