{
"type": "FeatureCollection",
"features": [
	{"geometry":{"coordinates":[18.597818,-33.908774],"type":"Point"},"properties":{"osm_id":"4465143640","tag":{"amenity":"waste_basket"}},"type":"Feature"},
	{"geometry":{"coordinates":[18.575333,-33.875591],"type":"Point"},"properties":{"osm_id":"4466001108","tag":{"amenity":"waste_basket"}},"type":"Feature"},
	{"geometry":{"coordinates":[18.575715,-33.875455],"type":"Point"},"properties":{"osm_id":"4466001109","tag":{"amenity":"waste_basket"}},"type":"Feature"},
	{"geometry":{"coordinates":[18.575737,-33.875738],"type":"Point"},"properties":{"osm_id":"4466001115","tag":{"amenity":"waste_basket"}},"type":"Feature"},
	{"geometry":{"coordinates":[18.575988,-33.875567],"type":"Point"},"properties":{"osm_id":"4466001125","tag":{"amenity":"waste_basket"}},"type":"Feature"},
	{"geometry":{"coordinates":[18.576104,-33.875312],"type":"Point"},"properties":{"osm_id":"4466001126","tag":{"amenity":"waste_basket"}},"type":"Feature"},
	{"geometry":{"coordinates":[18.576739,-33.875294],"type":"Point"},"properties":{"osm_id":"4466001127","tag":{"amenity":"waste_basket"}},"type":"Feature"},
	{"geometry":{"coordinates":[18.576908,-33.875013],"type":"Point"},"properties":{"osm_id":"4466001128","tag":{"amenity":"waste_basket"}},"type":"Feature"},
	{"geometry":{"coordinates":[18.577259,-33.875135],"type":"Point"},"properties":{"osm_id":"4466001129","tag":{"amenity":"waste_basket"}},"type":"Feature"},
	{"geometry":{"coordinates":[18.577358,-33.874828],"type":"Point"},"properties":{"osm_id":"4466001130","tag":{"amenity":"waste_basket"}},"type":"Feature"},
	{"geometry":{"coordinates":[18.577725,-33.874951],"type":"Point"},"properties":{"osm_id":"4466001131","tag":{"amenity":"waste_basket"}},"type":"Feature"},
	{"geometry":{"coordinates":[18.578316,-33.874484],"type":"Point"},"properties":{"osm_id":"4466001132","tag":{"amenity":"waste_basket"}},"type":"Feature"},
	{"geometry":{"coordinates":[18.578877,-33.874285],"type":"Point"},"properties":{"osm_id":"4466001133","tag":{"amenity":"waste_basket"}},"type":"Feature"},
	{"geometry":{"coordinates":[18.580196,-33.874087],"type":"Point"},"properties":{"osm_id":"4466001134","tag":{"amenity":"waste_basket"}},"type":"Feature"},
	{"geometry":{"coordinates":[18.580434,-33.873854],"type":"Point"},"properties":{"osm_id":"4466001135","tag":{"amenity":"waste_basket"}},"type":"Feature"},
	{"geometry":{"coordinates":[18.580094,-33.873721],"type":"Point"},"properties":{"osm_id":"4466001136","tag":{"amenity":"waste_basket"}},"type":"Feature"},
	{"geometry":{"coordinates":[18.579865,-33.873952],"type":"Point"},"properties":{"osm_id":"4466001137","tag":{"amenity":"waste_basket"}},"type":"Feature"},
	{"geometry":{"coordinates":[18.579732,-33.873354],"type":"Point"},"properties":{"osm_id":"4466001138","tag":{"amenity":"waste_basket"}},"type":"Feature"},
	{"geometry":{"coordinates":[18.56943,-33.873224],"type":"Point"},"properties":{"name":"Welgelegen Waste Drop-Off Facility","osm_id":"4466359832","tag":{"amenity":"waste_disposal","opening_hours":"Mo-Sa 8:30-13:00"}},"type":"Feature"},
	{"geometry":{"coordinates":[18.623825,-33.901575],"type":"Point"},"properties":{"osm_id":"4468809516","tag":{"amenity":"waste_basket"}},"type":"Feature"},
	{"geometry":{"coordinates":[18.624555,-33.901861],"type":"Point"},"properties":{"osm_id":"4468809526","tag":{"amenity":"waste_basket"}},"type":"Feature"},
	{"geometry":{"coordinates":[18.624229,-33.901889],"type":"Point"},"properties":{"osm_id":"4468809529","tag":{"amenity":"waste_basket"}},"type":"Feature"},
	{"geometry":{"coordinates":[18.626046,-33.901911],"type":"Point"},"properties":{"highway":"street_lamp","osm_id":"4468809531","tag":{"amenity":"waste_basket"}},"type":"Feature"},
	{"geometry":{"coordinates":[18.625657,-33.901932],"type":"Point"},"properties":{"highway":"street_lamp","osm_id":"4468809533","tag":{"amenity":"waste_basket"}},"type":"Feature"},
	{"geometry":{"coordinates":[18.623878,-33.901945],"type":"Point"},"properties":{"osm_id":"4468809534","tag":{"amenity":"waste_basket"}},"type":"Feature"},
	{"geometry":{"coordinates":[18.623645,-33.902098],"type":"Point"},"properties":{"osm_id":"4468809535","tag":{"amenity":"waste_basket"}},"type":"Feature"},
	{"geometry":{"coordinates":[18.623833,-33.9022],"type":"Point"},"properties":{"highway":"street_lamp","osm_id":"4468809537","tag":{"amenity":"waste_basket"}},"type":"Feature"},
	{"geometry":{"coordinates":[18.623869,-33.902526],"type":"Point"},"properties":{"highway":"street_lamp","osm_id":"4468809541","tag":{"amenity":"waste_basket"}},"type":"Feature"},
	{"geometry":{"coordinates":[18.621566,-33.89375],"type":"Point"},"properties":{"osm_id":"4471227594","tag":{"amenity":"waste_basket"}},"type":"Feature"},
	{"geometry":{"coordinates":[18.62143,-33.893748],"type":"Point"},"properties":{"osm_id":"4471227596","tag":{"amenity":"waste_basket"}},"type":"Feature"},
	{"geometry":{"coordinates":[18.620508,-33.893795],"type":"Point"},"properties":{"osm_id":"4471227599","tag":{"amenity":"waste_basket"}},"type":"Feature"},
	{"geometry":{"coordinates":[18.619995,-33.893842],"type":"Point"},"properties":{"osm_id":"4471227601","tag":{"amenity":"waste_basket"}},"type":"Feature"},
	{"geometry":{"coordinates":[18.619603,-33.893859],"type":"Point"},"properties":{"osm_id":"4471227604","tag":{"amenity":"waste_basket"}},"type":"Feature"},
	{"geometry":{"coordinates":[18.618736,-33.893921],"type":"Point"},"properties":{"osm_id":"4471227605","tag":{"amenity":"waste_basket"}},"type":"Feature"},
	{"geometry":{"coordinates":[18.617806,-33.893968],"type":"Point"},"properties":{"osm_id":"4471227606","tag":{"amenity":"waste_basket"}},"type":"Feature"},
	{"geometry":{"coordinates":[18.616919,-33.894027],"type":"Point"},"properties":{"osm_id":"4471227608","tag":{"amenity":"waste_basket"}},"type":"Feature"},
	{"geometry":{"coordinates":[18.616012,-33.89409],"type":"Point"},"properties":{"osm_id":"4471227609","tag":{"amenity":"waste_basket"}},"type":"Feature"},
	{"geometry":{"coordinates":[18.615113,-33.894136],"type":"Point"},"properties":{"osm_id":"4471227610","tag":{"amenity":"waste_basket"}},"type":"Feature"},
	{"geometry":{"coordinates":[18.614193,-33.89418],"type":"Point"},"properties":{"osm_id":"4471227617","tag":{"amenity":"waste_basket"}},"type":"Feature"},
	{"geometry":{"coordinates":[18.614198,-33.893806],"type":"Point"},"properties":{"osm_id":"4471227618","tag":{"amenity":"waste_basket"}},"type":"Feature"},
	{"geometry":{"coordinates":[18.629977,-33.904267],"type":"Point"},"properties":{"osm_id":"4472813550","tag":{"amenity":"waste_basket"}},"type":"Feature"},
	{"geometry":{"coordinates":[18.558283,-33.891937],"type":"Point"},"properties":{"osm_id":"4518431942","tag":{"amenity":"waste_basket"}},"type":"Feature"},
	{"geometry":{"coordinates":[18.590439,-33.890733],"type":"Point"},"properties":{"osm_id":"4522445429","tag":{"amenity":"waste_basket"}},"type":"Feature"},
	{"geometry":{"coordinates":[18.576736,-33.893634],"type":"Point"},"properties":{"name":"De Grendel Solid Waste Facility","osm_id":"4559264271","tag":{"amenity":"recycling","recycling_type":"centre"}},"type":"Feature"}
]
}
