{
"type": "FeatureCollection",
"features": [
	{"geometry":{"coordinates":[-38.474834,-12.849787],"type":"Point"},"properties":{"osm_id":"7808427677","tag":{"amenity":"waste_disposal"}},"type":"Feature"},
	{"geometry":{"coordinates":[-38.476776,-12.857375],"type":"Point"},"properties":{"osm_id":"7808492526","tag":{"amenity":"waste_disposal"}},"type":"Feature"},
	{"geometry":{"coordinates":[-38.484441,-12.829194],"type":"Point"},"properties":{"osm_id":"7830247702","tag":{"amenity":"waste_disposal"}},"type":"Feature"},
	{"geometry":{"coordinates":[-38.483405,-12.831445],"type":"Point"},"properties":{"osm_id":"7830273721","tag":{"amenity":"waste_disposal"}},"type":"Feature"},
	{"geometry":{"coordinates":[-38.473075,-12.835591],"type":"Point"},"properties":{"osm_id":"7830588736","tag":{"amenity":"waste_disposal","operator":"Cont\u00c3\u00aainer de Lixo n\u00c3\u00a3o Reciclado"}},"type":"Feature"},
	{"geometry":{"coordinates":[-38.473993,-12.829705],"type":"Point"},"properties":{"osm_id":"7833214129","tag":{"amenity":"waste_disposal","operator":"Cont\u00c3\u00aainer de Lixo n\u00c3\u00a3o Reciclado"}},"type":"Feature"},
	{"geometry":{"coordinates":[-38.472137,-12.83344],"type":"Point"},"properties":{"osm_id":"7833518279","tag":{"amenity":"waste_disposal","operator":"Cont\u00c3\u00aainer de Lixo n\u00c3\u00a3o Reciclado"}},"type":"Feature"}
]
}
