{
"type": "FeatureCollection",
"features": [
	{"geometry":{"coordinates":[-38.466426,-12.987172],"type":"Point"},"properties":{"osm_id":"651767399","tag":{"access":"permissive","amenity":"recycling"}},"type":"Feature"},
	{"geometry":{"coordinates":[-38.466057,-12.985099],"type":"Point"},"properties":{"osm_id":"651771832","tag":{"access":"permissive","amenity":"recycling"}},"type":"Feature"},
	{"geometry":{"coordinates":[-38.482577,-13.012208],"type":"Point"},"properties":{"osm_id":"3835082152","tag":{"amenity":"waste_basket"}},"type":"Feature"},
	{"geometry":{"coordinates":[-38.482333,-13.012172],"type":"Point"},"properties":{"osm_id":"3835098424","tag":{"amenity":"waste_basket"}},"type":"Feature"},
	{"geometry":{"coordinates":[-38.482015,-13.012255],"type":"Point"},"properties":{"osm_id":"3835099248","tag":{"amenity":"waste_basket"}},"type":"Feature"},
	{"geometry":{"coordinates":[-38.477689,-13.013867],"type":"Point"},"properties":{"osm_id":"3835104059","tag":{"amenity":"waste_basket"}},"type":"Feature"},
	{"geometry":{"coordinates":[-38.478025,-13.013399],"type":"Point"},"properties":{"osm_id":"3835104972","tag":{"amenity":"waste_basket"}},"type":"Feature"},
	{"geometry":{"coordinates":[-38.482325,-13.012833],"type":"Point"},"properties":{"osm_id":"3835111173","tag":{"amenity":"waste_basket"}},"type":"Feature"},
	{"geometry":{"coordinates":[-38.482436,-13.012896],"type":"Point"},"properties":{"osm_id":"3835113657","tag":{"amenity":"waste_basket"}},"type":"Feature"},
	{"geometry":{"coordinates":[-38.484116,-13.014813],"type":"Point"},"properties":{"osm_id":"3835117508","tag":{"amenity":"waste_basket"}},"type":"Feature"},
	{"geometry":{"coordinates":[-38.48356,-13.011305],"type":"Point"},"properties":{"osm_id":"3835121869","tag":{"amenity":"waste_basket"}},"type":"Feature"},
	{"geometry":{"coordinates":[-38.483843,-13.011017],"type":"Point"},"properties":{"osm_id":"3835125366","tag":{"amenity":"waste_basket"}},"type":"Feature"},
	{"geometry":{"coordinates":[-38.49012,-13.010131],"type":"Point"},"properties":{"osm_id":"5154407217","tag":{"amenity":"waste_basket"}},"type":"Feature"},
	{"geometry":{"coordinates":[-38.466936,-12.989684],"type":"Point"},"properties":{"name":"Ecoponto","osm_id":"6944928618","tag":{"amenity":"recycling","opening_hours":"Mo-Sa 07:00-17:00","opening_hours:covid19":"same","recycling_type":"centre"}},"type":"Feature"},
	{"geometry":{"coordinates":[-38.461744,-12.996409],"type":"Point"},"properties":{"osm_id":"7900669348","tag":{"amenity":"waste_basket"}},"type":"Feature"}
]
}
