{
"type": "FeatureCollection",
"features": [
	{"geometry":{"coordinates":[-71.276432,46.843888],"type":"Point"},"properties":{"osm_id":"1609244090","tag":{"amenity":"recycling"}},"type":"Feature"},
	{"geometry":{"coordinates":[-71.261168,46.849743],"type":"Point"},"properties":{"osm_id":"2423725712","tag":{"amenity":"waste_basket"}},"type":"Feature"},
	{"geometry":{"coordinates":[-71.256333,46.85038],"type":"Point"},"properties":{"osm_id":"2425520095","tag":{"amenity":"waste_basket"}},"type":"Feature"},
	{"geometry":{"coordinates":[-71.262955,46.843941],"type":"Point"},"properties":{"osm_id":"2463236413","tag":{"amenity":"waste_basket"}},"type":"Feature"},
	{"geometry":{"coordinates":[-71.262398,46.844168],"type":"Point"},"properties":{"osm_id":"2463236419","tag":{"amenity":"waste_basket"}},"type":"Feature"},
	{"geometry":{"coordinates":[-71.262827,46.844695],"type":"Point"},"properties":{"osm_id":"2463236442","tag":{"amenity":"waste_basket"}},"type":"Feature"},
	{"geometry":{"coordinates":[-71.263678,46.844724],"type":"Point"},"properties":{"osm_id":"2463236443","tag":{"amenity":"waste_basket"}},"type":"Feature"},
	{"geometry":{"coordinates":[-71.262024,46.844753],"type":"Point"},"properties":{"osm_id":"2463915416","tag":{"amenity":"waste_disposal"}},"type":"Feature"},
	{"geometry":{"coordinates":[-71.263331,46.844907],"type":"Point"},"properties":{"osm_id":"2463915426","tag":{"amenity":"waste_basket"}},"type":"Feature"},
	{"geometry":{"coordinates":[-71.26314,46.844913],"type":"Point"},"properties":{"osm_id":"2463915428","tag":{"amenity":"waste_basket"}},"type":"Feature"},
	{"geometry":{"coordinates":[-71.264,46.84492],"type":"Point"},"properties":{"osm_id":"2463915431","tag":{"amenity":"waste_basket"}},"type":"Feature"},
	{"geometry":{"coordinates":[-71.262592,46.844989],"type":"Point"},"properties":{"osm_id":"2463915434","tag":{"amenity":"waste_basket"}},"type":"Feature"},
	{"geometry":{"coordinates":[-71.263833,46.845005],"type":"Point"},"properties":{"osm_id":"2463915435","tag":{"amenity":"waste_basket"}},"type":"Feature"},
	{"geometry":{"coordinates":[-71.217401,46.822068],"type":"Point"},"properties":{"osm_id":"2950103091","tag":{"amenity":"waste_basket"}},"type":"Feature"},
	{"geometry":{"coordinates":[-71.240198,46.825661],"type":"Point"},"properties":{"name":"Site de compostage du Parc Cartier-Br\u00c3\u00a9beuf","osm_id":"3042338944","tag":{"amenity":"recycling","phone":"+1-418-523-4580","recycling:organic":"yes","website":"https://craquebitume.org/"}},"type":"Feature"},
	{"geometry":{"coordinates":[-71.228988,46.824265],"type":"Point"},"properties":{"name":"Site de compostage de l'\u00c3\u0089cole de Cirque","osm_id":"3042409124","tag":{"amenity":"recycling","phone":"+1-418-523-4580","recycling:organic":"yes","website":"https://craquebitume.org/"}},"type":"Feature"},
	{"geometry":{"coordinates":[-71.209335,46.818395],"type":"Point"},"properties":{"osm_id":"3577621957","tag":{"amenity":"waste_basket"}},"type":"Feature"},
	{"geometry":{"coordinates":[-71.240885,46.800581],"type":"Point"},"properties":{"osm_id":"4970607255","tag":{"amenity":"waste_basket"}},"type":"Feature"},
	{"geometry":{"coordinates":[-71.217558,46.803779],"type":"Point"},"properties":{"osm_id":"5864656446","tag":{"amenity":"waste_basket"}},"type":"Feature"},
	{"geometry":{"coordinates":[-71.216645,46.804372],"type":"Point"},"properties":{"osm_id":"5864656452","tag":{"amenity":"waste_basket"}},"type":"Feature"},
	{"geometry":{"coordinates":[-71.216625,46.804387],"type":"Point"},"properties":{"osm_id":"5864656453","tag":{"amenity":"recycling","recycling_type":"container"}},"type":"Feature"},
	{"geometry":{"coordinates":[-71.216931,46.804823],"type":"Point"},"properties":{"osm_id":"5864656457","tag":{"amenity":"waste_basket"}},"type":"Feature"},
	{"geometry":{"coordinates":[-71.21692,46.804818],"type":"Point"},"properties":{"osm_id":"5864656458","tag":{"amenity":"recycling","recycling_type":"container"}},"type":"Feature"},
	{"geometry":{"coordinates":[-71.217984,46.804198],"type":"Point"},"properties":{"osm_id":"5864656460","tag":{"amenity":"waste_basket"}},"type":"Feature"},
	{"geometry":{"coordinates":[-71.217996,46.804194],"type":"Point"},"properties":{"osm_id":"5864656461","tag":{"amenity":"recycling","recycling_type":"container"}},"type":"Feature"},
	{"geometry":{"coordinates":[-71.218643,46.8036],"type":"Point"},"properties":{"osm_id":"5864656462","tag":{"amenity":"waste_basket"}},"type":"Feature"},
	{"geometry":{"coordinates":[-71.218883,46.803376],"type":"Point"},"properties":{"osm_id":"5864656463","tag":{"amenity":"recycling","recycling_type":"container"}},"type":"Feature"},
	{"geometry":{"coordinates":[-71.218899,46.803389],"type":"Point"},"properties":{"osm_id":"5864656464","tag":{"amenity":"waste_basket"}},"type":"Feature"},
	{"geometry":{"coordinates":[-71.218383,46.803197],"type":"Point"},"properties":{"osm_id":"5864656465","tag":{"amenity":"waste_basket"}},"type":"Feature"},
	{"geometry":{"coordinates":[-71.218392,46.80319],"type":"Point"},"properties":{"osm_id":"5864656466","tag":{"amenity":"recycling","recycling_type":"container"}},"type":"Feature"},
	{"geometry":{"coordinates":[-71.228503,46.814039],"type":"Point"},"properties":{"osm_id":"5872294941","tag":{"amenity":"waste_basket","waste":"trash"}},"type":"Feature"},
	{"geometry":{"coordinates":[-71.228765,46.813916],"type":"Point"},"properties":{"osm_id":"5872294946","tag":{"amenity":"waste_basket","waste":"trash"}},"type":"Feature"},
	{"geometry":{"coordinates":[-71.238809,46.821834],"type":"Point"},"properties":{"osm_id":"7650613648","tag":{"amenity":"waste_basket"}},"type":"Feature"},
	{"geometry":{"coordinates":[-71.238247,46.821926],"type":"Point"},"properties":{"osm_id":"7650613649","tag":{"amenity":"waste_basket","waste":"dog_excrement"}},"type":"Feature"},
	{"geometry":{"coordinates":[-71.238103,46.821868],"type":"Point"},"properties":{"osm_id":"7650613650","tag":{"amenity":"waste_basket"}},"type":"Feature"}
]
}
