{
"type": "FeatureCollection",
"features": [
	{"geometry":{"coordinates":[-71.265082,-33.002497],"type":"Point"},"properties":{"osm_id":"4747007073","tag":{"amenity":"recycling","recycling:plastic_bottles":"yes","recycling_type":"container"}},"type":"Feature"},
	{"geometry":{"coordinates":[-71.267292,-33.004174],"type":"Point"},"properties":{"osm_id":"4747007075","tag":{"amenity":"recycling","recycling:plastic_bottles":"yes","recycling_type":"container"}},"type":"Feature"},
	{"geometry":{"coordinates":[-71.271478,-33.014577],"type":"Point"},"properties":{"osm_id":"6226434504","tag":{"addr:city":"Limache","addr:street":"Avenida Palmira Romano Oriente","amenity":"waste_basket"}},"type":"Feature"},
	{"geometry":{"coordinates":[-71.259855,-33.006725],"type":"Point"},"properties":{"osm_id":"6227380149","tag":{"amenity":"waste_basket"}},"type":"Feature"},
	{"geometry":{"coordinates":[-71.260081,-33.00666],"type":"Point"},"properties":{"osm_id":"6227416882","tag":{"amenity":"waste_basket"}},"type":"Feature"},
	{"geometry":{"coordinates":[-71.260196,-33.006474],"type":"Point"},"properties":{"osm_id":"6227416986","tag":{"amenity":"waste_basket"}},"type":"Feature"},
	{"geometry":{"coordinates":[-71.259923,-33.00655],"type":"Point"},"properties":{"osm_id":"6227438007","tag":{"amenity":"waste_basket"}},"type":"Feature"},
	{"geometry":{"coordinates":[-71.270523,-33.013694],"type":"Point"},"properties":{"osm_id":"7103221643","tag":{"amenity":"recycling","recycling:plastic_bottles":"yes","recycling_type":"container"}},"type":"Feature"},
	{"geometry":{"coordinates":[-71.265837,-33.002006],"type":"Point"},"properties":{"osm_id":"7294986563","tag":{"amenity":"waste_basket"}},"type":"Feature"},
	{"geometry":{"coordinates":[-71.259974,-33.004622],"type":"Point"},"properties":{"osm_id":"7295110252","tag":{"amenity":"waste_basket"}},"type":"Feature"},
	{"geometry":{"coordinates":[-71.268372,-33.001086],"type":"Point"},"properties":{"osm_id":"7295680113","tag":{"amenity":"waste_basket"}},"type":"Feature"}
]
}
