{
"type": "FeatureCollection",
"features": [
	{"geometry":{"coordinates":[50.590643,26.242282],"type":"Point"},"properties":{"osm_id":"782187996","tag":{"amenity":"recycling","recycling:cans":"yes","recycling:glass":"yes","recycling:paper":"yes","recycling:plastic":"yes"}},"type":"Feature"},
	{"geometry":{"coordinates":[50.602331,26.267903],"type":"Point"},"properties":{"osm_id":"782188246","tag":{"amenity":"recycling","recycling:cans":"yes","recycling:glass":"yes","recycling:paper":"yes","recycling:plastic":"yes"}},"type":"Feature"},
	{"geometry":{"coordinates":[50.593464,26.212603],"type":"Point"},"properties":{"osm_id":"792210217","tag":{"amenity":"recycling","recycling:cans":"yes","recycling:glass":"yes","recycling:paper":"yes","recycling:plastic":"yes"}},"type":"Feature"},
	{"geometry":{"coordinates":[50.590524,26.23393],"type":"Point"},"properties":{"osm_id":"796171252","tag":{"amenity":"recycling","recycling:cans":"yes","recycling:glass":"yes","recycling:paper":"yes","recycling:plastic":"yes"}},"type":"Feature"},
	{"geometry":{"coordinates":[50.610577,26.212259],"type":"Point"},"properties":{"osm_id":"1139528637","tag":{"amenity":"recycling","recycling:glass":"yes","recycling:paper":"yes","recycling:plastic":"yes","recycling:scrap_metal":"yes"}},"type":"Feature"},
	{"geometry":{"coordinates":[50.597889,26.213629],"type":"Point"},"properties":{"osm_id":"1140583532","tag":{"amenity":"recycling","recycling:cans":"yes","recycling:glass":"yes","recycling:paper":"yes","recycling:plastic":"yes"}},"type":"Feature"},
	{"geometry":{"coordinates":[50.587981,26.225546],"type":"Point"},"properties":{"osm_id":"1149610887","tag":{"amenity":"waste_basket"}},"type":"Feature"},
	{"geometry":{"coordinates":[50.589462,26.224157],"type":"Point"},"properties":{"osm_id":"1149610946","tag":{"amenity":"waste_basket"}},"type":"Feature"},
	{"geometry":{"coordinates":[50.596584,26.226962],"type":"Point"},"properties":{"osm_id":"1157199191","tag":{"amenity":"waste_basket"}},"type":"Feature"},
	{"geometry":{"coordinates":[50.59659,26.225562],"type":"Point"},"properties":{"osm_id":"1157199243","tag":{"amenity":"waste_basket"}},"type":"Feature"},
	{"geometry":{"coordinates":[50.597223,26.22105],"type":"Point"},"properties":{"osm_id":"1157199258","tag":{"amenity":"waste_basket"}},"type":"Feature"},
	{"geometry":{"coordinates":[50.595603,26.228051],"type":"Point"},"properties":{"osm_id":"1157199265","tag":{"amenity":"waste_basket"}},"type":"Feature"},
	{"geometry":{"coordinates":[50.596344,26.224997],"type":"Point"},"properties":{"osm_id":"1157199319","tag":{"amenity":"waste_basket"}},"type":"Feature"},
	{"geometry":{"coordinates":[50.591853,26.229428],"type":"Point"},"properties":{"osm_id":"1157199340","tag":{"amenity":"waste_basket"}},"type":"Feature"},
	{"geometry":{"coordinates":[50.59503,26.232117],"type":"Point"},"properties":{"osm_id":"1167064070","tag":{"amenity":"waste_basket"}},"type":"Feature"},
	{"geometry":{"coordinates":[50.586548,26.22634],"type":"Point"},"properties":{"osm_id":"1170688703","tag":{"amenity":"waste_basket"}},"type":"Feature"},
	{"geometry":{"coordinates":[50.586533,26.224018],"type":"Point"},"properties":{"osm_id":"1170689019","tag":{"amenity":"recycling","recycling:cans":"yes","recycling:glass":"yes","recycling:paper":"yes","recycling:plastic":"yes"}},"type":"Feature"},
	{"geometry":{"coordinates":[50.585225,26.229936],"type":"Point"},"properties":{"osm_id":"1170689061","tag":{"amenity":"waste_basket"}},"type":"Feature"},
	{"geometry":{"coordinates":[50.58775,26.226101],"type":"Point"},"properties":{"osm_id":"1170689089","tag":{"amenity":"waste_basket"}},"type":"Feature"},
	{"geometry":{"coordinates":[50.587604,26.231551],"type":"Point"},"properties":{"osm_id":"1170689190","tag":{"amenity":"waste_basket"}},"type":"Feature"},
	{"geometry":{"coordinates":[50.588155,26.230613],"type":"Point"},"properties":{"osm_id":"1170689297","tag":{"amenity":"waste_basket"}},"type":"Feature"},
	{"geometry":{"coordinates":[50.597748,26.20851],"type":"Point"},"properties":{"osm_id":"1172943643","tag":{"amenity":"waste_basket"}},"type":"Feature"},
	{"geometry":{"coordinates":[50.599892,26.203225],"type":"Point"},"properties":{"osm_id":"1172943666","tag":{"amenity":"waste_basket"}},"type":"Feature"},
	{"geometry":{"coordinates":[50.592611,26.210666],"type":"Point"},"properties":{"osm_id":"1172943699","tag":{"amenity":"waste_basket"}},"type":"Feature"},
	{"geometry":{"coordinates":[50.594031,26.200606],"type":"Point"},"properties":{"osm_id":"1172943777","tag":{"amenity":"waste_basket"}},"type":"Feature"},
	{"geometry":{"coordinates":[50.593683,26.209814],"type":"Point"},"properties":{"osm_id":"1172943796","tag":{"amenity":"waste_basket","collection_times":"4","material":"steel"}},"type":"Feature"},
	{"geometry":{"coordinates":[50.595717,26.201462],"type":"Point"},"properties":{"osm_id":"1172943815","tag":{"amenity":"waste_basket"}},"type":"Feature"},
	{"geometry":{"coordinates":[50.596667,26.204022],"type":"Point"},"properties":{"osm_id":"1172943991","tag":{"amenity":"waste_basket"}},"type":"Feature"},
	{"geometry":{"coordinates":[50.596112,26.205265],"type":"Point"},"properties":{"osm_id":"1172944018","tag":{"amenity":"waste_basket"}},"type":"Feature"},
	{"geometry":{"coordinates":[50.597154,26.202096],"type":"Point"},"properties":{"osm_id":"1172944063","tag":{"amenity":"waste_basket"}},"type":"Feature"},
	{"geometry":{"coordinates":[50.591278,26.203082],"type":"Point"},"properties":{"osm_id":"1172944160","tag":{"amenity":"waste_basket"}},"type":"Feature"},
	{"geometry":{"coordinates":[50.593799,26.204888],"type":"Point"},"properties":{"osm_id":"1172944373","tag":{"amenity":"recycling","recycling:cans":"yes","recycling:glass":"yes","recycling:paper":"yes","recycling:plastic":"yes"}},"type":"Feature"},
	{"geometry":{"coordinates":[50.598328,26.208829],"type":"Point"},"properties":{"osm_id":"1172944689","tag":{"amenity":"waste_basket"}},"type":"Feature"},
	{"geometry":{"coordinates":[50.580237,26.220105],"type":"Point"},"properties":{"osm_id":"1298641504","tag":{"amenity":"waste_basket"}},"type":"Feature"},
	{"geometry":{"coordinates":[50.583019,26.225582],"type":"Point"},"properties":{"osm_id":"1298641585","tag":{"amenity":"waste_basket"}},"type":"Feature"},
	{"geometry":{"coordinates":[50.5839,26.223919],"type":"Point"},"properties":{"osm_id":"1298641604","tag":{"amenity":"waste_basket"}},"type":"Feature"},
	{"geometry":{"coordinates":[50.582704,26.226821],"type":"Point"},"properties":{"osm_id":"1298641652","tag":{"amenity":"waste_basket"}},"type":"Feature"},
	{"geometry":{"coordinates":[50.58359,26.224604],"type":"Point"},"properties":{"osm_id":"1298641662","tag":{"amenity":"waste_basket"}},"type":"Feature"},
	{"geometry":{"coordinates":[50.581722,26.224767],"type":"Point"},"properties":{"osm_id":"1300042617","tag":{"amenity":"waste_basket"}},"type":"Feature"},
	{"geometry":{"coordinates":[50.580189,26.224325],"type":"Point"},"properties":{"osm_id":"1300042631","tag":{"amenity":"waste_basket"}},"type":"Feature"},
	{"geometry":{"coordinates":[50.5828,26.228062],"type":"Point"},"properties":{"osm_id":"1300042632","tag":{"amenity":"waste_basket"}},"type":"Feature"},
	{"geometry":{"coordinates":[50.580607,26.224506],"type":"Point"},"properties":{"osm_id":"1300042659","tag":{"amenity":"waste_basket"}},"type":"Feature"},
	{"geometry":{"coordinates":[50.581505,26.227739],"type":"Point"},"properties":{"osm_id":"1300042662","tag":{"amenity":"waste_basket"}},"type":"Feature"},
	{"geometry":{"coordinates":[50.581149,26.224558],"type":"Point"},"properties":{"osm_id":"1300042680","tag":{"amenity":"waste_basket"}},"type":"Feature"},
	{"geometry":{"coordinates":[50.583651,26.228177],"type":"Point"},"properties":{"osm_id":"1300042775","tag":{"amenity":"waste_basket"}},"type":"Feature"},
	{"geometry":{"coordinates":[50.577838,26.225677],"type":"Point"},"properties":{"osm_id":"1300042779","tag":{"amenity":"waste_basket"}},"type":"Feature"},
	{"geometry":{"coordinates":[50.579736,26.223997],"type":"Point"},"properties":{"osm_id":"1300042805","tag":{"amenity":"waste_basket"}},"type":"Feature"},
	{"geometry":{"coordinates":[50.580655,26.226001],"type":"Point"},"properties":{"osm_id":"1300042833","tag":{"amenity":"waste_basket"}},"type":"Feature"},
	{"geometry":{"coordinates":[50.583631,26.228282],"type":"Point"},"properties":{"osm_id":"1300042905","tag":{"amenity":"waste_basket"}},"type":"Feature"},
	{"geometry":{"coordinates":[50.582479,26.227412],"type":"Point"},"properties":{"osm_id":"1300042918","tag":{"amenity":"waste_basket"}},"type":"Feature"},
	{"geometry":{"coordinates":[50.585788,26.227148],"type":"Point"},"properties":{"osm_id":"1300042935","tag":{"amenity":"waste_basket"}},"type":"Feature"},
	{"geometry":{"coordinates":[50.579234,26.22431],"type":"Point"},"properties":{"osm_id":"1300042951","tag":{"amenity":"waste_basket"}},"type":"Feature"},
	{"geometry":{"coordinates":[50.579143,26.227295],"type":"Point"},"properties":{"osm_id":"1300804849","tag":{"amenity":"waste_basket"}},"type":"Feature"},
	{"geometry":{"coordinates":[50.576458,26.219007],"type":"Point"},"properties":{"osm_id":"1301842422","tag":{"amenity":"waste_basket"}},"type":"Feature"},
	{"geometry":{"coordinates":[50.59646,26.216674],"type":"Point"},"properties":{"osm_id":"1301842434","tag":{"amenity":"waste_basket"}},"type":"Feature"},
	{"geometry":{"coordinates":[50.583772,26.220776],"type":"Point"},"properties":{"osm_id":"1301842443","tag":{"amenity":"waste_basket"}},"type":"Feature"},
	{"geometry":{"coordinates":[50.597582,26.217072],"type":"Point"},"properties":{"osm_id":"1305608515","tag":{"amenity":"waste_basket"}},"type":"Feature"},
	{"geometry":{"coordinates":[50.575568,26.21633],"type":"Point"},"properties":{"osm_id":"1305608752","tag":{"amenity":"waste_basket"}},"type":"Feature"},
	{"geometry":{"coordinates":[50.584529,26.208764],"type":"Point"},"properties":{"osm_id":"1305608815","tag":{"amenity":"waste_basket"}},"type":"Feature"},
	{"geometry":{"coordinates":[50.600658,26.204789],"type":"Point"},"properties":{"osm_id":"1313924750","tag":{"amenity":"waste_basket"}},"type":"Feature"},
	{"geometry":{"coordinates":[50.569055,26.228962],"type":"Point"},"properties":{"osm_id":"1313924752","tag":{"amenity":"waste_basket"}},"type":"Feature"},
	{"geometry":{"coordinates":[50.572131,26.232199],"type":"Point"},"properties":{"osm_id":"1313924899","tag":{"amenity":"waste_basket"}},"type":"Feature"},
	{"geometry":{"coordinates":[50.572348,26.225073],"type":"Point"},"properties":{"osm_id":"1313924936","tag":{"amenity":"waste_basket"}},"type":"Feature"},
	{"geometry":{"coordinates":[50.569311,26.229766],"type":"Point"},"properties":{"osm_id":"1313924948","tag":{"amenity":"waste_basket"}},"type":"Feature"},
	{"geometry":{"coordinates":[50.569184,26.228905],"type":"Point"},"properties":{"osm_id":"1313924988","tag":{"amenity":"waste_basket"}},"type":"Feature"},
	{"geometry":{"coordinates":[50.571524,26.23148],"type":"Point"},"properties":{"osm_id":"1313925003","tag":{"amenity":"waste_basket"}},"type":"Feature"},
	{"geometry":{"coordinates":[50.572175,26.22458],"type":"Point"},"properties":{"osm_id":"1313925036","tag":{"amenity":"waste_basket"}},"type":"Feature"},
	{"geometry":{"coordinates":[50.571783,26.224146],"type":"Point"},"properties":{"osm_id":"1313925061","tag":{"amenity":"waste_basket"}},"type":"Feature"},
	{"geometry":{"coordinates":[50.605156,26.266741],"type":"Point"},"properties":{"osm_id":"2125987778","tag":{"amenity":"waste_basket"}},"type":"Feature"},
	{"geometry":{"coordinates":[50.608226,26.270232],"type":"Point"},"properties":{"osm_id":"2125987967","tag":{"amenity":"waste_basket"}},"type":"Feature"},
	{"geometry":{"coordinates":[50.613129,26.262597],"type":"Point"},"properties":{"osm_id":"2133495608","tag":{"amenity":"waste_basket"}},"type":"Feature"},
	{"geometry":{"coordinates":[50.618389,26.267367],"type":"Point"},"properties":{"osm_id":"2133495946","tag":{"amenity":"waste_basket"}},"type":"Feature"},
	{"geometry":{"coordinates":[50.615057,26.261458],"type":"Point"},"properties":{"osm_id":"2258110172","tag":{"amenity":"waste_basket"}},"type":"Feature"},
	{"geometry":{"coordinates":[50.614926,26.261794],"type":"Point"},"properties":{"osm_id":"2258110214","tag":{"amenity":"waste_basket"}},"type":"Feature"},
	{"geometry":{"coordinates":[50.608747,26.250658],"type":"Point"},"properties":{"osm_id":"2419831462","tag":{"amenity":"waste_basket"}},"type":"Feature"},
	{"geometry":{"coordinates":[50.567419,26.233861],"type":"Point"},"properties":{"osm_id":"2805877850","tag":{"amenity":"waste_basket"}},"type":"Feature"},
	{"geometry":{"coordinates":[50.552646,26.227083],"type":"Point"},"properties":{"osm_id":"4803978161","tag":{"amenity":"recycling","recycling:clothes":"yes","recycling_type":"container"}},"type":"Feature"},
	{"geometry":{"coordinates":[50.593615,26.204861],"type":"Point"},"properties":{"osm_id":"7507445341","tag":{"amenity":"waste_disposal"}},"type":"Feature"}
]
}
