{
"type": "FeatureCollection",
"features": [
	{"geometry":{"coordinates":[37.352664,55.604688],"type":"Point"},"properties":{"osm_id":"1562390574","tag":{"amenity":"recycling"}},"type":"Feature"},
	{"geometry":{"coordinates":[37.334814,55.600248],"type":"Point"},"properties":{"osm_id":"1726559883","tag":{"amenity":"recycling"}},"type":"Feature"},
	{"geometry":{"coordinates":[37.305453,55.611735],"type":"Point"},"properties":{"osm_id":"4726883728","tag":{"amenity":"waste_disposal"}},"type":"Feature"},
	{"geometry":{"coordinates":[37.309235,55.612128],"type":"Point"},"properties":{"osm_id":"4729019680","tag":{"amenity":"waste_disposal"}},"type":"Feature"},
	{"geometry":{"coordinates":[37.321345,55.613556],"type":"Point"},"properties":{"osm_id":"5786901753","tag":{"amenity":"recycling"}},"type":"Feature"},
	{"geometry":{"coordinates":[37.321228,55.613558],"type":"Point"},"properties":{"osm_id":"5786911953","tag":{"amenity":"waste_disposal"}},"type":"Feature"},
	{"geometry":{"coordinates":[37.304797,55.608991],"type":"Point"},"properties":{"osm_id":"7037000202","tag":{"amenity":"waste_disposal"}},"type":"Feature"},
	{"geometry":{"coordinates":[37.302204,55.607568],"type":"Point"},"properties":{"osm_id":"7037000221","tag":{"amenity":"waste_disposal"}},"type":"Feature"},
	{"geometry":{"coordinates":[37.298859,55.605861],"type":"Point"},"properties":{"osm_id":"7037000238","tag":{"amenity":"waste_disposal"}},"type":"Feature"},
	{"geometry":{"coordinates":[37.314977,55.623655],"type":"Point"},"properties":{"osm_id":"7188321006","tag":{"amenity":"waste_disposal"}},"type":"Feature"},
	{"geometry":{"coordinates":[37.300743,55.622678],"type":"Point"},"properties":{"osm_id":"7194897219","tag":{"amenity":"waste_disposal"}},"type":"Feature"},
	{"geometry":{"coordinates":[37.274969,55.618152],"type":"Point"},"properties":{"name":"\u00d0\u0091\u00d0\u00b0\u00d1\u0080\u00d0\u00b0\u00d1\u0085\u00d0\u00be\u00d0\u00bb\u00d0\u00ba\u00d0\u00b0","osm_id":"7213661262","tag":{"amenity":"recycling","opening_hours":"Mo-Su 08:30-21:00","phone":"+7 977 5734057;+7 906 7609122","recycling:scrap_metal":"yes","recycling_type":"centre","website":"https://instagram.com/metall_lom"}},"type":"Feature"}
]
}
