{
"type": "FeatureCollection",
"features": [
	{"geometry":{"coordinates":[22.941408,59.826811],"type":"Point"},"properties":{"osm_id":"839052986","tag":{"amenity":"recycling","recycling_type":"container"}},"type":"Feature"},
	{"geometry":{"coordinates":[22.966741,59.820816],"type":"Point"},"properties":{"osm_id":"839052992","tag":{"amenity":"recycling"}},"type":"Feature"},
	{"geometry":{"coordinates":[22.995411,59.839121],"type":"Point"},"properties":{"name":"glass, paper, cardboard","osm_id":"1139146092","tag":{"amenity":"recycling"}},"type":"Feature"},
	{"geometry":{"coordinates":[22.968555,59.819506],"type":"Point"},"properties":{"osm_id":"1860581036","tag":{"amenity":"waste_disposal"}},"type":"Feature"},
	{"geometry":{"coordinates":[23.015202,59.84105],"type":"Point"},"properties":{"name":"Hangon j\u00c3\u00a4teasema","osm_id":"5464830174","tag":{"amenity":"recycling","name:fi":"Hangon j\u00e4teasema","name:sv":"Hang\u00f6 avfallsstation"}},"type":"Feature"},
	{"geometry":{"coordinates":[22.958944,59.829569],"type":"Point"},"properties":{"osm_id":"6834222472","tag":{"amenity":"waste_basket"}},"type":"Feature"}
]
}
