{
"type": "FeatureCollection",
"features": [
	{"geometry":{"coordinates":[23.000459,49.441006],"type":"Point"},"properties":{"osm_id":"4548641395","tag":{"amenity":"waste_basket"}},"type":"Feature"},
	{"geometry":{"coordinates":[23.000554,49.44288],"type":"Point"},"properties":{"osm_id":"4548641396","tag":{"amenity":"waste_basket"}},"type":"Feature"},
	{"geometry":{"coordinates":[22.997237,49.44046],"type":"Point"},"properties":{"osm_id":"4548641789","tag":{"amenity":"waste_basket"}},"type":"Feature"},
	{"geometry":{"coordinates":[22.998734,49.443163],"type":"Point"},"properties":{"osm_id":"4548654990","tag":{"amenity":"waste_basket"}},"type":"Feature"},
	{"geometry":{"coordinates":[23.009615,49.443763],"type":"Point"},"properties":{"osm_id":"6168157339","tag":{"amenity":"waste_disposal"}},"type":"Feature"},
	{"geometry":{"coordinates":[23.01405,49.444609],"type":"Point"},"properties":{"osm_id":"6513886815","tag":{"amenity":"waste_disposal"}},"type":"Feature"},
	{"geometry":{"coordinates":[23.014677,49.443889],"type":"Point"},"properties":{"osm_id":"6514903903","tag":{"amenity":"waste_basket","colour":"Green","material":"metal"}},"type":"Feature"},
	{"geometry":{"coordinates":[23.014966,49.443958],"type":"Point"},"properties":{"osm_id":"6514903904","tag":{"amenity":"waste_basket","colour":"Green","material":"metal"}},"type":"Feature"},
	{"geometry":{"coordinates":[23.01528,49.44403],"type":"Point"},"properties":{"osm_id":"6514903905","tag":{"amenity":"waste_basket","colour":"Green","material":"metal"}},"type":"Feature"},
	{"geometry":{"coordinates":[23.015499,49.444079],"type":"Point"},"properties":{"osm_id":"6514903906","tag":{"amenity":"waste_basket","colour":"Green","material":"metal"}},"type":"Feature"}
]
}
