{
"type": "FeatureCollection",
"features": [
	{"geometry":{"coordinates":[22.948316,40.646531],"type":"Point"},"properties":{"osm_id":"287708053","tag":{"amenity":"recycling","recycling:glass":"yes","recycling:paper":"yes","recycling:plastic":"yes"}},"type":"Feature"},
	{"geometry":{"coordinates":[22.945981,40.647192],"type":"Point"},"properties":{"osm_id":"287709190","tag":{"amenity":"recycling","fixme:location":"yes"}},"type":"Feature"},
	{"geometry":{"coordinates":[22.947114,40.647275],"type":"Point"},"properties":{"osm_id":"287709501","tag":{"amenity":"recycling"}},"type":"Feature"},
	{"geometry":{"coordinates":[22.946102,40.647171],"type":"Point"},"properties":{"osm_id":"288141019","tag":{"amenity":"recycling","fixme:location":"yes"}},"type":"Feature"},
	{"geometry":{"coordinates":[22.944495,40.639972],"type":"Point"},"properties":{"osm_id":"290995000","tag":{"amenity":"recycling"}},"type":"Feature"},
	{"geometry":{"coordinates":[22.947514,40.6462],"type":"Point"},"properties":{"osm_id":"291040270","tag":{"amenity":"waste_disposal","waste":"trash"}},"type":"Feature"},
	{"geometry":{"coordinates":[22.948347,40.646525],"type":"Point"},"properties":{"osm_id":"291042246","tag":{"amenity":"waste_disposal","waste":"trash"}},"type":"Feature"},
	{"geometry":{"coordinates":[22.943837,40.647095],"type":"Point"},"properties":{"osm_id":"291726860","tag":{"amenity":"recycling","recycling:paper":"yes","recycling_type":"container"}},"type":"Feature"},
	{"geometry":{"coordinates":[22.947988,40.643991],"type":"Point"},"properties":{"osm_id":"301735780","tag":{"amenity":"recycling","recycling:glass":"yes"}},"type":"Feature"},
	{"geometry":{"coordinates":[22.961377,40.627233],"type":"Point"},"properties":{"osm_id":"303797093","tag":{"amenity":"recycling","note_1:en":"Plastics, Glass and paper","note_2":"\u00ce\u00a5\u00cf\u0080\u00ce\u00ac\u00cf\u0081\u00cf\u0087\u00ce\u00bf\u00cf\u0085\u00ce\u00bd 3 \u00ce\u00ba\u00ce\u00ac\u00ce\u00b4\u00ce\u00bf\u00cf\u0085\u00cf\u0082 \u00cf\u0080\u00ce\u00bf\u00cf\u0085 \u00ce\u00b5\u00ce\u00af\u00ce\u00bd\u00ce\u00b1\u00ce\u00b9 \u00ce\u00bc\u00cf\u008c\u00ce\u00bd\u00ce\u00bf \u00ce\u00b3\u00ce\u00b9\u00ce\u00b1 \u00cf\u0087\u00ce\u00b1\u00cf\u0081\u00cf\u0084\u00ce\u00af. \u00ce\u0088\u00ce\u00bd\u00ce\u00b1\u00ce\u00bd \u00ce\u00b3\u00ce\u00b9\u00ce\u00b1 \u00cf\u0080\u00ce\u00bf\u00ce\u00bb\u00ce\u00bb\u00ce\u00ac \u00ce\u00b5\u00ce\u00af\u00ce\u00b4\u00ce\u00b7.","recycling:clothes":"no","recycling:glass":"yes"}},"type":"Feature"},
	{"geometry":{"coordinates":[22.944717,40.635464],"type":"Point"},"properties":{"osm_id":"305509897","tag":{"amenity":"waste_disposal"}},"type":"Feature"},
	{"geometry":{"coordinates":[22.949094,40.629182],"type":"Point"},"properties":{"osm_id":"344886950","tag":{"amenity":"recycling"}},"type":"Feature"},
	{"geometry":{"coordinates":[22.948994,40.629236],"type":"Point"},"properties":{"osm_id":"344886952","tag":{"amenity":"recycling"}},"type":"Feature"},
	{"geometry":{"coordinates":[22.964917,40.625869],"type":"Point"},"properties":{"osm_id":"353718303","tag":{"amenity":"waste_disposal","waste":"trash"}},"type":"Feature"},
	{"geometry":{"coordinates":[22.944669,40.635492],"type":"Point"},"properties":{"osm_id":"359993766","tag":{"amenity":"waste_disposal"}},"type":"Feature"},
	{"geometry":{"coordinates":[22.959656,40.60722],"type":"Point"},"properties":{"osm_id":"663256578","tag":{"amenity":"recycling"}},"type":"Feature"},
	{"geometry":{"coordinates":[22.943188,40.634767],"type":"Point"},"properties":{"osm_id":"692848670","tag":{"amenity":"recycling","geophoto":"http://www.flickr.com/photos/31331745@N02/4510429782/"}},"type":"Feature"},
	{"geometry":{"coordinates":[22.985581,40.611671],"type":"Point"},"properties":{"osm_id":"1199473902","tag":{"amenity":"recycling","recycling:cans":"yes","recycling:glass":"yes","recycling:paper":"yes","recycling:plastic":"yes"}},"type":"Feature"},
	{"geometry":{"coordinates":[22.944884,40.642405],"type":"Point"},"properties":{"osm_id":"1704876857","tag":{"amenity":"recycling"}},"type":"Feature"},
	{"geometry":{"coordinates":[22.951286,40.630423],"type":"Point"},"properties":{"osm_id":"3738893827","tag":{"amenity":"recycling"}},"type":"Feature"},
	{"geometry":{"coordinates":[22.952637,40.630429],"type":"Point"},"properties":{"osm_id":"3738896176","tag":{"amenity":"recycling"}},"type":"Feature"},
	{"geometry":{"coordinates":[22.946856,40.632439],"type":"Point"},"properties":{"osm_id":"3738896217","tag":{"amenity":"recycling","location":"overground","recycling_type":"container"}},"type":"Feature"},
	{"geometry":{"coordinates":[22.944939,40.630824],"type":"Point"},"properties":{"osm_id":"3738896838","tag":{"amenity":"recycling"}},"type":"Feature"},
	{"geometry":{"coordinates":[22.952958,40.627344],"type":"Point"},"properties":{"osm_id":"3738897834","tag":{"amenity":"recycling","recycling:paper":"yes"}},"type":"Feature"},
	{"geometry":{"coordinates":[22.94975,40.627296],"type":"Point"},"properties":{"osm_id":"3738899761","tag":{"amenity":"recycling"}},"type":"Feature"},
	{"geometry":{"coordinates":[22.950482,40.630841],"type":"Point"},"properties":{"osm_id":"3738899835","tag":{"amenity":"recycling"}},"type":"Feature"},
	{"geometry":{"coordinates":[22.948081,40.62954],"type":"Point"},"properties":{"osm_id":"3738900035","tag":{"amenity":"recycling"}},"type":"Feature"},
	{"geometry":{"coordinates":[22.984457,40.612568],"type":"Point"},"properties":{"osm_id":"4166102817","tag":{"amenity":"recycling","recycling:cans":"yes","recycling:glass":"yes","recycling:glass_bottles":"yes","recycling:paper":"yes","recycling:plastic":"yes","recycling_type":"container"}},"type":"Feature"},
	{"geometry":{"coordinates":[22.956728,40.621884],"type":"Point"},"properties":{"osm_id":"4230850717","tag":{"amenity":"waste_basket"}},"type":"Feature"},
	{"geometry":{"coordinates":[22.954621,40.623099],"type":"Point"},"properties":{"osm_id":"4232110709","tag":{"amenity":"waste_basket"}},"type":"Feature"},
	{"geometry":{"coordinates":[22.95586,40.62339],"type":"Point"},"properties":{"osm_id":"4232110713","tag":{"amenity":"waste_basket"}},"type":"Feature"},
	{"geometry":{"coordinates":[22.953643,40.624081],"type":"Point"},"properties":{"osm_id":"4232397793","tag":{"amenity":"waste_basket"}},"type":"Feature"},
	{"geometry":{"coordinates":[22.953904,40.624178],"type":"Point"},"properties":{"osm_id":"4232397794","tag":{"amenity":"waste_basket"}},"type":"Feature"},
	{"geometry":{"coordinates":[22.953699,40.622824],"type":"Point"},"properties":{"osm_id":"4232397831","tag":{"amenity":"waste_basket"}},"type":"Feature"},
	{"geometry":{"coordinates":[22.95333,40.623084],"type":"Point"},"properties":{"osm_id":"4232397877","tag":{"amenity":"waste_basket"}},"type":"Feature"},
	{"geometry":{"coordinates":[22.95346,40.622765],"type":"Point"},"properties":{"osm_id":"4232397878","tag":{"amenity":"waste_basket"}},"type":"Feature"},
	{"geometry":{"coordinates":[22.953421,40.622565],"type":"Point"},"properties":{"osm_id":"4232561027","tag":{"amenity":"waste_basket"}},"type":"Feature"},
	{"geometry":{"coordinates":[22.953983,40.623118],"type":"Point"},"properties":{"osm_id":"4232561061","tag":{"amenity":"waste_basket"}},"type":"Feature"},
	{"geometry":{"coordinates":[22.953957,40.623315],"type":"Point"},"properties":{"osm_id":"4232561062","tag":{"amenity":"waste_basket"}},"type":"Feature"},
	{"geometry":{"coordinates":[22.953871,40.623697],"type":"Point"},"properties":{"osm_id":"4232561070","tag":{"amenity":"waste_basket"}},"type":"Feature"},
	{"geometry":{"coordinates":[22.954643,40.624581],"type":"Point"},"properties":{"osm_id":"4232575844","tag":{"amenity":"waste_basket"}},"type":"Feature"},
	{"geometry":{"coordinates":[22.955519,40.624336],"type":"Point"},"properties":{"osm_id":"4232575845","tag":{"amenity":"waste_basket"}},"type":"Feature"},
	{"geometry":{"coordinates":[22.95577,40.623977],"type":"Point"},"properties":{"osm_id":"4232898843","tag":{"amenity":"waste_basket"}},"type":"Feature"},
	{"geometry":{"coordinates":[22.952706,40.623214],"type":"Point"},"properties":{"osm_id":"4232898861","tag":{"amenity":"waste_basket"}},"type":"Feature"},
	{"geometry":{"coordinates":[22.952859,40.623615],"type":"Point"},"properties":{"osm_id":"4232898862","tag":{"amenity":"waste_basket"}},"type":"Feature"},
	{"geometry":{"coordinates":[22.952815,40.623727],"type":"Point"},"properties":{"osm_id":"4232898863","tag":{"amenity":"waste_basket"}},"type":"Feature"},
	{"geometry":{"coordinates":[22.952239,40.622274],"type":"Point"},"properties":{"osm_id":"4232899001","tag":{"amenity":"waste_basket"}},"type":"Feature"},
	{"geometry":{"coordinates":[22.952197,40.622327],"type":"Point"},"properties":{"osm_id":"4232899002","tag":{"amenity":"waste_basket"}},"type":"Feature"},
	{"geometry":{"coordinates":[22.952924,40.622156],"type":"Point"},"properties":{"osm_id":"4232899011","tag":{"amenity":"waste_basket"}},"type":"Feature"},
	{"geometry":{"coordinates":[22.954335,40.624643],"type":"Point"},"properties":{"osm_id":"4234123388","tag":{"amenity":"waste_basket"}},"type":"Feature"},
	{"geometry":{"coordinates":[22.954868,40.624916],"type":"Point"},"properties":{"osm_id":"4234126189","tag":{"amenity":"waste_basket"}},"type":"Feature"},
	{"geometry":{"coordinates":[22.953839,40.625614],"type":"Point"},"properties":{"osm_id":"4234126190","tag":{"amenity":"waste_basket"}},"type":"Feature"},
	{"geometry":{"coordinates":[22.952873,40.625795],"type":"Point"},"properties":{"osm_id":"4234126191","tag":{"amenity":"waste_basket"}},"type":"Feature"},
	{"geometry":{"coordinates":[22.952955,40.625164],"type":"Point"},"properties":{"osm_id":"4234126192","tag":{"amenity":"waste_basket"}},"type":"Feature"},
	{"geometry":{"coordinates":[22.952989,40.624642],"type":"Point"},"properties":{"osm_id":"4234126193","tag":{"amenity":"waste_basket"}},"type":"Feature"},
	{"geometry":{"coordinates":[22.953042,40.624245],"type":"Point"},"properties":{"osm_id":"4234126194","tag":{"amenity":"waste_basket"}},"type":"Feature"},
	{"geometry":{"coordinates":[22.953186,40.622596],"type":"Point"},"properties":{"osm_id":"4234126195","tag":{"amenity":"waste_basket"}},"type":"Feature"},
	{"geometry":{"coordinates":[22.952782,40.622833],"type":"Point"},"properties":{"osm_id":"4234126196","tag":{"amenity":"waste_basket"}},"type":"Feature"},
	{"geometry":{"coordinates":[22.953375,40.62216],"type":"Point"},"properties":{"osm_id":"4234126197","tag":{"amenity":"waste_basket"}},"type":"Feature"},
	{"geometry":{"coordinates":[22.954661,40.622157],"type":"Point"},"properties":{"osm_id":"4234126199","tag":{"amenity":"waste_basket"}},"type":"Feature"},
	{"geometry":{"coordinates":[22.954294,40.622878],"type":"Point"},"properties":{"osm_id":"4234126200","tag":{"amenity":"waste_basket"}},"type":"Feature"},
	{"geometry":{"coordinates":[22.954587,40.622947],"type":"Point"},"properties":{"osm_id":"4234126201","tag":{"amenity":"waste_basket"}},"type":"Feature"},
	{"geometry":{"coordinates":[22.954866,40.623014],"type":"Point"},"properties":{"osm_id":"4234126202","tag":{"amenity":"waste_basket"}},"type":"Feature"},
	{"geometry":{"coordinates":[22.955371,40.623145],"type":"Point"},"properties":{"osm_id":"4234126203","tag":{"amenity":"waste_basket"}},"type":"Feature"},
	{"geometry":{"coordinates":[22.955353,40.623245],"type":"Point"},"properties":{"osm_id":"4234126204","tag":{"amenity":"waste_basket"}},"type":"Feature"},
	{"geometry":{"coordinates":[22.955719,40.623226],"type":"Point"},"properties":{"osm_id":"4234126205","tag":{"amenity":"waste_basket"}},"type":"Feature"},
	{"geometry":{"coordinates":[22.955865,40.623534],"type":"Point"},"properties":{"osm_id":"4234126206","tag":{"amenity":"waste_basket"}},"type":"Feature"},
	{"geometry":{"coordinates":[22.956216,40.623119],"type":"Point"},"properties":{"osm_id":"4234126207","tag":{"amenity":"waste_basket"}},"type":"Feature"},
	{"geometry":{"coordinates":[22.956372,40.622769],"type":"Point"},"properties":{"osm_id":"4234126208","tag":{"amenity":"waste_basket"}},"type":"Feature"},
	{"geometry":{"coordinates":[22.95654,40.622023],"type":"Point"},"properties":{"osm_id":"4234126209","tag":{"amenity":"waste_basket"}},"type":"Feature"},
	{"geometry":{"coordinates":[22.953838,40.62167],"type":"Point"},"properties":{"osm_id":"4234126232","tag":{"amenity":"waste_basket"}},"type":"Feature"},
	{"geometry":{"coordinates":[22.953973,40.621701],"type":"Point"},"properties":{"osm_id":"4234126233","tag":{"amenity":"waste_basket"}},"type":"Feature"},
	{"geometry":{"coordinates":[22.953889,40.621281],"type":"Point"},"properties":{"osm_id":"4234126265","tag":{"amenity":"waste_basket"}},"type":"Feature"},
	{"geometry":{"coordinates":[22.953137,40.626134],"type":"Point"},"properties":{"osm_id":"4238534364","tag":{"amenity":"waste_basket"}},"type":"Feature"},
	{"geometry":{"coordinates":[22.952964,40.626164],"type":"Point"},"properties":{"osm_id":"4238534365","tag":{"amenity":"waste_basket"}},"type":"Feature"},
	{"geometry":{"coordinates":[22.954688,40.621695],"type":"Point"},"properties":{"osm_id":"4238534917","tag":{"amenity":"waste_basket"}},"type":"Feature"},
	{"geometry":{"coordinates":[22.952607,40.626491],"type":"Point"},"properties":{"osm_id":"4239819909","tag":{"amenity":"waste_basket"}},"type":"Feature"},
	{"geometry":{"coordinates":[22.951798,40.627368],"type":"Point"},"properties":{"osm_id":"4239910628","tag":{"amenity":"waste_basket"}},"type":"Feature"},
	{"geometry":{"coordinates":[22.95287,40.626675],"type":"Point"},"properties":{"osm_id":"4239910629","tag":{"amenity":"waste_basket"}},"type":"Feature"},
	{"geometry":{"coordinates":[22.954867,40.621124],"type":"Point"},"properties":{"osm_id":"4239910672","tag":{"amenity":"waste_basket"}},"type":"Feature"},
	{"geometry":{"coordinates":[22.95224,40.626442],"type":"Point"},"properties":{"osm_id":"4240271930","tag":{"amenity":"waste_basket"}},"type":"Feature"},
	{"geometry":{"coordinates":[22.949994,40.626361],"type":"Point"},"properties":{"osm_id":"4240271950","tag":{"amenity":"waste_basket"}},"type":"Feature"},
	{"geometry":{"coordinates":[22.949607,40.626898],"type":"Point"},"properties":{"osm_id":"4240271951","tag":{"amenity":"recycling","recycling:glass":"yes"}},"type":"Feature"},
	{"geometry":{"coordinates":[22.950568,40.627953],"type":"Point"},"properties":{"osm_id":"4240271952","tag":{"amenity":"waste_basket"}},"type":"Feature"},
	{"geometry":{"coordinates":[22.950667,40.626357],"type":"Point"},"properties":{"osm_id":"4240271953","tag":{"amenity":"waste_basket"}},"type":"Feature"},
	{"geometry":{"coordinates":[22.952649,40.626216],"type":"Point"},"properties":{"osm_id":"4241770774","tag":{"amenity":"waste_basket"}},"type":"Feature"},
	{"geometry":{"coordinates":[22.951852,40.626121],"type":"Point"},"properties":{"osm_id":"4241770775","tag":{"amenity":"waste_basket"}},"type":"Feature"},
	{"geometry":{"coordinates":[22.951087,40.626124],"type":"Point"},"properties":{"osm_id":"4241770776","tag":{"amenity":"waste_basket"}},"type":"Feature"},
	{"geometry":{"coordinates":[22.95016,40.626183],"type":"Point"},"properties":{"osm_id":"4241770777","tag":{"amenity":"recycling","recycling:glass":"yes"}},"type":"Feature"},
	{"geometry":{"coordinates":[22.950046,40.626056],"type":"Point"},"properties":{"osm_id":"4241770778","tag":{"amenity":"waste_basket"}},"type":"Feature"},
	{"geometry":{"coordinates":[22.949942,40.626184],"type":"Point"},"properties":{"osm_id":"4241770779","tag":{"amenity":"waste_basket"}},"type":"Feature"},
	{"geometry":{"coordinates":[22.950182,40.625574],"type":"Point"},"properties":{"osm_id":"4241770780","tag":{"amenity":"waste_basket"}},"type":"Feature"},
	{"geometry":{"coordinates":[22.950767,40.625117],"type":"Point"},"properties":{"osm_id":"4241770781","tag":{"amenity":"waste_basket"}},"type":"Feature"},
	{"geometry":{"coordinates":[22.950879,40.624977],"type":"Point"},"properties":{"osm_id":"4241770782","tag":{"amenity":"waste_basket"}},"type":"Feature"},
	{"geometry":{"coordinates":[22.951102,40.62488],"type":"Point"},"properties":{"osm_id":"4241770783","tag":{"amenity":"waste_basket"}},"type":"Feature"},
	{"geometry":{"coordinates":[22.951901,40.624232],"type":"Point"},"properties":{"osm_id":"4241770785","tag":{"amenity":"waste_basket"}},"type":"Feature"},
	{"geometry":{"coordinates":[22.952103,40.624081],"type":"Point"},"properties":{"osm_id":"4241770892","tag":{"amenity":"waste_basket"}},"type":"Feature"},
	{"geometry":{"coordinates":[22.952481,40.624116],"type":"Point"},"properties":{"osm_id":"4241770893","tag":{"amenity":"waste_basket"}},"type":"Feature"},
	{"geometry":{"coordinates":[22.952411,40.623785],"type":"Point"},"properties":{"osm_id":"4241770894","tag":{"amenity":"waste_basket"}},"type":"Feature"},
	{"geometry":{"coordinates":[22.952832,40.623981],"type":"Point"},"properties":{"osm_id":"4241770902","tag":{"amenity":"waste_basket"}},"type":"Feature"},
	{"geometry":{"coordinates":[22.952748,40.624881],"type":"Point"},"properties":{"osm_id":"4241770905","tag":{"amenity":"waste_basket"}},"type":"Feature"},
	{"geometry":{"coordinates":[22.948332,40.62659],"type":"Point"},"properties":{"osm_id":"4242006341","tag":{"amenity":"waste_basket","check_date":"2021-02-04"}},"type":"Feature"},
	{"geometry":{"coordinates":[22.947736,40.627115],"type":"Point"},"properties":{"osm_id":"4242006342","tag":{"amenity":"waste_basket","check_date":"2021-02-04"}},"type":"Feature"},
	{"geometry":{"coordinates":[22.947737,40.626614],"type":"Point"},"properties":{"osm_id":"4242006343","tag":{"amenity":"waste_basket"}},"type":"Feature"},
	{"geometry":{"coordinates":[22.948134,40.626043],"type":"Point"},"properties":{"osm_id":"4242006344","tag":{"amenity":"waste_basket"}},"type":"Feature"},
	{"geometry":{"coordinates":[22.94813,40.625511],"type":"Point"},"properties":{"osm_id":"4242006345","tag":{"amenity":"waste_basket"}},"type":"Feature"},
	{"geometry":{"coordinates":[22.94835,40.625758],"type":"Point"},"properties":{"osm_id":"4242006346","tag":{"amenity":"waste_basket"}},"type":"Feature"},
	{"geometry":{"coordinates":[22.948647,40.625965],"type":"Point"},"properties":{"osm_id":"4242006347","tag":{"amenity":"waste_basket"}},"type":"Feature"},
	{"geometry":{"coordinates":[22.948449,40.625524],"type":"Point"},"properties":{"osm_id":"4242006348","tag":{"amenity":"waste_basket"}},"type":"Feature"},
	{"geometry":{"coordinates":[22.949749,40.624267],"type":"Point"},"properties":{"osm_id":"4242063370","tag":{"amenity":"waste_basket"}},"type":"Feature"},
	{"geometry":{"coordinates":[22.95034,40.623877],"type":"Point"},"properties":{"osm_id":"4242063371","tag":{"amenity":"waste_basket","check_date":"2021-01-24"}},"type":"Feature"},
	{"geometry":{"coordinates":[22.949907,40.624352],"type":"Point"},"properties":{"osm_id":"4242063372","tag":{"amenity":"waste_basket","check_date":"2021-02-04"}},"type":"Feature"},
	{"geometry":{"coordinates":[22.950217,40.624607],"type":"Point"},"properties":{"osm_id":"4242063373","tag":{"amenity":"waste_basket","check_date":"2021-02-04"}},"type":"Feature"},
	{"geometry":{"coordinates":[22.950723,40.624265],"type":"Point"},"properties":{"osm_id":"4242063442","tag":{"amenity":"waste_basket","check_date":"2021-01-24"}},"type":"Feature"},
	{"geometry":{"coordinates":[22.950619,40.62369],"type":"Point"},"properties":{"osm_id":"4242063450","tag":{"amenity":"waste_basket","check_date":"2021-01-24"}},"type":"Feature"},
	{"geometry":{"coordinates":[22.951174,40.623317],"type":"Point"},"properties":{"osm_id":"4242063452","tag":{"amenity":"waste_basket","check_date":"2021-01-24"}},"type":"Feature"},
	{"geometry":{"coordinates":[22.951402,40.623163],"type":"Point"},"properties":{"osm_id":"4242063458","tag":{"amenity":"waste_basket","check_date":"2021-01-24"}},"type":"Feature"},
	{"geometry":{"coordinates":[22.951636,40.623007],"type":"Point"},"properties":{"osm_id":"4242063463","tag":{"amenity":"waste_basket","check_date":"2021-01-24"}},"type":"Feature"},
	{"geometry":{"coordinates":[22.95177,40.623492],"type":"Point"},"properties":{"osm_id":"4242063464","tag":{"amenity":"waste_basket"}},"type":"Feature"},
	{"geometry":{"coordinates":[22.951781,40.623952],"type":"Point"},"properties":{"osm_id":"4242063466","tag":{"amenity":"waste_basket","check_date":"2021-01-24"}},"type":"Feature"},
	{"geometry":{"coordinates":[22.951642,40.624056],"type":"Point"},"properties":{"osm_id":"4242063467","tag":{"amenity":"waste_basket","check_date":"2021-01-24"}},"type":"Feature"},
	{"geometry":{"coordinates":[22.951089,40.624489],"type":"Point"},"properties":{"osm_id":"4242063468","tag":{"amenity":"waste_basket","check_date":"2021-01-24"}},"type":"Feature"},
	{"geometry":{"coordinates":[22.950868,40.624677],"type":"Point"},"properties":{"osm_id":"4242063469","tag":{"amenity":"waste_basket","check_date":"2021-02-04"}},"type":"Feature"},
	{"geometry":{"coordinates":[22.950757,40.624756],"type":"Point"},"properties":{"osm_id":"4242063470","tag":{"amenity":"waste_basket","check_date":"2021-02-04"}},"type":"Feature"},
	{"geometry":{"coordinates":[22.950523,40.624925],"type":"Point"},"properties":{"osm_id":"4242063471","tag":{"amenity":"waste_basket","check_date":"2021-02-04"}},"type":"Feature"},
	{"geometry":{"coordinates":[22.950022,40.625328],"type":"Point"},"properties":{"osm_id":"4242063472","tag":{"amenity":"waste_basket"}},"type":"Feature"},
	{"geometry":{"coordinates":[22.949759,40.625516],"type":"Point"},"properties":{"osm_id":"4242063473","tag":{"amenity":"waste_basket"}},"type":"Feature"},
	{"geometry":{"coordinates":[22.95246,40.625969],"type":"Point"},"properties":{"osm_id":"4244717041","tag":{"amenity":"waste_basket"}},"type":"Feature"},
	{"geometry":{"coordinates":[22.952279,40.625828],"type":"Point"},"properties":{"osm_id":"4244717042","tag":{"amenity":"waste_basket"}},"type":"Feature"},
	{"geometry":{"coordinates":[22.949364,40.6262],"type":"Point"},"properties":{"osm_id":"4245149015","tag":{"amenity":"waste_basket"}},"type":"Feature"},
	{"geometry":{"coordinates":[22.955426,40.621544],"type":"Point"},"properties":{"osm_id":"4246698176","tag":{"amenity":"waste_basket"}},"type":"Feature"},
	{"geometry":{"coordinates":[22.956853,40.621705],"type":"Point"},"properties":{"osm_id":"4246698178","tag":{"amenity":"waste_basket"}},"type":"Feature"},
	{"geometry":{"coordinates":[22.955465,40.621764],"type":"Point"},"properties":{"osm_id":"4246698179","tag":{"amenity":"waste_basket"}},"type":"Feature"},
	{"geometry":{"coordinates":[22.954911,40.621207],"type":"Point"},"properties":{"osm_id":"4246698184","tag":{"amenity":"waste_basket"}},"type":"Feature"},
	{"geometry":{"coordinates":[22.955556,40.621184],"type":"Point"},"properties":{"osm_id":"4246698185","tag":{"amenity":"waste_basket"}},"type":"Feature"},
	{"geometry":{"coordinates":[22.955571,40.621098],"type":"Point"},"properties":{"osm_id":"4246698187","tag":{"amenity":"waste_basket"}},"type":"Feature"},
	{"geometry":{"coordinates":[22.941549,40.632798],"type":"Point"},"properties":{"osm_id":"4248420137","tag":{"amenity":"waste_basket"}},"type":"Feature"},
	{"geometry":{"coordinates":[22.941294,40.632933],"type":"Point"},"properties":{"osm_id":"4248420138","tag":{"amenity":"waste_basket"}},"type":"Feature"},
	{"geometry":{"coordinates":[22.955742,40.621116],"type":"Point"},"properties":{"osm_id":"4248722084","tag":{"amenity":"waste_basket"}},"type":"Feature"},
	{"geometry":{"coordinates":[22.953942,40.621059],"type":"Point"},"properties":{"osm_id":"4254652934","tag":{"amenity":"waste_basket"}},"type":"Feature"},
	{"geometry":{"coordinates":[22.95407,40.620489],"type":"Point"},"properties":{"osm_id":"4254652935","tag":{"amenity":"waste_basket"}},"type":"Feature"},
	{"geometry":{"coordinates":[22.949977,40.627651],"type":"Point"},"properties":{"osm_id":"4254652936","tag":{"amenity":"waste_basket"}},"type":"Feature"},
	{"geometry":{"coordinates":[22.954943,40.625148],"type":"Point"},"properties":{"osm_id":"4254652937","tag":{"amenity":"waste_basket"}},"type":"Feature"},
	{"geometry":{"coordinates":[22.95453,40.625435],"type":"Point"},"properties":{"osm_id":"4254652938","tag":{"amenity":"waste_basket"}},"type":"Feature"},
	{"geometry":{"coordinates":[22.954256,40.625625],"type":"Point"},"properties":{"osm_id":"4254652939","tag":{"amenity":"waste_basket"}},"type":"Feature"},
	{"geometry":{"coordinates":[22.953892,40.625887],"type":"Point"},"properties":{"osm_id":"4254652940","tag":{"amenity":"waste_basket"}},"type":"Feature"},
	{"geometry":{"coordinates":[22.953265,40.627158],"type":"Point"},"properties":{"osm_id":"4254652941","tag":{"amenity":"waste_basket"}},"type":"Feature"},
	{"geometry":{"coordinates":[22.959676,40.62625],"type":"Point"},"properties":{"osm_id":"4254652942","tag":{"amenity":"waste_basket"}},"type":"Feature"},
	{"geometry":{"coordinates":[22.958904,40.62602],"type":"Point"},"properties":{"osm_id":"4254652943","tag":{"amenity":"waste_basket"}},"type":"Feature"},
	{"geometry":{"coordinates":[22.968688,40.600777],"type":"Point"},"properties":{"osm_id":"4262916249","tag":{"amenity":"waste_basket"}},"type":"Feature"},
	{"geometry":{"coordinates":[22.968399,40.600702],"type":"Point"},"properties":{"osm_id":"4262916250","tag":{"amenity":"waste_basket"}},"type":"Feature"},
	{"geometry":{"coordinates":[22.970647,40.599067],"type":"Point"},"properties":{"osm_id":"4262916418","tag":{"amenity":"waste_basket"}},"type":"Feature"},
	{"geometry":{"coordinates":[22.949933,40.602546],"type":"Point"},"properties":{"osm_id":"4263228031","tag":{"amenity":"waste_basket","check_date":"2021-01-24"}},"type":"Feature"},
	{"geometry":{"coordinates":[22.949936,40.603822],"type":"Point"},"properties":{"osm_id":"4263228032","tag":{"amenity":"waste_basket","check_date":"2021-01-24"}},"type":"Feature"},
	{"geometry":{"coordinates":[22.950346,40.605196],"type":"Point"},"properties":{"osm_id":"4263228050","tag":{"amenity":"waste_basket","check_date":"2021-02-28"}},"type":"Feature"},
	{"geometry":{"coordinates":[22.950684,40.608957],"type":"Point"},"properties":{"osm_id":"4263228069","tag":{"amenity":"waste_basket"}},"type":"Feature"},
	{"geometry":{"coordinates":[22.950897,40.606511],"type":"Point"},"properties":{"osm_id":"4263228085","tag":{"amenity":"waste_basket"}},"type":"Feature"},
	{"geometry":{"coordinates":[22.970784,40.595657],"type":"Point"},"properties":{"osm_id":"4298675437","tag":{"amenity":"waste_basket"}},"type":"Feature"},
	{"geometry":{"coordinates":[22.970707,40.596234],"type":"Point"},"properties":{"osm_id":"4298675438","tag":{"amenity":"waste_basket"}},"type":"Feature"},
	{"geometry":{"coordinates":[22.970643,40.595974],"type":"Point"},"properties":{"osm_id":"4298675439","tag":{"amenity":"waste_basket"}},"type":"Feature"},
	{"geometry":{"coordinates":[22.943022,40.638194],"type":"Point"},"properties":{"osm_id":"4353762191","tag":{"amenity":"waste_disposal","operator":"Batteries deposit"}},"type":"Feature"},
	{"geometry":{"coordinates":[22.952821,40.629651],"type":"Point"},"properties":{"osm_id":"4404100189","tag":{"amenity":"waste_basket"}},"type":"Feature"},
	{"geometry":{"coordinates":[22.988215,40.610594],"type":"Point"},"properties":{"osm_id":"5245219163","tag":{"amenity":"recycling","recycling:glass":"yes","recycling:glass_bottles":"yes","recycling_type":"container"}},"type":"Feature"},
	{"geometry":{"coordinates":[22.958732,40.637084],"type":"Point"},"properties":{"osm_id":"5434297239","tag":{"amenity":"waste_basket"}},"type":"Feature"},
	{"geometry":{"coordinates":[22.958919,40.636927],"type":"Point"},"properties":{"osm_id":"5434297249","tag":{"amenity":"waste_basket"}},"type":"Feature"},
	{"geometry":{"coordinates":[22.958893,40.636967],"type":"Point"},"properties":{"osm_id":"5434297250","tag":{"amenity":"waste_basket"}},"type":"Feature"},
	{"geometry":{"coordinates":[22.958813,40.636969],"type":"Point"},"properties":{"osm_id":"5434297251","tag":{"amenity":"waste_basket"}},"type":"Feature"},
	{"geometry":{"coordinates":[22.958608,40.636789],"type":"Point"},"properties":{"osm_id":"5434297253","tag":{"amenity":"waste_basket"}},"type":"Feature"},
	{"geometry":{"coordinates":[22.957998,40.637089],"type":"Point"},"properties":{"osm_id":"5434297269","tag":{"amenity":"waste_basket"}},"type":"Feature"},
	{"geometry":{"coordinates":[22.958005,40.637055],"type":"Point"},"properties":{"osm_id":"5434297272","tag":{"amenity":"waste_basket"}},"type":"Feature"},
	{"geometry":{"coordinates":[22.957964,40.637062],"type":"Point"},"properties":{"osm_id":"5434297273","tag":{"amenity":"waste_basket"}},"type":"Feature"},
	{"geometry":{"coordinates":[22.952533,40.63606],"type":"Point"},"properties":{"osm_id":"5455056958","tag":{"amenity":"recycling"}},"type":"Feature"},
	{"geometry":{"coordinates":[22.952494,40.639915],"type":"Point"},"properties":{"osm_id":"5455170771","tag":{"amenity":"waste_basket"}},"type":"Feature"},
	{"geometry":{"coordinates":[22.982158,40.612842],"type":"Point"},"properties":{"osm_id":"5502799164","tag":{"amenity":"recycling","recycling:clothes":"yes","recycling_type":"container"}},"type":"Feature"},
	{"geometry":{"coordinates":[22.984873,40.613102],"type":"Point"},"properties":{"osm_id":"5502799167","tag":{"amenity":"recycling","recycling:glass_bottles":"yes"}},"type":"Feature"},
	{"geometry":{"coordinates":[22.976998,40.596924],"type":"Point"},"properties":{"osm_id":"5624879677","tag":{"amenity":"waste_disposal"}},"type":"Feature"},
	{"geometry":{"coordinates":[22.976755,40.597266],"type":"Point"},"properties":{"osm_id":"5624879678","tag":{"amenity":"waste_disposal"}},"type":"Feature"},
	{"geometry":{"coordinates":[22.980168,40.5809],"type":"Point"},"properties":{"osm_id":"5648064777","tag":{"amenity":"waste_disposal"}},"type":"Feature"},
	{"geometry":{"coordinates":[22.989521,40.604173],"type":"Point"},"properties":{"osm_id":"5676931374","tag":{"amenity":"recycling","recycling:cans":"yes","recycling:glass":"yes","recycling:glass_bottles":"yes","recycling:paper":"yes","recycling:plastic":"yes","recycling:plastic_bottles":"yes","recycling_type":"container"}},"type":"Feature"},
	{"geometry":{"coordinates":[22.975221,40.602054],"type":"Point"},"properties":{"osm_id":"5701376990","tag":{"amenity":"recycling","recycling:glass":"yes","recycling_type":"container"}},"type":"Feature"},
	{"geometry":{"coordinates":[22.975231,40.602035],"type":"Point"},"properties":{"osm_id":"5701376991","tag":{"amenity":"recycling","recycling_type":"container"}},"type":"Feature"},
	{"geometry":{"coordinates":[22.975295,40.601802],"type":"Point"},"properties":{"osm_id":"5701376992","tag":{"amenity":"recycling","recycling:clothes":"yes","recycling:shoes":"yes","recycling_type":"container"}},"type":"Feature"},
	{"geometry":{"coordinates":[22.975983,40.60038],"type":"Point"},"properties":{"osm_id":"5701376997","tag":{"amenity":"recycling","recycling:glass":"yes","recycling_type":"container"}},"type":"Feature"},
	{"geometry":{"coordinates":[22.976536,40.600135],"type":"Point"},"properties":{"osm_id":"5701376998","tag":{"amenity":"waste_basket"}},"type":"Feature"},
	{"geometry":{"coordinates":[22.976724,40.600079],"type":"Point"},"properties":{"osm_id":"5701376999","tag":{"amenity":"waste_basket"}},"type":"Feature"},
	{"geometry":{"coordinates":[22.976304,40.599244],"type":"Point"},"properties":{"osm_id":"5701377000","tag":{"amenity":"waste_basket"}},"type":"Feature"},
	{"geometry":{"coordinates":[22.976678,40.598843],"type":"Point"},"properties":{"osm_id":"5701377001","tag":{"amenity":"waste_basket"}},"type":"Feature"},
	{"geometry":{"coordinates":[22.976497,40.597516],"type":"Point"},"properties":{"osm_id":"5701377002","tag":{"amenity":"waste_basket"}},"type":"Feature"},
	{"geometry":{"coordinates":[22.968061,40.60125],"type":"Point"},"properties":{"osm_id":"5739005987","tag":{"amenity":"waste_basket"}},"type":"Feature"},
	{"geometry":{"coordinates":[22.984431,40.609684],"type":"Point"},"properties":{"osm_id":"5760832252","tag":{"amenity":"recycling","recycling:cans":"yes","recycling:glass":"yes","recycling:glass_bottles":"yes","recycling:paper":"yes","recycling:plastic":"yes","recycling_type":"container"}},"type":"Feature"},
	{"geometry":{"coordinates":[22.968305,40.605498],"type":"Point"},"properties":{"osm_id":"5818017232","tag":{"amenity":"recycling","recycling:cans":"yes","recycling:clothes":"yes","recycling:glass":"yes","recycling:glass_bottles":"yes","recycling:paper":"yes","recycling:plastic":"yes","recycling_type":"container"}},"type":"Feature"},
	{"geometry":{"coordinates":[22.961335,40.587766],"type":"Point"},"properties":{"osm_id":"5887276511","tag":{"amenity":"recycling","recycling:cans":"yes","recycling:clothes":"yes","recycling:glass":"yes","recycling:glass_bottles":"yes","recycling:paper":"yes","recycling:plastic":"yes","recycling:plastic_bottles":"yes","recycling_type":"container"}},"type":"Feature"},
	{"geometry":{"coordinates":[22.968534,40.622266],"type":"Point"},"properties":{"osm_id":"5975991865","tag":{"amenity":"recycling","recycling:cans":"yes","recycling:glass":"yes","recycling:paper":"yes","recycling:plastic":"yes","recycling:plastic_bottles":"yes","recycling_type":"container"}},"type":"Feature"},
	{"geometry":{"coordinates":[22.968698,40.620338],"type":"Point"},"properties":{"osm_id":"5975991866","tag":{"amenity":"recycling","recycling:clothes":"yes","recycling_type":"container"}},"type":"Feature"},
	{"geometry":{"coordinates":[22.954722,40.617183],"type":"Point"},"properties":{"osm_id":"6188135034","tag":{"amenity":"waste_basket"}},"type":"Feature"},
	{"geometry":{"coordinates":[22.957919,40.614822],"type":"Point"},"properties":{"osm_id":"6194962960","tag":{"amenity":"waste_disposal"}},"type":"Feature"},
	{"geometry":{"coordinates":[22.957922,40.614832],"type":"Point"},"properties":{"osm_id":"6194962962","tag":{"amenity":"recycling","recycling:batteries":"no","recycling:cans":"yes","recycling:clothes":"no","recycling:glass":"yes","recycling:glass_bottles":"yes","recycling:paper":"yes","recycling:plastic":"yes","recycling:plastic_bottles":"yes","recycling:scrap_metal":"no","recycling:waste":"no","recycling_type":"container"}},"type":"Feature"},
	{"geometry":{"coordinates":[22.955854,40.581133],"type":"Point"},"properties":{"osm_id":"6372440213","tag":{"amenity":"waste_basket","waste":"trash"}},"type":"Feature"},
	{"geometry":{"coordinates":[22.955726,40.581191],"type":"Point"},"properties":{"osm_id":"6372440217","tag":{"amenity":"waste_basket","waste":"trash"}},"type":"Feature"},
	{"geometry":{"coordinates":[22.951492,40.63223],"type":"Point"},"properties":{"osm_id":"6773693384","tag":{"amenity":"recycling","recycling:glass":"yes","recycling:glass_bottles":"yes","recycling_type":"container"}},"type":"Feature"},
	{"geometry":{"coordinates":[22.952624,40.631599],"type":"Point"},"properties":{"osm_id":"6773695885","tag":{"amenity":"recycling","recycling:glass":"yes","recycling:glass_bottles":"yes","recycling_type":"container"}},"type":"Feature"},
	{"geometry":{"coordinates":[22.95786,40.614027],"type":"Point"},"properties":{"osm_id":"7782101247","tag":{"amenity":"waste_disposal"}},"type":"Feature"},
	{"geometry":{"coordinates":[22.95786,40.614034],"type":"Point"},"properties":{"osm_id":"7782101248","tag":{"amenity":"recycling","recycling_type":"container"}},"type":"Feature"},
	{"geometry":{"coordinates":[22.985788,40.597691],"type":"Point"},"properties":{"osm_id":"8936363362","tag":{"amenity":"waste_disposal","operator":"\u00ce\u0094\u00ce\u0097\u00ce\u009c\u00ce\u009f\u00ce\u00a3 \u00ce\u00a0\u00ce\u00a5\u00ce\u009b\u00ce\u0091\u00ce\u0099\u00ce\u0091-\u00ce\u00a7\u00ce\u009f\u00ce\u00a1\u00ce\u00a4\u00ce\u0099\u00ce\u0091\u00ce\u00a4\u00ce\u0097","waste":"trash"}},"type":"Feature"},
	{"geometry":{"coordinates":[22.987214,40.597836],"type":"Point"},"properties":{"osm_id":"8936363363","tag":{"amenity":"waste_disposal","operator":"\u00ce\u0094\u00ce\u0097\u00ce\u009c\u00ce\u009f\u00ce\u00a3 \u00ce\u00a0\u00ce\u00a5\u00ce\u009b\u00ce\u0091\u00ce\u0099\u00ce\u0091-\u00ce\u00a7\u00ce\u009f\u00ce\u00a1\u00ce\u00a4\u00ce\u0099\u00ce\u0091\u00ce\u00a4\u00ce\u0097","waste":"trash"}},"type":"Feature"},
	{"geometry":{"coordinates":[22.985703,40.598091],"type":"Point"},"properties":{"osm_id":"8936363364","tag":{"amenity":"waste_disposal","operator":"\u00ce\u0094\u00ce\u0097\u00ce\u009c\u00ce\u009f\u00ce\u00a3 \u00ce\u00a0\u00ce\u00a5\u00ce\u009b\u00ce\u0091\u00ce\u0099\u00ce\u0091-\u00ce\u00a7\u00ce\u009f\u00ce\u00a1\u00ce\u00a4\u00ce\u0099\u00ce\u0091\u00ce\u00a4\u00ce\u0097","waste":"trash"}},"type":"Feature"},
	{"geometry":{"coordinates":[22.986741,40.598804],"type":"Point"},"properties":{"osm_id":"8936363365","tag":{"amenity":"waste_disposal","operator":"\u00ce\u0094\u00ce\u0097\u00ce\u009c\u00ce\u009f\u00ce\u00a3 \u00ce\u00a0\u00ce\u00a5\u00ce\u009b\u00ce\u0091\u00ce\u0099\u00ce\u0091-\u00ce\u00a7\u00ce\u009f\u00ce\u00a1\u00ce\u00a4\u00ce\u0099\u00ce\u0091\u00ce\u00a4\u00ce\u0097","waste":"trash"}},"type":"Feature"},
	{"geometry":{"coordinates":[22.985886,40.598629],"type":"Point"},"properties":{"osm_id":"8936363366","tag":{"amenity":"waste_disposal","operator":"\u00ce\u0094\u00ce\u0097\u00ce\u009c\u00ce\u009f\u00ce\u00a3 \u00ce\u00a0\u00ce\u00a5\u00ce\u009b\u00ce\u0091\u00ce\u0099\u00ce\u0091-\u00ce\u00a7\u00ce\u009f\u00ce\u00a1\u00ce\u00a4\u00ce\u0099\u00ce\u0091\u00ce\u00a4\u00ce\u0097","waste":"trash"}},"type":"Feature"},
	{"geometry":{"coordinates":[22.98566,40.597671],"type":"Point"},"properties":{"osm_id":"8936363367","tag":{"amenity":"waste_disposal","operator":"\u00ce\u0094\u00ce\u0097\u00ce\u009c\u00ce\u009f\u00ce\u00a3 \u00ce\u00a0\u00ce\u00a5\u00ce\u009b\u00ce\u0091\u00ce\u0099\u00ce\u0091-\u00ce\u00a7\u00ce\u009f\u00ce\u00a1\u00ce\u00a4\u00ce\u0099\u00ce\u0091\u00ce\u00a4\u00ce\u0097","waste":"trash"}},"type":"Feature"},
	{"geometry":{"coordinates":[22.968989,40.616312],"type":"Point"},"properties":{"osm_id":"8973813732","tag":{"amenity":"recycling","recycling:cans":"yes","recycling:cardboard":"yes","recycling:clothes":"no","recycling:glass":"yes","recycling:glass_bottles":"yes","recycling:paper":"yes","recycling:plastic":"yes","recycling:plastic_bottles":"yes","recycling:plastic_packaging":"yes","recycling:waste":"yes","recycling_type":"container"}},"type":"Feature"},
	{"geometry":{"coordinates":[22.968859,40.616258],"type":"Point"},"properties":{"osm_id":"8973813740","tag":{"amenity":"recycling","recycling:cans":"yes","recycling:cardboard":"yes","recycling:clothes":"no","recycling:glass":"no","recycling:glass_bottles":"no","recycling:paper":"yes","recycling:plastic":"yes","recycling:plastic_bottles":"yes","recycling:plastic_packaging":"yes","recycling:waste":"yes","recycling_type":"container"}},"type":"Feature"},
	{"geometry":{"coordinates":[22.988,40.610728],"type":"Point"},"properties":{"osm_id":"9029702478","tag":{"amenity":"recycling","recycling:cans":"yes","recycling:cardboard":"yes","recycling:clothes":"no","recycling:glass":"yes","recycling:glass_bottles":"yes","recycling:paper":"yes","recycling:plastic":"yes","recycling:plastic_bottles":"yes","recycling:plastic_packaging":"yes","recycling:waste":"yes","recycling_type":"container"}},"type":"Feature"},
	{"geometry":{"coordinates":[22.988598,40.610408],"type":"Point"},"properties":{"osm_id":"9029702482","tag":{"amenity":"recycling","covered":"yes","indoor":"no","level":"0","recycling:cans":"yes","recycling:cardboard":"yes","recycling:clothes":"no","recycling:glass":"no","recycling:glass_bottles":"no","recycling:paper":"yes","recycling:plastic":"yes","recycling:plastic_bottles":"yes","recycling:plastic_packaging":"yes","recycling:waste":"yes","recycling_type":"container"}},"type":"Feature"},
	{"geometry":{"coordinates":[22.989175,40.610018],"type":"Point"},"properties":{"osm_id":"9029722186","tag":{"amenity":"recycling","covered":"yes","indoor":"no","level":"0","recycling:cans":"no","recycling:cardboard":"no","recycling:clothes":"no","recycling:glass":"no","recycling:glass_bottles":"yes","recycling:paper":"no","recycling:plastic":"no","recycling:plastic_bottles":"no","recycling:plastic_packaging":"no","recycling:waste":"no","recycling_type":"container"}},"type":"Feature"},
	{"geometry":{"coordinates":[22.987673,40.611938],"type":"Point"},"properties":{"osm_id":"9032810446","tag":{"amenity":"recycling","covered":"yes","indoor":"no","level":"0","material":"plastic","recycling:cans":"yes","recycling:cardboard":"yes","recycling:clothes":"yes","recycling:glass":"yes","recycling:glass_bottles":"yes","recycling:paper":"yes","recycling:plastic":"yes","recycling:plastic_bottles":"yes","recycling:plastic_packaging":"yes","recycling:waste":"no","recycling_type":"container"}},"type":"Feature"}
]
}
