{
"type": "FeatureCollection",
"lastupdate": "2020-08-06T00:00:00Z",
"features": [
	{"geometry":{"coordinates":[4.180839,51.999008],"type":"Point"},"properties":{"osm_id":"1520133620","tag":{"amenity":"waste_basket"}},"type":"Feature"},
	{"geometry":{"coordinates":[4.172824,52.002278],"type":"Point"},"properties":{"osm_id":"1520146437","tag":{"amenity":"recycling","recycling:glass":"yes","recycling:plastic":"yes","recycling_type":"container"}},"type":"Feature"},
	{"geometry":{"coordinates":[4.175614,52.000567],"type":"Point"},"properties":{"osm_id":"1520146471","tag":{"amenity":"waste_basket"}},"type":"Feature"},
	{"geometry":{"coordinates":[4.173339,52.002945],"type":"Point"},"properties":{"osm_id":"1520146473","tag":{"amenity":"waste_basket"}},"type":"Feature"},
	{"geometry":{"coordinates":[4.178404,52.001861],"type":"Point"},"properties":{"osm_id":"1520146484","tag":{"amenity":"waste_basket"}},"type":"Feature"},
	{"geometry":{"coordinates":[4.172868,52.003803],"type":"Point"},"properties":{"osm_id":"1520152126","tag":{"amenity":"waste_basket"}},"type":"Feature"},
	{"geometry":{"coordinates":[4.173833,52.004054],"type":"Point"},"properties":{"osm_id":"1520152141","tag":{"amenity":"waste_basket"}},"type":"Feature"},
	{"geometry":{"coordinates":[4.171382,52.003948],"type":"Point"},"properties":{"osm_id":"1520161185","tag":{"amenity":"waste_basket"}},"type":"Feature"},
	{"geometry":{"coordinates":[4.169601,52.000223],"type":"Point"},"properties":{"osm_id":"1520168294","tag":{"amenity":"waste_basket"}},"type":"Feature"},
	{"geometry":{"coordinates":[4.168957,52.000322],"type":"Point"},"properties":{"osm_id":"1520168304","tag":{"amenity":"waste_basket"}},"type":"Feature"},
	{"geometry":{"coordinates":[4.169692,52.000022],"type":"Point"},"properties":{"osm_id":"1520180752","tag":{"amenity":"recycling","recycling:glass":"yes","recycling:plastic":"yes","recycling_type":"container"}},"type":"Feature"},
	{"geometry":{"coordinates":[4.170389,51.999021],"type":"Point"},"properties":{"osm_id":"1520180772","tag":{"amenity":"waste_basket"}},"type":"Feature"},
	{"geometry":{"coordinates":[4.159577,52.002258],"type":"Point"},"properties":{"osm_id":"1705664115","tag":{"amenity":"recycling","recycling_type":"container"}},"type":"Feature"},
	{"geometry":{"coordinates":[4.163919,52.004334],"type":"Point"},"properties":{"osm_id":"1721286726","tag":{"amenity":"recycling","recycling_type":"container"}},"type":"Feature"},
	{"geometry":{"coordinates":[4.168098,52.00643],"type":"Point"},"properties":{"osm_id":"1721865793","tag":{"amenity":"recycling","recycling_type":"container"}},"type":"Feature"},
	{"geometry":{"coordinates":[4.185132,52.043063],"type":"Point"},"properties":{"osm_id":"1887453003","tag":{"amenity":"waste_basket"}},"type":"Feature"},
	{"geometry":{"coordinates":[4.184723,52.043169],"type":"Point"},"properties":{"osm_id":"1887453008","tag":{"amenity":"waste_basket"}},"type":"Feature"},
	{"geometry":{"coordinates":[4.168723,52.029492],"type":"Point"},"properties":{"osm_id":"2323486303","tag":{"amenity":"recycling","recycling:batteries":"no","recycling:books":"no","recycling:cans":"no","recycling:cardboard":"yes","recycling:cartons":"yes","recycling:clothes":"no","recycling:electrical_appliances":"no","recycling:glass":"yes","recycling:glass_bottles":"yes","recycling:green_waste":"no","recycling:magazines":"yes","recycling:newspaper":"yes","recycling:paper":"yes","recycling:paper_packaging":"yes","recycling:plastic":"yes","recycling:plastic_bottles":"yes","recycling:plastic_packaging":"yes","recycling:scrap_metal":"no","recycling:small_appliances":"no","recycling:waste":"no","recycling:wood":"no","recycling_type":"container"}},"type":"Feature"},
	{"geometry":{"coordinates":[4.168712,52.029315],"type":"Point"},"properties":{"osm_id":"2323486305","tag":{"amenity":"waste_basket"}},"type":"Feature"},
	{"geometry":{"coordinates":[4.215468,52.022427],"type":"Point"},"properties":{"osm_id":"3075813477","tag":{"amenity":"waste_basket"}},"type":"Feature"},
	{"geometry":{"coordinates":[4.217384,52.024166],"type":"Point"},"properties":{"osm_id":"3075817488","tag":{"amenity":"waste_basket"}},"type":"Feature"},
	{"geometry":{"coordinates":[4.216981,52.02377],"type":"Point"},"properties":{"osm_id":"3075819477","tag":{"amenity":"waste_basket"}},"type":"Feature"},
	{"geometry":{"coordinates":[4.216413,52.024615],"type":"Point"},"properties":{"osm_id":"3075823139","tag":{"amenity":"waste_basket"}},"type":"Feature"},
	{"geometry":{"coordinates":[4.218349,52.022806],"type":"Point"},"properties":{"osm_id":"3075848458","tag":{"amenity":"recycling","recycling:clothes":"yes","recycling_type":"container"}},"type":"Feature"},
	{"geometry":{"coordinates":[4.196586,52.033794],"type":"Point"},"properties":{"osm_id":"3095612410","tag":{"amenity":"recycling","recycling_type":"container"}},"type":"Feature"},
	{"geometry":{"coordinates":[4.171333,52.022186],"type":"Point"},"properties":{"osm_id":"4355239279","tag":{"amenity":"waste_basket"}},"type":"Feature"},
	{"geometry":{"coordinates":[4.171711,52.022263],"type":"Point"},"properties":{"osm_id":"4355239284","tag":{"amenity":"waste_basket"}},"type":"Feature"},
	{"geometry":{"coordinates":[4.171789,52.022352],"type":"Point"},"properties":{"osm_id":"4355239285","tag":{"amenity":"waste_basket"}},"type":"Feature"},
	{"geometry":{"coordinates":[4.172586,52.025802],"type":"Point"},"properties":{"osm_id":"4593011389","tag":{"amenity":"recycling","location":"underground","recycling:glass":"yes","recycling:plastic":"yes","recycling_type":"container"}},"type":"Feature"},
	{"geometry":{"coordinates":[4.170241,52.023262],"type":"Point"},"properties":{"osm_id":"4593270794","tag":{"amenity":"recycling","location":"underground","recycling_type":"container"}},"type":"Feature"},
	{"geometry":{"coordinates":[4.176367,52.024318],"type":"Point"},"properties":{"osm_id":"4593966889","tag":{"amenity":"recycling","recycling_type":"container"}},"type":"Feature"},
	{"geometry":{"coordinates":[4.177982,52.030455],"type":"Point"},"properties":{"osm_id":"4594180604","tag":{"amenity":"recycling","recycling:glass":"yes","recycling:paper":"yes","recycling_type":"container"}},"type":"Feature"},
	{"geometry":{"coordinates":[4.18644,52.031063],"type":"Point"},"properties":{"osm_id":"4594264090","tag":{"amenity":"waste_basket"}},"type":"Feature"},
	{"geometry":{"coordinates":[4.18021,52.032851],"type":"Point"},"properties":{"osm_id":"4595910090","tag":{"amenity":"waste_basket"}},"type":"Feature"},
	{"geometry":{"coordinates":[4.172173,52.022255],"type":"Point"},"properties":{"osm_id":"4595943191","tag":{"amenity":"waste_basket"}},"type":"Feature"},
	{"geometry":{"coordinates":[4.171634,52.022494],"type":"Point"},"properties":{"osm_id":"4595993690","tag":{"amenity":"waste_basket"}},"type":"Feature"},
	{"geometry":{"coordinates":[4.169422,52.025031],"type":"Point"},"properties":{"osm_id":"4596000090","tag":{"amenity":"waste_basket"}},"type":"Feature"},
	{"geometry":{"coordinates":[4.171568,52.024628],"type":"Point"},"properties":{"osm_id":"4596816289","tag":{"amenity":"waste_basket"}},"type":"Feature"},
	{"geometry":{"coordinates":[4.179313,52.027753],"type":"Point"},"properties":{"osm_id":"4599664090","tag":{"amenity":"waste_basket"}},"type":"Feature"},
	{"geometry":{"coordinates":[4.177398,52.02549],"type":"Point"},"properties":{"osm_id":"4599664091","tag":{"amenity":"waste_basket"}},"type":"Feature"},
	{"geometry":{"coordinates":[4.17413,52.024961],"type":"Point"},"properties":{"osm_id":"4599664092","tag":{"amenity":"waste_basket"}},"type":"Feature"},
	{"geometry":{"coordinates":[4.178837,52.026364],"type":"Point"},"properties":{"osm_id":"4599667289","tag":{"amenity":"waste_basket"}},"type":"Feature"},
	{"geometry":{"coordinates":[4.186237,52.031261],"type":"Point"},"properties":{"osm_id":"4603463389","tag":{"amenity":"waste_basket"}},"type":"Feature"},
	{"geometry":{"coordinates":[4.131784,52.000997],"type":"Point"},"properties":{"osm_id":"4934330821","tag":{"amenity":"waste_basket"}},"type":"Feature"},
	{"geometry":{"coordinates":[4.131018,52.001264],"type":"Point"},"properties":{"osm_id":"4934330824","tag":{"amenity":"waste_basket"}},"type":"Feature"},
	{"geometry":{"coordinates":[4.13161,52.001058],"type":"Point"},"properties":{"osm_id":"4934330827","tag":{"amenity":"waste_basket"}},"type":"Feature"},
	{"geometry":{"coordinates":[4.182492,52.044321],"type":"Point"},"properties":{"osm_id":"5796293897","tag":{"amenity":"waste_basket"}},"type":"Feature"},
	{"geometry":{"coordinates":[4.182582,52.044385],"type":"Point"},"properties":{"osm_id":"5796293898","tag":{"amenity":"waste_basket"}},"type":"Feature"},
	{"geometry":{"coordinates":[4.18267,52.044454],"type":"Point"},"properties":{"osm_id":"5796293899","tag":{"amenity":"waste_basket"}},"type":"Feature"},
	{"geometry":{"coordinates":[4.182747,52.044515],"type":"Point"},"properties":{"osm_id":"5796293900","tag":{"amenity":"waste_basket"}},"type":"Feature"},
	{"geometry":{"coordinates":[4.174215,52.029138],"type":"Point"},"properties":{"osm_id":"6409040173","tag":{"amenity":"recycling","recycling:clothes":"yes","recycling:glass":"yes","recycling:plastic":"yes","recycling_type":"container"}},"type":"Feature"},
	{"geometry":{"coordinates":[4.170165,51.9992],"type":"Point"},"properties":{"osm_id":"6769832106","tag":{"amenity":"recycling","recycling_type":"container"}},"type":"Feature"},
	{"geometry":{"coordinates":[4.164404,52.000101],"type":"Point"},"properties":{"osm_id":"6769844106","tag":{"amenity":"recycling","recycling_type":"container"}},"type":"Feature"},
	{"geometry":{"coordinates":[4.18154,52.030915],"type":"Point"},"properties":{"osm_id":"7150801943","tag":{"amenity":"recycling","recycling:glass":"yes","recycling:plastic":"yes","recycling_type":"container"}},"type":"Feature"},
	{"geometry":{"coordinates":[4.188438,52.03133],"type":"Point"},"properties":{"osm_id":"7150801944","tag":{"amenity":"recycling","recycling:clothes":"yes","recycling:glass":"yes","recycling:paper":"yes","recycling:plastic":"yes","recycling_type":"container"}},"type":"Feature"},
	{"geometry":{"coordinates":[4.181664,52.022683],"type":"Point"},"properties":{"osm_id":"7156290788","tag":{"amenity":"recycling","recycling:glass":"yes","recycling:paper":"yes","recycling_type":"container"}},"type":"Feature"},
	{"geometry":{"coordinates":[4.172853,52.022845],"type":"Point"},"properties":{"osm_id":"7156290789","tag":{"amenity":"recycling","recycling:clothes":"yes","recycling:glass":"yes","recycling:paper":"yes","recycling:plastic":"yes","recycling_type":"container"}},"type":"Feature"},
	{"geometry":{"coordinates":[4.171019,52.023226],"type":"Point"},"properties":{"osm_id":"7156290790","tag":{"amenity":"recycling","recycling:clothes":"yes","recycling:glass":"yes","recycling:paper":"yes","recycling:plastic":"yes","recycling_type":"container"}},"type":"Feature"},
	{"geometry":{"coordinates":[4.179357,52.024498],"type":"Point"},"properties":{"osm_id":"7156331602","tag":{"amenity":"recycling","operator":"Wecycle","recycling:small_appliances":"yes","recycling_type":"container"}},"type":"Feature"},
	{"geometry":{"coordinates":[4.171598,52.023384],"type":"Point"},"properties":{"osm_id":"7156399566","tag":{"amenity":"recycling","operator":"Wecycle","recycling:batteries":"yes","recycling_type":"container"}},"type":"Feature"},
	{"geometry":{"coordinates":[4.169276,52.018339],"type":"Point"},"properties":{"name":"Milieustraat Monster","osm_id":"7158262402","tag":{"addr:city":"Monster","addr:housenumber":"37","addr:postcode":"2681RW","addr:street":"Vlotlaan","amenity":"recycling","opening_hours":"Th 13:00-16:00; Sa 08:00-16:00","operator":"Gemeente Westland","recycling_type":"centre","website":"https://www.gemeentewestland.nl/afval/milieustraten.html"}},"type":"Feature"},
	{"geometry":{"coordinates":[4.181733,52.025838],"type":"Point"},"properties":{"osm_id":"7444906562","tag":{"amenity":"waste_basket"}},"type":"Feature"},
	{"geometry":{"coordinates":[4.18303,52.023181],"type":"Point"},"properties":{"osm_id":"7444906893","tag":{"amenity":"waste_basket"}},"type":"Feature"},
	{"geometry":{"coordinates":[4.178298,52.021776],"type":"Point"},"properties":{"osm_id":"7444906938","tag":{"amenity":"waste_basket"}},"type":"Feature"},
	{"geometry":{"coordinates":[4.177811,52.021876],"type":"Point"},"properties":{"osm_id":"7444906940","tag":{"amenity":"waste_basket"}},"type":"Feature"},
	{"geometry":{"coordinates":[4.179402,52.023648],"type":"Point"},"properties":{"osm_id":"7444906953","tag":{"amenity":"waste_basket"}},"type":"Feature"},
	{"geometry":{"coordinates":[4.176195,52.026668],"type":"Point"},"properties":{"osm_id":"7445063442","tag":{"amenity":"waste_basket"}},"type":"Feature"},
	{"geometry":{"coordinates":[4.166722,52.024017],"type":"Point"},"properties":{"osm_id":"7449581647","tag":{"amenity":"waste_basket"}},"type":"Feature"},
	{"geometry":{"coordinates":[4.166565,52.024036],"type":"Point"},"properties":{"osm_id":"7449581649","tag":{"amenity":"waste_basket"}},"type":"Feature"},
	{"geometry":{"coordinates":[4.1677,52.023726],"type":"Point"},"properties":{"osm_id":"7449581675","tag":{"amenity":"waste_basket"}},"type":"Feature"},
	{"geometry":{"coordinates":[4.167825,52.024736],"type":"Point"},"properties":{"osm_id":"7449581676","tag":{"amenity":"waste_basket"}},"type":"Feature"},
	{"geometry":{"coordinates":[4.167363,52.024481],"type":"Point"},"properties":{"osm_id":"7449585324","tag":{"amenity":"waste_basket"}},"type":"Feature"},
	{"geometry":{"coordinates":[4.167255,52.024503],"type":"Point"},"properties":{"osm_id":"7449585325","tag":{"amenity":"waste_basket"}},"type":"Feature"},
	{"geometry":{"coordinates":[4.167098,52.024458],"type":"Point"},"properties":{"osm_id":"7449585326","tag":{"amenity":"waste_basket"}},"type":"Feature"},
	{"geometry":{"coordinates":[4.168097,52.030451],"type":"Point"},"properties":{"osm_id":"7449585337","tag":{"amenity":"waste_basket"}},"type":"Feature"},
	{"geometry":{"coordinates":[4.190394,52.039188],"type":"Point"},"properties":{"osm_id":"7449601450","tag":{"amenity":"waste_basket"}},"type":"Feature"},
	{"geometry":{"coordinates":[4.177719,52.029271],"type":"Point"},"properties":{"osm_id":"7449615350","tag":{"amenity":"waste_basket"}},"type":"Feature"},
	{"geometry":{"coordinates":[4.177489,52.029238],"type":"Point"},"properties":{"osm_id":"7449615353","tag":{"amenity":"waste_basket"}},"type":"Feature"},
	{"geometry":{"coordinates":[4.177991,52.030432],"type":"Point"},"properties":{"osm_id":"7449615354","tag":{"amenity":"waste_basket"}},"type":"Feature"},
	{"geometry":{"coordinates":[4.211897,52.046369],"type":"Point"},"properties":{"osm_id":"7452651245","tag":{"amenity":"waste_basket"}},"type":"Feature"},
	{"geometry":{"coordinates":[4.209406,52.045517],"type":"Point"},"properties":{"osm_id":"7452651251","tag":{"amenity":"waste_basket"}},"type":"Feature"},
	{"geometry":{"coordinates":[4.208623,52.044799],"type":"Point"},"properties":{"osm_id":"7452651281","tag":{"amenity":"waste_basket"}},"type":"Feature"},
	{"geometry":{"coordinates":[4.208497,52.044742],"type":"Point"},"properties":{"osm_id":"7452651283","tag":{"amenity":"waste_basket"}},"type":"Feature"},
	{"geometry":{"coordinates":[4.208422,52.044814],"type":"Point"},"properties":{"osm_id":"7452651284","tag":{"amenity":"waste_basket"}},"type":"Feature"},
	{"geometry":{"coordinates":[4.209066,52.044375],"type":"Point"},"properties":{"osm_id":"7454161337","tag":{"amenity":"waste_basket"}},"type":"Feature"},
	{"geometry":{"coordinates":[4.209143,52.043805],"type":"Point"},"properties":{"osm_id":"7454161341","tag":{"amenity":"waste_basket"}},"type":"Feature"},
	{"geometry":{"coordinates":[4.209385,52.043686],"type":"Point"},"properties":{"osm_id":"7454161343","tag":{"amenity":"waste_basket"}},"type":"Feature"},
	{"geometry":{"coordinates":[4.209858,52.042354],"type":"Point"},"properties":{"osm_id":"7454161358","tag":{"amenity":"waste_basket"}},"type":"Feature"},
	{"geometry":{"coordinates":[4.20964,52.043316],"type":"Point"},"properties":{"osm_id":"7454161359","tag":{"amenity":"waste_basket"}},"type":"Feature"},
	{"geometry":{"coordinates":[4.210564,52.044587],"type":"Point"},"properties":{"osm_id":"7454162494","tag":{"amenity":"waste_basket"}},"type":"Feature"},
	{"geometry":{"coordinates":[4.212479,52.045849],"type":"Point"},"properties":{"osm_id":"7454237229","tag":{"amenity":"waste_basket"}},"type":"Feature"},
	{"geometry":{"coordinates":[4.210013,52.045967],"type":"Point"},"properties":{"osm_id":"7454446298","tag":{"amenity":"waste_basket"}},"type":"Feature"},
	{"geometry":{"coordinates":[4.179949,52.024395],"type":"Point"},"properties":{"osm_id":"7456102627","tag":{"amenity":"waste_basket"}},"type":"Feature"}
]
}
