{
"type": "FeatureCollection",
"features": [
	{"geometry":{"coordinates":[4.207321,51.985087],"type":"Point"},"properties":{"name":"Gemeentewerf","osm_id":"1142799280","tag":{"amenity":"recycling","recycling_type":"centre"}},"type":"Feature"},
	{"geometry":{"coordinates":[4.211087,51.989297],"type":"Point"},"properties":{"osm_id":"1445746738","tag":{"amenity":"recycling","recycling:clothes":"yes","recycling:glass":"yes","recycling:glass_bottles":"yes","recycling:plastic":"yes","recycling:plastic_bottles":"yes","recycling:plastic_packaging":"yes","recycling_type":"container"}},"type":"Feature"},
	{"geometry":{"coordinates":[4.211474,51.989297],"type":"Point"},"properties":{"osm_id":"1445746742","tag":{"amenity":"waste_basket"}},"type":"Feature"},
	{"geometry":{"coordinates":[4.200562,51.987829],"type":"Point"},"properties":{"osm_id":"1445749934","tag":{"amenity":"waste_basket"}},"type":"Feature"},
	{"geometry":{"coordinates":[4.204253,51.988464],"type":"Point"},"properties":{"osm_id":"1445749936","tag":{"amenity":"waste_basket"}},"type":"Feature"},
	{"geometry":{"coordinates":[4.199575,51.99225],"type":"Point"},"properties":{"osm_id":"1445756408","tag":{"amenity":"waste_basket"}},"type":"Feature"},
	{"geometry":{"coordinates":[4.199584,51.992144],"type":"Point"},"properties":{"osm_id":"1445756421","tag":{"amenity":"recycling","recycling:glass":"yes","recycling:glass_bottles":"yes","recycling_type":"container"}},"type":"Feature"},
	{"geometry":{"coordinates":[4.194619,51.993498],"type":"Point"},"properties":{"osm_id":"1445761944","tag":{"amenity":"waste_basket"}},"type":"Feature"},
	{"geometry":{"coordinates":[4.194532,51.993921],"type":"Point"},"properties":{"osm_id":"1445764549","tag":{"amenity":"waste_basket"}},"type":"Feature"},
	{"geometry":{"coordinates":[4.198545,51.995408],"type":"Point"},"properties":{"osm_id":"1445768169","tag":{"amenity":"recycling","recycling:glass":"yes","recycling:glass_bottles":"yes","recycling:plastic":"yes","recycling:plastic_bottles":"yes","recycling:plastic_packaging":"yes","recycling_type":"container"}},"type":"Feature"},
	{"geometry":{"coordinates":[4.201968,51.992994],"type":"Point"},"properties":{"osm_id":"1445768178","tag":{"amenity":"waste_basket"}},"type":"Feature"},
	{"geometry":{"coordinates":[4.173351,51.997985],"type":"Point"},"properties":{"osm_id":"1520133595","tag":{"amenity":"recycling","recycling:clothes":"yes","recycling:glass":"yes","recycling:plastic":"yes","recycling_type":"container"}},"type":"Feature"},
	{"geometry":{"coordinates":[4.171726,51.995263],"type":"Point"},"properties":{"osm_id":"1520188815","tag":{"amenity":"waste_basket"}},"type":"Feature"},
	{"geometry":{"coordinates":[4.169354,51.995161],"type":"Point"},"properties":{"osm_id":"1520188839","tag":{"amenity":"waste_basket"}},"type":"Feature"},
	{"geometry":{"coordinates":[4.172643,51.99598],"type":"Point"},"properties":{"osm_id":"1520188841","tag":{"amenity":"waste_basket"}},"type":"Feature"},
	{"geometry":{"coordinates":[4.169574,51.995491],"type":"Point"},"properties":{"osm_id":"1520188853","tag":{"amenity":"waste_basket"}},"type":"Feature"},
	{"geometry":{"coordinates":[4.214929,51.959544],"type":"Point"},"properties":{"osm_id":"1560902133","tag":{"amenity":"recycling","recycling_type":"container"}},"type":"Feature"},
	{"geometry":{"coordinates":[4.179568,51.996597],"type":"Point"},"properties":{"osm_id":"1705708440","tag":{"amenity":"waste_disposal"}},"type":"Feature"},
	{"geometry":{"coordinates":[4.179358,51.996597],"type":"Point"},"properties":{"name":"Gemeentewerf","osm_id":"1705708442","tag":{"amenity":"recycling","recycling_type":"centre"}},"type":"Feature"},
	{"geometry":{"coordinates":[4.13111,51.986086],"type":"Point"},"properties":{"osm_id":"2323515561","tag":{"amenity":"waste_basket"}},"type":"Feature"},
	{"geometry":{"coordinates":[4.203747,51.987895],"type":"Point"},"properties":{"osm_id":"4593270795","tag":{"amenity":"waste_basket"}},"type":"Feature"},
	{"geometry":{"coordinates":[4.166489,51.996842],"type":"Point"},"properties":{"osm_id":"4915083615","tag":{"amenity":"recycling","recycling_type":"container"}},"type":"Feature"}
]
}
