{
"type": "FeatureCollection",
"features": [
	{"geometry":{"coordinates":[4.162725,51.751282],"type":"Point"},"properties":{"osm_id":"6619557309","tag":{"amenity":"waste_basket","colour":"green","material":"steel"}},"type":"Feature"},
	{"geometry":{"coordinates":[4.166171,51.751284],"type":"Point"},"properties":{"osm_id":"6619846286","tag":{"amenity":"waste_basket","colour":"yellow","material":"steel"}},"type":"Feature"},
	{"geometry":{"coordinates":[4.165595,51.751988],"type":"Point"},"properties":{"osm_id":"6619877251","tag":{"amenity":"waste_basket","colour":"green","material":"steel"}},"type":"Feature"},
	{"geometry":{"coordinates":[4.165088,51.752795],"type":"Point"},"properties":{"osm_id":"6620165425","tag":{"amenity":"waste_basket","colour":"red","material":"steel"}},"type":"Feature"},
	{"geometry":{"coordinates":[4.164695,51.752821],"type":"Point"},"properties":{"osm_id":"6620165426","tag":{"amenity":"waste_basket"}},"type":"Feature"},
	{"geometry":{"coordinates":[4.164681,51.753247],"type":"Point"},"properties":{"osm_id":"6620165427","tag":{"amenity":"waste_basket"}},"type":"Feature"},
	{"geometry":{"coordinates":[4.165178,51.753113],"type":"Point"},"properties":{"osm_id":"6620165428","tag":{"amenity":"waste_basket"}},"type":"Feature"},
	{"geometry":{"coordinates":[4.165317,51.752898],"type":"Point"},"properties":{"osm_id":"6620165429","tag":{"amenity":"waste_basket"}},"type":"Feature"},
	{"geometry":{"coordinates":[4.165132,51.753439],"type":"Point"},"properties":{"osm_id":"6620165430","tag":{"amenity":"waste_basket"}},"type":"Feature"}
]
}
