{
"type": "FeatureCollection",
"features": [
	{"geometry":{"coordinates":[4.217081,50.933515],"type":"Point"},"properties":{"osm_id":"521566662","tag":{"amenity":"recycling"}},"type":"Feature"},
	{"geometry":{"coordinates":[4.192244,50.907817],"type":"Point"},"properties":{"osm_id":"1347765463","tag":{"amenity":"recycling","recycling:glass":"yes"}},"type":"Feature"},
	{"geometry":{"coordinates":[4.185072,50.922033],"type":"Point"},"properties":{"osm_id":"1888880777","tag":{"amenity":"recycling","recycling:clothes":"yes","recycling:glass":"yes","recycling:glass_bottles":"yes","recycling_type":"container"}},"type":"Feature"},
	{"geometry":{"coordinates":[4.207977,50.905921],"type":"Point"},"properties":{"osm_id":"2170977860","tag":{"amenity":"waste_basket"}},"type":"Feature"},
	{"geometry":{"coordinates":[4.207961,50.90619],"type":"Point"},"properties":{"osm_id":"2170977879","tag":{"amenity":"waste_basket"}},"type":"Feature"},
	{"geometry":{"coordinates":[4.203728,50.90828],"type":"Point"},"properties":{"osm_id":"2170977939","tag":{"amenity":"waste_basket"}},"type":"Feature"},
	{"geometry":{"coordinates":[4.203958,50.908442],"type":"Point"},"properties":{"osm_id":"2170977952","tag":{"amenity":"waste_basket"}},"type":"Feature"},
	{"geometry":{"coordinates":[4.20131,50.910067],"type":"Point"},"properties":{"osm_id":"2170978012","tag":{"amenity":"waste_basket"}},"type":"Feature"},
	{"geometry":{"coordinates":[4.195748,50.912453],"type":"Point"},"properties":{"osm_id":"2170978149","tag":{"amenity":"waste_basket"}},"type":"Feature"},
	{"geometry":{"coordinates":[4.195483,50.912522],"type":"Point"},"properties":{"osm_id":"2170978173","tag":{"amenity":"waste_basket"}},"type":"Feature"},
	{"geometry":{"coordinates":[4.139888,50.913372],"type":"Point"},"properties":{"osm_id":"2170978238","tag":{"amenity":"waste_basket"}},"type":"Feature"},
	{"geometry":{"coordinates":[4.140445,50.913649],"type":"Point"},"properties":{"osm_id":"2170978256","tag":{"amenity":"waste_basket"}},"type":"Feature"},
	{"geometry":{"coordinates":[4.192981,50.914502],"type":"Point"},"properties":{"osm_id":"2170978292","tag":{"amenity":"waste_basket"}},"type":"Feature"},
	{"geometry":{"coordinates":[4.152598,50.916146],"type":"Point"},"properties":{"osm_id":"2170978369","tag":{"amenity":"waste_basket"}},"type":"Feature"},
	{"geometry":{"coordinates":[4.152468,50.916151],"type":"Point"},"properties":{"osm_id":"2170978371","tag":{"amenity":"recycling","recycling:clothes":"yes","recycling_type":"container"}},"type":"Feature"},
	{"geometry":{"coordinates":[4.153539,50.916178],"type":"Point"},"properties":{"osm_id":"2170978384","tag":{"amenity":"waste_basket"}},"type":"Feature"},
	{"geometry":{"coordinates":[4.157235,50.917574],"type":"Point"},"properties":{"osm_id":"2170978447","tag":{"amenity":"waste_basket"}},"type":"Feature"},
	{"geometry":{"coordinates":[4.157218,50.917904],"type":"Point"},"properties":{"osm_id":"2170978452","tag":{"amenity":"recycling","recycling:clothes":"yes","recycling_type":"container"}},"type":"Feature"},
	{"geometry":{"coordinates":[4.157395,50.918171],"type":"Point"},"properties":{"osm_id":"2170978461","tag":{"amenity":"waste_basket"}},"type":"Feature"},
	{"geometry":{"coordinates":[4.184565,50.919472],"type":"Point"},"properties":{"osm_id":"2170978479","tag":{"amenity":"waste_basket"}},"type":"Feature"},
	{"geometry":{"coordinates":[4.184674,50.919565],"type":"Point"},"properties":{"osm_id":"2170978483","tag":{"amenity":"waste_basket"}},"type":"Feature"},
	{"geometry":{"coordinates":[4.161802,50.92043],"type":"Point"},"properties":{"osm_id":"2170978505","tag":{"amenity":"waste_basket"}},"type":"Feature"},
	{"geometry":{"coordinates":[4.157128,50.918751],"type":"Point"},"properties":{"osm_id":"2610807607","tag":{"amenity":"recycling","recycling:clothes":"yes","recycling:glass":"yes","recycling_type":"container"}},"type":"Feature"},
	{"geometry":{"coordinates":[4.133151,50.932147],"type":"Point"},"properties":{"osm_id":"2610873005","tag":{"amenity":"recycling","recycling:clothes":"yes","recycling_type":"container"}},"type":"Feature"},
	{"geometry":{"coordinates":[4.141944,50.955018],"type":"Point"},"properties":{"osm_id":"2610914008","tag":{"amenity":"recycling","recycling:clothes":"yes","recycling_type":"container"}},"type":"Feature"},
	{"geometry":{"coordinates":[4.207868,50.906622],"type":"Point"},"properties":{"osm_id":"2736122164","tag":{"amenity":"recycling","recycling:glass_bottles":"yes","recycling_type":"container"}},"type":"Feature"},
	{"geometry":{"coordinates":[4.132319,50.93729],"type":"Point"},"properties":{"osm_id":"3198789552","tag":{"amenity":"recycling","recycling:clothes":"yes","recycling_type":"container"}},"type":"Feature"},
	{"geometry":{"coordinates":[4.21454,50.930958],"type":"Point"},"properties":{"osm_id":"4405417076","tag":{"amenity":"waste_basket"}},"type":"Feature"},
	{"geometry":{"coordinates":[4.199629,50.910533],"type":"Point"},"properties":{"osm_id":"5262021499","tag":{"amenity":"waste_basket"}},"type":"Feature"},
	{"geometry":{"coordinates":[4.199626,50.910529],"type":"Point"},"properties":{"osm_id":"5262021500","tag":{"amenity":"waste_basket"}},"type":"Feature"},
	{"geometry":{"coordinates":[4.199623,50.910525],"type":"Point"},"properties":{"osm_id":"5262021501","tag":{"amenity":"waste_basket"}},"type":"Feature"},
	{"geometry":{"coordinates":[4.141903,50.954534],"type":"Point"},"properties":{"osm_id":"5841437344","tag":{"amenity":"recycling","mapillary":"https://www.mapillary.com/map/im/_8Ylx6kbfK33opFnTl6xuQ","operator":"de Kringwinkel","recycling:clothes":"yes","recycling_type":"container"}},"type":"Feature"},
	{"geometry":{"coordinates":[4.141887,50.954525],"type":"Point"},"properties":{"osm_id":"5841437345","tag":{"amenity":"recycling","mapillary":"https://www.mapillary.com/map/im/_8Ylx6kbfK33opFnTl6xuQ","operator":"WMH Wereld Missie Hulp","recycling:clothes":"yes","recycling_type":"container"}},"type":"Feature"},
	{"geometry":{"coordinates":[4.141349,50.956351],"type":"Point"},"properties":{"osm_id":"6320083752","tag":{"amenity":"waste_basket"}},"type":"Feature"},
	{"geometry":{"coordinates":[4.156521,50.919268],"type":"Point"},"properties":{"osm_id":"6871564124","tag":{"amenity":"recycling","recycling:glass_bottles":"yes","recycling_type":"container"}},"type":"Feature"},
	{"geometry":{"coordinates":[4.156539,50.919254],"type":"Point"},"properties":{"osm_id":"6871564125","tag":{"amenity":"recycling","recycling:glass_bottles":"yes","recycling_type":"container"}},"type":"Feature"},
	{"geometry":{"coordinates":[4.204972,50.917294],"type":"Point"},"properties":{"osm_id":"7274618286","tag":{"amenity":"waste_basket","colour":"yellow"}},"type":"Feature"}
]
}
