{
"type": "FeatureCollection",
"lastupdate": "2020-08-02T00:00:00Z",
"features": [
	{"geometry":{"coordinates":[4.209658,50.826448],"type":"Point"},"properties":{"osm_id":"1268873955","tag":{"amenity":"recycling","operator":"Wereld Missie Hulp","recycling:clothes":"yes","recycling_type":"container"}},"type":"Feature"},
	{"geometry":{"coordinates":[4.211229,50.827299],"type":"Point"},"properties":{"osm_id":"1268873981","tag":{"amenity":"recycling","recycling:clothes":"yes","recycling_type":"container"}},"type":"Feature"},
	{"geometry":{"coordinates":[4.188139,50.799327],"type":"Point"},"properties":{"osm_id":"1520120943","tag":{"amenity":"recycling","recycling:clothes":"yes","recycling_type":"container"}},"type":"Feature"},
	{"geometry":{"coordinates":[4.206426,50.804037],"type":"Point"},"properties":{"osm_id":"1559549432","tag":{"amenity":"waste_basket"}},"type":"Feature"},
	{"geometry":{"coordinates":[4.204439,50.804091],"type":"Point"},"properties":{"osm_id":"1559549443","tag":{"amenity":"waste_basket"}},"type":"Feature"},
	{"geometry":{"coordinates":[4.208512,50.80414],"type":"Point"},"properties":{"osm_id":"1559549478","tag":{"amenity":"waste_basket"}},"type":"Feature"},
	{"geometry":{"coordinates":[4.203829,50.804552],"type":"Point"},"properties":{"osm_id":"1559549506","tag":{"amenity":"waste_basket"}},"type":"Feature"},
	{"geometry":{"coordinates":[4.21113,50.805199],"type":"Point"},"properties":{"osm_id":"1559549535","tag":{"amenity":"waste_basket"}},"type":"Feature"},
	{"geometry":{"coordinates":[4.204856,50.805617],"type":"Point"},"properties":{"osm_id":"1559549572","tag":{"amenity":"waste_basket"}},"type":"Feature"},
	{"geometry":{"coordinates":[4.211787,50.814866],"type":"Point"},"properties":{"osm_id":"1559549948","tag":{"amenity":"recycling","operator":"Vlaams Inzamel Centrum Textiel","recycling:clothes":"yes","recycling_type":"container"}},"type":"Feature"},
	{"geometry":{"coordinates":[4.2031,50.805031],"type":"Point"},"properties":{"osm_id":"1575402073","tag":{"amenity":"waste_basket"}},"type":"Feature"},
	{"geometry":{"coordinates":[4.165229,50.812484],"type":"Point"},"properties":{"osm_id":"1600248987","tag":{"amenity":"waste_basket","type":"blikvanger"}},"type":"Feature"},
	{"geometry":{"coordinates":[4.147392,50.806402],"type":"Point"},"properties":{"osm_id":"1611000891","tag":{"amenity":"recycling","recycling:clothes":"yes","recycling_type":"container"}},"type":"Feature"},
	{"geometry":{"coordinates":[4.153994,50.807017],"type":"Point"},"properties":{"osm_id":"1625192892","tag":{"amenity":"waste_basket"}},"type":"Feature"},
	{"geometry":{"coordinates":[4.154192,50.807524],"type":"Point"},"properties":{"osm_id":"1625192898","tag":{"amenity":"recycling","recycling:clothes":"yes","recycling_type":"container"}},"type":"Feature"},
	{"geometry":{"coordinates":[4.160244,50.806835],"type":"Point"},"properties":{"osm_id":"1631256696","tag":{"amenity":"waste_basket"}},"type":"Feature"},
	{"geometry":{"coordinates":[4.131496,50.795896],"type":"Point"},"properties":{"osm_id":"1659492845","tag":{"amenity":"waste_basket","type":"blikvanger"}},"type":"Feature"},
	{"geometry":{"coordinates":[4.133316,50.845881],"type":"Point"},"properties":{"osm_id":"1882407922","tag":{"amenity":"recycling","recycling:batteries":"no","recycling:books":"no","recycling:cans":"no","recycling:cardboard":"no","recycling:cartons":"no","recycling:clothes":"yes","recycling:electrical_appliances":"no","recycling:glass":"no","recycling:glass_bottles":"no","recycling:green_waste":"no","recycling:magazines":"no","recycling:newspaper":"no","recycling:paper":"no","recycling:paper_packaging":"no","recycling:plastic":"no","recycling:plastic_bottles":"no","recycling:plastic_packaging":"no","recycling:scrap_metal":"no","recycling:small_appliances":"no","recycling:waste":"no","recycling:wood":"no","recycling_type":"container"}},"type":"Feature"},
	{"geometry":{"coordinates":[4.154942,50.800031],"type":"Point"},"properties":{"osm_id":"2059713761","tag":{"amenity":"recycling","operator":"Vlaams Inzamel Centrum Textiel","recycling:clothes":"yes","recycling_type":"container"}},"type":"Feature"},
	{"geometry":{"coordinates":[4.154942,50.800077],"type":"Point"},"properties":{"osm_id":"2059713769","tag":{"amenity":"waste_basket"}},"type":"Feature"},
	{"geometry":{"coordinates":[4.210964,50.825298],"type":"Point"},"properties":{"osm_id":"3604973261","ref":"142","tag":{"amenity":"waste_basket"}},"type":"Feature"},
	{"geometry":{"coordinates":[4.216358,50.804163],"type":"Point"},"properties":{"osm_id":"3689233946","tag":{"amenity":"waste_basket"}},"type":"Feature"},
	{"geometry":{"coordinates":[4.199706,50.795671],"type":"Point"},"properties":{"osm_id":"3700844724","tag":{"amenity":"waste_basket"}},"type":"Feature"},
	{"geometry":{"coordinates":[4.210098,50.831456],"type":"Point"},"properties":{"osm_id":"4150639832","tag":{"amenity":"waste_basket"}},"type":"Feature"},
	{"geometry":{"coordinates":[4.202986,50.796981],"type":"Point"},"properties":{"osm_id":"5091933592","tag":{"amenity":"waste_basket"}},"type":"Feature"},
	{"geometry":{"coordinates":[4.165176,50.812526],"type":"Point"},"properties":{"osm_id":"5132806095","tag":{"amenity":"waste_basket"}},"type":"Feature"},
	{"geometry":{"coordinates":[4.161911,50.8112],"type":"Point"},"properties":{"osm_id":"5132806408","tag":{"amenity":"waste_basket"}},"type":"Feature"},
	{"geometry":{"coordinates":[4.157551,50.809258],"type":"Point"},"properties":{"osm_id":"5132806622","tag":{"amenity":"waste_basket","waste_basket:type:NL":"blikvanger"}},"type":"Feature"},
	{"geometry":{"coordinates":[4.165975,50.811942],"type":"Point"},"properties":{"osm_id":"5132862880","tag":{"amenity":"waste_basket"}},"type":"Feature"},
	{"geometry":{"coordinates":[4.190313,50.811373],"type":"Point"},"properties":{"osm_id":"5135038966","tag":{"amenity":"waste_basket"}},"type":"Feature"},
	{"geometry":{"coordinates":[4.161237,50.843222],"type":"Point"},"properties":{"osm_id":"5323758337","tag":{"amenity":"waste_basket"}},"type":"Feature"},
	{"geometry":{"coordinates":[4.198642,50.794968],"type":"Point"},"properties":{"osm_id":"6622409445","tag":{"amenity":"waste_basket"}},"type":"Feature"},
	{"geometry":{"coordinates":[4.173739,50.814532],"type":"Point"},"properties":{"osm_id":"7148631293","tag":{"amenity":"waste_basket"}},"type":"Feature"},
	{"geometry":{"coordinates":[4.166385,50.813114],"type":"Point"},"properties":{"osm_id":"7153812494","tag":{"amenity":"recycling","operator":"Curitas n.v.","recycling:clothes":"yes","recycling_type":"container"}},"type":"Feature"},
	{"geometry":{"coordinates":[4.166356,50.813102],"type":"Point"},"properties":{"osm_id":"7153812495","tag":{"amenity":"recycling","operator":"Curitas n.v.","recycling:clothes":"yes","recycling_type":"container"}},"type":"Feature"},
	{"geometry":{"coordinates":[4.166438,50.813132],"type":"Point"},"properties":{"osm_id":"7153812496","tag":{"amenity":"recycling","recycling:glass_bottles":"yes","recycling_type":"container"}},"type":"Feature"},
	{"geometry":{"coordinates":[4.16641,50.813121],"type":"Point"},"properties":{"osm_id":"7153812497","tag":{"amenity":"recycling","recycling:glass_bottles":"yes","recycling_type":"container"}},"type":"Feature"},
	{"geometry":{"coordinates":[4.16637,50.813109],"type":"Point"},"properties":{"osm_id":"7153812498","tag":{"amenity":"recycling","operator":"Curitas n.v.","recycling:clothes":"yes","recycling_type":"container"}},"type":"Feature"}
]
}
