{
"type": "FeatureCollection",
"lastupdate": "2020-08-05T00:00:00Z",
"features": [
	{"geometry":{"coordinates":[4.194817,50.477319],"type":"Point"},"properties":{"osm_id":"315140526","tag":{"amenity":"recycling","recycling:clothes":"no","recycling:glass":"yes","recycling:paper":"no"}},"type":"Feature"},
	{"geometry":{"coordinates":[4.21096,50.472223],"type":"Point"},"properties":{"name":"Parc \u00c3\u00a0 conteneurs","osm_id":"316124851","tag":{"amenity":"recycling","recycling_type":"centre"}},"type":"Feature"},
	{"geometry":{"coordinates":[4.217959,50.474178],"type":"Point"},"properties":{"osm_id":"373493996","tag":{"amenity":"recycling","recycling:glass":"yes"}},"type":"Feature"},
	{"geometry":{"coordinates":[4.164996,50.483869],"type":"Point"},"properties":{"osm_id":"1304780328","tag":{"amenity":"recycling","recycling:clothes":"no","recycling:glass":"yes","recycling:paper":"no","recycling_type":"container"}},"type":"Feature"},
	{"geometry":{"coordinates":[4.131117,50.472626],"type":"Point"},"properties":{"osm_id":"1533201185","tag":{"amenity":"recycling","recycling:cans":"yes","recycling:clothes":"yes","recycling:glass":"yes","recycling:paper":"yes","recycling_type":"centre"}},"type":"Feature"},
	{"geometry":{"coordinates":[4.188228,50.472993],"type":"Point"},"properties":{"osm_id":"1724610460","tag":{"amenity":"recycling","recycling:glass":"yes","recycling:glass_bottles":"yes","recycling_type":"container"}},"type":"Feature"},
	{"geometry":{"coordinates":[4.154971,50.461241],"type":"Point"},"properties":{"osm_id":"1829018758","tag":{"amenity":"waste_basket"}},"type":"Feature"},
	{"geometry":{"coordinates":[4.156162,50.4622],"type":"Point"},"properties":{"osm_id":"1829018768","tag":{"amenity":"waste_basket"}},"type":"Feature"},
	{"geometry":{"coordinates":[4.192925,50.474341],"type":"Point"},"properties":{"osm_id":"2065564261","tag":{"amenity":"recycling","recycling_type":"container"}},"type":"Feature"},
	{"geometry":{"coordinates":[4.134503,50.477052],"type":"Point"},"properties":{"osm_id":"2890939483","tag":{"amenity":"recycling","recycling:glass_bottles":"yes","recycling_type":"container"}},"type":"Feature"},
	{"geometry":{"coordinates":[4.156153,50.481769],"type":"Point"},"properties":{"osm_id":"3682859423","tag":{"amenity":"recycling","recycling:clothes":"no","recycling:glass":"yes","recycling:paper":"no"}},"type":"Feature"},
	{"geometry":{"coordinates":[4.145623,50.475214],"type":"Point"},"properties":{"osm_id":"3701717972","tag":{"amenity":"recycling","recycling:glass_bottles":"yes","recycling_type":"container"}},"type":"Feature"},
	{"geometry":{"coordinates":[4.200404,50.47753],"type":"Point"},"properties":{"osm_id":"4381106335","tag":{"amenity":"recycling","recycling:glass":"yes"}},"type":"Feature"},
	{"geometry":{"coordinates":[4.206401,50.475452],"type":"Point"},"properties":{"osm_id":"4392322845","tag":{"amenity":"recycling","recycling:glass":"yes"}},"type":"Feature"},
	{"geometry":{"coordinates":[4.174473,50.467239],"type":"Point"},"properties":{"name":"Parc \u00c3\u00a0 Conteneurs","osm_id":"4403251661","tag":{"addr:city":"Saint Vaast","addr:postcode":"7100","addr:street":"Rue Bastenier","amenity":"recycling","operator":"Ville de La Louvi\u00e8re","operator:type":"public","recycling:batteries":"yes","recycling:clothes":"yes","recycling:glass":"yes","recycling:glass_bottles":"yes","recycling:paper":"yes","recycling:plastic_bottles":"yes","recycling:scrap_metal":"yes","recycling:waste":"yes","recycling_type":"centre"}},"type":"Feature"},
	{"geometry":{"coordinates":[4.20419,50.466489],"type":"Point"},"properties":{"osm_id":"4424106377","tag":{"amenity":"recycling","recycling:glass_bottles":"yes","recycling_type":"container"}},"type":"Feature"},
	{"geometry":{"coordinates":[4.214647,50.464641],"type":"Point"},"properties":{"osm_id":"4431447707","tag":{"amenity":"recycling","recycling:glass":"yes"}},"type":"Feature"},
	{"geometry":{"coordinates":[4.213134,50.481307],"type":"Point"},"properties":{"osm_id":"4447837170","tag":{"amenity":"recycling","recycling:glass":"yes"}},"type":"Feature"},
	{"geometry":{"coordinates":[4.211879,50.494856],"type":"Point"},"properties":{"osm_id":"4456735012","tag":{"amenity":"recycling","recycling:glass_bottles":"yes","recycling_type":"container"}},"type":"Feature"},
	{"geometry":{"coordinates":[4.215125,50.497572],"type":"Point"},"properties":{"osm_id":"4457999904","tag":{"amenity":"recycling","location":"overground","recycling:glass":"no","recycling:glass_bottles":"yes","recycling_type":"container"}},"type":"Feature"},
	{"geometry":{"coordinates":[4.171684,50.460684],"type":"Point"},"properties":{"osm_id":"4546820304","tag":{"amenity":"recycling","recycling:glass":"yes","recycling_type":"container"}},"type":"Feature"},
	{"geometry":{"coordinates":[4.211298,50.460581],"type":"Point"},"properties":{"osm_id":"4592974562","tag":{"amenity":"recycling","recycling:glass":"yes","recycling_type":"container"}},"type":"Feature"},
	{"geometry":{"coordinates":[4.149016,50.482481],"type":"Point"},"properties":{"osm_id":"5590121901","tag":{"amenity":"waste_basket"}},"type":"Feature"},
	{"geometry":{"coordinates":[4.148795,50.4827],"type":"Point"},"properties":{"osm_id":"5590121902","tag":{"amenity":"waste_basket"}},"type":"Feature"}
]
}
