{
"type": "FeatureCollection",
"features": [
	{"geometry":{"coordinates":[4.206844,49.138757],"type":"Point"},"properties":{"name":"D\u00c3\u00a9chetterie de Sycodec","osm_id":"3657004315","tag":{"amenity":"recycling","recycling_type":"centre"}},"type":"Feature"},
	{"geometry":{"coordinates":[4.217337,49.146785],"type":"Point"},"properties":{"osm_id":"7846962139","tag":{"amenity":"waste_basket","waste":"trash"}},"type":"Feature"},
	{"geometry":{"coordinates":[4.217646,49.146647],"type":"Point"},"properties":{"osm_id":"7846962140","tag":{"amenity":"waste_basket","waste":"trash"}},"type":"Feature"},
	{"geometry":{"coordinates":[4.218003,49.1464],"type":"Point"},"properties":{"osm_id":"7846962141","tag":{"amenity":"waste_basket","waste":"trash"}},"type":"Feature"},
	{"geometry":{"coordinates":[4.218535,49.145953],"type":"Point"},"properties":{"osm_id":"7846962142","tag":{"amenity":"waste_basket","waste":"trash"}},"type":"Feature"},
	{"geometry":{"coordinates":[4.218668,49.145892],"type":"Point"},"properties":{"osm_id":"7846962143","tag":{"amenity":"waste_basket","waste":"trash"}},"type":"Feature"},
	{"geometry":{"coordinates":[4.218352,49.14624],"type":"Point"},"properties":{"osm_id":"7846962146","tag":{"amenity":"waste_basket","waste":"trash"}},"type":"Feature"},
	{"geometry":{"coordinates":[4.21796,49.146338],"type":"Point"},"properties":{"osm_id":"7846962147","tag":{"amenity":"waste_basket","waste":"trash"}},"type":"Feature"},
	{"geometry":{"coordinates":[4.21753,49.146511],"type":"Point"},"properties":{"osm_id":"7846962148","tag":{"amenity":"waste_basket","waste":"trash"}},"type":"Feature"},
	{"geometry":{"coordinates":[4.217683,49.146385],"type":"Point"},"properties":{"osm_id":"7846962149","tag":{"amenity":"waste_basket","waste":"trash"}},"type":"Feature"},
	{"geometry":{"coordinates":[4.217872,49.146235],"type":"Point"},"properties":{"osm_id":"7846962150","tag":{"amenity":"waste_basket","waste":"trash"}},"type":"Feature"}
]
}
