{
"type": "FeatureCollection",
"features": [
	{"geometry":{"coordinates":[4.187397,43.81038],"type":"Point"},"properties":{"osm_id":"1366772909","tag":{"amenity":"recycling","recycling:glass":"yes","recycling:paper":"yes","recycling_type":"container"}},"type":"Feature"},
	{"geometry":{"coordinates":[4.19835,43.789467],"type":"Point"},"properties":{"osm_id":"1690372078","tag":{"amenity":"recycling","recycling:glass":"yes","recycling:glass_bottles":"yes","recycling:paper":"yes","recycling_type":"container"}},"type":"Feature"},
	{"geometry":{"coordinates":[4.204265,43.828696],"type":"Point"},"properties":{"osm_id":"1758346400","tag":{"amenity":"recycling","recycling:glass":"yes","recycling:paper":"no"}},"type":"Feature"},
	{"geometry":{"coordinates":[4.147661,43.818442],"type":"Point"},"properties":{"osm_id":"1950651082","tag":{"amenity":"recycling","recycling:glass":"yes","recycling_type":"container"}},"type":"Feature"},
	{"geometry":{"coordinates":[4.198763,43.786953],"type":"Point"},"properties":{"osm_id":"2140202920","tag":{"amenity":"recycling"}},"type":"Feature"},
	{"geometry":{"coordinates":[4.203958,43.824734],"type":"Point"},"properties":{"osm_id":"2284407063","tag":{"amenity":"recycling","recycling:glass":"yes","recycling_type":"container"}},"type":"Feature"},
	{"geometry":{"coordinates":[4.178326,43.824084],"type":"Point"},"properties":{"osm_id":"2284444152","tag":{"amenity":"recycling","recycling:cardboard":"yes","recycling:glass":"yes","recycling:glass_bottles":"yes","recycling:paper":"yes","recycling:plastic":"yes","recycling:plastic_bottles":"yes","recycling:plastic_packaging":"yes","recycling_type":"container"}},"type":"Feature"},
	{"geometry":{"coordinates":[4.202107,43.827721],"type":"Point"},"properties":{"osm_id":"2286175001","tag":{"amenity":"waste_disposal"}},"type":"Feature"},
	{"geometry":{"coordinates":[4.201494,43.78338],"type":"Point"},"properties":{"osm_id":"2321260658","tag":{"amenity":"recycling","recycling:glass":"yes","recycling:glass_bottles":"yes","recycling:paper":"yes","recycling_type":"container","survey:date":"2019-10-28"}},"type":"Feature"},
	{"geometry":{"coordinates":[4.192347,43.782906],"type":"Point"},"properties":{"osm_id":"2490235089","tag":{"amenity":"recycling","recycling:glass":"yes","recycling:paper":"yes","recycling_type":"container"}},"type":"Feature"},
	{"geometry":{"coordinates":[4.206318,43.779371],"type":"Point"},"properties":{"osm_id":"2976316001","tag":{"amenity":"recycling","recycling:clothes":"yes","recycling:glass":"yes","recycling_type":"container"}},"type":"Feature"},
	{"geometry":{"coordinates":[4.16384,43.777594],"type":"Point"},"properties":{"osm_id":"2981294165","tag":{"amenity":"recycling","mapillary":"QZxbRruY0OC49InmZgbt1A","recycling:glass":"no","recycling:glass_bottles":"yes","recycling_type":"container","survey:date":"2018-04-21"}},"type":"Feature"},
	{"geometry":{"coordinates":[4.163771,43.777618],"type":"Point"},"properties":{"osm_id":"2981294166","tag":{"amenity":"recycling","recycling:clothes":"yes","recycling_type":"container"}},"type":"Feature"},
	{"geometry":{"coordinates":[4.19205,43.788586],"type":"Point"},"properties":{"osm_id":"3423574059","tag":{"amenity":"recycling","recycling:glass":"yes","recycling:glass_bottles":"yes","recycling:paper":"yes","recycling_type":"container"}},"type":"Feature"},
	{"geometry":{"coordinates":[4.190209,43.785562],"type":"Point"},"properties":{"osm_id":"3423623644","tag":{"amenity":"waste_basket"}},"type":"Feature"},
	{"geometry":{"coordinates":[4.20151,43.790295],"type":"Point"},"properties":{"osm_id":"3423886775","tag":{"amenity":"recycling","recycling:glass":"yes","recycling:glass_bottles":"yes","recycling:paper":"yes","recycling:plastic":"no","recycling_type":"container","survey:date":"2019-10-30"}},"type":"Feature"},
	{"geometry":{"coordinates":[4.191084,43.784613],"type":"Point"},"properties":{"osm_id":"3527862916","tag":{"amenity":"waste_basket"}},"type":"Feature"},
	{"geometry":{"coordinates":[4.190073,43.785244],"type":"Point"},"properties":{"osm_id":"3527862922","tag":{"amenity":"waste_basket"}},"type":"Feature"},
	{"geometry":{"coordinates":[4.187172,43.785997],"type":"Point"},"properties":{"osm_id":"3527862924","tag":{"amenity":"recycling","recycling:glass":"yes","recycling_type":"container"}},"type":"Feature"},
	{"geometry":{"coordinates":[4.19059,43.786778],"type":"Point"},"properties":{"osm_id":"3527862945","tag":{"amenity":"waste_basket"}},"type":"Feature"},
	{"geometry":{"coordinates":[4.186234,43.788588],"type":"Point"},"properties":{"osm_id":"3527862952","tag":{"amenity":"waste_basket"}},"type":"Feature"},
	{"geometry":{"coordinates":[4.182167,43.782077],"type":"Point"},"properties":{"osm_id":"3717027284","tag":{"amenity":"waste_basket"}},"type":"Feature"},
	{"geometry":{"coordinates":[4.18209,43.782357],"type":"Point"},"properties":{"osm_id":"3717027289","tag":{"amenity":"waste_basket"}},"type":"Feature"},
	{"geometry":{"coordinates":[4.18161,43.782369],"type":"Point"},"properties":{"osm_id":"3717027290","tag":{"amenity":"waste_basket"}},"type":"Feature"},
	{"geometry":{"coordinates":[4.193022,43.786026],"type":"Point"},"properties":{"osm_id":"3718875122","tag":{"amenity":"waste_basket"}},"type":"Feature"},
	{"geometry":{"coordinates":[4.187057,43.781922],"type":"Point"},"properties":{"osm_id":"4043926659","tag":{"amenity":"waste_basket"}},"type":"Feature"},
	{"geometry":{"coordinates":[4.172438,43.787757],"type":"Point"},"properties":{"osm_id":"4384030621","tag":{"access":"yes","entrance":"main"}},"type":"Feature"},
	{"geometry":{"coordinates":[4.193424,43.781456],"type":"Point"},"properties":{"osm_id":"4960166876","tag":{"amenity":"waste_basket"}},"type":"Feature"},
	{"geometry":{"coordinates":[4.218491,43.826417],"type":"Point"},"properties":{"osm_id":"4970604443","tag":{"amenity":"waste_basket"}},"type":"Feature"},
	{"geometry":{"coordinates":[4.217721,43.826756],"type":"Point"},"properties":{"osm_id":"4970604450","tag":{"amenity":"waste_basket"}},"type":"Feature"},
	{"geometry":{"coordinates":[4.217945,43.826968],"type":"Point"},"properties":{"osm_id":"4970676749","tag":{"amenity":"waste_basket"}},"type":"Feature"},
	{"geometry":{"coordinates":[4.192611,43.780942],"type":"Point"},"properties":{"osm_id":"5041636491","tag":{"amenity":"recycling","recycling:clothes":"yes","recycling:glass_bottles":"yes","recycling:paper":"yes","recycling_type":"container","survey:date":"2020-03-02"}},"type":"Feature"},
	{"geometry":{"coordinates":[4.158241,43.777989],"type":"Point"},"properties":{"osm_id":"5046025012","tag":{"amenity":"recycling","recycling:paper":"yes","recycling_type":"container"}},"type":"Feature"},
	{"geometry":{"coordinates":[4.158604,43.777557],"type":"Point"},"properties":{"osm_id":"5046025013","tag":{"amenity":"recycling","recycling:paper":"yes","recycling_type":"container"}},"type":"Feature"},
	{"geometry":{"coordinates":[4.158577,43.777532],"type":"Point"},"properties":{"osm_id":"5046025014","tag":{"amenity":"recycling","mapillary":"EcUy3q2kDDJGmhki8h134g","recycling:glass":"no","recycling:glass_bottles":"yes","recycling_type":"container","survey:date":"2017-08-19"}},"type":"Feature"},
	{"geometry":{"coordinates":[4.160591,43.777187],"type":"Point"},"properties":{"osm_id":"5046025568","tag":{"amenity":"waste_basket"}},"type":"Feature"},
	{"geometry":{"coordinates":[4.159966,43.775848],"type":"Point"},"properties":{"osm_id":"5046065936","tag":{"amenity":"recycling","recycling:paper":"yes","recycling_type":"container"}},"type":"Feature"},
	{"geometry":{"coordinates":[4.159961,43.775859],"type":"Point"},"properties":{"osm_id":"5046065937","tag":{"amenity":"recycling","mapillary":"JXgW4WtldyOKGY0teA0sXw","recycling:glass":"no","recycling:glass_bottles":"yes","recycling_type":"container","survey:date":"2017-08-19"}},"type":"Feature"},
	{"geometry":{"coordinates":[4.198322,43.783433],"type":"Point"},"properties":{"osm_id":"5091335139","tag":{"amenity":"recycling","recycling:clothes":"yes","recycling_type":"container"}},"type":"Feature"},
	{"geometry":{"coordinates":[4.198296,43.783424],"type":"Point"},"properties":{"osm_id":"5091335140","tag":{"amenity":"recycling","recycling:glass":"yes","recycling_type":"container"}},"type":"Feature"},
	{"geometry":{"coordinates":[4.203841,43.788537],"type":"Point"},"properties":{"osm_id":"5126486056","tag":{"amenity":"recycling","recycling:glass":"yes","recycling_type":"container"}},"type":"Feature"},
	{"geometry":{"coordinates":[4.204294,43.788308],"type":"Point"},"properties":{"osm_id":"5126486059","tag":{"amenity":"waste_basket"}},"type":"Feature"},
	{"geometry":{"coordinates":[4.202171,43.783795],"type":"Point"},"properties":{"osm_id":"5126486465","tag":{"amenity":"waste_basket"}},"type":"Feature"},
	{"geometry":{"coordinates":[4.197838,43.786332],"type":"Point"},"properties":{"osm_id":"5126507061","tag":{"amenity":"waste_basket"}},"type":"Feature"},
	{"geometry":{"coordinates":[4.189911,43.783028],"type":"Point"},"properties":{"osm_id":"5570665851","tag":{"amenity":"waste_basket","waste":"trash"}},"type":"Feature"},
	{"geometry":{"coordinates":[4.197879,43.783182],"type":"Point"},"properties":{"osm_id":"5789447354","tag":{"amenity":"waste_basket"}},"type":"Feature"},
	{"geometry":{"coordinates":[4.193327,43.785693],"type":"Point"},"properties":{"osm_id":"5980936392","tag":{"amenity":"waste_basket"}},"type":"Feature"},
	{"geometry":{"coordinates":[4.198646,43.781881],"type":"Point"},"properties":{"osm_id":"5980967085","tag":{"amenity":"waste_basket"}},"type":"Feature"},
	{"geometry":{"coordinates":[4.194245,43.785613],"type":"Point"},"properties":{"osm_id":"6314024285","tag":{"amenity":"waste_basket"}},"type":"Feature"},
	{"geometry":{"coordinates":[4.194633,43.785213],"type":"Point"},"properties":{"osm_id":"6314024589","tag":{"amenity":"waste_basket"}},"type":"Feature"},
	{"geometry":{"coordinates":[4.194477,43.784629],"type":"Point"},"properties":{"osm_id":"6316564287","tag":{"amenity":"waste_basket"}},"type":"Feature"},
	{"geometry":{"coordinates":[4.195345,43.78306],"type":"Point"},"properties":{"osm_id":"6316599685","tag":{"amenity":"waste_basket"}},"type":"Feature"},
	{"geometry":{"coordinates":[4.196413,43.786559],"type":"Point"},"properties":{"osm_id":"6547969429","tag":{"amenity":"waste_basket"}},"type":"Feature"},
	{"geometry":{"coordinates":[4.197597,43.78649],"type":"Point"},"properties":{"osm_id":"6547969966","tag":{"amenity":"waste_basket"}},"type":"Feature"},
	{"geometry":{"coordinates":[4.197427,43.786427],"type":"Point"},"properties":{"osm_id":"6547970107","tag":{"amenity":"recycling","recycling:glass_bottles":"yes","recycling:paper":"yes","recycling_type":"container"}},"type":"Feature"},
	{"geometry":{"coordinates":[4.19515,43.787055],"type":"Point"},"properties":{"osm_id":"6553520288","tag":{"amenity":"waste_basket"}},"type":"Feature"},
	{"geometry":{"coordinates":[4.191994,43.788591],"type":"Point"},"properties":{"osm_id":"6553520293","tag":{"amenity":"waste_basket"}},"type":"Feature"},
	{"geometry":{"coordinates":[4.194891,43.785304],"type":"Point"},"properties":{"osm_id":"6553520296","tag":{"amenity":"waste_basket"}},"type":"Feature"},
	{"geometry":{"coordinates":[4.198288,43.789532],"type":"Point"},"properties":{"osm_id":"6553520489","tag":{"amenity":"waste_basket"}},"type":"Feature"},
	{"geometry":{"coordinates":[4.194454,43.785491],"type":"Point"},"properties":{"osm_id":"6553520491","tag":{"amenity":"waste_basket"}},"type":"Feature"},
	{"geometry":{"coordinates":[4.20025,43.789526],"type":"Point"},"properties":{"osm_id":"6553545485","tag":{"amenity":"waste_basket"}},"type":"Feature"},
	{"geometry":{"coordinates":[4.19923,43.782164],"type":"Point"},"properties":{"osm_id":"6924326885","tag":{"amenity":"recycling","recycling:clothes":"yes","recycling:glass_bottles":"yes","recycling:paper":"yes","recycling_type":"container","survey:date":"2019-10-28"}},"type":"Feature"},
	{"geometry":{"coordinates":[4.203832,43.788509],"type":"Point"},"properties":{"osm_id":"6929993788","tag":{"amenity":"recycling","recycling:glass_bottles":"yes","recycling:paper":"yes","recycling_type":"container","survey:date":"2019-10-30"}},"type":"Feature"},
	{"geometry":{"coordinates":[4.204983,43.785645],"type":"Point"},"properties":{"osm_id":"6932218587","tag":{"amenity":"waste_basket","survey:date":"2019-10-30"}},"type":"Feature"},
	{"geometry":{"coordinates":[4.205364,43.785571],"type":"Point"},"properties":{"osm_id":"6932218588","tag":{"amenity":"waste_basket","survey:date":"2019-10-30"}},"type":"Feature"},
	{"geometry":{"coordinates":[4.203753,43.784366],"type":"Point"},"properties":{"osm_id":"6932218990","tag":{"amenity":"waste_basket","survey:date":"2019-10-30"}},"type":"Feature"},
	{"geometry":{"coordinates":[4.189231,43.784259],"type":"Point"},"properties":{"osm_id":"6936822986","tag":{"amenity":"waste_basket","survey:date":"2019-10-31"}},"type":"Feature"},
	{"geometry":{"coordinates":[4.195432,43.782021],"type":"Point"},"properties":{"osm_id":"7684936187","tag":{"amenity":"waste_basket","survey:date":"2020-07-01"}},"type":"Feature"},
	{"geometry":{"coordinates":[4.191921,43.786216],"type":"Point"},"properties":{"osm_id":"7692266985","tag":{"amenity":"waste_basket","survey:date":"2020-07-06"}},"type":"Feature"},
	{"geometry":{"coordinates":[4.187395,43.777958],"type":"Point"},"properties":{"osm_id":"7868757885","tag":{"amenity":"recycling","recycling:glass_bottles":"yes","recycling:paper":"yes","recycling_type":"container","survey:date":"2020-09-01"}},"type":"Feature"}
]
}
