{
"type": "FeatureCollection",
"features": [
	{"geometry":{"coordinates":[4.193515,43.636919],"type":"Point"},"properties":{"osm_id":"1737266540","tag":{"amenity":"recycling","recycling:clothes":"yes","recycling_type":"container"}},"type":"Feature"},
	{"geometry":{"coordinates":[4.210748,43.588786],"type":"Point"},"properties":{"osm_id":"3937933881","tag":{"amenity":"recycling","recycling:glass":"yes","recycling:paper":"yes","recycling_type":"container"}},"type":"Feature"},
	{"geometry":{"coordinates":[4.21013,43.589929],"type":"Point"},"properties":{"osm_id":"3937933883","tag":{"amenity":"waste_basket"}},"type":"Feature"},
	{"geometry":{"coordinates":[4.193779,43.631925],"type":"Point"},"properties":{"osm_id":"6210592936","tag":{"amenity":"recycling","location":"underground","recycling_type":"container","wheelchair":"yes"}},"type":"Feature"},
	{"geometry":{"coordinates":[4.19377,43.631942],"type":"Point"},"properties":{"osm_id":"6210592937","tag":{"amenity":"recycling","location":"underground","recycling_type":"container","wheelchair":"yes"}},"type":"Feature"},
	{"geometry":{"coordinates":[4.19376,43.63196],"type":"Point"},"properties":{"osm_id":"6210592938","tag":{"amenity":"recycling","location":"underground","recycling_type":"container","wheelchair":"yes"}},"type":"Feature"},
	{"geometry":{"coordinates":[4.190469,43.639529],"type":"Point"},"properties":{"osm_id":"6299798652","tag":{"amenity":"waste_basket"}},"type":"Feature"},
	{"geometry":{"coordinates":[4.204922,43.632845],"type":"Point"},"properties":{"osm_id":"7513989086","tag":{"amenity":"waste_basket"}},"type":"Feature"},
	{"geometry":{"coordinates":[4.193273,43.633607],"type":"Point"},"properties":{"osm_id":"7952097647","tag":{"amenity":"waste_disposal"}},"type":"Feature"},
	{"geometry":{"coordinates":[4.193223,43.633634],"type":"Point"},"properties":{"osm_id":"7952097648","tag":{"amenity":"waste_basket"}},"type":"Feature"}
]
}
