{
"type": "FeatureCollection",
"features": [
	{"geometry":{"coordinates":[4.156915,43.559543],"type":"Point"},"properties":{"osm_id":"847878592","tag":{"amenity":"waste_disposal"}},"type":"Feature"},
	{"geometry":{"coordinates":[4.138338,43.535395],"type":"Point"},"properties":{"osm_id":"1307550041","tag":{"amenity":"recycling","recycling:cans":"no","recycling:glass":"no","recycling:glass_bottles":"yes","recycling_type":"container"}},"type":"Feature"},
	{"geometry":{"coordinates":[4.19194,43.564127],"type":"Point"},"properties":{"osm_id":"2912936377","tag":{"amenity":"recycling","recycling:cardboard":"yes","recycling_type":"container"}},"type":"Feature"},
	{"geometry":{"coordinates":[4.191933,43.56413],"type":"Point"},"properties":{"osm_id":"2912936378","tag":{"amenity":"recycling","recycling:glass":"yes","recycling_type":"container"}},"type":"Feature"},
	{"geometry":{"coordinates":[4.191927,43.564133],"type":"Point"},"properties":{"osm_id":"2912936379","tag":{"amenity":"recycling","recycling:paper":"yes","recycling_type":"container"}},"type":"Feature"},
	{"geometry":{"coordinates":[4.193822,43.564494],"type":"Point"},"properties":{"osm_id":"2912936380","tag":{"amenity":"recycling","recycling:glass":"yes","recycling_type":"container"}},"type":"Feature"},
	{"geometry":{"coordinates":[4.193831,43.564501],"type":"Point"},"properties":{"osm_id":"2912936381","tag":{"amenity":"recycling","recycling:paper":"yes","recycling_type":"container"}},"type":"Feature"},
	{"geometry":{"coordinates":[4.193838,43.564507],"type":"Point"},"properties":{"osm_id":"2912936382","tag":{"amenity":"recycling","recycling:cardboard":"yes","recycling_type":"container"}},"type":"Feature"},
	{"geometry":{"coordinates":[4.191106,43.567929],"type":"Point"},"properties":{"osm_id":"2912937105","tag":{"amenity":"waste_basket"}},"type":"Feature"},
	{"geometry":{"coordinates":[4.190279,43.566889],"type":"Point"},"properties":{"osm_id":"2914552048","tag":{"amenity":"waste_basket"}},"type":"Feature"},
	{"geometry":{"coordinates":[4.183389,43.557449],"type":"Point"},"properties":{"osm_id":"2923461977","tag":{"amenity":"waste_basket"}},"type":"Feature"},
	{"geometry":{"coordinates":[4.183382,43.55752],"type":"Point"},"properties":{"osm_id":"2923461982","tag":{"amenity":"waste_basket"}},"type":"Feature"},
	{"geometry":{"coordinates":[4.14814,43.522557],"type":"Point"},"properties":{"osm_id":"2929498611","tag":{"amenity":"waste_disposal"}},"type":"Feature"},
	{"geometry":{"coordinates":[4.137892,43.523948],"type":"Point"},"properties":{"osm_id":"3712378639","tag":{"amenity":"waste_basket","colour":"brown"}},"type":"Feature"},
	{"geometry":{"coordinates":[4.140135,43.527492],"type":"Point"},"properties":{"osm_id":"3712378644","tag":{"amenity":"waste_basket"}},"type":"Feature"},
	{"geometry":{"coordinates":[4.141141,43.528273],"type":"Point"},"properties":{"osm_id":"3712378647","tag":{"amenity":"waste_basket"}},"type":"Feature"},
	{"geometry":{"coordinates":[4.141542,43.529166],"type":"Point"},"properties":{"osm_id":"3712384214","tag":{"amenity":"waste_basket"}},"type":"Feature"},
	{"geometry":{"coordinates":[4.14125,43.529779],"type":"Point"},"properties":{"osm_id":"3712384215","tag":{"amenity":"waste_basket"}},"type":"Feature"},
	{"geometry":{"coordinates":[4.140005,43.528671],"type":"Point"},"properties":{"osm_id":"3712547270","tag":{"amenity":"waste_basket"}},"type":"Feature"},
	{"geometry":{"coordinates":[4.140081,43.529463],"type":"Point"},"properties":{"osm_id":"3712547275","tag":{"amenity":"waste_basket","colour":"brown"}},"type":"Feature"},
	{"geometry":{"coordinates":[4.139997,43.530463],"type":"Point"},"properties":{"osm_id":"3712547278","tag":{"amenity":"waste_basket","colour":"brown"}},"type":"Feature"},
	{"geometry":{"coordinates":[4.139731,43.531686],"type":"Point"},"properties":{"osm_id":"3712547287","tag":{"amenity":"waste_basket"}},"type":"Feature"},
	{"geometry":{"coordinates":[4.139437,43.532026],"type":"Point"},"properties":{"osm_id":"3712547290","tag":{"amenity":"waste_basket"}},"type":"Feature"},
	{"geometry":{"coordinates":[4.13902,43.532487],"type":"Point"},"properties":{"osm_id":"3712547292","tag":{"amenity":"waste_basket"}},"type":"Feature"},
	{"geometry":{"coordinates":[4.138416,43.533418],"type":"Point"},"properties":{"osm_id":"3712547299","tag":{"amenity":"waste_basket"}},"type":"Feature"},
	{"geometry":{"coordinates":[4.138394,43.533574],"type":"Point"},"properties":{"osm_id":"3712547308","tag":{"amenity":"waste_basket"}},"type":"Feature"},
	{"geometry":{"coordinates":[4.13803,43.533904],"type":"Point"},"properties":{"osm_id":"3712547313","tag":{"amenity":"waste_basket"}},"type":"Feature"},
	{"geometry":{"coordinates":[4.138254,43.524515],"type":"Point"},"properties":{"osm_id":"3712569064","tag":{"amenity":"waste_basket"}},"type":"Feature"},
	{"geometry":{"coordinates":[4.138324,43.524771],"type":"Point"},"properties":{"osm_id":"3712569067","tag":{"amenity":"waste_basket","colour":"brown"}},"type":"Feature"},
	{"geometry":{"coordinates":[4.138804,43.525518],"type":"Point"},"properties":{"osm_id":"3712569070","tag":{"amenity":"waste_basket","colour":"brown"}},"type":"Feature"},
	{"geometry":{"coordinates":[4.13886,43.525641],"type":"Point"},"properties":{"osm_id":"3712569072","tag":{"amenity":"waste_basket","colour":"brown"}},"type":"Feature"},
	{"geometry":{"coordinates":[4.139406,43.526747],"type":"Point"},"properties":{"osm_id":"3712569079","tag":{"amenity":"waste_basket"}},"type":"Feature"},
	{"geometry":{"coordinates":[4.140271,43.528112],"type":"Point"},"properties":{"osm_id":"3712569083","tag":{"amenity":"waste_basket","colour":"brown"}},"type":"Feature"},
	{"geometry":{"coordinates":[4.139897,43.522791],"type":"Point"},"properties":{"osm_id":"3713245330","tag":{"amenity":"waste_basket"}},"type":"Feature"},
	{"geometry":{"coordinates":[4.132615,43.51865],"type":"Point"},"properties":{"osm_id":"3733301594","tag":{"amenity":"waste_basket"}},"type":"Feature"},
	{"geometry":{"coordinates":[4.132693,43.518966],"type":"Point"},"properties":{"osm_id":"3733301600","tag":{"amenity":"waste_basket"}},"type":"Feature"},
	{"geometry":{"coordinates":[4.132907,43.519064],"type":"Point"},"properties":{"osm_id":"3733301609","tag":{"amenity":"waste_basket","colour":"grey"}},"type":"Feature"},
	{"geometry":{"coordinates":[4.132071,43.521697],"type":"Point"},"properties":{"osm_id":"3737560861","tag":{"amenity":"waste_basket"}},"type":"Feature"},
	{"geometry":{"coordinates":[4.132595,43.521916],"type":"Point"},"properties":{"osm_id":"3737560887","tag":{"amenity":"waste_basket"}},"type":"Feature"},
	{"geometry":{"coordinates":[4.14192,43.522928],"type":"Point"},"properties":{"osm_id":"3737560980","tag":{"amenity":"waste_basket"}},"type":"Feature"},
	{"geometry":{"coordinates":[4.148898,43.523927],"type":"Point"},"properties":{"osm_id":"3737561110","tag":{"amenity":"recycling","recycling:glass":"yes","recycling_type":"container"}},"type":"Feature"},
	{"geometry":{"coordinates":[4.151013,43.528575],"type":"Point"},"properties":{"osm_id":"3745619491","tag":{"amenity":"waste_basket"}},"type":"Feature"},
	{"geometry":{"coordinates":[4.139251,43.520555],"type":"Point"},"properties":{"osm_id":"3757654710","tag":{"amenity":"waste_basket"}},"type":"Feature"},
	{"geometry":{"coordinates":[4.138839,43.520716],"type":"Point"},"properties":{"osm_id":"3757654724","tag":{"amenity":"waste_basket"}},"type":"Feature"},
	{"geometry":{"coordinates":[4.138501,43.520794],"type":"Point"},"properties":{"osm_id":"3757664227","tag":{"amenity":"waste_basket"}},"type":"Feature"},
	{"geometry":{"coordinates":[4.133112,43.51917],"type":"Point"},"properties":{"osm_id":"3762699412","tag":{"amenity":"waste_basket","colour":"grey"}},"type":"Feature"},
	{"geometry":{"coordinates":[4.133332,43.519286],"type":"Point"},"properties":{"osm_id":"3762699418","tag":{"amenity":"waste_basket","colour":"grey"}},"type":"Feature"},
	{"geometry":{"coordinates":[4.134978,43.520104],"type":"Point"},"properties":{"osm_id":"3762706875","tag":{"amenity":"waste_basket","colour":"grey"}},"type":"Feature"},
	{"geometry":{"coordinates":[4.135253,43.520237],"type":"Point"},"properties":{"osm_id":"3762706888","tag":{"amenity":"waste_basket","colour":"grey"}},"type":"Feature"},
	{"geometry":{"coordinates":[4.135543,43.520378],"type":"Point"},"properties":{"osm_id":"3762706904","tag":{"amenity":"waste_basket","colour":"grey"}},"type":"Feature"},
	{"geometry":{"coordinates":[4.135832,43.520522],"type":"Point"},"properties":{"osm_id":"3762706926","tag":{"amenity":"waste_basket","colour":"grey"}},"type":"Feature"},
	{"geometry":{"coordinates":[4.136326,43.520687],"type":"Point"},"properties":{"osm_id":"3762706945","tag":{"amenity":"waste_basket","colour":"grey"}},"type":"Feature"},
	{"geometry":{"coordinates":[4.138225,43.520848],"type":"Point"},"properties":{"osm_id":"3762707076","tag":{"amenity":"waste_basket"}},"type":"Feature"},
	{"geometry":{"coordinates":[4.136944,43.521],"type":"Point"},"properties":{"osm_id":"3762707090","tag":{"amenity":"waste_basket","colour":"grey"}},"type":"Feature"},
	{"geometry":{"coordinates":[4.141294,43.526738],"type":"Point"},"properties":{"osm_id":"3767475587","tag":{"amenity":"waste_basket","colour":"brown"}},"type":"Feature"},
	{"geometry":{"coordinates":[4.141247,43.526944],"type":"Point"},"properties":{"osm_id":"3767475608","tag":{"amenity":"waste_basket","colour":"blue"}},"type":"Feature"},
	{"geometry":{"coordinates":[4.141212,43.52711],"type":"Point"},"properties":{"osm_id":"3767475622","tag":{"amenity":"waste_basket","colour":"blue"}},"type":"Feature"},
	{"geometry":{"coordinates":[4.141283,43.527196],"type":"Point"},"properties":{"osm_id":"3767475633","tag":{"amenity":"waste_basket","colour":"brown"}},"type":"Feature"},
	{"geometry":{"coordinates":[4.140957,43.527203],"type":"Point"},"properties":{"osm_id":"3767475634","tag":{"amenity":"waste_basket","colour":"brown"}},"type":"Feature"},
	{"geometry":{"coordinates":[4.14096,43.527288],"type":"Point"},"properties":{"osm_id":"3767475641","tag":{"amenity":"waste_basket","colour":"brown"}},"type":"Feature"},
	{"geometry":{"coordinates":[4.14047,43.527345],"type":"Point"},"properties":{"osm_id":"3767475647","tag":{"amenity":"waste_basket","colour":"brown"}},"type":"Feature"},
	{"geometry":{"coordinates":[4.141269,43.527337],"type":"Point"},"properties":{"osm_id":"3767475653","tag":{"amenity":"waste_basket","colour":"brown"}},"type":"Feature"},
	{"geometry":{"coordinates":[4.141617,43.527373],"type":"Point"},"properties":{"osm_id":"3767475857","tag":{"amenity":"waste_basket","colour":"brown"}},"type":"Feature"},
	{"geometry":{"coordinates":[4.137145,43.523181],"type":"Point"},"properties":{"osm_id":"3769027597","tag":{"amenity":"waste_basket","colour":"brown"}},"type":"Feature"},
	{"geometry":{"coordinates":[4.137201,43.523488],"type":"Point"},"properties":{"osm_id":"3769027634","tag":{"amenity":"waste_basket","colour":"brown"}},"type":"Feature"},
	{"geometry":{"coordinates":[4.137619,43.523725],"type":"Point"},"properties":{"osm_id":"3769027967","tag":{"amenity":"waste_basket","colour":"brown"}},"type":"Feature"},
	{"geometry":{"coordinates":[4.138598,43.524598],"type":"Point"},"properties":{"osm_id":"3769027994","tag":{"amenity":"waste_basket","colour":"brown"}},"type":"Feature"},
	{"geometry":{"coordinates":[4.133114,43.521543],"type":"Point"},"properties":{"osm_id":"3770563147","tag":{"amenity":"waste_basket","colour":"brown"}},"type":"Feature"},
	{"geometry":{"coordinates":[4.13436,43.521948],"type":"Point"},"properties":{"osm_id":"3770568482","tag":{"amenity":"waste_basket","colour":"brown"}},"type":"Feature"},
	{"geometry":{"coordinates":[4.131459,43.522545],"type":"Point"},"properties":{"osm_id":"3770568533","tag":{"amenity":"waste_basket","colour":"brown"}},"type":"Feature"},
	{"geometry":{"coordinates":[4.135186,43.522652],"type":"Point"},"properties":{"osm_id":"3770568541","tag":{"amenity":"waste_basket","colour":"brown"}},"type":"Feature"},
	{"geometry":{"coordinates":[4.134481,43.522748],"type":"Point"},"properties":{"osm_id":"3770568559","tag":{"amenity":"waste_basket","colour":"brown"}},"type":"Feature"},
	{"geometry":{"coordinates":[4.135458,43.522896],"type":"Point"},"properties":{"osm_id":"3770568586","tag":{"amenity":"waste_basket","colour":"brown"}},"type":"Feature"},
	{"geometry":{"coordinates":[4.136226,43.523256],"type":"Point"},"properties":{"osm_id":"3770568599","tag":{"amenity":"waste_basket","colour":"brown"}},"type":"Feature"},
	{"geometry":{"coordinates":[4.136386,43.523468],"type":"Point"},"properties":{"osm_id":"3770568603","tag":{"amenity":"waste_basket","colour":"brown"}},"type":"Feature"},
	{"geometry":{"coordinates":[4.13765,43.533501],"type":"Point"},"properties":{"osm_id":"3811342158","tag":{"amenity":"waste_basket"}},"type":"Feature"},
	{"geometry":{"coordinates":[4.137008,43.534056],"type":"Point"},"properties":{"osm_id":"3811342197","tag":{"amenity":"waste_basket"}},"type":"Feature"},
	{"geometry":{"coordinates":[4.135992,43.53496],"type":"Point"},"properties":{"osm_id":"3811342218","tag":{"amenity":"waste_basket"}},"type":"Feature"},
	{"geometry":{"coordinates":[4.135876,43.535102],"type":"Point"},"properties":{"osm_id":"3811342226","tag":{"amenity":"waste_basket"}},"type":"Feature"},
	{"geometry":{"coordinates":[4.133362,43.535237],"type":"Point"},"properties":{"osm_id":"3811342231","tag":{"amenity":"waste_basket"}},"type":"Feature"},
	{"geometry":{"coordinates":[4.135335,43.535409],"type":"Point"},"properties":{"osm_id":"3811342238","tag":{"amenity":"waste_basket"}},"type":"Feature"},
	{"geometry":{"coordinates":[4.133786,43.535423],"type":"Point"},"properties":{"osm_id":"3811342241","tag":{"amenity":"waste_basket"}},"type":"Feature"},
	{"geometry":{"coordinates":[4.135571,43.535447],"type":"Point"},"properties":{"osm_id":"3811342252","tag":{"amenity":"waste_basket"}},"type":"Feature"},
	{"geometry":{"coordinates":[4.134315,43.535541],"type":"Point"},"properties":{"osm_id":"3811342275","tag":{"amenity":"waste_basket"}},"type":"Feature"},
	{"geometry":{"coordinates":[4.197892,43.568919],"type":"Point"},"properties":{"osm_id":"4019678180","tag":{"amenity":"waste_basket"}},"type":"Feature"},
	{"geometry":{"coordinates":[4.198131,43.569214],"type":"Point"},"properties":{"osm_id":"4019678187","tag":{"amenity":"recycling","recycling:clothes":"yes","recycling_type":"container"}},"type":"Feature"},
	{"geometry":{"coordinates":[4.19815,43.569248],"type":"Point"},"properties":{"osm_id":"4019678188","tag":{"amenity":"recycling","recycling:glass":"yes","recycling_type":"container"}},"type":"Feature"},
	{"geometry":{"coordinates":[4.198164,43.569274],"type":"Point"},"properties":{"osm_id":"4019678190","tag":{"amenity":"recycling","recycling:paper":"yes","recycling_type":"container"}},"type":"Feature"},
	{"geometry":{"coordinates":[4.1943,43.568645],"type":"Point"},"properties":{"osm_id":"4019687131","tag":{"amenity":"recycling","recycling:glass":"yes","recycling_type":"container"}},"type":"Feature"},
	{"geometry":{"coordinates":[4.192955,43.568804],"type":"Point"},"properties":{"osm_id":"4019687134","tag":{"amenity":"waste_basket"}},"type":"Feature"},
	{"geometry":{"coordinates":[4.193254,43.568849],"type":"Point"},"properties":{"osm_id":"4019687136","tag":{"amenity":"waste_basket"}},"type":"Feature"},
	{"geometry":{"coordinates":[4.192375,43.568842],"type":"Point"},"properties":{"osm_id":"4019687137","tag":{"amenity":"recycling","recycling:cardboard":"yes","recycling:glass_bottles":"yes","recycling:paper":"yes","recycling:plastic":"yes","recycling:plastic_bottles":"yes","recycling:plastic_packaging":"yes","recycling_type":"container"}},"type":"Feature"},
	{"geometry":{"coordinates":[4.141268,43.524543],"type":"Point"},"properties":{"osm_id":"5054681711","tag":{"amenity":"recycling","recycling:plastic":"yes","recycling_type":"container"}},"type":"Feature"},
	{"geometry":{"coordinates":[4.141261,43.524518],"type":"Point"},"properties":{"osm_id":"5054681712","tag":{"amenity":"recycling","recycling:paper":"yes","recycling_type":"container"}},"type":"Feature"},
	{"geometry":{"coordinates":[4.141249,43.5245],"type":"Point"},"properties":{"osm_id":"5054681713","tag":{"amenity":"recycling","recycling:glass":"yes","recycling_type":"container"}},"type":"Feature"},
	{"geometry":{"coordinates":[4.141909,43.525965],"type":"Point"},"properties":{"osm_id":"5054681714","tag":{"amenity":"waste_basket"}},"type":"Feature"},
	{"geometry":{"coordinates":[4.142099,43.527001],"type":"Point"},"properties":{"osm_id":"5054681720","tag":{"amenity":"recycling","recycling:plastic":"yes","recycling_type":"container"}},"type":"Feature"},
	{"geometry":{"coordinates":[4.142118,43.527004],"type":"Point"},"properties":{"osm_id":"5054682421","tag":{"amenity":"recycling","recycling:paper":"yes","recycling_type":"container"}},"type":"Feature"},
	{"geometry":{"coordinates":[4.142137,43.527006],"type":"Point"},"properties":{"osm_id":"5054682422","tag":{"amenity":"recycling","recycling:glass_bottles":"yes","recycling_type":"container"}},"type":"Feature"},
	{"geometry":{"coordinates":[4.146816,43.527826],"type":"Point"},"properties":{"osm_id":"5054682424","tag":{"amenity":"waste_basket"}},"type":"Feature"},
	{"geometry":{"coordinates":[4.131669,43.518867],"type":"Point"},"properties":{"osm_id":"5666627694","tag":{"amenity":"recycling","recycling_type":"container"}},"type":"Feature"},
	{"geometry":{"coordinates":[4.131668,43.518847],"type":"Point"},"properties":{"osm_id":"5666627695","tag":{"amenity":"recycling","recycling_type":"container"}},"type":"Feature"},
	{"geometry":{"coordinates":[4.131656,43.518823],"type":"Point"},"properties":{"osm_id":"5666627696","tag":{"amenity":"recycling","recycling_type":"container"}},"type":"Feature"},
	{"geometry":{"coordinates":[4.138294,43.535379],"type":"Point"},"properties":{"osm_id":"6145194070","tag":{"amenity":"recycling","recycling:cans":"yes","recycling:plastic_bottles":"yes","recycling:plastic_packaging":"yes","recycling_type":"container"}},"type":"Feature"},
	{"geometry":{"coordinates":[4.138316,43.535387],"type":"Point"},"properties":{"osm_id":"6145194071","tag":{"amenity":"recycling","recycling:paper":"yes","recycling_type":"container"}},"type":"Feature"},
	{"geometry":{"coordinates":[4.185021,43.572716],"type":"Point"},"properties":{"osm_id":"6427705900","tag":{"amenity":"recycling","recycling:glass":"yes","recycling:glass_bottles":"yes","recycling_type":"container"}},"type":"Feature"},
	{"geometry":{"coordinates":[4.184998,43.572715],"type":"Point"},"properties":{"osm_id":"6427705901","tag":{"amenity":"recycling","recycling:cardboard":"yes","recycling:plastic":"yes","recycling:plastic_bottles":"yes","recycling:plastic_packaging":"yes","recycling_type":"container"}},"type":"Feature"},
	{"geometry":{"coordinates":[4.184974,43.572715],"type":"Point"},"properties":{"osm_id":"6427705902","tag":{"amenity":"recycling","recycling:paper":"yes","recycling_type":"container"}},"type":"Feature"},
	{"geometry":{"coordinates":[4.201793,43.567185],"type":"Point"},"properties":{"osm_id":"6427706217","tag":{"amenity":"waste_basket","material":"plastic"}},"type":"Feature"},
	{"geometry":{"coordinates":[4.191006,43.570532],"type":"Point"},"properties":{"osm_id":"6427706229","tag":{"amenity":"recycling","recycling:clothes":"yes","recycling_type":"container"}},"type":"Feature"},
	{"geometry":{"coordinates":[4.191008,43.570583],"type":"Point"},"properties":{"osm_id":"6427706230","tag":{"amenity":"recycling","recycling:paper":"yes","recycling_type":"container"}},"type":"Feature"},
	{"geometry":{"coordinates":[4.191019,43.570595],"type":"Point"},"properties":{"osm_id":"6427706231","tag":{"amenity":"recycling","recycling:glass":"yes","recycling:glass_bottles":"yes","recycling_type":"container"}},"type":"Feature"},
	{"geometry":{"coordinates":[4.191032,43.57061],"type":"Point"},"properties":{"osm_id":"6427706232","tag":{"amenity":"recycling","recycling:cans":"yes","recycling:cardboard":"yes","recycling:plastic":"yes","recycling:plastic_bottles":"yes","recycling:plastic_packaging":"yes","recycling_type":"container"}},"type":"Feature"},
	{"geometry":{"coordinates":[4.178463,43.574363],"type":"Point"},"properties":{"osm_id":"6429328850","tag":{"amenity":"recycling","recycling:cardboard":"yes","recycling:plastic":"yes","recycling:plastic_bottles":"yes","recycling:plastic_packaging":"yes","recycling_type":"container"}},"type":"Feature"},
	{"geometry":{"coordinates":[4.178491,43.574357],"type":"Point"},"properties":{"osm_id":"6429328851","tag":{"amenity":"recycling","recycling:paper":"yes","recycling_type":"container"}},"type":"Feature"},
	{"geometry":{"coordinates":[4.178522,43.574352],"type":"Point"},"properties":{"osm_id":"6429328852","tag":{"amenity":"recycling","recycling:glass":"yes","recycling:glass_bottles":"yes","recycling_type":"container"}},"type":"Feature"},
	{"geometry":{"coordinates":[4.182047,43.57345],"type":"Point"},"properties":{"osm_id":"6429328856","tag":{"amenity":"waste_basket","colour":"green","material":"plastic"}},"type":"Feature"},
	{"geometry":{"coordinates":[4.188609,43.570832],"type":"Point"},"properties":{"osm_id":"6433308836","tag":{"amenity":"waste_basket"}},"type":"Feature"},
	{"geometry":{"coordinates":[4.192209,43.567652],"type":"Point"},"properties":{"osm_id":"6433308838","tag":{"amenity":"recycling","recycling:cardboard":"yes","recycling:glass":"yes","recycling:glass_bottles":"yes","recycling:paper":"yes","recycling:plastic":"yes","recycling:plastic_bottles":"yes","recycling:plastic_packaging":"yes","recycling_type":"container"}},"type":"Feature"},
	{"geometry":{"coordinates":[4.192649,43.568957],"type":"Point"},"properties":{"osm_id":"6433308873","tag":{"amenity":"waste_basket"}},"type":"Feature"},
	{"geometry":{"coordinates":[4.192499,43.56891],"type":"Point"},"properties":{"osm_id":"6433308875","tag":{"amenity":"waste_basket"}},"type":"Feature"},
	{"geometry":{"coordinates":[4.192103,43.569238],"type":"Point"},"properties":{"osm_id":"6433309193","tag":{"amenity":"waste_basket"}},"type":"Feature"},
	{"geometry":{"coordinates":[4.192261,43.569143],"type":"Point"},"properties":{"osm_id":"6433309194","tag":{"amenity":"waste_basket"}},"type":"Feature"},
	{"geometry":{"coordinates":[4.192769,43.568938],"type":"Point"},"properties":{"osm_id":"6433309209","tag":{"amenity":"waste_basket"}},"type":"Feature"},
	{"geometry":{"coordinates":[4.193998,43.568963],"type":"Point"},"properties":{"osm_id":"6433309233","tag":{"amenity":"recycling","recycling:glass":"yes","recycling_type":"container"}},"type":"Feature"},
	{"geometry":{"coordinates":[4.13756,43.538606],"type":"Point"},"properties":{"osm_id":"7441198726","tag":{"amenity":"recycling","recycling:cardboard":"yes","recycling:glass":"yes","recycling:magazines":"yes","recycling:paper":"yes","recycling:plastic_bottles":"yes","recycling:waste":"yes","recycling_type":"container"}},"type":"Feature"}
]
}
