{
"type": "FeatureCollection",
"features": [
	{"geometry":{"coordinates":[10.80984,54.104789],"type":"Point"},"properties":{"osm_id":"291075955","tag":{"amenity":"recycling","opening_hours":"Mo-Sa 07:00-20:00; Su,PH off","operator":"Karl Meyer Umweltdienste GmbH","recycling:glass":"yes","recycling:glass_bottles":"yes","recycling_type":"container"}},"type":"Feature"},
	{"geometry":{"coordinates":[10.791718,54.094423],"type":"Point"},"properties":{"name":"Recyclinghof Neustadt","osm_id":"393997844","tag":{"amenity":"recycling","check_date":"2016-09-17","operator":"Zweckverband Ostholstein","recycling:batteries":"yes","recycling:cans":"yes","recycling:clothes":"yes","recycling:glass":"yes","recycling:paper":"yes","recycling:scrap_metal":"yes","recycling_type":"centre"}},"type":"Feature"},
	{"geometry":{"coordinates":[10.803127,54.093353],"type":"Point"},"properties":{"osm_id":"416357614","tag":{"amenity":"recycling","location":"overground","recycling:glass_bottles":"yes","recycling_type":"container"}},"type":"Feature"},
	{"geometry":{"coordinates":[10.804907,54.091612],"type":"Point"},"properties":{"osm_id":"434425206","tag":{"amenity":"recycling","location":"overground","recycling:glass_bottles":"yes","recycling:paper":"yes","recycling_type":"container"}},"type":"Feature"},
	{"geometry":{"coordinates":[10.774247,54.07235],"type":"Point"},"properties":{"osm_id":"438102752","tag":{"amenity":"recycling","location":"overground","recycling:glass":"yes","recycling:paper":"yes","recycling_type":"container"}},"type":"Feature"},
	{"geometry":{"coordinates":[10.767049,54.063024],"type":"Point"},"properties":{"osm_id":"795411883","tag":{"amenity":"waste_basket"}},"type":"Feature"},
	{"geometry":{"coordinates":[10.768363,54.063518],"type":"Point"},"properties":{"osm_id":"821190548","tag":{"amenity":"waste_basket"}},"type":"Feature"},
	{"geometry":{"coordinates":[10.74474,54.084724],"type":"Point"},"properties":{"osm_id":"1379398031","tag":{"amenity":"waste_basket"}},"type":"Feature"},
	{"geometry":{"coordinates":[10.768506,54.066577],"type":"Point"},"properties":{"osm_id":"1659561333","tag":{"amenity":"recycling","check_date":"2017-06-20","recycling:clothes":"yes","recycling:glass":"yes","recycling:paper":"yes","recycling_type":"container"}},"type":"Feature"},
	{"geometry":{"coordinates":[10.78223,54.072103],"type":"Point"},"properties":{"osm_id":"1879092747","tag":{"amenity":"recycling","recycling:glass":"yes","recycling:paper":"yes","recycling_type":"container"}},"type":"Feature"},
	{"geometry":{"coordinates":[10.768566,54.066594],"type":"Point"},"properties":{"osm_id":"2765647862","tag":{"amenity":"recycling","check_date":"2017-06-20","operator":"Vorwerker Diakonie","recycling:clothes":"yes","recycling_type":"container"}},"type":"Feature"},
	{"geometry":{"coordinates":[10.76489,54.062367],"type":"Point"},"properties":{"osm_id":"3806481165","tag":{"amenity":"waste_basket"}},"type":"Feature"},
	{"geometry":{"coordinates":[10.790517,54.096684],"type":"Point"},"properties":{"osm_id":"4171456859","tag":{"amenity":"recycling","check_date":"2016-09-17","recycling:glass_bottles":"yes","recycling:paper":"yes","recycling_type":"container"}},"type":"Feature"},
	{"geometry":{"coordinates":[10.76752,54.064496],"type":"Point"},"properties":{"osm_id":"4320377662","tag":{"amenity":"waste_basket"}},"type":"Feature"},
	{"geometry":{"coordinates":[10.766428,54.065745],"type":"Point"},"properties":{"osm_id":"4320377669","tag":{"amenity":"waste_basket"}},"type":"Feature"},
	{"geometry":{"coordinates":[10.768561,54.066613],"type":"Point"},"properties":{"osm_id":"4320400329","tag":{"amenity":"waste_basket"}},"type":"Feature"},
	{"geometry":{"coordinates":[10.773276,54.066473],"type":"Point"},"properties":{"osm_id":"4320709855","tag":{"amenity":"waste_basket"}},"type":"Feature"},
	{"geometry":{"coordinates":[10.782513,54.073945],"type":"Point"},"properties":{"osm_id":"4927454821","tag":{"amenity":"recycling","check_date":"2017-06-20","operator":"Vorwerker Diakonie","recycling:clothes":"yes","recycling_type":"container"}},"type":"Feature"},
	{"geometry":{"coordinates":[10.782536,54.073957],"type":"Point"},"properties":{"osm_id":"4927454822","tag":{"amenity":"recycling","check_date":"2017-06-20","recycling:glass":"yes","recycling:paper":"yes","recycling_type":"container"}},"type":"Feature"},
	{"geometry":{"coordinates":[10.774338,54.071755],"type":"Point"},"properties":{"osm_id":"4927454824","tag":{"amenity":"recycling","check_date":"2017-06-20","recycling:paper":"yes","recycling_type":"container"}},"type":"Feature"},
	{"geometry":{"coordinates":[10.774421,54.072635],"type":"Point"},"properties":{"osm_id":"5156742654","tag":{"amenity":"waste_basket"}},"type":"Feature"},
	{"geometry":{"coordinates":[10.806979,54.103977],"type":"Point"},"properties":{"osm_id":"5877842787","tag":{"amenity":"waste_basket"}},"type":"Feature"},
	{"geometry":{"coordinates":[10.807428,54.104138],"type":"Point"},"properties":{"osm_id":"5877883288","tag":{"amenity":"waste_basket"}},"type":"Feature"},
	{"geometry":{"coordinates":[10.807332,54.10409],"type":"Point"},"properties":{"osm_id":"5877883289","tag":{"amenity":"waste_basket"}},"type":"Feature"},
	{"geometry":{"coordinates":[10.768629,54.066597],"type":"Point"},"properties":{"osm_id":"6634120205","tag":{"amenity":"recycling","check_date":"2017-06-20","colour":"White","material":"steel","operator":"DRK","recycling:clothes":"yes","recycling:shoes":"yes","recycling_type":"container"}},"type":"Feature"},
	{"geometry":{"coordinates":[10.768642,54.066582],"type":"Point"},"properties":{"osm_id":"6634120206","tag":{"amenity":"recycling","check_date":"2017-06-20","colour":"red","material":"steel","operator":"Malteser","recycling:clothes":"yes","recycling_type":"container"}},"type":"Feature"},
	{"geometry":{"coordinates":[10.758402,54.059575],"type":"Point"},"properties":{"osm_id":"7717940563","tag":{"amenity":"recycling","recycling:clothes":"yes","recycling:glass_bottles":"yes","recycling:paper":"yes","recycling_type":"container"}},"type":"Feature"}
]
}
