{
"type": "FeatureCollection",
"features": [
	{"geometry":{"coordinates":[10.739553,54.023012],"type":"Point"},"properties":{"osm_id":"371854426","tag":{"amenity":"recycling","recycling:glass":"yes","recycling:paper":"yes","recycling_type":"container"}},"type":"Feature"},
	{"geometry":{"coordinates":[10.724744,54.037978],"type":"Point"},"properties":{"osm_id":"387870568","tag":{"amenity":"recycling","check_date":"2020-08-08","recycling:glass":"yes","recycling:paper":"yes","recycling_type":"container"}},"type":"Feature"},
	{"geometry":{"coordinates":[10.76916,54.011766],"type":"Point"},"properties":{"osm_id":"798995149","tag":{"amenity":"recycling","check_date":"2018-10-06","recycling:glass":"yes","recycling:paper":"yes","recycling_type":"container"}},"type":"Feature"},
	{"geometry":{"coordinates":[10.752523,54.051635],"type":"Point"},"properties":{"osm_id":"1372250801","tag":{"amenity":"waste_basket"}},"type":"Feature"},
	{"geometry":{"coordinates":[10.752529,54.051695],"type":"Point"},"properties":{"osm_id":"1372250805","tag":{"amenity":"waste_basket"}},"type":"Feature"},
	{"geometry":{"coordinates":[10.752524,54.0518],"type":"Point"},"properties":{"osm_id":"1372250818","tag":{"amenity":"waste_basket"}},"type":"Feature"},
	{"geometry":{"coordinates":[10.757632,54.026482],"type":"Point"},"properties":{"osm_id":"1423239701","tag":{"amenity":"waste_basket"}},"type":"Feature"},
	{"geometry":{"coordinates":[10.756908,54.027188],"type":"Point"},"properties":{"osm_id":"1423239705","tag":{"amenity":"waste_basket"}},"type":"Feature"},
	{"geometry":{"coordinates":[10.756919,54.027679],"type":"Point"},"properties":{"osm_id":"1423239712","tag":{"amenity":"waste_basket"}},"type":"Feature"},
	{"geometry":{"coordinates":[10.748461,54.04039],"type":"Point"},"properties":{"osm_id":"1791309108","tag":{"amenity":"recycling","recycling:paper":"yes","recycling_type":"container"}},"type":"Feature"},
	{"geometry":{"coordinates":[10.74832,54.040261],"type":"Point"},"properties":{"osm_id":"1791311349","tag":{"amenity":"waste_disposal"}},"type":"Feature"},
	{"geometry":{"coordinates":[10.748388,54.040274],"type":"Point"},"properties":{"osm_id":"1791336223","tag":{"access":"private","amenity":"recycling","recycling:glass_bottles":"yes","recycling_type":"container"}},"type":"Feature"},
	{"geometry":{"coordinates":[10.753729,54.056113],"type":"Point"},"properties":{"osm_id":"2859823409","tag":{"amenity":"recycling","recycling:glass_bottles":"yes","recycling_type":"container"}},"type":"Feature"},
	{"geometry":{"coordinates":[10.753752,54.056139],"type":"Point"},"properties":{"osm_id":"2859823410","tag":{"amenity":"recycling","operator":"Vorwerker Diakonie","recycling:clothes":"yes","recycling_type":"container"}},"type":"Feature"},
	{"geometry":{"coordinates":[10.745382,54.047676],"type":"Point"},"properties":{"osm_id":"4416762319","tag":{"amenity":"recycling","check_date":"2020-07-12","recycling:glass_bottles":"yes","recycling:paper":"yes","recycling_type":"container"}},"type":"Feature"},
	{"geometry":{"coordinates":[10.750911,54.021817],"type":"Point"},"properties":{"osm_id":"4765067155","tag":{"amenity":"recycling","check_date":"2019-08-24","recycling:glass":"yes","recycling:paper":"yes","recycling_type":"container"}},"type":"Feature"},
	{"geometry":{"coordinates":[10.747624,54.024823],"type":"Point"},"properties":{"osm_id":"5058333682","tag":{"amenity":"recycling","check_date":"2017-08-23","recycling:glass":"yes","recycling_type":"container"}},"type":"Feature"},
	{"geometry":{"coordinates":[10.750164,54.037162],"type":"Point"},"properties":{"osm_id":"5214526870","tag":{"amenity":"recycling","check_date":"2019-04-30","opening_hours":"24/7","recycling:clothes":"yes","recycling:paper":"no","recycling:shoes":"yes","recycling_type":"container","wheelchair":"yes"}},"type":"Feature"},
	{"geometry":{"coordinates":[10.75025,54.037207],"type":"Point"},"properties":{"osm_id":"5221149489","tag":{"amenity":"recycling","check_date":"2020-07-12","opening_hours":"24/7","recycling:glass_bottles":"yes","recycling_type":"container","wheelchair":"yes"}},"type":"Feature"},
	{"geometry":{"coordinates":[10.744289,54.05292],"type":"Point"},"properties":{"osm_id":"5653774057","tag":{"amenity":"waste_basket"}},"type":"Feature"},
	{"geometry":{"coordinates":[10.740541,54.050051],"type":"Point"},"properties":{"osm_id":"6335012812","tag":{"amenity":"waste_basket","waste":"trash"}},"type":"Feature"},
	{"geometry":{"coordinates":[10.74166,54.050703],"type":"Point"},"properties":{"osm_id":"6335012830","tag":{"amenity":"waste_basket","bin":"no","fee":"no","operator":"Neudeck & Dransfeld Bau- Industrie- & Kommunalbedarf","vending":"excrement_bags"}},"type":"Feature"},
	{"geometry":{"coordinates":[10.740906,54.050305],"type":"Point"},"properties":{"osm_id":"6335012847","tag":{"amenity":"waste_basket","waste":"trash"}},"type":"Feature"},
	{"geometry":{"coordinates":[10.740791,54.049659],"type":"Point"},"properties":{"osm_id":"6335012861","tag":{"amenity":"waste_basket","waste":"trash"}},"type":"Feature"},
	{"geometry":{"coordinates":[10.742341,54.053839],"type":"Point"},"properties":{"osm_id":"6385494715","tag":{"amenity":"waste_basket"}},"type":"Feature"},
	{"geometry":{"coordinates":[10.742489,54.053928],"type":"Point"},"properties":{"osm_id":"6385494720","tag":{"amenity":"waste_basket"}},"type":"Feature"},
	{"geometry":{"coordinates":[10.742414,54.053884],"type":"Point"},"properties":{"osm_id":"6385494725","tag":{"amenity":"waste_basket"}},"type":"Feature"},
	{"geometry":{"coordinates":[10.742512,54.053878],"type":"Point"},"properties":{"osm_id":"6385494728","tag":{"amenity":"waste_basket"}},"type":"Feature"},
	{"geometry":{"coordinates":[10.750349,54.035721],"type":"Point"},"properties":{"osm_id":"7717940562","tag":{"amenity":"recycling","recycling:glass_bottles":"yes","recycling_type":"container"}},"type":"Feature"}
]
}
