{
"type": "FeatureCollection",
"features": [
	{"geometry":{"coordinates":[10.736099,53.81531],"type":"Point"},"properties":{"osm_id":"410185807","tag":{"amenity":"recycling","check_date":"2017-10-08","recycling:clothes":"yes","recycling:glass_bottles":"yes","recycling:paper":"yes","recycling:small_appliances":"no","recycling_type":"container"}},"type":"Feature"},
	{"geometry":{"coordinates":[10.757995,53.847636],"type":"Point"},"properties":{"osm_id":"473167997","tag":{"amenity":"recycling","recycling:aluminium":"yes","recycling:beverage_cartons":"yes","recycling:cans":"yes","recycling:cardboard":"yes","recycling:clothes":"yes","recycling:glass":"yes","recycling:paper":"yes","recycling:plastic":"yes","recycling_type":"container"}},"type":"Feature"},
	{"geometry":{"coordinates":[10.738239,53.813275],"type":"Point"},"properties":{"osm_id":"601599898","tag":{"amenity":"recycling","check_date":"2016-05-15","recycling:clothes":"yes","recycling_type":"container"}},"type":"Feature"},
	{"geometry":{"coordinates":[10.765868,53.834659],"type":"Point"},"properties":{"osm_id":"1270300397","tag":{"amenity":"recycling","recycling:clothes":"yes","recycling:glass":"yes","recycling:paper":"yes","recycling_type":"container"}},"type":"Feature"},
	{"geometry":{"coordinates":[10.758639,53.837873],"type":"Point"},"properties":{"osm_id":"1336120596","tag":{"amenity":"waste_basket"}},"type":"Feature"},
	{"geometry":{"coordinates":[10.758694,53.83772],"type":"Point"},"properties":{"osm_id":"1336120626","tag":{"amenity":"waste_basket"}},"type":"Feature"},
	{"geometry":{"coordinates":[10.759322,53.837792],"type":"Point"},"properties":{"osm_id":"1336120639","tag":{"amenity":"waste_basket"}},"type":"Feature"},
	{"geometry":{"coordinates":[10.759671,53.837677],"type":"Point"},"properties":{"osm_id":"1336120665","tag":{"amenity":"waste_basket"}},"type":"Feature"},
	{"geometry":{"coordinates":[10.757886,53.838391],"type":"Point"},"properties":{"osm_id":"1401566572","tag":{"amenity":"waste_basket"}},"type":"Feature"},
	{"geometry":{"coordinates":[10.723967,53.848323],"type":"Point"},"properties":{"osm_id":"1407243728","tag":{"amenity":"waste_basket","waste":"trash"}},"type":"Feature"},
	{"geometry":{"coordinates":[10.726683,53.849971],"type":"Point"},"properties":{"osm_id":"1407243741","tag":{"amenity":"waste_basket"}},"type":"Feature"},
	{"geometry":{"coordinates":[10.723467,53.8509],"type":"Point"},"properties":{"osm_id":"1407243756","tag":{"amenity":"waste_basket","waste":"trash"}},"type":"Feature"},
	{"geometry":{"coordinates":[10.755736,53.845072],"type":"Point"},"properties":{"osm_id":"1493771825","tag":{"amenity":"waste_basket"}},"type":"Feature"},
	{"geometry":{"coordinates":[10.755261,53.846156],"type":"Point"},"properties":{"osm_id":"1493772107","tag":{"amenity":"waste_basket"}},"type":"Feature"},
	{"geometry":{"coordinates":[10.758405,53.847006],"type":"Point"},"properties":{"osm_id":"1500754680","tag":{"amenity":"waste_basket"}},"type":"Feature"},
	{"geometry":{"coordinates":[10.758547,53.847299],"type":"Point"},"properties":{"osm_id":"1500754700","tag":{"amenity":"waste_basket"}},"type":"Feature"},
	{"geometry":{"coordinates":[10.761154,53.848872],"type":"Point"},"properties":{"osm_id":"1500754775","tag":{"amenity":"waste_basket"}},"type":"Feature"},
	{"geometry":{"coordinates":[10.762417,53.847301],"type":"Point"},"properties":{"osm_id":"1502118995","tag":{"amenity":"waste_basket"}},"type":"Feature"},
	{"geometry":{"coordinates":[10.762755,53.847409],"type":"Point"},"properties":{"osm_id":"1502119038","tag":{"amenity":"waste_basket"}},"type":"Feature"},
	{"geometry":{"coordinates":[10.762369,53.847439],"type":"Point"},"properties":{"osm_id":"1502119048","tag":{"amenity":"waste_basket"}},"type":"Feature"},
	{"geometry":{"coordinates":[10.76142,53.846834],"type":"Point"},"properties":{"osm_id":"1502625725","tag":{"amenity":"waste_basket"}},"type":"Feature"},
	{"geometry":{"coordinates":[10.76168,53.851197],"type":"Point"},"properties":{"osm_id":"1503511049","tag":{"amenity":"waste_basket","waste":"trash"}},"type":"Feature"},
	{"geometry":{"coordinates":[10.771689,53.827054],"type":"Point"},"properties":{"osm_id":"1541630228","tag":{"amenity":"waste_basket"}},"type":"Feature"},
	{"geometry":{"coordinates":[10.77161,53.827245],"type":"Point"},"properties":{"osm_id":"1541630231","tag":{"amenity":"waste_basket"}},"type":"Feature"},
	{"geometry":{"coordinates":[10.775209,53.811251],"type":"Point"},"properties":{"osm_id":"1573184296","tag":{"amenity":"waste_basket"}},"type":"Feature"},
	{"geometry":{"coordinates":[10.749905,53.846181],"type":"Point"},"properties":{"osm_id":"1601202978","tag":{"amenity":"recycling","recycling:cardboard":"yes","recycling:glass":"yes","recycling:paper":"yes","recycling_type":"container"}},"type":"Feature"},
	{"geometry":{"coordinates":[10.745155,53.803647],"type":"Point"},"properties":{"osm_id":"1719615825","tag":{"amenity":"recycling","recycling:clothes":"yes","recycling:glass_bottles":"yes","recycling:paper":"yes","recycling_type":"container"}},"type":"Feature"},
	{"geometry":{"coordinates":[10.765464,53.842795],"type":"Point"},"properties":{"osm_id":"1804351925","tag":{"amenity":"recycling","recycling:aluminium":"yes","recycling:beverage_cartons":"yes","recycling:cans":"yes","recycling:cardboard":"yes","recycling:clothes":"yes","recycling:glass":"yes","recycling:paper":"yes","recycling:plastic":"yes","recycling_type":"container"}},"type":"Feature"},
	{"geometry":{"coordinates":[10.761763,53.8454],"type":"Point"},"properties":{"osm_id":"1804351948","tag":{"amenity":"recycling","recycling:aluminium":"yes","recycling:beverage_cartons":"yes","recycling:cans":"yes","recycling:cardboard":"yes","recycling:clothes":"yes","recycling:glass":"yes","recycling:paper":"yes","recycling:plastic":"yes","recycling_type":"container"}},"type":"Feature"},
	{"geometry":{"coordinates":[10.73764,53.851942],"type":"Point"},"properties":{"osm_id":"1813129969","tag":{"amenity":"recycling","check_date":"2015-08-13","operator:clothes":"Entsorgungsbetriebe L\u00c3\u00bcbeck;Kleiderbox","operator:glass":"remondis","operator:paper":"Entsorgungsbetriebe L\u00c3\u00bcbeck","recycling:cardboard":"yes","recycling:clothes":"yes","recycling:glass":"yes","recycling:paper":"yes","recycling_type":"container"}},"type":"Feature"},
	{"geometry":{"coordinates":[10.739384,53.850729],"type":"Point"},"properties":{"osm_id":"1834817061","tag":{"amenity":"recycling","lastcheck":"2012-07-21","operator":"Vorwerker Diakonie","recycling:clothes":"yes"}},"type":"Feature"},
	{"geometry":{"coordinates":[10.73733,53.852245],"type":"Point"},"properties":{"osm_id":"1834817063","tag":{"amenity":"recycling","check_date":"2015-08-13","operator":"Vorwerker Diakonie","recycling:clothes":"yes","recycling_type":"container"}},"type":"Feature"},
	{"geometry":{"coordinates":[10.722931,53.823425],"type":"Point"},"properties":{"osm_id":"2276522973","tag":{"amenity":"waste_basket"}},"type":"Feature"},
	{"geometry":{"coordinates":[10.72798,53.825564],"type":"Point"},"properties":{"osm_id":"2276689571","tag":{"amenity":"waste_basket"}},"type":"Feature"},
	{"geometry":{"coordinates":[10.731985,53.827254],"type":"Point"},"properties":{"osm_id":"2276735437","tag":{"amenity":"waste_basket"}},"type":"Feature"},
	{"geometry":{"coordinates":[10.758227,53.818402],"type":"Point"},"properties":{"osm_id":"2277991530","tag":{"amenity":"waste_basket"}},"type":"Feature"},
	{"geometry":{"coordinates":[10.745232,53.810695],"type":"Point"},"properties":{"osm_id":"2332824715","tag":{"amenity":"recycling","check_date":"2015-08-08","recycling:clothes":"yes","recycling_type":"container"}},"type":"Feature"},
	{"geometry":{"coordinates":[10.729133,53.830091],"type":"Point"},"properties":{"osm_id":"2429116422","tag":{"amenity":"waste_basket"}},"type":"Feature"},
	{"geometry":{"coordinates":[10.724823,53.839348],"type":"Point"},"properties":{"osm_id":"2607653930","tag":{"amenity":"waste_basket"}},"type":"Feature"},
	{"geometry":{"coordinates":[10.746076,53.847359],"type":"Point"},"properties":{"osm_id":"2628905035","tag":{"amenity":"recycling","recycling:clothes":"yes","recycling_type":"container"}},"type":"Feature"},
	{"geometry":{"coordinates":[10.795371,53.811019],"type":"Point"},"properties":{"osm_id":"2635864062","tag":{"amenity":"recycling","recycling_type":"container"}},"type":"Feature"},
	{"geometry":{"coordinates":[10.7404,53.846671],"type":"Point"},"properties":{"osm_id":"2784055833","tag":{"amenity":"recycling","recycling:clothes":"yes","recycling_type":"container"}},"type":"Feature"},
	{"geometry":{"coordinates":[10.740999,53.848532],"type":"Point"},"properties":{"osm_id":"2784055840","tag":{"amenity":"recycling","check_date":"2015-08-13","operator:clothes":"Entsorgungsbetriebe L\u00c3\u00bcbeck;Kleiderbox;other","operator:glass":"remondis","operator:paper":"Entsorgungsbetriebe L\u00c3\u00bcbeck","recycling:clothes":"yes","recycling:glass":"yes","recycling:paper":"yes","recycling_type":"container"}},"type":"Feature"},
	{"geometry":{"coordinates":[10.800635,53.832448],"type":"Point"},"properties":{"osm_id":"3099368973","tag":{"amenity":"recycling","recycling:clothes":"yes","recycling:glass_bottles":"yes","recycling:paper":"yes","recycling_type":"container"}},"type":"Feature"},
	{"geometry":{"coordinates":[10.731663,53.821279],"type":"Point"},"properties":{"osm_id":"3302317440","tag":{"amenity":"recycling","recycling:clothes":"yes","recycling_type":"container"}},"type":"Feature"},
	{"geometry":{"coordinates":[10.727813,53.822004],"type":"Point"},"properties":{"osm_id":"3302317441","tag":{"amenity":"recycling","recycling:clothes":"yes","recycling:glass_bottles":"yes","recycling:paper":"yes","recycling_type":"container"}},"type":"Feature"},
	{"geometry":{"coordinates":[10.750661,53.801363],"type":"Point"},"properties":{"osm_id":"3689000847","tag":{"amenity":"recycling","check_date":"2015-08-08","recycling:clothes":"yes","recycling:glass":"no","recycling:paper":"no","recycling_type":"container"}},"type":"Feature"},
	{"geometry":{"coordinates":[10.746185,53.847619],"type":"Point"},"properties":{"osm_id":"3695291415","tag":{"amenity":"recycling","recycling:clothes":"yes","recycling_type":"container"}},"type":"Feature"},
	{"geometry":{"coordinates":[10.741908,53.848289],"type":"Point"},"properties":{"osm_id":"3695295533","tag":{"amenity":"waste_basket"}},"type":"Feature"},
	{"geometry":{"coordinates":[10.727783,53.821871],"type":"Point"},"properties":{"osm_id":"3753390439","tag":{"amenity":"recycling","operator":"Vorwerker Diakonie","recycling:clothes":"yes","recycling_type":"container"}},"type":"Feature"},
	{"geometry":{"coordinates":[10.748416,53.846248],"type":"Point"},"properties":{"osm_id":"3833905437","tag":{"amenity":"recycling","recycling:clothes":"yes","recycling_type":"container"}},"type":"Feature"},
	{"geometry":{"coordinates":[10.771926,53.82738],"type":"Point"},"properties":{"osm_id":"4030640898","tag":{"amenity":"waste_basket"}},"type":"Feature"},
	{"geometry":{"coordinates":[10.736333,53.848912],"type":"Point"},"properties":{"osm_id":"4418433635","tag":{"amenity":"recycling","recycling_type":"container"}},"type":"Feature"},
	{"geometry":{"coordinates":[10.742381,53.850644],"type":"Point"},"properties":{"osm_id":"4423209043","tag":{"amenity":"recycling","check_date":"2016-09-28","recycling:clothes":"yes","recycling_type":"container"}},"type":"Feature"},
	{"geometry":{"coordinates":[10.75282,53.841517],"type":"Point"},"properties":{"osm_id":"4442706398","tag":{"amenity":"waste_basket"}},"type":"Feature"},
	{"geometry":{"coordinates":[10.725018,53.83444],"type":"Point"},"properties":{"osm_id":"4958510411","tag":{"amenity":"waste_basket","bicycle":"yes","description":"Zwischenwegweiser","information":"guidepost","network":"lcn","operator":"Kreis Herzogtum Lauenburg","tourism":"information"}},"type":"Feature"},
	{"geometry":{"coordinates":[10.748703,53.843801],"type":"Point"},"properties":{"osm_id":"6286976370","tag":{"amenity":"waste_basket"}},"type":"Feature"},
	{"geometry":{"coordinates":[10.730953,53.849331],"type":"Point"},"properties":{"osm_id":"7544905228","tag":{"amenity":"waste_basket","waste":"trash"}},"type":"Feature"},
	{"geometry":{"coordinates":[10.73189,53.847426],"type":"Point"},"properties":{"osm_id":"7544905233","tag":{"amenity":"waste_basket","waste":"trash"}},"type":"Feature"},
	{"geometry":{"coordinates":[10.732159,53.846626],"type":"Point"},"properties":{"osm_id":"7581190663","tag":{"amenity":"waste_basket","waste":"trash"}},"type":"Feature"},
	{"geometry":{"coordinates":[10.731377,53.846867],"type":"Point"},"properties":{"osm_id":"7581190666","tag":{"amenity":"waste_basket","waste":"trash"}},"type":"Feature"},
	{"geometry":{"coordinates":[10.730653,53.849883],"type":"Point"},"properties":{"osm_id":"7638414186","tag":{"amenity":"waste_basket","waste":"trash"}},"type":"Feature"},
	{"geometry":{"coordinates":[10.730796,53.848401],"type":"Point"},"properties":{"osm_id":"7638414190","tag":{"amenity":"waste_basket","waste":"trash"}},"type":"Feature"}
]
}
