{
"type": "FeatureCollection",
"features": [
	{"geometry":{"coordinates":[10.783984,52.44481],"type":"Point"},"properties":{"osm_id":"673550635","tag":{"amenity":"recycling","mapillary":"gYnRzTumXm7FwcXpyyJS_Q","recycling:clothes":"yes","recycling:glass":"yes","recycling:shoes":"yes","recycling_type":"container","survey:date":"2019-09-25"}},"type":"Feature"},
	{"geometry":{"coordinates":[10.785691,52.450218],"type":"Point"},"properties":{"osm_id":"703801354","tag":{"amenity":"recycling","recycling:clothes":"yes","recycling:glass":"yes","recycling:paper":"yes","recycling:shoes":"yes"}},"type":"Feature"},
	{"geometry":{"coordinates":[10.781091,52.446071],"type":"Point"},"properties":{"osm_id":"710748799","tag":{"amenity":"recycling","recycling:clothes":"yes","recycling:shoes":"yes"}},"type":"Feature"},
	{"geometry":{"coordinates":[10.798882,52.450042],"type":"Point"},"properties":{"osm_id":"722661388","tag":{"amenity":"recycling","mapillary":"i64SmNuvu9DiRImqFyXQOA","recycling:clothes":"yes","recycling:glass":"yes","recycling:shoes":"yes","recycling_type":"container","survey:date":"2019-02-26"}},"type":"Feature"},
	{"geometry":{"coordinates":[10.808662,52.444059],"type":"Point"},"properties":{"osm_id":"830590486","tag":{"amenity":"recycling","recycling:clothes":"yes","recycling:glass":"yes","recycling:shoes":"yes"}},"type":"Feature"},
	{"geometry":{"coordinates":[10.772068,52.4773],"type":"Point"},"properties":{"osm_id":"998274626","tag":{"amenity":"recycling","recycling:clothes":"yes","recycling:glass":"yes","recycling:paper":"yes","recycling_type":"container"}},"type":"Feature"},
	{"geometry":{"coordinates":[10.796887,52.434811],"type":"Point"},"properties":{"osm_id":"1334289543","tag":{"amenity":"waste_basket"}},"type":"Feature"},
	{"geometry":{"coordinates":[10.796935,52.434621],"type":"Point"},"properties":{"osm_id":"1334289563","tag":{"amenity":"waste_basket"}},"type":"Feature"},
	{"geometry":{"coordinates":[10.796997,52.434344],"type":"Point"},"properties":{"osm_id":"1334289584","tag":{"amenity":"waste_basket"}},"type":"Feature"},
	{"geometry":{"coordinates":[10.749403,52.455402],"type":"Point"},"properties":{"osm_id":"1362127785","tag":{"amenity":"recycling","recycling:clothes":"yes","recycling:glass":"yes"}},"type":"Feature"},
	{"geometry":{"coordinates":[10.804311,52.452418],"type":"Point"},"properties":{"osm_id":"1630420209","tag":{"amenity":"waste_basket","recycling:paper":"yes","recycling_type":"container"}},"type":"Feature"},
	{"geometry":{"coordinates":[10.79764,52.433961],"type":"Point"},"properties":{"osm_id":"1637189588","tag":{"amenity":"waste_basket"}},"type":"Feature"},
	{"geometry":{"coordinates":[10.787876,52.429787],"type":"Point"},"properties":{"osm_id":"1646305598","tag":{"amenity":"waste_basket"}},"type":"Feature"},
	{"geometry":{"coordinates":[10.797459,52.434893],"type":"Point"},"properties":{"osm_id":"1646305700","tag":{"amenity":"waste_basket"}},"type":"Feature"},
	{"geometry":{"coordinates":[10.771556,52.445756],"type":"Point"},"properties":{"osm_id":"1657177014","tag":{"amenity":"waste_basket"}},"type":"Feature"},
	{"geometry":{"coordinates":[10.795698,52.443847],"type":"Point"},"properties":{"osm_id":"1848859354","tag":{"amenity":"recycling","recycling:clothes":"yes","recycling:glass":"yes"}},"type":"Feature"},
	{"geometry":{"coordinates":[10.724341,52.463547],"type":"Point"},"properties":{"osm_id":"1883365821","tag":{"amenity":"recycling","recycling:clothes":"yes","recycling:glass":"yes","recycling_type":"container"}},"type":"Feature"},
	{"geometry":{"coordinates":[10.723668,52.463642],"type":"Point"},"properties":{"osm_id":"1883365832","tag":{"amenity":"waste_basket"}},"type":"Feature"},
	{"geometry":{"coordinates":[10.724763,52.463831],"type":"Point"},"properties":{"osm_id":"1883367386","tag":{"amenity":"waste_basket"}},"type":"Feature"},
	{"geometry":{"coordinates":[10.799731,52.433065],"type":"Point"},"properties":{"osm_id":"2066362065","tag":{"amenity":"waste_basket"}},"type":"Feature"},
	{"geometry":{"coordinates":[10.799165,52.433199],"type":"Point"},"properties":{"osm_id":"2270396224","tag":{"amenity":"waste_basket"}},"type":"Feature"},
	{"geometry":{"coordinates":[10.800621,52.436558],"type":"Point"},"properties":{"osm_id":"2270396236","tag":{"amenity":"waste_basket"}},"type":"Feature"},
	{"geometry":{"coordinates":[10.794314,52.431202],"type":"Point"},"properties":{"osm_id":"2297834083","tag":{"amenity":"waste_basket"}},"type":"Feature"},
	{"geometry":{"coordinates":[10.79489,52.43125],"type":"Point"},"properties":{"osm_id":"2297834087","tag":{"amenity":"waste_basket"}},"type":"Feature"},
	{"geometry":{"coordinates":[10.794472,52.432465],"type":"Point"},"properties":{"osm_id":"2297893432","tag":{"amenity":"waste_basket"}},"type":"Feature"},
	{"geometry":{"coordinates":[10.794229,52.432796],"type":"Point"},"properties":{"osm_id":"2297893448","tag":{"amenity":"waste_basket"}},"type":"Feature"},
	{"geometry":{"coordinates":[10.793837,52.431964],"type":"Point"},"properties":{"osm_id":"2297931628","tag":{"amenity":"waste_basket"}},"type":"Feature"},
	{"geometry":{"coordinates":[10.793014,52.43197],"type":"Point"},"properties":{"osm_id":"2297931630","tag":{"amenity":"waste_basket"}},"type":"Feature"},
	{"geometry":{"coordinates":[10.793691,52.432039],"type":"Point"},"properties":{"osm_id":"2297931633","tag":{"amenity":"waste_basket"}},"type":"Feature"},
	{"geometry":{"coordinates":[10.725134,52.464536],"type":"Point"},"properties":{"osm_id":"2298544996","tag":{"amenity":"waste_basket"}},"type":"Feature"},
	{"geometry":{"coordinates":[10.725307,52.464882],"type":"Point"},"properties":{"osm_id":"2298545012","tag":{"amenity":"waste_basket"}},"type":"Feature"},
	{"geometry":{"coordinates":[10.730455,52.460928],"type":"Point"},"properties":{"osm_id":"2447420872","tag":{"amenity":"waste_basket"}},"type":"Feature"},
	{"geometry":{"coordinates":[10.723625,52.46377],"type":"Point"},"properties":{"osm_id":"2532612948","tag":{"amenity":"waste_basket"}},"type":"Feature"},
	{"geometry":{"coordinates":[10.729335,52.456221],"type":"Point"},"properties":{"osm_id":"2689993155","tag":{"amenity":"waste_basket"}},"type":"Feature"},
	{"geometry":{"coordinates":[10.733532,52.457552],"type":"Point"},"properties":{"osm_id":"2697564715","tag":{"amenity":"waste_basket"}},"type":"Feature"},
	{"geometry":{"coordinates":[10.725554,52.46356],"type":"Point"},"properties":{"osm_id":"2789837371","tag":{"amenity":"waste_disposal"}},"type":"Feature"},
	{"geometry":{"coordinates":[10.725363,52.463638],"type":"Point"},"properties":{"osm_id":"2789837376","tag":{"amenity":"waste_basket"}},"type":"Feature"},
	{"geometry":{"coordinates":[10.725397,52.463704],"type":"Point"},"properties":{"osm_id":"2789837379","tag":{"amenity":"waste_basket"}},"type":"Feature"},
	{"geometry":{"coordinates":[10.725448,52.463801],"type":"Point"},"properties":{"osm_id":"2789837383","tag":{"amenity":"waste_basket"}},"type":"Feature"},
	{"geometry":{"coordinates":[10.725484,52.463867],"type":"Point"},"properties":{"osm_id":"2789837387","tag":{"amenity":"waste_basket"}},"type":"Feature"},
	{"geometry":{"coordinates":[10.800803,52.432851],"type":"Point"},"properties":{"osm_id":"3153923637","tag":{"amenity":"waste_basket"}},"type":"Feature"},
	{"geometry":{"coordinates":[10.798959,52.433052],"type":"Point"},"properties":{"osm_id":"3157532922","tag":{"amenity":"waste_basket"}},"type":"Feature"},
	{"geometry":{"coordinates":[10.795898,52.431344],"type":"Point"},"properties":{"osm_id":"3246485735","tag":{"amenity":"waste_basket"}},"type":"Feature"},
	{"geometry":{"coordinates":[10.793565,52.431089],"type":"Point"},"properties":{"osm_id":"3247286284","tag":{"amenity":"waste_basket"}},"type":"Feature"},
	{"geometry":{"coordinates":[10.806157,52.436147],"type":"Point"},"properties":{"osm_id":"3371945270","tag":{"amenity":"waste_basket"}},"type":"Feature"},
	{"geometry":{"coordinates":[10.803432,52.436517],"type":"Point"},"properties":{"osm_id":"3371945307","tag":{"amenity":"waste_basket"}},"type":"Feature"},
	{"geometry":{"coordinates":[10.783695,52.44302],"type":"Point"},"properties":{"osm_id":"3870777141","tag":{"amenity":"waste_basket"}},"type":"Feature"},
	{"geometry":{"coordinates":[10.783466,52.442841],"type":"Point"},"properties":{"osm_id":"3870777142","tag":{"amenity":"waste_basket"}},"type":"Feature"},
	{"geometry":{"coordinates":[10.790225,52.432358],"type":"Point"},"properties":{"osm_id":"5484107533","tag":{"amenity":"waste_basket"}},"type":"Feature"},
	{"geometry":{"coordinates":[10.799907,52.433184],"type":"Point"},"properties":{"osm_id":"6200229294","tag":{"amenity":"waste_basket"}},"type":"Feature"},
	{"geometry":{"coordinates":[10.798602,52.433832],"type":"Point"},"properties":{"osm_id":"6201683654","tag":{"amenity":"waste_basket"}},"type":"Feature"},
	{"geometry":{"coordinates":[10.806558,52.452931],"type":"Point"},"properties":{"osm_id":"6251280529","tag":{"amenity":"recycling","recycling:clothes":"yes","recycling:glass":"yes","recycling:glass_bottles":"yes","recycling_type":"container"}},"type":"Feature"},
	{"geometry":{"coordinates":[10.782444,52.444056],"type":"Point"},"properties":{"osm_id":"7131979587","tag":{"amenity":"recycling","recycling:organic":"yes","recycling:paper":"yes","recycling:plastic":"yes","recycling_type":"container"}},"type":"Feature"}
]
}
