{
"type": "FeatureCollection",
"features": [
	{"geometry":{"coordinates":[10.754493,52.420163],"type":"Point"},"properties":{"osm_id":"317369262","tag":{"amenity":"recycling","recycling:glass":"yes","recycling:paper":"yes"}},"type":"Feature"},
	{"geometry":{"coordinates":[10.793759,52.416341],"type":"Point"},"properties":{"osm_id":"344032149","tag":{"amenity":"recycling","recycling:clothes":"yes","recycling:glass":"yes","recycling_type":"container"}},"type":"Feature"},
	{"geometry":{"coordinates":[10.73218,52.397433],"type":"Point"},"properties":{"osm_id":"569996308","tag":{"amenity":"recycling","recycling:glass":"yes","recycling:paper":"yes"}},"type":"Feature"},
	{"geometry":{"coordinates":[10.749469,52.41461],"type":"Point"},"properties":{"osm_id":"584185939","tag":{"amenity":"recycling","recycling:clothes":"yes","recycling:glass":"yes","recycling:shoes":"yes"}},"type":"Feature"},
	{"geometry":{"coordinates":[10.748069,52.428717],"type":"Point"},"properties":{"osm_id":"653848239","tag":{"amenity":"recycling","recycling:clothes":"yes","recycling:glass":"yes","recycling:shoes":"yes","recycling_type":"container"}},"type":"Feature"},
	{"geometry":{"coordinates":[10.739103,52.416179],"type":"Point"},"properties":{"osm_id":"661192025","tag":{"amenity":"recycling","mapillary":"tbeIUlaDdbg8pBGu-XmFmA","recycling:clothes":"yes","recycling:glass":"yes","recycling:shoes":"yes","recycling_type":"container","survey:date":"2018-06-18"}},"type":"Feature"},
	{"geometry":{"coordinates":[10.778903,52.4199],"type":"Point"},"properties":{"osm_id":"705325611","tag":{"amenity":"recycling","mapillary":"52E6ggvWHnNh3NFqRtjC8w","recycling:clothes":"yes","recycling:glass":"yes","recycling_type":"container","survey:date":"2018-10-10"}},"type":"Feature"},
	{"geometry":{"coordinates":[10.755335,52.417145],"type":"Point"},"properties":{"osm_id":"767455745","tag":{"amenity":"recycling","recycling:clothes":"yes","recycling:glass":"yes","recycling:shoes":"yes"}},"type":"Feature"},
	{"geometry":{"coordinates":[10.748326,52.391676],"type":"Point"},"properties":{"osm_id":"768874927","tag":{"amenity":"recycling","recycling:clothes":"yes","recycling:glass":"yes","recycling:shoes":"yes"}},"type":"Feature"},
	{"geometry":{"coordinates":[10.75094,52.39584],"type":"Point"},"properties":{"osm_id":"768903287","tag":{"amenity":"recycling","recycling:clothes":"yes","recycling:glass":"yes","recycling:shoes":"yes"}},"type":"Feature"},
	{"geometry":{"coordinates":[10.751863,52.396023],"type":"Point"},"properties":{"osm_id":"768917161","tag":{"amenity":"recycling","operator":"Deutsche Lebens-Rettungs-Gesellschaft e.V.","recycling:clothes":"yes","recycling_type":"container"}},"type":"Feature"},
	{"geometry":{"coordinates":[10.747663,52.387533],"type":"Point"},"properties":{"osm_id":"770122173","tag":{"amenity":"recycling","recycling:clothes":"yes","recycling:glass":"yes","recycling:shoes":"yes","recycling_type":"container"}},"type":"Feature"},
	{"geometry":{"coordinates":[10.782065,52.406207],"type":"Point"},"properties":{"osm_id":"775945920","tag":{"amenity":"recycling","recycling:clothes":"yes","recycling:glass":"yes","recycling:shoes":"yes","recycling_type":"container"}},"type":"Feature"},
	{"geometry":{"coordinates":[10.800093,52.424382],"type":"Point"},"properties":{"osm_id":"825218760","tag":{"amenity":"recycling","recycling:clothes":"yes","recycling:glass":"yes","recycling_type":"container"}},"type":"Feature"},
	{"geometry":{"coordinates":[10.781784,52.427151],"type":"Point"},"properties":{"osm_id":"834454732","tag":{"amenity":"recycling","recycling:clothes":"yes","recycling:glass":"yes","recycling:shoes":"yes","recycling_type":"centre"}},"type":"Feature"},
	{"geometry":{"coordinates":[10.746197,52.411738],"type":"Point"},"properties":{"osm_id":"1123296136","tag":{"amenity":"recycling","recycling:clothes":"yes","recycling:glass":"yes","recycling:shoes":"yes"}},"type":"Feature"},
	{"geometry":{"coordinates":[10.749735,52.411232],"type":"Point"},"properties":{"osm_id":"1144411768","tag":{"amenity":"recycling","mapillary":"jlKt4D0F6S02dmGNyuuyLA","recycling:clothes":"yes","recycling:glass":"yes","recycling:shoes":"yes","recycling_type":"container","survey:date":"2017-07-31"}},"type":"Feature"},
	{"geometry":{"coordinates":[10.798222,52.422284],"type":"Point"},"properties":{"osm_id":"1236953901","tag":{"amenity":"recycling","designation":"Altpapier","location":"overground","recycling_type":"container"}},"type":"Feature"},
	{"geometry":{"coordinates":[10.748215,52.402259],"type":"Point"},"properties":{"osm_id":"1327230404","tag":{"amenity":"recycling","recycling:glass":"yes"}},"type":"Feature"},
	{"geometry":{"coordinates":[10.746447,52.393679],"type":"Point"},"properties":{"osm_id":"1487784977","tag":{"amenity":"recycling","recycling:clothes":"yes","recycling:glass":"yes","recycling:paper":"yes","recycling:shoes":"yes"}},"type":"Feature"},
	{"geometry":{"coordinates":[10.753349,52.39697],"type":"Point"},"properties":{"osm_id":"1487785092","tag":{"amenity":"recycling","recycling:shoes":"yes"}},"type":"Feature"},
	{"geometry":{"coordinates":[10.753167,52.394226],"type":"Point"},"properties":{"osm_id":"1488982520","tag":{"amenity":"recycling","recycling:clothes":"yes","recycling:glass":"yes","recycling:shoes":"yes"}},"type":"Feature"},
	{"geometry":{"coordinates":[10.795357,52.427578],"type":"Point"},"properties":{"osm_id":"1578008822","tag":{"amenity":"recycling","location":"overground","recycling_type":"container"}},"type":"Feature"},
	{"geometry":{"coordinates":[10.72404,52.419073],"type":"Point"},"properties":{"osm_id":"1613044661","tag":{"amenity":"recycling"}},"type":"Feature"},
	{"geometry":{"coordinates":[10.766929,52.410389],"type":"Point"},"properties":{"osm_id":"1626844230","tag":{"amenity":"recycling","recycling_type":"container"}},"type":"Feature"},
	{"geometry":{"coordinates":[10.723112,52.394132],"type":"Point"},"properties":{"osm_id":"1633846440","tag":{"amenity":"waste_basket"}},"type":"Feature"},
	{"geometry":{"coordinates":[10.755056,52.419458],"type":"Point"},"properties":{"osm_id":"1635004410","tag":{"amenity":"waste_basket"}},"type":"Feature"},
	{"geometry":{"coordinates":[10.756313,52.420718],"type":"Point"},"properties":{"osm_id":"1637670086","tag":{"amenity":"waste_basket"}},"type":"Feature"},
	{"geometry":{"coordinates":[10.756952,52.420884],"type":"Point"},"properties":{"osm_id":"1637670089","tag":{"amenity":"waste_basket"}},"type":"Feature"},
	{"geometry":{"coordinates":[10.770875,52.424645],"type":"Point"},"properties":{"osm_id":"1661039824","tag":{"amenity":"recycling","location":"overground","recycling:clothes":"yes","recycling:glass":"yes","recycling_type":"container"}},"type":"Feature"},
	{"geometry":{"coordinates":[10.755235,52.390029],"type":"Point"},"properties":{"osm_id":"1683467885","tag":{"amenity":"recycling","recycling_type":"container"}},"type":"Feature"},
	{"geometry":{"coordinates":[10.765659,52.422094],"type":"Point"},"properties":{"osm_id":"1683919660","tag":{"amenity":"recycling","recycling:clothes":"yes","recycling:glass":"yes","recycling_type":"container"}},"type":"Feature"},
	{"geometry":{"coordinates":[10.742113,52.397124],"type":"Point"},"properties":{"osm_id":"1729296644","tag":{"amenity":"recycling","recycling:clothes":"yes","recycling:glass":"yes","recycling:paper":"yes"}},"type":"Feature"},
	{"geometry":{"coordinates":[10.727787,52.416255],"type":"Point"},"properties":{"osm_id":"1785110457","tag":{"amenity":"recycling","recycling:clothes":"yes","recycling:glass":"yes","recycling:paper":"yes","recycling:shoes":"yes"}},"type":"Feature"},
	{"geometry":{"coordinates":[10.742032,52.380502],"type":"Point"},"properties":{"osm_id":"1847758665","tag":{"amenity":"waste_basket"}},"type":"Feature"},
	{"geometry":{"coordinates":[10.748603,52.38835],"type":"Point"},"properties":{"osm_id":"1990101766","tag":{"amenity":"recycling","recycling:clothes":"yes","recycling_type":"container"}},"type":"Feature"},
	{"geometry":{"coordinates":[10.753924,52.387392],"type":"Point"},"properties":{"osm_id":"2026692122","tag":{"amenity":"recycling","recycling:clothes":"yes","recycling:shoes":"yes"}},"type":"Feature"},
	{"geometry":{"coordinates":[10.754921,52.387971],"type":"Point"},"properties":{"osm_id":"2026692149","tag":{"amenity":"recycling","recycling:clothes":"yes","recycling:glass":"yes","recycling:shoes":"yes","recycling_type":"container"}},"type":"Feature"},
	{"geometry":{"coordinates":[10.804526,52.384019],"type":"Point"},"properties":{"osm_id":"2132432624","tag":{"amenity":"recycling","recycling:cans":"no","recycling:clothes":"no","recycling:glass":"yes","recycling:paper":"no","recycling_type":"container"}},"type":"Feature"},
	{"geometry":{"coordinates":[10.72625,52.395457],"type":"Point"},"properties":{"osm_id":"2132715877","tag":{"amenity":"waste_basket"}},"type":"Feature"},
	{"geometry":{"coordinates":[10.757044,52.393014],"type":"Point"},"properties":{"osm_id":"2153537145","tag":{"amenity":"recycling","recycling:clothes":"yes","recycling:glass":"yes","recycling:shoes":"yes"}},"type":"Feature"},
	{"geometry":{"coordinates":[10.786164,52.404539],"type":"Point"},"properties":{"osm_id":"2204423199","tag":{"amenity":"recycling","recycling:clothes":"yes","recycling:glass":"yes","recycling_type":"container"}},"type":"Feature"},
	{"geometry":{"coordinates":[10.771225,52.426635],"type":"Point"},"properties":{"osm_id":"2212874538","tag":{"amenity":"recycling","recycling:clothes":"yes","recycling:glass":"yes","recycling_type":"container"}},"type":"Feature"},
	{"geometry":{"coordinates":[10.735247,52.402445],"type":"Point"},"properties":{"osm_id":"2296295718","tag":{"amenity":"recycling","recycling:glass":"yes","recycling_type":"container"}},"type":"Feature"},
	{"geometry":{"coordinates":[10.791512,52.428431],"type":"Point"},"properties":{"osm_id":"2299123112","tag":{"amenity":"waste_basket"}},"type":"Feature"},
	{"geometry":{"coordinates":[10.791514,52.428619],"type":"Point"},"properties":{"osm_id":"2299123122","tag":{"amenity":"waste_basket"}},"type":"Feature"},
	{"geometry":{"coordinates":[10.791745,52.428752],"type":"Point"},"properties":{"osm_id":"2299123126","tag":{"amenity":"waste_basket"}},"type":"Feature"},
	{"geometry":{"coordinates":[10.791807,52.429046],"type":"Point"},"properties":{"osm_id":"2299126758","tag":{"amenity":"waste_basket"}},"type":"Feature"},
	{"geometry":{"coordinates":[10.735467,52.407347],"type":"Point"},"properties":{"osm_id":"2317425496","tag":{"amenity":"recycling","recycling:clothes":"yes","recycling:glass":"yes","recycling_type":"container"}},"type":"Feature"},
	{"geometry":{"coordinates":[10.733565,52.40372],"type":"Point"},"properties":{"osm_id":"2323325092","tag":{"amenity":"waste_basket"}},"type":"Feature"},
	{"geometry":{"coordinates":[10.738809,52.403161],"type":"Point"},"properties":{"osm_id":"2326331588","tag":{"amenity":"recycling","recycling:clothes":"yes","recycling:glass":"yes","recycling:newspaper":"yes","recycling:paper":"yes","recycling_type":"container"}},"type":"Feature"},
	{"geometry":{"coordinates":[10.730546,52.393874],"type":"Point"},"properties":{"osm_id":"2429585377","tag":{"amenity":"recycling","recycling:clothes":"yes","recycling:glass":"yes","recycling:shoes":"yes"}},"type":"Feature"},
	{"geometry":{"coordinates":[10.73664,52.400789],"type":"Point"},"properties":{"osm_id":"2479360886","tag":{"amenity":"recycling","recycling:clothes":"yes","recycling:glass":"yes"}},"type":"Feature"},
	{"geometry":{"coordinates":[10.787881,52.423547],"type":"Point"},"properties":{"osm_id":"2967980089","tag":{"amenity":"waste_basket"}},"type":"Feature"},
	{"geometry":{"coordinates":[10.787741,52.423375],"type":"Point"},"properties":{"osm_id":"2967982079","tag":{"amenity":"waste_basket"}},"type":"Feature"},
	{"geometry":{"coordinates":[10.788051,52.423292],"type":"Point"},"properties":{"osm_id":"2967982080","tag":{"amenity":"waste_basket"}},"type":"Feature"},
	{"geometry":{"coordinates":[10.788042,52.423501],"type":"Point"},"properties":{"osm_id":"2967982086","tag":{"amenity":"waste_basket"}},"type":"Feature"},
	{"geometry":{"coordinates":[10.788913,52.424614],"type":"Point"},"properties":{"osm_id":"2967985095","tag":{"amenity":"waste_basket"}},"type":"Feature"},
	{"geometry":{"coordinates":[10.749812,52.38702],"type":"Point"},"properties":{"osm_id":"2973458286","tag":{"amenity":"recycling","recycling:clothes":"yes","recycling_type":"container"}},"type":"Feature"},
	{"geometry":{"coordinates":[10.760407,52.396447],"type":"Point"},"properties":{"osm_id":"3042105809","tag":{"amenity":"recycling","recycling:clothes":"yes","recycling:glass":"yes","recycling:shoes":"yes","recycling_type":"container"}},"type":"Feature"},
	{"geometry":{"coordinates":[10.801586,52.424903],"type":"Point"},"properties":{"osm_id":"3063475440","tag":{"amenity":"waste_basket"}},"type":"Feature"},
	{"geometry":{"coordinates":[10.801266,52.424935],"type":"Point"},"properties":{"osm_id":"3063475443","tag":{"amenity":"waste_basket"}},"type":"Feature"},
	{"geometry":{"coordinates":[10.7989,52.424403],"type":"Point"},"properties":{"osm_id":"3063500140","tag":{"amenity":"waste_basket"}},"type":"Feature"},
	{"geometry":{"coordinates":[10.801279,52.424533],"type":"Point"},"properties":{"osm_id":"3063671406","tag":{"amenity":"waste_basket"}},"type":"Feature"},
	{"geometry":{"coordinates":[10.800082,52.424324],"type":"Point"},"properties":{"osm_id":"3063684151","tag":{"amenity":"waste_basket"}},"type":"Feature"},
	{"geometry":{"coordinates":[10.798936,52.424589],"type":"Point"},"properties":{"osm_id":"3063686079","tag":{"amenity":"waste_basket"}},"type":"Feature"},
	{"geometry":{"coordinates":[10.788932,52.428402],"type":"Point"},"properties":{"osm_id":"3191112247","tag":{"amenity":"waste_basket"}},"type":"Feature"},
	{"geometry":{"coordinates":[10.786036,52.427605],"type":"Point"},"properties":{"osm_id":"3243920567","tag":{"amenity":"waste_basket"}},"type":"Feature"},
	{"geometry":{"coordinates":[10.783165,52.427307],"type":"Point"},"properties":{"osm_id":"3244452370","tag":{"amenity":"waste_basket"}},"type":"Feature"},
	{"geometry":{"coordinates":[10.752078,52.416659],"type":"Point"},"properties":{"osm_id":"3312049956","tag":{"amenity":"waste_basket"}},"type":"Feature"},
	{"geometry":{"coordinates":[10.764371,52.420429],"type":"Point"},"properties":{"osm_id":"3393030894","tag":{"access":"private","amenity":"waste_disposal","operator":"Neuland"}},"type":"Feature"},
	{"geometry":{"coordinates":[10.763911,52.420351],"type":"Point"},"properties":{"osm_id":"3393030895","tag":{"access":"private","amenity":"waste_disposal"}},"type":"Feature"},
	{"geometry":{"coordinates":[10.763262,52.420904],"type":"Point"},"properties":{"osm_id":"3393030900","tag":{"access":"private","amenity":"waste_disposal"}},"type":"Feature"},
	{"geometry":{"coordinates":[10.762682,52.420751],"type":"Point"},"properties":{"osm_id":"3393030901","tag":{"access":"private","amenity":"waste_disposal"}},"type":"Feature"},
	{"geometry":{"coordinates":[10.740881,52.395103],"type":"Point"},"properties":{"osm_id":"4092091102","tag":{"amenity":"waste_basket"}},"type":"Feature"},
	{"geometry":{"coordinates":[10.732441,52.39417],"type":"Point"},"properties":{"osm_id":"4139414329","tag":{"amenity":"waste_basket"}},"type":"Feature"},
	{"geometry":{"coordinates":[10.732544,52.394284],"type":"Point"},"properties":{"osm_id":"4139414338","tag":{"amenity":"waste_basket"}},"type":"Feature"},
	{"geometry":{"coordinates":[10.767368,52.416399],"type":"Point"},"properties":{"osm_id":"4220813392","tag":{"amenity":"waste_basket"}},"type":"Feature"},
	{"geometry":{"coordinates":[10.764134,52.41668],"type":"Point"},"properties":{"osm_id":"4220813394","tag":{"amenity":"waste_basket"}},"type":"Feature"},
	{"geometry":{"coordinates":[10.768217,52.416693],"type":"Point"},"properties":{"osm_id":"4220813397","tag":{"amenity":"waste_basket"}},"type":"Feature"},
	{"geometry":{"coordinates":[10.768504,52.416943],"type":"Point"},"properties":{"osm_id":"4220813402","tag":{"amenity":"waste_basket"}},"type":"Feature"},
	{"geometry":{"coordinates":[10.768156,52.417437],"type":"Point"},"properties":{"osm_id":"4220813407","tag":{"amenity":"waste_basket"}},"type":"Feature"},
	{"geometry":{"coordinates":[10.807585,52.413005],"type":"Point"},"properties":{"osm_id":"4237579370","tag":{"amenity":"waste_basket"}},"type":"Feature"},
	{"geometry":{"coordinates":[10.805921,52.414388],"type":"Point"},"properties":{"osm_id":"4237607591","tag":{"amenity":"recycling","recycling:glass":"yes","recycling_type":"container"}},"type":"Feature"},
	{"geometry":{"coordinates":[10.750288,52.39244],"type":"Point"},"properties":{"osm_id":"4286681970","tag":{"amenity":"waste_basket"}},"type":"Feature"},
	{"geometry":{"coordinates":[10.755227,52.391754],"type":"Point"},"properties":{"osm_id":"4296944087","tag":{"amenity":"waste_basket"}},"type":"Feature"},
	{"geometry":{"coordinates":[10.755247,52.392603],"type":"Point"},"properties":{"osm_id":"4296944289","tag":{"amenity":"waste_basket"}},"type":"Feature"},
	{"geometry":{"coordinates":[10.80024,52.414184],"type":"Point"},"properties":{"osm_id":"4431613300","tag":{"amenity":"waste_basket"}},"type":"Feature"},
	{"geometry":{"coordinates":[10.787994,52.429009],"type":"Point"},"properties":{"osm_id":"4940191085","tag":{"amenity":"waste_basket"}},"type":"Feature"},
	{"geometry":{"coordinates":[10.787725,52.428983],"type":"Point"},"properties":{"osm_id":"4940191086","tag":{"amenity":"waste_basket"}},"type":"Feature"},
	{"geometry":{"coordinates":[10.78784,52.429086],"type":"Point"},"properties":{"osm_id":"4940191088","tag":{"amenity":"waste_basket"}},"type":"Feature"},
	{"geometry":{"coordinates":[10.787961,52.429163],"type":"Point"},"properties":{"osm_id":"4940191090","tag":{"amenity":"waste_basket"}},"type":"Feature"},
	{"geometry":{"coordinates":[10.736812,52.399725],"type":"Point"},"properties":{"osm_id":"5270755423","tag":{"amenity":"waste_basket"}},"type":"Feature"},
	{"geometry":{"coordinates":[10.802631,52.425364],"type":"Point"},"properties":{"osm_id":"5829903686","tag":{"amenity":"waste_basket"}},"type":"Feature"},
	{"geometry":{"coordinates":[10.7858,52.4179],"type":"Point"},"properties":{"osm_id":"6773123684","tag":{"amenity":"recycling","recycling:glass_bottles":"yes","recycling_type":"container"}},"type":"Feature"},
	{"geometry":{"coordinates":[10.743967,52.424756],"type":"Point"},"properties":{"osm_id":"7619565322","tag":{"amenity":"waste_basket"}},"type":"Feature"}
]
}
