{
"type": "FeatureCollection",
"features": [
	{"geometry":{"coordinates":[10.776903,51.833012],"type":"Point"},"properties":{"osm_id":"158866016","tag":{"amenity":"recycling","recycling:clothes":"yes","recycling:glass_bottles":"yes","recycling_type":"container"}},"type":"Feature"},
	{"geometry":{"coordinates":[10.791966,51.827834],"type":"Point"},"properties":{"osm_id":"227574522","tag":{"amenity":"recycling","location":"overground","recycling:clothes":"yes","recycling:glass_bottles":"yes","recycling:shoes":"yes","recycling_type":"container"}},"type":"Feature"},
	{"geometry":{"coordinates":[10.801325,51.824536],"type":"Point"},"properties":{"osm_id":"227574744","tag":{"amenity":"recycling","location":"overground","recycling:clothes":"yes","recycling:glass_bottles":"yes","recycling:shoes":"yes","recycling_type":"container"}},"type":"Feature"},
	{"geometry":{"coordinates":[10.760812,51.835349],"type":"Point"},"properties":{"osm_id":"227751263","tag":{"amenity":"recycling"}},"type":"Feature"},
	{"geometry":{"coordinates":[10.742007,51.818958],"type":"Point"},"properties":{"osm_id":"235616484","tag":{"amenity":"recycling","recycling:clothes":"yes","recycling:glass_bottles":"yes","recycling_type":"container"}},"type":"Feature"},
	{"geometry":{"coordinates":[10.749441,51.820348],"type":"Point"},"properties":{"osm_id":"235616560","tag":{"amenity":"recycling","recycling:clothes":"yes","recycling:glass_bottles":"yes","recycling_type":"container"}},"type":"Feature"},
	{"geometry":{"coordinates":[10.756295,51.825374],"type":"Point"},"properties":{"osm_id":"235616630","tag":{"amenity":"recycling","recycling:clothes":"yes","recycling:glass_bottles":"yes","recycling_type":"container"}},"type":"Feature"},
	{"geometry":{"coordinates":[10.787436,51.830839],"type":"Point"},"properties":{"osm_id":"243082797","tag":{"amenity":"recycling","description":"Altglas","location":"overground","recycling:glass_bottles":"yes","recycling_type":"container"}},"type":"Feature"},
	{"geometry":{"coordinates":[10.793421,51.832643],"type":"Point"},"properties":{"osm_id":"243082836","tag":{"amenity":"recycling","recycling:glass_bottles":"yes","recycling_type":"container"}},"type":"Feature"},
	{"geometry":{"coordinates":[10.795467,51.833037],"type":"Point"},"properties":{"osm_id":"243082845","tag":{"amenity":"recycling","description":"Altkleider","location":"overground","recycling_type":"container"}},"type":"Feature"},
	{"geometry":{"coordinates":[10.782465,51.826267],"type":"Point"},"properties":{"osm_id":"243412551","tag":{"amenity":"recycling","recycling:clothes":"yes","recycling_type":"container"}},"type":"Feature"},
	{"geometry":{"coordinates":[10.754895,51.822527],"type":"Point"},"properties":{"osm_id":"1361541734","tag":{"amenity":"recycling","recycling:clothes":"yes","recycling:glass_bottles":"yes","recycling_type":"container"}},"type":"Feature"},
	{"geometry":{"coordinates":[10.761217,51.826042],"type":"Point"},"properties":{"osm_id":"1774585587","tag":{"amenity":"waste_basket"}},"type":"Feature"},
	{"geometry":{"coordinates":[10.773962,51.827164],"type":"Point"},"properties":{"osm_id":"1957188182","tag":{"amenity":"recycling","recycling:clothes":"yes","recycling:shoes":"yes"}},"type":"Feature"},
	{"geometry":{"coordinates":[10.774001,51.827182],"type":"Point"},"properties":{"osm_id":"1957188185","tag":{"amenity":"recycling","recycling:glass_bottles":"yes","recycling_type":"container"}},"type":"Feature"},
	{"geometry":{"coordinates":[10.773071,51.829645],"type":"Point"},"properties":{"osm_id":"2079744475","tag":{"amenity":"recycling","location":"overground","recycling:clothes":"yes","recycling_type":"container"}},"type":"Feature"},
	{"geometry":{"coordinates":[10.750179,51.820253],"type":"Point"},"properties":{"osm_id":"3156713783","tag":{"amenity":"recycling","recycling:clothes":"yes","recycling_type":"container"}},"type":"Feature"},
	{"geometry":{"coordinates":[10.788972,51.832436],"type":"Point"},"properties":{"osm_id":"4277665189","tag":{"amenity":"waste_basket"}},"type":"Feature"},
	{"geometry":{"coordinates":[10.789045,51.832308],"type":"Point"},"properties":{"osm_id":"4277666172","tag":{"amenity":"waste_basket"}},"type":"Feature"},
	{"geometry":{"coordinates":[10.78423,51.83323],"type":"Point"},"properties":{"osm_id":"4334344912","tag":{"amenity":"waste_basket"}},"type":"Feature"},
	{"geometry":{"coordinates":[10.784233,51.833516],"type":"Point"},"properties":{"osm_id":"4334345027","tag":{"amenity":"waste_basket"}},"type":"Feature"},
	{"geometry":{"coordinates":[10.778279,51.826409],"type":"Point"},"properties":{"osm_id":"4512026985","tag":{"amenity":"waste_disposal"}},"type":"Feature"},
	{"geometry":{"coordinates":[10.783889,51.832882],"type":"Point"},"properties":{"osm_id":"4843763265","tag":{"amenity":"waste_basket"}},"type":"Feature"},
	{"geometry":{"coordinates":[10.732548,51.809866],"type":"Point"},"properties":{"osm_id":"5351487714","tag":{"amenity":"waste_basket"}},"type":"Feature"},
	{"geometry":{"coordinates":[10.789447,51.833699],"type":"Point"},"properties":{"osm_id":"5986663451","tag":{"amenity":"waste_basket","waste":"trash"}},"type":"Feature"},
	{"geometry":{"coordinates":[10.794421,51.830322],"type":"Point"},"properties":{"osm_id":"6039047435","tag":{"amenity":"waste_basket"}},"type":"Feature"},
	{"geometry":{"coordinates":[10.794347,51.83028],"type":"Point"},"properties":{"osm_id":"6039047686","tag":{"amenity":"waste_basket"}},"type":"Feature"},
	{"geometry":{"coordinates":[10.794296,51.830253],"type":"Point"},"properties":{"osm_id":"6039047687","tag":{"amenity":"waste_basket"}},"type":"Feature"},
	{"geometry":{"coordinates":[10.795523,51.831852],"type":"Point"},"properties":{"osm_id":"6039047718","tag":{"amenity":"waste_basket"}},"type":"Feature"},
	{"geometry":{"coordinates":[10.791289,51.832549],"type":"Point"},"properties":{"osm_id":"6039047725","tag":{"amenity":"waste_basket"}},"type":"Feature"},
	{"geometry":{"coordinates":[10.791406,51.832202],"type":"Point"},"properties":{"osm_id":"6039047726","tag":{"amenity":"waste_basket"}},"type":"Feature"},
	{"geometry":{"coordinates":[10.806599,51.825041],"type":"Point"},"properties":{"osm_id":"6039101840","tag":{"amenity":"waste_basket"}},"type":"Feature"},
	{"geometry":{"coordinates":[10.807197,51.826046],"type":"Point"},"properties":{"osm_id":"6039101858","tag":{"amenity":"waste_basket"}},"type":"Feature"},
	{"geometry":{"coordinates":[10.787589,51.834523],"type":"Point"},"properties":{"osm_id":"6041175240","tag":{"amenity":"waste_basket"}},"type":"Feature"},
	{"geometry":{"coordinates":[10.783437,51.831928],"type":"Point"},"properties":{"osm_id":"6743710808","tag":{"amenity":"waste_basket","waste":"trash"}},"type":"Feature"},
	{"geometry":{"coordinates":[10.784788,51.833596],"type":"Point"},"properties":{"osm_id":"6743723016","tag":{"amenity":"waste_basket","waste":"trash"}},"type":"Feature"},
	{"geometry":{"coordinates":[10.787774,51.834095],"type":"Point"},"properties":{"osm_id":"6743803679","tag":{"amenity":"waste_basket","waste":"trash"}},"type":"Feature"},
	{"geometry":{"coordinates":[10.795077,51.83382],"type":"Point"},"properties":{"osm_id":"6743811003","tag":{"amenity":"waste_basket","waste":"trash"}},"type":"Feature"},
	{"geometry":{"coordinates":[10.797441,51.835208],"type":"Point"},"properties":{"osm_id":"6743811105","tag":{"amenity":"waste_basket","waste":"trash"}},"type":"Feature"},
	{"geometry":{"coordinates":[10.797573,51.834669],"type":"Point"},"properties":{"osm_id":"6743811531","tag":{"amenity":"waste_basket","waste":"trash"}},"type":"Feature"},
	{"geometry":{"coordinates":[10.796261,51.833401],"type":"Point"},"properties":{"osm_id":"6743831238","tag":{"amenity":"waste_basket","waste":"trash"}},"type":"Feature"},
	{"geometry":{"coordinates":[10.786129,51.834029],"type":"Point"},"properties":{"osm_id":"7770448546","tag":{"amenity":"waste_basket"}},"type":"Feature"},
	{"geometry":{"coordinates":[10.787105,51.831361],"type":"Point"},"properties":{"osm_id":"7900807924","tag":{"amenity":"waste_basket","colour":"#5b5e5d","material":"steel","waste":"mixed"}},"type":"Feature"}
]
}
