{
"type": "FeatureCollection",
"features": [
	{"geometry":{"coordinates":[10.778338,51.514325],"type":"Point"},"properties":{"osm_id":"933602806","tag":{"amenity":"recycling","recycling:clothes":"yes","recycling:glass":"yes","recycling_type":"container"}},"type":"Feature"},
	{"geometry":{"coordinates":[10.798602,51.512065],"type":"Point"},"properties":{"osm_id":"3711570840","tag":{"addr:city":"Nordhausen","addr:postcode":"99734","addr:street":"Albert-Traeger-Stra\u00c3\u009fe","amenity":"recycling","recycling:clothes":"yes","recycling:glass":"yes"}},"type":"Feature"},
	{"geometry":{"coordinates":[10.804138,51.515688],"type":"Point"},"properties":{"osm_id":"3711570896","tag":{"amenity":"recycling","recycling:clothes":"yes","recycling:glass":"yes"}},"type":"Feature"},
	{"geometry":{"coordinates":[10.80322,51.514557],"type":"Point"},"properties":{"osm_id":"3717008758","tag":{"amenity":"recycling","recycling:glass":"yes"}},"type":"Feature"},
	{"geometry":{"coordinates":[10.798814,51.516791],"type":"Point"},"properties":{"osm_id":"3737059669","tag":{"amenity":"recycling","recycling:clothes":"yes","recycling:glass":"yes"}},"type":"Feature"},
	{"geometry":{"coordinates":[10.802565,51.515498],"type":"Point"},"properties":{"osm_id":"3738754649","tag":{"amenity":"recycling","recycling:glass":"yes"}},"type":"Feature"},
	{"geometry":{"coordinates":[10.774512,51.511549],"type":"Point"},"properties":{"osm_id":"3764236140","tag":{"amenity":"recycling","recycling:clothes":"yes","recycling:glass":"yes","recycling_type":"container"}},"type":"Feature"},
	{"geometry":{"coordinates":[10.778759,51.510753],"type":"Point"},"properties":{"osm_id":"3828504785","tag":{"amenity":"recycling","recycling:glass":"yes"}},"type":"Feature"},
	{"geometry":{"coordinates":[10.780039,51.511116],"type":"Point"},"properties":{"osm_id":"4118400139","tag":{"amenity":"recycling","recycling:cans":"no","recycling:clothes":"yes","recycling:glass":"no","recycling:glass_bottles":"no","recycling:paper":"no","recycling:plastic":"no","recycling_type":"container"}},"type":"Feature"},
	{"geometry":{"coordinates":[10.774769,51.514337],"type":"Point"},"properties":{"osm_id":"4987781679","tag":{"amenity":"recycling","recycling:shoes":"yes","recycling_type":"container"}},"type":"Feature"},
	{"geometry":{"coordinates":[10.77747,51.51196],"type":"Point"},"properties":{"osm_id":"4992015154","tag":{"amenity":"recycling","recycling:clothes":"yes","recycling_type":"container"}},"type":"Feature"},
	{"geometry":{"coordinates":[10.779639,51.511215],"type":"Point"},"properties":{"osm_id":"4993464495","tag":{"amenity":"waste_basket"}},"type":"Feature"},
	{"geometry":{"coordinates":[10.779732,51.510691],"type":"Point"},"properties":{"osm_id":"4993464500","tag":{"amenity":"waste_basket"}},"type":"Feature"},
	{"geometry":{"coordinates":[10.779874,51.509926],"type":"Point"},"properties":{"osm_id":"4993464503","tag":{"amenity":"waste_basket"}},"type":"Feature"},
	{"geometry":{"coordinates":[10.768928,51.517524],"type":"Point"},"properties":{"osm_id":"4993533429","tag":{"amenity":"recycling","recycling:clothes":"yes","recycling:glass":"yes","recycling_type":"container"}},"type":"Feature"},
	{"geometry":{"coordinates":[10.768784,51.517543],"type":"Point"},"properties":{"osm_id":"4993533434","tag":{"amenity":"waste_basket"}},"type":"Feature"},
	{"geometry":{"coordinates":[10.781394,51.512194],"type":"Point"},"properties":{"osm_id":"5035368883","tag":{"amenity":"recycling","recycling:clothes":"yes","recycling_type":"container"}},"type":"Feature"},
	{"geometry":{"coordinates":[10.781264,51.51339],"type":"Point"},"properties":{"osm_id":"5035369650","tag":{"amenity":"recycling","recycling:clothes":"yes","recycling:glass":"yes","recycling_type":"container"}},"type":"Feature"},
	{"geometry":{"coordinates":[10.780486,51.51442],"type":"Point"},"properties":{"osm_id":"5055290593","tag":{"amenity":"recycling","recycling:glass":"yes","recycling_type":"container"}},"type":"Feature"},
	{"geometry":{"coordinates":[10.782462,51.525006],"type":"Point"},"properties":{"osm_id":"5267714471","tag":{"amenity":"recycling","recycling:glass":"yes","recycling_type":"container"}},"type":"Feature"},
	{"geometry":{"coordinates":[10.766095,51.552992],"type":"Point"},"properties":{"osm_id":"5484685937","tag":{"amenity":"waste_basket"}},"type":"Feature"},
	{"geometry":{"coordinates":[10.767215,51.551469],"type":"Point"},"properties":{"osm_id":"5487020079","tag":{"amenity":"waste_basket"}},"type":"Feature"},
	{"geometry":{"coordinates":[10.766567,51.554153],"type":"Point"},"properties":{"osm_id":"5488160585","tag":{"amenity":"waste_basket"}},"type":"Feature"},
	{"geometry":{"coordinates":[10.767749,51.549779],"type":"Point"},"properties":{"osm_id":"5491094225","tag":{"amenity":"waste_basket"}},"type":"Feature"},
	{"geometry":{"coordinates":[10.768032,51.549689],"type":"Point"},"properties":{"osm_id":"5491094226","tag":{"amenity":"waste_basket"}},"type":"Feature"},
	{"geometry":{"coordinates":[10.768281,51.549056],"type":"Point"},"properties":{"osm_id":"5491094255","tag":{"amenity":"waste_basket"}},"type":"Feature"},
	{"geometry":{"coordinates":[10.768573,51.548361],"type":"Point"},"properties":{"osm_id":"5492794313","tag":{"amenity":"waste_basket"}},"type":"Feature"},
	{"geometry":{"coordinates":[10.768678,51.544931],"type":"Point"},"properties":{"osm_id":"5495626991","tag":{"amenity":"waste_basket"}},"type":"Feature"},
	{"geometry":{"coordinates":[10.768529,51.544777],"type":"Point"},"properties":{"osm_id":"5495627722","tag":{"amenity":"waste_basket"}},"type":"Feature"},
	{"geometry":{"coordinates":[10.768431,51.544062],"type":"Point"},"properties":{"osm_id":"5495713498","tag":{"amenity":"waste_basket"}},"type":"Feature"},
	{"geometry":{"coordinates":[10.763217,51.549008],"type":"Point"},"properties":{"osm_id":"5607794069","tag":{"amenity":"waste_basket"}},"type":"Feature"},
	{"geometry":{"coordinates":[10.780781,51.529872],"type":"Point"},"properties":{"osm_id":"5630269774","tag":{"amenity":"recycling","recycling:clothes":"yes","recycling_type":"container"}},"type":"Feature"},
	{"geometry":{"coordinates":[10.772625,51.532647],"type":"Point"},"properties":{"osm_id":"5641222164","tag":{"amenity":"recycling","recycling:clothes":"yes","recycling_type":"container"}},"type":"Feature"},
	{"geometry":{"coordinates":[10.765213,51.546698],"type":"Point"},"properties":{"osm_id":"5654524744","tag":{"amenity":"waste_basket"}},"type":"Feature"},
	{"geometry":{"coordinates":[10.765864,51.550759],"type":"Point"},"properties":{"osm_id":"5671781039","tag":{"amenity":"waste_basket"}},"type":"Feature"},
	{"geometry":{"coordinates":[10.760105,51.552039],"type":"Point"},"properties":{"osm_id":"5671810324","tag":{"amenity":"recycling","recycling:clothes":"yes","recycling:glass":"yes","recycling_type":"container"}},"type":"Feature"},
	{"geometry":{"coordinates":[10.758388,51.552401],"type":"Point"},"properties":{"osm_id":"5671810335","tag":{"amenity":"waste_basket"}},"type":"Feature"},
	{"geometry":{"coordinates":[10.76314,51.546077],"type":"Point"},"properties":{"osm_id":"5674276013","tag":{"amenity":"waste_basket"}},"type":"Feature"},
	{"geometry":{"coordinates":[10.764597,51.544836],"type":"Point"},"properties":{"osm_id":"5674278261","tag":{"amenity":"waste_basket"}},"type":"Feature"},
	{"geometry":{"coordinates":[10.767173,51.543],"type":"Point"},"properties":{"osm_id":"5674323337","tag":{"amenity":"waste_basket"}},"type":"Feature"},
	{"geometry":{"coordinates":[10.768662,51.543933],"type":"Point"},"properties":{"osm_id":"5681249141","tag":{"amenity":"waste_basket"}},"type":"Feature"},
	{"geometry":{"coordinates":[10.76882,51.517938],"type":"Point"},"properties":{"osm_id":"5881362773","tag":{"amenity":"recycling","recycling:glass":"yes","recycling_type":"container"}},"type":"Feature"},
	{"geometry":{"coordinates":[10.768381,51.514762],"type":"Point"},"properties":{"osm_id":"5992641559","tag":{"amenity":"recycling","recycling:clothes":"yes","recycling:glass":"yes","recycling_type":"container"}},"type":"Feature"},
	{"geometry":{"coordinates":[10.79878,51.515921],"type":"Point"},"properties":{"osm_id":"6021717629","tag":{"amenity":"recycling","recycling:clothes":"yes","recycling_type":"container"}},"type":"Feature"},
	{"geometry":{"coordinates":[10.789873,51.508778],"type":"Point"},"properties":{"osm_id":"7822928258","tag":{"amenity":"waste_basket"}},"type":"Feature"},
	{"geometry":{"coordinates":[10.790984,51.508989],"type":"Point"},"properties":{"osm_id":"7822928265","tag":{"amenity":"waste_basket"}},"type":"Feature"},
	{"geometry":{"coordinates":[10.792728,51.508899],"type":"Point"},"properties":{"osm_id":"7822964586","tag":{"amenity":"waste_basket"}},"type":"Feature"}
]
}
