{
"type": "FeatureCollection",
"lastupdate": "2020-07-31T00:00:00Z",
"features": [
	{"geometry":{"coordinates":[10.739413,51.479369],"type":"Point"},"properties":{"osm_id":"1418101614","tag":{"amenity":"recycling"}},"type":"Feature"},
	{"geometry":{"coordinates":[10.808331,51.496375],"type":"Point"},"properties":{"osm_id":"2004487041","tag":{"amenity":"recycling","recycling:batteries":"no","recycling:cans":"yes","recycling:glass":"yes","recycling:paper":"yes","recycling:scrap_metal":"no"}},"type":"Feature"},
	{"geometry":{"coordinates":[10.808854,51.497869],"type":"Point"},"properties":{"osm_id":"2004487172","tag":{"amenity":"recycling","recycling:batteries":"no","recycling:cans":"yes","recycling:glass":"yes","recycling:paper":"yes","recycling:scrap_metal":"no"}},"type":"Feature"},
	{"geometry":{"coordinates":[10.809674,51.497926],"type":"Point"},"properties":{"osm_id":"2004487182","tag":{"amenity":"recycling","recycling:batteries":"no","recycling:cans":"yes","recycling:glass":"yes","recycling:paper":"yes","recycling:scrap_metal":"no"}},"type":"Feature"},
	{"geometry":{"coordinates":[10.800784,51.497495],"type":"Point"},"properties":{"osm_id":"2027816111","tag":{"amenity":"recycling","recycling_type":"container"}},"type":"Feature"},
	{"geometry":{"coordinates":[10.803253,51.497752],"type":"Point"},"properties":{"osm_id":"2027816114","tag":{"amenity":"recycling","recycling:clothes":"yes","recycling_type":"container"}},"type":"Feature"},
	{"geometry":{"coordinates":[10.791254,51.499071],"type":"Point"},"properties":{"osm_id":"2027816115","tag":{"amenity":"recycling","location":"overground","recycling_type":"container"}},"type":"Feature"},
	{"geometry":{"coordinates":[10.789713,51.501206],"type":"Point"},"properties":{"osm_id":"2027816116","tag":{"amenity":"recycling","location":"overground","recycling_type":"container"}},"type":"Feature"},
	{"geometry":{"coordinates":[10.748748,51.464529],"type":"Point"},"properties":{"osm_id":"2064829856","tag":{"amenity":"waste_basket"}},"type":"Feature"},
	{"geometry":{"coordinates":[10.748338,51.464532],"type":"Point"},"properties":{"osm_id":"2064829859","tag":{"amenity":"waste_basket"}},"type":"Feature"},
	{"geometry":{"coordinates":[10.746192,51.467665],"type":"Point"},"properties":{"osm_id":"2076737187","tag":{"amenity":"recycling","recycling:cans":"yes","recycling:clothes":"yes","recycling:glass":"yes","recycling_type":"container"}},"type":"Feature"},
	{"geometry":{"coordinates":[10.769934,51.493311],"type":"Point"},"properties":{"osm_id":"2087539537","tag":{"amenity":"recycling","recycling:cans":"no","recycling:clothes":"yes","recycling:glass":"yes","recycling_type":"container"}},"type":"Feature"},
	{"geometry":{"coordinates":[10.789201,51.504956],"type":"Point"},"properties":{"osm_id":"2357956495","tag":{"amenity":"recycling","recycling:batteries":"no","recycling:books":"no","recycling:cans":"no","recycling:cardboard":"no","recycling:cartons":"no","recycling:clothes":"no","recycling:electrical_appliances":"no","recycling:glass":"yes","recycling:glass_bottles":"yes","recycling:green_waste":"no","recycling:magazines":"no","recycling:paper":"no","recycling:plastic":"no","recycling:plastic_bottles":"no","recycling:plastic_packaging":"no","recycling:scrap_metal":"no","recycling:small_appliances":"no","recycling:waste":"no","recycling:wood":"no","recycling_type":"container"}},"type":"Feature"},
	{"geometry":{"coordinates":[10.798627,51.487623],"type":"Point"},"properties":{"osm_id":"2415357395","tag":{"amenity":"recycling","recycling:batteries":"no","recycling:books":"no","recycling:cans":"no","recycling:cardboard":"no","recycling:cartons":"yes","recycling:clothes":"no","recycling:electrical_appliances":"no","recycling:glass":"no","recycling:glass_bottles":"yes","recycling:green_waste":"no","recycling:magazines":"yes","recycling:newspaper":"yes","recycling:paper":"yes","recycling:paper_packaging":"yes","recycling:plastic":"no","recycling:plastic_bottles":"no","recycling:plastic_packaging":"no","recycling:scrap_metal":"no","recycling:small_appliances":"yes","recycling:waste":"no","recycling:wood":"no","recycling_type":"container"}},"type":"Feature"},
	{"geometry":{"coordinates":[10.799764,51.500073],"type":"Point"},"properties":{"name":"Altpapier Ankauf","osm_id":"3101138471","tag":{"amenity":"recycling","recycling:paper":"yes","recycling_type":"centre"}},"type":"Feature"},
	{"geometry":{"coordinates":[10.794153,51.501018],"type":"Point"},"properties":{"osm_id":"3593108386","tag":{"amenity":"recycling","recycling:glass_bottles":"yes","recycling_type":"container"}},"type":"Feature"},
	{"geometry":{"coordinates":[10.787446,51.507231],"type":"Point"},"properties":{"osm_id":"3658756655","tag":{"amenity":"waste_basket"}},"type":"Feature"},
	{"geometry":{"coordinates":[10.807616,51.505162],"type":"Point"},"properties":{"osm_id":"3722725586","tag":{"addr:city":"Nordhausen","addr:postcode":"99734","addr:street":"Frankenstra\u00dfe","amenity":"recycling","location":"overground","recycling:clothes":"yes","recycling:glass":"yes","recycling_type":"container"}},"type":"Feature"},
	{"geometry":{"coordinates":[10.794506,51.504145],"type":"Point"},"properties":{"osm_id":"3725903734","tag":{"amenity":"recycling","recycling:clothes":"yes","recycling:glass":"yes"}},"type":"Feature"},
	{"geometry":{"coordinates":[10.800453,51.504382],"type":"Point"},"properties":{"osm_id":"3735093268","tag":{"amenity":"recycling","recycling:glass":"yes"}},"type":"Feature"},
	{"geometry":{"coordinates":[10.79837,51.499779],"type":"Point"},"properties":{"osm_id":"3743968722","tag":{"amenity":"recycling","location":"overground","recycling:glass":"yes","recycling_type":"container"}},"type":"Feature"},
	{"geometry":{"coordinates":[10.801947,51.49939],"type":"Point"},"properties":{"osm_id":"3743971645","tag":{"addr:city":"Nordhausen","addr:postcode":"99734","addr:street":"Taschenberg","amenity":"recycling","location":"overground","recycling:glass":"yes","recycling_type":"container"}},"type":"Feature"},
	{"geometry":{"coordinates":[10.798282,51.498849],"type":"Point"},"properties":{"osm_id":"3744308741","tag":{"amenity":"recycling","location":"overground","recycling:glass":"yes","recycling_type":"container"}},"type":"Feature"},
	{"geometry":{"coordinates":[10.784103,51.502956],"type":"Point"},"properties":{"osm_id":"3755539594","tag":{"amenity":"recycling","recycling:clothes":"yes","recycling:glass":"yes"}},"type":"Feature"},
	{"geometry":{"coordinates":[10.785522,51.496317],"type":"Point"},"properties":{"osm_id":"3816724160","tag":{"amenity":"recycling","recycling:glass":"yes"}},"type":"Feature"},
	{"geometry":{"coordinates":[10.808713,51.500363],"type":"Point"},"properties":{"osm_id":"3929942138","tag":{"amenity":"recycling","recycling:clothes":"yes","recycling_type":"container"}},"type":"Feature"},
	{"geometry":{"coordinates":[10.789795,51.503009],"type":"Point"},"properties":{"osm_id":"3964613655","tag":{"amenity":"waste_basket"}},"type":"Feature"},
	{"geometry":{"coordinates":[10.790437,51.502003],"type":"Point"},"properties":{"osm_id":"3964614859","tag":{"amenity":"waste_basket"}},"type":"Feature"},
	{"geometry":{"coordinates":[10.782751,51.498744],"type":"Point"},"properties":{"osm_id":"4135068693","tag":{"amenity":"recycling","recycling:clothes":"yes","recycling:glass_bottles":"yes"}},"type":"Feature"},
	{"geometry":{"coordinates":[10.780294,51.498013],"type":"Point"},"properties":{"osm_id":"4208670255","tag":{"amenity":"recycling","recycling:glass":"yes"}},"type":"Feature"},
	{"geometry":{"coordinates":[10.779945,51.503081],"type":"Point"},"properties":{"osm_id":"4233226037","tag":{"addr:city":"Nordhausen","addr:postcode":"99734","addr:street":"Yorckstra\u00dfe","amenity":"recycling","recycling:glass":"yes","recycling:shoes":"yes"}},"type":"Feature"},
	{"geometry":{"coordinates":[10.779155,51.504172],"type":"Point"},"properties":{"osm_id":"4255955311","tag":{"amenity":"recycling","recycling:glass":"yes"}},"type":"Feature"},
	{"geometry":{"coordinates":[10.80809,51.49873],"type":"Point"},"properties":{"osm_id":"4463308240","tag":{"amenity":"recycling","recycling:glass":"yes"}},"type":"Feature"},
	{"geometry":{"coordinates":[10.801346,51.497525],"type":"Point"},"properties":{"osm_id":"4731690446","tag":{"amenity":"recycling","recycling:clothes":"yes","recycling:glass":"yes","recycling:shoes":"yes","recycling_type":"container"}},"type":"Feature"},
	{"geometry":{"coordinates":[10.80891,51.501605],"type":"Point"},"properties":{"osm_id":"4731925908","tag":{"amenity":"recycling","recycling:clothes":"yes","recycling:glass":"yes","recycling:shoes":"yes","recycling_type":"container"}},"type":"Feature"},
	{"geometry":{"coordinates":[10.804803,51.483725],"type":"Point"},"properties":{"osm_id":"4817467530","tag":{"amenity":"recycling","recycling:glass":"yes","recycling_type":"container"}},"type":"Feature"},
	{"geometry":{"coordinates":[10.802894,51.488646],"type":"Point"},"properties":{"osm_id":"4819899353","tag":{"amenity":"recycling","recycling:batteries":"yes","recycling:glass":"yes","recycling:paper":"yes","recycling_type":"centre"}},"type":"Feature"},
	{"geometry":{"coordinates":[10.799821,51.485656],"type":"Point"},"properties":{"osm_id":"4822003627","tag":{"amenity":"recycling","recycling_type":"centre"}},"type":"Feature"},
	{"geometry":{"coordinates":[10.770009,51.498307],"type":"Point"},"properties":{"osm_id":"4923528751","tag":{"amenity":"recycling","recycling:clothes":"yes","recycling:glass":"yes","recycling:shoes":"yes","recycling_type":"container"}},"type":"Feature"},
	{"geometry":{"coordinates":[10.772658,51.502316],"type":"Point"},"properties":{"name":"Elektroschrott Annahmestelle","osm_id":"5046817489","tag":{"amenity":"recycling","recycling_type":"centre"}},"type":"Feature"},
	{"geometry":{"coordinates":[10.772826,51.504862],"type":"Point"},"properties":{"osm_id":"5050039973","tag":{"amenity":"recycling","recycling:clothes":"yes","recycling_type":"container"}},"type":"Feature"},
	{"geometry":{"coordinates":[10.772365,51.49049],"type":"Point"},"properties":{"osm_id":"5366481783","tag":{"amenity":"recycling","recycling:clothes":"yes","recycling:glass":"yes","recycling_type":"container"}},"type":"Feature"},
	{"geometry":{"coordinates":[10.804818,51.497624],"type":"Point"},"properties":{"osm_id":"5401363553","tag":{"amenity":"recycling","recycling:clothes":"yes","recycling:glass":"yes","recycling_type":"container"}},"type":"Feature"},
	{"geometry":{"coordinates":[10.790908,51.505073],"type":"Point"},"properties":{"osm_id":"5459385181","tag":{"amenity":"waste_basket"}},"type":"Feature"},
	{"geometry":{"coordinates":[10.790276,51.507304],"type":"Point"},"properties":{"osm_id":"5466765872","tag":{"amenity":"waste_basket"}},"type":"Feature"},
	{"geometry":{"coordinates":[10.809633,51.497918],"type":"Point"},"properties":{"osm_id":"5472514178","tag":{"amenity":"waste_basket"}},"type":"Feature"},
	{"geometry":{"coordinates":[10.807111,51.499174],"type":"Point"},"properties":{"osm_id":"5472582476","tag":{"amenity":"waste_basket"}},"type":"Feature"},
	{"geometry":{"coordinates":[10.78135,51.508228],"type":"Point"},"properties":{"osm_id":"6006845771","tag":{"amenity":"waste_basket"}},"type":"Feature"},
	{"geometry":{"coordinates":[10.745291,51.460506],"type":"Point"},"properties":{"osm_id":"6136632164","tag":{"amenity":"waste_basket"}},"type":"Feature"},
	{"geometry":{"coordinates":[10.739774,51.479199],"type":"Point"},"properties":{"osm_id":"6994608923","tag":{"amenity":"recycling","recycling:glass":"yes","recycling_type":"container"}},"type":"Feature"}
]
}
