{
"type": "FeatureCollection",
"features": [
	{"geometry":{"coordinates":[10.72553,50.428696],"type":"Point"},"properties":{"osm_id":"924588325","tag":{"amenity":"recycling"}},"type":"Feature"},
	{"geometry":{"coordinates":[10.740127,50.418047],"type":"Point"},"properties":{"name":"Fa. Koob","osm_id":"2161565739","tag":{"amenity":"recycling"}},"type":"Feature"},
	{"geometry":{"coordinates":[10.745811,50.415328],"type":"Point"},"properties":{"osm_id":"3210118488","tag":{"amenity":"recycling","recycling:glass":"yes","recycling_type":"container"}},"type":"Feature"},
	{"geometry":{"coordinates":[10.745647,50.415334],"type":"Point"},"properties":{"osm_id":"3210118489","tag":{"amenity":"recycling","recycling:clothes":"yes","recycling_type":"container"}},"type":"Feature"},
	{"geometry":{"coordinates":[10.766511,50.418605],"type":"Point"},"properties":{"osm_id":"3932865652","tag":{"amenity":"recycling","recycling:glass":"yes","recycling_type":"container"}},"type":"Feature"},
	{"geometry":{"coordinates":[10.737282,50.430684],"type":"Point"},"properties":{"osm_id":"6067358877","tag":{"amenity":"recycling","recycling:clothes":"yes","recycling:glass_bottles":"yes","recycling_type":"container"}},"type":"Feature"},
	{"geometry":{"coordinates":[10.727634,50.422939],"type":"Point"},"properties":{"osm_id":"6715146977","tag":{"amenity":"waste_basket"}},"type":"Feature"},
	{"geometry":{"coordinates":[10.726288,50.424261],"type":"Point"},"properties":{"osm_id":"6715146979","tag":{"amenity":"waste_basket"}},"type":"Feature"},
	{"geometry":{"coordinates":[10.727457,50.43085],"type":"Point"},"properties":{"osm_id":"7728631219","tag":{"amenity":"recycling","recycling:glass":"yes","recycling_type":"container"}},"type":"Feature"},
	{"geometry":{"coordinates":[10.724415,50.428421],"type":"Point"},"properties":{"osm_id":"7728631377","tag":{"amenity":"recycling","operator":"Deutsches Rotes Kreuz","recycling:clothes":"yes","recycling_type":"container"}},"type":"Feature"},
	{"geometry":{"coordinates":[10.801875,50.407949],"type":"Point"},"properties":{"osm_id":"9037012203","tag":{"amenity":"waste_basket"}},"type":"Feature"},
	{"geometry":{"coordinates":[10.802667,50.407726],"type":"Point"},"properties":{"osm_id":"9037031838","tag":{"amenity":"waste_basket"}},"type":"Feature"},
	{"geometry":{"coordinates":[10.791932,50.408489],"type":"Point"},"properties":{"osm_id":"9037044998","tag":{"amenity":"waste_basket"}},"type":"Feature"}
]
}
