{
"type": "FeatureCollection",
"lastupdate": "2020-08-03T00:00:00Z",
"features": [
	{"geometry":{"coordinates":[10.786305,49.339022],"type":"Point"},"properties":{"osm_id":"507035311","tag":{"amenity":"recycling","recycling:clothes":"yes","recycling:glass":"yes","recycling_type":"container"}},"type":"Feature"},
	{"geometry":{"coordinates":[10.805498,49.344011],"type":"Point"},"properties":{"osm_id":"655245961","tag":{"amenity":"recycling","recycling:cans":"yes","recycling:glass_bottles":"yes","recycling_type":"container"}},"type":"Feature"},
	{"geometry":{"coordinates":[10.783616,49.33075],"type":"Point"},"properties":{"osm_id":"667305426","tag":{"amenity":"recycling","recycling:cans":"yes","recycling:glass_bottles":"yes","recycling_type":"container"}},"type":"Feature"},
	{"geometry":{"coordinates":[10.787981,49.334789],"type":"Point"},"properties":{"osm_id":"667305516","tag":{"amenity":"recycling","recycling:cans":"yes","recycling:clothes":"yes","recycling:glass":"yes","recycling_type":"container"}},"type":"Feature"},
	{"geometry":{"coordinates":[10.79491,49.347152],"type":"Point"},"properties":{"osm_id":"667306164","tag":{"amenity":"recycling","recycling:cans":"yes","recycling:clothes":"yes","recycling:glass_bottles":"yes","recycling_type":"container"}},"type":"Feature"},
	{"geometry":{"coordinates":[10.796803,49.375396],"type":"Point"},"properties":{"osm_id":"736804220","tag":{"amenity":"recycling","recycling:cans":"yes","recycling:glass":"yes","recycling:scrap_metal":"yes"}},"type":"Feature"},
	{"geometry":{"coordinates":[10.787659,49.344202],"type":"Point"},"properties":{"osm_id":"736854340","tag":{"amenity":"recycling","location":"overground","recycling:cans":"yes","recycling:clothes":"yes","recycling:glass":"yes","recycling_type":"container"}},"type":"Feature"},
	{"geometry":{"coordinates":[10.805573,49.344806],"type":"Point"},"properties":{"name":"Wertstoffhof","osm_id":"773864434","tag":{"addr:city":"Heilsbronn","addr:country":"DE","addr:housenumber":"11","addr:postcode":"91560","addr:street":"Bauhofstra\u00dfe","amenity":"recycling","recycling_type":"centre","website":"https://www.heilsbronn.de/index.php?id=356"}},"type":"Feature"},
	{"geometry":{"coordinates":[10.800717,49.349063],"type":"Point"},"properties":{"name":"Autoverwertung Eger","osm_id":"1669844943","tag":{"amenity":"recycling","recycling:scrap_metal":"yes","recycling_type":"centre"}},"type":"Feature"},
	{"geometry":{"coordinates":[10.728532,49.33524],"type":"Point"},"properties":{"osm_id":"4158139631","tag":{"amenity":"recycling","recycling_type":"container"}},"type":"Feature"}
]
}
