{
"type": "FeatureCollection",
"features": [
	{"geometry":{"coordinates":[10.734171,48.175766],"type":"Point"},"properties":{"osm_id":"258842546","tag":{"amenity":"recycling","check_date":"2015-10-26","recycling:cans":"yes","recycling:clothes":"yes","recycling:glass_bottles":"yes","recycling:shoes":"yes","recycling_type":"container"}},"type":"Feature"},
	{"geometry":{"coordinates":[10.751777,48.175801],"type":"Point"},"properties":{"osm_id":"262955695","tag":{"amenity":"recycling","recycling:glass":"yes"}},"type":"Feature"},
	{"geometry":{"coordinates":[10.755629,48.17881],"type":"Point"},"properties":{"osm_id":"271171595","tag":{"amenity":"recycling","recycling:clothes":"yes","recycling:glass":"yes"}},"type":"Feature"},
	{"geometry":{"coordinates":[10.750556,48.172441],"type":"Point"},"properties":{"osm_id":"292122443","tag":{"amenity":"recycling","recycling:batteries":"no","recycling:clothes":"yes","recycling:glass":"yes"}},"type":"Feature"},
	{"geometry":{"coordinates":[10.74526,48.176246],"type":"Point"},"properties":{"osm_id":"956207326","tag":{"amenity":"recycling"}},"type":"Feature"},
	{"geometry":{"coordinates":[10.763787,48.173274],"type":"Point"},"properties":{"osm_id":"1072744320","tag":{"amenity":"recycling","recycling:cans":"yes","recycling:glass":"yes"}},"type":"Feature"},
	{"geometry":{"coordinates":[10.772923,48.194406],"type":"Point"},"properties":{"osm_id":"1185586516","tag":{"amenity":"recycling","recycling:garden_waste":"yes","recycling:green_waste":"yes"}},"type":"Feature"},
	{"geometry":{"coordinates":[10.769032,48.184127],"type":"Point"},"properties":{"osm_id":"1187065878","tag":{"amenity":"recycling","recycling:cans":"yes","recycling:glass_bottles":"yes"}},"type":"Feature"},
	{"geometry":{"coordinates":[10.766672,48.197181],"type":"Point"},"properties":{"osm_id":"1187684920","tag":{"amenity":"recycling","recycling:clothes":"yes","recycling_type":"container"}},"type":"Feature"},
	{"geometry":{"coordinates":[10.764716,48.207538],"type":"Point"},"properties":{"osm_id":"1187684925","tag":{"amenity":"recycling","recycling:cans":"yes","recycling:clothes":"yes","recycling:glass_bottles":"yes"}},"type":"Feature"},
	{"geometry":{"coordinates":[10.743813,48.170634],"type":"Point"},"properties":{"osm_id":"1187693494","tag":{"amenity":"recycling","recycling:cans":"yes","recycling:glass_bottles":"yes","recycling_type":"container"}},"type":"Feature"},
	{"geometry":{"coordinates":[10.745163,48.176973],"type":"Point"},"properties":{"osm_id":"1187702257","tag":{"amenity":"recycling","recycling:cans":"yes","recycling:clothes":"yes","recycling:glass_bottles":"yes"}},"type":"Feature"},
	{"geometry":{"coordinates":[10.754265,48.171905],"type":"Point"},"properties":{"osm_id":"1187703898","tag":{"amenity":"recycling","recycling:cans":"yes","recycling:clothes":"yes","recycling:glass_bottles":"yes"}},"type":"Feature"},
	{"geometry":{"coordinates":[10.755811,48.190849],"type":"Point"},"properties":{"osm_id":"1187706627","tag":{"amenity":"recycling","recycling:cans":"yes","recycling:clothes":"yes","recycling:glass_bottles":"yes"}},"type":"Feature"},
	{"geometry":{"coordinates":[10.755106,48.187539],"type":"Point"},"properties":{"osm_id":"1187710730","tag":{"amenity":"recycling","recycling:cans":"yes","recycling:glass_bottles":"yes"}},"type":"Feature"},
	{"geometry":{"coordinates":[10.809146,48.166321],"type":"Point"},"properties":{"osm_id":"4213515367","tag":{"amenity":"waste_basket","waste":"dog_excrement"}},"type":"Feature"},
	{"geometry":{"coordinates":[10.808559,48.170666],"type":"Point"},"properties":{"osm_id":"4213515373","tag":{"amenity":"waste_basket","waste":"dog_excrement"}},"type":"Feature"},
	{"geometry":{"coordinates":[10.75509,48.178225],"type":"Point"},"properties":{"name":"Altglascontainer","osm_id":"6960179188","tag":{"amenity":"recycling"}},"type":"Feature"},
	{"geometry":{"coordinates":[10.751447,48.175845],"type":"Point"},"properties":{"osm_id":"7288573115","tag":{"amenity":"waste_basket"}},"type":"Feature"},
	{"geometry":{"coordinates":[10.755789,48.195608],"type":"Point"},"properties":{"osm_id":"7339738703","tag":{"amenity":"recycling","recycling:glass":"yes","recycling_type":"container"}},"type":"Feature"},
	{"geometry":{"coordinates":[10.743791,48.170643],"type":"Point"},"properties":{"osm_id":"8423149562","tag":{"amenity":"recycling","operator":"Aktion Hoffnung","recycling:clothes":"yes","recycling:shoes":"yes","recycling_type":"container"}},"type":"Feature"},
	{"geometry":{"coordinates":[10.74021,48.17089],"type":"Point"},"properties":{"osm_id":"8423149568","tag":{"amenity":"waste_basket","waste":"trash"}},"type":"Feature"},
	{"geometry":{"coordinates":[10.767559,48.172976],"type":"Point"},"properties":{"name":"GECO (Gebrauchtes & Co)","osm_id":"8670600072","tag":{"addr:city":"Schwabm\u00c3\u00bcnchen","addr:housenumber":"59","addr:postcode":"86830","addr:street":"Taubentalstra\u00c3\u009fe","amenity":"recycling","description":"Eingang r\u00c3\u00bcckw\u00c3\u00a4rtig \u00c3\u00bcber die Franz-Kleinhansstra\u00c3\u009fe","operator":"Bund Naturschutz in Bayern e.V. - Ortsgruppe Schwabm\u00c3\u00bcnchen","operator:type":"private_non_profit","recycling_type":"centre","website":"https://bn-schwabmuenchen.de/geco"}},"type":"Feature"},
	{"geometry":{"coordinates":[10.758413,48.178336],"type":"Point"},"properties":{"name":"Repair Caf\u00c3\u00a9","osm_id":"8672178488","tag":{"addr:city":"Schwabm\u00c3\u00bcnchen","addr:postcode":"86830","addr:street":"Schrannenplatz","amenity":"recycling","opening_hours":"4-mal im Jahr","operator":"Bund Naturschutz in Bayern e.V. Ortsgruppe Schwabm\u00c3\u00bcnchen und Kolpingfamilie Schwabm\u00c3\u00bcnchen","operator:type":"private_non_profit","recycling_type":"centre"}},"type":"Feature"}
]
}
