{
"type": "FeatureCollection",
"features": [
	{"geometry":{"coordinates":[10.792961,47.971949],"type":"Point"},"properties":{"osm_id":"980675390","tag":{"amenity":"recycling","recycling:glass":"yes"}},"type":"Feature"},
	{"geometry":{"coordinates":[10.793037,47.971948],"type":"Point"},"properties":{"osm_id":"980675601","tag":{"amenity":"recycling","recycling:clothes":"yes","recycling:shoes":"yes"}},"type":"Feature"},
	{"geometry":{"coordinates":[10.769022,47.988816],"type":"Point"},"properties":{"osm_id":"2836514672","tag":{"amenity":"waste_basket","waste":"excrements"}},"type":"Feature"},
	{"geometry":{"coordinates":[10.745092,47.938952],"type":"Point"},"properties":{"osm_id":"4396610965","tag":{"amenity":"waste_basket","waste":"excrements"}},"type":"Feature"},
	{"geometry":{"coordinates":[10.740106,47.951012],"type":"Point"},"properties":{"osm_id":"4396618570","tag":{"amenity":"waste_basket","waste":"excrements"}},"type":"Feature"},
	{"geometry":{"coordinates":[10.786802,47.970842],"type":"Point"},"properties":{"osm_id":"5747748264","tag":{"amenity":"waste_basket","waste":"dog_excrement"}},"type":"Feature"}
]
}
