{
"type": "FeatureCollection",
"features": [
	{"geometry":{"coordinates":[10.793754,47.277914],"type":"Point"},"properties":{"osm_id":"3770040723","tag":{"amenity":"waste_basket"}},"type":"Feature"},
	{"geometry":{"coordinates":[10.746988,47.251591],"type":"Point"},"properties":{"osm_id":"3770040726","tag":{"amenity":"waste_basket"}},"type":"Feature"},
	{"geometry":{"coordinates":[10.782812,47.273376],"type":"Point"},"properties":{"osm_id":"3835335819","tag":{"amenity":"waste_basket"}},"type":"Feature"},
	{"geometry":{"coordinates":[10.775679,47.269213],"type":"Point"},"properties":{"osm_id":"3835345067","tag":{"amenity":"waste_basket"}},"type":"Feature"},
	{"geometry":{"coordinates":[10.771061,47.267316],"type":"Point"},"properties":{"osm_id":"3835345496","tag":{"amenity":"waste_basket"}},"type":"Feature"},
	{"geometry":{"coordinates":[10.769461,47.277316],"type":"Point"},"properties":{"osm_id":"4299156660","tag":{"amenity":"waste_disposal"}},"type":"Feature"},
	{"geometry":{"coordinates":[10.790095,47.276564],"type":"Point"},"properties":{"osm_id":"4827140303","tag":{"amenity":"waste_basket"}},"type":"Feature"},
	{"geometry":{"coordinates":[10.776608,47.26943],"type":"Point"},"properties":{"osm_id":"4827140458","tag":{"amenity":"waste_basket"}},"type":"Feature"},
	{"geometry":{"coordinates":[10.770782,47.267115],"type":"Point"},"properties":{"osm_id":"4827140617","tag":{"amenity":"waste_basket"}},"type":"Feature"},
	{"geometry":{"coordinates":[10.799153,47.278963],"type":"Point"},"properties":{"osm_id":"4827140618","tag":{"amenity":"waste_basket"}},"type":"Feature"},
	{"geometry":{"coordinates":[10.764463,47.265358],"type":"Point"},"properties":{"osm_id":"4923041947","tag":{"amenity":"waste_disposal"}},"type":"Feature"},
	{"geometry":{"coordinates":[10.799056,47.278918],"type":"Point"},"properties":{"osm_id":"5107550310","tag":{"amenity":"waste_basket"}},"type":"Feature"},
	{"geometry":{"coordinates":[10.730807,47.224414],"type":"Point"},"properties":{"osm_id":"5107552957","tag":{"amenity":"waste_basket"}},"type":"Feature"},
	{"geometry":{"coordinates":[10.739227,47.244434],"type":"Point"},"properties":{"osm_id":"5897632688","tag":{"amenity":"waste_basket"}},"type":"Feature"},
	{"geometry":{"coordinates":[10.75873,47.256326],"type":"Point"},"properties":{"osm_id":"5897648168","tag":{"amenity":"waste_basket"}},"type":"Feature"},
	{"geometry":{"coordinates":[10.734151,47.244565],"type":"Point"},"properties":{"osm_id":"7411057386","tag":{"amenity":"waste_basket"}},"type":"Feature"},
	{"geometry":{"coordinates":[10.76311,47.266363],"type":"Point"},"properties":{"osm_id":"7447035742","tag":{"amenity":"waste_basket","colour":"gr\u00c3\u00bcn","material":"steel"}},"type":"Feature"},
	{"geometry":{"coordinates":[10.753795,47.226317],"type":"Point"},"properties":{"osm_id":"7529067785","tag":{"amenity":"waste_basket"}},"type":"Feature"},
	{"geometry":{"coordinates":[10.755185,47.223344],"type":"Point"},"properties":{"osm_id":"7529070288","tag":{"amenity":"waste_basket"}},"type":"Feature"}
]
}
