{
"type": "FeatureCollection",
"features": [
	{"geometry":{"coordinates":[10.724314,45.89018],"type":"Point"},"properties":{"osm_id":"4403383330","tag":{"amenity":"waste_basket","backrest":"yes","material":"wood"}},"type":"Feature"},
	{"geometry":{"coordinates":[10.725688,45.900413],"type":"Point"},"properties":{"osm_id":"6555425124","tag":{"amenity":"recycling","recycling_type":"container"}},"type":"Feature"},
	{"geometry":{"coordinates":[10.802907,45.914291],"type":"Point"},"properties":{"osm_id":"7985752533","tag":{"amenity":"waste_disposal"}},"type":"Feature"},
	{"geometry":{"coordinates":[10.802865,45.914299],"type":"Point"},"properties":{"osm_id":"7985752534","tag":{"amenity":"waste_disposal"}},"type":"Feature"},
	{"geometry":{"coordinates":[10.807735,45.911856],"type":"Point"},"properties":{"osm_id":"7985815421","tag":{"amenity":"waste_disposal"}},"type":"Feature"},
	{"geometry":{"coordinates":[10.80571,45.912605],"type":"Point"},"properties":{"osm_id":"7986638226","tag":{"amenity":"recycling","recycling_type":"container"}},"type":"Feature"},
	{"geometry":{"coordinates":[10.728307,45.908493],"type":"Point"},"properties":{"osm_id":"8841924863","tag":{"amenity":"waste_disposal"}},"type":"Feature"},
	{"geometry":{"coordinates":[10.727534,45.890506],"type":"Point"},"properties":{"osm_id":"8845757359","tag":{"amenity":"waste_disposal"}},"type":"Feature"},
	{"geometry":{"coordinates":[10.727552,45.890519],"type":"Point"},"properties":{"osm_id":"8845757360","tag":{"amenity":"waste_disposal"}},"type":"Feature"},
	{"geometry":{"coordinates":[10.727548,45.890496],"type":"Point"},"properties":{"osm_id":"8845757361","tag":{"amenity":"recycling","recycling_type":"container"}},"type":"Feature"},
	{"geometry":{"coordinates":[10.727571,45.890483],"type":"Point"},"properties":{"osm_id":"8845757362","tag":{"amenity":"recycling","recycling_type":"container"}},"type":"Feature"},
	{"geometry":{"coordinates":[10.727586,45.890496],"type":"Point"},"properties":{"osm_id":"8845757363","tag":{"amenity":"recycling","recycling_type":"container"}},"type":"Feature"},
	{"geometry":{"coordinates":[10.725862,45.900708],"type":"Point"},"properties":{"osm_id":"8869205639","tag":{"amenity":"waste_disposal"}},"type":"Feature"},
	{"geometry":{"coordinates":[10.729688,45.90568],"type":"Point"},"properties":{"osm_id":"8869526220","tag":{"amenity":"waste_disposal"}},"type":"Feature"},
	{"geometry":{"coordinates":[10.729661,45.905697],"type":"Point"},"properties":{"osm_id":"8869526221","tag":{"amenity":"waste_disposal"}},"type":"Feature"},
	{"geometry":{"coordinates":[10.729642,45.905691],"type":"Point"},"properties":{"osm_id":"8869526222","tag":{"amenity":"recycling","recycling_type":"container"}},"type":"Feature"},
	{"geometry":{"coordinates":[10.729669,45.905685],"type":"Point"},"properties":{"osm_id":"8869526223","tag":{"amenity":"recycling","recycling_type":"container"}},"type":"Feature"},
	{"geometry":{"coordinates":[10.729668,45.905667],"type":"Point"},"properties":{"osm_id":"8869526224","tag":{"amenity":"recycling","recycling_type":"container"}},"type":"Feature"},
	{"geometry":{"coordinates":[10.726869,45.912363],"type":"Point"},"properties":{"osm_id":"8882121998","tag":{"amenity":"waste_disposal"}},"type":"Feature"},
	{"geometry":{"coordinates":[10.726875,45.912378],"type":"Point"},"properties":{"osm_id":"8882121999","tag":{"amenity":"waste_disposal"}},"type":"Feature"},
	{"geometry":{"coordinates":[10.726905,45.912378],"type":"Point"},"properties":{"osm_id":"8882122000","tag":{"amenity":"recycling","recycling_type":"container"}},"type":"Feature"},
	{"geometry":{"coordinates":[10.726916,45.912368],"type":"Point"},"properties":{"osm_id":"8882122001","tag":{"amenity":"recycling","recycling_type":"container"}},"type":"Feature"},
	{"geometry":{"coordinates":[10.726912,45.912349],"type":"Point"},"properties":{"osm_id":"8882122002","tag":{"amenity":"recycling","recycling_type":"container"}},"type":"Feature"},
	{"geometry":{"coordinates":[10.72978,45.921609],"type":"Point"},"properties":{"osm_id":"8889841395","tag":{"amenity":"waste_disposal"}},"type":"Feature"},
	{"geometry":{"coordinates":[10.729778,45.921592],"type":"Point"},"properties":{"osm_id":"8889841396","tag":{"amenity":"waste_disposal"}},"type":"Feature"},
	{"geometry":{"coordinates":[10.73,45.912865],"type":"Point"},"properties":{"osm_id":"8897724264","tag":{"amenity":"waste_disposal"}},"type":"Feature"}
]
}
