{
"type": "FeatureCollection",
"features": [
	{"geometry":{"coordinates":[10.75109,45.688528],"type":"Point"},"properties":{"osm_id":"2124628490","tag":{"amenity":"waste_basket"}},"type":"Feature"},
	{"geometry":{"coordinates":[10.75116,45.688907],"type":"Point"},"properties":{"osm_id":"2124628516","tag":{"amenity":"waste_basket"}},"type":"Feature"},
	{"geometry":{"coordinates":[10.751896,45.683278],"type":"Point"},"properties":{"osm_id":"4683309526","tag":{"amenity":"recycling","recycling:cans":"yes","recycling:glass":"no","recycling:glass_bottles":"yes","recycling_type":"container"}},"type":"Feature"},
	{"geometry":{"coordinates":[10.74602,45.679392],"type":"Point"},"properties":{"osm_id":"4683518514","tag":{"amenity":"recycling","recycling:cans":"yes","recycling:glass":"yes","recycling_type":"container"}},"type":"Feature"},
	{"geometry":{"coordinates":[10.72621,45.653787],"type":"Point"},"properties":{"osm_id":"4761558927","tag":{"amenity":"waste_disposal"}},"type":"Feature"},
	{"geometry":{"coordinates":[10.726211,45.653837],"type":"Point"},"properties":{"osm_id":"4761558928","tag":{"amenity":"waste_basket"}},"type":"Feature"},
	{"geometry":{"coordinates":[10.763025,45.703368],"type":"Point"},"properties":{"osm_id":"5129282574","tag":{"amenity":"waste_basket"}},"type":"Feature"},
	{"geometry":{"coordinates":[10.751929,45.683691],"type":"Point"},"properties":{"osm_id":"5761310805","tag":{"amenity":"waste_basket","waste":"trash"}},"type":"Feature"},
	{"geometry":{"coordinates":[10.764682,45.705781],"type":"Point"},"properties":{"osm_id":"5814378981","tag":{"amenity":"recycling","recycling:cardboard":"yes","recycling:paper":"yes","recycling_type":"container"}},"type":"Feature"},
	{"geometry":{"coordinates":[10.764679,45.705777],"type":"Point"},"properties":{"osm_id":"5814386873","tag":{"amenity":"recycling","recycling:waste":"yes","recycling_type":"container"}},"type":"Feature"},
	{"geometry":{"coordinates":[10.76468,45.705779],"type":"Point"},"properties":{"osm_id":"5814386874","tag":{"amenity":"recycling","recycling:plastic":"yes","recycling:plastic_bottles":"yes","recycling:plastic_packaging":"yes","recycling_type":"container"}},"type":"Feature"}
]
}
