{
"type": "FeatureCollection",
"features": [
	{"geometry":{"coordinates":[10.734327,45.633554],"type":"Point"},"properties":{"name":"Isola Ecologica Comunale","osm_id":"685601721","tag":{"amenity":"recycling"}},"type":"Feature"},
	{"geometry":{"coordinates":[10.7925,45.605897],"type":"Point"},"properties":{"osm_id":"4358794217","tag":{"amenity":"waste_basket"}},"type":"Feature"},
	{"geometry":{"coordinates":[10.792127,45.605859],"type":"Point"},"properties":{"osm_id":"4358794218","tag":{"amenity":"waste_basket"}},"type":"Feature"},
	{"geometry":{"coordinates":[10.730357,45.633268],"type":"Point"},"properties":{"osm_id":"4838784194","tag":{"amenity":"recycling","recycling:glass":"yes","recycling_type":"container"}},"type":"Feature"},
	{"geometry":{"coordinates":[10.730007,45.626157],"type":"Point"},"properties":{"osm_id":"4848236671","tag":{"amenity":"recycling","recycling:glass":"yes","recycling:glass_bottles":"yes","recycling_type":"container"}},"type":"Feature"},
	{"geometry":{"coordinates":[10.754445,45.640612],"type":"Point"},"properties":{"osm_id":"4858048658","tag":{"amenity":"recycling","recycling:glass":"yes","recycling:glass_bottles":"yes","recycling_type":"container"}},"type":"Feature"},
	{"geometry":{"coordinates":[10.731097,45.635874],"type":"Point"},"properties":{"osm_id":"6545491570","tag":{"amenity":"waste_basket"}},"type":"Feature"},
	{"geometry":{"coordinates":[10.731179,45.636045],"type":"Point"},"properties":{"osm_id":"6545495926","tag":{"amenity":"waste_basket"}},"type":"Feature"}
]
}
