{
"type": "FeatureCollection",
"features": [
	{"geometry":{"coordinates":[10.73465,45.52993],"type":"Point"},"properties":{"osm_id":"281135435","tag":{"amenity":"recycling","recycling:batteries":"yes","recycling:glass":"yes"}},"type":"Feature"},
	{"geometry":{"coordinates":[10.740084,45.537596],"type":"Point"},"properties":{"name":"Isola Ecologica","osm_id":"835521308","tag":{"addr:city":"Bardolino","addr:postcode":"37011","addr:street":"Strada Campazzi","amenity":"recycling","operator":"Comune di Badolino","recycling_type":"centre"}},"type":"Feature"},
	{"geometry":{"coordinates":[10.756251,45.56644],"type":"Point"},"properties":{"name":"Isola Ecologica Comunale","osm_id":"888986644","tag":{"amenity":"recycling"}},"type":"Feature"},
	{"geometry":{"coordinates":[10.726724,45.554786],"type":"Point"},"properties":{"osm_id":"3521992788","tag":{"amenity":"recycling","recycling:cans":"yes","recycling:glass":"yes","recycling:paper":"yes"}},"type":"Feature"},
	{"geometry":{"coordinates":[10.726745,45.554771],"type":"Point"},"properties":{"osm_id":"3521992789","tag":{"amenity":"waste_disposal","waste":"trash","waste_1":"organic"}},"type":"Feature"},
	{"geometry":{"coordinates":[10.722911,45.542927],"type":"Point"},"properties":{"osm_id":"5647818518","tag":{"amenity":"waste_basket","waste":"trash"}},"type":"Feature"},
	{"geometry":{"coordinates":[10.739619,45.537785],"type":"Point"},"properties":{"barrier":"lift_gate","osm_id":"5730780226","tag":{"access":"private"}},"type":"Feature"},
	{"geometry":{"coordinates":[10.729108,45.546748],"type":"Point"},"properties":{"osm_id":"5865198257","tag":{"amenity":"recycling","recycling:glass":"yes","recycling:paper":"yes","recycling:plastic":"yes","recycling:waste":"yes","recycling_type":"container"}},"type":"Feature"},
	{"geometry":{"coordinates":[10.723096,45.550333],"type":"Point"},"properties":{"osm_id":"6564374817","tag":{"amenity":"waste_basket"}},"type":"Feature"},
	{"geometry":{"coordinates":[10.723278,45.550158],"type":"Point"},"properties":{"osm_id":"6564380822","tag":{"amenity":"waste_basket"}},"type":"Feature"},
	{"geometry":{"coordinates":[10.722851,45.54994],"type":"Point"},"properties":{"osm_id":"6564389611","tag":{"amenity":"waste_basket"}},"type":"Feature"},
	{"geometry":{"coordinates":[10.741796,45.548578],"type":"Point"},"properties":{"osm_id":"6632027518","tag":{"amenity":"waste_basket"}},"type":"Feature"}
]
}
