{
"type": "FeatureCollection",
"features": [
	{"geometry":{"coordinates":[10.726342,45.193563],"type":"Point"},"properties":{"osm_id":"4005826812","tag":{"amenity":"recycling","recycling:batteries":"yes","recycling_type":"container"}},"type":"Feature"},
	{"geometry":{"coordinates":[10.78104,45.151658],"type":"Point"},"properties":{"osm_id":"6448420101","tag":{"amenity":"waste_basket"}},"type":"Feature"},
	{"geometry":{"coordinates":[10.781052,45.151618],"type":"Point"},"properties":{"osm_id":"6448420102","tag":{"amenity":"waste_basket"}},"type":"Feature"},
	{"geometry":{"coordinates":[10.799038,45.151332],"type":"Point"},"properties":{"osm_id":"6535584835","tag":{"amenity":"waste_basket"}},"type":"Feature"},
	{"geometry":{"coordinates":[10.797766,45.153977],"type":"Point"},"properties":{"osm_id":"6540472557","tag":{"amenity":"waste_basket"}},"type":"Feature"},
	{"geometry":{"coordinates":[10.798113,45.161059],"type":"Point"},"properties":{"osm_id":"7105144561","tag":{"amenity":"recycling","recycling:batteries":"yes","recycling_type":"container"}},"type":"Feature"},
	{"geometry":{"coordinates":[10.797521,45.158213],"type":"Point"},"properties":{"osm_id":"8259812129","tag":{"amenity":"waste_basket"}},"type":"Feature"},
	{"geometry":{"coordinates":[10.783411,45.158597],"type":"Point"},"properties":{"osm_id":"8413357712","tag":{"amenity":"recycling","indoor":"yes","recycling:paper":"yes","recycling:plastic":"yes","recycling:waste":"yes","recycling_type":"container"}},"type":"Feature"},
	{"geometry":{"coordinates":[10.783268,45.158535],"type":"Point"},"properties":{"osm_id":"8413357713","tag":{"amenity":"recycling","indoor":"yes","recycling:paper":"yes","recycling:plastic":"yes","recycling:waste":"yes","recycling_type":"container"}},"type":"Feature"}
]
}
