{
"type": "FeatureCollection",
"features": [
	{"geometry":{"coordinates":[6.818601,51.329647],"type":"Point"},"properties":{"highway":"turning_circle","osm_id":"278081051","tag":{"natural":"tree"}},"type":"Feature"},
	{"geometry":{"coordinates":[6.819492,51.329008],"type":"Point"},"properties":{"highway":"turning_circle","osm_id":"278081074","tag":{"natural":"tree"}},"type":"Feature"},
	{"geometry":{"coordinates":[6.820866,51.32912],"type":"Point"},"properties":{"highway":"turning_circle","osm_id":"278081078","tag":{"natural":"tree"}},"type":"Feature"},
	{"geometry":{"coordinates":[6.821472,51.328618],"type":"Point"},"properties":{"highway":"turning_circle","osm_id":"278085205","tag":{"natural":"tree"}},"type":"Feature"},
	{"geometry":{"coordinates":[6.837518,51.333031],"type":"Point"},"properties":{"highway":"turning_circle","osm_id":"286839644","tag":{"natural":"tree"}},"type":"Feature"},
	{"geometry":{"coordinates":[6.851332,51.291579],"type":"Point"},"properties":{"osm_id":"850103241","tag":{"genus":"Platanus","genus:de":"Platane","leaf_type":"broadleaved","natural":"tree"}},"type":"Feature"},
	{"geometry":{"coordinates":[6.851987,51.291479],"type":"Point"},"properties":{"osm_id":"850103244","tag":{"genus":"Platanus","genus:de":"Platane","leaf_type":"broadleaved","natural":"tree"}},"type":"Feature"},
	{"geometry":{"coordinates":[6.852069,51.291388],"type":"Point"},"properties":{"osm_id":"850103247","tag":{"genus":"Platanus","genus:de":"Platane","leaf_type":"broadleaved","natural":"tree"}},"type":"Feature"},
	{"geometry":{"coordinates":[6.851209,51.291611],"type":"Point"},"properties":{"osm_id":"850103265","tag":{"genus":"Platanus","genus:de":"Platane","leaf_type":"broadleaved","natural":"tree"}},"type":"Feature"},
	{"geometry":{"coordinates":[6.852356,51.291385],"type":"Point"},"properties":{"osm_id":"850103269","tag":{"genus":"Platanus","genus:de":"Platane","leaf_type":"broadleaved","natural":"tree"}},"type":"Feature"},
	{"geometry":{"coordinates":[6.851126,51.291699],"type":"Point"},"properties":{"osm_id":"850103274","tag":{"genus":"Platanus","genus:de":"Platane","leaf_type":"broadleaved","natural":"tree"}},"type":"Feature"},
	{"geometry":{"coordinates":[6.850841,51.291707],"type":"Point"},"properties":{"osm_id":"850103279","tag":{"genus":"Platanus","genus:de":"Platane","leaf_type":"broadleaved","natural":"tree"}},"type":"Feature"},
	{"geometry":{"coordinates":[6.851495,51.291605],"type":"Point"},"properties":{"osm_id":"850103293","tag":{"genus":"Platanus","genus:de":"Platane","leaf_type":"broadleaved","natural":"tree"}},"type":"Feature"},
	{"geometry":{"coordinates":[6.851578,51.291515],"type":"Point"},"properties":{"osm_id":"850103298","tag":{"genus":"Platanus","genus:de":"Platane","leaf_type":"broadleaved","natural":"tree"}},"type":"Feature"},
	{"geometry":{"coordinates":[6.850718,51.291738],"type":"Point"},"properties":{"osm_id":"850103311","tag":{"genus":"Platanus","genus:de":"Platane","leaf_type":"broadleaved","natural":"tree"}},"type":"Feature"},
	{"geometry":{"coordinates":[6.851864,51.291511],"type":"Point"},"properties":{"osm_id":"850103319","tag":{"genus":"Platanus","genus:de":"Platane","leaf_type":"broadleaved","natural":"tree"}},"type":"Feature"},
	{"geometry":{"coordinates":[6.851372,51.291636],"type":"Point"},"properties":{"osm_id":"850103326","tag":{"genus":"Platanus","genus:de":"Platane","leaf_type":"broadleaved","natural":"tree"}},"type":"Feature"},
	{"geometry":{"coordinates":[6.852438,51.291292],"type":"Point"},"properties":{"osm_id":"850103328","tag":{"genus":"Platanus","genus:de":"Platane","leaf_type":"broadleaved","natural":"tree"}},"type":"Feature"},
	{"geometry":{"coordinates":[6.851086,51.291643],"type":"Point"},"properties":{"osm_id":"850103336","tag":{"genus":"Platanus","genus:de":"Platane","leaf_type":"broadleaved","natural":"tree"}},"type":"Feature"},
	{"geometry":{"coordinates":[6.851741,51.291542],"type":"Point"},"properties":{"osm_id":"850103339","tag":{"genus":"Platanus","genus:de":"Platane","leaf_type":"broadleaved","natural":"tree"}},"type":"Feature"},
	{"geometry":{"coordinates":[6.851003,51.29173],"type":"Point"},"properties":{"osm_id":"850103347","tag":{"genus":"Platanus","genus:de":"Platane","leaf_type":"broadleaved","natural":"tree"}},"type":"Feature"},
	{"geometry":{"coordinates":[6.850757,51.291793],"type":"Point"},"properties":{"osm_id":"850103367","tag":{"genus":"Platanus","genus:de":"Platane","leaf_type":"broadleaved","natural":"tree"}},"type":"Feature"},
	{"geometry":{"coordinates":[6.851946,51.29142],"type":"Point"},"properties":{"osm_id":"850103368","tag":{"genus":"Platanus","genus:de":"Platane","leaf_type":"broadleaved","natural":"tree"}},"type":"Feature"},
	{"geometry":{"coordinates":[6.850634,51.291824],"type":"Point"},"properties":{"osm_id":"850103369","tag":{"genus":"Platanus","genus:de":"Platane","leaf_type":"broadleaved","natural":"tree"}},"type":"Feature"},
	{"geometry":{"coordinates":[6.852233,51.291417],"type":"Point"},"properties":{"osm_id":"850103372","tag":{"genus":"Platanus","genus:de":"Platane","leaf_type":"broadleaved","natural":"tree"}},"type":"Feature"},
	{"geometry":{"coordinates":[6.851249,51.291668],"type":"Point"},"properties":{"osm_id":"850103381","tag":{"genus":"Platanus","genus:de":"Platane","leaf_type":"broadleaved","natural":"tree"}},"type":"Feature"},
	{"geometry":{"coordinates":[6.852315,51.291324],"type":"Point"},"properties":{"osm_id":"850103384","tag":{"genus":"Platanus","genus:de":"Platane","leaf_type":"broadleaved","natural":"tree"}},"type":"Feature"},
	{"geometry":{"coordinates":[6.851455,51.291547],"type":"Point"},"properties":{"osm_id":"850103389","tag":{"genus":"Platanus","genus:de":"Platane","leaf_type":"broadleaved","natural":"tree"}},"type":"Feature"},
	{"geometry":{"coordinates":[6.852602,51.291323],"type":"Point"},"properties":{"osm_id":"850103412","tag":{"genus":"Platanus","genus:de":"Platane","leaf_type":"broadleaved","natural":"tree"}},"type":"Feature"},
	{"geometry":{"coordinates":[6.852192,51.291356],"type":"Point"},"properties":{"osm_id":"850103415","tag":{"genus":"Platanus","genus:de":"Platane","leaf_type":"broadleaved","natural":"tree"}},"type":"Feature"},
	{"geometry":{"coordinates":[6.852479,51.291354],"type":"Point"},"properties":{"osm_id":"850103416","tag":{"genus":"Platanus","genus:de":"Platane","leaf_type":"broadleaved","natural":"tree"}},"type":"Feature"},
	{"geometry":{"coordinates":[6.851824,51.291452],"type":"Point"},"properties":{"osm_id":"850103427","tag":{"genus":"Platanus","genus:de":"Platane","leaf_type":"broadleaved","natural":"tree"}},"type":"Feature"},
	{"geometry":{"coordinates":[6.850964,51.291675],"type":"Point"},"properties":{"osm_id":"850103432","tag":{"genus":"Platanus","genus:de":"Platane","leaf_type":"broadleaved","natural":"tree"}},"type":"Feature"},
	{"geometry":{"coordinates":[6.85211,51.291448],"type":"Point"},"properties":{"osm_id":"850103438","tag":{"genus":"Platanus","genus:de":"Platane","leaf_type":"broadleaved","natural":"tree"}},"type":"Feature"},
	{"geometry":{"coordinates":[6.851618,51.291574],"type":"Point"},"properties":{"osm_id":"850103441","tag":{"genus":"Platanus","genus:de":"Platane","leaf_type":"broadleaved","natural":"tree"}},"type":"Feature"},
	{"geometry":{"coordinates":[6.851701,51.291484],"type":"Point"},"properties":{"osm_id":"850103445","tag":{"genus":"Platanus","genus:de":"Platane","leaf_type":"broadleaved","natural":"tree"}},"type":"Feature"},
	{"geometry":{"coordinates":[6.85088,51.291762],"type":"Point"},"properties":{"osm_id":"850103456","tag":{"genus":"Platanus","genus:de":"Platane","leaf_type":"broadleaved","natural":"tree"}},"type":"Feature"},
	{"geometry":{"coordinates":[6.809468,51.299776],"type":"Point"},"properties":{"osm_id":"1309519800","tag":{"genus":"Juglans","genus:de":"Walnuss","height":"15 m","leaf_cycle":"deciduous","leaf_type":"broadleaved","name:botanical":"Juglans regia","natural":"tree","species":"Juglans regia","species:de":"Echte Walnuss"}},"type":"Feature"},
	{"geometry":{"coordinates":[6.815521,51.339559],"type":"Point"},"properties":{"osm_id":"1602869240","tag":{"genus":"Quercus","natural":"tree"}},"type":"Feature"},
	{"geometry":{"coordinates":[6.850807,51.305899],"type":"Point"},"properties":{"osm_id":"1621426055","tag":{"natural":"tree"}},"type":"Feature"},
	{"geometry":{"coordinates":[6.850805,51.290799],"type":"Point"},"properties":{"osm_id":"1715827223","tag":{"natural":"tree"}},"type":"Feature"},
	{"geometry":{"coordinates":[6.81556,51.298056],"type":"Point"},"properties":{"osm_id":"1760839513","tag":{"natural":"tree"}},"type":"Feature"},
	{"geometry":{"coordinates":[6.815638,51.298095],"type":"Point"},"properties":{"osm_id":"1760839515","tag":{"natural":"tree"}},"type":"Feature"},
	{"geometry":{"coordinates":[6.815558,51.298116],"type":"Point"},"properties":{"osm_id":"1760839517","tag":{"natural":"tree"}},"type":"Feature"},
	{"geometry":{"coordinates":[6.853219,51.304943],"type":"Point"},"properties":{"osm_id":"2005953359","tag":{"natural":"tree"}},"type":"Feature"},
	{"geometry":{"coordinates":[6.850515,51.296965],"type":"Point"},"properties":{"osm_id":"2009599486","tag":{"natural":"tree"}},"type":"Feature"},
	{"geometry":{"coordinates":[6.847987,51.293331],"type":"Point"},"properties":{"osm_id":"2022546836","tag":{"natural":"tree"}},"type":"Feature"},
	{"geometry":{"coordinates":[6.852561,51.29126],"type":"Point"},"properties":{"osm_id":"2028972104","tag":{"genus":"Platanus","genus:de":"Platane","leaf_type":"broadleaved","natural":"tree"}},"type":"Feature"},
	{"geometry":{"coordinates":[6.850595,51.29177],"type":"Point"},"properties":{"osm_id":"2028972111","tag":{"genus":"Platanus","genus:de":"Platane","leaf_type":"broadleaved","natural":"tree"}},"type":"Feature"},
	{"geometry":{"coordinates":[6.784586,51.330259],"type":"Point"},"properties":{"osm_id":"2466377711","tag":{"natural":"tree"}},"type":"Feature"},
	{"geometry":{"coordinates":[6.784666,51.330278],"type":"Point"},"properties":{"osm_id":"2466377714","tag":{"natural":"tree"}},"type":"Feature"},
	{"geometry":{"coordinates":[6.851082,51.304489],"type":"Point"},"properties":{"osm_id":"2498351813","tag":{"denotation":"urban","leaf_cycle":"deciduous","leaf_type":"broadleaved","natural":"tree","razed:alt_name":"Schlips-Baum","razed:artist":"Yildirim Denizli","razed:description":"Der K\u00c3\u00bcnstler hat die \u00c3\u0084ste des Baumes mit Krawatten verziert.","razed:name":"Krawatten-Baum","razed:tourism":"artwork","species":"Paulownia tomentosa","species:de":"Blauglockenbaum"}},"type":"Feature"},
	{"geometry":{"coordinates":[6.76827,51.341599],"type":"Point"},"properties":{"osm_id":"2640961273","tag":{"natural":"tree"}},"type":"Feature"},
	{"geometry":{"coordinates":[6.851089,51.296131],"type":"Point"},"properties":{"osm_id":"3257471263","tag":{"natural":"tree"}},"type":"Feature"},
	{"geometry":{"coordinates":[6.791817,51.289974],"type":"Point"},"properties":{"osm_id":"3465801773","tag":{"natural":"tree"}},"type":"Feature"},
	{"geometry":{"coordinates":[6.791761,51.290097],"type":"Point"},"properties":{"osm_id":"3465801778","tag":{"natural":"tree"}},"type":"Feature"},
	{"geometry":{"coordinates":[6.791716,51.29024],"type":"Point"},"properties":{"osm_id":"3465801896","tag":{"natural":"tree"}},"type":"Feature"},
	{"geometry":{"coordinates":[6.791101,51.290274],"type":"Point"},"properties":{"osm_id":"3465801904","tag":{"natural":"tree"}},"type":"Feature"},
	{"geometry":{"coordinates":[6.791286,51.290305],"type":"Point"},"properties":{"osm_id":"3465801907","tag":{"natural":"tree"}},"type":"Feature"},
	{"geometry":{"coordinates":[6.7914,51.290315],"type":"Point"},"properties":{"osm_id":"3465801908","tag":{"natural":"tree"}},"type":"Feature"},
	{"geometry":{"coordinates":[6.791485,51.290325],"type":"Point"},"properties":{"osm_id":"3465801909","tag":{"natural":"tree"}},"type":"Feature"},
	{"geometry":{"coordinates":[6.7917,51.290342],"type":"Point"},"properties":{"osm_id":"3465801910","tag":{"natural":"tree"}},"type":"Feature"},
	{"geometry":{"coordinates":[6.794534,51.329418],"type":"Point"},"properties":{"osm_id":"4080776759","tag":{"natural":"tree"}},"type":"Feature"},
	{"geometry":{"coordinates":[6.787016,51.331487],"type":"Point"},"properties":{"osm_id":"4085746010","tag":{"natural":"tree"}},"type":"Feature"},
	{"geometry":{"coordinates":[6.786993,51.331616],"type":"Point"},"properties":{"osm_id":"4085746011","tag":{"natural":"tree"}},"type":"Feature"},
	{"geometry":{"coordinates":[6.788622,51.290924],"type":"Point"},"properties":{"osm_id":"5341170004","tag":{"natural":"tree"}},"type":"Feature"},
	{"geometry":{"coordinates":[6.78848,51.290928],"type":"Point"},"properties":{"osm_id":"5341170005","tag":{"natural":"tree"}},"type":"Feature"},
	{"geometry":{"coordinates":[6.788384,51.290922],"type":"Point"},"properties":{"osm_id":"5341170006","tag":{"natural":"tree"}},"type":"Feature"},
	{"geometry":{"coordinates":[6.788264,51.290918],"type":"Point"},"properties":{"osm_id":"5341170007","tag":{"natural":"tree"}},"type":"Feature"},
	{"geometry":{"coordinates":[6.788495,51.291054],"type":"Point"},"properties":{"osm_id":"5341170008","tag":{"natural":"tree"}},"type":"Feature"},
	{"geometry":{"coordinates":[6.788396,51.29105],"type":"Point"},"properties":{"osm_id":"5341170009","tag":{"natural":"tree"}},"type":"Feature"},
	{"geometry":{"coordinates":[6.78828,51.291048],"type":"Point"},"properties":{"osm_id":"5341170010","tag":{"natural":"tree"}},"type":"Feature"},
	{"geometry":{"coordinates":[6.788032,51.291041],"type":"Point"},"properties":{"osm_id":"5341170011","tag":{"natural":"tree"}},"type":"Feature"},
	{"geometry":{"coordinates":[6.787907,51.291033],"type":"Point"},"properties":{"osm_id":"5341170012","tag":{"natural":"tree"}},"type":"Feature"},
	{"geometry":{"coordinates":[6.787802,51.291033],"type":"Point"},"properties":{"osm_id":"5341170013","tag":{"natural":"tree"}},"type":"Feature"},
	{"geometry":{"coordinates":[6.788043,51.29091],"type":"Point"},"properties":{"osm_id":"5341170014","tag":{"natural":"tree"}},"type":"Feature"},
	{"geometry":{"coordinates":[6.787923,51.290912],"type":"Point"},"properties":{"osm_id":"5341170015","tag":{"natural":"tree"}},"type":"Feature"},
	{"geometry":{"coordinates":[6.787815,51.290918],"type":"Point"},"properties":{"osm_id":"5341170016","tag":{"natural":"tree"}},"type":"Feature"},
	{"geometry":{"coordinates":[6.787558,51.290978],"type":"Point"},"properties":{"osm_id":"5341170017","tag":{"natural":"tree"}},"type":"Feature"},
	{"geometry":{"coordinates":[6.846884,51.298337],"type":"Point"},"properties":{"osm_id":"5655350874","tag":{"natural":"tree"}},"type":"Feature"},
	{"geometry":{"coordinates":[6.771916,51.337304],"type":"Point"},"properties":{"osm_id":"7578024898","tag":{"natural":"tree"}},"type":"Feature"}
]
}
