{
"type": "FeatureCollection",
"features": [
	{"geometry":{"coordinates":[30.473679,59.942189],"type":"Point"},"properties":{"osm_id":"610289389","tag":{"amenity":"waste_disposal"}},"type":"Feature"},
	{"geometry":{"coordinates":[30.474703,59.943043],"type":"Point"},"properties":{"osm_id":"610348173","tag":{"amenity":"waste_disposal"}},"type":"Feature"},
	{"geometry":{"coordinates":[30.470875,59.941449],"type":"Point"},"properties":{"osm_id":"610361241","tag":{"amenity":"waste_disposal"}},"type":"Feature"},
	{"geometry":{"coordinates":[30.471883,59.945609],"type":"Point"},"properties":{"osm_id":"610493981","tag":{"amenity":"waste_disposal"}},"type":"Feature"},
	{"geometry":{"coordinates":[30.433314,59.96332],"type":"Point"},"properties":{"osm_id":"800971558","tag":{"amenity":"waste_disposal"}},"type":"Feature"},
	{"geometry":{"coordinates":[30.43388,59.961092],"type":"Point"},"properties":{"osm_id":"973753202","tag":{"amenity":"waste_disposal"}},"type":"Feature"},
	{"geometry":{"coordinates":[30.41354,59.954035],"type":"Point"},"properties":{"osm_id":"1437443438","tag":{"amenity":"waste_disposal"}},"type":"Feature"},
	{"geometry":{"coordinates":[30.464094,59.945448],"type":"Point"},"properties":{"osm_id":"1718394946","tag":{"amenity":"waste_disposal"}},"type":"Feature"},
	{"geometry":{"coordinates":[30.466089,59.949028],"type":"Point"},"properties":{"osm_id":"1718395276","tag":{"amenity":"waste_disposal"}},"type":"Feature"},
	{"geometry":{"coordinates":[30.469101,59.949814],"type":"Point"},"properties":{"osm_id":"1718395311","tag":{"amenity":"waste_disposal"}},"type":"Feature"},
	{"geometry":{"coordinates":[30.478173,59.950051],"type":"Point"},"properties":{"osm_id":"1725673171","tag":{"amenity":"waste_disposal"}},"type":"Feature"},
	{"geometry":{"coordinates":[30.480317,59.952634],"type":"Point"},"properties":{"osm_id":"1725673339","tag":{"amenity":"waste_disposal"}},"type":"Feature"},
	{"geometry":{"coordinates":[30.419594,59.976507],"type":"Point"},"properties":{"osm_id":"1728171782","tag":{"amenity":"waste_disposal"}},"type":"Feature"},
	{"geometry":{"coordinates":[30.477128,59.950011],"type":"Point"},"properties":{"osm_id":"1882352911","tag":{"amenity":"waste_disposal"}},"type":"Feature"},
	{"geometry":{"coordinates":[30.495422,59.942884],"type":"Point"},"properties":{"osm_id":"2002512626","tag":{"amenity":"waste_disposal","waste":"trash"}},"type":"Feature"},
	{"geometry":{"coordinates":[30.411632,59.947304],"type":"Point"},"properties":{"osm_id":"2088809273","tag":{"amenity":"waste_disposal"}},"type":"Feature"},
	{"geometry":{"coordinates":[30.416828,59.949486],"type":"Point"},"properties":{"osm_id":"2088810407","tag":{"amenity":"waste_disposal"}},"type":"Feature"},
	{"geometry":{"coordinates":[30.415824,59.951297],"type":"Point"},"properties":{"osm_id":"2088811912","tag":{"amenity":"waste_disposal"}},"type":"Feature"},
	{"geometry":{"coordinates":[30.425498,59.951909],"type":"Point"},"properties":{"osm_id":"2088812381","tag":{"amenity":"waste_disposal"}},"type":"Feature"},
	{"geometry":{"coordinates":[30.420164,59.95229],"type":"Point"},"properties":{"osm_id":"2088812822","tag":{"amenity":"waste_disposal"}},"type":"Feature"},
	{"geometry":{"coordinates":[30.417393,59.956574],"type":"Point"},"properties":{"osm_id":"2088815469","tag":{"amenity":"waste_disposal"}},"type":"Feature"},
	{"geometry":{"coordinates":[30.412476,59.958493],"type":"Point"},"properties":{"osm_id":"2088817657","tag":{"amenity":"waste_disposal"}},"type":"Feature"},
	{"geometry":{"coordinates":[30.418652,59.958919],"type":"Point"},"properties":{"osm_id":"2088817944","tag":{"amenity":"waste_disposal"}},"type":"Feature"},
	{"geometry":{"coordinates":[30.473128,59.952489],"type":"Point"},"properties":{"osm_id":"2114897593","tag":{"amenity":"waste_disposal"}},"type":"Feature"},
	{"geometry":{"coordinates":[30.470415,59.954709],"type":"Point"},"properties":{"osm_id":"2114935371","tag":{"amenity":"waste_disposal"}},"type":"Feature"},
	{"geometry":{"coordinates":[30.47024,59.955675],"type":"Point"},"properties":{"osm_id":"2114935386","tag":{"amenity":"waste_disposal"}},"type":"Feature"},
	{"geometry":{"coordinates":[30.414434,59.943145],"type":"Point"},"properties":{"osm_id":"2180142343","tag":{"amenity":"waste_disposal"}},"type":"Feature"},
	{"geometry":{"coordinates":[30.417997,59.943243],"type":"Point"},"properties":{"osm_id":"2180142389","tag":{"amenity":"waste_disposal"}},"type":"Feature"},
	{"geometry":{"coordinates":[30.415776,59.944115],"type":"Point"},"properties":{"osm_id":"2180142682","tag":{"amenity":"waste_disposal"}},"type":"Feature"},
	{"geometry":{"coordinates":[30.417812,59.94527],"type":"Point"},"properties":{"osm_id":"2180143074","tag":{"amenity":"waste_disposal"}},"type":"Feature"},
	{"geometry":{"coordinates":[30.415118,59.946184],"type":"Point"},"properties":{"osm_id":"2180143251","tag":{"amenity":"waste_disposal"}},"type":"Feature"},
	{"geometry":{"coordinates":[30.417418,59.946363],"type":"Point"},"properties":{"osm_id":"2180143293","tag":{"amenity":"waste_disposal"}},"type":"Feature"},
	{"geometry":{"coordinates":[30.420908,59.954456],"type":"Point"},"properties":{"osm_id":"2225631835","tag":{"amenity":"waste_disposal"}},"type":"Feature"},
	{"geometry":{"coordinates":[30.441107,59.956445],"type":"Point"},"properties":{"osm_id":"2318223138","tag":{"amenity":"waste_disposal"}},"type":"Feature"},
	{"geometry":{"coordinates":[30.44101,59.957403],"type":"Point"},"properties":{"osm_id":"2318223170","tag":{"amenity":"waste_disposal"}},"type":"Feature"},
	{"geometry":{"coordinates":[30.474651,59.956286],"type":"Point"},"properties":{"osm_id":"2335052163","tag":{"amenity":"waste_disposal"}},"type":"Feature"},
	{"geometry":{"coordinates":[30.479515,59.955617],"type":"Point"},"properties":{"osm_id":"2335316519","tag":{"amenity":"waste_disposal"}},"type":"Feature"},
	{"geometry":{"coordinates":[30.412082,59.9489],"type":"Point"},"properties":{"osm_id":"2352468908","tag":{"amenity":"waste_disposal"}},"type":"Feature"},
	{"geometry":{"coordinates":[30.413446,59.951186],"type":"Point"},"properties":{"osm_id":"2352468998","tag":{"amenity":"waste_disposal"}},"type":"Feature"},
	{"geometry":{"coordinates":[30.412585,59.95195],"type":"Point"},"properties":{"osm_id":"2352469046","tag":{"amenity":"waste_disposal"}},"type":"Feature"},
	{"geometry":{"coordinates":[30.41124,59.953022],"type":"Point"},"properties":{"osm_id":"2352469093","tag":{"amenity":"waste_disposal"}},"type":"Feature"},
	{"geometry":{"coordinates":[30.411342,59.954231],"type":"Point"},"properties":{"osm_id":"2352469140","tag":{"amenity":"waste_disposal"}},"type":"Feature"},
	{"geometry":{"coordinates":[30.41187,59.957013],"type":"Point"},"properties":{"osm_id":"2357300652","tag":{"amenity":"waste_disposal"}},"type":"Feature"},
	{"geometry":{"coordinates":[30.413966,59.955092],"type":"Point"},"properties":{"osm_id":"2362849185","tag":{"amenity":"waste_basket"}},"type":"Feature"},
	{"geometry":{"coordinates":[30.424787,59.958607],"type":"Point"},"properties":{"osm_id":"2399260206","tag":{"amenity":"waste_disposal"}},"type":"Feature"},
	{"geometry":{"coordinates":[30.431477,59.958967],"type":"Point"},"properties":{"osm_id":"2441919704","tag":{"amenity":"waste_disposal"}},"type":"Feature"},
	{"geometry":{"coordinates":[30.420806,59.962593],"type":"Point"},"properties":{"osm_id":"2751615674","tag":{"amenity":"waste_disposal"}},"type":"Feature"},
	{"geometry":{"coordinates":[30.421161,59.944591],"type":"Point"},"properties":{"name":"\u00d0\u00ad\u00d0\u00ba\u00d0\u00be\u00d0\u00b1\u00d0\u00be\u00d0\u00ba\u00d1\u0081","osm_id":"2928507201","tag":{"amenity":"recycling","recycling:batteries":"yes","recycling:fluorescent_tubes":"yes","recycling:hazardous_waste":"yes","recycling:hydrargyrum":"yes","recycling:low_energy_bulbs":"yes","recycling_type":"container"}},"type":"Feature"},
	{"geometry":{"coordinates":[30.438092,59.972815],"type":"Point"},"properties":{"name":"\u00d0\u009e\u00d0\u0090\u00d0\u009e \u00d0\u00a1\u00d0\u00bf\u00d0\u00b5\u00d1\u0086\u00d1\u0082\u00d1\u0080\u00d0\u00b0\u00d0\u00bd\u00d1\u0081 \u00d0\u0090\u00d0\u00b2\u00d1\u0082\u00d0\u00be\u00d0\u00bf\u00d0\u00b0\u00d1\u0080\u00d0\u00ba N6","osm_id":"2929327005","tag":{"amenity":"recycling","recycling:batteries":"yes","recycling:fluorescent_tubes":"yes","recycling:hazardous_waste":"yes","recycling:hydrargyrum":"yes","recycling:low_energy_bulbs":"yes","recycling_type":"container"}},"type":"Feature"},
	{"geometry":{"coordinates":[30.464643,59.959273],"type":"Point"},"properties":{"name":"\u00d0\u00ad\u00d0\u00ba\u00d0\u00be\u00d0\u00b1\u00d0\u00be\u00d0\u00ba\u00d1\u0081","osm_id":"2929360401","tag":{"amenity":"recycling","recycling:batteries":"yes","recycling:fluorescent_tubes":"yes","recycling:hazardous_waste":"yes","recycling:hydrargyrum":"yes","recycling:low_energy_bulbs":"yes","recycling_type":"container"}},"type":"Feature"},
	{"geometry":{"coordinates":[30.454277,59.954352],"type":"Point"},"properties":{"name":"\u00d0\u00ad\u00d0\u00ba\u00d0\u00be\u00d0\u00b1\u00d0\u00be\u00d0\u00ba\u00d1\u0081","osm_id":"2929360501","tag":{"amenity":"recycling","recycling:batteries":"yes","recycling:fluorescent_tubes":"yes","recycling:hazardous_waste":"yes","recycling:hydrargyrum":"yes","recycling:low_energy_bulbs":"yes","recycling_type":"container"}},"type":"Feature"},
	{"geometry":{"coordinates":[30.41481,59.958292],"type":"Point"},"properties":{"name":"\u00d0\u00ad\u00d0\u00ba\u00d0\u00be\u00d0\u00b1\u00d0\u00be\u00d0\u00ba\u00d1\u0081","osm_id":"2929360601","tag":{"amenity":"recycling","opening_hours":"Tu 10:00-13:00; Th 14:00-17:00","recycling:batteries":"yes","recycling:fluorescent_tubes":"yes","recycling:hazardous_waste":"yes","recycling:hydrargyrum":"yes","recycling:low_energy_bulbs":"yes","recycling_type":"container"}},"type":"Feature"},
	{"geometry":{"coordinates":[30.47881,59.943639],"type":"Point"},"properties":{"name":"\u00d0\u00ad\u00d0\u00ba\u00d0\u00be\u00d0\u00b1\u00d0\u00be\u00d0\u00ba\u00d1\u0081","osm_id":"2929360801","tag":{"amenity":"recycling","recycling:batteries":"yes","recycling:fluorescent_tubes":"yes","recycling:hazardous_waste":"yes","recycling:hydrargyrum":"yes","recycling:low_energy_bulbs":"yes","recycling_type":"container"}},"type":"Feature"},
	{"geometry":{"coordinates":[30.416434,59.960776],"type":"Point"},"properties":{"osm_id":"2973726433","tag":{"amenity":"waste_disposal"}},"type":"Feature"},
	{"geometry":{"coordinates":[30.419766,59.961032],"type":"Point"},"properties":{"osm_id":"2973726443","tag":{"amenity":"waste_disposal"}},"type":"Feature"},
	{"geometry":{"coordinates":[30.413767,59.93332],"type":"Point"},"properties":{"osm_id":"2976250506","tag":{"amenity":"waste_disposal"}},"type":"Feature"},
	{"geometry":{"coordinates":[30.497655,59.949927],"type":"Point"},"properties":{"osm_id":"3668275638","tag":{"amenity":"waste_disposal"}},"type":"Feature"},
	{"geometry":{"coordinates":[30.444295,59.95851],"type":"Point"},"properties":{"osm_id":"4187148109","tag":{"amenity":"waste_basket"}},"type":"Feature"},
	{"geometry":{"coordinates":[30.444639,59.958899],"type":"Point"},"properties":{"osm_id":"4187148138","tag":{"amenity":"waste_disposal"}},"type":"Feature"},
	{"geometry":{"coordinates":[30.462202,59.933195],"type":"Point"},"properties":{"osm_id":"4307341596","tag":{"amenity":"waste_disposal"}},"type":"Feature"},
	{"geometry":{"coordinates":[30.438842,59.956949],"type":"Point"},"properties":{"osm_id":"4323550298","tag":{"amenity":"waste_basket"}},"type":"Feature"},
	{"geometry":{"coordinates":[30.438876,59.957199],"type":"Point"},"properties":{"osm_id":"4323550305","tag":{"amenity":"waste_basket"}},"type":"Feature"},
	{"geometry":{"coordinates":[30.439019,59.957877],"type":"Point"},"properties":{"osm_id":"4323550322","tag":{"amenity":"waste_basket"}},"type":"Feature"},
	{"geometry":{"coordinates":[30.438882,59.957953],"type":"Point"},"properties":{"osm_id":"4323550326","tag":{"amenity":"waste_basket"}},"type":"Feature"},
	{"geometry":{"coordinates":[30.439039,59.958124],"type":"Point"},"properties":{"osm_id":"4323550334","tag":{"amenity":"waste_basket"}},"type":"Feature"},
	{"geometry":{"coordinates":[30.43892,59.95819],"type":"Point"},"properties":{"osm_id":"4323550337","tag":{"amenity":"waste_basket"}},"type":"Feature"},
	{"geometry":{"coordinates":[30.438961,59.958434],"type":"Point"},"properties":{"osm_id":"4323550356","tag":{"amenity":"waste_basket"}},"type":"Feature"},
	{"geometry":{"coordinates":[30.449615,59.968283],"type":"Point"},"properties":{"name":"\u00d0\u0092\u00d0\u00be\u00d0\u00bb\u00d0\u00be\u00d0\u00b3\u00d0\u00be\u00d0\u00b4\u00d1\u0081\u00d0\u00ba\u00d0\u00b8\u00d0\u00b9 \u00d0\u00b0\u00d0\u00ba\u00d0\u00ba\u00d1\u0083\u00d0\u00bc\u00d1\u0083\u00d0\u00bb\u00d1\u008f\u00d1\u0082\u00d0\u00be\u00d1\u0080\u00d0\u00bd\u00d1\u008b\u00d0\u00b9 \u00d0\u00b7\u00d0\u00b0\u00d0\u00b2\u00d0\u00be\u00d0\u00b4","osm_id":"4351301608","tag":{"amenity":"recycling","phone":"+7 812 9932006","recycling:batteries":"yes","recycling:electrical_items":"yes","website":"http://vaz-vologda.ru"}},"type":"Feature"},
	{"geometry":{"coordinates":[30.467187,59.951572],"type":"Point"},"properties":{"osm_id":"4370707545","tag":{"amenity":"waste_basket"}},"type":"Feature"},
	{"geometry":{"coordinates":[30.466923,59.951809],"type":"Point"},"properties":{"osm_id":"4370707550","tag":{"amenity":"waste_basket"}},"type":"Feature"},
	{"geometry":{"coordinates":[30.466723,59.951992],"type":"Point"},"properties":{"osm_id":"4370707556","tag":{"amenity":"waste_basket"}},"type":"Feature"},
	{"geometry":{"coordinates":[30.466774,59.952144],"type":"Point"},"properties":{"osm_id":"4370707561","tag":{"amenity":"waste_basket"}},"type":"Feature"},
	{"geometry":{"coordinates":[30.467645,59.952323],"type":"Point"},"properties":{"osm_id":"4370707566","tag":{"amenity":"waste_disposal"}},"type":"Feature"},
	{"geometry":{"coordinates":[30.466988,59.952338],"type":"Point"},"properties":{"osm_id":"4370707568","tag":{"amenity":"waste_basket"}},"type":"Feature"},
	{"geometry":{"coordinates":[30.467195,59.952541],"type":"Point"},"properties":{"osm_id":"4370707575","tag":{"amenity":"waste_basket"}},"type":"Feature"},
	{"geometry":{"coordinates":[30.467345,59.952732],"type":"Point"},"properties":{"osm_id":"4370707581","tag":{"amenity":"waste_basket"}},"type":"Feature"},
	{"geometry":{"coordinates":[30.467301,59.953169],"type":"Point"},"properties":{"osm_id":"4370713197","tag":{"amenity":"waste_basket"}},"type":"Feature"},
	{"geometry":{"coordinates":[30.466876,59.953543],"type":"Point"},"properties":{"osm_id":"4370713202","tag":{"amenity":"waste_basket"}},"type":"Feature"},
	{"geometry":{"coordinates":[30.466688,59.953717],"type":"Point"},"properties":{"osm_id":"4370713208","tag":{"amenity":"waste_basket"}},"type":"Feature"},
	{"geometry":{"coordinates":[30.466472,59.953914],"type":"Point"},"properties":{"osm_id":"4370713231","tag":{"amenity":"waste_basket"}},"type":"Feature"},
	{"geometry":{"coordinates":[30.486884,59.936856],"type":"Point"},"properties":{"osm_id":"4408006181","tag":{"amenity":"waste_disposal"}},"type":"Feature"},
	{"geometry":{"coordinates":[30.487113,59.936863],"type":"Point"},"properties":{"osm_id":"4408006182","tag":{"amenity":"waste_basket"}},"type":"Feature"},
	{"geometry":{"coordinates":[30.487187,59.937078],"type":"Point"},"properties":{"osm_id":"4408006185","tag":{"amenity":"waste_basket"}},"type":"Feature"},
	{"geometry":{"coordinates":[30.487254,59.93729],"type":"Point"},"properties":{"osm_id":"4408006188","tag":{"amenity":"waste_basket"}},"type":"Feature"},
	{"geometry":{"coordinates":[30.48732,59.937506],"type":"Point"},"properties":{"osm_id":"4408006191","tag":{"amenity":"waste_basket"}},"type":"Feature"},
	{"geometry":{"coordinates":[30.487535,59.937835],"type":"Point"},"properties":{"osm_id":"4408006201","tag":{"amenity":"waste_basket"}},"type":"Feature"},
	{"geometry":{"coordinates":[30.48723,59.937986],"type":"Point"},"properties":{"osm_id":"4408006204","tag":{"amenity":"waste_basket"}},"type":"Feature"},
	{"geometry":{"coordinates":[30.486933,59.938138],"type":"Point"},"properties":{"osm_id":"4408006207","tag":{"amenity":"waste_basket"}},"type":"Feature"},
	{"geometry":{"coordinates":[30.486623,59.93829],"type":"Point"},"properties":{"osm_id":"4408006212","tag":{"amenity":"waste_basket"}},"type":"Feature"},
	{"geometry":{"coordinates":[30.486083,59.938512],"type":"Point"},"properties":{"osm_id":"4408006223","tag":{"amenity":"waste_basket"}},"type":"Feature"},
	{"geometry":{"coordinates":[30.485658,59.938551],"type":"Point"},"properties":{"osm_id":"4408006227","tag":{"amenity":"waste_basket"}},"type":"Feature"},
	{"geometry":{"coordinates":[30.485234,59.938588],"type":"Point"},"properties":{"osm_id":"4408006230","tag":{"amenity":"waste_basket"}},"type":"Feature"},
	{"geometry":{"coordinates":[30.411685,59.946459],"type":"Point"},"properties":{"osm_id":"4427585103","tag":{"amenity":"recycling","contact:email":"info@ecospb.com","contact:website":"www.ecospb.com","description":"\u00d0\u00a0\u00d1\u0082\u00d1\u0083\u00d1\u0082\u00d0\u00bd\u00d1\u008b\u00d0\u00b5 \u00d1\u0082\u00d1\u0080\u00d0\u00b5\u00d0\u00bc\u00d0\u00be\u00d0\u00bc\u00d0\u00b5\u00d1\u0082\u00d1\u0080\u00d1\u008b, \u00d0\u00bb\u00d0\u00b0\u00d0\u00bc\u00d0\u00bf\u00d1\u008b, \u00d0\u00b1\u00d0\u00b0\u00d1\u0082\u00d0\u00b0\u00d1\u0080\u00d0\u00b5\u00d0\u00b9\u00d0\u00ba\u00d0\u00b8","operator":"\u00d0\u00a1\u00d0\u009f\u00d0\u0091 \u00d0\u009c\u00d0\u009f\u00d0\u0093\u00d0\u00a3\u00d0\u009f \"\u00d0\u00ad\u00d0\u00ba\u00d0\u00be\u00d1\u0081\u00d1\u0082\u00d1\u0080\u00d0\u00be\u00d0\u00b9\"","phone":"+7 812 3253261;+7 812 3253262","recycling:batteries":"yes","recycling:electrical_appliances":"yes","recycling:glass_bottles":"no","recycling:plastic":"no","recycling_type":"container"}},"type":"Feature"},
	{"geometry":{"coordinates":[30.438093,59.9409],"type":"Point"},"properties":{"osm_id":"4474591831","tag":{"amenity":"waste_disposal"}},"type":"Feature"},
	{"geometry":{"coordinates":[30.411969,59.934229],"type":"Point"},"properties":{"osm_id":"4476172045","tag":{"amenity":"waste_disposal"}},"type":"Feature"},
	{"geometry":{"coordinates":[30.481871,59.959476],"type":"Point"},"properties":{"osm_id":"4795019285","tag":{"amenity":"waste_basket"}},"type":"Feature"},
	{"geometry":{"coordinates":[30.482302,59.959604],"type":"Point"},"properties":{"osm_id":"4795019287","tag":{"amenity":"waste_basket"}},"type":"Feature"},
	{"geometry":{"coordinates":[30.481532,59.959402],"type":"Point"},"properties":{"osm_id":"4795019289","tag":{"amenity":"waste_basket"}},"type":"Feature"},
	{"geometry":{"coordinates":[30.481154,59.959299],"type":"Point"},"properties":{"osm_id":"4795019290","tag":{"amenity":"waste_basket"}},"type":"Feature"},
	{"geometry":{"coordinates":[30.475094,59.9524],"type":"Point"},"properties":{"osm_id":"4799790359","tag":{"amenity":"waste_basket"}},"type":"Feature"},
	{"geometry":{"coordinates":[30.474622,59.952292],"type":"Point"},"properties":{"osm_id":"4799790361","tag":{"amenity":"waste_basket"}},"type":"Feature"},
	{"geometry":{"coordinates":[30.474193,59.952179],"type":"Point"},"properties":{"osm_id":"4799790362","tag":{"amenity":"waste_basket"}},"type":"Feature"},
	{"geometry":{"coordinates":[30.472697,59.951783],"type":"Point"},"properties":{"osm_id":"4799790371","tag":{"amenity":"waste_basket"}},"type":"Feature"},
	{"geometry":{"coordinates":[30.473238,59.951924],"type":"Point"},"properties":{"osm_id":"4799790372","tag":{"amenity":"waste_basket"}},"type":"Feature"},
	{"geometry":{"coordinates":[30.472925,59.952173],"type":"Point"},"properties":{"osm_id":"4799790375","tag":{"amenity":"waste_basket"}},"type":"Feature"},
	{"geometry":{"coordinates":[30.472577,59.952103],"type":"Point"},"properties":{"osm_id":"4799790376","tag":{"amenity":"waste_basket"}},"type":"Feature"},
	{"geometry":{"coordinates":[30.472434,59.952245],"type":"Point"},"properties":{"osm_id":"4799790378","tag":{"amenity":"waste_basket"}},"type":"Feature"},
	{"geometry":{"coordinates":[30.471848,59.952542],"type":"Point"},"properties":{"osm_id":"4799790409","tag":{"amenity":"waste_basket"}},"type":"Feature"},
	{"geometry":{"coordinates":[30.471626,59.952756],"type":"Point"},"properties":{"osm_id":"4799790414","tag":{"amenity":"waste_basket"}},"type":"Feature"},
	{"geometry":{"coordinates":[30.471412,59.952962],"type":"Point"},"properties":{"osm_id":"4799790419","tag":{"amenity":"waste_basket"}},"type":"Feature"},
	{"geometry":{"coordinates":[30.47119,59.953174],"type":"Point"},"properties":{"osm_id":"4799791924","tag":{"amenity":"waste_basket"}},"type":"Feature"},
	{"geometry":{"coordinates":[30.470967,59.953386],"type":"Point"},"properties":{"osm_id":"4799791929","tag":{"amenity":"waste_basket"}},"type":"Feature"},
	{"geometry":{"coordinates":[30.470746,59.953599],"type":"Point"},"properties":{"osm_id":"4799791934","tag":{"amenity":"waste_basket"}},"type":"Feature"},
	{"geometry":{"coordinates":[30.470531,59.953806],"type":"Point"},"properties":{"osm_id":"4799791939","tag":{"amenity":"waste_basket"}},"type":"Feature"},
	{"geometry":{"coordinates":[30.470311,59.954019],"type":"Point"},"properties":{"osm_id":"4799791944","tag":{"amenity":"waste_basket"}},"type":"Feature"},
	{"geometry":{"coordinates":[30.470087,59.954231],"type":"Point"},"properties":{"osm_id":"4799791949","tag":{"amenity":"waste_basket"}},"type":"Feature"},
	{"geometry":{"coordinates":[30.469874,59.954438],"type":"Point"},"properties":{"osm_id":"4799791954","tag":{"amenity":"waste_basket"}},"type":"Feature"},
	{"geometry":{"coordinates":[30.469653,59.954654],"type":"Point"},"properties":{"osm_id":"4799791955","tag":{"amenity":"waste_basket"}},"type":"Feature"},
	{"geometry":{"coordinates":[30.470323,59.95472],"type":"Point"},"properties":{"osm_id":"4799792160","tag":{"amenity":"recycling","recycling:batteries":"yes","recycling:low_energy_bulbs":"yes","recycling:thermometers":"yes","recycling_type":"container"}},"type":"Feature"},
	{"geometry":{"coordinates":[30.472136,59.954917],"type":"Point"},"properties":{"osm_id":"4799792161","tag":{"amenity":"waste_basket"}},"type":"Feature"},
	{"geometry":{"coordinates":[30.471809,59.954921],"type":"Point"},"properties":{"osm_id":"4799792162","tag":{"amenity":"waste_basket"}},"type":"Feature"},
	{"geometry":{"coordinates":[30.47146,59.95508],"type":"Point"},"properties":{"osm_id":"4799792165","tag":{"amenity":"waste_basket"}},"type":"Feature"},
	{"geometry":{"coordinates":[30.471092,59.95508],"type":"Point"},"properties":{"osm_id":"4799792166","tag":{"amenity":"waste_basket"}},"type":"Feature"},
	{"geometry":{"coordinates":[30.470772,59.95508],"type":"Point"},"properties":{"osm_id":"4799792168","tag":{"amenity":"waste_basket"}},"type":"Feature"},
	{"geometry":{"coordinates":[30.472542,59.954281],"type":"Point"},"properties":{"osm_id":"4799792180","tag":{"amenity":"waste_basket"}},"type":"Feature"},
	{"geometry":{"coordinates":[30.472842,59.954176],"type":"Point"},"properties":{"osm_id":"4799792181","tag":{"amenity":"waste_basket"}},"type":"Feature"},
	{"geometry":{"coordinates":[30.472246,59.954328],"type":"Point"},"properties":{"osm_id":"4799792186","tag":{"amenity":"waste_basket"}},"type":"Feature"},
	{"geometry":{"coordinates":[30.471855,59.95433],"type":"Point"},"properties":{"osm_id":"4799792187","tag":{"amenity":"waste_basket"}},"type":"Feature"},
	{"geometry":{"coordinates":[30.4715,59.954336],"type":"Point"},"properties":{"osm_id":"4799792188","tag":{"amenity":"waste_basket"}},"type":"Feature"},
	{"geometry":{"coordinates":[30.471423,59.954633],"type":"Point"},"properties":{"osm_id":"4799792197","tag":{"amenity":"waste_basket"}},"type":"Feature"},
	{"geometry":{"coordinates":[30.471404,59.954527],"type":"Point"},"properties":{"osm_id":"4799792198","tag":{"amenity":"waste_basket"}},"type":"Feature"},
	{"geometry":{"coordinates":[30.471356,59.954369],"type":"Point"},"properties":{"osm_id":"4799792199","tag":{"amenity":"waste_basket"}},"type":"Feature"},
	{"geometry":{"coordinates":[30.491647,59.957631],"type":"Point"},"properties":{"osm_id":"4956944121","tag":{"amenity":"waste_disposal"}},"type":"Feature"},
	{"geometry":{"coordinates":[30.431563,59.956979],"type":"Point"},"properties":{"osm_id":"5097853575","tag":{"amenity":"waste_disposal"}},"type":"Feature"},
	{"geometry":{"coordinates":[30.436415,59.938954],"type":"Point"},"properties":{"osm_id":"5690166246","tag":{"amenity":"waste_disposal"}},"type":"Feature"},
	{"geometry":{"coordinates":[30.439214,59.937155],"type":"Point"},"properties":{"osm_id":"5693811749","tag":{"amenity":"waste_disposal"}},"type":"Feature"},
	{"geometry":{"coordinates":[30.436705,59.937024],"type":"Point"},"properties":{"osm_id":"5950035058","tag":{"amenity":"waste_disposal"}},"type":"Feature"},
	{"geometry":{"coordinates":[30.414452,59.943101],"type":"Point"},"properties":{"osm_id":"6013056110","tag":{"amenity":"recycling","description":"\u00d0\u009a\u00d0\u00be\u00d0\u00bd\u00d1\u0082\u00d0\u00b5\u00d0\u00b9\u00d0\u00bd\u00d0\u00b5\u00d1\u0080 \u00d0\u00b4\u00d0\u00bb\u00d1\u008f \u00d0\u00bf\u00d0\u00bb\u00d0\u00b0\u00d1\u0081\u00d1\u0082\u00d0\u00b8\u00d0\u00ba\u00d0\u00b0 \u00d1\u0081 \u00d0\u00bc\u00d0\u00b0\u00d1\u0080\u00d0\u00ba\u00d0\u00b8\u00d1\u0080\u00d0\u00be\u00d0\u00b2\u00d0\u00ba\u00d0\u00be\u00d0\u00b9 1 \u00d0\u00b8 2","recycling:cans":"yes","recycling_type":"container"}},"type":"Feature"},
	{"geometry":{"coordinates":[30.414474,59.943135],"type":"Point"},"properties":{"osm_id":"6013056111","tag":{"amenity":"recycling","description":"\u00d0\u009a\u00d0\u00be\u00d0\u00bd\u00d1\u0082\u00d0\u00b5\u00d0\u00b9\u00d0\u00bd\u00d0\u00b5\u00d1\u0080 \u00d0\u00b4\u00d0\u00bb\u00d1\u008f \u00d0\u00bc\u00d0\u00b5\u00d1\u0082\u00d0\u00b0\u00d0\u00bb\u00d0\u00bb\u00d0\u00b0 (\u00d0\u00b0\u00d0\u00bb\u00d1\u008e\u00d0\u00bc\u00d0\u00b8\u00d0\u00bd\u00d0\u00b8\u00d0\u00b5\u00d0\u00b2\u00d1\u008b\u00d0\u00b5 \u00d0\u00b1\u00d0\u00b0\u00d0\u00bd\u00d0\u00ba\u00d0\u00b8, \u00d0\u00ba\u00d0\u00be\u00d0\u00bd\u00d1\u0081\u00d0\u00b5\u00d1\u0080\u00d0\u00b2\u00d0\u00bd\u00d1\u008b\u00d0\u00b5 \u00d0\u00b1\u00d0\u00b0\u00d0\u00bd\u00d0\u00ba\u00d0\u00b8)","recycling:cans":"yes","recycling_type":"container"}},"type":"Feature"},
	{"geometry":{"coordinates":[30.422373,59.939234],"type":"Point"},"properties":{"osm_id":"6013061192","tag":{"amenity":"recycling","description":"\u00d0\u009a\u00d0\u00be\u00d0\u00bd\u00d1\u0082\u00d0\u00b5\u00d0\u00b9\u00d0\u00bd\u00d0\u00b5\u00d1\u0080 \u00d0\u00b4\u00d0\u00bb\u00d1\u008f \u00d0\u00b1\u00d1\u0083\u00d1\u0082\u00d1\u008b\u00d0\u00bb\u00d0\u00be\u00d0\u00ba PET","recycling:plastic":"yes","recycling:plastic_bottles":"yes","recycling_type":"container"}},"type":"Feature"},
	{"geometry":{"coordinates":[30.497195,59.943176],"type":"Point"},"properties":{"osm_id":"6989310199","tag":{"amenity":"recycling","recycling:aluminium":"yes","recycling:plastic_bottles":"yes","recycling_type":"container"}},"type":"Feature"},
	{"geometry":{"coordinates":[30.497174,59.943241],"type":"Point"},"properties":{"osm_id":"6989310200","tag":{"amenity":"waste_disposal","waste":"trash"}},"type":"Feature"},
	{"geometry":{"coordinates":[30.410769,59.933257],"type":"Point"},"properties":{"osm_id":"7006216978","tag":{"amenity":"waste_basket"}},"type":"Feature"},
	{"geometry":{"coordinates":[30.410359,59.933237],"type":"Point"},"properties":{"osm_id":"7006226018","tag":{"amenity":"waste_basket"}},"type":"Feature"},
	{"geometry":{"coordinates":[30.410865,59.933345],"type":"Point"},"properties":{"osm_id":"7006227358","tag":{"amenity":"waste_basket"}},"type":"Feature"},
	{"geometry":{"coordinates":[30.410762,59.933205],"type":"Point"},"properties":{"osm_id":"7006227569","tag":{"amenity":"waste_basket"}},"type":"Feature"},
	{"geometry":{"coordinates":[30.410791,59.933371],"type":"Point"},"properties":{"osm_id":"7006254423","tag":{"amenity":"waste_basket"}},"type":"Feature"},
	{"geometry":{"coordinates":[30.41086,59.933284],"type":"Point"},"properties":{"osm_id":"7006256442","tag":{"amenity":"waste_basket"}},"type":"Feature"},
	{"geometry":{"coordinates":[30.410867,59.93331],"type":"Point"},"properties":{"osm_id":"7006256540","tag":{"amenity":"waste_basket"}},"type":"Feature"},
	{"geometry":{"coordinates":[30.410398,59.933248],"type":"Point"},"properties":{"osm_id":"7006257087","tag":{"amenity":"waste_basket"}},"type":"Feature"},
	{"geometry":{"coordinates":[30.489265,59.965021],"type":"Point"},"properties":{"osm_id":"7022354611","tag":{"amenity":"waste_disposal"}},"type":"Feature"},
	{"geometry":{"coordinates":[30.429384,59.968747],"type":"Point"},"properties":{"osm_id":"7044677657","tag":{"amenity":"waste_disposal"}},"type":"Feature"},
	{"geometry":{"coordinates":[30.434811,59.954333],"type":"Point"},"properties":{"osm_id":"7128033785","tag":{"amenity":"waste_disposal"}},"type":"Feature"},
	{"geometry":{"coordinates":[30.481744,59.961246],"type":"Point"},"properties":{"osm_id":"7464974605","tag":{"amenity":"waste_disposal"}},"type":"Feature"},
	{"geometry":{"coordinates":[30.43473,59.976317],"type":"Point"},"properties":{"osm_id":"7511640877","tag":{"amenity":"waste_disposal"}},"type":"Feature"},
	{"geometry":{"coordinates":[30.433442,59.976415],"type":"Point"},"properties":{"osm_id":"7511680018","tag":{"amenity":"waste_disposal"}},"type":"Feature"},
	{"geometry":{"coordinates":[30.411625,59.945848],"type":"Point"},"properties":{"osm_id":"7532841214","tag":{"amenity":"waste_disposal","waste":"trash"}},"type":"Feature"},
	{"geometry":{"coordinates":[30.49361,59.937105],"type":"Point"},"properties":{"osm_id":"7734182118","tag":{"amenity":"waste_disposal"}},"type":"Feature"},
	{"geometry":{"coordinates":[30.49561,59.936331],"type":"Point"},"properties":{"osm_id":"7734198531","tag":{"amenity":"waste_disposal","waste":"trash;plastic"}},"type":"Feature"},
	{"geometry":{"coordinates":[30.482758,59.952076],"type":"Point"},"properties":{"osm_id":"7806703688","tag":{"amenity":"waste_disposal"}},"type":"Feature"},
	{"geometry":{"coordinates":[30.496599,59.936098],"type":"Point"},"properties":{"osm_id":"7878425059","tag":{"amenity":"waste_disposal","waste":"mixed;trash"}},"type":"Feature"},
	{"geometry":{"coordinates":[30.496638,59.936096],"type":"Point"},"properties":{"osm_id":"7878425060","tag":{"amenity":"waste_disposal","waste":"plastic"}},"type":"Feature"},
	{"geometry":{"coordinates":[30.490903,59.939764],"type":"Point"},"properties":{"osm_id":"7878425183","tag":{"amenity":"waste_disposal","operator":"\u00d0\u009f\u00d0\u00b5\u00d1\u0082\u00d1\u0080\u00d0\u00be\u00d0\u0092\u00d0\u00b0\u00d1\u0081\u00d1\u0082","waste":"mixed"}},"type":"Feature"},
	{"geometry":{"coordinates":[30.491027,59.936546],"type":"Point"},"properties":{"osm_id":"7878425232","tag":{"amenity":"waste_disposal"}},"type":"Feature"}
]
}
