{
"type": "FeatureCollection",
"features": [
	{"geometry":{"coordinates":[30.495407,59.836938],"type":"Point"},"properties":{"osm_id":"2134558795","tag":{"amenity":"waste_disposal"}},"type":"Feature"},
	{"geometry":{"coordinates":[30.495652,59.838258],"type":"Point"},"properties":{"osm_id":"2134558895","tag":{"amenity":"waste_disposal"}},"type":"Feature"},
	{"geometry":{"coordinates":[30.492878,59.83887],"type":"Point"},"properties":{"osm_id":"2134558934","tag":{"amenity":"waste_disposal"}},"type":"Feature"},
	{"geometry":{"coordinates":[30.490191,59.839866],"type":"Point"},"properties":{"osm_id":"2134629840","tag":{"amenity":"waste_disposal"}},"type":"Feature"},
	{"geometry":{"coordinates":[30.483977,59.842265],"type":"Point"},"properties":{"name":"\u00d0\u00ad\u00d0\u00ba\u00d0\u00be\u00d0\u00b1\u00d0\u00be\u00d0\u00ba\u00d1\u0081","osm_id":"2929693803","tag":{"amenity":"recycling","recycling:batteries":"yes","recycling:fluorescent_tubes":"yes","recycling:hazardous_waste":"yes","recycling:hydrargyrum":"yes","recycling:low_energy_bulbs":"yes","recycling_type":"container"}},"type":"Feature"},
	{"geometry":{"coordinates":[30.410337,59.829557],"type":"Point"},"properties":{"name":"\u00d0\u00ad\u00d0\u00ba\u00d0\u00be\u00d0\u00b1\u00d0\u00be\u00d0\u00ba\u00d1\u0081","osm_id":"2930374002","tag":{"amenity":"recycling","opening_hours":"Tu 14:00-17:00; Th 10:00-13:00","recycling:batteries":"yes","recycling:fluorescent_tubes":"yes","recycling:hazardous_waste":"yes","recycling:hydrargyrum":"yes","recycling:low_energy_bulbs":"yes","recycling_type":"container"}},"type":"Feature"},
	{"geometry":{"coordinates":[30.41029,59.831405],"type":"Point"},"properties":{"osm_id":"3907737902","tag":{"amenity":"waste_basket"}},"type":"Feature"},
	{"geometry":{"coordinates":[30.410401,59.831426],"type":"Point"},"properties":{"osm_id":"3907737905","tag":{"amenity":"waste_basket"}},"type":"Feature"},
	{"geometry":{"coordinates":[30.410259,59.83143],"type":"Point"},"properties":{"osm_id":"3907737907","tag":{"amenity":"waste_basket"}},"type":"Feature"},
	{"geometry":{"coordinates":[30.410721,59.83151],"type":"Point"},"properties":{"osm_id":"3907737914","tag":{"amenity":"waste_basket"}},"type":"Feature"},
	{"geometry":{"coordinates":[30.411132,59.831619],"type":"Point"},"properties":{"osm_id":"3907737929","tag":{"amenity":"waste_basket"}},"type":"Feature"},
	{"geometry":{"coordinates":[30.411544,59.831721],"type":"Point"},"properties":{"osm_id":"3907737937","tag":{"amenity":"waste_basket"}},"type":"Feature"},
	{"geometry":{"coordinates":[30.411947,59.831821],"type":"Point"},"properties":{"osm_id":"3907737942","tag":{"amenity":"waste_basket"}},"type":"Feature"},
	{"geometry":{"coordinates":[30.412018,59.831836],"type":"Point"},"properties":{"osm_id":"3907737945","tag":{"amenity":"waste_basket"}},"type":"Feature"},
	{"geometry":{"coordinates":[30.412354,59.83192],"type":"Point"},"properties":{"osm_id":"3907737950","tag":{"amenity":"waste_basket"}},"type":"Feature"},
	{"geometry":{"coordinates":[30.412422,59.831967],"type":"Point"},"properties":{"osm_id":"3907737955","tag":{"amenity":"waste_basket"}},"type":"Feature"},
	{"geometry":{"coordinates":[30.412399,59.831992],"type":"Point"},"properties":{"osm_id":"3907738658","tag":{"amenity":"waste_basket"}},"type":"Feature"},
	{"geometry":{"coordinates":[30.412215,59.83217],"type":"Point"},"properties":{"osm_id":"3907738663","tag":{"amenity":"waste_basket"}},"type":"Feature"},
	{"geometry":{"coordinates":[30.412193,59.832195],"type":"Point"},"properties":{"osm_id":"3907738667","tag":{"amenity":"waste_basket"}},"type":"Feature"},
	{"geometry":{"coordinates":[30.412007,59.832374],"type":"Point"},"properties":{"osm_id":"3907738671","tag":{"amenity":"waste_basket"}},"type":"Feature"},
	{"geometry":{"coordinates":[30.411985,59.832399],"type":"Point"},"properties":{"osm_id":"3907738675","tag":{"amenity":"waste_basket"}},"type":"Feature"},
	{"geometry":{"coordinates":[30.411798,59.832582],"type":"Point"},"properties":{"osm_id":"3907738681","tag":{"amenity":"waste_basket"}},"type":"Feature"},
	{"geometry":{"coordinates":[30.411776,59.832606],"type":"Point"},"properties":{"osm_id":"3907738685","tag":{"amenity":"waste_basket"}},"type":"Feature"},
	{"geometry":{"coordinates":[30.411585,59.832784],"type":"Point"},"properties":{"osm_id":"3907738694","tag":{"amenity":"waste_basket"}},"type":"Feature"},
	{"geometry":{"coordinates":[30.411563,59.832808],"type":"Point"},"properties":{"osm_id":"3907738698","tag":{"amenity":"waste_basket"}},"type":"Feature"},
	{"geometry":{"coordinates":[30.410901,59.832936],"type":"Point"},"properties":{"osm_id":"3907738704","tag":{"amenity":"waste_basket"}},"type":"Feature"},
	{"geometry":{"coordinates":[30.411309,59.833039],"type":"Point"},"properties":{"osm_id":"3907738706","tag":{"amenity":"waste_basket"}},"type":"Feature"},
	{"geometry":{"coordinates":[30.410189,59.830452],"type":"Point"},"properties":{"osm_id":"4036193642","tag":{"amenity":"waste_basket"}},"type":"Feature"},
	{"geometry":{"coordinates":[30.410647,59.830587],"type":"Point"},"properties":{"osm_id":"4036193648","tag":{"amenity":"waste_basket"}},"type":"Feature"},
	{"geometry":{"coordinates":[30.410975,59.830653],"type":"Point"},"properties":{"osm_id":"4036193651","tag":{"amenity":"waste_basket"}},"type":"Feature"},
	{"geometry":{"coordinates":[30.412995,59.831302],"type":"Point"},"properties":{"osm_id":"4036193663","tag":{"amenity":"waste_basket"}},"type":"Feature"},
	{"geometry":{"coordinates":[30.414306,59.839269],"type":"Point"},"properties":{"osm_id":"4151683536","tag":{"amenity":"waste_disposal"}},"type":"Feature"},
	{"geometry":{"coordinates":[30.42182,59.834576],"type":"Point"},"properties":{"osm_id":"4243554176","tag":{"amenity":"waste_disposal"}},"type":"Feature"},
	{"geometry":{"coordinates":[30.484316,59.829857],"type":"Point"},"properties":{"osm_id":"4862727621","tag":{"amenity":"waste_disposal","operator":"\u00d0\u009d\u00d0\u00b5\u00d0\u00b7\u00d0\u00b0\u00d0\u00ba\u00d0\u00be\u00d0\u00bd\u00d0\u00bd\u00d0\u00b0\u00d1\u008f \u00d1\u0081\u00d0\u00b2\u00d0\u00b0\u00d0\u00bb\u00d0\u00ba\u00d0\u00b0 \u00d0\u00be\u00d1\u0082\u00d1\u0085\u00d0\u00be\u00d0\u00b4\u00d0\u00be\u00d0\u00b2"}},"type":"Feature"},
	{"geometry":{"coordinates":[30.419527,59.83418],"type":"Point"},"properties":{"osm_id":"5587792002","tag":{"amenity":"waste_disposal"}},"type":"Feature"},
	{"geometry":{"coordinates":[30.411454,59.835524],"type":"Point"},"properties":{"osm_id":"5643524970","tag":{"amenity":"waste_disposal"}},"type":"Feature"},
	{"geometry":{"coordinates":[30.419708,59.836422],"type":"Point"},"properties":{"osm_id":"5840682285","tag":{"amenity":"waste_disposal"}},"type":"Feature"},
	{"geometry":{"coordinates":[30.426043,59.837634],"type":"Point"},"properties":{"osm_id":"5840682388","tag":{"amenity":"waste_disposal"}},"type":"Feature"},
	{"geometry":{"coordinates":[30.415726,59.840608],"type":"Point"},"properties":{"osm_id":"5840682439","tag":{"amenity":"waste_disposal"}},"type":"Feature"},
	{"geometry":{"coordinates":[30.413024,59.840858],"type":"Point"},"properties":{"osm_id":"5840701828","tag":{"amenity":"waste_disposal"}},"type":"Feature"},
	{"geometry":{"coordinates":[30.467992,59.844222],"type":"Point"},"properties":{"osm_id":"5938404344","tag":{"amenity":"waste_disposal"}},"type":"Feature"},
	{"geometry":{"coordinates":[30.413637,59.830278],"type":"Point"},"properties":{"osm_id":"6179302142","tag":{"amenity":"waste_disposal"}},"type":"Feature"},
	{"geometry":{"coordinates":[30.413122,59.83018],"type":"Point"},"properties":{"osm_id":"6179302145","tag":{"amenity":"waste_basket"}},"type":"Feature"},
	{"geometry":{"coordinates":[30.413228,59.830205],"type":"Point"},"properties":{"osm_id":"6179302146","tag":{"amenity":"waste_basket"}},"type":"Feature"},
	{"geometry":{"coordinates":[30.413258,59.830357],"type":"Point"},"properties":{"osm_id":"6179302163","tag":{"amenity":"waste_basket"}},"type":"Feature"},
	{"geometry":{"coordinates":[30.413236,59.830449],"type":"Point"},"properties":{"osm_id":"6179302164","tag":{"amenity":"waste_basket"}},"type":"Feature"},
	{"geometry":{"coordinates":[30.413375,59.83047],"type":"Point"},"properties":{"osm_id":"6179302165","tag":{"amenity":"waste_basket"}},"type":"Feature"},
	{"geometry":{"coordinates":[30.411609,59.830253],"type":"Point"},"properties":{"osm_id":"6179302722","tag":{"amenity":"waste_basket"}},"type":"Feature"},
	{"geometry":{"coordinates":[30.411011,59.830146],"type":"Point"},"properties":{"osm_id":"6179302723","tag":{"amenity":"waste_basket"}},"type":"Feature"},
	{"geometry":{"coordinates":[30.411177,59.830078],"type":"Point"},"properties":{"osm_id":"6179302724","tag":{"amenity":"waste_basket"}},"type":"Feature"},
	{"geometry":{"coordinates":[30.41115,59.83006],"type":"Point"},"properties":{"osm_id":"6179302725","tag":{"amenity":"waste_basket"}},"type":"Feature"},
	{"geometry":{"coordinates":[30.411015,59.83006],"type":"Point"},"properties":{"osm_id":"6179302726","tag":{"amenity":"waste_basket"}},"type":"Feature"},
	{"geometry":{"coordinates":[30.410984,59.830094],"type":"Point"},"properties":{"osm_id":"6179302727","tag":{"amenity":"waste_basket"}},"type":"Feature"},
	{"geometry":{"coordinates":[30.41124,59.830178],"type":"Point"},"properties":{"osm_id":"6179302728","tag":{"amenity":"waste_basket"}},"type":"Feature"},
	{"geometry":{"coordinates":[30.410681,59.829988],"type":"Point"},"properties":{"osm_id":"6179302747","tag":{"amenity":"waste_basket"}},"type":"Feature"},
	{"geometry":{"coordinates":[30.410401,59.829916],"type":"Point"},"properties":{"osm_id":"6179302748","tag":{"amenity":"waste_basket"}},"type":"Feature"},
	{"geometry":{"coordinates":[30.415465,59.827909],"type":"Point"},"properties":{"osm_id":"6179302966","tag":{"amenity":"waste_basket"}},"type":"Feature"},
	{"geometry":{"coordinates":[30.415146,59.82784],"type":"Point"},"properties":{"osm_id":"6179302967","tag":{"amenity":"waste_basket"}},"type":"Feature"},
	{"geometry":{"coordinates":[30.415457,59.827765],"type":"Point"},"properties":{"osm_id":"6179302968","tag":{"amenity":"waste_basket"}},"type":"Feature"},
	{"geometry":{"coordinates":[30.415121,59.827877],"type":"Point"},"properties":{"osm_id":"6179302970","tag":{"amenity":"waste_basket"}},"type":"Feature"},
	{"geometry":{"coordinates":[30.414885,59.827706],"type":"Point"},"properties":{"osm_id":"6179302971","tag":{"amenity":"waste_basket"}},"type":"Feature"},
	{"geometry":{"coordinates":[30.415034,59.82778],"type":"Point"},"properties":{"osm_id":"6179302972","tag":{"amenity":"waste_basket"}},"type":"Feature"},
	{"geometry":{"coordinates":[30.414427,59.827219],"type":"Point"},"properties":{"osm_id":"6182199383","tag":{"amenity":"waste_basket"}},"type":"Feature"},
	{"geometry":{"coordinates":[30.414128,59.827145],"type":"Point"},"properties":{"osm_id":"6182199384","tag":{"amenity":"waste_basket"}},"type":"Feature"},
	{"geometry":{"coordinates":[30.413838,59.827066],"type":"Point"},"properties":{"osm_id":"6182205185","tag":{"amenity":"waste_basket"}},"type":"Feature"},
	{"geometry":{"coordinates":[30.413424,59.827771],"type":"Point"},"properties":{"osm_id":"6182205237","tag":{"amenity":"waste_basket"}},"type":"Feature"},
	{"geometry":{"coordinates":[30.413131,59.827694],"type":"Point"},"properties":{"osm_id":"6182205238","tag":{"amenity":"waste_basket"}},"type":"Feature"},
	{"geometry":{"coordinates":[30.412834,59.827619],"type":"Point"},"properties":{"osm_id":"6182205239","tag":{"amenity":"waste_basket"}},"type":"Feature"},
	{"geometry":{"coordinates":[30.412538,59.827546],"type":"Point"},"properties":{"osm_id":"6182205240","tag":{"amenity":"waste_basket"}},"type":"Feature"},
	{"geometry":{"coordinates":[30.412237,59.827469],"type":"Point"},"properties":{"osm_id":"6182205241","tag":{"amenity":"waste_basket"}},"type":"Feature"},
	{"geometry":{"coordinates":[30.412495,59.826909],"type":"Point"},"properties":{"osm_id":"6182205273","tag":{"amenity":"waste_basket"}},"type":"Feature"},
	{"geometry":{"coordinates":[30.412591,59.826867],"type":"Point"},"properties":{"osm_id":"6182205274","tag":{"amenity":"waste_basket"}},"type":"Feature"},
	{"geometry":{"coordinates":[30.412798,59.826913],"type":"Point"},"properties":{"osm_id":"6182205275","tag":{"amenity":"waste_basket"}},"type":"Feature"},
	{"geometry":{"coordinates":[30.413097,59.826985],"type":"Point"},"properties":{"osm_id":"6182205277","tag":{"amenity":"waste_basket"}},"type":"Feature"},
	{"geometry":{"coordinates":[30.413803,59.831665],"type":"Point"},"properties":{"osm_id":"6182205834","tag":{"amenity":"waste_basket"}},"type":"Feature"},
	{"geometry":{"coordinates":[30.460128,59.802533],"type":"Point"},"properties":{"barrier":"gate","osm_id":"6584959224"},"type":"Feature"},
	{"geometry":{"coordinates":[30.415349,59.832633],"type":"Point"},"properties":{"name":"\u00d0\u00a1\u00d0\u00bf\u00d0\u00b0\u00d1\u0081\u00d0\u00b8\u00d0\u00b1\u00d0\u00be","osm_id":"7195014097","tag":{"amenity":"recycling","recycling:clothes":"yes","recycling_type":"container"}},"type":"Feature"},
	{"geometry":{"coordinates":[30.431298,59.831431],"type":"Point"},"properties":{"name":"\u00d0\u009f\u00d0\u00b5\u00d1\u0080\u00d0\u00b5\u00d0\u00bc\u00d0\u00be\u00d0\u00bb\u00d0\u00ba\u00d0\u00b0","osm_id":"7551824526","tag":{"amenity":"recycling","recycling:clothes":"yes","recycling_type":"container","website":"http://peremolka.ru"}},"type":"Feature"},
	{"geometry":{"coordinates":[30.431345,59.831466],"type":"Point"},"properties":{"osm_id":"7551824527","tag":{"amenity":"waste_disposal"}},"type":"Feature"},
	{"geometry":{"coordinates":[30.426418,59.836701],"type":"Point"},"properties":{"osm_id":"7557281505","tag":{"amenity":"waste_disposal"}},"type":"Feature"},
	{"geometry":{"coordinates":[30.423387,59.841734],"type":"Point"},"properties":{"osm_id":"7557523821","tag":{"amenity":"waste_basket"}},"type":"Feature"},
	{"geometry":{"coordinates":[30.423341,59.841784],"type":"Point"},"properties":{"osm_id":"7557523822","tag":{"amenity":"waste_basket"}},"type":"Feature"},
	{"geometry":{"coordinates":[30.423319,59.841805],"type":"Point"},"properties":{"osm_id":"7557523823","tag":{"amenity":"waste_basket"}},"type":"Feature"},
	{"geometry":{"coordinates":[30.423598,59.841727],"type":"Point"},"properties":{"osm_id":"7557523824","tag":{"amenity":"waste_basket"}},"type":"Feature"},
	{"geometry":{"coordinates":[30.423544,59.841568],"type":"Point"},"properties":{"osm_id":"7557523826","tag":{"amenity":"waste_basket"}},"type":"Feature"},
	{"geometry":{"coordinates":[30.42375,59.841569],"type":"Point"},"properties":{"osm_id":"7557523831","tag":{"amenity":"waste_basket"}},"type":"Feature"},
	{"geometry":{"coordinates":[30.423837,59.841533],"type":"Point"},"properties":{"osm_id":"7557523832","tag":{"amenity":"waste_basket"}},"type":"Feature"},
	{"geometry":{"coordinates":[30.424126,59.843962],"type":"Point"},"properties":{"osm_id":"7557523922","tag":{"amenity":"waste_disposal"}},"type":"Feature"},
	{"geometry":{"coordinates":[30.428481,59.835659],"type":"Point"},"properties":{"osm_id":"7557553621","tag":{"amenity":"waste_basket"}},"type":"Feature"},
	{"geometry":{"coordinates":[30.428401,59.835588],"type":"Point"},"properties":{"osm_id":"7557553622","tag":{"amenity":"waste_basket"}},"type":"Feature"},
	{"geometry":{"coordinates":[30.424859,59.83964],"type":"Point"},"properties":{"osm_id":"7557553638","tag":{"amenity":"waste_basket"}},"type":"Feature"},
	{"geometry":{"coordinates":[30.420031,59.842212],"type":"Point"},"properties":{"osm_id":"7649276911","tag":{"amenity":"waste_disposal"}},"type":"Feature"},
	{"geometry":{"coordinates":[30.417231,59.842372],"type":"Point"},"properties":{"osm_id":"7649276913","tag":{"amenity":"waste_disposal"}},"type":"Feature"},
	{"geometry":{"coordinates":[30.460001,59.802599],"type":"Point"},"properties":{"osm_id":"7744690409","tag":{"amenity":"recycling","recycling:aluminium":"yes","recycling:batteries":"yes","recycling:books":"yes","recycling:cans":"yes","recycling:cardboard":"yes","recycling:cartons":"yes","recycling:electrical_appliances":"yes","recycling:glass":"yes","recycling:glass_bottles":"yes","recycling:magazines":"yes","recycling:newspaper":"yes","recycling:paper":"yes","recycling:paper_packaging":"yes","recycling:plastic":"yes","recycling:plastic_bottles":"yes","recycling:plastic_packaging":"yes","recycling:scrap_metal":"yes","recycling:small_appliances":"yes","recycling_type":"container"}},"type":"Feature"},
	{"geometry":{"coordinates":[30.425038,59.841861],"type":"Point"},"properties":{"osm_id":"8000492187","tag":{"amenity":"waste_disposal"}},"type":"Feature"},
	{"geometry":{"coordinates":[30.431807,59.843826],"type":"Point"},"properties":{"osm_id":"8000492590","tag":{"amenity":"waste_disposal"}},"type":"Feature"},
	{"geometry":{"coordinates":[30.430085,59.842361],"type":"Point"},"properties":{"osm_id":"8005027764","tag":{"amenity":"waste_disposal"}},"type":"Feature"},
	{"geometry":{"coordinates":[30.431601,59.842264],"type":"Point"},"properties":{"osm_id":"8005027773","tag":{"amenity":"waste_disposal"}},"type":"Feature"},
	{"geometry":{"coordinates":[30.424727,59.838674],"type":"Point"},"properties":{"osm_id":"8005027944","tag":{"amenity":"waste_disposal"}},"type":"Feature"},
	{"geometry":{"coordinates":[30.430627,59.83519],"type":"Point"},"properties":{"osm_id":"8005027945","tag":{"amenity":"waste_disposal"}},"type":"Feature"},
	{"geometry":{"coordinates":[30.444204,59.833608],"type":"Point"},"properties":{"osm_id":"8010397342","tag":{"amenity":"waste_disposal"}},"type":"Feature"},
	{"geometry":{"coordinates":[30.445951,59.834534],"type":"Point"},"properties":{"osm_id":"8010397343","tag":{"amenity":"waste_disposal"}},"type":"Feature"},
	{"geometry":{"coordinates":[30.432591,59.839289],"type":"Point"},"properties":{"osm_id":"8013356181","tag":{"amenity":"waste_disposal"}},"type":"Feature"},
	{"geometry":{"coordinates":[30.455512,59.843585],"type":"Point"},"properties":{"osm_id":"8013393643","tag":{"amenity":"waste_disposal"}},"type":"Feature"},
	{"geometry":{"coordinates":[30.453534,59.842984],"type":"Point"},"properties":{"osm_id":"8013393989","tag":{"amenity":"waste_disposal"}},"type":"Feature"}
]
}
