{
"type": "FeatureCollection",
"features": [
	{"geometry":{"coordinates":[30.415816,59.726379],"type":"Point"},"properties":{"osm_id":"1007681563","tag":{"amenity":"waste_disposal"}},"type":"Feature"},
	{"geometry":{"coordinates":[30.415079,59.726407],"type":"Point"},"properties":{"osm_id":"1007681911","tag":{"amenity":"waste_disposal"}},"type":"Feature"},
	{"geometry":{"coordinates":[30.41212,59.74034],"type":"Point"},"properties":{"osm_id":"1297487019","tag":{"amenity":"waste_disposal"}},"type":"Feature"},
	{"geometry":{"coordinates":[30.412555,59.724611],"type":"Point"},"properties":{"osm_id":"2212564194","tag":{"amenity":"waste_disposal"}},"type":"Feature"},
	{"geometry":{"coordinates":[30.412451,59.724682],"type":"Point"},"properties":{"osm_id":"2212564201","tag":{"amenity":"waste_disposal"}},"type":"Feature"},
	{"geometry":{"coordinates":[30.413136,59.739168],"type":"Point"},"properties":{"osm_id":"2268673233","tag":{"amenity":"waste_disposal"}},"type":"Feature"},
	{"geometry":{"coordinates":[30.421481,59.731348],"type":"Point"},"properties":{"osm_id":"2294884864","tag":{"amenity":"waste_disposal"}},"type":"Feature"},
	{"geometry":{"coordinates":[30.420428,59.732035],"type":"Point"},"properties":{"osm_id":"2294884875","tag":{"amenity":"waste_disposal"}},"type":"Feature"},
	{"geometry":{"coordinates":[30.420582,59.728581],"type":"Point"},"properties":{"osm_id":"2533976669","tag":{"amenity":"waste_disposal"}},"type":"Feature"},
	{"geometry":{"coordinates":[30.416877,59.722496],"type":"Point"},"properties":{"name":"\u00d0\u00ad\u00d0\u00ba\u00d0\u00be\u00d0\u00b1\u00d0\u00be\u00d0\u00ba\u00d1\u0081","osm_id":"2930338201","tag":{"amenity":"recycling","recycling:batteries":"yes","recycling:fluorescent_tubes":"yes","recycling:hazardous_waste":"yes","recycling:hydrargyrum":"yes","recycling:low_energy_bulbs":"yes","recycling_type":"container"}},"type":"Feature"},
	{"geometry":{"coordinates":[30.41593,59.717551],"type":"Point"},"properties":{"name":"\u00d0\u00ad\u00d0\u00ba\u00d0\u00be\u00d0\u00b1\u00d0\u00be\u00d0\u00ba\u00d1\u0081","osm_id":"2930338203","tag":{"amenity":"recycling","recycling:batteries":"yes","recycling_type":"container"}},"type":"Feature"},
	{"geometry":{"coordinates":[30.422667,59.717149],"type":"Point"},"properties":{"name":"\u00d0\u00ad\u00d0\u00ba\u00d0\u00be\u00d0\u00b1\u00d0\u00be\u00d0\u00ba\u00d1\u0081","osm_id":"2930338204","tag":{"amenity":"recycling","recycling:batteries":"yes","recycling_type":"container"}},"type":"Feature"},
	{"geometry":{"coordinates":[30.418244,59.733726],"type":"Point"},"properties":{"name":"\u00d0\u00ad\u00d0\u00ba\u00d0\u00be\u00d0\u00b1\u00d0\u00be\u00d0\u00ba\u00d1\u0081","osm_id":"2930338501","tag":{"amenity":"recycling","recycling:batteries":"yes","recycling_type":"container"}},"type":"Feature"},
	{"geometry":{"coordinates":[30.411933,59.730567],"type":"Point"},"properties":{"name":"\u00d0\u00ad\u00d0\u00ba\u00d0\u00be\u00d0\u00b1\u00d0\u00be\u00d0\u00ba\u00d1\u0081","osm_id":"2930338503","tag":{"amenity":"recycling","recycling:batteries":"yes","recycling_type":"container"}},"type":"Feature"},
	{"geometry":{"coordinates":[30.431412,59.715095],"type":"Point"},"properties":{"name":"\u00d0\u00ad\u00d0\u00ba\u00d0\u00be\u00d0\u00b1\u00d0\u00be\u00d0\u00ba\u00d1\u0081","osm_id":"2930338601","tag":{"amenity":"recycling","recycling:batteries":"yes","recycling:fluorescent_tubes":"yes","recycling:hazardous_waste":"yes","recycling:hydrargyrum":"yes","recycling:low_energy_bulbs":"yes","recycling_type":"container"}},"type":"Feature"},
	{"geometry":{"coordinates":[30.413657,59.727794],"type":"Point"},"properties":{"osm_id":"5182259726","tag":{"amenity":"waste_basket"}},"type":"Feature"},
	{"geometry":{"coordinates":[30.412364,59.728298],"type":"Point"},"properties":{"osm_id":"5182259727","tag":{"amenity":"waste_basket"}},"type":"Feature"},
	{"geometry":{"coordinates":[30.41122,59.728634],"type":"Point"},"properties":{"osm_id":"5182259729","tag":{"amenity":"waste_basket"}},"type":"Feature"},
	{"geometry":{"coordinates":[30.418523,59.726191],"type":"Point"},"properties":{"osm_id":"5182261828","tag":{"amenity":"waste_basket"}},"type":"Feature"},
	{"geometry":{"coordinates":[30.410177,59.720576],"type":"Point"},"properties":{"osm_id":"5182261842","tag":{"amenity":"waste_basket"}},"type":"Feature"},
	{"geometry":{"coordinates":[30.411666,59.721785],"type":"Point"},"properties":{"osm_id":"5182261843","tag":{"amenity":"waste_basket"}},"type":"Feature"},
	{"geometry":{"coordinates":[30.428763,59.72355],"type":"Point"},"properties":{"osm_id":"5182267525","tag":{"amenity":"waste_basket"}},"type":"Feature"},
	{"geometry":{"coordinates":[30.426405,59.723847],"type":"Point"},"properties":{"osm_id":"5182267526","tag":{"amenity":"waste_basket"}},"type":"Feature"},
	{"geometry":{"coordinates":[30.417593,59.726486],"type":"Point"},"properties":{"osm_id":"5182267528","tag":{"amenity":"waste_basket"}},"type":"Feature"},
	{"geometry":{"coordinates":[30.41725,59.726615],"type":"Point"},"properties":{"osm_id":"5182267529","tag":{"amenity":"waste_basket"}},"type":"Feature"},
	{"geometry":{"coordinates":[30.418055,59.726345],"type":"Point"},"properties":{"osm_id":"5182280321","tag":{"amenity":"waste_basket"}},"type":"Feature"},
	{"geometry":{"coordinates":[30.412873,59.728054],"type":"Point"},"properties":{"osm_id":"5182280322","tag":{"amenity":"waste_basket"}},"type":"Feature"},
	{"geometry":{"coordinates":[30.410639,59.721066],"type":"Point"},"properties":{"osm_id":"5182280346","tag":{"amenity":"waste_basket"}},"type":"Feature"},
	{"geometry":{"coordinates":[30.427207,59.722821],"type":"Point"},"properties":{"osm_id":"5182280546","tag":{"amenity":"waste_basket"}},"type":"Feature"},
	{"geometry":{"coordinates":[30.419246,59.71291],"type":"Point"},"properties":{"osm_id":"5830535265","tag":{"amenity":"waste_disposal"}},"type":"Feature"},
	{"geometry":{"coordinates":[30.416241,59.732612],"type":"Point"},"properties":{"osm_id":"7744547825","tag":{"amenity":"waste_disposal"}},"type":"Feature"},
	{"geometry":{"coordinates":[30.416756,59.726995],"type":"Point"},"properties":{"name":"\u00d0\u009b\u00d0\u00b5\u00d0\u00bf\u00d1\u0082\u00d0\u00b0","osm_id":"8113965213","tag":{"amenity":"recycling","contact:email":"sbor@lepta.info","contact:phone":"+7 (812) 241-70-20 \u00d0\u00b4\u00d0\u00be\u00d0\u00b1.21","contact:website":"https://lepta.info/","opening_hours":"24/7","operator":"\u00d0\u009b\u00d0\u00b5\u00d0\u00bf\u00d1\u0082\u00d0\u00b0","recycling:clothes":"yes","recycling:shoes":"yes","recycling_type":"container"}},"type":"Feature"},
	{"geometry":{"coordinates":[30.427118,59.723025],"type":"Point"},"properties":{"osm_id":"8810528749","tag":{"amenity":"waste_basket"}},"type":"Feature"},
	{"geometry":{"coordinates":[30.427208,59.72323],"type":"Point"},"properties":{"osm_id":"8810528754","tag":{"amenity":"waste_basket"}},"type":"Feature"},
	{"geometry":{"coordinates":[30.427106,59.722886],"type":"Point"},"properties":{"osm_id":"8810528774","tag":{"amenity":"waste_basket"}},"type":"Feature"},
	{"geometry":{"coordinates":[30.427372,59.722442],"type":"Point"},"properties":{"osm_id":"8810528815","tag":{"amenity":"waste_basket"}},"type":"Feature"},
	{"geometry":{"coordinates":[30.427327,59.72248],"type":"Point"},"properties":{"osm_id":"8810528816","tag":{"amenity":"waste_basket"}},"type":"Feature"},
	{"geometry":{"coordinates":[30.428576,59.722016],"type":"Point"},"properties":{"osm_id":"8810547151","tag":{"amenity":"waste_basket"}},"type":"Feature"},
	{"geometry":{"coordinates":[30.428655,59.722008],"type":"Point"},"properties":{"osm_id":"8810547152","tag":{"amenity":"waste_basket"}},"type":"Feature"},
	{"geometry":{"coordinates":[30.428176,59.722082],"type":"Point"},"properties":{"osm_id":"8810547182","tag":{"amenity":"waste_basket"}},"type":"Feature"},
	{"geometry":{"coordinates":[30.428255,59.723788],"type":"Point"},"properties":{"osm_id":"8810547315","tag":{"amenity":"waste_basket"}},"type":"Feature"},
	{"geometry":{"coordinates":[30.428194,59.723772],"type":"Point"},"properties":{"osm_id":"8810547316","tag":{"amenity":"waste_basket"}},"type":"Feature"},
	{"geometry":{"coordinates":[30.427909,59.723693],"type":"Point"},"properties":{"osm_id":"8810547317","tag":{"amenity":"waste_basket"}},"type":"Feature"},
	{"geometry":{"coordinates":[30.42784,59.723668],"type":"Point"},"properties":{"osm_id":"8810547318","tag":{"amenity":"waste_basket"}},"type":"Feature"},
	{"geometry":{"coordinates":[30.427608,59.723553],"type":"Point"},"properties":{"osm_id":"8810547319","tag":{"amenity":"waste_basket"}},"type":"Feature"},
	{"geometry":{"coordinates":[30.427547,59.723522],"type":"Point"},"properties":{"osm_id":"8810547320","tag":{"amenity":"waste_basket"}},"type":"Feature"},
	{"geometry":{"coordinates":[30.428674,59.722769],"type":"Point"},"properties":{"osm_id":"8810547336","tag":{"amenity":"waste_basket"}},"type":"Feature"},
	{"geometry":{"coordinates":[30.428587,59.722757],"type":"Point"},"properties":{"osm_id":"8810547337","tag":{"amenity":"waste_basket"}},"type":"Feature"},
	{"geometry":{"coordinates":[30.428496,59.722747],"type":"Point"},"properties":{"osm_id":"8810547338","tag":{"amenity":"waste_basket"}},"type":"Feature"},
	{"geometry":{"coordinates":[30.428554,59.723024],"type":"Point"},"properties":{"osm_id":"8810547339","tag":{"amenity":"waste_basket"}},"type":"Feature"},
	{"geometry":{"coordinates":[30.428464,59.723014],"type":"Point"},"properties":{"osm_id":"8810547340","tag":{"amenity":"waste_basket"}},"type":"Feature"},
	{"geometry":{"coordinates":[30.428374,59.723003],"type":"Point"},"properties":{"osm_id":"8810547341","tag":{"amenity":"waste_basket"}},"type":"Feature"},
	{"geometry":{"coordinates":[30.432134,59.721205],"type":"Point"},"properties":{"osm_id":"8810760211","tag":{"amenity":"waste_basket"}},"type":"Feature"},
	{"geometry":{"coordinates":[30.430019,59.721645],"type":"Point"},"properties":{"osm_id":"8810760340","tag":{"amenity":"waste_basket"}},"type":"Feature"},
	{"geometry":{"coordinates":[30.423933,59.721377],"type":"Point"},"properties":{"osm_id":"8811303171","tag":{"amenity":"waste_basket"}},"type":"Feature"},
	{"geometry":{"coordinates":[30.423958,59.721341],"type":"Point"},"properties":{"osm_id":"8811303172","tag":{"amenity":"waste_basket"}},"type":"Feature"},
	{"geometry":{"coordinates":[30.423965,59.721332],"type":"Point"},"properties":{"osm_id":"8811303173","tag":{"amenity":"waste_basket"}},"type":"Feature"},
	{"geometry":{"coordinates":[30.423991,59.7213],"type":"Point"},"properties":{"osm_id":"8811303174","tag":{"amenity":"waste_basket"}},"type":"Feature"},
	{"geometry":{"coordinates":[30.424174,59.721744],"type":"Point"},"properties":{"osm_id":"8811303185","tag":{"amenity":"waste_basket"}},"type":"Feature"},
	{"geometry":{"coordinates":[30.423879,59.721598],"type":"Point"},"properties":{"osm_id":"8811303187","tag":{"amenity":"waste_basket"}},"type":"Feature"},
	{"geometry":{"coordinates":[30.423682,59.721608],"type":"Point"},"properties":{"osm_id":"8811303190","tag":{"amenity":"waste_basket"}},"type":"Feature"},
	{"geometry":{"coordinates":[30.423591,59.721693],"type":"Point"},"properties":{"osm_id":"8811303193","tag":{"amenity":"waste_basket"}},"type":"Feature"},
	{"geometry":{"coordinates":[30.422019,59.721423],"type":"Point"},"properties":{"osm_id":"8811303197","tag":{"amenity":"waste_basket"}},"type":"Feature"},
	{"geometry":{"coordinates":[30.421029,59.730228],"type":"Point"},"properties":{"osm_id":"8813023237","tag":{"amenity":"waste_basket"}},"type":"Feature"},
	{"geometry":{"coordinates":[30.427048,59.723588],"type":"Point"},"properties":{"osm_id":"8813441511","tag":{"amenity":"waste_basket"}},"type":"Feature"},
	{"geometry":{"coordinates":[30.428859,59.723615],"type":"Point"},"properties":{"osm_id":"8813441541","tag":{"amenity":"waste_basket"}},"type":"Feature"},
	{"geometry":{"coordinates":[30.42899,59.723353],"type":"Point"},"properties":{"osm_id":"8813441552","tag":{"amenity":"waste_basket"}},"type":"Feature"},
	{"geometry":{"coordinates":[30.429068,59.722822],"type":"Point"},"properties":{"osm_id":"8813441553","tag":{"amenity":"waste_basket"}},"type":"Feature"},
	{"geometry":{"coordinates":[30.429063,59.722833],"type":"Point"},"properties":{"osm_id":"8813441554","tag":{"amenity":"waste_basket"}},"type":"Feature"},
	{"geometry":{"coordinates":[30.428948,59.723058],"type":"Point"},"properties":{"osm_id":"8813441555","tag":{"amenity":"waste_basket"}},"type":"Feature"},
	{"geometry":{"coordinates":[30.428942,59.72307],"type":"Point"},"properties":{"osm_id":"8813441556","tag":{"amenity":"waste_basket"}},"type":"Feature"},
	{"geometry":{"coordinates":[30.429026,59.723146],"type":"Point"},"properties":{"osm_id":"8813441557","tag":{"amenity":"waste_basket"}},"type":"Feature"},
	{"geometry":{"coordinates":[30.429012,59.723175],"type":"Point"},"properties":{"osm_id":"8813441558","tag":{"amenity":"waste_basket"}},"type":"Feature"},
	{"geometry":{"coordinates":[30.426281,59.726416],"type":"Point"},"properties":{"osm_id":"8813568655","tag":{"amenity":"waste_disposal"}},"type":"Feature"},
	{"geometry":{"coordinates":[30.426766,59.72421],"type":"Point"},"properties":{"osm_id":"8813568716","tag":{"amenity":"waste_disposal"}},"type":"Feature"},
	{"geometry":{"coordinates":[30.426731,59.724218],"type":"Point"},"properties":{"osm_id":"8813570517","tag":{"amenity":"waste_disposal"}},"type":"Feature"},
	{"geometry":{"coordinates":[30.426604,59.724132],"type":"Point"},"properties":{"osm_id":"8813570518","tag":{"amenity":"waste_disposal"}},"type":"Feature"},
	{"geometry":{"coordinates":[30.421597,59.7258],"type":"Point"},"properties":{"osm_id":"8813693565","tag":{"amenity":"waste_disposal"}},"type":"Feature"},
	{"geometry":{"coordinates":[30.419018,59.726702],"type":"Point"},"properties":{"osm_id":"8813738819","tag":{"amenity":"waste_basket"}},"type":"Feature"},
	{"geometry":{"coordinates":[30.419094,59.726764],"type":"Point"},"properties":{"osm_id":"8813738820","tag":{"amenity":"waste_basket"}},"type":"Feature"},
	{"geometry":{"coordinates":[30.41943,59.726665],"type":"Point"},"properties":{"osm_id":"8813738821","tag":{"amenity":"waste_basket"}},"type":"Feature"},
	{"geometry":{"coordinates":[30.419196,59.726608],"type":"Point"},"properties":{"osm_id":"8813738822","tag":{"amenity":"waste_basket"}},"type":"Feature"},
	{"geometry":{"coordinates":[30.419802,59.726656],"type":"Point"},"properties":{"osm_id":"8813738832","tag":{"amenity":"waste_disposal"}},"type":"Feature"},
	{"geometry":{"coordinates":[30.418598,59.722618],"type":"Point"},"properties":{"osm_id":"8813987309","tag":{"amenity":"waste_disposal"}},"type":"Feature"},
	{"geometry":{"coordinates":[30.419911,59.722078],"type":"Point"},"properties":{"osm_id":"8814002724","tag":{"amenity":"waste_basket"}},"type":"Feature"},
	{"geometry":{"coordinates":[30.420163,59.722113],"type":"Point"},"properties":{"osm_id":"8814002725","tag":{"amenity":"waste_basket"}},"type":"Feature"},
	{"geometry":{"coordinates":[30.42199,59.72244],"type":"Point"},"properties":{"osm_id":"8814002752","tag":{"amenity":"waste_basket"}},"type":"Feature"},
	{"geometry":{"coordinates":[30.42201,59.722485],"type":"Point"},"properties":{"osm_id":"8814002753","tag":{"amenity":"waste_basket"}},"type":"Feature"},
	{"geometry":{"coordinates":[30.422321,59.722479],"type":"Point"},"properties":{"osm_id":"8814002754","tag":{"amenity":"waste_basket"}},"type":"Feature"},
	{"geometry":{"coordinates":[30.422376,59.72253],"type":"Point"},"properties":{"osm_id":"8814002755","tag":{"amenity":"waste_basket"}},"type":"Feature"},
	{"geometry":{"coordinates":[30.425267,59.722895],"type":"Point"},"properties":{"osm_id":"8814002807","tag":{"amenity":"waste_basket"}},"type":"Feature"},
	{"geometry":{"coordinates":[30.425154,59.722967],"type":"Point"},"properties":{"osm_id":"8814002809","tag":{"amenity":"waste_basket"}},"type":"Feature"},
	{"geometry":{"coordinates":[30.425509,59.723009],"type":"Point"},"properties":{"osm_id":"8814002810","tag":{"amenity":"waste_basket"}},"type":"Feature"},
	{"geometry":{"coordinates":[30.425789,59.723126],"type":"Point"},"properties":{"osm_id":"8814002831","tag":{"amenity":"waste_disposal"}},"type":"Feature"},
	{"geometry":{"coordinates":[30.426905,59.723426],"type":"Point"},"properties":{"osm_id":"8814002844","tag":{"amenity":"waste_basket"}},"type":"Feature"},
	{"geometry":{"coordinates":[30.420433,59.722744],"type":"Point"},"properties":{"osm_id":"8815038592","tag":{"amenity":"waste_basket"}},"type":"Feature"},
	{"geometry":{"coordinates":[30.420858,59.722916],"type":"Point"},"properties":{"osm_id":"8815038593","tag":{"amenity":"waste_basket"}},"type":"Feature"},
	{"geometry":{"coordinates":[30.420899,59.723035],"type":"Point"},"properties":{"osm_id":"8815038594","tag":{"amenity":"waste_basket"}},"type":"Feature"},
	{"geometry":{"coordinates":[30.421218,59.72325],"type":"Point"},"properties":{"osm_id":"8815038595","tag":{"amenity":"waste_basket"}},"type":"Feature"},
	{"geometry":{"coordinates":[30.42155,59.723489],"type":"Point"},"properties":{"osm_id":"8815038596","tag":{"amenity":"waste_basket"}},"type":"Feature"},
	{"geometry":{"coordinates":[30.421868,59.723702],"type":"Point"},"properties":{"osm_id":"8815038597","tag":{"amenity":"waste_basket"}},"type":"Feature"},
	{"geometry":{"coordinates":[30.422321,59.723747],"type":"Point"},"properties":{"osm_id":"8815038598","tag":{"amenity":"waste_basket"}},"type":"Feature"},
	{"geometry":{"coordinates":[30.422399,59.723627],"type":"Point"},"properties":{"osm_id":"8815038599","tag":{"amenity":"waste_basket"}},"type":"Feature"},
	{"geometry":{"coordinates":[30.430708,59.716386],"type":"Point"},"properties":{"osm_id":"8815113263","tag":{"amenity":"waste_disposal"}},"type":"Feature"},
	{"geometry":{"coordinates":[30.429563,59.718962],"type":"Point"},"properties":{"osm_id":"8815234692","tag":{"amenity":"waste_disposal"}},"type":"Feature"},
	{"geometry":{"coordinates":[30.429522,59.718971],"type":"Point"},"properties":{"osm_id":"8815234693","tag":{"amenity":"waste_disposal"}},"type":"Feature"},
	{"geometry":{"coordinates":[30.42938,59.719546],"type":"Point"},"properties":{"osm_id":"8815234708","tag":{"amenity":"waste_basket"}},"type":"Feature"},
	{"geometry":{"coordinates":[30.429426,59.721146],"type":"Point"},"properties":{"osm_id":"8815234760","tag":{"amenity":"waste_disposal"}},"type":"Feature"},
	{"geometry":{"coordinates":[30.429385,59.72114],"type":"Point"},"properties":{"osm_id":"8815234761","tag":{"amenity":"waste_disposal"}},"type":"Feature"},
	{"geometry":{"coordinates":[30.424987,59.718713],"type":"Point"},"properties":{"osm_id":"8816445048","tag":{"amenity":"waste_basket"}},"type":"Feature"},
	{"geometry":{"coordinates":[30.424994,59.718737],"type":"Point"},"properties":{"osm_id":"8816445049","tag":{"amenity":"waste_basket"}},"type":"Feature"},
	{"geometry":{"coordinates":[30.425044,59.718774],"type":"Point"},"properties":{"osm_id":"8816445050","tag":{"amenity":"waste_basket"}},"type":"Feature"},
	{"geometry":{"coordinates":[30.42509,59.718781],"type":"Point"},"properties":{"osm_id":"8816445051","tag":{"amenity":"waste_basket"}},"type":"Feature"},
	{"geometry":{"coordinates":[30.425159,59.718776],"type":"Point"},"properties":{"osm_id":"8816445052","tag":{"amenity":"waste_basket"}},"type":"Feature"},
	{"geometry":{"coordinates":[30.425199,59.718762],"type":"Point"},"properties":{"osm_id":"8816445053","tag":{"amenity":"waste_basket"}},"type":"Feature"},
	{"geometry":{"coordinates":[30.42515,59.719188],"type":"Point"},"properties":{"osm_id":"8816445054","tag":{"amenity":"waste_basket"}},"type":"Feature"},
	{"geometry":{"coordinates":[30.425418,59.719097],"type":"Point"},"properties":{"osm_id":"8816445055","tag":{"amenity":"waste_basket"}},"type":"Feature"},
	{"geometry":{"coordinates":[30.425745,59.718988],"type":"Point"},"properties":{"osm_id":"8816445056","tag":{"amenity":"waste_basket"}},"type":"Feature"},
	{"geometry":{"coordinates":[30.427347,59.716982],"type":"Point"},"properties":{"osm_id":"8821063205","tag":{"amenity":"waste_disposal"}},"type":"Feature"},
	{"geometry":{"coordinates":[30.418174,59.727058],"type":"Point"},"properties":{"osm_id":"8825692627","tag":{"amenity":"waste_basket"}},"type":"Feature"},
	{"geometry":{"coordinates":[30.421743,59.726122],"type":"Point"},"properties":{"osm_id":"8825692635","tag":{"amenity":"waste_basket"}},"type":"Feature"},
	{"geometry":{"coordinates":[30.422025,59.726096],"type":"Point"},"properties":{"osm_id":"8825692636","tag":{"amenity":"waste_basket"}},"type":"Feature"},
	{"geometry":{"coordinates":[30.421799,59.726172],"type":"Point"},"properties":{"osm_id":"8825692638","tag":{"amenity":"waste_basket"}},"type":"Feature"},
	{"geometry":{"coordinates":[30.424928,59.726154],"type":"Point"},"properties":{"osm_id":"8825692656","tag":{"amenity":"waste_basket"}},"type":"Feature"},
	{"geometry":{"coordinates":[30.42467,59.726258],"type":"Point"},"properties":{"osm_id":"8825692657","tag":{"amenity":"waste_basket"}},"type":"Feature"},
	{"geometry":{"coordinates":[30.425542,59.715009],"type":"Point"},"properties":{"osm_id":"8828073059","tag":{"amenity":"waste_basket"}},"type":"Feature"},
	{"geometry":{"coordinates":[30.424756,59.715251],"type":"Point"},"properties":{"osm_id":"8828073061","tag":{"amenity":"waste_basket"}},"type":"Feature"},
	{"geometry":{"coordinates":[30.420991,59.717875],"type":"Point"},"properties":{"osm_id":"8828216466","tag":{"amenity":"waste_basket"}},"type":"Feature"},
	{"geometry":{"coordinates":[30.421105,59.717838],"type":"Point"},"properties":{"osm_id":"8828216467","tag":{"amenity":"waste_basket"}},"type":"Feature"},
	{"geometry":{"coordinates":[30.422526,59.719062],"type":"Point"},"properties":{"osm_id":"8828216474","tag":{"amenity":"waste_disposal"}},"type":"Feature"},
	{"geometry":{"coordinates":[30.425201,59.715713],"type":"Point"},"properties":{"osm_id":"8829080880","tag":{"amenity":"waste_disposal"}},"type":"Feature"},
	{"geometry":{"coordinates":[30.424539,59.71558],"type":"Point"},"properties":{"osm_id":"8829080886","tag":{"amenity":"waste_disposal"}},"type":"Feature"},
	{"geometry":{"coordinates":[30.426414,59.717906],"type":"Point"},"properties":{"osm_id":"8829338787","tag":{"amenity":"waste_basket"}},"type":"Feature"},
	{"geometry":{"coordinates":[30.428115,59.720077],"type":"Point"},"properties":{"osm_id":"8829432021","tag":{"amenity":"waste_disposal"}},"type":"Feature"},
	{"geometry":{"coordinates":[30.428091,59.720094],"type":"Point"},"properties":{"osm_id":"8829432022","tag":{"amenity":"waste_disposal"}},"type":"Feature"},
	{"geometry":{"coordinates":[30.417701,59.720195],"type":"Point"},"properties":{"osm_id":"8830158260","tag":{"amenity":"waste_disposal"}},"type":"Feature"},
	{"geometry":{"coordinates":[30.417316,59.724649],"type":"Point"},"properties":{"osm_id":"8830158299","tag":{"amenity":"waste_disposal"}},"type":"Feature"},
	{"geometry":{"coordinates":[30.423523,59.723651],"type":"Point"},"properties":{"osm_id":"8830158319","tag":{"amenity":"waste_disposal"}},"type":"Feature"},
	{"geometry":{"coordinates":[30.424009,59.722924],"type":"Point"},"properties":{"osm_id":"8830441295","tag":{"amenity":"waste_basket"}},"type":"Feature"},
	{"geometry":{"coordinates":[30.42395,59.722914],"type":"Point"},"properties":{"osm_id":"8830441296","tag":{"amenity":"waste_basket"}},"type":"Feature"},
	{"geometry":{"coordinates":[30.423885,59.720728],"type":"Point"},"properties":{"osm_id":"8830496209","tag":{"amenity":"waste_disposal"}},"type":"Feature"},
	{"geometry":{"coordinates":[30.421673,59.719018],"type":"Point"},"properties":{"osm_id":"8830496222","tag":{"amenity":"waste_disposal"}},"type":"Feature"},
	{"geometry":{"coordinates":[30.421473,59.718863],"type":"Point"},"properties":{"osm_id":"8830496223","tag":{"amenity":"waste_disposal"}},"type":"Feature"},
	{"geometry":{"coordinates":[30.420179,59.72732],"type":"Point"},"properties":{"osm_id":"8830507344","tag":{"amenity":"waste_disposal"}},"type":"Feature"},
	{"geometry":{"coordinates":[30.413134,59.724709],"type":"Point"},"properties":{"osm_id":"8830507388","tag":{"amenity":"waste_basket"}},"type":"Feature"},
	{"geometry":{"coordinates":[30.412831,59.724717],"type":"Point"},"properties":{"osm_id":"8830507389","tag":{"amenity":"waste_basket"}},"type":"Feature"},
	{"geometry":{"coordinates":[30.416374,59.723953],"type":"Point"},"properties":{"osm_id":"8830519353","tag":{"amenity":"waste_disposal"}},"type":"Feature"},
	{"geometry":{"coordinates":[30.415947,59.723946],"type":"Point"},"properties":{"osm_id":"8830519358","tag":{"amenity":"waste_basket"}},"type":"Feature"},
	{"geometry":{"coordinates":[30.415932,59.723914],"type":"Point"},"properties":{"osm_id":"8830519359","tag":{"amenity":"waste_basket"}},"type":"Feature"},
	{"geometry":{"coordinates":[30.421298,59.731392],"type":"Point"},"properties":{"osm_id":"8831889967","tag":{"amenity":"waste_disposal"}},"type":"Feature"},
	{"geometry":{"coordinates":[30.421738,59.731178],"type":"Point"},"properties":{"osm_id":"8831889968","tag":{"amenity":"waste_basket"}},"type":"Feature"},
	{"geometry":{"coordinates":[30.421487,59.731051],"type":"Point"},"properties":{"osm_id":"8831889969","tag":{"amenity":"waste_basket"}},"type":"Feature"},
	{"geometry":{"coordinates":[30.421419,59.730991],"type":"Point"},"properties":{"osm_id":"8831889970","tag":{"amenity":"waste_basket"}},"type":"Feature"},
	{"geometry":{"coordinates":[30.421649,59.730886],"type":"Point"},"properties":{"osm_id":"8831889971","tag":{"amenity":"waste_basket"}},"type":"Feature"},
	{"geometry":{"coordinates":[30.426625,59.715431],"type":"Point"},"properties":{"osm_id":"8832054469","tag":{"amenity":"waste_disposal"}},"type":"Feature"},
	{"geometry":{"coordinates":[30.427641,59.71745],"type":"Point"},"properties":{"osm_id":"8832054498","tag":{"amenity":"waste_basket"}},"type":"Feature"},
	{"geometry":{"coordinates":[30.426057,59.721801],"type":"Point"},"properties":{"osm_id":"8833281477","tag":{"amenity":"waste_disposal"}},"type":"Feature"},
	{"geometry":{"coordinates":[30.416694,59.722759],"type":"Point"},"properties":{"osm_id":"8836609695","tag":{"amenity":"waste_basket"}},"type":"Feature"},
	{"geometry":{"coordinates":[30.417498,59.722482],"type":"Point"},"properties":{"osm_id":"8836609696","tag":{"amenity":"waste_basket"}},"type":"Feature"},
	{"geometry":{"coordinates":[30.417335,59.72247],"type":"Point"},"properties":{"osm_id":"8836609697","tag":{"amenity":"waste_basket"}},"type":"Feature"},
	{"geometry":{"coordinates":[30.417277,59.722489],"type":"Point"},"properties":{"osm_id":"8836609698","tag":{"amenity":"waste_basket"}},"type":"Feature"},
	{"geometry":{"coordinates":[30.419267,59.739908],"type":"Point"},"properties":{"osm_id":"8847070673","tag":{"amenity":"waste_disposal"}},"type":"Feature"},
	{"geometry":{"coordinates":[30.410401,59.715168],"type":"Point"},"properties":{"osm_id":"8863694777","tag":{"amenity":"waste_disposal"}},"type":"Feature"},
	{"geometry":{"coordinates":[30.410441,59.713029],"type":"Point"},"properties":{"osm_id":"8866872930","tag":{"amenity":"waste_basket"}},"type":"Feature"},
	{"geometry":{"coordinates":[30.410403,59.713064],"type":"Point"},"properties":{"osm_id":"8866872931","tag":{"amenity":"waste_basket"}},"type":"Feature"}
]
}
