{
"type": "FeatureCollection",
"features": [
	{"geometry":{"coordinates":[30.427826,59.691269],"type":"Point"},"properties":{"osm_id":"1198985586","tag":{"amenity":"waste_basket"}},"type":"Feature"},
	{"geometry":{"coordinates":[30.422166,59.686002],"type":"Point"},"properties":{"osm_id":"1387491061","tag":{"amenity":"waste_disposal"}},"type":"Feature"},
	{"geometry":{"coordinates":[30.434054,59.687274],"type":"Point"},"properties":{"osm_id":"1395656692","tag":{"amenity":"waste_disposal"}},"type":"Feature"},
	{"geometry":{"coordinates":[30.488193,59.688517],"type":"Point"},"properties":{"osm_id":"1592189172","tag":{"amenity":"waste_disposal"}},"type":"Feature"},
	{"geometry":{"coordinates":[30.443176,59.702087],"type":"Point"},"properties":{"osm_id":"1682382733","tag":{"amenity":"waste_disposal"}},"type":"Feature"},
	{"geometry":{"coordinates":[30.453801,59.699533],"type":"Point"},"properties":{"osm_id":"1796471164","tag":{"amenity":"waste_disposal"}},"type":"Feature"},
	{"geometry":{"coordinates":[30.446569,59.684615],"type":"Point"},"properties":{"name":"\u00d0\u00ad\u00d0\u00ba\u00d0\u00be\u00d0\u00b1\u00d0\u00be\u00d0\u00ba\u00d1\u0081","osm_id":"2930338202","tag":{"amenity":"recycling","recycling:batteries":"yes","recycling_type":"container"}},"type":"Feature"},
	{"geometry":{"coordinates":[30.442839,59.683506],"type":"Point"},"properties":{"name":"\u00d0\u00ad\u00d0\u00ba\u00d0\u00be\u00d0\u00b1\u00d0\u00be\u00d0\u00ba\u00d1\u0081","osm_id":"2930338301","tag":{"amenity":"recycling","recycling:batteries":"yes","recycling:fluorescent_tubes":"yes","recycling:hazardous_waste":"yes","recycling:hydrargyrum":"yes","recycling:low_energy_bulbs":"yes","recycling_type":"container"}},"type":"Feature"},
	{"geometry":{"coordinates":[30.458467,59.679708],"type":"Point"},"properties":{"name":"\u00d0\u00ad\u00d0\u00ba\u00d0\u00be\u00d0\u00b1\u00d0\u00be\u00d0\u00ba\u00d1\u0081","osm_id":"2930338502","tag":{"amenity":"recycling","recycling:batteries":"yes","recycling_type":"container"}},"type":"Feature"},
	{"geometry":{"coordinates":[30.434962,59.692742],"type":"Point"},"properties":{"osm_id":"3252342114","tag":{"amenity":"waste_basket"}},"type":"Feature"},
	{"geometry":{"coordinates":[30.434714,59.692762],"type":"Point"},"properties":{"osm_id":"3252342144","tag":{"amenity":"waste_basket"}},"type":"Feature"},
	{"geometry":{"coordinates":[30.443034,59.695494],"type":"Point"},"properties":{"osm_id":"3353533468","tag":{"amenity":"waste_basket"}},"type":"Feature"},
	{"geometry":{"coordinates":[30.443509,59.695598],"type":"Point"},"properties":{"osm_id":"3353533474","tag":{"amenity":"waste_basket"}},"type":"Feature"},
	{"geometry":{"coordinates":[30.47546,59.698884],"type":"Point"},"properties":{"osm_id":"3756909687","tag":{"amenity":"waste_basket"}},"type":"Feature"},
	{"geometry":{"coordinates":[30.446012,59.692818],"type":"Point"},"properties":{"osm_id":"3966917359","tag":{"amenity":"waste_basket"}},"type":"Feature"},
	{"geometry":{"coordinates":[30.447107,59.692621],"type":"Point"},"properties":{"osm_id":"3966917375","tag":{"amenity":"waste_basket"}},"type":"Feature"},
	{"geometry":{"coordinates":[30.445023,59.692994],"type":"Point"},"properties":{"osm_id":"3966917379","tag":{"amenity":"waste_basket"}},"type":"Feature"},
	{"geometry":{"coordinates":[30.473274,59.696017],"type":"Point"},"properties":{"osm_id":"3967940350","tag":{"amenity":"waste_basket"}},"type":"Feature"},
	{"geometry":{"coordinates":[30.476197,59.695795],"type":"Point"},"properties":{"osm_id":"3967940355","tag":{"amenity":"waste_basket"}},"type":"Feature"},
	{"geometry":{"coordinates":[30.460069,59.686193],"type":"Point"},"properties":{"osm_id":"4082401693","tag":{"amenity":"waste_basket"}},"type":"Feature"},
	{"geometry":{"coordinates":[30.460005,59.686352],"type":"Point"},"properties":{"osm_id":"4082401708","tag":{"amenity":"waste_basket"}},"type":"Feature"},
	{"geometry":{"coordinates":[30.435623,59.693818],"type":"Point"},"properties":{"osm_id":"4099011804","tag":{"amenity":"waste_basket"}},"type":"Feature"},
	{"geometry":{"coordinates":[30.465131,59.690724],"type":"Point"},"properties":{"osm_id":"4099042131","tag":{"amenity":"waste_basket"}},"type":"Feature"},
	{"geometry":{"coordinates":[30.466553,59.68914],"type":"Point"},"properties":{"osm_id":"4099042134","tag":{"amenity":"waste_basket"}},"type":"Feature"},
	{"geometry":{"coordinates":[30.465191,59.695421],"type":"Point"},"properties":{"osm_id":"4099042140","tag":{"amenity":"waste_basket"}},"type":"Feature"},
	{"geometry":{"coordinates":[30.478208,59.695591],"type":"Point"},"properties":{"osm_id":"4255715837","tag":{"amenity":"waste_basket"}},"type":"Feature"},
	{"geometry":{"coordinates":[30.478405,59.695384],"type":"Point"},"properties":{"osm_id":"4255715838","tag":{"amenity":"waste_basket"}},"type":"Feature"},
	{"geometry":{"coordinates":[30.477383,59.697197],"type":"Point"},"properties":{"osm_id":"4255715842","tag":{"amenity":"waste_basket"}},"type":"Feature"},
	{"geometry":{"coordinates":[30.479474,59.696005],"type":"Point"},"properties":{"osm_id":"4255715850","tag":{"amenity":"waste_basket"}},"type":"Feature"},
	{"geometry":{"coordinates":[30.480049,59.695733],"type":"Point"},"properties":{"osm_id":"4255715851","tag":{"amenity":"waste_basket"}},"type":"Feature"},
	{"geometry":{"coordinates":[30.478748,59.696033],"type":"Point"},"properties":{"osm_id":"4255715854","tag":{"amenity":"waste_basket"}},"type":"Feature"},
	{"geometry":{"coordinates":[30.467807,59.699154],"type":"Point"},"properties":{"osm_id":"4255715860","tag":{"amenity":"waste_disposal"}},"type":"Feature"},
	{"geometry":{"coordinates":[30.479891,59.695341],"type":"Point"},"properties":{"osm_id":"4255715865","tag":{"amenity":"waste_basket"}},"type":"Feature"},
	{"geometry":{"coordinates":[30.478619,59.695971],"type":"Point"},"properties":{"osm_id":"4255715866","tag":{"amenity":"waste_basket"}},"type":"Feature"},
	{"geometry":{"coordinates":[30.479373,59.695179],"type":"Point"},"properties":{"osm_id":"4255715870","tag":{"amenity":"waste_basket"}},"type":"Feature"},
	{"geometry":{"coordinates":[30.462823,59.689907],"type":"Point"},"properties":{"osm_id":"4255746008","tag":{"amenity":"waste_basket"}},"type":"Feature"},
	{"geometry":{"coordinates":[30.464447,59.689744],"type":"Point"},"properties":{"osm_id":"4255746016","tag":{"amenity":"waste_basket"}},"type":"Feature"},
	{"geometry":{"coordinates":[30.468108,59.690414],"type":"Point"},"properties":{"osm_id":"4255746062","tag":{"amenity":"waste_basket"}},"type":"Feature"},
	{"geometry":{"coordinates":[30.460313,59.689086],"type":"Point"},"properties":{"osm_id":"4255809731","tag":{"amenity":"waste_basket"}},"type":"Feature"},
	{"geometry":{"coordinates":[30.460828,59.689071],"type":"Point"},"properties":{"osm_id":"4255809737","tag":{"amenity":"waste_basket"}},"type":"Feature"},
	{"geometry":{"coordinates":[30.459755,59.687054],"type":"Point"},"properties":{"osm_id":"4255809743","tag":{"amenity":"waste_basket"}},"type":"Feature"},
	{"geometry":{"coordinates":[30.461134,59.689601],"type":"Point"},"properties":{"osm_id":"4255809744","tag":{"amenity":"waste_basket"}},"type":"Feature"},
	{"geometry":{"coordinates":[30.460123,59.687636],"type":"Point"},"properties":{"osm_id":"4255809759","tag":{"amenity":"waste_basket"}},"type":"Feature"},
	{"geometry":{"coordinates":[30.417138,59.701613],"type":"Point"},"properties":{"osm_id":"4283704762","tag":{"amenity":"waste_disposal"}},"type":"Feature"},
	{"geometry":{"coordinates":[30.449291,59.686246],"type":"Point"},"properties":{"osm_id":"4302890058","tag":{"amenity":"waste_basket"}},"type":"Feature"},
	{"geometry":{"coordinates":[30.450102,59.686421],"type":"Point"},"properties":{"osm_id":"4302890060","tag":{"amenity":"waste_basket"}},"type":"Feature"},
	{"geometry":{"coordinates":[30.430269,59.690417],"type":"Point"},"properties":{"osm_id":"4519472891","tag":{"amenity":"waste_disposal"}},"type":"Feature"},
	{"geometry":{"coordinates":[30.414262,59.704541],"type":"Point"},"properties":{"osm_id":"4880876321","tag":{"amenity":"waste_disposal"}},"type":"Feature"},
	{"geometry":{"coordinates":[30.416943,59.704176],"type":"Point"},"properties":{"osm_id":"4880876421","tag":{"amenity":"waste_disposal"}},"type":"Feature"},
	{"geometry":{"coordinates":[30.474251,59.700455],"type":"Point"},"properties":{"osm_id":"4912271891","tag":{"amenity":"waste_disposal"}},"type":"Feature"},
	{"geometry":{"coordinates":[30.465328,59.695037],"type":"Point"},"properties":{"osm_id":"4987704144","tag":{"amenity":"waste_basket"}},"type":"Feature"},
	{"geometry":{"coordinates":[30.465415,59.695227],"type":"Point"},"properties":{"osm_id":"4987704145","tag":{"amenity":"waste_basket"}},"type":"Feature"},
	{"geometry":{"coordinates":[30.465233,59.695256],"type":"Point"},"properties":{"osm_id":"4987704146","tag":{"amenity":"waste_basket"}},"type":"Feature"},
	{"geometry":{"coordinates":[30.465135,59.695056],"type":"Point"},"properties":{"osm_id":"4987704147","tag":{"amenity":"waste_basket"}},"type":"Feature"},
	{"geometry":{"coordinates":[30.465335,59.695992],"type":"Point"},"properties":{"osm_id":"4987704149","tag":{"amenity":"waste_basket"}},"type":"Feature"},
	{"geometry":{"coordinates":[30.464926,59.69608],"type":"Point"},"properties":{"osm_id":"4987704150","tag":{"amenity":"waste_basket"}},"type":"Feature"},
	{"geometry":{"coordinates":[30.453507,59.684444],"type":"Point"},"properties":{"osm_id":"5003105213","tag":{"amenity":"waste_basket"}},"type":"Feature"},
	{"geometry":{"coordinates":[30.453463,59.684492],"type":"Point"},"properties":{"osm_id":"5003105215","tag":{"amenity":"waste_basket"}},"type":"Feature"},
	{"geometry":{"coordinates":[30.453369,59.684482],"type":"Point"},"properties":{"osm_id":"5003105217","tag":{"amenity":"waste_basket"}},"type":"Feature"},
	{"geometry":{"coordinates":[30.441029,59.681708],"type":"Point"},"properties":{"osm_id":"5139335331","tag":{"amenity":"waste_basket"}},"type":"Feature"},
	{"geometry":{"coordinates":[30.441251,59.68167],"type":"Point"},"properties":{"osm_id":"5139335332","tag":{"amenity":"waste_basket"}},"type":"Feature"},
	{"geometry":{"coordinates":[30.441184,59.681753],"type":"Point"},"properties":{"osm_id":"5139335333","tag":{"amenity":"waste_basket"}},"type":"Feature"},
	{"geometry":{"coordinates":[30.441056,59.681676],"type":"Point"},"properties":{"osm_id":"5139335334","tag":{"amenity":"waste_basket"}},"type":"Feature"},
	{"geometry":{"coordinates":[30.441089,59.681639],"type":"Point"},"properties":{"osm_id":"5139354936","tag":{"amenity":"waste_basket"}},"type":"Feature"},
	{"geometry":{"coordinates":[30.427091,59.70046],"type":"Point"},"properties":{"osm_id":"5551955622","tag":{"amenity":"waste_basket"}},"type":"Feature"},
	{"geometry":{"coordinates":[30.426627,59.701951],"type":"Point"},"properties":{"osm_id":"5551955624","tag":{"amenity":"waste_basket"}},"type":"Feature"},
	{"geometry":{"coordinates":[30.426421,59.702837],"type":"Point"},"properties":{"osm_id":"5551955625","tag":{"amenity":"waste_basket"}},"type":"Feature"},
	{"geometry":{"coordinates":[30.427712,59.699879],"type":"Point"},"properties":{"osm_id":"5552022021","tag":{"amenity":"waste_basket"}},"type":"Feature"},
	{"geometry":{"coordinates":[30.426672,59.700886],"type":"Point"},"properties":{"osm_id":"5552022121","tag":{"amenity":"waste_basket"}},"type":"Feature"},
	{"geometry":{"coordinates":[30.426646,59.701487],"type":"Point"},"properties":{"osm_id":"5552022122","tag":{"amenity":"waste_basket"}},"type":"Feature"},
	{"geometry":{"coordinates":[30.426544,59.702515],"type":"Point"},"properties":{"osm_id":"5552022123","tag":{"amenity":"waste_basket"}},"type":"Feature"},
	{"geometry":{"coordinates":[30.426591,59.70221],"type":"Point"},"properties":{"osm_id":"5552022221","tag":{"amenity":"waste_basket"}},"type":"Feature"},
	{"geometry":{"coordinates":[30.426154,59.70326],"type":"Point"},"properties":{"osm_id":"5552022421","tag":{"amenity":"waste_basket"}},"type":"Feature"},
	{"geometry":{"coordinates":[30.424697,59.708697],"type":"Point"},"properties":{"osm_id":"5552028121","tag":{"amenity":"waste_basket"}},"type":"Feature"},
	{"geometry":{"coordinates":[30.416946,59.704165],"type":"Point"},"properties":{"osm_id":"5613136489","tag":{"amenity":"recycling","opening_hours":"24/7","operator":"\u00d0\u00ad\u00d0\u00ba\u00d0\u00be\u00d0\u00b1\u00d0\u00be\u00d0\u00ba\u00d1\u0081","recycling:batteries":"yes","recycling:electrical_appliances":"yes","recycling_type":"container"}},"type":"Feature"},
	{"geometry":{"coordinates":[30.413931,59.703233],"type":"Point"},"properties":{"osm_id":"5613145007","tag":{"amenity":"recycling","description":"\u00d0\u0091\u00d0\u00be\u00d0\u00ba\u00d1\u0081 \u00d0\u00b4\u00d0\u00bb\u00d1\u008f \u00d1\u0081\u00d0\u00b1\u00d0\u00be\u00d1\u0080\u00d0\u00b0 \u00d0\u00bb\u00d1\u008e\u00d0\u00bc\u00d0\u00b8\u00d0\u00bd\u00d0\u00b8\u00d1\u0081\u00d1\u0086\u00d0\u00b5\u00d0\u00bd\u00d1\u0082\u00d0\u00bd\u00d1\u008b\u00d1\u0085 \u00d0\u00bb\u00d0\u00b0\u00d0\u00bc\u00d0\u00bf, \u00d1\u0080\u00d1\u0082\u00d1\u0083\u00d1\u0082\u00d0\u00bd\u00d1\u008b\u00d1\u0085 \u00d0\u00b3\u00d1\u0080\u00d0\u00b0\u00d0\u00b4\u00d1\u0083\u00d1\u0081\u00d0\u00bd\u00d0\u00b8\u00d0\u00ba\u00d0\u00be\u00d0\u00b2, \u00d0\u00b1\u00d0\u00b0\u00d1\u0082\u00d0\u00b0\u00d1\u0080\u00d0\u00b5\u00d0\u00b5\u00d0\u00ba, \u00d0\u00b0\u00d0\u00ba\u00d0\u00ba\u00d1\u0083\u00d0\u00bc\u00d1\u0083\u00d0\u00bb\u00d1\u008f\u00d1\u0082\u00d0\u00be\u00d1\u0080\u00d0\u00be\u00d0\u00b2.","operator":"\u00d0\u00ad\u00d0\u00ba\u00d0\u00be\u00d0\u00b1\u00d0\u00be\u00d0\u00ba\u00d1\u0081","recycling:batteries":"yes","recycling:electrical_appliances":"yes","recycling_type":"container"}},"type":"Feature"},
	{"geometry":{"coordinates":[30.434907,59.692834],"type":"Point"},"properties":{"osm_id":"5830535213","tag":{"amenity":"waste_basket"}},"type":"Feature"},
	{"geometry":{"coordinates":[30.42794,59.699611],"type":"Point"},"properties":{"osm_id":"5830535214","tag":{"amenity":"waste_basket"}},"type":"Feature"},
	{"geometry":{"coordinates":[30.438345,59.691262],"type":"Point"},"properties":{"osm_id":"5830535228","tag":{"amenity":"waste_basket"}},"type":"Feature"},
	{"geometry":{"coordinates":[30.438447,59.691387],"type":"Point"},"properties":{"osm_id":"5830535230","tag":{"amenity":"waste_basket"}},"type":"Feature"},
	{"geometry":{"coordinates":[30.42663,59.701206],"type":"Point"},"properties":{"osm_id":"5830535241","tag":{"amenity":"waste_basket"}},"type":"Feature"},
	{"geometry":{"coordinates":[30.427117,59.700438],"type":"Point"},"properties":{"osm_id":"5830535244","tag":{"amenity":"waste_basket"}},"type":"Feature"},
	{"geometry":{"coordinates":[30.442268,59.686218],"type":"Point"},"properties":{"osm_id":"7335733665","tag":{"amenity":"waste_disposal"}},"type":"Feature"},
	{"geometry":{"coordinates":[30.436632,59.683178],"type":"Point"},"properties":{"osm_id":"7335733666","tag":{"amenity":"waste_disposal"}},"type":"Feature"},
	{"geometry":{"coordinates":[30.439103,59.683056],"type":"Point"},"properties":{"osm_id":"7335733667","tag":{"amenity":"waste_disposal"}},"type":"Feature"},
	{"geometry":{"coordinates":[30.441057,59.683975],"type":"Point"},"properties":{"osm_id":"7335733668","tag":{"amenity":"waste_disposal"}},"type":"Feature"},
	{"geometry":{"coordinates":[30.428287,59.677753],"type":"Point"},"properties":{"osm_id":"7351184227","tag":{"amenity":"waste_disposal"}},"type":"Feature"},
	{"geometry":{"coordinates":[30.442619,59.684281],"type":"Point"},"properties":{"osm_id":"7561153476","tag":{"amenity":"recycling","recycling:batteries":"yes"}},"type":"Feature"},
	{"geometry":{"coordinates":[30.434855,59.692699],"type":"Point"},"properties":{"osm_id":"7844791893","tag":{"amenity":"waste_basket"}},"type":"Feature"},
	{"geometry":{"coordinates":[30.451473,59.697316],"type":"Point"},"properties":{"osm_id":"7879098086","tag":{"amenity":"waste_disposal"}},"type":"Feature"},
	{"geometry":{"coordinates":[30.445623,59.691027],"type":"Point"},"properties":{"osm_id":"7900716340","tag":{"amenity":"waste_disposal"}},"type":"Feature"},
	{"geometry":{"coordinates":[30.441525,59.688677],"type":"Point"},"properties":{"osm_id":"7942333010","tag":{"amenity":"waste_disposal"}},"type":"Feature"},
	{"geometry":{"coordinates":[30.444814,59.688775],"type":"Point"},"properties":{"osm_id":"7943471600","tag":{"amenity":"waste_disposal"}},"type":"Feature"},
	{"geometry":{"coordinates":[30.448383,59.688109],"type":"Point"},"properties":{"osm_id":"7947420087","tag":{"amenity":"waste_basket"}},"type":"Feature"}
]
}
