{
"type": "FeatureCollection",
"features": [
	{"geometry":{"coordinates":[30.485837,50.372685],"type":"Point"},"properties":{"osm_id":"1315123187","tag":{"amenity":"recycling","recycling_type":"container"}},"type":"Feature"},
	{"geometry":{"coordinates":[30.489048,50.389489],"type":"Point"},"properties":{"osm_id":"1319330179","tag":{"amenity":"waste_disposal","waste":"trash"}},"type":"Feature"},
	{"geometry":{"coordinates":[30.488863,50.388933],"type":"Point"},"properties":{"osm_id":"1319330180","tag":{"amenity":"waste_disposal","waste":"trash"}},"type":"Feature"},
	{"geometry":{"coordinates":[30.481974,50.373584],"type":"Point"},"properties":{"osm_id":"1321351023","tag":{"amenity":"recycling","recycling_type":"container"}},"type":"Feature"},
	{"geometry":{"coordinates":[30.483312,50.370679],"type":"Point"},"properties":{"osm_id":"1321351042","tag":{"amenity":"recycling","recycling_type":"container"}},"type":"Feature"},
	{"geometry":{"coordinates":[30.489801,50.388656],"type":"Point"},"properties":{"osm_id":"1597939279","tag":{"amenity":"waste_disposal","waste":"trash"}},"type":"Feature"},
	{"geometry":{"coordinates":[30.489441,50.390352],"type":"Point"},"properties":{"osm_id":"1597939318","tag":{"amenity":"waste_disposal","waste":"trash"}},"type":"Feature"},
	{"geometry":{"coordinates":[30.487428,50.389118],"type":"Point"},"properties":{"osm_id":"1608367256","tag":{"amenity":"recycling","recycling_type":"container"}},"type":"Feature"},
	{"geometry":{"coordinates":[30.49011,50.383732],"type":"Point"},"properties":{"osm_id":"1690662449","tag":{"amenity":"waste_disposal","waste":"trash"}},"type":"Feature"},
	{"geometry":{"coordinates":[30.488929,50.383778],"type":"Point"},"properties":{"osm_id":"1690662466","tag":{"amenity":"waste_disposal","waste":"trash"}},"type":"Feature"},
	{"geometry":{"coordinates":[30.488724,50.384649],"type":"Point"},"properties":{"osm_id":"1690662469","tag":{"amenity":"waste_disposal","waste":"trash"}},"type":"Feature"},
	{"geometry":{"coordinates":[30.490227,50.384974],"type":"Point"},"properties":{"osm_id":"1690662477","tag":{"amenity":"waste_disposal","waste":"trash"}},"type":"Feature"},
	{"geometry":{"coordinates":[30.490537,50.38536],"type":"Point"},"properties":{"osm_id":"1690662480","tag":{"amenity":"waste_disposal","waste":"trash"}},"type":"Feature"},
	{"geometry":{"coordinates":[30.49121,50.389117],"type":"Point"},"properties":{"osm_id":"1701660136","tag":{"amenity":"waste_disposal","waste":"trash"}},"type":"Feature"},
	{"geometry":{"coordinates":[30.495279,50.389326],"type":"Point"},"properties":{"osm_id":"1701660171","tag":{"amenity":"waste_disposal","waste":"trash"}},"type":"Feature"},
	{"geometry":{"coordinates":[30.492153,50.38965],"type":"Point"},"properties":{"osm_id":"1701660259","tag":{"amenity":"waste_disposal","waste":"trash"}},"type":"Feature"},
	{"geometry":{"coordinates":[30.491422,50.390076],"type":"Point"},"properties":{"osm_id":"1701660319","tag":{"amenity":"waste_disposal","waste":"trash"}},"type":"Feature"},
	{"geometry":{"coordinates":[30.483453,50.379125],"type":"Point"},"properties":{"osm_id":"1716613911","tag":{"amenity":"waste_basket"}},"type":"Feature"},
	{"geometry":{"coordinates":[30.483519,50.379179],"type":"Point"},"properties":{"osm_id":"1716613932","tag":{"amenity":"waste_basket"}},"type":"Feature"},
	{"geometry":{"coordinates":[30.483255,50.379329],"type":"Point"},"properties":{"osm_id":"1716613981","tag":{"amenity":"waste_basket"}},"type":"Feature"},
	{"geometry":{"coordinates":[30.483327,50.379386],"type":"Point"},"properties":{"osm_id":"1716614020","tag":{"amenity":"waste_basket"}},"type":"Feature"},
	{"geometry":{"coordinates":[30.47991,50.380535],"type":"Point"},"properties":{"osm_id":"1716614102","tag":{"amenity":"waste_basket"}},"type":"Feature"},
	{"geometry":{"coordinates":[30.479896,50.380732],"type":"Point"},"properties":{"osm_id":"1716614111","tag":{"amenity":"waste_disposal","waste":"trash"}},"type":"Feature"},
	{"geometry":{"coordinates":[30.4807,50.381024],"type":"Point"},"properties":{"osm_id":"1716614224","tag":{"amenity":"waste_basket"}},"type":"Feature"},
	{"geometry":{"coordinates":[30.489388,50.391449],"type":"Point"},"properties":{"osm_id":"1876604667","tag":{"amenity":"waste_disposal","waste":"trash"}},"type":"Feature"},
	{"geometry":{"coordinates":[30.496847,50.392326],"type":"Point"},"properties":{"osm_id":"1879810623","tag":{"amenity":"waste_disposal"}},"type":"Feature"},
	{"geometry":{"coordinates":[30.493086,50.391838],"type":"Point"},"properties":{"osm_id":"1879810675","tag":{"amenity":"waste_disposal","waste":"trash"}},"type":"Feature"},
	{"geometry":{"coordinates":[30.493008,50.392542],"type":"Point"},"properties":{"osm_id":"1879810900","tag":{"amenity":"waste_disposal","waste":"trash"}},"type":"Feature"},
	{"geometry":{"coordinates":[30.492583,50.393591],"type":"Point"},"properties":{"osm_id":"1885902014","tag":{"amenity":"waste_disposal","waste":"trash"}},"type":"Feature"},
	{"geometry":{"coordinates":[30.494032,50.392781],"type":"Point"},"properties":{"osm_id":"1888851439","tag":{"amenity":"waste_disposal","waste":"trash"}},"type":"Feature"},
	{"geometry":{"coordinates":[30.490495,50.393379],"type":"Point"},"properties":{"barrier":"gate","osm_id":"1888851447","tag":{"amenity":"waste_disposal","bicycle":"no","foot":"no","waste":"trash"}},"type":"Feature"},
	{"geometry":{"coordinates":[30.497563,50.391545],"type":"Point"},"properties":{"osm_id":"1920718506","tag":{"amenity":"waste_disposal"}},"type":"Feature"},
	{"geometry":{"coordinates":[30.495637,50.394029],"type":"Point"},"properties":{"osm_id":"1920920171","tag":{"amenity":"waste_disposal","waste":"trash"}},"type":"Feature"},
	{"geometry":{"coordinates":[30.49656,50.394097],"type":"Point"},"properties":{"osm_id":"1920920173","tag":{"amenity":"waste_disposal","waste":"trash"}},"type":"Feature"},
	{"geometry":{"coordinates":[30.497382,50.39435],"type":"Point"},"properties":{"osm_id":"1992928272","tag":{"amenity":"waste_disposal"}},"type":"Feature"},
	{"geometry":{"coordinates":[30.497662,50.393593],"type":"Point"},"properties":{"osm_id":"1996857809","tag":{"amenity":"waste_disposal"}},"type":"Feature"},
	{"geometry":{"coordinates":[30.489705,50.382555],"type":"Point"},"properties":{"osm_id":"2043665204","tag":{"amenity":"waste_disposal","waste":"trash"}},"type":"Feature"},
	{"geometry":{"coordinates":[30.489662,50.390852],"type":"Point"},"properties":{"osm_id":"2359910061","tag":{"amenity":"waste_disposal"}},"type":"Feature"},
	{"geometry":{"coordinates":[30.491242,50.392652],"type":"Point"},"properties":{"osm_id":"2879446534","tag":{"amenity":"waste_disposal"}},"type":"Feature"},
	{"geometry":{"coordinates":[30.494558,50.390336],"type":"Point"},"properties":{"osm_id":"2879446535","tag":{"amenity":"waste_disposal"}},"type":"Feature"},
	{"geometry":{"coordinates":[30.494787,50.39148],"type":"Point"},"properties":{"osm_id":"2879446540","tag":{"amenity":"waste_disposal"}},"type":"Feature"},
	{"geometry":{"coordinates":[30.493139,50.392165],"type":"Point"},"properties":{"osm_id":"2933093837","tag":{"amenity":"waste_disposal"}},"type":"Feature"},
	{"geometry":{"coordinates":[30.481696,50.383499],"type":"Point"},"properties":{"osm_id":"3461370321","tag":{"amenity":"waste_disposal"}},"type":"Feature"},
	{"geometry":{"coordinates":[30.48403,50.384538],"type":"Point"},"properties":{"osm_id":"3461371223","tag":{"amenity":"waste_disposal"}},"type":"Feature"},
	{"geometry":{"coordinates":[30.483808,50.382441],"type":"Point"},"properties":{"osm_id":"3461383206","tag":{"amenity":"waste_disposal"}},"type":"Feature"},
	{"geometry":{"coordinates":[30.484202,50.384606],"type":"Point"},"properties":{"osm_id":"3461386396","tag":{"amenity":"waste_disposal"}},"type":"Feature"},
	{"geometry":{"coordinates":[30.489246,50.352033],"type":"Point"},"properties":{"osm_id":"4014232258","tag":{"amenity":"waste_basket"}},"type":"Feature"},
	{"geometry":{"coordinates":[30.455012,50.384239],"type":"Point"},"properties":{"osm_id":"4144596914","tag":{"amenity":"waste_disposal"}},"type":"Feature"},
	{"geometry":{"coordinates":[30.456141,50.384619],"type":"Point"},"properties":{"osm_id":"4144596923","tag":{"amenity":"waste_disposal"}},"type":"Feature"},
	{"geometry":{"coordinates":[30.481691,50.387558],"type":"Point"},"properties":{"osm_id":"4385269811","tag":{"amenity":"waste_disposal"}},"type":"Feature"},
	{"geometry":{"coordinates":[30.483328,50.387966],"type":"Point"},"properties":{"osm_id":"4385321722","tag":{"amenity":"waste_disposal"}},"type":"Feature"},
	{"geometry":{"coordinates":[30.483103,50.386594],"type":"Point"},"properties":{"osm_id":"4385362608","tag":{"amenity":"waste_disposal"}},"type":"Feature"},
	{"geometry":{"coordinates":[30.484152,50.388143],"type":"Point"},"properties":{"osm_id":"4385362615","tag":{"amenity":"waste_disposal"}},"type":"Feature"},
	{"geometry":{"coordinates":[30.484898,50.387534],"type":"Point"},"properties":{"osm_id":"4385362616","tag":{"amenity":"waste_disposal"}},"type":"Feature"},
	{"geometry":{"coordinates":[30.485247,50.393554],"type":"Point"},"properties":{"osm_id":"4448981099","tag":{"amenity":"recycling","recycling:plastic_caps":"yes","recycling_type":"container"}},"type":"Feature"},
	{"geometry":{"coordinates":[30.48513,50.393456],"type":"Point"},"properties":{"osm_id":"4448981102","tag":{"amenity":"recycling","description":"\u00d0\u0091\u00d0\u00b0\u00d1\u0082\u00d0\u00b0\u00d1\u0080\u00d0\u00b5\u00d0\u00b9\u00d0\u00ba\u00d0\u00b8 \u00d0\u00b7\u00d0\u00b4\u00d0\u00b0\u00d0\u00b2\u00d0\u00b0\u00d0\u00b9\u00d1\u0082\u00d0\u00b5\u00d1\u0081\u00d1\u008c","recycling:batteries":"yes","recycling_type":"container"}},"type":"Feature"},
	{"geometry":{"coordinates":[30.483139,50.389757],"type":"Point"},"properties":{"osm_id":"4459906862","tag":{"amenity":"waste_basket"}},"type":"Feature"},
	{"geometry":{"coordinates":[30.486424,50.350744],"type":"Point"},"properties":{"osm_id":"4544439090","tag":{"amenity":"waste_basket"}},"type":"Feature"},
	{"geometry":{"coordinates":[30.488443,50.352412],"type":"Point"},"properties":{"osm_id":"4544439091","tag":{"amenity":"waste_basket"}},"type":"Feature"},
	{"geometry":{"coordinates":[30.488048,50.352227],"type":"Point"},"properties":{"osm_id":"4544439092","tag":{"amenity":"waste_basket"}},"type":"Feature"},
	{"geometry":{"coordinates":[30.487609,50.352066],"type":"Point"},"properties":{"osm_id":"4544439093","tag":{"amenity":"waste_basket"}},"type":"Feature"},
	{"geometry":{"coordinates":[30.456862,50.384285],"type":"Point"},"properties":{"osm_id":"4565228857","tag":{"amenity":"waste_disposal"}},"type":"Feature"},
	{"geometry":{"coordinates":[30.470732,50.392874],"type":"Point"},"properties":{"osm_id":"4614185135","tag":{"amenity":"waste_disposal"}},"type":"Feature"},
	{"geometry":{"coordinates":[30.470531,50.393615],"type":"Point"},"properties":{"osm_id":"4614185136","tag":{"amenity":"waste_disposal"}},"type":"Feature"},
	{"geometry":{"coordinates":[30.46415,50.391103],"type":"Point"},"properties":{"osm_id":"4614203458","tag":{"amenity":"waste_disposal"}},"type":"Feature"},
	{"geometry":{"coordinates":[30.471044,50.384698],"type":"Point"},"properties":{"osm_id":"4922108289","tag":{"amenity":"waste_disposal"}},"type":"Feature"},
	{"geometry":{"coordinates":[30.47242,50.385193],"type":"Point"},"properties":{"osm_id":"4922108322","tag":{"amenity":"waste_disposal","contact:website":"http://eco-stok.com.ua/","operator":"\u00d0\u0095\u00d0\u00ba\u00d0\u00be-\u00d0\u00a1\u00d1\u0082\u00d0\u00be\u00d0\u00ba"}},"type":"Feature"},
	{"geometry":{"coordinates":[30.467962,50.38517],"type":"Point"},"properties":{"osm_id":"4922108358","tag":{"amenity":"waste_disposal"}},"type":"Feature"},
	{"geometry":{"coordinates":[30.496497,50.363715],"type":"Point"},"properties":{"osm_id":"5140351178","tag":{"amenity":"waste_basket"}},"type":"Feature"},
	{"geometry":{"coordinates":[30.468465,50.386667],"type":"Point"},"properties":{"osm_id":"5284186821","tag":{"amenity":"waste_disposal"}},"type":"Feature"},
	{"geometry":{"coordinates":[30.46448,50.387186],"type":"Point"},"properties":{"osm_id":"5284186822","tag":{"amenity":"waste_disposal"}},"type":"Feature"},
	{"geometry":{"coordinates":[30.461427,50.385443],"type":"Point"},"properties":{"osm_id":"5284186921","tag":{"amenity":"waste_disposal"}},"type":"Feature"},
	{"geometry":{"coordinates":[30.48824,50.352053],"type":"Point"},"properties":{"osm_id":"5458606978","tag":{"amenity":"waste_basket"}},"type":"Feature"},
	{"geometry":{"coordinates":[30.459443,50.384772],"type":"Point"},"properties":{"osm_id":"5924110554","tag":{"amenity":"waste_disposal"}},"type":"Feature"},
	{"geometry":{"coordinates":[30.462577,50.384903],"type":"Point"},"properties":{"osm_id":"5937628363","tag":{"amenity":"waste_disposal"}},"type":"Feature"},
	{"geometry":{"coordinates":[30.490254,50.377252],"type":"Point"},"properties":{"osm_id":"5977177969","tag":{"amenity":"waste_disposal"}},"type":"Feature"},
	{"geometry":{"coordinates":[30.489916,50.377203],"type":"Point"},"properties":{"osm_id":"5977177970","tag":{"amenity":"waste_disposal"}},"type":"Feature"},
	{"geometry":{"coordinates":[30.436686,50.356382],"type":"Point"},"properties":{"name":"\u00d0\u009f\u00d1\u0083\u00d0\u00bd\u00d0\u00ba\u00d1\u0082 \u00d0\u00b7\u00d0\u00b1\u00d0\u00be\u00d1\u0080\u00d1\u0083 \u00d0\u00b2\u00d1\u0082\u00d0\u00be\u00d1\u0080\u00d1\u0081\u00d0\u00b8\u00d1\u0080\u00d0\u00be\u00d0\u00b2\u00d0\u00b8\u00d0\u00bd\u00d0\u00b8","osm_id":"6423661128","tag":{"amenity":"recycling","recycling:glass":"yes","recycling:glass_bottles":"yes","recycling:plastic":"yes","recycling:plastic_bottles":"yes","recycling_type":"container"}},"type":"Feature"},
	{"geometry":{"coordinates":[30.434314,50.363197],"type":"Point"},"properties":{"name":"\u00d0\u009f\u00d1\u0083\u00d0\u00bd\u00d0\u00ba\u00d1\u0082 \u00d0\u00b7\u00d0\u00b1\u00d0\u00be\u00d1\u0080\u00d1\u0083 \u00d0\u00b2\u00d1\u0082\u00d0\u00be\u00d1\u0080\u00d1\u0081\u00d0\u00b8\u00d1\u0080\u00d0\u00be\u00d0\u00b2\u00d0\u00b8\u00d0\u00bd\u00d0\u00b8","osm_id":"6423661129","tag":{"amenity":"recycling","recycling:glass":"yes","recycling:glass_bottles":"yes","recycling:plastic":"yes","recycling:plastic_bottles":"yes","recycling_type":"container"}},"type":"Feature"},
	{"geometry":{"coordinates":[30.495507,50.392892],"type":"Point"},"properties":{"osm_id":"7039225302","tag":{"amenity":"waste_disposal"}},"type":"Feature"},
	{"geometry":{"coordinates":[30.419697,50.352026],"type":"Point"},"properties":{"name":"\u00d0\u009f\u00d1\u0083\u00d0\u00bd\u00d0\u00ba\u00d1\u0082 \u00d0\u00b7\u00d0\u00b1\u00d0\u00be\u00d1\u0080\u00d1\u0083 \u00d0\u00b2\u00d1\u0082\u00d0\u00be\u00d1\u0080\u00d1\u0081\u00d0\u00b8\u00d1\u0080\u00d0\u00be\u00d0\u00b2\u00d0\u00b8\u00d0\u00bd\u00d0\u00b8","osm_id":"7296490128","tag":{"amenity":"recycling","recycling:aluminium":"yes","recycling:glass":"yes","recycling:glass_bottles":"yes","recycling:plastic":"yes","recycling:plastic_bottles":"yes","recycling_type":"container"}},"type":"Feature"},
	{"geometry":{"coordinates":[30.41586,50.355081],"type":"Point"},"properties":{"name":"\u00d0\u009f\u00d1\u0083\u00d0\u00bd\u00d0\u00ba\u00d1\u0082 \u00d0\u00b7\u00d0\u00b1\u00d0\u00be\u00d1\u0080\u00d1\u0083 \u00d0\u00b2\u00d1\u0082\u00d0\u00be\u00d1\u0080\u00d1\u0081\u00d0\u00b8\u00d1\u0080\u00d0\u00be\u00d0\u00b2\u00d0\u00b8\u00d0\u00bd\u00d0\u00b8","osm_id":"7416836374","tag":{"amenity":"recycling","recycling:aluminium":"yes","recycling:glass":"yes","recycling:glass_bottles":"yes","recycling:plastic":"yes","recycling:plastic_bottles":"yes","recycling_type":"container"}},"type":"Feature"},
	{"geometry":{"coordinates":[30.476147,50.382564],"type":"Point"},"properties":{"osm_id":"7519573817","tag":{"amenity":"waste_disposal","covered":"yes"}},"type":"Feature"},
	{"geometry":{"coordinates":[30.480302,50.388017],"type":"Point"},"properties":{"osm_id":"7570284608","tag":{"amenity":"waste_disposal"}},"type":"Feature"},
	{"geometry":{"coordinates":[30.475062,50.383369],"type":"Point"},"properties":{"osm_id":"7573208975","tag":{"amenity":"waste_disposal"}},"type":"Feature"},
	{"geometry":{"coordinates":[30.465698,50.385083],"type":"Point"},"properties":{"osm_id":"7589678871","tag":{"amenity":"waste_disposal","waste":"plastic;trash"}},"type":"Feature"},
	{"geometry":{"coordinates":[30.476027,50.388124],"type":"Point"},"properties":{"osm_id":"7611777362","tag":{"amenity":"waste_disposal","contact:website":"http://www.kramar-eko.com.ua/","covered":"yes","operator":"Kramar-eko","waste":"plastic;trash;glass;paper"}},"type":"Feature"},
	{"geometry":{"coordinates":[30.475122,50.386949],"type":"Point"},"properties":{"osm_id":"7611777364","tag":{"amenity":"waste_disposal","contact:website":"http://www.kramar-eko.com.ua/","covered":"yes","operator":"Kramar-eko","waste":"plastic;trash;glass;paper"}},"type":"Feature"},
	{"geometry":{"coordinates":[30.46711,50.386054],"type":"Point"},"properties":{"osm_id":"7619828436","tag":{"amenity":"waste_disposal","operator":"\u00d0\u0095\u00d0\u00ba\u00d0\u00be-\u00d0\u00b3\u00d1\u0080\u00d0\u00be\u00d0\u00bc\u00d0\u00b0\u00d0\u00b4\u00d0\u00b0 \u00d0\u009b\u00d1\u0096\u00d0\u00ba\u00d0\u00be\u00d0\u00b3\u00d1\u0080\u00d0\u00b0\u00d0\u00b4\u00d1\u0083"}},"type":"Feature"},
	{"geometry":{"coordinates":[30.476471,50.381192],"type":"Point"},"properties":{"osm_id":"7624948772","tag":{"amenity":"waste_disposal"}},"type":"Feature"},
	{"geometry":{"coordinates":[30.496846,50.390323],"type":"Point"},"properties":{"osm_id":"7658862044","tag":{"amenity":"waste_disposal"}},"type":"Feature"},
	{"geometry":{"coordinates":[30.473753,50.383789],"type":"Point"},"properties":{"osm_id":"7691087893","tag":{"amenity":"waste_basket","waste":"trash"}},"type":"Feature"},
	{"geometry":{"coordinates":[30.473802,50.386424],"type":"Point"},"properties":{"osm_id":"7728457211","tag":{"amenity":"waste_disposal"}},"type":"Feature"},
	{"geometry":{"coordinates":[30.474213,50.386417],"type":"Point"},"properties":{"osm_id":"7728457212","tag":{"amenity":"waste_disposal"}},"type":"Feature"},
	{"geometry":{"coordinates":[30.479743,50.382545],"type":"Point"},"properties":{"osm_id":"7770021556","tag":{"amenity":"recycling","recycling:batteries":"yes","recycling_type":"container"}},"type":"Feature"},
	{"geometry":{"coordinates":[30.470011,50.398669],"type":"Point"},"properties":{"osm_id":"7793525191","tag":{"amenity":"waste_disposal"}},"type":"Feature"},
	{"geometry":{"coordinates":[30.46553,50.38498],"type":"Point"},"properties":{"osm_id":"7804530604","tag":{"amenity":"waste_disposal","waste":"plastic;trash;glass"}},"type":"Feature"}
]
}
