{
"type": "FeatureCollection",
"features": [
	{"geometry":{"coordinates":[-76.999237,38.980282],"type":"Point"},"properties":{"highway":"turning_circle","osm_id":"49170205"},"type":"Feature"},
	{"geometry":{"coordinates":[-77.019106,38.994202],"type":"Point"},"properties":{"osm_id":"885723914","tag":{"amenity":"waste_basket"}},"type":"Feature"},
	{"geometry":{"coordinates":[-77.019715,38.994149],"type":"Point"},"properties":{"osm_id":"885723916","tag":{"amenity":"waste_basket"}},"type":"Feature"},
	{"geometry":{"coordinates":[-77.019521,38.99529],"type":"Point"},"properties":{"osm_id":"897231407","tag":{"amenity":"waste_basket"}},"type":"Feature"},
	{"geometry":{"coordinates":[-77.019569,38.995541],"type":"Point"},"properties":{"osm_id":"897231408","tag":{"amenity":"waste_basket"}},"type":"Feature"},
	{"geometry":{"coordinates":[-77.034914,38.995137],"type":"Point"},"properties":{"osm_id":"5425923022","tag":{"amenity":"waste_basket","waste":"dog_excrement"}},"type":"Feature"},
	{"geometry":{"coordinates":[-77.035613,38.994798],"type":"Point"},"properties":{"osm_id":"5425923023","tag":{"amenity":"waste_basket","waste":"dog_excrement"}},"type":"Feature"},
	{"geometry":{"coordinates":[-77.033963,38.995163],"type":"Point"},"properties":{"osm_id":"5425923024","tag":{"amenity":"waste_basket","waste":"dog_excrement"}},"type":"Feature"},
	{"geometry":{"coordinates":[-77.035355,38.993504],"type":"Point"},"properties":{"osm_id":"5425923039","tag":{"amenity":"waste_basket","waste":"dog_excrement"}},"type":"Feature"},
	{"geometry":{"coordinates":[-77.020035,38.995377],"type":"Point"},"properties":{"osm_id":"6964488076","tag":{"amenity":"waste_basket","waste":"trash"}},"type":"Feature"},
	{"geometry":{"coordinates":[-77.071756,39.026996],"type":"Point"},"properties":{"osm_id":"7202310369","tag":{"amenity":"waste_basket"}},"type":"Feature"},
	{"geometry":{"coordinates":[-77.071751,39.027003],"type":"Point"},"properties":{"osm_id":"7223799905","tag":{"amenity":"recycling","recycling:cans":"yes","recycling:glass_bottles":"yes","recycling:plastic":"no","recycling:plastic_packaging":"yes","recycling_type":"container"}},"type":"Feature"},
	{"geometry":{"coordinates":[-77.059579,39.026212],"type":"Point"},"properties":{"osm_id":"7563015899","tag":{"amenity":"waste_basket"}},"type":"Feature"},
	{"geometry":{"coordinates":[-77.061296,39.013629],"type":"Point"},"properties":{"osm_id":"7873285943","tag":{"amenity":"waste_disposal"}},"type":"Feature"}
]
}
