{
"type": "FeatureCollection",
"features": [
	{"geometry":{"coordinates":[-77.053196,38.931042],"type":"Point"},"properties":{"osm_id":"495497710","tag":{"amenity":"waste_basket"}},"type":"Feature"},
	{"geometry":{"coordinates":[-77.053272,38.93093],"type":"Point"},"properties":{"osm_id":"495497712","tag":{"amenity":"waste_basket"}},"type":"Feature"},
	{"geometry":{"coordinates":[-77.05362,38.930673],"type":"Point"},"properties":{"osm_id":"495497713","tag":{"amenity":"waste_basket"}},"type":"Feature"},
	{"geometry":{"coordinates":[-77.052114,38.931987],"type":"Point"},"properties":{"osm_id":"495497722","tag":{"amenity":"waste_basket"}},"type":"Feature"},
	{"geometry":{"coordinates":[-77.053076,38.930626],"type":"Point"},"properties":{"name":"118","osm_id":"497415738","tag":{"amenity":"waste_basket"}},"type":"Feature"},
	{"geometry":{"coordinates":[-77.051856,38.931508],"type":"Point"},"properties":{"name":"110","osm_id":"497415745","tag":{"amenity":"waste_basket"}},"type":"Feature"},
	{"geometry":{"coordinates":[-77.052399,38.930789],"type":"Point"},"properties":{"name":"114","osm_id":"497415750","tag":{"amenity":"waste_basket"}},"type":"Feature"},
	{"geometry":{"coordinates":[-77.054763,38.929997],"type":"Point"},"properties":{"name":"033","osm_id":"497415776","tag":{"amenity":"waste_basket"}},"type":"Feature"},
	{"geometry":{"coordinates":[-77.054272,38.930247],"type":"Point"},"properties":{"name":"037","osm_id":"497415781","tag":{"amenity":"waste_basket"}},"type":"Feature"},
	{"geometry":{"coordinates":[-77.05224,38.929404],"type":"Point"},"properties":{"name":"106","osm_id":"497415786","tag":{"amenity":"waste_basket"}},"type":"Feature"},
	{"geometry":{"coordinates":[-77.053493,38.930551],"type":"Point"},"properties":{"name":"077","osm_id":"497415800","tag":{"amenity":"waste_basket"}},"type":"Feature"},
	{"geometry":{"coordinates":[-77.054068,38.930248],"type":"Point"},"properties":{"name":"039","osm_id":"497415816","tag":{"amenity":"waste_basket"}},"type":"Feature"},
	{"geometry":{"coordinates":[-77.054013,38.930415],"type":"Point"},"properties":{"name":"041","osm_id":"497415818","tag":{"amenity":"waste_basket"}},"type":"Feature"},
	{"geometry":{"coordinates":[-77.053024,38.930876],"type":"Point"},"properties":{"name":"121","osm_id":"497415821","tag":{"amenity":"waste_basket"}},"type":"Feature"},
	{"geometry":{"coordinates":[-77.052602,38.930743],"type":"Point"},"properties":{"name":"115","osm_id":"497415833","tag":{"amenity":"waste_basket"}},"type":"Feature"},
	{"geometry":{"coordinates":[-77.052071,38.931327],"type":"Point"},"properties":{"name":"111","osm_id":"497415836","tag":{"amenity":"waste_basket"}},"type":"Feature"},
	{"geometry":{"coordinates":[-77.053514,38.930105],"type":"Point"},"properties":{"name":"068","osm_id":"497415838","tag":{"amenity":"waste_basket"}},"type":"Feature"},
	{"geometry":{"coordinates":[-77.052783,38.930582],"type":"Point"},"properties":{"name":"117","osm_id":"497415844","tag":{"amenity":"waste_basket"}},"type":"Feature"},
	{"geometry":{"coordinates":[-77.053818,38.930076],"type":"Point"},"properties":{"name":"066","osm_id":"497415851","tag":{"amenity":"waste_basket"}},"type":"Feature"},
	{"geometry":{"coordinates":[-77.053512,38.930322],"type":"Point"},"properties":{"name":"076","osm_id":"497415855","tag":{"amenity":"waste_basket"}},"type":"Feature"},
	{"geometry":{"coordinates":[-77.052226,38.930861],"type":"Point"},"properties":{"name":"113","osm_id":"497415862","tag":{"amenity":"waste_basket"}},"type":"Feature"},
	{"geometry":{"coordinates":[-77.052132,38.92969],"type":"Point"},"properties":{"name":"107","osm_id":"497415868","tag":{"amenity":"waste_basket"}},"type":"Feature"},
	{"geometry":{"coordinates":[-77.054052,38.930122],"type":"Point"},"properties":{"name":"052","osm_id":"497415872","tag":{"amenity":"waste_basket"}},"type":"Feature"},
	{"geometry":{"coordinates":[-77.05358,38.930274],"type":"Point"},"properties":{"name":"072","osm_id":"497415874","tag":{"amenity":"waste_basket"}},"type":"Feature"},
	{"geometry":{"coordinates":[-77.05236,38.930068],"type":"Point"},"properties":{"name":"091","osm_id":"497415882","tag":{"amenity":"waste_basket"}},"type":"Feature"},
	{"geometry":{"coordinates":[-77.051884,38.929826],"type":"Point"},"properties":{"name":"093","osm_id":"497415888","tag":{"amenity":"waste_basket"}},"type":"Feature"},
	{"geometry":{"coordinates":[-77.054418,38.930194],"type":"Point"},"properties":{"name":"036","osm_id":"497415900","tag":{"amenity":"waste_basket"}},"type":"Feature"},
	{"geometry":{"coordinates":[-77.054591,38.930044],"type":"Point"},"properties":{"name":"034","osm_id":"497415903","tag":{"amenity":"waste_basket"}},"type":"Feature"},
	{"geometry":{"coordinates":[-77.053369,38.930572],"type":"Point"},"properties":{"name":"078","osm_id":"497415910","tag":{"amenity":"waste_basket"}},"type":"Feature"},
	{"geometry":{"coordinates":[-77.052039,38.928926],"type":"Point"},"properties":{"name":"103","osm_id":"497415912","tag":{"amenity":"waste_basket"}},"type":"Feature"},
	{"geometry":{"coordinates":[-77.05215,38.92933],"type":"Point"},"properties":{"name":"105","osm_id":"497415917","tag":{"amenity":"waste_basket"}},"type":"Feature"},
	{"geometry":{"coordinates":[-77.051334,38.929057],"type":"Point"},"properties":{"name":"101","osm_id":"497415924","tag":{"amenity":"waste_basket"}},"type":"Feature"},
	{"geometry":{"coordinates":[-77.052487,38.931392],"type":"Point"},"properties":{"name":"122","osm_id":"497415935","tag":{"amenity":"waste_basket"}},"type":"Feature"},
	{"geometry":{"coordinates":[-77.054159,38.930321],"type":"Point"},"properties":{"name":"040","osm_id":"497415938","tag":{"amenity":"waste_basket"}},"type":"Feature"},
	{"geometry":{"coordinates":[-77.050926,38.929182],"type":"Point"},"properties":{"name":"099","osm_id":"497415940","tag":{"amenity":"waste_basket"}},"type":"Feature"},
	{"geometry":{"coordinates":[-77.068647,38.897035],"type":"Point"},"properties":{"osm_id":"571833924","tag":{"amenity":"waste_basket"}},"type":"Feature"},
	{"geometry":{"coordinates":[-77.071452,38.893612],"type":"Point"},"properties":{"osm_id":"574911773","tag":{"amenity":"waste_basket"}},"type":"Feature"},
	{"geometry":{"coordinates":[-77.071793,38.89357],"type":"Point"},"properties":{"osm_id":"574911779","tag":{"amenity":"waste_basket"}},"type":"Feature"},
	{"geometry":{"coordinates":[-77.073768,38.893912],"type":"Point"},"properties":{"osm_id":"575047113","tag":{"amenity":"waste_basket"}},"type":"Feature"},
	{"geometry":{"coordinates":[-77.073236,38.893845],"type":"Point"},"properties":{"osm_id":"575047114","tag":{"amenity":"waste_basket"}},"type":"Feature"},
	{"geometry":{"coordinates":[-77.073273,38.894004],"type":"Point"},"properties":{"osm_id":"581417147","tag":{"amenity":"waste_basket"}},"type":"Feature"},
	{"geometry":{"coordinates":[-77.012274,38.912689],"type":"Point"},"properties":{"osm_id":"2363000034","tag":{"amenity":"waste_basket"}},"type":"Feature"},
	{"geometry":{"coordinates":[-77.022018,38.904314],"type":"Point"},"properties":{"osm_id":"2785952473","tag":{"amenity":"waste_basket"}},"type":"Feature"},
	{"geometry":{"coordinates":[-77.022027,38.903163],"type":"Point"},"properties":{"osm_id":"2786956322","tag":{"amenity":"waste_basket"}},"type":"Feature"},
	{"geometry":{"coordinates":[-77.022027,38.903175],"type":"Point"},"properties":{"osm_id":"2786956323","tag":{"amenity":"recycling","recycling:cans":"yes","recycling:clothes":"no","recycling:glass_bottles":"yes","recycling:paper":"yes","recycling_type":"container"}},"type":"Feature"},
	{"geometry":{"coordinates":[-77.022024,38.901249],"type":"Point"},"properties":{"osm_id":"2786958271","tag":{"amenity":"waste_basket"}},"type":"Feature"},
	{"geometry":{"coordinates":[-77.022025,38.901283],"type":"Point"},"properties":{"osm_id":"2786958272","tag":{"amenity":"recycling","recycling:cans":"yes","recycling:glass_bottles":"yes","recycling:paper":"yes","recycling_type":"container"}},"type":"Feature"},
	{"geometry":{"coordinates":[-77.03406,38.901763],"type":"Point"},"properties":{"osm_id":"2792797208","tag":{"amenity":"waste_basket"}},"type":"Feature"},
	{"geometry":{"coordinates":[-77.033978,38.901828],"type":"Point"},"properties":{"osm_id":"2792797224","tag":{"amenity":"waste_basket"}},"type":"Feature"},
	{"geometry":{"coordinates":[-77.034259,38.902079],"type":"Point"},"properties":{"osm_id":"2792797230","tag":{"amenity":"waste_basket"}},"type":"Feature"},
	{"geometry":{"coordinates":[-77.03387,38.902059],"type":"Point"},"properties":{"osm_id":"2792797231","tag":{"amenity":"waste_basket"}},"type":"Feature"},
	{"geometry":{"coordinates":[-77.033798,38.902213],"type":"Point"},"properties":{"osm_id":"2792797234","tag":{"amenity":"waste_basket"}},"type":"Feature"},
	{"geometry":{"coordinates":[-77.034072,38.902353],"type":"Point"},"properties":{"osm_id":"2792797257","tag":{"amenity":"waste_basket"}},"type":"Feature"},
	{"geometry":{"coordinates":[-77.034387,38.902378],"type":"Point"},"properties":{"osm_id":"2792797324","tag":{"amenity":"waste_basket"}},"type":"Feature"},
	{"geometry":{"coordinates":[-77.034316,38.901913],"type":"Point"},"properties":{"osm_id":"2792797347","tag":{"amenity":"waste_basket"}},"type":"Feature"},
	{"geometry":{"coordinates":[-77.034438,38.901723],"type":"Point"},"properties":{"osm_id":"2792797351","tag":{"amenity":"waste_basket"}},"type":"Feature"},
	{"geometry":{"coordinates":[-77.033785,38.90157],"type":"Point"},"properties":{"osm_id":"2792797362","tag":{"amenity":"waste_basket"}},"type":"Feature"},
	{"geometry":{"coordinates":[-77.034185,38.901525],"type":"Point"},"properties":{"osm_id":"2792797382","tag":{"amenity":"waste_basket"}},"type":"Feature"},
	{"geometry":{"coordinates":[-76.995156,38.900296],"type":"Point"},"properties":{"osm_id":"3137363019","tag":{"amenity":"waste_basket"}},"type":"Feature"},
	{"geometry":{"coordinates":[-76.995059,38.900347],"type":"Point"},"properties":{"osm_id":"3137363020","tag":{"amenity":"waste_basket"}},"type":"Feature"},
	{"geometry":{"coordinates":[-77.047537,38.898003],"type":"Point"},"properties":{"osm_id":"3380732509","tag":{"amenity":"waste_basket","leisure":"picnic_table"}},"type":"Feature"},
	{"geometry":{"coordinates":[-77.048787,38.897454],"type":"Point"},"properties":{"osm_id":"3380754852","tag":{"amenity":"recycling","recycling_type":"container"}},"type":"Feature"},
	{"geometry":{"coordinates":[-77.048788,38.897473],"type":"Point"},"properties":{"osm_id":"3380754853","tag":{"amenity":"waste_basket"}},"type":"Feature"},
	{"geometry":{"coordinates":[-77.04754,38.898024],"type":"Point"},"properties":{"osm_id":"3380756033","tag":{"amenity":"recycling","recycling_type":"container"}},"type":"Feature"},
	{"geometry":{"coordinates":[-77.048746,38.898266],"type":"Point"},"properties":{"osm_id":"3380758182","tag":{"amenity":"recycling","recycling_type":"container"}},"type":"Feature"},
	{"geometry":{"coordinates":[-77.048768,38.898255],"type":"Point"},"properties":{"osm_id":"3380758183","tag":{"amenity":"waste_basket"}},"type":"Feature"},
	{"geometry":{"coordinates":[-77.047871,38.897196],"type":"Point"},"properties":{"osm_id":"3380762791","tag":{"amenity":"waste_basket"}},"type":"Feature"},
	{"geometry":{"coordinates":[-77.047839,38.897194],"type":"Point"},"properties":{"osm_id":"3380763553","tag":{"amenity":"recycling","recycling_type":"container"}},"type":"Feature"},
	{"geometry":{"coordinates":[-77.048675,38.898386],"type":"Point"},"properties":{"osm_id":"3382302769","tag":{"amenity":"recycling","recycling_type":"container"}},"type":"Feature"},
	{"geometry":{"coordinates":[-77.048701,38.898386],"type":"Point"},"properties":{"osm_id":"3382302770","tag":{"amenity":"waste_basket"}},"type":"Feature"},
	{"geometry":{"coordinates":[-77.048292,38.898409],"type":"Point"},"properties":{"osm_id":"3382302772","tag":{"amenity":"waste_basket"}},"type":"Feature"},
	{"geometry":{"coordinates":[-77.048292,38.898426],"type":"Point"},"properties":{"osm_id":"3382302779","tag":{"amenity":"recycling","recycling_type":"container"}},"type":"Feature"},
	{"geometry":{"coordinates":[-77.047356,38.898936],"type":"Point"},"properties":{"osm_id":"3382303413","tag":{"amenity":"waste_basket"}},"type":"Feature"},
	{"geometry":{"coordinates":[-77.047326,38.898937],"type":"Point"},"properties":{"osm_id":"3382303414","tag":{"amenity":"recycling","recycling_type":"container"}},"type":"Feature"},
	{"geometry":{"coordinates":[-77.047618,38.899143],"type":"Point"},"properties":{"osm_id":"3382303463","tag":{"amenity":"waste_basket"}},"type":"Feature"},
	{"geometry":{"coordinates":[-77.04775,38.899264],"type":"Point"},"properties":{"osm_id":"3382303469","tag":{"amenity":"waste_basket"}},"type":"Feature"},
	{"geometry":{"coordinates":[-77.048233,38.897445],"type":"Point"},"properties":{"osm_id":"3401232699","tag":{"amenity":"recycling","recycling_type":"container"}},"type":"Feature"},
	{"geometry":{"coordinates":[-77.048279,38.897448],"type":"Point"},"properties":{"osm_id":"3401232700","tag":{"amenity":"waste_basket"}},"type":"Feature"},
	{"geometry":{"coordinates":[-77.047607,38.897748],"type":"Point"},"properties":{"osm_id":"3402305614","tag":{"amenity":"waste_basket"}},"type":"Feature"},
	{"geometry":{"coordinates":[-77.04761,38.89778],"type":"Point"},"properties":{"osm_id":"3402305615","tag":{"amenity":"recycling","recycling_type":"container"}},"type":"Feature"},
	{"geometry":{"coordinates":[-77.043559,38.897507],"type":"Point"},"properties":{"osm_id":"3493304593","tag":{"amenity":"waste_basket"}},"type":"Feature"},
	{"geometry":{"coordinates":[-77.045003,38.897425],"type":"Point"},"properties":{"osm_id":"3493313593","tag":{"amenity":"waste_basket"}},"type":"Feature"},
	{"geometry":{"coordinates":[-77.044802,38.897415],"type":"Point"},"properties":{"osm_id":"3493313993","tag":{"amenity":"recycling","description":"Recycling","recycling_type":"container"}},"type":"Feature"},
	{"geometry":{"coordinates":[-77.044829,38.896177],"type":"Point"},"properties":{"osm_id":"3493314393","tag":{"amenity":"recycling","recycling_type":"container"}},"type":"Feature"},
	{"geometry":{"coordinates":[-77.044769,38.897414],"type":"Point"},"properties":{"osm_id":"3493316893","tag":{"amenity":"waste_basket"}},"type":"Feature"},
	{"geometry":{"coordinates":[-77.045075,38.897414],"type":"Point"},"properties":{"osm_id":"3493316993","tag":{"amenity":"recycling","recycling_type":"container"}},"type":"Feature"},
	{"geometry":{"coordinates":[-77.026998,38.896176],"type":"Point"},"properties":{"osm_id":"3528433997","tag":{"amenity":"waste_basket"}},"type":"Feature"},
	{"geometry":{"coordinates":[-77.027099,38.896176],"type":"Point"},"properties":{"osm_id":"3528436614","tag":{"amenity":"waste_basket"}},"type":"Feature"},
	{"geometry":{"coordinates":[-77.027166,38.896086],"type":"Point"},"properties":{"osm_id":"3528436615","tag":{"amenity":"waste_basket"}},"type":"Feature"},
	{"geometry":{"coordinates":[-77.027941,38.896076],"type":"Point"},"properties":{"osm_id":"3528436616","tag":{"amenity":"waste_basket"}},"type":"Feature"},
	{"geometry":{"coordinates":[-77.027911,38.896076],"type":"Point"},"properties":{"osm_id":"3528436617","tag":{"amenity":"recycling","recycling_type":"container"}},"type":"Feature"},
	{"geometry":{"coordinates":[-77.027137,38.896087],"type":"Point"},"properties":{"osm_id":"3528436618","tag":{"amenity":"recycling","recycling_type":"container"}},"type":"Feature"},
	{"geometry":{"coordinates":[-77.026969,38.896177],"type":"Point"},"properties":{"osm_id":"3528436619","tag":{"amenity":"recycling","recycling_type":"container"}},"type":"Feature"},
	{"geometry":{"coordinates":[-77.027129,38.896175],"type":"Point"},"properties":{"osm_id":"3528436620","tag":{"amenity":"recycling","recycling_type":"container"}},"type":"Feature"},
	{"geometry":{"coordinates":[-77.035877,38.923085],"type":"Point"},"properties":{"osm_id":"3734943107","tag":{"amenity":"waste_basket"}},"type":"Feature"},
	{"geometry":{"coordinates":[-77.018762,38.903821],"type":"Point"},"properties":{"osm_id":"3750955760","tag":{"amenity":"waste_basket"}},"type":"Feature"},
	{"geometry":{"coordinates":[-77.018683,38.903893],"type":"Point"},"properties":{"osm_id":"3750956839","tag":{"amenity":"waste_basket"}},"type":"Feature"},
	{"geometry":{"coordinates":[-77.01807,38.903629],"type":"Point"},"properties":{"osm_id":"3750956840","tag":{"amenity":"waste_basket"}},"type":"Feature"},
	{"geometry":{"coordinates":[-77.016251,38.902419],"type":"Point"},"properties":{"osm_id":"3764718048","tag":{"amenity":"waste_basket"}},"type":"Feature"},
	{"geometry":{"coordinates":[-77.016251,38.902414],"type":"Point"},"properties":{"osm_id":"3764718049","tag":{"amenity":"recycling","location":"overground","recycling_type":"container"}},"type":"Feature"},
	{"geometry":{"coordinates":[-77.016278,38.902608],"type":"Point"},"properties":{"osm_id":"3764719702","tag":{"amenity":"waste_basket"}},"type":"Feature"},
	{"geometry":{"coordinates":[-77.016049,38.902601],"type":"Point"},"properties":{"osm_id":"3764719703","tag":{"amenity":"waste_basket"}},"type":"Feature"},
	{"geometry":{"coordinates":[-77.017664,38.90261],"type":"Point"},"properties":{"osm_id":"3764719704","tag":{"amenity":"waste_basket"}},"type":"Feature"},
	{"geometry":{"coordinates":[-77.026196,38.944074],"type":"Point"},"properties":{"osm_id":"3781212761","tag":{"amenity":"waste_basket"}},"type":"Feature"},
	{"geometry":{"coordinates":[-77.025965,38.94407],"type":"Point"},"properties":{"osm_id":"3781212762","tag":{"amenity":"waste_basket"}},"type":"Feature"},
	{"geometry":{"coordinates":[-77.02591,38.943902],"type":"Point"},"properties":{"osm_id":"3781212763","tag":{"amenity":"waste_basket"}},"type":"Feature"},
	{"geometry":{"coordinates":[-77.026181,38.943908],"type":"Point"},"properties":{"osm_id":"3781212764","tag":{"amenity":"waste_basket"}},"type":"Feature"},
	{"geometry":{"coordinates":[-77.022976,38.929062],"type":"Point"},"properties":{"osm_id":"4128412170","tag":{"amenity":"waste_basket"}},"type":"Feature"},
	{"geometry":{"coordinates":[-77.067088,38.903216],"type":"Point"},"properties":{"osm_id":"4157688429","tag":{"amenity":"waste_basket"}},"type":"Feature"},
	{"geometry":{"coordinates":[-77.065218,38.902937],"type":"Point"},"properties":{"osm_id":"4157688430","tag":{"amenity":"waste_basket"}},"type":"Feature"},
	{"geometry":{"coordinates":[-77.067661,38.903691],"type":"Point"},"properties":{"osm_id":"4157704622","tag":{"amenity":"waste_basket"}},"type":"Feature"},
	{"geometry":{"coordinates":[-77.065919,38.902985],"type":"Point"},"properties":{"osm_id":"4157704703","tag":{"amenity":"waste_basket"}},"type":"Feature"},
	{"geometry":{"coordinates":[-77.065923,38.903263],"type":"Point"},"properties":{"osm_id":"4157704704","tag":{"amenity":"waste_basket"}},"type":"Feature"},
	{"geometry":{"coordinates":[-77.067627,38.903458],"type":"Point"},"properties":{"osm_id":"4157705897","tag":{"amenity":"waste_basket"}},"type":"Feature"},
	{"geometry":{"coordinates":[-77.067289,38.903285],"type":"Point"},"properties":{"osm_id":"4157705898","tag":{"amenity":"waste_basket"}},"type":"Feature"},
	{"geometry":{"coordinates":[-77.067481,38.903337],"type":"Point"},"properties":{"osm_id":"4157705899","tag":{"amenity":"waste_basket"}},"type":"Feature"},
	{"geometry":{"coordinates":[-77.023341,38.944133],"type":"Point"},"properties":{"osm_id":"4261161824","tag":{"amenity":"waste_basket"}},"type":"Feature"},
	{"geometry":{"coordinates":[-77.048932,38.930179],"type":"Point"},"properties":{"osm_id":"4404517006","tag":{"amenity":"waste_basket"}},"type":"Feature"},
	{"geometry":{"coordinates":[-77.047332,38.9284],"type":"Point"},"properties":{"osm_id":"4404592466","tag":{"amenity":"waste_basket"}},"type":"Feature"},
	{"geometry":{"coordinates":[-77.047281,38.928313],"type":"Point"},"properties":{"osm_id":"4404592677","tag":{"amenity":"waste_basket"}},"type":"Feature"},
	{"geometry":{"coordinates":[-77.047281,38.928309],"type":"Point"},"properties":{"osm_id":"4406283909","tag":{"amenity":"recycling","recycling:cans":"yes","recycling:plastic_bottles":"yes","recycling_type":"container"}},"type":"Feature"},
	{"geometry":{"coordinates":[-77.047331,38.928396],"type":"Point"},"properties":{"osm_id":"4406283910","tag":{"amenity":"recycling","recycling:cans":"yes","recycling:plastic_bottles":"yes","recycling_type":"container"}},"type":"Feature"},
	{"geometry":{"coordinates":[-77.006397,38.911049],"type":"Point"},"properties":{"osm_id":"4564158155","tag":{"amenity":"waste_basket"}},"type":"Feature"},
	{"geometry":{"coordinates":[-77.076192,38.939279],"type":"Point"},"properties":{"osm_id":"4730675929","tag":{"amenity":"waste_basket"}},"type":"Feature"},
	{"geometry":{"coordinates":[-77.076988,38.939618],"type":"Point"},"properties":{"osm_id":"4730675930","tag":{"amenity":"waste_basket"}},"type":"Feature"},
	{"geometry":{"coordinates":[-77.075771,38.939204],"type":"Point"},"properties":{"osm_id":"4730675932","tag":{"amenity":"waste_basket"}},"type":"Feature"},
	{"geometry":{"coordinates":[-77.075389,38.939533],"type":"Point"},"properties":{"osm_id":"4730675933","tag":{"amenity":"waste_basket"}},"type":"Feature"},
	{"geometry":{"coordinates":[-77.075204,38.939607],"type":"Point"},"properties":{"osm_id":"4730675934","tag":{"amenity":"waste_basket"}},"type":"Feature"},
	{"geometry":{"coordinates":[-77.005342,38.94917],"type":"Point"},"properties":{"osm_id":"4866403722","tag":{"amenity":"waste_basket"}},"type":"Feature"},
	{"geometry":{"coordinates":[-77.005001,38.947205],"type":"Point"},"properties":{"osm_id":"4866432521","tag":{"amenity":"waste_basket"}},"type":"Feature"},
	{"geometry":{"coordinates":[-77.002666,38.939149],"type":"Point"},"properties":{"osm_id":"4866524521","tag":{"amenity":"waste_basket"}},"type":"Feature"},
	{"geometry":{"coordinates":[-77.002151,38.937058],"type":"Point"},"properties":{"osm_id":"4866524522","tag":{"amenity":"waste_basket"}},"type":"Feature"},
	{"geometry":{"coordinates":[-77.036373,38.901234],"type":"Point"},"properties":{"osm_id":"4960920926","tag":{"amenity":"waste_basket"}},"type":"Feature"},
	{"geometry":{"coordinates":[-77.02337,38.893411],"type":"Point"},"properties":{"osm_id":"4960921121","tag":{"amenity":"waste_basket"}},"type":"Feature"},
	{"geometry":{"coordinates":[-77.022601,38.893237],"type":"Point"},"properties":{"osm_id":"4960921124","tag":{"amenity":"waste_basket"}},"type":"Feature"},
	{"geometry":{"coordinates":[-77.023261,38.893245],"type":"Point"},"properties":{"osm_id":"4960921421","tag":{"amenity":"waste_basket"}},"type":"Feature"},
	{"geometry":{"coordinates":[-77.024045,38.905532],"type":"Point"},"properties":{"osm_id":"5471127032","tag":{"amenity":"waste_basket"}},"type":"Feature"},
	{"geometry":{"coordinates":[-77.022845,38.909807],"type":"Point"},"properties":{"osm_id":"5554874774","tag":{"amenity":"waste_basket"}},"type":"Feature"},
	{"geometry":{"coordinates":[-77.023568,38.909689],"type":"Point"},"properties":{"osm_id":"5554874777","tag":{"amenity":"waste_basket"}},"type":"Feature"},
	{"geometry":{"coordinates":[-77.023312,38.892338],"type":"Point"},"properties":{"osm_id":"5556913197","tag":{"amenity":"waste_basket"}},"type":"Feature"},
	{"geometry":{"coordinates":[-77.020942,38.915519],"type":"Point"},"properties":{"osm_id":"5557892797","tag":{"amenity":"waste_basket"}},"type":"Feature"},
	{"geometry":{"coordinates":[-77.021231,38.915526],"type":"Point"},"properties":{"osm_id":"5557892799","tag":{"amenity":"waste_basket"}},"type":"Feature"},
	{"geometry":{"coordinates":[-77.027283,38.909569],"type":"Point"},"properties":{"osm_id":"5563181662","tag":{"amenity":"waste_basket"}},"type":"Feature"},
	{"geometry":{"coordinates":[-77.02692,38.909737],"type":"Point"},"properties":{"osm_id":"5563181670","tag":{"amenity":"waste_basket"}},"type":"Feature"},
	{"geometry":{"coordinates":[-77.027174,38.909745],"type":"Point"},"properties":{"osm_id":"5563181672","tag":{"amenity":"waste_basket"}},"type":"Feature"},
	{"geometry":{"coordinates":[-77.034364,38.894616],"type":"Point"},"properties":{"osm_id":"5774237807","tag":{"amenity":"waste_basket"}},"type":"Feature"},
	{"geometry":{"coordinates":[-77.043623,38.896103],"type":"Point"},"properties":{"osm_id":"5896542464","tag":{"amenity":"waste_basket"}},"type":"Feature"},
	{"geometry":{"coordinates":[-77.04483,38.896165],"type":"Point"},"properties":{"osm_id":"5896564335","tag":{"amenity":"waste_basket"}},"type":"Feature"},
	{"geometry":{"coordinates":[-77.04366,38.896101],"type":"Point"},"properties":{"osm_id":"6376243487","tag":{"amenity":"recycling","recycling_type":"container"}},"type":"Feature"},
	{"geometry":{"coordinates":[-77.045077,38.896236],"type":"Point"},"properties":{"osm_id":"6376253257","tag":{"amenity":"waste_basket"}},"type":"Feature"},
	{"geometry":{"coordinates":[-77.046551,38.89951],"type":"Point"},"properties":{"osm_id":"6379907163","tag":{"amenity":"recycling","recycling_type":"container"}},"type":"Feature"},
	{"geometry":{"coordinates":[-77.046528,38.899512],"type":"Point"},"properties":{"osm_id":"6379907164","tag":{"amenity":"waste_basket"}},"type":"Feature"},
	{"geometry":{"coordinates":[-77.046554,38.899619],"type":"Point"},"properties":{"osm_id":"6379909048","tag":{"amenity":"waste_basket"}},"type":"Feature"},
	{"geometry":{"coordinates":[-77.046533,38.899618],"type":"Point"},"properties":{"osm_id":"6379909049","tag":{"amenity":"recycling","recycling_type":"container"}},"type":"Feature"},
	{"geometry":{"coordinates":[-77.046787,38.899518],"type":"Point"},"properties":{"osm_id":"6379909050","tag":{"amenity":"waste_basket"}},"type":"Feature"},
	{"geometry":{"coordinates":[-77.046817,38.899521],"type":"Point"},"properties":{"osm_id":"6379909051","tag":{"amenity":"recycling","recycling_type":"container"}},"type":"Feature"},
	{"geometry":{"coordinates":[-77.046747,38.899681],"type":"Point"},"properties":{"osm_id":"6379909052","tag":{"amenity":"waste_basket"}},"type":"Feature"},
	{"geometry":{"coordinates":[-77.046746,38.8997],"type":"Point"},"properties":{"osm_id":"6379909053","tag":{"amenity":"recycling","recycling_type":"container"}},"type":"Feature"},
	{"geometry":{"coordinates":[-77.046808,38.898977],"type":"Point"},"properties":{"osm_id":"6379933901","tag":{"amenity":"waste_basket"}},"type":"Feature"},
	{"geometry":{"coordinates":[-77.046793,38.898972],"type":"Point"},"properties":{"osm_id":"6379933902","tag":{"amenity":"recycling","recycling_type":"container"}},"type":"Feature"},
	{"geometry":{"coordinates":[-77.04267,38.900039],"type":"Point"},"properties":{"osm_id":"6750997458","tag":{"amenity":"waste_basket","material":"steel"}},"type":"Feature"},
	{"geometry":{"coordinates":[-77.042023,38.899986],"type":"Point"},"properties":{"osm_id":"6750997459","tag":{"amenity":"waste_basket","material":"metal"}},"type":"Feature"},
	{"geometry":{"coordinates":[-77.04187,38.90016],"type":"Point"},"properties":{"osm_id":"6750997461","tag":{"amenity":"waste_basket"}},"type":"Feature"},
	{"geometry":{"coordinates":[-77.041764,38.899982],"type":"Point"},"properties":{"osm_id":"6750997462","tag":{"amenity":"waste_basket"}},"type":"Feature"},
	{"geometry":{"coordinates":[-77.041548,38.9001],"type":"Point"},"properties":{"osm_id":"6750997463","tag":{"amenity":"waste_basket"}},"type":"Feature"},
	{"geometry":{"coordinates":[-77.04108,38.900135],"type":"Point"},"properties":{"osm_id":"6750997464","tag":{"amenity":"waste_basket"}},"type":"Feature"},
	{"geometry":{"coordinates":[-77.041593,38.899829],"type":"Point"},"properties":{"osm_id":"6750997465","tag":{"amenity":"waste_basket"}},"type":"Feature"},
	{"geometry":{"coordinates":[-77.041547,38.899696],"type":"Point"},"properties":{"osm_id":"6750997466","tag":{"amenity":"waste_basket"}},"type":"Feature"},
	{"geometry":{"coordinates":[-77.041558,38.898107],"type":"Point"},"properties":{"osm_id":"6754038868","tag":{"amenity":"waste_basket"}},"type":"Feature"},
	{"geometry":{"coordinates":[-77.04163,38.897196],"type":"Point"},"properties":{"osm_id":"6754038869","tag":{"amenity":"waste_basket"}},"type":"Feature"},
	{"geometry":{"coordinates":[-77.039968,38.900302],"type":"Point"},"properties":{"osm_id":"6754038870","tag":{"amenity":"waste_basket"}},"type":"Feature"},
	{"geometry":{"coordinates":[-77.040202,38.900117],"type":"Point"},"properties":{"osm_id":"6754038871","tag":{"amenity":"waste_basket"}},"type":"Feature"},
	{"geometry":{"coordinates":[-77.041091,38.90012],"type":"Point"},"properties":{"osm_id":"6754038872","tag":{"amenity":"waste_basket"}},"type":"Feature"},
	{"geometry":{"coordinates":[-77.041559,38.899725],"type":"Point"},"properties":{"osm_id":"6754038873","tag":{"amenity":"waste_basket"}},"type":"Feature"},
	{"geometry":{"coordinates":[-77.041567,38.899834],"type":"Point"},"properties":{"osm_id":"6754038874","tag":{"amenity":"waste_basket"}},"type":"Feature"},
	{"geometry":{"coordinates":[-77.041579,38.900101],"type":"Point"},"properties":{"osm_id":"6754038875","tag":{"amenity":"waste_basket"}},"type":"Feature"},
	{"geometry":{"coordinates":[-77.041818,38.899986],"type":"Point"},"properties":{"osm_id":"6754038876","tag":{"amenity":"waste_basket"}},"type":"Feature"},
	{"geometry":{"coordinates":[-77.04192,38.900112],"type":"Point"},"properties":{"osm_id":"6754038877","tag":{"amenity":"waste_basket"}},"type":"Feature"},
	{"geometry":{"coordinates":[-77.042739,38.900039],"type":"Point"},"properties":{"osm_id":"6754038878","tag":{"amenity":"waste_basket"}},"type":"Feature"},
	{"geometry":{"coordinates":[-77.042077,38.900003],"type":"Point"},"properties":{"osm_id":"6754038879","tag":{"amenity":"waste_basket"}},"type":"Feature"},
	{"geometry":{"coordinates":[-77.041849,38.899753],"type":"Point"},"properties":{"osm_id":"6754038880","tag":{"amenity":"waste_basket"}},"type":"Feature"},
	{"geometry":{"coordinates":[-77.041582,38.899326],"type":"Point"},"properties":{"osm_id":"6754038881","tag":{"amenity":"waste_basket"}},"type":"Feature"},
	{"geometry":{"coordinates":[-77.041478,38.898427],"type":"Point"},"properties":{"osm_id":"6754038882","tag":{"amenity":"waste_basket"}},"type":"Feature"},
	{"geometry":{"coordinates":[-77.041482,38.89821],"type":"Point"},"properties":{"osm_id":"6754038883","tag":{"amenity":"waste_basket"}},"type":"Feature"},
	{"geometry":{"coordinates":[-77.041462,38.898212],"type":"Point"},"properties":{"osm_id":"6754038884","tag":{"amenity":"waste_basket"}},"type":"Feature"},
	{"geometry":{"coordinates":[-77.041571,38.898122],"type":"Point"},"properties":{"osm_id":"6754049285","tag":{"amenity":"waste_basket"}},"type":"Feature"},
	{"geometry":{"coordinates":[-77.041575,38.898107],"type":"Point"},"properties":{"osm_id":"6754049286","tag":{"amenity":"waste_basket"}},"type":"Feature"},
	{"geometry":{"coordinates":[-77.04131,38.897417],"type":"Point"},"properties":{"osm_id":"6754049287","tag":{"amenity":"waste_basket"}},"type":"Feature"},
	{"geometry":{"coordinates":[-77.071979,38.891638],"type":"Point"},"properties":{"osm_id":"7629984519","tag":{"amenity":"waste_basket","material":"metal"}},"type":"Feature"},
	{"geometry":{"coordinates":[-77.031809,38.916322],"type":"Point"},"properties":{"osm_id":"7759783387","tag":{"amenity":"waste_basket"}},"type":"Feature"},
	{"geometry":{"coordinates":[-77.003503,38.902605],"type":"Point"},"properties":{"osm_id":"7791922849","tag":{"amenity":"waste_basket"}},"type":"Feature"},
	{"geometry":{"coordinates":[-77.003494,38.902387],"type":"Point"},"properties":{"osm_id":"7791922850","tag":{"amenity":"waste_basket"}},"type":"Feature"},
	{"geometry":{"coordinates":[-77.003663,38.902417],"type":"Point"},"properties":{"osm_id":"7791922851","tag":{"amenity":"waste_basket"}},"type":"Feature"},
	{"geometry":{"coordinates":[-77.003658,38.902626],"type":"Point"},"properties":{"osm_id":"7791922852","tag":{"amenity":"waste_basket"}},"type":"Feature"}
]
}
