{
"type": "FeatureCollection",
"features": [
	{"geometry":{"coordinates":[-77.066005,38.870576],"type":"Point"},"properties":{"osm_id":"511960501","tag":{"amenity":"waste_disposal"}},"type":"Feature"},
	{"geometry":{"coordinates":[-77.061018,38.87314],"type":"Point"},"properties":{"osm_id":"511968972","tag":{"amenity":"waste_disposal"}},"type":"Feature"},
	{"geometry":{"coordinates":[-77.059593,38.873294],"type":"Point"},"properties":{"osm_id":"511968973","tag":{"amenity":"waste_disposal"}},"type":"Feature"},
	{"geometry":{"coordinates":[-77.059336,38.875218],"type":"Point"},"properties":{"osm_id":"511971309","tag":{"amenity":"waste_disposal"}},"type":"Feature"},
	{"geometry":{"coordinates":[-77.05943,38.874844],"type":"Point"},"properties":{"osm_id":"511971316","tag":{"amenity":"waste_disposal"}},"type":"Feature"},
	{"geometry":{"coordinates":[-77.062108,38.874864],"type":"Point"},"properties":{"osm_id":"511971865","tag":{"amenity":"waste_disposal"}},"type":"Feature"},
	{"geometry":{"coordinates":[-77.062091,38.873888],"type":"Point"},"properties":{"osm_id":"511971870","tag":{"amenity":"waste_disposal"}},"type":"Feature"},
	{"geometry":{"coordinates":[-77.061619,38.872159],"type":"Point"},"properties":{"osm_id":"511980669","tag":{"amenity":"waste_disposal"}},"type":"Feature"},
	{"geometry":{"coordinates":[-77.069277,38.886182],"type":"Point"},"properties":{"osm_id":"514076336","tag":{"amenity":"waste_disposal"}},"type":"Feature"},
	{"geometry":{"coordinates":[-77.070127,38.885494],"type":"Point"},"properties":{"osm_id":"514076342","tag":{"amenity":"waste_disposal"}},"type":"Feature"},
	{"geometry":{"coordinates":[-77.066839,38.887137],"type":"Point"},"properties":{"osm_id":"514092873","tag":{"amenity":"waste_disposal"}},"type":"Feature"},
	{"geometry":{"coordinates":[-77.071325,38.870275],"type":"Point"},"properties":{"osm_id":"515433511","tag":{"amenity":"waste_disposal"}},"type":"Feature"},
	{"geometry":{"coordinates":[-77.06869,38.872187],"type":"Point"},"properties":{"osm_id":"515433568","tag":{"amenity":"waste_disposal"}},"type":"Feature"},
	{"geometry":{"coordinates":[-77.066124,38.87818],"type":"Point"},"properties":{"osm_id":"515478842","tag":{"amenity":"waste_disposal"}},"type":"Feature"},
	{"geometry":{"coordinates":[-77.068613,38.874211],"type":"Point"},"properties":{"osm_id":"515487547","tag":{"amenity":"waste_disposal"}},"type":"Feature"},
	{"geometry":{"coordinates":[-77.068819,38.876557],"type":"Point"},"properties":{"osm_id":"515489947","tag":{"amenity":"waste_disposal"}},"type":"Feature"},
	{"geometry":{"coordinates":[-77.067783,38.881907],"type":"Point"},"properties":{"osm_id":"516598030","tag":{"amenity":"waste_disposal"}},"type":"Feature"},
	{"geometry":{"coordinates":[-77.071276,38.8753],"type":"Point"},"properties":{"osm_id":"516753410","tag":{"amenity":"waste_disposal"}},"type":"Feature"},
	{"geometry":{"coordinates":[-77.070736,38.876617],"type":"Point"},"properties":{"osm_id":"516753536","tag":{"amenity":"waste_disposal","wpt_description":"01-OCT-09 12:44:46PM","wpt_symbol":"City (Small)"}},"type":"Feature"},
	{"geometry":{"coordinates":[-77.070942,38.875775],"type":"Point"},"properties":{"osm_id":"516753620","tag":{"amenity":"waste_disposal"}},"type":"Feature"},
	{"geometry":{"coordinates":[-77.071276,38.875753],"type":"Point"},"properties":{"osm_id":"516917661","tag":{"amenity":"waste_disposal"}},"type":"Feature"},
	{"geometry":{"coordinates":[-77.072881,38.87564],"type":"Point"},"properties":{"osm_id":"516917662","tag":{"amenity":"waste_disposal"}},"type":"Feature"},
	{"geometry":{"coordinates":[-77.060471,38.878675],"type":"Point"},"properties":{"osm_id":"519449912","tag":{"amenity":"waste_disposal"}},"type":"Feature"},
	{"geometry":{"coordinates":[-77.061673,38.879463],"type":"Point"},"properties":{"osm_id":"519449943","tag":{"amenity":"waste_disposal"}},"type":"Feature"},
	{"geometry":{"coordinates":[-77.063845,38.87502],"type":"Point"},"properties":{"osm_id":"519535252","tag":{"amenity":"waste_disposal"}},"type":"Feature"},
	{"geometry":{"coordinates":[-77.062197,38.876791],"type":"Point"},"properties":{"osm_id":"519535253","tag":{"amenity":"waste_disposal"}},"type":"Feature"},
	{"geometry":{"coordinates":[-77.064385,38.874973],"type":"Point"},"properties":{"osm_id":"519535257","tag":{"amenity":"waste_disposal"}},"type":"Feature"},
	{"geometry":{"coordinates":[-77.06138,38.8759],"type":"Point"},"properties":{"osm_id":"519537504","tag":{"amenity":"waste_disposal"}},"type":"Feature"},
	{"geometry":{"coordinates":[-77.06139,38.8758],"type":"Point"},"properties":{"osm_id":"519537505","tag":{"amenity":"waste_disposal"}},"type":"Feature"},
	{"geometry":{"coordinates":[-77.060669,38.875865],"type":"Point"},"properties":{"osm_id":"519537506","tag":{"amenity":"waste_disposal"}},"type":"Feature"},
	{"geometry":{"coordinates":[-77.060677,38.875764],"type":"Point"},"properties":{"osm_id":"519537507","tag":{"amenity":"waste_disposal"}},"type":"Feature"},
	{"geometry":{"coordinates":[-77.061795,38.875746],"type":"Point"},"properties":{"osm_id":"519537508","tag":{"amenity":"waste_disposal"}},"type":"Feature"},
	{"geometry":{"coordinates":[-77.073321,38.879093],"type":"Point"},"properties":{"osm_id":"564589851","tag":{"amenity":"waste_disposal"}},"type":"Feature"},
	{"geometry":{"coordinates":[-77.073038,38.873086],"type":"Point"},"properties":{"osm_id":"564589897","tag":{"amenity":"waste_disposal"}},"type":"Feature"},
	{"geometry":{"coordinates":[-77.061638,38.859749],"type":"Point"},"properties":{"osm_id":"565582896","tag":{"amenity":"waste_disposal"}},"type":"Feature"},
	{"geometry":{"coordinates":[-77.061784,38.859736],"type":"Point"},"properties":{"osm_id":"565582899","tag":{"amenity":"waste_disposal"}},"type":"Feature"},
	{"geometry":{"coordinates":[-77.061759,38.859916],"type":"Point"},"properties":{"osm_id":"565582907","tag":{"amenity":"waste_disposal"}},"type":"Feature"},
	{"geometry":{"coordinates":[-77.060832,38.859208],"type":"Point"},"properties":{"osm_id":"565582912","tag":{"amenity":"waste_disposal"}},"type":"Feature"},
	{"geometry":{"coordinates":[-77.063097,38.859068],"type":"Point"},"properties":{"osm_id":"565582913","tag":{"amenity":"waste_disposal"}},"type":"Feature"},
	{"geometry":{"coordinates":[-77.062544,38.860769],"type":"Point"},"properties":{"osm_id":"565582917","tag":{"amenity":"waste_disposal"}},"type":"Feature"},
	{"geometry":{"coordinates":[-77.059896,38.858272],"type":"Point"},"properties":{"osm_id":"565582923","tag":{"amenity":"waste_disposal"}},"type":"Feature"},
	{"geometry":{"coordinates":[-77.059956,38.859221],"type":"Point"},"properties":{"osm_id":"565582926","tag":{"amenity":"waste_basket"}},"type":"Feature"},
	{"geometry":{"coordinates":[-77.060265,38.859201],"type":"Point"},"properties":{"osm_id":"565582929","tag":{"amenity":"waste_basket"}},"type":"Feature"},
	{"geometry":{"coordinates":[-77.061312,38.859903],"type":"Point"},"properties":{"osm_id":"565582934","tag":{"amenity":"waste_disposal"}},"type":"Feature"},
	{"geometry":{"coordinates":[-77.061793,38.859916],"type":"Point"},"properties":{"osm_id":"565582940","tag":{"amenity":"recycling"}},"type":"Feature"},
	{"geometry":{"coordinates":[-77.059887,38.858299],"type":"Point"},"properties":{"osm_id":"565582943","tag":{"amenity":"recycling","location":"overground","recycling_type":"container"}},"type":"Feature"},
	{"geometry":{"coordinates":[-77.061346,38.859856],"type":"Point"},"properties":{"osm_id":"565582945","tag":{"amenity":"recycling"}},"type":"Feature"},
	{"geometry":{"coordinates":[-77.070721,38.882837],"type":"Point"},"properties":{"osm_id":"746772718","tag":{"amenity":"waste_basket"}},"type":"Feature"},
	{"geometry":{"coordinates":[-77.073553,38.877298],"type":"Point"},"properties":{"osm_id":"746876770","tag":{"amenity":"waste_basket"}},"type":"Feature"},
	{"geometry":{"coordinates":[-77.076637,38.876778],"type":"Point"},"properties":{"osm_id":"746876771","tag":{"amenity":"waste_basket"}},"type":"Feature"},
	{"geometry":{"coordinates":[-77.059816,38.866379],"type":"Point"},"properties":{"osm_id":"909624237","tag":{"amenity":"waste_basket"}},"type":"Feature"},
	{"geometry":{"coordinates":[-77.059905,38.866375],"type":"Point"},"properties":{"osm_id":"909624336","tag":{"amenity":"recycling"}},"type":"Feature"},
	{"geometry":{"coordinates":[-77.022756,38.888482],"type":"Point"},"properties":{"osm_id":"917744484","tag":{"amenity":"waste_basket"}},"type":"Feature"},
	{"geometry":{"coordinates":[-77.02284,38.888858],"type":"Point"},"properties":{"osm_id":"917744608","tag":{"amenity":"waste_basket"}},"type":"Feature"},
	{"geometry":{"coordinates":[-77.022359,38.889275],"type":"Point"},"properties":{"osm_id":"917753232","tag":{"amenity":"recycling","recycling_type":"container"}},"type":"Feature"},
	{"geometry":{"coordinates":[-77.023068,38.888856],"type":"Point"},"properties":{"osm_id":"917753272","tag":{"amenity":"recycling","recycling_type":"container"}},"type":"Feature"},
	{"geometry":{"coordinates":[-77.022401,38.889273],"type":"Point"},"properties":{"osm_id":"917753341","tag":{"amenity":"waste_basket"}},"type":"Feature"},
	{"geometry":{"coordinates":[-77.023068,38.888817],"type":"Point"},"properties":{"osm_id":"917753609","tag":{"amenity":"waste_basket"}},"type":"Feature"},
	{"geometry":{"coordinates":[-77.075744,38.887956],"type":"Point"},"properties":{"osm_id":"1234957157","tag":{"amenity":"recycling","location":"overground","recycling_type":"container"}},"type":"Feature"},
	{"geometry":{"coordinates":[-77.01952,38.843671],"type":"Point"},"properties":{"osm_id":"1341770616","tag":{"amenity":"waste_basket"}},"type":"Feature"},
	{"geometry":{"coordinates":[-77.019329,38.843634],"type":"Point"},"properties":{"osm_id":"1341770621","tag":{"amenity":"waste_basket"}},"type":"Feature"},
	{"geometry":{"coordinates":[-77.019154,38.843492],"type":"Point"},"properties":{"osm_id":"1341770627","tag":{"amenity":"waste_basket"}},"type":"Feature"},
	{"geometry":{"coordinates":[-77.019255,38.843516],"type":"Point"},"properties":{"osm_id":"1341770644","tag":{"amenity":"waste_basket"}},"type":"Feature"},
	{"geometry":{"coordinates":[-77.019587,38.843485],"type":"Point"},"properties":{"osm_id":"1341770673","tag":{"amenity":"waste_basket"}},"type":"Feature"},
	{"geometry":{"coordinates":[-77.055754,38.830565],"type":"Point"},"properties":{"osm_id":"1904180670","tag":{"amenity":"waste_basket"}},"type":"Feature"},
	{"geometry":{"coordinates":[-77.073527,38.864079],"type":"Point"},"properties":{"osm_id":"1911791221","tag":{"amenity":"waste_basket"}},"type":"Feature"},
	{"geometry":{"coordinates":[-77.073575,38.864264],"type":"Point"},"properties":{"osm_id":"1911791227","tag":{"amenity":"waste_basket"}},"type":"Feature"},
	{"geometry":{"coordinates":[-77.020132,38.88862],"type":"Point"},"properties":{"osm_id":"1978236578","tag":{"amenity":"recycling","recycling_type":"container"}},"type":"Feature"},
	{"geometry":{"coordinates":[-77.021635,38.888548],"type":"Point"},"properties":{"osm_id":"1978236599","tag":{"amenity":"waste_basket"}},"type":"Feature"},
	{"geometry":{"coordinates":[-77.021648,38.888549],"type":"Point"},"properties":{"osm_id":"1978246815","tag":{"amenity":"recycling","recycling_type":"container"}},"type":"Feature"},
	{"geometry":{"coordinates":[-77.020114,38.88862],"type":"Point"},"properties":{"osm_id":"1978246817","tag":{"amenity":"waste_basket"}},"type":"Feature"},
	{"geometry":{"coordinates":[-77.058676,38.826757],"type":"Point"},"properties":{"osm_id":"2835030221","tag":{"amenity":"waste_basket"}},"type":"Feature"},
	{"geometry":{"coordinates":[-77.003422,38.886167],"type":"Point"},"properties":{"osm_id":"3715859095","tag":{"amenity":"waste_basket"}},"type":"Feature"},
	{"geometry":{"coordinates":[-77.047355,38.828986],"type":"Point"},"properties":{"osm_id":"4381142903","tag":{"amenity":"waste_basket"}},"type":"Feature"},
	{"geometry":{"coordinates":[-77.047319,38.829431],"type":"Point"},"properties":{"osm_id":"4381142904","tag":{"amenity":"waste_basket"}},"type":"Feature"},
	{"geometry":{"coordinates":[-77.047374,38.830157],"type":"Point"},"properties":{"osm_id":"4381142908","tag":{"amenity":"waste_basket"}},"type":"Feature"},
	{"geometry":{"coordinates":[-77.047382,38.83065],"type":"Point"},"properties":{"osm_id":"4381142911","tag":{"amenity":"waste_basket"}},"type":"Feature"},
	{"geometry":{"coordinates":[-77.047395,38.831463],"type":"Point"},"properties":{"osm_id":"4381142917","tag":{"amenity":"waste_basket"}},"type":"Feature"},
	{"geometry":{"coordinates":[-77.047406,38.832117],"type":"Point"},"properties":{"osm_id":"4381142922","tag":{"amenity":"waste_basket"}},"type":"Feature"},
	{"geometry":{"coordinates":[-77.047414,38.83259],"type":"Point"},"properties":{"osm_id":"4381142923","tag":{"amenity":"waste_basket"}},"type":"Feature"},
	{"geometry":{"coordinates":[-77.047416,38.832746],"type":"Point"},"properties":{"osm_id":"4381142925","tag":{"amenity":"waste_basket"}},"type":"Feature"},
	{"geometry":{"coordinates":[-77.050615,38.826327],"type":"Point"},"properties":{"osm_id":"4396104593","tag":{"amenity":"waste_basket"}},"type":"Feature"},
	{"geometry":{"coordinates":[-77.071094,38.890455],"type":"Point"},"properties":{"osm_id":"4411534412","tag":{"amenity":"waste_basket"}},"type":"Feature"},
	{"geometry":{"coordinates":[-77.06314,38.841081],"type":"Point"},"properties":{"osm_id":"5542581432","tag":{"amenity":"waste_basket","waste":"trash"}},"type":"Feature"},
	{"geometry":{"coordinates":[-77.063735,38.842126],"type":"Point"},"properties":{"osm_id":"5542581433","tag":{"amenity":"waste_basket","waste":"trash"}},"type":"Feature"},
	{"geometry":{"coordinates":[-77.064055,38.842888],"type":"Point"},"properties":{"osm_id":"5542581434","tag":{"amenity":"waste_basket","waste":"trash"}},"type":"Feature"},
	{"geometry":{"coordinates":[-77.064412,38.843756],"type":"Point"},"properties":{"osm_id":"5542581437","tag":{"amenity":"waste_basket","waste":"trash"}},"type":"Feature"},
	{"geometry":{"coordinates":[-77.067519,38.848492],"type":"Point"},"properties":{"osm_id":"5542581442","tag":{"amenity":"waste_basket","waste":"trash"}},"type":"Feature"},
	{"geometry":{"coordinates":[-77.03351,38.889395],"type":"Point"},"properties":{"osm_id":"5563024457","tag":{"amenity":"waste_basket"}},"type":"Feature"},
	{"geometry":{"coordinates":[-77.033773,38.887519],"type":"Point"},"properties":{"osm_id":"5563024459","tag":{"amenity":"recycling","recycling_type":"container"}},"type":"Feature"},
	{"geometry":{"coordinates":[-77.033527,38.889562],"type":"Point"},"properties":{"osm_id":"5563024461","tag":{"amenity":"waste_basket"}},"type":"Feature"},
	{"geometry":{"coordinates":[-77.033128,38.886912],"type":"Point"},"properties":{"osm_id":"5563024463","tag":{"amenity":"recycling","recycling_type":"container"}},"type":"Feature"},
	{"geometry":{"coordinates":[-77.033133,38.886943],"type":"Point"},"properties":{"osm_id":"5563024466","tag":{"amenity":"waste_basket"}},"type":"Feature"},
	{"geometry":{"coordinates":[-77.03377,38.887566],"type":"Point"},"properties":{"osm_id":"5563024468","tag":{"amenity":"waste_basket"}},"type":"Feature"},
	{"geometry":{"coordinates":[-77.063422,38.86219],"type":"Point"},"properties":{"osm_id":"5661622843","tag":{"amenity":"waste_basket","waste":"trash"}},"type":"Feature"},
	{"geometry":{"coordinates":[-77.059964,38.861814],"type":"Point"},"properties":{"osm_id":"5661622889","tag":{"amenity":"waste_basket","waste":"trash"}},"type":"Feature"},
	{"geometry":{"coordinates":[-77.059238,38.864179],"type":"Point"},"properties":{"osm_id":"5661622911","tag":{"amenity":"waste_basket","waste":"trash"}},"type":"Feature"},
	{"geometry":{"coordinates":[-77.071642,38.866588],"type":"Point"},"properties":{"osm_id":"5661716241","tag":{"amenity":"waste_basket","waste":"trash"}},"type":"Feature"},
	{"geometry":{"coordinates":[-77.064199,38.838451],"type":"Point"},"properties":{"osm_id":"5724478114","tag":{"amenity":"waste_basket","waste":"trash"}},"type":"Feature"}
]
}
