{
"type": "FeatureCollection",
"features": [
	{"geometry":{"coordinates":[-77.002978,-12.139488],"type":"Point"},"properties":{"osm_id":"2945206426","tag":{"amenity":"waste_basket"}},"type":"Feature"},
	{"geometry":{"coordinates":[-76.999612,-12.139412],"type":"Point"},"properties":{"osm_id":"2945206429","tag":{"amenity":"recycling","operator":"Municipalidad de Surco","recycling:cans":"yes","recycling:glass":"yes","recycling:glass_bottles":"yes","recycling:paper":"yes"}},"type":"Feature"},
	{"geometry":{"coordinates":[-77.008233,-12.135152],"type":"Point"},"properties":{"osm_id":"3637902643","tag":{"amenity":"recycling","recycling:cans":"no","recycling:clothes":"no","recycling:glass":"no","recycling:paper":"no","recycling:white_goods":"yes","shop":"appliance"}},"type":"Feature"},
	{"geometry":{"coordinates":[-77.017615,-12.130308],"type":"Point"},"properties":{"name":"Estaci\u00c3\u00b3n Reciclame","osm_id":"4137546392","tag":{"amenity":"recycling","operator":"Repsol"}},"type":"Feature"},
	{"geometry":{"coordinates":[-77.024739,-12.167274],"type":"Point"},"properties":{"osm_id":"4408514889","tag":{"amenity":"waste_basket"}},"type":"Feature"},
	{"geometry":{"coordinates":[-77.024535,-12.167127],"type":"Point"},"properties":{"osm_id":"4408514989","tag":{"amenity":"waste_basket"}},"type":"Feature"},
	{"geometry":{"coordinates":[-77.026707,-12.166452],"type":"Point"},"properties":{"osm_id":"4408515089","tag":{"amenity":"waste_basket"}},"type":"Feature"},
	{"geometry":{"coordinates":[-77.025185,-12.167869],"type":"Point"},"properties":{"osm_id":"4426105390","tag":{"amenity":"waste_basket"}},"type":"Feature"},
	{"geometry":{"coordinates":[-77.026196,-12.168631],"type":"Point"},"properties":{"osm_id":"4458435690","tag":{"amenity":"waste_basket"}},"type":"Feature"},
	{"geometry":{"coordinates":[-77.025448,-12.168001],"type":"Point"},"properties":{"osm_id":"4475764892","tag":{"amenity":"waste_basket"}},"type":"Feature"},
	{"geometry":{"coordinates":[-77.015066,-12.196375],"type":"Point"},"properties":{"name":"Recidar - Calle Bello Horizonte Mz.\"U\" Lt.\"2\"","osm_id":"4534948891","tag":{"amenity":"recycling","name:es":"Recidar - Calle Bello Horizonte Mz.\"U\" Lt.\"2\""}},"type":"Feature"},
	{"geometry":{"coordinates":[-77.033315,-12.130182],"type":"Point"},"properties":{"osm_id":"5032660388","tag":{"amenity":"waste_basket"}},"type":"Feature"},
	{"geometry":{"coordinates":[-77.032964,-12.130372],"type":"Point"},"properties":{"osm_id":"5032660389","tag":{"amenity":"waste_basket"}},"type":"Feature"},
	{"geometry":{"coordinates":[-77.026155,-12.130307],"type":"Point"},"properties":{"osm_id":"5065432236","tag":{"amenity":"waste_basket"}},"type":"Feature"},
	{"geometry":{"coordinates":[-77.022369,-12.135351],"type":"Point"},"properties":{"name":"Zona de Reciclaje de Baterias","osm_id":"5664281431","tag":{"amenity":"recycling","description":"Punto Principal de acopio de bater\u00c3\u00adas en Barranco","email":"reciclame@utec.edu.pe","recycling_type":"centre"}},"type":"Feature"},
	{"geometry":{"coordinates":[-77.034768,-12.127916],"type":"Point"},"properties":{"osm_id":"6297696186","tag":{"amenity":"waste_basket"}},"type":"Feature"},
	{"geometry":{"coordinates":[-77.03466,-12.127886],"type":"Point"},"properties":{"osm_id":"6297791486","tag":{"amenity":"waste_basket"}},"type":"Feature"},
	{"geometry":{"coordinates":[-77.018148,-12.146574],"type":"Point"},"properties":{"osm_id":"7058325556","tag":{"amenity":"waste_basket","color":"green"}},"type":"Feature"}
]
}
