{
"type": "FeatureCollection",
"lastupdate": "2020-08-06T00:00:00Z",
"features": [
	{"geometry":{"coordinates":[121.633145,25.069686],"type":"Point"},"properties":{"osm_id":"924800233","tag":{"amenity":"waste_basket"}},"type":"Feature"},
	{"geometry":{"coordinates":[121.633112,25.070097],"type":"Point"},"properties":{"osm_id":"924800234","tag":{"amenity":"waste_basket"}},"type":"Feature"},
	{"geometry":{"coordinates":[121.571632,25.083239],"type":"Point"},"properties":{"name":"\u00e8\u0088\u008a\u00e8\u00a1\u00a3\u00e5\u009b\u009e\u00e6\u0094\u00b6\u00e7\u00ae\u00b1","osm_id":"1837930073","tag":{"amenity":"recycling","recycling:clothes":"yes","recycling_type":"container"}},"type":"Feature"},
	{"geometry":{"coordinates":[121.592857,25.050251],"type":"Point"},"properties":{"osm_id":"1941587638","tag":{"amenity":"waste_basket"}},"type":"Feature"},
	{"geometry":{"coordinates":[121.559663,25.044297],"type":"Point"},"properties":{"osm_id":"2376924751","tag":{"amenity":"waste_basket"}},"type":"Feature"},
	{"geometry":{"coordinates":[121.55908,25.044221],"type":"Point"},"properties":{"osm_id":"2376924754","tag":{"amenity":"waste_basket"}},"type":"Feature"},
	{"geometry":{"coordinates":[121.561941,25.044025],"type":"Point"},"properties":{"osm_id":"2376974981","tag":{"amenity":"waste_basket"}},"type":"Feature"},
	{"geometry":{"coordinates":[121.557329,25.037924],"type":"Point"},"properties":{"name":"\u00e5\u009e\u0083\u00e5\u009c\u00be\u00e6\u00a1\u00b6","osm_id":"2886368735","tag":{"amenity":"waste_basket"}},"type":"Feature"},
	{"geometry":{"coordinates":[121.555186,25.037969],"type":"Point"},"properties":{"name":"\u00e5\u009e\u0083\u00e5\u009c\u00be\u00e6\u00a1\u00b6","osm_id":"2886368747","tag":{"amenity":"waste_basket"}},"type":"Feature"},
	{"geometry":{"coordinates":[121.55631,25.037938],"type":"Point"},"properties":{"name":"\u00e5\u009e\u0083\u00e5\u009c\u00be\u00e6\u00a1\u00b6","osm_id":"2886368759","tag":{"amenity":"waste_basket"}},"type":"Feature"},
	{"geometry":{"coordinates":[121.554258,25.037996],"type":"Point"},"properties":{"name":"\u00e5\u009e\u0083\u00e5\u009c\u00be\u00e6\u00a1\u00b6","osm_id":"2886368764","tag":{"amenity":"waste_basket"}},"type":"Feature"},
	{"geometry":{"coordinates":[121.553084,25.038001],"type":"Point"},"properties":{"name":"\u00e5\u009e\u0083\u00e5\u009c\u00be\u00e6\u00a1\u00b6","osm_id":"2886368767","tag":{"amenity":"waste_basket"}},"type":"Feature"},
	{"geometry":{"coordinates":[121.557596,25.042419],"type":"Point"},"properties":{"osm_id":"3926304451","tag":{"amenity":"waste_basket"}},"type":"Feature"},
	{"geometry":{"coordinates":[121.557594,25.042563],"type":"Point"},"properties":{"osm_id":"3926304533","tag":{"amenity":"waste_basket"}},"type":"Feature"},
	{"geometry":{"coordinates":[121.616604,25.042853],"type":"Point"},"properties":{"osm_id":"3939158355","tag":{"amenity":"waste_basket"}},"type":"Feature"},
	{"geometry":{"coordinates":[121.616772,25.042908],"type":"Point"},"properties":{"osm_id":"3939158356","tag":{"amenity":"waste_basket"}},"type":"Feature"},
	{"geometry":{"coordinates":[121.616645,25.043254],"type":"Point"},"properties":{"osm_id":"3939158358","ref":"607","tag":{"amenity":"recycling","opening_hours":"24/7","recycling:clothes":"yes","recycling_type":"container","wheelchair":"no"}},"type":"Feature"},
	{"geometry":{"coordinates":[121.56147,25.044077],"type":"Point"},"properties":{"osm_id":"4384259189","tag":{"amenity":"waste_basket"}},"type":"Feature"},
	{"geometry":{"coordinates":[121.616302,25.068389],"type":"Point"},"properties":{"osm_id":"4427836709","tag":{"amenity":"recycling","recycling:clothes":"yes","recycling_type":"container"}},"type":"Feature"},
	{"geometry":{"coordinates":[121.563883,25.038989],"type":"Point"},"properties":{"osm_id":"4837986354","tag":{"amenity":"waste_basket"}},"type":"Feature"},
	{"geometry":{"coordinates":[121.563789,25.058548],"type":"Point"},"properties":{"name":"\u00e6\u00b0\u0091\u00e7\u0094\u009f\u00e7\u00a4\u00be\u00e5\u008d\u0080\u00e5\u009e\u0083\u00e5\u009c\u00be\u00e6\u00a1\u00b63","osm_id":"4967273378","tag":{"amenity":"waste_basket"}},"type":"Feature"},
	{"geometry":{"coordinates":[121.563061,25.059188],"type":"Point"},"properties":{"name":"\u00e6\u00b0\u0091\u00e7\u0094\u009f\u00e7\u00a4\u00be\u00e5\u008d\u0080\u00e5\u009e\u0083\u00e5\u009c\u00be\u00e6\u00a1\u00b62","osm_id":"5323288149","tag":{"amenity":"waste_basket"}},"type":"Feature"},
	{"geometry":{"coordinates":[121.562908,25.059034],"type":"Point"},"properties":{"name":"\u00e6\u00b0\u0091\u00e7\u0094\u009f\u00e7\u00a4\u00be\u00e5\u008d\u0080\u00e5\u009e\u0083\u00e5\u009c\u00be\u00e6\u00a1\u00b61","osm_id":"5323288150","tag":{"amenity":"waste_basket"}},"type":"Feature"},
	{"geometry":{"coordinates":[121.564664,25.040798],"type":"Point"},"properties":{"osm_id":"5571006018","tag":{"amenity":"waste_basket"}},"type":"Feature"},
	{"geometry":{"coordinates":[121.557695,25.047108],"type":"Point"},"properties":{"osm_id":"5655453722","tag":{"amenity":"waste_basket"}},"type":"Feature"},
	{"geometry":{"coordinates":[121.553382,25.041512],"type":"Point"},"properties":{"osm_id":"5655453730","tag":{"amenity":"waste_basket"}},"type":"Feature"},
	{"geometry":{"coordinates":[121.561394,25.04387],"type":"Point"},"properties":{"osm_id":"6134995979","tag":{"amenity":"waste_basket"}},"type":"Feature"},
	{"geometry":{"coordinates":[121.567097,25.032988],"type":"Point"},"properties":{"osm_id":"6255363983","tag":{"amenity":"waste_basket"}},"type":"Feature"},
	{"geometry":{"coordinates":[121.616579,25.043429],"type":"Point"},"properties":{"osm_id":"6924514584","tag":{"amenity":"waste_basket","waste":"trash"}},"type":"Feature"},
	{"geometry":{"coordinates":[121.571664,25.081193],"type":"Point"},"properties":{"osm_id":"7014058588","tag":{"amenity":"waste_basket"}},"type":"Feature"},
	{"geometry":{"coordinates":[121.559056,25.021624],"type":"Point"},"properties":{"osm_id":"7714151047","tag":{"amenity":"recycling","recycling:clothes":"yes","recycling_type":"container"}},"type":"Feature"}
]
}
