{
"type": "FeatureCollection",
"features": [
	{"geometry":{"coordinates":[-2.291829,53.54386],"type":"Point"},"properties":{"name":"Fountain Place, Recycling","osm_id":"967674482","tag":{"amenity":"recycling"}},"type":"Feature"},
	{"geometry":{"coordinates":[-2.297395,53.592047],"type":"Point"},"properties":{"osm_id":"4968265065","tag":{"amenity":"waste_basket"}},"type":"Feature"},
	{"geometry":{"coordinates":[-2.369222,53.561423],"type":"Point"},"properties":{"osm_id":"5240215739","tag":{"amenity":"waste_basket"}},"type":"Feature"},
	{"geometry":{"coordinates":[-2.36965,53.561358],"type":"Point"},"properties":{"osm_id":"5240215936","tag":{"amenity":"waste_basket"}},"type":"Feature"},
	{"geometry":{"coordinates":[-2.372392,53.56259],"type":"Point"},"properties":{"osm_id":"5240574167","tag":{"amenity":"waste_basket"}},"type":"Feature"},
	{"geometry":{"coordinates":[-2.372259,53.56276],"type":"Point"},"properties":{"osm_id":"5240574168","tag":{"amenity":"waste_basket"}},"type":"Feature"},
	{"geometry":{"coordinates":[-2.372211,53.563119],"type":"Point"},"properties":{"osm_id":"5240574172","tag":{"amenity":"waste_basket"}},"type":"Feature"},
	{"geometry":{"coordinates":[-2.37122,53.561967],"type":"Point"},"properties":{"osm_id":"5240574177","tag":{"amenity":"waste_basket"}},"type":"Feature"},
	{"geometry":{"coordinates":[-2.370814,53.561868],"type":"Point"},"properties":{"osm_id":"5240574178","tag":{"amenity":"waste_basket"}},"type":"Feature"},
	{"geometry":{"coordinates":[-2.370244,53.561635],"type":"Point"},"properties":{"osm_id":"5240574179","tag":{"amenity":"waste_basket"}},"type":"Feature"},
	{"geometry":{"coordinates":[-2.363075,53.57082],"type":"Point"},"properties":{"osm_id":"5242425446","tag":{"amenity":"waste_basket","waste":"dog_excrement"}},"type":"Feature"},
	{"geometry":{"coordinates":[-2.315757,53.564646],"type":"Point"},"properties":{"osm_id":"5326911049","tag":{"amenity":"waste_basket"}},"type":"Feature"},
	{"geometry":{"coordinates":[-2.371197,53.547348],"type":"Point"},"properties":{"osm_id":"5587591635","tag":{"amenity":"waste_basket"}},"type":"Feature"},
	{"geometry":{"coordinates":[-2.361223,53.573973],"type":"Point"},"properties":{"osm_id":"6139519271","tag":{"amenity":"recycling","recycling_type":"centre"}},"type":"Feature"},
	{"geometry":{"coordinates":[-2.369279,53.557226],"type":"Point"},"properties":{"osm_id":"6341087880","tag":{"amenity":"waste_basket"}},"type":"Feature"},
	{"geometry":{"coordinates":[-2.370617,53.561925],"type":"Point"},"properties":{"osm_id":"6351815559","tag":{"amenity":"waste_basket"}},"type":"Feature"},
	{"geometry":{"coordinates":[-2.36901,53.569199],"type":"Point"},"properties":{"osm_id":"6360799023","tag":{"amenity":"waste_basket"}},"type":"Feature"},
	{"geometry":{"coordinates":[-2.361281,53.574018],"type":"Point"},"properties":{"osm_id":"6367309872","tag":{"amenity":"waste_basket"}},"type":"Feature"},
	{"geometry":{"coordinates":[-2.295234,53.549964],"type":"Point"},"properties":{"osm_id":"6972766564","tag":{"amenity":"waste_basket"}},"type":"Feature"}
]
}
