{
"type": "FeatureCollection",
"features": [
	{"geometry":{"coordinates":[-2.336912,53.481988],"type":"Point"},"properties":{"osm_id":"307936102","tag":{"amenity":"recycling"}},"type":"Feature"},
	{"geometry":{"coordinates":[-2.357341,53.452076],"type":"Point"},"properties":{"osm_id":"718623022","tag":{"amenity":"recycling"}},"type":"Feature"},
	{"geometry":{"coordinates":[-2.343005,53.458343],"type":"Point"},"properties":{"osm_id":"718623069","tag":{"amenity":"recycling"}},"type":"Feature"},
	{"geometry":{"coordinates":[-2.299405,53.450088],"type":"Point"},"properties":{"osm_id":"1278747926","tag":{"amenity":"recycling"}},"type":"Feature"},
	{"geometry":{"coordinates":[-2.288926,53.472169],"type":"Point"},"properties":{"osm_id":"1750302019","tag":{"amenity":"waste_basket"}},"type":"Feature"},
	{"geometry":{"coordinates":[-2.288949,53.472197],"type":"Point"},"properties":{"osm_id":"1750302027","tag":{"amenity":"waste_basket"}},"type":"Feature"},
	{"geometry":{"coordinates":[-2.287529,53.47336],"type":"Point"},"properties":{"osm_id":"1750954346","tag":{"amenity":"waste_basket"}},"type":"Feature"},
	{"geometry":{"coordinates":[-2.287839,53.473279],"type":"Point"},"properties":{"osm_id":"1750954356","tag":{"amenity":"waste_basket"}},"type":"Feature"},
	{"geometry":{"coordinates":[-2.287197,53.473446],"type":"Point"},"properties":{"osm_id":"1750954417","tag":{"amenity":"waste_basket"}},"type":"Feature"},
	{"geometry":{"coordinates":[-2.318849,53.450514],"type":"Point"},"properties":{"osm_id":"2698724819","tag":{"amenity":"waste_basket"}},"type":"Feature"},
	{"geometry":{"coordinates":[-2.313554,53.439483],"type":"Point"},"properties":{"barrier":"gate","osm_id":"2916638618","tag":{"entrance":"main"}},"type":"Feature"},
	{"geometry":{"coordinates":[-2.309796,53.446528],"type":"Point"},"properties":{"osm_id":"2993060715","tag":{"amenity":"waste_basket"}},"type":"Feature"},
	{"geometry":{"coordinates":[-2.314086,53.446302],"type":"Point"},"properties":{"osm_id":"3007095296","tag":{"amenity":"waste_basket"}},"type":"Feature"},
	{"geometry":{"coordinates":[-2.295918,53.469187],"type":"Point"},"properties":{"osm_id":"3695142325","tag":{"amenity":"waste_basket"}},"type":"Feature"},
	{"geometry":{"coordinates":[-2.29498,53.472399],"type":"Point"},"properties":{"osm_id":"3695143626","tag":{"amenity":"waste_basket"}},"type":"Feature"},
	{"geometry":{"coordinates":[-2.295417,53.472288],"type":"Point"},"properties":{"osm_id":"3695144025","tag":{"amenity":"waste_basket"}},"type":"Feature"},
	{"geometry":{"coordinates":[-2.295212,53.472341],"type":"Point"},"properties":{"osm_id":"3695144425","tag":{"amenity":"waste_basket"}},"type":"Feature"},
	{"geometry":{"coordinates":[-2.339767,53.468319],"type":"Point"},"properties":{"osm_id":"4469194341","tag":{"amenity":"waste_basket"}},"type":"Feature"},
	{"geometry":{"coordinates":[-2.312954,53.445199],"type":"Point"},"properties":{"osm_id":"5401543727","tag":{"amenity":"recycling","recycling:cans":"yes","recycling:glass_bottles":"yes","recycling_type":"container"}},"type":"Feature"},
	{"geometry":{"coordinates":[-2.288353,53.47306],"type":"Point"},"properties":{"osm_id":"6374323826","tag":{"amenity":"waste_basket","waste":"trash"}},"type":"Feature"},
	{"geometry":{"coordinates":[-2.288395,53.473048],"type":"Point"},"properties":{"osm_id":"6374323827","tag":{"amenity":"waste_basket","waste":"trash"}},"type":"Feature"},
	{"geometry":{"coordinates":[-2.287864,53.46725],"type":"Point"},"properties":{"osm_id":"6508679566","tag":{"amenity":"waste_basket"}},"type":"Feature"},
	{"geometry":{"coordinates":[-2.286871,53.479474],"type":"Point"},"properties":{"osm_id":"7392857045","tag":{"amenity":"waste_basket"}},"type":"Feature"},
	{"geometry":{"coordinates":[-2.294804,53.484058],"type":"Point"},"properties":{"osm_id":"7435626204","tag":{"amenity":"waste_basket","waste":"trash"}},"type":"Feature"},
	{"geometry":{"coordinates":[-2.287038,53.475746],"type":"Point"},"properties":{"osm_id":"7460736231","tag":{"amenity":"waste_basket","waste":"trash"}},"type":"Feature"},
	{"geometry":{"coordinates":[-2.286943,53.475645],"type":"Point"},"properties":{"osm_id":"7460736232","tag":{"amenity":"waste_basket","waste":"trash"}},"type":"Feature"},
	{"geometry":{"coordinates":[-2.285957,53.474368],"type":"Point"},"properties":{"osm_id":"7464670542","tag":{"amenity":"waste_basket","waste":"trash"}},"type":"Feature"},
	{"geometry":{"coordinates":[-2.286128,53.474326],"type":"Point"},"properties":{"osm_id":"7464670543","tag":{"amenity":"waste_basket","waste":"trash"}},"type":"Feature"},
	{"geometry":{"coordinates":[-2.28793,53.471402],"type":"Point"},"properties":{"osm_id":"7464707601","tag":{"amenity":"waste_basket","waste":"trash"}},"type":"Feature"},
	{"geometry":{"coordinates":[-2.287226,53.468973],"type":"Point"},"properties":{"osm_id":"7504532971","tag":{"amenity":"waste_basket","waste":"trash"}},"type":"Feature"},
	{"geometry":{"coordinates":[-2.287414,53.468931],"type":"Point"},"properties":{"osm_id":"7504532972","tag":{"amenity":"waste_basket","waste":"trash"}},"type":"Feature"},
	{"geometry":{"coordinates":[-2.287602,53.468889],"type":"Point"},"properties":{"osm_id":"7504532973","tag":{"amenity":"waste_basket","waste":"trash"}},"type":"Feature"},
	{"geometry":{"coordinates":[-2.287789,53.468848],"type":"Point"},"properties":{"osm_id":"7504532974","tag":{"amenity":"waste_basket","waste":"trash"}},"type":"Feature"},
	{"geometry":{"coordinates":[-2.287977,53.468806],"type":"Point"},"properties":{"osm_id":"7504532975","tag":{"amenity":"waste_basket","waste":"trash"}},"type":"Feature"},
	{"geometry":{"coordinates":[-2.285247,53.471695],"type":"Point"},"properties":{"osm_id":"7504540096","tag":{"amenity":"waste_basket","waste":"trash"}},"type":"Feature"},
	{"geometry":{"coordinates":[-2.285347,53.471671],"type":"Point"},"properties":{"osm_id":"7504540097","tag":{"amenity":"waste_basket","waste":"trash"}},"type":"Feature"},
	{"geometry":{"coordinates":[-2.285547,53.471625],"type":"Point"},"properties":{"osm_id":"7504540098","tag":{"amenity":"waste_basket","waste":"trash"}},"type":"Feature"},
	{"geometry":{"coordinates":[-2.285698,53.47159],"type":"Point"},"properties":{"osm_id":"7504540099","tag":{"amenity":"waste_basket","waste":"trash"}},"type":"Feature"},
	{"geometry":{"coordinates":[-2.285848,53.471556],"type":"Point"},"properties":{"osm_id":"7504540100","tag":{"amenity":"waste_basket","waste":"trash"}},"type":"Feature"},
	{"geometry":{"coordinates":[-2.285999,53.471521],"type":"Point"},"properties":{"osm_id":"7504540101","tag":{"amenity":"waste_basket","waste":"trash"}},"type":"Feature"},
	{"geometry":{"coordinates":[-2.286149,53.471486],"type":"Point"},"properties":{"osm_id":"7504540102","tag":{"amenity":"waste_basket","waste":"trash"}},"type":"Feature"},
	{"geometry":{"coordinates":[-2.286299,53.471451],"type":"Point"},"properties":{"osm_id":"7504540103","tag":{"amenity":"waste_basket","waste":"trash"}},"type":"Feature"},
	{"geometry":{"coordinates":[-2.288227,53.468808],"type":"Point"},"properties":{"osm_id":"7504541396","tag":{"amenity":"waste_basket","waste":"trash"}},"type":"Feature"},
	{"geometry":{"coordinates":[-2.288415,53.468963],"type":"Point"},"properties":{"osm_id":"7504541397","tag":{"amenity":"waste_basket","waste":"trash"}},"type":"Feature"},
	{"geometry":{"coordinates":[-2.2883,53.468958],"type":"Point"},"properties":{"osm_id":"7504541398","tag":{"amenity":"waste_basket","waste":"trash"}},"type":"Feature"}
]
}
