{
"type": "FeatureCollection",
"features": [
	{"geometry":{"coordinates":[-2.322992,42.400539],"type":"Point"},"properties":{"osm_id":"3144095717","tag":{"amenity":"recycling","recycling:glass_bottles":"yes","recycling_type":"container"}},"type":"Feature"},
	{"geometry":{"coordinates":[-2.322999,42.400562],"type":"Point"},"properties":{"osm_id":"3144095718","tag":{"amenity":"waste_disposal"}},"type":"Feature"},
	{"geometry":{"coordinates":[-2.32301,42.400584],"type":"Point"},"properties":{"osm_id":"3144095719","tag":{"amenity":"waste_disposal"}},"type":"Feature"},
	{"geometry":{"coordinates":[-2.323021,42.400603],"type":"Point"},"properties":{"osm_id":"3144095721","tag":{"amenity":"recycling","recycling:paper":"yes","recycling_type":"container"}},"type":"Feature"},
	{"geometry":{"coordinates":[-2.323361,42.402637],"type":"Point"},"properties":{"osm_id":"3144095836","tag":{"amenity":"waste_disposal"}},"type":"Feature"},
	{"geometry":{"coordinates":[-2.323373,42.402661],"type":"Point"},"properties":{"osm_id":"3144095837","tag":{"amenity":"waste_disposal"}},"type":"Feature"},
	{"geometry":{"coordinates":[-2.323388,42.402684],"type":"Point"},"properties":{"osm_id":"3144095838","tag":{"amenity":"waste_disposal"}},"type":"Feature"},
	{"geometry":{"coordinates":[-2.323397,42.402704],"type":"Point"},"properties":{"osm_id":"3144095839","tag":{"amenity":"waste_disposal"}},"type":"Feature"},
	{"geometry":{"coordinates":[-2.323411,42.402726],"type":"Point"},"properties":{"osm_id":"3144095840","tag":{"amenity":"recycling","recycling:cans":"yes","recycling:glass":"yes","recycling:paper":"yes","recycling_type":"container","tipo":"contenedor"}},"type":"Feature"},
	{"geometry":{"coordinates":[-2.323422,42.402741],"type":"Point"},"properties":{"osm_id":"3144095841","tag":{"amenity":"recycling","recycling:cans":"yes","recycling:glass":"yes","recycling:paper":"yes","recycling_type":"container","tipo":"contenedor"}},"type":"Feature"},
	{"geometry":{"coordinates":[-2.323726,42.403036],"type":"Point"},"properties":{"osm_id":"3144095843","tag":{"amenity":"waste_basket"}},"type":"Feature"},
	{"geometry":{"coordinates":[-2.323783,42.403095],"type":"Point"},"properties":{"osm_id":"3144095846","tag":{"amenity":"waste_basket"}},"type":"Feature"},
	{"geometry":{"coordinates":[-2.32355,42.403105],"type":"Point"},"properties":{"osm_id":"3144095847","tag":{"amenity":"waste_basket"}},"type":"Feature"},
	{"geometry":{"coordinates":[-2.323579,42.403187],"type":"Point"},"properties":{"osm_id":"3144095850","tag":{"amenity":"waste_basket"}},"type":"Feature"},
	{"geometry":{"coordinates":[-2.362616,42.411118],"type":"Point"},"properties":{"name":"Desg\u00c3\u00bcace","osm_id":"5327243675","tag":{"amenity":"recycling","recycling_type":"centre"}},"type":"Feature"},
	{"geometry":{"coordinates":[-2.325025,42.400207],"type":"Point"},"properties":{"osm_id":"5518080734","tag":{"amenity":"recycling","recycling_type":"container"}},"type":"Feature"}
]
}
