{
"type": "FeatureCollection",
"features": [
	{"geometry":{"coordinates":[-2.463863,57.060021],"type":"Point"},"properties":{"osm_id":"1903161354","tag":{"amenity":"recycling","recycling:cans":"yes","recycling:cardboard":"yes","recycling:clothes":"yes","recycling:glass":"yes","recycling:glass_bottles":"yes","recycling:magazines":"yes","recycling:newspaper":"yes","recycling:paper":"yes","recycling:paper_packaging":"yes","recycling:plastic_bottles":"yes","recycling_type":"container"}},"type":"Feature"},
	{"geometry":{"coordinates":[-2.514916,57.064058],"type":"Point"},"properties":{"name":"Banchory Recycling Centre","osm_id":"2300250889","tag":{"addr:housename":"Crow's Nest","addr:postcode":"AB31 4EQ","addr:street":"Upper Lochton Road","alt_name":"Crow's Nest Household Waste Recycling Centre","amenity":"recycling","building":"no","opening_hours":"Mo-Th 09:00-16:30; Fr 09:00-16:00; Sa-Su 09:00-16:30; Apr 1-Sep 30 Tu 09:00-19:00","owner":"Aberdeenshire Council","ownership":"municipal","recycling:batteries":"yes","recycling:cans":"yes","recycling:cardboard":"yes","recycling:cartons":"yes","recycling:clothes":"yes","recycling:electrical_appliances":"yes","recycling:gas_cylinders":"yes","recycling:glass":"yes","recycling:glass_bottles":"yes","recycling:green_waste":"yes","recycling:hardcore":"yes","recycling:magazines":"yes","recycling:newspaper":"yes","recycling:paper":"yes","recycling:paper_packaging":"yes","recycling:plasterboard":"yes","recycling:plastic":"yes","recycling:plastic_bottles":"yes","recycling:polystyrene":"yes","recycling:residual_waste":"yes","recycling:small_appliances":"yes","recycling:soil":"yes","recycling:turf":"yes","recycling:wood":"yes","recycling_type":"centre","wikidata":"Q106081188"}},"type":"Feature"},
	{"geometry":{"coordinates":[-2.499459,57.050652],"type":"Point"},"properties":{"osm_id":"8829743529","tag":{"amenity":"waste_basket","operator":"Aberdeenshire Council"}},"type":"Feature"},
	{"geometry":{"coordinates":[-2.48766,57.050656],"type":"Point"},"properties":{"osm_id":"8975317086","tag":{"amenity":"waste_basket","waste":"trash"}},"type":"Feature"},
	{"geometry":{"coordinates":[-2.479596,57.052554],"type":"Point"},"properties":{"osm_id":"8975317090","tag":{"amenity":"waste_basket","waste":"trash"}},"type":"Feature"},
	{"geometry":{"coordinates":[-2.481903,57.052016],"type":"Point"},"properties":{"osm_id":"8975317091","tag":{"amenity":"waste_basket","waste":"trash"}},"type":"Feature"}
]
}
