{
"type": "FeatureCollection",
"features": [
	{"geometry":{"coordinates":[-2.461064,52.643627],"type":"Point"},"properties":{"osm_id":"1340661775","tag":{"amenity":"waste_basket"}},"type":"Feature"},
	{"geometry":{"coordinates":[-2.523984,52.660516],"type":"Point"},"properties":{"osm_id":"1358405670","tag":{"amenity":"waste_basket"}},"type":"Feature"},
	{"geometry":{"coordinates":[-2.519201,52.657083],"type":"Point"},"properties":{"osm_id":"1358405674","tag":{"amenity":"waste_basket"}},"type":"Feature"},
	{"geometry":{"coordinates":[-2.523278,52.657231],"type":"Point"},"properties":{"osm_id":"1358405679","tag":{"amenity":"waste_basket"}},"type":"Feature"},
	{"geometry":{"coordinates":[-2.521001,52.659128],"type":"Point"},"properties":{"osm_id":"1358405714","tag":{"amenity":"waste_basket"}},"type":"Feature"},
	{"geometry":{"coordinates":[-2.493252,52.692357],"type":"Point"},"properties":{"osm_id":"3399599448","tag":{"amenity":"waste_basket"}},"type":"Feature"},
	{"geometry":{"coordinates":[-2.494771,52.696071],"type":"Point"},"properties":{"osm_id":"3634131400","tag":{"amenity":"waste_basket"}},"type":"Feature"},
	{"geometry":{"coordinates":[-2.505474,52.690403],"type":"Point"},"properties":{"osm_id":"3634131493","tag":{"amenity":"waste_basket"}},"type":"Feature"},
	{"geometry":{"coordinates":[-2.495314,52.691954],"type":"Point"},"properties":{"osm_id":"3634131495","tag":{"amenity":"waste_basket"}},"type":"Feature"},
	{"geometry":{"coordinates":[-2.493917,52.691988],"type":"Point"},"properties":{"osm_id":"3634131503","tag":{"amenity":"waste_basket"}},"type":"Feature"},
	{"geometry":{"coordinates":[-2.49301,52.692878],"type":"Point"},"properties":{"osm_id":"3634131513","tag":{"amenity":"waste_basket"}},"type":"Feature"},
	{"geometry":{"coordinates":[-2.500791,52.690046],"type":"Point"},"properties":{"osm_id":"3634131593","tag":{"amenity":"waste_basket"}},"type":"Feature"},
	{"geometry":{"coordinates":[-2.494109,52.690668],"type":"Point"},"properties":{"osm_id":"3634131693","tag":{"amenity":"waste_basket"}},"type":"Feature"},
	{"geometry":{"coordinates":[-2.491493,52.693857],"type":"Point"},"properties":{"osm_id":"3634131996","tag":{"amenity":"waste_basket"}},"type":"Feature"},
	{"geometry":{"coordinates":[-2.491892,52.694149],"type":"Point"},"properties":{"osm_id":"3634132198","tag":{"amenity":"waste_basket"}},"type":"Feature"},
	{"geometry":{"coordinates":[-2.492705,52.694716],"type":"Point"},"properties":{"osm_id":"3634132199","tag":{"amenity":"waste_basket"}},"type":"Feature"},
	{"geometry":{"coordinates":[-2.492828,52.695342],"type":"Point"},"properties":{"osm_id":"3634132200","tag":{"amenity":"waste_basket"}},"type":"Feature"},
	{"geometry":{"coordinates":[-2.488971,52.671584],"type":"Point"},"properties":{"osm_id":"4052967750","tag":{"amenity":"waste_basket"}},"type":"Feature"},
	{"geometry":{"coordinates":[-2.488754,52.671527],"type":"Point"},"properties":{"osm_id":"4052967751","tag":{"amenity":"waste_basket"}},"type":"Feature"},
	{"geometry":{"coordinates":[-2.48114,52.688939],"type":"Point"},"properties":{"name":"Greenways Waste Recycling","osm_id":"5327452247","tag":{"amenity":"recycling","recycling_type":"centre"}},"type":"Feature"}
]
}
