{
"type": "FeatureCollection",
"features": [
	{"geometry":{"coordinates":[-2.539806,48.442218],"type":"Point"},"properties":{"osm_id":"8151633449","tag":{"amenity":"recycling","recycling:glass_bottles":"yes","recycling_type":"container"}},"type":"Feature"},
	{"geometry":{"coordinates":[-2.541939,48.440105],"type":"Point"},"properties":{"osm_id":"8151633454","tag":{"amenity":"recycling","recycling:clothes":"yes","recycling_type":"container"}},"type":"Feature"},
	{"geometry":{"coordinates":[-2.541992,48.440116],"type":"Point"},"properties":{"osm_id":"8151633455","tag":{"amenity":"recycling","recycling:glass_bottles":"yes","recycling_type":"container"}},"type":"Feature"},
	{"geometry":{"coordinates":[-2.541955,48.440116],"type":"Point"},"properties":{"osm_id":"8151633456","tag":{"amenity":"recycling","recycling:glass_bottles":"yes","recycling_type":"container"}},"type":"Feature"},
	{"geometry":{"coordinates":[-2.480351,48.448556],"type":"Point"},"properties":{"osm_id":"8475876249","tag":{"amenity":"recycling","opening_hours":"24/7","opening_hours:covid19":"same","recycling:clothes":"yes","recycling_type":"container"}},"type":"Feature"},
	{"geometry":{"coordinates":[-2.48026,48.448555],"type":"Point"},"properties":{"osm_id":"8475876250","tag":{"amenity":"recycling","opening_hours":"24/7","opening_hours:covid19":"same","recycling:glass":"yes","recycling:glass_bottles":"yes","recycling_type":"container"}},"type":"Feature"}
]
}
