{
"type": "FeatureCollection",
"features": [
	{"geometry":{"coordinates":[-2.516018,47.866134],"type":"Point"},"properties":{"osm_id":"5842301462","tag":{"amenity":"waste_basket"}},"type":"Feature"},
	{"geometry":{"coordinates":[-2.524584,47.864191],"type":"Point"},"properties":{"osm_id":"5842301479","tag":{"amenity":"waste_disposal","description":"ordures menageres"}},"type":"Feature"},
	{"geometry":{"coordinates":[-2.522807,47.865245],"type":"Point"},"properties":{"osm_id":"5842301480","tag":{"amenity":"waste_disposal","description":"tri"}},"type":"Feature"},
	{"geometry":{"coordinates":[-2.522815,47.865198],"type":"Point"},"properties":{"osm_id":"5842301999","tag":{"amenity":"waste_disposal"}},"type":"Feature"},
	{"geometry":{"coordinates":[-2.52279,47.86512],"type":"Point"},"properties":{"osm_id":"5842302003","tag":{"amenity":"waste_disposal","description":"verre"}},"type":"Feature"},
	{"geometry":{"coordinates":[-2.524593,47.864213],"type":"Point"},"properties":{"osm_id":"5842302064","tag":{"amenity":"waste_disposal","description":"tri"}},"type":"Feature"},
	{"geometry":{"coordinates":[-2.519048,47.870652],"type":"Point"},"properties":{"osm_id":"5846909049","tag":{"amenity":"waste_basket","waste":"trash"}},"type":"Feature"},
	{"geometry":{"coordinates":[-2.520278,47.869358],"type":"Point"},"properties":{"osm_id":"5860998235","tag":{"amenity":"waste_disposal"}},"type":"Feature"},
	{"geometry":{"coordinates":[-2.520305,47.869342],"type":"Point"},"properties":{"osm_id":"5860998236","tag":{"amenity":"waste_disposal"}},"type":"Feature"}
]
}
