{
"type": "FeatureCollection",
"lastupdate": "2020-08-02T00:00:00Z",
"features": [
	{"geometry":{"coordinates":[-2.473398,47.480881],"type":"Point"},"properties":{"osm_id":"4280557790","tag":{"amenity":"recycling","recycling:beverage_carton":"yes","recycling:cans":"yes","recycling:cardboard":"yes","recycling:glass_bottles":"yes","recycling:plastic_bottles":"yes","recycling:waste":"yes","recycling_type":"container"}},"type":"Feature"},
	{"geometry":{"coordinates":[-2.47394,47.480766],"type":"Point"},"properties":{"osm_id":"4280558490","tag":{"amenity":"waste_basket"}},"type":"Feature"},
	{"geometry":{"coordinates":[-2.476422,47.477869],"type":"Point"},"properties":{"osm_id":"4280594395","tag":{"amenity":"recycling","recycling:glass_bottles":"yes","recycling_type":"container"}},"type":"Feature"},
	{"geometry":{"coordinates":[-2.467248,47.471466],"type":"Point"},"properties":{"osm_id":"4280616103","tag":{"amenity":"recycling","recycling:beverage_carton":"yes","recycling:cardboard":"yes","recycling:glass_bottles":"yes","recycling:paper":"yes","recycling:plastic_bottles":"yes","recycling:waste":"yes","recycling_type":"container"}},"type":"Feature"},
	{"geometry":{"coordinates":[-2.466468,47.47128],"type":"Point"},"properties":{"osm_id":"4284058190","tag":{"amenity":"waste_basket"}},"type":"Feature"},
	{"geometry":{"coordinates":[-2.466508,47.471146],"type":"Point"},"properties":{"osm_id":"4284058989","tag":{"amenity":"waste_basket"}},"type":"Feature"},
	{"geometry":{"coordinates":[-2.475522,47.481922],"type":"Point"},"properties":{"osm_id":"4285960489","tag":{"amenity":"waste_basket"}},"type":"Feature"},
	{"geometry":{"coordinates":[-2.475696,47.481725],"type":"Point"},"properties":{"osm_id":"4285960589","tag":{"amenity":"waste_basket"}},"type":"Feature"},
	{"geometry":{"coordinates":[-2.479372,47.47883],"type":"Point"},"properties":{"osm_id":"4287527294","tag":{"amenity":"recycling","location":"underground","recycling:beverage_carton":"yes","recycling:cans":"yes","recycling:glass_bottles":"yes","recycling:paper":"yes","recycling:plastic_bottles":"yes","recycling:waste":"yes","recycling_type":"container"}},"type":"Feature"},
	{"geometry":{"coordinates":[-2.481953,47.479204],"type":"Point"},"properties":{"osm_id":"4287527494","tag":{"amenity":"waste_basket"}},"type":"Feature"},
	{"geometry":{"coordinates":[-2.464193,47.486955],"type":"Point"},"properties":{"osm_id":"4290459792","tag":{"amenity":"waste_basket"}},"type":"Feature"},
	{"geometry":{"coordinates":[-2.466525,47.486654],"type":"Point"},"properties":{"osm_id":"4290466291","tag":{"amenity":"waste_basket"}},"type":"Feature"},
	{"geometry":{"coordinates":[-2.466085,47.486688],"type":"Point"},"properties":{"osm_id":"4290487289","tag":{"amenity":"waste_basket"}},"type":"Feature"},
	{"geometry":{"coordinates":[-2.497254,47.491603],"type":"Point"},"properties":{"osm_id":"4322803547","tag":{"amenity":"recycling","recycling:glass_bottles":"yes","recycling_type":"container"}},"type":"Feature"},
	{"geometry":{"coordinates":[-2.466867,47.470897],"type":"Point"},"properties":{"osm_id":"4953528449","tag":{"amenity":"waste_basket"}},"type":"Feature"},
	{"geometry":{"coordinates":[-2.466863,47.471037],"type":"Point"},"properties":{"osm_id":"4953528450","tag":{"amenity":"waste_basket"}},"type":"Feature"},
	{"geometry":{"coordinates":[-2.487998,47.473997],"type":"Point"},"properties":{"osm_id":"4953581643","tag":{"amenity":"waste_basket"}},"type":"Feature"},
	{"geometry":{"coordinates":[-2.489106,47.473819],"type":"Point"},"properties":{"osm_id":"4953581645","tag":{"amenity":"waste_basket"}},"type":"Feature"},
	{"geometry":{"coordinates":[-2.478662,47.493778],"type":"Point"},"properties":{"osm_id":"4959839006","tag":{"amenity":"waste_basket"}},"type":"Feature"},
	{"geometry":{"coordinates":[-2.479134,47.49406],"type":"Point"},"properties":{"osm_id":"4959839007","tag":{"amenity":"waste_basket"}},"type":"Feature"},
	{"geometry":{"coordinates":[-2.484209,47.489793],"type":"Point"},"properties":{"osm_id":"4959892207","tag":{"amenity":"recycling","capacity":"2","recycling:cans":"yes","recycling:cardboard":"yes","recycling:glass_bottles":"yes","recycling:paper":"yes","recycling:plastic_bottles":"yes","recycling:waste":"yes","recycling_type":"container"}},"type":"Feature"},
	{"geometry":{"coordinates":[-2.489996,47.481649],"type":"Point"},"properties":{"osm_id":"4960042107","tag":{"amenity":"waste_basket"}},"type":"Feature"},
	{"geometry":{"coordinates":[-2.491375,47.479037],"type":"Point"},"properties":{"osm_id":"4960042115","tag":{"amenity":"waste_basket"}},"type":"Feature"},
	{"geometry":{"coordinates":[-2.490712,47.47931],"type":"Point"},"properties":{"osm_id":"4960042330","tag":{"amenity":"waste_basket"}},"type":"Feature"},
	{"geometry":{"coordinates":[-2.461305,47.473825],"type":"Point"},"properties":{"osm_id":"4962747252","tag":{"amenity":"waste_basket"}},"type":"Feature"},
	{"geometry":{"coordinates":[-2.460991,47.473495],"type":"Point"},"properties":{"osm_id":"4962747262","tag":{"amenity":"recycling","recycling:glass_bottles":"yes","recycling_type":"container"}},"type":"Feature"},
	{"geometry":{"coordinates":[-2.47203,47.483664],"type":"Point"},"properties":{"osm_id":"6697466057","tag":{"amenity":"recycling","recycling:cardboard":"yes","recycling_type":"container"}},"type":"Feature"},
	{"geometry":{"coordinates":[-2.471815,47.483842],"type":"Point"},"properties":{"osm_id":"6697466058","tag":{"amenity":"recycling","recycling:glass_bottles":"yes","recycling_type":"container"}},"type":"Feature"}
]
}
