{
"type": "FeatureCollection",
"features": [
	{"geometry":{"coordinates":[-2.464489,36.84493],"type":"Point"},"properties":{"name":"Contenedor de reciclaje de pilas","osm_id":"4432554469","tag":{"amenity":"recycling"}},"type":"Feature"},
	{"geometry":{"coordinates":[-2.464031,36.842767],"type":"Point"},"properties":{"name":"Contenedor de pilas","osm_id":"4461603846","tag":{"amenity":"recycling","recycling:batteries":"yes","recycling_type":"container"}},"type":"Feature"},
	{"geometry":{"coordinates":[-2.470501,36.839984],"type":"Point"},"properties":{"osm_id":"6414750088","tag":{"amenity":"recycling","recycling:glass":"yes","recycling_type":"container"}},"type":"Feature"},
	{"geometry":{"coordinates":[-2.470237,36.839998],"type":"Point"},"properties":{"osm_id":"6414750089","tag":{"amenity":"waste_basket"}},"type":"Feature"},
	{"geometry":{"coordinates":[-2.47013,36.839982],"type":"Point"},"properties":{"osm_id":"6414750090","tag":{"amenity":"waste_basket"}},"type":"Feature"},
	{"geometry":{"coordinates":[-2.470516,36.839986],"type":"Point"},"properties":{"osm_id":"6414750093","tag":{"amenity":"recycling","recycling_type":"container"}},"type":"Feature"},
	{"geometry":{"coordinates":[-2.472527,36.837385],"type":"Point"},"properties":{"osm_id":"6609287115","tag":{"amenity":"waste_basket"}},"type":"Feature"},
	{"geometry":{"coordinates":[-2.467511,36.837549],"type":"Point"},"properties":{"osm_id":"6609447331","tag":{"amenity":"waste_basket"}},"type":"Feature"},
	{"geometry":{"coordinates":[-2.466843,36.835813],"type":"Point"},"properties":{"osm_id":"6609631308","tag":{"amenity":"recycling","recycling_type":"container"}},"type":"Feature"},
	{"geometry":{"coordinates":[-2.466837,36.835789],"type":"Point"},"properties":{"osm_id":"6609631309","tag":{"amenity":"recycling","recycling_type":"container"}},"type":"Feature"},
	{"geometry":{"coordinates":[-2.466838,36.835769],"type":"Point"},"properties":{"osm_id":"6609631310","tag":{"amenity":"recycling","recycling_type":"container"}},"type":"Feature"},
	{"geometry":{"coordinates":[-2.466838,36.835745],"type":"Point"},"properties":{"osm_id":"6609631311","tag":{"amenity":"recycling","recycling_type":"container"}},"type":"Feature"},
	{"geometry":{"coordinates":[-2.466841,36.835721],"type":"Point"},"properties":{"osm_id":"6609631312","tag":{"amenity":"recycling","recycling_type":"container"}},"type":"Feature"},
	{"geometry":{"coordinates":[-2.467266,36.835821],"type":"Point"},"properties":{"osm_id":"6617103989","tag":{"amenity":"waste_basket"}},"type":"Feature"},
	{"geometry":{"coordinates":[-2.467288,36.835653],"type":"Point"},"properties":{"osm_id":"6617103990","tag":{"amenity":"waste_basket"}},"type":"Feature"},
	{"geometry":{"coordinates":[-2.46688,36.837639],"type":"Point"},"properties":{"osm_id":"6645906884","tag":{"amenity":"waste_basket"}},"type":"Feature"},
	{"geometry":{"coordinates":[-2.463889,36.83764],"type":"Point"},"properties":{"osm_id":"7549738677","tag":{"amenity":"waste_basket"}},"type":"Feature"},
	{"geometry":{"coordinates":[-2.463838,36.837922],"type":"Point"},"properties":{"osm_id":"7549738681","tag":{"amenity":"waste_basket"}},"type":"Feature"}
]
}
