{
"type": "FeatureCollection",
"features": [
	{"geometry":{"coordinates":[-2.514099,6.802871],"type":"Point"},"properties":{"osm_id":"6061712345","tag":{"amenity":"waste_disposal","waste":"trash"}},"type":"Feature"},
	{"geometry":{"coordinates":[-2.514128,6.802859],"type":"Point"},"properties":{"osm_id":"6061712346","tag":{"amenity":"waste_disposal","waste":"trash"}},"type":"Feature"},
	{"geometry":{"coordinates":[-2.518372,6.806259],"type":"Point"},"properties":{"osm_id":"6356375631","tag":{"addr:street":"Kofi Solo Avenue","amenity":"waste_disposal","waste":"trash"}},"type":"Feature"},
	{"geometry":{"coordinates":[-2.517286,6.794422],"type":"Point"},"properties":{"osm_id":"6357712507","tag":{"amenity":"waste_disposal","waste":"trash"}},"type":"Feature"},
	{"geometry":{"coordinates":[-2.515098,6.807787],"type":"Point"},"properties":{"osm_id":"6447637148","tag":{"amenity":"waste_basket"}},"type":"Feature"},
	{"geometry":{"coordinates":[-2.515105,6.807782],"type":"Point"},"properties":{"osm_id":"6447637149","tag":{"amenity":"waste_basket"}},"type":"Feature"},
	{"geometry":{"coordinates":[-2.517987,6.807471],"type":"Point"},"properties":{"osm_id":"6461258809","tag":{"amenity":"waste_basket"}},"type":"Feature"},
	{"geometry":{"coordinates":[-2.516636,6.791418],"type":"Point"},"properties":{"osm_id":"6632965985","tag":{"amenity":"waste_basket"}},"type":"Feature"},
	{"geometry":{"coordinates":[-2.516262,6.786554],"type":"Point"},"properties":{"osm_id":"6636621938","tag":{"amenity":"waste_basket"}},"type":"Feature"},
	{"geometry":{"coordinates":[-2.516724,6.788738],"type":"Point"},"properties":{"osm_id":"6644099785","tag":{"amenity":"waste_basket"}},"type":"Feature"},
	{"geometry":{"coordinates":[-2.514681,6.808183],"type":"Point"},"properties":{"osm_id":"6699870207","tag":{"amenity":"waste_basket"}},"type":"Feature"},
	{"geometry":{"coordinates":[-2.514672,6.80818],"type":"Point"},"properties":{"osm_id":"6700275293","tag":{"amenity":"waste_basket"}},"type":"Feature"},
	{"geometry":{"coordinates":[-2.514675,6.808156],"type":"Point"},"properties":{"osm_id":"6702580686","tag":{"amenity":"waste_basket"}},"type":"Feature"},
	{"geometry":{"coordinates":[-2.515638,6.790922],"type":"Point"},"properties":{"osm_id":"6736954015","tag":{"amenity":"waste_basket"}},"type":"Feature"},
	{"geometry":{"coordinates":[-2.523524,6.799109],"type":"Point"},"properties":{"name":"Wastebin","osm_id":"6746016522","tag":{"addr:street":"Anansekrom Avenue","amenity":"waste_disposal"}},"type":"Feature"},
	{"geometry":{"coordinates":[-2.530811,6.811133],"type":"Point"},"properties":{"osm_id":"6759648781","tag":{"addr:street":"Mim-Kukuom road","amenity":"waste_basket"}},"type":"Feature"},
	{"geometry":{"coordinates":[-2.531231,6.812889],"type":"Point"},"properties":{"osm_id":"6759711857","tag":{"addr:street":"Mim-Kukuom road","amenity":"waste_basket"}},"type":"Feature"},
	{"geometry":{"coordinates":[-2.534653,6.814677],"type":"Point"},"properties":{"name":"Wastebin","osm_id":"6759713129","tag":{"amenity":"waste_basket"}},"type":"Feature"},
	{"geometry":{"coordinates":[-2.535474,6.815231],"type":"Point"},"properties":{"name":"Wastebin","osm_id":"6759721239","tag":{"amenity":"waste_basket"}},"type":"Feature"},
	{"geometry":{"coordinates":[-2.535661,6.814969],"type":"Point"},"properties":{"name":"Wastebin","osm_id":"6759740796","tag":{"amenity":"waste_basket"}},"type":"Feature"},
	{"geometry":{"coordinates":[-2.529799,6.813993],"type":"Point"},"properties":{"osm_id":"6760286184","tag":{"amenity":"waste_basket"}},"type":"Feature"},
	{"geometry":{"coordinates":[-2.531071,6.813762],"type":"Point"},"properties":{"osm_id":"6760296565","tag":{"addr:street":"Mim-Kukuom road","amenity":"waste_basket"}},"type":"Feature"},
	{"geometry":{"coordinates":[-2.533513,6.81402],"type":"Point"},"properties":{"osm_id":"6760310453","tag":{"addr:street":"Mim-Kukuom road","amenity":"waste_basket"}},"type":"Feature"},
	{"geometry":{"coordinates":[-2.531155,6.814788],"type":"Point"},"properties":{"name":"Wastebin","osm_id":"6760313231","tag":{"addr:street":"Mim-Kukuom road","amenity":"waste_basket"}},"type":"Feature"},
	{"geometry":{"coordinates":[-2.529268,6.815143],"type":"Point"},"properties":{"name":"Wastebin","osm_id":"6760313497","tag":{"amenity":"waste_basket"}},"type":"Feature"},
	{"geometry":{"coordinates":[-2.529757,6.814261],"type":"Point"},"properties":{"osm_id":"6760313716","tag":{"amenity":"waste_basket"}},"type":"Feature"},
	{"geometry":{"coordinates":[-2.519197,6.805221],"type":"Point"},"properties":{"osm_id":"6785535486","tag":{"amenity":"waste_basket"}},"type":"Feature"},
	{"geometry":{"coordinates":[-2.511085,6.799618],"type":"Point"},"properties":{"name":"Wastebin","osm_id":"6788164977","tag":{"amenity":"waste_basket"}},"type":"Feature"},
	{"geometry":{"coordinates":[-2.519392,6.804531],"type":"Point"},"properties":{"osm_id":"6788169105","tag":{"addr:street":"T.N Baidoo Street","amenity":"waste_basket"}},"type":"Feature"}
]
}
