{
"type": "FeatureCollection",
"features": [
	{"geometry":{"coordinates":[-110.670663,50.05955],"type":"Point"},"properties":{"osm_id":"5680710500","tag":{"amenity":"waste_basket"}},"type":"Feature"},
	{"geometry":{"coordinates":[-110.677972,50.046866],"type":"Point"},"properties":{"name":"Hydrocarbons Recycling","osm_id":"5965062805","tag":{"amenity":"recycling","description":"edited by Medicine Hat Computers 09/09/2018"}},"type":"Feature"},
	{"geometry":{"coordinates":[-110.677026,50.046415],"type":"Point"},"properties":{"name":"Shamrock Bottle Depot","osm_id":"5965062953","tag":{"addr:street":"4 Avenue","amenity":"recycling","description":"edited by: Medicine Hat Computers 09/09/2018"}},"type":"Feature"},
	{"geometry":{"coordinates":[-110.677636,50.046583],"type":"Point"},"properties":{"name":"Electronic Recycling","osm_id":"5965062954","tag":{"amenity":"recycling","description":"edited by Medicine Hat Computers 09/09/2018"}},"type":"Feature"},
	{"geometry":{"coordinates":[-110.678035,50.046689],"type":"Point"},"properties":{"name":"Non Hazardous Recycling","osm_id":"5965064656","tag":{"amenity":"recycling","description":"edited by Medicine Hat Computers 09/09/2018"}},"type":"Feature"},
	{"geometry":{"coordinates":[-110.676781,50.017761],"type":"Point"},"properties":{"osm_id":"8703310709","tag":{"amenity":"waste_basket","colour":"brown","material":"steel"}},"type":"Feature"},
	{"geometry":{"coordinates":[-110.689318,50.033259],"type":"Point"},"properties":{"osm_id":"8744066730","tag":{"amenity":"waste_basket"}},"type":"Feature"},
	{"geometry":{"coordinates":[-110.689573,50.032569],"type":"Point"},"properties":{"osm_id":"8787506938","tag":{"amenity":"waste_basket","material":"steel"}},"type":"Feature"}
]
}
