{
"type": "FeatureCollection",
"features": [
	{"geometry":{"coordinates":[-3.861817,57.589413],"type":"Point"},"properties":{"osm_id":"1312937558","tag":{"amenity":"recycling"}},"type":"Feature"},
	{"geometry":{"coordinates":[-3.849862,57.581904],"type":"Point"},"properties":{"osm_id":"4574261305","tag":{"amenity":"recycling","location":"overground","recycling:clothes":"yes","recycling:glass":"yes","recycling_type":"container"}},"type":"Feature"},
	{"geometry":{"coordinates":[-3.853028,57.592126],"type":"Point"},"properties":{"osm_id":"8998212215","tag":{"amenity":"recycling","recycling_type":"container"}},"type":"Feature"},
	{"geometry":{"coordinates":[-3.852198,57.592402],"type":"Point"},"properties":{"osm_id":"8998212216","tag":{"amenity":"recycling","recycling_type":"container"}},"type":"Feature"},
	{"geometry":{"coordinates":[-3.850222,57.592877],"type":"Point"},"properties":{"osm_id":"8998242517","tag":{"amenity":"recycling","recycling_type":"container"}},"type":"Feature"},
	{"geometry":{"coordinates":[-3.849093,57.592933],"type":"Point"},"properties":{"osm_id":"8998242518","tag":{"amenity":"recycling","recycling_type":"container"}},"type":"Feature"},
	{"geometry":{"coordinates":[-3.856379,57.591661],"type":"Point"},"properties":{"osm_id":"8998242519","tag":{"amenity":"recycling","recycling_type":"container"}},"type":"Feature"},
	{"geometry":{"coordinates":[-3.856317,57.591118],"type":"Point"},"properties":{"osm_id":"8998242520","tag":{"amenity":"recycling","recycling_type":"container"}},"type":"Feature"},
	{"geometry":{"coordinates":[-3.855872,57.591147],"type":"Point"},"properties":{"osm_id":"8998242521","tag":{"amenity":"recycling","recycling_type":"container"}},"type":"Feature"},
	{"geometry":{"coordinates":[-3.854952,57.591348],"type":"Point"},"properties":{"osm_id":"8998242522","tag":{"amenity":"recycling","recycling:waste":"yes","recycling_type":"container"}},"type":"Feature"},
	{"geometry":{"coordinates":[-3.85395,57.591599],"type":"Point"},"properties":{"osm_id":"8998242523","tag":{"amenity":"recycling","recycling_type":"container"}},"type":"Feature"},
	{"geometry":{"coordinates":[-3.852353,57.591897],"type":"Point"},"properties":{"osm_id":"8998242524","tag":{"amenity":"recycling","recycling_type":"container"}},"type":"Feature"},
	{"geometry":{"coordinates":[-3.851496,57.59216],"type":"Point"},"properties":{"osm_id":"8998242525","tag":{"amenity":"recycling","recycling:waste":"yes","recycling_type":"container"}},"type":"Feature"},
	{"geometry":{"coordinates":[-3.851359,57.592818],"type":"Point"},"properties":{"osm_id":"8998242526","tag":{"amenity":"recycling","recycling:waste":"yes","recycling_type":"container"}},"type":"Feature"},
	{"geometry":{"coordinates":[-3.853032,57.592528],"type":"Point"},"properties":{"osm_id":"8998242527","tag":{"amenity":"recycling","recycling_type":"container"}},"type":"Feature"},
	{"geometry":{"coordinates":[-3.854074,57.592278],"type":"Point"},"properties":{"osm_id":"8998242528","tag":{"amenity":"recycling","recycling_type":"container"}},"type":"Feature"},
	{"geometry":{"coordinates":[-3.854952,57.591804],"type":"Point"},"properties":{"osm_id":"8998242529","tag":{"amenity":"recycling","recycling_type":"container"}},"type":"Feature"},
	{"geometry":{"coordinates":[-3.855992,57.592034],"type":"Point"},"properties":{"osm_id":"8998242530","tag":{"amenity":"recycling","recycling_type":"container"}},"type":"Feature"}
]
}
