{
"type": "FeatureCollection",
"features": [
	{"geometry":{"coordinates":[-3.86239,48.6127],"type":"Point"},"properties":{"osm_id":"997994681","tag":{"amenity":"waste_basket"}},"type":"Feature"},
	{"geometry":{"coordinates":[-3.824148,48.582164],"type":"Point"},"properties":{"osm_id":"1974064204","tag":{"amenity":"recycling"}},"type":"Feature"},
	{"geometry":{"coordinates":[-3.863535,48.624776],"type":"Point"},"properties":{"osm_id":"4471884078","tag":{"amenity":"waste_basket"}},"type":"Feature"},
	{"geometry":{"coordinates":[-3.85791,48.624079],"type":"Point"},"properties":{"osm_id":"4471884323","tag":{"amenity":"recycling","recycling:paper":"yes","recycling:plastic":"yes","recycling_type":"container"}},"type":"Feature"},
	{"geometry":{"coordinates":[-3.857859,48.624098],"type":"Point"},"properties":{"osm_id":"4471884324","tag":{"amenity":"waste_basket"}},"type":"Feature"},
	{"geometry":{"coordinates":[-3.863511,48.624744],"type":"Point"},"properties":{"osm_id":"4471884329","tag":{"amenity":"recycling","recycling_type":"container"}},"type":"Feature"},
	{"geometry":{"coordinates":[-3.862589,48.612851],"type":"Point"},"properties":{"osm_id":"4888053049","tag":{"amenity":"waste_basket"}},"type":"Feature"},
	{"geometry":{"coordinates":[-3.862672,48.613133],"type":"Point"},"properties":{"osm_id":"4888053050","tag":{"amenity":"waste_basket"}},"type":"Feature"},
	{"geometry":{"coordinates":[-3.835272,48.576994],"type":"Point"},"properties":{"osm_id":"5013705131","tag":{"amenity":"recycling","colour":"green","recycling:glass_bottles":"yes","recycling_type":"container"}},"type":"Feature"},
	{"geometry":{"coordinates":[-3.832487,48.578034],"type":"Point"},"properties":{"osm_id":"5014298085","tag":{"amenity":"waste_basket","level":"0"}},"type":"Feature"},
	{"geometry":{"coordinates":[-3.8326,48.578005],"type":"Point"},"properties":{"osm_id":"5014315552","tag":{"amenity":"waste_basket","level":"0"}},"type":"Feature"},
	{"geometry":{"coordinates":[-3.832438,48.578093],"type":"Point"},"properties":{"osm_id":"5014528074","tag":{"amenity":"waste_basket","level":"0"}},"type":"Feature"},
	{"geometry":{"coordinates":[-3.833107,48.577915],"type":"Point"},"properties":{"osm_id":"5014528083","tag":{"amenity":"waste_basket","level":"0"}},"type":"Feature"},
	{"geometry":{"coordinates":[-3.832907,48.577969],"type":"Point"},"properties":{"osm_id":"5014532723","tag":{"amenity":"waste_basket","level":"0"}},"type":"Feature"},
	{"geometry":{"coordinates":[-3.832459,48.578261],"type":"Point"},"properties":{"osm_id":"5014622823","tag":{"amenity":"waste_basket","level":"0"}},"type":"Feature"},
	{"geometry":{"coordinates":[-3.833957,48.577852],"type":"Point"},"properties":{"osm_id":"5014622854","tag":{"amenity":"waste_basket","level":"0"}},"type":"Feature"},
	{"geometry":{"coordinates":[-3.834723,48.577651],"type":"Point"},"properties":{"osm_id":"5014622855","tag":{"amenity":"waste_basket","level":"0"}},"type":"Feature"},
	{"geometry":{"coordinates":[-3.840057,48.628175],"type":"Point"},"properties":{"osm_id":"5823594892","tag":{"amenity":"waste_basket"}},"type":"Feature"},
	{"geometry":{"coordinates":[-3.829351,48.575389],"type":"Point"},"properties":{"osm_id":"5998884706","tag":{"amenity":"waste_basket","wheelchair":"yes"}},"type":"Feature"},
	{"geometry":{"coordinates":[-3.82959,48.575296],"type":"Point"},"properties":{"osm_id":"5998884708","tag":{"amenity":"waste_basket","wheelchair":"yes"}},"type":"Feature"},
	{"geometry":{"coordinates":[-3.793577,48.589907],"type":"Point"},"properties":{"barrier":"gate","osm_id":"7714052715"},"type":"Feature"},
	{"geometry":{"coordinates":[-3.793353,48.590364],"type":"Point"},"properties":{"barrier":"gate","osm_id":"7714052716"},"type":"Feature"},
	{"geometry":{"coordinates":[-3.79324,48.59104],"type":"Point"},"properties":{"barrier":"gate","osm_id":"7714052717"},"type":"Feature"},
	{"geometry":{"coordinates":[-3.79382,48.590605],"type":"Point"},"properties":{"osm_id":"7714052718","tag":{"amenity":"recycling","recycling_type":"container"}},"type":"Feature"},
	{"geometry":{"coordinates":[-3.793875,48.59056],"type":"Point"},"properties":{"osm_id":"7714052719","tag":{"amenity":"recycling","recycling_type":"container"}},"type":"Feature"},
	{"geometry":{"coordinates":[-3.793892,48.5905],"type":"Point"},"properties":{"osm_id":"7714052720","tag":{"amenity":"recycling","recycling_type":"container"}},"type":"Feature"},
	{"geometry":{"coordinates":[-3.793927,48.590442],"type":"Point"},"properties":{"osm_id":"7714052721","tag":{"amenity":"recycling","recycling_type":"container"}},"type":"Feature"},
	{"geometry":{"coordinates":[-3.793966,48.590377],"type":"Point"},"properties":{"osm_id":"7714052722","tag":{"amenity":"recycling","recycling_type":"container"}},"type":"Feature"},
	{"geometry":{"coordinates":[-3.793995,48.590316],"type":"Point"},"properties":{"osm_id":"7714052723","tag":{"amenity":"recycling","recycling_type":"container"}},"type":"Feature"},
	{"geometry":{"coordinates":[-3.794035,48.590251],"type":"Point"},"properties":{"osm_id":"7714052724","tag":{"amenity":"recycling","recycling_type":"container"}},"type":"Feature"},
	{"geometry":{"coordinates":[-3.793985,48.590126],"type":"Point"},"properties":{"osm_id":"7714052725","tag":{"amenity":"recycling","recycling_type":"container"}},"type":"Feature"},
	{"geometry":{"coordinates":[-3.793944,48.590062],"type":"Point"},"properties":{"osm_id":"7714052726","tag":{"amenity":"recycling","recycling_type":"container"}},"type":"Feature"},
	{"geometry":{"coordinates":[-3.79385,48.590044],"type":"Point"},"properties":{"osm_id":"7714052727","tag":{"amenity":"recycling","recycling_type":"container"}},"type":"Feature"},
	{"geometry":{"coordinates":[-3.793749,48.590695],"type":"Point"},"properties":{"osm_id":"7714052731","tag":{"amenity":"recycling","recycling_type":"container"}},"type":"Feature"},
	{"geometry":{"coordinates":[-3.793622,48.591054],"type":"Point"},"properties":{"osm_id":"7714052732","tag":{"amenity":"recycling","recycling_type":"container"}},"type":"Feature"},
	{"geometry":{"coordinates":[-3.793665,48.590877],"type":"Point"},"properties":{"osm_id":"7714052733","tag":{"amenity":"recycling","recycling_type":"container"}},"type":"Feature"},
	{"geometry":{"coordinates":[-3.793613,48.590236],"type":"Point"},"properties":{"osm_id":"7714093084","tag":{"amenity":"recycling","recycling_type":"container"}},"type":"Feature"},
	{"geometry":{"coordinates":[-3.793609,48.590355],"type":"Point"},"properties":{"osm_id":"7714111085","tag":{"amenity":"recycling","recycling_type":"container"}},"type":"Feature"}
]
}
