{
"type": "FeatureCollection",
"lastupdate": "2020-08-03T00:00:00Z",
"features": [
	{"geometry":{"coordinates":[-3.783261,42.480965],"type":"Point"},"properties":{"osm_id":"2580614334","tag":{"amenity":"recycling"}},"type":"Feature"},
	{"geometry":{"coordinates":[-3.782468,42.481721],"type":"Point"},"properties":{"osm_id":"5176710179","tag":{"amenity":"recycling","recycling:glass_bottles":"yes"}},"type":"Feature"},
	{"geometry":{"coordinates":[-3.783552,42.480448],"type":"Point"},"properties":{"osm_id":"5176710184","tag":{"amenity":"recycling","recycling:glass_bottles":"yes"}},"type":"Feature"},
	{"geometry":{"coordinates":[-3.78251,42.47999],"type":"Point"},"properties":{"osm_id":"5176710185","tag":{"amenity":"recycling"}},"type":"Feature"},
	{"geometry":{"coordinates":[-3.797521,42.464086],"type":"Point"},"properties":{"osm_id":"5176711360","tag":{"amenity":"recycling"}},"type":"Feature"},
	{"geometry":{"coordinates":[-3.785562,42.481147],"type":"Point"},"properties":{"osm_id":"5241661003","tag":{"amenity":"recycling"}},"type":"Feature"},
	{"geometry":{"coordinates":[-3.810189,42.484758],"type":"Point"},"properties":{"osm_id":"5361937306","tag":{"amenity":"recycling"}},"type":"Feature"},
	{"geometry":{"coordinates":[-3.793886,42.443924],"type":"Point"},"properties":{"osm_id":"6329180504","tag":{"amenity":"recycling"}},"type":"Feature"},
	{"geometry":{"coordinates":[-3.814568,42.449313],"type":"Point"},"properties":{"osm_id":"6331092539","tag":{"amenity":"recycling"}},"type":"Feature"},
	{"geometry":{"coordinates":[-3.800641,42.451654],"type":"Point"},"properties":{"osm_id":"6331092549","tag":{"amenity":"recycling","recycling:glass_bottles":"yes"}},"type":"Feature"}
]
}
