{
"type": "FeatureCollection",
"features": [
	{"geometry":{"coordinates":[-3.838004,42.308993],"type":"Point"},"properties":{"osm_id":"1424041584","tag":{"amenity":"recycling"}},"type":"Feature"},
	{"geometry":{"coordinates":[-3.8155,42.347736],"type":"Point"},"properties":{"osm_id":"2101698539","tag":{"amenity":"recycling"}},"type":"Feature"},
	{"geometry":{"coordinates":[-3.780731,42.348142],"type":"Point"},"properties":{"osm_id":"2288533088","tag":{"amenity":"recycling"}},"type":"Feature"},
	{"geometry":{"coordinates":[-3.809067,42.328718],"type":"Point"},"properties":{"osm_id":"4665932444","tag":{"amenity":"recycling"}},"type":"Feature"},
	{"geometry":{"coordinates":[-3.819689,42.350919],"type":"Point"},"properties":{"osm_id":"4677164179","tag":{"amenity":"recycling"}},"type":"Feature"},
	{"geometry":{"coordinates":[-3.815473,42.34954],"type":"Point"},"properties":{"osm_id":"4684296472","tag":{"amenity":"recycling"}},"type":"Feature"},
	{"geometry":{"coordinates":[-3.82174,42.349362],"type":"Point"},"properties":{"osm_id":"4684296473","tag":{"amenity":"recycling"}},"type":"Feature"},
	{"geometry":{"coordinates":[-3.822983,42.346914],"type":"Point"},"properties":{"osm_id":"4684296474","tag":{"amenity":"recycling"}},"type":"Feature"},
	{"geometry":{"coordinates":[-3.819418,42.34779],"type":"Point"},"properties":{"osm_id":"4684296475","tag":{"amenity":"recycling"}},"type":"Feature"},
	{"geometry":{"coordinates":[-3.818176,42.348796],"type":"Point"},"properties":{"osm_id":"4684296476","tag":{"amenity":"recycling"}},"type":"Feature"},
	{"geometry":{"coordinates":[-3.792947,42.335899],"type":"Point"},"properties":{"osm_id":"4684296593","tag":{"amenity":"recycling"}},"type":"Feature"},
	{"geometry":{"coordinates":[-3.794444,42.336301],"type":"Point"},"properties":{"osm_id":"4684296594","tag":{"amenity":"recycling"}},"type":"Feature"},
	{"geometry":{"coordinates":[-3.795219,42.337094],"type":"Point"},"properties":{"osm_id":"4684296602","tag":{"amenity":"recycling"}},"type":"Feature"},
	{"geometry":{"coordinates":[-3.822481,42.313689],"type":"Point"},"properties":{"osm_id":"4684296604","tag":{"amenity":"recycling"}},"type":"Feature"},
	{"geometry":{"coordinates":[-3.821228,42.311981],"type":"Point"},"properties":{"osm_id":"4684296605","tag":{"amenity":"recycling"}},"type":"Feature"},
	{"geometry":{"coordinates":[-3.819464,42.310883],"type":"Point"},"properties":{"osm_id":"4684296606","tag":{"amenity":"recycling"}},"type":"Feature"},
	{"geometry":{"coordinates":[-3.82367,42.312152],"type":"Point"},"properties":{"osm_id":"4684296607","tag":{"amenity":"recycling"}},"type":"Feature"},
	{"geometry":{"coordinates":[-3.82631,42.306573],"type":"Point"},"properties":{"osm_id":"4684296608","tag":{"amenity":"recycling"}},"type":"Feature"},
	{"geometry":{"coordinates":[-3.8299,42.344026],"type":"Point"},"properties":{"osm_id":"4687704083","tag":{"amenity":"recycling","mapillary":"mEoBOY21atl8aGrcBHBAGg","recycling_type":"container","survey:date":"2019-04-01"}},"type":"Feature"},
	{"geometry":{"coordinates":[-3.83594,42.340016],"type":"Point"},"properties":{"osm_id":"4687704606","tag":{"amenity":"recycling"}},"type":"Feature"},
	{"geometry":{"coordinates":[-3.833493,42.340286],"type":"Point"},"properties":{"osm_id":"4687704643","tag":{"amenity":"recycling","mapillary":"xhmvtdsLD0tKDnqKk4NTOg","recycling_type":"container","survey:date":"2019-03-31"}},"type":"Feature"},
	{"geometry":{"coordinates":[-3.822049,42.310166],"type":"Point"},"properties":{"osm_id":"4693547577","tag":{"amenity":"recycling"}},"type":"Feature"},
	{"geometry":{"coordinates":[-3.780643,42.346174],"type":"Point"},"properties":{"osm_id":"4758248436","tag":{"amenity":"recycling"}},"type":"Feature"},
	{"geometry":{"coordinates":[-3.812141,42.348111],"type":"Point"},"properties":{"osm_id":"5140318351","tag":{"amenity":"recycling"}},"type":"Feature"},
	{"geometry":{"coordinates":[-3.817175,42.348156],"type":"Point"},"properties":{"osm_id":"5140318352","tag":{"amenity":"recycling"}},"type":"Feature"},
	{"geometry":{"coordinates":[-3.802423,42.331203],"type":"Point"},"properties":{"osm_id":"5166200969","tag":{"amenity":"recycling","recycling:glass_bottles":"yes","recycling_type":"container"}},"type":"Feature"},
	{"geometry":{"coordinates":[-3.82479,42.305965],"type":"Point"},"properties":{"osm_id":"5189309193","tag":{"amenity":"recycling"}},"type":"Feature"},
	{"geometry":{"coordinates":[-3.840394,42.311282],"type":"Point"},"properties":{"osm_id":"5864145786","tag":{"amenity":"recycling"}},"type":"Feature"},
	{"geometry":{"coordinates":[-3.810106,42.344764],"type":"Point"},"properties":{"osm_id":"5991260715","tag":{"amenity":"recycling","recycling:glass_bottles":"yes"}},"type":"Feature"},
	{"geometry":{"coordinates":[-3.824426,42.311396],"type":"Point"},"properties":{"osm_id":"6407459045","tag":{"amenity":"recycling"}},"type":"Feature"}
]
}
