{
"type": "FeatureCollection",
"features": [
	{"geometry":{"coordinates":[139.944257,37.557083],"type":"Point"},"properties":{"osm_id":"3790472345","tag":{"amenity":"waste_basket","description":"\u8857\u533a\u516c\u5712 \u9ad8\u585a\u516c\u5712","operator":"\u4f1a\u6d25\u82e5\u677e\u5e02 \u82b1\u3068\u7dd1\u306e\u8ab2","phone":"+81-242-39-1262","website":"https://www.city.aizuwakamatsu.fukushima.jp/soshiki/hanatomidorinoka/"}},"type":"Feature"},
	{"geometry":{"coordinates":[139.938322,37.519861],"type":"Point"},"properties":{"osm_id":"3792623286","tag":{"amenity":"waste_basket","description":"\u8857\u533a\u516c\u5712 \u3064\u308b\u304b\u3081\u516c\u5712","operator":"\u4f1a\u6d25\u82e5\u677e\u5e02 \u82b1\u3068\u7dd1\u306e\u8ab2","phone":"+81-242-39-1262","website":"https://www.city.aizuwakamatsu.fukushima.jp/soshiki/hanatomidorinoka/"}},"type":"Feature"},
	{"geometry":{"coordinates":[139.938335,37.519865],"type":"Point"},"properties":{"osm_id":"3792623287","tag":{"amenity":"waste_basket","description":"\u8857\u533a\u516c\u5712 \u3064\u308b\u304b\u3081\u516c\u5712","operator":"\u4f1a\u6d25\u82e5\u677e\u5e02 \u82b1\u3068\u7dd1\u306e\u8ab2","phone":"+81-242-39-1262","website":"https://www.city.aizuwakamatsu.fukushima.jp/soshiki/hanatomidorinoka/"}},"type":"Feature"},
	{"geometry":{"coordinates":[139.9512,37.51891],"type":"Point"},"properties":{"osm_id":"3792665644","tag":{"amenity":"waste_basket"}},"type":"Feature"},
	{"geometry":{"coordinates":[139.926568,37.512237],"type":"Point"},"properties":{"osm_id":"3809938496","tag":{"amenity":"waste_basket","description":"\u8857\u533a\u516c\u5712 \u77f3\u5802\u753a\u516c\u5712","operator":"\u4f1a\u6d25\u82e5\u677e\u5e02 \u82b1\u3068\u7dd1\u306e\u8ab2","phone":"+81-242-39-1262","website":"https://www.city.aizuwakamatsu.fukushima.jp/soshiki/hanatomidorinoka/"}},"type":"Feature"},
	{"geometry":{"coordinates":[139.945935,37.519841],"type":"Point"},"properties":{"osm_id":"3829078024","tag":{"amenity":"waste_basket","description":"\u8857\u533a\u516c\u5712 \u5c45\u54081\u53f7\u516c\u5712","operator":"\u4f1a\u6d25\u82e5\u677e\u5e02 \u82b1\u3068\u7dd1\u306e\u8ab2","phone":"+81-242-39-1262","website":"https://www.city.aizuwakamatsu.fukushima.jp/soshiki/hanatomidorinoka/"}},"type":"Feature"}
]
}
