{
"type": "FeatureCollection",
"features": [
	{"geometry":{"coordinates":[139.929364,37.488316],"type":"Point"},"properties":{"osm_id":"2012050949","tag":{"amenity":"waste_basket"}},"type":"Feature"},
	{"geometry":{"coordinates":[139.944339,37.498955],"type":"Point"},"properties":{"osm_id":"3774895268","tag":{"amenity":"waste_disposal","description":"\u8857\u533a\u516c\u5712 \u5343\u77f3\u6771\u306e\u675c\u516c\u5712","operator":"\u4f1a\u6d25\u82e5\u677e\u5e02","phone":"+81-242-39-1262","website":"https://www.city.aizuwakamatsu.fukushima.jp/soshiki/hanatomidorinoka/"}},"type":"Feature"},
	{"geometry":{"coordinates":[139.946978,37.49534],"type":"Point"},"properties":{"osm_id":"3794289205","tag":{"amenity":"waste_basket"}},"type":"Feature"},
	{"geometry":{"coordinates":[139.947014,37.495517],"type":"Point"},"properties":{"osm_id":"3794289217","tag":{"amenity":"waste_disposal"}},"type":"Feature"},
	{"geometry":{"coordinates":[139.95161,37.493046],"type":"Point"},"properties":{"osm_id":"3794301588","tag":{"amenity":"waste_basket","description":"\u8857\u533a\u516c\u5712 \u611b\u5b95\u5c71\u516c\u5712","operator":"\u4f1a\u6d25\u82e5\u677e\u5e02 \u82b1\u3068\u7dd1\u306e\u8ab2","phone":"+81-242-39-1262","website":"https://www.city.aizuwakamatsu.fukushima.jp/soshiki/hanatomidorinoka/"}},"type":"Feature"},
	{"geometry":{"coordinates":[139.93702,37.489996],"type":"Point"},"properties":{"osm_id":"3798498413","tag":{"amenity":"waste_disposal","description":"\u8857\u533a\u516c\u5712 \u3064\u3070\u304f\u308d\u516c\u5712","operator":"\u4f1a\u6d25\u82e5\u677e\u5e02","phone":"+81-242-39-1262","website":"https://www.city.aizuwakamatsu.fukushima.jp/soshiki/hanatomidorinoka/"}},"type":"Feature"},
	{"geometry":{"coordinates":[139.937053,37.490286],"type":"Point"},"properties":{"osm_id":"3798498441","tag":{"amenity":"waste_basket","description":"\u8857\u533a\u516c\u5712 \u3064\u3070\u304f\u308d\u516c\u5712","operator":"\u4f1a\u6d25\u82e5\u677e\u5e02 \u82b1\u3068\u7dd1\u306e\u8ab2","phone":"+81-242-39-1262","website":"https://www.city.aizuwakamatsu.fukushima.jp/soshiki/hanatomidorinoka/"}},"type":"Feature"},
	{"geometry":{"coordinates":[139.936836,37.490718],"type":"Point"},"properties":{"osm_id":"3798510596","tag":{"amenity":"waste_disposal","description":"\u8857\u533a\u516c\u5712 \u3064\u3070\u304f\u308d\u516c\u5712","operator":"\u4f1a\u6d25\u82e5\u677e\u5e02","phone":"+81-242-39-1262","website":"https://www.city.aizuwakamatsu.fukushima.jp/soshiki/hanatomidorinoka/"}},"type":"Feature"},
	{"geometry":{"coordinates":[139.934339,37.481489],"type":"Point"},"properties":{"osm_id":"3800872126","tag":{"amenity":"waste_basket","description":"\u8857\u533a\u516c\u5712 \u9ed2\u5ca9\u516c\u5712","operator":"\u4f1a\u6d25\u82e5\u677e\u5e02 \u82b1\u3068\u7dd1\u306e\u8ab2","phone":"+81-242-39-1262","website":"https://www.city.aizuwakamatsu.fukushima.jp/soshiki/hanatomidorinoka/"}},"type":"Feature"},
	{"geometry":{"coordinates":[139.932227,37.472438],"type":"Point"},"properties":{"osm_id":"3801567788","tag":{"amenity":"waste_disposal","description":"\u8857\u533a\u516c\u5712 \u77f3\u9ad8\u516c\u5712","operator":"\u4f1a\u6d25\u82e5\u677e\u5e02","phone":"+81-242-39-1262","website":"https://www.city.aizuwakamatsu.fukushima.jp/soshiki/hanatomidorinoka/"}},"type":"Feature"},
	{"geometry":{"coordinates":[139.92848,37.502031],"type":"Point"},"properties":{"osm_id":"3802125924","tag":{"amenity":"waste_disposal","description":"\u8857\u533a\u516c\u5712 \u540d\u5b50\u5c4b\u753a\u5150\u7ae5\u516c\u5712","operator":"\u4f1a\u6d25\u82e5\u677e\u5e02","phone":"+81-242-39-1262","website":"https://www.city.aizuwakamatsu.fukushima.jp/soshiki/hanatomidorinoka/"}},"type":"Feature"},
	{"geometry":{"coordinates":[139.925602,37.461849],"type":"Point"},"properties":{"osm_id":"3815021288","tag":{"amenity":"waste_disposal"}},"type":"Feature"},
	{"geometry":{"coordinates":[139.93089,37.507163],"type":"Point"},"properties":{"osm_id":"3823854367","tag":{"amenity":"waste_basket","description":"\u8857\u533a\u516c\u5712 \u99c5\u524d\u516c\u5712","operator":"\u4f1a\u6d25\u82e5\u677e\u5e02 \u82b1\u3068\u7dd1\u306e\u8ab2","phone":"+81-242-39-1262","website":"https://www.city.aizuwakamatsu.fukushima.jp/soshiki/hanatomidorinoka/"}},"type":"Feature"}
]
}
