{
"type": "FeatureCollection",
"features": [
	{"geometry":{"coordinates":[17.633452,59.859441],"type":"Point"},"properties":{"osm_id":"425162907","tag":{"amenity":"recycling"}},"type":"Feature"},
	{"geometry":{"coordinates":[17.659216,59.849098],"type":"Point"},"properties":{"osm_id":"455006643","tag":{"amenity":"recycling","recycling_type":"container"}},"type":"Feature"},
	{"geometry":{"coordinates":[17.605097,59.851111],"type":"Point"},"properties":{"osm_id":"1432766359","tag":{"amenity":"recycling","recycling:glass_bottles":"yes","recycling:paper":"yes","recycling:scrap_metal":"yes","recycling_type":"container"}},"type":"Feature"},
	{"geometry":{"coordinates":[17.645105,59.852364],"type":"Point"},"properties":{"osm_id":"1990352050","tag":{"amenity":"waste_basket"}},"type":"Feature"},
	{"geometry":{"coordinates":[17.611778,59.854937],"type":"Point"},"properties":{"osm_id":"2004280724","tag":{"amenity":"waste_basket","hazard:bicycle":"object"}},"type":"Feature"},
	{"geometry":{"coordinates":[17.615559,59.855372],"type":"Point"},"properties":{"osm_id":"2004280730","tag":{"amenity":"waste_basket"}},"type":"Feature"},
	{"geometry":{"coordinates":[17.662278,59.865136],"type":"Point"},"properties":{"osm_id":"2102849202","tag":{"amenity":"recycling","recycling:glass":"no","recycling_type":"container"}},"type":"Feature"},
	{"geometry":{"coordinates":[17.64786,59.86679],"type":"Point"},"properties":{"osm_id":"2331101717","tag":{"amenity":"recycling","recycling:glass_bottles":"yes","recycling_type":"container"}},"type":"Feature"},
	{"geometry":{"coordinates":[17.623638,59.874663],"type":"Point"},"properties":{"osm_id":"2469336412","tag":{"amenity":"recycling","recycling_type":"container"}},"type":"Feature"},
	{"geometry":{"coordinates":[17.587177,59.851372],"type":"Point"},"properties":{"osm_id":"2686662616","tag":{"amenity":"recycling","recycling:cans":"yes","recycling:clothes":"yes","recycling:glass_bottles":"yes","recycling:paper":"yes","recycling_type":"container"}},"type":"Feature"},
	{"geometry":{"coordinates":[17.635858,59.851954],"type":"Point"},"properties":{"osm_id":"2756403583","tag":{"amenity":"waste_basket"}},"type":"Feature"},
	{"geometry":{"coordinates":[17.610714,59.853],"type":"Point"},"properties":{"osm_id":"3940792493","tag":{"amenity":"waste_basket"}},"type":"Feature"},
	{"geometry":{"coordinates":[17.610978,59.853467],"type":"Point"},"properties":{"osm_id":"3940792500","tag":{"amenity":"waste_basket"}},"type":"Feature"},
	{"geometry":{"coordinates":[17.584315,59.850681],"type":"Point"},"properties":{"osm_id":"4284980204","tag":{"amenity":"recycling","recycling:cans":"yes","recycling:glass_bottles":"yes","recycling:paper":"yes","recycling_type":"container"}},"type":"Feature"},
	{"geometry":{"coordinates":[17.585287,59.850939],"type":"Point"},"properties":{"osm_id":"4284980206","tag":{"amenity":"recycling","recycling_type":"container"}},"type":"Feature"},
	{"geometry":{"coordinates":[17.593183,59.88146],"type":"Point"},"properties":{"osm_id":"4339505779","tag":{"amenity":"waste_basket"}},"type":"Feature"},
	{"geometry":{"coordinates":[17.660681,59.880461],"type":"Point"},"properties":{"osm_id":"4340268152","tag":{"amenity":"waste_basket"}},"type":"Feature"},
	{"geometry":{"coordinates":[17.645083,59.874036],"type":"Point"},"properties":{"osm_id":"4340949597","tag":{"access":"private","amenity":"recycling","recycling:cardboard":"yes","recycling:glass_bottles":"yes","recycling:newspaper":"yes","recycling:organic":"yes","recycling:paper":"yes","recycling:plastic":"yes","recycling:plastic_bottles":"yes","recycling:scrap_metal":"yes","recycling:waste":"yes","recycling_type":"container"}},"type":"Feature"},
	{"geometry":{"coordinates":[17.631228,59.879031],"type":"Point"},"properties":{"osm_id":"4345053800","tag":{"amenity":"waste_basket"}},"type":"Feature"},
	{"geometry":{"coordinates":[17.642385,59.869735],"type":"Point"},"properties":{"osm_id":"4345054133","tag":{"amenity":"waste_basket"}},"type":"Feature"},
	{"geometry":{"coordinates":[17.643189,59.871427],"type":"Point"},"properties":{"osm_id":"4345063369","tag":{"amenity":"waste_basket"}},"type":"Feature"},
	{"geometry":{"coordinates":[17.642854,59.87124],"type":"Point"},"properties":{"osm_id":"4345063627","tag":{"amenity":"waste_basket"}},"type":"Feature"},
	{"geometry":{"coordinates":[17.642093,59.871241],"type":"Point"},"properties":{"osm_id":"4345063708","tag":{"amenity":"waste_basket"}},"type":"Feature"},
	{"geometry":{"coordinates":[17.661703,59.872827],"type":"Point"},"properties":{"osm_id":"4345078560","tag":{"amenity":"waste_basket"}},"type":"Feature"},
	{"geometry":{"coordinates":[17.591895,59.845632],"type":"Point"},"properties":{"osm_id":"4362445019","tag":{"amenity":"waste_basket"}},"type":"Feature"},
	{"geometry":{"coordinates":[17.665759,59.876632],"type":"Point"},"properties":{"osm_id":"4362519786","tag":{"amenity":"waste_basket"}},"type":"Feature"},
	{"geometry":{"coordinates":[17.664938,59.862271],"type":"Point"},"properties":{"osm_id":"4485167139","tag":{"amenity":"waste_basket"}},"type":"Feature"},
	{"geometry":{"coordinates":[17.649527,59.84689],"type":"Point"},"properties":{"osm_id":"4900226651","tag":{"amenity":"waste_basket"}},"type":"Feature"},
	{"geometry":{"coordinates":[17.631505,59.849496],"type":"Point"},"properties":{"osm_id":"7588608990","tag":{"amenity":"waste_basket","waste":"trash"}},"type":"Feature"},
	{"geometry":{"coordinates":[17.632523,59.848754],"type":"Point"},"properties":{"osm_id":"7588608991","tag":{"amenity":"waste_basket","waste":"trash"}},"type":"Feature"}
]
}
