{
"type": "FeatureCollection",
"features": [
	{"geometry":{"coordinates":[17.607752,59.188186],"type":"Point"},"properties":{"osm_id":"1260660955","tag":{"amenity":"recycling"}},"type":"Feature"},
	{"geometry":{"coordinates":[17.621995,59.187201],"type":"Point"},"properties":{"osm_id":"2263121684","tag":{"amenity":"recycling"}},"type":"Feature"},
	{"geometry":{"coordinates":[17.645544,59.18755],"type":"Point"},"properties":{"osm_id":"5694399821","tag":{"amenity":"waste_disposal","operator":"Telge \u00c3\u0085tervinning"}},"type":"Feature"},
	{"geometry":{"coordinates":[17.661662,59.194732],"type":"Point"},"properties":{"osm_id":"5694524621","tag":{"amenity":"waste_disposal"}},"type":"Feature"},
	{"geometry":{"coordinates":[17.617978,59.175929],"type":"Point"},"properties":{"osm_id":"6444767313","tag":{"amenity":"waste_basket"}},"type":"Feature"},
	{"geometry":{"coordinates":[17.66081,59.18433],"type":"Point"},"properties":{"osm_id":"6493211642","tag":{"amenity":"waste_basket","waste":"trash"}},"type":"Feature"},
	{"geometry":{"coordinates":[17.660779,59.184855],"type":"Point"},"properties":{"osm_id":"6493211643","tag":{"amenity":"waste_basket","waste":"trash"}},"type":"Feature"},
	{"geometry":{"coordinates":[17.660965,59.184734],"type":"Point"},"properties":{"osm_id":"6493212444","tag":{"amenity":"waste_basket","waste":"trash"}},"type":"Feature"}
]
}
