{
"type": "FeatureCollection",
"features": [
	{"geometry":{"coordinates":[17.613655,50.537316],"type":"Point"},"properties":{"osm_id":"8918616407","tag":{"amenity":"waste_basket","colour":"brown","material":"wood","operator":"Nale\u00c5\u009bnictwo Tu\u00c5\u0082owice","waste":"trash"}},"type":"Feature"},
	{"geometry":{"coordinates":[17.613333,50.537427],"type":"Point"},"properties":{"osm_id":"8918633717","tag":{"amenity":"waste_basket","colour":"brown","material":"wood","operator":"Nale\u00c5\u009bnictwo Tu\u00c5\u0082owice","waste":"trash"}},"type":"Feature"},
	{"geometry":{"coordinates":[17.645696,50.559939],"type":"Point"},"properties":{"osm_id":"9021101920","tag":{"amenity":"waste_basket","colour":"brown","material":"wood","operator":"Nadle\u00c5\u009bnictwo Tu\u00c5\u0082owice","waste":"mixed"}},"type":"Feature"},
	{"geometry":{"coordinates":[17.646017,50.559988],"type":"Point"},"properties":{"osm_id":"9021101921","tag":{"amenity":"waste_basket","colour":"brown","material":"wood","operator":"Nadle\u00c5\u009bnictwo Tu\u00c5\u0082owice","waste":"mixed"}},"type":"Feature"},
	{"geometry":{"coordinates":[17.646326,50.560034],"type":"Point"},"properties":{"osm_id":"9021101922","tag":{"amenity":"waste_basket","colour":"brown","material":"wood","operator":"Nadle\u00c5\u009bnictwo Tu\u00c5\u0082owice","waste":"mixed"}},"type":"Feature"}
]
}
