{
"type": "FeatureCollection",
"features": [
	{"geometry":{"coordinates":[125.61085,7.067621],"type":"Point"},"properties":{"highway":"traffic_signals","osm_id":"259608532"},"type":"Feature"},
	{"geometry":{"coordinates":[125.600456,7.06944],"type":"Point"},"properties":{"osm_id":"441029690","tag":{"amenity":"recycling","recycling:cans":"yes","recycling:glass":"no","recycling:paper":"yes"}},"type":"Feature"},
	{"geometry":{"coordinates":[125.618454,7.099061],"type":"Point"},"properties":{"osm_id":"1303363954","tag":{"amenity":"waste_basket"}},"type":"Feature"},
	{"geometry":{"coordinates":[125.622036,7.097978],"type":"Point"},"properties":{"osm_id":"1304789045","tag":{"amenity":"waste_basket"}},"type":"Feature"},
	{"geometry":{"coordinates":[125.621721,7.071446],"type":"Point"},"properties":{"osm_id":"5631865303","tag":{"amenity":"waste_disposal","waste":"trash"}},"type":"Feature"},
	{"geometry":{"coordinates":[125.623945,7.070735],"type":"Point"},"properties":{"osm_id":"6011676469","tag":{"amenity":"waste_disposal"}},"type":"Feature"},
	{"geometry":{"coordinates":[125.617657,7.065356],"type":"Point"},"properties":{"name":"Material recovery facility","osm_id":"6255818027","tag":{"amenity":"recycling","recycling_type":"centre"}},"type":"Feature"},
	{"geometry":{"coordinates":[125.614207,7.071627],"type":"Point"},"properties":{"osm_id":"6734442485","ref":"MRF","tag":{"amenity":"recycling"}},"type":"Feature"},
	{"geometry":{"coordinates":[125.597945,7.04716],"type":"Point"},"properties":{"name":"Willy Junk shop","osm_id":"6935199088","tag":{"amenity":"recycling"}},"type":"Feature"},
	{"geometry":{"coordinates":[125.619524,7.068148],"type":"Point"},"properties":{"name":"TaTa May Cups Hide Out","osm_id":"7635139908","tag":{"amenity":"recycling"}},"type":"Feature"}
]
}
