{
"type": "FeatureCollection",
"features": [
	{"geometry":{"coordinates":[7.893303,54.177419],"type":"Point"},"properties":{"osm_id":"1884082740","tag":{"amenity":"waste_disposal"}},"type":"Feature"},
	{"geometry":{"coordinates":[7.888844,54.181898],"type":"Point"},"properties":{"osm_id":"2589443509","tag":{"amenity":"waste_basket"}},"type":"Feature"},
	{"geometry":{"coordinates":[7.888032,54.182358],"type":"Point"},"properties":{"osm_id":"2589443512","tag":{"amenity":"waste_basket"}},"type":"Feature"},
	{"geometry":{"coordinates":[7.884675,54.182385],"type":"Point"},"properties":{"osm_id":"2589443513","tag":{"amenity":"waste_basket"}},"type":"Feature"},
	{"geometry":{"coordinates":[7.88758,54.182505],"type":"Point"},"properties":{"osm_id":"2589443516","tag":{"amenity":"waste_basket"}},"type":"Feature"},
	{"geometry":{"coordinates":[7.886048,54.182633],"type":"Point"},"properties":{"osm_id":"2589443520","tag":{"amenity":"waste_basket"}},"type":"Feature"},
	{"geometry":{"coordinates":[7.887506,54.182661],"type":"Point"},"properties":{"osm_id":"2589443524","tag":{"amenity":"waste_basket"}},"type":"Feature"},
	{"geometry":{"coordinates":[7.886053,54.182729],"type":"Point"},"properties":{"osm_id":"2589443535","tag":{"amenity":"waste_basket"}},"type":"Feature"},
	{"geometry":{"coordinates":[7.888219,54.182751],"type":"Point"},"properties":{"osm_id":"2589443542","tag":{"amenity":"waste_basket"}},"type":"Feature"},
	{"geometry":{"coordinates":[7.887487,54.182808],"type":"Point"},"properties":{"osm_id":"2589443564","tag":{"amenity":"waste_basket"}},"type":"Feature"},
	{"geometry":{"coordinates":[7.887468,54.182887],"type":"Point"},"properties":{"osm_id":"2589443570","tag":{"amenity":"waste_basket"}},"type":"Feature"},
	{"geometry":{"coordinates":[7.88759,54.183195],"type":"Point"},"properties":{"osm_id":"2589443580","tag":{"amenity":"waste_basket"}},"type":"Feature"},
	{"geometry":{"coordinates":[7.887152,54.183517],"type":"Point"},"properties":{"osm_id":"2589443585","tag":{"amenity":"waste_basket"}},"type":"Feature"},
	{"geometry":{"coordinates":[7.885737,54.183988],"type":"Point"},"properties":{"osm_id":"2589443594","tag":{"amenity":"waste_basket"}},"type":"Feature"},
	{"geometry":{"coordinates":[7.884881,54.184209],"type":"Point"},"properties":{"osm_id":"2589443598","tag":{"amenity":"waste_basket"}},"type":"Feature"},
	{"geometry":{"coordinates":[7.883986,54.184602],"type":"Point"},"properties":{"osm_id":"2589443604","tag":{"amenity":"waste_basket"}},"type":"Feature"},
	{"geometry":{"coordinates":[7.886486,54.184752],"type":"Point"},"properties":{"osm_id":"2589443605","tag":{"amenity":"waste_basket"}},"type":"Feature"},
	{"geometry":{"coordinates":[7.882421,54.185193],"type":"Point"},"properties":{"osm_id":"2589443612","tag":{"amenity":"waste_basket"}},"type":"Feature"},
	{"geometry":{"coordinates":[7.880977,54.185213],"type":"Point"},"properties":{"osm_id":"2589443614","tag":{"amenity":"waste_basket"}},"type":"Feature"},
	{"geometry":{"coordinates":[7.882048,54.185379],"type":"Point"},"properties":{"osm_id":"2589443617","tag":{"amenity":"waste_basket"}},"type":"Feature"},
	{"geometry":{"coordinates":[7.885118,54.185683],"type":"Point"},"properties":{"osm_id":"2589443620","tag":{"amenity":"waste_basket"}},"type":"Feature"},
	{"geometry":{"coordinates":[7.87912,54.186126],"type":"Point"},"properties":{"osm_id":"2589443634","tag":{"amenity":"waste_basket"}},"type":"Feature"},
	{"geometry":{"coordinates":[7.878453,54.186401],"type":"Point"},"properties":{"osm_id":"2589443638","tag":{"amenity":"waste_basket"}},"type":"Feature"},
	{"geometry":{"coordinates":[7.881408,54.187191],"type":"Point"},"properties":{"osm_id":"2589443646","tag":{"amenity":"waste_basket"}},"type":"Feature"},
	{"geometry":{"coordinates":[7.879768,54.187401],"type":"Point"},"properties":{"osm_id":"2589443648","tag":{"amenity":"waste_basket"}},"type":"Feature"},
	{"geometry":{"coordinates":[7.890309,54.182282],"type":"Point"},"properties":{"osm_id":"2592145418","tag":{"amenity":"waste_basket"}},"type":"Feature"},
	{"geometry":{"coordinates":[7.905421,54.18417],"type":"Point"},"properties":{"osm_id":"2592145448","tag":{"amenity":"waste_basket"}},"type":"Feature"},
	{"geometry":{"coordinates":[7.886595,54.184929],"type":"Point"},"properties":{"osm_id":"2592145457","tag":{"amenity":"waste_basket"}},"type":"Feature"},
	{"geometry":{"coordinates":[7.886763,54.185017],"type":"Point"},"properties":{"osm_id":"2592145462","tag":{"amenity":"waste_basket"}},"type":"Feature"},
	{"geometry":{"coordinates":[7.886185,54.185057],"type":"Point"},"properties":{"osm_id":"2592145477","tag":{"amenity":"waste_basket"}},"type":"Feature"},
	{"geometry":{"coordinates":[7.886655,54.185084],"type":"Point"},"properties":{"osm_id":"2592145481","tag":{"amenity":"waste_basket"}},"type":"Feature"},
	{"geometry":{"coordinates":[7.886172,54.185528],"type":"Point"},"properties":{"osm_id":"2592145505","tag":{"amenity":"waste_basket"}},"type":"Feature"},
	{"geometry":{"coordinates":[7.886591,54.185924],"type":"Point"},"properties":{"osm_id":"2592145511","tag":{"amenity":"waste_basket"}},"type":"Feature"},
	{"geometry":{"coordinates":[7.887367,54.185971],"type":"Point"},"properties":{"osm_id":"2592145514","tag":{"amenity":"waste_basket"}},"type":"Feature"},
	{"geometry":{"coordinates":[7.90841,54.183302],"type":"Point"},"properties":{"osm_id":"2674960180","tag":{"amenity":"waste_basket"}},"type":"Feature"},
	{"geometry":{"coordinates":[7.909082,54.185978],"type":"Point"},"properties":{"osm_id":"2674960197","tag":{"amenity":"waste_basket"}},"type":"Feature"},
	{"geometry":{"coordinates":[7.905656,54.185608],"type":"Point"},"properties":{"osm_id":"2674960207","tag":{"amenity":"waste_basket"}},"type":"Feature"},
	{"geometry":{"coordinates":[7.90419,54.184789],"type":"Point"},"properties":{"osm_id":"2675043064","tag":{"amenity":"waste_basket"}},"type":"Feature"},
	{"geometry":{"coordinates":[7.909743,54.186418],"type":"Point"},"properties":{"osm_id":"2675043099","tag":{"amenity":"waste_basket"}},"type":"Feature"},
	{"geometry":{"coordinates":[7.909801,54.18422],"type":"Point"},"properties":{"osm_id":"2675043151","tag":{"amenity":"waste_basket"}},"type":"Feature"},
	{"geometry":{"coordinates":[7.904867,54.184891],"type":"Point"},"properties":{"osm_id":"2775737415","tag":{"amenity":"waste_basket"}},"type":"Feature"},
	{"geometry":{"coordinates":[7.886434,54.179972],"type":"Point"},"properties":{"osm_id":"2775737509","tag":{"amenity":"waste_basket"}},"type":"Feature"},
	{"geometry":{"coordinates":[7.8863,54.179495],"type":"Point"},"properties":{"osm_id":"2775737512","tag":{"amenity":"waste_basket"}},"type":"Feature"},
	{"geometry":{"coordinates":[7.889388,54.182651],"type":"Point"},"properties":{"osm_id":"2794697256","tag":{"amenity":"waste_basket"}},"type":"Feature"},
	{"geometry":{"coordinates":[7.88783,54.178768],"type":"Point"},"properties":{"osm_id":"2802119278","tag":{"amenity":"waste_basket"}},"type":"Feature"},
	{"geometry":{"coordinates":[7.89384,54.174757],"type":"Point"},"properties":{"osm_id":"2824724501","tag":{"amenity":"waste_basket"}},"type":"Feature"},
	{"geometry":{"coordinates":[7.893194,54.175518],"type":"Point"},"properties":{"osm_id":"2824724503","tag":{"amenity":"waste_basket"}},"type":"Feature"},
	{"geometry":{"coordinates":[7.89364,54.174648],"type":"Point"},"properties":{"osm_id":"2824724522","tag":{"amenity":"waste_basket"}},"type":"Feature"},
	{"geometry":{"coordinates":[7.890377,54.183232],"type":"Point"},"properties":{"osm_id":"2824724541","tag":{"amenity":"waste_basket"}},"type":"Feature"},
	{"geometry":{"coordinates":[7.876504,54.185752],"type":"Point"},"properties":{"osm_id":"2831993913","tag":{"amenity":"waste_basket"}},"type":"Feature"},
	{"geometry":{"coordinates":[7.885049,54.17968],"type":"Point"},"properties":{"osm_id":"2877859960","tag":{"amenity":"waste_basket"}},"type":"Feature"},
	{"geometry":{"coordinates":[7.880666,54.182579],"type":"Point"},"properties":{"osm_id":"2878056749","tag":{"amenity":"waste_basket"}},"type":"Feature"},
	{"geometry":{"coordinates":[7.879951,54.182733],"type":"Point"},"properties":{"osm_id":"2878056758","tag":{"amenity":"waste_basket"}},"type":"Feature"},
	{"geometry":{"coordinates":[7.878816,54.183703],"type":"Point"},"properties":{"osm_id":"2878056760","tag":{"amenity":"waste_basket"}},"type":"Feature"},
	{"geometry":{"coordinates":[7.878204,54.184213],"type":"Point"},"properties":{"osm_id":"2878056761","tag":{"amenity":"waste_basket"}},"type":"Feature"},
	{"geometry":{"coordinates":[7.877214,54.185364],"type":"Point"},"properties":{"osm_id":"2878056765","tag":{"amenity":"waste_basket"}},"type":"Feature"},
	{"geometry":{"coordinates":[7.877959,54.184893],"type":"Point"},"properties":{"osm_id":"2878056766","tag":{"amenity":"waste_basket"}},"type":"Feature"},
	{"geometry":{"coordinates":[7.875132,54.185935],"type":"Point"},"properties":{"osm_id":"2878056780","tag":{"amenity":"waste_basket"}},"type":"Feature"},
	{"geometry":{"coordinates":[7.874513,54.186158],"type":"Point"},"properties":{"osm_id":"2878056782","tag":{"amenity":"waste_basket"}},"type":"Feature"},
	{"geometry":{"coordinates":[7.873902,54.186259],"type":"Point"},"properties":{"osm_id":"2878056789","tag":{"amenity":"waste_basket"}},"type":"Feature"},
	{"geometry":{"coordinates":[7.87272,54.18673],"type":"Point"},"properties":{"osm_id":"2878056795","tag":{"amenity":"waste_basket"}},"type":"Feature"},
	{"geometry":{"coordinates":[7.872933,54.18709],"type":"Point"},"properties":{"osm_id":"2878056798","tag":{"amenity":"waste_basket"}},"type":"Feature"},
	{"geometry":{"coordinates":[7.872508,54.187383],"type":"Point"},"properties":{"osm_id":"2878056800","tag":{"amenity":"waste_basket"}},"type":"Feature"},
	{"geometry":{"coordinates":[7.87214,54.187816],"type":"Point"},"properties":{"osm_id":"2878056904","tag":{"amenity":"waste_basket"}},"type":"Feature"},
	{"geometry":{"coordinates":[7.872125,54.187957],"type":"Point"},"properties":{"osm_id":"2878056906","tag":{"amenity":"waste_basket"}},"type":"Feature"},
	{"geometry":{"coordinates":[7.877158,54.186794],"type":"Point"},"properties":{"osm_id":"2878056912","tag":{"amenity":"waste_basket"}},"type":"Feature"},
	{"geometry":{"coordinates":[7.888201,54.178462],"type":"Point"},"properties":{"osm_id":"2881594459","tag":{"amenity":"waste_basket"}},"type":"Feature"},
	{"geometry":{"coordinates":[7.888289,54.178299],"type":"Point"},"properties":{"osm_id":"2881594460","tag":{"amenity":"waste_basket","layer":"1"}},"type":"Feature"},
	{"geometry":{"coordinates":[7.891216,54.180876],"type":"Point"},"properties":{"osm_id":"2881666169","tag":{"amenity":"waste_basket"}},"type":"Feature"},
	{"geometry":{"coordinates":[7.891067,54.180401],"type":"Point"},"properties":{"osm_id":"2881666171","tag":{"amenity":"waste_basket"}},"type":"Feature"},
	{"geometry":{"coordinates":[7.888218,54.183692],"type":"Point"},"properties":{"osm_id":"2881666173","tag":{"amenity":"waste_basket"}},"type":"Feature"},
	{"geometry":{"coordinates":[7.886315,54.180388],"type":"Point"},"properties":{"osm_id":"2882642357","tag":{"amenity":"waste_basket"}},"type":"Feature"},
	{"geometry":{"coordinates":[7.883266,54.179911],"type":"Point"},"properties":{"osm_id":"2882642399","tag":{"amenity":"waste_basket"}},"type":"Feature"},
	{"geometry":{"coordinates":[7.877929,54.186703],"type":"Point"},"properties":{"osm_id":"2882644415","tag":{"amenity":"waste_basket"}},"type":"Feature"},
	{"geometry":{"coordinates":[7.886111,54.186227],"type":"Point"},"properties":{"osm_id":"2882703473","tag":{"amenity":"waste_basket"}},"type":"Feature"},
	{"geometry":{"coordinates":[7.888114,54.185343],"type":"Point"},"properties":{"osm_id":"2882704126","tag":{"amenity":"waste_basket"}},"type":"Feature"},
	{"geometry":{"coordinates":[7.888422,54.184983],"type":"Point"},"properties":{"osm_id":"2882704129","tag":{"amenity":"waste_basket"}},"type":"Feature"},
	{"geometry":{"coordinates":[7.88717,54.185044],"type":"Point"},"properties":{"osm_id":"2882704139","tag":{"amenity":"waste_basket"}},"type":"Feature"},
	{"geometry":{"coordinates":[7.888399,54.181461],"type":"Point"},"properties":{"osm_id":"2882761427","tag":{"amenity":"waste_basket"}},"type":"Feature"},
	{"geometry":{"coordinates":[7.882705,54.185145],"type":"Point"},"properties":{"osm_id":"2882761495","tag":{"amenity":"waste_basket"}},"type":"Feature"},
	{"geometry":{"coordinates":[7.889177,54.18037],"type":"Point"},"properties":{"osm_id":"2919890501","tag":{"amenity":"waste_basket"}},"type":"Feature"},
	{"geometry":{"coordinates":[7.882442,54.180096],"type":"Point"},"properties":{"osm_id":"2920345570","tag":{"amenity":"waste_basket"}},"type":"Feature"},
	{"geometry":{"coordinates":[7.883939,54.180231],"type":"Point"},"properties":{"osm_id":"2920345575","tag":{"amenity":"waste_basket"}},"type":"Feature"},
	{"geometry":{"coordinates":[7.882301,54.180446],"type":"Point"},"properties":{"osm_id":"2920345577","tag":{"amenity":"waste_basket"}},"type":"Feature"},
	{"geometry":{"coordinates":[7.884326,54.180481],"type":"Point"},"properties":{"osm_id":"2920345578","tag":{"amenity":"waste_basket"}},"type":"Feature"},
	{"geometry":{"coordinates":[7.885239,54.180584],"type":"Point"},"properties":{"osm_id":"2920345579","tag":{"amenity":"waste_basket"}},"type":"Feature"},
	{"geometry":{"coordinates":[7.881785,54.180702],"type":"Point"},"properties":{"osm_id":"2920345583","tag":{"amenity":"waste_basket"}},"type":"Feature"},
	{"geometry":{"coordinates":[7.88166,54.18114],"type":"Point"},"properties":{"osm_id":"2920345585","tag":{"amenity":"waste_basket"}},"type":"Feature"},
	{"geometry":{"coordinates":[7.880698,54.182099],"type":"Point"},"properties":{"osm_id":"2920345586","tag":{"amenity":"waste_basket"}},"type":"Feature"},
	{"geometry":{"coordinates":[7.888589,54.181768],"type":"Point"},"properties":{"osm_id":"2920618901","tag":{"amenity":"waste_basket"}},"type":"Feature"},
	{"geometry":{"coordinates":[7.891868,54.1763],"type":"Point"},"properties":{"osm_id":"2921603822","tag":{"amenity":"waste_basket"}},"type":"Feature"},
	{"geometry":{"coordinates":[7.891097,54.176664],"type":"Point"},"properties":{"osm_id":"2921603824","tag":{"amenity":"waste_basket"}},"type":"Feature"},
	{"geometry":{"coordinates":[7.887315,54.177416],"type":"Point"},"properties":{"osm_id":"2924803957","tag":{"amenity":"waste_basket"}},"type":"Feature"},
	{"geometry":{"coordinates":[7.889864,54.181729],"type":"Point"},"properties":{"osm_id":"2924803958","tag":{"amenity":"waste_basket"}},"type":"Feature"},
	{"geometry":{"coordinates":[7.887654,54.180645],"type":"Point"},"properties":{"osm_id":"2925200357","tag":{"amenity":"waste_basket"}},"type":"Feature"},
	{"geometry":{"coordinates":[7.890107,54.181606],"type":"Point"},"properties":{"osm_id":"2925200362","tag":{"amenity":"waste_basket"}},"type":"Feature"},
	{"geometry":{"coordinates":[7.885296,54.18114],"type":"Point"},"properties":{"osm_id":"2930091911","tag":{"amenity":"waste_basket"}},"type":"Feature"},
	{"geometry":{"coordinates":[7.886786,54.18201],"type":"Point"},"properties":{"osm_id":"3211159398","tag":{"amenity":"waste_basket"}},"type":"Feature"},
	{"geometry":{"coordinates":[7.887109,54.179921],"type":"Point"},"properties":{"osm_id":"3561078589","tag":{"amenity":"waste_basket"}},"type":"Feature"},
	{"geometry":{"coordinates":[7.884386,54.182975],"type":"Point"},"properties":{"osm_id":"3561186033","tag":{"amenity":"waste_basket"}},"type":"Feature"},
	{"geometry":{"coordinates":[7.888727,54.179486],"type":"Point"},"properties":{"osm_id":"3563782940","tag":{"amenity":"waste_basket"}},"type":"Feature"},
	{"geometry":{"coordinates":[7.888947,54.179805],"type":"Point"},"properties":{"osm_id":"3563782941","tag":{"amenity":"waste_basket"}},"type":"Feature"},
	{"geometry":{"coordinates":[7.889296,54.180214],"type":"Point"},"properties":{"osm_id":"3563782942","tag":{"amenity":"waste_basket"}},"type":"Feature"},
	{"geometry":{"coordinates":[7.889642,54.180506],"type":"Point"},"properties":{"osm_id":"3563782943","tag":{"amenity":"waste_basket"}},"type":"Feature"},
	{"geometry":{"coordinates":[7.909659,54.187276],"type":"Point"},"properties":{"osm_id":"3569819195","tag":{"amenity":"waste_basket"}},"type":"Feature"},
	{"geometry":{"coordinates":[7.907809,54.186827],"type":"Point"},"properties":{"osm_id":"3569819196","tag":{"amenity":"waste_basket"}},"type":"Feature"},
	{"geometry":{"coordinates":[7.885872,54.186532],"type":"Point"},"properties":{"osm_id":"3569914100","tag":{"amenity":"waste_basket"}},"type":"Feature"},
	{"geometry":{"coordinates":[7.884564,54.186695],"type":"Point"},"properties":{"osm_id":"3569914101","tag":{"amenity":"waste_basket"}},"type":"Feature"},
	{"geometry":{"coordinates":[7.890122,54.180931],"type":"Point"},"properties":{"osm_id":"3569914153","tag":{"amenity":"waste_basket"}},"type":"Feature"},
	{"geometry":{"coordinates":[7.890522,54.180882],"type":"Point"},"properties":{"osm_id":"4383816680","tag":{"amenity":"waste_basket"}},"type":"Feature"},
	{"geometry":{"coordinates":[7.889872,54.182655],"type":"Point"},"properties":{"osm_id":"4383989484","tag":{"amenity":"waste_basket"}},"type":"Feature"},
	{"geometry":{"coordinates":[7.890103,54.182973],"type":"Point"},"properties":{"osm_id":"4383995789","tag":{"amenity":"waste_basket"}},"type":"Feature"},
	{"geometry":{"coordinates":[7.890577,54.182749],"type":"Point"},"properties":{"osm_id":"5111494160","tag":{"amenity":"waste_basket"}},"type":"Feature"},
	{"geometry":{"coordinates":[7.891391,54.174629],"type":"Point"},"properties":{"osm_id":"5111638089","tag":{"amenity":"waste_basket"}},"type":"Feature"},
	{"geometry":{"coordinates":[7.889838,54.176119],"type":"Point"},"properties":{"osm_id":"5111685841","tag":{"amenity":"waste_basket"}},"type":"Feature"},
	{"geometry":{"coordinates":[7.876318,54.187236],"type":"Point"},"properties":{"osm_id":"5111759765","tag":{"amenity":"waste_basket"}},"type":"Feature"},
	{"geometry":{"coordinates":[7.908121,54.186424],"type":"Point"},"properties":{"osm_id":"5111856165","tag":{"amenity":"waste_basket"}},"type":"Feature"},
	{"geometry":{"coordinates":[7.893808,54.175143],"type":"Point"},"properties":{"osm_id":"5419369237","tag":{"amenity":"waste_basket"}},"type":"Feature"},
	{"geometry":{"coordinates":[7.88722,54.185095],"type":"Point"},"properties":{"osm_id":"5420727909","tag":{"amenity":"waste_basket"}},"type":"Feature"},
	{"geometry":{"coordinates":[7.908866,54.187064],"type":"Point"},"properties":{"osm_id":"5664344004","tag":{"amenity":"waste_basket"}},"type":"Feature"},
	{"geometry":{"coordinates":[7.904219,54.186316],"type":"Point"},"properties":{"osm_id":"5670544234","tag":{"amenity":"waste_basket"}},"type":"Feature"},
	{"geometry":{"coordinates":[7.904783,54.185113],"type":"Point"},"properties":{"osm_id":"5670544245","tag":{"amenity":"waste_basket"}},"type":"Feature"},
	{"geometry":{"coordinates":[7.909741,54.184134],"type":"Point"},"properties":{"osm_id":"5696608506","tag":{"amenity":"waste_basket"}},"type":"Feature"},
	{"geometry":{"coordinates":[7.905213,54.186459],"type":"Point"},"properties":{"osm_id":"5697391076","tag":{"amenity":"waste_basket"}},"type":"Feature"},
	{"geometry":{"coordinates":[7.906194,54.186594],"type":"Point"},"properties":{"osm_id":"5697391077","tag":{"amenity":"waste_basket"}},"type":"Feature"},
	{"geometry":{"coordinates":[7.907428,54.185906],"type":"Point"},"properties":{"osm_id":"5697391094","tag":{"amenity":"waste_basket"}},"type":"Feature"},
	{"geometry":{"coordinates":[7.888928,54.181984],"type":"Point"},"properties":{"osm_id":"5699052419","tag":{"amenity":"waste_basket"}},"type":"Feature"},
	{"geometry":{"coordinates":[7.885779,54.182968],"type":"Point"},"properties":{"osm_id":"5702861609","tag":{"amenity":"waste_basket"}},"type":"Feature"},
	{"geometry":{"coordinates":[7.889485,54.182829],"type":"Point"},"properties":{"osm_id":"5705558908","tag":{"amenity":"waste_basket","waste":"trash"}},"type":"Feature"},
	{"geometry":{"coordinates":[7.890061,54.183043],"type":"Point"},"properties":{"osm_id":"5705558911","tag":{"amenity":"waste_basket","waste":"trash"}},"type":"Feature"},
	{"geometry":{"coordinates":[7.889121,54.181972],"type":"Point"},"properties":{"osm_id":"5705558913","tag":{"amenity":"waste_basket"}},"type":"Feature"},
	{"geometry":{"coordinates":[7.888997,54.182016],"type":"Point"},"properties":{"osm_id":"5705558917","tag":{"amenity":"waste_basket"}},"type":"Feature"},
	{"geometry":{"coordinates":[7.889216,54.181941],"type":"Point"},"properties":{"osm_id":"5705558919","tag":{"amenity":"waste_basket"}},"type":"Feature"},
	{"geometry":{"coordinates":[7.886048,54.182873],"type":"Point"},"properties":{"osm_id":"5706497730","tag":{"amenity":"waste_basket","waste":"trash"}},"type":"Feature"},
	{"geometry":{"coordinates":[7.888668,54.179644],"type":"Point"},"properties":{"osm_id":"5718550478","tag":{"amenity":"waste_basket"}},"type":"Feature"},
	{"geometry":{"coordinates":[7.887303,54.184272],"type":"Point"},"properties":{"osm_id":"5718550480","tag":{"amenity":"waste_basket"}},"type":"Feature"},
	{"geometry":{"coordinates":[7.887662,54.185221],"type":"Point"},"properties":{"osm_id":"5718550488","tag":{"amenity":"waste_basket"}},"type":"Feature"},
	{"geometry":{"coordinates":[7.888319,54.185179],"type":"Point"},"properties":{"osm_id":"5718550491","tag":{"amenity":"waste_basket"}},"type":"Feature"},
	{"geometry":{"coordinates":[7.887059,54.181112],"type":"Point"},"properties":{"osm_id":"5810539615","tag":{"amenity":"waste_basket","waste":"trash"}},"type":"Feature"},
	{"geometry":{"coordinates":[7.887199,54.181318],"type":"Point"},"properties":{"osm_id":"5810539616","tag":{"amenity":"waste_basket","waste":"trash"}},"type":"Feature"},
	{"geometry":{"coordinates":[7.887279,54.181661],"type":"Point"},"properties":{"osm_id":"5810539617","tag":{"amenity":"waste_basket","waste":"trash"}},"type":"Feature"},
	{"geometry":{"coordinates":[7.887327,54.181877],"type":"Point"},"properties":{"osm_id":"5810539618","tag":{"amenity":"waste_basket","waste":"trash"}},"type":"Feature"},
	{"geometry":{"coordinates":[7.887417,54.182048],"type":"Point"},"properties":{"osm_id":"5810539619","tag":{"amenity":"waste_basket","waste":"trash"}},"type":"Feature"},
	{"geometry":{"coordinates":[7.887552,54.182272],"type":"Point"},"properties":{"osm_id":"5810539620","tag":{"amenity":"waste_basket","waste":"trash"}},"type":"Feature"},
	{"geometry":{"coordinates":[7.887326,54.183129],"type":"Point"},"properties":{"osm_id":"5810539621","tag":{"amenity":"waste_basket","waste":"trash"}},"type":"Feature"},
	{"geometry":{"coordinates":[7.886459,54.183751],"type":"Point"},"properties":{"osm_id":"5810539623","tag":{"amenity":"waste_basket"}},"type":"Feature"},
	{"geometry":{"coordinates":[7.885266,54.184106],"type":"Point"},"properties":{"osm_id":"5810539625","tag":{"amenity":"waste_basket"}},"type":"Feature"},
	{"geometry":{"coordinates":[7.882762,54.184117],"type":"Point"},"properties":{"osm_id":"6240698553","tag":{"amenity":"waste_basket"}},"type":"Feature"},
	{"geometry":{"coordinates":[7.889868,54.182871],"type":"Point"},"properties":{"osm_id":"6240782028","tag":{"amenity":"waste_basket"}},"type":"Feature"},
	{"geometry":{"coordinates":[7.88329,54.187739],"type":"Point"},"properties":{"osm_id":"6240821779","tag":{"amenity":"waste_basket"}},"type":"Feature"},
	{"geometry":{"coordinates":[7.884331,54.187759],"type":"Point"},"properties":{"osm_id":"6240880815","tag":{"amenity":"waste_basket"}},"type":"Feature"},
	{"geometry":{"coordinates":[7.884688,54.187708],"type":"Point"},"properties":{"osm_id":"6240880825","tag":{"access":"private","amenity":"waste_basket"}},"type":"Feature"},
	{"geometry":{"coordinates":[7.879325,54.183287],"type":"Point"},"properties":{"osm_id":"6447540043","tag":{"amenity":"waste_basket","waste":"trash"}},"type":"Feature"}
]
}
