{
"type": "FeatureCollection",
"lastupdate": "2020-08-04T00:00:00Z",
"features": [
	{"geometry":{"coordinates":[7.843035,53.261533],"type":"Point"},"properties":{"osm_id":"736985831","tag":{"amenity":"recycling","recycling:clothes":"yes","recycling:glass":"yes","recycling_type":"container"}},"type":"Feature"},
	{"geometry":{"coordinates":[7.826007,53.271679],"type":"Point"},"properties":{"osm_id":"746777175","tag":{"amenity":"recycling","recycling:clothes":"yes","recycling:glass":"yes","recycling_type":"container"}},"type":"Feature"},
	{"geometry":{"coordinates":[7.904051,53.235338],"type":"Point"},"properties":{"osm_id":"3206505459","tag":{"addr:city":"Westerstede","addr:housenumber":"41","addr:postcode":"26655","addr:street":"Westersteder Stra\u00dfe","amenity":"recycling","opening_hours":"Mo-Fr 07:30-12:30,13:00-16:30; Sa 07:30-12:00","opening_hours:covid19":"Mo-Fr 07:30-12:30,13:00-18:00; Sa 07:30-16:00","operator":"Landkreis Ammerland - Abfallwirtschaft","phone":"+49 4488 3912","recycling:cds":"yes","recycling:clothes":"yes","recycling:drugs":"yes","recycling:electrical_items":"yes","recycling:glass":"yes","recycling:hazardous_waste":"yes","recycling:metal":"yes","recycling:paper":"yes","recycling:rubble":"yes","recycling:wood":"yes","recycling_type":"centre","website":"https://www.ammerland.de/Service/Von-A-Z/Einrichtungen/Deponie-Mansie-und-Recyclingh\u00f6fe-.php"}},"type":"Feature"},
	{"geometry":{"coordinates":[7.892178,53.244928],"type":"Point"},"properties":{"osm_id":"6763861447","tag":{"amenity":"waste_basket","waste":"trash"}},"type":"Feature"}
]
}
