{
"type": "FeatureCollection",
"features": [
	{"geometry":{"coordinates":[7.844398,51.927843],"type":"Point"},"properties":{"osm_id":"293708568","tag":{"amenity":"recycling","material":"steel","recycling:clothes":"yes","recycling:glass":"yes","recycling:glass_bottles":"yes","recycling_type":"container"}},"type":"Feature"},
	{"geometry":{"coordinates":[7.849503,51.919518],"type":"Point"},"properties":{"osm_id":"300415331","tag":{"amenity":"recycling","recycling:glass_bottles":"yes"}},"type":"Feature"},
	{"geometry":{"coordinates":[7.845282,51.924021],"type":"Point"},"properties":{"osm_id":"316289427","tag":{"amenity":"recycling","recycling:cans":"no","recycling:clothes":"yes","recycling:glass":"yes","recycling:glass_bottles":"yes","recycling_type":"container"}},"type":"Feature"},
	{"geometry":{"coordinates":[7.845509,51.926509],"type":"Point"},"properties":{"osm_id":"320892786","tag":{"addr:city":"Everswinkel","addr:postcode":"48351","addr:street":"Am Magnusplatz","amenity":"recycling","recycling:clothes":"no","recycling:glass":"yes","recycling:glass_bottles":"yes","recycling:paper":"no","recycling:plastic":"no","recycling_type":"container"}},"type":"Feature"},
	{"geometry":{"coordinates":[7.854355,51.932599],"type":"Point"},"properties":{"osm_id":"3208358026","tag":{"amenity":"recycling","recycling:clothes":"no","recycling:glass":"yes","recycling_type":"container"}},"type":"Feature"},
	{"geometry":{"coordinates":[7.846563,51.926988],"type":"Point"},"properties":{"osm_id":"4357631550","tag":{"amenity":"waste_basket","recycling":"no"}},"type":"Feature"},
	{"geometry":{"coordinates":[7.856726,51.923453],"type":"Point"},"properties":{"osm_id":"4366680385","tag":{"amenity":"recycling","recycling:glass":"yes","recycling:glass_bottles":"yes"}},"type":"Feature"},
	{"geometry":{"coordinates":[7.840626,51.920703],"type":"Point"},"properties":{"osm_id":"4366884380","tag":{"amenity":"waste_basket","recycling":"no"}},"type":"Feature"},
	{"geometry":{"coordinates":[7.842545,51.92576],"type":"Point"},"properties":{"osm_id":"4579746366","tag":{"amenity":"waste_basket","recycling":"no"}},"type":"Feature"},
	{"geometry":{"coordinates":[7.847325,51.926393],"type":"Point"},"properties":{"osm_id":"4585436367","tag":{"amenity":"waste_basket","recycling":"no"}},"type":"Feature"},
	{"geometry":{"coordinates":[7.848061,51.926595],"type":"Point"},"properties":{"osm_id":"4585436368","tag":{"amenity":"recycling","recycling:glass":"yes","recycling:glass_bottles":"yes","recycling_type":"container"}},"type":"Feature"},
	{"geometry":{"coordinates":[7.84279,51.920825],"type":"Point"},"properties":{"osm_id":"4603777335","tag":{"amenity":"waste_basket","recycling":"no"}},"type":"Feature"},
	{"geometry":{"coordinates":[7.842773,51.921184],"type":"Point"},"properties":{"osm_id":"4603777337","tag":{"amenity":"waste_basket","recycling":"no"}},"type":"Feature"},
	{"geometry":{"coordinates":[7.856197,51.926819],"type":"Point"},"properties":{"osm_id":"5234757326","tag":{"amenity":"recycling","recycling:clothes":"yes","recycling:shoes":"yes","recycling_type":"container"}},"type":"Feature"}
]
}
