{
"type": "FeatureCollection",
"features": [
	{"geometry":{"coordinates":[7.897772,51.352652],"type":"Point"},"properties":{"osm_id":"296334795","ref":"06","tag":{"amenity":"recycling","operator":"Zum Langenloh, Parkplatz","recycling:glass":"yes","recycling:glass_bottles":"yes","recycling:paper":"yes","website":"https://www.zfa-iserlohn.de/balve/containerstandorte.asp"}},"type":"Feature"},
	{"geometry":{"coordinates":[7.887989,51.353858],"type":"Point"},"properties":{"osm_id":"296336104","ref":"05","tag":{"amenity":"recycling","location":"Arnsberger Stra\u00c3\u009fe, Zufahrt Sch\u00c3\u00bctzenhalle","operator":"Zweckverband f\u00c3\u00bcr Abfallbeseitigung Iserlohn","recycling:glass":"yes","recycling:glass_bottles":"yes","recycling:paper":"yes","website":"https://www.zfa-iserlohn.de/balve/containerstandorte.asp"}},"type":"Feature"},
	{"geometry":{"coordinates":[7.870516,51.361944],"type":"Point"},"properties":{"osm_id":"320810409","tag":{"amenity":"recycling","recycling:glass":"yes","recycling:paper":"yes"}},"type":"Feature"},
	{"geometry":{"coordinates":[7.874082,51.360535],"type":"Point"},"properties":{"osm_id":"320810649","tag":{"amenity":"recycling","recycling:green_waste":"yes"}},"type":"Feature"},
	{"geometry":{"coordinates":[7.88175,51.356331],"type":"Point"},"properties":{"osm_id":"320812849","ref":"03","tag":{"amenity":"recycling","location":"Dompeweg, Parkplatz","operator":"Zweckverband f\u00c3\u00bcr Abfallbeseitigung Iserlohn","recycling:glass":"yes","recycling:paper":"yes","website":"https://www.zfa-iserlohn.de/balve/containerstandorte.asp"}},"type":"Feature"},
	{"geometry":{"coordinates":[7.88178,51.386191],"type":"Point"},"properties":{"osm_id":"320966982","ref":"01","tag":{"amenity":"recycling","operator":"Zweckverband f\u00c3\u00bcr Abfallbeseitigung Iserlohn","recycling:green_waste":"yes","website":"https://www.zfa-iserlohn.de/balve/containerstandorte.asp"}},"type":"Feature"},
	{"geometry":{"coordinates":[7.88193,51.386266],"type":"Point"},"properties":{"osm_id":"320966984","ref":"01","tag":{"amenity":"recycling","operator":"Zweckverband f\u00c3\u00bcr Abfallbeseitigung Iserlohn","recycling:glass":"yes","recycling:paper":"yes","website":"https://www.zfa-iserlohn.de/balve/containerstandorte.asp"}},"type":"Feature"},
	{"geometry":{"coordinates":[7.887879,51.353963],"type":"Point"},"properties":{"osm_id":"445849268","ref":"05","tag":{"amenity":"recycling","location":"Arnsberger Stra\u00c3\u009fe, Zufahrt Sch\u00c3\u00bctzenhalle","operator":"Zweckverband f\u00c3\u00bcr Abfallbeseitigung Iserlohn","recycling:green_waste":"yes","website":"https://www.zfa-iserlohn.de/balve/containerstandorte.asp"}},"type":"Feature"}
]
}
