{
"type": "FeatureCollection",
"features": [
	{"geometry":{"coordinates":[7.86228,51.329411],"type":"Point"},"properties":{"osm_id":"296332584","ref":"23","tag":{"amenity":"recycling","location":"Hofstra\u00c3\u009fe / Am Rathaus","operator":"Zweckverband f\u00c3\u00bcr Abfallbeseitigung Iserlohn","recycling:paper":"yes","website":"https://www.zfa-iserlohn.de/balve/containerstandorte.asp"}},"type":"Feature"},
	{"geometry":{"coordinates":[7.858042,51.32777],"type":"Point"},"properties":{"osm_id":"296332607","ref":"26","tag":{"amenity":"recycling","location":"Im D\u00c3\u00b6rntken","operator":"Zweckverband f\u00c3\u00bcr Abfallbeseitigung Iserlohn","recycling:paper":"yes","website":"https://www.zfa-iserlohn.de/balve/containerstandorte.asp"}},"type":"Feature"},
	{"geometry":{"coordinates":[7.867805,51.328384],"type":"Point"},"properties":{"osm_id":"296332652","ref":"25","tag":{"amenity":"recycling","location":"Brucknerweg, am Kindergarten","operator":"Zweckverband f\u00c3\u00bcr Abfallbeseitigung Iserlohn","recycling:glass":"yes","recycling:glass_bottles":"yes","recycling:paper":"yes","website":"https://www.zfa-iserlohn.de/balve/containerstandorte.asp"}},"type":"Feature"},
	{"geometry":{"coordinates":[7.851626,51.328982],"type":"Point"},"properties":{"osm_id":"296333309","ref":"22","tag":{"amenity":"recycling","location":"Am Krumpaul, Hauptschule","operator":"Zweckverband f\u00c3\u00bcr Abfallbeseitigung Iserlohn","recycling:paper":"yes","website":"https://www.zfa-iserlohn.de/balve/containerstandorte.asp"}},"type":"Feature"},
	{"geometry":{"coordinates":[7.900758,51.329011],"type":"Point"},"properties":{"osm_id":"296333324","ref":"20","tag":{"amenity":"recycling","operator":"Zweckverband f\u00c3\u00bcr Abfallbeseitigung Iserlohn","recycling:glass":"yes","recycling:glass_bottles":"yes","recycling:paper":"yes","website":"https://www.zfa-iserlohn.de/balve/containerstandorte.asp"}},"type":"Feature"},
	{"geometry":{"coordinates":[7.862567,51.323112],"type":"Point"},"properties":{"osm_id":"296333801","ref":"30","tag":{"amenity":"recycling","location":"Meisenweg / Zum Thing","operator":"Zweckverband f\u00c3\u00bcr Abfallbeseitigung Iserlohn","recycling:glass":"yes","recycling:glass_bottles":"yes","recycling:paper":"yes","website":"https://www.zfa-iserlohn.de/balve/containerstandorte.asp"}},"type":"Feature"},
	{"geometry":{"coordinates":[7.865231,51.321134],"type":"Point"},"properties":{"osm_id":"296334570","ref":"32","tag":{"amenity":"recycling","location":"Zum Ossenkamp","operator":"Zweckverband f\u00c3\u00bcr Abfallbeseitigung Iserlohn","recycling:glass_bottles":"yes","recycling:paper":"yes","website":"https://www.zfa-iserlohn.de/balve/containerstandorte.asp"}},"type":"Feature"},
	{"geometry":{"coordinates":[7.85906,51.326487],"type":"Point"},"properties":{"osm_id":"296334964","ref":"28","tag":{"amenity":"recycling","location":"Garbecker Kirchweg","operator":"Zweckverband f\u00c3\u00bcr Abfallbeseitigung Iserlohn","recycling:glass":"yes","recycling:glass_bottles":"yes","recycling:paper":"yes","website":"https://www.zfa-iserlohn.de/balve/containerstandorte.asp"}},"type":"Feature"},
	{"geometry":{"coordinates":[7.857445,51.332951],"type":"Point"},"properties":{"osm_id":"296335383","ref":"11","tag":{"amenity":"recycling","location":"Zum Krummen Nacken","operator":"Zweckverband f\u00c3\u00bcr Abfallbeseitigung Iserlohn","recycling:paper":"yes","website":"https://www.zfa-iserlohn.de/balve/containerstandorte.asp"}},"type":"Feature"},
	{"geometry":{"coordinates":[7.888493,51.341334],"type":"Point"},"properties":{"osm_id":"296336026","ref":"08","tag":{"amenity":"recycling","operator":"Zweckverband f\u00c3\u00bcr Abfallbeseitigung Iserlohn","recycling:glass":"yes","recycling:glass_bottles":"yes","recycling:paper":"yes"}},"type":"Feature"},
	{"geometry":{"coordinates":[7.906382,51.327583],"type":"Point"},"properties":{"osm_id":"296336542","ref":"21","tag":{"amenity":"recycling","operator":"Zweckverband f\u00c3\u00bcr Abfallbeseitigung Iserlohn","recycling:glass":"yes","recycling:glass_bottles":"yes","recycling:green_waste":"yes","recycling:paper":"yes","website":"https://www.zfa-iserlohn.de/balve/containerstandorte.asp"}},"type":"Feature"},
	{"geometry":{"coordinates":[7.862614,51.329961],"type":"Point"},"properties":{"osm_id":"296336761","ref":"18","tag":{"amenity":"recycling","location":"Widukindplatz, N\u00c3\u00a4he Rathaus","operator":"Zweckverband f\u00c3\u00bcr Abfallbeseitigung Iserlohn","recycling:glass":"yes","recycling:glass_bottles":"yes","website":"https://www.zfa-iserlohn.de/balve/containerstandorte.asp"}},"type":"Feature"},
	{"geometry":{"coordinates":[7.872043,51.332891],"type":"Point"},"properties":{"osm_id":"296336835","ref":"13","tag":{"amenity":"recycling","location":"Mellener Stra\u00c3\u009fe, Einm\u00c3\u00bcndung Am Hohlen Stein","operator":"Zweckverband f\u00c3\u00bcr Abfallbeseitigung Iserlohn","recycling:glass":"yes","recycling:glass_bottles":"yes","recycling:paper":"yes","website":"https://www.zfa-iserlohn.de/balve/containerstandorte.asp"}},"type":"Feature"},
	{"geometry":{"coordinates":[7.865728,51.323729],"type":"Point"},"properties":{"osm_id":"312666424","ref":"29","tag":{"amenity":"recycling","location":"Zur Amtsschlade","operator":"Zweckverband f\u00c3\u00bcr Abfallbeseitigung Iserlohn","recycling:paper":"yes","website":"https://www.zfa-iserlohn.de/balve/containerstandorte.asp"}},"type":"Feature"},
	{"geometry":{"coordinates":[7.830518,51.319855],"type":"Point"},"properties":{"osm_id":"318097059","tag":{"amenity":"recycling","operator":"Zweckverband f\u00c3\u00bcr Abfallbeseitigung Iserlohn","recycling:glass":"yes","website":"https://www.zfa-iserlohn.de/balve/containerstandorte.asp"}},"type":"Feature"},
	{"geometry":{"coordinates":[7.833989,51.321121],"type":"Point"},"properties":{"osm_id":"318098093","tag":{"amenity":"recycling","operator":"Zweckverband f\u00c3\u00bcr Abfallbeseitigung Iserlohn","recycling:glass":"yes","recycling:paper":"yes","website":"https://www.zfa-iserlohn.de/balve/containerstandorte.asp"}},"type":"Feature"},
	{"geometry":{"coordinates":[7.82331,51.31885],"type":"Point"},"properties":{"osm_id":"318103155","tag":{"amenity":"recycling","operator":"Zweckverband f\u00c3\u00bcr Abfallbeseitigung Iserlohn","recycling:glass":"yes","recycling:green_waste":"yes","recycling:paper":"yes","website":"https://www.zfa-iserlohn.de/balve/containerstandorte.asp"}},"type":"Feature"},
	{"geometry":{"coordinates":[7.824126,51.307612],"type":"Point"},"properties":{"osm_id":"318245246","ref":"40","tag":{"amenity":"recycling","location":"Zum Kr\u00c3\u00a4hennocken","operator":"Zweckverband f\u00c3\u00bcr Abfallbeseitigung Iserlohn","recycling:glass":"yes","recycling:paper":"yes","website":"https://www.zfa-iserlohn.de/balve/containerstandorte.asp"}},"type":"Feature"},
	{"geometry":{"coordinates":[7.823931,51.307588],"type":"Point"},"properties":{"osm_id":"318245247","ref":"40","tag":{"amenity":"recycling","operator":"Zweckverband f\u00c3\u00bcr Abfallbeseitigung Iserlohn","recycling:green_waste":"yes","website":"https://www.zfa-iserlohn.de/balve/containerstandorte.asp"}},"type":"Feature"},
	{"geometry":{"coordinates":[7.875601,51.313233],"type":"Point"},"properties":{"osm_id":"320904814","ref":"37","tag":{"amenity":"recycling","location":"Lohstra\u00c3\u009fe","operator":"Zweckverband f\u00c3\u00bcr Abfallbeseitigung Iserlohn","recycling:glass":"yes","recycling:paper":"yes","website":"https://www.zfa-iserlohn.de/balve/containerstandorte.asp"}},"type":"Feature"},
	{"geometry":{"coordinates":[7.882501,51.31028],"type":"Point"},"properties":{"osm_id":"320904925","ref":"39","tag":{"amenity":"recycling","location":"Unterm Trachtenberg","operator":"Zweckverband f\u00c3\u00bcr Abfallbeseitigung Iserlohn","recycling:glass":"yes","recycling:green_waste":"yes","recycling:paper":"yes","website":"https://www.zfa-iserlohn.de/balve/containerstandorte.asp"}},"type":"Feature"},
	{"geometry":{"coordinates":[7.855045,51.291763],"type":"Point"},"properties":{"osm_id":"321286475","tag":{"amenity":"recycling","recycling:glass":"yes"}},"type":"Feature"},
	{"geometry":{"coordinates":[7.835703,51.309659],"type":"Point"},"properties":{"osm_id":"981092238","ref":"36","tag":{"amenity":"recycling","operator":"Zweckverband f\u00c3\u00bcr Abfallbeseitigung Iserlohn","recycling:glass":"yes","website":"https://www.zfa-iserlohn.de/balve/containerstandorte.asp"}},"type":"Feature"},
	{"geometry":{"coordinates":[7.835668,51.309588],"type":"Point"},"properties":{"osm_id":"981092260","ref":"36","tag":{"amenity":"recycling","operator":"Zweckverband f\u00c3\u00bcr Abfallbeseitigung Iserlohn","recycling:green_waste":"yes","website":"https://www.zfa-iserlohn.de/balve/containerstandorte.asp"}},"type":"Feature"},
	{"geometry":{"coordinates":[7.835738,51.309729],"type":"Point"},"properties":{"osm_id":"981092487","ref":"36","tag":{"amenity":"recycling","operator":"Zweckverband f\u00c3\u00bcr Abfallbeseitigung Iserlohn","recycling:paper":"yes","website":"https://www.zfa-iserlohn.de/balve/containerstandorte.asp"}},"type":"Feature"},
	{"geometry":{"coordinates":[7.868849,51.339081],"type":"Point"},"properties":{"osm_id":"981092502","ref":"08a","tag":{"amenity":"recycling","operator":"Zweckverband f\u00c3\u00bcr Abfallbeseitigung Iserlohn","recycling_type":"container"}},"type":"Feature"},
	{"geometry":{"coordinates":[7.86911,51.341987],"type":"Point"},"properties":{"osm_id":"981092773","ref":"07","tag":{"amenity":"recycling","location":"Gl\u00c3\u00a4rbach","operator":"Zweckverband f\u00c3\u00bcr Abfallbeseitigung Iserlohn","recycling:glass":"yes","recycling:paper":"yes"}},"type":"Feature"},
	{"geometry":{"coordinates":[7.862871,51.325892],"type":"Point"},"properties":{"osm_id":"1124048847","tag":{"amenity":"recycling","recycling:paper":"yes"}},"type":"Feature"},
	{"geometry":{"coordinates":[7.862528,51.329935],"type":"Point"},"properties":{"osm_id":"1125409075","ref":"18","tag":{"amenity":"recycling","location":"Widukindplatz, N\u00c3\u00a4he Rathaus","operator":"Zweckverband f\u00c3\u00bcr Abfallbeseitigung Iserlohn","recycling:paper":"yes","website":"https://www.zfa-iserlohn.de/balve/containerstandorte.asp"}},"type":"Feature"},
	{"geometry":{"coordinates":[7.853106,51.329941],"type":"Point"},"properties":{"osm_id":"1953595773","tag":{"amenity":"recycling","recycling:paper":"yes","recycling_type":"container"}},"type":"Feature"},
	{"geometry":{"coordinates":[7.878627,51.312281],"type":"Point"},"properties":{"osm_id":"2615126910","ref":"Papiercontainer 38","tag":{"amenity":"recycling","recycling:paper":"yes","recycling_type":"container"}},"type":"Feature"},
	{"geometry":{"coordinates":[7.89795,51.331518],"type":"Point"},"properties":{"osm_id":"7476835144","tag":{"amenity":"waste_basket"}},"type":"Feature"},
	{"geometry":{"coordinates":[7.890122,51.338799],"type":"Point"},"properties":{"osm_id":"7476835301","tag":{"amenity":"waste_basket"}},"type":"Feature"}
]
}
