{
"type": "FeatureCollection",
"features": [
	{"geometry":{"coordinates":[7.828154,50.961636],"type":"Point"},"properties":{"osm_id":"936868326","tag":{"amenity":"waste_basket"}},"type":"Feature"},
	{"geometry":{"coordinates":[7.830834,50.964617],"type":"Point"},"properties":{"osm_id":"936882980","tag":{"amenity":"waste_basket"}},"type":"Feature"},
	{"geometry":{"coordinates":[7.829136,50.97179],"type":"Point"},"properties":{"osm_id":"936932370","tag":{"amenity":"waste_basket"}},"type":"Feature"},
	{"geometry":{"coordinates":[7.908264,50.989392],"type":"Point"},"properties":{"osm_id":"1225812920","tag":{"amenity":"waste_basket"}},"type":"Feature"},
	{"geometry":{"coordinates":[7.910119,50.991561],"type":"Point"},"properties":{"osm_id":"1418194173","tag":{"amenity":"waste_basket"}},"type":"Feature"},
	{"geometry":{"coordinates":[7.872389,50.971779],"type":"Point"},"properties":{"osm_id":"5300920811","tag":{"amenity":"recycling","recycling:glass":"yes","recycling:glass_bottles":"yes","recycling_type":"container"}},"type":"Feature"},
	{"geometry":{"coordinates":[7.873314,50.970883],"type":"Point"},"properties":{"osm_id":"5300921024","tag":{"amenity":"recycling","recycling:clothes":"yes","recycling_type":"container"}},"type":"Feature"},
	{"geometry":{"coordinates":[7.88084,50.992517],"type":"Point"},"properties":{"osm_id":"5715769858","tag":{"amenity":"recycling","recycling:paper":"yes"}},"type":"Feature"},
	{"geometry":{"coordinates":[7.877765,50.967325],"type":"Point"},"properties":{"osm_id":"6861038236","tag":{"amenity":"waste_basket"}},"type":"Feature"},
	{"geometry":{"coordinates":[7.846386,50.982818],"type":"Point"},"properties":{"osm_id":"6864722836","tag":{"amenity":"recycling","recycling:clothes":"yes","recycling_type":"container"}},"type":"Feature"},
	{"geometry":{"coordinates":[7.846194,51.001331],"type":"Point"},"properties":{"osm_id":"7385127691","tag":{"amenity":"recycling","material":"metal","opening_hours":"Mo-Sa 07:00-19:00; Su,PH off","recycling:glass_bottles":"yes","recycling_type":"container"}},"type":"Feature"}
]
}
