{
"type": "FeatureCollection",
"features": [
	{"geometry":{"coordinates":[7.873093,50.54846],"type":"Point"},"properties":{"osm_id":"451719280","tag":{"amenity":"recycling","recycling:glass":"yes"}},"type":"Feature"},
	{"geometry":{"coordinates":[7.880649,50.550351],"type":"Point"},"properties":{"osm_id":"451719301","tag":{"amenity":"recycling","recycling:glass":"yes"}},"type":"Feature"},
	{"geometry":{"coordinates":[7.873908,50.515428],"type":"Point"},"properties":{"osm_id":"1000835146","tag":{"amenity":"recycling","recycling:clothes":"yes","recycling:glass":"yes"}},"type":"Feature"},
	{"geometry":{"coordinates":[7.828622,50.532569],"type":"Point"},"properties":{"osm_id":"1262250925","tag":{"amenity":"recycling","location":"overground","recycling_type":"container"}},"type":"Feature"},
	{"geometry":{"coordinates":[7.83882,50.528991],"type":"Point"},"properties":{"osm_id":"2095741816","tag":{"amenity":"recycling"}},"type":"Feature"},
	{"geometry":{"coordinates":[7.835285,50.543674],"type":"Point"},"properties":{"osm_id":"2402604727","tag":{"amenity":"recycling"}},"type":"Feature"},
	{"geometry":{"coordinates":[7.893529,50.541177],"type":"Point"},"properties":{"name":"Gr\u00c3\u00bcnabfallplatz H\u00c3\u00a4rtlingen","osm_id":"5613871584","tag":{"amenity":"recycling","recycling:garden_waste":"yes","recycling_type":"centre"}},"type":"Feature"},
	{"geometry":{"coordinates":[7.824631,50.563265],"type":"Point"},"properties":{"osm_id":"5799883065","tag":{"amenity":"recycling","recycling:glass_bottles":"yes","recycling_type":"container"}},"type":"Feature"},
	{"geometry":{"coordinates":[7.869074,50.540308],"type":"Point"},"properties":{"osm_id":"6482821689","tag":{"amenity":"recycling","recycling:glass":"yes","recycling_type":"container"}},"type":"Feature"},
	{"geometry":{"coordinates":[7.847886,50.514281],"type":"Point"},"properties":{"osm_id":"6563666094","tag":{"amenity":"recycling","recycling:glass":"yes","recycling_type":"container"}},"type":"Feature"},
	{"geometry":{"coordinates":[7.836723,50.560727],"type":"Point"},"properties":{"osm_id":"7387023717","tag":{"amenity":"waste_basket"}},"type":"Feature"}
]
}
