{
"type": "FeatureCollection",
"lastupdate": "2020-08-05T00:00:00Z",
"features": [
	{"geometry":{"coordinates":[7.906926,50.215654],"type":"Point"},"properties":{"osm_id":"353918610","tag":{"amenity":"recycling","recycling:clothes":"yes","recycling:glass":"yes"}},"type":"Feature"},
	{"geometry":{"coordinates":[7.850172,50.200986],"type":"Point"},"properties":{"osm_id":"4124519769","tag":{"amenity":"recycling","recycling:clothes":"yes","recycling:glass_bottles":"yes","recycling_type":"container"}},"type":"Feature"},
	{"geometry":{"coordinates":[7.852114,50.200557],"type":"Point"},"properties":{"osm_id":"4124521407","tag":{"amenity":"recycling","recycling:clothes":"yes","recycling:glass_bottles":"yes","recycling_type":"container"}},"type":"Feature"},
	{"geometry":{"coordinates":[7.825404,50.232735],"type":"Point"},"properties":{"osm_id":"4450180871","tag":{"amenity":"waste_basket"}},"type":"Feature"},
	{"geometry":{"coordinates":[7.898797,50.193545],"type":"Point"},"properties":{"osm_id":"5086643348","tag":{"amenity":"waste_basket"}},"type":"Feature"},
	{"geometry":{"coordinates":[7.871061,50.182479],"type":"Point"},"properties":{"osm_id":"5086742770","tag":{"amenity":"waste_basket"}},"type":"Feature"},
	{"geometry":{"coordinates":[7.864145,50.19558],"type":"Point"},"properties":{"osm_id":"5224986434","tag":{"amenity":"waste_basket"}},"type":"Feature"},
	{"geometry":{"coordinates":[7.855869,50.198612],"type":"Point"},"properties":{"osm_id":"5226315883","tag":{"amenity":"waste_basket"}},"type":"Feature"},
	{"geometry":{"coordinates":[7.861457,50.201688],"type":"Point"},"properties":{"osm_id":"5226342388","tag":{"amenity":"recycling","recycling:glass":"yes","recycling_type":"container"}},"type":"Feature"},
	{"geometry":{"coordinates":[7.861473,50.201693],"type":"Point"},"properties":{"osm_id":"5226342389","tag":{"amenity":"recycling","recycling:clothes":"yes","recycling_type":"container"}},"type":"Feature"},
	{"geometry":{"coordinates":[7.903077,50.221041],"type":"Point"},"properties":{"osm_id":"5514170129","tag":{"amenity":"recycling","recycling:clothes":"yes","recycling:glass_bottles":"yes","recycling:shoes":"yes","recycling_type":"container"}},"type":"Feature"},
	{"geometry":{"coordinates":[7.845912,50.216815],"type":"Point"},"properties":{"osm_id":"5609665199","tag":{"amenity":"waste_basket"}},"type":"Feature"},
	{"geometry":{"coordinates":[7.847135,50.215318],"type":"Point"},"properties":{"osm_id":"5609665257","tag":{"amenity":"waste_basket","colour":"green"}},"type":"Feature"},
	{"geometry":{"coordinates":[7.840001,50.213316],"type":"Point"},"properties":{"osm_id":"5609665287","tag":{"amenity":"waste_basket"}},"type":"Feature"},
	{"geometry":{"coordinates":[7.843574,50.21421],"type":"Point"},"properties":{"osm_id":"5609665302","tag":{"amenity":"waste_basket","colour":"green"}},"type":"Feature"},
	{"geometry":{"coordinates":[7.832814,50.224539],"type":"Point"},"properties":{"osm_id":"5609666037","tag":{"amenity":"waste_basket"}},"type":"Feature"},
	{"geometry":{"coordinates":[7.828788,50.222657],"type":"Point"},"properties":{"osm_id":"5609666056","tag":{"amenity":"waste_basket"}},"type":"Feature"},
	{"geometry":{"coordinates":[7.831615,50.217221],"type":"Point"},"properties":{"osm_id":"5609666334","tag":{"amenity":"waste_basket"}},"type":"Feature"},
	{"geometry":{"coordinates":[7.831039,50.222386],"type":"Point"},"properties":{"osm_id":"5629061215","tag":{"amenity":"recycling","recycling:glass":"yes","recycling:glass_bottles":"yes","recycling_type":"container"}},"type":"Feature"}
]
}
