{
"type": "FeatureCollection",
"features": [
	{"geometry":{"coordinates":[7.859429,49.957349],"type":"Point"},"properties":{"osm_id":"30426386","tag":{"amenity":"recycling","recycling:cans":"no","recycling:clothes":"yes","recycling:glass":"yes","recycling:paper":"no","wheelchair":"yes"}},"type":"Feature"},
	{"geometry":{"coordinates":[7.888692,49.965702],"type":"Point"},"properties":{"osm_id":"335767507","tag":{"amenity":"recycling","recycling:glass":"yes"}},"type":"Feature"},
	{"geometry":{"coordinates":[7.886487,49.964341],"type":"Point"},"properties":{"osm_id":"500756054","tag":{"amenity":"recycling","recycling:glass":"yes","recycling_type":"container","wheelchair":"no"}},"type":"Feature"},
	{"geometry":{"coordinates":[7.901576,49.966618],"type":"Point"},"properties":{"osm_id":"561196405","tag":{"amenity":"recycling","recycling:glass":"yes"}},"type":"Feature"},
	{"geometry":{"coordinates":[7.86717,49.983936],"type":"Point"},"properties":{"osm_id":"634620075","tag":{"amenity":"recycling","recycling:green_waste":"yes","recycling_type":"container"}},"type":"Feature"},
	{"geometry":{"coordinates":[7.870253,49.958845],"type":"Point"},"properties":{"osm_id":"1707639587","tag":{"amenity":"recycling","recycling_type":"container"}},"type":"Feature"},
	{"geometry":{"coordinates":[7.908125,49.98979],"type":"Point"},"properties":{"osm_id":"3228948866","tag":{"amenity":"waste_basket"}},"type":"Feature"},
	{"geometry":{"coordinates":[7.863716,49.959681],"type":"Point"},"properties":{"osm_id":"3439552541","tag":{"amenity":"recycling","recycling:cans":"no","recycling:clothes":"yes","recycling:glass":"yes","recycling:paper":"no","recycling_type":"container","wheelchair":"yes"}},"type":"Feature"},
	{"geometry":{"coordinates":[7.897564,49.970014],"type":"Point"},"properties":{"osm_id":"4186093675","tag":{"amenity":"waste_basket"}},"type":"Feature"},
	{"geometry":{"coordinates":[7.897214,49.970007],"type":"Point"},"properties":{"osm_id":"4186093676","tag":{"amenity":"waste_basket"}},"type":"Feature"},
	{"geometry":{"coordinates":[7.864555,49.991254],"type":"Point"},"properties":{"osm_id":"4676548855","tag":{"amenity":"recycling","recycling:glass_bottles":"yes","recycling_type":"container"}},"type":"Feature"},
	{"geometry":{"coordinates":[7.86692,49.984581],"type":"Point"},"properties":{"osm_id":"4722242420","tag":{"amenity":"recycling","recycling:clothes":"yes","recycling:glass_bottles":"yes","recycling_type":"container"}},"type":"Feature"},
	{"geometry":{"coordinates":[7.877556,49.976616],"type":"Point"},"properties":{"osm_id":"5199496726","tag":{"amenity":"waste_basket"}},"type":"Feature"},
	{"geometry":{"coordinates":[7.884992,49.990541],"type":"Point"},"properties":{"osm_id":"5199815911","tag":{"amenity":"waste_basket"}},"type":"Feature"},
	{"geometry":{"coordinates":[7.891575,49.966242],"type":"Point"},"properties":{"osm_id":"5324728227","tag":{"amenity":"recycling","recycling:glass":"yes","recycling_type":"container"}},"type":"Feature"},
	{"geometry":{"coordinates":[7.899996,49.968421],"type":"Point"},"properties":{"osm_id":"5324728228","tag":{"amenity":"recycling","recycling:glass":"yes","recycling_type":"container"}},"type":"Feature"},
	{"geometry":{"coordinates":[7.882683,49.984501],"type":"Point"},"properties":{"osm_id":"5749767205","tag":{"amenity":"waste_basket"}},"type":"Feature"},
	{"geometry":{"coordinates":[7.889052,49.98334],"type":"Point"},"properties":{"osm_id":"5749767206","tag":{"amenity":"waste_basket"}},"type":"Feature"},
	{"geometry":{"coordinates":[7.901922,49.982076],"type":"Point"},"properties":{"osm_id":"6873620706","tag":{"amenity":"waste_basket"}},"type":"Feature"},
	{"geometry":{"coordinates":[7.900386,49.981807],"type":"Point"},"properties":{"osm_id":"6873632598","tag":{"amenity":"waste_basket"}},"type":"Feature"},
	{"geometry":{"coordinates":[7.883098,49.98497],"type":"Point"},"properties":{"osm_id":"6873632715","tag":{"amenity":"waste_basket"}},"type":"Feature"},
	{"geometry":{"coordinates":[7.900824,49.981778],"type":"Point"},"properties":{"osm_id":"6873633328","tag":{"amenity":"waste_basket"}},"type":"Feature"},
	{"geometry":{"coordinates":[7.875688,49.980375],"type":"Point"},"properties":{"osm_id":"6873636580","tag":{"amenity":"waste_basket"}},"type":"Feature"},
	{"geometry":{"coordinates":[7.884803,49.979022],"type":"Point"},"properties":{"osm_id":"6873641238","tag":{"amenity":"waste_basket"}},"type":"Feature"},
	{"geometry":{"coordinates":[7.9,49.981363],"type":"Point"},"properties":{"osm_id":"6873684704","tag":{"amenity":"waste_basket"}},"type":"Feature"},
	{"geometry":{"coordinates":[7.900809,49.981799],"type":"Point"},"properties":{"osm_id":"6873684705","tag":{"amenity":"waste_basket"}},"type":"Feature"},
	{"geometry":{"coordinates":[7.900231,49.98121],"type":"Point"},"properties":{"osm_id":"6873686904","tag":{"amenity":"waste_basket"}},"type":"Feature"},
	{"geometry":{"coordinates":[7.901293,49.98209],"type":"Point"},"properties":{"osm_id":"6873688657","tag":{"amenity":"waste_basket"}},"type":"Feature"},
	{"geometry":{"coordinates":[7.87795,49.979432],"type":"Point"},"properties":{"osm_id":"6873693487","tag":{"amenity":"waste_basket"}},"type":"Feature"},
	{"geometry":{"coordinates":[7.831952,49.952547],"type":"Point"},"properties":{"osm_id":"7733826192","tag":{"amenity":"recycling","opening_hours":"24/7","operator":"Malteser Hilfsdienst e.V.","recycling:clothes":"yes","recycling:shoes":"yes","recycling_type":"container","wheelchair":"no"}},"type":"Feature"},
	{"geometry":{"coordinates":[7.876237,49.991265],"type":"Point"},"properties":{"osm_id":"7791512235","tag":{"amenity":"recycling","recycling:glass":"yes","recycling_type":"container"}},"type":"Feature"},
	{"geometry":{"coordinates":[7.899654,49.981337],"type":"Point"},"properties":{"osm_id":"7890666074","tag":{"amenity":"waste_basket"}},"type":"Feature"},
	{"geometry":{"coordinates":[7.869154,49.989135],"type":"Point"},"properties":{"osm_id":"7893971148","tag":{"amenity":"waste_basket"}},"type":"Feature"},
	{"geometry":{"coordinates":[7.844458,50.002807],"type":"Point"},"properties":{"osm_id":"7898091988","tag":{"amenity":"waste_basket"}},"type":"Feature"}
]
}
