{
"type": "FeatureCollection",
"features": [
	{"geometry":{"coordinates":[7.827613,49.863477],"type":"Point"},"properties":{"osm_id":"335768084","tag":{"amenity":"recycling","recycling:glass":"yes"}},"type":"Feature"},
	{"geometry":{"coordinates":[7.856067,49.841369],"type":"Point"},"properties":{"osm_id":"693014471","tag":{"amenity":"recycling","location":"overground","recycling:clothes":"yes","recycling:glass_bottles":"yes","recycling_type":"container"}},"type":"Feature"},
	{"geometry":{"coordinates":[7.856921,49.838759],"type":"Point"},"properties":{"osm_id":"705478094","tag":{"amenity":"recycling","location":"overground","recycling:clothes":"yes","recycling:glass":"yes","recycling_type":"container"}},"type":"Feature"},
	{"geometry":{"coordinates":[7.882134,49.861331],"type":"Point"},"properties":{"barrier":"gate","osm_id":"1342285255","tag":{"bicycle":"yes","foot":"yes","motorcar":"yes","motorcycle":"yes"}},"type":"Feature"},
	{"geometry":{"coordinates":[7.872407,49.843378],"type":"Point"},"properties":{"osm_id":"1636478575","tag":{"amenity":"recycling","opening_hours":"24/7","operator":"Malteser Hilfsdienst e.V.","recycling:clothes":"yes","recycling_type":"container"}},"type":"Feature"},
	{"geometry":{"coordinates":[7.889377,49.83869],"type":"Point"},"properties":{"osm_id":"1812876298","tag":{"amenity":"recycling","recycling:clothes":"yes","recycling:glass":"yes"}},"type":"Feature"},
	{"geometry":{"coordinates":[7.888032,49.838832],"type":"Point"},"properties":{"osm_id":"1813683779","tag":{"amenity":"waste_disposal"}},"type":"Feature"},
	{"geometry":{"coordinates":[7.890195,49.838468],"type":"Point"},"properties":{"osm_id":"1815928086","tag":{"amenity":"waste_disposal"}},"type":"Feature"},
	{"geometry":{"coordinates":[7.882132,49.840669],"type":"Point"},"properties":{"osm_id":"1854064713","tag":{"amenity":"recycling","recycling:clothes":"yes","recycling:glass":"yes","recycling_type":"container"}},"type":"Feature"},
	{"geometry":{"coordinates":[7.862144,49.841227],"type":"Point"},"properties":{"osm_id":"2481397149","tag":{"amenity":"recycling","recycling:clothes":"yes","recycling:glass_bottles":"yes","recycling_type":"container"}},"type":"Feature"},
	{"geometry":{"coordinates":[7.844491,49.845451],"type":"Point"},"properties":{"osm_id":"2610623249","tag":{"amenity":"recycling","recycling:glass_bottles":"yes","recycling_type":"container"}},"type":"Feature"},
	{"geometry":{"coordinates":[7.826237,49.860292],"type":"Point"},"properties":{"osm_id":"2636916463","tag":{"amenity":"recycling","recycling:batteries":"no","recycling:books":"no","recycling:cans":"no","recycling:cardboard":"no","recycling:cartons":"no","recycling:electrical_appliances":"no","recycling:glass":"yes","recycling:glass_bottles":"yes","recycling:green_waste":"no","recycling:magazines":"no","recycling:newspaper":"no","recycling:paper":"no","recycling:paper_packaging":"no","recycling:plastic":"no","recycling:plastic_bottles":"no","recycling:plastic_packaging":"no","recycling:scrap_metal":"no","recycling:small_appliances":"no","recycling:waste":"no","recycling:wood":"no","recycling_type":"container"}},"type":"Feature"},
	{"geometry":{"coordinates":[7.823197,49.864475],"type":"Point"},"properties":{"osm_id":"2637144074","tag":{"amenity":"recycling","recycling:batteries":"no","recycling:books":"no","recycling:cans":"no","recycling:cardboard":"no","recycling:cartons":"no","recycling:clothes":"yes","recycling:electrical_appliances":"no","recycling:glass":"no","recycling:glass_bottles":"no","recycling:green_waste":"no","recycling:magazines":"no","recycling:newspaper":"no","recycling:paper":"no","recycling:paper_packaging":"no","recycling:plastic":"no","recycling:plastic_bottles":"no","recycling:plastic_packaging":"no","recycling:scrap_metal":"no","recycling:small_appliances":"no","recycling:waste":"no","recycling:wood":"no","recycling_type":"container"}},"type":"Feature"},
	{"geometry":{"coordinates":[7.88908,49.875319],"type":"Point"},"properties":{"osm_id":"5295178648","tag":{"amenity":"recycling","recycling:glass_bottles":"yes","recycling_type":"container"}},"type":"Feature"},
	{"geometry":{"coordinates":[7.899798,49.880608],"type":"Point"},"properties":{"osm_id":"5296368310","tag":{"amenity":"recycling","recycling:glass":"yes","recycling_type":"container"}},"type":"Feature"},
	{"geometry":{"coordinates":[7.864058,49.838784],"type":"Point"},"properties":{"osm_id":"5333008869","tag":{"amenity":"recycling","recycling:clothes":"yes","recycling_type":"container"}},"type":"Feature"},
	{"geometry":{"coordinates":[7.850152,49.848886],"type":"Point"},"properties":{"osm_id":"5333008874","tag":{"amenity":"recycling","operator":"DRK Kreisverband Bad Kreuznach e.V.","recycling:clothes":"yes","recycling_type":"container"}},"type":"Feature"},
	{"geometry":{"coordinates":[7.853261,49.840386],"type":"Point"},"properties":{"osm_id":"5773626753","tag":{"amenity":"waste_basket"}},"type":"Feature"},
	{"geometry":{"coordinates":[7.862998,49.838084],"type":"Point"},"properties":{"osm_id":"6335023315","tag":{"amenity":"recycling","recycling:clothes":"yes","recycling_type":"container"}},"type":"Feature"},
	{"geometry":{"coordinates":[7.866055,49.842625],"type":"Point"},"properties":{"osm_id":"7986114303","tag":{"amenity":"waste_basket"}},"type":"Feature"},
	{"geometry":{"coordinates":[7.86589,49.842628],"type":"Point"},"properties":{"osm_id":"7986114307","tag":{"amenity":"waste_basket"}},"type":"Feature"},
	{"geometry":{"coordinates":[7.846515,49.892905],"type":"Point"},"properties":{"osm_id":"8004119766","tag":{"amenity":"recycling","recycling:glass_bottles":"yes","recycling_type":"container"}},"type":"Feature"},
	{"geometry":{"coordinates":[7.854992,49.843898],"type":"Point"},"properties":{"osm_id":"8416701007","tag":{"amenity":"waste_basket"}},"type":"Feature"},
	{"geometry":{"coordinates":[7.852126,49.842721],"type":"Point"},"properties":{"osm_id":"8416701009","tag":{"amenity":"waste_basket"}},"type":"Feature"},
	{"geometry":{"coordinates":[7.851196,49.839611],"type":"Point"},"properties":{"osm_id":"8416701010","tag":{"amenity":"waste_basket"}},"type":"Feature"},
	{"geometry":{"coordinates":[7.851951,49.846485],"type":"Point"},"properties":{"osm_id":"8419651156","tag":{"amenity":"waste_basket"}},"type":"Feature"},
	{"geometry":{"coordinates":[7.85147,49.846473],"type":"Point"},"properties":{"osm_id":"8419651158","tag":{"amenity":"waste_basket"}},"type":"Feature"},
	{"geometry":{"coordinates":[7.849889,49.846337],"type":"Point"},"properties":{"osm_id":"8419651161","tag":{"amenity":"waste_basket"}},"type":"Feature"},
	{"geometry":{"coordinates":[7.849641,49.846311],"type":"Point"},"properties":{"osm_id":"8419651164","tag":{"amenity":"waste_basket"}},"type":"Feature"},
	{"geometry":{"coordinates":[7.849237,49.846273],"type":"Point"},"properties":{"osm_id":"8419651165","tag":{"amenity":"waste_basket"}},"type":"Feature"},
	{"geometry":{"coordinates":[7.847668,49.846222],"type":"Point"},"properties":{"osm_id":"8419651170","tag":{"amenity":"waste_basket"}},"type":"Feature"},
	{"geometry":{"coordinates":[7.847627,49.846294],"type":"Point"},"properties":{"osm_id":"8419651175","tag":{"amenity":"waste_basket"}},"type":"Feature"},
	{"geometry":{"coordinates":[7.847433,49.846174],"type":"Point"},"properties":{"osm_id":"8419651177","tag":{"amenity":"waste_basket"}},"type":"Feature"},
	{"geometry":{"coordinates":[7.846938,49.845824],"type":"Point"},"properties":{"osm_id":"8419651188","tag":{"amenity":"waste_basket"}},"type":"Feature"},
	{"geometry":{"coordinates":[7.846813,49.845904],"type":"Point"},"properties":{"osm_id":"8419651190","tag":{"amenity":"waste_basket"}},"type":"Feature"},
	{"geometry":{"coordinates":[7.846759,49.84594],"type":"Point"},"properties":{"osm_id":"8419651191","tag":{"amenity":"waste_basket"}},"type":"Feature"},
	{"geometry":{"coordinates":[7.844542,49.845476],"type":"Point"},"properties":{"osm_id":"8419651195","tag":{"amenity":"waste_basket"}},"type":"Feature"},
	{"geometry":{"coordinates":[7.844412,49.84535],"type":"Point"},"properties":{"osm_id":"8419651196","tag":{"amenity":"waste_basket"}},"type":"Feature"},
	{"geometry":{"coordinates":[7.848778,49.846415],"type":"Point"},"properties":{"osm_id":"8419708431","tag":{"amenity":"waste_basket"}},"type":"Feature"},
	{"geometry":{"coordinates":[7.848799,49.846743],"type":"Point"},"properties":{"osm_id":"8419708434","tag":{"amenity":"waste_basket"}},"type":"Feature"},
	{"geometry":{"coordinates":[7.84873,49.846977],"type":"Point"},"properties":{"osm_id":"8419708436","tag":{"amenity":"waste_basket"}},"type":"Feature"},
	{"geometry":{"coordinates":[7.848868,49.847079],"type":"Point"},"properties":{"osm_id":"8419708438","tag":{"amenity":"waste_basket"}},"type":"Feature"},
	{"geometry":{"coordinates":[7.848979,49.847111],"type":"Point"},"properties":{"osm_id":"8419708439","tag":{"amenity":"waste_basket"}},"type":"Feature"},
	{"geometry":{"coordinates":[7.849433,49.847266],"type":"Point"},"properties":{"osm_id":"8419708441","tag":{"amenity":"waste_basket"}},"type":"Feature"},
	{"geometry":{"coordinates":[7.855479,49.847068],"type":"Point"},"properties":{"osm_id":"8419708445","tag":{"amenity":"waste_basket"}},"type":"Feature"},
	{"geometry":{"coordinates":[7.859466,49.84379],"type":"Point"},"properties":{"osm_id":"8419708450","tag":{"amenity":"waste_basket"}},"type":"Feature"},
	{"geometry":{"coordinates":[7.85753,49.844817],"type":"Point"},"properties":{"osm_id":"8419708473","tag":{"amenity":"waste_basket","layer":"1"}},"type":"Feature"},
	{"geometry":{"coordinates":[7.856909,49.845128],"type":"Point"},"properties":{"osm_id":"8419708474","tag":{"amenity":"waste_basket","layer":"1"}},"type":"Feature"},
	{"geometry":{"coordinates":[7.86181,49.842337],"type":"Point"},"properties":{"osm_id":"8421676212","tag":{"amenity":"waste_basket"}},"type":"Feature"},
	{"geometry":{"coordinates":[7.857747,49.839551],"type":"Point"},"properties":{"osm_id":"8421682828","tag":{"amenity":"waste_basket"}},"type":"Feature"},
	{"geometry":{"coordinates":[7.856917,49.839274],"type":"Point"},"properties":{"osm_id":"8421682831","tag":{"amenity":"waste_basket"}},"type":"Feature"},
	{"geometry":{"coordinates":[7.856191,49.839396],"type":"Point"},"properties":{"osm_id":"8421682832","tag":{"amenity":"waste_basket"}},"type":"Feature"},
	{"geometry":{"coordinates":[7.856435,49.839525],"type":"Point"},"properties":{"osm_id":"8421682834","tag":{"amenity":"waste_basket"}},"type":"Feature"},
	{"geometry":{"coordinates":[7.856172,49.839618],"type":"Point"},"properties":{"osm_id":"8421682837","tag":{"amenity":"waste_basket"}},"type":"Feature"},
	{"geometry":{"coordinates":[7.855739,49.839659],"type":"Point"},"properties":{"osm_id":"8421682838","tag":{"amenity":"waste_basket"}},"type":"Feature"},
	{"geometry":{"coordinates":[7.855622,49.839891],"type":"Point"},"properties":{"osm_id":"8421682839","tag":{"amenity":"waste_basket"}},"type":"Feature"},
	{"geometry":{"coordinates":[7.855274,49.840062],"type":"Point"},"properties":{"osm_id":"8421682840","tag":{"amenity":"waste_basket"}},"type":"Feature"},
	{"geometry":{"coordinates":[7.872524,49.843175],"type":"Point"},"properties":{"osm_id":"8441952816","tag":{"amenity":"recycling","recycling:clothes":"yes","recycling:shoes":"yes","recycling_type":"container"}},"type":"Feature"},
	{"geometry":{"coordinates":[7.850821,49.838009],"type":"Point"},"properties":{"osm_id":"8463998502","tag":{"amenity":"waste_basket"}},"type":"Feature"},
	{"geometry":{"coordinates":[7.851426,49.839639],"type":"Point"},"properties":{"osm_id":"8463998504","tag":{"amenity":"waste_basket"}},"type":"Feature"},
	{"geometry":{"coordinates":[7.851668,49.839863],"type":"Point"},"properties":{"osm_id":"8463998506","tag":{"amenity":"waste_basket"}},"type":"Feature"},
	{"geometry":{"coordinates":[7.851407,49.840633],"type":"Point"},"properties":{"osm_id":"8463998509","tag":{"amenity":"waste_basket"}},"type":"Feature"},
	{"geometry":{"coordinates":[7.851393,49.840812],"type":"Point"},"properties":{"osm_id":"8463998511","tag":{"amenity":"waste_basket"}},"type":"Feature"},
	{"geometry":{"coordinates":[7.851436,49.841358],"type":"Point"},"properties":{"osm_id":"8463998512","tag":{"amenity":"waste_basket"}},"type":"Feature"},
	{"geometry":{"coordinates":[7.853351,49.847261],"type":"Point"},"properties":{"osm_id":"8463998515","tag":{"amenity":"recycling","recycling:glass":"yes","recycling_type":"container"}},"type":"Feature"},
	{"geometry":{"coordinates":[7.852508,49.841064],"type":"Point"},"properties":{"osm_id":"8464042820","tag":{"amenity":"waste_basket"}},"type":"Feature"},
	{"geometry":{"coordinates":[7.852558,49.84066],"type":"Point"},"properties":{"osm_id":"8464042822","tag":{"amenity":"waste_basket"}},"type":"Feature"},
	{"geometry":{"coordinates":[7.85266,49.840152],"type":"Point"},"properties":{"osm_id":"8464042827","tag":{"amenity":"waste_basket"}},"type":"Feature"},
	{"geometry":{"coordinates":[7.852716,49.839729],"type":"Point"},"properties":{"osm_id":"8464042831","tag":{"amenity":"waste_basket"}},"type":"Feature"},
	{"geometry":{"coordinates":[7.852911,49.839515],"type":"Point"},"properties":{"osm_id":"8464042834","tag":{"amenity":"waste_basket"}},"type":"Feature"},
	{"geometry":{"coordinates":[7.8532,49.839384],"type":"Point"},"properties":{"osm_id":"8464042835","tag":{"amenity":"waste_basket"}},"type":"Feature"},
	{"geometry":{"coordinates":[7.853363,49.838951],"type":"Point"},"properties":{"osm_id":"8464042836","tag":{"amenity":"waste_basket"}},"type":"Feature"},
	{"geometry":{"coordinates":[7.851136,49.839586],"type":"Point"},"properties":{"osm_id":"8464042841","tag":{"amenity":"waste_basket"}},"type":"Feature"},
	{"geometry":{"coordinates":[7.855121,49.844899],"type":"Point"},"properties":{"osm_id":"8464042845","tag":{"amenity":"waste_basket"}},"type":"Feature"},
	{"geometry":{"coordinates":[7.855244,49.845118],"type":"Point"},"properties":{"osm_id":"8464042846","tag":{"amenity":"waste_basket"}},"type":"Feature"},
	{"geometry":{"coordinates":[7.865609,49.845806],"type":"Point"},"properties":{"osm_id":"9100348118","tag":{"amenity":"recycling","recycling:glass":"yes","recycling_type":"container"}},"type":"Feature"},
	{"geometry":{"coordinates":[7.858496,49.841815],"type":"Point"},"properties":{"osm_id":"9123072001","tag":{"amenity":"waste_basket"}},"type":"Feature"}
]
}
