{
"type": "FeatureCollection",
"features": [
	{"geometry":{"coordinates":[7.860372,49.83034],"type":"Point"},"properties":{"osm_id":"330704661","tag":{"amenity":"recycling","recycling:clothes":"no","recycling:glass_bottles":"yes","recycling_type":"container"}},"type":"Feature"},
	{"geometry":{"coordinates":[7.877723,49.830349],"type":"Point"},"properties":{"osm_id":"687635182","tag":{"amenity":"recycling","recycling:batteries":"no","recycling:glass":"yes"}},"type":"Feature"},
	{"geometry":{"coordinates":[7.872373,49.829527],"type":"Point"},"properties":{"osm_id":"688035655","tag":{"amenity":"recycling","location":"overground","recycling:glass":"yes","recycling_type":"container"}},"type":"Feature"},
	{"geometry":{"coordinates":[7.859658,49.834565],"type":"Point"},"properties":{"osm_id":"692286308","tag":{"amenity":"recycling","location":"overground","recycling:clothes":"yes","recycling:glass":"yes","recycling_type":"container"}},"type":"Feature"},
	{"geometry":{"coordinates":[7.885902,49.833217],"type":"Point"},"properties":{"osm_id":"1582917167","tag":{"amenity":"recycling","recycling:clothes":"yes","recycling:glass":"yes"}},"type":"Feature"},
	{"geometry":{"coordinates":[7.864076,49.821995],"type":"Point"},"properties":{"osm_id":"1800666498","tag":{"amenity":"recycling","recycling:clothes":"yes","recycling:glass":"yes","recycling_type":"container"}},"type":"Feature"},
	{"geometry":{"coordinates":[7.863102,49.824953],"type":"Point"},"properties":{"osm_id":"1800666500","tag":{"amenity":"recycling","recycling:clothes":"yes","recycling_type":"container"}},"type":"Feature"},
	{"geometry":{"coordinates":[7.88638,49.834791],"type":"Point"},"properties":{"osm_id":"1809958121","tag":{"amenity":"recycling","location":"overground","recycling:clothes":"yes","recycling:glass":"yes","recycling_type":"container"}},"type":"Feature"},
	{"geometry":{"coordinates":[7.860134,49.830443],"type":"Point"},"properties":{"osm_id":"1811824719","tag":{"amenity":"recycling","recycling:clothes":"yes","recycling:glass_bottles":"no","recycling_type":"container"}},"type":"Feature"},
	{"geometry":{"coordinates":[7.866729,49.833572],"type":"Point"},"properties":{"osm_id":"1812876291","tag":{"amenity":"recycling","location":"overground","recycling:clothes":"yes","recycling:glass":"yes","recycling_type":"container"}},"type":"Feature"},
	{"geometry":{"coordinates":[7.849257,49.824972],"type":"Point"},"properties":{"osm_id":"1975891036","tag":{"amenity":"recycling","recycling:glass":"yes","recycling_type":"container"}},"type":"Feature"},
	{"geometry":{"coordinates":[7.84956,49.828249],"type":"Point"},"properties":{"osm_id":"3124346170","tag":{"amenity":"waste_disposal","waste":"grey_water"}},"type":"Feature"},
	{"geometry":{"coordinates":[7.904342,49.799914],"type":"Point"},"properties":{"osm_id":"5679537122","tag":{"amenity":"recycling","recycling:glass":"yes","recycling_type":"container"}},"type":"Feature"},
	{"geometry":{"coordinates":[7.84518,49.807014],"type":"Point"},"properties":{"osm_id":"7551254983","tag":{"amenity":"waste_basket"}},"type":"Feature"},
	{"geometry":{"coordinates":[7.8536,49.81894],"type":"Point"},"properties":{"osm_id":"7556497172","tag":{"amenity":"waste_basket"}},"type":"Feature"},
	{"geometry":{"coordinates":[7.902713,49.82979],"type":"Point"},"properties":{"osm_id":"8041914184","tag":{"amenity":"recycling","recycling:glass":"yes","recycling:glass_bottles":"yes","recycling_type":"container"}},"type":"Feature"},
	{"geometry":{"coordinates":[7.847543,49.83027],"type":"Point"},"properties":{"osm_id":"8463998491","tag":{"amenity":"waste_basket"}},"type":"Feature"},
	{"geometry":{"coordinates":[7.847597,49.830934],"type":"Point"},"properties":{"osm_id":"8463998492","tag":{"amenity":"waste_basket"}},"type":"Feature"},
	{"geometry":{"coordinates":[7.847736,49.831616],"type":"Point"},"properties":{"osm_id":"8463998493","tag":{"amenity":"waste_basket"}},"type":"Feature"},
	{"geometry":{"coordinates":[7.848075,49.832916],"type":"Point"},"properties":{"osm_id":"8463998494","tag":{"amenity":"waste_basket"}},"type":"Feature"},
	{"geometry":{"coordinates":[7.848806,49.834498],"type":"Point"},"properties":{"osm_id":"8463998496","tag":{"amenity":"waste_basket"}},"type":"Feature"},
	{"geometry":{"coordinates":[7.849965,49.836807],"type":"Point"},"properties":{"osm_id":"8463998499","tag":{"amenity":"waste_basket"}},"type":"Feature"},
	{"geometry":{"coordinates":[7.850105,49.837005],"type":"Point"},"properties":{"osm_id":"8463998501","tag":{"amenity":"waste_basket"}},"type":"Feature"},
	{"geometry":{"coordinates":[7.852355,49.837834],"type":"Point"},"properties":{"osm_id":"8464042839","tag":{"amenity":"waste_basket"}},"type":"Feature"},
	{"geometry":{"coordinates":[7.850743,49.82562],"type":"Point"},"properties":{"osm_id":"8661418217","tag":{"amenity":"waste_basket","survey:date":"2021-04-24","waste":"trash"}},"type":"Feature"},
	{"geometry":{"coordinates":[7.849396,49.829374],"type":"Point"},"properties":{"osm_id":"9100348117","tag":{"amenity":"recycling","recycling:glass":"yes","recycling_type":"container"}},"type":"Feature"}
]
}
