{
"type": "FeatureCollection",
"lastupdate": "2020-07-31T00:00:00Z",
"features": [
	{"geometry":{"coordinates":[7.856141,49.509679],"type":"Point"},"properties":{"name":"Gr\u00c3\u00bcnabfallsammelstelle Sembach","osm_id":"3085175553","tag":{"amenity":"recycling","opening_hours":"We 13:00-19:00; Sa 09:00-17:00","operator":"Landkreis Kaiserslautern","recycling:garden_waste":"yes","recycling:green_waste":"yes","recycling_type":"centre"}},"type":"Feature"},
	{"geometry":{"coordinates":[7.887765,49.550558],"type":"Point"},"properties":{"osm_id":"3664667120","tag":{"amenity":"waste_basket"}},"type":"Feature"},
	{"geometry":{"coordinates":[7.887639,49.550206],"type":"Point"},"properties":{"osm_id":"3664667604","tag":{"amenity":"waste_basket"}},"type":"Feature"},
	{"geometry":{"coordinates":[7.887492,49.550261],"type":"Point"},"properties":{"osm_id":"3664667611","tag":{"amenity":"waste_basket"}},"type":"Feature"},
	{"geometry":{"coordinates":[7.887919,49.550508],"type":"Point"},"properties":{"osm_id":"3664667630","tag":{"amenity":"waste_basket"}},"type":"Feature"},
	{"geometry":{"coordinates":[7.888116,49.550767],"type":"Point"},"properties":{"osm_id":"3664667746","tag":{"amenity":"waste_basket"}},"type":"Feature"},
	{"geometry":{"coordinates":[7.887924,49.550824],"type":"Point"},"properties":{"osm_id":"3664667755","tag":{"amenity":"waste_basket"}},"type":"Feature"},
	{"geometry":{"coordinates":[7.88813,49.551459],"type":"Point"},"properties":{"osm_id":"5525509094","tag":{"amenity":"recycling"}},"type":"Feature"}
]
}
