{
"type": "FeatureCollection",
"features": [
	{"geometry":{"coordinates":[7.864277,48.493434],"type":"Point"},"properties":{"osm_id":"1255698631","tag":{"amenity":"recycling","recycling:glass":"yes","recycling_type":"container"}},"type":"Feature"},
	{"geometry":{"coordinates":[7.876733,48.474104],"type":"Point"},"properties":{"osm_id":"1290205585","tag":{"amenity":"recycling","recycling_type":"container"}},"type":"Feature"},
	{"geometry":{"coordinates":[7.878615,48.463831],"type":"Point"},"properties":{"osm_id":"3715377028","tag":{"amenity":"recycling","count":"4","operator":"Deutsches Rotes Kreuz","recycling:clothes":"yes","recycling_type":"container"}},"type":"Feature"},
	{"geometry":{"coordinates":[7.878708,48.463922],"type":"Point"},"properties":{"osm_id":"3715377029","tag":{"amenity":"recycling","count":"4","recycling:glass":"yes","recycling_type":"container"}},"type":"Feature"},
	{"geometry":{"coordinates":[7.883785,48.45845],"type":"Point"},"properties":{"osm_id":"4353823343","tag":{"amenity":"recycling","capacity":"2","lastcheck":"2016-08-17","operator":"Neue Arbeit Lahr","recycling:clothes":"yes","recycling_type":"container"}},"type":"Feature"},
	{"geometry":{"coordinates":[7.883747,48.45845],"type":"Point"},"properties":{"osm_id":"4353823344","tag":{"amenity":"recycling","capacity":"2","lastcheck":"2016-08-17","operator":"Deutsches Rotes Kreuz","recycling:clothes":"yes","recycling_type":"container"}},"type":"Feature"},
	{"geometry":{"coordinates":[7.883117,48.458559],"type":"Point"},"properties":{"osm_id":"4353823354","tag":{"amenity":"recycling","recycling:glass":"yes","recycling_type":"container"}},"type":"Feature"},
	{"geometry":{"coordinates":[7.883909,48.458919],"type":"Point"},"properties":{"osm_id":"5754542873","tag":{"amenity":"waste_basket"}},"type":"Feature"},
	{"geometry":{"coordinates":[7.884619,48.458595],"type":"Point"},"properties":{"osm_id":"5754556973","tag":{"amenity":"waste_basket"}},"type":"Feature"},
	{"geometry":{"coordinates":[7.88447,48.459058],"type":"Point"},"properties":{"osm_id":"5754564251","tag":{"amenity":"waste_basket"}},"type":"Feature"},
	{"geometry":{"coordinates":[7.884395,48.459462],"type":"Point"},"properties":{"osm_id":"5754574126","tag":{"amenity":"waste_basket"}},"type":"Feature"},
	{"geometry":{"coordinates":[7.883983,48.459598],"type":"Point"},"properties":{"osm_id":"5754576163","tag":{"amenity":"waste_basket"}},"type":"Feature"},
	{"geometry":{"coordinates":[7.884065,48.459508],"type":"Point"},"properties":{"osm_id":"5754576276","tag":{"amenity":"waste_basket"}},"type":"Feature"},
	{"geometry":{"coordinates":[7.883868,48.459237],"type":"Point"},"properties":{"osm_id":"5754582141","tag":{"amenity":"waste_basket"}},"type":"Feature"}
]
}
