{
"type": "FeatureCollection",
"features": [
	{"geometry":{"coordinates":[7.863631,48.338556],"type":"Point"},"properties":{"osm_id":"329999953","tag":{"amenity":"recycling","mapillary":"rMb3jCpcoQnBNQlVobtplA","recycling:glass":"yes","recycling_type":"container","survey:date":"2019-06-16"}},"type":"Feature"},
	{"geometry":{"coordinates":[7.863657,48.338526],"type":"Point"},"properties":{"osm_id":"332596804","tag":{"amenity":"recycling","mapillary":"rMb3jCpcoQnBNQlVobtplA","recycling:clothes":"yes","recycling_type":"container","survey:date":"2019-06-16"}},"type":"Feature"},
	{"geometry":{"coordinates":[7.880332,48.340966],"type":"Point"},"properties":{"osm_id":"332612965","tag":{"amenity":"recycling","recycling:glass":"yes","recycling_type":"container"}},"type":"Feature"},
	{"geometry":{"coordinates":[7.880346,48.340953],"type":"Point"},"properties":{"osm_id":"332612966","tag":{"amenity":"recycling","recycling:clothes":"yes","recycling_type":"container"}},"type":"Feature"},
	{"geometry":{"coordinates":[7.853713,48.33951],"type":"Point"},"properties":{"osm_id":"332612967","tag":{"amenity":"recycling","recycling:clothes":"yes"}},"type":"Feature"},
	{"geometry":{"coordinates":[7.901106,48.341231],"type":"Point"},"properties":{"osm_id":"457400525","tag":{"amenity":"recycling"}},"type":"Feature"},
	{"geometry":{"coordinates":[7.839179,48.339118],"type":"Point"},"properties":{"osm_id":"659681828","tag":{"amenity":"recycling","recycling:glass":"yes","recycling_type":"container"}},"type":"Feature"},
	{"geometry":{"coordinates":[7.834118,48.335706],"type":"Point"},"properties":{"osm_id":"660113889","tag":{"amenity":"recycling","recycling:glass":"yes"}},"type":"Feature"},
	{"geometry":{"coordinates":[7.823725,48.33169],"type":"Point"},"properties":{"osm_id":"1244189056","tag":{"amenity":"recycling","recycling:clothes":"yes"}},"type":"Feature"},
	{"geometry":{"coordinates":[7.823875,48.331569],"type":"Point"},"properties":{"osm_id":"1244189072","tag":{"amenity":"recycling","mapillary":"Fn7BmVAStKWVb4GUcQKvhw","recycling:glass":"yes","recycling_type":"container","survey:date":"2019-06-21"}},"type":"Feature"},
	{"geometry":{"coordinates":[7.904032,48.337894],"type":"Point"},"properties":{"osm_id":"1263477072","tag":{"amenity":"recycling"}},"type":"Feature"},
	{"geometry":{"coordinates":[7.853169,48.315361],"type":"Point"},"properties":{"barrier":"lift_gate","osm_id":"1586573024","tag":{"access":"no","access:conditional":"yes@(Mo-Fr 08:00-12:30,13:00-16:45; Sa 08:00-13:00)"}},"type":"Feature"},
	{"geometry":{"coordinates":[7.864732,48.289608],"type":"Point"},"properties":{"osm_id":"2709532968","tag":{"amenity":"waste_basket"}},"type":"Feature"},
	{"geometry":{"coordinates":[7.86981,48.33788],"type":"Point"},"properties":{"osm_id":"3269645213","tag":{"amenity":"recycling","recycling:clothes":"yes","recycling_type":"container"}},"type":"Feature"},
	{"geometry":{"coordinates":[7.866556,48.33708],"type":"Point"},"properties":{"osm_id":"3269645214","tag":{"amenity":"recycling","recycling:cans":"no","recycling:clothes":"no","recycling:glass":"yes","recycling:glass_bottles":"yes","recycling:paper":"no","recycling_type":"container"}},"type":"Feature"},
	{"geometry":{"coordinates":[7.861295,48.332786],"type":"Point"},"properties":{"osm_id":"4286785105","tag":{"amenity":"recycling","recycling:glass":"no","recycling:glass_bottles":"yes","recycling_type":"container"}},"type":"Feature"},
	{"geometry":{"coordinates":[7.873963,48.333955],"type":"Point"},"properties":{"osm_id":"4290949320","tag":{"amenity":"recycling","recycling:glass":"yes","recycling_type":"container"}},"type":"Feature"},
	{"geometry":{"coordinates":[7.835882,48.341249],"type":"Point"},"properties":{"osm_id":"5251562651","tag":{"amenity":"waste_basket"}},"type":"Feature"},
	{"geometry":{"coordinates":[7.836071,48.341529],"type":"Point"},"properties":{"osm_id":"5251562652","tag":{"amenity":"waste_basket"}},"type":"Feature"},
	{"geometry":{"coordinates":[7.866951,48.340202],"type":"Point"},"properties":{"osm_id":"5265270867","tag":{"amenity":"recycling","recycling:glass_bottles":"yes","recycling_type":"container"}},"type":"Feature"},
	{"geometry":{"coordinates":[7.835714,48.341026],"type":"Point"},"properties":{"osm_id":"5265293341","tag":{"amenity":"waste_basket"}},"type":"Feature"},
	{"geometry":{"coordinates":[7.835872,48.341558],"type":"Point"},"properties":{"osm_id":"5295544067","tag":{"amenity":"waste_basket"}},"type":"Feature"},
	{"geometry":{"coordinates":[7.835621,48.341171],"type":"Point"},"properties":{"osm_id":"5369775189","tag":{"amenity":"waste_basket"}},"type":"Feature"},
	{"geometry":{"coordinates":[7.835737,48.341357],"type":"Point"},"properties":{"osm_id":"5389145149","tag":{"amenity":"waste_basket"}},"type":"Feature"},
	{"geometry":{"coordinates":[7.835786,48.341415],"type":"Point"},"properties":{"osm_id":"5389145150","tag":{"amenity":"waste_basket"}},"type":"Feature"},
	{"geometry":{"coordinates":[7.835682,48.340877],"type":"Point"},"properties":{"highway":"elevator","osm_id":"5426267129","tag":{"access":"yes","description":"zum Gleis 1/3","level":"-1;0","ref:operator_inventory":"10529715","ref:station":"3494","wheelchair":"yes"}},"type":"Feature"},
	{"geometry":{"coordinates":[7.847033,48.333391],"type":"Point"},"properties":{"osm_id":"5735929511","tag":{"amenity":"recycling","recycling:glass_bottles":"yes","recycling_type":"container"}},"type":"Feature"},
	{"geometry":{"coordinates":[7.899332,48.309511],"type":"Point"},"properties":{"osm_id":"5760591097","tag":{"amenity":"recycling","recycling:glass":"yes","recycling:glass_bottles":"yes","recycling_type":"container"}},"type":"Feature"},
	{"geometry":{"coordinates":[7.900416,48.309023],"type":"Point"},"properties":{"osm_id":"5908437305","tag":{"amenity":"waste_basket"}},"type":"Feature"},
	{"geometry":{"coordinates":[7.848657,48.337737],"type":"Point"},"properties":{"osm_id":"6281069852","tag":{"amenity":"recycling","recycling:glass":"yes","recycling_type":"container"}},"type":"Feature"},
	{"geometry":{"coordinates":[7.861107,48.310742],"type":"Point"},"properties":{"osm_id":"6328507523","tag":{"amenity":"recycling","recycling:glass":"yes","recycling_type":"container"}},"type":"Feature"},
	{"geometry":{"coordinates":[7.860078,48.319637],"type":"Point"},"properties":{"osm_id":"6328507524","tag":{"amenity":"recycling","recycling:clothes":"yes","recycling_type":"container"}},"type":"Feature"},
	{"geometry":{"coordinates":[7.861936,48.320116],"type":"Point"},"properties":{"osm_id":"6328507525","tag":{"amenity":"recycling","recycling:glass":"yes","recycling_type":"container"}},"type":"Feature"},
	{"geometry":{"coordinates":[7.857409,48.341375],"type":"Point"},"properties":{"osm_id":"6416690806","tag":{"amenity":"recycling","recycling:clothes":"yes","recycling:glass":"yes","recycling:glass_bottles":"yes","recycling_type":"container"}},"type":"Feature"},
	{"geometry":{"coordinates":[7.855739,48.339718],"type":"Point"},"properties":{"osm_id":"6439297251","tag":{"amenity":"recycling","recycling:clothes":"yes","recycling:glass":"yes","recycling:glass_bottles":"yes","recycling:shoes":"yes","recycling_type":"container"}},"type":"Feature"},
	{"geometry":{"coordinates":[7.846733,48.340706],"type":"Point"},"properties":{"osm_id":"6440503669","tag":{"amenity":"waste_basket"}},"type":"Feature"},
	{"geometry":{"coordinates":[7.836421,48.331183],"type":"Point"},"properties":{"osm_id":"6480492022","tag":{"amenity":"waste_basket"}},"type":"Feature"},
	{"geometry":{"coordinates":[7.867792,48.338911],"type":"Point"},"properties":{"osm_id":"6572131028","tag":{"amenity":"waste_basket"}},"type":"Feature"},
	{"geometry":{"coordinates":[7.871372,48.336796],"type":"Point"},"properties":{"osm_id":"6576498731","tag":{"amenity":"waste_basket"}},"type":"Feature"},
	{"geometry":{"coordinates":[7.840744,48.332457],"type":"Point"},"properties":{"osm_id":"6581267235","tag":{"amenity":"waste_basket"}},"type":"Feature"},
	{"geometry":{"coordinates":[7.857686,48.340919],"type":"Point"},"properties":{"osm_id":"6741813712","tag":{"amenity":"waste_basket"}},"type":"Feature"},
	{"geometry":{"coordinates":[7.905383,48.335662],"type":"Point"},"properties":{"osm_id":"6790317169","tag":{"amenity":"waste_basket","material":"steel"}},"type":"Feature"},
	{"geometry":{"coordinates":[7.863807,48.31071],"type":"Point"},"properties":{"osm_id":"6864809948","tag":{"amenity":"waste_basket"}},"type":"Feature"},
	{"geometry":{"coordinates":[7.852928,48.336839],"type":"Point"},"properties":{"osm_id":"7428822401","tag":{"amenity":"recycling","recycling_type":"container"}},"type":"Feature"},
	{"geometry":{"coordinates":[7.835554,48.340542],"type":"Point"},"properties":{"osm_id":"7617397723","tag":{"amenity":"waste_basket","waste":"trash"}},"type":"Feature"},
	{"geometry":{"coordinates":[7.835672,48.340662],"type":"Point"},"properties":{"osm_id":"7617397729","tag":{"amenity":"waste_basket","waste":"trash"}},"type":"Feature"},
	{"geometry":{"coordinates":[7.835633,48.340609],"type":"Point"},"properties":{"osm_id":"7617397731","tag":{"amenity":"waste_basket","waste":"trash"}},"type":"Feature"},
	{"geometry":{"coordinates":[7.835675,48.340868],"type":"Point"},"properties":{"osm_id":"7617397743","tag":{"entrance":"yes","level":"-1"}},"type":"Feature"},
	{"geometry":{"coordinates":[7.835231,48.340177],"type":"Point"},"properties":{"osm_id":"7617721300","tag":{"amenity":"waste_basket","waste":"trash"}},"type":"Feature"},
	{"geometry":{"coordinates":[7.835621,48.340388],"type":"Point"},"properties":{"osm_id":"7617721302","tag":{"amenity":"waste_basket","waste":"trash"}},"type":"Feature"},
	{"geometry":{"coordinates":[7.835673,48.340944],"type":"Point"},"properties":{"osm_id":"7617721334","tag":{"amenity":"waste_basket","waste":"trash"}},"type":"Feature"},
	{"geometry":{"coordinates":[7.844195,48.3332],"type":"Point"},"properties":{"osm_id":"7656793445","tag":{"amenity":"recycling","lastcheck":"2020-06-26","operator":"Neue Arbeit Lahr","recycling:clothes":"yes","recycling_type":"container"}},"type":"Feature"},
	{"geometry":{"coordinates":[7.862136,48.340629],"type":"Point"},"properties":{"osm_id":"7913006099","tag":{"amenity":"recycling","recycling:glass":"yes","recycling:glass_bottles":"yes","recycling_type":"container"}},"type":"Feature"}
]
}
