{
"type": "FeatureCollection",
"features": [
	{"geometry":{"coordinates":[7.828059,48.217705],"type":"Point"},"properties":{"name":"Die Johanniter","osm_id":"2584769310","tag":{"amenity":"recycling","recycling:cans":"no","recycling:clothes":"yes","recycling:glass":"no","recycling:paper":"no"}},"type":"Feature"},
	{"geometry":{"coordinates":[7.829601,48.21997],"type":"Point"},"properties":{"osm_id":"2604510685","tag":{"amenity":"waste_basket"}},"type":"Feature"},
	{"geometry":{"coordinates":[7.828899,48.218904],"type":"Point"},"properties":{"osm_id":"2604510706","tag":{"amenity":"waste_basket"}},"type":"Feature"},
	{"geometry":{"coordinates":[7.825284,48.218764],"type":"Point"},"properties":{"osm_id":"2604513325","tag":{"amenity":"waste_basket"}},"type":"Feature"},
	{"geometry":{"coordinates":[7.825446,48.207594],"type":"Point"},"properties":{"osm_id":"2645928361","tag":{"amenity":"waste_basket"}},"type":"Feature"},
	{"geometry":{"coordinates":[7.823105,48.208667],"type":"Point"},"properties":{"osm_id":"2645928528","tag":{"amenity":"waste_basket"}},"type":"Feature"},
	{"geometry":{"coordinates":[7.827496,48.207503],"type":"Point"},"properties":{"osm_id":"2685219067","tag":{"amenity":"recycling","recycling:clothes":"yes"}},"type":"Feature"},
	{"geometry":{"coordinates":[7.826076,48.178973],"type":"Point"},"properties":{"osm_id":"3659313871","tag":{"amenity":"waste_basket"}},"type":"Feature"}
]
}
