{
"type": "FeatureCollection",
"features": [
	{"geometry":{"coordinates":[7.860457,48.112078],"type":"Point"},"properties":{"osm_id":"181733104","tag":{"amenity":"recycling","recycling:glass_bottles":"yes","recycling_type":"container"}},"type":"Feature"},
	{"geometry":{"coordinates":[7.85084,48.109178],"type":"Point"},"properties":{"name":"Recyclinghof Emmendingen","osm_id":"292233748","tag":{"addr:housenumber":"13","addr:street":"Denzlinger Stra\u00c3\u009fe","amenity":"recycling","opening_hours":"Fr 13:00-17:00; Sa 09:00-13:00","recycling:aluminium":"yes","recycling:batteries":"yes","recycling:bicycles":"yes","recycling:cartons":"yes","recycling:chipboard":"yes","recycling:clothes":"yes","recycling:cork":"yes","recycling:electrical_items":"yes","recycling:glass":"yes","recycling:green_waste":"yes","recycling:magazines":"yes","recycling:newspaper":"yes","recycling:plastic":"yes","recycling:plastic_bags":"yes","recycling:scrap_metal":"yes","recycling:sheet_metal":"yes","recycling:shoes":"yes","recycling:small_appliances":"yes","recycling:tv_monitor":"yes","recycling:white_goods":"yes","recycling_type":"centre"}},"type":"Feature"},
	{"geometry":{"coordinates":[7.87671,48.109437],"type":"Point"},"properties":{"osm_id":"300680872","tag":{"amenity":"recycling"}},"type":"Feature"},
	{"geometry":{"coordinates":[7.830122,48.162647],"type":"Point"},"properties":{"osm_id":"357325877","tag":{"amenity":"recycling","recycling:glass":"yes","recycling_type":"container"}},"type":"Feature"},
	{"geometry":{"coordinates":[7.886856,48.12815],"type":"Point"},"properties":{"osm_id":"366666900","tag":{"amenity":"recycling"}},"type":"Feature"},
	{"geometry":{"coordinates":[7.855395,48.116677],"type":"Point"},"properties":{"osm_id":"376996164","tag":{"amenity":"recycling","recycling:glass_bottles":"yes","recycling_type":"container"}},"type":"Feature"},
	{"geometry":{"coordinates":[7.852422,48.118128],"type":"Point"},"properties":{"osm_id":"376999117","tag":{"amenity":"recycling","recycling:glass_bottles":"yes","recycling_type":"container"}},"type":"Feature"},
	{"geometry":{"coordinates":[7.844325,48.127222],"type":"Point"},"properties":{"highway":"bus_stop","name":"Mundinger Stra\u00c3\u009fe","osm_id":"614366810","tag":{"bench":"yes","bus_stop:category":"C","interval":"60","local_ref":"1","operator":"Stadtwerke Emmendingen","ref:RVF":"270401","shelter":"yes","uic_name":"Mundinger Stra\u00c3\u009fe, Emmendingen","uic_ref":"500576"}},"type":"Feature"},
	{"geometry":{"coordinates":[7.843134,48.150435],"type":"Point"},"properties":{"osm_id":"666016329","tag":{"amenity":"recycling","recycling:glass":"yes"}},"type":"Feature"},
	{"geometry":{"coordinates":[7.822802,48.123476],"type":"Point"},"properties":{"osm_id":"834658732","tag":{"amenity":"recycling","operator":"Deutsches Rotes Kreuz","recycling:clothes":"yes","recycling:shoes":"yes","recycling_type":"container"}},"type":"Feature"},
	{"geometry":{"coordinates":[7.876098,48.114083],"type":"Point"},"properties":{"osm_id":"1014967879","tag":{"amenity":"recycling","recycling:glass":"no","recycling:glass_bottles":"yes","recycling_type":"container"}},"type":"Feature"},
	{"geometry":{"coordinates":[7.860458,48.109082],"type":"Point"},"properties":{"osm_id":"1732228299","tag":{"amenity":"recycling","recycling:glass_bottles":"yes","recycling_type":"container"}},"type":"Feature"},
	{"geometry":{"coordinates":[7.822294,48.117851],"type":"Point"},"properties":{"osm_id":"2091394585","tag":{"amenity":"recycling","recycling:glass_bottles":"yes","recycling_type":"container"}},"type":"Feature"},
	{"geometry":{"coordinates":[7.829897,48.127414],"type":"Point"},"properties":{"osm_id":"2136540385","tag":{"amenity":"waste_basket"}},"type":"Feature"},
	{"geometry":{"coordinates":[7.83318,48.12394],"type":"Point"},"properties":{"osm_id":"2218498737","tag":{"amenity":"waste_basket"}},"type":"Feature"},
	{"geometry":{"coordinates":[7.848422,48.119887],"type":"Point"},"properties":{"osm_id":"2273052373","tag":{"amenity":"waste_basket"}},"type":"Feature"},
	{"geometry":{"coordinates":[7.841108,48.118553],"type":"Point"},"properties":{"osm_id":"2295317254","tag":{"amenity":"waste_disposal"}},"type":"Feature"},
	{"geometry":{"coordinates":[7.847165,48.119542],"type":"Point"},"properties":{"osm_id":"2591416188","tag":{"amenity":"waste_basket"}},"type":"Feature"},
	{"geometry":{"coordinates":[7.846434,48.11983],"type":"Point"},"properties":{"osm_id":"2591416201","tag":{"amenity":"waste_basket"}},"type":"Feature"},
	{"geometry":{"coordinates":[7.845821,48.120078],"type":"Point"},"properties":{"osm_id":"2591416211","tag":{"amenity":"waste_basket"}},"type":"Feature"},
	{"geometry":{"coordinates":[7.846828,48.119789],"type":"Point"},"properties":{"osm_id":"3473354059","tag":{"amenity":"waste_basket"}},"type":"Feature"},
	{"geometry":{"coordinates":[7.855,48.11765],"type":"Point"},"properties":{"osm_id":"3473369829","tag":{"amenity":"waste_basket"}},"type":"Feature"},
	{"geometry":{"coordinates":[7.854043,48.118109],"type":"Point"},"properties":{"osm_id":"3473369837","tag":{"amenity":"waste_basket"}},"type":"Feature"},
	{"geometry":{"coordinates":[7.853769,48.118385],"type":"Point"},"properties":{"osm_id":"3473369842","tag":{"amenity":"waste_basket"}},"type":"Feature"},
	{"geometry":{"coordinates":[7.848789,48.119104],"type":"Point"},"properties":{"osm_id":"3473369847","tag":{"amenity":"waste_basket"}},"type":"Feature"},
	{"geometry":{"coordinates":[7.847456,48.119536],"type":"Point"},"properties":{"osm_id":"3473369848","tag":{"amenity":"waste_basket"}},"type":"Feature"},
	{"geometry":{"coordinates":[7.846012,48.120835],"type":"Point"},"properties":{"osm_id":"3473416172","tag":{"amenity":"waste_basket"}},"type":"Feature"},
	{"geometry":{"coordinates":[7.846244,48.120853],"type":"Point"},"properties":{"osm_id":"3473416173","tag":{"amenity":"waste_basket"}},"type":"Feature"},
	{"geometry":{"coordinates":[7.845617,48.120893],"type":"Point"},"properties":{"osm_id":"3473416175","tag":{"amenity":"waste_basket"}},"type":"Feature"},
	{"geometry":{"coordinates":[7.84756,48.119055],"type":"Point"},"properties":{"osm_id":"3488808842","tag":{"amenity":"recycling","recycling:glass_bottles":"yes","recycling_type":"container"}},"type":"Feature"},
	{"geometry":{"coordinates":[7.855451,48.116395],"type":"Point"},"properties":{"osm_id":"3502928775","tag":{"amenity":"recycling","recycling:glass_bottles":"yes","recycling_type":"container"}},"type":"Feature"},
	{"geometry":{"coordinates":[7.85256,48.117241],"type":"Point"},"properties":{"osm_id":"3502928776","tag":{"amenity":"recycling","recycling:glass_bottles":"yes","recycling_type":"container"}},"type":"Feature"},
	{"geometry":{"coordinates":[7.849899,48.116462],"type":"Point"},"properties":{"osm_id":"3502966702","tag":{"amenity":"recycling","operator":"Deutsches Rotes Kreuz","recycling:clothes":"yes","recycling_type":"container"}},"type":"Feature"},
	{"geometry":{"coordinates":[7.849874,48.116505],"type":"Point"},"properties":{"osm_id":"3502966703","tag":{"amenity":"recycling","recycling:glass_bottles":"yes","recycling_type":"container"}},"type":"Feature"},
	{"geometry":{"coordinates":[7.853063,48.117559],"type":"Point"},"properties":{"osm_id":"3502966707","tag":{"amenity":"waste_basket"}},"type":"Feature"},
	{"geometry":{"coordinates":[7.854341,48.111829],"type":"Point"},"properties":{"osm_id":"3608958010","tag":{"amenity":"recycling","recycling:glass_bottles":"yes","recycling_type":"container"}},"type":"Feature"},
	{"geometry":{"coordinates":[7.84338,48.12617],"type":"Point"},"properties":{"osm_id":"4213424570","tag":{"amenity":"recycling","opening_hours":"24/7","operator":"CityGreenPoint","recycling:batteries":"yes","recycling:clothes":"yes","recycling:low_energy_bulbs":"yes","recycling:mobile_phones":"yes","recycling:printer_cartridges":"yes","recycling:shoes":"yes","recycling:small_appliances":"yes","recycling_type":"container"}},"type":"Feature"},
	{"geometry":{"coordinates":[7.844041,48.127693],"type":"Point"},"properties":{"osm_id":"4225276578","tag":{"amenity":"recycling","recycling:glass_bottles":"yes","recycling_type":"container"}},"type":"Feature"},
	{"geometry":{"coordinates":[7.841724,48.128399],"type":"Point"},"properties":{"osm_id":"4226401164","tag":{"amenity":"recycling","recycling:glass_bottles":"yes","recycling_type":"container"}},"type":"Feature"},
	{"geometry":{"coordinates":[7.852828,48.12681],"type":"Point"},"properties":{"osm_id":"4226456106","tag":{"amenity":"waste_basket"}},"type":"Feature"},
	{"geometry":{"coordinates":[7.853562,48.126958],"type":"Point"},"properties":{"osm_id":"4226456107","tag":{"amenity":"recycling","opening_hours":"24/7","operator":"Deutsches Rotes Kreuz","recycling:clothes":"yes","recycling_type":"container"}},"type":"Feature"},
	{"geometry":{"coordinates":[7.839927,48.125489],"type":"Point"},"properties":{"osm_id":"4232424770","tag":{"amenity":"recycling","operator":"Deutsches Rotes Kreuz","recycling:clothes":"yes","recycling:shoes":"yes","recycling_type":"container"}},"type":"Feature"},
	{"geometry":{"coordinates":[7.839982,48.125492],"type":"Point"},"properties":{"osm_id":"4232424771","tag":{"amenity":"recycling","recycling:glass_bottles":"yes","recycling_type":"container"}},"type":"Feature"},
	{"geometry":{"coordinates":[7.847734,48.122014],"type":"Point"},"properties":{"osm_id":"4240099944","tag":{"amenity":"waste_basket"}},"type":"Feature"},
	{"geometry":{"coordinates":[7.846575,48.123278],"type":"Point"},"properties":{"osm_id":"4240104760","tag":{"amenity":"recycling","recycling:glass_bottles":"yes","recycling_type":"container"}},"type":"Feature"},
	{"geometry":{"coordinates":[7.846008,48.123533],"type":"Point"},"properties":{"osm_id":"4240104761","tag":{"amenity":"waste_basket"}},"type":"Feature"},
	{"geometry":{"coordinates":[7.845566,48.123888],"type":"Point"},"properties":{"osm_id":"4240104762","tag":{"amenity":"waste_basket"}},"type":"Feature"},
	{"geometry":{"coordinates":[7.848152,48.12341],"type":"Point"},"properties":{"osm_id":"4252799913","tag":{"amenity":"waste_basket"}},"type":"Feature"},
	{"geometry":{"coordinates":[7.851213,48.121833],"type":"Point"},"properties":{"osm_id":"4252900462","tag":{"amenity":"waste_basket"}},"type":"Feature"},
	{"geometry":{"coordinates":[7.849873,48.122528],"type":"Point"},"properties":{"osm_id":"4252900480","tag":{"amenity":"recycling","operator":"Kolping","recycling:clothes":"yes","recycling:shoes":"yes","recycling_type":"container"}},"type":"Feature"},
	{"geometry":{"coordinates":[7.850555,48.122873],"type":"Point"},"properties":{"osm_id":"4252900488","tag":{"amenity":"waste_basket"}},"type":"Feature"},
	{"geometry":{"coordinates":[7.859483,48.118143],"type":"Point"},"properties":{"osm_id":"4252997724","tag":{"amenity":"waste_basket"}},"type":"Feature"},
	{"geometry":{"coordinates":[7.863549,48.108581],"type":"Point"},"properties":{"osm_id":"4801917912","tag":{"amenity":"recycling","recycling:clothes":"yes","recycling_type":"container"}},"type":"Feature"},
	{"geometry":{"coordinates":[7.867383,48.113984],"type":"Point"},"properties":{"osm_id":"5762402465","tag":{"amenity":"waste_basket"}},"type":"Feature"},
	{"geometry":{"coordinates":[7.868301,48.113685],"type":"Point"},"properties":{"osm_id":"5762402466","tag":{"amenity":"waste_basket"}},"type":"Feature"},
	{"geometry":{"coordinates":[7.868907,48.113487],"type":"Point"},"properties":{"osm_id":"5762402469","tag":{"amenity":"waste_basket"}},"type":"Feature"},
	{"geometry":{"coordinates":[7.870297,48.113029],"type":"Point"},"properties":{"osm_id":"5762402471","tag":{"amenity":"waste_basket"}},"type":"Feature"},
	{"geometry":{"coordinates":[7.871022,48.112795],"type":"Point"},"properties":{"osm_id":"5762402473","tag":{"amenity":"waste_basket"}},"type":"Feature"},
	{"geometry":{"coordinates":[7.87162,48.112616],"type":"Point"},"properties":{"osm_id":"5762402475","tag":{"amenity":"waste_basket"}},"type":"Feature"},
	{"geometry":{"coordinates":[7.876243,48.109326],"type":"Point"},"properties":{"osm_id":"5762402477","tag":{"amenity":"waste_basket"}},"type":"Feature"},
	{"geometry":{"coordinates":[7.864851,48.114805],"type":"Point"},"properties":{"osm_id":"5762422586","tag":{"amenity":"waste_basket"}},"type":"Feature"},
	{"geometry":{"coordinates":[7.861957,48.116647],"type":"Point"},"properties":{"osm_id":"5762422589","tag":{"amenity":"waste_basket"}},"type":"Feature"},
	{"geometry":{"coordinates":[7.854241,48.117869],"type":"Point"},"properties":{"osm_id":"5762422590","tag":{"amenity":"waste_basket"}},"type":"Feature"},
	{"geometry":{"coordinates":[7.840179,48.149892],"type":"Point"},"properties":{"osm_id":"6700275785","tag":{"amenity":"waste_basket"}},"type":"Feature"},
	{"geometry":{"coordinates":[7.850808,48.108565],"type":"Point"},"properties":{"name":"Gr\u00c3\u00bcnschnittplatz","osm_id":"7849863242","tag":{"addr:housenumber":"13","addr:street":"Denzlinger Stra\u00c3\u009fe","amenity":"recycling","opening_hours":"Fr 13:00-17:00; Sa 09:00-13:00","recycling:aluminium":"yes","recycling:batteries":"yes","recycling:bicycles":"yes","recycling:cartons":"yes","recycling:chipboard":"yes","recycling:clothes":"yes","recycling:cork":"yes","recycling:electrical_items":"yes","recycling:glass":"yes","recycling:green_waste":"yes","recycling:magazines":"yes","recycling:newspaper":"yes","recycling:plastic":"yes","recycling:plastic_bags":"yes","recycling:scrap_metal":"yes","recycling:sheet_metal":"yes","recycling:shoes":"yes","recycling:small_appliances":"yes","recycling:tv_monitor":"yes","recycling:white_goods":"yes","recycling_type":"centre"}},"type":"Feature"}
]
}
