{
"type": "FeatureCollection",
"features": [
	{"geometry":{"coordinates":[7.859549,48.09773],"type":"Point"},"properties":{"osm_id":"298403832","tag":{"amenity":"recycling","recycling:clothes":"yes","recycling:glass":"yes","recycling_type":"container"}},"type":"Feature"},
	{"geometry":{"coordinates":[7.894976,48.064168],"type":"Point"},"properties":{"osm_id":"305967621","tag":{"amenity":"recycling","recycling:glass_bottles":"yes","recycling_type":"container"}},"type":"Feature"},
	{"geometry":{"coordinates":[7.883801,48.074665],"type":"Point"},"properties":{"osm_id":"371704110","tag":{"amenity":"recycling","recycling:glass_bottles":"yes","recycling_type":"container"}},"type":"Feature"},
	{"geometry":{"coordinates":[7.871737,48.049065],"type":"Point"},"properties":{"osm_id":"427540719","tag":{"amenity":"recycling","recycling:clothes":"yes","recycling:glass_bottles":"yes","recycling_type":"container"}},"type":"Feature"},
	{"geometry":{"coordinates":[7.863366,48.105553],"type":"Point"},"properties":{"osm_id":"450690125","tag":{"amenity":"recycling","recycling:clothes":"yes","recycling_type":"container"}},"type":"Feature"},
	{"geometry":{"coordinates":[7.867278,48.104271],"type":"Point"},"properties":{"osm_id":"450690127","tag":{"amenity":"recycling","recycling:glass_bottles":"yes","recycling_type":"container"}},"type":"Feature"},
	{"geometry":{"coordinates":[7.861431,48.102164],"type":"Point"},"properties":{"osm_id":"450690128","tag":{"amenity":"recycling","recycling:glass_bottles":"yes","recycling_type":"container"}},"type":"Feature"},
	{"geometry":{"coordinates":[7.907213,48.100061],"type":"Point"},"properties":{"osm_id":"588684489","tag":{"amenity":"recycling","recycling:glass":"yes","recycling_type":"container"}},"type":"Feature"},
	{"geometry":{"coordinates":[7.909074,48.086058],"type":"Point"},"properties":{"osm_id":"658922871","tag":{"amenity":"waste_basket"}},"type":"Feature"},
	{"geometry":{"coordinates":[7.871073,48.104854],"type":"Point"},"properties":{"osm_id":"754072125","tag":{"amenity":"recycling","recycling:clothes":"yes","recycling:glass_bottles":"yes","recycling_type":"container"}},"type":"Feature"},
	{"geometry":{"coordinates":[7.891644,48.070363],"type":"Point"},"properties":{"osm_id":"1590089861","tag":{"amenity":"recycling","recycling:clothes":"yes","recycling_type":"container"}},"type":"Feature"},
	{"geometry":{"coordinates":[7.895581,48.067614],"type":"Point"},"properties":{"osm_id":"1590101125","tag":{"amenity":"recycling","opening_hours":"Mo-Sa 08:00-20:00; Su,PH off","recycling:glass":"yes","recycling:glass_bottles":"yes","recycling_type":"container","wheelchair":"yes"}},"type":"Feature"},
	{"geometry":{"coordinates":[7.842405,48.061586],"type":"Point"},"properties":{"osm_id":"1591584116","tag":{"amenity":"recycling","recycling:clothes":"yes","recycling:glass_bottles":"yes","recycling_type":"container"}},"type":"Feature"},
	{"geometry":{"coordinates":[7.891097,48.06712],"type":"Point"},"properties":{"osm_id":"1705493710","tag":{"amenity":"recycling","opening_hours":"Mo-Sa 08:00-20:00; Su,PH off","recycling:glass":"yes","recycling_type":"container"}},"type":"Feature"},
	{"geometry":{"coordinates":[7.902977,48.073744],"type":"Point"},"properties":{"osm_id":"2032017646","tag":{"amenity":"recycling","recycling:clothes":"yes","recycling:glass_bottles":"yes","recycling:paper":"yes","recycling_type":"container"}},"type":"Feature"},
	{"geometry":{"coordinates":[7.898451,48.06965],"type":"Point"},"properties":{"osm_id":"2093274254","tag":{"amenity":"recycling","recycling_type":"container"}},"type":"Feature"},
	{"geometry":{"coordinates":[7.887694,48.07035],"type":"Point"},"properties":{"osm_id":"2093905291","tag":{"amenity":"recycling","recycling:glass_bottles":"yes","recycling_type":"container"}},"type":"Feature"},
	{"geometry":{"coordinates":[7.907227,48.069472],"type":"Point"},"properties":{"osm_id":"2096161179","tag":{"amenity":"recycling","recycling_type":"container"}},"type":"Feature"},
	{"geometry":{"coordinates":[7.90738,48.090998],"type":"Point"},"properties":{"osm_id":"2183921010","tag":{"amenity":"waste_basket"}},"type":"Feature"},
	{"geometry":{"coordinates":[7.877519,48.066029],"type":"Point"},"properties":{"osm_id":"2318253119","tag":{"amenity":"recycling","recycling:glass_bottles":"yes","recycling_type":"container"}},"type":"Feature"},
	{"geometry":{"coordinates":[7.847188,48.062296],"type":"Point"},"properties":{"osm_id":"2440558419","tag":{"amenity":"recycling","recycling_type":"container"}},"type":"Feature"},
	{"geometry":{"coordinates":[7.881724,48.070027],"type":"Point"},"properties":{"osm_id":"2440598124","tag":{"amenity":"recycling","recycling:glass":"yes","recycling:paper":"yes","recycling_type":"container"}},"type":"Feature"},
	{"geometry":{"coordinates":[7.845316,48.067913],"type":"Point"},"properties":{"osm_id":"2443283967","tag":{"amenity":"recycling","recycling_type":"container"}},"type":"Feature"},
	{"geometry":{"coordinates":[7.830091,48.085034],"type":"Point"},"properties":{"osm_id":"2941892605","tag":{"amenity":"recycling","recycling:clothes":"yes","recycling:shoes":"yes","recycling_type":"container"}},"type":"Feature"},
	{"geometry":{"coordinates":[7.862314,48.106375],"type":"Point"},"properties":{"osm_id":"3211159373","tag":{"amenity":"recycling","recycling:glass_bottles":"yes","recycling_type":"container"}},"type":"Feature"},
	{"geometry":{"coordinates":[7.858166,48.098],"type":"Point"},"properties":{"osm_id":"3636026936","tag":{"amenity":"recycling","recycling:clothes":"yes","recycling:glass":"no","recycling_type":"container"}},"type":"Feature"},
	{"geometry":{"coordinates":[7.887587,48.065743],"type":"Point"},"properties":{"osm_id":"3783494659","tag":{"amenity":"recycling","recycling:glass":"yes","recycling:shoes":"yes","recycling_type":"container","wheelchair":"limited"}},"type":"Feature"},
	{"geometry":{"coordinates":[7.877354,48.075888],"type":"Point"},"properties":{"osm_id":"3800989857","tag":{"amenity":"recycling","recycling:glass":"yes","recycling_type":"container"}},"type":"Feature"},
	{"geometry":{"coordinates":[7.905881,48.056282],"type":"Point"},"properties":{"osm_id":"3819112558","tag":{"amenity":"recycling","recycling:clothes":"yes","recycling:glass":"yes","recycling_type":"container"}},"type":"Feature"},
	{"geometry":{"coordinates":[7.90784,48.062704],"type":"Point"},"properties":{"osm_id":"4440574378","tag":{"amenity":"waste_basket","waste":"dog_excrement"}},"type":"Feature"},
	{"geometry":{"coordinates":[7.866567,48.106504],"type":"Point"},"properties":{"osm_id":"4801917897","tag":{"amenity":"recycling","recycling:glass_bottles":"yes","recycling_type":"container"}},"type":"Feature"},
	{"geometry":{"coordinates":[7.834538,48.093007],"type":"Point"},"properties":{"osm_id":"5046424110","tag":{"amenity":"waste_basket"}},"type":"Feature"},
	{"geometry":{"coordinates":[7.871673,48.050745],"type":"Point"},"properties":{"osm_id":"6506315179","tag":{"amenity":"waste_basket","waste":"dog_excrement"}},"type":"Feature"},
	{"geometry":{"coordinates":[7.880179,48.064486],"type":"Point"},"properties":{"osm_id":"6506643939","tag":{"amenity":"recycling","recycling:glass":"yes","recycling_type":"container"}},"type":"Feature"},
	{"geometry":{"coordinates":[7.880195,48.064566],"type":"Point"},"properties":{"osm_id":"6506643940","tag":{"amenity":"recycling","colour":"red","operator":"Malteser","recycling:clothes":"yes","recycling_type":"container"}},"type":"Feature"},
	{"geometry":{"coordinates":[7.896071,48.096163],"type":"Point"},"properties":{"osm_id":"6562208786","tag":{"amenity":"waste_basket"}},"type":"Feature"},
	{"geometry":{"coordinates":[7.909314,48.09273],"type":"Point"},"properties":{"osm_id":"6580148895","tag":{"amenity":"waste_basket"}},"type":"Feature"},
	{"geometry":{"coordinates":[7.909007,48.097345],"type":"Point"},"properties":{"osm_id":"6580148896","tag":{"amenity":"waste_basket"}},"type":"Feature"},
	{"geometry":{"coordinates":[7.905443,48.098157],"type":"Point"},"properties":{"osm_id":"6580148900","tag":{"amenity":"waste_basket"}},"type":"Feature"},
	{"geometry":{"coordinates":[7.905134,48.095787],"type":"Point"},"properties":{"osm_id":"6580148902","tag":{"amenity":"waste_basket"}},"type":"Feature"},
	{"geometry":{"coordinates":[7.898444,48.097407],"type":"Point"},"properties":{"osm_id":"6627558101","tag":{"amenity":"waste_basket"}},"type":"Feature"},
	{"geometry":{"coordinates":[7.898214,48.097259],"type":"Point"},"properties":{"osm_id":"6627560589","tag":{"amenity":"waste_basket"}},"type":"Feature"},
	{"geometry":{"coordinates":[7.898285,48.097298],"type":"Point"},"properties":{"osm_id":"6627568596","tag":{"amenity":"waste_basket"}},"type":"Feature"},
	{"geometry":{"coordinates":[7.898032,48.09713],"type":"Point"},"properties":{"osm_id":"6627568597","tag":{"amenity":"waste_basket"}},"type":"Feature"},
	{"geometry":{"coordinates":[7.896302,48.096175],"type":"Point"},"properties":{"osm_id":"6627569186","tag":{"amenity":"waste_basket"}},"type":"Feature"},
	{"geometry":{"coordinates":[7.881228,48.100709],"type":"Point"},"properties":{"osm_id":"7043529624","tag":{"amenity":"recycling","operator":"Stadt Emmendingen","recycling:glass_bottles":"yes","recycling_type":"container"}},"type":"Feature"},
	{"geometry":{"coordinates":[7.86067,48.098282],"type":"Point"},"properties":{"name":"Glascontainer","osm_id":"7294340908","tag":{"amenity":"recycling"}},"type":"Feature"},
	{"geometry":{"coordinates":[7.894981,48.072709],"type":"Point"},"properties":{"osm_id":"7363484059","tag":{"amenity":"recycling","recycling:glass":"yes","recycling_type":"container"}},"type":"Feature"},
	{"geometry":{"coordinates":[7.877477,48.076506],"type":"Point"},"properties":{"osm_id":"7376162240","tag":{"amenity":"recycling","recycling:glass_bottles":"yes","recycling_type":"container"}},"type":"Feature"},
	{"geometry":{"coordinates":[7.894584,48.069857],"type":"Point"},"properties":{"osm_id":"7412478920","tag":{"amenity":"recycling","recycling:glass":"yes","recycling_type":"container"}},"type":"Feature"}
]
}
