{
"type": "FeatureCollection",
"features": [
	{"geometry":{"coordinates":[7.853793,47.984742],"type":"Point"},"properties":{"osm_id":"24977411","tag":{"amenity":"recycling","recycling:glass":"yes","recycling_type":"container"}},"type":"Feature"},
	{"geometry":{"coordinates":[7.854164,47.982648],"type":"Point"},"properties":{"osm_id":"25149959","tag":{"amenity":"recycling","recycling:clothes":"yes","recycling:glass_bottles":"yes","recycling_type":"container"}},"type":"Feature"},
	{"geometry":{"coordinates":[7.843561,47.983381],"type":"Point"},"properties":{"osm_id":"25236920","tag":{"amenity":"recycling","recycling:clothes":"yes","recycling:glass":"yes","recycling_type":"container"}},"type":"Feature"},
	{"geometry":{"coordinates":[7.841686,47.978248],"type":"Point"},"properties":{"osm_id":"25236922","tag":{"amenity":"recycling","recycling:clothes":"yes"}},"type":"Feature"},
	{"geometry":{"coordinates":[7.847232,47.97962],"type":"Point"},"properties":{"osm_id":"25236938","tag":{"amenity":"recycling","recycling:clothes":"yes","recycling:glass":"yes","recycling_type":"container"}},"type":"Feature"},
	{"geometry":{"coordinates":[7.849316,47.981444],"type":"Point"},"properties":{"osm_id":"25236942","tag":{"amenity":"recycling","recycling:clothes":"yes","recycling:glass":"yes","recycling_type":"container"}},"type":"Feature"},
	{"geometry":{"coordinates":[7.839011,47.988108],"type":"Point"},"properties":{"osm_id":"31444110","tag":{"amenity":"recycling","location":"overground","recycling:glass":"yes","recycling_type":"container"}},"type":"Feature"},
	{"geometry":{"coordinates":[7.830881,47.97455],"type":"Point"},"properties":{"osm_id":"31446195","tag":{"amenity":"recycling","recycling:clothes":"yes","recycling:glass":"yes","recycling_type":"container"}},"type":"Feature"},
	{"geometry":{"coordinates":[7.825746,47.974718],"type":"Point"},"properties":{"osm_id":"31447264","tag":{"amenity":"recycling","recycling:clothes":"yes","recycling:electrical_appliances":"yes","recycling:glass":"yes","recycling:shoes":"yes","recycling_type":"container"}},"type":"Feature"},
	{"geometry":{"coordinates":[7.891473,47.985303],"type":"Point"},"properties":{"osm_id":"71310611","tag":{"amenity":"recycling","recycling:glass":"yes","recycling_type":"container"}},"type":"Feature"},
	{"geometry":{"coordinates":[7.887841,47.986144],"type":"Point"},"properties":{"osm_id":"71310628","tag":{"amenity":"recycling","recycling_type":"container"}},"type":"Feature"},
	{"geometry":{"coordinates":[7.830672,47.962314],"type":"Point"},"properties":{"name":"Recyclinghof Hexental","osm_id":"304255252","tag":{"amenity":"recycling","opening_hours":"We 14:00-18:00; Sa 09:00-13:00","recycling_type":"container"}},"type":"Feature"},
	{"geometry":{"coordinates":[7.857267,47.988911],"type":"Point"},"properties":{"osm_id":"333595650","tag":{"amenity":"recycling","recycling:cans":"no","recycling:clothes":"yes","recycling:glass":"yes","recycling:glass_bottles":"yes","recycling:paper":"no","recycling:plastic":"no","recycling_type":"container"}},"type":"Feature"},
	{"geometry":{"coordinates":[7.826142,47.985546],"type":"Point"},"properties":{"osm_id":"350159028","tag":{"amenity":"recycling","location":"overground","recycling:glass":"yes","recycling_type":"container"}},"type":"Feature"},
	{"geometry":{"coordinates":[7.857463,47.984844],"type":"Point"},"properties":{"osm_id":"431222671","tag":{"amenity":"recycling","location":"overground","recycling:clothes":"yes","recycling_type":"container"}},"type":"Feature"},
	{"geometry":{"coordinates":[7.888941,47.979982],"type":"Point"},"properties":{"osm_id":"431566255","tag":{"amenity":"recycling","location":"overground","recycling:clothes":"yes","recycling:glass":"yes","recycling_type":"container"}},"type":"Feature"},
	{"geometry":{"coordinates":[7.828953,47.989313],"type":"Point"},"properties":{"osm_id":"434129182","tag":{"amenity":"waste_basket"}},"type":"Feature"},
	{"geometry":{"coordinates":[7.844132,47.9743],"type":"Point"},"properties":{"osm_id":"524430991","tag":{"amenity":"recycling","recycling:clothes":"yes","recycling:glass":"yes","recycling_type":"container"}},"type":"Feature"},
	{"geometry":{"coordinates":[7.849452,47.968701],"type":"Point"},"properties":{"osm_id":"524446361","tag":{"amenity":"recycling","recycling:glass":"yes","recycling_type":"container"}},"type":"Feature"},
	{"geometry":{"coordinates":[7.86363,47.957919],"type":"Point"},"properties":{"osm_id":"524482634","tag":{"amenity":"recycling","recycling:clothes":"yes","recycling:glass":"yes","recycling_type":"container"}},"type":"Feature"},
	{"geometry":{"coordinates":[7.854407,47.966118],"type":"Point"},"properties":{"osm_id":"527205973","tag":{"amenity":"recycling","recycling:clothes":"yes","recycling:glass":"yes","recycling_type":"container"}},"type":"Feature"},
	{"geometry":{"coordinates":[7.862431,47.984617],"type":"Point"},"properties":{"osm_id":"544476769","tag":{"amenity":"waste_basket"}},"type":"Feature"},
	{"geometry":{"coordinates":[7.864511,47.98476],"type":"Point"},"properties":{"osm_id":"544476795","tag":{"amenity":"waste_basket"}},"type":"Feature"},
	{"geometry":{"coordinates":[7.837173,47.984673],"type":"Point"},"properties":{"osm_id":"549110032","tag":{"amenity":"recycling","recycling:clothes":"yes","recycling:glass":"yes","recycling_type":"container"}},"type":"Feature"},
	{"geometry":{"coordinates":[7.844711,47.989857],"type":"Point"},"properties":{"osm_id":"549111684","tag":{"amenity":"recycling","opening_hours":"Mo-Sa 08:00-19:00; PH closed","recycling:glass":"yes","recycling:glass_bottles":"yes","recycling_type":"container","wheelchair":"yes"}},"type":"Feature"},
	{"geometry":{"coordinates":[7.829679,47.977565],"type":"Point"},"properties":{"osm_id":"608340067","tag":{"amenity":"recycling","location":"overground","recycling:glass":"yes","recycling_type":"container"}},"type":"Feature"},
	{"geometry":{"coordinates":[7.837387,47.98465],"type":"Point"},"properties":{"osm_id":"670338999","tag":{"amenity":"waste_basket"}},"type":"Feature"},
	{"geometry":{"coordinates":[7.869515,47.987676],"type":"Point"},"properties":{"osm_id":"690166302","tag":{"amenity":"waste_basket"}},"type":"Feature"},
	{"geometry":{"coordinates":[7.828283,47.97623],"type":"Point"},"properties":{"osm_id":"785953852","tag":{"amenity":"recycling","recycling:glass":"yes","recycling_type":"container"}},"type":"Feature"},
	{"geometry":{"coordinates":[7.840789,47.987518],"type":"Point"},"properties":{"name":"Glascontainer","osm_id":"830742303","tag":{"amenity":"recycling","name:de":"Glascontainer","recycling:clothes":"yes","recycling:glass":"yes","recycling:glass_bottles":"yes","recycling:paper":"no","recycling:plastic":"no","recycling_type":"container"}},"type":"Feature"},
	{"geometry":{"coordinates":[7.842433,47.986203],"type":"Point"},"properties":{"osm_id":"830742309","tag":{"amenity":"waste_basket"}},"type":"Feature"},
	{"geometry":{"coordinates":[7.848258,47.984409],"type":"Point"},"properties":{"osm_id":"970662670","tag":{"amenity":"recycling","recycling:clothes":"yes","recycling:electrical_appliances":"yes","recycling:glass":"yes","recycling_type":"container"}},"type":"Feature"},
	{"geometry":{"coordinates":[7.891886,47.987233],"type":"Point"},"properties":{"osm_id":"1016684557","tag":{"amenity":"recycling","recycling:glass":"yes","recycling_type":"container"}},"type":"Feature"},
	{"geometry":{"coordinates":[7.892322,47.988214],"type":"Point"},"properties":{"osm_id":"1241607373","tag":{"amenity":"recycling","recycling:glass":"yes","recycling_type":"container"}},"type":"Feature"},
	{"geometry":{"coordinates":[7.830787,47.986062],"type":"Point"},"properties":{"osm_id":"1274412287","tag":{"amenity":"recycling","recycling:glass":"yes","recycling_type":"container"}},"type":"Feature"},
	{"geometry":{"coordinates":[7.834029,47.985264],"type":"Point"},"properties":{"osm_id":"1561902655","tag":{"amenity":"recycling","recycling:clothes":"yes","recycling:glass":"yes","recycling_type":"container"}},"type":"Feature"},
	{"geometry":{"coordinates":[7.825503,47.981567],"type":"Point"},"properties":{"osm_id":"1583807830","tag":{"amenity":"recycling","recycling:glass":"yes","recycling_type":"container"}},"type":"Feature"},
	{"geometry":{"coordinates":[7.831082,47.981335],"type":"Point"},"properties":{"osm_id":"1583807840","tag":{"amenity":"recycling","recycling:clothes":"yes","recycling:glass":"yes","recycling_type":"container"}},"type":"Feature"},
	{"geometry":{"coordinates":[7.904169,47.984822],"type":"Point"},"properties":{"osm_id":"1584129769","tag":{"amenity":"recycling","recycling:e_waste":"yes","recycling:glass":"yes","recycling_type":"container"}},"type":"Feature"},
	{"geometry":{"coordinates":[7.895634,47.981405],"type":"Point"},"properties":{"osm_id":"1622239464","tag":{"amenity":"recycling","recycling:clothes":"yes","recycling_type":"container"}},"type":"Feature"},
	{"geometry":{"coordinates":[7.865324,47.987153],"type":"Point"},"properties":{"osm_id":"1733649336","tag":{"amenity":"recycling","recycling:glass_bottles":"yes","recycling_type":"container"}},"type":"Feature"},
	{"geometry":{"coordinates":[7.847828,47.984446],"type":"Point"},"properties":{"osm_id":"1815330927","tag":{"amenity":"waste_basket"}},"type":"Feature"},
	{"geometry":{"coordinates":[7.830565,47.979619],"type":"Point"},"properties":{"osm_id":"1999452069","tag":{"amenity":"recycling","recycling:glass":"yes","recycling_type":"container"}},"type":"Feature"},
	{"geometry":{"coordinates":[7.82826,47.975907],"type":"Point"},"properties":{"osm_id":"2023736383","tag":{"amenity":"waste_basket"}},"type":"Feature"},
	{"geometry":{"coordinates":[7.830599,47.974333],"type":"Point"},"properties":{"osm_id":"2086406613","tag":{"amenity":"waste_basket"}},"type":"Feature"},
	{"geometry":{"coordinates":[7.830248,47.972598],"type":"Point"},"properties":{"osm_id":"2087535528","tag":{"amenity":"waste_basket"}},"type":"Feature"},
	{"geometry":{"coordinates":[7.831169,47.97251],"type":"Point"},"properties":{"osm_id":"2088950091","tag":{"amenity":"waste_basket"}},"type":"Feature"},
	{"geometry":{"coordinates":[7.835888,47.97771],"type":"Point"},"properties":{"osm_id":"2091182145","tag":{"amenity":"waste_basket"}},"type":"Feature"},
	{"geometry":{"coordinates":[7.837535,47.971645],"type":"Point"},"properties":{"osm_id":"2183908490","tag":{"amenity":"waste_basket"}},"type":"Feature"},
	{"geometry":{"coordinates":[7.873844,47.985156],"type":"Point"},"properties":{"osm_id":"2197606542","tag":{"amenity":"recycling","recycling:clothes":"yes","recycling:glass_bottles":"yes","recycling_type":"container"}},"type":"Feature"},
	{"geometry":{"coordinates":[7.904137,47.985123],"type":"Point"},"properties":{"osm_id":"2468093422","tag":{"amenity":"recycling","recycling:clothes":"yes","recycling_type":"container"}},"type":"Feature"},
	{"geometry":{"coordinates":[7.871704,47.988359],"type":"Point"},"properties":{"osm_id":"2536770186","tag":{"amenity":"recycling","recycling:clothes":"yes","recycling:glass_bottles":"yes","recycling_type":"container"}},"type":"Feature"},
	{"geometry":{"coordinates":[7.894728,47.985285],"type":"Point"},"properties":{"osm_id":"2590499117","tag":{"amenity":"recycling","recycling:glass_bottles":"yes","recycling_type":"container"}},"type":"Feature"},
	{"geometry":{"coordinates":[7.844225,47.974307],"type":"Point"},"properties":{"osm_id":"2707502085","tag":{"amenity":"waste_basket"}},"type":"Feature"},
	{"geometry":{"coordinates":[7.832189,47.963084],"type":"Point"},"properties":{"osm_id":"3044807836","tag":{"amenity":"waste_basket"}},"type":"Feature"},
	{"geometry":{"coordinates":[7.829355,47.958291],"type":"Point"},"properties":{"osm_id":"3127011654","tag":{"amenity":"waste_basket"}},"type":"Feature"},
	{"geometry":{"coordinates":[7.828914,47.962189],"type":"Point"},"properties":{"osm_id":"3127011693","tag":{"amenity":"waste_basket"}},"type":"Feature"},
	{"geometry":{"coordinates":[7.823486,47.975279],"type":"Point"},"properties":{"osm_id":"3315523884","tag":{"amenity":"waste_basket"}},"type":"Feature"},
	{"geometry":{"coordinates":[7.903214,47.977862],"type":"Point"},"properties":{"name":"Kleidersammelstelle","osm_id":"3793538244","tag":{"amenity":"recycling","recycling:clothes":"yes"}},"type":"Feature"},
	{"geometry":{"coordinates":[7.903238,47.97785],"type":"Point"},"properties":{"osm_id":"3793538245","tag":{"amenity":"recycling","recycling:glass_bottles":"yes","recycling_type":"container"}},"type":"Feature"},
	{"geometry":{"coordinates":[7.898879,47.982263],"type":"Point"},"properties":{"osm_id":"4109031989","tag":{"amenity":"waste_disposal"}},"type":"Feature"},
	{"geometry":{"coordinates":[7.898857,47.982256],"type":"Point"},"properties":{"osm_id":"4207345441","tag":{"amenity":"recycling","recycling:glass_bottles":"yes","recycling_type":"container"}},"type":"Feature"},
	{"geometry":{"coordinates":[7.858281,47.935314],"type":"Point"},"properties":{"osm_id":"4529388152","tag":{"amenity":"waste_basket","support":"pole"}},"type":"Feature"},
	{"geometry":{"coordinates":[7.857087,47.939476],"type":"Point"},"properties":{"osm_id":"4529388209","tag":{"amenity":"waste_basket"}},"type":"Feature"},
	{"geometry":{"coordinates":[7.849182,47.968815],"type":"Point"},"properties":{"osm_id":"4571036485","tag":{"amenity":"waste_basket","waste":"trash"}},"type":"Feature"},
	{"geometry":{"coordinates":[7.847919,47.979292],"type":"Point"},"properties":{"osm_id":"4571036518","tag":{"amenity":"waste_basket","waste":"trash"}},"type":"Feature"},
	{"geometry":{"coordinates":[7.903976,47.980087],"type":"Point"},"properties":{"osm_id":"4597127440","tag":{"amenity":"waste_basket"}},"type":"Feature"},
	{"geometry":{"coordinates":[7.904092,47.980107],"type":"Point"},"properties":{"osm_id":"4597127442","tag":{"amenity":"recycling","recycling:glass_bottles":"yes","recycling_type":"container"}},"type":"Feature"},
	{"geometry":{"coordinates":[7.900133,47.980952],"type":"Point"},"properties":{"osm_id":"4597127451","tag":{"amenity":"waste_basket"}},"type":"Feature"},
	{"geometry":{"coordinates":[7.897872,47.981401],"type":"Point"},"properties":{"osm_id":"4597127469","tag":{"amenity":"waste_basket"}},"type":"Feature"},
	{"geometry":{"coordinates":[7.842795,47.985024],"type":"Point"},"properties":{"osm_id":"4676296939","tag":{"amenity":"recycling","recycling:glass":"yes","recycling_type":"container"}},"type":"Feature"},
	{"geometry":{"coordinates":[7.909362,47.962657],"type":"Point"},"properties":{"osm_id":"5111305692","tag":{"amenity":"recycling","ele:msl":"392.0","ele:source":"GPS","opening_hours":"Mo-Fr 08:00-19:00","recycling:glass_bottles":"yes","recycling_type":"container","wheelchair":"yes"}},"type":"Feature"},
	{"geometry":{"coordinates":[7.891715,47.983134],"type":"Point"},"properties":{"name":"Recyclinghof Schnaitweg","osm_id":"5825301611","tag":{"amenity":"recycling","recycling_type":"centre"}},"type":"Feature"},
	{"geometry":{"coordinates":[7.874311,47.988646],"type":"Point"},"properties":{"osm_id":"5882232817","tag":{"amenity":"recycling","recycling:glass":"yes","recycling_type":"container"}},"type":"Feature"},
	{"geometry":{"coordinates":[7.834115,47.987086],"type":"Point"},"properties":{"osm_id":"6083600399","tag":{"amenity":"waste_basket","waste":"trash"}},"type":"Feature"},
	{"geometry":{"coordinates":[7.834288,47.986975],"type":"Point"},"properties":{"osm_id":"6083600400","tag":{"amenity":"waste_basket","waste":"trash"}},"type":"Feature"},
	{"geometry":{"coordinates":[7.834259,47.986932],"type":"Point"},"properties":{"osm_id":"6083600401","tag":{"amenity":"waste_basket","waste":"trash"}},"type":"Feature"},
	{"geometry":{"coordinates":[7.834438,47.98706],"type":"Point"},"properties":{"osm_id":"6083600402","tag":{"amenity":"waste_basket","waste":"trash"}},"type":"Feature"},
	{"geometry":{"coordinates":[7.833265,47.985041],"type":"Point"},"properties":{"osm_id":"6088735746","tag":{"amenity":"waste_basket"}},"type":"Feature"},
	{"geometry":{"coordinates":[7.824136,47.970024],"type":"Point"},"properties":{"osm_id":"6106335774","tag":{"amenity":"waste_basket"}},"type":"Feature"},
	{"geometry":{"coordinates":[7.83245,47.984998],"type":"Point"},"properties":{"osm_id":"6240009305","tag":{"amenity":"waste_basket"}},"type":"Feature"},
	{"geometry":{"coordinates":[7.834591,47.98516],"type":"Point"},"properties":{"osm_id":"6240009340","tag":{"amenity":"waste_basket","waste":"trash"}},"type":"Feature"},
	{"geometry":{"coordinates":[7.846449,47.988328],"type":"Point"},"properties":{"osm_id":"6584027684","tag":{"amenity":"recycling","recycling:glass_bottles":"yes","recycling_type":"container"}},"type":"Feature"},
	{"geometry":{"coordinates":[7.825799,47.974722],"type":"Point"},"properties":{"osm_id":"6715170650","tag":{"amenity":"recycling","colour":"Gr\u00c3\u00bcn, Braun, Wei\u00c3\u009f","material":"glass","recycling:clothes":"yes","recycling:electrical_appliances":"yes","recycling:glass_bottles":"yes","recycling:shoes":"yes","recycling_type":"container"}},"type":"Feature"},
	{"geometry":{"coordinates":[7.832646,47.984689],"type":"Point"},"properties":{"osm_id":"6879397329","tag":{"amenity":"waste_basket","waste":"trash"}},"type":"Feature"},
	{"geometry":{"coordinates":[7.831357,47.961164],"type":"Point"},"properties":{"osm_id":"7282870815","tag":{"amenity":"recycling","recycling:glass":"yes","recycling_type":"container"}},"type":"Feature"},
	{"geometry":{"coordinates":[7.827348,47.965703],"type":"Point"},"properties":{"osm_id":"7323893191","tag":{"amenity":"waste_basket","waste":"trash"}},"type":"Feature"},
	{"geometry":{"coordinates":[7.895877,47.981583],"type":"Point"},"properties":{"osm_id":"7620457227","tag":{"amenity":"waste_basket","waste":"trash"}},"type":"Feature"},
	{"geometry":{"coordinates":[7.894686,47.981851],"type":"Point"},"properties":{"osm_id":"7620457239","tag":{"amenity":"waste_basket","waste":"trash"}},"type":"Feature"},
	{"geometry":{"coordinates":[7.894848,47.981937],"type":"Point"},"properties":{"osm_id":"7620457254","tag":{"amenity":"waste_basket","waste":"trash"}},"type":"Feature"},
	{"geometry":{"coordinates":[7.896108,47.981653],"type":"Point"},"properties":{"osm_id":"7620457268","tag":{"amenity":"waste_basket","waste":"trash"}},"type":"Feature"},
	{"geometry":{"coordinates":[7.897164,47.981412],"type":"Point"},"properties":{"osm_id":"7620457270","tag":{"amenity":"waste_basket","waste":"trash"}},"type":"Feature"},
	{"geometry":{"coordinates":[7.851334,47.944785],"type":"Point"},"properties":{"osm_id":"7630596181","tag":{"amenity":"waste_basket","waste":"trash"}},"type":"Feature"}
]
}
