{
"type": "FeatureCollection",
"features": [
	{"geometry":{"coordinates":[7.868144,47.664978],"type":"Point"},"properties":{"osm_id":"558457882","tag":{"amenity":"recycling","recycling:glass_bottles":"yes","recycling_type":"container"}},"type":"Feature"},
	{"geometry":{"coordinates":[7.867588,47.646492],"type":"Point"},"properties":{"osm_id":"4353119063","tag":{"amenity":"waste_basket"}},"type":"Feature"},
	{"geometry":{"coordinates":[7.867467,47.646518],"type":"Point"},"properties":{"osm_id":"4353119070","tag":{"amenity":"waste_basket"}},"type":"Feature"},
	{"geometry":{"coordinates":[7.894619,47.649688],"type":"Point"},"properties":{"osm_id":"4636278589","tag":{"amenity":"recycling","recycling:glass_bottles":"yes","recycling_type":"container"}},"type":"Feature"},
	{"geometry":{"coordinates":[7.839997,47.663255],"type":"Point"},"properties":{"osm_id":"5618329529","tag":{"amenity":"recycling","recycling:clothes":"yes","recycling:glass_bottles":"yes","recycling:shoes":"yes","recycling_type":"container"}},"type":"Feature"},
	{"geometry":{"coordinates":[7.839625,47.664448],"type":"Point"},"properties":{"osm_id":"5618331507","tag":{"amenity":"recycling","recycling:clothes":"yes","recycling:shoes":"yes","recycling_type":"container"}},"type":"Feature"},
	{"geometry":{"coordinates":[7.84297,47.682638],"type":"Point"},"properties":{"osm_id":"6061636899","tag":{"amenity":"recycling","recycling:glass_bottles":"yes","recycling_type":"container","wheelchair":"yes"}},"type":"Feature"},
	{"geometry":{"coordinates":[7.831913,47.67921],"type":"Point"},"properties":{"osm_id":"6086554503","tag":{"amenity":"recycling","recycling:glass_bottles":"yes","recycling_type":"container"}},"type":"Feature"},
	{"geometry":{"coordinates":[7.831966,47.679235],"type":"Point"},"properties":{"osm_id":"6086557910","tag":{"amenity":"recycling","recycling:clothes":"yes","recycling:shoes":"yes","recycling_type":"container"}},"type":"Feature"},
	{"geometry":{"coordinates":[7.8414,47.675324],"type":"Point"},"properties":{"osm_id":"6102927118","tag":{"amenity":"waste_basket"}},"type":"Feature"},
	{"geometry":{"coordinates":[7.843013,47.684885],"type":"Point"},"properties":{"osm_id":"6125645375","tag":{"amenity":"recycling","recycling:clothes":"yes","recycling:glass_bottles":"yes","recycling:shoes":"yes","recycling_type":"container"}},"type":"Feature"},
	{"geometry":{"coordinates":[7.84122,47.679378],"type":"Point"},"properties":{"osm_id":"6132261251","tag":{"amenity":"waste_basket"}},"type":"Feature"},
	{"geometry":{"coordinates":[7.844418,47.682372],"type":"Point"},"properties":{"osm_id":"6132354764","tag":{"amenity":"waste_basket"}},"type":"Feature"},
	{"geometry":{"coordinates":[7.8235,47.650304],"type":"Point"},"properties":{"osm_id":"6185600380","tag":{"amenity":"waste_basket"}},"type":"Feature"},
	{"geometry":{"coordinates":[7.82266,47.650093],"type":"Point"},"properties":{"osm_id":"6185600540","tag":{"amenity":"waste_basket"}},"type":"Feature"},
	{"geometry":{"coordinates":[7.827238,47.653889],"type":"Point"},"properties":{"osm_id":"6201533268","tag":{"amenity":"recycling","recycling:clothes":"yes","recycling:glass_bottles":"yes","recycling_type":"container"}},"type":"Feature"},
	{"geometry":{"coordinates":[7.867251,47.67906],"type":"Point"},"properties":{"osm_id":"6205992728","tag":{"amenity":"recycling","location":"overground","recycling:bottles":"yes","recycling_type":"container"}},"type":"Feature"},
	{"geometry":{"coordinates":[7.845652,47.677795],"type":"Point"},"properties":{"osm_id":"6242748505","tag":{"amenity":"recycling","recycling:clothes":"yes","recycling_type":"container"}},"type":"Feature"},
	{"geometry":{"coordinates":[7.843641,47.686648],"type":"Point"},"properties":{"osm_id":"6334010356","tag":{"amenity":"recycling","recycling:clothes":"yes","recycling:shoes":"yes","recycling_type":"container"}},"type":"Feature"},
	{"geometry":{"coordinates":[7.838184,47.6716],"type":"Point"},"properties":{"osm_id":"6334086848","tag":{"amenity":"waste_basket"}},"type":"Feature"},
	{"geometry":{"coordinates":[7.827413,47.653419],"type":"Point"},"properties":{"osm_id":"6339974817","tag":{"amenity":"waste_basket"}},"type":"Feature"},
	{"geometry":{"coordinates":[7.82854,47.65423],"type":"Point"},"properties":{"osm_id":"6339975126","tag":{"amenity":"recycling","recycling:clothes":"yes","recycling:shoes":"yes","recycling_type":"container"}},"type":"Feature"},
	{"geometry":{"coordinates":[7.867824,47.678313],"type":"Point"},"properties":{"osm_id":"6341624243","tag":{"amenity":"waste_basket"}},"type":"Feature"},
	{"geometry":{"coordinates":[7.867314,47.679392],"type":"Point"},"properties":{"osm_id":"6356477075","tag":{"amenity":"waste_basket"}},"type":"Feature"},
	{"geometry":{"coordinates":[7.841249,47.690256],"type":"Point"},"properties":{"osm_id":"6380991607","tag":{"amenity":"waste_basket"}},"type":"Feature"},
	{"geometry":{"coordinates":[7.842811,47.683154],"type":"Point"},"properties":{"osm_id":"6385926764","tag":{"amenity":"waste_basket"}},"type":"Feature"},
	{"geometry":{"coordinates":[7.851971,47.648334],"type":"Point"},"properties":{"osm_id":"6387331988","tag":{"amenity":"waste_basket"}},"type":"Feature"},
	{"geometry":{"coordinates":[7.848371,47.643869],"type":"Point"},"properties":{"osm_id":"6387332635","tag":{"amenity":"waste_basket"}},"type":"Feature"},
	{"geometry":{"coordinates":[7.851071,47.64748],"type":"Point"},"properties":{"osm_id":"6387334996","tag":{"amenity":"waste_basket"}},"type":"Feature"},
	{"geometry":{"coordinates":[7.870524,47.663474],"type":"Point"},"properties":{"osm_id":"6389113569","tag":{"amenity":"waste_basket"}},"type":"Feature"},
	{"geometry":{"coordinates":[7.865875,47.663781],"type":"Point"},"properties":{"osm_id":"6389113877","tag":{"amenity":"waste_basket"}},"type":"Feature"},
	{"geometry":{"coordinates":[7.845572,47.677868],"type":"Point"},"properties":{"osm_id":"6393985746","tag":{"amenity":"waste_basket"}},"type":"Feature"},
	{"geometry":{"coordinates":[7.845863,47.678424],"type":"Point"},"properties":{"osm_id":"6393991824","tag":{"amenity":"waste_basket"}},"type":"Feature"},
	{"geometry":{"coordinates":[7.846047,47.679061],"type":"Point"},"properties":{"osm_id":"6394001977","tag":{"amenity":"waste_basket"}},"type":"Feature"},
	{"geometry":{"coordinates":[7.846184,47.679695],"type":"Point"},"properties":{"osm_id":"6394028431","tag":{"amenity":"waste_basket"}},"type":"Feature"},
	{"geometry":{"coordinates":[7.838789,47.693272],"type":"Point"},"properties":{"osm_id":"6399201622","tag":{"amenity":"waste_basket"}},"type":"Feature"},
	{"geometry":{"coordinates":[7.831239,47.663622],"type":"Point"},"properties":{"osm_id":"6401857945","tag":{"amenity":"waste_basket"}},"type":"Feature"},
	{"geometry":{"coordinates":[7.834963,47.674533],"type":"Point"},"properties":{"osm_id":"6401860197","tag":{"amenity":"waste_basket"}},"type":"Feature"},
	{"geometry":{"coordinates":[7.828384,47.655922],"type":"Point"},"properties":{"osm_id":"6401861892","tag":{"amenity":"waste_basket"}},"type":"Feature"},
	{"geometry":{"coordinates":[7.832569,47.663264],"type":"Point"},"properties":{"osm_id":"6401863001","tag":{"amenity":"waste_basket"}},"type":"Feature"},
	{"geometry":{"coordinates":[7.83025,47.660887],"type":"Point"},"properties":{"osm_id":"6401864335","tag":{"amenity":"waste_basket"}},"type":"Feature"},
	{"geometry":{"coordinates":[7.82947,47.658768],"type":"Point"},"properties":{"osm_id":"6401865318","tag":{"amenity":"waste_basket"}},"type":"Feature"},
	{"geometry":{"coordinates":[7.828571,47.658039],"type":"Point"},"properties":{"osm_id":"6401866620","tag":{"amenity":"waste_basket"}},"type":"Feature"},
	{"geometry":{"coordinates":[7.8244,47.653243],"type":"Point"},"properties":{"osm_id":"6401867800","tag":{"amenity":"waste_basket"}},"type":"Feature"},
	{"geometry":{"coordinates":[7.842799,47.687663],"type":"Point"},"properties":{"osm_id":"6410899777","tag":{"amenity":"waste_basket"}},"type":"Feature"},
	{"geometry":{"coordinates":[7.841815,47.689648],"type":"Point"},"properties":{"osm_id":"6410900549","tag":{"amenity":"waste_basket"}},"type":"Feature"},
	{"geometry":{"coordinates":[7.838253,47.675771],"type":"Point"},"properties":{"osm_id":"6436813490","tag":{"amenity":"waste_basket"}},"type":"Feature"},
	{"geometry":{"coordinates":[7.837667,47.675845],"type":"Point"},"properties":{"osm_id":"6436813491","tag":{"amenity":"waste_basket"}},"type":"Feature"},
	{"geometry":{"coordinates":[7.839082,47.675581],"type":"Point"},"properties":{"osm_id":"6436813509","tag":{"amenity":"recycling","recycling:clothes":"yes","recycling:glass_bottles":"yes","recycling:shoes":"yes","recycling_type":"container"}},"type":"Feature"},
	{"geometry":{"coordinates":[7.843431,47.680209],"type":"Point"},"properties":{"osm_id":"6436813522","tag":{"amenity":"waste_basket"}},"type":"Feature"},
	{"geometry":{"coordinates":[7.841065,47.680775],"type":"Point"},"properties":{"osm_id":"6436813524","tag":{"amenity":"waste_basket"}},"type":"Feature"},
	{"geometry":{"coordinates":[7.844384,47.679694],"type":"Point"},"properties":{"osm_id":"6436813681","tag":{"amenity":"waste_basket"}},"type":"Feature"},
	{"geometry":{"coordinates":[7.836978,47.679642],"type":"Point"},"properties":{"osm_id":"6439106693","tag":{"amenity":"waste_basket"}},"type":"Feature"},
	{"geometry":{"coordinates":[7.834695,47.679291],"type":"Point"},"properties":{"osm_id":"6439116494","tag":{"amenity":"waste_basket"}},"type":"Feature"},
	{"geometry":{"coordinates":[7.832731,47.678845],"type":"Point"},"properties":{"osm_id":"6439116705","tag":{"amenity":"waste_basket"}},"type":"Feature"},
	{"geometry":{"coordinates":[7.867726,47.646452],"type":"Point"},"properties":{"osm_id":"6441435101","tag":{"amenity":"waste_basket"}},"type":"Feature"},
	{"geometry":{"coordinates":[7.867315,47.646529],"type":"Point"},"properties":{"osm_id":"6441435286","tag":{"amenity":"waste_basket"}},"type":"Feature"},
	{"geometry":{"coordinates":[7.856519,47.646742],"type":"Point"},"properties":{"osm_id":"6441435680","tag":{"amenity":"waste_basket"}},"type":"Feature"},
	{"geometry":{"coordinates":[7.843211,47.679067],"type":"Point"},"properties":{"osm_id":"6447454641","tag":{"amenity":"waste_basket"}},"type":"Feature"},
	{"geometry":{"coordinates":[7.841211,47.679451],"type":"Point"},"properties":{"osm_id":"6447454648","tag":{"amenity":"waste_basket"}},"type":"Feature"},
	{"geometry":{"coordinates":[7.823985,47.648682],"type":"Point"},"properties":{"osm_id":"6447454653","tag":{"amenity":"waste_basket"}},"type":"Feature"},
	{"geometry":{"coordinates":[7.823249,47.648709],"type":"Point"},"properties":{"osm_id":"6447458683","tag":{"amenity":"waste_basket"}},"type":"Feature"},
	{"geometry":{"coordinates":[7.822875,47.648573],"type":"Point"},"properties":{"osm_id":"6447458684","tag":{"amenity":"waste_basket"}},"type":"Feature"},
	{"geometry":{"coordinates":[7.822575,47.648127],"type":"Point"},"properties":{"osm_id":"6447459089","tag":{"amenity":"waste_basket"}},"type":"Feature"},
	{"geometry":{"coordinates":[7.822273,47.648003],"type":"Point"},"properties":{"osm_id":"6447459090","tag":{"amenity":"waste_basket"}},"type":"Feature"},
	{"geometry":{"coordinates":[7.844884,47.684291],"type":"Point"},"properties":{"osm_id":"6451149018","tag":{"amenity":"waste_basket"}},"type":"Feature"},
	{"geometry":{"coordinates":[7.845057,47.685984],"type":"Point"},"properties":{"osm_id":"6451149423","tag":{"amenity":"waste_basket"}},"type":"Feature"},
	{"geometry":{"coordinates":[7.822517,47.649207],"type":"Point"},"properties":{"osm_id":"6451149455","tag":{"amenity":"waste_basket"}},"type":"Feature"},
	{"geometry":{"coordinates":[7.845305,47.68621],"type":"Point"},"properties":{"osm_id":"6451149522","tag":{"amenity":"waste_basket"}},"type":"Feature"},
	{"geometry":{"coordinates":[7.833706,47.653836],"type":"Point"},"properties":{"osm_id":"6466325658","tag":{"amenity":"waste_basket"}},"type":"Feature"},
	{"geometry":{"coordinates":[7.830624,47.655449],"type":"Point"},"properties":{"osm_id":"6466325662","tag":{"amenity":"waste_basket"}},"type":"Feature"},
	{"geometry":{"coordinates":[7.833496,47.64871],"type":"Point"},"properties":{"osm_id":"6466326146","tag":{"amenity":"waste_basket"}},"type":"Feature"},
	{"geometry":{"coordinates":[7.833919,47.650313],"type":"Point"},"properties":{"osm_id":"6466326147","tag":{"amenity":"waste_basket"}},"type":"Feature"},
	{"geometry":{"coordinates":[7.843041,47.659447],"type":"Point"},"properties":{"osm_id":"6466326148","tag":{"amenity":"waste_basket"}},"type":"Feature"},
	{"geometry":{"coordinates":[7.831935,47.652764],"type":"Point"},"properties":{"osm_id":"6466326149","tag":{"amenity":"waste_basket"}},"type":"Feature"},
	{"geometry":{"coordinates":[7.834167,47.658214],"type":"Point"},"properties":{"osm_id":"6466326151","tag":{"amenity":"waste_basket"}},"type":"Feature"},
	{"geometry":{"coordinates":[7.840241,47.647319],"type":"Point"},"properties":{"osm_id":"6466326317","tag":{"amenity":"recycling","recycling:clothes":"yes","recycling:glass_bottles":"yes","recycling:shoes":"yes","recycling_type":"container"}},"type":"Feature"},
	{"geometry":{"coordinates":[7.83567,47.649373],"type":"Point"},"properties":{"osm_id":"6467844710","tag":{"amenity":"waste_basket"}},"type":"Feature"},
	{"geometry":{"coordinates":[7.828685,47.644595],"type":"Point"},"properties":{"osm_id":"6468190304","tag":{"amenity":"waste_basket"}},"type":"Feature"},
	{"geometry":{"coordinates":[7.826755,47.644992],"type":"Point"},"properties":{"osm_id":"6468190305","tag":{"amenity":"waste_basket"}},"type":"Feature"},
	{"geometry":{"coordinates":[7.829236,47.642751],"type":"Point"},"properties":{"osm_id":"6468190306","tag":{"amenity":"waste_basket"}},"type":"Feature"},
	{"geometry":{"coordinates":[7.844766,47.673678],"type":"Point"},"properties":{"osm_id":"6473914962","tag":{"amenity":"waste_basket"}},"type":"Feature"},
	{"geometry":{"coordinates":[7.843181,47.661908],"type":"Point"},"properties":{"osm_id":"6473914964","tag":{"amenity":"waste_basket"}},"type":"Feature"},
	{"geometry":{"coordinates":[7.847336,47.676744],"type":"Point"},"properties":{"osm_id":"6473926736","tag":{"amenity":"waste_basket"}},"type":"Feature"},
	{"geometry":{"coordinates":[7.829059,47.6468],"type":"Point"},"properties":{"osm_id":"6476623315","tag":{"amenity":"waste_basket"}},"type":"Feature"},
	{"geometry":{"coordinates":[7.829646,47.646725],"type":"Point"},"properties":{"osm_id":"6476623316","tag":{"amenity":"waste_basket"}},"type":"Feature"},
	{"geometry":{"coordinates":[7.840185,47.656536],"type":"Point"},"properties":{"osm_id":"6476623324","tag":{"amenity":"waste_basket"}},"type":"Feature"},
	{"geometry":{"coordinates":[7.831066,47.646738],"type":"Point"},"properties":{"osm_id":"6476623531","tag":{"amenity":"waste_basket"}},"type":"Feature"},
	{"geometry":{"coordinates":[7.83566,47.650817],"type":"Point"},"properties":{"osm_id":"6476623534","tag":{"amenity":"waste_basket"}},"type":"Feature"},
	{"geometry":{"coordinates":[7.837367,47.652188],"type":"Point"},"properties":{"osm_id":"6476623535","tag":{"amenity":"waste_basket"}},"type":"Feature"},
	{"geometry":{"coordinates":[7.839883,47.654976],"type":"Point"},"properties":{"osm_id":"6476623537","tag":{"amenity":"waste_basket"}},"type":"Feature"},
	{"geometry":{"coordinates":[7.838727,47.674599],"type":"Point"},"properties":{"osm_id":"6509690468","tag":{"amenity":"waste_basket"}},"type":"Feature"},
	{"geometry":{"coordinates":[7.83344,47.662441],"type":"Point"},"properties":{"osm_id":"6509698537","tag":{"amenity":"waste_basket"}},"type":"Feature"},
	{"geometry":{"coordinates":[7.836279,47.660739],"type":"Point"},"properties":{"osm_id":"6509699640","tag":{"amenity":"waste_basket"}},"type":"Feature"},
	{"geometry":{"coordinates":[7.835223,47.657343],"type":"Point"},"properties":{"osm_id":"6509706197","tag":{"amenity":"waste_basket"}},"type":"Feature"},
	{"geometry":{"coordinates":[7.833807,47.656859],"type":"Point"},"properties":{"osm_id":"6551659544","tag":{"amenity":"waste_basket"}},"type":"Feature"},
	{"geometry":{"coordinates":[7.841956,47.682657],"type":"Point"},"properties":{"osm_id":"6831074383","tag":{"amenity":"waste_basket"}},"type":"Feature"},
	{"geometry":{"coordinates":[7.837459,47.665035],"type":"Point"},"properties":{"osm_id":"6873617483","tag":{"amenity":"recycling","recycling:clothes":"yes","recycling:shoes":"yes","recycling_type":"container"}},"type":"Feature"},
	{"geometry":{"coordinates":[7.829164,47.643246],"type":"Point"},"properties":{"osm_id":"7528686105","tag":{"amenity":"waste_basket"}},"type":"Feature"},
	{"geometry":{"coordinates":[7.859209,47.646008],"type":"Point"},"properties":{"osm_id":"7557160051","tag":{"amenity":"waste_basket"}},"type":"Feature"},
	{"geometry":{"coordinates":[7.842675,47.69287],"type":"Point"},"properties":{"osm_id":"7623888434","tag":{"amenity":"waste_basket"}},"type":"Feature"},
	{"geometry":{"coordinates":[7.834162,47.660079],"type":"Point"},"properties":{"osm_id":"7643829705","tag":{"amenity":"waste_basket"}},"type":"Feature"},
	{"geometry":{"coordinates":[7.84093,47.6603],"type":"Point"},"properties":{"osm_id":"7663010546","tag":{"amenity":"waste_basket"}},"type":"Feature"},
	{"geometry":{"coordinates":[7.83766,47.6579],"type":"Point"},"properties":{"osm_id":"7663018137","tag":{"amenity":"waste_basket"}},"type":"Feature"},
	{"geometry":{"coordinates":[7.83487,47.6569],"type":"Point"},"properties":{"osm_id":"7663018722","tag":{"amenity":"recycling","recycling:clothes":"yes","recycling:shoes":"yes","recycling_type":"container"}},"type":"Feature"},
	{"geometry":{"coordinates":[7.86868,47.6653],"type":"Point"},"properties":{"osm_id":"7671297713","tag":{"amenity":"waste_basket"}},"type":"Feature"},
	{"geometry":{"coordinates":[7.83501,47.6744],"type":"Point"},"properties":{"osm_id":"7679451702","tag":{"amenity":"waste_basket"}},"type":"Feature"},
	{"geometry":{"coordinates":[7.83745,47.6533],"type":"Point"},"properties":{"osm_id":"7685372231","tag":{"amenity":"waste_basket"}},"type":"Feature"},
	{"geometry":{"coordinates":[7.8373,47.6531],"type":"Point"},"properties":{"osm_id":"7685392697","tag":{"amenity":"waste_basket"}},"type":"Feature"},
	{"geometry":{"coordinates":[7.84343,47.6379],"type":"Point"},"properties":{"osm_id":"7686933739","tag":{"amenity":"waste_basket"}},"type":"Feature"},
	{"geometry":{"coordinates":[7.83894,47.6458],"type":"Point"},"properties":{"osm_id":"7686940900","tag":{"amenity":"waste_basket"}},"type":"Feature"},
	{"geometry":{"coordinates":[7.82306,47.6469],"type":"Point"},"properties":{"osm_id":"7703426841","tag":{"amenity":"waste_basket"}},"type":"Feature"},
	{"geometry":{"coordinates":[7.82289,47.649],"type":"Point"},"properties":{"osm_id":"7703460477","tag":{"amenity":"waste_basket"}},"type":"Feature"},
	{"geometry":{"coordinates":[7.82357,47.6492],"type":"Point"},"properties":{"osm_id":"7703462695","tag":{"amenity":"waste_basket"}},"type":"Feature"},
	{"geometry":{"coordinates":[7.82428,47.6486],"type":"Point"},"properties":{"osm_id":"7704167832","tag":{"amenity":"waste_basket"}},"type":"Feature"},
	{"geometry":{"coordinates":[7.82448,47.6481],"type":"Point"},"properties":{"osm_id":"7704198317","tag":{"amenity":"waste_basket"}},"type":"Feature"},
	{"geometry":{"coordinates":[7.82381,47.6439],"type":"Point"},"properties":{"osm_id":"7707822210","tag":{"amenity":"waste_basket"}},"type":"Feature"},
	{"geometry":{"coordinates":[7.82873,47.6472],"type":"Point"},"properties":{"osm_id":"7711718245","tag":{"amenity":"waste_basket"}},"type":"Feature"},
	{"geometry":{"coordinates":[7.82383,47.6502],"type":"Point"},"properties":{"osm_id":"7734777127","tag":{"amenity":"waste_basket"}},"type":"Feature"},
	{"geometry":{"coordinates":[7.823893,47.64986],"type":"Point"},"properties":{"osm_id":"7734976993","tag":{"amenity":"waste_basket"}},"type":"Feature"},
	{"geometry":{"coordinates":[7.8252,47.6473],"type":"Point"},"properties":{"osm_id":"7744683033","tag":{"amenity":"waste_basket"}},"type":"Feature"},
	{"geometry":{"coordinates":[7.827,47.6457],"type":"Point"},"properties":{"osm_id":"7757658285","tag":{"amenity":"waste_basket"}},"type":"Feature"},
	{"geometry":{"coordinates":[7.859171,47.675168],"type":"Point"},"properties":{"osm_id":"7877430828","tag":{"amenity":"waste_basket"}},"type":"Feature"},
	{"geometry":{"coordinates":[7.82786,47.6467],"type":"Point"},"properties":{"osm_id":"7883446745","tag":{"amenity":"waste_basket"}},"type":"Feature"},
	{"geometry":{"coordinates":[7.82807,47.6465],"type":"Point"},"properties":{"osm_id":"7883447591","tag":{"amenity":"waste_basket"}},"type":"Feature"}
]
}
