{
"type": "FeatureCollection",
"features": [
	{"geometry":{"coordinates":[7.856061,47.392799],"type":"Point"},"properties":{"name":"Sammelstelle Werkhof","osm_id":"315599577","tag":{"amenity":"recycling","recycling:batteries":"yes","recycling:glass_bottles":"yes","recycling_type":"centre"}},"type":"Feature"},
	{"geometry":{"coordinates":[7.909061,47.347308],"type":"Point"},"properties":{"osm_id":"602257098","tag":{"amenity":"recycling","recycling:batteries":"no","recycling:cans":"yes","recycling:cardboard":"no","recycling:glass":"yes","recycling:paper":"no","recycling:plastic_bottles":"no"}},"type":"Feature"},
	{"geometry":{"coordinates":[7.90959,47.346985],"type":"Point"},"properties":{"osm_id":"602689065","tag":{"amenity":"recycling","recycling:batteries":"yes","recycling:cds":"yes","recycling:plastic_bottles":"yes","recycling:water_filter_cartridges":"yes","recycling_type":"container"}},"type":"Feature"},
	{"geometry":{"coordinates":[7.890489,47.35151],"type":"Point"},"properties":{"osm_id":"614870466","tag":{"amenity":"recycling","recycling:cans":"yes","recycling:glass":"yes"}},"type":"Feature"},
	{"geometry":{"coordinates":[7.868903,47.341966],"type":"Point"},"properties":{"osm_id":"1070657456","tag":{"amenity":"recycling","recycling:clothes":"yes"}},"type":"Feature"},
	{"geometry":{"coordinates":[7.868667,47.341686],"type":"Point"},"properties":{"osm_id":"1070657459","tag":{"amenity":"recycling","recycling:clothes":"yes"}},"type":"Feature"},
	{"geometry":{"coordinates":[7.870703,47.341561],"type":"Point"},"properties":{"osm_id":"1070657465","tag":{"amenity":"recycling","recycling:glass":"yes"}},"type":"Feature"},
	{"geometry":{"coordinates":[7.868946,47.341995],"type":"Point"},"properties":{"osm_id":"1070657517","tag":{"amenity":"recycling","recycling:glass":"yes"}},"type":"Feature"},
	{"geometry":{"coordinates":[7.875592,47.347031],"type":"Point"},"properties":{"osm_id":"1070657539","tag":{"amenity":"recycling","recycling:glass":"yes"}},"type":"Feature"},
	{"geometry":{"coordinates":[7.898614,47.349582],"type":"Point"},"properties":{"osm_id":"1613214195","tag":{"amenity":"recycling","recycling:glass":"yes","recycling_type":"container"}},"type":"Feature"},
	{"geometry":{"coordinates":[7.892842,47.350077],"type":"Point"},"properties":{"osm_id":"1613215023","tag":{"amenity":"recycling","recycling:clothes":"yes","recycling:glass":"yes","recycling:scrap_metal":"yes","recycling_type":"centre"}},"type":"Feature"},
	{"geometry":{"coordinates":[7.857059,47.393928],"type":"Point"},"properties":{"name":"Entsorgungsstelle","osm_id":"1759488726","tag":{"amenity":"recycling"}},"type":"Feature"},
	{"geometry":{"coordinates":[7.884714,47.39305],"type":"Point"},"properties":{"osm_id":"1908719416","tag":{"amenity":"recycling","recycling:glass":"yes","recycling_type":"container"}},"type":"Feature"},
	{"geometry":{"coordinates":[7.896038,47.354579],"type":"Point"},"properties":{"osm_id":"2203955925","tag":{"amenity":"recycling","recycling:aluminium":"yes","recycling:cans":"yes","recycling:clothes":"yes","recycling:glass":"yes","recycling_type":"container"}},"type":"Feature"},
	{"geometry":{"coordinates":[7.896011,47.354589],"type":"Point"},"properties":{"osm_id":"2203955927","tag":{"amenity":"waste_basket"}},"type":"Feature"},
	{"geometry":{"coordinates":[7.899036,47.355777],"type":"Point"},"properties":{"osm_id":"2203955944","tag":{"amenity":"recycling","recycling:clothes":"yes"}},"type":"Feature"},
	{"geometry":{"coordinates":[7.901382,47.355799],"type":"Point"},"properties":{"osm_id":"2204737334","tag":{"amenity":"waste_basket"}},"type":"Feature"},
	{"geometry":{"coordinates":[7.9064,47.34987],"type":"Point"},"properties":{"osm_id":"2218559017","tag":{"amenity":"waste_basket"}},"type":"Feature"},
	{"geometry":{"coordinates":[7.902046,47.344658],"type":"Point"},"properties":{"osm_id":"2242708690","tag":{"amenity":"recycling","operator":"Tierd\u00c3\u00b6rfli Olten","recycling:clothes":"yes"}},"type":"Feature"},
	{"geometry":{"coordinates":[7.902088,47.348101],"type":"Point"},"properties":{"osm_id":"2242708695","tag":{"amenity":"recycling","recycling:cans":"yes","recycling:clothes":"yes","recycling:glass":"yes","recycling_type":"container"}},"type":"Feature"},
	{"geometry":{"coordinates":[7.90201,47.348107],"type":"Point"},"properties":{"osm_id":"2242708696","tag":{"amenity":"waste_basket","fee":"no","operator":"Robidog AG","vending":"excrement_bags"}},"type":"Feature"},
	{"geometry":{"coordinates":[7.897586,47.348701],"type":"Point"},"properties":{"osm_id":"2242708697","tag":{"amenity":"waste_basket"}},"type":"Feature"},
	{"geometry":{"coordinates":[7.903092,47.348813],"type":"Point"},"properties":{"osm_id":"2242708703","tag":{"amenity":"waste_disposal","fee":"yes"}},"type":"Feature"},
	{"geometry":{"coordinates":[7.908895,47.343246],"type":"Point"},"properties":{"osm_id":"2265024944","tag":{"amenity":"recycling","recycling:cans":"yes","recycling:glass":"yes"}},"type":"Feature"},
	{"geometry":{"coordinates":[7.908906,47.343285],"type":"Point"},"properties":{"osm_id":"2265024945","tag":{"amenity":"waste_basket"}},"type":"Feature"},
	{"geometry":{"coordinates":[7.909658,47.351287],"type":"Point"},"properties":{"osm_id":"3961581913","tag":{"amenity":"recycling","recycling:clothes":"yes","recycling:shoes":"yes","recycling_type":"container"}},"type":"Feature"},
	{"geometry":{"coordinates":[7.905753,47.349391],"type":"Point"},"properties":{"osm_id":"4436386292","tag":{"amenity":"waste_basket","waste":"trash"}},"type":"Feature"},
	{"geometry":{"coordinates":[7.905856,47.349529],"type":"Point"},"properties":{"osm_id":"4436386793","tag":{"amenity":"waste_basket"}},"type":"Feature"},
	{"geometry":{"coordinates":[7.904448,47.350671],"type":"Point"},"properties":{"osm_id":"4952606646","tag":{"amenity":"recycling","recycling:cans":"yes","recycling:glass_bottles":"yes","recycling_type":"container"}},"type":"Feature"},
	{"geometry":{"coordinates":[7.908784,47.353302],"type":"Point"},"properties":{"osm_id":"5680492299","tag":{"amenity":"waste_basket","waste":"dog_excrement"}},"type":"Feature"},
	{"geometry":{"coordinates":[7.908734,47.352382],"type":"Point"},"properties":{"osm_id":"5680492300","tag":{"amenity":"waste_basket","waste":"trash"}},"type":"Feature"},
	{"geometry":{"coordinates":[7.907306,47.353333],"type":"Point"},"properties":{"osm_id":"5680492301","tag":{"amenity":"waste_basket","waste":"trash"}},"type":"Feature"},
	{"geometry":{"coordinates":[7.908166,47.350437],"type":"Point"},"properties":{"osm_id":"5698369706","tag":{"amenity":"waste_basket","waste":"trash"}},"type":"Feature"},
	{"geometry":{"coordinates":[7.907852,47.349103],"type":"Point"},"properties":{"osm_id":"5698369707","tag":{"amenity":"waste_basket","waste":"trash"}},"type":"Feature"},
	{"geometry":{"coordinates":[7.908134,47.349909],"type":"Point"},"properties":{"osm_id":"5698369709","tag":{"amenity":"waste_basket","waste":"trash"}},"type":"Feature"},
	{"geometry":{"coordinates":[7.90807,47.348811],"type":"Point"},"properties":{"osm_id":"5698369710","tag":{"amenity":"waste_basket","waste":"trash"}},"type":"Feature"},
	{"geometry":{"coordinates":[7.873851,47.371597],"type":"Point"},"properties":{"osm_id":"5835267257","tag":{"amenity":"waste_basket"}},"type":"Feature"},
	{"geometry":{"coordinates":[7.905316,47.35346],"type":"Point"},"properties":{"osm_id":"5943228182","tag":{"amenity":"recycling","recycling:cans":"yes","recycling:glass":"yes","recycling_type":"container"}},"type":"Feature"},
	{"geometry":{"coordinates":[7.904383,47.349643],"type":"Point"},"properties":{"osm_id":"5949631240","tag":{"amenity":"waste_basket"}},"type":"Feature"},
	{"geometry":{"coordinates":[7.908431,47.351241],"type":"Point"},"properties":{"osm_id":"5949631241","tag":{"amenity":"waste_basket"}},"type":"Feature"},
	{"geometry":{"coordinates":[7.904147,47.349877],"type":"Point"},"properties":{"osm_id":"5949631243","tag":{"amenity":"waste_basket"}},"type":"Feature"},
	{"geometry":{"coordinates":[7.909913,47.34932],"type":"Point"},"properties":{"osm_id":"5950616255","tag":{"amenity":"waste_basket"}},"type":"Feature"},
	{"geometry":{"coordinates":[7.909917,47.346884],"type":"Point"},"properties":{"osm_id":"5950616260","tag":{"amenity":"waste_basket"}},"type":"Feature"},
	{"geometry":{"coordinates":[7.909898,47.346716],"type":"Point"},"properties":{"osm_id":"5950616266","tag":{"amenity":"waste_basket"}},"type":"Feature"},
	{"geometry":{"coordinates":[7.909905,47.34695],"type":"Point"},"properties":{"osm_id":"5950616269","tag":{"amenity":"waste_basket"}},"type":"Feature"},
	{"geometry":{"coordinates":[7.910076,47.346864],"type":"Point"},"properties":{"osm_id":"5950616272","tag":{"amenity":"waste_basket"}},"type":"Feature"},
	{"geometry":{"coordinates":[7.90991,47.346804],"type":"Point"},"properties":{"osm_id":"5950616275","tag":{"amenity":"waste_basket"}},"type":"Feature"},
	{"geometry":{"coordinates":[7.902794,47.350039],"type":"Point"},"properties":{"osm_id":"5997182820","tag":{"amenity":"waste_basket"}},"type":"Feature"},
	{"geometry":{"coordinates":[7.908949,47.352954],"type":"Point"},"properties":{"name":"Labdoo Annahmestelle f\u00c3\u00bcr Laptops","osm_id":"6543241580","tag":{"addr:city":"Olten","addr:housenumber":"31","addr:postcode":"4600","addr:street":"Untere Hardegg","amenity":"recycling","brand":"Labdoo","charity":"yes","description":"Bitte vorher mit Andreas Ziegler, andreas.ziegler@labdoo.org einen Termin vereinbaren.","email":"andreas.ziegler@labdoo.org","location":"indoor","operator":"Andreas Ziegler","recycling:computers":"yes","recycling:mobile_phones":"yes","website":"https://www.labdoo.org/de/hub?h=31149"}},"type":"Feature"},
	{"geometry":{"coordinates":[7.906329,47.351659],"type":"Point"},"properties":{"osm_id":"7800611984","tag":{"amenity":"waste_basket","waste":"trash"}},"type":"Feature"},
	{"geometry":{"coordinates":[7.906195,47.351221],"type":"Point"},"properties":{"osm_id":"7800661185","tag":{"amenity":"waste_basket","waste":"trash"}},"type":"Feature"},
	{"geometry":{"coordinates":[7.906095,47.350887],"type":"Point"},"properties":{"osm_id":"7800661186","tag":{"amenity":"waste_basket","waste":"trash"}},"type":"Feature"},
	{"geometry":{"coordinates":[7.906031,47.3506],"type":"Point"},"properties":{"osm_id":"7800661187","tag":{"amenity":"waste_basket","waste":"trash"}},"type":"Feature"},
	{"geometry":{"coordinates":[7.905977,47.350403],"type":"Point"},"properties":{"osm_id":"7800661188","tag":{"amenity":"waste_basket","waste":"trash"}},"type":"Feature"},
	{"geometry":{"coordinates":[7.905924,47.350178],"type":"Point"},"properties":{"osm_id":"7800661189","tag":{"amenity":"waste_basket","waste":"trash"}},"type":"Feature"},
	{"geometry":{"coordinates":[7.905884,47.349987],"type":"Point"},"properties":{"osm_id":"7800661190","tag":{"amenity":"waste_basket","waste":"trash"}},"type":"Feature"},
	{"geometry":{"coordinates":[7.905822,47.349823],"type":"Point"},"properties":{"osm_id":"7800661191","tag":{"amenity":"waste_basket","waste":"trash"}},"type":"Feature"},
	{"geometry":{"coordinates":[7.903171,47.346266],"type":"Point"},"properties":{"osm_id":"7820684344","tag":{"amenity":"waste_basket","waste":"trash"}},"type":"Feature"},
	{"geometry":{"coordinates":[7.902912,47.346674],"type":"Point"},"properties":{"osm_id":"7820684345","tag":{"amenity":"waste_basket","waste":"trash"}},"type":"Feature"},
	{"geometry":{"coordinates":[7.902595,47.346882],"type":"Point"},"properties":{"osm_id":"7820684347","tag":{"amenity":"waste_basket","vending":"excrement_bags","waste":"dog_excrement"}},"type":"Feature"},
	{"geometry":{"coordinates":[7.902586,47.346891],"type":"Point"},"properties":{"osm_id":"7820684348","tag":{"amenity":"waste_basket","waste":"trash"}},"type":"Feature"},
	{"geometry":{"coordinates":[7.902219,47.347452],"type":"Point"},"properties":{"osm_id":"7820684349","tag":{"amenity":"waste_basket","waste":"trash"}},"type":"Feature"},
	{"geometry":{"coordinates":[7.902008,47.348683],"type":"Point"},"properties":{"osm_id":"7820684355","tag":{"amenity":"waste_basket","waste":"trash"}},"type":"Feature"},
	{"geometry":{"coordinates":[7.906217,47.35107],"type":"Point"},"properties":{"osm_id":"7835359872","tag":{"amenity":"waste_basket","waste":"trash"}},"type":"Feature"},
	{"geometry":{"coordinates":[7.906147,47.350744],"type":"Point"},"properties":{"osm_id":"7835359875","tag":{"amenity":"waste_basket","waste":"trash"}},"type":"Feature"},
	{"geometry":{"coordinates":[7.906073,47.350446],"type":"Point"},"properties":{"osm_id":"7835359876","tag":{"amenity":"waste_basket","waste":"trash"}},"type":"Feature"},
	{"geometry":{"coordinates":[7.904534,47.349546],"type":"Point"},"properties":{"osm_id":"7835359877","tag":{"amenity":"waste_basket","waste":"trash"}},"type":"Feature"},
	{"geometry":{"coordinates":[7.904214,47.349192],"type":"Point"},"properties":{"osm_id":"7835359879","tag":{"amenity":"waste_basket","waste":"trash"}},"type":"Feature"},
	{"geometry":{"coordinates":[7.902075,47.348512],"type":"Point"},"properties":{"osm_id":"7835359880","tag":{"amenity":"waste_basket","waste":"trash"}},"type":"Feature"}
]
}
