{
"type": "FeatureCollection",
"features": [
	{"geometry":{"coordinates":[-100.434176,20.646763],"type":"Point"},"properties":{"osm_id":"903643502","tag":{"amenity":"recycling"}},"type":"Feature"},
	{"geometry":{"coordinates":[-100.415582,20.641618],"type":"Point"},"properties":{"osm_id":"6028478621","tag":{"amenity":"waste_basket"}},"type":"Feature"},
	{"geometry":{"coordinates":[-100.415239,20.641533],"type":"Point"},"properties":{"osm_id":"6028478622","tag":{"amenity":"waste_basket"}},"type":"Feature"},
	{"geometry":{"coordinates":[-100.414901,20.639371],"type":"Point"},"properties":{"osm_id":"6028478631","tag":{"amenity":"waste_basket"}},"type":"Feature"},
	{"geometry":{"coordinates":[-100.415133,20.639093],"type":"Point"},"properties":{"osm_id":"6028478634","tag":{"amenity":"waste_basket"}},"type":"Feature"},
	{"geometry":{"coordinates":[-100.414854,20.638826],"type":"Point"},"properties":{"osm_id":"6028478635","tag":{"amenity":"waste_basket"}},"type":"Feature"},
	{"geometry":{"coordinates":[-100.414081,20.635069],"type":"Point"},"properties":{"osm_id":"6028478656","tag":{"amenity":"waste_basket"}},"type":"Feature"},
	{"geometry":{"coordinates":[-100.4137,20.633722],"type":"Point"},"properties":{"osm_id":"6028478662","tag":{"amenity":"waste_basket"}},"type":"Feature"},
	{"geometry":{"coordinates":[-100.413519,20.63315],"type":"Point"},"properties":{"osm_id":"6028478664","tag":{"amenity":"waste_basket"}},"type":"Feature"},
	{"geometry":{"coordinates":[-100.4009,20.635276],"type":"Point"},"properties":{"osm_id":"7195535586","tag":{"amenity":"waste_basket"}},"type":"Feature"},
	{"geometry":{"coordinates":[-100.406697,20.635269],"type":"Point"},"properties":{"name":"MAREPSA","osm_id":"7314317325","tag":{"amenity":"recycling","recycling:batteries":"yes","recycling:cans":"yes","recycling:cardboard":"yes","recycling:paper":"yes","recycling:plastic_bottles":"yes","recycling:plastic_packaging":"yes","recycling:scrap_metal":"yes","recycling_type":"centre"}},"type":"Feature"},
	{"geometry":{"coordinates":[-100.40119,20.635103],"type":"Point"},"properties":{"osm_id":"7690143551","tag":{"amenity":"waste_basket"}},"type":"Feature"}
]
}
