{
"type": "FeatureCollection",
"features": [
	{"geometry":{"coordinates":[126.686264,36.013636],"type":"Point"},"properties":{"name":"\u00ec\u0093\u00b0\u00eb\u00a0\u0088\u00ea\u00b8\u00b0\u00ec\u009e\u00a5","osm_id":"4643557313","tag":{"amenity":"waste_basket","name:ko":"\u00ec\u0093\u00b0\u00eb\u00a0\u0088\u00ea\u00b8\u00b0\u00ec\u009e\u00a5"}},"type":"Feature"},
	{"geometry":{"coordinates":[126.687205,36.014017],"type":"Point"},"properties":{"name":"\u00ec\u0093\u00b0\u00eb\u00a0\u0088\u00ea\u00b8\u00b0\u00ec\u009e\u00a5","osm_id":"4643557314","tag":{"amenity":"waste_basket","name:ko":"\u00ec\u0093\u00b0\u00eb\u00a0\u0088\u00ea\u00b8\u00b0\u00ec\u009e\u00a5"}},"type":"Feature"},
	{"geometry":{"coordinates":[126.686935,36.015884],"type":"Point"},"properties":{"name":"\u00ec\u0093\u00b0\u00eb\u00a0\u0088\u00ea\u00b8\u00b0\u00ec\u009e\u00a5","osm_id":"4643557315","tag":{"amenity":"waste_basket","name:ko":"\u00ec\u0093\u00b0\u00eb\u00a0\u0088\u00ea\u00b8\u00b0\u00ec\u009e\u00a5"}},"type":"Feature"}
]
}
