{
"type": "FeatureCollection",
"features": [
	{"geometry":{"coordinates":[27.75437,64.223179],"type":"Point"},"properties":{"osm_id":"422700829","tag":{"amenity":"recycling"}},"type":"Feature"},
	{"geometry":{"coordinates":[27.757703,64.22223],"type":"Point"},"properties":{"osm_id":"422700854","tag":{"amenity":"recycling"}},"type":"Feature"},
	{"geometry":{"coordinates":[27.76444,64.223743],"type":"Point"},"properties":{"osm_id":"422719205","tag":{"amenity":"recycling"}},"type":"Feature"},
	{"geometry":{"coordinates":[27.764621,64.223744],"type":"Point"},"properties":{"osm_id":"422719208","tag":{"amenity":"waste_basket"}},"type":"Feature"},
	{"geometry":{"coordinates":[27.731746,64.226974],"type":"Point"},"properties":{"osm_id":"444734145","tag":{"amenity":"waste_basket"}},"type":"Feature"},
	{"geometry":{"coordinates":[27.732429,64.226681],"type":"Point"},"properties":{"osm_id":"444734159","tag":{"amenity":"waste_disposal","waste":"household"}},"type":"Feature"},
	{"geometry":{"coordinates":[27.733692,64.227544],"type":"Point"},"properties":{"osm_id":"444740373","tag":{"amenity":"waste_basket"}},"type":"Feature"},
	{"geometry":{"coordinates":[27.732919,64.228405],"type":"Point"},"properties":{"osm_id":"444740395","tag":{"amenity":"waste_basket"}},"type":"Feature"},
	{"geometry":{"coordinates":[27.730414,64.226405],"type":"Point"},"properties":{"osm_id":"444825333","tag":{"amenity":"waste_basket","traffic_sign":"FI:312"}},"type":"Feature"},
	{"geometry":{"coordinates":[27.731187,64.226373],"type":"Point"},"properties":{"osm_id":"444825342","tag":{"amenity":"waste_disposal","waste":"household"}},"type":"Feature"},
	{"geometry":{"coordinates":[27.721027,64.22177],"type":"Point"},"properties":{"osm_id":"445855049","tag":{"access":"private","amenity":"waste_disposal"}},"type":"Feature"},
	{"geometry":{"coordinates":[27.720894,64.22184],"type":"Point"},"properties":{"osm_id":"445855059","tag":{"access":"private","amenity":"waste_disposal"}},"type":"Feature"},
	{"geometry":{"coordinates":[27.72078,64.222252],"type":"Point"},"properties":{"osm_id":"446013777","tag":{"access":"private","amenity":"waste_disposal","waste":"household"}},"type":"Feature"},
	{"geometry":{"coordinates":[27.72267,64.221571],"type":"Point"},"properties":{"osm_id":"446014168","tag":{"access":"private","amenity":"waste_disposal","waste":"household"}},"type":"Feature"},
	{"geometry":{"coordinates":[27.696093,64.224837],"type":"Point"},"properties":{"osm_id":"615753794","tag":{"amenity":"waste_basket"}},"type":"Feature"},
	{"geometry":{"coordinates":[27.697144,64.22427],"type":"Point"},"properties":{"osm_id":"615753808","tag":{"amenity":"waste_basket","description":"Kolme lukittua alueker\u00c3\u00a4ysastiaa, jotka ovat vain osakunnan j\u00c3\u00a4senten k\u00c3\u00a4ytt\u00c3\u00b6\u00c3\u00b6n."}},"type":"Feature"},
	{"geometry":{"coordinates":[27.710889,64.221516],"type":"Point"},"properties":{"osm_id":"624209505","tag":{"amenity":"waste_basket"}},"type":"Feature"},
	{"geometry":{"coordinates":[27.730599,64.226335],"type":"Point"},"properties":{"highway":"street_lamp","osm_id":"2373101963","tag":{"amenity":"waste_basket","traffic_sign":"FI:511;FI:511","traffic_sign:2":"FI:331"}},"type":"Feature"},
	{"geometry":{"coordinates":[27.72807,64.226895],"type":"Point"},"properties":{"osm_id":"2393674093","tag":{"amenity":"waste_basket"}},"type":"Feature"},
	{"geometry":{"coordinates":[27.72997,64.226646],"type":"Point"},"properties":{"osm_id":"2410919498","tag":{"amenity":"waste_basket"}},"type":"Feature"},
	{"geometry":{"coordinates":[27.728974,64.227271],"type":"Point"},"properties":{"osm_id":"2410944699","tag":{"amenity":"waste_basket"}},"type":"Feature"},
	{"geometry":{"coordinates":[27.729993,64.226544],"type":"Point"},"properties":{"osm_id":"2410948083","tag":{"amenity":"waste_basket"}},"type":"Feature"},
	{"geometry":{"coordinates":[27.732304,64.225538],"type":"Point"},"properties":{"highway":"street_lamp","osm_id":"2415306246","tag":{"amenity":"waste_basket","traffic_sign":"FI:511;FI:511","traffic_sign:2":"FI:331"}},"type":"Feature"},
	{"geometry":{"coordinates":[27.7321,64.225639],"type":"Point"},"properties":{"highway":"street_lamp","osm_id":"2415306258","tag":{"amenity":"waste_basket","traffic_sign":"round","traffic_sign:2":"rectangle"}},"type":"Feature"},
	{"geometry":{"coordinates":[27.732464,64.225465],"type":"Point"},"properties":{"highway":"street_lamp","osm_id":"2415309984","tag":{"amenity":"waste_basket","traffic_sign":"round","traffic_sign:2":"rectangle"}},"type":"Feature"},
	{"geometry":{"coordinates":[27.733663,64.224886],"type":"Point"},"properties":{"highway":"street_lamp","osm_id":"2415321237","tag":{"amenity":"waste_basket"}},"type":"Feature"},
	{"geometry":{"coordinates":[27.73478,64.2248],"type":"Point"},"properties":{"osm_id":"2415339426","tag":{"amenity":"waste_basket"}},"type":"Feature"},
	{"geometry":{"coordinates":[27.736221,64.224667],"type":"Point"},"properties":{"osm_id":"2415357391","tag":{"amenity":"recycling","recycling_type":"container"}},"type":"Feature"},
	{"geometry":{"coordinates":[27.727307,64.228884],"type":"Point"},"properties":{"osm_id":"2416339329","tag":{"amenity":"waste_basket","traffic_sign":"FI:421"}},"type":"Feature"},
	{"geometry":{"coordinates":[27.726998,64.229063],"type":"Point"},"properties":{"osm_id":"2416358408","tag":{"amenity":"waste_basket"}},"type":"Feature"},
	{"geometry":{"coordinates":[27.727148,64.228986],"type":"Point"},"properties":{"osm_id":"2416366716","tag":{"amenity":"waste_basket"}},"type":"Feature"},
	{"geometry":{"coordinates":[27.738876,64.220019],"type":"Point"},"properties":{"osm_id":"4339696857","tag":{"amenity":"waste_basket"}},"type":"Feature"},
	{"geometry":{"coordinates":[27.738568,64.219889],"type":"Point"},"properties":{"osm_id":"4339696876","tag":{"amenity":"waste_basket"}},"type":"Feature"},
	{"geometry":{"coordinates":[27.73812,64.220166],"type":"Point"},"properties":{"osm_id":"4339696879","tag":{"amenity":"waste_basket"}},"type":"Feature"},
	{"geometry":{"coordinates":[27.738305,64.22008],"type":"Point"},"properties":{"osm_id":"4339696880","tag":{"amenity":"waste_basket"}},"type":"Feature"},
	{"geometry":{"coordinates":[27.738226,64.219932],"type":"Point"},"properties":{"osm_id":"4359703414","tag":{"amenity":"waste_basket"}},"type":"Feature"},
	{"geometry":{"coordinates":[27.727538,64.224012],"type":"Point"},"properties":{"osm_id":"7306630450","tag":{"amenity":"waste_basket"}},"type":"Feature"},
	{"geometry":{"coordinates":[27.72707,64.224705],"type":"Point"},"properties":{"osm_id":"7306630451","tag":{"amenity":"waste_basket"}},"type":"Feature"}
]
}
