{
"type": "FeatureCollection",
"features": [
	{"geometry":{"coordinates":[27.715917,53.949236],"type":"Point"},"properties":{"osm_id":"986286803","tag":{"amenity":"waste_disposal"}},"type":"Feature"},
	{"geometry":{"coordinates":[27.697463,53.946295],"type":"Point"},"properties":{"osm_id":"1075458687","tag":{"amenity":"recycling"}},"type":"Feature"},
	{"geometry":{"coordinates":[27.701532,53.93852],"type":"Point"},"properties":{"osm_id":"1104380436","tag":{"amenity":"recycling"}},"type":"Feature"},
	{"geometry":{"coordinates":[27.686504,53.915431],"type":"Point"},"properties":{"osm_id":"1636337455","tag":{"amenity":"waste_basket"}},"type":"Feature"},
	{"geometry":{"coordinates":[27.686208,53.916969],"type":"Point"},"properties":{"osm_id":"1740560369","tag":{"amenity":"waste_basket"}},"type":"Feature"},
	{"geometry":{"coordinates":[27.712208,53.944011],"type":"Point"},"properties":{"osm_id":"2269992493","tag":{"amenity":"recycling","recycling_type":"container"}},"type":"Feature"},
	{"geometry":{"coordinates":[27.698952,53.928911],"type":"Point"},"properties":{"osm_id":"3367957525","tag":{"amenity":"waste_disposal"}},"type":"Feature"},
	{"geometry":{"coordinates":[27.698654,53.929176],"type":"Point"},"properties":{"osm_id":"3367957526","tag":{"amenity":"waste_disposal"}},"type":"Feature"},
	{"geometry":{"coordinates":[27.698193,53.929299],"type":"Point"},"properties":{"osm_id":"3367957527","tag":{"amenity":"waste_disposal"}},"type":"Feature"},
	{"geometry":{"coordinates":[27.699445,53.92996],"type":"Point"},"properties":{"osm_id":"3367957528","tag":{"amenity":"waste_disposal"}},"type":"Feature"},
	{"geometry":{"coordinates":[27.697915,53.92809],"type":"Point"},"properties":{"osm_id":"3367997350","tag":{"amenity":"waste_basket"}},"type":"Feature"},
	{"geometry":{"coordinates":[27.698406,53.928659],"type":"Point"},"properties":{"osm_id":"3367997354","tag":{"amenity":"waste_basket"}},"type":"Feature"},
	{"geometry":{"coordinates":[27.698422,53.928681],"type":"Point"},"properties":{"osm_id":"3367997358","tag":{"amenity":"waste_basket"}},"type":"Feature"},
	{"geometry":{"coordinates":[27.698386,53.928685],"type":"Point"},"properties":{"osm_id":"3367997361","tag":{"amenity":"waste_basket"}},"type":"Feature"},
	{"geometry":{"coordinates":[27.698825,53.928899],"type":"Point"},"properties":{"osm_id":"3367997366","tag":{"amenity":"waste_basket"}},"type":"Feature"},
	{"geometry":{"coordinates":[27.698445,53.929161],"type":"Point"},"properties":{"osm_id":"3367997367","tag":{"amenity":"waste_basket"}},"type":"Feature"},
	{"geometry":{"coordinates":[27.698462,53.928409],"type":"Point"},"properties":{"osm_id":"3386618765","tag":{"amenity":"waste_basket"}},"type":"Feature"},
	{"geometry":{"coordinates":[27.698584,53.928579],"type":"Point"},"properties":{"osm_id":"3386618769","tag":{"amenity":"waste_basket"}},"type":"Feature"},
	{"geometry":{"coordinates":[27.698266,53.927783],"type":"Point"},"properties":{"osm_id":"3392260432","tag":{"amenity":"waste_basket"}},"type":"Feature"},
	{"geometry":{"coordinates":[27.698812,53.929762],"type":"Point"},"properties":{"osm_id":"3394978572","tag":{"amenity":"waste_basket"}},"type":"Feature"},
	{"geometry":{"coordinates":[27.697286,53.931018],"type":"Point"},"properties":{"osm_id":"3394978577","tag":{"amenity":"waste_disposal"}},"type":"Feature"},
	{"geometry":{"coordinates":[27.697855,53.931011],"type":"Point"},"properties":{"osm_id":"3394978578","tag":{"amenity":"waste_basket"}},"type":"Feature"},
	{"geometry":{"coordinates":[27.697932,53.926661],"type":"Point"},"properties":{"osm_id":"3405763324","tag":{"amenity":"waste_basket"}},"type":"Feature"},
	{"geometry":{"coordinates":[27.697165,53.92722],"type":"Point"},"properties":{"osm_id":"3407639393","tag":{"amenity":"waste_basket"}},"type":"Feature"},
	{"geometry":{"coordinates":[27.699288,53.929068],"type":"Point"},"properties":{"osm_id":"3525707193","tag":{"amenity":"waste_basket"}},"type":"Feature"},
	{"geometry":{"coordinates":[27.698413,53.927216],"type":"Point"},"properties":{"osm_id":"3539640980","tag":{"amenity":"waste_basket"}},"type":"Feature"},
	{"geometry":{"coordinates":[27.69723,53.930186],"type":"Point"},"properties":{"osm_id":"3594895484","tag":{"amenity":"waste_basket"}},"type":"Feature"},
	{"geometry":{"coordinates":[27.697798,53.930199],"type":"Point"},"properties":{"osm_id":"3594895486","tag":{"amenity":"waste_basket"}},"type":"Feature"},
	{"geometry":{"coordinates":[27.686912,53.938403],"type":"Point"},"properties":{"osm_id":"3638295941","tag":{"amenity":"recycling","operator":"\u00d0\u0091\u00d0\u0095\u00d0\u009b\u00d0\u0093\u00d0\u0098\u00d0\u009f\u00d0\u00a1-\u00d0\u00ad\u00d0\u009a\u00d0\u009e","operator:ru":"\u00d0\u0091\u00d0\u0095\u00d0\u009b\u00d0\u0093\u00d0\u0098\u00d0\u009f\u00d0\u00a1-\u00d0\u00ad\u00d0\u009a\u00d0\u009e","phone":"+375 33 3336272","recycling:books":"yes","recycling:magazines":"yes","recycling:newspaper":"yes","recycling:paper":"yes","recycling_type":"container","website":"http://www.belgips.by/belgips-eko/"}},"type":"Feature"},
	{"geometry":{"coordinates":[27.716717,53.946237],"type":"Point"},"properties":{"osm_id":"3798353438","tag":{"amenity":"recycling","recycling_type":"container"}},"type":"Feature"},
	{"geometry":{"coordinates":[27.712552,53.947694],"type":"Point"},"properties":{"osm_id":"3798353443","tag":{"amenity":"recycling","recycling_type":"container"}},"type":"Feature"},
	{"geometry":{"coordinates":[27.721321,53.944582],"type":"Point"},"properties":{"osm_id":"3815573812","tag":{"amenity":"recycling","recycling_type":"container"}},"type":"Feature"},
	{"geometry":{"coordinates":[27.72301,53.944654],"type":"Point"},"properties":{"osm_id":"3815607634","tag":{"amenity":"recycling","recycling_type":"container"}},"type":"Feature"},
	{"geometry":{"coordinates":[27.72398,53.944703],"type":"Point"},"properties":{"osm_id":"3815607635","tag":{"amenity":"recycling"}},"type":"Feature"},
	{"geometry":{"coordinates":[27.721038,53.943876],"type":"Point"},"properties":{"osm_id":"3815607640","tag":{"amenity":"recycling","recycling_type":"container"}},"type":"Feature"},
	{"geometry":{"coordinates":[27.726607,53.942118],"type":"Point"},"properties":{"osm_id":"3821097166","tag":{"amenity":"recycling"}},"type":"Feature"},
	{"geometry":{"coordinates":[27.726664,53.941495],"type":"Point"},"properties":{"osm_id":"3821097167","tag":{"amenity":"recycling"}},"type":"Feature"},
	{"geometry":{"coordinates":[27.715675,53.949064],"type":"Point"},"properties":{"osm_id":"3836026582","tag":{"amenity":"waste_disposal"}},"type":"Feature"},
	{"geometry":{"coordinates":[27.715167,53.948703],"type":"Point"},"properties":{"osm_id":"3836026583","tag":{"amenity":"waste_disposal"}},"type":"Feature"},
	{"geometry":{"coordinates":[27.718735,53.945019],"type":"Point"},"properties":{"osm_id":"3836478054","tag":{"amenity":"waste_disposal"}},"type":"Feature"},
	{"geometry":{"coordinates":[27.685941,53.928347],"type":"Point"},"properties":{"osm_id":"3867003318","tag":{"amenity":"waste_basket"}},"type":"Feature"},
	{"geometry":{"coordinates":[27.685935,53.928409],"type":"Point"},"properties":{"osm_id":"3867003324","tag":{"amenity":"waste_basket"}},"type":"Feature"},
	{"geometry":{"coordinates":[27.6863,53.928756],"type":"Point"},"properties":{"osm_id":"3867003335","tag":{"amenity":"waste_basket"}},"type":"Feature"},
	{"geometry":{"coordinates":[27.686762,53.928854],"type":"Point"},"properties":{"osm_id":"3867003340","tag":{"amenity":"waste_basket"}},"type":"Feature"},
	{"geometry":{"coordinates":[27.68715,53.928939],"type":"Point"},"properties":{"osm_id":"3867003344","tag":{"amenity":"waste_basket"}},"type":"Feature"},
	{"geometry":{"coordinates":[27.698372,53.927798],"type":"Point"},"properties":{"osm_id":"4007714201","tag":{"amenity":"recycling","operator":"\u00d0\u0091\u00d0\u0095\u00d0\u009b\u00d0\u0093\u00d0\u0098\u00d0\u009f\u00d0\u00a1-\u00d0\u00ad\u00d0\u009a\u00d0\u009e","operator:ru":"\u00d0\u0091\u00d0\u0095\u00d0\u009b\u00d0\u0093\u00d0\u0098\u00d0\u009f\u00d0\u00a1-\u00d0\u00ad\u00d0\u009a\u00d0\u009e","phone":"+375 33 3336272","recycling:books":"yes","recycling:magazines":"yes","recycling:newspaper":"yes","recycling:paper":"yes","recycling_type":"container","website":"http://www.belgips.by/belgips-eko/"}},"type":"Feature"},
	{"geometry":{"coordinates":[27.68721,53.947006],"type":"Point"},"properties":{"osm_id":"4038405383","tag":{"amenity":"recycling","location":"overground","recycling_type":"container"}},"type":"Feature"},
	{"geometry":{"coordinates":[27.69629,53.926364],"type":"Point"},"properties":{"osm_id":"4101943589","tag":{"amenity":"waste_disposal"}},"type":"Feature"},
	{"geometry":{"coordinates":[27.69874,53.92976],"type":"Point"},"properties":{"osm_id":"4167937311","tag":{"amenity":"recycling","recycling:paper":"yes","recycling_type":"container"}},"type":"Feature"},
	{"geometry":{"coordinates":[27.694239,53.94677],"type":"Point"},"properties":{"osm_id":"4167937312","tag":{"amenity":"recycling","recycling:paper":"yes","recycling_type":"container"}},"type":"Feature"},
	{"geometry":{"coordinates":[27.691273,53.954471],"type":"Point"},"properties":{"osm_id":"4167937313","tag":{"amenity":"recycling","recycling:paper":"yes","recycling_type":"container"}},"type":"Feature"},
	{"geometry":{"coordinates":[27.697744,53.944087],"type":"Point"},"properties":{"osm_id":"4222403874","tag":{"amenity":"recycling","recycling:paper":"yes","recycling_type":"container"}},"type":"Feature"},
	{"geometry":{"coordinates":[27.689509,53.952979],"type":"Point"},"properties":{"osm_id":"4263359469","tag":{"amenity":"recycling","recycling:paper":"yes","recycling_type":"container"}},"type":"Feature"},
	{"geometry":{"coordinates":[27.68851,53.935775],"type":"Point"},"properties":{"osm_id":"4298928239","tag":{"amenity":"recycling","operator":"\u00d0\u0091\u00d0\u0095\u00d0\u009b\u00d0\u0092\u00d0\u00a2\u00d0\u0098","recycling:batteries":"yes","recycling:electrical_appliances":"yes","recycling_type":"container"}},"type":"Feature"},
	{"geometry":{"coordinates":[27.68809,53.938348],"type":"Point"},"properties":{"osm_id":"4298928249","tag":{"amenity":"recycling","operator":"\u00d0\u0091\u00d0\u0095\u00d0\u009b\u00d0\u0092\u00d0\u00a2\u00d0\u0098","recycling:batteries":"yes","recycling:electrical_appliances":"yes","recycling_type":"container"}},"type":"Feature"},
	{"geometry":{"coordinates":[27.708134,53.942882],"type":"Point"},"properties":{"osm_id":"4298928255","tag":{"amenity":"recycling","operator":"\u00d0\u0091\u00d0\u0095\u00d0\u009b\u00d0\u0092\u00d0\u00a2\u00d0\u0098","recycling:batteries":"yes","recycling:electrical_appliances":"yes","recycling_type":"container"}},"type":"Feature"},
	{"geometry":{"coordinates":[27.693614,53.950775],"type":"Point"},"properties":{"osm_id":"4298928275","tag":{"amenity":"recycling","operator":"\u00d0\u0091\u00d0\u0095\u00d0\u009b\u00d0\u0092\u00d0\u00a2\u00d0\u0098","recycling:batteries":"yes","recycling:electrical_appliances":"yes","recycling_type":"container"}},"type":"Feature"},
	{"geometry":{"coordinates":[27.693508,53.948647],"type":"Point"},"properties":{"osm_id":"4329729416","tag":{"amenity":"recycling","recycling:paper":"yes","recycling_type":"container"}},"type":"Feature"},
	{"geometry":{"coordinates":[27.686434,53.942354],"type":"Point"},"properties":{"osm_id":"4369621453","tag":{"amenity":"recycling","operator":"\u00d0\u0091\u00d0\u0095\u00d0\u009b\u00d0\u0093\u00d0\u0098\u00d0\u009f\u00d0\u00a1-\u00d0\u00ad\u00d0\u009a\u00d0\u009e","operator:ru":"\u00d0\u0091\u00d0\u0095\u00d0\u009b\u00d0\u0093\u00d0\u0098\u00d0\u009f\u00d0\u00a1-\u00d0\u00ad\u00d0\u009a\u00d0\u009e","phone":"+375 33 3336272","recycling:books":"yes","recycling:magazines":"yes","recycling:newspaper":"yes","recycling:paper":"yes","recycling_type":"container"}},"type":"Feature"},
	{"geometry":{"coordinates":[27.690753,53.941106],"type":"Point"},"properties":{"osm_id":"4398854918","tag":{"amenity":"waste_disposal"}},"type":"Feature"},
	{"geometry":{"coordinates":[27.690778,53.941073],"type":"Point"},"properties":{"osm_id":"4398874103","tag":{"amenity":"waste_disposal"}},"type":"Feature"},
	{"geometry":{"coordinates":[27.690767,53.941091],"type":"Point"},"properties":{"osm_id":"4398887202","tag":{"amenity":"waste_disposal"}},"type":"Feature"},
	{"geometry":{"coordinates":[27.692154,53.948373],"type":"Point"},"properties":{"osm_id":"4447499290","tag":{"amenity":"waste_basket"}},"type":"Feature"},
	{"geometry":{"coordinates":[27.692573,53.94846],"type":"Point"},"properties":{"osm_id":"4447499291","tag":{"amenity":"waste_basket"}},"type":"Feature"},
	{"geometry":{"coordinates":[27.691662,53.948433],"type":"Point"},"properties":{"osm_id":"4447577189","tag":{"amenity":"waste_basket"}},"type":"Feature"},
	{"geometry":{"coordinates":[27.690808,53.949063],"type":"Point"},"properties":{"osm_id":"4451746691","tag":{"amenity":"waste_basket"}},"type":"Feature"},
	{"geometry":{"coordinates":[27.688617,53.938509],"type":"Point"},"properties":{"osm_id":"4465346087","tag":{"amenity":"recycling","operator":"\u00d0\u0091\u00d0\u0095\u00d0\u009b\u00d0\u0093\u00d0\u0098\u00d0\u009f\u00d0\u00a1-\u00d0\u00ad\u00d0\u009a\u00d0\u009e","operator:ru":"\u00d0\u0091\u00d0\u0095\u00d0\u009b\u00d0\u0093\u00d0\u0098\u00d0\u009f\u00d0\u00a1-\u00d0\u00ad\u00d0\u009a\u00d0\u009e","phone":"+375 33 3336272","recycling:books":"yes","recycling:magazines":"yes","recycling:newspaper":"yes","recycling:paper":"yes","recycling_type":"container"}},"type":"Feature"},
	{"geometry":{"coordinates":[27.699858,53.928692],"type":"Point"},"properties":{"osm_id":"4475509393","tag":{"amenity":"recycling","recycling:paper":"yes","recycling_type":"container"}},"type":"Feature"},
	{"geometry":{"coordinates":[27.700206,53.929767],"type":"Point"},"properties":{"osm_id":"4475509398","tag":{"amenity":"recycling","recycling:paper":"yes","recycling_type":"container"}},"type":"Feature"},
	{"geometry":{"coordinates":[27.718576,53.945104],"type":"Point"},"properties":{"osm_id":"4484055102","tag":{"amenity":"waste_disposal"}},"type":"Feature"},
	{"geometry":{"coordinates":[27.718065,53.94526],"type":"Point"},"properties":{"osm_id":"4484055122","tag":{"amenity":"waste_basket"}},"type":"Feature"},
	{"geometry":{"coordinates":[27.753557,53.918604],"type":"Point"},"properties":{"osm_id":"4517392862","tag":{"amenity":"waste_basket"}},"type":"Feature"},
	{"geometry":{"coordinates":[27.722776,53.940194],"type":"Point"},"properties":{"osm_id":"4815007966","tag":{"amenity":"waste_disposal"}},"type":"Feature"},
	{"geometry":{"coordinates":[27.690001,53.934578],"type":"Point"},"properties":{"osm_id":"5022860097","tag":{"amenity":"recycling","recycling:glass":"yes","recycling:plastic":"yes","recycling:waste":"yes","recycling_type":"container"}},"type":"Feature"},
	{"geometry":{"coordinates":[27.688202,53.935357],"type":"Point"},"properties":{"osm_id":"5224609168","tag":{"amenity":"recycling","operator":"\u00d0\u0091\u00d0\u0095\u00d0\u009b\u00d0\u0093\u00d0\u0098\u00d0\u009f\u00d0\u00a1-\u00d0\u00ad\u00d0\u009a\u00d0\u009e","operator:ru":"\u00d0\u0091\u00d0\u0095\u00d0\u009b\u00d0\u0093\u00d0\u0098\u00d0\u009f\u00d0\u00a1-\u00d0\u00ad\u00d0\u009a\u00d0\u009e","phone":"+375 33 3336272","recycling:books":"yes","recycling:magazines":"yes","recycling:newspaper":"yes","recycling:paper":"yes","recycling_type":"container"}},"type":"Feature"},
	{"geometry":{"coordinates":[27.688968,53.937415],"type":"Point"},"properties":{"osm_id":"5312253221","tag":{"amenity":"waste_disposal"}},"type":"Feature"},
	{"geometry":{"coordinates":[27.689869,53.938051],"type":"Point"},"properties":{"osm_id":"5312253222","tag":{"amenity":"waste_disposal"}},"type":"Feature"},
	{"geometry":{"coordinates":[27.707264,53.944642],"type":"Point"},"properties":{"osm_id":"5314501525","tag":{"amenity":"waste_disposal"}},"type":"Feature"},
	{"geometry":{"coordinates":[27.709728,53.945842],"type":"Point"},"properties":{"osm_id":"5314517221","tag":{"amenity":"waste_disposal"}},"type":"Feature"},
	{"geometry":{"coordinates":[27.710539,53.94633],"type":"Point"},"properties":{"osm_id":"5314517222","tag":{"amenity":"waste_disposal"}},"type":"Feature"},
	{"geometry":{"coordinates":[27.694739,53.939664],"type":"Point"},"properties":{"name":"\u00d0\u009f\u00d1\u0083\u00d0\u00bd\u00d0\u00ba\u00d1\u0082 \u00d0\u00bf\u00d1\u0080\u00d0\u00b8\u00d0\u00b5\u00d0\u00bc\u00d0\u00b0 \u00d0\u00b2\u00d1\u0082\u00d0\u00be\u00d1\u0080\u00d1\u0081\u00d1\u008b\u00d1\u0080\u00d1\u008c\u00d1\u008f","osm_id":"5314533222","tag":{"amenity":"recycling"}},"type":"Feature"},
	{"geometry":{"coordinates":[27.688009,53.945993],"type":"Point"},"properties":{"osm_id":"5437145588","tag":{"amenity":"recycling","operator":"\u00d0\u0091\u00d0\u0095\u00d0\u009b\u00d0\u0093\u00d0\u0098\u00d0\u009f\u00d0\u00a1-\u00d0\u00ad\u00d0\u009a\u00d0\u009e","operator:ru":"\u00d0\u0091\u00d0\u0095\u00d0\u009b\u00d0\u0093\u00d0\u0098\u00d0\u009f\u00d0\u00a1-\u00d0\u00ad\u00d0\u009a\u00d0\u009e","phone":"+375 33 3336272","recycling:books":"yes","recycling:magazines":"yes","recycling:newspaper":"yes","recycling:paper":"yes","recycling_type":"container"}},"type":"Feature"},
	{"geometry":{"coordinates":[27.687621,53.954504],"type":"Point"},"properties":{"osm_id":"5555069322","tag":{"amenity":"recycling"}},"type":"Feature"},
	{"geometry":{"coordinates":[27.689982,53.944769],"type":"Point"},"properties":{"osm_id":"5563141623","tag":{"amenity":"waste_disposal"}},"type":"Feature"},
	{"geometry":{"coordinates":[27.690777,53.945919],"type":"Point"},"properties":{"osm_id":"5563142623","tag":{"amenity":"waste_disposal"}},"type":"Feature"},
	{"geometry":{"coordinates":[27.718561,53.951202],"type":"Point"},"properties":{"osm_id":"5644415122","tag":{"amenity":"waste_disposal","operator":"\u00d0\u009b\u00d0\u00b8\u00d0\u00bf\u00d0\u00b5\u00d0\u00bd\u00d1\u008c"}},"type":"Feature"},
	{"geometry":{"coordinates":[27.718522,53.951221],"type":"Point"},"properties":{"osm_id":"5644447321","tag":{"amenity":"waste_disposal","operator":"\u00d0\u009b\u00d0\u00b8\u00d0\u00bf\u00d0\u00b5\u00d0\u00bd\u00d1\u008c"}},"type":"Feature"},
	{"geometry":{"coordinates":[27.718486,53.951239],"type":"Point"},"properties":{"osm_id":"5644447421","tag":{"amenity":"waste_disposal","operator":"\u00d0\u009b\u00d0\u00b8\u00d0\u00bf\u00d0\u00b5\u00d0\u00bd\u00d1\u008c"}},"type":"Feature"},
	{"geometry":{"coordinates":[27.717386,53.951386],"type":"Point"},"properties":{"osm_id":"5644447522","tag":{"amenity":"waste_basket"}},"type":"Feature"},
	{"geometry":{"coordinates":[27.715926,53.932877],"type":"Point"},"properties":{"osm_id":"5790059325","tag":{"amenity":"waste_disposal"}},"type":"Feature"},
	{"geometry":{"coordinates":[27.717324,53.950426],"type":"Point"},"properties":{"osm_id":"5804829655","tag":{"amenity":"waste_disposal","operator":"\u00d0\u009b\u00d0\u00b8\u00d0\u00bf\u00d0\u00b5\u00d0\u00bd\u00d1\u008c"}},"type":"Feature"},
	{"geometry":{"coordinates":[27.717285,53.950444],"type":"Point"},"properties":{"osm_id":"5804829656","tag":{"amenity":"waste_disposal","operator":"\u00d0\u009b\u00d0\u00b8\u00d0\u00bf\u00d0\u00b5\u00d0\u00bd\u00d1\u008c"}},"type":"Feature"},
	{"geometry":{"coordinates":[27.71725,53.950462],"type":"Point"},"properties":{"osm_id":"5804829657","tag":{"amenity":"waste_disposal","operator":"\u00d0\u009b\u00d0\u00b8\u00d0\u00bf\u00d0\u00b5\u00d0\u00bd\u00d1\u008c"}},"type":"Feature"},
	{"geometry":{"coordinates":[27.717092,53.951055],"type":"Point"},"properties":{"osm_id":"6080549993","tag":{"amenity":"waste_basket"}},"type":"Feature"},
	{"geometry":{"coordinates":[27.719431,53.950926],"type":"Point"},"properties":{"osm_id":"6163826428","tag":{"amenity":"waste_disposal"}},"type":"Feature"},
	{"geometry":{"coordinates":[27.719357,53.950658],"type":"Point"},"properties":{"osm_id":"6163850353","tag":{"amenity":"waste_disposal"}},"type":"Feature"},
	{"geometry":{"coordinates":[27.719815,53.950254],"type":"Point"},"properties":{"osm_id":"6163850354","tag":{"amenity":"waste_disposal"}},"type":"Feature"},
	{"geometry":{"coordinates":[27.719366,53.95042],"type":"Point"},"properties":{"osm_id":"6163851577","tag":{"amenity":"waste_disposal"}},"type":"Feature"},
	{"geometry":{"coordinates":[27.720259,53.950251],"type":"Point"},"properties":{"osm_id":"6163851859","tag":{"amenity":"waste_disposal"}},"type":"Feature"},
	{"geometry":{"coordinates":[27.720677,53.950261],"type":"Point"},"properties":{"osm_id":"6163851860","tag":{"amenity":"waste_disposal"}},"type":"Feature"},
	{"geometry":{"coordinates":[27.720745,53.950399],"type":"Point"},"properties":{"osm_id":"6163851861","tag":{"amenity":"waste_disposal"}},"type":"Feature"},
	{"geometry":{"coordinates":[27.720742,53.950595],"type":"Point"},"properties":{"osm_id":"6163851862","tag":{"amenity":"waste_disposal"}},"type":"Feature"},
	{"geometry":{"coordinates":[27.720813,53.950861],"type":"Point"},"properties":{"osm_id":"6163851863","tag":{"amenity":"waste_disposal"}},"type":"Feature"},
	{"geometry":{"coordinates":[27.720522,53.950893],"type":"Point"},"properties":{"osm_id":"6163851864","tag":{"amenity":"waste_disposal"}},"type":"Feature"},
	{"geometry":{"coordinates":[27.719829,53.950933],"type":"Point"},"properties":{"osm_id":"6163851865","tag":{"amenity":"waste_disposal"}},"type":"Feature"},
	{"geometry":{"coordinates":[27.716915,53.948865],"type":"Point"},"properties":{"osm_id":"6163857229","tag":{"amenity":"waste_disposal"}},"type":"Feature"},
	{"geometry":{"coordinates":[27.716606,53.948638],"type":"Point"},"properties":{"osm_id":"6163857230","tag":{"amenity":"waste_disposal"}},"type":"Feature"},
	{"geometry":{"coordinates":[27.716274,53.948398],"type":"Point"},"properties":{"osm_id":"6163857231","tag":{"amenity":"waste_disposal"}},"type":"Feature"},
	{"geometry":{"coordinates":[27.715659,53.94787],"type":"Point"},"properties":{"osm_id":"6163947624","tag":{"amenity":"waste_disposal"}},"type":"Feature"},
	{"geometry":{"coordinates":[27.715327,53.947651],"type":"Point"},"properties":{"osm_id":"6163948427","tag":{"amenity":"waste_disposal"}},"type":"Feature"},
	{"geometry":{"coordinates":[27.715011,53.947443],"type":"Point"},"properties":{"osm_id":"6163949794","tag":{"amenity":"waste_disposal"}},"type":"Feature"},
	{"geometry":{"coordinates":[27.688648,53.933392],"type":"Point"},"properties":{"osm_id":"6525473767","tag":{"amenity":"waste_disposal"}},"type":"Feature"},
	{"geometry":{"coordinates":[27.717971,53.948006],"type":"Point"},"properties":{"osm_id":"6759234989","tag":{"amenity":"waste_disposal"}},"type":"Feature"},
	{"geometry":{"coordinates":[27.703737,53.94522],"type":"Point"},"properties":{"osm_id":"6765585887","tag":{"amenity":"waste_disposal"}},"type":"Feature"},
	{"geometry":{"coordinates":[27.7027,53.945833],"type":"Point"},"properties":{"osm_id":"6765592587","tag":{"amenity":"waste_disposal"}},"type":"Feature"},
	{"geometry":{"coordinates":[27.703194,53.946611],"type":"Point"},"properties":{"osm_id":"6765592685","tag":{"amenity":"waste_disposal","operator":"\u00d0\u00a2\u00d0\u00be\u00d0\u00b2\u00d0\u00b0\u00d1\u0080\u00d0\u00b8\u00d1\u0089\u00d0\u00b5\u00d1\u0081\u00d1\u0082\u00d0\u00b2\u00d0\u00be \u00d1\u0081\u00d0\u00be\u00d0\u00b1\u00d1\u0081\u00d1\u0082\u00d0\u00b2\u00d0\u00b5\u00d0\u00bd\u00d0\u00bd\u00d0\u00b8\u00d0\u00ba\u00d0\u00be\u00d0\u00b2 \"\u00d0\u009b\u00d0\u00b5\u00d1\u0081\u00d0\u00bd\u00d0\u00be\u00d0\u00b9 \u00d0\u00b3\u00d0\u00be\u00d1\u0080\u00d0\u00be\u00d0\u00b4\u00d0\u00be\u00d0\u00ba\""}},"type":"Feature"},
	{"geometry":{"coordinates":[27.698454,53.939945],"type":"Point"},"properties":{"osm_id":"6771411360","tag":{"amenity":"waste_disposal"}},"type":"Feature"},
	{"geometry":{"coordinates":[27.694076,53.937301],"type":"Point"},"properties":{"osm_id":"6773651768","tag":{"amenity":"waste_disposal"}},"type":"Feature"},
	{"geometry":{"coordinates":[27.696368,53.937417],"type":"Point"},"properties":{"osm_id":"6773651770","tag":{"amenity":"waste_disposal"}},"type":"Feature"},
	{"geometry":{"coordinates":[27.699683,53.940243],"type":"Point"},"properties":{"osm_id":"6773651773","tag":{"amenity":"waste_disposal"}},"type":"Feature"},
	{"geometry":{"coordinates":[27.695039,53.93819],"type":"Point"},"properties":{"osm_id":"6773651774","tag":{"amenity":"waste_disposal"}},"type":"Feature"}
]
}
