{
"type": "FeatureCollection",
"lastupdate": "2020-08-04T00:00:00Z",
"features": [
	{"geometry":{"coordinates":[27.689643,53.882436],"type":"Point"},"properties":{"osm_id":"3421417222","tag":{"amenity":"recycling"}},"type":"Feature"},
	{"geometry":{"coordinates":[27.689648,53.889034],"type":"Point"},"properties":{"osm_id":"4011686912","tag":{"amenity":"waste_basket"}},"type":"Feature"},
	{"geometry":{"coordinates":[27.691026,53.888796],"type":"Point"},"properties":{"osm_id":"4496790154","tag":{"amenity":"recycling","recycling:paper":"yes","recycling:scrap_metal":"yes","recycling_type":"centre"}},"type":"Feature"},
	{"geometry":{"coordinates":[27.685951,53.868594],"type":"Point"},"properties":{"osm_id":"4561834915","tag":{"addr:city":"\u041c\u0438\u043d\u0441\u043a","addr:housenumber":"58","addr:street":"\u0411\u0430\u0439\u043a\u0430\u043b\u044c\u0441\u043a\u0430\u044f \u0443\u043b\u0438\u0446\u0430","amenity":"recycling","opening_hours":"\u0410\u045e\u0442\u043e\u0440\u0430\u043a, \u041f\u044f\u0442\u043d\u0456\u0446\u0430: 9:00-11:00","operator":"\u0423\u041f \u00ab\u042d\u043a\u043e\u0440\u0435\u0441\u00bb","recycling:glass":"yes","recycling:paper":"yes","recycling:plastic":"yes","recycling_type":"centre"}},"type":"Feature"},
	{"geometry":{"coordinates":[27.694024,53.854758],"type":"Point"},"properties":{"name":"\u00d0\u00a1\u00d0\u00b1\u00d0\u00be\u00d1\u0080 \u00d0\u00bf\u00d0\u00bb\u00d0\u00b0\u00d1\u0081\u00d1\u0082\u00d0\u00b8\u00d0\u00ba\u00d0\u00b0, \u00d1\u0081\u00d1\u0082\u00d0\u00b5\u00d0\u00ba\u00d0\u00bb\u00d0\u00b0, \u00d0\u00b1\u00d1\u0083\u00d0\u00bc\u00d0\u00b0\u00d0\u00b3\u00d0\u00b8","osm_id":"4781891125","tag":{"amenity":"recycling","name:ru":"\u0421\u0431\u043e\u0440 \u043f\u043b\u0430\u0441\u0442\u0438\u043a\u0430, \u0441\u0442\u0435\u043a\u043b\u0430, \u0431\u0443\u043c\u0430\u0433\u0438","operator":"Datkom","recycling:glass":"yes","recycling:paper":"yes","recycling:plastic":"yes","recycling_type":"container","website":"http://datkom.by"}},"type":"Feature"}
]
}
