{
"type": "FeatureCollection",
"features": [
	{"geometry":{"coordinates":[-53.853684,-29.683397],"type":"Point"},"properties":{"name":"Associa\u00c3\u00a7\u00c3\u00a3o dos Selecionadores de Materiais Recicl\u00c3\u00a1veis","osm_id":"2742508430","tag":{"addr:street":"Rua dos Branquilhos","amenity":"recycling","recycling_type":"centre","short_name":"ASMAR"}},"type":"Feature"},
	{"geometry":{"coordinates":[-53.80547,-29.642369],"type":"Point"},"properties":{"osm_id":"3741548957","tag":{"amenity":"waste_disposal","colour":"green"}},"type":"Feature"},
	{"geometry":{"coordinates":[-53.789472,-29.659717],"type":"Point"},"properties":{"osm_id":"3768798083","tag":{"amenity":"waste_basket","inscription":"Associa\u00c3\u00a7\u00c3\u00a3o Santa-mariense de Esportes N\u00c3\u00a1uticos"}},"type":"Feature"},
	{"geometry":{"coordinates":[-53.789345,-29.659789],"type":"Point"},"properties":{"osm_id":"3768798087","tag":{"amenity":"waste_basket","inscription":"Associa\u00c3\u00a7\u00c3\u00a3o Santa-mariense de Esportes N\u00c3\u00a1uticos"}},"type":"Feature"},
	{"geometry":{"coordinates":[-53.789172,-29.659875],"type":"Point"},"properties":{"osm_id":"3768798093","tag":{"amenity":"waste_basket","inscription":"Associa\u00c3\u00a7\u00c3\u00a3o Santa-mariense de Esportes N\u00c3\u00a1uticos"}},"type":"Feature"},
	{"geometry":{"coordinates":[-53.789295,-29.657507],"type":"Point"},"properties":{"osm_id":"3790411928","tag":{"amenity":"waste_disposal","operator":"Revita"}},"type":"Feature"},
	{"geometry":{"coordinates":[-53.792934,-29.652732],"type":"Point"},"properties":{"osm_id":"3791871241","tag":{"amenity":"waste_disposal"}},"type":"Feature"},
	{"geometry":{"coordinates":[-53.792534,-29.686393],"type":"Point"},"properties":{"osm_id":"4634811830","ref":"307","tag":{"access":"yes","addr:housenumber":"1703","addr:street":"Rua Euclides da Cunha","amenity":"waste_disposal","capacity":"3.2","contact:phone":"+55 55 99101-2028;+55 51 2107-2107;+55 55 3921-7151","fee":"no","operator":"Conesul Solu\u00c3\u00a7\u00c3\u00b5es Ambientais"}},"type":"Feature"},
	{"geometry":{"coordinates":[-53.853902,-29.683275],"type":"Point"},"properties":{"name":"Associa\u00c3\u00a7\u00c3\u00a3o de Recicladoras da Vila P\u00c3\u00b4r-do-Sol","osm_id":"4806045376","tag":{"addr:street":"Rua dos Branquilhos","amenity":"recycling","recycling_type":"centre","short_name":"ARPS"}},"type":"Feature"},
	{"geometry":{"coordinates":[-53.81799,-29.686085],"type":"Point"},"properties":{"osm_id":"5890677416","ref":"481","tag":{"amenity":"waste_disposal"}},"type":"Feature"},
	{"geometry":{"coordinates":[-53.807412,-29.686345],"type":"Point"},"properties":{"osm_id":"7248379124","tag":{"amenity":"recycling","operator":"Panvel","recycling:drugs":"yes","recycling_type":"container"}},"type":"Feature"},
	{"geometry":{"coordinates":[-53.80871,-29.68228],"type":"Point"},"properties":{"osm_id":"7248379125","tag":{"amenity":"recycling","operator":"Panvel","recycling:drugs":"yes","recycling_type":"container"}},"type":"Feature"},
	{"geometry":{"coordinates":[-53.826315,-29.681391],"type":"Point"},"properties":{"name":"Associa\u00c3\u00a7\u00c3\u00a3o de Reciclagem Seletivo Esperan\u00c3\u00a7a","osm_id":"7356021796","tag":{"addr:housenumber":"511","addr:street":"Avenida Borges de Medeiros","amenity":"recycling","recycling_type":"centre","ref:vatin":"BR06945549000135","short_name":"ARSELE"}},"type":"Feature"}
]
}
