{
"type": "FeatureCollection",
"features": [
	{"geometry":{"coordinates":[-53.803915,-29.700854],"type":"Point"},"properties":{"osm_id":"3361484785","tag":{"amenity":"waste_disposal"}},"type":"Feature"},
	{"geometry":{"coordinates":[-53.80428,-29.700124],"type":"Point"},"properties":{"osm_id":"3361493097","tag":{"amenity":"waste_disposal"}},"type":"Feature"},
	{"geometry":{"coordinates":[-53.800155,-29.689959],"type":"Point"},"properties":{"osm_id":"4075113705","tag":{"amenity":"waste_disposal"}},"type":"Feature"},
	{"geometry":{"coordinates":[-53.792891,-29.689187],"type":"Point"},"properties":{"osm_id":"7776602019","tag":{"amenity":"recycling","operator":"S\u00c3\u00a3o Jo\u00c3\u00a3o","recycling:drugs":"yes","recycling_type":"container"}},"type":"Feature"},
	{"geometry":{"coordinates":[-53.809725,-29.692821],"type":"Point"},"properties":{"osm_id":"8051042884","tag":{"amenity":"recycling","operator":"Peruzzo","recycling:batteries":"yes","recycling:fluorescent_tubes":"yes","recycling_type":"container"}},"type":"Feature"}
]
}
