{
"type": "FeatureCollection",
"features": [
	{"geometry":{"coordinates":[13.688234,54.377553],"type":"Point"},"properties":{"osm_id":"436927875","tag":{"amenity":"recycling","opening_hours":"Mo-Sa 08:00-19:00","recycling:cans":"no","recycling:glass_bottles":"yes","recycling_type":"container"}},"type":"Feature"},
	{"geometry":{"coordinates":[13.680896,54.379243],"type":"Point"},"properties":{"osm_id":"1704726900","tag":{"amenity":"waste_basket"}},"type":"Feature"},
	{"geometry":{"coordinates":[13.676022,54.368705],"type":"Point"},"properties":{"osm_id":"2927913478","tag":{"amenity":"recycling","check_date":"2021-07-13","recycling:glass":"yes","recycling:glass_bottles":"yes","recycling_type":"container"}},"type":"Feature"},
	{"geometry":{"coordinates":[13.627511,54.381524],"type":"Point"},"properties":{"osm_id":"6189753389","tag":{"amenity":"waste_basket","waste":"trash"}},"type":"Feature"},
	{"geometry":{"coordinates":[13.627695,54.381493],"type":"Point"},"properties":{"osm_id":"6189753390","tag":{"amenity":"waste_basket","waste":"trash"}},"type":"Feature"},
	{"geometry":{"coordinates":[13.698805,54.37102],"type":"Point"},"properties":{"osm_id":"8878209352","tag":{"amenity":"waste_basket","colour":"grey","material":"metal"}},"type":"Feature"}
]
}
