{
"type": "FeatureCollection",
"features": [
	{"geometry":{"coordinates":[13.668572,52.530539],"type":"Point"},"properties":{"osm_id":"506265974","tag":{"amenity":"recycling","location":"overground","recycling_type":"container"}},"type":"Feature"},
	{"geometry":{"coordinates":[13.698982,52.524453],"type":"Point"},"properties":{"osm_id":"507120153","tag":{"amenity":"recycling"}},"type":"Feature"},
	{"geometry":{"coordinates":[13.677078,52.5196],"type":"Point"},"properties":{"osm_id":"1506015496","tag":{"amenity":"recycling","recycling:glass":"yes","recycling_type":"container"}},"type":"Feature"},
	{"geometry":{"coordinates":[13.662396,52.511303],"type":"Point"},"properties":{"osm_id":"2880070879","tag":{"amenity":"recycling","recycling:glass":"yes","recycling_type":"container"}},"type":"Feature"},
	{"geometry":{"coordinates":[13.642507,52.523066],"type":"Point"},"properties":{"osm_id":"3015362509","tag":{"amenity":"recycling","recycling:clothes":"yes","recycling:glass_bottles":"yes","recycling_type":"container"}},"type":"Feature"},
	{"geometry":{"coordinates":[13.646558,52.509876],"type":"Point"},"properties":{"name":"E.V.A. Eva","osm_id":"4170132193","tag":{"amenity":"recycling"}},"type":"Feature"},
	{"geometry":{"coordinates":[13.661737,52.503202],"type":"Point"},"properties":{"osm_id":"4778466257","tag":{"amenity":"recycling","recycling:gas_bottles":"yes","recycling_type":"container"}},"type":"Feature"},
	{"geometry":{"coordinates":[13.648037,52.515705],"type":"Point"},"properties":{"osm_id":"5186433560","tag":{"amenity":"waste_basket"}},"type":"Feature"},
	{"geometry":{"coordinates":[13.705045,52.483555],"type":"Point"},"properties":{"osm_id":"5998194253","tag":{"amenity":"waste_basket","waste":"trash"}},"type":"Feature"},
	{"geometry":{"coordinates":[13.639403,52.503804],"type":"Point"},"properties":{"osm_id":"7335537413","tag":{"amenity":"waste_basket"}},"type":"Feature"}
]
}
