{
"type": "FeatureCollection",
"features": [
	{"geometry":{"coordinates":[13.695312,52.468647],"type":"Point"},"properties":{"osm_id":"609621362","tag":{"amenity":"recycling","recycling:clothes":"yes"}},"type":"Feature"},
	{"geometry":{"coordinates":[13.695283,52.468746],"type":"Point"},"properties":{"osm_id":"609621388","tag":{"amenity":"recycling","opening_hours":"Jan 01-Jan 17","recycling:christmas_trees":"yes"}},"type":"Feature"},
	{"geometry":{"coordinates":[13.695298,52.468697],"type":"Point"},"properties":{"osm_id":"609621393","tag":{"amenity":"recycling","recycling:glass":"yes"}},"type":"Feature"},
	{"geometry":{"coordinates":[13.699408,52.43596],"type":"Point"},"properties":{"osm_id":"3715748985","tag":{"amenity":"recycling","recycling:glass_bottles":"yes","recycling_type":"container"}},"type":"Feature"},
	{"geometry":{"coordinates":[13.697137,52.436487],"type":"Point"},"properties":{"osm_id":"3715748990","tag":{"amenity":"recycling","recycling:glass_bottles":"yes","recycling_type":"container"}},"type":"Feature"},
	{"geometry":{"coordinates":[13.632888,52.456616],"type":"Point"},"properties":{"osm_id":"3893241178","tag":{"amenity":"waste_basket"}},"type":"Feature"},
	{"geometry":{"coordinates":[13.706142,52.434123],"type":"Point"},"properties":{"osm_id":"4012502953","tag":{"amenity":"recycling","recycling:glass_bottles":"yes","recycling_type":"container"}},"type":"Feature"},
	{"geometry":{"coordinates":[13.699274,52.435894],"type":"Point"},"properties":{"osm_id":"4012502956","tag":{"amenity":"waste_basket"}},"type":"Feature"},
	{"geometry":{"coordinates":[13.697456,52.436465],"type":"Point"},"properties":{"osm_id":"4012502961","tag":{"amenity":"waste_basket"}},"type":"Feature"},
	{"geometry":{"coordinates":[13.698826,52.438711],"type":"Point"},"properties":{"osm_id":"4012502972","tag":{"amenity":"waste_basket"}},"type":"Feature"},
	{"geometry":{"coordinates":[13.69882,52.438902],"type":"Point"},"properties":{"osm_id":"4012502973","tag":{"amenity":"waste_basket"}},"type":"Feature"},
	{"geometry":{"coordinates":[13.690391,52.441019],"type":"Point"},"properties":{"osm_id":"4012502976","tag":{"amenity":"recycling","recycling:glass_bottles":"yes","recycling_type":"container"}},"type":"Feature"},
	{"geometry":{"coordinates":[13.694028,52.441145],"type":"Point"},"properties":{"osm_id":"4012502979","tag":{"amenity":"waste_basket"}},"type":"Feature"},
	{"geometry":{"coordinates":[13.695274,52.44126],"type":"Point"},"properties":{"osm_id":"4012502981","tag":{"amenity":"waste_basket"}},"type":"Feature"},
	{"geometry":{"coordinates":[13.699925,52.441294],"type":"Point"},"properties":{"osm_id":"4012502984","tag":{"amenity":"waste_basket"}},"type":"Feature"},
	{"geometry":{"coordinates":[13.699678,52.4414],"type":"Point"},"properties":{"osm_id":"4012502986","tag":{"amenity":"waste_basket"}},"type":"Feature"},
	{"geometry":{"coordinates":[13.695978,52.472266],"type":"Point"},"properties":{"osm_id":"4612596566","tag":{"amenity":"waste_basket"}},"type":"Feature"},
	{"geometry":{"coordinates":[13.62823,52.446677],"type":"Point"},"properties":{"osm_id":"4908859223","tag":{"amenity":"waste_basket"}},"type":"Feature"},
	{"geometry":{"coordinates":[13.623506,52.446733],"type":"Point"},"properties":{"osm_id":"4908859224","tag":{"amenity":"waste_basket"}},"type":"Feature"},
	{"geometry":{"coordinates":[13.625291,52.457724],"type":"Point"},"properties":{"osm_id":"5037219822","tag":{"amenity":"waste_basket"}},"type":"Feature"},
	{"geometry":{"coordinates":[13.625104,52.457708],"type":"Point"},"properties":{"osm_id":"5037261921","tag":{"amenity":"waste_basket"}},"type":"Feature"},
	{"geometry":{"coordinates":[13.625209,52.457729],"type":"Point"},"properties":{"osm_id":"5037262021","tag":{"amenity":"waste_basket"}},"type":"Feature"},
	{"geometry":{"coordinates":[13.625287,52.457609],"type":"Point"},"properties":{"osm_id":"5037262022","tag":{"amenity":"waste_basket"}},"type":"Feature"},
	{"geometry":{"coordinates":[13.626308,52.457666],"type":"Point"},"properties":{"osm_id":"5037262023","tag":{"amenity":"waste_basket"}},"type":"Feature"},
	{"geometry":{"coordinates":[13.626697,52.457684],"type":"Point"},"properties":{"osm_id":"5037262121","tag":{"amenity":"waste_basket"}},"type":"Feature"},
	{"geometry":{"coordinates":[13.701742,52.480738],"type":"Point"},"properties":{"osm_id":"5998194245","tag":{"amenity":"waste_basket","waste":"trash"}},"type":"Feature"},
	{"geometry":{"coordinates":[13.703187,52.482546],"type":"Point"},"properties":{"osm_id":"5998194249","tag":{"amenity":"waste_basket","waste":"trash"}},"type":"Feature"},
	{"geometry":{"coordinates":[13.694233,52.472059],"type":"Point"},"properties":{"osm_id":"5998291111","tag":{"amenity":"waste_basket","waste":"trash"}},"type":"Feature"},
	{"geometry":{"coordinates":[13.696458,52.467004],"type":"Point"},"properties":{"osm_id":"5998325153","tag":{"amenity":"waste_basket","waste":"trash"}},"type":"Feature"},
	{"geometry":{"coordinates":[13.678936,52.469223],"type":"Point"},"properties":{"osm_id":"6261346954","tag":{"amenity":"recycling","recycling:glass_bottles":"yes","recycling_type":"container"}},"type":"Feature"},
	{"geometry":{"coordinates":[13.678952,52.469249],"type":"Point"},"properties":{"osm_id":"6261346955","tag":{"amenity":"recycling","recycling:clothes":"yes","recycling_type":"container"}},"type":"Feature"},
	{"geometry":{"coordinates":[13.685303,52.472808],"type":"Point"},"properties":{"osm_id":"6261346956","tag":{"amenity":"recycling","recycling:clothes":"yes","recycling_type":"container"}},"type":"Feature"},
	{"geometry":{"coordinates":[13.693119,52.474983],"type":"Point"},"properties":{"osm_id":"6261346957","tag":{"amenity":"recycling","recycling:glass":"yes","recycling_type":"container"}},"type":"Feature"},
	{"geometry":{"coordinates":[13.693106,52.475027],"type":"Point"},"properties":{"osm_id":"6261346958","tag":{"amenity":"recycling","recycling:clothes":"yes","recycling_type":"container"}},"type":"Feature"},
	{"geometry":{"coordinates":[13.699672,52.477531],"type":"Point"},"properties":{"osm_id":"6261380134","tag":{"amenity":"recycling","recycling:glass_bottles":"yes","recycling_type":"container"}},"type":"Feature"},
	{"geometry":{"coordinates":[13.699214,52.480569],"type":"Point"},"properties":{"osm_id":"7548697399","tag":{"amenity":"waste_basket","waste":"trash"}},"type":"Feature"}
]
}
