{
"type": "FeatureCollection",
"features": [
	{"geometry":{"coordinates":[13.700106,52.369334],"type":"Point"},"properties":{"osm_id":"738604873","tag":{"amenity":"waste_basket"}},"type":"Feature"},
	{"geometry":{"coordinates":[13.623714,52.324735],"type":"Point"},"properties":{"osm_id":"773657683","tag":{"amenity":"waste_basket"}},"type":"Feature"},
	{"geometry":{"coordinates":[13.623526,52.324707],"type":"Point"},"properties":{"osm_id":"773663715","tag":{"amenity":"waste_basket"}},"type":"Feature"},
	{"geometry":{"coordinates":[13.625438,52.323027],"type":"Point"},"properties":{"osm_id":"773669028","tag":{"amenity":"recycling","location":"underground","recycling_type":"container"}},"type":"Feature"},
	{"geometry":{"coordinates":[13.62553,52.329131],"type":"Point"},"properties":{"osm_id":"891507920","tag":{"amenity":"recycling","location":"overground","recycling:glass":"yes","recycling:paper":"yes","recycling_type":"container"}},"type":"Feature"},
	{"geometry":{"coordinates":[13.629328,52.373105],"type":"Point"},"properties":{"osm_id":"959472110","tag":{"amenity":"recycling","recycling:glass":"yes","recycling:glass:colour":"brown;white","recycling_type":"container"}},"type":"Feature"},
	{"geometry":{"coordinates":[13.63226,52.338767],"type":"Point"},"properties":{"osm_id":"1234643915","tag":{"amenity":"recycling","location":"underground","recycling:clothes":"yes","recycling:glass":"yes","recycling_type":"container"}},"type":"Feature"},
	{"geometry":{"coordinates":[13.624817,52.338708],"type":"Point"},"properties":{"osm_id":"1234644020","tag":{"amenity":"recycling","recycling:clothes":"yes"}},"type":"Feature"},
	{"geometry":{"coordinates":[13.624592,52.338439],"type":"Point"},"properties":{"osm_id":"1234644179","tag":{"amenity":"recycling","recycling:clothes":"yes"}},"type":"Feature"},
	{"geometry":{"coordinates":[13.646066,52.349296],"type":"Point"},"properties":{"osm_id":"1242393463","tag":{"amenity":"recycling","recycling:glass_bottles":"yes","recycling_type":"container"}},"type":"Feature"},
	{"geometry":{"coordinates":[13.634636,52.332951],"type":"Point"},"properties":{"osm_id":"1242393575","tag":{"amenity":"recycling","recycling:clothes":"yes","recycling:glass":"yes"}},"type":"Feature"},
	{"geometry":{"coordinates":[13.659578,52.339115],"type":"Point"},"properties":{"osm_id":"1242393840","tag":{"amenity":"recycling","recycling:glass_bottles":"yes","recycling_type":"container","wheelchair":"yes"}},"type":"Feature"},
	{"geometry":{"coordinates":[13.693786,52.37154],"type":"Point"},"properties":{"osm_id":"1331460598","tag":{"amenity":"recycling","recycling:glass_bottles":"yes","recycling_type":"container"}},"type":"Feature"},
	{"geometry":{"coordinates":[13.652532,52.375074],"type":"Point"},"properties":{"osm_id":"2078713403","tag":{"amenity":"waste_basket"}},"type":"Feature"},
	{"geometry":{"coordinates":[13.700448,52.368494],"type":"Point"},"properties":{"osm_id":"2169668973","tag":{"amenity":"waste_basket"}},"type":"Feature"},
	{"geometry":{"coordinates":[13.684239,52.370385],"type":"Point"},"properties":{"osm_id":"2169668998","tag":{"amenity":"waste_basket"}},"type":"Feature"},
	{"geometry":{"coordinates":[13.639507,52.323527],"type":"Point"},"properties":{"osm_id":"2200322930","tag":{"amenity":"waste_basket"}},"type":"Feature"},
	{"geometry":{"coordinates":[13.638957,52.323808],"type":"Point"},"properties":{"osm_id":"2200322933","tag":{"amenity":"waste_basket"}},"type":"Feature"},
	{"geometry":{"coordinates":[13.638172,52.323963],"type":"Point"},"properties":{"osm_id":"2200322937","tag":{"amenity":"waste_basket"}},"type":"Feature"},
	{"geometry":{"coordinates":[13.627983,52.349871],"type":"Point"},"properties":{"osm_id":"2481301585","tag":{"amenity":"waste_basket"}},"type":"Feature"},
	{"geometry":{"coordinates":[13.627267,52.351895],"type":"Point"},"properties":{"osm_id":"2481301600","tag":{"amenity":"recycling","recycling:glass_bottles":"yes","recycling_type":"container"}},"type":"Feature"},
	{"geometry":{"coordinates":[13.625092,52.361809],"type":"Point"},"properties":{"osm_id":"2481301895","tag":{"amenity":"waste_basket"}},"type":"Feature"},
	{"geometry":{"coordinates":[13.637234,52.326996],"type":"Point"},"properties":{"osm_id":"2799026951","tag":{"amenity":"waste_basket"}},"type":"Feature"},
	{"geometry":{"coordinates":[13.704459,52.370049],"type":"Point"},"properties":{"osm_id":"5722272703","tag":{"amenity":"recycling","recycling:glass_bottles":"yes","recycling_type":"container","wheelchair":"yes"}},"type":"Feature"},
	{"geometry":{"coordinates":[13.705437,52.323529],"type":"Point"},"properties":{"osm_id":"6102962843","tag":{"amenity":"waste_basket"}},"type":"Feature"},
	{"geometry":{"coordinates":[13.705535,52.323466],"type":"Point"},"properties":{"osm_id":"6102962844","tag":{"amenity":"waste_basket"}},"type":"Feature"},
	{"geometry":{"coordinates":[13.628618,52.350339],"type":"Point"},"properties":{"osm_id":"6838340404","tag":{"amenity":"waste_basket"}},"type":"Feature"},
	{"geometry":{"coordinates":[13.628262,52.349582],"type":"Point"},"properties":{"osm_id":"7574698677","tag":{"amenity":"waste_basket"}},"type":"Feature"},
	{"geometry":{"coordinates":[13.628077,52.35022],"type":"Point"},"properties":{"osm_id":"7574698681","tag":{"amenity":"waste_basket"}},"type":"Feature"},
	{"geometry":{"coordinates":[13.628425,52.349721],"type":"Point"},"properties":{"osm_id":"7574740487","tag":{"amenity":"waste_basket"}},"type":"Feature"},
	{"geometry":{"coordinates":[13.637562,52.339973],"type":"Point"},"properties":{"osm_id":"7577447172","tag":{"amenity":"waste_basket","waste":"trash"}},"type":"Feature"},
	{"geometry":{"coordinates":[13.637006,52.339981],"type":"Point"},"properties":{"osm_id":"7577447175","tag":{"amenity":"waste_basket","waste":"trash"}},"type":"Feature"}
]
}
