{
"type": "FeatureCollection",
"features": [
	{"geometry":{"coordinates":[13.659658,51.236014],"type":"Point"},"properties":{"osm_id":"694158430","tag":{"amenity":"recycling","recycling:glass_bottles":"yes","recycling_type":"container"}},"type":"Feature"},
	{"geometry":{"coordinates":[13.656492,51.239066],"type":"Point"},"properties":{"osm_id":"694212135","tag":{"amenity":"recycling","recycling:newspaper":"yes","recycling:paper":"yes","recycling_type":"container"}},"type":"Feature"},
	{"geometry":{"coordinates":[13.659704,51.247178],"type":"Point"},"properties":{"osm_id":"694212136","tag":{"amenity":"recycling","recycling:clothes":"yes","recycling:glass_bottles":"yes","recycling_type":"container","wheelchair":"no"}},"type":"Feature"},
	{"geometry":{"coordinates":[13.69838,51.235421],"type":"Point"},"properties":{"osm_id":"1970013965","tag":{"amenity":"waste_basket"}},"type":"Feature"},
	{"geometry":{"coordinates":[13.698461,51.23546],"type":"Point"},"properties":{"osm_id":"1970013986","tag":{"amenity":"waste_basket"}},"type":"Feature"},
	{"geometry":{"coordinates":[13.658593,51.236399],"type":"Point"},"properties":{"osm_id":"1970013989","tag":{"amenity":"waste_basket"}},"type":"Feature"},
	{"geometry":{"coordinates":[13.66097,51.237204],"type":"Point"},"properties":{"osm_id":"1970014002","tag":{"amenity":"waste_basket"}},"type":"Feature"},
	{"geometry":{"coordinates":[13.699677,51.237437],"type":"Point"},"properties":{"osm_id":"1970014007","tag":{"amenity":"waste_basket"}},"type":"Feature"},
	{"geometry":{"coordinates":[13.69889,51.237438],"type":"Point"},"properties":{"osm_id":"1970014013","tag":{"amenity":"waste_basket"}},"type":"Feature"},
	{"geometry":{"coordinates":[13.699557,51.237846],"type":"Point"},"properties":{"osm_id":"1970014017","tag":{"amenity":"waste_basket"}},"type":"Feature"},
	{"geometry":{"coordinates":[13.70313,51.238628],"type":"Point"},"properties":{"osm_id":"1970014025","tag":{"amenity":"recycling","image":"https://storage7.openstreetcam.org/files/photo/2018/3/31/lth/1156595_b4b3a_5abed4d1c47e2.jpg","recycling:glass":"yes","recycling_type":"container","survey:date":"2018-03-31"}},"type":"Feature"},
	{"geometry":{"coordinates":[13.700464,51.238838],"type":"Point"},"properties":{"osm_id":"1970014033","tag":{"amenity":"waste_basket"}},"type":"Feature"},
	{"geometry":{"coordinates":[13.660107,51.241892],"type":"Point"},"properties":{"osm_id":"1970014040","tag":{"amenity":"waste_basket"}},"type":"Feature"},
	{"geometry":{"coordinates":[13.659148,51.248505],"type":"Point"},"properties":{"osm_id":"1970014073","tag":{"amenity":"waste_basket"}},"type":"Feature"},
	{"geometry":{"coordinates":[13.651168,51.23856],"type":"Point"},"properties":{"osm_id":"4309487591","tag":{"amenity":"waste_basket"}},"type":"Feature"}
]
}
