{
"type": "FeatureCollection",
"features": [
	{"geometry":{"coordinates":[13.698389,51.077326],"type":"Point"},"properties":{"osm_id":"276815658","tag":{"amenity":"recycling","location":"overground","recycling:glass_bottles":"yes","recycling_type":"container"}},"type":"Feature"},
	{"geometry":{"coordinates":[13.690945,51.080972],"type":"Point"},"properties":{"osm_id":"277301462","tag":{"amenity":"recycling","recycling:batteries":"no","recycling:books":"no","recycling:cans":"no","recycling:cardboard":"no","recycling:cartons":"no","recycling:clothes":"yes","recycling:electrical_appliances":"no","recycling:glass":"no","recycling:glass_bottles":"yes","recycling:green_waste":"no","recycling:magazines":"no","recycling:newspaper":"no","recycling:paper":"no","recycling:paper_packaging":"no","recycling:plastic":"no","recycling:plastic_bottles":"no","recycling:plastic_packaging":"no","recycling:scrap_metal":"no","recycling:small_appliances":"no","recycling:waste":"no","recycling:wood":"no","recycling_type":"container"}},"type":"Feature"},
	{"geometry":{"coordinates":[13.655547,51.112786],"type":"Point"},"properties":{"osm_id":"280595619","tag":{"amenity":"recycling","recycling:glass":"yes","recycling_type":"container"}},"type":"Feature"},
	{"geometry":{"coordinates":[13.704847,51.090702],"type":"Point"},"properties":{"osm_id":"286342832","tag":{"amenity":"recycling","location":"overground","recycling_type":"container"}},"type":"Feature"},
	{"geometry":{"coordinates":[13.66166,51.107368],"type":"Point"},"properties":{"osm_id":"292759223","tag":{"amenity":"recycling","recycling:cans":"no","recycling:clothes":"yes","recycling:glass":"yes","recycling:paper":"no"}},"type":"Feature"},
	{"geometry":{"coordinates":[13.624895,51.104118],"type":"Point"},"properties":{"osm_id":"304120942","tag":{"amenity":"recycling","location":"overground","recycling:clothes":"yes","recycling:glass_bottles":"yes","recycling_type":"container"}},"type":"Feature"},
	{"geometry":{"coordinates":[13.690942,51.090855],"type":"Point"},"properties":{"osm_id":"319288571","tag":{"amenity":"recycling","recycling:glass":"yes","recycling_type":"container"}},"type":"Feature"},
	{"geometry":{"coordinates":[13.697351,51.088514],"type":"Point"},"properties":{"osm_id":"338958221","tag":{"amenity":"recycling","recycling:glass_bottles":"yes","recycling_type":"container"}},"type":"Feature"},
	{"geometry":{"coordinates":[13.707824,51.08043],"type":"Point"},"properties":{"osm_id":"346190778","tag":{"amenity":"recycling","recycling:clothes":"yes","recycling:glass":"yes","recycling_type":"container"}},"type":"Feature"},
	{"geometry":{"coordinates":[13.682521,51.096634],"type":"Point"},"properties":{"name":"Wertstoffhof","osm_id":"357129511","tag":{"amenity":"recycling","recycling_type":"centre"}},"type":"Feature"},
	{"geometry":{"coordinates":[13.695489,51.096722],"type":"Point"},"properties":{"osm_id":"364636932","tag":{"amenity":"recycling","location":"overground","recycling:glass":"yes","recycling_type":"container"}},"type":"Feature"},
	{"geometry":{"coordinates":[13.684361,51.086802],"type":"Point"},"properties":{"osm_id":"385310087","tag":{"amenity":"recycling","recycling_type":"container"}},"type":"Feature"},
	{"geometry":{"coordinates":[13.693882,51.069349],"type":"Point"},"properties":{"osm_id":"581075144","tag":{"amenity":"recycling","location":"overground","recycling:clothes":"yes","recycling:glass":"yes","recycling_type":"container"}},"type":"Feature"},
	{"geometry":{"coordinates":[13.694932,51.074109],"type":"Point"},"properties":{"osm_id":"581076169","tag":{"amenity":"recycling","recycling:glass_bottles":"yes","recycling_type":"container"}},"type":"Feature"},
	{"geometry":{"coordinates":[13.682021,51.082812],"type":"Point"},"properties":{"osm_id":"715738712","tag":{"amenity":"recycling","recycling:cardboard":"yes","recycling:clothes":"yes","recycling:glass":"yes","recycling:paper":"yes","recycling_type":"container"}},"type":"Feature"},
	{"geometry":{"coordinates":[13.68513,51.099038],"type":"Point"},"properties":{"osm_id":"764691677","tag":{"amenity":"recycling","recycling:clothes":"yes","recycling:glass":"no","recycling_type":"container"}},"type":"Feature"},
	{"geometry":{"coordinates":[13.710142,51.098897],"type":"Point"},"properties":{"osm_id":"868611605","tag":{"amenity":"recycling","location":"overground","recycling:glass":"yes","recycling_type":"container"}},"type":"Feature"},
	{"geometry":{"coordinates":[13.643288,51.077666],"type":"Point"},"properties":{"osm_id":"968728057","tag":{"amenity":"recycling","recycling_type":"container"}},"type":"Feature"},
	{"geometry":{"coordinates":[13.640372,51.123263],"type":"Point"},"properties":{"osm_id":"1115748796","tag":{"amenity":"recycling","recycling:clothes":"yes","recycling:glass":"yes"}},"type":"Feature"},
	{"geometry":{"coordinates":[13.643652,51.109604],"type":"Point"},"properties":{"osm_id":"1147937350","tag":{"amenity":"recycling","location":"overground","recycling_type":"container"}},"type":"Feature"},
	{"geometry":{"coordinates":[13.640413,51.092508],"type":"Point"},"properties":{"osm_id":"1260064602","tag":{"amenity":"recycling","recycling:clothes":"yes","recycling:glass":"yes","recycling:paper":"no"}},"type":"Feature"},
	{"geometry":{"coordinates":[13.629359,51.08716],"type":"Point"},"properties":{"osm_id":"1260064768","tag":{"amenity":"waste_basket"}},"type":"Feature"},
	{"geometry":{"coordinates":[13.628537,51.086851],"type":"Point"},"properties":{"osm_id":"1260065755","tag":{"amenity":"waste_basket"}},"type":"Feature"},
	{"geometry":{"coordinates":[13.648628,51.098872],"type":"Point"},"properties":{"osm_id":"1270378836","tag":{"amenity":"recycling","recycling:clothes":"yes","recycling:glass_bottles":"yes"}},"type":"Feature"},
	{"geometry":{"coordinates":[13.634992,51.082849],"type":"Point"},"properties":{"osm_id":"1276055310","tag":{"amenity":"recycling","location":"overground","recycling:glass":"yes","recycling:paper":"yes","recycling_type":"container"}},"type":"Feature"},
	{"geometry":{"coordinates":[13.658066,51.083263],"type":"Point"},"properties":{"osm_id":"1308156550","tag":{"amenity":"recycling","recycling:clothes":"yes","recycling:glass":"yes","recycling:paper":"yes"}},"type":"Feature"},
	{"geometry":{"coordinates":[13.651408,51.081358],"type":"Point"},"properties":{"osm_id":"1308156552","tag":{"amenity":"recycling","recycling:glass":"yes","recycling:paper":"yes"}},"type":"Feature"},
	{"geometry":{"coordinates":[13.687597,51.098343],"type":"Point"},"properties":{"osm_id":"1414958470","tag":{"amenity":"recycling","recycling:glass":"yes","recycling_type":"container"}},"type":"Feature"},
	{"geometry":{"coordinates":[13.665835,51.098934],"type":"Point"},"properties":{"osm_id":"1418155182","tag":{"amenity":"recycling","location":"overground","recycling:glass":"yes","recycling:paper":"yes","recycling_type":"container"}},"type":"Feature"},
	{"geometry":{"coordinates":[13.627888,51.107612],"type":"Point"},"properties":{"osm_id":"1457092019","tag":{"amenity":"recycling","location":"overground","recycling_type":"container"}},"type":"Feature"},
	{"geometry":{"coordinates":[13.686726,51.104485],"type":"Point"},"properties":{"osm_id":"1544644163","tag":{"amenity":"recycling","recycling:clothes":"yes","recycling:glass":"yes","recycling_type":"container"}},"type":"Feature"},
	{"geometry":{"coordinates":[13.664989,51.071107],"type":"Point"},"properties":{"osm_id":"1702523475","tag":{"amenity":"recycling","location":"overground","recycling_type":"container"}},"type":"Feature"},
	{"geometry":{"coordinates":[13.656737,51.093105],"type":"Point"},"properties":{"osm_id":"1711691535","tag":{"amenity":"waste_basket"}},"type":"Feature"},
	{"geometry":{"coordinates":[13.645633,51.097368],"type":"Point"},"properties":{"osm_id":"1711691550","tag":{"amenity":"waste_basket"}},"type":"Feature"},
	{"geometry":{"coordinates":[13.628838,51.102703],"type":"Point"},"properties":{"osm_id":"1711691553","tag":{"amenity":"waste_basket"}},"type":"Feature"},
	{"geometry":{"coordinates":[13.650721,51.0832],"type":"Point"},"properties":{"osm_id":"1776806565","tag":{"amenity":"recycling","recycling:clothes":"yes","recycling:glass":"yes","recycling:glass_bottles":"yes","recycling:paper":"yes","recycling_type":"container"}},"type":"Feature"},
	{"geometry":{"coordinates":[13.658861,51.093962],"type":"Point"},"properties":{"osm_id":"1862875003","tag":{"amenity":"recycling","recycling:clothes":"yes","recycling:glass":"yes","recycling_type":"container"}},"type":"Feature"},
	{"geometry":{"coordinates":[13.644169,51.103941],"type":"Point"},"properties":{"osm_id":"1862875185","tag":{"amenity":"recycling","recycling:clothes":"yes","recycling:glass":"yes"}},"type":"Feature"},
	{"geometry":{"coordinates":[13.636378,51.08471],"type":"Point"},"properties":{"osm_id":"1895266343","tag":{"amenity":"waste_basket"}},"type":"Feature"},
	{"geometry":{"coordinates":[13.675634,51.110081],"type":"Point"},"properties":{"osm_id":"1896175260","tag":{"amenity":"recycling","recycling:glass":"yes","recycling_type":"container"}},"type":"Feature"},
	{"geometry":{"coordinates":[13.628668,51.085387],"type":"Point"},"properties":{"osm_id":"1937644214","tag":{"amenity":"recycling","recycling:glass":"yes"}},"type":"Feature"},
	{"geometry":{"coordinates":[13.674151,51.092168],"type":"Point"},"properties":{"osm_id":"1960919524","tag":{"amenity":"recycling","recycling:clothes":"yes","recycling:glass":"yes","recycling_type":"container"}},"type":"Feature"},
	{"geometry":{"coordinates":[13.666801,51.074654],"type":"Point"},"properties":{"osm_id":"2019356663","tag":{"amenity":"recycling","location":"overground","recycling_type":"container"}},"type":"Feature"},
	{"geometry":{"coordinates":[13.654024,51.109392],"type":"Point"},"properties":{"osm_id":"2062152107","tag":{"amenity":"recycling","recycling_type":"container"}},"type":"Feature"},
	{"geometry":{"coordinates":[13.690952,51.107256],"type":"Point"},"properties":{"osm_id":"2319482164","tag":{"amenity":"recycling","recycling:clothes":"yes","recycling:glass":"yes","recycling_type":"container"}},"type":"Feature"},
	{"geometry":{"coordinates":[13.69079,51.10742],"type":"Point"},"properties":{"osm_id":"2319482172","tag":{"amenity":"waste_basket"}},"type":"Feature"},
	{"geometry":{"coordinates":[13.690644,51.106659],"type":"Point"},"properties":{"osm_id":"2336979250","tag":{"amenity":"waste_basket"}},"type":"Feature"},
	{"geometry":{"coordinates":[13.690472,51.107112],"type":"Point"},"properties":{"osm_id":"2336979251","tag":{"amenity":"waste_basket"}},"type":"Feature"},
	{"geometry":{"coordinates":[13.638759,51.113885],"type":"Point"},"properties":{"osm_id":"2391413877","tag":{"amenity":"recycling","recycling:clothes":"yes","recycling:glass":"yes","recycling:paper":"no","recycling_type":"container"}},"type":"Feature"},
	{"geometry":{"coordinates":[13.677816,51.09941],"type":"Point"},"properties":{"osm_id":"2581789663","tag":{"amenity":"waste_basket"}},"type":"Feature"},
	{"geometry":{"coordinates":[13.67819,51.098377],"type":"Point"},"properties":{"osm_id":"2585463541","tag":{"amenity":"recycling","recycling:clothes":"yes","recycling:glass":"yes","recycling_type":"container"}},"type":"Feature"},
	{"geometry":{"coordinates":[13.652093,51.087509],"type":"Point"},"properties":{"osm_id":"2709404775","tag":{"amenity":"recycling","mapillary":"SjW0B3wDBBrONCKchNNqhA","recycling:clothes":"yes","recycling_type":"container","survey:date":"2019-04-10"}},"type":"Feature"},
	{"geometry":{"coordinates":[13.647907,51.088559],"type":"Point"},"properties":{"osm_id":"2709404782","tag":{"amenity":"recycling","recycling:glass":"yes"}},"type":"Feature"},
	{"geometry":{"coordinates":[13.699914,51.093103],"type":"Point"},"properties":{"osm_id":"2752742290","tag":{"amenity":"waste_basket"}},"type":"Feature"},
	{"geometry":{"coordinates":[13.67542,51.080822],"type":"Point"},"properties":{"osm_id":"2761014572","tag":{"amenity":"recycling","recycling:glass":"yes","recycling_type":"container"}},"type":"Feature"},
	{"geometry":{"coordinates":[13.685365,51.101171],"type":"Point"},"properties":{"osm_id":"2980659341","tag":{"amenity":"waste_basket"}},"type":"Feature"},
	{"geometry":{"coordinates":[13.681031,51.102144],"type":"Point"},"properties":{"osm_id":"3059069045","tag":{"amenity":"waste_basket"}},"type":"Feature"},
	{"geometry":{"coordinates":[13.710375,51.090566],"type":"Point"},"properties":{"osm_id":"3143927271","tag":{"amenity":"waste_basket"}},"type":"Feature"},
	{"geometry":{"coordinates":[13.710329,51.090602],"type":"Point"},"properties":{"osm_id":"3143927274","tag":{"amenity":"waste_basket"}},"type":"Feature"},
	{"geometry":{"coordinates":[13.710817,51.090923],"type":"Point"},"properties":{"osm_id":"3143927288","tag":{"amenity":"waste_basket"}},"type":"Feature"},
	{"geometry":{"coordinates":[13.710821,51.090988],"type":"Point"},"properties":{"osm_id":"3143927292","tag":{"amenity":"waste_basket"}},"type":"Feature"},
	{"geometry":{"coordinates":[13.710923,51.091374],"type":"Point"},"properties":{"osm_id":"3143927316","tag":{"amenity":"waste_basket"}},"type":"Feature"},
	{"geometry":{"coordinates":[13.710797,51.091485],"type":"Point"},"properties":{"osm_id":"3143927321","tag":{"amenity":"waste_basket"}},"type":"Feature"},
	{"geometry":{"coordinates":[13.710814,51.091535],"type":"Point"},"properties":{"osm_id":"3143927327","tag":{"amenity":"waste_basket"}},"type":"Feature"},
	{"geometry":{"coordinates":[13.707455,51.093351],"type":"Point"},"properties":{"osm_id":"3147614299","tag":{"amenity":"waste_basket"}},"type":"Feature"},
	{"geometry":{"coordinates":[13.706735,51.09464],"type":"Point"},"properties":{"osm_id":"3147616130","tag":{"amenity":"recycling","recycling:glass":"yes","recycling:paper":"yes","recycling_type":"container"}},"type":"Feature"},
	{"geometry":{"coordinates":[13.668813,51.108307],"type":"Point"},"properties":{"osm_id":"3335664240","tag":{"amenity":"recycling","recycling:glass":"yes","recycling_type":"container"}},"type":"Feature"},
	{"geometry":{"coordinates":[13.655038,51.105323],"type":"Point"},"properties":{"osm_id":"3345449103","tag":{"amenity":"recycling","recycling:clothes":"yes","recycling:glass_bottles":"yes","recycling_type":"container"}},"type":"Feature"},
	{"geometry":{"coordinates":[13.645025,51.077978],"type":"Point"},"properties":{"osm_id":"3412981058","tag":{"amenity":"waste_basket"}},"type":"Feature"},
	{"geometry":{"coordinates":[13.680105,51.100093],"type":"Point"},"properties":{"osm_id":"3463318381","tag":{"amenity":"waste_basket"}},"type":"Feature"},
	{"geometry":{"coordinates":[13.696943,51.114859],"type":"Point"},"properties":{"osm_id":"3471645756","tag":{"amenity":"recycling","recycling:clothes":"yes","recycling:glass":"yes","recycling_type":"container"}},"type":"Feature"},
	{"geometry":{"coordinates":[13.637245,51.104805],"type":"Point"},"properties":{"osm_id":"3484019038","tag":{"amenity":"recycling","recycling:glass":"yes","recycling_type":"container"}},"type":"Feature"},
	{"geometry":{"coordinates":[13.688876,51.104278],"type":"Point"},"properties":{"osm_id":"4088342890","tag":{"amenity":"waste_basket"}},"type":"Feature"},
	{"geometry":{"coordinates":[13.691832,51.107684],"type":"Point"},"properties":{"osm_id":"4128619671","tag":{"amenity":"waste_basket"}},"type":"Feature"},
	{"geometry":{"coordinates":[13.656123,51.103619],"type":"Point"},"properties":{"osm_id":"4281628996","tag":{"amenity":"recycling","recycling:clothes":"yes","recycling_type":"container"}},"type":"Feature"},
	{"geometry":{"coordinates":[13.651144,51.080831],"type":"Point"},"properties":{"osm_id":"4351710553","tag":{"amenity":"waste_basket"}},"type":"Feature"},
	{"geometry":{"coordinates":[13.679158,51.099566],"type":"Point"},"properties":{"osm_id":"4520846795","tag":{"amenity":"waste_basket"}},"type":"Feature"},
	{"geometry":{"coordinates":[13.675884,51.107962],"type":"Point"},"properties":{"osm_id":"4576550310","tag":{"amenity":"waste_basket"}},"type":"Feature"},
	{"geometry":{"coordinates":[13.671479,51.118763],"type":"Point"},"properties":{"osm_id":"4888367677","tag":{"amenity":"recycling","recycling:clothes":"yes","recycling_type":"container"}},"type":"Feature"},
	{"geometry":{"coordinates":[13.685658,51.091616],"type":"Point"},"properties":{"osm_id":"5122235226","tag":{"amenity":"waste_basket"}},"type":"Feature"},
	{"geometry":{"coordinates":[13.694402,51.085799],"type":"Point"},"properties":{"osm_id":"5143433232","tag":{"amenity":"waste_basket"}},"type":"Feature"},
	{"geometry":{"coordinates":[13.694366,51.085758],"type":"Point"},"properties":{"osm_id":"5143437369","tag":{"amenity":"waste_basket"}},"type":"Feature"},
	{"geometry":{"coordinates":[13.691315,51.106512],"type":"Point"},"properties":{"osm_id":"5538576695","tag":{"amenity":"waste_basket"}},"type":"Feature"},
	{"geometry":{"coordinates":[13.633039,51.085129],"type":"Point"},"properties":{"osm_id":"5556468366","tag":{"amenity":"recycling"}},"type":"Feature"},
	{"geometry":{"coordinates":[13.693501,51.121291],"type":"Point"},"properties":{"osm_id":"6027765400","tag":{"amenity":"waste_basket","waste":"trash"}},"type":"Feature"},
	{"geometry":{"coordinates":[13.694088,51.121057],"type":"Point"},"properties":{"osm_id":"6027765405","tag":{"amenity":"waste_basket","waste":"trash"}},"type":"Feature"},
	{"geometry":{"coordinates":[13.693238,51.121369],"type":"Point"},"properties":{"osm_id":"6027765407","tag":{"amenity":"waste_basket","waste":"trash"}},"type":"Feature"},
	{"geometry":{"coordinates":[13.693693,51.121157],"type":"Point"},"properties":{"osm_id":"6027765408","tag":{"amenity":"waste_basket","waste":"trash"}},"type":"Feature"},
	{"geometry":{"coordinates":[13.70389,51.10622],"type":"Point"},"properties":{"osm_id":"6061006325","tag":{"amenity":"waste_basket"}},"type":"Feature"},
	{"geometry":{"coordinates":[13.685894,51.097027],"type":"Point"},"properties":{"osm_id":"6206418435","tag":{"amenity":"recycling","recycling:glass":"yes","recycling:glass_bottles":"yes","recycling_type":"container"}},"type":"Feature"},
	{"geometry":{"coordinates":[13.679827,51.098769],"type":"Point"},"properties":{"osm_id":"6565871143","tag":{"amenity":"waste_basket"}},"type":"Feature"},
	{"geometry":{"coordinates":[13.678503,51.098186],"type":"Point"},"properties":{"osm_id":"6565871148","tag":{"amenity":"waste_basket"}},"type":"Feature"},
	{"geometry":{"coordinates":[13.673255,51.10255],"type":"Point"},"properties":{"osm_id":"6819908329","tag":{"amenity":"waste_basket"}},"type":"Feature"},
	{"geometry":{"coordinates":[13.688543,51.100299],"type":"Point"},"properties":{"osm_id":"6898032922","tag":{"amenity":"waste_basket"}},"type":"Feature"},
	{"geometry":{"coordinates":[13.692968,51.106788],"type":"Point"},"properties":{"osm_id":"6980023761","tag":{"amenity":"waste_basket"}},"type":"Feature"},
	{"geometry":{"coordinates":[13.689786,51.069132],"type":"Point"},"properties":{"osm_id":"7101883832","tag":{"amenity":"waste_basket"}},"type":"Feature"},
	{"geometry":{"coordinates":[13.688795,51.104576],"type":"Point"},"properties":{"osm_id":"7599688859","tag":{"amenity":"waste_basket"}},"type":"Feature"},
	{"geometry":{"coordinates":[13.67327,51.102123],"type":"Point"},"properties":{"osm_id":"7667240543","tag":{"amenity":"waste_basket"}},"type":"Feature"},
	{"geometry":{"coordinates":[13.695467,51.078043],"type":"Point"},"properties":{"osm_id":"7898535813","tag":{"amenity":"recycling","operator":"KuB GmbH","recycling:clothes":"yes","recycling_type":"container"}},"type":"Feature"},
	{"geometry":{"coordinates":[13.695356,51.079145],"type":"Point"},"properties":{"osm_id":"7898535961","tag":{"amenity":"recycling","recycling:clothes":"yes","recycling_type":"container"}},"type":"Feature"},
	{"geometry":{"coordinates":[13.695393,51.079153],"type":"Point"},"properties":{"osm_id":"7898535962","tag":{"amenity":"recycling","recycling:glass_bottles":"yes","recycling:paper":"no","recycling_type":"container"}},"type":"Feature"},
	{"geometry":{"coordinates":[13.70324,51.089825],"type":"Point"},"properties":{"osm_id":"7913147502","tag":{"amenity":"recycling","recycling:clothes":"yes"}},"type":"Feature"}
]
}
