{
"type": "FeatureCollection",
"features": [
	{"geometry":{"coordinates":[13.674914,50.876462],"type":"Point"},"properties":{"osm_id":"364165289","tag":{"amenity":"recycling","image":"http://wiki.openstreetmap.org/wiki/File:2014_Recycling_Container_Stellplatz_Ulberndorf.jpg","recycling:clothes":"yes","recycling:glass":"yes"}},"type":"Feature"},
	{"geometry":{"coordinates":[13.666175,50.862287],"type":"Point"},"properties":{"osm_id":"1217801398","tag":{"amenity":"recycling","mapillary":"LKqwzl-san-D_Fb03Ykg6g","recycling:glass":"yes","recycling_type":"container","survey:date":"2017-12-18"}},"type":"Feature"},
	{"geometry":{"coordinates":[13.670679,50.871882],"type":"Point"},"properties":{"osm_id":"1221158162","tag":{"amenity":"waste_basket"}},"type":"Feature"},
	{"geometry":{"coordinates":[13.67064,50.886267],"type":"Point"},"properties":{"osm_id":"1396163131","tag":{"amenity":"recycling","recycling:clothes":"yes","recycling_type":"container"}},"type":"Feature"},
	{"geometry":{"coordinates":[13.670706,50.886309],"type":"Point"},"properties":{"osm_id":"1396163133","tag":{"amenity":"recycling","recycling:glass":"yes","recycling_type":"container"}},"type":"Feature"},
	{"geometry":{"coordinates":[13.677903,50.879195],"type":"Point"},"properties":{"osm_id":"1399841678","tag":{"amenity":"waste_basket"}},"type":"Feature"},
	{"geometry":{"coordinates":[13.693159,50.897441],"type":"Point"},"properties":{"name":"Leergut","osm_id":"1424088133","tag":{"amenity":"recycling","entrance":"service"}},"type":"Feature"},
	{"geometry":{"coordinates":[13.695597,50.898971],"type":"Point"},"properties":{"osm_id":"1446301835","tag":{"amenity":"waste_basket"}},"type":"Feature"},
	{"geometry":{"coordinates":[13.670259,50.872124],"type":"Point"},"properties":{"osm_id":"1517886782","tag":{"amenity":"waste_basket"}},"type":"Feature"},
	{"geometry":{"coordinates":[13.669551,50.894257],"type":"Point"},"properties":{"osm_id":"1520864396","tag":{"amenity":"recycling","recycling:clothes":"yes","recycling:glass":"yes","recycling_type":"container"}},"type":"Feature"},
	{"geometry":{"coordinates":[13.698471,50.854265],"type":"Point"},"properties":{"osm_id":"1607596139","tag":{"amenity":"waste_basket"}},"type":"Feature"},
	{"geometry":{"coordinates":[13.693826,50.850154],"type":"Point"},"properties":{"osm_id":"1608440580","tag":{"amenity":"waste_basket"}},"type":"Feature"},
	{"geometry":{"coordinates":[13.669565,50.895837],"type":"Point"},"properties":{"osm_id":"1776913090","tag":{"amenity":"waste_basket"}},"type":"Feature"},
	{"geometry":{"coordinates":[13.669623,50.895899],"type":"Point"},"properties":{"osm_id":"1776913112","tag":{"amenity":"waste_basket"}},"type":"Feature"},
	{"geometry":{"coordinates":[13.66861,50.891408],"type":"Point"},"properties":{"osm_id":"1777177505","tag":{"amenity":"waste_basket"}},"type":"Feature"},
	{"geometry":{"coordinates":[13.67555,50.902738],"type":"Point"},"properties":{"osm_id":"1782407272","tag":{"amenity":"waste_basket"}},"type":"Feature"},
	{"geometry":{"coordinates":[13.675751,50.902807],"type":"Point"},"properties":{"osm_id":"1782407295","tag":{"amenity":"waste_basket"}},"type":"Feature"},
	{"geometry":{"coordinates":[13.675256,50.902968],"type":"Point"},"properties":{"osm_id":"1782407321","tag":{"amenity":"waste_basket"}},"type":"Feature"},
	{"geometry":{"coordinates":[13.670675,50.896764],"type":"Point"},"properties":{"osm_id":"1788364320","tag":{"amenity":"waste_basket"}},"type":"Feature"},
	{"geometry":{"coordinates":[13.670757,50.896864],"type":"Point"},"properties":{"osm_id":"1788364331","tag":{"amenity":"waste_basket"}},"type":"Feature"},
	{"geometry":{"coordinates":[13.670536,50.896891],"type":"Point"},"properties":{"osm_id":"1788364336","tag":{"amenity":"waste_basket"}},"type":"Feature"},
	{"geometry":{"coordinates":[13.669837,50.896168],"type":"Point"},"properties":{"osm_id":"1791346254","tag":{"amenity":"waste_basket"}},"type":"Feature"},
	{"geometry":{"coordinates":[13.67434,50.902525],"type":"Point"},"properties":{"osm_id":"1793278478","tag":{"amenity":"waste_basket"}},"type":"Feature"},
	{"geometry":{"coordinates":[13.674593,50.902573],"type":"Point"},"properties":{"osm_id":"1793278490","tag":{"amenity":"waste_basket"}},"type":"Feature"},
	{"geometry":{"coordinates":[13.674481,50.902729],"type":"Point"},"properties":{"osm_id":"1793278530","tag":{"amenity":"waste_basket"}},"type":"Feature"},
	{"geometry":{"coordinates":[13.671043,50.899347],"type":"Point"},"properties":{"osm_id":"1795804648","tag":{"amenity":"recycling","recycling:glass":"yes"}},"type":"Feature"},
	{"geometry":{"coordinates":[13.671016,50.899396],"type":"Point"},"properties":{"osm_id":"1795804654","tag":{"amenity":"recycling","recycling:clothes":"yes"}},"type":"Feature"},
	{"geometry":{"coordinates":[13.667516,50.900505],"type":"Point"},"properties":{"osm_id":"1839638623","tag":{"amenity":"waste_basket"}},"type":"Feature"},
	{"geometry":{"coordinates":[13.667585,50.90059],"type":"Point"},"properties":{"osm_id":"1839638645","tag":{"amenity":"waste_basket"}},"type":"Feature"},
	{"geometry":{"coordinates":[13.66768,50.900633],"type":"Point"},"properties":{"osm_id":"1839638658","tag":{"amenity":"waste_basket"}},"type":"Feature"},
	{"geometry":{"coordinates":[13.667845,50.900681],"type":"Point"},"properties":{"osm_id":"1839638682","tag":{"amenity":"waste_basket"}},"type":"Feature"},
	{"geometry":{"coordinates":[13.664967,50.886478],"type":"Point"},"properties":{"osm_id":"1861715099","tag":{"amenity":"waste_basket"}},"type":"Feature"},
	{"geometry":{"coordinates":[13.697134,50.899997],"type":"Point"},"properties":{"osm_id":"1864325008","tag":{"amenity":"recycling","recycling:glass":"yes","recycling_type":"container"}},"type":"Feature"},
	{"geometry":{"coordinates":[13.695629,50.898925],"type":"Point"},"properties":{"osm_id":"1920540850","tag":{"amenity":"waste_basket"}},"type":"Feature"},
	{"geometry":{"coordinates":[13.662874,50.902969],"type":"Point"},"properties":{"osm_id":"1978076691","tag":{"amenity":"waste_basket"}},"type":"Feature"},
	{"geometry":{"coordinates":[13.66258,50.891486],"type":"Point"},"properties":{"highway":"bus_stop","name":"Bahnhofstra\u00c3\u009fe","osm_id":"2054116080","tag":{"amenity":"waste_basket","bench":"yes","shelter":"no","tactile_paving":"no"}},"type":"Feature"},
	{"geometry":{"coordinates":[13.66418,50.897661],"type":"Point"},"properties":{"osm_id":"2074390338","tag":{"amenity":"waste_basket"}},"type":"Feature"},
	{"geometry":{"coordinates":[13.669187,50.896453],"type":"Point"},"properties":{"osm_id":"2450303947","tag":{"amenity":"waste_basket"}},"type":"Feature"},
	{"geometry":{"coordinates":[13.657567,50.898807],"type":"Point"},"properties":{"osm_id":"2683558890","tag":{"amenity":"recycling","recycling:clothes":"yes","recycling:glass":"yes"}},"type":"Feature"},
	{"geometry":{"coordinates":[13.688999,50.886954],"type":"Point"},"properties":{"osm_id":"2779703345","tag":{"amenity":"recycling","recycling:glass":"yes"}},"type":"Feature"},
	{"geometry":{"coordinates":[13.667654,50.89776],"type":"Point"},"properties":{"osm_id":"3536177161","tag":{"amenity":"waste_basket"}},"type":"Feature"},
	{"geometry":{"coordinates":[13.666065,50.897768],"type":"Point"},"properties":{"osm_id":"3536177165","tag":{"amenity":"waste_basket"}},"type":"Feature"},
	{"geometry":{"coordinates":[13.667009,50.897801],"type":"Point"},"properties":{"osm_id":"3536177172","tag":{"amenity":"waste_basket"}},"type":"Feature"},
	{"geometry":{"coordinates":[13.667153,50.897181],"type":"Point"},"properties":{"osm_id":"3538066800","tag":{"amenity":"waste_basket"}},"type":"Feature"},
	{"geometry":{"coordinates":[13.671467,50.899115],"type":"Point"},"properties":{"osm_id":"4584197435","tag":{"amenity":"waste_basket"}},"type":"Feature"},
	{"geometry":{"coordinates":[13.705466,50.864615],"type":"Point"},"properties":{"osm_id":"5092270330","tag":{"amenity":"recycling","recycling:clothes":"yes","recycling:glass_bottles":"yes","recycling_type":"container"}},"type":"Feature"},
	{"geometry":{"coordinates":[13.668396,50.894703],"type":"Point"},"properties":{"osm_id":"5931673125","tag":{"amenity":"waste_basket"}},"type":"Feature"},
	{"geometry":{"coordinates":[13.676431,50.881418],"type":"Point"},"properties":{"osm_id":"7670975971","tag":{"amenity":"waste_basket"}},"type":"Feature"},
	{"geometry":{"coordinates":[13.676284,50.881223],"type":"Point"},"properties":{"osm_id":"7670975980","tag":{"amenity":"waste_basket"}},"type":"Feature"},
	{"geometry":{"coordinates":[13.664227,50.891842],"type":"Point"},"properties":{"osm_id":"7815337946","tag":{"amenity":"recycling","recycling:clothes":"yes","recycling:shoes":"yes","recycling_type":"container"}},"type":"Feature"},
	{"geometry":{"coordinates":[13.664206,50.891705],"type":"Point"},"properties":{"osm_id":"7815474106","tag":{"amenity":"waste_basket"}},"type":"Feature"},
	{"geometry":{"coordinates":[13.664668,50.891307],"type":"Point"},"properties":{"osm_id":"7815560565","tag":{"amenity":"waste_basket"}},"type":"Feature"},
	{"geometry":{"coordinates":[13.663908,50.892279],"type":"Point"},"properties":{"osm_id":"7817782004","tag":{"amenity":"waste_basket"}},"type":"Feature"},
	{"geometry":{"coordinates":[13.663861,50.893284],"type":"Point"},"properties":{"osm_id":"7820530704","tag":{"amenity":"waste_basket"}},"type":"Feature"},
	{"geometry":{"coordinates":[13.663816,50.893086],"type":"Point"},"properties":{"osm_id":"7820530739","tag":{"amenity":"waste_basket"}},"type":"Feature"}
]
}
