{
"type": "FeatureCollection",
"features": [
	{"geometry":{"coordinates":[13.690107,47.985107],"type":"Point"},"properties":{"osm_id":"3647847975","tag":{"amenity":"waste_basket","inscription":"Versch\u00c3\u00b6nerungsverein Regau","operator":"Versch\u00c3\u00b6nerungsverein Regau"}},"type":"Feature"},
	{"geometry":{"coordinates":[13.690632,47.985421],"type":"Point"},"properties":{"osm_id":"3647847979","tag":{"amenity":"waste_basket"}},"type":"Feature"},
	{"geometry":{"coordinates":[13.708584,47.97374],"type":"Point"},"properties":{"osm_id":"3667592190","tag":{"amenity":"waste_basket"}},"type":"Feature"},
	{"geometry":{"coordinates":[13.708397,47.973449],"type":"Point"},"properties":{"osm_id":"3669093591","tag":{"amenity":"waste_basket"}},"type":"Feature"},
	{"geometry":{"coordinates":[13.691738,47.981306],"type":"Point"},"properties":{"osm_id":"3678000189","tag":{"amenity":"waste_basket"}},"type":"Feature"},
	{"geometry":{"coordinates":[13.66677,47.98973],"type":"Point"},"properties":{"osm_id":"3678001954","tag":{"amenity":"waste_basket"}},"type":"Feature"},
	{"geometry":{"coordinates":[13.673804,47.985706],"type":"Point"},"properties":{"osm_id":"3694092891","tag":{"amenity":"waste_basket"}},"type":"Feature"},
	{"geometry":{"coordinates":[13.678646,47.987366],"type":"Point"},"properties":{"osm_id":"3694197996","tag":{"amenity":"waste_basket"}},"type":"Feature"},
	{"geometry":{"coordinates":[13.698156,47.983469],"type":"Point"},"properties":{"osm_id":"3707269663","tag":{"amenity":"waste_basket"}},"type":"Feature"},
	{"geometry":{"coordinates":[13.697739,47.980151],"type":"Point"},"properties":{"osm_id":"3710920003","tag":{"amenity":"recycling","recycling_type":"container"}},"type":"Feature"},
	{"geometry":{"coordinates":[13.695834,47.976026],"type":"Point"},"properties":{"osm_id":"3715789989","tag":{"amenity":"waste_basket"}},"type":"Feature"},
	{"geometry":{"coordinates":[13.69776,47.977904],"type":"Point"},"properties":{"osm_id":"3715789992","tag":{"amenity":"waste_basket"}},"type":"Feature"},
	{"geometry":{"coordinates":[13.699396,47.984755],"type":"Point"},"properties":{"osm_id":"3715789999","tag":{"amenity":"waste_basket"}},"type":"Feature"},
	{"geometry":{"coordinates":[13.690955,47.986593],"type":"Point"},"properties":{"osm_id":"3715790010","tag":{"amenity":"waste_basket","source:location":"geoimage.at"}},"type":"Feature"},
	{"geometry":{"coordinates":[13.69466,47.986086],"type":"Point"},"properties":{"osm_id":"3716651789","tag":{"amenity":"recycling","recycling_type":"container"}},"type":"Feature"},
	{"geometry":{"coordinates":[13.708374,47.974568],"type":"Point"},"properties":{"osm_id":"3718508127","tag":{"amenity":"waste_basket"}},"type":"Feature"},
	{"geometry":{"coordinates":[13.708142,47.974711],"type":"Point"},"properties":{"osm_id":"3718508128","tag":{"amenity":"recycling","recycling_type":"container"}},"type":"Feature"},
	{"geometry":{"coordinates":[13.690958,47.986336],"type":"Point"},"properties":{"osm_id":"3718738100","tag":{"amenity":"waste_basket","source:location":"geoimage.at"}},"type":"Feature"},
	{"geometry":{"coordinates":[13.692567,47.986436],"type":"Point"},"properties":{"osm_id":"3718738164","tag":{"amenity":"waste_basket"}},"type":"Feature"},
	{"geometry":{"coordinates":[13.692524,47.986781],"type":"Point"},"properties":{"osm_id":"3718738168","tag":{"amenity":"waste_basket"}},"type":"Feature"},
	{"geometry":{"coordinates":[13.690948,47.986798],"type":"Point"},"properties":{"osm_id":"3718738170","tag":{"amenity":"waste_basket"}},"type":"Feature"},
	{"geometry":{"coordinates":[13.707137,47.987487],"type":"Point"},"properties":{"osm_id":"3763738132","tag":{"amenity":"waste_basket"}},"type":"Feature"},
	{"geometry":{"coordinates":[13.705294,47.985831],"type":"Point"},"properties":{"osm_id":"3779408231","tag":{"amenity":"waste_basket"}},"type":"Feature"},
	{"geometry":{"coordinates":[13.709066,47.973529],"type":"Point"},"properties":{"osm_id":"3837167243","tag":{"amenity":"waste_basket"}},"type":"Feature"},
	{"geometry":{"coordinates":[13.694858,47.98743],"type":"Point"},"properties":{"osm_id":"3867531070","tag":{"amenity":"waste_basket"}},"type":"Feature"},
	{"geometry":{"coordinates":[13.708096,47.97475],"type":"Point"},"properties":{"osm_id":"3883158698","tag":{"amenity":"waste_basket"}},"type":"Feature"},
	{"geometry":{"coordinates":[13.708224,47.973626],"type":"Point"},"properties":{"osm_id":"4341374810","tag":{"amenity":"waste_basket"}},"type":"Feature"}
]
}
