{
"type": "FeatureCollection",
"features": [
	{"geometry":{"coordinates":[13.62628,45.937034],"type":"Point"},"properties":{"osm_id":"528607150","tag":{"amenity":"recycling","recycling:batteries":"yes","recycling:drugs":"yes","recycling:glass":"yes"}},"type":"Feature"},
	{"geometry":{"coordinates":[13.62637,45.938226],"type":"Point"},"properties":{"osm_id":"528607162","tag":{"amenity":"recycling","recycling:glass":"yes"}},"type":"Feature"},
	{"geometry":{"coordinates":[13.626739,45.909973],"type":"Point"},"properties":{"osm_id":"5959792474","tag":{"amenity":"waste_basket","waste":"dog_excrement"}},"type":"Feature"},
	{"geometry":{"coordinates":[13.630288,45.909502],"type":"Point"},"properties":{"osm_id":"5963384307","tag":{"amenity":"waste_basket"}},"type":"Feature"},
	{"geometry":{"coordinates":[13.640561,45.931532],"type":"Point"},"properties":{"osm_id":"6742604682","tag":{"amenity":"waste_basket"}},"type":"Feature"},
	{"geometry":{"coordinates":[13.670016,45.899088],"type":"Point"},"properties":{"osm_id":"7798166232","tag":{"amenity":"waste_disposal"}},"type":"Feature"},
	{"geometry":{"coordinates":[13.673984,45.908519],"type":"Point"},"properties":{"osm_id":"7798166233","tag":{"amenity":"waste_disposal"}},"type":"Feature"},
	{"geometry":{"coordinates":[13.642775,45.919364],"type":"Point"},"properties":{"osm_id":"7798166235","tag":{"amenity":"waste_disposal"}},"type":"Feature"}
]
}
