{
"type": "FeatureCollection",
"features": [
	{"geometry":{"coordinates":[13.656395,45.540645],"type":"Point"},"properties":{"osm_id":"2812444393","tag":{"amenity":"waste_disposal"}},"type":"Feature"},
	{"geometry":{"coordinates":[13.669821,45.523625],"type":"Point"},"properties":{"name":"Komunalna deponija Izola - Deposito di rifiuti urbani Isola","osm_id":"3682612316","tag":{"amenity":"waste_basket","name:it":"Deposito di rifiuti urbani Isola","name:sl":"Komunalna deponija Izola"}},"type":"Feature"},
	{"geometry":{"coordinates":[13.650946,45.53371],"type":"Point"},"properties":{"osm_id":"4721316128","tag":{"amenity":"waste_disposal"}},"type":"Feature"},
	{"geometry":{"coordinates":[13.650968,45.533711],"type":"Point"},"properties":{"osm_id":"4721316129","tag":{"amenity":"recycling","recycling:cans":"yes","recycling:glass_bottles":"yes","recycling:paper":"yes","recycling:plastic_bottles":"yes","recycling_type":"container"}},"type":"Feature"},
	{"geometry":{"coordinates":[13.649971,45.534121],"type":"Point"},"properties":{"osm_id":"4884414937","tag":{"amenity":"waste_disposal"}},"type":"Feature"},
	{"geometry":{"coordinates":[13.649954,45.534124],"type":"Point"},"properties":{"osm_id":"4884414938","tag":{"amenity":"recycling","recycling:cans":"yes","recycling:glass_bottles":"yes","recycling:paper":"yes","recycling:plastic_bottles":"yes","recycling_type":"container"}},"type":"Feature"},
	{"geometry":{"coordinates":[13.648045,45.528246],"type":"Point"},"properties":{"osm_id":"7096425657","tag":{"amenity":"waste_disposal"}},"type":"Feature"},
	{"geometry":{"coordinates":[13.661332,45.541161],"type":"Point"},"properties":{"osm_id":"7833103881","tag":{"amenity":"waste_disposal"}},"type":"Feature"}
]
}
