{
"type": "FeatureCollection",
"features": [
	{"geometry":{"coordinates":[13.700603,42.660632],"type":"Point"},"properties":{"osm_id":"5887799202","tag":{"addr:city":"Teramo","addr:housenumber":"15","addr:postcode":"64100","addr:street":"Via Mario Capuani","amenity":"waste_basket","description":"Cestino urbano  Via M. Capuani 15"}},"type":"Feature"},
	{"geometry":{"coordinates":[13.700949,42.660467],"type":"Point"},"properties":{"osm_id":"5887799203","tag":{"addr:city":"Teramo","addr:housenumber":"23","addr:postcode":"64100","addr:street":"Via Mario Capuani","amenity":"waste_basket","description":"Cestino urbano Via M. Capuani 23"}},"type":"Feature"},
	{"geometry":{"coordinates":[13.700844,42.660524],"type":"Point"},"properties":{"osm_id":"5887799204","tag":{"addr:city":"Teramo","addr:housenumber":"21","addr:postcode":"64100","addr:street":"Via Mario Capuani","amenity":"waste_basket","description":"Cestino urbano  Via M. Capuani 21"}},"type":"Feature"},
	{"geometry":{"coordinates":[13.702117,42.659916],"type":"Point"},"properties":{"osm_id":"5887799205","tag":{"addr:city":"Teramo","addr:housenumber":"73","addr:postcode":"64100","addr:street":"Via Mario Capuani","amenity":"waste_basket","description":"Cestino urbano  Via M. Capuani 73"}},"type":"Feature"},
	{"geometry":{"coordinates":[13.699633,42.659068],"type":"Point"},"properties":{"osm_id":"5887799206","tag":{"addr:city":"Teramo","addr:postcode":"64100","addr:street":"Via Giannina Milli","amenity":"waste_basket","description":"Cestino urbano  Via G. Milli Lato scala Istituto"}},"type":"Feature"},
	{"geometry":{"coordinates":[13.698743,42.658007],"type":"Point"},"properties":{"osm_id":"5887799209","tag":{"addr:city":"Teramo","addr:postcode":"64100","addr:street":"Piazza Dante","amenity":"waste_basket","description":"Cestino urbano  Piazza Dante Lato scala centrale"}},"type":"Feature"},
	{"geometry":{"coordinates":[13.698418,42.658033],"type":"Point"},"properties":{"osm_id":"5887799210","tag":{"addr:city":"Teramo","addr:postcode":"64100","addr:street":"Piazza Dante","amenity":"waste_basket","description":"Cestino urbano  Piazza Dante Lato scala centrale"}},"type":"Feature"},
	{"geometry":{"coordinates":[13.698211,42.658037],"type":"Point"},"properties":{"osm_id":"5887799211","tag":{"addr:city":"Teramo","addr:postcode":"64100","addr:street":"Piazza Dante","amenity":"waste_basket","description":"Cestino urbano  Piazza Dante Scala laterale"}},"type":"Feature"},
	{"geometry":{"coordinates":[13.699637,42.66102],"type":"Point"},"properties":{"osm_id":"5887799212","tag":{"addr:city":"Teramo","addr:housenumber":"3","addr:postcode":"64100","addr:street":"Via Vincenzo Cerulli Irelli","amenity":"waste_basket","description":"Cestino urbano  Via Cerulli Irelli 3"}},"type":"Feature"},
	{"geometry":{"coordinates":[13.701601,42.658483],"type":"Point"},"properties":{"osm_id":"5887799213","tag":{"addr:city":"Teramo","addr:housenumber":"33","addr:postcode":"64100","addr:street":"Via Carlo Forti","amenity":"waste_basket","description":"Cestino urbano  Angolo Via Carlo Forti / Via D'Annunzio Di fronte negozio calzature \"Malindi\""}},"type":"Feature"},
	{"geometry":{"coordinates":[13.701538,42.657312],"type":"Point"},"properties":{"osm_id":"5887799214","tag":{"addr:city":"Teramo","addr:housenumber":"76","addr:postcode":"64100","addr:street":"Corso Porta Romana","amenity":"waste_basket","description":"Cestino urbano  Piazzetta Corso Porta Romana Altezza numero civico 76"}},"type":"Feature"},
	{"geometry":{"coordinates":[13.697304,42.66187],"type":"Point"},"properties":{"osm_id":"5887799215","tag":{"addr:city":"Teramo","addr:postcode":"64100","addr:street":"Viale Giovanni Bovio","amenity":"waste_basket","description":"Cestino urbano  Viale G. Bovio Lato Villa Comunale"}},"type":"Feature"},
	{"geometry":{"coordinates":[13.699905,42.660051],"type":"Point"},"properties":{"osm_id":"5887799216","tag":{"addr:city":"Teramo","addr:postcode":"64100","addr:street":"Via Crescenzio Scarselli","amenity":"waste_basket","description":"Cestino urbano  Via C. Scarselli Di fronte ingresso cartoleria \"Besso\""}},"type":"Feature"},
	{"geometry":{"coordinates":[13.699726,42.659856],"type":"Point"},"properties":{"osm_id":"5887799218","tag":{"addr:city":"Teramo","addr:postcode":"64100","addr:street":"Via Crescenzio Scarselli","amenity":"waste_basket","description":"Cestino urbano Via C. Scarselli affianco ex \"Mordente\""}},"type":"Feature"},
	{"geometry":{"coordinates":[13.701462,42.658148],"type":"Point"},"properties":{"osm_id":"5887799220","tag":{"addr:city":"Teramo","addr:postcode":"64100","addr:street":"Via Giacomo Paladini","amenity":"waste_basket","description":"Cestino urbano Via G. Paladini affianco rampa di accesso alle Poste"}},"type":"Feature"},
	{"geometry":{"coordinates":[13.699962,42.658653],"type":"Point"},"properties":{"osm_id":"5887799222","tag":{"addr:city":"Teramo","addr:postcode":"64100","addr:street":"Via Giannina Milli","amenity":"waste_basket","description":"Cestino urbano Via G. Milli Lato percorso pedonale"}},"type":"Feature"}
]
}
