{
"type": "FeatureCollection",
"lastupdate": "2020-08-02T00:00:00Z",
"features": [
	{"geometry":{"coordinates":[13.898684,54.05711],"type":"Point"},"properties":{"name":"Wertstoffhof Zinnowitz","osm_id":"338701051","tag":{"addr:city":"Zinnowitz","addr:housenumber":"6","addr:postcode":"17454","addr:street":"Neuendorfer Weg","amenity":"recycling","operator":"Ver- und Entsorgungsgesellschaft des Landkreises Vorpommern-Greifswald","recycling:cans":"yes","recycling:glass":"yes","recycling:glass_bottles":"yes","recycling:paper":"yes","recycling:plastic":"yes","recycling_type":"centre"}},"type":"Feature"},
	{"geometry":{"coordinates":[13.888417,54.03157],"type":"Point"},"properties":{"osm_id":"1342666350","tag":{"amenity":"recycling","mapillary":"_BafPWxQgUYHO5gheTZGcw","recycling:clothes":"yes","recycling:glass":"yes","recycling:paper":"yes","recycling_type":"container","survey:date":"2017-10-24"}},"type":"Feature"},
	{"geometry":{"coordinates":[13.905825,54.02539],"type":"Point"},"properties":{"osm_id":"1345304760","tag":{"amenity":"recycling","recycling_type":"container"}},"type":"Feature"}
]
}
