{
"type": "FeatureCollection",
"features": [
	{"geometry":{"coordinates":[13.892624,51.94065],"type":"Point"},"properties":{"osm_id":"297441359","tag":{"amenity":"recycling","recycling:clothes":"yes","recycling:glass_bottles":"yes","recycling_type":"container"}},"type":"Feature"},
	{"geometry":{"coordinates":[13.896167,51.936689],"type":"Point"},"properties":{"osm_id":"795683671","tag":{"amenity":"recycling","recycling:cans":"yes","recycling:clothes":"yes","recycling:glass_bottles":"yes","recycling:paper":"yes","recycling_type":"container"}},"type":"Feature"},
	{"geometry":{"coordinates":[13.941946,51.890472],"type":"Point"},"properties":{"osm_id":"2009618517","tag":{"amenity":"waste_basket"}},"type":"Feature"},
	{"geometry":{"coordinates":[13.924414,51.939069],"type":"Point"},"properties":{"osm_id":"2238646684","tag":{"amenity":"recycling","recycling:cans":"no","recycling:clothes":"yes","recycling:glass_bottles":"yes","recycling_type":"container"}},"type":"Feature"},
	{"geometry":{"coordinates":[13.941836,51.890327],"type":"Point"},"properties":{"osm_id":"2866693421","tag":{"amenity":"waste_basket"}},"type":"Feature"},
	{"geometry":{"coordinates":[13.903028,51.93093],"type":"Point"},"properties":{"osm_id":"2949492740","tag":{"amenity":"waste_basket"}},"type":"Feature"},
	{"geometry":{"coordinates":[13.929028,51.933616],"type":"Point"},"properties":{"osm_id":"2951452153","tag":{"amenity":"waste_basket"}},"type":"Feature"},
	{"geometry":{"coordinates":[13.926646,51.93501],"type":"Point"},"properties":{"osm_id":"2982894936","tag":{"amenity":"waste_basket"}},"type":"Feature"},
	{"geometry":{"coordinates":[13.932737,51.930854],"type":"Point"},"properties":{"osm_id":"2983031835","tag":{"amenity":"waste_basket"}},"type":"Feature"},
	{"geometry":{"coordinates":[13.937237,51.893325],"type":"Point"},"properties":{"highway":"emergency_access_point","osm_id":"3085867438","ref":"D04","tag":{"amenity":"waste_basket","emergency":"access_point","operator":"Landkreis Oberspreewald-Lausitz"}},"type":"Feature"},
	{"geometry":{"coordinates":[13.918048,51.944034],"type":"Point"},"properties":{"osm_id":"3176375461","tag":{"addr:city":"L\u00c3\u00bcbben (Spreewald)","addr:country":"DE","addr:housenumber":"5","addr:postcode":"15907","addr:street":"Am Ostbahnhof","amenity":"recycling","contact:phone":"+49 3546 7508700","operator":"ALBA Lausitz GmbH","recycling_type":"centre"}},"type":"Feature"},
	{"geometry":{"coordinates":[13.895701,51.927419],"type":"Point"},"properties":{"osm_id":"3441303096","tag":{"amenity":"recycling","recycling:clothes":"yes","recycling:shoes":"yes","recycling_type":"container"}},"type":"Feature"},
	{"geometry":{"coordinates":[13.888986,51.937957],"type":"Point"},"properties":{"osm_id":"3461930200","tag":{"amenity":"waste_basket"}},"type":"Feature"},
	{"geometry":{"coordinates":[13.887097,51.941222],"type":"Point"},"properties":{"osm_id":"3462007895","tag":{"amenity":"waste_basket"}},"type":"Feature"},
	{"geometry":{"coordinates":[13.888119,51.940319],"type":"Point"},"properties":{"osm_id":"3647578717","tag":{"amenity":"waste_basket"}},"type":"Feature"},
	{"geometry":{"coordinates":[13.901242,51.94274],"type":"Point"},"properties":{"osm_id":"3647578750","tag":{"amenity":"waste_basket"}},"type":"Feature"},
	{"geometry":{"coordinates":[13.887278,51.939675],"type":"Point"},"properties":{"osm_id":"3647629613","tag":{"amenity":"waste_basket"}},"type":"Feature"},
	{"geometry":{"coordinates":[13.898482,51.940487],"type":"Point"},"properties":{"osm_id":"3647629616","tag":{"amenity":"waste_basket"}},"type":"Feature"},
	{"geometry":{"coordinates":[13.890099,51.940907],"type":"Point"},"properties":{"osm_id":"3647629618","tag":{"amenity":"waste_basket"}},"type":"Feature"},
	{"geometry":{"coordinates":[13.897506,51.940326],"type":"Point"},"properties":{"osm_id":"3647629707","tag":{"amenity":"waste_basket"}},"type":"Feature"},
	{"geometry":{"coordinates":[13.900919,51.943181],"type":"Point"},"properties":{"osm_id":"3647667308","tag":{"amenity":"waste_basket"}},"type":"Feature"},
	{"geometry":{"coordinates":[13.894056,51.943108],"type":"Point"},"properties":{"osm_id":"3799218163","tag":{"amenity":"waste_basket"}},"type":"Feature"},
	{"geometry":{"coordinates":[13.895551,51.943799],"type":"Point"},"properties":{"osm_id":"3799218765","tag":{"amenity":"waste_basket"}},"type":"Feature"},
	{"geometry":{"coordinates":[13.896171,51.942895],"type":"Point"},"properties":{"osm_id":"3799219469","tag":{"amenity":"waste_basket"}},"type":"Feature"},
	{"geometry":{"coordinates":[13.894786,51.943368],"type":"Point"},"properties":{"osm_id":"3799219473","tag":{"amenity":"waste_basket"}},"type":"Feature"},
	{"geometry":{"coordinates":[13.896061,51.942536],"type":"Point"},"properties":{"osm_id":"3799276259","tag":{"amenity":"waste_basket"}},"type":"Feature"},
	{"geometry":{"coordinates":[13.894521,51.939317],"type":"Point"},"properties":{"osm_id":"3867254568","tag":{"amenity":"waste_basket"}},"type":"Feature"},
	{"geometry":{"coordinates":[13.914588,51.944148],"type":"Point"},"properties":{"osm_id":"4663650898","tag":{"amenity":"recycling","recycling:clothes":"yes","recycling_type":"container"}},"type":"Feature"},
	{"geometry":{"coordinates":[13.896881,51.937521],"type":"Point"},"properties":{"osm_id":"5967982761","tag":{"amenity":"waste_basket"}},"type":"Feature"},
	{"geometry":{"coordinates":[13.893702,51.936169],"type":"Point"},"properties":{"osm_id":"5967982769","tag":{"amenity":"waste_basket"}},"type":"Feature"},
	{"geometry":{"coordinates":[13.900105,51.938025],"type":"Point"},"properties":{"osm_id":"6235482917","tag":{"amenity":"waste_basket","waste":"trash"}},"type":"Feature"},
	{"geometry":{"coordinates":[13.899356,51.938115],"type":"Point"},"properties":{"osm_id":"6235482918","tag":{"amenity":"waste_basket","waste":"trash"}},"type":"Feature"},
	{"geometry":{"coordinates":[13.898964,51.938509],"type":"Point"},"properties":{"osm_id":"6235482920","tag":{"amenity":"waste_basket","waste":"trash"}},"type":"Feature"},
	{"geometry":{"coordinates":[13.903716,51.941206],"type":"Point"},"properties":{"osm_id":"7660320806","tag":{"amenity":"recycling","recycling:glass_bottles":"yes","recycling_type":"container"}},"type":"Feature"}
]
}
