{
"type": "FeatureCollection",
"features": [
	{"geometry":{"coordinates":[13.901162,51.139016],"type":"Point"},"properties":{"osm_id":"248715024","tag":{"amenity":"recycling","location":"overground","recycling_type":"container"}},"type":"Feature"},
	{"geometry":{"coordinates":[13.913637,51.141333],"type":"Point"},"properties":{"osm_id":"267348638","tag":{"amenity":"recycling","recycling:clothes":"yes","recycling:glass":"yes","recycling:paper":"yes"}},"type":"Feature"},
	{"geometry":{"coordinates":[13.91608,51.136843],"type":"Point"},"properties":{"osm_id":"267884517","tag":{"amenity":"waste_disposal","shop":"outdoor","tourism":"caravan_site"}},"type":"Feature"},
	{"geometry":{"coordinates":[13.919917,51.130264],"type":"Point"},"properties":{"osm_id":"271320399","tag":{"amenity":"recycling"}},"type":"Feature"},
	{"geometry":{"coordinates":[13.933118,51.124711],"type":"Point"},"properties":{"osm_id":"281676741","tag":{"amenity":"recycling","recycling_type":"container"}},"type":"Feature"},
	{"geometry":{"coordinates":[13.915723,51.128942],"type":"Point"},"properties":{"osm_id":"347632943","tag":{"amenity":"recycling","recycling:glass":"yes"}},"type":"Feature"},
	{"geometry":{"coordinates":[13.908152,51.16111],"type":"Point"},"properties":{"osm_id":"364400486","tag":{"amenity":"recycling","recycling:clothes":"no","recycling:glass":"yes","recycling:paper":"yes","recycling_type":"container"}},"type":"Feature"},
	{"geometry":{"coordinates":[13.947768,51.148097],"type":"Point"},"properties":{"osm_id":"364401911","tag":{"amenity":"recycling","recycling:clothes":"yes","recycling:glass":"yes","recycling:paper":"yes"}},"type":"Feature"},
	{"geometry":{"coordinates":[13.908603,51.126887],"type":"Point"},"properties":{"osm_id":"393331587","tag":{"amenity":"recycling","recycling:clothes":"yes","recycling:glass":"yes","recycling:paper":"yes"}},"type":"Feature"},
	{"geometry":{"coordinates":[13.914696,51.140769],"type":"Point"},"properties":{"osm_id":"664456636","tag":{"amenity":"waste_basket"}},"type":"Feature"},
	{"geometry":{"coordinates":[13.93366,51.175102],"type":"Point"},"properties":{"osm_id":"1792426446","tag":{"amenity":"recycling","recycling:glass_bottles":"yes","recycling_type":"container"}},"type":"Feature"},
	{"geometry":{"coordinates":[13.932797,51.130093],"type":"Point"},"properties":{"osm_id":"2277584049","tag":{"amenity":"recycling"}},"type":"Feature"},
	{"geometry":{"coordinates":[13.96758,51.176068],"type":"Point"},"properties":{"osm_id":"3563230606","tag":{"amenity":"recycling"}},"type":"Feature"},
	{"geometry":{"coordinates":[13.959403,51.174281],"type":"Point"},"properties":{"osm_id":"3563234905","tag":{"amenity":"recycling"}},"type":"Feature"},
	{"geometry":{"coordinates":[13.953302,51.170375],"type":"Point"},"properties":{"osm_id":"3563551507","tag":{"amenity":"recycling"}},"type":"Feature"},
	{"geometry":{"coordinates":[13.970541,51.178978],"type":"Point"},"properties":{"osm_id":"3565355231","tag":{"amenity":"recycling"}},"type":"Feature"},
	{"geometry":{"coordinates":[13.902692,51.157916],"type":"Point"},"properties":{"osm_id":"5794143499","tag":{"amenity":"waste_basket","waste":"trash"}},"type":"Feature"},
	{"geometry":{"coordinates":[13.901878,51.157121],"type":"Point"},"properties":{"osm_id":"5794143500","tag":{"amenity":"waste_basket","waste":"trash"}},"type":"Feature"},
	{"geometry":{"coordinates":[13.901372,51.157194],"type":"Point"},"properties":{"osm_id":"5794143501","tag":{"amenity":"waste_basket","waste":"trash"}},"type":"Feature"},
	{"geometry":{"coordinates":[13.9007,51.158291],"type":"Point"},"properties":{"osm_id":"5794143502","tag":{"amenity":"waste_basket","waste":"trash"}},"type":"Feature"},
	{"geometry":{"coordinates":[13.90258,51.158137],"type":"Point"},"properties":{"osm_id":"5794143511","tag":{"amenity":"waste_basket","waste":"trash"}},"type":"Feature"},
	{"geometry":{"coordinates":[13.901161,51.157964],"type":"Point"},"properties":{"osm_id":"5795264605","tag":{"amenity":"waste_basket","waste":"trash"}},"type":"Feature"}
]
}
