{
"type": "FeatureCollection",
"lastupdate": "2020-08-01T00:00:00Z",
"features": [
	{"geometry":{"coordinates":[13.887222,50.980349],"type":"Point"},"properties":{"osm_id":"282877585","tag":{"amenity":"recycling","location":"overground","recycling:clothes":"yes","recycling:glass":"yes","recycling_type":"container"}},"type":"Feature"},
	{"geometry":{"coordinates":[13.899385,50.968039],"type":"Point"},"properties":{"osm_id":"283044325","tag":{"amenity":"recycling","recycling:clothes":"yes","recycling:glass":"yes"}},"type":"Feature"},
	{"geometry":{"coordinates":[13.930254,50.961045],"type":"Point"},"properties":{"osm_id":"294352564","tag":{"amenity":"recycling","location":"overground","recycling:glass_bottles":"yes","recycling_type":"container"}},"type":"Feature"},
	{"geometry":{"coordinates":[13.940482,50.959594],"type":"Point"},"properties":{"osm_id":"295176867","tag":{"amenity":"recycling","location":"overground","recycling:glass_bottles":"yes","recycling_type":"container"}},"type":"Feature"},
	{"geometry":{"coordinates":[13.924276,50.999418],"type":"Point"},"properties":{"osm_id":"297067759","tag":{"amenity":"recycling"}},"type":"Feature"},
	{"geometry":{"coordinates":[13.957128,50.998125],"type":"Point"},"properties":{"osm_id":"388408316","tag":{"amenity":"recycling","location":"overground","recycling_type":"container"}},"type":"Feature"},
	{"geometry":{"coordinates":[13.914486,51.000056],"type":"Point"},"properties":{"osm_id":"601384838","tag":{"amenity":"recycling"}},"type":"Feature"},
	{"geometry":{"coordinates":[13.894372,51.002859],"type":"Point"},"properties":{"osm_id":"601385442","tag":{"amenity":"recycling","location":"overground","recycling_type":"container"}},"type":"Feature"},
	{"geometry":{"coordinates":[13.962054,50.982651],"type":"Point"},"properties":{"osm_id":"1313074028","tag":{"amenity":"waste_basket"}},"type":"Feature"},
	{"geometry":{"coordinates":[13.940084,50.974273],"type":"Point"},"properties":{"osm_id":"1449491862","tag":{"amenity":"recycling","recycling:clothes":"yes","recycling_type":"container"}},"type":"Feature"},
	{"geometry":{"coordinates":[13.93886,50.974821],"type":"Point"},"properties":{"osm_id":"1449491921","tag":{"amenity":"recycling","recycling:clothes":"yes","recycling:glass":"yes","recycling:paper":"yes","recycling_type":"container"}},"type":"Feature"},
	{"geometry":{"coordinates":[13.943587,50.990058],"type":"Point"},"properties":{"osm_id":"1450717346","tag":{"amenity":"recycling","recycling:clothes":"yes","recycling:glass":"yes"}},"type":"Feature"},
	{"geometry":{"coordinates":[13.943734,50.963846],"type":"Point"},"properties":{"osm_id":"2269981177","tag":{"amenity":"recycling","recycling:clothes":"yes","recycling:glass_bottles":"yes","recycling_type":"container"}},"type":"Feature"},
	{"geometry":{"coordinates":[13.935666,50.972544],"type":"Point"},"properties":{"osm_id":"2297168984","tag":{"amenity":"recycling","recycling:clothes":"yes"}},"type":"Feature"},
	{"geometry":{"coordinates":[13.930707,50.976992],"type":"Point"},"properties":{"osm_id":"2301121383","tag":{"amenity":"recycling","recycling:clothes":"yes","recycling:glass":"yes"}},"type":"Feature"},
	{"geometry":{"coordinates":[13.968513,50.985087],"type":"Point"},"properties":{"osm_id":"2400668517","tag":{"amenity":"recycling"}},"type":"Feature"},
	{"geometry":{"coordinates":[13.899958,50.970161],"type":"Point"},"properties":{"osm_id":"3368357396","tag":{"amenity":"waste_basket"}},"type":"Feature"},
	{"geometry":{"coordinates":[13.899374,50.970227],"type":"Point"},"properties":{"osm_id":"3375201065","tag":{"amenity":"waste_basket"}},"type":"Feature"},
	{"geometry":{"coordinates":[13.889513,50.973132],"type":"Point"},"properties":{"osm_id":"3375201072","tag":{"amenity":"waste_basket"}},"type":"Feature"},
	{"geometry":{"coordinates":[13.889404,50.973597],"type":"Point"},"properties":{"osm_id":"3375201074","tag":{"amenity":"waste_basket"}},"type":"Feature"},
	{"geometry":{"coordinates":[13.889021,50.975478],"type":"Point"},"properties":{"osm_id":"3375201076","tag":{"amenity":"waste_basket"}},"type":"Feature"},
	{"geometry":{"coordinates":[13.888976,50.975849],"type":"Point"},"properties":{"osm_id":"3375201078","tag":{"amenity":"waste_basket"}},"type":"Feature"},
	{"geometry":{"coordinates":[13.944084,50.962239],"type":"Point"},"properties":{"osm_id":"3482179944","tag":{"amenity":"waste_basket"}},"type":"Feature"},
	{"geometry":{"coordinates":[13.943097,50.962441],"type":"Point"},"properties":{"osm_id":"3482179949","tag":{"amenity":"waste_basket"}},"type":"Feature"},
	{"geometry":{"coordinates":[13.889441,50.973444],"type":"Point"},"properties":{"name":"Papierkorb","osm_id":"3915991758","tag":{"amenity":"waste_basket"}},"type":"Feature"},
	{"geometry":{"coordinates":[13.889161,50.974497],"type":"Point"},"properties":{"osm_id":"3916042332","tag":{"amenity":"waste_basket"}},"type":"Feature"},
	{"geometry":{"coordinates":[13.916402,50.975166],"type":"Point"},"properties":{"osm_id":"4403749706","tag":{"amenity":"recycling","opening_hours":"24/7","recycling:clothes":"yes","recycling:glass":"yes","recycling_type":"container","wheelchair":"no"}},"type":"Feature"},
	{"geometry":{"coordinates":[13.944365,50.978298],"type":"Point"},"properties":{"osm_id":"4414386893","tag":{"amenity":"waste_basket"}},"type":"Feature"},
	{"geometry":{"coordinates":[13.922947,50.970956],"type":"Point"},"properties":{"osm_id":"4448768790","tag":{"amenity":"waste_basket"}},"type":"Feature"},
	{"geometry":{"coordinates":[13.926499,50.971129],"type":"Point"},"properties":{"osm_id":"4448770290","tag":{"amenity":"recycling","recycling:clothes":"yes","recycling:glass":"yes","recycling:shoes":"yes","recycling_type":"container"}},"type":"Feature"},
	{"geometry":{"coordinates":[13.929217,50.969148],"type":"Point"},"properties":{"osm_id":"4448770291","tag":{"amenity":"waste_basket"}},"type":"Feature"},
	{"geometry":{"coordinates":[13.924992,50.970972],"type":"Point"},"properties":{"osm_id":"4448775589","tag":{"amenity":"waste_basket"}},"type":"Feature"},
	{"geometry":{"coordinates":[13.928325,50.969149],"type":"Point"},"properties":{"osm_id":"4448776089","tag":{"amenity":"recycling","recycling:clothes":"yes","recycling:shoes":"yes","recycling_type":"container"}},"type":"Feature"},
	{"geometry":{"coordinates":[13.928201,50.969072],"type":"Point"},"properties":{"osm_id":"4448783492","tag":{"amenity":"waste_basket"}},"type":"Feature"},
	{"geometry":{"coordinates":[13.927351,50.969117],"type":"Point"},"properties":{"osm_id":"4448783493","tag":{"amenity":"waste_basket"}},"type":"Feature"},
	{"geometry":{"coordinates":[13.921334,50.970859],"type":"Point"},"properties":{"osm_id":"4448806689","tag":{"amenity":"waste_basket"}},"type":"Feature"},
	{"geometry":{"coordinates":[13.957093,50.958751],"type":"Point"},"properties":{"osm_id":"4570515989","tag":{"amenity":"recycling","recycling:clothes":"yes","recycling:glass":"yes","recycling_type":"container","survey:date":"2020-02-15"}},"type":"Feature"},
	{"geometry":{"coordinates":[13.940052,50.964249],"type":"Point"},"properties":{"osm_id":"5135620376","tag":{"amenity":"waste_basket"}},"type":"Feature"},
	{"geometry":{"coordinates":[13.939639,50.964261],"type":"Point"},"properties":{"osm_id":"5135620379","tag":{"amenity":"waste_basket"}},"type":"Feature"},
	{"geometry":{"coordinates":[13.939949,50.964256],"type":"Point"},"properties":{"osm_id":"5135620382","tag":{"amenity":"waste_basket"}},"type":"Feature"},
	{"geometry":{"coordinates":[13.926442,50.963919],"type":"Point"},"properties":{"osm_id":"5408307021","tag":{"amenity":"waste_basket","waste":"trash"}},"type":"Feature"},
	{"geometry":{"coordinates":[13.950533,50.965682],"type":"Point"},"properties":{"osm_id":"7279478364","tag":{"amenity":"recycling","recycling:clothes":"yes","recycling:glass_bottles":"yes","recycling_type":"container"}},"type":"Feature"}
]
}
