{
"type": "FeatureCollection",
"features": [
	{"geometry":{"coordinates":[13.940462,50.957857],"type":"Point"},"properties":{"osm_id":"295585487","tag":{"amenity":"recycling","recycling:glass_bottles":"yes","recycling_type":"container"}},"type":"Feature"},
	{"geometry":{"coordinates":[13.93536,50.954959],"type":"Point"},"properties":{"osm_id":"296225685","tag":{"amenity":"recycling","recycling:glass_bottles":"yes","recycling:paper":"yes"}},"type":"Feature"},
	{"geometry":{"coordinates":[13.930548,50.954451],"type":"Point"},"properties":{"osm_id":"310943884","tag":{"amenity":"recycling","recycling:glass_bottles":"yes"}},"type":"Feature"},
	{"geometry":{"coordinates":[13.973944,50.916816],"type":"Point"},"properties":{"osm_id":"601059660","tag":{"amenity":"recycling","recycling_type":"container"}},"type":"Feature"},
	{"geometry":{"coordinates":[13.922386,50.937865],"type":"Point"},"properties":{"osm_id":"945229596","tag":{"amenity":"recycling","recycling:clothes":"yes"}},"type":"Feature"},
	{"geometry":{"coordinates":[13.891185,50.937498],"type":"Point"},"properties":{"osm_id":"948014965","tag":{"amenity":"recycling","recycling:clothes":"yes"}},"type":"Feature"},
	{"geometry":{"coordinates":[13.891359,50.937357],"type":"Point"},"properties":{"osm_id":"948015073","tag":{"amenity":"recycling","recycling:glass":"yes","recycling:paper":"yes"}},"type":"Feature"},
	{"geometry":{"coordinates":[13.927503,50.955194],"type":"Point"},"properties":{"osm_id":"2109087669","tag":{"amenity":"recycling","recycling:clothes":"yes"}},"type":"Feature"},
	{"geometry":{"coordinates":[13.955184,50.953001],"type":"Point"},"properties":{"osm_id":"2721627919","tag":{"amenity":"recycling","recycling:cans":"yes","recycling:clothes":"yes","recycling:glass":"yes","recycling:paper":"yes"}},"type":"Feature"},
	{"geometry":{"coordinates":[13.945149,50.938357],"type":"Point"},"properties":{"osm_id":"2887340517","tag":{"amenity":"recycling","recycling:clothes":"yes","recycling:glass_bottles":"yes","recycling_type":"container"}},"type":"Feature"},
	{"geometry":{"coordinates":[13.952072,50.934348],"type":"Point"},"properties":{"osm_id":"4740237062","tag":{"amenity":"recycling","opening_hours":"Mo-Sa 07:00-20:00","recycling:clothes":"yes","recycling:glass_bottles":"yes","recycling_type":"container"}},"type":"Feature"},
	{"geometry":{"coordinates":[13.960479,50.954982],"type":"Point"},"properties":{"osm_id":"4978173143","tag":{"amenity":"recycling","recycling_type":"container"}},"type":"Feature"},
	{"geometry":{"coordinates":[13.962407,50.954763],"type":"Point"},"properties":{"osm_id":"4978173152","tag":{"amenity":"recycling","recycling_type":"container"}},"type":"Feature"},
	{"geometry":{"coordinates":[13.960048,50.953941],"type":"Point"},"properties":{"osm_id":"4978279250","tag":{"amenity":"recycling","recycling_type":"container"}},"type":"Feature"},
	{"geometry":{"coordinates":[13.959107,50.954076],"type":"Point"},"properties":{"osm_id":"4978279255","tag":{"amenity":"recycling","recycling_type":"container"}},"type":"Feature"},
	{"geometry":{"coordinates":[13.962012,50.953725],"type":"Point"},"properties":{"osm_id":"4978279256","tag":{"amenity":"recycling","recycling_type":"container"}},"type":"Feature"},
	{"geometry":{"coordinates":[13.960994,50.953836],"type":"Point"},"properties":{"osm_id":"4978279257","tag":{"amenity":"recycling","recycling_type":"container"}},"type":"Feature"},
	{"geometry":{"coordinates":[13.960237,50.954459],"type":"Point"},"properties":{"osm_id":"4978279258","tag":{"amenity":"recycling","recycling_type":"container"}},"type":"Feature"},
	{"geometry":{"coordinates":[13.961951,50.954268],"type":"Point"},"properties":{"osm_id":"4978279259","tag":{"amenity":"recycling","recycling_type":"container"}},"type":"Feature"},
	{"geometry":{"coordinates":[13.950429,50.952601],"type":"Point"},"properties":{"osm_id":"5062739973","tag":{"amenity":"recycling","recycling_type":"container"}},"type":"Feature"},
	{"geometry":{"coordinates":[13.95573,50.952078],"type":"Point"},"properties":{"osm_id":"5077454183","tag":{"amenity":"recycling","recycling_type":"container"}},"type":"Feature"},
	{"geometry":{"coordinates":[13.95406,50.9523],"type":"Point"},"properties":{"osm_id":"5077454184","tag":{"amenity":"recycling","recycling_type":"container"}},"type":"Feature"},
	{"geometry":{"coordinates":[13.953319,50.956553],"type":"Point"},"properties":{"osm_id":"5077648177","tag":{"amenity":"recycling","recycling_type":"container"}},"type":"Feature"},
	{"geometry":{"coordinates":[13.952377,50.956677],"type":"Point"},"properties":{"osm_id":"5077694324","tag":{"amenity":"recycling","recycling_type":"container"}},"type":"Feature"},
	{"geometry":{"coordinates":[13.951675,50.95673],"type":"Point"},"properties":{"osm_id":"5077694325","tag":{"amenity":"recycling","recycling_type":"container"}},"type":"Feature"},
	{"geometry":{"coordinates":[13.950855,50.956695],"type":"Point"},"properties":{"osm_id":"5077694326","tag":{"amenity":"recycling","recycling_type":"container"}},"type":"Feature"},
	{"geometry":{"coordinates":[13.962263,50.952583],"type":"Point"},"properties":{"osm_id":"5077713445","tag":{"amenity":"recycling","recycling_type":"container"}},"type":"Feature"},
	{"geometry":{"coordinates":[13.945938,50.943889],"type":"Point"},"properties":{"osm_id":"5169435108","tag":{"amenity":"recycling","recycling_type":"container"}},"type":"Feature"},
	{"geometry":{"coordinates":[13.913665,50.931912],"type":"Point"},"properties":{"osm_id":"6143655832","tag":{"amenity":"recycling","recycling:glass":"yes","recycling_type":"container"}},"type":"Feature"},
	{"geometry":{"coordinates":[13.935988,50.953725],"type":"Point"},"properties":{"osm_id":"6894983312","tag":{"amenity":"recycling","recycling:clothes":"yes","recycling_type":"container"}},"type":"Feature"}
]
}
