{
"type": "FeatureCollection",
"features": [
	{"geometry":{"coordinates":[13.937551,50.847837],"type":"Point"},"properties":{"osm_id":"599486194","tag":{"amenity":"recycling"}},"type":"Feature"},
	{"geometry":{"coordinates":[13.97061,50.87985],"type":"Point"},"properties":{"osm_id":"692999923","tag":{"amenity":"waste_basket"}},"type":"Feature"},
	{"geometry":{"coordinates":[13.94864,50.872403],"type":"Point"},"properties":{"osm_id":"967142339","tag":{"amenity":"recycling","recycling:clothes":"yes"}},"type":"Feature"},
	{"geometry":{"coordinates":[13.948329,50.872521],"type":"Point"},"properties":{"osm_id":"967142398","tag":{"amenity":"waste_basket"}},"type":"Feature"},
	{"geometry":{"coordinates":[13.94536,50.873078],"type":"Point"},"properties":{"osm_id":"967142411","tag":{"amenity":"waste_basket"}},"type":"Feature"},
	{"geometry":{"coordinates":[13.942006,50.875698],"type":"Point"},"properties":{"osm_id":"967142509","tag":{"amenity":"waste_basket"}},"type":"Feature"},
	{"geometry":{"coordinates":[13.929145,50.889014],"type":"Point"},"properties":{"osm_id":"3175463477","tag":{"amenity":"waste_basket"}},"type":"Feature"},
	{"geometry":{"coordinates":[13.949985,50.876373],"type":"Point"},"properties":{"osm_id":"5216807580","tag":{"amenity":"recycling","recycling:glass_bottles":"yes","recycling_type":"container"}},"type":"Feature"},
	{"geometry":{"coordinates":[13.946214,50.860032],"type":"Point"},"properties":{"osm_id":"5302950900","tag":{"amenity":"recycling","recycling_type":"container"}},"type":"Feature"},
	{"geometry":{"coordinates":[13.944293,50.876161],"type":"Point"},"properties":{"osm_id":"5303088713","tag":{"amenity":"recycling","recycling_type":"container"}},"type":"Feature"},
	{"geometry":{"coordinates":[13.950049,50.876394],"type":"Point"},"properties":{"osm_id":"6426238749","tag":{"amenity":"recycling","recycling:clothes":"yes","recycling_type":"container"}},"type":"Feature"},
	{"geometry":{"coordinates":[13.962235,50.884193],"type":"Point"},"properties":{"osm_id":"7644237455","tag":{"amenity":"waste_basket"}},"type":"Feature"},
	{"geometry":{"coordinates":[13.930294,50.854303],"type":"Point"},"properties":{"osm_id":"7876636394","tag":{"amenity":"waste_basket"}},"type":"Feature"},
	{"geometry":{"coordinates":[13.945096,50.87274],"type":"Point"},"properties":{"osm_id":"7950445928","tag":{"amenity":"waste_basket","material":"stone"}},"type":"Feature"}
]
}
