{
"type": "FeatureCollection",
"features": [
	{"geometry":{"coordinates":[13.907439,49.833349],"type":"Point"},"properties":{"osm_id":"3893996082","tag":{"amenity":"recycling"}},"type":"Feature"},
	{"geometry":{"coordinates":[13.898171,49.833023],"type":"Point"},"properties":{"osm_id":"3893996083","tag":{"amenity":"recycling","recycling:cans":"yes","recycling_type":"container"}},"type":"Feature"},
	{"geometry":{"coordinates":[13.898384,49.833071],"type":"Point"},"properties":{"osm_id":"3893996084","tag":{"amenity":"recycling","recycling:clothes":"yes","recycling:electronics":"yes","recycling_type":"container"}},"type":"Feature"},
	{"geometry":{"coordinates":[13.900543,49.83171],"type":"Point"},"properties":{"osm_id":"3894302262","tag":{"amenity":"recycling","recycling_type":"container"}},"type":"Feature"},
	{"geometry":{"coordinates":[13.907667,49.835111],"type":"Point"},"properties":{"osm_id":"3901274539","tag":{"amenity":"recycling"}},"type":"Feature"},
	{"geometry":{"coordinates":[13.89984,49.832922],"type":"Point"},"properties":{"osm_id":"3901870501","tag":{"amenity":"waste_basket"}},"type":"Feature"},
	{"geometry":{"coordinates":[13.902003,49.835293],"type":"Point"},"properties":{"osm_id":"3902378398","tag":{"amenity":"waste_basket"}},"type":"Feature"},
	{"geometry":{"coordinates":[13.897102,49.83175],"type":"Point"},"properties":{"osm_id":"3904603536","tag":{"amenity":"recycling"}},"type":"Feature"},
	{"geometry":{"coordinates":[13.899431,49.832564],"type":"Point"},"properties":{"osm_id":"3905752376","tag":{"amenity":"recycling","recycling_type":"container"}},"type":"Feature"},
	{"geometry":{"coordinates":[13.894558,49.835365],"type":"Point"},"properties":{"osm_id":"3980666959","tag":{"amenity":"waste_basket"}},"type":"Feature"},
	{"geometry":{"coordinates":[13.905682,49.836362],"type":"Point"},"properties":{"osm_id":"4057183611","tag":{"amenity":"recycling","description":"sklo: \u00c4\u008dir\u00c3\u00a9 i barevn\u00c3\u00a9","recycling:glass":"yes","recycling:paper":"yes","recycling:plastic":"yes","recycling_type":"container"}},"type":"Feature"},
	{"geometry":{"coordinates":[13.900399,49.832735],"type":"Point"},"properties":{"osm_id":"4260109231","tag":{"amenity":"waste_basket"}},"type":"Feature"},
	{"geometry":{"coordinates":[13.900375,49.832762],"type":"Point"},"properties":{"osm_id":"4260109232","tag":{"amenity":"waste_basket"}},"type":"Feature"},
	{"geometry":{"coordinates":[13.973474,49.786515],"type":"Point"},"properties":{"osm_id":"4415271590","tag":{"amenity":"recycling"}},"type":"Feature"},
	{"geometry":{"coordinates":[13.905678,49.836285],"type":"Point"},"properties":{"osm_id":"4429409024","tag":{"amenity":"waste_basket"}},"type":"Feature"},
	{"geometry":{"coordinates":[13.906713,49.836344],"type":"Point"},"properties":{"osm_id":"4429409043","tag":{"amenity":"waste_basket"}},"type":"Feature"},
	{"geometry":{"coordinates":[13.90613,49.83635],"type":"Point"},"properties":{"osm_id":"4429409048","tag":{"amenity":"waste_basket"}},"type":"Feature"},
	{"geometry":{"coordinates":[13.906783,49.83647],"type":"Point"},"properties":{"osm_id":"4429409049","tag":{"amenity":"waste_basket"}},"type":"Feature"},
	{"geometry":{"coordinates":[13.903929,49.83511],"type":"Point"},"properties":{"osm_id":"4429409052","tag":{"amenity":"waste_basket"}},"type":"Feature"},
	{"geometry":{"coordinates":[13.912294,49.837921],"type":"Point"},"properties":{"osm_id":"4429409061","tag":{"amenity":"waste_basket"}},"type":"Feature"},
	{"geometry":{"coordinates":[13.904079,49.8362],"type":"Point"},"properties":{"osm_id":"4431303512","tag":{"amenity":"waste_basket"}},"type":"Feature"},
	{"geometry":{"coordinates":[13.914142,49.835579],"type":"Point"},"properties":{"osm_id":"4431303750","tag":{"amenity":"waste_basket"}},"type":"Feature"},
	{"geometry":{"coordinates":[13.915501,49.835625],"type":"Point"},"properties":{"osm_id":"4431303753","tag":{"amenity":"waste_basket"}},"type":"Feature"},
	{"geometry":{"coordinates":[13.951179,49.78621],"type":"Point"},"properties":{"osm_id":"4672524648","tag":{"amenity":"recycling","recycling_type":"container"}},"type":"Feature"},
	{"geometry":{"coordinates":[13.898322,49.832359],"type":"Point"},"properties":{"osm_id":"5109032700","tag":{"amenity":"recycling","recycling:paper":"yes","recycling_type":"container"}},"type":"Feature"},
	{"geometry":{"coordinates":[13.899872,49.835212],"type":"Point"},"properties":{"osm_id":"5109032701","tag":{"amenity":"recycling","recycling_type":"container"}},"type":"Feature"},
	{"geometry":{"coordinates":[13.900062,49.835185],"type":"Point"},"properties":{"osm_id":"5109032702","tag":{"amenity":"recycling","recycling:electronics":"yes","recycling_type":"container"}},"type":"Feature"},
	{"geometry":{"coordinates":[13.900884,49.832215],"type":"Point"},"properties":{"osm_id":"6058875720","tag":{"amenity":"recycling","recycling_type":"container"}},"type":"Feature"},
	{"geometry":{"coordinates":[13.912291,49.812152],"type":"Point"},"properties":{"osm_id":"6429234578","tag":{"amenity":"recycling","recycling_type":"container"}},"type":"Feature"},
	{"geometry":{"coordinates":[13.916877,49.82998],"type":"Point"},"properties":{"osm_id":"6429235411","tag":{"amenity":"recycling","recycling_type":"container"}},"type":"Feature"},
	{"geometry":{"coordinates":[13.910033,49.827313],"type":"Point"},"properties":{"osm_id":"6429235423","tag":{"amenity":"waste_basket"}},"type":"Feature"},
	{"geometry":{"coordinates":[13.914098,49.826267],"type":"Point"},"properties":{"osm_id":"6429235424","tag":{"amenity":"waste_basket"}},"type":"Feature"},
	{"geometry":{"coordinates":[13.912325,49.828097],"type":"Point"},"properties":{"osm_id":"6429235425","tag":{"amenity":"waste_basket"}},"type":"Feature"},
	{"geometry":{"coordinates":[13.888275,49.831005],"type":"Point"},"properties":{"osm_id":"6429235464","tag":{"amenity":"waste_basket"}},"type":"Feature"},
	{"geometry":{"coordinates":[13.886819,49.830539],"type":"Point"},"properties":{"osm_id":"6429235465","tag":{"amenity":"waste_basket"}},"type":"Feature"},
	{"geometry":{"coordinates":[13.892355,49.832319],"type":"Point"},"properties":{"osm_id":"6429235467","tag":{"amenity":"waste_basket"}},"type":"Feature"},
	{"geometry":{"coordinates":[13.887643,49.833729],"type":"Point"},"properties":{"osm_id":"6429417740","tag":{"amenity":"recycling","recycling_type":"container"}},"type":"Feature"},
	{"geometry":{"coordinates":[13.901863,49.833464],"type":"Point"},"properties":{"osm_id":"6429513063","tag":{"amenity":"waste_basket"}},"type":"Feature"},
	{"geometry":{"coordinates":[13.902106,49.833829],"type":"Point"},"properties":{"osm_id":"6429513064","tag":{"amenity":"waste_basket"}},"type":"Feature"},
	{"geometry":{"coordinates":[13.909594,49.835445],"type":"Point"},"properties":{"osm_id":"6429513068","tag":{"amenity":"recycling","recycling_type":"container"}},"type":"Feature"},
	{"geometry":{"coordinates":[13.914394,49.826534],"type":"Point"},"properties":{"osm_id":"6770473453","tag":{"amenity":"waste_basket"}},"type":"Feature"},
	{"geometry":{"coordinates":[13.945906,49.79985],"type":"Point"},"properties":{"osm_id":"7359282802","tag":{"amenity":"recycling","recycling:cans":"yes","recycling:glass":"yes","recycling:paper":"yes","recycling:plastic":"yes","recycling_type":"container"}},"type":"Feature"},
	{"geometry":{"coordinates":[13.939438,49.813592],"type":"Point"},"properties":{"osm_id":"7359282804","tag":{"amenity":"recycling","recycling:glass":"yes","recycling:paper":"yes","recycling:plastic":"yes","recycling_type":"container"}},"type":"Feature"}
]
}
