{
"type": "FeatureCollection",
"features": [
	{"geometry":{"coordinates":[13.931181,48.225278],"type":"Point"},"properties":{"osm_id":"683889538","tag":{"amenity":"recycling","recycling:cans":"yes","recycling:glass":"yes","recycling:paper":"yes"}},"type":"Feature"},
	{"geometry":{"coordinates":[13.931409,48.226678],"type":"Point"},"properties":{"osm_id":"683889577","tag":{"amenity":"recycling","recycling:glass":"yes","recycling:paper":"yes","recycling_type":"container"}},"type":"Feature"},
	{"geometry":{"coordinates":[13.919832,48.232047],"type":"Point"},"properties":{"osm_id":"1674909316","tag":{"amenity":"recycling","recycling:cans":"yes","recycling:clothes":"yes","recycling:glass":"yes","recycling:paper":"yes","recycling_type":"container"}},"type":"Feature"},
	{"geometry":{"coordinates":[13.933725,48.227842],"type":"Point"},"properties":{"osm_id":"3452819896","tag":{"amenity":"recycling","recycling:clothes":"yes","recycling_type":"container","website":"http://www.austriatex.com"}},"type":"Feature"},
	{"geometry":{"coordinates":[13.913431,48.230544],"type":"Point"},"properties":{"osm_id":"3721290963","tag":{"amenity":"recycling","recycling:clothes":"yes","recycling:glass":"yes","recycling_type":"container"}},"type":"Feature"},
	{"geometry":{"coordinates":[13.927591,48.225735],"type":"Point"},"properties":{"osm_id":"5066317165","tag":{"amenity":"recycling","recycling:cans":"yes","recycling:clothes":"yes","recycling:glass_bottles":"yes","recycling:paper":"yes","recycling:plastic_bottles":"yes","recycling:plastic_packaging":"yes","recycling:shoes":"yes","recycling_type":"container"}},"type":"Feature"},
	{"geometry":{"coordinates":[13.918756,48.227994],"type":"Point"},"properties":{"osm_id":"5353476255","tag":{"amenity":"waste_basket"}},"type":"Feature"},
	{"geometry":{"coordinates":[13.914194,48.227043],"type":"Point"},"properties":{"osm_id":"5353477157","tag":{"amenity":"waste_basket"}},"type":"Feature"},
	{"geometry":{"coordinates":[13.92017,48.230917],"type":"Point"},"properties":{"osm_id":"5353523800","tag":{"amenity":"waste_basket"}},"type":"Feature"},
	{"geometry":{"coordinates":[13.920056,48.230975],"type":"Point"},"properties":{"osm_id":"5353523805","tag":{"amenity":"waste_basket"}},"type":"Feature"},
	{"geometry":{"coordinates":[13.920136,48.231183],"type":"Point"},"properties":{"osm_id":"5353523816","tag":{"amenity":"waste_basket"}},"type":"Feature"},
	{"geometry":{"coordinates":[13.920286,48.231128],"type":"Point"},"properties":{"osm_id":"5353524421","tag":{"amenity":"waste_basket"}},"type":"Feature"},
	{"geometry":{"coordinates":[13.91673,48.232551],"type":"Point"},"properties":{"osm_id":"5353524494","tag":{"amenity":"waste_basket"}},"type":"Feature"},
	{"geometry":{"coordinates":[13.911336,48.235046],"type":"Point"},"properties":{"osm_id":"5354045273","tag":{"amenity":"waste_basket"}},"type":"Feature"},
	{"geometry":{"coordinates":[13.913234,48.234058],"type":"Point"},"properties":{"osm_id":"5354054789","tag":{"amenity":"waste_basket","information":"guidepost","layer":"1","tourism":"information"}},"type":"Feature"},
	{"geometry":{"coordinates":[13.915576,48.235571],"type":"Point"},"properties":{"osm_id":"5354054792","tag":{"amenity":"waste_basket"}},"type":"Feature"},
	{"geometry":{"coordinates":[13.913105,48.234708],"type":"Point"},"properties":{"osm_id":"5354188500","tag":{"amenity":"waste_basket"}},"type":"Feature"},
	{"geometry":{"coordinates":[13.91521,48.225689],"type":"Point"},"properties":{"osm_id":"5354208615","tag":{"amenity":"waste_basket"}},"type":"Feature"},
	{"geometry":{"coordinates":[13.907762,48.224866],"type":"Point"},"properties":{"osm_id":"5354799098","tag":{"amenity":"waste_basket"}},"type":"Feature"},
	{"geometry":{"coordinates":[13.941538,48.225115],"type":"Point"},"properties":{"osm_id":"5742699803","tag":{"amenity":"waste_basket"}},"type":"Feature"},
	{"geometry":{"coordinates":[13.945876,48.235074],"type":"Point"},"properties":{"osm_id":"6217478671","tag":{"amenity":"waste_basket"}},"type":"Feature"},
	{"geometry":{"coordinates":[13.95894,48.23443],"type":"Point"},"properties":{"osm_id":"6371302224","tag":{"amenity":"waste_basket"}},"type":"Feature"},
	{"geometry":{"coordinates":[13.923888,48.233153],"type":"Point"},"properties":{"osm_id":"6548240336","tag":{"amenity":"recycling","recycling:glass":"yes","recycling:scrap_metal":"yes","recycling_type":"container"}},"type":"Feature"},
	{"geometry":{"coordinates":[13.924676,48.232032],"type":"Point"},"properties":{"osm_id":"6548240350","tag":{"amenity":"waste_basket"}},"type":"Feature"},
	{"geometry":{"coordinates":[13.924382,48.230473],"type":"Point"},"properties":{"osm_id":"6548780172","tag":{"amenity":"recycling","recycling:glass":"yes","recycling_type":"container"}},"type":"Feature"},
	{"geometry":{"coordinates":[13.922052,48.230575],"type":"Point"},"properties":{"osm_id":"6548818396","tag":{"amenity":"waste_basket"}},"type":"Feature"},
	{"geometry":{"coordinates":[13.92753,48.22942],"type":"Point"},"properties":{"osm_id":"6550612085","tag":{"amenity":"waste_basket"}},"type":"Feature"},
	{"geometry":{"coordinates":[13.920792,48.230264],"type":"Point"},"properties":{"osm_id":"6552350755","tag":{"amenity":"waste_basket"}},"type":"Feature"},
	{"geometry":{"coordinates":[13.908638,48.228383],"type":"Point"},"properties":{"osm_id":"6569091171","tag":{"amenity":"waste_basket"}},"type":"Feature"},
	{"geometry":{"coordinates":[13.914705,48.229628],"type":"Point"},"properties":{"osm_id":"6569104889","tag":{"amenity":"waste_basket"}},"type":"Feature"},
	{"geometry":{"coordinates":[13.911259,48.228856],"type":"Point"},"properties":{"osm_id":"6571109976","tag":{"amenity":"waste_basket"}},"type":"Feature"},
	{"geometry":{"coordinates":[13.923201,48.228219],"type":"Point"},"properties":{"osm_id":"6575604145","tag":{"amenity":"waste_basket"}},"type":"Feature"},
	{"geometry":{"coordinates":[13.926386,48.226714],"type":"Point"},"properties":{"osm_id":"6575721359","tag":{"amenity":"recycling","recycling:clothes":"yes","recycling:shoes":"yes","recycling_type":"container"}},"type":"Feature"}
]
}
