{
"type": "FeatureCollection",
"features": [
	{"geometry":{"coordinates":[13.935787,45.835675],"type":"Point"},"properties":{"osm_id":"4390955372","ref":"EO034V","tag":{"amenity":"recycling","operator":"KSD d.o.o. Ajdov\u00c5\u00a1\u00c4\u008dina","recycling:glass":"yes","recycling:paper":"yes","recycling:plastic_packaging":"yes","recycling_type":"container"}},"type":"Feature"},
	{"geometry":{"coordinates":[13.938844,45.840302],"type":"Point"},"properties":{"osm_id":"4390955374","tag":{"amenity":"recycling"}},"type":"Feature"},
	{"geometry":{"coordinates":[13.897755,45.869803],"type":"Point"},"properties":{"osm_id":"5171740487","tag":{"amenity":"recycling","recycling_type":"container"}},"type":"Feature"},
	{"geometry":{"coordinates":[13.915037,45.882768],"type":"Point"},"properties":{"osm_id":"8388030782","tag":{"amenity":"waste_disposal"}},"type":"Feature"},
	{"geometry":{"coordinates":[13.913616,45.883683],"type":"Point"},"properties":{"osm_id":"8388030784","tag":{"amenity":"waste_disposal"}},"type":"Feature"},
	{"geometry":{"coordinates":[13.916452,45.884328],"type":"Point"},"properties":{"osm_id":"8388030797","tag":{"amenity":"waste_disposal"}},"type":"Feature"},
	{"geometry":{"coordinates":[13.915733,45.884652],"type":"Point"},"properties":{"osm_id":"8388030798","tag":{"amenity":"waste_disposal"}},"type":"Feature"},
	{"geometry":{"coordinates":[13.911293,45.889175],"type":"Point"},"properties":{"osm_id":"8399356617","tag":{"amenity":"waste_disposal"}},"type":"Feature"},
	{"geometry":{"coordinates":[13.902594,45.888537],"type":"Point"},"properties":{"osm_id":"8440879954","tag":{"amenity":"waste_disposal"}},"type":"Feature"},
	{"geometry":{"coordinates":[13.906255,45.885886],"type":"Point"},"properties":{"osm_id":"8455263958","tag":{"amenity":"waste_disposal"}},"type":"Feature"},
	{"geometry":{"coordinates":[13.899942,45.887228],"type":"Point"},"properties":{"osm_id":"8566859819","tag":{"amenity":"waste_disposal"}},"type":"Feature"},
	{"geometry":{"coordinates":[13.904762,45.88673],"type":"Point"},"properties":{"osm_id":"8671281447","tag":{"amenity":"waste_disposal"}},"type":"Feature"},
	{"geometry":{"coordinates":[13.908214,45.886519],"type":"Point"},"properties":{"osm_id":"8671281448","tag":{"amenity":"waste_disposal"}},"type":"Feature"},
	{"geometry":{"coordinates":[13.938129,45.864818],"type":"Point"},"properties":{"osm_id":"8733343717","tag":{"amenity":"recycling","operator":"Komunalno stanovanjska dru\u00c5\u00beba Ajdov\u00c5\u00a1\u00c4\u008dina","recycling_type":"container"}},"type":"Feature"},
	{"geometry":{"coordinates":[13.911046,45.8846],"type":"Point"},"properties":{"osm_id":"8734530640","tag":{"amenity":"waste_disposal"}},"type":"Feature"},
	{"geometry":{"coordinates":[13.950413,45.869204],"type":"Point"},"properties":{"osm_id":"8841856497","tag":{"amenity":"recycling","operator":"Komunalno stanovanjska dru\u00c5\u00beba Ajdov\u00c5\u00a1\u00c4\u008dina","recycling_type":"container"}},"type":"Feature"},
	{"geometry":{"coordinates":[13.950348,45.872568],"type":"Point"},"properties":{"osm_id":"8841856498","tag":{"amenity":"recycling","operator":"Komunalno stanovanjska dru\u00c5\u00beba Ajdov\u00c5\u00a1\u00c4\u008dina","recycling_type":"container"}},"type":"Feature"},
	{"geometry":{"coordinates":[13.949761,45.874431],"type":"Point"},"properties":{"osm_id":"8841856499","tag":{"amenity":"recycling","operator":"Komunalno stanovanjska dru\u00c5\u00beba Ajdov\u00c5\u00a1\u00c4\u008dina","recycling_type":"container"}},"type":"Feature"},
	{"geometry":{"coordinates":[13.947479,45.871379],"type":"Point"},"properties":{"osm_id":"8841856500","tag":{"amenity":"recycling","operator":"Komunalno stanovanjska dru\u00c5\u00beba Ajdov\u00c5\u00a1\u00c4\u008dina","recycling_type":"container"}},"type":"Feature"},
	{"geometry":{"coordinates":[13.937159,45.865752],"type":"Point"},"properties":{"osm_id":"8841856502","tag":{"amenity":"recycling","operator":"Komunalno stanovanjska dru\u00c5\u00beba Ajdov\u00c5\u00a1\u00c4\u008dina","recycling_type":"container"}},"type":"Feature"},
	{"geometry":{"coordinates":[13.908575,45.886904],"type":"Point"},"properties":{"osm_id":"9026034084","tag":{"amenity":"waste_basket"}},"type":"Feature"}
]
}
