{
"type": "FeatureCollection",
"features": [
	{"geometry":{"coordinates":[13.913413,42.214154],"type":"Point"},"properties":{"osm_id":"8290038254","tag":{"amenity":"waste_basket"}},"type":"Feature"},
	{"geometry":{"coordinates":[13.913594,42.214181],"type":"Point"},"properties":{"osm_id":"8290038255","tag":{"amenity":"waste_basket"}},"type":"Feature"},
	{"geometry":{"coordinates":[13.913584,42.2144],"type":"Point"},"properties":{"osm_id":"8290038256","tag":{"amenity":"waste_basket"}},"type":"Feature"},
	{"geometry":{"coordinates":[13.913363,42.214366],"type":"Point"},"properties":{"osm_id":"8290038257","tag":{"amenity":"waste_basket"}},"type":"Feature"},
	{"geometry":{"coordinates":[13.91255,42.214671],"type":"Point"},"properties":{"osm_id":"8618045037","tag":{"amenity":"waste_basket","waste":"mixed"}},"type":"Feature"},
	{"geometry":{"coordinates":[13.912516,42.213538],"type":"Point"},"properties":{"osm_id":"8621297446","tag":{"amenity":"waste_basket","waste":"mixed"}},"type":"Feature"}
]
}
