{
"type": "FeatureCollection",
"features": [
	{"geometry":{"coordinates":[3.01262,51.128307],"type":"Point"},"properties":{"osm_id":"6326178517","tag":{"amenity":"waste_basket"}},"type":"Feature"},
	{"geometry":{"coordinates":[3.033559,51.177935],"type":"Point"},"properties":{"osm_id":"6470098885","tag":{"amenity":"waste_basket"}},"type":"Feature"},
	{"geometry":{"coordinates":[3.027436,51.170946],"type":"Point"},"properties":{"osm_id":"6470303939","tag":{"amenity":"waste_basket"}},"type":"Feature"},
	{"geometry":{"coordinates":[3.027618,51.168049],"type":"Point"},"properties":{"osm_id":"6470338183","tag":{"amenity":"waste_basket"}},"type":"Feature"},
	{"geometry":{"coordinates":[3.032459,51.160079],"type":"Point"},"properties":{"osm_id":"6470465980","tag":{"amenity":"waste_basket"}},"type":"Feature"},
	{"geometry":{"coordinates":[3.068843,51.166271],"type":"Point"},"properties":{"osm_id":"8296333108","tag":{"amenity":"recycling","opening_hours":"24/7","opening_hours:covid19":"open","recycling_type":"container"}},"type":"Feature"}
]
}
