{
"type": "FeatureCollection",
"features": [
	{"geometry":{"coordinates":[3.065467,50.888694],"type":"Point"},"properties":{"osm_id":"1567043288","tag":{"amenity":"recycling","recycling:glass":"yes","recycling_type":"container"}},"type":"Feature"},
	{"geometry":{"coordinates":[3.023867,50.900479],"type":"Point"},"properties":{"osm_id":"3246042293","tag":{"amenity":"recycling","operator":"Wereld-Missiehulp","recycling:clothes":"yes","recycling_type":"container"}},"type":"Feature"},
	{"geometry":{"coordinates":[3.01433,50.898206],"type":"Point"},"properties":{"osm_id":"5859225627","tag":{"amenity":"recycling","recycling_type":"container"}},"type":"Feature"},
	{"geometry":{"coordinates":[3.006357,50.862979],"type":"Point"},"properties":{"osm_id":"6869752135","tag":{"amenity":"recycling","operator":"Vlaams Internationaal Centrum","recycling:clothes":"yes","recycling:curtains":"yes","recycling:shoes":"yes","recycling_type":"container"}},"type":"Feature"},
	{"geometry":{"coordinates":[3.069168,50.891599],"type":"Point"},"properties":{"osm_id":"7794243058","tag":{"amenity":"recycling","recycling:glass_bottles":"yes","recycling_type":"container"}},"type":"Feature"}
]
}
