{
"type": "FeatureCollection",
"features": [
	{"geometry":{"coordinates":[3.066094,50.637093],"type":"Point"},"properties":{"osm_id":"583242413","tag":{"amenity":"waste_basket"}},"type":"Feature"},
	{"geometry":{"coordinates":[3.065134,50.637294],"type":"Point"},"properties":{"osm_id":"583242418","tag":{"amenity":"waste_basket"}},"type":"Feature"},
	{"geometry":{"coordinates":[3.065276,50.637281],"type":"Point"},"properties":{"osm_id":"583242419","tag":{"amenity":"waste_basket"}},"type":"Feature"},
	{"geometry":{"coordinates":[3.0648,50.63741],"type":"Point"},"properties":{"osm_id":"583242420","tag":{"amenity":"waste_basket"}},"type":"Feature"},
	{"geometry":{"coordinates":[3.025755,50.637781],"type":"Point"},"properties":{"osm_id":"1149410813","tag":{"amenity":"waste_basket"}},"type":"Feature"},
	{"geometry":{"coordinates":[3.024951,50.637194],"type":"Point"},"properties":{"osm_id":"1149410843","tag":{"amenity":"waste_basket"}},"type":"Feature"},
	{"geometry":{"coordinates":[3.071709,50.661962],"type":"Point"},"properties":{"osm_id":"1300712138","tag":{"amenity":"recycling","recycling:glass_bottles":"yes"}},"type":"Feature"},
	{"geometry":{"coordinates":[3.061331,50.625964],"type":"Point"},"properties":{"osm_id":"1627114006","tag":{"amenity":"waste_basket"}},"type":"Feature"},
	{"geometry":{"coordinates":[3.069783,50.635349],"type":"Point"},"properties":{"osm_id":"1627114007","tag":{"amenity":"waste_basket"}},"type":"Feature"},
	{"geometry":{"coordinates":[2.989747,50.641763],"type":"Point"},"properties":{"osm_id":"1942777309","tag":{"amenity":"waste_basket"}},"type":"Feature"},
	{"geometry":{"coordinates":[3.053353,50.626004],"type":"Point"},"properties":{"osm_id":"2387655959","tag":{"amenity":"waste_basket"}},"type":"Feature"},
	{"geometry":{"coordinates":[3.062839,50.661367],"type":"Point"},"properties":{"barrier":"gate","osm_id":"2563713373"},"type":"Feature"},
	{"geometry":{"coordinates":[3.075245,50.641782],"type":"Point"},"properties":{"osm_id":"2768742150","tag":{"amenity":"waste_basket"}},"type":"Feature"},
	{"geometry":{"coordinates":[3.074836,50.642767],"type":"Point"},"properties":{"osm_id":"2768742218","tag":{"amenity":"waste_basket"}},"type":"Feature"},
	{"geometry":{"coordinates":[3.074805,50.643917],"type":"Point"},"properties":{"osm_id":"2768742372","tag":{"amenity":"waste_basket"}},"type":"Feature"},
	{"geometry":{"coordinates":[3.075523,50.644307],"type":"Point"},"properties":{"osm_id":"2768742380","tag":{"amenity":"recycling","recycling:paper":"yes","recycling_type":"container"}},"type":"Feature"},
	{"geometry":{"coordinates":[3.075532,50.644318],"type":"Point"},"properties":{"osm_id":"2768742384","tag":{"amenity":"recycling","recycling:glass_bottles":"yes","recycling_type":"container"}},"type":"Feature"},
	{"geometry":{"coordinates":[3.060305,50.636607],"type":"Point"},"properties":{"osm_id":"2876212241","tag":{"amenity":"waste_basket"}},"type":"Feature"},
	{"geometry":{"coordinates":[3.060375,50.636641],"type":"Point"},"properties":{"osm_id":"2876212248","tag":{"amenity":"waste_basket"}},"type":"Feature"},
	{"geometry":{"coordinates":[3.060755,50.636839],"type":"Point"},"properties":{"osm_id":"2876212262","tag":{"amenity":"waste_basket"}},"type":"Feature"},
	{"geometry":{"coordinates":[3.060984,50.637043],"type":"Point"},"properties":{"osm_id":"2876212265","tag":{"amenity":"waste_basket"}},"type":"Feature"},
	{"geometry":{"coordinates":[3.050555,50.633886],"type":"Point"},"properties":{"osm_id":"3135444998","tag":{"addr:city":"Lille","amenity":"waste_basket"}},"type":"Feature"},
	{"geometry":{"coordinates":[3.049209,50.634666],"type":"Point"},"properties":{"osm_id":"3135445021","tag":{"amenity":"waste_basket"}},"type":"Feature"},
	{"geometry":{"coordinates":[3.050201,50.634505],"type":"Point"},"properties":{"osm_id":"3135445026","tag":{"amenity":"waste_basket"}},"type":"Feature"},
	{"geometry":{"coordinates":[3.04959,50.634675],"type":"Point"},"properties":{"osm_id":"3135448434","tag":{"amenity":"waste_basket"}},"type":"Feature"},
	{"geometry":{"coordinates":[3.029247,50.652123],"type":"Point"},"properties":{"osm_id":"3294582965","tag":{"amenity":"waste_basket"}},"type":"Feature"},
	{"geometry":{"coordinates":[3.022147,50.626228],"type":"Point"},"properties":{"osm_id":"3650725834","tag":{"amenity":"waste_basket"}},"type":"Feature"},
	{"geometry":{"coordinates":[3.024109,50.626708],"type":"Point"},"properties":{"osm_id":"3650725842","tag":{"amenity":"waste_basket"}},"type":"Feature"},
	{"geometry":{"coordinates":[3.037396,50.639504],"type":"Point"},"properties":{"osm_id":"3650725918","tag":{"amenity":"waste_basket"}},"type":"Feature"},
	{"geometry":{"coordinates":[3.036331,50.639659],"type":"Point"},"properties":{"osm_id":"3650725922","tag":{"amenity":"waste_basket"}},"type":"Feature"},
	{"geometry":{"coordinates":[3.035492,50.639706],"type":"Point"},"properties":{"osm_id":"3650726227","tag":{"amenity":"waste_basket"}},"type":"Feature"},
	{"geometry":{"coordinates":[3.023477,50.655833],"type":"Point"},"properties":{"osm_id":"4960100016","tag":{"amenity":"waste_basket"}},"type":"Feature"},
	{"geometry":{"coordinates":[3.055701,50.638524],"type":"Point"},"properties":{"osm_id":"5199896851","tag":{"amenity":"waste_basket"}},"type":"Feature"},
	{"geometry":{"coordinates":[3.064698,50.64026],"type":"Point"},"properties":{"osm_id":"5199896864","tag":{"amenity":"waste_basket"}},"type":"Feature"},
	{"geometry":{"coordinates":[3.064579,50.625962],"type":"Point"},"properties":{"osm_id":"5232666351","tag":{"amenity":"waste_basket"}},"type":"Feature"},
	{"geometry":{"coordinates":[3.064026,50.626275],"type":"Point"},"properties":{"osm_id":"5232666352","tag":{"amenity":"waste_basket"}},"type":"Feature"},
	{"geometry":{"coordinates":[3.051296,50.62976],"type":"Point"},"properties":{"osm_id":"5317159590","tag":{"amenity":"waste_basket"}},"type":"Feature"},
	{"geometry":{"coordinates":[3.0596,50.63152],"type":"Point"},"properties":{"osm_id":"5317159602","tag":{"amenity":"waste_basket"}},"type":"Feature"},
	{"geometry":{"coordinates":[3.055739,50.625829],"type":"Point"},"properties":{"osm_id":"5343214987","tag":{"amenity":"waste_basket"}},"type":"Feature"},
	{"geometry":{"coordinates":[3.055778,50.625859],"type":"Point"},"properties":{"osm_id":"5343214988","tag":{"amenity":"waste_basket"}},"type":"Feature"},
	{"geometry":{"coordinates":[3.065643,50.637516],"type":"Point"},"properties":{"osm_id":"5425635628","tag":{"amenity":"waste_basket"}},"type":"Feature"},
	{"geometry":{"coordinates":[3.050111,50.629978],"type":"Point"},"properties":{"osm_id":"5457883559","tag":{"amenity":"waste_basket"}},"type":"Feature"},
	{"geometry":{"coordinates":[3.062748,50.636033],"type":"Point"},"properties":{"osm_id":"5579032491","tag":{"amenity":"waste_basket"}},"type":"Feature"},
	{"geometry":{"coordinates":[3.068364,50.627085],"type":"Point"},"properties":{"osm_id":"5600811764","tag":{"amenity":"waste_basket","waste":"*"}},"type":"Feature"},
	{"geometry":{"coordinates":[3.068626,50.627135],"type":"Point"},"properties":{"osm_id":"5600811765","tag":{"amenity":"waste_basket","waste":"*"}},"type":"Feature"},
	{"geometry":{"coordinates":[3.062916,50.637148],"type":"Point"},"properties":{"osm_id":"5620643322","tag":{"amenity":"waste_basket","material":"metal"}},"type":"Feature"},
	{"geometry":{"coordinates":[3.012946,50.646463],"type":"Point"},"properties":{"osm_id":"5661500688","tag":{"amenity":"recycling","recycling_type":"container"}},"type":"Feature"},
	{"geometry":{"coordinates":[3.048606,50.629599],"type":"Point"},"properties":{"osm_id":"5847173571","tag":{"amenity":"waste_basket"}},"type":"Feature"},
	{"geometry":{"coordinates":[3.035855,50.664768],"type":"Point"},"properties":{"osm_id":"5911116633","tag":{"amenity":"waste_basket","waste":"dog_excrement"}},"type":"Feature"},
	{"geometry":{"coordinates":[3.031493,50.664342],"type":"Point"},"properties":{"osm_id":"5914429666","tag":{"amenity":"waste_basket","waste":"dog_excrement"}},"type":"Feature"},
	{"geometry":{"coordinates":[3.065854,50.640558],"type":"Point"},"properties":{"osm_id":"6042829478","tag":{"amenity":"waste_basket"}},"type":"Feature"},
	{"geometry":{"coordinates":[3.070187,50.633852],"type":"Point"},"properties":{"osm_id":"6042843061","tag":{"amenity":"waste_basket"}},"type":"Feature"},
	{"geometry":{"coordinates":[3.07053,50.631045],"type":"Point"},"properties":{"osm_id":"6057757850","tag":{"amenity":"waste_basket"}},"type":"Feature"},
	{"geometry":{"coordinates":[3.071006,50.631134],"type":"Point"},"properties":{"osm_id":"6057757851","tag":{"amenity":"waste_basket"}},"type":"Feature"},
	{"geometry":{"coordinates":[3.064218,50.634996],"type":"Point"},"properties":{"osm_id":"6122249960","tag":{"amenity":"waste_basket"}},"type":"Feature"},
	{"geometry":{"coordinates":[3.066539,50.635905],"type":"Point"},"properties":{"osm_id":"6295665099","tag":{"amenity":"waste_basket"}},"type":"Feature"},
	{"geometry":{"coordinates":[3.066656,50.635841],"type":"Point"},"properties":{"osm_id":"6295665100","tag":{"amenity":"waste_basket"}},"type":"Feature"},
	{"geometry":{"coordinates":[3.066987,50.635446],"type":"Point"},"properties":{"osm_id":"6295665101","tag":{"amenity":"waste_basket"}},"type":"Feature"},
	{"geometry":{"coordinates":[3.066992,50.635257],"type":"Point"},"properties":{"osm_id":"6295665104","tag":{"amenity":"waste_basket"}},"type":"Feature"},
	{"geometry":{"coordinates":[3.067148,50.635388],"type":"Point"},"properties":{"osm_id":"6295665105","tag":{"amenity":"waste_basket"}},"type":"Feature"},
	{"geometry":{"coordinates":[3.010186,50.638587],"type":"Point"},"properties":{"osm_id":"6303806335","tag":{"amenity":"waste_basket"}},"type":"Feature"},
	{"geometry":{"coordinates":[3.010934,50.638827],"type":"Point"},"properties":{"osm_id":"6303806336","tag":{"amenity":"waste_basket"}},"type":"Feature"},
	{"geometry":{"coordinates":[3.010016,50.63773],"type":"Point"},"properties":{"osm_id":"6303806342","tag":{"amenity":"waste_basket"}},"type":"Feature"},
	{"geometry":{"coordinates":[3.009559,50.636218],"type":"Point"},"properties":{"osm_id":"6303806344","tag":{"amenity":"waste_basket"}},"type":"Feature"},
	{"geometry":{"coordinates":[3.010019,50.637133],"type":"Point"},"properties":{"osm_id":"6303806353","tag":{"amenity":"waste_basket"}},"type":"Feature"},
	{"geometry":{"coordinates":[3.07043,50.631422],"type":"Point"},"properties":{"osm_id":"6325070029","tag":{"amenity":"waste_basket"}},"type":"Feature"},
	{"geometry":{"coordinates":[3.070406,50.631689],"type":"Point"},"properties":{"osm_id":"6325070030","tag":{"amenity":"waste_basket"}},"type":"Feature"},
	{"geometry":{"coordinates":[3.070865,50.631468],"type":"Point"},"properties":{"osm_id":"6325070038","tag":{"amenity":"waste_basket"}},"type":"Feature"},
	{"geometry":{"coordinates":[3.070737,50.63157],"type":"Point"},"properties":{"osm_id":"6325070041","tag":{"amenity":"waste_basket"}},"type":"Feature"},
	{"geometry":{"coordinates":[3.070511,50.631913],"type":"Point"},"properties":{"osm_id":"6325070045","tag":{"amenity":"waste_basket"}},"type":"Feature"},
	{"geometry":{"coordinates":[3.071108,50.631813],"type":"Point"},"properties":{"osm_id":"6325070048","tag":{"amenity":"waste_basket"}},"type":"Feature"},
	{"geometry":{"coordinates":[3.071033,50.632401],"type":"Point"},"properties":{"osm_id":"6325070054","tag":{"amenity":"waste_basket"}},"type":"Feature"},
	{"geometry":{"coordinates":[3.070955,50.631243],"type":"Point"},"properties":{"osm_id":"6325070058","tag":{"amenity":"waste_basket"}},"type":"Feature"},
	{"geometry":{"coordinates":[3.009806,50.638691],"type":"Point"},"properties":{"osm_id":"6331260807","tag":{"amenity":"waste_basket"}},"type":"Feature"},
	{"geometry":{"coordinates":[3.062194,50.639484],"type":"Point"},"properties":{"osm_id":"6332717393","tag":{"amenity":"waste_basket"}},"type":"Feature"},
	{"geometry":{"coordinates":[3.062067,50.639773],"type":"Point"},"properties":{"osm_id":"6332717394","tag":{"amenity":"waste_basket"}},"type":"Feature"},
	{"geometry":{"coordinates":[3.061836,50.639977],"type":"Point"},"properties":{"osm_id":"6332717395","tag":{"amenity":"waste_basket"}},"type":"Feature"},
	{"geometry":{"coordinates":[3.062138,50.639782],"type":"Point"},"properties":{"osm_id":"6332717396","tag":{"amenity":"waste_basket"}},"type":"Feature"},
	{"geometry":{"coordinates":[3.062628,50.63959],"type":"Point"},"properties":{"osm_id":"6332717398","tag":{"amenity":"waste_basket"}},"type":"Feature"},
	{"geometry":{"coordinates":[3.004947,50.649184],"type":"Point"},"properties":{"osm_id":"6339829725","tag":{"amenity":"waste_basket"}},"type":"Feature"},
	{"geometry":{"coordinates":[3.00477,50.649343],"type":"Point"},"properties":{"osm_id":"6339829729","tag":{"amenity":"waste_basket"}},"type":"Feature"},
	{"geometry":{"coordinates":[3.044285,50.636205],"type":"Point"},"properties":{"osm_id":"6349147897","tag":{"amenity":"waste_basket"}},"type":"Feature"},
	{"geometry":{"coordinates":[3.044418,50.636285],"type":"Point"},"properties":{"osm_id":"6349147899","tag":{"amenity":"waste_basket"}},"type":"Feature"},
	{"geometry":{"coordinates":[3.044564,50.636215],"type":"Point"},"properties":{"osm_id":"6349147900","tag":{"amenity":"waste_basket"}},"type":"Feature"},
	{"geometry":{"coordinates":[3.045171,50.636191],"type":"Point"},"properties":{"osm_id":"6349147902","tag":{"amenity":"waste_basket"}},"type":"Feature"},
	{"geometry":{"coordinates":[3.044851,50.636079],"type":"Point"},"properties":{"osm_id":"6349147904","tag":{"amenity":"waste_basket"}},"type":"Feature"},
	{"geometry":{"coordinates":[3.044641,50.635987],"type":"Point"},"properties":{"osm_id":"6349147905","tag":{"amenity":"waste_basket"}},"type":"Feature"},
	{"geometry":{"coordinates":[3.05862,50.629105],"type":"Point"},"properties":{"osm_id":"6353875963","tag":{"amenity":"waste_basket"}},"type":"Feature"},
	{"geometry":{"coordinates":[3.069077,50.62803],"type":"Point"},"properties":{"osm_id":"6354175160","tag":{"amenity":"waste_basket"}},"type":"Feature"},
	{"geometry":{"coordinates":[3.06885,50.628039],"type":"Point"},"properties":{"osm_id":"6354175161","tag":{"amenity":"waste_basket"}},"type":"Feature"},
	{"geometry":{"coordinates":[3.069408,50.627566],"type":"Point"},"properties":{"osm_id":"6354175170","tag":{"amenity":"waste_basket"}},"type":"Feature"},
	{"geometry":{"coordinates":[3.042853,50.628899],"type":"Point"},"properties":{"osm_id":"6354573815","tag":{"amenity":"waste_basket"}},"type":"Feature"},
	{"geometry":{"coordinates":[3.043153,50.6287],"type":"Point"},"properties":{"osm_id":"6354573818","tag":{"amenity":"waste_basket"}},"type":"Feature"},
	{"geometry":{"coordinates":[3.043023,50.628746],"type":"Point"},"properties":{"osm_id":"6354573821","tag":{"amenity":"waste_basket"}},"type":"Feature"},
	{"geometry":{"coordinates":[3.042933,50.628505],"type":"Point"},"properties":{"osm_id":"6354573822","tag":{"amenity":"waste_basket"}},"type":"Feature"},
	{"geometry":{"coordinates":[3.042703,50.628279],"type":"Point"},"properties":{"osm_id":"6354573825","tag":{"amenity":"waste_basket"}},"type":"Feature"},
	{"geometry":{"coordinates":[3.042584,50.628327],"type":"Point"},"properties":{"osm_id":"6354573826","tag":{"amenity":"waste_basket"}},"type":"Feature"},
	{"geometry":{"coordinates":[3.042563,50.628139],"type":"Point"},"properties":{"osm_id":"6354573828","tag":{"amenity":"waste_basket"}},"type":"Feature"},
	{"geometry":{"coordinates":[3.042658,50.628871],"type":"Point"},"properties":{"osm_id":"6354573836","tag":{"amenity":"waste_basket"}},"type":"Feature"},
	{"geometry":{"coordinates":[3.042101,50.628168],"type":"Point"},"properties":{"osm_id":"6354573838","tag":{"amenity":"waste_basket"}},"type":"Feature"},
	{"geometry":{"coordinates":[3.041968,50.628217],"type":"Point"},"properties":{"osm_id":"6354573839","tag":{"amenity":"waste_basket"}},"type":"Feature"},
	{"geometry":{"coordinates":[3.042421,50.628478],"type":"Point"},"properties":{"osm_id":"6354573841","tag":{"amenity":"waste_basket"}},"type":"Feature"},
	{"geometry":{"coordinates":[3.042303,50.628534],"type":"Point"},"properties":{"osm_id":"6354573843","tag":{"amenity":"waste_basket"}},"type":"Feature"},
	{"geometry":{"coordinates":[3.051655,50.637894],"type":"Point"},"properties":{"osm_id":"6354673843","tag":{"amenity":"waste_basket"}},"type":"Feature"},
	{"geometry":{"coordinates":[3.051548,50.637797],"type":"Point"},"properties":{"osm_id":"6354673854","tag":{"amenity":"waste_basket"}},"type":"Feature"},
	{"geometry":{"coordinates":[3.051643,50.63802],"type":"Point"},"properties":{"osm_id":"6354673856","tag":{"amenity":"waste_basket"}},"type":"Feature"},
	{"geometry":{"coordinates":[3.068081,50.63345],"type":"Point"},"properties":{"osm_id":"6360570263","tag":{"amenity":"waste_basket"}},"type":"Feature"},
	{"geometry":{"coordinates":[3.067894,50.63362],"type":"Point"},"properties":{"osm_id":"6360570264","tag":{"amenity":"waste_basket"}},"type":"Feature"},
	{"geometry":{"coordinates":[3.067796,50.634126],"type":"Point"},"properties":{"osm_id":"6360570265","tag":{"amenity":"waste_basket"}},"type":"Feature"},
	{"geometry":{"coordinates":[3.067346,50.636911],"type":"Point"},"properties":{"osm_id":"6360570274","tag":{"amenity":"waste_basket"}},"type":"Feature"},
	{"geometry":{"coordinates":[3.066892,50.636965],"type":"Point"},"properties":{"osm_id":"6360570277","tag":{"amenity":"waste_basket"}},"type":"Feature"},
	{"geometry":{"coordinates":[3.065944,50.637092],"type":"Point"},"properties":{"osm_id":"6360570280","tag":{"amenity":"waste_basket"}},"type":"Feature"},
	{"geometry":{"coordinates":[3.065983,50.636997],"type":"Point"},"properties":{"osm_id":"6360570281","tag":{"amenity":"waste_basket"}},"type":"Feature"},
	{"geometry":{"coordinates":[3.065021,50.637047],"type":"Point"},"properties":{"osm_id":"6360571386","tag":{"amenity":"waste_basket"}},"type":"Feature"},
	{"geometry":{"coordinates":[3.064969,50.63709],"type":"Point"},"properties":{"osm_id":"6360571387","tag":{"amenity":"waste_basket"}},"type":"Feature"},
	{"geometry":{"coordinates":[3.064017,50.63676],"type":"Point"},"properties":{"osm_id":"6360571388","tag":{"amenity":"waste_basket","material":"metal"}},"type":"Feature"},
	{"geometry":{"coordinates":[3.063185,50.637237],"type":"Point"},"properties":{"osm_id":"6360571389","tag":{"amenity":"waste_basket","material":"metal"}},"type":"Feature"},
	{"geometry":{"coordinates":[3.063152,50.637295],"type":"Point"},"properties":{"osm_id":"6360571390","tag":{"amenity":"waste_basket","material":"metal"}},"type":"Feature"},
	{"geometry":{"coordinates":[3.061893,50.636854],"type":"Point"},"properties":{"osm_id":"6360571392","tag":{"amenity":"waste_basket"}},"type":"Feature"},
	{"geometry":{"coordinates":[3.061174,50.637261],"type":"Point"},"properties":{"osm_id":"6360646113","tag":{"amenity":"waste_basket"}},"type":"Feature"},
	{"geometry":{"coordinates":[3.057343,50.637433],"type":"Point"},"properties":{"osm_id":"6360646136","tag":{"amenity":"waste_basket"}},"type":"Feature"},
	{"geometry":{"coordinates":[3.055561,50.633758],"type":"Point"},"properties":{"osm_id":"6360646147","tag":{"amenity":"waste_basket"}},"type":"Feature"},
	{"geometry":{"coordinates":[3.055108,50.634184],"type":"Point"},"properties":{"osm_id":"6362087803","tag":{"amenity":"waste_basket"}},"type":"Feature"},
	{"geometry":{"coordinates":[3.055232,50.635237],"type":"Point"},"properties":{"osm_id":"6362087805","tag":{"amenity":"waste_basket"}},"type":"Feature"},
	{"geometry":{"coordinates":[3.053337,50.63475],"type":"Point"},"properties":{"osm_id":"6362087809","tag":{"amenity":"waste_basket"}},"type":"Feature"},
	{"geometry":{"coordinates":[3.05159,50.635811],"type":"Point"},"properties":{"osm_id":"6362087817","tag":{"amenity":"waste_basket"}},"type":"Feature"},
	{"geometry":{"coordinates":[3.052392,50.637053],"type":"Point"},"properties":{"osm_id":"6362087819","tag":{"amenity":"waste_basket"}},"type":"Feature"},
	{"geometry":{"coordinates":[3.05139,50.637253],"type":"Point"},"properties":{"osm_id":"6362087822","tag":{"amenity":"waste_basket"}},"type":"Feature"},
	{"geometry":{"coordinates":[3.054889,50.634099],"type":"Point"},"properties":{"osm_id":"6362087837","tag":{"amenity":"waste_basket"}},"type":"Feature"},
	{"geometry":{"coordinates":[3.056777,50.634692],"type":"Point"},"properties":{"osm_id":"6362087843","tag":{"amenity":"waste_basket"}},"type":"Feature"},
	{"geometry":{"coordinates":[3.059576,50.635839],"type":"Point"},"properties":{"osm_id":"6362087845","tag":{"amenity":"waste_basket"}},"type":"Feature"},
	{"geometry":{"coordinates":[3.059677,50.63568],"type":"Point"},"properties":{"osm_id":"6362087846","tag":{"amenity":"waste_basket"}},"type":"Feature"},
	{"geometry":{"coordinates":[3.060492,50.637542],"type":"Point"},"properties":{"osm_id":"6362694734","tag":{"amenity":"waste_basket"}},"type":"Feature"},
	{"geometry":{"coordinates":[3.053523,50.636183],"type":"Point"},"properties":{"osm_id":"6362694742","tag":{"amenity":"waste_basket"}},"type":"Feature"},
	{"geometry":{"coordinates":[3.050966,50.634155],"type":"Point"},"properties":{"osm_id":"6362694751","tag":{"amenity":"waste_basket"}},"type":"Feature"},
	{"geometry":{"coordinates":[3.053291,50.632098],"type":"Point"},"properties":{"osm_id":"6362716869","tag":{"amenity":"waste_basket"}},"type":"Feature"},
	{"geometry":{"coordinates":[3.054182,50.631637],"type":"Point"},"properties":{"osm_id":"6362716870","tag":{"amenity":"waste_basket"}},"type":"Feature"},
	{"geometry":{"coordinates":[3.054642,50.63062],"type":"Point"},"properties":{"osm_id":"6362716871","tag":{"amenity":"waste_basket"}},"type":"Feature"},
	{"geometry":{"coordinates":[3.054697,50.630188],"type":"Point"},"properties":{"osm_id":"6362716872","tag":{"amenity":"waste_basket"}},"type":"Feature"},
	{"geometry":{"coordinates":[3.060161,50.631473],"type":"Point"},"properties":{"osm_id":"6362851679","tag":{"amenity":"waste_basket"}},"type":"Feature"},
	{"geometry":{"coordinates":[3.060585,50.630928],"type":"Point"},"properties":{"osm_id":"6362851681","tag":{"amenity":"waste_basket"}},"type":"Feature"},
	{"geometry":{"coordinates":[3.058123,50.629346],"type":"Point"},"properties":{"osm_id":"6362851684","tag":{"amenity":"waste_basket"}},"type":"Feature"},
	{"geometry":{"coordinates":[3.057883,50.629508],"type":"Point"},"properties":{"osm_id":"6362851986","tag":{"amenity":"waste_basket"}},"type":"Feature"},
	{"geometry":{"coordinates":[3.053117,50.646459],"type":"Point"},"properties":{"osm_id":"6365143043","tag":{"amenity":"waste_basket"}},"type":"Feature"},
	{"geometry":{"coordinates":[3.052932,50.646416],"type":"Point"},"properties":{"osm_id":"6365143046","tag":{"amenity":"waste_basket"}},"type":"Feature"},
	{"geometry":{"coordinates":[3.053765,50.645794],"type":"Point"},"properties":{"osm_id":"6365143051","tag":{"amenity":"waste_basket"}},"type":"Feature"},
	{"geometry":{"coordinates":[3.053853,50.645451],"type":"Point"},"properties":{"osm_id":"6365143053","tag":{"amenity":"waste_basket"}},"type":"Feature"},
	{"geometry":{"coordinates":[3.055818,50.642986],"type":"Point"},"properties":{"osm_id":"6365143059","tag":{"amenity":"waste_basket"}},"type":"Feature"},
	{"geometry":{"coordinates":[3.05582,50.642811],"type":"Point"},"properties":{"osm_id":"6365143061","tag":{"amenity":"waste_basket"}},"type":"Feature"},
	{"geometry":{"coordinates":[3.056527,50.642054],"type":"Point"},"properties":{"osm_id":"6365143062","tag":{"amenity":"waste_basket"}},"type":"Feature"},
	{"geometry":{"coordinates":[3.056053,50.639907],"type":"Point"},"properties":{"osm_id":"6365143064","tag":{"amenity":"waste_basket"}},"type":"Feature"},
	{"geometry":{"coordinates":[3.055861,50.639997],"type":"Point"},"properties":{"osm_id":"6365143065","tag":{"amenity":"waste_basket"}},"type":"Feature"},
	{"geometry":{"coordinates":[3.054465,50.639845],"type":"Point"},"properties":{"osm_id":"6365143067","tag":{"amenity":"waste_basket"}},"type":"Feature"},
	{"geometry":{"coordinates":[3.053875,50.639821],"type":"Point"},"properties":{"osm_id":"6365143068","tag":{"amenity":"waste_basket"}},"type":"Feature"},
	{"geometry":{"coordinates":[3.053881,50.63988],"type":"Point"},"properties":{"osm_id":"6365143069","tag":{"amenity":"waste_basket"}},"type":"Feature"},
	{"geometry":{"coordinates":[3.050816,50.637957],"type":"Point"},"properties":{"osm_id":"6365226553","tag":{"amenity":"waste_basket"}},"type":"Feature"},
	{"geometry":{"coordinates":[3.050775,50.638169],"type":"Point"},"properties":{"osm_id":"6365226554","tag":{"amenity":"waste_basket"}},"type":"Feature"},
	{"geometry":{"coordinates":[3.050857,50.638201],"type":"Point"},"properties":{"osm_id":"6365226555","tag":{"amenity":"waste_basket"}},"type":"Feature"},
	{"geometry":{"coordinates":[3.047481,50.633094],"type":"Point"},"properties":{"osm_id":"6365226566","tag":{"amenity":"waste_basket"}},"type":"Feature"},
	{"geometry":{"coordinates":[3.05644,50.626077],"type":"Point"},"properties":{"osm_id":"6378645745","tag":{"amenity":"waste_basket"}},"type":"Feature"},
	{"geometry":{"coordinates":[3.056144,50.626053],"type":"Point"},"properties":{"osm_id":"6378645746","tag":{"amenity":"waste_basket"}},"type":"Feature"},
	{"geometry":{"coordinates":[3.055967,50.625886],"type":"Point"},"properties":{"osm_id":"6378645747","tag":{"amenity":"waste_basket"}},"type":"Feature"},
	{"geometry":{"coordinates":[3.037311,50.626254],"type":"Point"},"properties":{"osm_id":"6383767017","tag":{"amenity":"waste_basket"}},"type":"Feature"},
	{"geometry":{"coordinates":[3.039304,50.627111],"type":"Point"},"properties":{"osm_id":"6383767019","tag":{"amenity":"waste_basket"}},"type":"Feature"},
	{"geometry":{"coordinates":[3.041011,50.627814],"type":"Point"},"properties":{"osm_id":"6383767020","tag":{"amenity":"waste_basket"}},"type":"Feature"},
	{"geometry":{"coordinates":[3.041376,50.627971],"type":"Point"},"properties":{"osm_id":"6383767021","tag":{"amenity":"waste_basket"}},"type":"Feature"},
	{"geometry":{"coordinates":[3.041491,50.62818],"type":"Point"},"properties":{"osm_id":"6383767022","tag":{"amenity":"waste_basket"}},"type":"Feature"},
	{"geometry":{"coordinates":[3.059069,50.625988],"type":"Point"},"properties":{"osm_id":"6385272269","tag":{"amenity":"waste_basket"}},"type":"Feature"},
	{"geometry":{"coordinates":[3.054781,50.627821],"type":"Point"},"properties":{"osm_id":"6385272281","tag":{"amenity":"waste_basket"}},"type":"Feature"},
	{"geometry":{"coordinates":[3.0513,50.628119],"type":"Point"},"properties":{"osm_id":"6385273319","tag":{"amenity":"waste_basket"}},"type":"Feature"},
	{"geometry":{"coordinates":[3.051191,50.627978],"type":"Point"},"properties":{"osm_id":"6385273320","tag":{"amenity":"waste_basket"}},"type":"Feature"},
	{"geometry":{"coordinates":[3.049936,50.627448],"type":"Point"},"properties":{"osm_id":"6385273322","tag":{"amenity":"waste_basket"}},"type":"Feature"},
	{"geometry":{"coordinates":[3.049588,50.627294],"type":"Point"},"properties":{"osm_id":"6385273327","tag":{"amenity":"waste_basket"}},"type":"Feature"},
	{"geometry":{"coordinates":[3.049418,50.627234],"type":"Point"},"properties":{"osm_id":"6385273328","tag":{"amenity":"waste_basket"}},"type":"Feature"},
	{"geometry":{"coordinates":[3.048596,50.626884],"type":"Point"},"properties":{"osm_id":"6385273330","tag":{"amenity":"waste_basket"}},"type":"Feature"},
	{"geometry":{"coordinates":[3.047688,50.626603],"type":"Point"},"properties":{"osm_id":"6385273331","tag":{"amenity":"waste_basket"}},"type":"Feature"},
	{"geometry":{"coordinates":[3.047322,50.626362],"type":"Point"},"properties":{"osm_id":"6385273332","tag":{"amenity":"waste_basket"}},"type":"Feature"},
	{"geometry":{"coordinates":[3.053638,50.633325],"type":"Point"},"properties":{"osm_id":"6385589278","tag":{"amenity":"waste_basket"}},"type":"Feature"},
	{"geometry":{"coordinates":[3.054105,50.63336],"type":"Point"},"properties":{"osm_id":"6385589279","tag":{"amenity":"waste_basket"}},"type":"Feature"},
	{"geometry":{"coordinates":[3.041249,50.634071],"type":"Point"},"properties":{"osm_id":"6385589986","tag":{"amenity":"waste_basket"}},"type":"Feature"},
	{"geometry":{"coordinates":[3.038977,50.633908],"type":"Point"},"properties":{"osm_id":"6385590014","tag":{"amenity":"waste_basket"}},"type":"Feature"},
	{"geometry":{"coordinates":[3.036613,50.631699],"type":"Point"},"properties":{"osm_id":"6385590047","tag":{"amenity":"waste_basket"}},"type":"Feature"},
	{"geometry":{"coordinates":[3.037276,50.632238],"type":"Point"},"properties":{"osm_id":"6385590058","tag":{"amenity":"waste_basket"}},"type":"Feature"},
	{"geometry":{"coordinates":[3.036332,50.631436],"type":"Point"},"properties":{"osm_id":"6385590062","tag":{"amenity":"waste_basket"}},"type":"Feature"},
	{"geometry":{"coordinates":[3.036028,50.631145],"type":"Point"},"properties":{"osm_id":"6385590080","tag":{"amenity":"waste_basket"}},"type":"Feature"},
	{"geometry":{"coordinates":[3.035703,50.630845],"type":"Point"},"properties":{"osm_id":"6385590082","tag":{"amenity":"waste_basket"}},"type":"Feature"},
	{"geometry":{"coordinates":[3.035381,50.630544],"type":"Point"},"properties":{"osm_id":"6385590287","tag":{"amenity":"waste_basket"}},"type":"Feature"},
	{"geometry":{"coordinates":[3.035631,50.630078],"type":"Point"},"properties":{"osm_id":"6385590322","tag":{"amenity":"waste_basket"}},"type":"Feature"},
	{"geometry":{"coordinates":[3.040091,50.631231],"type":"Point"},"properties":{"osm_id":"6400287648","tag":{"amenity":"recycling","recycling_type":"container"}},"type":"Feature"},
	{"geometry":{"coordinates":[3.040065,50.63122],"type":"Point"},"properties":{"osm_id":"6400287649","tag":{"amenity":"recycling","recycling_type":"container"}},"type":"Feature"},
	{"geometry":{"coordinates":[3.040043,50.631208],"type":"Point"},"properties":{"osm_id":"6400287650","tag":{"amenity":"recycling","recycling_type":"container"}},"type":"Feature"},
	{"geometry":{"coordinates":[3.040405,50.63121],"type":"Point"},"properties":{"osm_id":"6400287652","tag":{"amenity":"waste_basket"}},"type":"Feature"},
	{"geometry":{"coordinates":[3.04023,50.631303],"type":"Point"},"properties":{"osm_id":"6400287653","tag":{"amenity":"waste_basket"}},"type":"Feature"},
	{"geometry":{"coordinates":[3.035039,50.630163],"type":"Point"},"properties":{"osm_id":"6405905496","tag":{"amenity":"waste_basket"}},"type":"Feature"},
	{"geometry":{"coordinates":[3.030592,50.625739],"type":"Point"},"properties":{"osm_id":"6405905613","tag":{"amenity":"waste_basket"}},"type":"Feature"},
	{"geometry":{"coordinates":[3.031185,50.626386],"type":"Point"},"properties":{"osm_id":"6405905614","tag":{"amenity":"waste_basket"}},"type":"Feature"},
	{"geometry":{"coordinates":[3.031886,50.626992],"type":"Point"},"properties":{"osm_id":"6405905616","tag":{"amenity":"waste_basket"}},"type":"Feature"},
	{"geometry":{"coordinates":[3.03362,50.627828],"type":"Point"},"properties":{"osm_id":"6405946843","tag":{"amenity":"waste_basket"}},"type":"Feature"},
	{"geometry":{"coordinates":[3.034215,50.627705],"type":"Point"},"properties":{"osm_id":"6405946877","tag":{"amenity":"waste_basket"}},"type":"Feature"},
	{"geometry":{"coordinates":[3.034348,50.62756],"type":"Point"},"properties":{"osm_id":"6405946879","tag":{"amenity":"waste_basket"}},"type":"Feature"},
	{"geometry":{"coordinates":[3.034416,50.62774],"type":"Point"},"properties":{"osm_id":"6405946988","tag":{"amenity":"waste_basket"}},"type":"Feature"},
	{"geometry":{"coordinates":[3.036406,50.629222],"type":"Point"},"properties":{"osm_id":"6407008791","tag":{"amenity":"waste_basket"}},"type":"Feature"},
	{"geometry":{"coordinates":[3.036689,50.628955],"type":"Point"},"properties":{"osm_id":"6407008792","tag":{"amenity":"waste_basket"}},"type":"Feature"},
	{"geometry":{"coordinates":[3.037841,50.628105],"type":"Point"},"properties":{"osm_id":"6407008819","tag":{"amenity":"waste_basket"}},"type":"Feature"},
	{"geometry":{"coordinates":[3.046716,50.635628],"type":"Point"},"properties":{"osm_id":"6408605331","tag":{"amenity":"waste_basket"}},"type":"Feature"},
	{"geometry":{"coordinates":[3.046785,50.635379],"type":"Point"},"properties":{"osm_id":"6408605332","tag":{"amenity":"waste_basket"}},"type":"Feature"},
	{"geometry":{"coordinates":[3.054847,50.631286],"type":"Point"},"properties":{"osm_id":"6408605352","tag":{"amenity":"waste_basket"}},"type":"Feature"},
	{"geometry":{"coordinates":[3.054912,50.629612],"type":"Point"},"properties":{"osm_id":"6408605355","tag":{"amenity":"waste_basket"}},"type":"Feature"},
	{"geometry":{"coordinates":[3.054178,50.637121],"type":"Point"},"properties":{"osm_id":"6413768649","tag":{"amenity":"waste_basket"}},"type":"Feature"},
	{"geometry":{"coordinates":[3.053846,50.637392],"type":"Point"},"properties":{"osm_id":"6413768656","tag":{"amenity":"waste_basket"}},"type":"Feature"},
	{"geometry":{"coordinates":[3.054305,50.637906],"type":"Point"},"properties":{"osm_id":"6413768674","tag":{"amenity":"waste_basket"}},"type":"Feature"},
	{"geometry":{"coordinates":[3.053755,50.637877],"type":"Point"},"properties":{"osm_id":"6413768676","tag":{"amenity":"waste_basket"}},"type":"Feature"},
	{"geometry":{"coordinates":[3.054045,50.638404],"type":"Point"},"properties":{"osm_id":"6413768680","tag":{"amenity":"waste_basket"}},"type":"Feature"},
	{"geometry":{"coordinates":[3.054135,50.63797],"type":"Point"},"properties":{"osm_id":"6413968809","tag":{"amenity":"waste_basket"}},"type":"Feature"},
	{"geometry":{"coordinates":[3.054554,50.637853],"type":"Point"},"properties":{"osm_id":"6413968811","tag":{"amenity":"waste_basket"}},"type":"Feature"},
	{"geometry":{"coordinates":[3.054784,50.63761],"type":"Point"},"properties":{"osm_id":"6413968813","tag":{"amenity":"waste_basket"}},"type":"Feature"},
	{"geometry":{"coordinates":[3.056955,50.637177],"type":"Point"},"properties":{"osm_id":"6413968822","tag":{"amenity":"waste_basket"}},"type":"Feature"},
	{"geometry":{"coordinates":[3.060913,50.634588],"type":"Point"},"properties":{"osm_id":"6413968837","tag":{"amenity":"waste_basket"}},"type":"Feature"},
	{"geometry":{"coordinates":[3.061335,50.63414],"type":"Point"},"properties":{"osm_id":"6413968839","tag":{"amenity":"waste_basket"}},"type":"Feature"},
	{"geometry":{"coordinates":[3.061149,50.634132],"type":"Point"},"properties":{"osm_id":"6413968840","tag":{"amenity":"waste_basket"}},"type":"Feature"},
	{"geometry":{"coordinates":[3.062551,50.633029],"type":"Point"},"properties":{"osm_id":"6413968846","tag":{"amenity":"waste_basket"}},"type":"Feature"},
	{"geometry":{"coordinates":[3.062122,50.632459],"type":"Point"},"properties":{"osm_id":"6413968850","tag":{"amenity":"waste_basket"}},"type":"Feature"},
	{"geometry":{"coordinates":[3.062224,50.632428],"type":"Point"},"properties":{"osm_id":"6413968851","tag":{"amenity":"waste_basket"}},"type":"Feature"},
	{"geometry":{"coordinates":[3.062154,50.63232],"type":"Point"},"properties":{"osm_id":"6413968855","tag":{"amenity":"waste_basket"}},"type":"Feature"},
	{"geometry":{"coordinates":[3.06176,50.632244],"type":"Point"},"properties":{"osm_id":"6413968865","tag":{"amenity":"waste_basket"}},"type":"Feature"},
	{"geometry":{"coordinates":[3.061736,50.632057],"type":"Point"},"properties":{"osm_id":"6413968866","tag":{"amenity":"waste_basket"}},"type":"Feature"},
	{"geometry":{"coordinates":[3.062002,50.632166],"type":"Point"},"properties":{"osm_id":"6413968872","tag":{"amenity":"waste_basket"}},"type":"Feature"},
	{"geometry":{"coordinates":[3.062149,50.632085],"type":"Point"},"properties":{"osm_id":"6413968876","tag":{"amenity":"waste_basket"}},"type":"Feature"},
	{"geometry":{"coordinates":[3.061358,50.631764],"type":"Point"},"properties":{"osm_id":"6414105599","tag":{"amenity":"waste_basket"}},"type":"Feature"},
	{"geometry":{"coordinates":[3.060434,50.631679],"type":"Point"},"properties":{"osm_id":"6414105606","tag":{"amenity":"waste_basket"}},"type":"Feature"},
	{"geometry":{"coordinates":[3.060595,50.631794],"type":"Point"},"properties":{"osm_id":"6414105607","tag":{"amenity":"waste_basket"}},"type":"Feature"},
	{"geometry":{"coordinates":[3.042781,50.632584],"type":"Point"},"properties":{"osm_id":"6427720567","tag":{"amenity":"waste_basket"}},"type":"Feature"},
	{"geometry":{"coordinates":[2.989977,50.64211],"type":"Point"},"properties":{"osm_id":"6506099174","tag":{"amenity":"waste_basket"}},"type":"Feature"},
	{"geometry":{"coordinates":[2.990328,50.641947],"type":"Point"},"properties":{"osm_id":"6506099177","tag":{"amenity":"waste_basket"}},"type":"Feature"},
	{"geometry":{"coordinates":[2.990104,50.641596],"type":"Point"},"properties":{"osm_id":"6506099182","tag":{"amenity":"waste_basket"}},"type":"Feature"},
	{"geometry":{"coordinates":[2.989957,50.64192],"type":"Point"},"properties":{"osm_id":"6506099183","tag":{"amenity":"waste_basket"}},"type":"Feature"},
	{"geometry":{"coordinates":[3.015536,50.629095],"type":"Point"},"properties":{"osm_id":"6520566353","tag":{"amenity":"waste_basket"}},"type":"Feature"},
	{"geometry":{"coordinates":[3.018827,50.642855],"type":"Point"},"properties":{"osm_id":"6536497682","tag":{"amenity":"waste_basket"}},"type":"Feature"},
	{"geometry":{"coordinates":[3.030302,50.634774],"type":"Point"},"properties":{"osm_id":"6537384393","tag":{"amenity":"waste_basket"}},"type":"Feature"},
	{"geometry":{"coordinates":[3.026257,50.63636],"type":"Point"},"properties":{"osm_id":"6537384395","tag":{"amenity":"waste_basket"}},"type":"Feature"},
	{"geometry":{"coordinates":[3.025538,50.636661],"type":"Point"},"properties":{"osm_id":"6537384396","tag":{"amenity":"waste_basket"}},"type":"Feature"},
	{"geometry":{"coordinates":[3.028463,50.635497],"type":"Point"},"properties":{"osm_id":"6537402093","tag":{"amenity":"waste_basket"}},"type":"Feature"},
	{"geometry":{"coordinates":[3.003842,50.629295],"type":"Point"},"properties":{"osm_id":"6539716795","tag":{"amenity":"waste_disposal"}},"type":"Feature"},
	{"geometry":{"coordinates":[3.003861,50.629303],"type":"Point"},"properties":{"osm_id":"6539716796","tag":{"amenity":"waste_disposal"}},"type":"Feature"},
	{"geometry":{"coordinates":[3.003837,50.628558],"type":"Point"},"properties":{"osm_id":"6539716840","tag":{"amenity":"waste_disposal"}},"type":"Feature"},
	{"geometry":{"coordinates":[3.003856,50.628544],"type":"Point"},"properties":{"osm_id":"6539716841","tag":{"amenity":"waste_disposal"}},"type":"Feature"},
	{"geometry":{"coordinates":[3.00382,50.629858],"type":"Point"},"properties":{"osm_id":"6539716929","tag":{"amenity":"waste_basket"}},"type":"Feature"},
	{"geometry":{"coordinates":[3.003577,50.629914],"type":"Point"},"properties":{"osm_id":"6539716951","tag":{"amenity":"waste_basket"}},"type":"Feature"},
	{"geometry":{"coordinates":[3.0036,50.629986],"type":"Point"},"properties":{"osm_id":"6539716952","tag":{"amenity":"waste_basket"}},"type":"Feature"},
	{"geometry":{"coordinates":[3.001867,50.62985],"type":"Point"},"properties":{"osm_id":"6539716975","tag":{"amenity":"waste_disposal"}},"type":"Feature"},
	{"geometry":{"coordinates":[3.001886,50.629834],"type":"Point"},"properties":{"osm_id":"6539716976","tag":{"amenity":"waste_disposal"}},"type":"Feature"},
	{"geometry":{"coordinates":[3.000397,50.62985],"type":"Point"},"properties":{"osm_id":"6539717004","tag":{"amenity":"waste_disposal"}},"type":"Feature"},
	{"geometry":{"coordinates":[3.000418,50.629859],"type":"Point"},"properties":{"osm_id":"6539717005","tag":{"amenity":"waste_disposal"}},"type":"Feature"},
	{"geometry":{"coordinates":[2.994412,50.64635],"type":"Point"},"properties":{"osm_id":"6549141686","tag":{"amenity":"waste_basket","material":"metal"}},"type":"Feature"},
	{"geometry":{"coordinates":[2.993982,50.646302],"type":"Point"},"properties":{"osm_id":"6557177286","tag":{"amenity":"waste_basket"}},"type":"Feature"},
	{"geometry":{"coordinates":[3.059705,50.643191],"type":"Point"},"properties":{"osm_id":"6560938030","tag":{"amenity":"waste_basket"}},"type":"Feature"},
	{"geometry":{"coordinates":[3.059849,50.643112],"type":"Point"},"properties":{"osm_id":"6560938034","tag":{"amenity":"waste_basket"}},"type":"Feature"},
	{"geometry":{"coordinates":[3.060033,50.643178],"type":"Point"},"properties":{"osm_id":"6560938037","tag":{"amenity":"waste_basket","material":"metal"}},"type":"Feature"},
	{"geometry":{"coordinates":[3.060244,50.643258],"type":"Point"},"properties":{"osm_id":"6560938046","tag":{"amenity":"waste_basket"}},"type":"Feature"},
	{"geometry":{"coordinates":[3.021128,50.64988],"type":"Point"},"properties":{"osm_id":"6593630187","tag":{"amenity":"recycling","recycling:cardboard":"yes","recycling:paper":"yes","recycling_type":"container"}},"type":"Feature"},
	{"geometry":{"coordinates":[3.02116,50.64988],"type":"Point"},"properties":{"osm_id":"6593630190","tag":{"amenity":"recycling","recycling:aluminium":"yes","recycling:plastic":"yes","recycling_type":"container"}},"type":"Feature"},
	{"geometry":{"coordinates":[3.017537,50.633005],"type":"Point"},"properties":{"osm_id":"6640383074","tag":{"amenity":"waste_basket"}},"type":"Feature"},
	{"geometry":{"coordinates":[3.019103,50.633697],"type":"Point"},"properties":{"osm_id":"6640383080","tag":{"amenity":"waste_basket"}},"type":"Feature"},
	{"geometry":{"coordinates":[3.020434,50.632345],"type":"Point"},"properties":{"osm_id":"6640383086","tag":{"amenity":"waste_basket"}},"type":"Feature"},
	{"geometry":{"coordinates":[3.021364,50.632738],"type":"Point"},"properties":{"osm_id":"6640383090","tag":{"amenity":"waste_basket"}},"type":"Feature"},
	{"geometry":{"coordinates":[3.020848,50.631943],"type":"Point"},"properties":{"osm_id":"6640383091","tag":{"amenity":"waste_basket"}},"type":"Feature"},
	{"geometry":{"coordinates":[3.021606,50.631518],"type":"Point"},"properties":{"osm_id":"6640383098","tag":{"amenity":"waste_basket"}},"type":"Feature"},
	{"geometry":{"coordinates":[3.021997,50.631792],"type":"Point"},"properties":{"osm_id":"6640383103","tag":{"amenity":"waste_basket"}},"type":"Feature"},
	{"geometry":{"coordinates":[3.022255,50.631715],"type":"Point"},"properties":{"osm_id":"6640383106","tag":{"amenity":"waste_basket"}},"type":"Feature"},
	{"geometry":{"coordinates":[2.994128,50.646347],"type":"Point"},"properties":{"osm_id":"6643475492","tag":{"amenity":"waste_basket"}},"type":"Feature"},
	{"geometry":{"coordinates":[3.025539,50.652856],"type":"Point"},"properties":{"osm_id":"6643479189","tag":{"amenity":"waste_basket"}},"type":"Feature"},
	{"geometry":{"coordinates":[2.993785,50.646474],"type":"Point"},"properties":{"osm_id":"6643486592","tag":{"amenity":"waste_basket"}},"type":"Feature"},
	{"geometry":{"coordinates":[3.04449,50.633301],"type":"Point"},"properties":{"osm_id":"6651598737","tag":{"amenity":"waste_basket"}},"type":"Feature"},
	{"geometry":{"coordinates":[3.022637,50.637412],"type":"Point"},"properties":{"osm_id":"6776808273","tag":{"amenity":"waste_basket"}},"type":"Feature"},
	{"geometry":{"coordinates":[3.022527,50.637317],"type":"Point"},"properties":{"osm_id":"6776808274","tag":{"amenity":"waste_basket"}},"type":"Feature"},
	{"geometry":{"coordinates":[3.016042,50.626331],"type":"Point"},"properties":{"name":"FRT Achats Fers et M\u00c3\u00a9taux","osm_id":"6853279586","tag":{"amenity":"recycling","recycling:scrap_metal":"yes","recycling_type":"centre"}},"type":"Feature"},
	{"geometry":{"coordinates":[3.052862,50.638239],"type":"Point"},"properties":{"osm_id":"6877321314","tag":{"amenity":"waste_basket"}},"type":"Feature"},
	{"geometry":{"coordinates":[3.058469,50.637524],"type":"Point"},"properties":{"osm_id":"6877321324","tag":{"amenity":"waste_basket"}},"type":"Feature"},
	{"geometry":{"coordinates":[2.990939,50.635277],"type":"Point"},"properties":{"osm_id":"7008264176","tag":{"amenity":"waste_basket","bicycle_parking":"stands","capacity":"4"}},"type":"Feature"},
	{"geometry":{"coordinates":[3.022173,50.638392],"type":"Point"},"properties":{"osm_id":"7013748703","tag":{"amenity":"waste_basket"}},"type":"Feature"},
	{"geometry":{"coordinates":[3.022343,50.638399],"type":"Point"},"properties":{"osm_id":"7013748704","tag":{"amenity":"waste_basket"}},"type":"Feature"},
	{"geometry":{"coordinates":[3.063248,50.632639],"type":"Point"},"properties":{"name":"Poubelle pieton","osm_id":"7066447494","tag":{"amenity":"waste_basket"}},"type":"Feature"},
	{"geometry":{"coordinates":[3.064639,50.633076],"type":"Point"},"properties":{"osm_id":"7066447983","tag":{"amenity":"waste_basket"}},"type":"Feature"},
	{"geometry":{"coordinates":[3.066243,50.63373],"type":"Point"},"properties":{"osm_id":"7066454960","tag":{"amenity":"waste_basket","material":"metal"}},"type":"Feature"},
	{"geometry":{"coordinates":[3.062347,50.632134],"type":"Point"},"properties":{"osm_id":"7069396934","tag":{"amenity":"waste_basket"}},"type":"Feature"},
	{"geometry":{"coordinates":[3.041152,50.633627],"type":"Point"},"properties":{"osm_id":"7146495269","tag":{"amenity":"waste_basket"}},"type":"Feature"},
	{"geometry":{"coordinates":[3.040876,50.633627],"type":"Point"},"properties":{"osm_id":"7146495279","tag":{"amenity":"waste_basket"}},"type":"Feature"},
	{"geometry":{"coordinates":[3.040655,50.633403],"type":"Point"},"properties":{"osm_id":"7146495292","tag":{"amenity":"waste_basket"}},"type":"Feature"},
	{"geometry":{"coordinates":[3.0404,50.633373],"type":"Point"},"properties":{"osm_id":"7146495293","tag":{"amenity":"waste_basket"}},"type":"Feature"},
	{"geometry":{"coordinates":[3.060812,50.632412],"type":"Point"},"properties":{"osm_id":"7170456434","tag":{"amenity":"waste_basket"}},"type":"Feature"},
	{"geometry":{"coordinates":[3.05625,50.630144],"type":"Point"},"properties":{"osm_id":"7242842346","tag":{"amenity":"waste_basket"}},"type":"Feature"},
	{"geometry":{"coordinates":[3.05622,50.630214],"type":"Point"},"properties":{"osm_id":"7242842347","tag":{"amenity":"waste_basket"}},"type":"Feature"},
	{"geometry":{"coordinates":[3.055912,50.630167],"type":"Point"},"properties":{"osm_id":"7242842348","tag":{"amenity":"waste_basket"}},"type":"Feature"},
	{"geometry":{"coordinates":[3.070684,50.629837],"type":"Point"},"properties":{"osm_id":"7247698831","tag":{"amenity":"waste_basket"}},"type":"Feature"},
	{"geometry":{"coordinates":[3.070859,50.629792],"type":"Point"},"properties":{"osm_id":"7247698832","tag":{"amenity":"waste_basket"}},"type":"Feature"},
	{"geometry":{"coordinates":[3.070615,50.629734],"type":"Point"},"properties":{"osm_id":"7247698833","tag":{"amenity":"waste_basket"}},"type":"Feature"},
	{"geometry":{"coordinates":[3.071366,50.629967],"type":"Point"},"properties":{"osm_id":"7247698834","tag":{"amenity":"waste_basket"}},"type":"Feature"},
	{"geometry":{"coordinates":[3.071843,50.630059],"type":"Point"},"properties":{"osm_id":"7247698835","tag":{"amenity":"waste_basket"}},"type":"Feature"},
	{"geometry":{"coordinates":[3.072036,50.630016],"type":"Point"},"properties":{"osm_id":"7247698836","tag":{"amenity":"waste_basket"}},"type":"Feature"},
	{"geometry":{"coordinates":[3.071781,50.629972],"type":"Point"},"properties":{"osm_id":"7247698837","tag":{"amenity":"waste_basket"}},"type":"Feature"},
	{"geometry":{"coordinates":[3.06594,50.639454],"type":"Point"},"properties":{"osm_id":"7247705816","tag":{"amenity":"waste_basket"}},"type":"Feature"},
	{"geometry":{"coordinates":[3.065912,50.639499],"type":"Point"},"properties":{"osm_id":"7247705817","tag":{"amenity":"waste_basket"}},"type":"Feature"},
	{"geometry":{"coordinates":[3.065987,50.639548],"type":"Point"},"properties":{"osm_id":"7247705818","tag":{"amenity":"waste_basket"}},"type":"Feature"},
	{"geometry":{"coordinates":[3.066053,50.639269],"type":"Point"},"properties":{"osm_id":"7247705819","tag":{"amenity":"waste_basket"}},"type":"Feature"},
	{"geometry":{"coordinates":[3.065471,50.639339],"type":"Point"},"properties":{"osm_id":"7247705820","tag":{"amenity":"waste_basket","material":"metal"}},"type":"Feature"},
	{"geometry":{"coordinates":[3.065328,50.639396],"type":"Point"},"properties":{"osm_id":"7247705821","tag":{"amenity":"waste_basket","material":"metal"}},"type":"Feature"},
	{"geometry":{"coordinates":[3.040927,50.633992],"type":"Point"},"properties":{"osm_id":"7260771428","tag":{"amenity":"waste_basket"}},"type":"Feature"},
	{"geometry":{"coordinates":[3.040937,50.6339],"type":"Point"},"properties":{"osm_id":"7260771429","tag":{"amenity":"waste_basket"}},"type":"Feature"},
	{"geometry":{"coordinates":[3.026405,50.633267],"type":"Point"},"properties":{"osm_id":"7350151859","tag":{"amenity":"waste_basket"}},"type":"Feature"},
	{"geometry":{"coordinates":[3.026236,50.633298],"type":"Point"},"properties":{"osm_id":"7350151860","tag":{"amenity":"waste_basket"}},"type":"Feature"},
	{"geometry":{"coordinates":[3.026447,50.63334],"type":"Point"},"properties":{"osm_id":"7350151861","tag":{"amenity":"waste_basket"}},"type":"Feature"},
	{"geometry":{"coordinates":[3.029927,50.631864],"type":"Point"},"properties":{"name":"R\u00c3\u00a9sidence Cl\u00c3\u00a9ment Ader","osm_id":"7362649750","tag":{"access":"destination","amenity":"recycling","description":"Accessible aux r\u00c3\u00a9sidents","operator":"des Jardins et des Hommes","owner":"M\u00c3\u00a9tropole Europ\u00c3\u00a9enne de Lille","recycling:compost":"yes","recycling:organic":"yes","recycling_type":"container"}},"type":"Feature"},
	{"geometry":{"coordinates":[3.026943,50.635845],"type":"Point"},"properties":{"name":"R\u00c3\u00a9sidence Armor","osm_id":"7362649751","tag":{"amenity":"recycling","description":"Accessible aux r\u00c3\u00a9sidents","operator":"des Jardins et des Hommes","owner":"M\u00c3\u00a9tropole Europ\u00c3\u00a9enne de Lille","recycling:compost":"yes","recycling:organic":"yes","recycling_type":"container"}},"type":"Feature"},
	{"geometry":{"coordinates":[3.027691,50.648904],"type":"Point"},"properties":{"name":"Coll\u00c3\u00a8ge Anne Franck","osm_id":"7362649752","tag":{"access":"destination","amenity":"recycling","description":"Accessible aux personnels et aux parents d'enfants scolaris\u00c3\u00a9s au coll\u00c3\u00a8ge","operator":"des Jardins et des Hommes","owner":"M\u00c3\u00a9tropole Europ\u00c3\u00a9enne de Lille","recycling:compost":"yes","recycling:organic":"yes","recycling_type":"container"}},"type":"Feature"},
	{"geometry":{"coordinates":[3.053868,50.650235],"type":"Point"},"properties":{"name":"Jardin \u00c3\u00a9cologique","osm_id":"7363009463","tag":{"access":"destination","amenity":"recycling","description":"Accessible aux foyers du quartier inscrits. Permanences le mercredi apr\u00c3\u00a8s-midi et le dimanche apr\u00c3\u00a8s-midi","operator":"des Jardins et des Hommes","owner":"Ville de Lille","recycling:compost":"yes","recycling:organic":"yes","recycling_type":"container"}},"type":"Feature"},
	{"geometry":{"coordinates":[3.066025,50.632718],"type":"Point"},"properties":{"name":"M\u00c3\u00a9diath\u00c3\u00a8que Jean L\u00c3\u00a9vy","osm_id":"7363009465","tag":{"access":"destination","amenity":"recycling","description":"Composteurs accessible aux foyers du quartier inscrits. Permanences le mercredi de 8h30 \u00c3\u00a0 10h et le samedi de 9h \u00c3\u00a0 10h","operator":"des Jardins et des Hommes","owner":"Ville de Lille","recycling:compost":"yes","recycling:organic":"yes","recycling_type":"container"}},"type":"Feature"},
	{"geometry":{"coordinates":[3.034513,50.627616],"type":"Point"},"properties":{"name":"Square de la Houblonni\u00c3\u00a8re","osm_id":"7363009469","tag":{"access":"destination","amenity":"recycling","description":"Composteurs accessibles aux foyers du quartier inscrits. Permanences le mardi et le vendredi de 18h \u00c3\u00a0 19h30","operator":"des Jardins et des Hommes","owner":"Ville de Lille","recycling:compost":"yes","recycling:organic":"yes","recycling_type":"container"}},"type":"Feature"},
	{"geometry":{"coordinates":[3.025891,50.631699],"type":"Point"},"properties":{"name":"Jardin des Passereaux","osm_id":"7363009470","tag":{"access":"destination","amenity":"recycling","description":"Accessible aux foyers du quartier inscrits pendant la permanence le samedi matin de 10h30 \u00c3\u00a0 12h","operator":"des Jardins et des Hommes","owner":"Ville de Lille","recycling:compost":"yes","recycling:organic":"yes","recycling_type":"container"}},"type":"Feature"},
	{"geometry":{"coordinates":[3.001633,50.629511],"type":"Point"},"properties":{"name":"Maison du projet Marais","osm_id":"7363009471","tag":{"access":"destination","amenity":"recycling","description":"Composteurs accessibles aux foyers du quartier inscrits. Permanence le mercredi de 14h \u00c3\u00a0 15h30 et le vendredi de 8h \u00c3\u00a0 9h30","operator":"des Jardins et des Hommes","owner":"Ville de Lille","recycling:compost":"yes","recycling:organic":"yes","recycling_type":"container"}},"type":"Feature"},
	{"geometry":{"coordinates":[3.068601,50.658413],"type":"Point"},"properties":{"osm_id":"7375514948","tag":{"amenity":"waste_basket","waste":"trash"}},"type":"Feature"},
	{"geometry":{"coordinates":[3.06806,50.659043],"type":"Point"},"properties":{"osm_id":"7375514952","tag":{"amenity":"waste_basket","waste":"trash"}},"type":"Feature"},
	{"geometry":{"coordinates":[3.068417,50.658381],"type":"Point"},"properties":{"osm_id":"7375514957","tag":{"amenity":"waste_basket","waste":"trash"}},"type":"Feature"},
	{"geometry":{"coordinates":[3.01977,50.647658],"type":"Point"},"properties":{"name":"H\u00c3\u00b4tel de ville","osm_id":"7376020048","tag":{"access":"yes","amenity":"recycling","contact:email":"mairie@ville-lambersart.fr","contact:website":"http://www.lambersart.fr/Bien-vivre/Cadre-de-vie-et-urbanisme/Proprete-et-dechets/Composteurs-partages","description":"compostage collectif avec une biobox dans le parc de l\u00e2\u0080\u0099h\u00c3\u00b4tel de ville, accessible sur inscription et peut accueillir les biod\u00c3\u00a9chets d\u00e2\u0080\u0099une cinquantaine de familles","operator":"Ville de Lambersart","owner":"Ville de Lambersart","recycling:compost":"yes","recycling:organic":"yes","recycling_type":"container"}},"type":"Feature"},
	{"geometry":{"coordinates":[3.030789,50.6548],"type":"Point"},"properties":{"name":"Jardin partag\u00c3\u00a9 d'\u00c3\u00a9veil et des merveilles","osm_id":"7376020049","tag":{"access":"yes","amenity":"recycling","contact:website":"http://www.lambersart.fr/Bien-vivre/Cadre-de-vie-et-urbanisme/Proprete-et-dechets/Composteurs-partages","description":"Possibilit\u00c3\u00a9 de d\u00c3\u00a9poser les d\u00c3\u00a9chets : les mardis matin, directement au jardin lorsque les b\u00c3\u00a9n\u00c3\u00a9voles s'occupant du jardin sont pr\u00c3\u00a9sents ou tous les jours de la semaine au Caf\u00c3\u00a9 des parents, lors des horaires d'ouverture (8h30 \u00c3\u00a0 17h).","operator":"Ville de Lambersart","owner":"Ville de Lambersart","recycling:compost":"yes","recycling:organic":"yes","recycling_type":"container"}},"type":"Feature"},
	{"geometry":{"coordinates":[3.02491,50.65646],"type":"Point"},"properties":{"name":"Jardins d\u00e2\u0080\u0099insertion","osm_id":"7376020050","tag":{"access":"yes","amenity":"recycling","contact:website":"http://www.lambersart.fr/Bien-vivre/Cadre-de-vie-et-urbanisme/Proprete-et-dechets/Composteurs-partages","description":"G\u00c3\u00a9r\u00c3\u00a9s par l'association ARAS - ESPAS, les composteurs sont accessibles : lundi de 8h30 \u00c3\u00a0 11h mardi, mercredi et jeudi de 8h30 \u00c3\u00a0 11h30 et de 13h30 \u00c3\u00a0 16h","operator":"ARAS ESPAS","owner":"Ville de Lambersart","recycling:compost":"yes","recycling:organic":"yes","recycling_type":"container"}},"type":"Feature"},
	{"geometry":{"coordinates":[3.070925,50.658755],"type":"Point"},"properties":{"osm_id":"7385787381","tag":{"amenity":"waste_basket","waste":"trash"}},"type":"Feature"},
	{"geometry":{"coordinates":[3.072531,50.660229],"type":"Point"},"properties":{"osm_id":"7385787383","tag":{"amenity":"waste_basket","waste":"trash"}},"type":"Feature"},
	{"geometry":{"coordinates":[3.063898,50.657871],"type":"Point"},"properties":{"osm_id":"7385849786","tag":{"amenity":"waste_basket","waste":"trash"}},"type":"Feature"},
	{"geometry":{"coordinates":[3.063722,50.658085],"type":"Point"},"properties":{"osm_id":"7385849787","tag":{"amenity":"waste_basket","waste":"trash"}},"type":"Feature"},
	{"geometry":{"coordinates":[3.066805,50.655682],"type":"Point"},"properties":{"osm_id":"7385849804","tag":{"amenity":"waste_basket","waste":"trash"}},"type":"Feature"},
	{"geometry":{"coordinates":[3.065114,50.655586],"type":"Point"},"properties":{"osm_id":"7385849805","tag":{"amenity":"waste_basket","waste":"trash"}},"type":"Feature"},
	{"geometry":{"coordinates":[3.070522,50.657099],"type":"Point"},"properties":{"osm_id":"7385849810","tag":{"amenity":"waste_basket","waste":"trash"}},"type":"Feature"},
	{"geometry":{"coordinates":[3.069676,50.657014],"type":"Point"},"properties":{"osm_id":"7385849811","tag":{"amenity":"waste_basket","waste":"trash"}},"type":"Feature"},
	{"geometry":{"coordinates":[3.022867,50.637458],"type":"Point"},"properties":{"osm_id":"7451909234","tag":{"amenity":"waste_basket"}},"type":"Feature"},
	{"geometry":{"coordinates":[3.055414,50.649326],"type":"Point"},"properties":{"osm_id":"7551360491","tag":{"access":"destination","amenity":"recycling","operator":"ajonc","recycling:compost":"yes","recycling:organic":"yes","recycling_type":"container"}},"type":"Feature"},
	{"geometry":{"coordinates":[3.019931,50.626434],"type":"Point"},"properties":{"osm_id":"7617753977","tag":{"access":"destination","amenity":"recycling","operator":"ajonc","recycling:compost":"yes","recycling:organic":"yes","recycling_type":"container"}},"type":"Feature"},
	{"geometry":{"coordinates":[3.05153,50.630633],"type":"Point"},"properties":{"osm_id":"7630364215","tag":{"amenity":"waste_basket"}},"type":"Feature"},
	{"geometry":{"coordinates":[3.066248,50.632399],"type":"Point"},"properties":{"osm_id":"7792931290","tag":{"amenity":"waste_basket","material":"metal"}},"type":"Feature"},
	{"geometry":{"coordinates":[3.066268,50.632449],"type":"Point"},"properties":{"osm_id":"7792931291","tag":{"amenity":"waste_basket","material":"metal"}},"type":"Feature"},
	{"geometry":{"coordinates":[3.066788,50.633816],"type":"Point"},"properties":{"osm_id":"7792931294","tag":{"amenity":"waste_basket","material":"metal"}},"type":"Feature"},
	{"geometry":{"coordinates":[3.065812,50.634123],"type":"Point"},"properties":{"osm_id":"7792931301","tag":{"amenity":"waste_basket","material":"metal"}},"type":"Feature"},
	{"geometry":{"coordinates":[3.064694,50.635234],"type":"Point"},"properties":{"osm_id":"7792931302","tag":{"amenity":"waste_basket","material":"metal"}},"type":"Feature"},
	{"geometry":{"coordinates":[3.064519,50.635075],"type":"Point"},"properties":{"osm_id":"7792931303","tag":{"amenity":"waste_basket","material":"metal"}},"type":"Feature"},
	{"geometry":{"coordinates":[3.064817,50.635179],"type":"Point"},"properties":{"osm_id":"7792931304","tag":{"amenity":"waste_basket","material":"metal"}},"type":"Feature"},
	{"geometry":{"coordinates":[3.064208,50.635548],"type":"Point"},"properties":{"osm_id":"7792931306","tag":{"amenity":"waste_basket","material":"metal"}},"type":"Feature"},
	{"geometry":{"coordinates":[3.064086,50.635793],"type":"Point"},"properties":{"osm_id":"7792931307","tag":{"amenity":"waste_basket","material":"metal"}},"type":"Feature"},
	{"geometry":{"coordinates":[3.06366,50.636351],"type":"Point"},"properties":{"osm_id":"7792931308","tag":{"amenity":"waste_basket","material":"metal"}},"type":"Feature"},
	{"geometry":{"coordinates":[3.063872,50.636462],"type":"Point"},"properties":{"osm_id":"7792931309","tag":{"amenity":"waste_basket","material":"metal"}},"type":"Feature"},
	{"geometry":{"coordinates":[3.06366,50.636618],"type":"Point"},"properties":{"osm_id":"7792931310","tag":{"amenity":"waste_basket","material":"metal"}},"type":"Feature"},
	{"geometry":{"coordinates":[3.063227,50.636554],"type":"Point"},"properties":{"osm_id":"7792931311","tag":{"amenity":"waste_basket","material":"metal"}},"type":"Feature"},
	{"geometry":{"coordinates":[3.063142,50.636666],"type":"Point"},"properties":{"osm_id":"7792931312","tag":{"amenity":"waste_basket","material":"metal"}},"type":"Feature"},
	{"geometry":{"coordinates":[3.063418,50.636819],"type":"Point"},"properties":{"osm_id":"7792931313","tag":{"amenity":"waste_basket","material":"metal"}},"type":"Feature"},
	{"geometry":{"coordinates":[3.063573,50.636892],"type":"Point"},"properties":{"osm_id":"7792931314","tag":{"amenity":"waste_basket","material":"metal"}},"type":"Feature"},
	{"geometry":{"coordinates":[3.063703,50.637089],"type":"Point"},"properties":{"osm_id":"7792931315","tag":{"amenity":"waste_basket","material":"metal"}},"type":"Feature"},
	{"geometry":{"coordinates":[3.063555,50.637043],"type":"Point"},"properties":{"osm_id":"7792931316","tag":{"amenity":"waste_basket","material":"metal"}},"type":"Feature"},
	{"geometry":{"coordinates":[3.063444,50.636995],"type":"Point"},"properties":{"osm_id":"7792931317","tag":{"amenity":"waste_basket","material":"metal"}},"type":"Feature"},
	{"geometry":{"coordinates":[3.063787,50.636916],"type":"Point"},"properties":{"osm_id":"7792931318","tag":{"amenity":"waste_basket","material":"metal"}},"type":"Feature"},
	{"geometry":{"coordinates":[3.063694,50.636884],"type":"Point"},"properties":{"osm_id":"7792931319","tag":{"amenity":"waste_basket","material":"metal"}},"type":"Feature"},
	{"geometry":{"coordinates":[3.063915,50.636705],"type":"Point"},"properties":{"osm_id":"7792931320","tag":{"amenity":"waste_basket","material":"metal"}},"type":"Feature"},
	{"geometry":{"coordinates":[3.0633,50.636929],"type":"Point"},"properties":{"osm_id":"7792931321","tag":{"amenity":"waste_basket","material":"metal"}},"type":"Feature"},
	{"geometry":{"coordinates":[3.063104,50.637131],"type":"Point"},"properties":{"osm_id":"7792931322","tag":{"amenity":"waste_basket","material":"metal"}},"type":"Feature"},
	{"geometry":{"coordinates":[3.063425,50.637271],"type":"Point"},"properties":{"osm_id":"7792931323","tag":{"amenity":"waste_basket","material":"metal"}},"type":"Feature"},
	{"geometry":{"coordinates":[3.063336,50.637225],"type":"Point"},"properties":{"osm_id":"7792931324","tag":{"amenity":"waste_basket","material":"metal"}},"type":"Feature"},
	{"geometry":{"coordinates":[3.062778,50.637027],"type":"Point"},"properties":{"osm_id":"7792931325","tag":{"amenity":"waste_basket","material":"metal"}},"type":"Feature"},
	{"geometry":{"coordinates":[3.06266,50.637151],"type":"Point"},"properties":{"osm_id":"7792931326","tag":{"amenity":"waste_basket","material":"metal"}},"type":"Feature"},
	{"geometry":{"coordinates":[3.062097,50.636875],"type":"Point"},"properties":{"osm_id":"7792931327","tag":{"amenity":"waste_basket","material":"metal"}},"type":"Feature"},
	{"geometry":{"coordinates":[3.064738,50.639633],"type":"Point"},"properties":{"osm_id":"7792931331","tag":{"amenity":"waste_basket","material":"metal"}},"type":"Feature"},
	{"geometry":{"coordinates":[3.06442,50.639817],"type":"Point"},"properties":{"osm_id":"7792931332","tag":{"amenity":"waste_basket","material":"metal"}},"type":"Feature"},
	{"geometry":{"coordinates":[3.061632,50.642717],"type":"Point"},"properties":{"osm_id":"7792931341","tag":{"amenity":"waste_basket","material":"metal"}},"type":"Feature"},
	{"geometry":{"coordinates":[3.061295,50.642078],"type":"Point"},"properties":{"osm_id":"7792931346","tag":{"amenity":"waste_basket","material":"metal"}},"type":"Feature"},
	{"geometry":{"coordinates":[3.060717,50.642447],"type":"Point"},"properties":{"osm_id":"7792931355","tag":{"amenity":"waste_basket","material":"metal"}},"type":"Feature"},
	{"geometry":{"coordinates":[3.060596,50.642438],"type":"Point"},"properties":{"osm_id":"7792931360","tag":{"amenity":"waste_basket","material":"metal"}},"type":"Feature"},
	{"geometry":{"coordinates":[3.059399,50.640909],"type":"Point"},"properties":{"osm_id":"7792931364","tag":{"amenity":"waste_basket","material":"metal"}},"type":"Feature"},
	{"geometry":{"coordinates":[3.057952,50.640024],"type":"Point"},"properties":{"osm_id":"7792931366","tag":{"amenity":"waste_basket","material":"metal"}},"type":"Feature"},
	{"geometry":{"coordinates":[3.058088,50.639731],"type":"Point"},"properties":{"osm_id":"7792931369","tag":{"amenity":"waste_basket","material":"metal"}},"type":"Feature"},
	{"geometry":{"coordinates":[3.062161,50.645534],"type":"Point"},"properties":{"osm_id":"7792931370","tag":{"amenity":"waste_basket","material":"metal"}},"type":"Feature"},
	{"geometry":{"coordinates":[3.062089,50.645209],"type":"Point"},"properties":{"osm_id":"7792931371","tag":{"amenity":"waste_basket","material":"metal"}},"type":"Feature"},
	{"geometry":{"coordinates":[3.062308,50.645427],"type":"Point"},"properties":{"osm_id":"7792931372","tag":{"amenity":"waste_basket","material":"metal"}},"type":"Feature"},
	{"geometry":{"coordinates":[3.062038,50.644647],"type":"Point"},"properties":{"osm_id":"7792931376","tag":{"amenity":"waste_basket","material":"metal"}},"type":"Feature"},
	{"geometry":{"coordinates":[3.062026,50.644557],"type":"Point"},"properties":{"osm_id":"7792931377","tag":{"amenity":"waste_basket","material":"metal"}},"type":"Feature"},
	{"geometry":{"coordinates":[3.061924,50.644258],"type":"Point"},"properties":{"osm_id":"7792931380","tag":{"amenity":"waste_basket","material":"metal"}},"type":"Feature"},
	{"geometry":{"coordinates":[3.061552,50.644322],"type":"Point"},"properties":{"osm_id":"7792941688","tag":{"amenity":"waste_basket","material":"metal"}},"type":"Feature"},
	{"geometry":{"coordinates":[3.061582,50.644216],"type":"Point"},"properties":{"osm_id":"7792941689","tag":{"amenity":"waste_basket","material":"metal"}},"type":"Feature"},
	{"geometry":{"coordinates":[3.061155,50.644376],"type":"Point"},"properties":{"osm_id":"7792941690","tag":{"amenity":"waste_basket","material":"metal"}},"type":"Feature"},
	{"geometry":{"coordinates":[3.060607,50.644137],"type":"Point"},"properties":{"osm_id":"7792941693","tag":{"amenity":"waste_basket","material":"metal"}},"type":"Feature"},
	{"geometry":{"coordinates":[3.060764,50.644721],"type":"Point"},"properties":{"osm_id":"7792941694","tag":{"amenity":"waste_basket","material":"metal"}},"type":"Feature"},
	{"geometry":{"coordinates":[3.060783,50.644939],"type":"Point"},"properties":{"osm_id":"7792941695","tag":{"amenity":"waste_basket","material":"metal"}},"type":"Feature"},
	{"geometry":{"coordinates":[3.061254,50.644783],"type":"Point"},"properties":{"osm_id":"7792941696","tag":{"amenity":"waste_basket","material":"metal"}},"type":"Feature"},
	{"geometry":{"coordinates":[3.064845,50.641151],"type":"Point"},"properties":{"osm_id":"7792941698","tag":{"amenity":"waste_basket","material":"metal"}},"type":"Feature"},
	{"geometry":{"coordinates":[3.073852,50.631819],"type":"Point"},"properties":{"osm_id":"7792941714","tag":{"amenity":"waste_basket","material":"metal"}},"type":"Feature"},
	{"geometry":{"coordinates":[3.069685,50.65486],"type":"Point"},"properties":{"osm_id":"7792941719","tag":{"amenity":"waste_basket","material":"metal"}},"type":"Feature"},
	{"geometry":{"coordinates":[3.070372,50.654961],"type":"Point"},"properties":{"osm_id":"7792941720","tag":{"amenity":"waste_basket","material":"metal"}},"type":"Feature"},
	{"geometry":{"coordinates":[3.070914,50.654287],"type":"Point"},"properties":{"osm_id":"7792941729","tag":{"amenity":"recycling","opening_hours":"24/7","opening_hours:covid19":"same","recycling_type":"container"}},"type":"Feature"},
	{"geometry":{"coordinates":[3.070782,50.654104],"type":"Point"},"properties":{"osm_id":"7792941730","tag":{"amenity":"recycling","opening_hours":"24/7","opening_hours:covid19":"same","recycling_type":"container"}},"type":"Feature"},
	{"geometry":{"coordinates":[2.994414,50.646136],"type":"Point"},"properties":{"osm_id":"7823670104","tag":{"amenity":"waste_basket","material":"metal"}},"type":"Feature"},
	{"geometry":{"coordinates":[3.056326,50.630506],"type":"Point"},"properties":{"osm_id":"7893472512","tag":{"amenity":"waste_basket"}},"type":"Feature"},
	{"geometry":{"coordinates":[3.056856,50.630216],"type":"Point"},"properties":{"osm_id":"7893472513","tag":{"amenity":"waste_basket"}},"type":"Feature"},
	{"geometry":{"coordinates":[3.018412,50.631227],"type":"Point"},"properties":{"name":"Composteur L'\u00c3\u00aelot 26 / Un bio potager au Marais","osm_id":"7900246164","tag":{"access":"customers","amenity":"recycling","operator":"Ajonc","recycling:compost":"yes","recycling:organic":"yes","recycling_type":"container"}},"type":"Feature"},
	{"geometry":{"coordinates":[3.064206,50.666631],"type":"Point"},"properties":{"name":"Composteur Jardin de l'Abbaye","osm_id":"7900302175","tag":{"access":"customers","amenity":"recycling","operator":"Ajonc","recycling:compost":"yes","recycling:organic":"yes","recycling_type":"container"}},"type":"Feature"},
	{"geometry":{"coordinates":[3.039963,50.652278],"type":"Point"},"properties":{"osm_id":"7932151168","tag":{"access":"customers","amenity":"recycling","operator":"Ajonc","recycling:compost":"yes","recycling:organic":"yes","recycling_type":"container"}},"type":"Feature"}
]
}
