{
"type": "FeatureCollection",
"features": [
	{"geometry":{"coordinates":[3.040388,50.560983],"type":"Point"},"properties":{"name":"Gecco","osm_id":"1621729877","tag":{"addr:housenumber":"19","addr:street":"Rue du Luyot","amenity":"recycling","brand":"Gecco","description":"Collecte et recyclage des huiles de friture","email":"collecte@gecco.fr","phone":"+339 66 98 50 74","recycling_type":"centre","website":"http://www.gecco.fr","wheelchair":"yes"}},"type":"Feature"},
	{"geometry":{"coordinates":[3.032148,50.560144],"type":"Point"},"properties":{"name":"D\u00c3\u00a9ch\u00c3\u00a8terie\u00c2\u00a0de\u00c2\u00a0Seclin","osm_id":"4359978890","tag":{"amenity":"recycling","operator":"Esterra","recycling_type":"centre","ref:FR:SINOE":"102773","start_date":"2013-09-16"}},"type":"Feature"},
	{"geometry":{"coordinates":[3.03474,50.547971],"type":"Point"},"properties":{"osm_id":"6643482893","tag":{"amenity":"waste_basket"}},"type":"Feature"},
	{"geometry":{"coordinates":[3.034654,50.548307],"type":"Point"},"properties":{"osm_id":"6643486600","tag":{"amenity":"waste_basket"}},"type":"Feature"},
	{"geometry":{"coordinates":[3.00336,50.561996],"type":"Point"},"properties":{"osm_id":"6749987985","tag":{"amenity":"waste_basket"}},"type":"Feature"},
	{"geometry":{"coordinates":[3.040107,50.544164],"type":"Point"},"properties":{"name":"Foyer de l'Arbre de Guise","osm_id":"7362649745","tag":{"access":"destination","amenity":"recycling","description":"Accessible aux r\u00c3\u00a9sidents et personnels du foyer","operator":"des Jardins et des Hommes","owner":"M\u00c3\u00a9tropole Europ\u00c3\u00a9enne de Lille","recycling:compost":"yes","recycling:organic":"yes","recycling_type":"container"}},"type":"Feature"},
	{"geometry":{"coordinates":[3.044726,50.550877],"type":"Point"},"properties":{"name":"Jardin Ouvrier","osm_id":"7362649746","tag":{"access":"yes","amenity":"recycling","description":"Accessible au foyer du quartier sur inscription aupr\u00c3\u00a8s du comit\u00c3\u00a9 de quartier de Burgault.","operator":"des Jardins et des Hommes","owner":"M\u00c3\u00a9tropole Europ\u00c3\u00a9enne de Lille","recycling:compost":"yes","recycling:organic":"yes","recycling_type":"container"}},"type":"Feature"},
	{"geometry":{"coordinates":[3.025041,50.541151],"type":"Point"},"properties":{"name":"Composteur jardin du riez","osm_id":"7596129040","tag":{"access":"yes","amenity":"recycling","operator":"ajonc","recycling:compost":"yes","recycling:organic":"yes","recycling_type":"container"}},"type":"Feature"}
]
}
