{
"type": "FeatureCollection",
"features": [
	{"geometry":{"coordinates":[3.055564,45.788218],"type":"Point"},"properties":{"osm_id":"321488411","tag":{"amenity":"recycling","recycling:glass":"yes"}},"type":"Feature"},
	{"geometry":{"coordinates":[3.072631,45.773162],"type":"Point"},"properties":{"osm_id":"445680913","tag":{"amenity":"recycling","recycling_type":"container"}},"type":"Feature"},
	{"geometry":{"coordinates":[3.069614,45.774517],"type":"Point"},"properties":{"osm_id":"567834740","tag":{"amenity":"recycling","recycling:glass_bottles":"yes","recycling_type":"container"}},"type":"Feature"},
	{"geometry":{"coordinates":[3.070332,45.789899],"type":"Point"},"properties":{"osm_id":"1896152902","tag":{"amenity":"waste_basket","check_date":"2021-08-14"}},"type":"Feature"},
	{"geometry":{"coordinates":[3.066412,45.790456],"type":"Point"},"properties":{"osm_id":"1896152928","tag":{"amenity":"waste_basket"}},"type":"Feature"},
	{"geometry":{"coordinates":[3.07037,45.790548],"type":"Point"},"properties":{"osm_id":"1896152936","tag":{"amenity":"waste_basket","check_date":"2021-08-14"}},"type":"Feature"},
	{"geometry":{"coordinates":[3.070417,45.790603],"type":"Point"},"properties":{"osm_id":"1896152939","tag":{"amenity":"recycling","location":"overground","recycling:glass":"yes","recycling_type":"container"}},"type":"Feature"},
	{"geometry":{"coordinates":[3.073707,45.78017],"type":"Point"},"properties":{"osm_id":"1920057459","tag":{"amenity":"waste_basket"}},"type":"Feature"},
	{"geometry":{"coordinates":[3.075008,45.780388],"type":"Point"},"properties":{"osm_id":"1920057460","tag":{"amenity":"waste_basket"}},"type":"Feature"},
	{"geometry":{"coordinates":[3.075151,45.780537],"type":"Point"},"properties":{"osm_id":"1920057463","tag":{"amenity":"waste_basket"}},"type":"Feature"},
	{"geometry":{"coordinates":[3.075843,45.780754],"type":"Point"},"properties":{"osm_id":"1920057471","tag":{"amenity":"waste_basket"}},"type":"Feature"},
	{"geometry":{"coordinates":[3.075687,45.780882],"type":"Point"},"properties":{"osm_id":"1920057475","tag":{"amenity":"waste_basket"}},"type":"Feature"},
	{"geometry":{"coordinates":[3.074964,45.781057],"type":"Point"},"properties":{"osm_id":"1923596864","tag":{"amenity":"recycling","location":"overground","recycling:glass":"yes","recycling_type":"container"}},"type":"Feature"},
	{"geometry":{"coordinates":[3.074976,45.781075],"type":"Point"},"properties":{"osm_id":"1923596867","tag":{"amenity":"waste_basket"}},"type":"Feature"},
	{"geometry":{"coordinates":[3.072207,45.782565],"type":"Point"},"properties":{"osm_id":"1933631092","tag":{"amenity":"waste_basket"}},"type":"Feature"},
	{"geometry":{"coordinates":[3.071616,45.779883],"type":"Point"},"properties":{"osm_id":"1935129046","tag":{"amenity":"waste_basket"}},"type":"Feature"},
	{"geometry":{"coordinates":[3.07111,45.780886],"type":"Point"},"properties":{"osm_id":"1935129087","tag":{"amenity":"waste_basket"}},"type":"Feature"},
	{"geometry":{"coordinates":[3.063968,45.784613],"type":"Point"},"properties":{"osm_id":"1984404100","tag":{"amenity":"recycling","recycling:glass":"yes","recycling_type":"underfloor-container"}},"type":"Feature"},
	{"geometry":{"coordinates":[3.060538,45.786113],"type":"Point"},"properties":{"osm_id":"1984404101","tag":{"amenity":"recycling"}},"type":"Feature"},
	{"geometry":{"coordinates":[3.062788,45.774871],"type":"Point"},"properties":{"osm_id":"1984404102","tag":{"amenity":"recycling","recycling:glass_bottles":"yes","recycling_type":"container"}},"type":"Feature"},
	{"geometry":{"coordinates":[3.066087,45.781177],"type":"Point"},"properties":{"osm_id":"1984404103","tag":{"amenity":"recycling","recycling:glass":"yes","recycling_type":"container"}},"type":"Feature"},
	{"geometry":{"coordinates":[3.06245,45.779651],"type":"Point"},"properties":{"osm_id":"1984404105","tag":{"amenity":"recycling","recycling:glass_bottles":"yes","recycling_type":"container"}},"type":"Feature"},
	{"geometry":{"coordinates":[3.071396,45.781632],"type":"Point"},"properties":{"osm_id":"1995234150","tag":{"amenity":"recycling","location":"overground","recycling:cans":"yes","recycling:cartons":"yes","recycling:glass_bottles":"yes","recycling:newspaper":"yes","recycling:paper":"yes","recycling:paper_packaging":"yes","recycling:plastic_bottles":"yes","recycling:plastic_packaging":"yes","recycling_type":"container"}},"type":"Feature"},
	{"geometry":{"coordinates":[3.061116,45.768466],"type":"Point"},"properties":{"osm_id":"2855298791","tag":{"amenity":"recycling","recycling:glass":"yes","recycling_type":"container"}},"type":"Feature"},
	{"geometry":{"coordinates":[3.063526,45.774817],"type":"Point"},"properties":{"osm_id":"3254065906","tag":{"amenity":"waste_basket"}},"type":"Feature"},
	{"geometry":{"coordinates":[3.066289,45.777496],"type":"Point"},"properties":{"osm_id":"3313957163","tag":{"amenity":"recycling","recycling_type":"container"}},"type":"Feature"},
	{"geometry":{"coordinates":[3.066494,45.768554],"type":"Point"},"properties":{"osm_id":"3462226605","tag":{"amenity":"recycling","location":"overground","network":"Le Relais","recycling:clothes":"yes","recycling_type":"container"}},"type":"Feature"},
	{"geometry":{"coordinates":[3.066474,45.768559],"type":"Point"},"properties":{"osm_id":"3462226606","tag":{"amenity":"recycling","location":"overground","recycling:glass":"yes","recycling_type":"container"}},"type":"Feature"},
	{"geometry":{"coordinates":[3.07355,45.778877],"type":"Point"},"properties":{"osm_id":"4464981017","tag":{"amenity":"recycling","recycling:glass_bottles":"yes","recycling_type":"container"}},"type":"Feature"},
	{"geometry":{"coordinates":[3.06727,45.784484],"type":"Point"},"properties":{"osm_id":"4549759415","tag":{"amenity":"recycling"}},"type":"Feature"},
	{"geometry":{"coordinates":[3.07364,45.769033],"type":"Point"},"properties":{"osm_id":"4556364143","tag":{"amenity":"recycling","recycling:glass":"yes","recycling_type":"container"}},"type":"Feature"},
	{"geometry":{"coordinates":[3.05958,45.769205],"type":"Point"},"properties":{"osm_id":"4556364144","tag":{"amenity":"recycling","recycling:glass":"yes","recycling_type":"container"}},"type":"Feature"},
	{"geometry":{"coordinates":[3.065303,45.827041],"type":"Point"},"properties":{"barrier":"gate","osm_id":"4620653172","tag":{"bicycle":"yes","foot":"yes"}},"type":"Feature"},
	{"geometry":{"coordinates":[3.064707,45.827466],"type":"Point"},"properties":{"barrier":"gate","osm_id":"4620653203"},"type":"Feature"},
	{"geometry":{"coordinates":[3.072254,45.778621],"type":"Point"},"properties":{"osm_id":"4625753084","tag":{"amenity":"waste_basket"}},"type":"Feature"},
	{"geometry":{"coordinates":[3.071752,45.779852],"type":"Point"},"properties":{"osm_id":"4680308691","tag":{"amenity":"recycling","operator":"Le Relais","recycling:clothes":"yes","recycling:shoes":"yes","recycling_type":"container"}},"type":"Feature"},
	{"geometry":{"coordinates":[3.066096,45.781156],"type":"Point"},"properties":{"osm_id":"4680822309","tag":{"amenity":"recycling","operator":"Emma\u00c3\u00bcs 63","recycling:clothes":"yes","recycling:shoes":"yes","recycling_type":"container"}},"type":"Feature"},
	{"geometry":{"coordinates":[3.071527,45.778395],"type":"Point"},"properties":{"osm_id":"4680837595","tag":{"amenity":"recycling","recycling:glass":"yes","recycling_type":"container"}},"type":"Feature"},
	{"geometry":{"coordinates":[3.071466,45.778399],"type":"Point"},"properties":{"osm_id":"4680837596","tag":{"amenity":"recycling","operator":"Emma\u00c3\u00bcs 63","recycling:clothes":"yes","recycling:shoes":"yes","recycling_type":"container"}},"type":"Feature"},
	{"geometry":{"coordinates":[3.075136,45.776521],"type":"Point"},"properties":{"osm_id":"5058044590","tag":{"amenity":"waste_basket"}},"type":"Feature"},
	{"geometry":{"coordinates":[3.074388,45.77647],"type":"Point"},"properties":{"osm_id":"5058045113","tag":{"amenity":"waste_basket"}},"type":"Feature"},
	{"geometry":{"coordinates":[3.073378,45.776304],"type":"Point"},"properties":{"osm_id":"5058045666","tag":{"amenity":"waste_basket"}},"type":"Feature"},
	{"geometry":{"coordinates":[3.067692,45.775416],"type":"Point"},"properties":{"osm_id":"5404822429","tag":{"amenity":"waste_basket"}},"type":"Feature"},
	{"geometry":{"coordinates":[3.074275,45.793362],"type":"Point"},"properties":{"osm_id":"7113934632","tag":{"amenity":"recycling","operator":"Clermont-Metropole","recycling:glass":"yes","recycling_type":"container"}},"type":"Feature"},
	{"geometry":{"coordinates":[3.074395,45.794687],"type":"Point"},"properties":{"osm_id":"7116240717","tag":{"amenity":"recycling","colour":"grey","recycling:glass":"yes","recycling_type":"container"}},"type":"Feature"},
	{"geometry":{"coordinates":[3.057593,45.809403],"type":"Point"},"properties":{"osm_id":"7803427449","tag":{"amenity":"recycling","operator":"Clermont M\u00c3\u00a9tropole","recycling:cans":"yes","recycling:glass":"yes","recycling:paper":"yes","recycling:plastic_bottles":"yes","recycling:waste":"yes","recycling_type":"container"}},"type":"Feature"},
	{"geometry":{"coordinates":[3.056584,45.80105],"type":"Point"},"properties":{"osm_id":"7803443571","tag":{"amenity":"recycling","recycling:glass":"yes","recycling_type":"container"}},"type":"Feature"},
	{"geometry":{"coordinates":[3.051593,45.804505],"type":"Point"},"properties":{"osm_id":"7899904486","tag":{"amenity":"recycling"}},"type":"Feature"},
	{"geometry":{"coordinates":[3.06517,45.827218],"type":"Point"},"properties":{"barrier":"gate","osm_id":"8010307878"},"type":"Feature"},
	{"geometry":{"coordinates":[3.075528,45.784324],"type":"Point"},"properties":{"osm_id":"8644440490","tag":{"amenity":"recycling","recycling:clothes":"yes","recycling:glass":"yes","recycling:glass_bottles":"yes","recycling_type":"container"}},"type":"Feature"},
	{"geometry":{"coordinates":[3.055926,45.808732],"type":"Point"},"properties":{"osm_id":"8904814817","tag":{"amenity":"waste_basket"}},"type":"Feature"}
]
}
