{
"type": "FeatureCollection",
"features": [
	{"geometry":{"coordinates":[2.995473,44.08813],"type":"Point"},"properties":{"osm_id":"3012919517","tag":{"amenity":"recycling","recycling:cans":"yes","recycling:glass_bottles":"yes","recycling:paper":"yes","recycling_type":"container"}},"type":"Feature"},
	{"geometry":{"coordinates":[3.067598,44.089716],"type":"Point"},"properties":{"osm_id":"3033312694","tag":{"amenity":"recycling"}},"type":"Feature"},
	{"geometry":{"coordinates":[3.040874,44.140467],"type":"Point"},"properties":{"osm_id":"4949352884","tag":{"amenity":"recycling","recycling:cans":"yes","recycling:glass_bottles":"yes","recycling:paper":"yes","recycling_type":"container"}},"type":"Feature"},
	{"geometry":{"coordinates":[2.996628,44.092022],"type":"Point"},"properties":{"osm_id":"5842207062","tag":{"amenity":"waste_basket"}},"type":"Feature"},
	{"geometry":{"coordinates":[2.993105,44.088588],"type":"Point"},"properties":{"osm_id":"5842337460","tag":{"amenity":"waste_disposal"}},"type":"Feature"},
	{"geometry":{"coordinates":[3.051302,44.087945],"type":"Point"},"properties":{"name":"D\u00c3\u00a9cheterie de Millau","osm_id":"7089737537","tag":{"addr:city":"Millau","addr:postcode":"12100","addr:street":"Rue Bac Calixtine","amenity":"recycling","operator":"Communaut\u00c3\u00a9 de communes de Millau Grands Causses","operator:type":"public","recycling_type":"centre"}},"type":"Feature"}
]
}
