{
"type": "FeatureCollection",
"features": [
	{"geometry":{"coordinates":[3.022114,42.793609],"type":"Point"},"properties":{"osm_id":"1999400962","tag":{"amenity":"recycling","recycling_type":"container"}},"type":"Feature"},
	{"geometry":{"coordinates":[3.022192,42.793594],"type":"Point"},"properties":{"osm_id":"1999400966","tag":{"amenity":"recycling","recycling_type":"container"}},"type":"Feature"},
	{"geometry":{"coordinates":[3.031014,42.788853],"type":"Point"},"properties":{"osm_id":"2400215888","tag":{"amenity":"recycling","recycling:paper":"yes","recycling_type":"container"}},"type":"Feature"},
	{"geometry":{"coordinates":[3.031054,42.788851],"type":"Point"},"properties":{"osm_id":"2400215889","tag":{"amenity":"recycling","recycling:glass_bottles":"yes","recycling_type":"container"}},"type":"Feature"},
	{"geometry":{"coordinates":[3.039109,42.806222],"type":"Point"},"properties":{"osm_id":"2402196170","tag":{"amenity":"waste_basket"}},"type":"Feature"},
	{"geometry":{"coordinates":[3.039128,42.806056],"type":"Point"},"properties":{"osm_id":"2402196183","tag":{"amenity":"waste_basket"}},"type":"Feature"},
	{"geometry":{"coordinates":[2.989597,42.766483],"type":"Point"},"properties":{"osm_id":"2853022477","tag":{"amenity":"waste_basket"}},"type":"Feature"},
	{"geometry":{"coordinates":[3.034132,42.788354],"type":"Point"},"properties":{"osm_id":"2881818647","tag":{"amenity":"recycling","recycling:glass_bottles":"yes","recycling_type":"container"}},"type":"Feature"},
	{"geometry":{"coordinates":[3.037945,42.784347],"type":"Point"},"properties":{"osm_id":"2881927922","tag":{"amenity":"recycling","recycling:paper":"yes","recycling_type":"container"}},"type":"Feature"},
	{"geometry":{"coordinates":[3.03793,42.784357],"type":"Point"},"properties":{"osm_id":"2881927923","tag":{"amenity":"recycling","recycling:paper":"yes","recycling_type":"container"}},"type":"Feature"},
	{"geometry":{"coordinates":[3.037919,42.784356],"type":"Point"},"properties":{"osm_id":"2881927924","tag":{"amenity":"recycling","recycling:glass_bottles":"yes","recycling_type":"container"}},"type":"Feature"},
	{"geometry":{"coordinates":[3.038212,42.784387],"type":"Point"},"properties":{"osm_id":"2881927932","tag":{"amenity":"waste_basket"}},"type":"Feature"},
	{"geometry":{"coordinates":[3.038082,42.785664],"type":"Point"},"properties":{"osm_id":"2881927945","tag":{"amenity":"waste_basket"}},"type":"Feature"},
	{"geometry":{"coordinates":[3.037117,42.787299],"type":"Point"},"properties":{"osm_id":"2881927964","tag":{"amenity":"waste_basket"}},"type":"Feature"},
	{"geometry":{"coordinates":[3.030555,42.79279],"type":"Point"},"properties":{"osm_id":"3010642030","tag":{"amenity":"waste_basket"}},"type":"Feature"},
	{"geometry":{"coordinates":[3.029136,42.794292],"type":"Point"},"properties":{"osm_id":"3010642341","tag":{"amenity":"waste_basket"}},"type":"Feature"},
	{"geometry":{"coordinates":[3.029384,42.794504],"type":"Point"},"properties":{"osm_id":"3010642357","tag":{"amenity":"waste_basket"}},"type":"Feature"},
	{"geometry":{"coordinates":[3.031274,42.796475],"type":"Point"},"properties":{"osm_id":"3020528394","tag":{"amenity":"recycling","recycling:glass_bottles":"yes","recycling_type":"container"}},"type":"Feature"},
	{"geometry":{"coordinates":[3.031286,42.796481],"type":"Point"},"properties":{"osm_id":"3020528395","tag":{"amenity":"recycling","recycling:glass_bottles":"yes","recycling_type":"container"}},"type":"Feature"},
	{"geometry":{"coordinates":[3.031303,42.796492],"type":"Point"},"properties":{"osm_id":"3020528396","tag":{"amenity":"recycling","recycling:paper":"yes","recycling_type":"container"}},"type":"Feature"},
	{"geometry":{"coordinates":[3.031324,42.796502],"type":"Point"},"properties":{"osm_id":"3020528398","tag":{"amenity":"recycling","recycling:paper":"yes","recycling_type":"container"}},"type":"Feature"},
	{"geometry":{"coordinates":[3.031344,42.796512],"type":"Point"},"properties":{"osm_id":"3020528399","tag":{"amenity":"recycling","recycling:clothes":"yes","recycling_type":"container"}},"type":"Feature"},
	{"geometry":{"coordinates":[3.039034,42.808357],"type":"Point"},"properties":{"osm_id":"3024438165","tag":{"amenity":"waste_basket","support":"wall_mounted"}},"type":"Feature"},
	{"geometry":{"coordinates":[3.039034,42.808617],"type":"Point"},"properties":{"osm_id":"3024438176","tag":{"amenity":"waste_basket","support":"wall_mounted"}},"type":"Feature"},
	{"geometry":{"coordinates":[3.031725,42.785704],"type":"Point"},"properties":{"osm_id":"3024884306","tag":{"amenity":"recycling","recycling:glass_bottles":"yes","recycling_type":"container"}},"type":"Feature"},
	{"geometry":{"coordinates":[3.031745,42.785704],"type":"Point"},"properties":{"osm_id":"3024884307","tag":{"amenity":"recycling","recycling:paper":"yes","recycling_type":"container"}},"type":"Feature"},
	{"geometry":{"coordinates":[3.037231,42.805906],"type":"Point"},"properties":{"osm_id":"3135307177","tag":{"amenity":"recycling","description":"containeur entr\u00c3\u00a9r\u00c3\u00a9","recycling_type":"container"}},"type":"Feature"},
	{"geometry":{"coordinates":[3.037239,42.805893],"type":"Point"},"properties":{"osm_id":"3135307178","tag":{"amenity":"recycling","description":"en sous sol","recycling_type":"container"}},"type":"Feature"},
	{"geometry":{"coordinates":[3.037244,42.805884],"type":"Point"},"properties":{"osm_id":"3135307179","tag":{"amenity":"recycling","description":"en sous sol","recycling_type":"container"}},"type":"Feature"},
	{"geometry":{"coordinates":[3.037276,42.803402],"type":"Point"},"properties":{"osm_id":"3135419337","tag":{"access":"private","amenity":"waste_disposal","waste_disposal:trash":"yes"}},"type":"Feature"},
	{"geometry":{"coordinates":[3.034912,42.79169],"type":"Point"},"properties":{"osm_id":"3147098348","tag":{"amenity":"waste_basket"}},"type":"Feature"},
	{"geometry":{"coordinates":[3.03484,42.792138],"type":"Point"},"properties":{"osm_id":"3147098371","tag":{"amenity":"waste_basket"}},"type":"Feature"},
	{"geometry":{"coordinates":[3.034935,42.792284],"type":"Point"},"properties":{"osm_id":"3147098376","tag":{"amenity":"waste_basket","fee":"no","vending":"excrement_bags"}},"type":"Feature"},
	{"geometry":{"coordinates":[3.022145,42.784526],"type":"Point"},"properties":{"osm_id":"3512784303","tag":{"access":"customers","amenity":"waste_disposal"}},"type":"Feature"},
	{"geometry":{"coordinates":[3.022078,42.784538],"type":"Point"},"properties":{"osm_id":"3512784305","tag":{"access":"customers","amenity":"recycling","recycling_type":"container"}},"type":"Feature"},
	{"geometry":{"coordinates":[3.034023,42.783212],"type":"Point"},"properties":{"osm_id":"3514573221","tag":{"amenity":"waste_basket"}},"type":"Feature"},
	{"geometry":{"coordinates":[3.036113,42.785072],"type":"Point"},"properties":{"osm_id":"3514757409","tag":{"amenity":"waste_basket"}},"type":"Feature"},
	{"geometry":{"coordinates":[3.036437,42.78542],"type":"Point"},"properties":{"osm_id":"3515052861","tag":{"amenity":"waste_basket"}},"type":"Feature"},
	{"geometry":{"coordinates":[3.037058,42.787863],"type":"Point"},"properties":{"osm_id":"3515052883","tag":{"amenity":"waste_basket"}},"type":"Feature"},
	{"geometry":{"coordinates":[3.034506,42.788827],"type":"Point"},"properties":{"osm_id":"3515055018","tag":{"amenity":"waste_basket"}},"type":"Feature"},
	{"geometry":{"coordinates":[3.034492,42.788981],"type":"Point"},"properties":{"osm_id":"3515055022","tag":{"amenity":"waste_basket"}},"type":"Feature"},
	{"geometry":{"coordinates":[3.034252,42.785787],"type":"Point"},"properties":{"osm_id":"3547594806","tag":{"amenity":"waste_basket"}},"type":"Feature"},
	{"geometry":{"coordinates":[3.033076,42.785836],"type":"Point"},"properties":{"osm_id":"3547594808","tag":{"amenity":"waste_basket"}},"type":"Feature"},
	{"geometry":{"coordinates":[3.033451,42.78631],"type":"Point"},"properties":{"osm_id":"3547594836","tag":{"amenity":"recycling","recycling_type":"container"}},"type":"Feature"},
	{"geometry":{"coordinates":[3.033431,42.786321],"type":"Point"},"properties":{"osm_id":"3547594838","tag":{"amenity":"recycling","recycling_type":"container"}},"type":"Feature"},
	{"geometry":{"coordinates":[3.033413,42.786329],"type":"Point"},"properties":{"osm_id":"3547594839","tag":{"amenity":"recycling","recycling_type":"container"}},"type":"Feature"},
	{"geometry":{"coordinates":[3.034897,42.789752],"type":"Point"},"properties":{"osm_id":"3550855889","tag":{"amenity":"waste_basket","support":"wall_mounted"}},"type":"Feature"},
	{"geometry":{"coordinates":[3.034966,42.789804],"type":"Point"},"properties":{"osm_id":"3550857294","tag":{"amenity":"waste_basket"}},"type":"Feature"},
	{"geometry":{"coordinates":[3.035196,42.790021],"type":"Point"},"properties":{"osm_id":"3550857322","tag":{"amenity":"waste_basket"}},"type":"Feature"},
	{"geometry":{"coordinates":[3.03397,42.790769],"type":"Point"},"properties":{"osm_id":"3550857361","tag":{"amenity":"waste_basket"}},"type":"Feature"},
	{"geometry":{"coordinates":[3.037644,42.789603],"type":"Point"},"properties":{"osm_id":"3574318395","tag":{"amenity":"waste_basket"}},"type":"Feature"},
	{"geometry":{"coordinates":[3.033673,42.767191],"type":"Point"},"properties":{"osm_id":"3574795304","tag":{"amenity":"recycling","recycling:cardboard":"yes","recycling_type":"container"}},"type":"Feature"},
	{"geometry":{"coordinates":[3.033687,42.767198],"type":"Point"},"properties":{"osm_id":"3574795305","tag":{"amenity":"recycling","recycling:glass_bottles":"yes","recycling_type":"container"}},"type":"Feature"},
	{"geometry":{"coordinates":[3.033699,42.767203],"type":"Point"},"properties":{"osm_id":"3574795306","tag":{"amenity":"recycling","recycling:glass_bottles":"yes","recycling_type":"container"}},"type":"Feature"},
	{"geometry":{"coordinates":[3.035543,42.770963],"type":"Point"},"properties":{"osm_id":"3574795365","tag":{"amenity":"waste_basket"}},"type":"Feature"},
	{"geometry":{"coordinates":[3.035797,42.771947],"type":"Point"},"properties":{"osm_id":"3574795367","tag":{"amenity":"waste_basket"}},"type":"Feature"},
	{"geometry":{"coordinates":[3.036487,42.773663],"type":"Point"},"properties":{"osm_id":"3574795377","tag":{"amenity":"waste_basket"}},"type":"Feature"},
	{"geometry":{"coordinates":[3.037218,42.773674],"type":"Point"},"properties":{"osm_id":"3574795378","tag":{"amenity":"waste_basket"}},"type":"Feature"},
	{"geometry":{"coordinates":[3.03652,42.773827],"type":"Point"},"properties":{"osm_id":"3574795382","tag":{"amenity":"waste_basket"}},"type":"Feature"},
	{"geometry":{"coordinates":[3.036483,42.774832],"type":"Point"},"properties":{"osm_id":"3574795390","tag":{"amenity":"waste_basket"}},"type":"Feature"},
	{"geometry":{"coordinates":[3.03654,42.775507],"type":"Point"},"properties":{"osm_id":"3574795497","tag":{"amenity":"waste_basket"}},"type":"Feature"},
	{"geometry":{"coordinates":[3.036947,42.776534],"type":"Point"},"properties":{"osm_id":"3574795506","tag":{"amenity":"waste_basket"}},"type":"Feature"},
	{"geometry":{"coordinates":[3.037105,42.77707],"type":"Point"},"properties":{"osm_id":"3574795514","tag":{"amenity":"waste_basket"}},"type":"Feature"},
	{"geometry":{"coordinates":[3.038805,42.778101],"type":"Point"},"properties":{"osm_id":"3574795515","tag":{"amenity":"waste_basket"}},"type":"Feature"},
	{"geometry":{"coordinates":[3.038807,42.778197],"type":"Point"},"properties":{"osm_id":"3574795518","tag":{"amenity":"waste_basket"}},"type":"Feature"},
	{"geometry":{"coordinates":[3.037682,42.778264],"type":"Point"},"properties":{"osm_id":"3574795522","tag":{"amenity":"waste_basket"}},"type":"Feature"},
	{"geometry":{"coordinates":[3.038015,42.77832],"type":"Point"},"properties":{"osm_id":"3574795523","tag":{"amenity":"waste_basket"}},"type":"Feature"},
	{"geometry":{"coordinates":[3.035383,42.757406],"type":"Point"},"properties":{"osm_id":"3575058617","tag":{"amenity":"waste_basket"}},"type":"Feature"},
	{"geometry":{"coordinates":[3.035464,42.757564],"type":"Point"},"properties":{"osm_id":"3575058619","tag":{"amenity":"waste_basket"}},"type":"Feature"},
	{"geometry":{"coordinates":[3.035551,42.757725],"type":"Point"},"properties":{"osm_id":"3575058622","tag":{"amenity":"waste_basket"}},"type":"Feature"},
	{"geometry":{"coordinates":[3.035586,42.757872],"type":"Point"},"properties":{"osm_id":"3575058625","tag":{"amenity":"waste_basket"}},"type":"Feature"},
	{"geometry":{"coordinates":[3.037167,42.761539],"type":"Point"},"properties":{"osm_id":"3575058642","tag":{"amenity":"waste_basket"}},"type":"Feature"},
	{"geometry":{"coordinates":[3.037314,42.762507],"type":"Point"},"properties":{"osm_id":"3575058643","tag":{"amenity":"waste_basket"}},"type":"Feature"},
	{"geometry":{"coordinates":[3.037153,42.765515],"type":"Point"},"properties":{"osm_id":"3575058660","tag":{"amenity":"waste_basket"}},"type":"Feature"},
	{"geometry":{"coordinates":[3.037153,42.76605],"type":"Point"},"properties":{"osm_id":"3575058662","tag":{"amenity":"waste_basket"}},"type":"Feature"},
	{"geometry":{"coordinates":[3.034197,42.767331],"type":"Point"},"properties":{"osm_id":"3575058717","tag":{"amenity":"waste_basket"}},"type":"Feature"},
	{"geometry":{"coordinates":[3.032201,42.767574],"type":"Point"},"properties":{"osm_id":"3575058737","tag":{"amenity":"waste_disposal"}},"type":"Feature"},
	{"geometry":{"coordinates":[3.032177,42.767607],"type":"Point"},"properties":{"osm_id":"3575058741","tag":{"amenity":"recycling","recycling:advertising":"yes","recycling:cardboard":"yes","recycling:magazines":"yes","recycling:newspaper":"yes","recycling_type":"container"}},"type":"Feature"},
	{"geometry":{"coordinates":[3.032206,42.767609],"type":"Point"},"properties":{"osm_id":"3575058742","tag":{"amenity":"recycling","recycling:advertising":"yes","recycling:cardboard":"yes","recycling:magazines":"yes","recycling:newspaper":"yes","recycling_type":"container"}},"type":"Feature"},
	{"geometry":{"coordinates":[3.032234,42.767609],"type":"Point"},"properties":{"osm_id":"3575058743","tag":{"amenity":"recycling","recycling:glass_bottles":"yes","recycling_type":"container"}},"type":"Feature"},
	{"geometry":{"coordinates":[3.032234,42.767621],"type":"Point"},"properties":{"osm_id":"3575058745","tag":{"amenity":"recycling","recycling:glass_bottles":"yes","recycling_type":"container"}},"type":"Feature"},
	{"geometry":{"coordinates":[3.032929,42.767772],"type":"Point"},"properties":{"osm_id":"3575058766","tag":{"amenity":"waste_basket"}},"type":"Feature"},
	{"geometry":{"coordinates":[3.007335,42.75469],"type":"Point"},"properties":{"osm_id":"3581042594","tag":{"amenity":"waste_basket"}},"type":"Feature"},
	{"geometry":{"coordinates":[3.006288,42.754804],"type":"Point"},"properties":{"osm_id":"3581042607","tag":{"amenity":"waste_basket"}},"type":"Feature"},
	{"geometry":{"coordinates":[2.996673,42.752071],"type":"Point"},"properties":{"osm_id":"3588034283","tag":{"amenity":"recycling","recycling_type":"container"}},"type":"Feature"},
	{"geometry":{"coordinates":[2.996647,42.752052],"type":"Point"},"properties":{"osm_id":"3588035231","tag":{"amenity":"recycling","recycling:glass_bottles":"yes","recycling_type":"container"}},"type":"Feature"},
	{"geometry":{"coordinates":[2.994863,42.755355],"type":"Point"},"properties":{"osm_id":"3589440027","tag":{"amenity":"waste_basket"}},"type":"Feature"},
	{"geometry":{"coordinates":[2.995016,42.755599],"type":"Point"},"properties":{"osm_id":"3589440064","tag":{"amenity":"waste_basket"}},"type":"Feature"},
	{"geometry":{"coordinates":[2.994926,42.755606],"type":"Point"},"properties":{"osm_id":"3589440069","tag":{"amenity":"waste_basket"}},"type":"Feature"},
	{"geometry":{"coordinates":[2.99065,42.75579],"type":"Point"},"properties":{"osm_id":"3590221115","tag":{"amenity":"recycling","recycling:cardboard":"yes","recycling:paper":"yes","recycling_type":"container"}},"type":"Feature"},
	{"geometry":{"coordinates":[2.990645,42.75581],"type":"Point"},"properties":{"osm_id":"3590221119","tag":{"amenity":"recycling","recycling:glass_bottles":"yes","recycling_type":"container"}},"type":"Feature"},
	{"geometry":{"coordinates":[2.991538,42.755915],"type":"Point"},"properties":{"osm_id":"3590221164","tag":{"amenity":"waste_basket"}},"type":"Feature"},
	{"geometry":{"coordinates":[2.99301,42.756029],"type":"Point"},"properties":{"osm_id":"3590221305","tag":{"amenity":"waste_basket"}},"type":"Feature"},
	{"geometry":{"coordinates":[2.992951,42.756251],"type":"Point"},"properties":{"osm_id":"3590221361","tag":{"amenity":"waste_basket"}},"type":"Feature"},
	{"geometry":{"coordinates":[2.992675,42.75629],"type":"Point"},"properties":{"osm_id":"3590221370","tag":{"amenity":"waste_basket"}},"type":"Feature"},
	{"geometry":{"coordinates":[2.993483,42.756302],"type":"Point"},"properties":{"osm_id":"3590221376","tag":{"amenity":"waste_basket"}},"type":"Feature"},
	{"geometry":{"coordinates":[2.992653,42.754431],"type":"Point"},"properties":{"osm_id":"3592489166","tag":{"amenity":"waste_basket","support":"wall_mounted"}},"type":"Feature"},
	{"geometry":{"coordinates":[2.993281,42.754861],"type":"Point"},"properties":{"osm_id":"3592489172","tag":{"amenity":"waste_basket"}},"type":"Feature"},
	{"geometry":{"coordinates":[2.992687,42.754959],"type":"Point"},"properties":{"osm_id":"3596401604","tag":{"amenity":"waste_basket"}},"type":"Feature"},
	{"geometry":{"coordinates":[3.036537,42.794626],"type":"Point"},"properties":{"osm_id":"3603023387","tag":{"amenity":"waste_basket"}},"type":"Feature"},
	{"geometry":{"coordinates":[3.034277,42.79243],"type":"Point"},"properties":{"osm_id":"3605512896","tag":{"amenity":"waste_basket"}},"type":"Feature"},
	{"geometry":{"coordinates":[3.033701,42.792552],"type":"Point"},"properties":{"osm_id":"3605512906","tag":{"amenity":"waste_basket"}},"type":"Feature"},
	{"geometry":{"coordinates":[3.033257,42.792881],"type":"Point"},"properties":{"osm_id":"3605512919","tag":{"amenity":"waste_basket"}},"type":"Feature"},
	{"geometry":{"coordinates":[3.038118,42.794173],"type":"Point"},"properties":{"osm_id":"3610820871","tag":{"amenity":"recycling","recycling:cardboard":"yes","recycling_type":"container"}},"type":"Feature"},
	{"geometry":{"coordinates":[3.038124,42.79419],"type":"Point"},"properties":{"osm_id":"3610820872","tag":{"amenity":"recycling","recycling:cardboard":"yes","recycling_type":"container"}},"type":"Feature"},
	{"geometry":{"coordinates":[3.038131,42.794204],"type":"Point"},"properties":{"osm_id":"3610820873","tag":{"amenity":"recycling","recycling:glass_bottles":"yes","recycling_type":"container"}},"type":"Feature"},
	{"geometry":{"coordinates":[3.038343,42.795543],"type":"Point"},"properties":{"osm_id":"3610823803","tag":{"amenity":"waste_basket","fee":"no","vending":"excrement_bags"}},"type":"Feature"},
	{"geometry":{"coordinates":[3.038302,42.79576],"type":"Point"},"properties":{"osm_id":"3610823814","tag":{"amenity":"waste_basket"}},"type":"Feature"},
	{"geometry":{"coordinates":[3.038667,42.791658],"type":"Point"},"properties":{"osm_id":"3612426577","tag":{"amenity":"waste_basket"}},"type":"Feature"},
	{"geometry":{"coordinates":[3.038615,42.792199],"type":"Point"},"properties":{"osm_id":"3612426587","tag":{"amenity":"waste_basket"}},"type":"Feature"},
	{"geometry":{"coordinates":[3.038261,42.792235],"type":"Point"},"properties":{"osm_id":"3612426591","tag":{"amenity":"waste_basket","vending":"excrement_bags"}},"type":"Feature"},
	{"geometry":{"coordinates":[3.038233,42.793251],"type":"Point"},"properties":{"highway":"street_lamp","osm_id":"3612442496","tag":{"amenity":"waste_basket"}},"type":"Feature"},
	{"geometry":{"coordinates":[3.038172,42.793315],"type":"Point"},"properties":{"osm_id":"3612442502","tag":{"amenity":"waste_basket","vending":"excrement_bags"}},"type":"Feature"},
	{"geometry":{"coordinates":[3.038132,42.793863],"type":"Point"},"properties":{"highway":"street_lamp","osm_id":"3612442532","tag":{"amenity":"waste_basket"}},"type":"Feature"},
	{"geometry":{"coordinates":[3.033528,42.784851],"type":"Point"},"properties":{"osm_id":"3615271098","tag":{"amenity":"waste_basket"}},"type":"Feature"},
	{"geometry":{"coordinates":[3.036491,42.786088],"type":"Point"},"properties":{"name":"D\u00c3\u00a9chets M\u00c3\u00a9nagers Recyclables","osm_id":"3617008154","tag":{"amenity":"recycling","description":"container sous le sol","recycling:aluminium":"yes","recycling:cans":"yes","recycling:cardboard":"yes","recycling:glass":"no","recycling:newspaper":"yes","recycling_type":"container"}},"type":"Feature"},
	{"geometry":{"coordinates":[3.036495,42.786103],"type":"Point"},"properties":{"name":"Ordures M\u00c3\u00a9nag\u00c3\u00a8res","osm_id":"3617008157","tag":{"amenity":"waste_disposal","description":"container sous le sol"}},"type":"Feature"},
	{"geometry":{"coordinates":[3.036499,42.786117],"type":"Point"},"properties":{"name":"Ordures M\u00c3\u00a9nag\u00c3\u00a8res","osm_id":"3617008158","tag":{"amenity":"waste_disposal","description":"container sous le sol"}},"type":"Feature"},
	{"geometry":{"coordinates":[3.035962,42.786162],"type":"Point"},"properties":{"osm_id":"3617008186","tag":{"amenity":"waste_basket","fee":"no","vending":"excrement_bags"}},"type":"Feature"},
	{"geometry":{"coordinates":[3.037848,42.788749],"type":"Point"},"properties":{"osm_id":"3617512630","tag":{"amenity":"waste_basket","fee":"no","vending":"excrement_bags"}},"type":"Feature"},
	{"geometry":{"coordinates":[3.037607,42.790125],"type":"Point"},"properties":{"osm_id":"3619286471","tag":{"amenity":"waste_basket"}},"type":"Feature"},
	{"geometry":{"coordinates":[3.03685,42.796608],"type":"Point"},"properties":{"highway":"street_lamp","osm_id":"3620043715","tag":{"amenity":"waste_basket"}},"type":"Feature"},
	{"geometry":{"coordinates":[3.036867,42.796759],"type":"Point"},"properties":{"highway":"street_lamp","osm_id":"3620043722","tag":{"amenity":"waste_basket"}},"type":"Feature"},
	{"geometry":{"coordinates":[3.036873,42.796883],"type":"Point"},"properties":{"highway":"street_lamp","osm_id":"3620043723","tag":{"amenity":"waste_basket"}},"type":"Feature"},
	{"geometry":{"coordinates":[3.03689,42.797182],"type":"Point"},"properties":{"highway":"street_lamp","osm_id":"3620043730","tag":{"amenity":"waste_basket"}},"type":"Feature"},
	{"geometry":{"coordinates":[3.036094,42.799965],"type":"Point"},"properties":{"osm_id":"3625475595","tag":{"amenity":"recycling","recycling:glass_bottles":"yes","recycling_type":"container"}},"type":"Feature"},
	{"geometry":{"coordinates":[3.036089,42.799966],"type":"Point"},"properties":{"osm_id":"3625475596","tag":{"amenity":"recycling","recycling:glass_bottles":"yes","recycling_type":"container"}},"type":"Feature"},
	{"geometry":{"coordinates":[3.036083,42.799968],"type":"Point"},"properties":{"osm_id":"3625475597","tag":{"amenity":"recycling","recycling:glass_bottles":"yes","recycling_type":"container"}},"type":"Feature"},
	{"geometry":{"coordinates":[3.036077,42.799969],"type":"Point"},"properties":{"osm_id":"3625475598","tag":{"amenity":"recycling","recycling:glass_bottles":"yes","recycling_type":"container"}},"type":"Feature"},
	{"geometry":{"coordinates":[3.035841,42.799983],"type":"Point"},"properties":{"osm_id":"3625475599","tag":{"amenity":"waste_basket"}},"type":"Feature"},
	{"geometry":{"coordinates":[3.036527,42.800283],"type":"Point"},"properties":{"osm_id":"3625475608","tag":{"amenity":"waste_basket","fee":"no","vending":"excrement_bags"}},"type":"Feature"},
	{"geometry":{"coordinates":[3.033805,42.801038],"type":"Point"},"properties":{"osm_id":"3625475668","tag":{"amenity":"recycling","recycling:glass_bottles":"yes","recycling_type":"container"}},"type":"Feature"},
	{"geometry":{"coordinates":[3.033771,42.801142],"type":"Point"},"properties":{"osm_id":"3625475670","tag":{"amenity":"recycling","mapillary":"Nutw-z5LgpXS-cB325YLBQ","recycling:glass_bottles":"yes","recycling_type":"container"}},"type":"Feature"},
	{"geometry":{"coordinates":[3.033071,42.805844],"type":"Point"},"properties":{"osm_id":"3625475749","tag":{"amenity":"recycling","recycling:glass_bottles":"yes","recycling_type":"container"}},"type":"Feature"},
	{"geometry":{"coordinates":[3.033089,42.805844],"type":"Point"},"properties":{"osm_id":"3625475750","tag":{"amenity":"recycling","operator":"\u00c3\u00a9cotextile","recycling:clothes":"yes","recycling:shoes":"yes","recycling_type":"container"}},"type":"Feature"},
	{"geometry":{"coordinates":[3.032394,42.805908],"type":"Point"},"properties":{"osm_id":"3625475760","tag":{"amenity":"waste_basket"}},"type":"Feature"},
	{"geometry":{"coordinates":[3.032994,42.805928],"type":"Point"},"properties":{"osm_id":"3625475766","tag":{"amenity":"waste_basket"}},"type":"Feature"},
	{"geometry":{"coordinates":[3.030343,42.807804],"type":"Point"},"properties":{"osm_id":"3627419598","tag":{"amenity":"waste_basket","fee":"no","vending":"excrement_bags"}},"type":"Feature"},
	{"geometry":{"coordinates":[3.033046,42.808643],"type":"Point"},"properties":{"osm_id":"3627419664","tag":{"amenity":"waste_basket"}},"type":"Feature"},
	{"geometry":{"coordinates":[3.034644,42.810909],"type":"Point"},"properties":{"osm_id":"3627420002","tag":{"amenity":"waste_basket"}},"type":"Feature"},
	{"geometry":{"coordinates":[3.035369,42.811028],"type":"Point"},"properties":{"osm_id":"3627420017","tag":{"amenity":"waste_disposal"}},"type":"Feature"},
	{"geometry":{"coordinates":[3.035346,42.81103],"type":"Point"},"properties":{"osm_id":"3627420021","tag":{"amenity":"recycling","recycling:glass_bottles":"yes","recycling_type":"container"}},"type":"Feature"},
	{"geometry":{"coordinates":[2.996725,42.752063],"type":"Point"},"properties":{"osm_id":"3680761630","tag":{"amenity":"recycling","recycling_type":"container"}},"type":"Feature"},
	{"geometry":{"coordinates":[2.996658,42.752064],"type":"Point"},"properties":{"osm_id":"3680761631","tag":{"amenity":"recycling","recycling_type":"container"}},"type":"Feature"},
	{"geometry":{"coordinates":[2.992955,42.752876],"type":"Point"},"properties":{"osm_id":"3680761663","tag":{"amenity":"recycling","description":"containeur enterre","recycling_type":"container"}},"type":"Feature"},
	{"geometry":{"coordinates":[2.99294,42.752879],"type":"Point"},"properties":{"osm_id":"3680761664","tag":{"amenity":"recycling","description":"containeur enterre","recycling_type":"container"}},"type":"Feature"},
	{"geometry":{"coordinates":[2.992922,42.752882],"type":"Point"},"properties":{"osm_id":"3680761666","tag":{"amenity":"recycling","description":"containeur enterre","recycling_type":"container"}},"type":"Feature"},
	{"geometry":{"coordinates":[2.991973,42.753049],"type":"Point"},"properties":{"osm_id":"3680761686","tag":{"amenity":"recycling","recycling_type":"container"}},"type":"Feature"},
	{"geometry":{"coordinates":[2.993466,42.755],"type":"Point"},"properties":{"osm_id":"3683571119","tag":{"amenity":"recycling","description":"containeur enterr\u00c3\u00a9","recycling_type":"container"}},"type":"Feature"},
	{"geometry":{"coordinates":[2.993453,42.755012],"type":"Point"},"properties":{"osm_id":"3683571121","tag":{"amenity":"waste_disposal","description":"containeur enterr\u00c3\u00a9"}},"type":"Feature"},
	{"geometry":{"coordinates":[2.995518,42.757451],"type":"Point"},"properties":{"osm_id":"3683576258","tag":{"amenity":"waste_basket"}},"type":"Feature"},
	{"geometry":{"coordinates":[2.995294,42.757537],"type":"Point"},"properties":{"osm_id":"3683576265","tag":{"amenity":"waste_basket"}},"type":"Feature"},
	{"geometry":{"coordinates":[3.033653,42.788779],"type":"Point"},"properties":{"osm_id":"3683619250","tag":{"amenity":"waste_basket"}},"type":"Feature"},
	{"geometry":{"coordinates":[3.024244,42.776067],"type":"Point"},"properties":{"osm_id":"3684163490","tag":{"amenity":"waste_basket"}},"type":"Feature"},
	{"geometry":{"coordinates":[3.028778,42.776925],"type":"Point"},"properties":{"osm_id":"3684170932","tag":{"amenity":"waste_basket"}},"type":"Feature"},
	{"geometry":{"coordinates":[3.032311,42.803487],"type":"Point"},"properties":{"osm_id":"5265890123","tag":{"amenity":"waste_basket"}},"type":"Feature"},
	{"geometry":{"coordinates":[2.990781,42.765973],"type":"Point"},"properties":{"osm_id":"5616739658","tag":{"amenity":"waste_basket","material":"wood"}},"type":"Feature"},
	{"geometry":{"coordinates":[2.990173,42.766303],"type":"Point"},"properties":{"osm_id":"5616739659","tag":{"amenity":"waste_basket","material":"wood"}},"type":"Feature"},
	{"geometry":{"coordinates":[2.989339,42.766041],"type":"Point"},"properties":{"osm_id":"5616739675","tag":{"amenity":"waste_basket","material":"wood"}},"type":"Feature"},
	{"geometry":{"coordinates":[2.989441,42.766335],"type":"Point"},"properties":{"osm_id":"5616739676","tag":{"amenity":"waste_basket","material":"wood"}},"type":"Feature"},
	{"geometry":{"coordinates":[2.989783,42.765892],"type":"Point"},"properties":{"osm_id":"5616739707","tag":{"amenity":"waste_basket","material":"wood"}},"type":"Feature"},
	{"geometry":{"coordinates":[2.990224,42.765848],"type":"Point"},"properties":{"osm_id":"5616739714","tag":{"amenity":"waste_basket","material":"wood"}},"type":"Feature"},
	{"geometry":{"coordinates":[2.992331,42.768276],"type":"Point"},"properties":{"osm_id":"5616772633","tag":{"amenity":"waste_basket"}},"type":"Feature"},
	{"geometry":{"coordinates":[3.0378,42.786835],"type":"Point"},"properties":{"osm_id":"5638370419","tag":{"amenity":"recycling","location":"underground","recycling_type":"container"}},"type":"Feature"},
	{"geometry":{"coordinates":[3.037806,42.786817],"type":"Point"},"properties":{"osm_id":"5638370420","tag":{"amenity":"recycling","location":"underground","recycling_type":"container"}},"type":"Feature"},
	{"geometry":{"coordinates":[3.037808,42.7868],"type":"Point"},"properties":{"osm_id":"5638382221","tag":{"amenity":"recycling","location":"underground","recycling_type":"container"}},"type":"Feature"},
	{"geometry":{"coordinates":[3.038679,42.801513],"type":"Point"},"properties":{"osm_id":"5646047986","tag":{"amenity":"waste_basket"}},"type":"Feature"},
	{"geometry":{"coordinates":[3.039078,42.799477],"type":"Point"},"properties":{"osm_id":"5646047999","tag":{"amenity":"waste_basket"}},"type":"Feature"},
	{"geometry":{"coordinates":[3.038971,42.799531],"type":"Point"},"properties":{"osm_id":"5646048000","tag":{"amenity":"recycling","location":"underground","recycling:glass_bottles":"yes","recycling_type":"container"}},"type":"Feature"},
	{"geometry":{"coordinates":[3.038945,42.799539],"type":"Point"},"properties":{"osm_id":"5646048001","tag":{"amenity":"recycling","location":"underground","recycling_type":"container"}},"type":"Feature"},
	{"geometry":{"coordinates":[3.038917,42.799546],"type":"Point"},"properties":{"osm_id":"5646048002","tag":{"amenity":"waste_disposal","location":"underground"}},"type":"Feature"},
	{"geometry":{"coordinates":[3.03942,42.810794],"type":"Point"},"properties":{"osm_id":"5814665433","tag":{"amenity":"waste_basket"}},"type":"Feature"},
	{"geometry":{"coordinates":[3.039488,42.811077],"type":"Point"},"properties":{"osm_id":"5814665434","tag":{"amenity":"waste_basket"}},"type":"Feature"},
	{"geometry":{"coordinates":[3.03707,42.807867],"type":"Point"},"properties":{"osm_id":"5817792754","tag":{"amenity":"waste_disposal"}},"type":"Feature"},
	{"geometry":{"coordinates":[3.035337,42.787201],"type":"Point"},"properties":{"osm_id":"5819255379","tag":{"amenity":"waste_basket","support":"wall_mounted"}},"type":"Feature"},
	{"geometry":{"coordinates":[3.022023,42.784393],"type":"Point"},"properties":{"osm_id":"6519112929","tag":{"amenity":"recycling","recycling:glass_bottles":"yes","recycling_type":"container"}},"type":"Feature"},
	{"geometry":{"coordinates":[3.035002,42.800313],"type":"Point"},"properties":{"osm_id":"6520547592","tag":{"amenity":"waste_basket"}},"type":"Feature"},
	{"geometry":{"coordinates":[3.03777,42.799517],"type":"Point"},"properties":{"osm_id":"6522205166","tag":{"amenity":"waste_basket"}},"type":"Feature"},
	{"geometry":{"coordinates":[3.037593,42.799198],"type":"Point"},"properties":{"osm_id":"6522205169","tag":{"amenity":"waste_basket"}},"type":"Feature"},
	{"geometry":{"coordinates":[3.037433,42.798912],"type":"Point"},"properties":{"osm_id":"6522205170","tag":{"amenity":"waste_basket"}},"type":"Feature"},
	{"geometry":{"coordinates":[3.037295,42.798667],"type":"Point"},"properties":{"osm_id":"6522205172","tag":{"amenity":"waste_basket"}},"type":"Feature"},
	{"geometry":{"coordinates":[3.03665,42.793279],"type":"Point"},"properties":{"osm_id":"6522244605","tag":{"amenity":"recycling","location":"underground","recycling_type":"container"}},"type":"Feature"},
	{"geometry":{"coordinates":[3.036627,42.793278],"type":"Point"},"properties":{"osm_id":"6522244606","tag":{"amenity":"recycling","location":"underground","recycling_type":"container"}},"type":"Feature"},
	{"geometry":{"coordinates":[3.036597,42.79328],"type":"Point"},"properties":{"osm_id":"6522244607","tag":{"amenity":"recycling","location":"underground","recycling_type":"container"}},"type":"Feature"},
	{"geometry":{"coordinates":[3.036573,42.79328],"type":"Point"},"properties":{"osm_id":"6522244608","tag":{"amenity":"recycling","location":"underground","recycling_type":"container"}},"type":"Feature"},
	{"geometry":{"coordinates":[3.036548,42.793281],"type":"Point"},"properties":{"osm_id":"6522244609","tag":{"amenity":"recycling","location":"underground","recycling_type":"container"}},"type":"Feature"},
	{"geometry":{"coordinates":[3.036521,42.79328],"type":"Point"},"properties":{"osm_id":"6522244610","tag":{"amenity":"recycling","location":"underground","recycling_type":"container"}},"type":"Feature"},
	{"geometry":{"coordinates":[3.036876,42.797006],"type":"Point"},"properties":{"highway":"street_lamp","osm_id":"6530378162","tag":{"amenity":"waste_basket"}},"type":"Feature"},
	{"geometry":{"coordinates":[3.032271,42.799147],"type":"Point"},"properties":{"osm_id":"6555874308","tag":{"amenity":"waste_basket","colour":"green","material":"plastic","support":"pole"}},"type":"Feature"},
	{"geometry":{"coordinates":[2.995218,42.765691],"type":"Point"},"properties":{"osm_id":"6771724985","tag":{"amenity":"waste_basket"}},"type":"Feature"},
	{"geometry":{"coordinates":[2.994155,42.754112],"type":"Point"},"properties":{"osm_id":"6908934488","tag":{"amenity":"recycling","description":"Verre,, d\u00c3\u00a9chets recyclable, ordures m\u00c3\u00a9nag\u00c3\u00a8res"}},"type":"Feature"},
	{"geometry":{"coordinates":[3.033801,42.801076],"type":"Point"},"properties":{"osm_id":"7559122230","tag":{"amenity":"recycling","recycling_type":"container"}},"type":"Feature"},
	{"geometry":{"coordinates":[3.033796,42.801088],"type":"Point"},"properties":{"osm_id":"7559122231","tag":{"amenity":"recycling","recycling:waste":"yes","recycling_type":"container"}},"type":"Feature"},
	{"geometry":{"coordinates":[3.033784,42.801101],"type":"Point"},"properties":{"osm_id":"7559122232","tag":{"amenity":"recycling","recycling:waste":"yes","recycling_type":"container"}},"type":"Feature"},
	{"geometry":{"coordinates":[3.033776,42.801123],"type":"Point"},"properties":{"osm_id":"7559122233","tag":{"amenity":"recycling","recycling:cans":"yes","recycling:paper":"yes","recycling:paper_packaging":"yes","recycling:plastic":"yes","recycling:plastic_bottles":"yes","recycling:plastic_packaging":"yes","recycling_type":"container"}},"type":"Feature"}
]
}
