{
"type": "FeatureCollection",
"features": [
	{"geometry":{"coordinates":[3.0443,41.968425],"type":"Point"},"properties":{"osm_id":"2531374605","tag":{"amenity":"recycling","recycling:cans":"yes","recycling:glass_bottles":"yes","recycling:paper":"yes","recycling_type":"container"}},"type":"Feature"},
	{"geometry":{"coordinates":[3.010993,42.021548],"type":"Point"},"properties":{"osm_id":"5856752100","tag":{"amenity":"recycling","recycling_type":"container"}},"type":"Feature"},
	{"geometry":{"coordinates":[3.067147,42.004062],"type":"Point"},"properties":{"osm_id":"8777758352","tag":{"amenity":"waste_basket","covered":"no","indoor":"no","operator":"Ajuntament d'Ullastret"}},"type":"Feature"},
	{"geometry":{"coordinates":[3.069658,42.000823],"type":"Point"},"properties":{"osm_id":"8777793017","tag":{"amenity":"waste_basket","covered":"no","indoor":"no","operator":"Ajuntament d'Ullastret"}},"type":"Feature"},
	{"geometry":{"coordinates":[2.996423,42.01545],"type":"Point"},"properties":{"osm_id":"9161206635","tag":{"amenity":"recycling","opening_hours":"24/7","opening_hours:covid19":"same","recycling:glass":"yes","recycling:green_waste":"yes","recycling:paper":"yes","recycling:plastic":"yes","recycling_type":"container"}},"type":"Feature"},
	{"geometry":{"coordinates":[2.996449,42.015461],"type":"Point"},"properties":{"osm_id":"9161206636","tag":{"access":"yes","amenity":"waste_disposal","waste":"household;trash"}},"type":"Feature"}
]
}
