{
"type": "FeatureCollection",
"features": [
	{"geometry":{"coordinates":[3.035523,41.960861],"type":"Point"},"properties":{"name":"Taca d'oli","osm_id":"2278861156","tag":{"amenity":"recycling","recycling_type":"centre"}},"type":"Feature"},
	{"geometry":{"coordinates":[3.039612,41.958512],"type":"Point"},"properties":{"osm_id":"3682550870","tag":{"amenity":"waste_basket"}},"type":"Feature"},
	{"geometry":{"coordinates":[3.040919,41.956211],"type":"Point"},"properties":{"osm_id":"4874402924","tag":{"amenity":"recycling"}},"type":"Feature"},
	{"geometry":{"coordinates":[3.012101,41.956026],"type":"Point"},"properties":{"osm_id":"5609550425","tag":{"amenity":"recycling"}},"type":"Feature"},
	{"geometry":{"coordinates":[3.011363,41.96392],"type":"Point"},"properties":{"osm_id":"5609554321","tag":{"amenity":"recycling"}},"type":"Feature"},
	{"geometry":{"coordinates":[3.011026,41.955287],"type":"Point"},"properties":{"osm_id":"5613285505","tag":{"amenity":"waste_disposal"}},"type":"Feature"},
	{"geometry":{"coordinates":[3.039232,41.957695],"type":"Point"},"properties":{"osm_id":"5856752090","tag":{"amenity":"recycling","location":"overground","recycling_type":"container"}},"type":"Feature"},
	{"geometry":{"coordinates":[3.038951,41.95636],"type":"Point"},"properties":{"osm_id":"5856752092","tag":{"amenity":"recycling"}},"type":"Feature"}
]
}
