{
"type": "FeatureCollection",
"features": [
	{"geometry":{"coordinates":[3.027167,39.771338],"type":"Point"},"properties":{"osm_id":"1680072519","tag":{"amenity":"waste_basket","check_date":"2021-01-14"}},"type":"Feature"},
	{"geometry":{"coordinates":[2.991033,39.758424],"type":"Point"},"properties":{"osm_id":"1759049235","tag":{"amenity":"recycling","recycling:batteries":"yes","recycling:glass_bottles":"yes","recycling:paper":"yes","recycling:paper_packaging":"yes","recycling:plastic":"yes","recycling:plastic_bottles":"yes","recycling_type":"container"}},"type":"Feature"},
	{"geometry":{"coordinates":[3.023161,39.772352],"type":"Point"},"properties":{"osm_id":"1808807312","tag":{"amenity":"recycling","recycling:glass_bottles":"yes","recycling:paper":"yes","recycling:plastic_packaging":"yes","recycling:waste":"yes","recycling_type":"container"}},"type":"Feature"},
	{"geometry":{"coordinates":[3.025602,39.773504],"type":"Point"},"properties":{"osm_id":"2367769143","tag":{"amenity":"recycling","recycling:clothes":"yes","recycling:glass":"yes","recycling:paper":"yes","recycling:waste":"yes","recycling_type":"container"}},"type":"Feature"},
	{"geometry":{"coordinates":[3.029788,39.772785],"type":"Point"},"properties":{"osm_id":"2995526245","tag":{"amenity":"waste_basket"}},"type":"Feature"},
	{"geometry":{"coordinates":[3.022928,39.762167],"type":"Point"},"properties":{"osm_id":"3139157781","tag":{"amenity":"recycling","recycling:cans":"yes","recycling:clothes":"no","recycling:glass":"yes","recycling:paper":"yes","recycling_type":"container"}},"type":"Feature"},
	{"geometry":{"coordinates":[3.024707,39.769795],"type":"Point"},"properties":{"osm_id":"3439536995","tag":{"amenity":"waste_basket","colour":"gray"}},"type":"Feature"},
	{"geometry":{"coordinates":[3.0497,39.735834],"type":"Point"},"properties":{"osm_id":"4488023979","tag":{"amenity":"waste_basket"}},"type":"Feature"},
	{"geometry":{"coordinates":[3.049942,39.737412],"type":"Point"},"properties":{"osm_id":"4488023982","tag":{"amenity":"waste_basket"}},"type":"Feature"},
	{"geometry":{"coordinates":[3.027819,39.774742],"type":"Point"},"properties":{"osm_id":"4491665669","tag":{"amenity":"recycling","recycling:glass_bottles":"yes","recycling:paper":"yes","recycling:plastic_bottles":"yes","recycling:plastic_packaging":"yes","recycling_type":"container"}},"type":"Feature"},
	{"geometry":{"coordinates":[3.030908,39.771485],"type":"Point"},"properties":{"osm_id":"6123049687","tag":{"amenity":"waste_disposal"}},"type":"Feature"},
	{"geometry":{"coordinates":[3.032662,39.769478],"type":"Point"},"properties":{"osm_id":"6123051893","tag":{"amenity":"waste_disposal"}},"type":"Feature"},
	{"geometry":{"coordinates":[3.031957,39.770264],"type":"Point"},"properties":{"osm_id":"6123051894","tag":{"amenity":"waste_disposal"}},"type":"Feature"},
	{"geometry":{"coordinates":[3.031676,39.770598],"type":"Point"},"properties":{"osm_id":"6123051895","tag":{"amenity":"waste_disposal"}},"type":"Feature"},
	{"geometry":{"coordinates":[3.031421,39.770899],"type":"Point"},"properties":{"osm_id":"6123051896","tag":{"amenity":"waste_disposal"}},"type":"Feature"},
	{"geometry":{"coordinates":[3.0312,39.771152],"type":"Point"},"properties":{"osm_id":"6123051897","tag":{"amenity":"waste_disposal"}},"type":"Feature"},
	{"geometry":{"coordinates":[3.030827,39.769013],"type":"Point"},"properties":{"osm_id":"6123469686","tag":{"amenity":"waste_disposal"}},"type":"Feature"},
	{"geometry":{"coordinates":[3.029454,39.76835],"type":"Point"},"properties":{"osm_id":"6123485085","tag":{"amenity":"recycling","recycling_type":"centre"}},"type":"Feature"},
	{"geometry":{"coordinates":[3.024833,39.764758],"type":"Point"},"properties":{"osm_id":"8283193343","tag":{"amenity":"waste_disposal"}},"type":"Feature"},
	{"geometry":{"coordinates":[3.024605,39.764621],"type":"Point"},"properties":{"osm_id":"8283193344","tag":{"amenity":"recycling","recycling:cans":"yes","recycling:glass_bottles":"yes","recycling:paper":"yes","recycling:plastic":"no","recycling:plastic_packaging":"yes","recycling_type":"container"}},"type":"Feature"},
	{"geometry":{"coordinates":[3.015269,39.773039],"type":"Point"},"properties":{"osm_id":"8338470174","tag":{"amenity":"waste_basket","material":"wood","operator":"Ajuntament de Sa Pobla","waste":"trash"}},"type":"Feature"},
	{"geometry":{"coordinates":[3.014782,39.772798],"type":"Point"},"properties":{"osm_id":"8338470175","tag":{"amenity":"waste_basket","material":"wood","operator":"Ajuntament de Sa Pobla","waste":"trash"}},"type":"Feature"}
]
}
