{
"type": "FeatureCollection",
"lastupdate": "2020-08-04T00:00:00Z",
"features": [
	{"geometry":{"coordinates":[8.812399,54.180785],"type":"Point"},"properties":{"osm_id":"572630493","tag":{"amenity":"waste_basket"}},"type":"Feature"},
	{"geometry":{"coordinates":[8.864508,54.164636],"type":"Point"},"properties":{"osm_id":"596198008","tag":{"amenity":"waste_basket"}},"type":"Feature"},
	{"geometry":{"coordinates":[8.819838,54.181575],"type":"Point"},"properties":{"osm_id":"679246217","tag":{"amenity":"recycling","operator":"Abfallwirtschaft Dithmarschen","recycling:clothes":"yes","recycling:glass":"yes","recycling:glass:colour":"brown;green;white","recycling:glass_bottles":"yes","recycling_type":"container"}},"type":"Feature"},
	{"geometry":{"coordinates":[8.865843,54.163509],"type":"Point"},"properties":{"osm_id":"5795241119","tag":{"amenity":"recycling","operator":"Deutsches Rotes Kreuz","recycling:clothes":"yes","recycling_type":"container"}},"type":"Feature"},
	{"geometry":{"coordinates":[8.819863,54.181541],"type":"Point"},"properties":{"osm_id":"5810532379","tag":{"amenity":"recycling","recycling:clothes":"yes","recycling_type":"container"}},"type":"Feature"}
]
}
