{
"type": "FeatureCollection",
"features": [
	{"geometry":{"coordinates":[8.857629,54.120563],"type":"Point"},"properties":{"osm_id":"595838593","tag":{"amenity":"waste_basket"}},"type":"Feature"},
	{"geometry":{"coordinates":[8.857552,54.120829],"type":"Point"},"properties":{"osm_id":"595838604","tag":{"amenity":"waste_basket"}},"type":"Feature"},
	{"geometry":{"coordinates":[8.857462,54.12109],"type":"Point"},"properties":{"osm_id":"595838606","tag":{"amenity":"waste_basket"}},"type":"Feature"},
	{"geometry":{"coordinates":[8.857798,54.120031],"type":"Point"},"properties":{"osm_id":"595838644","tag":{"amenity":"waste_basket"}},"type":"Feature"},
	{"geometry":{"coordinates":[8.857734,54.120264],"type":"Point"},"properties":{"osm_id":"595838648","tag":{"amenity":"waste_basket"}},"type":"Feature"},
	{"geometry":{"coordinates":[8.857397,54.122895],"type":"Point"},"properties":{"osm_id":"595840239","tag":{"amenity":"waste_basket"}},"type":"Feature"},
	{"geometry":{"coordinates":[8.858225,54.124492],"type":"Point"},"properties":{"osm_id":"595840275","tag":{"amenity":"waste_basket"}},"type":"Feature"},
	{"geometry":{"coordinates":[8.858122,54.124658],"type":"Point"},"properties":{"osm_id":"595840282","tag":{"amenity":"waste_basket"}},"type":"Feature"},
	{"geometry":{"coordinates":[8.872341,54.126269],"type":"Point"},"properties":{"osm_id":"955162663","tag":{"amenity":"recycling","operator":"Abfallwirtschaft Dithmarschen","recycling:glass_bottles":"yes","recycling:paper":"yes","recycling_type":"container"}},"type":"Feature"},
	{"geometry":{"coordinates":[8.869567,54.129143],"type":"Point"},"properties":{"osm_id":"1003047181","tag":{"amenity":"waste_disposal"}},"type":"Feature"},
	{"geometry":{"coordinates":[8.84446,54.142031],"type":"Point"},"properties":{"osm_id":"1817499672","tag":{"amenity":"recycling","operator":"Abfallwirtschaft Dithmarschen","recycling:glass_bottles":"yes","recycling_type":"container"}},"type":"Feature"},
	{"geometry":{"coordinates":[8.849701,54.157865],"type":"Point"},"properties":{"osm_id":"2136191552","tag":{"amenity":"recycling","operator":"Abfallwirtschaft Dithmarschen","recycling:glass_bottles":"yes","recycling_type":"container"}},"type":"Feature"},
	{"geometry":{"coordinates":[8.873384,54.137461],"type":"Point"},"properties":{"osm_id":"2353284661","tag":{"amenity":"recycling","operator":"Humana","recycling:clothes":"yes","recycling_type":"container","website":"https://www.humana-kleidersammlung.de/"}},"type":"Feature"},
	{"geometry":{"coordinates":[8.858052,54.141955],"type":"Point"},"properties":{"osm_id":"2354426206","tag":{"amenity":"recycling","operator":"Abfallwirtschaft Dithmarschen","recycling:glass_bottles":"yes","recycling_type":"container"}},"type":"Feature"},
	{"geometry":{"coordinates":[8.840879,54.137518],"type":"Point"},"properties":{"osm_id":"2371577466","tag":{"amenity":"recycling","operator":"Abfallwirtschaft Dithmarschen","recycling:glass_bottles":"yes","recycling:paper":"yes","recycling_type":"container"}},"type":"Feature"},
	{"geometry":{"coordinates":[8.850787,54.132055],"type":"Point"},"properties":{"osm_id":"2424313155","tag":{"amenity":"waste_basket"}},"type":"Feature"},
	{"geometry":{"coordinates":[8.860345,54.130519],"type":"Point"},"properties":{"osm_id":"2424427745","tag":{"amenity":"waste_basket"}},"type":"Feature"},
	{"geometry":{"coordinates":[8.859554,54.1299],"type":"Point"},"properties":{"osm_id":"2424655552","tag":{"amenity":"waste_basket"}},"type":"Feature"},
	{"geometry":{"coordinates":[8.858127,54.127923],"type":"Point"},"properties":{"osm_id":"2424668624","tag":{"amenity":"waste_basket"}},"type":"Feature"},
	{"geometry":{"coordinates":[8.858629,54.129222],"type":"Point"},"properties":{"osm_id":"2424687933","tag":{"amenity":"waste_basket"}},"type":"Feature"},
	{"geometry":{"coordinates":[8.840683,54.134783],"type":"Point"},"properties":{"osm_id":"2440101280","tag":{"amenity":"waste_basket"}},"type":"Feature"},
	{"geometry":{"coordinates":[8.869086,54.131324],"type":"Point"},"properties":{"osm_id":"2441923400","tag":{"amenity":"waste_basket","waste":"trash"}},"type":"Feature"},
	{"geometry":{"coordinates":[8.83366,54.142585],"type":"Point"},"properties":{"osm_id":"2443092132","tag":{"amenity":"waste_basket"}},"type":"Feature"},
	{"geometry":{"coordinates":[8.875594,54.137743],"type":"Point"},"properties":{"name":"Recyclinghof B\u00c3\u00bcsum","osm_id":"3145199926","tag":{"amenity":"recycling","opening_hours":"Mo,We 14:00-18:00; Sa 09:00-13:00;PH off","recycling_type":"centre","website":"http://www.awd-online.de/privatkunden/recyclinghoefe/b%C3%BCsum/"}},"type":"Feature"},
	{"geometry":{"coordinates":[8.864878,54.123119],"type":"Point"},"properties":{"osm_id":"3149237497","tag":{"amenity":"recycling","operator":"Abfallwirtschaft Dithmarschen","recycling:glass_bottles":"yes","recycling_type":"container"}},"type":"Feature"},
	{"geometry":{"coordinates":[8.85802,54.14194],"type":"Point"},"properties":{"osm_id":"3532349953","tag":{"amenity":"recycling","operator":"Deutsches Rotes Kreuz","recycling:clothes":"yes","recycling_type":"container"}},"type":"Feature"},
	{"geometry":{"coordinates":[8.84438,54.142036],"type":"Point"},"properties":{"osm_id":"3532349954","tag":{"amenity":"recycling","operator":"Deutsches Rotes Kreuz","recycling:clothes":"yes","recycling_type":"container"}},"type":"Feature"},
	{"geometry":{"coordinates":[8.857753,54.128063],"type":"Point"},"properties":{"osm_id":"3689068138","tag":{"amenity":"waste_basket"}},"type":"Feature"},
	{"geometry":{"coordinates":[8.875632,54.137834],"type":"Point"},"properties":{"osm_id":"4233316624","tag":{"amenity":"recycling","operator":"Abfallwirtschaft Dithmarschen","recycling:glass_bottles":"yes","recycling:paper":"yes","recycling_type":"container"}},"type":"Feature"},
	{"geometry":{"coordinates":[8.875748,54.137855],"type":"Point"},"properties":{"osm_id":"4233316625","tag":{"amenity":"recycling","operator":"Deutsches Rotes Kreuz","recycling:clothes":"yes","recycling_type":"container"}},"type":"Feature"},
	{"geometry":{"coordinates":[8.861828,54.131937],"type":"Point"},"properties":{"osm_id":"4383613869","tag":{"amenity":"recycling","operator":"Abfallwirtschaft Dithmarschen","recycling:glass_bottles":"yes","recycling:magazines":"yes","recycling:newspaper":"yes","recycling:paper":"yes","recycling:paper_packaging":"yes","recycling_type":"container"}},"type":"Feature"},
	{"geometry":{"coordinates":[8.848849,54.132568],"type":"Point"},"properties":{"osm_id":"4383800994","tag":{"amenity":"waste_basket"}},"type":"Feature"},
	{"geometry":{"coordinates":[8.849778,54.157887],"type":"Point"},"properties":{"osm_id":"5795241103","tag":{"amenity":"recycling","operator":"Retextil Recycling International","recycling:clothes":"yes","recycling_type":"container"}},"type":"Feature"},
	{"geometry":{"coordinates":[8.849748,54.157882],"type":"Point"},"properties":{"osm_id":"5795241104","tag":{"amenity":"recycling","operator":"Deutsches Rotes Kreuz","recycling:clothes":"yes","recycling_type":"container"}},"type":"Feature"},
	{"geometry":{"coordinates":[8.86482,54.129234],"type":"Point"},"properties":{"osm_id":"6068814390","tag":{"amenity":"waste_basket","waste":"trash"}},"type":"Feature"},
	{"geometry":{"coordinates":[8.857429,54.122641],"type":"Point"},"properties":{"osm_id":"6850721177","tag":{"amenity":"waste_basket"}},"type":"Feature"},
	{"geometry":{"coordinates":[8.85807,54.127845],"type":"Point"},"properties":{"osm_id":"7775551956","tag":{"amenity":"waste_basket","covered":"no","indoor":"no","material":"metal","waste":"trash"}},"type":"Feature"}
]
}
