{
"type": "FeatureCollection",
"features": [
	{"geometry":{"coordinates":[8.840687,54.031673],"type":"Point"},"properties":{"osm_id":"1691775554","tag":{"amenity":"recycling","operator":"Abfallwirtschaft Dithmarschen","recycling:glass_bottles":"yes","recycling_type":"container"}},"type":"Feature"},
	{"geometry":{"coordinates":[8.84898,54.034321],"type":"Point"},"properties":{"osm_id":"1691888913","tag":{"amenity":"recycling","operator":"Abfallwirtschaft Dithmarschen","recycling:glass_bottles":"yes","recycling_type":"container"}},"type":"Feature"},
	{"geometry":{"coordinates":[8.850698,54.036966],"type":"Point"},"properties":{"osm_id":"1691889047","tag":{"amenity":"recycling","operator":"Abfallwirtschaft Dithmarschen","recycling:glass_bottles":"yes","recycling_type":"container"}},"type":"Feature"},
	{"geometry":{"coordinates":[8.839482,54.029598],"type":"Point"},"properties":{"osm_id":"2439670882","tag":{"amenity":"recycling","operator":"Abfallwirtschaft Dithmarschen","recycling:glass_bottles":"yes","recycling:paper":"yes","recycling_type":"container"}},"type":"Feature"},
	{"geometry":{"coordinates":[8.837981,54.029882],"type":"Point"},"properties":{"osm_id":"2439670886","tag":{"amenity":"waste_basket"}},"type":"Feature"},
	{"geometry":{"coordinates":[8.83804,54.030034],"type":"Point"},"properties":{"osm_id":"2439670888","tag":{"amenity":"waste_basket"}},"type":"Feature"},
	{"geometry":{"coordinates":[8.838113,54.030168],"type":"Point"},"properties":{"osm_id":"2439670891","tag":{"amenity":"waste_basket"}},"type":"Feature"},
	{"geometry":{"coordinates":[8.838512,54.030182],"type":"Point"},"properties":{"osm_id":"2439670893","tag":{"amenity":"waste_basket"}},"type":"Feature"},
	{"geometry":{"coordinates":[8.838306,54.030462],"type":"Point"},"properties":{"osm_id":"2439670902","tag":{"amenity":"waste_basket"}},"type":"Feature"},
	{"geometry":{"coordinates":[8.838431,54.030614],"type":"Point"},"properties":{"osm_id":"2439670905","tag":{"amenity":"waste_basket"}},"type":"Feature"}
]
}
