{
"type": "FeatureCollection",
"features": [
	{"geometry":{"coordinates":[8.848911,52.966187],"type":"Point"},"properties":{"osm_id":"254044958","tag":{"amenity":"recycling","recycling:magazines":"yes","recycling:newspaper":"yes","recycling:paper":"yes","recycling:paper_packaging":"yes","recycling_type":"container"}},"type":"Feature"},
	{"geometry":{"coordinates":[8.847283,52.983087],"type":"Point"},"properties":{"osm_id":"1580788132","tag":{"amenity":"waste_basket"}},"type":"Feature"},
	{"geometry":{"coordinates":[8.8474,52.983256],"type":"Point"},"properties":{"osm_id":"1580788143","tag":{"amenity":"waste_basket"}},"type":"Feature"},
	{"geometry":{"coordinates":[8.847506,52.983477],"type":"Point"},"properties":{"osm_id":"1580788160","tag":{"amenity":"waste_basket"}},"type":"Feature"},
	{"geometry":{"coordinates":[8.815009,52.984726],"type":"Point"},"properties":{"osm_id":"1707652544","tag":{"amenity":"waste_basket"}},"type":"Feature"},
	{"geometry":{"coordinates":[8.799775,53.001623],"type":"Point"},"properties":{"osm_id":"2695720511","tag":{"amenity":"recycling","recycling:clothes":"yes","recycling:glass_bottles":"yes","recycling:shoes":"yes","recycling_type":"container"}},"type":"Feature"},
	{"geometry":{"coordinates":[8.845064,52.96625],"type":"Point"},"properties":{"name":"Gr\u00c3\u00bcnabfall-Sammelstelle","osm_id":"3748978736","tag":{"amenity":"recycling","contact:phone":"+49 4241 801174","fee":"yes","opening_hours":"Jan, Feb, May-Sep Sa[1] 10:00-12:00, Mar-Apr, Oct-Dec Sa 10:00-14:00","operator":"AWG","recycling:green_waste":"yes","recycling_type":"centre"}},"type":"Feature"},
	{"geometry":{"coordinates":[8.862677,52.979937],"type":"Point"},"properties":{"osm_id":"3951451496","tag":{"amenity":"recycling","recycling:clothes":"yes","recycling:shoes":"yes","recycling_type":"container"}},"type":"Feature"},
	{"geometry":{"coordinates":[8.862611,52.979878],"type":"Point"},"properties":{"osm_id":"3951451497","tag":{"amenity":"recycling","recycling:glass":"yes","recycling_type":"container"}},"type":"Feature"},
	{"geometry":{"coordinates":[8.869809,53.001594],"type":"Point"},"properties":{"osm_id":"4358461892","tag":{"amenity":"waste_basket"}},"type":"Feature"},
	{"geometry":{"coordinates":[8.800585,52.997381],"type":"Point"},"properties":{"osm_id":"5770185166","tag":{"amenity":"waste_basket"}},"type":"Feature"},
	{"geometry":{"coordinates":[8.81684,53.001569],"type":"Point"},"properties":{"osm_id":"6221465301","tag":{"amenity":"waste_basket"}},"type":"Feature"},
	{"geometry":{"coordinates":[8.851713,52.992735],"type":"Point"},"properties":{"name":"Gr\u00c3\u00bcnabfallsammelstelle","osm_id":"7629000692","tag":{"addr:city":"Weyhe","addr:housenumber":"84","addr:postcode":"28844","addr:street":"Im Bruch","amenity":"recycling","charge":"9\u00e2\u0082\u00ac pro kubikmeter","fee":"yes","note:recycling":"Laub im Herbst von \u00c3\u00b6ffentl. B\u00c3\u00a4umen; Geh\u00c3\u00b6lz- und Strauchschnitt","opening_hours":"M\u00c3\u00a4rz bis November: Fr 14:00-17:00/ Sa 09:00-14:00 Dezember bis Februar: Sa 09-14:00","opening_hours:covid19":"same","operator":"AWG","payment:cash":"yes","recycling:green_waste":"yes","recycling_type":"centre"}},"type":"Feature"},
	{"geometry":{"coordinates":[8.870278,52.98543],"type":"Point"},"properties":{"osm_id":"8449063876","tag":{"amenity":"recycling","opening_hours":"Mo-Sa 08:00-18:00","recycling_type":"container"}},"type":"Feature"},
	{"geometry":{"coordinates":[8.819292,52.972227],"type":"Point"},"properties":{"osm_id":"8587311856","tag":{"amenity":"recycling","description":"Sammelstelle im Schuppen","operator":"SV Melchiorshausen e.V.","recycling:paper":"yes","recycling_type":"centre"}},"type":"Feature"}
]
}
