{
"type": "FeatureCollection",
"features": [
	{"geometry":{"coordinates":[8.867455,52.299899],"type":"Point"},"properties":{"osm_id":"603155630","tag":{"amenity":"recycling","recycling:clothes":"yes","recycling_type":"container"}},"type":"Feature"},
	{"geometry":{"coordinates":[8.862253,52.27164],"type":"Point"},"properties":{"osm_id":"1354054143","tag":{"amenity":"waste_basket"}},"type":"Feature"},
	{"geometry":{"coordinates":[8.858001,52.298447],"type":"Point"},"properties":{"osm_id":"1554824199","tag":{"amenity":"recycling","recycling:waste":"yes"}},"type":"Feature"},
	{"geometry":{"coordinates":[8.794378,52.290519],"type":"Point"},"properties":{"osm_id":"3148028674","tag":{"amenity":"recycling","recycling:clothes":"yes","recycling_type":"container"}},"type":"Feature"},
	{"geometry":{"coordinates":[8.795056,52.29071],"type":"Point"},"properties":{"osm_id":"3148028675","tag":{"amenity":"recycling","recycling:paper":"yes","recycling_type":"container"}},"type":"Feature"},
	{"geometry":{"coordinates":[8.876886,52.318696],"type":"Point"},"properties":{"osm_id":"4689609976","tag":{"amenity":"recycling","recycling:clothes":"yes","recycling_type":"container"}},"type":"Feature"},
	{"geometry":{"coordinates":[8.85504,52.303751],"type":"Point"},"properties":{"osm_id":"6383568943","tag":{"amenity":"recycling","location":"overground","recycling:clothes":"yes","recycling_type":"container"}},"type":"Feature"},
	{"geometry":{"coordinates":[8.870749,52.319063],"type":"Point"},"properties":{"osm_id":"6474015391","tag":{"amenity":"recycling","operator":"Stadt Minden","recycling:batteries":"yes","recycling:electrical_appliances":"yes","recycling:green_waste":"yes","recycling:waste":"yes","recycling_type":"centre"}},"type":"Feature"}
]
}
