{
"type": "FeatureCollection",
"features": [
	{"geometry":{"coordinates":[8.825083,52.21054],"type":"Point"},"properties":{"osm_id":"264764803","tag":{"amenity":"recycling"}},"type":"Feature"},
	{"geometry":{"coordinates":[8.800996,52.197],"type":"Point"},"properties":{"osm_id":"389144274","tag":{"amenity":"recycling","location":"overground","recycling:glass":"yes","recycling_type":"container"}},"type":"Feature"},
	{"geometry":{"coordinates":[8.803007,52.19264],"type":"Point"},"properties":{"osm_id":"412769338","tag":{"amenity":"waste_basket"}},"type":"Feature"},
	{"geometry":{"coordinates":[8.806463,52.203443],"type":"Point"},"properties":{"osm_id":"430929728","tag":{"amenity":"waste_basket"}},"type":"Feature"},
	{"geometry":{"coordinates":[8.807621,52.203289],"type":"Point"},"properties":{"highway":"bus_stop","name":"Schulbus","osm_id":"430929730","tag":{"amenity":"waste_basket"}},"type":"Feature"},
	{"geometry":{"coordinates":[8.808579,52.203257],"type":"Point"},"properties":{"osm_id":"430929731","tag":{"amenity":"waste_basket"}},"type":"Feature"},
	{"geometry":{"coordinates":[8.809882,52.203131],"type":"Point"},"properties":{"osm_id":"430929733","tag":{"amenity":"waste_basket"}},"type":"Feature"},
	{"geometry":{"coordinates":[8.790061,52.210047],"type":"Point"},"properties":{"osm_id":"432678160","tag":{"amenity":"waste_basket"}},"type":"Feature"},
	{"geometry":{"coordinates":[8.790033,52.209276],"type":"Point"},"properties":{"osm_id":"432678161","tag":{"amenity":"waste_basket"}},"type":"Feature"},
	{"geometry":{"coordinates":[8.791431,52.208463],"type":"Point"},"properties":{"osm_id":"432678170","tag":{"amenity":"waste_basket"}},"type":"Feature"},
	{"geometry":{"coordinates":[8.810187,52.188366],"type":"Point"},"properties":{"osm_id":"433878306","tag":{"amenity":"recycling","recycling:glass":"yes"}},"type":"Feature"},
	{"geometry":{"coordinates":[8.816926,52.194978],"type":"Point"},"properties":{"highway":"bus_stop","name":"Triftenstra\u00c3\u009fe","osm_id":"433879008","ref":"429","tag":{"amenity":"waste_basket","shelter":"yes"}},"type":"Feature"},
	{"geometry":{"coordinates":[8.819075,52.194808],"type":"Point"},"properties":{"osm_id":"433879288","tag":{"amenity":"recycling","recycling:glass":"yes","recycling:shoes":"yes"}},"type":"Feature"},
	{"geometry":{"coordinates":[8.79933,52.18762],"type":"Point"},"properties":{"osm_id":"433881275","tag":{"amenity":"waste_basket"}},"type":"Feature"},
	{"geometry":{"coordinates":[8.798929,52.188078],"type":"Point"},"properties":{"osm_id":"433881281","tag":{"amenity":"waste_basket"}},"type":"Feature"},
	{"geometry":{"coordinates":[8.798898,52.188637],"type":"Point"},"properties":{"osm_id":"433881285","tag":{"amenity":"waste_basket"}},"type":"Feature"},
	{"geometry":{"coordinates":[8.793081,52.191087],"type":"Point"},"properties":{"osm_id":"440165866","tag":{"amenity":"waste_basket"}},"type":"Feature"},
	{"geometry":{"coordinates":[8.791968,52.190869],"type":"Point"},"properties":{"osm_id":"440165933","tag":{"amenity":"waste_basket"}},"type":"Feature"},
	{"geometry":{"coordinates":[8.790239,52.189958],"type":"Point"},"properties":{"osm_id":"440166097","tag":{"amenity":"waste_basket"}},"type":"Feature"},
	{"geometry":{"coordinates":[8.789165,52.207348],"type":"Point"},"properties":{"osm_id":"440167188","tag":{"amenity":"waste_basket"}},"type":"Feature"},
	{"geometry":{"coordinates":[8.800641,52.193459],"type":"Point"},"properties":{"osm_id":"442353339","tag":{"amenity":"waste_basket"}},"type":"Feature"},
	{"geometry":{"coordinates":[8.799007,52.190248],"type":"Point"},"properties":{"osm_id":"442353429","tag":{"amenity":"waste_basket"}},"type":"Feature"},
	{"geometry":{"coordinates":[8.79863,52.189937],"type":"Point"},"properties":{"osm_id":"442353430","tag":{"amenity":"waste_basket"}},"type":"Feature"},
	{"geometry":{"coordinates":[8.798973,52.188994],"type":"Point"},"properties":{"osm_id":"442353444","tag":{"amenity":"waste_basket"}},"type":"Feature"},
	{"geometry":{"coordinates":[8.798317,52.188094],"type":"Point"},"properties":{"osm_id":"442353447","tag":{"amenity":"waste_basket"}},"type":"Feature"},
	{"geometry":{"coordinates":[8.840292,52.192399],"type":"Point"},"properties":{"osm_id":"443923086","tag":{"amenity":"recycling","recycling:glass":"yes"}},"type":"Feature"},
	{"geometry":{"coordinates":[8.83662,52.196911],"type":"Point"},"properties":{"osm_id":"443923197","tag":{"amenity":"waste_basket"}},"type":"Feature"},
	{"geometry":{"coordinates":[8.841606,52.179986],"type":"Point"},"properties":{"osm_id":"444226289","tag":{"amenity":"recycling","recycling:glass":"yes"}},"type":"Feature"},
	{"geometry":{"coordinates":[8.795852,52.182702],"type":"Point"},"properties":{"osm_id":"448313630","tag":{"amenity":"recycling","recycling:glass":"yes"}},"type":"Feature"},
	{"geometry":{"coordinates":[8.789492,52.177667],"type":"Point"},"properties":{"osm_id":"463291336","tag":{"amenity":"recycling","recycling:glass_bottles":"yes","recycling_type":"container"}},"type":"Feature"},
	{"geometry":{"coordinates":[8.797201,52.19185],"type":"Point"},"properties":{"osm_id":"471250468","tag":{"amenity":"waste_basket"}},"type":"Feature"},
	{"geometry":{"coordinates":[8.797263,52.191601],"type":"Point"},"properties":{"osm_id":"471250469","tag":{"amenity":"waste_basket"}},"type":"Feature"},
	{"geometry":{"coordinates":[8.798896,52.193475],"type":"Point"},"properties":{"osm_id":"471250532","tag":{"amenity":"waste_basket"}},"type":"Feature"},
	{"geometry":{"coordinates":[8.799069,52.194769],"type":"Point"},"properties":{"osm_id":"471250551","tag":{"amenity":"waste_basket"}},"type":"Feature"},
	{"geometry":{"coordinates":[8.799354,52.194155],"type":"Point"},"properties":{"osm_id":"471250553","tag":{"amenity":"waste_basket"}},"type":"Feature"},
	{"geometry":{"coordinates":[8.799435,52.193225],"type":"Point"},"properties":{"osm_id":"471250556","tag":{"amenity":"waste_basket"}},"type":"Feature"},
	{"geometry":{"coordinates":[8.799265,52.192875],"type":"Point"},"properties":{"osm_id":"471250558","tag":{"amenity":"waste_basket"}},"type":"Feature"},
	{"geometry":{"coordinates":[8.799557,52.192278],"type":"Point"},"properties":{"osm_id":"471250559","tag":{"amenity":"waste_basket"}},"type":"Feature"},
	{"geometry":{"coordinates":[8.80113,52.193335],"type":"Point"},"properties":{"osm_id":"471250639","tag":{"amenity":"recycling","recycling:clothes":"yes","recycling:shoes":"yes"}},"type":"Feature"},
	{"geometry":{"coordinates":[8.800767,52.195342],"type":"Point"},"properties":{"osm_id":"471250757","tag":{"amenity":"waste_basket"}},"type":"Feature"},
	{"geometry":{"coordinates":[8.80053,52.194881],"type":"Point"},"properties":{"osm_id":"471250759","tag":{"amenity":"waste_basket"}},"type":"Feature"},
	{"geometry":{"coordinates":[8.798299,52.196537],"type":"Point"},"properties":{"osm_id":"472278717","tag":{"amenity":"waste_basket"}},"type":"Feature"},
	{"geometry":{"coordinates":[8.798327,52.196634],"type":"Point"},"properties":{"osm_id":"472278722","tag":{"amenity":"waste_basket"}},"type":"Feature"},
	{"geometry":{"coordinates":[8.798449,52.196841],"type":"Point"},"properties":{"osm_id":"472278725","tag":{"amenity":"waste_basket"}},"type":"Feature"},
	{"geometry":{"coordinates":[8.805079,52.208893],"type":"Point"},"properties":{"osm_id":"485788519","tag":{"amenity":"recycling","recycling:glass":"yes"}},"type":"Feature"},
	{"geometry":{"coordinates":[8.864806,52.16902],"type":"Point"},"properties":{"osm_id":"510989327","tag":{"amenity":"recycling","recycling:clothes":"yes","recycling:glass_bottles":"yes","recycling_type":"container"}},"type":"Feature"},
	{"geometry":{"coordinates":[8.816865,52.197943],"type":"Point"},"properties":{"osm_id":"1056742030","tag":{"amenity":"recycling","location":"overground","recycling:glass":"yes","recycling_type":"container"}},"type":"Feature"},
	{"geometry":{"coordinates":[8.816866,52.214133],"type":"Point"},"properties":{"osm_id":"1100248202","tag":{"amenity":"waste_basket"}},"type":"Feature"},
	{"geometry":{"coordinates":[8.816751,52.214224],"type":"Point"},"properties":{"osm_id":"1100248530","tag":{"amenity":"waste_basket"}},"type":"Feature"},
	{"geometry":{"coordinates":[8.816949,52.214074],"type":"Point"},"properties":{"osm_id":"1100249509","tag":{"amenity":"waste_basket"}},"type":"Feature"},
	{"geometry":{"coordinates":[8.820782,52.203245],"type":"Point"},"properties":{"highway":"bus_stop","name":"Bl\u00c3\u00bccherstra\u00c3\u009fe","osm_id":"1100581217","ref":"551","tag":{"amenity":"waste_basket","bench":"yes","shelter":"yes","wheelchair":"yes"}},"type":"Feature"},
	{"geometry":{"coordinates":[8.816847,52.199619],"type":"Point"},"properties":{"osm_id":"1100581525","tag":{"amenity":"waste_basket"}},"type":"Feature"},
	{"geometry":{"coordinates":[8.79305,52.182874],"type":"Point"},"properties":{"osm_id":"1195280120","tag":{"amenity":"waste_basket"}},"type":"Feature"},
	{"geometry":{"coordinates":[8.825628,52.21378],"type":"Point"},"properties":{"osm_id":"1438058994","tag":{"amenity":"waste_basket"}},"type":"Feature"},
	{"geometry":{"coordinates":[8.825235,52.213844],"type":"Point"},"properties":{"osm_id":"1438058999","tag":{"amenity":"waste_basket"}},"type":"Feature"},
	{"geometry":{"coordinates":[8.807245,52.20881],"type":"Point"},"properties":{"osm_id":"1493296042","tag":{"amenity":"recycling","recycling:clothes":"yes","recycling:glass":"yes","recycling_type":"container"}},"type":"Feature"},
	{"geometry":{"coordinates":[8.812028,52.204192],"type":"Point"},"properties":{"highway":"bus_stop","name":"Bl\u00c3\u00bccherstra\u00c3\u009fe","osm_id":"1609939246","ref":"429","tag":{"amenity":"waste_basket"}},"type":"Feature"},
	{"geometry":{"coordinates":[8.814173,52.201149],"type":"Point"},"properties":{"osm_id":"1609941632","tag":{"amenity":"waste_basket"}},"type":"Feature"},
	{"geometry":{"coordinates":[8.814801,52.204007],"type":"Point"},"properties":{"osm_id":"1609941853","tag":{"amenity":"waste_basket"}},"type":"Feature"},
	{"geometry":{"coordinates":[8.813684,52.204102],"type":"Point"},"properties":{"osm_id":"1609941893","tag":{"amenity":"waste_basket"}},"type":"Feature"},
	{"geometry":{"coordinates":[8.813831,52.204165],"type":"Point"},"properties":{"osm_id":"1609941950","tag":{"amenity":"waste_basket"}},"type":"Feature"},
	{"geometry":{"coordinates":[8.798624,52.200617],"type":"Point"},"properties":{"osm_id":"1791610940","tag":{"amenity":"waste_basket"}},"type":"Feature"},
	{"geometry":{"coordinates":[8.837294,52.212148],"type":"Point"},"properties":{"osm_id":"2058770377","tag":{"amenity":"recycling","recycling_type":"centre"}},"type":"Feature"},
	{"geometry":{"coordinates":[8.817515,52.198744],"type":"Point"},"properties":{"highway":"bus_stop","name":"Wesertra\u00c3\u009fe WEZ","osm_id":"2600076799","ref":"551","tag":{"amenity":"waste_basket"}},"type":"Feature"},
	{"geometry":{"coordinates":[8.792297,52.208322],"type":"Point"},"properties":{"osm_id":"3542067694","tag":{"amenity":"waste_basket"}},"type":"Feature"},
	{"geometry":{"coordinates":[8.792498,52.208533],"type":"Point"},"properties":{"osm_id":"3542067701","tag":{"amenity":"waste_basket"}},"type":"Feature"},
	{"geometry":{"coordinates":[8.790918,52.207624],"type":"Point"},"properties":{"osm_id":"3542074491","tag":{"amenity":"waste_basket"}},"type":"Feature"},
	{"geometry":{"coordinates":[8.857853,52.172091],"type":"Point"},"properties":{"osm_id":"3941068801","tag":{"amenity":"recycling","recycling:clothes":"yes","recycling:glass_bottles":"yes","recycling_type":"container"}},"type":"Feature"},
	{"geometry":{"coordinates":[8.851145,52.162361],"type":"Point"},"properties":{"osm_id":"4171311199","tag":{"amenity":"recycling","recycling:clothes":"yes","recycling_type":"container"}},"type":"Feature"},
	{"geometry":{"coordinates":[8.866704,52.16911],"type":"Point"},"properties":{"osm_id":"4595090326","tag":{"amenity":"waste_basket"}},"type":"Feature"},
	{"geometry":{"coordinates":[8.866694,52.169114],"type":"Point"},"properties":{"osm_id":"4595090327","tag":{"amenity":"waste_basket"}},"type":"Feature"},
	{"geometry":{"coordinates":[8.868754,52.167768],"type":"Point"},"properties":{"osm_id":"4942749617","tag":{"amenity":"waste_basket"}},"type":"Feature"},
	{"geometry":{"coordinates":[8.796931,52.205331],"type":"Point"},"properties":{"osm_id":"6964688263","tag":{"amenity":"waste_basket","waste":"trash"}},"type":"Feature"},
	{"geometry":{"coordinates":[8.796883,52.205477],"type":"Point"},"properties":{"osm_id":"6964688264","tag":{"amenity":"waste_basket","waste":"trash"}},"type":"Feature"},
	{"geometry":{"coordinates":[8.793498,52.204903],"type":"Point"},"properties":{"osm_id":"6964688269","tag":{"amenity":"waste_basket","waste":"trash"}},"type":"Feature"},
	{"geometry":{"coordinates":[8.795178,52.205283],"type":"Point"},"properties":{"osm_id":"6964688307","tag":{"amenity":"waste_basket","waste":"trash"}},"type":"Feature"},
	{"geometry":{"coordinates":[8.794405,52.205179],"type":"Point"},"properties":{"osm_id":"6964688308","tag":{"amenity":"waste_basket","waste":"trash"}},"type":"Feature"},
	{"geometry":{"coordinates":[8.793548,52.20505],"type":"Point"},"properties":{"osm_id":"6964688313","tag":{"amenity":"waste_basket","waste":"trash"}},"type":"Feature"},
	{"geometry":{"coordinates":[8.86473,52.200709],"type":"Point"},"properties":{"osm_id":"7570761080","tag":{"amenity":"waste_basket"}},"type":"Feature"},
	{"geometry":{"coordinates":[8.864588,52.201203],"type":"Point"},"properties":{"osm_id":"7570764707","tag":{"amenity":"waste_basket"}},"type":"Feature"}
]
}
