{
"type": "FeatureCollection",
"lastupdate": "2020-07-31T00:00:00Z",
"features": [
	{"geometry":{"coordinates":[8.847525,51.954103],"type":"Point"},"properties":{"osm_id":"249503131","tag":{"amenity":"recycling","recycling_type":"container"}},"type":"Feature"},
	{"geometry":{"coordinates":[8.85871,51.954162],"type":"Point"},"properties":{"osm_id":"249610998","tag":{"amenity":"recycling","recycling:clothes":"yes","recycling:glass_bottles":"yes","recycling:shoes":"yes","recycling_type":"container"}},"type":"Feature"},
	{"geometry":{"coordinates":[8.84755,51.957814],"type":"Point"},"properties":{"osm_id":"249733426","tag":{"amenity":"recycling","recycling_type":"container"}},"type":"Feature"},
	{"geometry":{"coordinates":[8.79446,51.995794],"type":"Point"},"properties":{"osm_id":"347299943","tag":{"amenity":"recycling","recycling:glass_bottles":"yes","recycling_type":"container"}},"type":"Feature"},
	{"geometry":{"coordinates":[8.806021,51.950421],"type":"Point"},"properties":{"osm_id":"443619242","tag":{"amenity":"recycling","recycling:glass":"yes"}},"type":"Feature"},
	{"geometry":{"coordinates":[8.794327,51.985747],"type":"Point"},"properties":{"osm_id":"922423592","tag":{"amenity":"recycling","recycling:glass":"yes","recycling_type":"container"}},"type":"Feature"},
	{"geometry":{"coordinates":[8.813185,51.988991],"type":"Point"},"properties":{"osm_id":"922424931","tag":{"amenity":"recycling","recycling:clothes":"yes","recycling:glass":"yes","recycling_type":"container"}},"type":"Feature"},
	{"geometry":{"coordinates":[8.793795,51.985283],"type":"Point"},"properties":{"osm_id":"922426801","tag":{"amenity":"recycling","recycling:clothes":"yes","recycling_type":"container"}},"type":"Feature"},
	{"geometry":{"coordinates":[8.812986,51.986729],"type":"Point"},"properties":{"osm_id":"944513769","tag":{"amenity":"recycling","recycling:clothes":"yes","recycling_type":"container"}},"type":"Feature"},
	{"geometry":{"coordinates":[8.873599,51.959431],"type":"Point"},"properties":{"osm_id":"956297602","tag":{"amenity":"recycling","recycling:glass":"yes","recycling:paper":"yes","recycling_type":"container"}},"type":"Feature"},
	{"geometry":{"coordinates":[8.79987,51.992655],"type":"Point"},"properties":{"osm_id":"967418885","tag":{"amenity":"waste_basket"}},"type":"Feature"},
	{"geometry":{"coordinates":[8.80074,51.991432],"type":"Point"},"properties":{"osm_id":"967418896","tag":{"amenity":"waste_basket"}},"type":"Feature"},
	{"geometry":{"coordinates":[8.800839,51.991343],"type":"Point"},"properties":{"osm_id":"967419096","tag":{"amenity":"waste_basket"}},"type":"Feature"},
	{"geometry":{"coordinates":[8.797197,51.988222],"type":"Point"},"properties":{"osm_id":"967419210","tag":{"amenity":"waste_basket"}},"type":"Feature"},
	{"geometry":{"coordinates":[8.800572,51.99167],"type":"Point"},"properties":{"osm_id":"967419239","tag":{"amenity":"waste_basket"}},"type":"Feature"},
	{"geometry":{"coordinates":[8.79684,51.988104],"type":"Point"},"properties":{"osm_id":"967419428","tag":{"amenity":"waste_basket"}},"type":"Feature"},
	{"geometry":{"coordinates":[8.800751,51.991184],"type":"Point"},"properties":{"osm_id":"967419433","tag":{"amenity":"waste_basket"}},"type":"Feature"},
	{"geometry":{"coordinates":[8.814025,51.993885],"type":"Point"},"properties":{"osm_id":"1268725076","tag":{"amenity":"recycling","recycling:clothes":"yes","recycling_type":"container"}},"type":"Feature"},
	{"geometry":{"coordinates":[8.811948,51.995273],"type":"Point"},"properties":{"osm_id":"1268725102","tag":{"amenity":"recycling","recycling:clothes":"yes","recycling:glass":"yes","recycling_type":"container"}},"type":"Feature"},
	{"geometry":{"coordinates":[8.843959,51.956434],"type":"Point"},"properties":{"osm_id":"1307707266","tag":{"amenity":"recycling","recycling:glass":"yes","recycling_type":"container"}},"type":"Feature"},
	{"geometry":{"coordinates":[8.792744,51.985148],"type":"Point"},"properties":{"osm_id":"1323596053","tag":{"amenity":"waste_basket"}},"type":"Feature"},
	{"geometry":{"coordinates":[8.790886,51.981821],"type":"Point"},"properties":{"osm_id":"1323747623","tag":{"amenity":"waste_basket"}},"type":"Feature"},
	{"geometry":{"coordinates":[8.809452,51.979525],"type":"Point"},"properties":{"osm_id":"1376612049","tag":{"amenity":"waste_basket"}},"type":"Feature"},
	{"geometry":{"coordinates":[8.804654,51.987749],"type":"Point"},"properties":{"osm_id":"1675475626","tag":{"amenity":"recycling","recycling:clothes":"yes","recycling_type":"container"}},"type":"Feature"},
	{"geometry":{"coordinates":[8.790378,51.989778],"type":"Point"},"properties":{"osm_id":"1901946832","tag":{"amenity":"recycling","recycling:clothes":"yes","recycling:glass_bottles":"yes","recycling_type":"container"}},"type":"Feature"},
	{"geometry":{"coordinates":[8.870605,51.948724],"type":"Point"},"properties":{"osm_id":"2939539998","tag":{"amenity":"recycling","recycling:clothes":"yes","recycling:glass_bottles":"yes","recycling_type":"container"}},"type":"Feature"},
	{"geometry":{"coordinates":[8.793381,51.993428],"type":"Point"},"properties":{"osm_id":"2983780222","tag":{"amenity":"waste_basket"}},"type":"Feature"},
	{"geometry":{"coordinates":[8.793038,51.993449],"type":"Point"},"properties":{"osm_id":"2983780224","tag":{"amenity":"waste_basket"}},"type":"Feature"},
	{"geometry":{"coordinates":[8.802237,51.985696],"type":"Point"},"properties":{"osm_id":"2984386333","tag":{"amenity":"waste_basket"}},"type":"Feature"},
	{"geometry":{"coordinates":[8.7958,51.985794],"type":"Point"},"properties":{"osm_id":"2984386337","tag":{"amenity":"waste_basket"}},"type":"Feature"},
	{"geometry":{"coordinates":[8.793242,51.992736],"type":"Point"},"properties":{"osm_id":"5101559062","tag":{"amenity":"waste_basket"}},"type":"Feature"},
	{"geometry":{"coordinates":[8.792721,51.991177],"type":"Point"},"properties":{"osm_id":"5141343205","tag":{"amenity":"waste_basket"}},"type":"Feature"},
	{"geometry":{"coordinates":[8.79265,51.991041],"type":"Point"},"properties":{"osm_id":"5141343207","tag":{"amenity":"waste_basket"}},"type":"Feature"},
	{"geometry":{"coordinates":[8.79256,51.991076],"type":"Point"},"properties":{"osm_id":"5141343209","tag":{"amenity":"waste_basket"}},"type":"Feature"},
	{"geometry":{"coordinates":[8.792122,51.990968],"type":"Point"},"properties":{"osm_id":"5141364212","tag":{"amenity":"waste_basket"}},"type":"Feature"},
	{"geometry":{"coordinates":[8.870643,51.998137],"type":"Point"},"properties":{"osm_id":"5502019683","tag":{"amenity":"waste_basket"}},"type":"Feature"},
	{"geometry":{"coordinates":[8.800304,51.991237],"type":"Point"},"properties":{"osm_id":"5605087623","tag":{"amenity":"waste_basket","waste":"dog_excrement"}},"type":"Feature"},
	{"geometry":{"coordinates":[8.799638,51.991233],"type":"Point"},"properties":{"osm_id":"5605087624","tag":{"amenity":"waste_basket","waste":"trash"}},"type":"Feature"},
	{"geometry":{"coordinates":[8.799736,51.991253],"type":"Point"},"properties":{"osm_id":"5605087628","tag":{"amenity":"waste_basket","waste":"trash"}},"type":"Feature"},
	{"geometry":{"coordinates":[8.79487,51.993826],"type":"Point"},"properties":{"osm_id":"5840179848","tag":{"amenity":"waste_basket"}},"type":"Feature"},
	{"geometry":{"coordinates":[8.800253,51.983476],"type":"Point"},"properties":{"osm_id":"6121091531","tag":{"amenity":"waste_basket","waste":"trash"}},"type":"Feature"},
	{"geometry":{"coordinates":[8.800394,51.984558],"type":"Point"},"properties":{"osm_id":"6121091532","tag":{"amenity":"waste_basket","waste":"trash"}},"type":"Feature"},
	{"geometry":{"coordinates":[8.800494,51.984482],"type":"Point"},"properties":{"osm_id":"6121091535","tag":{"amenity":"waste_basket","description":"unter der Treppe","waste":"trash"}},"type":"Feature"},
	{"geometry":{"coordinates":[8.803016,51.986084],"type":"Point"},"properties":{"osm_id":"6121091536","tag":{"amenity":"waste_basket","waste":"trash"}},"type":"Feature"},
	{"geometry":{"coordinates":[8.800891,51.983417],"type":"Point"},"properties":{"osm_id":"6121091537","tag":{"amenity":"waste_basket","waste":"trash"}},"type":"Feature"},
	{"geometry":{"coordinates":[8.801387,51.984212],"type":"Point"},"properties":{"osm_id":"6121091541","tag":{"amenity":"waste_basket","waste":"trash"}},"type":"Feature"},
	{"geometry":{"coordinates":[8.799242,51.997147],"type":"Point"},"properties":{"osm_id":"6515176459","tag":{"amenity":"waste_basket","waste":"trash"}},"type":"Feature"},
	{"geometry":{"coordinates":[8.799312,51.997208],"type":"Point"},"properties":{"osm_id":"6515176460","tag":{"amenity":"waste_basket","waste":"trash"}},"type":"Feature"},
	{"geometry":{"coordinates":[8.798935,51.997327],"type":"Point"},"properties":{"osm_id":"6515176463","tag":{"amenity":"waste_basket","waste":"trash"}},"type":"Feature"},
	{"geometry":{"coordinates":[8.799142,51.997431],"type":"Point"},"properties":{"osm_id":"6515176468","tag":{"amenity":"waste_basket","waste":"trash"}},"type":"Feature"},
	{"geometry":{"coordinates":[8.842838,51.984596],"type":"Point"},"properties":{"osm_id":"6537402185","tag":{"amenity":"waste_basket","waste":"trash"}},"type":"Feature"},
	{"geometry":{"coordinates":[8.842838,51.984651],"type":"Point"},"properties":{"osm_id":"6537402203","tag":{"amenity":"waste_basket","waste":"trash"}},"type":"Feature"}
]
}
