{
"type": "FeatureCollection",
"features": [
	{"geometry":{"coordinates":[8.849206,51.925329],"type":"Point"},"properties":{"osm_id":"383339300","tag":{"amenity":"recycling","recycling_type":"container"}},"type":"Feature"},
	{"geometry":{"coordinates":[8.861244,51.934899],"type":"Point"},"properties":{"osm_id":"386051986","tag":{"amenity":"recycling","recycling_type":"container"}},"type":"Feature"},
	{"geometry":{"coordinates":[8.867235,51.939566],"type":"Point"},"properties":{"osm_id":"393740492","tag":{"amenity":"recycling","recycling_type":"container"}},"type":"Feature"},
	{"geometry":{"coordinates":[8.875752,51.909884],"type":"Point"},"properties":{"osm_id":"417729277","tag":{"amenity":"recycling","recycling:clothes":"yes","recycling:glass":"yes","recycling_type":"container"}},"type":"Feature"},
	{"geometry":{"coordinates":[8.870935,51.915999],"type":"Point"},"properties":{"osm_id":"417729280","tag":{"amenity":"recycling","recycling:glass":"yes","recycling_type":"container"}},"type":"Feature"},
	{"geometry":{"coordinates":[8.828962,51.942745],"type":"Point"},"properties":{"osm_id":"428634240","tag":{"amenity":"recycling","recycling:glass":"yes","recycling_type":"container"}},"type":"Feature"},
	{"geometry":{"coordinates":[8.874236,51.93676],"type":"Point"},"properties":{"osm_id":"436164783","tag":{"amenity":"recycling","recycling:glass_bottles":"yes","recycling_type":"container"}},"type":"Feature"},
	{"geometry":{"coordinates":[8.811841,51.942756],"type":"Point"},"properties":{"osm_id":"443613119","tag":{"amenity":"recycling","recycling:glass":"yes","recycling_type":"container"}},"type":"Feature"},
	{"geometry":{"coordinates":[8.858934,51.903637],"type":"Point"},"properties":{"osm_id":"528979057","ref":"Glas","tag":{"amenity":"recycling","recycling:glass":"yes","recycling_type":"container"}},"type":"Feature"},
	{"geometry":{"coordinates":[8.856954,51.900104],"type":"Point"},"properties":{"osm_id":"528979330","ref":"Glas","tag":{"amenity":"recycling","recycling_type":"container"}},"type":"Feature"},
	{"geometry":{"coordinates":[8.865318,51.931233],"type":"Point"},"properties":{"osm_id":"986522562","tag":{"amenity":"recycling","recycling_type":"container"}},"type":"Feature"},
	{"geometry":{"coordinates":[8.870167,51.935968],"type":"Point"},"properties":{"osm_id":"1033491141","tag":{"amenity":"recycling","recycling_type":"container"}},"type":"Feature"},
	{"geometry":{"coordinates":[8.859519,51.939324],"type":"Point"},"properties":{"osm_id":"1307728243","tag":{"amenity":"recycling","recycling:glass":"yes","recycling_type":"container"}},"type":"Feature"},
	{"geometry":{"coordinates":[8.856962,51.938785],"type":"Point"},"properties":{"osm_id":"1307728619","tag":{"amenity":"recycling","recycling:glass":"yes","recycling_type":"container"}},"type":"Feature"},
	{"geometry":{"coordinates":[8.844136,51.939387],"type":"Point"},"properties":{"osm_id":"1318829922","tag":{"amenity":"recycling","recycling:glass":"yes","recycling_type":"container"}},"type":"Feature"},
	{"geometry":{"coordinates":[8.870136,51.891829],"type":"Point"},"properties":{"osm_id":"1438769011","tag":{"amenity":"recycling","recycling:glass_bottles":"yes","recycling_type":"container"}},"type":"Feature"},
	{"geometry":{"coordinates":[8.862808,51.92287],"type":"Point"},"properties":{"osm_id":"1856469309","tag":{"amenity":"recycling","recycling:clothes":"yes","recycling:glass_bottles":"yes","recycling_type":"container"}},"type":"Feature"},
	{"geometry":{"coordinates":[8.830818,51.924072],"type":"Point"},"properties":{"osm_id":"1858273551","tag":{"amenity":"recycling","recycling:cans":"yes","recycling:glass_bottles":"yes","recycling_type":"container"}},"type":"Feature"},
	{"geometry":{"coordinates":[8.875977,51.914756],"type":"Point"},"properties":{"osm_id":"2048567671","tag":{"amenity":"waste_basket"}},"type":"Feature"},
	{"geometry":{"coordinates":[8.875534,51.91797],"type":"Point"},"properties":{"osm_id":"2048567689","tag":{"amenity":"waste_basket"}},"type":"Feature"},
	{"geometry":{"coordinates":[8.873062,51.929431],"type":"Point"},"properties":{"osm_id":"2227035245","tag":{"amenity":"waste_disposal"}},"type":"Feature"},
	{"geometry":{"coordinates":[8.840312,51.907368],"type":"Point"},"properties":{"osm_id":"2415810440","tag":{"amenity":"waste_basket"}},"type":"Feature"},
	{"geometry":{"coordinates":[8.876368,51.918608],"type":"Point"},"properties":{"osm_id":"2467474036","tag":{"amenity":"waste_basket"}},"type":"Feature"},
	{"geometry":{"coordinates":[8.876092,51.91876],"type":"Point"},"properties":{"osm_id":"2467474041","tag":{"amenity":"waste_basket"}},"type":"Feature"},
	{"geometry":{"coordinates":[8.872446,51.920159],"type":"Point"},"properties":{"osm_id":"2467474046","tag":{"amenity":"waste_basket"}},"type":"Feature"},
	{"geometry":{"coordinates":[8.872412,51.921037],"type":"Point"},"properties":{"osm_id":"2467474059","tag":{"amenity":"waste_basket"}},"type":"Feature"},
	{"geometry":{"coordinates":[8.873319,51.922035],"type":"Point"},"properties":{"osm_id":"2467474065","tag":{"amenity":"waste_basket"}},"type":"Feature"},
	{"geometry":{"coordinates":[8.872896,51.922163],"type":"Point"},"properties":{"osm_id":"2467474077","tag":{"amenity":"waste_basket"}},"type":"Feature"},
	{"geometry":{"coordinates":[8.804884,51.92732],"type":"Point"},"properties":{"osm_id":"2770041085","tag":{"amenity":"waste_basket"}},"type":"Feature"},
	{"geometry":{"coordinates":[8.80495,51.927353],"type":"Point"},"properties":{"osm_id":"2770041094","tag":{"amenity":"waste_basket"}},"type":"Feature"},
	{"geometry":{"coordinates":[8.805106,51.927376],"type":"Point"},"properties":{"osm_id":"2770041098","tag":{"amenity":"waste_basket"}},"type":"Feature"},
	{"geometry":{"coordinates":[8.804649,51.937012],"type":"Point"},"properties":{"osm_id":"2770108955","tag":{"amenity":"waste_basket"}},"type":"Feature"},
	{"geometry":{"coordinates":[8.791385,51.932509],"type":"Point"},"properties":{"osm_id":"2829327420","tag":{"amenity":"waste_basket","backrest":"yes"}},"type":"Feature"},
	{"geometry":{"coordinates":[8.801576,51.935697],"type":"Point"},"properties":{"osm_id":"2988257441","tag":{"amenity":"waste_basket","tourism":"picnic_site"}},"type":"Feature"},
	{"geometry":{"coordinates":[8.847055,51.932408],"type":"Point"},"properties":{"osm_id":"3119116116","tag":{"amenity":"recycling","recycling:glass":"yes","recycling_type":"container"}},"type":"Feature"},
	{"geometry":{"coordinates":[8.84477,51.926517],"type":"Point"},"properties":{"osm_id":"3119123273","tag":{"amenity":"recycling","recycling:glass":"yes","recycling_type":"container"}},"type":"Feature"},
	{"geometry":{"coordinates":[8.866236,51.936279],"type":"Point"},"properties":{"osm_id":"3383999534","tag":{"amenity":"waste_basket"}},"type":"Feature"},
	{"geometry":{"coordinates":[8.865992,51.936293],"type":"Point"},"properties":{"osm_id":"3383999535","tag":{"amenity":"waste_basket"}},"type":"Feature"},
	{"geometry":{"coordinates":[8.866262,51.936397],"type":"Point"},"properties":{"osm_id":"3383999536","tag":{"amenity":"waste_basket"}},"type":"Feature"},
	{"geometry":{"coordinates":[8.865516,51.936611],"type":"Point"},"properties":{"osm_id":"3383999548","tag":{"amenity":"waste_basket"}},"type":"Feature"},
	{"geometry":{"coordinates":[8.805777,51.937277],"type":"Point"},"properties":{"osm_id":"3660359020","tag":{"amenity":"waste_basket"}},"type":"Feature"},
	{"geometry":{"coordinates":[8.806016,51.937639],"type":"Point"},"properties":{"osm_id":"3660359327","tag":{"amenity":"waste_basket"}},"type":"Feature"},
	{"geometry":{"coordinates":[8.812176,51.921071],"type":"Point"},"properties":{"osm_id":"3660732487","tag":{"amenity":"waste_basket"}},"type":"Feature"},
	{"geometry":{"coordinates":[8.811831,51.921101],"type":"Point"},"properties":{"osm_id":"3660732489","tag":{"amenity":"waste_basket"}},"type":"Feature"},
	{"geometry":{"coordinates":[8.812026,51.921114],"type":"Point"},"properties":{"osm_id":"3660732491","tag":{"amenity":"waste_basket"}},"type":"Feature"},
	{"geometry":{"coordinates":[8.805945,51.922644],"type":"Point"},"properties":{"osm_id":"3660732503","tag":{"amenity":"waste_basket"}},"type":"Feature"},
	{"geometry":{"coordinates":[8.812997,51.923549],"type":"Point"},"properties":{"osm_id":"3660732506","tag":{"amenity":"waste_basket"}},"type":"Feature"},
	{"geometry":{"coordinates":[8.86255,51.93469],"type":"Point"},"properties":{"osm_id":"3675701039","tag":{"amenity":"waste_basket","material":"metal"}},"type":"Feature"},
	{"geometry":{"coordinates":[8.871966,51.940705],"type":"Point"},"properties":{"osm_id":"3677511751","tag":{"amenity":"waste_basket"}},"type":"Feature"},
	{"geometry":{"coordinates":[8.873883,51.940179],"type":"Point"},"properties":{"osm_id":"3678671542","tag":{"amenity":"waste_basket"}},"type":"Feature"},
	{"geometry":{"coordinates":[8.853721,51.932713],"type":"Point"},"properties":{"osm_id":"3698560549","tag":{"amenity":"recycling","recycling:glass":"yes","recycling_type":"container"}},"type":"Feature"},
	{"geometry":{"coordinates":[8.873824,51.942783],"type":"Point"},"properties":{"osm_id":"3698844576","tag":{"amenity":"waste_basket"}},"type":"Feature"},
	{"geometry":{"coordinates":[8.873953,51.941714],"type":"Point"},"properties":{"osm_id":"3699908546","tag":{"amenity":"waste_basket"}},"type":"Feature"},
	{"geometry":{"coordinates":[8.873728,51.939971],"type":"Point"},"properties":{"osm_id":"3830041318","tag":{"amenity":"waste_basket"}},"type":"Feature"},
	{"geometry":{"coordinates":[8.873756,51.940015],"type":"Point"},"properties":{"osm_id":"3830041319","tag":{"amenity":"waste_basket"}},"type":"Feature"},
	{"geometry":{"coordinates":[8.87334,51.940115],"type":"Point"},"properties":{"osm_id":"3830041323","tag":{"amenity":"waste_basket"}},"type":"Feature"},
	{"geometry":{"coordinates":[8.872988,51.940194],"type":"Point"},"properties":{"osm_id":"3838719166","tag":{"amenity":"waste_basket"}},"type":"Feature"},
	{"geometry":{"coordinates":[8.87485,51.939681],"type":"Point"},"properties":{"osm_id":"4207869118","tag":{"amenity":"waste_basket"}},"type":"Feature"},
	{"geometry":{"coordinates":[8.874879,51.939725],"type":"Point"},"properties":{"osm_id":"4207869119","tag":{"amenity":"waste_basket"}},"type":"Feature"},
	{"geometry":{"coordinates":[8.874461,51.939777],"type":"Point"},"properties":{"osm_id":"4207869122","tag":{"amenity":"waste_basket"}},"type":"Feature"},
	{"geometry":{"coordinates":[8.874492,51.939821],"type":"Point"},"properties":{"osm_id":"4207869125","tag":{"amenity":"waste_basket"}},"type":"Feature"},
	{"geometry":{"coordinates":[8.84079,51.943542],"type":"Point"},"properties":{"osm_id":"4732152607","tag":{"amenity":"recycling","recycling_type":"container"}},"type":"Feature"},
	{"geometry":{"coordinates":[8.867211,51.939584],"type":"Point"},"properties":{"osm_id":"4732167445","tag":{"amenity":"recycling","recycling_type":"container"}},"type":"Feature"},
	{"geometry":{"coordinates":[8.841965,51.910303],"type":"Point"},"properties":{"osm_id":"5588117297","tag":{"amenity":"waste_basket"}},"type":"Feature"},
	{"geometry":{"coordinates":[8.873252,51.939716],"type":"Point"},"properties":{"osm_id":"5870470214","tag":{"amenity":"waste_basket"}},"type":"Feature"},
	{"geometry":{"coordinates":[8.875865,51.931493],"type":"Point"},"properties":{"osm_id":"6257647654","tag":{"amenity":"waste_basket"}},"type":"Feature"},
	{"geometry":{"coordinates":[8.876212,51.931892],"type":"Point"},"properties":{"osm_id":"6257647655","tag":{"amenity":"waste_basket"}},"type":"Feature"},
	{"geometry":{"coordinates":[8.875439,51.935824],"type":"Point"},"properties":{"osm_id":"6435602922","tag":{"amenity":"waste_basket"}},"type":"Feature"},
	{"geometry":{"coordinates":[8.866307,51.943446],"type":"Point"},"properties":{"osm_id":"6436662326","tag":{"amenity":"recycling","recycling:clothes":"yes","recycling_type":"container"}},"type":"Feature"},
	{"geometry":{"coordinates":[8.87445,51.911541],"type":"Point"},"properties":{"osm_id":"6437060478","tag":{"amenity":"waste_basket"}},"type":"Feature"},
	{"geometry":{"coordinates":[8.861693,51.940596],"type":"Point"},"properties":{"osm_id":"6463242446","tag":{"amenity":"recycling","recycling:glass":"yes","recycling_type":"container"}},"type":"Feature"},
	{"geometry":{"coordinates":[8.841194,51.906825],"type":"Point"},"properties":{"osm_id":"6896894103","tag":{"amenity":"waste_basket"}},"type":"Feature"},
	{"geometry":{"coordinates":[8.84183,51.906561],"type":"Point"},"properties":{"osm_id":"6896894104","tag":{"amenity":"waste_basket"}},"type":"Feature"},
	{"geometry":{"coordinates":[8.830941,51.924067],"type":"Point"},"properties":{"osm_id":"6898628539","tag":{"amenity":"waste_basket"}},"type":"Feature"},
	{"geometry":{"coordinates":[8.851703,51.932363],"type":"Point"},"properties":{"osm_id":"7254761085","tag":{"amenity":"waste_basket"}},"type":"Feature"},
	{"geometry":{"coordinates":[8.8765,51.933365],"type":"Point"},"properties":{"osm_id":"7590485777","tag":{"amenity":"recycling","recycling:glass_bottles":"yes","recycling_type":"container"}},"type":"Feature"},
	{"geometry":{"coordinates":[8.81751,51.935669],"type":"Point"},"properties":{"osm_id":"7917335991","tag":{"amenity":"waste_basket","waste":"trash"}},"type":"Feature"}
]
}
