{
"type": "FeatureCollection",
"features": [
	{"geometry":{"coordinates":[8.813349,51.779661],"type":"Point"},"properties":{"osm_id":"302399701","tag":{"amenity":"recycling","recycling:clothes":"yes","recycling:glass":"yes","recycling_type":"container"}},"type":"Feature"},
	{"geometry":{"coordinates":[8.816276,51.779703],"type":"Point"},"properties":{"osm_id":"302399706","tag":{"amenity":"recycling","recycling:glass_bottles":"yes","recycling_type":"container"}},"type":"Feature"},
	{"geometry":{"coordinates":[8.804736,51.774992],"type":"Point"},"properties":{"osm_id":"376027541","tag":{"amenity":"recycling","recycling:clothes":"yes","recycling:glass_bottles":"yes","recycling_type":"container"}},"type":"Feature"},
	{"geometry":{"coordinates":[8.849341,51.743813],"type":"Point"},"properties":{"osm_id":"524875606","tag":{"amenity":"recycling","recycling:clothes":"yes","recycling:electrical_items":"yes","recycling:glass":"no","recycling:glass_bottles":"yes","recycling_type":"container"}},"type":"Feature"},
	{"geometry":{"coordinates":[8.831218,51.741438],"type":"Point"},"properties":{"osm_id":"712730829","tag":{"amenity":"recycling","recycling:clothes":"yes","recycling:glass_bottles":"yes","recycling_type":"container"}},"type":"Feature"},
	{"geometry":{"coordinates":[8.805384,51.773976],"type":"Point"},"properties":{"osm_id":"899275356","tag":{"amenity":"waste_basket","waste":"trash"}},"type":"Feature"},
	{"geometry":{"coordinates":[8.822954,51.779631],"type":"Point"},"properties":{"osm_id":"949681482","tag":{"amenity":"recycling","recycling:clothes":"yes","recycling_type":"container"}},"type":"Feature"},
	{"geometry":{"coordinates":[8.81816,51.738024],"type":"Point"},"properties":{"osm_id":"1136328557","tag":{"amenity":"recycling","recycling:glass_bottles":"yes","recycling_type":"container"}},"type":"Feature"},
	{"geometry":{"coordinates":[8.854574,51.750041],"type":"Point"},"properties":{"osm_id":"1149105478","tag":{"amenity":"recycling","recycling:clothes":"yes","recycling:glass":"yes","recycling_type":"container"}},"type":"Feature"},
	{"geometry":{"coordinates":[8.80473,51.779825],"type":"Point"},"properties":{"osm_id":"1171145407","tag":{"amenity":"recycling","recycling:clothes":"yes","recycling:glass_bottles":"yes","recycling_type":"container"}},"type":"Feature"},
	{"geometry":{"coordinates":[8.823634,51.739381],"type":"Point"},"properties":{"osm_id":"1367145636","tag":{"amenity":"waste_basket"}},"type":"Feature"},
	{"geometry":{"coordinates":[8.823524,51.739418],"type":"Point"},"properties":{"osm_id":"1367145644","tag":{"amenity":"waste_basket"}},"type":"Feature"},
	{"geometry":{"coordinates":[8.817332,51.780389],"type":"Point"},"properties":{"osm_id":"1460385265","tag":{"amenity":"waste_basket"}},"type":"Feature"},
	{"geometry":{"coordinates":[8.817619,51.780473],"type":"Point"},"properties":{"osm_id":"1460385274","tag":{"amenity":"waste_basket"}},"type":"Feature"},
	{"geometry":{"coordinates":[8.821523,51.780461],"type":"Point"},"properties":{"osm_id":"1471361466","tag":{"amenity":"waste_basket"}},"type":"Feature"},
	{"geometry":{"coordinates":[8.789814,51.771094],"type":"Point"},"properties":{"osm_id":"1496343361","tag":{"amenity":"waste_basket"}},"type":"Feature"},
	{"geometry":{"coordinates":[8.822968,51.740268],"type":"Point"},"properties":{"osm_id":"1631985485","tag":{"amenity":"recycling","recycling:glass":"yes","recycling:paper":"yes","recycling_type":"container"}},"type":"Feature"},
	{"geometry":{"coordinates":[8.795199,51.777021],"type":"Point"},"properties":{"osm_id":"1666720884","tag":{"amenity":"recycling","recycling:glass_bottles":"yes","recycling_type":"container"}},"type":"Feature"},
	{"geometry":{"coordinates":[8.861028,51.772666],"type":"Point"},"properties":{"osm_id":"1691182902","tag":{"amenity":"waste_basket"}},"type":"Feature"},
	{"geometry":{"coordinates":[8.810145,51.779173],"type":"Point"},"properties":{"osm_id":"1716953699","tag":{"amenity":"recycling","recycling:clothes":"yes","recycling_type":"container"}},"type":"Feature"},
	{"geometry":{"coordinates":[8.805672,51.778923],"type":"Point"},"properties":{"osm_id":"1845157684","tag":{"amenity":"waste_basket"}},"type":"Feature"},
	{"geometry":{"coordinates":[8.826786,51.742929],"type":"Point"},"properties":{"osm_id":"1972214196","tag":{"amenity":"waste_basket"}},"type":"Feature"},
	{"geometry":{"coordinates":[8.826418,51.743049],"type":"Point"},"properties":{"osm_id":"1972214220","tag":{"amenity":"waste_basket"}},"type":"Feature"},
	{"geometry":{"coordinates":[8.851247,51.774518],"type":"Point"},"properties":{"osm_id":"2128338185","tag":{"amenity":"waste_basket"}},"type":"Feature"},
	{"geometry":{"coordinates":[8.793942,51.766771],"type":"Point"},"properties":{"osm_id":"2179624506","tag":{"amenity":"recycling","recycling:clothes":"yes","recycling:glass":"yes","recycling_type":"container"}},"type":"Feature"},
	{"geometry":{"coordinates":[8.813186,51.777549],"type":"Point"},"properties":{"osm_id":"2208527356","tag":{"amenity":"waste_basket"}},"type":"Feature"},
	{"geometry":{"coordinates":[8.814533,51.777561],"type":"Point"},"properties":{"osm_id":"2208527363","tag":{"amenity":"waste_basket"}},"type":"Feature"},
	{"geometry":{"coordinates":[8.817848,51.779575],"type":"Point"},"properties":{"osm_id":"2209048318","tag":{"amenity":"waste_basket"}},"type":"Feature"},
	{"geometry":{"coordinates":[8.813233,51.776683],"type":"Point"},"properties":{"osm_id":"2259950362","tag":{"amenity":"waste_basket"}},"type":"Feature"},
	{"geometry":{"coordinates":[8.80526,51.78058],"type":"Point"},"properties":{"osm_id":"2274487356","tag":{"amenity":"waste_basket"}},"type":"Feature"},
	{"geometry":{"coordinates":[8.805355,51.780642],"type":"Point"},"properties":{"osm_id":"2274487359","tag":{"amenity":"waste_basket"}},"type":"Feature"},
	{"geometry":{"coordinates":[8.822856,51.77959],"type":"Point"},"properties":{"osm_id":"2370595582","tag":{"amenity":"waste_basket"}},"type":"Feature"},
	{"geometry":{"coordinates":[8.821944,51.780385],"type":"Point"},"properties":{"osm_id":"2370595640","tag":{"amenity":"waste_basket"}},"type":"Feature"},
	{"geometry":{"coordinates":[8.799089,51.746743],"type":"Point"},"properties":{"osm_id":"2836200001","tag":{"amenity":"waste_basket"}},"type":"Feature"},
	{"geometry":{"coordinates":[8.80611,51.779634],"type":"Point"},"properties":{"osm_id":"2889662907","tag":{"amenity":"waste_basket"}},"type":"Feature"},
	{"geometry":{"coordinates":[8.828128,51.77697],"type":"Point"},"properties":{"osm_id":"2942225373","tag":{"amenity":"waste_basket"}},"type":"Feature"},
	{"geometry":{"coordinates":[8.857619,51.743555],"type":"Point"},"properties":{"osm_id":"3141769445","tag":{"amenity":"recycling","recycling:clothes":"yes","recycling:glass":"yes","recycling:paper":"yes","recycling_type":"container"}},"type":"Feature"},
	{"geometry":{"coordinates":[8.796905,51.767424],"type":"Point"},"properties":{"osm_id":"3149835228","tag":{"amenity":"waste_basket"}},"type":"Feature"},
	{"geometry":{"coordinates":[8.827181,51.740616],"type":"Point"},"properties":{"osm_id":"3167789758","tag":{"amenity":"recycling","recycling:clothes":"yes","recycling_type":"container"}},"type":"Feature"},
	{"geometry":{"coordinates":[8.804334,51.775656],"type":"Point"},"properties":{"osm_id":"3492936987","tag":{"amenity":"recycling","recycling:clothes":"yes","recycling_type":"container"}},"type":"Feature"},
	{"geometry":{"coordinates":[8.815391,51.742624],"type":"Point"},"properties":{"osm_id":"3807667858","tag":{"amenity":"waste_basket"}},"type":"Feature"},
	{"geometry":{"coordinates":[8.81548,51.742846],"type":"Point"},"properties":{"osm_id":"3807667864","tag":{"amenity":"waste_basket"}},"type":"Feature"},
	{"geometry":{"coordinates":[8.815583,51.743093],"type":"Point"},"properties":{"osm_id":"3807667881","tag":{"amenity":"waste_basket"}},"type":"Feature"},
	{"geometry":{"coordinates":[8.815666,51.743278],"type":"Point"},"properties":{"osm_id":"3807667900","tag":{"amenity":"waste_basket"}},"type":"Feature"},
	{"geometry":{"coordinates":[8.818131,51.777779],"type":"Point"},"properties":{"osm_id":"4634018864","tag":{"amenity":"recycling","recycling:glass_bottles":"yes","recycling_type":"container"}},"type":"Feature"},
	{"geometry":{"coordinates":[8.822465,51.780882],"type":"Point"},"properties":{"osm_id":"4767184411","tag":{"amenity":"waste_basket"}},"type":"Feature"},
	{"geometry":{"coordinates":[8.797925,51.775987],"type":"Point"},"properties":{"osm_id":"4899384959","tag":{"amenity":"waste_basket"}},"type":"Feature"},
	{"geometry":{"coordinates":[8.822964,51.780119],"type":"Point"},"properties":{"osm_id":"5189963305","tag":{"amenity":"recycling","recycling:clothes":"yes","recycling:glass_bottles":"yes","recycling_type":"container"}},"type":"Feature"},
	{"geometry":{"coordinates":[8.821792,51.774339],"type":"Point"},"properties":{"osm_id":"5430606276","tag":{"amenity":"waste_basket"}},"type":"Feature"},
	{"geometry":{"coordinates":[8.822315,51.774325],"type":"Point"},"properties":{"osm_id":"5430606289","tag":{"amenity":"waste_basket"}},"type":"Feature"},
	{"geometry":{"coordinates":[8.823355,51.776162],"type":"Point"},"properties":{"osm_id":"5430606294","tag":{"amenity":"waste_basket"}},"type":"Feature"},
	{"geometry":{"coordinates":[8.814433,51.780574],"type":"Point"},"properties":{"osm_id":"5507061179","tag":{"amenity":"waste_basket"}},"type":"Feature"},
	{"geometry":{"coordinates":[8.817658,51.7788],"type":"Point"},"properties":{"osm_id":"5550094308","tag":{"amenity":"waste_basket"}},"type":"Feature"},
	{"geometry":{"coordinates":[8.815425,51.781058],"type":"Point"},"properties":{"osm_id":"6006460108","tag":{"amenity":"waste_basket"}},"type":"Feature"},
	{"geometry":{"coordinates":[8.789285,51.729756],"type":"Point"},"properties":{"osm_id":"6128166877","tag":{"amenity":"recycling","operator":"Deutsches Rotes Kreuz","recycling:clothes":"yes","recycling_type":"container"}},"type":"Feature"},
	{"geometry":{"coordinates":[8.820952,51.780465],"type":"Point"},"properties":{"osm_id":"6139129986","tag":{"amenity":"waste_basket"}},"type":"Feature"},
	{"geometry":{"coordinates":[8.821134,51.780471],"type":"Point"},"properties":{"osm_id":"6139129987","tag":{"amenity":"waste_basket"}},"type":"Feature"},
	{"geometry":{"coordinates":[8.83203,51.739197],"type":"Point"},"properties":{"osm_id":"6379662835","tag":{"amenity":"waste_basket"}},"type":"Feature"},
	{"geometry":{"coordinates":[8.816873,51.740278],"type":"Point"},"properties":{"osm_id":"6410420150","tag":{"amenity":"waste_basket"}},"type":"Feature"},
	{"geometry":{"coordinates":[8.818595,51.780503],"type":"Point"},"properties":{"osm_id":"6660946844","tag":{"amenity":"waste_basket"}},"type":"Feature"},
	{"geometry":{"coordinates":[8.8046,51.773838],"type":"Point"},"properties":{"osm_id":"7049646393","tag":{"amenity":"waste_basket","waste":"trash"}},"type":"Feature"},
	{"geometry":{"coordinates":[8.806073,51.773373],"type":"Point"},"properties":{"osm_id":"7049707661","tag":{"amenity":"waste_basket","waste":"trash"}},"type":"Feature"},
	{"geometry":{"coordinates":[8.794811,51.774185],"type":"Point"},"properties":{"osm_id":"8696867509","tag":{"amenity":"waste_basket"}},"type":"Feature"},
	{"geometry":{"coordinates":[8.797536,51.777498],"type":"Point"},"properties":{"osm_id":"9051406097","tag":{"amenity":"waste_basket"}},"type":"Feature"},
	{"geometry":{"coordinates":[8.813132,51.773515],"type":"Point"},"properties":{"osm_id":"9135911637","tag":{"amenity":"waste_basket"}},"type":"Feature"}
]
}
