{
"type": "FeatureCollection",
"features": [
	{"geometry":{"coordinates":[8.8534,51.696266],"type":"Point"},"properties":{"osm_id":"302276919","tag":{"amenity":"recycling","recycling:clothes":"yes","recycling:glass_bottles":"yes","recycling:paper":"yes","recycling_type":"container"}},"type":"Feature"},
	{"geometry":{"coordinates":[8.849282,51.693697],"type":"Point"},"properties":{"osm_id":"306625763","tag":{"amenity":"recycling","recycling:glass_bottles":"yes","recycling_type":"container"}},"type":"Feature"},
	{"geometry":{"coordinates":[8.79326,51.711508],"type":"Point"},"properties":{"osm_id":"343442607","tag":{"amenity":"recycling","mapillary":"MVLIJ8nnlylvqLXoTd_ytA","recycling:clothes":"yes","recycling:glass":"yes","recycling_type":"container","survey:date":"2017-08-15"}},"type":"Feature"},
	{"geometry":{"coordinates":[8.802219,51.718466],"type":"Point"},"properties":{"osm_id":"343442624","tag":{"amenity":"recycling","recycling:electrical_items":"yes","recycling:glass":"yes","recycling_type":"container"}},"type":"Feature"},
	{"geometry":{"coordinates":[8.794367,51.712826],"type":"Point"},"properties":{"osm_id":"422706214","tag":{"amenity":"recycling","recycling:clothes":"yes","recycling:glass":"yes","recycling_type":"container"}},"type":"Feature"},
	{"geometry":{"coordinates":[8.801913,51.711095],"type":"Point"},"properties":{"osm_id":"564728770","tag":{"amenity":"recycling","recycling:glass":"yes","recycling_type":"container"}},"type":"Feature"},
	{"geometry":{"coordinates":[8.801811,51.713826],"type":"Point"},"properties":{"osm_id":"564728809","tag":{"amenity":"recycling","recycling:glass":"yes"}},"type":"Feature"},
	{"geometry":{"coordinates":[8.793213,51.715482],"type":"Point"},"properties":{"osm_id":"568551917","tag":{"amenity":"recycling","recycling:clothes":"yes","recycling:glass":"yes","recycling_type":"container"}},"type":"Feature"},
	{"geometry":{"coordinates":[8.808566,51.721252],"type":"Point"},"properties":{"osm_id":"742514312","tag":{"amenity":"recycling","recycling:glass":"yes","recycling_type":"container","shelter":"no","tactile_paving":"no"}},"type":"Feature"},
	{"geometry":{"coordinates":[8.856814,51.69377],"type":"Point"},"properties":{"osm_id":"743541705","tag":{"amenity":"recycling","recycling:clothes":"yes","recycling:glass":"yes","recycling_type":"container"}},"type":"Feature"},
	{"geometry":{"coordinates":[8.847901,51.699939],"type":"Point"},"properties":{"osm_id":"743569858","tag":{"amenity":"recycling","recycling:clothes":"yes","recycling:glass":"yes","recycling_type":"container"}},"type":"Feature"},
	{"geometry":{"coordinates":[8.789335,51.713099],"type":"Point"},"properties":{"osm_id":"767272206","tag":{"amenity":"recycling","recycling:glass":"yes","recycling_type":"container"}},"type":"Feature"},
	{"geometry":{"coordinates":[8.817009,51.717937],"type":"Point"},"properties":{"osm_id":"1037065636","tag":{"addr:street":"Driburger Stra\u00c3\u009fe","amenity":"recycling","recycling:batteries":"yes","recycling:cans":"yes","recycling:clothes":"yes","recycling:glass":"yes","recycling:paper":"yes","recycling:scrap_metal":"yes","recycling_type":"centre","website":"https://www.paderborn.de/microsite/asp/abfallentsorgung/sp_auto_12209.php"}},"type":"Feature"},
	{"geometry":{"coordinates":[8.808263,51.712002],"type":"Point"},"properties":{"osm_id":"1337616397","tag":{"amenity":"waste_basket"}},"type":"Feature"},
	{"geometry":{"coordinates":[8.805132,51.714177],"type":"Point"},"properties":{"osm_id":"1337616402","tag":{"amenity":"waste_basket"}},"type":"Feature"},
	{"geometry":{"coordinates":[8.80534,51.713369],"type":"Point"},"properties":{"osm_id":"1337616406","tag":{"amenity":"waste_basket"}},"type":"Feature"},
	{"geometry":{"coordinates":[8.805789,51.711916],"type":"Point"},"properties":{"osm_id":"1337616413","tag":{"amenity":"waste_basket"}},"type":"Feature"},
	{"geometry":{"coordinates":[8.798619,51.716785],"type":"Point"},"properties":{"osm_id":"1343865794","tag":{"amenity":"waste_basket"}},"type":"Feature"},
	{"geometry":{"coordinates":[8.799431,51.716965],"type":"Point"},"properties":{"osm_id":"1343865802","tag":{"amenity":"waste_basket"}},"type":"Feature"},
	{"geometry":{"coordinates":[8.800757,51.716103],"type":"Point"},"properties":{"osm_id":"1343865806","tag":{"amenity":"waste_basket"}},"type":"Feature"},
	{"geometry":{"coordinates":[8.79952,51.716298],"type":"Point"},"properties":{"osm_id":"1343865818","tag":{"amenity":"waste_basket"}},"type":"Feature"},
	{"geometry":{"coordinates":[8.800733,51.716677],"type":"Point"},"properties":{"osm_id":"1343865834","tag":{"amenity":"waste_basket"}},"type":"Feature"},
	{"geometry":{"coordinates":[8.79845,51.716093],"type":"Point"},"properties":{"osm_id":"1343865841","tag":{"amenity":"waste_basket"}},"type":"Feature"},
	{"geometry":{"coordinates":[8.799484,51.716773],"type":"Point"},"properties":{"osm_id":"1343865851","tag":{"amenity":"waste_basket"}},"type":"Feature"},
	{"geometry":{"coordinates":[8.79844,51.71629],"type":"Point"},"properties":{"osm_id":"1343865857","tag":{"amenity":"waste_basket"}},"type":"Feature"},
	{"geometry":{"coordinates":[8.800756,51.716519],"type":"Point"},"properties":{"osm_id":"1343865864","tag":{"amenity":"waste_basket"}},"type":"Feature"},
	{"geometry":{"coordinates":[8.799544,51.715724],"type":"Point"},"properties":{"osm_id":"1343865866","tag":{"amenity":"waste_basket"}},"type":"Feature"},
	{"geometry":{"coordinates":[8.799716,51.716817],"type":"Point"},"properties":{"osm_id":"1343865868","tag":{"amenity":"waste_basket"}},"type":"Feature"},
	{"geometry":{"coordinates":[8.801518,51.715456],"type":"Point"},"properties":{"osm_id":"1355657132","tag":{"amenity":"waste_basket"}},"type":"Feature"},
	{"geometry":{"coordinates":[8.801975,51.715706],"type":"Point"},"properties":{"osm_id":"1355657145","tag":{"amenity":"waste_basket"}},"type":"Feature"},
	{"geometry":{"coordinates":[8.801373,51.715698],"type":"Point"},"properties":{"osm_id":"1355657158","tag":{"amenity":"waste_basket"}},"type":"Feature"},
	{"geometry":{"coordinates":[8.801986,51.71572],"type":"Point"},"properties":{"osm_id":"1355657160","tag":{"amenity":"waste_basket"}},"type":"Feature"},
	{"geometry":{"coordinates":[8.801759,51.715734],"type":"Point"},"properties":{"osm_id":"1355657167","tag":{"amenity":"waste_basket"}},"type":"Feature"},
	{"geometry":{"coordinates":[8.799047,51.718038],"type":"Point"},"properties":{"osm_id":"1355671332","tag":{"amenity":"waste_basket"}},"type":"Feature"},
	{"geometry":{"coordinates":[8.798707,51.719425],"type":"Point"},"properties":{"osm_id":"1355671337","tag":{"amenity":"waste_basket"}},"type":"Feature"},
	{"geometry":{"coordinates":[8.799926,51.719655],"type":"Point"},"properties":{"osm_id":"1355671339","tag":{"amenity":"waste_basket"}},"type":"Feature"},
	{"geometry":{"coordinates":[8.852554,51.689822],"type":"Point"},"properties":{"osm_id":"1586181705","tag":{"amenity":"waste_basket"}},"type":"Feature"},
	{"geometry":{"coordinates":[8.851753,51.689858],"type":"Point"},"properties":{"osm_id":"1586181736","tag":{"amenity":"waste_basket"}},"type":"Feature"},
	{"geometry":{"coordinates":[8.852918,51.690499],"type":"Point"},"properties":{"osm_id":"1586181796","tag":{"amenity":"waste_basket"}},"type":"Feature"},
	{"geometry":{"coordinates":[8.852765,51.690517],"type":"Point"},"properties":{"osm_id":"1586181799","tag":{"amenity":"waste_basket"}},"type":"Feature"},
	{"geometry":{"coordinates":[8.852505,51.69053],"type":"Point"},"properties":{"osm_id":"1586181824","tag":{"amenity":"waste_basket"}},"type":"Feature"},
	{"geometry":{"coordinates":[8.852177,51.690548],"type":"Point"},"properties":{"osm_id":"1586181830","tag":{"amenity":"waste_basket"}},"type":"Feature"},
	{"geometry":{"coordinates":[8.802628,51.721333],"type":"Point"},"properties":{"osm_id":"1653523907","tag":{"amenity":"waste_basket"}},"type":"Feature"},
	{"geometry":{"coordinates":[8.792045,51.723746],"type":"Point"},"properties":{"osm_id":"2184484726","tag":{"amenity":"waste_basket"}},"type":"Feature"},
	{"geometry":{"coordinates":[8.791679,51.723984],"type":"Point"},"properties":{"osm_id":"2184484728","tag":{"amenity":"waste_basket"}},"type":"Feature"},
	{"geometry":{"coordinates":[8.793575,51.715099],"type":"Point"},"properties":{"osm_id":"2252848376","tag":{"amenity":"waste_basket"}},"type":"Feature"},
	{"geometry":{"coordinates":[8.792802,51.714778],"type":"Point"},"properties":{"osm_id":"2258879769","tag":{"amenity":"waste_basket"}},"type":"Feature"},
	{"geometry":{"coordinates":[8.805379,51.723069],"type":"Point"},"properties":{"osm_id":"2268896656","tag":{"amenity":"waste_basket"}},"type":"Feature"},
	{"geometry":{"coordinates":[8.794249,51.713527],"type":"Point"},"properties":{"osm_id":"2289398731","tag":{"amenity":"waste_basket"}},"type":"Feature"},
	{"geometry":{"coordinates":[8.848696,51.688972],"type":"Point"},"properties":{"osm_id":"2321216756","tag":{"amenity":"waste_basket"}},"type":"Feature"},
	{"geometry":{"coordinates":[8.793964,51.713731],"type":"Point"},"properties":{"osm_id":"2418774417","tag":{"amenity":"waste_basket"}},"type":"Feature"},
	{"geometry":{"coordinates":[8.792301,51.713809],"type":"Point"},"properties":{"osm_id":"2418774422","tag":{"amenity":"waste_basket"}},"type":"Feature"},
	{"geometry":{"coordinates":[8.79205,51.714057],"type":"Point"},"properties":{"osm_id":"2418774439","tag":{"amenity":"waste_basket"}},"type":"Feature"},
	{"geometry":{"coordinates":[8.79282,51.714063],"type":"Point"},"properties":{"osm_id":"2418774441","tag":{"amenity":"waste_basket"}},"type":"Feature"},
	{"geometry":{"coordinates":[8.792446,51.714106],"type":"Point"},"properties":{"osm_id":"2418774442","tag":{"amenity":"waste_basket"}},"type":"Feature"},
	{"geometry":{"coordinates":[8.791263,51.713755],"type":"Point"},"properties":{"osm_id":"2474401910","tag":{"amenity":"waste_basket"}},"type":"Feature"},
	{"geometry":{"coordinates":[8.792204,51.714339],"type":"Point"},"properties":{"osm_id":"2474401938","tag":{"amenity":"waste_basket"}},"type":"Feature"},
	{"geometry":{"coordinates":[8.792255,51.714498],"type":"Point"},"properties":{"osm_id":"2474401955","tag":{"amenity":"waste_basket"}},"type":"Feature"},
	{"geometry":{"coordinates":[8.799327,51.714576],"type":"Point"},"properties":{"osm_id":"2567215252","tag":{"amenity":"recycling","recycling:glass":"yes","recycling_type":"container"}},"type":"Feature"},
	{"geometry":{"coordinates":[8.800945,51.719937],"type":"Point"},"properties":{"osm_id":"2577979886","tag":{"amenity":"waste_basket"}},"type":"Feature"},
	{"geometry":{"coordinates":[8.789325,51.707442],"type":"Point"},"properties":{"osm_id":"2684213793","tag":{"amenity":"waste_basket"}},"type":"Feature"},
	{"geometry":{"coordinates":[8.852613,51.699755],"type":"Point"},"properties":{"osm_id":"2710806668","tag":{"amenity":"waste_basket"}},"type":"Feature"},
	{"geometry":{"coordinates":[8.803173,51.724489],"type":"Point"},"properties":{"osm_id":"2867718836","tag":{"amenity":"waste_basket"}},"type":"Feature"},
	{"geometry":{"coordinates":[8.796872,51.719381],"type":"Point"},"properties":{"osm_id":"2985817656","tag":{"amenity":"waste_basket"}},"type":"Feature"},
	{"geometry":{"coordinates":[8.797327,51.715901],"type":"Point"},"properties":{"osm_id":"3097004647","tag":{"amenity":"recycling","recycling:glass":"yes","recycling_type":"container"}},"type":"Feature"},
	{"geometry":{"coordinates":[8.853761,51.696135],"type":"Point"},"properties":{"osm_id":"3287782867","tag":{"amenity":"waste_basket"}},"type":"Feature"},
	{"geometry":{"coordinates":[8.797431,51.710662],"type":"Point"},"properties":{"osm_id":"3651134750","tag":{"amenity":"recycling","recycling:glass":"yes","recycling_type":"container"}},"type":"Feature"},
	{"geometry":{"coordinates":[8.795268,51.711649],"type":"Point"},"properties":{"osm_id":"3651134761","tag":{"amenity":"waste_basket"}},"type":"Feature"},
	{"geometry":{"coordinates":[8.795318,51.711868],"type":"Point"},"properties":{"osm_id":"3651134767","tag":{"amenity":"waste_basket"}},"type":"Feature"},
	{"geometry":{"coordinates":[8.789943,51.716201],"type":"Point"},"properties":{"osm_id":"3651134800","tag":{"amenity":"waste_basket"}},"type":"Feature"},
	{"geometry":{"coordinates":[8.795311,51.718381],"type":"Point"},"properties":{"osm_id":"3775206055","tag":{"amenity":"waste_basket"}},"type":"Feature"},
	{"geometry":{"coordinates":[8.795801,51.718544],"type":"Point"},"properties":{"osm_id":"3775674662","tag":{"amenity":"waste_basket","material":"metal"}},"type":"Feature"},
	{"geometry":{"coordinates":[8.794447,51.718588],"type":"Point"},"properties":{"osm_id":"3775674669","tag":{"amenity":"waste_basket","colour":"blue","material":"metal"}},"type":"Feature"},
	{"geometry":{"coordinates":[8.795782,51.718728],"type":"Point"},"properties":{"osm_id":"3775674684","tag":{"amenity":"waste_basket","colour":"blue","material":"metal"}},"type":"Feature"},
	{"geometry":{"coordinates":[8.794843,51.718775],"type":"Point"},"properties":{"osm_id":"3775674690","tag":{"amenity":"waste_basket","colour":"blue","material":"metal"}},"type":"Feature"},
	{"geometry":{"coordinates":[8.794134,51.718872],"type":"Point"},"properties":{"osm_id":"3775674696","tag":{"amenity":"waste_basket","colour":"blue","material":"metal"}},"type":"Feature"},
	{"geometry":{"coordinates":[8.795478,51.718954],"type":"Point"},"properties":{"osm_id":"3775674705","tag":{"amenity":"waste_basket","colour":"blue","material":"metal"}},"type":"Feature"},
	{"geometry":{"coordinates":[8.793979,51.719218],"type":"Point"},"properties":{"osm_id":"3775674718","tag":{"amenity":"waste_basket","colour":"blue","material":"metal"}},"type":"Feature"},
	{"geometry":{"coordinates":[8.789068,51.686849],"type":"Point"},"properties":{"osm_id":"3782899267","tag":{"amenity":"waste_basket"}},"type":"Feature"},
	{"geometry":{"coordinates":[8.790449,51.711951],"type":"Point"},"properties":{"osm_id":"3941756863","tag":{"amenity":"waste_basket"}},"type":"Feature"},
	{"geometry":{"coordinates":[8.794037,51.713937],"type":"Point"},"properties":{"osm_id":"3941756891","tag":{"amenity":"waste_basket"}},"type":"Feature"},
	{"geometry":{"coordinates":[8.795136,51.719065],"type":"Point"},"properties":{"osm_id":"4543840072","tag":{"amenity":"waste_basket","colour":"blue","material":"metal"}},"type":"Feature"},
	{"geometry":{"coordinates":[8.792703,51.71443],"type":"Point"},"properties":{"osm_id":"4544571658","tag":{"amenity":"waste_basket"}},"type":"Feature"},
	{"geometry":{"coordinates":[8.795165,51.711964],"type":"Point"},"properties":{"osm_id":"4747856224","tag":{"amenity":"waste_basket"}},"type":"Feature"},
	{"geometry":{"coordinates":[8.802328,51.721437],"type":"Point"},"properties":{"osm_id":"4747872323","tag":{"amenity":"waste_basket"}},"type":"Feature"},
	{"geometry":{"coordinates":[8.796294,51.69641],"type":"Point"},"properties":{"osm_id":"4979511938","tag":{"amenity":"waste_basket"}},"type":"Feature"},
	{"geometry":{"coordinates":[8.789241,51.705884],"type":"Point"},"properties":{"osm_id":"5385265501","tag":{"amenity":"waste_basket"}},"type":"Feature"},
	{"geometry":{"coordinates":[8.795763,51.725403],"type":"Point"},"properties":{"osm_id":"5781482853","tag":{"amenity":"waste_disposal"}},"type":"Feature"},
	{"geometry":{"coordinates":[8.792395,51.725718],"type":"Point"},"properties":{"osm_id":"5795807976","tag":{"amenity":"recycling","recycling:clothes":"yes","recycling_type":"container"}},"type":"Feature"},
	{"geometry":{"coordinates":[8.79771,51.718131],"type":"Point"},"properties":{"osm_id":"6123102523","tag":{"amenity":"waste_basket"}},"type":"Feature"},
	{"geometry":{"coordinates":[8.797495,51.672805],"type":"Point"},"properties":{"osm_id":"6280183965","tag":{"amenity":"waste_basket","waste":"trash"}},"type":"Feature"},
	{"geometry":{"coordinates":[8.794077,51.724293],"type":"Point"},"properties":{"osm_id":"6547240128","tag":{"amenity":"waste_basket"}},"type":"Feature"},
	{"geometry":{"coordinates":[8.794909,51.724661],"type":"Point"},"properties":{"osm_id":"6787454703","tag":{"amenity":"recycling","recycling:clothes":"yes","recycling_type":"container"}},"type":"Feature"},
	{"geometry":{"coordinates":[8.801906,51.715477],"type":"Point"},"properties":{"osm_id":"6871238893","tag":{"amenity":"waste_basket"}},"type":"Feature"},
	{"geometry":{"coordinates":[8.802874,51.715123],"type":"Point"},"properties":{"osm_id":"6873250211","tag":{"amenity":"waste_basket"}},"type":"Feature"},
	{"geometry":{"coordinates":[8.803278,51.715094],"type":"Point"},"properties":{"osm_id":"6873250212","tag":{"amenity":"waste_basket"}},"type":"Feature"},
	{"geometry":{"coordinates":[8.86198,51.689199],"type":"Point"},"properties":{"osm_id":"7141377223","tag":{"amenity":"waste_basket"}},"type":"Feature"},
	{"geometry":{"coordinates":[8.800341,51.722341],"type":"Point"},"properties":{"osm_id":"7438104306","tag":{"amenity":"recycling","recycling:glass_bottles":"yes","recycling_type":"container"}},"type":"Feature"},
	{"geometry":{"coordinates":[8.801913,51.724392],"type":"Point"},"properties":{"osm_id":"7438104307","tag":{"amenity":"waste_basket","waste":"trash"}},"type":"Feature"}
]
}
