{
"type": "FeatureCollection",
"features": [
	{"geometry":{"coordinates":[8.825688,50.821473],"type":"Point"},"properties":{"osm_id":"309143820","tag":{"amenity":"recycling","opening_hours":"Mo-Sa 08:00-12:00,15:00-18:00; Su off; PH off","recycling:clothes":"yes","recycling:glass":"yes","recycling_type":"container"}},"type":"Feature"},
	{"geometry":{"coordinates":[8.83109,50.820701],"type":"Point"},"properties":{"osm_id":"309453042","tag":{"amenity":"recycling","opening_hours":"Mo-Sa 08:00-12:00,15:00-18:00; Su off; PH off","recycling:clothes":"yes","recycling:glass":"yes","recycling_type":"container"}},"type":"Feature"},
	{"geometry":{"coordinates":[8.829339,50.817358],"type":"Point"},"properties":{"osm_id":"2131544487","tag":{"amenity":"recycling","operator":"Kolping","recycling:clothes":"yes","recycling_type":"container"}},"type":"Feature"},
	{"geometry":{"coordinates":[8.808043,50.804651],"type":"Point"},"properties":{"osm_id":"2630377853","tag":{"amenity":"recycling","recycling:glass_bottles":"yes","recycling_type":"container"}},"type":"Feature"},
	{"geometry":{"coordinates":[8.810062,50.811937],"type":"Point"},"properties":{"osm_id":"3891505134","tag":{"access":"private","amenity":"waste_disposal"}},"type":"Feature"},
	{"geometry":{"coordinates":[8.809604,50.804655],"type":"Point"},"properties":{"osm_id":"4145098471","tag":{"amenity":"waste_basket"}},"type":"Feature"},
	{"geometry":{"coordinates":[8.865267,50.812235],"type":"Point"},"properties":{"osm_id":"5375080191","tag":{"amenity":"recycling","opening_hours":"24/7","recycling:glass":"yes","recycling:glass_bottles":"yes","recycling_type":"container"}},"type":"Feature"},
	{"geometry":{"coordinates":[8.857504,50.822621],"type":"Point"},"properties":{"osm_id":"5375080556","tag":{"amenity":"recycling","opening_hours":"24/7","recycling:glass":"yes","recycling:glass_bottles":"yes","recycling_type":"container"}},"type":"Feature"},
	{"geometry":{"coordinates":[8.789129,50.814982],"type":"Point"},"properties":{"osm_id":"6562689617","tag":{"amenity":"waste_basket"}},"type":"Feature"},
	{"geometry":{"coordinates":[8.806683,50.809929],"type":"Point"},"properties":{"osm_id":"6746410756","tag":{"access":"university","amenity":"waste_disposal","operator":"Uni Marburg"}},"type":"Feature"}
]
}
