{
"type": "FeatureCollection",
"features": [
	{"geometry":{"coordinates":[8.823057,50.627096],"type":"Point"},"properties":{"osm_id":"387476063","tag":{"amenity":"recycling","location":"overground","recycling:cans":"yes","recycling:clothes":"yes","recycling:glass":"yes","recycling_type":"container"}},"type":"Feature"},
	{"geometry":{"coordinates":[8.81626,50.628008],"type":"Point"},"properties":{"osm_id":"387476081","tag":{"amenity":"recycling","location":"overground","recycling:clothes":"yes","recycling:glass_bottles":"yes","recycling_type":"container"}},"type":"Feature"},
	{"geometry":{"coordinates":[8.811618,50.675346],"type":"Point"},"properties":{"osm_id":"721201042","tag":{"amenity":"recycling","recycling:clothes":"yes","recycling:shoes":"yes"}},"type":"Feature"},
	{"geometry":{"coordinates":[8.812074,50.675116],"type":"Point"},"properties":{"osm_id":"721201057","tag":{"amenity":"recycling","mapillary":"40hRZ_iT0e20ifumCYX_iQ","recycling:clothes":"yes","recycling:shoes":"yes","recycling_type":"container","survey:date":"2019-07-21"}},"type":"Feature"},
	{"geometry":{"coordinates":[8.815111,50.660704],"type":"Point"},"properties":{"osm_id":"736620754","tag":{"amenity":"recycling","mapillary":"dGD3zqGWHlkCQ9tcjUgJWQ","recycling:clothes":"yes","recycling:glass":"yes","recycling_type":"container","survey:date":"2019-07-21"}},"type":"Feature"},
	{"geometry":{"coordinates":[8.851336,50.657662],"type":"Point"},"properties":{"osm_id":"746581761","tag":{"amenity":"recycling","mapillary":"WRpB0uhDAdnjWpG7umKyLg","recycling:batteries":"no","recycling:cans":"yes","recycling:clothes":"yes","recycling:glass":"yes","recycling_type":"container","survey:date":"2019-08-03"}},"type":"Feature"},
	{"geometry":{"coordinates":[8.824256,50.676341],"type":"Point"},"properties":{"osm_id":"1106401806","tag":{"amenity":"recycling","recycling:clothes":"yes","recycling_type":"container"}},"type":"Feature"},
	{"geometry":{"coordinates":[8.825245,50.676118],"type":"Point"},"properties":{"osm_id":"1106402175","tag":{"amenity":"recycling","recycling:glass":"yes"}},"type":"Feature"},
	{"geometry":{"coordinates":[8.831748,50.673972],"type":"Point"},"properties":{"osm_id":"4370296175","tag":{"amenity":"waste_basket"}},"type":"Feature"},
	{"geometry":{"coordinates":[8.822747,50.67411],"type":"Point"},"properties":{"osm_id":"4372313902","tag":{"amenity":"waste_basket"}},"type":"Feature"},
	{"geometry":{"coordinates":[8.81363,50.671545],"type":"Point"},"properties":{"osm_id":"4771497166","tag":{"amenity":"waste_basket"}},"type":"Feature"},
	{"geometry":{"coordinates":[8.822838,50.627584],"type":"Point"},"properties":{"osm_id":"5157660644","tag":{"amenity":"waste_basket"}},"type":"Feature"},
	{"geometry":{"coordinates":[8.827308,50.631743],"type":"Point"},"properties":{"osm_id":"5157661124","tag":{"amenity":"recycling","recycling:clothes":"yes","recycling_type":"container"}},"type":"Feature"},
	{"geometry":{"coordinates":[8.812464,50.657905],"type":"Point"},"properties":{"osm_id":"5538640274","tag":{"amenity":"waste_basket"}},"type":"Feature"},
	{"geometry":{"coordinates":[8.815499,50.656096],"type":"Point"},"properties":{"osm_id":"5538640289","tag":{"amenity":"waste_basket"}},"type":"Feature"},
	{"geometry":{"coordinates":[8.815777,50.656258],"type":"Point"},"properties":{"osm_id":"5538640290","tag":{"amenity":"waste_basket"}},"type":"Feature"},
	{"geometry":{"coordinates":[8.826907,50.628774],"type":"Point"},"properties":{"osm_id":"5860636085","tag":{"amenity":"waste_basket"}},"type":"Feature"},
	{"geometry":{"coordinates":[8.82423,50.628522],"type":"Point"},"properties":{"osm_id":"5860636093","tag":{"amenity":"waste_basket"}},"type":"Feature"},
	{"geometry":{"coordinates":[8.87642,50.669945],"type":"Point"},"properties":{"osm_id":"6342957223","tag":{"amenity":"waste_basket"}},"type":"Feature"},
	{"geometry":{"coordinates":[8.811813,50.675467],"type":"Point"},"properties":{"osm_id":"6359352418","tag":{"amenity":"waste_basket"}},"type":"Feature"},
	{"geometry":{"coordinates":[8.847341,50.659694],"type":"Point"},"properties":{"osm_id":"6359352443","tag":{"amenity":"waste_basket"}},"type":"Feature"},
	{"geometry":{"coordinates":[8.876304,50.667726],"type":"Point"},"properties":{"osm_id":"6593342735","tag":{"amenity":"waste_basket"}},"type":"Feature"},
	{"geometry":{"coordinates":[8.817118,50.67391],"type":"Point"},"properties":{"osm_id":"6636749795","tag":{"amenity":"waste_basket"}},"type":"Feature"},
	{"geometry":{"coordinates":[8.845779,50.659667],"type":"Point"},"properties":{"osm_id":"6682022763","tag":{"amenity":"waste_basket"}},"type":"Feature"},
	{"geometry":{"coordinates":[8.865904,50.676298],"type":"Point"},"properties":{"osm_id":"6682022769","tag":{"amenity":"waste_basket"}},"type":"Feature"},
	{"geometry":{"coordinates":[8.867342,50.67557],"type":"Point"},"properties":{"osm_id":"6682022771","tag":{"amenity":"waste_basket"}},"type":"Feature"},
	{"geometry":{"coordinates":[8.868043,50.674962],"type":"Point"},"properties":{"osm_id":"6682022773","tag":{"amenity":"waste_basket"}},"type":"Feature"},
	{"geometry":{"coordinates":[8.831962,50.679362],"type":"Point"},"properties":{"osm_id":"7390874215","tag":{"amenity":"waste_basket"}},"type":"Feature"},
	{"geometry":{"coordinates":[8.828333,50.676404],"type":"Point"},"properties":{"osm_id":"7394100098","tag":{"amenity":"waste_basket"}},"type":"Feature"}
]
}
