{
"type": "FeatureCollection",
"features": [
	{"geometry":{"coordinates":[8.794323,50.606864],"type":"Point"},"properties":{"osm_id":"253832087","tag":{"amenity":"recycling","recycling:clothes":"yes","recycling:glass_bottles":"yes","recycling_type":"container"}},"type":"Feature"},
	{"geometry":{"coordinates":[8.796015,50.610308],"type":"Point"},"properties":{"osm_id":"253832135","tag":{"amenity":"recycling","recycling_type":"container"}},"type":"Feature"},
	{"geometry":{"coordinates":[8.819029,50.577131],"type":"Point"},"properties":{"osm_id":"382367529","tag":{"amenity":"recycling","mapillary":"BRDJlL5YHjMfwuBBJy9CnQ","recycling:cans":"no","recycling:clothes":"yes","recycling:glass":"yes","recycling:paper":"yes","recycling_type":"container","survey:date":"2019-05-05"}},"type":"Feature"},
	{"geometry":{"coordinates":[8.803424,50.58329],"type":"Point"},"properties":{"osm_id":"382386151","tag":{"amenity":"recycling","recycling:clothes":"yes","recycling:glass":"yes"}},"type":"Feature"},
	{"geometry":{"coordinates":[8.798545,50.586688],"type":"Point"},"properties":{"osm_id":"390323149","tag":{"amenity":"recycling","mapillary":"yOiDrzytMB5mTsZZwrvwqA","recycling:clothes":"yes","recycling:glass":"yes","recycling_type":"container","survey:date":"2018-07-01"}},"type":"Feature"},
	{"geometry":{"coordinates":[8.845808,50.616691],"type":"Point"},"properties":{"osm_id":"394749112","tag":{"amenity":"recycling","location":"overground","recycling:clothes":"yes","recycling:glass":"yes","recycling_type":"container"}},"type":"Feature"},
	{"geometry":{"coordinates":[8.85351,50.573969],"type":"Point"},"properties":{"osm_id":"395378773","tag":{"amenity":"recycling","recycling:clothes":"yes","recycling:glass":"yes"}},"type":"Feature"},
	{"geometry":{"coordinates":[8.874061,50.573309],"type":"Point"},"properties":{"osm_id":"399214541","tag":{"amenity":"recycling","mapillary":"BzX1H8Nzbi7ijWZYmf1NVQ","recycling:clothes":"yes","recycling:glass":"yes","recycling_type":"container","survey:date":"2019-05-05"}},"type":"Feature"},
	{"geometry":{"coordinates":[8.832095,50.592869],"type":"Point"},"properties":{"osm_id":"1163133795","tag":{"amenity":"recycling","recycling:clothes":"yes","recycling:glass":"yes","recycling_type":"container"}},"type":"Feature"},
	{"geometry":{"coordinates":[8.832493,50.593534],"type":"Point"},"properties":{"osm_id":"1163133827","tag":{"amenity":"waste_basket"}},"type":"Feature"},
	{"geometry":{"coordinates":[8.830299,50.597243],"type":"Point"},"properties":{"osm_id":"2223414446","tag":{"amenity":"recycling","recycling:clothes":"yes","recycling_type":"container"}},"type":"Feature"},
	{"geometry":{"coordinates":[8.830241,50.597249],"type":"Point"},"properties":{"osm_id":"2223414450","tag":{"amenity":"recycling","recycling:glass_bottles":"yes","recycling_type":"container"}},"type":"Feature"},
	{"geometry":{"coordinates":[8.864539,50.608479],"type":"Point"},"properties":{"osm_id":"2696986642","tag":{"amenity":"recycling","location":"overground","recycling:glass":"yes","recycling_type":"container"}},"type":"Feature"},
	{"geometry":{"coordinates":[8.824453,50.595596],"type":"Point"},"properties":{"name":"Wertstoffhof Reiskirchen","osm_id":"3337822112","tag":{"amenity":"recycling","recycling_type":"centre"}},"type":"Feature"},
	{"geometry":{"coordinates":[8.83648,50.59532],"type":"Point"},"properties":{"osm_id":"4124063197","tag":{"amenity":"recycling","recycling:clothes":"yes","recycling_type":"container"}},"type":"Feature"},
	{"geometry":{"coordinates":[8.82849,50.603323],"type":"Point"},"properties":{"osm_id":"5175295936","tag":{"amenity":"waste_basket"}},"type":"Feature"},
	{"geometry":{"coordinates":[8.853908,50.59516],"type":"Point"},"properties":{"osm_id":"5330081406","tag":{"amenity":"waste_basket"}},"type":"Feature"},
	{"geometry":{"coordinates":[8.858232,50.592514],"type":"Point"},"properties":{"osm_id":"5590114841","tag":{"amenity":"recycling","recycling_type":"container"}},"type":"Feature"},
	{"geometry":{"coordinates":[8.875538,50.591968],"type":"Point"},"properties":{"osm_id":"5590114842","tag":{"amenity":"recycling","recycling:clothes":"yes","recycling_type":"container"}},"type":"Feature"},
	{"geometry":{"coordinates":[8.796885,50.584961],"type":"Point"},"properties":{"osm_id":"5732713774","tag":{"amenity":"waste_basket"}},"type":"Feature"},
	{"geometry":{"coordinates":[8.797287,50.582019],"type":"Point"},"properties":{"osm_id":"5732713775","tag":{"amenity":"waste_basket"}},"type":"Feature"},
	{"geometry":{"coordinates":[8.823478,50.59584],"type":"Point"},"properties":{"osm_id":"5798517415","tag":{"amenity":"waste_basket"}},"type":"Feature"},
	{"geometry":{"coordinates":[8.85613,50.6174],"type":"Point"},"properties":{"osm_id":"5875967562","tag":{"amenity":"waste_basket"}},"type":"Feature"},
	{"geometry":{"coordinates":[8.854825,50.620323],"type":"Point"},"properties":{"osm_id":"5875967574","tag":{"amenity":"waste_basket"}},"type":"Feature"},
	{"geometry":{"coordinates":[8.855017,50.620389],"type":"Point"},"properties":{"osm_id":"5875967575","tag":{"amenity":"waste_basket"}},"type":"Feature"},
	{"geometry":{"coordinates":[8.85812,50.620738],"type":"Point"},"properties":{"osm_id":"5875967687","tag":{"amenity":"waste_basket"}},"type":"Feature"},
	{"geometry":{"coordinates":[8.853767,50.618512],"type":"Point"},"properties":{"osm_id":"5875967694","tag":{"amenity":"waste_basket"}},"type":"Feature"},
	{"geometry":{"coordinates":[8.85401,50.619038],"type":"Point"},"properties":{"osm_id":"5875967704","tag":{"amenity":"waste_basket"}},"type":"Feature"},
	{"geometry":{"coordinates":[8.844807,50.617027],"type":"Point"},"properties":{"osm_id":"5876774964","tag":{"amenity":"waste_basket"}},"type":"Feature"},
	{"geometry":{"coordinates":[8.856983,50.593695],"type":"Point"},"properties":{"osm_id":"5893518051","tag":{"amenity":"waste_basket"}},"type":"Feature"},
	{"geometry":{"coordinates":[8.85713,50.593698],"type":"Point"},"properties":{"osm_id":"5893518052","tag":{"amenity":"waste_basket"}},"type":"Feature"},
	{"geometry":{"coordinates":[8.857313,50.593667],"type":"Point"},"properties":{"osm_id":"5893518053","tag":{"amenity":"waste_basket"}},"type":"Feature"},
	{"geometry":{"coordinates":[8.858769,50.592327],"type":"Point"},"properties":{"osm_id":"5893518061","tag":{"amenity":"waste_basket"}},"type":"Feature"},
	{"geometry":{"coordinates":[8.851046,50.592781],"type":"Point"},"properties":{"osm_id":"5893518062","tag":{"amenity":"waste_basket"}},"type":"Feature"},
	{"geometry":{"coordinates":[8.853253,50.591648],"type":"Point"},"properties":{"osm_id":"5893518075","tag":{"amenity":"waste_basket"}},"type":"Feature"},
	{"geometry":{"coordinates":[8.874313,50.591658],"type":"Point"},"properties":{"osm_id":"5893518119","tag":{"amenity":"waste_basket"}},"type":"Feature"},
	{"geometry":{"coordinates":[8.825319,50.603466],"type":"Point"},"properties":{"osm_id":"5894277009","tag":{"amenity":"waste_basket"}},"type":"Feature"},
	{"geometry":{"coordinates":[8.825559,50.603444],"type":"Point"},"properties":{"osm_id":"5894277011","tag":{"amenity":"waste_basket"}},"type":"Feature"},
	{"geometry":{"coordinates":[8.825787,50.603596],"type":"Point"},"properties":{"osm_id":"5894277012","tag":{"amenity":"waste_basket"}},"type":"Feature"},
	{"geometry":{"coordinates":[8.858295,50.595889],"type":"Point"},"properties":{"osm_id":"5998154740","tag":{"amenity":"waste_basket"}},"type":"Feature"},
	{"geometry":{"coordinates":[8.853607,50.572423],"type":"Point"},"properties":{"osm_id":"5998154746","tag":{"amenity":"waste_basket"}},"type":"Feature"},
	{"geometry":{"coordinates":[8.824549,50.572929],"type":"Point"},"properties":{"osm_id":"6452222894","tag":{"amenity":"waste_basket"}},"type":"Feature"},
	{"geometry":{"coordinates":[8.845431,50.575048],"type":"Point"},"properties":{"osm_id":"6452579440","tag":{"amenity":"waste_basket"}},"type":"Feature"},
	{"geometry":{"coordinates":[8.820503,50.577337],"type":"Point"},"properties":{"osm_id":"6456420466","tag":{"amenity":"waste_basket"}},"type":"Feature"},
	{"geometry":{"coordinates":[8.875443,50.603653],"type":"Point"},"properties":{"osm_id":"6920080889","tag":{"amenity":"waste_basket"}},"type":"Feature"}
]
}
