{
"type": "FeatureCollection",
"features": [
	{"geometry":{"coordinates":[8.811741,50.560588],"type":"Point"},"properties":{"name":"Erddeponie","osm_id":"295120898","tag":{"amenity":"recycling","recycling_type":"centre"}},"type":"Feature"},
	{"geometry":{"coordinates":[8.80241,50.519488],"type":"Point"},"properties":{"osm_id":"338965265","tag":{"amenity":"recycling","recycling:cardboard":"yes","recycling:clothes":"yes","recycling:glass_bottles":"yes","recycling:magazines":"yes","recycling:newspaper":"yes","recycling:paper":"yes","recycling:shoes":"yes","recycling_type":"container"}},"type":"Feature"},
	{"geometry":{"coordinates":[8.808678,50.523892],"type":"Point"},"properties":{"osm_id":"338967882","tag":{"amenity":"recycling","recycling:clothes":"yes","recycling:glass_bottles":"yes","recycling:paper":"yes","recycling:shoes":"yes"}},"type":"Feature"},
	{"geometry":{"coordinates":[8.805926,50.516309],"type":"Point"},"properties":{"osm_id":"339251500","tag":{"amenity":"recycling","recycling:glass_bottles":"yes"}},"type":"Feature"},
	{"geometry":{"coordinates":[8.822337,50.517529],"type":"Point"},"properties":{"osm_id":"339259086","tag":{"amenity":"recycling","recycling:cans":"no","recycling:cardboard":"yes","recycling:clothes":"yes","recycling:glass_bottles":"yes","recycling:shoes":"yes","recycling_type":"container"}},"type":"Feature"},
	{"geometry":{"coordinates":[8.819166,50.522176],"type":"Point"},"properties":{"osm_id":"339260002","tag":{"amenity":"recycling","recycling:glass_bottles":"yes"}},"type":"Feature"},
	{"geometry":{"coordinates":[8.798661,50.555162],"type":"Point"},"properties":{"osm_id":"342209723","tag":{"amenity":"recycling","recycling:clothes":"yes","recycling:glass":"yes","recycling_type":"container"}},"type":"Feature"},
	{"geometry":{"coordinates":[8.80554,50.519704],"type":"Point"},"properties":{"osm_id":"428858299","tag":{"amenity":"recycling","recycling:clothes":"yes","recycling_type":"container"}},"type":"Feature"},
	{"geometry":{"coordinates":[8.809195,50.523203],"type":"Point"},"properties":{"osm_id":"998666425","tag":{"amenity":"waste_basket"}},"type":"Feature"},
	{"geometry":{"coordinates":[8.819451,50.518978],"type":"Point"},"properties":{"osm_id":"998666679","tag":{"amenity":"waste_basket"}},"type":"Feature"},
	{"geometry":{"coordinates":[8.811126,50.523375],"type":"Point"},"properties":{"osm_id":"998666685","tag":{"amenity":"waste_basket"}},"type":"Feature"},
	{"geometry":{"coordinates":[8.793931,50.553727],"type":"Point"},"properties":{"osm_id":"998666748","tag":{"amenity":"waste_basket"}},"type":"Feature"},
	{"geometry":{"coordinates":[8.814719,50.522958],"type":"Point"},"properties":{"osm_id":"998666800","tag":{"amenity":"waste_basket"}},"type":"Feature"},
	{"geometry":{"coordinates":[8.798353,50.555022],"type":"Point"},"properties":{"osm_id":"1163143726","tag":{"amenity":"waste_basket"}},"type":"Feature"},
	{"geometry":{"coordinates":[8.792309,50.554954],"type":"Point"},"properties":{"osm_id":"1163143731","tag":{"amenity":"waste_basket"}},"type":"Feature"},
	{"geometry":{"coordinates":[8.792742,50.554898],"type":"Point"},"properties":{"osm_id":"1163143734","tag":{"amenity":"waste_basket"}},"type":"Feature"},
	{"geometry":{"coordinates":[8.823,50.519514],"type":"Point"},"properties":{"osm_id":"1362891045","tag":{"amenity":"recycling","recycling:clothes":"yes","recycling_type":"container"}},"type":"Feature"},
	{"geometry":{"coordinates":[8.818306,50.51701],"type":"Point"},"properties":{"osm_id":"1428842429","tag":{"amenity":"waste_basket"}},"type":"Feature"},
	{"geometry":{"coordinates":[8.816529,50.518788],"type":"Point"},"properties":{"osm_id":"1428842640","tag":{"amenity":"waste_basket"}},"type":"Feature"},
	{"geometry":{"coordinates":[8.816116,50.518789],"type":"Point"},"properties":{"osm_id":"1428842642","tag":{"amenity":"waste_basket"}},"type":"Feature"},
	{"geometry":{"coordinates":[8.816831,50.519052],"type":"Point"},"properties":{"osm_id":"1428842738","tag":{"amenity":"waste_basket"}},"type":"Feature"},
	{"geometry":{"coordinates":[8.818115,50.520745],"type":"Point"},"properties":{"osm_id":"1428842828","tag":{"amenity":"waste_basket"}},"type":"Feature"},
	{"geometry":{"coordinates":[8.82082,50.523248],"type":"Point"},"properties":{"osm_id":"1428843099","tag":{"amenity":"recycling","recycling:glass":"yes","recycling_type":"container"}},"type":"Feature"},
	{"geometry":{"coordinates":[8.819731,50.523381],"type":"Point"},"properties":{"osm_id":"1428843120","tag":{"amenity":"waste_basket"}},"type":"Feature"},
	{"geometry":{"coordinates":[8.81944,50.520389],"type":"Point"},"properties":{"osm_id":"1432269936","tag":{"amenity":"waste_basket"}},"type":"Feature"},
	{"geometry":{"coordinates":[8.819647,50.522621],"type":"Point"},"properties":{"osm_id":"1433156825","tag":{"amenity":"waste_basket"}},"type":"Feature"},
	{"geometry":{"coordinates":[8.83053,50.536624],"type":"Point"},"properties":{"osm_id":"1459406731","tag":{"amenity":"waste_basket"}},"type":"Feature"},
	{"geometry":{"coordinates":[8.811158,50.515609],"type":"Point"},"properties":{"osm_id":"1468817056","tag":{"amenity":"waste_basket"}},"type":"Feature"},
	{"geometry":{"coordinates":[8.812378,50.516138],"type":"Point"},"properties":{"osm_id":"1468817059","tag":{"amenity":"waste_basket"}},"type":"Feature"},
	{"geometry":{"coordinates":[8.816326,50.519981],"type":"Point"},"properties":{"osm_id":"1483934707","tag":{"amenity":"waste_basket"}},"type":"Feature"},
	{"geometry":{"coordinates":[8.817617,50.522319],"type":"Point"},"properties":{"osm_id":"1483934733","tag":{"amenity":"waste_basket"}},"type":"Feature"},
	{"geometry":{"coordinates":[8.820327,50.52256],"type":"Point"},"properties":{"osm_id":"1483934740","tag":{"amenity":"waste_basket"}},"type":"Feature"},
	{"geometry":{"coordinates":[8.820261,50.522638],"type":"Point"},"properties":{"osm_id":"1483934753","tag":{"amenity":"waste_basket"}},"type":"Feature"},
	{"geometry":{"coordinates":[8.820326,50.522797],"type":"Point"},"properties":{"osm_id":"1483934765","tag":{"amenity":"waste_basket"}},"type":"Feature"},
	{"geometry":{"coordinates":[8.815132,50.522971],"type":"Point"},"properties":{"osm_id":"1483934766","tag":{"amenity":"waste_basket"}},"type":"Feature"},
	{"geometry":{"coordinates":[8.818825,50.515553],"type":"Point"},"properties":{"osm_id":"1618333966","tag":{"amenity":"waste_basket"}},"type":"Feature"},
	{"geometry":{"coordinates":[8.804521,50.523578],"type":"Point"},"properties":{"osm_id":"1801204945","tag":{"amenity":"waste_basket"}},"type":"Feature"},
	{"geometry":{"coordinates":[8.808115,50.524006],"type":"Point"},"properties":{"osm_id":"1801204963","tag":{"amenity":"waste_basket"}},"type":"Feature"},
	{"geometry":{"coordinates":[8.819658,50.523391],"type":"Point"},"properties":{"osm_id":"1986121313","tag":{"amenity":"waste_basket"}},"type":"Feature"},
	{"geometry":{"coordinates":[8.821551,50.517656],"type":"Point"},"properties":{"osm_id":"4168144916","tag":{"amenity":"waste_basket"}},"type":"Feature"},
	{"geometry":{"coordinates":[8.818799,50.521636],"type":"Point"},"properties":{"osm_id":"4168144923","tag":{"amenity":"waste_basket"}},"type":"Feature"},
	{"geometry":{"coordinates":[8.81929,50.521954],"type":"Point"},"properties":{"osm_id":"4168144928","tag":{"amenity":"waste_basket"}},"type":"Feature"},
	{"geometry":{"coordinates":[8.818733,50.521987],"type":"Point"},"properties":{"osm_id":"4168144929","tag":{"amenity":"waste_basket"}},"type":"Feature"},
	{"geometry":{"coordinates":[8.819292,50.522002],"type":"Point"},"properties":{"osm_id":"4168144930","tag":{"amenity":"waste_basket"}},"type":"Feature"},
	{"geometry":{"coordinates":[8.80402,50.515552],"type":"Point"},"properties":{"osm_id":"4169250373","tag":{"amenity":"waste_basket"}},"type":"Feature"},
	{"geometry":{"coordinates":[8.83875,50.518531],"type":"Point"},"properties":{"osm_id":"6502512963","tag":{"amenity":"waste_basket"}},"type":"Feature"},
	{"geometry":{"coordinates":[8.833024,50.517863],"type":"Point"},"properties":{"osm_id":"6502512970","tag":{"amenity":"waste_basket"}},"type":"Feature"},
	{"geometry":{"coordinates":[8.822143,50.514646],"type":"Point"},"properties":{"osm_id":"6844664836","tag":{"amenity":"waste_basket"}},"type":"Feature"},
	{"geometry":{"coordinates":[8.821938,50.514826],"type":"Point"},"properties":{"osm_id":"6844664849","tag":{"amenity":"waste_basket"}},"type":"Feature"},
	{"geometry":{"coordinates":[8.821833,50.514759],"type":"Point"},"properties":{"osm_id":"6844664854","tag":{"amenity":"waste_basket"}},"type":"Feature"}
]
}
