{
"type": "FeatureCollection",
"features": [
	{"geometry":{"coordinates":[8.835238,50.153535],"type":"Point"},"properties":{"osm_id":"864090786","tag":{"amenity":"recycling","recycling:glass_bottles":"yes","recycling_type":"container"}},"type":"Feature"},
	{"geometry":{"coordinates":[8.83412,50.151693],"type":"Point"},"properties":{"osm_id":"864091841","tag":{"amenity":"recycling","recycling:glass":"yes"}},"type":"Feature"},
	{"geometry":{"coordinates":[8.830678,50.134985],"type":"Point"},"properties":{"osm_id":"1034495202","tag":{"amenity":"recycling","recycling:glass":"yes","recycling_type":"container"}},"type":"Feature"},
	{"geometry":{"coordinates":[8.809969,50.15169],"type":"Point"},"properties":{"osm_id":"1083707753","tag":{"amenity":"recycling","recycling:glass":"yes"}},"type":"Feature"},
	{"geometry":{"coordinates":[8.830825,50.133696],"type":"Point"},"properties":{"osm_id":"1152973009","tag":{"amenity":"recycling","recycling:batteries":"no","recycling:clothes":"no","recycling:glass":"yes","recycling:shoes":"no","recycling_type":"container"}},"type":"Feature"},
	{"geometry":{"coordinates":[8.841215,50.135493],"type":"Point"},"properties":{"osm_id":"1973273418","tag":{"amenity":"recycling","recycling:glass":"yes","recycling_type":"container"}},"type":"Feature"},
	{"geometry":{"coordinates":[8.871701,50.17287],"type":"Point"},"properties":{"osm_id":"1974515608","tag":{"amenity":"recycling","recycling:clothes":"yes","recycling_type":"container"}},"type":"Feature"},
	{"geometry":{"coordinates":[8.860461,50.169411],"type":"Point"},"properties":{"osm_id":"1978237237","tag":{"amenity":"recycling","recycling:clothes":"yes","recycling:shoes":"yes","recycling_type":"container"}},"type":"Feature"},
	{"geometry":{"coordinates":[8.837176,50.133491],"type":"Point"},"properties":{"osm_id":"1988334237","tag":{"amenity":"recycling","recycling:glass":"yes","recycling_type":"container"}},"type":"Feature"},
	{"geometry":{"coordinates":[8.864433,50.130822],"type":"Point"},"properties":{"osm_id":"2014622795","tag":{"amenity":"recycling","recycling:clothes":"yes"}},"type":"Feature"},
	{"geometry":{"coordinates":[8.86892,50.129569],"type":"Point"},"properties":{"osm_id":"2022540510","tag":{"amenity":"recycling","recycling:clothes":"yes"}},"type":"Feature"},
	{"geometry":{"coordinates":[8.853997,50.122753],"type":"Point"},"properties":{"osm_id":"2154618364","tag":{"amenity":"recycling","recycling:clothes":"yes","recycling_type":"container"}},"type":"Feature"},
	{"geometry":{"coordinates":[8.854092,50.125106],"type":"Point"},"properties":{"osm_id":"2154618365","tag":{"amenity":"recycling","recycling:clothes":"yes","recycling_type":"container"}},"type":"Feature"},
	{"geometry":{"coordinates":[8.861906,50.121024],"type":"Point"},"properties":{"osm_id":"2205261083","tag":{"amenity":"recycling","recycling:glass_bottles":"white","recycling_type":"container"}},"type":"Feature"},
	{"geometry":{"coordinates":[8.862486,50.12265],"type":"Point"},"properties":{"osm_id":"2205261107","tag":{"amenity":"recycling","recycling:glass_bottles":"white","recycling_type":"container"}},"type":"Feature"},
	{"geometry":{"coordinates":[8.856636,50.122949],"type":"Point"},"properties":{"osm_id":"2205261118","tag":{"amenity":"recycling","recycling:glass":"yes"}},"type":"Feature"},
	{"geometry":{"coordinates":[8.841729,50.124561],"type":"Point"},"properties":{"osm_id":"2205261141","tag":{"amenity":"recycling","location":"overground","recycling:glass":"yes","recycling_type":"container"}},"type":"Feature"},
	{"geometry":{"coordinates":[8.853494,50.12474],"type":"Point"},"properties":{"osm_id":"2205261158","tag":{"amenity":"recycling","recycling:clothes":"yes","recycling:glass":"yes"}},"type":"Feature"},
	{"geometry":{"coordinates":[8.85625,50.12593],"type":"Point"},"properties":{"osm_id":"2591839892","tag":{"amenity":"waste_basket"}},"type":"Feature"},
	{"geometry":{"coordinates":[8.807022,50.144816],"type":"Point"},"properties":{"osm_id":"3095876549","tag":{"amenity":"recycling"}},"type":"Feature"},
	{"geometry":{"coordinates":[8.793424,50.153718],"type":"Point"},"properties":{"osm_id":"3163804586","tag":{"amenity":"recycling"}},"type":"Feature"},
	{"geometry":{"coordinates":[8.803473,50.148478],"type":"Point"},"properties":{"osm_id":"3668919025","tag":{"amenity":"recycling","recycling:clothes":"yes","recycling_type":"container"}},"type":"Feature"},
	{"geometry":{"coordinates":[8.85442,50.165824],"type":"Point"},"properties":{"osm_id":"3673916414","tag":{"amenity":"waste_basket"}},"type":"Feature"},
	{"geometry":{"coordinates":[8.854369,50.165839],"type":"Point"},"properties":{"osm_id":"3673916415","tag":{"amenity":"recycling","recycling:glass":"yes","recycling_type":"container"}},"type":"Feature"},
	{"geometry":{"coordinates":[8.815492,50.150505],"type":"Point"},"properties":{"osm_id":"3684468367","tag":{"amenity":"recycling","recycling:glass":"yes","recycling_type":"container"}},"type":"Feature"},
	{"geometry":{"coordinates":[8.802358,50.127423],"type":"Point"},"properties":{"osm_id":"3880059857","tag":{"amenity":"recycling","recycling:glass":"yes","recycling:shoes":"yes"}},"type":"Feature"},
	{"geometry":{"coordinates":[8.798183,50.13005],"type":"Point"},"properties":{"osm_id":"3901311476","tag":{"amenity":"recycling","recycling:clothes":"yes","recycling:electrical_appliances":"yes","recycling:glass":"yes","recycling:shoes":"yes","recycling_type":"container"}},"type":"Feature"},
	{"geometry":{"coordinates":[8.807766,50.124723],"type":"Point"},"properties":{"osm_id":"3993393559","tag":{"amenity":"recycling","recycling:clothes":"yes","recycling:glass":"yes","recycling_type":"container"}},"type":"Feature"},
	{"geometry":{"coordinates":[8.851568,50.133812],"type":"Point"},"properties":{"osm_id":"4268632666","tag":{"amenity":"recycling","recycling:clothes":"yes","recycling:glass":"yes","recycling:shoes":"yes","recycling_type":"container"}},"type":"Feature"},
	{"geometry":{"coordinates":[8.862462,50.122702],"type":"Point"},"properties":{"osm_id":"4798640496","tag":{"amenity":"waste_basket"}},"type":"Feature"},
	{"geometry":{"coordinates":[8.862494,50.122628],"type":"Point"},"properties":{"osm_id":"4798640497","tag":{"amenity":"recycling","operator":"ASB","recycling:clothes":"yes","recycling:shoes":"yes","recycling_type":"container"}},"type":"Feature"},
	{"geometry":{"coordinates":[8.862477,50.122674],"type":"Point"},"properties":{"osm_id":"4798640498","tag":{"amenity":"recycling","recycling:glass_bottles":"brown","recycling_type":"container"}},"type":"Feature"},
	{"geometry":{"coordinates":[8.862481,50.122662],"type":"Point"},"properties":{"osm_id":"4798640499","tag":{"amenity":"recycling","recycling:glass_bottles":"green","recycling_type":"container"}},"type":"Feature"},
	{"geometry":{"coordinates":[8.866134,50.121291],"type":"Point"},"properties":{"osm_id":"4798640500","tag":{"amenity":"recycling","operator":"Malteser","recycling:clothes":"yes","recycling:shoes":"yes","recycling_type":"container"}},"type":"Feature"},
	{"geometry":{"coordinates":[8.866134,50.121303],"type":"Point"},"properties":{"osm_id":"4798640501","tag":{"amenity":"recycling","operator":"Malteser","recycling:clothes":"yes","recycling:shoes":"yes","recycling_type":"container"}},"type":"Feature"},
	{"geometry":{"coordinates":[8.861908,50.120992],"type":"Point"},"properties":{"osm_id":"4798640502","tag":{"amenity":"recycling","operator":"SKC","recycling:clothes":"yes","recycling:shoes":"yes","recycling_type":"container"}},"type":"Feature"},
	{"geometry":{"coordinates":[8.861908,50.121003],"type":"Point"},"properties":{"osm_id":"4798640503","tag":{"amenity":"recycling","recycling:glass_bottles":"brown","recycling_type":"container"}},"type":"Feature"},
	{"geometry":{"coordinates":[8.861907,50.121013],"type":"Point"},"properties":{"osm_id":"4798640504","tag":{"amenity":"recycling","recycling:glass_bottles":"green","recycling_type":"container"}},"type":"Feature"},
	{"geometry":{"coordinates":[8.855881,50.163058],"type":"Point"},"properties":{"osm_id":"5097339720","tag":{"amenity":"recycling","recycling:glass_bottles":"yes","recycling_type":"container"}},"type":"Feature"},
	{"geometry":{"coordinates":[8.861095,50.166907],"type":"Point"},"properties":{"osm_id":"5097824266","tag":{"amenity":"recycling","recycling:glass_bottles":"yes","recycling_type":"container"}},"type":"Feature"},
	{"geometry":{"coordinates":[8.840008,50.154847],"type":"Point"},"properties":{"osm_id":"5550805526","tag":{"amenity":"recycling","recycling:clothes":"yes","recycling:glass_bottles":"yes","recycling:shoes":"yes","recycling_type":"container"}},"type":"Feature"},
	{"geometry":{"coordinates":[8.867423,50.172154],"type":"Point"},"properties":{"osm_id":"6112754227","tag":{"amenity":"waste_basket","waste":"trash"}},"type":"Feature"},
	{"geometry":{"coordinates":[8.864948,50.171333],"type":"Point"},"properties":{"osm_id":"6112754241","tag":{"amenity":"waste_basket","waste":"trash"}},"type":"Feature"},
	{"geometry":{"coordinates":[8.859486,50.172185],"type":"Point"},"properties":{"osm_id":"6116591660","tag":{"amenity":"waste_basket","waste":"trash"}},"type":"Feature"},
	{"geometry":{"coordinates":[8.857749,50.176233],"type":"Point"},"properties":{"osm_id":"6116591682","tag":{"amenity":"waste_basket","waste":"trash"}},"type":"Feature"},
	{"geometry":{"coordinates":[8.876862,50.158724],"type":"Point"},"properties":{"osm_id":"6123892231","tag":{"amenity":"waste_basket","waste":"trash"}},"type":"Feature"},
	{"geometry":{"coordinates":[8.875269,50.160197],"type":"Point"},"properties":{"osm_id":"6123892232","tag":{"amenity":"waste_basket","waste":"trash"}},"type":"Feature"},
	{"geometry":{"coordinates":[8.862311,50.168804],"type":"Point"},"properties":{"osm_id":"6129272845","tag":{"amenity":"recycling","recycling:clothes":"yes","recycling:shoes":"yes","recycling_type":"container"}},"type":"Feature"},
	{"geometry":{"coordinates":[8.860989,50.16909],"type":"Point"},"properties":{"osm_id":"6129272846","tag":{"amenity":"recycling","recycling:glass_bottles":"yes","recycling_type":"container"}},"type":"Feature"},
	{"geometry":{"coordinates":[8.857563,50.169071],"type":"Point"},"properties":{"osm_id":"6129272851","tag":{"amenity":"recycling","recycling:glass_bottles":"yes","recycling_type":"container"}},"type":"Feature"},
	{"geometry":{"coordinates":[8.86056,50.154442],"type":"Point"},"properties":{"osm_id":"6132370562","tag":{"amenity":"waste_basket","waste":"trash"}},"type":"Feature"},
	{"geometry":{"coordinates":[8.805796,50.141072],"type":"Point"},"properties":{"osm_id":"6286815245","tag":{"amenity":"recycling","recycling:glass_bottles":"yes","recycling_type":"container"}},"type":"Feature"},
	{"geometry":{"coordinates":[8.825251,50.149379],"type":"Point"},"properties":{"osm_id":"6307694399","tag":{"amenity":"waste_basket","waste":"trash"}},"type":"Feature"},
	{"geometry":{"coordinates":[8.842063,50.151789],"type":"Point"},"properties":{"osm_id":"6322849204","tag":{"amenity":"recycling","recycling:glass_bottles":"yes","recycling_type":"container"}},"type":"Feature"},
	{"geometry":{"coordinates":[8.838748,50.151029],"type":"Point"},"properties":{"osm_id":"6322849208","tag":{"amenity":"recycling","recycling:glass_bottles":"yes","recycling_type":"container"}},"type":"Feature"},
	{"geometry":{"coordinates":[8.841897,50.15698],"type":"Point"},"properties":{"osm_id":"6323198871","tag":{"amenity":"recycling","recycling:clothes":"yes","recycling:shoes":"yes","recycling_type":"container"}},"type":"Feature"},
	{"geometry":{"coordinates":[8.820591,50.121254],"type":"Point"},"properties":{"osm_id":"7501831268","tag":{"amenity":"recycling","recycling":"glass_bottles","recycling_type":"container"}},"type":"Feature"},
	{"geometry":{"coordinates":[8.820642,50.121257],"type":"Point"},"properties":{"osm_id":"7501831269","tag":{"amenity":"recycling","recycling":"clothes","recycling_type":"container"}},"type":"Feature"}
]
}
