{
"type": "FeatureCollection",
"features": [
	{"geometry":{"coordinates":[8.853726,50.101902],"type":"Point"},"properties":{"osm_id":"201540719","tag":{"amenity":"recycling","recycling:clothes":"yes","recycling:glass":"yes"}},"type":"Feature"},
	{"geometry":{"coordinates":[8.856912,50.098668],"type":"Point"},"properties":{"osm_id":"223948941","tag":{"amenity":"recycling","recycling:clothes":"yes","recycling:glass":"yes"}},"type":"Feature"},
	{"geometry":{"coordinates":[8.869451,50.080896],"type":"Point"},"properties":{"osm_id":"223954595","tag":{"amenity":"recycling","recycling:glass":"yes","recycling:paper":"yes"}},"type":"Feature"},
	{"geometry":{"coordinates":[8.862013,50.077515],"type":"Point"},"properties":{"osm_id":"224017511","tag":{"amenity":"recycling","recycling:paper":"yes"}},"type":"Feature"},
	{"geometry":{"coordinates":[8.810327,50.088741],"type":"Point"},"properties":{"osm_id":"288776088","tag":{"amenity":"recycling","recycling:clothes":"yes","recycling:glass":"yes"}},"type":"Feature"},
	{"geometry":{"coordinates":[8.808145,50.114189],"type":"Point"},"properties":{"osm_id":"289979629","tag":{"amenity":"recycling","recycling:clothes":"yes","recycling:glass":"yes"}},"type":"Feature"},
	{"geometry":{"coordinates":[8.797521,50.094286],"type":"Point"},"properties":{"osm_id":"290708457","tag":{"amenity":"recycling","recycling:glass":"yes"}},"type":"Feature"},
	{"geometry":{"coordinates":[8.808844,50.086798],"type":"Point"},"properties":{"osm_id":"292385306","tag":{"amenity":"recycling","recycling:glass":"yes"}},"type":"Feature"},
	{"geometry":{"coordinates":[8.808814,50.086767],"type":"Point"},"properties":{"osm_id":"292385309","tag":{"amenity":"recycling","recycling:clothes":"yes"}},"type":"Feature"},
	{"geometry":{"coordinates":[8.808872,50.086828],"type":"Point"},"properties":{"osm_id":"292385313","tag":{"amenity":"recycling","recycling:glass":"yes"}},"type":"Feature"},
	{"geometry":{"coordinates":[8.792828,50.098284],"type":"Point"},"properties":{"osm_id":"292517066","tag":{"amenity":"recycling","recycling:clothes":"no","recycling:glass":"yes"}},"type":"Feature"},
	{"geometry":{"coordinates":[8.833303,50.067217],"type":"Point"},"properties":{"osm_id":"295903904","tag":{"amenity":"recycling","location":"overground","operator":"Malteser","recycling:clothes":"yes","recycling_type":"container"}},"type":"Feature"},
	{"geometry":{"coordinates":[8.832441,50.067881],"type":"Point"},"properties":{"osm_id":"295903905","tag":{"amenity":"recycling","recycling:cardboard":"yes","recycling:clothes":"yes","recycling:glass_bottles":"yes","recycling:paper":"yes","recycling:shoes":"yes","recycling_type":"container"}},"type":"Feature"},
	{"geometry":{"coordinates":[8.835543,50.070573],"type":"Point"},"properties":{"osm_id":"295903907","tag":{"amenity":"recycling","recycling:glass":"yes","recycling:paper":"yes","recycling_type":"container"}},"type":"Feature"},
	{"geometry":{"coordinates":[8.849168,50.064969],"type":"Point"},"properties":{"osm_id":"518520294","tag":{"amenity":"recycling","recycling:glass":"no","recycling:glass_bottles":"yes","recycling:paper":"yes","recycling_type":"container"}},"type":"Feature"},
	{"geometry":{"coordinates":[8.853264,50.067106],"type":"Point"},"properties":{"osm_id":"518520297","tag":{"amenity":"recycling","location":"overground","recycling:glass":"yes","recycling_type":"container"}},"type":"Feature"},
	{"geometry":{"coordinates":[8.850329,50.118037],"type":"Point"},"properties":{"osm_id":"650601877","tag":{"amenity":"recycling","recycling:glass":"yes"}},"type":"Feature"},
	{"geometry":{"coordinates":[8.794328,50.108875],"type":"Point"},"properties":{"osm_id":"650617414","tag":{"amenity":"recycling","recycling:glass":"yes"}},"type":"Feature"},
	{"geometry":{"coordinates":[8.841713,50.111839],"type":"Point"},"properties":{"osm_id":"652748959","tag":{"amenity":"recycling","recycling:clothes":"yes","recycling:glass":"yes"}},"type":"Feature"},
	{"geometry":{"coordinates":[8.839301,50.115244],"type":"Point"},"properties":{"osm_id":"652748961","tag":{"amenity":"recycling","location":"overground","recycling:clothes":"yes","recycling:glass":"yes","recycling_type":"container"}},"type":"Feature"},
	{"geometry":{"coordinates":[8.855852,50.094788],"type":"Point"},"properties":{"osm_id":"652771168","tag":{"amenity":"recycling"}},"type":"Feature"},
	{"geometry":{"coordinates":[8.863046,50.08562],"type":"Point"},"properties":{"osm_id":"655344232","tag":{"amenity":"recycling","recycling:glass":"yes","recycling:paper":"yes"}},"type":"Feature"},
	{"geometry":{"coordinates":[8.849106,50.098036],"type":"Point"},"properties":{"osm_id":"656555617","tag":{"amenity":"recycling","recycling:glass":"yes"}},"type":"Feature"},
	{"geometry":{"coordinates":[8.852184,50.095117],"type":"Point"},"properties":{"osm_id":"671448687","tag":{"amenity":"recycling","recycling:clothes":"yes","recycling:glass":"yes"}},"type":"Feature"},
	{"geometry":{"coordinates":[8.869843,50.076305],"type":"Point"},"properties":{"osm_id":"775525309","tag":{"amenity":"recycling","recycling:glass_bottles":"yes","recycling:paper":"yes","recycling_type":"container"}},"type":"Feature"},
	{"geometry":{"coordinates":[8.871173,50.086563],"type":"Point"},"properties":{"osm_id":"840176494","tag":{"amenity":"recycling","recycling:clothes":"yes","recycling:glass":"yes","recycling:paper":"yes","recycling_type":"container"}},"type":"Feature"},
	{"geometry":{"coordinates":[8.867862,50.08492],"type":"Point"},"properties":{"osm_id":"849834910","tag":{"amenity":"recycling","recycling:glass_bottles":"yes","recycling:paper":"yes","recycling_type":"container"}},"type":"Feature"},
	{"geometry":{"coordinates":[8.864934,50.087996],"type":"Point"},"properties":{"osm_id":"849834920","tag":{"amenity":"recycling","recycling:glass_bottles":"yes","recycling:paper":"yes","recycling_type":"container"}},"type":"Feature"},
	{"geometry":{"coordinates":[8.851478,50.069897],"type":"Point"},"properties":{"osm_id":"860946208","tag":{"amenity":"recycling","location":"overground","recycling_type":"container"}},"type":"Feature"},
	{"geometry":{"coordinates":[8.840803,50.072798],"type":"Point"},"properties":{"osm_id":"970637466","tag":{"amenity":"recycling","recycling_type":"container"}},"type":"Feature"},
	{"geometry":{"coordinates":[8.792678,50.102373],"type":"Point"},"properties":{"osm_id":"1150730018","tag":{"amenity":"recycling","recycling_type":"centre"}},"type":"Feature"},
	{"geometry":{"coordinates":[8.810839,50.090956],"type":"Point"},"properties":{"osm_id":"1279861095","tag":{"amenity":"recycling","recycling:clothes":"yes"}},"type":"Feature"},
	{"geometry":{"coordinates":[8.856861,50.075761],"type":"Point"},"properties":{"osm_id":"1578806414","tag":{"amenity":"recycling","location":"underground","recycling:glass_bottles":"yes","recycling_type":"container"}},"type":"Feature"},
	{"geometry":{"coordinates":[8.847055,50.076],"type":"Point"},"properties":{"osm_id":"1607536521","tag":{"amenity":"recycling","recycling:glass":"no","recycling:glass_bottles":"yes","recycling_type":"container"}},"type":"Feature"},
	{"geometry":{"coordinates":[8.83657,50.070784],"type":"Point"},"properties":{"osm_id":"1678631027","tag":{"amenity":"recycling","recycling:glass_bottles":"yes","recycling:paper":"yes","recycling_type":"container"}},"type":"Feature"},
	{"geometry":{"coordinates":[8.846154,50.069404],"type":"Point"},"properties":{"osm_id":"1678653813","tag":{"amenity":"recycling","recycling:glass_bottles":"yes","recycling:paper":"yes","recycling_type":"container"}},"type":"Feature"},
	{"geometry":{"coordinates":[8.851716,50.067481],"type":"Point"},"properties":{"osm_id":"1735194118","tag":{"amenity":"recycling","recycling_type":"centre"}},"type":"Feature"},
	{"geometry":{"coordinates":[8.835765,50.066047],"type":"Point"},"properties":{"osm_id":"1735530924","tag":{"amenity":"recycling"}},"type":"Feature"},
	{"geometry":{"coordinates":[8.863809,50.076054],"type":"Point"},"properties":{"osm_id":"1741427881","tag":{"amenity":"recycling"}},"type":"Feature"},
	{"geometry":{"coordinates":[8.856225,50.078237],"type":"Point"},"properties":{"osm_id":"1741436701","tag":{"amenity":"recycling"}},"type":"Feature"},
	{"geometry":{"coordinates":[8.857931,50.101566],"type":"Point"},"properties":{"osm_id":"1750934273","tag":{"amenity":"recycling","recycling:clothes":"yes"}},"type":"Feature"},
	{"geometry":{"coordinates":[8.838689,50.117041],"type":"Point"},"properties":{"osm_id":"1763499801","tag":{"amenity":"recycling","location":"overground","recycling:clothes":"yes","recycling:glass":"yes","recycling_type":"container"}},"type":"Feature"},
	{"geometry":{"coordinates":[8.814517,50.118766],"type":"Point"},"properties":{"osm_id":"1959078530","tag":{"amenity":"recycling","recycling:clothes":"yes","recycling:glass_bottles":"yes","recycling_type":"container"}},"type":"Feature"},
	{"geometry":{"coordinates":[8.847692,50.077546],"type":"Point"},"properties":{"osm_id":"2844188318","tag":{"amenity":"recycling","recycling:cardboard":"yes","recycling:clothes":"yes","recycling:glass":"yes","recycling:glass_bottles":"yes","recycling_type":"container"}},"type":"Feature"},
	{"geometry":{"coordinates":[8.790719,50.092838],"type":"Point"},"properties":{"osm_id":"3376445000","tag":{"amenity":"recycling","recycling:clothes":"yes","recycling:glass":"yes"}},"type":"Feature"},
	{"geometry":{"coordinates":[8.856635,50.074412],"type":"Point"},"properties":{"osm_id":"4119472093","tag":{"amenity":"waste_basket"}},"type":"Feature"},
	{"geometry":{"coordinates":[8.857922,50.074413],"type":"Point"},"properties":{"osm_id":"4339725606","tag":{"amenity":"waste_basket"}},"type":"Feature"},
	{"geometry":{"coordinates":[8.850307,50.067368],"type":"Point"},"properties":{"osm_id":"4339744889","tag":{"amenity":"waste_basket"}},"type":"Feature"},
	{"geometry":{"coordinates":[8.831922,50.070313],"type":"Point"},"properties":{"osm_id":"4352845170","tag":{"amenity":"waste_basket","ele:source":"GPS"}},"type":"Feature"},
	{"geometry":{"coordinates":[8.8442,50.071659],"type":"Point"},"properties":{"osm_id":"4352935965","tag":{"addr:street":"Waldstra\u00c3\u009fe","amenity":"waste_basket"}},"type":"Feature"},
	{"geometry":{"coordinates":[8.832244,50.070281],"type":"Point"},"properties":{"osm_id":"4354419300","tag":{"amenity":"waste_basket"}},"type":"Feature"},
	{"geometry":{"coordinates":[8.845571,50.074359],"type":"Point"},"properties":{"osm_id":"4360035393","tag":{"amenity":"waste_basket","ele:source":"GPS"}},"type":"Feature"},
	{"geometry":{"coordinates":[8.832249,50.070437],"type":"Point"},"properties":{"osm_id":"4375889889","tag":{"amenity":"waste_basket"}},"type":"Feature"},
	{"geometry":{"coordinates":[8.843721,50.069892],"type":"Point"},"properties":{"osm_id":"4419330183","tag":{"amenity":"recycling","recycling:glass_bottles":"yes","recycling:paper":"yes","recycling_type":"container"}},"type":"Feature"},
	{"geometry":{"coordinates":[8.813592,50.108287],"type":"Point"},"properties":{"osm_id":"4703507975","tag":{"amenity":"waste_basket"}},"type":"Feature"},
	{"geometry":{"coordinates":[8.856616,50.120503],"type":"Point"},"properties":{"osm_id":"4798640505","tag":{"amenity":"recycling","recycling:clothes":"yes","recycling:shoes":"yes","recycling_type":"container"}},"type":"Feature"},
	{"geometry":{"coordinates":[8.8566,50.120501],"type":"Point"},"properties":{"osm_id":"4798640506","tag":{"amenity":"recycling","recycling:glass_bottles":"brown","recycling_type":"container"}},"type":"Feature"},
	{"geometry":{"coordinates":[8.856584,50.1205],"type":"Point"},"properties":{"osm_id":"4798640507","tag":{"amenity":"recycling","recycling:glass_bottles":"green","recycling_type":"container"}},"type":"Feature"},
	{"geometry":{"coordinates":[8.856568,50.120499],"type":"Point"},"properties":{"osm_id":"4798640508","tag":{"amenity":"recycling","recycling:glass_bottles":"white","recycling_type":"container"}},"type":"Feature"},
	{"geometry":{"coordinates":[8.839637,50.069156],"type":"Point"},"properties":{"osm_id":"5353134558","tag":{"amenity":"waste_basket","waste":"trash"}},"type":"Feature"},
	{"geometry":{"coordinates":[8.845765,50.06723],"type":"Point"},"properties":{"osm_id":"5433990278","tag":{"amenity":"waste_basket","waste":"trash"}},"type":"Feature"},
	{"geometry":{"coordinates":[8.85395,50.068208],"type":"Point"},"properties":{"osm_id":"5554552303","tag":{"addr:city":"Obertshausen","addr:postcode":"63179","addr:street":"Burgstra\u00c3\u009fe","amenity":"waste_basket","waste":"trash"}},"type":"Feature"},
	{"geometry":{"coordinates":[8.859723,50.068065],"type":"Point"},"properties":{"osm_id":"5569728785","tag":{"amenity":"recycling","recycling:glass":"yes","recycling:glass_bottles":"yes","recycling:paper":"yes","recycling_type":"container"}},"type":"Feature"},
	{"geometry":{"coordinates":[8.85046,50.069715],"type":"Point"},"properties":{"osm_id":"5570987049","tag":{"amenity":"recycling","operator":"Malteser","recycling:clothes":"yes","recycling:shoes":"yes","recycling_type":"container"}},"type":"Feature"},
	{"geometry":{"coordinates":[8.847952,50.067135],"type":"Point"},"properties":{"osm_id":"5570991319","tag":{"amenity":"waste_basket","waste":"trash"}},"type":"Feature"},
	{"geometry":{"coordinates":[8.844276,50.071265],"type":"Point"},"properties":{"osm_id":"5574227931","tag":{"amenity":"waste_basket","waste":"trash"}},"type":"Feature"},
	{"geometry":{"coordinates":[8.840649,50.069478],"type":"Point"},"properties":{"osm_id":"5574344499","tag":{"amenity":"recycling","opening_hours":"24/7","recycling:cardboard":"yes","recycling:paper":"yes","recycling_type":"container","wheelchair":"no"}},"type":"Feature"},
	{"geometry":{"coordinates":[8.847499,50.065433],"type":"Point"},"properties":{"osm_id":"5578883170","tag":{"amenity":"waste_basket","waste":"trash"}},"type":"Feature"},
	{"geometry":{"coordinates":[8.85334,50.067107],"type":"Point"},"properties":{"osm_id":"5578919440","tag":{"amenity":"recycling","recycling:clothes":"yes","recycling:shoes":"yes","recycling_type":"container"}},"type":"Feature"},
	{"geometry":{"coordinates":[8.848209,50.067068],"type":"Point"},"properties":{"osm_id":"5578933360","tag":{"amenity":"waste_basket","waste":"trash"}},"type":"Feature"},
	{"geometry":{"coordinates":[8.845974,50.069748],"type":"Point"},"properties":{"osm_id":"5581881819","tag":{"amenity":"waste_basket","waste":"trash"}},"type":"Feature"},
	{"geometry":{"coordinates":[8.847486,50.069474],"type":"Point"},"properties":{"osm_id":"5581903223","tag":{"amenity":"waste_basket","waste":"trash"}},"type":"Feature"},
	{"geometry":{"coordinates":[8.844231,50.069535],"type":"Point"},"properties":{"osm_id":"5581903224","tag":{"amenity":"waste_basket","waste":"trash"}},"type":"Feature"},
	{"geometry":{"coordinates":[8.84765,50.069799],"type":"Point"},"properties":{"osm_id":"5581903227","tag":{"amenity":"waste_basket","waste":"trash"}},"type":"Feature"},
	{"geometry":{"coordinates":[8.848243,50.068127],"type":"Point"},"properties":{"osm_id":"5584804678","tag":{"amenity":"waste_basket","waste":"trash"}},"type":"Feature"},
	{"geometry":{"coordinates":[8.852579,50.072575],"type":"Point"},"properties":{"osm_id":"5585998686","tag":{"amenity":"waste_basket","colour":"blue","waste":"trash"}},"type":"Feature"},
	{"geometry":{"coordinates":[8.845799,50.076222],"type":"Point"},"properties":{"osm_id":"5586023916","tag":{"amenity":"recycling","operator":"Malteser","recycling:clothes":"yes","recycling:shoes":"yes","recycling_type":"container"}},"type":"Feature"},
	{"geometry":{"coordinates":[8.844099,50.069291],"type":"Point"},"properties":{"osm_id":"5587484476","tag":{"amenity":"waste_basket","waste":"trash"}},"type":"Feature"},
	{"geometry":{"coordinates":[8.834683,50.068902],"type":"Point"},"properties":{"osm_id":"5598988121","tag":{"amenity":"recycling","recycling:cardboard":"yes","recycling:paper":"yes","recycling_type":"container"}},"type":"Feature"},
	{"geometry":{"coordinates":[8.846487,50.069431],"type":"Point"},"properties":{"osm_id":"5599662782","tag":{"amenity":"recycling","operator":"Malteser","recycling:clothes":"yes","recycling:shoes":"yes","recycling_type":"container"}},"type":"Feature"},
	{"geometry":{"coordinates":[8.851492,50.069877],"type":"Point"},"properties":{"osm_id":"5599712708","tag":{"amenity":"waste_basket","waste":"trash"}},"type":"Feature"},
	{"geometry":{"coordinates":[8.844887,50.06994],"type":"Point"},"properties":{"osm_id":"5599712710","tag":{"amenity":"waste_basket","waste":"trash"}},"type":"Feature"},
	{"geometry":{"coordinates":[8.844206,50.069905],"type":"Point"},"properties":{"osm_id":"5599712711","tag":{"amenity":"waste_basket","waste":"trash"}},"type":"Feature"},
	{"geometry":{"coordinates":[8.848341,50.07499],"type":"Point"},"properties":{"osm_id":"5608626071","tag":{"amenity":"recycling","recycling:cardboard":"yes","recycling:clothes":"yes","recycling:paper":"yes","recycling_type":"container"}},"type":"Feature"},
	{"geometry":{"coordinates":[8.846984,50.069287],"type":"Point"},"properties":{"osm_id":"5629885026","tag":{"amenity":"waste_basket","waste":"trash"}},"type":"Feature"},
	{"geometry":{"coordinates":[8.846735,50.069383],"type":"Point"},"properties":{"osm_id":"5629885028","tag":{"amenity":"waste_basket","waste":"trash"}},"type":"Feature"},
	{"geometry":{"coordinates":[8.846643,50.119976],"type":"Point"},"properties":{"osm_id":"5660158732","tag":{"amenity":"recycling","recycling:glass_bottles":"yes","recycling_type":"container"}},"type":"Feature"},
	{"geometry":{"coordinates":[8.836457,50.119648],"type":"Point"},"properties":{"osm_id":"5660167655","tag":{"amenity":"recycling","recycling:clothes":"yes","recycling:glass_bottles":"yes","recycling_type":"container"}},"type":"Feature"},
	{"geometry":{"coordinates":[8.86316,50.07958],"type":"Point"},"properties":{"osm_id":"5661006046","tag":{"amenity":"recycling","recycling:clothes":"yes","recycling_type":"container"}},"type":"Feature"},
	{"geometry":{"coordinates":[8.84807,50.071599],"type":"Point"},"properties":{"osm_id":"5679583654","tag":{"amenity":"waste_basket","waste":"trash"}},"type":"Feature"},
	{"geometry":{"coordinates":[8.847394,50.073975],"type":"Point"},"properties":{"osm_id":"5679583657","tag":{"amenity":"waste_basket","waste":"trash"}},"type":"Feature"},
	{"geometry":{"coordinates":[8.845598,50.066316],"type":"Point"},"properties":{"osm_id":"5696071275","tag":{"amenity":"waste_basket","waste":"trash"}},"type":"Feature"},
	{"geometry":{"coordinates":[8.852745,50.067709],"type":"Point"},"properties":{"osm_id":"5715808534","tag":{"amenity":"waste_basket","waste":"trash"}},"type":"Feature"},
	{"geometry":{"coordinates":[8.847492,50.069055],"type":"Point"},"properties":{"osm_id":"5730825350","tag":{"amenity":"waste_basket","waste":"trash"}},"type":"Feature"},
	{"geometry":{"coordinates":[8.847553,50.066399],"type":"Point"},"properties":{"osm_id":"5731785253","tag":{"amenity":"waste_basket","waste":"trash"}},"type":"Feature"},
	{"geometry":{"coordinates":[8.856872,50.074027],"type":"Point"},"properties":{"osm_id":"5747080250","tag":{"amenity":"waste_basket","waste":"trash"}},"type":"Feature"},
	{"geometry":{"coordinates":[8.848394,50.071665],"type":"Point"},"properties":{"osm_id":"5747080251","tag":{"amenity":"waste_basket","waste":"trash"}},"type":"Feature"},
	{"geometry":{"coordinates":[8.846058,50.071669],"type":"Point"},"properties":{"osm_id":"5747080254","tag":{"amenity":"waste_basket","waste":"trash"}},"type":"Feature"},
	{"geometry":{"coordinates":[8.847466,50.071684],"type":"Point"},"properties":{"osm_id":"5747080258","tag":{"amenity":"waste_basket","waste":"trash"}},"type":"Feature"},
	{"geometry":{"coordinates":[8.846775,50.071658],"type":"Point"},"properties":{"osm_id":"5747080259","tag":{"amenity":"waste_basket","waste":"trash"}},"type":"Feature"},
	{"geometry":{"coordinates":[8.848512,50.071778],"type":"Point"},"properties":{"osm_id":"5747080261","tag":{"amenity":"waste_basket","waste":"trash"}},"type":"Feature"},
	{"geometry":{"coordinates":[8.856124,50.073637],"type":"Point"},"properties":{"osm_id":"5747080262","tag":{"amenity":"waste_basket","waste":"trash"}},"type":"Feature"},
	{"geometry":{"coordinates":[8.851681,50.073101],"type":"Point"},"properties":{"osm_id":"5760560016","tag":{"amenity":"waste_basket","colour":"blue","waste":"trash"}},"type":"Feature"},
	{"geometry":{"coordinates":[8.850739,50.072995],"type":"Point"},"properties":{"osm_id":"5760560018","tag":{"amenity":"waste_basket","waste":"trash"}},"type":"Feature"},
	{"geometry":{"coordinates":[8.853011,50.072199],"type":"Point"},"properties":{"osm_id":"5760560019","tag":{"amenity":"waste_basket","colour":"blue","waste":"trash"}},"type":"Feature"},
	{"geometry":{"coordinates":[8.86142,50.067676],"type":"Point"},"properties":{"osm_id":"5761684707","tag":{"amenity":"waste_basket","waste":"trash"}},"type":"Feature"},
	{"geometry":{"coordinates":[8.862201,50.067703],"type":"Point"},"properties":{"osm_id":"5909526096","tag":{"amenity":"waste_basket","waste":"trash"}},"type":"Feature"},
	{"geometry":{"coordinates":[8.862205,50.067516],"type":"Point"},"properties":{"osm_id":"5909526099","tag":{"amenity":"waste_basket","waste":"trash"}},"type":"Feature"},
	{"geometry":{"coordinates":[8.862172,50.067181],"type":"Point"},"properties":{"osm_id":"5909526101","tag":{"amenity":"waste_basket","waste":"trash"}},"type":"Feature"},
	{"geometry":{"coordinates":[8.861699,50.067853],"type":"Point"},"properties":{"osm_id":"6089764912","tag":{"amenity":"waste_basket","waste":"trash"}},"type":"Feature"},
	{"geometry":{"coordinates":[8.840252,50.067055],"type":"Point"},"properties":{"osm_id":"6314825686","tag":{"amenity":"recycling","opening_hours":"24/7","operator":"Malteser","recycling:clothes":"yes","recycling:shoes":"yes","recycling_type":"container","wheelchair":"no"}},"type":"Feature"},
	{"geometry":{"coordinates":[8.855278,50.077844],"type":"Point"},"properties":{"osm_id":"6318850698","tag":{"amenity":"waste_basket","waste":"trash"}},"type":"Feature"},
	{"geometry":{"coordinates":[8.85108,50.071204],"type":"Point"},"properties":{"osm_id":"6325212654","tag":{"amenity":"waste_basket","waste":"trash"}},"type":"Feature"},
	{"geometry":{"coordinates":[8.868838,50.071862],"type":"Point"},"properties":{"name":"Glas- und Papiercontainer","osm_id":"6507961785","tag":{"amenity":"recycling"}},"type":"Feature"},
	{"geometry":{"coordinates":[8.848071,50.067499],"type":"Point"},"properties":{"osm_id":"6781331872","tag":{"amenity":"waste_basket","waste":"trash"}},"type":"Feature"},
	{"geometry":{"coordinates":[8.863761,50.071956],"type":"Point"},"properties":{"osm_id":"7434266632","tag":{"amenity":"recycling","recycling:glass":"yes","recycling:paper":"yes","recycling_type":"container"}},"type":"Feature"},
	{"geometry":{"coordinates":[8.865071,50.069293],"type":"Point"},"properties":{"osm_id":"7434570879","tag":{"amenity":"waste_basket","waste":"trash"}},"type":"Feature"},
	{"geometry":{"coordinates":[8.873315,50.072858],"type":"Point"},"properties":{"osm_id":"7434570880","tag":{"amenity":"waste_basket","waste":"trash"}},"type":"Feature"},
	{"geometry":{"coordinates":[8.853025,50.081426],"type":"Point"},"properties":{"osm_id":"7489463240","tag":{"amenity":"recycling","recycling:glass":"yes","recycling:paper":"yes","recycling_type":"container"}},"type":"Feature"},
	{"geometry":{"coordinates":[8.859208,50.07135],"type":"Point"},"properties":{"osm_id":"7494743030","tag":{"amenity":"recycling","recycling:clothes":"yes","recycling_type":"container"}},"type":"Feature"},
	{"geometry":{"coordinates":[8.792316,50.098486],"type":"Point"},"properties":{"osm_id":"7938677962","tag":{"amenity":"waste_basket"}},"type":"Feature"}
]
}
