{
"type": "FeatureCollection",
"features": [
	{"geometry":{"coordinates":[8.865093,49.918261],"type":"Point"},"properties":{"osm_id":"354474558","tag":{"amenity":"recycling","recycling:cans":"yes","recycling:clothes":"yes","recycling:glass":"yes","recycling_type":"container"}},"type":"Feature"},
	{"geometry":{"coordinates":[8.832534,49.903508],"type":"Point"},"properties":{"osm_id":"517249903","tag":{"amenity":"recycling","recycling_type":"container"}},"type":"Feature"},
	{"geometry":{"coordinates":[8.86558,49.906357],"type":"Point"},"properties":{"osm_id":"688023124","tag":{"amenity":"waste_basket"}},"type":"Feature"},
	{"geometry":{"coordinates":[8.857111,49.950431],"type":"Point"},"properties":{"osm_id":"992928650","tag":{"amenity":"recycling","recycling:cans":"yes","recycling:clothes":"yes","recycling:glass":"yes","recycling_type":"container"}},"type":"Feature"},
	{"geometry":{"coordinates":[8.858902,49.897572],"type":"Point"},"properties":{"osm_id":"1442214974","tag":{"amenity":"waste_basket"}},"type":"Feature"},
	{"geometry":{"coordinates":[8.856038,49.895291],"type":"Point"},"properties":{"osm_id":"1442214985","tag":{"amenity":"waste_basket"}},"type":"Feature"},
	{"geometry":{"coordinates":[8.854069,49.895517],"type":"Point"},"properties":{"osm_id":"1442214997","tag":{"amenity":"waste_basket"}},"type":"Feature"},
	{"geometry":{"coordinates":[8.850534,49.894762],"type":"Point"},"properties":{"osm_id":"1626325138","tag":{"amenity":"recycling","location":"overground","recycling:glass":"no","recycling:glass_bottles":"yes","recycling_type":"container"}},"type":"Feature"},
	{"geometry":{"coordinates":[8.836728,49.899222],"type":"Point"},"properties":{"osm_id":"1627124701","tag":{"amenity":"recycling"}},"type":"Feature"},
	{"geometry":{"coordinates":[8.854566,49.899332],"type":"Point"},"properties":{"osm_id":"1629097825","tag":{"amenity":"recycling","recycling:clothes":"yes","recycling:glass_bottles":"yes","recycling_type":"container"}},"type":"Feature"},
	{"geometry":{"coordinates":[8.851402,49.900813],"type":"Point"},"properties":{"osm_id":"1629304085","tag":{"amenity":"recycling"}},"type":"Feature"},
	{"geometry":{"coordinates":[8.821603,49.895644],"type":"Point"},"properties":{"osm_id":"1952318629","tag":{"amenity":"recycling","recycling:cans":"yes","recycling:clothes":"yes","recycling:glass_bottles":"yes","recycling_type":"container"}},"type":"Feature"},
	{"geometry":{"coordinates":[8.84983,49.948206],"type":"Point"},"properties":{"osm_id":"2160060645","tag":{"amenity":"recycling","recycling:batteries":"yes","recycling_type":"container"}},"type":"Feature"},
	{"geometry":{"coordinates":[8.848204,49.947976],"type":"Point"},"properties":{"osm_id":"2163062628","tag":{"amenity":"recycling","recycling:glass_bottles":"yes","recycling_type":"container"}},"type":"Feature"},
	{"geometry":{"coordinates":[8.80516,49.895457],"type":"Point"},"properties":{"osm_id":"2411893099","tag":{"amenity":"waste_basket"}},"type":"Feature"},
	{"geometry":{"coordinates":[8.861413,49.919836],"type":"Point"},"properties":{"osm_id":"2872549910","tag":{"amenity":"recycling","recycling:cans":"yes","recycling:clothes":"yes","recycling:glass":"yes","recycling_type":"container"}},"type":"Feature"},
	{"geometry":{"coordinates":[8.854984,49.916915],"type":"Point"},"properties":{"osm_id":"2873688320","tag":{"amenity":"recycling","recycling:cans":"yes","recycling:glass":"yes","recycling_type":"container"}},"type":"Feature"},
	{"geometry":{"coordinates":[8.865296,49.921332],"type":"Point"},"properties":{"osm_id":"2873688336","tag":{"amenity":"recycling","recycling:cans":"yes","recycling:glass":"yes","recycling_type":"container"}},"type":"Feature"},
	{"geometry":{"coordinates":[8.865214,49.921357],"type":"Point"},"properties":{"osm_id":"2873688337","tag":{"amenity":"recycling","recycling:clothes":"yes","recycling_type":"container"}},"type":"Feature"},
	{"geometry":{"coordinates":[8.869916,49.925197],"type":"Point"},"properties":{"osm_id":"2873688348","tag":{"amenity":"recycling","recycling:cans":"yes","recycling:clothes":"yes","recycling:glass":"yes","recycling_type":"container"}},"type":"Feature"},
	{"geometry":{"coordinates":[8.863925,49.929699],"type":"Point"},"properties":{"osm_id":"2873688351","tag":{"amenity":"recycling","recycling:cans":"yes","recycling:glass":"yes","recycling_type":"container"}},"type":"Feature"},
	{"geometry":{"coordinates":[8.858649,49.922045],"type":"Point"},"properties":{"osm_id":"2874151034","tag":{"amenity":"recycling","recycling:clothes":"yes","recycling_type":"container"}},"type":"Feature"},
	{"geometry":{"coordinates":[8.863892,49.929626],"type":"Point"},"properties":{"osm_id":"2877642811","tag":{"amenity":"recycling","recycling:clothes":"yes","recycling_type":"container"}},"type":"Feature"},
	{"geometry":{"coordinates":[8.852637,49.924613],"type":"Point"},"properties":{"osm_id":"2880774087","tag":{"amenity":"recycling","recycling:cans":"yes","recycling:clothes":"yes","recycling:glass":"yes","recycling_type":"container"}},"type":"Feature"},
	{"geometry":{"coordinates":[8.857908,49.925399],"type":"Point"},"properties":{"osm_id":"2880774088","tag":{"amenity":"recycling","recycling:cans":"yes","recycling:glass":"yes","recycling_type":"container"}},"type":"Feature"},
	{"geometry":{"coordinates":[8.849402,49.923131],"type":"Point"},"properties":{"osm_id":"2886043359","tag":{"amenity":"waste_basket"}},"type":"Feature"},
	{"geometry":{"coordinates":[8.831255,49.897558],"type":"Point"},"properties":{"osm_id":"3348574547","tag":{"amenity":"waste_basket"}},"type":"Feature"},
	{"geometry":{"coordinates":[8.841919,49.946434],"type":"Point"},"properties":{"osm_id":"4173350797","tag":{"amenity":"recycling","recycling:glass":"yes","recycling_type":"container"}},"type":"Feature"},
	{"geometry":{"coordinates":[8.838482,49.898865],"type":"Point"},"properties":{"osm_id":"5592723509","tag":{"amenity":"waste_basket"}},"type":"Feature"},
	{"geometry":{"coordinates":[8.84421,49.895081],"type":"Point"},"properties":{"osm_id":"5602489183","tag":{"amenity":"waste_basket"}},"type":"Feature"},
	{"geometry":{"coordinates":[8.845494,49.895033],"type":"Point"},"properties":{"osm_id":"5602489185","tag":{"amenity":"recycling","recycling:clothes":"yes","recycling_type":"container"}},"type":"Feature"},
	{"geometry":{"coordinates":[8.850547,49.897015],"type":"Point"},"properties":{"osm_id":"5617538844","tag":{"amenity":"waste_basket"}},"type":"Feature"},
	{"geometry":{"coordinates":[8.850449,49.896735],"type":"Point"},"properties":{"osm_id":"5617538846","tag":{"amenity":"waste_basket"}},"type":"Feature"},
	{"geometry":{"coordinates":[8.85147,49.896271],"type":"Point"},"properties":{"osm_id":"5617538848","tag":{"amenity":"waste_basket"}},"type":"Feature"},
	{"geometry":{"coordinates":[8.852218,49.896066],"type":"Point"},"properties":{"osm_id":"5617538849","tag":{"amenity":"waste_basket"}},"type":"Feature"},
	{"geometry":{"coordinates":[8.850608,49.894721],"type":"Point"},"properties":{"osm_id":"5617538850","tag":{"amenity":"recycling","recycling:clothes":"yes","recycling_type":"container"}},"type":"Feature"},
	{"geometry":{"coordinates":[8.848733,49.899127],"type":"Point"},"properties":{"osm_id":"5634906534","tag":{"amenity":"waste_basket"}},"type":"Feature"},
	{"geometry":{"coordinates":[8.876707,49.924895],"type":"Point"},"properties":{"osm_id":"5896174417","tag":{"amenity":"waste_basket","waste":"trash"}},"type":"Feature"},
	{"geometry":{"coordinates":[8.855727,49.921274],"type":"Point"},"properties":{"osm_id":"5897362348","tag":{"amenity":"waste_basket","waste":"trash"}},"type":"Feature"},
	{"geometry":{"coordinates":[8.855523,49.92117],"type":"Point"},"properties":{"osm_id":"5897362349","tag":{"amenity":"waste_basket","waste":"trash"}},"type":"Feature"},
	{"geometry":{"coordinates":[8.859671,49.920235],"type":"Point"},"properties":{"osm_id":"5897362370","tag":{"amenity":"waste_basket","waste":"trash"}},"type":"Feature"},
	{"geometry":{"coordinates":[8.859031,49.920722],"type":"Point"},"properties":{"osm_id":"5897362371","tag":{"amenity":"waste_basket","waste":"trash"}},"type":"Feature"},
	{"geometry":{"coordinates":[8.862733,49.920355],"type":"Point"},"properties":{"osm_id":"5897362379","tag":{"amenity":"waste_basket","waste":"trash"}},"type":"Feature"},
	{"geometry":{"coordinates":[8.863653,49.919603],"type":"Point"},"properties":{"osm_id":"5897362380","tag":{"amenity":"waste_basket","waste":"trash"}},"type":"Feature"},
	{"geometry":{"coordinates":[8.870347,49.921966],"type":"Point"},"properties":{"osm_id":"5904369114","tag":{"amenity":"recycling","contact:phone":"+49 176 97512239","operator":"MNT Textilverwertung","recycling:clothes":"yes","recycling:shoes":"yes","recycling_type":"container"}},"type":"Feature"},
	{"geometry":{"coordinates":[8.867916,49.923841],"type":"Point"},"properties":{"osm_id":"5908191496","tag":{"amenity":"recycling","recycling:clothes":"yes","recycling:shoes":"yes","recycling_type":"container"}},"type":"Feature"},
	{"geometry":{"coordinates":[8.866813,49.933226],"type":"Point"},"properties":{"osm_id":"5909665070","tag":{"amenity":"waste_basket","waste":"trash"}},"type":"Feature"},
	{"geometry":{"coordinates":[8.865133,49.932937],"type":"Point"},"properties":{"osm_id":"5909665071","tag":{"amenity":"waste_basket","waste":"trash"}},"type":"Feature"},
	{"geometry":{"coordinates":[8.864081,49.932691],"type":"Point"},"properties":{"osm_id":"5909665072","tag":{"amenity":"waste_basket","waste":"trash"}},"type":"Feature"},
	{"geometry":{"coordinates":[8.864348,49.932569],"type":"Point"},"properties":{"osm_id":"5909665073","tag":{"amenity":"waste_basket","waste":"trash"}},"type":"Feature"},
	{"geometry":{"coordinates":[8.865016,49.931588],"type":"Point"},"properties":{"osm_id":"5909665076","tag":{"amenity":"recycling","recycling:clothes":"yes","recycling:glass":"yes","recycling:shoes":"yes","recycling_type":"container"}},"type":"Feature"},
	{"geometry":{"coordinates":[8.872364,49.92468],"type":"Point"},"properties":{"osm_id":"5920897659","tag":{"amenity":"recycling","recycling:clothes":"yes","recycling_type":"container"}},"type":"Feature"},
	{"geometry":{"coordinates":[8.873393,49.922586],"type":"Point"},"properties":{"osm_id":"5920897680","tag":{"amenity":"waste_basket","waste":"trash"}},"type":"Feature"},
	{"geometry":{"coordinates":[8.853826,49.916647],"type":"Point"},"properties":{"osm_id":"5930309013","tag":{"amenity":"recycling","recycling:clothes":"yes","recycling_type":"container"}},"type":"Feature"},
	{"geometry":{"coordinates":[8.852692,49.915417],"type":"Point"},"properties":{"osm_id":"5930309014","tag":{"amenity":"recycling","recycling:glass_bottles":"yes","recycling_type":"container"}},"type":"Feature"},
	{"geometry":{"coordinates":[8.85254,49.924577],"type":"Point"},"properties":{"osm_id":"5931636510","tag":{"amenity":"waste_basket","waste":"trash"}},"type":"Feature"},
	{"geometry":{"coordinates":[8.862108,49.934176],"type":"Point"},"properties":{"osm_id":"5932464119","tag":{"amenity":"waste_basket","waste":"trash"}},"type":"Feature"},
	{"geometry":{"coordinates":[8.852071,49.942351],"type":"Point"},"properties":{"osm_id":"5932464121","tag":{"amenity":"waste_basket","waste":"trash"}},"type":"Feature"},
	{"geometry":{"coordinates":[8.845966,49.934548],"type":"Point"},"properties":{"osm_id":"5932464135","tag":{"amenity":"waste_basket","waste":"trash"}},"type":"Feature"},
	{"geometry":{"coordinates":[8.848106,49.932901],"type":"Point"},"properties":{"osm_id":"5932464137","tag":{"amenity":"waste_basket","waste":"trash"}},"type":"Feature"},
	{"geometry":{"coordinates":[8.84944,49.929692],"type":"Point"},"properties":{"osm_id":"5932464139","tag":{"amenity":"waste_basket","waste":"trash"}},"type":"Feature"},
	{"geometry":{"coordinates":[8.850356,49.927713],"type":"Point"},"properties":{"osm_id":"5932464145","tag":{"amenity":"waste_basket","waste":"trash"}},"type":"Feature"},
	{"geometry":{"coordinates":[8.850888,49.917105],"type":"Point"},"properties":{"osm_id":"5932464151","tag":{"amenity":"waste_basket","waste":"trash"}},"type":"Feature"},
	{"geometry":{"coordinates":[8.849698,49.932028],"type":"Point"},"properties":{"osm_id":"5934174782","tag":{"amenity":"waste_basket","waste":"trash"}},"type":"Feature"},
	{"geometry":{"coordinates":[8.873454,49.921108],"type":"Point"},"properties":{"osm_id":"5940795931","tag":{"amenity":"waste_basket","waste":"trash"}},"type":"Feature"},
	{"geometry":{"coordinates":[8.873014,49.925491],"type":"Point"},"properties":{"osm_id":"5972546777","tag":{"amenity":"waste_basket","waste":"trash"}},"type":"Feature"},
	{"geometry":{"coordinates":[8.871548,49.925186],"type":"Point"},"properties":{"osm_id":"5972547789","tag":{"amenity":"recycling","recycling:clothes":"yes","recycling:shoes":"yes","recycling_type":"container"}},"type":"Feature"},
	{"geometry":{"coordinates":[8.871914,49.924807],"type":"Point"},"properties":{"osm_id":"6019565700","tag":{"amenity":"waste_basket","waste":"trash"}},"type":"Feature"},
	{"geometry":{"coordinates":[8.871967,49.924737],"type":"Point"},"properties":{"osm_id":"6019565703","tag":{"amenity":"waste_basket","waste":"trash"}},"type":"Feature"},
	{"geometry":{"coordinates":[8.870323,49.924658],"type":"Point"},"properties":{"osm_id":"6022875639","tag":{"amenity":"waste_basket","waste":"trash"}},"type":"Feature"},
	{"geometry":{"coordinates":[8.864645,49.92146],"type":"Point"},"properties":{"osm_id":"6037147813","tag":{"amenity":"waste_basket","waste":"trash"}},"type":"Feature"},
	{"geometry":{"coordinates":[8.86587,49.927528],"type":"Point"},"properties":{"osm_id":"6037147819","tag":{"amenity":"waste_basket","waste":"trash"}},"type":"Feature"},
	{"geometry":{"coordinates":[8.873357,49.925067],"type":"Point"},"properties":{"osm_id":"6055555117","tag":{"amenity":"waste_basket","waste":"trash"}},"type":"Feature"},
	{"geometry":{"coordinates":[8.871844,49.925103],"type":"Point"},"properties":{"osm_id":"6055556196","tag":{"amenity":"waste_basket","waste":"trash"}},"type":"Feature"},
	{"geometry":{"coordinates":[8.838802,49.898707],"type":"Point"},"properties":{"osm_id":"6914733532","tag":{"amenity":"waste_basket","waste":"trash"}},"type":"Feature"},
	{"geometry":{"coordinates":[8.83784,49.899639],"type":"Point"},"properties":{"osm_id":"6914733544","tag":{"amenity":"waste_basket","waste":"trash"}},"type":"Feature"}
]
}
