{
"type": "FeatureCollection",
"features": [
	{"geometry":{"coordinates":[8.79369,49.86786],"type":"Point"},"properties":{"osm_id":"31798635","tag":{"amenity":"recycling","location":"overground","recycling_type":"container"}},"type":"Feature"},
	{"geometry":{"coordinates":[8.831664,49.87479],"type":"Point"},"properties":{"osm_id":"426663714","tag":{"amenity":"recycling","recycling:cans":"yes","recycling:clothes":"yes","recycling:glass":"yes"}},"type":"Feature"},
	{"geometry":{"coordinates":[8.831233,49.870223],"type":"Point"},"properties":{"osm_id":"426918563","tag":{"amenity":"recycling","recycling:clothes":"yes","recycling:glass":"yes"}},"type":"Feature"},
	{"geometry":{"coordinates":[8.834533,49.878627],"type":"Point"},"properties":{"osm_id":"427561250","tag":{"amenity":"recycling","recycling:cans":"yes","recycling:clothes":"yes","recycling:glass":"yes"}},"type":"Feature"},
	{"geometry":{"coordinates":[8.844892,49.866556],"type":"Point"},"properties":{"osm_id":"430305774","tag":{"amenity":"recycling"}},"type":"Feature"},
	{"geometry":{"coordinates":[8.820262,49.877135],"type":"Point"},"properties":{"osm_id":"433631455","tag":{"amenity":"recycling"}},"type":"Feature"},
	{"geometry":{"coordinates":[8.822305,49.876911],"type":"Point"},"properties":{"osm_id":"433636467","tag":{"amenity":"recycling"}},"type":"Feature"},
	{"geometry":{"coordinates":[8.813283,49.880971],"type":"Point"},"properties":{"osm_id":"689452458","tag":{"amenity":"recycling","recycling:cans":"yes","recycling:clothes":"yes","recycling:glass":"yes","recycling_type":"container"}},"type":"Feature"},
	{"geometry":{"coordinates":[8.815005,49.88167],"type":"Point"},"properties":{"osm_id":"707603495","tag":{"amenity":"recycling","recycling:clothes":"yes"}},"type":"Feature"},
	{"geometry":{"coordinates":[8.849321,49.869139],"type":"Point"},"properties":{"osm_id":"1412835196","tag":{"amenity":"recycling","recycling:glass_bottles":"yes"}},"type":"Feature"},
	{"geometry":{"coordinates":[8.850031,49.869034],"type":"Point"},"properties":{"osm_id":"1412835198","tag":{"amenity":"recycling","recycling:clothes":"yes"}},"type":"Feature"},
	{"geometry":{"coordinates":[8.840264,49.889468],"type":"Point"},"properties":{"osm_id":"1628499440","tag":{"amenity":"recycling"}},"type":"Feature"},
	{"geometry":{"coordinates":[8.838255,49.894092],"type":"Point"},"properties":{"osm_id":"1629000488","tag":{"amenity":"recycling","location":"overground","recycling:clothes":"yes","recycling:glass_bottles":"yes","recycling_type":"container"}},"type":"Feature"},
	{"geometry":{"coordinates":[8.829051,49.839983],"type":"Point"},"properties":{"osm_id":"1629848142","tag":{"amenity":"recycling","location":"overground","recycling_type":"container"}},"type":"Feature"},
	{"geometry":{"coordinates":[8.820447,49.873119],"type":"Point"},"properties":{"osm_id":"3145021167","tag":{"amenity":"recycling"}},"type":"Feature"},
	{"geometry":{"coordinates":[8.835638,49.883418],"type":"Point"},"properties":{"osm_id":"3644353834","tag":{"amenity":"recycling"}},"type":"Feature"},
	{"geometry":{"coordinates":[8.829702,49.84755],"type":"Point"},"properties":{"name":"Altglas","osm_id":"4345477523","tag":{"amenity":"recycling","location":"overground","recycling_type":"container"}},"type":"Feature"}
]
}
