{
"type": "FeatureCollection",
"features": [
	{"geometry":{"coordinates":[8.813663,49.772786],"type":"Point"},"properties":{"osm_id":"365007033","tag":{"amenity":"recycling","recycling:clothes":"yes","recycling:scrap_metal":"yes","recycling_type":"container"}},"type":"Feature"},
	{"geometry":{"coordinates":[8.810322,49.768403],"type":"Point"},"properties":{"osm_id":"695656670","tag":{"amenity":"recycling","recycling:clothes":"yes","recycling:glass":"yes","recycling_type":"container"}},"type":"Feature"},
	{"geometry":{"coordinates":[8.801606,49.772916],"type":"Point"},"properties":{"osm_id":"705527620","tag":{"amenity":"recycling","recycling:clothes":"yes"}},"type":"Feature"},
	{"geometry":{"coordinates":[8.801304,49.77283],"type":"Point"},"properties":{"osm_id":"705527621","tag":{"amenity":"recycling","recycling:cans":"yes","recycling:glass":"yes"}},"type":"Feature"},
	{"geometry":{"coordinates":[8.808438,49.746226],"type":"Point"},"properties":{"osm_id":"826787869","tag":{"amenity":"recycling","recycling:cans":"yes","recycling:glass":"yes","recycling_type":"container"}},"type":"Feature"},
	{"geometry":{"coordinates":[8.808651,49.729254],"type":"Point"},"properties":{"osm_id":"1774095163","tag":{"amenity":"waste_basket"}},"type":"Feature"},
	{"geometry":{"coordinates":[8.839804,49.733639],"type":"Point"},"properties":{"osm_id":"1774095237","tag":{"amenity":"waste_basket"}},"type":"Feature"},
	{"geometry":{"coordinates":[8.848111,49.738418],"type":"Point"},"properties":{"osm_id":"1774095258","tag":{"amenity":"waste_basket"}},"type":"Feature"},
	{"geometry":{"coordinates":[8.847473,49.751635],"type":"Point"},"properties":{"osm_id":"1774095327","tag":{"amenity":"waste_basket"}},"type":"Feature"},
	{"geometry":{"coordinates":[8.825916,49.751917],"type":"Point"},"properties":{"osm_id":"1774095337","tag":{"amenity":"waste_basket"}},"type":"Feature"},
	{"geometry":{"coordinates":[8.82888,49.755181],"type":"Point"},"properties":{"osm_id":"1774095369","tag":{"amenity":"waste_basket"}},"type":"Feature"},
	{"geometry":{"coordinates":[8.840782,49.763705],"type":"Point"},"properties":{"osm_id":"1774095371","tag":{"amenity":"waste_basket"}},"type":"Feature"},
	{"geometry":{"coordinates":[8.818232,49.757037],"type":"Point"},"properties":{"osm_id":"7367498028","tag":{"amenity":"recycling","operator":"ZAW","recycling:glass":"yes","recycling_type":"container"}},"type":"Feature"}
]
}
