{
"type": "FeatureCollection",
"features": [
	{"geometry":{"coordinates":[8.806596,49.574413],"type":"Point"},"properties":{"osm_id":"939720696","tag":{"amenity":"waste_basket"}},"type":"Feature"},
	{"geometry":{"coordinates":[8.811532,49.566295],"type":"Point"},"properties":{"osm_id":"939720713","tag":{"amenity":"waste_basket"}},"type":"Feature"},
	{"geometry":{"coordinates":[8.809546,49.571098],"type":"Point"},"properties":{"osm_id":"939720771","tag":{"amenity":"waste_basket"}},"type":"Feature"},
	{"geometry":{"coordinates":[8.809005,49.572232],"type":"Point"},"properties":{"osm_id":"939720865","tag":{"amenity":"waste_basket"}},"type":"Feature"},
	{"geometry":{"coordinates":[8.811981,49.565623],"type":"Point"},"properties":{"osm_id":"939720982","tag":{"amenity":"waste_basket"}},"type":"Feature"},
	{"geometry":{"coordinates":[8.808434,49.606115],"type":"Point"},"properties":{"osm_id":"951650903","tag":{"amenity":"waste_basket"}},"type":"Feature"},
	{"geometry":{"coordinates":[8.803628,49.586759],"type":"Point"},"properties":{"osm_id":"955108423","tag":{"amenity":"waste_basket"}},"type":"Feature"},
	{"geometry":{"coordinates":[8.805269,49.580808],"type":"Point"},"properties":{"osm_id":"955108426","tag":{"amenity":"waste_basket"}},"type":"Feature"},
	{"geometry":{"coordinates":[8.803259,49.590218],"type":"Point"},"properties":{"osm_id":"955108519","tag":{"amenity":"waste_basket"}},"type":"Feature"},
	{"geometry":{"coordinates":[8.814237,49.586757],"type":"Point"},"properties":{"osm_id":"956369641","tag":{"amenity":"waste_basket"}},"type":"Feature"},
	{"geometry":{"coordinates":[8.817329,49.593863],"type":"Point"},"properties":{"osm_id":"957534244","tag":{"amenity":"waste_basket"}},"type":"Feature"},
	{"geometry":{"coordinates":[8.82061,49.573523],"type":"Point"},"properties":{"osm_id":"957534245","tag":{"amenity":"waste_basket","check_date":"2021-05-16"}},"type":"Feature"},
	{"geometry":{"coordinates":[8.82313,49.571524],"type":"Point"},"properties":{"osm_id":"2476751038","tag":{"amenity":"waste_basket"}},"type":"Feature"},
	{"geometry":{"coordinates":[8.833518,49.584557],"type":"Point"},"properties":{"osm_id":"2701058785","tag":{"amenity":"recycling","recycling:clothes":"yes","recycling:glass":"yes","recycling_type":"container"}},"type":"Feature"},
	{"geometry":{"coordinates":[8.828193,49.562136],"type":"Point"},"properties":{"osm_id":"6324073766","tag":{"amenity":"waste_disposal"}},"type":"Feature"},
	{"geometry":{"coordinates":[8.842946,49.566323],"type":"Point"},"properties":{"name":"Containerdienst \u00c3\u009cberwald","osm_id":"7828677324","tag":{"amenity":"recycling","recycling_type":"centre"}},"type":"Feature"},
	{"geometry":{"coordinates":[8.812024,49.565094],"type":"Point"},"properties":{"osm_id":"7924196937","tag":{"amenity":"waste_basket","waste":"dog_excrement"}},"type":"Feature"},
	{"geometry":{"coordinates":[8.830831,49.569533],"type":"Point"},"properties":{"osm_id":"8196758265","tag":{"amenity":"recycling","recycling:clothes":"yes","recycling:glass":"yes","recycling:glass_bottles":"yes","recycling_type":"container"}},"type":"Feature"},
	{"geometry":{"coordinates":[8.847362,49.575322],"type":"Point"},"properties":{"osm_id":"8494244410","tag":{"amenity":"recycling","recycling:clothes":"yes","recycling:glass_bottles":"yes","recycling:shoes":"yes","recycling_type":"container"}},"type":"Feature"},
	{"geometry":{"coordinates":[8.832534,49.568706],"type":"Point"},"properties":{"osm_id":"8566886820","tag":{"amenity":"recycling","recycling_type":"container"}},"type":"Feature"},
	{"geometry":{"coordinates":[8.839241,49.570121],"type":"Point"},"properties":{"osm_id":"8566991817","tag":{"amenity":"recycling","recycling:clothes":"yes","recycling:glass_bottles":"yes","recycling:shoes":"yes","recycling_type":"container"}},"type":"Feature"}
]
}
