{
"type": "FeatureCollection",
"features": [
	{"geometry":{"coordinates":[8.84276,49.268799],"type":"Point"},"properties":{"osm_id":"735959553","tag":{"amenity":"waste_basket"}},"type":"Feature"},
	{"geometry":{"coordinates":[8.844162,49.268409],"type":"Point"},"properties":{"osm_id":"735959556","tag":{"amenity":"waste_basket"}},"type":"Feature"},
	{"geometry":{"coordinates":[8.841494,49.270927],"type":"Point"},"properties":{"osm_id":"735959558","tag":{"amenity":"waste_basket"}},"type":"Feature"},
	{"geometry":{"coordinates":[8.840667,49.271872],"type":"Point"},"properties":{"osm_id":"735959559","tag":{"amenity":"waste_basket"}},"type":"Feature"},
	{"geometry":{"coordinates":[8.844585,49.269762],"type":"Point"},"properties":{"osm_id":"736341044","tag":{"amenity":"waste_basket"}},"type":"Feature"},
	{"geometry":{"coordinates":[8.865683,49.274717],"type":"Point"},"properties":{"osm_id":"738289123","tag":{"amenity":"waste_basket"}},"type":"Feature"},
	{"geometry":{"coordinates":[8.863411,49.32362],"type":"Point"},"properties":{"osm_id":"757213513","tag":{"amenity":"recycling","recycling:glass":"yes","recycling_type":"container"}},"type":"Feature"},
	{"geometry":{"coordinates":[8.845506,49.26784],"type":"Point"},"properties":{"osm_id":"1868443232","tag":{"amenity":"waste_basket"}},"type":"Feature"},
	{"geometry":{"coordinates":[8.846221,49.268023],"type":"Point"},"properties":{"osm_id":"1868443233","tag":{"amenity":"waste_basket"}},"type":"Feature"},
	{"geometry":{"coordinates":[8.843499,49.268698],"type":"Point"},"properties":{"osm_id":"1868443240","tag":{"amenity":"waste_basket"}},"type":"Feature"},
	{"geometry":{"coordinates":[8.848169,49.269126],"type":"Point"},"properties":{"osm_id":"1868443250","tag":{"amenity":"waste_basket"}},"type":"Feature"},
	{"geometry":{"coordinates":[8.848266,49.269145],"type":"Point"},"properties":{"osm_id":"1868443253","tag":{"amenity":"waste_basket"}},"type":"Feature"},
	{"geometry":{"coordinates":[8.836702,49.270771],"type":"Point"},"properties":{"osm_id":"1868443275","tag":{"amenity":"waste_basket"}},"type":"Feature"},
	{"geometry":{"coordinates":[8.834687,49.27128],"type":"Point"},"properties":{"osm_id":"1868443280","tag":{"amenity":"waste_basket"}},"type":"Feature"},
	{"geometry":{"coordinates":[8.848645,49.271934],"type":"Point"},"properties":{"osm_id":"1868443289","tag":{"amenity":"waste_basket"}},"type":"Feature"},
	{"geometry":{"coordinates":[8.848738,49.272009],"type":"Point"},"properties":{"osm_id":"1868443290","tag":{"amenity":"waste_basket"}},"type":"Feature"},
	{"geometry":{"coordinates":[8.842162,49.272716],"type":"Point"},"properties":{"osm_id":"1868443294","tag":{"amenity":"waste_basket"}},"type":"Feature"},
	{"geometry":{"coordinates":[8.842027,49.272751],"type":"Point"},"properties":{"osm_id":"1868443297","tag":{"amenity":"waste_basket"}},"type":"Feature"},
	{"geometry":{"coordinates":[8.843451,49.274891],"type":"Point"},"properties":{"osm_id":"1868443301","tag":{"amenity":"waste_basket"}},"type":"Feature"},
	{"geometry":{"coordinates":[8.843689,49.275011],"type":"Point"},"properties":{"osm_id":"1868443302","tag":{"amenity":"waste_basket"}},"type":"Feature"},
	{"geometry":{"coordinates":[8.846493,49.275344],"type":"Point"},"properties":{"osm_id":"1868443304","tag":{"amenity":"waste_basket"}},"type":"Feature"},
	{"geometry":{"coordinates":[8.846584,49.275429],"type":"Point"},"properties":{"osm_id":"1868443305","tag":{"amenity":"waste_basket"}},"type":"Feature"},
	{"geometry":{"coordinates":[8.813709,49.325021],"type":"Point"},"properties":{"osm_id":"1894200189","tag":{"amenity":"waste_basket","source:position":"Bing 2012"}},"type":"Feature"},
	{"geometry":{"coordinates":[8.818572,49.324663],"type":"Point"},"properties":{"osm_id":"3367098616","tag":{"amenity":"waste_basket"}},"type":"Feature"},
	{"geometry":{"coordinates":[8.817152,49.324317],"type":"Point"},"properties":{"osm_id":"3380935299","tag":{"amenity":"waste_basket"}},"type":"Feature"},
	{"geometry":{"coordinates":[8.814371,49.320663],"type":"Point"},"properties":{"osm_id":"3382182439","tag":{"amenity":"waste_basket"}},"type":"Feature"},
	{"geometry":{"coordinates":[8.819483,49.320113],"type":"Point"},"properties":{"osm_id":"3382187618","tag":{"amenity":"waste_basket"}},"type":"Feature"},
	{"geometry":{"coordinates":[8.826475,49.325108],"type":"Point"},"properties":{"osm_id":"3390417054","tag":{"amenity":"waste_basket"}},"type":"Feature"},
	{"geometry":{"coordinates":[8.815076,49.323933],"type":"Point"},"properties":{"osm_id":"3390417208","tag":{"amenity":"waste_basket"}},"type":"Feature"},
	{"geometry":{"coordinates":[8.822715,49.321689],"type":"Point"},"properties":{"osm_id":"3406834617","tag":{"amenity":"waste_basket"}},"type":"Feature"},
	{"geometry":{"coordinates":[8.827181,49.316197],"type":"Point"},"properties":{"osm_id":"3406835061","tag":{"amenity":"waste_basket"}},"type":"Feature"},
	{"geometry":{"coordinates":[8.83979,49.271937],"type":"Point"},"properties":{"osm_id":"3675902652","tag":{"amenity":"recycling","recycling:clothes":"yes","recycling:shoes":"yes"}},"type":"Feature"},
	{"geometry":{"coordinates":[8.846556,49.272148],"type":"Point"},"properties":{"osm_id":"3677176281","tag":{"amenity":"waste_basket"}},"type":"Feature"},
	{"geometry":{"coordinates":[8.818457,49.300397],"type":"Point"},"properties":{"osm_id":"4373632198","tag":{"amenity":"recycling","recycling:clothes":"yes","recycling:shoes":"yes","recycling_type":"container","source:position":"Bing 2012"}},"type":"Feature"},
	{"geometry":{"coordinates":[8.814322,49.306395],"type":"Point"},"properties":{"osm_id":"4373632297","tag":{"amenity":"waste_basket"}},"type":"Feature"},
	{"geometry":{"coordinates":[8.828345,49.302461],"type":"Point"},"properties":{"osm_id":"4375264484","tag":{"amenity":"waste_basket"}},"type":"Feature"},
	{"geometry":{"coordinates":[8.814317,49.312324],"type":"Point"},"properties":{"osm_id":"4375264536","tag":{"amenity":"waste_basket"}},"type":"Feature"},
	{"geometry":{"coordinates":[8.858483,49.315843],"type":"Point"},"properties":{"osm_id":"4375264600","tag":{"amenity":"waste_basket"}},"type":"Feature"},
	{"geometry":{"coordinates":[8.861829,49.320405],"type":"Point"},"properties":{"osm_id":"5300936202","tag":{"amenity":"waste_basket","waste":"trash"}},"type":"Feature"},
	{"geometry":{"coordinates":[8.865646,49.319852],"type":"Point"},"properties":{"osm_id":"5306670441","tag":{"amenity":"waste_basket","waste":"trash"}},"type":"Feature"},
	{"geometry":{"coordinates":[8.83793,49.280623],"type":"Point"},"properties":{"osm_id":"5486838981","tag":{"amenity":"waste_basket"}},"type":"Feature"},
	{"geometry":{"coordinates":[8.818836,49.320363],"type":"Point"},"properties":{"osm_id":"5486838983","tag":{"amenity":"waste_basket"}},"type":"Feature"},
	{"geometry":{"coordinates":[8.813879,49.30956],"type":"Point"},"properties":{"osm_id":"5486838986","tag":{"amenity":"waste_basket"}},"type":"Feature"},
	{"geometry":{"coordinates":[8.818956,49.320549],"type":"Point"},"properties":{"osm_id":"5486838991","tag":{"amenity":"waste_basket"}},"type":"Feature"},
	{"geometry":{"coordinates":[8.839921,49.282074],"type":"Point"},"properties":{"osm_id":"5486838992","tag":{"amenity":"waste_basket"}},"type":"Feature"},
	{"geometry":{"coordinates":[8.820392,49.321447],"type":"Point"},"properties":{"osm_id":"5486838993","tag":{"amenity":"waste_basket"}},"type":"Feature"},
	{"geometry":{"coordinates":[8.839912,49.282317],"type":"Point"},"properties":{"osm_id":"5486838994","tag":{"amenity":"waste_basket"}},"type":"Feature"},
	{"geometry":{"coordinates":[8.819963,49.321603],"type":"Point"},"properties":{"osm_id":"5486838998","tag":{"amenity":"waste_basket"}},"type":"Feature"},
	{"geometry":{"coordinates":[8.842192,49.270519],"type":"Point"},"properties":{"osm_id":"5624627295","tag":{"amenity":"waste_basket"}},"type":"Feature"},
	{"geometry":{"coordinates":[8.839778,49.268081],"type":"Point"},"properties":{"osm_id":"5948885672","tag":{"amenity":"waste_basket"}},"type":"Feature"},
	{"geometry":{"coordinates":[8.86038,49.324366],"type":"Point"},"properties":{"osm_id":"6414473214","tag":{"addr:city":"Eschelbronn","addr:postcode":"74927","addr:street":"Bettweg","amenity":"waste_basket","waste":"trash"}},"type":"Feature"},
	{"geometry":{"coordinates":[8.865729,49.318614],"type":"Point"},"properties":{"osm_id":"6414994387","tag":{"amenity":"waste_basket","waste":"trash"}},"type":"Feature"},
	{"geometry":{"coordinates":[8.866058,49.318659],"type":"Point"},"properties":{"osm_id":"6414994397","tag":{"amenity":"waste_basket","waste":"trash"}},"type":"Feature"},
	{"geometry":{"coordinates":[8.867775,49.320139],"type":"Point"},"properties":{"osm_id":"6418085462","tag":{"amenity":"waste_basket","waste":"trash"}},"type":"Feature"},
	{"geometry":{"coordinates":[8.868345,49.320154],"type":"Point"},"properties":{"osm_id":"6418085469","tag":{"addr:city":"Eschelbronn","addr:housenumber":"4","addr:postcode":"74927","addr:street":"Neidensteiner Stra\u00c3\u009fe","amenity":"waste_basket","waste":"trash"}},"type":"Feature"},
	{"geometry":{"coordinates":[8.868337,49.320055],"type":"Point"},"properties":{"osm_id":"6418085470","tag":{"amenity":"waste_basket","waste":"trash"}},"type":"Feature"},
	{"geometry":{"coordinates":[8.818127,49.296308],"type":"Point"},"properties":{"osm_id":"6841998877","tag":{"amenity":"waste_basket","waste":"trash"}},"type":"Feature"},
	{"geometry":{"coordinates":[8.808332,49.296433],"type":"Point"},"properties":{"osm_id":"6841999462","tag":{"amenity":"waste_basket","waste":"trash"}},"type":"Feature"},
	{"geometry":{"coordinates":[8.795309,49.295245],"type":"Point"},"properties":{"osm_id":"6842010035","tag":{"amenity":"waste_basket","waste":"trash"}},"type":"Feature"},
	{"geometry":{"coordinates":[8.799972,49.316794],"type":"Point"},"properties":{"osm_id":"6842012815","tag":{"amenity":"waste_basket","waste":"trash"}},"type":"Feature"},
	{"geometry":{"coordinates":[8.810809,49.296079],"type":"Point"},"properties":{"osm_id":"6842018665","tag":{"amenity":"waste_basket","waste":"trash"}},"type":"Feature"},
	{"geometry":{"coordinates":[8.867842,49.323842],"type":"Point"},"properties":{"osm_id":"7252245730","tag":{"amenity":"waste_basket","waste":"trash"}},"type":"Feature"},
	{"geometry":{"coordinates":[8.851062,49.281097],"type":"Point"},"properties":{"osm_id":"7550062667","tag":{"amenity":"waste_basket"}},"type":"Feature"},
	{"geometry":{"coordinates":[8.869587,49.318582],"type":"Point"},"properties":{"osm_id":"7623076025","tag":{"amenity":"waste_basket","waste":"trash"}},"type":"Feature"},
	{"geometry":{"coordinates":[8.86755,49.314974],"type":"Point"},"properties":{"osm_id":"7623138662","tag":{"amenity":"waste_basket","bin":"yes","fee":"no","vending":"excrement_bags","waste":"trash"}},"type":"Feature"},
	{"geometry":{"coordinates":[8.870597,49.317538],"type":"Point"},"properties":{"osm_id":"7623138663","tag":{"amenity":"waste_basket","waste":"trash"}},"type":"Feature"},
	{"geometry":{"coordinates":[8.864793,49.316861],"type":"Point"},"properties":{"osm_id":"7623165057","tag":{"amenity":"waste_basket","waste":"trash"}},"type":"Feature"},
	{"geometry":{"coordinates":[8.867704,49.32223],"type":"Point"},"properties":{"osm_id":"7623294202","tag":{"amenity":"waste_basket","waste":"trash"}},"type":"Feature"},
	{"geometry":{"coordinates":[8.847497,49.285211],"type":"Point"},"properties":{"osm_id":"7663092745","tag":{"amenity":"waste_basket"}},"type":"Feature"},
	{"geometry":{"coordinates":[8.874484,49.319519],"type":"Point"},"properties":{"osm_id":"7862751654","tag":{"amenity":"waste_basket","waste":"trash"}},"type":"Feature"}
]
}
