{
"type": "FeatureCollection",
"features": [
	{"geometry":{"coordinates":[8.859043,49.254341],"type":"Point"},"properties":{"osm_id":"736869144","tag":{"amenity":"recycling"}},"type":"Feature"},
	{"geometry":{"coordinates":[8.862776,49.254691],"type":"Point"},"properties":{"name":"AVR","osm_id":"736869189","tag":{"amenity":"recycling"}},"type":"Feature"},
	{"geometry":{"coordinates":[8.876692,49.253219],"type":"Point"},"properties":{"osm_id":"1764155390","tag":{"amenity":"waste_basket"}},"type":"Feature"},
	{"geometry":{"coordinates":[8.876411,49.253339],"type":"Point"},"properties":{"osm_id":"1764155418","tag":{"amenity":"waste_basket"}},"type":"Feature"},
	{"geometry":{"coordinates":[8.830769,49.243914],"type":"Point"},"properties":{"osm_id":"1868443120","tag":{"amenity":"waste_basket"}},"type":"Feature"},
	{"geometry":{"coordinates":[8.830537,49.24397],"type":"Point"},"properties":{"osm_id":"1868443123","tag":{"amenity":"waste_basket"}},"type":"Feature"},
	{"geometry":{"coordinates":[8.841184,49.245542],"type":"Point"},"properties":{"osm_id":"1868443125","tag":{"amenity":"waste_basket"}},"type":"Feature"},
	{"geometry":{"coordinates":[8.835817,49.245587],"type":"Point"},"properties":{"osm_id":"1868443129","tag":{"amenity":"waste_basket"}},"type":"Feature"},
	{"geometry":{"coordinates":[8.83555,49.245713],"type":"Point"},"properties":{"osm_id":"1868443133","tag":{"amenity":"waste_basket"}},"type":"Feature"},
	{"geometry":{"coordinates":[8.838963,49.245945],"type":"Point"},"properties":{"osm_id":"1868443134","tag":{"amenity":"waste_basket"}},"type":"Feature"},
	{"geometry":{"coordinates":[8.86895,49.25109],"type":"Point"},"properties":{"osm_id":"1868443219","tag":{"amenity":"waste_basket"}},"type":"Feature"},
	{"geometry":{"coordinates":[8.849543,49.247748],"type":"Point"},"properties":{"osm_id":"1873126303","tag":{"amenity":"waste_basket"}},"type":"Feature"},
	{"geometry":{"coordinates":[8.875477,49.250474],"type":"Point"},"properties":{"osm_id":"5331977695","tag":{"amenity":"waste_disposal","waste":"trash"}},"type":"Feature"},
	{"geometry":{"coordinates":[8.874379,49.252837],"type":"Point"},"properties":{"osm_id":"5518207300","tag":{"amenity":"waste_basket","waste":"trash"}},"type":"Feature"},
	{"geometry":{"coordinates":[8.874404,49.25269],"type":"Point"},"properties":{"osm_id":"5518207301","tag":{"amenity":"waste_basket","waste":"trash"}},"type":"Feature"},
	{"geometry":{"coordinates":[8.87637,49.214771],"type":"Point"},"properties":{"osm_id":"5651984451","tag":{"amenity":"waste_basket"}},"type":"Feature"},
	{"geometry":{"coordinates":[8.876065,49.214467],"type":"Point"},"properties":{"osm_id":"5651984594","tag":{"amenity":"waste_basket"}},"type":"Feature"},
	{"geometry":{"coordinates":[8.876843,49.215048],"type":"Point"},"properties":{"osm_id":"5651984998","tag":{"amenity":"waste_basket"}},"type":"Feature"},
	{"geometry":{"coordinates":[8.874723,49.250518],"type":"Point"},"properties":{"osm_id":"7158372433","tag":{"amenity":"waste_basket"}},"type":"Feature"},
	{"geometry":{"coordinates":[8.875454,49.250307],"type":"Point"},"properties":{"osm_id":"7158372434","tag":{"amenity":"waste_basket"}},"type":"Feature"},
	{"geometry":{"coordinates":[8.875591,49.250477],"type":"Point"},"properties":{"osm_id":"7158372435","tag":{"amenity":"waste_basket"}},"type":"Feature"},
	{"geometry":{"coordinates":[8.876226,49.252018],"type":"Point"},"properties":{"osm_id":"7158372436","tag":{"amenity":"waste_basket"}},"type":"Feature"},
	{"geometry":{"coordinates":[8.876883,49.258966],"type":"Point"},"properties":{"osm_id":"7158790514","tag":{"amenity":"waste_basket"}},"type":"Feature"},
	{"geometry":{"coordinates":[8.871059,49.264026],"type":"Point"},"properties":{"osm_id":"7158811467","tag":{"amenity":"waste_basket"}},"type":"Feature"},
	{"geometry":{"coordinates":[8.873186,49.26426],"type":"Point"},"properties":{"osm_id":"7158811468","tag":{"amenity":"waste_basket"}},"type":"Feature"},
	{"geometry":{"coordinates":[8.876902,49.259163],"type":"Point"},"properties":{"osm_id":"7179349258","tag":{"amenity":"waste_basket"}},"type":"Feature"},
	{"geometry":{"coordinates":[8.875379,49.25107],"type":"Point"},"properties":{"osm_id":"7188570901","tag":{"amenity":"waste_basket"}},"type":"Feature"},
	{"geometry":{"coordinates":[8.875642,49.25169],"type":"Point"},"properties":{"osm_id":"7189980650","tag":{"amenity":"waste_basket"}},"type":"Feature"},
	{"geometry":{"coordinates":[8.876474,49.259151],"type":"Point"},"properties":{"osm_id":"7216895890","tag":{"amenity":"recycling","recycling:clothes":"yes","recycling_type":"container","wheelchair":"no"}},"type":"Feature"},
	{"geometry":{"coordinates":[8.876664,49.259137],"type":"Point"},"properties":{"osm_id":"7217989390","tag":{"amenity":"recycling"}},"type":"Feature"},
	{"geometry":{"coordinates":[8.876712,49.259124],"type":"Point"},"properties":{"osm_id":"7217989391","tag":{"amenity":"waste_basket","waste":"trash"}},"type":"Feature"},
	{"geometry":{"coordinates":[8.87379,49.258633],"type":"Point"},"properties":{"osm_id":"7366590884","tag":{"amenity":"waste_basket","waste":"trash"}},"type":"Feature"},
	{"geometry":{"coordinates":[8.862563,49.235303],"type":"Point"},"properties":{"osm_id":"7367581001","tag":{"amenity":"waste_basket","waste":"trash"}},"type":"Feature"},
	{"geometry":{"coordinates":[8.857635,49.242415],"type":"Point"},"properties":{"osm_id":"7367581002","tag":{"amenity":"waste_basket","waste":"trash"}},"type":"Feature"},
	{"geometry":{"coordinates":[8.876584,49.254344],"type":"Point"},"properties":{"osm_id":"7541665734","tag":{"amenity":"waste_basket","waste":"trash"}},"type":"Feature"},
	{"geometry":{"coordinates":[8.801423,49.215492],"type":"Point"},"properties":{"osm_id":"7617809810","tag":{"amenity":"waste_basket","waste":"trash"}},"type":"Feature"},
	{"geometry":{"coordinates":[8.799333,49.216617],"type":"Point"},"properties":{"osm_id":"7617827823","tag":{"amenity":"waste_basket","waste":"trash"}},"type":"Feature"},
	{"geometry":{"coordinates":[8.835591,49.244612],"type":"Point"},"properties":{"osm_id":"7678114613","tag":{"amenity":"recycling","operator":"TexAid","recycling:clothes":"yes","recycling:shoes":"yes","recycling_type":"container"}},"type":"Feature"}
]
}
