{
"type": "FeatureCollection",
"features": [
	{"geometry":{"coordinates":[8.837422,49.077032],"type":"Point"},"properties":{"name":"Recyclinghof","osm_id":"356781200","tag":{"amenity":"recycling","opening_hours":"24/7","recycling_type":"container","wheelchair":"yes"}},"type":"Feature"},
	{"geometry":{"coordinates":[8.839598,49.077523],"type":"Point"},"properties":{"osm_id":"356781221","tag":{"amenity":"recycling","recycling:glass":"yes","recycling_type":"container"}},"type":"Feature"},
	{"geometry":{"coordinates":[8.844987,49.079943],"type":"Point"},"properties":{"osm_id":"356860550","tag":{"amenity":"recycling","recycling:glass":"yes","recycling_type":"container"}},"type":"Feature"},
	{"geometry":{"coordinates":[8.842268,49.073559],"type":"Point"},"properties":{"osm_id":"357273229","tag":{"amenity":"recycling","recycling:glass":"yes","recycling_type":"container"}},"type":"Feature"},
	{"geometry":{"coordinates":[8.807155,49.064611],"type":"Point"},"properties":{"osm_id":"390620123","tag":{"amenity":"recycling","recycling:glass":"yes","recycling_type":"container"}},"type":"Feature"},
	{"geometry":{"coordinates":[8.798078,49.067885],"type":"Point"},"properties":{"osm_id":"392654060","tag":{"amenity":"recycling","recycling:clothes":"yes","recycling:glass":"yes","recycling_type":"container"}},"type":"Feature"},
	{"geometry":{"coordinates":[8.794537,49.066994],"type":"Point"},"properties":{"osm_id":"392654061","tag":{"amenity":"recycling","recycling:glass":"yes","recycling_type":"container"}},"type":"Feature"},
	{"geometry":{"coordinates":[8.793914,49.063265],"type":"Point"},"properties":{"osm_id":"392654092","tag":{"amenity":"recycling","recycling:glass":"yes","recycling_type":"container"}},"type":"Feature"},
	{"geometry":{"coordinates":[8.792352,49.073746],"type":"Point"},"properties":{"osm_id":"1144949574","tag":{"amenity":"recycling","recycling:clothes":"yes","recycling_type":"container"}},"type":"Feature"},
	{"geometry":{"coordinates":[8.804896,49.064874],"type":"Point"},"properties":{"osm_id":"1239920263","tag":{"amenity":"recycling","recycling:clothes":"yes","recycling_type":"container"}},"type":"Feature"},
	{"geometry":{"coordinates":[8.80665,49.067851],"type":"Point"},"properties":{"osm_id":"1239939751","tag":{"amenity":"recycling","recycling:clothes":"yes","recycling_type":"container"}},"type":"Feature"},
	{"geometry":{"coordinates":[8.797609,49.057788],"type":"Point"},"properties":{"osm_id":"2191489722","tag":{"amenity":"recycling","recycling:clothes":"yes","recycling:glass":"yes","recycling_type":"container"}},"type":"Feature"},
	{"geometry":{"coordinates":[8.802746,49.070181],"type":"Point"},"properties":{"osm_id":"2521510001","tag":{"amenity":"recycling","recycling:clothes":"yes","recycling:glass":"yes","recycling_type":"container"}},"type":"Feature"},
	{"geometry":{"coordinates":[8.807611,49.060475],"type":"Point"},"properties":{"osm_id":"2938253681","tag":{"amenity":"recycling","recycling:clothes":"yes","recycling_type":"container"}},"type":"Feature"},
	{"geometry":{"coordinates":[8.804769,49.0667],"type":"Point"},"properties":{"osm_id":"3468228203","tag":{"amenity":"waste_basket"}},"type":"Feature"},
	{"geometry":{"coordinates":[8.809381,49.06886],"type":"Point"},"properties":{"osm_id":"3472093709","tag":{"amenity":"recycling","recycling:clothes":"yes","recycling_type":"container"}},"type":"Feature"},
	{"geometry":{"coordinates":[8.798649,49.063072],"type":"Point"},"properties":{"osm_id":"3497742548","tag":{"amenity":"recycling","recycling:clothes":"yes","recycling_type":"container"}},"type":"Feature"},
	{"geometry":{"coordinates":[8.800248,49.067809],"type":"Point"},"properties":{"osm_id":"3521901693","tag":{"amenity":"recycling","brand":"faircollect","recycling:clothes":"yes","recycling_type":"container","website":"https://www.fair-collect.de/"}},"type":"Feature"},
	{"geometry":{"coordinates":[8.796146,49.059746],"type":"Point"},"properties":{"osm_id":"3618265187","tag":{"amenity":"waste_basket"}},"type":"Feature"},
	{"geometry":{"coordinates":[8.796349,49.059862],"type":"Point"},"properties":{"osm_id":"3618265794","tag":{"amenity":"waste_basket"}},"type":"Feature"}
]
}
