{
"type": "FeatureCollection",
"features": [
	{"geometry":{"coordinates":[8.845522,48.993536],"type":"Point"},"properties":{"name":"H\u00c3\u00a4ckselplatz","osm_id":"291845588","tag":{"amenity":"recycling"}},"type":"Feature"},
	{"geometry":{"coordinates":[8.79611,48.994854],"type":"Point"},"properties":{"osm_id":"359686099","tag":{"amenity":"recycling","recycling:glass":"yes","recycling_type":"container"}},"type":"Feature"},
	{"geometry":{"coordinates":[8.811743,49.029064],"type":"Point"},"properties":{"osm_id":"366660371","tag":{"amenity":"recycling","recycling:glass":"yes","recycling_type":"container"}},"type":"Feature"},
	{"geometry":{"coordinates":[8.861288,49.008654],"type":"Point"},"properties":{"osm_id":"385019988","tag":{"amenity":"recycling","recycling:glass":"yes","recycling_type":"container"}},"type":"Feature"},
	{"geometry":{"coordinates":[8.815291,48.995581],"type":"Point"},"properties":{"osm_id":"2093151300","tag":{"amenity":"waste_basket"}},"type":"Feature"},
	{"geometry":{"coordinates":[8.799804,48.996519],"type":"Point"},"properties":{"osm_id":"2093151341","tag":{"amenity":"waste_basket"}},"type":"Feature"},
	{"geometry":{"coordinates":[8.799655,48.996605],"type":"Point"},"properties":{"osm_id":"2093151347","tag":{"amenity":"waste_basket"}},"type":"Feature"},
	{"geometry":{"coordinates":[8.803567,48.99688],"type":"Point"},"properties":{"osm_id":"2093151352","tag":{"amenity":"waste_basket"}},"type":"Feature"},
	{"geometry":{"coordinates":[8.802802,48.996945],"type":"Point"},"properties":{"osm_id":"2093151355","tag":{"amenity":"waste_basket"}},"type":"Feature"},
	{"geometry":{"coordinates":[8.804892,48.997969],"type":"Point"},"properties":{"osm_id":"2093151360","tag":{"amenity":"waste_basket"}},"type":"Feature"},
	{"geometry":{"coordinates":[8.804609,48.998031],"type":"Point"},"properties":{"osm_id":"2093151366","tag":{"amenity":"waste_basket"}},"type":"Feature"},
	{"geometry":{"coordinates":[8.8058,48.9981],"type":"Point"},"properties":{"osm_id":"2093151381","tag":{"amenity":"waste_basket"}},"type":"Feature"},
	{"geometry":{"coordinates":[8.805671,48.998139],"type":"Point"},"properties":{"osm_id":"2093151389","tag":{"amenity":"waste_basket"}},"type":"Feature"},
	{"geometry":{"coordinates":[8.807159,48.999645],"type":"Point"},"properties":{"osm_id":"2093151541","tag":{"amenity":"waste_basket"}},"type":"Feature"},
	{"geometry":{"coordinates":[8.810473,48.99995],"type":"Point"},"properties":{"osm_id":"2093151560","tag":{"amenity":"waste_basket"}},"type":"Feature"},
	{"geometry":{"coordinates":[8.809968,49.000298],"type":"Point"},"properties":{"osm_id":"2093151604","tag":{"amenity":"waste_basket"}},"type":"Feature"},
	{"geometry":{"coordinates":[8.815531,49.000364],"type":"Point"},"properties":{"osm_id":"2093151624","tag":{"amenity":"waste_basket"}},"type":"Feature"},
	{"geometry":{"coordinates":[8.809913,49.000463],"type":"Point"},"properties":{"osm_id":"2093151644","tag":{"amenity":"waste_basket"}},"type":"Feature"},
	{"geometry":{"coordinates":[8.811648,49.000521],"type":"Point"},"properties":{"osm_id":"2093151653","tag":{"amenity":"waste_basket"}},"type":"Feature"},
	{"geometry":{"coordinates":[8.810068,49.000541],"type":"Point"},"properties":{"osm_id":"2093151656","tag":{"amenity":"waste_basket"}},"type":"Feature"},
	{"geometry":{"coordinates":[8.81089,49.000698],"type":"Point"},"properties":{"osm_id":"2093151695","tag":{"amenity":"waste_basket"}},"type":"Feature"},
	{"geometry":{"coordinates":[8.811543,49.000842],"type":"Point"},"properties":{"osm_id":"2093151704","tag":{"amenity":"waste_basket"}},"type":"Feature"},
	{"geometry":{"coordinates":[8.811698,49.000902],"type":"Point"},"properties":{"osm_id":"2093151713","tag":{"amenity":"waste_basket"}},"type":"Feature"},
	{"geometry":{"coordinates":[8.811658,49.001376],"type":"Point"},"properties":{"osm_id":"2093151762","tag":{"amenity":"waste_basket"}},"type":"Feature"},
	{"geometry":{"coordinates":[8.81319,49.037386],"type":"Point"},"properties":{"osm_id":"3649690425","tag":{"amenity":"waste_basket"}},"type":"Feature"},
	{"geometry":{"coordinates":[8.86227,49.021856],"type":"Point"},"properties":{"osm_id":"3786591057","tag":{"amenity":"waste_basket","information":"guidepost","tourism":"information","traffic_sign":"DE:260;DE:1026-36"}},"type":"Feature"},
	{"geometry":{"coordinates":[8.803564,49.026057],"type":"Point"},"properties":{"osm_id":"6421336340","tag":{"amenity":"waste_basket"}},"type":"Feature"},
	{"geometry":{"coordinates":[8.804987,49.021968],"type":"Point"},"properties":{"osm_id":"6421336341","tag":{"amenity":"waste_basket"}},"type":"Feature"},
	{"geometry":{"coordinates":[8.819557,49.026825],"type":"Point"},"properties":{"osm_id":"6423630696","tag":{"amenity":"waste_basket"}},"type":"Feature"},
	{"geometry":{"coordinates":[8.79697,49.025428],"type":"Point"},"properties":{"osm_id":"6423630721","tag":{"amenity":"waste_basket"}},"type":"Feature"},
	{"geometry":{"coordinates":[8.796376,49.027678],"type":"Point"},"properties":{"osm_id":"7449249934","tag":{"amenity":"waste_basket"}},"type":"Feature"}
]
}
