{
"type": "FeatureCollection",
"features": [
	{"geometry":{"coordinates":[8.865777,48.930649],"type":"Point"},"properties":{"osm_id":"289170780","tag":{"amenity":"recycling","recycling:glass":"yes","recycling_type":"container"}},"type":"Feature"},
	{"geometry":{"coordinates":[8.866128,48.936746],"type":"Point"},"properties":{"osm_id":"294859208","tag":{"amenity":"recycling","recycling:glass":"yes","recycling_type":"container"}},"type":"Feature"},
	{"geometry":{"coordinates":[8.80791,48.93711],"type":"Point"},"properties":{"osm_id":"353914206","tag":{"amenity":"recycling","recycling:glass_bottles":"yes","recycling_type":"container"}},"type":"Feature"},
	{"geometry":{"coordinates":[8.807855,48.937128],"type":"Point"},"properties":{"osm_id":"353914210","tag":{"amenity":"recycling","recycling:clothes":"yes","recycling:shoes":"yes","recycling_type":"container"}},"type":"Feature"},
	{"geometry":{"coordinates":[8.842027,48.940947],"type":"Point"},"properties":{"osm_id":"379046395","tag":{"amenity":"recycling","recycling:clothes":"yes","recycling:shoes":"yes","recycling_type":"container"}},"type":"Feature"},
	{"geometry":{"coordinates":[8.815039,48.96421],"type":"Point"},"properties":{"osm_id":"902992836","tag":{"amenity":"recycling","recycling:clothes":"yes","recycling_type":"container"}},"type":"Feature"},
	{"geometry":{"coordinates":[8.806782,48.95982],"type":"Point"},"properties":{"osm_id":"902992913","tag":{"amenity":"recycling","recycling:clothes":"yes","recycling_type":"container"}},"type":"Feature"},
	{"geometry":{"coordinates":[8.855069,48.960052],"type":"Point"},"properties":{"osm_id":"923509781","tag":{"amenity":"recycling","recycling:glass":"yes","recycling_type":"container"}},"type":"Feature"},
	{"geometry":{"coordinates":[8.85649,48.959954],"type":"Point"},"properties":{"osm_id":"927326961","tag":{"amenity":"waste_basket"}},"type":"Feature"},
	{"geometry":{"coordinates":[8.858333,48.950632],"type":"Point"},"properties":{"osm_id":"928922299","tag":{"amenity":"recycling","recycling:glass":"yes","recycling_type":"container"}},"type":"Feature"},
	{"geometry":{"coordinates":[8.835271,48.945653],"type":"Point"},"properties":{"osm_id":"1194545755","tag":{"amenity":"waste_basket"}},"type":"Feature"},
	{"geometry":{"coordinates":[8.834563,48.946151],"type":"Point"},"properties":{"osm_id":"1194545770","tag":{"amenity":"waste_basket"}},"type":"Feature"},
	{"geometry":{"coordinates":[8.834548,48.946299],"type":"Point"},"properties":{"osm_id":"1194545778","tag":{"amenity":"waste_basket"}},"type":"Feature"},
	{"geometry":{"coordinates":[8.834553,48.94595],"type":"Point"},"properties":{"osm_id":"1194545780","tag":{"amenity":"waste_basket"}},"type":"Feature"},
	{"geometry":{"coordinates":[8.835265,48.945601],"type":"Point"},"properties":{"osm_id":"1194545782","tag":{"amenity":"waste_basket"}},"type":"Feature"},
	{"geometry":{"coordinates":[8.835231,48.945867],"type":"Point"},"properties":{"osm_id":"1194545784","tag":{"amenity":"waste_basket"}},"type":"Feature"},
	{"geometry":{"coordinates":[8.835816,48.94583],"type":"Point"},"properties":{"osm_id":"1194545804","tag":{"amenity":"waste_basket"}},"type":"Feature"},
	{"geometry":{"coordinates":[8.801165,48.932183],"type":"Point"},"properties":{"osm_id":"1239168358","tag":{"amenity":"recycling","recycling_type":"container"}},"type":"Feature"},
	{"geometry":{"coordinates":[8.834586,48.946278],"type":"Point"},"properties":{"osm_id":"1836081293","tag":{"amenity":"recycling","recycling:clothes":"yes","recycling:shoes":"yes","recycling_type":"container"}},"type":"Feature"},
	{"geometry":{"coordinates":[8.873924,48.938038],"type":"Point"},"properties":{"barrier":"gate","osm_id":"3171153912","tag":{"bicycle":"yes","foot":"yes","motorcar":"yes"}},"type":"Feature"},
	{"geometry":{"coordinates":[8.849666,48.947751],"type":"Point"},"properties":{"osm_id":"3506628838","tag":{"amenity":"recycling","recycling:clothes":"yes","recycling_type":"container"}},"type":"Feature"},
	{"geometry":{"coordinates":[8.849346,48.945751],"type":"Point"},"properties":{"osm_id":"3631941500","tag":{"amenity":"recycling","recycling:clothes":"yes","recycling:glass":"yes","recycling:shoes":"yes","recycling_type":"container"}},"type":"Feature"},
	{"geometry":{"coordinates":[8.840029,48.945248],"type":"Point"},"properties":{"osm_id":"3931097121","tag":{"amenity":"waste_basket"}},"type":"Feature"},
	{"geometry":{"coordinates":[8.839668,48.947087],"type":"Point"},"properties":{"osm_id":"3945008455","tag":{"amenity":"waste_basket"}},"type":"Feature"},
	{"geometry":{"coordinates":[8.838081,48.948549],"type":"Point"},"properties":{"osm_id":"3972290239","tag":{"amenity":"recycling","recycling:clothes":"yes","recycling:glass":"yes","recycling_type":"container"}},"type":"Feature"},
	{"geometry":{"coordinates":[8.835261,48.945799],"type":"Point"},"properties":{"osm_id":"4377176885","tag":{"amenity":"waste_basket"}},"type":"Feature"},
	{"geometry":{"coordinates":[8.842439,48.949053],"type":"Point"},"properties":{"osm_id":"4745900826","tag":{"amenity":"waste_basket"}},"type":"Feature"},
	{"geometry":{"coordinates":[8.813875,48.96644],"type":"Point"},"properties":{"osm_id":"4937570269","tag":{"amenity":"waste_basket"}},"type":"Feature"},
	{"geometry":{"coordinates":[8.81387,48.966298],"type":"Point"},"properties":{"osm_id":"4937570940","tag":{"amenity":"waste_basket"}},"type":"Feature"},
	{"geometry":{"coordinates":[8.81353,48.966699],"type":"Point"},"properties":{"osm_id":"4937570978","tag":{"amenity":"recycling","opening_hours":"24/7","recycling:clothes":"yes","recycling:shoes":"yes","recycling_type":"container","wheelchair":"limited"}},"type":"Feature"},
	{"geometry":{"coordinates":[8.859781,48.956347],"type":"Point"},"properties":{"osm_id":"5229089454","tag":{"amenity":"waste_basket","level":"0"}},"type":"Feature"},
	{"geometry":{"coordinates":[8.861338,48.956414],"type":"Point"},"properties":{"osm_id":"5229089479","tag":{"amenity":"waste_basket","level":"0"}},"type":"Feature"},
	{"geometry":{"coordinates":[8.859851,48.95623],"type":"Point"},"properties":{"osm_id":"5229089532","tag":{"amenity":"waste_basket","level":"0"}},"type":"Feature"},
	{"geometry":{"coordinates":[8.859018,48.956237],"type":"Point"},"properties":{"osm_id":"5246241597","tag":{"amenity":"waste_basket"}},"type":"Feature"},
	{"geometry":{"coordinates":[8.858883,48.956535],"type":"Point"},"properties":{"osm_id":"5246241599","tag":{"amenity":"waste_basket"}},"type":"Feature"},
	{"geometry":{"coordinates":[8.86421,48.976098],"type":"Point"},"properties":{"osm_id":"6147157446","tag":{"amenity":"recycling","recycling_type":"container"}},"type":"Feature"},
	{"geometry":{"coordinates":[8.843432,48.950543],"type":"Point"},"properties":{"osm_id":"6240020090","tag":{"amenity":"waste_basket","waste":"trash"}},"type":"Feature"},
	{"geometry":{"coordinates":[8.821815,48.965254],"type":"Point"},"properties":{"osm_id":"6266868379","tag":{"amenity":"waste_basket","waste":"trash"}},"type":"Feature"},
	{"geometry":{"coordinates":[8.840912,48.946204],"type":"Point"},"properties":{"osm_id":"6700257691","tag":{"amenity":"waste_basket","waste":"trash"}},"type":"Feature"},
	{"geometry":{"coordinates":[8.840967,48.946033],"type":"Point"},"properties":{"osm_id":"6700257693","tag":{"amenity":"waste_basket","waste":"trash"}},"type":"Feature"},
	{"geometry":{"coordinates":[8.841453,48.946069],"type":"Point"},"properties":{"osm_id":"6700257698","tag":{"amenity":"waste_basket","waste":"trash"}},"type":"Feature"}
]
}
