{
"type": "FeatureCollection",
"features": [
	{"geometry":{"coordinates":[8.827044,48.696662],"type":"Point"},"properties":{"osm_id":"469759128","tag":{"amenity":"recycling","recycling:clothes":"yes","recycling:glass":"yes","recycling:shoes":"yes"}},"type":"Feature"},
	{"geometry":{"coordinates":[8.790908,48.743939],"type":"Point"},"properties":{"osm_id":"599912969","tag":{"amenity":"recycling","recycling:batteries":"yes","recycling:cans":"yes","recycling:clothes":"yes","recycling:glass":"yes","recycling:paper":"yes","recycling:scrap_metal":"yes"}},"type":"Feature"},
	{"geometry":{"coordinates":[8.79044,48.702947],"type":"Point"},"properties":{"osm_id":"655193675","tag":{"amenity":"waste_basket"}},"type":"Feature"},
	{"geometry":{"coordinates":[8.812971,48.747683],"type":"Point"},"properties":{"name":"Schaal + M\u00c3\u00bcller - Wertstoffzentrum","osm_id":"917788876","tag":{"addr:city":"Simmozheim","addr:country":"DE","addr:housenumber":"6","addr:postcode":"75397","addr:street":"Talstra\u00c3\u009fe","amenity":"recycling","contact:phone":"+49 7033 52800","contact:website":"http://www.schaal-mueller.de/","recycling_type":"centre"}},"type":"Feature"},
	{"geometry":{"coordinates":[8.816107,48.748252],"type":"Point"},"properties":{"osm_id":"1179554836","tag":{"amenity":"recycling","recycling:glass":"yes"}},"type":"Feature"},
	{"geometry":{"coordinates":[8.816098,48.748249],"type":"Point"},"properties":{"osm_id":"1179554881","tag":{"amenity":"recycling","recycling:glass":"yes"}},"type":"Feature"},
	{"geometry":{"coordinates":[8.816139,48.748263],"type":"Point"},"properties":{"osm_id":"1179554976","tag":{"amenity":"recycling","recycling:clothes":"yes"}},"type":"Feature"},
	{"geometry":{"coordinates":[8.872992,48.74777],"type":"Point"},"properties":{"osm_id":"4247988765","tag":{"amenity":"recycling","recycling:glass_bottles":"yes","recycling_type":"container"}},"type":"Feature"},
	{"geometry":{"coordinates":[8.792085,48.724474],"type":"Point"},"properties":{"osm_id":"7001584581","tag":{"amenity":"waste_basket","waste":"trash"}},"type":"Feature"},
	{"geometry":{"coordinates":[8.792021,48.724634],"type":"Point"},"properties":{"osm_id":"7001589818","tag":{"amenity":"waste_basket","waste":"trash"}},"type":"Feature"},
	{"geometry":{"coordinates":[8.794244,48.723129],"type":"Point"},"properties":{"osm_id":"7001594256","tag":{"amenity":"waste_basket","waste":"trash"}},"type":"Feature"},
	{"geometry":{"coordinates":[8.792589,48.723812],"type":"Point"},"properties":{"osm_id":"7001594719","tag":{"amenity":"waste_basket","waste":"trash"}},"type":"Feature"},
	{"geometry":{"coordinates":[8.792386,48.724754],"type":"Point"},"properties":{"osm_id":"7001600485","tag":{"amenity":"waste_basket","waste":"trash"}},"type":"Feature"},
	{"geometry":{"coordinates":[8.791341,48.724265],"type":"Point"},"properties":{"osm_id":"7002703738","tag":{"amenity":"waste_basket","waste":"trash"}},"type":"Feature"}
]
}
