{
"type": "FeatureCollection",
"features": [
	{"geometry":{"coordinates":[8.869853,48.589546],"type":"Point"},"properties":{"osm_id":"275408213","tag":{"amenity":"recycling","recycling:clothes":"yes","recycling:glass_bottles":"yes","recycling_type":"container"}},"type":"Feature"},
	{"geometry":{"coordinates":[8.845264,48.581101],"type":"Point"},"properties":{"osm_id":"304076871","tag":{"amenity":"recycling","recycling_type":"container"}},"type":"Feature"},
	{"geometry":{"coordinates":[8.857481,48.59167],"type":"Point"},"properties":{"osm_id":"309173725","tag":{"amenity":"recycling","recycling:glass_bottles":"yes","recycling_type":"container"}},"type":"Feature"},
	{"geometry":{"coordinates":[8.876627,48.590526],"type":"Point"},"properties":{"osm_id":"310757055","tag":{"amenity":"recycling","recycling:glass_bottles":"yes","recycling_type":"container"}},"type":"Feature"},
	{"geometry":{"coordinates":[8.854915,48.586627],"type":"Point"},"properties":{"osm_id":"311398201","tag":{"amenity":"recycling","recycling:glass_bottles":"yes","recycling_type":"container"}},"type":"Feature"},
	{"geometry":{"coordinates":[8.853544,48.597198],"type":"Point"},"properties":{"osm_id":"311403337","tag":{"amenity":"recycling","recycling:glass_bottles":"yes","recycling_type":"container"}},"type":"Feature"},
	{"geometry":{"coordinates":[8.854935,48.594469],"type":"Point"},"properties":{"osm_id":"312270766","tag":{"amenity":"recycling","recycling:cans":"yes","recycling:glass_bottles":"yes","recycling_type":"container"}},"type":"Feature"},
	{"geometry":{"coordinates":[8.84371,48.611991],"type":"Point"},"properties":{"osm_id":"354851936","tag":{"amenity":"recycling","recycling_type":"container"}},"type":"Feature"},
	{"geometry":{"coordinates":[8.847884,48.585721],"type":"Point"},"properties":{"osm_id":"619400006","tag":{"amenity":"recycling","recycling_type":"container"}},"type":"Feature"},
	{"geometry":{"coordinates":[8.86583,48.603609],"type":"Point"},"properties":{"barrier":"gate","osm_id":"1968566468"},"type":"Feature"},
	{"geometry":{"coordinates":[8.869515,48.593428],"type":"Point"},"properties":{"osm_id":"4381199502","tag":{"amenity":"waste_basket"}},"type":"Feature"},
	{"geometry":{"coordinates":[8.869538,48.593508],"type":"Point"},"properties":{"osm_id":"4381199513","tag":{"amenity":"waste_basket"}},"type":"Feature"},
	{"geometry":{"coordinates":[8.869215,48.593512],"type":"Point"},"properties":{"osm_id":"4381199514","tag":{"amenity":"waste_basket"}},"type":"Feature"},
	{"geometry":{"coordinates":[8.873261,48.594118],"type":"Point"},"properties":{"osm_id":"4585478893","tag":{"amenity":"waste_basket"}},"type":"Feature"},
	{"geometry":{"coordinates":[8.829739,48.58338],"type":"Point"},"properties":{"osm_id":"5451377512","tag":{"amenity":"recycling","recycling:cans":"yes","recycling:glass":"yes","recycling_type":"container"}},"type":"Feature"},
	{"geometry":{"coordinates":[8.861921,48.594798],"type":"Point"},"properties":{"osm_id":"6595769500","tag":{"amenity":"waste_basket"}},"type":"Feature"},
	{"geometry":{"coordinates":[8.861956,48.59436],"type":"Point"},"properties":{"osm_id":"6595769517","tag":{"amenity":"waste_basket"}},"type":"Feature"},
	{"geometry":{"coordinates":[8.862139,48.594234],"type":"Point"},"properties":{"osm_id":"6595769537","tag":{"amenity":"waste_basket"}},"type":"Feature"},
	{"geometry":{"coordinates":[8.868771,48.595783],"type":"Point"},"properties":{"osm_id":"6595864401","tag":{"amenity":"waste_basket"}},"type":"Feature"},
	{"geometry":{"coordinates":[8.87016,48.59631],"type":"Point"},"properties":{"osm_id":"6595890249","tag":{"amenity":"waste_basket"}},"type":"Feature"},
	{"geometry":{"coordinates":[8.870496,48.596383],"type":"Point"},"properties":{"osm_id":"6595890252","tag":{"amenity":"waste_basket"}},"type":"Feature"},
	{"geometry":{"coordinates":[8.867024,48.59525],"type":"Point"},"properties":{"osm_id":"6596064304","tag":{"amenity":"waste_basket"}},"type":"Feature"},
	{"geometry":{"coordinates":[8.867799,48.595514],"type":"Point"},"properties":{"osm_id":"6596064305","tag":{"amenity":"waste_basket"}},"type":"Feature"},
	{"geometry":{"coordinates":[8.864329,48.594081],"type":"Point"},"properties":{"osm_id":"6596130869","tag":{"amenity":"waste_basket"}},"type":"Feature"},
	{"geometry":{"coordinates":[8.864593,48.594174],"type":"Point"},"properties":{"osm_id":"6596130870","tag":{"amenity":"waste_basket"}},"type":"Feature"},
	{"geometry":{"coordinates":[8.864855,48.594258],"type":"Point"},"properties":{"osm_id":"6596139716","tag":{"amenity":"waste_basket"}},"type":"Feature"},
	{"geometry":{"coordinates":[8.862508,48.593713],"type":"Point"},"properties":{"osm_id":"6598094413","tag":{"amenity":"waste_basket"}},"type":"Feature"},
	{"geometry":{"coordinates":[8.862949,48.593658],"type":"Point"},"properties":{"osm_id":"6598094420","tag":{"amenity":"waste_basket"}},"type":"Feature"},
	{"geometry":{"coordinates":[8.865699,48.603403],"type":"Point"},"properties":{"barrier":"gate","osm_id":"7029629946"},"type":"Feature"},
	{"geometry":{"coordinates":[8.868022,48.584826],"type":"Point"},"properties":{"osm_id":"7398075683","tag":{"amenity":"waste_basket","image":"https://commons.wikimedia.org/wiki/File:Haltepunkt_Herrenberg_Zwerchweg_17.jpg"}},"type":"Feature"},
	{"geometry":{"coordinates":[8.843599,48.592063],"type":"Point"},"properties":{"osm_id":"7617886763","tag":{"amenity":"waste_basket"}},"type":"Feature"},
	{"geometry":{"coordinates":[8.863303,48.59368],"type":"Point"},"properties":{"osm_id":"7725324521","tag":{"amenity":"waste_basket"}},"type":"Feature"},
	{"geometry":{"coordinates":[8.859133,48.59589],"type":"Point"},"properties":{"osm_id":"7784538257","tag":{"amenity":"waste_basket"}},"type":"Feature"},
	{"geometry":{"coordinates":[8.85282,48.586139],"type":"Point"},"properties":{"osm_id":"7806569338","tag":{"amenity":"waste_basket","waste":"trash"}},"type":"Feature"}
]
}
