{
"type": "FeatureCollection",
"features": [
	{"geometry":{"coordinates":[8.863516,48.468797],"type":"Point"},"properties":{"osm_id":"298454710","tag":{"addr:city":"Neustetten","addr:country":"DE","addr:housenumber":"5","addr:postcode":"72149","addr:street":"Grabenstra\u00c3\u009fe","addr:suburb":"Nellingsheim","amenity":"recycling"}},"type":"Feature"},
	{"geometry":{"coordinates":[8.851678,48.489546],"type":"Point"},"properties":{"osm_id":"336403236","tag":{"amenity":"recycling","recycling_type":"container"}},"type":"Feature"},
	{"geometry":{"coordinates":[8.809012,48.489102],"type":"Point"},"properties":{"osm_id":"589011825","tag":{"amenity":"recycling","recycling:clothes":"yes","recycling:glass":"yes","recycling_type":"container"}},"type":"Feature"},
	{"geometry":{"coordinates":[8.800196,48.491004],"type":"Point"},"properties":{"osm_id":"593256527","tag":{"amenity":"recycling","recycling:glass":"yes","recycling_type":"container"}},"type":"Feature"},
	{"geometry":{"coordinates":[8.809857,48.493412],"type":"Point"},"properties":{"osm_id":"593256529","tag":{"amenity":"recycling","recycling:clothes":"yes","recycling_type":"container"}},"type":"Feature"},
	{"geometry":{"coordinates":[8.806999,48.49472],"type":"Point"},"properties":{"osm_id":"593256539","tag":{"amenity":"recycling","recycling:clothes":"yes","recycling_type":"container"}},"type":"Feature"},
	{"geometry":{"coordinates":[8.814022,48.490842],"type":"Point"},"properties":{"osm_id":"2104121764","tag":{"amenity":"recycling","recycling:batteries":"no","recycling:books":"no","recycling:cans":"no","recycling:clothes":"yes","recycling:glass":"yes","recycling:glass_bottles":"yes","recycling:green_waste":"no","recycling_type":"container"}},"type":"Feature"},
	{"geometry":{"coordinates":[8.80803,48.495475],"type":"Point"},"properties":{"osm_id":"2394844493","tag":{"amenity":"recycling","operator":"Deutsches Rotes Kreuz","recycling:clothes":"yes","recycling_type":"container"}},"type":"Feature"},
	{"geometry":{"coordinates":[8.802195,48.490363],"type":"Point"},"properties":{"osm_id":"4033652427","tag":{"amenity":"waste_basket"}},"type":"Feature"},
	{"geometry":{"coordinates":[8.809368,48.493368],"type":"Point"},"properties":{"osm_id":"4360387583","tag":{"amenity":"waste_basket"}},"type":"Feature"},
	{"geometry":{"coordinates":[8.810518,48.496221],"type":"Point"},"properties":{"osm_id":"4360387584","tag":{"amenity":"waste_basket"}},"type":"Feature"},
	{"geometry":{"coordinates":[8.808026,48.495455],"type":"Point"},"properties":{"osm_id":"5431463858","tag":{"amenity":"recycling","recycling:glass":"yes","recycling_type":"container"}},"type":"Feature"},
	{"geometry":{"coordinates":[8.835547,48.510643],"type":"Point"},"properties":{"osm_id":"7443565410","tag":{"amenity":"waste_basket","waste":"trash"}},"type":"Feature"},
	{"geometry":{"coordinates":[8.828724,48.507904],"type":"Point"},"properties":{"osm_id":"7443565411","tag":{"amenity":"waste_basket","waste":"trash"}},"type":"Feature"}
]
}
