{
"type": "FeatureCollection",
"features": [
	{"geometry":{"coordinates":[8.842954,47.770614],"type":"Point"},"properties":{"osm_id":"280976574","tag":{"amenity":"recycling","material":"steel","recycling:clothes":"yes","recycling:glass":"yes","recycling:shoes":"yes","recycling_type":"container"}},"type":"Feature"},
	{"geometry":{"coordinates":[8.845251,47.771025],"type":"Point"},"properties":{"osm_id":"297574321","tag":{"amenity":"recycling","recycling:clothes":"yes","recycling:glass_bottles":"yes","recycling:shoes":"yes","recycling_type":"container"}},"type":"Feature"},
	{"geometry":{"coordinates":[8.842076,47.762765],"type":"Point"},"properties":{"osm_id":"648433995","tag":{"amenity":"recycling","recycling:clothes":"yes","recycling:glass":"yes","recycling_type":"container"}},"type":"Feature"},
	{"geometry":{"coordinates":[8.792828,47.761981],"type":"Point"},"properties":{"osm_id":"1672768020","tag":{"amenity":"recycling","location":"overground","recycling:glass":"yes","recycling_type":"container"}},"type":"Feature"},
	{"geometry":{"coordinates":[8.844848,47.762983],"type":"Point"},"properties":{"osm_id":"3514751143","tag":{"amenity":"recycling","recycling:clothes":"yes","recycling:glass":"yes","recycling:glass_bottles":"yes","recycling:shoes":"yes","recycling_type":"container"}},"type":"Feature"},
	{"geometry":{"coordinates":[8.837249,47.75418],"type":"Point"},"properties":{"osm_id":"4318091393","tag":{"amenity":"waste_basket"}},"type":"Feature"},
	{"geometry":{"coordinates":[8.834971,47.757696],"type":"Point"},"properties":{"osm_id":"4369991391","tag":{"amenity":"waste_basket"}},"type":"Feature"},
	{"geometry":{"coordinates":[8.83691,47.759827],"type":"Point"},"properties":{"osm_id":"5210654941","tag":{"amenity":"waste_basket"}},"type":"Feature"},
	{"geometry":{"coordinates":[8.837577,47.760797],"type":"Point"},"properties":{"osm_id":"5261860632","tag":{"amenity":"waste_basket"}},"type":"Feature"},
	{"geometry":{"coordinates":[8.838366,47.759578],"type":"Point"},"properties":{"osm_id":"5261860636","tag":{"amenity":"waste_basket"}},"type":"Feature"},
	{"geometry":{"coordinates":[8.805558,47.809831],"type":"Point"},"properties":{"osm_id":"5261860659","tag":{"amenity":"waste_basket"}},"type":"Feature"},
	{"geometry":{"coordinates":[8.804987,47.810031],"type":"Point"},"properties":{"osm_id":"5261860660","tag":{"amenity":"waste_basket"}},"type":"Feature"},
	{"geometry":{"coordinates":[8.835361,47.7611],"type":"Point"},"properties":{"osm_id":"5274257897","tag":{"amenity":"waste_basket"}},"type":"Feature"},
	{"geometry":{"coordinates":[8.835176,47.761081],"type":"Point"},"properties":{"osm_id":"5274257899","tag":{"amenity":"waste_basket"}},"type":"Feature"},
	{"geometry":{"coordinates":[8.835736,47.761605],"type":"Point"},"properties":{"osm_id":"5274257909","tag":{"amenity":"waste_basket"}},"type":"Feature"},
	{"geometry":{"coordinates":[8.836018,47.761537],"type":"Point"},"properties":{"osm_id":"5274257913","tag":{"amenity":"waste_basket"}},"type":"Feature"},
	{"geometry":{"coordinates":[8.835786,47.761364],"type":"Point"},"properties":{"osm_id":"5274258822","tag":{"amenity":"waste_basket"}},"type":"Feature"},
	{"geometry":{"coordinates":[8.836016,47.761408],"type":"Point"},"properties":{"osm_id":"5274258824","tag":{"amenity":"waste_basket"}},"type":"Feature"},
	{"geometry":{"coordinates":[8.835781,47.76124],"type":"Point"},"properties":{"osm_id":"5274258825","tag":{"amenity":"waste_basket"}},"type":"Feature"},
	{"geometry":{"coordinates":[8.836704,47.761426],"type":"Point"},"properties":{"osm_id":"5274258847","tag":{"amenity":"waste_basket"}},"type":"Feature"},
	{"geometry":{"coordinates":[8.83851,47.762025],"type":"Point"},"properties":{"osm_id":"5274258859","tag":{"amenity":"waste_basket"}},"type":"Feature"},
	{"geometry":{"coordinates":[8.838143,47.762553],"type":"Point"},"properties":{"osm_id":"5274258864","tag":{"amenity":"waste_basket"}},"type":"Feature"},
	{"geometry":{"coordinates":[8.83845,47.763009],"type":"Point"},"properties":{"osm_id":"5274258867","tag":{"amenity":"waste_basket"}},"type":"Feature"},
	{"geometry":{"coordinates":[8.837821,47.763045],"type":"Point"},"properties":{"osm_id":"5274258871","tag":{"amenity":"waste_basket"}},"type":"Feature"},
	{"geometry":{"coordinates":[8.832292,47.772109],"type":"Point"},"properties":{"osm_id":"5325962060","tag":{"amenity":"recycling","recycling:glass_bottles":"yes","recycling_type":"container"}},"type":"Feature"},
	{"geometry":{"coordinates":[8.824259,47.799579],"type":"Point"},"properties":{"osm_id":"5387885846","tag":{"amenity":"waste_basket"}},"type":"Feature"},
	{"geometry":{"coordinates":[8.841536,47.759436],"type":"Point"},"properties":{"osm_id":"5465539539","tag":{"amenity":"waste_basket"}},"type":"Feature"},
	{"geometry":{"coordinates":[8.841246,47.759319],"type":"Point"},"properties":{"osm_id":"5465539542","tag":{"amenity":"waste_basket"}},"type":"Feature"},
	{"geometry":{"coordinates":[8.841126,47.759064],"type":"Point"},"properties":{"osm_id":"5465539547","tag":{"amenity":"waste_basket"}},"type":"Feature"},
	{"geometry":{"coordinates":[8.844654,47.76106],"type":"Point"},"properties":{"osm_id":"5509439822","tag":{"amenity":"waste_basket"}},"type":"Feature"},
	{"geometry":{"coordinates":[8.845911,47.761591],"type":"Point"},"properties":{"osm_id":"5509439825","tag":{"amenity":"waste_basket"}},"type":"Feature"},
	{"geometry":{"coordinates":[8.845156,47.762904],"type":"Point"},"properties":{"osm_id":"5509439840","tag":{"amenity":"waste_basket"}},"type":"Feature"},
	{"geometry":{"coordinates":[8.845111,47.762866],"type":"Point"},"properties":{"osm_id":"5509439842","tag":{"amenity":"waste_basket"}},"type":"Feature"},
	{"geometry":{"coordinates":[8.845082,47.762893],"type":"Point"},"properties":{"osm_id":"5509439843","tag":{"amenity":"waste_basket"}},"type":"Feature"},
	{"geometry":{"coordinates":[8.845096,47.762916],"type":"Point"},"properties":{"osm_id":"5509439845","tag":{"amenity":"waste_basket"}},"type":"Feature"},
	{"geometry":{"coordinates":[8.844578,47.762965],"type":"Point"},"properties":{"osm_id":"5509439855","tag":{"amenity":"waste_basket"}},"type":"Feature"},
	{"geometry":{"coordinates":[8.844472,47.763113],"type":"Point"},"properties":{"osm_id":"5509439859","tag":{"amenity":"waste_basket"}},"type":"Feature"},
	{"geometry":{"coordinates":[8.820059,47.756535],"type":"Point"},"properties":{"osm_id":"5592115643","tag":{"amenity":"waste_basket","waste":"trash"}},"type":"Feature"},
	{"geometry":{"coordinates":[8.819618,47.756554],"type":"Point"},"properties":{"osm_id":"5592115644","tag":{"amenity":"waste_basket","waste":"trash"}},"type":"Feature"},
	{"geometry":{"coordinates":[8.843562,47.770007],"type":"Point"},"properties":{"osm_id":"5630665518","tag":{"amenity":"waste_basket"}},"type":"Feature"},
	{"geometry":{"coordinates":[8.790068,47.790439],"type":"Point"},"properties":{"osm_id":"5663788304","tag":{"amenity":"waste_basket"}},"type":"Feature"},
	{"geometry":{"coordinates":[8.790557,47.790291],"type":"Point"},"properties":{"osm_id":"5663788326","tag":{"amenity":"waste_basket"}},"type":"Feature"},
	{"geometry":{"coordinates":[8.804751,47.810464],"type":"Point"},"properties":{"osm_id":"5679355083","tag":{"amenity":"waste_basket"}},"type":"Feature"},
	{"geometry":{"coordinates":[8.805698,47.810089],"type":"Point"},"properties":{"osm_id":"5679355084","tag":{"amenity":"waste_basket"}},"type":"Feature"},
	{"geometry":{"coordinates":[8.834547,47.761138],"type":"Point"},"properties":{"osm_id":"5680101768","tag":{"amenity":"waste_basket"}},"type":"Feature"},
	{"geometry":{"coordinates":[8.835227,47.761726],"type":"Point"},"properties":{"osm_id":"5680101788","tag":{"amenity":"waste_basket"}},"type":"Feature"},
	{"geometry":{"coordinates":[8.83562,47.76173],"type":"Point"},"properties":{"osm_id":"5680101790","tag":{"amenity":"waste_basket"}},"type":"Feature"},
	{"geometry":{"coordinates":[8.83537,47.761709],"type":"Point"},"properties":{"osm_id":"5680101791","tag":{"amenity":"waste_basket"}},"type":"Feature"},
	{"geometry":{"coordinates":[8.834971,47.761707],"type":"Point"},"properties":{"osm_id":"5680101792","tag":{"amenity":"waste_basket"}},"type":"Feature"},
	{"geometry":{"coordinates":[8.825077,47.770408],"type":"Point"},"properties":{"osm_id":"5680102048","tag":{"amenity":"waste_basket"}},"type":"Feature"},
	{"geometry":{"coordinates":[8.81983,47.756878],"type":"Point"},"properties":{"osm_id":"5730451941","tag":{"amenity":"waste_basket"}},"type":"Feature"},
	{"geometry":{"coordinates":[8.820002,47.756799],"type":"Point"},"properties":{"osm_id":"5730452404","tag":{"amenity":"waste_basket"}},"type":"Feature"},
	{"geometry":{"coordinates":[8.819671,47.756685],"type":"Point"},"properties":{"osm_id":"5730453017","tag":{"amenity":"waste_basket"}},"type":"Feature"},
	{"geometry":{"coordinates":[8.840773,47.75928],"type":"Point"},"properties":{"osm_id":"5730607398","tag":{"amenity":"waste_basket"}},"type":"Feature"},
	{"geometry":{"coordinates":[8.809012,47.810263],"type":"Point"},"properties":{"osm_id":"5747226878","tag":{"amenity":"waste_basket"}},"type":"Feature"},
	{"geometry":{"coordinates":[8.813178,47.81173],"type":"Point"},"properties":{"osm_id":"5747226901","tag":{"amenity":"recycling","location":"overground","recycling:clothes":"yes","recycling_type":"container"}},"type":"Feature"},
	{"geometry":{"coordinates":[8.835554,47.775835],"type":"Point"},"properties":{"osm_id":"5758511626","tag":{"amenity":"waste_basket"}},"type":"Feature"},
	{"geometry":{"coordinates":[8.805807,47.811247],"type":"Point"},"properties":{"osm_id":"5763928499","tag":{"amenity":"waste_basket"}},"type":"Feature"},
	{"geometry":{"coordinates":[8.805578,47.810754],"type":"Point"},"properties":{"osm_id":"5763928508","tag":{"amenity":"waste_basket"}},"type":"Feature"},
	{"geometry":{"coordinates":[8.805702,47.810914],"type":"Point"},"properties":{"osm_id":"5763928515","tag":{"amenity":"waste_basket"}},"type":"Feature"},
	{"geometry":{"coordinates":[8.836878,47.771498],"type":"Point"},"properties":{"osm_id":"5895147611","tag":{"amenity":"recycling","recycling:glass":"yes","recycling:glass_bottles":"yes","recycling_type":"container"}},"type":"Feature"},
	{"geometry":{"coordinates":[8.819385,47.810724],"type":"Point"},"properties":{"osm_id":"5927629416","tag":{"amenity":"recycling","recycling:glass_bottles":"yes","recycling_type":"container"}},"type":"Feature"},
	{"geometry":{"coordinates":[8.871174,47.75958],"type":"Point"},"properties":{"osm_id":"5927629635","tag":{"amenity":"waste_basket","waste":"trash"}},"type":"Feature"},
	{"geometry":{"coordinates":[8.871147,47.759444],"type":"Point"},"properties":{"osm_id":"5927629641","tag":{"amenity":"waste_basket","waste":"trash"}},"type":"Feature"},
	{"geometry":{"coordinates":[8.872653,47.759466],"type":"Point"},"properties":{"osm_id":"5927629650","tag":{"amenity":"waste_basket"}},"type":"Feature"},
	{"geometry":{"coordinates":[8.872625,47.759336],"type":"Point"},"properties":{"osm_id":"5927629658","tag":{"amenity":"waste_basket","waste":"trash"}},"type":"Feature"},
	{"geometry":{"coordinates":[8.800637,47.804292],"type":"Point"},"properties":{"osm_id":"5966972280","tag":{"amenity":"waste_basket"}},"type":"Feature"},
	{"geometry":{"coordinates":[8.800743,47.804282],"type":"Point"},"properties":{"osm_id":"5966972282","tag":{"amenity":"waste_basket"}},"type":"Feature"},
	{"geometry":{"coordinates":[8.838821,47.75433],"type":"Point"},"properties":{"osm_id":"6007398013","tag":{"amenity":"waste_basket"}},"type":"Feature"},
	{"geometry":{"coordinates":[8.839868,47.755049],"type":"Point"},"properties":{"osm_id":"6007398016","tag":{"amenity":"recycling","recycling:plastic_bottles":"yes"}},"type":"Feature"},
	{"geometry":{"coordinates":[8.843961,47.763285],"type":"Point"},"properties":{"osm_id":"6049919720","tag":{"amenity":"waste_basket"}},"type":"Feature"},
	{"geometry":{"coordinates":[8.840596,47.763213],"type":"Point"},"properties":{"osm_id":"6049919734","tag":{"amenity":"waste_basket"}},"type":"Feature"},
	{"geometry":{"coordinates":[8.839954,47.762335],"type":"Point"},"properties":{"osm_id":"6049919754","tag":{"amenity":"waste_basket"}},"type":"Feature"},
	{"geometry":{"coordinates":[8.876001,47.786778],"type":"Point"},"properties":{"osm_id":"6126678816","tag":{"amenity":"waste_basket"}},"type":"Feature"},
	{"geometry":{"coordinates":[8.848746,47.766823],"type":"Point"},"properties":{"osm_id":"6126678842","tag":{"amenity":"recycling","recycling:glass":"yes","recycling:glass_bottles":"yes","recycling_type":"container"}},"type":"Feature"},
	{"geometry":{"coordinates":[8.842995,47.76108],"type":"Point"},"properties":{"osm_id":"6179508763","tag":{"amenity":"waste_basket"}},"type":"Feature"},
	{"geometry":{"coordinates":[8.831881,47.759899],"type":"Point"},"properties":{"osm_id":"6199760246","tag":{"amenity":"waste_basket"}},"type":"Feature"},
	{"geometry":{"coordinates":[8.831208,47.761888],"type":"Point"},"properties":{"osm_id":"6199760274","tag":{"amenity":"waste_basket"}},"type":"Feature"},
	{"geometry":{"coordinates":[8.83124,47.761711],"type":"Point"},"properties":{"osm_id":"6199760275","tag":{"amenity":"waste_basket"}},"type":"Feature"},
	{"geometry":{"coordinates":[8.83261,47.760585],"type":"Point"},"properties":{"osm_id":"6199760792","tag":{"amenity":"waste_basket","bicycle":"yes","information":"guidepost","tourism":"information"}},"type":"Feature"},
	{"geometry":{"coordinates":[8.833319,47.761007],"type":"Point"},"properties":{"osm_id":"6199760810","tag":{"amenity":"waste_basket"}},"type":"Feature"},
	{"geometry":{"coordinates":[8.82393,47.758191],"type":"Point"},"properties":{"osm_id":"6206046603","tag":{"amenity":"recycling","recycling:clothes":"yes","recycling:glass":"yes","recycling:glass_bottles":"yes","recycling:shoes":"yes","recycling_type":"container"}},"type":"Feature"},
	{"geometry":{"coordinates":[8.818867,47.811433],"type":"Point"},"properties":{"osm_id":"6274910999","tag":{"amenity":"waste_basket","waste":"dog_excrement"}},"type":"Feature"},
	{"geometry":{"coordinates":[8.831903,47.772199],"type":"Point"},"properties":{"osm_id":"6299738563","tag":{"amenity":"waste_basket"}},"type":"Feature"},
	{"geometry":{"coordinates":[8.83033,47.772955],"type":"Point"},"properties":{"osm_id":"6299738577","tag":{"amenity":"waste_basket"}},"type":"Feature"},
	{"geometry":{"coordinates":[8.824288,47.771432],"type":"Point"},"properties":{"osm_id":"6299739615","tag":{"amenity":"waste_basket"}},"type":"Feature"},
	{"geometry":{"coordinates":[8.824515,47.770847],"type":"Point"},"properties":{"osm_id":"6299739618","tag":{"amenity":"waste_basket"}},"type":"Feature"},
	{"geometry":{"coordinates":[8.815471,47.808267],"type":"Point"},"properties":{"osm_id":"6299739628","tag":{"amenity":"waste_basket"}},"type":"Feature"},
	{"geometry":{"coordinates":[8.816256,47.808637],"type":"Point"},"properties":{"osm_id":"6299739665","tag":{"amenity":"recycling","recycling:green_waste":"yes","recycling_type":"container"}},"type":"Feature"},
	{"geometry":{"coordinates":[8.81472,47.808256],"type":"Point"},"properties":{"osm_id":"6299739676","tag":{"amenity":"waste_basket","waste":"dog_excrement"}},"type":"Feature"},
	{"geometry":{"coordinates":[8.814018,47.807969],"type":"Point"},"properties":{"osm_id":"6299739678","tag":{"amenity":"waste_basket"}},"type":"Feature"},
	{"geometry":{"coordinates":[8.84111,47.766081],"type":"Point"},"properties":{"osm_id":"6299763958","tag":{"amenity":"waste_basket"}},"type":"Feature"},
	{"geometry":{"coordinates":[8.841031,47.765802],"type":"Point"},"properties":{"osm_id":"6299763959","tag":{"amenity":"waste_basket"}},"type":"Feature"},
	{"geometry":{"coordinates":[8.840953,47.765711],"type":"Point"},"properties":{"osm_id":"6299763960","tag":{"amenity":"waste_basket"}},"type":"Feature"},
	{"geometry":{"coordinates":[8.793486,47.766921],"type":"Point"},"properties":{"osm_id":"6341998165","tag":{"amenity":"recycling","location":"underground","recycling:glass_bottles":"yes","recycling_type":"container"}},"type":"Feature"},
	{"geometry":{"coordinates":[8.836342,47.756573],"type":"Point"},"properties":{"osm_id":"6346143649","tag":{"amenity":"waste_basket"}},"type":"Feature"},
	{"geometry":{"coordinates":[8.842276,47.807353],"type":"Point"},"properties":{"osm_id":"6354708874","tag":{"amenity":"waste_basket"}},"type":"Feature"},
	{"geometry":{"coordinates":[8.870891,47.808387],"type":"Point"},"properties":{"osm_id":"6354710171","tag":{"amenity":"waste_basket"}},"type":"Feature"},
	{"geometry":{"coordinates":[8.833706,47.781173],"type":"Point"},"properties":{"osm_id":"6394612417","tag":{"amenity":"waste_basket","waste":"trash"}},"type":"Feature"},
	{"geometry":{"coordinates":[8.832681,47.778785],"type":"Point"},"properties":{"osm_id":"6394622313","tag":{"amenity":"waste_basket","waste":"dog_excrement"}},"type":"Feature"},
	{"geometry":{"coordinates":[8.83269,47.778804],"type":"Point"},"properties":{"osm_id":"6394622314","tag":{"amenity":"waste_basket","waste":"trash"}},"type":"Feature"},
	{"geometry":{"coordinates":[8.833472,47.780539],"type":"Point"},"properties":{"osm_id":"6394622487","tag":{"amenity":"waste_basket","waste":"trash"}},"type":"Feature"},
	{"geometry":{"coordinates":[8.832641,47.759335],"type":"Point"},"properties":{"osm_id":"6400445779","tag":{"amenity":"waste_basket"}},"type":"Feature"},
	{"geometry":{"coordinates":[8.833871,47.758507],"type":"Point"},"properties":{"osm_id":"6400445784","tag":{"amenity":"waste_basket"}},"type":"Feature"},
	{"geometry":{"coordinates":[8.832224,47.761408],"type":"Point"},"properties":{"osm_id":"6411651982","tag":{"amenity":"waste_basket"}},"type":"Feature"},
	{"geometry":{"coordinates":[8.832233,47.756288],"type":"Point"},"properties":{"osm_id":"6454781568","tag":{"amenity":"waste_basket"}},"type":"Feature"},
	{"geometry":{"coordinates":[8.836526,47.760284],"type":"Point"},"properties":{"osm_id":"6463834861","tag":{"amenity":"waste_basket"}},"type":"Feature"},
	{"geometry":{"coordinates":[8.822115,47.767285],"type":"Point"},"properties":{"osm_id":"6469880984","tag":{"amenity":"waste_basket"}},"type":"Feature"},
	{"geometry":{"coordinates":[8.821671,47.767167],"type":"Point"},"properties":{"osm_id":"6469881985","tag":{"amenity":"waste_basket"}},"type":"Feature"},
	{"geometry":{"coordinates":[8.821379,47.766672],"type":"Point"},"properties":{"osm_id":"6469881986","tag":{"amenity":"waste_basket"}},"type":"Feature"},
	{"geometry":{"coordinates":[8.81978,47.766763],"type":"Point"},"properties":{"osm_id":"6469881988","tag":{"amenity":"waste_basket"}},"type":"Feature"},
	{"geometry":{"coordinates":[8.818743,47.767326],"type":"Point"},"properties":{"osm_id":"6469881990","tag":{"amenity":"waste_basket"}},"type":"Feature"},
	{"geometry":{"coordinates":[8.81844,47.766881],"type":"Point"},"properties":{"osm_id":"6469881995","tag":{"amenity":"recycling","recycling:glass":"yes","recycling:glass_bottles":"yes","recycling_type":"container"}},"type":"Feature"},
	{"geometry":{"coordinates":[8.818456,47.766758],"type":"Point"},"properties":{"osm_id":"6469881999","tag":{"amenity":"waste_basket"}},"type":"Feature"},
	{"geometry":{"coordinates":[8.817462,47.766681],"type":"Point"},"properties":{"osm_id":"6469882001","tag":{"amenity":"waste_basket"}},"type":"Feature"},
	{"geometry":{"coordinates":[8.815966,47.766003],"type":"Point"},"properties":{"osm_id":"6469882002","tag":{"amenity":"waste_basket"}},"type":"Feature"},
	{"geometry":{"coordinates":[8.816531,47.763415],"type":"Point"},"properties":{"osm_id":"6469882010","tag":{"amenity":"waste_basket"}},"type":"Feature"},
	{"geometry":{"coordinates":[8.816992,47.763311],"type":"Point"},"properties":{"osm_id":"6469882011","tag":{"amenity":"waste_basket"}},"type":"Feature"},
	{"geometry":{"coordinates":[8.81803,47.767417],"type":"Point"},"properties":{"osm_id":"6469882015","tag":{"amenity":"waste_basket"}},"type":"Feature"},
	{"geometry":{"coordinates":[8.841663,47.762738],"type":"Point"},"properties":{"osm_id":"6477838158","tag":{"amenity":"waste_basket"}},"type":"Feature"},
	{"geometry":{"coordinates":[8.853872,47.764578],"type":"Point"},"properties":{"osm_id":"6487802567","tag":{"amenity":"recycling","recycling:clothes":"yes","recycling:glass":"yes","recycling:shoes":"yes","recycling_type":"container"}},"type":"Feature"},
	{"geometry":{"coordinates":[8.848596,47.763887],"type":"Point"},"properties":{"osm_id":"6488001473","tag":{"amenity":"waste_basket"}},"type":"Feature"},
	{"geometry":{"coordinates":[8.830118,47.759522],"type":"Point"},"properties":{"osm_id":"6520691787","tag":{"amenity":"waste_basket","material":"steel"}},"type":"Feature"},
	{"geometry":{"coordinates":[8.829244,47.761544],"type":"Point"},"properties":{"osm_id":"6524138473","tag":{"amenity":"waste_basket","material":"metal"}},"type":"Feature"},
	{"geometry":{"coordinates":[8.830739,47.76037],"type":"Point"},"properties":{"osm_id":"6524154188","tag":{"amenity":"waste_basket","material":"metal"}},"type":"Feature"},
	{"geometry":{"coordinates":[8.809607,47.810465],"type":"Point"},"properties":{"osm_id":"6531597658","tag":{"amenity":"recycling","recycling:clothes":"yes","recycling:glass":"yes","recycling:green_waste":"yes","recycling_type":"container"}},"type":"Feature"},
	{"geometry":{"coordinates":[8.836723,47.765651],"type":"Point"},"properties":{"osm_id":"6581597094","tag":{"amenity":"waste_basket","material":"steel"}},"type":"Feature"},
	{"geometry":{"coordinates":[8.837062,47.764863],"type":"Point"},"properties":{"osm_id":"6581597096","tag":{"amenity":"waste_basket","material":"steel"}},"type":"Feature"},
	{"geometry":{"coordinates":[8.838281,47.765774],"type":"Point"},"properties":{"osm_id":"6581597097","tag":{"amenity":"waste_basket","material":"steel"}},"type":"Feature"},
	{"geometry":{"coordinates":[8.837976,47.764658],"type":"Point"},"properties":{"osm_id":"6581597100","tag":{"amenity":"waste_basket","material":"steel"}},"type":"Feature"},
	{"geometry":{"coordinates":[8.837583,47.764576],"type":"Point"},"properties":{"osm_id":"6581597103","tag":{"amenity":"waste_basket","material":"steel"}},"type":"Feature"},
	{"geometry":{"coordinates":[8.837154,47.764977],"type":"Point"},"properties":{"osm_id":"6581597106","tag":{"amenity":"waste_basket","material":"steel"}},"type":"Feature"},
	{"geometry":{"coordinates":[8.832625,47.807391],"type":"Point"},"properties":{"osm_id":"6610282796","tag":{"amenity":"waste_basket"}},"type":"Feature"},
	{"geometry":{"coordinates":[8.828814,47.772686],"type":"Point"},"properties":{"osm_id":"6610282803","tag":{"amenity":"waste_basket"}},"type":"Feature"},
	{"geometry":{"coordinates":[8.833095,47.765763],"type":"Point"},"properties":{"osm_id":"6610282814","tag":{"amenity":"waste_basket"}},"type":"Feature"},
	{"geometry":{"coordinates":[8.867958,47.757189],"type":"Point"},"properties":{"barrier":"lift_gate","osm_id":"6758628718","tag":{"access":"yes"}},"type":"Feature"},
	{"geometry":{"coordinates":[8.836573,47.805465],"type":"Point"},"properties":{"osm_id":"6802863327","tag":{"amenity":"waste_basket"}},"type":"Feature"},
	{"geometry":{"coordinates":[8.837018,47.805479],"type":"Point"},"properties":{"osm_id":"6802863328","tag":{"amenity":"recycling","recycling:glass_bottles":"yes","recycling_type":"container"}},"type":"Feature"},
	{"geometry":{"coordinates":[8.834778,47.760442],"type":"Point"},"properties":{"osm_id":"6843985712","tag":{"amenity":"recycling","recycling:clothes":"yes","recycling:glass_bottles":"yes","recycling_type":"container"}},"type":"Feature"},
	{"geometry":{"coordinates":[8.828262,47.759161],"type":"Point"},"properties":{"osm_id":"7030253769","tag":{"amenity":"waste_basket"}},"type":"Feature"},
	{"geometry":{"coordinates":[8.828028,47.759403],"type":"Point"},"properties":{"osm_id":"7030253770","tag":{"amenity":"waste_basket"}},"type":"Feature"},
	{"geometry":{"coordinates":[8.827815,47.759621],"type":"Point"},"properties":{"osm_id":"7030253771","tag":{"amenity":"waste_basket"}},"type":"Feature"},
	{"geometry":{"coordinates":[8.827626,47.759821],"type":"Point"},"properties":{"osm_id":"7030253772","tag":{"amenity":"waste_basket"}},"type":"Feature"},
	{"geometry":{"coordinates":[8.832481,47.759268],"type":"Point"},"properties":{"osm_id":"7030256051","tag":{"amenity":"waste_basket"}},"type":"Feature"},
	{"geometry":{"coordinates":[8.84348,47.761992],"type":"Point"},"properties":{"osm_id":"7052767732","tag":{"amenity":"waste_basket"}},"type":"Feature"},
	{"geometry":{"coordinates":[8.843525,47.761912],"type":"Point"},"properties":{"osm_id":"7052767733","tag":{"amenity":"waste_basket"}},"type":"Feature"},
	{"geometry":{"coordinates":[8.843381,47.761884],"type":"Point"},"properties":{"osm_id":"7052767747","tag":{"amenity":"waste_basket"}},"type":"Feature"},
	{"geometry":{"coordinates":[8.843043,47.761842],"type":"Point"},"properties":{"osm_id":"7052767759","tag":{"amenity":"waste_basket"}},"type":"Feature"},
	{"geometry":{"coordinates":[8.843257,47.761908],"type":"Point"},"properties":{"osm_id":"7052767775","tag":{"amenity":"waste_basket"}},"type":"Feature"},
	{"geometry":{"coordinates":[8.843082,47.7619],"type":"Point"},"properties":{"osm_id":"7052767778","tag":{"amenity":"waste_basket"}},"type":"Feature"},
	{"geometry":{"coordinates":[8.843086,47.761847],"type":"Point"},"properties":{"osm_id":"7052767779","tag":{"amenity":"waste_basket"}},"type":"Feature"},
	{"geometry":{"coordinates":[8.843192,47.761812],"type":"Point"},"properties":{"osm_id":"7052786285","tag":{"amenity":"waste_basket"}},"type":"Feature"},
	{"geometry":{"coordinates":[8.828666,47.761361],"type":"Point"},"properties":{"osm_id":"7281142921","tag":{"amenity":"waste_basket"}},"type":"Feature"},
	{"geometry":{"coordinates":[8.876856,47.800049],"type":"Point"},"properties":{"osm_id":"7322229984","tag":{"amenity":"waste_basket"}},"type":"Feature"},
	{"geometry":{"coordinates":[8.876902,47.799814],"type":"Point"},"properties":{"osm_id":"7322229985","tag":{"amenity":"waste_basket"}},"type":"Feature"},
	{"geometry":{"coordinates":[8.841157,47.795282],"type":"Point"},"properties":{"osm_id":"7322230041","tag":{"amenity":"recycling","recycling:green_waste":"yes"}},"type":"Feature"},
	{"geometry":{"coordinates":[8.841033,47.758628],"type":"Point"},"properties":{"osm_id":"7529729090","tag":{"amenity":"waste_basket","layer":"-1","level":"-1","waste":"trash"}},"type":"Feature"},
	{"geometry":{"coordinates":[8.843287,47.760678],"type":"Point"},"properties":{"osm_id":"7606943980","tag":{"amenity":"waste_basket"}},"type":"Feature"},
	{"geometry":{"coordinates":[8.842659,47.762883],"type":"Point"},"properties":{"osm_id":"7617856898","tag":{"amenity":"waste_basket"}},"type":"Feature"},
	{"geometry":{"coordinates":[8.842333,47.762807],"type":"Point"},"properties":{"osm_id":"7617856911","tag":{"amenity":"waste_basket"}},"type":"Feature"},
	{"geometry":{"coordinates":[8.842513,47.758704],"type":"Point"},"properties":{"osm_id":"7652046285","tag":{"amenity":"waste_basket"}},"type":"Feature"},
	{"geometry":{"coordinates":[8.842702,47.758787],"type":"Point"},"properties":{"osm_id":"7652046286","tag":{"amenity":"waste_basket"}},"type":"Feature"},
	{"geometry":{"coordinates":[8.805718,47.809635],"type":"Point"},"properties":{"osm_id":"7727441508","tag":{"amenity":"waste_basket"}},"type":"Feature"},
	{"geometry":{"coordinates":[8.812317,47.781412],"type":"Point"},"properties":{"osm_id":"7733505028","tag":{"amenity":"waste_basket"}},"type":"Feature"},
	{"geometry":{"coordinates":[8.834522,47.767674],"type":"Point"},"properties":{"osm_id":"7737973954","tag":{"amenity":"waste_basket"}},"type":"Feature"},
	{"geometry":{"coordinates":[8.834645,47.767705],"type":"Point"},"properties":{"osm_id":"7737973955","tag":{"amenity":"waste_basket"}},"type":"Feature"},
	{"geometry":{"coordinates":[8.828959,47.764488],"type":"Point"},"properties":{"osm_id":"7747834010","tag":{"amenity":"recycling","recycling:clothes":"yes","recycling:glass":"yes","recycling:shoes":"yes","recycling_type":"container"}},"type":"Feature"},
	{"geometry":{"coordinates":[8.794406,47.786864],"type":"Point"},"properties":{"osm_id":"7747834067","tag":{"amenity":"waste_basket","waste":"Kr\u00c3\u00a4nze"}},"type":"Feature"},
	{"geometry":{"coordinates":[8.794397,47.786783],"type":"Point"},"properties":{"osm_id":"7747834068","tag":{"amenity":"recycling","recycling:green_waste":"yes"}},"type":"Feature"},
	{"geometry":{"coordinates":[8.794364,47.78681],"type":"Point"},"properties":{"osm_id":"7747834069","tag":{"amenity":"recycling","recycling:green_waste":"yes"}},"type":"Feature"}
]
}
