{
"type": "FeatureCollection",
"features": [
	{"geometry":{"coordinates":[8.864073,47.724263],"type":"Point"},"properties":{"osm_id":"307463746","tag":{"amenity":"recycling","recycling_type":"container"}},"type":"Feature"},
	{"geometry":{"coordinates":[8.857238,47.727213],"type":"Point"},"properties":{"osm_id":"308255565","tag":{"amenity":"recycling","recycling_type":"container"}},"type":"Feature"},
	{"geometry":{"coordinates":[8.846972,47.733554],"type":"Point"},"properties":{"osm_id":"308919168","tag":{"amenity":"recycling","recycling_type":"container"}},"type":"Feature"},
	{"geometry":{"coordinates":[8.847281,47.73322],"type":"Point"},"properties":{"name":"Baubetriebshof","osm_id":"308919169","tag":{"amenity":"recycling","recycling_type":"centre"}},"type":"Feature"},
	{"geometry":{"coordinates":[8.842956,47.735032],"type":"Point"},"properties":{"osm_id":"308921543","tag":{"amenity":"recycling"}},"type":"Feature"},
	{"geometry":{"coordinates":[8.846205,47.725553],"type":"Point"},"properties":{"osm_id":"309178085","tag":{"amenity":"recycling","recycling_type":"container"}},"type":"Feature"},
	{"geometry":{"coordinates":[8.852252,47.724358],"type":"Point"},"properties":{"osm_id":"309497330","tag":{"amenity":"recycling","location":"overground","recycling:green_waste":"yes","recycling:plastic":"no","recycling:plastic_packaging":"yes","recycling_type":"container"}},"type":"Feature"},
	{"geometry":{"coordinates":[8.850451,47.749548],"type":"Point"},"properties":{"osm_id":"310423098","tag":{"amenity":"recycling","recycling:glass_bottles":"yes","recycling_type":"container"}},"type":"Feature"},
	{"geometry":{"coordinates":[8.834875,47.733458],"type":"Point"},"properties":{"osm_id":"310431657","tag":{"amenity":"recycling","recycling_type":"container"}},"type":"Feature"},
	{"geometry":{"coordinates":[8.85519,47.748233],"type":"Point"},"properties":{"osm_id":"554168872","tag":{"amenity":"recycling","recycling:clothes":"yes","recycling:glass":"yes","recycling:glass_bottles":"yes","recycling:shoes":"yes","recycling_type":"container"}},"type":"Feature"},
	{"geometry":{"coordinates":[8.846308,47.7503],"type":"Point"},"properties":{"osm_id":"642988385","tag":{"amenity":"recycling","recycling:clothes":"no","recycling:glass_bottles":"yes","recycling:paper":"no","recycling_type":"container"}},"type":"Feature"},
	{"geometry":{"coordinates":[8.842082,47.746266],"type":"Point"},"properties":{"osm_id":"649208573","tag":{"amenity":"recycling","recycling:glass":"yes","recycling_type":"container"}},"type":"Feature"},
	{"geometry":{"coordinates":[8.844997,47.752138],"type":"Point"},"properties":{"osm_id":"2155865064","tag":{"amenity":"recycling","recycling:glass":"yes","recycling:glass_bottles":"yes","recycling_type":"container"}},"type":"Feature"},
	{"geometry":{"coordinates":[8.846722,47.726684],"type":"Point"},"properties":{"osm_id":"3035069139","tag":{"amenity":"recycling","recycling:glass_bottles":"yes","recycling_type":"container"}},"type":"Feature"},
	{"geometry":{"coordinates":[8.816649,47.750533],"type":"Point"},"properties":{"osm_id":"3393030902","tag":{"amenity":"waste_basket"}},"type":"Feature"},
	{"geometry":{"coordinates":[8.827295,47.728587],"type":"Point"},"properties":{"osm_id":"3912227337","tag":{"amenity":"waste_basket"}},"type":"Feature"},
	{"geometry":{"coordinates":[8.791037,47.731274],"type":"Point"},"properties":{"osm_id":"3912227465","tag":{"amenity":"waste_basket"}},"type":"Feature"},
	{"geometry":{"coordinates":[8.836436,47.753821],"type":"Point"},"properties":{"osm_id":"4318081391","tag":{"amenity":"waste_basket"}},"type":"Feature"},
	{"geometry":{"coordinates":[8.835866,47.753596],"type":"Point"},"properties":{"osm_id":"4318081393","tag":{"amenity":"waste_basket"}},"type":"Feature"},
	{"geometry":{"coordinates":[8.831823,47.734353],"type":"Point"},"properties":{"osm_id":"4452403517","tag":{"amenity":"waste_basket"}},"type":"Feature"},
	{"geometry":{"coordinates":[8.859332,47.750343],"type":"Point"},"properties":{"osm_id":"5161779644","tag":{"amenity":"recycling","opening_hours":"Mo-Fr 07:00-20:00","recycling:clothes":"yes","recycling:shoes":"yes","recycling_type":"container"}},"type":"Feature"},
	{"geometry":{"coordinates":[8.859225,47.750344],"type":"Point"},"properties":{"name":"Wertstoffsammelplatz","osm_id":"5161779645","tag":{"amenity":"recycling","opening_hours":"Mo-Fr 07:00-20:00","operator":"Stadt Singen","recycling:glass":"yes","recycling_type":"container"}},"type":"Feature"},
	{"geometry":{"coordinates":[8.845201,47.751737],"type":"Point"},"properties":{"osm_id":"5313500411","tag":{"amenity":"waste_basket"}},"type":"Feature"},
	{"geometry":{"coordinates":[8.846485,47.746569],"type":"Point"},"properties":{"osm_id":"5684779779","tag":{"amenity":"waste_basket"}},"type":"Feature"},
	{"geometry":{"coordinates":[8.856372,47.750458],"type":"Point"},"properties":{"osm_id":"5730607766","tag":{"amenity":"waste_basket"}},"type":"Feature"},
	{"geometry":{"coordinates":[8.855811,47.750071],"type":"Point"},"properties":{"osm_id":"5730607809","tag":{"amenity":"waste_basket"}},"type":"Feature"},
	{"geometry":{"coordinates":[8.856405,47.750127],"type":"Point"},"properties":{"osm_id":"5730607812","tag":{"amenity":"waste_basket"}},"type":"Feature"},
	{"geometry":{"coordinates":[8.856154,47.749688],"type":"Point"},"properties":{"osm_id":"5730607831","tag":{"amenity":"waste_basket"}},"type":"Feature"},
	{"geometry":{"coordinates":[8.855744,47.749665],"type":"Point"},"properties":{"osm_id":"5730607860","tag":{"amenity":"waste_basket"}},"type":"Feature"},
	{"geometry":{"coordinates":[8.853495,47.748527],"type":"Point"},"properties":{"osm_id":"5730607869","tag":{"amenity":"waste_basket"}},"type":"Feature"},
	{"geometry":{"coordinates":[8.85346,47.748659],"type":"Point"},"properties":{"osm_id":"5730607870","tag":{"amenity":"waste_basket"}},"type":"Feature"},
	{"geometry":{"coordinates":[8.846664,47.746755],"type":"Point"},"properties":{"osm_id":"5730607894","tag":{"amenity":"waste_basket"}},"type":"Feature"},
	{"geometry":{"coordinates":[8.857318,47.749806],"type":"Point"},"properties":{"osm_id":"5794550126","tag":{"amenity":"waste_basket"}},"type":"Feature"},
	{"geometry":{"coordinates":[8.856798,47.749831],"type":"Point"},"properties":{"osm_id":"5794550130","tag":{"amenity":"waste_basket"}},"type":"Feature"},
	{"geometry":{"coordinates":[8.857123,47.749978],"type":"Point"},"properties":{"osm_id":"5794550131","tag":{"amenity":"waste_basket"}},"type":"Feature"},
	{"geometry":{"coordinates":[8.857222,47.750157],"type":"Point"},"properties":{"osm_id":"5794550134","tag":{"amenity":"waste_basket"}},"type":"Feature"},
	{"geometry":{"coordinates":[8.856957,47.750345],"type":"Point"},"properties":{"osm_id":"5794550176","tag":{"amenity":"waste_basket"}},"type":"Feature"},
	{"geometry":{"coordinates":[8.857364,47.750368],"type":"Point"},"properties":{"osm_id":"5794550181","tag":{"amenity":"waste_basket"}},"type":"Feature"},
	{"geometry":{"coordinates":[8.858268,47.749923],"type":"Point"},"properties":{"osm_id":"5794550195","tag":{"amenity":"waste_basket"}},"type":"Feature"},
	{"geometry":{"coordinates":[8.858506,47.749874],"type":"Point"},"properties":{"osm_id":"5794550196","tag":{"amenity":"waste_basket"}},"type":"Feature"},
	{"geometry":{"coordinates":[8.859706,47.74966],"type":"Point"},"properties":{"osm_id":"5794550207","tag":{"amenity":"waste_basket"}},"type":"Feature"},
	{"geometry":{"coordinates":[8.859472,47.749722],"type":"Point"},"properties":{"osm_id":"5794550216","tag":{"amenity":"waste_basket"}},"type":"Feature"},
	{"geometry":{"coordinates":[8.859916,47.750133],"type":"Point"},"properties":{"osm_id":"5794550217","tag":{"amenity":"waste_basket"}},"type":"Feature"},
	{"geometry":{"coordinates":[8.860166,47.75004],"type":"Point"},"properties":{"osm_id":"5794550236","tag":{"amenity":"waste_basket"}},"type":"Feature"},
	{"geometry":{"coordinates":[8.858776,47.750712],"type":"Point"},"properties":{"osm_id":"5794550262","tag":{"amenity":"waste_basket"}},"type":"Feature"},
	{"geometry":{"coordinates":[8.859737,47.751723],"type":"Point"},"properties":{"osm_id":"5794550299","tag":{"amenity":"waste_basket"}},"type":"Feature"},
	{"geometry":{"coordinates":[8.859817,47.751344],"type":"Point"},"properties":{"osm_id":"5794550318","tag":{"amenity":"waste_basket"}},"type":"Feature"},
	{"geometry":{"coordinates":[8.859732,47.751341],"type":"Point"},"properties":{"osm_id":"5794550323","tag":{"amenity":"waste_basket"}},"type":"Feature"},
	{"geometry":{"coordinates":[8.859718,47.751267],"type":"Point"},"properties":{"osm_id":"5794550324","tag":{"amenity":"waste_basket"}},"type":"Feature"},
	{"geometry":{"coordinates":[8.859838,47.75126],"type":"Point"},"properties":{"osm_id":"5794550326","tag":{"amenity":"waste_basket"}},"type":"Feature"},
	{"geometry":{"coordinates":[8.859788,47.751166],"type":"Point"},"properties":{"osm_id":"5794550331","tag":{"amenity":"waste_basket"}},"type":"Feature"},
	{"geometry":{"coordinates":[8.859526,47.751234],"type":"Point"},"properties":{"osm_id":"5794550333","tag":{"amenity":"waste_basket"}},"type":"Feature"},
	{"geometry":{"coordinates":[8.860099,47.750798],"type":"Point"},"properties":{"osm_id":"5944596838","tag":{"amenity":"waste_basket"}},"type":"Feature"},
	{"geometry":{"coordinates":[8.861737,47.750382],"type":"Point"},"properties":{"osm_id":"6000066311","tag":{"amenity":"waste_basket"}},"type":"Feature"},
	{"geometry":{"coordinates":[8.860436,47.750176],"type":"Point"},"properties":{"osm_id":"6005761699","tag":{"amenity":"waste_basket"}},"type":"Feature"},
	{"geometry":{"coordinates":[8.818655,47.735783],"type":"Point"},"properties":{"osm_id":"6005904854","tag":{"amenity":"waste_basket"}},"type":"Feature"},
	{"geometry":{"coordinates":[8.855044,47.748243],"type":"Point"},"properties":{"osm_id":"6052675221","tag":{"amenity":"waste_basket"}},"type":"Feature"},
	{"geometry":{"coordinates":[8.859873,47.748994],"type":"Point"},"properties":{"osm_id":"6052675273","tag":{"amenity":"waste_basket"}},"type":"Feature"},
	{"geometry":{"coordinates":[8.793693,47.714522],"type":"Point"},"properties":{"osm_id":"6331710668","tag":{"amenity":"waste_basket","waste":"dog_excrement"}},"type":"Feature"},
	{"geometry":{"coordinates":[8.808103,47.71609],"type":"Point"},"properties":{"osm_id":"6331710682","tag":{"amenity":"waste_basket","guidepost":"hiking","information":"guidepost","tourism":"information","waste":"dog_excrement"}},"type":"Feature"},
	{"geometry":{"coordinates":[8.795731,47.721854],"type":"Point"},"properties":{"osm_id":"6331711085","tag":{"amenity":"waste_basket","waste":"dog_excrement"}},"type":"Feature"},
	{"geometry":{"coordinates":[8.842259,47.746961],"type":"Point"},"properties":{"osm_id":"6346144596","tag":{"amenity":"waste_basket"}},"type":"Feature"},
	{"geometry":{"coordinates":[8.842255,47.747273],"type":"Point"},"properties":{"osm_id":"6346144612","tag":{"amenity":"waste_basket"}},"type":"Feature"},
	{"geometry":{"coordinates":[8.842229,47.747295],"type":"Point"},"properties":{"osm_id":"6346144613","tag":{"amenity":"waste_basket"}},"type":"Feature"},
	{"geometry":{"coordinates":[8.841474,47.744533],"type":"Point"},"properties":{"osm_id":"6346144642","tag":{"amenity":"waste_basket"}},"type":"Feature"},
	{"geometry":{"coordinates":[8.840556,47.741896],"type":"Point"},"properties":{"osm_id":"6346144653","tag":{"amenity":"waste_basket"}},"type":"Feature"},
	{"geometry":{"coordinates":[8.855293,47.73387],"type":"Point"},"properties":{"osm_id":"6354710428","tag":{"amenity":"waste_basket","waste":"dog_excrement"}},"type":"Feature"},
	{"geometry":{"coordinates":[8.821131,47.704769],"type":"Point"},"properties":{"osm_id":"6522224069","tag":{"amenity":"waste_basket","waste":"dog_excrement"}},"type":"Feature"},
	{"geometry":{"coordinates":[8.832324,47.738647],"type":"Point"},"properties":{"osm_id":"7675037025","tag":{"amenity":"recycling","recycling:green_waste":"yes","recycling_type":"container"}},"type":"Feature"},
	{"geometry":{"coordinates":[8.833629,47.73852],"type":"Point"},"properties":{"osm_id":"7675057764","tag":{"amenity":"recycling","recycling:green_waste":"yes","recycling_type":"container"}},"type":"Feature"},
	{"geometry":{"coordinates":[8.867342,47.73149],"type":"Point"},"properties":{"osm_id":"7675057885","tag":{"amenity":"waste_basket"}},"type":"Feature"},
	{"geometry":{"coordinates":[8.861338,47.734594],"type":"Point"},"properties":{"osm_id":"7675057887","tag":{"amenity":"waste_basket"}},"type":"Feature"},
	{"geometry":{"coordinates":[8.856256,47.727703],"type":"Point"},"properties":{"osm_id":"7677070905","tag":{"amenity":"waste_basket"}},"type":"Feature"},
	{"geometry":{"coordinates":[8.828575,47.722412],"type":"Point"},"properties":{"osm_id":"7683612152","tag":{"amenity":"waste_basket"}},"type":"Feature"},
	{"geometry":{"coordinates":[8.839012,47.734464],"type":"Point"},"properties":{"osm_id":"7926470519","tag":{"amenity":"waste_basket"}},"type":"Feature"},
	{"geometry":{"coordinates":[8.857867,47.744468],"type":"Point"},"properties":{"osm_id":"7926470541","tag":{"amenity":"waste_basket"}},"type":"Feature"},
	{"geometry":{"coordinates":[8.857426,47.744568],"type":"Point"},"properties":{"osm_id":"7926470548","tag":{"amenity":"waste_basket"}},"type":"Feature"},
	{"geometry":{"coordinates":[8.857091,47.744721],"type":"Point"},"properties":{"osm_id":"7926470551","tag":{"amenity":"waste_basket"}},"type":"Feature"},
	{"geometry":{"coordinates":[8.857404,47.744994],"type":"Point"},"properties":{"osm_id":"7926470552","tag":{"amenity":"waste_basket"}},"type":"Feature"},
	{"geometry":{"coordinates":[8.857133,47.744876],"type":"Point"},"properties":{"osm_id":"7926470553","tag":{"amenity":"waste_basket"}},"type":"Feature"}
]
}
