{
"type": "FeatureCollection",
"features": [
	{"geometry":{"coordinates":[8.794374,47.552351],"type":"Point"},"properties":{"name":"VOLG Laden/Landi","osm_id":"972123079","tag":{"amenity":"recycling","recycling_type":"container"}},"type":"Feature"},
	{"geometry":{"coordinates":[8.875185,47.553707],"type":"Point"},"properties":{"osm_id":"1514495662","tag":{"amenity":"recycling","opening_hours":"Mo-Sa 08:00-20:00; PH closed","recycling:cans":"yes","recycling:clothes":"yes","recycling:glass":"yes","recycling_type":"container","wheelchair":"limited"}},"type":"Feature"},
	{"geometry":{"coordinates":[8.789162,47.526835],"type":"Point"},"properties":{"osm_id":"1842963268","tag":{"amenity":"waste_basket"}},"type":"Feature"},
	{"geometry":{"coordinates":[8.800747,47.543715],"type":"Point"},"properties":{"osm_id":"1842971878","tag":{"amenity":"waste_basket"}},"type":"Feature"},
	{"geometry":{"coordinates":[8.796021,47.551853],"type":"Point"},"properties":{"osm_id":"1842985921","tag":{"amenity":"waste_basket"}},"type":"Feature"},
	{"geometry":{"coordinates":[8.869081,47.567107],"type":"Point"},"properties":{"osm_id":"1843122063","tag":{"amenity":"waste_basket","vending":"excrement_bags"}},"type":"Feature"},
	{"geometry":{"coordinates":[8.853339,47.569873],"type":"Point"},"properties":{"osm_id":"1843122090","tag":{"amenity":"waste_basket","vending":"excrement_bags"}},"type":"Feature"},
	{"geometry":{"coordinates":[8.850294,47.57055],"type":"Point"},"properties":{"osm_id":"1843122096","tag":{"amenity":"waste_basket","vending":"excrement_bags"}},"type":"Feature"},
	{"geometry":{"coordinates":[8.851013,47.539871],"type":"Point"},"properties":{"osm_id":"2607835336","tag":{"amenity":"recycling","recycling:cans":"no","recycling:clothes":"yes","recycling:glass":"yes","recycling:paper":"no"}},"type":"Feature"},
	{"geometry":{"coordinates":[8.864511,47.545175],"type":"Point"},"properties":{"osm_id":"3077206083","tag":{"amenity":"waste_basket"}},"type":"Feature"},
	{"geometry":{"coordinates":[8.860974,47.554082],"type":"Point"},"properties":{"osm_id":"3077206129","tag":{"amenity":"recycling","recycling:clothes":"yes","recycling:glass":"yes"}},"type":"Feature"},
	{"geometry":{"coordinates":[8.789819,47.519564],"type":"Point"},"properties":{"osm_id":"3866183376","tag":{"amenity":"waste_basket"}},"type":"Feature"},
	{"geometry":{"coordinates":[8.789492,47.520885],"type":"Point"},"properties":{"osm_id":"3866183422","tag":{"amenity":"waste_basket"}},"type":"Feature"},
	{"geometry":{"coordinates":[8.790015,47.521123],"type":"Point"},"properties":{"osm_id":"3866183439","tag":{"amenity":"waste_basket"}},"type":"Feature"},
	{"geometry":{"coordinates":[8.824036,47.562478],"type":"Point"},"properties":{"osm_id":"4121812278","tag":{"amenity":"recycling","recycling_type":"container"}},"type":"Feature"},
	{"geometry":{"coordinates":[8.862535,47.551582],"type":"Point"},"properties":{"osm_id":"7611889107","tag":{"amenity":"waste_disposal","waste":"trash"}},"type":"Feature"},
	{"geometry":{"coordinates":[8.873098,47.552463],"type":"Point"},"properties":{"osm_id":"7628851074","tag":{"amenity":"waste_basket","waste":"trash"}},"type":"Feature"},
	{"geometry":{"coordinates":[8.858773,47.558491],"type":"Point"},"properties":{"osm_id":"7829526726","tag":{"amenity":"waste_disposal","location":"underground","waste":"trash"}},"type":"Feature"},
	{"geometry":{"coordinates":[8.860422,47.559197],"type":"Point"},"properties":{"osm_id":"7831970400","tag":{"amenity":"waste_basket","waste":"trash"}},"type":"Feature"},
	{"geometry":{"coordinates":[8.868907,47.56279],"type":"Point"},"properties":{"osm_id":"7837170693","tag":{"amenity":"waste_disposal","location":"underground","waste":"trash"}},"type":"Feature"},
	{"geometry":{"coordinates":[8.87229,47.564377],"type":"Point"},"properties":{"osm_id":"7839564790","tag":{"amenity":"waste_disposal","waste":"trash"}},"type":"Feature"}
]
}
