{
"type": "FeatureCollection",
"features": [
	{"geometry":{"coordinates":[8.876713,47.369614],"type":"Point"},"properties":{"name":"Robidog","osm_id":"867392665","tag":{"amenity":"waste_basket","vending":"excrement_bags"}},"type":"Feature"},
	{"geometry":{"coordinates":[8.79719,47.352153],"type":"Point"},"properties":{"osm_id":"1419739725","tag":{"amenity":"waste_basket"}},"type":"Feature"},
	{"geometry":{"coordinates":[8.790857,47.341724],"type":"Point"},"properties":{"osm_id":"2555988626","tag":{"amenity":"waste_basket"}},"type":"Feature"},
	{"geometry":{"coordinates":[8.79106,47.341836],"type":"Point"},"properties":{"osm_id":"2555988628","tag":{"amenity":"waste_basket"}},"type":"Feature"},
	{"geometry":{"coordinates":[8.79119,47.341911],"type":"Point"},"properties":{"osm_id":"2555988631","tag":{"amenity":"waste_basket"}},"type":"Feature"},
	{"geometry":{"coordinates":[8.795931,47.342276],"type":"Point"},"properties":{"osm_id":"2555988633","tag":{"amenity":"waste_basket"}},"type":"Feature"},
	{"geometry":{"coordinates":[8.790847,47.342513],"type":"Point"},"properties":{"osm_id":"2555988637","tag":{"amenity":"waste_basket"}},"type":"Feature"},
	{"geometry":{"coordinates":[8.790631,47.342563],"type":"Point"},"properties":{"osm_id":"2555988638","tag":{"amenity":"waste_basket"}},"type":"Feature"},
	{"geometry":{"coordinates":[8.789866,47.342586],"type":"Point"},"properties":{"osm_id":"2555988642","tag":{"amenity":"waste_basket"}},"type":"Feature"},
	{"geometry":{"coordinates":[8.79047,47.342609],"type":"Point"},"properties":{"osm_id":"2555988644","tag":{"amenity":"waste_basket"}},"type":"Feature"},
	{"geometry":{"coordinates":[8.790291,47.342668],"type":"Point"},"properties":{"osm_id":"2555988645","tag":{"amenity":"waste_basket"}},"type":"Feature"},
	{"geometry":{"coordinates":[8.789791,47.342731],"type":"Point"},"properties":{"osm_id":"2555988646","tag":{"amenity":"waste_basket"}},"type":"Feature"},
	{"geometry":{"coordinates":[8.790695,47.342763],"type":"Point"},"properties":{"osm_id":"2555988647","tag":{"amenity":"waste_basket"}},"type":"Feature"},
	{"geometry":{"coordinates":[8.7905,47.3428],"type":"Point"},"properties":{"osm_id":"2555988648","tag":{"amenity":"waste_basket"}},"type":"Feature"},
	{"geometry":{"coordinates":[8.789784,47.342844],"type":"Point"},"properties":{"osm_id":"2555988649","tag":{"amenity":"waste_basket"}},"type":"Feature"},
	{"geometry":{"coordinates":[8.790973,47.342861],"type":"Point"},"properties":{"osm_id":"2555988650","tag":{"amenity":"waste_basket"}},"type":"Feature"},
	{"geometry":{"coordinates":[8.790873,47.342947],"type":"Point"},"properties":{"osm_id":"2555988651","tag":{"amenity":"waste_basket"}},"type":"Feature"},
	{"geometry":{"coordinates":[8.789949,47.342994],"type":"Point"},"properties":{"osm_id":"2555988652","tag":{"amenity":"waste_basket"}},"type":"Feature"},
	{"geometry":{"coordinates":[8.790122,47.343036],"type":"Point"},"properties":{"osm_id":"2555988653","tag":{"amenity":"waste_basket"}},"type":"Feature"},
	{"geometry":{"coordinates":[8.790772,47.343067],"type":"Point"},"properties":{"osm_id":"2555988654","tag":{"amenity":"waste_basket"}},"type":"Feature"},
	{"geometry":{"coordinates":[8.801591,47.343141],"type":"Point"},"properties":{"osm_id":"2555988657","tag":{"amenity":"waste_basket"}},"type":"Feature"},
	{"geometry":{"coordinates":[8.790408,47.343177],"type":"Point"},"properties":{"osm_id":"2555988658","tag":{"amenity":"waste_basket"}},"type":"Feature"},
	{"geometry":{"coordinates":[8.791346,47.343284],"type":"Point"},"properties":{"osm_id":"2555988659","tag":{"amenity":"waste_basket"}},"type":"Feature"},
	{"geometry":{"coordinates":[8.791359,47.343292],"type":"Point"},"properties":{"osm_id":"2555988660","tag":{"amenity":"waste_basket"}},"type":"Feature"},
	{"geometry":{"coordinates":[8.790501,47.343345],"type":"Point"},"properties":{"osm_id":"2555988669","tag":{"amenity":"waste_basket"}},"type":"Feature"},
	{"geometry":{"coordinates":[8.790754,47.343406],"type":"Point"},"properties":{"osm_id":"2555988675","tag":{"amenity":"waste_basket"}},"type":"Feature"},
	{"geometry":{"coordinates":[8.797411,47.345352],"type":"Point"},"properties":{"osm_id":"2555988677","tag":{"amenity":"waste_basket"}},"type":"Feature"},
	{"geometry":{"coordinates":[8.792043,47.357828],"type":"Point"},"properties":{"osm_id":"2555988693","tag":{"amenity":"waste_basket"}},"type":"Feature"},
	{"geometry":{"coordinates":[8.853108,47.390075],"type":"Point"},"properties":{"name":"Sammelstelle Saland","osm_id":"2599114702","tag":{"amenity":"recycling","opening_hours":"Mo-Sa 07:00-12:00,13:00-19:00","recycling:aluminium":"yes","recycling:batteries":"yes","recycling:cans":"yes","recycling:clothes":"yes","recycling:cooking_oil":"yes","recycling:engine_oil":"yes","recycling:glass":"yes","recycling_type":"container"}},"type":"Feature"},
	{"geometry":{"coordinates":[8.85431,47.394144],"type":"Point"},"properties":{"name":"Sammelstelle Bahnhof","osm_id":"3234240126","tag":{"amenity":"recycling","opening_hours":"Mo-Sa 07:00-12:00,13:00-19:00","recycling:clothes":"yes","recycling_type":"container"}},"type":"Feature"},
	{"geometry":{"coordinates":[8.860003,47.386181],"type":"Point"},"properties":{"name":"Sammelstelle Juckern","osm_id":"3234240127","tag":{"amenity":"recycling","opening_hours":"Mo-Sa 07:00-12:00,13:00-19:00","recycling:clothes":"yes","recycling:glass":"yes","recycling_type":"container"}},"type":"Feature"},
	{"geometry":{"coordinates":[8.854194,47.396277],"type":"Point"},"properties":{"osm_id":"3607283895","tag":{"amenity":"waste_basket"}},"type":"Feature"},
	{"geometry":{"coordinates":[8.846932,47.398204],"type":"Point"},"properties":{"osm_id":"3607283903","tag":{"amenity":"waste_basket"}},"type":"Feature"},
	{"geometry":{"coordinates":[8.872164,47.369018],"type":"Point"},"properties":{"osm_id":"4782464582","tag":{"amenity":"waste_basket"}},"type":"Feature"},
	{"geometry":{"coordinates":[8.862877,47.388084],"type":"Point"},"properties":{"osm_id":"5615058223","tag":{"amenity":"waste_basket"}},"type":"Feature"},
	{"geometry":{"coordinates":[8.82671,47.393929],"type":"Point"},"properties":{"osm_id":"5661529003","tag":{"amenity":"waste_basket","waste":"dog_excrement"}},"type":"Feature"},
	{"geometry":{"coordinates":[8.830141,47.39095],"type":"Point"},"properties":{"osm_id":"5678133505","tag":{"amenity":"waste_basket"}},"type":"Feature"},
	{"geometry":{"coordinates":[8.830479,47.391102],"type":"Point"},"properties":{"osm_id":"5678133506","tag":{"amenity":"waste_basket","waste":"dog_excrement"}},"type":"Feature"},
	{"geometry":{"coordinates":[8.824332,47.396034],"type":"Point"},"properties":{"osm_id":"5678133514","tag":{"amenity":"waste_basket","waste":"dog_excrement"}},"type":"Feature"},
	{"geometry":{"coordinates":[8.835267,47.391874],"type":"Point"},"properties":{"name":"Ravensb\u00c3\u00bcel","osm_id":"5683180130","tag":{"amenity":"waste_basket","information":"guidepost","tourism":"information","vending":"excrement_bags"}},"type":"Feature"},
	{"geometry":{"coordinates":[8.846566,47.393224],"type":"Point"},"properties":{"osm_id":"6188023957","tag":{"amenity":"waste_basket","vending":"excrement_bags"}},"type":"Feature"},
	{"geometry":{"coordinates":[8.853383,47.390782],"type":"Point"},"properties":{"osm_id":"6329324973","tag":{"amenity":"waste_basket"}},"type":"Feature"},
	{"geometry":{"coordinates":[8.859071,47.34373],"type":"Point"},"properties":{"osm_id":"6539708110","tag":{"amenity":"waste_basket","waste":"dog_excrement"}},"type":"Feature"},
	{"geometry":{"coordinates":[8.854728,47.345202],"type":"Point"},"properties":{"osm_id":"6539708111","tag":{"amenity":"waste_basket","waste":"dog_excrement"}},"type":"Feature"},
	{"geometry":{"coordinates":[8.851888,47.341874],"type":"Point"},"properties":{"osm_id":"6539708112","tag":{"amenity":"waste_basket","waste":"dog_excrement"}},"type":"Feature"},
	{"geometry":{"coordinates":[8.852623,47.340315],"type":"Point"},"properties":{"osm_id":"6539708113","tag":{"amenity":"waste_basket","waste":"dog_excrement"}},"type":"Feature"},
	{"geometry":{"coordinates":[8.815479,47.377004],"type":"Point"},"properties":{"name":"Labdoo Annahmestelle f\u00c3\u00bcr Laptops","osm_id":"6543241938","tag":{"addr:city":"Hittnau","addr:housenumber":"4","addr:postcode":"8335","addr:street":"Dichterweg","amenity":"recycling","brand":"Labdoo","charity":"yes","description":"Bitte vorher mit Christoph Linsi, christoph.linsi@labdoo.org einen Termin vereinbaren.","email":"christoph.linsi@labdoo.org","location":"indoor","operator":"Christoph Linsi","recycling:computers":"yes","recycling:mobile_phones":"yes","website":"https://www.labdoo.org/hub?h=51583"}},"type":"Feature"},
	{"geometry":{"coordinates":[8.859263,47.390116],"type":"Point"},"properties":{"osm_id":"6783848695","tag":{"amenity":"recycling","recycling_type":"container"}},"type":"Feature"},
	{"geometry":{"coordinates":[8.87192,47.369081],"type":"Point"},"properties":{"osm_id":"6802940978","tag":{"amenity":"waste_basket"}},"type":"Feature"}
]
}
