{
"type": "FeatureCollection",
"features": [
	{"geometry":{"coordinates":[8.856033,47.288055],"type":"Point"},"properties":{"osm_id":"341569657","tag":{"amenity":"recycling","recycling:glass":"yes","recycling:white_alloy":"yes","recycling_type":"container"}},"type":"Feature"},
	{"geometry":{"coordinates":[8.823269,47.323043],"type":"Point"},"properties":{"osm_id":"354600116","tag":{"amenity":"recycling","recycling:glass":"yes"}},"type":"Feature"},
	{"geometry":{"coordinates":[8.800125,47.327952],"type":"Point"},"properties":{"osm_id":"440935427","tag":{"amenity":"recycling","level":"0","location":"overground","recycling:batteries":"yes","recycling:cans":"yes","recycling:glass":"yes","recycling:paper":"yes","recycling:scrap_metal":"yes","recycling_type":"container"}},"type":"Feature"},
	{"geometry":{"coordinates":[8.793068,47.320289],"type":"Point"},"properties":{"name":"Sammelstelle Kratzstrasse","osm_id":"614108691","tag":{"amenity":"recycling","recycling:cans":"yes","recycling:clothes":"yes","recycling:glass_bottles":"yes","recycling_type":"container"}},"type":"Feature"},
	{"geometry":{"coordinates":[8.800301,47.328726],"type":"Point"},"properties":{"name":"Glassammelstelle","osm_id":"664420298","tag":{"amenity":"recycling","location":"overground","recycling:cans":"yes","recycling:glass_bottles":"yes","recycling_type":"container"}},"type":"Feature"},
	{"geometry":{"coordinates":[8.792852,47.315788],"type":"Point"},"properties":{"name":"Sammelstelle G\u00c3\u00bcetilistrasse","osm_id":"1143768023","tag":{"amenity":"recycling","recycling:cans":"yes","recycling:clothes":"yes","recycling:glass_bottles":"yes","recycling_type":"container"}},"type":"Feature"},
	{"geometry":{"coordinates":[8.806055,47.313086],"type":"Point"},"properties":{"osm_id":"1363150510","tag":{"amenity":"waste_basket"}},"type":"Feature"},
	{"geometry":{"coordinates":[8.792196,47.319855],"type":"Point"},"properties":{"osm_id":"1366716500","tag":{"amenity":"recycling","recycling:plastic_bottles":"yes","recycling_type":"container"}},"type":"Feature"},
	{"geometry":{"coordinates":[8.792987,47.320325],"type":"Point"},"properties":{"osm_id":"1366716524","tag":{"amenity":"waste_basket"}},"type":"Feature"},
	{"geometry":{"coordinates":[8.811956,47.332618],"type":"Point"},"properties":{"osm_id":"1390648926","tag":{"amenity":"waste_basket"}},"type":"Feature"},
	{"geometry":{"coordinates":[8.813958,47.329204],"type":"Point"},"properties":{"osm_id":"1395454089","tag":{"amenity":"waste_disposal","waste":"trash"}},"type":"Feature"},
	{"geometry":{"coordinates":[8.813199,47.33154],"type":"Point"},"properties":{"osm_id":"1401322355","tag":{"amenity":"waste_basket"}},"type":"Feature"},
	{"geometry":{"coordinates":[8.835813,47.301761],"type":"Point"},"properties":{"name":"Keller Recycling","osm_id":"1837274823","tag":{"addr:city":"Hinwil","addr:housenumber":"14","addr:postcode":"8340","addr:street":"Steigbreitestrasse","amenity":"recycling","opening_hours":"Tu-Fr 09:12,15:00-18:30, Sa 08:00-16:00","phone":"+41 44 937 39 44","recycling:batteries":"yes","recycling:books":"yes","recycling:cans":"yes","recycling:cartons":"yes","recycling:clothes":"yes","recycling:electrical_appliances":"yes","recycling:glass":"yes","recycling:glass_bottles":"yes","recycling:paper":"yes","recycling:plastic_bottles":"yes","recycling:shoes":"yes","recycling_type":"centre"}},"type":"Feature"},
	{"geometry":{"coordinates":[8.80147,47.326401],"type":"Point"},"properties":{"osm_id":"2252200423","tag":{"amenity":"waste_basket"}},"type":"Feature"},
	{"geometry":{"coordinates":[8.807695,47.331424],"type":"Point"},"properties":{"osm_id":"2408008474","tag":{"amenity":"waste_basket"}},"type":"Feature"},
	{"geometry":{"coordinates":[8.794524,47.336488],"type":"Point"},"properties":{"osm_id":"2555988622","tag":{"amenity":"waste_basket"}},"type":"Feature"},
	{"geometry":{"coordinates":[8.799807,47.326651],"type":"Point"},"properties":{"osm_id":"2655709407","tag":{"amenity":"waste_basket"}},"type":"Feature"},
	{"geometry":{"coordinates":[8.808664,47.332401],"type":"Point"},"properties":{"osm_id":"2902791042","tag":{"amenity":"recycling","location":"overground","recycling_type":"container"}},"type":"Feature"},
	{"geometry":{"coordinates":[8.831533,47.297541],"type":"Point"},"properties":{"osm_id":"3503433984","tag":{"amenity":"waste_basket"}},"type":"Feature"},
	{"geometry":{"coordinates":[8.840554,47.303648],"type":"Point"},"properties":{"osm_id":"3504893715","tag":{"amenity":"waste_basket"}},"type":"Feature"},
	{"geometry":{"coordinates":[8.82803,47.319258],"type":"Point"},"properties":{"osm_id":"3505088834","tag":{"amenity":"waste_basket"}},"type":"Feature"},
	{"geometry":{"coordinates":[8.843306,47.301759],"type":"Point"},"properties":{"osm_id":"3505182338","tag":{"amenity":"waste_basket"}},"type":"Feature"},
	{"geometry":{"coordinates":[8.843767,47.302185],"type":"Point"},"properties":{"osm_id":"3505182340","tag":{"amenity":"waste_basket"}},"type":"Feature"},
	{"geometry":{"coordinates":[8.789534,47.329915],"type":"Point"},"properties":{"osm_id":"5032914665","tag":{"amenity":"waste_basket"}},"type":"Feature"},
	{"geometry":{"coordinates":[8.789963,47.32876],"type":"Point"},"properties":{"osm_id":"5057914003","tag":{"amenity":"recycling","opening_hours":"Mo-Fr 08:00-20:00,","recycling:cans":"yes","recycling:clothes":"yes","recycling:glass":"yes","recycling_type":"container"}},"type":"Feature"},
	{"geometry":{"coordinates":[8.797157,47.328389],"type":"Point"},"properties":{"osm_id":"5547272505","tag":{"amenity":"waste_basket","waste":"trash"}},"type":"Feature"},
	{"geometry":{"coordinates":[8.812625,47.333441],"type":"Point"},"properties":{"osm_id":"5730302336","tag":{"amenity":"waste_basket","waste":"trash"}},"type":"Feature"},
	{"geometry":{"coordinates":[8.817111,47.332395],"type":"Point"},"properties":{"osm_id":"5730330359","tag":{"amenity":"waste_basket","waste":"trash"}},"type":"Feature"},
	{"geometry":{"coordinates":[8.804774,47.332202],"type":"Point"},"properties":{"osm_id":"5741836394","tag":{"amenity":"waste_basket","waste":"trash"}},"type":"Feature"},
	{"geometry":{"coordinates":[8.804709,47.332103],"type":"Point"},"properties":{"osm_id":"5741836395","tag":{"amenity":"waste_basket","waste":"trash"}},"type":"Feature"},
	{"geometry":{"coordinates":[8.804804,47.332101],"type":"Point"},"properties":{"osm_id":"5741836396","tag":{"amenity":"waste_basket","waste":"trash"}},"type":"Feature"},
	{"geometry":{"coordinates":[8.804344,47.331599],"type":"Point"},"properties":{"osm_id":"5741836397","tag":{"amenity":"waste_basket","waste":"trash"}},"type":"Feature"},
	{"geometry":{"coordinates":[8.805015,47.33249],"type":"Point"},"properties":{"osm_id":"5741836401","tag":{"amenity":"waste_basket","waste":"trash"}},"type":"Feature"},
	{"geometry":{"coordinates":[8.797245,47.332277],"type":"Point"},"properties":{"osm_id":"5741861285","tag":{"amenity":"waste_basket","waste":"trash"}},"type":"Feature"},
	{"geometry":{"coordinates":[8.797685,47.332128],"type":"Point"},"properties":{"osm_id":"5741861286","tag":{"amenity":"waste_basket","waste":"trash"}},"type":"Feature"},
	{"geometry":{"coordinates":[8.846946,47.298861],"type":"Point"},"properties":{"osm_id":"5753313122","tag":{"amenity":"recycling","recycling:aluminium":"yes","recycling:cans":"yes","recycling:glass":"yes","recycling_type":"container mobile"}},"type":"Feature"},
	{"geometry":{"coordinates":[8.791657,47.318037],"type":"Point"},"properties":{"osm_id":"5956453651","tag":{"amenity":"waste_basket","waste":"trash"}},"type":"Feature"},
	{"geometry":{"coordinates":[8.791816,47.317904],"type":"Point"},"properties":{"osm_id":"5956464397","tag":{"amenity":"waste_basket","waste":"trash"}},"type":"Feature"},
	{"geometry":{"coordinates":[8.814823,47.324302],"type":"Point"},"properties":{"osm_id":"6281442505","tag":{"amenity":"waste_basket","vending":"excrement_bags","waste":"dog_excrement"}},"type":"Feature"},
	{"geometry":{"coordinates":[8.815023,47.326892],"type":"Point"},"properties":{"osm_id":"6281442506","tag":{"amenity":"waste_basket","vending":"excrement_bags","waste":"dog_excrement"}},"type":"Feature"},
	{"geometry":{"coordinates":[8.798265,47.319227],"type":"Point"},"properties":{"osm_id":"6408777772","tag":{"amenity":"waste_basket"}},"type":"Feature"},
	{"geometry":{"coordinates":[8.86084,47.338641],"type":"Point"},"properties":{"osm_id":"6539708109","tag":{"amenity":"waste_basket","waste":"dog_excrement"}},"type":"Feature"},
	{"geometry":{"coordinates":[8.853117,47.33841],"type":"Point"},"properties":{"osm_id":"6539708114","tag":{"amenity":"waste_basket","waste":"dog_excrement"}},"type":"Feature"},
	{"geometry":{"coordinates":[8.855689,47.33769],"type":"Point"},"properties":{"osm_id":"6539708115","tag":{"amenity":"waste_basket","waste":"dog_excrement"}},"type":"Feature"},
	{"geometry":{"coordinates":[8.856191,47.337432],"type":"Point"},"properties":{"osm_id":"6539708116","tag":{"amenity":"waste_basket","waste":"dog_excrement"}},"type":"Feature"},
	{"geometry":{"coordinates":[8.820388,47.329645],"type":"Point"},"properties":{"osm_id":"6881678023","tag":{"amenity":"recycling","recycling:glass":"yes","recycling_type":"container"}},"type":"Feature"},
	{"geometry":{"coordinates":[8.793475,47.333312],"type":"Point"},"properties":{"name":"Michelessi","osm_id":"6924429353","tag":{"amenity":"recycling","recycling:scrap_metal":"yes","recycling_type":"centre"}},"type":"Feature"},
	{"geometry":{"coordinates":[8.790333,47.318983],"type":"Point"},"properties":{"osm_id":"7345718975","tag":{"amenity":"waste_basket","waste":"trash"}},"type":"Feature"},
	{"geometry":{"coordinates":[8.789532,47.309207],"type":"Point"},"properties":{"name":"Robidog","osm_id":"7426141042","tag":{"amenity":"waste_basket","waste":"dog_excrement"}},"type":"Feature"},
	{"geometry":{"coordinates":[8.793537,47.301323],"type":"Point"},"properties":{"osm_id":"7438501161","tag":{"amenity":"waste_basket","waste":"trash"}},"type":"Feature"},
	{"geometry":{"coordinates":[8.821003,47.307547],"type":"Point"},"properties":{"name":"KEZO","osm_id":"7723450929","tag":{"addr:city":"Hinwil","addr:housenumber":"2","addr:postcode":"8340","addr:street":"Wildbachstrasse","amenity":"recycling","opening_hours":"Mo-Fr 07:00-16:30; PH off  || \"some Sa every months\"","recycling_type":"centre"}},"type":"Feature"}
]
}
