{
"type": "FeatureCollection",
"features": [
	{"geometry":{"coordinates":[8.845012,47.216637],"type":"Point"},"properties":{"osm_id":"391882638","tag":{"amenity":"recycling","recycling:cans":"yes","recycling:glass":"yes","recycling:paper":"yes","recycling:scrap_metal":"no"}},"type":"Feature"},
	{"geometry":{"coordinates":[8.858685,47.191284],"type":"Point"},"properties":{"name":"Zentrale Sammelstelle","osm_id":"745921839","tag":{"addr:housenumber":"9","amenity":"recycling","recycling:batteries":"yes","recycling:cans":"yes","recycling:clothes":"yes","recycling:glass":"yes","recycling:scrap_metal":"yes","recycling_type":"centre"}},"type":"Feature"},
	{"geometry":{"coordinates":[8.800134,47.213623],"type":"Point"},"properties":{"osm_id":"789948995","tag":{"amenity":"recycling","recycling:batteries":"yes","recycling:cans":"yes","recycling:clothes":"yes","recycling:glass":"yes","recycling:scrap_metal":"yes","recycling_type":"container"}},"type":"Feature"},
	{"geometry":{"coordinates":[8.795614,47.167539],"type":"Point"},"properties":{"name":"Robidog","osm_id":"879124091","tag":{"amenity":"waste_basket","vending":"excrement_bags"}},"type":"Feature"},
	{"geometry":{"coordinates":[8.837056,47.21794],"type":"Point"},"properties":{"osm_id":"2098999877","tag":{"amenity":"waste_basket"}},"type":"Feature"},
	{"geometry":{"coordinates":[8.872115,47.183159],"type":"Point"},"properties":{"name":"Entsorgungsstelle Tischmacherhof","osm_id":"2107218239","tag":{"amenity":"recycling","opening_hours":"Mo-Fr 08:00-12:00,13:30-17:00; Sa 08:00-12:00; PH closed","recycling:batteries":"yes","recycling:cans":"yes","recycling:clothes":"yes","recycling:cooking_oil":"yes","recycling:engine_oil":"yes","recycling:rubble":"yes","recycling:shoes":"yes","recycling_type":"centre","wheelchair":"yes"}},"type":"Feature"},
	{"geometry":{"coordinates":[8.850759,47.176545],"type":"Point"},"properties":{"osm_id":"2339666508","tag":{"amenity":"waste_basket"}},"type":"Feature"},
	{"geometry":{"coordinates":[8.856798,47.177774],"type":"Point"},"properties":{"osm_id":"2339666524","tag":{"amenity":"waste_basket"}},"type":"Feature"},
	{"geometry":{"coordinates":[8.858887,47.18613],"type":"Point"},"properties":{"osm_id":"2339666547","tag":{"amenity":"waste_basket"}},"type":"Feature"},
	{"geometry":{"coordinates":[8.850191,47.186691],"type":"Point"},"properties":{"osm_id":"2339666551","tag":{"amenity":"waste_basket"}},"type":"Feature"},
	{"geometry":{"coordinates":[8.862678,47.200606],"type":"Point"},"properties":{"osm_id":"2339666572","tag":{"amenity":"waste_basket"}},"type":"Feature"},
	{"geometry":{"coordinates":[8.861315,47.200632],"type":"Point"},"properties":{"osm_id":"2339666574","tag":{"amenity":"waste_basket"}},"type":"Feature"},
	{"geometry":{"coordinates":[8.859944,47.200872],"type":"Point"},"properties":{"osm_id":"2339666583","tag":{"amenity":"waste_basket"}},"type":"Feature"},
	{"geometry":{"coordinates":[8.858405,47.201129],"type":"Point"},"properties":{"osm_id":"2339666594","tag":{"amenity":"waste_basket"}},"type":"Feature"},
	{"geometry":{"coordinates":[8.856689,47.201427],"type":"Point"},"properties":{"osm_id":"2339666605","tag":{"amenity":"waste_basket"}},"type":"Feature"},
	{"geometry":{"coordinates":[8.856428,47.201474],"type":"Point"},"properties":{"osm_id":"2339666609","tag":{"amenity":"waste_basket"}},"type":"Feature"},
	{"geometry":{"coordinates":[8.865728,47.203769],"type":"Point"},"properties":{"osm_id":"2339666639","tag":{"amenity":"waste_basket"}},"type":"Feature"},
	{"geometry":{"coordinates":[8.875336,47.204997],"type":"Point"},"properties":{"osm_id":"2339666669","tag":{"amenity":"waste_basket"}},"type":"Feature"},
	{"geometry":{"coordinates":[8.838731,47.217463],"type":"Point"},"properties":{"osm_id":"2343130325","tag":{"amenity":"waste_basket"}},"type":"Feature"},
	{"geometry":{"coordinates":[8.833735,47.217541],"type":"Point"},"properties":{"osm_id":"2343130346","tag":{"amenity":"waste_basket"}},"type":"Feature"},
	{"geometry":{"coordinates":[8.831049,47.218388],"type":"Point"},"properties":{"osm_id":"2343130359","tag":{"amenity":"waste_basket"}},"type":"Feature"},
	{"geometry":{"coordinates":[8.845811,47.190742],"type":"Point"},"properties":{"osm_id":"2531887826","tag":{"amenity":"waste_basket"}},"type":"Feature"},
	{"geometry":{"coordinates":[8.836782,47.219111],"type":"Point"},"properties":{"osm_id":"3718641026","tag":{"amenity":"waste_basket"}},"type":"Feature"},
	{"geometry":{"coordinates":[8.81521,47.194297],"type":"Point"},"properties":{"osm_id":"4638155981","tag":{"amenity":"waste_basket","vending":"excrement_bags"}},"type":"Feature"},
	{"geometry":{"coordinates":[8.872646,47.200114],"type":"Point"},"properties":{"osm_id":"4945406152","tag":{"amenity":"waste_basket"}},"type":"Feature"},
	{"geometry":{"coordinates":[8.864701,47.194522],"type":"Point"},"properties":{"osm_id":"5014540206","tag":{"amenity":"waste_basket","waste":"dog_excrement"}},"type":"Feature"},
	{"geometry":{"coordinates":[8.853156,47.200576],"type":"Point"},"properties":{"osm_id":"5045992615","tag":{"amenity":"waste_basket"}},"type":"Feature"},
	{"geometry":{"coordinates":[8.803643,47.215687],"type":"Point"},"properties":{"osm_id":"5638296835","tag":{"amenity":"waste_basket","waste":"trash"}},"type":"Feature"},
	{"geometry":{"coordinates":[8.805324,47.21687],"type":"Point"},"properties":{"osm_id":"5638296840","tag":{"amenity":"waste_basket","waste":"trash"}},"type":"Feature"},
	{"geometry":{"coordinates":[8.790845,47.200497],"type":"Point"},"properties":{"osm_id":"6565501826","tag":{"amenity":"recycling","recycling:clothes":"yes","recycling_type":"container"}},"type":"Feature"},
	{"geometry":{"coordinates":[8.823609,47.1939],"type":"Point"},"properties":{"osm_id":"6611381897","tag":{"amenity":"recycling","opening_hours":"24/7","operator":"Texaid","recycling:clothes":"yes","recycling:shoes":"yes","recycling_type":"container"}},"type":"Feature"},
	{"geometry":{"coordinates":[8.809234,47.198964],"type":"Point"},"properties":{"osm_id":"6638111204","tag":{"amenity":"waste_basket","waste":"dog_excrement"}},"type":"Feature"},
	{"geometry":{"coordinates":[8.851485,47.194837],"type":"Point"},"properties":{"osm_id":"6735572697","tag":{"amenity":"waste_basket","waste":"trash"}},"type":"Feature"},
	{"geometry":{"coordinates":[8.851502,47.194952],"type":"Point"},"properties":{"osm_id":"6735572699","tag":{"amenity":"waste_basket","waste":"trash"}},"type":"Feature"},
	{"geometry":{"coordinates":[8.851538,47.195041],"type":"Point"},"properties":{"osm_id":"6735572705","tag":{"amenity":"waste_basket","waste":"trash"}},"type":"Feature"},
	{"geometry":{"coordinates":[8.851669,47.194809],"type":"Point"},"properties":{"osm_id":"6735572706","tag":{"amenity":"waste_basket","waste":"trash"}},"type":"Feature"},
	{"geometry":{"coordinates":[8.856797,47.19429],"type":"Point"},"properties":{"osm_id":"6790606131","tag":{"amenity":"waste_basket","waste":"trash"}},"type":"Feature"},
	{"geometry":{"coordinates":[8.872388,47.18233],"type":"Point"},"properties":{"osm_id":"6799336321","tag":{"amenity":"waste_basket"}},"type":"Feature"},
	{"geometry":{"coordinates":[8.857995,47.193475],"type":"Point"},"properties":{"osm_id":"6807315520","tag":{"amenity":"waste_basket","waste":"trash"}},"type":"Feature"},
	{"geometry":{"coordinates":[8.852766,47.194442],"type":"Point"},"properties":{"osm_id":"6832130093","tag":{"amenity":"waste_basket","waste":"trash"}},"type":"Feature"},
	{"geometry":{"coordinates":[8.79022,47.201115],"type":"Point"},"properties":{"name":"Hauptsammelstelle Gwatt","osm_id":"6895742547","tag":{"amenity":"recycling","recycling_type":"centre"}},"type":"Feature"},
	{"geometry":{"coordinates":[8.853231,47.197304],"type":"Point"},"properties":{"osm_id":"7016451087","tag":{"amenity":"waste_basket","waste":"trash"}},"type":"Feature"},
	{"geometry":{"coordinates":[8.853353,47.197118],"type":"Point"},"properties":{"osm_id":"7016451092","tag":{"amenity":"waste_basket","waste":"trash"}},"type":"Feature"},
	{"geometry":{"coordinates":[8.856914,47.19489],"type":"Point"},"properties":{"osm_id":"7246995078","tag":{"amenity":"waste_basket","waste":"trash"}},"type":"Feature"},
	{"geometry":{"coordinates":[8.874184,47.178367],"type":"Point"},"properties":{"osm_id":"7394666532","tag":{"amenity":"waste_basket","waste":"trash"}},"type":"Feature"},
	{"geometry":{"coordinates":[8.852941,47.199628],"type":"Point"},"properties":{"osm_id":"7528987672","tag":{"amenity":"recycling","opening_hours":"24/7","operator":"Genossame Lachen","recycling:PET":"yes","recycling:cans":"yes","recycling:glass_bottles":"yes","recycling:waste":"yes","recycling_type":"container"}},"type":"Feature"},
	{"geometry":{"coordinates":[8.820102,47.194596],"type":"Point"},"properties":{"osm_id":"7699851568","tag":{"amenity":"waste_basket","waste":"trash"}},"type":"Feature"}
]
}
