{
"type": "FeatureCollection",
"features": [
	{"geometry":{"coordinates":[8.855848,46.70533],"type":"Point"},"properties":{"osm_id":"1426143161","tag":{"amenity":"recycling","recycling_type":"container"}},"type":"Feature"},
	{"geometry":{"coordinates":[8.841977,46.704789],"type":"Point"},"properties":{"osm_id":"2159580848","tag":{"amenity":"waste_disposal","designation":"Household Rubbish Disposal"}},"type":"Feature"},
	{"geometry":{"coordinates":[8.845333,46.70484],"type":"Point"},"properties":{"osm_id":"2159580849","tag":{"amenity":"waste_disposal","designation":"Household Rubbish Disposal"}},"type":"Feature"},
	{"geometry":{"coordinates":[8.850776,46.703249],"type":"Point"},"properties":{"osm_id":"3684309516","tag":{"amenity":"recycling","recycling:cans":"no","recycling:glass":"yes","recycling_type":"container"}},"type":"Feature"},
	{"geometry":{"coordinates":[8.847003,46.701481],"type":"Point"},"properties":{"osm_id":"4101966879","tag":{"amenity":"waste_disposal"}},"type":"Feature"},
	{"geometry":{"coordinates":[8.843015,46.700088],"type":"Point"},"properties":{"osm_id":"4101966880","tag":{"amenity":"waste_disposal"}},"type":"Feature"},
	{"geometry":{"coordinates":[8.826478,46.695832],"type":"Point"},"properties":{"osm_id":"4346611784","tag":{"amenity":"recycling","recycling_type":"container"}},"type":"Feature"},
	{"geometry":{"coordinates":[8.826589,46.682106],"type":"Point"},"properties":{"osm_id":"9017278388","tag":{"amenity":"waste_basket"}},"type":"Feature"},
	{"geometry":{"coordinates":[8.825665,46.690759],"type":"Point"},"properties":{"osm_id":"9028639599","tag":{"amenity":"waste_basket"}},"type":"Feature"},
	{"geometry":{"coordinates":[8.854438,46.696888],"type":"Point"},"properties":{"osm_id":"9032397709","tag":{"amenity":"waste_basket"}},"type":"Feature"}
]
}
