{
"type": "FeatureCollection",
"features": [
	{"geometry":{"coordinates":[8.798233,46.177055],"type":"Point"},"properties":{"osm_id":"755549048","tag":{"amenity":"recycling","location":"overground","recycling:batteries":"yes","recycling:cans":"yes","recycling:glass_bottles":"yes","recycling:plastic":"no","recycling:plastic_bottles":"yes","recycling:plastic_packaging":"no","recycling:scrap_metal":"yes","recycling_type":"container"}},"type":"Feature"},
	{"geometry":{"coordinates":[8.85573,46.149003],"type":"Point"},"properties":{"osm_id":"771523807","tag":{"amenity":"recycling","recycling_type":"centre"}},"type":"Feature"},
	{"geometry":{"coordinates":[8.807679,46.173299],"type":"Point"},"properties":{"osm_id":"805255410","tag":{"amenity":"recycling","recycling:batteries":"yes","recycling:cans":"yes","recycling:clothes":"yes","recycling:glass":"yes","recycling:paper":"yes","recycling:scrap_metal":"yes"}},"type":"Feature"},
	{"geometry":{"coordinates":[8.819792,46.175024],"type":"Point"},"properties":{"osm_id":"805255430","tag":{"amenity":"recycling","recycling:batteries":"yes","recycling:cans":"yes","recycling:clothes":"yes","recycling:glass":"yes","recycling:paper":"yes","recycling:scrap_metal":"yes"}},"type":"Feature"},
	{"geometry":{"coordinates":[8.803937,46.159403],"type":"Point"},"properties":{"osm_id":"2301508786","tag":{"amenity":"waste_basket"}},"type":"Feature"},
	{"geometry":{"coordinates":[8.803212,46.163358],"type":"Point"},"properties":{"osm_id":"2301508811","tag":{"amenity":"waste_basket"}},"type":"Feature"},
	{"geometry":{"coordinates":[8.801127,46.170234],"type":"Point"},"properties":{"osm_id":"2480045042","tag":{"amenity":"waste_basket"}},"type":"Feature"},
	{"geometry":{"coordinates":[8.800857,46.17022],"type":"Point"},"properties":{"osm_id":"2480048391","tag":{"amenity":"waste_basket"}},"type":"Feature"},
	{"geometry":{"coordinates":[8.791739,46.147952],"type":"Point"},"properties":{"osm_id":"3046388435","tag":{"amenity":"recycling","recycling:cans":"yes","recycling:glass":"yes","recycling:paper":"yes","recycling:scrap_metal":"no"}},"type":"Feature"},
	{"geometry":{"coordinates":[8.790449,46.169425],"type":"Point"},"properties":{"osm_id":"3126895801","tag":{"amenity":"recycling","recycling:batteries":"yes","recycling:cans":"yes","recycling:clothes":"no","recycling:glass":"yes","recycling:paper":"yes","recycling:plastic_bottles":"yes"}},"type":"Feature"},
	{"geometry":{"coordinates":[8.796827,46.169724],"type":"Point"},"properties":{"osm_id":"3239028217","tag":{"amenity":"waste_basket"}},"type":"Feature"},
	{"geometry":{"coordinates":[8.791744,46.168143],"type":"Point"},"properties":{"osm_id":"3239093772","tag":{"amenity":"waste_basket"}},"type":"Feature"},
	{"geometry":{"coordinates":[8.791949,46.168271],"type":"Point"},"properties":{"osm_id":"3239093778","tag":{"amenity":"waste_basket"}},"type":"Feature"},
	{"geometry":{"coordinates":[8.794997,46.169117],"type":"Point"},"properties":{"osm_id":"3239093783","tag":{"amenity":"waste_basket"}},"type":"Feature"},
	{"geometry":{"coordinates":[8.794886,46.168963],"type":"Point"},"properties":{"osm_id":"3239093804","tag":{"amenity":"waste_basket"}},"type":"Feature"},
	{"geometry":{"coordinates":[8.794013,46.167639],"type":"Point"},"properties":{"osm_id":"3239149682","tag":{"amenity":"waste_basket"}},"type":"Feature"},
	{"geometry":{"coordinates":[8.794077,46.167535],"type":"Point"},"properties":{"osm_id":"3239149707","tag":{"amenity":"waste_basket"}},"type":"Feature"},
	{"geometry":{"coordinates":[8.793772,46.167639],"type":"Point"},"properties":{"osm_id":"3239149713","tag":{"amenity":"waste_basket"}},"type":"Feature"},
	{"geometry":{"coordinates":[8.795707,46.169399],"type":"Point"},"properties":{"osm_id":"3239149715","tag":{"amenity":"waste_basket"}},"type":"Feature"},
	{"geometry":{"coordinates":[8.790472,46.169478],"type":"Point"},"properties":{"osm_id":"3264174780","tag":{"amenity":"waste_basket"}},"type":"Feature"},
	{"geometry":{"coordinates":[8.790025,46.169391],"type":"Point"},"properties":{"osm_id":"3264174782","tag":{"amenity":"waste_basket"}},"type":"Feature"},
	{"geometry":{"coordinates":[8.794647,46.169037],"type":"Point"},"properties":{"osm_id":"3678049886","tag":{"amenity":"waste_basket"}},"type":"Feature"},
	{"geometry":{"coordinates":[8.863669,46.180619],"type":"Point"},"properties":{"osm_id":"3778731246","tag":{"amenity":"waste_basket"}},"type":"Feature"},
	{"geometry":{"coordinates":[8.839487,46.143118],"type":"Point"},"properties":{"osm_id":"4458250891","tag":{"amenity":"recycling","recycling:clothes":"yes","recycling:glass_bottles":"yes","recycling:plastic_bottles":"yes","recycling_type":"container"}},"type":"Feature"},
	{"geometry":{"coordinates":[8.804662,46.159727],"type":"Point"},"properties":{"osm_id":"4460651239","tag":{"amenity":"waste_basket"}},"type":"Feature"},
	{"geometry":{"coordinates":[8.802534,46.160162],"type":"Point"},"properties":{"osm_id":"4460651260","tag":{"amenity":"waste_basket"}},"type":"Feature"},
	{"geometry":{"coordinates":[8.804591,46.160308],"type":"Point"},"properties":{"osm_id":"4460651262","tag":{"amenity":"waste_basket"}},"type":"Feature"},
	{"geometry":{"coordinates":[8.803787,46.160379],"type":"Point"},"properties":{"osm_id":"4460651264","tag":{"amenity":"waste_basket"}},"type":"Feature"},
	{"geometry":{"coordinates":[8.864002,46.180491],"type":"Point"},"properties":{"osm_id":"4499020152","tag":{"amenity":"waste_basket"}},"type":"Feature"},
	{"geometry":{"coordinates":[8.876722,46.169478],"type":"Point"},"properties":{"osm_id":"4499021392","tag":{"amenity":"waste_basket"}},"type":"Feature"},
	{"geometry":{"coordinates":[8.863663,46.17963],"type":"Point"},"properties":{"osm_id":"4499021407","tag":{"amenity":"recycling","recycling:glass":"yes","recycling:scrap_metal":"yes","recycling_type":"container"}},"type":"Feature"},
	{"geometry":{"coordinates":[8.865622,46.172997],"type":"Point"},"properties":{"osm_id":"4499021411","tag":{"amenity":"waste_basket"}},"type":"Feature"},
	{"geometry":{"coordinates":[8.863712,46.180743],"type":"Point"},"properties":{"osm_id":"4499021416","tag":{"amenity":"waste_basket"}},"type":"Feature"},
	{"geometry":{"coordinates":[8.850729,46.186679],"type":"Point"},"properties":{"osm_id":"4499078759","tag":{"amenity":"waste_basket"}},"type":"Feature"},
	{"geometry":{"coordinates":[8.85078,46.186709],"type":"Point"},"properties":{"osm_id":"4499078776","tag":{"amenity":"recycling","recycling:glass_bottles":"yes","recycling:scrap_metal":"yes","recycling_type":"container"}},"type":"Feature"},
	{"geometry":{"coordinates":[8.853224,46.182303],"type":"Point"},"properties":{"osm_id":"4508605340","tag":{"amenity":"recycling","recycling:PET":"yes","recycling:glass":"yes","recycling:glass_bottles":"yes","recycling_type":"container"}},"type":"Feature"},
	{"geometry":{"coordinates":[8.852292,46.179859],"type":"Point"},"properties":{"osm_id":"4508605355","tag":{"amenity":"recycling","recycling:PET":"yes","recycling:cans":"yes","recycling:clothes":"yes","recycling:glass":"yes","recycling:glass_bottles":"yes","recycling:scrap_metal":"yes","recycling_type":"container"}},"type":"Feature"},
	{"geometry":{"coordinates":[8.806858,46.135054],"type":"Point"},"properties":{"osm_id":"4784428252","tag":{"amenity":"recycling"}},"type":"Feature"},
	{"geometry":{"coordinates":[8.848053,46.175351],"type":"Point"},"properties":{"osm_id":"5978013876","tag":{"amenity":"recycling"}},"type":"Feature"},
	{"geometry":{"coordinates":[8.840127,46.1773],"type":"Point"},"properties":{"osm_id":"5978082229","tag":{"amenity":"recycling"}},"type":"Feature"},
	{"geometry":{"coordinates":[8.839824,46.188666],"type":"Point"},"properties":{"osm_id":"6177297272","tag":{"amenity":"recycling","recycling_type":"container"}},"type":"Feature"},
	{"geometry":{"coordinates":[8.792843,46.175996],"type":"Point"},"properties":{"osm_id":"6689718637","tag":{"amenity":"recycling","recycling:glass_bottles":"yes","recycling:plastic_bottles":"yes","recycling_type":"container"}},"type":"Feature"},
	{"geometry":{"coordinates":[8.792929,46.170139],"type":"Point"},"properties":{"osm_id":"7200636402","tag":{"amenity":"recycling","recycling_type":"container"}},"type":"Feature"},
	{"geometry":{"coordinates":[8.792934,46.170134],"type":"Point"},"properties":{"osm_id":"7200636403","tag":{"amenity":"recycling","recycling_type":"container"}},"type":"Feature"},
	{"geometry":{"coordinates":[8.792924,46.170163],"type":"Point"},"properties":{"osm_id":"7200636404","tag":{"amenity":"recycling","recycling_type":"container"}},"type":"Feature"},
	{"geometry":{"coordinates":[8.791718,46.168471],"type":"Point"},"properties":{"osm_id":"7200647685","tag":{"amenity":"waste_basket","colour":"green","waste":"trash"}},"type":"Feature"},
	{"geometry":{"coordinates":[8.790282,46.168971],"type":"Point"},"properties":{"osm_id":"7200681370","tag":{"amenity":"waste_basket","colour":"green","material":"plastic","waste":"trash"}},"type":"Feature"},
	{"geometry":{"coordinates":[8.791449,46.169693],"type":"Point"},"properties":{"osm_id":"7200687561","tag":{"amenity":"waste_basket"}},"type":"Feature"},
	{"geometry":{"coordinates":[8.790827,46.170521],"type":"Point"},"properties":{"osm_id":"7200699298","tag":{"amenity":"waste_basket"}},"type":"Feature"},
	{"geometry":{"coordinates":[8.790602,46.170116],"type":"Point"},"properties":{"osm_id":"7200701299","tag":{"amenity":"waste_basket"}},"type":"Feature"},
	{"geometry":{"coordinates":[8.791566,46.168171],"type":"Point"},"properties":{"osm_id":"7200738028","tag":{"amenity":"waste_basket"}},"type":"Feature"},
	{"geometry":{"coordinates":[8.791766,46.1683],"type":"Point"},"properties":{"osm_id":"7200738032","tag":{"amenity":"waste_basket"}},"type":"Feature"},
	{"geometry":{"coordinates":[8.791533,46.168984],"type":"Point"},"properties":{"osm_id":"7200738034","tag":{"amenity":"waste_basket"}},"type":"Feature"},
	{"geometry":{"coordinates":[8.793852,46.169289],"type":"Point"},"properties":{"osm_id":"7200757029","tag":{"amenity":"waste_basket"}},"type":"Feature"},
	{"geometry":{"coordinates":[8.793839,46.169274],"type":"Point"},"properties":{"osm_id":"7200757030","tag":{"amenity":"waste_basket"}},"type":"Feature"},
	{"geometry":{"coordinates":[8.793818,46.169266],"type":"Point"},"properties":{"osm_id":"7200757031","tag":{"amenity":"waste_basket"}},"type":"Feature"},
	{"geometry":{"coordinates":[8.793793,46.169255],"type":"Point"},"properties":{"osm_id":"7200757032","tag":{"amenity":"waste_basket"}},"type":"Feature"},
	{"geometry":{"coordinates":[8.790364,46.16981],"type":"Point"},"properties":{"osm_id":"7200761390","tag":{"amenity":"waste_basket"}},"type":"Feature"},
	{"geometry":{"coordinates":[8.792256,46.166939],"type":"Point"},"properties":{"osm_id":"7200761403","tag":{"amenity":"waste_basket","colour":"black","description":"cestino"}},"type":"Feature"},
	{"geometry":{"coordinates":[8.792252,46.166925],"type":"Point"},"properties":{"osm_id":"7200761404","tag":{"amenity":"waste_basket","description":"spazzatura"}},"type":"Feature"},
	{"geometry":{"coordinates":[8.791908,46.167528],"type":"Point"},"properties":{"osm_id":"7200761408","tag":{"amenity":"waste_basket"}},"type":"Feature"},
	{"geometry":{"coordinates":[8.79183,46.167283],"type":"Point"},"properties":{"osm_id":"7200761413","tag":{"amenity":"waste_basket"}},"type":"Feature"},
	{"geometry":{"coordinates":[8.791461,46.167147],"type":"Point"},"properties":{"osm_id":"7200761419","tag":{"amenity":"waste_basket"}},"type":"Feature"},
	{"geometry":{"coordinates":[8.791247,46.167149],"type":"Point"},"properties":{"osm_id":"7200761422","tag":{"amenity":"waste_basket"}},"type":"Feature"},
	{"geometry":{"coordinates":[8.791831,46.167374],"type":"Point"},"properties":{"osm_id":"7200770877","tag":{"amenity":"waste_basket","colour":"gray;black","waste":"mixed"}},"type":"Feature"},
	{"geometry":{"coordinates":[8.791755,46.167189],"type":"Point"},"properties":{"osm_id":"7200770880","tag":{"amenity":"waste_basket","colour":"gray;black","waste":"mixed"}},"type":"Feature"},
	{"geometry":{"coordinates":[8.791588,46.167114],"type":"Point"},"properties":{"osm_id":"7200770884","tag":{"amenity":"waste_basket","colour":"gray;black","waste":"mixed"}},"type":"Feature"},
	{"geometry":{"coordinates":[8.79441,46.168473],"type":"Point"},"properties":{"osm_id":"7200778491","tag":{"amenity":"waste_basket"}},"type":"Feature"},
	{"geometry":{"coordinates":[8.793117,46.169215],"type":"Point"},"properties":{"osm_id":"7200783379","tag":{"amenity":"waste_basket","operator":"Luca Torriani"}},"type":"Feature"},
	{"geometry":{"coordinates":[8.791421,46.167545],"type":"Point"},"properties":{"osm_id":"7200787591","tag":{"amenity":"waste_basket"}},"type":"Feature"},
	{"geometry":{"coordinates":[8.791453,46.167556],"type":"Point"},"properties":{"osm_id":"7200787592","tag":{"amenity":"waste_basket"}},"type":"Feature"},
	{"geometry":{"coordinates":[8.791643,46.167523],"type":"Point"},"properties":{"osm_id":"7200787593","tag":{"amenity":"waste_basket"}},"type":"Feature"},
	{"geometry":{"coordinates":[8.791587,46.167242],"type":"Point"},"properties":{"osm_id":"7200787594","tag":{"amenity":"waste_basket"}},"type":"Feature"},
	{"geometry":{"coordinates":[8.791209,46.167311],"type":"Point"},"properties":{"osm_id":"7200787595","tag":{"amenity":"waste_basket"}},"type":"Feature"},
	{"geometry":{"coordinates":[8.791294,46.167536],"type":"Point"},"properties":{"osm_id":"7200787596","tag":{"amenity":"waste_basket"}},"type":"Feature"},
	{"geometry":{"coordinates":[8.794601,46.168722],"type":"Point"},"properties":{"osm_id":"7200789002","tag":{"amenity":"waste_basket"}},"type":"Feature"},
	{"geometry":{"coordinates":[8.794428,46.168466],"type":"Point"},"properties":{"osm_id":"7200789003","tag":{"amenity":"waste_basket","operator":"Luca Torriani","waste":"dog"}},"type":"Feature"},
	{"geometry":{"coordinates":[8.791217,46.167101],"type":"Point"},"properties":{"osm_id":"7200790286","tag":{"amenity":"waste_basket","colour":"gray;black","waste":"mixed"}},"type":"Feature"},
	{"geometry":{"coordinates":[8.790945,46.167393],"type":"Point"},"properties":{"osm_id":"7200790291","tag":{"amenity":"waste_basket","colour":"gray","waste":"mixed"}},"type":"Feature"},
	{"geometry":{"coordinates":[8.791645,46.168125],"type":"Point"},"properties":{"osm_id":"7200790301","tag":{"amenity":"waste_basket","colour":"gray;black","waste":"mixed"}},"type":"Feature"},
	{"geometry":{"coordinates":[8.792666,46.167964],"type":"Point"},"properties":{"osm_id":"7200790308","tag":{"amenity":"waste_basket","colour":"gray;black","waste":"mixed"}},"type":"Feature"},
	{"geometry":{"coordinates":[8.837074,46.139235],"type":"Point"},"properties":{"osm_id":"7556479185","tag":{"amenity":"waste_basket"}},"type":"Feature"},
	{"geometry":{"coordinates":[8.855439,46.148626],"type":"Point"},"properties":{"osm_id":"7629875086","tag":{"amenity":"waste_basket"}},"type":"Feature"},
	{"geometry":{"coordinates":[8.800133,46.162254],"type":"Point"},"properties":{"osm_id":"7706924654","tag":{"amenity":"recycling"}},"type":"Feature"},
	{"geometry":{"coordinates":[8.803382,46.164842],"type":"Point"},"properties":{"osm_id":"7706944185","tag":{"amenity":"waste_basket"}},"type":"Feature"},
	{"geometry":{"coordinates":[8.803574,46.165067],"type":"Point"},"properties":{"osm_id":"7706944188","tag":{"amenity":"waste_basket"}},"type":"Feature"}
]
}
