{
"type": "FeatureCollection",
"features": [
	{"geometry":{"coordinates":[8.870252,46.018112],"type":"Point"},"properties":{"osm_id":"461973390","tag":{"amenity":"recycling"}},"type":"Feature"},
	{"geometry":{"coordinates":[8.867401,46.036395],"type":"Point"},"properties":{"name":"Piazza di compostaggio - Breno","osm_id":"3929702385","tag":{"amenity":"recycling","opening_hours":"We,Sa 08:00-16:30","operator":"Comune di Alto Malcantone","recycling:green_waste":"yes","recycling_type":"centre"}},"type":"Feature"},
	{"geometry":{"coordinates":[8.870754,46.033163],"type":"Point"},"properties":{"osm_id":"3929702449","tag":{"amenity":"waste_basket"}},"type":"Feature"},
	{"geometry":{"coordinates":[8.870746,46.033173],"type":"Point"},"properties":{"osm_id":"3929702451","tag":{"amenity":"waste_disposal"}},"type":"Feature"},
	{"geometry":{"coordinates":[8.853734,46.026071],"type":"Point"},"properties":{"osm_id":"3940755346","tag":{"amenity":"waste_basket"}},"type":"Feature"},
	{"geometry":{"coordinates":[8.874728,46.039927],"type":"Point"},"properties":{"osm_id":"3958811508","tag":{"amenity":"recycling","recycling_type":"container"}},"type":"Feature"},
	{"geometry":{"coordinates":[8.87402,46.039966],"type":"Point"},"properties":{"osm_id":"3958811510","tag":{"amenity":"waste_basket"}},"type":"Feature"},
	{"geometry":{"coordinates":[8.855928,46.023545],"type":"Point"},"properties":{"osm_id":"4162790189","tag":{"amenity":"recycling","recycling_type":"container"}},"type":"Feature"},
	{"geometry":{"coordinates":[8.871261,46.034104],"type":"Point"},"properties":{"osm_id":"4174507654","tag":{"amenity":"waste_basket"}},"type":"Feature"},
	{"geometry":{"coordinates":[8.871788,46.03597],"type":"Point"},"properties":{"osm_id":"4174709597","tag":{"amenity":"waste_basket"}},"type":"Feature"},
	{"geometry":{"coordinates":[8.804487,46.060782],"type":"Point"},"properties":{"osm_id":"4842077832","tag":{"amenity":"waste_basket"}},"type":"Feature"},
	{"geometry":{"coordinates":[8.804575,46.060817],"type":"Point"},"properties":{"osm_id":"4842077834","tag":{"amenity":"waste_basket"}},"type":"Feature"},
	{"geometry":{"coordinates":[8.804602,46.061255],"type":"Point"},"properties":{"osm_id":"4842077856","tag":{"amenity":"waste_basket"}},"type":"Feature"},
	{"geometry":{"coordinates":[8.804501,46.061362],"type":"Point"},"properties":{"osm_id":"4842077860","tag":{"amenity":"waste_disposal"}},"type":"Feature"},
	{"geometry":{"coordinates":[8.804505,46.0614],"type":"Point"},"properties":{"osm_id":"4842077861","tag":{"amenity":"recycling","recycling_type":"container"}},"type":"Feature"}
]
}
