{
"type": "FeatureCollection",
"lastupdate": "2020-08-03T00:00:00Z",
"features": [
	{"geometry":{"coordinates":[8.836353,45.843682],"type":"Point"},"properties":{"osm_id":"1303830574","tag":{"amenity":"waste_basket"}},"type":"Feature"},
	{"geometry":{"coordinates":[8.852061,45.832154],"type":"Point"},"properties":{"osm_id":"1580891063","tag":{"amenity":"waste_basket"}},"type":"Feature"},
	{"geometry":{"coordinates":[8.804154,45.867421],"type":"Point"},"properties":{"osm_id":"4169055403","tag":{"amenity":"recycling","recycling:batteries":"yes"}},"type":"Feature"},
	{"geometry":{"coordinates":[8.802565,45.829773],"type":"Point"},"properties":{"osm_id":"4853727516","tag":{"amenity":"recycling","recycling:batteries":"yes","recycling_type":"container"}},"type":"Feature"},
	{"geometry":{"coordinates":[8.791643,45.835739],"type":"Point"},"properties":{"osm_id":"4853727517","tag":{"amenity":"recycling","recycling:batteries":"yes","recycling_type":"container"}},"type":"Feature"},
	{"geometry":{"coordinates":[8.80265,45.84545],"type":"Point"},"properties":{"osm_id":"4869228210","tag":{"amenity":"recycling","recycling:batteries":"yes","recycling_type":"container"}},"type":"Feature"},
	{"geometry":{"coordinates":[8.804476,45.837455],"type":"Point"},"properties":{"osm_id":"4869228212","tag":{"amenity":"recycling","recycling:batteries":"yes","recycling_type":"container"}},"type":"Feature"},
	{"geometry":{"coordinates":[8.804508,45.837436],"type":"Point"},"properties":{"osm_id":"4869228213","tag":{"amenity":"recycling","recycling:clothes":"yes","recycling_type":"container"}},"type":"Feature"},
	{"geometry":{"coordinates":[8.803676,45.83656],"type":"Point"},"properties":{"osm_id":"4869228214","tag":{"amenity":"recycling","recycling:clothes":"yes","recycling_type":"container"}},"type":"Feature"},
	{"geometry":{"coordinates":[8.806005,45.844849],"type":"Point"},"properties":{"osm_id":"4879625122","tag":{"amenity":"recycling","recycling_type":"container"}},"type":"Feature"},
	{"geometry":{"coordinates":[8.805845,45.865806],"type":"Point"},"properties":{"osm_id":"5572186634","tag":{"amenity":"recycling","mapillary":"p1A3dsop5UTs3zI2QP2ihg","recycling:clothes":"yes","recycling_type":"container"}},"type":"Feature"},
	{"geometry":{"coordinates":[8.790565,45.888222],"type":"Point"},"properties":{"osm_id":"5600516986","tag":{"amenity":"waste_basket"}},"type":"Feature"},
	{"geometry":{"coordinates":[8.790818,45.888494],"type":"Point"},"properties":{"osm_id":"5600517005","tag":{"amenity":"waste_basket","mapillary":"YF0ys7M78P9nE8qo7AJx3Q"}},"type":"Feature"}
]
}
