{
"type": "FeatureCollection",
"features": [
	{"geometry":{"coordinates":[-78.927974,43.852201],"type":"Point"},"properties":{"osm_id":"495879521","tag":{"amenity":"waste_basket"}},"type":"Feature"},
	{"geometry":{"coordinates":[-78.928236,43.852435],"type":"Point"},"properties":{"osm_id":"495879522","tag":{"amenity":"waste_basket"}},"type":"Feature"},
	{"geometry":{"coordinates":[-78.928435,43.85257],"type":"Point"},"properties":{"osm_id":"495879523","tag":{"amenity":"waste_basket"}},"type":"Feature"},
	{"geometry":{"coordinates":[-78.928702,43.852646],"type":"Point"},"properties":{"osm_id":"495879525","tag":{"amenity":"waste_basket"}},"type":"Feature"},
	{"geometry":{"coordinates":[-78.950341,43.873436],"type":"Point"},"properties":{"osm_id":"2963227333","tag":{"amenity":"waste_basket"}},"type":"Feature"},
	{"geometry":{"coordinates":[-78.957659,43.870949],"type":"Point"},"properties":{"osm_id":"2963269333","tag":{"amenity":"waste_basket"}},"type":"Feature"},
	{"geometry":{"coordinates":[-78.942354,43.867027],"type":"Point"},"properties":{"osm_id":"2964419664","tag":{"amenity":"waste_basket"}},"type":"Feature"},
	{"geometry":{"coordinates":[-78.96126,43.871568],"type":"Point"},"properties":{"osm_id":"2965309628","tag":{"amenity":"waste_basket"}},"type":"Feature"},
	{"geometry":{"coordinates":[-78.953283,43.871861],"type":"Point"},"properties":{"osm_id":"2965310431","tag":{"amenity":"waste_basket"}},"type":"Feature"},
	{"geometry":{"coordinates":[-78.945541,43.874805],"type":"Point"},"properties":{"osm_id":"2965334216","tag":{"amenity":"waste_basket"}},"type":"Feature"},
	{"geometry":{"coordinates":[-78.960941,43.870054],"type":"Point"},"properties":{"osm_id":"2965334756","tag":{"amenity":"waste_basket"}},"type":"Feature"},
	{"geometry":{"coordinates":[-78.958651,43.871044],"type":"Point"},"properties":{"osm_id":"2965421375","tag":{"amenity":"waste_basket"}},"type":"Feature"},
	{"geometry":{"coordinates":[-78.928725,43.882795],"type":"Point"},"properties":{"osm_id":"3649760046","tag":{"amenity":"waste_basket","colour":"grey","sidewalk_orientation":"away"}},"type":"Feature"}
]
}
