{
"type": "FeatureCollection",
"features": [
	{"geometry":{"coordinates":[-78.928082,36.018241],"type":"Point"},"properties":{"osm_id":"567462075","tag":{"amenity":"waste_basket"}},"type":"Feature"},
	{"geometry":{"coordinates":[-78.942765,35.999106],"type":"Point"},"properties":{"osm_id":"1896559929","tag":{"amenity":"recycling","recycling:paper":"yes","recycling_type":"container"}},"type":"Feature"},
	{"geometry":{"coordinates":[-78.943251,35.999159],"type":"Point"},"properties":{"osm_id":"1896559938","tag":{"amenity":"recycling","recycling:cans":"yes","recycling:paper":"yes","recycling_type":"container"}},"type":"Feature"},
	{"geometry":{"coordinates":[-78.942848,35.999162],"type":"Point"},"properties":{"osm_id":"1896559942","tag":{"amenity":"recycling","recycling:cans":"yes","recycling:glass":"yes","recycling:paper":"yes","recycling_type":"container"}},"type":"Feature"},
	{"geometry":{"coordinates":[-78.943882,35.999348],"type":"Point"},"properties":{"osm_id":"1896559945","tag":{"amenity":"recycling","recycling:cans":"yes","recycling:glass":"yes","recycling:scrap_metal":"yes","recycling_type":"container"}},"type":"Feature"},
	{"geometry":{"coordinates":[-78.944005,35.999392],"type":"Point"},"properties":{"osm_id":"1896559949","tag":{"amenity":"recycling","recycling:cans":"yes","recycling:glass":"yes","recycling:scrap_metal":"yes","recycling_type":"container"}},"type":"Feature"},
	{"geometry":{"coordinates":[-78.943823,35.999426],"type":"Point"},"properties":{"osm_id":"1896559950","tag":{"amenity":"recycling","recycling:batteries":"yes","recycling:paper":"yes","recycling_type":"container"}},"type":"Feature"},
	{"geometry":{"coordinates":[-78.945896,35.99853],"type":"Point"},"properties":{"osm_id":"1896924371","tag":{"amenity":"recycling","layer":"3","recycling:cans":"yes","recycling:paper":"yes","recycling_type":"container"}},"type":"Feature"},
	{"geometry":{"coordinates":[-78.946284,35.998733],"type":"Point"},"properties":{"osm_id":"1896924388","tag":{"amenity":"recycling","layer":"1","recycling:cans":"yes","recycling:paper":"yes","recycling:scrap_metal":"no","recycling_type":"container"}},"type":"Feature"},
	{"geometry":{"coordinates":[-78.948651,36.013626],"type":"Point"},"properties":{"osm_id":"4870013363","tag":{"amenity":"waste_disposal"}},"type":"Feature"},
	{"geometry":{"coordinates":[-78.951742,36.025996],"type":"Point"},"properties":{"osm_id":"6392032373","tag":{"amenity":"waste_disposal"}},"type":"Feature"},
	{"geometry":{"coordinates":[-78.957505,35.979719],"type":"Point"},"properties":{"osm_id":"6426868094","tag":{"amenity":"waste_disposal"}},"type":"Feature"},
	{"geometry":{"coordinates":[-78.951139,36.022353],"type":"Point"},"properties":{"osm_id":"6677288139","tag":{"amenity":"waste_disposal"}},"type":"Feature"},
	{"geometry":{"coordinates":[-78.950575,36.021804],"type":"Point"},"properties":{"osm_id":"6677288140","tag":{"amenity":"waste_disposal"}},"type":"Feature"},
	{"geometry":{"coordinates":[-78.947626,36.026206],"type":"Point"},"properties":{"osm_id":"6680638985","tag":{"amenity":"waste_disposal"}},"type":"Feature"},
	{"geometry":{"coordinates":[-78.942809,36.009253],"type":"Point"},"properties":{"osm_id":"6717702283","tag":{"amenity":"waste_disposal"}},"type":"Feature"},
	{"geometry":{"coordinates":[-78.943344,36.01027],"type":"Point"},"properties":{"osm_id":"6845662879","tag":{"amenity":"waste_basket","waste":"dog_excrement"}},"type":"Feature"},
	{"geometry":{"coordinates":[-78.942836,36.009638],"type":"Point"},"properties":{"osm_id":"6845662880","tag":{"amenity":"waste_basket","waste":"dog_excrement"}},"type":"Feature"},
	{"geometry":{"coordinates":[-78.943767,36.008859],"type":"Point"},"properties":{"osm_id":"6845662881","tag":{"amenity":"waste_basket"}},"type":"Feature"},
	{"geometry":{"coordinates":[-78.943755,36.00886],"type":"Point"},"properties":{"osm_id":"6845662882","tag":{"amenity":"waste_basket"}},"type":"Feature"},
	{"geometry":{"coordinates":[-78.944033,36.009229],"type":"Point"},"properties":{"osm_id":"6845662883","tag":{"amenity":"waste_basket","waste":"dog_excrement"}},"type":"Feature"},
	{"geometry":{"coordinates":[-78.943844,36.009558],"type":"Point"},"properties":{"osm_id":"6845662884","tag":{"amenity":"waste_basket","waste":"dog_excrement"}},"type":"Feature"},
	{"geometry":{"coordinates":[-78.945702,36.00825],"type":"Point"},"properties":{"osm_id":"6845662885","tag":{"amenity":"waste_basket"}},"type":"Feature"},
	{"geometry":{"coordinates":[-78.946026,36.008446],"type":"Point"},"properties":{"osm_id":"6845662886","tag":{"amenity":"waste_basket","waste":"dog_excrement"}},"type":"Feature"},
	{"geometry":{"coordinates":[-78.947007,36.009495],"type":"Point"},"properties":{"osm_id":"6845662887","tag":{"amenity":"waste_basket","waste":"dog_excrement"}},"type":"Feature"},
	{"geometry":{"coordinates":[-78.945695,36.010179],"type":"Point"},"properties":{"osm_id":"6845662888","tag":{"amenity":"waste_basket","waste":"dog_excrement"}},"type":"Feature"}
]
}
