{
"type": "FeatureCollection",
"features": [
	{"geometry":{"coordinates":[-78.99615,-2.887859],"type":"Point"},"properties":{"name":"Electronisys","osm_id":"3748672475","tag":{"addr:housenumber":"2-98","addr:street":"Antonio Vallejo","amenity":"waste_basket"}},"type":"Feature"},
	{"geometry":{"coordinates":[-78.997127,-2.882314],"type":"Point"},"properties":{"osm_id":"4211225389","tag":{"amenity":"waste_basket"}},"type":"Feature"},
	{"geometry":{"coordinates":[-78.997369,-2.882376],"type":"Point"},"properties":{"osm_id":"4211225489","tag":{"amenity":"waste_basket"}},"type":"Feature"},
	{"geometry":{"coordinates":[-78.98763,-2.894104],"type":"Point"},"properties":{"name":"Papeleria y Centro de Copiado SISGRAF","osm_id":"4392893889","tag":{"amenity":"waste_basket","name:es":"Papeleria y Centro de Copiado SISGRAF"}},"type":"Feature"},
	{"geometry":{"coordinates":[-78.976899,-2.888647],"type":"Point"},"properties":{"osm_id":"4555382293","tag":{"amenity":"waste_disposal","operator":"Gay_car"}},"type":"Feature"},
	{"geometry":{"coordinates":[-78.981191,-2.871924],"type":"Point"},"properties":{"osm_id":"4899648621","tag":{"amenity":"waste_basket"}},"type":"Feature"}
]
}
