{
"type": "FeatureCollection",
"features": [
	{"geometry":{"coordinates":[13.19165,52.536304],"type":"Point"},"properties":{"osm_id":"304367352","tag":{"amenity":"recycling","recycling:glass_bottles":"yes","recycling_type":"container"}},"type":"Feature"},
	{"geometry":{"coordinates":[13.204496,52.543834],"type":"Point"},"properties":{"osm_id":"371156948","tag":{"amenity":"recycling","location":"overground","recycling:glass_bottles":"yes","recycling_type":"container"}},"type":"Feature"},
	{"geometry":{"coordinates":[13.27012,52.538679],"type":"Point"},"properties":{"osm_id":"418333606","tag":{"amenity":"recycling","recycling:glass_bottles":"yes","recycling_type":"container"}},"type":"Feature"},
	{"geometry":{"coordinates":[13.2119,52.575327],"type":"Point"},"properties":{"osm_id":"506480293","tag":{"amenity":"recycling","recycling:glass_bottles":"yes","recycling_type":"container"}},"type":"Feature"},
	{"geometry":{"coordinates":[13.214489,52.56305],"type":"Point"},"properties":{"osm_id":"809926775","tag":{"amenity":"recycling","operator":"BSR","recycling:glass_bottles":"yes","recycling_type":"container"}},"type":"Feature"},
	{"geometry":{"coordinates":[13.23256,52.540802],"type":"Point"},"properties":{"osm_id":"1367756635","tag":{"amenity":"waste_basket"}},"type":"Feature"},
	{"geometry":{"coordinates":[13.239808,52.546371],"type":"Point"},"properties":{"osm_id":"1394009807","tag":{"amenity":"waste_basket"}},"type":"Feature"},
	{"geometry":{"coordinates":[13.232588,52.543349],"type":"Point"},"properties":{"osm_id":"1395086052","tag":{"amenity":"waste_basket"}},"type":"Feature"},
	{"geometry":{"coordinates":[13.239404,52.539816],"type":"Point"},"properties":{"osm_id":"1396422232","tag":{"amenity":"waste_basket"}},"type":"Feature"},
	{"geometry":{"coordinates":[13.237307,52.540274],"type":"Point"},"properties":{"osm_id":"1397552559","tag":{"amenity":"waste_basket"}},"type":"Feature"},
	{"geometry":{"coordinates":[13.238325,52.540596],"type":"Point"},"properties":{"osm_id":"1397552599","tag":{"amenity":"waste_basket"}},"type":"Feature"},
	{"geometry":{"coordinates":[13.232445,52.545514],"type":"Point"},"properties":{"osm_id":"1400227485","tag":{"amenity":"waste_basket"}},"type":"Feature"},
	{"geometry":{"coordinates":[13.233854,52.546435],"type":"Point"},"properties":{"osm_id":"1400227534","tag":{"amenity":"waste_basket"}},"type":"Feature"},
	{"geometry":{"coordinates":[13.232282,52.546443],"type":"Point"},"properties":{"osm_id":"1400227536","tag":{"amenity":"waste_basket"}},"type":"Feature"},
	{"geometry":{"coordinates":[13.234321,52.546625],"type":"Point"},"properties":{"osm_id":"1400227549","tag":{"amenity":"waste_basket"}},"type":"Feature"},
	{"geometry":{"coordinates":[13.235049,52.547267],"type":"Point"},"properties":{"osm_id":"1400435445","tag":{"amenity":"waste_basket"}},"type":"Feature"},
	{"geometry":{"coordinates":[13.235138,52.547345],"type":"Point"},"properties":{"osm_id":"1400435461","tag":{"amenity":"waste_basket"}},"type":"Feature"},
	{"geometry":{"coordinates":[13.231812,52.5468],"type":"Point"},"properties":{"osm_id":"1401585124","tag":{"amenity":"waste_basket"}},"type":"Feature"},
	{"geometry":{"coordinates":[13.235375,52.547774],"type":"Point"},"properties":{"osm_id":"1401585159","tag":{"amenity":"waste_basket"}},"type":"Feature"},
	{"geometry":{"coordinates":[13.231495,52.547506],"type":"Point"},"properties":{"osm_id":"1401627779","tag":{"amenity":"waste_basket"}},"type":"Feature"},
	{"geometry":{"coordinates":[13.259071,52.543175],"type":"Point"},"properties":{"osm_id":"1408366966","tag":{"amenity":"recycling","recycling:clothes":"yes"}},"type":"Feature"},
	{"geometry":{"coordinates":[13.26992,52.539632],"type":"Point"},"properties":{"osm_id":"1410420341","tag":{"amenity":"recycling","recycling:clothes":"yes"}},"type":"Feature"},
	{"geometry":{"coordinates":[13.260759,52.543861],"type":"Point"},"properties":{"osm_id":"1412088225","tag":{"amenity":"recycling","recycling:clothes":"yes","recycling_type":"container"}},"type":"Feature"},
	{"geometry":{"coordinates":[13.27083,52.547645],"type":"Point"},"properties":{"osm_id":"1420026691","ref":"Jungfernheideweg gg\u00c3\u00bc. Nr. 80 Ecke Saatwinkler Damm","tag":{"amenity":"recycling","operator":"Rhenus","recycling:glass_bottles":"yes","recycling_type":"container"}},"type":"Feature"},
	{"geometry":{"coordinates":[13.2641,52.538375],"type":"Point"},"properties":{"osm_id":"1420043975","tag":{"amenity":"recycling","recycling:glass_bottles":"yes","recycling_type":"container"}},"type":"Feature"},
	{"geometry":{"coordinates":[13.262319,52.541261],"type":"Point"},"properties":{"osm_id":"1536684945","tag":{"amenity":"recycling","recycling:clothes":"yes","recycling_type":"container"}},"type":"Feature"},
	{"geometry":{"coordinates":[13.258636,52.544792],"type":"Point"},"properties":{"osm_id":"1542875070","tag":{"amenity":"recycling","recycling:clothes":"yes","recycling:shoes":"yes","recycling_type":"container"}},"type":"Feature"},
	{"geometry":{"coordinates":[13.245651,52.544416],"type":"Point"},"properties":{"osm_id":"1608594096","tag":{"amenity":"recycling","operator":"Rhenus","recycling:glass_bottles":"yes","recycling_type":"container"}},"type":"Feature"},
	{"geometry":{"coordinates":[13.195843,52.554923],"type":"Point"},"properties":{"osm_id":"1608594098","tag":{"amenity":"recycling","operator":"Rhenus","recycling:glass_bottles":"yes","recycling_type":"container"}},"type":"Feature"},
	{"geometry":{"coordinates":[13.22737,52.584639],"type":"Point"},"properties":{"osm_id":"2178517467","tag":{"amenity":"recycling","recycling:glass_bottles":"yes","recycling_type":"container"}},"type":"Feature"},
	{"geometry":{"coordinates":[13.26475,52.537257],"type":"Point"},"properties":{"osm_id":"2246378077","tag":{"amenity":"recycling","location":"overground","recycling:clothes":"yes","recycling_type":"container"}},"type":"Feature"},
	{"geometry":{"coordinates":[13.238735,52.546853],"type":"Point"},"properties":{"osm_id":"3085317085","tag":{"amenity":"waste_basket"}},"type":"Feature"},
	{"geometry":{"coordinates":[13.242426,52.546979],"type":"Point"},"properties":{"osm_id":"3085317088","tag":{"amenity":"waste_basket"}},"type":"Feature"},
	{"geometry":{"coordinates":[13.201457,52.547697],"type":"Point"},"properties":{"osm_id":"3882279864","tag":{"amenity":"recycling","recycling:glass_bottles":"yes","recycling_type":"container"}},"type":"Feature"},
	{"geometry":{"coordinates":[13.257669,52.541049],"type":"Point"},"properties":{"osm_id":"4099584637","tag":{"amenity":"waste_basket"}},"type":"Feature"},
	{"geometry":{"coordinates":[13.2546,52.541937],"type":"Point"},"properties":{"osm_id":"4120778731","tag":{"amenity":"waste_basket"}},"type":"Feature"},
	{"geometry":{"coordinates":[13.249122,52.541543],"type":"Point"},"properties":{"osm_id":"4135224946","tag":{"amenity":"waste_basket"}},"type":"Feature"},
	{"geometry":{"coordinates":[13.187272,52.569723],"type":"Point"},"properties":{"osm_id":"4212973310","tag":{"amenity":"waste_basket"}},"type":"Feature"},
	{"geometry":{"coordinates":[13.22615,52.573283],"type":"Point"},"properties":{"osm_id":"4590913890","tag":{"amenity":"waste_basket"}},"type":"Feature"},
	{"geometry":{"coordinates":[13.198571,52.542659],"type":"Point"},"properties":{"osm_id":"4841851230","tag":{"amenity":"recycling","recycling:clothes":"yes","recycling_type":"container"}},"type":"Feature"},
	{"geometry":{"coordinates":[13.199317,52.545084],"type":"Point"},"properties":{"osm_id":"4841851231","tag":{"amenity":"recycling","recycling:glass_bottles":"yes","recycling_type":"container"}},"type":"Feature"},
	{"geometry":{"coordinates":[13.260013,52.545223],"type":"Point"},"properties":{"osm_id":"4859515614","tag":{"amenity":"recycling","recycling:clothes":"yes","recycling_type":"container"}},"type":"Feature"},
	{"geometry":{"coordinates":[13.258856,52.543789],"type":"Point"},"properties":{"osm_id":"5157205912","tag":{"amenity":"recycling","recycling:clothes":"yes","recycling:shoes":"yes","recycling_type":"container"}},"type":"Feature"},
	{"geometry":{"coordinates":[13.260008,52.545257],"type":"Point"},"properties":{"osm_id":"5861427856","tag":{"amenity":"recycling","recycling:clothes":"yes","recycling_type":"container"}},"type":"Feature"},
	{"geometry":{"coordinates":[13.260039,52.545263],"type":"Point"},"properties":{"osm_id":"5861427857","tag":{"amenity":"recycling","recycling:clothes":"yes","recycling_type":"container"}},"type":"Feature"},
	{"geometry":{"coordinates":[13.262278,52.541264],"type":"Point"},"properties":{"osm_id":"5861427858","tag":{"amenity":"recycling","recycling:clothes":"yes","recycling_type":"container"}},"type":"Feature"},
	{"geometry":{"coordinates":[13.259576,52.546875],"type":"Point"},"properties":{"osm_id":"5871546785","tag":{"amenity":"recycling","recycling:clothes":"yes","recycling_type":"container"}},"type":"Feature"},
	{"geometry":{"coordinates":[13.260055,52.545178],"type":"Point"},"properties":{"osm_id":"6150024311","tag":{"amenity":"recycling","recycling:clothes":"yes","recycling_type":"container"}},"type":"Feature"},
	{"geometry":{"coordinates":[13.19662,52.53795],"type":"Point"},"properties":{"osm_id":"6915505282","tag":{"amenity":"recycling","recycling:glass_bottles":"yes","recycling_type":"container"}},"type":"Feature"},
	{"geometry":{"coordinates":[13.23673,52.541306],"type":"Point"},"properties":{"osm_id":"7009895639","tag":{"amenity":"waste_disposal"}},"type":"Feature"},
	{"geometry":{"coordinates":[13.260446,52.572262],"type":"Point"},"properties":{"osm_id":"7273928957","tag":{"amenity":"waste_basket"}},"type":"Feature"},
	{"geometry":{"coordinates":[13.220323,52.586142],"type":"Point"},"properties":{"osm_id":"7319377348","tag":{"amenity":"waste_basket"}},"type":"Feature"}
]
}
