{
"type": "FeatureCollection",
"features": [
	{"geometry":{"coordinates":[13.193168,52.524526],"type":"Point"},"properties":{"osm_id":"288740249","tag":{"amenity":"recycling","location":"overground","recycling:glass_bottles":"yes","recycling_type":"container"}},"type":"Feature"},
	{"geometry":{"coordinates":[13.202716,52.523793],"type":"Point"},"properties":{"osm_id":"294793374","tag":{"amenity":"recycling","location":"overground","recycling:glass_bottles":"yes","recycling_type":"container"}},"type":"Feature"},
	{"geometry":{"coordinates":[13.185378,52.502417],"type":"Point"},"properties":{"osm_id":"325655363","tag":{"amenity":"waste_basket"}},"type":"Feature"},
	{"geometry":{"coordinates":[13.256277,52.5194],"type":"Point"},"properties":{"osm_id":"666427342","ref":"Reichsstr. 37 gg\u00c3\u00bc. / Brixplatz","tag":{"amenity":"recycling","operator":"Karl Meyer Rohstoffverwertung","recycling:glass_bottles":"yes","recycling_type":"container"}},"type":"Feature"},
	{"geometry":{"coordinates":[13.264021,52.514553],"type":"Point"},"properties":{"osm_id":"667211336","ref":"Reichsstr. 88A gg\u00c3\u00bc. Ecke Kirschallee","tag":{"amenity":"recycling","operator":"Karl Meyer Rohstoffverwertung","recycling:glass_bottles":"yes","recycling_type":"container"}},"type":"Feature"},
	{"geometry":{"coordinates":[13.227912,52.507705],"type":"Point"},"properties":{"osm_id":"718143743","tag":{"amenity":"recycling","check_date":"2017-11-16","recycling:clothes":"yes","recycling_type":"container"}},"type":"Feature"},
	{"geometry":{"coordinates":[13.228686,52.509549],"type":"Point"},"properties":{"osm_id":"718143763","tag":{"amenity":"recycling","check_date":"2017-11-16","operator":"Deutsches Rotes Kreuz","recycling:clothes":"yes","recycling_type":"container"}},"type":"Feature"},
	{"geometry":{"coordinates":[13.252239,52.515927],"type":"Point"},"properties":{"osm_id":"718143788","ref":"Olympische Str. 30 - 34","tag":{"amenity":"recycling","brown":"yes","description":"insgesamt 5 Container","green":"yes","operator":"Karl Meyer Rohstoffverwertung","recycling:glass_bottles":"yes","recycling_type":"container","white":"yes"}},"type":"Feature"},
	{"geometry":{"coordinates":[13.228241,52.507426],"type":"Point"},"properties":{"osm_id":"718143820","ref":"Schirwindter Allee 2 gg\u00c3\u00bc. N\u00c3\u00a4he Scholzplatz neben Aral","tag":{"amenity":"recycling","operator":"Rhenus","recycling:glass_bottles":"yes","recycling_type":"container"}},"type":"Feature"},
	{"geometry":{"coordinates":[13.228652,52.509316],"type":"Point"},"properties":{"osm_id":"718143856","ref":"Schirwindter Allee gg\u00c3\u00bc. Nr. 22","tag":{"amenity":"recycling","operator":"Karl Meyer Rohstoffverwertung","recycling:glass_bottles":"yes","recycling_type":"container"}},"type":"Feature"},
	{"geometry":{"coordinates":[13.240155,52.526401],"type":"Point"},"properties":{"osm_id":"822863367","tag":{"amenity":"recycling","image":"https://storage2.openstreetcam.org/files/photo/2017/3/19/lth/54832_f1a39_58ceaa1f7128c.jpg","operator":"Deutsches Rotes Kreuz","recycling:clothes":"yes","recycling_type":"container","survey:date":"2017-03-19"}},"type":"Feature"},
	{"geometry":{"coordinates":[13.217751,52.509064],"type":"Point"},"properties":{"osm_id":"1150615777","tag":{"amenity":"recycling","brown":"yes","green":"yes","recycling:glass_bottles":"yes","recycling_type":"container","white":"yes"}},"type":"Feature"},
	{"geometry":{"coordinates":[13.197508,52.523723],"type":"Point"},"properties":{"osm_id":"1442452775","tag":{"amenity":"waste_basket"}},"type":"Feature"},
	{"geometry":{"coordinates":[13.268934,52.513838],"type":"Point"},"properties":{"osm_id":"1570571906","ref":"Platanenallee N\u00c3\u00a4he Leistikowstr.","tag":{"amenity":"recycling","operator":"Rhenus","recycling:glass_bottles":"yes","recycling_type":"container"}},"type":"Feature"},
	{"geometry":{"coordinates":[13.262481,52.521092],"type":"Point"},"properties":{"osm_id":"1570571915","ref":"Spandauer Damm Ecke Bolivarallee 23 - 25","tag":{"amenity":"recycling","operator":"Karl Meyer Rohstoffverwertung","recycling:glass_bottles":"yes","recycling_type":"container"}},"type":"Feature"},
	{"geometry":{"coordinates":[13.25855,52.521794],"type":"Point"},"properties":{"osm_id":"1570571917","ref":"Spandauer Damm 217 Ecke Meiningenallee","tag":{"amenity":"recycling","operator":"Karl Meyer Rohstoffverwertung","recycling:glass_bottles":"yes","recycling_type":"container"}},"type":"Feature"},
	{"geometry":{"coordinates":[13.25548,52.522592],"type":"Point"},"properties":{"osm_id":"1570571918","ref":"Spandauer Damm 230 N\u00c3\u00a4he Kolonie Wochenend","tag":{"amenity":"recycling","operator":"Rhenus","recycling:glass_bottles":"yes","recycling_type":"container"}},"type":"Feature"},
	{"geometry":{"coordinates":[13.244529,52.523736],"type":"Point"},"properties":{"osm_id":"1570571920","ref":"Rominter Allee Ecke Murellenweg / U-Bhf. Ruhleben s\u00c3\u00bcdl. der U-Bahn-Br\u00c3\u00bccke","tag":{"amenity":"recycling","operator":"Rhenus","recycling:glass_bottles":"yes","recycling_type":"container"}},"type":"Feature"},
	{"geometry":{"coordinates":[13.242719,52.507349],"type":"Point"},"properties":{"osm_id":"1571568630","ref":"Heerstr. Ecke Kranzallee","tag":{"amenity":"recycling","operator":"Karl Meyer Rohstoffverwertung","recycling:glass_bottles":"yes","recycling_type":"container"}},"type":"Feature"},
	{"geometry":{"coordinates":[13.242379,52.507781],"type":"Point"},"properties":{"osm_id":"1571568670","ref":"Flatowallee Ecke Heerstra\u00c3\u009fe","tag":{"amenity":"recycling","operator":"Rhenus","recycling:glass_bottles":"yes","recycling_type":"container"}},"type":"Feature"},
	{"geometry":{"coordinates":[13.250371,52.507817],"type":"Point"},"properties":{"osm_id":"1571568685","ref":"Heerstr. N\u00c3\u00a4he Ortelsburger Allee","tag":{"amenity":"recycling","operator":"Rhenus","recycling:glass_bottles":"yes","recycling_type":"container"}},"type":"Feature"},
	{"geometry":{"coordinates":[13.21783,52.509046],"type":"Point"},"properties":{"osm_id":"1571568708","tag":{"amenity":"recycling","check_date":"2017-11-16","operator":"Deutsches Rotes Kreuz","recycling:clothes":"yes","recycling_type":"container"}},"type":"Feature"},
	{"geometry":{"coordinates":[13.25923,52.510232],"type":"Point"},"properties":{"osm_id":"1571568753","ref":"Preu\u00c3\u009fenallee 11 gg\u00c3\u00bc. / Sportplatz","tag":{"amenity":"recycling","operator":"Karl Meyer Rohstoffverwertung","recycling:glass_bottles":"yes","recycling_type":"container"}},"type":"Feature"},
	{"geometry":{"coordinates":[13.259763,52.489831],"type":"Point"},"properties":{"osm_id":"1573066824","ref":"Dauerwaldweg 1 Ecke Falterweg","tag":{"amenity":"recycling","operator":"Karl Meyer Rohstoffverwertung","recycling:glass_bottles":"yes","recycling_type":"container"}},"type":"Feature"},
	{"geometry":{"coordinates":[13.259572,52.499225],"type":"Point"},"properties":{"osm_id":"1573066825","ref":"Harbigstr. 36 / Parkplatz Kolonie Waldschule","tag":{"amenity":"recycling","operator":"Rhenus","recycling:glass_bottles":"yes","recycling_type":"container"}},"type":"Feature"},
	{"geometry":{"coordinates":[13.262311,52.501222],"type":"Point"},"properties":{"osm_id":"1573066828","ref":"Harbigstr. 24 gg\u00c3\u00bc. Ecke Waldschulallee","tag":{"amenity":"recycling","operator":"Rhenus","recycling:glass_bottles":"yes","recycling_type":"container"}},"type":"Feature"},
	{"geometry":{"coordinates":[13.188577,52.510818],"type":"Point"},"properties":{"osm_id":"1608594048","tag":{"amenity":"recycling","operator":"Rhenus","recycling:glass_bottles":"yes","recycling:scrap_metal":"yes","recycling_type":"container"}},"type":"Feature"},
	{"geometry":{"coordinates":[13.264914,52.487911],"type":"Point"},"properties":{"osm_id":"1833509163","tag":{"amenity":"recycling","check_date":"2017-10-19","recycling:clothes":"yes","recycling_type":"container"}},"type":"Feature"},
	{"geometry":{"coordinates":[13.19656,52.524279],"type":"Point"},"properties":{"osm_id":"2187175626","tag":{"amenity":"waste_basket"}},"type":"Feature"},
	{"geometry":{"coordinates":[13.1964,52.523552],"type":"Point"},"properties":{"osm_id":"2187175627","tag":{"amenity":"waste_basket"}},"type":"Feature"},
	{"geometry":{"coordinates":[13.19734,52.524921],"type":"Point"},"properties":{"osm_id":"2187175628","tag":{"amenity":"waste_basket"}},"type":"Feature"},
	{"geometry":{"coordinates":[13.200517,52.524236],"type":"Point"},"properties":{"osm_id":"2187175629","tag":{"amenity":"waste_basket"}},"type":"Feature"},
	{"geometry":{"coordinates":[13.195072,52.524146],"type":"Point"},"properties":{"osm_id":"2315883312","tag":{"amenity":"waste_basket"}},"type":"Feature"},
	{"geometry":{"coordinates":[13.255092,52.518244],"type":"Point"},"properties":{"osm_id":"2778309280","tag":{"amenity":"waste_basket"}},"type":"Feature"},
	{"geometry":{"coordinates":[13.25567,52.518411],"type":"Point"},"properties":{"osm_id":"2778309284","tag":{"amenity":"waste_basket"}},"type":"Feature"},
	{"geometry":{"coordinates":[13.256166,52.518535],"type":"Point"},"properties":{"osm_id":"2778309290","tag":{"amenity":"waste_basket"}},"type":"Feature"},
	{"geometry":{"coordinates":[13.254923,52.518629],"type":"Point"},"properties":{"osm_id":"2778309298","tag":{"amenity":"waste_basket"}},"type":"Feature"},
	{"geometry":{"coordinates":[13.256597,52.518726],"type":"Point"},"properties":{"osm_id":"2778309304","tag":{"amenity":"waste_basket"}},"type":"Feature"},
	{"geometry":{"coordinates":[13.256119,52.518731],"type":"Point"},"properties":{"osm_id":"2778309308","tag":{"amenity":"waste_basket"}},"type":"Feature"},
	{"geometry":{"coordinates":[13.254177,52.518754],"type":"Point"},"properties":{"osm_id":"2778309312","tag":{"amenity":"waste_basket"}},"type":"Feature"},
	{"geometry":{"coordinates":[13.255319,52.518757],"type":"Point"},"properties":{"osm_id":"2778309315","tag":{"amenity":"waste_basket"}},"type":"Feature"},
	{"geometry":{"coordinates":[13.254143,52.518827],"type":"Point"},"properties":{"osm_id":"2778309319","tag":{"amenity":"waste_basket"}},"type":"Feature"},
	{"geometry":{"coordinates":[13.256573,52.518845],"type":"Point"},"properties":{"osm_id":"2778309321","tag":{"amenity":"waste_basket"}},"type":"Feature"},
	{"geometry":{"coordinates":[13.255848,52.518932],"type":"Point"},"properties":{"osm_id":"2778309331","tag":{"amenity":"waste_basket"}},"type":"Feature"},
	{"geometry":{"coordinates":[13.256461,52.519142],"type":"Point"},"properties":{"osm_id":"2778309341","tag":{"amenity":"waste_basket"}},"type":"Feature"},
	{"geometry":{"coordinates":[13.254013,52.519147],"type":"Point"},"properties":{"osm_id":"2778309343","tag":{"amenity":"waste_basket"}},"type":"Feature"},
	{"geometry":{"coordinates":[13.255209,52.519202],"type":"Point"},"properties":{"osm_id":"2778309351","tag":{"amenity":"waste_basket"}},"type":"Feature"},
	{"geometry":{"coordinates":[13.254095,52.51921],"type":"Point"},"properties":{"osm_id":"2778309353","tag":{"amenity":"waste_basket"}},"type":"Feature"},
	{"geometry":{"coordinates":[13.255903,52.519218],"type":"Point"},"properties":{"osm_id":"2778309357","tag":{"amenity":"waste_basket"}},"type":"Feature"},
	{"geometry":{"coordinates":[13.256071,52.519241],"type":"Point"},"properties":{"osm_id":"2778309361","tag":{"amenity":"waste_basket"}},"type":"Feature"},
	{"geometry":{"coordinates":[13.255579,52.519256],"type":"Point"},"properties":{"osm_id":"2778309366","tag":{"amenity":"waste_basket"}},"type":"Feature"},
	{"geometry":{"coordinates":[13.255483,52.519295],"type":"Point"},"properties":{"osm_id":"2778309374","tag":{"amenity":"waste_basket"}},"type":"Feature"},
	{"geometry":{"coordinates":[13.254969,52.519321],"type":"Point"},"properties":{"osm_id":"2778309382","tag":{"amenity":"waste_basket"}},"type":"Feature"},
	{"geometry":{"coordinates":[13.256032,52.519492],"type":"Point"},"properties":{"osm_id":"2778309391","tag":{"amenity":"waste_basket"}},"type":"Feature"},
	{"geometry":{"coordinates":[13.255651,52.519552],"type":"Point"},"properties":{"osm_id":"2778309396","tag":{"amenity":"waste_basket"}},"type":"Feature"},
	{"geometry":{"coordinates":[13.228331,52.513708],"type":"Point"},"properties":{"osm_id":"2984805910","tag":{"amenity":"waste_basket","survey:date":"2014-07-27"}},"type":"Feature"},
	{"geometry":{"coordinates":[13.262697,52.503823],"type":"Point"},"properties":{"osm_id":"3060713400","tag":{"access":"private","amenity":"recycling","recycling:glass_bottles":"yes","recycling_type":"container"}},"type":"Feature"},
	{"geometry":{"coordinates":[13.263474,52.503714],"type":"Point"},"properties":{"osm_id":"3062738958","tag":{"access":"private","amenity":"recycling","recycling:cans":"yes","recycling:glass_bottles":"yes","recycling:paper":"yes","recycling:scrap_metal":"yes","recycling_type":"container"}},"type":"Feature"},
	{"geometry":{"coordinates":[13.264066,52.50436],"type":"Point"},"properties":{"osm_id":"3062738965","tag":{"access":"private","amenity":"recycling","recycling:cans":"yes","recycling:glass_bottles":"yes","recycling:paper":"yes","recycling:scrap_metal":"yes","recycling_type":"container"}},"type":"Feature"},
	{"geometry":{"coordinates":[13.262611,52.502568],"type":"Point"},"properties":{"osm_id":"3063237781","tag":{"access":"private","amenity":"recycling","recycling:cans":"yes","recycling:glass_bottles":"yes","recycling:paper":"yes","recycling:scrap_metal":"yes","recycling_type":"container"}},"type":"Feature"},
	{"geometry":{"coordinates":[13.260331,52.493319],"type":"Point"},"properties":{"osm_id":"3120461196","tag":{"amenity":"waste_basket"}},"type":"Feature"},
	{"geometry":{"coordinates":[13.265855,52.497179],"type":"Point"},"properties":{"osm_id":"3120461198","tag":{"amenity":"waste_basket"}},"type":"Feature"},
	{"geometry":{"coordinates":[13.26755,52.498585],"type":"Point"},"properties":{"osm_id":"3120461207","tag":{"amenity":"waste_basket"}},"type":"Feature"},
	{"geometry":{"coordinates":[13.268018,52.498579],"type":"Point"},"properties":{"osm_id":"3120461208","tag":{"amenity":"waste_basket"}},"type":"Feature"},
	{"geometry":{"coordinates":[13.243619,52.513543],"type":"Point"},"properties":{"osm_id":"3553740879","tag":{"amenity":"waste_basket"}},"type":"Feature"},
	{"geometry":{"coordinates":[13.258426,52.508428],"type":"Point"},"properties":{"osm_id":"3951566090","tag":{"amenity":"waste_basket"}},"type":"Feature"},
	{"geometry":{"coordinates":[13.259128,52.508456],"type":"Point"},"properties":{"osm_id":"3951566092","tag":{"amenity":"waste_basket","layer":"1"}},"type":"Feature"},
	{"geometry":{"coordinates":[13.265878,52.508794],"type":"Point"},"properties":{"osm_id":"3951566096","tag":{"amenity":"waste_basket"}},"type":"Feature"},
	{"geometry":{"coordinates":[13.188518,52.527891],"type":"Point"},"properties":{"osm_id":"3990000753","tag":{"amenity":"waste_basket"}},"type":"Feature"},
	{"geometry":{"coordinates":[13.193591,52.533778],"type":"Point"},"properties":{"osm_id":"3990000882","tag":{"amenity":"waste_basket"}},"type":"Feature"},
	{"geometry":{"coordinates":[13.260055,52.516509],"type":"Point"},"properties":{"osm_id":"4171813290","tag":{"amenity":"waste_basket"}},"type":"Feature"},
	{"geometry":{"coordinates":[13.260158,52.51555],"type":"Point"},"properties":{"osm_id":"4171849090","tag":{"amenity":"waste_basket"}},"type":"Feature"},
	{"geometry":{"coordinates":[13.260214,52.515982],"type":"Point"},"properties":{"osm_id":"4171849589","tag":{"amenity":"waste_basket"}},"type":"Feature"},
	{"geometry":{"coordinates":[13.260793,52.516034],"type":"Point"},"properties":{"osm_id":"4172824590","tag":{"amenity":"waste_basket"}},"type":"Feature"},
	{"geometry":{"coordinates":[13.206763,52.529273],"type":"Point"},"properties":{"osm_id":"4276372369","tag":{"amenity":"recycling","recycling:glass_bottles":"yes","recycling_type":"container"}},"type":"Feature"},
	{"geometry":{"coordinates":[13.193713,52.520958],"type":"Point"},"properties":{"osm_id":"4293320569","tag":{"amenity":"recycling","recycling:glass_bottles":"yes","recycling_type":"container"}},"type":"Feature"},
	{"geometry":{"coordinates":[13.200304,52.524217],"type":"Point"},"properties":{"osm_id":"4838900149","tag":{"amenity":"waste_basket"}},"type":"Feature"},
	{"geometry":{"coordinates":[13.202635,52.525695],"type":"Point"},"properties":{"osm_id":"4838900150","tag":{"amenity":"waste_basket"}},"type":"Feature"},
	{"geometry":{"coordinates":[13.201016,52.527289],"type":"Point"},"properties":{"osm_id":"4838900152","tag":{"amenity":"waste_basket"}},"type":"Feature"},
	{"geometry":{"coordinates":[13.200772,52.527521],"type":"Point"},"properties":{"osm_id":"4838900153","tag":{"amenity":"waste_basket"}},"type":"Feature"},
	{"geometry":{"coordinates":[13.198438,52.527947],"type":"Point"},"properties":{"osm_id":"4838900154","tag":{"amenity":"waste_basket"}},"type":"Feature"},
	{"geometry":{"coordinates":[13.198087,52.528027],"type":"Point"},"properties":{"osm_id":"4838900155","tag":{"amenity":"waste_basket"}},"type":"Feature"},
	{"geometry":{"coordinates":[13.197921,52.528053],"type":"Point"},"properties":{"osm_id":"4838900156","tag":{"amenity":"waste_basket"}},"type":"Feature"},
	{"geometry":{"coordinates":[13.227596,52.511163],"type":"Point"},"properties":{"osm_id":"4973276310","tag":{"amenity":"waste_basket"}},"type":"Feature"},
	{"geometry":{"coordinates":[13.262641,52.521016],"type":"Point"},"properties":{"osm_id":"5183083028","tag":{"amenity":"recycling","check_date":"2017-10-19","operator":"Deutsches Rotes Kreuz","recycling:clothes":"yes","recycling:shoes":"yes","recycling_type":"container"}},"type":"Feature"},
	{"geometry":{"coordinates":[13.20055,52.51123],"type":"Point"},"properties":{"osm_id":"5225458476","tag":{"amenity":"waste_basket"}},"type":"Feature"},
	{"geometry":{"coordinates":[13.264556,52.51466],"type":"Point"},"properties":{"osm_id":"5649253521","tag":{"amenity":"waste_basket"}},"type":"Feature"},
	{"geometry":{"coordinates":[13.183951,52.484248],"type":"Point"},"properties":{"osm_id":"6426275116","tag":{"amenity":"recycling","opening_hours":"Mo-Sa 07:00-13:00, 15:00-20:00; PH off","operator":"Berlin Recycling","recycling:glass_bottles":"yes","recycling_type":"container"}},"type":"Feature"},
	{"geometry":{"coordinates":[13.204333,52.513767],"type":"Point"},"properties":{"osm_id":"6448454058","tag":{"amenity":"waste_basket","waste":"trash"}},"type":"Feature"},
	{"geometry":{"coordinates":[13.183935,52.483552],"type":"Point"},"properties":{"osm_id":"6486513561","tag":{"amenity":"waste_disposal","waste":"trash"}},"type":"Feature"},
	{"geometry":{"coordinates":[13.195952,52.527389],"type":"Point"},"properties":{"osm_id":"6864472957","tag":{"amenity":"waste_basket"}},"type":"Feature"},
	{"geometry":{"coordinates":[13.196024,52.527201],"type":"Point"},"properties":{"osm_id":"6864472958","tag":{"amenity":"waste_basket"}},"type":"Feature"},
	{"geometry":{"coordinates":[13.197827,52.522893],"type":"Point"},"properties":{"osm_id":"6866124362","tag":{"amenity":"waste_basket","waste":"trash"}},"type":"Feature"},
	{"geometry":{"coordinates":[13.196073,52.526764],"type":"Point"},"properties":{"osm_id":"6866124363","tag":{"amenity":"waste_basket","waste":"trash"}},"type":"Feature"},
	{"geometry":{"coordinates":[13.196798,52.5259],"type":"Point"},"properties":{"osm_id":"6866124364","tag":{"amenity":"waste_basket","waste":"trash"}},"type":"Feature"},
	{"geometry":{"coordinates":[13.196898,52.525392],"type":"Point"},"properties":{"osm_id":"6866124367","tag":{"amenity":"waste_basket","waste":"trash"}},"type":"Feature"},
	{"geometry":{"coordinates":[13.197724,52.521884],"type":"Point"},"properties":{"osm_id":"6866124370","tag":{"amenity":"waste_basket"}},"type":"Feature"},
	{"geometry":{"coordinates":[13.19682,52.525523],"type":"Point"},"properties":{"osm_id":"6866124372","tag":{"amenity":"waste_basket","waste":"trash"}},"type":"Feature"},
	{"geometry":{"coordinates":[13.197644,52.522513],"type":"Point"},"properties":{"osm_id":"6866124373","tag":{"amenity":"waste_basket"}},"type":"Feature"},
	{"geometry":{"coordinates":[13.196461,52.522887],"type":"Point"},"properties":{"osm_id":"6866124374","tag":{"amenity":"waste_basket","waste":"trash"}},"type":"Feature"},
	{"geometry":{"coordinates":[13.197366,52.524346],"type":"Point"},"properties":{"osm_id":"6866124375","tag":{"amenity":"waste_basket","waste":"trash"}},"type":"Feature"},
	{"geometry":{"coordinates":[13.19624,52.527291],"type":"Point"},"properties":{"osm_id":"6866182797","tag":{"amenity":"recycling","recycling:gas_bottles":"yes","recycling_type":"container"}},"type":"Feature"},
	{"geometry":{"coordinates":[13.196304,52.529576],"type":"Point"},"properties":{"osm_id":"6875938803","tag":{"amenity":"waste_basket","waste":"trash"}},"type":"Feature"},
	{"geometry":{"coordinates":[13.196313,52.529604],"type":"Point"},"properties":{"osm_id":"6875938804","tag":{"amenity":"waste_basket","waste":"trash"}},"type":"Feature"},
	{"geometry":{"coordinates":[13.191374,52.520943],"type":"Point"},"properties":{"osm_id":"6878091286","tag":{"amenity":"waste_basket","waste":"trash"}},"type":"Feature"},
	{"geometry":{"coordinates":[13.195952,52.520972],"type":"Point"},"properties":{"osm_id":"6878091288","tag":{"amenity":"waste_basket","waste":"trash"}},"type":"Feature"},
	{"geometry":{"coordinates":[13.185764,52.523028],"type":"Point"},"properties":{"osm_id":"6878091290","tag":{"amenity":"waste_basket","waste":"trash"}},"type":"Feature"},
	{"geometry":{"coordinates":[13.196544,52.520984],"type":"Point"},"properties":{"osm_id":"6878091293","tag":{"amenity":"waste_basket"}},"type":"Feature"},
	{"geometry":{"coordinates":[13.193321,52.520948],"type":"Point"},"properties":{"osm_id":"6878091296","tag":{"amenity":"waste_basket","waste":"dog_excrement"}},"type":"Feature"},
	{"geometry":{"coordinates":[13.195298,52.522745],"type":"Point"},"properties":{"osm_id":"6878091297","tag":{"amenity":"waste_basket","waste":"trash"}},"type":"Feature"},
	{"geometry":{"coordinates":[13.196165,52.52098],"type":"Point"},"properties":{"osm_id":"6878091300","tag":{"amenity":"waste_basket","waste":"trash"}},"type":"Feature"},
	{"geometry":{"coordinates":[13.197733,52.521399],"type":"Point"},"properties":{"osm_id":"6878091301","tag":{"amenity":"waste_basket","waste":"trash"}},"type":"Feature"},
	{"geometry":{"coordinates":[13.18839,52.522007],"type":"Point"},"properties":{"osm_id":"6878091303","tag":{"amenity":"waste_basket","waste":"trash"}},"type":"Feature"},
	{"geometry":{"coordinates":[13.196091,52.521129],"type":"Point"},"properties":{"osm_id":"6878091304","tag":{"amenity":"waste_basket"}},"type":"Feature"},
	{"geometry":{"coordinates":[13.194318,52.520976],"type":"Point"},"properties":{"osm_id":"6878091305","tag":{"amenity":"waste_basket","waste":"trash"}},"type":"Feature"},
	{"geometry":{"coordinates":[13.195992,52.521091],"type":"Point"},"properties":{"osm_id":"6878091306","tag":{"amenity":"waste_basket","waste":"trash"}},"type":"Feature"},
	{"geometry":{"coordinates":[13.197836,52.522596],"type":"Point"},"properties":{"osm_id":"6878091307","tag":{"amenity":"waste_basket","waste":"trash"}},"type":"Feature"},
	{"geometry":{"coordinates":[13.197061,52.520997],"type":"Point"},"properties":{"osm_id":"6878091308","tag":{"amenity":"waste_basket","waste":"trash"}},"type":"Feature"},
	{"geometry":{"coordinates":[13.198226,52.521112],"type":"Point"},"properties":{"osm_id":"6878091309","tag":{"amenity":"waste_basket"}},"type":"Feature"},
	{"geometry":{"coordinates":[13.196993,52.524972],"type":"Point"},"properties":{"osm_id":"6878091311","tag":{"amenity":"waste_basket","waste":"trash"}},"type":"Feature"},
	{"geometry":{"coordinates":[13.197622,52.5211],"type":"Point"},"properties":{"osm_id":"6878091312","tag":{"amenity":"waste_basket","waste":"trash"}},"type":"Feature"},
	{"geometry":{"coordinates":[13.190214,52.521022],"type":"Point"},"properties":{"osm_id":"6878091313","tag":{"amenity":"waste_basket","waste":"trash"}},"type":"Feature"},
	{"geometry":{"coordinates":[13.193588,52.521052],"type":"Point"},"properties":{"osm_id":"6878091317","tag":{"amenity":"waste_basket","waste":"trash"}},"type":"Feature"},
	{"geometry":{"coordinates":[13.197064,52.525051],"type":"Point"},"properties":{"osm_id":"6878091319","tag":{"amenity":"waste_basket"}},"type":"Feature"},
	{"geometry":{"coordinates":[13.187405,52.522573],"type":"Point"},"properties":{"osm_id":"6878091321","tag":{"amenity":"waste_basket","waste":"trash"}},"type":"Feature"},
	{"geometry":{"coordinates":[13.191279,52.520598],"type":"Point"},"properties":{"osm_id":"6878091322","tag":{"amenity":"waste_basket","waste":"trash"}},"type":"Feature"},
	{"geometry":{"coordinates":[13.193575,52.520963],"type":"Point"},"properties":{"osm_id":"6878091323","tag":{"amenity":"waste_basket","waste":"trash"}},"type":"Feature"},
	{"geometry":{"coordinates":[13.189257,52.521186],"type":"Point"},"properties":{"osm_id":"6878091324","tag":{"amenity":"waste_basket","waste":"trash"}},"type":"Feature"},
	{"geometry":{"coordinates":[13.192127,52.522475],"type":"Point"},"properties":{"osm_id":"6906151154","tag":{"amenity":"waste_basket","waste":"trash"}},"type":"Feature"},
	{"geometry":{"coordinates":[13.195192,52.524987],"type":"Point"},"properties":{"osm_id":"6906151155","tag":{"amenity":"waste_basket","waste":"trash"}},"type":"Feature"},
	{"geometry":{"coordinates":[13.191638,52.521787],"type":"Point"},"properties":{"osm_id":"6906151160","tag":{"amenity":"waste_basket","waste":"trash"}},"type":"Feature"},
	{"geometry":{"coordinates":[13.194845,52.524303],"type":"Point"},"properties":{"osm_id":"6906151161","tag":{"amenity":"waste_basket","waste":"trash"}},"type":"Feature"},
	{"geometry":{"coordinates":[13.192611,52.524072],"type":"Point"},"properties":{"osm_id":"6906151164","tag":{"amenity":"waste_basket","waste":"trash"}},"type":"Feature"},
	{"geometry":{"coordinates":[13.194627,52.523719],"type":"Point"},"properties":{"osm_id":"6906302407","tag":{"amenity":"waste_basket","waste":"trash"}},"type":"Feature"},
	{"geometry":{"coordinates":[13.194376,52.522781],"type":"Point"},"properties":{"osm_id":"6906302408","tag":{"amenity":"waste_basket","waste":"trash"}},"type":"Feature"},
	{"geometry":{"coordinates":[13.195901,52.524979],"type":"Point"},"properties":{"osm_id":"6906302411","tag":{"amenity":"waste_basket"}},"type":"Feature"},
	{"geometry":{"coordinates":[13.194123,52.522153],"type":"Point"},"properties":{"osm_id":"6906302413","tag":{"amenity":"waste_basket","waste":"trash"}},"type":"Feature"},
	{"geometry":{"coordinates":[13.194843,52.523543],"type":"Point"},"properties":{"osm_id":"6906302416","tag":{"amenity":"waste_basket","waste":"trash"}},"type":"Feature"},
	{"geometry":{"coordinates":[13.196107,52.530458],"type":"Point"},"properties":{"osm_id":"6908455259","tag":{"amenity":"waste_basket","waste":"trash"}},"type":"Feature"},
	{"geometry":{"coordinates":[13.198085,52.53276],"type":"Point"},"properties":{"osm_id":"6909275916","tag":{"amenity":"waste_basket","waste":"trash"}},"type":"Feature"},
	{"geometry":{"coordinates":[13.197489,52.532123],"type":"Point"},"properties":{"osm_id":"6909275924","tag":{"amenity":"waste_basket","waste":"trash"}},"type":"Feature"},
	{"geometry":{"coordinates":[13.197497,52.529501],"type":"Point"},"properties":{"osm_id":"6909275926","tag":{"amenity":"waste_basket","waste":"trash"}},"type":"Feature"},
	{"geometry":{"coordinates":[13.198391,52.532469],"type":"Point"},"properties":{"osm_id":"6909275935","tag":{"amenity":"waste_basket","waste":"trash"}},"type":"Feature"},
	{"geometry":{"coordinates":[13.197108,52.529257],"type":"Point"},"properties":{"osm_id":"6909275936","tag":{"amenity":"waste_basket","waste":"dog_excrement"}},"type":"Feature"},
	{"geometry":{"coordinates":[13.198936,52.529405],"type":"Point"},"properties":{"osm_id":"6909275937","tag":{"amenity":"waste_basket","waste":"trash"}},"type":"Feature"},
	{"geometry":{"coordinates":[13.197608,52.531713],"type":"Point"},"properties":{"osm_id":"6909370488","tag":{"amenity":"waste_basket","waste":"trash"}},"type":"Feature"},
	{"geometry":{"coordinates":[13.196451,52.530151],"type":"Point"},"properties":{"osm_id":"6909370489","tag":{"amenity":"waste_basket","waste":"trash"}},"type":"Feature"},
	{"geometry":{"coordinates":[13.196653,52.530739],"type":"Point"},"properties":{"osm_id":"6909370492","tag":{"amenity":"waste_basket"}},"type":"Feature"},
	{"geometry":{"coordinates":[13.197312,52.531896],"type":"Point"},"properties":{"osm_id":"6909370493","tag":{"amenity":"waste_basket","waste":"trash"}},"type":"Feature"},
	{"geometry":{"coordinates":[13.196158,52.52934],"type":"Point"},"properties":{"osm_id":"6909370494","tag":{"amenity":"waste_basket","waste":"trash"}},"type":"Feature"},
	{"geometry":{"coordinates":[13.203188,52.524975],"type":"Point"},"properties":{"osm_id":"6977090521","tag":{"amenity":"waste_basket","waste":"trash"}},"type":"Feature"},
	{"geometry":{"coordinates":[13.207757,52.526951],"type":"Point"},"properties":{"osm_id":"6977090522","tag":{"amenity":"recycling","recycling:clothes":"yes","recycling:glass_bottles":"yes","recycling:shoes":"yes","recycling_type":"container"}},"type":"Feature"},
	{"geometry":{"coordinates":[13.203561,52.524607],"type":"Point"},"properties":{"osm_id":"6977090527","tag":{"amenity":"waste_basket","waste":"trash"}},"type":"Feature"},
	{"geometry":{"coordinates":[13.192286,52.528984],"type":"Point"},"properties":{"osm_id":"7072038183","tag":{"amenity":"waste_basket","waste":"trash"}},"type":"Feature"},
	{"geometry":{"coordinates":[13.259456,52.512472],"type":"Point"},"properties":{"osm_id":"7388430478","tag":{"amenity":"recycling","recycling:glass":"yes","recycling:glass_bottles":"yes","recycling_type":"container"}},"type":"Feature"},
	{"geometry":{"coordinates":[13.26495,52.509153],"type":"Point"},"properties":{"osm_id":"7501514993","tag":{"amenity":"waste_basket"}},"type":"Feature"},
	{"geometry":{"coordinates":[13.237416,52.507048],"type":"Point"},"properties":{"osm_id":"7575427150","tag":{"amenity":"recycling","recycling:glass_bottles":"yes","recycling_type":"container"}},"type":"Feature"}
]
}
