{
"type": "FeatureCollection",
"features": [
	{"geometry":{"coordinates":[13.215227,52.440225],"type":"Point"},"properties":{"osm_id":"447771336","tag":{"amenity":"recycling","recycling:glass_bottles":"yes","recycling_type":"container"}},"type":"Feature"},
	{"geometry":{"coordinates":[13.251684,52.449196],"type":"Point"},"properties":{"osm_id":"668246076","tag":{"amenity":"recycling","recycling:glass_bottles":"yes","recycling_type":"container"}},"type":"Feature"},
	{"geometry":{"coordinates":[13.254753,52.450222],"type":"Point"},"properties":{"osm_id":"668246113","tag":{"amenity":"recycling","recycling:glass_bottles":"yes","recycling_type":"container"}},"type":"Feature"},
	{"geometry":{"coordinates":[13.260564,52.434877],"type":"Point"},"properties":{"osm_id":"1390295677","tag":{"amenity":"waste_basket"}},"type":"Feature"},
	{"geometry":{"coordinates":[13.26012,52.434919],"type":"Point"},"properties":{"osm_id":"1390295678","tag":{"amenity":"waste_basket"}},"type":"Feature"},
	{"geometry":{"coordinates":[13.259908,52.435004],"type":"Point"},"properties":{"osm_id":"1390295679","tag":{"amenity":"waste_basket"}},"type":"Feature"},
	{"geometry":{"coordinates":[13.260842,52.435151],"type":"Point"},"properties":{"osm_id":"1390295680","tag":{"amenity":"waste_basket"}},"type":"Feature"},
	{"geometry":{"coordinates":[13.26032,52.435267],"type":"Point"},"properties":{"osm_id":"1390295681","tag":{"amenity":"waste_basket"}},"type":"Feature"},
	{"geometry":{"coordinates":[13.253056,52.43708],"type":"Point"},"properties":{"osm_id":"1608593893","tag":{"amenity":"recycling","operator":"Rhenus","recycling:glass_bottles":"yes","recycling_type":"container"}},"type":"Feature"},
	{"geometry":{"coordinates":[13.260435,52.4445],"type":"Point"},"properties":{"osm_id":"1708709778","tag":{"amenity":"waste_basket"}},"type":"Feature"},
	{"geometry":{"coordinates":[13.217336,52.440628],"type":"Point"},"properties":{"osm_id":"1995245028","tag":{"amenity":"recycling","recycling:glass_bottles":"yes","recycling_type":"container"}},"type":"Feature"},
	{"geometry":{"coordinates":[13.192031,52.451625],"type":"Point"},"properties":{"osm_id":"2370222724","tag":{"amenity":"waste_basket"}},"type":"Feature"},
	{"geometry":{"coordinates":[13.191971,52.451955],"type":"Point"},"properties":{"osm_id":"2370222726","tag":{"amenity":"waste_basket"}},"type":"Feature"},
	{"geometry":{"coordinates":[13.235854,52.452842],"type":"Point"},"properties":{"osm_id":"2382894900","tag":{"amenity":"waste_basket"}},"type":"Feature"},
	{"geometry":{"coordinates":[13.232001,52.436915],"type":"Point"},"properties":{"osm_id":"2622702082","tag":{"amenity":"recycling","recycling_type":"container"}},"type":"Feature"},
	{"geometry":{"coordinates":[13.227971,52.444314],"type":"Point"},"properties":{"osm_id":"3740428917","tag":{"amenity":"waste_basket"}},"type":"Feature"},
	{"geometry":{"coordinates":[13.23585,52.432148],"type":"Point"},"properties":{"osm_id":"3934310645","tag":{"amenity":"waste_basket"}},"type":"Feature"},
	{"geometry":{"coordinates":[13.258412,52.446534],"type":"Point"},"properties":{"osm_id":"3955368128","tag":{"amenity":"waste_basket"}},"type":"Feature"},
	{"geometry":{"coordinates":[13.256345,52.448236],"type":"Point"},"properties":{"osm_id":"3955368134","tag":{"amenity":"waste_basket"}},"type":"Feature"},
	{"geometry":{"coordinates":[13.213007,52.430616],"type":"Point"},"properties":{"osm_id":"4219809889","tag":{"amenity":"waste_basket"}},"type":"Feature"},
	{"geometry":{"coordinates":[13.214921,52.431854],"type":"Point"},"properties":{"osm_id":"4219828598","tag":{"amenity":"recycling","operator":"Deutsches Rotes Kreuz","recycling:clothes":"yes","recycling:shoes":"yes","recycling_type":"container"}},"type":"Feature"},
	{"geometry":{"coordinates":[13.216188,52.439209],"type":"Point"},"properties":{"osm_id":"4367412756","tag":{"amenity":"waste_basket"}},"type":"Feature"},
	{"geometry":{"coordinates":[13.21614,52.43924],"type":"Point"},"properties":{"osm_id":"4367412763","tag":{"amenity":"waste_basket"}},"type":"Feature"},
	{"geometry":{"coordinates":[13.268352,52.453145],"type":"Point"},"properties":{"osm_id":"4439642216","tag":{"amenity":"waste_basket","operator":"BSR"}},"type":"Feature"},
	{"geometry":{"coordinates":[13.259124,52.445816],"type":"Point"},"properties":{"osm_id":"4972103512","tag":{"amenity":"recycling","description":"Altglas-Container wei\u00c3\u009f, gr\u00c3\u00bcn, braun","opening_hours":"Mo-Fr 07:00-13:00,15:00-20:00","phone":"+49 8003344140","recycling:glass_bottles":"yes","recycling_type":"container","website":"https://www.berlin-recycling.de"}},"type":"Feature"},
	{"geometry":{"coordinates":[13.256967,52.444533],"type":"Point"},"properties":{"osm_id":"4972193146","tag":{"amenity":"waste_basket"}},"type":"Feature"},
	{"geometry":{"coordinates":[13.258636,52.445365],"type":"Point"},"properties":{"osm_id":"4972193147","tag":{"amenity":"waste_basket"}},"type":"Feature"},
	{"geometry":{"coordinates":[13.258445,52.445564],"type":"Point"},"properties":{"osm_id":"4972193148","tag":{"amenity":"waste_basket"}},"type":"Feature"},
	{"geometry":{"coordinates":[13.243186,52.433714],"type":"Point"},"properties":{"osm_id":"5453718492","tag":{"amenity":"recycling","recycling:clothes":"yes","recycling_type":"container"}},"type":"Feature"},
	{"geometry":{"coordinates":[13.235368,52.452707],"type":"Point"},"properties":{"osm_id":"5706186144","tag":{"amenity":"waste_basket"}},"type":"Feature"},
	{"geometry":{"coordinates":[13.208863,52.480025],"type":"Point"},"properties":{"osm_id":"5737653128","tag":{"amenity":"waste_basket"}},"type":"Feature"},
	{"geometry":{"coordinates":[13.208703,52.479967],"type":"Point"},"properties":{"osm_id":"5737653129","tag":{"amenity":"waste_basket"}},"type":"Feature"},
	{"geometry":{"coordinates":[13.210205,52.47673],"type":"Point"},"properties":{"osm_id":"5737653155","tag":{"amenity":"waste_basket"}},"type":"Feature"},
	{"geometry":{"coordinates":[13.198105,52.478665],"type":"Point"},"properties":{"osm_id":"5737653162","tag":{"amenity":"waste_basket","operator":"Berliner Forsten"}},"type":"Feature"},
	{"geometry":{"coordinates":[13.198129,52.478615],"type":"Point"},"properties":{"osm_id":"5737653163","tag":{"amenity":"waste_basket","operator":"Berliner Forsten"}},"type":"Feature"},
	{"geometry":{"coordinates":[13.238653,52.437929],"type":"Point"},"properties":{"osm_id":"6481125815","tag":{"amenity":"waste_basket"}},"type":"Feature"},
	{"geometry":{"coordinates":[13.237693,52.437905],"type":"Point"},"properties":{"osm_id":"6481125819","tag":{"amenity":"waste_basket"}},"type":"Feature"},
	{"geometry":{"coordinates":[13.237949,52.438127],"type":"Point"},"properties":{"osm_id":"6481125842","tag":{"amenity":"waste_basket"}},"type":"Feature"},
	{"geometry":{"coordinates":[13.237832,52.437682],"type":"Point"},"properties":{"osm_id":"6481126389","tag":{"amenity":"waste_basket"}},"type":"Feature"},
	{"geometry":{"coordinates":[13.23802,52.437087],"type":"Point"},"properties":{"osm_id":"6481126429","tag":{"amenity":"waste_basket"}},"type":"Feature"},
	{"geometry":{"coordinates":[13.236386,52.444605],"type":"Point"},"properties":{"osm_id":"6518931488","tag":{"amenity":"waste_basket"}},"type":"Feature"},
	{"geometry":{"coordinates":[13.237865,52.444099],"type":"Point"},"properties":{"osm_id":"6518931686","tag":{"amenity":"waste_basket"}},"type":"Feature"},
	{"geometry":{"coordinates":[13.268108,52.47416],"type":"Point"},"properties":{"osm_id":"6592838429","tag":{"amenity":"waste_basket","waste":"trash"}},"type":"Feature"}
]
}
