{
"type": "FeatureCollection",
"features": [
	{"geometry":{"coordinates":[13.252234,52.400123],"type":"Point"},"properties":{"osm_id":"349022252","tag":{"amenity":"recycling","location":"overground","recycling_type":"container"}},"type":"Feature"},
	{"geometry":{"coordinates":[13.258062,52.381315],"type":"Point"},"properties":{"name":"APM Wertstoffhof","osm_id":"360403054","tag":{"amenity":"recycling","recycling_type":"centre"}},"type":"Feature"},
	{"geometry":{"coordinates":[13.235689,52.414852],"type":"Point"},"properties":{"osm_id":"534873812","tag":{"amenity":"recycling","recycling:clothes":"yes","recycling_type":"container"}},"type":"Feature"},
	{"geometry":{"coordinates":[13.215802,52.404917],"type":"Point"},"properties":{"osm_id":"536434834","tag":{"amenity":"recycling","recycling:glass_bottles":"yes"}},"type":"Feature"},
	{"geometry":{"coordinates":[13.219373,52.403363],"type":"Point"},"properties":{"osm_id":"536434844","tag":{"amenity":"recycling","recycling:clothes":"yes","recycling:glass_bottles":"yes","recycling_type":"container","wheelchair":"yes"}},"type":"Feature"},
	{"geometry":{"coordinates":[13.205872,52.403636],"type":"Point"},"properties":{"osm_id":"540380396","tag":{"amenity":"recycling","mapillary":"l0TnxYVKZoyyJkUqvWpkHQ","recycling:glass_bottles":"yes","recycling_type":"container","survey:date":"2018-04-09"}},"type":"Feature"},
	{"geometry":{"coordinates":[13.204476,52.409312],"type":"Point"},"properties":{"osm_id":"540380399","tag":{"amenity":"recycling","image":"https://storage7.openstreetcam.org/files/photo/2018/4/9/lth/1163319_49dec_5acb90f308ff8.jpg","recycling:clothes":"yes","recycling_type":"container","survey:date":"2018-04-09"}},"type":"Feature"},
	{"geometry":{"coordinates":[13.203691,52.411786],"type":"Point"},"properties":{"osm_id":"540380403","tag":{"amenity":"recycling","mapillary":"xASpc4qWAoeOcA-hahOxwQ","recycling:glass_bottles":"yes","recycling_type":"container","survey:date":"2018-04-09"}},"type":"Feature"},
	{"geometry":{"coordinates":[13.201165,52.402047],"type":"Point"},"properties":{"osm_id":"551436475","tag":{"amenity":"recycling","recycling:clothes":"yes","recycling:glass_bottles":"yes"}},"type":"Feature"},
	{"geometry":{"coordinates":[13.238246,52.405972],"type":"Point"},"properties":{"osm_id":"559278039","tag":{"amenity":"recycling","location":"overground","recycling:glass_bottles":"yes","recycling_type":"container"}},"type":"Feature"},
	{"geometry":{"coordinates":[13.233546,52.405188],"type":"Point"},"properties":{"osm_id":"559278045","tag":{"amenity":"recycling","recycling:clothes":"yes","recycling:glass_bottles":"yes"}},"type":"Feature"},
	{"geometry":{"coordinates":[13.230516,52.412866],"type":"Point"},"properties":{"osm_id":"559789965","tag":{"amenity":"recycling","location":"outdoor","recycling:glass_bottles":"yes","recycling_type":"container"}},"type":"Feature"},
	{"geometry":{"coordinates":[13.203682,52.397995],"type":"Point"},"properties":{"osm_id":"582702508","tag":{"amenity":"recycling","recycling:glass_bottles":"yes"}},"type":"Feature"},
	{"geometry":{"coordinates":[13.21175,52.412965],"type":"Point"},"properties":{"osm_id":"643638876","tag":{"amenity":"recycling","location":"underground","recycling:glass_bottles":"yes","recycling_type":"container"}},"type":"Feature"},
	{"geometry":{"coordinates":[13.211754,52.412852],"type":"Point"},"properties":{"osm_id":"643638883","tag":{"amenity":"recycling","image":"https://storage7.openstreetcam.org/files/photo/2018/4/9/lth/1163317_b2947_5acb905859bea.jpg","recycling:clothes":"yes","recycling_type":"container","survey:date":"2018-04-09"}},"type":"Feature"},
	{"geometry":{"coordinates":[13.210374,52.394106],"type":"Point"},"properties":{"osm_id":"765555548","tag":{"amenity":"recycling"}},"type":"Feature"},
	{"geometry":{"coordinates":[13.243328,52.400867],"type":"Point"},"properties":{"osm_id":"1131197458","tag":{"amenity":"recycling","location":"overground","recycling:clothes":"yes","recycling_type":"container"}},"type":"Feature"},
	{"geometry":{"coordinates":[13.243763,52.400991],"type":"Point"},"properties":{"osm_id":"1131197460","tag":{"amenity":"recycling","recycling:glass":"yes"}},"type":"Feature"},
	{"geometry":{"coordinates":[13.244782,52.394904],"type":"Point"},"properties":{"osm_id":"1137313943","tag":{"amenity":"recycling","recycling:glass":"yes"}},"type":"Feature"},
	{"geometry":{"coordinates":[13.250916,52.402664],"type":"Point"},"properties":{"osm_id":"1166705383","tag":{"amenity":"recycling","recycling:clothes":"yes","recycling_type":"container"}},"type":"Feature"},
	{"geometry":{"coordinates":[13.188049,52.420945],"type":"Point"},"properties":{"osm_id":"1256942896","tag":{"amenity":"recycling","recycling:batteries":"no","recycling:cans":"no","recycling:clothes":"yes","recycling:glass":"no","recycling:paper":"no","recycling:scrap_metal":"no","recycling_type":"container"}},"type":"Feature"},
	{"geometry":{"coordinates":[13.186926,52.426084],"type":"Point"},"properties":{"osm_id":"1278665294","tag":{"amenity":"recycling","recycling:clothes":"yes","recycling_type":"container"}},"type":"Feature"},
	{"geometry":{"coordinates":[13.270404,52.398445],"type":"Point"},"properties":{"osm_id":"1360752132","tag":{"amenity":"recycling","location":"overground","recycling:cans":"yes","recycling:glass":"yes","recycling:paper":"yes","recycling:scrap_metal":"yes","recycling_type":"container"}},"type":"Feature"},
	{"geometry":{"coordinates":[13.269161,52.398709],"type":"Point"},"properties":{"osm_id":"1360752135","tag":{"amenity":"recycling","location":"overground","recycling:cans":"yes","recycling:glass":"yes","recycling:paper":"yes","recycling:scrap_metal":"yes","recycling_type":"container"}},"type":"Feature"},
	{"geometry":{"coordinates":[13.269888,52.399129],"type":"Point"},"properties":{"osm_id":"1360752146","tag":{"amenity":"recycling","location":"overground","recycling:cans":"yes","recycling:glass":"yes","recycling:paper":"yes","recycling:scrap_metal":"yes","recycling_type":"container"}},"type":"Feature"},
	{"geometry":{"coordinates":[13.265375,52.410203],"type":"Point"},"properties":{"osm_id":"1608593640","tag":{"amenity":"recycling","recycling:clothes":"yes","recycling_type":"container"}},"type":"Feature"},
	{"geometry":{"coordinates":[13.265372,52.410224],"type":"Point"},"properties":{"osm_id":"1608593641","tag":{"amenity":"recycling","operator":"Rhenus","recycling:glass_bottles":"yes","recycling_type":"container"}},"type":"Feature"},
	{"geometry":{"coordinates":[13.244822,52.421404],"type":"Point"},"properties":{"osm_id":"1608593758","tag":{"amenity":"recycling","operator":"Rhenus","recycling:glass_bottles":"yes","recycling_type":"container"}},"type":"Feature"},
	{"geometry":{"coordinates":[13.245006,52.421413],"type":"Point"},"properties":{"osm_id":"1608593768","tag":{"amenity":"recycling","recycling:clothes":"yes","recycling_type":"container"}},"type":"Feature"},
	{"geometry":{"coordinates":[13.239408,52.42439],"type":"Point"},"properties":{"osm_id":"1608593790","tag":{"amenity":"recycling","operator":"Rhenus","recycling:glass_bottles":"yes","recycling_type":"container"}},"type":"Feature"},
	{"geometry":{"coordinates":[13.186916,52.426043],"type":"Point"},"properties":{"osm_id":"1608593840","tag":{"amenity":"recycling","operator":"Rhenus","recycling:glass_bottles":"yes","recycling_type":"container"}},"type":"Feature"},
	{"geometry":{"coordinates":[13.243566,52.426389],"type":"Point"},"properties":{"osm_id":"1608593851","tag":{"amenity":"recycling","operator":"Rhenus","recycling:glass_bottles":"yes","recycling_type":"container"}},"type":"Feature"},
	{"geometry":{"coordinates":[13.257732,52.428916],"type":"Point"},"properties":{"osm_id":"1705393544","tag":{"amenity":"waste_basket"}},"type":"Feature"},
	{"geometry":{"coordinates":[13.203404,52.427683],"type":"Point"},"properties":{"osm_id":"1724375695","tag":{"amenity":"recycling","recycling:glass_bottles":"yes","recycling_type":"container"}},"type":"Feature"},
	{"geometry":{"coordinates":[13.257773,52.379726],"type":"Point"},"properties":{"name":"Schrottannahme","osm_id":"1730520090","tag":{"amenity":"recycling","recycling_type":"centre"}},"type":"Feature"},
	{"geometry":{"coordinates":[13.258217,52.389776],"type":"Point"},"properties":{"osm_id":"1914080826","tag":{"amenity":"waste_basket"}},"type":"Feature"},
	{"geometry":{"coordinates":[13.25065,52.392004],"type":"Point"},"properties":{"osm_id":"1914080836","tag":{"amenity":"waste_basket"}},"type":"Feature"},
	{"geometry":{"coordinates":[13.251132,52.394335],"type":"Point"},"properties":{"osm_id":"1914080838","tag":{"amenity":"waste_basket"}},"type":"Feature"},
	{"geometry":{"coordinates":[13.246726,52.387999],"type":"Point"},"properties":{"osm_id":"1927674579","tag":{"amenity":"recycling","recycling:clothes":"yes","recycling:glass":"yes","recycling_type":"container"}},"type":"Feature"},
	{"geometry":{"coordinates":[13.260501,52.392541],"type":"Point"},"properties":{"osm_id":"1996059280","tag":{"amenity":"waste_basket"}},"type":"Feature"},
	{"geometry":{"coordinates":[13.255962,52.401154],"type":"Point"},"properties":{"osm_id":"1996076761","tag":{"amenity":"recycling","recycling:clothes":"yes","recycling_type":"container"}},"type":"Feature"},
	{"geometry":{"coordinates":[13.251831,52.402032],"type":"Point"},"properties":{"osm_id":"2057456446","tag":{"amenity":"recycling","recycling:glass_bottles":"yes","recycling_type":"container"}},"type":"Feature"},
	{"geometry":{"coordinates":[13.231795,52.399216],"type":"Point"},"properties":{"osm_id":"2288992087","tag":{"amenity":"waste_basket"}},"type":"Feature"},
	{"geometry":{"coordinates":[13.250743,52.427969],"type":"Point"},"properties":{"osm_id":"2673428560","tag":{"amenity":"recycling","operator":"Deutsches Rotes Kreuz","recycling:clothes":"yes","recycling_type":"container"}},"type":"Feature"},
	{"geometry":{"coordinates":[13.258821,52.413138],"type":"Point"},"properties":{"osm_id":"3194550453","tag":{"amenity":"recycling","operator":"BSR","recycling:glass_bottles":"yes","recycling_type":"container"}},"type":"Feature"},
	{"geometry":{"coordinates":[13.262874,52.410929],"type":"Point"},"properties":{"osm_id":"3220344775","tag":{"amenity":"recycling","recycling:glass_bottles":"yes","recycling_type":"container"}},"type":"Feature"},
	{"geometry":{"coordinates":[13.270174,52.391226],"type":"Point"},"properties":{"osm_id":"3237925779","tag":{"amenity":"waste_basket"}},"type":"Feature"},
	{"geometry":{"coordinates":[13.269103,52.393463],"type":"Point"},"properties":{"osm_id":"3237925780","tag":{"amenity":"waste_basket"}},"type":"Feature"},
	{"geometry":{"coordinates":[13.26031,52.41832],"type":"Point"},"properties":{"osm_id":"3721143032","tag":{"amenity":"recycling","recycling_type":"container"}},"type":"Feature"},
	{"geometry":{"coordinates":[13.257622,52.42806],"type":"Point"},"properties":{"osm_id":"3749378701","tag":{"amenity":"waste_basket"}},"type":"Feature"},
	{"geometry":{"coordinates":[13.257544,52.428452],"type":"Point"},"properties":{"osm_id":"3749378704","tag":{"amenity":"waste_basket"}},"type":"Feature"},
	{"geometry":{"coordinates":[13.257411,52.428645],"type":"Point"},"properties":{"osm_id":"3749378710","tag":{"amenity":"waste_basket"}},"type":"Feature"},
	{"geometry":{"coordinates":[13.20654,52.428458],"type":"Point"},"properties":{"osm_id":"3761544396","tag":{"amenity":"waste_basket"}},"type":"Feature"},
	{"geometry":{"coordinates":[13.203758,52.427748],"type":"Point"},"properties":{"osm_id":"3761544414","tag":{"amenity":"waste_basket"}},"type":"Feature"},
	{"geometry":{"coordinates":[13.257926,52.421456],"type":"Point"},"properties":{"osm_id":"3765451563","tag":{"amenity":"waste_basket","backrest":"yes"}},"type":"Feature"},
	{"geometry":{"coordinates":[13.257556,52.42153],"type":"Point"},"properties":{"osm_id":"3765451564","tag":{"amenity":"waste_basket","backrest":"yes"}},"type":"Feature"},
	{"geometry":{"coordinates":[13.258099,52.421633],"type":"Point"},"properties":{"osm_id":"3765451565","tag":{"amenity":"waste_basket","backrest":"yes"}},"type":"Feature"},
	{"geometry":{"coordinates":[13.257793,52.4218],"type":"Point"},"properties":{"osm_id":"3765451566","tag":{"amenity":"waste_basket","backrest":"yes"}},"type":"Feature"},
	{"geometry":{"coordinates":[13.259647,52.418204],"type":"Point"},"properties":{"osm_id":"3767741345","tag":{"amenity":"waste_basket"}},"type":"Feature"},
	{"geometry":{"coordinates":[13.266799,52.412232],"type":"Point"},"properties":{"osm_id":"3999122460","tag":{"amenity":"waste_basket"}},"type":"Feature"},
	{"geometry":{"coordinates":[13.203235,52.427727],"type":"Point"},"properties":{"osm_id":"4659720945","tag":{"amenity":"recycling","recycling:clothes":"yes","recycling_type":"container"}},"type":"Feature"},
	{"geometry":{"coordinates":[13.263655,52.402393],"type":"Point"},"properties":{"osm_id":"6286077658","tag":{"amenity":"waste_basket"}},"type":"Feature"},
	{"geometry":{"coordinates":[13.264873,52.402276],"type":"Point"},"properties":{"osm_id":"6286077661","tag":{"amenity":"waste_basket"}},"type":"Feature"},
	{"geometry":{"coordinates":[13.266685,52.402587],"type":"Point"},"properties":{"osm_id":"6286077662","tag":{"amenity":"waste_basket"}},"type":"Feature"},
	{"geometry":{"coordinates":[13.266034,52.401917],"type":"Point"},"properties":{"osm_id":"6286077664","tag":{"amenity":"waste_basket"}},"type":"Feature"},
	{"geometry":{"coordinates":[13.265899,52.401688],"type":"Point"},"properties":{"osm_id":"6286077667","tag":{"amenity":"waste_basket"}},"type":"Feature"},
	{"geometry":{"coordinates":[13.265186,52.401046],"type":"Point"},"properties":{"osm_id":"6286077669","tag":{"amenity":"waste_basket"}},"type":"Feature"},
	{"geometry":{"coordinates":[13.263379,52.400999],"type":"Point"},"properties":{"osm_id":"6286077672","tag":{"amenity":"waste_basket"}},"type":"Feature"},
	{"geometry":{"coordinates":[13.262462,52.40122],"type":"Point"},"properties":{"osm_id":"6286077674","tag":{"amenity":"waste_basket"}},"type":"Feature"},
	{"geometry":{"coordinates":[13.261156,52.401396],"type":"Point"},"properties":{"osm_id":"6286077677","tag":{"amenity":"waste_basket"}},"type":"Feature"},
	{"geometry":{"coordinates":[13.260883,52.401516],"type":"Point"},"properties":{"osm_id":"6286077679","tag":{"amenity":"waste_basket"}},"type":"Feature"},
	{"geometry":{"coordinates":[13.260691,52.401295],"type":"Point"},"properties":{"osm_id":"6286077682","tag":{"amenity":"waste_basket"}},"type":"Feature"},
	{"geometry":{"coordinates":[13.250978,52.395581],"type":"Point"},"properties":{"osm_id":"6286097191","tag":{"amenity":"waste_disposal"}},"type":"Feature"},
	{"geometry":{"coordinates":[13.250561,52.395545],"type":"Point"},"properties":{"osm_id":"6286097192","tag":{"amenity":"waste_disposal"}},"type":"Feature"},
	{"geometry":{"coordinates":[13.255074,52.395494],"type":"Point"},"properties":{"osm_id":"6305195985","tag":{"amenity":"waste_basket"}},"type":"Feature"},
	{"geometry":{"coordinates":[13.26544,52.402449],"type":"Point"},"properties":{"osm_id":"6305195987","tag":{"amenity":"waste_basket"}},"type":"Feature"},
	{"geometry":{"coordinates":[13.263624,52.386484],"type":"Point"},"properties":{"osm_id":"6371713889","tag":{"amenity":"recycling","operator":"Veolia","recycling:glass":"yes","recycling:glass_bottles":"yes","recycling_type":"container"}},"type":"Feature"},
	{"geometry":{"coordinates":[13.262834,52.375951],"type":"Point"},"properties":{"osm_id":"6371721787","tag":{"amenity":"recycling","operator":"Veolia","recycling:glass":"yes","recycling:glass_bottles":"yes","recycling_type":"container"}},"type":"Feature"},
	{"geometry":{"coordinates":[13.234882,52.418831],"type":"Point"},"properties":{"osm_id":"6419590405","tag":{"amenity":"waste_basket"}},"type":"Feature"},
	{"geometry":{"coordinates":[13.270548,52.403639],"type":"Point"},"properties":{"osm_id":"6434141053","tag":{"amenity":"waste_basket"}},"type":"Feature"},
	{"geometry":{"coordinates":[13.210164,52.393677],"type":"Point"},"properties":{"osm_id":"6436974256","tag":{"amenity":"waste_basket","waste":"trash"}},"type":"Feature"},
	{"geometry":{"coordinates":[13.210269,52.393683],"type":"Point"},"properties":{"osm_id":"6436974257","tag":{"amenity":"recycling","recycling:glass_bottles":"yes","recycling_type":"container"}},"type":"Feature"},
	{"geometry":{"coordinates":[13.210324,52.393683],"type":"Point"},"properties":{"osm_id":"6436974258","tag":{"amenity":"recycling","recycling:clothes":"yes","recycling_type":"container"}},"type":"Feature"},
	{"geometry":{"coordinates":[13.235471,52.393319],"type":"Point"},"properties":{"osm_id":"6611449899","tag":{"amenity":"waste_basket","waste":"trash"}},"type":"Feature"},
	{"geometry":{"coordinates":[13.235304,52.393496],"type":"Point"},"properties":{"osm_id":"6611449903","tag":{"amenity":"waste_basket","waste":"trash"}},"type":"Feature"},
	{"geometry":{"coordinates":[13.230857,52.391977],"type":"Point"},"properties":{"osm_id":"6611449911","tag":{"amenity":"waste_basket","waste":"trash"}},"type":"Feature"},
	{"geometry":{"coordinates":[13.230507,52.392083],"type":"Point"},"properties":{"osm_id":"6611449912","tag":{"amenity":"waste_basket","waste":"trash"}},"type":"Feature"},
	{"geometry":{"coordinates":[13.196683,52.405788],"type":"Point"},"properties":{"osm_id":"6612926006","tag":{"amenity":"waste_basket","waste":"trash"}},"type":"Feature"},
	{"geometry":{"coordinates":[13.188131,52.40602],"type":"Point"},"properties":{"osm_id":"6612926017","tag":{"amenity":"waste_basket","waste":"trash"}},"type":"Feature"},
	{"geometry":{"coordinates":[13.188329,52.405956],"type":"Point"},"properties":{"osm_id":"6612926023","tag":{"amenity":"waste_basket","waste":"trash"}},"type":"Feature"},
	{"geometry":{"coordinates":[13.185337,52.403685],"type":"Point"},"properties":{"highway":"street_lamp","osm_id":"6612926028","tag":{"amenity":"waste_basket","waste":"trash"}},"type":"Feature"},
	{"geometry":{"coordinates":[13.185527,52.403704],"type":"Point"},"properties":{"osm_id":"6612926040","tag":{"amenity":"waste_basket","waste":"trash"}},"type":"Feature"},
	{"geometry":{"coordinates":[13.224629,52.420127],"type":"Point"},"properties":{"osm_id":"6765110231","tag":{"amenity":"recycling","opening_hours":"Mo-Fr 07:00-20:00, Sa 08:00-13:00; PH,Su closed","recycling:glass_bottles":"yes","recycling_type":"container"}},"type":"Feature"},
	{"geometry":{"coordinates":[13.236379,52.418711],"type":"Point"},"properties":{"osm_id":"7297150217","tag":{"amenity":"recycling","opening_hours":"Mo-Fr 07:00-20:00; Sa 08:00-13:00; PH closed","recycling:glass_bottles":"yes","recycling_type":"container","wheelchair":"limited"}},"type":"Feature"}
]
}
