{
"type": "FeatureCollection",
"features": [
	{"geometry":{"coordinates":[13.240296,52.313367],"type":"Point"},"properties":{"osm_id":"403327952","tag":{"amenity":"recycling","recycling:glass_bottles":"yes","recycling_type":"container"}},"type":"Feature"},
	{"geometry":{"coordinates":[13.239129,52.312901],"type":"Point"},"properties":{"osm_id":"403328009","tag":{"amenity":"recycling","recycling:clothes":"yes","recycling:glass_bottles":"yes","recycling_type":"container"}},"type":"Feature"},
	{"geometry":{"coordinates":[13.24281,52.307746],"type":"Point"},"properties":{"osm_id":"403328036","tag":{"amenity":"recycling","recycling:glass_bottles":"yes","recycling_type":"container"}},"type":"Feature"},
	{"geometry":{"coordinates":[13.242915,52.307618],"type":"Point"},"properties":{"osm_id":"403328039","tag":{"amenity":"recycling","recycling:clothes":"yes","recycling_type":"container"}},"type":"Feature"},
	{"geometry":{"coordinates":[13.244201,52.303618],"type":"Point"},"properties":{"osm_id":"404354329","tag":{"amenity":"recycling","recycling:clothes":"yes","recycling:shoes":"yes","recycling_type":"container"}},"type":"Feature"},
	{"geometry":{"coordinates":[13.245765,52.303184],"type":"Point"},"properties":{"osm_id":"404354332","tag":{"amenity":"recycling","recycling:glass_bottles":"yes","recycling_type":"container"}},"type":"Feature"},
	{"geometry":{"coordinates":[13.24944,52.302621],"type":"Point"},"properties":{"osm_id":"404354367","tag":{"amenity":"recycling","recycling:clothes":"yes","recycling:shoes":"yes","recycling_type":"container"}},"type":"Feature"},
	{"geometry":{"coordinates":[13.252949,52.303452],"type":"Point"},"properties":{"osm_id":"404354372","tag":{"amenity":"recycling","recycling:clothes":"yes","recycling_type":"container"}},"type":"Feature"},
	{"geometry":{"coordinates":[13.261286,52.291098],"type":"Point"},"properties":{"osm_id":"443690223","tag":{"amenity":"waste_basket"}},"type":"Feature"},
	{"geometry":{"coordinates":[13.26087,52.290872],"type":"Point"},"properties":{"osm_id":"443690224","tag":{"amenity":"waste_basket"}},"type":"Feature"},
	{"geometry":{"coordinates":[13.20865,52.283723],"type":"Point"},"properties":{"osm_id":"443690233","tag":{"amenity":"waste_basket"}},"type":"Feature"},
	{"geometry":{"coordinates":[13.250147,52.304971],"type":"Point"},"properties":{"osm_id":"618266366","tag":{"amenity":"recycling","recycling_type":"container"}},"type":"Feature"},
	{"geometry":{"coordinates":[13.212923,52.282307],"type":"Point"},"properties":{"osm_id":"633170731","tag":{"amenity":"recycling","recycling:glass":"yes","recycling_type":"container"}},"type":"Feature"},
	{"geometry":{"coordinates":[13.211612,52.283076],"type":"Point"},"properties":{"osm_id":"634566169","tag":{"amenity":"recycling","recycling:clothes":"yes","recycling_type":"container"}},"type":"Feature"},
	{"geometry":{"coordinates":[13.248961,52.297375],"type":"Point"},"properties":{"osm_id":"727513595","tag":{"amenity":"recycling","location":"overground","recycling:clothes":"yes","recycling:glass_bottles":"yes","recycling_type":"container"}},"type":"Feature"},
	{"geometry":{"coordinates":[13.246389,52.293389],"type":"Point"},"properties":{"osm_id":"727513624","tag":{"amenity":"recycling","recycling:clothes":"yes","recycling:glass":"yes","recycling_type":"container"}},"type":"Feature"},
	{"geometry":{"coordinates":[13.252825,52.304962],"type":"Point"},"properties":{"osm_id":"727633471","tag":{"amenity":"waste_basket"}},"type":"Feature"},
	{"geometry":{"coordinates":[13.257536,52.302452],"type":"Point"},"properties":{"osm_id":"727637298","tag":{"amenity":"waste_basket"}},"type":"Feature"},
	{"geometry":{"coordinates":[13.257386,52.301827],"type":"Point"},"properties":{"osm_id":"727637303","tag":{"amenity":"waste_basket"}},"type":"Feature"},
	{"geometry":{"coordinates":[13.251534,52.299193],"type":"Point"},"properties":{"osm_id":"727698898","tag":{"amenity":"recycling","location":"underground","recycling:glass_bottles":"yes","recycling_type":"container"}},"type":"Feature"},
	{"geometry":{"coordinates":[13.252352,52.303943],"type":"Point"},"properties":{"osm_id":"736611263","tag":{"amenity":"recycling","recycling:glass":"yes","recycling_type":"container"}},"type":"Feature"},
	{"geometry":{"coordinates":[13.252742,52.306601],"type":"Point"},"properties":{"osm_id":"736611320","tag":{"amenity":"recycling","recycling:glass_bottles":"yes","recycling_type":"container"}},"type":"Feature"},
	{"geometry":{"coordinates":[13.270187,52.293434],"type":"Point"},"properties":{"osm_id":"736628549","tag":{"amenity":"recycling","recycling:clothes":"yes","recycling:glass_bottles":"yes","recycling_type":"container"}},"type":"Feature"},
	{"geometry":{"coordinates":[13.252595,52.309776],"type":"Point"},"properties":{"osm_id":"817872313","tag":{"amenity":"waste_basket"}},"type":"Feature"},
	{"geometry":{"coordinates":[13.253487,52.311416],"type":"Point"},"properties":{"osm_id":"817872320","tag":{"amenity":"recycling","recycling:clothes":"yes"}},"type":"Feature"},
	{"geometry":{"coordinates":[13.250817,52.309039],"type":"Point"},"properties":{"osm_id":"817872372","tag":{"amenity":"waste_basket"}},"type":"Feature"},
	{"geometry":{"coordinates":[13.249042,52.309251],"type":"Point"},"properties":{"osm_id":"827732662","tag":{"amenity":"recycling","recycling:glass_bottles":"yes"}},"type":"Feature"},
	{"geometry":{"coordinates":[13.256114,52.311505],"type":"Point"},"properties":{"osm_id":"1389878958","tag":{"amenity":"recycling","recycling:clothes":"yes","recycling:shoes":"yes","recycling_type":"container"}},"type":"Feature"},
	{"geometry":{"coordinates":[13.265878,52.299935],"type":"Point"},"properties":{"osm_id":"1390155995","tag":{"amenity":"recycling","recycling:glass":"yes","recycling_type":"container"}},"type":"Feature"},
	{"geometry":{"coordinates":[13.254847,52.308595],"type":"Point"},"properties":{"osm_id":"1793452990","tag":{"amenity":"recycling","recycling:glass":"yes","recycling:glass_bottles":"yes","recycling_type":"container"}},"type":"Feature"},
	{"geometry":{"coordinates":[13.211923,52.290019],"type":"Point"},"properties":{"osm_id":"1831392297","tag":{"amenity":"recycling","recycling:glass":"yes","recycling:glass_bottles":"yes","recycling_type":"container"}},"type":"Feature"},
	{"geometry":{"coordinates":[13.267284,52.299505],"type":"Point"},"properties":{"osm_id":"1867663174","tag":{"amenity":"recycling","recycling:clothes":"yes","recycling_type":"container"}},"type":"Feature"},
	{"geometry":{"coordinates":[13.239207,52.305285],"type":"Point"},"properties":{"osm_id":"2676685464","tag":{"amenity":"recycling","recycling:glass_bottles":"yes","recycling_type":"container"}},"type":"Feature"},
	{"geometry":{"coordinates":[13.239176,52.305298],"type":"Point"},"properties":{"osm_id":"2676685465","tag":{"amenity":"recycling","recycling:clothes":"yes","recycling_type":"container"}},"type":"Feature"},
	{"geometry":{"coordinates":[13.246087,52.306448],"type":"Point"},"properties":{"osm_id":"3318224299","tag":{"amenity":"recycling","recycling:clothes":"yes","recycling_type":"container"}},"type":"Feature"},
	{"geometry":{"coordinates":[13.251419,52.305726],"type":"Point"},"properties":{"osm_id":"3599962805","tag":{"amenity":"waste_basket"}},"type":"Feature"},
	{"geometry":{"coordinates":[13.257244,52.301728],"type":"Point"},"properties":{"osm_id":"3688954496","tag":{"amenity":"waste_basket"}},"type":"Feature"},
	{"geometry":{"coordinates":[13.256624,52.301324],"type":"Point"},"properties":{"osm_id":"3688954511","tag":{"amenity":"waste_basket"}},"type":"Feature"},
	{"geometry":{"coordinates":[13.246328,52.304486],"type":"Point"},"properties":{"osm_id":"3765231716","tag":{"amenity":"waste_basket"}},"type":"Feature"},
	{"geometry":{"coordinates":[13.246311,52.304193],"type":"Point"},"properties":{"osm_id":"3765231717","tag":{"amenity":"waste_basket"}},"type":"Feature"},
	{"geometry":{"coordinates":[13.246389,52.305615],"type":"Point"},"properties":{"osm_id":"3765231734","tag":{"amenity":"waste_basket"}},"type":"Feature"},
	{"geometry":{"coordinates":[13.265256,52.298064],"type":"Point"},"properties":{"osm_id":"3765249265","tag":{"amenity":"waste_basket"}},"type":"Feature"},
	{"geometry":{"coordinates":[13.245153,52.29267],"type":"Point"},"properties":{"osm_id":"4054692991","tag":{"amenity":"waste_basket"}},"type":"Feature"},
	{"geometry":{"coordinates":[13.252565,52.299258],"type":"Point"},"properties":{"osm_id":"4054718628","tag":{"amenity":"waste_basket"}},"type":"Feature"},
	{"geometry":{"coordinates":[13.257699,52.299232],"type":"Point"},"properties":{"osm_id":"4054718641","tag":{"amenity":"waste_basket"}},"type":"Feature"},
	{"geometry":{"coordinates":[13.247755,52.310092],"type":"Point"},"properties":{"osm_id":"4192333557","tag":{"addr:city":"Ludwigsfelde","addr:country":"DE","addr:postcode":"14974","addr:street":"Ernst-Schneller-Stra\u00c3\u009fe","amenity":"recycling","recycling:glass_bottles":"yes"}},"type":"Feature"},
	{"geometry":{"coordinates":[13.259056,52.302612],"type":"Point"},"properties":{"osm_id":"4767675978","tag":{"amenity":"waste_basket"}},"type":"Feature"},
	{"geometry":{"coordinates":[13.19941,52.315836],"type":"Point"},"properties":{"osm_id":"6054225475","tag":{"amenity":"recycling","recycling:glass_bottles":"yes","recycling_type":"container"}},"type":"Feature"},
	{"geometry":{"coordinates":[13.199444,52.31585],"type":"Point"},"properties":{"osm_id":"6055318138","tag":{"amenity":"recycling","recycling:clothes":"yes","recycling:shoes":"yes","recycling_type":"container"}},"type":"Feature"},
	{"geometry":{"coordinates":[13.260301,52.301495],"type":"Point"},"properties":{"osm_id":"6855567360","tag":{"amenity":"waste_basket"}},"type":"Feature"}
]
}
