{
"type": "FeatureCollection",
"features": [
	{"geometry":{"coordinates":[13.259208,51.378139],"type":"Point"},"properties":{"osm_id":"685452877","tag":{"amenity":"recycling","mapillary":"TO9AbSFY1-YKdEgrvfrqoA","recycling:clothes":"no","recycling:glass":"no","recycling_type":"container","survey:date":"2016-08-24"}},"type":"Feature"},
	{"geometry":{"coordinates":[13.24144,51.354905],"type":"Point"},"properties":{"osm_id":"700055740","tag":{"amenity":"recycling","recycling_type":"container"}},"type":"Feature"},
	{"geometry":{"coordinates":[13.267268,51.351777],"type":"Point"},"properties":{"osm_id":"1750018299","tag":{"amenity":"recycling","recycling:clothes":"yes","recycling:glass":"yes","recycling_type":"container"}},"type":"Feature"},
	{"geometry":{"coordinates":[13.184721,51.391103],"type":"Point"},"properties":{"osm_id":"5335033338","tag":{"amenity":"waste_basket"}},"type":"Feature"},
	{"geometry":{"coordinates":[13.191771,51.387203],"type":"Point"},"properties":{"osm_id":"6616005490","tag":{"amenity":"recycling","recycling:glass_bottles":"yes","recycling_type":"container"}},"type":"Feature"},
	{"geometry":{"coordinates":[13.225487,51.35677],"type":"Point"},"properties":{"osm_id":"6774734428","tag":{"amenity":"waste_basket"}},"type":"Feature"},
	{"geometry":{"coordinates":[13.2347,51.352083],"type":"Point"},"properties":{"osm_id":"7532925875","tag":{"amenity":"waste_basket"}},"type":"Feature"},
	{"geometry":{"coordinates":[13.227639,51.372135],"type":"Point"},"properties":{"osm_id":"7532936894","tag":{"amenity":"waste_basket"}},"type":"Feature"},
	{"geometry":{"coordinates":[13.23045,51.366556],"type":"Point"},"properties":{"osm_id":"7532936902","tag":{"amenity":"waste_basket"}},"type":"Feature"},
	{"geometry":{"coordinates":[13.229081,51.365212],"type":"Point"},"properties":{"osm_id":"7532936904","tag":{"amenity":"waste_basket"}},"type":"Feature"},
	{"geometry":{"coordinates":[13.227426,51.36317],"type":"Point"},"properties":{"osm_id":"7532936909","tag":{"amenity":"waste_basket"}},"type":"Feature"},
	{"geometry":{"coordinates":[13.226437,51.361126],"type":"Point"},"properties":{"osm_id":"7532970589","tag":{"amenity":"waste_basket"}},"type":"Feature"},
	{"geometry":{"coordinates":[13.227742,51.35967],"type":"Point"},"properties":{"osm_id":"7532970591","tag":{"amenity":"waste_basket"}},"type":"Feature"},
	{"geometry":{"coordinates":[13.230977,51.356921],"type":"Point"},"properties":{"osm_id":"7532970592","tag":{"amenity":"waste_basket"}},"type":"Feature"},
	{"geometry":{"coordinates":[13.231758,51.356323],"type":"Point"},"properties":{"osm_id":"7532970593","tag":{"amenity":"waste_basket"}},"type":"Feature"},
	{"geometry":{"coordinates":[13.233154,51.355237],"type":"Point"},"properties":{"osm_id":"7532970595","tag":{"amenity":"waste_basket"}},"type":"Feature"},
	{"geometry":{"coordinates":[13.224566,51.374801],"type":"Point"},"properties":{"osm_id":"7533520782","tag":{"amenity":"waste_basket"}},"type":"Feature"},
	{"geometry":{"coordinates":[13.185581,51.391763],"type":"Point"},"properties":{"osm_id":"7533556042","tag":{"amenity":"waste_basket"}},"type":"Feature"},
	{"geometry":{"coordinates":[13.23458,51.354311],"type":"Point"},"properties":{"osm_id":"7565448963","tag":{"amenity":"waste_basket"}},"type":"Feature"},
	{"geometry":{"coordinates":[13.233943,51.35225],"type":"Point"},"properties":{"osm_id":"7565532298","tag":{"amenity":"recycling","recycling:clothes":"yes","recycling:glass_bottles":"yes","recycling_type":"container"}},"type":"Feature"}
]
}
