{
"type": "FeatureCollection",
"features": [
	{"geometry":{"coordinates":[13.26903,49.691875],"type":"Point"},"properties":{"osm_id":"1448434739","tag":{"addr:conscriptionnumber":"699","addr:country":"CZ","addr:housenumber":"699","addr:place":"L\u00c3\u00adn\u00c4\u009b","addr:postcode":"33021","amenity":"recycling","recycling_type":"centre","ref:ruian:addr":"27665623"}},"type":"Feature"},
	{"geometry":{"coordinates":[13.254619,49.697065],"type":"Point"},"properties":{"osm_id":"6077531050","tag":{"amenity":"recycling","recycling:glass_bottles":"yes","recycling:paper":"yes","recycling:plastic_bottles":"yes","recycling_type":"container"}},"type":"Feature"},
	{"geometry":{"coordinates":[13.253414,49.696771],"type":"Point"},"properties":{"osm_id":"6077531051","tag":{"amenity":"recycling","recycling:cartons":"yes","recycling:paper":"yes","recycling:plastic":"yes","recycling:plastic_bottles":"yes","recycling_type":"container"}},"type":"Feature"},
	{"geometry":{"coordinates":[13.258991,49.6978],"type":"Point"},"properties":{"osm_id":"6077531056","tag":{"amenity":"recycling","recycling:glass":"yes","recycling:glass_bottles":"yes","recycling:paper":"yes","recycling:plastic":"yes","recycling:plastic_bottles":"yes","recycling_type":"container"}},"type":"Feature"},
	{"geometry":{"coordinates":[13.255653,49.695078],"type":"Point"},"properties":{"osm_id":"6077531057","tag":{"amenity":"recycling","recycling:glass":"yes","recycling:glass_bottles":"yes","recycling:paper":"yes","recycling:plastic":"yes","recycling:plastic_bottles":"yes","recycling_type":"container"}},"type":"Feature"},
	{"geometry":{"coordinates":[13.222081,49.681021],"type":"Point"},"properties":{"osm_id":"6669925595","tag":{"amenity":"recycling","recycling:glass":"yes","recycling:paper":"yes","recycling:plastic":"yes","recycling_type":"container"}},"type":"Feature"},
	{"geometry":{"coordinates":[13.226268,49.678458],"type":"Point"},"properties":{"osm_id":"6669925596","tag":{"amenity":"recycling","recycling:glass":"yes","recycling:paper":"yes","recycling:plastic":"yes","recycling_type":"container"}},"type":"Feature"}
]
}
