{
"type": "FeatureCollection",
"features": [
	{"geometry":{"coordinates":[13.200484,47.46313],"type":"Point"},"properties":{"osm_id":"3008257266","tag":{"amenity":"recycling","recycling:glass":"no","recycling:glass_bottles":"yes"}},"type":"Feature"},
	{"geometry":{"coordinates":[13.203194,47.45977],"type":"Point"},"properties":{"osm_id":"3008257275","tag":{"amenity":"recycling","recycling:glass":"yes"}},"type":"Feature"},
	{"geometry":{"coordinates":[13.191109,47.476041],"type":"Point"},"properties":{"osm_id":"3010545520","tag":{"amenity":"recycling","recycling:cans":"no","recycling:clothes":"yes","recycling:glass":"yes","recycling:paper":"no"}},"type":"Feature"},
	{"geometry":{"coordinates":[13.197964,47.462639],"type":"Point"},"properties":{"osm_id":"3014630733","tag":{"amenity":"recycling","recycling:cans":"no","recycling:clothes":"no","recycling:glass":"no","recycling:glass_bottles":"yes","recycling:paper":"no"}},"type":"Feature"},
	{"geometry":{"coordinates":[13.205772,47.457907],"type":"Point"},"properties":{"osm_id":"3016729860","tag":{"amenity":"recycling"}},"type":"Feature"},
	{"geometry":{"coordinates":[13.20551,47.460977],"type":"Point"},"properties":{"osm_id":"3541153350","tag":{"amenity":"waste_basket"}},"type":"Feature"},
	{"geometry":{"coordinates":[13.204942,47.458041],"type":"Point"},"properties":{"osm_id":"3574330208","tag":{"amenity":"waste_basket"}},"type":"Feature"},
	{"geometry":{"coordinates":[13.191983,47.471595],"type":"Point"},"properties":{"osm_id":"3631923060","tag":{"amenity":"waste_basket"}},"type":"Feature"},
	{"geometry":{"coordinates":[13.266213,47.463929],"type":"Point"},"properties":{"osm_id":"4353132427","tag":{"amenity":"waste_basket"}},"type":"Feature"},
	{"geometry":{"coordinates":[13.1904,47.481668],"type":"Point"},"properties":{"osm_id":"5005994313","tag":{"amenity":"waste_basket"}},"type":"Feature"},
	{"geometry":{"coordinates":[13.193221,47.510876],"type":"Point"},"properties":{"osm_id":"5053621527","tag":{"amenity":"waste_basket"}},"type":"Feature"},
	{"geometry":{"coordinates":[13.199398,47.461818],"type":"Point"},"properties":{"osm_id":"5853826224","tag":{"amenity":"waste_basket"}},"type":"Feature"},
	{"geometry":{"coordinates":[13.196829,47.467612],"type":"Point"},"properties":{"osm_id":"5882105719","tag":{"amenity":"waste_basket"}},"type":"Feature"},
	{"geometry":{"coordinates":[13.200077,47.461943],"type":"Point"},"properties":{"osm_id":"7411099483","tag":{"amenity":"waste_basket"}},"type":"Feature"}
]
}
