{
"type": "FeatureCollection",
"features": [
	{"geometry":{"coordinates":[13.215695,47.423626],"type":"Point"},"properties":{"osm_id":"3016688700","tag":{"amenity":"recycling","recycling:cans":"no","recycling:clothes":"no","recycling:glass":"yes","recycling:paper":"no"}},"type":"Feature"},
	{"geometry":{"coordinates":[13.217697,47.401373],"type":"Point"},"properties":{"osm_id":"3121954907","tag":{"amenity":"recycling","recycling:clothes":"yes","recycling:glass":"yes"}},"type":"Feature"},
	{"geometry":{"coordinates":[13.215268,47.428952],"type":"Point"},"properties":{"osm_id":"3528731203","tag":{"amenity":"recycling","mapillary":"Cn0oFNkPpKHDA_vxq1rRvA","recycling:glass":"yes","recycling_type":"container","survey:date":"2018-11-01"}},"type":"Feature"},
	{"geometry":{"coordinates":[13.218123,47.413761],"type":"Point"},"properties":{"osm_id":"3574658219","tag":{"amenity":"recycling","mapillary":"Q31ayGk-yxkNclgO4C3rTA","recycling:clothes":"yes","recycling:glass":"yes","recycling_type":"container","survey:date":"2018-08-20"}},"type":"Feature"},
	{"geometry":{"coordinates":[13.223841,47.428124],"type":"Point"},"properties":{"osm_id":"3727875231","tag":{"amenity":"waste_basket"}},"type":"Feature"},
	{"geometry":{"coordinates":[13.223774,47.428305],"type":"Point"},"properties":{"osm_id":"3727875233","tag":{"amenity":"waste_basket"}},"type":"Feature"},
	{"geometry":{"coordinates":[13.209447,47.437141],"type":"Point"},"properties":{"osm_id":"3779614954","tag":{"amenity":"waste_basket"}},"type":"Feature"},
	{"geometry":{"coordinates":[13.209753,47.437154],"type":"Point"},"properties":{"osm_id":"3779614955","tag":{"amenity":"waste_basket"}},"type":"Feature"},
	{"geometry":{"coordinates":[13.208921,47.439985],"type":"Point"},"properties":{"osm_id":"3779643856","tag":{"amenity":"waste_basket"}},"type":"Feature"},
	{"geometry":{"coordinates":[13.206519,47.452703],"type":"Point"},"properties":{"osm_id":"3779643962","tag":{"amenity":"waste_basket"}},"type":"Feature"},
	{"geometry":{"coordinates":[13.203167,47.454016],"type":"Point"},"properties":{"osm_id":"3779643963","tag":{"amenity":"waste_basket"}},"type":"Feature"},
	{"geometry":{"coordinates":[13.204435,47.457296],"type":"Point"},"properties":{"osm_id":"3998798608","tag":{"amenity":"waste_basket"}},"type":"Feature"},
	{"geometry":{"coordinates":[13.218456,47.424627],"type":"Point"},"properties":{"osm_id":"4029591795","tag":{"amenity":"recycling","recycling:clothes":"yes","recycling:glass":"no","recycling:glass_bottles":"yes","recycling_type":"container"}},"type":"Feature"},
	{"geometry":{"coordinates":[13.207042,47.45454],"type":"Point"},"properties":{"osm_id":"4127978706","tag":{"amenity":"waste_basket"}},"type":"Feature"},
	{"geometry":{"coordinates":[13.206298,47.457542],"type":"Point"},"properties":{"osm_id":"4216058047","tag":{"amenity":"waste_basket"}},"type":"Feature"},
	{"geometry":{"coordinates":[13.202041,47.456562],"type":"Point"},"properties":{"osm_id":"4252204828","tag":{"amenity":"waste_basket","amenity_1":"vending_machine","vending":"excrement_bags"}},"type":"Feature"},
	{"geometry":{"coordinates":[13.213017,47.414293],"type":"Point"},"properties":{"osm_id":"4405045261","tag":{"amenity":"waste_basket"}},"type":"Feature"},
	{"geometry":{"coordinates":[13.214056,47.403078],"type":"Point"},"properties":{"osm_id":"4438771602","tag":{"amenity":"waste_basket"}},"type":"Feature"},
	{"geometry":{"coordinates":[13.206081,47.411285],"type":"Point"},"properties":{"osm_id":"4438878422","tag":{"amenity":"waste_basket"}},"type":"Feature"},
	{"geometry":{"coordinates":[13.213408,47.448751],"type":"Point"},"properties":{"osm_id":"4460390529","tag":{"amenity":"waste_basket"}},"type":"Feature"},
	{"geometry":{"coordinates":[13.202024,47.456101],"type":"Point"},"properties":{"osm_id":"4708581033","tag":{"amenity":"waste_basket"}},"type":"Feature"},
	{"geometry":{"coordinates":[13.211717,47.414386],"type":"Point"},"properties":{"osm_id":"5310668057","tag":{"amenity":"recycling","recycling:glass":"yes","recycling_type":"container"}},"type":"Feature"},
	{"geometry":{"coordinates":[13.20678,47.411798],"type":"Point"},"properties":{"osm_id":"5691339525","tag":{"amenity":"waste_basket"}},"type":"Feature"},
	{"geometry":{"coordinates":[13.215668,47.431039],"type":"Point"},"properties":{"osm_id":"5816054126","tag":{"amenity":"waste_basket"}},"type":"Feature"},
	{"geometry":{"coordinates":[13.215702,47.429087],"type":"Point"},"properties":{"osm_id":"5816056741","tag":{"amenity":"waste_basket"}},"type":"Feature"},
	{"geometry":{"coordinates":[13.210365,47.436578],"type":"Point"},"properties":{"osm_id":"5816073490","tag":{"amenity":"waste_basket"}},"type":"Feature"},
	{"geometry":{"coordinates":[13.213211,47.443896],"type":"Point"},"properties":{"osm_id":"5816080471","tag":{"amenity":"waste_basket"}},"type":"Feature"},
	{"geometry":{"coordinates":[13.208288,47.413968],"type":"Point"},"properties":{"osm_id":"5844437489","tag":{"amenity":"waste_basket"}},"type":"Feature"},
	{"geometry":{"coordinates":[13.223685,47.42185],"type":"Point"},"properties":{"osm_id":"6029755471","tag":{"amenity":"waste_basket","amenity_1":"vending_machine","vending":"excrement_bags"}},"type":"Feature"},
	{"geometry":{"coordinates":[13.217766,47.421593],"type":"Point"},"properties":{"osm_id":"6030011719","tag":{"amenity":"waste_basket"}},"type":"Feature"},
	{"geometry":{"coordinates":[13.211216,47.436506],"type":"Point"},"properties":{"osm_id":"7446807702","tag":{"amenity":"waste_basket"}},"type":"Feature"}
]
}
