{
"type": "FeatureCollection",
"features": [
	{"geometry":{"coordinates":[13.186364,32.87498],"type":"Point"},"properties":{"osm_id":"1520257051","tag":{"amenity":"recycling","designation":"everything","recycling_type":"container"}},"type":"Feature"},
	{"geometry":{"coordinates":[13.233733,32.848075],"type":"Point"},"properties":{"osm_id":"4685192090","tag":{"amenity":"waste_basket"}},"type":"Feature"},
	{"geometry":{"coordinates":[13.218339,32.871549],"type":"Point"},"properties":{"osm_id":"5605028237","tag":{"amenity":"waste_disposal"}},"type":"Feature"},
	{"geometry":{"coordinates":[13.185381,32.88657],"type":"Point"},"properties":{"osm_id":"8176063218","tag":{"amenity":"waste_basket"}},"type":"Feature"},
	{"geometry":{"coordinates":[13.185342,32.886551],"type":"Point"},"properties":{"osm_id":"8176063317","tag":{"amenity":"waste_basket"}},"type":"Feature"},
	{"geometry":{"coordinates":[13.185419,32.886577],"type":"Point"},"properties":{"osm_id":"8421896817","tag":{"amenity":"waste_basket"}},"type":"Feature"},
	{"geometry":{"coordinates":[13.198063,32.891233],"type":"Point"},"properties":{"osm_id":"8421896818","tag":{"amenity":"waste_basket"}},"type":"Feature"},
	{"geometry":{"coordinates":[13.195288,32.889884],"type":"Point"},"properties":{"osm_id":"8421897017","tag":{"amenity":"waste_basket"}},"type":"Feature"},
	{"geometry":{"coordinates":[13.195336,32.889862],"type":"Point"},"properties":{"osm_id":"8421897018","tag":{"amenity":"waste_disposal"}},"type":"Feature"},
	{"geometry":{"coordinates":[13.195305,32.889875],"type":"Point"},"properties":{"osm_id":"8421897019","tag":{"amenity":"waste_disposal"}},"type":"Feature"},
	{"geometry":{"coordinates":[13.1981,32.891204],"type":"Point"},"properties":{"osm_id":"8421897020","tag":{"amenity":"waste_disposal"}},"type":"Feature"},
	{"geometry":{"coordinates":[13.204001,32.894842],"type":"Point"},"properties":{"osm_id":"8421897021","tag":{"amenity":"waste_basket"}},"type":"Feature"},
	{"geometry":{"coordinates":[13.197348,32.892152],"type":"Point"},"properties":{"osm_id":"8421897117","tag":{"amenity":"waste_basket"}},"type":"Feature"},
	{"geometry":{"coordinates":[13.197342,32.892212],"type":"Point"},"properties":{"osm_id":"8421897217","tag":{"amenity":"waste_disposal"}},"type":"Feature"}
]
}
