{
"type": "FeatureCollection",
"features": [
	{"geometry":{"coordinates":[-75.86111,41.254112],"type":"Point"},"properties":{"name":"Bielecki Scrap & Recycling Center","osm_id":"6110180978","tag":{"addr:city":"Wilkes-Barre","addr:housenumber":"640","addr:postcode":"18705","addr:state":"PA","addr:street":"North Pennsylvania Avenue","amenity":"recycling","recycling_type":"centre"}},"type":"Feature"},
	{"geometry":{"coordinates":[-75.877145,41.283207],"type":"Point"},"properties":{"osm_id":"9077066728","tag":{"amenity":"waste_basket"}},"type":"Feature"},
	{"geometry":{"coordinates":[-75.92882,41.260283],"type":"Point"},"properties":{"osm_id":"9089521716","tag":{"amenity":"waste_basket"}},"type":"Feature"},
	{"geometry":{"coordinates":[-75.928512,41.261059],"type":"Point"},"properties":{"osm_id":"9089574858","tag":{"amenity":"waste_basket"}},"type":"Feature"},
	{"geometry":{"coordinates":[-75.928994,41.261269],"type":"Point"},"properties":{"osm_id":"9089574868","tag":{"amenity":"waste_basket"}},"type":"Feature"}
]
}
