{
"type": "FeatureCollection",
"features": [
	{"geometry":{"coordinates":[-123.031562,49.322569],"type":"Point"},"properties":{"osm_id":"3262547774","tag":{"amenity":"waste_basket"}},"type":"Feature"},
	{"geometry":{"coordinates":[-122.96303,49.319899],"type":"Point"},"properties":{"osm_id":"4309714053","tag":{"amenity":"waste_basket"}},"type":"Feature"},
	{"geometry":{"coordinates":[-122.964421,49.319458],"type":"Point"},"properties":{"osm_id":"4312097611","tag":{"amenity":"waste_basket"}},"type":"Feature"},
	{"geometry":{"coordinates":[-122.964382,49.31866],"type":"Point"},"properties":{"osm_id":"4312097612","tag":{"amenity":"waste_basket"}},"type":"Feature"},
	{"geometry":{"coordinates":[-122.965999,49.317792],"type":"Point"},"properties":{"osm_id":"4312098969","tag":{"amenity":"waste_basket"}},"type":"Feature"},
	{"geometry":{"coordinates":[-122.966455,49.318564],"type":"Point"},"properties":{"osm_id":"4312099750","tag":{"amenity":"waste_basket"}},"type":"Feature"},
	{"geometry":{"coordinates":[-122.968913,49.309346],"type":"Point"},"properties":{"osm_id":"4325849597","tag":{"amenity":"waste_basket","description":"Bear Proof Bin"}},"type":"Feature"},
	{"geometry":{"coordinates":[-122.961412,49.306165],"type":"Point"},"properties":{"osm_id":"4325849598","tag":{"amenity":"waste_basket","description":"Bear Proof Bin"}},"type":"Feature"},
	{"geometry":{"coordinates":[-122.960593,49.303857],"type":"Point"},"properties":{"osm_id":"4325849599","tag":{"amenity":"waste_basket","description":"Not bear proof"}},"type":"Feature"},
	{"geometry":{"coordinates":[-123.037906,49.304613],"type":"Point"},"properties":{"osm_id":"4418335396","tag":{"amenity":"waste_basket"}},"type":"Feature"},
	{"geometry":{"coordinates":[-123.037633,49.304909],"type":"Point"},"properties":{"osm_id":"4418335397","tag":{"amenity":"waste_basket"}},"type":"Feature"},
	{"geometry":{"coordinates":[-122.960906,49.307151],"type":"Point"},"properties":{"osm_id":"4418335403","tag":{"amenity":"waste_basket"}},"type":"Feature"},
	{"geometry":{"coordinates":[-122.960886,49.308139],"type":"Point"},"properties":{"osm_id":"4418335405","tag":{"amenity":"waste_basket"}},"type":"Feature"},
	{"geometry":{"coordinates":[-122.961147,49.308359],"type":"Point"},"properties":{"osm_id":"4418335406","tag":{"amenity":"waste_basket"}},"type":"Feature"},
	{"geometry":{"coordinates":[-123.018646,49.308469],"type":"Point"},"properties":{"osm_id":"4418335407","tag":{"amenity":"waste_basket"}},"type":"Feature"},
	{"geometry":{"coordinates":[-123.037923,49.308936],"type":"Point"},"properties":{"osm_id":"4418335408","tag":{"amenity":"waste_basket"}},"type":"Feature"},
	{"geometry":{"coordinates":[-123.037807,49.309246],"type":"Point"},"properties":{"osm_id":"4418335409","tag":{"amenity":"waste_basket"}},"type":"Feature"},
	{"geometry":{"coordinates":[-123.030334,49.309975],"type":"Point"},"properties":{"osm_id":"4418335411","tag":{"amenity":"waste_basket"}},"type":"Feature"},
	{"geometry":{"coordinates":[-123.019988,49.310007],"type":"Point"},"properties":{"osm_id":"4418335412","tag":{"amenity":"waste_basket"}},"type":"Feature"},
	{"geometry":{"coordinates":[-123.034479,49.310891],"type":"Point"},"properties":{"osm_id":"4418335413","tag":{"amenity":"waste_basket"}},"type":"Feature"},
	{"geometry":{"coordinates":[-123.004981,49.311076],"type":"Point"},"properties":{"osm_id":"4418335414","tag":{"amenity":"waste_basket"}},"type":"Feature"},
	{"geometry":{"coordinates":[-123.0073,49.311103],"type":"Point"},"properties":{"osm_id":"4418335415","tag":{"amenity":"waste_basket"}},"type":"Feature"},
	{"geometry":{"coordinates":[-123.033191,49.312045],"type":"Point"},"properties":{"osm_id":"4418335416","tag":{"amenity":"waste_basket"}},"type":"Feature"},
	{"geometry":{"coordinates":[-122.997681,49.312575],"type":"Point"},"properties":{"osm_id":"4418335417","tag":{"amenity":"waste_basket"}},"type":"Feature"},
	{"geometry":{"coordinates":[-122.993611,49.313295],"type":"Point"},"properties":{"osm_id":"4418335418","tag":{"amenity":"waste_basket"}},"type":"Feature"},
	{"geometry":{"coordinates":[-122.993574,49.313297],"type":"Point"},"properties":{"osm_id":"4418335419","tag":{"amenity":"waste_basket"}},"type":"Feature"},
	{"geometry":{"coordinates":[-122.997672,49.313328],"type":"Point"},"properties":{"osm_id":"4418335420","tag":{"amenity":"waste_basket"}},"type":"Feature"},
	{"geometry":{"coordinates":[-122.997343,49.313407],"type":"Point"},"properties":{"osm_id":"4418335421","tag":{"amenity":"waste_basket"}},"type":"Feature"},
	{"geometry":{"coordinates":[-122.999799,49.313742],"type":"Point"},"properties":{"osm_id":"4418335423","tag":{"amenity":"waste_basket"}},"type":"Feature"},
	{"geometry":{"coordinates":[-122.984462,49.313962],"type":"Point"},"properties":{"osm_id":"4418335424","tag":{"amenity":"waste_basket"}},"type":"Feature"},
	{"geometry":{"coordinates":[-123.033722,49.315565],"type":"Point"},"properties":{"osm_id":"4418335425","tag":{"amenity":"waste_basket"}},"type":"Feature"},
	{"geometry":{"coordinates":[-123.033722,49.315591],"type":"Point"},"properties":{"osm_id":"4418335426","tag":{"amenity":"waste_basket"}},"type":"Feature"},
	{"geometry":{"coordinates":[-122.973404,49.315642],"type":"Point"},"properties":{"osm_id":"4418335427","tag":{"amenity":"waste_basket"}},"type":"Feature"},
	{"geometry":{"coordinates":[-123.029088,49.315748],"type":"Point"},"properties":{"osm_id":"4418335428","tag":{"amenity":"waste_basket"}},"type":"Feature"},
	{"geometry":{"coordinates":[-123.006964,49.31584],"type":"Point"},"properties":{"osm_id":"4418335429","tag":{"amenity":"waste_basket"}},"type":"Feature"},
	{"geometry":{"coordinates":[-123.032487,49.316069],"type":"Point"},"properties":{"osm_id":"4418335430","tag":{"amenity":"waste_basket"}},"type":"Feature"},
	{"geometry":{"coordinates":[-123.007262,49.31668],"type":"Point"},"properties":{"osm_id":"4418335431","tag":{"amenity":"waste_basket"}},"type":"Feature"},
	{"geometry":{"coordinates":[-123.031532,49.317631],"type":"Point"},"properties":{"osm_id":"4418335436","tag":{"amenity":"waste_basket"}},"type":"Feature"},
	{"geometry":{"coordinates":[-122.961279,49.31783],"type":"Point"},"properties":{"osm_id":"4418335438","tag":{"amenity":"waste_basket"}},"type":"Feature"},
	{"geometry":{"coordinates":[-123.032252,49.318199],"type":"Point"},"properties":{"osm_id":"4418335443","tag":{"amenity":"waste_basket"}},"type":"Feature"},
	{"geometry":{"coordinates":[-123.040789,49.318315],"type":"Point"},"properties":{"osm_id":"4418335444","tag":{"amenity":"waste_basket"}},"type":"Feature"},
	{"geometry":{"coordinates":[-122.963268,49.318581],"type":"Point"},"properties":{"osm_id":"4418335446","tag":{"amenity":"waste_basket"}},"type":"Feature"},
	{"geometry":{"coordinates":[-122.960092,49.319095],"type":"Point"},"properties":{"osm_id":"4418335448","tag":{"amenity":"waste_basket"}},"type":"Feature"},
	{"geometry":{"coordinates":[-122.999131,49.319281],"type":"Point"},"properties":{"osm_id":"4418335450","tag":{"amenity":"waste_basket"}},"type":"Feature"},
	{"geometry":{"coordinates":[-122.962679,49.319961],"type":"Point"},"properties":{"osm_id":"4418335452","tag":{"amenity":"waste_basket"}},"type":"Feature"},
	{"geometry":{"coordinates":[-122.965424,49.319998],"type":"Point"},"properties":{"osm_id":"4418335453","tag":{"amenity":"waste_basket"}},"type":"Feature"},
	{"geometry":{"coordinates":[-122.959464,49.320023],"type":"Point"},"properties":{"osm_id":"4418335454","tag":{"amenity":"waste_basket"}},"type":"Feature"},
	{"geometry":{"coordinates":[-122.966619,49.3201],"type":"Point"},"properties":{"osm_id":"4418335456","tag":{"amenity":"waste_basket"}},"type":"Feature"},
	{"geometry":{"coordinates":[-122.962377,49.320148],"type":"Point"},"properties":{"osm_id":"4418335457","tag":{"amenity":"waste_basket"}},"type":"Feature"},
	{"geometry":{"coordinates":[-122.962415,49.320152],"type":"Point"},"properties":{"osm_id":"4418335458","tag":{"amenity":"waste_basket"}},"type":"Feature"},
	{"geometry":{"coordinates":[-122.967652,49.320265],"type":"Point"},"properties":{"osm_id":"4418335461","tag":{"amenity":"waste_basket"}},"type":"Feature"},
	{"geometry":{"coordinates":[-123.029366,49.320803],"type":"Point"},"properties":{"osm_id":"4418335463","tag":{"amenity":"waste_basket"}},"type":"Feature"},
	{"geometry":{"coordinates":[-123.029247,49.320946],"type":"Point"},"properties":{"osm_id":"4418335464","tag":{"amenity":"waste_basket"}},"type":"Feature"},
	{"geometry":{"coordinates":[-123.03374,49.321183],"type":"Point"},"properties":{"osm_id":"4418335466","tag":{"amenity":"waste_basket"}},"type":"Feature"},
	{"geometry":{"coordinates":[-122.963109,49.321655],"type":"Point"},"properties":{"osm_id":"4418335467","tag":{"amenity":"waste_basket"}},"type":"Feature"},
	{"geometry":{"coordinates":[-123.013665,49.321848],"type":"Point"},"properties":{"osm_id":"4418335469","tag":{"amenity":"waste_basket"}},"type":"Feature"},
	{"geometry":{"coordinates":[-123.028338,49.322488],"type":"Point"},"properties":{"osm_id":"4418335471","tag":{"amenity":"waste_basket"}},"type":"Feature"},
	{"geometry":{"coordinates":[-122.996816,49.323999],"type":"Point"},"properties":{"osm_id":"4418335479","tag":{"amenity":"waste_basket"}},"type":"Feature"},
	{"geometry":{"coordinates":[-122.962093,49.324187],"type":"Point"},"properties":{"osm_id":"4418335480","tag":{"amenity":"waste_basket"}},"type":"Feature"},
	{"geometry":{"coordinates":[-123.02575,49.32483],"type":"Point"},"properties":{"osm_id":"4418335482","tag":{"amenity":"waste_basket"}},"type":"Feature"},
	{"geometry":{"coordinates":[-122.960108,49.325045],"type":"Point"},"properties":{"osm_id":"4418335484","tag":{"amenity":"waste_basket"}},"type":"Feature"},
	{"geometry":{"coordinates":[-122.972165,49.323094],"type":"Point"},"properties":{"osm_id":"4973920836","tag":{"amenity":"recycling","recycling_type":"container"}},"type":"Feature"},
	{"geometry":{"coordinates":[-122.972297,49.323097],"type":"Point"},"properties":{"osm_id":"4973920837","tag":{"amenity":"waste_basket"}},"type":"Feature"},
	{"geometry":{"coordinates":[-123.023063,49.281178],"type":"Point"},"properties":{"osm_id":"5091251924","tag":{"amenity":"waste_basket"}},"type":"Feature"},
	{"geometry":{"coordinates":[-122.970262,49.278831],"type":"Point"},"properties":{"osm_id":"5536938524","tag":{"amenity":"waste_basket"}},"type":"Feature"},
	{"geometry":{"coordinates":[-122.969019,49.279589],"type":"Point"},"properties":{"name":"Kensington Depot","osm_id":"5536942127","tag":{"addr:city":"Burnaby","addr:housenumber":"6518","addr:street":"Hastings Street","amenity":"recycling","opening_hours":"Mo-Su 10:00-05:00","recycling_type":"centre"}},"type":"Feature"},
	{"geometry":{"coordinates":[-123.046127,49.269216],"type":"Point"},"properties":{"osm_id":"5599576380","tag":{"amenity":"recycling","recycling:clothes":"yes","recycling_type":"container"}},"type":"Feature"},
	{"geometry":{"coordinates":[-123.032264,49.310035],"type":"Point"},"properties":{"osm_id":"5761162117","tag":{"amenity":"recycling","recycling:clothes":"yes"}},"type":"Feature"},
	{"geometry":{"coordinates":[-123.031849,49.312192],"type":"Point"},"properties":{"osm_id":"6831888108","tag":{"amenity":"waste_basket"}},"type":"Feature"},
	{"geometry":{"coordinates":[-123.039936,49.308471],"type":"Point"},"properties":{"name":"North Vancouver Bottle & Return-It Depot","osm_id":"7196556956","tag":{"addr:city":"North Vancouver","addr:housenumber":"310","addr:province":"BC","addr:street":"Brooksbank Avenue","amenity":"recycling","building":"commercial","recycling_type":"centre"}},"type":"Feature"},
	{"geometry":{"coordinates":[-122.995707,49.285377],"type":"Point"},"properties":{"osm_id":"7822251672","tag":{"amenity":"waste_basket","operator":"City of Burnaby"}},"type":"Feature"}
]
}
