{
"type": "FeatureCollection",
"features": [
	{"geometry":{"coordinates":[-122.978072,45.521298],"type":"Point"},"properties":{"osm_id":"5937118163","tag":{"amenity":"waste_basket","description":"Public garbage receptacle maintained by the TriMet."}},"type":"Feature"},
	{"geometry":{"coordinates":[-122.97928,45.51868],"type":"Point"},"properties":{"osm_id":"5950320063","tag":{"amenity":"waste_basket","description":"Public garbage receptacle maintained by the TriMet."}},"type":"Feature"},
	{"geometry":{"coordinates":[-123.041,45.512361],"type":"Point"},"properties":{"osm_id":"6880400272","tag":{"amenity":"waste_basket"}},"type":"Feature"},
	{"geometry":{"coordinates":[-123.041244,45.512571],"type":"Point"},"properties":{"osm_id":"6880400273","tag":{"amenity":"waste_basket"}},"type":"Feature"},
	{"geometry":{"coordinates":[-123.045455,45.511636],"type":"Point"},"properties":{"osm_id":"6916388991","tag":{"amenity":"waste_basket"}},"type":"Feature"},
	{"geometry":{"coordinates":[-123.0433,45.509869],"type":"Point"},"properties":{"osm_id":"6916389005","tag":{"amenity":"waste_basket"}},"type":"Feature"},
	{"geometry":{"coordinates":[-123.041387,45.512705],"type":"Point"},"properties":{"osm_id":"6919380809","tag":{"amenity":"waste_basket"}},"type":"Feature"},
	{"geometry":{"coordinates":[-122.988144,45.521464],"type":"Point"},"properties":{"osm_id":"8504967365","tag":{"amenity":"waste_basket"}},"type":"Feature"},
	{"geometry":{"coordinates":[-122.988077,45.521741],"type":"Point"},"properties":{"osm_id":"8504967366","tag":{"amenity":"waste_basket"}},"type":"Feature"},
	{"geometry":{"coordinates":[-122.988077,45.520746],"type":"Point"},"properties":{"osm_id":"8515303203","tag":{"amenity":"waste_basket"}},"type":"Feature"},
	{"geometry":{"coordinates":[-122.987942,45.520746],"type":"Point"},"properties":{"osm_id":"8515303204","tag":{"amenity":"waste_basket"}},"type":"Feature"},
	{"geometry":{"coordinates":[-122.987643,45.52126],"type":"Point"},"properties":{"osm_id":"8515303208","tag":{"amenity":"waste_basket"}},"type":"Feature"},
	{"geometry":{"coordinates":[-122.986139,45.520694],"type":"Point"},"properties":{"osm_id":"8515897645","tag":{"amenity":"waste_basket"}},"type":"Feature"},
	{"geometry":{"coordinates":[-122.985377,45.521378],"type":"Point"},"properties":{"osm_id":"8515897668","tag":{"amenity":"waste_basket"}},"type":"Feature"},
	{"geometry":{"coordinates":[-122.985207,45.521376],"type":"Point"},"properties":{"osm_id":"8515897671","tag":{"amenity":"waste_basket"}},"type":"Feature"},
	{"geometry":{"coordinates":[-122.985003,45.52148],"type":"Point"},"properties":{"osm_id":"8515897672","tag":{"amenity":"waste_basket"}},"type":"Feature"},
	{"geometry":{"coordinates":[-122.985556,45.521488],"type":"Point"},"properties":{"osm_id":"8515897673","tag":{"amenity":"waste_basket"}},"type":"Feature"},
	{"geometry":{"coordinates":[-123.006003,45.51864],"type":"Point"},"properties":{"name":"BottleDrop","osm_id":"8984427915","tag":{"amenity":"recycling","brand":"BottleDrop","brand:wikidata":"Q107673127","operator":"Oregon Beverage Recycling Cooperative","recycling:cans":"yes","recycling:glass_bottles":"yes","recycling:plastic_bottles":"yes","recycling_type":"centre"}},"type":"Feature"}
]
}
