{
"type": "FeatureCollection",
"features": [
	{"geometry":{"coordinates":[-122.994661,44.910995],"type":"Point"},"properties":{"name":"Willamette Valley Recycling","osm_id":"364002504","tag":{"amenity":"recycling"}},"type":"Feature"},
	{"geometry":{"coordinates":[-122.984468,44.952879],"type":"Point"},"properties":{"name":"BottleDrop","osm_id":"8816194985","tag":{"addr:housenumber":"1917","addr:street":"Lancaster Drive Northeast","amenity":"recycling","opening_hours":"Mo-Su 08:00-18:00","recycling:cans":"yes","recycling:glass_bottles":"yes","recycling:plastic_bottles":"yes","recycling_type":"centre"}},"type":"Feature"},
	{"geometry":{"coordinates":[-123.040681,44.940554],"type":"Point"},"properties":{"osm_id":"8906017044","tag":{"amenity":"waste_basket","waste":"trash"}},"type":"Feature"},
	{"geometry":{"coordinates":[-123.027825,44.934874],"type":"Point"},"properties":{"osm_id":"8986982239","tag":{"amenity":"waste_basket","waste":"trash"}},"type":"Feature"},
	{"geometry":{"coordinates":[-123.027917,44.934821],"type":"Point"},"properties":{"osm_id":"8986982245","tag":{"amenity":"waste_basket","waste":"trash"}},"type":"Feature"},
	{"geometry":{"coordinates":[-123.027858,44.935152],"type":"Point"},"properties":{"osm_id":"8986982254","tag":{"amenity":"waste_basket","waste":"trash"}},"type":"Feature"}
]
}
