{
"type": "FeatureCollection",
"features": [
	{"geometry":{"coordinates":[-123.017397,44.062896],"type":"Point"},"properties":{"osm_id":"5207162203","tag":{"amenity":"recycling","recycling_type":"container"}},"type":"Feature"},
	{"geometry":{"coordinates":[-123.020025,44.063909],"type":"Point"},"properties":{"osm_id":"5250643011","tag":{"access":"private","amenity":"waste_disposal"}},"type":"Feature"},
	{"geometry":{"coordinates":[-123.020683,44.063991],"type":"Point"},"properties":{"osm_id":"5250643012","tag":{"access":"private","amenity":"recycling","recycling_type":"container"}},"type":"Feature"},
	{"geometry":{"coordinates":[-123.021395,44.063922],"type":"Point"},"properties":{"osm_id":"5250643013","tag":{"access":"private","amenity":"waste_disposal"}},"type":"Feature"},
	{"geometry":{"coordinates":[-123.02846,44.049236],"type":"Point"},"properties":{"osm_id":"5557459206","tag":{"amenity":"waste_basket","description":"Public garbage receptacle maintained by the City of Springfield."}},"type":"Feature"},
	{"geometry":{"coordinates":[-123.034649,44.049107],"type":"Point"},"properties":{"osm_id":"6037206840","tag":{"amenity":"waste_basket","description":"Public Garbage Receptacle"}},"type":"Feature"},
	{"geometry":{"coordinates":[-122.96584,44.072421],"type":"Point"},"properties":{"osm_id":"6451041211","tag":{"amenity":"waste_disposal","waste_disposal":"dumpster"}},"type":"Feature"},
	{"geometry":{"coordinates":[-123.03537,44.04905],"type":"Point"},"properties":{"osm_id":"6468360658","tag":{"amenity":"waste_basket"}},"type":"Feature"},
	{"geometry":{"coordinates":[-123.007004,44.054106],"type":"Point"},"properties":{"osm_id":"6838352089","tag":{"amenity":"waste_basket"}},"type":"Feature"},
	{"geometry":{"coordinates":[-123.004172,44.053499],"type":"Point"},"properties":{"osm_id":"6917116686","tag":{"amenity":"waste_basket"}},"type":"Feature"},
	{"geometry":{"coordinates":[-123.036042,44.049053],"type":"Point"},"properties":{"osm_id":"7155192885","tag":{"amenity":"waste_basket"}},"type":"Feature"},
	{"geometry":{"coordinates":[-123.04392,44.047694],"type":"Point"},"properties":{"osm_id":"7155193086","tag":{"amenity":"waste_basket","tourism":"information"}},"type":"Feature"},
	{"geometry":{"coordinates":[-122.998721,44.05319],"type":"Point"},"properties":{"osm_id":"7578287987","tag":{"amenity":"waste_basket"}},"type":"Feature"},
	{"geometry":{"coordinates":[-123.019883,44.047476],"type":"Point"},"properties":{"osm_id":"7578446885","tag":{"amenity":"waste_basket"}},"type":"Feature"},
	{"geometry":{"coordinates":[-122.977053,44.051075],"type":"Point"},"properties":{"osm_id":"7801495485","tag":{"amenity":"waste_basket"}},"type":"Feature"},
	{"geometry":{"coordinates":[-123.022197,44.063828],"type":"Point"},"properties":{"osm_id":"7891666388","tag":{"access":"private","amenity":"waste_disposal"}},"type":"Feature"},
	{"geometry":{"coordinates":[-123.022185,44.064564],"type":"Point"},"properties":{"osm_id":"7891666389","tag":{"access":"private","amenity":"waste_disposal"}},"type":"Feature"}
]
}
