{
"type": "FeatureCollection",
"features": [
	{"geometry":{"coordinates":[10.712095,63.434613],"type":"Point"},"properties":{"osm_id":"3677152839","tag":{"amenity":"waste_basket"}},"type":"Feature"},
	{"geometry":{"coordinates":[10.708015,63.434496],"type":"Point"},"properties":{"osm_id":"3677152840","tag":{"amenity":"waste_basket"}},"type":"Feature"},
	{"geometry":{"coordinates":[10.71188,63.43287],"type":"Point"},"properties":{"osm_id":"3677152842","tag":{"amenity":"waste_basket"}},"type":"Feature"},
	{"geometry":{"coordinates":[10.711789,63.433077],"type":"Point"},"properties":{"osm_id":"3677152843","tag":{"amenity":"waste_basket"}},"type":"Feature"},
	{"geometry":{"coordinates":[10.70845,63.433019],"type":"Point"},"properties":{"osm_id":"3677153840","tag":{"amenity":"waste_basket"}},"type":"Feature"},
	{"geometry":{"coordinates":[10.704911,63.433457],"type":"Point"},"properties":{"osm_id":"3677153841","tag":{"amenity":"waste_basket"}},"type":"Feature"},
	{"geometry":{"coordinates":[10.708469,63.434728],"type":"Point"},"properties":{"osm_id":"3677153842","tag":{"amenity":"waste_basket"}},"type":"Feature"},
	{"geometry":{"coordinates":[10.70701,63.434834],"type":"Point"},"properties":{"osm_id":"3677156196","tag":{"amenity":"waste_basket"}},"type":"Feature"},
	{"geometry":{"coordinates":[10.707263,63.433644],"type":"Point"},"properties":{"osm_id":"3677156940","tag":{"amenity":"waste_basket"}},"type":"Feature"},
	{"geometry":{"coordinates":[10.709564,63.435328],"type":"Point"},"properties":{"osm_id":"3677157158","tag":{"amenity":"waste_basket"}},"type":"Feature"},
	{"geometry":{"coordinates":[10.711312,63.433717],"type":"Point"},"properties":{"osm_id":"3677157159","tag":{"amenity":"waste_basket"}},"type":"Feature"},
	{"geometry":{"coordinates":[10.710172,63.43288],"type":"Point"},"properties":{"osm_id":"3677157160","tag":{"amenity":"waste_basket"}},"type":"Feature"},
	{"geometry":{"coordinates":[10.710765,63.43486],"type":"Point"},"properties":{"osm_id":"3677157227","tag":{"amenity":"waste_basket"}},"type":"Feature"},
	{"geometry":{"coordinates":[10.709354,63.434935],"type":"Point"},"properties":{"osm_id":"3677157228","tag":{"amenity":"waste_basket"}},"type":"Feature"},
	{"geometry":{"coordinates":[10.710243,63.434547],"type":"Point"},"properties":{"osm_id":"3677157229","tag":{"amenity":"waste_basket"}},"type":"Feature"},
	{"geometry":{"coordinates":[10.711573,63.432702],"type":"Point"},"properties":{"osm_id":"3677157230","tag":{"amenity":"waste_basket"}},"type":"Feature"},
	{"geometry":{"coordinates":[10.709013,63.432969],"type":"Point"},"properties":{"osm_id":"3677157231","tag":{"amenity":"waste_basket"}},"type":"Feature"},
	{"geometry":{"coordinates":[10.706821,63.433277],"type":"Point"},"properties":{"osm_id":"3677157232","tag":{"amenity":"waste_basket"}},"type":"Feature"},
	{"geometry":{"coordinates":[10.707843,63.434226],"type":"Point"},"properties":{"osm_id":"3677157233","tag":{"amenity":"waste_basket"}},"type":"Feature"},
	{"geometry":{"coordinates":[10.657998,63.437883],"type":"Point"},"properties":{"osm_id":"3688880652","tag":{"amenity":"recycling","location":"overground","recycling_type":"container"}},"type":"Feature"},
	{"geometry":{"coordinates":[10.659479,63.438426],"type":"Point"},"properties":{"osm_id":"5555190891","tag":{"access":"permissive","amenity":"recycling","description":"Hauganvegen","recycling:waste":"yes","recycling_type":"container","ref:sortere":"19743"}},"type":"Feature"},
	{"geometry":{"coordinates":[10.642438,63.431975],"type":"Point"},"properties":{"osm_id":"6195508660","tag":{"amenity":"recycling","description":"Vikhammer\u00c3\u00a5sen","recycling:glass_bottles":"yes","recycling_type":"container","ref:sortere":"21899"}},"type":"Feature"}
]
}
