{
"type": "FeatureCollection",
"features": [
	{"geometry":{"coordinates":[10.671656,54.026241],"type":"Point"},"properties":{"osm_id":"292822282","tag":{"amenity":"recycling","check_date":"2017-03-29","recycling:clothes":"yes","recycling:glass":"yes","recycling_type":"container"}},"type":"Feature"},
	{"geometry":{"coordinates":[10.674372,54.04619],"type":"Point"},"properties":{"osm_id":"386912046","tag":{"amenity":"recycling","check_date":"2020-07-12","recycling:clothes":"yes","recycling:glass_bottles":"yes","recycling:paper":"yes","recycling_type":"container"}},"type":"Feature"},
	{"geometry":{"coordinates":[10.6601,54.03675],"type":"Point"},"properties":{"osm_id":"386912093","tag":{"amenity":"recycling","check_date":"2020-09-06","recycling:glass_bottles":"yes","recycling:paper":"yes","recycling_type":"container"}},"type":"Feature"},
	{"geometry":{"coordinates":[10.704513,54.038957],"type":"Point"},"properties":{"osm_id":"386912170","tag":{"amenity":"recycling","check_date":"2020-07-12","recycling:glass_bottles":"yes","recycling_type":"container"}},"type":"Feature"},
	{"geometry":{"coordinates":[10.688163,54.011774],"type":"Point"},"properties":{"name":"Kompostier- und H\u00c3\u00a4ckselanlage Gut Kattenh\u00c3\u00b6hlen","osm_id":"412159851","tag":{"addr:city":"Scharbeutz","addr:country":"DE","addr:postcode":"23684","addr:street":"Dorfstra\u00c3\u009fe","addr:suburb":"Schulendorf","amenity":"recycling","recycling:green_waste":"yes","recycling_type":"centre"}},"type":"Feature"},
	{"geometry":{"coordinates":[10.650647,54.040609],"type":"Point"},"properties":{"osm_id":"473146683","tag":{"amenity":"recycling","check_date":"2019-05-06","recycling:paper":"yes","recycling_type":"container"}},"type":"Feature"},
	{"geometry":{"coordinates":[10.684556,54.058945],"type":"Point"},"properties":{"osm_id":"722978537","tag":{"amenity":"recycling","check_date":"2018-09-15","recycling:glass":"yes","recycling_type":"container"}},"type":"Feature"},
	{"geometry":{"coordinates":[10.718355,54.051276],"type":"Point"},"properties":{"osm_id":"815131439","tag":{"amenity":"waste_basket","check_date":"2017-04-20"}},"type":"Feature"},
	{"geometry":{"coordinates":[10.710781,54.047174],"type":"Point"},"properties":{"osm_id":"815131465","tag":{"amenity":"waste_basket"}},"type":"Feature"},
	{"geometry":{"coordinates":[10.713087,54.033862],"type":"Point"},"properties":{"osm_id":"1707030680","tag":{"amenity":"waste_basket"}},"type":"Feature"},
	{"geometry":{"coordinates":[10.711542,54.032025],"type":"Point"},"properties":{"osm_id":"1707030685","tag":{"amenity":"waste_basket"}},"type":"Feature"},
	{"geometry":{"coordinates":[10.683006,54.055717],"type":"Point"},"properties":{"osm_id":"2259827423","tag":{"amenity":"recycling","check_date":"2017-04-17","recycling:clothes":"yes","recycling_type":"container"}},"type":"Feature"},
	{"geometry":{"coordinates":[10.677407,54.017468],"type":"Point"},"properties":{"osm_id":"2358298600","tag":{"amenity":"waste_basket"}},"type":"Feature"},
	{"geometry":{"coordinates":[10.644925,54.01635],"type":"Point"},"properties":{"osm_id":"2393026007","tag":{"amenity":"recycling","check_date":"2019-07-07","recycling:glass_bottles":"yes","recycling_type":"container"}},"type":"Feature"},
	{"geometry":{"coordinates":[10.656517,54.038478],"type":"Point"},"properties":{"osm_id":"4916791594","tag":{"amenity":"recycling","check_date":"2020-09-06","recycling:glass_bottles":"yes","recycling_type":"container"}},"type":"Feature"},
	{"geometry":{"coordinates":[10.697594,54.038255],"type":"Point"},"properties":{"osm_id":"7650359964","tag":{"amenity":"waste_basket","waste":"trash"}},"type":"Feature"},
	{"geometry":{"coordinates":[10.700214,54.037723],"type":"Point"},"properties":{"osm_id":"7650359966","tag":{"amenity":"waste_basket","waste":"trash"}},"type":"Feature"},
	{"geometry":{"coordinates":[10.700472,54.035994],"type":"Point"},"properties":{"osm_id":"7650359967","tag":{"amenity":"waste_basket","waste":"trash"}},"type":"Feature"},
	{"geometry":{"coordinates":[10.698857,54.034859],"type":"Point"},"properties":{"osm_id":"7650359969","tag":{"amenity":"waste_basket","waste":"trash"}},"type":"Feature"},
	{"geometry":{"coordinates":[10.700781,54.033743],"type":"Point"},"properties":{"osm_id":"7650359970","tag":{"amenity":"waste_basket","waste":"trash"}},"type":"Feature"},
	{"geometry":{"coordinates":[10.701401,54.033176],"type":"Point"},"properties":{"osm_id":"7650359971","tag":{"amenity":"waste_basket","waste":"trash"}},"type":"Feature"},
	{"geometry":{"coordinates":[10.701851,54.032501],"type":"Point"},"properties":{"osm_id":"7650359972","tag":{"amenity":"waste_basket","waste":"trash"}},"type":"Feature"},
	{"geometry":{"coordinates":[10.702095,54.032051],"type":"Point"},"properties":{"osm_id":"7650359973","tag":{"amenity":"waste_basket","waste":"trash"}},"type":"Feature"}
]
}
