{
"type": "FeatureCollection",
"features": [
	{"geometry":{"coordinates":[10.698275,53.924007],"type":"Point"},"properties":{"osm_id":"359604149","tag":{"amenity":"recycling","check_date":"2016-09-28","recycling:glass_bottles":"yes","recycling:paper":"yes","recycling_type":"container"}},"type":"Feature"},
	{"geometry":{"coordinates":[10.636843,53.928117],"type":"Point"},"properties":{"osm_id":"361108244","tag":{"amenity":"recycling","recycling:glass_bottles":"yes","recycling_type":"container"}},"type":"Feature"},
	{"geometry":{"coordinates":[10.721765,53.922303],"type":"Point"},"properties":{"osm_id":"380410743","tag":{"amenity":"recycling","check_date":"2020-03-10","recycling:clothes":"yes","recycling:glass":"yes","recycling:paper":"yes","recycling_type":"container"}},"type":"Feature"},
	{"geometry":{"coordinates":[10.716005,53.918486],"type":"Point"},"properties":{"osm_id":"380800661","tag":{"amenity":"recycling","recycling_type":"container"}},"type":"Feature"},
	{"geometry":{"coordinates":[10.697887,53.922152],"type":"Point"},"properties":{"osm_id":"409767244","tag":{"amenity":"recycling","check_date":"2016-08-19","operator":"Vorwerker Diakonie","recycling:clothes":"yes","recycling_type":"container"}},"type":"Feature"},
	{"geometry":{"coordinates":[10.706426,53.916309],"type":"Point"},"properties":{"osm_id":"566421065","tag":{"amenity":"recycling","check_date":"2016-02-12","recycling:clothes":"yes","recycling:shoes":"yes"}},"type":"Feature"},
	{"geometry":{"coordinates":[10.693489,53.917049],"type":"Point"},"properties":{"osm_id":"1281499210","tag":{"amenity":"recycling","recycling:cardboard":"yes","recycling:glass":"yes","recycling:glass_bottles":"yes","recycling:magazines":"yes","recycling:newspaper":"yes","recycling:paper":"yes","recycling:paper_packaging":"yes","recycling_type":"container"}},"type":"Feature"},
	{"geometry":{"coordinates":[10.684746,53.905449],"type":"Point"},"properties":{"osm_id":"1448519061","tag":{"amenity":"waste_basket"}},"type":"Feature"},
	{"geometry":{"coordinates":[10.720962,53.935402],"type":"Point"},"properties":{"osm_id":"1835026920","tag":{"amenity":"recycling","check_date":"2018-10-24","recycling:glass_bottles":"yes","recycling_type":"container"}},"type":"Feature"},
	{"geometry":{"coordinates":[10.692584,53.91328],"type":"Point"},"properties":{"osm_id":"2207889917","tag":{"amenity":"recycling","operator":"Vorwerker Diakonie","recycling:clothes":"yes","recycling_type":"container"}},"type":"Feature"},
	{"geometry":{"coordinates":[10.701762,53.92831],"type":"Point"},"properties":{"osm_id":"2268010653","tag":{"amenity":"waste_basket"}},"type":"Feature"},
	{"geometry":{"coordinates":[10.699047,53.929051],"type":"Point"},"properties":{"osm_id":"2268010654","tag":{"amenity":"waste_basket"}},"type":"Feature"},
	{"geometry":{"coordinates":[10.702704,53.932678],"type":"Point"},"properties":{"osm_id":"2268010657","tag":{"amenity":"waste_basket"}},"type":"Feature"},
	{"geometry":{"coordinates":[10.702545,53.919074],"type":"Point"},"properties":{"osm_id":"2423876816","tag":{"amenity":"waste_basket"}},"type":"Feature"},
	{"geometry":{"coordinates":[10.705997,53.91957],"type":"Point"},"properties":{"osm_id":"2485611666","tag":{"amenity":"waste_basket"}},"type":"Feature"},
	{"geometry":{"coordinates":[10.702293,53.920406],"type":"Point"},"properties":{"osm_id":"2604310208","tag":{"amenity":"waste_basket"}},"type":"Feature"},
	{"geometry":{"coordinates":[10.703293,53.920854],"type":"Point"},"properties":{"osm_id":"2604310211","tag":{"amenity":"waste_basket"}},"type":"Feature"},
	{"geometry":{"coordinates":[10.702489,53.920975],"type":"Point"},"properties":{"osm_id":"2604310214","tag":{"amenity":"waste_basket"}},"type":"Feature"},
	{"geometry":{"coordinates":[10.703676,53.921139],"type":"Point"},"properties":{"osm_id":"2604310215","tag":{"amenity":"waste_basket"}},"type":"Feature"},
	{"geometry":{"coordinates":[10.704114,53.921639],"type":"Point"},"properties":{"osm_id":"2604310218","tag":{"amenity":"waste_basket"}},"type":"Feature"},
	{"geometry":{"coordinates":[10.701742,53.921699],"type":"Point"},"properties":{"osm_id":"2604310221","tag":{"amenity":"waste_basket"}},"type":"Feature"},
	{"geometry":{"coordinates":[10.704028,53.921962],"type":"Point"},"properties":{"osm_id":"2604310225","tag":{"amenity":"waste_basket"}},"type":"Feature"},
	{"geometry":{"coordinates":[10.703985,53.92281],"type":"Point"},"properties":{"osm_id":"2604310230","tag":{"amenity":"waste_basket"}},"type":"Feature"},
	{"geometry":{"coordinates":[10.664146,53.922169],"type":"Point"},"properties":{"name":"Recyclinghof S\u00c3\u00bcd","osm_id":"2929425208","tag":{"addr:city":"Bad Schwartau","addr:country":"DE","addr:housenumber":"13","addr:postcode":"23611","addr:street":"Loog","amenity":"recycling","opening_hours":"Mo-Th 07:30-16:00; Fr 07:30-18:00;Sa 08:00-13:00; PH off","operator":"ZVO Entsorgung GmbH","recycling_type":"centre"}},"type":"Feature"},
	{"geometry":{"coordinates":[10.71348,53.918383],"type":"Point"},"properties":{"osm_id":"3061332452","tag":{"amenity":"recycling","check_date":"2020-01-20","operator":"Vorwerker Diakonie","recycling:clothes":"yes","recycling_type":"container"}},"type":"Feature"},
	{"geometry":{"coordinates":[10.664779,53.921968],"type":"Point"},"properties":{"osm_id":"3506044132","tag":{"amenity":"recycling","operator":"ZVO Entsorgung GmbH","recycling:glass":"yes","recycling:paper":"yes","recycling_type":"container"}},"type":"Feature"},
	{"geometry":{"coordinates":[10.65688,53.940473],"type":"Point"},"properties":{"osm_id":"3612674443","tag":{"amenity":"recycling","recycling:paper":"yes","recycling_type":"container"}},"type":"Feature"},
	{"geometry":{"coordinates":[10.689361,53.926691],"type":"Point"},"properties":{"osm_id":"4337639881","tag":{"amenity":"recycling","check_date":"2016-08-05","recycling:clothes":"yes","recycling_type":"container"}},"type":"Feature"},
	{"geometry":{"coordinates":[10.707194,53.928632],"type":"Point"},"properties":{"osm_id":"4362345162","tag":{"amenity":"waste_basket"}},"type":"Feature"}
]
}
