{
"type": "FeatureCollection",
"features": [
	{"geometry":{"coordinates":[10.685352,52.598647],"type":"Point"},"properties":{"osm_id":"2286371917","tag":{"amenity":"waste_basket"}},"type":"Feature"},
	{"geometry":{"coordinates":[10.685152,52.598692],"type":"Point"},"properties":{"osm_id":"2286371918","tag":{"amenity":"waste_basket"}},"type":"Feature"},
	{"geometry":{"coordinates":[10.708919,52.634175],"type":"Point"},"properties":{"osm_id":"2326023774","tag":{"amenity":"waste_basket"}},"type":"Feature"},
	{"geometry":{"coordinates":[10.719831,52.635013],"type":"Point"},"properties":{"osm_id":"2326023810","tag":{"amenity":"waste_basket"}},"type":"Feature"},
	{"geometry":{"coordinates":[10.680609,52.603579],"type":"Point"},"properties":{"osm_id":"2389922633","tag":{"amenity":"waste_disposal"}},"type":"Feature"},
	{"geometry":{"coordinates":[10.634863,52.628181],"type":"Point"},"properties":{"osm_id":"3093776071","tag":{"amenity":"waste_basket"}},"type":"Feature"},
	{"geometry":{"coordinates":[10.698544,52.594871],"type":"Point"},"properties":{"osm_id":"4017464742","tag":{"amenity":"waste_basket"}},"type":"Feature"},
	{"geometry":{"coordinates":[10.688892,52.623483],"type":"Point"},"properties":{"osm_id":"4030112393","tag":{"amenity":"waste_basket"}},"type":"Feature"},
	{"geometry":{"coordinates":[10.688687,52.623606],"type":"Point"},"properties":{"osm_id":"4030112395","tag":{"amenity":"recycling","opening_hours":"Mo-Sa 08:00-20:00","recycling:glass":"yes","recycling:shoes":"yes","recycling_type":"container"}},"type":"Feature"},
	{"geometry":{"coordinates":[10.689098,52.623768],"type":"Point"},"properties":{"osm_id":"6520849764","tag":{"amenity":"waste_basket"}},"type":"Feature"}
]
}
