{
"type": "FeatureCollection",
"features": [
	{"geometry":{"coordinates":[10.665671,52.562642],"type":"Point"},"properties":{"osm_id":"1460982546","tag":{"amenity":"waste_basket"}},"type":"Feature"},
	{"geometry":{"coordinates":[10.642407,52.583477],"type":"Point"},"properties":{"osm_id":"1486111321","tag":{"amenity":"waste_basket","description":"steht im Geb\u00c3\u00bcsch"}},"type":"Feature"},
	{"geometry":{"coordinates":[10.669329,52.560705],"type":"Point"},"properties":{"osm_id":"1792951942","tag":{"amenity":"waste_basket"}},"type":"Feature"},
	{"geometry":{"coordinates":[10.670359,52.561036],"type":"Point"},"properties":{"osm_id":"1792952042","tag":{"amenity":"waste_basket"}},"type":"Feature"},
	{"geometry":{"coordinates":[10.67791,52.556111],"type":"Point"},"properties":{"osm_id":"1825808896","tag":{"amenity":"recycling","opening_hours":"Mo-Sa 07:00-20:00","recycling:clothes":"yes","recycling:glass":"yes","recycling:glass_bottles":"yes","recycling:shoes":"yes","recycling_type":"container","wheelchair":"yes"}},"type":"Feature"},
	{"geometry":{"coordinates":[10.713228,52.543589],"type":"Point"},"properties":{"osm_id":"1902853702","tag":{"amenity":"waste_basket"}},"type":"Feature"},
	{"geometry":{"coordinates":[10.69983,52.548081],"type":"Point"},"properties":{"osm_id":"2128684381","tag":{"amenity":"recycling","recycling:clothes":"yes","recycling_type":"container"}},"type":"Feature"},
	{"geometry":{"coordinates":[10.699492,52.547731],"type":"Point"},"properties":{"osm_id":"2128684385","tag":{"amenity":"waste_basket"}},"type":"Feature"},
	{"geometry":{"coordinates":[10.699636,52.547943],"type":"Point"},"properties":{"osm_id":"2128684387","tag":{"amenity":"waste_basket"}},"type":"Feature"},
	{"geometry":{"coordinates":[10.690186,52.544907],"type":"Point"},"properties":{"osm_id":"2187597107","tag":{"amenity":"waste_basket"}},"type":"Feature"},
	{"geometry":{"coordinates":[10.710601,52.547605],"type":"Point"},"properties":{"osm_id":"2187597222","tag":{"amenity":"waste_basket"}},"type":"Feature"},
	{"geometry":{"coordinates":[10.708581,52.549467],"type":"Point"},"properties":{"osm_id":"2187597301","tag":{"amenity":"waste_basket"}},"type":"Feature"},
	{"geometry":{"coordinates":[10.665573,52.562519],"type":"Point"},"properties":{"osm_id":"2299486608","tag":{"amenity":"waste_basket"}},"type":"Feature"},
	{"geometry":{"coordinates":[10.695926,52.549372],"type":"Point"},"properties":{"osm_id":"2329319246","tag":{"amenity":"waste_basket"}},"type":"Feature"},
	{"geometry":{"coordinates":[10.674737,52.555797],"type":"Point"},"properties":{"osm_id":"2347698634","tag":{"amenity":"waste_basket"}},"type":"Feature"},
	{"geometry":{"coordinates":[10.663744,52.554833],"type":"Point"},"properties":{"osm_id":"2357215639","tag":{"amenity":"waste_basket"}},"type":"Feature"},
	{"geometry":{"coordinates":[10.71802,52.539351],"type":"Point"},"properties":{"osm_id":"2376135616","tag":{"amenity":"waste_basket"}},"type":"Feature"},
	{"geometry":{"coordinates":[10.702861,52.548603],"type":"Point"},"properties":{"osm_id":"2461436105","tag":{"amenity":"recycling","recycling:clothes":"yes","recycling_type":"container"}},"type":"Feature"},
	{"geometry":{"coordinates":[10.675671,52.557066],"type":"Point"},"properties":{"osm_id":"2536102947","tag":{"amenity":"waste_basket"}},"type":"Feature"},
	{"geometry":{"coordinates":[10.670438,52.559982],"type":"Point"},"properties":{"osm_id":"2649713679","tag":{"amenity":"waste_basket"}},"type":"Feature"},
	{"geometry":{"coordinates":[10.718301,52.554968],"type":"Point"},"properties":{"osm_id":"2683046373","tag":{"amenity":"waste_basket"}},"type":"Feature"},
	{"geometry":{"coordinates":[10.718746,52.555095],"type":"Point"},"properties":{"osm_id":"2683046374","tag":{"amenity":"waste_basket"}},"type":"Feature"},
	{"geometry":{"coordinates":[10.711965,52.544718],"type":"Point"},"properties":{"osm_id":"2791977293","tag":{"amenity":"waste_basket"}},"type":"Feature"},
	{"geometry":{"coordinates":[10.71005,52.55035],"type":"Point"},"properties":{"osm_id":"2925517259","tag":{"amenity":"waste_basket"}},"type":"Feature"},
	{"geometry":{"coordinates":[10.709773,52.550412],"type":"Point"},"properties":{"osm_id":"2925517262","tag":{"amenity":"waste_basket"}},"type":"Feature"},
	{"geometry":{"coordinates":[10.668877,52.560802],"type":"Point"},"properties":{"osm_id":"3077900177","tag":{"amenity":"waste_basket"}},"type":"Feature"},
	{"geometry":{"coordinates":[10.668476,52.560907],"type":"Point"},"properties":{"osm_id":"3077901898","tag":{"amenity":"waste_basket"}},"type":"Feature"},
	{"geometry":{"coordinates":[10.701971,52.548223],"type":"Point"},"properties":{"osm_id":"3155771936","tag":{"amenity":"waste_basket"}},"type":"Feature"},
	{"geometry":{"coordinates":[10.67783,52.566138],"type":"Point"},"properties":{"osm_id":"3156885842","tag":{"amenity":"waste_basket"}},"type":"Feature"},
	{"geometry":{"coordinates":[10.677716,52.566146],"type":"Point"},"properties":{"osm_id":"3156885844","tag":{"amenity":"waste_basket"}},"type":"Feature"},
	{"geometry":{"coordinates":[10.67818,52.56627],"type":"Point"},"properties":{"osm_id":"3156885885","tag":{"amenity":"waste_basket"}},"type":"Feature"},
	{"geometry":{"coordinates":[10.676686,52.554095],"type":"Point"},"properties":{"osm_id":"3282508696","tag":{"amenity":"waste_basket","waste":"trash"}},"type":"Feature"},
	{"geometry":{"coordinates":[10.670262,52.560936],"type":"Point"},"properties":{"osm_id":"3365896606","tag":{"amenity":"waste_basket"}},"type":"Feature"},
	{"geometry":{"coordinates":[10.696557,52.548105],"type":"Point"},"properties":{"osm_id":"3427370530","tag":{"amenity":"waste_basket"}},"type":"Feature"},
	{"geometry":{"coordinates":[10.715513,52.550394],"type":"Point"},"properties":{"osm_id":"3883874691","tag":{"amenity":"waste_basket"}},"type":"Feature"},
	{"geometry":{"coordinates":[10.675365,52.56422],"type":"Point"},"properties":{"osm_id":"3950351337","tag":{"amenity":"recycling","opening_hours":"24/7","recycling:glass_bottles":"yes","recycling_type":"container","wheelchair":"yes"}},"type":"Feature"},
	{"geometry":{"coordinates":[10.674604,52.55601],"type":"Point"},"properties":{"osm_id":"3984806359","tag":{"amenity":"waste_basket"}},"type":"Feature"},
	{"geometry":{"coordinates":[10.665822,52.561445],"type":"Point"},"properties":{"osm_id":"3995919534","tag":{"amenity":"waste_basket"}},"type":"Feature"},
	{"geometry":{"coordinates":[10.665305,52.561594],"type":"Point"},"properties":{"osm_id":"3995919539","tag":{"amenity":"waste_basket"}},"type":"Feature"},
	{"geometry":{"coordinates":[10.66534,52.558663],"type":"Point"},"properties":{"osm_id":"3995966557","tag":{"amenity":"waste_basket"}},"type":"Feature"},
	{"geometry":{"coordinates":[10.665785,52.558575],"type":"Point"},"properties":{"osm_id":"4016057420","tag":{"amenity":"waste_basket"}},"type":"Feature"},
	{"geometry":{"coordinates":[10.664757,52.560079],"type":"Point"},"properties":{"osm_id":"4016057442","tag":{"amenity":"waste_basket"}},"type":"Feature"},
	{"geometry":{"coordinates":[10.665101,52.560489],"type":"Point"},"properties":{"osm_id":"4016057447","tag":{"amenity":"waste_basket"}},"type":"Feature"},
	{"geometry":{"coordinates":[10.665378,52.560642],"type":"Point"},"properties":{"osm_id":"4016057448","tag":{"amenity":"waste_basket"}},"type":"Feature"},
	{"geometry":{"coordinates":[10.669337,52.55832],"type":"Point"},"properties":{"osm_id":"4016178162","tag":{"amenity":"waste_basket"}},"type":"Feature"},
	{"geometry":{"coordinates":[10.66724,52.558449],"type":"Point"},"properties":{"osm_id":"4016178176","tag":{"amenity":"waste_basket"}},"type":"Feature"},
	{"geometry":{"coordinates":[10.705416,52.541576],"type":"Point"},"properties":{"osm_id":"4041936628","tag":{"amenity":"waste_basket","start_date":"2015"}},"type":"Feature"},
	{"geometry":{"coordinates":[10.668134,52.561046],"type":"Point"},"properties":{"osm_id":"4213331394","tag":{"amenity":"waste_basket"}},"type":"Feature"},
	{"geometry":{"coordinates":[10.668271,52.556084],"type":"Point"},"properties":{"osm_id":"4810084864","tag":{"amenity":"waste_basket"}},"type":"Feature"},
	{"geometry":{"coordinates":[10.667864,52.561242],"type":"Point"},"properties":{"osm_id":"5936381975","tag":{"amenity":"waste_basket"}},"type":"Feature"},
	{"geometry":{"coordinates":[10.667451,52.561719],"type":"Point"},"properties":{"osm_id":"5936381977","tag":{"amenity":"waste_basket"}},"type":"Feature"},
	{"geometry":{"coordinates":[10.667668,52.561487],"type":"Point"},"properties":{"osm_id":"5936381979","tag":{"amenity":"waste_basket"}},"type":"Feature"},
	{"geometry":{"coordinates":[10.719294,52.553421],"type":"Point"},"properties":{"osm_id":"5949142403","tag":{"amenity":"waste_basket","waste":"trash"}},"type":"Feature"},
	{"geometry":{"coordinates":[10.660473,52.556759],"type":"Point"},"properties":{"osm_id":"6052927115","tag":{"amenity":"waste_basket","waste":"trash"}},"type":"Feature"},
	{"geometry":{"coordinates":[10.676594,52.553959],"type":"Point"},"properties":{"osm_id":"6194624244","tag":{"amenity":"waste_basket","waste":"trash"}},"type":"Feature"},
	{"geometry":{"coordinates":[10.702477,52.547511],"type":"Point"},"properties":{"osm_id":"6343066336","tag":{"amenity":"waste_basket"}},"type":"Feature"},
	{"geometry":{"coordinates":[10.702078,52.547801],"type":"Point"},"properties":{"osm_id":"6343066337","tag":{"amenity":"waste_basket"}},"type":"Feature"},
	{"geometry":{"coordinates":[10.702078,52.548116],"type":"Point"},"properties":{"osm_id":"6343066338","tag":{"amenity":"waste_basket"}},"type":"Feature"},
	{"geometry":{"coordinates":[10.694979,52.549817],"type":"Point"},"properties":{"osm_id":"6343066340","tag":{"amenity":"waste_basket"}},"type":"Feature"}
]
}
