{
"type": "FeatureCollection",
"features": [
	{"geometry":{"coordinates":[10.690485,52.415222],"type":"Point"},"properties":{"osm_id":"247460772","tag":{"amenity":"recycling","recycling:paper":"yes","recycling_type":"container"}},"type":"Feature"},
	{"geometry":{"coordinates":[10.653603,52.38293],"type":"Point"},"properties":{"osm_id":"255298345","tag":{"amenity":"recycling","recycling_type":"container"}},"type":"Feature"},
	{"geometry":{"coordinates":[10.709024,52.414201],"type":"Point"},"properties":{"osm_id":"293934275","tag":{"amenity":"recycling"}},"type":"Feature"},
	{"geometry":{"coordinates":[10.683034,52.415248],"type":"Point"},"properties":{"osm_id":"343684688","tag":{"amenity":"recycling","location":"overground","recycling:glass_bottles":"yes","recycling_type":"container"}},"type":"Feature"},
	{"geometry":{"coordinates":[10.650843,52.396023],"type":"Point"},"properties":{"osm_id":"386876413","tag":{"amenity":"recycling","recycling:clothes":"yes","recycling:glass":"yes"}},"type":"Feature"},
	{"geometry":{"coordinates":[10.71532,52.415879],"type":"Point"},"properties":{"osm_id":"599332513","tag":{"amenity":"recycling","location":"overground","recycling:clothes":"yes","recycling:glass":"yes","recycling:paper":"yes","recycling_type":"container"}},"type":"Feature"},
	{"geometry":{"coordinates":[10.650261,52.396015],"type":"Point"},"properties":{"osm_id":"954757997","tag":{"amenity":"waste_basket"}},"type":"Feature"},
	{"geometry":{"coordinates":[10.650193,52.395913],"type":"Point"},"properties":{"osm_id":"954758123","tag":{"amenity":"waste_basket"}},"type":"Feature"},
	{"geometry":{"coordinates":[10.652423,52.395992],"type":"Point"},"properties":{"osm_id":"954782140","tag":{"amenity":"waste_basket"}},"type":"Feature"},
	{"geometry":{"coordinates":[10.650314,52.396162],"type":"Point"},"properties":{"osm_id":"962053016","tag":{"amenity":"recycling","recycling:clothes":"yes"}},"type":"Feature"},
	{"geometry":{"coordinates":[10.708866,52.394239],"type":"Point"},"properties":{"highway":"bus_stop","name":"Wasserturm","osm_id":"1107314207","tag":{"amenity":"waste_basket","bench":"yes","bus":"yes","network":"Verkehrsverbund Region Braunschweig","operator":"Wolfsburger Verkehrs-GmbH","public_transport":"platform","shelter":"yes","wheelchair":"no"}},"type":"Feature"},
	{"geometry":{"coordinates":[10.719347,52.41027],"type":"Point"},"properties":{"osm_id":"1114779167","ref":"Herzogin-Clara-Stra\u00c3\u009fe","tag":{"amenity":"recycling","recycling:clothes":"yes","recycling:glass":"yes","recycling:paper":"yes","recycling_type":"container"}},"type":"Feature"},
	{"geometry":{"coordinates":[10.703321,52.395927],"type":"Point"},"properties":{"osm_id":"1132281766","tag":{"amenity":"recycling","recycling:cardboard":"yes","recycling:clothes":"yes","recycling:glass":"yes"}},"type":"Feature"},
	{"geometry":{"coordinates":[10.64416,52.386178],"type":"Point"},"properties":{"barrier":"gate","osm_id":"1326153057","tag":{"bicycle":"no","foot":"no"}},"type":"Feature"},
	{"geometry":{"coordinates":[10.717894,52.424205],"type":"Point"},"properties":{"osm_id":"1330047396","tag":{"amenity":"recycling","recycling:glass":"yes","recycling_type":"container"}},"type":"Feature"},
	{"geometry":{"coordinates":[10.716677,52.421437],"type":"Point"},"properties":{"osm_id":"1484919765","tag":{"amenity":"waste_basket"}},"type":"Feature"},
	{"geometry":{"coordinates":[10.716806,52.423286],"type":"Point"},"properties":{"osm_id":"1671685387","tag":{"amenity":"waste_basket"}},"type":"Feature"},
	{"geometry":{"coordinates":[10.716435,52.423278],"type":"Point"},"properties":{"osm_id":"1748275041","tag":{"amenity":"recycling","recycling:paper":"yes","recycling_type":"container"}},"type":"Feature"},
	{"geometry":{"coordinates":[10.696883,52.394903],"type":"Point"},"properties":{"osm_id":"2137730610","tag":{"amenity":"recycling","recycling:clothes":"yes","recycling:glass":"yes","recycling:shoes":"yes","recycling_type":"container"}},"type":"Feature"},
	{"geometry":{"coordinates":[10.705108,52.391081],"type":"Point"},"properties":{"osm_id":"2152387673","tag":{"amenity":"waste_basket"}},"type":"Feature"},
	{"geometry":{"coordinates":[10.704202,52.391263],"type":"Point"},"properties":{"osm_id":"2152387680","tag":{"amenity":"waste_basket"}},"type":"Feature"},
	{"geometry":{"coordinates":[10.703471,52.391335],"type":"Point"},"properties":{"osm_id":"2152387688","tag":{"amenity":"waste_basket"}},"type":"Feature"},
	{"geometry":{"coordinates":[10.706157,52.395206],"type":"Point"},"properties":{"osm_id":"2194494743","tag":{"amenity":"waste_basket"}},"type":"Feature"},
	{"geometry":{"coordinates":[10.716512,52.423891],"type":"Point"},"properties":{"osm_id":"2231479757","tag":{"amenity":"waste_basket"}},"type":"Feature"},
	{"geometry":{"coordinates":[10.710295,52.393881],"type":"Point"},"properties":{"osm_id":"2333029692","tag":{"amenity":"waste_basket"}},"type":"Feature"},
	{"geometry":{"coordinates":[10.703652,52.395974],"type":"Point"},"properties":{"osm_id":"2333029744","tag":{"amenity":"waste_basket"}},"type":"Feature"},
	{"geometry":{"coordinates":[10.70884,52.394344],"type":"Point"},"properties":{"highway":"bus_stop","name":"Wasserturm","osm_id":"2333029825","tag":{"amenity":"waste_basket","bench":"no","bus":"yes","network":"Verkehrsverbund Region Braunschweig","public_transport":"platform","shelter":"no","wheelchair":"no"}},"type":"Feature"},
	{"geometry":{"coordinates":[10.636281,52.425635],"type":"Point"},"properties":{"osm_id":"3125606758","tag":{"amenity":"waste_basket"}},"type":"Feature"},
	{"geometry":{"coordinates":[10.683102,52.415224],"type":"Point"},"properties":{"osm_id":"3156138831","tag":{"amenity":"recycling","recycling:clothes":"yes","recycling_type":"container"}},"type":"Feature"},
	{"geometry":{"coordinates":[10.707775,52.426159],"type":"Point"},"properties":{"osm_id":"4330803979","tag":{"amenity":"waste_disposal"}},"type":"Feature"},
	{"geometry":{"coordinates":[10.710232,52.426188],"type":"Point"},"properties":{"osm_id":"4330803997","tag":{"amenity":"waste_disposal"}},"type":"Feature"},
	{"geometry":{"coordinates":[10.649343,52.39695],"type":"Point"},"properties":{"osm_id":"6024556092","tag":{"amenity":"waste_basket"}},"type":"Feature"}
]
}
