{
"type": "FeatureCollection",
"features": [
	{"geometry":{"coordinates":[10.674965,51.870358],"type":"Point"},"properties":{"osm_id":"244530108","tag":{"amenity":"recycling","description":"Altkleider"}},"type":"Feature"},
	{"geometry":{"coordinates":[10.690684,51.859767],"type":"Point"},"properties":{"osm_id":"900609256","tag":{"amenity":"recycling","recycling_type":"container"}},"type":"Feature"},
	{"geometry":{"coordinates":[10.691816,51.873145],"type":"Point"},"properties":{"osm_id":"928240726","tag":{"amenity":"recycling","recycling_type":"container"}},"type":"Feature"},
	{"geometry":{"coordinates":[10.675636,51.867715],"type":"Point"},"properties":{"osm_id":"2134899552","tag":{"amenity":"recycling","recycling:glass_bottles":"yes","recycling_type":"container"}},"type":"Feature"},
	{"geometry":{"coordinates":[10.678026,51.872274],"type":"Point"},"properties":{"name":"Wertstoffhof Ilsenburg","osm_id":"2134901710","tag":{"amenity":"recycling","operator":"Stadt Ilsenburg","operator:type":"public","recycling:batteries":"yes","recycling:cartons":"yes","recycling:electrical_appliances":"yes","recycling:green_waste":"yes","recycling:plastic":"yes","recycling:scrap_metal":"yes","recycling_type":"centre","website":"https://www.enwi-hz.de/entsorgung/wertstoffhoefe/ilsenburg/wertstoffhof-ilsenburg.html"}},"type":"Feature"},
	{"geometry":{"coordinates":[10.71743,51.860403],"type":"Point"},"properties":{"osm_id":"2314453616","tag":{"amenity":"recycling"}},"type":"Feature"},
	{"geometry":{"coordinates":[10.67844,51.862139],"type":"Point"},"properties":{"osm_id":"4397627497","tag":{"amenity":"waste_basket"}},"type":"Feature"},
	{"geometry":{"coordinates":[10.675176,51.866706],"type":"Point"},"properties":{"osm_id":"4398396294","tag":{"amenity":"waste_basket"}},"type":"Feature"},
	{"geometry":{"coordinates":[10.676487,51.865104],"type":"Point"},"properties":{"osm_id":"4398405990","tag":{"amenity":"waste_basket"}},"type":"Feature"},
	{"geometry":{"coordinates":[10.675607,51.865627],"type":"Point"},"properties":{"osm_id":"4398406191","tag":{"amenity":"waste_basket"}},"type":"Feature"},
	{"geometry":{"coordinates":[10.676062,51.865366],"type":"Point"},"properties":{"osm_id":"4398439289","tag":{"amenity":"waste_basket"}},"type":"Feature"},
	{"geometry":{"coordinates":[10.676513,51.865272],"type":"Point"},"properties":{"osm_id":"4398439889","tag":{"amenity":"waste_basket"}},"type":"Feature"},
	{"geometry":{"coordinates":[10.676769,51.864903],"type":"Point"},"properties":{"osm_id":"4398442289","tag":{"amenity":"waste_basket"}},"type":"Feature"},
	{"geometry":{"coordinates":[10.676999,51.864583],"type":"Point"},"properties":{"osm_id":"4398443489","tag":{"amenity":"waste_basket"}},"type":"Feature"},
	{"geometry":{"coordinates":[10.676935,51.864433],"type":"Point"},"properties":{"osm_id":"4398443589","tag":{"amenity":"waste_basket"}},"type":"Feature"},
	{"geometry":{"coordinates":[10.676989,51.86409],"type":"Point"},"properties":{"osm_id":"4398446389","tag":{"amenity":"waste_basket"}},"type":"Feature"},
	{"geometry":{"coordinates":[10.677389,51.86273],"type":"Point"},"properties":{"osm_id":"4398454889","tag":{"amenity":"waste_basket"}},"type":"Feature"},
	{"geometry":{"coordinates":[10.677257,51.862108],"type":"Point"},"properties":{"osm_id":"4398456689","tag":{"amenity":"waste_basket"}},"type":"Feature"},
	{"geometry":{"coordinates":[10.673903,51.857114],"type":"Point"},"properties":{"osm_id":"4398468189","tag":{"amenity":"waste_basket"}},"type":"Feature"},
	{"geometry":{"coordinates":[10.674167,51.862853],"type":"Point"},"properties":{"osm_id":"4398476793","tag":{"amenity":"waste_basket"}},"type":"Feature"},
	{"geometry":{"coordinates":[10.678782,51.861759],"type":"Point"},"properties":{"osm_id":"4398568391","tag":{"amenity":"waste_basket"}},"type":"Feature"},
	{"geometry":{"coordinates":[10.679244,51.861696],"type":"Point"},"properties":{"osm_id":"4398575291","tag":{"amenity":"waste_basket"}},"type":"Feature"},
	{"geometry":{"coordinates":[10.679345,51.861775],"type":"Point"},"properties":{"osm_id":"4398575292","tag":{"amenity":"waste_basket"}},"type":"Feature"},
	{"geometry":{"coordinates":[10.679124,51.861968],"type":"Point"},"properties":{"osm_id":"4398581490","tag":{"amenity":"waste_basket"}},"type":"Feature"},
	{"geometry":{"coordinates":[10.67844,51.863874],"type":"Point"},"properties":{"osm_id":"4398582190","tag":{"amenity":"waste_basket"}},"type":"Feature"},
	{"geometry":{"coordinates":[10.678712,51.863779],"type":"Point"},"properties":{"osm_id":"4398583090","tag":{"amenity":"waste_basket"}},"type":"Feature"},
	{"geometry":{"coordinates":[10.680834,51.865125],"type":"Point"},"properties":{"osm_id":"4398589392","tag":{"amenity":"waste_basket"}},"type":"Feature"},
	{"geometry":{"coordinates":[10.677808,51.863212],"type":"Point"},"properties":{"osm_id":"4398609789","tag":{"amenity":"waste_basket"}},"type":"Feature"},
	{"geometry":{"coordinates":[10.674906,51.865456],"type":"Point"},"properties":{"osm_id":"4398618792","tag":{"amenity":"waste_basket"}},"type":"Feature"},
	{"geometry":{"coordinates":[10.674425,51.865602],"type":"Point"},"properties":{"osm_id":"4400478491","tag":{"amenity":"waste_basket"}},"type":"Feature"},
	{"geometry":{"coordinates":[10.688269,51.867163],"type":"Point"},"properties":{"osm_id":"5098471631","tag":{"amenity":"recycling","recycling_type":"container"}},"type":"Feature"},
	{"geometry":{"coordinates":[10.690091,51.87221],"type":"Point"},"properties":{"osm_id":"5098471632","tag":{"amenity":"recycling","recycling_type":"container"}},"type":"Feature"},
	{"geometry":{"coordinates":[10.663911,51.873959],"type":"Point"},"properties":{"osm_id":"5111164076","tag":{"amenity":"waste_basket"}},"type":"Feature"},
	{"geometry":{"coordinates":[10.687526,51.85724],"type":"Point"},"properties":{"osm_id":"5169254570","tag":{"amenity":"waste_basket"}},"type":"Feature"},
	{"geometry":{"coordinates":[10.68071,51.858489],"type":"Point"},"properties":{"osm_id":"5169254573","tag":{"amenity":"waste_basket"}},"type":"Feature"},
	{"geometry":{"coordinates":[10.686523,51.867065],"type":"Point"},"properties":{"osm_id":"5328101051","tag":{"amenity":"waste_basket"}},"type":"Feature"},
	{"geometry":{"coordinates":[10.670692,51.871747],"type":"Point"},"properties":{"osm_id":"5328107133","tag":{"amenity":"waste_basket"}},"type":"Feature"},
	{"geometry":{"coordinates":[10.685086,51.865506],"type":"Point"},"properties":{"osm_id":"5339754513","tag":{"amenity":"waste_basket"}},"type":"Feature"},
	{"geometry":{"coordinates":[10.682946,51.868734],"type":"Point"},"properties":{"osm_id":"5339754516","tag":{"amenity":"waste_basket"}},"type":"Feature"},
	{"geometry":{"coordinates":[10.68301,51.868254],"type":"Point"},"properties":{"osm_id":"5403505200","tag":{"amenity":"waste_basket"}},"type":"Feature"},
	{"geometry":{"coordinates":[10.686768,51.867183],"type":"Point"},"properties":{"osm_id":"5403514711","tag":{"amenity":"waste_basket"}},"type":"Feature"},
	{"geometry":{"coordinates":[10.678526,51.85712],"type":"Point"},"properties":{"osm_id":"5403561471","tag":{"amenity":"waste_basket"}},"type":"Feature"},
	{"geometry":{"coordinates":[10.681831,51.867911],"type":"Point"},"properties":{"osm_id":"5470923950","tag":{"amenity":"waste_basket"}},"type":"Feature"},
	{"geometry":{"coordinates":[10.681761,51.86737],"type":"Point"},"properties":{"osm_id":"5486405734","tag":{"amenity":"waste_basket"}},"type":"Feature"},
	{"geometry":{"coordinates":[10.675404,51.857977],"type":"Point"},"properties":{"osm_id":"5570906659","tag":{"amenity":"waste_basket"}},"type":"Feature"},
	{"geometry":{"coordinates":[10.675397,51.858051],"type":"Point"},"properties":{"osm_id":"5570906660","tag":{"amenity":"waste_basket"}},"type":"Feature"},
	{"geometry":{"coordinates":[10.675331,51.872085],"type":"Point"},"properties":{"osm_id":"5586879386","tag":{"amenity":"waste_basket"}},"type":"Feature"},
	{"geometry":{"coordinates":[10.67655,51.872048],"type":"Point"},"properties":{"osm_id":"5586879387","tag":{"amenity":"waste_basket"}},"type":"Feature"},
	{"geometry":{"coordinates":[10.676583,51.871969],"type":"Point"},"properties":{"osm_id":"5586879388","tag":{"amenity":"waste_basket"}},"type":"Feature"},
	{"geometry":{"coordinates":[10.676295,51.872088],"type":"Point"},"properties":{"osm_id":"5586879389","tag":{"amenity":"waste_basket"}},"type":"Feature"},
	{"geometry":{"coordinates":[10.677662,51.872064],"type":"Point"},"properties":{"osm_id":"5586879390","tag":{"amenity":"waste_basket"}},"type":"Feature"},
	{"geometry":{"coordinates":[10.676649,51.872206],"type":"Point"},"properties":{"osm_id":"5586879391","tag":{"amenity":"waste_basket"}},"type":"Feature"},
	{"geometry":{"coordinates":[10.676879,51.872247],"type":"Point"},"properties":{"osm_id":"5586879392","tag":{"amenity":"waste_basket"}},"type":"Feature"},
	{"geometry":{"coordinates":[10.6771,51.872286],"type":"Point"},"properties":{"osm_id":"5586879393","tag":{"amenity":"waste_basket"}},"type":"Feature"},
	{"geometry":{"coordinates":[10.677311,51.872329],"type":"Point"},"properties":{"osm_id":"5586879394","tag":{"amenity":"waste_basket"}},"type":"Feature"},
	{"geometry":{"coordinates":[10.688546,51.860821],"type":"Point"},"properties":{"osm_id":"5589050223","tag":{"amenity":"waste_basket"}},"type":"Feature"},
	{"geometry":{"coordinates":[10.691689,51.877974],"type":"Point"},"properties":{"osm_id":"5613867590","tag":{"amenity":"waste_basket"}},"type":"Feature"},
	{"geometry":{"coordinates":[10.691493,51.877838],"type":"Point"},"properties":{"osm_id":"5613867591","tag":{"amenity":"waste_basket"}},"type":"Feature"},
	{"geometry":{"coordinates":[10.692426,51.877517],"type":"Point"},"properties":{"osm_id":"5613867592","tag":{"amenity":"waste_basket"}},"type":"Feature"},
	{"geometry":{"coordinates":[10.680406,51.862076],"type":"Point"},"properties":{"osm_id":"5628940628","tag":{"amenity":"waste_basket"}},"type":"Feature"},
	{"geometry":{"coordinates":[10.677636,51.864162],"type":"Point"},"properties":{"osm_id":"5628940629","tag":{"amenity":"waste_basket"}},"type":"Feature"},
	{"geometry":{"coordinates":[10.676508,51.867622],"type":"Point"},"properties":{"osm_id":"5675204069","tag":{"amenity":"waste_basket"}},"type":"Feature"},
	{"geometry":{"coordinates":[10.670782,51.866866],"type":"Point"},"properties":{"osm_id":"5735068669","tag":{"amenity":"waste_basket"}},"type":"Feature"},
	{"geometry":{"coordinates":[10.689601,51.858537],"type":"Point"},"properties":{"osm_id":"5893269007","tag":{"amenity":"waste_disposal"}},"type":"Feature"},
	{"geometry":{"coordinates":[10.689408,51.858608],"type":"Point"},"properties":{"osm_id":"5893269008","tag":{"amenity":"waste_disposal"}},"type":"Feature"},
	{"geometry":{"coordinates":[10.690223,51.859858],"type":"Point"},"properties":{"osm_id":"5894726738","tag":{"amenity":"waste_disposal"}},"type":"Feature"},
	{"geometry":{"coordinates":[10.689961,51.859395],"type":"Point"},"properties":{"osm_id":"5894726739","tag":{"amenity":"waste_disposal"}},"type":"Feature"},
	{"geometry":{"coordinates":[10.689707,51.858617],"type":"Point"},"properties":{"osm_id":"5894726740","tag":{"amenity":"waste_disposal"}},"type":"Feature"},
	{"geometry":{"coordinates":[10.679202,51.853536],"type":"Point"},"properties":{"osm_id":"6153758505","tag":{"amenity":"waste_basket"}},"type":"Feature"},
	{"geometry":{"coordinates":[10.671765,51.854678],"type":"Point"},"properties":{"osm_id":"6161564009","tag":{"amenity":"waste_basket"}},"type":"Feature"},
	{"geometry":{"coordinates":[10.671412,51.854415],"type":"Point"},"properties":{"osm_id":"6161564010","tag":{"amenity":"waste_basket"}},"type":"Feature"},
	{"geometry":{"coordinates":[10.671064,51.854151],"type":"Point"},"properties":{"osm_id":"6161564011","tag":{"amenity":"waste_basket"}},"type":"Feature"},
	{"geometry":{"coordinates":[10.674971,51.863461],"type":"Point"},"properties":{"osm_id":"6171668536","tag":{"amenity":"recycling","recycling_type":"container"}},"type":"Feature"},
	{"geometry":{"coordinates":[10.687323,51.866706],"type":"Point"},"properties":{"osm_id":"6173652328","tag":{"amenity":"waste_basket"}},"type":"Feature"},
	{"geometry":{"coordinates":[10.684071,51.856079],"type":"Point"},"properties":{"osm_id":"6387616416","tag":{"amenity":"waste_basket"}},"type":"Feature"},
	{"geometry":{"coordinates":[10.680083,51.860012],"type":"Point"},"properties":{"osm_id":"6876188401","tag":{"amenity":"waste_basket"}},"type":"Feature"}
]
}
