{
"type": "FeatureCollection",
"features": [
	{"geometry":{"coordinates":[10.672562,51.580443],"type":"Point"},"properties":{"osm_id":"4946149778","tag":{"amenity":"recycling","recycling:clothes":"yes","recycling:glass":"yes","recycling_type":"container"}},"type":"Feature"},
	{"geometry":{"coordinates":[10.660785,51.587294],"type":"Point"},"properties":{"osm_id":"7452539815","tag":{"amenity":"waste_basket"}},"type":"Feature"},
	{"geometry":{"coordinates":[10.682829,51.605506],"type":"Point"},"properties":{"osm_id":"7717533326","tag":{"amenity":"waste_basket"}},"type":"Feature"},
	{"geometry":{"coordinates":[10.672776,51.588009],"type":"Point"},"properties":{"name":"Gr\u00c3\u00bcnabfallannahme der Stadt Ellrich","osm_id":"7880051253","tag":{"amenity":"recycling","opening_hours:covid19":"open","operator":"Stadt Ellrich","recycling:green_waste":"yes","recycling_type":"container"}},"type":"Feature"},
	{"geometry":{"coordinates":[10.705563,51.570455],"type":"Point"},"properties":{"osm_id":"8598450936","tag":{"amenity":"recycling","recycling:glass":"yes","recycling_type":"container"}},"type":"Feature"},
	{"geometry":{"coordinates":[10.636838,51.591619],"type":"Point"},"properties":{"osm_id":"9053716331","tag":{"amenity":"waste_basket"}},"type":"Feature"}
]
}
