{
"type": "FeatureCollection",
"features": [
	{"geometry":{"coordinates":[10.692412,50.934579],"type":"Point"},"properties":{"osm_id":"352659888","tag":{"amenity":"recycling","recycling:batteries":"no","recycling:books":"yes","recycling:cans":"no","recycling:cardboard":"no","recycling:cartons":"yes","recycling:clothes":"no","recycling:electrical_appliances":"no","recycling:glass":"yes","recycling:glass_bottles":"yes","recycling:green_waste":"no","recycling:magazines":"yes","recycling:newspaper":"yes","recycling:paper":"yes","recycling:paper_packaging":"yes","recycling:plastic":"no","recycling:plastic_bottles":"no","recycling:plastic_packaging":"no","recycling:scrap_metal":"no","recycling:small_appliances":"no","recycling:waste":"no","recycling:wood":"no","recycling_type":"container"}},"type":"Feature"},
	{"geometry":{"coordinates":[10.697753,50.939832],"type":"Point"},"properties":{"osm_id":"352926511","tag":{"amenity":"recycling","recycling:clothes":"yes","recycling:glass":"yes","recycling:paper":"yes"}},"type":"Feature"},
	{"geometry":{"coordinates":[10.682318,50.951168],"type":"Point"},"properties":{"osm_id":"358319844","tag":{"amenity":"recycling","location":"overground","recycling:glass":"yes","recycling:paper":"yes","recycling_type":"container"}},"type":"Feature"},
	{"geometry":{"coordinates":[10.688329,50.948988],"type":"Point"},"properties":{"osm_id":"2309847927","tag":{"amenity":"recycling","recycling:batteries":"no","recycling:books":"yes","recycling:cartons":"yes","recycling:electrical_appliances":"no","recycling:glass":"yes","recycling:glass_bottles":"yes","recycling:green_waste":"yes","recycling:magazines":"yes","recycling:newspaper":"yes","recycling:paper":"yes","recycling:paper_packaging":"yes","recycling_type":"container"}},"type":"Feature"},
	{"geometry":{"coordinates":[10.689461,50.945977],"type":"Point"},"properties":{"osm_id":"2309848139","tag":{"amenity":"recycling"}},"type":"Feature"},
	{"geometry":{"coordinates":[10.680992,50.942748],"type":"Point"},"properties":{"osm_id":"2309852270","tag":{"amenity":"recycling"}},"type":"Feature"},
	{"geometry":{"coordinates":[10.687427,50.921745],"type":"Point"},"properties":{"osm_id":"2360572158","tag":{"amenity":"recycling","recycling:glass":"yes","recycling:paper":"yes","recycling_type":"container"}},"type":"Feature"},
	{"geometry":{"coordinates":[10.684647,50.921761],"type":"Point"},"properties":{"osm_id":"2360572163","tag":{"amenity":"recycling","recycling:clothes":"yes","recycling_type":"container"}},"type":"Feature"},
	{"geometry":{"coordinates":[10.700817,50.944382],"type":"Point"},"properties":{"osm_id":"2716746103","tag":{"amenity":"recycling","recycling:cardboard":"yes","recycling:clothes":"no","recycling:glass_bottles":"yes","recycling:paper":"yes","recycling_type":"container"}},"type":"Feature"},
	{"geometry":{"coordinates":[10.694641,50.949502],"type":"Point"},"properties":{"osm_id":"2716827994","tag":{"amenity":"recycling","recycling:clothes":"yes","recycling:glass":"yes","recycling:paper":"yes","recycling_type":"container"}},"type":"Feature"},
	{"geometry":{"coordinates":[10.698908,50.95025],"type":"Point"},"properties":{"osm_id":"2851619640","tag":{"amenity":"waste_basket"}},"type":"Feature"},
	{"geometry":{"coordinates":[10.703278,50.950738],"type":"Point"},"properties":{"osm_id":"2851619644","tag":{"amenity":"waste_basket"}},"type":"Feature"},
	{"geometry":{"coordinates":[10.669526,50.930919],"type":"Point"},"properties":{"osm_id":"3379433270","tag":{"amenity":"recycling"}},"type":"Feature"},
	{"geometry":{"coordinates":[10.708735,50.948228],"type":"Point"},"properties":{"osm_id":"3382613281","tag":{"amenity":"waste_basket"}},"type":"Feature"},
	{"geometry":{"coordinates":[10.688402,50.943899],"type":"Point"},"properties":{"osm_id":"3799001896","tag":{"amenity":"recycling"}},"type":"Feature"},
	{"geometry":{"coordinates":[10.706598,50.955487],"type":"Point"},"properties":{"osm_id":"3808840441","tag":{"addr:city":"Gotha","addr:postcode":"99867","addr:street":"Breite Gasse","amenity":"recycling","recycling:cans":"no","recycling:glass":"yes","recycling:glass_bottles":"yes","recycling:paper":"yes","recycling:plastic":"no","recycling_type":"container"}},"type":"Feature"},
	{"geometry":{"coordinates":[10.682628,50.949924],"type":"Point"},"properties":{"osm_id":"3862443741","tag":{"amenity":"recycling","location":"overground","recycling_type":"container"}},"type":"Feature"},
	{"geometry":{"coordinates":[10.710898,50.951797],"type":"Point"},"properties":{"osm_id":"3865208322","tag":{"amenity":"recycling","recycling_type":"container"}},"type":"Feature"},
	{"geometry":{"coordinates":[10.70956,50.942715],"type":"Point"},"properties":{"osm_id":"3906409092","tag":{"addr:city":"Gotha","addr:postcode":"99867","addr:street":"Purgoldweg","amenity":"recycling","recycling:cans":"no","recycling:glass":"yes","recycling:glass_bottles":"yes","recycling:paper":"yes","recycling:plastic":"no","recycling_type":"container"}},"type":"Feature"},
	{"geometry":{"coordinates":[10.718467,50.9402],"type":"Point"},"properties":{"osm_id":"3957697595","tag":{"amenity":"recycling","recycling_type":"container"}},"type":"Feature"},
	{"geometry":{"coordinates":[10.709086,50.948357],"type":"Point"},"properties":{"osm_id":"5299130186","tag":{"amenity":"waste_basket"}},"type":"Feature"},
	{"geometry":{"coordinates":[10.704989,50.952561],"type":"Point"},"properties":{"osm_id":"5973967991","tag":{"amenity":"recycling","recycling_type":"container"}},"type":"Feature"},
	{"geometry":{"coordinates":[10.69817,50.949921],"type":"Point"},"properties":{"osm_id":"6040188052","tag":{"amenity":"waste_basket"}},"type":"Feature"},
	{"geometry":{"coordinates":[10.713443,50.934015],"type":"Point"},"properties":{"osm_id":"7847558336","tag":{"amenity":"recycling","recycling:clothes":"yes","recycling:glass_bottles":"yes","recycling_type":"container"}},"type":"Feature"},
	{"geometry":{"coordinates":[10.706696,50.946005],"type":"Point"},"properties":{"osm_id":"8040152930","tag":{"amenity":"waste_basket"}},"type":"Feature"}
]
}
