{
"type": "FeatureCollection",
"features": [
	{"geometry":{"coordinates":[10.668386,50.66028],"type":"Point"},"properties":{"osm_id":"251346008","tag":{"amenity":"recycling","location":"overground","recycling_type":"container"}},"type":"Feature"},
	{"geometry":{"coordinates":[10.674391,50.655081],"type":"Point"},"properties":{"osm_id":"251368230","tag":{"amenity":"recycling","location":"overground","recycling_type":"container"}},"type":"Feature"},
	{"geometry":{"coordinates":[10.676352,50.657595],"type":"Point"},"properties":{"osm_id":"251487481","tag":{"amenity":"recycling","location":"overground","recycling_type":"container"}},"type":"Feature"},
	{"geometry":{"coordinates":[10.667365,50.652972],"type":"Point"},"properties":{"osm_id":"277916856","tag":{"amenity":"recycling","location":"overground","recycling_type":"container"}},"type":"Feature"},
	{"geometry":{"coordinates":[10.670582,50.651011],"type":"Point"},"properties":{"osm_id":"298511660","tag":{"amenity":"recycling","location":"overground","recycling_type":"container"}},"type":"Feature"},
	{"geometry":{"coordinates":[10.710115,50.633845],"type":"Point"},"properties":{"osm_id":"404173673","tag":{"amenity":"recycling","location":"overground","recycling_type":"container"}},"type":"Feature"},
	{"geometry":{"coordinates":[10.710381,50.634264],"type":"Point"},"properties":{"osm_id":"404174186","tag":{"amenity":"recycling","location":"overground","recycling_type":"container"}},"type":"Feature"},
	{"geometry":{"coordinates":[10.711171,50.632811],"type":"Point"},"properties":{"osm_id":"404175983","tag":{"amenity":"recycling","location":"overground","recycling_type":"container"}},"type":"Feature"},
	{"geometry":{"coordinates":[10.650902,50.665051],"type":"Point"},"properties":{"osm_id":"503508973","tag":{"amenity":"recycling","recycling:cardboard":"yes","recycling:clothes":"yes","recycling:glass_bottles":"yes","recycling:paper":"yes","recycling_type":"container"}},"type":"Feature"},
	{"geometry":{"coordinates":[10.649073,50.665982],"type":"Point"},"properties":{"osm_id":"503508974","tag":{"amenity":"recycling","location":"overground","recycling:batteries":"no","recycling:clothes":"yes","recycling:glass":"yes","recycling:paper":"yes","recycling_type":"container"}},"type":"Feature"},
	{"geometry":{"coordinates":[10.656214,50.662844],"type":"Point"},"properties":{"osm_id":"559550186","tag":{"amenity":"recycling","location":"overground","recycling:clothes":"yes","recycling:glass":"yes","recycling_type":"container"}},"type":"Feature"},
	{"geometry":{"coordinates":[10.657768,50.660687],"type":"Point"},"properties":{"osm_id":"1085588019","tag":{"amenity":"recycling","recycling_type":"container"}},"type":"Feature"},
	{"geometry":{"coordinates":[10.703783,50.636213],"type":"Point"},"properties":{"name":"Recyclinghof","osm_id":"1240872972","tag":{"addr:city":"Suhl","addr:postcode":"98528","addr:street":"Am Fr\u00c3\u00b6hlichen Mann","amenity":"recycling","location":"overground","recycling_type":"container"}},"type":"Feature"},
	{"geometry":{"coordinates":[10.658603,50.665431],"type":"Point"},"properties":{"osm_id":"1582795994","tag":{"amenity":"recycling","location":"overground","recycling:clothes":"yes","recycling:glass":"yes","recycling_type":"container"}},"type":"Feature"},
	{"geometry":{"coordinates":[10.646112,50.62802],"type":"Point"},"properties":{"osm_id":"2097611602","tag":{"amenity":"recycling"}},"type":"Feature"},
	{"geometry":{"coordinates":[10.683758,50.638156],"type":"Point"},"properties":{"name":"Wertstoffhof Zella-Mehlis","osm_id":"2917194543","tag":{"amenity":"recycling","recycling_type":"centre"}},"type":"Feature"},
	{"geometry":{"coordinates":[10.648606,50.665603],"type":"Point"},"properties":{"osm_id":"5427074764","tag":{"amenity":"waste_basket"}},"type":"Feature"},
	{"geometry":{"coordinates":[10.648233,50.664288],"type":"Point"},"properties":{"osm_id":"5427074767","tag":{"amenity":"waste_basket"}},"type":"Feature"},
	{"geometry":{"coordinates":[10.647546,50.665927],"type":"Point"},"properties":{"osm_id":"5427074790","tag":{"amenity":"waste_basket"}},"type":"Feature"},
	{"geometry":{"coordinates":[10.648468,50.666481],"type":"Point"},"properties":{"osm_id":"5427656310","tag":{"amenity":"waste_disposal"}},"type":"Feature"},
	{"geometry":{"coordinates":[10.666217,50.657519],"type":"Point"},"properties":{"osm_id":"5930905081","tag":{"amenity":"recycling","recycling:glass_bottles":"yes","recycling_type":"container"}},"type":"Feature"}
]
}
