{
"type": "FeatureCollection",
"features": [
	{"geometry":{"coordinates":[10.652053,49.930473],"type":"Point"},"properties":{"osm_id":"321493419","tag":{"amenity":"recycling"}},"type":"Feature"},
	{"geometry":{"coordinates":[10.716125,49.907713],"type":"Point"},"properties":{"osm_id":"1644450657","tag":{"amenity":"recycling","recycling:cans":"yes","recycling:glass_bottles":"yes","recycling_type":"container"}},"type":"Feature"},
	{"geometry":{"coordinates":[10.72237,49.948467],"type":"Point"},"properties":{"osm_id":"2505525125","tag":{"amenity":"recycling","recycling:glass_bottles":"yes","recycling_type":"container"}},"type":"Feature"},
	{"geometry":{"coordinates":[10.713961,49.897756],"type":"Point"},"properties":{"osm_id":"3445123433","tag":{"amenity":"recycling","recycling:cans":"yes","recycling:glass_bottles":"yes","recycling_type":"container"}},"type":"Feature"},
	{"geometry":{"coordinates":[10.715209,49.902526],"type":"Point"},"properties":{"osm_id":"3445123457","tag":{"amenity":"waste_basket"}},"type":"Feature"},
	{"geometry":{"coordinates":[10.711253,49.911882],"type":"Point"},"properties":{"osm_id":"3686105774","tag":{"amenity":"waste_basket"}},"type":"Feature"},
	{"geometry":{"coordinates":[10.666928,49.921086],"type":"Point"},"properties":{"osm_id":"6564370253","tag":{"amenity":"waste_basket"}},"type":"Feature"},
	{"geometry":{"coordinates":[10.673893,49.922204],"type":"Point"},"properties":{"osm_id":"6564370267","tag":{"amenity":"waste_basket"}},"type":"Feature"},
	{"geometry":{"coordinates":[10.675286,49.904999],"type":"Point"},"properties":{"osm_id":"6698904755","tag":{"amenity":"recycling","recycling:cans":"yes","recycling:glass":"yes","recycling_type":"container"}},"type":"Feature"},
	{"geometry":{"coordinates":[10.675943,49.907652],"type":"Point"},"properties":{"osm_id":"6698904779","tag":{"amenity":"recycling","operator":"Triglav GmbH","recycling:clothes":"yes","recycling_type":"container"}},"type":"Feature"}
]
}
