{
"type": "FeatureCollection",
"features": [
	{"geometry":{"coordinates":[10.699556,48.274685],"type":"Point"},"properties":{"osm_id":"305754421","tag":{"amenity":"recycling","recycling:glass":"yes"}},"type":"Feature"},
	{"geometry":{"coordinates":[10.658997,48.28218],"type":"Point"},"properties":{"osm_id":"307828262","tag":{"amenity":"recycling","recycling:glass":"yes"}},"type":"Feature"},
	{"geometry":{"coordinates":[10.656179,48.27792],"type":"Point"},"properties":{"osm_id":"535590414","tag":{"amenity":"recycling","recycling:glass":"yes","recycling:paper":"yes"}},"type":"Feature"},
	{"geometry":{"coordinates":[10.647039,48.267332],"type":"Point"},"properties":{"osm_id":"673550828","tag":{"amenity":"recycling","recycling:cans":"yes","recycling:glass":"yes"}},"type":"Feature"},
	{"geometry":{"coordinates":[10.640903,48.255354],"type":"Point"},"properties":{"osm_id":"674368476","tag":{"amenity":"recycling","recycling:cans":"yes","recycling:glass":"yes"}},"type":"Feature"},
	{"geometry":{"coordinates":[10.696259,48.25703],"type":"Point"},"properties":{"osm_id":"803962722","tag":{"amenity":"recycling","operator":"Cleanaway","recycling:glass":"yes","recycling_type":"container"}},"type":"Feature"},
	{"geometry":{"coordinates":[10.717954,48.226139],"type":"Point"},"properties":{"osm_id":"2404485547","tag":{"amenity":"waste_basket"}},"type":"Feature"},
	{"geometry":{"coordinates":[10.720029,48.226305],"type":"Point"},"properties":{"osm_id":"2404485555","tag":{"amenity":"waste_basket"}},"type":"Feature"},
	{"geometry":{"coordinates":[10.722375,48.226414],"type":"Point"},"properties":{"osm_id":"2404485557","tag":{"amenity":"waste_basket"}},"type":"Feature"},
	{"geometry":{"coordinates":[10.696246,48.257008],"type":"Point"},"properties":{"osm_id":"3976700118","tag":{"amenity":"recycling","operator":"K\u00c3\u00bchl, Gersthofen","recycling:cans":"yes","recycling_type":"container"}},"type":"Feature"},
	{"geometry":{"coordinates":[10.69371,48.248564],"type":"Point"},"properties":{"osm_id":"3977472412","tag":{"amenity":"recycling","operator":"Aktion Hoffnung","recycling:clothes":"yes","recycling:shoes":"yes","recycling_type":"container"}},"type":"Feature"},
	{"geometry":{"coordinates":[10.693738,48.248588],"type":"Point"},"properties":{"osm_id":"3977472415","tag":{"amenity":"recycling","mapillary":"v6lTjJj9yeUo8bDF7mfJ3A","operator":"Cleanaway","recycling:glass":"no","recycling:glass_bottles":"yes","recycling_type":"container","survey:date":"2018-09-09"}},"type":"Feature"},
	{"geometry":{"coordinates":[10.69375,48.248605],"type":"Point"},"properties":{"osm_id":"3977472416","tag":{"amenity":"recycling","operator":"Fa. K\u00c3\u00bchl, Gersthofen","recycling:cans":"yes","recycling_type":"container"}},"type":"Feature"},
	{"geometry":{"coordinates":[10.654799,48.282715],"type":"Point"},"properties":{"osm_id":"5897119223","tag":{"amenity":"recycling","recycling:clothes":"yes","recycling:shoes":"yes","recycling_type":"container"}},"type":"Feature"},
	{"geometry":{"coordinates":[10.705184,48.281489],"type":"Point"},"properties":{"osm_id":"7309090449","tag":{"amenity":"waste_basket"}},"type":"Feature"},
	{"geometry":{"coordinates":[10.637145,48.229417],"type":"Point"},"properties":{"osm_id":"7313088929","tag":{"amenity":"recycling","recycling:glass":"yes","recycling_type":"container"}},"type":"Feature"}
]
}
