{
"type": "FeatureCollection",
"features": [
	{"geometry":{"coordinates":[10.644893,48.183682],"type":"Point"},"properties":{"osm_id":"605504116","tag":{"amenity":"recycling","recycling:cans":"yes","recycling:glass":"yes","recycling_type":"container"}},"type":"Feature"},
	{"geometry":{"coordinates":[10.652391,48.201972],"type":"Point"},"properties":{"osm_id":"959854984","tag":{"amenity":"recycling","mapillary":"G0ziSSHaMokzXGDwZuF2GQ","recycling:cans":"yes","recycling_type":"container","survey:date":"2018-09-16"}},"type":"Feature"},
	{"geometry":{"coordinates":[10.652419,48.201997],"type":"Point"},"properties":{"osm_id":"959855115","tag":{"amenity":"recycling","mapillary":"cDOdus34-lIfqjkqDKDejQ","recycling:glass":"yes","recycling_type":"container","survey:date":"2018-09-16"}},"type":"Feature"},
	{"geometry":{"coordinates":[10.689259,48.216881],"type":"Point"},"properties":{"osm_id":"960098468","tag":{"amenity":"recycling","recycling:cans":"yes","recycling:glass_bottles":"yes","recycling_type":"container"}},"type":"Feature"},
	{"geometry":{"coordinates":[10.673415,48.216562],"type":"Point"},"properties":{"osm_id":"968176645","tag":{"amenity":"recycling","operator":"Fa. Seidenberger","recycling:cans":"yes","recycling_type":"container"}},"type":"Feature"},
	{"geometry":{"coordinates":[10.67341,48.216541],"type":"Point"},"properties":{"osm_id":"968176755","tag":{"amenity":"recycling","operator":"Fa. Remondis","recycling:glass_bottles":"yes","recycling_type":"container"}},"type":"Feature"},
	{"geometry":{"coordinates":[10.674843,48.212504],"type":"Point"},"properties":{"osm_id":"4730806441","tag":{"amenity":"recycling","operator":"Aktion Hoffnung","recycling:clothes":"yes","recycling:shoes":"yes","recycling_type":"container"}},"type":"Feature"},
	{"geometry":{"coordinates":[10.674882,48.212547],"type":"Point"},"properties":{"osm_id":"4730806442","tag":{"amenity":"recycling","recycling:glass":"yes","recycling_type":"container"}},"type":"Feature"},
	{"geometry":{"coordinates":[10.674859,48.212524],"type":"Point"},"properties":{"osm_id":"4730806443","tag":{"amenity":"recycling","recycling:cans":"yes","recycling_type":"container"}},"type":"Feature"},
	{"geometry":{"coordinates":[10.644894,48.183703],"type":"Point"},"properties":{"osm_id":"5951519782","tag":{"amenity":"recycling","mapillary":"-IlH01IGPGOGIFWDkkNQAg","operator":"Cleanaway","recycling:cans":"yes","recycling:glass":"no","recycling:glass_bottles":"yes","recycling_type":"container","survey:date":"2018-09-16"}},"type":"Feature"},
	{"geometry":{"coordinates":[10.64494,48.183705],"type":"Point"},"properties":{"osm_id":"5951519783","tag":{"amenity":"recycling","operator":"Aktion Hoffnung","recycling:clothes":"yes","recycling:shoes":"yes","recycling_type":"container"}},"type":"Feature"}
]
}
