{
"type": "FeatureCollection",
"features": [
	{"geometry":{"coordinates":[10.718002,48.038449],"type":"Point"},"properties":{"osm_id":"289083403","tag":{"amenity":"recycling","recycling:glass":"yes","recycling_type":"container"}},"type":"Feature"},
	{"geometry":{"coordinates":[10.715197,48.034627],"type":"Point"},"properties":{"osm_id":"427192661","tag":{"amenity":"recycling","recycling:glass":"yes"}},"type":"Feature"},
	{"geometry":{"coordinates":[10.674974,48.042708],"type":"Point"},"properties":{"osm_id":"1027308483","tag":{"amenity":"recycling","recycling:clothes":"yes","recycling:glass_bottles":"yes","recycling_type":"container"}},"type":"Feature"},
	{"geometry":{"coordinates":[10.670818,48.028569],"type":"Point"},"properties":{"osm_id":"1112173283","tag":{"amenity":"recycling","recycling:cans":"yes","recycling:glass":"yes"}},"type":"Feature"},
	{"geometry":{"coordinates":[10.671158,48.02848],"type":"Point"},"properties":{"osm_id":"1351900539","tag":{"amenity":"waste_basket"}},"type":"Feature"},
	{"geometry":{"coordinates":[10.670856,48.028559],"type":"Point"},"properties":{"osm_id":"1351900548","tag":{"amenity":"waste_basket"}},"type":"Feature"},
	{"geometry":{"coordinates":[10.670692,48.028628],"type":"Point"},"properties":{"osm_id":"1351900560","tag":{"amenity":"waste_basket"}},"type":"Feature"},
	{"geometry":{"coordinates":[10.670904,48.028651],"type":"Point"},"properties":{"osm_id":"1351900562","tag":{"amenity":"waste_basket"}},"type":"Feature"},
	{"geometry":{"coordinates":[10.670385,48.028654],"type":"Point"},"properties":{"osm_id":"1351900563","tag":{"amenity":"waste_basket"}},"type":"Feature"},
	{"geometry":{"coordinates":[10.670724,48.02869],"type":"Point"},"properties":{"osm_id":"1351900567","tag":{"amenity":"waste_basket"}},"type":"Feature"},
	{"geometry":{"coordinates":[10.670904,48.028941],"type":"Point"},"properties":{"osm_id":"1351900584","tag":{"amenity":"waste_basket"}},"type":"Feature"},
	{"geometry":{"coordinates":[10.715042,48.017405],"type":"Point"},"properties":{"osm_id":"2530618896","tag":{"amenity":"recycling","recycling:clothes":"yes","recycling:glass_bottles":"yes","recycling_type":"container"}},"type":"Feature"},
	{"geometry":{"coordinates":[10.712542,48.01904],"type":"Point"},"properties":{"osm_id":"3126692216","tag":{"amenity":"waste_basket","waste":"excrements"}},"type":"Feature"},
	{"geometry":{"coordinates":[10.717822,48.011445],"type":"Point"},"properties":{"osm_id":"3547693179","tag":{"amenity":"waste_basket","waste":"excrements"}},"type":"Feature"},
	{"geometry":{"coordinates":[10.648471,48.003395],"type":"Point"},"properties":{"osm_id":"4909169930","tag":{"amenity":"waste_basket"}},"type":"Feature"},
	{"geometry":{"coordinates":[10.665655,48.031317],"type":"Point"},"properties":{"name":"Glas (gr\u00c3\u00bcn weiss braun)","osm_id":"5323842327","tag":{"amenity":"waste_disposal"}},"type":"Feature"},
	{"geometry":{"coordinates":[10.665868,48.031233],"type":"Point"},"properties":{"osm_id":"5323846085","tag":{"amenity":"waste_basket"}},"type":"Feature"},
	{"geometry":{"coordinates":[10.719522,48.037104],"type":"Point"},"properties":{"osm_id":"5889018749","tag":{"amenity":"waste_basket"}},"type":"Feature"},
	{"geometry":{"coordinates":[10.718659,48.037693],"type":"Point"},"properties":{"osm_id":"5890798838","tag":{"amenity":"waste_basket"}},"type":"Feature"},
	{"geometry":{"coordinates":[10.706983,48.031848],"type":"Point"},"properties":{"osm_id":"5967298848","tag":{"amenity":"waste_basket"}},"type":"Feature"},
	{"geometry":{"coordinates":[10.708746,48.04419],"type":"Point"},"properties":{"osm_id":"6415865900","tag":{"amenity":"waste_basket"}},"type":"Feature"},
	{"geometry":{"coordinates":[10.706138,48.037751],"type":"Point"},"properties":{"osm_id":"6535667977","tag":{"amenity":"waste_basket","vending":"excrement_bags","waste":"dog_excrement"}},"type":"Feature"},
	{"geometry":{"coordinates":[10.702368,48.037445],"type":"Point"},"properties":{"osm_id":"6535667978","tag":{"amenity":"waste_basket","vending":"excrement_bags","waste":"dog_excrement"}},"type":"Feature"},
	{"geometry":{"coordinates":[10.717344,48.034132],"type":"Point"},"properties":{"osm_id":"8208091795","tag":{"amenity":"waste_basket","waste":"trash"}},"type":"Feature"}
]
}
