{
"type": "FeatureCollection",
"features": [
	{"geometry":{"coordinates":[10.670754,47.90041],"type":"Point"},"properties":{"osm_id":"526860055","ref":"Wertstoffhof","tag":{"amenity":"recycling","recycling_type":"centre"}},"type":"Feature"},
	{"geometry":{"coordinates":[10.637698,47.909508],"type":"Point"},"properties":{"osm_id":"675093065","tag":{"amenity":"recycling","recycling_type":"container"}},"type":"Feature"},
	{"geometry":{"coordinates":[10.641505,47.90234],"type":"Point"},"properties":{"osm_id":"871090906","tag":{"amenity":"recycling","recycling_type":"container"}},"type":"Feature"},
	{"geometry":{"coordinates":[10.641135,47.885817],"type":"Point"},"properties":{"osm_id":"931523831","tag":{"amenity":"recycling","recycling:cans":"yes","recycling:glass":"yes","recycling:paper":"yes"}},"type":"Feature"},
	{"geometry":{"coordinates":[10.639513,47.886615],"type":"Point"},"properties":{"osm_id":"960256372","tag":{"amenity":"recycling"}},"type":"Feature"},
	{"geometry":{"coordinates":[10.639391,47.887062],"type":"Point"},"properties":{"osm_id":"960607723","tag":{"amenity":"recycling"}},"type":"Feature"},
	{"geometry":{"coordinates":[10.64171,47.918267],"type":"Point"},"properties":{"osm_id":"1098688832","tag":{"amenity":"recycling","recycling_type":"container"}},"type":"Feature"},
	{"geometry":{"coordinates":[10.634811,47.897006],"type":"Point"},"properties":{"name":"Hundeklo","osm_id":"2105304333","tag":{"amenity":"waste_basket"}},"type":"Feature"},
	{"geometry":{"coordinates":[10.64165,47.918219],"type":"Point"},"properties":{"osm_id":"6020166948","tag":{"amenity":"recycling","recycling_type":"container"}},"type":"Feature"},
	{"geometry":{"coordinates":[10.638972,47.902472],"type":"Point"},"properties":{"osm_id":"8192230462","tag":{"amenity":"waste_basket"}},"type":"Feature"},
	{"geometry":{"coordinates":[10.637137,47.904636],"type":"Point"},"properties":{"osm_id":"8192230463","tag":{"amenity":"waste_basket"}},"type":"Feature"},
	{"geometry":{"coordinates":[10.637315,47.904897],"type":"Point"},"properties":{"osm_id":"8192230464","tag":{"amenity":"waste_basket"}},"type":"Feature"},
	{"geometry":{"coordinates":[10.636243,47.906487],"type":"Point"},"properties":{"osm_id":"8192230468","tag":{"amenity":"recycling","recycling:clothes":"yes","recycling_type":"container"}},"type":"Feature"},
	{"geometry":{"coordinates":[10.635702,47.90708],"type":"Point"},"properties":{"osm_id":"8192230469","tag":{"amenity":"waste_basket"}},"type":"Feature"},
	{"geometry":{"coordinates":[10.635875,47.907255],"type":"Point"},"properties":{"osm_id":"8192230470","tag":{"amenity":"waste_basket"}},"type":"Feature"},
	{"geometry":{"coordinates":[10.63529,47.916651],"type":"Point"},"properties":{"osm_id":"8192230483","tag":{"amenity":"recycling","recycling:clothes":"yes","recycling_type":"container"}},"type":"Feature"},
	{"geometry":{"coordinates":[10.635298,47.916629],"type":"Point"},"properties":{"osm_id":"8192230484","tag":{"amenity":"waste_basket"}},"type":"Feature"},
	{"geometry":{"coordinates":[10.635038,47.917523],"type":"Point"},"properties":{"osm_id":"8192230485","tag":{"amenity":"waste_basket"}},"type":"Feature"}
]
}
