{
"type": "FeatureCollection",
"features": [
	{"geometry":{"coordinates":[10.638748,47.609142],"type":"Point"},"properties":{"osm_id":"465734459","tag":{"amenity":"recycling","recycling:cans":"yes","recycling:glass":"yes","recycling:scrap_metal":"yes","recycling_type":"container"}},"type":"Feature"},
	{"geometry":{"coordinates":[10.709254,47.58267],"type":"Point"},"properties":{"osm_id":"966707628","tag":{"amenity":"waste_basket"}},"type":"Feature"},
	{"geometry":{"coordinates":[10.707384,47.579708],"type":"Point"},"properties":{"osm_id":"966707784","tag":{"amenity":"waste_basket"}},"type":"Feature"},
	{"geometry":{"coordinates":[10.71585,47.620003],"type":"Point"},"properties":{"osm_id":"1423343238","tag":{"amenity":"recycling","recycling:cartons":"yes","recycling:glass":"yes","recycling_type":"container"}},"type":"Feature"},
	{"geometry":{"coordinates":[10.710688,47.59808],"type":"Point"},"properties":{"name":"Wertstoffhof","osm_id":"1921776763","tag":{"amenity":"waste_disposal"}},"type":"Feature"},
	{"geometry":{"coordinates":[10.668825,47.610155],"type":"Point"},"properties":{"osm_id":"2008259774","tag":{"amenity":"recycling","recycling_type":"container"}},"type":"Feature"},
	{"geometry":{"coordinates":[10.701082,47.581847],"type":"Point"},"properties":{"name":"Wetstoff und M\u00c3\u00bcllplatz","osm_id":"4712150728","tag":{"amenity":"recycling","recycling_type":"container"}},"type":"Feature"},
	{"geometry":{"coordinates":[10.677432,47.607607],"type":"Point"},"properties":{"osm_id":"4784329177","tag":{"amenity":"waste_basket"}},"type":"Feature"},
	{"geometry":{"coordinates":[10.705555,47.581179],"type":"Point"},"properties":{"osm_id":"5157120733","tag":{"amenity":"waste_basket"}},"type":"Feature"},
	{"geometry":{"coordinates":[10.674782,47.607767],"type":"Point"},"properties":{"osm_id":"5157123545","tag":{"amenity":"waste_basket"}},"type":"Feature"},
	{"geometry":{"coordinates":[10.675087,47.607652],"type":"Point"},"properties":{"osm_id":"5157124121","tag":{"amenity":"waste_basket"}},"type":"Feature"},
	{"geometry":{"coordinates":[10.708313,47.580714],"type":"Point"},"properties":{"osm_id":"5625100222","tag":{"amenity":"waste_basket"}},"type":"Feature"},
	{"geometry":{"coordinates":[10.706603,47.577073],"type":"Point"},"properties":{"osm_id":"5625124021","tag":{"amenity":"waste_basket"}},"type":"Feature"},
	{"geometry":{"coordinates":[10.683296,47.602167],"type":"Point"},"properties":{"osm_id":"5885822101","tag":{"amenity":"waste_basket"}},"type":"Feature"},
	{"geometry":{"coordinates":[10.68447,47.609504],"type":"Point"},"properties":{"osm_id":"5887999732","tag":{"amenity":"waste_basket"}},"type":"Feature"},
	{"geometry":{"coordinates":[10.675636,47.610001],"type":"Point"},"properties":{"osm_id":"5888000609","tag":{"amenity":"waste_basket"}},"type":"Feature"},
	{"geometry":{"coordinates":[10.672201,47.608445],"type":"Point"},"properties":{"osm_id":"5891415915","tag":{"amenity":"waste_basket"}},"type":"Feature"},
	{"geometry":{"coordinates":[10.668486,47.608061],"type":"Point"},"properties":{"osm_id":"5891415930","tag":{"amenity":"waste_basket"}},"type":"Feature"},
	{"geometry":{"coordinates":[10.67179,47.610538],"type":"Point"},"properties":{"osm_id":"5891416600","tag":{"amenity":"waste_basket"}},"type":"Feature"},
	{"geometry":{"coordinates":[10.669939,47.609085],"type":"Point"},"properties":{"osm_id":"5912207926","tag":{"amenity":"recycling","recycling:glass":"yes","recycling:glass_bottles":"yes","recycling_type":"container"}},"type":"Feature"},
	{"geometry":{"coordinates":[10.683008,47.602087],"type":"Point"},"properties":{"osm_id":"5918831863","tag":{"amenity":"waste_basket"}},"type":"Feature"},
	{"geometry":{"coordinates":[10.66488,47.596349],"type":"Point"},"properties":{"osm_id":"5918832332","tag":{"amenity":"waste_basket"}},"type":"Feature"},
	{"geometry":{"coordinates":[10.711571,47.579184],"type":"Point"},"properties":{"osm_id":"5967571017","tag":{"amenity":"waste_basket"}},"type":"Feature"},
	{"geometry":{"coordinates":[10.679101,47.607146],"type":"Point"},"properties":{"osm_id":"6090928592","tag":{"amenity":"waste_basket"}},"type":"Feature"},
	{"geometry":{"coordinates":[10.67237,47.608285],"type":"Point"},"properties":{"osm_id":"6090928594","tag":{"amenity":"waste_basket"}},"type":"Feature"},
	{"geometry":{"coordinates":[10.673159,47.608263],"type":"Point"},"properties":{"osm_id":"6090928595","tag":{"amenity":"waste_basket"}},"type":"Feature"},
	{"geometry":{"coordinates":[10.674305,47.607914],"type":"Point"},"properties":{"osm_id":"6090928604","tag":{"amenity":"waste_basket"}},"type":"Feature"},
	{"geometry":{"coordinates":[10.67546,47.607631],"type":"Point"},"properties":{"osm_id":"6090928611","tag":{"amenity":"waste_basket"}},"type":"Feature"},
	{"geometry":{"coordinates":[10.676088,47.607623],"type":"Point"},"properties":{"osm_id":"6090928614","tag":{"amenity":"waste_basket"}},"type":"Feature"},
	{"geometry":{"coordinates":[10.678246,47.607438],"type":"Point"},"properties":{"osm_id":"6090928642","tag":{"amenity":"waste_basket"}},"type":"Feature"},
	{"geometry":{"coordinates":[10.678553,47.607739],"type":"Point"},"properties":{"osm_id":"6090928651","tag":{"amenity":"waste_basket"}},"type":"Feature"},
	{"geometry":{"coordinates":[10.6798,47.606889],"type":"Point"},"properties":{"osm_id":"6090928674","tag":{"amenity":"waste_basket"}},"type":"Feature"},
	{"geometry":{"coordinates":[10.681545,47.606334],"type":"Point"},"properties":{"osm_id":"6090928683","tag":{"amenity":"waste_basket"}},"type":"Feature"},
	{"geometry":{"coordinates":[10.68206,47.60593],"type":"Point"},"properties":{"osm_id":"6090929090","tag":{"amenity":"waste_basket"}},"type":"Feature"},
	{"geometry":{"coordinates":[10.682506,47.60546],"type":"Point"},"properties":{"osm_id":"6090929094","tag":{"amenity":"waste_basket"}},"type":"Feature"},
	{"geometry":{"coordinates":[10.682742,47.604741],"type":"Point"},"properties":{"osm_id":"6090929102","tag":{"amenity":"waste_basket"}},"type":"Feature"},
	{"geometry":{"coordinates":[10.682896,47.604356],"type":"Point"},"properties":{"osm_id":"6090929111","tag":{"amenity":"waste_basket"}},"type":"Feature"},
	{"geometry":{"coordinates":[10.702545,47.617414],"type":"Point"},"properties":{"osm_id":"6856261700","tag":{"amenity":"waste_basket","waste":"dog_excrement"}},"type":"Feature"},
	{"geometry":{"coordinates":[10.707539,47.61601],"type":"Point"},"properties":{"osm_id":"6856261732","tag":{"amenity":"waste_basket","waste":"dog_excrement"}},"type":"Feature"},
	{"geometry":{"coordinates":[10.71612,47.613473],"type":"Point"},"properties":{"osm_id":"6856261788","tag":{"amenity":"waste_basket","waste":"dog_excrement"}},"type":"Feature"},
	{"geometry":{"coordinates":[10.685289,47.605496],"type":"Point"},"properties":{"osm_id":"6955041256","tag":{"amenity":"recycling","recycling:green_waste":"yes"}},"type":"Feature"},
	{"geometry":{"coordinates":[10.710361,47.607388],"type":"Point"},"properties":{"osm_id":"6955041401","tag":{"amenity":"recycling","recycling:green_waste":"yes","recycling_type":"container"}},"type":"Feature"},
	{"geometry":{"coordinates":[10.707492,47.586104],"type":"Point"},"properties":{"osm_id":"6970199171","tag":{"amenity":"waste_basket"}},"type":"Feature"},
	{"geometry":{"coordinates":[10.710306,47.580285],"type":"Point"},"properties":{"osm_id":"7856854303","tag":{"amenity":"waste_basket"}},"type":"Feature"}
]
}
