{
"type": "FeatureCollection",
"features": [
	{"geometry":{"coordinates":[10.676537,45.44418],"type":"Point"},"properties":{"osm_id":"956794874","tag":{"amenity":"recycling","recycling:glass":"yes"}},"type":"Feature"},
	{"geometry":{"coordinates":[10.690556,45.436012],"type":"Point"},"properties":{"barrier":"gate","osm_id":"2258472184"},"type":"Feature"},
	{"geometry":{"coordinates":[10.713306,45.457303],"type":"Point"},"properties":{"name":"Raccolta Differenziata","osm_id":"2322204017","tag":{"amenity":"waste_basket","name:en":"Recycling","name:it":"Raccolta Differenziata"}},"type":"Feature"},
	{"geometry":{"coordinates":[10.709035,45.457582],"type":"Point"},"properties":{"name":"Raccolta Differenziata","osm_id":"2327243948","tag":{"amenity":"waste_basket","name:en":"Recycling","name:it":"Raccolta Differenziata"}},"type":"Feature"},
	{"geometry":{"coordinates":[10.708582,45.456543],"type":"Point"},"properties":{"name":"Raccolta Differenziata","osm_id":"2327243953","tag":{"amenity":"waste_basket","name:en":"Recycling","name:it":"Raccolta Differenziata"}},"type":"Feature"},
	{"geometry":{"coordinates":[10.707,45.457643],"type":"Point"},"properties":{"name":"Raccolta Differenziata","osm_id":"2327244002","tag":{"amenity":"waste_basket","name:en":"Recycling","name:it":"Raccolta Differenziata"}},"type":"Feature"},
	{"geometry":{"coordinates":[10.690021,45.432599],"type":"Point"},"properties":{"osm_id":"2687541965","tag":{"amenity":"waste_basket"}},"type":"Feature"},
	{"geometry":{"coordinates":[10.695078,45.431703],"type":"Point"},"properties":{"osm_id":"2687568637","tag":{"amenity":"waste_basket"}},"type":"Feature"},
	{"geometry":{"coordinates":[10.690428,45.431216],"type":"Point"},"properties":{"osm_id":"2687568699","tag":{"amenity":"waste_basket"}},"type":"Feature"},
	{"geometry":{"coordinates":[10.68991,45.431354],"type":"Point"},"properties":{"osm_id":"2687568701","tag":{"amenity":"waste_basket"}},"type":"Feature"},
	{"geometry":{"coordinates":[10.635305,45.458894],"type":"Point"},"properties":{"osm_id":"3569916034","tag":{"amenity":"recycling","recycling:aluminium":"yes","recycling:glass":"yes","recycling:paper":"yes","recycling:plastic_bottles":"yes","recycling_type":"container"}},"type":"Feature"},
	{"geometry":{"coordinates":[10.698026,45.453178],"type":"Point"},"properties":{"osm_id":"4230020403","tag":{"amenity":"waste_basket"}},"type":"Feature"},
	{"geometry":{"coordinates":[10.700707,45.456231],"type":"Point"},"properties":{"osm_id":"4230021521","tag":{"amenity":"waste_basket"}},"type":"Feature"},
	{"geometry":{"coordinates":[10.69984,45.45532],"type":"Point"},"properties":{"osm_id":"4230021523","tag":{"amenity":"waste_basket","recycling:cans":"yes","recycling:glass":"yes","recycling:plastic":"yes"}},"type":"Feature"},
	{"geometry":{"coordinates":[10.701715,45.45648],"type":"Point"},"properties":{"osm_id":"4230021527","tag":{"amenity":"waste_basket"}},"type":"Feature"},
	{"geometry":{"coordinates":[10.701936,45.456635],"type":"Point"},"properties":{"osm_id":"4230021528","tag":{"amenity":"waste_basket","recycling:cans":"yes","recycling:glass":"yes","recycling:plastic":"yes"}},"type":"Feature"},
	{"geometry":{"coordinates":[10.701969,45.456199],"type":"Point"},"properties":{"osm_id":"4295233810","tag":{"amenity":"waste_basket"}},"type":"Feature"},
	{"geometry":{"coordinates":[10.676314,45.445014],"type":"Point"},"properties":{"osm_id":"5593843536","tag":{"amenity":"recycling","recycling:cans":"yes","recycling:glass":"yes","recycling:paper":"yes","recycling:plastic":"yes","recycling:waste":"yes","recycling_type":"container","wheelchair":"yes"}},"type":"Feature"},
	{"geometry":{"coordinates":[10.684727,45.439726],"type":"Point"},"properties":{"osm_id":"6035360180","tag":{"amenity":"waste_disposal"}},"type":"Feature"},
	{"geometry":{"coordinates":[10.693515,45.439081],"type":"Point"},"properties":{"osm_id":"6906356505","tag":{"amenity":"waste_basket"}},"type":"Feature"},
	{"geometry":{"coordinates":[10.694048,45.438827],"type":"Point"},"properties":{"osm_id":"6906356509","tag":{"amenity":"waste_basket"}},"type":"Feature"},
	{"geometry":{"coordinates":[10.684103,45.444969],"type":"Point"},"properties":{"osm_id":"6913395608","tag":{"amenity":"waste_basket","waste":"glass"}},"type":"Feature"},
	{"geometry":{"coordinates":[10.6841,45.444965],"type":"Point"},"properties":{"osm_id":"6913395609","tag":{"amenity":"waste_basket","waste":"plastic"}},"type":"Feature"},
	{"geometry":{"coordinates":[10.684107,45.444972],"type":"Point"},"properties":{"osm_id":"6913395610","tag":{"amenity":"waste_basket"}},"type":"Feature"},
	{"geometry":{"coordinates":[10.683844,45.445025],"type":"Point"},"properties":{"osm_id":"6913395612","tag":{"amenity":"waste_basket","waste":"plastic"}},"type":"Feature"},
	{"geometry":{"coordinates":[10.683841,45.445024],"type":"Point"},"properties":{"osm_id":"6913395613","tag":{"amenity":"waste_basket","waste":"glass"}},"type":"Feature"},
	{"geometry":{"coordinates":[10.683839,45.445022],"type":"Point"},"properties":{"osm_id":"6913395614","tag":{"amenity":"waste_basket"}},"type":"Feature"},
	{"geometry":{"coordinates":[10.683838,45.44502],"type":"Point"},"properties":{"osm_id":"6913395615","tag":{"amenity":"waste_basket"}},"type":"Feature"},
	{"geometry":{"coordinates":[10.683502,45.444998],"type":"Point"},"properties":{"osm_id":"6913395616","tag":{"amenity":"waste_basket","material":"plastic"}},"type":"Feature"},
	{"geometry":{"coordinates":[10.683495,45.445],"type":"Point"},"properties":{"osm_id":"6913395617","tag":{"amenity":"waste_basket","waste":"glass"}},"type":"Feature"},
	{"geometry":{"coordinates":[10.683487,45.445004],"type":"Point"},"properties":{"osm_id":"6913395618","tag":{"amenity":"waste_basket","waste":"plastic"}},"type":"Feature"},
	{"geometry":{"coordinates":[10.682527,45.445284],"type":"Point"},"properties":{"osm_id":"6913395635","tag":{"amenity":"waste_basket","waste":"plastic"}},"type":"Feature"},
	{"geometry":{"coordinates":[10.682533,45.445283],"type":"Point"},"properties":{"osm_id":"6913395636","tag":{"amenity":"waste_basket","waste":"glass"}},"type":"Feature"},
	{"geometry":{"coordinates":[10.68252,45.445286],"type":"Point"},"properties":{"osm_id":"6913395637","tag":{"amenity":"waste_basket","waste":"mixed"}},"type":"Feature"},
	{"geometry":{"coordinates":[10.680798,45.445755],"type":"Point"},"properties":{"osm_id":"6913395641","tag":{"amenity":"waste_basket","waste":"glass"}},"type":"Feature"},
	{"geometry":{"coordinates":[10.680793,45.445758],"type":"Point"},"properties":{"osm_id":"6913395642","tag":{"amenity":"waste_basket","waste":"plastic"}},"type":"Feature"},
	{"geometry":{"coordinates":[10.680788,45.445759],"type":"Point"},"properties":{"osm_id":"6913395643","tag":{"amenity":"waste_basket","waste":"mixed"}},"type":"Feature"},
	{"geometry":{"coordinates":[10.679675,45.446048],"type":"Point"},"properties":{"osm_id":"6913479835","tag":{"amenity":"waste_basket","waste":"paper"}},"type":"Feature"},
	{"geometry":{"coordinates":[10.679672,45.446049],"type":"Point"},"properties":{"osm_id":"6913479836","tag":{"amenity":"waste_basket","waste":"mixed"}},"type":"Feature"},
	{"geometry":{"coordinates":[10.67967,45.446049],"type":"Point"},"properties":{"osm_id":"6913479837","tag":{"amenity":"waste_basket","waste":"glass"}},"type":"Feature"},
	{"geometry":{"coordinates":[10.679668,45.446049],"type":"Point"},"properties":{"osm_id":"6913479838","tag":{"amenity":"waste_basket","waste":"mixed"}},"type":"Feature"},
	{"geometry":{"coordinates":[10.679064,45.446407],"type":"Point"},"properties":{"osm_id":"6913479843","tag":{"amenity":"waste_basket","waste":"glass"}},"type":"Feature"},
	{"geometry":{"coordinates":[10.679056,45.446409],"type":"Point"},"properties":{"osm_id":"6913479844","tag":{"amenity":"waste_basket","waste":"plastic"}},"type":"Feature"},
	{"geometry":{"coordinates":[10.679041,45.44641],"type":"Point"},"properties":{"osm_id":"6913479845","tag":{"amenity":"waste_basket","waste":"mixed"}},"type":"Feature"},
	{"geometry":{"coordinates":[10.678173,45.446438],"type":"Point"},"properties":{"osm_id":"6913479849","tag":{"amenity":"waste_basket","waste":"plastic"}},"type":"Feature"},
	{"geometry":{"coordinates":[10.678167,45.446439],"type":"Point"},"properties":{"osm_id":"6913479850","tag":{"amenity":"waste_basket","waste":"mixed"}},"type":"Feature"},
	{"geometry":{"coordinates":[10.678161,45.446441],"type":"Point"},"properties":{"osm_id":"6913479851","tag":{"amenity":"waste_basket","waste":"glass"}},"type":"Feature"},
	{"geometry":{"coordinates":[10.676993,45.446753],"type":"Point"},"properties":{"osm_id":"6913479854","tag":{"amenity":"waste_basket","waste":"glass"}},"type":"Feature"},
	{"geometry":{"coordinates":[10.676989,45.446755],"type":"Point"},"properties":{"osm_id":"6913479855","tag":{"amenity":"waste_basket","waste":"mixed"}},"type":"Feature"},
	{"geometry":{"coordinates":[10.676985,45.446758],"type":"Point"},"properties":{"osm_id":"6913479856","tag":{"amenity":"waste_basket","waste":"plastic"}},"type":"Feature"},
	{"geometry":{"coordinates":[10.675137,45.447276],"type":"Point"},"properties":{"osm_id":"6913479862","tag":{"amenity":"waste_basket","waste":"mixed"}},"type":"Feature"},
	{"geometry":{"coordinates":[10.675136,45.447277],"type":"Point"},"properties":{"osm_id":"6913479863","tag":{"amenity":"waste_basket","waste":"paper"}},"type":"Feature"},
	{"geometry":{"coordinates":[10.675134,45.447277],"type":"Point"},"properties":{"osm_id":"6913479864","tag":{"amenity":"waste_basket","waste":"glass"}},"type":"Feature"},
	{"geometry":{"coordinates":[10.675133,45.447278],"type":"Point"},"properties":{"osm_id":"6913479865","tag":{"amenity":"waste_basket","waste":"mixed"}},"type":"Feature"},
	{"geometry":{"coordinates":[10.673316,45.448256],"type":"Point"},"properties":{"osm_id":"6913479874","tag":{"amenity":"waste_basket","waste":"glass"}},"type":"Feature"},
	{"geometry":{"coordinates":[10.673312,45.448257],"type":"Point"},"properties":{"osm_id":"6913479875","tag":{"amenity":"waste_basket","waste":"plastic"}},"type":"Feature"},
	{"geometry":{"coordinates":[10.673308,45.448257],"type":"Point"},"properties":{"osm_id":"6913479876","tag":{"amenity":"waste_basket","waste":"mixed"}},"type":"Feature"},
	{"geometry":{"coordinates":[10.672264,45.449041],"type":"Point"},"properties":{"osm_id":"6913479881","tag":{"amenity":"waste_basket","waste":"glass"}},"type":"Feature"},
	{"geometry":{"coordinates":[10.672262,45.449042],"type":"Point"},"properties":{"osm_id":"6913479882","tag":{"amenity":"waste_basket","waste":"mixed"}},"type":"Feature"},
	{"geometry":{"coordinates":[10.672261,45.449043],"type":"Point"},"properties":{"osm_id":"6913479883","tag":{"amenity":"waste_basket","waste":"paper"}},"type":"Feature"},
	{"geometry":{"coordinates":[10.672259,45.449045],"type":"Point"},"properties":{"osm_id":"6913479884","tag":{"amenity":"waste_basket","waste":"plastic"}},"type":"Feature"},
	{"geometry":{"coordinates":[10.672086,45.449396],"type":"Point"},"properties":{"osm_id":"6913496886","tag":{"amenity":"waste_basket","waste":"mixed"}},"type":"Feature"},
	{"geometry":{"coordinates":[10.672085,45.4494],"type":"Point"},"properties":{"osm_id":"6913496887","tag":{"amenity":"waste_basket","waste":"glass"}},"type":"Feature"},
	{"geometry":{"coordinates":[10.672083,45.449405],"type":"Point"},"properties":{"osm_id":"6913496888","tag":{"amenity":"waste_basket","waste":"plastic"}},"type":"Feature"},
	{"geometry":{"coordinates":[10.71571,45.414786],"type":"Point"},"properties":{"osm_id":"7826456988","tag":{"amenity":"waste_basket"}},"type":"Feature"}
]
}
