{
"type": "FeatureCollection",
"features": [
	{"geometry":{"coordinates":[10.69394,44.604447],"type":"Point"},"properties":{"osm_id":"824552550","tag":{"amenity":"recycling","recycling:cans":"yes","recycling:glass":"yes","recycling:waste":"yes"}},"type":"Feature"},
	{"geometry":{"coordinates":[10.693881,44.604415],"type":"Point"},"properties":{"osm_id":"824552562","tag":{"amenity":"recycling","recycling:clothes":"yes","recycling:paper":"yes","recycling:plastic":"yes"}},"type":"Feature"},
	{"geometry":{"coordinates":[10.689587,44.598685],"type":"Point"},"properties":{"osm_id":"824552580","tag":{"amenity":"recycling","location":"underground","recycling:cans":"yes","recycling:glass":"yes","recycling:paper":"yes","recycling:plastic":"yes","recycling_type":"container"}},"type":"Feature"},
	{"geometry":{"coordinates":[10.701298,44.603577],"type":"Point"},"properties":{"barrier":"entrance","osm_id":"3525546415"},"type":"Feature"},
	{"geometry":{"coordinates":[10.639395,44.651123],"type":"Point"},"properties":{"osm_id":"5468353293","tag":{"amenity":"waste_basket"}},"type":"Feature"},
	{"geometry":{"coordinates":[10.640094,44.651656],"type":"Point"},"properties":{"osm_id":"5468353297","tag":{"amenity":"waste_basket"}},"type":"Feature"},
	{"geometry":{"coordinates":[10.640669,44.652039],"type":"Point"},"properties":{"osm_id":"5468353301","tag":{"amenity":"waste_basket"}},"type":"Feature"},
	{"geometry":{"coordinates":[10.641206,44.65214],"type":"Point"},"properties":{"osm_id":"5468353310","tag":{"amenity":"waste_basket"}},"type":"Feature"},
	{"geometry":{"coordinates":[10.641929,44.652281],"type":"Point"},"properties":{"osm_id":"5468353315","tag":{"amenity":"waste_basket","waste":"trash"}},"type":"Feature"},
	{"geometry":{"coordinates":[10.642703,44.652441],"type":"Point"},"properties":{"osm_id":"5468353921","tag":{"amenity":"waste_basket","waste":"trash"}},"type":"Feature"},
	{"geometry":{"coordinates":[10.640555,44.647522],"type":"Point"},"properties":{"highway":"street_lamp","osm_id":"5482881345","tag":{"amenity":"waste_basket","waste":"trash"}},"type":"Feature"},
	{"geometry":{"coordinates":[10.641572,44.647207],"type":"Point"},"properties":{"osm_id":"5569966190","tag":{"amenity":"waste_basket","waste":"trash"}},"type":"Feature"},
	{"geometry":{"coordinates":[10.69453,44.597266],"type":"Point"},"properties":{"osm_id":"7883145114","tag":{"amenity":"waste_basket"}},"type":"Feature"}
]
}
