{
"type": "FeatureCollection",
"features": [
	{"geometry":{"coordinates":[13.910648,57.9805],"type":"Point"},"properties":{"osm_id":"8420244967","tag":{"date:plantation":"2020-10-17","leaf_type":"broadleaved","name:de":"Eiche","name:se":"Ek","natural":"tree"}},"type":"Feature"},
	{"geometry":{"coordinates":[13.909641,57.979505],"type":"Point"},"properties":{"osm_id":"8420244968","tag":{"date:plantation":"2020-10-17","leaf_type":"broadleaved","name:de":"Eiche","name:se":"Ek","natural":"tree"}},"type":"Feature"},
	{"geometry":{"coordinates":[13.910084,57.980724],"type":"Point"},"properties":{"osm_id":"8420244969","tag":{"date:plantation":"2020-10-17","leaf_type":"broadleaved","name:de":"Eiche","name:se":"Ek","natural":"tree"}},"type":"Feature"},
	{"geometry":{"coordinates":[13.909677,57.980971],"type":"Point"},"properties":{"osm_id":"8420244970","tag":{"date:plantation":"2020-10-17","leaf_type":"broadleaved","name:de":"Eiche","name:se":"Ek","natural":"tree"}},"type":"Feature"},
	{"geometry":{"coordinates":[13.905266,57.978253],"type":"Point"},"properties":{"osm_id":"8420244971","tag":{"date:plantation":"2020-10-17","leaf_cycle":"deciduous","leaf_type":"broadleaved","name:de":"Eiche","name:se":"Ek","natural":"tree"}},"type":"Feature"}
]
}
