{
"type": "FeatureCollection",
"features": [
	{"geometry":{"coordinates":[13.958055,51.869806],"type":"Point"},"properties":{"osm_id":"465743079","tag":{"natural":"tree"}},"type":"Feature"},
	{"geometry":{"coordinates":[13.969488,51.868597],"type":"Point"},"properties":{"osm_id":"1760682867","tag":{"addr:city":"L\u00c3\u00bcbbenau/Spreewald","addr:country":"DE","addr:postcode":"03222","addr:street":"Spreestra\u00c3\u009fe","leaf_cycle":"deciduous","leaf_type":"broadleaved","natural":"tree"}},"type":"Feature"},
	{"geometry":{"coordinates":[13.957938,51.869069],"type":"Point"},"properties":{"osm_id":"1760682868","tag":{"natural":"tree"}},"type":"Feature"},
	{"geometry":{"coordinates":[13.972126,51.868183],"type":"Point"},"properties":{"osm_id":"1760682881","tag":{"amenity":"bench","backrest":"no","leaf_cycle":"deciduous","leaf_type":"broadleaved","material":"wood","natural":"tree"}},"type":"Feature"},
	{"geometry":{"coordinates":[13.957769,51.869769],"type":"Point"},"properties":{"osm_id":"2476368423","tag":{"natural":"tree"}},"type":"Feature"},
	{"geometry":{"coordinates":[13.969572,51.868733],"type":"Point"},"properties":{"osm_id":"2508851035","tag":{"leaf_cycle":"deciduous","leaf_type":"broadleaved","natural":"tree"}},"type":"Feature"},
	{"geometry":{"coordinates":[13.973519,51.869854],"type":"Point"},"properties":{"osm_id":"2683629876","tag":{"leaf_cycle":"deciduous","leaf_type":"broadleaved","natural":"tree"}},"type":"Feature"},
	{"geometry":{"coordinates":[13.970434,51.871053],"type":"Point"},"properties":{"osm_id":"2687789568","tag":{"natural":"tree"}},"type":"Feature"},
	{"geometry":{"coordinates":[13.971428,51.867664],"type":"Point"},"properties":{"osm_id":"2687911007","tag":{"natural":"tree"}},"type":"Feature"},
	{"geometry":{"coordinates":[13.971424,51.867485],"type":"Point"},"properties":{"osm_id":"2687911065","tag":{"natural":"tree"}},"type":"Feature"},
	{"geometry":{"coordinates":[13.971063,51.867608],"type":"Point"},"properties":{"osm_id":"2687911077","tag":{"natural":"tree"}},"type":"Feature"},
	{"geometry":{"coordinates":[13.957072,51.867693],"type":"Point"},"properties":{"osm_id":"2698206309","tag":{"natural":"tree"}},"type":"Feature"},
	{"geometry":{"coordinates":[13.958048,51.869077],"type":"Point"},"properties":{"osm_id":"2698419735","tag":{"natural":"tree"}},"type":"Feature"},
	{"geometry":{"coordinates":[13.963306,51.864416],"type":"Point"},"properties":{"osm_id":"2700130432","tag":{"natural":"tree"}},"type":"Feature"},
	{"geometry":{"coordinates":[13.963369,51.864323],"type":"Point"},"properties":{"osm_id":"2700130438","tag":{"natural":"tree"}},"type":"Feature"},
	{"geometry":{"coordinates":[13.972618,51.869629],"type":"Point"},"properties":{"osm_id":"2700767440","tag":{"leaf_cycle":"deciduous","leaf_type":"broadleaved","natural":"tree"}},"type":"Feature"},
	{"geometry":{"coordinates":[13.904119,51.886507],"type":"Point"},"properties":{"osm_id":"2773757017","tag":{"denotation":"urban","heritage":"yes","natural":"tree"}},"type":"Feature"},
	{"geometry":{"coordinates":[13.972824,51.869614],"type":"Point"},"properties":{"osm_id":"3130585930","tag":{"leaf_cycle":"deciduous","leaf_type":"broadleaved","natural":"tree"}},"type":"Feature"},
	{"geometry":{"coordinates":[13.940623,51.855268],"type":"Point"},"properties":{"osm_id":"3397014311","tag":{"leaf_cycle":"deciduous","leaf_type":"broadleaved","natural":"tree"}},"type":"Feature"},
	{"geometry":{"coordinates":[13.905737,51.885264],"type":"Point"},"properties":{"osm_id":"3561796201","tag":{"natural":"tree"}},"type":"Feature"},
	{"geometry":{"coordinates":[13.904716,51.886007],"type":"Point"},"properties":{"osm_id":"3561796229","tag":{"natural":"tree"}},"type":"Feature"},
	{"geometry":{"coordinates":[13.903426,51.886771],"type":"Point"},"properties":{"osm_id":"3561796289","tag":{"leaf_cycle":"deciduous","leaf_type":"broadleaved","natural":"tree"}},"type":"Feature"},
	{"geometry":{"coordinates":[13.903843,51.886923],"type":"Point"},"properties":{"osm_id":"3561796309","tag":{"natural":"tree"}},"type":"Feature"},
	{"geometry":{"coordinates":[13.974499,51.868353],"type":"Point"},"properties":{"osm_id":"3576611460","tag":{"leaf_cycle":"deciduous","leaf_type":"broadleaved","natural":"tree"}},"type":"Feature"},
	{"geometry":{"coordinates":[13.974278,51.868388],"type":"Point"},"properties":{"osm_id":"3576611464","tag":{"leaf_cycle":"deciduous","leaf_type":"broadleaved","natural":"tree"}},"type":"Feature"},
	{"geometry":{"coordinates":[13.974362,51.868592],"type":"Point"},"properties":{"osm_id":"3576611468","tag":{"leaf_cycle":"deciduous","leaf_type":"broadleaved","natural":"tree"}},"type":"Feature"},
	{"geometry":{"coordinates":[13.974208,51.868677],"type":"Point"},"properties":{"osm_id":"3576611482","tag":{"leaf_cycle":"deciduous","leaf_type":"broadleaved","natural":"tree"}},"type":"Feature"},
	{"geometry":{"coordinates":[13.974577,51.869299],"type":"Point"},"properties":{"osm_id":"3576611564","tag":{"leaf_cycle":"deciduous","leaf_type":"broadleaved","natural":"tree"}},"type":"Feature"},
	{"geometry":{"coordinates":[13.973753,51.869612],"type":"Point"},"properties":{"osm_id":"3576611588","tag":{"leaf_cycle":"deciduous","leaf_type":"broadleaved","natural":"tree"}},"type":"Feature"},
	{"geometry":{"coordinates":[13.97345,51.869638],"type":"Point"},"properties":{"osm_id":"3576611592","tag":{"leaf_cycle":"deciduous","leaf_type":"broadleaved","natural":"tree"}},"type":"Feature"},
	{"geometry":{"coordinates":[13.972948,51.869639],"type":"Point"},"properties":{"osm_id":"3576611593","tag":{"leaf_cycle":"deciduous","leaf_type":"broadleaved","natural":"tree"}},"type":"Feature"},
	{"geometry":{"coordinates":[13.973333,51.869664],"type":"Point"},"properties":{"osm_id":"3576611596","tag":{"leaf_cycle":"deciduous","leaf_type":"broadleaved","natural":"tree"}},"type":"Feature"},
	{"geometry":{"coordinates":[13.973445,51.8697],"type":"Point"},"properties":{"osm_id":"3576611600","tag":{"leaf_cycle":"deciduous","leaf_type":"broadleaved","natural":"tree"}},"type":"Feature"},
	{"geometry":{"coordinates":[13.974207,51.869858],"type":"Point"},"properties":{"osm_id":"3576611606","tag":{"leaf_cycle":"deciduous","leaf_type":"broadleaved","natural":"tree"}},"type":"Feature"},
	{"geometry":{"coordinates":[13.972498,51.86955],"type":"Point"},"properties":{"osm_id":"3628709433","tag":{"leaf_cycle":"deciduous","leaf_type":"broadleaved","natural":"tree"}},"type":"Feature"},
	{"geometry":{"coordinates":[13.973129,51.869752],"type":"Point"},"properties":{"osm_id":"3628709435","tag":{"leaf_cycle":"deciduous","leaf_type":"broadleaved","natural":"tree"}},"type":"Feature"},
	{"geometry":{"coordinates":[13.973334,51.86982],"type":"Point"},"properties":{"osm_id":"3628709436","tag":{"leaf_cycle":"deciduous","leaf_type":"broadleaved","natural":"tree"}},"type":"Feature"},
	{"geometry":{"coordinates":[13.962727,51.861817],"type":"Point"},"properties":{"osm_id":"4031811987","tag":{"natural":"tree"}},"type":"Feature"},
	{"geometry":{"coordinates":[13.962395,51.862043],"type":"Point"},"properties":{"osm_id":"4031811988","tag":{"natural":"tree"}},"type":"Feature"},
	{"geometry":{"coordinates":[13.960701,51.862645],"type":"Point"},"properties":{"osm_id":"4031812495","tag":{"natural":"tree"}},"type":"Feature"},
	{"geometry":{"coordinates":[13.966033,51.860473],"type":"Point"},"properties":{"osm_id":"4031812904","tag":{"natural":"tree"}},"type":"Feature"},
	{"geometry":{"coordinates":[13.962828,51.861778],"type":"Point"},"properties":{"osm_id":"4031814764","tag":{"natural":"tree"}},"type":"Feature"},
	{"geometry":{"coordinates":[13.962022,51.862102],"type":"Point"},"properties":{"osm_id":"4031814765","tag":{"natural":"tree"}},"type":"Feature"},
	{"geometry":{"coordinates":[13.961802,51.862195],"type":"Point"},"properties":{"osm_id":"4031814766","tag":{"natural":"tree"}},"type":"Feature"},
	{"geometry":{"coordinates":[13.959703,51.863057],"type":"Point"},"properties":{"osm_id":"4031814769","tag":{"natural":"tree"}},"type":"Feature"},
	{"geometry":{"coordinates":[13.959787,51.863111],"type":"Point"},"properties":{"osm_id":"4031814770","tag":{"natural":"tree"}},"type":"Feature"},
	{"geometry":{"coordinates":[13.960785,51.862612],"type":"Point"},"properties":{"osm_id":"4031814836","tag":{"natural":"tree"}},"type":"Feature"},
	{"geometry":{"coordinates":[13.968123,51.858236],"type":"Point"},"properties":{"osm_id":"4031814947","tag":{"natural":"tree"}},"type":"Feature"},
	{"geometry":{"coordinates":[13.962554,51.861979],"type":"Point"},"properties":{"osm_id":"4031814952","tag":{"natural":"tree"}},"type":"Feature"},
	{"geometry":{"coordinates":[13.95982,51.863009],"type":"Point"},"properties":{"osm_id":"4031814954","tag":{"natural":"tree"}},"type":"Feature"},
	{"geometry":{"coordinates":[13.959355,51.863291],"type":"Point"},"properties":{"osm_id":"4031814955","tag":{"natural":"tree"}},"type":"Feature"},
	{"geometry":{"coordinates":[13.965924,51.860516],"type":"Point"},"properties":{"osm_id":"4031819797","tag":{"natural":"tree"}},"type":"Feature"},
	{"geometry":{"coordinates":[13.961541,51.862303],"type":"Point"},"properties":{"osm_id":"4031827257","tag":{"natural":"tree"}},"type":"Feature"},
	{"geometry":{"coordinates":[13.959925,51.862968],"type":"Point"},"properties":{"osm_id":"4031827258","tag":{"natural":"tree"}},"type":"Feature"},
	{"geometry":{"coordinates":[13.959936,51.863057],"type":"Point"},"properties":{"osm_id":"4031827259","tag":{"natural":"tree"}},"type":"Feature"},
	{"geometry":{"coordinates":[13.959567,51.863109],"type":"Point"},"properties":{"osm_id":"4031827260","tag":{"natural":"tree"}},"type":"Feature"},
	{"geometry":{"coordinates":[13.959626,51.863179],"type":"Point"},"properties":{"osm_id":"4031827261","tag":{"natural":"tree"}},"type":"Feature"},
	{"geometry":{"coordinates":[13.959443,51.863254],"type":"Point"},"properties":{"osm_id":"4031827262","tag":{"natural":"tree"}},"type":"Feature"},
	{"geometry":{"coordinates":[13.962273,51.862094],"type":"Point"},"properties":{"osm_id":"4031843389","tag":{"natural":"tree"}},"type":"Feature"},
	{"geometry":{"coordinates":[13.961921,51.862149],"type":"Point"},"properties":{"osm_id":"4031843390","tag":{"natural":"tree"}},"type":"Feature"},
	{"geometry":{"coordinates":[13.962127,51.862157],"type":"Point"},"properties":{"osm_id":"4031843391","tag":{"natural":"tree"}},"type":"Feature"},
	{"geometry":{"coordinates":[13.96043,51.862764],"type":"Point"},"properties":{"osm_id":"4031843392","tag":{"natural":"tree"}},"type":"Feature"},
	{"geometry":{"coordinates":[13.959184,51.863359],"type":"Point"},"properties":{"osm_id":"4031843395","tag":{"natural":"tree"}},"type":"Feature"},
	{"geometry":{"coordinates":[13.962073,51.856366],"type":"Point"},"properties":{"osm_id":"5166259148","tag":{"natural":"tree"}},"type":"Feature"},
	{"geometry":{"coordinates":[13.961783,51.856107],"type":"Point"},"properties":{"osm_id":"5166260934","tag":{"natural":"tree"}},"type":"Feature"},
	{"geometry":{"coordinates":[13.951818,51.851127],"type":"Point"},"properties":{"osm_id":"5384033245","tag":{"natural":"tree"}},"type":"Feature"},
	{"geometry":{"coordinates":[13.950925,51.85137],"type":"Point"},"properties":{"osm_id":"5384033246","tag":{"natural":"tree"}},"type":"Feature"},
	{"geometry":{"coordinates":[13.951504,51.851211],"type":"Point"},"properties":{"osm_id":"5384038222","tag":{"natural":"tree"}},"type":"Feature"},
	{"geometry":{"coordinates":[13.950053,51.851637],"type":"Point"},"properties":{"osm_id":"5384038223","tag":{"natural":"tree"}},"type":"Feature"},
	{"geometry":{"coordinates":[13.918394,51.84333],"type":"Point"},"properties":{"osm_id":"5964828235","tag":{"leaf_cycle":"deciduous","leaf_type":"broadleaved","natural":"tree"}},"type":"Feature"},
	{"geometry":{"coordinates":[13.914525,51.847995],"type":"Point"},"properties":{"osm_id":"5964828785","tag":{"leaf_cycle":"deciduous","leaf_type":"broadleaved","natural":"tree"}},"type":"Feature"},
	{"geometry":{"coordinates":[13.914062,51.848265],"type":"Point"},"properties":{"osm_id":"5964870935","tag":{"leaf_cycle":"deciduous","leaf_type":"broadleaved","natural":"tree"}},"type":"Feature"},
	{"geometry":{"coordinates":[13.914164,51.848205],"type":"Point"},"properties":{"osm_id":"5964870936","tag":{"leaf_cycle":"deciduous","leaf_type":"broadleaved","natural":"tree"}},"type":"Feature"},
	{"geometry":{"coordinates":[13.914268,51.848155],"type":"Point"},"properties":{"osm_id":"5964870937","tag":{"leaf_cycle":"deciduous","leaf_type":"broadleaved","natural":"tree"}},"type":"Feature"},
	{"geometry":{"coordinates":[13.914353,51.848105],"type":"Point"},"properties":{"osm_id":"5964870938","tag":{"leaf_cycle":"deciduous","leaf_type":"broadleaved","natural":"tree"}},"type":"Feature"},
	{"geometry":{"coordinates":[13.913782,51.848447],"type":"Point"},"properties":{"osm_id":"5964870939","tag":{"leaf_cycle":"deciduous","leaf_type":"broadleaved","natural":"tree"}},"type":"Feature"},
	{"geometry":{"coordinates":[13.913564,51.84859],"type":"Point"},"properties":{"osm_id":"5964870940","tag":{"leaf_cycle":"deciduous","leaf_type":"broadleaved","natural":"tree"}},"type":"Feature"},
	{"geometry":{"coordinates":[13.913277,51.848812],"type":"Point"},"properties":{"osm_id":"5964870941","tag":{"leaf_cycle":"deciduous","leaf_type":"broadleaved","natural":"tree"}},"type":"Feature"},
	{"geometry":{"coordinates":[13.91311,51.848926],"type":"Point"},"properties":{"osm_id":"5964870942","tag":{"leaf_cycle":"deciduous","leaf_type":"broadleaved","natural":"tree"}},"type":"Feature"},
	{"geometry":{"coordinates":[13.912604,51.849302],"type":"Point"},"properties":{"osm_id":"5964870943","tag":{"leaf_cycle":"deciduous","leaf_type":"broadleaved","natural":"tree"}},"type":"Feature"},
	{"geometry":{"coordinates":[13.917357,51.853292],"type":"Point"},"properties":{"osm_id":"5964876787","tag":{"leaf_cycle":"deciduous","leaf_type":"broadleaved","natural":"tree"}},"type":"Feature"},
	{"geometry":{"coordinates":[13.922729,51.850542],"type":"Point"},"properties":{"osm_id":"5964876810","tag":{"leaf_cycle":"deciduous","leaf_type":"broadleaved","natural":"tree"}},"type":"Feature"},
	{"geometry":{"coordinates":[13.899562,51.847522],"type":"Point"},"properties":{"osm_id":"5964876825","tag":{"leaf_cycle":"deciduous","leaf_type":"broadleaved","natural":"tree"}},"type":"Feature"},
	{"geometry":{"coordinates":[13.900633,51.847402],"type":"Point"},"properties":{"osm_id":"5964876827","tag":{"denotation":"landmark","leaf_cycle":"deciduous","leaf_type":"broadleaved","natural":"tree"}},"type":"Feature"},
	{"geometry":{"coordinates":[13.902856,51.848605],"type":"Point"},"properties":{"osm_id":"5964876831","tag":{"leaf_cycle":"deciduous","leaf_type":"broadleaved","natural":"tree"}},"type":"Feature"},
	{"geometry":{"coordinates":[13.905457,51.849082],"type":"Point"},"properties":{"osm_id":"5964876836","tag":{"leaf_cycle":"deciduous","leaf_type":"broadleaved","natural":"tree"}},"type":"Feature"},
	{"geometry":{"coordinates":[13.905551,51.849097],"type":"Point"},"properties":{"osm_id":"5964876837","tag":{"leaf_cycle":"deciduous","leaf_type":"broadleaved","natural":"tree"}},"type":"Feature"},
	{"geometry":{"coordinates":[13.905673,51.849112],"type":"Point"},"properties":{"osm_id":"5964876838","tag":{"leaf_cycle":"deciduous","leaf_type":"broadleaved","natural":"tree"}},"type":"Feature"},
	{"geometry":{"coordinates":[13.905791,51.849122],"type":"Point"},"properties":{"osm_id":"5964876839","tag":{"leaf_cycle":"deciduous","leaf_type":"broadleaved","natural":"tree"}},"type":"Feature"},
	{"geometry":{"coordinates":[13.928563,51.84922],"type":"Point"},"properties":{"osm_id":"5964876872","tag":{"leaf_cycle":"deciduous","leaf_type":"broadleaved","natural":"tree"}},"type":"Feature"},
	{"geometry":{"coordinates":[13.92967,51.849325],"type":"Point"},"properties":{"osm_id":"5964876873","tag":{"leaf_cycle":"deciduous","leaf_type":"broadleaved","natural":"tree"}},"type":"Feature"},
	{"geometry":{"coordinates":[13.918171,51.855708],"type":"Point"},"properties":{"osm_id":"5964876992","tag":{"leaf_cycle":"deciduous","leaf_type":"broadleaved","natural":"tree"}},"type":"Feature"},
	{"geometry":{"coordinates":[13.914396,51.849254],"type":"Point"},"properties":{"osm_id":"5965993884","tag":{"leaf_cycle":"deciduous","leaf_type":"broadleaved","natural":"tree"}},"type":"Feature"},
	{"geometry":{"coordinates":[13.909227,51.852479],"type":"Point"},"properties":{"osm_id":"5967723713","tag":{"leaf_cycle":"deciduous","leaf_type":"broadleaved","natural":"tree"}},"type":"Feature"},
	{"geometry":{"coordinates":[13.909573,51.852442],"type":"Point"},"properties":{"osm_id":"5967723714","tag":{"leaf_type":"broadleaved","natural":"tree"}},"type":"Feature"},
	{"geometry":{"coordinates":[13.909602,51.852424],"type":"Point"},"properties":{"osm_id":"5967723715","tag":{"leaf_cycle":"deciduous","leaf_type":"broadleaved","natural":"tree"}},"type":"Feature"},
	{"geometry":{"coordinates":[13.915899,51.840272],"type":"Point"},"properties":{"osm_id":"5968471480","tag":{"leaf_cycle":"deciduous","leaf_type":"broadleaved","natural":"tree"}},"type":"Feature"},
	{"geometry":{"coordinates":[13.91607,51.840327],"type":"Point"},"properties":{"osm_id":"5968471481","tag":{"leaf_cycle":"deciduous","leaf_type":"broadleaved","natural":"tree"}},"type":"Feature"},
	{"geometry":{"coordinates":[13.916234,51.840261],"type":"Point"},"properties":{"osm_id":"5968471482","tag":{"leaf_cycle":"deciduous","leaf_type":"broadleaved","natural":"tree"}},"type":"Feature"},
	{"geometry":{"coordinates":[13.916132,51.840302],"type":"Point"},"properties":{"osm_id":"5968471483","tag":{"leaf_cycle":"deciduous","leaf_type":"broadleaved","natural":"tree"}},"type":"Feature"},
	{"geometry":{"coordinates":[13.926506,51.844879],"type":"Point"},"properties":{"osm_id":"5968471881","tag":{"leaf_cycle":"deciduous","leaf_type":"broadleaved","natural":"tree"}},"type":"Feature"},
	{"geometry":{"coordinates":[13.92002,51.839393],"type":"Point"},"properties":{"osm_id":"5970127732","tag":{"leaf_cycle":"deciduous","leaf_type":"broadleaved","natural":"tree"}},"type":"Feature"},
	{"geometry":{"coordinates":[13.919356,51.839314],"type":"Point"},"properties":{"osm_id":"6089905237","tag":{"leaf_cycle":"deciduous","leaf_type":"broadleaved","natural":"tree"}},"type":"Feature"},
	{"geometry":{"coordinates":[13.921582,51.840705],"type":"Point"},"properties":{"osm_id":"6089905250","tag":{"leaf_cycle":"deciduous","leaf_type":"broadleaved","natural":"tree"}},"type":"Feature"},
	{"geometry":{"coordinates":[13.921657,51.840751],"type":"Point"},"properties":{"osm_id":"6089905251","tag":{"leaf_cycle":"deciduous","leaf_type":"broadleaved","natural":"tree"}},"type":"Feature"},
	{"geometry":{"coordinates":[13.9217,51.840822],"type":"Point"},"properties":{"osm_id":"6089905252","tag":{"leaf_cycle":"deciduous","leaf_type":"broadleaved","natural":"tree"}},"type":"Feature"},
	{"geometry":{"coordinates":[13.949069,51.836634],"type":"Point"},"properties":{"osm_id":"6240983575","tag":{"leaf_cycle":"deciduous","leaf_type":"broadleaved","natural":"tree"}},"type":"Feature"},
	{"geometry":{"coordinates":[13.949474,51.836501],"type":"Point"},"properties":{"osm_id":"6240983576","tag":{"leaf_cycle":"deciduous","leaf_type":"broadleaved","natural":"tree"}},"type":"Feature"},
	{"geometry":{"coordinates":[13.949359,51.836602],"type":"Point"},"properties":{"osm_id":"6240983577","tag":{"leaf_cycle":"deciduous","leaf_type":"broadleaved","natural":"tree"}},"type":"Feature"},
	{"geometry":{"coordinates":[13.949353,51.836699],"type":"Point"},"properties":{"osm_id":"6240983578","tag":{"leaf_cycle":"deciduous","leaf_type":"broadleaved","natural":"tree"}},"type":"Feature"},
	{"geometry":{"coordinates":[13.949316,51.836852],"type":"Point"},"properties":{"osm_id":"6240983579","tag":{"leaf_cycle":"deciduous","leaf_type":"broadleaved","natural":"tree"}},"type":"Feature"},
	{"geometry":{"coordinates":[13.949211,51.836897],"type":"Point"},"properties":{"osm_id":"6240983580","tag":{"leaf_cycle":"deciduous","leaf_type":"broadleaved","natural":"tree"}},"type":"Feature"},
	{"geometry":{"coordinates":[13.948962,51.836816],"type":"Point"},"properties":{"osm_id":"6240983581","tag":{"leaf_cycle":"deciduous","leaf_type":"broadleaved","natural":"tree"}},"type":"Feature"},
	{"geometry":{"coordinates":[13.972758,51.846098],"type":"Point"},"properties":{"name":"Rest Stieleiche","osm_id":"7576056797","tag":{"denotation":"natural_monument","description":"Reste einer Stieleiche in L\u00c3\u00bcbbenau/Spreewald OT Boblitz","image":"https://commons.wikimedia.org/wiki/File:Boblitz_Stieleiche_Reste.jpg","natural":"tree","ruins":"yes"}},"type":"Feature"}
]
}
