{
"type": "FeatureCollection",
"features": [
	{"geometry":{"coordinates":[-99.275631,19.499289],"type":"Point"},"properties":{"osm_id":"4341815102","tag":{"amenity":"recycling"}},"type":"Feature"},
	{"geometry":{"coordinates":[-99.27574,19.498941],"type":"Point"},"properties":{"name":"compra-venta","osm_id":"4415811393","tag":{"amenity":"recycling","name:es":"compra-venta"}},"type":"Feature"},
	{"geometry":{"coordinates":[-99.290457,19.496263],"type":"Point"},"properties":{"osm_id":"4430064393","tag":{"amenity":"waste_disposal"}},"type":"Feature"},
	{"geometry":{"coordinates":[-99.291619,19.495479],"type":"Point"},"properties":{"name":"RECICLEMEX","osm_id":"4430073899","tag":{"amenity":"recycling","name:es":"RECICLEMEX"}},"type":"Feature"},
	{"geometry":{"coordinates":[-99.296217,19.497825],"type":"Point"},"properties":{"osm_id":"4430078794","tag":{"amenity":"recycling"}},"type":"Feature"},
	{"geometry":{"coordinates":[-99.293119,19.497078],"type":"Point"},"properties":{"osm_id":"4430078796","tag":{"amenity":"recycling"}},"type":"Feature"},
	{"geometry":{"coordinates":[-99.29362,19.497388],"type":"Point"},"properties":{"name":"Puente de piedra #111","osm_id":"4430079008","tag":{"amenity":"recycling","name:es":"Puente de piedra #111"}},"type":"Feature"},
	{"geometry":{"coordinates":[-99.291055,19.494669],"type":"Point"},"properties":{"osm_id":"4430079009","tag":{"amenity":"recycling"}},"type":"Feature"},
	{"geometry":{"coordinates":[-99.28446,19.499152],"type":"Point"},"properties":{"osm_id":"4430079010","tag":{"amenity":"recycling"}},"type":"Feature"},
	{"geometry":{"coordinates":[-99.257813,19.502049],"type":"Point"},"properties":{"name":"Fierro viejo","osm_id":"4458634590","tag":{"amenity":"recycling","name:es":"Fierro viejo"}},"type":"Feature"},
	{"geometry":{"coordinates":[-99.242123,19.50427],"type":"Point"},"properties":{"osm_id":"7862692385","tag":{"addr:housenumber":"23","addr:street":"Calle Jos\u00c3\u00a9 Rub\u00c3\u00a9n Romero"}},"type":"Feature"}
]
}
