{
"type": "FeatureCollection",
"features": [
	{"geometry":{"coordinates":[-97.775229,30.499477],"type":"Point"},"properties":{"osm_id":"8507108154","tag":{"amenity":"waste_disposal"}},"type":"Feature"},
	{"geometry":{"coordinates":[-97.774462,30.499531],"type":"Point"},"properties":{"osm_id":"8507108155","tag":{"amenity":"waste_disposal"}},"type":"Feature"},
	{"geometry":{"coordinates":[-97.773792,30.496515],"type":"Point"},"properties":{"osm_id":"8508253173","tag":{"amenity":"waste_disposal"}},"type":"Feature"},
	{"geometry":{"coordinates":[-97.772979,30.496765],"type":"Point"},"properties":{"osm_id":"8508288219","tag":{"amenity":"waste_disposal"}},"type":"Feature"},
	{"geometry":{"coordinates":[-97.77301,30.496755],"type":"Point"},"properties":{"osm_id":"8508288220","tag":{"amenity":"waste_disposal"}},"type":"Feature"},
	{"geometry":{"coordinates":[-97.77304,30.496743],"type":"Point"},"properties":{"osm_id":"8508288221","tag":{"amenity":"waste_disposal"}},"type":"Feature"},
	{"geometry":{"coordinates":[-97.773717,30.498102],"type":"Point"},"properties":{"osm_id":"8508288222","tag":{"amenity":"waste_disposal"}},"type":"Feature"},
	{"geometry":{"coordinates":[-97.773736,30.498133],"type":"Point"},"properties":{"osm_id":"8508288223","tag":{"amenity":"waste_disposal"}},"type":"Feature"},
	{"geometry":{"coordinates":[-97.809671,30.476906],"type":"Point"},"properties":{"osm_id":"8512239542","tag":{"amenity":"waste_disposal"}},"type":"Feature"},
	{"geometry":{"coordinates":[-97.810401,30.476751],"type":"Point"},"properties":{"osm_id":"8512239543","tag":{"amenity":"waste_disposal"}},"type":"Feature"},
	{"geometry":{"coordinates":[-97.809147,30.477589],"type":"Point"},"properties":{"osm_id":"8512239642","tag":{"amenity":"waste_disposal"}},"type":"Feature"},
	{"geometry":{"coordinates":[-97.808468,30.477988],"type":"Point"},"properties":{"osm_id":"8512239692","tag":{"amenity":"waste_disposal"}},"type":"Feature"},
	{"geometry":{"coordinates":[-97.811414,30.476227],"type":"Point"},"properties":{"osm_id":"8512239719","tag":{"amenity":"waste_disposal"}},"type":"Feature"},
	{"geometry":{"coordinates":[-97.802204,30.476771],"type":"Point"},"properties":{"osm_id":"8512512622","tag":{"amenity":"waste_disposal"}},"type":"Feature"},
	{"geometry":{"coordinates":[-97.802148,30.476253],"type":"Point"},"properties":{"osm_id":"8512512623","tag":{"amenity":"waste_disposal"}},"type":"Feature"},
	{"geometry":{"coordinates":[-97.805267,30.476938],"type":"Point"},"properties":{"osm_id":"8515742179","tag":{"amenity":"waste_disposal"}},"type":"Feature"},
	{"geometry":{"coordinates":[-97.802042,30.474672],"type":"Point"},"properties":{"osm_id":"8515750773","tag":{"amenity":"waste_disposal"}},"type":"Feature"},
	{"geometry":{"coordinates":[-97.801992,30.474683],"type":"Point"},"properties":{"osm_id":"8515750774","tag":{"amenity":"waste_disposal"}},"type":"Feature"},
	{"geometry":{"coordinates":[-97.801267,30.475283],"type":"Point"},"properties":{"osm_id":"8515750775","tag":{"amenity":"waste_disposal"}},"type":"Feature"},
	{"geometry":{"coordinates":[-97.801339,30.474583],"type":"Point"},"properties":{"osm_id":"8515828842","tag":{"amenity":"waste_disposal"}},"type":"Feature"},
	{"geometry":{"coordinates":[-97.805356,30.468293],"type":"Point"},"properties":{"osm_id":"8522716627","tag":{"amenity":"waste_disposal"}},"type":"Feature"},
	{"geometry":{"coordinates":[-97.807387,30.466914],"type":"Point"},"properties":{"osm_id":"8522841532","tag":{"amenity":"recycling","recycling:clothes":"yes","recycling:shoes":"yes","recycling_type":"container"}},"type":"Feature"},
	{"geometry":{"coordinates":[-97.807381,30.466898],"type":"Point"},"properties":{"osm_id":"8522841533","tag":{"amenity":"recycling","recycling:clothes":"yes","recycling:shoes":"yes","recycling_type":"container"}},"type":"Feature"},
	{"geometry":{"coordinates":[-97.806315,30.466407],"type":"Point"},"properties":{"osm_id":"8522841560","tag":{"amenity":"waste_disposal"}},"type":"Feature"},
	{"geometry":{"coordinates":[-97.803502,30.467524],"type":"Point"},"properties":{"osm_id":"8522859687","tag":{"amenity":"waste_disposal"}},"type":"Feature"},
	{"geometry":{"coordinates":[-97.805204,30.467051],"type":"Point"},"properties":{"osm_id":"8522859704","tag":{"amenity":"waste_disposal"}},"type":"Feature"},
	{"geometry":{"coordinates":[-97.80199,30.467744],"type":"Point"},"properties":{"osm_id":"8522910408","tag":{"amenity":"waste_disposal"}},"type":"Feature"},
	{"geometry":{"coordinates":[-97.80197,30.467768],"type":"Point"},"properties":{"osm_id":"8522910409","tag":{"amenity":"waste_disposal"}},"type":"Feature"},
	{"geometry":{"coordinates":[-97.800919,30.468461],"type":"Point"},"properties":{"osm_id":"8522910414","tag":{"amenity":"waste_disposal"}},"type":"Feature"},
	{"geometry":{"coordinates":[-97.803542,30.46865],"type":"Point"},"properties":{"osm_id":"8522911453","tag":{"amenity":"waste_disposal"}},"type":"Feature"},
	{"geometry":{"coordinates":[-97.803013,30.467768],"type":"Point"},"properties":{"osm_id":"8522924828","tag":{"amenity":"waste_disposal"}},"type":"Feature"},
	{"geometry":{"coordinates":[-97.801195,30.468818],"type":"Point"},"properties":{"osm_id":"8523010686","tag":{"amenity":"waste_basket"}},"type":"Feature"},
	{"geometry":{"coordinates":[-97.800913,30.470545],"type":"Point"},"properties":{"osm_id":"8526378239","tag":{"amenity":"waste_basket"}},"type":"Feature"},
	{"geometry":{"coordinates":[-97.800848,30.470382],"type":"Point"},"properties":{"osm_id":"8526378242","tag":{"amenity":"waste_basket"}},"type":"Feature"},
	{"geometry":{"coordinates":[-97.799511,30.471991],"type":"Point"},"properties":{"osm_id":"8526529255","tag":{"amenity":"waste_disposal"}},"type":"Feature"},
	{"geometry":{"coordinates":[-97.798512,30.469875],"type":"Point"},"properties":{"osm_id":"8526529269","tag":{"amenity":"waste_disposal"}},"type":"Feature"},
	{"geometry":{"coordinates":[-97.798483,30.469605],"type":"Point"},"properties":{"osm_id":"8526529270","tag":{"amenity":"waste_disposal"}},"type":"Feature"},
	{"geometry":{"coordinates":[-97.799247,30.469383],"type":"Point"},"properties":{"osm_id":"8526529273","tag":{"amenity":"waste_disposal"}},"type":"Feature"},
	{"geometry":{"coordinates":[-97.799228,30.469266],"type":"Point"},"properties":{"osm_id":"8526529274","tag":{"amenity":"waste_disposal"}},"type":"Feature"},
	{"geometry":{"coordinates":[-97.799773,30.468894],"type":"Point"},"properties":{"osm_id":"8526529278","tag":{"amenity":"waste_disposal"}},"type":"Feature"},
	{"geometry":{"coordinates":[-97.79629,30.470015],"type":"Point"},"properties":{"osm_id":"8526609298","tag":{"amenity":"waste_disposal"}},"type":"Feature"},
	{"geometry":{"coordinates":[-97.792847,30.470945],"type":"Point"},"properties":{"osm_id":"8526616618","tag":{"amenity":"waste_disposal"}},"type":"Feature"},
	{"geometry":{"coordinates":[-97.797433,30.473323],"type":"Point"},"properties":{"osm_id":"8528349977","tag":{"amenity":"recycling","recycling_type":"container"}},"type":"Feature"},
	{"geometry":{"coordinates":[-97.7974,30.473246],"type":"Point"},"properties":{"osm_id":"8528349978","tag":{"amenity":"recycling","recycling_type":"container"}},"type":"Feature"},
	{"geometry":{"coordinates":[-97.79751,30.465901],"type":"Point"},"properties":{"osm_id":"8530182368","tag":{"amenity":"waste_disposal"}},"type":"Feature"},
	{"geometry":{"coordinates":[-97.793233,30.475871],"type":"Point"},"properties":{"osm_id":"8530759465","tag":{"amenity":"waste_disposal"}},"type":"Feature"},
	{"geometry":{"coordinates":[-97.80509,30.479041],"type":"Point"},"properties":{"osm_id":"8537949080","tag":{"amenity":"waste_disposal"}},"type":"Feature"},
	{"geometry":{"coordinates":[-97.805025,30.479416],"type":"Point"},"properties":{"osm_id":"8538320085","tag":{"amenity":"waste_disposal"}},"type":"Feature"},
	{"geometry":{"coordinates":[-97.804144,30.479708],"type":"Point"},"properties":{"osm_id":"8538841135","tag":{"amenity":"waste_disposal"}},"type":"Feature"},
	{"geometry":{"coordinates":[-97.807913,30.486062],"type":"Point"},"properties":{"osm_id":"8539571237","tag":{"amenity":"waste_disposal"}},"type":"Feature"},
	{"geometry":{"coordinates":[-97.809707,30.492881],"type":"Point"},"properties":{"osm_id":"8539708143","tag":{"amenity":"waste_disposal"}},"type":"Feature"},
	{"geometry":{"coordinates":[-97.79222,30.462442],"type":"Point"},"properties":{"osm_id":"8540114368","tag":{"amenity":"waste_disposal"}},"type":"Feature"},
	{"geometry":{"coordinates":[-97.804613,30.464785],"type":"Point"},"properties":{"osm_id":"8541270177","tag":{"amenity":"waste_disposal"}},"type":"Feature"},
	{"geometry":{"coordinates":[-97.804923,30.465473],"type":"Point"},"properties":{"osm_id":"8541270178","tag":{"amenity":"recycling","recycling:clothes":"yes","recycling:shoes":"yes","recycling_type":"container"}},"type":"Feature"},
	{"geometry":{"coordinates":[-97.804095,30.46382],"type":"Point"},"properties":{"osm_id":"8542568801","tag":{"amenity":"waste_disposal"}},"type":"Feature"},
	{"geometry":{"coordinates":[-97.804071,30.463827],"type":"Point"},"properties":{"osm_id":"8542568802","tag":{"amenity":"waste_disposal"}},"type":"Feature"},
	{"geometry":{"coordinates":[-97.804145,30.463159],"type":"Point"},"properties":{"osm_id":"8542863486","tag":{"amenity":"waste_disposal"}},"type":"Feature"},
	{"geometry":{"coordinates":[-97.801857,30.465827],"type":"Point"},"properties":{"osm_id":"8542908683","tag":{"amenity":"waste_disposal"}},"type":"Feature"},
	{"geometry":{"coordinates":[-97.801896,30.465806],"type":"Point"},"properties":{"osm_id":"8542908684","tag":{"amenity":"waste_disposal"}},"type":"Feature"},
	{"geometry":{"coordinates":[-97.800944,30.465636],"type":"Point"},"properties":{"osm_id":"8542955923","tag":{"amenity":"waste_disposal"}},"type":"Feature"},
	{"geometry":{"coordinates":[-97.800938,30.465655],"type":"Point"},"properties":{"osm_id":"8542955928","tag":{"amenity":"waste_disposal"}},"type":"Feature"},
	{"geometry":{"coordinates":[-97.802879,30.465287],"type":"Point"},"properties":{"osm_id":"8543001946","tag":{"amenity":"waste_disposal"}},"type":"Feature"},
	{"geometry":{"coordinates":[-97.782456,30.506163],"type":"Point"},"properties":{"osm_id":"8543229609","tag":{"amenity":"waste_basket"}},"type":"Feature"},
	{"geometry":{"coordinates":[-97.782373,30.506152],"type":"Point"},"properties":{"osm_id":"8543229611","tag":{"amenity":"waste_basket"}},"type":"Feature"},
	{"geometry":{"coordinates":[-97.781489,30.505757],"type":"Point"},"properties":{"osm_id":"8543229612","tag":{"amenity":"waste_basket"}},"type":"Feature"},
	{"geometry":{"coordinates":[-97.781488,30.5058],"type":"Point"},"properties":{"osm_id":"8543229613","tag":{"amenity":"waste_basket"}},"type":"Feature"},
	{"geometry":{"coordinates":[-97.781218,30.505727],"type":"Point"},"properties":{"osm_id":"8543229614","tag":{"amenity":"waste_basket"}},"type":"Feature"},
	{"geometry":{"coordinates":[-97.78058,30.505566],"type":"Point"},"properties":{"osm_id":"8543229615","tag":{"amenity":"waste_basket"}},"type":"Feature"},
	{"geometry":{"coordinates":[-97.779849,30.505401],"type":"Point"},"properties":{"osm_id":"8543277918","tag":{"amenity":"waste_basket"}},"type":"Feature"},
	{"geometry":{"coordinates":[-97.779579,30.505369],"type":"Point"},"properties":{"osm_id":"8543277919","tag":{"amenity":"waste_basket"}},"type":"Feature"},
	{"geometry":{"coordinates":[-97.779225,30.505301],"type":"Point"},"properties":{"osm_id":"8543277920","tag":{"amenity":"waste_basket"}},"type":"Feature"},
	{"geometry":{"coordinates":[-97.779697,30.504624],"type":"Point"},"properties":{"osm_id":"8543277926","tag":{"amenity":"waste_basket"}},"type":"Feature"},
	{"geometry":{"coordinates":[-97.803213,30.496805],"type":"Point"},"properties":{"osm_id":"8551248358","tag":{"amenity":"waste_basket"}},"type":"Feature"},
	{"geometry":{"coordinates":[-97.80296,30.496257],"type":"Point"},"properties":{"osm_id":"8551248365","tag":{"amenity":"waste_basket"}},"type":"Feature"},
	{"geometry":{"coordinates":[-97.802851,30.496294],"type":"Point"},"properties":{"osm_id":"8551248366","tag":{"amenity":"waste_basket"}},"type":"Feature"},
	{"geometry":{"coordinates":[-97.802974,30.496931],"type":"Point"},"properties":{"osm_id":"8551718217","tag":{"amenity":"waste_basket","description":"In bike path rest area under the highway."}},"type":"Feature"},
	{"geometry":{"coordinates":[-97.777423,30.504209],"type":"Point"},"properties":{"osm_id":"8551918078","tag":{"amenity":"waste_basket"}},"type":"Feature"},
	{"geometry":{"coordinates":[-97.772494,30.50773],"type":"Point"},"properties":{"osm_id":"8551918115","tag":{"amenity":"waste_basket"}},"type":"Feature"},
	{"geometry":{"coordinates":[-97.773388,30.506854],"type":"Point"},"properties":{"osm_id":"8551918116","tag":{"amenity":"waste_basket"}},"type":"Feature"},
	{"geometry":{"coordinates":[-97.771407,30.506658],"type":"Point"},"properties":{"osm_id":"8551983227","tag":{"amenity":"waste_basket"}},"type":"Feature"},
	{"geometry":{"coordinates":[-97.770903,30.508355],"type":"Point"},"properties":{"osm_id":"8551983269","tag":{"amenity":"waste_basket"}},"type":"Feature"},
	{"geometry":{"coordinates":[-97.769889,30.504324],"type":"Point"},"properties":{"osm_id":"8552089951","tag":{"amenity":"waste_disposal"}},"type":"Feature"}
]
}
