{
"type": "FeatureCollection",
"features": [
	{"geometry":{"coordinates":[-97.790726,30.163088],"type":"Point"},"properties":{"osm_id":"3129825799","tag":{"amenity":"waste_basket"}},"type":"Feature"},
	{"geometry":{"coordinates":[-97.806377,30.174157],"type":"Point"},"properties":{"osm_id":"3140518639","tag":{"amenity":"waste_basket"}},"type":"Feature"},
	{"geometry":{"coordinates":[-97.814745,30.17402],"type":"Point"},"properties":{"osm_id":"3140850441","tag":{"amenity":"waste_basket"}},"type":"Feature"},
	{"geometry":{"coordinates":[-97.820322,30.179322],"type":"Point"},"properties":{"osm_id":"3141861793","tag":{"amenity":"waste_basket"}},"type":"Feature"},
	{"geometry":{"coordinates":[-97.815707,30.186571],"type":"Point"},"properties":{"osm_id":"3144176056","tag":{"amenity":"waste_basket"}},"type":"Feature"},
	{"geometry":{"coordinates":[-97.812571,30.191499],"type":"Point"},"properties":{"osm_id":"3144540795","tag":{"amenity":"waste_basket"}},"type":"Feature"},
	{"geometry":{"coordinates":[-97.806802,30.202666],"type":"Point"},"properties":{"osm_id":"3144540807","tag":{"amenity":"waste_basket"}},"type":"Feature"},
	{"geometry":{"coordinates":[-97.804466,30.209011],"type":"Point"},"properties":{"osm_id":"3144869436","tag":{"amenity":"waste_basket"}},"type":"Feature"},
	{"geometry":{"coordinates":[-97.803499,30.210562],"type":"Point"},"properties":{"osm_id":"3144869442","tag":{"amenity":"waste_basket"}},"type":"Feature"},
	{"geometry":{"coordinates":[-97.798822,30.214479],"type":"Point"},"properties":{"osm_id":"3145693330","tag":{"amenity":"waste_basket"}},"type":"Feature"},
	{"geometry":{"coordinates":[-97.796808,30.216188],"type":"Point"},"properties":{"osm_id":"3145693335","tag":{"amenity":"waste_basket"}},"type":"Feature"},
	{"geometry":{"coordinates":[-97.79499,30.219056],"type":"Point"},"properties":{"osm_id":"3145762308","tag":{"amenity":"waste_basket"}},"type":"Feature"},
	{"geometry":{"coordinates":[-97.79605,30.217776],"type":"Point"},"properties":{"osm_id":"3181806185","tag":{"amenity":"waste_basket"}},"type":"Feature"},
	{"geometry":{"coordinates":[-97.795,30.219392],"type":"Point"},"properties":{"osm_id":"3181806188","tag":{"amenity":"waste_basket"}},"type":"Feature"},
	{"geometry":{"coordinates":[-97.794089,30.22094],"type":"Point"},"properties":{"osm_id":"3181806192","tag":{"amenity":"waste_basket"}},"type":"Feature"},
	{"geometry":{"coordinates":[-97.797132,30.216132],"type":"Point"},"properties":{"osm_id":"3181812069","tag":{"amenity":"waste_basket"}},"type":"Feature"},
	{"geometry":{"coordinates":[-97.804725,30.209008],"type":"Point"},"properties":{"osm_id":"3182821095","tag":{"amenity":"waste_basket"}},"type":"Feature"},
	{"geometry":{"coordinates":[-97.803666,30.210682],"type":"Point"},"properties":{"osm_id":"3182821098","tag":{"amenity":"waste_basket"}},"type":"Feature"},
	{"geometry":{"coordinates":[-97.79953,30.214419],"type":"Point"},"properties":{"osm_id":"3182821104","tag":{"amenity":"waste_basket"}},"type":"Feature"},
	{"geometry":{"coordinates":[-97.80838,30.198693],"type":"Point"},"properties":{"osm_id":"3184658466","tag":{"amenity":"waste_basket"}},"type":"Feature"},
	{"geometry":{"coordinates":[-97.807174,30.202033],"type":"Point"},"properties":{"osm_id":"3184658475","tag":{"amenity":"waste_basket"}},"type":"Feature"},
	{"geometry":{"coordinates":[-97.816889,30.185333],"type":"Point"},"properties":{"osm_id":"3185096692","tag":{"amenity":"waste_basket"}},"type":"Feature"},
	{"geometry":{"coordinates":[-97.793768,30.167667],"type":"Point"},"properties":{"osm_id":"3191839889","tag":{"amenity":"waste_basket"}},"type":"Feature"},
	{"geometry":{"coordinates":[-97.796253,30.169444],"type":"Point"},"properties":{"osm_id":"3191839892","tag":{"amenity":"waste_basket"}},"type":"Feature"},
	{"geometry":{"coordinates":[-97.817313,30.173686],"type":"Point"},"properties":{"osm_id":"3191839901","tag":{"amenity":"waste_basket"}},"type":"Feature"},
	{"geometry":{"coordinates":[-97.814074,30.173719],"type":"Point"},"properties":{"osm_id":"3191839903","tag":{"amenity":"waste_basket"}},"type":"Feature"},
	{"geometry":{"coordinates":[-97.80607,30.17385],"type":"Point"},"properties":{"osm_id":"3191839909","tag":{"amenity":"waste_basket"}},"type":"Feature"},
	{"geometry":{"coordinates":[-97.767881,30.189504],"type":"Point"},"properties":{"osm_id":"3195610355","tag":{"amenity":"waste_basket"}},"type":"Feature"},
	{"geometry":{"coordinates":[-97.767862,30.189539],"type":"Point"},"properties":{"osm_id":"3195610360","tag":{"amenity":"waste_basket"}},"type":"Feature"},
	{"geometry":{"coordinates":[-97.767831,30.189597],"type":"Point"},"properties":{"osm_id":"3195610665","tag":{"amenity":"waste_basket"}},"type":"Feature"},
	{"geometry":{"coordinates":[-97.767771,30.18965],"type":"Point"},"properties":{"osm_id":"3195610670","tag":{"amenity":"waste_basket"}},"type":"Feature"},
	{"geometry":{"coordinates":[-97.774213,30.191813],"type":"Point"},"properties":{"osm_id":"3195956458","tag":{"amenity":"waste_basket"}},"type":"Feature"},
	{"geometry":{"coordinates":[-97.777947,30.192975],"type":"Point"},"properties":{"osm_id":"3195957664","tag":{"amenity":"waste_basket"}},"type":"Feature"},
	{"geometry":{"coordinates":[-97.778253,30.194192],"type":"Point"},"properties":{"osm_id":"3196283818","tag":{"amenity":"waste_basket"}},"type":"Feature"},
	{"geometry":{"coordinates":[-97.776902,30.197389],"type":"Point"},"properties":{"osm_id":"3196283823","tag":{"amenity":"waste_basket"}},"type":"Feature"},
	{"geometry":{"coordinates":[-97.776078,30.200083],"type":"Point"},"properties":{"osm_id":"3196283828","tag":{"amenity":"waste_basket"}},"type":"Feature"},
	{"geometry":{"coordinates":[-97.775533,30.202084],"type":"Point"},"properties":{"osm_id":"3196283831","tag":{"amenity":"waste_basket"}},"type":"Feature"},
	{"geometry":{"coordinates":[-97.77553,30.202118],"type":"Point"},"properties":{"osm_id":"3196283835","tag":{"amenity":"waste_basket","bus":"yes","information":"map"}},"type":"Feature"},
	{"geometry":{"coordinates":[-97.773727,30.207119],"type":"Point"},"properties":{"osm_id":"3197152036","tag":{"amenity":"waste_basket"}},"type":"Feature"},
	{"geometry":{"coordinates":[-97.769102,30.214489],"type":"Point"},"properties":{"osm_id":"3197152047","tag":{"amenity":"waste_basket"}},"type":"Feature"},
	{"geometry":{"coordinates":[-97.767272,30.217341],"type":"Point"},"properties":{"osm_id":"3197152048","tag":{"amenity":"waste_basket"}},"type":"Feature"},
	{"geometry":{"coordinates":[-97.769177,30.214863],"type":"Point"},"properties":{"osm_id":"3217484816","tag":{"amenity":"waste_basket"}},"type":"Feature"},
	{"geometry":{"coordinates":[-97.765398,30.22081],"type":"Point"},"properties":{"osm_id":"3217484823","tag":{"amenity":"waste_basket"}},"type":"Feature"},
	{"geometry":{"coordinates":[-97.773545,30.191377],"type":"Point"},"properties":{"osm_id":"3217962652","tag":{"amenity":"waste_basket"}},"type":"Feature"},
	{"geometry":{"coordinates":[-97.776103,30.19212],"type":"Point"},"properties":{"osm_id":"3217964463","tag":{"amenity":"waste_basket"}},"type":"Feature"},
	{"geometry":{"coordinates":[-97.777843,30.19267],"type":"Point"},"properties":{"osm_id":"3217964470","tag":{"amenity":"waste_basket"}},"type":"Feature"},
	{"geometry":{"coordinates":[-97.765342,30.192724],"type":"Point"},"properties":{"osm_id":"3217964474","tag":{"amenity":"waste_basket"}},"type":"Feature"},
	{"geometry":{"coordinates":[-97.778503,30.194257],"type":"Point"},"properties":{"osm_id":"3217964499","tag":{"amenity":"waste_basket"}},"type":"Feature"},
	{"geometry":{"coordinates":[-97.776649,30.199067],"type":"Point"},"properties":{"osm_id":"3217964519","tag":{"amenity":"waste_basket"}},"type":"Feature"},
	{"geometry":{"coordinates":[-97.775132,30.204429],"type":"Point"},"properties":{"osm_id":"3217964541","tag":{"amenity":"waste_basket"}},"type":"Feature"},
	{"geometry":{"coordinates":[-97.767588,30.189946],"type":"Point"},"properties":{"osm_id":"3292449560","tag":{"amenity":"waste_basket"}},"type":"Feature"},
	{"geometry":{"coordinates":[-97.767546,30.190005],"type":"Point"},"properties":{"osm_id":"3292449666","tag":{"amenity":"waste_basket"}},"type":"Feature"}
]
}
