{
"type": "FeatureCollection",
"features": [
	{"geometry":{"coordinates":[32.262248,48.507071],"type":"Point"},"properties":{"osm_id":"1813427279","tag":{"amenity":"waste_disposal"}},"type":"Feature"},
	{"geometry":{"coordinates":[32.265052,48.509419],"type":"Point"},"properties":{"osm_id":"2306359359","tag":{"amenity":"waste_disposal"}},"type":"Feature"},
	{"geometry":{"coordinates":[32.31078,48.497373],"type":"Point"},"properties":{"osm_id":"2719377305","tag":{"amenity":"recycling"}},"type":"Feature"},
	{"geometry":{"coordinates":[32.256833,48.516595],"type":"Point"},"properties":{"osm_id":"2857960133","tag":{"amenity":"waste_basket"}},"type":"Feature"},
	{"geometry":{"coordinates":[32.25839,48.515297],"type":"Point"},"properties":{"osm_id":"2860399629","tag":{"amenity":"waste_basket"}},"type":"Feature"},
	{"geometry":{"coordinates":[32.257818,48.515601],"type":"Point"},"properties":{"osm_id":"2860399632","tag":{"amenity":"waste_basket"}},"type":"Feature"},
	{"geometry":{"coordinates":[32.259463,48.507796],"type":"Point"},"properties":{"osm_id":"3554673092","tag":{"amenity":"waste_disposal"}},"type":"Feature"},
	{"geometry":{"coordinates":[32.278568,48.512881],"type":"Point"},"properties":{"osm_id":"4103292992","tag":{"amenity":"waste_disposal"}},"type":"Feature"},
	{"geometry":{"coordinates":[32.270262,48.514159],"type":"Point"},"properties":{"osm_id":"4103312095","tag":{"amenity":"waste_disposal"}},"type":"Feature"},
	{"geometry":{"coordinates":[32.275605,48.500085],"type":"Point"},"properties":{"osm_id":"6583193669","tag":{"amenity":"recycling","recycling:scrap_metal":"yes"}},"type":"Feature"},
	{"geometry":{"coordinates":[32.257964,48.501105],"type":"Point"},"properties":{"osm_id":"7999039186","tag":{"amenity":"recycling","recycling:cans":"yes","recycling:paper":"yes","recycling:plastic":"yes","recycling:plastic_packaging":"yes","recycling_type":"container"}},"type":"Feature"},
	{"geometry":{"coordinates":[32.260596,48.51112],"type":"Point"},"properties":{"osm_id":"7999039343","tag":{"amenity":"waste_disposal"}},"type":"Feature"}
]
}
