{
"type": "FeatureCollection",
"features": [
	{"geometry":{"coordinates":[-111.712951,33.227284],"type":"Point"},"properties":{"osm_id":"4608606270","tag":{"amenity":"waste_basket"}},"type":"Feature"},
	{"geometry":{"coordinates":[-111.763676,33.218866],"type":"Point"},"properties":{"osm_id":"5001904174","tag":{"amenity":"waste_basket","description":"Pet waste disposal"}},"type":"Feature"},
	{"geometry":{"coordinates":[-111.763339,33.217638],"type":"Point"},"properties":{"osm_id":"5001904175","tag":{"amenity":"waste_basket"}},"type":"Feature"},
	{"geometry":{"coordinates":[-111.769562,33.236578],"type":"Point"},"properties":{"osm_id":"5055059100","tag":{"amenity":"recycling"}},"type":"Feature"},
	{"geometry":{"coordinates":[-111.769847,33.234776],"type":"Point"},"properties":{"osm_id":"5055059101","tag":{"amenity":"waste_basket"}},"type":"Feature"},
	{"geometry":{"coordinates":[-111.770092,33.236441],"type":"Point"},"properties":{"osm_id":"5055059103","tag":{"amenity":"waste_basket"}},"type":"Feature"},
	{"geometry":{"coordinates":[-111.770646,33.235636],"type":"Point"},"properties":{"osm_id":"5055059106","tag":{"amenity":"waste_basket"}},"type":"Feature"},
	{"geometry":{"coordinates":[-111.770623,33.234839],"type":"Point"},"properties":{"osm_id":"5055059107","tag":{"amenity":"waste_basket"}},"type":"Feature"},
	{"geometry":{"coordinates":[-111.768081,33.235731],"type":"Point"},"properties":{"osm_id":"5055059110","tag":{"amenity":"waste_basket"}},"type":"Feature"},
	{"geometry":{"coordinates":[-111.769693,33.235787],"type":"Point"},"properties":{"name":"Fishing Line Disposal","osm_id":"5055059113","tag":{"amenity":"waste_basket"}},"type":"Feature"},
	{"geometry":{"coordinates":[-111.768862,33.236229],"type":"Point"},"properties":{"name":"Fishing Line Disposal","osm_id":"5055059114","tag":{"amenity":"waste_basket"}},"type":"Feature"},
	{"geometry":{"coordinates":[-111.769149,33.235218],"type":"Point"},"properties":{"osm_id":"5055059115","tag":{"amenity":"waste_basket"}},"type":"Feature"},
	{"geometry":{"coordinates":[-111.769522,33.236563],"type":"Point"},"properties":{"osm_id":"5055059116","tag":{"amenity":"waste_basket"}},"type":"Feature"},
	{"geometry":{"coordinates":[-111.770027,33.236329],"type":"Point"},"properties":{"name":"Fishing Line Disposal","osm_id":"5055059119","tag":{"amenity":"waste_basket"}},"type":"Feature"},
	{"geometry":{"coordinates":[-111.768807,33.234963],"type":"Point"},"properties":{"osm_id":"5055059221","tag":{"amenity":"waste_basket"}},"type":"Feature"},
	{"geometry":{"coordinates":[-111.770654,33.236654],"type":"Point"},"properties":{"osm_id":"5055059222","tag":{"amenity":"waste_basket"}},"type":"Feature"},
	{"geometry":{"coordinates":[-111.76844,33.234996],"type":"Point"},"properties":{"osm_id":"5055059224","tag":{"amenity":"recycling"}},"type":"Feature"},
	{"geometry":{"coordinates":[-111.768634,33.235996],"type":"Point"},"properties":{"osm_id":"5055059228","tag":{"amenity":"waste_basket"}},"type":"Feature"},
	{"geometry":{"coordinates":[-111.770472,33.235517],"type":"Point"},"properties":{"osm_id":"5055059229","tag":{"amenity":"waste_basket"}},"type":"Feature"},
	{"geometry":{"coordinates":[-111.769525,33.235352],"type":"Point"},"properties":{"osm_id":"5055059231","tag":{"amenity":"waste_basket"}},"type":"Feature"},
	{"geometry":{"coordinates":[-111.76857,33.236773],"type":"Point"},"properties":{"osm_id":"5055059232","tag":{"amenity":"waste_basket"}},"type":"Feature"},
	{"geometry":{"coordinates":[-111.769073,33.234678],"type":"Point"},"properties":{"osm_id":"5055059233","tag":{"amenity":"recycling"}},"type":"Feature"},
	{"geometry":{"coordinates":[-111.769768,33.234859],"type":"Point"},"properties":{"osm_id":"5055059235","tag":{"amenity":"recycling"}},"type":"Feature"},
	{"geometry":{"coordinates":[-111.769867,33.23515],"type":"Point"},"properties":{"osm_id":"5055059238","tag":{"amenity":"waste_basket"}},"type":"Feature"},
	{"geometry":{"coordinates":[-111.77102,33.236429],"type":"Point"},"properties":{"osm_id":"5055059240","tag":{"amenity":"waste_basket"}},"type":"Feature"},
	{"geometry":{"coordinates":[-111.768395,33.235075],"type":"Point"},"properties":{"osm_id":"5055059242","tag":{"amenity":"waste_basket"}},"type":"Feature"},
	{"geometry":{"coordinates":[-111.768236,33.235456],"type":"Point"},"properties":{"osm_id":"5055059244","tag":{"amenity":"waste_basket"}},"type":"Feature"},
	{"geometry":{"coordinates":[-111.768649,33.236235],"type":"Point"},"properties":{"osm_id":"5055059246","tag":{"amenity":"recycling"}},"type":"Feature"},
	{"geometry":{"coordinates":[-111.769696,33.235723],"type":"Point"},"properties":{"osm_id":"5055059247","tag":{"amenity":"waste_basket"}},"type":"Feature"},
	{"geometry":{"coordinates":[-111.768752,33.236295],"type":"Point"},"properties":{"osm_id":"5055059248","tag":{"amenity":"waste_basket"}},"type":"Feature"},
	{"geometry":{"coordinates":[-111.768331,33.23703],"type":"Point"},"properties":{"osm_id":"5055059250","tag":{"amenity":"waste_basket"}},"type":"Feature"},
	{"geometry":{"coordinates":[-111.769207,33.234704],"type":"Point"},"properties":{"osm_id":"5055059251","tag":{"amenity":"waste_basket"}},"type":"Feature"},
	{"geometry":{"coordinates":[-111.769465,33.234036],"type":"Point"},"properties":{"osm_id":"5055060021","tag":{"amenity":"recycling"}},"type":"Feature"},
	{"geometry":{"coordinates":[-111.769379,33.234044],"type":"Point"},"properties":{"osm_id":"5055060022","tag":{"amenity":"recycling"}},"type":"Feature"},
	{"geometry":{"coordinates":[-111.769507,33.234033],"type":"Point"},"properties":{"osm_id":"5055060023","tag":{"amenity":"recycling"}},"type":"Feature"},
	{"geometry":{"coordinates":[-111.769424,33.23404],"type":"Point"},"properties":{"osm_id":"5055060024","tag":{"amenity":"recycling"}},"type":"Feature"},
	{"geometry":{"coordinates":[-111.769551,33.234029],"type":"Point"},"properties":{"osm_id":"5055060025","tag":{"amenity":"recycling"}},"type":"Feature"},
	{"geometry":{"coordinates":[-111.771035,33.234715],"type":"Point"},"properties":{"osm_id":"5055161293","tag":{"amenity":"waste_basket"}},"type":"Feature"},
	{"geometry":{"coordinates":[-111.771059,33.234751],"type":"Point"},"properties":{"osm_id":"5055161294","tag":{"amenity":"waste_basket"}},"type":"Feature"},
	{"geometry":{"coordinates":[-111.771162,33.234924],"type":"Point"},"properties":{"osm_id":"5055161295","tag":{"amenity":"waste_basket"}},"type":"Feature"},
	{"geometry":{"coordinates":[-111.771089,33.235194],"type":"Point"},"properties":{"osm_id":"5055161296","tag":{"amenity":"waste_basket"}},"type":"Feature"},
	{"geometry":{"coordinates":[-111.765144,33.239789],"type":"Point"},"properties":{"osm_id":"5056378617","tag":{"amenity":"waste_basket"}},"type":"Feature"},
	{"geometry":{"coordinates":[-111.765184,33.240257],"type":"Point"},"properties":{"osm_id":"5056378618","tag":{"amenity":"waste_basket"}},"type":"Feature"},
	{"geometry":{"coordinates":[-111.768143,33.239536],"type":"Point"},"properties":{"osm_id":"5056378619","tag":{"amenity":"waste_basket"}},"type":"Feature"},
	{"geometry":{"coordinates":[-111.766783,33.239366],"type":"Point"},"properties":{"osm_id":"5056378620","tag":{"amenity":"waste_basket"}},"type":"Feature"},
	{"geometry":{"coordinates":[-111.766886,33.236302],"type":"Point"},"properties":{"osm_id":"5056378621","tag":{"amenity":"waste_basket"}},"type":"Feature"},
	{"geometry":{"coordinates":[-111.76575,33.239584],"type":"Point"},"properties":{"osm_id":"5056378622","tag":{"amenity":"waste_basket"}},"type":"Feature"},
	{"geometry":{"coordinates":[-111.7674,33.235834],"type":"Point"},"properties":{"osm_id":"5056378623","tag":{"amenity":"waste_basket"}},"type":"Feature"},
	{"geometry":{"coordinates":[-111.767904,33.234585],"type":"Point"},"properties":{"osm_id":"5056378624","tag":{"amenity":"waste_basket"}},"type":"Feature"},
	{"geometry":{"coordinates":[-111.764411,33.237234],"type":"Point"},"properties":{"osm_id":"5056378625","tag":{"amenity":"waste_basket"}},"type":"Feature"},
	{"geometry":{"coordinates":[-111.766705,33.23706],"type":"Point"},"properties":{"osm_id":"5056378626","tag":{"amenity":"waste_basket"}},"type":"Feature"},
	{"geometry":{"coordinates":[-111.764385,33.235234],"type":"Point"},"properties":{"osm_id":"5056378627","tag":{"amenity":"waste_basket"}},"type":"Feature"},
	{"geometry":{"coordinates":[-111.764309,33.239355],"type":"Point"},"properties":{"osm_id":"5056378628","tag":{"amenity":"waste_basket"}},"type":"Feature"},
	{"geometry":{"coordinates":[-111.769018,33.234608],"type":"Point"},"properties":{"osm_id":"5056383785","tag":{"amenity":"waste_basket"}},"type":"Feature"},
	{"geometry":{"coordinates":[-111.751131,33.221356],"type":"Point"},"properties":{"osm_id":"5056988764","tag":{"amenity":"waste_basket"}},"type":"Feature"},
	{"geometry":{"coordinates":[-111.787429,33.266276],"type":"Point"},"properties":{"osm_id":"5261020651","tag":{"amenity":"waste_disposal"}},"type":"Feature"},
	{"geometry":{"coordinates":[-111.787427,33.266327],"type":"Point"},"properties":{"osm_id":"5261020652","tag":{"amenity":"waste_disposal"}},"type":"Feature"},
	{"geometry":{"coordinates":[-111.717532,33.227215],"type":"Point"},"properties":{"osm_id":"6128242823","tag":{"amenity":"waste_basket","waste":"dog_excrement"}},"type":"Feature"},
	{"geometry":{"coordinates":[-111.787626,33.247898],"type":"Point"},"properties":{"osm_id":"6702594404","tag":{"amenity":"waste_disposal"}},"type":"Feature"},
	{"geometry":{"coordinates":[-111.787623,33.247862],"type":"Point"},"properties":{"osm_id":"6702594405","tag":{"amenity":"waste_disposal"}},"type":"Feature"},
	{"geometry":{"coordinates":[-111.722085,33.234797],"type":"Point"},"properties":{"osm_id":"6711920030","tag":{"amenity":"waste_disposal"}},"type":"Feature"},
	{"geometry":{"coordinates":[-111.792306,33.263874],"type":"Point"},"properties":{"osm_id":"7030894974","tag":{"amenity":"waste_disposal"}},"type":"Feature"},
	{"geometry":{"coordinates":[-111.792258,33.263864],"type":"Point"},"properties":{"osm_id":"7030894975","tag":{"amenity":"waste_disposal"}},"type":"Feature"},
	{"geometry":{"coordinates":[-111.79146,33.262146],"type":"Point"},"properties":{"osm_id":"7030894980","tag":{"amenity":"waste_disposal"}},"type":"Feature"},
	{"geometry":{"coordinates":[-111.791511,33.26216],"type":"Point"},"properties":{"osm_id":"7030894981","tag":{"amenity":"waste_disposal"}},"type":"Feature"},
	{"geometry":{"coordinates":[-111.790392,33.261952],"type":"Point"},"properties":{"osm_id":"7030894982","tag":{"amenity":"waste_disposal"}},"type":"Feature"},
	{"geometry":{"coordinates":[-111.790179,33.261277],"type":"Point"},"properties":{"osm_id":"7030894983","tag":{"amenity":"waste_disposal"}},"type":"Feature"},
	{"geometry":{"coordinates":[-111.790209,33.261381],"type":"Point"},"properties":{"osm_id":"7030894984","tag":{"amenity":"waste_disposal"}},"type":"Feature"},
	{"geometry":{"coordinates":[-111.790235,33.261385],"type":"Point"},"properties":{"osm_id":"7030912785","tag":{"amenity":"waste_disposal"}},"type":"Feature"},
	{"geometry":{"coordinates":[-111.786555,33.28219],"type":"Point"},"properties":{"osm_id":"7030969854","tag":{"amenity":"waste_disposal"}},"type":"Feature"},
	{"geometry":{"coordinates":[-111.787239,33.282217],"type":"Point"},"properties":{"osm_id":"7030969855","tag":{"amenity":"waste_disposal"}},"type":"Feature"},
	{"geometry":{"coordinates":[-111.787323,33.282204],"type":"Point"},"properties":{"osm_id":"7030969856","tag":{"amenity":"waste_disposal"}},"type":"Feature"},
	{"geometry":{"coordinates":[-111.787276,33.282223],"type":"Point"},"properties":{"osm_id":"7030969857","tag":{"amenity":"waste_disposal"}},"type":"Feature"},
	{"geometry":{"coordinates":[-111.788253,33.282133],"type":"Point"},"properties":{"osm_id":"7030969858","tag":{"amenity":"waste_disposal"}},"type":"Feature"},
	{"geometry":{"coordinates":[-111.788335,33.282134],"type":"Point"},"properties":{"osm_id":"7030969859","tag":{"amenity":"waste_disposal"}},"type":"Feature"},
	{"geometry":{"coordinates":[-111.787735,33.278049],"type":"Point"},"properties":{"osm_id":"7030969860","tag":{"amenity":"waste_disposal"}},"type":"Feature"},
	{"geometry":{"coordinates":[-111.787821,33.278047],"type":"Point"},"properties":{"osm_id":"7030969861","tag":{"amenity":"waste_disposal"}},"type":"Feature"},
	{"geometry":{"coordinates":[-111.788776,33.278205],"type":"Point"},"properties":{"osm_id":"7030969862","tag":{"amenity":"waste_disposal"}},"type":"Feature"},
	{"geometry":{"coordinates":[-111.788752,33.278239],"type":"Point"},"properties":{"osm_id":"7030969863","tag":{"amenity":"waste_disposal"}},"type":"Feature"},
	{"geometry":{"coordinates":[-111.785947,33.281006],"type":"Point"},"properties":{"osm_id":"7030969874","tag":{"amenity":"waste_disposal"}},"type":"Feature"},
	{"geometry":{"coordinates":[-111.785944,33.280935],"type":"Point"},"properties":{"osm_id":"7030969875","tag":{"amenity":"waste_disposal"}},"type":"Feature"},
	{"geometry":{"coordinates":[-111.787562,33.280344],"type":"Point"},"properties":{"osm_id":"7031002287","tag":{"amenity":"waste_disposal"}},"type":"Feature"},
	{"geometry":{"coordinates":[-111.791371,33.277836],"type":"Point"},"properties":{"osm_id":"7031002295","tag":{"amenity":"waste_disposal"}},"type":"Feature"},
	{"geometry":{"coordinates":[-111.791349,33.277814],"type":"Point"},"properties":{"osm_id":"7031002296","tag":{"amenity":"waste_disposal"}},"type":"Feature"},
	{"geometry":{"coordinates":[-111.790779,33.276873],"type":"Point"},"properties":{"osm_id":"7031002297","tag":{"amenity":"waste_disposal"}},"type":"Feature"},
	{"geometry":{"coordinates":[-111.785259,33.280216],"type":"Point"},"properties":{"osm_id":"7031002310","tag":{"amenity":"waste_disposal"}},"type":"Feature"},
	{"geometry":{"coordinates":[-111.791666,33.257931],"type":"Point"},"properties":{"osm_id":"7037279803","tag":{"amenity":"waste_disposal"}},"type":"Feature"},
	{"geometry":{"coordinates":[-111.791667,33.257997],"type":"Point"},"properties":{"osm_id":"7037279804","tag":{"amenity":"waste_disposal"}},"type":"Feature"},
	{"geometry":{"coordinates":[-111.792408,33.279132],"type":"Point"},"properties":{"osm_id":"7137600836","tag":{"amenity":"waste_disposal"}},"type":"Feature"},
	{"geometry":{"coordinates":[-111.792415,33.279102],"type":"Point"},"properties":{"osm_id":"7137600837","tag":{"amenity":"waste_disposal"}},"type":"Feature"},
	{"geometry":{"coordinates":[-111.792972,33.279417],"type":"Point"},"properties":{"osm_id":"7137600838","tag":{"amenity":"waste_disposal"}},"type":"Feature"},
	{"geometry":{"coordinates":[-111.722835,33.23544],"type":"Point"},"properties":{"osm_id":"7137600883","tag":{"amenity":"waste_disposal"}},"type":"Feature"},
	{"geometry":{"coordinates":[-111.722836,33.235372],"type":"Point"},"properties":{"osm_id":"7137600884","tag":{"amenity":"waste_disposal"}},"type":"Feature"},
	{"geometry":{"coordinates":[-111.722832,33.235157],"type":"Point"},"properties":{"osm_id":"7137605485","tag":{"amenity":"waste_disposal"}},"type":"Feature"},
	{"geometry":{"coordinates":[-111.722833,33.235092],"type":"Point"},"properties":{"osm_id":"7137605486","tag":{"amenity":"waste_disposal"}},"type":"Feature"},
	{"geometry":{"coordinates":[-111.721499,33.235882],"type":"Point"},"properties":{"osm_id":"7137605494","tag":{"amenity":"waste_disposal"}},"type":"Feature"},
	{"geometry":{"coordinates":[-111.721603,33.235489],"type":"Point"},"properties":{"osm_id":"7137605495","tag":{"amenity":"waste_disposal"}},"type":"Feature"},
	{"geometry":{"coordinates":[-111.722288,33.234576],"type":"Point"},"properties":{"osm_id":"7137605496","tag":{"amenity":"waste_disposal"}},"type":"Feature"},
	{"geometry":{"coordinates":[-111.721421,33.264119],"type":"Point"},"properties":{"osm_id":"7137605499","tag":{"amenity":"waste_disposal"}},"type":"Feature"},
	{"geometry":{"coordinates":[-111.721927,33.263636],"type":"Point"},"properties":{"osm_id":"7137605500","tag":{"amenity":"waste_disposal"}},"type":"Feature"},
	{"geometry":{"coordinates":[-111.721983,33.263572],"type":"Point"},"properties":{"osm_id":"7137605501","tag":{"amenity":"waste_disposal"}},"type":"Feature"},
	{"geometry":{"coordinates":[-111.721384,33.264429],"type":"Point"},"properties":{"osm_id":"7137605502","tag":{"amenity":"waste_disposal"}},"type":"Feature"},
	{"geometry":{"coordinates":[-111.714449,33.2306],"type":"Point"},"properties":{"osm_id":"7351620061","tag":{"amenity":"waste_basket","waste":"dog_excrement"}},"type":"Feature"},
	{"geometry":{"coordinates":[-111.711607,33.229637],"type":"Point"},"properties":{"osm_id":"7354541165","tag":{"amenity":"waste_basket","waste":"dog_excrement"}},"type":"Feature"},
	{"geometry":{"coordinates":[-111.711861,33.22809],"type":"Point"},"properties":{"osm_id":"7411616337","tag":{"amenity":"waste_basket","waste":"dog_excrement"}},"type":"Feature"},
	{"geometry":{"coordinates":[-111.710901,33.230843],"type":"Point"},"properties":{"osm_id":"7415269601","tag":{"amenity":"waste_basket","waste":"dog_excrement"}},"type":"Feature"},
	{"geometry":{"coordinates":[-111.719871,33.228589],"type":"Point"},"properties":{"osm_id":"7500971969","tag":{"amenity":"waste_basket","waste":"dog_excrement"}},"type":"Feature"},
	{"geometry":{"coordinates":[-111.788778,33.247994],"type":"Point"},"properties":{"osm_id":"7745630204","tag":{"amenity":"waste_disposal"}},"type":"Feature"},
	{"geometry":{"coordinates":[-111.787747,33.24687],"type":"Point"},"properties":{"osm_id":"7745630205","tag":{"amenity":"waste_disposal"}},"type":"Feature"},
	{"geometry":{"coordinates":[-111.787732,33.246843],"type":"Point"},"properties":{"osm_id":"7745630206","tag":{"amenity":"waste_disposal"}},"type":"Feature"},
	{"geometry":{"coordinates":[-111.7885,33.24659],"type":"Point"},"properties":{"osm_id":"7745630207","tag":{"amenity":"waste_disposal"}},"type":"Feature"},
	{"geometry":{"coordinates":[-111.78824,33.259659],"type":"Point"},"properties":{"osm_id":"7745630261","tag":{"amenity":"waste_disposal"}},"type":"Feature"},
	{"geometry":{"coordinates":[-111.788217,33.259669],"type":"Point"},"properties":{"osm_id":"7745630262","tag":{"amenity":"waste_disposal"}},"type":"Feature"},
	{"geometry":{"coordinates":[-111.719638,33.262238],"type":"Point"},"properties":{"osm_id":"7935254274","tag":{"amenity":"waste_disposal"}},"type":"Feature"},
	{"geometry":{"coordinates":[-111.719608,33.262214],"type":"Point"},"properties":{"osm_id":"7935254275","tag":{"amenity":"waste_disposal"}},"type":"Feature"},
	{"geometry":{"coordinates":[-111.719892,33.261083],"type":"Point"},"properties":{"osm_id":"7935254276","tag":{"amenity":"waste_disposal"}},"type":"Feature"},
	{"geometry":{"coordinates":[-111.71874,33.26143],"type":"Point"},"properties":{"osm_id":"7935254277","tag":{"amenity":"waste_disposal"}},"type":"Feature"},
	{"geometry":{"coordinates":[-111.717987,33.261669],"type":"Point"},"properties":{"osm_id":"7935254278","tag":{"amenity":"waste_disposal"}},"type":"Feature"},
	{"geometry":{"coordinates":[-111.717231,33.261911],"type":"Point"},"properties":{"osm_id":"7935254279","tag":{"amenity":"waste_disposal"}},"type":"Feature"},
	{"geometry":{"coordinates":[-111.71706,33.262524],"type":"Point"},"properties":{"osm_id":"7935254280","tag":{"amenity":"waste_disposal"}},"type":"Feature"},
	{"geometry":{"coordinates":[-111.718823,33.2624],"type":"Point"},"properties":{"osm_id":"7935254281","tag":{"amenity":"waste_disposal"}},"type":"Feature"},
	{"geometry":{"coordinates":[-111.71892,33.262363],"type":"Point"},"properties":{"osm_id":"7935254282","tag":{"amenity":"waste_disposal"}},"type":"Feature"},
	{"geometry":{"coordinates":[-111.719556,33.23519],"type":"Point"},"properties":{"osm_id":"7935363278","tag":{"amenity":"waste_disposal"}},"type":"Feature"},
	{"geometry":{"coordinates":[-111.719275,33.235002],"type":"Point"},"properties":{"osm_id":"7935363279","tag":{"amenity":"waste_disposal"}},"type":"Feature"},
	{"geometry":{"coordinates":[-111.719276,33.23508],"type":"Point"},"properties":{"osm_id":"7935363280","tag":{"amenity":"waste_disposal"}},"type":"Feature"},
	{"geometry":{"coordinates":[-111.718201,33.235395],"type":"Point"},"properties":{"osm_id":"7935363282","tag":{"amenity":"waste_disposal"}},"type":"Feature"},
	{"geometry":{"coordinates":[-111.717219,33.235122],"type":"Point"},"properties":{"osm_id":"7935363283","tag":{"amenity":"waste_disposal"}},"type":"Feature"},
	{"geometry":{"coordinates":[-111.717167,33.234489],"type":"Point"},"properties":{"osm_id":"7935383185","tag":{"amenity":"waste_disposal"}},"type":"Feature"},
	{"geometry":{"coordinates":[-111.723733,33.23453],"type":"Point"},"properties":{"osm_id":"7935383197","tag":{"amenity":"waste_disposal"}},"type":"Feature"},
	{"geometry":{"coordinates":[-111.722992,33.234571],"type":"Point"},"properties":{"osm_id":"7935383198","tag":{"amenity":"waste_disposal"}},"type":"Feature"},
	{"geometry":{"coordinates":[-111.722903,33.234571],"type":"Point"},"properties":{"osm_id":"7935383199","tag":{"amenity":"waste_disposal"}},"type":"Feature"},
	{"geometry":{"coordinates":[-111.721603,33.234474],"type":"Point"},"properties":{"osm_id":"7935383219","tag":{"amenity":"waste_disposal"}},"type":"Feature"},
	{"geometry":{"coordinates":[-111.721633,33.234807],"type":"Point"},"properties":{"osm_id":"7935383221","tag":{"amenity":"waste_disposal"}},"type":"Feature"},
	{"geometry":{"coordinates":[-111.722126,33.234801],"type":"Point"},"properties":{"osm_id":"7935383223","tag":{"amenity":"waste_disposal"}},"type":"Feature"},
	{"geometry":{"coordinates":[-111.721598,33.232974],"type":"Point"},"properties":{"osm_id":"7935383255","tag":{"amenity":"waste_disposal"}},"type":"Feature"},
	{"geometry":{"coordinates":[-111.721571,33.232934],"type":"Point"},"properties":{"osm_id":"7935383256","tag":{"amenity":"waste_disposal"}},"type":"Feature"},
	{"geometry":{"coordinates":[-111.721547,33.231702],"type":"Point"},"properties":{"osm_id":"7935383278","tag":{"amenity":"waste_disposal"}},"type":"Feature"},
	{"geometry":{"coordinates":[-111.72151,33.231727],"type":"Point"},"properties":{"osm_id":"7935383279","tag":{"amenity":"waste_disposal"}},"type":"Feature"}
]
}
