{
"type": "FeatureCollection",
"features": [
	{"geometry":{"coordinates":[11.752863,57.70637],"type":"Point"},"properties":{"osm_id":"1009199722","tag":{"amenity":"recycling","recycling:paper":"yes","recycling_type":"container"}},"type":"Feature"},
	{"geometry":{"coordinates":[11.769498,57.706792],"type":"Point"},"properties":{"osm_id":"1015107451","tag":{"amenity":"recycling","recycling_type":"container"}},"type":"Feature"},
	{"geometry":{"coordinates":[11.769734,57.730606],"type":"Point"},"properties":{"osm_id":"1585736709","tag":{"amenity":"recycling","recycling:batteries":"no","recycling:cans":"no","recycling:clothes":"yes","recycling:glass":"no","recycling:paper":"no","recycling:scrap_metal":"no","recycling_type":"container"}},"type":"Feature"},
	{"geometry":{"coordinates":[11.774919,57.708603],"type":"Point"},"properties":{"osm_id":"2482759254","tag":{"amenity":"recycling","recycling:cans":"no","recycling:clothes":"yes","recycling:glass":"yes","recycling:paper":"yes","recycling:plastic":"yes","recycling_type":"container"}},"type":"Feature"},
	{"geometry":{"coordinates":[11.757664,57.744069],"type":"Point"},"properties":{"osm_id":"4143397599","tag":{"amenity":"waste_basket"}},"type":"Feature"},
	{"geometry":{"coordinates":[11.767481,57.722539],"type":"Point"},"properties":{"osm_id":"4784112086","tag":{"amenity":"waste_basket"}},"type":"Feature"},
	{"geometry":{"coordinates":[11.732753,57.742398],"type":"Point"},"properties":{"osm_id":"6809909985","tag":{"amenity":"waste_basket"}},"type":"Feature"},
	{"geometry":{"coordinates":[11.773175,57.709817],"type":"Point"},"properties":{"osm_id":"7887082727","tag":{"amenity":"recycling","operator":"ICA Maxi","recycling:batteries":"yes","recycling:cans":"yes","recycling:plastic_bottles":"yes","recycling_type":"container"}},"type":"Feature"},
	{"geometry":{"coordinates":[11.775055,57.711373],"type":"Point"},"properties":{"osm_id":"8333220137","tag":{"amenity":"waste_basket","waste":"trash"}},"type":"Feature"},
	{"geometry":{"coordinates":[11.773765,57.711182],"type":"Point"},"properties":{"osm_id":"8449355228","tag":{"amenity":"waste_basket","waste":"trash"}},"type":"Feature"},
	{"geometry":{"coordinates":[11.77138,57.710212],"type":"Point"},"properties":{"osm_id":"8449361565","tag":{"amenity":"waste_basket","waste":"trash"}},"type":"Feature"},
	{"geometry":{"coordinates":[11.772354,57.711096],"type":"Point"},"properties":{"osm_id":"8449361566","tag":{"amenity":"waste_basket","waste":"trash"}},"type":"Feature"}
]
}
