{
"type": "FeatureCollection",
"features": [
	{"geometry":{"coordinates":[11.73617,54.144105],"type":"Point"},"properties":{"osm_id":"851583206","tag":{"amenity":"recycling","recycling:clothes":"yes","recycling_type":"container"}},"type":"Feature"},
	{"geometry":{"coordinates":[11.733497,54.142685],"type":"Point"},"properties":{"name":"Kommunal Service K\u00c3\u00bchlungsborn","osm_id":"852670055","tag":{"amenity":"recycling","recycling:scrap_metal":"yes","recycling_type":"centre"}},"type":"Feature"},
	{"geometry":{"coordinates":[11.733742,54.143088],"type":"Point"},"properties":{"osm_id":"852670112","tag":{"amenity":"recycling","recycling:clothes":"yes","recycling:glass_bottles":"yes","recycling_type":"container"}},"type":"Feature"},
	{"geometry":{"coordinates":[11.721641,54.148963],"type":"Point"},"properties":{"osm_id":"852670119","tag":{"amenity":"recycling","recycling:clothes":"yes","recycling:glass_bottles":"yes","recycling_type":"centre"}},"type":"Feature"},
	{"geometry":{"coordinates":[11.734889,54.152094],"type":"Point"},"properties":{"osm_id":"858288800","tag":{"amenity":"waste_basket"}},"type":"Feature"},
	{"geometry":{"coordinates":[11.737029,54.151595],"type":"Point"},"properties":{"osm_id":"858288829","tag":{"amenity":"waste_basket"}},"type":"Feature"},
	{"geometry":{"coordinates":[11.753962,54.15361],"type":"Point"},"properties":{"osm_id":"858692831","tag":{"amenity":"waste_basket"}},"type":"Feature"},
	{"geometry":{"coordinates":[11.730034,54.152859],"type":"Point"},"properties":{"osm_id":"858692919","tag":{"amenity":"waste_basket"}},"type":"Feature"},
	{"geometry":{"coordinates":[11.735334,54.152361],"type":"Point"},"properties":{"osm_id":"858692970","tag":{"amenity":"waste_basket"}},"type":"Feature"},
	{"geometry":{"coordinates":[11.750397,54.152927],"type":"Point"},"properties":{"osm_id":"858692974","tag":{"amenity":"waste_basket"}},"type":"Feature"},
	{"geometry":{"coordinates":[11.75117,54.153064],"type":"Point"},"properties":{"osm_id":"858693063","tag":{"amenity":"waste_basket"}},"type":"Feature"},
	{"geometry":{"coordinates":[11.754038,54.153706],"type":"Point"},"properties":{"osm_id":"858693217","tag":{"amenity":"waste_basket"}},"type":"Feature"},
	{"geometry":{"coordinates":[11.74869,54.152751],"type":"Point"},"properties":{"osm_id":"858693432","tag":{"amenity":"waste_basket"}},"type":"Feature"},
	{"geometry":{"coordinates":[11.7579,54.145005],"type":"Point"},"properties":{"osm_id":"921362269","tag":{"amenity":"recycling","recycling:glass_bottles":"yes","recycling_type":"container"}},"type":"Feature"},
	{"geometry":{"coordinates":[11.741725,54.12042],"type":"Point"},"properties":{"osm_id":"2447490674","tag":{"amenity":"waste_basket"}},"type":"Feature"},
	{"geometry":{"coordinates":[11.760584,54.143354],"type":"Point"},"properties":{"osm_id":"2494428388","tag":{"amenity":"recycling","recycling:cans":"no","recycling:clothes":"yes","recycling:glass_bottles":"yes","recycling:paper":"yes","recycling_type":"container"}},"type":"Feature"},
	{"geometry":{"coordinates":[11.757167,54.144445],"type":"Point"},"properties":{"osm_id":"3344696263","tag":{"amenity":"recycling","recycling:clothes":"yes","recycling:glass":"yes","recycling_type":"container"}},"type":"Feature"},
	{"geometry":{"coordinates":[11.764402,54.153059],"type":"Point"},"properties":{"osm_id":"4321111992","tag":{"amenity":"waste_basket"}},"type":"Feature"},
	{"geometry":{"coordinates":[11.763858,54.153209],"type":"Point"},"properties":{"osm_id":"4321119906","tag":{"amenity":"waste_basket"}},"type":"Feature"},
	{"geometry":{"coordinates":[11.765682,54.152711],"type":"Point"},"properties":{"osm_id":"4321120198","tag":{"amenity":"waste_basket"}},"type":"Feature"},
	{"geometry":{"coordinates":[11.763226,54.153655],"type":"Point"},"properties":{"osm_id":"4321143993","tag":{"amenity":"waste_basket"}},"type":"Feature"},
	{"geometry":{"coordinates":[11.765154,54.15286],"type":"Point"},"properties":{"osm_id":"4321143996","tag":{"amenity":"waste_basket"}},"type":"Feature"},
	{"geometry":{"coordinates":[11.764799,54.152975],"type":"Point"},"properties":{"osm_id":"4321332890","tag":{"amenity":"waste_basket"}},"type":"Feature"},
	{"geometry":{"coordinates":[11.763184,54.15352],"type":"Point"},"properties":{"osm_id":"4321342890","tag":{"amenity":"waste_basket"}},"type":"Feature"},
	{"geometry":{"coordinates":[11.728521,54.153096],"type":"Point"},"properties":{"osm_id":"4327040793","tag":{"amenity":"waste_basket"}},"type":"Feature"},
	{"geometry":{"coordinates":[11.772115,54.11703],"type":"Point"},"properties":{"osm_id":"4971012997","tag":{"amenity":"waste_basket"}},"type":"Feature"},
	{"geometry":{"coordinates":[11.770991,54.118055],"type":"Point"},"properties":{"osm_id":"4971012998","tag":{"amenity":"waste_basket"}},"type":"Feature"},
	{"geometry":{"coordinates":[11.768157,54.15206],"type":"Point"},"properties":{"osm_id":"6090906667","tag":{"amenity":"waste_basket","waste":"trash"}},"type":"Feature"}
]
}
