{
"type": "FeatureCollection",
"features": [
	{"geometry":{"coordinates":[11.723004,52.16592],"type":"Point"},"properties":{"osm_id":"304012398","tag":{"amenity":"recycling","recycling:clothes":"yes","recycling:glass":"yes"}},"type":"Feature"},
	{"geometry":{"coordinates":[11.748608,52.173332],"type":"Point"},"properties":{"osm_id":"1809744394","tag":{"amenity":"recycling","recycling:glass_bottles":"yes","recycling_type":"container"}},"type":"Feature"},
	{"geometry":{"coordinates":[11.736909,52.177282],"type":"Point"},"properties":{"osm_id":"4089923474","tag":{"amenity":"recycling","recycling:cans":"no","recycling:clothes":"yes","recycling:glass":"yes","recycling:glass_bottles":"yes","recycling:paper":"no","recycling:plastic":"no","recycling_type":"container"}},"type":"Feature"},
	{"geometry":{"coordinates":[11.732297,52.179231],"type":"Point"},"properties":{"osm_id":"4089923477","tag":{"amenity":"recycling","recycling:cans":"no","recycling:clothes":"yes","recycling:glass":"yes","recycling:glass_bottles":"yes","recycling:paper":"no","recycling:plastic":"no","recycling_type":"container"}},"type":"Feature"},
	{"geometry":{"coordinates":[11.737712,52.180744],"type":"Point"},"properties":{"osm_id":"4095278544","tag":{"addr:city":"Biederitz","addr:country":"DE","addr:postcode":"39175","addr:street":"Lostauer Stra\u00c3\u009fe","amenity":"recycling","recycling:cans":"no","recycling:clothes":"no","recycling:glass":"yes","recycling:glass_bottles":"yes","recycling:paper":"yes","recycling:plastic":"no","recycling_type":"container"}},"type":"Feature"},
	{"geometry":{"coordinates":[11.740467,52.21335],"type":"Point"},"properties":{"osm_id":"4665526832","tag":{"amenity":"recycling","recycling:green_waste":"yes"}},"type":"Feature"},
	{"geometry":{"coordinates":[11.733817,52.207767],"type":"Point"},"properties":{"osm_id":"8525518530","tag":{"amenity":"recycling","recycling:glass":"yes","recycling_type":"container"}},"type":"Feature"},
	{"geometry":{"coordinates":[11.745258,52.203309],"type":"Point"},"properties":{"osm_id":"8749842494","tag":{"amenity":"recycling","operator":"Malteser","recycling:clothes":"yes","recycling:shoes":"yes","recycling_type":"container"}},"type":"Feature"},
	{"geometry":{"coordinates":[11.737466,52.211793],"type":"Point"},"properties":{"osm_id":"8749842495","tag":{"amenity":"recycling","capacity:disabled":"1","recycling:glass_bottles":"yes","recycling_type":"container"}},"type":"Feature"},
	{"geometry":{"coordinates":[11.733839,52.207722],"type":"Point"},"properties":{"osm_id":"8750710927","tag":{"amenity":"recycling","operator":"Volkssolidarit\u00c3\u00a4t","recycling:clothes":"yes","recycling:shoes":"yes","recycling_type":"container"}},"type":"Feature"},
	{"geometry":{"coordinates":[11.737416,52.211749],"type":"Point"},"properties":{"osm_id":"8780924614","tag":{"amenity":"recycling","operator":"Humana Kleidersammlung GmbH","recycling:accessories":"yes","recycling:clothes":"yes","recycling:shoes":"yes","recycling:textiles":"yes","recycling_type":"container"}},"type":"Feature"}
]
}
