{
"type": "FeatureCollection",
"features": [
	{"geometry":{"coordinates":[11.772288,51.213994],"type":"Point"},"properties":{"osm_id":"1159962241","tag":{"amenity":"recycling"}},"type":"Feature"},
	{"geometry":{"coordinates":[11.766707,51.221031],"type":"Point"},"properties":{"osm_id":"1159966731","tag":{"amenity":"recycling"}},"type":"Feature"},
	{"geometry":{"coordinates":[11.769856,51.212696],"type":"Point"},"properties":{"osm_id":"1181571157","tag":{"amenity":"waste_basket"}},"type":"Feature"},
	{"geometry":{"coordinates":[11.769469,51.212561],"type":"Point"},"properties":{"osm_id":"1181585925","tag":{"amenity":"waste_basket"}},"type":"Feature"},
	{"geometry":{"coordinates":[11.769767,51.212497],"type":"Point"},"properties":{"osm_id":"1181585928","tag":{"amenity":"waste_basket"}},"type":"Feature"},
	{"geometry":{"coordinates":[11.768999,51.212789],"type":"Point"},"properties":{"osm_id":"1184806383","tag":{"addr:city":"Freyburg (Unstrut)","addr:country":"DE","addr:postcode":"06632","addr:street":"Steinstra\u00c3\u009fe","amenity":"waste_basket"}},"type":"Feature"},
	{"geometry":{"coordinates":[11.768584,51.21288],"type":"Point"},"properties":{"osm_id":"1185519722","tag":{"amenity":"waste_basket"}},"type":"Feature"},
	{"geometry":{"coordinates":[11.772941,51.220996],"type":"Point"},"properties":{"osm_id":"1196596626","tag":{"amenity":"recycling","recycling:clothes":"yes"}},"type":"Feature"},
	{"geometry":{"coordinates":[11.770396,51.220878],"type":"Point"},"properties":{"osm_id":"1196897713","tag":{"amenity":"recycling"}},"type":"Feature"},
	{"geometry":{"coordinates":[11.770633,51.22085],"type":"Point"},"properties":{"osm_id":"1196897724","tag":{"amenity":"recycling"}},"type":"Feature"},
	{"geometry":{"coordinates":[11.736903,51.213864],"type":"Point"},"properties":{"osm_id":"1953160973","tag":{"amenity":"waste_basket","waste":"trash"}},"type":"Feature"},
	{"geometry":{"coordinates":[11.777271,51.212092],"type":"Point"},"properties":{"osm_id":"6851507740","tag":{"amenity":"waste_basket"}},"type":"Feature"},
	{"geometry":{"coordinates":[11.770238,51.217627],"type":"Point"},"properties":{"osm_id":"8812149660","tag":{"amenity":"recycling","recycling:clothes":"yes","recycling:glass_bottles":"yes","recycling_type":"container"}},"type":"Feature"},
	{"geometry":{"coordinates":[11.769793,51.220665],"type":"Point"},"properties":{"osm_id":"8836357116","tag":{"access":"private","amenity":"waste_disposal","waste":"trash"}},"type":"Feature"},
	{"geometry":{"coordinates":[11.767105,51.22215],"type":"Point"},"properties":{"osm_id":"8836357117","tag":{"access":"private","amenity":"waste_disposal","waste":"trash"}},"type":"Feature"},
	{"geometry":{"coordinates":[11.767309,51.222276],"type":"Point"},"properties":{"osm_id":"8836357118","tag":{"access":"private","amenity":"waste_disposal","waste":"trash"}},"type":"Feature"},
	{"geometry":{"coordinates":[11.769812,51.222041],"type":"Point"},"properties":{"osm_id":"8836357119","tag":{"access":"private","amenity":"waste_disposal","waste":"trash"}},"type":"Feature"},
	{"geometry":{"coordinates":[11.769593,51.222067],"type":"Point"},"properties":{"osm_id":"8836357120","tag":{"access":"private","amenity":"waste_disposal","waste":"trash"}},"type":"Feature"},
	{"geometry":{"coordinates":[11.767011,51.22172],"type":"Point"},"properties":{"osm_id":"8836357121","tag":{"access":"private","amenity":"waste_disposal","waste":"trash"}},"type":"Feature"},
	{"geometry":{"coordinates":[11.768276,51.222395],"type":"Point"},"properties":{"osm_id":"8836357122","tag":{"access":"private","amenity":"waste_disposal","waste":"trash"}},"type":"Feature"},
	{"geometry":{"coordinates":[11.769885,51.222561],"type":"Point"},"properties":{"osm_id":"8836357123","tag":{"access":"private","amenity":"waste_disposal","waste":"trash"}},"type":"Feature"}
]
}
