{
"type": "FeatureCollection",
"features": [
	{"geometry":{"coordinates":[11.736771,50.86572],"type":"Point"},"properties":{"osm_id":"875949629","tag":{"amenity":"recycling","recycling:clothes":"yes","recycling:glass":"yes"}},"type":"Feature"},
	{"geometry":{"coordinates":[11.775182,50.854091],"type":"Point"},"properties":{"osm_id":"1546024104","tag":{"amenity":"recycling"}},"type":"Feature"},
	{"geometry":{"coordinates":[11.719481,50.886404],"type":"Point"},"properties":{"osm_id":"1842379475","tag":{"amenity":"recycling","recycling:glass":"yes","recycling_type":"container"}},"type":"Feature"},
	{"geometry":{"coordinates":[11.729592,50.85751],"type":"Point"},"properties":{"osm_id":"2297842559","tag":{"amenity":"recycling","recycling:clothes":"yes","recycling:glass":"yes","recycling_type":"container"}},"type":"Feature"},
	{"geometry":{"coordinates":[11.732311,50.861712],"type":"Point"},"properties":{"osm_id":"3961320033","tag":{"amenity":"recycling","recycling:glass":"yes"}},"type":"Feature"},
	{"geometry":{"coordinates":[11.734814,50.860845],"type":"Point"},"properties":{"osm_id":"4377487053","tag":{"amenity":"recycling","recycling:clothes":"yes","recycling_type":"container"}},"type":"Feature"},
	{"geometry":{"coordinates":[11.722041,50.867996],"type":"Point"},"properties":{"osm_id":"4472652798","tag":{"amenity":"waste_disposal"}},"type":"Feature"},
	{"geometry":{"coordinates":[11.724408,50.865746],"type":"Point"},"properties":{"osm_id":"4482665095","tag":{"amenity":"waste_basket"}},"type":"Feature"},
	{"geometry":{"coordinates":[11.724681,50.865698],"type":"Point"},"properties":{"osm_id":"4482709389","tag":{"amenity":"waste_basket"}},"type":"Feature"},
	{"geometry":{"coordinates":[11.724208,50.866538],"type":"Point"},"properties":{"osm_id":"4717747589","tag":{"amenity":"waste_basket"}},"type":"Feature"},
	{"geometry":{"coordinates":[11.746002,50.884456],"type":"Point"},"properties":{"osm_id":"4831102549","tag":{"amenity":"recycling","recycling:clothes":"yes","recycling:glass":"yes","recycling:glass_bottles":"yes","recycling_type":"container"}},"type":"Feature"},
	{"geometry":{"coordinates":[11.722521,50.867225],"type":"Point"},"properties":{"osm_id":"5743716429","tag":{"amenity":"waste_basket"}},"type":"Feature"},
	{"geometry":{"coordinates":[11.696821,50.866855],"type":"Point"},"properties":{"osm_id":"7111935040","tag":{"amenity":"recycling","recycling:glass_bottles":"yes","recycling_type":"container"}},"type":"Feature"},
	{"geometry":{"coordinates":[11.771013,50.871057],"type":"Point"},"properties":{"osm_id":"7542469664","tag":{"amenity":"recycling","recycling:clothes":"yes","recycling:glass_bottles":"yes","recycling_type":"container"}},"type":"Feature"},
	{"geometry":{"coordinates":[11.761964,50.867598],"type":"Point"},"properties":{"osm_id":"7542560306","tag":{"amenity":"waste_basket","colour":"green","material":"steel"}},"type":"Feature"},
	{"geometry":{"coordinates":[11.7617,50.867503],"type":"Point"},"properties":{"osm_id":"7542560311","tag":{"amenity":"waste_basket","colour":"green","material":"steel"}},"type":"Feature"}
]
}
