{
"type": "FeatureCollection",
"features": [
	{"geometry":{"coordinates":[11.766794,48.447885],"type":"Point"},"properties":{"name":"Bauhof","osm_id":"27561550","tag":{"amenity":"recycling","recycling_type":"centre"}},"type":"Feature"},
	{"geometry":{"coordinates":[11.741306,48.407353],"type":"Point"},"properties":{"osm_id":"428094538","tag":{"amenity":"recycling","location":"overground","recycling:clothes":"yes","recycling:glass":"yes","recycling:paper":"yes","recycling_type":"container"}},"type":"Feature"},
	{"geometry":{"coordinates":[11.763514,48.405728],"type":"Point"},"properties":{"osm_id":"674874794","tag":{"amenity":"recycling","location":"overground","recycling:clothes":"yes","recycling:glass_bottles":"yes","recycling:paper":"yes","recycling_type":"container"}},"type":"Feature"},
	{"geometry":{"coordinates":[11.734784,48.411938],"type":"Point"},"properties":{"osm_id":"676307461","tag":{"amenity":"recycling","location":"overground","recycling:clothes":"yes","recycling:glass_bottles":"yes","recycling:paper":"yes","recycling_type":"container"}},"type":"Feature"},
	{"geometry":{"coordinates":[11.716985,48.402366],"type":"Point"},"properties":{"osm_id":"760332889","tag":{"amenity":"recycling","recycling_type":"container"}},"type":"Feature"},
	{"geometry":{"coordinates":[11.751254,48.401617],"type":"Point"},"properties":{"osm_id":"1374700121","tag":{"amenity":"recycling","recycling:glass_bottles":"yes","recycling:paper":"yes","recycling_type":"container"}},"type":"Feature"},
	{"geometry":{"coordinates":[11.734602,48.408459],"type":"Point"},"properties":{"osm_id":"2063797339","tag":{"amenity":"recycling","recycling_type":"container"}},"type":"Feature"},
	{"geometry":{"coordinates":[11.732986,48.404363],"type":"Point"},"properties":{"osm_id":"2063916305","tag":{"amenity":"recycling","location":"overground","recycling_type":"container"}},"type":"Feature"},
	{"geometry":{"coordinates":[11.752272,48.409427],"type":"Point"},"properties":{"osm_id":"2104100643","tag":{"amenity":"recycling","recycling:clothes":"yes","recycling:glass":"yes","recycling:glass_bottles":"yes","recycling:paper":"yes","recycling_type":"container"}},"type":"Feature"},
	{"geometry":{"coordinates":[11.759489,48.412272],"type":"Point"},"properties":{"osm_id":"2104100646","tag":{"amenity":"recycling","recycling:glass":"yes","recycling:paper":"yes","recycling_type":"container"}},"type":"Feature"},
	{"geometry":{"coordinates":[11.74577,48.412796],"type":"Point"},"properties":{"osm_id":"2130816024","tag":{"amenity":"recycling","location":"overground","recycling:clothes":"yes","recycling:glass":"yes","recycling:paper":"yes","recycling_type":"container"}},"type":"Feature"},
	{"geometry":{"coordinates":[11.738007,48.413084],"type":"Point"},"properties":{"osm_id":"2130861182","tag":{"amenity":"recycling","recycling:clothes":"yes","recycling:glass_bottles":"yes","recycling:paper":"yes","recycling_type":"container"}},"type":"Feature"},
	{"geometry":{"coordinates":[11.763953,48.451885],"type":"Point"},"properties":{"osm_id":"2311682037","tag":{"amenity":"recycling","recycling:glass_bottles":"yes","recycling_type":"container"}},"type":"Feature"},
	{"geometry":{"coordinates":[11.745686,48.404373],"type":"Point"},"properties":{"osm_id":"3350687504","tag":{"amenity":"waste_basket"}},"type":"Feature"},
	{"geometry":{"coordinates":[11.745466,48.404848],"type":"Point"},"properties":{"osm_id":"3350687516","tag":{"amenity":"waste_basket"}},"type":"Feature"},
	{"geometry":{"coordinates":[11.746102,48.404362],"type":"Point"},"properties":{"osm_id":"3350687518","tag":{"amenity":"waste_basket"}},"type":"Feature"},
	{"geometry":{"coordinates":[11.745127,48.402733],"type":"Point"},"properties":{"osm_id":"3350709666","tag":{"amenity":"waste_basket"}},"type":"Feature"},
	{"geometry":{"coordinates":[11.745874,48.404626],"type":"Point"},"properties":{"osm_id":"3356886886","tag":{"amenity":"waste_basket"}},"type":"Feature"},
	{"geometry":{"coordinates":[11.744893,48.403752],"type":"Point"},"properties":{"osm_id":"3358730518","tag":{"amenity":"recycling","recycling:clothes":"yes","recycling:glass":"yes","recycling:paper":"yes","recycling_type":"container"}},"type":"Feature"},
	{"geometry":{"coordinates":[11.74481,48.403442],"type":"Point"},"properties":{"osm_id":"3383747446","tag":{"amenity":"waste_basket"}},"type":"Feature"},
	{"geometry":{"coordinates":[11.745487,48.402892],"type":"Point"},"properties":{"osm_id":"3387646083","tag":{"amenity":"waste_basket"}},"type":"Feature"},
	{"geometry":{"coordinates":[11.744915,48.402576],"type":"Point"},"properties":{"osm_id":"3416555704","tag":{"amenity":"waste_basket"}},"type":"Feature"},
	{"geometry":{"coordinates":[11.744803,48.402651],"type":"Point"},"properties":{"osm_id":"3416555705","tag":{"amenity":"waste_basket"}},"type":"Feature"},
	{"geometry":{"coordinates":[11.753535,48.400102],"type":"Point"},"properties":{"osm_id":"3764276548","tag":{"amenity":"waste_basket","material":"metal","operator":"Stadt Freising","waste":"trash"}},"type":"Feature"},
	{"geometry":{"coordinates":[11.754648,48.400614],"type":"Point"},"properties":{"osm_id":"3764276550","tag":{"amenity":"waste_basket"}},"type":"Feature"},
	{"geometry":{"coordinates":[11.754071,48.401528],"type":"Point"},"properties":{"osm_id":"3764276554","tag":{"amenity":"waste_basket"}},"type":"Feature"},
	{"geometry":{"coordinates":[11.753925,48.401603],"type":"Point"},"properties":{"osm_id":"3764276556","tag":{"amenity":"waste_basket"}},"type":"Feature"},
	{"geometry":{"coordinates":[11.741958,48.411103],"type":"Point"},"properties":{"osm_id":"4185319090","tag":{"amenity":"recycling","recycling:clothes":"yes","recycling:glass":"yes","recycling:paper":"yes","recycling_type":"container"}},"type":"Feature"},
	{"geometry":{"coordinates":[11.724186,48.402094],"type":"Point"},"properties":{"osm_id":"5268613706","tag":{"amenity":"waste_basket"}},"type":"Feature"},
	{"geometry":{"coordinates":[11.747494,48.410388],"type":"Point"},"properties":{"osm_id":"6222835730","tag":{"amenity":"recycling","recycling:glass_bottles":"yes","recycling_type":"container"}},"type":"Feature"},
	{"geometry":{"coordinates":[11.745549,48.401159],"type":"Point"},"properties":{"osm_id":"6501885054","tag":{"amenity":"waste_basket","waste":"trash"}},"type":"Feature"},
	{"geometry":{"coordinates":[11.749889,48.403006],"type":"Point"},"properties":{"osm_id":"6501968087","tag":{"amenity":"waste_basket"}},"type":"Feature"},
	{"geometry":{"coordinates":[11.746402,48.406049],"type":"Point"},"properties":{"osm_id":"6501994084","tag":{"amenity":"waste_basket"}},"type":"Feature"},
	{"geometry":{"coordinates":[11.737329,48.407962],"type":"Point"},"properties":{"osm_id":"6502032127","tag":{"amenity":"waste_basket"}},"type":"Feature"},
	{"geometry":{"coordinates":[11.732907,48.40424],"type":"Point"},"properties":{"osm_id":"6502038834","tag":{"amenity":"waste_basket"}},"type":"Feature"},
	{"geometry":{"coordinates":[11.719517,48.405658],"type":"Point"},"properties":{"name":"Kompost","osm_id":"6688176348","tag":{"amenity":"waste_disposal","name:de":"Kompost","name:en":"Compost","operator":"Knosporus CampusGarten","waste":"organic"}},"type":"Feature"},
	{"geometry":{"coordinates":[11.75354,48.403635],"type":"Point"},"properties":{"osm_id":"6700938512","tag":{"amenity":"waste_basket"}},"type":"Feature"},
	{"geometry":{"coordinates":[11.75326,48.403541],"type":"Point"},"properties":{"osm_id":"6700938524","tag":{"amenity":"waste_basket"}},"type":"Feature"},
	{"geometry":{"coordinates":[11.753103,48.403571],"type":"Point"},"properties":{"osm_id":"6700938555","tag":{"amenity":"waste_basket"}},"type":"Feature"},
	{"geometry":{"coordinates":[11.752372,48.402138],"type":"Point"},"properties":{"osm_id":"6700938562","tag":{"amenity":"waste_basket"}},"type":"Feature"},
	{"geometry":{"coordinates":[11.74155,48.401278],"type":"Point"},"properties":{"osm_id":"6703916022","tag":{"amenity":"waste_basket"}},"type":"Feature"},
	{"geometry":{"coordinates":[11.743023,48.401026],"type":"Point"},"properties":{"osm_id":"6703916023","tag":{"amenity":"waste_basket"}},"type":"Feature"},
	{"geometry":{"coordinates":[11.744352,48.400854],"type":"Point"},"properties":{"osm_id":"6703942992","tag":{"amenity":"waste_basket"}},"type":"Feature"},
	{"geometry":{"coordinates":[11.744737,48.401755],"type":"Point"},"properties":{"osm_id":"6704019288","tag":{"amenity":"waste_basket"}},"type":"Feature"},
	{"geometry":{"coordinates":[11.744313,48.401831],"type":"Point"},"properties":{"osm_id":"6704019292","tag":{"amenity":"waste_basket"}},"type":"Feature"},
	{"geometry":{"coordinates":[11.744557,48.401965],"type":"Point"},"properties":{"osm_id":"6739294651","tag":{"amenity":"waste_basket"}},"type":"Feature"},
	{"geometry":{"coordinates":[11.772874,48.408927],"type":"Point"},"properties":{"osm_id":"6750148145","tag":{"amenity":"waste_basket","material":"metal","waste":"trash"}},"type":"Feature"},
	{"geometry":{"coordinates":[11.772988,48.40841],"type":"Point"},"properties":{"osm_id":"6750156107","tag":{"amenity":"waste_basket","material":"metal","waste":"trash"}},"type":"Feature"},
	{"geometry":{"coordinates":[11.759058,48.403248],"type":"Point"},"properties":{"osm_id":"6767462503","tag":{"amenity":"waste_basket"}},"type":"Feature"},
	{"geometry":{"coordinates":[11.758053,48.40274],"type":"Point"},"properties":{"osm_id":"6767482786","tag":{"amenity":"waste_basket"}},"type":"Feature"},
	{"geometry":{"coordinates":[11.757864,48.402723],"type":"Point"},"properties":{"osm_id":"6767482790","tag":{"amenity":"waste_basket"}},"type":"Feature"},
	{"geometry":{"coordinates":[11.758981,48.403578],"type":"Point"},"properties":{"osm_id":"6769187429","tag":{"amenity":"waste_basket"}},"type":"Feature"},
	{"geometry":{"coordinates":[11.743029,48.400093],"type":"Point"},"properties":{"osm_id":"6769459329","tag":{"amenity":"waste_basket"}},"type":"Feature"},
	{"geometry":{"coordinates":[11.748632,48.401957],"type":"Point"},"properties":{"osm_id":"6769459346","tag":{"amenity":"waste_basket","material":"metal","waste":"trash"}},"type":"Feature"},
	{"geometry":{"coordinates":[11.74941,48.402533],"type":"Point"},"properties":{"osm_id":"6769459363","tag":{"amenity":"waste_basket"}},"type":"Feature"},
	{"geometry":{"coordinates":[11.757703,48.406908],"type":"Point"},"properties":{"osm_id":"6769466640","tag":{"amenity":"waste_basket"}},"type":"Feature"},
	{"geometry":{"coordinates":[11.768935,48.408838],"type":"Point"},"properties":{"osm_id":"6769854580","tag":{"amenity":"waste_basket"}},"type":"Feature"},
	{"geometry":{"coordinates":[11.731711,48.401274],"type":"Point"},"properties":{"osm_id":"6773932503","tag":{"amenity":"waste_disposal"}},"type":"Feature"},
	{"geometry":{"coordinates":[11.742918,48.401098],"type":"Point"},"properties":{"osm_id":"6773997400","tag":{"amenity":"waste_basket"}},"type":"Feature"},
	{"geometry":{"coordinates":[11.753153,48.401832],"type":"Point"},"properties":{"osm_id":"6776942547","tag":{"amenity":"waste_basket"}},"type":"Feature"},
	{"geometry":{"coordinates":[11.752586,48.402052],"type":"Point"},"properties":{"osm_id":"6776962120","tag":{"amenity":"waste_basket"}},"type":"Feature"},
	{"geometry":{"coordinates":[11.728427,48.400243],"type":"Point"},"properties":{"osm_id":"6777116384","tag":{"amenity":"waste_basket"}},"type":"Feature"},
	{"geometry":{"coordinates":[11.74344,48.400978],"type":"Point"},"properties":{"osm_id":"6779286271","tag":{"amenity":"waste_basket"}},"type":"Feature"},
	{"geometry":{"coordinates":[11.742737,48.400085],"type":"Point"},"properties":{"osm_id":"6779336403","tag":{"amenity":"waste_basket"}},"type":"Feature"},
	{"geometry":{"coordinates":[11.747318,48.401944],"type":"Point"},"properties":{"osm_id":"6779387054","tag":{"amenity":"waste_basket"}},"type":"Feature"},
	{"geometry":{"coordinates":[11.747836,48.40211],"type":"Point"},"properties":{"osm_id":"6779400052","tag":{"amenity":"waste_basket"}},"type":"Feature"},
	{"geometry":{"coordinates":[11.747785,48.401962],"type":"Point"},"properties":{"osm_id":"6779400985","tag":{"amenity":"waste_basket"}},"type":"Feature"},
	{"geometry":{"coordinates":[11.757449,48.406057],"type":"Point"},"properties":{"osm_id":"6781240766","tag":{"amenity":"waste_basket"}},"type":"Feature"},
	{"geometry":{"coordinates":[11.757989,48.406097],"type":"Point"},"properties":{"osm_id":"6781251941","tag":{"amenity":"waste_basket"}},"type":"Feature"},
	{"geometry":{"coordinates":[11.757642,48.406443],"type":"Point"},"properties":{"osm_id":"6781251944","tag":{"amenity":"waste_basket"}},"type":"Feature"},
	{"geometry":{"coordinates":[11.757983,48.406486],"type":"Point"},"properties":{"osm_id":"6781251949","tag":{"amenity":"waste_basket"}},"type":"Feature"},
	{"geometry":{"coordinates":[11.757392,48.406456],"type":"Point"},"properties":{"osm_id":"6781254100","tag":{"amenity":"waste_basket"}},"type":"Feature"},
	{"geometry":{"coordinates":[11.758323,48.407046],"type":"Point"},"properties":{"osm_id":"6781258504","tag":{"amenity":"waste_basket"}},"type":"Feature"},
	{"geometry":{"coordinates":[11.757056,48.40574],"type":"Point"},"properties":{"osm_id":"6781260530","tag":{"amenity":"waste_basket"}},"type":"Feature"},
	{"geometry":{"coordinates":[11.757819,48.407152],"type":"Point"},"properties":{"osm_id":"6781270463","tag":{"amenity":"waste_basket"}},"type":"Feature"},
	{"geometry":{"coordinates":[11.757946,48.40706],"type":"Point"},"properties":{"osm_id":"6781270803","tag":{"amenity":"waste_basket"}},"type":"Feature"},
	{"geometry":{"coordinates":[11.748159,48.40015],"type":"Point"},"properties":{"osm_id":"6782143906","tag":{"amenity":"waste_basket"}},"type":"Feature"},
	{"geometry":{"coordinates":[11.726014,48.401609],"type":"Point"},"properties":{"osm_id":"6784567685","tag":{"amenity":"waste_basket"}},"type":"Feature"},
	{"geometry":{"coordinates":[11.74332,48.400584],"type":"Point"},"properties":{"osm_id":"6799634272","tag":{"amenity":"waste_basket"}},"type":"Feature"},
	{"geometry":{"coordinates":[11.743839,48.402623],"type":"Point"},"properties":{"osm_id":"6920314966","tag":{"amenity":"waste_basket"}},"type":"Feature"},
	{"geometry":{"coordinates":[11.748132,48.401467],"type":"Point"},"properties":{"osm_id":"7080780212","tag":{"amenity":"waste_basket","material":"metal","operator":"Stadt Freising","waste":"trash"}},"type":"Feature"},
	{"geometry":{"coordinates":[11.744,48.401109],"type":"Point"},"properties":{"osm_id":"7163501410","tag":{"amenity":"waste_basket"}},"type":"Feature"},
	{"geometry":{"coordinates":[11.730287,48.403907],"type":"Point"},"properties":{"osm_id":"7169752547","tag":{"amenity":"waste_basket"}},"type":"Feature"},
	{"geometry":{"coordinates":[11.75265,48.401472],"type":"Point"},"properties":{"osm_id":"7174559368","tag":{"amenity":"waste_basket"}},"type":"Feature"},
	{"geometry":{"coordinates":[11.734652,48.410154],"type":"Point"},"properties":{"osm_id":"7174559372","tag":{"amenity":"waste_basket"}},"type":"Feature"},
	{"geometry":{"coordinates":[11.739966,48.411779],"type":"Point"},"properties":{"osm_id":"7174559374","tag":{"amenity":"waste_basket"}},"type":"Feature"},
	{"geometry":{"coordinates":[11.747881,48.409878],"type":"Point"},"properties":{"osm_id":"7174559376","tag":{"amenity":"waste_basket"}},"type":"Feature"},
	{"geometry":{"coordinates":[11.748179,48.410007],"type":"Point"},"properties":{"osm_id":"7174559379","tag":{"amenity":"waste_basket","waste":"trash"}},"type":"Feature"},
	{"geometry":{"coordinates":[11.750514,48.408506],"type":"Point"},"properties":{"osm_id":"7174559380","tag":{"amenity":"waste_basket","waste":"trash"}},"type":"Feature"},
	{"geometry":{"coordinates":[11.746787,48.405362],"type":"Point"},"properties":{"osm_id":"7174559382","tag":{"amenity":"waste_basket"}},"type":"Feature"},
	{"geometry":{"coordinates":[11.774323,48.41091],"type":"Point"},"properties":{"osm_id":"7176870298","tag":{"amenity":"waste_basket","material":"metal"}},"type":"Feature"},
	{"geometry":{"coordinates":[11.758835,48.406361],"type":"Point"},"properties":{"osm_id":"7176870300","tag":{"amenity":"waste_basket"}},"type":"Feature"},
	{"geometry":{"coordinates":[11.759869,48.406666],"type":"Point"},"properties":{"osm_id":"7176870302","tag":{"amenity":"waste_basket"}},"type":"Feature"},
	{"geometry":{"coordinates":[11.755968,48.405222],"type":"Point"},"properties":{"osm_id":"7176870309","tag":{"amenity":"waste_basket"}},"type":"Feature"},
	{"geometry":{"coordinates":[11.756272,48.405151],"type":"Point"},"properties":{"osm_id":"7176870310","tag":{"amenity":"waste_basket"}},"type":"Feature"},
	{"geometry":{"coordinates":[11.774175,48.408435],"type":"Point"},"properties":{"osm_id":"7177074387","tag":{"amenity":"waste_basket","material":"metal","waste":"trash"}},"type":"Feature"},
	{"geometry":{"coordinates":[11.753089,48.403996],"type":"Point"},"properties":{"osm_id":"7177074392","tag":{"amenity":"waste_basket"}},"type":"Feature"},
	{"geometry":{"coordinates":[11.753296,48.406012],"type":"Point"},"properties":{"osm_id":"7177074393","tag":{"amenity":"waste_basket"}},"type":"Feature"},
	{"geometry":{"coordinates":[11.757429,48.407963],"type":"Point"},"properties":{"osm_id":"7177074398","tag":{"amenity":"waste_basket"}},"type":"Feature"},
	{"geometry":{"coordinates":[11.757282,48.413972],"type":"Point"},"properties":{"osm_id":"7177074404","tag":{"amenity":"waste_basket"}},"type":"Feature"},
	{"geometry":{"coordinates":[11.757823,48.412581],"type":"Point"},"properties":{"osm_id":"7177074405","tag":{"amenity":"waste_basket"}},"type":"Feature"},
	{"geometry":{"coordinates":[11.754499,48.416962],"type":"Point"},"properties":{"osm_id":"7177074414","tag":{"amenity":"waste_basket"}},"type":"Feature"},
	{"geometry":{"coordinates":[11.754805,48.412717],"type":"Point"},"properties":{"osm_id":"7177074416","tag":{"amenity":"waste_basket"}},"type":"Feature"},
	{"geometry":{"coordinates":[11.754915,48.412592],"type":"Point"},"properties":{"osm_id":"7177074418","tag":{"amenity":"waste_basket","waste":"cigarettes"}},"type":"Feature"},
	{"geometry":{"coordinates":[11.752498,48.411322],"type":"Point"},"properties":{"osm_id":"7177074427","tag":{"amenity":"waste_basket","waste":"trash"}},"type":"Feature"},
	{"geometry":{"coordinates":[11.752514,48.410981],"type":"Point"},"properties":{"osm_id":"7177119185","tag":{"amenity":"waste_basket","waste":"trash"}},"type":"Feature"},
	{"geometry":{"coordinates":[11.752322,48.410105],"type":"Point"},"properties":{"osm_id":"7177119194","tag":{"amenity":"waste_basket","waste":"trash"}},"type":"Feature"},
	{"geometry":{"coordinates":[11.75265,48.409751],"type":"Point"},"properties":{"osm_id":"7177119195","tag":{"amenity":"waste_basket","waste":"trash"}},"type":"Feature"},
	{"geometry":{"coordinates":[11.750636,48.408582],"type":"Point"},"properties":{"osm_id":"7177119198","tag":{"amenity":"waste_basket","waste":"trash"}},"type":"Feature"},
	{"geometry":{"coordinates":[11.749286,48.408913],"type":"Point"},"properties":{"osm_id":"7177119199","tag":{"amenity":"waste_basket","indoor":"no","material":"metal","operator":"Stadt Freising","waste":"trash"}},"type":"Feature"},
	{"geometry":{"coordinates":[11.755826,48.408102],"type":"Point"},"properties":{"osm_id":"7177119200","tag":{"amenity":"waste_basket","operator":"Friedhof","waste":"trash"}},"type":"Feature"},
	{"geometry":{"coordinates":[11.757845,48.405816],"type":"Point"},"properties":{"osm_id":"7177203926","tag":{"amenity":"waste_basket"}},"type":"Feature"},
	{"geometry":{"coordinates":[11.758851,48.406252],"type":"Point"},"properties":{"osm_id":"7177203931","tag":{"amenity":"waste_basket"}},"type":"Feature"},
	{"geometry":{"coordinates":[11.757508,48.406699],"type":"Point"},"properties":{"osm_id":"7177203937","tag":{"amenity":"waste_basket"}},"type":"Feature"},
	{"geometry":{"coordinates":[11.759159,48.406908],"type":"Point"},"properties":{"osm_id":"7177203940","tag":{"amenity":"waste_basket"}},"type":"Feature"},
	{"geometry":{"coordinates":[11.758784,48.406137],"type":"Point"},"properties":{"osm_id":"7177203943","tag":{"amenity":"waste_basket"}},"type":"Feature"},
	{"geometry":{"coordinates":[11.758195,48.406178],"type":"Point"},"properties":{"osm_id":"7177203945","tag":{"amenity":"waste_basket"}},"type":"Feature"},
	{"geometry":{"coordinates":[11.758669,48.406449],"type":"Point"},"properties":{"osm_id":"7177203950","tag":{"amenity":"waste_basket"}},"type":"Feature"},
	{"geometry":{"coordinates":[11.752374,48.403723],"type":"Point"},"properties":{"osm_id":"7177212279","tag":{"amenity":"waste_basket"}},"type":"Feature"},
	{"geometry":{"coordinates":[11.75355,48.404102],"type":"Point"},"properties":{"osm_id":"7177214219","tag":{"amenity":"waste_basket"}},"type":"Feature"},
	{"geometry":{"coordinates":[11.748665,48.401236],"type":"Point"},"properties":{"osm_id":"7177231528","tag":{"amenity":"waste_basket"}},"type":"Feature"},
	{"geometry":{"coordinates":[11.749824,48.401977],"type":"Point"},"properties":{"osm_id":"7177239999","tag":{"amenity":"waste_basket"}},"type":"Feature"},
	{"geometry":{"coordinates":[11.749783,48.402052],"type":"Point"},"properties":{"osm_id":"7177240000","tag":{"amenity":"waste_basket"}},"type":"Feature"},
	{"geometry":{"coordinates":[11.749979,48.401735],"type":"Point"},"properties":{"osm_id":"7177240001","tag":{"amenity":"waste_basket"}},"type":"Feature"},
	{"geometry":{"coordinates":[11.749739,48.401555],"type":"Point"},"properties":{"osm_id":"7177240002","tag":{"amenity":"waste_basket"}},"type":"Feature"},
	{"geometry":{"coordinates":[11.74724,48.402842],"type":"Point"},"properties":{"osm_id":"7177241890","tag":{"amenity":"waste_basket"}},"type":"Feature"},
	{"geometry":{"coordinates":[11.758234,48.402764],"type":"Point"},"properties":{"osm_id":"7177279634","tag":{"amenity":"waste_basket"}},"type":"Feature"},
	{"geometry":{"coordinates":[11.751031,48.402193],"type":"Point"},"properties":{"osm_id":"7177281708","tag":{"amenity":"waste_basket"}},"type":"Feature"},
	{"geometry":{"coordinates":[11.730424,48.407166],"type":"Point"},"properties":{"osm_id":"7320036432","tag":{"amenity":"recycling","recycling:glass_bottles":"yes","recycling_type":"container"}},"type":"Feature"},
	{"geometry":{"coordinates":[11.764823,48.40049],"type":"Point"},"properties":{"osm_id":"7486671995","tag":{"amenity":"waste_basket","material":"metal","operator":"Stadt Freising"}},"type":"Feature"},
	{"geometry":{"coordinates":[11.765653,48.40089],"type":"Point"},"properties":{"osm_id":"7486671996","tag":{"amenity":"waste_basket","material":"metal","operator":"Stadt Freising"}},"type":"Feature"},
	{"geometry":{"coordinates":[11.765257,48.400672],"type":"Point"},"properties":{"osm_id":"7486671997","tag":{"amenity":"waste_basket","material":"metal","operator":"Stadt Freising"}},"type":"Feature"},
	{"geometry":{"coordinates":[11.764518,48.400429],"type":"Point"},"properties":{"osm_id":"7486672792","tag":{"amenity":"waste_basket","material":"metal","operator":"Stadt Freising"}},"type":"Feature"},
	{"geometry":{"coordinates":[11.763864,48.400281],"type":"Point"},"properties":{"osm_id":"7486672793","tag":{"amenity":"waste_basket","material":"metal","operator":"Stadt Freising"}},"type":"Feature"},
	{"geometry":{"coordinates":[11.764425,48.400535],"type":"Point"},"properties":{"osm_id":"7486672794","tag":{"amenity":"waste_basket","material":"metal","operator":"Stadt Freising"}},"type":"Feature"},
	{"geometry":{"coordinates":[11.754329,48.400458],"type":"Point"},"properties":{"osm_id":"7489947330","tag":{"amenity":"waste_basket","covered":"yes","indoor":"no","material":"metal","waste":"trash"}},"type":"Feature"},
	{"geometry":{"coordinates":[11.77355,48.408867],"type":"Point"},"properties":{"osm_id":"7494780837","tag":{"amenity":"waste_basket","material":"metal","waste":"trash"}},"type":"Feature"},
	{"geometry":{"coordinates":[11.773249,48.409163],"type":"Point"},"properties":{"osm_id":"7494780844","tag":{"amenity":"waste_basket","material":"metal","waste":"trash"}},"type":"Feature"},
	{"geometry":{"coordinates":[11.773829,48.408092],"type":"Point"},"properties":{"osm_id":"7494780846","tag":{"amenity":"waste_basket","material":"metal","waste":"trash"}},"type":"Feature"},
	{"geometry":{"coordinates":[11.755757,48.400292],"type":"Point"},"properties":{"osm_id":"7504371338","tag":{"amenity":"waste_basket","indoor":"no","material":"metal","waste":"trash"}},"type":"Feature"},
	{"geometry":{"coordinates":[11.752067,48.404202],"type":"Point"},"properties":{"osm_id":"7533629108","tag":{"amenity":"waste_basket","indoor":"no","material":"metal","operator":"Stadt Freising","waste":"trash"}},"type":"Feature"},
	{"geometry":{"coordinates":[11.750517,48.403902],"type":"Point"},"properties":{"osm_id":"7533655102","tag":{"amenity":"waste_basket","indoor":"no","material":"metal","operator":"Stadt Freising","waste":"trash"}},"type":"Feature"},
	{"geometry":{"coordinates":[11.749233,48.40947],"type":"Point"},"properties":{"osm_id":"7533770932","tag":{"amenity":"waste_basket","indoor":"no","material":"metal","operator":"Stadt Freising","waste":"trash"}},"type":"Feature"},
	{"geometry":{"coordinates":[11.752531,48.410473],"type":"Point"},"properties":{"osm_id":"7533811833","tag":{"amenity":"waste_basket","indoor":"no","material":"metal","waste":"trash"}},"type":"Feature"},
	{"geometry":{"coordinates":[11.750414,48.430252],"type":"Point"},"properties":{"osm_id":"7741575805","tag":{"amenity":"recycling","recycling:glass_bottles":"yes","recycling_type":"container"}},"type":"Feature"}
]
}
