{
"type": "FeatureCollection",
"features": [
	{"geometry":{"coordinates":[11.709989,48.367508],"type":"Point"},"properties":{"osm_id":"388996949","tag":{"amenity":"recycling","recycling:glass_bottles":"yes","recycling_type":"container"}},"type":"Feature"},
	{"geometry":{"coordinates":[11.77246,48.394978],"type":"Point"},"properties":{"osm_id":"497717447","tag":{"amenity":"recycling","recycling:glass_bottles":"yes","recycling:paper":"yes","recycling_type":"container"}},"type":"Feature"},
	{"geometry":{"coordinates":[11.737184,48.390245],"type":"Point"},"properties":{"osm_id":"725594108","tag":{"amenity":"recycling","recycling:clothes":"yes","recycling:glass":"yes","recycling:glass_bottles":"yes","recycling:plastic":"no","recycling_type":"container"}},"type":"Feature"},
	{"geometry":{"coordinates":[11.75728,48.388398],"type":"Point"},"properties":{"osm_id":"1402318735","tag":{"amenity":"recycling","recycling:clothes":"yes","recycling:glass_bottles":"yes","recycling:paper":"no","recycling_type":"container"}},"type":"Feature"},
	{"geometry":{"coordinates":[11.755928,48.397607],"type":"Point"},"properties":{"osm_id":"1423928378","tag":{"amenity":"recycling","location":"overground","recycling_type":"container"}},"type":"Feature"},
	{"geometry":{"coordinates":[11.754257,48.389138],"type":"Point"},"properties":{"osm_id":"1426334908","tag":{"amenity":"recycling","location":"overground","recycling:clothes":"yes","recycling_type":"container"}},"type":"Feature"},
	{"geometry":{"coordinates":[11.753096,48.393724],"type":"Point"},"properties":{"osm_id":"1432798468","tag":{"amenity":"waste_basket"}},"type":"Feature"},
	{"geometry":{"coordinates":[11.753274,48.390191],"type":"Point"},"properties":{"osm_id":"1439057797","tag":{"amenity":"recycling","recycling:clothes":"no","recycling:glass":"yes","recycling:glass_bottles":"yes","recycling:paper":"yes","recycling:plastic":"no","recycling_type":"container"}},"type":"Feature"},
	{"geometry":{"coordinates":[11.743652,48.391215],"type":"Point"},"properties":{"osm_id":"1440466331","tag":{"amenity":"recycling","opening_hours":"Mo-Fr 7:00-20:00","recycling:clothes":"yes","recycling:glass":"yes","recycling_type":"container"}},"type":"Feature"},
	{"geometry":{"coordinates":[11.695691,48.398768],"type":"Point"},"properties":{"osm_id":"2329254921","tag":{"amenity":"recycling","recycling:clothes":"yes","recycling:glass_bottles":"yes","recycling_type":"container"}},"type":"Feature"},
	{"geometry":{"coordinates":[11.742236,48.398489],"type":"Point"},"properties":{"osm_id":"3803557925","tag":{"amenity":"recycling","recycling:cans":"no","recycling:clothes":"no","recycling:glass":"yes","recycling:glass_bottles":"yes","recycling:paper":"no","recycling:plastic":"no","recycling_type":"container"}},"type":"Feature"},
	{"geometry":{"coordinates":[11.771843,48.372279],"type":"Point"},"properties":{"osm_id":"3808590940","tag":{"amenity":"recycling","recycling:glass_bottles":"yes","recycling_type":"container"}},"type":"Feature"},
	{"geometry":{"coordinates":[11.717126,48.357681],"type":"Point"},"properties":{"osm_id":"3842763275","tag":{"amenity":"recycling","recycling:green_waste":"yes","recycling_type":"centre"}},"type":"Feature"},
	{"geometry":{"coordinates":[11.733154,48.392179],"type":"Point"},"properties":{"osm_id":"3927449581","tag":{"amenity":"recycling","recycling:cans":"no","recycling:clothes":"yes","recycling:glass":"no","recycling:glass_bottles":"no","recycling:paper":"no","recycling:plastic":"no","recycling_type":"container"}},"type":"Feature"},
	{"geometry":{"coordinates":[11.73942,48.394734],"type":"Point"},"properties":{"osm_id":"3927449582","tag":{"amenity":"recycling","location":"overground","recycling:cans":"no","recycling:clothes":"yes","recycling:glass":"yes","recycling:glass_bottles":"yes","recycling:paper":"no","recycling:plastic":"no","recycling_type":"container"}},"type":"Feature"},
	{"geometry":{"coordinates":[11.744147,48.396634],"type":"Point"},"properties":{"osm_id":"4084761389","tag":{"amenity":"recycling","recycling:clothes":"yes","recycling:glass_bottles":"yes","recycling_type":"container"}},"type":"Feature"},
	{"geometry":{"coordinates":[11.771916,48.355372],"type":"Point"},"properties":{"osm_id":"4126097053","tag":{"amenity":"recycling","recycling:glass":"yes","recycling_type":"container"}},"type":"Feature"},
	{"geometry":{"coordinates":[11.717796,48.394878],"type":"Point"},"properties":{"osm_id":"4136964289","tag":{"amenity":"recycling","mapillary":"0GhGv6llfYTdxgvhI-hcPQ","recycling:glass_bottles":"yes","recycling_type":"container","survey:date":"2019-08-18"}},"type":"Feature"},
	{"geometry":{"coordinates":[11.732071,48.387131],"type":"Point"},"properties":{"osm_id":"4319822778","tag":{"amenity":"recycling","recycling:glass_bottles":"yes","recycling_type":"container"}},"type":"Feature"},
	{"geometry":{"coordinates":[11.766571,48.384504],"type":"Point"},"properties":{"osm_id":"4609616551","tag":{"amenity":"waste_disposal"}},"type":"Feature"},
	{"geometry":{"coordinates":[11.766478,48.384487],"type":"Point"},"properties":{"osm_id":"4618634071","tag":{"amenity":"recycling","recycling:glass_bottles":"yes","recycling_type":"container"}},"type":"Feature"},
	{"geometry":{"coordinates":[11.745112,48.396157],"type":"Point"},"properties":{"osm_id":"4735792128","tag":{"amenity":"waste_basket"}},"type":"Feature"},
	{"geometry":{"coordinates":[11.74504,48.396102],"type":"Point"},"properties":{"osm_id":"4735792129","tag":{"amenity":"waste_basket"}},"type":"Feature"},
	{"geometry":{"coordinates":[11.744964,48.39604],"type":"Point"},"properties":{"osm_id":"4735792130","tag":{"amenity":"waste_basket"}},"type":"Feature"},
	{"geometry":{"coordinates":[11.74489,48.395981],"type":"Point"},"properties":{"osm_id":"4735792131","tag":{"amenity":"waste_basket"}},"type":"Feature"},
	{"geometry":{"coordinates":[11.744816,48.395922],"type":"Point"},"properties":{"osm_id":"4735792132","tag":{"amenity":"waste_basket"}},"type":"Feature"},
	{"geometry":{"coordinates":[11.722676,48.399138],"type":"Point"},"properties":{"osm_id":"6270264617","tag":{"amenity":"recycling","recycling:glass_bottles":"yes","recycling_type":"container"}},"type":"Feature"},
	{"geometry":{"coordinates":[11.727004,48.39523],"type":"Point"},"properties":{"osm_id":"6614579479","tag":{"amenity":"recycling","recycling:glass_bottles":"yes","recycling_type":"container"}},"type":"Feature"},
	{"geometry":{"coordinates":[11.712271,48.349702],"type":"Point"},"properties":{"osm_id":"6699182487","tag":{"amenity":"waste_basket"}},"type":"Feature"},
	{"geometry":{"coordinates":[11.750355,48.399046],"type":"Point"},"properties":{"osm_id":"6704067918","tag":{"amenity":"waste_basket"}},"type":"Feature"},
	{"geometry":{"coordinates":[11.749849,48.399693],"type":"Point"},"properties":{"osm_id":"6704067921","tag":{"amenity":"waste_basket"}},"type":"Feature"},
	{"geometry":{"coordinates":[11.749574,48.399997],"type":"Point"},"properties":{"osm_id":"6704067924","tag":{"amenity":"waste_basket"}},"type":"Feature"},
	{"geometry":{"coordinates":[11.738715,48.398213],"type":"Point"},"properties":{"osm_id":"6704183596","tag":{"amenity":"waste_basket"}},"type":"Feature"},
	{"geometry":{"coordinates":[11.751872,48.396485],"type":"Point"},"properties":{"osm_id":"6767457909","tag":{"amenity":"waste_basket"}},"type":"Feature"},
	{"geometry":{"coordinates":[11.753207,48.399873],"type":"Point"},"properties":{"osm_id":"6769215408","tag":{"amenity":"waste_basket","material":"metal","operator":"Stadt Freising","waste":"trash"}},"type":"Feature"},
	{"geometry":{"coordinates":[11.742941,48.397874],"type":"Point"},"properties":{"osm_id":"6769259664","tag":{"amenity":"waste_basket"}},"type":"Feature"},
	{"geometry":{"coordinates":[11.742345,48.397511],"type":"Point"},"properties":{"osm_id":"6769307178","tag":{"amenity":"waste_basket"}},"type":"Feature"},
	{"geometry":{"coordinates":[11.742068,48.397438],"type":"Point"},"properties":{"osm_id":"6769339702","tag":{"amenity":"waste_basket"}},"type":"Feature"},
	{"geometry":{"coordinates":[11.741633,48.398232],"type":"Point"},"properties":{"osm_id":"6769349749","tag":{"amenity":"waste_basket"}},"type":"Feature"},
	{"geometry":{"coordinates":[11.739382,48.397956],"type":"Point"},"properties":{"osm_id":"6769362158","tag":{"amenity":"waste_basket"}},"type":"Feature"},
	{"geometry":{"coordinates":[11.740851,48.397588],"type":"Point"},"properties":{"osm_id":"6769364105","tag":{"amenity":"waste_basket"}},"type":"Feature"},
	{"geometry":{"coordinates":[11.740385,48.398988],"type":"Point"},"properties":{"osm_id":"6769459336","tag":{"amenity":"waste_basket"}},"type":"Feature"},
	{"geometry":{"coordinates":[11.742244,48.399799],"type":"Point"},"properties":{"osm_id":"6769459339","tag":{"amenity":"waste_basket"}},"type":"Feature"},
	{"geometry":{"coordinates":[11.741799,48.399544],"type":"Point"},"properties":{"osm_id":"6769459343","tag":{"amenity":"waste_basket"}},"type":"Feature"},
	{"geometry":{"coordinates":[11.742345,48.399444],"type":"Point"},"properties":{"osm_id":"6769459350","tag":{"amenity":"waste_basket"}},"type":"Feature"},
	{"geometry":{"coordinates":[11.742019,48.399808],"type":"Point"},"properties":{"osm_id":"6769459362","tag":{"amenity":"waste_basket"}},"type":"Feature"},
	{"geometry":{"coordinates":[11.742524,48.399337],"type":"Point"},"properties":{"osm_id":"6769459373","tag":{"amenity":"waste_basket"}},"type":"Feature"},
	{"geometry":{"coordinates":[11.740527,48.39899],"type":"Point"},"properties":{"osm_id":"6769462993","tag":{"amenity":"waste_basket"}},"type":"Feature"},
	{"geometry":{"coordinates":[11.742305,48.399319],"type":"Point"},"properties":{"osm_id":"6769462996","tag":{"amenity":"waste_basket"}},"type":"Feature"},
	{"geometry":{"coordinates":[11.741675,48.399494],"type":"Point"},"properties":{"osm_id":"6769462999","tag":{"amenity":"waste_basket"}},"type":"Feature"},
	{"geometry":{"coordinates":[11.744666,48.395342],"type":"Point"},"properties":{"osm_id":"6769854576","tag":{"amenity":"waste_basket"}},"type":"Feature"},
	{"geometry":{"coordinates":[11.742582,48.399895],"type":"Point"},"properties":{"osm_id":"6776992677","tag":{"amenity":"waste_basket"}},"type":"Feature"},
	{"geometry":{"coordinates":[11.74136,48.399557],"type":"Point"},"properties":{"osm_id":"6776992678","tag":{"amenity":"waste_basket"}},"type":"Feature"},
	{"geometry":{"coordinates":[11.740854,48.399334],"type":"Point"},"properties":{"osm_id":"6777023901","tag":{"amenity":"waste_basket"}},"type":"Feature"},
	{"geometry":{"coordinates":[11.742993,48.39834],"type":"Point"},"properties":{"osm_id":"6779148065","tag":{"amenity":"waste_basket"}},"type":"Feature"},
	{"geometry":{"coordinates":[11.741867,48.398532],"type":"Point"},"properties":{"osm_id":"6779204132","tag":{"amenity":"waste_basket","indoor":"no","material":"metal","operator":"Stadt Freising","waste":"trash"}},"type":"Feature"},
	{"geometry":{"coordinates":[11.740667,48.398453],"type":"Point"},"properties":{"osm_id":"6779227002","tag":{"amenity":"waste_basket"}},"type":"Feature"},
	{"geometry":{"coordinates":[11.74153,48.39874],"type":"Point"},"properties":{"osm_id":"6779245132","tag":{"amenity":"waste_basket","indoor":"no","material":"metal","operator":"Stadt Freising","waste":"trash"}},"type":"Feature"},
	{"geometry":{"coordinates":[11.743654,48.399866],"type":"Point"},"properties":{"osm_id":"6779303612","tag":{"amenity":"waste_basket"}},"type":"Feature"},
	{"geometry":{"coordinates":[11.73433,48.399145],"type":"Point"},"properties":{"osm_id":"6782201637","tag":{"amenity":"waste_basket"}},"type":"Feature"},
	{"geometry":{"coordinates":[11.724926,48.399682],"type":"Point"},"properties":{"osm_id":"6784792721","tag":{"amenity":"waste_basket"}},"type":"Feature"},
	{"geometry":{"coordinates":[11.724815,48.399692],"type":"Point"},"properties":{"osm_id":"6784792722","tag":{"amenity":"waste_basket"}},"type":"Feature"},
	{"geometry":{"coordinates":[11.724903,48.399729],"type":"Point"},"properties":{"osm_id":"6784792723","tag":{"amenity":"waste_basket"}},"type":"Feature"},
	{"geometry":{"coordinates":[11.743961,48.395622],"type":"Point"},"properties":{"osm_id":"6788892931","tag":{"amenity":"waste_basket"}},"type":"Feature"},
	{"geometry":{"coordinates":[11.743624,48.395951],"type":"Point"},"properties":{"osm_id":"6788922294","tag":{"amenity":"waste_basket"}},"type":"Feature"},
	{"geometry":{"coordinates":[11.743872,48.395975],"type":"Point"},"properties":{"osm_id":"6788922295","tag":{"amenity":"waste_basket"}},"type":"Feature"},
	{"geometry":{"coordinates":[11.743939,48.396014],"type":"Point"},"properties":{"osm_id":"6788922296","tag":{"amenity":"waste_basket"}},"type":"Feature"},
	{"geometry":{"coordinates":[11.743638,48.39584],"type":"Point"},"properties":{"osm_id":"6788922304","tag":{"amenity":"waste_basket"}},"type":"Feature"},
	{"geometry":{"coordinates":[11.746032,48.396611],"type":"Point"},"properties":{"osm_id":"6788928072","tag":{"amenity":"waste_basket"}},"type":"Feature"},
	{"geometry":{"coordinates":[11.744332,48.395552],"type":"Point"},"properties":{"osm_id":"6788929300","tag":{"amenity":"waste_basket"}},"type":"Feature"},
	{"geometry":{"coordinates":[11.744071,48.395364],"type":"Point"},"properties":{"osm_id":"6788929301","tag":{"amenity":"waste_basket"}},"type":"Feature"},
	{"geometry":{"coordinates":[11.744271,48.395463],"type":"Point"},"properties":{"osm_id":"6788929302","tag":{"amenity":"waste_basket"}},"type":"Feature"},
	{"geometry":{"coordinates":[11.744623,48.395807],"type":"Point"},"properties":{"osm_id":"6788935187","tag":{"amenity":"waste_basket"}},"type":"Feature"},
	{"geometry":{"coordinates":[11.744433,48.395627],"type":"Point"},"properties":{"osm_id":"6788935189","tag":{"amenity":"waste_basket"}},"type":"Feature"},
	{"geometry":{"coordinates":[11.745676,48.396301],"type":"Point"},"properties":{"osm_id":"6788947185","tag":{"amenity":"waste_basket"}},"type":"Feature"},
	{"geometry":{"coordinates":[11.744726,48.39558],"type":"Point"},"properties":{"osm_id":"6790031087","tag":{"amenity":"recycling","recycling_type":"container"}},"type":"Feature"},
	{"geometry":{"coordinates":[11.738974,48.398614],"type":"Point"},"properties":{"osm_id":"6799710198","tag":{"amenity":"waste_basket"}},"type":"Feature"},
	{"geometry":{"coordinates":[11.727999,48.398822],"type":"Point"},"properties":{"osm_id":"6799746060","tag":{"amenity":"waste_basket"}},"type":"Feature"},
	{"geometry":{"coordinates":[11.727745,48.398774],"type":"Point"},"properties":{"osm_id":"6799746062","tag":{"amenity":"waste_basket"}},"type":"Feature"},
	{"geometry":{"coordinates":[11.728812,48.399187],"type":"Point"},"properties":{"osm_id":"6799749906","tag":{"amenity":"waste_basket"}},"type":"Feature"},
	{"geometry":{"coordinates":[11.728976,48.399126],"type":"Point"},"properties":{"osm_id":"6799749912","tag":{"amenity":"waste_basket"}},"type":"Feature"},
	{"geometry":{"coordinates":[11.728405,48.399026],"type":"Point"},"properties":{"osm_id":"6799749914","tag":{"amenity":"waste_basket"}},"type":"Feature"},
	{"geometry":{"coordinates":[11.728214,48.399232],"type":"Point"},"properties":{"osm_id":"6799755999","tag":{"amenity":"recycling","recycling_type":"container"}},"type":"Feature"},
	{"geometry":{"coordinates":[11.726861,48.399147],"type":"Point"},"properties":{"osm_id":"6799766798","tag":{"amenity":"waste_basket"}},"type":"Feature"},
	{"geometry":{"coordinates":[11.72763,48.399119],"type":"Point"},"properties":{"osm_id":"6799770369","tag":{"amenity":"waste_basket"}},"type":"Feature"},
	{"geometry":{"coordinates":[11.722808,48.398198],"type":"Point"},"properties":{"osm_id":"6799781837","tag":{"amenity":"waste_basket"}},"type":"Feature"},
	{"geometry":{"coordinates":[11.722772,48.39811],"type":"Point"},"properties":{"osm_id":"6799781838","tag":{"amenity":"waste_basket"}},"type":"Feature"},
	{"geometry":{"coordinates":[11.725105,48.398656],"type":"Point"},"properties":{"osm_id":"6799782477","tag":{"amenity":"waste_basket"}},"type":"Feature"},
	{"geometry":{"coordinates":[11.724976,48.399218],"type":"Point"},"properties":{"osm_id":"6799782478","tag":{"amenity":"waste_basket"}},"type":"Feature"},
	{"geometry":{"coordinates":[11.72462,48.399148],"type":"Point"},"properties":{"osm_id":"6799782480","tag":{"amenity":"waste_basket"}},"type":"Feature"},
	{"geometry":{"coordinates":[11.725518,48.398353],"type":"Point"},"properties":{"osm_id":"6799782482","tag":{"amenity":"waste_basket"}},"type":"Feature"},
	{"geometry":{"coordinates":[11.72463,48.399357],"type":"Point"},"properties":{"osm_id":"6799782484","tag":{"amenity":"waste_basket"}},"type":"Feature"},
	{"geometry":{"coordinates":[11.725465,48.39915],"type":"Point"},"properties":{"osm_id":"6799796192","tag":{"amenity":"waste_basket"}},"type":"Feature"},
	{"geometry":{"coordinates":[11.72594,48.399286],"type":"Point"},"properties":{"osm_id":"6799796195","tag":{"amenity":"waste_basket"}},"type":"Feature"},
	{"geometry":{"coordinates":[11.724497,48.398942],"type":"Point"},"properties":{"osm_id":"6799796200","tag":{"amenity":"recycling","recycling:glass":"yes","recycling:glass_bottles":"yes","recycling_type":"container"}},"type":"Feature"},
	{"geometry":{"coordinates":[11.72524,48.399186],"type":"Point"},"properties":{"osm_id":"6799796201","tag":{"amenity":"waste_basket"}},"type":"Feature"},
	{"geometry":{"coordinates":[11.724433,48.399044],"type":"Point"},"properties":{"osm_id":"6799796204","tag":{"amenity":"waste_basket"}},"type":"Feature"},
	{"geometry":{"coordinates":[11.723,48.398043],"type":"Point"},"properties":{"osm_id":"6799805585","tag":{"amenity":"waste_basket"}},"type":"Feature"},
	{"geometry":{"coordinates":[11.713911,48.397745],"type":"Point"},"properties":{"osm_id":"6807702865","tag":{"amenity":"recycling","recycling_type":"container"}},"type":"Feature"},
	{"geometry":{"coordinates":[11.723672,48.399485],"type":"Point"},"properties":{"osm_id":"6808146500","tag":{"amenity":"waste_basket"}},"type":"Feature"},
	{"geometry":{"coordinates":[11.723587,48.399315],"type":"Point"},"properties":{"osm_id":"6808146502","tag":{"amenity":"waste_basket"}},"type":"Feature"},
	{"geometry":{"coordinates":[11.723834,48.399689],"type":"Point"},"properties":{"osm_id":"6808146504","tag":{"amenity":"waste_basket"}},"type":"Feature"},
	{"geometry":{"coordinates":[11.744697,48.394427],"type":"Point"},"properties":{"osm_id":"6942552612","tag":{"amenity":"waste_basket"}},"type":"Feature"},
	{"geometry":{"coordinates":[11.743679,48.394797],"type":"Point"},"properties":{"osm_id":"6942579049","tag":{"amenity":"waste_basket"}},"type":"Feature"},
	{"geometry":{"coordinates":[11.728385,48.398313],"type":"Point"},"properties":{"osm_id":"7163357189","tag":{"amenity":"waste_basket"}},"type":"Feature"},
	{"geometry":{"coordinates":[11.728547,48.397687],"type":"Point"},"properties":{"osm_id":"7163357191","tag":{"amenity":"waste_basket"}},"type":"Feature"},
	{"geometry":{"coordinates":[11.750278,48.399605],"type":"Point"},"properties":{"osm_id":"7174559370","tag":{"amenity":"waste_basket"}},"type":"Feature"},
	{"geometry":{"coordinates":[11.763583,48.399747],"type":"Point"},"properties":{"osm_id":"7174599412","tag":{"amenity":"waste_basket"}},"type":"Feature"},
	{"geometry":{"coordinates":[11.756034,48.397474],"type":"Point"},"properties":{"osm_id":"7174600705","tag":{"amenity":"waste_basket"}},"type":"Feature"},
	{"geometry":{"coordinates":[11.760721,48.398067],"type":"Point"},"properties":{"osm_id":"7174600707","tag":{"amenity":"waste_basket"}},"type":"Feature"},
	{"geometry":{"coordinates":[11.769589,48.399953],"type":"Point"},"properties":{"osm_id":"7174687675","tag":{"amenity":"waste_basket"}},"type":"Feature"},
	{"geometry":{"coordinates":[11.769913,48.399819],"type":"Point"},"properties":{"osm_id":"7174687677","tag":{"amenity":"waste_basket"}},"type":"Feature"},
	{"geometry":{"coordinates":[11.771493,48.396211],"type":"Point"},"properties":{"osm_id":"7174694081","tag":{"amenity":"waste_basket"}},"type":"Feature"},
	{"geometry":{"coordinates":[11.749102,48.399965],"type":"Point"},"properties":{"osm_id":"7177249740","tag":{"amenity":"waste_basket"}},"type":"Feature"},
	{"geometry":{"coordinates":[11.752892,48.386426],"type":"Point"},"properties":{"osm_id":"7190861134","tag":{"amenity":"waste_basket","material":"metal","waste":"trash"}},"type":"Feature"},
	{"geometry":{"coordinates":[11.752697,48.394274],"type":"Point"},"properties":{"osm_id":"7190943093","tag":{"amenity":"waste_basket","material":"metal","waste":"trash"}},"type":"Feature"},
	{"geometry":{"coordinates":[11.741049,48.399171],"type":"Point"},"properties":{"osm_id":"7191310050","tag":{"amenity":"waste_basket"}},"type":"Feature"},
	{"geometry":{"coordinates":[11.72462,48.397081],"type":"Point"},"properties":{"osm_id":"7223105244","tag":{"amenity":"recycling","recycling:glass_bottles":"yes","recycling_type":"container"}},"type":"Feature"},
	{"geometry":{"coordinates":[11.760825,48.399261],"type":"Point"},"properties":{"osm_id":"7238628245","tag":{"amenity":"waste_basket"}},"type":"Feature"},
	{"geometry":{"coordinates":[11.760864,48.399124],"type":"Point"},"properties":{"osm_id":"7238628246","tag":{"amenity":"waste_basket"}},"type":"Feature"},
	{"geometry":{"coordinates":[11.741779,48.387759],"type":"Point"},"properties":{"osm_id":"7345937113","tag":{"amenity":"waste_basket","waste":"dog_excrement"}},"type":"Feature"},
	{"geometry":{"coordinates":[11.753826,48.391405],"type":"Point"},"properties":{"osm_id":"7486751661","tag":{"amenity":"waste_basket","material":"metal","operator":"Stadt Freising","waste":"trash"}},"type":"Feature"},
	{"geometry":{"coordinates":[11.751359,48.392538],"type":"Point"},"properties":{"osm_id":"7486771425","tag":{"amenity":"waste_basket","material":"metal","waste":"trash"}},"type":"Feature"},
	{"geometry":{"coordinates":[11.75087,48.391436],"type":"Point"},"properties":{"osm_id":"7486782987","tag":{"amenity":"waste_basket","material":"metal","waste":"trash"}},"type":"Feature"},
	{"geometry":{"coordinates":[11.751885,48.390276],"type":"Point"},"properties":{"osm_id":"7486782989","tag":{"amenity":"waste_basket","material":"metal","waste":"trash"}},"type":"Feature"},
	{"geometry":{"coordinates":[11.750916,48.39128],"type":"Point"},"properties":{"osm_id":"7486782990","tag":{"amenity":"waste_basket","material":"metal","waste":"trash"}},"type":"Feature"},
	{"geometry":{"coordinates":[11.750911,48.390283],"type":"Point"},"properties":{"osm_id":"7486782992","tag":{"amenity":"waste_basket","material":"metal","waste":"trash"}},"type":"Feature"},
	{"geometry":{"coordinates":[11.751355,48.391284],"type":"Point"},"properties":{"osm_id":"7486782993","tag":{"amenity":"waste_basket","material":"metal","waste":"trash"}},"type":"Feature"},
	{"geometry":{"coordinates":[11.752318,48.399261],"type":"Point"},"properties":{"osm_id":"7490100527","tag":{"amenity":"waste_basket","material":"metal","operator":"Stadt Freising","waste":"trash"}},"type":"Feature"},
	{"geometry":{"coordinates":[11.762976,48.398658],"type":"Point"},"properties":{"osm_id":"7504265743","tag":{"amenity":"waste_basket","indoor":"no","material":"metal","operator":"Stadt Freising","waste":"trash"}},"type":"Feature"}
]
}
