{
"type": "FeatureCollection",
"features": [
	{"geometry":{"coordinates":[11.719805,48.17162],"type":"Point"},"properties":{"osm_id":"147081121","tag":{"amenity":"recycling","recycling_type":"container"}},"type":"Feature"},
	{"geometry":{"coordinates":[11.723343,48.170651],"type":"Point"},"properties":{"osm_id":"150747014","tag":{"amenity":"recycling","recycling_type":"container"}},"type":"Feature"},
	{"geometry":{"coordinates":[11.711293,48.174333],"type":"Point"},"properties":{"osm_id":"205420811","tag":{"amenity":"recycling","recycling_type":"container"}},"type":"Feature"},
	{"geometry":{"coordinates":[11.720615,48.176762],"type":"Point"},"properties":{"barrier":"gate","osm_id":"331571804"},"type":"Feature"},
	{"geometry":{"coordinates":[11.715941,48.176979],"type":"Point"},"properties":{"osm_id":"461185995","tag":{"amenity":"recycling","location":"underground","recycling:cardboard":"yes","recycling:glass_bottles":"yes","recycling:paper":"yes","recycling_type":"container"}},"type":"Feature"},
	{"geometry":{"coordinates":[11.748385,48.172782],"type":"Point"},"properties":{"osm_id":"661074875","ref":"Ludwig/Rupprechtstra\u00c3\u009fe","tag":{"amenity":"recycling","opening_hours":"Mo-Fr 08:00-12:00,13:00-20:00; Sa 08:00-13:00,15:00-18:00","recycling:cans":"yes","recycling:clothes":"yes","recycling:glass_bottles":"yes","recycling:paper":"yes","recycling:shoes":"yes","recycling_type":"container"}},"type":"Feature"},
	{"geometry":{"coordinates":[11.727547,48.180281],"type":"Point"},"properties":{"osm_id":"664410562","tag":{"amenity":"recycling","recycling_type":"container"}},"type":"Feature"},
	{"geometry":{"coordinates":[11.776113,48.185865],"type":"Point"},"properties":{"osm_id":"670262926","tag":{"amenity":"recycling","recycling:clothes":"yes","recycling:glass":"yes","recycling:paper":"yes","recycling_type":"container"}},"type":"Feature"},
	{"geometry":{"coordinates":[11.772572,48.187921],"type":"Point"},"properties":{"osm_id":"670262932","tag":{"amenity":"recycling","recycling:clothes":"yes","recycling:glass":"yes","recycling:paper":"yes","recycling_type":"container"}},"type":"Feature"},
	{"geometry":{"coordinates":[11.775721,48.1824],"type":"Point"},"properties":{"osm_id":"716925875","tag":{"amenity":"recycling","recycling:glass":"yes","recycling:paper":"yes","recycling_type":"container"}},"type":"Feature"},
	{"geometry":{"coordinates":[11.754972,48.166583],"type":"Point"},"properties":{"osm_id":"770516160","tag":{"amenity":"recycling","recycling:cans":"yes","recycling:clothes":"yes","recycling:glass_bottles":"yes","recycling:paper":"yes","recycling:shoes":"yes","recycling_type":"container"}},"type":"Feature"},
	{"geometry":{"coordinates":[11.725566,48.167024],"type":"Point"},"properties":{"osm_id":"1319734279","tag":{"amenity":"waste_basket"}},"type":"Feature"},
	{"geometry":{"coordinates":[11.757677,48.17321],"type":"Point"},"properties":{"osm_id":"1446971406","tag":{"amenity":"recycling","opening_hours":"Mo-Fr 08:00-12:00,13:00-20:00; Sa 08:00-13:00,15:00-18:00","recycling:cans":"yes","recycling:glass":"yes","recycling:glass_bottles":"yes","recycling:paper":"yes","recycling_type":"container"}},"type":"Feature"},
	{"geometry":{"coordinates":[11.749528,48.166823],"type":"Point"},"properties":{"osm_id":"2035002792","tag":{"amenity":"waste_basket"}},"type":"Feature"},
	{"geometry":{"coordinates":[11.750457,48.166956],"type":"Point"},"properties":{"osm_id":"2035002795","tag":{"amenity":"waste_basket"}},"type":"Feature"},
	{"geometry":{"coordinates":[11.721433,48.166715],"type":"Point"},"properties":{"osm_id":"2284456938","tag":{"amenity":"recycling","recycling_type":"container"}},"type":"Feature"},
	{"geometry":{"coordinates":[11.770177,48.199],"type":"Point"},"properties":{"osm_id":"2904630748","tag":{"amenity":"recycling","recycling:glass":"yes","recycling:paper":"yes","recycling:plastic":"yes","recycling_type":"container"}},"type":"Feature"},
	{"geometry":{"coordinates":[11.775951,48.171183],"type":"Point"},"properties":{"osm_id":"3758987441","tag":{"amenity":"waste_basket"}},"type":"Feature"},
	{"geometry":{"coordinates":[11.761285,48.169356],"type":"Point"},"properties":{"osm_id":"4664876094","tag":{"amenity":"waste_basket"}},"type":"Feature"},
	{"geometry":{"coordinates":[11.720537,48.176811],"type":"Point"},"properties":{"osm_id":"4680909847","tag":{"amenity":"recycling","location":"underground","recycling:cardboard":"yes","recycling:glass_bottles":"yes","recycling:paper":"yes","recycling_type":"container"}},"type":"Feature"},
	{"geometry":{"coordinates":[11.750117,48.173945],"type":"Point"},"properties":{"osm_id":"4699653142","tag":{"amenity":"waste_basket"}},"type":"Feature"},
	{"geometry":{"coordinates":[11.762435,48.174892],"type":"Point"},"properties":{"osm_id":"4708756523","tag":{"amenity":"waste_basket","survey:date":"2017-02-27"}},"type":"Feature"},
	{"geometry":{"coordinates":[11.704307,48.170558],"type":"Point"},"properties":{"osm_id":"5046014071","tag":{"amenity":"waste_basket"}},"type":"Feature"},
	{"geometry":{"coordinates":[11.772797,48.187903],"type":"Point"},"properties":{"osm_id":"5741071297","tag":{"amenity":"waste_basket"}},"type":"Feature"},
	{"geometry":{"coordinates":[11.762974,48.166547],"type":"Point"},"properties":{"osm_id":"7366065823","tag":{"amenity":"waste_basket"}},"type":"Feature"},
	{"geometry":{"coordinates":[11.762525,48.166423],"type":"Point"},"properties":{"osm_id":"7411538572","tag":{"amenity":"waste_basket"}},"type":"Feature"},
	{"geometry":{"coordinates":[11.763945,48.166416],"type":"Point"},"properties":{"osm_id":"7411538573","tag":{"amenity":"waste_basket"}},"type":"Feature"},
	{"geometry":{"coordinates":[11.764129,48.166667],"type":"Point"},"properties":{"osm_id":"7411538574","tag":{"amenity":"waste_basket"}},"type":"Feature"},
	{"geometry":{"coordinates":[11.762036,48.169891],"type":"Point"},"properties":{"osm_id":"7590106533","tag":{"amenity":"recycling","opening_hours":"Mo-Fr 08:00-12:00; Mo-Fr 13:00-20:00; Sa 08:00-13:00; Sa 15:00-18:00","recycling:glass_bottles":"yes","recycling:paper":"yes","recycling_type":"container","wheelchair":"yes"}},"type":"Feature"}
]
}
