{
"type": "FeatureCollection",
"lastupdate": "2020-08-03T00:00:00Z",
"features": [
	{"geometry":{"coordinates":[11.766194,48.103468],"type":"Point"},"properties":{"osm_id":"301781478","tag":{"amenity":"recycling","recycling_type":"container"}},"type":"Feature"},
	{"geometry":{"coordinates":[11.771312,48.103571],"type":"Point"},"properties":{"osm_id":"373425115","tag":{"amenity":"recycling","recycling:cans":"yes","recycling:clothes":"yes","recycling:glass_bottles":"yes","recycling:paper":"yes","recycling:plastic":"no","recycling:plastic_packaging":"yes","recycling:shoes":"yes","recycling_type":"container"}},"type":"Feature"},
	{"geometry":{"coordinates":[11.758629,48.092465],"type":"Point"},"properties":{"name":"Wertstoffhof Neukeferloh","osm_id":"384837357","tag":{"amenity":"recycling","opening_hours":"Tu 12:00-18:00; We 13:00-17:00; Th 09:00-12:00; Fr 12:00-17:00; Sa 09:00-12:00","recycling:batteries":"yes","recycling:cans":"yes","recycling:glass":"yes","recycling:paper":"yes","recycling:scrap_metal":"yes","recycling_type":"centre"}},"type":"Feature"},
	{"geometry":{"coordinates":[11.766759,48.092985],"type":"Point"},"properties":{"osm_id":"384837382","tag":{"amenity":"recycling","recycling:cans":"yes","recycling:clothes":"yes","recycling:glass_bottles":"yes","recycling:paper":"yes"}},"type":"Feature"},
	{"geometry":{"coordinates":[11.74398,48.076708],"type":"Point"},"properties":{"osm_id":"520293119","tag":{"amenity":"recycling","recycling:glass":"yes","recycling:paper":"yes","recycling:scrap_metal":"yes","recycling_type":"container"}},"type":"Feature"},
	{"geometry":{"coordinates":[11.701585,48.073497],"type":"Point"},"properties":{"osm_id":"639037984","tag":{"amenity":"waste_basket"}},"type":"Feature"},
	{"geometry":{"coordinates":[11.706812,48.076325],"type":"Point"},"properties":{"osm_id":"791253016","tag":{"amenity":"waste_basket"}},"type":"Feature"},
	{"geometry":{"coordinates":[11.701385,48.077042],"type":"Point"},"properties":{"osm_id":"945178378","tag":{"amenity":"recycling","recycling:clothes":"yes","recycling_type":"container"}},"type":"Feature"},
	{"geometry":{"coordinates":[11.736844,48.09995],"type":"Point"},"properties":{"osm_id":"1257926655","tag":{"amenity":"waste_basket"}},"type":"Feature"},
	{"geometry":{"coordinates":[11.759221,48.091843],"type":"Point"},"properties":{"osm_id":"1277310678","tag":{"amenity":"waste_basket"}},"type":"Feature"},
	{"geometry":{"coordinates":[11.765987,48.093104],"type":"Point"},"properties":{"osm_id":"1277310755","tag":{"amenity":"waste_basket"}},"type":"Feature"},
	{"geometry":{"coordinates":[11.759814,48.090986],"type":"Point"},"properties":{"osm_id":"1277310846","tag":{"amenity":"waste_basket"}},"type":"Feature"},
	{"geometry":{"coordinates":[11.760266,48.090101],"type":"Point"},"properties":{"osm_id":"1296078764","tag":{"amenity":"waste_basket"}},"type":"Feature"},
	{"geometry":{"coordinates":[11.747053,48.081486],"type":"Point"},"properties":{"osm_id":"1304875622","tag":{"amenity":"waste_basket"}},"type":"Feature"},
	{"geometry":{"coordinates":[11.69349,48.051399],"type":"Point"},"properties":{"osm_id":"1562525040","tag":{"amenity":"waste_basket"}},"type":"Feature"},
	{"geometry":{"coordinates":[11.690653,48.054214],"type":"Point"},"properties":{"osm_id":"1562525045","tag":{"amenity":"waste_basket"}},"type":"Feature"},
	{"geometry":{"coordinates":[11.704363,48.103801],"type":"Point"},"properties":{"osm_id":"1596453793","tag":{"amenity":"recycling","recycling:cans":"yes","recycling:glass":"yes","recycling:glass_bottles":"yes","recycling:plastic":"yes","recycling:scrap_metal":"yes","recycling_type":"container"}},"type":"Feature"},
	{"geometry":{"coordinates":[11.740688,48.106322],"type":"Point"},"properties":{"osm_id":"1637018548","tag":{"addr:city":"Haar","addr:country":"DE","addr:street":"Rechnerstra\u00dfe","amenity":"recycling","opening_hours":"Mo-Sa 07:00-20:00; PH closed","recycling:glass_bottles":"yes","recycling:paper":"yes","recycling_type":"container","underground":"yes","wheelchair":"yes"}},"type":"Feature"},
	{"geometry":{"coordinates":[11.73677,48.106973],"type":"Point"},"properties":{"osm_id":"1637019085","tag":{"addr:city":"Haar","addr:country":"DE","addr:street":"Brunnerstra\u00dfe","amenity":"recycling","recycling:glass":"yes","recycling:paper":"yes","recycling_type":"container"}},"type":"Feature"},
	{"geometry":{"coordinates":[11.766456,48.092957],"type":"Point"},"properties":{"osm_id":"1737137402","tag":{"amenity":"waste_basket"}},"type":"Feature"},
	{"geometry":{"coordinates":[11.689959,48.085036],"type":"Point"},"properties":{"osm_id":"1738727650","tag":{"amenity":"waste_basket"}},"type":"Feature"},
	{"geometry":{"coordinates":[11.757591,48.098347],"type":"Point"},"properties":{"osm_id":"2283984016","tag":{"amenity":"recycling","recycling:clothes":"yes","recycling:shoes":"yes","recycling_type":"container"}},"type":"Feature"},
	{"geometry":{"coordinates":[11.698942,48.08657],"type":"Point"},"properties":{"osm_id":"2415163625","tag":{"amenity":"waste_basket"}},"type":"Feature"},
	{"geometry":{"coordinates":[11.701504,48.088456],"type":"Point"},"properties":{"osm_id":"2415163633","tag":{"amenity":"waste_basket"}},"type":"Feature"},
	{"geometry":{"coordinates":[11.767771,48.096968],"type":"Point"},"properties":{"osm_id":"2420981803","tag":{"amenity":"waste_basket"}},"type":"Feature"},
	{"geometry":{"coordinates":[11.764212,48.098163],"type":"Point"},"properties":{"osm_id":"2420981834","tag":{"amenity":"waste_basket"}},"type":"Feature"},
	{"geometry":{"coordinates":[11.76855,48.08373],"type":"Point"},"properties":{"osm_id":"2721873938","tag":{"amenity":"waste_basket"}},"type":"Feature"},
	{"geometry":{"coordinates":[11.761332,48.085873],"type":"Point"},"properties":{"osm_id":"2721882101","tag":{"amenity":"waste_basket"}},"type":"Feature"},
	{"geometry":{"coordinates":[11.760648,48.090402],"type":"Point"},"properties":{"osm_id":"2730841937","tag":{"amenity":"waste_basket"}},"type":"Feature"},
	{"geometry":{"coordinates":[11.722756,48.102911],"type":"Point"},"properties":{"osm_id":"3236419662","tag":{"amenity":"recycling","mapillary":"6wcDd7j1Evm5tCV4g7lOIg","recycling:clothes":"yes","recycling:glass":"no","recycling:glass_bottles":"yes","recycling:paper":"yes","recycling_type":"container","survey:date":"2017-07-06"}},"type":"Feature"},
	{"geometry":{"coordinates":[11.729152,48.104467],"type":"Point"},"properties":{"osm_id":"3236419663","tag":{"addr:city":"Haar","addr:country":"DE","addr:street":"Ludwig-van-Beethoven-Stra\u00dfe","amenity":"recycling","mapillary":"LPmX4jaf6xDCmZ_8vEINoQ","recycling:clothes":"yes","recycling:glass":"no","recycling:glass_bottles":"yes","recycling:paper":"yes","recycling_type":"container","survey:date":"2019-08-09","underground":"yes"}},"type":"Feature"},
	{"geometry":{"coordinates":[11.735428,48.104376],"type":"Point"},"properties":{"osm_id":"3239548215","tag":{"addr:city":"Haar","addr:country":"DE","addr:street":"Forsthausstra\u00dfe","amenity":"recycling","recycling:cans":"yes","recycling:paper":"yes","recycling_type":"container","underground":"yes"}},"type":"Feature"},
	{"geometry":{"coordinates":[11.717964,48.105031],"type":"Point"},"properties":{"osm_id":"3244947491","tag":{"addr:city":"Haar","addr:country":"DE","addr:street":"Dianastra\u00dfe","amenity":"recycling","recycling:clothes":"yes","recycling:paper":"yes","recycling_type":"container","wheelchair":"limited"}},"type":"Feature"},
	{"geometry":{"coordinates":[11.729795,48.106784],"type":"Point"},"properties":{"osm_id":"3259855300","tag":{"addr:city":"Haar","addr:country":"DE","addr:street":"Franz-Schubert-Stra\u00dfe","amenity":"recycling","recycling:glass":"yes","recycling:paper":"yes","recycling_type":"container"}},"type":"Feature"},
	{"geometry":{"coordinates":[11.697465,48.060083],"type":"Point"},"properties":{"osm_id":"3387868071","tag":{"amenity":"waste_basket"}},"type":"Feature"},
	{"geometry":{"coordinates":[11.724709,48.100327],"type":"Point"},"properties":{"osm_id":"3709531223","tag":{"amenity":"waste_basket"}},"type":"Feature"},
	{"geometry":{"coordinates":[11.725256,48.101445],"type":"Point"},"properties":{"osm_id":"3709531224","tag":{"amenity":"waste_basket"}},"type":"Feature"},
	{"geometry":{"coordinates":[11.760608,48.063626],"type":"Point"},"properties":{"osm_id":"3729625570","tag":{"amenity":"waste_basket"}},"type":"Feature"},
	{"geometry":{"coordinates":[11.714734,48.073987],"type":"Point"},"properties":{"osm_id":"3973985741","tag":{"amenity":"waste_basket"}},"type":"Feature"},
	{"geometry":{"coordinates":[11.714696,48.07415],"type":"Point"},"properties":{"osm_id":"3973985756","tag":{"amenity":"waste_basket"}},"type":"Feature"},
	{"geometry":{"coordinates":[11.728599,48.104713],"type":"Point"},"properties":{"osm_id":"4275724316","tag":{"amenity":"recycling","recycling:clothes":"yes","recycling_type":"container"}},"type":"Feature"},
	{"geometry":{"coordinates":[11.727998,48.105344],"type":"Point"},"properties":{"osm_id":"4275724321","tag":{"amenity":"recycling","recycling:clothes":"yes","recycling_type":"container"}},"type":"Feature"},
	{"geometry":{"coordinates":[11.742556,48.079229],"type":"Point"},"properties":{"osm_id":"4782967724","tag":{"amenity":"waste_basket"}},"type":"Feature"},
	{"geometry":{"coordinates":[11.724927,48.071091],"type":"Point"},"properties":{"osm_id":"5878465666","tag":{"amenity":"waste_basket"}},"type":"Feature"},
	{"geometry":{"coordinates":[11.727156,48.103868],"type":"Point"},"properties":{"osm_id":"5911175401","tag":{"amenity":"waste_basket"}},"type":"Feature"},
	{"geometry":{"coordinates":[11.724388,48.104673],"type":"Point"},"properties":{"osm_id":"5911175402","tag":{"amenity":"waste_basket"}},"type":"Feature"},
	{"geometry":{"coordinates":[11.768827,48.059922],"type":"Point"},"properties":{"osm_id":"5940940338","tag":{"amenity":"waste_basket"}},"type":"Feature"},
	{"geometry":{"coordinates":[11.711671,48.104407],"type":"Point"},"properties":{"osm_id":"7123095189","tag":{"amenity":"recycling","recycling:clothes":"yes","recycling:glass":"yes","recycling:plastic":"yes","recycling_type":"container"}},"type":"Feature"},
	{"geometry":{"coordinates":[11.750497,48.075357],"type":"Point"},"properties":{"osm_id":"7579904754","tag":{"amenity":"waste_basket","colour":"green","material":"plastic"}},"type":"Feature"},
	{"geometry":{"coordinates":[11.751246,48.074163],"type":"Point"},"properties":{"osm_id":"7579923466","tag":{"amenity":"waste_basket","colour":"green","material":"plastic"}},"type":"Feature"},
	{"geometry":{"coordinates":[11.750865,48.074833],"type":"Point"},"properties":{"osm_id":"7579933117","tag":{"amenity":"waste_basket","colour":"green","material":"plastic"}},"type":"Feature"}
]
}
