{
"type": "FeatureCollection",
"features": [
	{"geometry":{"coordinates":[11.725445,47.861731],"type":"Point"},"properties":{"name":"VIVO Kommunalunternehmen f\u00c3\u00bcr Abfall-Vermeidung Information und Verwertung im Oberland","osm_id":"289698201","tag":{"amenity":"recycling","recycling_type":"centre"}},"type":"Feature"},
	{"geometry":{"coordinates":[11.707229,47.872089],"type":"Point"},"properties":{"osm_id":"3856579878","tag":{"amenity":"waste_basket"}},"type":"Feature"},
	{"geometry":{"coordinates":[11.703801,47.87032],"type":"Point"},"properties":{"osm_id":"3856579884","tag":{"amenity":"waste_basket"}},"type":"Feature"},
	{"geometry":{"coordinates":[11.723009,47.829492],"type":"Point"},"properties":{"osm_id":"6509498529","tag":{"amenity":"recycling","recycling:glass_bottles":"yes","recycling:plastic":"no","recycling:plastic_packaging":"yes","recycling_type":"container"}},"type":"Feature"},
	{"geometry":{"coordinates":[11.727931,47.831801],"type":"Point"},"properties":{"osm_id":"8491235361","tag":{"amenity":"waste_basket"}},"type":"Feature"},
	{"geometry":{"coordinates":[11.722168,47.8316],"type":"Point"},"properties":{"osm_id":"8611205092","tag":{"amenity":"waste_basket"}},"type":"Feature"},
	{"geometry":{"coordinates":[11.723017,47.830869],"type":"Point"},"properties":{"osm_id":"8611205517","tag":{"amenity":"waste_basket"}},"type":"Feature"}
]
}
