{
"type": "FeatureCollection",
"features": [
	{"geometry":{"coordinates":[11.695786,47.44067],"type":"Point"},"properties":{"osm_id":"825079286","tag":{"amenity":"waste_basket"}},"type":"Feature"},
	{"geometry":{"coordinates":[11.697259,47.437754],"type":"Point"},"properties":{"osm_id":"825509530","tag":{"amenity":"waste_basket"}},"type":"Feature"},
	{"geometry":{"coordinates":[11.696045,47.439946],"type":"Point"},"properties":{"osm_id":"861595293","tag":{"amenity":"waste_basket"}},"type":"Feature"},
	{"geometry":{"coordinates":[11.694869,47.440439],"type":"Point"},"properties":{"osm_id":"864682069","tag":{"amenity":"waste_basket"}},"type":"Feature"},
	{"geometry":{"coordinates":[11.73863,47.423633],"type":"Point"},"properties":{"name":"Recyclinghof Maurach","osm_id":"887965975","tag":{"amenity":"recycling","recycling_type":"centre"}},"type":"Feature"},
	{"geometry":{"coordinates":[11.703664,47.440558],"type":"Point"},"properties":{"osm_id":"1022241108","tag":{"amenity":"waste_basket"}},"type":"Feature"},
	{"geometry":{"coordinates":[11.703885,47.440191],"type":"Point"},"properties":{"osm_id":"1022241343","tag":{"amenity":"waste_basket"}},"type":"Feature"},
	{"geometry":{"coordinates":[11.703637,47.440348],"type":"Point"},"properties":{"osm_id":"1022241408","tag":{"amenity":"waste_basket"}},"type":"Feature"},
	{"geometry":{"coordinates":[11.703523,47.4413],"type":"Point"},"properties":{"osm_id":"1139501949","tag":{"amenity":"waste_basket"}},"type":"Feature"},
	{"geometry":{"coordinates":[11.703571,47.441532],"type":"Point"},"properties":{"osm_id":"1139502055","tag":{"amenity":"waste_basket"}},"type":"Feature"},
	{"geometry":{"coordinates":[11.70188,47.441572],"type":"Point"},"properties":{"osm_id":"1140911601","tag":{"amenity":"waste_basket"}},"type":"Feature"},
	{"geometry":{"coordinates":[11.70351,47.441226],"type":"Point"},"properties":{"osm_id":"1140986255","tag":{"amenity":"waste_basket"}},"type":"Feature"},
	{"geometry":{"coordinates":[11.763394,47.441406],"type":"Point"},"properties":{"osm_id":"1151709617","tag":{"amenity":"waste_basket"}},"type":"Feature"},
	{"geometry":{"coordinates":[11.763524,47.441353],"type":"Point"},"properties":{"osm_id":"1151709643","tag":{"amenity":"waste_basket","check_date":"2021-08-02"}},"type":"Feature"},
	{"geometry":{"coordinates":[11.750095,47.422852],"type":"Point"},"properties":{"osm_id":"1157713435","tag":{"amenity":"waste_basket"}},"type":"Feature"},
	{"geometry":{"coordinates":[11.747896,47.423082],"type":"Point"},"properties":{"osm_id":"1159329111","tag":{"amenity":"waste_basket"}},"type":"Feature"},
	{"geometry":{"coordinates":[11.747627,47.42347],"type":"Point"},"properties":{"osm_id":"1159329260","tag":{"amenity":"waste_basket"}},"type":"Feature"},
	{"geometry":{"coordinates":[11.748402,47.423126],"type":"Point"},"properties":{"osm_id":"1159329286","tag":{"amenity":"waste_basket"}},"type":"Feature"},
	{"geometry":{"coordinates":[11.748165,47.423419],"type":"Point"},"properties":{"osm_id":"1159329304","tag":{"amenity":"waste_basket"}},"type":"Feature"},
	{"geometry":{"coordinates":[11.747961,47.423176],"type":"Point"},"properties":{"osm_id":"1159329355","tag":{"amenity":"waste_basket"}},"type":"Feature"},
	{"geometry":{"coordinates":[11.748274,47.423727],"type":"Point"},"properties":{"osm_id":"1159329391","tag":{"amenity":"waste_basket"}},"type":"Feature"},
	{"geometry":{"coordinates":[11.747949,47.423564],"type":"Point"},"properties":{"osm_id":"1159329572","tag":{"amenity":"waste_basket"}},"type":"Feature"},
	{"geometry":{"coordinates":[11.775198,47.408895],"type":"Point"},"properties":{"osm_id":"1263412698","tag":{"amenity":"waste_basket"}},"type":"Feature"},
	{"geometry":{"coordinates":[11.70128,47.446072],"type":"Point"},"properties":{"osm_id":"9023371491","tag":{"amenity":"waste_basket"}},"type":"Feature"}
]
}
