{
"type": "FeatureCollection",
"features": [
	{"geometry":{"coordinates":[11.758159,46.508242],"type":"Point"},"properties":{"osm_id":"2415866855","tag":{"amenity":"recycling","recycling_type":"container"}},"type":"Feature"},
	{"geometry":{"coordinates":[11.728026,46.558218],"type":"Point"},"properties":{"osm_id":"2612833980","tag":{"amenity":"recycling","recycling:cans":"no","recycling:glass":"yes","recycling:green_waste":"yes","recycling:paper":"yes","recycling:waste":"yes","recycling_type":"container"}},"type":"Feature"},
	{"geometry":{"coordinates":[11.755517,46.555184],"type":"Point"},"properties":{"osm_id":"6464655026","tag":{"access":"residents","amenity":"recycling","recycling:glass":"yes","recycling:paper":"yes","recycling:waste":"yes","recycling_type":"container"}},"type":"Feature"},
	{"geometry":{"coordinates":[11.742659,46.555526],"type":"Point"},"properties":{"osm_id":"6490092442","tag":{"access":"residents","amenity":"recycling","recycling_type":"container"}},"type":"Feature"},
	{"geometry":{"coordinates":[11.760807,46.555343],"type":"Point"},"properties":{"osm_id":"6581843326","tag":{"amenity":"recycling","recycling_type":"container"}},"type":"Feature"},
	{"geometry":{"coordinates":[11.716688,46.55704],"type":"Point"},"properties":{"osm_id":"6648231245","tag":{"amenity":"waste_basket"}},"type":"Feature"},
	{"geometry":{"coordinates":[11.708037,46.543786],"type":"Point"},"properties":{"osm_id":"6653749073","tag":{"amenity":"waste_basket"}},"type":"Feature"},
	{"geometry":{"coordinates":[11.74847,46.528885],"type":"Point"},"properties":{"osm_id":"7047429841","tag":{"amenity":"waste_basket"}},"type":"Feature"},
	{"geometry":{"coordinates":[11.742511,46.555243],"type":"Point"},"properties":{"osm_id":"7052523736","tag":{"amenity":"waste_basket"}},"type":"Feature"},
	{"geometry":{"coordinates":[11.71642,46.551451],"type":"Point"},"properties":{"osm_id":"7684360661","tag":{"amenity":"waste_basket","waste":"trash"}},"type":"Feature"},
	{"geometry":{"coordinates":[11.712241,46.548106],"type":"Point"},"properties":{"osm_id":"7685324954","tag":{"amenity":"waste_basket"}},"type":"Feature"},
	{"geometry":{"coordinates":[11.710089,46.545384],"type":"Point"},"properties":{"osm_id":"7692722151","tag":{"amenity":"waste_basket"}},"type":"Feature"},
	{"geometry":{"coordinates":[11.72645,46.557472],"type":"Point"},"properties":{"osm_id":"7703143467","tag":{"amenity":"waste_basket"}},"type":"Feature"},
	{"geometry":{"coordinates":[11.731892,46.557943],"type":"Point"},"properties":{"osm_id":"7703688693","tag":{"amenity":"waste_basket"}},"type":"Feature"},
	{"geometry":{"coordinates":[11.729791,46.558296],"type":"Point"},"properties":{"osm_id":"7703688694","tag":{"amenity":"waste_basket"}},"type":"Feature"},
	{"geometry":{"coordinates":[11.725148,46.558592],"type":"Point"},"properties":{"osm_id":"7703688728","tag":{"amenity":"waste_basket"}},"type":"Feature"},
	{"geometry":{"coordinates":[11.743335,46.558162],"type":"Point"},"properties":{"osm_id":"7707514163","tag":{"amenity":"waste_basket"}},"type":"Feature"},
	{"geometry":{"coordinates":[11.703359,46.533921],"type":"Point"},"properties":{"osm_id":"7734606724","tag":{"amenity":"waste_basket"}},"type":"Feature"},
	{"geometry":{"coordinates":[11.702408,46.539435],"type":"Point"},"properties":{"osm_id":"7734606725","tag":{"amenity":"waste_basket"}},"type":"Feature"},
	{"geometry":{"coordinates":[11.758207,46.554153],"type":"Point"},"properties":{"osm_id":"7752628240","tag":{"amenity":"waste_basket"}},"type":"Feature"},
	{"geometry":{"coordinates":[11.75324,46.555697],"type":"Point"},"properties":{"osm_id":"7756838093","tag":{"amenity":"waste_basket"}},"type":"Feature"},
	{"geometry":{"coordinates":[11.757873,46.557867],"type":"Point"},"properties":{"osm_id":"7756967658","tag":{"amenity":"waste_basket"}},"type":"Feature"},
	{"geometry":{"coordinates":[11.756225,46.555865],"type":"Point"},"properties":{"osm_id":"7756985287","tag":{"amenity":"waste_basket"}},"type":"Feature"},
	{"geometry":{"coordinates":[11.757281,46.554992],"type":"Point"},"properties":{"osm_id":"7756985295","tag":{"amenity":"waste_basket"}},"type":"Feature"}
]
}
