{
"type": "FeatureCollection",
"features": [
	{"geometry":{"coordinates":[11.692678,45.320161],"type":"Point"},"properties":{"osm_id":"1397159132","tag":{"amenity":"waste_basket"}},"type":"Feature"},
	{"geometry":{"coordinates":[11.699,45.306608],"type":"Point"},"properties":{"osm_id":"1398493840","tag":{"amenity":"waste_basket"}},"type":"Feature"},
	{"geometry":{"coordinates":[11.698909,45.306704],"type":"Point"},"properties":{"osm_id":"1398493841","tag":{"amenity":"waste_basket"}},"type":"Feature"},
	{"geometry":{"coordinates":[11.698946,45.306726],"type":"Point"},"properties":{"osm_id":"1398493850","tag":{"amenity":"waste_basket"}},"type":"Feature"},
	{"geometry":{"coordinates":[11.740743,45.277519],"type":"Point"},"properties":{"osm_id":"1402564884","tag":{"amenity":"waste_basket"}},"type":"Feature"},
	{"geometry":{"coordinates":[11.702922,45.28693],"type":"Point"},"properties":{"osm_id":"1436401322","tag":{"amenity":"waste_basket"}},"type":"Feature"},
	{"geometry":{"coordinates":[11.728796,45.291561],"type":"Point"},"properties":{"osm_id":"1436547920","tag":{"amenity":"waste_basket"}},"type":"Feature"},
	{"geometry":{"coordinates":[11.728927,45.291563],"type":"Point"},"properties":{"osm_id":"1436547921","tag":{"amenity":"waste_basket"}},"type":"Feature"},
	{"geometry":{"coordinates":[11.773675,45.326027],"type":"Point"},"properties":{"osm_id":"1468293804","tag":{"amenity":"waste_basket"}},"type":"Feature"},
	{"geometry":{"coordinates":[11.77369,45.326198],"type":"Point"},"properties":{"osm_id":"1468293805","tag":{"amenity":"waste_basket"}},"type":"Feature"},
	{"geometry":{"coordinates":[11.773461,45.326256],"type":"Point"},"properties":{"osm_id":"1468293818","tag":{"amenity":"waste_basket"}},"type":"Feature"},
	{"geometry":{"coordinates":[11.772888,45.326835],"type":"Point"},"properties":{"osm_id":"1508652249","tag":{"amenity":"waste_basket"}},"type":"Feature"},
	{"geometry":{"coordinates":[11.773113,45.32695],"type":"Point"},"properties":{"osm_id":"1508652263","tag":{"amenity":"waste_basket"}},"type":"Feature"},
	{"geometry":{"coordinates":[11.771963,45.327406],"type":"Point"},"properties":{"osm_id":"1508652372","tag":{"amenity":"waste_basket"}},"type":"Feature"},
	{"geometry":{"coordinates":[11.771426,45.327512],"type":"Point"},"properties":{"osm_id":"1508652399","tag":{"amenity":"waste_basket"}},"type":"Feature"},
	{"geometry":{"coordinates":[11.770223,45.328174],"type":"Point"},"properties":{"osm_id":"1508688197","tag":{"amenity":"waste_basket"}},"type":"Feature"},
	{"geometry":{"coordinates":[11.770286,45.328217],"type":"Point"},"properties":{"osm_id":"1508688211","tag":{"amenity":"waste_basket"}},"type":"Feature"},
	{"geometry":{"coordinates":[11.770164,45.32841],"type":"Point"},"properties":{"osm_id":"1508688233","tag":{"amenity":"waste_basket"}},"type":"Feature"},
	{"geometry":{"coordinates":[11.771059,45.328709],"type":"Point"},"properties":{"osm_id":"1508688240","tag":{"amenity":"waste_basket"}},"type":"Feature"},
	{"geometry":{"coordinates":[11.771032,45.32894],"type":"Point"},"properties":{"osm_id":"1508688288","tag":{"amenity":"waste_basket"}},"type":"Feature"},
	{"geometry":{"coordinates":[11.769346,45.327222],"type":"Point"},"properties":{"osm_id":"1508696366","tag":{"amenity":"waste_basket"}},"type":"Feature"},
	{"geometry":{"coordinates":[11.768976,45.328577],"type":"Point"},"properties":{"osm_id":"1508696658","tag":{"amenity":"waste_basket"}},"type":"Feature"},
	{"geometry":{"coordinates":[11.71257,45.329435],"type":"Point"},"properties":{"osm_id":"1519406697","tag":{"amenity":"waste_basket"}},"type":"Feature"},
	{"geometry":{"coordinates":[11.713263,45.329708],"type":"Point"},"properties":{"osm_id":"1519406703","tag":{"amenity":"waste_basket"}},"type":"Feature"},
	{"geometry":{"coordinates":[11.713795,45.33021],"type":"Point"},"properties":{"osm_id":"1519406709","tag":{"amenity":"waste_basket"}},"type":"Feature"},
	{"geometry":{"coordinates":[11.76748,45.284171],"type":"Point"},"properties":{"osm_id":"1538385977","tag":{"amenity":"waste_basket"}},"type":"Feature"},
	{"geometry":{"coordinates":[11.775327,45.286454],"type":"Point"},"properties":{"barrier":"gate","osm_id":"3786641474","tag":{"access":"customers","access_point":"custumers"}},"type":"Feature"},
	{"geometry":{"coordinates":[11.775434,45.286636],"type":"Point"},"properties":{"barrier":"gate","osm_id":"3786641534","tag":{"access":"customers","access_point":"custumers"}},"type":"Feature"},
	{"geometry":{"coordinates":[11.775544,45.286484],"type":"Point"},"properties":{"name":"Ecocentro","osm_id":"4072137834","tag":{"amenity":"recycling","recycling_type":"container"}},"type":"Feature"}
]
}
