{
"type": "FeatureCollection",
"features": [
	{"geometry":{"coordinates":[11.735288,44.274788],"type":"Point"},"properties":{"name":"Isola Ecologica","osm_id":"2093620297","tag":{"amenity":"recycling"}},"type":"Feature"},
	{"geometry":{"coordinates":[11.772892,44.218726],"type":"Point"},"properties":{"barrier":"gate","osm_id":"2413511378"},"type":"Feature"},
	{"geometry":{"coordinates":[11.769594,44.221179],"type":"Point"},"properties":{"osm_id":"2431150236","tag":{"amenity":"waste_basket"}},"type":"Feature"},
	{"geometry":{"coordinates":[11.76975,44.221273],"type":"Point"},"properties":{"osm_id":"2431150240","tag":{"amenity":"waste_basket"}},"type":"Feature"},
	{"geometry":{"coordinates":[11.76946,44.221334],"type":"Point"},"properties":{"osm_id":"2431150241","tag":{"amenity":"waste_basket"}},"type":"Feature"},
	{"geometry":{"coordinates":[11.769497,44.221369],"type":"Point"},"properties":{"osm_id":"2431150244","tag":{"amenity":"waste_basket"}},"type":"Feature"},
	{"geometry":{"coordinates":[11.770225,44.221498],"type":"Point"},"properties":{"osm_id":"2431150246","tag":{"amenity":"waste_basket"}},"type":"Feature"},
	{"geometry":{"coordinates":[11.770061,44.221547],"type":"Point"},"properties":{"osm_id":"2431150247","tag":{"amenity":"waste_basket"}},"type":"Feature"},
	{"geometry":{"coordinates":[11.770506,44.221575],"type":"Point"},"properties":{"osm_id":"2431150248","tag":{"amenity":"waste_basket"}},"type":"Feature"},
	{"geometry":{"coordinates":[11.770706,44.221693],"type":"Point"},"properties":{"osm_id":"2431150250","tag":{"amenity":"waste_basket"}},"type":"Feature"},
	{"geometry":{"coordinates":[11.77179,44.223614],"type":"Point"},"properties":{"osm_id":"2431515049","tag":{"amenity":"waste_basket"}},"type":"Feature"},
	{"geometry":{"coordinates":[11.771789,44.222788],"type":"Point"},"properties":{"osm_id":"2431515995","tag":{"amenity":"waste_basket"}},"type":"Feature"},
	{"geometry":{"coordinates":[11.771732,44.223139],"type":"Point"},"properties":{"osm_id":"2431515996","tag":{"amenity":"waste_basket"}},"type":"Feature"},
	{"geometry":{"coordinates":[11.769968,44.221451],"type":"Point"},"properties":{"osm_id":"2431517284","tag":{"amenity":"waste_basket"}},"type":"Feature"},
	{"geometry":{"coordinates":[11.770787,44.221934],"type":"Point"},"properties":{"osm_id":"2431517285","tag":{"amenity":"waste_basket"}},"type":"Feature"},
	{"geometry":{"coordinates":[11.739315,44.226353],"type":"Point"},"properties":{"osm_id":"5809570002","tag":{"amenity":"waste_basket"}},"type":"Feature"},
	{"geometry":{"coordinates":[11.742808,44.226792],"type":"Point"},"properties":{"osm_id":"6050789099","tag":{"amenity":"waste_basket"}},"type":"Feature"},
	{"geometry":{"coordinates":[11.739397,44.224046],"type":"Point"},"properties":{"osm_id":"6050789132","tag":{"amenity":"waste_basket"}},"type":"Feature"},
	{"geometry":{"coordinates":[11.756995,44.227141],"type":"Point"},"properties":{"osm_id":"6447536851","tag":{"amenity":"waste_basket"}},"type":"Feature"},
	{"geometry":{"coordinates":[11.756288,44.22675],"type":"Point"},"properties":{"osm_id":"6448282424","tag":{"amenity":"waste_disposal","operator":"Gruppo HERA"}},"type":"Feature"},
	{"geometry":{"coordinates":[11.756253,44.226753],"type":"Point"},"properties":{"osm_id":"6448282425","tag":{"amenity":"waste_disposal","operator":"Gruppo HERA"}},"type":"Feature"},
	{"geometry":{"coordinates":[11.740832,44.226945],"type":"Point"},"properties":{"osm_id":"6596255085","tag":{"amenity":"waste_basket","material":"wood"}},"type":"Feature"},
	{"geometry":{"coordinates":[11.738202,44.226482],"type":"Point"},"properties":{"osm_id":"6596255089","tag":{"amenity":"waste_basket","material":"wood"}},"type":"Feature"},
	{"geometry":{"coordinates":[11.737731,44.225317],"type":"Point"},"properties":{"osm_id":"6596255094","tag":{"amenity":"waste_basket","material":"wood"}},"type":"Feature"},
	{"geometry":{"coordinates":[11.766273,44.225209],"type":"Point"},"properties":{"osm_id":"6611390278","tag":{"amenity":"waste_basket"}},"type":"Feature"},
	{"geometry":{"coordinates":[11.709414,44.233812],"type":"Point"},"properties":{"osm_id":"6813941140","tag":{"amenity":"waste_basket"}},"type":"Feature"}
]
}
