{
"type": "FeatureCollection",
"features": [
	{"geometry":{"coordinates":[21.554209,48.302432],"type":"Point"},"properties":{"name":"Szelekt\u00c3\u00adv hullad\u00c3\u00a9kgy\u00c3\u00bcjt\u00c5\u0091","osm_id":"2393640646","tag":{"amenity":"recycling"}},"type":"Feature"},
	{"geometry":{"coordinates":[21.561246,48.3126],"type":"Point"},"properties":{"name":"szelekt\u00c3\u00adv hullad\u00c3\u00a9kgy\u00c5\u00b1jt\u00c5\u0091","osm_id":"2393674385","tag":{"amenity":"recycling","recycling_type":"container"}},"type":"Feature"},
	{"geometry":{"coordinates":[21.565307,48.314756],"type":"Point"},"properties":{"name":"Szelekt\u00c3\u00adv hullad\u00c3\u00a9kgy\u00c3\u00bcjt\u00c5\u0091","osm_id":"2393829807","tag":{"amenity":"recycling","recycling:cans":"yes","recycling:clothes":"no","recycling:glass":"yes","recycling:paper":"yes"}},"type":"Feature"},
	{"geometry":{"coordinates":[21.557828,48.313185],"type":"Point"},"properties":{"osm_id":"2394212896","tag":{"amenity":"recycling","recycling_type":"container"}},"type":"Feature"},
	{"geometry":{"coordinates":[21.563232,48.323323],"type":"Point"},"properties":{"osm_id":"2394992254","tag":{"amenity":"recycling","recycling:cans":"yes","recycling:clothes":"no","recycling:glass_bottles":"yes","recycling:paper":"yes","recycling_type":"container"}},"type":"Feature"},
	{"geometry":{"coordinates":[21.565919,48.319954],"type":"Point"},"properties":{"osm_id":"2395193424","tag":{"amenity":"recycling","recycling:clothes":"yes","recycling:glass_bottles":"yes","recycling:paper":"yes","recycling_type":"container"}},"type":"Feature"},
	{"geometry":{"coordinates":[21.58234,48.331785],"type":"Point"},"properties":{"osm_id":"2396548565","tag":{"amenity":"recycling","recycling:glass_bottles":"yes","recycling_type":"container"}},"type":"Feature"},
	{"geometry":{"coordinates":[21.573635,48.328991],"type":"Point"},"properties":{"osm_id":"2397069735","tag":{"amenity":"recycling","recycling:glass_bottles":"yes","recycling_type":"container"}},"type":"Feature"},
	{"geometry":{"coordinates":[21.576519,48.316438],"type":"Point"},"properties":{"osm_id":"3392636239","tag":{"amenity":"recycling","recycling:glass":"yes","recycling:paper":"yes"}},"type":"Feature"},
	{"geometry":{"coordinates":[21.558613,48.313212],"type":"Point"},"properties":{"osm_id":"3740176268","tag":{"amenity":"recycling","recycling:cans":"no"}},"type":"Feature"},
	{"geometry":{"coordinates":[21.566588,48.320181],"type":"Point"},"properties":{"osm_id":"4449194502","tag":{"amenity":"recycling","recycling:glass_bottles":"yes","recycling_type":"container"}},"type":"Feature"},
	{"geometry":{"coordinates":[21.567027,48.320992],"type":"Point"},"properties":{"osm_id":"4449194504","tag":{"amenity":"recycling"}},"type":"Feature"},
	{"geometry":{"coordinates":[21.567746,48.318496],"type":"Point"},"properties":{"osm_id":"4449194505","tag":{"amenity":"recycling"}},"type":"Feature"},
	{"geometry":{"coordinates":[21.57993,48.328865],"type":"Point"},"properties":{"osm_id":"5827069415","tag":{"amenity":"recycling","recycling:glass_bottles":"yes","recycling_type":"container"}},"type":"Feature"},
	{"geometry":{"coordinates":[21.572264,48.322643],"type":"Point"},"properties":{"osm_id":"5846364885","tag":{"amenity":"waste_basket"}},"type":"Feature"},
	{"geometry":{"coordinates":[21.572014,48.322806],"type":"Point"},"properties":{"osm_id":"5846364888","tag":{"amenity":"waste_basket"}},"type":"Feature"},
	{"geometry":{"coordinates":[21.571843,48.322888],"type":"Point"},"properties":{"osm_id":"5846364891","tag":{"amenity":"waste_basket"}},"type":"Feature"},
	{"geometry":{"coordinates":[21.571897,48.32239],"type":"Point"},"properties":{"osm_id":"5846364906","tag":{"amenity":"waste_basket"}},"type":"Feature"},
	{"geometry":{"coordinates":[21.566183,48.315213],"type":"Point"},"properties":{"osm_id":"6010982099","tag":{"amenity":"waste_basket"}},"type":"Feature"},
	{"geometry":{"coordinates":[21.569268,48.3159],"type":"Point"},"properties":{"osm_id":"6010982125","tag":{"amenity":"waste_basket"}},"type":"Feature"},
	{"geometry":{"coordinates":[21.567912,48.318288],"type":"Point"},"properties":{"osm_id":"6010982137","tag":{"amenity":"waste_basket"}},"type":"Feature"},
	{"geometry":{"coordinates":[21.568653,48.318008],"type":"Point"},"properties":{"osm_id":"6010982140","tag":{"amenity":"waste_basket"}},"type":"Feature"},
	{"geometry":{"coordinates":[21.568895,48.318579],"type":"Point"},"properties":{"osm_id":"6010982145","tag":{"amenity":"waste_basket"}},"type":"Feature"},
	{"geometry":{"coordinates":[21.568097,48.320775],"type":"Point"},"properties":{"osm_id":"6010982151","tag":{"amenity":"waste_basket"}},"type":"Feature"},
	{"geometry":{"coordinates":[21.566521,48.32182],"type":"Point"},"properties":{"osm_id":"6010982158","tag":{"amenity":"waste_basket"}},"type":"Feature"},
	{"geometry":{"coordinates":[21.56684,48.321858],"type":"Point"},"properties":{"osm_id":"6010982159","tag":{"amenity":"waste_basket"}},"type":"Feature"},
	{"geometry":{"coordinates":[21.566264,48.321272],"type":"Point"},"properties":{"osm_id":"6010982165","tag":{"amenity":"waste_basket"}},"type":"Feature"},
	{"geometry":{"coordinates":[21.566488,48.321513],"type":"Point"},"properties":{"osm_id":"6010982168","tag":{"amenity":"waste_basket"}},"type":"Feature"},
	{"geometry":{"coordinates":[21.62005,48.314397],"type":"Point"},"properties":{"osm_id":"6011052944","tag":{"amenity":"recycling","recycling_type":"container"}},"type":"Feature"},
	{"geometry":{"coordinates":[21.564267,48.313559],"type":"Point"},"properties":{"osm_id":"6012039498","tag":{"amenity":"waste_disposal"}},"type":"Feature"}
]
}
