{
"type": "FeatureCollection",
"lastupdate": "2020-08-02T00:00:00Z",
"features": [
	{"geometry":{"coordinates":[21.539645,47.222863],"type":"Point"},"properties":{"osm_id":"2946063865","tag":{"amenity":"waste_basket"}},"type":"Feature"},
	{"geometry":{"coordinates":[21.616609,47.233551],"type":"Point"},"properties":{"osm_id":"3330382106","tag":{"amenity":"recycling","url":"http://turistautak.hu/poi.php?id=82774"}},"type":"Feature"},
	{"geometry":{"coordinates":[21.539693,47.219959],"type":"Point"},"properties":{"osm_id":"3432035036","tag":{"addr:street":"K\u00e1d\u00e1r u: N\u00e9pliget utcai torkolat","amenity":"recycling","description":"Tov\u00e1bbi r\u00e9szletek a beretty\u00f3\u00fajfalui szelekt\u00edv szigetekr\u0151l itt: http://www.freeweb.hu/btbe/hirek/index.php?/archives/58-Szelektiv-hulladekgyujtes-Berettyoujfaluban.html www.biharite.hu","url":"http://turistautak.hu/poi.php?id=52536"}},"type":"Feature"},
	{"geometry":{"coordinates":[21.549533,47.221483],"type":"Point"},"properties":{"osm_id":"3432035048","tag":{"addr:street":"Jegyz\u0151kert u., Fazekas utca torkolat","amenity":"recycling","description":"Tov\u00e1bbi r\u00e9szletek a beretty\u00f3\u00fajfalui szelekt\u00edv szigetekr\u0151l itt: http://www.freeweb.hu/btbe/hirek/index.php?/archives/58-Szelektiv-hulladekgyujtes-Berettyoujfaluban.html www.biharite.hu","url":"http://turistautak.hu/poi.php?id=52538"}},"type":"Feature"},
	{"geometry":{"coordinates":[21.53865,47.223783],"type":"Point"},"properties":{"osm_id":"3432035055","tag":{"addr:street":"Bajcsy-Zs. u. - M\u0171v.K\u00f6zp. parkol\u00f3","amenity":"recycling","description":"Tov\u00e1bbi r\u00e9szletek a beretty\u00f3\u00fajfalui szelekt\u00edv szigetekr\u0151l itt: http://www.freeweb.hu/btbe/hirek/index.php?/archives/58-Szelektiv-hulladekgyujtes-Berettyoujfaluban.html www.biharite.hu","url":"http://turistautak.hu/poi.php?id=52532"}},"type":"Feature"},
	{"geometry":{"coordinates":[21.537133,47.224267],"type":"Point"},"properties":{"osm_id":"3432035059","tag":{"addr:street":"Ol\u00e1h Zs. utca, \"gomb\u00e1k\" \u00e9s Beriv k\u00f6z\u00f6tt","amenity":"recycling","description":"Tov\u00e1bbi r\u00e9szletek a beretty\u00f3\u00fajfalui szelekt\u00edv szigetekr\u0151l itt: http://www.freeweb.hu/btbe/hirek/index.php?/archives/58-Szelektiv-hulladekgyujtes-Berettyoujfaluban.html www.biharite.hu","url":"http://turistautak.hu/poi.php?id=52531"}},"type":"Feature"},
	{"geometry":{"coordinates":[21.534733,47.22455],"type":"Point"},"properties":{"osm_id":"3432035061","tag":{"addr:street":"Lehel u., Bessenyei ltp. sark\u00e1n","amenity":"recycling","description":"Tov\u00e1bbi r\u00e9szletek a beretty\u00f3\u00fajfalui szelekt\u00edv szigetekr\u0151l itt: http://www.freeweb.hu/btbe/hirek/index.php?/archives/58-Szelektiv-hulladekgyujtes-Berettyoujfaluban.html www.biharite.hu","url":"http://turistautak.hu/poi.php?id=52530"}},"type":"Feature"},
	{"geometry":{"coordinates":[21.540617,47.2254],"type":"Point"},"properties":{"osm_id":"3432035065","tag":{"addr:street":"Radn\u00f3ti utca eleje","amenity":"recycling","url":"http://turistautak.hu/poi.php?id=54553"}},"type":"Feature"},
	{"geometry":{"coordinates":[21.5428,47.226867],"type":"Point"},"properties":{"osm_id":"3432035074","tag":{"addr:street":"Lenkei u: Kerekes Gy. utcai torkolat","amenity":"recycling","description":"Tov\u00e1bbi r\u00e9szletek a beretty\u00f3\u00fajfalui szelekt\u00edv szigetekr\u0151l itt: http://www.freeweb.hu/btbe/hirek/index.php?/archives/58-Szelektiv-hulladekgyujtes-Berettyoujfaluban.html www.biharite.hu","url":"http://turistautak.hu/poi.php?id=52533"}},"type":"Feature"},
	{"geometry":{"coordinates":[21.533351,47.232618],"type":"Point"},"properties":{"osm_id":"3432035092","tag":{"addr:city":"Beretty\u00f3\u00fajfalu","addr:housenumber":"77","addr:postcode":"4100","addr:street":"Kossuth utca","amenity":"recycling","description":"Tov\u00e1bbi r\u00e9szletek a beretty\u00f3\u00fajfalui szelekt\u00edv szigetekr\u0151l itt: http://www.freeweb.hu/btbe/hirek/index.php?/archives/58-Szelektiv-hulladekgyujtes-Berettyoujfaluban.html www.biharite.hu","url":"http://turistautak.hu/poi.php?id=52525"}},"type":"Feature"},
	{"geometry":{"coordinates":[21.615752,47.238732],"type":"Point"},"properties":{"osm_id":"3445368380","tag":{"amenity":"recycling","source:date":"2012-08-01","url":"http://turistautak.hu/poi.php?id=125214"}},"type":"Feature"},
	{"geometry":{"coordinates":[21.543236,47.226033],"type":"Point"},"properties":{"osm_id":"6261217865","tag":{"amenity":"waste_basket"}},"type":"Feature"},
	{"geometry":{"coordinates":[21.543221,47.226065],"type":"Point"},"properties":{"osm_id":"6261217866","tag":{"amenity":"waste_basket"}},"type":"Feature"}
]
}
