{
"type": "FeatureCollection",
"features": [
	{"geometry":{"coordinates":[174.928491,-41.190113],"type":"Point"},"properties":{"osm_id":"315989610","tag":{"amenity":"recycling"}},"type":"Feature"},
	{"geometry":{"coordinates":[174.912223,-41.222793],"type":"Point"},"properties":{"osm_id":"6474859073","tag":{"amenity":"recycling","recycling_type":"container"}},"type":"Feature"},
	{"geometry":{"coordinates":[174.922199,-41.21427],"type":"Point"},"properties":{"osm_id":"6983701085","tag":{"amenity":"waste_basket"}},"type":"Feature"},
	{"geometry":{"coordinates":[174.922028,-41.214223],"type":"Point"},"properties":{"osm_id":"6983701185","tag":{"amenity":"waste_basket"}},"type":"Feature"},
	{"geometry":{"coordinates":[174.979576,-41.236578],"type":"Point"},"properties":{"name":"Rubbish Skip","osm_id":"7142781433","tag":{"access":"customers","amenity":"waste_disposal","waste":"trash"}},"type":"Feature"},
	{"geometry":{"coordinates":[174.907245,-41.238021],"type":"Point"},"properties":{"osm_id":"7842966574","tag":{"amenity":"recycling","opening_hours":"24/7","operator":"Waste Management","recycling:cardboard":"yes","recycling:glass":"yes","recycling:paper":"yes","recycling_type":"container"}},"type":"Feature"},
	{"geometry":{"coordinates":[174.96004,-41.179996],"type":"Point"},"properties":{"osm_id":"8778957816","tag":{"amenity":"waste_basket"}},"type":"Feature"},
	{"geometry":{"coordinates":[174.974915,-41.182306],"type":"Point"},"properties":{"osm_id":"8816460618","tag":{"amenity":"waste_basket"}},"type":"Feature"},
	{"geometry":{"coordinates":[174.92817,-41.190945],"type":"Point"},"properties":{"osm_id":"8878672662","tag":{"amenity":"waste_basket"}},"type":"Feature"},
	{"geometry":{"coordinates":[174.903669,-41.212531],"type":"Point"},"properties":{"osm_id":"9130782134","tag":{"amenity":"waste_basket"}},"type":"Feature"},
	{"geometry":{"coordinates":[174.903492,-41.212112],"type":"Point"},"properties":{"osm_id":"9130782210","tag":{"amenity":"waste_basket"}},"type":"Feature"},
	{"geometry":{"coordinates":[174.903066,-41.2116],"type":"Point"},"properties":{"osm_id":"9130822040","tag":{"amenity":"waste_basket"}},"type":"Feature"},
	{"geometry":{"coordinates":[174.903073,-41.211605],"type":"Point"},"properties":{"osm_id":"9130822041","tag":{"amenity":"waste_basket"}},"type":"Feature"}
]
}
