{
"type": "FeatureCollection",
"features": [
	{"geometry":{"coordinates":[-17.046225,32.802806],"type":"Point"},"properties":{"osm_id":"333154940","tag":{"amenity":"recycling","recycling:glass":"yes","recycling:paper":"yes","recycling_type":"container"}},"type":"Feature"},
	{"geometry":{"coordinates":[-16.978322,32.826214],"type":"Point"},"properties":{"name":"Eco Ponto da Lombadinha","osm_id":"4147588578","tag":{"amenity":"recycling","name:pt":"Eco Ponto da Lombadinha","operator":"C.M. S\u00c3\u00a3o Vicente"}},"type":"Feature"},
	{"geometry":{"coordinates":[-16.973766,32.82264],"type":"Point"},"properties":{"osm_id":"4410602537","tag":{"amenity":"waste_disposal"}},"type":"Feature"},
	{"geometry":{"coordinates":[-16.97709,32.827502],"type":"Point"},"properties":{"osm_id":"4410606249","tag":{"amenity":"waste_disposal"}},"type":"Feature"},
	{"geometry":{"coordinates":[-16.994497,32.823983],"type":"Point"},"properties":{"osm_id":"4410607490","tag":{"amenity":"waste_disposal"}},"type":"Feature"},
	{"geometry":{"coordinates":[-17.046886,32.804703],"type":"Point"},"properties":{"osm_id":"4466141422","tag":{"amenity":"waste_basket"}},"type":"Feature"},
	{"geometry":{"coordinates":[-17.046878,32.804731],"type":"Point"},"properties":{"osm_id":"4466141425","tag":{"amenity":"waste_basket"}},"type":"Feature"},
	{"geometry":{"coordinates":[-16.984366,32.823782],"type":"Point"},"properties":{"osm_id":"4917327222","tag":{"amenity":"waste_basket"}},"type":"Feature"},
	{"geometry":{"coordinates":[-17.045258,32.780065],"type":"Point"},"properties":{"osm_id":"6355466558","tag":{"amenity":"recycling","recycling_type":"container"}},"type":"Feature"},
	{"geometry":{"coordinates":[-17.04595,32.803605],"type":"Point"},"properties":{"osm_id":"6641317626","tag":{"amenity":"waste_basket","mapillary":"fZbzIgZ3lPkKPetbom4Bng"}},"type":"Feature"},
	{"geometry":{"coordinates":[-17.045772,32.803452],"type":"Point"},"properties":{"osm_id":"6641317628","tag":{"amenity":"waste_basket","mapillary":"TOWCme7vzpECDRCONxMmaQ"}},"type":"Feature"}
]
}
