{
"type": "FeatureCollection",
"features": [
	{"geometry":{"coordinates":[134.252646,35.447769],"type":"Point"},"properties":{"name":"\u00e3\u0081\u0094\u00e3\u0081\u00bf\u00e3\u0082\u00b9\u00e3\u0083\u0086\u00e3\u0083\u00bc\u00e3\u0082\u00b7\u00e3\u0083\u00a7\u00e3\u0083\u00b3","osm_id":"4445766511","tag":{"amenity":"waste_basket"}},"type":"Feature"},
	{"geometry":{"coordinates":[134.263219,35.451513],"type":"Point"},"properties":{"osm_id":"5255243137","tag":{"amenity":"waste_disposal"}},"type":"Feature"},
	{"geometry":{"coordinates":[134.263381,35.451581],"type":"Point"},"properties":{"osm_id":"5255243138","tag":{"amenity":"waste_disposal"}},"type":"Feature"},
	{"geometry":{"coordinates":[134.266669,35.450344],"type":"Point"},"properties":{"osm_id":"5269174145","tag":{"amenity":"waste_disposal"}},"type":"Feature"},
	{"geometry":{"coordinates":[134.266643,35.450433],"type":"Point"},"properties":{"osm_id":"5269174148","tag":{"amenity":"waste_disposal"}},"type":"Feature"},
	{"geometry":{"coordinates":[134.264593,35.448827],"type":"Point"},"properties":{"osm_id":"5269346543","tag":{"amenity":"waste_disposal"}},"type":"Feature"},
	{"geometry":{"coordinates":[134.265,35.449859],"type":"Point"},"properties":{"osm_id":"5296946711","tag":{"amenity":"waste_disposal"}},"type":"Feature"},
	{"geometry":{"coordinates":[134.264987,35.44994],"type":"Point"},"properties":{"osm_id":"5296946712","tag":{"amenity":"waste_disposal"}},"type":"Feature"},
	{"geometry":{"coordinates":[134.264614,35.450733],"type":"Point"},"properties":{"osm_id":"5296946719","tag":{"amenity":"waste_disposal"}},"type":"Feature"},
	{"geometry":{"coordinates":[134.264243,35.451578],"type":"Point"},"properties":{"osm_id":"5296954027","tag":{"amenity":"waste_disposal","collection_times":"\u00e5\u008d\u0088\u00e5\u0089\u008d8\u00e6\u0099\u0082\u00e3\u0081\u00be\u00e3\u0081\u00a7"}},"type":"Feature"},
	{"geometry":{"coordinates":[134.268482,35.452064],"type":"Point"},"properties":{"osm_id":"5328764627","tag":{"amenity":"waste_disposal"}},"type":"Feature"},
	{"geometry":{"coordinates":[134.26754,35.452104],"type":"Point"},"properties":{"osm_id":"5328800183","tag":{"amenity":"waste_disposal"}},"type":"Feature"},
	{"geometry":{"coordinates":[134.268148,35.450911],"type":"Point"},"properties":{"osm_id":"5328805044","tag":{"amenity":"waste_disposal"}},"type":"Feature"},
	{"geometry":{"coordinates":[134.266981,35.450527],"type":"Point"},"properties":{"osm_id":"5332384228","tag":{"amenity":"waste_disposal"}},"type":"Feature"},
	{"geometry":{"coordinates":[134.266476,35.451732],"type":"Point"},"properties":{"osm_id":"5332428970","tag":{"amenity":"waste_disposal"}},"type":"Feature"},
	{"geometry":{"coordinates":[134.265747,35.4533],"type":"Point"},"properties":{"osm_id":"5332429724","tag":{"amenity":"waste_disposal"}},"type":"Feature"},
	{"geometry":{"coordinates":[134.265429,35.45324],"type":"Point"},"properties":{"osm_id":"5332429725","tag":{"amenity":"waste_disposal"}},"type":"Feature"},
	{"geometry":{"coordinates":[134.26534,35.452309],"type":"Point"},"properties":{"osm_id":"5332429735","tag":{"amenity":"waste_disposal"}},"type":"Feature"},
	{"geometry":{"coordinates":[134.262873,35.451993],"type":"Point"},"properties":{"osm_id":"5332446775","tag":{"amenity":"waste_disposal"}},"type":"Feature"},
	{"geometry":{"coordinates":[134.262547,35.453164],"type":"Point"},"properties":{"osm_id":"5332446779","tag":{"amenity":"waste_disposal"}},"type":"Feature"},
	{"geometry":{"coordinates":[134.262977,35.452046],"type":"Point"},"properties":{"osm_id":"5332496445","tag":{"amenity":"waste_disposal"}},"type":"Feature"},
	{"geometry":{"coordinates":[134.263994,35.446719],"type":"Point"},"properties":{"osm_id":"5354467025","tag":{"amenity":"waste_disposal"}},"type":"Feature"},
	{"geometry":{"coordinates":[134.259529,35.442343],"type":"Point"},"properties":{"osm_id":"5365092783","tag":{"amenity":"waste_disposal"}},"type":"Feature"},
	{"geometry":{"coordinates":[134.258502,35.443858],"type":"Point"},"properties":{"osm_id":"5365092789","tag":{"amenity":"waste_disposal"}},"type":"Feature"},
	{"geometry":{"coordinates":[134.25932,35.444774],"type":"Point"},"properties":{"osm_id":"5365092799","tag":{"amenity":"waste_disposal"}},"type":"Feature"},
	{"geometry":{"coordinates":[134.260354,35.445198],"type":"Point"},"properties":{"osm_id":"5365092804","tag":{"amenity":"waste_disposal"}},"type":"Feature"},
	{"geometry":{"coordinates":[134.261004,35.443647],"type":"Point"},"properties":{"osm_id":"5365092819","tag":{"amenity":"waste_disposal"}},"type":"Feature"},
	{"geometry":{"coordinates":[134.260416,35.442995],"type":"Point"},"properties":{"osm_id":"5365093022","tag":{"amenity":"waste_disposal"}},"type":"Feature"},
	{"geometry":{"coordinates":[134.265447,35.447709],"type":"Point"},"properties":{"osm_id":"6120564290","tag":{"amenity":"waste_disposal"}},"type":"Feature"},
	{"geometry":{"coordinates":[134.265456,35.447633],"type":"Point"},"properties":{"osm_id":"6120564291","tag":{"amenity":"waste_disposal"}},"type":"Feature"},
	{"geometry":{"coordinates":[134.266479,35.445158],"type":"Point"},"properties":{"osm_id":"6121245585","tag":{"amenity":"waste_disposal"}},"type":"Feature"},
	{"geometry":{"coordinates":[134.266445,35.445435],"type":"Point"},"properties":{"osm_id":"6121245586","tag":{"amenity":"waste_disposal"}},"type":"Feature"},
	{"geometry":{"coordinates":[134.265844,35.445499],"type":"Point"},"properties":{"osm_id":"6121245587","tag":{"amenity":"waste_disposal"}},"type":"Feature"},
	{"geometry":{"coordinates":[134.26547,35.445961],"type":"Point"},"properties":{"osm_id":"6121245588","tag":{"amenity":"waste_disposal"}},"type":"Feature"},
	{"geometry":{"coordinates":[134.26504,35.446247],"type":"Point"},"properties":{"osm_id":"6121245589","tag":{"amenity":"waste_disposal"}},"type":"Feature"},
	{"geometry":{"coordinates":[134.26479,35.446108],"type":"Point"},"properties":{"osm_id":"6121245590","tag":{"amenity":"waste_disposal"}},"type":"Feature"},
	{"geometry":{"coordinates":[134.261436,35.446871],"type":"Point"},"properties":{"osm_id":"6134439591","tag":{"amenity":"waste_disposal"}},"type":"Feature"},
	{"geometry":{"coordinates":[134.263024,35.447258],"type":"Point"},"properties":{"osm_id":"6134439592","tag":{"amenity":"waste_disposal"}},"type":"Feature"}
]
}
