{
"type": "FeatureCollection",
"features": [
	{"geometry":{"coordinates":[-115.26222,36.280934],"type":"Point"},"properties":{"name":"BBBS","osm_id":"534812812","tag":{"amenity":"recycling"}},"type":"Feature"},
	{"geometry":{"coordinates":[-115.296352,36.275616],"type":"Point"},"properties":{"osm_id":"6762148586","tag":{"amenity":"waste_disposal"}},"type":"Feature"},
	{"geometry":{"coordinates":[-115.267322,36.314807],"type":"Point"},"properties":{"osm_id":"8474173329","tag":{"amenity":"waste_basket"}},"type":"Feature"},
	{"geometry":{"coordinates":[-115.266176,36.314531],"type":"Point"},"properties":{"osm_id":"8474173336","tag":{"amenity":"waste_basket"}},"type":"Feature"},
	{"geometry":{"coordinates":[-115.26624,36.314368],"type":"Point"},"properties":{"osm_id":"8474173337","tag":{"amenity":"waste_basket"}},"type":"Feature"},
	{"geometry":{"coordinates":[-115.266243,36.314257],"type":"Point"},"properties":{"osm_id":"8474173338","tag":{"amenity":"waste_basket"}},"type":"Feature"},
	{"geometry":{"coordinates":[-115.26859,36.312781],"type":"Point"},"properties":{"osm_id":"8474173364","tag":{"amenity":"waste_basket"}},"type":"Feature"},
	{"geometry":{"coordinates":[-115.269037,36.312126],"type":"Point"},"properties":{"osm_id":"8474173374","tag":{"amenity":"waste_basket"}},"type":"Feature"},
	{"geometry":{"coordinates":[-115.268934,36.310938],"type":"Point"},"properties":{"osm_id":"8474173377","tag":{"amenity":"waste_basket"}},"type":"Feature"},
	{"geometry":{"coordinates":[-115.267112,36.309935],"type":"Point"},"properties":{"osm_id":"8474173378","tag":{"amenity":"waste_basket"}},"type":"Feature"},
	{"geometry":{"coordinates":[-115.265908,36.310172],"type":"Point"},"properties":{"osm_id":"8474173379","tag":{"amenity":"waste_basket"}},"type":"Feature"},
	{"geometry":{"coordinates":[-115.26516,36.309767],"type":"Point"},"properties":{"osm_id":"8474173380","tag":{"amenity":"waste_basket"}},"type":"Feature"},
	{"geometry":{"coordinates":[-115.265267,36.311301],"type":"Point"},"properties":{"osm_id":"8474173381","tag":{"amenity":"waste_basket"}},"type":"Feature"},
	{"geometry":{"coordinates":[-115.265541,36.312091],"type":"Point"},"properties":{"osm_id":"8474173382","tag":{"amenity":"waste_basket"}},"type":"Feature"}
]
}
