{
"type": "FeatureCollection",
"features": [
	{"geometry":{"coordinates":[28.018338,45.429685],"type":"Point"},"properties":{"osm_id":"253463077","tag":{"amenity":"waste_disposal"}},"type":"Feature"},
	{"geometry":{"coordinates":[28.009339,45.414138],"type":"Point"},"properties":{"osm_id":"534633727","tag":{"amenity":"recycling","recycling:glass":"yes","recycling:metal":"yes","recycling:paper":"yes","recycling:plastic":"yes","recycling_type":"container"}},"type":"Feature"},
	{"geometry":{"coordinates":[28.008481,45.412948],"type":"Point"},"properties":{"osm_id":"534633728","tag":{"amenity":"recycling"}},"type":"Feature"},
	{"geometry":{"coordinates":[28.010686,45.413362],"type":"Point"},"properties":{"osm_id":"534634055","tag":{"amenity":"recycling"}},"type":"Feature"},
	{"geometry":{"coordinates":[28.011867,45.447096],"type":"Point"},"properties":{"osm_id":"576015144","tag":{"amenity":"waste_basket"}},"type":"Feature"},
	{"geometry":{"coordinates":[28.011867,45.447302],"type":"Point"},"properties":{"osm_id":"576015153","tag":{"amenity":"waste_basket"}},"type":"Feature"},
	{"geometry":{"coordinates":[28.01233,45.447102],"type":"Point"},"properties":{"osm_id":"576015160","tag":{"amenity":"waste_basket"}},"type":"Feature"},
	{"geometry":{"coordinates":[28.012297,45.447274],"type":"Point"},"properties":{"osm_id":"576015185","tag":{"amenity":"waste_basket"}},"type":"Feature"},
	{"geometry":{"coordinates":[28.012284,45.447666],"type":"Point"},"properties":{"osm_id":"576015198","tag":{"amenity":"waste_basket"}},"type":"Feature"},
	{"geometry":{"coordinates":[28.01253,45.447338],"type":"Point"},"properties":{"osm_id":"576015208","tag":{"amenity":"waste_basket"}},"type":"Feature"},
	{"geometry":{"coordinates":[28.012567,45.447689],"type":"Point"},"properties":{"osm_id":"576015239","tag":{"amenity":"waste_basket"}},"type":"Feature"},
	{"geometry":{"coordinates":[28.012741,45.447638],"type":"Point"},"properties":{"osm_id":"576015245","tag":{"amenity":"waste_basket"}},"type":"Feature"},
	{"geometry":{"coordinates":[28.012435,45.447744],"type":"Point"},"properties":{"osm_id":"576015282","tag":{"amenity":"waste_basket"}},"type":"Feature"},
	{"geometry":{"coordinates":[28.012724,45.447975],"type":"Point"},"properties":{"osm_id":"576015289","tag":{"amenity":"waste_basket"}},"type":"Feature"},
	{"geometry":{"coordinates":[28.013025,45.448175],"type":"Point"},"properties":{"osm_id":"576015303","tag":{"amenity":"waste_basket"}},"type":"Feature"},
	{"geometry":{"coordinates":[28.013181,45.448293],"type":"Point"},"properties":{"osm_id":"576015310","tag":{"amenity":"waste_basket"}},"type":"Feature"},
	{"geometry":{"coordinates":[28.013555,45.44852],"type":"Point"},"properties":{"osm_id":"576015323","tag":{"amenity":"waste_basket"}},"type":"Feature"},
	{"geometry":{"coordinates":[28.014006,45.448627],"type":"Point"},"properties":{"osm_id":"576015336","tag":{"amenity":"waste_basket"}},"type":"Feature"},
	{"geometry":{"coordinates":[28.026957,45.457726],"type":"Point"},"properties":{"osm_id":"1420854383","tag":{"amenity":"recycling","recycling:cans":"yes","recycling:cardboard":"yes","recycling:electrical_appliances":"yes","recycling:scrap_metal":"yes","recycling:small_appliances":"yes","recycling:waste":"yes","recycling_type":"centre"}},"type":"Feature"},
	{"geometry":{"coordinates":[28.021473,45.415003],"type":"Point"},"properties":{"osm_id":"1916915998","tag":{"amenity":"waste_basket"}},"type":"Feature"},
	{"geometry":{"coordinates":[28.023248,45.415847],"type":"Point"},"properties":{"osm_id":"1916917748","tag":{"amenity":"waste_basket"}},"type":"Feature"},
	{"geometry":{"coordinates":[28.031333,45.450003],"type":"Point"},"properties":{"osm_id":"4828421223","tag":{"amenity":"recycling"}},"type":"Feature"},
	{"geometry":{"coordinates":[28.024633,45.445891],"type":"Point"},"properties":{"osm_id":"5056007822","tag":{"amenity":"waste_basket"}},"type":"Feature"},
	{"geometry":{"coordinates":[28.02723,45.446363],"type":"Point"},"properties":{"osm_id":"5056007823","tag":{"amenity":"waste_basket"}},"type":"Feature"},
	{"geometry":{"coordinates":[28.027819,45.442246],"type":"Point"},"properties":{"osm_id":"5056024421","tag":{"amenity":"waste_basket"}},"type":"Feature"},
	{"geometry":{"coordinates":[28.015431,45.433512],"type":"Point"},"properties":{"osm_id":"5275600132","tag":{"amenity":"waste_disposal"}},"type":"Feature"},
	{"geometry":{"coordinates":[28.015945,45.435233],"type":"Point"},"properties":{"osm_id":"5275600133","tag":{"amenity":"waste_disposal"}},"type":"Feature"},
	{"geometry":{"coordinates":[28.015973,45.431572],"type":"Point"},"properties":{"osm_id":"5275606822","tag":{"amenity":"waste_disposal"}},"type":"Feature"},
	{"geometry":{"coordinates":[28.014864,45.431942],"type":"Point"},"properties":{"osm_id":"5275625821","tag":{"amenity":"waste_disposal"}},"type":"Feature"},
	{"geometry":{"coordinates":[28.017676,45.423773],"type":"Point"},"properties":{"osm_id":"6882472289","tag":{"amenity":"waste_disposal","survey:date":"2019-10-15"}},"type":"Feature"},
	{"geometry":{"coordinates":[28.01783,45.423739],"type":"Point"},"properties":{"osm_id":"6882508286","tag":{"amenity":"recycling","recycling:paper":"yes","recycling:plastic":"yes","recycling_type":"container","survey:date":"2019-10-15"}},"type":"Feature"},
	{"geometry":{"coordinates":[28.036605,45.428706],"type":"Point"},"properties":{"osm_id":"6886020587","tag":{"amenity":"waste_basket","survey:date":"2019-10-16"}},"type":"Feature"},
	{"geometry":{"coordinates":[28.034992,45.428539],"type":"Point"},"properties":{"osm_id":"6886020591","tag":{"amenity":"waste_basket","survey:date":"2019-10-16"}},"type":"Feature"},
	{"geometry":{"coordinates":[28.034414,45.428493],"type":"Point"},"properties":{"osm_id":"6886034986","tag":{"amenity":"waste_basket","survey:date":"2019-10-16"}},"type":"Feature"},
	{"geometry":{"coordinates":[28.020088,45.427097],"type":"Point"},"properties":{"osm_id":"6961659885","tag":{"amenity":"waste_basket","survey:date":"2019-11-10"}},"type":"Feature"}
]
}
