{
"type": "FeatureCollection",
"features": [
	{"geometry":{"coordinates":[27.95776,45.291652],"type":"Point"},"properties":{"name":"RoRec - Centru de colectare DEEE","osm_id":"2640721128","tag":{"addr:city":"Br\u00c4\u0083ila","addr:housenumber":"41","addr:postcode":"810098","addr:street":"Strada Cimbrului","amenity":"recycling","description":"Colectare gratuita de deseuri electrice de la populatie si de la firme, in vederea casarii.","opening_hours":"Tu 10:00-15:00;Th 14:00-18:00;Sa 09:00-14:00","phone":"+40 756 040 904","recycling:cans":"no","recycling:clothes":"no","recycling:electrical_items":"yes","recycling:glass":"no","recycling:paper":"no","website":"http://www.rorec.ro"}},"type":"Feature"},
	{"geometry":{"coordinates":[27.984046,45.313594],"type":"Point"},"properties":{"name":"statie de epurare ape uzate","osm_id":"4313519190","tag":{"amenity":"recycling","operator":"apa canal Br\u00c4\u0083ila"}},"type":"Feature"},
	{"geometry":{"coordinates":[27.97229,45.280373],"type":"Point"},"properties":{"osm_id":"9054231317","tag":{"amenity":"waste_disposal"}},"type":"Feature"}
]
}
