{
"type": "FeatureCollection",
"features": [
	{"geometry":{"coordinates":[28.004515,41.352447],"type":"Point"},"properties":{"osm_id":"4916676078","tag":{"amenity":"waste_basket"}},"type":"Feature"},
	{"geometry":{"coordinates":[27.973829,41.330315],"type":"Point"},"properties":{"osm_id":"5745003292","tag":{"amenity":"waste_basket"}},"type":"Feature"},
	{"geometry":{"coordinates":[27.964522,41.341922],"type":"Point"},"properties":{"name":"K\u00c4\u00b1z\u00c4\u00b1lbo\u00c4\u009falar Geri D\u00c3\u00b6n\u00c3\u00bc\u00c5\u009f\u00c3\u00bcm Hurdac\u00c4\u00b1l\u00c4\u00b1k","osm_id":"5964495098","tag":{"addr:street":"Kapakl\u00c4\u00b1 Saray Yolu","amenity":"recycling","phone":"+905369476424"}},"type":"Feature"},
	{"geometry":{"coordinates":[28.005622,41.353107],"type":"Point"},"properties":{"osm_id":"6001915108","tag":{"amenity":"recycling","operator":"Kapakl\u00c4\u00b1 Belediyesi","recycling:glass":"yes","recycling:glass_bottles":"yes","recycling_type":"container"}},"type":"Feature"},
	{"geometry":{"coordinates":[28.006312,41.352654],"type":"Point"},"properties":{"osm_id":"6001915109","tag":{"amenity":"recycling","operator":"Kapakl\u00c4\u00b1 Belediyesi","recycling:glass":"yes","recycling:glass_bottles":"yes","recycling_type":"container"}},"type":"Feature"},
	{"geometry":{"coordinates":[28.005636,41.351444],"type":"Point"},"properties":{"osm_id":"6001915110","tag":{"amenity":"recycling","operator":"Kapakl\u00c4\u00b1 Belediyesi","recycling:glass":"yes","recycling:glass_bottles":"yes","recycling_type":"container"}},"type":"Feature"},
	{"geometry":{"coordinates":[28.002756,41.351576],"type":"Point"},"properties":{"osm_id":"6001915111","tag":{"amenity":"recycling","operator":"Kapakl\u00c4\u00b1 Belediyesi","recycling:glass":"yes","recycling:glass_bottles":"yes","recycling_type":"container"}},"type":"Feature"},
	{"geometry":{"coordinates":[28.020832,41.338279],"type":"Point"},"properties":{"osm_id":"6001915112","tag":{"amenity":"recycling","operator":"Kapakl\u00c4\u00b1 Belediyesi","recycling:glass":"yes","recycling:glass_bottles":"yes","recycling_type":"container"}},"type":"Feature"},
	{"geometry":{"coordinates":[28.020559,41.337428],"type":"Point"},"properties":{"osm_id":"6001915113","tag":{"amenity":"recycling","operator":"Kapakl\u00c4\u00b1 Belediyesi","recycling:glass":"yes","recycling:glass_bottles":"yes","recycling_type":"container"}},"type":"Feature"},
	{"geometry":{"coordinates":[28.020092,41.336804],"type":"Point"},"properties":{"osm_id":"6001915114","tag":{"amenity":"recycling","operator":"Kapakl\u00c4\u00b1 Belediyesi","recycling:glass":"yes","recycling:glass_bottles":"yes","recycling_type":"container"}},"type":"Feature"},
	{"geometry":{"coordinates":[27.980119,41.320605],"type":"Point"},"properties":{"osm_id":"6001915115","tag":{"amenity":"recycling","operator":"Kapakl\u00c4\u00b1 Belediyesi","recycling:glass":"yes","recycling:glass_bottles":"yes","recycling_type":"container"}},"type":"Feature"},
	{"geometry":{"coordinates":[27.977749,41.319954],"type":"Point"},"properties":{"osm_id":"6001915116","tag":{"amenity":"recycling","operator":"Kapakl\u00c4\u00b1 Belediyesi","recycling:glass":"yes","recycling:glass_bottles":"yes","recycling_type":"container"}},"type":"Feature"},
	{"geometry":{"coordinates":[27.979265,41.318842],"type":"Point"},"properties":{"osm_id":"6001915118","tag":{"amenity":"recycling","operator":"Kapakl\u00c4\u00b1 Belediyesi","recycling:glass":"yes","recycling:glass_bottles":"yes","recycling_type":"container"}},"type":"Feature"},
	{"geometry":{"coordinates":[27.976675,41.318391],"type":"Point"},"properties":{"osm_id":"6001915119","tag":{"amenity":"recycling","operator":"Kapakl\u00c4\u00b1 Belediyesi","recycling:glass":"yes","recycling:glass_bottles":"yes","recycling_type":"container"}},"type":"Feature"},
	{"geometry":{"coordinates":[27.974955,41.317841],"type":"Point"},"properties":{"osm_id":"6001915120","tag":{"amenity":"recycling","operator":"Kapakl\u00c4\u00b1 Belediyesi","recycling:glass":"yes","recycling:glass_bottles":"yes","recycling_type":"container"}},"type":"Feature"},
	{"geometry":{"coordinates":[27.968435,41.320358],"type":"Point"},"properties":{"osm_id":"6001915121","tag":{"amenity":"recycling","operator":"Kapakl\u00c4\u00b1 Belediyesi","recycling:glass":"yes","recycling:glass_bottles":"yes","recycling_type":"container"}},"type":"Feature"},
	{"geometry":{"coordinates":[27.973005,41.320484],"type":"Point"},"properties":{"osm_id":"6001915122","tag":{"amenity":"recycling","operator":"Kapakl\u00c4\u00b1 Belediyesi","recycling:glass":"yes","recycling:glass_bottles":"yes","recycling_type":"container"}},"type":"Feature"},
	{"geometry":{"coordinates":[27.975043,41.323455],"type":"Point"},"properties":{"osm_id":"6001915123","tag":{"amenity":"recycling","operator":"Kapakl\u00c4\u00b1 Belediyesi","recycling:glass":"yes","recycling:glass_bottles":"yes","recycling_type":"container"}},"type":"Feature"},
	{"geometry":{"coordinates":[27.972492,41.327208],"type":"Point"},"properties":{"osm_id":"6001915124","tag":{"amenity":"recycling","operator":"Kapakl\u00c4\u00b1 Belediyesi","recycling:glass":"yes","recycling:glass_bottles":"yes","recycling_type":"container"}},"type":"Feature"},
	{"geometry":{"coordinates":[27.973512,41.329132],"type":"Point"},"properties":{"osm_id":"6001915125","tag":{"amenity":"recycling","operator":"Kapakl\u00c4\u00b1 Belediyesi","recycling:glass":"yes","recycling:glass_bottles":"yes","recycling_type":"container"}},"type":"Feature"},
	{"geometry":{"coordinates":[27.972744,41.331206],"type":"Point"},"properties":{"osm_id":"6001915126","tag":{"amenity":"recycling","operator":"Kapakl\u00c4\u00b1 Belediyesi","recycling:glass":"yes","recycling:glass_bottles":"yes","recycling_type":"container"}},"type":"Feature"},
	{"geometry":{"coordinates":[27.974452,41.330394],"type":"Point"},"properties":{"osm_id":"6001915127","tag":{"amenity":"recycling","operator":"Kapakl\u00c4\u00b1 Belediyesi","recycling:glass":"yes","recycling:glass_bottles":"yes","recycling_type":"container"}},"type":"Feature"},
	{"geometry":{"coordinates":[27.986617,41.322619],"type":"Point"},"properties":{"osm_id":"6001915128","tag":{"amenity":"recycling","operator":"Kapakl\u00c4\u00b1 Belediyesi","recycling:glass":"yes","recycling:glass_bottles":"yes","recycling_type":"container"}},"type":"Feature"},
	{"geometry":{"coordinates":[27.981907,41.321741],"type":"Point"},"properties":{"osm_id":"6001915129","tag":{"amenity":"recycling","operator":"Kapakl\u00c4\u00b1 Belediyesi","recycling:glass":"yes","recycling:glass_bottles":"yes","recycling_type":"container"}},"type":"Feature"},
	{"geometry":{"coordinates":[27.983878,41.323485],"type":"Point"},"properties":{"osm_id":"6001915130","tag":{"amenity":"recycling","operator":"Kapakl\u00c4\u00b1 Belediyesi","recycling:glass":"yes","recycling:glass_bottles":"yes","recycling_type":"container"}},"type":"Feature"},
	{"geometry":{"coordinates":[27.981743,41.326538],"type":"Point"},"properties":{"osm_id":"6001915131","tag":{"amenity":"recycling","operator":"Kapakl\u00c4\u00b1 Belediyesi","recycling:glass":"yes","recycling:glass_bottles":"yes","recycling_type":"container"}},"type":"Feature"},
	{"geometry":{"coordinates":[27.978093,41.327036],"type":"Point"},"properties":{"osm_id":"6001915132","tag":{"amenity":"recycling","operator":"Kapakl\u00c4\u00b1 Belediyesi","recycling:glass":"yes","recycling:glass_bottles":"yes","recycling_type":"container"}},"type":"Feature"},
	{"geometry":{"coordinates":[27.978609,41.328682],"type":"Point"},"properties":{"osm_id":"6001915133","tag":{"amenity":"recycling","operator":"Kapakl\u00c4\u00b1 Belediyesi","recycling:glass":"yes","recycling:glass_bottles":"yes","recycling_type":"container"}},"type":"Feature"},
	{"geometry":{"coordinates":[27.980902,41.329831],"type":"Point"},"properties":{"osm_id":"6001915134","tag":{"amenity":"recycling","operator":"Kapakl\u00c4\u00b1 Belediyesi","recycling:glass":"yes","recycling:glass_bottles":"yes","recycling_type":"container"}},"type":"Feature"},
	{"geometry":{"coordinates":[27.978731,41.332249],"type":"Point"},"properties":{"osm_id":"6001915135","tag":{"amenity":"recycling","operator":"Kapakl\u00c4\u00b1 Belediyesi","recycling:glass":"yes","recycling:glass_bottles":"yes","recycling_type":"container"}},"type":"Feature"},
	{"geometry":{"coordinates":[27.97753,41.331764],"type":"Point"},"properties":{"osm_id":"6001915136","tag":{"amenity":"recycling","operator":"Kapakl\u00c4\u00b1 Belediyesi","recycling:glass":"yes","recycling:glass_bottles":"yes","recycling_type":"container"}},"type":"Feature"},
	{"geometry":{"coordinates":[27.979359,41.330117],"type":"Point"},"properties":{"osm_id":"6001915137","tag":{"amenity":"recycling","operator":"Kapakl\u00c4\u00b1 Belediyesi","recycling:glass":"yes","recycling:glass_bottles":"yes","recycling_type":"container"}},"type":"Feature"},
	{"geometry":{"coordinates":[27.975319,41.329415],"type":"Point"},"properties":{"osm_id":"6001915138","tag":{"amenity":"recycling","operator":"Kapakl\u00c4\u00b1 Belediyesi","recycling:glass":"yes","recycling:glass_bottles":"yes","recycling_type":"container"}},"type":"Feature"},
	{"geometry":{"coordinates":[27.976636,41.334446],"type":"Point"},"properties":{"osm_id":"6001915139","tag":{"amenity":"recycling","operator":"Kapakl\u00c4\u00b1 Belediyesi","recycling:glass":"yes","recycling:glass_bottles":"yes","recycling_type":"container"}},"type":"Feature"},
	{"geometry":{"coordinates":[27.975023,41.335387],"type":"Point"},"properties":{"osm_id":"6001915140","tag":{"amenity":"recycling","operator":"Kapakl\u00c4\u00b1 Belediyesi","recycling:glass":"yes","recycling:glass_bottles":"yes","recycling_type":"container"}},"type":"Feature"},
	{"geometry":{"coordinates":[27.964989,41.34167],"type":"Point"},"properties":{"osm_id":"6001915141","tag":{"amenity":"recycling","operator":"Kapakl\u00c4\u00b1 Belediyesi","recycling:glass":"yes","recycling:glass_bottles":"yes","recycling_type":"container"}},"type":"Feature"},
	{"geometry":{"coordinates":[27.973317,41.320472],"type":"Point"},"properties":{"osm_id":"6066193431","tag":{"amenity":"waste_basket"}},"type":"Feature"},
	{"geometry":{"coordinates":[27.97361,41.320025],"type":"Point"},"properties":{"osm_id":"6066197592","tag":{"amenity":"waste_basket"}},"type":"Feature"},
	{"geometry":{"coordinates":[27.97407,41.321],"type":"Point"},"properties":{"osm_id":"6066198057","tag":{"amenity":"waste_basket"}},"type":"Feature"},
	{"geometry":{"coordinates":[27.983047,41.327054],"type":"Point"},"properties":{"osm_id":"6375296721","tag":{"amenity":"waste_basket"}},"type":"Feature"},
	{"geometry":{"coordinates":[27.97371,41.330212],"type":"Point"},"properties":{"osm_id":"6388219186","tag":{"amenity":"recycling"}},"type":"Feature"},
	{"geometry":{"coordinates":[27.970846,41.333909],"type":"Point"},"properties":{"osm_id":"6419977081","tag":{"amenity":"waste_disposal"}},"type":"Feature"},
	{"geometry":{"coordinates":[27.974282,41.330134],"type":"Point"},"properties":{"osm_id":"6468970473","tag":{"amenity":"recycling"}},"type":"Feature"},
	{"geometry":{"coordinates":[27.968673,41.33668],"type":"Point"},"properties":{"osm_id":"6493237740","tag":{"amenity":"waste_disposal"}},"type":"Feature"},
	{"geometry":{"coordinates":[27.975398,41.332588],"type":"Point"},"properties":{"osm_id":"6769854298","tag":{"amenity":"waste_disposal"}},"type":"Feature"},
	{"geometry":{"coordinates":[28.002847,41.351503],"type":"Point"},"properties":{"osm_id":"6772933011","tag":{"amenity":"waste_disposal"}},"type":"Feature"},
	{"geometry":{"coordinates":[27.972732,41.334922],"type":"Point"},"properties":{"osm_id":"6896755493","tag":{"amenity":"waste_disposal"}},"type":"Feature"},
	{"geometry":{"coordinates":[27.972481,41.334663],"type":"Point"},"properties":{"osm_id":"6896755733","tag":{"amenity":"waste_disposal"}},"type":"Feature"},
	{"geometry":{"coordinates":[27.97356,41.336118],"type":"Point"},"properties":{"osm_id":"6896765636","tag":{"amenity":"waste_disposal"}},"type":"Feature"},
	{"geometry":{"coordinates":[27.983051,41.328304],"type":"Point"},"properties":{"osm_id":"7013460763","tag":{"amenity":"waste_disposal"}},"type":"Feature"},
	{"geometry":{"coordinates":[27.950247,41.358069],"type":"Point"},"properties":{"osm_id":"7409433433","tag":{"amenity":"waste_disposal"}},"type":"Feature"},
	{"geometry":{"coordinates":[27.949884,41.358099],"type":"Point"},"properties":{"osm_id":"7409433434","tag":{"amenity":"recycling","recycling:clothes":"yes","recycling_type":"container"}},"type":"Feature"},
	{"geometry":{"coordinates":[27.953225,41.356569],"type":"Point"},"properties":{"osm_id":"7409433439","tag":{"amenity":"waste_disposal"}},"type":"Feature"},
	{"geometry":{"coordinates":[27.958016,41.350455],"type":"Point"},"properties":{"osm_id":"7409433474","tag":{"amenity":"waste_disposal","waste":"trash"}},"type":"Feature"},
	{"geometry":{"coordinates":[27.966913,41.338124],"type":"Point"},"properties":{"name":"Hurdac\u00c4\u00b1","osm_id":"7409433507","tag":{"amenity":"recycling","recycling_type":"centre"}},"type":"Feature"}
]
}
