{
"type": "FeatureCollection",
"features": [
	{"geometry":{"coordinates":[14.628774,52.207049],"type":"Point"},"properties":{"osm_id":"485662836","tag":{"amenity":"recycling","recycling:glass_bottles":"yes","recycling_type":"container"}},"type":"Feature"},
	{"geometry":{"coordinates":[14.669309,52.180314],"type":"Point"},"properties":{"osm_id":"485665073","tag":{"amenity":"recycling","recycling:scrap_metal":"yes","recycling_type":"container"}},"type":"Feature"},
	{"geometry":{"coordinates":[14.662245,52.183061],"type":"Point"},"properties":{"osm_id":"485665108","tag":{"amenity":"recycling","recycling:batteries":"no","recycling:cans":"no","recycling:clothes":"no","recycling:paper":"no","recycling:scrap_metal":"no"}},"type":"Feature"},
	{"geometry":{"coordinates":[14.670435,52.180451],"type":"Point"},"properties":{"osm_id":"502905376","tag":{"amenity":"recycling","recycling:glass_bottles":"yes","recycling:scrap_metal":"yes","recycling_type":"container"}},"type":"Feature"},
	{"geometry":{"coordinates":[14.62859,52.207045],"type":"Point"},"properties":{"osm_id":"660579993","tag":{"amenity":"recycling","description":"nur Freitag bis Montag","recycling:scrap_metal":"yes","recycling_type":"container"}},"type":"Feature"},
	{"geometry":{"coordinates":[14.622793,52.205984],"type":"Point"},"properties":{"osm_id":"661027457","tag":{"amenity":"waste_basket"}},"type":"Feature"},
	{"geometry":{"coordinates":[14.627478,52.204313],"type":"Point"},"properties":{"osm_id":"661027462","tag":{"amenity":"waste_basket"}},"type":"Feature"},
	{"geometry":{"coordinates":[14.618228,52.209347],"type":"Point"},"properties":{"osm_id":"661027482","tag":{"amenity":"waste_basket"}},"type":"Feature"},
	{"geometry":{"coordinates":[14.622862,52.205772],"type":"Point"},"properties":{"osm_id":"661216413","tag":{"amenity":"recycling","recycling:green_waste":"yes"}},"type":"Feature"},
	{"geometry":{"coordinates":[14.672154,52.178568],"type":"Point"},"properties":{"osm_id":"693206990","tag":{"amenity":"waste_basket"}},"type":"Feature"},
	{"geometry":{"coordinates":[14.672481,52.178672],"type":"Point"},"properties":{"osm_id":"693207055","tag":{"amenity":"waste_basket"}},"type":"Feature"},
	{"geometry":{"coordinates":[14.623446,52.205999],"type":"Point"},"properties":{"osm_id":"773798218","tag":{"amenity":"waste_basket"}},"type":"Feature"},
	{"geometry":{"coordinates":[14.623512,52.205928],"type":"Point"},"properties":{"osm_id":"773798247","tag":{"amenity":"waste_basket"}},"type":"Feature"},
	{"geometry":{"coordinates":[14.624574,52.206271],"type":"Point"},"properties":{"osm_id":"833764334","tag":{"amenity":"waste_basket"}},"type":"Feature"},
	{"geometry":{"coordinates":[14.670035,52.180308],"type":"Point"},"properties":{"osm_id":"930169292","tag":{"amenity":"waste_basket"}},"type":"Feature"},
	{"geometry":{"coordinates":[14.62914,52.207541],"type":"Point"},"properties":{"osm_id":"942319182","tag":{"amenity":"waste_basket"}},"type":"Feature"},
	{"geometry":{"coordinates":[14.629039,52.207692],"type":"Point"},"properties":{"osm_id":"942319183","tag":{"amenity":"waste_basket"}},"type":"Feature"},
	{"geometry":{"coordinates":[14.62853,52.207873],"type":"Point"},"properties":{"osm_id":"951417036","tag":{"amenity":"waste_basket"}},"type":"Feature"},
	{"geometry":{"coordinates":[14.628452,52.207873],"type":"Point"},"properties":{"osm_id":"951417037","tag":{"amenity":"waste_basket"}},"type":"Feature"},
	{"geometry":{"coordinates":[14.624531,52.206028],"type":"Point"},"properties":{"osm_id":"1082598718","tag":{"amenity":"waste_basket"}},"type":"Feature"},
	{"geometry":{"coordinates":[14.626838,52.202954],"type":"Point"},"properties":{"osm_id":"1168323505","tag":{"amenity":"recycling","operator":"HUMANA","recycling:clothes":"yes"}},"type":"Feature"},
	{"geometry":{"coordinates":[14.628025,52.202189],"type":"Point"},"properties":{"osm_id":"1282906500","tag":{"amenity":"waste_disposal"}},"type":"Feature"}
]
}
