{
"type": "FeatureCollection",
"features": [
	{"geometry":{"coordinates":[14.62122,52.142197],"type":"Point"},"properties":{"osm_id":"694110564","tag":{"amenity":"recycling","recycling:clothes":"yes","recycling:glass_bottles":"yes","recycling_type":"container"}},"type":"Feature"},
	{"geometry":{"coordinates":[14.623898,52.143219],"type":"Point"},"properties":{"osm_id":"694110577","tag":{"amenity":"recycling","description":"DRK-Sammelbox","recycling:clothes":"yes","recycling_type":"container"}},"type":"Feature"},
	{"geometry":{"coordinates":[14.609624,52.154312],"type":"Point"},"properties":{"osm_id":"702720397","tag":{"amenity":"recycling","location":"overground","recycling:glass":"yes","recycling_type":"container"}},"type":"Feature"},
	{"geometry":{"coordinates":[14.648819,52.143213],"type":"Point"},"properties":{"osm_id":"786704703","tag":{"amenity":"recycling","recycling:glass_bottles":"yes","recycling_type":"container"}},"type":"Feature"},
	{"geometry":{"coordinates":[14.622017,52.143],"type":"Point"},"properties":{"osm_id":"794004244","tag":{"amenity":"recycling","recycling:clothes":"yes","recycling:shoes":"yes","recycling_type":"container"}},"type":"Feature"},
	{"geometry":{"coordinates":[14.649153,52.143269],"type":"Point"},"properties":{"osm_id":"833752946","tag":{"amenity":"recycling","recycling:clothes":"yes"}},"type":"Feature"},
	{"geometry":{"coordinates":[14.6444,52.145038],"type":"Point"},"properties":{"osm_id":"833752953","tag":{"amenity":"recycling","recycling:clothes":"yes","recycling_type":"container"}},"type":"Feature"},
	{"geometry":{"coordinates":[14.625738,52.14204],"type":"Point"},"properties":{"osm_id":"858404289","tag":{"amenity":"waste_basket"}},"type":"Feature"},
	{"geometry":{"coordinates":[14.626523,52.141895],"type":"Point"},"properties":{"osm_id":"858404293","tag":{"amenity":"waste_basket"}},"type":"Feature"},
	{"geometry":{"coordinates":[14.625459,52.141746],"type":"Point"},"properties":{"osm_id":"858404301","tag":{"amenity":"waste_basket"}},"type":"Feature"},
	{"geometry":{"coordinates":[14.625451,52.142133],"type":"Point"},"properties":{"osm_id":"858404304","tag":{"amenity":"waste_basket"}},"type":"Feature"},
	{"geometry":{"coordinates":[14.625183,52.142399],"type":"Point"},"properties":{"osm_id":"858404305","tag":{"amenity":"waste_basket"}},"type":"Feature"},
	{"geometry":{"coordinates":[14.625195,52.141848],"type":"Point"},"properties":{"osm_id":"858404308","tag":{"amenity":"waste_basket"}},"type":"Feature"},
	{"geometry":{"coordinates":[14.625647,52.141937],"type":"Point"},"properties":{"osm_id":"858404311","tag":{"amenity":"waste_basket"}},"type":"Feature"},
	{"geometry":{"coordinates":[14.625372,52.142045],"type":"Point"},"properties":{"osm_id":"858404319","tag":{"amenity":"waste_basket"}},"type":"Feature"},
	{"geometry":{"coordinates":[14.671937,52.14631],"type":"Point"},"properties":{"osm_id":"929042470","tag":{"amenity":"recycling","recycling:glass_bottles":"yes","recycling_type":"container"}},"type":"Feature"},
	{"geometry":{"coordinates":[14.677061,52.15555],"type":"Point"},"properties":{"osm_id":"970675488","tag":{"amenity":"recycling","recycling:glass":"yes"}},"type":"Feature"},
	{"geometry":{"coordinates":[14.634318,52.141796],"type":"Point"},"properties":{"osm_id":"993541530","tag":{"amenity":"recycling","recycling:clothes":"yes","recycling_type":"container"}},"type":"Feature"},
	{"geometry":{"coordinates":[14.629107,52.149565],"type":"Point"},"properties":{"osm_id":"993541538","tag":{"amenity":"recycling","recycling:glass_bottles":"yes","recycling_type":"container"}},"type":"Feature"},
	{"geometry":{"coordinates":[14.603051,52.150214],"type":"Point"},"properties":{"osm_id":"1159103394","tag":{"amenity":"recycling","recycling:glass":"yes","recycling_type":"container"}},"type":"Feature"},
	{"geometry":{"coordinates":[14.645733,52.145425],"type":"Point"},"properties":{"name":"Papierbank","osm_id":"1232227227","tag":{"amenity":"recycling","opening_hours":"Tu,Th 13:00-17:00; Fr,Sa 09:00-12:00","recycling:paper":"yes","recycling_type":"centre","website":"http://www.papierbank.de/php/PointsOfAcceptance.php?Country=Brandenburg&Id=65"}},"type":"Feature"},
	{"geometry":{"coordinates":[14.648174,52.145206],"type":"Point"},"properties":{"osm_id":"1232227244","tag":{"amenity":"recycling","recycling:scrap_metal":"yes","recycling_type":"centre"}},"type":"Feature"},
	{"geometry":{"coordinates":[14.623216,52.146164],"type":"Point"},"properties":{"osm_id":"1252301756","tag":{"amenity":"recycling","recycling:glass_bottles":"yes","recycling:paper":"yes","recycling_type":"container"}},"type":"Feature"},
	{"geometry":{"coordinates":[14.626898,52.144404],"type":"Point"},"properties":{"osm_id":"1259474200","tag":{"amenity":"waste_disposal"}},"type":"Feature"},
	{"geometry":{"coordinates":[14.625698,52.143192],"type":"Point"},"properties":{"osm_id":"1259474212","tag":{"amenity":"waste_disposal"}},"type":"Feature"},
	{"geometry":{"coordinates":[14.625852,52.144768],"type":"Point"},"properties":{"osm_id":"1259474315","tag":{"amenity":"waste_disposal"}},"type":"Feature"},
	{"geometry":{"coordinates":[14.624577,52.144652],"type":"Point"},"properties":{"osm_id":"1259474350","tag":{"amenity":"waste_disposal"}},"type":"Feature"},
	{"geometry":{"coordinates":[14.623756,52.143845],"type":"Point"},"properties":{"osm_id":"1259474713","tag":{"amenity":"waste_disposal"}},"type":"Feature"},
	{"geometry":{"coordinates":[14.624971,52.144938],"type":"Point"},"properties":{"osm_id":"1259474897","tag":{"amenity":"waste_disposal"}},"type":"Feature"},
	{"geometry":{"coordinates":[14.628078,52.143848],"type":"Point"},"properties":{"osm_id":"1262212204","tag":{"amenity":"waste_disposal"}},"type":"Feature"},
	{"geometry":{"coordinates":[14.627062,52.142776],"type":"Point"},"properties":{"osm_id":"1262212282","tag":{"amenity":"waste_disposal"}},"type":"Feature"},
	{"geometry":{"coordinates":[14.629613,52.144421],"type":"Point"},"properties":{"osm_id":"1262410001","tag":{"amenity":"waste_disposal"}},"type":"Feature"},
	{"geometry":{"coordinates":[14.626971,52.145331],"type":"Point"},"properties":{"osm_id":"1262410236","tag":{"amenity":"waste_disposal"}},"type":"Feature"},
	{"geometry":{"coordinates":[14.629114,52.144566],"type":"Point"},"properties":{"osm_id":"1262410458","tag":{"amenity":"waste_disposal"}},"type":"Feature"},
	{"geometry":{"coordinates":[14.626198,52.145966],"type":"Point"},"properties":{"osm_id":"1262410512","tag":{"amenity":"waste_disposal"}},"type":"Feature"},
	{"geometry":{"coordinates":[14.633014,52.145001],"type":"Point"},"properties":{"osm_id":"1263496363","tag":{"amenity":"waste_disposal"}},"type":"Feature"},
	{"geometry":{"coordinates":[14.632967,52.143761],"type":"Point"},"properties":{"osm_id":"1263496569","tag":{"amenity":"waste_disposal"}},"type":"Feature"},
	{"geometry":{"coordinates":[14.631161,52.144535],"type":"Point"},"properties":{"osm_id":"1263496841","tag":{"amenity":"waste_disposal"}},"type":"Feature"},
	{"geometry":{"coordinates":[14.631727,52.144522],"type":"Point"},"properties":{"osm_id":"1263497108","tag":{"amenity":"waste_disposal"}},"type":"Feature"},
	{"geometry":{"coordinates":[14.633537,52.143763],"type":"Point"},"properties":{"osm_id":"1263497287","tag":{"amenity":"waste_disposal"}},"type":"Feature"},
	{"geometry":{"coordinates":[14.631719,52.143963],"type":"Point"},"properties":{"osm_id":"1263497545","tag":{"amenity":"waste_disposal"}},"type":"Feature"},
	{"geometry":{"coordinates":[14.633952,52.144711],"type":"Point"},"properties":{"osm_id":"1263497733","tag":{"amenity":"waste_disposal"}},"type":"Feature"},
	{"geometry":{"coordinates":[14.631558,52.145231],"type":"Point"},"properties":{"osm_id":"1263497799","tag":{"amenity":"waste_disposal"}},"type":"Feature"},
	{"geometry":{"coordinates":[14.6622,52.138878],"type":"Point"},"properties":{"osm_id":"1431044260","tag":{"amenity":"recycling","recycling:glass":"yes"}},"type":"Feature"},
	{"geometry":{"coordinates":[14.662729,52.142452],"type":"Point"},"properties":{"osm_id":"1665598677","tag":{"amenity":"recycling","recycling:glass_bottles":"yes","recycling_type":"container"}},"type":"Feature"},
	{"geometry":{"coordinates":[14.624866,52.151166],"type":"Point"},"properties":{"osm_id":"1796760134","tag":{"amenity":"recycling","location":"overground","recycling:glass":"yes","recycling_type":"container"}},"type":"Feature"},
	{"geometry":{"coordinates":[14.620452,52.149088],"type":"Point"},"properties":{"osm_id":"1999833478","tag":{"amenity":"recycling","recycling:clothes":"yes","recycling:glass_bottles":"yes","recycling_type":"container"}},"type":"Feature"},
	{"geometry":{"coordinates":[14.629198,52.152542],"type":"Point"},"properties":{"osm_id":"6698909180","tag":{"amenity":"waste_basket"}},"type":"Feature"},
	{"geometry":{"coordinates":[14.669042,52.143591],"type":"Point"},"properties":{"osm_id":"6698929430","tag":{"amenity":"waste_basket"}},"type":"Feature"}
]
}
