{
"type": "FeatureCollection",
"lastupdate": "2020-08-02T00:00:00Z",
"features": [
	{"geometry":{"coordinates":[14.664943,48.256271],"type":"Point"},"properties":{"osm_id":"2342439586","tag":{"amenity":"recycling","recycling:cans":"yes","recycling:glass_bottles":"yes","recycling:paper":"yes","recycling_type":"container"}},"type":"Feature"},
	{"geometry":{"coordinates":[14.668711,48.278532],"type":"Point"},"properties":{"osm_id":"3114721559","tag":{"amenity":"waste_basket"}},"type":"Feature"},
	{"geometry":{"coordinates":[14.648319,48.243304],"type":"Point"},"properties":{"name":"Altstoffsammelzentrum Perg","osm_id":"3943487839","tag":{"amenity":"recycling","email":"asz-perg@umweltprofis.at","opening_hours":"Mo-Fr 08:00-12:00,13:00-18:00; Sa 08:00-12:00","phone":"+43 7262 52370","recycling:batteries":"yes","recycling:cans":"yes","recycling:cardboard":"yes","recycling:clothes":"yes","recycling:electrical_appliances":"yes","recycling:glass":"yes","recycling:glass_bottles":"yes","recycling:paper":"yes","recycling:plastic":"yes","recycling:plastic_bottles":"yes","recycling:plastic_packaging":"yes","recycling:scrap_metal":"yes","recycling:shoes":"yes","recycling:small_appliances":"yes","recycling_type":"centre","website":"http://www.altstoffsammelzentrum.at"}},"type":"Feature"},
	{"geometry":{"coordinates":[14.636914,48.253457],"type":"Point"},"properties":{"osm_id":"4861139279","tag":{"amenity":"waste_basket"}},"type":"Feature"},
	{"geometry":{"coordinates":[14.616708,48.255602],"type":"Point"},"properties":{"osm_id":"5389437393","tag":{"amenity":"waste_basket","waste":"trash"}},"type":"Feature"},
	{"geometry":{"coordinates":[14.606064,48.255511],"type":"Point"},"properties":{"osm_id":"6272806554","tag":{"amenity":"recycling","recycling:cans":"yes","recycling:glass_bottles":"yes","recycling_type":"container"}},"type":"Feature"},
	{"geometry":{"coordinates":[14.60992,48.25719],"type":"Point"},"properties":{"osm_id":"6284224525","tag":{"amenity":"waste_basket","waste":"trash"}},"type":"Feature"},
	{"geometry":{"coordinates":[14.618872,48.24885],"type":"Point"},"properties":{"osm_id":"6299191944","tag":{"amenity":"waste_basket","waste":"trash"}},"type":"Feature"},
	{"geometry":{"coordinates":[14.657964,48.225529],"type":"Point"},"properties":{"osm_id":"7255127923","tag":{"amenity":"waste_basket","waste":"trash"}},"type":"Feature"}
]
}
