{
"type": "FeatureCollection",
"features": [
	{"geometry":{"coordinates":[-8.167718,43.516703],"type":"Point"},"properties":{"osm_id":"4560783288","tag":{"amenity":"recycling","recycling_type":"container"}},"type":"Feature"},
	{"geometry":{"coordinates":[-8.152326,43.516903],"type":"Point"},"properties":{"osm_id":"4786921147","tag":{"amenity":"recycling","recycling:plastic":"yes","recycling_type":"container"}},"type":"Feature"},
	{"geometry":{"coordinates":[-8.166917,43.516694],"type":"Point"},"properties":{"osm_id":"4793367813","tag":{"amenity":"recycling","recycling_type":"container"}},"type":"Feature"},
	{"geometry":{"coordinates":[-8.16952,43.517127],"type":"Point"},"properties":{"osm_id":"4802369552","tag":{"amenity":"recycling","recycling_type":"container"}},"type":"Feature"},
	{"geometry":{"coordinates":[-8.165959,43.518903],"type":"Point"},"properties":{"osm_id":"4810413655","tag":{"amenity":"recycling","recycling_type":"container"}},"type":"Feature"},
	{"geometry":{"coordinates":[-8.165814,43.518917],"type":"Point"},"properties":{"osm_id":"4810413656","tag":{"amenity":"recycling","recycling_type":"container"}},"type":"Feature"},
	{"geometry":{"coordinates":[-8.103983,43.536794],"type":"Point"},"properties":{"osm_id":"4853579564","tag":{"amenity":"waste_disposal","waste":"trash"}},"type":"Feature"},
	{"geometry":{"coordinates":[-8.10377,43.535648],"type":"Point"},"properties":{"osm_id":"4853579565","tag":{"amenity":"recycling","recycling:plastic":"yes","recycling:plastic_bottles":"yes","recycling:plastic_packaging":"yes","recycling_type":"container"}},"type":"Feature"},
	{"geometry":{"coordinates":[-8.103797,43.535647],"type":"Point"},"properties":{"osm_id":"4853579566","tag":{"amenity":"waste_disposal","waste":"trash"}},"type":"Feature"},
	{"geometry":{"coordinates":[-8.151391,43.525658],"type":"Point"},"properties":{"osm_id":"4860351246","tag":{"amenity":"recycling","recycling_type":"container"}},"type":"Feature"},
	{"geometry":{"coordinates":[-8.105241,43.536981],"type":"Point"},"properties":{"osm_id":"4977072615","tag":{"amenity":"waste_disposal"}},"type":"Feature"},
	{"geometry":{"coordinates":[-8.166173,43.516745],"type":"Point"},"properties":{"osm_id":"5912859512","tag":{"amenity":"recycling","recycling:plastic":"yes","recycling_type":"container"}},"type":"Feature"},
	{"geometry":{"coordinates":[-8.166173,43.516734],"type":"Point"},"properties":{"osm_id":"5912859513","tag":{"amenity":"waste_disposal"}},"type":"Feature"},
	{"geometry":{"coordinates":[-8.152334,43.51689],"type":"Point"},"properties":{"osm_id":"6009988596","tag":{"amenity":"waste_disposal"}},"type":"Feature"},
	{"geometry":{"coordinates":[-8.152269,43.516877],"type":"Point"},"properties":{"osm_id":"6009988601","tag":{"amenity":"waste_basket"}},"type":"Feature"},
	{"geometry":{"coordinates":[-8.168729,43.516728],"type":"Point"},"properties":{"osm_id":"6727792063","tag":{"amenity":"waste_basket"}},"type":"Feature"}
]
}
