{
"type": "FeatureCollection",
"lastupdate": "2020-07-31T00:00:00Z",
"features": [
	{"geometry":{"coordinates":[-8.153058,43.516608],"type":"Point"},"properties":{"osm_id":"4718783834","tag":{"amenity":"recycling","recycling:carton":"yes","recycling:glass_bottles":"yes","recycling:paper":"yes","recycling:plastic":"yes","recycling_type":"container"}},"type":"Feature"},
	{"geometry":{"coordinates":[-8.155978,43.516358],"type":"Point"},"properties":{"osm_id":"4786921183","tag":{"amenity":"recycling","recycling_type":"container"}},"type":"Feature"},
	{"geometry":{"coordinates":[-8.15798,43.516333],"type":"Point"},"properties":{"osm_id":"4786921956","tag":{"amenity":"recycling","recycling:plastic":"yes","recycling_type":"container"}},"type":"Feature"},
	{"geometry":{"coordinates":[-8.161969,43.515857],"type":"Point"},"properties":{"osm_id":"4786943303","tag":{"amenity":"recycling","recycling_type":"container"}},"type":"Feature"},
	{"geometry":{"coordinates":[-8.162688,43.515773],"type":"Point"},"properties":{"osm_id":"4786943304","tag":{"amenity":"recycling","recycling_type":"container"}},"type":"Feature"},
	{"geometry":{"coordinates":[-8.16265,43.516392],"type":"Point"},"properties":{"osm_id":"4786943305","tag":{"amenity":"recycling","recycling:plastic":"yes","recycling_type":"container"}},"type":"Feature"},
	{"geometry":{"coordinates":[-8.162723,43.516465],"type":"Point"},"properties":{"osm_id":"4786943306","tag":{"amenity":"recycling","recycling:glass_bottles":"yes","recycling_type":"container"}},"type":"Feature"},
	{"geometry":{"coordinates":[-8.1625,43.516463],"type":"Point"},"properties":{"osm_id":"4786943307","tag":{"amenity":"recycling","recycling_type":"container"}},"type":"Feature"},
	{"geometry":{"coordinates":[-8.158495,43.516564],"type":"Point"},"properties":{"osm_id":"4788160250","tag":{"amenity":"recycling","recycling_type":"container"}},"type":"Feature"},
	{"geometry":{"coordinates":[-8.159151,43.516516],"type":"Point"},"properties":{"osm_id":"4788160256","tag":{"amenity":"recycling","recycling_type":"container"}},"type":"Feature"},
	{"geometry":{"coordinates":[-8.172326,43.51551],"type":"Point"},"properties":{"osm_id":"4789834135","tag":{"amenity":"recycling","recycling:cans":"yes","recycling:cartons":"yes","recycling:plastic":"yes","recycling_type":"container"}},"type":"Feature"},
	{"geometry":{"coordinates":[-8.171151,43.516301],"type":"Point"},"properties":{"osm_id":"4789834141","tag":{"amenity":"recycling","recycling_type":"container"}},"type":"Feature"},
	{"geometry":{"coordinates":[-8.160035,43.516432],"type":"Point"},"properties":{"osm_id":"4793293556","tag":{"amenity":"recycling","recycling_type":"container"}},"type":"Feature"},
	{"geometry":{"coordinates":[-8.160064,43.514696],"type":"Point"},"properties":{"osm_id":"4793293563","tag":{"amenity":"recycling","recycling_type":"container"}},"type":"Feature"},
	{"geometry":{"coordinates":[-8.160766,43.513318],"type":"Point"},"properties":{"osm_id":"4793293570","tag":{"amenity":"recycling","recycling_type":"container"}},"type":"Feature"},
	{"geometry":{"coordinates":[-8.160793,43.514696],"type":"Point"},"properties":{"osm_id":"4793303208","tag":{"amenity":"recycling","recycling_type":"container"}},"type":"Feature"},
	{"geometry":{"coordinates":[-8.160736,43.516354],"type":"Point"},"properties":{"osm_id":"4793315631","tag":{"amenity":"recycling","recycling_type":"container"}},"type":"Feature"},
	{"geometry":{"coordinates":[-8.164427,43.516618],"type":"Point"},"properties":{"osm_id":"4793352848","tag":{"amenity":"recycling","recycling_type":"container"}},"type":"Feature"},
	{"geometry":{"coordinates":[-8.165928,43.516484],"type":"Point"},"properties":{"osm_id":"4793352862","tag":{"amenity":"recycling","recycling_type":"container"}},"type":"Feature"},
	{"geometry":{"coordinates":[-8.165157,43.516465],"type":"Point"},"properties":{"osm_id":"4793352864","tag":{"amenity":"recycling","recycling_type":"container"}},"type":"Feature"},
	{"geometry":{"coordinates":[-8.166113,43.516663],"type":"Point"},"properties":{"osm_id":"4793352870","tag":{"amenity":"recycling","recycling:carton":"yes","recycling:paper":"yes","recycling_type":"container"}},"type":"Feature"},
	{"geometry":{"coordinates":[-8.166337,43.516677],"type":"Point"},"properties":{"osm_id":"4793352871","tag":{"amenity":"recycling","recycling_type":"container"}},"type":"Feature"},
	{"geometry":{"coordinates":[-8.167497,43.516576],"type":"Point"},"properties":{"osm_id":"4793379530","tag":{"amenity":"recycling","recycling_type":"container"}},"type":"Feature"},
	{"geometry":{"coordinates":[-8.169578,43.516588],"type":"Point"},"properties":{"osm_id":"4793386271","tag":{"amenity":"recycling","recycling:cardboard":"yes","recycling:paper":"yes","recycling_type":"container"}},"type":"Feature"},
	{"geometry":{"coordinates":[-8.173464,43.515131],"type":"Point"},"properties":{"osm_id":"4793904408","tag":{"amenity":"recycling","recycling_type":"container"}},"type":"Feature"},
	{"geometry":{"coordinates":[-8.170966,43.516096],"type":"Point"},"properties":{"osm_id":"4797427180","tag":{"amenity":"recycling","recycling_type":"container"}},"type":"Feature"},
	{"geometry":{"coordinates":[-8.170037,43.51665],"type":"Point"},"properties":{"osm_id":"4797427181","tag":{"amenity":"recycling","recycling_type":"container"}},"type":"Feature"},
	{"geometry":{"coordinates":[-8.158785,43.515717],"type":"Point"},"properties":{"osm_id":"4797469525","tag":{"amenity":"recycling","recycling_type":"container"}},"type":"Feature"},
	{"geometry":{"coordinates":[-8.155052,43.51633],"type":"Point"},"properties":{"osm_id":"4802596920","tag":{"amenity":"recycling","recycling_type":"container"}},"type":"Feature"},
	{"geometry":{"coordinates":[-8.159791,43.516586],"type":"Point"},"properties":{"osm_id":"4802604588","tag":{"amenity":"recycling","recycling_type":"container"}},"type":"Feature"},
	{"geometry":{"coordinates":[-8.172789,43.476179],"type":"Point"},"properties":{"osm_id":"4823025779","tag":{"amenity":"recycling","recycling_type":"container"}},"type":"Feature"},
	{"geometry":{"coordinates":[-8.171533,43.477156],"type":"Point"},"properties":{"osm_id":"4823025793","tag":{"amenity":"recycling","recycling_type":"container"}},"type":"Feature"},
	{"geometry":{"coordinates":[-8.169995,43.477179],"type":"Point"},"properties":{"osm_id":"4823025798","tag":{"amenity":"recycling","recycling_type":"container"}},"type":"Feature"},
	{"geometry":{"coordinates":[-8.170821,43.477706],"type":"Point"},"properties":{"osm_id":"4823025804","tag":{"amenity":"recycling","recycling_type":"container"}},"type":"Feature"},
	{"geometry":{"coordinates":[-8.172039,43.476759],"type":"Point"},"properties":{"osm_id":"4823031303","tag":{"amenity":"recycling","recycling_type":"container"}},"type":"Feature"},
	{"geometry":{"coordinates":[-8.170338,43.476078],"type":"Point"},"properties":{"osm_id":"4823531984","tag":{"amenity":"recycling","recycling_type":"container"}},"type":"Feature"},
	{"geometry":{"coordinates":[-8.169983,43.475561],"type":"Point"},"properties":{"osm_id":"4823532002","tag":{"amenity":"recycling","recycling_type":"container"}},"type":"Feature"},
	{"geometry":{"coordinates":[-8.171574,43.475923],"type":"Point"},"properties":{"osm_id":"4823541228","tag":{"amenity":"recycling","recycling_type":"container"}},"type":"Feature"},
	{"geometry":{"coordinates":[-8.170896,43.476262],"type":"Point"},"properties":{"osm_id":"4823541231","tag":{"amenity":"recycling","recycling_type":"container"}},"type":"Feature"},
	{"geometry":{"coordinates":[-8.159614,43.501137],"type":"Point"},"properties":{"osm_id":"4838577186","tag":{"amenity":"recycling","recycling_type":"container"}},"type":"Feature"},
	{"geometry":{"coordinates":[-8.169575,43.474879],"type":"Point"},"properties":{"osm_id":"4841608380","tag":{"amenity":"recycling","recycling_type":"container"}},"type":"Feature"},
	{"geometry":{"coordinates":[-8.146937,43.477561],"type":"Point"},"properties":{"osm_id":"4974227925","tag":{"amenity":"recycling","recycling_type":"container"}},"type":"Feature"},
	{"geometry":{"coordinates":[-8.146992,43.47826],"type":"Point"},"properties":{"osm_id":"4974227926","tag":{"amenity":"recycling","recycling_type":"container"}},"type":"Feature"},
	{"geometry":{"coordinates":[-8.172415,43.50841],"type":"Point"},"properties":{"osm_id":"5002126483","tag":{"amenity":"recycling","recycling_type":"container"}},"type":"Feature"},
	{"geometry":{"coordinates":[-8.161838,43.516448],"type":"Point"},"properties":{"osm_id":"5899109359","tag":{"amenity":"recycling","recycling:glass_bottles":"yes","recycling_type":"container"}},"type":"Feature"},
	{"geometry":{"coordinates":[-8.150748,43.515937],"type":"Point"},"properties":{"osm_id":"6008811397","tag":{"amenity":"recycling","recycling:cardboard":"yes","recycling:glass_bottles":"yes","recycling:paper":"yes","recycling_type":"container"}},"type":"Feature"},
	{"geometry":{"coordinates":[-8.161125,43.516623],"type":"Point"},"properties":{"osm_id":"6047618184","tag":{"amenity":"recycling","recycling_type":"container"}},"type":"Feature"},
	{"geometry":{"coordinates":[-8.169606,43.516588],"type":"Point"},"properties":{"osm_id":"6728342671","tag":{"amenity":"recycling","recycling:cans":"yes","recycling:cartons":"yes","recycling:plastic":"yes","recycling_type":"container"}},"type":"Feature"},
	{"geometry":{"coordinates":[-8.169616,43.516588],"type":"Point"},"properties":{"osm_id":"6728342672","tag":{"amenity":"recycling","recycling:cans":"yes","recycling:cartons":"yes","recycling:plastic":"yes","recycling_type":"container"}},"type":"Feature"},
	{"geometry":{"coordinates":[-8.169625,43.516588],"type":"Point"},"properties":{"osm_id":"6728342673","tag":{"amenity":"recycling","recycling:cans":"yes","recycling:cartons":"yes","recycling:plastic":"yes","recycling_type":"container"}},"type":"Feature"},
	{"geometry":{"coordinates":[-8.172363,43.515496],"type":"Point"},"properties":{"osm_id":"6728370993","tag":{"amenity":"recycling","recycling:cardboard":"yes","recycling:paper":"yes","recycling_type":"container"}},"type":"Feature"},
	{"geometry":{"coordinates":[-8.15641,43.515422],"type":"Point"},"properties":{"osm_id":"6833561427","tag":{"amenity":"waste_basket"}},"type":"Feature"}
]
}
