{
"type": "FeatureCollection",
"features": [
	{"geometry":{"coordinates":[-8.167682,42.793767],"type":"Point"},"properties":{"name":"Contenedores","osm_id":"5302029050","tag":{"amenity":"waste_disposal"}},"type":"Feature"},
	{"geometry":{"coordinates":[-8.088084,42.759221],"type":"Point"},"properties":{"osm_id":"5801204402","tag":{"amenity":"recycling","recycling_type":"container"}},"type":"Feature"},
	{"geometry":{"coordinates":[-8.170974,42.793988],"type":"Point"},"properties":{"osm_id":"6093006210","tag":{"amenity":"recycling","recycling_type":"container"}},"type":"Feature"},
	{"geometry":{"coordinates":[-8.172239,42.795079],"type":"Point"},"properties":{"osm_id":"6093006230","tag":{"amenity":"recycling","recycling_type":"container"}},"type":"Feature"},
	{"geometry":{"coordinates":[-8.171889,42.794338],"type":"Point"},"properties":{"osm_id":"6093006241","tag":{"amenity":"recycling","recycling_type":"container"}},"type":"Feature"},
	{"geometry":{"coordinates":[-8.169771,42.793738],"type":"Point"},"properties":{"osm_id":"6093006257","tag":{"amenity":"recycling","recycling_type":"container"}},"type":"Feature"},
	{"geometry":{"coordinates":[-8.166718,42.793205],"type":"Point"},"properties":{"osm_id":"6093006288","tag":{"amenity":"recycling","recycling_type":"container"}},"type":"Feature"},
	{"geometry":{"coordinates":[-8.164575,42.793016],"type":"Point"},"properties":{"osm_id":"6093006309","tag":{"amenity":"recycling","recycling_type":"container"}},"type":"Feature"},
	{"geometry":{"coordinates":[-8.169535,42.794411],"type":"Point"},"properties":{"osm_id":"6093006319","tag":{"amenity":"recycling","recycling_type":"container"}},"type":"Feature"},
	{"geometry":{"coordinates":[-8.169978,42.794377],"type":"Point"},"properties":{"osm_id":"6093006320","tag":{"amenity":"recycling","recycling_type":"container"}},"type":"Feature"},
	{"geometry":{"coordinates":[-8.170476,42.794242],"type":"Point"},"properties":{"osm_id":"6093006327","tag":{"amenity":"recycling","recycling_type":"container"}},"type":"Feature"},
	{"geometry":{"coordinates":[-8.170193,42.793219],"type":"Point"},"properties":{"osm_id":"6093088452","tag":{"amenity":"recycling","recycling_type":"container"}},"type":"Feature"},
	{"geometry":{"coordinates":[-8.170477,42.792807],"type":"Point"},"properties":{"osm_id":"6093088454","tag":{"amenity":"recycling","recycling:paper":"yes","recycling_type":"container"}},"type":"Feature"},
	{"geometry":{"coordinates":[-8.166385,42.792553],"type":"Point"},"properties":{"osm_id":"6093088466","tag":{"amenity":"recycling","recycling_type":"container"}},"type":"Feature"}
]
}
