{
"type": "FeatureCollection",
"features": [
	{"geometry":{"coordinates":[-8.132171,39.916878],"type":"Point"},"properties":{"osm_id":"5031171827","tag":{"amenity":"recycling","recycling_type":"container"}},"type":"Feature"},
	{"geometry":{"coordinates":[-8.148216,39.914006],"type":"Point"},"properties":{"osm_id":"8551837145","tag":{"amenity":"waste_disposal"}},"type":"Feature"},
	{"geometry":{"coordinates":[-8.147988,39.914754],"type":"Point"},"properties":{"osm_id":"8551837156","tag":{"amenity":"waste_disposal"}},"type":"Feature"},
	{"geometry":{"coordinates":[-8.147442,39.915207],"type":"Point"},"properties":{"osm_id":"8551837158","tag":{"amenity":"waste_disposal"}},"type":"Feature"},
	{"geometry":{"coordinates":[-8.145218,39.916036],"type":"Point"},"properties":{"osm_id":"8551837162","tag":{"amenity":"waste_disposal"}},"type":"Feature"},
	{"geometry":{"coordinates":[-8.145136,39.918219],"type":"Point"},"properties":{"osm_id":"8551837184","tag":{"amenity":"recycling","recycling:glass":"yes","recycling:paper":"yes","recycling:plastic":"yes","recycling_type":"container"}},"type":"Feature"},
	{"geometry":{"coordinates":[-8.144674,39.918376],"type":"Point"},"properties":{"osm_id":"8551848427","tag":{"amenity":"waste_disposal"}},"type":"Feature"},
	{"geometry":{"coordinates":[-8.144243,39.918445],"type":"Point"},"properties":{"osm_id":"8551848435","tag":{"amenity":"waste_disposal"}},"type":"Feature"},
	{"geometry":{"coordinates":[-8.144477,39.918509],"type":"Point"},"properties":{"osm_id":"8551848436","tag":{"amenity":"waste_basket"}},"type":"Feature"},
	{"geometry":{"coordinates":[-8.142923,39.918722],"type":"Point"},"properties":{"osm_id":"8551948887","tag":{"amenity":"waste_disposal"}},"type":"Feature"},
	{"geometry":{"coordinates":[-8.141562,39.9205],"type":"Point"},"properties":{"osm_id":"8551948888","tag":{"amenity":"waste_disposal"}},"type":"Feature"},
	{"geometry":{"coordinates":[-8.141077,39.921379],"type":"Point"},"properties":{"osm_id":"8551948890","tag":{"amenity":"waste_disposal"}},"type":"Feature"},
	{"geometry":{"coordinates":[-8.144215,39.92208],"type":"Point"},"properties":{"osm_id":"8551948891","tag":{"amenity":"waste_disposal"}},"type":"Feature"},
	{"geometry":{"coordinates":[-8.145658,39.927664],"type":"Point"},"properties":{"osm_id":"8552060777","tag":{"amenity":"recycling","recycling:glass":"yes","recycling:paper":"yes","recycling:plastic":"yes","recycling_type":"container"}},"type":"Feature"},
	{"geometry":{"coordinates":[-8.148451,39.914469],"type":"Point"},"properties":{"osm_id":"8570045943","tag":{"amenity":"recycling","recycling_type":"centre"}},"type":"Feature"}
]
}
