{
"type": "FeatureCollection",
"features": [
	{"geometry":{"coordinates":[-8.111796,37.076327],"type":"Point"},"properties":{"osm_id":"767457044","tag":{"amenity":"recycling"}},"type":"Feature"},
	{"geometry":{"coordinates":[-8.118485,37.075103],"type":"Point"},"properties":{"osm_id":"1481717916","tag":{"amenity":"waste_basket"}},"type":"Feature"},
	{"geometry":{"coordinates":[-8.118501,37.075061],"type":"Point"},"properties":{"osm_id":"1481717921","tag":{"amenity":"recycling"}},"type":"Feature"},
	{"geometry":{"coordinates":[-8.107109,37.072472],"type":"Point"},"properties":{"osm_id":"2438922393","tag":{"amenity":"recycling"}},"type":"Feature"},
	{"geometry":{"coordinates":[-8.12359,37.078225],"type":"Point"},"properties":{"osm_id":"4244220361","tag":{"amenity":"recycling","recycling_type":"container"}},"type":"Feature"},
	{"geometry":{"coordinates":[-8.122488,37.079123],"type":"Point"},"properties":{"osm_id":"4244220385","tag":{"amenity":"recycling","recycling_type":"container"}},"type":"Feature"},
	{"geometry":{"coordinates":[-8.099501,37.067202],"type":"Point"},"properties":{"osm_id":"4317893989","tag":{"amenity":"recycling","mapillary":"plT7XBYjLEez3PdaHMHdgw","recycling_type":"container","survey:date":"2018-08-10"}},"type":"Feature"},
	{"geometry":{"coordinates":[-8.12484,37.075548],"type":"Point"},"properties":{"osm_id":"4985967248","tag":{"amenity":"recycling","recycling_type":"container"}},"type":"Feature"},
	{"geometry":{"coordinates":[-8.11615,37.077681],"type":"Point"},"properties":{"osm_id":"4990722621","tag":{"amenity":"recycling"}},"type":"Feature"},
	{"geometry":{"coordinates":[-8.129243,37.076709],"type":"Point"},"properties":{"osm_id":"5405308421","tag":{"amenity":"waste_basket"}},"type":"Feature"}
]
}
