{
"type": "FeatureCollection",
"features": [
	{"geometry":{"coordinates":[-8.142666,6.062488],"type":"Point"},"properties":{"osm_id":"4841781519","tag":{"addr:city":"Zwedru","addr:street":"Kudah Bypass","amenity":"waste_disposal","fee":"no","waste":"trash"}},"type":"Feature"},
	{"geometry":{"coordinates":[-8.138079,6.071169],"type":"Point"},"properties":{"osm_id":"4841821615","tag":{"addr:city":"Zwedru","amenity":"waste_disposal","fee":"no","waste":"trash"}},"type":"Feature"},
	{"geometry":{"coordinates":[-8.139668,6.071039],"type":"Point"},"properties":{"osm_id":"4841821617","tag":{"addr:city":"Zwedru","amenity":"waste_disposal","fee":"no"}},"type":"Feature"},
	{"geometry":{"coordinates":[-8.139165,6.071567],"type":"Point"},"properties":{"osm_id":"4841822622","tag":{"addr:city":"Zwedru","amenity":"waste_disposal","dump:official":"no","fee":"no","waste":"trash"}},"type":"Feature"},
	{"geometry":{"coordinates":[-8.137556,6.07176],"type":"Point"},"properties":{"osm_id":"4841822623","tag":{"addr:city":"Zwedru","amenity":"waste_disposal","fee":"no","waste":"trash"}},"type":"Feature"},
	{"geometry":{"coordinates":[-8.134159,6.066907],"type":"Point"},"properties":{"osm_id":"4843949483","tag":{"addr:city":"Zwedru","addr:street":"Doe Street","amenity":"waste_disposal"}},"type":"Feature"},
	{"geometry":{"coordinates":[-8.138297,6.058403],"type":"Point"},"properties":{"osm_id":"4844270550","tag":{"addr:city":"Zwedru","addr:street":"Sinoe Road","amenity":"waste_disposal","fee":"no","waste":"trash"}},"type":"Feature"},
	{"geometry":{"coordinates":[-8.137822,6.057621],"type":"Point"},"properties":{"osm_id":"4844270559","tag":{"addr:city":"Zwedru","addr:street":"Doe Street","amenity":"waste_disposal","fee":"no"}},"type":"Feature"},
	{"geometry":{"coordinates":[-8.140396,6.063728],"type":"Point"},"properties":{"osm_id":"4844628102","tag":{"addr:city":"Zwedru","addr:street":"Kangba Street","amenity":"waste_disposal","waste":"trash"}},"type":"Feature"},
	{"geometry":{"coordinates":[-8.131599,6.069207],"type":"Point"},"properties":{"osm_id":"4845930800","tag":{"addr:city":"Zwedru","addr:street":"Dehsuah Street","amenity":"waste_basket"}},"type":"Feature"},
	{"geometry":{"coordinates":[-8.131724,6.067557],"type":"Point"},"properties":{"name":"Zwedru General Market Waste Collection","osm_id":"4847370548","tag":{"addr:city":"Zwedru","addr:street":"Dehsuah Street","amenity":"waste_disposal","operator":"Zwedru Marketing Association","waste":"trash"}},"type":"Feature"},
	{"geometry":{"coordinates":[-8.132703,6.067744],"type":"Point"},"properties":{"osm_id":"4847370552","tag":{"addr:city":"Zwedru","amenity":"waste_disposal","fee":"no","waste":"trash"}},"type":"Feature"},
	{"geometry":{"coordinates":[-8.12797,6.068531],"type":"Point"},"properties":{"osm_id":"4847871704","tag":{"addr:city":"Zwedru","addr:street":"Dehsuah Street","amenity":"waste_disposal","fee":"no","waste":"trash"}},"type":"Feature"},
	{"geometry":{"coordinates":[-8.126576,6.067567],"type":"Point"},"properties":{"osm_id":"4847872340","tag":{"addr:city":"Zwedru","addr:street":"Kannah Road","amenity":"waste_disposal","fee":"no","waste":"trash"}},"type":"Feature"},
	{"geometry":{"coordinates":[-8.136395,6.072653],"type":"Point"},"properties":{"osm_id":"4847966663","tag":{"addr:city":"Zwedru","addr:street":"Rue Street","amenity":"waste_disposal","waste":"trash"}},"type":"Feature"},
	{"geometry":{"coordinates":[-8.134661,6.064712],"type":"Point"},"properties":{"osm_id":"4849887996","tag":{"addr:city":"Zwedru","addr:street":"Doe Street","amenity":"waste_disposal","fee":"no"}},"type":"Feature"},
	{"geometry":{"coordinates":[-8.144598,6.062296],"type":"Point"},"properties":{"osm_id":"4849888011","tag":{"addr:city":"Zwedru","addr:street":"Rancy Street","amenity":"waste_disposal","waste":"trash"}},"type":"Feature"},
	{"geometry":{"coordinates":[-8.141534,6.061067],"type":"Point"},"properties":{"osm_id":"4849888030","tag":{"addr:city":"Zwedru","addr:street":"Rancy Street","amenity":"waste_disposal","dump:official":"no","fee":"no","waste":"trash"}},"type":"Feature"},
	{"geometry":{"coordinates":[-8.141878,6.059968],"type":"Point"},"properties":{"osm_id":"4849888046","tag":{"addr:city":"Zwedru","addr:street":"Kudah Bypass","amenity":"waste_disposal","waste":"trash"}},"type":"Feature"},
	{"geometry":{"coordinates":[-8.141212,6.060128],"type":"Point"},"properties":{"osm_id":"4849888051","tag":{"addr:city":"Zwedru","addr:street":"Sinoe Road","amenity":"waste_disposal","waste":"trash"}},"type":"Feature"},
	{"geometry":{"coordinates":[-8.139815,6.078754],"type":"Point"},"properties":{"osm_id":"4868524337","tag":{"addr:city":"Zwedru","amenity":"waste_disposal","fee":"no","waste":"trash"}},"type":"Feature"},
	{"geometry":{"coordinates":[-8.142874,6.076305],"type":"Point"},"properties":{"osm_id":"4868524342","tag":{"addr:city":"Zwedru","amenity":"waste_disposal","fee":"no","waste":"trash"}},"type":"Feature"},
	{"geometry":{"coordinates":[-8.13685,6.062994],"type":"Point"},"properties":{"osm_id":"4912653686","tag":{"addr:city":"Zwedru","addr:street":"Father Fenny Street","amenity":"waste_disposal","waste":"trash"}},"type":"Feature"},
	{"geometry":{"coordinates":[-8.134443,6.064886],"type":"Point"},"properties":{"osm_id":"4912653690","tag":{"addr:city":"Zwedru","addr:street":"Doe Street","amenity":"waste_disposal","waste":"trash"}},"type":"Feature"},
	{"geometry":{"coordinates":[-8.137463,6.063369],"type":"Point"},"properties":{"osm_id":"4912653703","tag":{"addr:city":"Zwedru","addr:street":"Moses P. Harris Street","amenity":"waste_disposal","fee":"no"}},"type":"Feature"},
	{"geometry":{"coordinates":[-8.133509,6.073432],"type":"Point"},"properties":{"osm_id":"4913151001","tag":{"addr:city":"Zwedru","addr:street":"Towah Street","amenity":"waste_disposal","waste":"trash"}},"type":"Feature"},
	{"geometry":{"coordinates":[-8.13962,6.076415],"type":"Point"},"properties":{"osm_id":"5006061274","tag":{"addr:city":"Zwedru","addr:street":"Breeze Street","amenity":"waste_disposal","waste":"trash"}},"type":"Feature"},
	{"geometry":{"coordinates":[-8.136492,6.077049],"type":"Point"},"properties":{"osm_id":"5006061277","tag":{"addr:city":"Zwedru","addr:street":"Breeze Street","amenity":"waste_disposal","waste":"trash"}},"type":"Feature"},
	{"geometry":{"coordinates":[-8.139545,6.07664],"type":"Point"},"properties":{"osm_id":"5006063666","tag":{"addr:city":"Zwedru","addr:street":"Breeze Street","amenity":"waste_disposal","waste":"trash"}},"type":"Feature"},
	{"geometry":{"coordinates":[-8.139073,6.07635],"type":"Point"},"properties":{"osm_id":"5006063668","tag":{"addr:city":"Zwedru","addr:street":"Breeze Street","amenity":"waste_disposal","waste":"trash"}},"type":"Feature"},
	{"geometry":{"coordinates":[-8.148723,6.074051],"type":"Point"},"properties":{"osm_id":"5006063728","tag":{"addr:city":"Zwedru","addr:street":"Breeze Street","amenity":"waste_disposal","waste":"trash"}},"type":"Feature"},
	{"geometry":{"coordinates":[-8.147489,6.075011],"type":"Point"},"properties":{"osm_id":"5006063731","tag":{"addr:city":"Zwedru","addr:street":"Breeze Street","amenity":"waste_disposal","waste":"trash"}},"type":"Feature"},
	{"geometry":{"coordinates":[-8.142277,6.075497],"type":"Point"},"properties":{"osm_id":"5006063738","tag":{"addr:city":"Zwedru","addr:street":"Breeze Street","amenity":"waste_disposal","waste":"trash"}},"type":"Feature"},
	{"geometry":{"coordinates":[-8.140656,6.076097],"type":"Point"},"properties":{"osm_id":"5006063744","tag":{"addr:city":"Zwedru","addr:street":"Kudah Bypass","amenity":"waste_disposal","waste":"trash"}},"type":"Feature"},
	{"geometry":{"coordinates":[-8.139809,6.07649],"type":"Point"},"properties":{"osm_id":"5006063747","tag":{"addr:city":"Zwedru","addr:street":"Breeze Street","amenity":"waste_disposal","waste":"trash"}},"type":"Feature"},
	{"geometry":{"coordinates":[-8.138208,6.076942],"type":"Point"},"properties":{"osm_id":"5006063751","tag":{"addr:city":"Zwedru","addr:street":"Dweh Street","amenity":"waste_disposal","fee":"no","waste":"trash"}},"type":"Feature"},
	{"geometry":{"coordinates":[-8.136914,6.076786],"type":"Point"},"properties":{"osm_id":"5006063759","tag":{"addr:city":"Zwedru","addr:street":"Breeze Street","amenity":"waste_disposal","fee":"no","waste":"trash"}},"type":"Feature"},
	{"geometry":{"coordinates":[-8.128895,6.061878],"type":"Point"},"properties":{"osm_id":"5022650823","tag":{"addr:city":"Zwedru","addr:street":"Zoe Bush Road","amenity":"waste_disposal","waste":"trash"}},"type":"Feature"},
	{"geometry":{"coordinates":[-8.140419,6.056458],"type":"Point"},"properties":{"osm_id":"5027190507","tag":{"addr:city":"Zwedru","addr:street":"Sinoe Road","amenity":"waste_disposal","dump:official":"no","fee":"no","waste":"trash"}},"type":"Feature"},
	{"geometry":{"coordinates":[-8.140429,6.055103],"type":"Point"},"properties":{"osm_id":"5027190721","tag":{"addr:city":"Zwedru","addr:street":"Sinoe Road","amenity":"waste_disposal","waste":"trash"}},"type":"Feature"},
	{"geometry":{"coordinates":[-8.123944,6.09527],"type":"Point"},"properties":{"osm_id":"5037494841","tag":{"addr:city":"Zwedru","addr:street":"Naio Road","amenity":"waste_disposal","waste":"trash"}},"type":"Feature"},
	{"geometry":{"coordinates":[-8.128582,6.08771],"type":"Point"},"properties":{"osm_id":"5037494856","tag":{"addr:city":"Zwedru","addr:street":"Naio Road","amenity":"waste_disposal","waste":"trash"}},"type":"Feature"},
	{"geometry":{"coordinates":[-8.129952,6.086839],"type":"Point"},"properties":{"osm_id":"5037494865","tag":{"addr:city":"Zwedru","addr:street":"Naio Road","amenity":"waste_disposal","waste":"trash"}},"type":"Feature"},
	{"geometry":{"coordinates":[-8.131301,6.085611],"type":"Point"},"properties":{"osm_id":"5037494873","tag":{"addr:city":"Zwedru","amenity":"waste_disposal","waste":"trash"}},"type":"Feature"},
	{"geometry":{"coordinates":[-8.132206,6.086063],"type":"Point"},"properties":{"osm_id":"5037494876","tag":{"addr:city":"Zwedru","addr:street":"Naio Road","amenity":"waste_disposal","waste":"trash"}},"type":"Feature"},
	{"geometry":{"coordinates":[-8.13017,6.068453],"type":"Point"},"properties":{"osm_id":"6145955704","tag":{"addr:city":"Zwedru","amenity":"waste_disposal","dump:official":"no","fee":"no","operator":"Society For Poverty Reduction (SOPORD)","waste":"trash","waste:collection":"transitional_site"}},"type":"Feature"},
	{"geometry":{"coordinates":[-8.13068,6.07018],"type":"Point"},"properties":{"osm_id":"6145955707","tag":{"addr:city":"Zwedru","amenity":"waste_disposal","dump:official":"yes","fee":"yes","operator":"Society For Poverty Reduction (SOPORD)","provider":"city_corporation","waste":"trash","waste:collection":"transitional_site"}},"type":"Feature"},
	{"geometry":{"coordinates":[-8.132006,6.070965],"type":"Point"},"properties":{"osm_id":"6145955715","tag":{"addr:city":"Zwedru","amenity":"waste_disposal","dump:official":"yes","fee":"yes","operator":"Society For Poverty Reduction (SOPORD)","provider":"city_corporation","waste":"trash","waste:collection":"community_bin"}},"type":"Feature"},
	{"geometry":{"coordinates":[-8.13293,6.070983],"type":"Point"},"properties":{"osm_id":"6145955716","tag":{"addr:city":"Zwedru","amenity":"waste_disposal","dump:official":"no","fee":"no","operator":"Society For Poverty Reduction (SOPORD)","waste":"trash","waste:collection":"community_bin"}},"type":"Feature"},
	{"geometry":{"coordinates":[-8.130546,6.069125],"type":"Point"},"properties":{"osm_id":"6145955718","tag":{"addr:city":"Zwedru","amenity":"waste_disposal","dump:official":"no","fee":"no","operator":"Society For Poverty Reduction (SOPORD)","waste":"trash","waste:collection":"transitional_site"}},"type":"Feature"},
	{"geometry":{"coordinates":[-8.132912,6.069768],"type":"Point"},"properties":{"osm_id":"6145955724","tag":{"addr:city":"Zwedru","amenity":"waste_disposal","dump:official":"no","fee":"no","operator":"Society For Poverty Reduction (SOPORD)","waste":"trash","waste:collection":"transitional_site"}},"type":"Feature"},
	{"geometry":{"coordinates":[-8.133505,6.070155],"type":"Point"},"properties":{"osm_id":"6145955725","tag":{"addr:city":"Zwedru","amenity":"waste_disposal","dump:official":"no","fee":"no","operator":"Society For Poverty Reduction (SOPORD)","waste":"trash","waste:collection":"transitional_site"}},"type":"Feature"},
	{"geometry":{"coordinates":[-8.129984,6.070007],"type":"Point"},"properties":{"osm_id":"6145955729","tag":{"addr:city":"Zwedru","amenity":"waste_disposal","dump:official":"yes","fee":"no","operator":"Society For Poverty Reduction (SOPORD)","provider":"city_corporation","waste":"trash"}},"type":"Feature"},
	{"geometry":{"coordinates":[-8.133854,6.068701],"type":"Point"},"properties":{"osm_id":"6145955731","tag":{"addr:city":"Zwedru","amenity":"waste_disposal","dump:official":"yes","fee":"no","operator":"Society For Poverty Reduction (SOPORD)","provider":"city_corporation","waste":"trash","waste:collection":"transitional_site"}},"type":"Feature"},
	{"geometry":{"coordinates":[-8.13029,6.069775],"type":"Point"},"properties":{"osm_id":"6145955733","tag":{"addr:city":"Zwedru","amenity":"waste_disposal","dump:official":"yes","fee":"no","operator":"Society For Poverty Reduction (SOPORD)","provider":"city_corporation","waste":"trash"}},"type":"Feature"},
	{"geometry":{"coordinates":[-8.128774,6.06926],"type":"Point"},"properties":{"osm_id":"6145955734","tag":{"addr:city":"Zwedru","amenity":"waste_disposal","dump:official":"no","fee":"no","operator":"Society For Poverty Reduction (SOPORD)","waste":"trash","waste:collection":"transitional_site"}},"type":"Feature"},
	{"geometry":{"coordinates":[-8.13235,6.071469],"type":"Point"},"properties":{"osm_id":"6145955735","tag":{"addr:city":"Zwedru","amenity":"waste_disposal","dump:official":"yes","fee":"yes","operator":"Society For Poverty Reduction (SOPORD)","waste":"trash","waste:collection":"transitional_site"}},"type":"Feature"},
	{"geometry":{"coordinates":[-8.12851,6.069012],"type":"Point"},"properties":{"osm_id":"6145955738","tag":{"addr:city":"Zwedru","amenity":"waste_disposal","dump:official":"no","fee":"no","operator":"Society For Poverty Reduction (SOPORD)","waste":"trash","waste:collection":"transitional_site"}},"type":"Feature"},
	{"geometry":{"coordinates":[-8.12848,6.069392],"type":"Point"},"properties":{"osm_id":"6145955740","tag":{"addr:city":"Zwedru","amenity":"waste_disposal","dump:official":"no","fee":"no","operator":"Society For Poverty Reduction (SOPORD)","waste":"trash","waste:collection":"community_bin"}},"type":"Feature"},
	{"geometry":{"coordinates":[-8.131481,6.070023],"type":"Point"},"properties":{"osm_id":"6145955748","tag":{"addr:city":"Zwedru","amenity":"waste_disposal","dump:official":"no","fee":"no","operator":"Society For Poverty Reduction (SOPORD)","waste":"trash","waste:collection":"community_bin"}},"type":"Feature"},
	{"geometry":{"coordinates":[-8.127716,6.0689],"type":"Point"},"properties":{"osm_id":"6145955750","tag":{"addr:city":"Zwedru","amenity":"waste_disposal","dump:official":"no","fee":"no","operator":"Society For Poverty Reduction (SOPORD)","waste":"trash","waste:collection":"transitional_site"}},"type":"Feature"},
	{"geometry":{"coordinates":[-8.133383,6.070328],"type":"Point"},"properties":{"osm_id":"6145955755","tag":{"addr:city":"Zwedru","amenity":"waste_disposal","dump:official":"no","fee":"yes","operator":"Society For Poverty Reduction (SOPORD)","waste":"trash","waste:collection":"transitional_site"}},"type":"Feature"},
	{"geometry":{"coordinates":[-8.133531,6.068678],"type":"Point"},"properties":{"osm_id":"6145955764","tag":{"addr:city":"Zwedru","amenity":"waste_disposal","dump:official":"no","fee":"yes","operator":"Society For Poverty Reduction (SOPORD)","waste":"trash","waste:collection":"transitional_site"}},"type":"Feature"},
	{"geometry":{"coordinates":[-8.129423,6.06919],"type":"Point"},"properties":{"osm_id":"6145955765","tag":{"addr:city":"Zwedru","amenity":"waste_disposal","dump:official":"no","fee":"no","operator":"Society For Poverty Reduction (SOPORD)","waste":"trash","waste:collection":"transitional_site"}},"type":"Feature"},
	{"geometry":{"coordinates":[-8.13229,6.070842],"type":"Point"},"properties":{"osm_id":"6145955766","tag":{"addr:city":"Zwedru","amenity":"waste_disposal","dump:official":"no","fee":"no","operator":"Society For Poverty Reduction (SOPORD)","waste":"trash","waste:collection":"community_bin"}},"type":"Feature"},
	{"geometry":{"coordinates":[-8.131991,6.070008],"type":"Point"},"properties":{"osm_id":"6145955768","tag":{"addr:city":"Zwedru","amenity":"waste_disposal","dump:official":"no","fee":"no","operator":"Society For Poverty Reduction (SOPORD)","waste":"trash","waste:collection":"community_bin"}},"type":"Feature"},
	{"geometry":{"coordinates":[-8.132178,6.068681],"type":"Point"},"properties":{"osm_id":"6145955769","tag":{"addr:city":"Zwedru","amenity":"waste_disposal","dump:official":"yes","fee":"yes","operator":"Society For Poverty Reduction (SOPORD)","provider":"city_corporation","waste":"trash","waste:collection":"transitional_site"}},"type":"Feature"},
	{"geometry":{"coordinates":[-8.131816,6.070669],"type":"Point"},"properties":{"osm_id":"6145955776","tag":{"addr:city":"Zwedru","amenity":"waste_disposal","dump:official":"no","fee":"no","operator":"Society For Poverty Reduction (SOPORD)","waste":"trash","waste:collection":"community_bin"}},"type":"Feature"},
	{"geometry":{"coordinates":[-8.133274,6.070867],"type":"Point"},"properties":{"osm_id":"6145955784","tag":{"addr:city":"Zwedru","amenity":"waste_disposal","dump:official":"no","fee":"no","operator":"Society For Poverty Reduction (SOPORD)","waste":"trash","waste:collection":"transitional_site"}},"type":"Feature"},
	{"geometry":{"coordinates":[-8.132446,6.068805],"type":"Point"},"properties":{"osm_id":"6145956386","tag":{"addr:city":"Zwedru","amenity":"waste_disposal","dump:official":"no","fee":"yes","operator":"Society For Poverty Reduction (SOPORD)","waste":"trash","waste:collection":"transitional_site"}},"type":"Feature"},
	{"geometry":{"coordinates":[-8.131479,6.075439],"type":"Point"},"properties":{"osm_id":"6145956392","tag":{"addr:city":"Zwedru","amenity":"waste_disposal","dump:official":"yes","fee":"yes","operator":"Society For Poverty Reduction (SOPORD)","provider":"city_corporation","waste":"trash","waste:collection":"transitional_site"}},"type":"Feature"},
	{"geometry":{"coordinates":[-8.131905,6.069418],"type":"Point"},"properties":{"osm_id":"6145956394","tag":{"addr:city":"Zwedru","amenity":"waste_disposal","dump:official":"no","fee":"no","operator":"Society For Poverty Reduction (SOPORD)","waste":"trash","waste:collection":"community_bin"}},"type":"Feature"},
	{"geometry":{"coordinates":[-8.130624,6.069622],"type":"Point"},"properties":{"osm_id":"6145956395","tag":{"addr:city":"Zwedru","amenity":"waste_disposal","dump:official":"no","fee":"no","operator":"Society For Poverty Reduction (SOPORD)","waste":"trash","waste:collection":"transitional_site"}},"type":"Feature"},
	{"geometry":{"coordinates":[-8.130606,6.069338],"type":"Point"},"properties":{"osm_id":"6145956400","tag":{"addr:city":"Zwedru","amenity":"waste_disposal","dump:official":"no","fee":"no","operator":"Society For Poverty Reduction (SOPORD)","waste":"trash","waste:collection":"transitional_site"}},"type":"Feature"},
	{"geometry":{"coordinates":[-8.130206,6.069751],"type":"Point"},"properties":{"osm_id":"6145956412","tag":{"addr:city":"Zwedru","amenity":"waste_disposal","dump:official":"yes","fee":"no","operator":"Society For Poverty Reduction (SOPORD)","provider":"city_corporation","waste":"trash"}},"type":"Feature"},
	{"geometry":{"coordinates":[-8.131614,6.068696],"type":"Point"},"properties":{"osm_id":"6145956419","tag":{"addr:city":"Zwedru","amenity":"waste_disposal","dump:official":"no","fee":"yes","operator":"Society For Poverty Reduction (SOPORD)","waste":"trash","waste:collection":"transitional_site"}},"type":"Feature"},
	{"geometry":{"coordinates":[-8.131108,6.070588],"type":"Point"},"properties":{"osm_id":"6145956427","tag":{"addr:city":"Zwedru","amenity":"waste_disposal","dump:official":"no","fee":"no","operator":"Society For Poverty Reduction (SOPORD)","waste":"trash","waste:collection":"community_bin"}},"type":"Feature"},
	{"geometry":{"coordinates":[-8.132486,6.070983],"type":"Point"},"properties":{"osm_id":"6145956428","tag":{"addr:city":"Zwedru","amenity":"waste_disposal","dump:official":"no","fee":"no","operator":"Society For Poverty Reduction (SOPORD)","waste":"trash","waste:collection":"community_bin"}},"type":"Feature"},
	{"geometry":{"coordinates":[-8.130714,6.07051],"type":"Point"},"properties":{"osm_id":"6145956432","tag":{"addr:city":"Zwedru","amenity":"waste_disposal","dump:official":"no","fee":"no","operator":"Society For Poverty Reduction (SOPORD)","waste":"trash","waste:collection":"transitional_site"}},"type":"Feature"},
	{"geometry":{"coordinates":[-8.127717,6.069056],"type":"Point"},"properties":{"osm_id":"6145956436","tag":{"addr:city":"Zwedru","amenity":"waste_disposal","dump:official":"yes","fee":"yes","operator":"Society For Poverty Reduction (SOPORD)","provider":"city_corporation","waste":"trash","waste:collection":"transitional_site"}},"type":"Feature"},
	{"geometry":{"coordinates":[-8.129094,6.068698],"type":"Point"},"properties":{"osm_id":"6145956441","tag":{"addr:city":"Zwedru","amenity":"waste_disposal","dump:official":"no","fee":"no","operator":"Society For Poverty Reduction (SOPORD)","waste":"trash","waste:collection":"transitional_site"}},"type":"Feature"},
	{"geometry":{"coordinates":[-8.130539,6.070254],"type":"Point"},"properties":{"osm_id":"6145956444","tag":{"addr:city":"Zwedru","amenity":"waste_disposal","dump:official":"no","fee":"no","waste":"trash"}},"type":"Feature"},
	{"geometry":{"coordinates":[-8.128787,6.069462],"type":"Point"},"properties":{"osm_id":"6145956445","tag":{"addr:city":"Zwedru","amenity":"waste_disposal","dump:official":"no","fee":"no","operator":"Society For Poverty Reduction (SOPORD)","waste":"trash","waste:collection":"community_bin"}},"type":"Feature"},
	{"geometry":{"coordinates":[-8.128496,6.069202],"type":"Point"},"properties":{"osm_id":"6145956446","tag":{"addr:city":"Zwedru","amenity":"waste_disposal","dump:official":"no","fee":"no","operator":"Society For Poverty Reduction (SOPORD)","waste":"trash","waste:collection":"transitional_site"}},"type":"Feature"},
	{"geometry":{"coordinates":[-8.130006,6.067741],"type":"Point"},"properties":{"osm_id":"6145956447","tag":{"addr:city":"Zwedru","amenity":"waste_disposal","dump:official":"no","fee":"no","waste":"trash"}},"type":"Feature"},
	{"geometry":{"coordinates":[-8.130731,6.070403],"type":"Point"},"properties":{"osm_id":"6145956448","tag":{"addr:city":"Zwedru","amenity":"waste_disposal","dump:official":"yes","fee":"no","operator":"Society For Poverty Reduction (SOPORD)","waste":"trash","waste:collection":"transitional_site"}},"type":"Feature"},
	{"geometry":{"coordinates":[-8.132096,6.070613],"type":"Point"},"properties":{"osm_id":"6145956449","tag":{"addr:city":"Zwedru","amenity":"waste_disposal","dump:official":"no","fee":"no","operator":"Society For Poverty Reduction (SOPORD)","waste":"trash","waste:collection":"community_bin"}},"type":"Feature"},
	{"geometry":{"coordinates":[-8.128466,6.069567],"type":"Point"},"properties":{"osm_id":"6145956452","tag":{"addr:city":"Zwedru","amenity":"waste_disposal","dump:official":"no","fee":"no","operator":"Society For Poverty Reduction (SOPORD)","waste":"trash","waste:collection":"transitional_site"}},"type":"Feature"},
	{"geometry":{"coordinates":[-8.130912,6.069701],"type":"Point"},"properties":{"osm_id":"6145956454","tag":{"addr:city":"Zwedru","amenity":"waste_disposal","dump:official":"no","fee":"no","operator":"Society For Poverty Reduction (SOPORD)","waste":"trash","waste:collection":"transitional_site"}},"type":"Feature"},
	{"geometry":{"coordinates":[-8.129763,6.068505],"type":"Point"},"properties":{"osm_id":"6145956456","tag":{"addr:city":"Zwedru","amenity":"waste_disposal","dump:official":"no","fee":"no","operator":"Society For Poverty Reduction (SOPORD)","waste":"trash","waste:collection":"transitional_site"}},"type":"Feature"},
	{"geometry":{"coordinates":[-8.131277,6.069756],"type":"Point"},"properties":{"osm_id":"6145956457","tag":{"addr:city":"Zwedru","amenity":"waste_disposal","dump:official":"no","fee":"no","operator":"Society For Poverty Reduction (SOPORD)","waste":"trash","waste:collection":"community_bin"}},"type":"Feature"},
	{"geometry":{"coordinates":[-8.133296,6.068649],"type":"Point"},"properties":{"osm_id":"6145956459","tag":{"addr:city":"Zwedru","amenity":"waste_disposal","dump:official":"no","fee":"yes","operator":"Society For Poverty Reduction (SOPORD)","waste":"trash","waste:collection":"transitional_site"}},"type":"Feature"},
	{"geometry":{"coordinates":[-8.128245,6.069041],"type":"Point"},"properties":{"osm_id":"6145956464","tag":{"addr:city":"Zwedru","amenity":"waste_disposal","dump:official":"no","fee":"no","operator":"Society For Poverty Reduction (SOPORD)","waste":"trash","waste:collection":"transitional_site"}},"type":"Feature"},
	{"geometry":{"coordinates":[-8.130363,6.069775],"type":"Point"},"properties":{"osm_id":"6145956466","tag":{"addr:city":"Zwedru","amenity":"waste_disposal","dump:official":"yes","fee":"no","operator":"Society For Poverty Reduction (SOPORD)","provider":"city_corporation","waste":"trash"}},"type":"Feature"},
	{"geometry":{"coordinates":[-8.132904,6.068648],"type":"Point"},"properties":{"osm_id":"6145956467","tag":{"addr:city":"Zwedru","amenity":"waste_disposal","dump:official":"yes","fee":"yes","operator":"Society For Poverty Reduction (SOPORD)","provider":"city_corporation","waste":"trash","waste:collection":"transitional_site"}},"type":"Feature"},
	{"geometry":{"coordinates":[-8.127738,6.069534],"type":"Point"},"properties":{"osm_id":"6145956468","tag":{"addr:city":"Zwedru","amenity":"waste_disposal","dump:official":"no","fee":"yes","operator":"Society For Poverty Reduction (SOPORD)","waste":"trash","waste:collection":"transitional_site"}},"type":"Feature"},
	{"geometry":{"coordinates":[-8.130981,6.06948],"type":"Point"},"properties":{"osm_id":"6145956476","tag":{"addr:city":"Zwedru","amenity":"waste_disposal","dump:official":"no","fee":"no","operator":"Society For Poverty Reduction (SOPORD)","waste":"trash","waste:collection":"transitional_site"}},"type":"Feature"},
	{"geometry":{"coordinates":[-8.129047,6.068945],"type":"Point"},"properties":{"osm_id":"6145956481","tag":{"addr:city":"Zwedru","amenity":"waste_disposal","dump:official":"no","fee":"no","operator":"Society For Poverty Reduction (SOPORD)","waste":"trash","waste:collection":"transitional_site"}},"type":"Feature"},
	{"geometry":{"coordinates":[-8.130333,6.068515],"type":"Point"},"properties":{"osm_id":"6145956483","tag":{"addr:city":"Zwedru","amenity":"waste_disposal","dump:official":"no","fee":"no","operator":"Society For Poverty Reduction (SOPORD)","waste":"trash","waste:collection":"transitional_site"}},"type":"Feature"},
	{"geometry":{"coordinates":[-8.131624,6.070406],"type":"Point"},"properties":{"osm_id":"6145956686","tag":{"addr:city":"Zwedru","amenity":"waste_disposal","dump:official":"no","fee":"no","operator":"Society For Poverty Reduction (SOPORD)","waste":"trash","waste:collection":"community_bin"}},"type":"Feature"},
	{"geometry":{"coordinates":[-8.129024,6.069104],"type":"Point"},"properties":{"osm_id":"6145956687","tag":{"addr:city":"Zwedru","amenity":"waste_disposal","dump:official":"no","fee":"no","operator":"Society For Poverty Reduction (SOPORD)","waste":"trash","waste:collection":"transitional_site"}},"type":"Feature"},
	{"geometry":{"coordinates":[-8.129142,6.07141],"type":"Point"},"properties":{"osm_id":"6145956689","tag":{"addr:city":"Zwedru","amenity":"waste_disposal","dump:official":"yes","fee":"no","operator":"Society For Poverty Reduction (SOPORD)","provider":"city_corporation","waste":"trash"}},"type":"Feature"},
	{"geometry":{"coordinates":[-8.135609,6.069018],"type":"Point"},"properties":{"osm_id":"6146138900","tag":{"addr:city":"Zwedru","amenity":"waste_basket","dump:official":"no","fee":"no","operator":"Society For Poverty Reduction (SOPORD)","waste":"trash","waste:collection":"commercial_bin"}},"type":"Feature"},
	{"geometry":{"coordinates":[-8.137939,6.064617],"type":"Point"},"properties":{"osm_id":"6146138902","tag":{"addr:city":"Zwedru","addr:street":"Broad Street","amenity":"waste_disposal","dump:official":"yes","fee":"no","provider":"city_corporation","waste":"trash","waste:collection":"transitional_site"}},"type":"Feature"},
	{"geometry":{"coordinates":[-8.133956,6.07069],"type":"Point"},"properties":{"osm_id":"6146138903","tag":{"addr:city":"Zwedru","amenity":"waste_disposal","dump:official":"yes","fee":"yes","operator":"Society For Poverty Reduction (SOPORD)","provider":"city_corporation","waste":"trash","waste:collection":"community_bin"}},"type":"Feature"},
	{"geometry":{"coordinates":[-8.134678,6.070418],"type":"Point"},"properties":{"osm_id":"6146138907","tag":{"addr:city":"Zwedru","amenity":"waste_disposal","dump:official":"yes","fee":"yes","operator":"Society For Poverty Reduction (SOPORD)","provider":"city_corporation","waste":"trash","waste:collection":"community_bin"}},"type":"Feature"},
	{"geometry":{"coordinates":[-8.139404,6.067632],"type":"Point"},"properties":{"osm_id":"6146138913","tag":{"addr:city":"Zwedru","amenity":"waste_disposal","dump:official":"no","fee":"no","waste":"trash"}},"type":"Feature"},
	{"geometry":{"coordinates":[-8.137935,6.0644],"type":"Point"},"properties":{"osm_id":"6146138938","tag":{"addr:city":"Zwedru","addr:street":"Moses P. Harris Street","amenity":"waste_disposal","dump:official":"no","fee":"no","waste":"trash","waste:collection":"transitional_site"}},"type":"Feature"},
	{"geometry":{"coordinates":[-8.135316,6.068834],"type":"Point"},"properties":{"osm_id":"6146138947","tag":{"addr:city":"Zwedru","amenity":"waste_disposal","dump:official":"no","fee":"no","operator":"Society For Poverty Reduction (SOPORD)","waste":"trash","waste:collection":"community_bin"}},"type":"Feature"},
	{"geometry":{"coordinates":[-8.134695,6.071065],"type":"Point"},"properties":{"osm_id":"6146138952","tag":{"addr:city":"Zwedru","amenity":"waste_disposal","dump:official":"yes","fee":"yes","operator":"Society For Poverty Reduction (SOPORD)","provider":"city_corporation","waste":"trash","waste:collection":"community_bin"}},"type":"Feature"},
	{"geometry":{"coordinates":[-8.139386,6.062739],"type":"Point"},"properties":{"name":"USAID, Keep Zwedru Clean","osm_id":"6146138968","tag":{"addr:city":"Zwedru","amenity":"waste_disposal","dump:official":"yes","fee":"yes","operator":"Society For Poverty Reduction (SOPORD)","provider":"city_corporation","waste":"trash","waste:collection":"transitional_site"}},"type":"Feature"},
	{"geometry":{"coordinates":[-8.135796,6.063588],"type":"Point"},"properties":{"osm_id":"6146138976","tag":{"addr:city":"Zwedru","addr:street":"Doe Street","amenity":"waste_disposal","dump:official":"yes","fee":"no","provider":"city_corporation","waste":"trash","waste:collection":"transitional_site"}},"type":"Feature"},
	{"geometry":{"coordinates":[-8.13871,6.068926],"type":"Point"},"properties":{"osm_id":"6146138977","tag":{"addr:city":"Zwedru","amenity":"waste_disposal","dump:official":"no","fee":"no","waste":"trash","waste:collection":"community_bin"}},"type":"Feature"},
	{"geometry":{"coordinates":[-8.135001,6.069067],"type":"Point"},"properties":{"osm_id":"6146138984","tag":{"addr:city":"Zwedru","amenity":"waste_basket","dump:official":"yes","fee":"no","operator":"Society For Poverty Reduction (SOPORD)","provider":"city_corporation","waste":"trash","waste:collection":"commercial_bin"}},"type":"Feature"},
	{"geometry":{"coordinates":[-8.137652,6.068905],"type":"Point"},"properties":{"osm_id":"6146139388","tag":{"addr:city":"Zwedru","amenity":"waste_disposal","dump:official":"yes","fee":"no","operator":"Society For Poverty Reduction (SOPORD)","provider":"city_corporation","waste":"trash","waste:collection":"transitional_site"}},"type":"Feature"},
	{"geometry":{"coordinates":[-8.138818,6.065436],"type":"Point"},"properties":{"osm_id":"6146139389","tag":{"addr:city":"Zwedru","amenity":"waste_disposal","dump:official":"yes","fee":"yes","operator":"Society For Poverty Reduction (SOPORD)","provider":"city_corporation","waste":"trash","waste:collection":"transitional_site"}},"type":"Feature"},
	{"geometry":{"coordinates":[-8.140087,6.063777],"type":"Point"},"properties":{"osm_id":"6146139392","tag":{"addr:city":"Zwedru","amenity":"waste_disposal","dump:official":"yes","fee":"yes","operator":"Society For Poverty Reduction (SOPORD)","provider":"city_corporation","waste":"trash","waste:collection":"transitional_site"}},"type":"Feature"},
	{"geometry":{"coordinates":[-8.136412,6.068911],"type":"Point"},"properties":{"osm_id":"6146139394","tag":{"addr:city":"Zwedru","amenity":"waste_disposal","dump:official":"no","fee":"no","waste":"trash","waste:collection":"community_bin"}},"type":"Feature"},
	{"geometry":{"coordinates":[-8.13545,6.070114],"type":"Point"},"properties":{"osm_id":"6146139398","tag":{"addr:city":"Zwedru","amenity":"waste_basket","dump:official":"no","fee":"no","waste":"trash","waste:collection":"transitional_site"}},"type":"Feature"},
	{"geometry":{"coordinates":[-8.135496,6.068925],"type":"Point"},"properties":{"osm_id":"6146139401","tag":{"addr:city":"Zwedru","amenity":"waste_disposal","dump:official":"yes","fee":"no","operator":"Society For Poverty Reduction (SOPORD)","provider":"city_corporation","waste":"trash","waste:collection":"community_bin"}},"type":"Feature"},
	{"geometry":{"coordinates":[-8.135317,6.071165],"type":"Point"},"properties":{"osm_id":"6146139414","tag":{"addr:city":"Zwedru","amenity":"waste_disposal","dump:official":"no","fee":"no","operator":"Society For Poverty Reduction (SOPORD)","waste":"trash","waste:collection":"community_bin"}},"type":"Feature"},
	{"geometry":{"coordinates":[-8.134112,6.072688],"type":"Point"},"properties":{"osm_id":"6146139415","tag":{"addr:city":"Zwedru","amenity":"waste_disposal","dump:official":"yes","fee":"yes","operator":"Society For Poverty Reduction (SOPORD)","provider":"city_corporation","waste":"trash","waste:collection":"community_bin"}},"type":"Feature"},
	{"geometry":{"coordinates":[-8.134792,6.07038],"type":"Point"},"properties":{"osm_id":"6146139426","tag":{"addr:city":"Zwedru","amenity":"waste_disposal","dump:official":"yes","fee":"no","operator":"Society For Poverty Reduction (SOPORD)","provider":"city_corporation","waste":"trash","waste:collection":"community_bin"}},"type":"Feature"},
	{"geometry":{"coordinates":[-8.1341,6.071412],"type":"Point"},"properties":{"osm_id":"6146139427","tag":{"addr:city":"Zwedru","amenity":"waste_disposal","dump:official":"yes","fee":"yes","operator":"Society For Poverty Reduction (SOPORD)","provider":"city_corporation","waste":"trash","waste:collection":"community_bin"}},"type":"Feature"},
	{"geometry":{"coordinates":[-8.136224,6.066732],"type":"Point"},"properties":{"osm_id":"6146139433","tag":{"addr:city":"Zwedru","addr:street":"Moses P. Harris Street","amenity":"waste_disposal","dump:official":"no","fee":"no","waste":"trash"}},"type":"Feature"},
	{"geometry":{"coordinates":[-8.134662,6.071496],"type":"Point"},"properties":{"osm_id":"6146139434","tag":{"addr:city":"Zwedru","amenity":"waste_disposal","dump:official":"no","fee":"no","operator":"Society For Poverty Reduction (SOPORD)","waste":"trash","waste:collection":"community_bin"}},"type":"Feature"},
	{"geometry":{"coordinates":[-8.139362,6.067825],"type":"Point"},"properties":{"osm_id":"6146139442","tag":{"addr:city":"Zwedru","amenity":"waste_disposal","dump:official":"no","fee":"no","waste":"trash","waste:collection":"community_bin"}},"type":"Feature"},
	{"geometry":{"coordinates":[-8.133549,6.071133],"type":"Point"},"properties":{"osm_id":"6146139451","tag":{"addr:city":"Zwedru","amenity":"waste_disposal","dump:official":"yes","fee":"yes","operator":"Society For Poverty Reduction (SOPORD)","provider":"city_corporation","waste":"trash","waste:collection":"community_bin"}},"type":"Feature"},
	{"geometry":{"coordinates":[-8.136737,6.069263],"type":"Point"},"properties":{"osm_id":"6146139452","tag":{"addr:city":"Zwedru","amenity":"waste_disposal","dump:official":"no","fee":"no","waste":"trash","waste:collection":"community_bin"}},"type":"Feature"},
	{"geometry":{"coordinates":[-8.136194,6.068941],"type":"Point"},"properties":{"osm_id":"6146139453","tag":{"addr:city":"Zwedru","amenity":"waste_disposal","dump:official":"no","fee":"no","waste":"trash","waste:collection":"community_bin"}},"type":"Feature"},
	{"geometry":{"coordinates":[-8.133664,6.072208],"type":"Point"},"properties":{"osm_id":"6146139456","tag":{"addr:city":"Zwedru","amenity":"waste_disposal","dump:official":"yes","fee":"yes","operator":"Society For Poverty Reduction (SOPORD)","provider":"city_corporation","waste":"trash","waste:collection":"community_bin"}},"type":"Feature"},
	{"geometry":{"coordinates":[-8.135976,6.068671],"type":"Point"},"properties":{"osm_id":"6146139461","tag":{"addr:city":"Zwedru","amenity":"waste_disposal","dump:official":"no","fee":"no","waste":"trash","waste:collection":"community_bin"}},"type":"Feature"},
	{"geometry":{"coordinates":[-8.136117,6.068762],"type":"Point"},"properties":{"osm_id":"6146139468","tag":{"addr:city":"Zwedru","amenity":"waste_disposal","dump:official":"no","fee":"no","waste":"trash","waste:collection":"community_bin"}},"type":"Feature"},
	{"geometry":{"coordinates":[-8.138415,6.063335],"type":"Point"},"properties":{"osm_id":"6146139470","tag":{"addr:city":"Zwedru","addr:street":"Moses P. Harris Street","amenity":"waste_disposal","dump:official":"no","fee":"no","waste":"trash","waste:collection":"transitional_site"}},"type":"Feature"},
	{"geometry":{"coordinates":[-8.13933,6.068096],"type":"Point"},"properties":{"osm_id":"6146139471","tag":{"addr:city":"Zwedru","amenity":"waste_disposal","dump:official":"no","fee":"no","waste":"trash","waste:collection":"community_bin"}},"type":"Feature"},
	{"geometry":{"coordinates":[-8.140555,6.073514],"type":"Point"},"properties":{"osm_id":"6146139696","tag":{"addr:city":"Zwedru","amenity":"waste_disposal","dump:official":"no","fee":"no","waste":"trash"}},"type":"Feature"},
	{"geometry":{"coordinates":[-8.136274,6.071216],"type":"Point"},"properties":{"osm_id":"6146139697","tag":{"addr:city":"Zwedru","amenity":"waste_disposal","dump:official":"yes","fee":"yes","operator":"Society For Poverty Reduction (SOPORD)","provider":"city_corporation","waste":"trash","waste:collection":"community_bin"}},"type":"Feature"},
	{"geometry":{"coordinates":[-8.136964,6.066124],"type":"Point"},"properties":{"osm_id":"6146139699","tag":{"addr:city":"Zwedru","addr:street":"Broad Street","amenity":"waste_disposal","dump:official":"no","fee":"no","waste":"trash","waste:collection":"transitional_site"}},"type":"Feature"},
	{"geometry":{"coordinates":[-8.133992,6.072928],"type":"Point"},"properties":{"osm_id":"6146139700","tag":{"addr:city":"Zwedru","amenity":"waste_disposal","dump:official":"yes","fee":"no","operator":"Society For Poverty Reduction (SOPORD)","waste":"trash","waste:collection":"community_bin"}},"type":"Feature"},
	{"geometry":{"coordinates":[-8.134873,6.071021],"type":"Point"},"properties":{"osm_id":"6146139714","tag":{"addr:city":"Zwedru","amenity":"waste_disposal","dump:official":"yes","fee":"yes","operator":"Society For Poverty Reduction (SOPORD)","provider":"city_corporation","waste":"trash","waste:collection":"community_bin"}},"type":"Feature"},
	{"geometry":{"coordinates":[-8.134085,6.072213],"type":"Point"},"properties":{"osm_id":"6146139724","tag":{"addr:city":"Zwedru","amenity":"waste_disposal","dump:official":"yes","fee":"yes","operator":"Society For Poverty Reduction (SOPORD)","provider":"city_corporation","waste":"trash","waste:collection":"community_bin"}},"type":"Feature"},
	{"geometry":{"coordinates":[-8.13533,6.06843],"type":"Point"},"properties":{"osm_id":"6146139733","tag":{"addr:city":"Zwedru","amenity":"waste_disposal","dump:official":"no","fee":"no","operator":"Society For Poverty Reduction (SOPORD)","waste":"trash"}},"type":"Feature"},
	{"geometry":{"coordinates":[-8.137479,6.065079],"type":"Point"},"properties":{"osm_id":"6146139738","tag":{"addr:city":"Zwedru","addr:street":"Moses P. Harris Street","amenity":"waste_disposal","dump:official":"no","fee":"no","waste":"trash","waste:collection":"transitional_site"}},"type":"Feature"},
	{"geometry":{"coordinates":[-8.135162,6.069994],"type":"Point"},"properties":{"osm_id":"6146139744","tag":{"addr:city":"Zwedru","amenity":"waste_disposal","dump:official":"yes","fee":"yes","operator":"Society For Poverty Reduction (SOPORD)","provider":"city_corporation","waste":"trash","waste:collection":"community_bin"}},"type":"Feature"},
	{"geometry":{"coordinates":[-8.13394,6.070005],"type":"Point"},"properties":{"osm_id":"6146139747","tag":{"addr:city":"Zwedru","amenity":"waste_disposal","dump:official":"yes","fee":"yes","operator":"Society For Poverty Reduction (SOPORD)","provider":"city_corporation","waste":"trash","waste:collection":"community_bin"}},"type":"Feature"},
	{"geometry":{"coordinates":[-8.136251,6.068162],"type":"Point"},"properties":{"osm_id":"6146139755","tag":{"addr:city":"Zwedru","addr:street":"Broad street","amenity":"waste_basket","dump:official":"yes","fee":"no","operator":"Society For Poverty Reduction (SOPORD)","provider":"city_corporation","waste":"trash","waste:collection":"transitional_site"}},"type":"Feature"},
	{"geometry":{"coordinates":[-8.137994,6.064716],"type":"Point"},"properties":{"osm_id":"6146139760","tag":{"addr:city":"Zwedru","addr:street":"Broad Street","amenity":"waste_disposal","dump:official":"yes","fee":"no","provider":"city_corporation","waste":"trash","waste:collection":"transitional_site"}},"type":"Feature"},
	{"geometry":{"coordinates":[-8.136361,6.069118],"type":"Point"},"properties":{"osm_id":"6146139765","tag":{"addr:city":"Zwedru","amenity":"waste_disposal","dump:official":"no","fee":"no","waste":"trash"}},"type":"Feature"},
	{"geometry":{"coordinates":[-8.142085,6.063753],"type":"Point"},"properties":{"osm_id":"6146139771","tag":{"addr:city":"Zwedru","amenity":"waste_disposal","dump:official":"yes","fee":"no","operator":"Society For Poverty Reduction (SOPORD)","provider":"city_corporation","waste":"trash","waste:collection":"transitional_site"}},"type":"Feature"},
	{"geometry":{"coordinates":[-8.137121,6.066086],"type":"Point"},"properties":{"osm_id":"6146139773","tag":{"addr:city":"Zwedru","addr:street":"Moses P. Harris Street","amenity":"waste_disposal","dump:official":"no","fee":"no","waste":"trash","waste:collection":"transitional_site"}},"type":"Feature"},
	{"geometry":{"coordinates":[-8.134495,6.068857],"type":"Point"},"properties":{"osm_id":"6146139779","tag":{"addr:city":"Zwedru","amenity":"waste_disposal","dump:official":"yes","fee":"yes","operator":"Society For Poverty Reduction (SOPORD)","provider":"city_corporation","waste":"trash","waste:collection":"commercial_bin"}},"type":"Feature"},
	{"geometry":{"coordinates":[-8.134843,6.069072],"type":"Point"},"properties":{"osm_id":"6146139782","tag":{"addr:city":"Zwedru","amenity":"waste_disposal","dump:official":"yes","fee":"yes","operator":"Society For Poverty Reduction (SOPORD)","provider":"city_corporation","waste":"trash","waste:collection":"community_bin"}},"type":"Feature"},
	{"geometry":{"coordinates":[-8.128664,6.066431],"type":"Point"},"properties":{"osm_id":"6146232564","tag":{"addr:city":"Zwedru","amenity":"waste_disposal","dump:official":"yes","fee":"no","operator":"Society For Poverty Reduction (SOPORD)","provider":"city_corporation","waste":"trash"}},"type":"Feature"},
	{"geometry":{"coordinates":[-8.130928,6.068649],"type":"Point"},"properties":{"osm_id":"6146232571","tag":{"addr:city":"Zwedru","addr:street":"Dehsuah Street","amenity":"waste_disposal","dump:official":"no","fee":"yes","operator":"Society For Poverty Reduction (SOPORD)","waste":"trash","waste:collection":"transitional_site"}},"type":"Feature"},
	{"geometry":{"coordinates":[-8.127497,6.065018],"type":"Point"},"properties":{"osm_id":"6146232575","tag":{"addr:city":"Zwedru","amenity":"waste_disposal","dump:official":"yes","fee":"no","operator":"Society For Poverty Reduction (SOPORD)","provider":"city_corporation","waste":"trash"}},"type":"Feature"},
	{"geometry":{"coordinates":[-8.129914,6.060834],"type":"Point"},"properties":{"osm_id":"6146232579","tag":{"addr:city":"Zwedru","amenity":"waste_disposal","dump:official":"yes","fee":"no","operator":"Society For Poverty Reduction (SOPORD)","provider":"city_corporation","waste":"trash"}},"type":"Feature"},
	{"geometry":{"coordinates":[-8.129563,6.066612],"type":"Point"},"properties":{"osm_id":"6146232584","tag":{"addr:city":"Zwedru","amenity":"waste_disposal","dump:official":"yes","fee":"no","operator":"Society For Poverty Reduction (SOPORD)","provider":"city_corporation","waste":"trash","waste:collection":"transitional_site"}},"type":"Feature"},
	{"geometry":{"coordinates":[-8.13361,6.068476],"type":"Point"},"properties":{"osm_id":"6146233688","tag":{"addr:city":"Zwedru","amenity":"waste_disposal","dump:official":"no","fee":"yes","operator":"Society For Poverty Reduction (SOPORD)","waste":"trash","waste:collection":"transitional_site"}},"type":"Feature"},
	{"geometry":{"coordinates":[-8.133017,6.066707],"type":"Point"},"properties":{"osm_id":"6146233689","tag":{"addr:city":"Zwedru","amenity":"waste_disposal","dump:official":"no","fee":"no","waste":"trash","waste:collection":"transitional_site"}},"type":"Feature"},
	{"geometry":{"coordinates":[-8.127847,6.064089],"type":"Point"},"properties":{"osm_id":"6146233692","tag":{"addr:city":"Zwedru","amenity":"waste_disposal","dump:official":"yes","fee":"yes","operator":"Society For Poverty Reduction (SOPORD)","provider":"city_corporation","waste":"trash","waste:collection":"transitional_site"}},"type":"Feature"},
	{"geometry":{"coordinates":[-8.133814,6.065877],"type":"Point"},"properties":{"osm_id":"6146233693","tag":{"addr:city":"Zwedru","addr:street":"Doe Street","amenity":"waste_disposal","dump:official":"yes","fee":"no","operator":"Society For Poverty Reduction (SOPORD)","provider":"city_corporation","waste":"trash","waste:collection":"transitional_site"}},"type":"Feature"},
	{"geometry":{"coordinates":[-8.133919,6.065339],"type":"Point"},"properties":{"osm_id":"6146233694","tag":{"addr:city":"Zwedru","addr:street":"Doe Street","amenity":"waste_disposal","dump:official":"yes","fee":"no","operator":"Society For Poverty Reduction (SOPORD)","provider":"city_corporation","waste":"trash","waste:collection":"transitional_site"}},"type":"Feature"},
	{"geometry":{"coordinates":[-8.127478,6.059865],"type":"Point"},"properties":{"osm_id":"6146233701","tag":{"addr:city":"Zwedru","amenity":"waste_disposal","dump:official":"yes","fee":"no","operator":"Society For Poverty Reduction (SOPORD)","provider":"city_corporation","waste":"trash"}},"type":"Feature"},
	{"geometry":{"coordinates":[-8.133801,6.065433],"type":"Point"},"properties":{"osm_id":"6146233705","tag":{"addr:city":"Zwedru","addr:street":"Doe Street","amenity":"waste_disposal","dump:official":"yes","fee":"no","operator":"Society For Poverty Reduction (SOPORD)","provider":"city_corporation","waste":"trash","waste:collection":"commercial_bin"}},"type":"Feature"},
	{"geometry":{"coordinates":[-8.131162,6.065772],"type":"Point"},"properties":{"osm_id":"6146233708","tag":{"addr:city":"Zwedru","amenity":"waste_disposal","dump:official":"yes","fee":"no","operator":"Society For Poverty Reduction (SOPORD)","provider":"city_corporation","waste":"trash"}},"type":"Feature"},
	{"geometry":{"coordinates":[-8.128708,6.066286],"type":"Point"},"properties":{"osm_id":"6146233712","tag":{"addr:city":"Zwedru","amenity":"waste_disposal","dump:official":"yes","fee":"no","operator":"Society For Poverty Reduction (SOPORD)","provider":"city_corporation","waste":"trash"}},"type":"Feature"},
	{"geometry":{"coordinates":[-8.133215,6.065741],"type":"Point"},"properties":{"osm_id":"6146233713","tag":{"addr:city":"Zwedru","amenity":"waste_basket","dump:official":"yes","fee":"no","operator":"Society For Poverty Reduction (SOPORD)","provider":"city_corporation","waste":"trash","waste:collection":"transitional_site"}},"type":"Feature"},
	{"geometry":{"coordinates":[-8.131746,6.068594],"type":"Point"},"properties":{"osm_id":"6146233716","tag":{"addr:city":"Zwedru","amenity":"waste_disposal","dump:official":"no","fee":"yes","operator":"Society For Poverty Reduction (SOPORD)","waste":"trash","waste:collection":"transitional_site"}},"type":"Feature"},
	{"geometry":{"coordinates":[-8.130412,6.065799],"type":"Point"},"properties":{"osm_id":"6146233720","tag":{"addr:city":"Zwedru","amenity":"waste_disposal","dump:official":"yes","fee":"no","operator":"Society For Poverty Reduction (SOPORD)","provider":"city_corporation","waste":"trash"}},"type":"Feature"},
	{"geometry":{"coordinates":[-8.130203,6.064234],"type":"Point"},"properties":{"osm_id":"6146233721","tag":{"addr:city":"Zwedru","amenity":"waste_disposal","dump:official":"yes","fee":"no","operator":"Society For Poverty Reduction (SOPORD)","provider":"city_corporation","waste":"trash"}},"type":"Feature"},
	{"geometry":{"coordinates":[-8.126919,6.065819],"type":"Point"},"properties":{"osm_id":"6146233723","tag":{"addr:city":"Zwedru","amenity":"waste_disposal","dump:official":"yes","fee":"no","operator":"Society For Poverty Reduction (SOPORD)","provider":"city_corporation","waste":"trash"}},"type":"Feature"},
	{"geometry":{"coordinates":[-8.132477,6.066297],"type":"Point"},"properties":{"osm_id":"6146233728","tag":{"addr:city":"Zwedru","amenity":"waste_disposal","dump:official":"no","fee":"no","operator":"Society For Poverty Reduction (SOPORD)","provider":"city_corporation","waste":"trash","waste:collection":"transitional_site"}},"type":"Feature"},
	{"geometry":{"coordinates":[-8.133888,6.068441],"type":"Point"},"properties":{"osm_id":"6146233729","tag":{"addr:city":"Zwedru","amenity":"waste_disposal","dump:official":"yes","fee":"yes","operator":"Society For Poverty Reduction (SOPORD)","provider":"city_corporation","waste":"trash","waste:collection":"transitional_site"}},"type":"Feature"},
	{"geometry":{"coordinates":[-8.133028,6.068502],"type":"Point"},"properties":{"osm_id":"6146233732","tag":{"addr:city":"Zwedru","amenity":"waste_disposal","dump:official":"no","fee":"yes","operator":"Society For Poverty Reduction (SOPORD)","waste":"trash","waste:collection":"transitional_site"}},"type":"Feature"},
	{"geometry":{"coordinates":[-8.131371,6.066577],"type":"Point"},"properties":{"osm_id":"6146233734","tag":{"addr:city":"Zwedru","amenity":"waste_disposal","dump:official":"no","fee":"no","waste":"trash"}},"type":"Feature"},
	{"geometry":{"coordinates":[-8.13126,6.065856],"type":"Point"},"properties":{"osm_id":"6146233738","tag":{"addr:city":"Zwedru","amenity":"waste_disposal","dump:official":"yes","fee":"no","operator":"Society For Poverty Reduction (SOPORD)","provider":"city_corporation","waste":"trash","waste:collection":"community_bin"}},"type":"Feature"},
	{"geometry":{"coordinates":[-8.133736,6.06642],"type":"Point"},"properties":{"osm_id":"6146233739","tag":{"addr:city":"Zwedru","addr:street":"Doe Street","amenity":"waste_disposal","dump:official":"no","fee":"no","operator":"Society For Poverty Reduction (SOPORD)","provider":"city_corporation","waste":"trash","waste:collection":"transitional_site"}},"type":"Feature"},
	{"geometry":{"coordinates":[-8.127977,6.067029],"type":"Point"},"properties":{"osm_id":"6146233740","tag":{"addr:city":"Zwedru","amenity":"waste_disposal","dump:official":"yes","fee":"no","operator":"Society For Poverty Reduction (SOPORD)","provider":"city_corporation","waste":"trash"}},"type":"Feature"},
	{"geometry":{"coordinates":[-8.13215,6.066306],"type":"Point"},"properties":{"osm_id":"6146233741","tag":{"addr:city":"Zwedru","amenity":"waste_basket","dump:official":"yes","fee":"no","operator":"Society For Poverty Reduction (SOPORD)","provider":"city_corporation","waste":"trash","waste:collection":"transitional_site"}},"type":"Feature"},
	{"geometry":{"coordinates":[-8.130578,6.061586],"type":"Point"},"properties":{"osm_id":"6146233743","tag":{"addr:city":"Zwedru","amenity":"waste_disposal","dump:official":"yes","fee":"no","operator":"Society For Poverty Reduction (SOPORD)","provider":"city_corporation","waste":"trash"}},"type":"Feature"},
	{"geometry":{"coordinates":[-8.127804,6.064598],"type":"Point"},"properties":{"osm_id":"6146233747","tag":{"addr:city":"Zwedru","amenity":"waste_disposal","dump:official":"yes","fee":"no","operator":"Society For Poverty Reduction (SOPORD)","provider":"city_corporation","waste":"trash"}},"type":"Feature"},
	{"geometry":{"coordinates":[-8.127063,6.064982],"type":"Point"},"properties":{"osm_id":"6146233749","tag":{"addr:city":"Zwedru","amenity":"waste_disposal","dump:official":"yes","fee":"no","operator":"Society For Poverty Reduction (SOPORD)","provider":"city_corporation","waste":"trash"}},"type":"Feature"},
	{"geometry":{"coordinates":[-8.132927,6.068484],"type":"Point"},"properties":{"osm_id":"6146233750","tag":{"addr:city":"Zwedru","addr:street":"Dehsuah Street","amenity":"waste_disposal","dump:official":"no","fee":"yes","operator":"Society For Poverty Reduction (SOPORD)","waste":"trash","waste:collection":"transitional_site"}},"type":"Feature"},
	{"geometry":{"coordinates":[-8.133982,6.065443],"type":"Point"},"properties":{"osm_id":"6146233752","tag":{"addr:city":"Zwedru","addr:street":"Doe Street","amenity":"waste_disposal","dump:official":"yes","fee":"no","operator":"Society For Poverty Reduction (SOPORD)","provider":"city_corporation","waste":"trash","waste:collection":"transitional_site"}},"type":"Feature"},
	{"geometry":{"coordinates":[-8.133314,6.068426],"type":"Point"},"properties":{"osm_id":"6146233753","tag":{"addr:city":"Zwedru","amenity":"waste_disposal","dump:official":"no","fee":"yes","operator":"Society For Poverty Reduction (SOPORD)","waste":"trash","waste:collection":"transitional_site"}},"type":"Feature"},
	{"geometry":{"coordinates":[-8.132181,6.066557],"type":"Point"},"properties":{"osm_id":"6146233756","tag":{"addr:city":"Zwedru","amenity":"waste_basket","dump:official":"no","fee":"no","operator":"Society For Poverty Reduction (SOPORD)","provider":"city_corporation","waste":"trash","waste:collection":"transitional_site"}},"type":"Feature"},
	{"geometry":{"coordinates":[-8.133436,6.068458],"type":"Point"},"properties":{"osm_id":"6146233758","tag":{"addr:city":"Zwedru","amenity":"waste_disposal","dump:official":"no","fee":"yes","operator":"Society For Poverty Reduction (SOPORD)","waste":"trash","waste:collection":"transitional_site"}},"type":"Feature"},
	{"geometry":{"coordinates":[-8.131209,6.066057],"type":"Point"},"properties":{"osm_id":"6146233760","tag":{"addr:city":"Zwedru","amenity":"waste_disposal","dump:official":"yes","fee":"no","operator":"Society For Poverty Reduction (SOPORD)","provider":"city_corporation","waste":"trash"}},"type":"Feature"},
	{"geometry":{"coordinates":[-8.131143,6.065482],"type":"Point"},"properties":{"osm_id":"6146233763","tag":{"addr:city":"Zwedru","amenity":"waste_disposal","dump:official":"yes","fee":"no","operator":"Society For Poverty Reduction (SOPORD)","provider":"city_corporation","waste":"trash"}},"type":"Feature"},
	{"geometry":{"coordinates":[-8.129133,6.065371],"type":"Point"},"properties":{"osm_id":"6146233764","tag":{"addr:city":"Zwedru","amenity":"waste_disposal","dump:official":"yes","fee":"no","operator":"Society For Poverty Reduction (SOPORD)","provider":"city_corporation","waste":"trash","waste:collection":"transitional_site"}},"type":"Feature"},
	{"geometry":{"coordinates":[-8.133866,6.065549],"type":"Point"},"properties":{"osm_id":"6146233765","tag":{"addr:city":"Zwedru","addr:street":"Doe Street","amenity":"waste_disposal","dump:official":"yes","fee":"no","operator":"Society For Poverty Reduction (SOPORD)","provider":"city_corporation","waste":"trash","waste:collection":"commercial_bin"}},"type":"Feature"},
	{"geometry":{"coordinates":[-8.133916,6.065869],"type":"Point"},"properties":{"osm_id":"6146233766","tag":{"addr:city":"Zwedru","addr:street":"Doe Street","amenity":"waste_disposal","dump:official":"yes","fee":"no","operator":"Society For Poverty Reduction (SOPORD)","provider":"city_corporation","waste":"trash","waste:collection":"commercial_bin"}},"type":"Feature"},
	{"geometry":{"coordinates":[-8.130349,6.060196],"type":"Point"},"properties":{"osm_id":"6146233767","tag":{"addr:city":"Zwedru","amenity":"waste_disposal","dump:official":"yes","fee":"no","operator":"Society For Poverty Reduction (SOPORD)","provider":"city_corporation","waste":"trash"}},"type":"Feature"},
	{"geometry":{"coordinates":[-8.133244,6.068424],"type":"Point"},"properties":{"osm_id":"6146233769","tag":{"addr:city":"Zwedru","addr:street":"Dehsuah Street","amenity":"waste_disposal","dump:official":"no","fee":"yes","operator":"Society For Poverty Reduction (SOPORD)","waste":"trash","waste:collection":"transitional_site"}},"type":"Feature"},
	{"geometry":{"coordinates":[-8.127666,6.064734],"type":"Point"},"properties":{"osm_id":"6146233771","tag":{"addr:city":"Zwedru","amenity":"waste_disposal","dump:official":"yes","fee":"no","operator":"Society For Poverty Reduction (SOPORD)","provider":"city_corporation","waste":"trash"}},"type":"Feature"},
	{"geometry":{"coordinates":[-8.129099,6.065699],"type":"Point"},"properties":{"osm_id":"6146233772","tag":{"addr:city":"Zwedru","amenity":"waste_disposal","dump:official":"yes","fee":"no","operator":"Society For Poverty Reduction (SOPORD)","provider":"city_corporation","waste":"trash","waste:collection":"community_bin"}},"type":"Feature"},
	{"geometry":{"coordinates":[-8.131327,6.066304],"type":"Point"},"properties":{"osm_id":"6146233773","tag":{"addr:city":"Zwedru","amenity":"waste_disposal","dump:official":"yes","fee":"no","operator":"Society For Poverty Reduction (SOPORD)","provider":"city_corporation","waste":"trash"}},"type":"Feature"},
	{"geometry":{"coordinates":[-8.133801,6.065546],"type":"Point"},"properties":{"osm_id":"6146233775","tag":{"addr:city":"Zwedru","addr:street":"Doe Street","amenity":"waste_disposal","dump:official":"yes","fee":"no","operator":"Society For Poverty Reduction (SOPORD)","provider":"city_corporation","waste":"trash","waste:collection":"transitional_site"}},"type":"Feature"},
	{"geometry":{"coordinates":[-8.133936,6.066014],"type":"Point"},"properties":{"osm_id":"6146233778","tag":{"addr:city":"Zwedru","addr:street":"Doe Street","amenity":"waste_disposal","dump:official":"yes","fee":"no","operator":"Society For Poverty Reduction (SOPORD)","provider":"city_corporation","waste":"trash","waste:collection":"transitional_site"}},"type":"Feature"},
	{"geometry":{"coordinates":[-8.128107,6.058924],"type":"Point"},"properties":{"osm_id":"6146233780","tag":{"addr:city":"Zwedru","amenity":"waste_disposal","dump:official":"yes","fee":"no","operator":"Society For Poverty Reduction (SOPORD)","provider":"city_corporation","waste":"trash"}},"type":"Feature"},
	{"geometry":{"coordinates":[-8.131456,6.065733],"type":"Point"},"properties":{"osm_id":"6146233783","tag":{"addr:city":"Zwedru","amenity":"waste_disposal","dump:official":"yes","fee":"no","operator":"Society For Poverty Reduction (SOPORD)","provider":"city_corporation","waste":"trash","waste:collection":"community_bin"}},"type":"Feature"},
	{"geometry":{"coordinates":[-8.129096,6.065927],"type":"Point"},"properties":{"osm_id":"6146233887","tag":{"addr:city":"Zwedru","amenity":"waste_disposal","dump:official":"yes","fee":"no","operator":"Society For Poverty Reduction (SOPORD)","provider":"city_corporation","waste":"trash"}},"type":"Feature"},
	{"geometry":{"coordinates":[-8.13399,6.065181],"type":"Point"},"properties":{"osm_id":"6146233888","tag":{"addr:city":"Zwedru","addr:street":"Doe Street","amenity":"waste_disposal","dump:official":"yes","fee":"no","operator":"Society For Poverty Reduction (SOPORD)","provider":"city_corporation","waste":"trash","waste:collection":"transitional_site"}},"type":"Feature"},
	{"geometry":{"coordinates":[-8.132876,6.066468],"type":"Point"},"properties":{"osm_id":"6146233895","tag":{"addr:city":"Zwedru","amenity":"waste_disposal","dump:official":"no","fee":"no","operator":"Society For Poverty Reduction (SOPORD)","provider":"city_corporation","waste":"trash","waste:collection":"transitional_site"}},"type":"Feature"},
	{"geometry":{"coordinates":[-8.127234,6.068566],"type":"Point"},"properties":{"osm_id":"6146294125","tag":{"addr:city":"Zwedru","amenity":"waste_disposal","dump:official":"no","fee":"yes","operator":"Society For Poverty Reduction (SOPORD)","waste":"trash","waste:collection":"transitional_site"}},"type":"Feature"},
	{"geometry":{"coordinates":[-8.125874,6.068755],"type":"Point"},"properties":{"osm_id":"6146294142","tag":{"addr:city":"Zwedru","amenity":"waste_disposal","dump:official":"yes","fee":"yes","operator":"Society For Poverty Reduction (SOPORD)","provider":"city_corporation","waste":"trash","waste:collection":"transitional_site"}},"type":"Feature"},
	{"geometry":{"coordinates":[-8.127497,6.068828],"type":"Point"},"properties":{"osm_id":"6146294145","tag":{"addr:city":"Zwedru","amenity":"waste_disposal","dump:official":"no","fee":"no","operator":"Society For Poverty Reduction (SOPORD)","waste":"trash","waste:collection":"transitional_site"}},"type":"Feature"},
	{"geometry":{"coordinates":[-8.141379,6.082181],"type":"Point"},"properties":{"osm_id":"6146383292","tag":{"addr:city":"Zwedru","amenity":"waste_disposal","dump:official":"no","fee":"no","operator":"Society For Poverty Reduction (SOPORD)","provider":"city_corporation","waste":"trash"}},"type":"Feature"},
	{"geometry":{"coordinates":[-8.139681,6.082952],"type":"Point"},"properties":{"osm_id":"6146383299","tag":{"addr:city":"Zwedru","amenity":"waste_disposal","dump:official":"yes","fee":"no","operator":"Society For Poverty Reduction (SOPORD)","provider":"city_corporation","waste":"trash"}},"type":"Feature"},
	{"geometry":{"coordinates":[-8.124401,6.089781],"type":"Point"},"properties":{"osm_id":"6146383302","tag":{"addr:city":"Zwedru","amenity":"waste_disposal","dump:official":"no","fee":"no","waste":"trash","waste:collection":"transitional_site"}},"type":"Feature"},
	{"geometry":{"coordinates":[-8.124658,6.091937],"type":"Point"},"properties":{"osm_id":"6146383303","tag":{"addr:city":"Zwedru","amenity":"waste_disposal","dump:official":"no","fee":"no","waste":"trash","waste:collection":"transitional_site"}},"type":"Feature"},
	{"geometry":{"coordinates":[-8.125344,6.091217],"type":"Point"},"properties":{"osm_id":"6146383305","tag":{"addr:city":"Zwedru","amenity":"waste_disposal","dump:official":"no","fee":"no","waste":"trash","waste:collection":"transitional_site"}},"type":"Feature"},
	{"geometry":{"coordinates":[-8.138747,6.082775],"type":"Point"},"properties":{"osm_id":"6146383311","tag":{"addr:city":"Zwedru","amenity":"waste_disposal","dump:official":"yes","fee":"no","operator":"Society For Poverty Reduction (SOPORD)","provider":"city_corporation","waste":"trash"}},"type":"Feature"},
	{"geometry":{"coordinates":[-8.138573,6.08378],"type":"Point"},"properties":{"osm_id":"6146383322","tag":{"addr:city":"Zwedru","amenity":"waste_disposal","dump:official":"yes","fee":"no","operator":"Society For Poverty Reduction (SOPORD)","provider":"city_corporation","waste":"trash"}},"type":"Feature"},
	{"geometry":{"coordinates":[-8.12452,6.092385],"type":"Point"},"properties":{"osm_id":"6146383329","tag":{"addr:city":"Zwedru","amenity":"waste_disposal","dump:official":"no","fee":"no","waste":"trash","waste:collection":"transitional_site"}},"type":"Feature"},
	{"geometry":{"coordinates":[-8.143207,6.079946],"type":"Point"},"properties":{"osm_id":"6146383332","tag":{"addr:city":"Zwedru","amenity":"waste_disposal","dump:official":"no","fee":"no","waste":"trash"}},"type":"Feature"},
	{"geometry":{"coordinates":[-8.139417,6.08339],"type":"Point"},"properties":{"osm_id":"6146383334","tag":{"addr:city":"Zwedru","amenity":"waste_disposal","dump:official":"no","fee":"no","waste":"trash"}},"type":"Feature"},
	{"geometry":{"coordinates":[-8.124377,6.090028],"type":"Point"},"properties":{"osm_id":"6146383336","tag":{"addr:city":"Zwedru","amenity":"waste_disposal","dump:official":"no","fee":"no","waste":"trash","waste:collection":"transitional_site"}},"type":"Feature"},
	{"geometry":{"coordinates":[-8.138723,6.083111],"type":"Point"},"properties":{"osm_id":"6146383342","tag":{"addr:city":"Zwedru","amenity":"waste_disposal","dump:official":"yes","fee":"no","waste":"trash"}},"type":"Feature"},
	{"geometry":{"coordinates":[-8.14137,6.082739],"type":"Point"},"properties":{"osm_id":"6146383357","tag":{"addr:city":"Zwedru","amenity":"waste_disposal","dump:official":"yes","fee":"no","operator":"Society For Poverty Reduction (SOPORD)","provider":"city_corporation","waste":"trash"}},"type":"Feature"},
	{"geometry":{"coordinates":[-8.142379,6.083231],"type":"Point"},"properties":{"osm_id":"6146383378","tag":{"addr:city":"Zwedru","amenity":"waste_disposal","dump:official":"yes","fee":"no","operator":"Society For Poverty Reduction (SOPORD)","provider":"city_corporation","waste":"trash"}},"type":"Feature"},
	{"geometry":{"coordinates":[-8.124774,6.091729],"type":"Point"},"properties":{"osm_id":"6146383381","tag":{"addr:city":"Zwedru","amenity":"waste_disposal","dump:official":"no","fee":"no","waste":"trash"}},"type":"Feature"},
	{"geometry":{"coordinates":[-8.12455,6.089803],"type":"Point"},"properties":{"osm_id":"6146383385","tag":{"addr:city":"Zwedru","amenity":"waste_disposal","dump:official":"no","fee":"no","waste":"trash","waste:collection":"transitional_site"}},"type":"Feature"},
	{"geometry":{"coordinates":[-8.142296,6.084047],"type":"Point"},"properties":{"osm_id":"6146383390","tag":{"addr:city":"Zwedru","amenity":"waste_disposal","dump:official":"no","fee":"no","waste":"trash"}},"type":"Feature"},
	{"geometry":{"coordinates":[-8.13921,6.083554],"type":"Point"},"properties":{"osm_id":"6146383395","tag":{"addr:city":"Zwedru","amenity":"waste_disposal","dump:official":"yes","fee":"no","operator":"Society For Poverty Reduction (SOPORD)","provider":"city_corporation","waste":"trash"}},"type":"Feature"},
	{"geometry":{"coordinates":[-8.141588,6.084108],"type":"Point"},"properties":{"osm_id":"6146383401","tag":{"addr:city":"Zwedru","amenity":"waste_disposal","dump:official":"no","fee":"no","waste":"trash"}},"type":"Feature"},
	{"geometry":{"coordinates":[-8.125166,6.091352],"type":"Point"},"properties":{"osm_id":"6146383403","tag":{"addr:city":"Zwedru","amenity":"waste_disposal","dump:official":"no","fee":"no","waste":"trash","waste:collection":"transitional_site"}},"type":"Feature"},
	{"geometry":{"coordinates":[-8.137614,6.083936],"type":"Point"},"properties":{"osm_id":"6146383407","tag":{"addr:city":"Zwedru","amenity":"waste_disposal","dump:official":"no","fee":"no","waste":"trash"}},"type":"Feature"},
	{"geometry":{"coordinates":[-8.125346,6.089926],"type":"Point"},"properties":{"osm_id":"6146383421","tag":{"addr:city":"Zwedru","amenity":"waste_disposal","dump:official":"no","fee":"no","waste":"trash","waste:collection":"transitional_site"}},"type":"Feature"},
	{"geometry":{"coordinates":[-8.125197,6.09075],"type":"Point"},"properties":{"osm_id":"6146383422","tag":{"addr:city":"Zwedru","amenity":"waste_disposal","dump:official":"no","fee":"no","waste":"trash","waste:collection":"transitional_site"}},"type":"Feature"},
	{"geometry":{"coordinates":[-8.143699,6.079787],"type":"Point"},"properties":{"osm_id":"6146383425","tag":{"addr:city":"Zwedru","amenity":"waste_disposal","dump:official":"no","fee":"no","waste":"trash"}},"type":"Feature"},
	{"geometry":{"coordinates":[-8.132942,6.062019],"type":"Point"},"properties":{"osm_id":"6147682189","tag":{"addr:city":"Zwedru","amenity":"waste_disposal","dump:official":"yes","fee":"yes","operator":"Society For Poverty Reduction (SOPORD)","provider":"city_corporation","waste":"trash","waste:collection":"transitional_site"}},"type":"Feature"},
	{"geometry":{"coordinates":[-8.134488,6.06493],"type":"Point"},"properties":{"osm_id":"6147682191","tag":{"addr:city":"Zwedru","addr:street":"Doe Street","amenity":"waste_disposal","dump:official":"yes","fee":"yes","operator":"Society For Poverty Reduction (SOPORD)","provider":"city_corporation","waste":"trash","waste:collection":"transitional_site"}},"type":"Feature"},
	{"geometry":{"coordinates":[-8.135998,6.062742],"type":"Point"},"properties":{"osm_id":"6147682193","tag":{"addr:city":"Zwedru","addr:street":"Father Fenny Street","amenity":"waste_disposal","fee":"no","waste":"trash","waste:collection":"transitional_site"}},"type":"Feature"},
	{"geometry":{"coordinates":[-8.13617,6.061472],"type":"Point"},"properties":{"osm_id":"6147682196","tag":{"addr:city":"Zwedru","amenity":"waste_disposal","dump:official":"no","fee":"no","waste":"trash","waste:collection":"transitional_site"}},"type":"Feature"},
	{"geometry":{"coordinates":[-8.135827,6.062625],"type":"Point"},"properties":{"osm_id":"6147682198","tag":{"addr:city":"Zwedru","addr:street":"Father Fenny Street","amenity":"waste_disposal","dump:official":"no","fee":"no","waste":"trash"}},"type":"Feature"},
	{"geometry":{"coordinates":[-8.13539,6.06018],"type":"Point"},"properties":{"osm_id":"6147682208","tag":{"addr:city":"Zwedru","amenity":"waste_disposal","dump:official":"no","fee":"yes","operator":"Society For Poverty Reduction (SOPORD)","waste":"trash"}},"type":"Feature"},
	{"geometry":{"coordinates":[-8.138577,6.061442],"type":"Point"},"properties":{"osm_id":"6147682211","tag":{"addr:city":"Zwedru","addr:street":"Sinoe Road","amenity":"waste_disposal","dump:official":"yes","fee":"no","operator":"Society For Poverty Reduction (SOPORD)","waste":"trash","waste:collection":"transitional_site"}},"type":"Feature"},
	{"geometry":{"coordinates":[-8.134572,6.064586],"type":"Point"},"properties":{"osm_id":"6147682214","tag":{"addr:city":"Zwedru","addr:street":"Doe Street","amenity":"waste_disposal","dump:official":"no","fee":"no","waste":"trash","waste:collection":"community_bin"}},"type":"Feature"},
	{"geometry":{"coordinates":[-8.136063,6.061547],"type":"Point"},"properties":{"osm_id":"6147682234","tag":{"addr:city":"Zwedru","addr:street":"Doe Street","amenity":"waste_disposal","dump:official":"no","fee":"no","waste":"trash","waste:collection":"transitional_site"}},"type":"Feature"},
	{"geometry":{"coordinates":[-8.13573,6.062422],"type":"Point"},"properties":{"osm_id":"6147682241","tag":{"addr:city":"Zwedru","addr:street":"Doe Street","amenity":"waste_disposal","dump:official":"no","fee":"no","waste":"trash"}},"type":"Feature"},
	{"geometry":{"coordinates":[-8.135526,6.062081],"type":"Point"},"properties":{"osm_id":"6147682242","tag":{"addr:city":"Zwedru","addr:street":"Doe Street","amenity":"waste_disposal","dump:official":"no","fee":"no","waste":"trash","waste:collection":"transitional_site"}},"type":"Feature"},
	{"geometry":{"coordinates":[-8.13474,6.064488],"type":"Point"},"properties":{"osm_id":"6147682243","tag":{"addr:city":"Zwedru","addr:street":"Doe Streete","amenity":"waste_disposal","dump:official":"no","fee":"no","waste":"trash","waste:collection":"community_bin"}},"type":"Feature"},
	{"geometry":{"coordinates":[-8.138745,6.058357],"type":"Point"},"properties":{"osm_id":"6147682887","tag":{"addr:city":"Zwedru","addr:street":"Sinoe Road","amenity":"waste_disposal","dump:official":"no","fee":"no","waste":"trash","waste:collection":"transitional_site"}},"type":"Feature"},
	{"geometry":{"coordinates":[-8.138927,6.057834],"type":"Point"},"properties":{"osm_id":"6147682888","tag":{"addr:city":"Zwedru","amenity":"waste_disposal","dump:official":"no","fee":"no","waste":"trash","waste:collection":"transitional_site"}},"type":"Feature"},
	{"geometry":{"coordinates":[-8.135848,6.060948],"type":"Point"},"properties":{"osm_id":"6147682918","tag":{"addr:city":"Zwedru","addr:street":"Doe Street","amenity":"waste_disposal","dump:official":"yes","fee":"no","operator":"Society For Poverty Reduction (SOPORD)","provider":"city_corporation","waste":"trash","waste:collection":"transitional_site"}},"type":"Feature"},
	{"geometry":{"coordinates":[-8.135218,6.062635],"type":"Point"},"properties":{"osm_id":"6147682930","tag":{"addr:city":"Zwedru","addr:street":"Doe Street","amenity":"waste_disposal","dump:official":"no","fee":"no","waste":"trash","waste:collection":"transitional_site"}},"type":"Feature"},
	{"geometry":{"coordinates":[-8.132244,6.061136],"type":"Point"},"properties":{"osm_id":"6147682932","tag":{"addr:city":"Zwedru","amenity":"waste_disposal","dump:official":"yes","fee":"yes","operator":"Society For Poverty Reduction (SOPORD)","provider":"city_corporation","waste":"trash","waste:collection":"transitional_site"}},"type":"Feature"},
	{"geometry":{"coordinates":[-8.145515,6.05713],"type":"Point"},"properties":{"osm_id":"6168995342","tag":{"addr:city":"Zwedru","amenity":"waste_disposal","fee":"no","waste":"trash","waste:collection":"transitional_site"}},"type":"Feature"},
	{"geometry":{"coordinates":[-8.144752,6.05918],"type":"Point"},"properties":{"osm_id":"6168995351","tag":{"addr:city":"Zwedru","amenity":"waste_disposal","dump:official":"no","fee":"no","waste":"trash"}},"type":"Feature"},
	{"geometry":{"coordinates":[-8.142358,6.063443],"type":"Point"},"properties":{"osm_id":"6168995376","tag":{"addr:city":"Zwedru","amenity":"waste_basket","dump:official":"no","fee":"no","waste":"trash"}},"type":"Feature"},
	{"geometry":{"coordinates":[-8.142933,6.057384],"type":"Point"},"properties":{"osm_id":"6168996028","tag":{"addr:city":"Zwedru","amenity":"waste_disposal","dump:official":"no","fee":"no","waste":"trash","waste:collection":"transitional_site"}},"type":"Feature"},
	{"geometry":{"coordinates":[-8.142331,6.063558],"type":"Point"},"properties":{"osm_id":"6168996066","tag":{"addr:city":"Zwedru","amenity":"waste_disposal","dump:official":"no","fee":"no","waste":"trash","waste:collection":"community_bin"}},"type":"Feature"},
	{"geometry":{"coordinates":[-8.142104,6.059383],"type":"Point"},"properties":{"osm_id":"6168996084","tag":{"addr:city":"Zwedru","amenity":"waste_disposal","dump:official":"no","fee":"no","waste":"trash","waste:collection":"transitional_site"}},"type":"Feature"},
	{"geometry":{"coordinates":[-8.144442,6.058859],"type":"Point"},"properties":{"osm_id":"6168996093","tag":{"addr:city":"Zwedru","amenity":"waste_disposal","dump:official":"no","fee":"no","waste":"trash"}},"type":"Feature"},
	{"geometry":{"coordinates":[-8.142481,6.063597],"type":"Point"},"properties":{"osm_id":"6168996294","tag":{"addr:city":"Zwedru","amenity":"waste_disposal","dump:official":"no","fee":"no","waste":"trash","waste:collection":"community_bin"}},"type":"Feature"},
	{"geometry":{"coordinates":[-8.142747,6.057258],"type":"Point"},"properties":{"osm_id":"6168996298","tag":{"addr:city":"Zwedru","amenity":"waste_disposal","dump:official":"no","fee":"no","waste":"trash"}},"type":"Feature"},
	{"geometry":{"coordinates":[-8.140515,6.055807],"type":"Point"},"properties":{"osm_id":"6168996349","tag":{"addr:city":"Zwedru","addr:street":"Sinoe Road","amenity":"waste_disposal","dump:official":"no","fee":"no","waste":"trash","waste:collection":"transitional_site"}},"type":"Feature"},
	{"geometry":{"coordinates":[-8.140097,6.055946],"type":"Point"},"properties":{"osm_id":"6168996587","tag":{"addr:city":"Zwedru","addr:street":"Sinoe Road","amenity":"waste_disposal","dump:official":"no","fee":"no","waste":"trash","waste:collection":"transitional_site"}},"type":"Feature"},
	{"geometry":{"coordinates":[-8.143177,6.064855],"type":"Point"},"properties":{"osm_id":"6168996595","tag":{"addr:city":"Zwedru","amenity":"waste_disposal","dump:official":"no","fee":"no","waste":"trash"}},"type":"Feature"},
	{"geometry":{"coordinates":[-8.140376,6.053759],"type":"Point"},"properties":{"osm_id":"6168996602","tag":{"addr:city":"Zwedru","amenity":"waste_disposal","dump:official":"no","waste":"trash","waste:collection":"transitional_site"}},"type":"Feature"},
	{"geometry":{"coordinates":[-8.140998,6.060427],"type":"Point"},"properties":{"osm_id":"6168996612","tag":{"addr:city":"Zwedru","amenity":"waste_disposal","dump:official":"no","fee":"no","waste":"trash","waste:collection":"transitional_site"}},"type":"Feature"},
	{"geometry":{"coordinates":[-8.140466,6.055537],"type":"Point"},"properties":{"osm_id":"6168996638","tag":{"addr:city":"Zwedru","addr:street":"Sinoe Road","amenity":"waste_disposal","dump:official":"no","fee":"no","waste":"trash","waste:collection":"transitional_site"}},"type":"Feature"},
	{"geometry":{"coordinates":[-8.138741,6.075696],"type":"Point"},"properties":{"osm_id":"6169018340","tag":{"addr:city":"Zwedru","amenity":"waste_disposal","dump:official":"no","fee":"no","waste":"trash"}},"type":"Feature"},
	{"geometry":{"coordinates":[-8.132493,6.079902],"type":"Point"},"properties":{"osm_id":"6169018350","tag":{"addr:city":"Zwedru","amenity":"waste_disposal","dump:official":"no","fee":"no","waste":"trash"}},"type":"Feature"},
	{"geometry":{"coordinates":[-8.137878,6.07623],"type":"Point"},"properties":{"osm_id":"6169018352","tag":{"addr:city":"Zwedru","amenity":"waste_disposal","dump:official":"yes","fee":"no","operator":"Society For Poverty Reduction (SOPORD)","provider":"city_corporation","waste":"trash"}},"type":"Feature"},
	{"geometry":{"coordinates":[-8.135224,6.080913],"type":"Point"},"properties":{"osm_id":"6169018354","tag":{"addr:city":"Zwedru","amenity":"waste_disposal","dump:official":"yes","fee":"no","operator":"Society For Poverty Reduction (SOPORD)","provider":"city_corporation","waste":"trash"}},"type":"Feature"},
	{"geometry":{"coordinates":[-8.139473,6.076003],"type":"Point"},"properties":{"osm_id":"6169018362","tag":{"addr:city":"Zwedru","amenity":"waste_disposal","dump:official":"yes","fee":"no","waste":"trash"}},"type":"Feature"},
	{"geometry":{"coordinates":[-8.135652,6.080797],"type":"Point"},"properties":{"osm_id":"6169018374","tag":{"addr:city":"Zwedru","amenity":"waste_disposal","dump:official":"yes","fee":"no","operator":"Society For Poverty Reduction (SOPORD)","provider":"city_corporation","waste":"trash"}},"type":"Feature"},
	{"geometry":{"coordinates":[-8.133681,6.078122],"type":"Point"},"properties":{"osm_id":"6169018593","tag":{"addr:city":"Zwedru","amenity":"waste_disposal","dump:official":"yes","fee":"no","waste":"trash"}},"type":"Feature"},
	{"geometry":{"coordinates":[-8.138936,6.075857],"type":"Point"},"properties":{"osm_id":"6169018606","tag":{"addr:city":"Zwedru","amenity":"waste_disposal","dump:official":"no","fee":"no","waste":"trash"}},"type":"Feature"},
	{"geometry":{"coordinates":[-8.132916,6.079093],"type":"Point"},"properties":{"osm_id":"6169018607","tag":{"addr:city":"Zwedru","amenity":"waste_disposal","dump:official":"yes","fee":"no","operator":"Society For Poverty Reduction (SOPORD)","provider":"city_corporation","waste":"trash","waste:collection":"community_bin"}},"type":"Feature"},
	{"geometry":{"coordinates":[-8.13199,6.075589],"type":"Point"},"properties":{"osm_id":"6169018628","tag":{"addr:city":"Zwedru","addr:street":"Doe Street","amenity":"waste_disposal","dump:official":"yes","fee":"yes","operator":"Society For Poverty Reduction (SOPORD)","provider":"city_corporation","waste":"trash","waste:collection":"transitional_site"}},"type":"Feature"},
	{"geometry":{"coordinates":[-8.136138,6.081223],"type":"Point"},"properties":{"osm_id":"6169018647","tag":{"addr:city":"Zwedru","amenity":"waste_disposal","dump:official":"yes","fee":"no","waste":"trash"}},"type":"Feature"},
	{"geometry":{"coordinates":[-8.132607,6.079934],"type":"Point"},"properties":{"osm_id":"6169018655","tag":{"addr:city":"Zwedru","amenity":"waste_disposal","dump:official":"no","fee":"no","waste":"trash"}},"type":"Feature"}
]
}
