{
"type": "FeatureCollection",
"features": [
	{"geometry":{"coordinates":[28.316024,57.822664],"type":"Point"},"properties":{"osm_id":"995933955","tag":{"amenity":"waste_disposal"}},"type":"Feature"},
	{"geometry":{"coordinates":[28.310183,57.818783],"type":"Point"},"properties":{"osm_id":"996408694","tag":{"amenity":"waste_basket"}},"type":"Feature"},
	{"geometry":{"coordinates":[28.311287,57.818548],"type":"Point"},"properties":{"osm_id":"996408740","tag":{"amenity":"waste_disposal"}},"type":"Feature"},
	{"geometry":{"coordinates":[28.301678,57.814588],"type":"Point"},"properties":{"osm_id":"996408878","tag":{"amenity":"waste_disposal"}},"type":"Feature"},
	{"geometry":{"coordinates":[28.314124,57.818216],"type":"Point"},"properties":{"osm_id":"996408954","tag":{"amenity":"waste_disposal"}},"type":"Feature"},
	{"geometry":{"coordinates":[28.32034,57.815209],"type":"Point"},"properties":{"osm_id":"997656710","tag":{"amenity":"waste_disposal"}},"type":"Feature"},
	{"geometry":{"coordinates":[28.321063,57.815834],"type":"Point"},"properties":{"osm_id":"997657166","tag":{"amenity":"waste_disposal"}},"type":"Feature"},
	{"geometry":{"coordinates":[28.322485,57.814442],"type":"Point"},"properties":{"osm_id":"997657175","tag":{"amenity":"waste_disposal"}},"type":"Feature"},
	{"geometry":{"coordinates":[28.317343,57.817467],"type":"Point"},"properties":{"osm_id":"997657330","tag":{"amenity":"waste_disposal"}},"type":"Feature"},
	{"geometry":{"coordinates":[28.321745,57.819095],"type":"Point"},"properties":{"osm_id":"998181130","tag":{"amenity":"waste_disposal"}},"type":"Feature"},
	{"geometry":{"coordinates":[28.319115,57.81994],"type":"Point"},"properties":{"osm_id":"1005457819","tag":{"amenity":"waste_disposal"}},"type":"Feature"},
	{"geometry":{"coordinates":[28.31819,57.820756],"type":"Point"},"properties":{"osm_id":"1005457939","tag":{"amenity":"waste_disposal"}},"type":"Feature"},
	{"geometry":{"coordinates":[28.317204,57.818439],"type":"Point"},"properties":{"osm_id":"1005457952","tag":{"amenity":"waste_disposal"}},"type":"Feature"},
	{"geometry":{"coordinates":[28.319645,57.820164],"type":"Point"},"properties":{"osm_id":"1005458416","tag":{"amenity":"waste_disposal"}},"type":"Feature"},
	{"geometry":{"coordinates":[28.320092,57.819233],"type":"Point"},"properties":{"osm_id":"1005458672","tag":{"amenity":"waste_disposal"}},"type":"Feature"},
	{"geometry":{"coordinates":[28.31368,57.820416],"type":"Point"},"properties":{"osm_id":"1011286413","tag":{"amenity":"waste_disposal"}},"type":"Feature"},
	{"geometry":{"coordinates":[28.318362,57.823129],"type":"Point"},"properties":{"osm_id":"1163797450","tag":{"amenity":"waste_disposal"}},"type":"Feature"},
	{"geometry":{"coordinates":[28.339052,57.817874],"type":"Point"},"properties":{"osm_id":"1192521494","tag":{"amenity":"waste_disposal"}},"type":"Feature"},
	{"geometry":{"coordinates":[28.343043,57.817815],"type":"Point"},"properties":{"osm_id":"1192521659","tag":{"amenity":"waste_basket"}},"type":"Feature"},
	{"geometry":{"coordinates":[28.343468,57.80533],"type":"Point"},"properties":{"osm_id":"1275742419","tag":{"amenity":"waste_disposal"}},"type":"Feature"},
	{"geometry":{"coordinates":[28.315686,57.805051],"type":"Point"},"properties":{"osm_id":"1280512809","tag":{"amenity":"waste_disposal"}},"type":"Feature"},
	{"geometry":{"coordinates":[28.346913,57.802823],"type":"Point"},"properties":{"osm_id":"1323637780","tag":{"amenity":"waste_disposal"}},"type":"Feature"},
	{"geometry":{"coordinates":[28.317113,57.808336],"type":"Point"},"properties":{"osm_id":"1628223661","tag":{"amenity":"waste_disposal"}},"type":"Feature"},
	{"geometry":{"coordinates":[28.315339,57.819353],"type":"Point"},"properties":{"osm_id":"1740020276","tag":{"amenity":"waste_basket"}},"type":"Feature"},
	{"geometry":{"coordinates":[28.377723,57.811777],"type":"Point"},"properties":{"osm_id":"1848833626","tag":{"amenity":"waste_disposal"}},"type":"Feature"},
	{"geometry":{"coordinates":[28.331292,57.821641],"type":"Point"},"properties":{"osm_id":"2647237796","tag":{"amenity":"waste_basket"}},"type":"Feature"},
	{"geometry":{"coordinates":[28.331222,57.821669],"type":"Point"},"properties":{"osm_id":"2647237802","tag":{"amenity":"waste_basket"}},"type":"Feature"},
	{"geometry":{"coordinates":[28.331122,57.821713],"type":"Point"},"properties":{"osm_id":"2647237806","tag":{"amenity":"waste_basket"}},"type":"Feature"},
	{"geometry":{"coordinates":[28.331051,57.821742],"type":"Point"},"properties":{"osm_id":"2647237812","tag":{"amenity":"waste_basket"}},"type":"Feature"},
	{"geometry":{"coordinates":[28.327757,57.824575],"type":"Point"},"properties":{"osm_id":"2647237853","tag":{"amenity":"waste_basket"}},"type":"Feature"},
	{"geometry":{"coordinates":[28.327687,57.824603],"type":"Point"},"properties":{"osm_id":"2647237858","tag":{"amenity":"waste_basket"}},"type":"Feature"},
	{"geometry":{"coordinates":[28.327614,57.824634],"type":"Point"},"properties":{"osm_id":"2647237862","tag":{"amenity":"waste_basket"}},"type":"Feature"},
	{"geometry":{"coordinates":[28.372076,57.801053],"type":"Point"},"properties":{"osm_id":"2859604755","tag":{"amenity":"waste_disposal"}},"type":"Feature"},
	{"geometry":{"coordinates":[28.370754,57.800596],"type":"Point"},"properties":{"osm_id":"2859605844","tag":{"amenity":"waste_disposal"}},"type":"Feature"},
	{"geometry":{"coordinates":[28.374274,57.800016],"type":"Point"},"properties":{"osm_id":"2859605965","tag":{"amenity":"waste_disposal"}},"type":"Feature"},
	{"geometry":{"coordinates":[28.372879,57.799883],"type":"Point"},"properties":{"osm_id":"2859605967","tag":{"amenity":"waste_basket"}},"type":"Feature"},
	{"geometry":{"coordinates":[28.337631,57.81342],"type":"Point"},"properties":{"osm_id":"2870890122","tag":{"amenity":"waste_disposal"}},"type":"Feature"},
	{"geometry":{"coordinates":[28.325909,57.825713],"type":"Point"},"properties":{"osm_id":"3138440190","tag":{"amenity":"waste_basket"}},"type":"Feature"},
	{"geometry":{"coordinates":[28.325237,57.826027],"type":"Point"},"properties":{"osm_id":"3138440195","tag":{"amenity":"waste_basket"}},"type":"Feature"},
	{"geometry":{"coordinates":[28.324438,57.826455],"type":"Point"},"properties":{"osm_id":"3138440196","tag":{"amenity":"waste_basket"}},"type":"Feature"},
	{"geometry":{"coordinates":[28.330093,57.823688],"type":"Point"},"properties":{"osm_id":"3170137013","tag":{"amenity":"waste_basket"}},"type":"Feature"},
	{"geometry":{"coordinates":[28.329934,57.823913],"type":"Point"},"properties":{"osm_id":"3170137014","tag":{"amenity":"waste_basket"}},"type":"Feature"},
	{"geometry":{"coordinates":[28.329758,57.824143],"type":"Point"},"properties":{"osm_id":"3170137017","tag":{"amenity":"waste_basket"}},"type":"Feature"},
	{"geometry":{"coordinates":[28.329545,57.82434],"type":"Point"},"properties":{"osm_id":"3170137019","tag":{"amenity":"waste_basket"}},"type":"Feature"},
	{"geometry":{"coordinates":[28.329378,57.824504],"type":"Point"},"properties":{"osm_id":"3170137021","tag":{"amenity":"waste_basket"}},"type":"Feature"},
	{"geometry":{"coordinates":[28.328071,57.825388],"type":"Point"},"properties":{"osm_id":"3170137023","tag":{"amenity":"waste_basket"}},"type":"Feature"},
	{"geometry":{"coordinates":[28.327929,57.825447],"type":"Point"},"properties":{"osm_id":"3170137025","tag":{"amenity":"waste_basket"}},"type":"Feature"},
	{"geometry":{"coordinates":[28.327677,57.825531],"type":"Point"},"properties":{"osm_id":"3170137027","tag":{"amenity":"waste_basket"}},"type":"Feature"},
	{"geometry":{"coordinates":[28.357175,57.809572],"type":"Point"},"properties":{"osm_id":"3451634958","tag":{"amenity":"waste_disposal"}},"type":"Feature"},
	{"geometry":{"coordinates":[28.342845,57.807078],"type":"Point"},"properties":{"osm_id":"3530657704","tag":{"amenity":"waste_disposal"}},"type":"Feature"},
	{"geometry":{"coordinates":[28.318323,57.823166],"type":"Point"},"properties":{"osm_id":"3771466205","tag":{"amenity":"recycling","recycling:plastic_bottles":"yes","recycling_type":"container"}},"type":"Feature"},
	{"geometry":{"coordinates":[28.365299,57.809642],"type":"Point"},"properties":{"osm_id":"4024281389","tag":{"amenity":"recycling","recycling:batteries":"yes","recycling_type":"container"}},"type":"Feature"},
	{"geometry":{"coordinates":[28.358189,57.804312],"type":"Point"},"properties":{"osm_id":"4272445944","tag":{"amenity":"waste_disposal"}},"type":"Feature"},
	{"geometry":{"coordinates":[28.313075,57.819511],"type":"Point"},"properties":{"osm_id":"4278824307","tag":{"amenity":"waste_disposal"}},"type":"Feature"},
	{"geometry":{"coordinates":[28.346357,57.803855],"type":"Point"},"properties":{"osm_id":"4367585900","tag":{"amenity":"waste_disposal"}},"type":"Feature"},
	{"geometry":{"coordinates":[28.336768,57.823139],"type":"Point"},"properties":{"osm_id":"4823330953","tag":{"amenity":"waste_basket"}},"type":"Feature"},
	{"geometry":{"coordinates":[28.336854,57.823213],"type":"Point"},"properties":{"osm_id":"4823330954","tag":{"amenity":"waste_basket"}},"type":"Feature"},
	{"geometry":{"coordinates":[28.332368,57.817085],"type":"Point"},"properties":{"osm_id":"6774816290","tag":{"amenity":"waste_disposal"}},"type":"Feature"},
	{"geometry":{"coordinates":[28.324479,57.831831],"type":"Point"},"properties":{"osm_id":"6776187885","tag":{"amenity":"waste_disposal"}},"type":"Feature"},
	{"geometry":{"coordinates":[28.345037,57.806022],"type":"Point"},"properties":{"osm_id":"6788490686","tag":{"amenity":"waste_disposal"}},"type":"Feature"},
	{"geometry":{"coordinates":[28.336245,57.818098],"type":"Point"},"properties":{"osm_id":"6788518385","tag":{"amenity":"recycling","recycling:batteries":"yes"}},"type":"Feature"},
	{"geometry":{"coordinates":[28.334754,57.827789],"type":"Point"},"properties":{"osm_id":"6789019985","tag":{"amenity":"waste_disposal"}},"type":"Feature"},
	{"geometry":{"coordinates":[28.337203,57.816965],"type":"Point"},"properties":{"osm_id":"6790300286","tag":{"amenity":"waste_disposal"}},"type":"Feature"},
	{"geometry":{"coordinates":[28.339464,57.816005],"type":"Point"},"properties":{"osm_id":"6790317286","tag":{"amenity":"waste_disposal"}},"type":"Feature"},
	{"geometry":{"coordinates":[28.337254,57.816943],"type":"Point"},"properties":{"osm_id":"6790476185","tag":{"amenity":"recycling","recycling:cans":"yes","recycling:glass_bottles":"yes","recycling:paper":"yes","recycling:plastic":"yes","recycling:plastic_bags":"yes","recycling:plastic_bottles":"yes","recycling_type":"container"}},"type":"Feature"},
	{"geometry":{"coordinates":[28.331445,57.818295],"type":"Point"},"properties":{"osm_id":"6790715485","tag":{"amenity":"waste_disposal"}},"type":"Feature"},
	{"geometry":{"coordinates":[28.34345,57.805292],"type":"Point"},"properties":{"osm_id":"6790728686","tag":{"amenity":"recycling","description":"\u00d0\u00a1\u00d1\u0082\u00d0\u00be\u00d0\u00b8\u00d1\u0082 \u00d0\u00b2\u00d0\u00be \u00d0\u00b4\u00d0\u00b2\u00d0\u00be\u00d1\u0080\u00d0\u00b5","recycling:cans":"yes","recycling:glass_bottles":"yes","recycling:paper":"yes","recycling:plastic":"yes","recycling:plastic_bags":"yes","recycling_type":"container"}},"type":"Feature"},
	{"geometry":{"coordinates":[28.341784,57.819188],"type":"Point"},"properties":{"osm_id":"6792704286","tag":{"amenity":"waste_disposal"}},"type":"Feature"},
	{"geometry":{"coordinates":[28.338949,57.814296],"type":"Point"},"properties":{"osm_id":"6792718686","tag":{"amenity":"waste_disposal"}},"type":"Feature"},
	{"geometry":{"coordinates":[28.339502,57.815995],"type":"Point"},"properties":{"osm_id":"6792753185","tag":{"amenity":"recycling","recycling:paper":"yes","recycling:plastic":"yes"}},"type":"Feature"},
	{"geometry":{"coordinates":[28.340362,57.816995],"type":"Point"},"properties":{"osm_id":"6792753685","tag":{"amenity":"waste_disposal"}},"type":"Feature"},
	{"geometry":{"coordinates":[28.342958,57.81863],"type":"Point"},"properties":{"osm_id":"6792755986","tag":{"amenity":"waste_disposal"}},"type":"Feature"},
	{"geometry":{"coordinates":[28.342904,57.819342],"type":"Point"},"properties":{"osm_id":"6792763385","tag":{"amenity":"waste_disposal"}},"type":"Feature"},
	{"geometry":{"coordinates":[28.340537,57.817582],"type":"Point"},"properties":{"osm_id":"6792763386","tag":{"amenity":"recycling","recycling:plastic":"yes"}},"type":"Feature"},
	{"geometry":{"coordinates":[28.341972,57.8179],"type":"Point"},"properties":{"osm_id":"6792768885","tag":{"amenity":"waste_disposal"}},"type":"Feature"},
	{"geometry":{"coordinates":[28.340564,57.817567],"type":"Point"},"properties":{"osm_id":"6792769885","tag":{"amenity":"waste_disposal"}},"type":"Feature"},
	{"geometry":{"coordinates":[28.333975,57.818],"type":"Point"},"properties":{"osm_id":"6792867488","tag":{"amenity":"waste_disposal"}},"type":"Feature"},
	{"geometry":{"coordinates":[28.348728,57.805596],"type":"Point"},"properties":{"osm_id":"6794599192","tag":{"amenity":"waste_disposal"}},"type":"Feature"},
	{"geometry":{"coordinates":[28.348784,57.805569],"type":"Point"},"properties":{"osm_id":"6794600690","tag":{"amenity":"recycling","recycling:cans":"yes","recycling:glass_bottles":"yes","recycling:paper":"yes","recycling:plastic":"yes","recycling:plastic_bags":"yes","recycling_type":"container"}},"type":"Feature"},
	{"geometry":{"coordinates":[28.352032,57.805377],"type":"Point"},"properties":{"osm_id":"6794600786","tag":{"amenity":"waste_disposal"}},"type":"Feature"},
	{"geometry":{"coordinates":[28.352081,57.805402],"type":"Point"},"properties":{"osm_id":"6794600787","tag":{"amenity":"recycling","recycling:cans":"yes","recycling:glass_bottles":"yes","recycling:paper":"yes","recycling:plastic":"yes","recycling:plastic_bags":"yes","recycling_type":"container"}},"type":"Feature"},
	{"geometry":{"coordinates":[28.347288,57.805364],"type":"Point"},"properties":{"osm_id":"6794626687","tag":{"amenity":"waste_disposal"}},"type":"Feature"},
	{"geometry":{"coordinates":[28.350493,57.805342],"type":"Point"},"properties":{"osm_id":"6794664185","tag":{"amenity":"waste_disposal"}},"type":"Feature"},
	{"geometry":{"coordinates":[28.350429,57.805361],"type":"Point"},"properties":{"osm_id":"6794664186","tag":{"amenity":"recycling","recycling:cans":"yes","recycling:glass_bottles":"yes","recycling:paper":"yes","recycling:plastic":"yes","recycling:plastic_bags":"yes","recycling_type":"container"}},"type":"Feature"},
	{"geometry":{"coordinates":[28.354625,57.80495],"type":"Point"},"properties":{"osm_id":"6794708286","tag":{"amenity":"waste_disposal"}},"type":"Feature"},
	{"geometry":{"coordinates":[28.354786,57.804904],"type":"Point"},"properties":{"osm_id":"6794717785","tag":{"amenity":"recycling","recycling:cans":"yes","recycling:glass_bottles":"yes","recycling:paper":"yes","recycling:plastic":"yes","recycling:plastic_bags":"yes","recycling_type":"container"}},"type":"Feature"},
	{"geometry":{"coordinates":[28.356509,57.804762],"type":"Point"},"properties":{"osm_id":"6794720186","tag":{"amenity":"waste_disposal"}},"type":"Feature"},
	{"geometry":{"coordinates":[28.358885,57.805442],"type":"Point"},"properties":{"osm_id":"6794761385","tag":{"amenity":"waste_disposal"}},"type":"Feature"},
	{"geometry":{"coordinates":[28.358937,57.805413],"type":"Point"},"properties":{"osm_id":"6794761386","tag":{"amenity":"recycling","recycling:cans":"yes","recycling:glass_bottles":"yes","recycling:paper":"yes","recycling:plastic":"yes","recycling:plastic_bags":"yes","recycling_type":"container"}},"type":"Feature"},
	{"geometry":{"coordinates":[28.360059,57.806879],"type":"Point"},"properties":{"osm_id":"6794761389","tag":{"amenity":"waste_disposal"}},"type":"Feature"},
	{"geometry":{"coordinates":[28.359229,57.806242],"type":"Point"},"properties":{"osm_id":"6794765586","tag":{"amenity":"waste_disposal"}},"type":"Feature"},
	{"geometry":{"coordinates":[28.361363,57.806887],"type":"Point"},"properties":{"osm_id":"6794767388","tag":{"amenity":"waste_disposal"}},"type":"Feature"},
	{"geometry":{"coordinates":[28.362338,57.808584],"type":"Point"},"properties":{"osm_id":"6794787005","tag":{"amenity":"waste_disposal"}},"type":"Feature"},
	{"geometry":{"coordinates":[28.360584,57.809128],"type":"Point"},"properties":{"osm_id":"6794788019","tag":{"amenity":"recycling","recycling:paper":"yes","recycling:plastic":"yes"}},"type":"Feature"},
	{"geometry":{"coordinates":[28.361261,57.810088],"type":"Point"},"properties":{"osm_id":"6794902787","tag":{"amenity":"waste_disposal"}},"type":"Feature"},
	{"geometry":{"coordinates":[28.346086,57.809512],"type":"Point"},"properties":{"osm_id":"6794913585","tag":{"amenity":"waste_disposal"}},"type":"Feature"},
	{"geometry":{"coordinates":[28.358958,57.812353],"type":"Point"},"properties":{"osm_id":"6794926889","tag":{"amenity":"waste_disposal"}},"type":"Feature"},
	{"geometry":{"coordinates":[28.360099,57.810385],"type":"Point"},"properties":{"osm_id":"6794982586","tag":{"amenity":"waste_disposal"}},"type":"Feature"},
	{"geometry":{"coordinates":[28.35439,57.812429],"type":"Point"},"properties":{"osm_id":"6795041686","tag":{"amenity":"waste_disposal"}},"type":"Feature"},
	{"geometry":{"coordinates":[28.355992,57.812808],"type":"Point"},"properties":{"osm_id":"6795049485","tag":{"amenity":"waste_disposal"}},"type":"Feature"},
	{"geometry":{"coordinates":[28.351608,57.81297],"type":"Point"},"properties":{"osm_id":"6795120385","tag":{"amenity":"waste_disposal"}},"type":"Feature"},
	{"geometry":{"coordinates":[28.350951,57.810984],"type":"Point"},"properties":{"osm_id":"6795157286","tag":{"amenity":"waste_disposal"}},"type":"Feature"},
	{"geometry":{"coordinates":[28.3467,57.807426],"type":"Point"},"properties":{"osm_id":"6795214388","tag":{"amenity":"waste_disposal"}},"type":"Feature"},
	{"geometry":{"coordinates":[28.337887,57.805316],"type":"Point"},"properties":{"osm_id":"6795549185","tag":{"amenity":"waste_disposal"}},"type":"Feature"},
	{"geometry":{"coordinates":[28.335785,57.806779],"type":"Point"},"properties":{"osm_id":"6795552085","tag":{"amenity":"waste_disposal"}},"type":"Feature"},
	{"geometry":{"coordinates":[28.333947,57.811095],"type":"Point"},"properties":{"osm_id":"6795552087","tag":{"amenity":"waste_disposal"}},"type":"Feature"},
	{"geometry":{"coordinates":[28.334937,57.80916],"type":"Point"},"properties":{"osm_id":"6795553785","tag":{"amenity":"waste_disposal"}},"type":"Feature"},
	{"geometry":{"coordinates":[28.336001,57.811599],"type":"Point"},"properties":{"osm_id":"6795553787","tag":{"amenity":"waste_disposal"}},"type":"Feature"},
	{"geometry":{"coordinates":[28.335917,57.811602],"type":"Point"},"properties":{"osm_id":"6795553788","tag":{"amenity":"recycling","recycling:glass":"yes","recycling:paper":"yes","recycling:plastic":"yes"}},"type":"Feature"},
	{"geometry":{"coordinates":[28.337617,57.813376],"type":"Point"},"properties":{"osm_id":"6795563789","tag":{"amenity":"recycling","recycling:paper":"yes","recycling:plastic":"yes"}},"type":"Feature"},
	{"geometry":{"coordinates":[28.343402,57.816649],"type":"Point"},"properties":{"osm_id":"6795577986","tag":{"amenity":"waste_disposal"}},"type":"Feature"},
	{"geometry":{"coordinates":[28.339168,57.813216],"type":"Point"},"properties":{"osm_id":"6795585087","tag":{"amenity":"waste_disposal"}},"type":"Feature"},
	{"geometry":{"coordinates":[28.340346,57.814069],"type":"Point"},"properties":{"osm_id":"6795585088","tag":{"amenity":"waste_disposal"}},"type":"Feature"},
	{"geometry":{"coordinates":[28.340257,57.814106],"type":"Point"},"properties":{"osm_id":"6795585089","tag":{"amenity":"recycling","recycling:paper":"yes","recycling:plastic":"yes"}},"type":"Feature"},
	{"geometry":{"coordinates":[28.344911,57.815198],"type":"Point"},"properties":{"osm_id":"6795634691","tag":{"amenity":"waste_disposal"}},"type":"Feature"},
	{"geometry":{"coordinates":[28.343152,57.814697],"type":"Point"},"properties":{"osm_id":"6795647955","tag":{"amenity":"waste_disposal"}},"type":"Feature"},
	{"geometry":{"coordinates":[28.343129,57.814686],"type":"Point"},"properties":{"osm_id":"6795659085","tag":{"amenity":"recycling","recycling:paper":"yes","recycling:plastic":"yes"}},"type":"Feature"},
	{"geometry":{"coordinates":[28.341421,57.813387],"type":"Point"},"properties":{"osm_id":"6795660786","tag":{"amenity":"waste_disposal"}},"type":"Feature"},
	{"geometry":{"coordinates":[28.332622,57.809477],"type":"Point"},"properties":{"osm_id":"6795661187","tag":{"amenity":"waste_disposal"}},"type":"Feature"},
	{"geometry":{"coordinates":[28.341613,57.81341],"type":"Point"},"properties":{"osm_id":"6795661386","tag":{"amenity":"recycling","recycling:paper":"yes","recycling:plastic":"yes"}},"type":"Feature"},
	{"geometry":{"coordinates":[28.341327,57.8127],"type":"Point"},"properties":{"osm_id":"6795673585","tag":{"amenity":"waste_disposal"}},"type":"Feature"},
	{"geometry":{"coordinates":[28.33403,57.808062],"type":"Point"},"properties":{"osm_id":"6795695385","tag":{"amenity":"waste_disposal"}},"type":"Feature"},
	{"geometry":{"coordinates":[28.334126,57.808078],"type":"Point"},"properties":{"osm_id":"6795696185","tag":{"amenity":"recycling","recycling:plastic":"yes"}},"type":"Feature"},
	{"geometry":{"coordinates":[28.339815,57.806695],"type":"Point"},"properties":{"osm_id":"6795707886","tag":{"amenity":"waste_disposal"}},"type":"Feature"},
	{"geometry":{"coordinates":[28.339909,57.806686],"type":"Point"},"properties":{"osm_id":"6795726585","tag":{"amenity":"recycling","recycling:plastic":"yes"}},"type":"Feature"},
	{"geometry":{"coordinates":[28.356831,57.81149],"type":"Point"},"properties":{"osm_id":"6799924286","tag":{"amenity":"waste_disposal"}},"type":"Feature"},
	{"geometry":{"coordinates":[28.315922,57.815382],"type":"Point"},"properties":{"osm_id":"6799941588","tag":{"amenity":"waste_disposal"}},"type":"Feature"},
	{"geometry":{"coordinates":[28.315847,57.815376],"type":"Point"},"properties":{"osm_id":"6799941589","tag":{"amenity":"recycling","recycling:cans":"yes","recycling:glass_bottles":"yes","recycling:paper":"yes","recycling:plastic":"yes","recycling:plastic_bags":"yes"}},"type":"Feature"},
	{"geometry":{"coordinates":[28.316091,57.814798],"type":"Point"},"properties":{"osm_id":"6799941590","tag":{"amenity":"waste_disposal"}},"type":"Feature"},
	{"geometry":{"coordinates":[28.314409,57.81554],"type":"Point"},"properties":{"osm_id":"6799971785","tag":{"amenity":"waste_disposal"}},"type":"Feature"},
	{"geometry":{"coordinates":[28.317337,57.817491],"type":"Point"},"properties":{"osm_id":"6800000385","tag":{"amenity":"recycling","recycling:cans":"yes","recycling:glass_bottles":"yes","recycling:paper":"yes","recycling:plastic":"yes","recycling:plastic_bags":"yes"}},"type":"Feature"},
	{"geometry":{"coordinates":[28.302008,57.837804],"type":"Point"},"properties":{"osm_id":"6801209989","tag":{"amenity":"waste_disposal"}},"type":"Feature"},
	{"geometry":{"coordinates":[28.302482,57.839028],"type":"Point"},"properties":{"osm_id":"6801265160","tag":{"amenity":"waste_disposal"}},"type":"Feature"},
	{"geometry":{"coordinates":[28.301248,57.840456],"type":"Point"},"properties":{"osm_id":"6801267236","tag":{"amenity":"waste_disposal"}},"type":"Feature"},
	{"geometry":{"coordinates":[28.301063,57.839491],"type":"Point"},"properties":{"osm_id":"6801271587","tag":{"amenity":"waste_disposal"}},"type":"Feature"},
	{"geometry":{"coordinates":[28.311001,57.833639],"type":"Point"},"properties":{"osm_id":"6801468286","tag":{"amenity":"waste_disposal"}},"type":"Feature"},
	{"geometry":{"coordinates":[28.33539,57.815256],"type":"Point"},"properties":{"osm_id":"6802106885","tag":{"amenity":"waste_disposal"}},"type":"Feature"},
	{"geometry":{"coordinates":[28.336729,57.818336],"type":"Point"},"properties":{"osm_id":"6808333985","tag":{"amenity":"waste_disposal"}},"type":"Feature"},
	{"geometry":{"coordinates":[28.331973,57.825426],"type":"Point"},"properties":{"osm_id":"6816887487","tag":{"amenity":"waste_disposal"}},"type":"Feature"},
	{"geometry":{"coordinates":[28.303405,57.836815],"type":"Point"},"properties":{"osm_id":"6821872185","tag":{"amenity":"waste_disposal"}},"type":"Feature"},
	{"geometry":{"coordinates":[28.309879,57.839483],"type":"Point"},"properties":{"name":"\u00d0\u00ad\u00d0\u00ba\u00d0\u00be\u00d0\u009f\u00d1\u0080\u00d0\u00be\u00d0\u00bc\u00d0\u00a1\u00d0\u00b5\u00d1\u0080\u00d0\u00b2\u00d0\u00b8\u00d1\u0081","osm_id":"6822048085","tag":{"amenity":"recycling","description":"\u00d0\u009f\u00d1\u0080\u00d0\u00b8\u00d0\u00bd\u00d0\u00b8\u00d0\u00bc\u00d1\u008e\u00d1\u0082 \u00d0\u00b1\u00d0\u00b5\u00d1\u0081\u00d0\u00bf\u00d0\u00bb\u00d0\u00b0\u00d1\u0082\u00d0\u00bd\u00d0\u00be \u00d0\u00be\u00d1\u0082 \u00d1\u0087\u00d0\u00b0\u00d1\u0081\u00d1\u0082\u00d0\u00bd\u00d1\u008b\u00d1\u0085 \u00d0\u00bb\u00d0\u00b8\u00d1\u0086 \u00d0\u00bd\u00d0\u00b5\u00d0\u00b1\u00d0\u00be\u00d0\u00bb\u00d1\u008c\u00d1\u0088\u00d0\u00be\u00d0\u00b5 \u00d0\u00ba\u00d0\u00be\u00d0\u00bb\u00d0\u00b8\u00d1\u0087\u00d0\u00b5\u00d1\u0081\u00d1\u0082\u00d0\u00b2\u00d0\u00be \u00d0\u00b1\u00d0\u00b0\u00d1\u0082\u00d0\u00b0\u00d1\u0080\u00d0\u00b5\u00d0\u00b5\u00d0\u00ba \u00d0\u00b8 5 \u00d0\u00bb\u00d1\u008e\u00d0\u00bc\u00d0\u00b8\u00d0\u00bd\u00d0\u00b5\u00d1\u0081\u00d1\u0086\u00d0\u00b5\u00d0\u00bd\u00d1\u0082\u00d0\u00bd\u00d1\u008b\u00d1\u0085 \u00d0\u00bb\u00d0\u00b0\u00d0\u00bc\u00d0\u00bf. \u00d0\u0091\u00d0\u00be\u00d0\u00bb\u00d0\u00b5\u00d0\u00b5 5 \u00d0\u00bb\u00d0\u00b0\u00d0\u00bc\u00d0\u00bf - 22 \u00d1\u0080\u00d1\u0083\u00d0\u00b1\u00d0\u00bb\u00d1\u008f \u00d0\u00b7\u00d0\u00b0 \u00d1\u0088\u00d1\u0082\u00d1\u0083\u00d0\u00ba\u00d1\u0083. \u00d0\u00a0\u00d0\u00b0\u00d0\u00b1\u00d0\u00be\u00d1\u0082\u00d0\u00b0\u00d1\u008e\u00d1\u0082 \u00d0\u009f\u00d0\u009d-\u00d0\u009f\u00d0\u00a2 9.00-18.00","opening_hours":"Mo-Fr 09:00-18:00","recycling:batteries":"yes","recycling:low_energy_bulbs":"yes","recycling_type":"centre"}},"type":"Feature"},
	{"geometry":{"coordinates":[28.348187,57.813961],"type":"Point"},"properties":{"osm_id":"6822952285","tag":{"amenity":"waste_disposal"}},"type":"Feature"},
	{"geometry":{"coordinates":[28.346292,57.803871],"type":"Point"},"properties":{"osm_id":"6823339285","tag":{"amenity":"recycling","recycling:cans":"yes","recycling:glass_bottles":"yes","recycling:paper":"yes","recycling:plastic":"yes","recycling:plastic_bags":"yes"}},"type":"Feature"},
	{"geometry":{"coordinates":[28.349455,57.813458],"type":"Point"},"properties":{"osm_id":"6824712485","tag":{"amenity":"waste_disposal"}},"type":"Feature"},
	{"geometry":{"coordinates":[28.346818,57.812372],"type":"Point"},"properties":{"osm_id":"6824714186","tag":{"amenity":"waste_disposal"}},"type":"Feature"},
	{"geometry":{"coordinates":[28.348479,57.81163],"type":"Point"},"properties":{"osm_id":"6824728085","tag":{"amenity":"waste_disposal"}},"type":"Feature"},
	{"geometry":{"coordinates":[28.348506,57.811683],"type":"Point"},"properties":{"osm_id":"6824728385","tag":{"amenity":"recycling","recycling:cans":"yes","recycling:glass_bottles":"yes","recycling:paper":"yes","recycling:plastic":"yes","recycling:plastic_bags":"yes"}},"type":"Feature"},
	{"geometry":{"coordinates":[28.337739,57.804061],"type":"Point"},"properties":{"osm_id":"6824816885","tag":{"amenity":"waste_disposal"}},"type":"Feature"},
	{"geometry":{"coordinates":[28.342637,57.804638],"type":"Point"},"properties":{"osm_id":"6824836885","tag":{"amenity":"waste_disposal"}},"type":"Feature"},
	{"geometry":{"coordinates":[28.313237,57.810394],"type":"Point"},"properties":{"osm_id":"6827163087","tag":{"amenity":"recycling","recycling:plastic":"yes"}},"type":"Feature"},
	{"geometry":{"coordinates":[28.34607,57.809531],"type":"Point"},"properties":{"osm_id":"6827163088","tag":{"amenity":"recycling","recycling:plastic":"yes"}},"type":"Feature"},
	{"geometry":{"coordinates":[28.313149,57.81038],"type":"Point"},"properties":{"osm_id":"6827163292","tag":{"amenity":"waste_disposal"}},"type":"Feature"},
	{"geometry":{"coordinates":[28.344225,57.808608],"type":"Point"},"properties":{"osm_id":"6827236785","tag":{"amenity":"waste_disposal"}},"type":"Feature"},
	{"geometry":{"coordinates":[28.345673,57.833956],"type":"Point"},"properties":{"osm_id":"6828010085","tag":{"amenity":"recycling","recycling:cans":"yes","recycling:glass_bottles":"yes","recycling:paper":"yes","recycling:plastic":"yes","recycling:plastic_bags":"yes"}},"type":"Feature"},
	{"geometry":{"coordinates":[28.345727,57.833996],"type":"Point"},"properties":{"osm_id":"6828014185","tag":{"amenity":"waste_disposal"}},"type":"Feature"},
	{"geometry":{"coordinates":[28.332479,57.820341],"type":"Point"},"properties":{"osm_id":"6828046386","tag":{"amenity":"waste_disposal"}},"type":"Feature"},
	{"geometry":{"coordinates":[28.343732,57.803332],"type":"Point"},"properties":{"osm_id":"6828132287","tag":{"amenity":"waste_disposal"}},"type":"Feature"},
	{"geometry":{"coordinates":[28.348249,57.802667],"type":"Point"},"properties":{"osm_id":"6828136987","tag":{"amenity":"waste_disposal","description":"\u00d0\u009d\u00d0\u00b0 \u00d1\u0082\u00d0\u00b5\u00d1\u0080\u00d1\u0080\u00d0\u00b8\u00d1\u0082\u00d0\u00be\u00d1\u0080\u00d0\u00b8\u00d0\u00b8 \u00d1\u0082\u00d0\u00b8\u00d0\u00bf\u00d0\u00be\u00d0\u00b3\u00d1\u0080\u00d0\u00b0\u00d1\u0084\u00d0\u00b8\u00d0\u00b8"}},"type":"Feature"},
	{"geometry":{"coordinates":[28.344908,57.801753],"type":"Point"},"properties":{"osm_id":"6828143185","tag":{"amenity":"waste_disposal","description":"\u00d0\u009a\u00d0\u00be\u00d0\u00bd\u00d1\u0082\u00d0\u00b5\u00d0\u00b9\u00d0\u00bd\u00d0\u00b5\u00d1\u0080 \u00d0\u00b2\u00d0\u00be \u00d0\u00b4\u00d0\u00b2\u00d0\u00be\u00d1\u0080\u00d0\u00b5 \u00d0\u00b7\u00d0\u00b0 \u00d1\u0088\u00d0\u00bb\u00d0\u00b0\u00d0\u00b3\u00d0\u00b1\u00d0\u00b0\u00d1\u0083\u00d0\u00bc\u00d0\u00be\u00d0\u00bc"}},"type":"Feature"},
	{"geometry":{"coordinates":[28.346495,57.805616],"type":"Point"},"properties":{"osm_id":"6828182785","tag":{"amenity":"waste_disposal"}},"type":"Feature"},
	{"geometry":{"coordinates":[28.323375,57.830816],"type":"Point"},"properties":{"osm_id":"6828568887","tag":{"amenity":"recycling","description":"\u00d0\u00a3\u00d0\u009a \u00d0\u009e\u00d0\u009e\u00d0\u009e \u00d0\u009c\u00d0\u00b8\u00d0\u00ba\u00d1\u0080\u00d0\u00be\u00d1\u0080\u00d0\u00b0\u00d0\u00b9\u00d0\u00be\u00d0\u00bd 11 \u00d0\u00bf\u00d1\u0080\u00d0\u00b8\u00d0\u00bd\u00d0\u00b8\u00d0\u00bc\u00d0\u00b0\u00d0\u00b5\u00d1\u0082 \u00d0\u00b1\u00d0\u00b0\u00d1\u0082\u00d0\u00b0\u00d1\u0080\u00d0\u00b5\u00d0\u00b9\u00d0\u00ba\u00d0\u00b8 \u00d0\u00b8 \u00d0\u00bb\u00d0\u00b0\u00d0\u00bc\u00d0\u00bf\u00d0\u00be\u00d1\u0087\u00d0\u00ba\u00d0\u00b8 \u00d1\u0082\u00d0\u00be\u00d0\u00bb\u00d1\u008c\u00d0\u00ba\u00d0\u00be \u00d0\u00be\u00d1\u0082 \u00d0\u00b6\u00d0\u00b8\u00d1\u0082\u00d0\u00b5\u00d0\u00bb\u00d0\u00b5\u00d0\u00b9 \u00d0\u00b4\u00d0\u00be\u00d0\u00bc\u00d0\u00be\u00d0\u00b2, \u00d0\u00ba\u00d0\u00be\u00d1\u0082\u00d0\u00be\u00d1\u0080\u00d1\u008b\u00d0\u00b5 \u00d0\u00be\u00d0\u00b1\u00d1\u0081\u00d0\u00bb\u00d1\u0083\u00d0\u00b6\u00d0\u00b8\u00d0\u00b2\u00d0\u00b0\u00d0\u00b5\u00d1\u0082 \u00d1\u008d\u00d1\u0082\u00d0\u00b0 \u00d0\u00a3\u00d0\u009a. \u00d0\u009f\u00d0\u009d-\u00d0\u00a7\u00d0\u00a2 (8-12  13-17);  \u00d0\u009f\u00d0\u00a2 \u00d0\u00b4\u00d0\u00be 16","recycling:batteries":"yes","recycling:low_energy_bulbs":"yes"}},"type":"Feature"},
	{"geometry":{"coordinates":[28.344158,57.808623],"type":"Point"},"properties":{"osm_id":"6831380185","tag":{"amenity":"recycling","recycling:cans":"yes","recycling:glass_bottles":"yes","recycling:paper":"yes","recycling:plastic":"yes","recycling:plastic_bags":"yes"}},"type":"Feature"},
	{"geometry":{"coordinates":[28.341484,57.809478],"type":"Point"},"properties":{"osm_id":"6831380186","tag":{"amenity":"waste_disposal"}},"type":"Feature"},
	{"geometry":{"coordinates":[28.342023,57.808767],"type":"Point"},"properties":{"osm_id":"6831390285","tag":{"amenity":"waste_disposal"}},"type":"Feature"},
	{"geometry":{"coordinates":[28.318949,57.817084],"type":"Point"},"properties":{"osm_id":"6832902885","tag":{"amenity":"waste_disposal"}},"type":"Feature"},
	{"geometry":{"coordinates":[28.319527,57.816624],"type":"Point"},"properties":{"osm_id":"6832902886","tag":{"amenity":"waste_disposal"}},"type":"Feature"},
	{"geometry":{"coordinates":[28.318867,57.817062],"type":"Point"},"properties":{"osm_id":"6832903285","tag":{"amenity":"recycling","recycling:cans":"yes","recycling:glass_bottles":"yes","recycling:paper":"yes","recycling:plastic":"yes","recycling:plastic_bags":"yes"}},"type":"Feature"},
	{"geometry":{"coordinates":[28.335379,57.814091],"type":"Point"},"properties":{"osm_id":"6833013489","tag":{"amenity":"waste_disposal"}},"type":"Feature"},
	{"geometry":{"coordinates":[28.335175,57.81259],"type":"Point"},"properties":{"osm_id":"6833036285","tag":{"amenity":"waste_disposal"}},"type":"Feature"},
	{"geometry":{"coordinates":[28.336259,57.814283],"type":"Point"},"properties":{"osm_id":"6833045886","tag":{"amenity":"waste_disposal"}},"type":"Feature"},
	{"geometry":{"coordinates":[28.339106,57.812328],"type":"Point"},"properties":{"osm_id":"6833045887","tag":{"amenity":"waste_disposal"}},"type":"Feature"},
	{"geometry":{"coordinates":[28.341473,57.805806],"type":"Point"},"properties":{"osm_id":"6833727786","tag":{"amenity":"waste_disposal"}},"type":"Feature"},
	{"geometry":{"coordinates":[28.360357,57.812398],"type":"Point"},"properties":{"osm_id":"6838102192","tag":{"amenity":"waste_disposal"}},"type":"Feature"},
	{"geometry":{"coordinates":[28.360394,57.811958],"type":"Point"},"properties":{"osm_id":"6838107990","tag":{"amenity":"waste_disposal"}},"type":"Feature"},
	{"geometry":{"coordinates":[28.362724,57.813356],"type":"Point"},"properties":{"osm_id":"6838158985","tag":{"amenity":"waste_disposal"}},"type":"Feature"},
	{"geometry":{"coordinates":[28.356278,57.813809],"type":"Point"},"properties":{"osm_id":"6838181785","tag":{"amenity":"waste_disposal"}},"type":"Feature"},
	{"geometry":{"coordinates":[28.352004,57.815955],"type":"Point"},"properties":{"osm_id":"6838182487","tag":{"amenity":"waste_disposal"}},"type":"Feature"},
	{"geometry":{"coordinates":[28.355058,57.813584],"type":"Point"},"properties":{"osm_id":"6838183786","tag":{"amenity":"waste_disposal"}},"type":"Feature"},
	{"geometry":{"coordinates":[28.353597,57.814031],"type":"Point"},"properties":{"osm_id":"6838183787","tag":{"amenity":"recycling","description":"\u00d0\u00a1 \u00d0\u00ba\u00d1\u0080\u00d1\u008b\u00d1\u0088\u00d0\u00b5\u00d0\u00b9","recycling:cans":"yes","recycling:glass_bottles":"yes","recycling:paper":"yes","recycling:plastic":"yes","recycling:plastic_bags":"yes","recycling_type":"container"}},"type":"Feature"},
	{"geometry":{"coordinates":[28.353501,57.813971],"type":"Point"},"properties":{"osm_id":"6838188885","tag":{"amenity":"waste_disposal"}},"type":"Feature"},
	{"geometry":{"coordinates":[28.350791,57.815593],"type":"Point"},"properties":{"osm_id":"6838206585","tag":{"amenity":"waste_disposal"}},"type":"Feature"},
	{"geometry":{"coordinates":[28.354143,57.811892],"type":"Point"},"properties":{"osm_id":"6838220987","tag":{"amenity":"waste_disposal"}},"type":"Feature"},
	{"geometry":{"coordinates":[28.35459,57.811838],"type":"Point"},"properties":{"osm_id":"6838222586","tag":{"amenity":"waste_disposal"}},"type":"Feature"},
	{"geometry":{"coordinates":[28.313404,57.808131],"type":"Point"},"properties":{"osm_id":"6842785985","tag":{"amenity":"waste_disposal"}},"type":"Feature"},
	{"geometry":{"coordinates":[28.313493,57.80811],"type":"Point"},"properties":{"osm_id":"6842789285","tag":{"amenity":"recycling","recycling:cans":"yes","recycling:glass_bottles":"yes","recycling:paper":"yes","recycling:plastic":"yes","recycling:plastic_bags":"yes","recycling_type":"container"}},"type":"Feature"},
	{"geometry":{"coordinates":[28.357717,57.81107],"type":"Point"},"properties":{"osm_id":"6878866490","tag":{"amenity":"waste_disposal"}},"type":"Feature"},
	{"geometry":{"coordinates":[28.358545,57.810846],"type":"Point"},"properties":{"osm_id":"6878910285","tag":{"amenity":"waste_disposal"}},"type":"Feature"},
	{"geometry":{"coordinates":[28.358438,57.810872],"type":"Point"},"properties":{"osm_id":"6878910286","tag":{"amenity":"recycling","recycling:cans":"yes","recycling:glass_bottles":"yes","recycling:paper":"yes","recycling:plastic":"yes","recycling:plastic_bags":"yes","recycling:plastic_bottles":"yes","recycling_type":"container"}},"type":"Feature"},
	{"geometry":{"coordinates":[28.343172,57.824465],"type":"Point"},"properties":{"osm_id":"6879739585","tag":{"amenity":"waste_disposal"}},"type":"Feature"},
	{"geometry":{"coordinates":[28.343222,57.824446],"type":"Point"},"properties":{"osm_id":"6879741285","tag":{"amenity":"recycling","recycling:cans":"yes","recycling:glass_bottles":"yes","recycling:paper":"yes","recycling:plastic":"yes","recycling:plastic_bags":"yes","recycling:plastic_bottles":"yes","recycling_type":"container"}},"type":"Feature"},
	{"geometry":{"coordinates":[28.332273,57.821366],"type":"Point"},"properties":{"osm_id":"6882664985","tag":{"amenity":"waste_disposal"}},"type":"Feature"},
	{"geometry":{"coordinates":[28.31573,57.804965],"type":"Point"},"properties":{"osm_id":"6900264586","tag":{"amenity":"recycling","recycling:cans":"yes","recycling:glass_bottles":"yes","recycling:paper":"yes","recycling:plastic":"yes","recycling:plastic_bags":"yes","recycling:plastic_bottles":"yes","recycling_type":"container"}},"type":"Feature"},
	{"geometry":{"coordinates":[28.315908,57.802823],"type":"Point"},"properties":{"osm_id":"6900280485","tag":{"amenity":"waste_disposal"}},"type":"Feature"},
	{"geometry":{"coordinates":[28.319659,57.80325],"type":"Point"},"properties":{"osm_id":"6900286385","tag":{"amenity":"waste_disposal"}},"type":"Feature"},
	{"geometry":{"coordinates":[28.319667,57.803297],"type":"Point"},"properties":{"osm_id":"6900288485","tag":{"amenity":"recycling","recycling:cans":"yes","recycling:glass_bottles":"yes","recycling:paper":"yes","recycling:plastic":"yes","recycling:plastic_bags":"yes","recycling:plastic_bottles":"yes","recycling_type":"container"}},"type":"Feature"},
	{"geometry":{"coordinates":[28.322356,57.817212],"type":"Point"},"properties":{"osm_id":"6900436685","tag":{"amenity":"recycling","recycling:cans":"yes","recycling:glass_bottles":"yes","recycling:paper":"yes","recycling:plastic":"yes","recycling:plastic_bags":"yes","recycling:plastic_bottles":"yes","recycling_type":"container"}},"type":"Feature"},
	{"geometry":{"coordinates":[28.322476,57.817192],"type":"Point"},"properties":{"osm_id":"6900436686","tag":{"amenity":"waste_disposal"}},"type":"Feature"},
	{"geometry":{"coordinates":[28.321444,57.819117],"type":"Point"},"properties":{"osm_id":"6900563185","tag":{"amenity":"recycling","recycling:cans":"yes","recycling:glass_bottles":"yes","recycling:paper":"yes","recycling:plastic":"yes","recycling:plastic_bags":"yes","recycling:plastic_bottles":"yes","recycling_type":"container"}},"type":"Feature"},
	{"geometry":{"coordinates":[28.322708,57.828926],"type":"Point"},"properties":{"osm_id":"6908974085","tag":{"amenity":"recycling","recycling:plastic_bottles":"yes","recycling_type":"container"}},"type":"Feature"},
	{"geometry":{"coordinates":[28.340024,57.839778],"type":"Point"},"properties":{"osm_id":"7255788886","tag":{"amenity":"waste_disposal"}},"type":"Feature"},
	{"geometry":{"coordinates":[28.340008,57.839827],"type":"Point"},"properties":{"osm_id":"7255817285","tag":{"amenity":"recycling","recycling:cans":"yes","recycling:glass_bottles":"yes","recycling:paper":"yes","recycling:plastic":"yes","recycling:plastic_bags":"yes","recycling:plastic_bottles":"yes","recycling_type":"container"}},"type":"Feature"},
	{"geometry":{"coordinates":[28.328946,57.826569],"type":"Point"},"properties":{"osm_id":"7276891188","tag":{"amenity":"recycling","recycling:plastic":"yes","recycling:plastic_bottles":"yes","recycling_type":"container"}},"type":"Feature"},
	{"geometry":{"coordinates":[28.328978,57.826589],"type":"Point"},"properties":{"osm_id":"7276918885","tag":{"amenity":"waste_disposal"}},"type":"Feature"},
	{"geometry":{"coordinates":[28.333063,57.815985],"type":"Point"},"properties":{"name":"\u00d0\u0098\u00d0\u00bd\u00d1\u0081\u00d1\u0082\u00d0\u00b8\u00d1\u0082\u00d1\u0083\u00d1\u0082 \u00d0\u00bf\u00d1\u0080\u00d0\u00be\u00d1\u0084\u00d0\u00b5\u00d1\u0081\u00d1\u0081\u00d0\u00b8\u00d0\u00be\u00d0\u00bd\u00d0\u00b0\u00d0\u00bb\u00d1\u008c\u00d0\u00bd\u00d0\u00be\u00d0\u00b3\u00d0\u00be \u00d0\u00be\u00d0\u00b1\u00d1\u0080\u00d0\u00b0\u00d0\u00b7\u00d0\u00be\u00d0\u00b2\u00d0\u00b0\u00d0\u00bd\u00d0\u00b8\u00d1\u008f \"\u00d0\u00ad\u00d0\u009a\u00d0\u00a1\u00d0\u009f\u00d0\u0095\u00d0\u00a0\u00d0\u00a2\"","osm_id":"7285799885","tag":{"amenity":"recycling","description":"\u00d0\u00a0\u00d0\u00b0\u00d0\u00b1\u00d0\u00be\u00d1\u0082\u00d0\u00b0\u00d0\u00b5\u00d0\u00bc \u00d1\u0081 09: 00-17.00 \u00d0\u009f\u00d0\u00bd-\u00d0\u009f\u00d1\u0082 \u00d1\u0083\u00d0\u00bb.\u00d0\u00a1\u00d0\u00be\u00d0\u00b2\u00d0\u00b5\u00d1\u0082\u00d1\u0081\u00d0\u00ba\u00d0\u00b0\u00d1\u008f 15 \u00d0\u00b0., \u00d0\u00ba\u00d0\u00b0\u00d0\u00b1.37 (3 \u00d1\u008d\u00d1\u0082\u00d0\u00b0\u00d0\u00b6) ","recycling:batteries":"yes","recycling_type":"centre"}},"type":"Feature"},
	{"geometry":{"coordinates":[28.332328,57.820062],"type":"Point"},"properties":{"name":"Oriflame","osm_id":"7314967685","tag":{"amenity":"recycling","description":"2 \u00d1\u008d\u00d1\u0082\u00d0\u00b0\u00d0\u00b6,  \u00d0\u00be\u00d1\u0084\u00d0\u00b8\u00d1\u0081 21.  \u00d0\u0092\u00d1\u0080\u00d0\u00b5\u00d0\u00bc\u00d1\u008f \u00d1\u0080\u00d0\u00b0\u00d0\u00b1\u00d0\u00be\u00d1\u0082\u00d1\u008b: \u00d0\u009f\u00d0\u009d, \u00d0\u0092\u00d0\u00a2, \u00d0\u00a7\u00d0\u00a2, \u00d0\u009f\u00d0\u00a2 \u00d1\u0081 15.00-19.00","recycling:batteries":"yes","recycling_type":"centre"}},"type":"Feature"},
	{"geometry":{"coordinates":[28.35818,57.80436],"type":"Point"},"properties":{"osm_id":"7342325886","tag":{"amenity":"recycling","recycling:cans":"yes","recycling:glass_bottles":"yes","recycling:paper":"yes","recycling:plastic":"yes","recycling:plastic_bags":"yes","recycling_type":"container"}},"type":"Feature"},
	{"geometry":{"coordinates":[28.32596,57.813544],"type":"Point"},"properties":{"osm_id":"7449370985","tag":{"amenity":"recycling","recycling:plastic_bottles":"yes","recycling_type":"container"}},"type":"Feature"},
	{"geometry":{"coordinates":[28.326021,57.813533],"type":"Point"},"properties":{"osm_id":"7449371485","tag":{"amenity":"waste_disposal"}},"type":"Feature"},
	{"geometry":{"coordinates":[28.358023,57.828794],"type":"Point"},"properties":{"osm_id":"7669816386","tag":{"amenity":"waste_disposal"}},"type":"Feature"}
]
}
