{
"type": "FeatureCollection",
"features": [
	{"geometry":{"coordinates":[28.324699,-15.390655],"type":"Point"},"properties":{"osm_id":"1764058882","tag":{"amenity":"waste_basket"}},"type":"Feature"},
	{"geometry":{"coordinates":[28.32917,-15.39214],"type":"Point"},"properties":{"osm_id":"1764058956","tag":{"amenity":"waste_basket"}},"type":"Feature"},
	{"geometry":{"coordinates":[28.330039,-15.396868],"type":"Point"},"properties":{"osm_id":"1764059135","tag":{"amenity":"waste_basket"}},"type":"Feature"},
	{"geometry":{"coordinates":[28.310696,-15.406747],"type":"Point"},"properties":{"osm_id":"4678643912","tag":{"addr:street":"Mtedza Road","amenity":"waste_disposal"}},"type":"Feature"},
	{"geometry":{"coordinates":[28.309315,-15.422791],"type":"Point"},"properties":{"osm_id":"6532311086","tag":{"amenity":"waste_basket"}},"type":"Feature"},
	{"geometry":{"coordinates":[28.309392,-15.422747],"type":"Point"},"properties":{"osm_id":"6532316885","tag":{"amenity":"waste_basket"}},"type":"Feature"},
	{"geometry":{"coordinates":[28.309191,-15.42245],"type":"Point"},"properties":{"osm_id":"6532317785","tag":{"amenity":"waste_basket"}},"type":"Feature"}
]
}
