{
"type": "FeatureCollection",
"features": [
	{"geometry":{"coordinates":[19.0578,50.305557],"type":"Point"},"properties":{"name":"Punkt Selektywnego Zbierania Odpad\u00c3\u00b3w","osm_id":"2318816317","tag":{"amenity":"recycling","recycling:batteries":"yes","recycling:books":"yes","recycling:cans":"yes","recycling:cardboard":"yes","recycling:cartons":"yes","recycling:clothes":"yes","recycling:electrical_appliances":"yes","recycling:glass":"yes","recycling:glass_bottles":"yes","recycling:green_waste":"yes","recycling:magazines":"yes","recycling:newspaper":"yes","recycling:paper":"yes","recycling:paper_packaging":"yes","recycling:plastic":"yes","recycling:plastic_bottles":"yes","recycling:plastic_packaging":"yes","recycling:scrap_metal":"yes","recycling:small_appliances":"yes","recycling:waste":"yes","recycling:wood":"yes","recycling_type":"centre"}},"type":"Feature"},
	{"geometry":{"coordinates":[19.044368,50.31054],"type":"Point"},"properties":{"osm_id":"2412914764","tag":{"amenity":"waste_basket"}},"type":"Feature"},
	{"geometry":{"coordinates":[19.043928,50.310289],"type":"Point"},"properties":{"osm_id":"2412914777","tag":{"amenity":"waste_basket"}},"type":"Feature"},
	{"geometry":{"coordinates":[19.043944,50.310236],"type":"Point"},"properties":{"osm_id":"2412914781","tag":{"amenity":"waste_basket"}},"type":"Feature"},
	{"geometry":{"coordinates":[19.044589,50.310233],"type":"Point"},"properties":{"osm_id":"2412918315","tag":{"amenity":"waste_basket"}},"type":"Feature"},
	{"geometry":{"coordinates":[19.044593,50.310165],"type":"Point"},"properties":{"osm_id":"2412918317","tag":{"amenity":"waste_basket"}},"type":"Feature"},
	{"geometry":{"coordinates":[19.04459,50.310289],"type":"Point"},"properties":{"osm_id":"2412918318","tag":{"amenity":"waste_basket"}},"type":"Feature"},
	{"geometry":{"coordinates":[19.044569,50.310213],"type":"Point"},"properties":{"osm_id":"2412918321","tag":{"amenity":"waste_basket"}},"type":"Feature"},
	{"geometry":{"coordinates":[19.044565,50.310277],"type":"Point"},"properties":{"osm_id":"2412918323","tag":{"amenity":"waste_basket"}},"type":"Feature"},
	{"geometry":{"coordinates":[19.044707,50.310349],"type":"Point"},"properties":{"osm_id":"2412921087","tag":{"amenity":"waste_basket"}},"type":"Feature"},
	{"geometry":{"coordinates":[19.045054,50.310354],"type":"Point"},"properties":{"osm_id":"2412921698","tag":{"amenity":"waste_basket"}},"type":"Feature"},
	{"geometry":{"coordinates":[19.062476,50.308097],"type":"Point"},"properties":{"osm_id":"2614882478","tag":{"amenity":"waste_basket"}},"type":"Feature"},
	{"geometry":{"coordinates":[19.062462,50.308317],"type":"Point"},"properties":{"osm_id":"2614882483","tag":{"amenity":"waste_basket"}},"type":"Feature"},
	{"geometry":{"coordinates":[19.070503,50.321047],"type":"Point"},"properties":{"osm_id":"4627997150","tag":{"amenity":"waste_basket"}},"type":"Feature"},
	{"geometry":{"coordinates":[19.070583,50.321209],"type":"Point"},"properties":{"osm_id":"4627997151","tag":{"amenity":"waste_basket"}},"type":"Feature"},
	{"geometry":{"coordinates":[19.03211,50.302112],"type":"Point"},"properties":{"osm_id":"4996334996","tag":{"amenity":"waste_basket"}},"type":"Feature"},
	{"geometry":{"coordinates":[19.01456,50.299167],"type":"Point"},"properties":{"osm_id":"5620154535","tag":{"amenity":"waste_basket","waste":"dog_excrement"}},"type":"Feature"},
	{"geometry":{"coordinates":[19.017871,50.298758],"type":"Point"},"properties":{"osm_id":"5620159594","tag":{"amenity":"waste_basket"}},"type":"Feature"},
	{"geometry":{"coordinates":[19.029485,50.325465],"type":"Point"},"properties":{"osm_id":"5709756228","tag":{"amenity":"waste_basket","waste":"trash"}},"type":"Feature"},
	{"geometry":{"coordinates":[19.071624,50.322395],"type":"Point"},"properties":{"osm_id":"5759908850","tag":{"amenity":"waste_basket"}},"type":"Feature"},
	{"geometry":{"coordinates":[18.999059,50.316106],"type":"Point"},"properties":{"osm_id":"5921440533","tag":{"amenity":"waste_basket"}},"type":"Feature"},
	{"geometry":{"coordinates":[19.001452,50.316885],"type":"Point"},"properties":{"osm_id":"5936222980","tag":{"amenity":"waste_disposal"}},"type":"Feature"},
	{"geometry":{"coordinates":[19.00275,50.316485],"type":"Point"},"properties":{"osm_id":"5951754801","tag":{"amenity":"waste_basket"}},"type":"Feature"},
	{"geometry":{"coordinates":[19.017468,50.301254],"type":"Point"},"properties":{"osm_id":"6266336421","tag":{"amenity":"waste_disposal"}},"type":"Feature"},
	{"geometry":{"coordinates":[19.01402,50.299616],"type":"Point"},"properties":{"osm_id":"6269340828","tag":{"amenity":"waste_disposal"}},"type":"Feature"},
	{"geometry":{"coordinates":[19.013789,50.300807],"type":"Point"},"properties":{"osm_id":"6271845243","tag":{"amenity":"waste_disposal"}},"type":"Feature"},
	{"geometry":{"coordinates":[19.019026,50.299446],"type":"Point"},"properties":{"osm_id":"6274387754","tag":{"amenity":"waste_disposal"}},"type":"Feature"},
	{"geometry":{"coordinates":[19.015454,50.299074],"type":"Point"},"properties":{"osm_id":"6295703908","tag":{"amenity":"waste_disposal"}},"type":"Feature"},
	{"geometry":{"coordinates":[19.014858,50.299945],"type":"Point"},"properties":{"osm_id":"6295703920","tag":{"amenity":"waste_disposal"}},"type":"Feature"},
	{"geometry":{"coordinates":[19.012752,50.297961],"type":"Point"},"properties":{"osm_id":"6345750963","tag":{"amenity":"waste_disposal"}},"type":"Feature"},
	{"geometry":{"coordinates":[19.012772,50.297967],"type":"Point"},"properties":{"osm_id":"6345750964","tag":{"amenity":"recycling","recycling_type":"container"}},"type":"Feature"},
	{"geometry":{"coordinates":[19.013004,50.298989],"type":"Point"},"properties":{"osm_id":"6345750965","tag":{"amenity":"recycling","recycling_type":"container"}},"type":"Feature"},
	{"geometry":{"coordinates":[19.012024,50.300182],"type":"Point"},"properties":{"osm_id":"6380657311","tag":{"amenity":"waste_basket"}},"type":"Feature"},
	{"geometry":{"coordinates":[19.01255,50.300243],"type":"Point"},"properties":{"osm_id":"6380657312","tag":{"amenity":"waste_basket","waste":"dog_excrement"}},"type":"Feature"},
	{"geometry":{"coordinates":[19.012515,50.300621],"type":"Point"},"properties":{"osm_id":"6402382839","tag":{"amenity":"waste_basket"}},"type":"Feature"},
	{"geometry":{"coordinates":[19.012772,50.300621],"type":"Point"},"properties":{"osm_id":"6402382840","tag":{"amenity":"waste_basket"}},"type":"Feature"},
	{"geometry":{"coordinates":[19.01304,50.30062],"type":"Point"},"properties":{"osm_id":"6402382841","tag":{"amenity":"waste_basket"}},"type":"Feature"},
	{"geometry":{"coordinates":[19.015614,50.300089],"type":"Point"},"properties":{"osm_id":"6407259763","tag":{"amenity":"waste_basket"}},"type":"Feature"},
	{"geometry":{"coordinates":[19.020373,50.308601],"type":"Point"},"properties":{"osm_id":"6700531516","tag":{"amenity":"waste_disposal"}},"type":"Feature"},
	{"geometry":{"coordinates":[19.019016,50.311088],"type":"Point"},"properties":{"osm_id":"6700531517","tag":{"amenity":"waste_disposal"}},"type":"Feature"},
	{"geometry":{"coordinates":[19.014855,50.311308],"type":"Point"},"properties":{"osm_id":"6700531523","tag":{"amenity":"waste_disposal"}},"type":"Feature"},
	{"geometry":{"coordinates":[19.015193,50.310269],"type":"Point"},"properties":{"osm_id":"6700531537","tag":{"amenity":"waste_disposal"}},"type":"Feature"},
	{"geometry":{"coordinates":[19.007185,50.298484],"type":"Point"},"properties":{"osm_id":"7203782717","tag":{"amenity":"waste_disposal"}},"type":"Feature"},
	{"geometry":{"coordinates":[19.008356,50.298396],"type":"Point"},"properties":{"osm_id":"7203782753","tag":{"amenity":"waste_disposal"}},"type":"Feature"},
	{"geometry":{"coordinates":[19.00684,50.297919],"type":"Point"},"properties":{"osm_id":"7203782759","tag":{"amenity":"waste_disposal"}},"type":"Feature"},
	{"geometry":{"coordinates":[19.00063,50.315026],"type":"Point"},"properties":{"osm_id":"7944576658","tag":{"amenity":"waste_disposal"}},"type":"Feature"},
	{"geometry":{"coordinates":[19.001354,50.313954],"type":"Point"},"properties":{"osm_id":"7944602492","tag":{"amenity":"waste_disposal"}},"type":"Feature"}
]
}
