{
"type": "FeatureCollection",
"features": [
	{"geometry":{"coordinates":[19.007984,50.252421],"type":"Point"},"properties":{"osm_id":"1940652805","tag":{"amenity":"waste_basket","check_date":"2021-03-04"}},"type":"Feature"},
	{"geometry":{"coordinates":[19.007882,50.252466],"type":"Point"},"properties":{"osm_id":"1940652808","tag":{"amenity":"waste_basket","check_date":"2021-04-12"}},"type":"Feature"},
	{"geometry":{"coordinates":[19.00778,50.252507],"type":"Point"},"properties":{"osm_id":"1940652811","tag":{"amenity":"waste_basket","check_date":"2021-02-09"}},"type":"Feature"},
	{"geometry":{"coordinates":[19.036665,50.261175],"type":"Point"},"properties":{"osm_id":"2126181657","tag":{"amenity":"recycling","recycling:glass":"yes","recycling:paper":"yes"}},"type":"Feature"},
	{"geometry":{"coordinates":[19.041397,50.261129],"type":"Point"},"properties":{"osm_id":"2128933257","tag":{"amenity":"recycling","location":"overground","recycling:glass":"yes","recycling:paper":"yes","recycling:plastic":"yes","recycling_type":"container"}},"type":"Feature"},
	{"geometry":{"coordinates":[19.040623,50.261408],"type":"Point"},"properties":{"osm_id":"2128933387","tag":{"amenity":"recycling","location":"overground","recycling:glass":"yes","recycling:paper":"yes","recycling_type":"container"}},"type":"Feature"},
	{"geometry":{"coordinates":[19.042091,50.261468],"type":"Point"},"properties":{"osm_id":"2128933415","tag":{"amenity":"recycling","recycling:glass":"yes","recycling:paper":"yes","recycling:plastic":"yes"}},"type":"Feature"},
	{"geometry":{"coordinates":[18.98977,50.251722],"type":"Point"},"properties":{"osm_id":"2142786005","tag":{"amenity":"waste_basket"}},"type":"Feature"},
	{"geometry":{"coordinates":[18.986712,50.261683],"type":"Point"},"properties":{"osm_id":"2143084992","tag":{"amenity":"waste_basket"}},"type":"Feature"},
	{"geometry":{"coordinates":[18.986509,50.26211],"type":"Point"},"properties":{"osm_id":"2143084994","tag":{"amenity":"waste_basket"}},"type":"Feature"},
	{"geometry":{"coordinates":[18.990414,50.267461],"type":"Point"},"properties":{"osm_id":"2143098292","tag":{"amenity":"waste_basket"}},"type":"Feature"},
	{"geometry":{"coordinates":[18.990241,50.267517],"type":"Point"},"properties":{"osm_id":"2143098296","tag":{"amenity":"waste_basket"}},"type":"Feature"},
	{"geometry":{"coordinates":[18.990436,50.267614],"type":"Point"},"properties":{"osm_id":"2143098298","tag":{"amenity":"waste_basket"}},"type":"Feature"},
	{"geometry":{"coordinates":[18.990249,50.267677],"type":"Point"},"properties":{"osm_id":"2143098302","tag":{"amenity":"waste_basket"}},"type":"Feature"},
	{"geometry":{"coordinates":[19.005277,50.27942],"type":"Point"},"properties":{"osm_id":"2143110925","tag":{"amenity":"waste_basket"}},"type":"Feature"},
	{"geometry":{"coordinates":[19.005648,50.279553],"type":"Point"},"properties":{"osm_id":"2143110929","tag":{"amenity":"waste_basket"}},"type":"Feature"},
	{"geometry":{"coordinates":[19.003757,50.263791],"type":"Point"},"properties":{"osm_id":"2143121024","tag":{"amenity":"waste_basket"}},"type":"Feature"},
	{"geometry":{"coordinates":[18.997543,50.265291],"type":"Point"},"properties":{"osm_id":"2143123860","tag":{"amenity":"waste_basket"}},"type":"Feature"},
	{"geometry":{"coordinates":[18.996986,50.265474],"type":"Point"},"properties":{"osm_id":"2143123864","tag":{"amenity":"waste_basket"}},"type":"Feature"},
	{"geometry":{"coordinates":[19.015319,50.270515],"type":"Point"},"properties":{"osm_id":"2143129978","tag":{"amenity":"waste_basket"}},"type":"Feature"},
	{"geometry":{"coordinates":[19.016064,50.27105],"type":"Point"},"properties":{"osm_id":"2143129984","tag":{"amenity":"waste_basket"}},"type":"Feature"},
	{"geometry":{"coordinates":[19.009854,50.281126],"type":"Point"},"properties":{"osm_id":"2143139957","tag":{"amenity":"waste_basket"}},"type":"Feature"},
	{"geometry":{"coordinates":[19.007665,50.287358],"type":"Point"},"properties":{"osm_id":"2143145315","tag":{"amenity":"waste_basket"}},"type":"Feature"},
	{"geometry":{"coordinates":[19.007727,50.287428],"type":"Point"},"properties":{"osm_id":"2143145320","tag":{"amenity":"waste_basket"}},"type":"Feature"},
	{"geometry":{"coordinates":[19.007461,50.287481],"type":"Point"},"properties":{"osm_id":"2143145324","tag":{"amenity":"waste_basket"}},"type":"Feature"},
	{"geometry":{"coordinates":[19.013696,50.284173],"type":"Point"},"properties":{"osm_id":"2143163471","tag":{"amenity":"waste_basket"}},"type":"Feature"},
	{"geometry":{"coordinates":[19.01296,50.284937],"type":"Point"},"properties":{"osm_id":"2143163481","tag":{"amenity":"waste_basket"}},"type":"Feature"},
	{"geometry":{"coordinates":[19.028003,50.282957],"type":"Point"},"properties":{"osm_id":"2143174012","tag":{"amenity":"waste_basket"}},"type":"Feature"},
	{"geometry":{"coordinates":[19.027589,50.283019],"type":"Point"},"properties":{"osm_id":"2143174015","tag":{"amenity":"waste_basket"}},"type":"Feature"},
	{"geometry":{"coordinates":[19.0148,50.256469],"type":"Point"},"properties":{"osm_id":"2144332083","tag":{"amenity":"waste_basket"}},"type":"Feature"},
	{"geometry":{"coordinates":[19.012832,50.260396],"type":"Point"},"properties":{"osm_id":"2144332084","tag":{"amenity":"waste_basket"}},"type":"Feature"},
	{"geometry":{"coordinates":[19.01715,50.241336],"type":"Point"},"properties":{"osm_id":"2146728382","tag":{"amenity":"waste_basket"}},"type":"Feature"},
	{"geometry":{"coordinates":[19.015098,50.243455],"type":"Point"},"properties":{"osm_id":"2146741979","tag":{"amenity":"waste_basket"}},"type":"Feature"},
	{"geometry":{"coordinates":[19.024569,50.24385],"type":"Point"},"properties":{"osm_id":"2146753280","tag":{"amenity":"waste_basket"}},"type":"Feature"},
	{"geometry":{"coordinates":[19.024501,50.244299],"type":"Point"},"properties":{"osm_id":"2146753292","tag":{"amenity":"waste_basket"}},"type":"Feature"},
	{"geometry":{"coordinates":[19.025509,50.246627],"type":"Point"},"properties":{"osm_id":"2146765812","tag":{"amenity":"waste_basket"}},"type":"Feature"},
	{"geometry":{"coordinates":[19.0259,50.247094],"type":"Point"},"properties":{"osm_id":"2146765836","tag":{"amenity":"waste_basket"}},"type":"Feature"},
	{"geometry":{"coordinates":[19.026341,50.235005],"type":"Point"},"properties":{"osm_id":"2146794994","tag":{"amenity":"waste_basket"}},"type":"Feature"},
	{"geometry":{"coordinates":[19.024895,50.240903],"type":"Point"},"properties":{"osm_id":"2146814999","tag":{"amenity":"waste_basket"}},"type":"Feature"},
	{"geometry":{"coordinates":[19.025206,50.240949],"type":"Point"},"properties":{"osm_id":"2146815007","tag":{"amenity":"waste_basket"}},"type":"Feature"},
	{"geometry":{"coordinates":[19.046554,50.258333],"type":"Point"},"properties":{"osm_id":"2146826473","tag":{"amenity":"waste_basket"}},"type":"Feature"},
	{"geometry":{"coordinates":[19.046521,50.258473],"type":"Point"},"properties":{"osm_id":"2146826475","tag":{"amenity":"waste_basket"}},"type":"Feature"},
	{"geometry":{"coordinates":[19.053519,50.259704],"type":"Point"},"properties":{"osm_id":"2146831044","tag":{"amenity":"waste_basket"}},"type":"Feature"},
	{"geometry":{"coordinates":[19.053132,50.259925],"type":"Point"},"properties":{"osm_id":"2146831065","tag":{"amenity":"waste_basket"}},"type":"Feature"},
	{"geometry":{"coordinates":[19.053461,50.259933],"type":"Point"},"properties":{"osm_id":"2146831068","tag":{"amenity":"waste_basket"}},"type":"Feature"},
	{"geometry":{"coordinates":[19.055953,50.259223],"type":"Point"},"properties":{"osm_id":"2146838857","tag":{"amenity":"waste_basket"}},"type":"Feature"},
	{"geometry":{"coordinates":[19.055117,50.259285],"type":"Point"},"properties":{"osm_id":"2146838859","tag":{"amenity":"waste_basket"}},"type":"Feature"},
	{"geometry":{"coordinates":[19.055111,50.259374],"type":"Point"},"properties":{"osm_id":"2146838862","tag":{"amenity":"waste_basket"}},"type":"Feature"},
	{"geometry":{"coordinates":[19.055879,50.259502],"type":"Point"},"properties":{"osm_id":"2146838864","tag":{"amenity":"waste_basket"}},"type":"Feature"},
	{"geometry":{"coordinates":[19.016834,50.253918],"type":"Point"},"properties":{"osm_id":"2148177240","tag":{"amenity":"waste_basket"}},"type":"Feature"},
	{"geometry":{"coordinates":[19.062372,50.273302],"type":"Point"},"properties":{"osm_id":"2153321511","tag":{"amenity":"waste_basket"}},"type":"Feature"},
	{"geometry":{"coordinates":[19.06228,50.273451],"type":"Point"},"properties":{"osm_id":"2153321514","tag":{"amenity":"waste_basket"}},"type":"Feature"},
	{"geometry":{"coordinates":[19.068412,50.233579],"type":"Point"},"properties":{"osm_id":"2154098522","tag":{"amenity":"waste_basket"}},"type":"Feature"},
	{"geometry":{"coordinates":[19.070033,50.234248],"type":"Point"},"properties":{"osm_id":"2154098527","tag":{"amenity":"waste_basket"}},"type":"Feature"},
	{"geometry":{"coordinates":[19.030834,50.257865],"type":"Point"},"properties":{"osm_id":"2157050424","tag":{"amenity":"waste_basket"}},"type":"Feature"},
	{"geometry":{"coordinates":[19.030892,50.257954],"type":"Point"},"properties":{"osm_id":"2157050430","tag":{"amenity":"waste_basket"}},"type":"Feature"},
	{"geometry":{"coordinates":[19.038411,50.25768],"type":"Point"},"properties":{"osm_id":"2157058002","tag":{"amenity":"waste_basket"}},"type":"Feature"},
	{"geometry":{"coordinates":[19.070484,50.27301],"type":"Point"},"properties":{"osm_id":"2290615163","tag":{"amenity":"recycling"}},"type":"Feature"},
	{"geometry":{"coordinates":[19.071943,50.272686],"type":"Point"},"properties":{"osm_id":"2290615451","tag":{"amenity":"recycling"}},"type":"Feature"},
	{"geometry":{"coordinates":[19.034712,50.246071],"type":"Point"},"properties":{"osm_id":"2304072932","tag":{"amenity":"waste_disposal"}},"type":"Feature"},
	{"geometry":{"coordinates":[19.034721,50.246103],"type":"Point"},"properties":{"osm_id":"2304072936","tag":{"amenity":"recycling","recycling:glass":"yes","recycling:paper":"yes","recycling:plastic":"yes"}},"type":"Feature"},
	{"geometry":{"coordinates":[19.070326,50.272498],"type":"Point"},"properties":{"osm_id":"2305331980","tag":{"amenity":"waste_basket"}},"type":"Feature"},
	{"geometry":{"coordinates":[19.047355,50.240923],"type":"Point"},"properties":{"osm_id":"2949500450","tag":{"amenity":"waste_basket"}},"type":"Feature"},
	{"geometry":{"coordinates":[19.047359,50.241034],"type":"Point"},"properties":{"osm_id":"2949500459","tag":{"amenity":"waste_basket"}},"type":"Feature"},
	{"geometry":{"coordinates":[19.047371,50.24111],"type":"Point"},"properties":{"osm_id":"2949500462","tag":{"amenity":"waste_basket"}},"type":"Feature"},
	{"geometry":{"coordinates":[19.046968,50.24114],"type":"Point"},"properties":{"osm_id":"2949500465","tag":{"amenity":"waste_basket"}},"type":"Feature"},
	{"geometry":{"coordinates":[19.047376,50.241147],"type":"Point"},"properties":{"osm_id":"2949500466","tag":{"amenity":"waste_basket"}},"type":"Feature"},
	{"geometry":{"coordinates":[19.047056,50.241585],"type":"Point"},"properties":{"osm_id":"2949500475","tag":{"amenity":"waste_basket"}},"type":"Feature"},
	{"geometry":{"coordinates":[19.047064,50.24188],"type":"Point"},"properties":{"osm_id":"2949500481","tag":{"amenity":"waste_basket"}},"type":"Feature"},
	{"geometry":{"coordinates":[19.029342,50.233382],"type":"Point"},"properties":{"osm_id":"2968832316","tag":{"amenity":"waste_basket"}},"type":"Feature"},
	{"geometry":{"coordinates":[19.045815,50.240899],"type":"Point"},"properties":{"osm_id":"2969821133","tag":{"amenity":"waste_basket"}},"type":"Feature"},
	{"geometry":{"coordinates":[19.046167,50.240903],"type":"Point"},"properties":{"osm_id":"2969821135","tag":{"amenity":"waste_basket"}},"type":"Feature"},
	{"geometry":{"coordinates":[19.046513,50.24094],"type":"Point"},"properties":{"osm_id":"2969821144","tag":{"amenity":"waste_basket"}},"type":"Feature"},
	{"geometry":{"coordinates":[19.045201,50.240961],"type":"Point"},"properties":{"osm_id":"2969821150","tag":{"amenity":"waste_basket"}},"type":"Feature"},
	{"geometry":{"coordinates":[19.045029,50.240991],"type":"Point"},"properties":{"osm_id":"2969821158","tag":{"amenity":"waste_basket"}},"type":"Feature"},
	{"geometry":{"coordinates":[19.04448,50.241023],"type":"Point"},"properties":{"osm_id":"2969821167","tag":{"amenity":"waste_basket"}},"type":"Feature"},
	{"geometry":{"coordinates":[19.044879,50.241023],"type":"Point"},"properties":{"osm_id":"2969821168","tag":{"amenity":"waste_basket"}},"type":"Feature"},
	{"geometry":{"coordinates":[19.044785,50.241054],"type":"Point"},"properties":{"osm_id":"2969821176","tag":{"amenity":"waste_basket"}},"type":"Feature"},
	{"geometry":{"coordinates":[19.044421,50.241231],"type":"Point"},"properties":{"osm_id":"2969821204","tag":{"amenity":"waste_basket"}},"type":"Feature"},
	{"geometry":{"coordinates":[19.044313,50.241477],"type":"Point"},"properties":{"osm_id":"2969821222","tag":{"amenity":"waste_basket"}},"type":"Feature"},
	{"geometry":{"coordinates":[19.044256,50.241698],"type":"Point"},"properties":{"osm_id":"2969821233","tag":{"amenity":"waste_basket"}},"type":"Feature"},
	{"geometry":{"coordinates":[19.04421,50.241916],"type":"Point"},"properties":{"osm_id":"2969821241","tag":{"amenity":"waste_basket"}},"type":"Feature"},
	{"geometry":{"coordinates":[19.044169,50.242119],"type":"Point"},"properties":{"osm_id":"2969821273","tag":{"amenity":"waste_basket"}},"type":"Feature"},
	{"geometry":{"coordinates":[19.044773,50.242528],"type":"Point"},"properties":{"osm_id":"2969821353","tag":{"amenity":"waste_basket"}},"type":"Feature"},
	{"geometry":{"coordinates":[19.045123,50.242549],"type":"Point"},"properties":{"osm_id":"2969821367","tag":{"amenity":"waste_basket"}},"type":"Feature"},
	{"geometry":{"coordinates":[19.045753,50.242566],"type":"Point"},"properties":{"osm_id":"2969821382","tag":{"amenity":"waste_basket"}},"type":"Feature"},
	{"geometry":{"coordinates":[19.045465,50.242568],"type":"Point"},"properties":{"osm_id":"2969821384","tag":{"amenity":"waste_basket"}},"type":"Feature"},
	{"geometry":{"coordinates":[19.047561,50.241218],"type":"Point"},"properties":{"osm_id":"2970103805","tag":{"amenity":"waste_basket"}},"type":"Feature"},
	{"geometry":{"coordinates":[19.047445,50.241321],"type":"Point"},"properties":{"osm_id":"2970103813","tag":{"amenity":"waste_basket"}},"type":"Feature"},
	{"geometry":{"coordinates":[19.041375,50.248854],"type":"Point"},"properties":{"osm_id":"2970112045","tag":{"amenity":"waste_basket"}},"type":"Feature"},
	{"geometry":{"coordinates":[19.041418,50.249037],"type":"Point"},"properties":{"osm_id":"2970112058","tag":{"amenity":"waste_basket"}},"type":"Feature"},
	{"geometry":{"coordinates":[19.041448,50.249176],"type":"Point"},"properties":{"osm_id":"2970112063","tag":{"amenity":"waste_basket"}},"type":"Feature"},
	{"geometry":{"coordinates":[19.041489,50.249358],"type":"Point"},"properties":{"osm_id":"2970112072","tag":{"amenity":"waste_basket"}},"type":"Feature"},
	{"geometry":{"coordinates":[19.041589,50.249819],"type":"Point"},"properties":{"osm_id":"2970112089","tag":{"amenity":"waste_basket"}},"type":"Feature"},
	{"geometry":{"coordinates":[19.041624,50.24998],"type":"Point"},"properties":{"osm_id":"2970112093","tag":{"amenity":"waste_basket"}},"type":"Feature"},
	{"geometry":{"coordinates":[19.041748,50.250645],"type":"Point"},"properties":{"osm_id":"2970112129","tag":{"amenity":"waste_basket"}},"type":"Feature"},
	{"geometry":{"coordinates":[19.041778,50.25107],"type":"Point"},"properties":{"osm_id":"2970112250","tag":{"amenity":"waste_basket","check_date":"2021-08-22"}},"type":"Feature"},
	{"geometry":{"coordinates":[19.041802,50.251393],"type":"Point"},"properties":{"osm_id":"2970112281","tag":{"amenity":"waste_basket","check_date":"2021-08-22"}},"type":"Feature"},
	{"geometry":{"coordinates":[18.995823,50.264256],"type":"Point"},"properties":{"osm_id":"3507569065","tag":{"amenity":"waste_disposal"}},"type":"Feature"},
	{"geometry":{"coordinates":[18.996677,50.264508],"type":"Point"},"properties":{"osm_id":"3507569236","tag":{"amenity":"waste_basket"}},"type":"Feature"},
	{"geometry":{"coordinates":[18.996701,50.264946],"type":"Point"},"properties":{"osm_id":"3507569440","tag":{"amenity":"waste_disposal"}},"type":"Feature"},
	{"geometry":{"coordinates":[19.020355,50.257941],"type":"Point"},"properties":{"osm_id":"3531174796","tag":{"amenity":"waste_basket"}},"type":"Feature"},
	{"geometry":{"coordinates":[18.988542,50.274594],"type":"Point"},"properties":{"osm_id":"3551962888","tag":{"amenity":"waste_basket"}},"type":"Feature"},
	{"geometry":{"coordinates":[19.018394,50.261293],"type":"Point"},"properties":{"osm_id":"3743969888","tag":{"amenity":"waste_basket"}},"type":"Feature"},
	{"geometry":{"coordinates":[19.018468,50.261364],"type":"Point"},"properties":{"osm_id":"3743969901","tag":{"amenity":"waste_basket"}},"type":"Feature"},
	{"geometry":{"coordinates":[19.018628,50.261386],"type":"Point"},"properties":{"osm_id":"3743969902","tag":{"amenity":"waste_basket"}},"type":"Feature"},
	{"geometry":{"coordinates":[19.018554,50.261441],"type":"Point"},"properties":{"osm_id":"3743969912","tag":{"amenity":"waste_basket"}},"type":"Feature"},
	{"geometry":{"coordinates":[19.018601,50.261487],"type":"Point"},"properties":{"osm_id":"3743969919","tag":{"amenity":"waste_basket"}},"type":"Feature"},
	{"geometry":{"coordinates":[19.018759,50.261509],"type":"Point"},"properties":{"osm_id":"3743969920","tag":{"amenity":"waste_basket"}},"type":"Feature"},
	{"geometry":{"coordinates":[19.018679,50.26156],"type":"Point"},"properties":{"osm_id":"3743970040","tag":{"amenity":"waste_basket"}},"type":"Feature"},
	{"geometry":{"coordinates":[19.018735,50.261612],"type":"Point"},"properties":{"osm_id":"3743970047","tag":{"amenity":"waste_basket"}},"type":"Feature"},
	{"geometry":{"coordinates":[19.028365,50.259833],"type":"Point"},"properties":{"barrier":"gate","osm_id":"3903935999"},"type":"Feature"},
	{"geometry":{"coordinates":[19.036853,50.245016],"type":"Point"},"properties":{"osm_id":"3928078623","tag":{"amenity":"waste_basket"}},"type":"Feature"},
	{"geometry":{"coordinates":[18.991648,50.272314],"type":"Point"},"properties":{"osm_id":"4213600760","tag":{"amenity":"waste_basket"}},"type":"Feature"},
	{"geometry":{"coordinates":[18.991386,50.27249],"type":"Point"},"properties":{"osm_id":"4213600764","tag":{"amenity":"waste_basket"}},"type":"Feature"},
	{"geometry":{"coordinates":[19.025196,50.241018],"type":"Point"},"properties":{"osm_id":"4220095294","tag":{"amenity":"waste_basket"}},"type":"Feature"},
	{"geometry":{"coordinates":[19.034755,50.249858],"type":"Point"},"properties":{"osm_id":"4240017190","tag":{"amenity":"waste_basket"}},"type":"Feature"},
	{"geometry":{"coordinates":[19.034021,50.249648],"type":"Point"},"properties":{"osm_id":"4240054989","tag":{"amenity":"waste_basket"}},"type":"Feature"},
	{"geometry":{"coordinates":[19.034465,50.250111],"type":"Point"},"properties":{"osm_id":"4240055089","tag":{"amenity":"waste_basket"}},"type":"Feature"},
	{"geometry":{"coordinates":[19.054904,50.258556],"type":"Point"},"properties":{"osm_id":"4253253090","tag":{"amenity":"recycling","recycling:glass":"yes","recycling_type":"container"}},"type":"Feature"},
	{"geometry":{"coordinates":[19.054884,50.258554],"type":"Point"},"properties":{"osm_id":"4253253091","tag":{"amenity":"recycling","recycling:cans":"yes","recycling:scrap_metal":"yes","recycling_type":"container"}},"type":"Feature"},
	{"geometry":{"coordinates":[19.054946,50.258574],"type":"Point"},"properties":{"osm_id":"4253253092","tag":{"amenity":"waste_disposal"}},"type":"Feature"},
	{"geometry":{"coordinates":[19.054911,50.258596],"type":"Point"},"properties":{"osm_id":"4253253093","tag":{"amenity":"recycling","recycling:paper":"yes","recycling_type":"container"}},"type":"Feature"},
	{"geometry":{"coordinates":[19.054911,50.25861],"type":"Point"},"properties":{"osm_id":"4253253094","tag":{"amenity":"recycling","recycling:paper":"yes","recycling_type":"container"}},"type":"Feature"},
	{"geometry":{"coordinates":[19.054962,50.25862],"type":"Point"},"properties":{"osm_id":"4253253095","tag":{"amenity":"waste_disposal"}},"type":"Feature"},
	{"geometry":{"coordinates":[19.054838,50.258635],"type":"Point"},"properties":{"osm_id":"4253253096","tag":{"amenity":"recycling","recycling:plastic":"yes","recycling_type":"container"}},"type":"Feature"},
	{"geometry":{"coordinates":[19.054861,50.258634],"type":"Point"},"properties":{"osm_id":"4253253097","tag":{"amenity":"recycling","recycling:plastic":"yes","recycling_type":"container"}},"type":"Feature"},
	{"geometry":{"coordinates":[19.053572,50.259447],"type":"Point"},"properties":{"osm_id":"4263118792","tag":{"amenity":"waste_basket"}},"type":"Feature"},
	{"geometry":{"coordinates":[19.014154,50.276522],"type":"Point"},"properties":{"osm_id":"4421914243","tag":{"amenity":"waste_disposal"}},"type":"Feature"},
	{"geometry":{"coordinates":[19.03691,50.251154],"type":"Point"},"properties":{"osm_id":"4455767237","tag":{"amenity":"waste_disposal"}},"type":"Feature"},
	{"geometry":{"coordinates":[19.037618,50.252103],"type":"Point"},"properties":{"osm_id":"4455767238","tag":{"amenity":"waste_disposal"}},"type":"Feature"},
	{"geometry":{"coordinates":[18.990073,50.270123],"type":"Point"},"properties":{"osm_id":"4792074864","tag":{"amenity":"waste_disposal"}},"type":"Feature"},
	{"geometry":{"coordinates":[18.996606,50.273403],"type":"Point"},"properties":{"name":"Zbiornica nr 2","osm_id":"4792074866","tag":{"amenity":"recycling","official_name":"Sp\u00c3\u00b3\u00c5\u0082dzielnia Pracy Surowc\u00c3\u00b3w Wt\u00c3\u00b3rnych","opening_hours":"Mo-Fr 07:30-15:30; Sa 08:00-12:00; PH off","recycling:metal":"yes","recycling_type":"centre"}},"type":"Feature"},
	{"geometry":{"coordinates":[19.008741,50.27933],"type":"Point"},"properties":{"osm_id":"4831293805","tag":{"amenity":"recycling","operator":"Eco Textil","recycling:clothes":"yes","recycling_type":"container"}},"type":"Feature"},
	{"geometry":{"coordinates":[19.003926,50.275519],"type":"Point"},"properties":{"osm_id":"4833558440","tag":{"amenity":"waste_disposal"}},"type":"Feature"},
	{"geometry":{"coordinates":[19.004942,50.275333],"type":"Point"},"properties":{"osm_id":"4833558469","tag":{"amenity":"recycling","recycling:clothes":"yes","recycling_type":"container"}},"type":"Feature"},
	{"geometry":{"coordinates":[18.991571,50.262491],"type":"Point"},"properties":{"osm_id":"4895317540","tag":{"amenity":"waste_basket"}},"type":"Feature"},
	{"geometry":{"coordinates":[18.991544,50.262495],"type":"Point"},"properties":{"osm_id":"4895317545","tag":{"amenity":"waste_basket"}},"type":"Feature"},
	{"geometry":{"coordinates":[18.985924,50.277053],"type":"Point"},"properties":{"osm_id":"4917655411","tag":{"amenity":"recycling","recycling:glass":"yes","recycling:plastic":"yes","recycling_type":"container"}},"type":"Feature"},
	{"geometry":{"coordinates":[19.071358,50.236463],"type":"Point"},"properties":{"osm_id":"5292093956","tag":{"amenity":"waste_disposal"}},"type":"Feature"},
	{"geometry":{"coordinates":[19.071393,50.236423],"type":"Point"},"properties":{"osm_id":"5292093957","tag":{"amenity":"waste_disposal"}},"type":"Feature"},
	{"geometry":{"coordinates":[19.071492,50.236422],"type":"Point"},"properties":{"osm_id":"5292093958","tag":{"amenity":"waste_disposal"}},"type":"Feature"},
	{"geometry":{"coordinates":[19.071396,50.236465],"type":"Point"},"properties":{"osm_id":"5292119829","tag":{"amenity":"recycling","recycling_type":"container"}},"type":"Feature"},
	{"geometry":{"coordinates":[19.025049,50.268988],"type":"Point"},"properties":{"osm_id":"5576245654","tag":{"amenity":"recycling","recycling:paper":"yes","recycling_type":"container"}},"type":"Feature"},
	{"geometry":{"coordinates":[19.025078,50.268988],"type":"Point"},"properties":{"osm_id":"5576245655","tag":{"amenity":"recycling","recycling:plastic":"yes","recycling_type":"container"}},"type":"Feature"},
	{"geometry":{"coordinates":[19.025107,50.268987],"type":"Point"},"properties":{"osm_id":"5576245656","tag":{"amenity":"recycling","recycling:glass":"yes","recycling_type":"container"}},"type":"Feature"},
	{"geometry":{"coordinates":[19.025133,50.268986],"type":"Point"},"properties":{"osm_id":"5576245657","tag":{"amenity":"recycling","recycling:clothes":"yes","recycling_type":"container"}},"type":"Feature"},
	{"geometry":{"coordinates":[19.00656,50.269335],"type":"Point"},"properties":{"osm_id":"5657127071","tag":{"amenity":"waste_basket"}},"type":"Feature"},
	{"geometry":{"coordinates":[19.00667,50.269304],"type":"Point"},"properties":{"osm_id":"5657127072","tag":{"amenity":"waste_basket"}},"type":"Feature"},
	{"geometry":{"coordinates":[19.008065,50.268704],"type":"Point"},"properties":{"osm_id":"5657127074","tag":{"amenity":"waste_basket"}},"type":"Feature"},
	{"geometry":{"coordinates":[19.008129,50.268534],"type":"Point"},"properties":{"osm_id":"5657127075","tag":{"amenity":"waste_basket"}},"type":"Feature"},
	{"geometry":{"coordinates":[19.014878,50.270904],"type":"Point"},"properties":{"osm_id":"5657127080","tag":{"amenity":"waste_basket"}},"type":"Feature"},
	{"geometry":{"coordinates":[19.014562,50.26701],"type":"Point"},"properties":{"osm_id":"5657127095","tag":{"amenity":"waste_basket"}},"type":"Feature"},
	{"geometry":{"coordinates":[19.014416,50.267893],"type":"Point"},"properties":{"osm_id":"5657127746","tag":{"amenity":"waste_basket"}},"type":"Feature"},
	{"geometry":{"coordinates":[19.015114,50.26905],"type":"Point"},"properties":{"osm_id":"5657127755","tag":{"amenity":"waste_basket"}},"type":"Feature"},
	{"geometry":{"coordinates":[19.015475,50.268563],"type":"Point"},"properties":{"osm_id":"5657127761","tag":{"amenity":"waste_basket"}},"type":"Feature"},
	{"geometry":{"coordinates":[19.015871,50.268788],"type":"Point"},"properties":{"osm_id":"5657127764","tag":{"amenity":"waste_basket"}},"type":"Feature"},
	{"geometry":{"coordinates":[19.01733,50.269092],"type":"Point"},"properties":{"osm_id":"5657127769","tag":{"amenity":"waste_basket"}},"type":"Feature"},
	{"geometry":{"coordinates":[19.017377,50.269121],"type":"Point"},"properties":{"osm_id":"5657127772","tag":{"amenity":"waste_basket"}},"type":"Feature"},
	{"geometry":{"coordinates":[19.009713,50.27471],"type":"Point"},"properties":{"osm_id":"5657128132","tag":{"amenity":"waste_basket"}},"type":"Feature"},
	{"geometry":{"coordinates":[19.013392,50.277875],"type":"Point"},"properties":{"osm_id":"6036605847","tag":{"amenity":"waste_basket","waste":"trash"}},"type":"Feature"},
	{"geometry":{"coordinates":[19.013422,50.27797],"type":"Point"},"properties":{"osm_id":"6036605848","tag":{"amenity":"waste_basket","waste":"trash"}},"type":"Feature"},
	{"geometry":{"coordinates":[19.009316,50.275235],"type":"Point"},"properties":{"osm_id":"6036949232","tag":{"amenity":"waste_basket"}},"type":"Feature"},
	{"geometry":{"coordinates":[19.01012,50.274759],"type":"Point"},"properties":{"osm_id":"6153526569","tag":{"amenity":"recycling","recycling:cans":"yes","recycling:cardboard":"yes","recycling:glass":"yes","recycling:glass_bottles":"yes","recycling:paper":"yes","recycling:plastic":"yes","recycling:plastic_bottles":"yes","recycling:plastic_packaging":"yes","recycling:scrap_metal":"yes","recycling_type":"container"}},"type":"Feature"},
	{"geometry":{"coordinates":[19.026327,50.274171],"type":"Point"},"properties":{"osm_id":"6389678275","tag":{"amenity":"waste_disposal"}},"type":"Feature"},
	{"geometry":{"coordinates":[19.042046,50.260952],"type":"Point"},"properties":{"osm_id":"7096984427","tag":{"amenity":"recycling","recycling:clothes":"yes","recycling_type":"container"}},"type":"Feature"},
	{"geometry":{"coordinates":[19.039382,50.250872],"type":"Point"},"properties":{"osm_id":"8831379067","tag":{"amenity":"recycling","recycling_type":"container"}},"type":"Feature"},
	{"geometry":{"coordinates":[19.039455,50.250764],"type":"Point"},"properties":{"osm_id":"8831379068","tag":{"amenity":"waste_disposal"}},"type":"Feature"},
	{"geometry":{"coordinates":[19.032776,50.247704],"type":"Point"},"properties":{"osm_id":"8831379069","tag":{"amenity":"recycling","recycling_type":"container"}},"type":"Feature"},
	{"geometry":{"coordinates":[19.04359,50.252103],"type":"Point"},"properties":{"osm_id":"9028216606","tag":{"amenity":"waste_basket"}},"type":"Feature"}
]
}
