{
"type": "FeatureCollection",
"features": [
	{"geometry":{"coordinates":[19.054676,49.821259],"type":"Point"},"properties":{"osm_id":"442455875","tag":{"amenity":"recycling","location":"overground","recycling_type":"container"}},"type":"Feature"},
	{"geometry":{"coordinates":[19.052779,49.8201],"type":"Point"},"properties":{"osm_id":"442455889","tag":{"amenity":"recycling"}},"type":"Feature"},
	{"geometry":{"coordinates":[19.043029,49.828912],"type":"Point"},"properties":{"osm_id":"915463087","tag":{"amenity":"waste_basket"}},"type":"Feature"},
	{"geometry":{"coordinates":[19.05792,49.810771],"type":"Point"},"properties":{"osm_id":"1845113600","tag":{"amenity":"waste_disposal"}},"type":"Feature"},
	{"geometry":{"coordinates":[19.057878,49.811424],"type":"Point"},"properties":{"osm_id":"1845113605","tag":{"amenity":"waste_disposal"}},"type":"Feature"},
	{"geometry":{"coordinates":[19.057409,49.810955],"type":"Point"},"properties":{"osm_id":"1845138853","tag":{"amenity":"waste_disposal"}},"type":"Feature"},
	{"geometry":{"coordinates":[19.056841,49.808779],"type":"Point"},"properties":{"osm_id":"1845166570","tag":{"amenity":"waste_disposal"}},"type":"Feature"},
	{"geometry":{"coordinates":[19.062706,49.803742],"type":"Point"},"properties":{"osm_id":"1845343958","tag":{"amenity":"waste_disposal"}},"type":"Feature"},
	{"geometry":{"coordinates":[19.062397,49.802541],"type":"Point"},"properties":{"osm_id":"1846057479","tag":{"amenity":"waste_disposal"}},"type":"Feature"},
	{"geometry":{"coordinates":[19.061354,49.802663],"type":"Point"},"properties":{"osm_id":"1846057482","tag":{"amenity":"waste_disposal"}},"type":"Feature"},
	{"geometry":{"coordinates":[19.031965,49.803539],"type":"Point"},"properties":{"osm_id":"4382031596","tag":{"amenity":"recycling","recycling_type":"container"}},"type":"Feature"},
	{"geometry":{"coordinates":[19.006244,49.816014],"type":"Point"},"properties":{"osm_id":"5206980123","tag":{"amenity":"waste_basket"}},"type":"Feature"},
	{"geometry":{"coordinates":[19.071983,49.785951],"type":"Point"},"properties":{"osm_id":"5407777465","tag":{"amenity":"waste_basket"}},"type":"Feature"},
	{"geometry":{"coordinates":[19.04236,49.82081],"type":"Point"},"properties":{"osm_id":"5407812381","tag":{"amenity":"waste_basket"}},"type":"Feature"},
	{"geometry":{"coordinates":[19.042329,49.820013],"type":"Point"},"properties":{"osm_id":"5407812382","tag":{"amenity":"waste_basket"}},"type":"Feature"},
	{"geometry":{"coordinates":[19.04225,49.819781],"type":"Point"},"properties":{"osm_id":"5410563847","tag":{"amenity":"waste_basket"}},"type":"Feature"},
	{"geometry":{"coordinates":[19.058065,49.783506],"type":"Point"},"properties":{"osm_id":"5646458895","tag":{"amenity":"waste_basket"}},"type":"Feature"},
	{"geometry":{"coordinates":[19.057611,49.783748],"type":"Point"},"properties":{"osm_id":"5647573954","tag":{"amenity":"waste_basket"}},"type":"Feature"},
	{"geometry":{"coordinates":[19.057654,49.783792],"type":"Point"},"properties":{"osm_id":"5647573957","tag":{"amenity":"waste_basket"}},"type":"Feature"},
	{"geometry":{"coordinates":[19.057686,49.783793],"type":"Point"},"properties":{"osm_id":"5647573958","tag":{"amenity":"waste_basket"}},"type":"Feature"},
	{"geometry":{"coordinates":[19.057675,49.783768],"type":"Point"},"properties":{"osm_id":"5647573959","tag":{"amenity":"waste_basket"}},"type":"Feature"},
	{"geometry":{"coordinates":[19.057695,49.783702],"type":"Point"},"properties":{"osm_id":"5647573961","tag":{"amenity":"waste_basket"}},"type":"Feature"},
	{"geometry":{"coordinates":[19.062975,49.804526],"type":"Point"},"properties":{"osm_id":"6031945614","tag":{"amenity":"waste_disposal"}},"type":"Feature"},
	{"geometry":{"coordinates":[19.028422,49.817339],"type":"Point"},"properties":{"barrier":"gate","osm_id":"6364291046","tag":{"access":"permit","entrance":"yes"}},"type":"Feature"},
	{"geometry":{"coordinates":[19.04121,49.822195],"type":"Point"},"properties":{"osm_id":"7397943826","tag":{"amenity":"waste_basket"}},"type":"Feature"}
]
}
