{
"type": "FeatureCollection",
"features": [
	{"geometry":{"coordinates":[19.028803,47.636204],"type":"Point"},"properties":{"osm_id":"132082093","tag":{"amenity":"recycling"}},"type":"Feature"},
	{"geometry":{"coordinates":[19.057234,47.669758],"type":"Point"},"properties":{"osm_id":"977546345","tag":{"amenity":"recycling"}},"type":"Feature"},
	{"geometry":{"coordinates":[19.062051,47.668785],"type":"Point"},"properties":{"osm_id":"977546349","tag":{"amenity":"recycling"}},"type":"Feature"},
	{"geometry":{"coordinates":[19.030686,47.643697],"type":"Point"},"properties":{"osm_id":"1829906165","tag":{"amenity":"waste_basket"}},"type":"Feature"},
	{"geometry":{"coordinates":[19.032597,47.642748],"type":"Point"},"properties":{"osm_id":"1830203717","tag":{"amenity":"waste_basket"}},"type":"Feature"},
	{"geometry":{"coordinates":[19.034152,47.641474],"type":"Point"},"properties":{"osm_id":"2281455438","tag":{"amenity":"waste_basket"}},"type":"Feature"},
	{"geometry":{"coordinates":[19.025782,47.647477],"type":"Point"},"properties":{"osm_id":"2285607131","tag":{"amenity":"waste_basket"}},"type":"Feature"},
	{"geometry":{"coordinates":[19.054013,47.67349],"type":"Point"},"properties":{"osm_id":"2419826075","tag":{"amenity":"recycling"}},"type":"Feature"},
	{"geometry":{"coordinates":[19.02867,47.63647],"type":"Point"},"properties":{"osm_id":"2452122887","tag":{"amenity":"waste_basket"}},"type":"Feature"},
	{"geometry":{"coordinates":[19.030872,47.643586],"type":"Point"},"properties":{"osm_id":"2452213275","tag":{"amenity":"waste_basket"}},"type":"Feature"},
	{"geometry":{"coordinates":[19.00095,47.649667],"type":"Point"},"properties":{"osm_id":"3473874067","tag":{"amenity":"recycling","description":"Patak sor \u00c3\u00a9s Di\u00c3\u00b3fa utca sarka","recycling_type":"container","source:date":"2011-03-17","url":"http://turistautak.hu/poi.php?id=112616"}},"type":"Feature"},
	{"geometry":{"coordinates":[19.067946,47.650506],"type":"Point"},"properties":{"osm_id":"3473874073","tag":{"amenity":"recycling","source:date":"2012-11-12","url":"http://turistautak.hu/poi.php?id=113237"}},"type":"Feature"},
	{"geometry":{"coordinates":[19.071592,47.654711],"type":"Point"},"properties":{"osm_id":"3473874797","tag":{"amenity":"recycling","source:date":"2012-09-17","url":"http://turistautak.hu/poi.php?id=144968"}},"type":"Feature"},
	{"geometry":{"coordinates":[19.07144,47.65599],"type":"Point"},"properties":{"osm_id":"3473874801","tag":{"amenity":"recycling","source:date":"2012-09-17","url":"http://turistautak.hu/poi.php?id=144969"}},"type":"Feature"},
	{"geometry":{"coordinates":[19.06843,47.659324],"type":"Point"},"properties":{"osm_id":"3473874805","tag":{"amenity":"recycling","source:date":"2014-02-06","url":"http://turistautak.hu/poi.php?id=117758"}},"type":"Feature"},
	{"geometry":{"coordinates":[19.064203,47.665441],"type":"Point"},"properties":{"osm_id":"3473874811","tag":{"amenity":"recycling","source:date":"2012-11-12","url":"http://turistautak.hu/poi.php?id=116693"}},"type":"Feature"},
	{"geometry":{"coordinates":[19.026214,47.64566],"type":"Point"},"properties":{"osm_id":"3489334525","tag":{"addr:city":"Pom\u00c3\u00a1z","addr:postcode":"2013","addr:street":"\u00c3\u0081lmos utca","amenity":"recycling","location":"overground","recycling:cans":"yes","recycling:clothes":"no","recycling:glass":"yes","recycling:glass_bottles":"yes","recycling:paper":"yes","recycling_type":"container","start_date":"2019-05"}},"type":"Feature"},
	{"geometry":{"coordinates":[19.023068,47.643897],"type":"Point"},"properties":{"osm_id":"3594269452","tag":{"amenity":"waste_basket"}},"type":"Feature"},
	{"geometry":{"coordinates":[19.031893,47.642989],"type":"Point"},"properties":{"osm_id":"3867804973","tag":{"amenity":"waste_basket"}},"type":"Feature"},
	{"geometry":{"coordinates":[19.030768,47.643689],"type":"Point"},"properties":{"osm_id":"3867804974","tag":{"amenity":"waste_basket"}},"type":"Feature"},
	{"geometry":{"coordinates":[19.030816,47.643699],"type":"Point"},"properties":{"osm_id":"3867804975","tag":{"amenity":"waste_basket"}},"type":"Feature"},
	{"geometry":{"coordinates":[19.032513,47.642947],"type":"Point"},"properties":{"osm_id":"3882254677","tag":{"amenity":"waste_basket"}},"type":"Feature"},
	{"geometry":{"coordinates":[19.022813,47.644869],"type":"Point"},"properties":{"osm_id":"3889668665","tag":{"amenity":"waste_basket"}},"type":"Feature"},
	{"geometry":{"coordinates":[19.02287,47.645087],"type":"Point"},"properties":{"osm_id":"3889668666","tag":{"amenity":"waste_basket"}},"type":"Feature"},
	{"geometry":{"coordinates":[19.020996,47.645219],"type":"Point"},"properties":{"osm_id":"3905417226","tag":{"amenity":"waste_basket"}},"type":"Feature"},
	{"geometry":{"coordinates":[19.020682,47.645155],"type":"Point"},"properties":{"osm_id":"3905417228","tag":{"amenity":"waste_basket"}},"type":"Feature"},
	{"geometry":{"coordinates":[19.020955,47.64498],"type":"Point"},"properties":{"osm_id":"3905417229","tag":{"amenity":"waste_basket"}},"type":"Feature"},
	{"geometry":{"coordinates":[19.02138,47.644923],"type":"Point"},"properties":{"osm_id":"3905417232","tag":{"amenity":"waste_basket"}},"type":"Feature"},
	{"geometry":{"coordinates":[19.021506,47.644952],"type":"Point"},"properties":{"osm_id":"3905417233","tag":{"amenity":"waste_basket"}},"type":"Feature"},
	{"geometry":{"coordinates":[19.021517,47.645099],"type":"Point"},"properties":{"osm_id":"3905417236","tag":{"amenity":"waste_basket"}},"type":"Feature"},
	{"geometry":{"coordinates":[19.021735,47.645119],"type":"Point"},"properties":{"osm_id":"3905417237","tag":{"amenity":"waste_basket"}},"type":"Feature"},
	{"geometry":{"coordinates":[19.021146,47.645182],"type":"Point"},"properties":{"osm_id":"3905417239","tag":{"amenity":"waste_basket"}},"type":"Feature"},
	{"geometry":{"coordinates":[19.02151,47.646139],"type":"Point"},"properties":{"osm_id":"3905417243","tag":{"amenity":"waste_basket"}},"type":"Feature"},
	{"geometry":{"coordinates":[19.02555,47.647324],"type":"Point"},"properties":{"osm_id":"3905417248","tag":{"amenity":"waste_basket"}},"type":"Feature"},
	{"geometry":{"coordinates":[19.026499,47.647395],"type":"Point"},"properties":{"osm_id":"3905417251","tag":{"amenity":"waste_basket"}},"type":"Feature"},
	{"geometry":{"coordinates":[19.026889,47.647046],"type":"Point"},"properties":{"osm_id":"3905417252","tag":{"amenity":"waste_basket"}},"type":"Feature"},
	{"geometry":{"coordinates":[19.030315,47.643795],"type":"Point"},"properties":{"osm_id":"3917150098","tag":{"amenity":"waste_basket"}},"type":"Feature"},
	{"geometry":{"coordinates":[19.032781,47.642646],"type":"Point"},"properties":{"osm_id":"3917150100","tag":{"amenity":"waste_basket"}},"type":"Feature"},
	{"geometry":{"coordinates":[19.032834,47.642617],"type":"Point"},"properties":{"osm_id":"3917150101","tag":{"amenity":"waste_basket"}},"type":"Feature"},
	{"geometry":{"coordinates":[19.032887,47.642535],"type":"Point"},"properties":{"osm_id":"3917150102","tag":{"amenity":"waste_basket"}},"type":"Feature"},
	{"geometry":{"coordinates":[19.032426,47.642854],"type":"Point"},"properties":{"osm_id":"3917150107","tag":{"amenity":"waste_basket"}},"type":"Feature"},
	{"geometry":{"coordinates":[19.028548,47.644515],"type":"Point"},"properties":{"osm_id":"3932868306","tag":{"amenity":"waste_basket"}},"type":"Feature"},
	{"geometry":{"coordinates":[19.022452,47.646112],"type":"Point"},"properties":{"osm_id":"4078096670","tag":{"amenity":"waste_basket"}},"type":"Feature"},
	{"geometry":{"coordinates":[19.021791,47.6462],"type":"Point"},"properties":{"osm_id":"4078096679","tag":{"amenity":"waste_basket"}},"type":"Feature"},
	{"geometry":{"coordinates":[19.032459,47.64277],"type":"Point"},"properties":{"osm_id":"4081035865","tag":{"amenity":"waste_basket"}},"type":"Feature"},
	{"geometry":{"coordinates":[19.033015,47.642666],"type":"Point"},"properties":{"osm_id":"4083606134","tag":{"amenity":"waste_basket"}},"type":"Feature"},
	{"geometry":{"coordinates":[19.031067,47.643709],"type":"Point"},"properties":{"osm_id":"4281091040","tag":{"amenity":"recycling","location":"overground","recycling:cans":"no","recycling:clothes":"yes","recycling:glass":"no","recycling:paper":"no","recycling:plastic":"no","recycling_type":"container"}},"type":"Feature"},
	{"geometry":{"coordinates":[19.004848,47.650981],"type":"Point"},"properties":{"osm_id":"4284018714","tag":{"amenity":"waste_basket"}},"type":"Feature"},
	{"geometry":{"coordinates":[19.029606,47.642168],"type":"Point"},"properties":{"osm_id":"4355303731","tag":{"amenity":"waste_basket"}},"type":"Feature"},
	{"geometry":{"coordinates":[19.03479,47.641143],"type":"Point"},"properties":{"osm_id":"4405525065","tag":{"amenity":"waste_basket"}},"type":"Feature"},
	{"geometry":{"coordinates":[19.032621,47.64267],"type":"Point"},"properties":{"osm_id":"4405525067","tag":{"amenity":"waste_basket"}},"type":"Feature"},
	{"geometry":{"coordinates":[19.032554,47.642076],"type":"Point"},"properties":{"osm_id":"4405525069","tag":{"amenity":"waste_basket"}},"type":"Feature"},
	{"geometry":{"coordinates":[19.030609,47.641624],"type":"Point"},"properties":{"osm_id":"4405525073","tag":{"amenity":"waste_basket"}},"type":"Feature"},
	{"geometry":{"coordinates":[19.025487,47.638106],"type":"Point"},"properties":{"osm_id":"4405525077","tag":{"amenity":"waste_basket"}},"type":"Feature"},
	{"geometry":{"coordinates":[19.023347,47.644832],"type":"Point"},"properties":{"osm_id":"4411857707","tag":{"amenity":"waste_basket"}},"type":"Feature"},
	{"geometry":{"coordinates":[19.021619,47.644881],"type":"Point"},"properties":{"osm_id":"4418996820","tag":{"amenity":"waste_basket","vending":"excrement_bags","waste":"dog_excrement"}},"type":"Feature"},
	{"geometry":{"coordinates":[19.023094,47.644739],"type":"Point"},"properties":{"osm_id":"4418996822","tag":{"amenity":"waste_basket","vending":"excrement_bags","waste":"dog_excrement"}},"type":"Feature"},
	{"geometry":{"coordinates":[19.017137,47.642537],"type":"Point"},"properties":{"osm_id":"4420812783","tag":{"amenity":"waste_basket","vending":"excrement_bags","waste":"dog_excrement"}},"type":"Feature"},
	{"geometry":{"coordinates":[19.029943,47.64426],"type":"Point"},"properties":{"osm_id":"4446680697","tag":{"amenity":"waste_basket"}},"type":"Feature"},
	{"geometry":{"coordinates":[19.029708,47.644131],"type":"Point"},"properties":{"osm_id":"4446680766","tag":{"amenity":"waste_basket"}},"type":"Feature"},
	{"geometry":{"coordinates":[19.049158,47.685143],"type":"Point"},"properties":{"osm_id":"4515161133","tag":{"amenity":"waste_basket"}},"type":"Feature"},
	{"geometry":{"coordinates":[19.049579,47.68516],"type":"Point"},"properties":{"osm_id":"4515161134","tag":{"amenity":"waste_basket"}},"type":"Feature"},
	{"geometry":{"coordinates":[19.050564,47.682271],"type":"Point"},"properties":{"osm_id":"4515161135","tag":{"amenity":"waste_basket"}},"type":"Feature"},
	{"geometry":{"coordinates":[19.051172,47.682054],"type":"Point"},"properties":{"osm_id":"4515161136","tag":{"amenity":"waste_basket"}},"type":"Feature"},
	{"geometry":{"coordinates":[19.051417,47.681837],"type":"Point"},"properties":{"osm_id":"4515161137","tag":{"amenity":"waste_basket"}},"type":"Feature"},
	{"geometry":{"coordinates":[19.055376,47.680152],"type":"Point"},"properties":{"osm_id":"4515161138","tag":{"amenity":"waste_basket"}},"type":"Feature"},
	{"geometry":{"coordinates":[19.055386,47.68006],"type":"Point"},"properties":{"osm_id":"4515161139","tag":{"amenity":"waste_basket"}},"type":"Feature"},
	{"geometry":{"coordinates":[19.057,47.679385],"type":"Point"},"properties":{"osm_id":"4515161140","tag":{"amenity":"waste_basket"}},"type":"Feature"},
	{"geometry":{"coordinates":[19.058452,47.677316],"type":"Point"},"properties":{"osm_id":"4515161141","tag":{"amenity":"waste_basket"}},"type":"Feature"},
	{"geometry":{"coordinates":[19.058824,47.676789],"type":"Point"},"properties":{"osm_id":"4515161142","tag":{"amenity":"waste_basket"}},"type":"Feature"},
	{"geometry":{"coordinates":[19.062327,47.676072],"type":"Point"},"properties":{"osm_id":"4515161143","tag":{"amenity":"waste_basket"}},"type":"Feature"},
	{"geometry":{"coordinates":[19.030365,47.643959],"type":"Point"},"properties":{"osm_id":"4532499843","tag":{"amenity":"waste_basket"}},"type":"Feature"},
	{"geometry":{"coordinates":[19.018211,47.647401],"type":"Point"},"properties":{"osm_id":"4532531177","tag":{"amenity":"waste_basket"}},"type":"Feature"},
	{"geometry":{"coordinates":[19.018258,47.64724],"type":"Point"},"properties":{"osm_id":"4532531180","tag":{"amenity":"waste_basket"}},"type":"Feature"},
	{"geometry":{"coordinates":[19.018242,47.647272],"type":"Point"},"properties":{"osm_id":"4532531181","tag":{"amenity":"waste_basket"}},"type":"Feature"},
	{"geometry":{"coordinates":[19.005848,47.648998],"type":"Point"},"properties":{"osm_id":"4543407248","tag":{"amenity":"waste_basket"}},"type":"Feature"},
	{"geometry":{"coordinates":[19.030952,47.643279],"type":"Point"},"properties":{"osm_id":"4687489825","tag":{"amenity":"waste_basket"}},"type":"Feature"},
	{"geometry":{"coordinates":[19.031119,47.64339],"type":"Point"},"properties":{"osm_id":"4687489826","tag":{"amenity":"waste_basket"}},"type":"Feature"},
	{"geometry":{"coordinates":[18.986159,47.689435],"type":"Point"},"properties":{"osm_id":"4794187706","tag":{"amenity":"waste_basket"}},"type":"Feature"},
	{"geometry":{"coordinates":[19.061326,47.666559],"type":"Point"},"properties":{"osm_id":"5094901676","tag":{"amenity":"recycling","recycling_type":"container"}},"type":"Feature"},
	{"geometry":{"coordinates":[19.018613,47.645781],"type":"Point"},"properties":{"osm_id":"5272332642","tag":{"amenity":"waste_basket"}},"type":"Feature"},
	{"geometry":{"coordinates":[19.071926,47.666624],"type":"Point"},"properties":{"osm_id":"5468939709","tag":{"amenity":"waste_basket","waste":"trash"}},"type":"Feature"},
	{"geometry":{"coordinates":[19.0225,47.647923],"type":"Point"},"properties":{"osm_id":"5674893993","tag":{"amenity":"waste_basket"}},"type":"Feature"},
	{"geometry":{"coordinates":[19.020243,47.645883],"type":"Point"},"properties":{"osm_id":"5751825601","tag":{"amenity":"recycling","indoor":"yes","operator":"Spar","recycling:PET":"yes","recycling:aluminium":"yes","recycling:cans":"yes","recycling:cardboard":"yes","recycling:glass_bottles":"yes","recycling:paper":"yes","recycling:plastic_bottles":"yes","recycling:plastic_packaging":"yes","recycling_type":"container","wheelchair":"yes"}},"type":"Feature"},
	{"geometry":{"coordinates":[19.019469,47.650295],"type":"Point"},"properties":{"osm_id":"5768899548","tag":{"amenity":"waste_basket"}},"type":"Feature"},
	{"geometry":{"coordinates":[19.022622,47.647951],"type":"Point"},"properties":{"osm_id":"5781476938","tag":{"amenity":"waste_basket"}},"type":"Feature"},
	{"geometry":{"coordinates":[19.071754,47.666046],"type":"Point"},"properties":{"osm_id":"5857348969","tag":{"amenity":"waste_basket"}},"type":"Feature"},
	{"geometry":{"coordinates":[19.071585,47.665416],"type":"Point"},"properties":{"osm_id":"5857348970","tag":{"amenity":"waste_basket"}},"type":"Feature"},
	{"geometry":{"coordinates":[19.046173,47.69207],"type":"Point"},"properties":{"osm_id":"5861997432","tag":{"amenity":"recycling","recycling:glass":"yes","recycling:paper":"yes","recycling:plastic":"yes","recycling_type":"container"}},"type":"Feature"},
	{"geometry":{"coordinates":[19.045764,47.692091],"type":"Point"},"properties":{"osm_id":"5861997433","tag":{"amenity":"waste_basket"}},"type":"Feature"},
	{"geometry":{"coordinates":[19.054131,47.690009],"type":"Point"},"properties":{"osm_id":"5870718744","tag":{"amenity":"waste_basket"}},"type":"Feature"},
	{"geometry":{"coordinates":[19.046045,47.693673],"type":"Point"},"properties":{"osm_id":"5870718745","tag":{"amenity":"waste_basket"}},"type":"Feature"},
	{"geometry":{"coordinates":[19.04616,47.694049],"type":"Point"},"properties":{"osm_id":"5870718749","tag":{"amenity":"waste_basket"}},"type":"Feature"},
	{"geometry":{"coordinates":[19.045977,47.694701],"type":"Point"},"properties":{"osm_id":"5870718754","tag":{"amenity":"waste_basket"}},"type":"Feature"},
	{"geometry":{"coordinates":[19.023471,47.645074],"type":"Point"},"properties":{"osm_id":"5876444806","tag":{"amenity":"waste_basket"}},"type":"Feature"},
	{"geometry":{"coordinates":[19.025544,47.645931],"type":"Point"},"properties":{"osm_id":"5876444807","tag":{"amenity":"waste_basket"}},"type":"Feature"},
	{"geometry":{"coordinates":[19.021309,47.646301],"type":"Point"},"properties":{"osm_id":"5876444808","tag":{"amenity":"waste_basket"}},"type":"Feature"},
	{"geometry":{"coordinates":[19.029168,47.644481],"type":"Point"},"properties":{"osm_id":"5876444809","tag":{"amenity":"waste_basket"}},"type":"Feature"},
	{"geometry":{"coordinates":[19.027654,47.645197],"type":"Point"},"properties":{"osm_id":"5876444810","tag":{"amenity":"waste_basket"}},"type":"Feature"},
	{"geometry":{"coordinates":[19.032827,47.642772],"type":"Point"},"properties":{"osm_id":"5977680127","tag":{"amenity":"waste_basket"}},"type":"Feature"},
	{"geometry":{"coordinates":[19.018213,47.675815],"type":"Point"},"properties":{"osm_id":"6033936027","tag":{"amenity":"recycling","recycling:PET":"yes","recycling:cans":"yes","recycling:glass_bottles":"yes","recycling:paper":"yes","recycling:plastic_bottles":"yes","recycling:waste":"yes","recycling_type":"container"}},"type":"Feature"},
	{"geometry":{"coordinates":[19.02703,47.646317],"type":"Point"},"properties":{"osm_id":"6336105727","tag":{"amenity":"waste_basket"}},"type":"Feature"},
	{"geometry":{"coordinates":[19.024216,47.650104],"type":"Point"},"properties":{"osm_id":"6336105728","tag":{"amenity":"waste_basket"}},"type":"Feature"},
	{"geometry":{"coordinates":[19.068658,47.674176],"type":"Point"},"properties":{"osm_id":"6480855116","tag":{"amenity":"recycling","recycling_type":"container"}},"type":"Feature"},
	{"geometry":{"coordinates":[19.033199,47.642564],"type":"Point"},"properties":{"osm_id":"6524012763","tag":{"amenity":"waste_basket","start_date":"2019-08"}},"type":"Feature"},
	{"geometry":{"coordinates":[19.032139,47.643157],"type":"Point"},"properties":{"osm_id":"6524012764","tag":{"amenity":"waste_basket","start_date":"2019-08"}},"type":"Feature"},
	{"geometry":{"coordinates":[19.031872,47.643307],"type":"Point"},"properties":{"osm_id":"6524012765","tag":{"amenity":"waste_basket","start_date":"2019-08"}},"type":"Feature"},
	{"geometry":{"coordinates":[19.011039,47.667182],"type":"Point"},"properties":{"osm_id":"6939413392","tag":{"amenity":"waste_basket"}},"type":"Feature"},
	{"geometry":{"coordinates":[19.066028,47.69076],"type":"Point"},"properties":{"osm_id":"6964533778","tag":{"amenity":"waste_basket"}},"type":"Feature"}
]
}
