{
"type": "FeatureCollection",
"features": [
	{"geometry":{"coordinates":[19.049483,47.601565],"type":"Point"},"properties":{"osm_id":"1243072859","tag":{"amenity":"recycling","recycling_type":"container"}},"type":"Feature"},
	{"geometry":{"coordinates":[19.046398,47.599814],"type":"Point"},"properties":{"osm_id":"1243072865","tag":{"amenity":"recycling","recycling_type":"container"}},"type":"Feature"},
	{"geometry":{"coordinates":[19.050502,47.600744],"type":"Point"},"properties":{"osm_id":"1243072867","tag":{"amenity":"recycling","recycling_type":"container"}},"type":"Feature"},
	{"geometry":{"coordinates":[19.015286,47.593768],"type":"Point"},"properties":{"osm_id":"3461930586","tag":{"amenity":"recycling","recycling_type":"container","source:date":"2012-11-12","url":"http://turistautak.hu/poi.php?id=93213"}},"type":"Feature"},
	{"geometry":{"coordinates":[18.99058,47.6085],"type":"Point"},"properties":{"osm_id":"3461930719","tag":{"amenity":"recycling","source:date":"2011-06-18","url":"http://turistautak.hu/poi.php?id=120000"}},"type":"Feature"},
	{"geometry":{"coordinates":[19.01539,47.58267],"type":"Point"},"properties":{"osm_id":"3465236180","tag":{"amenity":"recycling","recycling_type":"container","source:date":"2013-05-11","url":"http://turistautak.hu/poi.php?id=153383"}},"type":"Feature"},
	{"geometry":{"coordinates":[19.06545,47.594433],"type":"Point"},"properties":{"osm_id":"3465236419","tag":{"addr:postcode":"1039","addr:street":"P\u00c3\u00bcnk\u00c3\u00b6sdf\u00c3\u00bcrd\u00c5\u0091-Napf\u00c3\u00a9ny sarok","amenity":"recycling","recycling_type":"container","source:date":"2011-04-07","url":"http://turistautak.hu/poi.php?id=36122"}},"type":"Feature"},
	{"geometry":{"coordinates":[19.050937,47.597042],"type":"Point"},"properties":{"osm_id":"3465236429","tag":{"addr:city":"Budapest","addr:postcode":"1039","addr:street":"Holl\u00c3\u00b3s Korvin Lajos utca","amenity":"recycling","description":"A szelekt\u00c3\u00adv hullad\u00c3\u00a9kgy\u00c5\u00b1jt\u00c5\u0091 sziget Budapest III. ker. Csob\u00c3\u00a1nka t\u00c3\u00a9ri Rendel\u00c5\u0091int\u00c3\u00a9zet m\u00c3\u00b6g\u00c3\u00b6tt, a Viziorgona utca \u00c3\u00a9s a Holl\u00c3\u00b3s Korvin Lajos utca tal\u00c3\u00a1lkoz\u00c3\u00a1s\u00c3\u00a1n\u00c3\u00a1l ker\u00c3\u00bclt kialak\u00c3\u00adt\u00c3\u00a1sra","recycling_type":"container","source:date":"2011-04-07","url":"http://turistautak.hu/poi.php?id=2334"}},"type":"Feature"},
	{"geometry":{"coordinates":[19.0529,47.5985],"type":"Point"},"properties":{"osm_id":"3465236432","tag":{"amenity":"waste_basket","check_date":"2021-08-10","description":"Itt n\u00c3\u00a9ha zacsk\u00c3\u00b3t is tal\u00c3\u00a1lsz","source:date":"2011-04-07","url":"http://turistautak.hu/poi.php?id=69420"}},"type":"Feature"},
	{"geometry":{"coordinates":[19.0655,47.601017],"type":"Point"},"properties":{"osm_id":"3465236434","tag":{"addr:postcode":"1039","addr:street":"Hatvany Lajos utca","amenity":"recycling","recycling_type":"container","source:date":"2014-02-06","url":"http://turistautak.hu/poi.php?id=36121"}},"type":"Feature"},
	{"geometry":{"coordinates":[19.050671,47.594268],"type":"Point"},"properties":{"osm_id":"3543787299","tag":{"amenity":"recycling","recycling_type":"container"}},"type":"Feature"},
	{"geometry":{"coordinates":[19.045335,47.624467],"type":"Point"},"properties":{"osm_id":"3696002573","tag":{"amenity":"waste_basket","check_date":"2021-03-10"}},"type":"Feature"},
	{"geometry":{"coordinates":[19.044782,47.621181],"type":"Point"},"properties":{"osm_id":"3836909408","tag":{"amenity":"waste_basket","check_date":"2020-12-28"}},"type":"Feature"},
	{"geometry":{"coordinates":[19.044151,47.620935],"type":"Point"},"properties":{"osm_id":"3836909429","tag":{"amenity":"waste_basket","check_date":"2020-12-28"}},"type":"Feature"},
	{"geometry":{"coordinates":[19.044345,47.621048],"type":"Point"},"properties":{"osm_id":"3867804969","tag":{"amenity":"waste_basket","check_date":"2020-12-28"}},"type":"Feature"},
	{"geometry":{"coordinates":[19.045699,47.620803],"type":"Point"},"properties":{"osm_id":"3879834246","tag":{"amenity":"waste_basket"}},"type":"Feature"},
	{"geometry":{"coordinates":[19.046358,47.621988],"type":"Point"},"properties":{"osm_id":"3882254679","tag":{"amenity":"waste_basket","check_date":"2021-02-08"}},"type":"Feature"},
	{"geometry":{"coordinates":[19.046121,47.621942],"type":"Point"},"properties":{"osm_id":"3882254680","tag":{"amenity":"waste_basket","check_date":"2021-01-06"}},"type":"Feature"},
	{"geometry":{"coordinates":[19.046177,47.621727],"type":"Point"},"properties":{"osm_id":"3882254685","tag":{"amenity":"waste_basket","check_date":"2021-01-06"}},"type":"Feature"},
	{"geometry":{"coordinates":[19.046276,47.621752],"type":"Point"},"properties":{"osm_id":"3882254687","tag":{"amenity":"waste_basket","check_date":"2021-01-06"}},"type":"Feature"},
	{"geometry":{"coordinates":[19.045915,47.621472],"type":"Point"},"properties":{"osm_id":"3883877841","tag":{"amenity":"waste_basket","check_date":"2021-01-06"}},"type":"Feature"},
	{"geometry":{"coordinates":[19.046167,47.621421],"type":"Point"},"properties":{"osm_id":"3883877842","tag":{"amenity":"waste_basket","check_date":"2021-01-06"}},"type":"Feature"},
	{"geometry":{"coordinates":[19.046879,47.621725],"type":"Point"},"properties":{"osm_id":"3883877845","tag":{"amenity":"waste_basket"}},"type":"Feature"},
	{"geometry":{"coordinates":[19.047017,47.621628],"type":"Point"},"properties":{"osm_id":"3883877848","tag":{"amenity":"waste_basket"}},"type":"Feature"},
	{"geometry":{"coordinates":[19.046577,47.621814],"type":"Point"},"properties":{"osm_id":"3900593865","tag":{"amenity":"waste_basket","check_date":"2021-01-06"}},"type":"Feature"},
	{"geometry":{"coordinates":[19.048378,47.590822],"type":"Point"},"properties":{"osm_id":"4043669324","tag":{"amenity":"waste_basket"}},"type":"Feature"},
	{"geometry":{"coordinates":[19.048305,47.590796],"type":"Point"},"properties":{"osm_id":"4043669326","tag":{"amenity":"waste_basket","check_date":"2021-04-24"}},"type":"Feature"},
	{"geometry":{"coordinates":[19.044873,47.621208],"type":"Point"},"properties":{"osm_id":"4045998825","tag":{"amenity":"waste_basket","check_date":"2020-12-28"}},"type":"Feature"},
	{"geometry":{"coordinates":[19.044891,47.621233],"type":"Point"},"properties":{"osm_id":"4045998826","tag":{"amenity":"waste_basket","check_date":"2020-12-28"}},"type":"Feature"},
	{"geometry":{"coordinates":[19.051091,47.620961],"type":"Point"},"properties":{"osm_id":"4086840516","tag":{"amenity":"waste_basket"}},"type":"Feature"},
	{"geometry":{"coordinates":[19.053962,47.619156],"type":"Point"},"properties":{"osm_id":"4086840517","tag":{"amenity":"waste_basket","check_date":"2021-04-17"}},"type":"Feature"},
	{"geometry":{"coordinates":[19.054387,47.618632],"type":"Point"},"properties":{"osm_id":"4086840518","tag":{"amenity":"waste_basket"}},"type":"Feature"},
	{"geometry":{"coordinates":[19.05415,47.618484],"type":"Point"},"properties":{"osm_id":"4086840519","tag":{"amenity":"waste_basket"}},"type":"Feature"},
	{"geometry":{"coordinates":[19.057225,47.616558],"type":"Point"},"properties":{"osm_id":"4086840521","tag":{"amenity":"waste_basket","check_date":"2021-01-17"}},"type":"Feature"},
	{"geometry":{"coordinates":[19.058529,47.6164],"type":"Point"},"properties":{"osm_id":"4086840522","tag":{"amenity":"waste_basket"}},"type":"Feature"},
	{"geometry":{"coordinates":[19.04327,47.628677],"type":"Point"},"properties":{"osm_id":"4159465473","tag":{"amenity":"waste_basket"}},"type":"Feature"},
	{"geometry":{"coordinates":[19.056683,47.61666],"type":"Point"},"properties":{"osm_id":"4239454380","tag":{"amenity":"waste_basket"}},"type":"Feature"},
	{"geometry":{"coordinates":[19.053447,47.617056],"type":"Point"},"properties":{"osm_id":"4239454383","tag":{"amenity":"waste_basket","check_date":"2021-01-17"}},"type":"Feature"},
	{"geometry":{"coordinates":[19.053279,47.61723],"type":"Point"},"properties":{"osm_id":"4239454384","tag":{"amenity":"waste_basket"}},"type":"Feature"},
	{"geometry":{"coordinates":[19.051141,47.61899],"type":"Point"},"properties":{"osm_id":"4239454388","tag":{"amenity":"waste_basket"}},"type":"Feature"},
	{"geometry":{"coordinates":[19.047395,47.617357],"type":"Point"},"properties":{"osm_id":"4285006730","tag":{"amenity":"waste_basket","check_date":"2021-04-04"}},"type":"Feature"},
	{"geometry":{"coordinates":[19.047361,47.617019],"type":"Point"},"properties":{"osm_id":"4285006733","tag":{"amenity":"waste_basket","check_date":"2021-05-07"}},"type":"Feature"},
	{"geometry":{"coordinates":[19.0472,47.617036],"type":"Point"},"properties":{"osm_id":"4285006734","tag":{"amenity":"waste_basket","check_date":"2021-05-07"}},"type":"Feature"},
	{"geometry":{"coordinates":[19.048185,47.61708],"type":"Point"},"properties":{"osm_id":"4285006756","tag":{"amenity":"waste_basket","check_date":"2021-05-07"}},"type":"Feature"},
	{"geometry":{"coordinates":[19.041083,47.620911],"type":"Point"},"properties":{"osm_id":"4344434128","tag":{"amenity":"waste_basket","check_date":"2020-12-28"}},"type":"Feature"},
	{"geometry":{"coordinates":[19.054409,47.616182],"type":"Point"},"properties":{"osm_id":"4344570892","tag":{"amenity":"waste_basket","material":"metal"}},"type":"Feature"},
	{"geometry":{"coordinates":[19.054874,47.616921],"type":"Point"},"properties":{"osm_id":"4401261690","tag":{"amenity":"waste_basket","check_date":"2021-01-17"}},"type":"Feature"},
	{"geometry":{"coordinates":[19.043344,47.629138],"type":"Point"},"properties":{"osm_id":"4411801050","tag":{"amenity":"waste_basket","check_date":"2021-03-01"}},"type":"Feature"},
	{"geometry":{"coordinates":[19.04775,47.617269],"type":"Point"},"properties":{"osm_id":"4418995883","tag":{"amenity":"waste_basket"}},"type":"Feature"},
	{"geometry":{"coordinates":[19.05049,47.617726],"type":"Point"},"properties":{"osm_id":"4418996815","tag":{"amenity":"waste_basket"}},"type":"Feature"},
	{"geometry":{"coordinates":[19.050408,47.617785],"type":"Point"},"properties":{"osm_id":"4418996816","tag":{"amenity":"waste_basket"}},"type":"Feature"},
	{"geometry":{"coordinates":[19.050516,47.618573],"type":"Point"},"properties":{"osm_id":"4418996818","tag":{"amenity":"waste_basket"}},"type":"Feature"},
	{"geometry":{"coordinates":[19.050888,47.618902],"type":"Point"},"properties":{"osm_id":"4422356152","tag":{"amenity":"waste_basket"}},"type":"Feature"},
	{"geometry":{"coordinates":[19.044901,47.586152],"type":"Point"},"properties":{"osm_id":"4446680739","tag":{"amenity":"waste_basket"}},"type":"Feature"},
	{"geometry":{"coordinates":[19.045159,47.585935],"type":"Point"},"properties":{"osm_id":"4446680744","tag":{"amenity":"waste_basket"}},"type":"Feature"},
	{"geometry":{"coordinates":[19.045062,47.586332],"type":"Point"},"properties":{"osm_id":"4446680751","tag":{"amenity":"waste_basket"}},"type":"Feature"},
	{"geometry":{"coordinates":[19.045119,47.586408],"type":"Point"},"properties":{"osm_id":"4446680753","tag":{"amenity":"waste_basket"}},"type":"Feature"},
	{"geometry":{"coordinates":[19.045197,47.586513],"type":"Point"},"properties":{"osm_id":"4446680754","tag":{"amenity":"waste_basket"}},"type":"Feature"},
	{"geometry":{"coordinates":[19.045467,47.586875],"type":"Point"},"properties":{"osm_id":"4446680755","tag":{"amenity":"waste_basket"}},"type":"Feature"},
	{"geometry":{"coordinates":[19.045552,47.586989],"type":"Point"},"properties":{"osm_id":"4446680756","tag":{"amenity":"waste_basket"}},"type":"Feature"},
	{"geometry":{"coordinates":[19.045722,47.587218],"type":"Point"},"properties":{"osm_id":"4446680757","tag":{"amenity":"waste_basket"}},"type":"Feature"},
	{"geometry":{"coordinates":[19.045713,47.587276],"type":"Point"},"properties":{"osm_id":"4446680758","tag":{"amenity":"waste_basket"}},"type":"Feature"},
	{"geometry":{"coordinates":[19.044897,47.585872],"type":"Point"},"properties":{"osm_id":"4446680759","tag":{"amenity":"waste_basket"}},"type":"Feature"},
	{"geometry":{"coordinates":[19.046839,47.619396],"type":"Point"},"properties":{"osm_id":"4455652426","tag":{"amenity":"waste_basket","check_date":"2020-12-28"}},"type":"Feature"},
	{"geometry":{"coordinates":[19.044442,47.618592],"type":"Point"},"properties":{"osm_id":"4455652448","tag":{"amenity":"waste_basket","check_date":"2021-03-23"}},"type":"Feature"},
	{"geometry":{"coordinates":[19.041774,47.618149],"type":"Point"},"properties":{"osm_id":"4455652453","tag":{"amenity":"waste_basket","check_date":"2021-03-23"}},"type":"Feature"},
	{"geometry":{"coordinates":[19.046266,47.620097],"type":"Point"},"properties":{"osm_id":"4455652461","tag":{"amenity":"waste_basket"}},"type":"Feature"},
	{"geometry":{"coordinates":[19.045973,47.594149],"type":"Point"},"properties":{"osm_id":"4484794256","tag":{"amenity":"waste_basket","waste":"dog_excrement"}},"type":"Feature"},
	{"geometry":{"coordinates":[19.064001,47.603956],"type":"Point"},"properties":{"osm_id":"4484794270","tag":{"amenity":"recycling"}},"type":"Feature"},
	{"geometry":{"coordinates":[19.044971,47.621144],"type":"Point"},"properties":{"osm_id":"4675476029","tag":{"amenity":"waste_basket","check_date":"2021-03-23"}},"type":"Feature"},
	{"geometry":{"coordinates":[19.045629,47.619449],"type":"Point"},"properties":{"osm_id":"4827831876","tag":{"amenity":"waste_basket"}},"type":"Feature"},
	{"geometry":{"coordinates":[19.048217,47.618958],"type":"Point"},"properties":{"osm_id":"4848257789","tag":{"amenity":"waste_basket"}},"type":"Feature"},
	{"geometry":{"coordinates":[19.048676,47.618881],"type":"Point"},"properties":{"osm_id":"4848257790","tag":{"amenity":"waste_basket","vending":"excrement_bags","waste":"dog_excrement"}},"type":"Feature"},
	{"geometry":{"coordinates":[19.046189,47.622187],"type":"Point"},"properties":{"osm_id":"4848257853","tag":{"amenity":"waste_basket"}},"type":"Feature"},
	{"geometry":{"coordinates":[19.045945,47.62253],"type":"Point"},"properties":{"osm_id":"4848257855","tag":{"amenity":"waste_basket"}},"type":"Feature"},
	{"geometry":{"coordinates":[19.049549,47.618612],"type":"Point"},"properties":{"osm_id":"4849223842","tag":{"amenity":"waste_basket"}},"type":"Feature"},
	{"geometry":{"coordinates":[19.057393,47.616269],"type":"Point"},"properties":{"osm_id":"4849389543","tag":{"amenity":"waste_basket","vending":"excrement_bags","waste":"dog_excrement"}},"type":"Feature"},
	{"geometry":{"coordinates":[19.058444,47.599695],"type":"Point"},"properties":{"osm_id":"4872849755","tag":{"amenity":"waste_basket"}},"type":"Feature"},
	{"geometry":{"coordinates":[19.058796,47.600701],"type":"Point"},"properties":{"osm_id":"4872849756","tag":{"amenity":"waste_basket"}},"type":"Feature"},
	{"geometry":{"coordinates":[19.058573,47.59992],"type":"Point"},"properties":{"osm_id":"4872849758","tag":{"amenity":"waste_basket"}},"type":"Feature"},
	{"geometry":{"coordinates":[19.06484,47.616075],"type":"Point"},"properties":{"osm_id":"4998620398","tag":{"amenity":"waste_basket"}},"type":"Feature"},
	{"geometry":{"coordinates":[19.065197,47.617737],"type":"Point"},"properties":{"osm_id":"4998620405","tag":{"amenity":"waste_basket"}},"type":"Feature"},
	{"geometry":{"coordinates":[19.065028,47.616977],"type":"Point"},"properties":{"osm_id":"4998620406","tag":{"amenity":"waste_basket"}},"type":"Feature"},
	{"geometry":{"coordinates":[19.061003,47.619522],"type":"Point"},"properties":{"osm_id":"4998620412","tag":{"amenity":"waste_basket"}},"type":"Feature"},
	{"geometry":{"coordinates":[19.05997,47.619292],"type":"Point"},"properties":{"osm_id":"4998620413","tag":{"amenity":"waste_basket"}},"type":"Feature"},
	{"geometry":{"coordinates":[19.059645,47.618786],"type":"Point"},"properties":{"osm_id":"4998620415","tag":{"amenity":"waste_basket"}},"type":"Feature"},
	{"geometry":{"coordinates":[19.059461,47.618347],"type":"Point"},"properties":{"osm_id":"4998620416","tag":{"amenity":"waste_basket"}},"type":"Feature"},
	{"geometry":{"coordinates":[19.059463,47.618014],"type":"Point"},"properties":{"osm_id":"4998620419","tag":{"amenity":"waste_basket"}},"type":"Feature"},
	{"geometry":{"coordinates":[19.059346,47.617615],"type":"Point"},"properties":{"osm_id":"4998620420","tag":{"amenity":"waste_basket"}},"type":"Feature"},
	{"geometry":{"coordinates":[19.059185,47.61724],"type":"Point"},"properties":{"osm_id":"4998621321","tag":{"amenity":"waste_basket"}},"type":"Feature"},
	{"geometry":{"coordinates":[19.059127,47.61693],"type":"Point"},"properties":{"osm_id":"4998621325","tag":{"amenity":"waste_basket"}},"type":"Feature"},
	{"geometry":{"coordinates":[19.058544,47.616716],"type":"Point"},"properties":{"osm_id":"4998621333","tag":{"amenity":"waste_basket"}},"type":"Feature"},
	{"geometry":{"coordinates":[19.058658,47.61669],"type":"Point"},"properties":{"osm_id":"4998621334","tag":{"amenity":"waste_basket"}},"type":"Feature"},
	{"geometry":{"coordinates":[19.056979,47.629545],"type":"Point"},"properties":{"osm_id":"5292569016","tag":{"amenity":"waste_basket"}},"type":"Feature"},
	{"geometry":{"coordinates":[19.043745,47.628146],"type":"Point"},"properties":{"osm_id":"5418420883","tag":{"amenity":"waste_basket"}},"type":"Feature"},
	{"geometry":{"coordinates":[19.043691,47.628515],"type":"Point"},"properties":{"osm_id":"5418420885","tag":{"amenity":"waste_basket"}},"type":"Feature"},
	{"geometry":{"coordinates":[19.043638,47.628624],"type":"Point"},"properties":{"osm_id":"5418420886","tag":{"amenity":"waste_basket"}},"type":"Feature"},
	{"geometry":{"coordinates":[19.04342,47.628718],"type":"Point"},"properties":{"osm_id":"5418420891","tag":{"amenity":"waste_basket"}},"type":"Feature"},
	{"geometry":{"coordinates":[19.04422,47.586345],"type":"Point"},"properties":{"osm_id":"5687839316","tag":{"amenity":"waste_basket"}},"type":"Feature"},
	{"geometry":{"coordinates":[19.044024,47.58623],"type":"Point"},"properties":{"osm_id":"5687839317","tag":{"amenity":"waste_basket"}},"type":"Feature"},
	{"geometry":{"coordinates":[19.044857,47.586195],"type":"Point"},"properties":{"osm_id":"5853304339","tag":{"amenity":"waste_basket"}},"type":"Feature"},
	{"geometry":{"coordinates":[19.045198,47.585946],"type":"Point"},"properties":{"osm_id":"5853304340","tag":{"amenity":"waste_basket"}},"type":"Feature"},
	{"geometry":{"coordinates":[19.04592,47.585909],"type":"Point"},"properties":{"osm_id":"5853304343","tag":{"amenity":"waste_basket"}},"type":"Feature"},
	{"geometry":{"coordinates":[19.046661,47.585943],"type":"Point"},"properties":{"osm_id":"5853304345","tag":{"amenity":"waste_basket"}},"type":"Feature"},
	{"geometry":{"coordinates":[19.047435,47.58585],"type":"Point"},"properties":{"osm_id":"5853304352","tag":{"amenity":"waste_basket"}},"type":"Feature"},
	{"geometry":{"coordinates":[19.049434,47.585586],"type":"Point"},"properties":{"osm_id":"5853304374","tag":{"amenity":"waste_basket"}},"type":"Feature"},
	{"geometry":{"coordinates":[19.049454,47.585692],"type":"Point"},"properties":{"osm_id":"5853304375","tag":{"amenity":"waste_basket"}},"type":"Feature"},
	{"geometry":{"coordinates":[19.049851,47.585666],"type":"Point"},"properties":{"osm_id":"5853304376","tag":{"amenity":"waste_basket"}},"type":"Feature"},
	{"geometry":{"coordinates":[19.049865,47.585534],"type":"Point"},"properties":{"osm_id":"5853304377","tag":{"amenity":"waste_basket"}},"type":"Feature"},
	{"geometry":{"coordinates":[19.057761,47.615158],"type":"Point"},"properties":{"osm_id":"5860663606","tag":{"amenity":"waste_basket"}},"type":"Feature"},
	{"geometry":{"coordinates":[19.046164,47.592455],"type":"Point"},"properties":{"osm_id":"5931262363","tag":{"amenity":"waste_basket"}},"type":"Feature"},
	{"geometry":{"coordinates":[19.046431,47.592978],"type":"Point"},"properties":{"osm_id":"5931520825","tag":{"amenity":"waste_basket"}},"type":"Feature"},
	{"geometry":{"coordinates":[19.048682,47.594009],"type":"Point"},"properties":{"osm_id":"5931520879","tag":{"amenity":"waste_basket"}},"type":"Feature"},
	{"geometry":{"coordinates":[19.047805,47.621113],"type":"Point"},"properties":{"osm_id":"5977699614","tag":{"amenity":"waste_basket"}},"type":"Feature"},
	{"geometry":{"coordinates":[19.046635,47.619734],"type":"Point"},"properties":{"osm_id":"6202200528","tag":{"amenity":"waste_basket"}},"type":"Feature"},
	{"geometry":{"coordinates":[19.046946,47.621691],"type":"Point"},"properties":{"osm_id":"6279087444","tag":{"amenity":"waste_basket"}},"type":"Feature"},
	{"geometry":{"coordinates":[19.059244,47.613682],"type":"Point"},"properties":{"osm_id":"6390805104","tag":{"amenity":"recycling","recycling:glass":"no","recycling:glass_bottles":"yes","recycling:glass_white":"yes","recycling:paper":"yes","recycling:plastic":"yes","recycling_type":"container"}},"type":"Feature"},
	{"geometry":{"coordinates":[19.047178,47.621547],"type":"Point"},"properties":{"osm_id":"6782671132","tag":{"amenity":"waste_basket"}},"type":"Feature"},
	{"geometry":{"coordinates":[19.046058,47.622334],"type":"Point"},"properties":{"osm_id":"6782671135","tag":{"amenity":"waste_basket"}},"type":"Feature"},
	{"geometry":{"coordinates":[19.053625,47.597073],"type":"Point"},"properties":{"osm_id":"6902472507","tag":{"amenity":"recycling","description":"2020.10.20-\u00c3\u00a1n tapasztaltam: megsz\u00c5\u00b1nt minden m\u00c3\u00a1s gy\u00c5\u00b1jt\u00c3\u00a9s, CSAK \u00c3\u00bcveg van: sz\u00c3\u00adnes \u00c3\u00a9s feh\u00c3\u00a9r \u00c3\u00bcveg. Csak k\u00c3\u00a9t doboz van m\u00c3\u00a1r kint. A Ki\u00c3\u00adr\u00c3\u00a1s szerint nem is lesz t\u00c3\u00b6bb\u00c3\u00a9 ezen a helyen pap\u00c3\u00adr \u00c3\u00a9s m\u00c5\u00b1anyag.","indoor":"no","opening_hours":"24/7","opening_hours:covid19":"open","recycling:glass":"yes","recycling:glass_bottles":"yes","recycling_type":"container"}},"type":"Feature"},
	{"geometry":{"coordinates":[19.063587,47.597302],"type":"Point"},"properties":{"osm_id":"7094972956","tag":{"amenity":"waste_basket"}},"type":"Feature"},
	{"geometry":{"coordinates":[19.06343,47.597085],"type":"Point"},"properties":{"osm_id":"7094972957","tag":{"amenity":"waste_basket"}},"type":"Feature"},
	{"geometry":{"coordinates":[19.064411,47.59647],"type":"Point"},"properties":{"osm_id":"7094988592","tag":{"amenity":"waste_basket"}},"type":"Feature"},
	{"geometry":{"coordinates":[19.059685,47.598353],"type":"Point"},"properties":{"osm_id":"7104355341","tag":{"amenity":"waste_basket"}},"type":"Feature"},
	{"geometry":{"coordinates":[19.062445,47.596527],"type":"Point"},"properties":{"osm_id":"7112580278","tag":{"amenity":"waste_basket"}},"type":"Feature"},
	{"geometry":{"coordinates":[19.067013,47.597549],"type":"Point"},"properties":{"osm_id":"7174585945","tag":{"amenity":"waste_basket"}},"type":"Feature"},
	{"geometry":{"coordinates":[19.067008,47.597511],"type":"Point"},"properties":{"osm_id":"7174585946","tag":{"amenity":"waste_basket"}},"type":"Feature"},
	{"geometry":{"coordinates":[19.066685,47.598519],"type":"Point"},"properties":{"osm_id":"7174585947","tag":{"amenity":"waste_basket"}},"type":"Feature"},
	{"geometry":{"coordinates":[19.063846,47.600249],"type":"Point"},"properties":{"osm_id":"7174608323","tag":{"amenity":"recycling","location":"overground","recycling_type":"container"}},"type":"Feature"},
	{"geometry":{"coordinates":[19.047687,47.624351],"type":"Point"},"properties":{"barrier":"gate","osm_id":"7178954426"},"type":"Feature"},
	{"geometry":{"coordinates":[19.062687,47.593371],"type":"Point"},"properties":{"osm_id":"7428528355","tag":{"amenity":"waste_basket","waste":"dog_excrement"}},"type":"Feature"},
	{"geometry":{"coordinates":[19.056454,47.577026],"type":"Point"},"properties":{"osm_id":"7442913993","tag":{"amenity":"waste_basket","waste":"trash"}},"type":"Feature"},
	{"geometry":{"coordinates":[19.037981,47.627929],"type":"Point"},"properties":{"osm_id":"8460647168","tag":{"amenity":"waste_basket"}},"type":"Feature"},
	{"geometry":{"coordinates":[19.047663,47.595388],"type":"Point"},"properties":{"osm_id":"8464595262","tag":{"amenity":"recycling","recycling:glass":"yes","recycling_type":"container"}},"type":"Feature"},
	{"geometry":{"coordinates":[19.031337,47.63466],"type":"Point"},"properties":{"osm_id":"8533673028","tag":{"amenity":"waste_basket","leisure":"fitness_station","waste":"trash"}},"type":"Feature"},
	{"geometry":{"coordinates":[19.045347,47.586206],"type":"Point"},"properties":{"osm_id":"8568651344","tag":{"amenity":"waste_basket"}},"type":"Feature"},
	{"geometry":{"coordinates":[19.045591,47.585995],"type":"Point"},"properties":{"osm_id":"8568825783","tag":{"amenity":"waste_basket"}},"type":"Feature"},
	{"geometry":{"coordinates":[19.018369,47.624959],"type":"Point"},"properties":{"osm_id":"8615158903","tag":{"amenity":"waste_basket","waste":"sitt"}},"type":"Feature"},
	{"geometry":{"coordinates":[19.063817,47.615686],"type":"Point"},"properties":{"osm_id":"8772067607","tag":{"amenity":"waste_basket"}},"type":"Feature"},
	{"geometry":{"coordinates":[19.064156,47.61564],"type":"Point"},"properties":{"osm_id":"8772067608","tag":{"amenity":"waste_basket"}},"type":"Feature"},
	{"geometry":{"coordinates":[19.062465,47.615868],"type":"Point"},"properties":{"osm_id":"8772067609","tag":{"amenity":"waste_basket"}},"type":"Feature"},
	{"geometry":{"coordinates":[19.061221,47.616045],"type":"Point"},"properties":{"osm_id":"8772067613","tag":{"amenity":"waste_basket"}},"type":"Feature"},
	{"geometry":{"coordinates":[19.060518,47.61619],"type":"Point"},"properties":{"osm_id":"8772067614","tag":{"amenity":"waste_basket"}},"type":"Feature"},
	{"geometry":{"coordinates":[19.061568,47.620013],"type":"Point"},"properties":{"osm_id":"8811003021","tag":{"amenity":"waste_basket"}},"type":"Feature"},
	{"geometry":{"coordinates":[19.062417,47.620118],"type":"Point"},"properties":{"osm_id":"8811003025","tag":{"amenity":"waste_basket"}},"type":"Feature"},
	{"geometry":{"coordinates":[19.063129,47.620029],"type":"Point"},"properties":{"osm_id":"8811003028","tag":{"amenity":"waste_basket"}},"type":"Feature"},
	{"geometry":{"coordinates":[19.063836,47.619942],"type":"Point"},"properties":{"osm_id":"8811003034","tag":{"amenity":"waste_basket"}},"type":"Feature"},
	{"geometry":{"coordinates":[19.064508,47.61986],"type":"Point"},"properties":{"osm_id":"8811006107","tag":{"amenity":"waste_basket"}},"type":"Feature"},
	{"geometry":{"coordinates":[19.065227,47.619619],"type":"Point"},"properties":{"osm_id":"8811006111","tag":{"amenity":"waste_basket"}},"type":"Feature"},
	{"geometry":{"coordinates":[19.065459,47.61925],"type":"Point"},"properties":{"osm_id":"8811006116","tag":{"amenity":"waste_basket"}},"type":"Feature"},
	{"geometry":{"coordinates":[19.065495,47.618763],"type":"Point"},"properties":{"osm_id":"8811018928","tag":{"amenity":"waste_basket"}},"type":"Feature"},
	{"geometry":{"coordinates":[19.066376,47.579454],"type":"Point"},"properties":{"osm_id":"8824451431","tag":{"amenity":"waste_basket","waste":"trash"}},"type":"Feature"},
	{"geometry":{"coordinates":[19.062987,47.595933],"type":"Point"},"properties":{"osm_id":"8827152654","tag":{"amenity":"waste_basket","waste":"trash"}},"type":"Feature"},
	{"geometry":{"coordinates":[19.062584,47.596215],"type":"Point"},"properties":{"osm_id":"8827152655","tag":{"amenity":"waste_basket","waste":"dog_excrement"}},"type":"Feature"},
	{"geometry":{"coordinates":[19.063055,47.596504],"type":"Point"},"properties":{"osm_id":"8827152657","tag":{"amenity":"waste_basket","waste":"trash"}},"type":"Feature"},
	{"geometry":{"coordinates":[19.062884,47.597638],"type":"Point"},"properties":{"osm_id":"8827152658","tag":{"amenity":"waste_basket","waste":"dog_excrement"}},"type":"Feature"},
	{"geometry":{"coordinates":[19.062453,47.597662],"type":"Point"},"properties":{"osm_id":"8827152659","tag":{"amenity":"waste_basket","waste":"trash"}},"type":"Feature"},
	{"geometry":{"coordinates":[19.062574,47.596137],"type":"Point"},"properties":{"osm_id":"8833562509","tag":{"amenity":"waste_basket"}},"type":"Feature"}
]
}
