{
"type": "FeatureCollection",
"features": [
	{"geometry":{"coordinates":[18.988602,47.52305],"type":"Point"},"properties":{"osm_id":"354718276","tag":{"amenity":"recycling","recycling:glass":"yes","recycling_type":"container"}},"type":"Feature"},
	{"geometry":{"coordinates":[18.9947,47.528467],"type":"Point"},"properties":{"name":"Csal\u00c3\u00a1nkereszt","osm_id":"366133586","tag":{"amenity":"recycling","name:en":"Nettlecross","recycling:glass":"yes","recycling_type":"container"}},"type":"Feature"},
	{"geometry":{"coordinates":[19.044933,47.537036],"type":"Point"},"properties":{"osm_id":"471827908","tag":{"amenity":"recycling","recycling_type":"container"}},"type":"Feature"},
	{"geometry":{"coordinates":[19.040798,47.536928],"type":"Point"},"properties":{"osm_id":"471831366","tag":{"amenity":"recycling","recycling_type":"container"}},"type":"Feature"},
	{"geometry":{"coordinates":[19.038125,47.540882],"type":"Point"},"properties":{"osm_id":"493258334","tag":{"amenity":"recycling","recycling_type":"container"}},"type":"Feature"},
	{"geometry":{"coordinates":[19.065993,47.521271],"type":"Point"},"properties":{"osm_id":"831949413","tag":{"amenity":"recycling","recycling_type":"container"}},"type":"Feature"},
	{"geometry":{"coordinates":[19.058394,47.519221],"type":"Point"},"properties":{"osm_id":"831949419","tag":{"amenity":"recycling","recycling_type":"container"}},"type":"Feature"},
	{"geometry":{"coordinates":[19.062414,47.518723],"type":"Point"},"properties":{"osm_id":"831949425","tag":{"amenity":"recycling","recycling_type":"container"}},"type":"Feature"},
	{"geometry":{"coordinates":[19.053993,47.523076],"type":"Point"},"properties":{"osm_id":"839144970","tag":{"amenity":"recycling","recycling_type":"container"}},"type":"Feature"},
	{"geometry":{"coordinates":[19.05761,47.525338],"type":"Point"},"properties":{"osm_id":"845338882","tag":{"amenity":"recycling","recycling_type":"container"}},"type":"Feature"},
	{"geometry":{"coordinates":[19.026661,47.536],"type":"Point"},"properties":{"osm_id":"846287088","tag":{"amenity":"recycling","recycling_type":"container"}},"type":"Feature"},
	{"geometry":{"coordinates":[19.063385,47.530017],"type":"Point"},"properties":{"osm_id":"1219600053","tag":{"amenity":"recycling","recycling_type":"container"}},"type":"Feature"},
	{"geometry":{"coordinates":[19.060474,47.52951],"type":"Point"},"properties":{"osm_id":"1219600125","tag":{"amenity":"recycling","recycling_type":"container"}},"type":"Feature"},
	{"geometry":{"coordinates":[19.030526,47.543477],"type":"Point"},"properties":{"osm_id":"1370561569","tag":{"amenity":"recycling","recycling:batteries":"no","recycling:books":"no","recycling:cans":"yes","recycling:cartons":"yes","recycling:clothes":"no","recycling:electrical_appliances":"no","recycling:glass":"yes","recycling:glass_bottles":"yes","recycling:magazines":"yes","recycling:newspaper":"yes","recycling:paper":"yes","recycling:paper_packaging":"yes","recycling:plastic":"yes","recycling:plastic_bottles":"yes","recycling:plastic_packaging":"yes","recycling:scrap_metal":"no","recycling:small_appliances":"no","recycling:waste":"no","recycling:wood":"no","recycling_type":"container"}},"type":"Feature"},
	{"geometry":{"coordinates":[19.034071,47.542924],"type":"Point"},"properties":{"osm_id":"1370561571","tag":{"amenity":"recycling","recycling:batteries":"no","recycling:books":"yes","recycling:cans":"yes","recycling:cartons":"yes","recycling:clothes":"no","recycling:electrical_appliances":"no","recycling:glass":"yes","recycling:glass_bottles":"yes","recycling:green_waste":"no","recycling:magazines":"yes","recycling:newspaper":"yes","recycling:paper":"yes","recycling:paper_packaging":"yes","recycling:plastic":"yes","recycling:plastic_bottles":"yes","recycling:plastic_packaging":"yes","recycling:scrap_metal":"no","recycling:small_appliances":"no","recycling:waste":"no","recycling:wood":"no","recycling_type":"container"}},"type":"Feature"},
	{"geometry":{"coordinates":[19.06389,47.534274],"type":"Point"},"properties":{"osm_id":"1395797279","tag":{"amenity":"recycling","recycling_type":"container"}},"type":"Feature"},
	{"geometry":{"coordinates":[19.071297,47.547096],"type":"Point"},"properties":{"osm_id":"1408208787","tag":{"amenity":"recycling","recycling_type":"container"}},"type":"Feature"},
	{"geometry":{"coordinates":[19.061752,47.537343],"type":"Point"},"properties":{"osm_id":"1408782765","tag":{"amenity":"recycling","recycling_type":"container"}},"type":"Feature"},
	{"geometry":{"coordinates":[19.06292,47.53883],"type":"Point"},"properties":{"osm_id":"1408782793","tag":{"amenity":"recycling","recycling_type":"container"}},"type":"Feature"},
	{"geometry":{"coordinates":[19.06695,47.5368],"type":"Point"},"properties":{"osm_id":"1408782831","tag":{"amenity":"recycling","recycling_type":"container"}},"type":"Feature"},
	{"geometry":{"coordinates":[19.061412,47.530767],"type":"Point"},"properties":{"osm_id":"1412779004","tag":{"amenity":"recycling","recycling_type":"container"}},"type":"Feature"},
	{"geometry":{"coordinates":[19.06162,47.53409],"type":"Point"},"properties":{"osm_id":"1417291688","tag":{"amenity":"recycling","recycling_type":"container","wheelchair":"no"}},"type":"Feature"},
	{"geometry":{"coordinates":[19.06024,47.53461],"type":"Point"},"properties":{"osm_id":"1419165858","tag":{"amenity":"recycling","recycling_type":"container"}},"type":"Feature"},
	{"geometry":{"coordinates":[19.060295,47.525683],"type":"Point"},"properties":{"osm_id":"1424864533","tag":{"amenity":"recycling","recycling_type":"container"}},"type":"Feature"},
	{"geometry":{"coordinates":[19.069015,47.528708],"type":"Point"},"properties":{"osm_id":"1425073521","tag":{"amenity":"recycling","recycling_type":"container"}},"type":"Feature"},
	{"geometry":{"coordinates":[19.070675,47.528451],"type":"Point"},"properties":{"osm_id":"1425073543","tag":{"amenity":"recycling","recycling_type":"container"}},"type":"Feature"},
	{"geometry":{"coordinates":[19.003075,47.529509],"type":"Point"},"properties":{"osm_id":"1868343150","tag":{"amenity":"recycling","recycling:cans":"yes","recycling:glass":"yes","recycling:paper":"yes","recycling_type":"container"}},"type":"Feature"},
	{"geometry":{"coordinates":[18.997524,47.517305],"type":"Point"},"properties":{"osm_id":"1981807945","tag":{"amenity":"recycling","recycling:glass":"yes","recycling_type":"container"}},"type":"Feature"},
	{"geometry":{"coordinates":[19.037794,47.544971],"type":"Point"},"properties":{"osm_id":"2070215239","tag":{"amenity":"recycling","recycling_type":"container"}},"type":"Feature"},
	{"geometry":{"coordinates":[18.998591,47.538496],"type":"Point"},"properties":{"osm_id":"2306868446","tag":{"amenity":"waste_basket"}},"type":"Feature"},
	{"geometry":{"coordinates":[18.998331,47.53931],"type":"Point"},"properties":{"osm_id":"2306868474","tag":{"amenity":"waste_basket"}},"type":"Feature"},
	{"geometry":{"coordinates":[18.997598,47.539723],"type":"Point"},"properties":{"osm_id":"2306868515","tag":{"amenity":"waste_basket"}},"type":"Feature"},
	{"geometry":{"coordinates":[18.994583,47.541037],"type":"Point"},"properties":{"osm_id":"2306868606","tag":{"amenity":"waste_basket"}},"type":"Feature"},
	{"geometry":{"coordinates":[19.049084,47.52319],"type":"Point"},"properties":{"osm_id":"2315294812","tag":{"amenity":"waste_basket"}},"type":"Feature"},
	{"geometry":{"coordinates":[19.049226,47.523408],"type":"Point"},"properties":{"osm_id":"2315294820","tag":{"amenity":"waste_basket"}},"type":"Feature"},
	{"geometry":{"coordinates":[19.049341,47.523595],"type":"Point"},"properties":{"osm_id":"2315294825","tag":{"amenity":"waste_basket"}},"type":"Feature"},
	{"geometry":{"coordinates":[19.049663,47.524127],"type":"Point"},"properties":{"osm_id":"2315294831","tag":{"amenity":"waste_basket"}},"type":"Feature"},
	{"geometry":{"coordinates":[19.049825,47.524401],"type":"Point"},"properties":{"osm_id":"2315294837","tag":{"amenity":"waste_basket"}},"type":"Feature"},
	{"geometry":{"coordinates":[19.049987,47.524694],"type":"Point"},"properties":{"osm_id":"2315294844","tag":{"amenity":"waste_basket"}},"type":"Feature"},
	{"geometry":{"coordinates":[19.050144,47.524964],"type":"Point"},"properties":{"osm_id":"2315294852","tag":{"amenity":"waste_basket"}},"type":"Feature"},
	{"geometry":{"coordinates":[19.0503,47.525229],"type":"Point"},"properties":{"osm_id":"2315294859","tag":{"amenity":"waste_basket"}},"type":"Feature"},
	{"geometry":{"coordinates":[19.050505,47.525576],"type":"Point"},"properties":{"osm_id":"2315294868","tag":{"amenity":"waste_basket"}},"type":"Feature"},
	{"geometry":{"coordinates":[19.050455,47.52706],"type":"Point"},"properties":{"osm_id":"2315294918","tag":{"amenity":"waste_basket"}},"type":"Feature"},
	{"geometry":{"coordinates":[19.05061,47.527248],"type":"Point"},"properties":{"osm_id":"2315294922","tag":{"amenity":"waste_basket"}},"type":"Feature"},
	{"geometry":{"coordinates":[19.060149,47.539279],"type":"Point"},"properties":{"osm_id":"2394561214","tag":{"amenity":"recycling","recycling_type":"container"}},"type":"Feature"},
	{"geometry":{"coordinates":[19.02097,47.521447],"type":"Point"},"properties":{"osm_id":"2781971207","tag":{"amenity":"waste_basket"}},"type":"Feature"},
	{"geometry":{"coordinates":[19.053635,47.536828],"type":"Point"},"properties":{"osm_id":"2858135659","tag":{"amenity":"waste_basket","capacity":"3"}},"type":"Feature"},
	{"geometry":{"coordinates":[19.029466,47.526473],"type":"Point"},"properties":{"osm_id":"2923269858","tag":{"amenity":"recycling","recycling:cans":"no","recycling:clothes":"no","recycling:glass":"yes","recycling:glass_bottles:colour":"white;coloured","recycling:paper":"no","recycling_type":"container"}},"type":"Feature"},
	{"geometry":{"coordinates":[19.031038,47.529142],"type":"Point"},"properties":{"osm_id":"2923269859","tag":{"amenity":"recycling","recycling:cans":"yes","recycling:glass":"yes","recycling_type":"container"}},"type":"Feature"},
	{"geometry":{"coordinates":[19.030071,47.52199],"type":"Point"},"properties":{"osm_id":"2923440353","tag":{"amenity":"recycling","recycling_type":"container"}},"type":"Feature"},
	{"geometry":{"coordinates":[18.988036,47.520394],"type":"Point"},"properties":{"osm_id":"3108181176","tag":{"amenity":"waste_basket"}},"type":"Feature"},
	{"geometry":{"coordinates":[18.993947,47.524676],"type":"Point"},"properties":{"osm_id":"3108181457","tag":{"amenity":"waste_basket"}},"type":"Feature"},
	{"geometry":{"coordinates":[19.034235,47.528008],"type":"Point"},"properties":{"osm_id":"3157685623","tag":{"amenity":"waste_basket"}},"type":"Feature"},
	{"geometry":{"coordinates":[19.034127,47.528039],"type":"Point"},"properties":{"osm_id":"3157685627","tag":{"amenity":"waste_basket"}},"type":"Feature"},
	{"geometry":{"coordinates":[19.033317,47.528209],"type":"Point"},"properties":{"osm_id":"3157685639","tag":{"amenity":"waste_basket","wheelchair":"no","wheelchair:description":"%C3%B3"}},"type":"Feature"},
	{"geometry":{"coordinates":[19.034187,47.528214],"type":"Point"},"properties":{"osm_id":"3157685645","tag":{"amenity":"waste_basket"}},"type":"Feature"},
	{"geometry":{"coordinates":[18.987563,47.520375],"type":"Point"},"properties":{"osm_id":"3188672871","tag":{"amenity":"waste_basket"}},"type":"Feature"},
	{"geometry":{"coordinates":[18.987733,47.520413],"type":"Point"},"properties":{"osm_id":"3188672872","tag":{"amenity":"waste_basket"}},"type":"Feature"},
	{"geometry":{"coordinates":[19.010637,47.5288],"type":"Point"},"properties":{"osm_id":"3244274633","tag":{"amenity":"waste_basket"}},"type":"Feature"},
	{"geometry":{"coordinates":[19.006046,47.529368],"type":"Point"},"properties":{"osm_id":"3244274654","tag":{"amenity":"waste_basket"}},"type":"Feature"},
	{"geometry":{"coordinates":[19.009631,47.529978],"type":"Point"},"properties":{"osm_id":"3244275271","tag":{"amenity":"waste_basket"}},"type":"Feature"},
	{"geometry":{"coordinates":[19.009633,47.530079],"type":"Point"},"properties":{"osm_id":"3244275275","tag":{"amenity":"waste_basket"}},"type":"Feature"},
	{"geometry":{"coordinates":[19.008637,47.530146],"type":"Point"},"properties":{"osm_id":"3244275280","tag":{"amenity":"waste_basket"}},"type":"Feature"},
	{"geometry":{"coordinates":[19.00831,47.530202],"type":"Point"},"properties":{"osm_id":"3244275284","tag":{"amenity":"waste_basket","waste":"dog_excrement"}},"type":"Feature"},
	{"geometry":{"coordinates":[19.008615,47.53034],"type":"Point"},"properties":{"osm_id":"3244275287","tag":{"amenity":"waste_basket"}},"type":"Feature"},
	{"geometry":{"coordinates":[19.008361,47.530399],"type":"Point"},"properties":{"osm_id":"3244275290","tag":{"amenity":"waste_basket"}},"type":"Feature"},
	{"geometry":{"coordinates":[19.028753,47.547587],"type":"Point"},"properties":{"osm_id":"3244275349","tag":{"amenity":"waste_basket"}},"type":"Feature"},
	{"geometry":{"coordinates":[19.051289,47.566888],"type":"Point"},"properties":{"osm_id":"3258861153","tag":{"amenity":"recycling","operator":"FKF","recycling:cans":"yes","recycling:glass":"yes","recycling:paper":"yes","recycling_type":"container"}},"type":"Feature"},
	{"geometry":{"coordinates":[19.0315,47.526651],"type":"Point"},"properties":{"osm_id":"3291358938","tag":{"amenity":"waste_basket"}},"type":"Feature"},
	{"geometry":{"coordinates":[19.031946,47.52679],"type":"Point"},"properties":{"osm_id":"3291358947","tag":{"amenity":"waste_basket"}},"type":"Feature"},
	{"geometry":{"coordinates":[19.016645,47.52838],"type":"Point"},"properties":{"osm_id":"3292486617","tag":{"amenity":"waste_basket"}},"type":"Feature"},
	{"geometry":{"coordinates":[19.020805,47.528588],"type":"Point"},"properties":{"osm_id":"3292486621","tag":{"amenity":"waste_basket"}},"type":"Feature"},
	{"geometry":{"coordinates":[19.0211,47.528586],"type":"Point"},"properties":{"osm_id":"3292486623","tag":{"amenity":"waste_basket"}},"type":"Feature"},
	{"geometry":{"coordinates":[19.02174,47.528653],"type":"Point"},"properties":{"osm_id":"3292486624","tag":{"amenity":"waste_basket"}},"type":"Feature"},
	{"geometry":{"coordinates":[19.024408,47.528834],"type":"Point"},"properties":{"osm_id":"3292486627","tag":{"amenity":"waste_basket"}},"type":"Feature"},
	{"geometry":{"coordinates":[19.032259,47.529756],"type":"Point"},"properties":{"osm_id":"3292489217","tag":{"amenity":"waste_basket"}},"type":"Feature"},
	{"geometry":{"coordinates":[19.021588,47.528555],"type":"Point"},"properties":{"osm_id":"3292489486","tag":{"amenity":"waste_basket"}},"type":"Feature"},
	{"geometry":{"coordinates":[18.99666,47.52995],"type":"Point"},"properties":{"osm_id":"3301494459","tag":{"amenity":"waste_basket"}},"type":"Feature"},
	{"geometry":{"coordinates":[18.987293,47.531096],"type":"Point"},"properties":{"osm_id":"3301501362","tag":{"amenity":"waste_basket"}},"type":"Feature"},
	{"geometry":{"coordinates":[18.986922,47.532619],"type":"Point"},"properties":{"osm_id":"3301501364","tag":{"amenity":"waste_basket"}},"type":"Feature"},
	{"geometry":{"coordinates":[18.988184,47.533544],"type":"Point"},"properties":{"osm_id":"3301501365","tag":{"amenity":"waste_basket"}},"type":"Feature"},
	{"geometry":{"coordinates":[18.989204,47.534082],"type":"Point"},"properties":{"osm_id":"3301501369","tag":{"amenity":"waste_basket"}},"type":"Feature"},
	{"geometry":{"coordinates":[18.999608,47.535226],"type":"Point"},"properties":{"osm_id":"3301501372","tag":{"amenity":"waste_basket"}},"type":"Feature"},
	{"geometry":{"coordinates":[18.99998,47.535311],"type":"Point"},"properties":{"osm_id":"3301501377","tag":{"amenity":"waste_basket"}},"type":"Feature"},
	{"geometry":{"coordinates":[19.006493,47.540358],"type":"Point"},"properties":{"osm_id":"3301501398","tag":{"amenity":"waste_basket"}},"type":"Feature"},
	{"geometry":{"coordinates":[19.031235,47.535311],"type":"Point"},"properties":{"osm_id":"3302315011","tag":{"amenity":"waste_basket"}},"type":"Feature"},
	{"geometry":{"coordinates":[19.030872,47.536032],"type":"Point"},"properties":{"osm_id":"3302315013","tag":{"amenity":"waste_basket"}},"type":"Feature"},
	{"geometry":{"coordinates":[19.031138,47.535023],"type":"Point"},"properties":{"osm_id":"3302315014","tag":{"amenity":"waste_basket"}},"type":"Feature"},
	{"geometry":{"coordinates":[19.028708,47.537777],"type":"Point"},"properties":{"osm_id":"3302315017","tag":{"addr:city":"Budapest","addr:housenumber":"108","addr:postcode":"1037","addr:street":"Kiscelli utca","amenity":"waste_basket"}},"type":"Feature"},
	{"geometry":{"coordinates":[19.030427,47.536046],"type":"Point"},"properties":{"osm_id":"3302315018","tag":{"amenity":"waste_basket"}},"type":"Feature"},
	{"geometry":{"coordinates":[19.031021,47.538416],"type":"Point"},"properties":{"osm_id":"3302315020","tag":{"amenity":"waste_basket"}},"type":"Feature"},
	{"geometry":{"coordinates":[19.030811,47.535063],"type":"Point"},"properties":{"osm_id":"3302315022","tag":{"amenity":"waste_basket"}},"type":"Feature"},
	{"geometry":{"coordinates":[19.03119,47.535556],"type":"Point"},"properties":{"osm_id":"3302315024","tag":{"amenity":"waste_basket"}},"type":"Feature"},
	{"geometry":{"coordinates":[19.028636,47.536919],"type":"Point"},"properties":{"osm_id":"3302315025","tag":{"amenity":"waste_basket"}},"type":"Feature"},
	{"geometry":{"coordinates":[19.030655,47.54265],"type":"Point"},"properties":{"osm_id":"3302315027","tag":{"amenity":"waste_basket"}},"type":"Feature"},
	{"geometry":{"coordinates":[19.029073,47.536961],"type":"Point"},"properties":{"osm_id":"3302315028","tag":{"amenity":"waste_basket"}},"type":"Feature"},
	{"geometry":{"coordinates":[19.030908,47.536146],"type":"Point"},"properties":{"osm_id":"3302315031","tag":{"amenity":"waste_basket"}},"type":"Feature"},
	{"geometry":{"coordinates":[19.030994,47.535888],"type":"Point"},"properties":{"osm_id":"3302315034","tag":{"amenity":"waste_basket"}},"type":"Feature"},
	{"geometry":{"coordinates":[19.030373,47.543181],"type":"Point"},"properties":{"osm_id":"3302315036","tag":{"amenity":"waste_basket"}},"type":"Feature"},
	{"geometry":{"coordinates":[19.028934,47.536913],"type":"Point"},"properties":{"osm_id":"3302315037","tag":{"amenity":"waste_basket"}},"type":"Feature"},
	{"geometry":{"coordinates":[19.031292,47.535199],"type":"Point"},"properties":{"osm_id":"3302315038","tag":{"amenity":"waste_basket"}},"type":"Feature"},
	{"geometry":{"coordinates":[19.031284,47.540119],"type":"Point"},"properties":{"osm_id":"3302315043","tag":{"amenity":"waste_basket"}},"type":"Feature"},
	{"geometry":{"coordinates":[19.02857,47.537336],"type":"Point"},"properties":{"osm_id":"3302315047","tag":{"amenity":"waste_basket"}},"type":"Feature"},
	{"geometry":{"coordinates":[19.002504,47.539206],"type":"Point"},"properties":{"osm_id":"3316435183","tag":{"amenity":"waste_basket"}},"type":"Feature"},
	{"geometry":{"coordinates":[19.03496,47.533152],"type":"Point"},"properties":{"osm_id":"3465236099","tag":{"amenity":"recycling","recycling_type":"container","source:date":"2013-03-04","url":"http://turistautak.hu/poi.php?id=128772"}},"type":"Feature"},
	{"geometry":{"coordinates":[19.0066,47.54045],"type":"Point"},"properties":{"osm_id":"3465236106","tag":{"amenity":"recycling","recycling_type":"container","source:date":"2014-02-04","url":"http://turistautak.hu/poi.php?id=78285"}},"type":"Feature"},
	{"geometry":{"coordinates":[19.041817,47.543367],"type":"Point"},"properties":{"osm_id":"3465236109","tag":{"addr:street":"Szentendrei \u00c3\u00bat","amenity":"recycling","recycling_type":"container","source:date":"2011-04-18","url":"http://turistautak.hu/poi.php?id=109757"}},"type":"Feature"},
	{"geometry":{"coordinates":[19.034762,47.544536],"type":"Point"},"properties":{"osm_id":"3465236112","tag":{"amenity":"recycling","recycling_type":"container","source:date":"2011-06-29","url":"http://turistautak.hu/poi.php?id=98644"}},"type":"Feature"},
	{"geometry":{"coordinates":[19.03948,47.54608],"type":"Point"},"properties":{"osm_id":"3465236115","tag":{"addr:city":"Budapest","addr:housenumber":"17","addr:postcode":"1035","addr:street":"Sz\u00c3\u00a9l utca","amenity":"recycling","description":"A szelekt\u00c3\u00adv hullad\u00c3\u00a9kgy\u00c5\u00b1jt\u00c5\u0091 sziget a Rakt\u00c3\u00a1r utca Sz\u00c3\u00a9l utca keresztez\u00c5\u0091d\u00c3\u00a9s\u00c3\u00a9ben ker\u00c3\u00bclt kialak\u00c3\u00adt\u00c3\u00a1sra (elt\u00c3\u00a9r\u00c5\u0091en a t\u00c3\u00a1j\u00c3\u00a9koztat\u00c3\u00b3kban szerepl\u00c5\u0091 Ker\u00c3\u00a9k utca Rakt\u00c3\u00a1r utca sarokt\u00c3\u00b3l)","recycling_type":"container","source:date":"2012-08-16","url":"http://turistautak.hu/poi.php?id=2302"}},"type":"Feature"},
	{"geometry":{"coordinates":[19.039874,47.546595],"type":"Point"},"properties":{"osm_id":"3465236116","tag":{"amenity":"waste_basket","source:date":"2013-02-11","url":"http://turistautak.hu/poi.php?id=69752"}},"type":"Feature"},
	{"geometry":{"coordinates":[19.029412,47.546872],"type":"Point"},"properties":{"osm_id":"3465236117","tag":{"amenity":"recycling","operator":"Egyel\u00c5\u0091re nincsen sajnos - egy sincsen a sok rekesz hely\u00c3\u00a9n jeleneg. T\u00c3\u00b6r\u00c3\u00b6lj\u00c3\u00bck?","recycling_type":"container","source:date":"2014-02-04","url":"http://turistautak.hu/poi.php?id=2303"}},"type":"Feature"},
	{"geometry":{"coordinates":[19.04572,47.54947],"type":"Point"},"properties":{"osm_id":"3465236118","tag":{"addr:city":"Budapest","addr:postcode":"1033","addr:street":"Folyam\u00c5\u0091r utca","amenity":"recycling","recycling_type":"container","source:date":"2014-02-04","url":"http://turistautak.hu/poi.php?id=2306"}},"type":"Feature"},
	{"geometry":{"coordinates":[19.036113,47.549656],"type":"Point"},"properties":{"osm_id":"3465236119","tag":{"amenity":"recycling","description":"szelekt\u00c3\u00adv hullad\u00c3\u00a9kgy\u00c5\u00b1jt\u00c5\u0091","recycling_type":"container","source:date":"2014-02-04","url":"http://turistautak.hu/poi.php?id=163458"}},"type":"Feature"},
	{"geometry":{"coordinates":[19.03478,47.55119],"type":"Point"},"properties":{"osm_id":"3465236123","tag":{"amenity":"recycling","recycling_type":"container","source:date":"2014-02-04","url":"http://turistautak.hu/poi.php?id=163457"}},"type":"Feature"},
	{"geometry":{"coordinates":[19.040344,47.55301],"type":"Point"},"properties":{"osm_id":"3465236129","tag":{"amenity":"recycling","recycling_type":"container","source:date":"2011-06-29","url":"http://turistautak.hu/poi.php?id=94411"}},"type":"Feature"},
	{"geometry":{"coordinates":[19.02927,47.55512],"type":"Point"},"properties":{"osm_id":"3465236132","tag":{"addr:city":"Budapest","addr:housenumber":"22","addr:postcode":"1037","addr:street":"Gy\u00c3\u00b3gyszergy\u00c3\u00a1r utca","amenity":"recycling","description":"A szelekt\u00c3\u00adv hullad\u00c3\u00a9kgy\u00c5\u00b1jt\u00c5\u0091 sziget a fenti c\u00c3\u00admen tal\u00c3\u00a1lhat\u00c3\u00b3 iskola el\u00c5\u0091tt van, gyakorlatilag a Gy\u00c3\u00b3gyszergy\u00c3\u00a1r utca \u00c3\u00a9s a Sereg utca sark\u00c3\u00a1n","recycling_type":"container","source:date":"2011-06-29","url":"http://turistautak.hu/poi.php?id=2351"}},"type":"Feature"},
	{"geometry":{"coordinates":[19.043696,47.558042],"type":"Point"},"properties":{"osm_id":"3465236139","tag":{"addr:city":"Budapest","addr:housenumber":"2","addr:postcode":"1033","addr:street":"Pethe Ferenc t\u00c3\u00a9r","amenity":"recycling","description":"A szelekt\u00c3\u00adv hullad\u00c3\u00a9kgy\u00c5\u00b1jt\u00c5\u0091 sziget a Budapest III. ker. Pethe Ferenc t\u00c3\u00a9r - Sz\u00c3\u00a9r\u00c5\u00b1skert utca tal\u00c3\u00a1lkoz\u00c3\u00a1s\u00c3\u00a1n\u00c3\u00a1l (Kasz\u00c3\u00a1sd\u00c5\u00b1l\u00c5\u0091) lett kialak\u00c3\u00adtva","recycling_type":"container","source:date":"2013-02-11","url":"http://turistautak.hu/poi.php?id=2328"}},"type":"Feature"},
	{"geometry":{"coordinates":[19.04996,47.55841],"type":"Point"},"properties":{"osm_id":"3465236141","tag":{"amenity":"recycling","recycling_type":"container","source:date":"2014-02-04","url":"http://turistautak.hu/poi.php?id=147682"}},"type":"Feature"},
	{"geometry":{"coordinates":[19.045817,47.559],"type":"Point"},"properties":{"osm_id":"3465236142","tag":{"addr:street":"B\u00c3\u00baza utca","amenity":"recycling","recycling_type":"container","source:date":"2011-04-18","url":"http://turistautak.hu/poi.php?id=109758"}},"type":"Feature"},
	{"geometry":{"coordinates":[19.00655,47.559579],"type":"Point"},"properties":{"osm_id":"3465236143","tag":{"amenity":"recycling","recycling_type":"container","source:date":"2012-08-16","url":"http://turistautak.hu/poi.php?id=138638"}},"type":"Feature"},
	{"geometry":{"coordinates":[19.043283,47.561933],"type":"Point"},"properties":{"osm_id":"3465236146","tag":{"addr:city":"Budapest","addr:postcode":"1033","addr:street":"Huszti \u00c3\u00bat - B\u00c3\u00baza utca - Kazal utca keresztez\u00c5\u0091d\u00c3\u00a9s","amenity":"recycling","description":"Szelekt\u00c3\u00adv gy\u00c3\u00bcjt\u00c5\u0091 a III. ker\u00c3\u00bcletben a Huszti \u00c3\u00bat, B\u00c3\u00baza utca, Kazal utca keresztez\u00c5\u0091d\u00c3\u00a9s\u00c3\u00a9ben az \u00c3\u00bat sz\u00c3\u00a9l\u00c3\u00a9n.","recycling_type":"container","source:date":"2014-02-04","url":"http://turistautak.hu/poi.php?id=5358"}},"type":"Feature"},
	{"geometry":{"coordinates":[19.01389,47.57212],"type":"Point"},"properties":{"osm_id":"3465236160","tag":{"amenity":"recycling","recycling_type":"container","source:date":"2014-02-04","url":"http://turistautak.hu/poi.php?id=145733"}},"type":"Feature"},
	{"geometry":{"coordinates":[19.01513,47.57397],"type":"Point"},"properties":{"osm_id":"3465236164","tag":{"addr:city":"Budapest","addr:housenumber":"395","addr:postcode":"1037","addr:street":"B\u00c3\u00a9csi \u00c3\u00bat","amenity":"recycling","recycling_type":"container","source:date":"2014-02-04","url":"http://turistautak.hu/poi.php?id=31752"}},"type":"Feature"},
	{"geometry":{"coordinates":[19.017359,47.52703],"type":"Point"},"properties":{"osm_id":"3501173935","tag":{"amenity":"waste_basket"}},"type":"Feature"},
	{"geometry":{"coordinates":[19.005578,47.540504],"type":"Point"},"properties":{"osm_id":"3561885299","tag":{"amenity":"recycling","recycling_type":"container"}},"type":"Feature"},
	{"geometry":{"coordinates":[19.045337,47.540714],"type":"Point"},"properties":{"osm_id":"3594269453","tag":{"amenity":"waste_basket"}},"type":"Feature"},
	{"geometry":{"coordinates":[19.045544,47.540547],"type":"Point"},"properties":{"osm_id":"3594269455","tag":{"amenity":"waste_basket"}},"type":"Feature"},
	{"geometry":{"coordinates":[19.049421,47.52543],"type":"Point"},"properties":{"osm_id":"3656890319","tag":{"amenity":"waste_basket"}},"type":"Feature"},
	{"geometry":{"coordinates":[19.045786,47.540542],"type":"Point"},"properties":{"osm_id":"3757665099","tag":{"amenity":"waste_basket"}},"type":"Feature"},
	{"geometry":{"coordinates":[19.045808,47.540521],"type":"Point"},"properties":{"osm_id":"3757665100","tag":{"amenity":"waste_basket"}},"type":"Feature"},
	{"geometry":{"coordinates":[19.045535,47.540225],"type":"Point"},"properties":{"osm_id":"3757665101","tag":{"amenity":"waste_basket"}},"type":"Feature"},
	{"geometry":{"coordinates":[19.044786,47.54128],"type":"Point"},"properties":{"osm_id":"3757665105","tag":{"amenity":"waste_basket"}},"type":"Feature"},
	{"geometry":{"coordinates":[19.045217,47.541264],"type":"Point"},"properties":{"osm_id":"3757665109","tag":{"amenity":"waste_basket"}},"type":"Feature"},
	{"geometry":{"coordinates":[18.985279,47.546326],"type":"Point"},"properties":{"osm_id":"3801147815","tag":{"amenity":"waste_basket"}},"type":"Feature"},
	{"geometry":{"coordinates":[18.99173,47.543192],"type":"Point"},"properties":{"osm_id":"3801147818","tag":{"amenity":"waste_basket"}},"type":"Feature"},
	{"geometry":{"coordinates":[19.047819,47.566276],"type":"Point"},"properties":{"osm_id":"3848599681","tag":{"amenity":"waste_basket"}},"type":"Feature"},
	{"geometry":{"coordinates":[19.047975,47.566258],"type":"Point"},"properties":{"osm_id":"3848599683","tag":{"amenity":"waste_basket"}},"type":"Feature"},
	{"geometry":{"coordinates":[19.048475,47.566201],"type":"Point"},"properties":{"osm_id":"3848599687","tag":{"amenity":"waste_basket","covered":"yes"}},"type":"Feature"},
	{"geometry":{"coordinates":[19.047797,47.566179],"type":"Point"},"properties":{"osm_id":"3848599689","tag":{"amenity":"waste_basket"}},"type":"Feature"},
	{"geometry":{"coordinates":[19.047954,47.566161],"type":"Point"},"properties":{"osm_id":"3848599692","tag":{"amenity":"waste_basket"}},"type":"Feature"},
	{"geometry":{"coordinates":[19.048451,47.566104],"type":"Point"},"properties":{"osm_id":"3848599695","tag":{"amenity":"waste_basket","covered":"yes"}},"type":"Feature"},
	{"geometry":{"coordinates":[19.047077,47.53975],"type":"Point"},"properties":{"osm_id":"3879834251","tag":{"amenity":"waste_basket"}},"type":"Feature"},
	{"geometry":{"coordinates":[19.044792,47.540904],"type":"Point"},"properties":{"osm_id":"3932868316","tag":{"amenity":"waste_basket"}},"type":"Feature"},
	{"geometry":{"coordinates":[19.044596,47.540159],"type":"Point"},"properties":{"osm_id":"3932868318","tag":{"amenity":"waste_basket"}},"type":"Feature"},
	{"geometry":{"coordinates":[19.049868,47.560643],"type":"Point"},"properties":{"osm_id":"3963692053","tag":{"amenity":"waste_basket"}},"type":"Feature"},
	{"geometry":{"coordinates":[19.045497,47.54157],"type":"Point"},"properties":{"osm_id":"3963970523","tag":{"amenity":"waste_basket"}},"type":"Feature"},
	{"geometry":{"coordinates":[19.045441,47.541278],"type":"Point"},"properties":{"osm_id":"3963970528","tag":{"amenity":"waste_basket"}},"type":"Feature"},
	{"geometry":{"coordinates":[19.044275,47.5337],"type":"Point"},"properties":{"osm_id":"3963970531","tag":{"amenity":"waste_basket"}},"type":"Feature"},
	{"geometry":{"coordinates":[19.041263,47.533263],"type":"Point"},"properties":{"osm_id":"3963970532","tag":{"amenity":"waste_basket","wheelchair":"limited"}},"type":"Feature"},
	{"geometry":{"coordinates":[19.045511,47.540821],"type":"Point"},"properties":{"osm_id":"3963970536","tag":{"amenity":"waste_basket"}},"type":"Feature"},
	{"geometry":{"coordinates":[19.037321,47.523706],"type":"Point"},"properties":{"osm_id":"3983546155","tag":{"amenity":"waste_basket"}},"type":"Feature"},
	{"geometry":{"coordinates":[19.037131,47.52374],"type":"Point"},"properties":{"osm_id":"3983548257","tag":{"amenity":"waste_basket"}},"type":"Feature"},
	{"geometry":{"coordinates":[19.037114,47.523856],"type":"Point"},"properties":{"osm_id":"3983548261","tag":{"amenity":"waste_basket"}},"type":"Feature"},
	{"geometry":{"coordinates":[19.036989,47.524095],"type":"Point"},"properties":{"osm_id":"3983548279","tag":{"amenity":"waste_basket","toilets:wheelchair":"yes","wheelchair":"yes"}},"type":"Feature"},
	{"geometry":{"coordinates":[19.037033,47.524118],"type":"Point"},"properties":{"osm_id":"3983548282","tag":{"amenity":"waste_basket"}},"type":"Feature"},
	{"geometry":{"coordinates":[19.037412,47.52435],"type":"Point"},"properties":{"osm_id":"3983548297","tag":{"amenity":"waste_basket"}},"type":"Feature"},
	{"geometry":{"coordinates":[19.048531,47.567933],"type":"Point"},"properties":{"osm_id":"3997527899","tag":{"amenity":"waste_basket"}},"type":"Feature"},
	{"geometry":{"coordinates":[19.033255,47.569043],"type":"Point"},"properties":{"osm_id":"4014455520","tag":{"amenity":"waste_basket"}},"type":"Feature"},
	{"geometry":{"coordinates":[19.033413,47.568994],"type":"Point"},"properties":{"osm_id":"4014455522","tag":{"amenity":"waste_basket"}},"type":"Feature"},
	{"geometry":{"coordinates":[19.033703,47.568905],"type":"Point"},"properties":{"osm_id":"4014455525","tag":{"amenity":"waste_basket"}},"type":"Feature"},
	{"geometry":{"coordinates":[19.033901,47.568844],"type":"Point"},"properties":{"osm_id":"4014455527","tag":{"amenity":"waste_basket"}},"type":"Feature"},
	{"geometry":{"coordinates":[19.010609,47.529474],"type":"Point"},"properties":{"osm_id":"4027418076","tag":{"amenity":"waste_basket"}},"type":"Feature"},
	{"geometry":{"coordinates":[19.016981,47.52939],"type":"Point"},"properties":{"osm_id":"4027418077","tag":{"amenity":"waste_basket"}},"type":"Feature"},
	{"geometry":{"coordinates":[19.01144,47.529393],"type":"Point"},"properties":{"osm_id":"4027426065","tag":{"amenity":"waste_basket"}},"type":"Feature"},
	{"geometry":{"coordinates":[19.015922,47.529368],"type":"Point"},"properties":{"osm_id":"4027429199","tag":{"amenity":"waste_basket"}},"type":"Feature"},
	{"geometry":{"coordinates":[19.014552,47.527045],"type":"Point"},"properties":{"osm_id":"4027740792","tag":{"amenity":"waste_basket"}},"type":"Feature"},
	{"geometry":{"coordinates":[19.010343,47.526847],"type":"Point"},"properties":{"osm_id":"4027740989","tag":{"amenity":"waste_basket"}},"type":"Feature"},
	{"geometry":{"coordinates":[19.016143,47.526984],"type":"Point"},"properties":{"osm_id":"4027741189","tag":{"amenity":"waste_basket"}},"type":"Feature"},
	{"geometry":{"coordinates":[19.045571,47.557449],"type":"Point"},"properties":{"osm_id":"4048651408","tag":{"amenity":"waste_basket"}},"type":"Feature"},
	{"geometry":{"coordinates":[19.03377,47.541509],"type":"Point"},"properties":{"osm_id":"4058214694","tag":{"amenity":"waste_basket"}},"type":"Feature"},
	{"geometry":{"coordinates":[19.038273,47.532423],"type":"Point"},"properties":{"osm_id":"4069171830","tag":{"amenity":"waste_basket"}},"type":"Feature"},
	{"geometry":{"coordinates":[19.038586,47.532302],"type":"Point"},"properties":{"osm_id":"4069171831","tag":{"amenity":"waste_basket"}},"type":"Feature"},
	{"geometry":{"coordinates":[19.036853,47.532166],"type":"Point"},"properties":{"osm_id":"4069171836","tag":{"amenity":"waste_basket"}},"type":"Feature"},
	{"geometry":{"coordinates":[19.037775,47.530309],"type":"Point"},"properties":{"osm_id":"4069171847","tag":{"amenity":"waste_basket"}},"type":"Feature"},
	{"geometry":{"coordinates":[19.037879,47.529694],"type":"Point"},"properties":{"osm_id":"4069171849","tag":{"amenity":"waste_basket"}},"type":"Feature"},
	{"geometry":{"coordinates":[19.037877,47.529486],"type":"Point"},"properties":{"osm_id":"4069171850","tag":{"amenity":"waste_basket"}},"type":"Feature"},
	{"geometry":{"coordinates":[19.037812,47.529218],"type":"Point"},"properties":{"osm_id":"4069171851","tag":{"amenity":"waste_basket"}},"type":"Feature"},
	{"geometry":{"coordinates":[19.037735,47.528893],"type":"Point"},"properties":{"osm_id":"4069171853","tag":{"amenity":"waste_basket"}},"type":"Feature"},
	{"geometry":{"coordinates":[19.037515,47.527855],"type":"Point"},"properties":{"osm_id":"4069171858","tag":{"amenity":"waste_basket"}},"type":"Feature"},
	{"geometry":{"coordinates":[19.037533,47.527953],"type":"Point"},"properties":{"osm_id":"4069171859","tag":{"amenity":"waste_basket"}},"type":"Feature"},
	{"geometry":{"coordinates":[19.038063,47.529306],"type":"Point"},"properties":{"osm_id":"4069171863","tag":{"amenity":"waste_basket"}},"type":"Feature"},
	{"geometry":{"coordinates":[19.038059,47.529986],"type":"Point"},"properties":{"osm_id":"4069171871","tag":{"amenity":"waste_basket"}},"type":"Feature"},
	{"geometry":{"coordinates":[19.038104,47.531033],"type":"Point"},"properties":{"osm_id":"4069171878","tag":{"amenity":"waste_basket"}},"type":"Feature"},
	{"geometry":{"coordinates":[19.038205,47.533168],"type":"Point"},"properties":{"osm_id":"4069174720","tag":{"amenity":"waste_basket"}},"type":"Feature"},
	{"geometry":{"coordinates":[19.037962,47.534526],"type":"Point"},"properties":{"osm_id":"4069174721","tag":{"amenity":"waste_basket"}},"type":"Feature"},
	{"geometry":{"coordinates":[19.038161,47.534646],"type":"Point"},"properties":{"osm_id":"4069174723","tag":{"amenity":"waste_basket"}},"type":"Feature"},
	{"geometry":{"coordinates":[19.035963,47.53746],"type":"Point"},"properties":{"osm_id":"4069174730","tag":{"amenity":"waste_basket"}},"type":"Feature"},
	{"geometry":{"coordinates":[19.034395,47.538923],"type":"Point"},"properties":{"osm_id":"4069174735","tag":{"amenity":"waste_basket"}},"type":"Feature"},
	{"geometry":{"coordinates":[19.036563,47.532447],"type":"Point"},"properties":{"osm_id":"4069174748","tag":{"amenity":"waste_basket"}},"type":"Feature"},
	{"geometry":{"coordinates":[19.047235,47.539638],"type":"Point"},"properties":{"osm_id":"4069174753","tag":{"amenity":"waste_basket"}},"type":"Feature"},
	{"geometry":{"coordinates":[19.047247,47.539345],"type":"Point"},"properties":{"osm_id":"4069174756","tag":{"amenity":"waste_basket"}},"type":"Feature"},
	{"geometry":{"coordinates":[19.046432,47.55187],"type":"Point"},"properties":{"osm_id":"4069174761","tag":{"amenity":"waste_basket"}},"type":"Feature"},
	{"geometry":{"coordinates":[19.038328,47.527671],"type":"Point"},"properties":{"osm_id":"4069767084","tag":{"amenity":"waste_basket"}},"type":"Feature"},
	{"geometry":{"coordinates":[19.038202,47.527673],"type":"Point"},"properties":{"osm_id":"4069767085","tag":{"amenity":"waste_basket"}},"type":"Feature"},
	{"geometry":{"coordinates":[19.038365,47.528039],"type":"Point"},"properties":{"osm_id":"4069770232","tag":{"amenity":"waste_basket"}},"type":"Feature"},
	{"geometry":{"coordinates":[19.048693,47.567944],"type":"Point"},"properties":{"osm_id":"4084980986","tag":{"amenity":"waste_basket"}},"type":"Feature"},
	{"geometry":{"coordinates":[19.048581,47.567802],"type":"Point"},"properties":{"osm_id":"4084988897","tag":{"amenity":"waste_basket"}},"type":"Feature"},
	{"geometry":{"coordinates":[19.048702,47.567375],"type":"Point"},"properties":{"osm_id":"4084988901","tag":{"amenity":"waste_basket"}},"type":"Feature"},
	{"geometry":{"coordinates":[19.048729,47.567223],"type":"Point"},"properties":{"osm_id":"4084988904","tag":{"amenity":"waste_basket"}},"type":"Feature"},
	{"geometry":{"coordinates":[19.048715,47.567914],"type":"Point"},"properties":{"osm_id":"4084988915","tag":{"amenity":"waste_basket"}},"type":"Feature"},
	{"geometry":{"coordinates":[19.048705,47.567906],"type":"Point"},"properties":{"osm_id":"4084988916","tag":{"amenity":"waste_basket"}},"type":"Feature"},
	{"geometry":{"coordinates":[19.048781,47.567666],"type":"Point"},"properties":{"osm_id":"4084988918","tag":{"amenity":"waste_basket"}},"type":"Feature"},
	{"geometry":{"coordinates":[19.04883,47.567492],"type":"Point"},"properties":{"osm_id":"4084988920","tag":{"amenity":"waste_basket"}},"type":"Feature"},
	{"geometry":{"coordinates":[19.048885,47.567249],"type":"Point"},"properties":{"osm_id":"4084988923","tag":{"amenity":"waste_basket"}},"type":"Feature"},
	{"geometry":{"coordinates":[19.048929,47.566907],"type":"Point"},"properties":{"osm_id":"4084988926","tag":{"amenity":"waste_basket"}},"type":"Feature"},
	{"geometry":{"coordinates":[19.048888,47.567558],"type":"Point"},"properties":{"osm_id":"4084988932","tag":{"amenity":"waste_basket"}},"type":"Feature"},
	{"geometry":{"coordinates":[19.048775,47.567778],"type":"Point"},"properties":{"osm_id":"4084988935","tag":{"amenity":"waste_basket"}},"type":"Feature"},
	{"geometry":{"coordinates":[19.047255,47.539131],"type":"Point"},"properties":{"osm_id":"4087050703","tag":{"amenity":"waste_basket"}},"type":"Feature"},
	{"geometry":{"coordinates":[19.04726,47.538976],"type":"Point"},"properties":{"osm_id":"4087050705","tag":{"amenity":"waste_basket"}},"type":"Feature"},
	{"geometry":{"coordinates":[19.042201,47.531944],"type":"Point"},"properties":{"osm_id":"4100337243","tag":{"amenity":"waste_basket"}},"type":"Feature"},
	{"geometry":{"coordinates":[19.047065,47.540006],"type":"Point"},"properties":{"osm_id":"4125801531","tag":{"amenity":"waste_basket"}},"type":"Feature"},
	{"geometry":{"coordinates":[19.043296,47.533487],"type":"Point"},"properties":{"osm_id":"4125801534","tag":{"amenity":"waste_basket"}},"type":"Feature"},
	{"geometry":{"coordinates":[19.040067,47.526832],"type":"Point"},"properties":{"osm_id":"4149773734","tag":{"amenity":"waste_basket"}},"type":"Feature"},
	{"geometry":{"coordinates":[19.050582,47.525737],"type":"Point"},"properties":{"osm_id":"4200737800","tag":{"amenity":"waste_basket"}},"type":"Feature"},
	{"geometry":{"coordinates":[19.050837,47.526246],"type":"Point"},"properties":{"osm_id":"4200737803","tag":{"amenity":"waste_basket"}},"type":"Feature"},
	{"geometry":{"coordinates":[19.046605,47.53833],"type":"Point"},"properties":{"osm_id":"4239454316","tag":{"amenity":"waste_basket"}},"type":"Feature"},
	{"geometry":{"coordinates":[19.045799,47.538256],"type":"Point"},"properties":{"osm_id":"4239454327","tag":{"amenity":"waste_basket"}},"type":"Feature"},
	{"geometry":{"coordinates":[19.040156,47.527111],"type":"Point"},"properties":{"osm_id":"4246712344","tag":{"amenity":"waste_basket"}},"type":"Feature"},
	{"geometry":{"coordinates":[19.040156,47.527081],"type":"Point"},"properties":{"osm_id":"4246712345","tag":{"amenity":"waste_basket"}},"type":"Feature"},
	{"geometry":{"coordinates":[19.038198,47.528181],"type":"Point"},"properties":{"osm_id":"4247345855","tag":{"amenity":"waste_basket"}},"type":"Feature"},
	{"geometry":{"coordinates":[19.049468,47.565864],"type":"Point"},"properties":{"osm_id":"4256221020","tag":{"amenity":"waste_basket"}},"type":"Feature"},
	{"geometry":{"coordinates":[19.049521,47.566715],"type":"Point"},"properties":{"osm_id":"4256221022","tag":{"amenity":"waste_basket"}},"type":"Feature"},
	{"geometry":{"coordinates":[19.054617,47.560756],"type":"Point"},"properties":{"osm_id":"4256221045","tag":{"amenity":"waste_basket"}},"type":"Feature"},
	{"geometry":{"coordinates":[19.054841,47.560493],"type":"Point"},"properties":{"osm_id":"4256221081","tag":{"amenity":"waste_basket"}},"type":"Feature"},
	{"geometry":{"coordinates":[19.05252,47.553065],"type":"Point"},"properties":{"osm_id":"4298020561","tag":{"amenity":"waste_basket","wheelchair":"limited"}},"type":"Feature"},
	{"geometry":{"coordinates":[19.053465,47.554326],"type":"Point"},"properties":{"osm_id":"4298020562","tag":{"amenity":"waste_basket"}},"type":"Feature"},
	{"geometry":{"coordinates":[19.05627,47.553816],"type":"Point"},"properties":{"osm_id":"4298020563","tag":{"amenity":"waste_basket"}},"type":"Feature"},
	{"geometry":{"coordinates":[19.056433,47.554491],"type":"Point"},"properties":{"osm_id":"4298020564","tag":{"amenity":"waste_basket"}},"type":"Feature"},
	{"geometry":{"coordinates":[19.056459,47.555289],"type":"Point"},"properties":{"osm_id":"4298020565","tag":{"amenity":"waste_basket"}},"type":"Feature"},
	{"geometry":{"coordinates":[19.05648,47.5557],"type":"Point"},"properties":{"osm_id":"4298020566","tag":{"amenity":"waste_basket"}},"type":"Feature"},
	{"geometry":{"coordinates":[19.05672,47.556384],"type":"Point"},"properties":{"osm_id":"4298020567","tag":{"amenity":"waste_basket"}},"type":"Feature"},
	{"geometry":{"coordinates":[19.056394,47.556809],"type":"Point"},"properties":{"osm_id":"4298020568","tag":{"amenity":"waste_basket"}},"type":"Feature"},
	{"geometry":{"coordinates":[19.057742,47.55722],"type":"Point"},"properties":{"osm_id":"4298020573","tag":{"amenity":"waste_basket","wheelchair":"limited"}},"type":"Feature"},
	{"geometry":{"coordinates":[19.059102,47.558159],"type":"Point"},"properties":{"osm_id":"4298020576","tag":{"amenity":"waste_basket"}},"type":"Feature"},
	{"geometry":{"coordinates":[19.060671,47.55846],"type":"Point"},"properties":{"osm_id":"4298020577","tag":{"amenity":"waste_basket"}},"type":"Feature"},
	{"geometry":{"coordinates":[19.058155,47.559928],"type":"Point"},"properties":{"osm_id":"4298020583","tag":{"amenity":"waste_basket"}},"type":"Feature"},
	{"geometry":{"coordinates":[19.055688,47.557662],"type":"Point"},"properties":{"osm_id":"4298020584","tag":{"amenity":"waste_basket"}},"type":"Feature"},
	{"geometry":{"coordinates":[19.05566,47.557613],"type":"Point"},"properties":{"osm_id":"4298020586","tag":{"amenity":"waste_basket"}},"type":"Feature"},
	{"geometry":{"coordinates":[19.052299,47.554902],"type":"Point"},"properties":{"osm_id":"4298020588","tag":{"amenity":"waste_basket"}},"type":"Feature"},
	{"geometry":{"coordinates":[19.052338,47.554934],"type":"Point"},"properties":{"osm_id":"4298020889","tag":{"amenity":"waste_disposal"}},"type":"Feature"},
	{"geometry":{"coordinates":[19.052984,47.549635],"type":"Point"},"properties":{"osm_id":"4298020893","tag":{"amenity":"waste_basket"}},"type":"Feature"},
	{"geometry":{"coordinates":[19.04599,47.543354],"type":"Point"},"properties":{"osm_id":"4298061341","tag":{"amenity":"waste_basket"}},"type":"Feature"},
	{"geometry":{"coordinates":[19.046171,47.542943],"type":"Point"},"properties":{"osm_id":"4298061344","tag":{"amenity":"waste_basket"}},"type":"Feature"},
	{"geometry":{"coordinates":[19.045658,47.543001],"type":"Point"},"properties":{"osm_id":"4298061348","tag":{"amenity":"waste_basket"}},"type":"Feature"},
	{"geometry":{"coordinates":[19.045686,47.543291],"type":"Point"},"properties":{"osm_id":"4298061349","tag":{"amenity":"waste_basket"}},"type":"Feature"},
	{"geometry":{"coordinates":[19.046724,47.551387],"type":"Point"},"properties":{"osm_id":"4298061356","tag":{"amenity":"waste_basket"}},"type":"Feature"},
	{"geometry":{"coordinates":[19.043224,47.540491],"type":"Point"},"properties":{"osm_id":"4377901979","tag":{"amenity":"waste_basket"}},"type":"Feature"},
	{"geometry":{"coordinates":[19.043976,47.541728],"type":"Point"},"properties":{"osm_id":"4377901983","tag":{"amenity":"waste_basket"}},"type":"Feature"},
	{"geometry":{"coordinates":[19.044052,47.541646],"type":"Point"},"properties":{"osm_id":"4377901984","tag":{"amenity":"waste_basket"}},"type":"Feature"},
	{"geometry":{"coordinates":[19.042748,47.542125],"type":"Point"},"properties":{"osm_id":"4377901987","tag":{"amenity":"waste_basket"}},"type":"Feature"},
	{"geometry":{"coordinates":[19.04262,47.542095],"type":"Point"},"properties":{"osm_id":"4377904089","tag":{"amenity":"waste_basket"}},"type":"Feature"},
	{"geometry":{"coordinates":[19.041341,47.542652],"type":"Point"},"properties":{"osm_id":"4377904091","tag":{"amenity":"waste_basket"}},"type":"Feature"},
	{"geometry":{"coordinates":[19.041651,47.54099],"type":"Point"},"properties":{"osm_id":"4377904095","tag":{"amenity":"waste_basket"}},"type":"Feature"},
	{"geometry":{"coordinates":[19.043181,47.541865],"type":"Point"},"properties":{"osm_id":"4377904099","tag":{"amenity":"waste_basket"}},"type":"Feature"},
	{"geometry":{"coordinates":[19.04576,47.542772],"type":"Point"},"properties":{"osm_id":"4377904107","tag":{"amenity":"waste_basket"}},"type":"Feature"},
	{"geometry":{"coordinates":[19.046605,47.542709],"type":"Point"},"properties":{"osm_id":"4377904108","tag":{"amenity":"waste_basket"}},"type":"Feature"},
	{"geometry":{"coordinates":[19.042302,47.542304],"type":"Point"},"properties":{"osm_id":"4377904112","tag":{"amenity":"waste_basket"}},"type":"Feature"},
	{"geometry":{"coordinates":[19.042417,47.542292],"type":"Point"},"properties":{"osm_id":"4377904113","tag":{"amenity":"waste_basket"}},"type":"Feature"},
	{"geometry":{"coordinates":[19.044571,47.541639],"type":"Point"},"properties":{"osm_id":"4377904116","tag":{"amenity":"waste_basket"}},"type":"Feature"},
	{"geometry":{"coordinates":[19.049094,47.559772],"type":"Point"},"properties":{"osm_id":"4405534628","tag":{"amenity":"waste_basket"}},"type":"Feature"},
	{"geometry":{"coordinates":[19.048967,47.559806],"type":"Point"},"properties":{"osm_id":"4405534629","tag":{"amenity":"waste_basket"}},"type":"Feature"},
	{"geometry":{"coordinates":[19.028939,47.548242],"type":"Point"},"properties":{"osm_id":"4405534642","tag":{"amenity":"waste_basket"}},"type":"Feature"},
	{"geometry":{"coordinates":[19.028991,47.548242],"type":"Point"},"properties":{"osm_id":"4405534643","tag":{"amenity":"waste_basket"}},"type":"Feature"},
	{"geometry":{"coordinates":[19.028968,47.548627],"type":"Point"},"properties":{"osm_id":"4405534645","tag":{"amenity":"waste_basket"}},"type":"Feature"},
	{"geometry":{"coordinates":[19.044267,47.533524],"type":"Point"},"properties":{"osm_id":"4416209227","tag":{"amenity":"waste_basket"}},"type":"Feature"},
	{"geometry":{"coordinates":[19.045166,47.541325],"type":"Point"},"properties":{"osm_id":"4420812777","tag":{"amenity":"waste_basket"}},"type":"Feature"},
	{"geometry":{"coordinates":[19.048318,47.575071],"type":"Point"},"properties":{"osm_id":"4422458446","tag":{"amenity":"waste_basket"}},"type":"Feature"},
	{"geometry":{"coordinates":[19.048546,47.575128],"type":"Point"},"properties":{"osm_id":"4422458447","tag":{"amenity":"waste_basket"}},"type":"Feature"},
	{"geometry":{"coordinates":[19.048547,47.575133],"type":"Point"},"properties":{"osm_id":"4422458448","tag":{"amenity":"waste_basket"}},"type":"Feature"},
	{"geometry":{"coordinates":[19.048553,47.575181],"type":"Point"},"properties":{"osm_id":"4422458449","tag":{"amenity":"waste_basket"}},"type":"Feature"},
	{"geometry":{"coordinates":[19.048406,47.57514],"type":"Point"},"properties":{"osm_id":"4422458451","tag":{"amenity":"waste_basket"}},"type":"Feature"},
	{"geometry":{"coordinates":[19.048421,47.575246],"type":"Point"},"properties":{"osm_id":"4422458453","tag":{"amenity":"waste_basket"}},"type":"Feature"},
	{"geometry":{"coordinates":[19.048403,47.575466],"type":"Point"},"properties":{"osm_id":"4422458455","tag":{"amenity":"waste_basket"}},"type":"Feature"},
	{"geometry":{"coordinates":[19.048461,47.575538],"type":"Point"},"properties":{"osm_id":"4422458456","tag":{"amenity":"waste_basket"}},"type":"Feature"},
	{"geometry":{"coordinates":[19.046159,47.540231],"type":"Point"},"properties":{"osm_id":"4437444087","tag":{"amenity":"waste_basket"}},"type":"Feature"},
	{"geometry":{"coordinates":[19.046548,47.540154],"type":"Point"},"properties":{"osm_id":"4437444088","tag":{"amenity":"waste_basket"}},"type":"Feature"},
	{"geometry":{"coordinates":[19.041365,47.533664],"type":"Point"},"properties":{"osm_id":"4437444292","tag":{"amenity":"waste_basket"}},"type":"Feature"},
	{"geometry":{"coordinates":[19.041152,47.533455],"type":"Point"},"properties":{"osm_id":"4437444296","tag":{"amenity":"waste_basket"}},"type":"Feature"},
	{"geometry":{"coordinates":[19.040654,47.532278],"type":"Point"},"properties":{"osm_id":"4437444303","tag":{"amenity":"waste_basket"}},"type":"Feature"},
	{"geometry":{"coordinates":[19.039699,47.534236],"type":"Point"},"properties":{"osm_id":"4437444307","tag":{"amenity":"waste_basket"}},"type":"Feature"},
	{"geometry":{"coordinates":[19.039656,47.532216],"type":"Point"},"properties":{"osm_id":"4437444315","tag":{"amenity":"waste_basket"}},"type":"Feature"},
	{"geometry":{"coordinates":[19.053046,47.561186],"type":"Point"},"properties":{"osm_id":"4437489945","tag":{"amenity":"waste_basket"}},"type":"Feature"},
	{"geometry":{"coordinates":[19.040984,47.534732],"type":"Point"},"properties":{"osm_id":"4459183518","tag":{"amenity":"waste_basket"}},"type":"Feature"},
	{"geometry":{"coordinates":[19.043441,47.562446],"type":"Point"},"properties":{"osm_id":"4484794259","tag":{"amenity":"waste_basket","waste":"dog_excrement"}},"type":"Feature"},
	{"geometry":{"coordinates":[19.043168,47.562102],"type":"Point"},"properties":{"osm_id":"4484794266","tag":{"amenity":"waste_basket","waste":"dog_excrement"}},"type":"Feature"},
	{"geometry":{"coordinates":[19.066955,47.528279],"type":"Point"},"properties":{"osm_id":"4489613164","tag":{"amenity":"waste_basket","waste":"dog_excrement"}},"type":"Feature"},
	{"geometry":{"coordinates":[19.067733,47.52825],"type":"Point"},"properties":{"osm_id":"4489613165","tag":{"amenity":"waste_basket","waste":"dog_excrement"}},"type":"Feature"},
	{"geometry":{"coordinates":[19.068615,47.527877],"type":"Point"},"properties":{"osm_id":"4489613166","tag":{"amenity":"waste_basket","waste":"dog_excrement"}},"type":"Feature"},
	{"geometry":{"coordinates":[19.043128,47.542722],"type":"Point"},"properties":{"osm_id":"4494756894","tag":{"amenity":"waste_basket"}},"type":"Feature"},
	{"geometry":{"coordinates":[19.047081,47.539462],"type":"Point"},"properties":{"osm_id":"4629480785","tag":{"amenity":"waste_basket"}},"type":"Feature"},
	{"geometry":{"coordinates":[19.045045,47.55631],"type":"Point"},"properties":{"osm_id":"4659845043","tag":{"amenity":"waste_basket"}},"type":"Feature"},
	{"geometry":{"coordinates":[19.04493,47.556089],"type":"Point"},"properties":{"osm_id":"4659845048","tag":{"amenity":"waste_basket"}},"type":"Feature"},
	{"geometry":{"coordinates":[19.044816,47.55578],"type":"Point"},"properties":{"osm_id":"4659845049","tag":{"amenity":"waste_basket"}},"type":"Feature"},
	{"geometry":{"coordinates":[19.042724,47.53847],"type":"Point"},"properties":{"osm_id":"4675476021","tag":{"amenity":"waste_basket"}},"type":"Feature"},
	{"geometry":{"coordinates":[19.040174,47.527579],"type":"Point"},"properties":{"osm_id":"4777542925","tag":{"amenity":"waste_basket"}},"type":"Feature"},
	{"geometry":{"coordinates":[19.039534,47.527479],"type":"Point"},"properties":{"osm_id":"4870015103","tag":{"amenity":"waste_basket","vending":"excrement_bags","waste":"dog_excrement"}},"type":"Feature"},
	{"geometry":{"coordinates":[19.044279,47.534201],"type":"Point"},"properties":{"osm_id":"4870015104","tag":{"amenity":"waste_basket","vending":"excrement_bags","waste":"dog_excrement"}},"type":"Feature"},
	{"geometry":{"coordinates":[19.042525,47.542207],"type":"Point"},"properties":{"osm_id":"4872223275","tag":{"amenity":"waste_basket","vending":"excrement_bags","waste":"dog_excrement"}},"type":"Feature"},
	{"geometry":{"coordinates":[19.044556,47.556709],"type":"Point"},"properties":{"osm_id":"4874238979","tag":{"amenity":"recycling","recycling_type":"container"}},"type":"Feature"},
	{"geometry":{"coordinates":[19.044164,47.556265],"type":"Point"},"properties":{"osm_id":"4874238985","tag":{"amenity":"waste_basket"}},"type":"Feature"},
	{"geometry":{"coordinates":[19.045804,47.552283],"type":"Point"},"properties":{"osm_id":"4874239019","tag":{"amenity":"waste_basket"}},"type":"Feature"},
	{"geometry":{"coordinates":[19.046048,47.551973],"type":"Point"},"properties":{"osm_id":"4874239020","tag":{"amenity":"waste_basket"}},"type":"Feature"},
	{"geometry":{"coordinates":[19.04564,47.552486],"type":"Point"},"properties":{"osm_id":"4874483355","tag":{"amenity":"waste_basket"}},"type":"Feature"},
	{"geometry":{"coordinates":[18.985902,47.54231],"type":"Point"},"properties":{"osm_id":"4907856235","tag":{"amenity":"waste_basket"}},"type":"Feature"},
	{"geometry":{"coordinates":[19.037059,47.53249],"type":"Point"},"properties":{"osm_id":"5041160457","tag":{"amenity":"waste_basket","vending":"excrement_bags","waste":"dog_excrement"}},"type":"Feature"},
	{"geometry":{"coordinates":[19.051434,47.549775],"type":"Point"},"properties":{"osm_id":"5051992696","tag":{"amenity":"waste_basket"}},"type":"Feature"},
	{"geometry":{"coordinates":[19.052208,47.549989],"type":"Point"},"properties":{"osm_id":"5051992697","tag":{"amenity":"waste_basket"}},"type":"Feature"},
	{"geometry":{"coordinates":[19.053463,47.550361],"type":"Point"},"properties":{"osm_id":"5051992698","tag":{"amenity":"waste_basket"}},"type":"Feature"},
	{"geometry":{"coordinates":[18.991794,47.52785],"type":"Point"},"properties":{"osm_id":"5212259362","tag":{"amenity":"waste_basket"}},"type":"Feature"},
	{"geometry":{"coordinates":[18.986224,47.528104],"type":"Point"},"properties":{"osm_id":"5212541678","tag":{"amenity":"waste_basket"}},"type":"Feature"},
	{"geometry":{"coordinates":[18.986239,47.528179],"type":"Point"},"properties":{"osm_id":"5212541683","tag":{"amenity":"recycling","location":"overground","recycling:paper":"yes","recycling:plastic":"yes","recycling_type":"container"}},"type":"Feature"},
	{"geometry":{"coordinates":[19.005217,47.529372],"type":"Point"},"properties":{"osm_id":"5216073390","tag":{"amenity":"recycling"}},"type":"Feature"},
	{"geometry":{"coordinates":[19.018455,47.564463],"type":"Point"},"properties":{"barrier":"gate","osm_id":"5489270866","tag":{"access":"customers"}},"type":"Feature"},
	{"geometry":{"coordinates":[19.038122,47.533458],"type":"Point"},"properties":{"osm_id":"5590640488","tag":{"amenity":"waste_basket"}},"type":"Feature"},
	{"geometry":{"coordinates":[19.03908,47.550147],"type":"Point"},"properties":{"osm_id":"5634459896","tag":{"amenity":"waste_basket"}},"type":"Feature"},
	{"geometry":{"coordinates":[19.039341,47.550005],"type":"Point"},"properties":{"osm_id":"5634459897","tag":{"amenity":"waste_basket"}},"type":"Feature"},
	{"geometry":{"coordinates":[19.039454,47.550373],"type":"Point"},"properties":{"osm_id":"5634459898","tag":{"amenity":"waste_basket"}},"type":"Feature"},
	{"geometry":{"coordinates":[19.043417,47.549667],"type":"Point"},"properties":{"osm_id":"5635189366","tag":{"amenity":"waste_basket"}},"type":"Feature"},
	{"geometry":{"coordinates":[19.043311,47.549411],"type":"Point"},"properties":{"osm_id":"5635189367","tag":{"amenity":"waste_basket"}},"type":"Feature"},
	{"geometry":{"coordinates":[19.043831,47.549551],"type":"Point"},"properties":{"osm_id":"5635189368","tag":{"amenity":"waste_basket"}},"type":"Feature"},
	{"geometry":{"coordinates":[19.043098,47.546426],"type":"Point"},"properties":{"osm_id":"5636823203","tag":{"amenity":"waste_basket"}},"type":"Feature"},
	{"geometry":{"coordinates":[19.042283,47.545683],"type":"Point"},"properties":{"osm_id":"5636840019","tag":{"amenity":"waste_basket"}},"type":"Feature"},
	{"geometry":{"coordinates":[19.042338,47.545397],"type":"Point"},"properties":{"osm_id":"5636840020","tag":{"amenity":"waste_basket"}},"type":"Feature"},
	{"geometry":{"coordinates":[19.042844,47.547436],"type":"Point"},"properties":{"osm_id":"5636840322","tag":{"amenity":"waste_basket"}},"type":"Feature"},
	{"geometry":{"coordinates":[19.042778,47.54736],"type":"Point"},"properties":{"osm_id":"5636840323","tag":{"amenity":"waste_basket"}},"type":"Feature"},
	{"geometry":{"coordinates":[19.042762,47.544937],"type":"Point"},"properties":{"osm_id":"5636859780","tag":{"amenity":"waste_basket"}},"type":"Feature"},
	{"geometry":{"coordinates":[19.042625,47.544525],"type":"Point"},"properties":{"osm_id":"5636859781","tag":{"amenity":"waste_basket"}},"type":"Feature"},
	{"geometry":{"coordinates":[19.042561,47.544292],"type":"Point"},"properties":{"osm_id":"5636859782","tag":{"amenity":"waste_basket"}},"type":"Feature"},
	{"geometry":{"coordinates":[19.042526,47.543899],"type":"Point"},"properties":{"osm_id":"5636859783","tag":{"amenity":"waste_basket"}},"type":"Feature"},
	{"geometry":{"coordinates":[19.04223,47.542952],"type":"Point"},"properties":{"osm_id":"5636859786","tag":{"amenity":"waste_basket"}},"type":"Feature"},
	{"geometry":{"coordinates":[19.03968,47.541341],"type":"Point"},"properties":{"osm_id":"5637442985","tag":{"amenity":"waste_basket"}},"type":"Feature"},
	{"geometry":{"coordinates":[19.039572,47.541357],"type":"Point"},"properties":{"osm_id":"5637442986","tag":{"amenity":"waste_basket"}},"type":"Feature"},
	{"geometry":{"coordinates":[19.0405,47.539655],"type":"Point"},"properties":{"osm_id":"5639085698","tag":{"amenity":"waste_basket"}},"type":"Feature"},
	{"geometry":{"coordinates":[19.040344,47.539264],"type":"Point"},"properties":{"osm_id":"5639085699","tag":{"amenity":"waste_basket"}},"type":"Feature"},
	{"geometry":{"coordinates":[19.040927,47.538843],"type":"Point"},"properties":{"osm_id":"5639085700","tag":{"amenity":"waste_basket"}},"type":"Feature"},
	{"geometry":{"coordinates":[19.04087,47.538941],"type":"Point"},"properties":{"osm_id":"5639085701","tag":{"amenity":"waste_basket"}},"type":"Feature"},
	{"geometry":{"coordinates":[19.040286,47.539023],"type":"Point"},"properties":{"osm_id":"5639104829","tag":{"amenity":"waste_basket"}},"type":"Feature"},
	{"geometry":{"coordinates":[19.040783,47.539011],"type":"Point"},"properties":{"osm_id":"5639146695","tag":{"amenity":"waste_basket"}},"type":"Feature"},
	{"geometry":{"coordinates":[19.04102,47.53966],"type":"Point"},"properties":{"osm_id":"5639146696","tag":{"amenity":"waste_basket"}},"type":"Feature"},
	{"geometry":{"coordinates":[19.041021,47.539667],"type":"Point"},"properties":{"osm_id":"5639146697","tag":{"amenity":"waste_basket"}},"type":"Feature"},
	{"geometry":{"coordinates":[19.040009,47.536828],"type":"Point"},"properties":{"osm_id":"5639157702","tag":{"amenity":"waste_basket"}},"type":"Feature"},
	{"geometry":{"coordinates":[19.040046,47.536733],"type":"Point"},"properties":{"osm_id":"5639157703","tag":{"amenity":"waste_basket"}},"type":"Feature"},
	{"geometry":{"coordinates":[19.039748,47.536708],"type":"Point"},"properties":{"osm_id":"5639195668","tag":{"amenity":"waste_basket"}},"type":"Feature"},
	{"geometry":{"coordinates":[19.039746,47.53722],"type":"Point"},"properties":{"osm_id":"5639195670","tag":{"amenity":"waste_basket"}},"type":"Feature"},
	{"geometry":{"coordinates":[19.040154,47.531513],"type":"Point"},"properties":{"osm_id":"5639407439","tag":{"amenity":"waste_basket"}},"type":"Feature"},
	{"geometry":{"coordinates":[19.040009,47.532368],"type":"Point"},"properties":{"osm_id":"5639457397","tag":{"amenity":"waste_basket"}},"type":"Feature"},
	{"geometry":{"coordinates":[19.038635,47.527596],"type":"Point"},"properties":{"osm_id":"5639570994","tag":{"amenity":"waste_basket"}},"type":"Feature"},
	{"geometry":{"coordinates":[19.038838,47.52821],"type":"Point"},"properties":{"osm_id":"5639570995","tag":{"amenity":"waste_basket"}},"type":"Feature"},
	{"geometry":{"coordinates":[19.039393,47.529388],"type":"Point"},"properties":{"osm_id":"5639571001","tag":{"amenity":"waste_basket"}},"type":"Feature"},
	{"geometry":{"coordinates":[19.037772,47.524374],"type":"Point"},"properties":{"osm_id":"5641587723","tag":{"amenity":"waste_basket"}},"type":"Feature"},
	{"geometry":{"coordinates":[19.038099,47.526542],"type":"Point"},"properties":{"osm_id":"5641759165","tag":{"amenity":"waste_basket"}},"type":"Feature"},
	{"geometry":{"coordinates":[19.037698,47.52527],"type":"Point"},"properties":{"osm_id":"5641759166","tag":{"amenity":"waste_basket"}},"type":"Feature"},
	{"geometry":{"coordinates":[19.037853,47.520674],"type":"Point"},"properties":{"osm_id":"5647429068","tag":{"amenity":"waste_basket"}},"type":"Feature"},
	{"geometry":{"coordinates":[19.037711,47.520787],"type":"Point"},"properties":{"osm_id":"5647429069","tag":{"amenity":"waste_basket"}},"type":"Feature"},
	{"geometry":{"coordinates":[19.020382,47.517442],"type":"Point"},"properties":{"osm_id":"5687278158","tag":{"amenity":"waste_basket"}},"type":"Feature"},
	{"geometry":{"coordinates":[19.02082,47.518224],"type":"Point"},"properties":{"osm_id":"5687278160","tag":{"amenity":"waste_basket"}},"type":"Feature"},
	{"geometry":{"coordinates":[19.017769,47.522535],"type":"Point"},"properties":{"osm_id":"5687455230","tag":{"amenity":"waste_basket"}},"type":"Feature"},
	{"geometry":{"coordinates":[19.016791,47.523232],"type":"Point"},"properties":{"osm_id":"5687540056","tag":{"amenity":"waste_basket"}},"type":"Feature"},
	{"geometry":{"coordinates":[19.016445,47.522993],"type":"Point"},"properties":{"osm_id":"5687540057","tag":{"amenity":"waste_basket"}},"type":"Feature"},
	{"geometry":{"coordinates":[19.016143,47.522889],"type":"Point"},"properties":{"osm_id":"5687540058","tag":{"amenity":"waste_basket"}},"type":"Feature"},
	{"geometry":{"coordinates":[19.016761,47.522923],"type":"Point"},"properties":{"osm_id":"5687540059","tag":{"amenity":"waste_basket"}},"type":"Feature"},
	{"geometry":{"coordinates":[19.017014,47.522899],"type":"Point"},"properties":{"osm_id":"5687540060","tag":{"amenity":"waste_basket"}},"type":"Feature"},
	{"geometry":{"coordinates":[19.013279,47.524264],"type":"Point"},"properties":{"osm_id":"5742904776","tag":{"amenity":"waste_basket"}},"type":"Feature"},
	{"geometry":{"coordinates":[19.010625,47.52509],"type":"Point"},"properties":{"osm_id":"5742904781","tag":{"amenity":"waste_basket"}},"type":"Feature"},
	{"geometry":{"coordinates":[19.006875,47.52804],"type":"Point"},"properties":{"osm_id":"5742969454","tag":{"amenity":"waste_basket"}},"type":"Feature"},
	{"geometry":{"coordinates":[19.002567,47.529621],"type":"Point"},"properties":{"osm_id":"5743327296","tag":{"amenity":"waste_basket"}},"type":"Feature"},
	{"geometry":{"coordinates":[19.056398,47.517826],"type":"Point"},"properties":{"osm_id":"5779240909","tag":{"amenity":"waste_basket"}},"type":"Feature"},
	{"geometry":{"coordinates":[19.056398,47.518046],"type":"Point"},"properties":{"osm_id":"5779240911","tag":{"amenity":"waste_basket"}},"type":"Feature"},
	{"geometry":{"coordinates":[19.05656,47.518015],"type":"Point"},"properties":{"osm_id":"5779240912","tag":{"amenity":"waste_basket"}},"type":"Feature"},
	{"geometry":{"coordinates":[19.056548,47.518098],"type":"Point"},"properties":{"osm_id":"5779240913","tag":{"amenity":"waste_basket"}},"type":"Feature"},
	{"geometry":{"coordinates":[19.05778,47.520453],"type":"Point"},"properties":{"osm_id":"5781312329","tag":{"amenity":"waste_basket"}},"type":"Feature"},
	{"geometry":{"coordinates":[19.057523,47.520337],"type":"Point"},"properties":{"osm_id":"5781312330","tag":{"amenity":"waste_basket"}},"type":"Feature"},
	{"geometry":{"coordinates":[19.056278,47.520639],"type":"Point"},"properties":{"osm_id":"5781312331","tag":{"amenity":"waste_basket"}},"type":"Feature"},
	{"geometry":{"coordinates":[19.056488,47.520741],"type":"Point"},"properties":{"osm_id":"5781312333","tag":{"amenity":"waste_basket"}},"type":"Feature"},
	{"geometry":{"coordinates":[19.056064,47.519929],"type":"Point"},"properties":{"osm_id":"5781312335","tag":{"amenity":"waste_basket"}},"type":"Feature"},
	{"geometry":{"coordinates":[19.055887,47.519879],"type":"Point"},"properties":{"osm_id":"5781312336","tag":{"amenity":"waste_basket"}},"type":"Feature"},
	{"geometry":{"coordinates":[19.059928,47.519815],"type":"Point"},"properties":{"osm_id":"5781346595","tag":{"amenity":"waste_basket"}},"type":"Feature"},
	{"geometry":{"coordinates":[19.058775,47.520067],"type":"Point"},"properties":{"osm_id":"5781346596","tag":{"amenity":"waste_basket"}},"type":"Feature"},
	{"geometry":{"coordinates":[19.058914,47.520046],"type":"Point"},"properties":{"osm_id":"5781346597","tag":{"amenity":"waste_basket"}},"type":"Feature"},
	{"geometry":{"coordinates":[19.059274,47.523628],"type":"Point"},"properties":{"osm_id":"5781424842","tag":{"amenity":"waste_basket"}},"type":"Feature"},
	{"geometry":{"coordinates":[19.059263,47.523624],"type":"Point"},"properties":{"osm_id":"5781424843","tag":{"amenity":"waste_basket"}},"type":"Feature"},
	{"geometry":{"coordinates":[19.059136,47.52366],"type":"Point"},"properties":{"osm_id":"5781424845","tag":{"amenity":"waste_basket"}},"type":"Feature"},
	{"geometry":{"coordinates":[19.057774,47.523505],"type":"Point"},"properties":{"osm_id":"5781424847","tag":{"amenity":"waste_basket"}},"type":"Feature"},
	{"geometry":{"coordinates":[19.057967,47.52394],"type":"Point"},"properties":{"osm_id":"5781424849","tag":{"amenity":"waste_basket"}},"type":"Feature"},
	{"geometry":{"coordinates":[19.058211,47.523995],"type":"Point"},"properties":{"osm_id":"5781424851","tag":{"amenity":"waste_basket"}},"type":"Feature"},
	{"geometry":{"coordinates":[19.057604,47.529952],"type":"Point"},"properties":{"osm_id":"5781454811","tag":{"amenity":"waste_basket"}},"type":"Feature"},
	{"geometry":{"coordinates":[19.057751,47.529924],"type":"Point"},"properties":{"osm_id":"5781454813","tag":{"amenity":"waste_basket"}},"type":"Feature"},
	{"geometry":{"coordinates":[19.059366,47.533621],"type":"Point"},"properties":{"osm_id":"5781689029","tag":{"amenity":"waste_basket"}},"type":"Feature"},
	{"geometry":{"coordinates":[19.059369,47.534334],"type":"Point"},"properties":{"osm_id":"5781720996","tag":{"amenity":"waste_basket"}},"type":"Feature"},
	{"geometry":{"coordinates":[19.059808,47.534349],"type":"Point"},"properties":{"osm_id":"5781720998","tag":{"amenity":"waste_basket"}},"type":"Feature"},
	{"geometry":{"coordinates":[19.059779,47.535126],"type":"Point"},"properties":{"osm_id":"5781721001","tag":{"amenity":"waste_basket"}},"type":"Feature"},
	{"geometry":{"coordinates":[19.060027,47.535069],"type":"Point"},"properties":{"osm_id":"5781721004","tag":{"amenity":"waste_basket"}},"type":"Feature"},
	{"geometry":{"coordinates":[19.060029,47.535698],"type":"Point"},"properties":{"osm_id":"5781740770","tag":{"amenity":"waste_basket"}},"type":"Feature"},
	{"geometry":{"coordinates":[19.060339,47.536662],"type":"Point"},"properties":{"osm_id":"5781748201","tag":{"amenity":"waste_basket"}},"type":"Feature"},
	{"geometry":{"coordinates":[19.060683,47.536672],"type":"Point"},"properties":{"osm_id":"5781748202","tag":{"amenity":"waste_basket"}},"type":"Feature"},
	{"geometry":{"coordinates":[19.060464,47.536787],"type":"Point"},"properties":{"osm_id":"5781748203","tag":{"amenity":"waste_basket"}},"type":"Feature"},
	{"geometry":{"coordinates":[19.060852,47.537638],"type":"Point"},"properties":{"osm_id":"5781796930","tag":{"amenity":"waste_basket"}},"type":"Feature"},
	{"geometry":{"coordinates":[19.061048,47.53802],"type":"Point"},"properties":{"osm_id":"5781796931","tag":{"amenity":"waste_basket"}},"type":"Feature"},
	{"geometry":{"coordinates":[19.061384,47.538002],"type":"Point"},"properties":{"osm_id":"5781796933","tag":{"amenity":"waste_basket"}},"type":"Feature"},
	{"geometry":{"coordinates":[19.061457,47.53813],"type":"Point"},"properties":{"osm_id":"5781796934","tag":{"amenity":"waste_basket"}},"type":"Feature"},
	{"geometry":{"coordinates":[19.061439,47.538229],"type":"Point"},"properties":{"osm_id":"5781796935","tag":{"amenity":"waste_basket"}},"type":"Feature"},
	{"geometry":{"coordinates":[19.061204,47.538244],"type":"Point"},"properties":{"osm_id":"5781796936","tag":{"amenity":"waste_basket"}},"type":"Feature"},
	{"geometry":{"coordinates":[19.061821,47.538938],"type":"Point"},"properties":{"osm_id":"5781796938","tag":{"amenity":"waste_basket"}},"type":"Feature"},
	{"geometry":{"coordinates":[19.062232,47.537819],"type":"Point"},"properties":{"osm_id":"5784249427","tag":{"amenity":"waste_basket"}},"type":"Feature"},
	{"geometry":{"coordinates":[19.062821,47.537701],"type":"Point"},"properties":{"osm_id":"5784249428","tag":{"amenity":"waste_basket"}},"type":"Feature"},
	{"geometry":{"coordinates":[19.06396,47.537479],"type":"Point"},"properties":{"osm_id":"5784249431","tag":{"amenity":"waste_basket"}},"type":"Feature"},
	{"geometry":{"coordinates":[19.064092,47.537448],"type":"Point"},"properties":{"osm_id":"5784249433","tag":{"amenity":"waste_basket"}},"type":"Feature"},
	{"geometry":{"coordinates":[19.064109,47.537581],"type":"Point"},"properties":{"osm_id":"5784249437","tag":{"amenity":"waste_basket"}},"type":"Feature"},
	{"geometry":{"coordinates":[19.064994,47.537238],"type":"Point"},"properties":{"osm_id":"5784306423","tag":{"amenity":"waste_basket"}},"type":"Feature"},
	{"geometry":{"coordinates":[19.064993,47.537359],"type":"Point"},"properties":{"osm_id":"5784306424","tag":{"amenity":"waste_basket"}},"type":"Feature"},
	{"geometry":{"coordinates":[19.066616,47.536913],"type":"Point"},"properties":{"osm_id":"5784306426","tag":{"amenity":"waste_basket"}},"type":"Feature"},
	{"geometry":{"coordinates":[19.066673,47.537053],"type":"Point"},"properties":{"osm_id":"5784306431","tag":{"amenity":"waste_basket"}},"type":"Feature"},
	{"geometry":{"coordinates":[19.066698,47.536923],"type":"Point"},"properties":{"osm_id":"5784306433","tag":{"amenity":"waste_basket"}},"type":"Feature"},
	{"geometry":{"coordinates":[19.045973,47.540228],"type":"Point"},"properties":{"osm_id":"5807940167","tag":{"amenity":"waste_basket"}},"type":"Feature"},
	{"geometry":{"coordinates":[19.017847,47.573637],"type":"Point"},"properties":{"osm_id":"5908352109","tag":{"amenity":"waste_basket"}},"type":"Feature"},
	{"geometry":{"coordinates":[19.017662,47.573713],"type":"Point"},"properties":{"osm_id":"5908352111","tag":{"amenity":"waste_basket"}},"type":"Feature"},
	{"geometry":{"coordinates":[19.017395,47.573823],"type":"Point"},"properties":{"osm_id":"5908352117","tag":{"amenity":"waste_basket"}},"type":"Feature"},
	{"geometry":{"coordinates":[19.017236,47.573884],"type":"Point"},"properties":{"osm_id":"5908352119","tag":{"amenity":"waste_basket"}},"type":"Feature"},
	{"geometry":{"coordinates":[19.029148,47.537786],"type":"Point"},"properties":{"osm_id":"5909663781","tag":{"amenity":"waste_basket","waste":"trash"}},"type":"Feature"},
	{"geometry":{"coordinates":[18.999694,47.520306],"type":"Point"},"properties":{"osm_id":"5957557349","tag":{"amenity":"waste_basket"}},"type":"Feature"},
	{"geometry":{"coordinates":[18.993623,47.524149],"type":"Point"},"properties":{"osm_id":"6017543471","tag":{"amenity":"waste_basket"}},"type":"Feature"},
	{"geometry":{"coordinates":[18.993504,47.524431],"type":"Point"},"properties":{"osm_id":"6017543472","tag":{"amenity":"waste_basket"}},"type":"Feature"},
	{"geometry":{"coordinates":[18.993445,47.524086],"type":"Point"},"properties":{"osm_id":"6017543473","tag":{"amenity":"waste_basket"}},"type":"Feature"},
	{"geometry":{"coordinates":[18.99321,47.524116],"type":"Point"},"properties":{"osm_id":"6017543474","tag":{"amenity":"waste_basket"}},"type":"Feature"},
	{"geometry":{"coordinates":[18.99315,47.523682],"type":"Point"},"properties":{"osm_id":"6017543475","tag":{"amenity":"waste_basket"}},"type":"Feature"},
	{"geometry":{"coordinates":[18.993726,47.523817],"type":"Point"},"properties":{"osm_id":"6017543476","tag":{"amenity":"waste_basket"}},"type":"Feature"},
	{"geometry":{"coordinates":[18.994787,47.523398],"type":"Point"},"properties":{"osm_id":"6017585108","tag":{"amenity":"waste_basket"}},"type":"Feature"},
	{"geometry":{"coordinates":[18.994885,47.523349],"type":"Point"},"properties":{"osm_id":"6017585109","tag":{"amenity":"waste_basket"}},"type":"Feature"},
	{"geometry":{"coordinates":[18.997701,47.521595],"type":"Point"},"properties":{"osm_id":"6017585122","tag":{"amenity":"waste_basket"}},"type":"Feature"},
	{"geometry":{"coordinates":[18.999533,47.520408],"type":"Point"},"properties":{"osm_id":"6017678542","tag":{"amenity":"waste_basket"}},"type":"Feature"},
	{"geometry":{"coordinates":[18.999825,47.520125],"type":"Point"},"properties":{"osm_id":"6017678552","tag":{"amenity":"waste_basket"}},"type":"Feature"},
	{"geometry":{"coordinates":[19.00203,47.518163],"type":"Point"},"properties":{"osm_id":"6018870736","tag":{"amenity":"waste_basket"}},"type":"Feature"},
	{"geometry":{"coordinates":[19.002145,47.518194],"type":"Point"},"properties":{"osm_id":"6018870737","tag":{"amenity":"waste_basket"}},"type":"Feature"},
	{"geometry":{"coordinates":[19.003452,47.517399],"type":"Point"},"properties":{"osm_id":"6018925090","tag":{"amenity":"waste_basket"}},"type":"Feature"},
	{"geometry":{"coordinates":[19.027187,47.523618],"type":"Point"},"properties":{"osm_id":"6051749929","tag":{"amenity":"waste_basket"}},"type":"Feature"},
	{"geometry":{"coordinates":[19.027461,47.523412],"type":"Point"},"properties":{"osm_id":"6051749962","tag":{"amenity":"waste_basket"}},"type":"Feature"},
	{"geometry":{"coordinates":[18.99507,47.517716],"type":"Point"},"properties":{"osm_id":"6112583982","tag":{"amenity":"waste_basket"}},"type":"Feature"},
	{"geometry":{"coordinates":[18.984807,47.518533],"type":"Point"},"properties":{"osm_id":"6112744518","tag":{"amenity":"waste_basket"}},"type":"Feature"},
	{"geometry":{"coordinates":[19.023454,47.518723],"type":"Point"},"properties":{"osm_id":"6220938352","tag":{"amenity":"waste_basket","waste":"dog_excrement"}},"type":"Feature"},
	{"geometry":{"coordinates":[19.023658,47.520817],"type":"Point"},"properties":{"osm_id":"6220938353","tag":{"amenity":"waste_basket","waste":"dog_excrement"}},"type":"Feature"},
	{"geometry":{"coordinates":[19.015798,47.52512],"type":"Point"},"properties":{"osm_id":"6220938354","tag":{"amenity":"waste_basket","waste":"dog_excrement"}},"type":"Feature"},
	{"geometry":{"coordinates":[19.028003,47.518512],"type":"Point"},"properties":{"osm_id":"6220938355","tag":{"amenity":"waste_basket","waste":"dog_excrement"}},"type":"Feature"},
	{"geometry":{"coordinates":[19.011415,47.52109],"type":"Point"},"properties":{"osm_id":"6220938358","tag":{"amenity":"waste_basket","waste":"dog_excrement"}},"type":"Feature"},
	{"geometry":{"coordinates":[19.009568,47.525425],"type":"Point"},"properties":{"osm_id":"6220938359","tag":{"amenity":"waste_basket","waste":"dog_excrement"}},"type":"Feature"},
	{"geometry":{"coordinates":[19.011556,47.52472],"type":"Point"},"properties":{"osm_id":"6220938360","tag":{"amenity":"waste_basket","waste":"dog_excrement"}},"type":"Feature"},
	{"geometry":{"coordinates":[19.009934,47.526408],"type":"Point"},"properties":{"osm_id":"6223053009","tag":{"amenity":"waste_basket","waste":"dog_excrement"}},"type":"Feature"},
	{"geometry":{"coordinates":[19.030595,47.566864],"type":"Point"},"properties":{"name":"MAPE-KER","osm_id":"6265796290","tag":{"addr:city":"Budapest","addr:housenumber":"5-7","addr:postcode":"1037","addr:street":"T\u00c3\u00b6r\u00c3\u00b6kk\u00c5\u0091 utca","amenity":"recycling","description":"M\u00c3\u0089H F\u00c3\u00a9mhullad\u00c3\u00a9k \u00c3\u00a1tv\u00c3\u00a9teli telephely. Tel: P\u00c3\u00a9nzt\u00c3\u00a1r: +36 20 351 2172 F\u00c3\u00a9mkereskedelmi, k\u00c3\u00b6rnyezetv\u00c3\u00a9delmi \u00c3\u00bcgyint\u00c3\u00a9z\u00c3\u00a9s: +36 20 320 2693 Egy\u00c3\u00a9b \u00c3\u00bcgyint\u00c3\u00a9z\u00c3\u00a9s: +36 20 483 5490","email":"mapekerkft@gmail.com","opening_hours":"Mo-Fr 07:00-16:00; Sa 07:00-12:00","operator":"MAPE-KER Kft","phone":"+36 20 483 5490","recycling:batteries":"yes","recycling:car_batteries":"yes","recycling:computers":"yes","recycling:electrical_appliances":"yes","recycling:electrical_items":"yes","recycling:metal":"yes","recycling:scrap_metal":"yes","recycling_type":"centre","start_date":"2004","website":"https://mape-ker.hu"}},"type":"Feature"},
	{"geometry":{"coordinates":[19.068386,47.522976],"type":"Point"},"properties":{"osm_id":"6314067983","tag":{"amenity":"waste_basket","waste":"trash"}},"type":"Feature"},
	{"geometry":{"coordinates":[19.037723,47.522841],"type":"Point"},"properties":{"osm_id":"6402049664","tag":{"amenity":"waste_basket"}},"type":"Feature"},
	{"geometry":{"coordinates":[19.03706,47.5228],"type":"Point"},"properties":{"osm_id":"6402049665","tag":{"amenity":"waste_basket"}},"type":"Feature"},
	{"geometry":{"coordinates":[19.060715,47.541759],"type":"Point"},"properties":{"osm_id":"6630713444","tag":{"amenity":"waste_basket","material":"metal"}},"type":"Feature"},
	{"geometry":{"coordinates":[19.061049,47.541704],"type":"Point"},"properties":{"osm_id":"6630713448","tag":{"amenity":"waste_basket","material":"metal"}},"type":"Feature"},
	{"geometry":{"coordinates":[19.061379,47.54173],"type":"Point"},"properties":{"osm_id":"6630713457","tag":{"amenity":"waste_basket","material":"metal"}},"type":"Feature"},
	{"geometry":{"coordinates":[19.061538,47.541741],"type":"Point"},"properties":{"osm_id":"6630713459","tag":{"amenity":"waste_basket","material":"metal"}},"type":"Feature"},
	{"geometry":{"coordinates":[19.061893,47.541855],"type":"Point"},"properties":{"osm_id":"6630713462","tag":{"amenity":"waste_basket","material":"metal"}},"type":"Feature"},
	{"geometry":{"coordinates":[19.061685,47.541913],"type":"Point"},"properties":{"osm_id":"6630713463","tag":{"amenity":"waste_basket","material":"metal"}},"type":"Feature"},
	{"geometry":{"coordinates":[19.063224,47.541929],"type":"Point"},"properties":{"osm_id":"6630713468","tag":{"amenity":"waste_basket","material":"metal"}},"type":"Feature"},
	{"geometry":{"coordinates":[19.008058,47.528983],"type":"Point"},"properties":{"osm_id":"6725997704","tag":{"amenity":"waste_basket","waste":"dog_excrement"}},"type":"Feature"},
	{"geometry":{"coordinates":[19.043444,47.538418],"type":"Point"},"properties":{"osm_id":"6733259962","tag":{"amenity":"waste_basket","vending":"excrement_bags","waste":"dog_excrement"}},"type":"Feature"},
	{"geometry":{"coordinates":[19.0662,47.526955],"type":"Point"},"properties":{"osm_id":"6836335144","tag":{"amenity":"waste_basket"}},"type":"Feature"},
	{"geometry":{"coordinates":[19.01827,47.524735],"type":"Point"},"properties":{"osm_id":"7105447644","tag":{"amenity":"waste_basket","waste":"dog_excrement"}},"type":"Feature"},
	{"geometry":{"coordinates":[18.989979,47.529218],"type":"Point"},"properties":{"osm_id":"7260523143","tag":{"amenity":"waste_disposal"}},"type":"Feature"},
	{"geometry":{"coordinates":[19.015948,47.557331],"type":"Point"},"properties":{"osm_id":"7366066721","tag":{"amenity":"waste_basket"}},"type":"Feature"},
	{"geometry":{"coordinates":[18.98531,47.53631],"type":"Point"},"properties":{"osm_id":"7368757115","tag":{"amenity":"waste_basket","waste":"trash"}},"type":"Feature"},
	{"geometry":{"coordinates":[19.061354,47.56677],"type":"Point"},"properties":{"osm_id":"7438409716","tag":{"amenity":"waste_basket","waste":"trash"}},"type":"Feature"},
	{"geometry":{"coordinates":[19.020756,47.521709],"type":"Point"},"properties":{"osm_id":"7438814278","tag":{"amenity":"waste_basket","waste":"dog_excrement"}},"type":"Feature"},
	{"geometry":{"coordinates":[19.057536,47.572816],"type":"Point"},"properties":{"osm_id":"7442914008","tag":{"amenity":"waste_basket","waste":"trash"}},"type":"Feature"},
	{"geometry":{"coordinates":[19.059776,47.572582],"type":"Point"},"properties":{"osm_id":"7442914020","tag":{"amenity":"waste_basket","waste":"trash"}},"type":"Feature"},
	{"geometry":{"coordinates":[19.030736,47.545171],"type":"Point"},"properties":{"osm_id":"7475967701","tag":{"amenity":"waste_basket","waste":"dog_excrement"}},"type":"Feature"},
	{"geometry":{"coordinates":[19.031044,47.545336],"type":"Point"},"properties":{"osm_id":"7475967704","tag":{"amenity":"waste_basket"}},"type":"Feature"},
	{"geometry":{"coordinates":[19.030879,47.545177],"type":"Point"},"properties":{"osm_id":"7475967708","tag":{"amenity":"waste_basket"}},"type":"Feature"},
	{"geometry":{"coordinates":[19.029991,47.518085],"type":"Point"},"properties":{"osm_id":"7508613777","tag":{"amenity":"recycling","recycling:clothes":"yes","recycling_type":"container"}},"type":"Feature"},
	{"geometry":{"coordinates":[19.037432,47.555756],"type":"Point"},"properties":{"osm_id":"7528362570","tag":{"amenity":"waste_disposal","waste":"trash"}},"type":"Feature"},
	{"geometry":{"coordinates":[19.050954,47.533685],"type":"Point"},"properties":{"osm_id":"7618061387","tag":{"amenity":"waste_basket","colour":"gray","material":"metal","waste":"trash"}},"type":"Feature"},
	{"geometry":{"coordinates":[19.014657,47.522192],"type":"Point"},"properties":{"osm_id":"7663799693","tag":{"amenity":"waste_basket"}},"type":"Feature"},
	{"geometry":{"coordinates":[19.061883,47.570979],"type":"Point"},"properties":{"osm_id":"7734625126","tag":{"amenity":"recycling","recycling:bin":"yes","recycling:mixed":"yes","recycling_type":"container"}},"type":"Feature"},
	{"geometry":{"coordinates":[19.061986,47.571699],"type":"Point"},"properties":{"osm_id":"7734625127","tag":{"amenity":"waste_basket"}},"type":"Feature"},
	{"geometry":{"coordinates":[19.039925,47.529205],"type":"Point"},"properties":{"osm_id":"7738052602","tag":{"amenity":"waste_basket","waste":"dog_excrement"}},"type":"Feature"},
	{"geometry":{"coordinates":[19.03766,47.528025],"type":"Point"},"properties":{"osm_id":"7777570537","tag":{"amenity":"waste_basket"}},"type":"Feature"},
	{"geometry":{"coordinates":[19.037486,47.527715],"type":"Point"},"properties":{"osm_id":"7777570538","tag":{"amenity":"waste_basket"}},"type":"Feature"},
	{"geometry":{"coordinates":[19.036486,47.532607],"type":"Point"},"properties":{"osm_id":"7777570539","tag":{"amenity":"waste_basket"}},"type":"Feature"},
	{"geometry":{"coordinates":[18.984976,47.534517],"type":"Point"},"properties":{"osm_id":"7804159490","tag":{"amenity":"waste_basket"}},"type":"Feature"}
]
}
