{
"type": "FeatureCollection",
"features": [
	{"geometry":{"coordinates":[19.026774,47.45716],"type":"Point"},"properties":{"osm_id":"218147885","tag":{"amenity":"recycling","recycling:glass":"yes","recycling:paper":"yes","recycling:plastic":"yes","recycling_type":"container"}},"type":"Feature"},
	{"geometry":{"coordinates":[19.011665,47.403698],"type":"Point"},"properties":{"osm_id":"729790995","tag":{"amenity":"recycling","recycling_type":"container"}},"type":"Feature"},
	{"geometry":{"coordinates":[19.000882,47.401099],"type":"Point"},"properties":{"osm_id":"1071622229","tag":{"amenity":"recycling","recycling_type":"container"}},"type":"Feature"},
	{"geometry":{"coordinates":[19.036668,47.433791],"type":"Point"},"properties":{"osm_id":"1158703249","tag":{"amenity":"recycling","recycling_type":"container"}},"type":"Feature"},
	{"geometry":{"coordinates":[19.02065,47.429611],"type":"Point"},"properties":{"osm_id":"1158703336","tag":{"amenity":"recycling","recycling:cans":"no","recycling:clothes":"no","recycling:glass_bottles":"yes","recycling:paper":"no","recycling_type":"container"}},"type":"Feature"},
	{"geometry":{"coordinates":[18.996202,47.400538],"type":"Point"},"properties":{"osm_id":"1278479969","tag":{"amenity":"recycling","recycling_type":"container"}},"type":"Feature"},
	{"geometry":{"coordinates":[19.020105,47.407436],"type":"Point"},"properties":{"osm_id":"1344521702","tag":{"amenity":"recycling","recycling_type":"container"}},"type":"Feature"},
	{"geometry":{"coordinates":[19.038113,47.45157],"type":"Point"},"properties":{"osm_id":"1352708813","tag":{"amenity":"recycling","recycling_type":"container"}},"type":"Feature"},
	{"geometry":{"coordinates":[19.067969,47.42087],"type":"Point"},"properties":{"osm_id":"1659139511","tag":{"amenity":"recycling","recycling_type":"container"}},"type":"Feature"},
	{"geometry":{"coordinates":[19.068797,47.421371],"type":"Point"},"properties":{"osm_id":"1659139514","tag":{"amenity":"recycling","recycling_type":"centre"}},"type":"Feature"},
	{"geometry":{"coordinates":[19.066116,47.429468],"type":"Point"},"properties":{"osm_id":"1944705268","tag":{"amenity":"recycling","recycling_type":"container"}},"type":"Feature"},
	{"geometry":{"coordinates":[19.071157,47.434808],"type":"Point"},"properties":{"osm_id":"1985441710","tag":{"amenity":"recycling","recycling_type":"container"}},"type":"Feature"},
	{"geometry":{"coordinates":[19.070346,47.428472],"type":"Point"},"properties":{"osm_id":"1985510375","tag":{"amenity":"recycling","recycling_type":"container"}},"type":"Feature"},
	{"geometry":{"coordinates":[19.071376,47.426936],"type":"Point"},"properties":{"osm_id":"2077851088","tag":{"amenity":"recycling","recycling_type":"container"}},"type":"Feature"},
	{"geometry":{"coordinates":[19.071068,47.42499],"type":"Point"},"properties":{"osm_id":"2207117150","tag":{"amenity":"recycling","recycling_type":"container"}},"type":"Feature"},
	{"geometry":{"coordinates":[19.055364,47.407195],"type":"Point"},"properties":{"osm_id":"2209969089","tag":{"amenity":"recycling","recycling_type":"container"}},"type":"Feature"},
	{"geometry":{"coordinates":[19.070015,47.419942],"type":"Point"},"properties":{"osm_id":"2278349330","tag":{"amenity":"recycling","recycling_type":"container"}},"type":"Feature"},
	{"geometry":{"coordinates":[19.070253,47.418748],"type":"Point"},"properties":{"osm_id":"2285681918","tag":{"amenity":"recycling","recycling_type":"container"}},"type":"Feature"},
	{"geometry":{"coordinates":[19.070985,47.423075],"type":"Point"},"properties":{"osm_id":"2286587937","tag":{"amenity":"recycling","recycling_type":"container"}},"type":"Feature"},
	{"geometry":{"coordinates":[19.070422,47.421961],"type":"Point"},"properties":{"osm_id":"2286639178","tag":{"amenity":"recycling","recycling_type":"container"}},"type":"Feature"},
	{"geometry":{"coordinates":[19.067894,47.413768],"type":"Point"},"properties":{"osm_id":"2298005259","tag":{"amenity":"recycling","recycling_type":"container"}},"type":"Feature"},
	{"geometry":{"coordinates":[19.062205,47.411608],"type":"Point"},"properties":{"osm_id":"2298130056","tag":{"amenity":"recycling","recycling_type":"container"}},"type":"Feature"},
	{"geometry":{"coordinates":[19.030123,47.454305],"type":"Point"},"properties":{"osm_id":"2438947470","tag":{"amenity":"recycling","recycling:glass":"yes","recycling:paper":"yes","recycling:plastic":"yes","recycling:scrap_metal":"yes","recycling_type":"container"}},"type":"Feature"},
	{"geometry":{"coordinates":[19.068577,47.420745],"type":"Point"},"properties":{"osm_id":"2525739446","tag":{"amenity":"waste_basket","waste":"dog_excrement"}},"type":"Feature"},
	{"geometry":{"coordinates":[19.067842,47.415487],"type":"Point"},"properties":{"osm_id":"2610184370","tag":{"amenity":"waste_basket","waste":"dog_excrement"}},"type":"Feature"},
	{"geometry":{"coordinates":[19.059079,47.407396],"type":"Point"},"properties":{"osm_id":"2932905578","tag":{"amenity":"recycling","recycling_type":"container"}},"type":"Feature"},
	{"geometry":{"coordinates":[19.06296,47.408154],"type":"Point"},"properties":{"osm_id":"2932916146","tag":{"amenity":"recycling","recycling_type":"container"}},"type":"Feature"},
	{"geometry":{"coordinates":[19.057305,47.409671],"type":"Point"},"properties":{"osm_id":"2960001196","tag":{"amenity":"recycling","recycling:glass":"yes","recycling:paper":"yes","recycling_type":"container"}},"type":"Feature"},
	{"geometry":{"coordinates":[18.996726,47.413873],"type":"Point"},"properties":{"osm_id":"4159055796","tag":{"amenity":"recycling","recycling_type":"container"}},"type":"Feature"},
	{"geometry":{"coordinates":[19.03192,47.444271],"type":"Point"},"properties":{"osm_id":"4487898860","tag":{"amenity":"waste_basket","vending":"excrement_bags","waste":"dog_excrement"}},"type":"Feature"},
	{"geometry":{"coordinates":[19.031304,47.445129],"type":"Point"},"properties":{"osm_id":"4487898861","tag":{"amenity":"waste_basket","vending":"excrement_bags","waste":"dog_excrement"}},"type":"Feature"},
	{"geometry":{"coordinates":[19.031497,47.445296],"type":"Point"},"properties":{"osm_id":"4487898862","tag":{"amenity":"waste_basket","vending":"excrement_bags","waste":"dog_excrement"}},"type":"Feature"},
	{"geometry":{"coordinates":[19.030851,47.445849],"type":"Point"},"properties":{"osm_id":"4487898863","tag":{"amenity":"waste_basket","vending":"excrement_bags","waste":"dog_excrement"}},"type":"Feature"},
	{"geometry":{"coordinates":[19.030337,47.446606],"type":"Point"},"properties":{"osm_id":"4487898864","tag":{"amenity":"waste_basket","vending":"excrement_bags","waste":"dog_excrement"}},"type":"Feature"},
	{"geometry":{"coordinates":[19.029894,47.447792],"type":"Point"},"properties":{"osm_id":"4487898865","tag":{"amenity":"waste_basket","vending":"excrement_bags","waste":"dog_excrement"}},"type":"Feature"},
	{"geometry":{"coordinates":[19.030775,47.446483],"type":"Point"},"properties":{"osm_id":"4570272872","tag":{"amenity":"waste_basket","vending":"excrement_bags","waste":"dog_excrement"}},"type":"Feature"},
	{"geometry":{"coordinates":[19.034875,47.446827],"type":"Point"},"properties":{"osm_id":"4729722537","tag":{"amenity":"waste_basket"}},"type":"Feature"},
	{"geometry":{"coordinates":[19.034396,47.446763],"type":"Point"},"properties":{"osm_id":"4729722539","tag":{"amenity":"waste_basket"}},"type":"Feature"},
	{"geometry":{"coordinates":[19.035001,47.448236],"type":"Point"},"properties":{"osm_id":"4729722551","tag":{"amenity":"waste_basket"}},"type":"Feature"},
	{"geometry":{"coordinates":[19.032938,47.451632],"type":"Point"},"properties":{"osm_id":"4729722701","tag":{"amenity":"waste_basket"}},"type":"Feature"},
	{"geometry":{"coordinates":[19.032638,47.451731],"type":"Point"},"properties":{"osm_id":"4729722702","tag":{"amenity":"waste_basket"}},"type":"Feature"},
	{"geometry":{"coordinates":[19.032339,47.44405],"type":"Point"},"properties":{"osm_id":"4733008938","tag":{"amenity":"waste_basket"}},"type":"Feature"},
	{"geometry":{"coordinates":[19.032177,47.444197],"type":"Point"},"properties":{"osm_id":"4733008939","tag":{"amenity":"waste_basket"}},"type":"Feature"},
	{"geometry":{"coordinates":[19.029794,47.447459],"type":"Point"},"properties":{"osm_id":"4733008945","tag":{"amenity":"waste_basket","vending":"excrement_bags","waste":"dog_excrement"}},"type":"Feature"},
	{"geometry":{"coordinates":[19.030035,47.447063],"type":"Point"},"properties":{"osm_id":"4733008946","tag":{"amenity":"waste_basket","vending":"excrement_bags","waste":"dog_excrement"}},"type":"Feature"},
	{"geometry":{"coordinates":[19.018439,47.400372],"type":"Point"},"properties":{"osm_id":"5107359030","tag":{"amenity":"recycling","recycling:cans":"yes","recycling:glass_bottles":"yes","recycling:paper":"yes","recycling:plastic_bottles":"yes","recycling:plastic_packaging":"yes","recycling:scrap_metal":"yes","recycling_type":"container"}},"type":"Feature"},
	{"geometry":{"coordinates":[19.036433,47.441645],"type":"Point"},"properties":{"osm_id":"5325554082","tag":{"amenity":"waste_basket"}},"type":"Feature"},
	{"geometry":{"coordinates":[19.067578,47.414982],"type":"Point"},"properties":{"osm_id":"5442967221","tag":{"amenity":"waste_basket","waste":"dog_excrement"}},"type":"Feature"},
	{"geometry":{"coordinates":[19.065858,47.419265],"type":"Point"},"properties":{"name":"Hullad\u00c3\u00a9kgy\u00c5\u00b1jt\u00c5\u0091","osm_id":"5500376085","tag":{"addr:city":"Budapest","addr:housenumber":"144","addr:postcode":"1214","addr:street":"Kossuth Lajos utca","amenity":"waste_basket","website":"https://www.fkf.hu/"}},"type":"Feature"},
	{"geometry":{"coordinates":[19.040195,47.455779],"type":"Point"},"properties":{"osm_id":"5711558871","tag":{"amenity":"waste_basket"}},"type":"Feature"},
	{"geometry":{"coordinates":[19.040153,47.455996],"type":"Point"},"properties":{"osm_id":"5711558873","tag":{"amenity":"waste_basket"}},"type":"Feature"},
	{"geometry":{"coordinates":[19.051432,47.454784],"type":"Point"},"properties":{"osm_id":"5714884661","tag":{"amenity":"waste_basket"}},"type":"Feature"},
	{"geometry":{"coordinates":[19.050451,47.454889],"type":"Point"},"properties":{"osm_id":"5714884662","tag":{"amenity":"waste_basket"}},"type":"Feature"},
	{"geometry":{"coordinates":[19.047526,47.455197],"type":"Point"},"properties":{"osm_id":"5714884663","tag":{"amenity":"waste_basket"}},"type":"Feature"},
	{"geometry":{"coordinates":[19.047117,47.455242],"type":"Point"},"properties":{"osm_id":"5714884664","tag":{"amenity":"waste_basket"}},"type":"Feature"},
	{"geometry":{"coordinates":[19.046579,47.455366],"type":"Point"},"properties":{"osm_id":"5714884665","tag":{"amenity":"waste_basket"}},"type":"Feature"},
	{"geometry":{"coordinates":[19.039735,47.447942],"type":"Point"},"properties":{"osm_id":"5728563441","tag":{"amenity":"waste_basket"}},"type":"Feature"},
	{"geometry":{"coordinates":[19.018096,47.457617],"type":"Point"},"properties":{"osm_id":"5730144387","tag":{"amenity":"waste_basket"}},"type":"Feature"},
	{"geometry":{"coordinates":[19.0168,47.457687],"type":"Point"},"properties":{"osm_id":"5730144393","tag":{"amenity":"waste_basket"}},"type":"Feature"},
	{"geometry":{"coordinates":[19.016513,47.457417],"type":"Point"},"properties":{"osm_id":"5730174262","tag":{"amenity":"waste_basket"}},"type":"Feature"},
	{"geometry":{"coordinates":[19.02196,47.453841],"type":"Point"},"properties":{"osm_id":"5730781318","tag":{"amenity":"waste_basket"}},"type":"Feature"},
	{"geometry":{"coordinates":[19.030039,47.457095],"type":"Point"},"properties":{"osm_id":"5731841524","tag":{"amenity":"waste_basket"}},"type":"Feature"},
	{"geometry":{"coordinates":[19.030122,47.457024],"type":"Point"},"properties":{"osm_id":"5731841525","tag":{"amenity":"waste_basket"}},"type":"Feature"},
	{"geometry":{"coordinates":[19.030077,47.456889],"type":"Point"},"properties":{"osm_id":"5731841527","tag":{"amenity":"waste_basket"}},"type":"Feature"},
	{"geometry":{"coordinates":[19.030748,47.457018],"type":"Point"},"properties":{"osm_id":"5731841529","tag":{"amenity":"waste_basket"}},"type":"Feature"},
	{"geometry":{"coordinates":[19.031251,47.457002],"type":"Point"},"properties":{"osm_id":"5731841531","tag":{"amenity":"waste_basket"}},"type":"Feature"},
	{"geometry":{"coordinates":[19.033635,47.456663],"type":"Point"},"properties":{"osm_id":"5731867569","tag":{"amenity":"waste_basket"}},"type":"Feature"},
	{"geometry":{"coordinates":[19.037363,47.455998],"type":"Point"},"properties":{"osm_id":"5731875151","tag":{"amenity":"waste_basket"}},"type":"Feature"},
	{"geometry":{"coordinates":[19.037993,47.456008],"type":"Point"},"properties":{"osm_id":"5731875153","tag":{"amenity":"waste_basket"}},"type":"Feature"},
	{"geometry":{"coordinates":[19.038186,47.456236],"type":"Point"},"properties":{"osm_id":"5731926144","tag":{"amenity":"waste_basket"}},"type":"Feature"},
	{"geometry":{"coordinates":[19.039593,47.455809],"type":"Point"},"properties":{"osm_id":"5731926145","tag":{"amenity":"waste_basket"}},"type":"Feature"},
	{"geometry":{"coordinates":[19.010525,47.4035],"type":"Point"},"properties":{"osm_id":"5750939794","tag":{"amenity":"waste_basket"}},"type":"Feature"},
	{"geometry":{"coordinates":[19.037375,47.425536],"type":"Point"},"properties":{"osm_id":"5859856943","tag":{"amenity":"waste_basket","waste":"trash"}},"type":"Feature"},
	{"geometry":{"coordinates":[19.039827,47.426434],"type":"Point"},"properties":{"osm_id":"5859856954","tag":{"amenity":"waste_basket","waste":"trash"}},"type":"Feature"},
	{"geometry":{"coordinates":[19.039256,47.426331],"type":"Point"},"properties":{"osm_id":"5859856958","tag":{"amenity":"waste_basket","waste":"trash"}},"type":"Feature"},
	{"geometry":{"coordinates":[19.035996,47.434939],"type":"Point"},"properties":{"osm_id":"6000963134","tag":{"amenity":"waste_basket"}},"type":"Feature"},
	{"geometry":{"coordinates":[19.035525,47.435165],"type":"Point"},"properties":{"osm_id":"6000963138","tag":{"amenity":"waste_basket"}},"type":"Feature"},
	{"geometry":{"coordinates":[19.035553,47.434981],"type":"Point"},"properties":{"osm_id":"6000963139","tag":{"amenity":"waste_basket"}},"type":"Feature"},
	{"geometry":{"coordinates":[19.035679,47.434793],"type":"Point"},"properties":{"osm_id":"6000963140","tag":{"amenity":"waste_basket"}},"type":"Feature"},
	{"geometry":{"coordinates":[19.037502,47.429349],"type":"Point"},"properties":{"osm_id":"6007802617","tag":{"amenity":"waste_basket","colour":"green","waste":"trash"}},"type":"Feature"},
	{"geometry":{"coordinates":[19.004353,47.414711],"type":"Point"},"properties":{"osm_id":"6043571324","tag":{"amenity":"waste_basket"}},"type":"Feature"},
	{"geometry":{"coordinates":[18.998258,47.446355],"type":"Point"},"properties":{"osm_id":"6043697932","tag":{"amenity":"waste_basket"}},"type":"Feature"},
	{"geometry":{"coordinates":[18.998172,47.44627],"type":"Point"},"properties":{"osm_id":"6043697933","tag":{"amenity":"waste_basket"}},"type":"Feature"},
	{"geometry":{"coordinates":[19.011321,47.432679],"type":"Point"},"properties":{"osm_id":"6173563534","tag":{"amenity":"waste_basket","waste":"trash"}},"type":"Feature"},
	{"geometry":{"coordinates":[18.986727,47.444625],"type":"Point"},"properties":{"osm_id":"6183561041","tag":{"amenity":"waste_basket"}},"type":"Feature"},
	{"geometry":{"coordinates":[19.035054,47.442552],"type":"Point"},"properties":{"osm_id":"6222425211","tag":{"amenity":"waste_basket"}},"type":"Feature"},
	{"geometry":{"coordinates":[19.035412,47.444218],"type":"Point"},"properties":{"osm_id":"6222453599","tag":{"amenity":"waste_basket"}},"type":"Feature"},
	{"geometry":{"coordinates":[19.036328,47.444151],"type":"Point"},"properties":{"osm_id":"6222453628","tag":{"amenity":"waste_basket"}},"type":"Feature"},
	{"geometry":{"coordinates":[19.034366,47.444245],"type":"Point"},"properties":{"osm_id":"6222453648","tag":{"amenity":"waste_basket"}},"type":"Feature"},
	{"geometry":{"coordinates":[19.034532,47.445092],"type":"Point"},"properties":{"osm_id":"6222453674","tag":{"amenity":"waste_basket"}},"type":"Feature"},
	{"geometry":{"coordinates":[19.034587,47.445429],"type":"Point"},"properties":{"osm_id":"6222453679","tag":{"amenity":"waste_basket"}},"type":"Feature"},
	{"geometry":{"coordinates":[19.034179,47.443163],"type":"Point"},"properties":{"osm_id":"6222597266","tag":{"amenity":"waste_basket"}},"type":"Feature"},
	{"geometry":{"coordinates":[19.03384,47.444774],"type":"Point"},"properties":{"osm_id":"6222599518","tag":{"amenity":"waste_basket"}},"type":"Feature"},
	{"geometry":{"coordinates":[19.033762,47.445474],"type":"Point"},"properties":{"osm_id":"6222599534","tag":{"amenity":"waste_basket"}},"type":"Feature"},
	{"geometry":{"coordinates":[19.03392,47.445361],"type":"Point"},"properties":{"osm_id":"6222599535","tag":{"amenity":"waste_basket"}},"type":"Feature"},
	{"geometry":{"coordinates":[19.035695,47.446169],"type":"Point"},"properties":{"osm_id":"6222646011","tag":{"amenity":"waste_basket"}},"type":"Feature"},
	{"geometry":{"coordinates":[19.035401,47.445934],"type":"Point"},"properties":{"osm_id":"6222646024","tag":{"amenity":"waste_basket"}},"type":"Feature"},
	{"geometry":{"coordinates":[19.035381,47.445879],"type":"Point"},"properties":{"osm_id":"6222646026","tag":{"amenity":"waste_basket"}},"type":"Feature"},
	{"geometry":{"coordinates":[19.035571,47.445792],"type":"Point"},"properties":{"osm_id":"6222646027","tag":{"amenity":"waste_basket"}},"type":"Feature"},
	{"geometry":{"coordinates":[19.035577,47.445816],"type":"Point"},"properties":{"osm_id":"6222646028","tag":{"amenity":"waste_basket"}},"type":"Feature"},
	{"geometry":{"coordinates":[19.035247,47.445552],"type":"Point"},"properties":{"osm_id":"6222646029","tag":{"amenity":"waste_basket"}},"type":"Feature"},
	{"geometry":{"coordinates":[19.03509,47.444236],"type":"Point"},"properties":{"osm_id":"6222646037","tag":{"amenity":"waste_basket"}},"type":"Feature"},
	{"geometry":{"coordinates":[19.035337,47.44667],"type":"Point"},"properties":{"osm_id":"6247706484","tag":{"amenity":"waste_basket"}},"type":"Feature"},
	{"geometry":{"coordinates":[19.035256,47.446044],"type":"Point"},"properties":{"osm_id":"6247706506","tag":{"amenity":"waste_basket"}},"type":"Feature"},
	{"geometry":{"coordinates":[19.035695,47.445709],"type":"Point"},"properties":{"osm_id":"6247706532","tag":{"amenity":"waste_basket"}},"type":"Feature"},
	{"geometry":{"coordinates":[19.035305,47.446672],"type":"Point"},"properties":{"osm_id":"6247706539","tag":{"amenity":"waste_basket"}},"type":"Feature"},
	{"geometry":{"coordinates":[19.035284,47.446597],"type":"Point"},"properties":{"osm_id":"6247706540","tag":{"amenity":"waste_basket"}},"type":"Feature"},
	{"geometry":{"coordinates":[19.040185,47.441129],"type":"Point"},"properties":{"osm_id":"6255566416","tag":{"amenity":"waste_basket"}},"type":"Feature"},
	{"geometry":{"coordinates":[19.039439,47.441076],"type":"Point"},"properties":{"osm_id":"6255566418","tag":{"amenity":"waste_basket"}},"type":"Feature"},
	{"geometry":{"coordinates":[19.039473,47.441163],"type":"Point"},"properties":{"osm_id":"6255566419","tag":{"amenity":"waste_basket"}},"type":"Feature"},
	{"geometry":{"coordinates":[19.038993,47.441189],"type":"Point"},"properties":{"osm_id":"6255566421","tag":{"amenity":"waste_basket"}},"type":"Feature"},
	{"geometry":{"coordinates":[19.036882,47.441524],"type":"Point"},"properties":{"osm_id":"6255566435","tag":{"amenity":"waste_basket"}},"type":"Feature"},
	{"geometry":{"coordinates":[19.062492,47.436163],"type":"Point"},"properties":{"name":"\u00c3\u0081tv\u00c3\u00a9tel 3d: vas","osm_id":"6281167898","tag":{"amenity":"recycling","recycling:metal":"yes","recycling:scrap_metal":"yes","recycling_type":"centre"}},"type":"Feature"},
	{"geometry":{"coordinates":[19.062897,47.436038],"type":"Point"},"properties":{"name":"\u00c3\u0081tv\u00c3\u00a9tel 3c: elektronika","osm_id":"6281167899","tag":{"amenity":"recycling","recycling:batteries":"yes","recycling:car_batteries":"yes","recycling:chipboard":"yes","recycling:computers":"yes","recycling:electrical_appliances":"yes","recycling:electrical_items":"yes","recycling:small_electrical_appliances":"yes","recycling:tv_monitor":"yes","recycling_type":"centre"}},"type":"Feature"},
	{"geometry":{"coordinates":[19.064414,47.436215],"type":"Point"},"properties":{"name":"\u00c3\u0081tv\u00c3\u00a9tel 3b: elektronika","osm_id":"6281167900","tag":{"amenity":"recycling","recycling:batteries":"yes","recycling:car_batteries":"yes","recycling:chipboard":"yes","recycling:computers":"yes","recycling:electrical_appliances":"yes","recycling:electrical_items":"yes","recycling:small_electrical_appliances":"yes","recycling:tv_monitor":"yes","recycling_type":"centre"}},"type":"Feature"},
	{"geometry":{"coordinates":[19.064426,47.436456],"type":"Point"},"properties":{"name":"\u00c3\u0081tv\u00c3\u00a9tel 3a: alu-sz\u00c3\u00adnesf\u00c3\u00a9m","osm_id":"6281167901","tag":{"amenity":"recycling","recycling:aluminium":"yes","recycling:copper":"yes","recycling_type":"centre"}},"type":"Feature"},
	{"geometry":{"coordinates":[19.064717,47.436096],"type":"Point"},"properties":{"name":"INTER-METAL","osm_id":"6281167956","tag":{"addr:city":"Budapest","addr:housenumber":"5-7","addr:postcode":"1211","addr:street":"Budafoki \u00c3\u00bat","amenity":"recycling","contact:email":"intermetal@intermetal.hu","contact:phone":"+36 1 278 5130","contact:website":"http://www.intermetal.hu","description":"M\u00c3\u0089H hullad\u00c3\u00a9k \u00c3\u00a1tvev\u00c5\u0091 telep","opening_hours":"Mo-Th 08:00-12:00,12:30-16:00; We,Sa 08:00-12:00; Fr 12:30-16:00","operator":"Inter-Metal Recycling Kft","recycling:aluminium":"yes","recycling:batteries":"yes","recycling:car_batteries":"yes","recycling:chipboard":"yes","recycling:computers":"yes","recycling:electrical_appliances":"yes","recycling:electrical_items":"yes","recycling:metal":"yes","recycling:mobile_phones":"yes","recycling:scrap_metal":"yes","recycling:small_electrical_appliances":"yes","recycling:tv_monitor":"yes","recycling_type":"centre","start_date":"2004"}},"type":"Feature"},
	{"geometry":{"coordinates":[19.03686,47.44349],"type":"Point"},"properties":{"osm_id":"6303685588","tag":{"amenity":"waste_basket"}},"type":"Feature"},
	{"geometry":{"coordinates":[19.036731,47.443692],"type":"Point"},"properties":{"osm_id":"6303685603","tag":{"amenity":"waste_basket"}},"type":"Feature"},
	{"geometry":{"coordinates":[19.036703,47.443531],"type":"Point"},"properties":{"osm_id":"6303685605","tag":{"amenity":"waste_basket"}},"type":"Feature"},
	{"geometry":{"coordinates":[19.036874,47.443628],"type":"Point"},"properties":{"osm_id":"6303685606","tag":{"amenity":"waste_basket"}},"type":"Feature"},
	{"geometry":{"coordinates":[19.036895,47.443752],"type":"Point"},"properties":{"osm_id":"6303685609","tag":{"amenity":"waste_basket"}},"type":"Feature"},
	{"geometry":{"coordinates":[19.036602,47.441954],"type":"Point"},"properties":{"osm_id":"6303797623","tag":{"amenity":"waste_basket"}},"type":"Feature"},
	{"geometry":{"coordinates":[19.036554,47.441671],"type":"Point"},"properties":{"osm_id":"6303797629","tag":{"amenity":"waste_basket"}},"type":"Feature"},
	{"geometry":{"coordinates":[19.036528,47.441515],"type":"Point"},"properties":{"osm_id":"6303797632","tag":{"amenity":"waste_basket"}},"type":"Feature"},
	{"geometry":{"coordinates":[19.037056,47.438255],"type":"Point"},"properties":{"highway":"street_lamp","osm_id":"6303797681","tag":{"amenity":"waste_basket"}},"type":"Feature"},
	{"geometry":{"coordinates":[19.010935,47.432645],"type":"Point"},"properties":{"osm_id":"6418580916","tag":{"amenity":"waste_basket","waste":"trash"}},"type":"Feature"},
	{"geometry":{"coordinates":[19.039005,47.426915],"type":"Point"},"properties":{"osm_id":"6648336206","tag":{"amenity":"waste_basket","colour":"green","waste":"trash"}},"type":"Feature"},
	{"geometry":{"coordinates":[19.038749,47.427381],"type":"Point"},"properties":{"osm_id":"6648336212","tag":{"amenity":"waste_basket","colour":"green","waste":"trash"}},"type":"Feature"},
	{"geometry":{"coordinates":[19.038182,47.427372],"type":"Point"},"properties":{"osm_id":"6648336231","tag":{"amenity":"waste_basket","colour":"green","waste":"trash"}},"type":"Feature"},
	{"geometry":{"coordinates":[19.019937,47.442393],"type":"Point"},"properties":{"osm_id":"6677932916","tag":{"amenity":"waste_basket","waste":"trash"}},"type":"Feature"},
	{"geometry":{"coordinates":[19.008417,47.445862],"type":"Point"},"properties":{"osm_id":"6677932932","tag":{"amenity":"waste_basket","colour":"green","waste":"trash"}},"type":"Feature"},
	{"geometry":{"coordinates":[19.001249,47.416685],"type":"Point"},"properties":{"osm_id":"6700381883","tag":{"amenity":"waste_basket"}},"type":"Feature"},
	{"geometry":{"coordinates":[19.052342,47.454812],"type":"Point"},"properties":{"name":"M\u00c3\u0089H","osm_id":"6744419815","tag":{"addr:city":"Budapest","addr:housenumber":"52","addr:postcode":"1117","addr:street":"Galvani utca","amenity":"recycling","recycling_type":"centre"}},"type":"Feature"},
	{"geometry":{"coordinates":[19.040017,47.426947],"type":"Point"},"properties":{"osm_id":"6813132644","tag":{"amenity":"waste_basket","colour":"green","waste":"trash"}},"type":"Feature"},
	{"geometry":{"coordinates":[19.038427,47.428983],"type":"Point"},"properties":{"osm_id":"6886873668","tag":{"amenity":"waste_basket"}},"type":"Feature"},
	{"geometry":{"coordinates":[19.038663,47.428996],"type":"Point"},"properties":{"osm_id":"6886873670","tag":{"amenity":"waste_basket"}},"type":"Feature"},
	{"geometry":{"coordinates":[19.038154,47.42903],"type":"Point"},"properties":{"osm_id":"6886873674","tag":{"amenity":"waste_basket"}},"type":"Feature"},
	{"geometry":{"coordinates":[19.039909,47.42102],"type":"Point"},"properties":{"osm_id":"6892768169","tag":{"amenity":"waste_basket","waste":"trash"}},"type":"Feature"},
	{"geometry":{"coordinates":[19.027653,47.432672],"type":"Point"},"properties":{"osm_id":"7023169712","tag":{"amenity":"waste_basket","waste":"trash"}},"type":"Feature"},
	{"geometry":{"coordinates":[19.027649,47.432668],"type":"Point"},"properties":{"osm_id":"7023169713","tag":{"amenity":"recycling","recycling:paper":"yes","recycling:scrap_metal":"yes","recycling_type":"container"}},"type":"Feature"},
	{"geometry":{"coordinates":[19.026688,47.433136],"type":"Point"},"properties":{"osm_id":"7023169722","tag":{"amenity":"waste_basket","waste":"dog_excrement"}},"type":"Feature"},
	{"geometry":{"coordinates":[19.026488,47.433122],"type":"Point"},"properties":{"osm_id":"7023169723","tag":{"amenity":"waste_basket","waste":"trash"}},"type":"Feature"},
	{"geometry":{"coordinates":[19.021202,47.449092],"type":"Point"},"properties":{"osm_id":"7448725245","tag":{"amenity":"waste_basket"}},"type":"Feature"},
	{"geometry":{"coordinates":[19.020814,47.450716],"type":"Point"},"properties":{"osm_id":"7469397053","tag":{"amenity":"waste_basket"}},"type":"Feature"},
	{"geometry":{"coordinates":[19.040797,47.428629],"type":"Point"},"properties":{"osm_id":"7474302446","tag":{"amenity":"waste_basket","waste":"trash"}},"type":"Feature"},
	{"geometry":{"coordinates":[19.040711,47.429085],"type":"Point"},"properties":{"osm_id":"7474302447","tag":{"amenity":"waste_basket","waste":"trash"}},"type":"Feature"},
	{"geometry":{"coordinates":[19.03955,47.440869],"type":"Point"},"properties":{"osm_id":"7567114805","tag":{"amenity":"waste_basket"}},"type":"Feature"},
	{"geometry":{"coordinates":[19.009954,47.446189],"type":"Point"},"properties":{"osm_id":"7743816917","tag":{"amenity":"waste_basket","waste":"trash"}},"type":"Feature"},
	{"geometry":{"coordinates":[19.029906,47.415613],"type":"Point"},"properties":{"osm_id":"7776254492","tag":{"amenity":"waste_basket","material":"metal","waste":"dog_excrement"}},"type":"Feature"},
	{"geometry":{"coordinates":[19.032766,47.41433],"type":"Point"},"properties":{"osm_id":"7776254537","tag":{"amenity":"waste_basket","colour":"green","material":"plastic","waste":"trash"}},"type":"Feature"},
	{"geometry":{"coordinates":[19.032057,47.412937],"type":"Point"},"properties":{"osm_id":"7776254640","tag":{"amenity":"waste_basket","colour":"gray","material":"metal","waste":"trash"}},"type":"Feature"},
	{"geometry":{"coordinates":[19.006762,47.449482],"type":"Point"},"properties":{"osm_id":"7939993451","tag":{"amenity":"waste_basket","waste":"trash"}},"type":"Feature"}
]
}
