{
"type": "FeatureCollection",
"features": [
	{"geometry":{"coordinates":[166.446806,-22.226979],"type":"Point"},"properties":{"name":"EMC Recyclage","osm_id":"1202830206","tag":{"addr:city":"Noum\u00e9a","addr:housenumber":"14","addr:postcode":"98800","addr:street":"Avenue de la Baie de Koutio","amenity":"recycling","description":"Traitement et valorisation des d\u00e9chets m\u00e9talliques Location de bennes \u00e0 d\u00e9chets Collecte tous types de d\u00e9chets Rachat de la ferraille et des m\u00e9taux non ferreux Assainissement d'anciens sites industriels Gestion globale des d\u00e9chets Certifi\u00e9 ISO 9001 : 2008","email":"secretariat@emc.nc","fax":"+687 26 99 89","phone":"+687 26 02 60","recycling_type":"centre","website":"https://www.emc.nc/"}},"type":"Feature"},
	{"geometry":{"coordinates":[166.450919,-22.230054],"type":"Point"},"properties":{"name":"CSP de Ducos","osm_id":"1202839747","tag":{"amenity":"recycling"}},"type":"Feature"},
	{"geometry":{"coordinates":[166.401398,-22.263062],"type":"Point"},"properties":{"osm_id":"2176649029","tag":{"amenity":"recycling"}},"type":"Feature"},
	{"geometry":{"coordinates":[166.45071,-22.264144],"type":"Point"},"properties":{"name":"Point d'Apport Volontaire","osm_id":"4306389107","tag":{"amenity":"recycling","location":"overground","recycling_type":"container"}},"type":"Feature"},
	{"geometry":{"coordinates":[166.43901,-22.225715],"type":"Point"},"properties":{"name":"Star Pacifique","osm_id":"5102140740","tag":{"amenity":"recycling","email":"admin.di@star.nc","fax":"+687 24 48 43","phone":"+687 24 48 44","recycling_type":"centre"}},"type":"Feature"},
	{"geometry":{"coordinates":[166.447637,-22.227313],"type":"Point"},"properties":{"name":"ETV","osm_id":"5102212222","tag":{"addr:city":"Noum\u00e9a","addr:housenumber":"10","addr:postcode":"98800","addr:street":"Avenue de la Baie de Koutio","amenity":"recycling","phone":"+687 23 83 83","recycling_type":"centre"}},"type":"Feature"},
	{"geometry":{"coordinates":[166.452649,-22.237512],"type":"Point"},"properties":{"osm_id":"5629046933","tag":{"amenity":"waste_disposal","operator":"Locabennes"}},"type":"Feature"},
	{"geometry":{"coordinates":[166.442757,-22.235482],"type":"Point"},"properties":{"osm_id":"5629082321","tag":{"amenity":"waste_disposal","operator":"Eco Recycle"}},"type":"Feature"},
	{"geometry":{"coordinates":[166.43793,-22.268009],"type":"Point"},"properties":{"osm_id":"6080667099","tag":{"amenity":"waste_basket","waste":"trash"}},"type":"Feature"},
	{"geometry":{"coordinates":[166.437916,-22.267833],"type":"Point"},"properties":{"osm_id":"6080667313","tag":{"amenity":"waste_basket","waste":"trash"}},"type":"Feature"},
	{"geometry":{"coordinates":[166.43794,-22.268053],"type":"Point"},"properties":{"osm_id":"6080667338","tag":{"amenity":"waste_basket","waste":"trash"}},"type":"Feature"},
	{"geometry":{"coordinates":[166.442483,-22.235265],"type":"Point"},"properties":{"name":"Eco recycle","osm_id":"7588690685","tag":{"amenity":"recycling","phone":"902446"}},"type":"Feature"}
]
}
