{
"type": "FeatureCollection",
"features": [
	{"geometry":{"coordinates":[166.447766,-22.273737],"type":"Point"},"properties":{"osm_id":"806511128","tag":{"amenity":"waste_basket"}},"type":"Feature"},
	{"geometry":{"coordinates":[166.447964,-22.273739],"type":"Point"},"properties":{"osm_id":"806511132","tag":{"amenity":"waste_basket"}},"type":"Feature"},
	{"geometry":{"coordinates":[166.445614,-22.274121],"type":"Point"},"properties":{"osm_id":"806511147","tag":{"amenity":"waste_basket"}},"type":"Feature"},
	{"geometry":{"coordinates":[166.447394,-22.273745],"type":"Point"},"properties":{"osm_id":"806511149","tag":{"amenity":"waste_basket"}},"type":"Feature"},
	{"geometry":{"coordinates":[166.447441,-22.274565],"type":"Point"},"properties":{"osm_id":"806511151","tag":{"amenity":"waste_basket"}},"type":"Feature"},
	{"geometry":{"coordinates":[166.448037,-22.274471],"type":"Point"},"properties":{"osm_id":"806511157","tag":{"amenity":"waste_basket"}},"type":"Feature"},
	{"geometry":{"coordinates":[166.443805,-22.274253],"type":"Point"},"properties":{"osm_id":"806511166","tag":{"amenity":"waste_basket"}},"type":"Feature"},
	{"geometry":{"coordinates":[166.442872,-22.273596],"type":"Point"},"properties":{"osm_id":"806511168","tag":{"amenity":"waste_basket"}},"type":"Feature"},
	{"geometry":{"coordinates":[166.44679,-22.273835],"type":"Point"},"properties":{"osm_id":"806511172","tag":{"amenity":"waste_basket"}},"type":"Feature"},
	{"geometry":{"coordinates":[166.445764,-22.291553],"type":"Point"},"properties":{"osm_id":"824299513","tag":{"amenity":"waste_basket"}},"type":"Feature"},
	{"geometry":{"coordinates":[166.445936,-22.291614],"type":"Point"},"properties":{"osm_id":"824299591","tag":{"amenity":"waste_basket"}},"type":"Feature"},
	{"geometry":{"coordinates":[166.445367,-22.278394],"type":"Point"},"properties":{"osm_id":"1240662241","tag":{"amenity":"recycling"}},"type":"Feature"},
	{"geometry":{"coordinates":[166.45187,-22.288195],"type":"Point"},"properties":{"name":"PAV Tuband","osm_id":"1637391079","tag":{"amenity":"recycling","recycling:books":"yes","recycling:cardboard":"yes","recycling:cartons":"yes","recycling:glass_bottles":"yes","recycling_type":"container"}},"type":"Feature"},
	{"geometry":{"coordinates":[166.457085,-22.309948],"type":"Point"},"properties":{"osm_id":"2640580804","tag":{"amenity":"waste_basket"}},"type":"Feature"},
	{"geometry":{"coordinates":[166.455675,-22.310652],"type":"Point"},"properties":{"osm_id":"2640580816","tag":{"amenity":"waste_basket"}},"type":"Feature"},
	{"geometry":{"coordinates":[166.454243,-22.310897],"type":"Point"},"properties":{"osm_id":"2640580831","tag":{"amenity":"waste_basket"}},"type":"Feature"},
	{"geometry":{"coordinates":[166.45429,-22.310869],"type":"Point"},"properties":{"osm_id":"2640580837","tag":{"amenity":"waste_basket"}},"type":"Feature"},
	{"geometry":{"coordinates":[166.457685,-22.307786],"type":"Point"},"properties":{"osm_id":"2640580857","tag":{"amenity":"waste_basket"}},"type":"Feature"},
	{"geometry":{"coordinates":[166.456322,-22.307539],"type":"Point"},"properties":{"osm_id":"2640580910","tag":{"amenity":"waste_basket"}},"type":"Feature"},
	{"geometry":{"coordinates":[166.456862,-22.309415],"type":"Point"},"properties":{"osm_id":"2640580916","tag":{"amenity":"waste_basket"}},"type":"Feature"},
	{"geometry":{"coordinates":[166.460607,-22.306972],"type":"Point"},"properties":{"osm_id":"2640580930","tag":{"amenity":"waste_basket"}},"type":"Feature"},
	{"geometry":{"coordinates":[166.458569,-22.309798],"type":"Point"},"properties":{"osm_id":"2647128354","tag":{"amenity":"waste_basket"}},"type":"Feature"},
	{"geometry":{"coordinates":[166.458579,-22.309129],"type":"Point"},"properties":{"osm_id":"2647128357","tag":{"amenity":"waste_basket"}},"type":"Feature"},
	{"geometry":{"coordinates":[166.454592,-22.310298],"type":"Point"},"properties":{"osm_id":"2647128398","tag":{"amenity":"waste_basket"}},"type":"Feature"},
	{"geometry":{"coordinates":[166.451091,-22.304582],"type":"Point"},"properties":{"osm_id":"2647128422","tag":{"amenity":"waste_basket"}},"type":"Feature"},
	{"geometry":{"coordinates":[166.451335,-22.305443],"type":"Point"},"properties":{"osm_id":"2647128423","tag":{"amenity":"waste_basket"}},"type":"Feature"},
	{"geometry":{"coordinates":[166.440258,-22.271038],"type":"Point"},"properties":{"osm_id":"5507191424","tag":{"amenity":"waste_basket"}},"type":"Feature"},
	{"geometry":{"coordinates":[166.440495,-22.271235],"type":"Point"},"properties":{"osm_id":"5507191436","tag":{"amenity":"waste_basket"}},"type":"Feature"},
	{"geometry":{"coordinates":[166.442938,-22.270907],"type":"Point"},"properties":{"osm_id":"5524110256","tag":{"amenity":"waste_basket"}},"type":"Feature"},
	{"geometry":{"coordinates":[166.440265,-22.271162],"type":"Point"},"properties":{"osm_id":"6765491394","tag":{"amenity":"waste_basket"}},"type":"Feature"},
	{"geometry":{"coordinates":[166.440167,-22.271327],"type":"Point"},"properties":{"osm_id":"6765491410","tag":{"amenity":"waste_basket"}},"type":"Feature"},
	{"geometry":{"coordinates":[166.440041,-22.271557],"type":"Point"},"properties":{"osm_id":"6765491411","tag":{"amenity":"waste_basket"}},"type":"Feature"},
	{"geometry":{"coordinates":[166.440326,-22.271488],"type":"Point"},"properties":{"osm_id":"6765491412","tag":{"amenity":"waste_basket"}},"type":"Feature"},
	{"geometry":{"coordinates":[166.439933,-22.27092],"type":"Point"},"properties":{"osm_id":"6765491440","tag":{"amenity":"waste_basket"}},"type":"Feature"},
	{"geometry":{"coordinates":[166.439989,-22.270869],"type":"Point"},"properties":{"osm_id":"6765491441","tag":{"amenity":"waste_basket"}},"type":"Feature"},
	{"geometry":{"coordinates":[166.4646,-22.269684],"type":"Point"},"properties":{"osm_id":"6884101107","tag":{"amenity":"recycling"}},"type":"Feature"}
]
}
