{
"type": "FeatureCollection",
"features": [
	{"geometry":{"coordinates":[49.711519,52.982847],"type":"Point"},"properties":{"osm_id":"1550258336","tag":{"amenity":"waste_basket","start_date":"2014-05"}},"type":"Feature"},
	{"geometry":{"coordinates":[49.710451,52.980434],"type":"Point"},"properties":{"osm_id":"1619064676","tag":{"amenity":"waste_disposal"}},"type":"Feature"},
	{"geometry":{"coordinates":[49.707361,52.985522],"type":"Point"},"properties":{"osm_id":"1634376426","tag":{"amenity":"waste_disposal"}},"type":"Feature"},
	{"geometry":{"coordinates":[49.715139,52.990706],"type":"Point"},"properties":{"osm_id":"1634376893","tag":{"amenity":"waste_disposal"}},"type":"Feature"},
	{"geometry":{"coordinates":[49.709674,52.99095],"type":"Point"},"properties":{"osm_id":"1648256935","tag":{"amenity":"waste_disposal"}},"type":"Feature"},
	{"geometry":{"coordinates":[49.714234,52.977639],"type":"Point"},"properties":{"osm_id":"1648709820","tag":{"amenity":"waste_disposal"}},"type":"Feature"},
	{"geometry":{"coordinates":[49.711793,52.975624],"type":"Point"},"properties":{"osm_id":"1659260032","tag":{"amenity":"waste_disposal"}},"type":"Feature"},
	{"geometry":{"coordinates":[49.702253,52.970468],"type":"Point"},"properties":{"osm_id":"1676761116","tag":{"amenity":"waste_disposal"}},"type":"Feature"},
	{"geometry":{"coordinates":[49.704663,52.971225],"type":"Point"},"properties":{"osm_id":"1676761135","tag":{"amenity":"waste_disposal"}},"type":"Feature"},
	{"geometry":{"coordinates":[49.70336,52.973261],"type":"Point"},"properties":{"osm_id":"1676761186","tag":{"amenity":"waste_disposal"}},"type":"Feature"},
	{"geometry":{"coordinates":[49.705422,52.973669],"type":"Point"},"properties":{"osm_id":"1676761205","tag":{"amenity":"waste_disposal"}},"type":"Feature"},
	{"geometry":{"coordinates":[49.706358,52.972588],"type":"Point"},"properties":{"osm_id":"1694690307","tag":{"amenity":"waste_disposal"}},"type":"Feature"},
	{"geometry":{"coordinates":[49.721376,52.984682],"type":"Point"},"properties":{"osm_id":"1699559099","tag":{"amenity":"waste_disposal"}},"type":"Feature"},
	{"geometry":{"coordinates":[49.716419,52.98662],"type":"Point"},"properties":{"osm_id":"1718396299","tag":{"amenity":"waste_disposal"}},"type":"Feature"},
	{"geometry":{"coordinates":[49.722972,52.987157],"type":"Point"},"properties":{"osm_id":"1722087238","tag":{"amenity":"waste_disposal"}},"type":"Feature"},
	{"geometry":{"coordinates":[49.719472,52.982713],"type":"Point"},"properties":{"osm_id":"1724021308","tag":{"amenity":"waste_disposal"}},"type":"Feature"},
	{"geometry":{"coordinates":[49.715806,52.983728],"type":"Point"},"properties":{"osm_id":"1724021424","tag":{"amenity":"waste_disposal"}},"type":"Feature"},
	{"geometry":{"coordinates":[49.68875,52.962807],"type":"Point"},"properties":{"osm_id":"1755883219","tag":{"amenity":"waste_disposal"}},"type":"Feature"},
	{"geometry":{"coordinates":[49.703919,52.969672],"type":"Point"},"properties":{"osm_id":"1757710285","tag":{"amenity":"waste_basket"}},"type":"Feature"},
	{"geometry":{"coordinates":[49.704083,52.969856],"type":"Point"},"properties":{"osm_id":"1757710295","tag":{"amenity":"waste_basket"}},"type":"Feature"},
	{"geometry":{"coordinates":[49.696364,52.962592],"type":"Point"},"properties":{"osm_id":"1757710532","tag":{"amenity":"waste_basket"}},"type":"Feature"},
	{"geometry":{"coordinates":[49.707929,52.973376],"type":"Point"},"properties":{"osm_id":"1757710542","tag":{"amenity":"waste_basket"}},"type":"Feature"},
	{"geometry":{"coordinates":[49.696565,52.962781],"type":"Point"},"properties":{"osm_id":"1757710550","tag":{"amenity":"waste_basket"}},"type":"Feature"},
	{"geometry":{"coordinates":[49.710205,52.975493],"type":"Point"},"properties":{"osm_id":"1757710597","tag":{"amenity":"waste_basket"}},"type":"Feature"},
	{"geometry":{"coordinates":[49.710231,52.975307],"type":"Point"},"properties":{"osm_id":"1795292656","tag":{"amenity":"waste_basket"}},"type":"Feature"},
	{"geometry":{"coordinates":[49.710048,52.975372],"type":"Point"},"properties":{"osm_id":"1795292658","tag":{"amenity":"waste_basket"}},"type":"Feature"},
	{"geometry":{"coordinates":[49.712735,52.977435],"type":"Point"},"properties":{"osm_id":"1795292664","tag":{"amenity":"waste_basket"}},"type":"Feature"},
	{"geometry":{"coordinates":[49.711768,52.977853],"type":"Point"},"properties":{"osm_id":"2124194101","tag":{"amenity":"waste_basket"}},"type":"Feature"},
	{"geometry":{"coordinates":[49.712073,52.978016],"type":"Point"},"properties":{"osm_id":"2124194103","tag":{"amenity":"waste_basket"}},"type":"Feature"},
	{"geometry":{"coordinates":[49.711752,52.978128],"type":"Point"},"properties":{"osm_id":"2124194104","tag":{"amenity":"waste_basket"}},"type":"Feature"},
	{"geometry":{"coordinates":[49.699284,52.984604],"type":"Point"},"properties":{"osm_id":"2124194218","tag":{"amenity":"waste_disposal"}},"type":"Feature"},
	{"geometry":{"coordinates":[49.700774,52.986041],"type":"Point"},"properties":{"osm_id":"2124194263","tag":{"amenity":"waste_disposal"}},"type":"Feature"},
	{"geometry":{"coordinates":[49.698609,52.987767],"type":"Point"},"properties":{"osm_id":"2136230695","tag":{"amenity":"waste_disposal"}},"type":"Feature"},
	{"geometry":{"coordinates":[49.709694,52.979419],"type":"Point"},"properties":{"name":"\u00d0\u0092\u00d1\u008b\u00d0\u00b2\u00d0\u00be\u00d0\u00b7 \u00d0\u00b8 \u00d0\u00b7\u00d0\u00b0\u00d1\u0085\u00d1\u0080\u00d0\u00be\u00d0\u00bd\u00d0\u00b5\u00d0\u00bd\u00d0\u00b8\u00d0\u00b5 \u00d0\u00be\u00d1\u0082\u00d1\u0085\u00d0\u00be\u00d0\u00b4\u00d0\u00be\u00d0\u00b2","osm_id":"2137571243","tag":{"amenity":"recycling","office":"company","phone":"+7 846 3921410","recycling:low_energy_bulbs":"yes","recycling_type":"centre","short_name":"\u00d0\u0092\u00d0\u00b8\u00d0\u0097\u00d0\u009e"}},"type":"Feature"},
	{"geometry":{"coordinates":[49.700527,52.988402],"type":"Point"},"properties":{"osm_id":"2137571294","tag":{"amenity":"waste_disposal"}},"type":"Feature"},
	{"geometry":{"coordinates":[49.694105,52.988724],"type":"Point"},"properties":{"osm_id":"2137571308","tag":{"amenity":"waste_disposal"}},"type":"Feature"},
	{"geometry":{"coordinates":[49.700474,52.989779],"type":"Point"},"properties":{"osm_id":"2137571334","tag":{"amenity":"waste_disposal"}},"type":"Feature"},
	{"geometry":{"coordinates":[49.713247,52.977298],"type":"Point"},"properties":{"osm_id":"2280349751","tag":{"amenity":"waste_basket"}},"type":"Feature"},
	{"geometry":{"coordinates":[49.701384,52.96724],"type":"Point"},"properties":{"osm_id":"2357183061","tag":{"amenity":"waste_basket"}},"type":"Feature"},
	{"geometry":{"coordinates":[49.695574,52.970018],"type":"Point"},"properties":{"name":"\u00d0\u0090\u00d0\u00b2\u00d1\u0082\u00d0\u00be\u00d1\u0080\u00d0\u00b5\u00d1\u0086\u00d0\u00b8\u00d0\u00ba\u00d0\u00bb\u00d0\u00b8\u00d0\u00bd\u00d0\u00b3","osm_id":"2361305451","tag":{"amenity":"recycling","office":"company","phone":"+7 927 9080874","recycling:cars":"yes","recycling:scrap_metal":"yes","recycling_type":"centre"}},"type":"Feature"},
	{"geometry":{"coordinates":[49.710995,52.976441],"type":"Point"},"properties":{"name":"\u00d0\u00a1\u00d0\u00b5\u00d0\u00bc\u00d1\u008c+\u00d0\u00af","osm_id":"2361305459","tag":{"amenity":"recycling","opening_hours":"Mo-Su 09:00-20:00","payment:android_pay":"yes","payment:apple_pay":"yes","payment:contactless":"yes","payment:mastercard":"yes","payment:mir":"yes","payment:samsung_pay":"yes","payment:unionpay":"yes","payment:visa":"yes","phone":"+7 927 7534642","recycling:batteries":"yes","recycling_type":"centre","shop":"chemist","website":"https://7mya.ru/"}},"type":"Feature"},
	{"geometry":{"coordinates":[49.71101,52.975664],"type":"Point"},"properties":{"osm_id":"2361305481","tag":{"amenity":"waste_basket"}},"type":"Feature"},
	{"geometry":{"coordinates":[49.707528,52.972053],"type":"Point"},"properties":{"osm_id":"2505969303","tag":{"amenity":"waste_disposal"}},"type":"Feature"},
	{"geometry":{"coordinates":[49.708865,52.980308],"type":"Point"},"properties":{"osm_id":"2505969563","tag":{"amenity":"waste_basket"}},"type":"Feature"},
	{"geometry":{"coordinates":[49.708406,52.979884],"type":"Point"},"properties":{"osm_id":"2505969576","tag":{"amenity":"waste_basket"}},"type":"Feature"},
	{"geometry":{"coordinates":[49.708336,52.97982],"type":"Point"},"properties":{"osm_id":"2505969577","tag":{"amenity":"waste_basket"}},"type":"Feature"},
	{"geometry":{"coordinates":[49.70243,52.972652],"type":"Point"},"properties":{"osm_id":"2595006958","tag":{"amenity":"waste_basket"}},"type":"Feature"},
	{"geometry":{"coordinates":[49.702137,52.972766],"type":"Point"},"properties":{"osm_id":"2595006961","tag":{"amenity":"waste_basket"}},"type":"Feature"},
	{"geometry":{"coordinates":[49.70183,52.972874],"type":"Point"},"properties":{"osm_id":"2595006964","tag":{"amenity":"waste_basket"}},"type":"Feature"},
	{"geometry":{"coordinates":[49.703192,52.974935],"type":"Point"},"properties":{"osm_id":"2595006967","tag":{"amenity":"waste_basket","start_date":"2014-05"}},"type":"Feature"},
	{"geometry":{"coordinates":[49.7177,52.983413],"type":"Point"},"properties":{"osm_id":"2668464109","tag":{"amenity":"waste_basket"}},"type":"Feature"},
	{"geometry":{"coordinates":[49.715721,52.986809],"type":"Point"},"properties":{"osm_id":"2706594271","tag":{"amenity":"waste_basket"}},"type":"Feature"},
	{"geometry":{"coordinates":[49.71618,52.987267],"type":"Point"},"properties":{"osm_id":"2706594275","tag":{"amenity":"waste_basket"}},"type":"Feature"},
	{"geometry":{"coordinates":[49.712207,52.978884],"type":"Point"},"properties":{"osm_id":"2713780241","tag":{"amenity":"waste_disposal"}},"type":"Feature"},
	{"geometry":{"coordinates":[49.712841,52.979703],"type":"Point"},"properties":{"osm_id":"2713780308","tag":{"amenity":"waste_disposal"}},"type":"Feature"},
	{"geometry":{"coordinates":[49.710035,52.979736],"type":"Point"},"properties":{"osm_id":"2713780311","tag":{"amenity":"waste_disposal"}},"type":"Feature"},
	{"geometry":{"coordinates":[49.709736,52.973809],"type":"Point"},"properties":{"osm_id":"2717032241","tag":{"amenity":"waste_disposal"}},"type":"Feature"},
	{"geometry":{"coordinates":[49.694471,52.9851],"type":"Point"},"properties":{"osm_id":"2777311061","tag":{"amenity":"waste_disposal"}},"type":"Feature"},
	{"geometry":{"coordinates":[49.667611,53.00012],"type":"Point"},"properties":{"osm_id":"2803852253","tag":{"amenity":"waste_disposal"}},"type":"Feature"},
	{"geometry":{"coordinates":[49.7009,52.971932],"type":"Point"},"properties":{"osm_id":"2813124678","tag":{"amenity":"waste_basket"}},"type":"Feature"},
	{"geometry":{"coordinates":[49.700581,52.972044],"type":"Point"},"properties":{"osm_id":"2813124680","tag":{"amenity":"waste_basket"}},"type":"Feature"},
	{"geometry":{"coordinates":[49.701089,52.972117],"type":"Point"},"properties":{"osm_id":"2813124682","tag":{"amenity":"waste_basket"}},"type":"Feature"},
	{"geometry":{"coordinates":[49.700767,52.972234],"type":"Point"},"properties":{"osm_id":"2813124684","tag":{"amenity":"waste_basket"}},"type":"Feature"},
	{"geometry":{"coordinates":[49.701256,52.97228],"type":"Point"},"properties":{"osm_id":"2813124685","tag":{"amenity":"waste_basket"}},"type":"Feature"},
	{"geometry":{"coordinates":[49.70112,52.972352],"type":"Point"},"properties":{"osm_id":"2813124689","tag":{"amenity":"waste_basket"}},"type":"Feature"},
	{"geometry":{"coordinates":[49.700945,52.9724],"type":"Point"},"properties":{"osm_id":"2813124691","tag":{"amenity":"waste_basket"}},"type":"Feature"},
	{"geometry":{"coordinates":[49.703116,52.97484],"type":"Point"},"properties":{"osm_id":"2885173786","tag":{"amenity":"waste_basket","start_date":"2014-05"}},"type":"Feature"},
	{"geometry":{"coordinates":[49.705525,52.977127],"type":"Point"},"properties":{"osm_id":"2885175819","tag":{"amenity":"waste_basket","start_date":"2014-05"}},"type":"Feature"},
	{"geometry":{"coordinates":[49.713373,52.977246],"type":"Point"},"properties":{"osm_id":"2885175822","tag":{"amenity":"waste_basket"}},"type":"Feature"},
	{"geometry":{"coordinates":[49.713104,52.977342],"type":"Point"},"properties":{"osm_id":"2885175830","tag":{"amenity":"waste_basket"}},"type":"Feature"},
	{"geometry":{"coordinates":[49.705749,52.977364],"type":"Point"},"properties":{"osm_id":"2885175833","tag":{"amenity":"waste_basket"}},"type":"Feature"},
	{"geometry":{"coordinates":[49.711973,52.978107],"type":"Point"},"properties":{"osm_id":"2885175839","tag":{"amenity":"waste_basket"}},"type":"Feature"},
	{"geometry":{"coordinates":[49.711442,52.978238],"type":"Point"},"properties":{"osm_id":"2885175842","tag":{"amenity":"waste_basket"}},"type":"Feature"},
	{"geometry":{"coordinates":[49.71126,52.978304],"type":"Point"},"properties":{"osm_id":"2885175844","tag":{"amenity":"waste_basket"}},"type":"Feature"},
	{"geometry":{"coordinates":[49.711024,52.978399],"type":"Point"},"properties":{"osm_id":"2885175846","tag":{"amenity":"waste_basket"}},"type":"Feature"},
	{"geometry":{"coordinates":[49.708006,52.979439],"type":"Point"},"properties":{"osm_id":"2885175853","tag":{"amenity":"waste_basket","start_date":"2014-05"}},"type":"Feature"},
	{"geometry":{"coordinates":[49.708083,52.979541],"type":"Point"},"properties":{"osm_id":"2885175857","tag":{"amenity":"waste_basket","start_date":"2014-05"}},"type":"Feature"},
	{"geometry":{"coordinates":[49.709154,52.980516],"type":"Point"},"properties":{"osm_id":"2885175858","tag":{"amenity":"waste_basket","start_date":"2014-05"}},"type":"Feature"},
	{"geometry":{"coordinates":[49.709266,52.980701],"type":"Point"},"properties":{"osm_id":"2885175859","tag":{"amenity":"waste_basket","start_date":"2014-05"}},"type":"Feature"},
	{"geometry":{"coordinates":[49.709817,52.981248],"type":"Point"},"properties":{"osm_id":"2885175860","tag":{"amenity":"waste_basket"}},"type":"Feature"},
	{"geometry":{"coordinates":[49.709838,52.981273],"type":"Point"},"properties":{"osm_id":"2885175861","tag":{"amenity":"waste_basket"}},"type":"Feature"},
	{"geometry":{"coordinates":[49.709866,52.981299],"type":"Point"},"properties":{"osm_id":"2885175862","tag":{"amenity":"waste_basket"}},"type":"Feature"},
	{"geometry":{"coordinates":[49.70958,52.978996],"type":"Point"},"properties":{"osm_id":"2885703550","tag":{"amenity":"waste_basket"}},"type":"Feature"},
	{"geometry":{"coordinates":[49.708965,52.980928],"type":"Point"},"properties":{"osm_id":"2885703552","tag":{"amenity":"waste_basket"}},"type":"Feature"},
	{"geometry":{"coordinates":[49.712575,52.983817],"type":"Point"},"properties":{"osm_id":"2885703556","tag":{"amenity":"waste_basket","start_date":"2014-05"}},"type":"Feature"},
	{"geometry":{"coordinates":[49.720279,52.984829],"type":"Point"},"properties":{"osm_id":"2885703557","tag":{"amenity":"waste_basket","start_date":"2014-05"}},"type":"Feature"},
	{"geometry":{"coordinates":[49.720089,52.984884],"type":"Point"},"properties":{"osm_id":"2885703558","tag":{"amenity":"waste_basket","start_date":"2014-05"}},"type":"Feature"},
	{"geometry":{"coordinates":[49.720472,52.985019],"type":"Point"},"properties":{"osm_id":"2885703561","tag":{"amenity":"waste_basket","start_date":"2014-05"}},"type":"Feature"},
	{"geometry":{"coordinates":[49.720252,52.985068],"type":"Point"},"properties":{"osm_id":"2885703563","tag":{"amenity":"waste_basket","start_date":"2014-05"}},"type":"Feature"},
	{"geometry":{"coordinates":[49.713979,52.985234],"type":"Point"},"properties":{"osm_id":"2885703564","tag":{"amenity":"waste_basket"}},"type":"Feature"},
	{"geometry":{"coordinates":[49.713995,52.985247],"type":"Point"},"properties":{"osm_id":"2885703565","tag":{"amenity":"waste_basket"}},"type":"Feature"},
	{"geometry":{"coordinates":[49.714522,52.985634],"type":"Point"},"properties":{"osm_id":"2885703567","tag":{"amenity":"waste_basket","start_date":"2014-05"}},"type":"Feature"},
	{"geometry":{"coordinates":[49.721221,52.985682],"type":"Point"},"properties":{"osm_id":"2885703568","tag":{"amenity":"waste_basket"}},"type":"Feature"},
	{"geometry":{"coordinates":[49.721242,52.9857],"type":"Point"},"properties":{"osm_id":"2885703569","tag":{"amenity":"waste_basket"}},"type":"Feature"},
	{"geometry":{"coordinates":[49.714629,52.985772],"type":"Point"},"properties":{"osm_id":"2885703570","tag":{"amenity":"waste_basket","start_date":"2014-05"}},"type":"Feature"},
	{"geometry":{"coordinates":[49.72185,52.986636],"type":"Point"},"properties":{"osm_id":"2885703578","tag":{"amenity":"waste_basket","start_date":"2014-05"}},"type":"Feature"},
	{"geometry":{"coordinates":[49.721956,52.98676],"type":"Point"},"properties":{"osm_id":"2885703582","tag":{"amenity":"waste_basket","start_date":"2014-05"}},"type":"Feature"},
	{"geometry":{"coordinates":[49.722252,52.987116],"type":"Point"},"properties":{"osm_id":"2885703588","tag":{"amenity":"waste_basket"}},"type":"Feature"},
	{"geometry":{"coordinates":[49.722273,52.987134],"type":"Point"},"properties":{"osm_id":"2885703589","tag":{"amenity":"waste_basket"}},"type":"Feature"},
	{"geometry":{"coordinates":[49.708332,52.975697],"type":"Point"},"properties":{"osm_id":"2886578466","tag":{"amenity":"waste_basket"}},"type":"Feature"},
	{"geometry":{"coordinates":[49.708409,52.975733],"type":"Point"},"properties":{"osm_id":"2886578477","tag":{"amenity":"waste_basket"}},"type":"Feature"},
	{"geometry":{"coordinates":[49.708281,52.975781],"type":"Point"},"properties":{"osm_id":"2886578486","tag":{"amenity":"waste_basket"}},"type":"Feature"},
	{"geometry":{"coordinates":[49.711152,52.97591],"type":"Point"},"properties":{"osm_id":"2886578905","tag":{"amenity":"waste_basket"}},"type":"Feature"},
	{"geometry":{"coordinates":[49.705336,52.976971],"type":"Point"},"properties":{"osm_id":"2886579312","tag":{"amenity":"waste_basket"}},"type":"Feature"},
	{"geometry":{"coordinates":[49.703456,52.977375],"type":"Point"},"properties":{"osm_id":"2886579346","tag":{"amenity":"waste_basket"}},"type":"Feature"},
	{"geometry":{"coordinates":[49.703563,52.977466],"type":"Point"},"properties":{"osm_id":"2886579349","tag":{"amenity":"waste_basket"}},"type":"Feature"},
	{"geometry":{"coordinates":[49.71613,52.980896],"type":"Point"},"properties":{"osm_id":"2889272456","tag":{"amenity":"waste_basket","start_date":"2014-05"}},"type":"Feature"},
	{"geometry":{"coordinates":[49.71594,52.980968],"type":"Point"},"properties":{"osm_id":"2889272464","tag":{"amenity":"waste_basket","start_date":"2014-05"}},"type":"Feature"},
	{"geometry":{"coordinates":[49.716309,52.981061],"type":"Point"},"properties":{"osm_id":"2889272472","tag":{"amenity":"waste_basket","start_date":"2014-05"}},"type":"Feature"},
	{"geometry":{"coordinates":[49.711346,52.981072],"type":"Point"},"properties":{"osm_id":"2889272474","tag":{"amenity":"waste_basket"}},"type":"Feature"},
	{"geometry":{"coordinates":[49.711079,52.981124],"type":"Point"},"properties":{"osm_id":"2889272478","tag":{"amenity":"waste_basket"}},"type":"Feature"},
	{"geometry":{"coordinates":[49.716109,52.981141],"type":"Point"},"properties":{"osm_id":"2889272481","tag":{"amenity":"waste_basket","start_date":"2014-05"}},"type":"Feature"},
	{"geometry":{"coordinates":[49.717349,52.981953],"type":"Point"},"properties":{"osm_id":"2889272490","tag":{"amenity":"waste_basket","start_date":"2014-05"}},"type":"Feature"},
	{"geometry":{"coordinates":[49.717451,52.982035],"type":"Point"},"properties":{"osm_id":"2889272493","tag":{"amenity":"waste_basket","start_date":"2014-05"}},"type":"Feature"},
	{"geometry":{"coordinates":[49.717063,52.98205],"type":"Point"},"properties":{"osm_id":"2889272494","tag":{"amenity":"waste_basket","start_date":"2014-05"}},"type":"Feature"},
	{"geometry":{"coordinates":[49.717206,52.982184],"type":"Point"},"properties":{"osm_id":"2889272497","tag":{"amenity":"waste_basket","start_date":"2014-05"}},"type":"Feature"},
	{"geometry":{"coordinates":[49.720324,52.98337],"type":"Point"},"properties":{"osm_id":"2889272504","tag":{"amenity":"waste_basket"}},"type":"Feature"},
	{"geometry":{"coordinates":[49.720006,52.98349],"type":"Point"},"properties":{"osm_id":"2889272506","tag":{"amenity":"waste_basket"}},"type":"Feature"},
	{"geometry":{"coordinates":[49.72033,52.983621],"type":"Point"},"properties":{"osm_id":"2889272507","tag":{"amenity":"waste_basket"}},"type":"Feature"},
	{"geometry":{"coordinates":[49.719182,52.983632],"type":"Point"},"properties":{"osm_id":"2889272508","tag":{"amenity":"waste_basket"}},"type":"Feature"},
	{"geometry":{"coordinates":[49.719211,52.983656],"type":"Point"},"properties":{"osm_id":"2889272510","tag":{"amenity":"waste_basket"}},"type":"Feature"},
	{"geometry":{"coordinates":[49.719173,52.983764],"type":"Point"},"properties":{"osm_id":"2889272514","tag":{"amenity":"waste_basket"}},"type":"Feature"},
	{"geometry":{"coordinates":[49.718984,52.983845],"type":"Point"},"properties":{"osm_id":"2889272517","tag":{"amenity":"waste_basket","start_date":"2014-05"}},"type":"Feature"},
	{"geometry":{"coordinates":[49.719418,52.983895],"type":"Point"},"properties":{"osm_id":"2889272519","tag":{"amenity":"waste_basket"}},"type":"Feature"},
	{"geometry":{"coordinates":[49.719166,52.984028],"type":"Point"},"properties":{"osm_id":"2889272520","tag":{"amenity":"waste_basket","start_date":"2014-05"}},"type":"Feature"},
	{"geometry":{"coordinates":[49.714454,52.985893],"type":"Point"},"properties":{"osm_id":"2893236551","tag":{"amenity":"waste_basket","start_date":"2014-05"}},"type":"Feature"},
	{"geometry":{"coordinates":[49.69378,52.965952],"type":"Point"},"properties":{"osm_id":"2897054371","tag":{"amenity":"waste_basket","start_date":"2014-05"}},"type":"Feature"},
	{"geometry":{"coordinates":[49.69387,52.966135],"type":"Point"},"properties":{"osm_id":"2897054372","tag":{"amenity":"waste_basket","start_date":"2014-05"}},"type":"Feature"},
	{"geometry":{"coordinates":[49.69654,52.9689],"type":"Point"},"properties":{"osm_id":"2897054373","tag":{"amenity":"waste_basket","start_date":"2014-05"}},"type":"Feature"},
	{"geometry":{"coordinates":[49.70146,52.973326],"type":"Point"},"properties":{"osm_id":"2897054375","tag":{"amenity":"waste_basket","start_date":"2014-05"}},"type":"Feature"},
	{"geometry":{"coordinates":[49.701569,52.973424],"type":"Point"},"properties":{"osm_id":"2897054376","tag":{"amenity":"waste_basket","start_date":"2014-05"}},"type":"Feature"},
	{"geometry":{"coordinates":[49.707039,52.987417],"type":"Point"},"properties":{"osm_id":"2897054385","tag":{"amenity":"waste_basket","start_date":"2014-05"}},"type":"Feature"},
	{"geometry":{"coordinates":[49.708015,52.988388],"type":"Point"},"properties":{"osm_id":"2897054388","tag":{"amenity":"waste_basket","start_date":"2014-05"}},"type":"Feature"},
	{"geometry":{"coordinates":[49.708482,52.988519],"type":"Point"},"properties":{"osm_id":"2897054394","tag":{"amenity":"waste_basket","start_date":"2014-05"}},"type":"Feature"},
	{"geometry":{"coordinates":[49.708367,52.988685],"type":"Point"},"properties":{"osm_id":"2897054396","tag":{"amenity":"waste_basket","start_date":"2014-05"}},"type":"Feature"},
	{"geometry":{"coordinates":[49.709187,52.989532],"type":"Point"},"properties":{"osm_id":"2897054400","tag":{"amenity":"waste_basket","start_date":"2014-05"}},"type":"Feature"},
	{"geometry":{"coordinates":[49.710247,52.990547],"type":"Point"},"properties":{"osm_id":"2897056104","tag":{"amenity":"waste_basket","start_date":"2014-05"}},"type":"Feature"},
	{"geometry":{"coordinates":[49.710371,52.982237],"type":"Point"},"properties":{"osm_id":"2900835042","tag":{"amenity":"waste_basket"}},"type":"Feature"},
	{"geometry":{"coordinates":[49.710312,52.982256],"type":"Point"},"properties":{"osm_id":"2900835044","tag":{"amenity":"waste_basket"}},"type":"Feature"},
	{"geometry":{"coordinates":[49.710551,52.982319],"type":"Point"},"properties":{"osm_id":"2900835050","tag":{"amenity":"waste_basket"}},"type":"Feature"},
	{"geometry":{"coordinates":[49.71059,52.982352],"type":"Point"},"properties":{"osm_id":"2900835054","tag":{"amenity":"waste_basket"}},"type":"Feature"},
	{"geometry":{"coordinates":[49.710708,52.982475],"type":"Point"},"properties":{"osm_id":"2900835061","tag":{"amenity":"waste_basket"}},"type":"Feature"},
	{"geometry":{"coordinates":[49.710751,52.982517],"type":"Point"},"properties":{"osm_id":"2900835065","tag":{"amenity":"waste_basket"}},"type":"Feature"},
	{"geometry":{"coordinates":[49.710859,52.982622],"type":"Point"},"properties":{"osm_id":"2900835071","tag":{"amenity":"waste_basket"}},"type":"Feature"},
	{"geometry":{"coordinates":[49.710914,52.982666],"type":"Point"},"properties":{"osm_id":"2900835075","tag":{"amenity":"waste_basket"}},"type":"Feature"},
	{"geometry":{"coordinates":[49.715323,52.977919],"type":"Point"},"properties":{"osm_id":"2901531922","tag":{"amenity":"waste_basket"}},"type":"Feature"},
	{"geometry":{"coordinates":[49.714614,52.979549],"type":"Point"},"properties":{"osm_id":"2902811786","tag":{"amenity":"waste_basket"}},"type":"Feature"},
	{"geometry":{"coordinates":[49.714667,52.979585],"type":"Point"},"properties":{"osm_id":"2902811789","tag":{"amenity":"waste_basket"}},"type":"Feature"},
	{"geometry":{"coordinates":[49.714567,52.979622],"type":"Point"},"properties":{"osm_id":"2902811792","tag":{"amenity":"waste_basket"}},"type":"Feature"},
	{"geometry":{"coordinates":[49.715291,52.98029],"type":"Point"},"properties":{"osm_id":"2902811920","tag":{"amenity":"waste_basket"}},"type":"Feature"},
	{"geometry":{"coordinates":[49.706163,52.971718],"type":"Point"},"properties":{"osm_id":"2924283371","tag":{"amenity":"waste_basket"}},"type":"Feature"},
	{"geometry":{"coordinates":[49.702698,52.976844],"type":"Point"},"properties":{"osm_id":"3047088289","tag":{"amenity":"waste_basket","start_date":"2014-08"}},"type":"Feature"},
	{"geometry":{"coordinates":[49.702603,52.976882],"type":"Point"},"properties":{"osm_id":"3047088294","tag":{"amenity":"waste_basket","start_date":"2014-08"}},"type":"Feature"},
	{"geometry":{"coordinates":[49.702793,52.976931],"type":"Point"},"properties":{"osm_id":"3047088298","tag":{"amenity":"waste_basket","start_date":"2014-08"}},"type":"Feature"},
	{"geometry":{"coordinates":[49.702697,52.976969],"type":"Point"},"properties":{"osm_id":"3047088302","tag":{"amenity":"waste_basket","start_date":"2014-08"}},"type":"Feature"},
	{"geometry":{"coordinates":[49.703028,52.977022],"type":"Point"},"properties":{"osm_id":"3047088303","tag":{"amenity":"waste_basket","start_date":"2014-08"}},"type":"Feature"},
	{"geometry":{"coordinates":[49.703102,52.977099],"type":"Point"},"properties":{"osm_id":"3047088308","tag":{"amenity":"waste_basket","start_date":"2014-08"}},"type":"Feature"},
	{"geometry":{"coordinates":[49.705367,52.985746],"type":"Point"},"properties":{"osm_id":"3054760228","tag":{"amenity":"waste_basket"}},"type":"Feature"},
	{"geometry":{"coordinates":[49.705017,52.974269],"type":"Point"},"properties":{"osm_id":"3133135985","tag":{"amenity":"waste_basket"}},"type":"Feature"},
	{"geometry":{"coordinates":[49.704056,52.974593],"type":"Point"},"properties":{"osm_id":"3133135995","tag":{"amenity":"waste_basket"}},"type":"Feature"},
	{"geometry":{"coordinates":[49.704349,52.986072],"type":"Point"},"properties":{"osm_id":"3249130212","tag":{"amenity":"waste_basket"}},"type":"Feature"},
	{"geometry":{"coordinates":[49.707572,52.973514],"type":"Point"},"properties":{"osm_id":"3648561599","tag":{"amenity":"waste_basket"}},"type":"Feature"},
	{"geometry":{"coordinates":[49.707449,52.973563],"type":"Point"},"properties":{"osm_id":"3648561601","tag":{"amenity":"waste_basket"}},"type":"Feature"},
	{"geometry":{"coordinates":[49.707674,52.973566],"type":"Point"},"properties":{"osm_id":"3648561602","tag":{"amenity":"waste_basket"}},"type":"Feature"},
	{"geometry":{"coordinates":[49.707449,52.973648],"type":"Point"},"properties":{"osm_id":"3648561606","tag":{"amenity":"waste_basket"}},"type":"Feature"},
	{"geometry":{"coordinates":[49.707215,52.973656],"type":"Point"},"properties":{"osm_id":"3648561609","tag":{"amenity":"waste_basket"}},"type":"Feature"},
	{"geometry":{"coordinates":[49.707395,52.973758],"type":"Point"},"properties":{"osm_id":"3648561616","tag":{"amenity":"waste_basket"}},"type":"Feature"},
	{"geometry":{"coordinates":[49.71488,52.977327],"type":"Point"},"properties":{"osm_id":"3757644977","tag":{"amenity":"waste_basket"}},"type":"Feature"},
	{"geometry":{"coordinates":[49.702993,52.977761],"type":"Point"},"properties":{"osm_id":"3767144937","tag":{"amenity":"waste_basket"}},"type":"Feature"},
	{"geometry":{"coordinates":[49.717209,52.983238],"type":"Point"},"properties":{"osm_id":"3794184719","tag":{"amenity":"waste_basket"}},"type":"Feature"},
	{"geometry":{"coordinates":[49.717344,52.983357],"type":"Point"},"properties":{"osm_id":"3794184724","tag":{"amenity":"waste_basket"}},"type":"Feature"},
	{"geometry":{"coordinates":[49.71755,52.983557],"type":"Point"},"properties":{"osm_id":"3794184734","tag":{"amenity":"waste_basket"}},"type":"Feature"},
	{"geometry":{"coordinates":[49.71768,52.983681],"type":"Point"},"properties":{"osm_id":"3794184739","tag":{"amenity":"waste_basket"}},"type":"Feature"},
	{"geometry":{"coordinates":[49.704997,52.976358],"type":"Point"},"properties":{"osm_id":"4014185295","tag":{"amenity":"waste_basket"}},"type":"Feature"},
	{"geometry":{"coordinates":[49.705009,52.976368],"type":"Point"},"properties":{"osm_id":"4014185296","tag":{"amenity":"waste_basket"}},"type":"Feature"},
	{"geometry":{"coordinates":[49.741651,53.007718],"type":"Point"},"properties":{"osm_id":"4368592163","tag":{"amenity":"waste_disposal"}},"type":"Feature"},
	{"geometry":{"coordinates":[49.709384,52.975119],"type":"Point"},"properties":{"osm_id":"4478940605","tag":{"amenity":"waste_basket"}},"type":"Feature"},
	{"geometry":{"coordinates":[49.712081,52.981249],"type":"Point"},"properties":{"osm_id":"4932263870","tag":{"amenity":"waste_basket"}},"type":"Feature"},
	{"geometry":{"coordinates":[49.712278,52.981177],"type":"Point"},"properties":{"osm_id":"4932263871","tag":{"amenity":"waste_basket"}},"type":"Feature"},
	{"geometry":{"coordinates":[49.712413,52.981296],"type":"Point"},"properties":{"osm_id":"4932263907","tag":{"amenity":"waste_basket"}},"type":"Feature"},
	{"geometry":{"coordinates":[49.712219,52.981377],"type":"Point"},"properties":{"osm_id":"4932263908","tag":{"amenity":"waste_basket"}},"type":"Feature"},
	{"geometry":{"coordinates":[49.712189,52.981507],"type":"Point"},"properties":{"osm_id":"4932264231","tag":{"amenity":"waste_basket"}},"type":"Feature"},
	{"geometry":{"coordinates":[49.712173,52.981535],"type":"Point"},"properties":{"osm_id":"4932264232","tag":{"amenity":"waste_basket"}},"type":"Feature"},
	{"geometry":{"coordinates":[49.712604,52.981859],"type":"Point"},"properties":{"osm_id":"4932264252","tag":{"amenity":"waste_basket"}},"type":"Feature"},
	{"geometry":{"coordinates":[49.712362,52.981645],"type":"Point"},"properties":{"osm_id":"4932264314","tag":{"amenity":"waste_basket"}},"type":"Feature"},
	{"geometry":{"coordinates":[49.711806,52.98185],"type":"Point"},"properties":{"osm_id":"4932264974","tag":{"amenity":"waste_basket"}},"type":"Feature"},
	{"geometry":{"coordinates":[49.703476,52.975165],"type":"Point"},"properties":{"osm_id":"5066001492","tag":{"amenity":"waste_basket","start_date":"2014-05"}},"type":"Feature"},
	{"geometry":{"coordinates":[49.703496,52.974946],"type":"Point"},"properties":{"osm_id":"5066001493","tag":{"amenity":"waste_basket","start_date":"2014-05"}},"type":"Feature"},
	{"geometry":{"coordinates":[49.714295,52.982584],"type":"Point"},"properties":{"osm_id":"5071229215","tag":{"amenity":"waste_disposal"}},"type":"Feature"},
	{"geometry":{"coordinates":[49.694976,52.964166],"type":"Point"},"properties":{"osm_id":"5090929421","tag":{"amenity":"waste_disposal"}},"type":"Feature"},
	{"geometry":{"coordinates":[49.692517,52.962287],"type":"Point"},"properties":{"osm_id":"5090929773","tag":{"amenity":"waste_disposal"}},"type":"Feature"},
	{"geometry":{"coordinates":[49.692082,52.962179],"type":"Point"},"properties":{"osm_id":"5090929775","tag":{"amenity":"waste_disposal"}},"type":"Feature"},
	{"geometry":{"coordinates":[49.702814,52.977097],"type":"Point"},"properties":{"osm_id":"5498463460","tag":{"amenity":"recycling","opening_hours":"24/7","recycling:batteries":"yes","recycling_type":"centre"}},"type":"Feature"},
	{"geometry":{"coordinates":[49.69768,52.990811],"type":"Point"},"properties":{"osm_id":"5910041748","tag":{"amenity":"waste_disposal"}},"type":"Feature"},
	{"geometry":{"coordinates":[49.719904,52.98819],"type":"Point"},"properties":{"osm_id":"6291452092","tag":{"amenity":"waste_disposal"}},"type":"Feature"},
	{"geometry":{"coordinates":[49.699753,52.970639],"type":"Point"},"properties":{"osm_id":"6427792782","tag":{"amenity":"waste_basket"}},"type":"Feature"},
	{"geometry":{"coordinates":[49.69956,52.971224],"type":"Point"},"properties":{"osm_id":"6427794109","tag":{"amenity":"waste_disposal"}},"type":"Feature"},
	{"geometry":{"coordinates":[49.717284,52.984871],"type":"Point"},"properties":{"osm_id":"6469614638","tag":{"amenity":"waste_disposal"}},"type":"Feature"},
	{"geometry":{"coordinates":[49.70894,52.980377],"type":"Point"},"properties":{"osm_id":"6768958854","tag":{"amenity":"waste_basket"}},"type":"Feature"},
	{"geometry":{"coordinates":[49.708572,52.980038],"type":"Point"},"properties":{"osm_id":"6768958855","tag":{"amenity":"waste_basket"}},"type":"Feature"},
	{"geometry":{"coordinates":[49.708642,52.980102],"type":"Point"},"properties":{"osm_id":"6768958856","tag":{"amenity":"waste_basket"}},"type":"Feature"},
	{"geometry":{"coordinates":[49.705743,52.988641],"type":"Point"},"properties":{"osm_id":"7553196397","tag":{"amenity":"recycling","recycling:scrap_metal":"yes","recycling_type":"centre"}},"type":"Feature"},
	{"geometry":{"coordinates":[49.708944,52.973752],"type":"Point"},"properties":{"osm_id":"7922048239","tag":{"amenity":"waste_basket"}},"type":"Feature"},
	{"geometry":{"coordinates":[49.708855,52.973665],"type":"Point"},"properties":{"osm_id":"7922048242","tag":{"amenity":"waste_basket"}},"type":"Feature"},
	{"geometry":{"coordinates":[49.708932,52.973564],"type":"Point"},"properties":{"osm_id":"7922048244","tag":{"amenity":"waste_basket"}},"type":"Feature"},
	{"geometry":{"coordinates":[49.708989,52.973617],"type":"Point"},"properties":{"osm_id":"7922048245","tag":{"amenity":"waste_basket"}},"type":"Feature"},
	{"geometry":{"coordinates":[49.709038,52.973662],"type":"Point"},"properties":{"osm_id":"7922048246","tag":{"amenity":"waste_basket"}},"type":"Feature"}
]
}
