{
"type": "FeatureCollection",
"features": [
	{"geometry":{"coordinates":[81.212694,51.515133],"type":"Point"},"properties":{"osm_id":"1685748694","tag":{"amenity":"waste_basket","description":"\u00d0\u00bc\u00d1\u0083\u00d1\u0081\u00d0\u00be\u00d1\u0080\u00d0\u00bd\u00d1\u008b\u00d0\u00b5 \u00d0\u00b1\u00d0\u00b0\u00d0\u00ba\u00d0\u00b8"}},"type":"Feature"},
	{"geometry":{"coordinates":[81.219347,51.516796],"type":"Point"},"properties":{"osm_id":"1685978665","tag":{"amenity":"waste_basket"}},"type":"Feature"},
	{"geometry":{"coordinates":[81.212959,51.524942],"type":"Point"},"properties":{"osm_id":"1734862317","tag":{"amenity":"waste_basket"}},"type":"Feature"},
	{"geometry":{"coordinates":[81.215354,51.517261],"type":"Point"},"properties":{"osm_id":"1788284512","tag":{"amenity":"waste_basket"}},"type":"Feature"},
	{"geometry":{"coordinates":[81.235912,51.553206],"type":"Point"},"properties":{"osm_id":"1802617764","tag":{"amenity":"waste_basket"}},"type":"Feature"},
	{"geometry":{"coordinates":[81.235142,51.55091],"type":"Point"},"properties":{"osm_id":"1804162735","tag":{"amenity":"waste_basket"}},"type":"Feature"},
	{"geometry":{"coordinates":[81.238188,51.552429],"type":"Point"},"properties":{"osm_id":"1808418073","tag":{"amenity":"waste_basket"}},"type":"Feature"},
	{"geometry":{"coordinates":[81.228589,51.539687],"type":"Point"},"properties":{"osm_id":"1827350189","tag":{"amenity":"waste_disposal"}},"type":"Feature"},
	{"geometry":{"coordinates":[81.223591,51.535799],"type":"Point"},"properties":{"osm_id":"3018560793","tag":{"amenity":"waste_disposal"}},"type":"Feature"},
	{"geometry":{"coordinates":[81.218978,51.525242],"type":"Point"},"properties":{"osm_id":"3158275773","tag":{"amenity":"waste_basket"}},"type":"Feature"}
]
}
