{
"type": "FeatureCollection",
"lastupdate": "2020-08-03T00:00:00Z",
"features": [
	{"geometry":{"coordinates":[139.724622,35.779529],"type":"Point"},"properties":{"name":"\u00e3\u0083\u0099\u00e3\u0083\u00b3\u00e3\u0083\u0086\u00e3\u0083\u00b3","osm_id":"2558155536","tag":{"amenity":"recycling","opening_hours":"10:00-20:00","wheelchair":"no"}},"type":"Feature"},
	{"geometry":{"coordinates":[139.724624,35.77797],"type":"Point"},"properties":{"osm_id":"2558157688","tag":{"amenity":"waste_basket"}},"type":"Feature"},
	{"geometry":{"coordinates":[139.724768,35.777973],"type":"Point"},"properties":{"osm_id":"2558157896","tag":{"amenity":"waste_basket"}},"type":"Feature"},
	{"geometry":{"coordinates":[139.723952,35.777859],"type":"Point"},"properties":{"name":"\u00e7\u0099\u00ba\u00e6\u00b3\u00a1\u00e3\u0083\u0088\u00e3\u0083\u00ac\u00e3\u0082\u00a4\u00e3\u0082\u00b5\u00e3\u0083\u00b3\u00e3\u0082\u00af\u00e3\u0083\u00ab\u00e3\u0083\u009d\u00e3\u0082\u00b9\u00e3\u0083\u0088","osm_id":"4338131866","tag":{"amenity":"recycling","recycling:polystyrene_foam":"yes","recycling_type":"container"}},"type":"Feature"},
	{"geometry":{"coordinates":[139.66599,35.816282],"type":"Point"},"properties":{"name":"\u00e3\u0083\u008f\u00e3\u0083\u00bc\u00e3\u0083\u0089\u00e3\u0082\u00aa\u00e3\u0083\u0095\u00e6\u0088\u00b8\u00e7\u0094\u00b0\u00e9\u00a7\u0085\u00e8\u00a5\u00bf\u00e5\u008f\u00a3\u00e5\u00ba\u0097","osm_id":"4681475989","tag":{"amenity":"recycling"}},"type":"Feature"},
	{"geometry":{"coordinates":[139.721495,35.76151],"type":"Point"},"properties":{"name":"\u00e3\u0083\u00aa\u00e3\u0082\u00b5\u00e3\u0082\u00a4\u00e3\u0082\u00af\u00e3\u0083\u00ab\u00e3\u0082\u00b7\u00e3\u0083\u00a7\u00e3\u0083\u0083\u00e3\u0083\u0097 \u00e3\u0082\u00a8\u00e3\u0082\u00b3\u00e3\u0083\u00ad\u00e3\u0082\u00b8\u00e3\u0083\u0095\u00e3\u0083\u00bc\u00e3\u0082\u00bf","osm_id":"5018057636","tag":{"amenity":"recycling","name:en":"Ecorosista","recycling_type":"centre"}},"type":"Feature"},
	{"geometry":{"coordinates":[139.720999,35.769003],"type":"Point"},"properties":{"osm_id":"5993343734","tag":{"amenity":"waste_basket"}},"type":"Feature"},
	{"geometry":{"coordinates":[139.721013,35.768997],"type":"Point"},"properties":{"osm_id":"5993343735","tag":{"amenity":"recycling","recycling_type":"container"}},"type":"Feature"},
	{"geometry":{"coordinates":[139.734705,35.755287],"type":"Point"},"properties":{"osm_id":"6122765576","tag":{"amenity":"waste_basket","material":"\u7f36\u3001\u30da\u30c3\u30c8\u30dc\u30c8\u30eb"}},"type":"Feature"},
	{"geometry":{"coordinates":[139.7324,35.755259],"type":"Point"},"properties":{"osm_id":"6122810558","tag":{"amenity":"waste_basket"}},"type":"Feature"},
	{"geometry":{"coordinates":[139.684775,35.774206],"type":"Point"},"properties":{"osm_id":"6170336621","tag":{"amenity":"waste_basket"}},"type":"Feature"},
	{"geometry":{"coordinates":[139.670222,35.791529],"type":"Point"},"properties":{"osm_id":"6292268115","tag":{"amenity":"waste_basket"}},"type":"Feature"},
	{"geometry":{"coordinates":[139.670181,35.791543],"type":"Point"},"properties":{"osm_id":"6292268116","tag":{"amenity":"waste_basket","waste":"cigarettes"}},"type":"Feature"},
	{"geometry":{"coordinates":[139.744632,35.812093],"type":"Point"},"properties":{"name":"\u00e6\u009c\u009d\u00e6\u0097\u00a5\u00e7\u0092\u00b0\u00e5\u00a2\u0083\u00e3\u0082\u00bb\u00e3\u0083\u00b3\u00e3\u0082\u00bf\u00e3\u0083\u00bc","osm_id":"6623052563","tag":{"amenity":"recycling"}},"type":"Feature"},
	{"geometry":{"coordinates":[139.73888,35.815605],"type":"Point"},"properties":{"name":"\u00e5\u0089\u00b5\u00e5\u00ba\u00ab\u00e7\u0094\u009f\u00e6\u00b4\u00bb\u00e9\u00a4\u00a8\u00e3\u0080\u0080\u00e9\u00b3\u00a9\u00e3\u0083\u00b6\u00e8\u00b0\u00b7\u00e6\u009c\u00ac\u00e5\u00ba\u0097","osm_id":"7775495285","tag":{"amenity":"recycling","name:en":"Soukoseikatsukan","phone":"0120-583-196","website":"http://www.sokoseikatsukan.com/"}},"type":"Feature"}
]
}
