{
"type": "FeatureCollection",
"features": [
	{"geometry":{"coordinates":[139.660135,35.737074],"type":"Point"},"properties":{"name":"\u00e8\u00b1\u008a\u00e7\u008e\u0089\u00e3\u0083\u00aa\u00e3\u0082\u00b5\u00e3\u0082\u00a4\u00e3\u0082\u00af\u00e3\u0083\u00ab\u00e3\u0082\u00bb\u00e3\u0083\u00b3\u00e3\u0082\u00bf\u00e3\u0083\u00bc","osm_id":"2024672515","tag":{"addr:full":"\u00e7\u00b7\u00b4\u00e9\u00a6\u00ac\u00e5\u008c\u00ba\u00e8\u00b1\u008a\u00e7\u008e\u0089\u00e4\u00b8\u008a2-22-15","addr:postcode":"176-0011","amenity":"recycling","fax":"+81-3-59992888","name:en":"Toyotama Recycle Center","name:ja":"\u00e8\u00b1\u008a\u00e7\u008e\u0089\u00e3\u0083\u00aa\u00e3\u0082\u00b5\u00e3\u0082\u00a4\u00e3\u0082\u00af\u00e3\u0083\u00ab\u00e3\u0082\u00bb\u00e3\u0083\u00b3\u00e3\u0082\u00bf\u00e3\u0083\u00bc","opening_hours":"Mo-Su 09:00-22:00; We off","phone":"+81-3-59993196","recycling:batteries":"yes","recycling:clothes":"yes","recycling:cooking_oil":"yes","website":"https://www.nerima-rc.jp/"}},"type":"Feature"},
	{"geometry":{"coordinates":[139.709651,35.682693],"type":"Point"},"properties":{"osm_id":"2709680253","tag":{"amenity":"waste_disposal"}},"type":"Feature"},
	{"geometry":{"coordinates":[139.711362,35.683932],"type":"Point"},"properties":{"osm_id":"2709680271","tag":{"amenity":"waste_disposal"}},"type":"Feature"},
	{"geometry":{"coordinates":[139.709826,35.685303],"type":"Point"},"properties":{"osm_id":"2709680299","tag":{"amenity":"waste_disposal"}},"type":"Feature"},
	{"geometry":{"coordinates":[139.713284,35.686027],"type":"Point"},"properties":{"osm_id":"2709680364","tag":{"amenity":"waste_disposal"}},"type":"Feature"},
	{"geometry":{"coordinates":[139.665197,35.706207],"type":"Point"},"properties":{"name":"\u00e4\u00b8\u00ad\u00e9\u0087\u008e\u00e5\u008c\u00ba\u00e6\u008c\u0087\u00e5\u00ae\u009a\u00e5\u0096\u00ab\u00e7\u0085\u0099\u00e5\u00a0\u00b4\u00e6\u0089\u0080","osm_id":"2830594849","tag":{"amenity":"waste_basket","smoking":"yes","waste":"cigarettes"}},"type":"Feature"},
	{"geometry":{"coordinates":[139.738287,35.679077],"type":"Point"},"properties":{"osm_id":"4259744400","tag":{"amenity":"waste_basket"}},"type":"Feature"},
	{"geometry":{"coordinates":[139.737058,35.680311],"type":"Point"},"properties":{"osm_id":"4267517892","tag":{"amenity":"waste_basket"}},"type":"Feature"},
	{"geometry":{"coordinates":[139.672505,35.721681],"type":"Point"},"properties":{"osm_id":"4509726029","tag":{"amenity":"waste_basket"}},"type":"Feature"},
	{"geometry":{"coordinates":[139.72668,35.720214],"type":"Point"},"properties":{"osm_id":"4533837308","tag":{"amenity":"waste_basket"}},"type":"Feature"},
	{"geometry":{"coordinates":[139.675334,35.721204],"type":"Point"},"properties":{"osm_id":"4535389563","tag":{"amenity":"waste_basket"}},"type":"Feature"},
	{"geometry":{"coordinates":[139.674998,35.721798],"type":"Point"},"properties":{"osm_id":"4535389578","tag":{"amenity":"waste_basket"}},"type":"Feature"},
	{"geometry":{"coordinates":[139.672751,35.722277],"type":"Point"},"properties":{"osm_id":"4543240623","tag":{"amenity":"waste_basket"}},"type":"Feature"},
	{"geometry":{"coordinates":[139.672848,35.722361],"type":"Point"},"properties":{"osm_id":"4543240628","tag":{"amenity":"waste_basket"}},"type":"Feature"},
	{"geometry":{"coordinates":[139.726793,35.720544],"type":"Point"},"properties":{"osm_id":"4558497142","tag":{"amenity":"waste_basket","smoking":"yes","waste":"cigarettes"}},"type":"Feature"},
	{"geometry":{"coordinates":[139.674964,35.722293],"type":"Point"},"properties":{"osm_id":"4571150195","tag":{"amenity":"waste_basket"}},"type":"Feature"},
	{"geometry":{"coordinates":[139.674796,35.72205],"type":"Point"},"properties":{"osm_id":"4571150218","tag":{"amenity":"waste_basket"}},"type":"Feature"},
	{"geometry":{"coordinates":[139.675069,35.721938],"type":"Point"},"properties":{"osm_id":"4571150230","tag":{"amenity":"waste_basket"}},"type":"Feature"},
	{"geometry":{"coordinates":[139.674696,35.722566],"type":"Point"},"properties":{"osm_id":"4571632881","tag":{"amenity":"waste_basket"}},"type":"Feature"},
	{"geometry":{"coordinates":[139.674684,35.722402],"type":"Point"},"properties":{"osm_id":"4571632993","tag":{"amenity":"waste_basket"}},"type":"Feature"},
	{"geometry":{"coordinates":[139.708133,35.693008],"type":"Point"},"properties":{"name":"\u00e3\u0083\u0091\u00e3\u0083\u0094\u00e3\u0083\u00a8\u00e3\u0083\u00b3","osm_id":"4646505090","tag":{"amenity":"recycling","name:ja":"\u00e3\u0083\u0091\u00e3\u0083\u0094\u00e3\u0083\u00a8\u00e3\u0083\u00b3"}},"type":"Feature"},
	{"geometry":{"coordinates":[139.707439,35.719327],"type":"Point"},"properties":{"osm_id":"5037058361","tag":{"amenity":"waste_basket"}},"type":"Feature"},
	{"geometry":{"coordinates":[139.707605,35.720109],"type":"Point"},"properties":{"osm_id":"5037058362","tag":{"amenity":"waste_basket"}},"type":"Feature"},
	{"geometry":{"coordinates":[139.707552,35.719557],"type":"Point"},"properties":{"osm_id":"5037058363","tag":{"amenity":"waste_basket"}},"type":"Feature"},
	{"geometry":{"coordinates":[139.7077,35.720572],"type":"Point"},"properties":{"osm_id":"5037058365","tag":{"amenity":"waste_basket"}},"type":"Feature"},
	{"geometry":{"coordinates":[139.745453,35.741718],"type":"Point"},"properties":{"osm_id":"5166877615","tag":{"amenity":"waste_basket"}},"type":"Feature"},
	{"geometry":{"coordinates":[139.745652,35.742574],"type":"Point"},"properties":{"osm_id":"5166934521","tag":{"amenity":"waste_basket"}},"type":"Feature"},
	{"geometry":{"coordinates":[139.702523,35.685209],"type":"Point"},"properties":{"osm_id":"5239429436","tag":{"amenity":"recycling","level":"0","recycling:cans":"yes","recycling:glass_bottles":"yes","recycling:plastic_bottles":"yes","recycling_type":"container"}},"type":"Feature"},
	{"geometry":{"coordinates":[139.709825,35.685285],"type":"Point"},"properties":{"osm_id":"5248135501","tag":{"amenity":"recycling","recycling_type":"container"}},"type":"Feature"},
	{"geometry":{"coordinates":[139.701791,35.689418],"type":"Point"},"properties":{"osm_id":"5669236323","tag":{"amenity":"waste_basket"}},"type":"Feature"},
	{"geometry":{"coordinates":[139.718856,35.727726],"type":"Point"},"properties":{"osm_id":"5764897849","tag":{"amenity":"waste_basket"}},"type":"Feature"},
	{"geometry":{"coordinates":[139.742498,35.705952],"type":"Point"},"properties":{"osm_id":"6044119011","tag":{"amenity":"recycling","opening_hours":"24/7","recycling:plastic_bottles":"yes","recycling_type":"container","wheelchair":"yes"}},"type":"Feature"},
	{"geometry":{"coordinates":[139.742964,35.705397],"type":"Point"},"properties":{"osm_id":"6044119021","tag":{"amenity":"recycling","opening_hours":"Mo-Su 09:30-22:00","recycling:cans":"yes","recycling:plastic_bottles":"yes","recycling_type":"container","wheelchair":"yes"}},"type":"Feature"},
	{"geometry":{"coordinates":[139.704384,35.694176],"type":"Point"},"properties":{"osm_id":"6147302100","tag":{"amenity":"waste_basket"}},"type":"Feature"},
	{"geometry":{"coordinates":[139.698149,35.681255],"type":"Point"},"properties":{"osm_id":"6170148288","tag":{"amenity":"waste_basket"}},"type":"Feature"},
	{"geometry":{"coordinates":[139.722704,35.72343],"type":"Point"},"properties":{"osm_id":"6170408743","tag":{"amenity":"waste_basket"}},"type":"Feature"},
	{"geometry":{"coordinates":[139.722893,35.723179],"type":"Point"},"properties":{"osm_id":"6170408744","tag":{"amenity":"waste_basket","indoor":"yes"}},"type":"Feature"},
	{"geometry":{"coordinates":[139.742045,35.697845],"type":"Point"},"properties":{"osm_id":"6382737664","tag":{"amenity":"recycling"}},"type":"Feature"},
	{"geometry":{"coordinates":[139.719129,35.711776],"type":"Point"},"properties":{"osm_id":"6384981363","tag":{"amenity":"waste_disposal"}},"type":"Feature"},
	{"geometry":{"coordinates":[139.7296,35.710581],"type":"Point"},"properties":{"osm_id":"6428180068","tag":{"amenity":"waste_basket","waste":"trash"}},"type":"Feature"},
	{"geometry":{"coordinates":[139.743274,35.706141],"type":"Point"},"properties":{"osm_id":"6744163199","tag":{"amenity":"recycling","opening_hours":"24/7","recycling:plastic_bottles":"yes","recycling_type":"container","wheelchair":"yes"}},"type":"Feature"},
	{"geometry":{"coordinates":[139.724878,35.703125],"type":"Point"},"properties":{"osm_id":"6810427261","tag":{"amenity":"waste_basket","waste":"trash"}},"type":"Feature"},
	{"geometry":{"coordinates":[139.694841,35.709972],"type":"Point"},"properties":{"osm_id":"7506201285","tag":{"amenity":"waste_basket"}},"type":"Feature"}
]
}
