{
"type": "FeatureCollection",
"features": [
	{"geometry":{"coordinates":[139.680412,35.462539],"type":"Point"},"properties":{"osm_id":"4079727313","tag":{"amenity":"waste_basket"}},"type":"Feature"},
	{"geometry":{"coordinates":[139.67964,35.461321],"type":"Point"},"properties":{"osm_id":"4079727333","tag":{"amenity":"waste_basket"}},"type":"Feature"},
	{"geometry":{"coordinates":[139.693783,35.524849],"type":"Point"},"properties":{"name":"Recycling Point","osm_id":"7097321172","tag":{"amenity":"recycling"}},"type":"Feature"},
	{"geometry":{"coordinates":[139.693695,35.526439],"type":"Point"},"properties":{"name":"Recycle pick up","osm_id":"7097455071","tag":{"amenity":"recycling"}},"type":"Feature"},
	{"geometry":{"coordinates":[139.697902,35.527444],"type":"Point"},"properties":{"osm_id":"9139260252","tag":{"amenity":"recycling","recycling_type":"container"}},"type":"Feature"},
	{"geometry":{"coordinates":[139.695891,35.529972],"type":"Point"},"properties":{"osm_id":"9159995622","tag":{"amenity":"waste_basket","waste":"cigarettes"}},"type":"Feature"},
	{"geometry":{"coordinates":[139.699479,35.527771],"type":"Point"},"properties":{"osm_id":"9160044368","tag":{"amenity":"recycling","recycling_type":"container"}},"type":"Feature"},
	{"geometry":{"coordinates":[139.699496,35.527783],"type":"Point"},"properties":{"osm_id":"9160044369","tag":{"amenity":"waste_basket"}},"type":"Feature"},
	{"geometry":{"coordinates":[139.698058,35.527014],"type":"Point"},"properties":{"osm_id":"9160054049","tag":{"amenity":"recycling","recycling_type":"container"}},"type":"Feature"},
	{"geometry":{"coordinates":[139.69747,35.527229],"type":"Point"},"properties":{"osm_id":"9160122825","tag":{"amenity":"recycling","recycling_type":"container"}},"type":"Feature"}
]
}
