{
"type": "FeatureCollection",
"features": [
	{"geometry":{"coordinates":[33.729978,53.531998],"type":"Point"},"properties":{"osm_id":"1281197788","tag":{"amenity":"waste_basket"}},"type":"Feature"},
	{"geometry":{"coordinates":[33.730178,53.532025],"type":"Point"},"properties":{"osm_id":"1281197789","tag":{"amenity":"waste_basket"}},"type":"Feature"},
	{"geometry":{"coordinates":[33.726924,53.531522],"type":"Point"},"properties":{"osm_id":"1281197790","tag":{"amenity":"waste_basket"}},"type":"Feature"},
	{"geometry":{"coordinates":[33.726232,53.531446],"type":"Point"},"properties":{"osm_id":"1281197791","tag":{"amenity":"waste_basket"}},"type":"Feature"},
	{"geometry":{"coordinates":[33.728568,53.531714],"type":"Point"},"properties":{"osm_id":"1281197792","tag":{"amenity":"waste_basket"}},"type":"Feature"},
	{"geometry":{"coordinates":[33.726259,53.523819],"type":"Point"},"properties":{"osm_id":"2391798810","tag":{"amenity":"waste_basket"}},"type":"Feature"},
	{"geometry":{"coordinates":[33.718725,53.529933],"type":"Point"},"properties":{"osm_id":"2391798815","tag":{"amenity":"waste_basket"}},"type":"Feature"},
	{"geometry":{"coordinates":[33.730106,53.533715],"type":"Point"},"properties":{"osm_id":"2391798831","tag":{"amenity":"waste_basket"}},"type":"Feature"},
	{"geometry":{"coordinates":[33.731969,53.534041],"type":"Point"},"properties":{"osm_id":"2391798841","tag":{"amenity":"waste_basket"}},"type":"Feature"},
	{"geometry":{"coordinates":[33.732341,53.534112],"type":"Point"},"properties":{"osm_id":"2391798844","tag":{"amenity":"waste_basket"}},"type":"Feature"},
	{"geometry":{"coordinates":[33.731749,53.534103],"type":"Point"},"properties":{"osm_id":"2391798847","tag":{"amenity":"waste_basket"}},"type":"Feature"},
	{"geometry":{"coordinates":[33.732246,53.534154],"type":"Point"},"properties":{"osm_id":"2391798857","tag":{"amenity":"waste_basket"}},"type":"Feature"},
	{"geometry":{"coordinates":[33.707305,53.526131],"type":"Point"},"properties":{"osm_id":"4344467890","tag":{"amenity":"waste_basket"}},"type":"Feature"},
	{"geometry":{"coordinates":[33.723023,53.523879],"type":"Point"},"properties":{"osm_id":"4344496592","tag":{"amenity":"waste_basket"}},"type":"Feature"},
	{"geometry":{"coordinates":[33.72541,53.531777],"type":"Point"},"properties":{"osm_id":"4444297930","tag":{"amenity":"waste_basket"}},"type":"Feature"},
	{"geometry":{"coordinates":[33.728733,53.538009],"type":"Point"},"properties":{"osm_id":"4446314216","tag":{"amenity":"waste_basket"}},"type":"Feature"},
	{"geometry":{"coordinates":[33.727479,53.53816],"type":"Point"},"properties":{"osm_id":"4446314224","tag":{"amenity":"waste_basket"}},"type":"Feature"},
	{"geometry":{"coordinates":[33.73378,53.535244],"type":"Point"},"properties":{"osm_id":"4446387695","tag":{"amenity":"waste_basket"}},"type":"Feature"},
	{"geometry":{"coordinates":[33.737039,53.537188],"type":"Point"},"properties":{"osm_id":"4446387715","tag":{"amenity":"waste_basket"}},"type":"Feature"},
	{"geometry":{"coordinates":[33.731065,53.538874],"type":"Point"},"properties":{"osm_id":"4446387717","tag":{"amenity":"waste_basket"}},"type":"Feature"},
	{"geometry":{"coordinates":[33.732338,53.533942],"type":"Point"},"properties":{"osm_id":"4448954053","tag":{"amenity":"waste_basket"}},"type":"Feature"},
	{"geometry":{"coordinates":[33.73223,53.534105],"type":"Point"},"properties":{"osm_id":"4448954058","tag":{"amenity":"waste_basket"}},"type":"Feature"},
	{"geometry":{"coordinates":[33.732002,53.534244],"type":"Point"},"properties":{"osm_id":"4448954064","tag":{"amenity":"waste_basket"}},"type":"Feature"},
	{"geometry":{"coordinates":[33.732648,53.533711],"type":"Point"},"properties":{"osm_id":"4448983665","tag":{"amenity":"waste_basket"}},"type":"Feature"},
	{"geometry":{"coordinates":[33.73291,53.534217],"type":"Point"},"properties":{"osm_id":"4449095232","tag":{"amenity":"waste_basket"}},"type":"Feature"},
	{"geometry":{"coordinates":[33.731755,53.533801],"type":"Point"},"properties":{"osm_id":"4449249067","tag":{"amenity":"waste_basket"}},"type":"Feature"},
	{"geometry":{"coordinates":[33.731712,53.533909],"type":"Point"},"properties":{"osm_id":"4449249069","tag":{"amenity":"waste_basket"}},"type":"Feature"},
	{"geometry":{"coordinates":[33.730736,53.53325],"type":"Point"},"properties":{"osm_id":"4449351075","tag":{"amenity":"waste_basket"}},"type":"Feature"},
	{"geometry":{"coordinates":[33.730755,53.533427],"type":"Point"},"properties":{"osm_id":"4449351076","tag":{"amenity":"waste_basket"}},"type":"Feature"},
	{"geometry":{"coordinates":[33.731135,53.533506],"type":"Point"},"properties":{"osm_id":"4449351077","tag":{"amenity":"waste_basket"}},"type":"Feature"},
	{"geometry":{"coordinates":[33.731535,53.534271],"type":"Point"},"properties":{"osm_id":"4449351078","tag":{"amenity":"waste_basket"}},"type":"Feature"},
	{"geometry":{"coordinates":[33.730639,53.533589],"type":"Point"},"properties":{"osm_id":"4452093986","tag":{"amenity":"waste_basket"}},"type":"Feature"},
	{"geometry":{"coordinates":[33.730801,53.533627],"type":"Point"},"properties":{"osm_id":"4452095601","tag":{"amenity":"waste_basket"}},"type":"Feature"},
	{"geometry":{"coordinates":[33.730621,53.533635],"type":"Point"},"properties":{"osm_id":"4452095605","tag":{"amenity":"waste_basket"}},"type":"Feature"},
	{"geometry":{"coordinates":[33.730781,53.533652],"type":"Point"},"properties":{"osm_id":"4452095615","tag":{"amenity":"waste_basket"}},"type":"Feature"},
	{"geometry":{"coordinates":[33.735047,53.529677],"type":"Point"},"properties":{"osm_id":"4452186867","tag":{"amenity":"waste_basket"}},"type":"Feature"},
	{"geometry":{"coordinates":[33.734864,53.529778],"type":"Point"},"properties":{"osm_id":"4452186871","tag":{"amenity":"waste_basket"}},"type":"Feature"},
	{"geometry":{"coordinates":[33.734738,53.530027],"type":"Point"},"properties":{"osm_id":"4452186885","tag":{"amenity":"waste_basket"}},"type":"Feature"},
	{"geometry":{"coordinates":[33.734291,53.530544],"type":"Point"},"properties":{"osm_id":"4452187004","tag":{"amenity":"waste_basket"}},"type":"Feature"},
	{"geometry":{"coordinates":[33.734592,53.530664],"type":"Point"},"properties":{"osm_id":"4452187009","tag":{"amenity":"waste_basket"}},"type":"Feature"},
	{"geometry":{"coordinates":[33.73455,53.530781],"type":"Point"},"properties":{"osm_id":"4452187013","tag":{"amenity":"waste_basket"}},"type":"Feature"},
	{"geometry":{"coordinates":[33.734377,53.531295],"type":"Point"},"properties":{"osm_id":"4452187030","tag":{"amenity":"waste_basket"}},"type":"Feature"},
	{"geometry":{"coordinates":[33.733911,53.531322],"type":"Point"},"properties":{"osm_id":"4452187035","tag":{"amenity":"waste_basket"}},"type":"Feature"},
	{"geometry":{"coordinates":[33.734184,53.531631],"type":"Point"},"properties":{"osm_id":"4452187058","tag":{"amenity":"waste_basket"}},"type":"Feature"},
	{"geometry":{"coordinates":[33.734527,53.531642],"type":"Point"},"properties":{"osm_id":"4452187059","tag":{"amenity":"waste_basket"}},"type":"Feature"},
	{"geometry":{"coordinates":[33.734481,53.531644],"type":"Point"},"properties":{"osm_id":"4452187060","tag":{"amenity":"waste_basket"}},"type":"Feature"},
	{"geometry":{"coordinates":[33.734414,53.531652],"type":"Point"},"properties":{"osm_id":"4452187061","tag":{"amenity":"waste_basket"}},"type":"Feature"},
	{"geometry":{"coordinates":[33.734281,53.531887],"type":"Point"},"properties":{"osm_id":"4452187073","tag":{"amenity":"waste_basket"}},"type":"Feature"},
	{"geometry":{"coordinates":[33.734506,53.531958],"type":"Point"},"properties":{"osm_id":"4452187077","tag":{"amenity":"waste_basket"}},"type":"Feature"},
	{"geometry":{"coordinates":[33.734337,53.53198],"type":"Point"},"properties":{"osm_id":"4452187079","tag":{"amenity":"waste_basket"}},"type":"Feature"},
	{"geometry":{"coordinates":[33.734249,53.531996],"type":"Point"},"properties":{"osm_id":"4452187081","tag":{"amenity":"waste_basket"}},"type":"Feature"},
	{"geometry":{"coordinates":[33.734013,53.532165],"type":"Point"},"properties":{"osm_id":"4452187085","tag":{"amenity":"waste_basket"}},"type":"Feature"},
	{"geometry":{"coordinates":[33.734469,53.532174],"type":"Point"},"properties":{"osm_id":"4452187086","tag":{"amenity":"waste_basket"}},"type":"Feature"},
	{"geometry":{"coordinates":[33.740249,53.530028],"type":"Point"},"properties":{"osm_id":"4453344029","tag":{"amenity":"waste_basket"}},"type":"Feature"},
	{"geometry":{"coordinates":[33.726709,53.532234],"type":"Point"},"properties":{"osm_id":"4453344038","tag":{"amenity":"waste_basket"}},"type":"Feature"},
	{"geometry":{"coordinates":[33.727229,53.531722],"type":"Point"},"properties":{"osm_id":"4453509460","tag":{"amenity":"waste_basket"}},"type":"Feature"},
	{"geometry":{"coordinates":[33.727452,53.53175],"type":"Point"},"properties":{"osm_id":"4453509461","tag":{"amenity":"waste_basket"}},"type":"Feature"},
	{"geometry":{"coordinates":[33.727865,53.531798],"type":"Point"},"properties":{"osm_id":"4499006435","tag":{"amenity":"waste_basket"}},"type":"Feature"},
	{"geometry":{"coordinates":[33.728083,53.531837],"type":"Point"},"properties":{"osm_id":"4499006437","tag":{"amenity":"waste_basket"}},"type":"Feature"},
	{"geometry":{"coordinates":[33.727881,53.531859],"type":"Point"},"properties":{"osm_id":"4499006439","tag":{"amenity":"waste_basket"}},"type":"Feature"},
	{"geometry":{"coordinates":[33.721402,53.528983],"type":"Point"},"properties":{"osm_id":"4940302855","tag":{"amenity":"waste_basket"}},"type":"Feature"},
	{"geometry":{"coordinates":[33.72137,53.528979],"type":"Point"},"properties":{"osm_id":"4940302856","tag":{"amenity":"waste_basket"}},"type":"Feature"},
	{"geometry":{"coordinates":[33.734331,53.52829],"type":"Point"},"properties":{"osm_id":"6123621672","tag":{"amenity":"recycling","description":"\u00d0\u009a\u00d0\u00be\u00d0\u00bd\u00d1\u0082\u00d0\u00b5\u00d0\u00b9\u00d0\u00bd\u00d0\u00b5\u00d1\u0080 \u00d0\u00b4\u00d0\u00bb\u00d1\u008f \u00d1\u0083\u00d1\u0082\u00d0\u00b8\u00d0\u00bb\u00d0\u00b8\u00d0\u00b7\u00d0\u00b0\u00d1\u0086\u00d0\u00b8\u00d0\u00b8 \u00d1\u008d\u00d0\u00bd\u00d0\u00b5\u00d1\u0080\u00d0\u00b3\u00d0\u00be\u00d1\u0081\u00d0\u00b1\u00d0\u00b5\u00d1\u0080\u00d0\u00b5\u00d0\u00b3\u00d0\u00b0\u00d1\u008e\u00d1\u0089\u00d0\u00b8\u00d1\u0085 \u00d0\u00bb\u00d0\u00b0\u00d0\u00bc\u00d0\u00bf \u00d0\u00b8 \u00d1\u0082\u00d0\u00b5\u00d1\u0080\u00d0\u00bc\u00d0\u00be\u00d0\u00bc\u00d0\u00b5\u00d1\u0082\u00d1\u0080\u00d0\u00be\u00d0\u00b2","recycling:electrical_appliances":"yes","recycling:small_appliances":"yes","recycling_type":"container","wheelchair":"yes"}},"type":"Feature"},
	{"geometry":{"coordinates":[33.664122,53.494024],"type":"Point"},"properties":{"osm_id":"7899639885","tag":{"amenity":"waste_disposal"}},"type":"Feature"}
]
}
