{
"type": "FeatureCollection",
"lastupdate": "2020-08-01T00:00:00Z",
"features": [
	{"geometry":{"coordinates":[-75.538757,6.299171],"type":"Point"},"properties":{"name":"basurero 1","osm_id":"3778398706","tag":{"amenity":"waste_basket"}},"type":"Feature"},
	{"geometry":{"coordinates":[-75.538929,6.299588],"type":"Point"},"properties":{"name":"basurero 2","osm_id":"3778402869","tag":{"amenity":"waste_basket"}},"type":"Feature"},
	{"geometry":{"coordinates":[-75.539371,6.299108],"type":"Point"},"properties":{"name":"basurero 3","osm_id":"3778409821","tag":{"amenity":"waste_basket"}},"type":"Feature"},
	{"geometry":{"coordinates":[-75.540269,6.299905],"type":"Point"},"properties":{"name":"basurero 4","osm_id":"3787852086","tag":{"amenity":"waste_basket"}},"type":"Feature"},
	{"geometry":{"coordinates":[-75.558141,6.307342],"type":"Point"},"properties":{"osm_id":"4450947093","tag":{"amenity":"waste_basket"}},"type":"Feature"},
	{"geometry":{"coordinates":[-75.500103,6.27555],"type":"Point"},"properties":{"osm_id":"6751329286","tag":{"amenity":"waste_basket"}},"type":"Feature"},
	{"geometry":{"coordinates":[-75.499177,6.27453],"type":"Point"},"properties":{"osm_id":"6751329287","tag":{"amenity":"waste_basket"}},"type":"Feature"},
	{"geometry":{"coordinates":[-75.502392,6.270569],"type":"Point"},"properties":{"osm_id":"6751329297","tag":{"amenity":"waste_basket"}},"type":"Feature"},
	{"geometry":{"coordinates":[-75.508374,6.278623],"type":"Point"},"properties":{"osm_id":"6751547287","tag":{"amenity":"waste_basket"}},"type":"Feature"},
	{"geometry":{"coordinates":[-75.502519,6.2816],"type":"Point"},"properties":{"osm_id":"6751547289","tag":{"amenity":"recycling"}},"type":"Feature"}
]
}
