{
"type": "FeatureCollection",
"features": [
	{"geometry":{"coordinates":[29.106138,40.948645],"type":"Point"},"properties":{"osm_id":"6092556086","tag":{"amenity":"recycling","operator":"Maltepe Belediyesi","recycling:clothes":"yes","recycling_type":"container"}},"type":"Feature"},
	{"geometry":{"coordinates":[29.101085,40.949338],"type":"Point"},"properties":{"osm_id":"6092556087","tag":{"amenity":"recycling","operator":"Maltepe Belediyesi","recycling:clothes":"yes","recycling_type":"container"}},"type":"Feature"},
	{"geometry":{"coordinates":[29.13742,40.941019],"type":"Point"},"properties":{"osm_id":"6092556088","tag":{"amenity":"recycling","operator":"Maltepe Belediyesi","recycling:clothes":"yes","recycling_type":"container"}},"type":"Feature"},
	{"geometry":{"coordinates":[29.105614,40.944942],"type":"Point"},"properties":{"osm_id":"6133413589","tag":{"amenity":"recycling","operator":"Maltepe Belediyesi","recycling:clothes":"yes","recycling_type":"container"}},"type":"Feature"},
	{"geometry":{"coordinates":[29.117326,40.949497],"type":"Point"},"properties":{"osm_id":"6133413590","tag":{"amenity":"recycling","operator":"Maltepe Belediyesi","recycling:clothes":"yes","recycling_type":"container"}},"type":"Feature"},
	{"geometry":{"coordinates":[29.107671,40.950514],"type":"Point"},"properties":{"osm_id":"6153642933","tag":{"amenity":"recycling","operator":"Maltepe Belediyesi","recycling:clothes":"yes","recycling_type":"container"}},"type":"Feature"},
	{"geometry":{"coordinates":[29.127331,40.922395],"type":"Point"},"properties":{"osm_id":"6159356916","tag":{"amenity":"recycling","operator":"Maltepe Belediyesi","recycling:clothes":"yes","recycling_type":"container"}},"type":"Feature"},
	{"geometry":{"coordinates":[29.115278,40.953245],"type":"Point"},"properties":{"osm_id":"6189870896","tag":{"amenity":"recycling","operator":"Maltepe Belediyesi","recycling:clothes":"yes","recycling_type":"container"}},"type":"Feature"},
	{"geometry":{"coordinates":[29.107701,40.951083],"type":"Point"},"properties":{"osm_id":"6329690347","tag":{"addr:city":"Istanbul","addr:district":"Maltepe","addr:street":"Karanfil Soka\u00c4\u009f\u00c4\u00b1","amenity":"waste_basket","waste":"trash"}},"type":"Feature"},
	{"geometry":{"coordinates":[29.107437,40.950987],"type":"Point"},"properties":{"osm_id":"6330273530","tag":{"addr:city":"Istanbul","addr:district":"Maltepe","addr:street":"Karanfil Soka\u00c4\u009f\u00c4\u00b1","amenity":"waste_basket","waste":"trash"}},"type":"Feature"},
	{"geometry":{"coordinates":[29.134829,40.969541],"type":"Point"},"properties":{"osm_id":"6697131945","tag":{"amenity":"waste_basket"}},"type":"Feature"}
]
}
