{
"type": "FeatureCollection",
"features": [
	{"geometry":{"coordinates":[11.013876,60.219573],"type":"Point"},"properties":{"osm_id":"4151915004","tag":{"amenity":"recycling"}},"type":"Feature"},
	{"geometry":{"coordinates":[10.998317,60.232717],"type":"Point"},"properties":{"osm_id":"5555192729","tag":{"amenity":"recycling","description":"Rustadvegen v/Portalen","recycling:glass_bottles":"yes","recycling_type":"container","ref:sortere":"552"}},"type":"Feature"},
	{"geometry":{"coordinates":[11.01435,60.22046],"type":"Point"},"properties":{"osm_id":"5555192731","tag":{"amenity":"recycling","description":"Bussterminal sentrum, Nannestad","recycling:clothes":"yes","recycling:glass_bottles":"yes","recycling_type":"container","ref:sortere":"551"}},"type":"Feature"},
	{"geometry":{"coordinates":[11.024614,60.197282],"type":"Point"},"properties":{"osm_id":"6110106625","tag":{"amenity":"waste_basket","image":"https://d1cuyjsrcm0gby.cloudfront.net/YfRL1wQWyTvgiaBfM1OE7w/thumb-2048.jpg","mapillary":"https://www.mapillary.com/map/im/YfRL1wQWyTvgiaBfM1OE7w"}},"type":"Feature"},
	{"geometry":{"coordinates":[11.019506,60.226926],"type":"Point"},"properties":{"osm_id":"7723068715","tag":{"addr:city":"Nannestad","addr:housenumber":"47D","addr:postcode":"2030","addr:street":"Pinnsvinvegen"}},"type":"Feature"}
]
}
