{
"type": "FeatureCollection",
"features": [
	{"geometry":{"coordinates":[11.004814,59.267647],"type":"Point"},"properties":{"osm_id":"310543734","tag":{"amenity":"recycling","operator":"Fretex","recycling:clothes":"yes","recycling_type":"container"}},"type":"Feature"},
	{"geometry":{"coordinates":[11.031577,59.268239],"type":"Point"},"properties":{"osm_id":"3773202328","tag":{"amenity":"recycling","opening_hours":"24/7","operator":"UFF","recycling:clothes":"yes","recycling:shoes":"yes","recycling_type":"container"}},"type":"Feature"},
	{"geometry":{"coordinates":[11.031594,59.268256],"type":"Point"},"properties":{"osm_id":"3773202329","tag":{"amenity":"recycling","opening_hours":"24/7","operator":"Idrettsinnsamlingen","recycling:clothes":"yes","recycling:shoes":"yes","recycling_type":"container"}},"type":"Feature"},
	{"geometry":{"coordinates":[11.031649,59.268282],"type":"Point"},"properties":{"osm_id":"3773202331","tag":{"amenity":"recycling","description":"109-senteret, Gre\u00c3\u00a5ker","recycling:glass_bottles":"yes","recycling_type":"container","ref:sortere":"17528"}},"type":"Feature"},
	{"geometry":{"coordinates":[10.992687,59.266173],"type":"Point"},"properties":{"osm_id":"3861289519","tag":{"amenity":"recycling","opening_hours":"24/7","operator":"Idrettsinnsamlingen","recycling:clothes":"yes","recycling_type":"container"}},"type":"Feature"},
	{"geometry":{"coordinates":[11.00483,59.267657],"type":"Point"},"properties":{"osm_id":"3992497822","tag":{"amenity":"recycling","recycling:glass":"yes","recycling_type":"container"}},"type":"Feature"},
	{"geometry":{"coordinates":[11.065512,59.270461],"type":"Point"},"properties":{"osm_id":"5555199755","tag":{"amenity":"recycling","description":"Coop Extra Yven","recycling:glass_bottles":"yes","recycling_type":"container","ref:sortere":"17532"}},"type":"Feature"},
	{"geometry":{"coordinates":[11.065181,59.294468],"type":"Point"},"properties":{"osm_id":"5555199756","tag":{"amenity":"recycling","description":"Coop Extra Gr\u00c3\u00a5lum","recycling:glass_bottles":"yes","recycling_type":"container","ref:sortere":"17531"}},"type":"Feature"},
	{"geometry":{"coordinates":[11.047433,59.279887],"type":"Point"},"properties":{"osm_id":"5555199757","tag":{"amenity":"recycling","description":"Gr\u00c3\u00a5kerdalen","recycling:glass_bottles":"yes","recycling_type":"container","ref:sortere":"17529"}},"type":"Feature"}
]
}
