{
"type": "FeatureCollection",
"features": [
	{"geometry":{"coordinates":[10.995401,59.252434],"type":"Point"},"properties":{"osm_id":"2202446610","tag":{"amenity":"recycling","operator":"Fretex","recycling:clothes":"yes","recycling_type":"container"}},"type":"Feature"},
	{"geometry":{"coordinates":[10.995436,59.252457],"type":"Point"},"properties":{"osm_id":"2433745723","tag":{"amenity":"recycling","description":"\u00c3\u0098stfoldhallen nord, p-plass","recycling:glass":"yes","recycling:glass_bottles":"yes","recycling_type":"container","ref:sortere":"16002"}},"type":"Feature"},
	{"geometry":{"coordinates":[10.991641,59.249609],"type":"Point"},"properties":{"osm_id":"3110058829","tag":{"amenity":"recycling","operator":"UFF","recycling:clothes":"yes","recycling_type":"container"}},"type":"Feature"},
	{"geometry":{"coordinates":[10.989119,59.247705],"type":"Point"},"properties":{"osm_id":"3477539312","tag":{"amenity":"recycling","operator":"Idrettsinnsamlingen","recycling:clothes":"yes","recycling_type":"container"}},"type":"Feature"},
	{"geometry":{"coordinates":[10.997346,59.251612],"type":"Point"},"properties":{"osm_id":"3477539348","tag":{"amenity":"recycling","operator":"Idrettsinnsamlingen","recycling:clothes":"yes","recycling_type":"container"}},"type":"Feature"},
	{"geometry":{"coordinates":[10.99736,59.251623],"type":"Point"},"properties":{"osm_id":"3477539349","tag":{"amenity":"recycling","operator":"UFF","recycling:clothes":"yes","recycling_type":"container"}},"type":"Feature"},
	{"geometry":{"coordinates":[10.991446,59.250295],"type":"Point"},"properties":{"osm_id":"4003420889","tag":{"amenity":"recycling","recycling:glass_bottles":"yes","recycling_type":"container","wheelchair":"yes"}},"type":"Feature"},
	{"geometry":{"coordinates":[10.993819,59.244077],"type":"Point"},"properties":{"osm_id":"5555191108","tag":{"amenity":"recycling","description":"Heimdal - Orreveien 3 S\u00c3\u00b8bstadmyra BL","recycling:glass_bottles":"yes","recycling_type":"container","ref:sortere":"10689"}},"type":"Feature"},
	{"geometry":{"coordinates":[11.017727,59.242522],"type":"Point"},"properties":{"osm_id":"5555192361","tag":{"amenity":"recycling","description":"COOP Prix, Torp","recycling:clothes":"yes","recycling:glass_bottles":"yes","recycling_type":"container","ref:sortere":"1386"}},"type":"Feature"},
	{"geometry":{"coordinates":[10.994473,59.227076],"type":"Point"},"properties":{"osm_id":"5555203293","tag":{"amenity":"recycling","description":"DekkCenteret, Sellebakk","recycling:clothes":"yes","recycling:glass_bottles":"yes","recycling_type":"container","ref:sortere":"15987"}},"type":"Feature"},
	{"geometry":{"coordinates":[11.00928,59.230957],"type":"Point"},"properties":{"osm_id":"5555203299","tag":{"amenity":"recycling","description":"Borge ungdomsskole","recycling:clothes":"yes","recycling:glass_bottles":"yes","recycling_type":"container","ref:sortere":"15984"}},"type":"Feature"}
]
}
