{
"type": "FeatureCollection",
"features": [
	{"geometry":{"coordinates":[10.99536,50.963385],"type":"Point"},"properties":{"osm_id":"265354518","tag":{"amenity":"recycling"}},"type":"Feature"},
	{"geometry":{"coordinates":[11.030742,51.010248],"type":"Point"},"properties":{"osm_id":"273432529","tag":{"amenity":"recycling"}},"type":"Feature"},
	{"geometry":{"coordinates":[11.012232,50.976353],"type":"Point"},"properties":{"osm_id":"278829265","tag":{"amenity":"recycling"}},"type":"Feature"},
	{"geometry":{"coordinates":[11.039679,50.971192],"type":"Point"},"properties":{"osm_id":"292293799","tag":{"amenity":"waste_basket"}},"type":"Feature"},
	{"geometry":{"coordinates":[11.039951,50.970537],"type":"Point"},"properties":{"osm_id":"292293864","tag":{"amenity":"waste_basket"}},"type":"Feature"},
	{"geometry":{"coordinates":[11.040172,50.969807],"type":"Point"},"properties":{"osm_id":"292293866","tag":{"amenity":"waste_basket"}},"type":"Feature"},
	{"geometry":{"coordinates":[11.040374,50.969917],"type":"Point"},"properties":{"osm_id":"292293870","tag":{"amenity":"waste_basket"}},"type":"Feature"},
	{"geometry":{"coordinates":[11.03919,50.969511],"type":"Point"},"properties":{"osm_id":"292293913","tag":{"amenity":"waste_basket"}},"type":"Feature"},
	{"geometry":{"coordinates":[11.039313,50.969953],"type":"Point"},"properties":{"osm_id":"292293917","tag":{"amenity":"waste_basket"}},"type":"Feature"},
	{"geometry":{"coordinates":[11.038943,50.970266],"type":"Point"},"properties":{"osm_id":"292293924","tag":{"amenity":"waste_basket"}},"type":"Feature"},
	{"geometry":{"coordinates":[11.038286,50.971002],"type":"Point"},"properties":{"osm_id":"292293933","tag":{"amenity":"waste_basket"}},"type":"Feature"},
	{"geometry":{"coordinates":[11.038162,50.971127],"type":"Point"},"properties":{"osm_id":"292293936","tag":{"amenity":"waste_basket"}},"type":"Feature"},
	{"geometry":{"coordinates":[11.037915,50.971053],"type":"Point"},"properties":{"osm_id":"292293937","tag":{"amenity":"waste_basket"}},"type":"Feature"},
	{"geometry":{"coordinates":[11.037966,50.970909],"type":"Point"},"properties":{"osm_id":"292293946","tag":{"amenity":"waste_basket"}},"type":"Feature"},
	{"geometry":{"coordinates":[11.037582,50.969948],"type":"Point"},"properties":{"osm_id":"292293954","tag":{"amenity":"waste_basket"}},"type":"Feature"},
	{"geometry":{"coordinates":[11.033681,50.969875],"type":"Point"},"properties":{"osm_id":"292704375","tag":{"amenity":"recycling","location":"overground","recycling:glass_bottles":"yes","recycling:paper":"yes","recycling_type":"container"}},"type":"Feature"},
	{"geometry":{"coordinates":[10.997546,50.960559],"type":"Point"},"properties":{"osm_id":"297278624","tag":{"amenity":"recycling","recycling:glass":"yes"}},"type":"Feature"},
	{"geometry":{"coordinates":[11.050751,50.97024],"type":"Point"},"properties":{"osm_id":"304298071","tag":{"amenity":"recycling","recycling_type":"container"}},"type":"Feature"},
	{"geometry":{"coordinates":[11.055746,50.968438],"type":"Point"},"properties":{"osm_id":"304882270","tag":{"amenity":"recycling"}},"type":"Feature"},
	{"geometry":{"coordinates":[11.056374,50.9652],"type":"Point"},"properties":{"osm_id":"306880335","tag":{"amenity":"recycling","recycling:glass":"yes","recycling:paper":"yes"}},"type":"Feature"},
	{"geometry":{"coordinates":[11.053138,50.965422],"type":"Point"},"properties":{"osm_id":"322597222","tag":{"amenity":"recycling","location":"overground","recycling_type":"container"}},"type":"Feature"},
	{"geometry":{"coordinates":[11.048091,50.964747],"type":"Point"},"properties":{"osm_id":"322610066","tag":{"amenity":"recycling","location":"overground","recycling_type":"container"}},"type":"Feature"},
	{"geometry":{"coordinates":[11.050877,50.968039],"type":"Point"},"properties":{"osm_id":"336475453","tag":{"amenity":"recycling","recycling_type":"container"}},"type":"Feature"},
	{"geometry":{"coordinates":[11.02384,50.982896],"type":"Point"},"properties":{"osm_id":"341047338","tag":{"amenity":"recycling","location":"underground","recycling_type":"container"}},"type":"Feature"},
	{"geometry":{"coordinates":[11.04795,50.98132],"type":"Point"},"properties":{"osm_id":"344265297","tag":{"amenity":"recycling","recycling:glass":"yes","recycling_type":"container"}},"type":"Feature"},
	{"geometry":{"coordinates":[11.00799,50.962672],"type":"Point"},"properties":{"osm_id":"344296996","tag":{"amenity":"recycling","location":"overground","recycling:clothes":"yes","recycling_type":"container"}},"type":"Feature"},
	{"geometry":{"coordinates":[11.025914,50.962484],"type":"Point"},"properties":{"osm_id":"408317624","tag":{"amenity":"recycling","recycling:paper":"yes","recycling_type":"container"}},"type":"Feature"},
	{"geometry":{"coordinates":[11.025439,50.959271],"type":"Point"},"properties":{"osm_id":"464743603","tag":{"amenity":"recycling","recycling:glass":"yes","recycling:paper":"yes"}},"type":"Feature"},
	{"geometry":{"coordinates":[11.02644,50.962931],"type":"Point"},"properties":{"osm_id":"464743604","tag":{"amenity":"recycling","location":"overground","recycling:glass":"no","recycling:glass_bottles":"yes","recycling_type":"container"}},"type":"Feature"},
	{"geometry":{"coordinates":[11.025681,50.96803],"type":"Point"},"properties":{"osm_id":"464743605","tag":{"amenity":"recycling","location":"overground","recycling:glass":"yes","recycling:paper":"yes","recycling_type":"container"}},"type":"Feature"},
	{"geometry":{"coordinates":[11.028056,50.970928],"type":"Point"},"properties":{"osm_id":"464743606","tag":{"amenity":"recycling","location":"overground","recycling:clothes":"yes","recycling_type":"container"}},"type":"Feature"},
	{"geometry":{"coordinates":[11.027918,50.971046],"type":"Point"},"properties":{"osm_id":"464743607","tag":{"amenity":"recycling","location":"overground","recycling:glass":"no","recycling:glass_bottles":"yes","recycling_type":"container"}},"type":"Feature"},
	{"geometry":{"coordinates":[11.023585,50.968751],"type":"Point"},"properties":{"osm_id":"464747514","tag":{"amenity":"recycling","location":"overground","recycling:glass":"yes","recycling_type":"container"}},"type":"Feature"},
	{"geometry":{"coordinates":[10.9973,51.012161],"type":"Point"},"properties":{"osm_id":"486683978","tag":{"amenity":"recycling","mapillary":"GXzY5SQJSxH1ZblBhoefZg","recycling:glass_bottles":"yes","recycling_type":"container","survey:date":"2016-05-12"}},"type":"Feature"},
	{"geometry":{"coordinates":[11.05715,50.959653],"type":"Point"},"properties":{"osm_id":"504907456","tag":{"amenity":"recycling","recycling:glass":"yes"}},"type":"Feature"},
	{"geometry":{"coordinates":[11.060357,50.95855],"type":"Point"},"properties":{"osm_id":"565492177","tag":{"amenity":"recycling"}},"type":"Feature"},
	{"geometry":{"coordinates":[10.987752,50.961689],"type":"Point"},"properties":{"osm_id":"597862249","tag":{"amenity":"recycling","recycling:glass":"yes","recycling:paper":"yes"}},"type":"Feature"},
	{"geometry":{"coordinates":[11.012512,50.96993],"type":"Point"},"properties":{"osm_id":"626066864","tag":{"amenity":"recycling","recycling:glass":"yes"}},"type":"Feature"},
	{"geometry":{"coordinates":[11.058645,50.961968],"type":"Point"},"properties":{"osm_id":"664572860","tag":{"amenity":"recycling","description":"Kleidersammlung","operator":"Kolbing","recycling:clothes":"yes","recycling_type":"container"}},"type":"Feature"},
	{"geometry":{"coordinates":[11.018763,50.972115],"type":"Point"},"properties":{"osm_id":"665387223","tag":{"amenity":"recycling","location":"overground","recycling:cardboard":"yes","recycling:clothes":"no","recycling:glass_bottles":"yes","recycling:paper":"yes","recycling_type":"container"}},"type":"Feature"},
	{"geometry":{"coordinates":[11.034865,51.00288],"type":"Point"},"properties":{"osm_id":"674741129","tag":{"amenity":"recycling","recycling:clothes":"yes"}},"type":"Feature"},
	{"geometry":{"coordinates":[11.032534,51.001356],"type":"Point"},"properties":{"osm_id":"674849011","tag":{"amenity":"recycling","recycling:glass":"yes"}},"type":"Feature"},
	{"geometry":{"coordinates":[11.009358,51.000144],"type":"Point"},"properties":{"osm_id":"676773034","tag":{"amenity":"recycling","recycling:glass":"yes"}},"type":"Feature"},
	{"geometry":{"coordinates":[10.994236,51.012288],"type":"Point"},"properties":{"osm_id":"676838969","tag":{"amenity":"recycling","recycling:clothes":"yes"}},"type":"Feature"},
	{"geometry":{"coordinates":[10.995053,51.010347],"type":"Point"},"properties":{"osm_id":"676838972","tag":{"amenity":"recycling","recycling:clothes":"yes","recycling:glass":"yes"}},"type":"Feature"},
	{"geometry":{"coordinates":[10.995633,51.010209],"type":"Point"},"properties":{"osm_id":"676838975","tag":{"amenity":"recycling","recycling:clothes":"yes"}},"type":"Feature"},
	{"geometry":{"coordinates":[10.996385,51.011529],"type":"Point"},"properties":{"osm_id":"677558390","tag":{"amenity":"recycling","recycling:clothes":"yes"}},"type":"Feature"},
	{"geometry":{"coordinates":[11.000957,51.009581],"type":"Point"},"properties":{"osm_id":"694099853","tag":{"access":"private","amenity":"recycling"}},"type":"Feature"},
	{"geometry":{"coordinates":[11.061443,50.972085],"type":"Point"},"properties":{"osm_id":"796692250","tag":{"amenity":"recycling"}},"type":"Feature"},
	{"geometry":{"coordinates":[11.0228,50.987319],"type":"Point"},"properties":{"osm_id":"929511623","tag":{"amenity":"recycling","location":"overground","recycling_type":"container"}},"type":"Feature"},
	{"geometry":{"coordinates":[11.027855,50.982152],"type":"Point"},"properties":{"osm_id":"946964705","tag":{"amenity":"recycling","operator":"Stadtwerke Erfurt","recycling:glass_bottles":"yes","recycling_type":"container"}},"type":"Feature"},
	{"geometry":{"coordinates":[11.027876,50.983043],"type":"Point"},"properties":{"osm_id":"976216420","tag":{"amenity":"recycling","mapillary":"btqcD4iZ-Jg2WFeWOCSFdw","operator":"Stadtwerke Erfurt","recycling:glass":"yes","recycling_type":"container","survey:date":"2016-06-16"}},"type":"Feature"},
	{"geometry":{"coordinates":[11.020734,50.966519],"type":"Point"},"properties":{"osm_id":"1027840556","tag":{"amenity":"recycling","recycling:glass_bottles":"yes","recycling_type":"container"}},"type":"Feature"},
	{"geometry":{"coordinates":[11.070347,50.992853],"type":"Point"},"properties":{"osm_id":"1094892841","tag":{"amenity":"recycling","recycling:clothes":"yes","recycling:glass":"yes"}},"type":"Feature"},
	{"geometry":{"coordinates":[11.071299,50.989809],"type":"Point"},"properties":{"osm_id":"1094892856","tag":{"amenity":"recycling","recycling:glass":"yes"}},"type":"Feature"},
	{"geometry":{"coordinates":[11.069946,50.990864],"type":"Point"},"properties":{"osm_id":"1094892857","tag":{"amenity":"recycling","recycling:glass":"yes"}},"type":"Feature"},
	{"geometry":{"coordinates":[11.01629,50.973624],"type":"Point"},"properties":{"osm_id":"1141040736","tag":{"amenity":"waste_basket"}},"type":"Feature"},
	{"geometry":{"coordinates":[11.016411,50.973997],"type":"Point"},"properties":{"osm_id":"1141041855","tag":{"amenity":"waste_basket"}},"type":"Feature"},
	{"geometry":{"coordinates":[11.016053,50.974108],"type":"Point"},"properties":{"osm_id":"1141044371","tag":{"amenity":"waste_basket"}},"type":"Feature"},
	{"geometry":{"coordinates":[11.005135,50.969829],"type":"Point"},"properties":{"osm_id":"1305641964","tag":{"amenity":"recycling","recycling:glass":"yes","recycling:paper":"yes"}},"type":"Feature"},
	{"geometry":{"coordinates":[11.009478,50.970965],"type":"Point"},"properties":{"osm_id":"1305641965","tag":{"amenity":"recycling","recycling:cardboard":"yes","recycling:glass_bottles":"yes","recycling:paper":"yes","recycling_type":"container"}},"type":"Feature"},
	{"geometry":{"coordinates":[10.988609,50.963953],"type":"Point"},"properties":{"name":"Annahmestelle Gr\u00c3\u00bcnabfall","osm_id":"1318540309","tag":{"addr:city":"Erfurt","addr:postcode":"99094","addr:street":"Im Gebreite","amenity":"recycling","recycling:green_waste":"yes"}},"type":"Feature"},
	{"geometry":{"coordinates":[11.004805,50.97118],"type":"Point"},"properties":{"osm_id":"1325099309","tag":{"amenity":"recycling","recycling:glass":"yes","recycling:paper":"yes"}},"type":"Feature"},
	{"geometry":{"coordinates":[11.026511,50.984963],"type":"Point"},"properties":{"osm_id":"1406954160","tag":{"amenity":"recycling"}},"type":"Feature"},
	{"geometry":{"coordinates":[11.040431,50.985071],"type":"Point"},"properties":{"osm_id":"1408359898","tag":{"amenity":"recycling","recycling:glass":"yes","recycling_type":"container"}},"type":"Feature"},
	{"geometry":{"coordinates":[11.02312,50.984664],"type":"Point"},"properties":{"osm_id":"1408377797","tag":{"amenity":"recycling","location":"overground","recycling_type":"container"}},"type":"Feature"},
	{"geometry":{"coordinates":[11.026244,50.985935],"type":"Point"},"properties":{"osm_id":"1408377815","tag":{"amenity":"recycling","mapillary":"WB0jFGVXPvqe6tbV97aDKg","recycling_type":"container","survey:date":"2016-06-16"}},"type":"Feature"},
	{"geometry":{"coordinates":[11.023526,50.983359],"type":"Point"},"properties":{"osm_id":"1410892225","tag":{"amenity":"recycling"}},"type":"Feature"},
	{"geometry":{"coordinates":[11.024291,50.997594],"type":"Point"},"properties":{"osm_id":"1426925606","tag":{"amenity":"recycling"}},"type":"Feature"},
	{"geometry":{"coordinates":[11.031801,50.982531],"type":"Point"},"properties":{"osm_id":"1432399122","tag":{"amenity":"recycling","recycling:clothes":"yes","recycling_type":"container"}},"type":"Feature"},
	{"geometry":{"coordinates":[11.033053,50.982531],"type":"Point"},"properties":{"osm_id":"1432399126","tag":{"amenity":"recycling","recycling:glass":"yes","recycling:paper":"yes","recycling_type":"container"}},"type":"Feature"},
	{"geometry":{"coordinates":[11.037691,50.984372],"type":"Point"},"properties":{"osm_id":"1432399133","tag":{"amenity":"recycling","recycling:clothes":"yes","recycling_type":"container"}},"type":"Feature"},
	{"geometry":{"coordinates":[11.040716,50.985145],"type":"Point"},"properties":{"osm_id":"1432399137","tag":{"amenity":"recycling","recycling:clothes":"yes","recycling_type":"container"}},"type":"Feature"},
	{"geometry":{"coordinates":[11.043365,50.9865],"type":"Point"},"properties":{"osm_id":"1440380872","tag":{"amenity":"recycling","recycling:clothes":"yes","recycling_type":"container"}},"type":"Feature"},
	{"geometry":{"coordinates":[11.038227,50.986978],"type":"Point"},"properties":{"osm_id":"1440380877","tag":{"amenity":"recycling","recycling:glass":"yes","recycling_type":"container"}},"type":"Feature"},
	{"geometry":{"coordinates":[11.038062,50.987924],"type":"Point"},"properties":{"osm_id":"1440380886","tag":{"amenity":"recycling","recycling:clothes":"yes","recycling_type":"container"}},"type":"Feature"},
	{"geometry":{"coordinates":[11.021172,50.986324],"type":"Point"},"properties":{"osm_id":"1542878658","tag":{"amenity":"recycling","recycling:glass":"yes","recycling:paper":"yes","recycling_type":"container"}},"type":"Feature"},
	{"geometry":{"coordinates":[11.033704,50.987224],"type":"Point"},"properties":{"osm_id":"1614670310","tag":{"amenity":"recycling","recycling_type":"container"}},"type":"Feature"},
	{"geometry":{"coordinates":[11.025516,50.975891],"type":"Point"},"properties":{"osm_id":"1682046004","tag":{"amenity":"recycling","recycling:cardboard":"yes","recycling:glass_bottles":"yes","recycling:paper":"yes","recycling_type":"container"}},"type":"Feature"},
	{"geometry":{"coordinates":[11.044666,50.981277],"type":"Point"},"properties":{"osm_id":"1718347466","tag":{"amenity":"recycling"}},"type":"Feature"},
	{"geometry":{"coordinates":[11.069938,50.98848],"type":"Point"},"properties":{"osm_id":"1732134001","tag":{"amenity":"recycling","recycling:cans":"no","recycling:cardboard":"yes","recycling:clothes":"yes","recycling:glass_bottles":"yes","recycling:paper":"yes","recycling:scrap_metal":"no","recycling_type":"container"}},"type":"Feature"},
	{"geometry":{"coordinates":[11.042076,50.964789],"type":"Point"},"properties":{"osm_id":"1823179337","tag":{"amenity":"recycling","recycling:clothes":"yes","recycling:glass_bottles":"yes","recycling:paper":"yes","recycling_type":"container"}},"type":"Feature"},
	{"geometry":{"coordinates":[11.043649,50.969382],"type":"Point"},"properties":{"osm_id":"1864792362","tag":{"amenity":"waste_basket"}},"type":"Feature"},
	{"geometry":{"coordinates":[11.043173,50.969359],"type":"Point"},"properties":{"osm_id":"1864792427","tag":{"amenity":"recycling","location":"overground","recycling:batteries":"no","recycling:clothes":"yes","recycling:glass":"yes","recycling:paper":"yes","recycling_type":"container"}},"type":"Feature"},
	{"geometry":{"coordinates":[11.025681,50.983206],"type":"Point"},"properties":{"osm_id":"1877147889","tag":{"amenity":"recycling","recycling:waste":"private"}},"type":"Feature"},
	{"geometry":{"coordinates":[11.038676,50.97156],"type":"Point"},"properties":{"osm_id":"2004757368","tag":{"amenity":"waste_basket"}},"type":"Feature"},
	{"geometry":{"coordinates":[11.042309,50.97195],"type":"Point"},"properties":{"osm_id":"2004757369","tag":{"amenity":"recycling","recycling:clothes":"yes","recycling:glass":"yes","recycling:paper":"yes","recycling_type":"container"}},"type":"Feature"},
	{"geometry":{"coordinates":[11.03497,50.988833],"type":"Point"},"properties":{"osm_id":"2041597409","tag":{"amenity":"recycling","recycling:glass_bottles":"yes","recycling_type":"container"}},"type":"Feature"},
	{"geometry":{"coordinates":[11.0339,50.990025],"type":"Point"},"properties":{"osm_id":"2093037686","tag":{"amenity":"recycling","recycling:glass_bottles":"yes","recycling_type":"container"}},"type":"Feature"},
	{"geometry":{"coordinates":[11.033321,51.00388],"type":"Point"},"properties":{"osm_id":"2320751395","tag":{"amenity":"recycling","recycling:glass_bottles":"yes","recycling_type":"container"}},"type":"Feature"},
	{"geometry":{"coordinates":[10.995896,51.010075],"type":"Point"},"properties":{"osm_id":"2371136616","tag":{"amenity":"recycling"}},"type":"Feature"},
	{"geometry":{"coordinates":[10.992895,51.012576],"type":"Point"},"properties":{"osm_id":"2372315729","tag":{"access":"private","amenity":"recycling"}},"type":"Feature"},
	{"geometry":{"coordinates":[10.998066,51.011772],"type":"Point"},"properties":{"osm_id":"2376399367","tag":{"amenity":"recycling"}},"type":"Feature"},
	{"geometry":{"coordinates":[10.999264,51.012203],"type":"Point"},"properties":{"osm_id":"2376399563","tag":{"access":"designated","amenity":"recycling"}},"type":"Feature"},
	{"geometry":{"coordinates":[10.9972,51.012978],"type":"Point"},"properties":{"osm_id":"2376399660","tag":{"amenity":"recycling"}},"type":"Feature"},
	{"geometry":{"coordinates":[10.996821,51.013065],"type":"Point"},"properties":{"osm_id":"2376399937","tag":{"amenity":"recycling"}},"type":"Feature"},
	{"geometry":{"coordinates":[10.996001,51.008343],"type":"Point"},"properties":{"osm_id":"2383119814","tag":{"access":"private","amenity":"recycling"}},"type":"Feature"},
	{"geometry":{"coordinates":[10.999318,51.007172],"type":"Point"},"properties":{"osm_id":"2384676269","tag":{"access":"private","amenity":"recycling"}},"type":"Feature"},
	{"geometry":{"coordinates":[10.997998,51.007153],"type":"Point"},"properties":{"osm_id":"2384676468","tag":{"access":"private","amenity":"recycling"}},"type":"Feature"},
	{"geometry":{"coordinates":[10.999261,51.01203],"type":"Point"},"properties":{"osm_id":"2394161870","tag":{"amenity":"recycling"}},"type":"Feature"},
	{"geometry":{"coordinates":[11.035082,51.010042],"type":"Point"},"properties":{"name":"Scholz Recycling AG & Co.KG","osm_id":"2396597183","tag":{"addr:city":"Erfurt","addr:housenumber":"45","addr:postcode":"99086","addr:street":"Stotternheimer Stra\u00c3\u009fe","amenity":"recycling","recycling:batteries":"yes","recycling:cans":"yes","recycling:cars":"yes","recycling:electrical_appliances":"yes","recycling:scrap_metal":"yes","recycling_type":"centre","website":"http://www.scholz-recycling.de"}},"type":"Feature"},
	{"geometry":{"coordinates":[11.0012,51.007701],"type":"Point"},"properties":{"osm_id":"2399294708","tag":{"access":"private","amenity":"recycling"}},"type":"Feature"},
	{"geometry":{"coordinates":[11.000162,51.007546],"type":"Point"},"properties":{"osm_id":"2399294751","tag":{"access":"private","amenity":"recycling"}},"type":"Feature"},
	{"geometry":{"coordinates":[10.997742,51.00936],"type":"Point"},"properties":{"osm_id":"2399295150","tag":{"access":"private","amenity":"recycling"}},"type":"Feature"},
	{"geometry":{"coordinates":[11.000149,51.010711],"type":"Point"},"properties":{"osm_id":"2405956415","tag":{"access":"private","amenity":"recycling"}},"type":"Feature"},
	{"geometry":{"coordinates":[11.000908,51.011004],"type":"Point"},"properties":{"osm_id":"2405956427","tag":{"access":"private","amenity":"recycling"}},"type":"Feature"},
	{"geometry":{"coordinates":[11.001365,51.008855],"type":"Point"},"properties":{"osm_id":"2410320349","tag":{"access":"private","amenity":"recycling"}},"type":"Feature"},
	{"geometry":{"coordinates":[11.002293,51.008698],"type":"Point"},"properties":{"osm_id":"2410321319","tag":{"access":"private","amenity":"recycling"}},"type":"Feature"},
	{"geometry":{"coordinates":[11.002501,51.010717],"type":"Point"},"properties":{"osm_id":"2416677732","tag":{"access":"private","amenity":"recycling","location":"overground","recycling_type":"container"}},"type":"Feature"},
	{"geometry":{"coordinates":[11.001881,51.011149],"type":"Point"},"properties":{"osm_id":"2416677797","tag":{"access":"private","amenity":"recycling","location":"overground","recycling_type":"container"}},"type":"Feature"},
	{"geometry":{"coordinates":[11.002994,51.010166],"type":"Point"},"properties":{"osm_id":"2416677811","tag":{"access":"private","amenity":"recycling","location":"overground","recycling_type":"container"}},"type":"Feature"},
	{"geometry":{"coordinates":[11.003918,51.008978],"type":"Point"},"properties":{"osm_id":"2420157787","tag":{"access":"private","amenity":"recycling"}},"type":"Feature"},
	{"geometry":{"coordinates":[11.0053,51.009613],"type":"Point"},"properties":{"osm_id":"2420158777","tag":{"amenity":"recycling","recycling:cartons":"yes","recycling:glass_bottles":"yes","recycling:paper":"yes","recycling:plastic":"yes","recycling:plastic_packaging":"yes","recycling_type":"container"}},"type":"Feature"},
	{"geometry":{"coordinates":[11.005093,51.009412],"type":"Point"},"properties":{"osm_id":"2420159304","tag":{"amenity":"recycling"}},"type":"Feature"},
	{"geometry":{"coordinates":[11.016377,50.99495],"type":"Point"},"properties":{"osm_id":"2424590714","tag":{"amenity":"waste_basket"}},"type":"Feature"},
	{"geometry":{"coordinates":[11.026808,51.002483],"type":"Point"},"properties":{"osm_id":"2432273830","tag":{"amenity":"recycling","recycling:glass_bottles":"yes","recycling:paper":"yes","recycling_type":"container"}},"type":"Feature"},
	{"geometry":{"coordinates":[11.032186,51.005206],"type":"Point"},"properties":{"osm_id":"2436870970","tag":{"amenity":"waste_basket","ashtray":"yes"}},"type":"Feature"},
	{"geometry":{"coordinates":[11.003405,51.003621],"type":"Point"},"properties":{"osm_id":"2449601565","tag":{"access":"private","amenity":"recycling"}},"type":"Feature"},
	{"geometry":{"coordinates":[11.003988,51.003535],"type":"Point"},"properties":{"osm_id":"2449601567","tag":{"access":"private","amenity":"recycling","location":"overground","recycling_type":"container"}},"type":"Feature"},
	{"geometry":{"coordinates":[11.00255,51.004647],"type":"Point"},"properties":{"osm_id":"2459205588","tag":{"access":"private","amenity":"recycling"}},"type":"Feature"},
	{"geometry":{"coordinates":[11.026072,50.977169],"type":"Point"},"properties":{"osm_id":"2469889156","tag":{"amenity":"recycling","location":"overground","recycling_type":"container"}},"type":"Feature"},
	{"geometry":{"coordinates":[11.001852,51.005389],"type":"Point"},"properties":{"osm_id":"2472123302","tag":{"access":"private","amenity":"recycling","location":"overground","recycling_type":"container"}},"type":"Feature"},
	{"geometry":{"coordinates":[11.001436,51.006358],"type":"Point"},"properties":{"osm_id":"2472123372","tag":{"access":"private","amenity":"recycling","location":"overground","recycling_type":"container"}},"type":"Feature"},
	{"geometry":{"coordinates":[11.003271,51.006372],"type":"Point"},"properties":{"osm_id":"2482374420","tag":{"amenity":"recycling"}},"type":"Feature"},
	{"geometry":{"coordinates":[11.003987,51.007125],"type":"Point"},"properties":{"osm_id":"2482374712","tag":{"amenity":"recycling"}},"type":"Feature"},
	{"geometry":{"coordinates":[11.032847,51.005111],"type":"Point"},"properties":{"osm_id":"2482589152","tag":{"amenity":"waste_basket"}},"type":"Feature"},
	{"geometry":{"coordinates":[11.032713,51.005115],"type":"Point"},"properties":{"osm_id":"2482589153","tag":{"amenity":"waste_basket"}},"type":"Feature"},
	{"geometry":{"coordinates":[11.032616,51.005117],"type":"Point"},"properties":{"osm_id":"2482589154","tag":{"amenity":"waste_basket"}},"type":"Feature"},
	{"geometry":{"coordinates":[11.032512,51.005119],"type":"Point"},"properties":{"osm_id":"2482589155","tag":{"amenity":"waste_basket"}},"type":"Feature"},
	{"geometry":{"coordinates":[11.005041,51.005733],"type":"Point"},"properties":{"osm_id":"2498813349","tag":{"amenity":"recycling"}},"type":"Feature"},
	{"geometry":{"coordinates":[11.028942,50.975798],"type":"Point"},"properties":{"osm_id":"2500000675","tag":{"amenity":"recycling","mapillary":"o9OqyTtZXDQgn01-d563gQ","recycling_type":"container","survey:date":"2016-06-16"}},"type":"Feature"},
	{"geometry":{"coordinates":[11.032065,50.978333],"type":"Point"},"properties":{"osm_id":"2500012767","tag":{"amenity":"recycling","location":"underground","mapillary":"UWcPVFAJVn-T2mzdwCyOyg","recycling:glass":"yes","recycling_type":"container","survey:date":"2016-06-16","wheelchair":"yes"}},"type":"Feature"},
	{"geometry":{"coordinates":[11.022857,50.979888],"type":"Point"},"properties":{"osm_id":"2500013940","tag":{"amenity":"recycling","location":"underground","recycling:cardboard":"yes","recycling:glass_bottles":"yes","recycling:paper":"yes","recycling_type":"container","wheelchair":"yes"}},"type":"Feature"},
	{"geometry":{"coordinates":[11.040886,50.974276],"type":"Point"},"properties":{"osm_id":"2505243525","tag":{"amenity":"recycling","recycling:glass":"yes","recycling_type":"container"}},"type":"Feature"},
	{"geometry":{"coordinates":[11.048467,50.967371],"type":"Point"},"properties":{"osm_id":"2505255984","tag":{"amenity":"recycling","location":"overground","recycling:glass":"yes","recycling_type":"container"}},"type":"Feature"},
	{"geometry":{"coordinates":[11.050133,50.965552],"type":"Point"},"properties":{"osm_id":"2505260937","tag":{"amenity":"recycling","recycling:glass":"yes","recycling:paper":"no","recycling_type":"container"}},"type":"Feature"},
	{"geometry":{"coordinates":[11.007321,51.004092],"type":"Point"},"properties":{"osm_id":"2505314222","tag":{"amenity":"recycling"}},"type":"Feature"},
	{"geometry":{"coordinates":[11.006751,51.007773],"type":"Point"},"properties":{"osm_id":"2509582259","tag":{"amenity":"recycling","recycling:batteries":"no","recycling:books":"no","recycling:cans":"no","recycling:cardboard":"no","recycling:cartons":"no","recycling:clothes":"yes","recycling:electrical_appliances":"no","recycling:glass":"no","recycling:glass_bottles":"no","recycling:green_waste":"no","recycling:magazines":"no","recycling:newspaper":"no","recycling:paper":"no","recycling:paper_packaging":"no","recycling:plastic":"no","recycling:plastic_bottles":"no","recycling:plastic_packaging":"no","recycling:scrap_metal":"no","recycling:small_appliances":"no","recycling:waste":"no","recycling:wood":"no","recycling_type":"container"}},"type":"Feature"},
	{"geometry":{"coordinates":[11.004241,51.007297],"type":"Point"},"properties":{"osm_id":"2509582603","tag":{"amenity":"recycling"}},"type":"Feature"},
	{"geometry":{"coordinates":[11.005829,51.007971],"type":"Point"},"properties":{"osm_id":"2509582614","tag":{"access":"private","amenity":"recycling"}},"type":"Feature"},
	{"geometry":{"coordinates":[11.004558,51.006868],"type":"Point"},"properties":{"osm_id":"2514394121","tag":{"amenity":"recycling"}},"type":"Feature"},
	{"geometry":{"coordinates":[11.005657,51.0057],"type":"Point"},"properties":{"osm_id":"2514394358","tag":{"amenity":"recycling"}},"type":"Feature"},
	{"geometry":{"coordinates":[11.006642,51.006428],"type":"Point"},"properties":{"osm_id":"2514394736","tag":{"amenity":"recycling"}},"type":"Feature"},
	{"geometry":{"coordinates":[11.006336,51.006624],"type":"Point"},"properties":{"osm_id":"2514394904","tag":{"amenity":"recycling"}},"type":"Feature"},
	{"geometry":{"coordinates":[11.004799,51.006619],"type":"Point"},"properties":{"osm_id":"2514395172","tag":{"amenity":"recycling"}},"type":"Feature"},
	{"geometry":{"coordinates":[11.005408,51.005964],"type":"Point"},"properties":{"osm_id":"2514395302","tag":{"amenity":"recycling"}},"type":"Feature"},
	{"geometry":{"coordinates":[11.006535,51.004929],"type":"Point"},"properties":{"osm_id":"2514432849","tag":{"amenity":"recycling"}},"type":"Feature"},
	{"geometry":{"coordinates":[11.021495,50.985065],"type":"Point"},"properties":{"osm_id":"2613391951","tag":{"amenity":"recycling","location":"underground","recycling:glass":"yes","recycling:paper":"yes","recycling_type":"container"}},"type":"Feature"},
	{"geometry":{"coordinates":[11.067114,50.989312],"type":"Point"},"properties":{"osm_id":"2616519899","tag":{"amenity":"recycling","recycling:glass":"yes"}},"type":"Feature"},
	{"geometry":{"coordinates":[11.005699,51.002683],"type":"Point"},"properties":{"osm_id":"2693326608","tag":{"access":"private","amenity":"recycling"}},"type":"Feature"},
	{"geometry":{"coordinates":[11.006216,51.002872],"type":"Point"},"properties":{"osm_id":"2693326682","tag":{"access":"private","amenity":"recycling"}},"type":"Feature"},
	{"geometry":{"coordinates":[11.006715,51.003061],"type":"Point"},"properties":{"osm_id":"2693326728","tag":{"access":"private","amenity":"recycling"}},"type":"Feature"},
	{"geometry":{"coordinates":[11.00533,51.001246],"type":"Point"},"properties":{"osm_id":"2713795678","tag":{"access":"private","amenity":"recycling","location":"overground","recycling_type":"container"}},"type":"Feature"},
	{"geometry":{"coordinates":[11.004503,51.002149],"type":"Point"},"properties":{"osm_id":"2713910851","tag":{"access":"private","amenity":"recycling"}},"type":"Feature"},
	{"geometry":{"coordinates":[11.007447,51.000008],"type":"Point"},"properties":{"osm_id":"2734790411","tag":{"amenity":"recycling"}},"type":"Feature"},
	{"geometry":{"coordinates":[11.00635,51.00055],"type":"Point"},"properties":{"osm_id":"2734790931","tag":{"access":"private","amenity":"recycling"}},"type":"Feature"},
	{"geometry":{"coordinates":[11.013437,50.980558],"type":"Point"},"properties":{"osm_id":"3001900319","tag":{"amenity":"recycling","location":"overground","recycling:paper":"yes","recycling_type":"container"}},"type":"Feature"},
	{"geometry":{"coordinates":[11.008273,51.0033],"type":"Point"},"properties":{"osm_id":"3054378552","tag":{"amenity":"recycling"}},"type":"Feature"},
	{"geometry":{"coordinates":[10.999704,51.008524],"type":"Point"},"properties":{"osm_id":"3059848054","tag":{"access":"private","amenity":"recycling"}},"type":"Feature"},
	{"geometry":{"coordinates":[11.035419,50.976843],"type":"Point"},"properties":{"osm_id":"3085800273","tag":{"amenity":"waste_basket"}},"type":"Feature"},
	{"geometry":{"coordinates":[11.033877,50.976727],"type":"Point"},"properties":{"osm_id":"3085802671","tag":{"amenity":"waste_basket"}},"type":"Feature"},
	{"geometry":{"coordinates":[11.033931,50.976452],"type":"Point"},"properties":{"osm_id":"3085802788","tag":{"amenity":"waste_basket"}},"type":"Feature"},
	{"geometry":{"coordinates":[11.033721,50.976533],"type":"Point"},"properties":{"osm_id":"3085802789","tag":{"amenity":"waste_basket"}},"type":"Feature"},
	{"geometry":{"coordinates":[11.034164,50.9764],"type":"Point"},"properties":{"osm_id":"3085802790","tag":{"amenity":"waste_basket"}},"type":"Feature"},
	{"geometry":{"coordinates":[11.034553,50.976556],"type":"Point"},"properties":{"osm_id":"3085802791","tag":{"amenity":"waste_basket"}},"type":"Feature"},
	{"geometry":{"coordinates":[11.034043,50.976565],"type":"Point"},"properties":{"osm_id":"3085803439","tag":{"amenity":"waste_basket"}},"type":"Feature"},
	{"geometry":{"coordinates":[11.034097,50.976298],"type":"Point"},"properties":{"osm_id":"3085804547","tag":{"amenity":"waste_basket"}},"type":"Feature"},
	{"geometry":{"coordinates":[11.034167,50.97619],"type":"Point"},"properties":{"osm_id":"3085804548","tag":{"amenity":"waste_basket"}},"type":"Feature"},
	{"geometry":{"coordinates":[11.033792,50.975752],"type":"Point"},"properties":{"osm_id":"3085805043","tag":{"amenity":"waste_basket"}},"type":"Feature"},
	{"geometry":{"coordinates":[11.033971,50.975913],"type":"Point"},"properties":{"osm_id":"3085805862","tag":{"amenity":"waste_basket"}},"type":"Feature"},
	{"geometry":{"coordinates":[11.034499,50.976131],"type":"Point"},"properties":{"osm_id":"3085805924","tag":{"amenity":"waste_basket"}},"type":"Feature"},
	{"geometry":{"coordinates":[11.034055,50.976013],"type":"Point"},"properties":{"osm_id":"3085806148","tag":{"amenity":"waste_basket"}},"type":"Feature"},
	{"geometry":{"coordinates":[11.034387,50.976604],"type":"Point"},"properties":{"osm_id":"3085806149","tag":{"amenity":"waste_basket"}},"type":"Feature"},
	{"geometry":{"coordinates":[11.033998,50.9757],"type":"Point"},"properties":{"osm_id":"3085806301","tag":{"amenity":"waste_basket"}},"type":"Feature"},
	{"geometry":{"coordinates":[11.034507,50.976028],"type":"Point"},"properties":{"osm_id":"3085806302","tag":{"amenity":"waste_basket"}},"type":"Feature"},
	{"geometry":{"coordinates":[11.034612,50.976293],"type":"Point"},"properties":{"osm_id":"3085806578","tag":{"amenity":"waste_basket"}},"type":"Feature"},
	{"geometry":{"coordinates":[11.035132,50.976585],"type":"Point"},"properties":{"osm_id":"3085808237","tag":{"amenity":"waste_basket"}},"type":"Feature"},
	{"geometry":{"coordinates":[11.035304,50.976749],"type":"Point"},"properties":{"osm_id":"3085808238","tag":{"amenity":"waste_basket"}},"type":"Feature"},
	{"geometry":{"coordinates":[11.034743,50.976408],"type":"Point"},"properties":{"osm_id":"3085808239","tag":{"amenity":"waste_basket"}},"type":"Feature"},
	{"geometry":{"coordinates":[11.034534,50.97621],"type":"Point"},"properties":{"osm_id":"3085808240","tag":{"amenity":"waste_basket"}},"type":"Feature"},
	{"geometry":{"coordinates":[11.034886,50.976416],"type":"Point"},"properties":{"osm_id":"3085808241","tag":{"amenity":"waste_basket"}},"type":"Feature"},
	{"geometry":{"coordinates":[11.035795,50.977033],"type":"Point"},"properties":{"osm_id":"3085809254","tag":{"amenity":"waste_basket"}},"type":"Feature"},
	{"geometry":{"coordinates":[11.035655,50.976962],"type":"Point"},"properties":{"osm_id":"3085809255","tag":{"amenity":"waste_basket"}},"type":"Feature"},
	{"geometry":{"coordinates":[11.035508,50.976889],"type":"Point"},"properties":{"osm_id":"3085809256","tag":{"amenity":"waste_basket"}},"type":"Feature"},
	{"geometry":{"coordinates":[11.035368,50.976803],"type":"Point"},"properties":{"osm_id":"3085809257","tag":{"amenity":"waste_basket"}},"type":"Feature"},
	{"geometry":{"coordinates":[11.035418,50.978057],"type":"Point"},"properties":{"osm_id":"3085810109","tag":{"amenity":"waste_basket"}},"type":"Feature"},
	{"geometry":{"coordinates":[11.035055,50.97762],"type":"Point"},"properties":{"osm_id":"3085811941","tag":{"amenity":"waste_basket"}},"type":"Feature"},
	{"geometry":{"coordinates":[11.034853,50.976629],"type":"Point"},"properties":{"osm_id":"3085811942","tag":{"amenity":"waste_basket"}},"type":"Feature"},
	{"geometry":{"coordinates":[11.034633,50.976462],"type":"Point"},"properties":{"osm_id":"3085811943","tag":{"amenity":"waste_basket"}},"type":"Feature"},
	{"geometry":{"coordinates":[11.035317,50.977649],"type":"Point"},"properties":{"osm_id":"3085811986","tag":{"amenity":"waste_basket"}},"type":"Feature"},
	{"geometry":{"coordinates":[11.034886,50.977852],"type":"Point"},"properties":{"osm_id":"3085811987","tag":{"amenity":"waste_basket"}},"type":"Feature"},
	{"geometry":{"coordinates":[11.035412,50.977838],"type":"Point"},"properties":{"osm_id":"3085811988","tag":{"amenity":"waste_basket"}},"type":"Feature"},
	{"geometry":{"coordinates":[11.035086,50.97705],"type":"Point"},"properties":{"osm_id":"3085811989","tag":{"amenity":"waste_basket"}},"type":"Feature"},
	{"geometry":{"coordinates":[11.035049,50.977195],"type":"Point"},"properties":{"osm_id":"3085811990","tag":{"amenity":"waste_basket"}},"type":"Feature"},
	{"geometry":{"coordinates":[11.036133,50.977306],"type":"Point"},"properties":{"osm_id":"3085812418","tag":{"amenity":"waste_basket"}},"type":"Feature"},
	{"geometry":{"coordinates":[11.035631,50.977921],"type":"Point"},"properties":{"osm_id":"3085812419","tag":{"amenity":"waste_basket"}},"type":"Feature"},
	{"geometry":{"coordinates":[11.03606,50.977852],"type":"Point"},"properties":{"osm_id":"3085812420","tag":{"amenity":"waste_basket"}},"type":"Feature"},
	{"geometry":{"coordinates":[11.0358,50.977723],"type":"Point"},"properties":{"osm_id":"3085812421","tag":{"amenity":"waste_basket"}},"type":"Feature"},
	{"geometry":{"coordinates":[11.036439,50.97732],"type":"Point"},"properties":{"osm_id":"3085812422","tag":{"amenity":"waste_basket"}},"type":"Feature"},
	{"geometry":{"coordinates":[11.035572,50.97747],"type":"Point"},"properties":{"osm_id":"3085812541","tag":{"amenity":"waste_basket"}},"type":"Feature"},
	{"geometry":{"coordinates":[11.035143,50.97744],"type":"Point"},"properties":{"osm_id":"3085812542","tag":{"amenity":"waste_basket"}},"type":"Feature"},
	{"geometry":{"coordinates":[11.035822,50.977301],"type":"Point"},"properties":{"osm_id":"3085813439","tag":{"amenity":"waste_basket"}},"type":"Feature"},
	{"geometry":{"coordinates":[11.035905,50.977242],"type":"Point"},"properties":{"osm_id":"3085814100","tag":{"amenity":"waste_basket"}},"type":"Feature"},
	{"geometry":{"coordinates":[11.03617,50.977195],"type":"Point"},"properties":{"osm_id":"3085814101","tag":{"amenity":"waste_basket"}},"type":"Feature"},
	{"geometry":{"coordinates":[11.022516,50.971581],"type":"Point"},"properties":{"osm_id":"3085827726","tag":{"amenity":"waste_basket"}},"type":"Feature"},
	{"geometry":{"coordinates":[11.037117,50.968896],"type":"Point"},"properties":{"osm_id":"3476876379","tag":{"amenity":"waste_basket"}},"type":"Feature"},
	{"geometry":{"coordinates":[11.037768,50.969026],"type":"Point"},"properties":{"osm_id":"3476876380","tag":{"amenity":"recycling","description:de":"zwei Container f\u00c3\u00bcr Papier, je einer f\u00c3\u00bcr Braun-, Wei\u00c3\u009f- und Gr\u00c3\u00bcnglas sowie ein Altkleidercontainer","recycling:clothes":"yes","recycling:glass":"yes","recycling:paper":"yes","recycling_type":"container"}},"type":"Feature"},
	{"geometry":{"coordinates":[11.038776,50.969323],"type":"Point"},"properties":{"osm_id":"3476876382","tag":{"amenity":"waste_basket"}},"type":"Feature"},
	{"geometry":{"coordinates":[11.036039,50.969524],"type":"Point"},"properties":{"osm_id":"3476876383","tag":{"amenity":"waste_basket"}},"type":"Feature"},
	{"geometry":{"coordinates":[11.056071,50.992116],"type":"Point"},"properties":{"osm_id":"3478844704","tag":{"amenity":"recycling","description:de":"Altglascontainer f\u00c3\u00bcr Braun- Wei\u00c3\u009f- und Gr\u00c3\u00bcnglas","recycling:glass":"yes","recycling_type":"container"}},"type":"Feature"},
	{"geometry":{"coordinates":[11.009281,51.006985],"type":"Point"},"properties":{"osm_id":"3495109332","tag":{"amenity":"waste_basket"}},"type":"Feature"},
	{"geometry":{"coordinates":[11.008374,51.00799],"type":"Point"},"properties":{"osm_id":"3495109334","tag":{"amenity":"waste_basket"}},"type":"Feature"},
	{"geometry":{"coordinates":[11.004656,51.012597],"type":"Point"},"properties":{"osm_id":"3495109346","tag":{"amenity":"waste_basket"}},"type":"Feature"},
	{"geometry":{"coordinates":[11.002821,51.01312],"type":"Point"},"properties":{"osm_id":"3495109363","tag":{"amenity":"waste_basket"}},"type":"Feature"},
	{"geometry":{"coordinates":[11.009324,50.963832],"type":"Point"},"properties":{"osm_id":"3521778609","tag":{"amenity":"waste_basket"}},"type":"Feature"},
	{"geometry":{"coordinates":[11.009724,50.964692],"type":"Point"},"properties":{"osm_id":"3521807295","tag":{"amenity":"waste_basket"}},"type":"Feature"},
	{"geometry":{"coordinates":[11.035933,50.963779],"type":"Point"},"properties":{"osm_id":"3524375789","tag":{"amenity":"waste_basket"}},"type":"Feature"},
	{"geometry":{"coordinates":[11.036257,50.963817],"type":"Point"},"properties":{"osm_id":"3524375790","tag":{"amenity":"waste_basket"}},"type":"Feature"},
	{"geometry":{"coordinates":[11.010165,50.963324],"type":"Point"},"properties":{"osm_id":"3530835085","tag":{"amenity":"waste_basket"}},"type":"Feature"},
	{"geometry":{"coordinates":[11.009116,50.963484],"type":"Point"},"properties":{"osm_id":"3530835086","tag":{"amenity":"waste_basket"}},"type":"Feature"},
	{"geometry":{"coordinates":[11.009262,50.963566],"type":"Point"},"properties":{"osm_id":"3530835089","tag":{"amenity":"waste_basket"}},"type":"Feature"},
	{"geometry":{"coordinates":[11.009274,50.963652],"type":"Point"},"properties":{"osm_id":"3530835090","tag":{"amenity":"waste_basket"}},"type":"Feature"},
	{"geometry":{"coordinates":[11.0101,50.963862],"type":"Point"},"properties":{"osm_id":"3530835091","tag":{"amenity":"waste_basket"}},"type":"Feature"},
	{"geometry":{"coordinates":[11.008877,50.96394],"type":"Point"},"properties":{"osm_id":"3530835092","tag":{"amenity":"waste_basket"}},"type":"Feature"},
	{"geometry":{"coordinates":[11.00994,50.96417],"type":"Point"},"properties":{"osm_id":"3530842679","tag":{"amenity":"waste_basket"}},"type":"Feature"},
	{"geometry":{"coordinates":[11.00971,50.964206],"type":"Point"},"properties":{"osm_id":"3530842685","tag":{"amenity":"waste_basket"}},"type":"Feature"},
	{"geometry":{"coordinates":[11.009484,50.964248],"type":"Point"},"properties":{"osm_id":"3530843721","tag":{"amenity":"waste_basket"}},"type":"Feature"},
	{"geometry":{"coordinates":[11.00894,50.964018],"type":"Point"},"properties":{"osm_id":"3530869497","tag":{"amenity":"waste_basket"}},"type":"Feature"},
	{"geometry":{"coordinates":[11.010309,50.964077],"type":"Point"},"properties":{"osm_id":"3530869500","tag":{"amenity":"waste_basket"}},"type":"Feature"},
	{"geometry":{"coordinates":[11.010397,50.964223],"type":"Point"},"properties":{"osm_id":"3530869505","tag":{"amenity":"waste_basket"}},"type":"Feature"},
	{"geometry":{"coordinates":[11.0092,50.964255],"type":"Point"},"properties":{"osm_id":"3530869508","tag":{"amenity":"waste_basket"}},"type":"Feature"},
	{"geometry":{"coordinates":[11.011134,50.964468],"type":"Point"},"properties":{"osm_id":"3530869511","tag":{"amenity":"waste_basket"}},"type":"Feature"},
	{"geometry":{"coordinates":[11.011507,50.965644],"type":"Point"},"properties":{"osm_id":"3530882143","tag":{"amenity":"waste_basket"}},"type":"Feature"},
	{"geometry":{"coordinates":[11.011442,50.965656],"type":"Point"},"properties":{"osm_id":"3530882144","tag":{"amenity":"waste_basket"}},"type":"Feature"},
	{"geometry":{"coordinates":[11.010594,50.962928],"type":"Point"},"properties":{"osm_id":"3530912715","tag":{"amenity":"waste_basket"}},"type":"Feature"},
	{"geometry":{"coordinates":[11.010704,50.963005],"type":"Point"},"properties":{"osm_id":"3530912727","tag":{"amenity":"waste_basket"}},"type":"Feature"},
	{"geometry":{"coordinates":[11.01131,50.963493],"type":"Point"},"properties":{"osm_id":"3530912732","tag":{"amenity":"waste_basket"}},"type":"Feature"},
	{"geometry":{"coordinates":[11.010952,50.963538],"type":"Point"},"properties":{"osm_id":"3530912735","tag":{"amenity":"waste_basket"}},"type":"Feature"},
	{"geometry":{"coordinates":[11.011372,50.963573],"type":"Point"},"properties":{"osm_id":"3530912737","tag":{"amenity":"waste_basket"}},"type":"Feature"},
	{"geometry":{"coordinates":[11.011603,50.963679],"type":"Point"},"properties":{"osm_id":"3530912739","tag":{"amenity":"waste_basket"}},"type":"Feature"},
	{"geometry":{"coordinates":[11.011778,50.964188],"type":"Point"},"properties":{"osm_id":"3530912742","tag":{"amenity":"waste_basket"}},"type":"Feature"},
	{"geometry":{"coordinates":[11.011745,50.964288],"type":"Point"},"properties":{"osm_id":"3530912745","tag":{"amenity":"waste_basket"}},"type":"Feature"},
	{"geometry":{"coordinates":[11.011873,50.964944],"type":"Point"},"properties":{"osm_id":"3530912752","tag":{"amenity":"waste_basket"}},"type":"Feature"},
	{"geometry":{"coordinates":[11.039917,50.998328],"type":"Point"},"properties":{"osm_id":"3531580834","tag":{"amenity":"waste_basket"}},"type":"Feature"},
	{"geometry":{"coordinates":[11.040275,50.998398],"type":"Point"},"properties":{"osm_id":"3531580835","tag":{"amenity":"waste_basket"}},"type":"Feature"},
	{"geometry":{"coordinates":[11.037797,51.002681],"type":"Point"},"properties":{"osm_id":"3531586637","tag":{"amenity":"waste_basket"}},"type":"Feature"},
	{"geometry":{"coordinates":[11.034348,50.963528],"type":"Point"},"properties":{"osm_id":"3531625370","tag":{"amenity":"waste_basket"}},"type":"Feature"},
	{"geometry":{"coordinates":[11.034287,50.963717],"type":"Point"},"properties":{"osm_id":"3531625376","tag":{"amenity":"waste_basket"}},"type":"Feature"},
	{"geometry":{"coordinates":[11.034276,50.963753],"type":"Point"},"properties":{"osm_id":"3531625378","tag":{"amenity":"waste_basket"}},"type":"Feature"},
	{"geometry":{"coordinates":[11.030612,50.983004],"type":"Point"},"properties":{"osm_id":"3764487723","tag":{"access":"private","amenity":"recycling","recycling_type":"container"}},"type":"Feature"},
	{"geometry":{"coordinates":[11.030472,50.983246],"type":"Point"},"properties":{"osm_id":"3764487960","tag":{"amenity":"waste_basket"}},"type":"Feature"},
	{"geometry":{"coordinates":[11.062029,50.97122],"type":"Point"},"properties":{"osm_id":"3832364441","tag":{"amenity":"recycling"}},"type":"Feature"},
	{"geometry":{"coordinates":[11.035963,50.979568],"type":"Point"},"properties":{"osm_id":"3950353009","tag":{"access":"private","amenity":"recycling","recycling_type":"container"}},"type":"Feature"},
	{"geometry":{"coordinates":[11.035674,50.979885],"type":"Point"},"properties":{"osm_id":"3950353209","tag":{"access":"private","amenity":"recycling","recycling_type":"container"}},"type":"Feature"},
	{"geometry":{"coordinates":[11.03489,50.979896],"type":"Point"},"properties":{"osm_id":"3950353213","tag":{"amenity":"waste_basket"}},"type":"Feature"},
	{"geometry":{"coordinates":[11.035368,50.980221],"type":"Point"},"properties":{"osm_id":"3950353396","tag":{"access":"private","amenity":"recycling","recycling_type":"container"}},"type":"Feature"},
	{"geometry":{"coordinates":[11.035314,50.980294],"type":"Point"},"properties":{"osm_id":"3950353400","tag":{"amenity":"recycling","recycling:cardboard":"yes","recycling:clothes":"yes","recycling:glass_bottles":"yes","recycling:paper":"yes","recycling:shoes":"yes","recycling_type":"container"}},"type":"Feature"},
	{"geometry":{"coordinates":[11.035029,50.982487],"type":"Point"},"properties":{"osm_id":"3964557488","tag":{"amenity":"recycling","recycling:cardboard":"yes","recycling:glass_bottles":"yes","recycling:paper":"yes","recycling:plastic":"yes","recycling:plastic_bottles":"yes","recycling:plastic_packaging":"yes","recycling_type":"container"}},"type":"Feature"},
	{"geometry":{"coordinates":[11.017415,50.961357],"type":"Point"},"properties":{"osm_id":"3992080946","tag":{"amenity":"recycling","last_checked":"2017-04","operator":"SWE - Stadtwerke Erfurt","recycling:glass":"yes","recycling_type":"container"}},"type":"Feature"},
	{"geometry":{"coordinates":[11.048703,50.961712],"type":"Point"},"properties":{"osm_id":"4030881388","tag":{"amenity":"recycling","recycling:cardboard":"yes","recycling:glass":"no","recycling:glass_bottles":"yes","recycling:paper":"yes","recycling:plastic_packaging":"yes","recycling_type":"container"}},"type":"Feature"},
	{"geometry":{"coordinates":[11.036331,50.981264],"type":"Point"},"properties":{"osm_id":"4072069242","tag":{"access":"private","amenity":"recycling","recycling_type":"container"}},"type":"Feature"},
	{"geometry":{"coordinates":[11.039054,50.96433],"type":"Point"},"properties":{"osm_id":"4109640381","tag":{"addr:city":"Erfurt","addr:country":"DE","addr:postcode":"99096","addr:street":"Johann-Sebastian-Bach-Stra\u00c3\u009fe","amenity":"recycling","recycling:clothes":"yes","recycling:glass_bottles":"yes","recycling:paper":"yes","recycling:plastic":"no","recycling_type":"container"}},"type":"Feature"},
	{"geometry":{"coordinates":[11.0491,50.960371],"type":"Point"},"properties":{"osm_id":"4157814762","tag":{"amenity":"recycling","recycling:cardboard":"yes","recycling:glass":"yes","recycling:paper":"yes","recycling_type":"container"}},"type":"Feature"},
	{"geometry":{"coordinates":[11.058104,50.961936],"type":"Point"},"properties":{"osm_id":"4163476964","tag":{"amenity":"recycling","description":"Papiertonne","operator":"swe","recycling:paper":"yes","recycling_type":"container"}},"type":"Feature"},
	{"geometry":{"coordinates":[10.992804,51.006889],"type":"Point"},"properties":{"osm_id":"4269951425","tag":{"amenity":"recycling","clothes":"yes","operator":"texaid","shoes":"yes","website":"https://www.texaid.de/"}},"type":"Feature"},
	{"geometry":{"coordinates":[11.06062,50.991698],"type":"Point"},"properties":{"osm_id":"4477906478","tag":{"amenity":"recycling","recycling:clothes":"yes","recycling:glass":"yes","recycling:glass_bottles":"yes"}},"type":"Feature"},
	{"geometry":{"coordinates":[11.05817,50.98981],"type":"Point"},"properties":{"osm_id":"4485936699","tag":{"amenity":"recycling","recycling:clothes":"yes","recycling:glass":"yes","recycling:glass_bottles":"yes"}},"type":"Feature"},
	{"geometry":{"coordinates":[11.044939,50.983572],"type":"Point"},"properties":{"osm_id":"4872909167","tag":{"amenity":"recycling","recycling:glass":"yes","recycling:paper":"yes","recycling_type":"container"}},"type":"Feature"},
	{"geometry":{"coordinates":[11.010093,50.991837],"type":"Point"},"properties":{"barrier":"gate","osm_id":"5129737722"},"type":"Feature"},
	{"geometry":{"coordinates":[11.051444,50.986801],"type":"Point"},"properties":{"osm_id":"5152489127","tag":{"amenity":"recycling","description":"Glascontainer","recycling:glass":"yes","recycling_type":"container"}},"type":"Feature"},
	{"geometry":{"coordinates":[11.014678,50.997038],"type":"Point"},"properties":{"osm_id":"5346703681","tag":{"amenity":"waste_basket"}},"type":"Feature"},
	{"geometry":{"coordinates":[11.0223,50.9737],"type":"Point"},"properties":{"osm_id":"5749280822","tag":{"amenity":"recycling","operator":"SWE Entsorgung"}},"type":"Feature"},
	{"geometry":{"coordinates":[11.002,50.978145],"type":"Point"},"properties":{"osm_id":"5776763783","tag":{"amenity":"waste_basket"}},"type":"Feature"},
	{"geometry":{"coordinates":[11.072224,50.975263],"type":"Point"},"properties":{"osm_id":"5820095111","tag":{"amenity":"recycling"}},"type":"Feature"},
	{"geometry":{"coordinates":[11.015166,50.965895],"type":"Point"},"properties":{"osm_id":"5837089570","tag":{"amenity":"recycling","recycling:glass":"yes","recycling:paper":"no","recycling_type":"container"}},"type":"Feature"},
	{"geometry":{"coordinates":[11.017815,50.964541],"type":"Point"},"properties":{"osm_id":"5837089571","tag":{"amenity":"recycling","recycling:glass":"no","recycling:paper":"yes","recycling_type":"container"}},"type":"Feature"},
	{"geometry":{"coordinates":[11.027877,50.982303],"type":"Point"},"properties":{"osm_id":"6191846579","tag":{"amenity":"waste_basket"}},"type":"Feature"},
	{"geometry":{"coordinates":[11.026479,50.983162],"type":"Point"},"properties":{"osm_id":"6278093018","tag":{"amenity":"recycling","location":"overground","recycling:waste":"private","recycling_type":"container"}},"type":"Feature"},
	{"geometry":{"coordinates":[11.0269,50.98321],"type":"Point"},"properties":{"osm_id":"6278093019","tag":{"amenity":"recycling","location":"overground","recycling:waste":"private","recycling_type":"container"}},"type":"Feature"},
	{"geometry":{"coordinates":[11.035169,50.977326],"type":"Point"},"properties":{"osm_id":"6281986522","tag":{"amenity":"waste_basket"}},"type":"Feature"},
	{"geometry":{"coordinates":[11.034294,50.975992],"type":"Point"},"properties":{"osm_id":"6281986524","tag":{"amenity":"waste_basket"}},"type":"Feature"},
	{"geometry":{"coordinates":[11.015012,50.983127],"type":"Point"},"properties":{"osm_id":"6352144850","tag":{"amenity":"recycling","recycling_type":"container"}},"type":"Feature"},
	{"geometry":{"coordinates":[11.01772,50.994884],"type":"Point"},"properties":{"osm_id":"6467715289","tag":{"amenity":"waste_basket"}},"type":"Feature"},
	{"geometry":{"coordinates":[11.015368,50.987491],"type":"Point"},"properties":{"osm_id":"6467715295","tag":{"amenity":"waste_basket"}},"type":"Feature"},
	{"geometry":{"coordinates":[11.020931,50.985841],"type":"Point"},"properties":{"osm_id":"6467729292","tag":{"amenity":"waste_basket"}},"type":"Feature"},
	{"geometry":{"coordinates":[11.017253,50.994914],"type":"Point"},"properties":{"osm_id":"6467729487","tag":{"amenity":"waste_basket"}},"type":"Feature"},
	{"geometry":{"coordinates":[11.014204,50.998943],"type":"Point"},"properties":{"osm_id":"6469253296","tag":{"amenity":"recycling","recycling:glass":"yes","recycling:glass_bottles":"yes","recycling_type":"container"}},"type":"Feature"},
	{"geometry":{"coordinates":[11.060007,50.958617],"type":"Point"},"properties":{"osm_id":"6480168463","tag":{"amenity":"recycling","recycling_type":"container"}},"type":"Feature"},
	{"geometry":{"coordinates":[11.024077,50.98279],"type":"Point"},"properties":{"osm_id":"6482538585","tag":{"amenity":"waste_basket"}},"type":"Feature"},
	{"geometry":{"coordinates":[11.059109,50.961604],"type":"Point"},"properties":{"osm_id":"6763934500","tag":{"amenity":"recycling","description":"Glascontainer","operator":"SWE erfurt","recycling:glass":"yes","recycling:glass_bottles":"yes","recycling_type":"container"}},"type":"Feature"},
	{"geometry":{"coordinates":[11.063038,50.959757],"type":"Point"},"properties":{"osm_id":"6776939298","tag":{"amenity":"recycling","operator":"SWE erfurt","recycling:glass":"yes","recycling:glass_bottles":"yes","recycling_type":"container"}},"type":"Feature"},
	{"geometry":{"coordinates":[11.06001,50.961316],"type":"Point"},"properties":{"osm_id":"6776953537","tag":{"amenity":"recycling","recycling:clothes":"yes","recycling_type":"container"}},"type":"Feature"},
	{"geometry":{"coordinates":[11.059977,50.961313],"type":"Point"},"properties":{"osm_id":"6776953538","tag":{"amenity":"recycling","operator":"swe erfurt","recycling:paper":"yes","recycling_type":"container"}},"type":"Feature"},
	{"geometry":{"coordinates":[11.061397,50.96082],"type":"Point"},"properties":{"osm_id":"6786608025","tag":{"amenity":"recycling","recycling:clothes":"yes","recycling_type":"container"}},"type":"Feature"},
	{"geometry":{"coordinates":[11.061427,50.960846],"type":"Point"},"properties":{"osm_id":"6786608026","tag":{"amenity":"recycling","operator":"swe erfurt","recycling:glass":"yes","recycling:glass_bottles":"yes","recycling_type":"container"}},"type":"Feature"},
	{"geometry":{"coordinates":[11.033729,50.993062],"type":"Point"},"properties":{"osm_id":"6819315886","tag":{"amenity":"recycling","recycling_type":"container"}},"type":"Feature"},
	{"geometry":{"coordinates":[11.033402,50.99975],"type":"Point"},"properties":{"osm_id":"7049237861","tag":{"amenity":"recycling","recycling:clothes":"yes","recycling:glass_bottles":"yes","recycling:paper":"yes","recycling_type":"container"}},"type":"Feature"},
	{"geometry":{"coordinates":[11.03844,50.979089],"type":"Point"},"properties":{"osm_id":"7062457091","tag":{"amenity":"recycling","recycling:glass_bottles":"yes","recycling_type":"container"}},"type":"Feature"},
	{"geometry":{"coordinates":[11.028924,50.978035],"type":"Point"},"properties":{"osm_id":"7099353304","tag":{"amenity":"waste_basket"}},"type":"Feature"},
	{"geometry":{"coordinates":[11.0296,50.978387],"type":"Point"},"properties":{"osm_id":"7099353306","tag":{"amenity":"waste_basket"}},"type":"Feature"},
	{"geometry":{"coordinates":[11.020849,50.966495],"type":"Point"},"properties":{"osm_id":"7103994514","tag":{"amenity":"recycling","recycling:clothes":"yes","recycling_type":"container"}},"type":"Feature"},
	{"geometry":{"coordinates":[11.047865,50.971689],"type":"Point"},"properties":{"osm_id":"7116503717","tag":{"amenity":"recycling","recycling:glass_bottles":"yes","recycling_type":"container"}},"type":"Feature"},
	{"geometry":{"coordinates":[11.055971,50.970704],"type":"Point"},"properties":{"osm_id":"7183856154","tag":{"amenity":"recycling","recycling:clothes":"yes","recycling_type":"container"}},"type":"Feature"},
	{"geometry":{"coordinates":[11.019346,50.989631],"type":"Point"},"properties":{"osm_id":"7353796964","tag":{"amenity":"recycling","recycling:glass":"yes","recycling_type":"container"}},"type":"Feature"},
	{"geometry":{"coordinates":[11.019998,50.98982],"type":"Point"},"properties":{"osm_id":"7353796977","tag":{"amenity":"waste_basket"}},"type":"Feature"},
	{"geometry":{"coordinates":[11.019781,50.989697],"type":"Point"},"properties":{"osm_id":"7353796980","tag":{"amenity":"waste_basket"}},"type":"Feature"},
	{"geometry":{"coordinates":[11.047532,50.971683],"type":"Point"},"properties":{"osm_id":"7374502306","tag":{"amenity":"recycling","recycling:clothes":"yes","recycling_type":"container"}},"type":"Feature"},
	{"geometry":{"coordinates":[11.030844,50.976852],"type":"Point"},"properties":{"osm_id":"7840329382","tag":{"amenity":"waste_basket"}},"type":"Feature"},
	{"geometry":{"coordinates":[11.030755,50.976706],"type":"Point"},"properties":{"osm_id":"7840329383","tag":{"amenity":"waste_basket"}},"type":"Feature"},
	{"geometry":{"coordinates":[11.044637,50.988269],"type":"Point"},"properties":{"osm_id":"7908232035","tag":{"amenity":"recycling","recycling_type":"container"}},"type":"Feature"},
	{"geometry":{"coordinates":[11.028063,50.964263],"type":"Point"},"properties":{"osm_id":"7924160268","tag":{"amenity":"recycling","operator":"FWS Altkleider Containerservice","recycling:clothes":"yes","recycling_type":"container"}},"type":"Feature"},
	{"geometry":{"coordinates":[11.028935,50.963121],"type":"Point"},"properties":{"osm_id":"7924160269","tag":{"amenity":"recycling","operator":"SWE - Stadtwerke Erfurt","recycling:glass":"yes","recycling_type":"container"}},"type":"Feature"},
	{"geometry":{"coordinates":[11.03286,50.962785],"type":"Point"},"properties":{"osm_id":"7924160270","tag":{"amenity":"recycling","operator":"FWS Altkleider Containerservice","recycling:clothes":"yes","recycling_type":"container"}},"type":"Feature"},
	{"geometry":{"coordinates":[11.033837,50.961705],"type":"Point"},"properties":{"osm_id":"7924160280","tag":{"amenity":"recycling","operator":"SWE - Stadtwerke Erfurt","recycling:glass":"yes","recycling:paper":"yes","recycling_type":"container"}},"type":"Feature"},
	{"geometry":{"coordinates":[11.028737,50.960712],"type":"Point"},"properties":{"osm_id":"7924160281","tag":{"amenity":"recycling","operator":"SWE - Stadtwerke Erfurt","recycling:paper":"yes","recycling_type":"container"}},"type":"Feature"},
	{"geometry":{"coordinates":[11.02873,50.960633],"type":"Point"},"properties":{"osm_id":"7924160282","tag":{"amenity":"recycling","operator":"SWE - Stadtwerke Erfurt","recycling:glass":"yes","recycling_type":"container"}},"type":"Feature"},
	{"geometry":{"coordinates":[11.028816,50.960354],"type":"Point"},"properties":{"osm_id":"7924200987","tag":{"amenity":"waste_basket"}},"type":"Feature"},
	{"geometry":{"coordinates":[11.028236,50.959626],"type":"Point"},"properties":{"osm_id":"7924200993","tag":{"amenity":"waste_basket"}},"type":"Feature"},
	{"geometry":{"coordinates":[11.025923,50.960788],"type":"Point"},"properties":{"osm_id":"7929542007","tag":{"amenity":"recycling","operator":"FWS Altkleider Containerservice","recycling:clothes":"yes","recycling_type":"container"}},"type":"Feature"}
]
}
