{
"type": "FeatureCollection",
"features": [
	{"geometry":{"coordinates":[11.046734,49.717562],"type":"Point"},"properties":{"osm_id":"203773048","tag":{"amenity":"waste_basket"}},"type":"Feature"},
	{"geometry":{"coordinates":[11.046329,49.718842],"type":"Point"},"properties":{"osm_id":"203773104","tag":{"amenity":"waste_basket"}},"type":"Feature"},
	{"geometry":{"coordinates":[11.068179,49.71353],"type":"Point"},"properties":{"osm_id":"290210951","tag":{"amenity":"recycling","recycling:glass":"yes"}},"type":"Feature"},
	{"geometry":{"coordinates":[11.070139,49.719919],"type":"Point"},"properties":{"osm_id":"294920459","tag":{"amenity":"recycling","location":"overground","recycling_type":"container"}},"type":"Feature"},
	{"geometry":{"coordinates":[10.996952,49.686918],"type":"Point"},"properties":{"osm_id":"316915137","tag":{"amenity":"recycling","opening_hours":"Mo,We 09:00-12:00; Sa 09:00-12:00"}},"type":"Feature"},
	{"geometry":{"coordinates":[11.072673,49.69491],"type":"Point"},"properties":{"osm_id":"430180062","tag":{"amenity":"recycling","recycling:glass":"yes"}},"type":"Feature"},
	{"geometry":{"coordinates":[11.065039,49.710216],"type":"Point"},"properties":{"osm_id":"431323581","tag":{"amenity":"recycling","recycling:clothes":"yes","recycling:glass":"yes","recycling:paper":"no","recycling:scrap_metal":"yes"}},"type":"Feature"},
	{"geometry":{"coordinates":[11.068445,49.720059],"type":"Point"},"properties":{"osm_id":"431323636","tag":{"amenity":"recycling","recycling:clothes":"yes","recycling:glass":"yes","recycling_type":"container"}},"type":"Feature"},
	{"geometry":{"coordinates":[11.069777,49.667874],"type":"Point"},"properties":{"osm_id":"446681051","tag":{"amenity":"recycling"}},"type":"Feature"},
	{"geometry":{"coordinates":[11.043938,49.695421],"type":"Point"},"properties":{"osm_id":"573263380","tag":{"amenity":"recycling"}},"type":"Feature"},
	{"geometry":{"coordinates":[11.059541,49.72071],"type":"Point"},"properties":{"osm_id":"677208405","tag":{"amenity":"waste_basket"}},"type":"Feature"},
	{"geometry":{"coordinates":[11.060725,49.720125],"type":"Point"},"properties":{"osm_id":"677208600","tag":{"amenity":"waste_basket"}},"type":"Feature"},
	{"geometry":{"coordinates":[11.06104,49.720359],"type":"Point"},"properties":{"osm_id":"677208674","tag":{"amenity":"waste_basket"}},"type":"Feature"},
	{"geometry":{"coordinates":[11.06013,49.721443],"type":"Point"},"properties":{"osm_id":"677208886","tag":{"amenity":"waste_basket"}},"type":"Feature"},
	{"geometry":{"coordinates":[11.059416,49.722901],"type":"Point"},"properties":{"osm_id":"677208944","tag":{"amenity":"waste_basket"}},"type":"Feature"},
	{"geometry":{"coordinates":[11.060477,49.72305],"type":"Point"},"properties":{"osm_id":"677208984","tag":{"amenity":"waste_basket"}},"type":"Feature"},
	{"geometry":{"coordinates":[11.061028,49.722629],"type":"Point"},"properties":{"osm_id":"677209146","tag":{"amenity":"waste_basket"}},"type":"Feature"},
	{"geometry":{"coordinates":[11.061275,49.722576],"type":"Point"},"properties":{"osm_id":"677209152","tag":{"amenity":"waste_basket"}},"type":"Feature"},
	{"geometry":{"coordinates":[11.060729,49.72296],"type":"Point"},"properties":{"osm_id":"677209325","tag":{"amenity":"waste_basket"}},"type":"Feature"},
	{"geometry":{"coordinates":[11.060943,49.722802],"type":"Point"},"properties":{"osm_id":"677209328","tag":{"amenity":"waste_basket"}},"type":"Feature"},
	{"geometry":{"coordinates":[11.061385,49.723309],"type":"Point"},"properties":{"osm_id":"677209342","tag":{"amenity":"waste_basket"}},"type":"Feature"},
	{"geometry":{"coordinates":[11.060924,49.723666],"type":"Point"},"properties":{"osm_id":"677209355","tag":{"amenity":"waste_basket"}},"type":"Feature"},
	{"geometry":{"coordinates":[11.06053,49.724034],"type":"Point"},"properties":{"osm_id":"677209365","tag":{"amenity":"waste_basket"}},"type":"Feature"},
	{"geometry":{"coordinates":[11.062835,49.723091],"type":"Point"},"properties":{"osm_id":"677209452","tag":{"amenity":"recycling","recycling:paper":"yes"}},"type":"Feature"},
	{"geometry":{"coordinates":[11.063547,49.721746],"type":"Point"},"properties":{"osm_id":"677209747","tag":{"amenity":"waste_basket"}},"type":"Feature"},
	{"geometry":{"coordinates":[11.011707,49.703817],"type":"Point"},"properties":{"highway":"bus_stop","osm_id":"699050926","tag":{"amenity":"waste_basket","shelter":"yes"}},"type":"Feature"},
	{"geometry":{"coordinates":[11.024722,49.67157],"type":"Point"},"properties":{"osm_id":"699050979","tag":{"amenity":"waste_basket"}},"type":"Feature"},
	{"geometry":{"coordinates":[11.026516,49.692679],"type":"Point"},"properties":{"osm_id":"699050984","tag":{"amenity":"waste_basket"}},"type":"Feature"},
	{"geometry":{"coordinates":[11.022398,49.66874],"type":"Point"},"properties":{"osm_id":"699051032","tag":{"amenity":"waste_basket"}},"type":"Feature"},
	{"geometry":{"coordinates":[11.034728,49.723837],"type":"Point"},"properties":{"osm_id":"705039278","tag":{"amenity":"waste_basket"}},"type":"Feature"},
	{"geometry":{"coordinates":[11.034034,49.719772],"type":"Point"},"properties":{"osm_id":"705039357","tag":{"amenity":"waste_basket"}},"type":"Feature"},
	{"geometry":{"coordinates":[10.999389,49.701417],"type":"Point"},"properties":{"osm_id":"709108774","tag":{"amenity":"waste_basket"}},"type":"Feature"},
	{"geometry":{"coordinates":[11.059396,49.723388],"type":"Point"},"properties":{"osm_id":"710884250","tag":{"amenity":"waste_basket"}},"type":"Feature"},
	{"geometry":{"coordinates":[11.057313,49.719332],"type":"Point"},"properties":{"osm_id":"718901573","tag":{"amenity":"waste_basket"}},"type":"Feature"},
	{"geometry":{"coordinates":[11.057409,49.719448],"type":"Point"},"properties":{"osm_id":"718901671","tag":{"amenity":"waste_basket"}},"type":"Feature"},
	{"geometry":{"coordinates":[11.057431,49.718913],"type":"Point"},"properties":{"osm_id":"718901676","tag":{"amenity":"waste_basket"}},"type":"Feature"},
	{"geometry":{"coordinates":[11.071776,49.704219],"type":"Point"},"properties":{"osm_id":"870753128","tag":{"amenity":"recycling","recycling:cans":"no","recycling:glass":"yes","recycling_type":"container"}},"type":"Feature"},
	{"geometry":{"coordinates":[11.064782,49.718276],"type":"Point"},"properties":{"osm_id":"891048166","tag":{"amenity":"waste_basket"}},"type":"Feature"},
	{"geometry":{"coordinates":[11.062085,49.716382],"type":"Point"},"properties":{"osm_id":"891048214","tag":{"amenity":"waste_basket"}},"type":"Feature"},
	{"geometry":{"coordinates":[11.060426,49.716874],"type":"Point"},"properties":{"osm_id":"891048398","tag":{"amenity":"waste_basket"}},"type":"Feature"},
	{"geometry":{"coordinates":[11.06191,49.71682],"type":"Point"},"properties":{"osm_id":"891048431","tag":{"amenity":"waste_basket"}},"type":"Feature"},
	{"geometry":{"coordinates":[11.061704,49.716537],"type":"Point"},"properties":{"osm_id":"891048466","tag":{"amenity":"waste_basket"}},"type":"Feature"},
	{"geometry":{"coordinates":[11.063073,49.716916],"type":"Point"},"properties":{"osm_id":"891048506","tag":{"amenity":"waste_basket"}},"type":"Feature"},
	{"geometry":{"coordinates":[11.061739,49.720191],"type":"Point"},"properties":{"osm_id":"906336582","tag":{"amenity":"waste_basket"}},"type":"Feature"},
	{"geometry":{"coordinates":[11.065945,49.718241],"type":"Point"},"properties":{"osm_id":"906336585","tag":{"amenity":"waste_basket"}},"type":"Feature"},
	{"geometry":{"coordinates":[11.060281,49.718603],"type":"Point"},"properties":{"osm_id":"906336595","tag":{"amenity":"waste_basket","lastcheck":"2017-03-22"}},"type":"Feature"},
	{"geometry":{"coordinates":[11.058196,49.720142],"type":"Point"},"properties":{"osm_id":"906336658","tag":{"amenity":"waste_basket"}},"type":"Feature"},
	{"geometry":{"coordinates":[11.060276,49.719314],"type":"Point"},"properties":{"osm_id":"906336745","tag":{"amenity":"waste_basket"}},"type":"Feature"},
	{"geometry":{"coordinates":[11.069032,49.677221],"type":"Point"},"properties":{"osm_id":"920589217","tag":{"amenity":"recycling","recycling:glass":"yes"}},"type":"Feature"},
	{"geometry":{"coordinates":[11.060543,49.709675],"type":"Point"},"properties":{"osm_id":"1156608085","tag":{"amenity":"recycling","recycling:glass":"yes","recycling_type":"container"}},"type":"Feature"},
	{"geometry":{"coordinates":[11.054966,49.706108],"type":"Point"},"properties":{"osm_id":"1163080256","tag":{"amenity":"recycling","recycling:cans":"yes","recycling:glass":"yes","recycling:scrap_metal":"yes"}},"type":"Feature"},
	{"geometry":{"coordinates":[11.044475,49.714373],"type":"Point"},"properties":{"name":"Wertstoffhof Forchheim-Burk","osm_id":"1175497048","tag":{"addr:city":"Forchheim","addr:postcode":"91301","addr:street":"Seetalweg","amenity":"recycling","opening_hours":"Tu 16:00-18:00, Fr 16:00-18:00, Sa 09:00-13:00; Oct Su[-1]-Mar Su[-1] -1 day: Tu 15:00-17:00; Oct Su[-1]-Mar Su[-1] -1 day: Fr 15:00-17:00; PH off","operator":"Landkreisamt Forchheim","recycling:cans":"yes","recycling:clothes":"yes","recycling:glass":"yes","recycling:glass_bottles":"yes","recycling:paper":"yes","recycling:plastic":"yes","recycling:scrap_metal":"yes","recycling_type":"container","website":"http://www.landkreis-forchheim.de/site/2_aufgabenbereiche/Abfallwirtschaft/Abfallwirtschaft/infos_wertstoffhoefe/oeffnungszeiten_wertstoffhoefe.php"}},"type":"Feature"},
	{"geometry":{"coordinates":[11.043664,49.716653],"type":"Point"},"properties":{"osm_id":"1757655564","tag":{"amenity":"waste_basket"}},"type":"Feature"},
	{"geometry":{"coordinates":[11.043375,49.67047],"type":"Point"},"properties":{"osm_id":"3393093520","tag":{"amenity":"recycling","recycling:clothes":"yes","recycling_type":"container"}},"type":"Feature"},
	{"geometry":{"coordinates":[11.019771,49.669285],"type":"Point"},"properties":{"osm_id":"3522472115","tag":{"amenity":"waste_basket"}},"type":"Feature"},
	{"geometry":{"coordinates":[11.061097,49.709702],"type":"Point"},"properties":{"osm_id":"4121301416","tag":{"amenity":"waste_basket"}},"type":"Feature"},
	{"geometry":{"coordinates":[11.049879,49.721414],"type":"Point"},"properties":{"osm_id":"4241998560","tag":{"amenity":"waste_basket"}},"type":"Feature"},
	{"geometry":{"coordinates":[11.055203,49.715009],"type":"Point"},"properties":{"osm_id":"4596952175","tag":{"amenity":"waste_basket"}},"type":"Feature"},
	{"geometry":{"coordinates":[11.064138,49.713228],"type":"Point"},"properties":{"osm_id":"5143605555","tag":{"amenity":"recycling","recycling:glass":"yes","recycling_type":"container"}},"type":"Feature"},
	{"geometry":{"coordinates":[11.068192,49.705108],"type":"Point"},"properties":{"osm_id":"6615145187","tag":{"amenity":"recycling","recycling:clothes":"yes","recycling_type":"container"}},"type":"Feature"},
	{"geometry":{"coordinates":[11.067556,49.714267],"type":"Point"},"properties":{"osm_id":"7443523969","tag":{"amenity":"waste_basket"}},"type":"Feature"},
	{"geometry":{"coordinates":[11.067894,49.714202],"type":"Point"},"properties":{"osm_id":"7443523970","tag":{"amenity":"waste_basket"}},"type":"Feature"},
	{"geometry":{"coordinates":[11.055952,49.718977],"type":"Point"},"properties":{"osm_id":"7474498274","tag":{"amenity":"waste_basket"}},"type":"Feature"},
	{"geometry":{"coordinates":[11.055619,49.719144],"type":"Point"},"properties":{"osm_id":"7474498276","tag":{"amenity":"waste_basket"}},"type":"Feature"},
	{"geometry":{"coordinates":[11.055305,49.719135],"type":"Point"},"properties":{"osm_id":"7474498279","tag":{"amenity":"waste_basket"}},"type":"Feature"},
	{"geometry":{"coordinates":[11.05522,49.718872],"type":"Point"},"properties":{"osm_id":"7474498281","tag":{"amenity":"waste_basket"}},"type":"Feature"},
	{"geometry":{"coordinates":[11.054872,49.718994],"type":"Point"},"properties":{"osm_id":"7474498283","tag":{"amenity":"waste_basket"}},"type":"Feature"},
	{"geometry":{"coordinates":[11.061419,49.722513],"type":"Point"},"properties":{"osm_id":"7474562863","tag":{"amenity":"waste_basket"}},"type":"Feature"},
	{"geometry":{"coordinates":[11.061116,49.723505],"type":"Point"},"properties":{"osm_id":"7474562865","tag":{"amenity":"waste_basket"}},"type":"Feature"},
	{"geometry":{"coordinates":[11.060866,49.723825],"type":"Point"},"properties":{"osm_id":"7474562867","tag":{"amenity":"waste_basket","waste":"dog_excrement"}},"type":"Feature"},
	{"geometry":{"coordinates":[11.060187,49.723182],"type":"Point"},"properties":{"osm_id":"7474562871","tag":{"amenity":"waste_basket"}},"type":"Feature"},
	{"geometry":{"coordinates":[11.060579,49.723374],"type":"Point"},"properties":{"osm_id":"7474562872","tag":{"amenity":"waste_basket"}},"type":"Feature"},
	{"geometry":{"coordinates":[11.059431,49.723794],"type":"Point"},"properties":{"osm_id":"7474582085","tag":{"amenity":"waste_basket"}},"type":"Feature"},
	{"geometry":{"coordinates":[11.059706,49.723927],"type":"Point"},"properties":{"osm_id":"7474582086","tag":{"amenity":"waste_basket"}},"type":"Feature"},
	{"geometry":{"coordinates":[11.058234,49.723788],"type":"Point"},"properties":{"osm_id":"7474582088","tag":{"amenity":"waste_basket","waste":"dog_excrement"}},"type":"Feature"},
	{"geometry":{"coordinates":[11.058003,49.72342],"type":"Point"},"properties":{"osm_id":"7474582093","tag":{"amenity":"waste_basket"}},"type":"Feature"},
	{"geometry":{"coordinates":[11.057255,49.723013],"type":"Point"},"properties":{"osm_id":"7474582100","tag":{"amenity":"waste_basket"}},"type":"Feature"},
	{"geometry":{"coordinates":[11.056851,49.722992],"type":"Point"},"properties":{"osm_id":"7474582101","tag":{"amenity":"waste_basket"}},"type":"Feature"},
	{"geometry":{"coordinates":[11.056646,49.723206],"type":"Point"},"properties":{"osm_id":"7474582103","tag":{"amenity":"waste_basket"}},"type":"Feature"},
	{"geometry":{"coordinates":[11.056912,49.723238],"type":"Point"},"properties":{"osm_id":"7474582106","tag":{"amenity":"waste_basket"}},"type":"Feature"},
	{"geometry":{"coordinates":[11.056607,49.722792],"type":"Point"},"properties":{"osm_id":"7474582109","tag":{"amenity":"waste_basket"}},"type":"Feature"},
	{"geometry":{"coordinates":[11.05678,49.72211],"type":"Point"},"properties":{"osm_id":"7474582113","tag":{"amenity":"waste_basket"}},"type":"Feature"},
	{"geometry":{"coordinates":[11.055793,49.721488],"type":"Point"},"properties":{"osm_id":"7474582119","tag":{"amenity":"waste_basket"}},"type":"Feature"},
	{"geometry":{"coordinates":[11.055613,49.721572],"type":"Point"},"properties":{"osm_id":"7474582120","tag":{"amenity":"waste_basket"}},"type":"Feature"},
	{"geometry":{"coordinates":[11.055639,49.722047],"type":"Point"},"properties":{"osm_id":"7474582123","tag":{"amenity":"waste_basket"}},"type":"Feature"},
	{"geometry":{"coordinates":[11.054942,49.719164],"type":"Point"},"properties":{"osm_id":"7474603085","tag":{"amenity":"waste_basket"}},"type":"Feature"},
	{"geometry":{"coordinates":[11.054596,49.719098],"type":"Point"},"properties":{"osm_id":"7474603086","tag":{"amenity":"waste_basket","waste":"dog_excrement"}},"type":"Feature"},
	{"geometry":{"coordinates":[11.054474,49.72023],"type":"Point"},"properties":{"osm_id":"7474603092","tag":{"amenity":"waste_basket"}},"type":"Feature"},
	{"geometry":{"coordinates":[11.054735,49.720612],"type":"Point"},"properties":{"osm_id":"7474603095","tag":{"amenity":"waste_basket"}},"type":"Feature"},
	{"geometry":{"coordinates":[11.050311,49.715817],"type":"Point"},"properties":{"osm_id":"7474618141","tag":{"amenity":"waste_basket"}},"type":"Feature"},
	{"geometry":{"coordinates":[11.050423,49.715508],"type":"Point"},"properties":{"osm_id":"7474618142","tag":{"amenity":"waste_basket"}},"type":"Feature"},
	{"geometry":{"coordinates":[11.050467,49.715306],"type":"Point"},"properties":{"osm_id":"7474618144","tag":{"amenity":"waste_basket"}},"type":"Feature"},
	{"geometry":{"coordinates":[11.049513,49.715957],"type":"Point"},"properties":{"osm_id":"7474618154","tag":{"amenity":"waste_basket"}},"type":"Feature"},
	{"geometry":{"coordinates":[11.04955,49.71617],"type":"Point"},"properties":{"osm_id":"7474618156","tag":{"amenity":"waste_basket"}},"type":"Feature"},
	{"geometry":{"coordinates":[11.049657,49.716486],"type":"Point"},"properties":{"osm_id":"7474618159","tag":{"amenity":"waste_basket"}},"type":"Feature"},
	{"geometry":{"coordinates":[11.048751,49.716461],"type":"Point"},"properties":{"osm_id":"7474618161","tag":{"amenity":"waste_basket"}},"type":"Feature"},
	{"geometry":{"coordinates":[11.049524,49.716643],"type":"Point"},"properties":{"osm_id":"7474618163","tag":{"amenity":"waste_basket"}},"type":"Feature"},
	{"geometry":{"coordinates":[11.049646,49.716657],"type":"Point"},"properties":{"osm_id":"7474618164","tag":{"amenity":"waste_basket"}},"type":"Feature"},
	{"geometry":{"coordinates":[11.047363,49.716262],"type":"Point"},"properties":{"osm_id":"7474618167","tag":{"amenity":"waste_basket"}},"type":"Feature"},
	{"geometry":{"coordinates":[11.047143,49.716783],"type":"Point"},"properties":{"osm_id":"7474618171","tag":{"amenity":"waste_basket"}},"type":"Feature"},
	{"geometry":{"coordinates":[11.049724,49.717336],"type":"Point"},"properties":{"osm_id":"7474636054","tag":{"amenity":"waste_basket"}},"type":"Feature"},
	{"geometry":{"coordinates":[11.049515,49.717667],"type":"Point"},"properties":{"osm_id":"7474636060","tag":{"amenity":"waste_basket"}},"type":"Feature"},
	{"geometry":{"coordinates":[11.046464,49.718158],"type":"Point"},"properties":{"osm_id":"7474636073","tag":{"amenity":"waste_basket"}},"type":"Feature"},
	{"geometry":{"coordinates":[11.047065,49.718882],"type":"Point"},"properties":{"osm_id":"7474636080","tag":{"amenity":"waste_basket"}},"type":"Feature"},
	{"geometry":{"coordinates":[11.047184,49.718826],"type":"Point"},"properties":{"osm_id":"7474636081","tag":{"amenity":"waste_basket"}},"type":"Feature"},
	{"geometry":{"coordinates":[11.047146,49.718622],"type":"Point"},"properties":{"osm_id":"7474636084","tag":{"amenity":"waste_basket"}},"type":"Feature"},
	{"geometry":{"coordinates":[11.047048,49.718485],"type":"Point"},"properties":{"osm_id":"7474700186","tag":{"amenity":"waste_basket"}},"type":"Feature"},
	{"geometry":{"coordinates":[11.046812,49.718526],"type":"Point"},"properties":{"osm_id":"7474700189","tag":{"amenity":"waste_basket"}},"type":"Feature"},
	{"geometry":{"coordinates":[11.046806,49.718564],"type":"Point"},"properties":{"osm_id":"7474700191","tag":{"amenity":"waste_basket"}},"type":"Feature"},
	{"geometry":{"coordinates":[11.046719,49.719234],"type":"Point"},"properties":{"osm_id":"7474700193","tag":{"amenity":"waste_basket"}},"type":"Feature"},
	{"geometry":{"coordinates":[11.047541,49.719728],"type":"Point"},"properties":{"osm_id":"7474700195","tag":{"amenity":"waste_basket"}},"type":"Feature"},
	{"geometry":{"coordinates":[11.068109,49.713854],"type":"Point"},"properties":{"osm_id":"7577588229","tag":{"amenity":"recycling","recycling_type":"centre"}},"type":"Feature"},
	{"geometry":{"coordinates":[11.047009,49.679506],"type":"Point"},"properties":{"osm_id":"7705191638","tag":{"amenity":"waste_basket","material":"plastic"}},"type":"Feature"},
	{"geometry":{"coordinates":[11.029429,49.669295],"type":"Point"},"properties":{"osm_id":"7714341614","tag":{"amenity":"waste_basket"}},"type":"Feature"}
]
}
