{
"type": "FeatureCollection",
"features": [
	{"geometry":{"coordinates":[11.023813,49.544382],"type":"Point"},"properties":{"osm_id":"302956511","tag":{"amenity":"recycling","opening_hours":"Mo-Fr 08:00-17:00, Sa 08:00-13:00","recycling_type":"container"}},"type":"Feature"},
	{"geometry":{"coordinates":[11.030578,49.55252],"type":"Point"},"properties":{"osm_id":"315859271","tag":{"amenity":"recycling","location":"overground","recycling:clothes":"yes","recycling:glass":"yes","recycling:small_electrical_appliances":"yes","recycling_type":"container"}},"type":"Feature"},
	{"geometry":{"coordinates":[11.023394,49.552371],"type":"Point"},"properties":{"osm_id":"324781825","tag":{"amenity":"recycling","recycling:glass":"yes"}},"type":"Feature"},
	{"geometry":{"coordinates":[11.017319,49.551],"type":"Point"},"properties":{"osm_id":"343688553","tag":{"amenity":"recycling","recycling:cans":"yes","recycling:clothes":"yes","recycling:glass":"yes","recycling_type":"container"}},"type":"Feature"},
	{"geometry":{"coordinates":[11.021042,49.553141],"type":"Point"},"properties":{"osm_id":"558527713","tag":{"amenity":"recycling","recycling:cans":"yes","recycling:clothes":"yes","recycling:glass":"yes","recycling:paper":"yes","recycling_type":"container"}},"type":"Feature"},
	{"geometry":{"coordinates":[11.023623,49.522051],"type":"Point"},"properties":{"name":"Wertstoffhof Boxdorf","osm_id":"600413323","tag":{"addr:city":"N\u00c3\u00bcrnberg","addr:country":"DE","addr:housenumber":"17","addr:postcode":"90427","addr:street":"W\u00c3\u00bcrzburger Stra\u00c3\u009fe","amenity":"recycling","loc_ref":"6","opening_hours":"Tu,Fr 09:30-18:00; Sa 09:30-15:00","recycling_type":"centre","website":"https://www.nuernberg.de/internet/abfallwirtschaft/wertstoffhoefe_adressen.html"}},"type":"Feature"},
	{"geometry":{"coordinates":[11.027808,49.534437],"type":"Point"},"properties":{"osm_id":"701090776","tag":{"amenity":"recycling","location":"overground","recycling_type":"container"}},"type":"Feature"},
	{"geometry":{"coordinates":[11.032436,49.517097],"type":"Point"},"properties":{"osm_id":"705246372","tag":{"amenity":"recycling"}},"type":"Feature"},
	{"geometry":{"coordinates":[11.025253,49.518613],"type":"Point"},"properties":{"osm_id":"824628899","tag":{"amenity":"recycling","location":"overground","mapillary":"v5MSnB_WzXeoQPASoANlww","recycling:glass":"no","recycling:glass_bottles":"yes","recycling_type":"container","survey:date":"2020-01-20"}},"type":"Feature"},
	{"geometry":{"coordinates":[11.006151,49.516735],"type":"Point"},"properties":{"osm_id":"834490472","tag":{"amenity":"recycling","location":"overground","recycling_type":"container"}},"type":"Feature"},
	{"geometry":{"coordinates":[11.044089,49.501356],"type":"Point"},"properties":{"osm_id":"835924320","tag":{"amenity":"recycling","location":"overground","recycling_type":"container"}},"type":"Feature"},
	{"geometry":{"coordinates":[11.014695,49.50428],"type":"Point"},"properties":{"osm_id":"835924324","tag":{"amenity":"recycling","location":"overground","recycling_type":"container"}},"type":"Feature"},
	{"geometry":{"coordinates":[11.004198,49.497445],"type":"Point"},"properties":{"osm_id":"838090474","tag":{"amenity":"recycling","location":"overground","recycling_type":"container"}},"type":"Feature"},
	{"geometry":{"coordinates":[11.032534,49.522944],"type":"Point"},"properties":{"osm_id":"844555031","tag":{"amenity":"waste_basket"}},"type":"Feature"},
	{"geometry":{"coordinates":[10.98901,49.547063],"type":"Point"},"properties":{"osm_id":"1617114755","tag":{"amenity":"recycling","recycling:glass_bottles":"yes","recycling_type":"container"}},"type":"Feature"},
	{"geometry":{"coordinates":[11.01554,49.523252],"type":"Point"},"properties":{"osm_id":"2294116148","tag":{"amenity":"recycling","recycling:clothes":"yes","recycling:glass_bottles":"yes","recycling:shoes":"yes","recycling_type":"container"}},"type":"Feature"},
	{"geometry":{"coordinates":[10.9975,49.514019],"type":"Point"},"properties":{"osm_id":"2385833454","tag":{"amenity":"recycling","mapillary":"0KuPGS-4u5V5llaHkqWHwA","recycling:clothes":"yes","recycling:glass":"no","recycling:glass_bottles":"yes","recycling_type":"container","survey:date":"2018-07-10"}},"type":"Feature"},
	{"geometry":{"coordinates":[11.029761,49.545775],"type":"Point"},"properties":{"osm_id":"2469651150","tag":{"amenity":"recycling"}},"type":"Feature"},
	{"geometry":{"coordinates":[11.067344,49.526824],"type":"Point"},"properties":{"osm_id":"2583458449","tag":{"amenity":"waste_basket"}},"type":"Feature"},
	{"geometry":{"coordinates":[11.067795,49.526875],"type":"Point"},"properties":{"osm_id":"2583458455","tag":{"amenity":"waste_basket"}},"type":"Feature"},
	{"geometry":{"coordinates":[11.067129,49.526913],"type":"Point"},"properties":{"osm_id":"2583458458","tag":{"amenity":"waste_basket"}},"type":"Feature"},
	{"geometry":{"coordinates":[11.067505,49.526997],"type":"Point"},"properties":{"osm_id":"2583458463","tag":{"amenity":"waste_basket"}},"type":"Feature"},
	{"geometry":{"coordinates":[11.001433,49.51224],"type":"Point"},"properties":{"name":"Gebrauchtwarenhof","osm_id":"3898213133","tag":{"addr:housenumber":"14","addr:street":"Industriestra\u00c3\u009fe","amenity":"recycling","description":"Abholung/Annahme/Verkauf gebrauchter und funktionst\u00c3\u00bcchtiger Dinge","opening_hours":"Mo-Fr 09:00-19:00; Sa 09:00-16:00","phone":"+49 911 307320","second_hand":"general","shop":"second_hand","website":"www.gebrauchtwarenhof.de"}},"type":"Feature"},
	{"geometry":{"coordinates":[10.989317,49.552747],"type":"Point"},"properties":{"osm_id":"5120116497","tag":{"amenity":"recycling","opening_hours":"Mo-Sa 07:00-19:00","recycling:glass":"yes","recycling_type":"container"}},"type":"Feature"},
	{"geometry":{"coordinates":[11.015877,49.549255],"type":"Point"},"properties":{"osm_id":"5681221534","tag":{"amenity":"waste_basket","waste":"trash"}},"type":"Feature"},
	{"geometry":{"coordinates":[11.043796,49.518467],"type":"Point"},"properties":{"osm_id":"6044307567","tag":{"amenity":"recycling","recycling:clothes":"yes","recycling:glass":"yes","recycling_type":"container"}},"type":"Feature"},
	{"geometry":{"coordinates":[11.045885,49.518589],"type":"Point"},"properties":{"osm_id":"6049701280","tag":{"amenity":"waste_basket"}},"type":"Feature"},
	{"geometry":{"coordinates":[11.045809,49.518417],"type":"Point"},"properties":{"osm_id":"6049701281","tag":{"amenity":"waste_basket"}},"type":"Feature"}
]
}
