{
"type": "FeatureCollection",
"features": [
	{"geometry":{"coordinates":[11.018991,49.196179],"type":"Point"},"properties":{"osm_id":"314312449","tag":{"amenity":"recycling","recycling:glass":"yes"}},"type":"Feature"},
	{"geometry":{"coordinates":[11.010727,49.153848],"type":"Point"},"properties":{"osm_id":"521856304","tag":{"amenity":"recycling","recycling:clothes":"yes"}},"type":"Feature"},
	{"geometry":{"coordinates":[11.02164,49.154561],"type":"Point"},"properties":{"osm_id":"522556975","tag":{"amenity":"recycling","recycling:cans":"yes","recycling:clothes":"yes","recycling:glass":"yes"}},"type":"Feature"},
	{"geometry":{"coordinates":[11.00022,49.175413],"type":"Point"},"properties":{"osm_id":"633213583","tag":{"addr:housenumber":"2","addr:street":"Am Sandwerk","amenity":"recycling","recycling_type":"centre"}},"type":"Feature"},
	{"geometry":{"coordinates":[11.02027,49.164634],"type":"Point"},"properties":{"osm_id":"886349225","tag":{"amenity":"recycling","recycling:cans":"yes","recycling:glass":"yes"}},"type":"Feature"},
	{"geometry":{"coordinates":[11.023722,49.155133],"type":"Point"},"properties":{"osm_id":"4111324989","tag":{"amenity":"waste_disposal"}},"type":"Feature"},
	{"geometry":{"coordinates":[11.02752,49.15324],"type":"Point"},"properties":{"osm_id":"4111334916","tag":{"amenity":"waste_disposal"}},"type":"Feature"},
	{"geometry":{"coordinates":[11.017304,49.156284],"type":"Point"},"properties":{"name":"Gr\u00c3\u00bcngutcontainer","osm_id":"4759430622","tag":{"amenity":"recycling","recycling:green_waste":"yes","recycling:organic":"yes","recycling:wood":"yes","recycling_type":"container"}},"type":"Feature"}
]
}
