{
"type": "FeatureCollection",
"features": [
	{"geometry":{"coordinates":[10.987143,48.358506],"type":"Point"},"properties":{"osm_id":"980072936","tag":{"amenity":"recycling","location":"overground","recycling:aluminium":"yes","recycling:clothes":"yes","recycling:glass":"yes","recycling_type":"container"}},"type":"Feature"},
	{"geometry":{"coordinates":[11.051216,48.385628],"type":"Point"},"properties":{"osm_id":"1658920043","tag":{"amenity":"recycling","recycling:cans":"yes","recycling:glass":"yes","recycling:paper":"yes","recycling:scrap_metal":"yes","recycling_type":"container"}},"type":"Feature"},
	{"geometry":{"coordinates":[11.051945,48.386269],"type":"Point"},"properties":{"osm_id":"2587899689","tag":{"amenity":"recycling"}},"type":"Feature"},
	{"geometry":{"coordinates":[11.060328,48.342661],"type":"Point"},"properties":{"osm_id":"2952616327","tag":{"amenity":"waste_basket"}},"type":"Feature"},
	{"geometry":{"coordinates":[11.059271,48.398704],"type":"Point"},"properties":{"osm_id":"3049602272","tag":{"amenity":"waste_basket"}},"type":"Feature"},
	{"geometry":{"coordinates":[11.047402,48.383138],"type":"Point"},"properties":{"osm_id":"3353133602","tag":{"amenity":"waste_basket"}},"type":"Feature"},
	{"geometry":{"coordinates":[11.015431,48.363869],"type":"Point"},"properties":{"osm_id":"3464391010","tag":{"amenity":"waste_basket"}},"type":"Feature"},
	{"geometry":{"coordinates":[11.020755,48.366906],"type":"Point"},"properties":{"osm_id":"3464391047","tag":{"amenity":"waste_basket"}},"type":"Feature"},
	{"geometry":{"coordinates":[11.025837,48.381145],"type":"Point"},"properties":{"osm_id":"3464391452","tag":{"amenity":"waste_basket"}},"type":"Feature"},
	{"geometry":{"coordinates":[11.042241,48.363104],"type":"Point"},"properties":{"osm_id":"3667902108","tag":{"amenity":"waste_basket"}},"type":"Feature"},
	{"geometry":{"coordinates":[10.987818,48.364257],"type":"Point"},"properties":{"osm_id":"4351795374","tag":{"amenity":"waste_basket"}},"type":"Feature"},
	{"geometry":{"coordinates":[10.987974,48.343355],"type":"Point"},"properties":{"osm_id":"4426909442","tag":{"amenity":"waste_basket"}},"type":"Feature"},
	{"geometry":{"coordinates":[10.997052,48.347948],"type":"Point"},"properties":{"osm_id":"4474824148","tag":{"amenity":"recycling","recycling:glass":"yes","recycling_type":"container"}},"type":"Feature"},
	{"geometry":{"coordinates":[11.064882,48.390086],"type":"Point"},"properties":{"osm_id":"4728553452","tag":{"amenity":"recycling","note:de":"Kein Betreibername festzustellen","recycling:clothes":"yes","recycling:shoes":"yes","recycling_type":"container","survey:date":"2018-04-14"}},"type":"Feature"},
	{"geometry":{"coordinates":[11.013603,48.372894],"type":"Point"},"properties":{"osm_id":"4941315959","tag":{"amenity":"waste_basket"}},"type":"Feature"},
	{"geometry":{"coordinates":[11.04212,48.385216],"type":"Point"},"properties":{"osm_id":"4945410603","tag":{"amenity":"recycling","operator":"K\u00c3\u00bchl","recycling:cans":"yes","recycling_type":"container"}},"type":"Feature"},
	{"geometry":{"coordinates":[11.042173,48.385208],"type":"Point"},"properties":{"osm_id":"4945410884","tag":{"amenity":"recycling","opening_hours":"24/7","operator":"aktion hoffnung","recycling:clothes":"yes","recycling_type":"container"}},"type":"Feature"},
	{"geometry":{"coordinates":[11.042147,48.385214],"type":"Point"},"properties":{"osm_id":"4945410885","tag":{"amenity":"recycling","operator":"Remondis","recycling:glass_bottles":"yes","recycling_type":"container"}},"type":"Feature"},
	{"geometry":{"coordinates":[10.993084,48.366042],"type":"Point"},"properties":{"osm_id":"5421200421","tag":{"amenity":"recycling","recycling:glass_bottles":"yes","recycling_type":"container"}},"type":"Feature"},
	{"geometry":{"coordinates":[10.992988,48.36603],"type":"Point"},"properties":{"osm_id":"5421200422","tag":{"amenity":"recycling","recycling:clothes":"yes","recycling_type":"container"}},"type":"Feature"},
	{"geometry":{"coordinates":[10.989119,48.357048],"type":"Point"},"properties":{"osm_id":"6377754587","tag":{"amenity":"waste_basket"}},"type":"Feature"},
	{"geometry":{"coordinates":[10.99838,48.365426],"type":"Point"},"properties":{"osm_id":"6776504727","tag":{"amenity":"waste_basket","direction":"280","traffic_sign":"DE:240,1020-30,1026-36","waste":"trash;dog_excrement"}},"type":"Feature"}
]
}
