{
"type": "FeatureCollection",
"features": [
	{"geometry":{"coordinates":[11.049037,48.311349],"type":"Point"},"properties":{"osm_id":"322619581","tag":{"amenity":"recycling","recycling:batteries":"no","recycling:cans":"yes","recycling:glass_bottles":"yes","recycling:paper":"yes","recycling_type":"container"}},"type":"Feature"},
	{"geometry":{"coordinates":[11.007408,48.330479],"type":"Point"},"properties":{"osm_id":"329581185","tag":{"amenity":"recycling","recycling:cans":"yes","recycling:glass":"yes"}},"type":"Feature"},
	{"geometry":{"coordinates":[11.069798,48.336399],"type":"Point"},"properties":{"osm_id":"1882890619","tag":{"amenity":"recycling","recycling:glass_bottles":"yes"}},"type":"Feature"},
	{"geometry":{"coordinates":[10.988346,48.29551],"type":"Point"},"properties":{"osm_id":"7866439913","tag":{"amenity":"recycling","contact:website":"www.kleider-schuhe-sammlung.de","operator":"Mario Sedita GmbH","recycling:clothes":"yes","recycling:shoes":"yes","recycling_type":"container"}},"type":"Feature"},
	{"geometry":{"coordinates":[11.062242,48.3413],"type":"Point"},"properties":{"osm_id":"8197811163","tag":{"amenity":"waste_basket"}},"type":"Feature"},
	{"geometry":{"coordinates":[10.99096,48.298055],"type":"Point"},"properties":{"osm_id":"8248824829","tag":{"amenity":"waste_basket"}},"type":"Feature"},
	{"geometry":{"coordinates":[10.990254,48.298906],"type":"Point"},"properties":{"osm_id":"8248843246","tag":{"amenity":"waste_basket"}},"type":"Feature"},
	{"geometry":{"coordinates":[10.989886,48.294081],"type":"Point"},"properties":{"osm_id":"8250334542","tag":{"amenity":"waste_basket"}},"type":"Feature"},
	{"geometry":{"coordinates":[10.991942,48.296092],"type":"Point"},"properties":{"osm_id":"8752036407","tag":{"amenity":"waste_disposal","waste":"trash;organic"}},"type":"Feature"}
]
}
