{
"type": "FeatureCollection",
"features": [
	{"geometry":{"coordinates":[11.063958,48.235754],"type":"Point"},"properties":{"name":"Gro\u00c3\u009fer Wertstoffhof Althegnenberg","osm_id":"386866849","tag":{"amenity":"recycling","opening_hours":"Mo 17:00-20:00; We 09:00-12:00,14:00-18:00; Sa 08:00-12:00","recycling:batteries":"yes","recycling:cans":"yes","recycling:clothes":"no","recycling:glass":"yes","recycling:paper":"yes","recycling:scrap_metal":"yes","recycling_type":"centre"}},"type":"Feature"},
	{"geometry":{"coordinates":[11.067241,48.233481],"type":"Point"},"properties":{"osm_id":"386866850","tag":{"amenity":"recycling","recycling:cans":"yes","recycling:glass_bottles":"yes","recycling:paper":"yes","recycling_type":"container"}},"type":"Feature"},
	{"geometry":{"coordinates":[11.069928,48.239471],"type":"Point"},"properties":{"osm_id":"386866852","tag":{"amenity":"recycling","recycling:cans":"yes","recycling:glass_bottles":"yes","recycling:paper":"yes","recycling_type":"container"}},"type":"Feature"},
	{"geometry":{"coordinates":[11.072761,48.265323],"type":"Point"},"properties":{"osm_id":"440473677","tag":{"amenity":"recycling"}},"type":"Feature"},
	{"geometry":{"coordinates":[10.991987,48.264129],"type":"Point"},"properties":{"osm_id":"834659514","tag":{"amenity":"recycling"}},"type":"Feature"},
	{"geometry":{"coordinates":[10.994974,48.276192],"type":"Point"},"properties":{"osm_id":"834660230","tag":{"amenity":"recycling"}},"type":"Feature"},
	{"geometry":{"coordinates":[10.987147,48.257775],"type":"Point"},"properties":{"osm_id":"1230761790","tag":{"amenity":"recycling","recycling:aluminium":"yes","recycling:glass_bottles":"yes"}},"type":"Feature"},
	{"geometry":{"coordinates":[10.988844,48.258474],"type":"Point"},"properties":{"osm_id":"1230761791","tag":{"amenity":"waste_basket"}},"type":"Feature"},
	{"geometry":{"coordinates":[10.987295,48.263925],"type":"Point"},"properties":{"osm_id":"1231168161","tag":{"amenity":"waste_basket"}},"type":"Feature"},
	{"geometry":{"coordinates":[11.020332,48.270347],"type":"Point"},"properties":{"osm_id":"1770937056","tag":{"amenity":"recycling"}},"type":"Feature"},
	{"geometry":{"coordinates":[11.06621,48.23703],"type":"Point"},"properties":{"osm_id":"2336062596","tag":{"amenity":"waste_basket"}},"type":"Feature"},
	{"geometry":{"coordinates":[10.98636,48.263608],"type":"Point"},"properties":{"osm_id":"3623854684","tag":{"amenity":"waste_basket"}},"type":"Feature"},
	{"geometry":{"coordinates":[10.98653,48.265948],"type":"Point"},"properties":{"osm_id":"3631973119","tag":{"amenity":"waste_basket"}},"type":"Feature"},
	{"geometry":{"coordinates":[10.986471,48.266967],"type":"Point"},"properties":{"osm_id":"3631973120","tag":{"amenity":"waste_basket"}},"type":"Feature"},
	{"geometry":{"coordinates":[10.986783,48.267527],"type":"Point"},"properties":{"osm_id":"3631973121","tag":{"amenity":"waste_basket"}},"type":"Feature"},
	{"geometry":{"coordinates":[10.987903,48.267445],"type":"Point"},"properties":{"osm_id":"3631973122","tag":{"amenity":"waste_basket"}},"type":"Feature"},
	{"geometry":{"coordinates":[10.988555,48.259847],"type":"Point"},"properties":{"osm_id":"3631973124","tag":{"amenity":"waste_basket"}},"type":"Feature"},
	{"geometry":{"coordinates":[10.987149,48.267825],"type":"Point"},"properties":{"osm_id":"3673640855","tag":{"amenity":"waste_basket"}},"type":"Feature"},
	{"geometry":{"coordinates":[10.986986,48.267901],"type":"Point"},"properties":{"osm_id":"3673640856","tag":{"amenity":"waste_basket"}},"type":"Feature"},
	{"geometry":{"coordinates":[10.987093,48.267752],"type":"Point"},"properties":{"osm_id":"3780971168","tag":{"amenity":"waste_basket"}},"type":"Feature"},
	{"geometry":{"coordinates":[10.9878,48.262965],"type":"Point"},"properties":{"osm_id":"4054126707","tag":{"amenity":"waste_basket"}},"type":"Feature"},
	{"geometry":{"coordinates":[10.988682,48.26246],"type":"Point"},"properties":{"osm_id":"4062959394","tag":{"amenity":"waste_basket"}},"type":"Feature"},
	{"geometry":{"coordinates":[10.988569,48.26235],"type":"Point"},"properties":{"osm_id":"4062959402","tag":{"amenity":"waste_basket"}},"type":"Feature"},
	{"geometry":{"coordinates":[10.99041,48.262128],"type":"Point"},"properties":{"osm_id":"4072948126","tag":{"amenity":"waste_basket"}},"type":"Feature"},
	{"geometry":{"coordinates":[10.988644,48.262861],"type":"Point"},"properties":{"osm_id":"4905343551","tag":{"amenity":"waste_basket"}},"type":"Feature"},
	{"geometry":{"coordinates":[10.988816,48.262896],"type":"Point"},"properties":{"osm_id":"4905343557","tag":{"amenity":"waste_basket"}},"type":"Feature"},
	{"geometry":{"coordinates":[10.986859,48.267752],"type":"Point"},"properties":{"osm_id":"4922317362","tag":{"amenity":"waste_basket"}},"type":"Feature"},
	{"geometry":{"coordinates":[10.9881,48.267231],"type":"Point"},"properties":{"osm_id":"4922317377","tag":{"amenity":"waste_basket"}},"type":"Feature"},
	{"geometry":{"coordinates":[10.986356,48.2643],"type":"Point"},"properties":{"osm_id":"4989611003","tag":{"amenity":"recycling","recycling:clothes":"yes","recycling_type":"container"}},"type":"Feature"},
	{"geometry":{"coordinates":[10.987799,48.263505],"type":"Point"},"properties":{"osm_id":"4989611004","tag":{"amenity":"recycling","recycling:clothes":"yes","recycling_type":"container"}},"type":"Feature"},
	{"geometry":{"coordinates":[10.988359,48.263017],"type":"Point"},"properties":{"osm_id":"5181598423","tag":{"amenity":"waste_basket"}},"type":"Feature"},
	{"geometry":{"coordinates":[10.986446,48.255326],"type":"Point"},"properties":{"osm_id":"7572616824","tag":{"amenity":"waste_basket","waste":"trash;cigarettes"}},"type":"Feature"},
	{"geometry":{"coordinates":[10.986545,48.255327],"type":"Point"},"properties":{"osm_id":"7572616830","tag":{"amenity":"waste_basket","waste":"trash;cigarettes"}},"type":"Feature"}
]
}
