{
"type": "FeatureCollection",
"features": [
	{"geometry":{"coordinates":[11.060642,47.785956],"type":"Point"},"properties":{"osm_id":"814717339","tag":{"amenity":"recycling","opening_hours":"Mo-Sa 07:00-19:00","operator":"EVA GmbH","recycling:cans":"yes","recycling:clothes":"yes","recycling:glass_bottles":"yes","recycling_type":"container"}},"type":"Feature"},
	{"geometry":{"coordinates":[11.061004,47.792736],"type":"Point"},"properties":{"osm_id":"1149094723","tag":{"amenity":"recycling"}},"type":"Feature"},
	{"geometry":{"coordinates":[11.050406,47.78318],"type":"Point"},"properties":{"osm_id":"1359491622","tag":{"amenity":"recycling","opening_hours":"Mo-Sa 07:00-19:00","operator":"EVA GmbH","recycling:batteries":"yes","recycling:cans":"yes","recycling:clothes":"yes","recycling:glass_bottles":"yes","recycling_type":"container"}},"type":"Feature"},
	{"geometry":{"coordinates":[11.072369,47.784913],"type":"Point"},"properties":{"osm_id":"1596348453","tag":{"amenity":"recycling","recycling:cans":"yes","recycling:clothes":"yes","recycling:glass_bottles":"yes","recycling_type":"container"}},"type":"Feature"},
	{"geometry":{"coordinates":[11.053051,47.789463],"type":"Point"},"properties":{"osm_id":"6297632660","tag":{"amenity":"recycling","opening_hours":"Mo-Sa 09:00-19:00","operator":"EVA GmbH","recycling:clothes":"yes","recycling:glass_bottles":"yes","recycling_type":"container"}},"type":"Feature"},
	{"geometry":{"coordinates":[10.988321,47.759922],"type":"Point"},"properties":{"osm_id":"6299198485","tag":{"amenity":"recycling","opening_hours":"Mo-Sa 07:00-19:00","operator":"EVA GmbH","recycling:batteries":"yes","recycling:cans":"yes","recycling:clothes":"yes","recycling:glass_bottles":"yes","recycling_type":"container"}},"type":"Feature"},
	{"geometry":{"coordinates":[10.997462,47.805654],"type":"Point"},"properties":{"osm_id":"6466834010","tag":{"amenity":"recycling","opening_hours":"Mo-Sa 07:00-19:00","operator":"EVA","recycling:batteries":"yes","recycling:cans":"yes","recycling:clothes":"yes","recycling:glass_bottles":"yes","recycling_type":"container","wheelchair":"yes"}},"type":"Feature"},
	{"geometry":{"coordinates":[11.0682,47.810695],"type":"Point"},"properties":{"osm_id":"6622524710","tag":{"amenity":"waste_basket"}},"type":"Feature"},
	{"geometry":{"coordinates":[11.060594,47.799052],"type":"Point"},"properties":{"osm_id":"6631350514","tag":{"amenity":"recycling","recycling:cans":"yes","recycling:clothes":"yes","recycling:glass":"yes","recycling:glass_bottles":"yes","recycling:shoes":"yes","recycling_type":"container"}},"type":"Feature"}
]
}
