{
"type": "FeatureCollection",
"features": [
	{"geometry":{"coordinates":[11.037109,46.36574],"type":"Point"},"properties":{"osm_id":"943890808","tag":{"amenity":"waste_basket"}},"type":"Feature"},
	{"geometry":{"coordinates":[11.036919,46.3662],"type":"Point"},"properties":{"osm_id":"943890835","tag":{"amenity":"waste_basket"}},"type":"Feature"},
	{"geometry":{"coordinates":[11.037321,46.365748],"type":"Point"},"properties":{"osm_id":"943890845","tag":{"amenity":"waste_basket"}},"type":"Feature"},
	{"geometry":{"coordinates":[11.034995,46.364711],"type":"Point"},"properties":{"osm_id":"945133395","tag":{"amenity":"waste_basket"}},"type":"Feature"},
	{"geometry":{"coordinates":[11.034835,46.364747],"type":"Point"},"properties":{"osm_id":"945133412","tag":{"amenity":"waste_basket"}},"type":"Feature"},
	{"geometry":{"coordinates":[11.034563,46.364987],"type":"Point"},"properties":{"osm_id":"945147746","tag":{"amenity":"waste_basket"}},"type":"Feature"},
	{"geometry":{"coordinates":[11.034649,46.364967],"type":"Point"},"properties":{"osm_id":"945147771","tag":{"amenity":"waste_basket"}},"type":"Feature"},
	{"geometry":{"coordinates":[11.034584,46.364804],"type":"Point"},"properties":{"osm_id":"945147780","tag":{"amenity":"waste_basket"}},"type":"Feature"},
	{"geometry":{"coordinates":[11.033909,46.364447],"type":"Point"},"properties":{"osm_id":"945147808","tag":{"amenity":"waste_basket"}},"type":"Feature"},
	{"geometry":{"coordinates":[11.033223,46.362812],"type":"Point"},"properties":{"osm_id":"945438818","tag":{"amenity":"waste_basket"}},"type":"Feature"},
	{"geometry":{"coordinates":[11.035763,46.364281],"type":"Point"},"properties":{"osm_id":"945470829","tag":{"amenity":"waste_basket"}},"type":"Feature"},
	{"geometry":{"coordinates":[11.036158,46.364191],"type":"Point"},"properties":{"osm_id":"945470831","tag":{"amenity":"waste_basket"}},"type":"Feature"},
	{"geometry":{"coordinates":[11.035918,46.364918],"type":"Point"},"properties":{"osm_id":"945470836","tag":{"amenity":"waste_basket"}},"type":"Feature"},
	{"geometry":{"coordinates":[11.035719,46.364956],"type":"Point"},"properties":{"osm_id":"945470859","tag":{"amenity":"waste_basket"}},"type":"Feature"},
	{"geometry":{"coordinates":[11.033124,46.366012],"type":"Point"},"properties":{"osm_id":"945481814","tag":{"amenity":"waste_basket"}},"type":"Feature"},
	{"geometry":{"coordinates":[11.03178,46.364322],"type":"Point"},"properties":{"osm_id":"945775963","tag":{"amenity":"waste_basket"}},"type":"Feature"},
	{"geometry":{"coordinates":[11.032005,46.363788],"type":"Point"},"properties":{"osm_id":"945775965","tag":{"amenity":"waste_basket"}},"type":"Feature"},
	{"geometry":{"coordinates":[11.032595,46.364005],"type":"Point"},"properties":{"osm_id":"945775988","tag":{"amenity":"waste_basket"}},"type":"Feature"},
	{"geometry":{"coordinates":[11.033361,46.364626],"type":"Point"},"properties":{"osm_id":"945776021","tag":{"amenity":"waste_basket"}},"type":"Feature"},
	{"geometry":{"coordinates":[11.033269,46.365398],"type":"Point"},"properties":{"osm_id":"945988762","tag":{"amenity":"waste_basket"}},"type":"Feature"},
	{"geometry":{"coordinates":[11.032654,46.362497],"type":"Point"},"properties":{"osm_id":"946077568","tag":{"amenity":"waste_basket"}},"type":"Feature"},
	{"geometry":{"coordinates":[11.028726,46.35922],"type":"Point"},"properties":{"osm_id":"946228767","tag":{"amenity":"waste_basket"}},"type":"Feature"},
	{"geometry":{"coordinates":[11.07189,46.345574],"type":"Point"},"properties":{"name":"CRM","osm_id":"2201914281","tag":{"amenity":"recycling","recycling_type":"centre"}},"type":"Feature"},
	{"geometry":{"coordinates":[11.031995,46.364916],"type":"Point"},"properties":{"osm_id":"6895047069","tag":{"amenity":"waste_basket"}},"type":"Feature"},
	{"geometry":{"coordinates":[11.031501,46.35641],"type":"Point"},"properties":{"osm_id":"7829919048","tag":{"amenity":"waste_basket"}},"type":"Feature"},
	{"geometry":{"coordinates":[11.042917,46.36177],"type":"Point"},"properties":{"osm_id":"7829937821","tag":{"amenity":"waste_basket"}},"type":"Feature"},
	{"geometry":{"coordinates":[11.042816,46.361492],"type":"Point"},"properties":{"osm_id":"7845572579","tag":{"amenity":"waste_basket"}},"type":"Feature"},
	{"geometry":{"coordinates":[11.035767,46.36568],"type":"Point"},"properties":{"osm_id":"7867714953","tag":{"amenity":"waste_basket"}},"type":"Feature"},
	{"geometry":{"coordinates":[11.035879,46.365784],"type":"Point"},"properties":{"osm_id":"7867729753","tag":{"amenity":"waste_basket"}},"type":"Feature"},
	{"geometry":{"coordinates":[11.036053,46.365532],"type":"Point"},"properties":{"osm_id":"7867732676","tag":{"amenity":"waste_basket"}},"type":"Feature"},
	{"geometry":{"coordinates":[11.033825,46.365009],"type":"Point"},"properties":{"osm_id":"7867741189","tag":{"amenity":"waste_basket"}},"type":"Feature"},
	{"geometry":{"coordinates":[11.034807,46.365836],"type":"Point"},"properties":{"osm_id":"7869756010","tag":{"amenity":"waste_basket"}},"type":"Feature"},
	{"geometry":{"coordinates":[11.033512,46.365869],"type":"Point"},"properties":{"osm_id":"7869801954","tag":{"amenity":"waste_basket"}},"type":"Feature"},
	{"geometry":{"coordinates":[11.031672,46.359575],"type":"Point"},"properties":{"osm_id":"7878877783","tag":{"amenity":"waste_basket"}},"type":"Feature"},
	{"geometry":{"coordinates":[11.037459,46.366167],"type":"Point"},"properties":{"osm_id":"7909037652","tag":{"amenity":"waste_basket"}},"type":"Feature"},
	{"geometry":{"coordinates":[11.037866,46.366002],"type":"Point"},"properties":{"osm_id":"7937525034","tag":{"amenity":"waste_basket"}},"type":"Feature"},
	{"geometry":{"coordinates":[11.037827,46.366245],"type":"Point"},"properties":{"osm_id":"7937553553","tag":{"amenity":"waste_basket"}},"type":"Feature"}
]
}
