{
"type": "FeatureCollection",
"features": [
	{"geometry":{"coordinates":[11.043872,45.890511],"type":"Point"},"properties":{"osm_id":"792618744","tag":{"amenity":"waste_basket"}},"type":"Feature"},
	{"geometry":{"coordinates":[11.064853,45.919023],"type":"Point"},"properties":{"osm_id":"1370051960","tag":{"amenity":"recycling"}},"type":"Feature"},
	{"geometry":{"coordinates":[11.06415,45.917389],"type":"Point"},"properties":{"osm_id":"1381659971","tag":{"amenity":"recycling","recycling:batteries":"no","recycling:cans":"yes","recycling:glass":"yes","recycling:paper":"yes","recycling_type":"container"}},"type":"Feature"},
	{"geometry":{"coordinates":[11.061789,45.919581],"type":"Point"},"properties":{"osm_id":"1381659975","tag":{"amenity":"recycling"}},"type":"Feature"},
	{"geometry":{"coordinates":[11.066402,45.917568],"type":"Point"},"properties":{"osm_id":"1381717182","tag":{"amenity":"recycling"}},"type":"Feature"},
	{"geometry":{"coordinates":[11.066688,45.917021],"type":"Point"},"properties":{"osm_id":"1395935708","tag":{"amenity":"recycling","recycling:cans":"yes","recycling:glass":"yes","recycling:paper":"yes","recycling_type":"container"}},"type":"Feature"},
	{"geometry":{"coordinates":[11.014603,45.947259],"type":"Point"},"properties":{"osm_id":"1950422438","tag":{"amenity":"recycling","recycling_type":"container"}},"type":"Feature"},
	{"geometry":{"coordinates":[11.063227,45.918505],"type":"Point"},"properties":{"osm_id":"2239126198","tag":{"amenity":"recycling"}},"type":"Feature"},
	{"geometry":{"coordinates":[11.040428,45.890011],"type":"Point"},"properties":{"osm_id":"2484736055","tag":{"amenity":"recycling","recycling_type":"container"}},"type":"Feature"},
	{"geometry":{"coordinates":[11.043153,45.890865],"type":"Point"},"properties":{"osm_id":"2485105720","tag":{"amenity":"waste_basket"}},"type":"Feature"},
	{"geometry":{"coordinates":[11.043159,45.890955],"type":"Point"},"properties":{"osm_id":"2485105726","tag":{"amenity":"waste_basket"}},"type":"Feature"},
	{"geometry":{"coordinates":[11.043824,45.890398],"type":"Point"},"properties":{"osm_id":"2485113268","tag":{"amenity":"waste_basket"}},"type":"Feature"},
	{"geometry":{"coordinates":[11.062235,45.916621],"type":"Point"},"properties":{"osm_id":"2742935380","tag":{"amenity":"waste_basket"}},"type":"Feature"},
	{"geometry":{"coordinates":[11.032171,45.890404],"type":"Point"},"properties":{"osm_id":"3096911852","tag":{"amenity":"waste_basket"}},"type":"Feature"},
	{"geometry":{"coordinates":[11.016471,45.949712],"type":"Point"},"properties":{"osm_id":"3827126204","tag":{"amenity":"waste_basket"}},"type":"Feature"},
	{"geometry":{"coordinates":[11.057605,45.925439],"type":"Point"},"properties":{"osm_id":"5366209436","tag":{"amenity":"waste_basket","waste":"trash"}},"type":"Feature"},
	{"geometry":{"coordinates":[11.016455,45.890359],"type":"Point"},"properties":{"osm_id":"5372872610","tag":{"amenity":"waste_basket","waste":"trash"}},"type":"Feature"},
	{"geometry":{"coordinates":[11.006549,45.924473],"type":"Point"},"properties":{"osm_id":"5858400727","tag":{"addr:street":"Via Don Zanolli","amenity":"recycling","recycling:glass_bottles":"yes","recycling_type":"container"}},"type":"Feature"},
	{"geometry":{"coordinates":[10.997797,45.927263],"type":"Point"},"properties":{"osm_id":"5858403876","tag":{"amenity":"recycling"}},"type":"Feature"},
	{"geometry":{"coordinates":[11.042603,45.897538],"type":"Point"},"properties":{"osm_id":"6017178074","tag":{"amenity":"waste_basket","waste":"trash"}},"type":"Feature"},
	{"geometry":{"coordinates":[11.042665,45.897364],"type":"Point"},"properties":{"osm_id":"6017178075","tag":{"amenity":"waste_basket","waste":"trash"}},"type":"Feature"},
	{"geometry":{"coordinates":[11.042718,45.897207],"type":"Point"},"properties":{"osm_id":"6017178076","tag":{"amenity":"waste_basket","waste":"trash"}},"type":"Feature"},
	{"geometry":{"coordinates":[11.042846,45.896924],"type":"Point"},"properties":{"osm_id":"6017178077","tag":{"amenity":"waste_basket","waste":"trash"}},"type":"Feature"},
	{"geometry":{"coordinates":[11.044617,45.906087],"type":"Point"},"properties":{"osm_id":"6279105196","tag":{"amenity":"waste_disposal","waste":"trash"}},"type":"Feature"},
	{"geometry":{"coordinates":[11.040281,45.890898],"type":"Point"},"properties":{"osm_id":"6401999418","tag":{"amenity":"waste_basket","waste":"trash"}},"type":"Feature"},
	{"geometry":{"coordinates":[11.031283,45.893355],"type":"Point"},"properties":{"osm_id":"6516588639","tag":{"amenity":"recycling","recycling:glass":"yes","recycling_type":"container"}},"type":"Feature"},
	{"geometry":{"coordinates":[11.005313,45.924787],"type":"Point"},"properties":{"osm_id":"6779600827","tag":{"addr:street":"Via Don Zanolli","amenity":"recycling","recycling:glass_bottles":"yes","recycling_type":"container"}},"type":"Feature"},
	{"geometry":{"coordinates":[11.073847,45.928834],"type":"Point"},"properties":{"osm_id":"6781089552","tag":{"amenity":"waste_basket","waste":"trash"}},"type":"Feature"},
	{"geometry":{"coordinates":[11.07365,45.928542],"type":"Point"},"properties":{"osm_id":"6781089556","tag":{"amenity":"waste_basket","waste":"trash"}},"type":"Feature"},
	{"geometry":{"coordinates":[11.074076,45.928459],"type":"Point"},"properties":{"osm_id":"6781089564","tag":{"amenity":"recycling","opening_hours":"24/7","recycling:PET":"yes","recycling:glass_bottles":"yes","recycling:paper":"yes","recycling:plastic_bottles":"yes","recycling:plastic_packaging":"yes","recycling:waste":"yes","recycling_type":"container","wheelchair":"yes"}},"type":"Feature"},
	{"geometry":{"coordinates":[11.041335,45.892137],"type":"Point"},"properties":{"osm_id":"6846193254","tag":{"amenity":"recycling","recycling:glass":"yes","recycling:glass_bottles":"yes","recycling_type":"container"}},"type":"Feature"},
	{"geometry":{"coordinates":[11.038125,45.905415],"type":"Point"},"properties":{"osm_id":"6885524037","tag":{"amenity":"waste_basket"}},"type":"Feature"},
	{"geometry":{"coordinates":[11.027072,45.913479],"type":"Point"},"properties":{"osm_id":"6886763580","tag":{"amenity":"waste_basket"}},"type":"Feature"},
	{"geometry":{"coordinates":[11.041308,45.89321],"type":"Point"},"properties":{"osm_id":"6887125843","tag":{"amenity":"waste_basket","waste":"trash"}},"type":"Feature"},
	{"geometry":{"coordinates":[11.041621,45.891831],"type":"Point"},"properties":{"osm_id":"6887125844","tag":{"amenity":"waste_basket","waste":"trash"}},"type":"Feature"},
	{"geometry":{"coordinates":[11.041498,45.894386],"type":"Point"},"properties":{"osm_id":"6887159303","tag":{"amenity":"recycling","recycling:glass":"yes","recycling_type":"container"}},"type":"Feature"},
	{"geometry":{"coordinates":[11.030444,45.896174],"type":"Point"},"properties":{"osm_id":"6887159304","tag":{"amenity":"recycling","recycling:glass":"yes","recycling:glass_bottles":"yes","recycling_type":"container"}},"type":"Feature"},
	{"geometry":{"coordinates":[11.043422,45.895847],"type":"Point"},"properties":{"osm_id":"7133919607","tag":{"amenity":"waste_basket","waste":"trash"}},"type":"Feature"},
	{"geometry":{"coordinates":[11.025506,45.914489],"type":"Point"},"properties":{"osm_id":"7883373700","tag":{"amenity":"recycling","recycling:glass":"cliff","recycling:paper":"yes","recycling:plastic":"yes","recycling_type":"container"}},"type":"Feature"}
]
}
