{
"type": "FeatureCollection",
"features": [
	{"geometry":{"coordinates":[11.002531,45.440062],"type":"Point"},"properties":{"osm_id":"3688819475","tag":{"amenity":"recycling","recycling:glass":"yes","recycling_type":"container"}},"type":"Feature"},
	{"geometry":{"coordinates":[10.995886,45.440079],"type":"Point"},"properties":{"osm_id":"4115987489","tag":{"amenity":"waste_basket"}},"type":"Feature"},
	{"geometry":{"coordinates":[10.995773,45.440087],"type":"Point"},"properties":{"osm_id":"4115987490","tag":{"amenity":"waste_basket"}},"type":"Feature"},
	{"geometry":{"coordinates":[10.995908,45.439973],"type":"Point"},"properties":{"osm_id":"4115987491","tag":{"amenity":"waste_basket"}},"type":"Feature"},
	{"geometry":{"coordinates":[10.995813,45.439842],"type":"Point"},"properties":{"osm_id":"4115987507","tag":{"amenity":"waste_basket"}},"type":"Feature"},
	{"geometry":{"coordinates":[10.9956,45.440015],"type":"Point"},"properties":{"osm_id":"4115987508","tag":{"amenity":"waste_basket"}},"type":"Feature"},
	{"geometry":{"coordinates":[10.995208,45.439856],"type":"Point"},"properties":{"osm_id":"4115987509","tag":{"amenity":"waste_basket"}},"type":"Feature"},
	{"geometry":{"coordinates":[10.996646,45.440928],"type":"Point"},"properties":{"osm_id":"4115987510","tag":{"amenity":"waste_basket"}},"type":"Feature"},
	{"geometry":{"coordinates":[10.996156,45.441385],"type":"Point"},"properties":{"osm_id":"4116036596","tag":{"amenity":"waste_basket"}},"type":"Feature"},
	{"geometry":{"coordinates":[10.995585,45.442076],"type":"Point"},"properties":{"osm_id":"4116036597","tag":{"amenity":"waste_basket"}},"type":"Feature"},
	{"geometry":{"coordinates":[10.994754,45.442654],"type":"Point"},"properties":{"osm_id":"4116036598","tag":{"amenity":"waste_basket"}},"type":"Feature"},
	{"geometry":{"coordinates":[10.997843,45.442395],"type":"Point"},"properties":{"osm_id":"4116036601","tag":{"amenity":"waste_basket"}},"type":"Feature"},
	{"geometry":{"coordinates":[10.997837,45.442226],"type":"Point"},"properties":{"osm_id":"4116036602","tag":{"amenity":"waste_basket","check_date":"2021-05-12"}},"type":"Feature"},
	{"geometry":{"coordinates":[10.99776,45.442315],"type":"Point"},"properties":{"osm_id":"4116036603","tag":{"amenity":"waste_basket","check_date":"2021-05-12"}},"type":"Feature"},
	{"geometry":{"coordinates":[10.997687,45.442555],"type":"Point"},"properties":{"osm_id":"4116036604","tag":{"amenity":"waste_basket"}},"type":"Feature"},
	{"geometry":{"coordinates":[10.997148,45.442809],"type":"Point"},"properties":{"osm_id":"4116036605","tag":{"amenity":"waste_basket","check_date":"2021-05-12"}},"type":"Feature"},
	{"geometry":{"coordinates":[10.997202,45.442917],"type":"Point"},"properties":{"osm_id":"4116036606","tag":{"amenity":"waste_basket","check_date":"2021-05-12"}},"type":"Feature"},
	{"geometry":{"coordinates":[10.996965,45.44301],"type":"Point"},"properties":{"osm_id":"4116036607","tag":{"amenity":"waste_basket","check_date":"2021-05-12"}},"type":"Feature"},
	{"geometry":{"coordinates":[10.996642,45.44349],"type":"Point"},"properties":{"osm_id":"4116036608","tag":{"amenity":"waste_basket"}},"type":"Feature"},
	{"geometry":{"coordinates":[10.997258,45.443888],"type":"Point"},"properties":{"osm_id":"4116036609","tag":{"amenity":"waste_basket"}},"type":"Feature"},
	{"geometry":{"coordinates":[11.006763,45.442703],"type":"Point"},"properties":{"osm_id":"4293159599","tag":{"amenity":"recycling","location":"overground","recycling:glass_bottles":"yes","recycling:green_waste":"yes","recycling:paper":"yes","recycling:plastic":"yes","recycling_type":"container"}},"type":"Feature"},
	{"geometry":{"coordinates":[11.059896,45.430749],"type":"Point"},"properties":{"osm_id":"4471111286","tag":{"amenity":"recycling","recycling:glass":"yes","recycling:organic":"yes","recycling:paper":"yes","recycling:waste":"yes","recycling_type":"container"}},"type":"Feature"},
	{"geometry":{"coordinates":[11.059546,45.430824],"type":"Point"},"properties":{"osm_id":"4471111287","tag":{"amenity":"recycling","recycling:cans":"yes","recycling:organic":"yes","recycling:plastic":"yes","recycling:waste":"yes","recycling_type":"container"}},"type":"Feature"},
	{"geometry":{"coordinates":[11.001658,45.448245],"type":"Point"},"properties":{"osm_id":"4984135978","tag":{"amenity":"waste_basket"}},"type":"Feature"},
	{"geometry":{"coordinates":[11.001661,45.448026],"type":"Point"},"properties":{"osm_id":"4984137156","tag":{"amenity":"waste_basket"}},"type":"Feature"},
	{"geometry":{"coordinates":[11.001178,45.447875],"type":"Point"},"properties":{"osm_id":"4984141750","tag":{"amenity":"waste_basket"}},"type":"Feature"},
	{"geometry":{"coordinates":[11.000335,45.448447],"type":"Point"},"properties":{"osm_id":"4984147007","tag":{"amenity":"recycling","location":"overground","recycling":"glas _bottle","recycling_type":"container"}},"type":"Feature"},
	{"geometry":{"coordinates":[10.99482,45.44807],"type":"Point"},"properties":{"osm_id":"4984231789","tag":{"amenity":"waste_basket"}},"type":"Feature"},
	{"geometry":{"coordinates":[10.997663,45.449043],"type":"Point"},"properties":{"osm_id":"4984231795","tag":{"amenity":"waste_basket"}},"type":"Feature"},
	{"geometry":{"coordinates":[10.996994,45.448886],"type":"Point"},"properties":{"osm_id":"4984231796","tag":{"amenity":"waste_basket"}},"type":"Feature"},
	{"geometry":{"coordinates":[11.003359,45.449451],"type":"Point"},"properties":{"osm_id":"5557509959","tag":{"amenity":"waste_basket"}},"type":"Feature"},
	{"geometry":{"coordinates":[11.002983,45.449235],"type":"Point"},"properties":{"osm_id":"5557509976","tag":{"amenity":"waste_basket"}},"type":"Feature"},
	{"geometry":{"coordinates":[11.002599,45.449146],"type":"Point"},"properties":{"osm_id":"5557509985","tag":{"amenity":"waste_basket"}},"type":"Feature"},
	{"geometry":{"coordinates":[10.993105,45.438962],"type":"Point"},"properties":{"osm_id":"5820533655","tag":{"amenity":"waste_basket"}},"type":"Feature"},
	{"geometry":{"coordinates":[10.992915,45.438868],"type":"Point"},"properties":{"osm_id":"5820533656","tag":{"amenity":"waste_basket"}},"type":"Feature"},
	{"geometry":{"coordinates":[10.99287,45.438752],"type":"Point"},"properties":{"osm_id":"5820533658","tag":{"amenity":"waste_basket"}},"type":"Feature"},
	{"geometry":{"coordinates":[10.993542,45.439644],"type":"Point"},"properties":{"osm_id":"5820533659","tag":{"amenity":"waste_basket"}},"type":"Feature"},
	{"geometry":{"coordinates":[10.99273,45.43842],"type":"Point"},"properties":{"osm_id":"5820533660","tag":{"amenity":"waste_basket"}},"type":"Feature"},
	{"geometry":{"coordinates":[10.992939,45.438859],"type":"Point"},"properties":{"osm_id":"5820549454","tag":{"amenity":"waste_basket"}},"type":"Feature"},
	{"geometry":{"coordinates":[10.993349,45.439559],"type":"Point"},"properties":{"osm_id":"5820549457","tag":{"amenity":"waste_basket"}},"type":"Feature"},
	{"geometry":{"coordinates":[10.988962,45.435548],"type":"Point"},"properties":{"osm_id":"5820549462","tag":{"amenity":"recycling","location":"overground","recycling_type":"container"}},"type":"Feature"},
	{"geometry":{"coordinates":[10.993161,45.439519],"type":"Point"},"properties":{"osm_id":"5820565854","tag":{"amenity":"waste_basket"}},"type":"Feature"},
	{"geometry":{"coordinates":[10.992876,45.438681],"type":"Point"},"properties":{"osm_id":"5820566058","tag":{"amenity":"waste_basket"}},"type":"Feature"},
	{"geometry":{"coordinates":[10.993386,45.438306],"type":"Point"},"properties":{"osm_id":"5820566059","tag":{"amenity":"waste_basket"}},"type":"Feature"},
	{"geometry":{"coordinates":[10.992933,45.43947],"type":"Point"},"properties":{"osm_id":"5820566454","tag":{"amenity":"waste_basket"}},"type":"Feature"},
	{"geometry":{"coordinates":[10.992708,45.438426],"type":"Point"},"properties":{"osm_id":"5820566460","tag":{"amenity":"waste_basket"}},"type":"Feature"},
	{"geometry":{"coordinates":[10.99326,45.438539],"type":"Point"},"properties":{"osm_id":"5820567954","tag":{"amenity":"waste_basket"}},"type":"Feature"},
	{"geometry":{"coordinates":[10.992895,45.43875],"type":"Point"},"properties":{"osm_id":"5820568054","tag":{"amenity":"waste_basket"}},"type":"Feature"},
	{"geometry":{"coordinates":[10.993168,45.438319],"type":"Point"},"properties":{"osm_id":"5820568057","tag":{"amenity":"waste_basket"}},"type":"Feature"},
	{"geometry":{"coordinates":[10.992848,45.438689],"type":"Point"},"properties":{"osm_id":"5820568753","tag":{"amenity":"waste_basket"}},"type":"Feature"},
	{"geometry":{"coordinates":[10.992977,45.438456],"type":"Point"},"properties":{"osm_id":"5820568755","tag":{"amenity":"waste_basket"}},"type":"Feature"},
	{"geometry":{"coordinates":[10.992674,45.438647],"type":"Point"},"properties":{"osm_id":"5820568853","tag":{"amenity":"waste_basket"}},"type":"Feature"},
	{"geometry":{"coordinates":[10.993181,45.43833],"type":"Point"},"properties":{"osm_id":"5820568858","tag":{"amenity":"waste_basket"}},"type":"Feature"},
	{"geometry":{"coordinates":[10.992998,45.438567],"type":"Point"},"properties":{"osm_id":"5820918853","tag":{"amenity":"waste_basket"}},"type":"Feature"},
	{"geometry":{"coordinates":[11.035522,45.419332],"type":"Point"},"properties":{"osm_id":"5999851099","tag":{"amenity":"waste_basket"}},"type":"Feature"},
	{"geometry":{"coordinates":[10.996418,45.45022],"type":"Point"},"properties":{"osm_id":"6004435033","tag":{"amenity":"waste_basket"}},"type":"Feature"},
	{"geometry":{"coordinates":[11.009633,45.452058],"type":"Point"},"properties":{"osm_id":"6314912408","tag":{"amenity":"waste_basket"}},"type":"Feature"},
	{"geometry":{"coordinates":[11.009782,45.451795],"type":"Point"},"properties":{"osm_id":"6314913205","tag":{"amenity":"waste_basket"}},"type":"Feature"},
	{"geometry":{"coordinates":[10.988687,45.44843],"type":"Point"},"properties":{"osm_id":"6414728320","tag":{"amenity":"recycling","recycling:cans":"yes","recycling:cardboard":"yes","recycling:glass_bottles":"yes","recycling:green_waste":"yes","recycling:oil":"yes","recycling:oils":"yes","recycling:paper":"yes","recycling:plastic":"yes","recycling:plastic_bottles":"yes","recycling:plastic_packaging":"yes","recycling:waste":"yes","recycling_type":"container"}},"type":"Feature"},
	{"geometry":{"coordinates":[10.990051,45.448288],"type":"Point"},"properties":{"osm_id":"6414728321","tag":{"amenity":"recycling","recycling:glass_bottles":"yes","recycling_type":"container"}},"type":"Feature"},
	{"geometry":{"coordinates":[11.008171,45.437092],"type":"Point"},"properties":{"osm_id":"6857552753","tag":{"amenity":"waste_basket"}},"type":"Feature"},
	{"geometry":{"coordinates":[11.007327,45.437159],"type":"Point"},"properties":{"osm_id":"6857552754","tag":{"amenity":"waste_basket"}},"type":"Feature"},
	{"geometry":{"coordinates":[11.000102,45.448543],"type":"Point"},"properties":{"osm_id":"6857803791","tag":{"amenity":"waste_basket"}},"type":"Feature"},
	{"geometry":{"coordinates":[10.999717,45.448541],"type":"Point"},"properties":{"osm_id":"6857803792","tag":{"amenity":"waste_basket"}},"type":"Feature"},
	{"geometry":{"coordinates":[11.055201,45.423047],"type":"Point"},"properties":{"osm_id":"6861533969","tag":{"amenity":"recycling","recycling_type":"container"}},"type":"Feature"},
	{"geometry":{"coordinates":[11.048949,45.423194],"type":"Point"},"properties":{"osm_id":"6861564197","tag":{"amenity":"recycling","recycling_type":"container"}},"type":"Feature"},
	{"geometry":{"coordinates":[11.002895,45.434621],"type":"Point"},"properties":{"osm_id":"6885427878","tag":{"amenity":"waste_basket"}},"type":"Feature"},
	{"geometry":{"coordinates":[11.002656,45.434958],"type":"Point"},"properties":{"osm_id":"6885467998","tag":{"amenity":"waste_basket"}},"type":"Feature"},
	{"geometry":{"coordinates":[11.002707,45.434881],"type":"Point"},"properties":{"osm_id":"6885470974","tag":{"amenity":"waste_basket"}},"type":"Feature"},
	{"geometry":{"coordinates":[10.99987,45.440192],"type":"Point"},"properties":{"osm_id":"6967440374","tag":{"amenity":"waste_basket"}},"type":"Feature"},
	{"geometry":{"coordinates":[10.996172,45.438648],"type":"Point"},"properties":{"osm_id":"6967469923","tag":{"amenity":"waste_basket"}},"type":"Feature"},
	{"geometry":{"coordinates":[10.996771,45.438841],"type":"Point"},"properties":{"osm_id":"6967472224","tag":{"amenity":"waste_basket"}},"type":"Feature"},
	{"geometry":{"coordinates":[10.997803,45.439121],"type":"Point"},"properties":{"osm_id":"6967472324","tag":{"amenity":"waste_basket"}},"type":"Feature"},
	{"geometry":{"coordinates":[10.998253,45.439314],"type":"Point"},"properties":{"osm_id":"6967474622","tag":{"amenity":"waste_basket"}},"type":"Feature"},
	{"geometry":{"coordinates":[10.999443,45.439556],"type":"Point"},"properties":{"osm_id":"6967479322","tag":{"amenity":"waste_basket"}},"type":"Feature"},
	{"geometry":{"coordinates":[10.999157,45.439815],"type":"Point"},"properties":{"osm_id":"6967479666","tag":{"amenity":"waste_basket"}},"type":"Feature"},
	{"geometry":{"coordinates":[10.999999,45.440106],"type":"Point"},"properties":{"osm_id":"6967486583","tag":{"amenity":"waste_basket"}},"type":"Feature"},
	{"geometry":{"coordinates":[11.000438,45.439812],"type":"Point"},"properties":{"osm_id":"6967486752","tag":{"amenity":"waste_basket"}},"type":"Feature"},
	{"geometry":{"coordinates":[10.999148,45.440873],"type":"Point"},"properties":{"osm_id":"6972891604","tag":{"amenity":"waste_basket"}},"type":"Feature"},
	{"geometry":{"coordinates":[10.999837,45.44032],"type":"Point"},"properties":{"osm_id":"6973946572","tag":{"amenity":"waste_basket"}},"type":"Feature"},
	{"geometry":{"coordinates":[10.999643,45.440451],"type":"Point"},"properties":{"osm_id":"6973946573","tag":{"amenity":"waste_basket"}},"type":"Feature"},
	{"geometry":{"coordinates":[10.999574,45.440483],"type":"Point"},"properties":{"osm_id":"6973946574","tag":{"amenity":"waste_basket"}},"type":"Feature"},
	{"geometry":{"coordinates":[10.999383,45.440655],"type":"Point"},"properties":{"osm_id":"6973946575","tag":{"amenity":"waste_basket"}},"type":"Feature"},
	{"geometry":{"coordinates":[10.999352,45.440742],"type":"Point"},"properties":{"osm_id":"6973946576","tag":{"amenity":"waste_basket"}},"type":"Feature"},
	{"geometry":{"coordinates":[10.998606,45.440608],"type":"Point"},"properties":{"osm_id":"6973946577","tag":{"amenity":"waste_basket"}},"type":"Feature"},
	{"geometry":{"coordinates":[10.998252,45.440569],"type":"Point"},"properties":{"osm_id":"6973946578","tag":{"amenity":"waste_basket"}},"type":"Feature"},
	{"geometry":{"coordinates":[10.997813,45.440357],"type":"Point"},"properties":{"osm_id":"6973946579","tag":{"amenity":"waste_basket"}},"type":"Feature"},
	{"geometry":{"coordinates":[10.997348,45.439834],"type":"Point"},"properties":{"osm_id":"6973946580","tag":{"amenity":"waste_basket"}},"type":"Feature"},
	{"geometry":{"coordinates":[10.997061,45.439624],"type":"Point"},"properties":{"osm_id":"6973946581","tag":{"amenity":"waste_basket"}},"type":"Feature"},
	{"geometry":{"coordinates":[10.996327,45.439356],"type":"Point"},"properties":{"osm_id":"6973946582","tag":{"amenity":"waste_basket"}},"type":"Feature"},
	{"geometry":{"coordinates":[10.995774,45.439118],"type":"Point"},"properties":{"osm_id":"6973946583","tag":{"amenity":"waste_basket"}},"type":"Feature"},
	{"geometry":{"coordinates":[10.995496,45.439014],"type":"Point"},"properties":{"osm_id":"6973946584","tag":{"amenity":"waste_basket"}},"type":"Feature"},
	{"geometry":{"coordinates":[10.995219,45.439281],"type":"Point"},"properties":{"osm_id":"6973960785","tag":{"amenity":"waste_basket"}},"type":"Feature"},
	{"geometry":{"coordinates":[10.995401,45.439076],"type":"Point"},"properties":{"osm_id":"6973960786","tag":{"amenity":"waste_basket"}},"type":"Feature"},
	{"geometry":{"coordinates":[10.995419,45.438716],"type":"Point"},"properties":{"osm_id":"6973960787","tag":{"amenity":"waste_basket"}},"type":"Feature"},
	{"geometry":{"coordinates":[10.995025,45.438346],"type":"Point"},"properties":{"osm_id":"6973960788","tag":{"amenity":"waste_basket"}},"type":"Feature"},
	{"geometry":{"coordinates":[10.994062,45.43834],"type":"Point"},"properties":{"osm_id":"6973960789","tag":{"amenity":"waste_basket"}},"type":"Feature"},
	{"geometry":{"coordinates":[10.993775,45.438433],"type":"Point"},"properties":{"osm_id":"6973960790","tag":{"amenity":"waste_basket"}},"type":"Feature"},
	{"geometry":{"coordinates":[10.993514,45.438632],"type":"Point"},"properties":{"osm_id":"6973960791","tag":{"amenity":"waste_basket"}},"type":"Feature"},
	{"geometry":{"coordinates":[10.99337,45.438869],"type":"Point"},"properties":{"osm_id":"6973960792","tag":{"amenity":"waste_basket"}},"type":"Feature"},
	{"geometry":{"coordinates":[10.99338,45.439137],"type":"Point"},"properties":{"osm_id":"6973960793","tag":{"amenity":"waste_basket"}},"type":"Feature"},
	{"geometry":{"coordinates":[10.993542,45.439347],"type":"Point"},"properties":{"osm_id":"6973960794","tag":{"amenity":"waste_basket"}},"type":"Feature"},
	{"geometry":{"coordinates":[10.992774,45.438984],"type":"Point"},"properties":{"osm_id":"6973960795","tag":{"amenity":"waste_basket"}},"type":"Feature"},
	{"geometry":{"coordinates":[10.99259,45.438786],"type":"Point"},"properties":{"osm_id":"6973960796","tag":{"amenity":"waste_basket"}},"type":"Feature"},
	{"geometry":{"coordinates":[10.992383,45.438725],"type":"Point"},"properties":{"osm_id":"6973960797","tag":{"amenity":"waste_basket"}},"type":"Feature"},
	{"geometry":{"coordinates":[10.992004,45.438364],"type":"Point"},"properties":{"osm_id":"6973960798","tag":{"amenity":"waste_basket"}},"type":"Feature"},
	{"geometry":{"coordinates":[10.991602,45.4386],"type":"Point"},"properties":{"osm_id":"6973960799","tag":{"amenity":"waste_basket"}},"type":"Feature"},
	{"geometry":{"coordinates":[10.991768,45.438635],"type":"Point"},"properties":{"osm_id":"6973960800","tag":{"amenity":"waste_basket"}},"type":"Feature"},
	{"geometry":{"coordinates":[10.991994,45.438794],"type":"Point"},"properties":{"osm_id":"6973960801","tag":{"amenity":"waste_basket"}},"type":"Feature"},
	{"geometry":{"coordinates":[10.992206,45.43895],"type":"Point"},"properties":{"osm_id":"6973960802","tag":{"amenity":"waste_basket"}},"type":"Feature"},
	{"geometry":{"coordinates":[10.992912,45.439283],"type":"Point"},"properties":{"osm_id":"6973960803","tag":{"amenity":"waste_basket"}},"type":"Feature"},
	{"geometry":{"coordinates":[10.993161,45.439359],"type":"Point"},"properties":{"osm_id":"6973960804","tag":{"amenity":"waste_basket"}},"type":"Feature"},
	{"geometry":{"coordinates":[10.993449,45.439474],"type":"Point"},"properties":{"osm_id":"6973960805","tag":{"amenity":"waste_basket"}},"type":"Feature"},
	{"geometry":{"coordinates":[10.993693,45.439615],"type":"Point"},"properties":{"osm_id":"6973960806","tag":{"amenity":"waste_basket"}},"type":"Feature"},
	{"geometry":{"coordinates":[10.994062,45.439617],"type":"Point"},"properties":{"osm_id":"6973960807","tag":{"amenity":"waste_basket"}},"type":"Feature"},
	{"geometry":{"coordinates":[10.994006,45.439702],"type":"Point"},"properties":{"osm_id":"6973960808","tag":{"amenity":"waste_basket"}},"type":"Feature"},
	{"geometry":{"coordinates":[10.993971,45.439758],"type":"Point"},"properties":{"osm_id":"6973960809","tag":{"amenity":"waste_basket"}},"type":"Feature"},
	{"geometry":{"coordinates":[10.994132,45.439919],"type":"Point"},"properties":{"osm_id":"6973960810","tag":{"amenity":"waste_basket"}},"type":"Feature"},
	{"geometry":{"coordinates":[10.994251,45.440097],"type":"Point"},"properties":{"osm_id":"6973960811","tag":{"amenity":"waste_basket"}},"type":"Feature"},
	{"geometry":{"coordinates":[10.994296,45.440136],"type":"Point"},"properties":{"osm_id":"6973960812","tag":{"amenity":"waste_basket"}},"type":"Feature"},
	{"geometry":{"coordinates":[10.994536,45.440318],"type":"Point"},"properties":{"osm_id":"6973960813","tag":{"amenity":"waste_basket"}},"type":"Feature"},
	{"geometry":{"coordinates":[10.994604,45.440441],"type":"Point"},"properties":{"osm_id":"6973960814","tag":{"amenity":"waste_basket"}},"type":"Feature"},
	{"geometry":{"coordinates":[10.994724,45.44058],"type":"Point"},"properties":{"osm_id":"6973960815","tag":{"amenity":"waste_basket"}},"type":"Feature"},
	{"geometry":{"coordinates":[10.994837,45.440721],"type":"Point"},"properties":{"osm_id":"6973960816","tag":{"amenity":"waste_basket"}},"type":"Feature"},
	{"geometry":{"coordinates":[10.994661,45.440785],"type":"Point"},"properties":{"osm_id":"6973960817","tag":{"amenity":"waste_basket"}},"type":"Feature"},
	{"geometry":{"coordinates":[10.99478,45.440728],"type":"Point"},"properties":{"osm_id":"6973960818","tag":{"amenity":"waste_basket"}},"type":"Feature"},
	{"geometry":{"coordinates":[10.994861,45.440662],"type":"Point"},"properties":{"osm_id":"6973960819","tag":{"amenity":"waste_basket"}},"type":"Feature"},
	{"geometry":{"coordinates":[10.995077,45.440794],"type":"Point"},"properties":{"osm_id":"6973960820","tag":{"amenity":"waste_basket"}},"type":"Feature"},
	{"geometry":{"coordinates":[10.995154,45.440858],"type":"Point"},"properties":{"osm_id":"6973960821","tag":{"amenity":"waste_basket"}},"type":"Feature"},
	{"geometry":{"coordinates":[10.995326,45.440953],"type":"Point"},"properties":{"osm_id":"6973960822","tag":{"amenity":"waste_basket"}},"type":"Feature"},
	{"geometry":{"coordinates":[10.995445,45.441023],"type":"Point"},"properties":{"osm_id":"6973960823","tag":{"amenity":"waste_basket"}},"type":"Feature"},
	{"geometry":{"coordinates":[10.995701,45.441146],"type":"Point"},"properties":{"osm_id":"6973960824","tag":{"amenity":"waste_basket"}},"type":"Feature"},
	{"geometry":{"coordinates":[10.995825,45.441182],"type":"Point"},"properties":{"osm_id":"6973960825","tag":{"amenity":"waste_basket"}},"type":"Feature"},
	{"geometry":{"coordinates":[10.99615,45.441285],"type":"Point"},"properties":{"osm_id":"6973960826","tag":{"amenity":"waste_basket"}},"type":"Feature"},
	{"geometry":{"coordinates":[10.996261,45.44133],"type":"Point"},"properties":{"osm_id":"6973960827","tag":{"amenity":"waste_basket"}},"type":"Feature"},
	{"geometry":{"coordinates":[10.996329,45.441403],"type":"Point"},"properties":{"osm_id":"6973960828","tag":{"amenity":"waste_basket"}},"type":"Feature"},
	{"geometry":{"coordinates":[10.996651,45.441561],"type":"Point"},"properties":{"osm_id":"6973960829","tag":{"amenity":"waste_basket"}},"type":"Feature"},
	{"geometry":{"coordinates":[10.996842,45.441705],"type":"Point"},"properties":{"osm_id":"6973960830","tag":{"amenity":"waste_basket"}},"type":"Feature"},
	{"geometry":{"coordinates":[10.996976,45.44179],"type":"Point"},"properties":{"osm_id":"6973960831","tag":{"amenity":"waste_basket"}},"type":"Feature"},
	{"geometry":{"coordinates":[10.997082,45.441758],"type":"Point"},"properties":{"osm_id":"6973960832","tag":{"amenity":"waste_basket"}},"type":"Feature"},
	{"geometry":{"coordinates":[10.997423,45.441901],"type":"Point"},"properties":{"osm_id":"6973960833","tag":{"amenity":"waste_basket"}},"type":"Feature"},
	{"geometry":{"coordinates":[10.997369,45.441967],"type":"Point"},"properties":{"osm_id":"6973960834","tag":{"amenity":"waste_basket"}},"type":"Feature"},
	{"geometry":{"coordinates":[10.997663,45.442189],"type":"Point"},"properties":{"osm_id":"6973960835","tag":{"amenity":"waste_basket"}},"type":"Feature"},
	{"geometry":{"coordinates":[10.997689,45.442155],"type":"Point"},"properties":{"osm_id":"6973960836","tag":{"amenity":"waste_basket"}},"type":"Feature"},
	{"geometry":{"coordinates":[10.997963,45.442228],"type":"Point"},"properties":{"osm_id":"6973960838","tag":{"amenity":"waste_basket"}},"type":"Feature"},
	{"geometry":{"coordinates":[10.998184,45.442248],"type":"Point"},"properties":{"osm_id":"6973960839","tag":{"amenity":"waste_basket"}},"type":"Feature"},
	{"geometry":{"coordinates":[10.998729,45.442713],"type":"Point"},"properties":{"osm_id":"6973960840","tag":{"amenity":"waste_basket"}},"type":"Feature"},
	{"geometry":{"coordinates":[10.998706,45.442655],"type":"Point"},"properties":{"osm_id":"6973960841","tag":{"amenity":"waste_basket"}},"type":"Feature"},
	{"geometry":{"coordinates":[10.998924,45.442632],"type":"Point"},"properties":{"osm_id":"6973960842","tag":{"amenity":"waste_basket"}},"type":"Feature"},
	{"geometry":{"coordinates":[10.999258,45.442824],"type":"Point"},"properties":{"osm_id":"6973960843","tag":{"amenity":"waste_basket"}},"type":"Feature"},
	{"geometry":{"coordinates":[10.999288,45.442921],"type":"Point"},"properties":{"osm_id":"6973960844","tag":{"amenity":"waste_basket"}},"type":"Feature"},
	{"geometry":{"coordinates":[10.999438,45.442851],"type":"Point"},"properties":{"osm_id":"6973960845","tag":{"amenity":"waste_basket"}},"type":"Feature"},
	{"geometry":{"coordinates":[10.999701,45.442928],"type":"Point"},"properties":{"osm_id":"6973960846","tag":{"amenity":"waste_basket"}},"type":"Feature"},
	{"geometry":{"coordinates":[10.999793,45.442952],"type":"Point"},"properties":{"osm_id":"6973960847","tag":{"amenity":"waste_basket"}},"type":"Feature"},
	{"geometry":{"coordinates":[10.999647,45.442665],"type":"Point"},"properties":{"osm_id":"6973960848","tag":{"amenity":"waste_basket"}},"type":"Feature"},
	{"geometry":{"coordinates":[10.999742,45.442734],"type":"Point"},"properties":{"osm_id":"6973960849","tag":{"amenity":"waste_basket"}},"type":"Feature"},
	{"geometry":{"coordinates":[11.000121,45.442579],"type":"Point"},"properties":{"osm_id":"6973960850","tag":{"amenity":"waste_basket"}},"type":"Feature"},
	{"geometry":{"coordinates":[11.000067,45.44271],"type":"Point"},"properties":{"osm_id":"6973960851","tag":{"amenity":"waste_basket"}},"type":"Feature"},
	{"geometry":{"coordinates":[10.99989,45.442889],"type":"Point"},"properties":{"osm_id":"6973960852","tag":{"amenity":"waste_basket"}},"type":"Feature"},
	{"geometry":{"coordinates":[10.999892,45.442954],"type":"Point"},"properties":{"osm_id":"6973960853","tag":{"amenity":"waste_basket"}},"type":"Feature"},
	{"geometry":{"coordinates":[11.000309,45.443285],"type":"Point"},"properties":{"osm_id":"6973960854","tag":{"amenity":"waste_basket"}},"type":"Feature"},
	{"geometry":{"coordinates":[11.000684,45.443101],"type":"Point"},"properties":{"osm_id":"6973960855","tag":{"amenity":"waste_basket"}},"type":"Feature"},
	{"geometry":{"coordinates":[11.000759,45.443245],"type":"Point"},"properties":{"osm_id":"6973960856","tag":{"amenity":"waste_basket"}},"type":"Feature"},
	{"geometry":{"coordinates":[11.000734,45.442686],"type":"Point"},"properties":{"osm_id":"6973960857","tag":{"amenity":"waste_basket"}},"type":"Feature"},
	{"geometry":{"coordinates":[11.000821,45.442568],"type":"Point"},"properties":{"osm_id":"6973960858","tag":{"amenity":"waste_basket"}},"type":"Feature"},
	{"geometry":{"coordinates":[11.002814,45.44258],"type":"Point"},"properties":{"osm_id":"6973960859","tag":{"amenity":"waste_basket"}},"type":"Feature"},
	{"geometry":{"coordinates":[11.003675,45.441946],"type":"Point"},"properties":{"osm_id":"6973960860","tag":{"amenity":"waste_basket"}},"type":"Feature"},
	{"geometry":{"coordinates":[11.003767,45.441904],"type":"Point"},"properties":{"osm_id":"6973960861","tag":{"amenity":"waste_basket"}},"type":"Feature"},
	{"geometry":{"coordinates":[11.003667,45.441744],"type":"Point"},"properties":{"osm_id":"6973960862","tag":{"amenity":"waste_basket"}},"type":"Feature"},
	{"geometry":{"coordinates":[11.003544,45.441507],"type":"Point"},"properties":{"osm_id":"6973960863","tag":{"amenity":"waste_basket"}},"type":"Feature"},
	{"geometry":{"coordinates":[11.003426,45.441052],"type":"Point"},"properties":{"osm_id":"6973960864","tag":{"amenity":"waste_basket"}},"type":"Feature"},
	{"geometry":{"coordinates":[11.003064,45.440944],"type":"Point"},"properties":{"osm_id":"6973960865","tag":{"amenity":"waste_basket"}},"type":"Feature"},
	{"geometry":{"coordinates":[11.002778,45.440538],"type":"Point"},"properties":{"osm_id":"6973960866","tag":{"amenity":"waste_basket"}},"type":"Feature"},
	{"geometry":{"coordinates":[11.002541,45.439786],"type":"Point"},"properties":{"osm_id":"6973960867","tag":{"amenity":"waste_basket"}},"type":"Feature"},
	{"geometry":{"coordinates":[11.00246,45.439112],"type":"Point"},"properties":{"osm_id":"6973960868","tag":{"amenity":"waste_basket"}},"type":"Feature"},
	{"geometry":{"coordinates":[11.002973,45.439099],"type":"Point"},"properties":{"osm_id":"6973960869","tag":{"amenity":"waste_basket"}},"type":"Feature"},
	{"geometry":{"coordinates":[11.003362,45.439054],"type":"Point"},"properties":{"osm_id":"6973960870","tag":{"amenity":"waste_basket"}},"type":"Feature"},
	{"geometry":{"coordinates":[11.004145,45.439065],"type":"Point"},"properties":{"osm_id":"6973960871","tag":{"amenity":"waste_basket"}},"type":"Feature"},
	{"geometry":{"coordinates":[11.004174,45.438918],"type":"Point"},"properties":{"osm_id":"6973960872","tag":{"amenity":"waste_basket"}},"type":"Feature"},
	{"geometry":{"coordinates":[11.004165,45.438344],"type":"Point"},"properties":{"osm_id":"6973960873","tag":{"amenity":"waste_basket"}},"type":"Feature"},
	{"geometry":{"coordinates":[11.004292,45.438227],"type":"Point"},"properties":{"osm_id":"6973960874","tag":{"amenity":"waste_basket"}},"type":"Feature"},
	{"geometry":{"coordinates":[11.00451,45.437714],"type":"Point"},"properties":{"osm_id":"6973960875","tag":{"amenity":"waste_basket"}},"type":"Feature"},
	{"geometry":{"coordinates":[11.005288,45.437766],"type":"Point"},"properties":{"osm_id":"6973960876","tag":{"amenity":"waste_basket"}},"type":"Feature"},
	{"geometry":{"coordinates":[11.005911,45.437829],"type":"Point"},"properties":{"osm_id":"6973960877","tag":{"amenity":"waste_basket"}},"type":"Feature"},
	{"geometry":{"coordinates":[11.000401,45.448102],"type":"Point"},"properties":{"osm_id":"6982694438","tag":{"amenity":"waste_basket"}},"type":"Feature"},
	{"geometry":{"coordinates":[10.999516,45.44745],"type":"Point"},"properties":{"osm_id":"6982723041","tag":{"amenity":"waste_basket"}},"type":"Feature"},
	{"geometry":{"coordinates":[10.999503,45.447453],"type":"Point"},"properties":{"osm_id":"6982735225","tag":{"amenity":"waste_basket"}},"type":"Feature"},
	{"geometry":{"coordinates":[10.987247,45.448489],"type":"Point"},"properties":{"osm_id":"6986910169","tag":{"amenity":"waste_basket"}},"type":"Feature"},
	{"geometry":{"coordinates":[10.987271,45.448385],"type":"Point"},"properties":{"osm_id":"6986910171","tag":{"amenity":"waste_basket"}},"type":"Feature"},
	{"geometry":{"coordinates":[10.987557,45.448457],"type":"Point"},"properties":{"osm_id":"6986910172","tag":{"amenity":"waste_basket"}},"type":"Feature"},
	{"geometry":{"coordinates":[10.987624,45.44841],"type":"Point"},"properties":{"osm_id":"6986910173","tag":{"amenity":"waste_basket"}},"type":"Feature"},
	{"geometry":{"coordinates":[10.988141,45.447293],"type":"Point"},"properties":{"osm_id":"6986910174","tag":{"amenity":"waste_basket"}},"type":"Feature"},
	{"geometry":{"coordinates":[10.988527,45.446558],"type":"Point"},"properties":{"osm_id":"6986910175","tag":{"amenity":"waste_basket"}},"type":"Feature"},
	{"geometry":{"coordinates":[10.988748,45.446178],"type":"Point"},"properties":{"osm_id":"6986910176","tag":{"amenity":"waste_basket"}},"type":"Feature"},
	{"geometry":{"coordinates":[10.989086,45.445879],"type":"Point"},"properties":{"osm_id":"6986910177","tag":{"amenity":"waste_basket"}},"type":"Feature"},
	{"geometry":{"coordinates":[10.988932,45.445807],"type":"Point"},"properties":{"osm_id":"6986910178","tag":{"amenity":"waste_basket"}},"type":"Feature"},
	{"geometry":{"coordinates":[10.989251,45.445212],"type":"Point"},"properties":{"osm_id":"6986910179","tag":{"amenity":"waste_basket"}},"type":"Feature"},
	{"geometry":{"coordinates":[10.989417,45.444894],"type":"Point"},"properties":{"osm_id":"6986910180","tag":{"amenity":"waste_basket"}},"type":"Feature"},
	{"geometry":{"coordinates":[10.989575,45.444953],"type":"Point"},"properties":{"osm_id":"6986910181","tag":{"amenity":"waste_basket"}},"type":"Feature"},
	{"geometry":{"coordinates":[10.989727,45.444308],"type":"Point"},"properties":{"osm_id":"6986910182","tag":{"amenity":"waste_basket"}},"type":"Feature"},
	{"geometry":{"coordinates":[10.98984,45.444127],"type":"Point"},"properties":{"osm_id":"6986910183","tag":{"amenity":"waste_basket"}},"type":"Feature"},
	{"geometry":{"coordinates":[10.990175,45.443822],"type":"Point"},"properties":{"osm_id":"6986910184","tag":{"amenity":"waste_basket"}},"type":"Feature"},
	{"geometry":{"coordinates":[10.989963,45.443626],"type":"Point"},"properties":{"osm_id":"6986912085","tag":{"amenity":"waste_basket"}},"type":"Feature"},
	{"geometry":{"coordinates":[10.990608,45.443453],"type":"Point"},"properties":{"osm_id":"6986912086","tag":{"amenity":"waste_basket"}},"type":"Feature"},
	{"geometry":{"coordinates":[10.990769,45.443388],"type":"Point"},"properties":{"osm_id":"6986912087","tag":{"amenity":"waste_basket"}},"type":"Feature"},
	{"geometry":{"coordinates":[10.992974,45.442225],"type":"Point"},"properties":{"osm_id":"6986912088","tag":{"amenity":"waste_basket"}},"type":"Feature"},
	{"geometry":{"coordinates":[10.993571,45.442129],"type":"Point"},"properties":{"osm_id":"6986912089","tag":{"amenity":"waste_basket"}},"type":"Feature"},
	{"geometry":{"coordinates":[10.994866,45.441512],"type":"Point"},"properties":{"osm_id":"6986912090","tag":{"amenity":"waste_basket"}},"type":"Feature"},
	{"geometry":{"coordinates":[10.994996,45.441578],"type":"Point"},"properties":{"osm_id":"6986912091","tag":{"amenity":"waste_basket"}},"type":"Feature"},
	{"geometry":{"coordinates":[10.995238,45.442036],"type":"Point"},"properties":{"osm_id":"6986912092","tag":{"amenity":"waste_basket"}},"type":"Feature"},
	{"geometry":{"coordinates":[10.995469,45.442086],"type":"Point"},"properties":{"osm_id":"6986912093","tag":{"amenity":"waste_basket"}},"type":"Feature"},
	{"geometry":{"coordinates":[10.995589,45.442125],"type":"Point"},"properties":{"osm_id":"6986912094","tag":{"amenity":"waste_basket"}},"type":"Feature"},
	{"geometry":{"coordinates":[10.997555,45.443062],"type":"Point"},"properties":{"osm_id":"6986912095","tag":{"amenity":"waste_basket"}},"type":"Feature"},
	{"geometry":{"coordinates":[10.997585,45.443027],"type":"Point"},"properties":{"osm_id":"6986912096","tag":{"amenity":"waste_basket"}},"type":"Feature"},
	{"geometry":{"coordinates":[10.994057,45.442251],"type":"Point"},"properties":{"osm_id":"6986912097","tag":{"amenity":"waste_basket"}},"type":"Feature"},
	{"geometry":{"coordinates":[10.992735,45.442312],"type":"Point"},"properties":{"osm_id":"6986912098","tag":{"amenity":"waste_basket"}},"type":"Feature"},
	{"geometry":{"coordinates":[10.992572,45.442488],"type":"Point"},"properties":{"osm_id":"6986912099","tag":{"amenity":"waste_basket"}},"type":"Feature"},
	{"geometry":{"coordinates":[10.991857,45.442334],"type":"Point"},"properties":{"osm_id":"6986912100","tag":{"amenity":"waste_basket"}},"type":"Feature"},
	{"geometry":{"coordinates":[10.991681,45.442144],"type":"Point"},"properties":{"osm_id":"6986912101","tag":{"amenity":"waste_basket"}},"type":"Feature"},
	{"geometry":{"coordinates":[10.991553,45.442054],"type":"Point"},"properties":{"osm_id":"6986912102","tag":{"amenity":"waste_basket"}},"type":"Feature"},
	{"geometry":{"coordinates":[10.991271,45.441817],"type":"Point"},"properties":{"osm_id":"6986912103","tag":{"amenity":"waste_basket"}},"type":"Feature"},
	{"geometry":{"coordinates":[10.991069,45.441662],"type":"Point"},"properties":{"osm_id":"6986912104","tag":{"amenity":"waste_basket"}},"type":"Feature"},
	{"geometry":{"coordinates":[10.990628,45.441338],"type":"Point"},"properties":{"osm_id":"6986912105","tag":{"amenity":"waste_basket"}},"type":"Feature"},
	{"geometry":{"coordinates":[10.990429,45.441214],"type":"Point"},"properties":{"osm_id":"6986912106","tag":{"amenity":"waste_basket"}},"type":"Feature"},
	{"geometry":{"coordinates":[10.989005,45.440017],"type":"Point"},"properties":{"osm_id":"6986912107","tag":{"amenity":"waste_basket"}},"type":"Feature"},
	{"geometry":{"coordinates":[10.988785,45.44026],"type":"Point"},"properties":{"osm_id":"6986912108","tag":{"amenity":"waste_basket"}},"type":"Feature"},
	{"geometry":{"coordinates":[10.988738,45.440355],"type":"Point"},"properties":{"osm_id":"6986912109","tag":{"amenity":"waste_basket"}},"type":"Feature"},
	{"geometry":{"coordinates":[10.988744,45.43997],"type":"Point"},"properties":{"osm_id":"6986912110","tag":{"amenity":"waste_basket"}},"type":"Feature"},
	{"geometry":{"coordinates":[10.988715,45.439751],"type":"Point"},"properties":{"osm_id":"6986912111","tag":{"amenity":"waste_basket"}},"type":"Feature"},
	{"geometry":{"coordinates":[10.988533,45.43962],"type":"Point"},"properties":{"osm_id":"6986912112","tag":{"amenity":"waste_basket"}},"type":"Feature"},
	{"geometry":{"coordinates":[10.987047,45.439165],"type":"Point"},"properties":{"osm_id":"6986912113","tag":{"amenity":"waste_basket"}},"type":"Feature"},
	{"geometry":{"coordinates":[11.015368,45.440655],"type":"Point"},"properties":{"osm_id":"6992304726","tag":{"amenity":"waste_basket"}},"type":"Feature"},
	{"geometry":{"coordinates":[11.015216,45.440712],"type":"Point"},"properties":{"osm_id":"6992304727","tag":{"amenity":"waste_basket"}},"type":"Feature"},
	{"geometry":{"coordinates":[11.015438,45.440888],"type":"Point"},"properties":{"osm_id":"6992304728","tag":{"amenity":"waste_basket"}},"type":"Feature"},
	{"geometry":{"coordinates":[11.015334,45.440895],"type":"Point"},"properties":{"osm_id":"6992304729","tag":{"amenity":"waste_basket"}},"type":"Feature"},
	{"geometry":{"coordinates":[11.015348,45.44095],"type":"Point"},"properties":{"osm_id":"6992304730","tag":{"amenity":"waste_basket","waste":"dog_excrement"}},"type":"Feature"},
	{"geometry":{"coordinates":[11.012285,45.441814],"type":"Point"},"properties":{"osm_id":"6992502318","tag":{"amenity":"waste_basket"}},"type":"Feature"},
	{"geometry":{"coordinates":[11.009828,45.442796],"type":"Point"},"properties":{"osm_id":"6992511605","tag":{"amenity":"waste_basket"}},"type":"Feature"},
	{"geometry":{"coordinates":[10.987269,45.445711],"type":"Point"},"properties":{"osm_id":"7868825674","tag":{"amenity":"recycling","recycling:cans":"yes","recycling:food_waste":"yes","recycling:glass_bottles":"yes","recycling:paper":"yes","recycling:plastic":"yes","recycling_type":"container"}},"type":"Feature"},
	{"geometry":{"coordinates":[10.987159,45.445014],"type":"Point"},"properties":{"osm_id":"7868852111","tag":{"amenity":"recycling","recycling:cans":"yes","recycling:food_waste":"yes","recycling:glass_bottles":"yes","recycling:paper":"yes","recycling:plastic":"yes","recycling_type":"container"}},"type":"Feature"},
	{"geometry":{"coordinates":[10.988062,45.448357],"type":"Point"},"properties":{"osm_id":"7868890426","tag":{"amenity":"waste_basket"}},"type":"Feature"},
	{"geometry":{"coordinates":[10.989417,45.438936],"type":"Point"},"properties":{"osm_id":"7868907805","tag":{"amenity":"waste_basket"}},"type":"Feature"},
	{"geometry":{"coordinates":[10.989136,45.445877],"type":"Point"},"properties":{"osm_id":"8823652162","tag":{"amenity":"waste_basket"}},"type":"Feature"},
	{"geometry":{"coordinates":[10.988697,45.446602],"type":"Point"},"properties":{"osm_id":"8827591793","tag":{"amenity":"waste_basket"}},"type":"Feature"},
	{"geometry":{"coordinates":[10.988421,45.446771],"type":"Point"},"properties":{"osm_id":"8844315936","tag":{"amenity":"waste_basket"}},"type":"Feature"},
	{"geometry":{"coordinates":[10.988267,45.447063],"type":"Point"},"properties":{"osm_id":"8844315939","tag":{"amenity":"waste_basket"}},"type":"Feature"},
	{"geometry":{"coordinates":[10.988767,45.433068],"type":"Point"},"properties":{"osm_id":"8957834361","tag":{"amenity":"waste_basket"}},"type":"Feature"},
	{"geometry":{"coordinates":[10.988989,45.433662],"type":"Point"},"properties":{"osm_id":"8957848762","tag":{"amenity":"waste_basket"}},"type":"Feature"},
	{"geometry":{"coordinates":[10.988651,45.432842],"type":"Point"},"properties":{"osm_id":"8957856682","tag":{"amenity":"waste_basket"}},"type":"Feature"},
	{"geometry":{"coordinates":[10.987256,45.431085],"type":"Point"},"properties":{"osm_id":"8957863190","tag":{"amenity":"waste_basket"}},"type":"Feature"},
	{"geometry":{"coordinates":[10.988358,45.447883],"type":"Point"},"properties":{"osm_id":"9044271306","tag":{"amenity":"waste_basket"}},"type":"Feature"},
	{"geometry":{"coordinates":[10.987206,45.447804],"type":"Point"},"properties":{"osm_id":"9044274529","tag":{"amenity":"waste_basket"}},"type":"Feature"},
	{"geometry":{"coordinates":[10.987604,45.448053],"type":"Point"},"properties":{"osm_id":"9044304172","tag":{"amenity":"waste_basket"}},"type":"Feature"},
	{"geometry":{"coordinates":[10.989863,45.443517],"type":"Point"},"properties":{"osm_id":"9044304173","tag":{"amenity":"waste_basket"}},"type":"Feature"},
	{"geometry":{"coordinates":[10.988453,45.448354],"type":"Point"},"properties":{"osm_id":"9044305402","tag":{"amenity":"waste_basket"}},"type":"Feature"},
	{"geometry":{"coordinates":[10.987253,45.448552],"type":"Point"},"properties":{"osm_id":"9044305403","tag":{"amenity":"waste_basket"}},"type":"Feature"},
	{"geometry":{"coordinates":[10.986736,45.447808],"type":"Point"},"properties":{"osm_id":"9044307392","tag":{"amenity":"waste_basket"}},"type":"Feature"},
	{"geometry":{"coordinates":[10.987555,45.447841],"type":"Point"},"properties":{"osm_id":"9044318732","tag":{"amenity":"waste_basket"}},"type":"Feature"},
	{"geometry":{"coordinates":[10.986581,45.447815],"type":"Point"},"properties":{"osm_id":"9044352862","tag":{"amenity":"waste_basket"}},"type":"Feature"},
	{"geometry":{"coordinates":[10.986625,45.447817],"type":"Point"},"properties":{"osm_id":"9044353040","tag":{"amenity":"waste_basket"}},"type":"Feature"},
	{"geometry":{"coordinates":[10.986715,45.447811],"type":"Point"},"properties":{"osm_id":"9044355558","tag":{"amenity":"waste_basket"}},"type":"Feature"},
	{"geometry":{"coordinates":[10.986481,45.447834],"type":"Point"},"properties":{"osm_id":"9044357536","tag":{"amenity":"waste_basket"}},"type":"Feature"},
	{"geometry":{"coordinates":[10.986641,45.447813],"type":"Point"},"properties":{"osm_id":"9044360575","tag":{"amenity":"waste_basket"}},"type":"Feature"},
	{"geometry":{"coordinates":[10.987131,45.447756],"type":"Point"},"properties":{"osm_id":"9044360655","tag":{"amenity":"waste_basket"}},"type":"Feature"},
	{"geometry":{"coordinates":[10.987258,45.448575],"type":"Point"},"properties":{"osm_id":"9044364006","tag":{"amenity":"waste_basket"}},"type":"Feature"},
	{"geometry":{"coordinates":[10.98675,45.448657],"type":"Point"},"properties":{"osm_id":"9044365427","tag":{"amenity":"waste_basket"}},"type":"Feature"},
	{"geometry":{"coordinates":[10.987998,45.448056],"type":"Point"},"properties":{"osm_id":"9044365718","tag":{"amenity":"waste_basket"}},"type":"Feature"}
]
}
