{
"type": "FeatureCollection",
"features": [
	{"geometry":{"coordinates":[11.361901,53.658508],"type":"Point"},"properties":{"osm_id":"360741794","tag":{"amenity":"recycling","recycling_type":"container"}},"type":"Feature"},
	{"geometry":{"coordinates":[11.407879,53.64601],"type":"Point"},"properties":{"osm_id":"514897726","tag":{"amenity":"recycling","recycling:glass":"yes","recycling_type":"container"}},"type":"Feature"},
	{"geometry":{"coordinates":[11.424266,53.675244],"type":"Point"},"properties":{"osm_id":"528818899","tag":{"amenity":"recycling","recycling:cans":"yes","recycling:glass":"yes","recycling:paper":"yes","recycling_type":"container"}},"type":"Feature"},
	{"geometry":{"coordinates":[11.403161,53.661492],"type":"Point"},"properties":{"osm_id":"564169151","tag":{"amenity":"recycling","recycling:glass":"yes","recycling:paper":"yes","recycling_type":"container"}},"type":"Feature"},
	{"geometry":{"coordinates":[11.388644,53.688951],"type":"Point"},"properties":{"osm_id":"564239276","tag":{"amenity":"recycling","recycling:cans":"yes","recycling:glass_bottles":"yes","recycling:paper":"yes","recycling_type":"container"}},"type":"Feature"},
	{"geometry":{"coordinates":[11.358263,53.645691],"type":"Point"},"properties":{"osm_id":"567465366","tag":{"amenity":"recycling","recycling:cans":"yes","recycling:glass":"yes","recycling:paper":"no","recycling_type":"container"}},"type":"Feature"},
	{"geometry":{"coordinates":[11.357396,53.647886],"type":"Point"},"properties":{"osm_id":"567794696","tag":{"amenity":"recycling","recycling:cans":"yes","recycling:glass":"yes","recycling:paper":"yes","recycling_type":"container"}},"type":"Feature"},
	{"geometry":{"coordinates":[11.362818,53.647316],"type":"Point"},"properties":{"osm_id":"567794700","tag":{"amenity":"recycling","recycling:cans":"yes","recycling:glass":"yes","recycling:paper":"yes","recycling_type":"container"}},"type":"Feature"},
	{"geometry":{"coordinates":[11.369476,53.646698],"type":"Point"},"properties":{"osm_id":"567796217","tag":{"amenity":"recycling","recycling:cans":"yes","recycling:glass":"yes","recycling:paper":"yes","recycling_type":"container"}},"type":"Feature"},
	{"geometry":{"coordinates":[11.40866,53.649802],"type":"Point"},"properties":{"osm_id":"700935787","tag":{"amenity":"recycling","recycling:cans":"yes","recycling:glass_bottles":"yes","recycling:paper":"yes","recycling_type":"container"}},"type":"Feature"},
	{"geometry":{"coordinates":[11.408378,53.650178],"type":"Point"},"properties":{"osm_id":"700939787","tag":{"amenity":"recycling","recycling:clothes":"yes","recycling_type":"container"}},"type":"Feature"},
	{"geometry":{"coordinates":[11.408692,53.653628],"type":"Point"},"properties":{"osm_id":"701118936","tag":{"amenity":"recycling","recycling:cans":"yes","recycling:glass":"yes","recycling:paper":"yes","recycling_type":"container"}},"type":"Feature"},
	{"geometry":{"coordinates":[11.410481,53.656322],"type":"Point"},"properties":{"osm_id":"703858542","tag":{"amenity":"recycling","recycling:cans":"yes","recycling:glass":"yes","recycling_type":"container"}},"type":"Feature"},
	{"geometry":{"coordinates":[11.379755,53.66808],"type":"Point"},"properties":{"osm_id":"847708157","tag":{"amenity":"recycling","recycling:glass_bottles":"yes","recycling:paper":"yes","recycling_type":"container"}},"type":"Feature"},
	{"geometry":{"coordinates":[11.365464,53.647968],"type":"Point"},"properties":{"osm_id":"2286505673","tag":{"amenity":"waste_basket"}},"type":"Feature"},
	{"geometry":{"coordinates":[11.367153,53.645072],"type":"Point"},"properties":{"osm_id":"2286649040","tag":{"amenity":"waste_basket"}},"type":"Feature"},
	{"geometry":{"coordinates":[11.366191,53.645114],"type":"Point"},"properties":{"osm_id":"2286649053","tag":{"amenity":"waste_basket"}},"type":"Feature"},
	{"geometry":{"coordinates":[11.365453,53.647677],"type":"Point"},"properties":{"osm_id":"2286649089","tag":{"amenity":"waste_basket"}},"type":"Feature"},
	{"geometry":{"coordinates":[11.365379,53.647972],"type":"Point"},"properties":{"osm_id":"2286649103","tag":{"amenity":"waste_basket"}},"type":"Feature"},
	{"geometry":{"coordinates":[11.360286,53.659617],"type":"Point"},"properties":{"osm_id":"2287285082","tag":{"amenity":"waste_basket"}},"type":"Feature"},
	{"geometry":{"coordinates":[11.380649,53.650973],"type":"Point"},"properties":{"name":"ALBA Nord GmbH","osm_id":"2298654264","tag":{"amenity":"recycling","recycling_type":"centre","website":"http://www.alba.info/ALBA_de/business/ALBA_Regional/visitenkarten/ALBA_Nord_GmbH.php"}},"type":"Feature"},
	{"geometry":{"coordinates":[11.405966,53.651163],"type":"Point"},"properties":{"osm_id":"2310079610","tag":{"amenity":"waste_basket"}},"type":"Feature"},
	{"geometry":{"coordinates":[11.408292,53.65579],"type":"Point"},"properties":{"osm_id":"2310079980","tag":{"amenity":"waste_basket"}},"type":"Feature"},
	{"geometry":{"coordinates":[11.408667,53.656025],"type":"Point"},"properties":{"osm_id":"2310079997","tag":{"amenity":"waste_basket"}},"type":"Feature"},
	{"geometry":{"coordinates":[11.370892,53.648093],"type":"Point"},"properties":{"osm_id":"2597637225","tag":{"amenity":"recycling","recycling_type":"container"}},"type":"Feature"},
	{"geometry":{"coordinates":[11.368316,53.648482],"type":"Point"},"properties":{"osm_id":"2597637226","tag":{"amenity":"recycling","recycling_type":"container"}},"type":"Feature"},
	{"geometry":{"coordinates":[11.365943,53.648491],"type":"Point"},"properties":{"osm_id":"2597637227","tag":{"amenity":"recycling","recycling_type":"container"}},"type":"Feature"},
	{"geometry":{"coordinates":[11.365696,53.649214],"type":"Point"},"properties":{"osm_id":"2597637229","tag":{"amenity":"recycling","recycling_type":"container"}},"type":"Feature"},
	{"geometry":{"coordinates":[11.415071,53.664462],"type":"Point"},"properties":{"osm_id":"3015816414","tag":{"amenity":"waste_basket"}},"type":"Feature"},
	{"geometry":{"coordinates":[11.340026,53.652544],"type":"Point"},"properties":{"osm_id":"6348097339","tag":{"amenity":"recycling","location":"overground","recycling:glass":"yes","recycling_type":"container"}},"type":"Feature"},
	{"geometry":{"coordinates":[11.376073,53.647515],"type":"Point"},"properties":{"osm_id":"6366100665","tag":{"amenity":"recycling","recycling_type":"container"}},"type":"Feature"},
	{"geometry":{"coordinates":[11.373483,53.647996],"type":"Point"},"properties":{"osm_id":"6647906309","tag":{"amenity":"recycling","recycling_type":"container"}},"type":"Feature"},
	{"geometry":{"coordinates":[11.363167,53.649075],"type":"Point"},"properties":{"osm_id":"6647906424","tag":{"amenity":"recycling","recycling_type":"container"}},"type":"Feature"}
]
}
