{
"type": "FeatureCollection",
"features": [
	{"geometry":{"coordinates":[11.422573,51.297919],"type":"Point"},"properties":{"osm_id":"1841893057","tag":{"amenity":"recycling","recycling:glass":"yes"}},"type":"Feature"},
	{"geometry":{"coordinates":[11.407734,51.307142],"type":"Point"},"properties":{"osm_id":"1842383692","tag":{"amenity":"recycling","recycling:glass":"yes","recycling:paper":"yes"}},"type":"Feature"},
	{"geometry":{"coordinates":[11.398396,51.306477],"type":"Point"},"properties":{"osm_id":"1842407896","tag":{"amenity":"recycling","location":"overground","recycling:glass":"yes","recycling_type":"container"}},"type":"Feature"},
	{"geometry":{"coordinates":[11.399144,51.301446],"type":"Point"},"properties":{"osm_id":"1842438193","tag":{"amenity":"recycling","recycling:glass":"yes"}},"type":"Feature"},
	{"geometry":{"coordinates":[11.366722,51.324744],"type":"Point"},"properties":{"osm_id":"1849674703","tag":{"amenity":"recycling","mapillary":"1URniDg5Djcpka935nV5FA","recycling:glass":"yes","recycling_type":"container","survey:date":"2017-09-14"}},"type":"Feature"},
	{"geometry":{"coordinates":[11.376586,51.322232],"type":"Point"},"properties":{"osm_id":"1858988642","tag":{"amenity":"recycling","recycling:glass":"yes","recycling:paper":"yes"}},"type":"Feature"},
	{"geometry":{"coordinates":[11.365892,51.323318],"type":"Point"},"properties":{"osm_id":"1859183430","tag":{"amenity":"recycling","recycling:paper":"yes","recycling_type":"container"}},"type":"Feature"},
	{"geometry":{"coordinates":[11.373519,51.294127],"type":"Point"},"properties":{"osm_id":"1864427901","tag":{"amenity":"recycling","recycling:glass":"yes"}},"type":"Feature"},
	{"geometry":{"coordinates":[11.358849,51.296798],"type":"Point"},"properties":{"osm_id":"1864486706","tag":{"amenity":"recycling","recycling:glass":"yes"}},"type":"Feature"},
	{"geometry":{"coordinates":[11.349786,51.295678],"type":"Point"},"properties":{"osm_id":"1865568905","tag":{"amenity":"recycling","recycling:glass":"yes"}},"type":"Feature"},
	{"geometry":{"coordinates":[11.338327,51.31544],"type":"Point"},"properties":{"osm_id":"1871688178","tag":{"amenity":"recycling","recycling:clothes":"yes","recycling:glass":"yes"}},"type":"Feature"},
	{"geometry":{"coordinates":[11.339047,51.343179],"type":"Point"},"properties":{"osm_id":"1875219653","tag":{"amenity":"recycling","recycling:glass":"yes"}},"type":"Feature"},
	{"geometry":{"coordinates":[11.424862,51.296852],"type":"Point"},"properties":{"osm_id":"2348611740","tag":{"amenity":"waste_basket"}},"type":"Feature"},
	{"geometry":{"coordinates":[11.424502,51.297094],"type":"Point"},"properties":{"osm_id":"2348611780","tag":{"amenity":"waste_basket"}},"type":"Feature"}
]
}
