{
"type": "FeatureCollection",
"features": [
	{"geometry":{"coordinates":[11.343426,50.967248],"type":"Point"},"properties":{"osm_id":"820936116","tag":{"amenity":"recycling","location":"overground","recycling:glass_bottles":"yes","recycling_type":"container"}},"type":"Feature"},
	{"geometry":{"coordinates":[11.361307,51.004807],"type":"Point"},"properties":{"osm_id":"923372732","tag":{"amenity":"recycling","recycling:clothes":"yes","recycling:glass":"yes","recycling_type":"container"}},"type":"Feature"},
	{"geometry":{"coordinates":[11.370422,50.99809],"type":"Point"},"properties":{"osm_id":"923384362","tag":{"amenity":"recycling","recycling:clothes":"yes","recycling:glass":"yes","recycling:paper":"no","recycling_type":"container"}},"type":"Feature"},
	{"geometry":{"coordinates":[11.345725,50.997024],"type":"Point"},"properties":{"osm_id":"1949523524","tag":{"amenity":"recycling","operator":"Remondis","recycling:glass_bottles":"yes","recycling_type":"container"}},"type":"Feature"},
	{"geometry":{"coordinates":[11.338072,50.980749],"type":"Point"},"properties":{"osm_id":"2416014528","tag":{"amenity":"recycling","location":"overground","recycling_type":"container"}},"type":"Feature"},
	{"geometry":{"coordinates":[11.338167,50.980906],"type":"Point"},"properties":{"osm_id":"2416014547","tag":{"amenity":"recycling","location":"overground","recycling_type":"container"}},"type":"Feature"},
	{"geometry":{"coordinates":[11.343244,50.979286],"type":"Point"},"properties":{"osm_id":"3090509867","tag":{"amenity":"recycling","recycling:clothes":"yes","recycling:glass":"yes","recycling:glass_bottles":"yes","recycling_type":"container"}},"type":"Feature"},
	{"geometry":{"coordinates":[11.351096,50.963466],"type":"Point"},"properties":{"osm_id":"3215570181","tag":{"amenity":"recycling","recycling_type":"container"}},"type":"Feature"},
	{"geometry":{"coordinates":[11.370134,51.004644],"type":"Point"},"properties":{"osm_id":"3796477336","tag":{"amenity":"recycling","recycling_type":"container"}},"type":"Feature"},
	{"geometry":{"coordinates":[11.340227,51.01219],"type":"Point"},"properties":{"osm_id":"3799666321","tag":{"amenity":"recycling"}},"type":"Feature"},
	{"geometry":{"coordinates":[11.383341,50.982313],"type":"Point"},"properties":{"osm_id":"4488870165","tag":{"amenity":"recycling","recycling:glass":"yes","recycling_type":"container"}},"type":"Feature"},
	{"geometry":{"coordinates":[11.365922,50.993626],"type":"Point"},"properties":{"osm_id":"4770815427","tag":{"amenity":"waste_basket"}},"type":"Feature"},
	{"geometry":{"coordinates":[11.343099,50.960901],"type":"Point"},"properties":{"osm_id":"5141805635","tag":{"amenity":"recycling","recycling_type":"container"}},"type":"Feature"},
	{"geometry":{"coordinates":[11.340036,50.984402],"type":"Point"},"properties":{"osm_id":"5141810658","tag":{"amenity":"recycling","recycling_type":"container"}},"type":"Feature"},
	{"geometry":{"coordinates":[11.36323,50.992321],"type":"Point"},"properties":{"osm_id":"5533820427","tag":{"amenity":"waste_disposal","operator":"Stadtwirtschaft Weimar"}},"type":"Feature"},
	{"geometry":{"coordinates":[11.364196,50.992939],"type":"Point"},"properties":{"osm_id":"5533868121","tag":{"amenity":"waste_basket"}},"type":"Feature"},
	{"geometry":{"coordinates":[11.36508,50.99295],"type":"Point"},"properties":{"osm_id":"5534217193","tag":{"amenity":"waste_basket"}},"type":"Feature"},
	{"geometry":{"coordinates":[11.36291,50.967839],"type":"Point"},"properties":{"osm_id":"5550399122","tag":{"amenity":"waste_disposal","operator":"Remondis"}},"type":"Feature"},
	{"geometry":{"coordinates":[11.345711,50.997081],"type":"Point"},"properties":{"osm_id":"5902119053","tag":{"amenity":"recycling","operator":"FWS","recycling:clothes":"yes","recycling_type":"container"}},"type":"Feature"},
	{"geometry":{"coordinates":[11.340277,50.97803],"type":"Point"},"properties":{"osm_id":"5961547091","tag":{"amenity":"waste_disposal","operator":"Remondis","recycling":"container","recycling:glass":"yes"}},"type":"Feature"},
	{"geometry":{"coordinates":[11.338404,50.971299],"type":"Point"},"properties":{"osm_id":"5981782933","tag":{"amenity":"waste_basket"}},"type":"Feature"},
	{"geometry":{"coordinates":[11.339413,50.963454],"type":"Point"},"properties":{"osm_id":"6036649213","tag":{"amenity":"recycling","recycling:clothes":"yes","recycling:glass_bottles":"yes","recycling_type":"container"}},"type":"Feature"}
]
}
