{
"type": "FeatureCollection",
"lastupdate": "2020-07-31T00:00:00Z",
"features": [
	{"geometry":{"coordinates":[11.339004,50.710008],"type":"Point"},"properties":{"osm_id":"435770652","tag":{"amenity":"recycling","operator":"Deutsches Rotes Kreuz","recycling:clothes":"yes","recycling_type":"container"}},"type":"Feature"},
	{"geometry":{"coordinates":[11.399655,50.701503],"type":"Point"},"properties":{"osm_id":"733020889","tag":{"amenity":"recycling","recycling:glass_bottles":"yes","recycling_type":"container"}},"type":"Feature"},
	{"geometry":{"coordinates":[11.385493,50.68881],"type":"Point"},"properties":{"osm_id":"733021009","tag":{"amenity":"waste_basket"}},"type":"Feature"},
	{"geometry":{"coordinates":[11.346312,50.689829],"type":"Point"},"properties":{"osm_id":"733021294","tag":{"amenity":"waste_basket"}},"type":"Feature"},
	{"geometry":{"coordinates":[11.399712,50.70145],"type":"Point"},"properties":{"osm_id":"734640826","tag":{"amenity":"waste_basket"}},"type":"Feature"},
	{"geometry":{"coordinates":[11.34304,50.718967],"type":"Point"},"properties":{"osm_id":"938548651","tag":{"amenity":"waste_basket"}},"type":"Feature"},
	{"geometry":{"coordinates":[11.343892,50.720653],"type":"Point"},"properties":{"osm_id":"1349458444","tag":{"amenity":"waste_basket"}},"type":"Feature"},
	{"geometry":{"coordinates":[11.338081,50.716321],"type":"Point"},"properties":{"osm_id":"1349528565","tag":{"amenity":"waste_basket"}},"type":"Feature"},
	{"geometry":{"coordinates":[11.340047,50.71837],"type":"Point"},"properties":{"osm_id":"1350846448","tag":{"amenity":"waste_basket"}},"type":"Feature"},
	{"geometry":{"coordinates":[11.344895,50.717226],"type":"Point"},"properties":{"osm_id":"1676624831","tag":{"amenity":"waste_basket"}},"type":"Feature"},
	{"geometry":{"coordinates":[11.342356,50.717142],"type":"Point"},"properties":{"osm_id":"1676624842","tag":{"amenity":"waste_basket"}},"type":"Feature"},
	{"geometry":{"coordinates":[11.344271,50.716613],"type":"Point"},"properties":{"osm_id":"1676624846","tag":{"amenity":"waste_basket"}},"type":"Feature"},
	{"geometry":{"coordinates":[11.345028,50.713204],"type":"Point"},"properties":{"osm_id":"1693770417","tag":{"amenity":"recycling","operator":"Deutsches Rotes Kreuz","recycling:clothes":"yes","recycling_type":"container"}},"type":"Feature"},
	{"geometry":{"coordinates":[11.340917,50.71664],"type":"Point"},"properties":{"osm_id":"1693770584","tag":{"amenity":"waste_basket"}},"type":"Feature"},
	{"geometry":{"coordinates":[11.339096,50.716997],"type":"Point"},"properties":{"osm_id":"1693770585","tag":{"amenity":"waste_basket"}},"type":"Feature"},
	{"geometry":{"coordinates":[11.349577,50.715592],"type":"Point"},"properties":{"osm_id":"1748628066","tag":{"amenity":"recycling","recycling:clothes":"yes","recycling:glass":"yes","recycling_type":"container"}},"type":"Feature"},
	{"geometry":{"coordinates":[11.3412,50.722016],"type":"Point"},"properties":{"osm_id":"1819128202","tag":{"amenity":"waste_basket"}},"type":"Feature"},
	{"geometry":{"coordinates":[11.41913,50.721998],"type":"Point"},"properties":{"osm_id":"1906749346","tag":{"amenity":"recycling","mapillary":"q4sOGAGYdolrLGhr0nTfyA","recycling:clothes":"yes","recycling:glass_bottles":"yes","recycling_type":"container"}},"type":"Feature"},
	{"geometry":{"coordinates":[11.341896,50.722505],"type":"Point"},"properties":{"osm_id":"2851527234","tag":{"amenity":"waste_basket"}},"type":"Feature"},
	{"geometry":{"coordinates":[11.340491,50.722734],"type":"Point"},"properties":{"osm_id":"2851527235","tag":{"amenity":"waste_basket"}},"type":"Feature"},
	{"geometry":{"coordinates":[11.346575,50.709587],"type":"Point"},"properties":{"osm_id":"2962752634","tag":{"amenity":"waste_basket"}},"type":"Feature"},
	{"geometry":{"coordinates":[11.340913,50.718447],"type":"Point"},"properties":{"osm_id":"2965835015","tag":{"amenity":"waste_basket"}},"type":"Feature"},
	{"geometry":{"coordinates":[11.341503,50.716763],"type":"Point"},"properties":{"osm_id":"4157221304","tag":{"amenity":"waste_basket"}},"type":"Feature"},
	{"geometry":{"coordinates":[11.343732,50.717422],"type":"Point"},"properties":{"osm_id":"4157221308","tag":{"amenity":"waste_basket"}},"type":"Feature"},
	{"geometry":{"coordinates":[11.337931,50.718833],"type":"Point"},"properties":{"osm_id":"4307979124","tag":{"amenity":"waste_basket"}},"type":"Feature"},
	{"geometry":{"coordinates":[11.338489,50.718398],"type":"Point"},"properties":{"osm_id":"4309203840","tag":{"amenity":"waste_basket"}},"type":"Feature"},
	{"geometry":{"coordinates":[11.338926,50.718458],"type":"Point"},"properties":{"osm_id":"4681585386","tag":{"amenity":"waste_basket"}},"type":"Feature"},
	{"geometry":{"coordinates":[11.345191,50.718113],"type":"Point"},"properties":{"osm_id":"4681668947","tag":{"amenity":"waste_basket"}},"type":"Feature"},
	{"geometry":{"coordinates":[11.34464,50.71707],"type":"Point"},"properties":{"osm_id":"4681677057","tag":{"amenity":"waste_basket"}},"type":"Feature"},
	{"geometry":{"coordinates":[11.338111,50.723446],"type":"Point"},"properties":{"osm_id":"4681797466","tag":{"amenity":"waste_basket"}},"type":"Feature"},
	{"geometry":{"coordinates":[11.338777,50.723074],"type":"Point"},"properties":{"osm_id":"4681797537","tag":{"amenity":"waste_basket"}},"type":"Feature"},
	{"geometry":{"coordinates":[11.339493,50.723],"type":"Point"},"properties":{"osm_id":"4681798304","tag":{"amenity":"waste_basket"}},"type":"Feature"},
	{"geometry":{"coordinates":[11.341311,50.693969],"type":"Point"},"properties":{"osm_id":"4967706039","tag":{"amenity":"waste_basket"}},"type":"Feature"},
	{"geometry":{"coordinates":[11.344842,50.697418],"type":"Point"},"properties":{"osm_id":"4968304068","tag":{"amenity":"recycling","recycling:glass":"yes","recycling_type":"container"}},"type":"Feature"},
	{"geometry":{"coordinates":[11.345683,50.696974],"type":"Point"},"properties":{"osm_id":"4968304106","tag":{"amenity":"waste_basket"}},"type":"Feature"},
	{"geometry":{"coordinates":[11.341686,50.709376],"type":"Point"},"properties":{"osm_id":"4968807641","tag":{"amenity":"waste_basket"}},"type":"Feature"},
	{"geometry":{"coordinates":[11.342626,50.720809],"type":"Point"},"properties":{"osm_id":"4974102147","tag":{"amenity":"waste_basket"}},"type":"Feature"},
	{"geometry":{"coordinates":[11.348073,50.695914],"type":"Point"},"properties":{"osm_id":"5275145024","tag":{"amenity":"waste_basket"}},"type":"Feature"},
	{"geometry":{"coordinates":[11.34004,50.691899],"type":"Point"},"properties":{"osm_id":"5293912262","tag":{"amenity":"waste_basket"}},"type":"Feature"},
	{"geometry":{"coordinates":[11.343735,50.693479],"type":"Point"},"properties":{"osm_id":"5403459751","tag":{"amenity":"waste_basket"}},"type":"Feature"},
	{"geometry":{"coordinates":[11.344101,50.719271],"type":"Point"},"properties":{"osm_id":"5942919975","tag":{"amenity":"waste_basket"}},"type":"Feature"},
	{"geometry":{"coordinates":[11.342809,50.710696],"type":"Point"},"properties":{"osm_id":"5942919982","tag":{"amenity":"waste_basket"}},"type":"Feature"},
	{"geometry":{"coordinates":[11.339492,50.722285],"type":"Point"},"properties":{"osm_id":"6017398812","tag":{"amenity":"waste_basket"}},"type":"Feature"},
	{"geometry":{"coordinates":[11.346202,50.714298],"type":"Point"},"properties":{"osm_id":"6564405337","tag":{"amenity":"recycling","operator":"Volkssolidarit\u00e4t","recycling:clothes":"yes","recycling_type":"container"}},"type":"Feature"},
	{"geometry":{"coordinates":[11.342624,50.721675],"type":"Point"},"properties":{"osm_id":"6625064792","tag":{"amenity":"waste_basket"}},"type":"Feature"},
	{"geometry":{"coordinates":[11.346044,50.688892],"type":"Point"},"properties":{"osm_id":"6795039109","tag":{"amenity":"waste_basket","waste":"trash"}},"type":"Feature"},
	{"geometry":{"coordinates":[11.369217,50.68347],"type":"Point"},"properties":{"osm_id":"7099505814","tag":{"amenity":"waste_basket"}},"type":"Feature"},
	{"geometry":{"coordinates":[11.355895,50.705622],"type":"Point"},"properties":{"osm_id":"7444430259","tag":{"amenity":"waste_basket","waste":"trash"}},"type":"Feature"},
	{"geometry":{"coordinates":[11.394341,50.715264],"type":"Point"},"properties":{"osm_id":"7574847299","tag":{"amenity":"recycling","recycling:clothes":"yes","recycling:glass_bottles":"yes","recycling_type":"container"}},"type":"Feature"},
	{"geometry":{"coordinates":[11.345128,50.713124],"type":"Point"},"properties":{"osm_id":"7574861559","tag":{"amenity":"recycling","recycling:glass_bottles":"yes","recycling_type":"container"}},"type":"Feature"},
	{"geometry":{"coordinates":[11.341303,50.71859],"type":"Point"},"properties":{"osm_id":"7574913205","tag":{"amenity":"waste_basket"}},"type":"Feature"}
]
}
