{
"type": "FeatureCollection",
"features": [
	{"geometry":{"coordinates":[11.360307,50.671183],"type":"Point"},"properties":{"osm_id":"705398592","tag":{"amenity":"waste_basket"}},"type":"Feature"},
	{"geometry":{"coordinates":[11.371322,50.679835],"type":"Point"},"properties":{"osm_id":"705398808","tag":{"amenity":"recycling","recycling:glass_bottles":"yes","recycling_type":"container"}},"type":"Feature"},
	{"geometry":{"coordinates":[11.364495,50.661812],"type":"Point"},"properties":{"osm_id":"763469254","tag":{"amenity":"recycling"}},"type":"Feature"},
	{"geometry":{"coordinates":[11.367639,50.64599],"type":"Point"},"properties":{"osm_id":"763492463","tag":{"amenity":"recycling","recycling:batteries":"no","recycling:books":"no","recycling:cans":"no","recycling:cardboard":"no","recycling:cartons":"no","recycling:clothes":"no","recycling:electrical_appliances":"no","recycling:glass":"yes","recycling:glass_bottles":"yes","recycling:green_waste":"no","recycling:magazines":"no","recycling:newspaper":"no","recycling:paper":"no","recycling:paper_packaging":"no","recycling:plastic":"no","recycling:plastic_bottles":"no","recycling:plastic_packaging":"no","recycling:scrap_metal":"no","recycling:small_appliances":"no","recycling:waste":"no","recycling:wood":"no","recycling_type":"container"}},"type":"Feature"},
	{"geometry":{"coordinates":[11.341502,50.653125],"type":"Point"},"properties":{"osm_id":"1338211012","tag":{"amenity":"waste_basket"}},"type":"Feature"},
	{"geometry":{"coordinates":[11.342042,50.653559],"type":"Point"},"properties":{"osm_id":"1338211043","tag":{"amenity":"waste_basket"}},"type":"Feature"},
	{"geometry":{"coordinates":[11.345966,50.657217],"type":"Point"},"properties":{"osm_id":"1338211308","tag":{"amenity":"recycling","recycling:glass":"yes","recycling_type":"container"}},"type":"Feature"},
	{"geometry":{"coordinates":[11.345822,50.657967],"type":"Point"},"properties":{"osm_id":"1338211422","tag":{"amenity":"recycling","recycling:clothes":"yes"}},"type":"Feature"},
	{"geometry":{"coordinates":[11.353456,50.642092],"type":"Point"},"properties":{"osm_id":"1939316254","tag":{"amenity":"recycling","recycling:batteries":"no","recycling:books":"no","recycling:cans":"no","recycling:cardboard":"no","recycling:cartons":"no","recycling:clothes":"yes","recycling:electrical_appliances":"no","recycling:glass":"yes","recycling:glass_bottles":"yes","recycling:green_waste":"no","recycling:magazines":"no","recycling:newspaper":"no","recycling:paper":"no","recycling:paper_packaging":"no","recycling:plastic":"no","recycling:plastic_bottles":"no","recycling:scrap_metal":"no","recycling:small_appliances":"no","recycling:waste":"no","recycling:wood":"no","recycling_type":"container"}},"type":"Feature"},
	{"geometry":{"coordinates":[11.371793,50.632502],"type":"Point"},"properties":{"osm_id":"3235230992","tag":{"amenity":"recycling","recycling_type":"container"}},"type":"Feature"},
	{"geometry":{"coordinates":[11.354901,50.653898],"type":"Point"},"properties":{"osm_id":"4902233463","tag":{"amenity":"recycling","operator:type":"public","recycling:glass":"yes","recycling:glass_bottles":"yes","recycling_type":"container"}},"type":"Feature"},
	{"geometry":{"coordinates":[11.354516,50.652871],"type":"Point"},"properties":{"osm_id":"4906148888","tag":{"amenity":"recycling","operator:type":"public","recycling:cardboard":"yes","recycling:cartons":"yes","recycling:magazines":"yes","recycling:newspaper":"yes","recycling:paper":"yes","recycling:paper_packaging":"yes","recycling_type":"container"}},"type":"Feature"},
	{"geometry":{"coordinates":[11.354476,50.652899],"type":"Point"},"properties":{"osm_id":"4906149809","tag":{"amenity":"recycling","operator":"Adolf W\u00c3\u00bcrth GmbH","operator:type":"private","recycling:clothes":"yes","recycling:shoes":"yes","recycling_type":"container"}},"type":"Feature"},
	{"geometry":{"coordinates":[11.398218,50.651332],"type":"Point"},"properties":{"osm_id":"5046857296","tag":{"amenity":"waste_basket"}},"type":"Feature"},
	{"geometry":{"coordinates":[11.396738,50.64981],"type":"Point"},"properties":{"name":"Deutsches Rotes Kreuz e.V.","osm_id":"5046857627","tag":{"amenity":"recycling","operator":"Deutsches Rotes Kreuz","recycling_type":"container","website":"https://www.drk.de/"}},"type":"Feature"},
	{"geometry":{"coordinates":[11.357736,50.652383],"type":"Point"},"properties":{"osm_id":"5057130632","tag":{"amenity":"waste_basket"}},"type":"Feature"},
	{"geometry":{"coordinates":[11.355759,50.648008],"type":"Point"},"properties":{"osm_id":"5069218563","tag":{"amenity":"recycling","operator":"Humana","recycling:clothes":"yes","recycling_type":"container","website":"https://www.humana-kleidersammlung.de/"}},"type":"Feature"},
	{"geometry":{"coordinates":[11.355726,50.647996],"type":"Point"},"properties":{"osm_id":"5069218564","tag":{"amenity":"recycling","operator":"Humana","recycling:clothes":"yes","recycling_type":"container","website":"https://www.humana-kleidersammlung.de/"}},"type":"Feature"},
	{"geometry":{"coordinates":[11.355688,50.647983],"type":"Point"},"properties":{"osm_id":"5069218565","tag":{"amenity":"recycling","recycling:gas_bottles":"yes","recycling_type":"container"}},"type":"Feature"},
	{"geometry":{"coordinates":[11.354575,50.654274],"type":"Point"},"properties":{"osm_id":"5069466647","tag":{"amenity":"recycling","operator":"Kolping","recycling:clothes":"yes","recycling_type":"container","website":"http://www.kolping-textilrecycling.de"}},"type":"Feature"},
	{"geometry":{"coordinates":[11.354587,50.65426],"type":"Point"},"properties":{"osm_id":"5069466648","tag":{"amenity":"recycling","operator":"Kolping","recycling:clothes":"yes","recycling_type":"container","website":"http://www.kolping-textilrecycling.de"}},"type":"Feature"},
	{"geometry":{"coordinates":[11.366472,50.651579],"type":"Point"},"properties":{"osm_id":"5071759262","tag":{"amenity":"recycling","operator":"Volkssolidarit\u00c3\u00a4t","recycling:clothes":"yes","recycling_type":"container","website":"https://www.volkssolidaritaet.de"}},"type":"Feature"},
	{"geometry":{"coordinates":[11.366445,50.651581],"type":"Point"},"properties":{"osm_id":"5071759263","tag":{"amenity":"recycling","operator":"Volkssolidarit\u00c3\u00a4t","recycling:clothes":"yes","recycling_type":"container","website":"https://www.volkssolidaritaet.de"}},"type":"Feature"},
	{"geometry":{"coordinates":[11.366686,50.651429],"type":"Point"},"properties":{"osm_id":"5071759264","tag":{"amenity":"recycling","recycling:glass_bottles":"yes","recycling_type":"container"}},"type":"Feature"},
	{"geometry":{"coordinates":[11.366673,50.651446],"type":"Point"},"properties":{"osm_id":"5071759265","tag":{"amenity":"recycling","operator":"Humana","recycling:clothes":"yes","recycling_type":"container","website":"https://www.humana-kleidersammlung.de/"}},"type":"Feature"},
	{"geometry":{"coordinates":[11.401888,50.655797],"type":"Point"},"properties":{"osm_id":"5097464512","tag":{"amenity":"recycling","recycling:glass_bottles":"yes","recycling_type":"container"}},"type":"Feature"},
	{"geometry":{"coordinates":[11.343243,50.63423],"type":"Point"},"properties":{"osm_id":"5306737204","tag":{"amenity":"waste_basket"}},"type":"Feature"},
	{"geometry":{"coordinates":[11.34249,50.635663],"type":"Point"},"properties":{"osm_id":"5306760034","tag":{"amenity":"waste_basket"}},"type":"Feature"},
	{"geometry":{"coordinates":[11.341845,50.635477],"type":"Point"},"properties":{"osm_id":"5306763789","tag":{"amenity":"waste_basket"}},"type":"Feature"},
	{"geometry":{"coordinates":[11.347683,50.673818],"type":"Point"},"properties":{"osm_id":"5365786125","tag":{"amenity":"waste_basket"}},"type":"Feature"},
	{"geometry":{"coordinates":[11.369741,50.630944],"type":"Point"},"properties":{"osm_id":"5732369969","tag":{"amenity":"waste_basket","waste":"trash"}},"type":"Feature"},
	{"geometry":{"coordinates":[11.367724,50.633597],"type":"Point"},"properties":{"osm_id":"5732382023","tag":{"amenity":"waste_basket","waste":"trash"}},"type":"Feature"},
	{"geometry":{"coordinates":[11.358593,50.666222],"type":"Point"},"properties":{"osm_id":"6342951007","tag":{"amenity":"waste_basket","waste":"trash"}},"type":"Feature"},
	{"geometry":{"coordinates":[11.362065,50.662586],"type":"Point"},"properties":{"osm_id":"6342956174","tag":{"amenity":"waste_basket","waste":"trash"}},"type":"Feature"},
	{"geometry":{"coordinates":[11.361205,50.654629],"type":"Point"},"properties":{"osm_id":"6342962579","tag":{"amenity":"waste_basket","waste":"trash"}},"type":"Feature"},
	{"geometry":{"coordinates":[11.342966,50.651305],"type":"Point"},"properties":{"osm_id":"6418866681","tag":{"amenity":"recycling","recycling:clothes":"yes","recycling:glass_bottles":"yes","recycling_type":"container"}},"type":"Feature"},
	{"geometry":{"coordinates":[11.40196,50.655807],"type":"Point"},"properties":{"osm_id":"6805394030","tag":{"amenity":"recycling","operator":"Deutsches Rotes Kreuz","recycling:shoes":"yes","recycling_type":"container"}},"type":"Feature"},
	{"geometry":{"coordinates":[11.339739,50.665649],"type":"Point"},"properties":{"osm_id":"7014275481","tag":{"amenity":"recycling","recycling_type":"container"}},"type":"Feature"},
	{"geometry":{"coordinates":[11.341074,50.634915],"type":"Point"},"properties":{"osm_id":"7098987346","tag":{"amenity":"waste_basket"}},"type":"Feature"},
	{"geometry":{"coordinates":[11.355805,50.671368],"type":"Point"},"properties":{"osm_id":"7577652201","tag":{"amenity":"waste_basket","waste":"trash"}},"type":"Feature"},
	{"geometry":{"coordinates":[11.34622,50.671883],"type":"Point"},"properties":{"osm_id":"7577652208","tag":{"amenity":"waste_basket","waste":"trash"}},"type":"Feature"},
	{"geometry":{"coordinates":[11.422868,50.661322],"type":"Point"},"properties":{"osm_id":"9140446739","tag":{"amenity":"waste_disposal"}},"type":"Feature"}
]
}
