{
"type": "FeatureCollection",
"lastupdate": "2020-08-03T00:00:00Z",
"features": [
	{"geometry":{"coordinates":[11.349955,50.198805],"type":"Point"},"properties":{"osm_id":"251428304","tag":{"amenity":"recycling"}},"type":"Feature"},
	{"geometry":{"coordinates":[11.419286,50.229961],"type":"Point"},"properties":{"osm_id":"984908439","tag":{"amenity":"recycling"}},"type":"Feature"},
	{"geometry":{"coordinates":[11.36453,50.230947],"type":"Point"},"properties":{"osm_id":"5014941575","tag":{"amenity":"recycling","opening_hours":"Mo-Sa 07:00-19:00; Su off; PH off","recycling:cans":"yes","recycling:clothes":"yes","recycling:glass_bottles":"yes","recycling_type":"container"}},"type":"Feature"},
	{"geometry":{"coordinates":[11.358001,50.230628],"type":"Point"},"properties":{"osm_id":"7197139488","tag":{"amenity":"recycling","opening_hours":"Mo-Sa 07:00-19:00; Su off; PH off","recycling:cans":"yes","recycling:clothes":"yes","recycling:glass_bottles":"yes","recycling_type":"container"}},"type":"Feature"}
]
}
