{
"type": "FeatureCollection",
"features": [
	{"geometry":{"coordinates":[11.409694,50.106446],"type":"Point"},"properties":{"osm_id":"269211783","tag":{"amenity":"recycling","location":"overground","recycling:glass":"yes","recycling_type":"container"}},"type":"Feature"},
	{"geometry":{"coordinates":[11.41345,50.10506],"type":"Point"},"properties":{"osm_id":"681689647","tag":{"amenity":"waste_disposal"}},"type":"Feature"},
	{"geometry":{"coordinates":[11.39292,50.119472],"type":"Point"},"properties":{"osm_id":"2199424287","tag":{"amenity":"recycling","location":"overground","recycling_type":"container"}},"type":"Feature"},
	{"geometry":{"coordinates":[11.368502,50.104872],"type":"Point"},"properties":{"osm_id":"3344785218","tag":{"amenity":"recycling","recycling:clothes":"yes","recycling_type":"container"}},"type":"Feature"},
	{"geometry":{"coordinates":[11.362326,50.095342],"type":"Point"},"properties":{"osm_id":"3574878813","tag":{"amenity":"waste_basket"}},"type":"Feature"},
	{"geometry":{"coordinates":[11.40921,50.087494],"type":"Point"},"properties":{"osm_id":"3880879604","tag":{"amenity":"waste_basket"}},"type":"Feature"},
	{"geometry":{"coordinates":[11.386128,50.099621],"type":"Point"},"properties":{"osm_id":"3923436932","tag":{"amenity":"recycling","recycling:glass":"yes","recycling_type":"container"}},"type":"Feature"},
	{"geometry":{"coordinates":[11.379601,50.095841],"type":"Point"},"properties":{"osm_id":"4421739528","tag":{"amenity":"recycling","operator":"Simon","recycling:glass_bottles":"yes","recycling_type":"container"}},"type":"Feature"},
	{"geometry":{"coordinates":[11.37955,50.095852],"type":"Point"},"properties":{"osm_id":"4421739529","tag":{"amenity":"recycling","recycling:cans":"yes","recycling_type":"container"}},"type":"Feature"},
	{"geometry":{"coordinates":[11.399052,50.097273],"type":"Point"},"properties":{"osm_id":"5141492032","tag":{"amenity":"waste_basket"}},"type":"Feature"},
	{"geometry":{"coordinates":[11.40133,50.096107],"type":"Point"},"properties":{"osm_id":"5141492034","tag":{"amenity":"waste_basket"}},"type":"Feature"},
	{"geometry":{"coordinates":[11.402273,50.098752],"type":"Point"},"properties":{"osm_id":"5141492035","tag":{"amenity":"waste_basket"}},"type":"Feature"},
	{"geometry":{"coordinates":[11.400989,50.098459],"type":"Point"},"properties":{"osm_id":"5141492039","tag":{"amenity":"waste_basket"}},"type":"Feature"},
	{"geometry":{"coordinates":[11.399975,50.098135],"type":"Point"},"properties":{"osm_id":"5141492042","tag":{"amenity":"waste_basket"}},"type":"Feature"},
	{"geometry":{"coordinates":[11.3582,50.094336],"type":"Point"},"properties":{"osm_id":"5182741135","tag":{"amenity":"waste_basket"}},"type":"Feature"},
	{"geometry":{"coordinates":[11.419231,50.097872],"type":"Point"},"properties":{"name":"Trapper GmbH","osm_id":"5317221963","tag":{"amenity":"recycling","description":"Schrottverwertung und Containerdienst","opening_hours":"Mo-Fr 07:00-12:00, 12:30-16:00; PH off","phone":"+49 9221 90690","recycling:scrap_metal":"yes","recycling_type":"centre","website":"https://www.trapper-kulmbach.de/"}},"type":"Feature"},
	{"geometry":{"coordinates":[11.392728,50.099227],"type":"Point"},"properties":{"osm_id":"5340457951","tag":{"amenity":"recycling","recycling:cans":"yes","recycling:glass":"yes","recycling_type":"container"}},"type":"Feature"},
	{"geometry":{"coordinates":[11.41002,50.106807],"type":"Point"},"properties":{"name":"Altkleidercontainer","osm_id":"5812941664","tag":{"amenity":"recycling","recycling_type":"container"}},"type":"Feature"},
	{"geometry":{"coordinates":[11.343269,50.117933],"type":"Point"},"properties":{"osm_id":"5948694843","tag":{"amenity":"waste_basket"}},"type":"Feature"},
	{"geometry":{"coordinates":[11.408268,50.09672],"type":"Point"},"properties":{"osm_id":"6284273225","tag":{"amenity":"waste_basket"}},"type":"Feature"},
	{"geometry":{"coordinates":[11.405215,50.098683],"type":"Point"},"properties":{"osm_id":"6284273229","tag":{"amenity":"waste_basket"}},"type":"Feature"},
	{"geometry":{"coordinates":[11.403981,50.098841],"type":"Point"},"properties":{"osm_id":"6284273231","tag":{"amenity":"waste_basket"}},"type":"Feature"},
	{"geometry":{"coordinates":[11.40869,50.091344],"type":"Point"},"properties":{"osm_id":"6284616648","tag":{"amenity":"waste_basket"}},"type":"Feature"},
	{"geometry":{"coordinates":[11.361699,50.095842],"type":"Point"},"properties":{"osm_id":"6374104533","tag":{"amenity":"recycling","recycling:glass_bottles":"yes","recycling_type":"container"}},"type":"Feature"},
	{"geometry":{"coordinates":[11.401916,50.092551],"type":"Point"},"properties":{"osm_id":"6387668285","tag":{"amenity":"waste_basket"}},"type":"Feature"},
	{"geometry":{"coordinates":[11.411841,50.092415],"type":"Point"},"properties":{"osm_id":"6387670412","tag":{"amenity":"waste_basket"}},"type":"Feature"},
	{"geometry":{"coordinates":[11.383853,50.114927],"type":"Point"},"properties":{"osm_id":"6389584167","tag":{"amenity":"recycling","recycling_type":"container"}},"type":"Feature"}
]
}
