{
"type": "FeatureCollection",
"lastupdate": "2020-08-03T00:00:00Z",
"features": [
	{"geometry":{"coordinates":[11.345077,50.037081],"type":"Point"},"properties":{"osm_id":"339984158","tag":{"amenity":"recycling","recycling:cans":"yes","recycling:clothes":"yes","recycling:glass":"yes","recycling:shoes":"yes","recycling_type":"container"}},"type":"Feature"},
	{"geometry":{"coordinates":[11.391098,50.022678],"type":"Point"},"properties":{"osm_id":"644890650","tag":{"amenity":"recycling"}},"type":"Feature"},
	{"geometry":{"coordinates":[11.381478,50.054807],"type":"Point"},"properties":{"osm_id":"919739730","tag":{"amenity":"recycling"}},"type":"Feature"},
	{"geometry":{"coordinates":[11.395452,50.023862],"type":"Point"},"properties":{"osm_id":"5682603095","tag":{"amenity":"waste_basket"}},"type":"Feature"},
	{"geometry":{"coordinates":[11.393419,50.022419],"type":"Point"},"properties":{"osm_id":"5682603097","tag":{"amenity":"waste_basket"}},"type":"Feature"},
	{"geometry":{"coordinates":[11.35942,50.036936],"type":"Point"},"properties":{"osm_id":"5954837767","tag":{"amenity":"waste_basket"}},"type":"Feature"},
	{"geometry":{"coordinates":[11.353817,50.037133],"type":"Point"},"properties":{"osm_id":"5954837778","tag":{"amenity":"waste_basket"}},"type":"Feature"},
	{"geometry":{"coordinates":[11.423686,50.033305],"type":"Point"},"properties":{"osm_id":"6017775160","tag":{"amenity":"waste_basket"}},"type":"Feature"},
	{"geometry":{"coordinates":[11.421073,50.034231],"type":"Point"},"properties":{"osm_id":"6017775177","tag":{"amenity":"waste_basket"}},"type":"Feature"},
	{"geometry":{"coordinates":[11.409875,50.030813],"type":"Point"},"properties":{"osm_id":"6017775291","tag":{"amenity":"waste_basket"}},"type":"Feature"},
	{"geometry":{"coordinates":[11.410184,50.029439],"type":"Point"},"properties":{"osm_id":"6017775301","tag":{"amenity":"waste_basket"}},"type":"Feature"},
	{"geometry":{"coordinates":[11.406555,50.03006],"type":"Point"},"properties":{"osm_id":"6017775307","tag":{"amenity":"waste_basket"}},"type":"Feature"},
	{"geometry":{"coordinates":[11.414888,50.035471],"type":"Point"},"properties":{"osm_id":"6017775526","tag":{"amenity":"waste_basket"}},"type":"Feature"},
	{"geometry":{"coordinates":[11.403461,50.026293],"type":"Point"},"properties":{"osm_id":"6017903763","tag":{"amenity":"waste_basket"}},"type":"Feature"},
	{"geometry":{"coordinates":[11.396586,50.027663],"type":"Point"},"properties":{"osm_id":"6017950138","tag":{"amenity":"waste_basket"}},"type":"Feature"},
	{"geometry":{"coordinates":[11.393822,50.021643],"type":"Point"},"properties":{"osm_id":"6017950159","tag":{"amenity":"waste_basket"}},"type":"Feature"},
	{"geometry":{"coordinates":[11.399125,50.022153],"type":"Point"},"properties":{"osm_id":"6017950182","tag":{"amenity":"waste_basket"}},"type":"Feature"},
	{"geometry":{"coordinates":[11.39414,50.023705],"type":"Point"},"properties":{"osm_id":"6282864683","tag":{"amenity":"waste_basket"}},"type":"Feature"},
	{"geometry":{"coordinates":[11.3904,50.015759],"type":"Point"},"properties":{"osm_id":"6385012470","tag":{"amenity":"waste_basket"}},"type":"Feature"},
	{"geometry":{"coordinates":[11.390705,50.015504],"type":"Point"},"properties":{"osm_id":"6385012471","tag":{"amenity":"waste_basket"}},"type":"Feature"},
	{"geometry":{"coordinates":[11.390607,50.015667],"type":"Point"},"properties":{"osm_id":"6385012472","tag":{"amenity":"waste_basket"}},"type":"Feature"},
	{"geometry":{"coordinates":[11.394719,50.022675],"type":"Point"},"properties":{"osm_id":"6389258444","tag":{"amenity":"waste_basket"}},"type":"Feature"},
	{"geometry":{"coordinates":[11.352871,50.035956],"type":"Point"},"properties":{"osm_id":"6393400645","tag":{"amenity":"waste_basket"}},"type":"Feature"}
]
}
