{
"type": "FeatureCollection",
"features": [
	{"geometry":{"coordinates":[11.3528,49.389978],"type":"Point"},"properties":{"osm_id":"254042390","tag":{"amenity":"recycling"}},"type":"Feature"},
	{"geometry":{"coordinates":[11.346507,49.382855],"type":"Point"},"properties":{"osm_id":"254055171","tag":{"addr:city":"Altdorf b. N\u00c3\u00bcrnberg","addr:postcode":"90518","addr:street":"Pfaffentalstra\u00c3\u009fe","amenity":"recycling","recycling:cans":"no","recycling:clothes":"yes","recycling:glass":"no","recycling:paper":"no","recycling_type":"container"}},"type":"Feature"},
	{"geometry":{"coordinates":[11.349877,49.386174],"type":"Point"},"properties":{"osm_id":"254055348","tag":{"amenity":"recycling","location":"overground","recycling_type":"container"}},"type":"Feature"},
	{"geometry":{"coordinates":[11.416794,49.430438],"type":"Point"},"properties":{"osm_id":"289148255","tag":{"amenity":"recycling"}},"type":"Feature"},
	{"geometry":{"coordinates":[11.385522,49.434069],"type":"Point"},"properties":{"osm_id":"390956651","tag":{"amenity":"recycling"}},"type":"Feature"},
	{"geometry":{"coordinates":[11.349203,49.390677],"type":"Point"},"properties":{"osm_id":"666976978","tag":{"amenity":"recycling"}},"type":"Feature"},
	{"geometry":{"coordinates":[11.409557,49.41001],"type":"Point"},"properties":{"osm_id":"893304487","tag":{"amenity":"recycling","recycling:cans":"no","recycling:glass":"yes","recycling:scrap_metal":"yes"}},"type":"Feature"},
	{"geometry":{"coordinates":[11.373624,49.385924],"type":"Point"},"properties":{"osm_id":"1436604449","tag":{"amenity":"recycling"}},"type":"Feature"},
	{"geometry":{"coordinates":[11.359036,49.388986],"type":"Point"},"properties":{"osm_id":"1437221319","tag":{"amenity":"recycling","recycling:batteries":"no","recycling:cans":"yes","recycling:clothes":"yes","recycling:glass":"yes","recycling:paper":"no","recycling:scrap_metal":"yes","recycling_type":"container"}},"type":"Feature"},
	{"geometry":{"coordinates":[11.362605,49.428485],"type":"Point"},"properties":{"osm_id":"1481139664","tag":{"amenity":"recycling"}},"type":"Feature"},
	{"geometry":{"coordinates":[11.367547,49.384145],"type":"Point"},"properties":{"osm_id":"2002901762","tag":{"amenity":"recycling","recycling:batteries":"no","recycling:cans":"no","recycling:clothes":"yes","recycling:glass":"no","recycling:paper":"no","recycling:scrap_metal":"no","recycling:shoes":"yes","recycling_type":"container"}},"type":"Feature"},
	{"geometry":{"coordinates":[11.36303,49.384561],"type":"Point"},"properties":{"osm_id":"2002901766","tag":{"amenity":"waste_basket"}},"type":"Feature"},
	{"geometry":{"coordinates":[11.354895,49.38899],"type":"Point"},"properties":{"osm_id":"2002901780","tag":{"amenity":"waste_basket"}},"type":"Feature"},
	{"geometry":{"coordinates":[11.365217,49.388016],"type":"Point"},"properties":{"osm_id":"2338946632","tag":{"amenity":"recycling","recycling:batteries":"no","recycling:cans":"no","recycling:clothes":"no","recycling:glass":"yes","recycling:paper":"no","recycling:scrap_metal":"yes","recycling_type":"container"}},"type":"Feature"},
	{"geometry":{"coordinates":[11.348378,49.382483],"type":"Point"},"properties":{"osm_id":"3002874979","tag":{"amenity":"recycling","recycling:batteries":"no","recycling:cans":"no","recycling:clothes":"yes","recycling:glass":"no","recycling:paper":"no","recycling:scrap_metal":"no","recycling_type":"container"}},"type":"Feature"},
	{"geometry":{"coordinates":[11.352827,49.385064],"type":"Point"},"properties":{"osm_id":"3261614111","tag":{"amenity":"waste_basket","wheelchair":"yes"}},"type":"Feature"},
	{"geometry":{"coordinates":[11.352834,49.384877],"type":"Point"},"properties":{"osm_id":"3261614112","tag":{"amenity":"waste_basket","wheelchair":"yes"}},"type":"Feature"},
	{"geometry":{"coordinates":[11.354694,49.385438],"type":"Point"},"properties":{"osm_id":"3265374713","tag":{"amenity":"waste_basket"}},"type":"Feature"},
	{"geometry":{"coordinates":[11.354886,49.385654],"type":"Point"},"properties":{"osm_id":"3265374714","tag":{"amenity":"waste_basket"}},"type":"Feature"},
	{"geometry":{"coordinates":[11.355302,49.384245],"type":"Point"},"properties":{"osm_id":"3961731163","tag":{"amenity":"recycling","recycling:cans":"yes","recycling:glass":"no","recycling:glass_bottles":"yes","recycling_type":"container"}},"type":"Feature"},
	{"geometry":{"coordinates":[11.354947,49.38539],"type":"Point"},"properties":{"osm_id":"3969236532","tag":{"amenity":"waste_basket"}},"type":"Feature"},
	{"geometry":{"coordinates":[11.355113,49.38447],"type":"Point"},"properties":{"osm_id":"3969236644","tag":{"amenity":"waste_basket"}},"type":"Feature"},
	{"geometry":{"coordinates":[11.356299,49.385838],"type":"Point"},"properties":{"osm_id":"4028355073","tag":{"amenity":"waste_basket"}},"type":"Feature"},
	{"geometry":{"coordinates":[11.344249,49.387977],"type":"Point"},"properties":{"osm_id":"5420421357","tag":{"amenity":"recycling","recycling_type":"container"}},"type":"Feature"},
	{"geometry":{"coordinates":[11.3622,49.383263],"type":"Point"},"properties":{"osm_id":"5506695431","tag":{"amenity":"recycling","description":"Altkleidercontainer","recycling_type":"container"}},"type":"Feature"},
	{"geometry":{"coordinates":[11.367808,49.383022],"type":"Point"},"properties":{"osm_id":"6092650473","tag":{"amenity":"recycling","recycling:glass":"yes","recycling_type":"container"}},"type":"Feature"},
	{"geometry":{"coordinates":[11.353426,49.389343],"type":"Point"},"properties":{"osm_id":"6104391283","tag":{"amenity":"recycling","capacity":"2","description":"Altkleider-Container","recycling_type":"container"}},"type":"Feature"},
	{"geometry":{"coordinates":[11.384639,49.433222],"type":"Point"},"properties":{"osm_id":"6718718074","tag":{"amenity":"waste_basket"}},"type":"Feature"}
]
}
