{
"type": "FeatureCollection",
"features": [
	{"geometry":{"coordinates":[11.361741,49.376018],"type":"Point"},"properties":{"osm_id":"254055000","tag":{"amenity":"recycling"}},"type":"Feature"},
	{"geometry":{"coordinates":[11.360632,49.379244],"type":"Point"},"properties":{"osm_id":"254055169","tag":{"amenity":"recycling","recycling:cans":"yes","recycling:glass_bottles":"yes","recycling_type":"container"}},"type":"Feature"},
	{"geometry":{"coordinates":[11.343403,49.330117],"type":"Point"},"properties":{"osm_id":"307976476","tag":{"amenity":"recycling","recycling:cans":"yes","recycling:clothes":"yes","recycling:glass":"yes"}},"type":"Feature"},
	{"geometry":{"coordinates":[11.346269,49.350316],"type":"Point"},"properties":{"osm_id":"323203670","tag":{"amenity":"recycling","location":"overground","recycling:glass":"no","recycling:glass_bottles":"yes","recycling_type":"container"}},"type":"Feature"},
	{"geometry":{"coordinates":[11.411208,49.329269],"type":"Point"},"properties":{"osm_id":"375962133","tag":{"amenity":"recycling","recycling:clothes":"yes","recycling:glass":"yes","recycling_type":"container"}},"type":"Feature"},
	{"geometry":{"coordinates":[11.35331,49.328132],"type":"Point"},"properties":{"osm_id":"510158519","tag":{"amenity":"recycling","recycling:cans":"yes","recycling:glass":"yes"}},"type":"Feature"},
	{"geometry":{"coordinates":[11.369769,49.381846],"type":"Point"},"properties":{"osm_id":"1763313223","tag":{"amenity":"recycling"}},"type":"Feature"},
	{"geometry":{"coordinates":[11.377325,49.341753],"type":"Point"},"properties":{"osm_id":"2084286635","tag":{"amenity":"recycling"}},"type":"Feature"},
	{"geometry":{"coordinates":[11.371808,49.342796],"type":"Point"},"properties":{"osm_id":"2087668051","tag":{"amenity":"waste_basket"}},"type":"Feature"},
	{"geometry":{"coordinates":[11.347149,49.326134],"type":"Point"},"properties":{"osm_id":"2099957923","tag":{"amenity":"recycling","recycling:cans":"yes","recycling:glass":"yes","recycling:paper":"no"}},"type":"Feature"},
	{"geometry":{"coordinates":[11.344851,49.381652],"type":"Point"},"properties":{"osm_id":"2101936387","tag":{"addr:city":"Altdorf b. N\u00c3\u00bcrnberg","addr:postcode":"90518","addr:street":"Prackenfelser Stra\u00c3\u009fe","amenity":"recycling","recycling:cans":"yes","recycling:clothes":"no","recycling:glass":"yes","recycling:paper":"no","wheelchair":"no"}},"type":"Feature"},
	{"geometry":{"coordinates":[11.354917,49.381855],"type":"Point"},"properties":{"osm_id":"3257402116","tag":{"addr:city":"Altdorf b. N\u00c3\u00bcrnberg","addr:postcode":"90518","addr:street":"Professor-Franz-Becker-Stra\u00c3\u009fe","amenity":"recycling","recycling:cans":"yes","recycling:clothes":"yes","recycling:glass":"yes","recycling:paper":"no","wheelchair":"no"}},"type":"Feature"},
	{"geometry":{"coordinates":[11.352215,49.381723],"type":"Point"},"properties":{"osm_id":"3258737349","tag":{"amenity":"waste_basket","wheelchair":"limited"}},"type":"Feature"},
	{"geometry":{"coordinates":[11.342222,49.326908],"type":"Point"},"properties":{"osm_id":"6955035715","tag":{"amenity":"waste_basket"}},"type":"Feature"},
	{"geometry":{"coordinates":[11.377947,49.357372],"type":"Point"},"properties":{"osm_id":"7599787683","tag":{"amenity":"waste_basket","waste":"trash"}},"type":"Feature"},
	{"geometry":{"coordinates":[11.372687,49.355347],"type":"Point"},"properties":{"osm_id":"7599799091","tag":{"amenity":"waste_basket","waste":"trash"}},"type":"Feature"},
	{"geometry":{"coordinates":[11.387618,49.360645],"type":"Point"},"properties":{"osm_id":"7599799092","tag":{"amenity":"waste_basket","waste":"trash"}},"type":"Feature"},
	{"geometry":{"coordinates":[11.391686,49.359687],"type":"Point"},"properties":{"osm_id":"7599799095","tag":{"amenity":"waste_basket","waste":"trash"}},"type":"Feature"},
	{"geometry":{"coordinates":[11.394893,49.360664],"type":"Point"},"properties":{"osm_id":"7599799096","tag":{"amenity":"waste_basket"}},"type":"Feature"},
	{"geometry":{"coordinates":[11.406451,49.370059],"type":"Point"},"properties":{"osm_id":"7599799102","tag":{"amenity":"waste_basket","waste":"trash"}},"type":"Feature"},
	{"geometry":{"coordinates":[11.410895,49.328373],"type":"Point"},"properties":{"osm_id":"7869405832","tag":{"amenity":"waste_basket"}},"type":"Feature"},
	{"geometry":{"coordinates":[11.424798,49.327049],"type":"Point"},"properties":{"osm_id":"7869405833","tag":{"amenity":"waste_basket"}},"type":"Feature"}
]
}
