{
"type": "FeatureCollection",
"features": [
	{"geometry":{"coordinates":[11.386677,49.31987],"type":"Point"},"properties":{"osm_id":"468058688","tag":{"amenity":"recycling","recycling:clothes":"yes","recycling:glass":"yes","recycling_type":"container"}},"type":"Feature"},
	{"geometry":{"coordinates":[11.412034,49.288119],"type":"Point"},"properties":{"osm_id":"1878956999","tag":{"amenity":"recycling","recycling:clothes":"yes","recycling:glass_bottles":"yes","recycling:shoes":"yes","recycling_type":"container"}},"type":"Feature"},
	{"geometry":{"coordinates":[11.339351,49.317823],"type":"Point"},"properties":{"osm_id":"2087086709","tag":{"amenity":"recycling","opening_hours":"24/7","recycling:cans":"yes","recycling:glass_bottles":"yes","recycling_type":"container"}},"type":"Feature"},
	{"geometry":{"coordinates":[11.348854,49.3054],"type":"Point"},"properties":{"name":"Wertstoffhof","osm_id":"5390698328","tag":{"amenity":"recycling","opening_hours":"Mo 13:00-16:30; Th 09:30-12:00; Mar Su[-1]-Oct Su[-1] -1 day: Th 13:00-18:00; Mar Su[-1]-Oct Su[-1] -1 day: Sa 09:00-13:00; Oct Su[-1]-Mar Su[-1] -1 day: Th 13:00-16:30; Oct Su[-1]-Mar Su[-1] -1 day: Sa 09:00-12:00; PH off","operator":"Markt Postbauer-Heng","recycling:cans":"no","recycling:cardboard":"yes","recycling:clothes":"yes","recycling:electrical_appliances":"yes","recycling:glass":"yes","recycling:glass_bottles":"yes","recycling:green_waste":"yes","recycling:paper":"yes","recycling:plastic":"no","recycling:plastic_bottles":"no","recycling:plastic_packaging":"no","recycling:scrap_metal":"yes","recycling:shoes":"yes","recycling:small_appliances":"yes","recycling_type":"centre"}},"type":"Feature"},
	{"geometry":{"coordinates":[11.352005,49.304218],"type":"Point"},"properties":{"osm_id":"6847006775","tag":{"amenity":"recycling","recycling:clothes":"yes","recycling:shoes":"yes","recycling_type":"container"}},"type":"Feature"},
	{"geometry":{"coordinates":[11.355129,49.303702],"type":"Point"},"properties":{"osm_id":"6847010213","tag":{"amenity":"recycling","recycling:clothes":"yes","recycling:shoes":"yes","recycling_type":"container"}},"type":"Feature"},
	{"geometry":{"coordinates":[11.357865,49.313584],"type":"Point"},"properties":{"osm_id":"6875643509","tag":{"amenity":"waste_basket","waste":"trash"}},"type":"Feature"},
	{"geometry":{"coordinates":[11.33838,49.317843],"type":"Point"},"properties":{"osm_id":"6919929044","tag":{"amenity":"recycling","opening_hours":"24/7","recycling:clothes":"yes","recycling:shoes":"yes","recycling_type":"container"}},"type":"Feature"},
	{"geometry":{"coordinates":[11.338964,49.321828],"type":"Point"},"properties":{"osm_id":"6955035714","tag":{"amenity":"waste_basket"}},"type":"Feature"},
	{"geometry":{"coordinates":[11.358513,49.306439],"type":"Point"},"properties":{"osm_id":"6960157425","tag":{"amenity":"recycling","opening_hours":"24/7","recycling:clothes":"yes","recycling_type":"container"}},"type":"Feature"},
	{"geometry":{"coordinates":[11.356627,49.294874],"type":"Point"},"properties":{"osm_id":"7041919717","tag":{"amenity":"waste_basket"}},"type":"Feature"},
	{"geometry":{"coordinates":[11.363202,49.305065],"type":"Point"},"properties":{"osm_id":"7055245051","tag":{"amenity":"waste_basket"}},"type":"Feature"},
	{"geometry":{"coordinates":[11.372393,49.316833],"type":"Point"},"properties":{"osm_id":"7319868918","tag":{"amenity":"waste_basket"}},"type":"Feature"},
	{"geometry":{"coordinates":[11.412405,49.288105],"type":"Point"},"properties":{"osm_id":"7929430407","tag":{"amenity":"waste_basket","waste":"trash"}},"type":"Feature"},
	{"geometry":{"coordinates":[11.421454,49.290393],"type":"Point"},"properties":{"osm_id":"7929430410","tag":{"amenity":"waste_basket","waste":"trash"}},"type":"Feature"},
	{"geometry":{"coordinates":[11.412461,49.288353],"type":"Point"},"properties":{"osm_id":"7929430412","tag":{"amenity":"waste_basket","waste":"trash"}},"type":"Feature"},
	{"geometry":{"coordinates":[11.422485,49.288776],"type":"Point"},"properties":{"osm_id":"7929430415","tag":{"amenity":"waste_basket","waste":"trash"}},"type":"Feature"},
	{"geometry":{"coordinates":[11.425644,49.287328],"type":"Point"},"properties":{"osm_id":"7929430416","tag":{"amenity":"waste_basket","waste":"trash"}},"type":"Feature"},
	{"geometry":{"coordinates":[11.423427,49.288313],"type":"Point"},"properties":{"osm_id":"7929430417","tag":{"amenity":"waste_basket","waste":"trash"}},"type":"Feature"},
	{"geometry":{"coordinates":[11.412151,49.288519],"type":"Point"},"properties":{"osm_id":"7929430418","tag":{"amenity":"waste_basket","waste":"trash"}},"type":"Feature"},
	{"geometry":{"coordinates":[11.408704,49.287527],"type":"Point"},"properties":{"osm_id":"7974232707","tag":{"amenity":"waste_basket","waste":"trash"}},"type":"Feature"},
	{"geometry":{"coordinates":[11.408933,49.283316],"type":"Point"},"properties":{"osm_id":"7974232708","tag":{"amenity":"recycling","recycling:clothes":"yes","recycling:glass_bottles":"yes","recycling:shoes":"yes","recycling_type":"container"}},"type":"Feature"},
	{"geometry":{"coordinates":[11.403599,49.284203],"type":"Point"},"properties":{"osm_id":"8078396465","tag":{"amenity":"waste_basket","waste":"trash"}},"type":"Feature"},
	{"geometry":{"coordinates":[11.408642,49.28342],"type":"Point"},"properties":{"osm_id":"8078396474","tag":{"amenity":"waste_basket","waste":"trash"}},"type":"Feature"},
	{"geometry":{"coordinates":[11.36188,49.309295],"type":"Point"},"properties":{"osm_id":"8288990584","tag":{"amenity":"waste_basket"}},"type":"Feature"},
	{"geometry":{"coordinates":[11.362304,49.316057],"type":"Point"},"properties":{"osm_id":"8288990598","tag":{"amenity":"waste_basket"}},"type":"Feature"}
]
}
