{
"type": "FeatureCollection",
"features": [
	{"geometry":{"coordinates":[11.399956,48.774368],"type":"Point"},"properties":{"osm_id":"243749573","tag":{"amenity":"recycling"}},"type":"Feature"},
	{"geometry":{"coordinates":[11.421952,48.771441],"type":"Point"},"properties":{"osm_id":"271783895","tag":{"amenity":"recycling"}},"type":"Feature"},
	{"geometry":{"coordinates":[11.409677,48.75997],"type":"Point"},"properties":{"osm_id":"279890252","tag":{"amenity":"recycling","recycling:clothes":"yes"}},"type":"Feature"},
	{"geometry":{"coordinates":[11.338188,48.75238],"type":"Point"},"properties":{"osm_id":"288544844","tag":{"amenity":"recycling","recycling:clothes":"yes","recycling:glass":"yes","recycling_type":"container"}},"type":"Feature"},
	{"geometry":{"coordinates":[11.408623,48.781703],"type":"Point"},"properties":{"osm_id":"292572171","tag":{"amenity":"recycling"}},"type":"Feature"},
	{"geometry":{"coordinates":[11.404571,48.780438],"type":"Point"},"properties":{"osm_id":"292572175","tag":{"amenity":"recycling","recycling:glass":"yes"}},"type":"Feature"},
	{"geometry":{"coordinates":[11.408032,48.776888],"type":"Point"},"properties":{"osm_id":"292572189","tag":{"amenity":"recycling"}},"type":"Feature"},
	{"geometry":{"coordinates":[11.409831,48.779476],"type":"Point"},"properties":{"osm_id":"292578398","tag":{"amenity":"recycling","recycling_type":"container"}},"type":"Feature"},
	{"geometry":{"coordinates":[11.412016,48.801877],"type":"Point"},"properties":{"osm_id":"369527469","tag":{"amenity":"recycling","recycling:clothes":"yes","recycling:glass_bottles":"yes","recycling_type":"container"}},"type":"Feature"},
	{"geometry":{"coordinates":[11.402232,48.779199],"type":"Point"},"properties":{"osm_id":"681375846","tag":{"amenity":"recycling","recycling:clothes":"yes","recycling_type":"container"}},"type":"Feature"},
	{"geometry":{"coordinates":[11.402358,48.779102],"type":"Point"},"properties":{"osm_id":"681375869","tag":{"amenity":"recycling","recycling:glass_bottles":"yes","recycling_type":"container"}},"type":"Feature"},
	{"geometry":{"coordinates":[11.42045,48.778553],"type":"Point"},"properties":{"osm_id":"690288654","tag":{"amenity":"recycling","opening_hours":"Mo-Sa 08:00-18:00","recycling:clothes":"yes","recycling:glass":"yes","recycling:glass_bottles":"yes","recycling:shoes":"yes","recycling_type":"container"}},"type":"Feature"},
	{"geometry":{"coordinates":[11.420313,48.760007],"type":"Point"},"properties":{"osm_id":"888931285","tag":{"amenity":"recycling","opening_hours":"Mo-Sa 08:00-18:00","recycling:clothes":"yes","recycling:glass":"yes","recycling:glass_bottles":"yes","recycling:shoes":"yes","recycling:small_appliances":"yes","recycling_type":"container","wheelchair":"limited"}},"type":"Feature"},
	{"geometry":{"coordinates":[11.425256,48.76736],"type":"Point"},"properties":{"osm_id":"913688183","tag":{"amenity":"waste_basket","waste":"trash"}},"type":"Feature"},
	{"geometry":{"coordinates":[11.42492,48.76864],"type":"Point"},"properties":{"osm_id":"915689449","tag":{"amenity":"waste_basket","waste":"trash"}},"type":"Feature"},
	{"geometry":{"coordinates":[11.425118,48.76863],"type":"Point"},"properties":{"osm_id":"915689973","tag":{"amenity":"waste_basket","waste":"trash"}},"type":"Feature"},
	{"geometry":{"coordinates":[11.387298,48.770828],"type":"Point"},"properties":{"osm_id":"1213737348","tag":{"amenity":"recycling","location":"overground","recycling:clothes":"yes","recycling:electrical_appliances":"yes","recycling:glass_bottles":"yes","recycling_type":"container"}},"type":"Feature"},
	{"geometry":{"coordinates":[11.390287,48.763303],"type":"Point"},"properties":{"osm_id":"1241199333","tag":{"amenity":"recycling","recycling:glass_bottles":"yes","recycling_type":"container"}},"type":"Feature"},
	{"geometry":{"coordinates":[11.407207,48.764456],"type":"Point"},"properties":{"osm_id":"1241199505","tag":{"amenity":"recycling"}},"type":"Feature"},
	{"geometry":{"coordinates":[11.386257,48.772374],"type":"Point"},"properties":{"osm_id":"1261113098","tag":{"amenity":"recycling","location":"overground","recycling_type":"container"}},"type":"Feature"},
	{"geometry":{"coordinates":[11.407039,48.773401],"type":"Point"},"properties":{"osm_id":"1326915009","tag":{"amenity":"recycling","recycling:cans":"yes","recycling:glass":"yes"}},"type":"Feature"},
	{"geometry":{"coordinates":[11.38685,48.782558],"type":"Point"},"properties":{"osm_id":"1346892812","tag":{"amenity":"recycling","opening_hours":"Mo-Fr 09:00-17:45; Sa 09:00-15:45","operator":"Caritas","recycling:batteries":"yes","recycling:cans":"yes","recycling:clothes":"yes","recycling:glass":"yes","recycling:paper":"yes","recycling:scrap_metal":"yes","recycling_type":"centre","shop":"Wertstoffhof"}},"type":"Feature"},
	{"geometry":{"coordinates":[11.403767,48.770281],"type":"Point"},"properties":{"osm_id":"1350507254","tag":{"amenity":"recycling","recycling:cans":"no","recycling:clothes":"yes","recycling:glass":"yes","recycling:paper":"no"}},"type":"Feature"},
	{"geometry":{"coordinates":[11.398127,48.786778],"type":"Point"},"properties":{"osm_id":"1377043603","tag":{"amenity":"recycling","location":"overground","recycling_type":"container"}},"type":"Feature"},
	{"geometry":{"coordinates":[11.370936,48.784787],"type":"Point"},"properties":{"osm_id":"1500083208","tag":{"amenity":"recycling","recycling:glass_bottles":"yes","recycling_type":"container"}},"type":"Feature"},
	{"geometry":{"coordinates":[11.413178,48.771671],"type":"Point"},"properties":{"osm_id":"1509951377","tag":{"amenity":"recycling","recycling:cans":"no","recycling:clothes":"yes","recycling:glass":"yes","recycling:glass_bottles":"yes","recycling:paper":"no","recycling:plastic":"no","recycling_type":"container"}},"type":"Feature"},
	{"geometry":{"coordinates":[11.417024,48.776638],"type":"Point"},"properties":{"osm_id":"1509951380","tag":{"amenity":"recycling","recycling:clothes":"yes","recycling_type":"container"}},"type":"Feature"},
	{"geometry":{"coordinates":[11.401056,48.779874],"type":"Point"},"properties":{"osm_id":"1509951397","tag":{"amenity":"recycling","recycling:glass_bottles":"yes","recycling_type":"container"}},"type":"Feature"},
	{"geometry":{"coordinates":[11.38511,48.788126],"type":"Point"},"properties":{"osm_id":"1515873779","tag":{"amenity":"recycling","recycling:clothes":"yes","recycling:shoes":"yes","recycling_type":"container"}},"type":"Feature"},
	{"geometry":{"coordinates":[11.382505,48.78235],"type":"Point"},"properties":{"osm_id":"1528577640","tag":{"amenity":"recycling","recycling:glass_bottles":"yes","recycling_type":"container"}},"type":"Feature"},
	{"geometry":{"coordinates":[11.369371,48.805623],"type":"Point"},"properties":{"osm_id":"1609032064","tag":{"amenity":"recycling","location":"overground","recycling:glass_bottles":"yes","recycling_type":"container"}},"type":"Feature"},
	{"geometry":{"coordinates":[11.393089,48.77036],"type":"Point"},"properties":{"osm_id":"1624432827","tag":{"amenity":"recycling","recycling:glass_bottles":"yes","recycling_type":"container"}},"type":"Feature"},
	{"geometry":{"coordinates":[11.405819,48.771244],"type":"Point"},"properties":{"osm_id":"1624432852","tag":{"amenity":"recycling","recycling:clothes":"yes","recycling:glass":"yes","recycling:glass_bottles":"yes"}},"type":"Feature"},
	{"geometry":{"coordinates":[11.390654,48.773765],"type":"Point"},"properties":{"osm_id":"1624432858","tag":{"amenity":"recycling"}},"type":"Feature"},
	{"geometry":{"coordinates":[11.406029,48.779614],"type":"Point"},"properties":{"osm_id":"1916664434","tag":{"amenity":"recycling","recycling:clothes":"yes","recycling_type":"container"}},"type":"Feature"},
	{"geometry":{"coordinates":[11.405499,48.780087],"type":"Point"},"properties":{"osm_id":"1916664438","tag":{"amenity":"recycling","recycling:clothes":"yes","recycling_type":"container"}},"type":"Feature"},
	{"geometry":{"coordinates":[11.37387,48.775432],"type":"Point"},"properties":{"osm_id":"1999002738","tag":{"amenity":"recycling","recycling:clothes":"yes","recycling:glass":"yes","recycling_type":"container"}},"type":"Feature"},
	{"geometry":{"coordinates":[11.4003,48.779347],"type":"Point"},"properties":{"osm_id":"2063522743","tag":{"amenity":"recycling","recycling:clothes":"no","recycling:glass_bottles":"yes","recycling_type":"container"}},"type":"Feature"},
	{"geometry":{"coordinates":[11.422796,48.752306],"type":"Point"},"properties":{"osm_id":"2139162058","tag":{"amenity":"recycling","recycling:clothes":"yes","recycling:glass":"yes","recycling_type":"container"}},"type":"Feature"},
	{"geometry":{"coordinates":[11.383493,48.775118],"type":"Point"},"properties":{"osm_id":"2191397077","tag":{"amenity":"recycling","recycling:clothes":"yes","recycling_type":"container"}},"type":"Feature"},
	{"geometry":{"coordinates":[11.389166,48.767691],"type":"Point"},"properties":{"osm_id":"2229557590","tag":{"amenity":"recycling","recycling:cans":"no","recycling:clothes":"yes","recycling:glass":"yes","recycling:glass_bottles":"yes","recycling:paper":"no","recycling_type":"container"}},"type":"Feature"},
	{"geometry":{"coordinates":[11.385551,48.766008],"type":"Point"},"properties":{"osm_id":"2230159469","tag":{"amenity":"waste_basket"}},"type":"Feature"},
	{"geometry":{"coordinates":[11.388348,48.763478],"type":"Point"},"properties":{"osm_id":"2230159526","tag":{"amenity":"recycling","recycling:batteries":"no","recycling:books":"no","recycling:cans":"no","recycling:cardboard":"no","recycling:cartons":"no","recycling:clothes":"yes","recycling:electrical_appliances":"no","recycling:glass":"no","recycling:glass_bottles":"no","recycling:green_waste":"no","recycling:magazines":"no","recycling:newspaper":"no","recycling:paper":"no","recycling:paper_packaging":"no","recycling:plastic":"no","recycling:plastic_bottles":"no","recycling:plastic_packaging":"no","recycling:scrap_metal":"no","recycling:small_appliances":"no","recycling:waste":"no","recycling:wood":"no","recycling_type":"container"}},"type":"Feature"},
	{"geometry":{"coordinates":[11.38591,48.766665],"type":"Point"},"properties":{"osm_id":"2230159555","tag":{"amenity":"waste_basket"}},"type":"Feature"},
	{"geometry":{"coordinates":[11.385309,48.765995],"type":"Point"},"properties":{"osm_id":"2230159563","tag":{"amenity":"waste_basket"}},"type":"Feature"},
	{"geometry":{"coordinates":[11.385604,48.766294],"type":"Point"},"properties":{"osm_id":"2230159685","tag":{"amenity":"waste_basket"}},"type":"Feature"},
	{"geometry":{"coordinates":[11.419209,48.768268],"type":"Point"},"properties":{"osm_id":"2230504115","tag":{"amenity":"waste_basket"}},"type":"Feature"},
	{"geometry":{"coordinates":[11.404694,48.780067],"type":"Point"},"properties":{"osm_id":"2261358964","tag":{"amenity":"recycling","recycling:clothes":"yes"}},"type":"Feature"},
	{"geometry":{"coordinates":[11.37715,48.803307],"type":"Point"},"properties":{"osm_id":"2337351389","tag":{"amenity":"waste_basket"}},"type":"Feature"},
	{"geometry":{"coordinates":[11.370888,48.805536],"type":"Point"},"properties":{"osm_id":"2337351428","tag":{"amenity":"waste_basket"}},"type":"Feature"},
	{"geometry":{"coordinates":[11.393966,48.764966],"type":"Point"},"properties":{"osm_id":"3075463703","tag":{"amenity":"recycling","recycling:cans":"no","recycling:clothes":"yes","recycling:glass":"yes","recycling:paper":"no","recycling_type":"container"}},"type":"Feature"},
	{"geometry":{"coordinates":[11.398074,48.766348],"type":"Point"},"properties":{"osm_id":"3077417582","tag":{"amenity":"recycling","recycling:cans":"no","recycling:clothes":"yes","recycling:glass":"yes","recycling:paper":"no"}},"type":"Feature"},
	{"geometry":{"coordinates":[11.390246,48.763378],"type":"Point"},"properties":{"osm_id":"3297152102","tag":{"amenity":"recycling","recycling:clothes":"yes","recycling_type":"container"}},"type":"Feature"},
	{"geometry":{"coordinates":[11.37558,48.77124],"type":"Point"},"properties":{"osm_id":"3951496177","tag":{"amenity":"waste_basket"}},"type":"Feature"},
	{"geometry":{"coordinates":[11.377139,48.772803],"type":"Point"},"properties":{"osm_id":"4068390641","tag":{"amenity":"waste_basket"}},"type":"Feature"},
	{"geometry":{"coordinates":[11.37751,48.772826],"type":"Point"},"properties":{"osm_id":"4068390642","tag":{"amenity":"recycling"}},"type":"Feature"},
	{"geometry":{"coordinates":[11.375268,48.804494],"type":"Point"},"properties":{"osm_id":"5079732987","tag":{"amenity":"waste_basket"}},"type":"Feature"},
	{"geometry":{"coordinates":[11.367571,48.804101],"type":"Point"},"properties":{"osm_id":"5408172547","tag":{"amenity":"recycling","opening_hours":"24/7","operator":"SeaTex Ltd. & Co. KG","phone":"+49 700 26553284 (Ortstarif)","recycling:clothes":"yes","recycling:shoes":"yes","recycling_type":"container"}},"type":"Feature"},
	{"geometry":{"coordinates":[11.383631,48.786694],"type":"Point"},"properties":{"osm_id":"5833484755","tag":{"amenity":"waste_basket"}},"type":"Feature"},
	{"geometry":{"coordinates":[11.424375,48.763342],"type":"Point"},"properties":{"osm_id":"6087878464","tag":{"amenity":"waste_basket","waste":"trash"}},"type":"Feature"},
	{"geometry":{"coordinates":[11.424749,48.763246],"type":"Point"},"properties":{"osm_id":"6087878465","tag":{"amenity":"waste_basket","waste":"trash"}},"type":"Feature"},
	{"geometry":{"coordinates":[11.403589,48.758808],"type":"Point"},"properties":{"osm_id":"6273201828","tag":{"amenity":"recycling","recycling:clothes":"yes","recycling_type":"container"}},"type":"Feature"},
	{"geometry":{"coordinates":[11.370046,48.798954],"type":"Point"},"properties":{"osm_id":"6591422528","tag":{"amenity":"waste_basket"}},"type":"Feature"},
	{"geometry":{"coordinates":[11.369469,48.806228],"type":"Point"},"properties":{"osm_id":"6633308903","tag":{"amenity":"recycling","opening_hours":"24/7","operator":"TEXAID Collection GmbH","phone":"+49 800 726254","recycling:clothes":"yes","recycling:shoes":"yes","recycling_type":"container","website":"https://www.texaid.de","wheelchair":"limited","wheelchair:description":"Barierrefrei befahrbar; zu hoch f\u00c3\u00bcr Rollstuhlfahrer"}},"type":"Feature"},
	{"geometry":{"coordinates":[11.364856,48.802033],"type":"Point"},"properties":{"osm_id":"6659256037","tag":{"amenity":"recycling","recycling:cans":"yes","recycling:clothes":"yes","recycling:glass_bottles":"yes","recycling_type":"container","wheelchair":"yes"}},"type":"Feature"},
	{"geometry":{"coordinates":[11.365298,48.801754],"type":"Point"},"properties":{"osm_id":"6677693137","tag":{"amenity":"waste_basket","waste":"trash"}},"type":"Feature"},
	{"geometry":{"coordinates":[11.370488,48.805318],"type":"Point"},"properties":{"osm_id":"6677696442","tag":{"amenity":"waste_basket"}},"type":"Feature"},
	{"geometry":{"coordinates":[11.420435,48.778925],"type":"Point"},"properties":{"name":"Problemm\u00c3\u00bcllsammelstelle","osm_id":"7035702500","tag":{"addr:city":"Ingolstadt","addr:housenumber":"32","addr:street":"Hindemithstra\u00c3\u009fe","amenity":"recycling","opening_hours":"Mo-Th 08:00-17:00; Fr 08:00-13:00 Sa Su PH off","operator":"Stadt Ingolstadt","operator:type":"public","recycling:batteries":"yes","recycling:car_batteries":"yes","recycling:chemicals":"yes","recycling:drugs":"yes","recycling:electrical_appliances":"yes","recycling:engine_oil":"yes","recycling:fluorescent_tubes":"yes","recycling:paint":"yes","recycling_type":"centre"}},"type":"Feature"},
	{"geometry":{"coordinates":[11.423646,48.752816],"type":"Point"},"properties":{"osm_id":"7070501985","tag":{"amenity":"waste_basket"}},"type":"Feature"},
	{"geometry":{"coordinates":[11.423158,48.772524],"type":"Point"},"properties":{"osm_id":"7171170341","tag":{"amenity":"waste_basket","waste":"trash"}},"type":"Feature"},
	{"geometry":{"coordinates":[11.424074,48.772441],"type":"Point"},"properties":{"osm_id":"7171170345","tag":{"amenity":"waste_basket","waste":"trash"}},"type":"Feature"},
	{"geometry":{"coordinates":[11.422071,48.772058],"type":"Point"},"properties":{"osm_id":"7171170350","tag":{"amenity":"waste_basket","waste":"trash"}},"type":"Feature"},
	{"geometry":{"coordinates":[11.425322,48.769239],"type":"Point"},"properties":{"osm_id":"7194716118","tag":{"amenity":"waste_basket","waste":"trash"}},"type":"Feature"},
	{"geometry":{"coordinates":[11.425777,48.766943],"type":"Point"},"properties":{"osm_id":"7196895817","tag":{"amenity":"waste_basket","waste":"trash"}},"type":"Feature"},
	{"geometry":{"coordinates":[11.422289,48.767966],"type":"Point"},"properties":{"osm_id":"7201080554","tag":{"amenity":"waste_basket","waste":"trash"}},"type":"Feature"},
	{"geometry":{"coordinates":[11.425204,48.768372],"type":"Point"},"properties":{"osm_id":"7201080563","tag":{"amenity":"waste_basket","waste":"trash"}},"type":"Feature"},
	{"geometry":{"coordinates":[11.422228,48.768109],"type":"Point"},"properties":{"osm_id":"7201082389","tag":{"amenity":"waste_basket","waste":"trash"}},"type":"Feature"},
	{"geometry":{"coordinates":[11.424987,48.76851],"type":"Point"},"properties":{"osm_id":"7201082397","tag":{"amenity":"waste_basket","waste":"trash"}},"type":"Feature"},
	{"geometry":{"coordinates":[11.42251,48.766914],"type":"Point"},"properties":{"osm_id":"7201167480","tag":{"amenity":"waste_basket","waste":"trash"}},"type":"Feature"},
	{"geometry":{"coordinates":[11.424894,48.767003],"type":"Point"},"properties":{"osm_id":"7201167482","tag":{"amenity":"waste_basket","waste":"trash"}},"type":"Feature"},
	{"geometry":{"coordinates":[11.424791,48.766995],"type":"Point"},"properties":{"osm_id":"7201173394","tag":{"amenity":"waste_basket","waste":"trash"}},"type":"Feature"},
	{"geometry":{"coordinates":[11.42551,48.767029],"type":"Point"},"properties":{"osm_id":"7201173398","tag":{"amenity":"waste_basket","waste":"trash"}},"type":"Feature"},
	{"geometry":{"coordinates":[11.42538,48.76709],"type":"Point"},"properties":{"osm_id":"7201173399","tag":{"amenity":"waste_basket","waste":"trash"}},"type":"Feature"},
	{"geometry":{"coordinates":[11.424959,48.767042],"type":"Point"},"properties":{"osm_id":"7201173404","tag":{"amenity":"waste_basket","waste":"trash"}},"type":"Feature"},
	{"geometry":{"coordinates":[11.42531,48.766914],"type":"Point"},"properties":{"osm_id":"7201173405","tag":{"amenity":"waste_basket","waste":"trash"}},"type":"Feature"},
	{"geometry":{"coordinates":[11.42476,48.767363],"type":"Point"},"properties":{"osm_id":"7201173408","tag":{"amenity":"waste_basket","waste":"trash"}},"type":"Feature"},
	{"geometry":{"coordinates":[11.424901,48.766711],"type":"Point"},"properties":{"osm_id":"7201173416","tag":{"amenity":"waste_basket","waste":"trash"}},"type":"Feature"},
	{"geometry":{"coordinates":[11.424857,48.767369],"type":"Point"},"properties":{"osm_id":"7201173417","tag":{"amenity":"waste_basket","waste":"trash"}},"type":"Feature"},
	{"geometry":{"coordinates":[11.425439,48.76711],"type":"Point"},"properties":{"osm_id":"7201173419","tag":{"amenity":"waste_basket","waste":"trash"}},"type":"Feature"},
	{"geometry":{"coordinates":[11.424958,48.767285],"type":"Point"},"properties":{"osm_id":"7201173423","tag":{"amenity":"waste_basket","waste":"trash"}},"type":"Feature"},
	{"geometry":{"coordinates":[11.424909,48.767222],"type":"Point"},"properties":{"osm_id":"7201173431","tag":{"amenity":"waste_basket","waste":"trash"}},"type":"Feature"},
	{"geometry":{"coordinates":[11.424867,48.76687],"type":"Point"},"properties":{"osm_id":"7201173435","tag":{"amenity":"waste_basket","waste":"trash"}},"type":"Feature"},
	{"geometry":{"coordinates":[11.422178,48.767767],"type":"Point"},"properties":{"osm_id":"7201277346","tag":{"amenity":"waste_basket","waste":"trash"}},"type":"Feature"},
	{"geometry":{"coordinates":[11.42469,48.767811],"type":"Point"},"properties":{"osm_id":"7201277349","tag":{"amenity":"waste_basket","waste":"trash"}},"type":"Feature"},
	{"geometry":{"coordinates":[11.424647,48.767752],"type":"Point"},"properties":{"osm_id":"7201277351","tag":{"amenity":"waste_basket","waste":"trash"}},"type":"Feature"},
	{"geometry":{"coordinates":[11.425075,48.767766],"type":"Point"},"properties":{"osm_id":"7201277356","tag":{"amenity":"waste_basket","waste":"trash"}},"type":"Feature"},
	{"geometry":{"coordinates":[11.424983,48.767761],"type":"Point"},"properties":{"osm_id":"7201277362","tag":{"amenity":"waste_basket","waste":"trash"}},"type":"Feature"},
	{"geometry":{"coordinates":[11.424883,48.767757],"type":"Point"},"properties":{"osm_id":"7201277363","tag":{"amenity":"waste_basket","waste":"trash"}},"type":"Feature"},
	{"geometry":{"coordinates":[11.424824,48.767823],"type":"Point"},"properties":{"osm_id":"7201277367","tag":{"amenity":"waste_basket","waste":"trash"}},"type":"Feature"},
	{"geometry":{"coordinates":[11.425188,48.767772],"type":"Point"},"properties":{"osm_id":"7201277378","tag":{"amenity":"waste_basket","waste":"trash"}},"type":"Feature"},
	{"geometry":{"coordinates":[11.422206,48.767673],"type":"Point"},"properties":{"osm_id":"7201277379","tag":{"amenity":"waste_basket","waste":"trash"}},"type":"Feature"},
	{"geometry":{"coordinates":[11.42237,48.767612],"type":"Point"},"properties":{"highway":"street_lamp","osm_id":"7201297285","ref":"08832","tag":{"amenity":"waste_basket","lamp_mount":"bent_mast","lamp_type":"led","light:lit":"dusk-dawn","light:mount":"1","waste":"trash"}},"type":"Feature"},
	{"geometry":{"coordinates":[11.424204,48.76425],"type":"Point"},"properties":{"osm_id":"7205438036","tag":{"amenity":"waste_basket","waste":"trash"}},"type":"Feature"},
	{"geometry":{"coordinates":[11.423271,48.765656],"type":"Point"},"properties":{"osm_id":"7205438052","tag":{"amenity":"waste_basket","waste":"trash"}},"type":"Feature"},
	{"geometry":{"coordinates":[11.424333,48.76397],"type":"Point"},"properties":{"osm_id":"7205438055","tag":{"amenity":"waste_basket","waste":"trash"}},"type":"Feature"},
	{"geometry":{"coordinates":[11.421823,48.768337],"type":"Point"},"properties":{"osm_id":"7205438061","tag":{"amenity":"waste_basket","waste":"trash"}},"type":"Feature"},
	{"geometry":{"coordinates":[11.422733,48.766476],"type":"Point"},"properties":{"osm_id":"7205438063","tag":{"amenity":"waste_basket","waste":"trash"}},"type":"Feature"},
	{"geometry":{"coordinates":[11.420464,48.770359],"type":"Point"},"properties":{"osm_id":"7205438066","tag":{"amenity":"waste_basket","waste":"trash"}},"type":"Feature"},
	{"geometry":{"coordinates":[11.423073,48.765958],"type":"Point"},"properties":{"osm_id":"7205438067","tag":{"amenity":"waste_basket","waste":"trash"}},"type":"Feature"},
	{"geometry":{"coordinates":[11.42545,48.762618],"type":"Point"},"properties":{"osm_id":"7205472836","tag":{"amenity":"waste_basket","waste":"trash"}},"type":"Feature"},
	{"geometry":{"coordinates":[11.425255,48.763044],"type":"Point"},"properties":{"osm_id":"7205472837","tag":{"amenity":"waste_basket","waste":"trash"}},"type":"Feature"},
	{"geometry":{"coordinates":[11.425177,48.763131],"type":"Point"},"properties":{"osm_id":"7205472838","tag":{"amenity":"waste_basket","waste":"trash"}},"type":"Feature"},
	{"geometry":{"coordinates":[11.425761,48.762878],"type":"Point"},"properties":{"osm_id":"7205472855","tag":{"amenity":"waste_basket","waste":"trash"}},"type":"Feature"},
	{"geometry":{"coordinates":[11.425615,48.762769],"type":"Point"},"properties":{"osm_id":"7205472859","tag":{"amenity":"waste_basket","waste":"trash"}},"type":"Feature"},
	{"geometry":{"coordinates":[11.425552,48.762665],"type":"Point"},"properties":{"osm_id":"7205472861","tag":{"amenity":"waste_basket","waste":"trash"}},"type":"Feature"},
	{"geometry":{"coordinates":[11.425076,48.762975],"type":"Point"},"properties":{"osm_id":"7205472862","tag":{"amenity":"waste_basket","waste":"trash"}},"type":"Feature"},
	{"geometry":{"coordinates":[11.422945,48.771569],"type":"Point"},"properties":{"osm_id":"7205570520","tag":{"amenity":"waste_basket","waste":"trash"}},"type":"Feature"},
	{"geometry":{"coordinates":[11.423459,48.77158],"type":"Point"},"properties":{"osm_id":"7205570521","tag":{"amenity":"waste_basket","waste":"trash"}},"type":"Feature"},
	{"geometry":{"coordinates":[11.423974,48.7649],"type":"Point"},"properties":{"osm_id":"7205571642","tag":{"amenity":"waste_basket","waste":"trash"}},"type":"Feature"},
	{"geometry":{"coordinates":[11.424669,48.764112],"type":"Point"},"properties":{"osm_id":"7205571644","tag":{"amenity":"waste_basket","waste":"trash"}},"type":"Feature"},
	{"geometry":{"coordinates":[11.42457,48.764101],"type":"Point"},"properties":{"osm_id":"7205571653","tag":{"amenity":"waste_basket","waste":"trash"}},"type":"Feature"},
	{"geometry":{"coordinates":[11.424487,48.763619],"type":"Point"},"properties":{"osm_id":"7205571654","tag":{"amenity":"waste_basket","waste":"trash"}},"type":"Feature"},
	{"geometry":{"coordinates":[11.424132,48.764759],"type":"Point"},"properties":{"osm_id":"7205571661","tag":{"amenity":"waste_basket","waste":"trash"}},"type":"Feature"},
	{"geometry":{"coordinates":[11.42555,48.763242],"type":"Point"},"properties":{"osm_id":"7205571666","tag":{"amenity":"waste_basket","waste":"trash"}},"type":"Feature"},
	{"geometry":{"coordinates":[11.424949,48.763092],"type":"Point"},"properties":{"osm_id":"7205571672","tag":{"amenity":"waste_basket","waste":"trash"}},"type":"Feature"},
	{"geometry":{"coordinates":[11.424527,48.763989],"type":"Point"},"properties":{"osm_id":"7205571680","tag":{"amenity":"waste_basket","waste":"trash"}},"type":"Feature"},
	{"geometry":{"coordinates":[11.373526,48.797943],"type":"Point"},"properties":{"osm_id":"7216478923","tag":{"amenity":"recycling","recycling:glass_bottles":"yes","recycling_type":"container"}},"type":"Feature"},
	{"geometry":{"coordinates":[11.424672,48.775204],"type":"Point"},"properties":{"osm_id":"7216713133","tag":{"amenity":"waste_basket","waste":"trash"}},"type":"Feature"},
	{"geometry":{"coordinates":[11.423448,48.765197],"type":"Point"},"properties":{"osm_id":"7216823987","tag":{"amenity":"waste_basket","waste":"trash"}},"type":"Feature"},
	{"geometry":{"coordinates":[11.42322,48.766052],"type":"Point"},"properties":{"osm_id":"7216823992","tag":{"amenity":"waste_basket","waste":"trash"}},"type":"Feature"},
	{"geometry":{"coordinates":[11.422626,48.766924],"type":"Point"},"properties":{"osm_id":"7216823993","tag":{"amenity":"waste_basket","waste":"trash"}},"type":"Feature"},
	{"geometry":{"coordinates":[11.423424,48.765796],"type":"Point"},"properties":{"osm_id":"7216824003","tag":{"amenity":"waste_basket","waste":"trash"}},"type":"Feature"},
	{"geometry":{"coordinates":[11.425065,48.765555],"type":"Point"},"properties":{"osm_id":"7216876302","tag":{"amenity":"waste_basket","waste":"trash"}},"type":"Feature"},
	{"geometry":{"coordinates":[11.424825,48.765477],"type":"Point"},"properties":{"osm_id":"7216876305","tag":{"amenity":"waste_basket","waste":"trash"}},"type":"Feature"},
	{"geometry":{"coordinates":[11.424458,48.765448],"type":"Point"},"properties":{"osm_id":"7216876313","tag":{"amenity":"waste_basket","waste":"trash"}},"type":"Feature"},
	{"geometry":{"coordinates":[11.424953,48.765487],"type":"Point"},"properties":{"osm_id":"7216876315","tag":{"amenity":"waste_basket","waste":"trash"}},"type":"Feature"},
	{"geometry":{"coordinates":[11.423824,48.765246],"type":"Point"},"properties":{"osm_id":"7216876320","tag":{"amenity":"waste_basket","waste":"trash"}},"type":"Feature"},
	{"geometry":{"coordinates":[11.424623,48.76546],"type":"Point"},"properties":{"osm_id":"7216876327","tag":{"amenity":"waste_basket","waste":"trash"}},"type":"Feature"},
	{"geometry":{"coordinates":[11.425631,48.765525],"type":"Point"},"properties":{"osm_id":"7216876339","tag":{"amenity":"waste_basket","waste":"trash"}},"type":"Feature"},
	{"geometry":{"coordinates":[11.425318,48.765511],"type":"Point"},"properties":{"osm_id":"7216876340","tag":{"amenity":"waste_basket","waste":"trash"}},"type":"Feature"},
	{"geometry":{"coordinates":[11.425454,48.765518],"type":"Point"},"properties":{"osm_id":"7216876341","tag":{"amenity":"waste_basket","waste":"trash"}},"type":"Feature"},
	{"geometry":{"coordinates":[11.4241,48.76553],"type":"Point"},"properties":{"osm_id":"7216876343","tag":{"amenity":"waste_basket","waste":"trash"}},"type":"Feature"},
	{"geometry":{"coordinates":[11.425044,48.765378],"type":"Point"},"properties":{"osm_id":"7216876476","tag":{"amenity":"waste_basket","waste":"trash"}},"type":"Feature"},
	{"geometry":{"coordinates":[11.422294,48.76811],"type":"Point"},"properties":{"osm_id":"7216876481","tag":{"amenity":"waste_basket","waste":"trash"}},"type":"Feature"},
	{"geometry":{"coordinates":[11.425678,48.765859],"type":"Point"},"properties":{"osm_id":"7226707264","tag":{"amenity":"waste_basket","waste":"trash"}},"type":"Feature"},
	{"geometry":{"coordinates":[11.424532,48.764856],"type":"Point"},"properties":{"osm_id":"7226835768","tag":{"amenity":"waste_basket","waste":"trash"}},"type":"Feature"},
	{"geometry":{"coordinates":[11.425189,48.766748],"type":"Point"},"properties":{"osm_id":"7236282057","tag":{"amenity":"waste_basket","waste":"trash"}},"type":"Feature"},
	{"geometry":{"coordinates":[11.425363,48.766594],"type":"Point"},"properties":{"osm_id":"7236282078","tag":{"amenity":"waste_basket","waste":"trash"}},"type":"Feature"},
	{"geometry":{"coordinates":[11.425392,48.766646],"type":"Point"},"properties":{"osm_id":"7236300288","tag":{"amenity":"waste_basket","waste":"trash"}},"type":"Feature"},
	{"geometry":{"coordinates":[11.425344,48.766397],"type":"Point"},"properties":{"osm_id":"7236300294","tag":{"amenity":"waste_basket","waste":"trash"}},"type":"Feature"},
	{"geometry":{"coordinates":[11.425312,48.766099],"type":"Point"},"properties":{"osm_id":"7236300298","tag":{"amenity":"waste_basket","waste":"trash"}},"type":"Feature"},
	{"geometry":{"coordinates":[11.423829,48.76652],"type":"Point"},"properties":{"osm_id":"7236300328","tag":{"amenity":"waste_basket","waste":"trash"}},"type":"Feature"},
	{"geometry":{"coordinates":[11.425175,48.765909],"type":"Point"},"properties":{"osm_id":"7236300342","tag":{"amenity":"waste_basket","waste":"trash"}},"type":"Feature"},
	{"geometry":{"coordinates":[11.425179,48.763722],"type":"Point"},"properties":{"osm_id":"7252363964","tag":{"amenity":"waste_basket","waste":"trash"}},"type":"Feature"},
	{"geometry":{"coordinates":[11.425174,48.763246],"type":"Point"},"properties":{"osm_id":"7252363981","tag":{"amenity":"waste_basket","waste":"trash"}},"type":"Feature"},
	{"geometry":{"coordinates":[11.424831,48.767641],"type":"Point"},"properties":{"osm_id":"7278935879","tag":{"amenity":"waste_basket","waste":"trash"}},"type":"Feature"},
	{"geometry":{"coordinates":[11.424723,48.767631],"type":"Point"},"properties":{"osm_id":"7278956287","tag":{"amenity":"waste_basket","waste":"trash"}},"type":"Feature"},
	{"geometry":{"coordinates":[11.424488,48.767743],"type":"Point"},"properties":{"osm_id":"7278956288","tag":{"amenity":"waste_basket","waste":"trash"}},"type":"Feature"},
	{"geometry":{"coordinates":[11.424434,48.767741],"type":"Point"},"properties":{"osm_id":"7278956290","tag":{"amenity":"waste_basket","waste":"trash"}},"type":"Feature"},
	{"geometry":{"coordinates":[11.425277,48.764205],"type":"Point"},"properties":{"osm_id":"7279010518","tag":{"amenity":"waste_basket","waste":"trash"}},"type":"Feature"},
	{"geometry":{"coordinates":[11.425245,48.762316],"type":"Point"},"properties":{"osm_id":"7284092150","tag":{"amenity":"waste_basket","waste":"trash"}},"type":"Feature"},
	{"geometry":{"coordinates":[11.425386,48.76253],"type":"Point"},"properties":{"osm_id":"7284092154","tag":{"amenity":"waste_basket","waste":"trash"}},"type":"Feature"},
	{"geometry":{"coordinates":[11.425229,48.762061],"type":"Point"},"properties":{"osm_id":"7284134525","tag":{"amenity":"waste_basket","waste":"trash"}},"type":"Feature"},
	{"geometry":{"coordinates":[11.42549,48.762033],"type":"Point"},"properties":{"osm_id":"7284134533","tag":{"amenity":"waste_basket","waste":"trash"}},"type":"Feature"},
	{"geometry":{"coordinates":[11.424766,48.762372],"type":"Point"},"properties":{"osm_id":"7305256253","tag":{"amenity":"waste_basket","waste":"trash"}},"type":"Feature"},
	{"geometry":{"coordinates":[11.424339,48.762731],"type":"Point"},"properties":{"man_made":"street_cabinet","osm_id":"7305256254","tag":{"amenity":"waste_basket","operator":"Deutsche Telekom AG","street_cabinet":"telecom","telecom":"service_device"}},"type":"Feature"},
	{"geometry":{"coordinates":[11.424508,48.762759],"type":"Point"},"properties":{"osm_id":"7305256262","tag":{"amenity":"waste_basket","waste":"trash"}},"type":"Feature"},
	{"geometry":{"coordinates":[11.424293,48.762182],"type":"Point"},"properties":{"man_made":"street_cabinet","osm_id":"7305256266","tag":{"amenity":"waste_basket","operator":"Deutsche Telekom AG","street_cabinet":"telecom","telecom":"service_device"}},"type":"Feature"},
	{"geometry":{"coordinates":[11.424399,48.762344],"type":"Point"},"properties":{"man_made":"street_cabinet","osm_id":"7305256268","tag":{"amenity":"waste_basket","operator":"Deutsche Telekom AG","street_cabinet":"telecom","telecom":"connection_point"}},"type":"Feature"},
	{"geometry":{"coordinates":[11.424363,48.76219],"type":"Point"},"properties":{"osm_id":"7305256284","tag":{"amenity":"waste_basket","waste":"trash"}},"type":"Feature"},
	{"geometry":{"coordinates":[11.424408,48.762729],"type":"Point"},"properties":{"man_made":"street_cabinet","osm_id":"7305265286","tag":{"amenity":"waste_basket","operator":"Deutsche Telekom AG","street_cabinet":"telecom","telecom":"connection_point"}},"type":"Feature"},
	{"geometry":{"coordinates":[11.424699,48.762315],"type":"Point"},"properties":{"osm_id":"7305265301","tag":{"amenity":"waste_basket","waste":"trash"}},"type":"Feature"},
	{"geometry":{"coordinates":[11.424102,48.761611],"type":"Point"},"properties":{"man_made":"street_cabinet","osm_id":"7308459349","tag":{"amenity":"waste_basket","operator":"Deutsche Telekom AG","street_cabinet":"telecom","telecom":"service_device"}},"type":"Feature"},
	{"geometry":{"coordinates":[11.424171,48.761467],"type":"Point"},"properties":{"osm_id":"7308459351","tag":{"amenity":"waste_basket","waste":"trash"}},"type":"Feature"},
	{"geometry":{"coordinates":[11.424104,48.761537],"type":"Point"},"properties":{"osm_id":"7308459384","tag":{"amenity":"waste_basket","waste":"trash"}},"type":"Feature"},
	{"geometry":{"coordinates":[11.424635,48.760879],"type":"Point"},"properties":{"osm_id":"7308461798","tag":{"amenity":"waste_basket","waste":"trash"}},"type":"Feature"},
	{"geometry":{"coordinates":[11.423939,48.760357],"type":"Point"},"properties":{"man_made":"street_cabinet","osm_id":"7308461806","tag":{"amenity":"waste_basket","operator":"Deutsche Telekom AG","street_cabinet":"telecom","telecom":"service_device"}},"type":"Feature"},
	{"geometry":{"coordinates":[11.42401,48.761576],"type":"Point"},"properties":{"man_made":"street_cabinet","osm_id":"7308461809","tag":{"amenity":"waste_basket","operator":"Deutsche Telekom AG","street_cabinet":"telecom","telecom":"connection_point"}},"type":"Feature"},
	{"geometry":{"coordinates":[11.424261,48.761676],"type":"Point"},"properties":{"man_made":"street_cabinet","osm_id":"7308461814","tag":{"amenity":"waste_basket","operator":"Deutsche Telekom AG","street_cabinet":"telecom","telecom":"connection_point"}},"type":"Feature"},
	{"geometry":{"coordinates":[11.421919,48.759611],"type":"Point"},"properties":{"osm_id":"7309325613","tag":{"amenity":"waste_basket","waste":"trash"}},"type":"Feature"},
	{"geometry":{"coordinates":[11.422601,48.759884],"type":"Point"},"properties":{"osm_id":"7309325625","tag":{"amenity":"waste_basket","waste":"trash"}},"type":"Feature"},
	{"geometry":{"coordinates":[11.421764,48.759582],"type":"Point"},"properties":{"osm_id":"7309325649","tag":{"amenity":"waste_basket","waste":"trash"}},"type":"Feature"},
	{"geometry":{"coordinates":[11.423235,48.759592],"type":"Point"},"properties":{"osm_id":"7309325656","tag":{"amenity":"waste_basket","waste":"trash"}},"type":"Feature"},
	{"geometry":{"coordinates":[11.421341,48.760147],"type":"Point"},"properties":{"osm_id":"7309325661","tag":{"amenity":"waste_basket","waste":"trash"}},"type":"Feature"},
	{"geometry":{"coordinates":[11.422702,48.759948],"type":"Point"},"properties":{"osm_id":"7309325665","tag":{"amenity":"waste_basket","waste":"trash"}},"type":"Feature"},
	{"geometry":{"coordinates":[11.422235,48.760312],"type":"Point"},"properties":{"osm_id":"7309325667","tag":{"amenity":"waste_basket","waste":"trash"}},"type":"Feature"},
	{"geometry":{"coordinates":[11.421812,48.760567],"type":"Point"},"properties":{"osm_id":"7309325668","tag":{"amenity":"waste_basket","waste":"trash"}},"type":"Feature"},
	{"geometry":{"coordinates":[11.422993,48.762705],"type":"Point"},"properties":{"osm_id":"7311423149","tag":{"amenity":"waste_basket","waste":"trash"}},"type":"Feature"},
	{"geometry":{"coordinates":[11.423314,48.761947],"type":"Point"},"properties":{"osm_id":"7311423165","tag":{"amenity":"waste_basket","waste":"trash"}},"type":"Feature"},
	{"geometry":{"coordinates":[11.422735,48.761185],"type":"Point"},"properties":{"man_made":"street_cabinet","osm_id":"7311423168","tag":{"amenity":"waste_basket","operator":"Deutsche Telekom AG","street_cabinet":"telecom","telecom":"connection_point"}},"type":"Feature"},
	{"geometry":{"coordinates":[11.423622,48.761635],"type":"Point"},"properties":{"osm_id":"7311432704","tag":{"amenity":"waste_basket","waste":"trash"}},"type":"Feature"},
	{"geometry":{"coordinates":[11.419845,48.761402],"type":"Point"},"properties":{"osm_id":"7312839170","tag":{"amenity":"waste_basket","waste":"trash"}},"type":"Feature"},
	{"geometry":{"coordinates":[11.420119,48.76069],"type":"Point"},"properties":{"osm_id":"7312839172","tag":{"amenity":"waste_basket","waste":"trash"}},"type":"Feature"},
	{"geometry":{"coordinates":[11.42058,48.760323],"type":"Point"},"properties":{"osm_id":"7312839173","tag":{"amenity":"waste_basket","waste":"trash"}},"type":"Feature"},
	{"geometry":{"coordinates":[11.419663,48.760903],"type":"Point"},"properties":{"osm_id":"7312839179","tag":{"amenity":"waste_basket","waste":"trash"}},"type":"Feature"},
	{"geometry":{"coordinates":[11.420939,48.760325],"type":"Point"},"properties":{"osm_id":"7312916991","tag":{"amenity":"waste_basket","waste":"trash"}},"type":"Feature"},
	{"geometry":{"coordinates":[11.42151,48.760617],"type":"Point"},"properties":{"osm_id":"7312916997","tag":{"amenity":"waste_basket","waste":"trash"}},"type":"Feature"},
	{"geometry":{"coordinates":[11.421319,48.760807],"type":"Point"},"properties":{"osm_id":"7312916999","tag":{"amenity":"waste_basket","waste":"trash"}},"type":"Feature"},
	{"geometry":{"coordinates":[11.419365,48.761053],"type":"Point"},"properties":{"osm_id":"7312917012","tag":{"amenity":"waste_basket","waste":"trash"}},"type":"Feature"},
	{"geometry":{"coordinates":[11.420539,48.76005],"type":"Point"},"properties":{"osm_id":"7312917014","tag":{"amenity":"waste_basket","waste":"trash"}},"type":"Feature"},
	{"geometry":{"coordinates":[11.420534,48.760516],"type":"Point"},"properties":{"osm_id":"7312917032","tag":{"amenity":"waste_basket","waste":"trash"}},"type":"Feature"},
	{"geometry":{"coordinates":[11.420271,48.761191],"type":"Point"},"properties":{"osm_id":"7312917036","tag":{"amenity":"waste_basket","waste":"trash"}},"type":"Feature"},
	{"geometry":{"coordinates":[11.420702,48.761002],"type":"Point"},"properties":{"osm_id":"7312917037","tag":{"amenity":"waste_basket","waste":"trash"}},"type":"Feature"},
	{"geometry":{"coordinates":[11.420368,48.760322],"type":"Point"},"properties":{"osm_id":"7312917048","tag":{"amenity":"waste_disposal","description":"caravan sink disposal device"}},"type":"Feature"},
	{"geometry":{"coordinates":[11.418908,48.761883],"type":"Point"},"properties":{"osm_id":"7314296716","tag":{"amenity":"waste_basket","waste":"trash"}},"type":"Feature"},
	{"geometry":{"coordinates":[11.419395,48.761745],"type":"Point"},"properties":{"osm_id":"7314296730","tag":{"amenity":"waste_basket","waste":"trash"}},"type":"Feature"},
	{"geometry":{"coordinates":[11.418617,48.761409],"type":"Point"},"properties":{"osm_id":"7314296735","tag":{"amenity":"waste_basket","waste":"trash"}},"type":"Feature"},
	{"geometry":{"coordinates":[11.419994,48.760011],"type":"Point"},"properties":{"osm_id":"7314296751","tag":{"amenity":"waste_basket","waste":"trash"}},"type":"Feature"},
	{"geometry":{"coordinates":[11.418269,48.761358],"type":"Point"},"properties":{"osm_id":"7314296755","tag":{"amenity":"waste_basket","waste":"trash"}},"type":"Feature"},
	{"geometry":{"coordinates":[11.419639,48.760187],"type":"Point"},"properties":{"osm_id":"7314296757","tag":{"amenity":"waste_basket","waste":"trash"}},"type":"Feature"},
	{"geometry":{"coordinates":[11.418605,48.761132],"type":"Point"},"properties":{"osm_id":"7314296759","tag":{"amenity":"waste_basket","waste":"trash"}},"type":"Feature"},
	{"geometry":{"coordinates":[11.419547,48.761538],"type":"Point"},"properties":{"osm_id":"7314296762","tag":{"amenity":"waste_basket","waste":"trash"}},"type":"Feature"},
	{"geometry":{"coordinates":[11.419049,48.760958],"type":"Point"},"properties":{"osm_id":"7314296764","tag":{"amenity":"waste_basket","waste":"trash"}},"type":"Feature"},
	{"geometry":{"coordinates":[11.42017,48.760518],"type":"Point"},"properties":{"osm_id":"7314296766","tag":{"amenity":"waste_basket","waste":"trash"}},"type":"Feature"},
	{"geometry":{"coordinates":[11.41949,48.760323],"type":"Point"},"properties":{"osm_id":"7314296767","tag":{"amenity":"waste_basket","waste":"trash"}},"type":"Feature"},
	{"geometry":{"coordinates":[11.417073,48.764147],"type":"Point"},"properties":{"osm_id":"7314296774","tag":{"amenity":"waste_basket","waste":"trash"}},"type":"Feature"},
	{"geometry":{"coordinates":[11.418972,48.761232],"type":"Point"},"properties":{"osm_id":"7314296777","tag":{"amenity":"waste_basket","waste":"trash"}},"type":"Feature"},
	{"geometry":{"coordinates":[11.41842,48.761549],"type":"Point"},"properties":{"osm_id":"7314296780","tag":{"amenity":"waste_basket","waste":"trash"}},"type":"Feature"},
	{"geometry":{"coordinates":[11.416878,48.765658],"type":"Point"},"properties":{"osm_id":"7314339374","tag":{"amenity":"waste_basket","waste":"trash"}},"type":"Feature"},
	{"geometry":{"coordinates":[11.417937,48.768062],"type":"Point"},"properties":{"osm_id":"7314340790","tag":{"amenity":"waste_basket","waste":"trash"}},"type":"Feature"},
	{"geometry":{"coordinates":[11.416854,48.76695],"type":"Point"},"properties":{"osm_id":"7314340799","tag":{"amenity":"waste_basket","waste":"trash"}},"type":"Feature"},
	{"geometry":{"coordinates":[11.417778,48.76417],"type":"Point"},"properties":{"osm_id":"7314340819","tag":{"amenity":"waste_basket","waste":"trash"}},"type":"Feature"},
	{"geometry":{"coordinates":[11.416634,48.764574],"type":"Point"},"properties":{"osm_id":"7314340824","tag":{"amenity":"waste_basket","waste":"trash"}},"type":"Feature"},
	{"geometry":{"coordinates":[11.418479,48.768374],"type":"Point"},"properties":{"osm_id":"7314340826","tag":{"amenity":"waste_basket","waste":"trash"}},"type":"Feature"},
	{"geometry":{"coordinates":[11.418071,48.761302],"type":"Point"},"properties":{"osm_id":"7314397789","tag":{"amenity":"waste_basket","waste":"trash"}},"type":"Feature"},
	{"geometry":{"coordinates":[11.418725,48.761083],"type":"Point"},"properties":{"osm_id":"7314397796","tag":{"amenity":"waste_basket","waste":"trash"}},"type":"Feature"},
	{"geometry":{"coordinates":[11.422651,48.760204],"type":"Point"},"properties":{"osm_id":"7314473339","tag":{"amenity":"waste_basket","waste":"trash"}},"type":"Feature"},
	{"geometry":{"coordinates":[11.421638,48.762386],"type":"Point"},"properties":{"man_made":"street_cabinet","osm_id":"7314473352","tag":{"amenity":"waste_basket","operator":"Deutsche Telekom AG","street_cabinet":"telecom","telecom":"service_device"}},"type":"Feature"},
	{"geometry":{"coordinates":[11.421634,48.762672],"type":"Point"},"properties":{"osm_id":"7314473360","tag":{"amenity":"waste_basket","waste":"trash"}},"type":"Feature"},
	{"geometry":{"coordinates":[11.422065,48.76267],"type":"Point"},"properties":{"osm_id":"7314473362","tag":{"amenity":"waste_basket","waste":"trash"}},"type":"Feature"},
	{"geometry":{"coordinates":[11.42157,48.762356],"type":"Point"},"properties":{"man_made":"street_cabinet","osm_id":"7314473368","tag":{"amenity":"waste_basket","operator":"Deutsche Telekom AG","street_cabinet":"telecom","telecom":"connection_point"}},"type":"Feature"},
	{"geometry":{"coordinates":[11.419726,48.76175],"type":"Point"},"properties":{"osm_id":"7314473382","tag":{"amenity":"waste_basket","waste":"trash"}},"type":"Feature"},
	{"geometry":{"coordinates":[11.422146,48.761772],"type":"Point"},"properties":{"osm_id":"7314478989","tag":{"amenity":"waste_basket","waste":"trash"}},"type":"Feature"},
	{"geometry":{"coordinates":[11.4201,48.76165],"type":"Point"},"properties":{"osm_id":"7314478999","tag":{"amenity":"waste_basket","waste":"trash"}},"type":"Feature"},
	{"geometry":{"coordinates":[11.422333,48.76184],"type":"Point"},"properties":{"man_made":"street_cabinet","osm_id":"7314479024","tag":{"amenity":"waste_basket","operator":"Deutsche Telekom AG","street_cabinet":"telecom","telecom":"connection_point"}},"type":"Feature"},
	{"geometry":{"coordinates":[11.422746,48.76319],"type":"Point"},"properties":{"man_made":"street_cabinet","osm_id":"7319642695","tag":{"amenity":"waste_basket","operator":"Deutsche Telekom AG","street_cabinet":"telecom","telecom":"connection_point"}},"type":"Feature"},
	{"geometry":{"coordinates":[11.421395,48.762966],"type":"Point"},"properties":{"osm_id":"7319642702","tag":{"amenity":"waste_basket","waste":"trash"}},"type":"Feature"},
	{"geometry":{"coordinates":[11.421381,48.76324],"type":"Point"},"properties":{"osm_id":"7319642705","tag":{"amenity":"waste_basket","waste":"trash"}},"type":"Feature"},
	{"geometry":{"coordinates":[11.42279,48.763281],"type":"Point"},"properties":{"osm_id":"7319642733","tag":{"amenity":"waste_basket","waste":"trash"}},"type":"Feature"},
	{"geometry":{"coordinates":[11.418455,48.762312],"type":"Point"},"properties":{"osm_id":"7342456085","tag":{"amenity":"waste_basket","waste":"trash"}},"type":"Feature"},
	{"geometry":{"coordinates":[11.418512,48.762084],"type":"Point"},"properties":{"osm_id":"7342456086","tag":{"amenity":"waste_basket","waste":"trash"}},"type":"Feature"},
	{"geometry":{"coordinates":[11.419456,48.762368],"type":"Point"},"properties":{"osm_id":"7342456089","tag":{"amenity":"waste_basket","waste":"trash"}},"type":"Feature"},
	{"geometry":{"coordinates":[11.421244,48.762432],"type":"Point"},"properties":{"osm_id":"7342456103","tag":{"amenity":"waste_basket","waste":"trash"}},"type":"Feature"},
	{"geometry":{"coordinates":[11.419115,48.76242],"type":"Point"},"properties":{"osm_id":"7342456112","tag":{"amenity":"waste_basket","waste":"trash"}},"type":"Feature"},
	{"geometry":{"coordinates":[11.418629,48.762688],"type":"Point"},"properties":{"man_made":"street_cabinet","osm_id":"7342456126","tag":{"amenity":"waste_basket","operator":"Deutsche Telekom AG","street_cabinet":"telecom","telecom":"connection_point"}},"type":"Feature"},
	{"geometry":{"coordinates":[11.418988,48.763926],"type":"Point"},"properties":{"man_made":"street_cabinet","osm_id":"7342456128","tag":{"amenity":"waste_basket","operator":"Deutsche Telekom AG","street_cabinet":"telecom","telecom":"service_device"}},"type":"Feature"},
	{"geometry":{"coordinates":[11.418773,48.762626],"type":"Point"},"properties":{"osm_id":"7342456143","tag":{"amenity":"waste_basket","waste":"trash"}},"type":"Feature"},
	{"geometry":{"coordinates":[11.418473,48.762009],"type":"Point"},"properties":{"osm_id":"7342456150","tag":{"amenity":"waste_basket","waste":"trash"}},"type":"Feature"},
	{"geometry":{"coordinates":[11.420369,48.761834],"type":"Point"},"properties":{"osm_id":"7342456156","tag":{"amenity":"waste_basket","waste":"trash"}},"type":"Feature"},
	{"geometry":{"coordinates":[11.419628,48.76342],"type":"Point"},"properties":{"man_made":"street_cabinet","osm_id":"7342456164","tag":{"amenity":"waste_basket","operator":"Deutsche Telekom AG","street_cabinet":"telecom","telecom":"service_device"}},"type":"Feature"},
	{"geometry":{"coordinates":[11.418515,48.762189],"type":"Point"},"properties":{"osm_id":"7342456175","tag":{"amenity":"waste_basket","waste":"trash"}},"type":"Feature"},
	{"geometry":{"coordinates":[11.419449,48.763279],"type":"Point"},"properties":{"man_made":"street_cabinet","osm_id":"7342456178","tag":{"amenity":"waste_basket","operator":"Deutsche Telekom AG","street_cabinet":"telecom","telecom":"connection_point"}},"type":"Feature"},
	{"geometry":{"coordinates":[11.423219,48.764115],"type":"Point"},"properties":{"osm_id":"7345292424","tag":{"amenity":"waste_basket","waste":"trash"}},"type":"Feature"},
	{"geometry":{"coordinates":[11.422391,48.764009],"type":"Point"},"properties":{"osm_id":"7345292425","tag":{"amenity":"waste_basket","waste":"trash"}},"type":"Feature"},
	{"geometry":{"coordinates":[11.422896,48.764071],"type":"Point"},"properties":{"osm_id":"7345292446","tag":{"amenity":"waste_basket","waste":"trash"}},"type":"Feature"},
	{"geometry":{"coordinates":[11.423646,48.764177],"type":"Point"},"properties":{"osm_id":"7345292457","tag":{"amenity":"waste_basket","waste":"trash"}},"type":"Feature"},
	{"geometry":{"coordinates":[11.418172,48.765539],"type":"Point"},"properties":{"osm_id":"7347014884","tag":{"amenity":"waste_basket","waste":"trash"}},"type":"Feature"},
	{"geometry":{"coordinates":[11.41998,48.765728],"type":"Point"},"properties":{"osm_id":"7347032785","tag":{"amenity":"waste_basket","waste":"trash"}},"type":"Feature"},
	{"geometry":{"coordinates":[11.417493,48.765881],"type":"Point"},"properties":{"osm_id":"7347032787","tag":{"amenity":"waste_basket","waste":"trash"}},"type":"Feature"},
	{"geometry":{"coordinates":[11.420546,48.76577],"type":"Point"},"properties":{"osm_id":"7347032790","tag":{"amenity":"waste_basket","waste":"trash"}},"type":"Feature"},
	{"geometry":{"coordinates":[11.418324,48.765138],"type":"Point"},"properties":{"osm_id":"7347032793","tag":{"amenity":"waste_basket","waste":"trash"}},"type":"Feature"},
	{"geometry":{"coordinates":[11.418198,48.765599],"type":"Point"},"properties":{"osm_id":"7347032800","tag":{"amenity":"waste_basket","waste":"trash"}},"type":"Feature"},
	{"geometry":{"coordinates":[11.419182,48.764446],"type":"Point"},"properties":{"osm_id":"7347032803","tag":{"amenity":"waste_basket","waste":"trash"}},"type":"Feature"},
	{"geometry":{"coordinates":[11.418133,48.764974],"type":"Point"},"properties":{"osm_id":"7347032826","tag":{"amenity":"waste_basket","waste":"trash"}},"type":"Feature"},
	{"geometry":{"coordinates":[11.418152,48.765083],"type":"Point"},"properties":{"osm_id":"7347032831","tag":{"amenity":"waste_basket","waste":"trash"}},"type":"Feature"},
	{"geometry":{"coordinates":[11.418127,48.765742],"type":"Point"},"properties":{"osm_id":"7347032859","tag":{"amenity":"waste_basket","waste":"trash"}},"type":"Feature"},
	{"geometry":{"coordinates":[11.421962,48.76399],"type":"Point"},"properties":{"osm_id":"7349861363","tag":{"amenity":"waste_basket","waste":"trash"}},"type":"Feature"},
	{"geometry":{"coordinates":[11.421132,48.764946],"type":"Point"},"properties":{"osm_id":"7349861371","tag":{"amenity":"waste_basket","waste":"trash"}},"type":"Feature"},
	{"geometry":{"coordinates":[11.420366,48.768424],"type":"Point"},"properties":{"osm_id":"7354586793","tag":{"amenity":"waste_basket","waste":"trash"}},"type":"Feature"},
	{"geometry":{"coordinates":[11.420033,48.768222],"type":"Point"},"properties":{"osm_id":"7354586816","tag":{"amenity":"waste_basket","waste":"trash"}},"type":"Feature"},
	{"geometry":{"coordinates":[11.419701,48.767741],"type":"Point"},"properties":{"osm_id":"7354586821","tag":{"amenity":"waste_basket","waste":"trash"}},"type":"Feature"},
	{"geometry":{"coordinates":[11.420075,48.766672],"type":"Point"},"properties":{"osm_id":"7369334539","tag":{"amenity":"waste_basket","waste":"trash"}},"type":"Feature"},
	{"geometry":{"coordinates":[11.42051,48.767073],"type":"Point"},"properties":{"osm_id":"7369334548","tag":{"amenity":"waste_basket","waste":"trash"}},"type":"Feature"},
	{"geometry":{"coordinates":[11.419722,48.766268],"type":"Point"},"properties":{"osm_id":"7369334570","tag":{"amenity":"waste_basket","waste":"trash"}},"type":"Feature"},
	{"geometry":{"coordinates":[11.421166,48.777099],"type":"Point"},"properties":{"osm_id":"7372289194","tag":{"amenity":"waste_basket","waste":"trash"}},"type":"Feature"},
	{"geometry":{"coordinates":[11.42241,48.777111],"type":"Point"},"properties":{"osm_id":"7372289246","tag":{"amenity":"waste_basket","waste":"trash"}},"type":"Feature"},
	{"geometry":{"coordinates":[11.421168,48.777137],"type":"Point"},"properties":{"osm_id":"7372289250","tag":{"amenity":"waste_basket","waste":"trash"}},"type":"Feature"},
	{"geometry":{"coordinates":[11.371612,48.787419],"type":"Point"},"properties":{"osm_id":"7410227662","tag":{"amenity":"recycling","recycling:glass_bottles":"yes","recycling_type":"container"}},"type":"Feature"},
	{"geometry":{"coordinates":[11.394141,48.764381],"type":"Point"},"properties":{"osm_id":"7806738130","tag":{"amenity":"waste_basket"}},"type":"Feature"},
	{"geometry":{"coordinates":[11.400978,48.773707],"type":"Point"},"properties":{"osm_id":"7836864108","tag":{"amenity":"recycling","opening_hours":"24/7","recycling:clothes":"yes","recycling:glass":"yes","recycling:glass_bottles":"yes","recycling_type":"container"}},"type":"Feature"}
]
}
