{
"type": "FeatureCollection",
"features": [
	{"geometry":{"coordinates":[11.338171,48.21548],"type":"Point"},"properties":{"osm_id":"82659577","tag":{"amenity":"recycling","recycling:cans":"yes","recycling:cardboard":"yes","recycling:glass_bottles":"yes","recycling:newspaper":"yes","recycling:paper":"yes","recycling:plastic":"no","recycling:white_goods":"no","recycling_type":"container"}},"type":"Feature"},
	{"geometry":{"coordinates":[11.368433,48.174337],"type":"Point"},"properties":{"name":"Gro\u00c3\u009fer Wertstoffhof Puchheim","osm_id":"207480237","tag":{"amenity":"recycling","opening_hours":"Mo-Fr 13:30-18:00; We 08:00-12:00,13:30-18:00; Th off; Sa 08:00-14:00","recycling_type":"centre","website":"https://www.awb-ffb.de/wertstoffhoefe/oeffnungszeiten-nach-ort/puchheim/","wheelchair":"yes"}},"type":"Feature"},
	{"geometry":{"coordinates":[11.373314,48.189714],"type":"Point"},"properties":{"osm_id":"293924134","tag":{"amenity":"recycling","location":"overground","recycling:cans":"yes","recycling:glass_bottles":"yes","recycling:paper":"yes","recycling_type":"container"}},"type":"Feature"},
	{"geometry":{"coordinates":[11.366026,48.181536],"type":"Point"},"properties":{"osm_id":"301770406","tag":{"amenity":"recycling","recycling:glass_bottles":"yes","recycling:paper":"yes","recycling_type":"container"}},"type":"Feature"},
	{"geometry":{"coordinates":[11.361711,48.178072],"type":"Point"},"properties":{"osm_id":"301798034","tag":{"amenity":"recycling","recycling_type":"container"}},"type":"Feature"},
	{"geometry":{"coordinates":[11.36175,48.179306],"type":"Point"},"properties":{"osm_id":"305561001","tag":{"amenity":"recycling","recycling:cans":"yes","recycling:glass_bottles":"yes","recycling:paper":"yes","recycling_type":"container"}},"type":"Feature"},
	{"geometry":{"coordinates":[11.355844,48.171668],"type":"Point"},"properties":{"osm_id":"310295250","tag":{"amenity":"recycling","location":"overground","recycling:cans":"yes","recycling:glass_bottles":"yes","recycling:paper":"yes","recycling_type":"container"}},"type":"Feature"},
	{"geometry":{"coordinates":[11.371876,48.182083],"type":"Point"},"properties":{"osm_id":"315532199","tag":{"amenity":"recycling","recycling:cans":"yes","recycling:clothes":"yes","recycling:glass_bottles":"yes","recycling:paper":"yes","recycling_type":"container"}},"type":"Feature"},
	{"geometry":{"coordinates":[11.371528,48.186406],"type":"Point"},"properties":{"osm_id":"329481066","tag":{"amenity":"recycling","recycling:glass_bottles":"yes","recycling:paper":"yes","recycling_type":"container"}},"type":"Feature"},
	{"geometry":{"coordinates":[11.368135,48.176789],"type":"Point"},"properties":{"osm_id":"332786948","tag":{"amenity":"recycling","recycling:cans":"yes","recycling:clothes":"yes","recycling:glass_bottles":"yes","recycling:paper":"yes","recycling_type":"container"}},"type":"Feature"},
	{"geometry":{"coordinates":[11.350338,48.179147],"type":"Point"},"properties":{"osm_id":"354581473","tag":{"amenity":"recycling","location":"overground","recycling_type":"container"}},"type":"Feature"},
	{"geometry":{"coordinates":[11.355981,48.178387],"type":"Point"},"properties":{"osm_id":"361154519","tag":{"amenity":"recycling","recycling:cans":"yes","recycling:glass_bottles":"yes","recycling:paper":"yes","recycling_type":"container"}},"type":"Feature"},
	{"geometry":{"coordinates":[11.341155,48.167418],"type":"Point"},"properties":{"osm_id":"514560528","tag":{"amenity":"recycling","location":"overground","recycling:cans":"yes","recycling:glass_bottles":"yes","recycling:paper":"yes","recycling_type":"container"}},"type":"Feature"},
	{"geometry":{"coordinates":[11.349051,48.224252],"type":"Point"},"properties":{"osm_id":"605506414","tag":{"amenity":"recycling","recycling:glass_bottles":"yes","recycling:paper":"yes","recycling:scrap_metal":"yes","recycling_type":"container"}},"type":"Feature"},
	{"geometry":{"coordinates":[11.361997,48.173101],"type":"Point"},"properties":{"osm_id":"760268086","tag":{"amenity":"recycling","recycling:cans":"yes","recycling:glass_bottles":"yes","recycling:paper":"yes","recycling_type":"container"}},"type":"Feature"},
	{"geometry":{"coordinates":[11.371248,48.184397],"type":"Point"},"properties":{"osm_id":"1113016188","tag":{"amenity":"recycling","opening_hours":"Mo-Fr 07:00-19:00","recycling:cans":"yes","recycling:glass_bottles":"yes","recycling:paper":"yes","recycling_type":"container"}},"type":"Feature"},
	{"geometry":{"coordinates":[11.39406,48.173829],"type":"Point"},"properties":{"osm_id":"1277574366","tag":{"amenity":"recycling","opening_hours":"Mo-Fr 07:00-19:00; PH off","recycling:aluminium":"yes","recycling:cans":"yes","recycling:clothes":"yes","recycling:glass":"no","recycling:glass_bottles":"yes","recycling:plastic":"yes","recycling:plastic_packaging":"yes","recycling_type":"container"}},"type":"Feature"},
	{"geometry":{"coordinates":[11.387335,48.175654],"type":"Point"},"properties":{"osm_id":"1277574369","tag":{"amenity":"recycling","opening_hours":"Mo-Fr 07:00-19:00; PH off","recycling:aluminium":"yes","recycling:cans":"yes","recycling:glass":"no","recycling:glass_bottles":"yes","recycling:plastic":"yes","recycling:plastic_packaging":"yes","recycling_type":"container"}},"type":"Feature"},
	{"geometry":{"coordinates":[11.388212,48.171384],"type":"Point"},"properties":{"osm_id":"1277574375","tag":{"amenity":"recycling","opening_hours":"Mo-Fr 07:00-19:00; PH off","recycling:aluminium":"yes","recycling:cans":"yes","recycling:glass":"no","recycling:glass_bottles":"yes","recycling:plastic":"yes","recycling:plastic_packaging":"yes","recycling_type":"container"}},"type":"Feature"},
	{"geometry":{"coordinates":[11.396409,48.176375],"type":"Point"},"properties":{"osm_id":"1277574379","tag":{"amenity":"recycling","location":"overground","opening_hours":"Mo-Fr 07:00-19:00; PH off","recycling:aluminium":"yes","recycling:cans":"yes","recycling:clothes":"yes","recycling:glass_bottles":"yes","recycling:plastic":"yes","recycling:plastic_packaging":"yes","recycling_type":"container"}},"type":"Feature"},
	{"geometry":{"coordinates":[11.409485,48.169482],"type":"Point"},"properties":{"osm_id":"1277574408","tag":{"amenity":"recycling","location":"overground","opening_hours":"Mo-Fr 07:00-19:00; PH off","recycling:aluminium":"yes","recycling:cans":"yes","recycling:clothes":"yes","recycling:glass":"no","recycling:glass_bottles":"yes","recycling:plastic":"yes","recycling:plastic_packaging":"yes","recycling_type":"container"}},"type":"Feature"},
	{"geometry":{"coordinates":[11.38643,48.183754],"type":"Point"},"properties":{"name":"Gro\u00c3\u009fer Wertstoffhof Gr\u00c3\u00b6benzell","osm_id":"1333258436","tag":{"addr:city":"Gr\u00c3\u00b6benzell","addr:housenumber":"63","addr:postcode":"82194","addr:street":"Olchinger Stra\u00c3\u009fe","amenity":"recycling","opening_hours":"Tu 08:00-12:00; We 08:00-12:00,14:00-19:00; Th 14:00-19:00; Fr 14:00-18:00; Sa 08:00-14:00","opening_hours:problematic_waste":"We 14:00-19:00","recycling_type":"centre","website":"https://www.awb-ffb.de/html/wertstoffhof-groebenzell.html","wheelchair":"yes"}},"type":"Feature"},
	{"geometry":{"coordinates":[11.374537,48.195009],"type":"Point"},"properties":{"osm_id":"1634632531","tag":{"amenity":"recycling","recycling:cans":"yes","recycling:clothes":"yes","recycling:glass_bottles":"yes","recycling:paper":"yes","recycling:shoes":"yes","recycling_type":"container"}},"type":"Feature"},
	{"geometry":{"coordinates":[11.378963,48.183991],"type":"Point"},"properties":{"osm_id":"1646248227","tag":{"amenity":"recycling","recycling:cans":"yes","recycling:glass_bottles":"yes","recycling:paper":"yes","recycling_type":"container"}},"type":"Feature"},
	{"geometry":{"coordinates":[11.382444,48.183541],"type":"Point"},"properties":{"osm_id":"1646248228","tag":{"amenity":"recycling","recycling_type":"container"}},"type":"Feature"},
	{"geometry":{"coordinates":[11.373803,48.187713],"type":"Point"},"properties":{"osm_id":"1678563644","tag":{"amenity":"recycling","location":"overground","recycling:cans":"yes","recycling:clothes":"yes","recycling:glass_bottles":"yes","recycling:paper":"yes","recycling:shoes":"yes","recycling_type":"container"}},"type":"Feature"},
	{"geometry":{"coordinates":[11.371579,48.19046],"type":"Point"},"properties":{"osm_id":"1678563648","tag":{"amenity":"recycling","location":"overground","recycling:cans":"yes","recycling:glass_bottles":"yes","recycling:paper":"yes","recycling_type":"container"}},"type":"Feature"},
	{"geometry":{"coordinates":[11.382082,48.20531],"type":"Point"},"properties":{"osm_id":"1680252946","tag":{"amenity":"recycling","location":"overground","recycling_type":"container"}},"type":"Feature"},
	{"geometry":{"coordinates":[11.357062,48.175529],"type":"Point"},"properties":{"osm_id":"1783578405","tag":{"amenity":"recycling","location":"overground","recycling_type":"container"}},"type":"Feature"},
	{"geometry":{"coordinates":[11.349366,48.175396],"type":"Point"},"properties":{"osm_id":"1808668239","tag":{"amenity":"recycling","recycling:cartons":"yes","recycling:glass_bottles":"yes","recycling:magazines":"yes","recycling:newspaper":"yes","recycling:paper":"yes","recycling:paper_packaging":"yes","recycling_type":"container"}},"type":"Feature"},
	{"geometry":{"coordinates":[11.345733,48.212191],"type":"Point"},"properties":{"osm_id":"2077174651","tag":{"amenity":"recycling","recycling_type":"container"}},"type":"Feature"},
	{"geometry":{"coordinates":[11.371598,48.202549],"type":"Point"},"properties":{"osm_id":"2163371735","tag":{"amenity":"recycling","location":"overground","recycling_type":"container"}},"type":"Feature"},
	{"geometry":{"coordinates":[11.378273,48.203773],"type":"Point"},"properties":{"osm_id":"2164510831","tag":{"amenity":"recycling","location":"overground","recycling:clothes":"yes","recycling:glass_bottles":"yes","recycling_type":"container"}},"type":"Feature"},
	{"geometry":{"coordinates":[11.347297,48.210064],"type":"Point"},"properties":{"osm_id":"2354843005","tag":{"amenity":"recycling","recycling:cans":"yes","recycling:glass_bottles":"yes","recycling:paper":"yes","recycling_type":"container"}},"type":"Feature"},
	{"geometry":{"coordinates":[11.351315,48.213006],"type":"Point"},"properties":{"osm_id":"2354843266","tag":{"amenity":"recycling","check_date":"2021-08-27","recycling_type":"container"}},"type":"Feature"},
	{"geometry":{"coordinates":[11.35042,48.217911],"type":"Point"},"properties":{"osm_id":"2494230991","tag":{"amenity":"recycling","recycling:cans":"yes","recycling:glass_bottles":"yes","recycling:paper":"yes","recycling_type":"container"}},"type":"Feature"},
	{"geometry":{"coordinates":[11.402588,48.18083],"type":"Point"},"properties":{"osm_id":"2501071341","tag":{"amenity":"recycling","location":"overground","recycling:cans":"yes","recycling:glass_bottles":"yes","recycling:plastic":"no","recycling:plastic_packaging":"yes","recycling_type":"container"}},"type":"Feature"},
	{"geometry":{"coordinates":[11.365374,48.199977],"type":"Point"},"properties":{"osm_id":"2529272873","tag":{"amenity":"recycling","recycling:cans":"yes","recycling:glass_bottles":"yes","recycling:paper":"yes","recycling_type":"container"}},"type":"Feature"},
	{"geometry":{"coordinates":[11.361354,48.221782],"type":"Point"},"properties":{"osm_id":"2880278057","tag":{"amenity":"recycling","recycling:cans":"yes","recycling:glass_bottles":"yes","recycling:paper":"yes","recycling_type":"container"}},"type":"Feature"},
	{"geometry":{"coordinates":[11.368008,48.178271],"type":"Point"},"properties":{"osm_id":"3043192993","tag":{"amenity":"recycling","recycling:cans":"yes","recycling:clothes":"yes","recycling:glass_bottles":"yes","recycling:paper":"yes","recycling_type":"container"}},"type":"Feature"},
	{"geometry":{"coordinates":[11.346907,48.215943],"type":"Point"},"properties":{"osm_id":"3086534750","tag":{"amenity":"waste_basket"}},"type":"Feature"},
	{"geometry":{"coordinates":[11.34597,48.215542],"type":"Point"},"properties":{"osm_id":"3086536256","tag":{"amenity":"waste_basket"}},"type":"Feature"},
	{"geometry":{"coordinates":[11.35005,48.215177],"type":"Point"},"properties":{"osm_id":"3090667812","tag":{"amenity":"waste_basket","check_date":"2021-03-28"}},"type":"Feature"},
	{"geometry":{"coordinates":[11.346907,48.215747],"type":"Point"},"properties":{"osm_id":"3090668244","tag":{"amenity":"waste_basket"}},"type":"Feature"},
	{"geometry":{"coordinates":[11.349585,48.215781],"type":"Point"},"properties":{"osm_id":"3090669071","tag":{"amenity":"waste_basket"}},"type":"Feature"},
	{"geometry":{"coordinates":[11.348099,48.214448],"type":"Point"},"properties":{"osm_id":"3090687072","tag":{"amenity":"waste_basket"}},"type":"Feature"},
	{"geometry":{"coordinates":[11.347655,48.213534],"type":"Point"},"properties":{"osm_id":"3090688309","tag":{"amenity":"waste_basket"}},"type":"Feature"},
	{"geometry":{"coordinates":[11.347807,48.213496],"type":"Point"},"properties":{"osm_id":"3090688460","tag":{"amenity":"waste_basket"}},"type":"Feature"},
	{"geometry":{"coordinates":[11.419735,48.192976],"type":"Point"},"properties":{"osm_id":"3340938670","tag":{"amenity":"waste_basket"}},"type":"Feature"},
	{"geometry":{"coordinates":[11.414605,48.200269],"type":"Point"},"properties":{"osm_id":"3340938759","tag":{"amenity":"waste_basket"}},"type":"Feature"},
	{"geometry":{"coordinates":[11.383923,48.192134],"type":"Point"},"properties":{"osm_id":"3740986361","tag":{"amenity":"waste_basket"}},"type":"Feature"},
	{"geometry":{"coordinates":[11.383603,48.191797],"type":"Point"},"properties":{"osm_id":"3740986419","tag":{"amenity":"waste_basket"}},"type":"Feature"},
	{"geometry":{"coordinates":[11.375727,48.193096],"type":"Point"},"properties":{"osm_id":"4473155153","tag":{"amenity":"recycling","location":"overground","recycling:clothes":"yes","recycling:glass_bottles":"yes","recycling:paper":"yes","recycling_type":"container"}},"type":"Feature"},
	{"geometry":{"coordinates":[11.406969,48.183951],"type":"Point"},"properties":{"osm_id":"4823054105","tag":{"amenity":"waste_basket"}},"type":"Feature"},
	{"geometry":{"coordinates":[11.406551,48.184121],"type":"Point"},"properties":{"osm_id":"4823054106","tag":{"amenity":"waste_basket"}},"type":"Feature"},
	{"geometry":{"coordinates":[11.405845,48.183731],"type":"Point"},"properties":{"osm_id":"4823054107","tag":{"amenity":"waste_basket"}},"type":"Feature"},
	{"geometry":{"coordinates":[11.347133,48.21616],"type":"Point"},"properties":{"osm_id":"4898294296","tag":{"amenity":"waste_basket"}},"type":"Feature"},
	{"geometry":{"coordinates":[11.41434,48.200209],"type":"Point"},"properties":{"osm_id":"4916997443","tag":{"amenity":"waste_basket"}},"type":"Feature"},
	{"geometry":{"coordinates":[11.414318,48.19876],"type":"Point"},"properties":{"osm_id":"4917022763","tag":{"amenity":"waste_basket"}},"type":"Feature"},
	{"geometry":{"coordinates":[11.414472,48.198609],"type":"Point"},"properties":{"osm_id":"4917022764","tag":{"amenity":"waste_basket","check_date":"2021-09-25"}},"type":"Feature"},
	{"geometry":{"coordinates":[11.414765,48.198866],"type":"Point"},"properties":{"osm_id":"4917105692","tag":{"amenity":"waste_basket","check_date":"2021-09-25"}},"type":"Feature"},
	{"geometry":{"coordinates":[11.414733,48.199516],"type":"Point"},"properties":{"osm_id":"4917105694","tag":{"amenity":"waste_basket"}},"type":"Feature"},
	{"geometry":{"coordinates":[11.414739,48.199356],"type":"Point"},"properties":{"osm_id":"4917105698","tag":{"amenity":"waste_basket"}},"type":"Feature"},
	{"geometry":{"coordinates":[11.414754,48.199027],"type":"Point"},"properties":{"osm_id":"4917105699","tag":{"amenity":"waste_basket","check_date":"2021-09-25"}},"type":"Feature"},
	{"geometry":{"coordinates":[11.414716,48.199922],"type":"Point"},"properties":{"osm_id":"4917105700","tag":{"amenity":"waste_basket"}},"type":"Feature"},
	{"geometry":{"coordinates":[11.414724,48.199764],"type":"Point"},"properties":{"osm_id":"4917105702","tag":{"amenity":"waste_basket"}},"type":"Feature"},
	{"geometry":{"coordinates":[11.383894,48.193032],"type":"Point"},"properties":{"osm_id":"5061546760","tag":{"amenity":"recycling","location":"overground","recycling:cans":"yes","recycling:glass_bottles":"yes","recycling:paper":"yes","recycling_type":"container"}},"type":"Feature"},
	{"geometry":{"coordinates":[11.3734,48.198957],"type":"Point"},"properties":{"osm_id":"5061575125","tag":{"amenity":"waste_basket"}},"type":"Feature"},
	{"geometry":{"coordinates":[11.338337,48.215587],"type":"Point"},"properties":{"osm_id":"5919021324","tag":{"amenity":"waste_basket"}},"type":"Feature"},
	{"geometry":{"coordinates":[11.351503,48.220206],"type":"Point"},"properties":{"osm_id":"6653382080","tag":{"amenity":"waste_basket"}},"type":"Feature"},
	{"geometry":{"coordinates":[11.350722,48.220586],"type":"Point"},"properties":{"osm_id":"6653382081","tag":{"amenity":"waste_basket"}},"type":"Feature"},
	{"geometry":{"coordinates":[11.398972,48.16822],"type":"Point"},"properties":{"osm_id":"7161101151","tag":{"amenity":"waste_basket","material":"metal"}},"type":"Feature"},
	{"geometry":{"coordinates":[11.363663,48.204513],"type":"Point"},"properties":{"osm_id":"7719754489","tag":{"amenity":"waste_basket","colour":"orange","material":"plastic","waste":"trash"}},"type":"Feature"},
	{"geometry":{"coordinates":[11.364919,48.200254],"type":"Point"},"properties":{"osm_id":"7719754495","tag":{"amenity":"waste_basket","colour":"orange","material":"plastic","waste":"trash"}},"type":"Feature"},
	{"geometry":{"coordinates":[11.367732,48.198606],"type":"Point"},"properties":{"osm_id":"7719754497","tag":{"amenity":"waste_basket","colour":"orange","material":"plastic","waste":"trash"}},"type":"Feature"},
	{"geometry":{"coordinates":[11.34389,48.219508],"type":"Point"},"properties":{"osm_id":"7930649589","tag":{"amenity":"waste_basket"}},"type":"Feature"},
	{"geometry":{"coordinates":[11.406889,48.173184],"type":"Point"},"properties":{"osm_id":"8378711096","tag":{"amenity":"waste_basket","material":"metal"}},"type":"Feature"},
	{"geometry":{"coordinates":[11.380834,48.193652],"type":"Point"},"properties":{"osm_id":"8570715708","tag":{"amenity":"waste_basket","material":"metal"}},"type":"Feature"},
	{"geometry":{"coordinates":[11.380794,48.193493],"type":"Point"},"properties":{"osm_id":"8570715709","tag":{"amenity":"waste_basket","material":"metal"}},"type":"Feature"},
	{"geometry":{"coordinates":[11.380986,48.193761],"type":"Point"},"properties":{"osm_id":"8570715710","tag":{"amenity":"waste_basket","material":"metal"}},"type":"Feature"},
	{"geometry":{"coordinates":[11.383103,48.192272],"type":"Point"},"properties":{"osm_id":"8573651180","tag":{"amenity":"waste_basket","material":"metal"}},"type":"Feature"},
	{"geometry":{"coordinates":[11.387956,48.189886],"type":"Point"},"properties":{"osm_id":"8573651182","tag":{"amenity":"waste_basket","colour":"orange","material":"plastic"}},"type":"Feature"},
	{"geometry":{"coordinates":[11.385587,48.187681],"type":"Point"},"properties":{"osm_id":"8573651185","tag":{"amenity":"waste_basket","colour":"orange","material":"plastic"}},"type":"Feature"},
	{"geometry":{"coordinates":[11.370826,48.203201],"type":"Point"},"properties":{"osm_id":"8579013764","tag":{"amenity":"waste_basket","colour":"green","material":"plastic","waste":"mixed"}},"type":"Feature"},
	{"geometry":{"coordinates":[11.378276,48.203633],"type":"Point"},"properties":{"osm_id":"8579037078","tag":{"amenity":"waste_basket","colour":"orange","material":"plastic","waste":"mixed"}},"type":"Feature"},
	{"geometry":{"coordinates":[11.382262,48.205236],"type":"Point"},"properties":{"osm_id":"8579037107","tag":{"amenity":"waste_basket","colour":"orange","material":"plastic","waste":"mixed"}},"type":"Feature"},
	{"geometry":{"coordinates":[11.373867,48.194686],"type":"Point"},"properties":{"osm_id":"8579083099","tag":{"amenity":"waste_basket","colour":"orange","material":"plastic","waste":"mixed"}},"type":"Feature"},
	{"geometry":{"coordinates":[11.37426,48.208782],"type":"Point"},"properties":{"osm_id":"8579102731","tag":{"amenity":"waste_basket","waste":"dog_excrement"}},"type":"Feature"},
	{"geometry":{"coordinates":[11.368907,48.202537],"type":"Point"},"properties":{"osm_id":"8609672545","tag":{"amenity":"waste_basket","colour":"orange","material":"plastic","waste":"mixed"}},"type":"Feature"},
	{"geometry":{"coordinates":[11.372549,48.201021],"type":"Point"},"properties":{"osm_id":"8609672551","tag":{"amenity":"waste_basket","colour":"green","material":"plastic","waste":"mixed"}},"type":"Feature"},
	{"geometry":{"coordinates":[11.369013,48.176307],"type":"Point"},"properties":{"osm_id":"8688081986","tag":{"amenity":"waste_basket","colour":"blue","material":"metal"}},"type":"Feature"},
	{"geometry":{"coordinates":[11.391555,48.175069],"type":"Point"},"properties":{"osm_id":"8688081988","tag":{"amenity":"waste_basket","colour":"gray","material":"metal"}},"type":"Feature"},
	{"geometry":{"coordinates":[11.392071,48.174873],"type":"Point"},"properties":{"osm_id":"8688081991","tag":{"amenity":"waste_basket","colour":"gray","material":"wood"}},"type":"Feature"},
	{"geometry":{"coordinates":[11.37326,48.196024],"type":"Point"},"properties":{"osm_id":"8713304516","tag":{"amenity":"waste_basket","colour":"orange","material":"plastic","waste":"mixed"}},"type":"Feature"},
	{"geometry":{"coordinates":[11.404027,48.178449],"type":"Point"},"properties":{"osm_id":"8762061158","tag":{"amenity":"waste_basket","material":"metal","waste":"trash"}},"type":"Feature"},
	{"geometry":{"coordinates":[11.374957,48.180992],"type":"Point"},"properties":{"osm_id":"8764790922","tag":{"amenity":"waste_basket"}},"type":"Feature"},
	{"geometry":{"coordinates":[11.407437,48.176756],"type":"Point"},"properties":{"osm_id":"8766103351","tag":{"amenity":"waste_basket","level":"-1"}},"type":"Feature"},
	{"geometry":{"coordinates":[11.407425,48.176743],"type":"Point"},"properties":{"osm_id":"8766103352","tag":{"amenity":"waste_basket","level":"-1"}},"type":"Feature"},
	{"geometry":{"coordinates":[11.35551,48.210404],"type":"Point"},"properties":{"osm_id":"8910603777","tag":{"amenity":"waste_basket"}},"type":"Feature"},
	{"geometry":{"coordinates":[11.354935,48.209761],"type":"Point"},"properties":{"osm_id":"8910660613","tag":{"amenity":"waste_basket"}},"type":"Feature"},
	{"geometry":{"coordinates":[11.354278,48.209031],"type":"Point"},"properties":{"osm_id":"8910662148","tag":{"amenity":"waste_basket"}},"type":"Feature"},
	{"geometry":{"coordinates":[11.358605,48.210584],"type":"Point"},"properties":{"osm_id":"8913469332","tag":{"amenity":"waste_basket"}},"type":"Feature"},
	{"geometry":{"coordinates":[11.360079,48.209386],"type":"Point"},"properties":{"osm_id":"8913537899","tag":{"amenity":"waste_basket"}},"type":"Feature"},
	{"geometry":{"coordinates":[11.35922,48.210112],"type":"Point"},"properties":{"osm_id":"8913537900","tag":{"amenity":"waste_basket"}},"type":"Feature"},
	{"geometry":{"coordinates":[11.354701,48.207058],"type":"Point"},"properties":{"osm_id":"8914597469","tag":{"amenity":"waste_basket"}},"type":"Feature"},
	{"geometry":{"coordinates":[11.359374,48.207573],"type":"Point"},"properties":{"osm_id":"8914597474","tag":{"amenity":"waste_basket"}},"type":"Feature"},
	{"geometry":{"coordinates":[11.357959,48.207321],"type":"Point"},"properties":{"osm_id":"8914597479","tag":{"amenity":"waste_basket"}},"type":"Feature"},
	{"geometry":{"coordinates":[11.357215,48.207098],"type":"Point"},"properties":{"osm_id":"8914597480","tag":{"amenity":"waste_basket"}},"type":"Feature"},
	{"geometry":{"coordinates":[11.356448,48.207117],"type":"Point"},"properties":{"osm_id":"8914597484","tag":{"amenity":"waste_basket"}},"type":"Feature"},
	{"geometry":{"coordinates":[11.354809,48.206845],"type":"Point"},"properties":{"osm_id":"8914597485","tag":{"amenity":"waste_basket"}},"type":"Feature"},
	{"geometry":{"coordinates":[11.344495,48.170654],"type":"Point"},"properties":{"osm_id":"8915111962","tag":{"amenity":"waste_basket","colour":"brown","material":"wood"}},"type":"Feature"},
	{"geometry":{"coordinates":[11.344845,48.170562],"type":"Point"},"properties":{"osm_id":"8915111964","tag":{"amenity":"waste_basket","colour":"brown","material":"wood"}},"type":"Feature"},
	{"geometry":{"coordinates":[11.347451,48.170377],"type":"Point"},"properties":{"osm_id":"8915204556","tag":{"amenity":"waste_basket","material":"metal"}},"type":"Feature"},
	{"geometry":{"coordinates":[11.345825,48.169906],"type":"Point"},"properties":{"osm_id":"8915208605","tag":{"amenity":"waste_basket","material":"metal"}},"type":"Feature"},
	{"geometry":{"coordinates":[11.346286,48.169773],"type":"Point"},"properties":{"osm_id":"8915236012","tag":{"amenity":"waste_basket","material":"metal"}},"type":"Feature"},
	{"geometry":{"coordinates":[11.346553,48.169898],"type":"Point"},"properties":{"osm_id":"8915236013","tag":{"amenity":"waste_basket","material":"metal"}},"type":"Feature"},
	{"geometry":{"coordinates":[11.351418,48.171705],"type":"Point"},"properties":{"osm_id":"8915246790","tag":{"amenity":"waste_basket","material":"metal"}},"type":"Feature"},
	{"geometry":{"coordinates":[11.352291,48.171479],"type":"Point"},"properties":{"osm_id":"8915246793","tag":{"amenity":"waste_basket","colour":"blue","material":"metal"}},"type":"Feature"},
	{"geometry":{"coordinates":[11.383541,48.18415],"type":"Point"},"properties":{"osm_id":"8975443284","tag":{"amenity":"waste_basket","colour":"orange","material":"plastic"}},"type":"Feature"},
	{"geometry":{"coordinates":[11.382632,48.183471],"type":"Point"},"properties":{"osm_id":"8975532407","tag":{"amenity":"waste_basket","colour":"orange","material":"plastic"}},"type":"Feature"},
	{"geometry":{"coordinates":[11.379248,48.184815],"type":"Point"},"properties":{"osm_id":"8975547646","tag":{"amenity":"waste_basket","material":"metal"}},"type":"Feature"},
	{"geometry":{"coordinates":[11.378792,48.184345],"type":"Point"},"properties":{"osm_id":"8975547649","tag":{"amenity":"waste_basket","colour":"orange","material":"plastic"}},"type":"Feature"},
	{"geometry":{"coordinates":[11.373075,48.190851],"type":"Point"},"properties":{"osm_id":"8975579320","tag":{"amenity":"waste_basket","colour":"orange","material":"plastic"}},"type":"Feature"},
	{"geometry":{"coordinates":[11.375942,48.193134],"type":"Point"},"properties":{"osm_id":"8975594339","tag":{"amenity":"waste_basket","colour":"orange","material":"plastic"}},"type":"Feature"},
	{"geometry":{"coordinates":[11.40812,48.179597],"type":"Point"},"properties":{"osm_id":"9063255784","tag":{"amenity":"waste_basket","material":"metal","waste":"trash"}},"type":"Feature"},
	{"geometry":{"coordinates":[11.414169,48.179543],"type":"Point"},"properties":{"osm_id":"9063300761","tag":{"amenity":"waste_basket","material":"metal","waste":"trash"}},"type":"Feature"},
	{"geometry":{"coordinates":[11.371798,48.192412],"type":"Point"},"properties":{"osm_id":"9166171794","tag":{"amenity":"waste_basket","colour":"orange","material":"plastic","waste":"trash"}},"type":"Feature"},
	{"geometry":{"coordinates":[11.371721,48.192647],"type":"Point"},"properties":{"osm_id":"9166171797","tag":{"amenity":"waste_basket","colour":"orange","material":"plastic","waste":"trash"}},"type":"Feature"},
	{"geometry":{"coordinates":[11.361864,48.172911],"type":"Point"},"properties":{"osm_id":"9166177844","tag":{"amenity":"waste_basket","material":"metal","waste":"trash"}},"type":"Feature"},
	{"geometry":{"coordinates":[11.359711,48.170813],"type":"Point"},"properties":{"osm_id":"9166189553","tag":{"amenity":"waste_basket","colour":"blue","material":"metal","waste":"trash"}},"type":"Feature"},
	{"geometry":{"coordinates":[11.360608,48.171852],"type":"Point"},"properties":{"osm_id":"9166189554","tag":{"amenity":"waste_basket","colour":"blue","material":"metal","waste":"trash"}},"type":"Feature"},
	{"geometry":{"coordinates":[11.361455,48.176605],"type":"Point"},"properties":{"osm_id":"9166189783","tag":{"amenity":"waste_basket","colour":"blue","material":"metal","waste":"trash"}},"type":"Feature"},
	{"geometry":{"coordinates":[11.361145,48.177556],"type":"Point"},"properties":{"osm_id":"9166189785","tag":{"amenity":"waste_basket","colour":"blue","material":"metal","waste":"trash"}},"type":"Feature"},
	{"geometry":{"coordinates":[11.361815,48.175574],"type":"Point"},"properties":{"osm_id":"9166191728","tag":{"amenity":"waste_basket","colour":"blue","material":"metal","waste":"trash"}},"type":"Feature"},
	{"geometry":{"coordinates":[11.372192,48.193728],"type":"Point"},"properties":{"osm_id":"9166207265","tag":{"amenity":"waste_basket","colour":"orange","material":"plastic","waste":"trash"}},"type":"Feature"},
	{"geometry":{"coordinates":[11.372261,48.193932],"type":"Point"},"properties":{"osm_id":"9166207267","tag":{"amenity":"waste_basket","colour":"orange","material":"plastic","waste":"trash"}},"type":"Feature"},
	{"geometry":{"coordinates":[11.363214,48.182022],"type":"Point"},"properties":{"osm_id":"9166209600","tag":{"amenity":"waste_basket","colour":"blue","material":"metal","waste":"trash"}},"type":"Feature"},
	{"geometry":{"coordinates":[11.367529,48.187575],"type":"Point"},"properties":{"osm_id":"9166209601","tag":{"amenity":"waste_basket","colour":"orange","material":"plastic","waste":"trash"}},"type":"Feature"},
	{"geometry":{"coordinates":[11.369662,48.189048],"type":"Point"},"properties":{"osm_id":"9166209603","tag":{"amenity":"waste_basket","colour":"blue","material":"metal","waste":"trash"}},"type":"Feature"},
	{"geometry":{"coordinates":[11.371471,48.19037],"type":"Point"},"properties":{"osm_id":"9166209606","tag":{"amenity":"waste_basket","colour":"blue","material":"metal","waste":"trash"}},"type":"Feature"},
	{"geometry":{"coordinates":[11.371567,48.190727],"type":"Point"},"properties":{"osm_id":"9166209610","tag":{"amenity":"waste_basket","colour":"blue","material":"metal","waste":"trash"}},"type":"Feature"},
	{"geometry":{"coordinates":[11.372313,48.194088],"type":"Point"},"properties":{"osm_id":"9166217200","tag":{"amenity":"waste_basket","colour":"orange","material":"plastic","waste":"trash"}},"type":"Feature"},
	{"geometry":{"coordinates":[11.372661,48.194919],"type":"Point"},"properties":{"osm_id":"9166217201","tag":{"amenity":"waste_basket","colour":"orange","material":"plastic","waste":"trash"}},"type":"Feature"}
]
}
