{
"type": "FeatureCollection",
"features": [
	{"geometry":{"coordinates":[11.356058,48.072318],"type":"Point"},"properties":{"name":"Wertstoffhof Pentenried","osm_id":"282463437","tag":{"addr:housenumber":"100","addr:postcode":"82349","addr:street":"Kraillinger Stra\u00c3\u009fe","amenity":"recycling","opening_hours":"We,Fr 14:00-18:00; Sa 09:00-13:00; PH off","operator":"AWISTA","recycling:batteries":"yes","recycling:clothes":"yes","recycling:glass":"yes","recycling_type":"centre","website":"http://www.awista-starnberg.de/wertstoffhoefe/"}},"type":"Feature"},
	{"geometry":{"coordinates":[11.358671,48.054413],"type":"Point"},"properties":{"name":"Wertstoffhof","osm_id":"283101553","tag":{"amenity":"recycling","opening_hours":"Sep-Jul: Sa 10:00-13:00","recycling:batteries":"yes","recycling:clothes":"yes","recycling:glass":"yes","recycling_type":"centre"}},"type":"Feature"},
	{"geometry":{"coordinates":[11.394407,48.071348],"type":"Point"},"properties":{"osm_id":"283161413","tag":{"amenity":"recycling","opening_hours":"Mo-Sa 08:00-12:00,15:00-19:00; PH off","recycling:clothes":"yes","recycling:glass":"yes","recycling:shoes":"yes","recycling_type":"container","wheelchair":"yes"}},"type":"Feature"},
	{"geometry":{"coordinates":[11.411746,48.09256],"type":"Point"},"properties":{"osm_id":"609403120","tag":{"amenity":"recycling","recycling_type":"container"}},"type":"Feature"},
	{"geometry":{"coordinates":[11.420767,48.10639],"type":"Point"},"properties":{"osm_id":"1246168753","tag":{"amenity":"recycling","designation":"Altkleider","mapillary":"ofUohLOHjBWy-28WU-BtVg","recycling:clothes":"yes","recycling_type":"container","survey:date":"2018-05-14"}},"type":"Feature"},
	{"geometry":{"coordinates":[11.39627,48.093525],"type":"Point"},"properties":{"osm_id":"1743400049","tag":{"amenity":"waste_basket"}},"type":"Feature"},
	{"geometry":{"coordinates":[11.406375,48.092425],"type":"Point"},"properties":{"osm_id":"2399207934","tag":{"amenity":"recycling","recycling_type":"container"}},"type":"Feature"},
	{"geometry":{"coordinates":[11.420865,48.095459],"type":"Point"},"properties":{"osm_id":"3078123485","tag":{"amenity":"waste_basket"}},"type":"Feature"},
	{"geometry":{"coordinates":[11.401414,48.088294],"type":"Point"},"properties":{"osm_id":"3113541220","tag":{"amenity":"waste_basket"}},"type":"Feature"},
	{"geometry":{"coordinates":[11.396477,48.078191],"type":"Point"},"properties":{"barrier":"gate","osm_id":"3191506471","tag":{"bicycle":"yes","foot":"yes","motor_vehicle":"yes"}},"type":"Feature"},
	{"geometry":{"coordinates":[11.410464,48.100325],"type":"Point"},"properties":{"osm_id":"3737400627","tag":{"amenity":"waste_basket"}},"type":"Feature"},
	{"geometry":{"coordinates":[11.379745,48.067399],"type":"Point"},"properties":{"osm_id":"3737653390","tag":{"amenity":"recycling","recycling:clothes":"yes","recycling:glass_bottles":"yes","recycling_type":"container"}},"type":"Feature"},
	{"geometry":{"coordinates":[11.387847,48.077446],"type":"Point"},"properties":{"osm_id":"3737653406","tag":{"amenity":"waste_basket","waste":"dog_excrement"}},"type":"Feature"},
	{"geometry":{"coordinates":[11.400319,48.089291],"type":"Point"},"properties":{"osm_id":"3737654138","tag":{"amenity":"waste_basket","waste":"dog_excrement"}},"type":"Feature"},
	{"geometry":{"coordinates":[11.387691,48.061253],"type":"Point"},"properties":{"osm_id":"3750868993","tag":{"amenity":"waste_basket","waste":"dog_excrement"}},"type":"Feature"},
	{"geometry":{"coordinates":[11.41004,48.086458],"type":"Point"},"properties":{"osm_id":"3753432601","tag":{"amenity":"waste_basket","waste":"dog_excrement"}},"type":"Feature"},
	{"geometry":{"coordinates":[11.424213,48.09594],"type":"Point"},"properties":{"osm_id":"3753458389","tag":{"amenity":"waste_basket"}},"type":"Feature"},
	{"geometry":{"coordinates":[11.423315,48.104748],"type":"Point"},"properties":{"osm_id":"3771996492","tag":{"amenity":"recycling","opening_hours":"Mo-Sa 08:00-12:30, 14:30-19:00; PH off","recycling:clothes":"yes","recycling:glass_bottles":"yes","recycling:paper":"yes","recycling:plastic_bottles":"yes","recycling:plastic_packaging":"yes","recycling:shoes":"yes","recycling_type":"container","wheelchair":"yes"}},"type":"Feature"},
	{"geometry":{"coordinates":[11.41295,48.104033],"type":"Point"},"properties":{"osm_id":"3775213405","tag":{"amenity":"waste_basket"}},"type":"Feature"},
	{"geometry":{"coordinates":[11.401306,48.100539],"type":"Point"},"properties":{"osm_id":"3791291757","tag":{"amenity":"recycling","opening_hours":"Mo-Sa 08:00-12:00, 15:00-19:00; PH off","recycling:clothes":"yes","recycling:glass_bottles":"yes","recycling:shoes":"yes","recycling_type":"container","wheelchair":"limited"}},"type":"Feature"},
	{"geometry":{"coordinates":[11.406593,48.063996],"type":"Point"},"properties":{"barrier":"gate","osm_id":"3830385308","tag":{"access":"customers","bicycle":"yes","foot":"yes","motorcar":"yes","motorcycle":"yes"}},"type":"Feature"},
	{"geometry":{"coordinates":[11.37574,48.079339],"type":"Point"},"properties":{"osm_id":"3891628552","tag":{"amenity":"recycling","recycling:clothes":"yes","recycling:glass":"yes","recycling:shoes":"yes","recycling_type":"container"}},"type":"Feature"},
	{"geometry":{"coordinates":[11.391446,48.104187],"type":"Point"},"properties":{"osm_id":"4169182498","tag":{"amenity":"recycling","opening_hours":"Mo-Sa 08:00-12:00,15:00-19:00; PH off","recycling:clothes":"yes","recycling:glass_bottles":"yes","recycling:shoes":"yes","recycling_type":"container","wheelchair":"yes"}},"type":"Feature"},
	{"geometry":{"coordinates":[11.390407,48.104484],"type":"Point"},"properties":{"osm_id":"4169206994","tag":{"amenity":"recycling","recycling:clothes":"yes","recycling_type":"container","wheelchair":"limited"}},"type":"Feature"},
	{"geometry":{"coordinates":[11.406721,48.092729],"type":"Point"},"properties":{"osm_id":"4187009348","tag":{"amenity":"waste_basket"}},"type":"Feature"},
	{"geometry":{"coordinates":[11.420713,48.0959],"type":"Point"},"properties":{"osm_id":"4200742531","tag":{"amenity":"waste_basket"}},"type":"Feature"},
	{"geometry":{"coordinates":[11.41574,48.091914],"type":"Point"},"properties":{"osm_id":"4209313030","tag":{"amenity":"waste_basket"}},"type":"Feature"},
	{"geometry":{"coordinates":[11.412752,48.095914],"type":"Point"},"properties":{"osm_id":"4221008340","tag":{"amenity":"waste_basket"}},"type":"Feature"},
	{"geometry":{"coordinates":[11.411979,48.096083],"type":"Point"},"properties":{"osm_id":"4221008344","tag":{"amenity":"waste_basket"}},"type":"Feature"},
	{"geometry":{"coordinates":[11.412466,48.096168],"type":"Point"},"properties":{"osm_id":"4221008347","tag":{"amenity":"waste_basket"}},"type":"Feature"},
	{"geometry":{"coordinates":[11.404969,48.090063],"type":"Point"},"properties":{"osm_id":"4266210070","tag":{"amenity":"waste_basket","material":"metal","survey:date":"2020-02-23"}},"type":"Feature"},
	{"geometry":{"coordinates":[11.409346,48.106898],"type":"Point"},"properties":{"osm_id":"4325881728","tag":{"amenity":"waste_basket"}},"type":"Feature"},
	{"geometry":{"coordinates":[11.352975,48.074884],"type":"Point"},"properties":{"osm_id":"4397159825","tag":{"amenity":"waste_basket"}},"type":"Feature"},
	{"geometry":{"coordinates":[11.389683,48.074845],"type":"Point"},"properties":{"osm_id":"4959888303","tag":{"amenity":"waste_basket"}},"type":"Feature"},
	{"geometry":{"coordinates":[11.39583,48.08005],"type":"Point"},"properties":{"osm_id":"4959996433","tag":{"amenity":"waste_basket"}},"type":"Feature"},
	{"geometry":{"coordinates":[11.357905,48.093954],"type":"Point"},"properties":{"osm_id":"5373581058","tag":{"amenity":"recycling","recycling:clothes":"yes","recycling:glass_bottles":"yes","recycling:shoes":"yes","recycling_type":"container"}},"type":"Feature"},
	{"geometry":{"coordinates":[11.413306,48.10583],"type":"Point"},"properties":{"osm_id":"5374378678","tag":{"amenity":"waste_basket"}},"type":"Feature"},
	{"geometry":{"coordinates":[11.413322,48.105846],"type":"Point"},"properties":{"osm_id":"5378225572","tag":{"amenity":"waste_basket"}},"type":"Feature"},
	{"geometry":{"coordinates":[11.385513,48.066338],"type":"Point"},"properties":{"osm_id":"5906400019","tag":{"amenity":"recycling","recycling:clothes":"yes","recycling_type":"container"}},"type":"Feature"},
	{"geometry":{"coordinates":[11.385542,48.06633],"type":"Point"},"properties":{"osm_id":"5906400020","tag":{"amenity":"recycling","recycling:glass":"yes","recycling_type":"container"}},"type":"Feature"},
	{"geometry":{"coordinates":[11.354596,48.066103],"type":"Point"},"properties":{"osm_id":"5949744048","tag":{"amenity":"recycling","recycling:glass":"yes","recycling_type":"container"}},"type":"Feature"},
	{"geometry":{"coordinates":[11.423286,48.105151],"type":"Point"},"properties":{"osm_id":"5975149240","tag":{"amenity":"waste_basket"}},"type":"Feature"},
	{"geometry":{"coordinates":[11.423437,48.105411],"type":"Point"},"properties":{"osm_id":"5975154041","tag":{"amenity":"waste_basket"}},"type":"Feature"},
	{"geometry":{"coordinates":[11.347799,48.068098],"type":"Point"},"properties":{"osm_id":"6153148761","tag":{"amenity":"recycling","operator":"Deutsches Rotes Kreuz","recycling:clothes":"yes"}},"type":"Feature"},
	{"geometry":{"coordinates":[11.404001,48.08764],"type":"Point"},"properties":{"osm_id":"6457344581","tag":{"amenity":"waste_basket"}},"type":"Feature"},
	{"geometry":{"coordinates":[11.413595,48.106135],"type":"Point"},"properties":{"osm_id":"7025272644","tag":{"amenity":"waste_basket"}},"type":"Feature"},
	{"geometry":{"coordinates":[11.41393,48.106478],"type":"Point"},"properties":{"osm_id":"7025276165","tag":{"amenity":"waste_basket"}},"type":"Feature"},
	{"geometry":{"coordinates":[11.400209,48.092502],"type":"Point"},"properties":{"osm_id":"7219647085","tag":{"amenity":"waste_basket","colour":"dunkelgrau","material":"metal","operator":"Gemeinde Gauting","waste":"trash;cigarette"}},"type":"Feature"},
	{"geometry":{"coordinates":[11.376609,48.070369],"type":"Point"},"properties":{"osm_id":"7222554628","tag":{"amenity":"waste_basket"}},"type":"Feature"},
	{"geometry":{"coordinates":[11.400034,48.092855],"type":"Point"},"properties":{"osm_id":"7237469077","tag":{"amenity":"waste_basket","colour":"grey","material":"steel","waste":"mixed;cigarettes"}},"type":"Feature"},
	{"geometry":{"coordinates":[11.407353,48.06083],"type":"Point"},"properties":{"osm_id":"7283317021","tag":{"amenity":"waste_basket"}},"type":"Feature"},
	{"geometry":{"coordinates":[11.364222,48.069938],"type":"Point"},"properties":{"osm_id":"7295021127","tag":{"amenity":"recycling","recycling:clothes":"yes","recycling:glass_bottles":"yes","recycling_type":"container"}},"type":"Feature"},
	{"geometry":{"coordinates":[11.41183,48.092919],"type":"Point"},"properties":{"name":"Wertstoffhof Krailling","osm_id":"7314950321","tag":{"addr:city":"Krailling","addr:housenumber":"3a","addr:postcode":"82152","addr:street":"Fleckhamerstra\u00c3\u009fe","amenity":"recycling","opening_hours":"Tu,Th 14:00-18:00; Sa 08:00-13:00; PH off","operator":"AWISTA","recycling:batteries":"yes","recycling:cans":"yes","recycling:cardboard":"yes","recycling:clothes":"yes","recycling:electrical_appliances":"yes","recycling:glass":"yes","recycling:green_waste":"yes","recycling:plastic_packaging":"yes","recycling:scrap_metal":"yes","recycling:shoes":"yes","recycling_type":"centre","website":"http://www.awista-starnberg.de/wertstoffhoefe/"}},"type":"Feature"},
	{"geometry":{"coordinates":[11.379525,48.067428],"type":"Point"},"properties":{"osm_id":"7424513759","tag":{"amenity":"waste_basket"}},"type":"Feature"},
	{"geometry":{"coordinates":[11.376759,48.070517],"type":"Point"},"properties":{"osm_id":"7424514927","tag":{"amenity":"waste_basket"}},"type":"Feature"},
	{"geometry":{"coordinates":[11.378033,48.068573],"type":"Point"},"properties":{"osm_id":"7424535796","tag":{"amenity":"waste_basket"}},"type":"Feature"},
	{"geometry":{"coordinates":[11.388796,48.072885],"type":"Point"},"properties":{"osm_id":"7424540530","tag":{"amenity":"recycling","recycling:clothes":"yes","recycling:glass_bottles":"yes","recycling_type":"container"}},"type":"Feature"},
	{"geometry":{"coordinates":[11.387464,48.073156],"type":"Point"},"properties":{"osm_id":"7424550630","tag":{"amenity":"recycling","operator":"BRK","recycling:clothes":"yes","recycling:shoes":"yes","recycling_type":"container"}},"type":"Feature"},
	{"geometry":{"coordinates":[11.374475,48.067689],"type":"Point"},"properties":{"osm_id":"7473075057","tag":{"amenity":"recycling","recycling:bottles":"yes","recycling:clothes":"yes","recycling:shoes":"yes","recycling_type":"container"}},"type":"Feature"},
	{"geometry":{"coordinates":[11.378136,48.062683],"type":"Point"},"properties":{"osm_id":"7486774779","tag":{"amenity":"recycling","operator":"BRK","recycling:clothes":"yes","recycling:shoes":"yes","recycling_type":"container"}},"type":"Feature"}
]
}
