{
"type": "FeatureCollection",
"features": [
	{"geometry":{"coordinates":[11.423986,47.897002],"type":"Point"},"properties":{"highway":"turning_circle","osm_id":"457123372"},"type":"Feature"},
	{"geometry":{"coordinates":[11.423004,47.900017],"type":"Point"},"properties":{"barrier":"gate","osm_id":"1732643530"},"type":"Feature"},
	{"geometry":{"coordinates":[11.419151,47.899913],"type":"Point"},"properties":{"osm_id":"2482543158","tag":{"amenity":"waste_basket"}},"type":"Feature"},
	{"geometry":{"coordinates":[11.417282,47.901432],"type":"Point"},"properties":{"osm_id":"2482543173","tag":{"amenity":"waste_basket"}},"type":"Feature"},
	{"geometry":{"coordinates":[11.419042,47.911615],"type":"Point"},"properties":{"osm_id":"2482543224","tag":{"amenity":"waste_basket","check_date":"2020-12-30"}},"type":"Feature"},
	{"geometry":{"coordinates":[11.418979,47.911747],"type":"Point"},"properties":{"osm_id":"2482543229","tag":{"amenity":"waste_basket"}},"type":"Feature"},
	{"geometry":{"coordinates":[11.400172,47.92539],"type":"Point"},"properties":{"osm_id":"5320992619","tag":{"amenity":"recycling","description":"Altglascontainer und Altkleidercontainer (Kolping)","recycling_type":"container"}},"type":"Feature"},
	{"geometry":{"coordinates":[11.419363,47.891486],"type":"Point"},"properties":{"osm_id":"6512170895","tag":{"amenity":"waste_basket","waste":"cigarettes"}},"type":"Feature"},
	{"geometry":{"coordinates":[11.419371,47.891487],"type":"Point"},"properties":{"osm_id":"6512170897","tag":{"amenity":"waste_basket"}},"type":"Feature"},
	{"geometry":{"coordinates":[11.418638,47.914224],"type":"Point"},"properties":{"osm_id":"6586266406","tag":{"amenity":"recycling","recycling:batteries":"yes","recycling_type":"container"}},"type":"Feature"},
	{"geometry":{"coordinates":[11.416924,47.906171],"type":"Point"},"properties":{"osm_id":"7346688339","tag":{"amenity":"recycling","recycling:glass_bottles":"yes","recycling_type":"container"}},"type":"Feature"},
	{"geometry":{"coordinates":[11.419532,47.917156],"type":"Point"},"properties":{"osm_id":"7998177704","tag":{"amenity":"waste_basket"}},"type":"Feature"},
	{"geometry":{"coordinates":[11.423047,47.919144],"type":"Point"},"properties":{"osm_id":"7998177708","tag":{"amenity":"waste_basket"}},"type":"Feature"},
	{"geometry":{"coordinates":[11.424497,47.921193],"type":"Point"},"properties":{"osm_id":"7998177717","tag":{"amenity":"waste_basket"}},"type":"Feature"},
	{"geometry":{"coordinates":[11.418389,47.912284],"type":"Point"},"properties":{"osm_id":"7998177756","tag":{"amenity":"waste_basket"}},"type":"Feature"},
	{"geometry":{"coordinates":[11.419544,47.91082],"type":"Point"},"properties":{"osm_id":"7998177761","tag":{"amenity":"recycling","recycling:clothes":"yes","recycling:shoes":"yes","recycling_type":"container"}},"type":"Feature"},
	{"geometry":{"coordinates":[11.419979,47.905931],"type":"Point"},"properties":{"osm_id":"7998177774","tag":{"amenity":"waste_basket"}},"type":"Feature"},
	{"geometry":{"coordinates":[11.416777,47.905216],"type":"Point"},"properties":{"osm_id":"7998177775","tag":{"amenity":"waste_basket"}},"type":"Feature"}
]
}
