{
"type": "FeatureCollection",
"features": [
	{"geometry":{"coordinates":[11.424037,47.702887],"type":"Point"},"properties":{"name":"Wertstoffhof Gemeinde Benediktbeuern","osm_id":"310922968","tag":{"addr:city":"Benediktbeuern","addr:housenumber":"31","addr:street":"H\u00c3\u00a4usernweg","amenity":"recycling","opening_hours":"We 15:00-18:00; Sa 08:00-12:00","recycling_type":"centre","url":"http://www.wgv-quarzbichl.de/index.php?id=206"}},"type":"Feature"},
	{"geometry":{"coordinates":[11.370688,47.749173],"type":"Point"},"properties":{"osm_id":"333123084","tag":{"amenity":"recycling","location":"overground","recycling:batteries":"yes","recycling:cans":"no","recycling:clothes":"yes","recycling:glass":"yes","recycling:glass_bottles":"yes","recycling:paper":"yes","recycling:scrap_metal":"no","recycling:shoes":"yes","recycling_type":"container"}},"type":"Feature"},
	{"geometry":{"coordinates":[11.38212,47.751513],"type":"Point"},"properties":{"osm_id":"435133239","tag":{"amenity":"recycling","recycling:batteries":"yes","recycling:clothes":"yes","recycling:glass_bottles":"yes","recycling_type":"container"}},"type":"Feature"},
	{"geometry":{"coordinates":[11.409825,47.70642],"type":"Point"},"properties":{"osm_id":"1996944775","tag":{"amenity":"recycling","recycling:clothes":"yes","recycling:glass_bottles":"yes","recycling:shoes":"yes","recycling_type":"container"}},"type":"Feature"},
	{"geometry":{"coordinates":[11.376679,47.751444],"type":"Point"},"properties":{"osm_id":"3733603054","tag":{"amenity":"waste_basket"}},"type":"Feature"},
	{"geometry":{"coordinates":[11.376728,47.751414],"type":"Point"},"properties":{"osm_id":"4338842085","tag":{"amenity":"waste_basket"}},"type":"Feature"},
	{"geometry":{"coordinates":[11.410409,47.750582],"type":"Point"},"properties":{"barrier":"gate","osm_id":"5086430846","tag":{"access":"customers","foot":"yes","motorcar":"yes"}},"type":"Feature"},
	{"geometry":{"coordinates":[11.415118,47.70927],"type":"Point"},"properties":{"osm_id":"5216631691","tag":{"amenity":"waste_basket"}},"type":"Feature"},
	{"geometry":{"coordinates":[11.412333,47.708648],"type":"Point"},"properties":{"osm_id":"5216631709","tag":{"amenity":"waste_basket"}},"type":"Feature"},
	{"geometry":{"coordinates":[11.409443,47.709341],"type":"Point"},"properties":{"osm_id":"5216632531","tag":{"amenity":"waste_basket"}},"type":"Feature"},
	{"geometry":{"coordinates":[11.403689,47.708095],"type":"Point"},"properties":{"osm_id":"5216632565","tag":{"amenity":"waste_basket"}},"type":"Feature"},
	{"geometry":{"coordinates":[11.398806,47.708649],"type":"Point"},"properties":{"osm_id":"5216632582","tag":{"amenity":"waste_basket"}},"type":"Feature"},
	{"geometry":{"coordinates":[11.411102,47.706081],"type":"Point"},"properties":{"osm_id":"5222067481","tag":{"amenity":"waste_basket"}},"type":"Feature"},
	{"geometry":{"coordinates":[11.415809,47.698935],"type":"Point"},"properties":{"osm_id":"5912561839","tag":{"amenity":"waste_disposal","waste":"trash"}},"type":"Feature"},
	{"geometry":{"coordinates":[11.377803,47.753688],"type":"Point"},"properties":{"osm_id":"7326084813","tag":{"amenity":"recycling","recycling:batteries":"yes","recycling:cans":"yes","recycling:clothes":"yes","recycling:glass_bottles":"yes","recycling_type":"container"}},"type":"Feature"}
]
}
