{
"type": "FeatureCollection",
"features": [
	{"geometry":{"coordinates":[11.402883,47.18857],"type":"Point"},"properties":{"osm_id":"3058915598","tag":{"amenity":"waste_basket"}},"type":"Feature"},
	{"geometry":{"coordinates":[11.416018,47.200863],"type":"Point"},"properties":{"osm_id":"4426984511","tag":{"amenity":"waste_basket"}},"type":"Feature"},
	{"geometry":{"coordinates":[11.414857,47.201468],"type":"Point"},"properties":{"osm_id":"4426984514","tag":{"amenity":"waste_basket","waste_basket:excrement_bags":"yes"}},"type":"Feature"},
	{"geometry":{"coordinates":[11.408371,47.208871],"type":"Point"},"properties":{"osm_id":"4491287262","tag":{"amenity":"waste_basket"}},"type":"Feature"},
	{"geometry":{"coordinates":[11.409385,47.213254],"type":"Point"},"properties":{"osm_id":"4491287265","tag":{"amenity":"waste_basket"}},"type":"Feature"},
	{"geometry":{"coordinates":[11.411583,47.213591],"type":"Point"},"properties":{"osm_id":"4491287266","tag":{"amenity":"waste_basket"}},"type":"Feature"},
	{"geometry":{"coordinates":[11.409711,47.216587],"type":"Point"},"properties":{"osm_id":"4491287267","tag":{"amenity":"waste_basket","waste_basket:excrement_bags":"yes"}},"type":"Feature"},
	{"geometry":{"coordinates":[11.414584,47.21206],"type":"Point"},"properties":{"osm_id":"4553049788","tag":{"amenity":"waste_basket"}},"type":"Feature"},
	{"geometry":{"coordinates":[11.408265,47.215194],"type":"Point"},"properties":{"osm_id":"4553049790","tag":{"amenity":"waste_basket"}},"type":"Feature"},
	{"geometry":{"coordinates":[11.363523,47.172912],"type":"Point"},"properties":{"osm_id":"4580789344","tag":{"amenity":"waste_basket","waste_basket:excrement_bags":"yes"}},"type":"Feature"},
	{"geometry":{"coordinates":[11.367184,47.176441],"type":"Point"},"properties":{"osm_id":"4580789348","tag":{"amenity":"waste_basket"}},"type":"Feature"},
	{"geometry":{"coordinates":[11.385266,47.188158],"type":"Point"},"properties":{"osm_id":"4580789359","tag":{"amenity":"waste_basket","waste_basket:excrement_bags":"yes"}},"type":"Feature"},
	{"geometry":{"coordinates":[11.348169,47.163702],"type":"Point"},"properties":{"osm_id":"4596886279","tag":{"amenity":"waste_basket"}},"type":"Feature"},
	{"geometry":{"coordinates":[11.397228,47.202388],"type":"Point"},"properties":{"osm_id":"6329340415","tag":{"amenity":"waste_basket"}},"type":"Feature"},
	{"geometry":{"coordinates":[11.40828,47.183176],"type":"Point"},"properties":{"name":"Bau- und Recyclinghof Sch\u00c3\u00b6nberg","osm_id":"6467987692","tag":{"addr:city":"Sch\u00c3\u00b6nberg im Stubaital","addr:housenumber":"20","addr:postcode":"6141","addr:street":"Gleinserweg","amenity":"recycling","building":"yes","opening_hours":"We 16:00-18:00, Sa 08:00-11:00","recycling_type":"centre"}},"type":"Feature"},
	{"geometry":{"coordinates":[11.416024,47.214964],"type":"Point"},"properties":{"osm_id":"7880184761","tag":{"amenity":"waste_basket"}},"type":"Feature"}
]
}
