{
"type": "FeatureCollection",
"features": [
	{"geometry":{"coordinates":[11.357369,44.549275],"type":"Point"},"properties":{"osm_id":"440933630","tag":{"amenity":"recycling","location":"overground","recycling_type":"container"}},"type":"Feature"},
	{"geometry":{"coordinates":[11.357869,44.579206],"type":"Point"},"properties":{"osm_id":"3253341374","tag":{"amenity":"waste_basket"}},"type":"Feature"},
	{"geometry":{"coordinates":[11.36325,44.575073],"type":"Point"},"properties":{"osm_id":"3253341884","tag":{"amenity":"waste_basket"}},"type":"Feature"},
	{"geometry":{"coordinates":[11.36321,44.574494],"type":"Point"},"properties":{"osm_id":"3253341885","tag":{"amenity":"waste_basket"}},"type":"Feature"},
	{"geometry":{"coordinates":[11.346799,44.528483],"type":"Point"},"properties":{"osm_id":"3858383853","tag":{"amenity":"recycling"}},"type":"Feature"},
	{"geometry":{"coordinates":[11.359006,44.576733],"type":"Point"},"properties":{"osm_id":"4068303296","tag":{"amenity":"waste_basket"}},"type":"Feature"},
	{"geometry":{"coordinates":[11.35849,44.576864],"type":"Point"},"properties":{"osm_id":"4072401843","tag":{"amenity":"waste_basket"}},"type":"Feature"},
	{"geometry":{"coordinates":[11.358072,44.568956],"type":"Point"},"properties":{"osm_id":"4824854427","tag":{"amenity":"waste_disposal"}},"type":"Feature"},
	{"geometry":{"coordinates":[11.35865,44.569049],"type":"Point"},"properties":{"osm_id":"4824866325","tag":{"amenity":"waste_disposal"}},"type":"Feature"},
	{"geometry":{"coordinates":[11.358316,44.568972],"type":"Point"},"properties":{"osm_id":"4824866522","tag":{"amenity":"waste_disposal"}},"type":"Feature"},
	{"geometry":{"coordinates":[11.353092,44.532615],"type":"Point"},"properties":{"osm_id":"5839936876","tag":{"amenity":"recycling","recycling:organic":"yes","recycling:paper":"yes","recycling:plastic":"yes","recycling_type":"container"}},"type":"Feature"},
	{"geometry":{"coordinates":[11.353182,44.533291],"type":"Point"},"properties":{"osm_id":"5839936877","tag":{"amenity":"recycling","recycling:organic":"yes","recycling:paper":"yes","recycling:plastic":"yes","recycling_type":"container"}},"type":"Feature"},
	{"geometry":{"coordinates":[11.35445,44.536442],"type":"Point"},"properties":{"osm_id":"5839936880","tag":{"amenity":"recycling","recycling:organic":"yes","recycling:paper":"yes","recycling:plastic":"yes","recycling:waste":"yes","recycling_type":"container"}},"type":"Feature"},
	{"geometry":{"coordinates":[11.353079,44.536598],"type":"Point"},"properties":{"osm_id":"5839936887","tag":{"amenity":"recycling","collection_times":"00:00-24:00","recycling:glass":"yes","recycling:organic":"yes","recycling:paper":"yes","recycling:plastic":"yes","recycling:waste":"yes","recycling_type":"container"}},"type":"Feature"},
	{"geometry":{"coordinates":[11.353854,44.536045],"type":"Point"},"properties":{"osm_id":"5840045295","tag":{"amenity":"waste_basket"}},"type":"Feature"},
	{"geometry":{"coordinates":[11.352802,44.536731],"type":"Point"},"properties":{"osm_id":"5841549929","tag":{"amenity":"recycling","collection_times":"00:00-24:00","recycling:organic":"yes","recycling:paper":"yes","recycling:plastic":"yes","recycling:waste":"yes","recycling_type":"container"}},"type":"Feature"},
	{"geometry":{"coordinates":[11.352014,44.536859],"type":"Point"},"properties":{"osm_id":"5841549930","tag":{"amenity":"recycling","collection_times":"00:00-24:00","recycling:organic":"yes","recycling:paper":"yes","recycling:plastic":"yes","recycling:waste":"yes","recycling_type":"container"}},"type":"Feature"},
	{"geometry":{"coordinates":[11.354331,44.53409],"type":"Point"},"properties":{"osm_id":"5841549964","tag":{"amenity":"waste_basket"}},"type":"Feature"},
	{"geometry":{"coordinates":[11.353792,44.535169],"type":"Point"},"properties":{"osm_id":"5841550028","tag":{"amenity":"waste_basket"}},"type":"Feature"},
	{"geometry":{"coordinates":[11.353235,44.540522],"type":"Point"},"properties":{"osm_id":"5846848017","tag":{"amenity":"waste_basket"}},"type":"Feature"},
	{"geometry":{"coordinates":[11.352975,44.540484],"type":"Point"},"properties":{"osm_id":"5846848018","tag":{"amenity":"waste_basket"}},"type":"Feature"},
	{"geometry":{"coordinates":[11.352458,44.53073],"type":"Point"},"properties":{"osm_id":"5854129158","tag":{"amenity":"waste_basket","waste":"trash"}},"type":"Feature"},
	{"geometry":{"coordinates":[11.351967,44.535215],"type":"Point"},"properties":{"osm_id":"5858610587","tag":{"amenity":"waste_basket","waste":"trash"}},"type":"Feature"},
	{"geometry":{"coordinates":[11.352313,44.535376],"type":"Point"},"properties":{"osm_id":"5858610588","tag":{"amenity":"waste_basket","waste":"trash"}},"type":"Feature"},
	{"geometry":{"coordinates":[11.351173,44.535368],"type":"Point"},"properties":{"osm_id":"5858610604","tag":{"amenity":"waste_basket","waste":"trash"}},"type":"Feature"},
	{"geometry":{"coordinates":[11.357255,44.531075],"type":"Point"},"properties":{"osm_id":"6325848380","tag":{"amenity":"waste_basket","waste":"trash"}},"type":"Feature"},
	{"geometry":{"coordinates":[11.411509,44.565051],"type":"Point"},"properties":{"osm_id":"7288988328","tag":{"amenity":"recycling","operator":"Hera","recycling:glass":"yes","recycling:green_waste":"yes","recycling:paper":"yes","recycling:plastic":"yes","recycling_type":"container"}},"type":"Feature"},
	{"geometry":{"coordinates":[11.351773,44.564954],"type":"Point"},"properties":{"osm_id":"7796587843","tag":{"amenity":"waste_basket","material":"steel"}},"type":"Feature"},
	{"geometry":{"coordinates":[11.351733,44.564893],"type":"Point"},"properties":{"osm_id":"7796587844","tag":{"amenity":"waste_basket","material":"steel"}},"type":"Feature"},
	{"geometry":{"coordinates":[11.351691,44.564833],"type":"Point"},"properties":{"osm_id":"7796587845","tag":{"amenity":"waste_basket","material":"steel"}},"type":"Feature"},
	{"geometry":{"coordinates":[11.353505,44.566564],"type":"Point"},"properties":{"osm_id":"7796603590","tag":{"amenity":"waste_basket","material":"steel"}},"type":"Feature"},
	{"geometry":{"coordinates":[11.353631,44.566688],"type":"Point"},"properties":{"osm_id":"7796603591","tag":{"amenity":"waste_basket","material":"steel"}},"type":"Feature"},
	{"geometry":{"coordinates":[11.353881,44.5664],"type":"Point"},"properties":{"osm_id":"7796603592","tag":{"amenity":"waste_basket","material":"steel"}},"type":"Feature"},
	{"geometry":{"coordinates":[11.353981,44.56654],"type":"Point"},"properties":{"osm_id":"7796603593","tag":{"amenity":"waste_basket","material":"steel"}},"type":"Feature"},
	{"geometry":{"coordinates":[11.35413,44.566745],"type":"Point"},"properties":{"osm_id":"7796603594","tag":{"amenity":"waste_basket","material":"steel"}},"type":"Feature"},
	{"geometry":{"coordinates":[11.354269,44.566939],"type":"Point"},"properties":{"osm_id":"7796603595","tag":{"amenity":"waste_basket","material":"steel"}},"type":"Feature"},
	{"geometry":{"coordinates":[11.353821,44.566876],"type":"Point"},"properties":{"osm_id":"7796603596","tag":{"amenity":"waste_basket","material":"steel"}},"type":"Feature"},
	{"geometry":{"coordinates":[11.354002,44.567055],"type":"Point"},"properties":{"osm_id":"7796603597","tag":{"amenity":"waste_basket","material":"steel"}},"type":"Feature"},
	{"geometry":{"coordinates":[11.356158,44.570038],"type":"Point"},"properties":{"osm_id":"7796603598","tag":{"amenity":"waste_basket","material":"steel"}},"type":"Feature"},
	{"geometry":{"coordinates":[11.356235,44.570011],"type":"Point"},"properties":{"osm_id":"7796603599","tag":{"amenity":"waste_basket","material":"steel"}},"type":"Feature"},
	{"geometry":{"coordinates":[11.35624,44.569955],"type":"Point"},"properties":{"osm_id":"7796603600","tag":{"amenity":"waste_basket","material":"steel"}},"type":"Feature"},
	{"geometry":{"coordinates":[11.356168,44.569918],"type":"Point"},"properties":{"osm_id":"7796603601","tag":{"amenity":"waste_basket","material":"steel"}},"type":"Feature"},
	{"geometry":{"coordinates":[11.352964,44.570595],"type":"Point"},"properties":{"osm_id":"7849169940","tag":{"amenity":"waste_basket"}},"type":"Feature"},
	{"geometry":{"coordinates":[11.353092,44.570539],"type":"Point"},"properties":{"osm_id":"7849169941","tag":{"amenity":"waste_basket"}},"type":"Feature"},
	{"geometry":{"coordinates":[11.352753,44.570343],"type":"Point"},"properties":{"osm_id":"7849169942","tag":{"amenity":"waste_basket"}},"type":"Feature"},
	{"geometry":{"coordinates":[11.352886,44.570288],"type":"Point"},"properties":{"osm_id":"7849169943","tag":{"amenity":"waste_basket"}},"type":"Feature"}
]
}
