{
"type": "FeatureCollection",
"features": [
	{"geometry":{"coordinates":[11.3487,44.513679],"type":"Point"},"properties":{"osm_id":"614592160","tag":{"amenity":"recycling"}},"type":"Feature"},
	{"geometry":{"coordinates":[11.369856,44.498353],"type":"Point"},"properties":{"osm_id":"776164951","tag":{"amenity":"recycling"}},"type":"Feature"},
	{"geometry":{"coordinates":[11.392058,44.473501],"type":"Point"},"properties":{"osm_id":"1745980038","tag":{"amenity":"waste_basket"}},"type":"Feature"},
	{"geometry":{"coordinates":[11.348885,44.512096],"type":"Point"},"properties":{"osm_id":"2298235718","tag":{"amenity":"recycling","recycling:glass":"yes","recycling:paper":"yes","recycling:plastic":"yes","recycling:waste":"yes"}},"type":"Feature"},
	{"geometry":{"coordinates":[11.343137,44.4876],"type":"Point"},"properties":{"name":"raccattaraee.net","osm_id":"2303794112","tag":{"amenity":"recycling","recycling:batteries":"no","recycling:books":"no","recycling:cans":"no","recycling:cardboard":"no","recycling:cartons":"no","recycling:clothes":"no","recycling:electrical_appliances":"yes","recycling:glass":"no","recycling:glass_bottles":"no","recycling:green_waste":"no","recycling:magazines":"no","recycling:newspaper":"no","recycling:paper":"no","recycling:paper_packaging":"no","recycling:plastic":"no","recycling:plastic_bottles":"no","recycling:plastic_packaging":"no","recycling:scrap_metal":"no","recycling:small_appliances":"no","recycling:waste":"no","recycling:wood":"no","recycling_type":"centre"}},"type":"Feature"},
	{"geometry":{"coordinates":[11.363194,44.492756],"type":"Point"},"properties":{"osm_id":"2933390546","tag":{"amenity":"recycling","location":"overground","recycling:glass":"yes","recycling:paper":"yes","recycling_type":"container"}},"type":"Feature"},
	{"geometry":{"coordinates":[11.361195,44.493034],"type":"Point"},"properties":{"osm_id":"2941511232","tag":{"amenity":"recycling","recycling:glass":"yes","recycling:paper":"yes"}},"type":"Feature"},
	{"geometry":{"coordinates":[11.362221,44.492749],"type":"Point"},"properties":{"osm_id":"2941511234","tag":{"amenity":"recycling","recycling:glass":"yes","recycling:paper":"yes"}},"type":"Feature"},
	{"geometry":{"coordinates":[11.35768,44.493957],"type":"Point"},"properties":{"osm_id":"2942598053","tag":{"amenity":"recycling","recycling:glass":"yes","recycling:paper":"yes"}},"type":"Feature"},
	{"geometry":{"coordinates":[11.351702,44.493104],"type":"Point"},"properties":{"osm_id":"3164243835","tag":{"amenity":"recycling","recycling:glass":"yes","recycling_type":"container"}},"type":"Feature"},
	{"geometry":{"coordinates":[11.360941,44.49883],"type":"Point"},"properties":{"osm_id":"3182706324","tag":{"amenity":"recycling","recycling:paper":"yes","recycling_type":"container"}},"type":"Feature"},
	{"geometry":{"coordinates":[11.359426,44.498232],"type":"Point"},"properties":{"osm_id":"3182706332","tag":{"amenity":"recycling","location":"overground","recycling:glass":"yes","recycling:paper":"yes","recycling_type":"container"}},"type":"Feature"},
	{"geometry":{"coordinates":[11.359482,44.497193],"type":"Point"},"properties":{"osm_id":"3182706341","tag":{"amenity":"recycling","location":"overground","recycling:cans":"no","recycling:glass":"yes","recycling:organic_waste":"yes","recycling:paper":"yes","recycling:plastic":"yes","recycling_type":"container"}},"type":"Feature"},
	{"geometry":{"coordinates":[11.360077,44.499635],"type":"Point"},"properties":{"osm_id":"3182706357","tag":{"amenity":"recycling","recycling:glass":"yes","recycling:paper":"yes","recycling_type":"container"}},"type":"Feature"},
	{"geometry":{"coordinates":[11.358613,44.499404],"type":"Point"},"properties":{"osm_id":"3184206300","tag":{"amenity":"recycling","recycling:clothes":"yes","recycling:glass":"yes","recycling:paper":"yes","recycling_type":"container"}},"type":"Feature"},
	{"geometry":{"coordinates":[11.367058,44.494395],"type":"Point"},"properties":{"osm_id":"3190973933","tag":{"amenity":"recycling","recycling:paper":"yes"}},"type":"Feature"},
	{"geometry":{"coordinates":[11.367105,44.494796],"type":"Point"},"properties":{"osm_id":"3190973934","tag":{"amenity":"recycling","recycling:glass":"yes","recycling:paper":"yes"}},"type":"Feature"},
	{"geometry":{"coordinates":[11.36633,44.496199],"type":"Point"},"properties":{"osm_id":"3190973935","tag":{"amenity":"recycling","recycling:paper":"yes"}},"type":"Feature"},
	{"geometry":{"coordinates":[11.349391,44.493434],"type":"Point"},"properties":{"osm_id":"3197030820","tag":{"amenity":"recycling","recycling:cans":"yes","recycling:glass":"yes","recycling:glass_bottles":"yes","recycling:organic_waste":"yes"}},"type":"Feature"},
	{"geometry":{"coordinates":[11.365832,44.494988],"type":"Point"},"properties":{"osm_id":"3249582607","tag":{"amenity":"recycling","recycling:paper":"yes"}},"type":"Feature"},
	{"geometry":{"coordinates":[11.365702,44.494953],"type":"Point"},"properties":{"osm_id":"3249582608","tag":{"amenity":"recycling","recycling:clothes":"yes","recycling:glass":"yes","recycling:paper":"yes"}},"type":"Feature"},
	{"geometry":{"coordinates":[11.365877,44.494649],"type":"Point"},"properties":{"osm_id":"3249582609","tag":{"amenity":"recycling","recycling:glass":"yes","recycling:paper":"yes"}},"type":"Feature"},
	{"geometry":{"coordinates":[11.362153,44.499673],"type":"Point"},"properties":{"osm_id":"3394039536","tag":{"amenity":"recycling","recycling:cans":"yes","recycling:paper":"yes"}},"type":"Feature"},
	{"geometry":{"coordinates":[11.361958,44.500048],"type":"Point"},"properties":{"osm_id":"3394039537","tag":{"amenity":"recycling","recycling:glass":"yes"}},"type":"Feature"},
	{"geometry":{"coordinates":[11.360431,44.500515],"type":"Point"},"properties":{"osm_id":"3394039538","tag":{"amenity":"recycling","recycling:cans":"yes","recycling:paper":"yes"}},"type":"Feature"},
	{"geometry":{"coordinates":[11.363696,44.492395],"type":"Point"},"properties":{"osm_id":"3615364704","tag":{"amenity":"recycling","recycling:glass":"yes","recycling:paper":"yes"}},"type":"Feature"},
	{"geometry":{"coordinates":[11.344613,44.494368],"type":"Point"},"properties":{"osm_id":"3645848571","tag":{"amenity":"recycling","recycling:glass":"yes","recycling:paper":"yes"}},"type":"Feature"},
	{"geometry":{"coordinates":[11.344465,44.495903],"type":"Point"},"properties":{"osm_id":"3788304283","tag":{"amenity":"recycling"}},"type":"Feature"},
	{"geometry":{"coordinates":[11.350879,44.519956],"type":"Point"},"properties":{"name":"Raccolta indumenti usati","osm_id":"3799143551","tag":{"addr:city":"Bologna","addr:postcode":"40128","addr:street":"Via Alfredo Calzolari","amenity":"recycling","recycling:clothes":"yes","recycling_type":"container"}},"type":"Feature"},
	{"geometry":{"coordinates":[11.353529,44.51778],"type":"Point"},"properties":{"name":"Raccolta ndumenti usati","osm_id":"3799143552","tag":{"addr:city":"Bologna","addr:postcode":"40128","addr:street":"Via Vittorio Alfieri","amenity":"recycling","recycling:clothes":"yes","recycling_type":"container"}},"type":"Feature"},
	{"geometry":{"coordinates":[11.352333,44.51581],"type":"Point"},"properties":{"name":"Raccolta ndumenti usati","osm_id":"3799143553","tag":{"addr:city":"Bologna","addr:postcode":"40128","addr:street":"Via Alfonso Lombardi","amenity":"recycling","recycling:clothes":"yes","recycling_type":"container"}},"type":"Feature"},
	{"geometry":{"coordinates":[11.34017,44.509176],"type":"Point"},"properties":{"osm_id":"3852773103","tag":{"amenity":"waste_basket"}},"type":"Feature"},
	{"geometry":{"coordinates":[11.339604,44.509477],"type":"Point"},"properties":{"osm_id":"3852773108","tag":{"amenity":"waste_basket"}},"type":"Feature"},
	{"geometry":{"coordinates":[11.340199,44.509491],"type":"Point"},"properties":{"osm_id":"3852773110","tag":{"amenity":"waste_basket"}},"type":"Feature"},
	{"geometry":{"coordinates":[11.340934,44.509613],"type":"Point"},"properties":{"osm_id":"3852773113","tag":{"amenity":"waste_disposal"}},"type":"Feature"},
	{"geometry":{"coordinates":[11.340084,44.509678],"type":"Point"},"properties":{"osm_id":"3852773117","tag":{"amenity":"waste_basket"}},"type":"Feature"},
	{"geometry":{"coordinates":[11.340322,44.510061],"type":"Point"},"properties":{"osm_id":"3852773124","tag":{"amenity":"waste_basket"}},"type":"Feature"},
	{"geometry":{"coordinates":[11.34788,44.504897],"type":"Point"},"properties":{"osm_id":"3854979790","tag":{"amenity":"recycling","location":"overground","recycling:cans":"yes","recycling:glass_bottles":"yes","recycling:green_waste":"yes","recycling:paper":"yes","recycling:plastic":"yes","recycling_type":"container"}},"type":"Feature"},
	{"geometry":{"coordinates":[11.345685,44.504534],"type":"Point"},"properties":{"osm_id":"3854979791","tag":{"amenity":"waste_basket"}},"type":"Feature"},
	{"geometry":{"coordinates":[11.345381,44.504184],"type":"Point"},"properties":{"osm_id":"3854992304","tag":{"amenity":"waste_basket"}},"type":"Feature"},
	{"geometry":{"coordinates":[11.345809,44.504835],"type":"Point"},"properties":{"osm_id":"3854992305","tag":{"amenity":"waste_basket"}},"type":"Feature"},
	{"geometry":{"coordinates":[11.345565,44.50444],"type":"Point"},"properties":{"osm_id":"3854992306","tag":{"amenity":"waste_basket"}},"type":"Feature"},
	{"geometry":{"coordinates":[11.345425,44.504344],"type":"Point"},"properties":{"osm_id":"3854992308","tag":{"amenity":"waste_basket"}},"type":"Feature"},
	{"geometry":{"coordinates":[11.342536,44.51867],"type":"Point"},"properties":{"osm_id":"3858383838","tag":{"amenity":"recycling"}},"type":"Feature"},
	{"geometry":{"coordinates":[11.34353,44.51519],"type":"Point"},"properties":{"osm_id":"3858383839","tag":{"amenity":"recycling"}},"type":"Feature"},
	{"geometry":{"coordinates":[11.345688,44.515087],"type":"Point"},"properties":{"osm_id":"3858383840","tag":{"amenity":"recycling"}},"type":"Feature"},
	{"geometry":{"coordinates":[11.345955,44.513125],"type":"Point"},"properties":{"osm_id":"3858383841","tag":{"amenity":"recycling","recycling_type":"container"}},"type":"Feature"},
	{"geometry":{"coordinates":[11.345268,44.525259],"type":"Point"},"properties":{"osm_id":"3858383843","tag":{"amenity":"recycling"}},"type":"Feature"},
	{"geometry":{"coordinates":[11.345775,44.526603],"type":"Point"},"properties":{"osm_id":"3858383844","tag":{"amenity":"recycling"}},"type":"Feature"},
	{"geometry":{"coordinates":[11.347117,44.523942],"type":"Point"},"properties":{"osm_id":"3858383845","tag":{"amenity":"recycling"}},"type":"Feature"},
	{"geometry":{"coordinates":[11.34815,44.522401],"type":"Point"},"properties":{"osm_id":"3858383846","tag":{"amenity":"recycling"}},"type":"Feature"},
	{"geometry":{"coordinates":[11.341826,44.517877],"type":"Point"},"properties":{"osm_id":"3858383847","tag":{"amenity":"recycling","location":"overground","recycling_type":"container"}},"type":"Feature"},
	{"geometry":{"coordinates":[11.344239,44.515155],"type":"Point"},"properties":{"osm_id":"3858383848","tag":{"amenity":"recycling"}},"type":"Feature"},
	{"geometry":{"coordinates":[11.346653,44.515044],"type":"Point"},"properties":{"osm_id":"3858383849","tag":{"amenity":"recycling"}},"type":"Feature"},
	{"geometry":{"coordinates":[11.33848,44.518437],"type":"Point"},"properties":{"osm_id":"3858383851","tag":{"amenity":"recycling"}},"type":"Feature"},
	{"geometry":{"coordinates":[11.34705,44.525139],"type":"Point"},"properties":{"osm_id":"3858383852","tag":{"amenity":"recycling"}},"type":"Feature"},
	{"geometry":{"coordinates":[11.34832,44.523611],"type":"Point"},"properties":{"osm_id":"3858383854","tag":{"amenity":"recycling"}},"type":"Feature"},
	{"geometry":{"coordinates":[11.342997,44.519168],"type":"Point"},"properties":{"osm_id":"3858383855","tag":{"amenity":"recycling"}},"type":"Feature"},
	{"geometry":{"coordinates":[11.342638,44.51523],"type":"Point"},"properties":{"osm_id":"3858383856","tag":{"amenity":"recycling"}},"type":"Feature"},
	{"geometry":{"coordinates":[11.344679,44.515135],"type":"Point"},"properties":{"osm_id":"3858384357","tag":{"amenity":"recycling"}},"type":"Feature"},
	{"geometry":{"coordinates":[11.347418,44.515011],"type":"Point"},"properties":{"osm_id":"3858384358","tag":{"amenity":"recycling","location":"overground","recycling_type":"container"}},"type":"Feature"},
	{"geometry":{"coordinates":[11.345379,44.525253],"type":"Point"},"properties":{"osm_id":"3858384360","tag":{"amenity":"recycling"}},"type":"Feature"},
	{"geometry":{"coordinates":[11.348568,44.524713],"type":"Point"},"properties":{"osm_id":"3858384361","tag":{"amenity":"recycling"}},"type":"Feature"},
	{"geometry":{"coordinates":[11.346067,44.524246],"type":"Point"},"properties":{"osm_id":"3858384362","tag":{"amenity":"recycling"}},"type":"Feature"},
	{"geometry":{"coordinates":[11.348288,44.52229],"type":"Point"},"properties":{"osm_id":"3858384363","tag":{"amenity":"recycling"}},"type":"Feature"},
	{"geometry":{"coordinates":[11.341858,44.513548],"type":"Point"},"properties":{"osm_id":"3858713709","tag":{"amenity":"recycling"}},"type":"Feature"},
	{"geometry":{"coordinates":[11.342499,44.513626],"type":"Point"},"properties":{"osm_id":"3858713710","tag":{"amenity":"recycling"}},"type":"Feature"},
	{"geometry":{"coordinates":[11.34195,44.515353],"type":"Point"},"properties":{"osm_id":"3858713711","tag":{"amenity":"recycling"}},"type":"Feature"},
	{"geometry":{"coordinates":[11.340352,44.515467],"type":"Point"},"properties":{"osm_id":"3858713712","tag":{"amenity":"recycling"}},"type":"Feature"},
	{"geometry":{"coordinates":[11.339651,44.515497],"type":"Point"},"properties":{"osm_id":"3858713713","tag":{"amenity":"recycling"}},"type":"Feature"},
	{"geometry":{"coordinates":[11.33839,44.515588],"type":"Point"},"properties":{"osm_id":"3858713714","tag":{"amenity":"recycling"}},"type":"Feature"},
	{"geometry":{"coordinates":[11.347013,44.515861],"type":"Point"},"properties":{"osm_id":"3858713716","tag":{"amenity":"recycling","location":"overground","recycling_type":"container"}},"type":"Feature"},
	{"geometry":{"coordinates":[11.346169,44.515894],"type":"Point"},"properties":{"osm_id":"3858713717","tag":{"amenity":"recycling","location":"overground","recycling_type":"container"}},"type":"Feature"},
	{"geometry":{"coordinates":[11.345564,44.515912],"type":"Point"},"properties":{"osm_id":"3858713718","tag":{"amenity":"recycling","location":"overground","recycling_type":"container"}},"type":"Feature"},
	{"geometry":{"coordinates":[11.344815,44.515944],"type":"Point"},"properties":{"osm_id":"3858713719","tag":{"amenity":"recycling","location":"overground","recycling:cans":"yes","recycling:glass_bottles":"yes","recycling:green_waste":"yes","recycling:paper":"yes","recycling:plastic":"no","recycling:plastic_packaging":"yes","recycling_type":"container"}},"type":"Feature"},
	{"geometry":{"coordinates":[11.343886,44.515974],"type":"Point"},"properties":{"osm_id":"3858713720","tag":{"amenity":"recycling","location":"overground","recycling_type":"container"}},"type":"Feature"},
	{"geometry":{"coordinates":[11.342753,44.516023],"type":"Point"},"properties":{"osm_id":"3858713721","tag":{"amenity":"recycling","location":"overground","recycling_type":"container"}},"type":"Feature"},
	{"geometry":{"coordinates":[11.346991,44.516498],"type":"Point"},"properties":{"osm_id":"3858713722","tag":{"amenity":"recycling","location":"overground","recycling:cans":"yes","recycling:glass_bottles":"yes","recycling:green_waste":"yes","recycling:paper":"yes","recycling:plastic":"no","recycling:plastic_packaging":"yes","recycling_type":"container"}},"type":"Feature"},
	{"geometry":{"coordinates":[11.345677,44.51662],"type":"Point"},"properties":{"osm_id":"3858713723","tag":{"amenity":"recycling","location":"overground","recycling:cans":"yes","recycling:glass_bottles":"yes","recycling:green_waste":"yes","recycling:paper":"yes","recycling:plastic":"no","recycling:plastic_packaging":"yes","recycling_type":"container"}},"type":"Feature"},
	{"geometry":{"coordinates":[11.344759,44.516624],"type":"Point"},"properties":{"osm_id":"3858713724","tag":{"amenity":"recycling","location":"overground","recycling:cans":"yes","recycling:glass_bottles":"yes","recycling:green_waste":"yes","recycling:paper":"yes","recycling:plastic":"no","recycling:plastic_packaging":"yes","recycling_type":"container"}},"type":"Feature"},
	{"geometry":{"coordinates":[11.342976,44.516722],"type":"Point"},"properties":{"osm_id":"3858713725","tag":{"amenity":"recycling","location":"overground","recycling:cans":"yes","recycling:glass_bottles":"yes","recycling:green_waste":"yes","recycling:paper":"yes","recycling:plastic":"no","recycling:plastic_packaging":"yes","recycling_type":"container"}},"type":"Feature"},
	{"geometry":{"coordinates":[11.340639,44.517291],"type":"Point"},"properties":{"osm_id":"3858713726","tag":{"amenity":"recycling"}},"type":"Feature"},
	{"geometry":{"coordinates":[11.340695,44.518093],"type":"Point"},"properties":{"osm_id":"3858713727","tag":{"amenity":"recycling"}},"type":"Feature"},
	{"geometry":{"coordinates":[11.339327,44.51867],"type":"Point"},"properties":{"osm_id":"3858713728","tag":{"amenity":"recycling"}},"type":"Feature"},
	{"geometry":{"coordinates":[11.341184,44.518692],"type":"Point"},"properties":{"osm_id":"3858713729","tag":{"amenity":"recycling"}},"type":"Feature"},
	{"geometry":{"coordinates":[11.340717,44.519556],"type":"Point"},"properties":{"osm_id":"3858713730","tag":{"amenity":"recycling"}},"type":"Feature"},
	{"geometry":{"coordinates":[11.342454,44.51982],"type":"Point"},"properties":{"osm_id":"3858713731","tag":{"amenity":"recycling"}},"type":"Feature"},
	{"geometry":{"coordinates":[11.341276,44.519911],"type":"Point"},"properties":{"osm_id":"3858713732","tag":{"amenity":"recycling"}},"type":"Feature"},
	{"geometry":{"coordinates":[11.343406,44.520243],"type":"Point"},"properties":{"osm_id":"3858713733","tag":{"amenity":"recycling"}},"type":"Feature"},
	{"geometry":{"coordinates":[11.340608,44.520536],"type":"Point"},"properties":{"osm_id":"3858713734","tag":{"amenity":"recycling"}},"type":"Feature"},
	{"geometry":{"coordinates":[11.343746,44.520654],"type":"Point"},"properties":{"osm_id":"3858713735","tag":{"amenity":"recycling"}},"type":"Feature"},
	{"geometry":{"coordinates":[11.345325,44.524456],"type":"Point"},"properties":{"osm_id":"3858713736","tag":{"amenity":"recycling"}},"type":"Feature"},
	{"geometry":{"coordinates":[11.347939,44.524883],"type":"Point"},"properties":{"osm_id":"3858713737","tag":{"amenity":"recycling"}},"type":"Feature"},
	{"geometry":{"coordinates":[11.346295,44.525351],"type":"Point"},"properties":{"osm_id":"3858713738","tag":{"amenity":"recycling"}},"type":"Feature"},
	{"geometry":{"coordinates":[11.342946,44.525898],"type":"Point"},"properties":{"osm_id":"3858713739","tag":{"amenity":"recycling"}},"type":"Feature"},
	{"geometry":{"coordinates":[11.342299,44.501952],"type":"Point"},"properties":{"osm_id":"3860552983","tag":{"amenity":"waste_basket"}},"type":"Feature"},
	{"geometry":{"coordinates":[11.342463,44.501928],"type":"Point"},"properties":{"osm_id":"3860552986","tag":{"amenity":"recycling","recycling:cans":"yes","recycling:clothes":"no","recycling:glass_bottles":"yes","recycling:paper":"no","recycling:plastic":"no","recycling_type":"container"}},"type":"Feature"},
	{"geometry":{"coordinates":[11.346239,44.507109],"type":"Point"},"properties":{"osm_id":"3860733524","tag":{"amenity":"recycling","recycling:cans":"yes","recycling:clothes":"no","recycling:glass":"yes","recycling:paper":"yes","recycling:plastic":"yes","recycling_type":"container"}},"type":"Feature"},
	{"geometry":{"coordinates":[11.346321,44.507394],"type":"Point"},"properties":{"osm_id":"3860733525","tag":{"amenity":"recycling","location":"overground","recycling:cans":"yes","recycling:glass_bottles":"yes","recycling:green_waste":"yes","recycling:paper":"yes","recycling:plastic":"yes","recycling_type":"container"}},"type":"Feature"},
	{"geometry":{"coordinates":[11.38275,44.494509],"type":"Point"},"properties":{"osm_id":"3905378103","tag":{"amenity":"waste_disposal"}},"type":"Feature"},
	{"geometry":{"coordinates":[11.390521,44.482503],"type":"Point"},"properties":{"osm_id":"3952785256","tag":{"addr:city":"Bologna","addr:postcode":"40139","addr:street":"Viale Abramo Lincoln","amenity":"recycling","operator":"HERA","recycling:paper":"yes","recycling:plastic":"yes","recycling_type":"container"}},"type":"Feature"},
	{"geometry":{"coordinates":[11.390945,44.481639],"type":"Point"},"properties":{"osm_id":"3952788464","tag":{"addr:city":"Bologna","addr:postcode":"40139","addr:street":"Viale Abramo Lincoln","amenity":"recycling","operator":"HERA","recycling:cans":"yes","recycling:clothes":"yes","recycling:glass":"yes","recycling:glass_bottles":"yes","recycling:paper":"yes","recycling:plastic":"yes","recycling_type":"container"}},"type":"Feature"},
	{"geometry":{"coordinates":[11.363841,44.487562],"type":"Point"},"properties":{"osm_id":"3996423157","tag":{"amenity":"recycling"}},"type":"Feature"},
	{"geometry":{"coordinates":[11.362391,44.487876],"type":"Point"},"properties":{"osm_id":"3996423158","tag":{"amenity":"recycling","recycling_type":"container"}},"type":"Feature"},
	{"geometry":{"coordinates":[11.35939,44.483797],"type":"Point"},"properties":{"osm_id":"3996423162","tag":{"amenity":"recycling"}},"type":"Feature"},
	{"geometry":{"coordinates":[11.359353,44.482495],"type":"Point"},"properties":{"osm_id":"3996423163","tag":{"amenity":"recycling"}},"type":"Feature"},
	{"geometry":{"coordinates":[11.359971,44.482251],"type":"Point"},"properties":{"osm_id":"3996488962","tag":{"amenity":"recycling"}},"type":"Feature"},
	{"geometry":{"coordinates":[11.359824,44.48217],"type":"Point"},"properties":{"osm_id":"3996488963","tag":{"amenity":"recycling"}},"type":"Feature"},
	{"geometry":{"coordinates":[11.362346,44.480884],"type":"Point"},"properties":{"osm_id":"3996488970","tag":{"amenity":"recycling"}},"type":"Feature"},
	{"geometry":{"coordinates":[11.361136,44.480813],"type":"Point"},"properties":{"osm_id":"3996488971","tag":{"amenity":"recycling"}},"type":"Feature"},
	{"geometry":{"coordinates":[11.364503,44.479398],"type":"Point"},"properties":{"osm_id":"3996488972","tag":{"amenity":"recycling"}},"type":"Feature"},
	{"geometry":{"coordinates":[11.366803,44.478739],"type":"Point"},"properties":{"osm_id":"3996488982","tag":{"amenity":"recycling"}},"type":"Feature"},
	{"geometry":{"coordinates":[11.367502,44.478669],"type":"Point"},"properties":{"osm_id":"3996488983","tag":{"amenity":"recycling"}},"type":"Feature"},
	{"geometry":{"coordinates":[11.367897,44.479189],"type":"Point"},"properties":{"osm_id":"3996488984","tag":{"amenity":"recycling"}},"type":"Feature"},
	{"geometry":{"coordinates":[11.367019,44.478017],"type":"Point"},"properties":{"osm_id":"3996488985","tag":{"amenity":"recycling"}},"type":"Feature"},
	{"geometry":{"coordinates":[11.365686,44.477885],"type":"Point"},"properties":{"osm_id":"3996488986","tag":{"amenity":"recycling"}},"type":"Feature"},
	{"geometry":{"coordinates":[11.367316,44.476909],"type":"Point"},"properties":{"osm_id":"3996488989","tag":{"amenity":"recycling"}},"type":"Feature"},
	{"geometry":{"coordinates":[11.368519,44.47515],"type":"Point"},"properties":{"osm_id":"3996488994","tag":{"amenity":"recycling"}},"type":"Feature"},
	{"geometry":{"coordinates":[11.368785,44.474892],"type":"Point"},"properties":{"osm_id":"3996488995","tag":{"amenity":"recycling"}},"type":"Feature"},
	{"geometry":{"coordinates":[11.370106,44.474599],"type":"Point"},"properties":{"osm_id":"3996488996","tag":{"amenity":"recycling"}},"type":"Feature"},
	{"geometry":{"coordinates":[11.370413,44.474943],"type":"Point"},"properties":{"osm_id":"3996488997","tag":{"amenity":"recycling"}},"type":"Feature"},
	{"geometry":{"coordinates":[11.371064,44.475634],"type":"Point"},"properties":{"osm_id":"3996488998","tag":{"amenity":"recycling"}},"type":"Feature"},
	{"geometry":{"coordinates":[11.371907,44.475321],"type":"Point"},"properties":{"osm_id":"3996488999","tag":{"amenity":"recycling"}},"type":"Feature"},
	{"geometry":{"coordinates":[11.372807,44.476119],"type":"Point"},"properties":{"osm_id":"3996489000","tag":{"amenity":"recycling"}},"type":"Feature"},
	{"geometry":{"coordinates":[11.371665,44.476287],"type":"Point"},"properties":{"osm_id":"3996489001","tag":{"amenity":"recycling"}},"type":"Feature"},
	{"geometry":{"coordinates":[11.374259,44.476557],"type":"Point"},"properties":{"osm_id":"3996489006","tag":{"amenity":"recycling"}},"type":"Feature"},
	{"geometry":{"coordinates":[11.375663,44.474573],"type":"Point"},"properties":{"osm_id":"3996489077","tag":{"amenity":"recycling"}},"type":"Feature"},
	{"geometry":{"coordinates":[11.375548,44.475522],"type":"Point"},"properties":{"osm_id":"3996489078","tag":{"amenity":"recycling"}},"type":"Feature"},
	{"geometry":{"coordinates":[11.37578,44.475826],"type":"Point"},"properties":{"osm_id":"3996489085","tag":{"amenity":"recycling"}},"type":"Feature"},
	{"geometry":{"coordinates":[11.374646,44.476079],"type":"Point"},"properties":{"osm_id":"3996489086","tag":{"amenity":"recycling"}},"type":"Feature"},
	{"geometry":{"coordinates":[11.377861,44.475714],"type":"Point"},"properties":{"osm_id":"3996489112","tag":{"amenity":"recycling"}},"type":"Feature"},
	{"geometry":{"coordinates":[11.378567,44.475933],"type":"Point"},"properties":{"osm_id":"3996489113","tag":{"amenity":"recycling"}},"type":"Feature"},
	{"geometry":{"coordinates":[11.378836,44.47588],"type":"Point"},"properties":{"osm_id":"3996489118","tag":{"amenity":"recycling"}},"type":"Feature"},
	{"geometry":{"coordinates":[11.375262,44.476524],"type":"Point"},"properties":{"osm_id":"3996489119","tag":{"amenity":"recycling"}},"type":"Feature"},
	{"geometry":{"coordinates":[11.367115,44.473448],"type":"Point"},"properties":{"osm_id":"3996506059","tag":{"amenity":"recycling"}},"type":"Feature"},
	{"geometry":{"coordinates":[11.367151,44.472472],"type":"Point"},"properties":{"osm_id":"3996506060","tag":{"amenity":"recycling"}},"type":"Feature"},
	{"geometry":{"coordinates":[11.368012,44.471733],"type":"Point"},"properties":{"osm_id":"3996506061","tag":{"amenity":"recycling"}},"type":"Feature"},
	{"geometry":{"coordinates":[11.365205,44.472219],"type":"Point"},"properties":{"osm_id":"3996506062","tag":{"amenity":"recycling"}},"type":"Feature"},
	{"geometry":{"coordinates":[11.365403,44.471664],"type":"Point"},"properties":{"osm_id":"3996506063","tag":{"amenity":"recycling"}},"type":"Feature"},
	{"geometry":{"coordinates":[11.367473,44.470814],"type":"Point"},"properties":{"osm_id":"3996506064","tag":{"amenity":"recycling"}},"type":"Feature"},
	{"geometry":{"coordinates":[11.366396,44.469824],"type":"Point"},"properties":{"osm_id":"3996506065","tag":{"amenity":"recycling"}},"type":"Feature"},
	{"geometry":{"coordinates":[11.37099,44.469883],"type":"Point"},"properties":{"osm_id":"3996506095","tag":{"amenity":"recycling"}},"type":"Feature"},
	{"geometry":{"coordinates":[11.371678,44.470126],"type":"Point"},"properties":{"osm_id":"3996506096","tag":{"amenity":"recycling","recycling:green_waste":"yes","recycling:paper":"yes","recycling:plastic":"yes","recycling:waste":"yes","recycling_type":"container"}},"type":"Feature"},
	{"geometry":{"coordinates":[11.371064,44.470716],"type":"Point"},"properties":{"osm_id":"3996506097","tag":{"amenity":"recycling","recycling:green_waste":"yes","recycling:paper":"yes","recycling:plastic":"yes","recycling_type":"container"}},"type":"Feature"},
	{"geometry":{"coordinates":[11.370696,44.471216],"type":"Point"},"properties":{"osm_id":"3996506098","tag":{"amenity":"recycling","recycling:newspaper":"yes","recycling:plastic_bottles":"yes"}},"type":"Feature"},
	{"geometry":{"coordinates":[11.369251,44.471135],"type":"Point"},"properties":{"osm_id":"3996506102","tag":{"amenity":"recycling","recycling:glass":"yes","recycling:newspaper":"yes","recycling:plastic":"yes"}},"type":"Feature"},
	{"geometry":{"coordinates":[11.369504,44.471352],"type":"Point"},"properties":{"osm_id":"3996506103","tag":{"amenity":"recycling","recycling:newspaper":"yes","recycling:plastic":"yes"}},"type":"Feature"},
	{"geometry":{"coordinates":[11.368955,44.470769],"type":"Point"},"properties":{"osm_id":"3996506104","tag":{"amenity":"recycling"}},"type":"Feature"},
	{"geometry":{"coordinates":[11.400241,44.514264],"type":"Point"},"properties":{"osm_id":"4017231036","tag":{"amenity":"recycling","recycling:batteries":"yes","recycling:small_appliances":"yes","recycling_type":"container"}},"type":"Feature"},
	{"geometry":{"coordinates":[11.343253,44.512232],"type":"Point"},"properties":{"osm_id":"4019047890","tag":{"amenity":"recycling","location":"overground","recycling_type":"container"}},"type":"Feature"},
	{"geometry":{"coordinates":[11.343456,44.512895],"type":"Point"},"properties":{"osm_id":"4019047891","tag":{"amenity":"recycling"}},"type":"Feature"},
	{"geometry":{"coordinates":[11.357341,44.484069],"type":"Point"},"properties":{"osm_id":"4035347537","tag":{"amenity":"recycling"}},"type":"Feature"},
	{"geometry":{"coordinates":[11.357544,44.483594],"type":"Point"},"properties":{"osm_id":"4035347538","tag":{"amenity":"recycling"}},"type":"Feature"},
	{"geometry":{"coordinates":[11.358037,44.497927],"type":"Point"},"properties":{"osm_id":"4314606329","tag":{"amenity":"recycling","location":"overground","recycling:cans":"yes","recycling:glass":"yes","recycling:organic":"yes","recycling:paper":"yes","recycling:plastic":"yes","recycling_type":"container"}},"type":"Feature"},
	{"geometry":{"coordinates":[11.390451,44.498447],"type":"Point"},"properties":{"osm_id":"4361118989","tag":{"amenity":"waste_disposal"}},"type":"Feature"},
	{"geometry":{"coordinates":[11.344941,44.503405],"type":"Point"},"properties":{"osm_id":"4708401190","tag":{"amenity":"waste_disposal"}},"type":"Feature"},
	{"geometry":{"coordinates":[11.344798,44.503699],"type":"Point"},"properties":{"osm_id":"4708404989","tag":{"amenity":"waste_disposal"}},"type":"Feature"},
	{"geometry":{"coordinates":[11.3695,44.473942],"type":"Point"},"properties":{"osm_id":"4741869236","tag":{"amenity":"recycling","recycling_type":"container"}},"type":"Feature"},
	{"geometry":{"coordinates":[11.360468,44.47824],"type":"Point"},"properties":{"osm_id":"4743268990","tag":{"amenity":"recycling","recycling_type":"container"}},"type":"Feature"},
	{"geometry":{"coordinates":[11.361286,44.478573],"type":"Point"},"properties":{"osm_id":"4743268991","tag":{"amenity":"recycling","recycling_type":"container"}},"type":"Feature"},
	{"geometry":{"coordinates":[11.35964,44.478531],"type":"Point"},"properties":{"osm_id":"4743268992","tag":{"amenity":"recycling","recycling_type":"container"}},"type":"Feature"},
	{"geometry":{"coordinates":[11.359418,44.477916],"type":"Point"},"properties":{"osm_id":"4743268993","tag":{"amenity":"recycling","recycling_type":"container"}},"type":"Feature"},
	{"geometry":{"coordinates":[11.356072,44.47707],"type":"Point"},"properties":{"osm_id":"4743268994","tag":{"amenity":"recycling","recycling_type":"container"}},"type":"Feature"},
	{"geometry":{"coordinates":[11.358102,44.479442],"type":"Point"},"properties":{"osm_id":"4743268995","tag":{"amenity":"recycling","recycling_type":"container"}},"type":"Feature"},
	{"geometry":{"coordinates":[11.358458,44.481103],"type":"Point"},"properties":{"osm_id":"4743268996","tag":{"amenity":"recycling","recycling_type":"container"}},"type":"Feature"},
	{"geometry":{"coordinates":[11.361938,44.478197],"type":"Point"},"properties":{"osm_id":"4839548868","tag":{"amenity":"recycling","recycling_type":"container"}},"type":"Feature"},
	{"geometry":{"coordinates":[11.361271,44.477035],"type":"Point"},"properties":{"osm_id":"4839551897","tag":{"amenity":"recycling","recycling_type":"container"}},"type":"Feature"},
	{"geometry":{"coordinates":[11.357291,44.498056],"type":"Point"},"properties":{"osm_id":"4841730576","tag":{"amenity":"recycling","recycling:cans":"yes","recycling:glass":"yes","recycling:organic":"yes","recycling:paper":"yes","recycling:plastic":"yes","recycling_type":"container"}},"type":"Feature"},
	{"geometry":{"coordinates":[11.359949,44.507334],"type":"Point"},"properties":{"osm_id":"5102529730","tag":{"amenity":"waste_disposal"}},"type":"Feature"},
	{"geometry":{"coordinates":[11.359372,44.495822],"type":"Point"},"properties":{"osm_id":"5204834265","tag":{"amenity":"recycling","recycling:glass":"yes","recycling:organic_waste":"yes","recycling:paper":"yes","recycling:plastic":"yes","recycling_type":"container"}},"type":"Feature"},
	{"geometry":{"coordinates":[11.357781,44.494696],"type":"Point"},"properties":{"osm_id":"5204834266","tag":{"amenity":"recycling","recycling:glass":"yes","recycling:organic_waste":"yes","recycling:paper":"yes","recycling:plastic":"yes","recycling_type":"container"}},"type":"Feature"},
	{"geometry":{"coordinates":[11.358192,44.494984],"type":"Point"},"properties":{"osm_id":"5204834267","tag":{"amenity":"recycling","recycling:organic_waste":"yes","recycling:paper":"yes","recycling:plastic":"yes","recycling_type":"container"}},"type":"Feature"},
	{"geometry":{"coordinates":[11.363339,44.49595],"type":"Point"},"properties":{"osm_id":"5204840210","tag":{"amenity":"recycling","recycling:glass":"yes","recycling:organic_waste":"yes","recycling:paper":"yes","recycling:plastic":"yes","recycling_type":"container"}},"type":"Feature"},
	{"geometry":{"coordinates":[11.364206,44.496318],"type":"Point"},"properties":{"osm_id":"5204840213","tag":{"amenity":"recycling","recycling:organic_waste":"yes","recycling:paper":"yes","recycling:plastic":"yes","recycling_type":"container"}},"type":"Feature"},
	{"geometry":{"coordinates":[11.392175,44.496906],"type":"Point"},"properties":{"osm_id":"5226437321","tag":{"amenity":"waste_disposal"}},"type":"Feature"},
	{"geometry":{"coordinates":[11.387241,44.493513],"type":"Point"},"properties":{"osm_id":"5226448019","tag":{"amenity":"waste_disposal"}},"type":"Feature"},
	{"geometry":{"coordinates":[11.386602,44.49316],"type":"Point"},"properties":{"osm_id":"5226473188","tag":{"amenity":"waste_disposal"}},"type":"Feature"},
	{"geometry":{"coordinates":[11.375701,44.493304],"type":"Point"},"properties":{"osm_id":"5226496652","tag":{"amenity":"waste_disposal"}},"type":"Feature"},
	{"geometry":{"coordinates":[11.374104,44.493449],"type":"Point"},"properties":{"osm_id":"5226496653","tag":{"amenity":"waste_disposal"}},"type":"Feature"},
	{"geometry":{"coordinates":[11.371599,44.49318],"type":"Point"},"properties":{"osm_id":"5226496661","tag":{"amenity":"waste_disposal"}},"type":"Feature"},
	{"geometry":{"coordinates":[11.371098,44.493096],"type":"Point"},"properties":{"osm_id":"5226496662","tag":{"amenity":"waste_disposal"}},"type":"Feature"},
	{"geometry":{"coordinates":[11.366911,44.492601],"type":"Point"},"properties":{"osm_id":"5226496671","tag":{"amenity":"recycling","recycling_type":"container"}},"type":"Feature"},
	{"geometry":{"coordinates":[11.357654,44.490734],"type":"Point"},"properties":{"osm_id":"5226760624","tag":{"amenity":"recycling","recycling:organic_waste":"yes","recycling:paper":"yes","recycling:plastic":"yes","recycling_type":"container"}},"type":"Feature"},
	{"geometry":{"coordinates":[11.355192,44.490947],"type":"Point"},"properties":{"osm_id":"5226760642","tag":{"amenity":"recycling","recycling:glass":"yes","recycling:organic_waste":"yes","recycling_type":"container"}},"type":"Feature"},
	{"geometry":{"coordinates":[11.378513,44.506522],"type":"Point"},"properties":{"osm_id":"5303721939","tag":{"amenity":"waste_disposal"}},"type":"Feature"},
	{"geometry":{"coordinates":[11.36225,44.50898],"type":"Point"},"properties":{"osm_id":"5491276766","tag":{"amenity":"waste_basket"}},"type":"Feature"},
	{"geometry":{"coordinates":[11.361049,44.508392],"type":"Point"},"properties":{"osm_id":"5491282554","tag":{"amenity":"waste_basket"}},"type":"Feature"},
	{"geometry":{"coordinates":[11.352195,44.492141],"type":"Point"},"properties":{"osm_id":"5493297266","tag":{"amenity":"recycling","recycling:glass":"yes","recycling:organic_waste":"yes","recycling_type":"container"}},"type":"Feature"},
	{"geometry":{"coordinates":[11.343673,44.494124],"type":"Point"},"properties":{"osm_id":"5497701867","tag":{"amenity":"recycling","recycling:glass":"yes","recycling_type":"container"}},"type":"Feature"},
	{"geometry":{"coordinates":[11.344879,44.492794],"type":"Point"},"properties":{"osm_id":"5501264763","tag":{"amenity":"recycling","recycling:glass":"yes","recycling:organic_waste":"yes","recycling:paper":"yes","recycling_type":"container"}},"type":"Feature"},
	{"geometry":{"coordinates":[11.346241,44.50783],"type":"Point"},"properties":{"osm_id":"5513039963","tag":{"amenity":"waste_basket"}},"type":"Feature"},
	{"geometry":{"coordinates":[11.346368,44.508256],"type":"Point"},"properties":{"osm_id":"5513050181","tag":{"amenity":"waste_basket"}},"type":"Feature"},
	{"geometry":{"coordinates":[11.356539,44.508477],"type":"Point"},"properties":{"osm_id":"5513071689","tag":{"amenity":"waste_basket"}},"type":"Feature"},
	{"geometry":{"coordinates":[11.357118,44.508297],"type":"Point"},"properties":{"osm_id":"5513073687","tag":{"amenity":"waste_basket"}},"type":"Feature"},
	{"geometry":{"coordinates":[11.357042,44.508349],"type":"Point"},"properties":{"osm_id":"5513075748","tag":{"amenity":"waste_basket"}},"type":"Feature"},
	{"geometry":{"coordinates":[11.358333,44.507961],"type":"Point"},"properties":{"osm_id":"5513077875","tag":{"amenity":"waste_basket"}},"type":"Feature"},
	{"geometry":{"coordinates":[11.349686,44.495937],"type":"Point"},"properties":{"osm_id":"5552630455","tag":{"amenity":"waste_basket"}},"type":"Feature"},
	{"geometry":{"coordinates":[11.349593,44.495904],"type":"Point"},"properties":{"osm_id":"5552630456","tag":{"amenity":"waste_basket"}},"type":"Feature"},
	{"geometry":{"coordinates":[11.349629,44.495844],"type":"Point"},"properties":{"osm_id":"5552630457","tag":{"amenity":"recycling","recycling:cans":"yes","recycling:glass":"yes","recycling_type":"container"}},"type":"Feature"},
	{"geometry":{"coordinates":[11.349137,44.495729],"type":"Point"},"properties":{"osm_id":"5552630458","tag":{"amenity":"waste_basket","amenity_1":"ashtray"}},"type":"Feature"},
	{"geometry":{"coordinates":[11.348635,44.495483],"type":"Point"},"properties":{"osm_id":"5552634722","tag":{"amenity":"recycling","recycling:cans":"yes","recycling:glass_bottles":"yes","recycling_type":"container"}},"type":"Feature"},
	{"geometry":{"coordinates":[11.348511,44.495398],"type":"Point"},"properties":{"osm_id":"5552638540","tag":{"amenity":"waste_basket"}},"type":"Feature"},
	{"geometry":{"coordinates":[11.349247,44.494938],"type":"Point"},"properties":{"osm_id":"5552638541","tag":{"amenity":"waste_basket"}},"type":"Feature"},
	{"geometry":{"coordinates":[11.347781,44.495198],"type":"Point"},"properties":{"osm_id":"5552694517","tag":{"amenity":"recycling","recycling:cans":"yes","recycling:glass":"yes","recycling:organic":"yes","recycling_type":"container"}},"type":"Feature"},
	{"geometry":{"coordinates":[11.347558,44.495406],"type":"Point"},"properties":{"osm_id":"5552697227","tag":{"amenity":"waste_basket"}},"type":"Feature"},
	{"geometry":{"coordinates":[11.347069,44.495641],"type":"Point"},"properties":{"osm_id":"5552697229","tag":{"amenity":"waste_basket"}},"type":"Feature"},
	{"geometry":{"coordinates":[11.347031,44.495322],"type":"Point"},"properties":{"osm_id":"5552705902","tag":{"amenity":"waste_basket"}},"type":"Feature"},
	{"geometry":{"coordinates":[11.347514,44.495024],"type":"Point"},"properties":{"osm_id":"5552705903","tag":{"amenity":"waste_basket"}},"type":"Feature"},
	{"geometry":{"coordinates":[11.347164,44.494928],"type":"Point"},"properties":{"osm_id":"5552705904","tag":{"amenity":"waste_basket"}},"type":"Feature"},
	{"geometry":{"coordinates":[11.346782,44.494554],"type":"Point"},"properties":{"osm_id":"5552722369","tag":{"amenity":"waste_basket"}},"type":"Feature"},
	{"geometry":{"coordinates":[11.346571,44.494557],"type":"Point"},"properties":{"osm_id":"5552722370","tag":{"amenity":"waste_basket"}},"type":"Feature"},
	{"geometry":{"coordinates":[11.347012,44.494316],"type":"Point"},"properties":{"osm_id":"5552722371","tag":{"amenity":"waste_basket"}},"type":"Feature"},
	{"geometry":{"coordinates":[11.346586,44.494062],"type":"Point"},"properties":{"osm_id":"5552722372","tag":{"amenity":"waste_basket"}},"type":"Feature"},
	{"geometry":{"coordinates":[11.346543,44.49404],"type":"Point"},"properties":{"osm_id":"5552722373","tag":{"amenity":"waste_basket"}},"type":"Feature"},
	{"geometry":{"coordinates":[11.346307,44.494336],"type":"Point"},"properties":{"osm_id":"5552756081","tag":{"amenity":"waste_basket"}},"type":"Feature"},
	{"geometry":{"coordinates":[11.346345,44.494144],"type":"Point"},"properties":{"osm_id":"5552756082","tag":{"amenity":"waste_basket"}},"type":"Feature"},
	{"geometry":{"coordinates":[11.345765,44.494247],"type":"Point"},"properties":{"osm_id":"5552756083","tag":{"amenity":"waste_basket"}},"type":"Feature"},
	{"geometry":{"coordinates":[11.345526,44.494478],"type":"Point"},"properties":{"osm_id":"5552756084","tag":{"amenity":"waste_basket"}},"type":"Feature"},
	{"geometry":{"coordinates":[11.34523,44.494346],"type":"Point"},"properties":{"osm_id":"5552756085","tag":{"amenity":"waste_basket"}},"type":"Feature"},
	{"geometry":{"coordinates":[11.344765,44.494406],"type":"Point"},"properties":{"osm_id":"5552756086","tag":{"amenity":"waste_basket"}},"type":"Feature"},
	{"geometry":{"coordinates":[11.344816,44.494567],"type":"Point"},"properties":{"osm_id":"5552756087","tag":{"amenity":"waste_basket"}},"type":"Feature"},
	{"geometry":{"coordinates":[11.344539,44.494441],"type":"Point"},"properties":{"osm_id":"5552756088","tag":{"amenity":"waste_basket"}},"type":"Feature"},
	{"geometry":{"coordinates":[11.344459,44.494626],"type":"Point"},"properties":{"osm_id":"5552756089","tag":{"amenity":"waste_basket"}},"type":"Feature"},
	{"geometry":{"coordinates":[11.344601,44.494222],"type":"Point"},"properties":{"osm_id":"5552756090","tag":{"amenity":"recycling","recycling:cans":"yes","recycling:glass":"yes","recycling:organic":"yes","recycling:paper":"yes","recycling:paper_packaging":"yes","recycling:waste":"yes","recycling_type":"container"}},"type":"Feature"},
	{"geometry":{"coordinates":[11.344472,44.494088],"type":"Point"},"properties":{"osm_id":"5552756091","tag":{"amenity":"waste_basket"}},"type":"Feature"},
	{"geometry":{"coordinates":[11.344652,44.494058],"type":"Point"},"properties":{"osm_id":"5552756092","tag":{"amenity":"waste_basket"}},"type":"Feature"},
	{"geometry":{"coordinates":[11.343699,44.494473],"type":"Point"},"properties":{"osm_id":"5552756098","tag":{"amenity":"waste_basket"}},"type":"Feature"},
	{"geometry":{"coordinates":[11.343986,44.494409],"type":"Point"},"properties":{"osm_id":"5552756099","tag":{"amenity":"waste_basket"}},"type":"Feature"},
	{"geometry":{"coordinates":[11.343894,44.494033],"type":"Point"},"properties":{"osm_id":"5552756100","tag":{"amenity":"waste_basket"}},"type":"Feature"},
	{"geometry":{"coordinates":[11.343234,44.493991],"type":"Point"},"properties":{"osm_id":"5552756101","tag":{"amenity":"waste_basket"}},"type":"Feature"},
	{"geometry":{"coordinates":[11.342791,44.494084],"type":"Point"},"properties":{"osm_id":"5552756102","tag":{"amenity":"waste_basket"}},"type":"Feature"},
	{"geometry":{"coordinates":[11.343483,44.494535],"type":"Point"},"properties":{"osm_id":"5552756103","tag":{"amenity":"waste_basket"}},"type":"Feature"},
	{"geometry":{"coordinates":[11.34337,44.494623],"type":"Point"},"properties":{"osm_id":"5552756104","tag":{"amenity":"waste_basket"}},"type":"Feature"},
	{"geometry":{"coordinates":[11.343072,44.494684],"type":"Point"},"properties":{"osm_id":"5552756105","tag":{"amenity":"waste_basket"}},"type":"Feature"},
	{"geometry":{"coordinates":[11.342699,44.494892],"type":"Point"},"properties":{"osm_id":"5552756106","tag":{"amenity":"waste_basket"}},"type":"Feature"},
	{"geometry":{"coordinates":[11.343212,44.494832],"type":"Point"},"properties":{"osm_id":"5552756107","tag":{"amenity":"waste_basket"}},"type":"Feature"},
	{"geometry":{"coordinates":[11.343612,44.494776],"type":"Point"},"properties":{"osm_id":"5552756108","tag":{"amenity":"waste_basket"}},"type":"Feature"},
	{"geometry":{"coordinates":[11.343894,44.494735],"type":"Point"},"properties":{"osm_id":"5552756109","tag":{"amenity":"waste_basket"}},"type":"Feature"},
	{"geometry":{"coordinates":[11.344145,44.494696],"type":"Point"},"properties":{"osm_id":"5552756110","tag":{"amenity":"waste_basket"}},"type":"Feature"},
	{"geometry":{"coordinates":[11.353418,44.497214],"type":"Point"},"properties":{"osm_id":"5552769063","tag":{"amenity":"recycling","recycling:cardboard":"yes","recycling:cartons":"yes","recycling:newspaper":"yes","recycling_type":"container"}},"type":"Feature"},
	{"geometry":{"coordinates":[11.353431,44.497211],"type":"Point"},"properties":{"osm_id":"5552769064","tag":{"amenity":"recycling","recycling:waste":"yes","recycling_type":"container"}},"type":"Feature"},
	{"geometry":{"coordinates":[11.354338,44.500593],"type":"Point"},"properties":{"osm_id":"5552774645","tag":{"amenity":"waste_basket"}},"type":"Feature"},
	{"geometry":{"coordinates":[11.354292,44.5005],"type":"Point"},"properties":{"osm_id":"5552774646","tag":{"amenity":"waste_basket"}},"type":"Feature"},
	{"geometry":{"coordinates":[11.354681,44.499776],"type":"Point"},"properties":{"osm_id":"5552774647","tag":{"amenity":"waste_basket"}},"type":"Feature"},
	{"geometry":{"coordinates":[11.354763,44.499954],"type":"Point"},"properties":{"osm_id":"5552774648","tag":{"amenity":"waste_basket"}},"type":"Feature"},
	{"geometry":{"coordinates":[11.354821,44.500085],"type":"Point"},"properties":{"osm_id":"5552774649","tag":{"amenity":"waste_basket"}},"type":"Feature"},
	{"geometry":{"coordinates":[11.354516,44.499979],"type":"Point"},"properties":{"osm_id":"5552774651","tag":{"amenity":"waste_basket"}},"type":"Feature"},
	{"geometry":{"coordinates":[11.354302,44.499973],"type":"Point"},"properties":{"osm_id":"5552774652","tag":{"amenity":"waste_basket"}},"type":"Feature"},
	{"geometry":{"coordinates":[11.354355,44.49974],"type":"Point"},"properties":{"osm_id":"5552774654","tag":{"amenity":"waste_basket"}},"type":"Feature"},
	{"geometry":{"coordinates":[11.353798,44.499795],"type":"Point"},"properties":{"osm_id":"5552774655","tag":{"amenity":"waste_basket"}},"type":"Feature"},
	{"geometry":{"coordinates":[11.354138,44.499802],"type":"Point"},"properties":{"osm_id":"5552774656","tag":{"amenity":"waste_basket"}},"type":"Feature"},
	{"geometry":{"coordinates":[11.353976,44.500869],"type":"Point"},"properties":{"osm_id":"5552774666","tag":{"amenity":"waste_basket"}},"type":"Feature"},
	{"geometry":{"coordinates":[11.354164,44.501333],"type":"Point"},"properties":{"osm_id":"5552774668","tag":{"amenity":"waste_basket"}},"type":"Feature"},
	{"geometry":{"coordinates":[11.353984,44.501482],"type":"Point"},"properties":{"osm_id":"5552774669","tag":{"amenity":"waste_basket"}},"type":"Feature"},
	{"geometry":{"coordinates":[11.353911,44.501043],"type":"Point"},"properties":{"osm_id":"5552774670","tag":{"amenity":"waste_basket"}},"type":"Feature"},
	{"geometry":{"coordinates":[11.351184,44.499234],"type":"Point"},"properties":{"osm_id":"5552774672","tag":{"amenity":"recycling","location":"underground","recycling:cans":"yes","recycling:glass_bottles":"yes","recycling:green_waste":"yes","recycling_type":"container"}},"type":"Feature"},
	{"geometry":{"coordinates":[11.35117,44.499403],"type":"Point"},"properties":{"osm_id":"5552774673","tag":{"amenity":"waste_basket"}},"type":"Feature"},
	{"geometry":{"coordinates":[11.351695,44.499474],"type":"Point"},"properties":{"osm_id":"5552774675","tag":{"amenity":"waste_basket"}},"type":"Feature"},
	{"geometry":{"coordinates":[11.350681,44.499716],"type":"Point"},"properties":{"osm_id":"5552774676","tag":{"amenity":"waste_basket"}},"type":"Feature"},
	{"geometry":{"coordinates":[11.351436,44.50093],"type":"Point"},"properties":{"osm_id":"5552774686","tag":{"amenity":"recycling","location":"underground","recycling:cans":"yes","recycling:glass_bottles":"yes","recycling:green_waste":"yes","recycling_type":"container"}},"type":"Feature"},
	{"geometry":{"coordinates":[11.351545,44.500894],"type":"Point"},"properties":{"osm_id":"5552774687","tag":{"amenity":"waste_basket"}},"type":"Feature"},
	{"geometry":{"coordinates":[11.35082,44.500249],"type":"Point"},"properties":{"osm_id":"5552774689","tag":{"amenity":"recycling","recycling_type":"container"}},"type":"Feature"},
	{"geometry":{"coordinates":[11.350779,44.500204],"type":"Point"},"properties":{"osm_id":"5552774690","tag":{"amenity":"waste_basket"}},"type":"Feature"},
	{"geometry":{"coordinates":[11.350797,44.500175],"type":"Point"},"properties":{"osm_id":"5552774691","tag":{"amenity":"recycling","location":"underground","recycling:cans":"yes","recycling:glass_bottles":"yes","recycling:green_waste":"yes","recycling_type":"container"}},"type":"Feature"},
	{"geometry":{"coordinates":[11.353686,44.501127],"type":"Point"},"properties":{"osm_id":"5552774692","tag":{"amenity":"waste_basket"}},"type":"Feature"},
	{"geometry":{"coordinates":[11.352998,44.49998],"type":"Point"},"properties":{"osm_id":"5552774693","tag":{"amenity":"waste_basket"}},"type":"Feature"},
	{"geometry":{"coordinates":[11.354106,44.499724],"type":"Point"},"properties":{"osm_id":"5552774730","tag":{"amenity":"waste_basket"}},"type":"Feature"},
	{"geometry":{"coordinates":[11.35462,44.499669],"type":"Point"},"properties":{"osm_id":"5552774731","tag":{"amenity":"waste_basket"}},"type":"Feature"},
	{"geometry":{"coordinates":[11.352801,44.499807],"type":"Point"},"properties":{"osm_id":"5552774732","tag":{"amenity":"waste_basket"}},"type":"Feature"},
	{"geometry":{"coordinates":[11.353144,44.499695],"type":"Point"},"properties":{"osm_id":"5552774733","tag":{"amenity":"waste_basket"}},"type":"Feature"},
	{"geometry":{"coordinates":[11.353037,44.499721],"type":"Point"},"properties":{"osm_id":"5552774734","tag":{"amenity":"waste_basket"}},"type":"Feature"},
	{"geometry":{"coordinates":[11.353034,44.49963],"type":"Point"},"properties":{"osm_id":"5552774735","tag":{"amenity":"waste_basket"}},"type":"Feature"},
	{"geometry":{"coordinates":[11.353208,44.499329],"type":"Point"},"properties":{"osm_id":"5552774736","tag":{"amenity":"waste_basket"}},"type":"Feature"},
	{"geometry":{"coordinates":[11.352873,44.499235],"type":"Point"},"properties":{"osm_id":"5552774738","tag":{"amenity":"waste_basket"}},"type":"Feature"},
	{"geometry":{"coordinates":[11.354236,44.498882],"type":"Point"},"properties":{"osm_id":"5552774739","tag":{"amenity":"waste_basket","waste":"trash;cigarettes"}},"type":"Feature"},
	{"geometry":{"coordinates":[11.352874,44.499233],"type":"Point"},"properties":{"osm_id":"5554062703","tag":{"amenity":"waste_basket","waste":"trash;cigarettes"}},"type":"Feature"},
	{"geometry":{"coordinates":[11.355186,44.499465],"type":"Point"},"properties":{"osm_id":"5554062704","tag":{"amenity":"waste_disposal"}},"type":"Feature"},
	{"geometry":{"coordinates":[11.355163,44.499471],"type":"Point"},"properties":{"osm_id":"5554062705","tag":{"amenity":"waste_disposal"}},"type":"Feature"},
	{"geometry":{"coordinates":[11.35514,44.499477],"type":"Point"},"properties":{"osm_id":"5554062706","tag":{"amenity":"waste_disposal"}},"type":"Feature"},
	{"geometry":{"coordinates":[11.355114,44.499484],"type":"Point"},"properties":{"osm_id":"5554062707","tag":{"amenity":"waste_disposal"}},"type":"Feature"},
	{"geometry":{"coordinates":[11.355209,44.49946],"type":"Point"},"properties":{"osm_id":"5554062708","tag":{"amenity":"recycling","recycling:glass":"yes","recycling_type":"container"}},"type":"Feature"},
	{"geometry":{"coordinates":[11.35509,44.499489],"type":"Point"},"properties":{"osm_id":"5554062709","tag":{"amenity":"recycling","recycling:paper":"yes","recycling_type":"container"}},"type":"Feature"},
	{"geometry":{"coordinates":[11.354896,44.49896],"type":"Point"},"properties":{"osm_id":"5554062710","tag":{"amenity":"waste_basket"}},"type":"Feature"},
	{"geometry":{"coordinates":[11.355656,44.498723],"type":"Point"},"properties":{"osm_id":"5554062715","tag":{"amenity":"waste_basket"}},"type":"Feature"},
	{"geometry":{"coordinates":[11.355666,44.498809],"type":"Point"},"properties":{"osm_id":"5554062716","tag":{"amenity":"waste_basket"}},"type":"Feature"},
	{"geometry":{"coordinates":[11.355692,44.498937],"type":"Point"},"properties":{"osm_id":"5554062717","tag":{"amenity":"waste_basket"}},"type":"Feature"},
	{"geometry":{"coordinates":[11.355893,44.499162],"type":"Point"},"properties":{"osm_id":"5554062718","tag":{"amenity":"waste_basket"}},"type":"Feature"},
	{"geometry":{"coordinates":[11.355994,44.499205],"type":"Point"},"properties":{"osm_id":"5554062719","tag":{"amenity":"waste_basket"}},"type":"Feature"},
	{"geometry":{"coordinates":[11.35518,44.500194],"type":"Point"},"properties":{"osm_id":"5554062832","tag":{"amenity":"waste_basket"}},"type":"Feature"},
	{"geometry":{"coordinates":[11.355329,44.500544],"type":"Point"},"properties":{"osm_id":"5554062833","tag":{"amenity":"waste_basket"}},"type":"Feature"},
	{"geometry":{"coordinates":[11.355148,44.500338],"type":"Point"},"properties":{"osm_id":"5554062834","tag":{"amenity":"waste_basket"}},"type":"Feature"},
	{"geometry":{"coordinates":[11.355199,44.500447],"type":"Point"},"properties":{"osm_id":"5554062835","tag":{"amenity":"waste_basket"}},"type":"Feature"},
	{"geometry":{"coordinates":[11.354947,44.500394],"type":"Point"},"properties":{"osm_id":"5554062836","tag":{"amenity":"waste_basket"}},"type":"Feature"},
	{"geometry":{"coordinates":[11.355,44.500493],"type":"Point"},"properties":{"osm_id":"5554062837","tag":{"amenity":"waste_basket"}},"type":"Feature"},
	{"geometry":{"coordinates":[11.355333,44.500801],"type":"Point"},"properties":{"osm_id":"5554062838","tag":{"amenity":"waste_basket"}},"type":"Feature"},
	{"geometry":{"coordinates":[11.3553,44.500833],"type":"Point"},"properties":{"osm_id":"5554062839","tag":{"amenity":"waste_basket"}},"type":"Feature"},
	{"geometry":{"coordinates":[11.355282,44.500917],"type":"Point"},"properties":{"osm_id":"5554062840","tag":{"amenity":"waste_basket"}},"type":"Feature"},
	{"geometry":{"coordinates":[11.370672,44.470919],"type":"Point"},"properties":{"osm_id":"5569015718","tag":{"amenity":"recycling","recycling:cans":"yes","recycling:glass":"yes","recycling:glass_bottles":"yes","recycling:green_waste":"yes","recycling:paper":"yes","recycling:plastic":"yes","recycling:waste":"yes","recycling_type":"container"}},"type":"Feature"},
	{"geometry":{"coordinates":[11.370848,44.470962],"type":"Point"},"properties":{"osm_id":"5569015719","tag":{"amenity":"recycling","recycling:paper":"yes","recycling:waste":"yes","recycling_type":"container"}},"type":"Feature"},
	{"geometry":{"coordinates":[11.369487,44.470117],"type":"Point"},"properties":{"osm_id":"5596699633","tag":{"amenity":"waste_basket","waste":"trash"}},"type":"Feature"},
	{"geometry":{"coordinates":[11.369494,44.470446],"type":"Point"},"properties":{"osm_id":"5596701243","tag":{"amenity":"waste_basket","waste":"trash"}},"type":"Feature"},
	{"geometry":{"coordinates":[11.369273,44.470156],"type":"Point"},"properties":{"osm_id":"5596705750","tag":{"amenity":"waste_basket","waste":"trash"}},"type":"Feature"},
	{"geometry":{"coordinates":[11.36942,44.469871],"type":"Point"},"properties":{"osm_id":"5596705752","tag":{"amenity":"waste_basket","waste":"trash"}},"type":"Feature"},
	{"geometry":{"coordinates":[11.370179,44.470509],"type":"Point"},"properties":{"osm_id":"5596747152","tag":{"amenity":"waste_basket"}},"type":"Feature"},
	{"geometry":{"coordinates":[11.370163,44.470315],"type":"Point"},"properties":{"osm_id":"5596747153","tag":{"amenity":"waste_basket"}},"type":"Feature"},
	{"geometry":{"coordinates":[11.370414,44.470325],"type":"Point"},"properties":{"osm_id":"5596859061","tag":{"amenity":"waste_basket"}},"type":"Feature"},
	{"geometry":{"coordinates":[11.346769,44.508949],"type":"Point"},"properties":{"osm_id":"5598745515","tag":{"amenity":"recycling","recycling:paper":"yes","recycling:plastic":"yes","recycling:waste":"yes","recycling_type":"container"}},"type":"Feature"},
	{"geometry":{"coordinates":[11.347888,44.511884],"type":"Point"},"properties":{"osm_id":"5598895306","tag":{"amenity":"recycling","recycling:glass":"yes","recycling:paper":"yes","recycling:plastic":"yes","recycling:waste":"yes","recycling_type":"container"}},"type":"Feature"},
	{"geometry":{"coordinates":[11.349453,44.511716],"type":"Point"},"properties":{"osm_id":"5598994642","tag":{"amenity":"recycling","recycling:glass":"yes","recycling:paper":"yes","recycling:plastic":"yes","recycling:waste":"yes","recycling_type":"container"}},"type":"Feature"},
	{"geometry":{"coordinates":[11.370232,44.472767],"type":"Point"},"properties":{"osm_id":"5603046942","tag":{"amenity":"recycling","recycling:cans":"yes","recycling:clothes":"yes","recycling:glass":"yes","recycling:green_waste":"yes","recycling:paper":"yes","recycling:plastic":"yes","recycling:waste":"yes","recycling_type":"container"}},"type":"Feature"},
	{"geometry":{"coordinates":[11.371934,44.467864],"type":"Point"},"properties":{"osm_id":"5604604880","tag":{"amenity":"waste_basket","waste":"trash"}},"type":"Feature"},
	{"geometry":{"coordinates":[11.377278,44.474873],"type":"Point"},"properties":{"osm_id":"5628730021","tag":{"amenity":"waste_basket","waste":"trash"}},"type":"Feature"},
	{"geometry":{"coordinates":[11.377218,44.472031],"type":"Point"},"properties":{"osm_id":"5628738455","tag":{"amenity":"waste_basket","waste":"trash"}},"type":"Feature"},
	{"geometry":{"coordinates":[11.370691,44.466273],"type":"Point"},"properties":{"osm_id":"5628796156","tag":{"amenity":"recycling","recycling:clothes":"yes","recycling_type":"container"}},"type":"Feature"},
	{"geometry":{"coordinates":[11.34837,44.511181],"type":"Point"},"properties":{"osm_id":"5629477600","tag":{"amenity":"recycling","recycling:paper":"yes","recycling:plastic":"yes","recycling:waste":"yes","recycling_type":"container"}},"type":"Feature"},
	{"geometry":{"coordinates":[11.345567,44.495147],"type":"Point"},"properties":{"osm_id":"5854129156","tag":{"amenity":"waste_basket","waste":"trash"}},"type":"Feature"},
	{"geometry":{"coordinates":[11.345517,44.494302],"type":"Point"},"properties":{"osm_id":"5854129159","tag":{"amenity":"waste_basket"}},"type":"Feature"},
	{"geometry":{"coordinates":[11.344953,44.494546],"type":"Point"},"properties":{"osm_id":"5854129160","tag":{"amenity":"waste_basket"}},"type":"Feature"},
	{"geometry":{"coordinates":[11.345279,44.494499],"type":"Point"},"properties":{"osm_id":"5854129162","tag":{"amenity":"waste_basket"}},"type":"Feature"},
	{"geometry":{"coordinates":[11.345579,44.494809],"type":"Point"},"properties":{"osm_id":"5854129163","tag":{"amenity":"waste_basket"}},"type":"Feature"},
	{"geometry":{"coordinates":[11.342484,44.494824],"type":"Point"},"properties":{"osm_id":"5854150726","tag":{"amenity":"waste_basket","waste":"trash"}},"type":"Feature"},
	{"geometry":{"coordinates":[11.342484,44.494957],"type":"Point"},"properties":{"osm_id":"5854150731","tag":{"amenity":"waste_basket","waste":"trash"}},"type":"Feature"},
	{"geometry":{"coordinates":[11.338302,44.49824],"type":"Point"},"properties":{"osm_id":"5854188521","tag":{"amenity":"waste_basket","waste":"trash"}},"type":"Feature"},
	{"geometry":{"coordinates":[11.341419,44.493789],"type":"Point"},"properties":{"osm_id":"5854506337","tag":{"amenity":"recycling","recycling_type":"container"}},"type":"Feature"},
	{"geometry":{"coordinates":[11.368794,44.484219],"type":"Point"},"properties":{"osm_id":"5943438494","tag":{"amenity":"recycling"}},"type":"Feature"},
	{"geometry":{"coordinates":[11.357779,44.506813],"type":"Point"},"properties":{"osm_id":"5973899493","tag":{"amenity":"waste_disposal"}},"type":"Feature"},
	{"geometry":{"coordinates":[11.355878,44.507727],"type":"Point"},"properties":{"osm_id":"5974039585","tag":{"amenity":"waste_disposal"}},"type":"Feature"},
	{"geometry":{"coordinates":[11.355812,44.507608],"type":"Point"},"properties":{"osm_id":"5974039685","tag":{"amenity":"waste_disposal"}},"type":"Feature"},
	{"geometry":{"coordinates":[11.353334,44.479894],"type":"Point"},"properties":{"osm_id":"6328823134","tag":{"amenity":"waste_basket"}},"type":"Feature"},
	{"geometry":{"coordinates":[11.36233,44.525726],"type":"Point"},"properties":{"osm_id":"6341366763","tag":{"amenity":"waste_disposal"}},"type":"Feature"},
	{"geometry":{"coordinates":[11.362358,44.525742],"type":"Point"},"properties":{"osm_id":"6341366764","tag":{"amenity":"recycling","recycling_type":"container"}},"type":"Feature"},
	{"geometry":{"coordinates":[11.362383,44.525758],"type":"Point"},"properties":{"osm_id":"6341366765","tag":{"amenity":"recycling","recycling_type":"container"}},"type":"Feature"},
	{"geometry":{"coordinates":[11.362413,44.525777],"type":"Point"},"properties":{"osm_id":"6341366766","tag":{"amenity":"waste_disposal"}},"type":"Feature"},
	{"geometry":{"coordinates":[11.362433,44.525787],"type":"Point"},"properties":{"osm_id":"6341366767","tag":{"amenity":"recycling","recycling_type":"container"}},"type":"Feature"},
	{"geometry":{"coordinates":[11.362819,44.525873],"type":"Point"},"properties":{"osm_id":"6341366768","tag":{"amenity":"waste_basket"}},"type":"Feature"},
	{"geometry":{"coordinates":[11.372382,44.470455],"type":"Point"},"properties":{"osm_id":"6959921411","tag":{"amenity":"recycling","recycling:cans":"yes","recycling:glass":"yes","recycling:paper":"yes","recycling:plastic_bottles":"yes","recycling:waste":"yes","recycling_type":"container"}},"type":"Feature"},
	{"geometry":{"coordinates":[11.37202,44.470965],"type":"Point"},"properties":{"osm_id":"6959921412","tag":{"amenity":"recycling","recycling:paper":"yes","recycling:plastic_bottles":"yes","recycling:waste":"yes","recycling_type":"container"}},"type":"Feature"},
	{"geometry":{"coordinates":[11.358571,44.502311],"type":"Point"},"properties":{"osm_id":"7674487629","tag":{"amenity":"recycling","recycling_type":"centre"}},"type":"Feature"},
	{"geometry":{"coordinates":[11.355875,44.506454],"type":"Point"},"properties":{"osm_id":"7691709056","tag":{"amenity":"recycling","recycling_type":"centre"}},"type":"Feature"},
	{"geometry":{"coordinates":[11.354025,44.504544],"type":"Point"},"properties":{"osm_id":"7691709058","tag":{"amenity":"recycling","recycling_type":"centre"}},"type":"Feature"},
	{"geometry":{"coordinates":[11.35449,44.504888],"type":"Point"},"properties":{"osm_id":"7691709059","tag":{"amenity":"recycling","recycling_type":"centre"}},"type":"Feature"},
	{"geometry":{"coordinates":[11.354481,44.509961],"type":"Point"},"properties":{"osm_id":"7691709060","tag":{"amenity":"recycling","recycling_type":"centre"}},"type":"Feature"},
	{"geometry":{"coordinates":[11.346972,44.509672],"type":"Point"},"properties":{"osm_id":"7691816639","tag":{"amenity":"recycling","recycling_type":"centre"}},"type":"Feature"},
	{"geometry":{"coordinates":[11.347701,44.508853],"type":"Point"},"properties":{"osm_id":"7691816641","tag":{"amenity":"recycling","recycling_type":"centre"}},"type":"Feature"},
	{"geometry":{"coordinates":[11.353317,44.507996],"type":"Point"},"properties":{"osm_id":"7691816650","tag":{"amenity":"recycling","recycling_type":"centre"}},"type":"Feature"},
	{"geometry":{"coordinates":[11.356355,44.51075],"type":"Point"},"properties":{"osm_id":"7691816662","tag":{"amenity":"recycling","recycling_type":"centre"}},"type":"Feature"},
	{"geometry":{"coordinates":[11.359335,44.509828],"type":"Point"},"properties":{"osm_id":"7691902372","tag":{"amenity":"recycling","recycling_type":"centre"}},"type":"Feature"},
	{"geometry":{"coordinates":[11.359764,44.508925],"type":"Point"},"properties":{"osm_id":"7691902374","tag":{"amenity":"recycling","recycling_type":"centre"}},"type":"Feature"},
	{"geometry":{"coordinates":[11.363261,44.510779],"type":"Point"},"properties":{"osm_id":"7691902386","tag":{"amenity":"recycling","recycling_type":"centre"}},"type":"Feature"},
	{"geometry":{"coordinates":[11.377615,44.509022],"type":"Point"},"properties":{"osm_id":"7692856681","tag":{"amenity":"waste_disposal","waste":"glass;plastic;organic;mixed;paper"}},"type":"Feature"}
]
}
