{
"type": "FeatureCollection",
"features": [
	{"geometry":{"coordinates":[11.343722,43.28896],"type":"Point"},"properties":{"osm_id":"215643350","tag":{"amenity":"recycling"}},"type":"Feature"},
	{"geometry":{"coordinates":[11.350892,43.285331],"type":"Point"},"properties":{"osm_id":"249237683","tag":{"amenity":"recycling"}},"type":"Feature"},
	{"geometry":{"coordinates":[11.34039,43.296573],"type":"Point"},"properties":{"osm_id":"253898617","tag":{"amenity":"recycling","recycling_type":"container"}},"type":"Feature"},
	{"geometry":{"coordinates":[11.344636,43.316711],"type":"Point"},"properties":{"osm_id":"430509486","tag":{"amenity":"recycling","operator":"SEI Toscana","recycling:aluminium":"yes","recycling:glass":"yes","recycling:organic":"yes","recycling:paper":"yes","recycling:plastic":"yes","recycling_type":"container"}},"type":"Feature"},
	{"geometry":{"coordinates":[11.353603,43.283042],"type":"Point"},"properties":{"highway":"bus_stop","osm_id":"654181749","tag":{"amenity":"recycling"}},"type":"Feature"},
	{"geometry":{"coordinates":[11.379162,43.302298],"type":"Point"},"properties":{"osm_id":"1552817185","tag":{"amenity":"recycling","recycling:glass":"yes","recycling_type":"container"}},"type":"Feature"},
	{"geometry":{"coordinates":[11.410853,43.291246],"type":"Point"},"properties":{"osm_id":"4914679634","tag":{"amenity":"recycling","recycling_type":"container"}},"type":"Feature"},
	{"geometry":{"coordinates":[11.411804,43.292092],"type":"Point"},"properties":{"osm_id":"4914679637","tag":{"amenity":"recycling"}},"type":"Feature"},
	{"geometry":{"coordinates":[11.412905,43.292183],"type":"Point"},"properties":{"osm_id":"4914679638","tag":{"amenity":"recycling"}},"type":"Feature"},
	{"geometry":{"coordinates":[11.389621,43.296646],"type":"Point"},"properties":{"osm_id":"4960366512","tag":{"amenity":"recycling","recycling:glass":"yes","recycling_type":"container"}},"type":"Feature"},
	{"geometry":{"coordinates":[11.375686,43.30288],"type":"Point"},"properties":{"osm_id":"5820170148","tag":{"amenity":"recycling","recycling:glass":"yes","recycling_type":"container"}},"type":"Feature"},
	{"geometry":{"coordinates":[11.410863,43.292742],"type":"Point"},"properties":{"osm_id":"5827629598","tag":{"amenity":"recycling","recycling_type":"container"}},"type":"Feature"},
	{"geometry":{"coordinates":[11.342713,43.317291],"type":"Point"},"properties":{"osm_id":"6950542667","tag":{"amenity":"waste_disposal","operator":"SEI Toscana","waste":"unsorted"}},"type":"Feature"},
	{"geometry":{"coordinates":[11.342668,43.317331],"type":"Point"},"properties":{"osm_id":"6955579200","tag":{"amenity":"recycling","operator":"SEI Tosana","recycling:aluminium":"yes","recycling:glass":"yes","recycling:organic":"yes","recycling:paper":"yes","recycling:plastic":"yes","recycling_type":"container"}},"type":"Feature"},
	{"geometry":{"coordinates":[11.347892,43.314633],"type":"Point"},"properties":{"osm_id":"6955642051","tag":{"amenity":"recycling","operator":"SEI Toscana","recycling:organic":"yes","recycling_type":"container"}},"type":"Feature"},
	{"geometry":{"coordinates":[11.347921,43.314618],"type":"Point"},"properties":{"osm_id":"6955642052","tag":{"amenity":"waste_disposal","operator":"SEI Toscana","waste":"Unsorted_Waste"}},"type":"Feature"},
	{"geometry":{"coordinates":[11.34524,43.316315],"type":"Point"},"properties":{"osm_id":"6955660712","tag":{"amenity":"recycling","operator":"SEI Toscana","recycling:clothes":"yes","recycling:organic":"yes","recycling_type":"container"}},"type":"Feature"},
	{"geometry":{"coordinates":[11.34526,43.316302],"type":"Point"},"properties":{"osm_id":"6955660713","tag":{"amenity":"waste_disposal","operator":"SEI Toscana","waste":"Unsorted_Waste"}},"type":"Feature"},
	{"geometry":{"coordinates":[11.345786,43.316361],"type":"Point"},"properties":{"osm_id":"6955672865","tag":{"amenity":"waste_disposal","operator":"SEI Toscana","waste":"Unsorted_Waste"}},"type":"Feature"},
	{"geometry":{"coordinates":[11.346597,43.315397],"type":"Point"},"properties":{"osm_id":"6955690417","tag":{"amenity":"waste_disposal","operator":"SEI Toscana","waste":"Unsorted_Waste"}},"type":"Feature"},
	{"geometry":{"coordinates":[11.346627,43.31538],"type":"Point"},"properties":{"osm_id":"6955690418","tag":{"amenity":"recycling","operator":"SEI Toscana","recycling:aluminium":"yes","recycling:glass":"yes","recycling:organic":"yes","recycling:paper":"yes","recycling:plastic":"yes","recycling_type":"container"}},"type":"Feature"},
	{"geometry":{"coordinates":[11.349407,43.315137],"type":"Point"},"properties":{"osm_id":"6955727010","tag":{"amenity":"waste_disposal","operator":"SEI Toscana","waste":"Unsorted"}},"type":"Feature"},
	{"geometry":{"coordinates":[11.346641,43.316112],"type":"Point"},"properties":{"osm_id":"6955735747","tag":{"amenity":"waste_disposal","operator":"SEI Toscana","waste":"Unsorted_Waste"}},"type":"Feature"},
	{"geometry":{"coordinates":[11.346495,43.316172],"type":"Point"},"properties":{"osm_id":"6955737059","tag":{"amenity":"waste_disposal","operator":"SEI Toscana","waste":"Unsorted_Waste"}},"type":"Feature"},
	{"geometry":{"coordinates":[11.344269,43.318804],"type":"Point"},"properties":{"osm_id":"6955744405","tag":{"amenity":"waste_disposal","operator":"SEI Toscana","waste":"Unsorted_Waste"}},"type":"Feature"},
	{"geometry":{"coordinates":[11.3433,43.318692],"type":"Point"},"properties":{"osm_id":"6955752141","tag":{"amenity":"recycling","operator":"SEI Toscana","recycling:organic":"yes","recycling_type":"container","waste":"organic"}},"type":"Feature"},
	{"geometry":{"coordinates":[11.346081,43.318548],"type":"Point"},"properties":{"osm_id":"6955753474","tag":{"amenity":"waste_disposal","operator":"SEI Toscana","waste":"Unsorted_Waste"}},"type":"Feature"},
	{"geometry":{"coordinates":[11.345221,43.318716],"type":"Point"},"properties":{"osm_id":"6955754548","tag":{"amenity":"waste_disposal","operator":"SEI Toscana","waste":"Unsorted_Waste"}},"type":"Feature"},
	{"geometry":{"coordinates":[11.339326,43.312563],"type":"Point"},"properties":{"osm_id":"7043642206","tag":{"amenity":"waste_disposal","colour":"grey","description":"This is a garbage dumpster for unsorted waste outside the wall of Siena, close to Porta Romana. No recycling opportunity.","waste":"unsorted"}},"type":"Feature"},
	{"geometry":{"coordinates":[11.339184,43.310415],"type":"Point"},"properties":{"osm_id":"7043649627","tag":{"amenity":"waste_disposal","colour":"grey","description":"This is a garbage dumpster outside the wall of Siena, more precisely outside Porta Romana. No recycling opportunity.","waste":"unsorted"}},"type":"Feature"},
	{"geometry":{"coordinates":[11.339176,43.310386],"type":"Point"},"properties":{"osm_id":"7046861633","tag":{"amenity":"recycling","colour":"green;yellow;brown;","description":"These are recycling containers outside the wall of Siena, more precisely outside Porta Romana. Recycling Opportunity.","recycling:aluminium":"yes","recycling:cardboard":"yes","recycling:glass":"yes","recycling:organic_waste":"yes","recycling:paper":"yes","recycling:plastic":"yes","recycling:tetrapak":"yes","recycling_type":"container"}},"type":"Feature"}
]
}
