{
"type": "FeatureCollection",
"features": [
	{"geometry":{"coordinates":[-40.38528,-20.335938],"type":"Point"},"properties":{"name":"Marca Ambiental","osm_id":"5635031613","tag":{"amenity":"recycling","recycling_type":"centre"}},"type":"Feature"},
	{"geometry":{"coordinates":[-40.346502,-20.320921],"type":"Point"},"properties":{"osm_id":"7028556878","tag":{"amenity":"waste_basket","waste":"trash"}},"type":"Feature"},
	{"geometry":{"coordinates":[-40.344155,-20.319861],"type":"Point"},"properties":{"osm_id":"7028556880","tag":{"amenity":"waste_basket","waste":"trash"}},"type":"Feature"},
	{"geometry":{"coordinates":[-40.344473,-20.321411],"type":"Point"},"properties":{"osm_id":"7028566555","tag":{"amenity":"waste_basket","waste":"trash"}},"type":"Feature"},
	{"geometry":{"coordinates":[-40.343825,-20.321151],"type":"Point"},"properties":{"osm_id":"7028566556","tag":{"amenity":"waste_basket","waste":"trash"}},"type":"Feature"},
	{"geometry":{"coordinates":[-40.342778,-20.321328],"type":"Point"},"properties":{"osm_id":"7028566557","tag":{"amenity":"waste_basket","waste":"trash"}},"type":"Feature"},
	{"geometry":{"coordinates":[-40.341943,-20.321465],"type":"Point"},"properties":{"osm_id":"7028566558","tag":{"amenity":"waste_basket","waste":"trash"}},"type":"Feature"},
	{"geometry":{"coordinates":[-40.343308,-20.321238],"type":"Point"},"properties":{"osm_id":"7028566560","tag":{"amenity":"waste_basket","waste":"trash"}},"type":"Feature"},
	{"geometry":{"coordinates":[-40.352401,-20.307347],"type":"Point"},"properties":{"osm_id":"7028577390","tag":{"amenity":"waste_basket","waste":"trash"}},"type":"Feature"},
	{"geometry":{"coordinates":[-40.356815,-20.314875],"type":"Point"},"properties":{"osm_id":"7028577395","tag":{"amenity":"waste_basket","waste":"trash"}},"type":"Feature"},
	{"geometry":{"coordinates":[-40.355424,-20.318121],"type":"Point"},"properties":{"osm_id":"7028577396","tag":{"amenity":"waste_basket","waste":"trash"}},"type":"Feature"},
	{"geometry":{"coordinates":[-40.357043,-20.314433],"type":"Point"},"properties":{"osm_id":"7028577399","tag":{"amenity":"waste_basket","waste":"trash"}},"type":"Feature"},
	{"geometry":{"coordinates":[-40.356295,-20.311965],"type":"Point"},"properties":{"osm_id":"7028577400","tag":{"amenity":"waste_basket","waste":"trash"}},"type":"Feature"},
	{"geometry":{"coordinates":[-40.349758,-20.30417],"type":"Point"},"properties":{"osm_id":"7028577401","tag":{"amenity":"waste_basket","waste":"trash"}},"type":"Feature"},
	{"geometry":{"coordinates":[-40.352931,-20.308227],"type":"Point"},"properties":{"osm_id":"7028577403","tag":{"amenity":"waste_basket","waste":"trash"}},"type":"Feature"},
	{"geometry":{"coordinates":[-40.354256,-20.310643],"type":"Point"},"properties":{"osm_id":"7028577404","tag":{"amenity":"waste_basket","waste":"trash"}},"type":"Feature"},
	{"geometry":{"coordinates":[-40.35427,-20.310563],"type":"Point"},"properties":{"osm_id":"7028577405","tag":{"amenity":"waste_basket","waste":"trash"}},"type":"Feature"},
	{"geometry":{"coordinates":[-40.355715,-20.311563],"type":"Point"},"properties":{"osm_id":"7028577406","tag":{"amenity":"waste_basket","waste":"trash"}},"type":"Feature"},
	{"geometry":{"coordinates":[-40.352927,-20.317464],"type":"Point"},"properties":{"osm_id":"7028577407","tag":{"amenity":"waste_basket","waste":"trash"}},"type":"Feature"},
	{"geometry":{"coordinates":[-40.354575,-20.310845],"type":"Point"},"properties":{"osm_id":"7028577408","tag":{"amenity":"waste_basket","waste":"trash"}},"type":"Feature"},
	{"geometry":{"coordinates":[-40.353622,-20.310234],"type":"Point"},"properties":{"osm_id":"7028577409","tag":{"amenity":"waste_basket","waste":"trash"}},"type":"Feature"},
	{"geometry":{"coordinates":[-40.351597,-20.308084],"type":"Point"},"properties":{"osm_id":"7028577410","tag":{"amenity":"waste_basket","waste":"trash"}},"type":"Feature"},
	{"geometry":{"coordinates":[-40.3519,-20.308013],"type":"Point"},"properties":{"osm_id":"7028577411","tag":{"amenity":"waste_basket","waste":"trash"}},"type":"Feature"},
	{"geometry":{"coordinates":[-40.3539,-20.309302],"type":"Point"},"properties":{"osm_id":"7028577412","tag":{"amenity":"waste_basket","waste":"trash"}},"type":"Feature"},
	{"geometry":{"coordinates":[-40.356651,-20.315087],"type":"Point"},"properties":{"osm_id":"7028577413","tag":{"amenity":"waste_basket","waste":"trash"}},"type":"Feature"},
	{"geometry":{"coordinates":[-40.356471,-20.317617],"type":"Point"},"properties":{"osm_id":"7028577414","tag":{"amenity":"waste_basket","waste":"trash"}},"type":"Feature"},
	{"geometry":{"coordinates":[-40.356671,-20.317345],"type":"Point"},"properties":{"osm_id":"7028577415","tag":{"amenity":"waste_basket","waste":"trash"}},"type":"Feature"},
	{"geometry":{"coordinates":[-40.356631,-20.317383],"type":"Point"},"properties":{"osm_id":"7028577416","tag":{"amenity":"waste_basket","waste":"trash"}},"type":"Feature"},
	{"geometry":{"coordinates":[-40.353102,-20.317315],"type":"Point"},"properties":{"osm_id":"7028577417","tag":{"amenity":"waste_basket","waste":"trash"}},"type":"Feature"},
	{"geometry":{"coordinates":[-40.356599,-20.317479],"type":"Point"},"properties":{"osm_id":"7028577418","tag":{"amenity":"waste_basket","waste":"trash"}},"type":"Feature"},
	{"geometry":{"coordinates":[-40.353926,-20.310464],"type":"Point"},"properties":{"osm_id":"7028577420","tag":{"amenity":"waste_basket","waste":"trash"}},"type":"Feature"},
	{"geometry":{"coordinates":[-40.355285,-20.311294],"type":"Point"},"properties":{"osm_id":"7028577429","tag":{"amenity":"waste_basket","waste":"trash"}},"type":"Feature"},
	{"geometry":{"coordinates":[-40.35768,-20.313747],"type":"Point"},"properties":{"osm_id":"7028577430","tag":{"amenity":"waste_basket","waste":"trash"}},"type":"Feature"},
	{"geometry":{"coordinates":[-40.35309,-20.309882],"type":"Point"},"properties":{"osm_id":"7028577431","tag":{"amenity":"waste_basket","waste":"trash"}},"type":"Feature"},
	{"geometry":{"coordinates":[-40.356196,-20.316015],"type":"Point"},"properties":{"osm_id":"7028577432","tag":{"amenity":"waste_basket","waste":"trash"}},"type":"Feature"},
	{"geometry":{"coordinates":[-40.351714,-20.317397],"type":"Point"},"properties":{"osm_id":"7028577433","tag":{"amenity":"waste_basket","waste":"trash"}},"type":"Feature"},
	{"geometry":{"coordinates":[-40.351661,-20.318341],"type":"Point"},"properties":{"osm_id":"7028577489","tag":{"amenity":"waste_basket","waste":"trash"}},"type":"Feature"},
	{"geometry":{"coordinates":[-40.351647,-20.31846],"type":"Point"},"properties":{"osm_id":"7028577491","tag":{"amenity":"waste_basket","waste":"trash"}},"type":"Feature"},
	{"geometry":{"coordinates":[-40.351663,-20.317734],"type":"Point"},"properties":{"osm_id":"7028577492","tag":{"amenity":"waste_basket","waste":"trash"}},"type":"Feature"},
	{"geometry":{"coordinates":[-40.350943,-20.319218],"type":"Point"},"properties":{"osm_id":"7028577493","tag":{"amenity":"waste_basket","waste":"trash"}},"type":"Feature"},
	{"geometry":{"coordinates":[-40.351695,-20.317588],"type":"Point"},"properties":{"osm_id":"7028577494","tag":{"amenity":"waste_basket","waste":"trash"}},"type":"Feature"},
	{"geometry":{"coordinates":[-40.350623,-20.320655],"type":"Point"},"properties":{"osm_id":"7028577560","tag":{"amenity":"waste_basket","waste":"trash"}},"type":"Feature"},
	{"geometry":{"coordinates":[-40.347131,-20.320681],"type":"Point"},"properties":{"osm_id":"7028577836","tag":{"amenity":"waste_basket","waste":"trash"}},"type":"Feature"},
	{"geometry":{"coordinates":[-40.345864,-20.320845],"type":"Point"},"properties":{"osm_id":"7028577837","tag":{"amenity":"waste_basket","waste":"trash"}},"type":"Feature"},
	{"geometry":{"coordinates":[-40.346278,-20.320424],"type":"Point"},"properties":{"osm_id":"7028577838","tag":{"amenity":"waste_basket","waste":"trash"}},"type":"Feature"},
	{"geometry":{"coordinates":[-40.347312,-20.320499],"type":"Point"},"properties":{"osm_id":"7028577839","tag":{"amenity":"waste_basket","waste":"trash"}},"type":"Feature"},
	{"geometry":{"coordinates":[-40.342812,-20.319572],"type":"Point"},"properties":{"osm_id":"7028577842","tag":{"amenity":"waste_basket","waste":"trash"}},"type":"Feature"},
	{"geometry":{"coordinates":[-40.342687,-20.318639],"type":"Point"},"properties":{"osm_id":"7028577846","tag":{"amenity":"waste_basket","waste":"trash"}},"type":"Feature"},
	{"geometry":{"coordinates":[-40.34266,-20.319288],"type":"Point"},"properties":{"osm_id":"7028577850","tag":{"amenity":"waste_basket","waste":"trash"}},"type":"Feature"},
	{"geometry":{"coordinates":[-40.344191,-20.319731],"type":"Point"},"properties":{"osm_id":"7028577853","tag":{"amenity":"waste_basket","waste":"trash"}},"type":"Feature"},
	{"geometry":{"coordinates":[-40.345582,-20.319998],"type":"Point"},"properties":{"osm_id":"7028577856","tag":{"amenity":"waste_basket","waste":"trash"}},"type":"Feature"},
	{"geometry":{"coordinates":[-40.3434,-20.319963],"type":"Point"},"properties":{"osm_id":"7028577857","tag":{"amenity":"waste_basket","waste":"trash"}},"type":"Feature"},
	{"geometry":{"coordinates":[-40.350762,-20.321877],"type":"Point"},"properties":{"osm_id":"7028577858","tag":{"amenity":"waste_basket","waste":"trash"}},"type":"Feature"},
	{"geometry":{"coordinates":[-40.346772,-20.319431],"type":"Point"},"properties":{"osm_id":"7028577859","tag":{"amenity":"waste_basket","waste":"trash"}},"type":"Feature"},
	{"geometry":{"coordinates":[-40.346134,-20.319841],"type":"Point"},"properties":{"osm_id":"7028577860","tag":{"amenity":"waste_basket","waste":"trash"}},"type":"Feature"},
	{"geometry":{"coordinates":[-40.354464,-20.319737],"type":"Point"},"properties":{"osm_id":"7028577861","tag":{"amenity":"waste_basket","waste":"trash"}},"type":"Feature"},
	{"geometry":{"coordinates":[-40.347248,-20.320562],"type":"Point"},"properties":{"osm_id":"7028577862","tag":{"amenity":"waste_basket","waste":"trash"}},"type":"Feature"},
	{"geometry":{"coordinates":[-40.346752,-20.319299],"type":"Point"},"properties":{"osm_id":"7028577863","tag":{"amenity":"waste_basket","waste":"trash"}},"type":"Feature"},
	{"geometry":{"coordinates":[-40.350381,-20.321382],"type":"Point"},"properties":{"osm_id":"7028577864","tag":{"amenity":"waste_basket","waste":"trash"}},"type":"Feature"},
	{"geometry":{"coordinates":[-40.346275,-20.319714],"type":"Point"},"properties":{"osm_id":"7028577865","tag":{"amenity":"waste_basket","waste":"trash"}},"type":"Feature"},
	{"geometry":{"coordinates":[-40.345304,-20.320266],"type":"Point"},"properties":{"osm_id":"7028577866","tag":{"amenity":"waste_basket","waste":"trash"}},"type":"Feature"},
	{"geometry":{"coordinates":[-40.341933,-20.320042],"type":"Point"},"properties":{"osm_id":"7028577867","tag":{"amenity":"waste_basket","waste":"trash"}},"type":"Feature"},
	{"geometry":{"coordinates":[-40.34295,-20.319908],"type":"Point"},"properties":{"osm_id":"7028577869","tag":{"amenity":"waste_basket","waste":"trash"}},"type":"Feature"},
	{"geometry":{"coordinates":[-40.343081,-20.31988],"type":"Point"},"properties":{"osm_id":"7028577870","tag":{"amenity":"waste_basket","waste":"trash"}},"type":"Feature"},
	{"geometry":{"coordinates":[-40.342048,-20.318459],"type":"Point"},"properties":{"osm_id":"7028577871","tag":{"amenity":"waste_basket","waste":"trash"}},"type":"Feature"},
	{"geometry":{"coordinates":[-40.346775,-20.319849],"type":"Point"},"properties":{"osm_id":"7028577950","tag":{"amenity":"waste_basket","waste":"trash"}},"type":"Feature"},
	{"geometry":{"coordinates":[-40.345407,-20.321144],"type":"Point"},"properties":{"osm_id":"7028577954","tag":{"amenity":"waste_basket","waste":"trash"}},"type":"Feature"},
	{"geometry":{"coordinates":[-40.344935,-20.3216],"type":"Point"},"properties":{"osm_id":"7028577955","tag":{"amenity":"waste_basket","waste":"trash"}},"type":"Feature"},
	{"geometry":{"coordinates":[-40.347043,-20.320024],"type":"Point"},"properties":{"osm_id":"7028577956","tag":{"amenity":"waste_basket","waste":"trash"}},"type":"Feature"},
	{"geometry":{"coordinates":[-40.346299,-20.320231],"type":"Point"},"properties":{"osm_id":"7028577957","tag":{"amenity":"waste_basket","waste":"trash"}},"type":"Feature"},
	{"geometry":{"coordinates":[-40.345798,-20.320937],"type":"Point"},"properties":{"osm_id":"7028577958","tag":{"amenity":"waste_basket","waste":"trash"}},"type":"Feature"},
	{"geometry":{"coordinates":[-40.343857,-20.321283],"type":"Point"},"properties":{"osm_id":"7028577959","tag":{"amenity":"waste_basket","waste":"trash"}},"type":"Feature"},
	{"geometry":{"coordinates":[-40.349861,-20.303454],"type":"Point"},"properties":{"osm_id":"7028578048","tag":{"amenity":"waste_basket","waste":"trash"}},"type":"Feature"},
	{"geometry":{"coordinates":[-40.349762,-20.305712],"type":"Point"},"properties":{"osm_id":"7028578049","tag":{"amenity":"waste_basket","waste":"trash"}},"type":"Feature"},
	{"geometry":{"coordinates":[-40.34987,-20.305874],"type":"Point"},"properties":{"osm_id":"7028578050","tag":{"amenity":"waste_basket","waste":"trash"}},"type":"Feature"},
	{"geometry":{"coordinates":[-40.35101,-20.306442],"type":"Point"},"properties":{"osm_id":"7028578051","tag":{"amenity":"waste_basket","waste":"trash"}},"type":"Feature"},
	{"geometry":{"coordinates":[-40.351444,-20.306729],"type":"Point"},"properties":{"osm_id":"7028578052","tag":{"amenity":"waste_basket","waste":"trash"}},"type":"Feature"},
	{"geometry":{"coordinates":[-40.351451,-20.306613],"type":"Point"},"properties":{"osm_id":"7028578069","tag":{"amenity":"waste_basket","waste":"trash"}},"type":"Feature"},
	{"geometry":{"coordinates":[-40.352173,-20.307708],"type":"Point"},"properties":{"osm_id":"7028578070","tag":{"amenity":"waste_basket","waste":"trash"}},"type":"Feature"},
	{"geometry":{"coordinates":[-40.352789,-20.308121],"type":"Point"},"properties":{"osm_id":"7028578071","tag":{"amenity":"waste_basket","waste":"trash"}},"type":"Feature"},
	{"geometry":{"coordinates":[-40.352169,-20.307039],"type":"Point"},"properties":{"osm_id":"7028578072","tag":{"amenity":"waste_basket","waste":"trash"}},"type":"Feature"},
	{"geometry":{"coordinates":[-40.352871,-20.307609],"type":"Point"},"properties":{"osm_id":"7028578073","tag":{"amenity":"waste_basket","waste":"trash"}},"type":"Feature"},
	{"geometry":{"coordinates":[-40.353764,-20.309189],"type":"Point"},"properties":{"osm_id":"7028578074","tag":{"amenity":"waste_basket","waste":"trash"}},"type":"Feature"},
	{"geometry":{"coordinates":[-40.354415,-20.310406],"type":"Point"},"properties":{"osm_id":"7028578076","tag":{"amenity":"waste_basket","waste":"trash"}},"type":"Feature"},
	{"geometry":{"coordinates":[-40.352678,-20.303954],"type":"Point"},"properties":{"osm_id":"7028578085","tag":{"amenity":"waste_basket","waste":"trash"}},"type":"Feature"},
	{"geometry":{"coordinates":[-40.354939,-20.307786],"type":"Point"},"properties":{"osm_id":"7028578086","tag":{"amenity":"waste_basket","waste":"trash"}},"type":"Feature"},
	{"geometry":{"coordinates":[-40.354057,-20.306272],"type":"Point"},"properties":{"osm_id":"7028578087","tag":{"amenity":"waste_basket","waste":"trash"}},"type":"Feature"},
	{"geometry":{"coordinates":[-40.356258,-20.309845],"type":"Point"},"properties":{"osm_id":"7028578088","tag":{"amenity":"waste_basket","waste":"trash"}},"type":"Feature"},
	{"geometry":{"coordinates":[-40.355507,-20.31144],"type":"Point"},"properties":{"osm_id":"7028578089","tag":{"amenity":"waste_basket","waste":"trash"}},"type":"Feature"},
	{"geometry":{"coordinates":[-40.357481,-20.313077],"type":"Point"},"properties":{"osm_id":"7028578090","tag":{"amenity":"waste_basket","waste":"trash"}},"type":"Feature"},
	{"geometry":{"coordinates":[-40.357636,-20.313563],"type":"Point"},"properties":{"osm_id":"7028578091","tag":{"amenity":"waste_basket","waste":"trash"}},"type":"Feature"},
	{"geometry":{"coordinates":[-40.356051,-20.31534],"type":"Point"},"properties":{"osm_id":"7028578092","tag":{"amenity":"waste_basket","waste":"trash"}},"type":"Feature"},
	{"geometry":{"coordinates":[-40.356273,-20.316095],"type":"Point"},"properties":{"osm_id":"7028578093","tag":{"amenity":"waste_basket","waste":"trash"}},"type":"Feature"},
	{"geometry":{"coordinates":[-40.356715,-20.317306],"type":"Point"},"properties":{"osm_id":"7028578094","tag":{"amenity":"waste_basket","waste":"trash"}},"type":"Feature"},
	{"geometry":{"coordinates":[-40.356403,-20.317672],"type":"Point"},"properties":{"osm_id":"7028578095","tag":{"amenity":"waste_basket","waste":"trash"}},"type":"Feature"},
	{"geometry":{"coordinates":[-40.355097,-20.318074],"type":"Point"},"properties":{"osm_id":"7028578096","tag":{"amenity":"waste_basket","waste":"trash"}},"type":"Feature"},
	{"geometry":{"coordinates":[-40.35206,-20.317142],"type":"Point"},"properties":{"osm_id":"7028578097","tag":{"amenity":"waste_basket","waste":"trash"}},"type":"Feature"},
	{"geometry":{"coordinates":[-40.35241,-20.317157],"type":"Point"},"properties":{"osm_id":"7028578098","tag":{"amenity":"waste_basket","waste":"trash"}},"type":"Feature"},
	{"geometry":{"coordinates":[-40.342179,-20.316913],"type":"Point"},"properties":{"osm_id":"7028578113","tag":{"amenity":"waste_basket","waste":"trash"}},"type":"Feature"},
	{"geometry":{"coordinates":[-40.342211,-20.316637],"type":"Point"},"properties":{"osm_id":"7028578114","tag":{"amenity":"waste_basket","waste":"trash"}},"type":"Feature"},
	{"geometry":{"coordinates":[-40.342235,-20.316354],"type":"Point"},"properties":{"osm_id":"7028578115","tag":{"amenity":"waste_basket","waste":"trash"}},"type":"Feature"},
	{"geometry":{"coordinates":[-40.358242,-20.316231],"type":"Point"},"properties":{"osm_id":"7028578147","tag":{"amenity":"waste_basket","waste":"trash"}},"type":"Feature"},
	{"geometry":{"coordinates":[-40.358256,-20.316018],"type":"Point"},"properties":{"osm_id":"7028578148","tag":{"amenity":"waste_basket","waste":"trash"}},"type":"Feature"},
	{"geometry":{"coordinates":[-40.358299,-20.315763],"type":"Point"},"properties":{"osm_id":"7028578149","tag":{"amenity":"waste_basket","waste":"trash"}},"type":"Feature"},
	{"geometry":{"coordinates":[-40.358354,-20.31546],"type":"Point"},"properties":{"osm_id":"7028578150","tag":{"amenity":"waste_basket","waste":"trash"}},"type":"Feature"},
	{"geometry":{"coordinates":[-40.358414,-20.315059],"type":"Point"},"properties":{"osm_id":"7028578151","tag":{"amenity":"waste_basket","waste":"trash"}},"type":"Feature"},
	{"geometry":{"coordinates":[-40.358453,-20.314835],"type":"Point"},"properties":{"osm_id":"7028578152","tag":{"amenity":"waste_basket","waste":"trash"}},"type":"Feature"},
	{"geometry":{"coordinates":[-40.358515,-20.31449],"type":"Point"},"properties":{"osm_id":"7028578153","tag":{"amenity":"waste_basket","waste":"trash"}},"type":"Feature"},
	{"geometry":{"coordinates":[-40.35855,-20.314317],"type":"Point"},"properties":{"osm_id":"7028578154","tag":{"amenity":"waste_basket","waste":"trash"}},"type":"Feature"},
	{"geometry":{"coordinates":[-40.35857,-20.314062],"type":"Point"},"properties":{"osm_id":"7028578155","tag":{"amenity":"waste_basket","waste":"trash"}},"type":"Feature"},
	{"geometry":{"coordinates":[-40.345711,-20.320861],"type":"Point"},"properties":{"osm_id":"7028578223","tag":{"amenity":"waste_basket","waste":"trash"}},"type":"Feature"},
	{"geometry":{"coordinates":[-40.344783,-20.319949],"type":"Point"},"properties":{"osm_id":"7028578224","tag":{"amenity":"waste_basket","waste":"trash"}},"type":"Feature"},
	{"geometry":{"coordinates":[-40.344262,-20.319746],"type":"Point"},"properties":{"osm_id":"7028578225","tag":{"amenity":"waste_basket","waste":"trash"}},"type":"Feature"},
	{"geometry":{"coordinates":[-40.34322,-20.319866],"type":"Point"},"properties":{"osm_id":"7028578226","tag":{"amenity":"waste_basket","waste":"trash"}},"type":"Feature"},
	{"geometry":{"coordinates":[-40.342312,-20.320004],"type":"Point"},"properties":{"osm_id":"7028578227","tag":{"amenity":"waste_basket","waste":"trash"}},"type":"Feature"},
	{"geometry":{"coordinates":[-40.342737,-20.319898],"type":"Point"},"properties":{"osm_id":"7028578228","tag":{"amenity":"waste_basket","waste":"trash"}},"type":"Feature"},
	{"geometry":{"coordinates":[-40.342782,-20.319425],"type":"Point"},"properties":{"osm_id":"7028578229","tag":{"amenity":"waste_basket","waste":"trash"}},"type":"Feature"},
	{"geometry":{"coordinates":[-40.342361,-20.318422],"type":"Point"},"properties":{"osm_id":"7028578230","tag":{"amenity":"waste_basket","waste":"trash"}},"type":"Feature"},
	{"geometry":{"coordinates":[-40.342383,-20.321381],"type":"Point"},"properties":{"osm_id":"7028578235","tag":{"amenity":"waste_basket","waste":"trash"}},"type":"Feature"},
	{"geometry":{"coordinates":[-40.356321,-20.311612],"type":"Point"},"properties":{"osm_id":"7028578249","tag":{"amenity":"waste_basket","waste":"trash"}},"type":"Feature"},
	{"geometry":{"coordinates":[-40.356022,-20.311444],"type":"Point"},"properties":{"osm_id":"7028578250","tag":{"amenity":"waste_basket","waste":"trash"}},"type":"Feature"},
	{"geometry":{"coordinates":[-40.356352,-20.311853],"type":"Point"},"properties":{"osm_id":"7028578251","tag":{"amenity":"waste_basket","waste":"trash"}},"type":"Feature"},
	{"geometry":{"coordinates":[-40.356064,-20.311696],"type":"Point"},"properties":{"osm_id":"7028578252","tag":{"amenity":"waste_basket","waste":"trash"}},"type":"Feature"},
	{"geometry":{"coordinates":[-40.355795,-20.31154],"type":"Point"},"properties":{"osm_id":"7028578253","tag":{"amenity":"waste_basket","waste":"trash"}},"type":"Feature"},
	{"geometry":{"coordinates":[-40.342958,-20.321712],"type":"Point"},"properties":{"osm_id":"7028578259","tag":{"amenity":"waste_basket","waste":"trash"}},"type":"Feature"},
	{"geometry":{"coordinates":[-40.34723,-20.32101],"type":"Point"},"properties":{"osm_id":"7028578260","tag":{"amenity":"waste_basket","waste":"trash"}},"type":"Feature"},
	{"geometry":{"coordinates":[-40.347303,-20.321],"type":"Point"},"properties":{"osm_id":"7028578261","tag":{"amenity":"waste_basket","waste":"trash"}},"type":"Feature"},
	{"geometry":{"coordinates":[-40.348541,-20.321072],"type":"Point"},"properties":{"osm_id":"7028578262","tag":{"amenity":"waste_basket","waste":"trash"}},"type":"Feature"},
	{"geometry":{"coordinates":[-40.350116,-20.321254],"type":"Point"},"properties":{"osm_id":"7028578263","tag":{"amenity":"waste_basket","waste":"trash"}},"type":"Feature"}
]
}
