{
"type": "FeatureCollection",
"features": [
	{"geometry":{"coordinates":[106.695118,10.783663],"type":"Point"},"properties":{"osm_id":"2926903601","tag":{"amenity":"waste_basket"}},"type":"Feature"},
	{"geometry":{"coordinates":[106.651384,10.770783],"type":"Point"},"properties":{"osm_id":"4478131889","tag":{"amenity":"recycling","phone":"0906480262"}},"type":"Feature"},
	{"geometry":{"coordinates":[106.657639,10.790564],"type":"Point"},"properties":{"osm_id":"5293846846","tag":{"amenity":"waste_basket"}},"type":"Feature"},
	{"geometry":{"coordinates":[106.670388,10.769391],"type":"Point"},"properties":{"osm_id":"5598917868","tag":{"amenity":"waste_basket"}},"type":"Feature"},
	{"geometry":{"coordinates":[106.678387,10.821906],"type":"Point"},"properties":{"osm_id":"5599691122","tag":{"amenity":"waste_basket"}},"type":"Feature"},
	{"geometry":{"coordinates":[106.663475,10.781148],"type":"Point"},"properties":{"osm_id":"5599691123","tag":{"amenity":"waste_basket"}},"type":"Feature"},
	{"geometry":{"coordinates":[106.683801,10.804472],"type":"Point"},"properties":{"osm_id":"5600341621","tag":{"amenity":"waste_basket"}},"type":"Feature"},
	{"geometry":{"coordinates":[106.663361,10.765739],"type":"Point"},"properties":{"osm_id":"5603305626","tag":{"amenity":"waste_basket"}},"type":"Feature"},
	{"geometry":{"coordinates":[106.660346,10.767056],"type":"Point"},"properties":{"osm_id":"5606849922","tag":{"amenity":"waste_basket"}},"type":"Feature"},
	{"geometry":{"coordinates":[106.696752,10.787446],"type":"Point"},"properties":{"osm_id":"5810212753","tag":{"amenity":"waste_basket"}},"type":"Feature"},
	{"geometry":{"coordinates":[106.680159,10.773593],"type":"Point"},"properties":{"osm_id":"5818326570","tag":{"amenity":"waste_basket"}},"type":"Feature"},
	{"geometry":{"coordinates":[106.680835,10.769745],"type":"Point"},"properties":{"osm_id":"5850460486","tag":{"amenity":"waste_basket"}},"type":"Feature"},
	{"geometry":{"coordinates":[106.676107,10.771287],"type":"Point"},"properties":{"osm_id":"5973910986","tag":{"amenity":"waste_basket"}},"type":"Feature"},
	{"geometry":{"coordinates":[106.687234,10.813612],"type":"Point"},"properties":{"osm_id":"6170426585","tag":{"amenity":"waste_basket"}},"type":"Feature"},
	{"geometry":{"coordinates":[106.67689,10.77593],"type":"Point"},"properties":{"osm_id":"6175030087","tag":{"amenity":"waste_basket"}},"type":"Feature"}
]
}
