{
"type": "FeatureCollection",
"features": [
	{"geometry":{"coordinates":[4.305378,52.123243],"type":"Point"},"properties":{"osm_id":"1755864932","tag":{"amenity":"waste_basket"}},"type":"Feature"},
	{"geometry":{"coordinates":[4.305026,52.12452],"type":"Point"},"properties":{"osm_id":"1755864934","tag":{"amenity":"waste_basket"}},"type":"Feature"},
	{"geometry":{"coordinates":[4.305682,52.117937],"type":"Point"},"properties":{"osm_id":"1755879766","tag":{"amenity":"waste_basket"}},"type":"Feature"},
	{"geometry":{"coordinates":[4.293866,52.11354],"type":"Point"},"properties":{"osm_id":"1756516602","tag":{"amenity":"waste_basket"}},"type":"Feature"},
	{"geometry":{"coordinates":[4.304369,52.111214],"type":"Point"},"properties":{"osm_id":"1760427701","tag":{"amenity":"waste_basket"}},"type":"Feature"},
	{"geometry":{"coordinates":[4.299567,52.108032],"type":"Point"},"properties":{"osm_id":"1763211322","tag":{"amenity":"recycling","recycling:cans":"yes","recycling:glass_bottles":"yes","recycling:paper":"yes","recycling_type":"container"}},"type":"Feature"},
	{"geometry":{"coordinates":[4.283124,52.108239],"type":"Point"},"properties":{"osm_id":"1977340867","tag":{"amenity":"recycling","recycling:glass_bottles":"yes","recycling:paper":"yes","recycling_type":"container"}},"type":"Feature"}
]
}
