{
"type": "FeatureCollection",
"features": [
	{"geometry":{"coordinates":[4.279355,52.094147],"type":"Point"},"properties":{"osm_id":"27375500","tag":{"amenity":"recycling","recycling:cardboard":"yes","recycling:paper":"yes","recycling_type":"container"}},"type":"Feature"},
	{"geometry":{"coordinates":[4.251305,52.054702],"type":"Point"},"properties":{"osm_id":"669901114","tag":{"amenity":"recycling","recycling:clothes":"yes","recycling:glass":"yes","recycling:glass_bottles":"yes","recycling:magazines":"yes","recycling:newspaper":"yes","recycling:paper":"yes","recycling:waste":"yes","recycling_type":"container"}},"type":"Feature"},
	{"geometry":{"coordinates":[4.247813,52.059163],"type":"Point"},"properties":{"osm_id":"669901116","tag":{"amenity":"recycling","recycling_type":"container"}},"type":"Feature"},
	{"geometry":{"coordinates":[4.253602,52.061734],"type":"Point"},"properties":{"osm_id":"677655580","tag":{"amenity":"recycling","recycling_type":"container"}},"type":"Feature"},
	{"geometry":{"coordinates":[4.30031,52.089527],"type":"Point"},"properties":{"osm_id":"929049919","tag":{"amenity":"recycling","recycling_type":"container"}},"type":"Feature"},
	{"geometry":{"coordinates":[4.231845,52.05982],"type":"Point"},"properties":{"osm_id":"1159076462","tag":{"amenity":"recycling","location":"underground","recycling_type":"container"}},"type":"Feature"},
	{"geometry":{"coordinates":[4.275532,52.08875],"type":"Point"},"properties":{"osm_id":"1436795611","tag":{"amenity":"waste_basket"}},"type":"Feature"},
	{"geometry":{"coordinates":[4.275725,52.088644],"type":"Point"},"properties":{"osm_id":"1436802027","tag":{"amenity":"waste_basket"}},"type":"Feature"},
	{"geometry":{"coordinates":[4.277965,52.087639],"type":"Point"},"properties":{"osm_id":"1436827385","tag":{"amenity":"recycling","location":"overground","recycling:glass":"yes","recycling:paper":"yes","recycling_type":"container"}},"type":"Feature"},
	{"geometry":{"coordinates":[4.276095,52.088974],"type":"Point"},"properties":{"osm_id":"1436835518","tag":{"amenity":"waste_basket"}},"type":"Feature"},
	{"geometry":{"coordinates":[4.275966,52.089027],"type":"Point"},"properties":{"osm_id":"1436835529","tag":{"amenity":"waste_basket"}},"type":"Feature"},
	{"geometry":{"coordinates":[4.305231,52.090557],"type":"Point"},"properties":{"osm_id":"1487381140","tag":{"amenity":"recycling","recycling:cardboard":"yes","recycling:glass_bottles":"yes","recycling:newspaper":"yes","recycling:paper":"yes","recycling:paper_packaging":"yes","recycling:plastic":"yes","recycling:plastic_bottles":"yes","recycling:plastic_packaging":"yes","recycling_type":"container"}},"type":"Feature"},
	{"geometry":{"coordinates":[4.303625,52.077031],"type":"Point"},"properties":{"osm_id":"1515044658","tag":{"amenity":"recycling","operator":"Haagste Milieu Service (HMS)","recycling_type":"container"}},"type":"Feature"},
	{"geometry":{"coordinates":[4.30309,52.077747],"type":"Point"},"properties":{"osm_id":"1515054943","tag":{"amenity":"waste_basket"}},"type":"Feature"},
	{"geometry":{"coordinates":[4.302232,52.078581],"type":"Point"},"properties":{"osm_id":"1515054945","tag":{"amenity":"waste_basket"}},"type":"Feature"},
	{"geometry":{"coordinates":[4.303139,52.077686],"type":"Point"},"properties":{"osm_id":"1515054946","tag":{"amenity":"waste_basket"}},"type":"Feature"},
	{"geometry":{"coordinates":[4.303816,52.077876],"type":"Point"},"properties":{"osm_id":"1515570312","tag":{"amenity":"waste_basket"}},"type":"Feature"},
	{"geometry":{"coordinates":[4.304042,52.07776],"type":"Point"},"properties":{"osm_id":"1515906538","tag":{"amenity":"waste_basket"}},"type":"Feature"},
	{"geometry":{"coordinates":[4.303952,52.078072],"type":"Point"},"properties":{"osm_id":"1515906545","tag":{"amenity":"waste_basket"}},"type":"Feature"},
	{"geometry":{"coordinates":[4.304285,52.07739],"type":"Point"},"properties":{"osm_id":"1517594040","tag":{"amenity":"waste_basket"}},"type":"Feature"},
	{"geometry":{"coordinates":[4.304485,52.077647],"type":"Point"},"properties":{"osm_id":"1517594043","tag":{"amenity":"waste_basket"}},"type":"Feature"},
	{"geometry":{"coordinates":[4.304895,52.07769],"type":"Point"},"properties":{"osm_id":"1517594053","tag":{"amenity":"waste_basket"}},"type":"Feature"},
	{"geometry":{"coordinates":[4.305223,52.077805],"type":"Point"},"properties":{"osm_id":"1517594055","tag":{"amenity":"waste_basket"}},"type":"Feature"},
	{"geometry":{"coordinates":[4.305422,52.077928],"type":"Point"},"properties":{"osm_id":"1517594058","tag":{"amenity":"waste_basket"}},"type":"Feature"},
	{"geometry":{"coordinates":[4.306041,52.074622],"type":"Point"},"properties":{"osm_id":"1529648871","tag":{"amenity":"recycling","recycling:glass_bottles":"yes","recycling_type":"container"}},"type":"Feature"},
	{"geometry":{"coordinates":[4.306028,52.074638],"type":"Point"},"properties":{"name":"Papierbak","osm_id":"1529648882","tag":{"amenity":"recycling","recycling_type":"container"}},"type":"Feature"},
	{"geometry":{"coordinates":[4.269997,52.104052],"type":"Point"},"properties":{"osm_id":"1670410221","tag":{"amenity":"recycling","recycling:batteries":"yes","recycling:cans":"yes","recycling:glass":"yes","recycling:paper":"yes","recycling:scrap_metal":"yes","recycling_type":"centre"}},"type":"Feature"},
	{"geometry":{"coordinates":[4.282052,52.066611],"type":"Point"},"properties":{"name":"Glass / Paper","osm_id":"1684576911","tag":{"amenity":"recycling","recycling:glass":"yes","recycling:glass_bottles":"yes","recycling:paper":"yes","recycling_type":"container"}},"type":"Feature"},
	{"geometry":{"coordinates":[4.239886,52.083304],"type":"Point"},"properties":{"osm_id":"1782899673","tag":{"amenity":"waste_basket"}},"type":"Feature"},
	{"geometry":{"coordinates":[4.222578,52.070614],"type":"Point"},"properties":{"osm_id":"1807010515","tag":{"amenity":"waste_basket"}},"type":"Feature"},
	{"geometry":{"coordinates":[4.226224,52.073458],"type":"Point"},"properties":{"osm_id":"1807062192","tag":{"amenity":"waste_basket"}},"type":"Feature"},
	{"geometry":{"coordinates":[4.237733,52.073849],"type":"Point"},"properties":{"osm_id":"1809092151","tag":{"amenity":"waste_basket"}},"type":"Feature"},
	{"geometry":{"coordinates":[4.239245,52.073732],"type":"Point"},"properties":{"osm_id":"1809274459","tag":{"amenity":"waste_basket"}},"type":"Feature"},
	{"geometry":{"coordinates":[4.232787,52.074883],"type":"Point"},"properties":{"osm_id":"1809274462","tag":{"amenity":"waste_basket"}},"type":"Feature"},
	{"geometry":{"coordinates":[4.235361,52.079823],"type":"Point"},"properties":{"osm_id":"1952448128","tag":{"amenity":"waste_basket"}},"type":"Feature"},
	{"geometry":{"coordinates":[4.273786,52.100559],"type":"Point"},"properties":{"osm_id":"1957552102","tag":{"amenity":"recycling","recycling:glass_bottles":"yes","recycling_type":"container"}},"type":"Feature"},
	{"geometry":{"coordinates":[4.228986,52.05656],"type":"Point"},"properties":{"osm_id":"1957561679","tag":{"amenity":"recycling","recycling:glass_bottles":"yes","recycling:paper":"yes","recycling:plastic":"yes","recycling_type":"container"}},"type":"Feature"},
	{"geometry":{"coordinates":[4.244008,52.063669],"type":"Point"},"properties":{"osm_id":"1963502792","tag":{"amenity":"recycling","location":"overground","recycling:glass_bottles":"yes","recycling:paper":"yes","recycling_type":"container"}},"type":"Feature"},
	{"geometry":{"coordinates":[4.239095,52.055734],"type":"Point"},"properties":{"osm_id":"1964774847","tag":{"amenity":"recycling","recycling:clothes":"yes","recycling:glass_bottles":"yes","recycling:paper":"yes","recycling_type":"container"}},"type":"Feature"},
	{"geometry":{"coordinates":[4.234788,52.052703],"type":"Point"},"properties":{"osm_id":"1975187527","tag":{"amenity":"recycling","recycling:clothes":"yes","recycling:plastic":"yes","recycling_type":"container"}},"type":"Feature"},
	{"geometry":{"coordinates":[4.253052,52.06675],"type":"Point"},"properties":{"osm_id":"1985726033","tag":{"amenity":"recycling","location":"underground","recycling:glass":"yes","recycling:paper":"yes","recycling_type":"container"}},"type":"Feature"},
	{"geometry":{"coordinates":[4.227582,52.0579],"type":"Point"},"properties":{"osm_id":"2008808910","tag":{"amenity":"recycling","recycling:clothes":"yes","recycling_type":"container"}},"type":"Feature"},
	{"geometry":{"coordinates":[4.286972,52.095757],"type":"Point"},"properties":{"osm_id":"2021308983","tag":{"amenity":"waste_basket"}},"type":"Feature"},
	{"geometry":{"coordinates":[4.27643,52.098988],"type":"Point"},"properties":{"osm_id":"2031661790","tag":{"amenity":"waste_basket"}},"type":"Feature"},
	{"geometry":{"coordinates":[4.23915,52.052892],"type":"Point"},"properties":{"osm_id":"2082331102","tag":{"amenity":"recycling","recycling:glass_bottles":"yes","recycling_type":"container"}},"type":"Feature"},
	{"geometry":{"coordinates":[4.233288,52.053649],"type":"Point"},"properties":{"osm_id":"2082331103","tag":{"amenity":"recycling","recycling:glass_bottles":"yes","recycling:paper":"yes","recycling_type":"container"}},"type":"Feature"},
	{"geometry":{"coordinates":[4.236478,52.061066],"type":"Point"},"properties":{"osm_id":"2082356878","tag":{"amenity":"recycling","recycling:clothes":"yes","recycling:glass_bottles":"yes","recycling:paper":"yes","recycling_type":"container"}},"type":"Feature"},
	{"geometry":{"coordinates":[4.275627,52.104302],"type":"Point"},"properties":{"osm_id":"2158171819","tag":{"amenity":"recycling","recycling:cans":"yes","recycling:paper":"yes","recycling_type":"container"}},"type":"Feature"},
	{"geometry":{"coordinates":[4.256651,52.083376],"type":"Point"},"properties":{"osm_id":"2242640092","tag":{"amenity":"recycling","recycling:cans":"yes","recycling:paper":"yes","recycling_type":"container"}},"type":"Feature"},
	{"geometry":{"coordinates":[4.283027,52.076142],"type":"Point"},"properties":{"osm_id":"2349913465","tag":{"amenity":"recycling","recycling:glass":"yes","recycling:plastic":"yes","recycling_type":"container"}},"type":"Feature"},
	{"geometry":{"coordinates":[4.282949,52.076353],"type":"Point"},"properties":{"osm_id":"2349913466","tag":{"amenity":"recycling","recycling:paper":"yes","recycling_type":"container"}},"type":"Feature"},
	{"geometry":{"coordinates":[4.284323,52.080617],"type":"Point"},"properties":{"osm_id":"2349913468","tag":{"amenity":"recycling","recycling:clothes":"yes","recycling:glass":"yes","recycling:paper":"no","recycling:plastic":"yes","recycling_type":"container"}},"type":"Feature"},
	{"geometry":{"coordinates":[4.242924,52.054035],"type":"Point"},"properties":{"osm_id":"2456042655","tag":{"amenity":"recycling","recycling:glass":"yes","recycling:paper":"yes","recycling_type":"container"}},"type":"Feature"},
	{"geometry":{"coordinates":[4.285992,52.104386],"type":"Point"},"properties":{"osm_id":"2953911772","tag":{"amenity":"recycling","recycling:glass_bottles":"yes","recycling_type":"container"}},"type":"Feature"},
	{"geometry":{"coordinates":[4.28594,52.104408],"type":"Point"},"properties":{"osm_id":"2953911774","tag":{"amenity":"recycling","recycling:paper":"yes","recycling_type":"container"}},"type":"Feature"},
	{"geometry":{"coordinates":[4.285431,52.104655],"type":"Point"},"properties":{"osm_id":"2953911777","tag":{"amenity":"waste_basket"}},"type":"Feature"},
	{"geometry":{"coordinates":[4.247893,52.080823],"type":"Point"},"properties":{"osm_id":"3016001475","tag":{"amenity":"waste_basket"}},"type":"Feature"},
	{"geometry":{"coordinates":[4.243796,52.059653],"type":"Point"},"properties":{"osm_id":"3030587936","tag":{"amenity":"recycling","recycling:glass":"yes","recycling_type":"container"}},"type":"Feature"},
	{"geometry":{"coordinates":[4.243844,52.059668],"type":"Point"},"properties":{"osm_id":"3030587937","tag":{"amenity":"recycling","recycling:paper":"yes","recycling_type":"container"}},"type":"Feature"},
	{"geometry":{"coordinates":[4.2256,52.059902],"type":"Point"},"properties":{"osm_id":"3135455972","tag":{"amenity":"waste_basket"}},"type":"Feature"},
	{"geometry":{"coordinates":[4.237967,52.081405],"type":"Point"},"properties":{"osm_id":"3201522032","tag":{"amenity":"waste_basket"}},"type":"Feature"},
	{"geometry":{"coordinates":[4.241421,52.081695],"type":"Point"},"properties":{"osm_id":"3201522034","tag":{"amenity":"waste_basket"}},"type":"Feature"},
	{"geometry":{"coordinates":[4.288484,52.097757],"type":"Point"},"properties":{"osm_id":"3304335403","tag":{"amenity":"waste_basket"}},"type":"Feature"},
	{"geometry":{"coordinates":[4.297303,52.074569],"type":"Point"},"properties":{"name":"ORAC","osm_id":"3603427055","tag":{"amenity":"waste_disposal","orac-number":"ORAC 11-18"}},"type":"Feature"},
	{"geometry":{"coordinates":[4.297687,52.074863],"type":"Point"},"properties":{"name":"ORAC","osm_id":"3603427056","tag":{"amenity":"waste_disposal","orac-number":"ORAC 11-19A"}},"type":"Feature"},
	{"geometry":{"coordinates":[4.299197,52.074929],"type":"Point"},"properties":{"name":"ORAC","osm_id":"3603427057","tag":{"amenity":"waste_disposal","orac-number":"ORAC 11-20"}},"type":"Feature"},
	{"geometry":{"coordinates":[4.299897,52.074997],"type":"Point"},"properties":{"name":"ORAC","osm_id":"3603427058","tag":{"amenity":"waste_disposal","orac-number":"ORAC 11-21A"}},"type":"Feature"},
	{"geometry":{"coordinates":[4.295738,52.076076],"type":"Point"},"properties":{"name":"ORAC","osm_id":"3603427059","tag":{"amenity":"waste_disposal","orac-number":"ORAC 11-01"}},"type":"Feature"},
	{"geometry":{"coordinates":[4.296578,52.076199],"type":"Point"},"properties":{"name":"ORAC","osm_id":"3603427060","tag":{"amenity":"waste_disposal","orac-number":"ORAC 11-03A"}},"type":"Feature"},
	{"geometry":{"coordinates":[4.301947,52.076838],"type":"Point"},"properties":{"name":"ORAC","osm_id":"3603427061","tag":{"amenity":"waste_disposal","orac-number":"ORAC 11-16"}},"type":"Feature"},
	{"geometry":{"coordinates":[4.303553,52.07707],"type":"Point"},"properties":{"name":"ORAC","osm_id":"3603427062","tag":{"amenity":"waste_disposal","orac-number":"ORAC 11-17A"}},"type":"Feature"},
	{"geometry":{"coordinates":[4.300709,52.07709],"type":"Point"},"properties":{"name":"ORAC","osm_id":"3603427063","tag":{"amenity":"waste_disposal","orac-number":"ORAC 11-12"}},"type":"Feature"},
	{"geometry":{"coordinates":[4.297298,52.077188],"type":"Point"},"properties":{"name":"ORAC","osm_id":"3603427064","tag":{"amenity":"waste_disposal","orac-number":"ORAC 11-04"}},"type":"Feature"},
	{"geometry":{"coordinates":[4.301969,52.077421],"type":"Point"},"properties":{"name":"ORAC","osm_id":"3603427065","tag":{"amenity":"waste_disposal","orac-number":"ORAC 11-13B"}},"type":"Feature"},
	{"geometry":{"coordinates":[4.300733,52.077594],"type":"Point"},"properties":{"name":"ORAC","osm_id":"3603427066","tag":{"amenity":"waste_disposal","orac-number":"ORAC 11-11B"}},"type":"Feature"},
	{"geometry":{"coordinates":[4.303202,52.077601],"type":"Point"},"properties":{"name":"ORAC","osm_id":"3603427067","tag":{"amenity":"waste_disposal","orac-number":"ORAC 11-14"}},"type":"Feature"},
	{"geometry":{"coordinates":[4.299926,52.077613],"type":"Point"},"properties":{"name":"ORAC","osm_id":"3603427068","tag":{"amenity":"waste_disposal","orac-number":"ORAC 11-07A"}},"type":"Feature"},
	{"geometry":{"coordinates":[4.298573,52.077658],"type":"Point"},"properties":{"name":"ORAC","osm_id":"3603427069","tag":{"amenity":"waste_disposal","orac-number":"ORAC 11-05"}},"type":"Feature"},
	{"geometry":{"coordinates":[4.30409,52.078068],"type":"Point"},"properties":{"name":"ORAC","osm_id":"3603427070","tag":{"amenity":"waste_disposal","orac-number":"ORAC 11-15"}},"type":"Feature"},
	{"geometry":{"coordinates":[4.302261,52.078536],"type":"Point"},"properties":{"name":"ORAC","osm_id":"3603427071","tag":{"amenity":"waste_disposal","orac-number":"ORAC 11-09A"}},"type":"Feature"},
	{"geometry":{"coordinates":[4.302708,52.078913],"type":"Point"},"properties":{"name":"ORAC","osm_id":"3603427072","tag":{"amenity":"waste_disposal","orac-number":"ORAC 11-10A"}},"type":"Feature"},
	{"geometry":{"coordinates":[4.286863,52.082342],"type":"Point"},"properties":{"osm_id":"3691084985","tag":{"amenity":"recycling","location":"overground","recycling:clothes":"no","recycling:glass":"yes","recycling:paper":"yes","recycling_type":"container"}},"type":"Feature"},
	{"geometry":{"coordinates":[4.239143,52.052828],"type":"Point"},"properties":{"name":"Oud papier","osm_id":"3844333488","tag":{"amenity":"recycling","recycling:glass_bottles":"no","recycling:paper":"yes","recycling_type":"container"}},"type":"Feature"},
	{"geometry":{"coordinates":[4.239194,52.052859],"type":"Point"},"properties":{"osm_id":"3844333489","tag":{"amenity":"waste_basket"}},"type":"Feature"},
	{"geometry":{"coordinates":[4.249449,52.053884],"type":"Point"},"properties":{"osm_id":"3923954330","tag":{"amenity":"recycling","recycling:glass_bottles":"yes","recycling_type":"container"}},"type":"Feature"},
	{"geometry":{"coordinates":[4.248786,52.056491],"type":"Point"},"properties":{"osm_id":"3927003007","tag":{"amenity":"waste_basket"}},"type":"Feature"},
	{"geometry":{"coordinates":[4.293999,52.082279],"type":"Point"},"properties":{"osm_id":"4356014497","tag":{"addr:city":"'s-Gravenhage","addr:street":"Prins Hendrikplein","amenity":"recycling","recycling:batteries":"yes","recycling:cans":"no","recycling:clothes":"no","recycling:electrical_appliances":"yes","recycling:glass":"no","recycling:glass_bottles":"yes","recycling:paper":"yes","recycling:plastic":"no","recycling_type":"container"}},"type":"Feature"},
	{"geometry":{"coordinates":[4.278259,52.091232],"type":"Point"},"properties":{"osm_id":"4516188389","tag":{"amenity":"waste_basket"}},"type":"Feature"},
	{"geometry":{"coordinates":[4.278405,52.091243],"type":"Point"},"properties":{"osm_id":"4516188489","tag":{"amenity":"waste_basket"}},"type":"Feature"},
	{"geometry":{"coordinates":[4.278195,52.091582],"type":"Point"},"properties":{"osm_id":"4516188589","tag":{"amenity":"waste_basket"}},"type":"Feature"},
	{"geometry":{"coordinates":[4.305859,52.069079],"type":"Point"},"properties":{"osm_id":"4915466627","tag":{"amenity":"waste_basket"}},"type":"Feature"},
	{"geometry":{"coordinates":[4.24695,52.067221],"type":"Point"},"properties":{"osm_id":"5103177304","tag":{"amenity":"recycling","recycling:glass":"yes","recycling:paper":"yes","recycling:plastic":"yes","recycling_type":"container"}},"type":"Feature"},
	{"geometry":{"coordinates":[4.246805,52.066165],"type":"Point"},"properties":{"osm_id":"5103177305","tag":{"amenity":"recycling","operator":"Gemeente Den Haag","recycling:glass":"yes","recycling:paper":"yes","recycling:plastic":"yes","recycling_type":"container"}},"type":"Feature"},
	{"geometry":{"coordinates":[4.296256,52.079011],"type":"Point"},"properties":{"osm_id":"5352312303","tag":{"amenity":"recycling","recycling:cans":"yes","recycling:cardboard":"yes","recycling:clothes":"yes","recycling:paper":"yes","recycling:plastic":"yes","recycling_type":"container"}},"type":"Feature"},
	{"geometry":{"coordinates":[4.239232,52.06322],"type":"Point"},"properties":{"osm_id":"5574380058","tag":{"amenity":"recycling","recycling:glass":"yes","recycling:paper":"yes","recycling:plastic":"yes","recycling_type":"container"}},"type":"Feature"},
	{"geometry":{"coordinates":[4.305158,52.090716],"type":"Point"},"properties":{"osm_id":"5762504691","tag":{"amenity":"recycling","recycling:clothes":"yes","recycling:shoes":"yes","recycling_type":"container"}},"type":"Feature"},
	{"geometry":{"coordinates":[4.305129,52.090758],"type":"Point"},"properties":{"osm_id":"5762504692","tag":{"amenity":"recycling","recycling:plastic":"yes","recycling_type":"container"}},"type":"Feature"},
	{"geometry":{"coordinates":[4.299515,52.081549],"type":"Point"},"properties":{"osm_id":"6342915003","tag":{"amenity":"recycling","recycling_type":"container"}},"type":"Feature"},
	{"geometry":{"coordinates":[4.259391,52.079256],"type":"Point"},"properties":{"osm_id":"6482670203","tag":{"amenity":"waste_basket"}},"type":"Feature"},
	{"geometry":{"coordinates":[4.259632,52.078466],"type":"Point"},"properties":{"osm_id":"6482835381","tag":{"amenity":"waste_basket"}},"type":"Feature"},
	{"geometry":{"coordinates":[4.259334,52.078689],"type":"Point"},"properties":{"osm_id":"6482836278","tag":{"amenity":"waste_basket"}},"type":"Feature"},
	{"geometry":{"coordinates":[4.260112,52.078684],"type":"Point"},"properties":{"osm_id":"6482836280","tag":{"amenity":"waste_basket"}},"type":"Feature"},
	{"geometry":{"coordinates":[4.257739,52.07749],"type":"Point"},"properties":{"osm_id":"6482836281","tag":{"amenity":"waste_basket"}},"type":"Feature"},
	{"geometry":{"coordinates":[4.257259,52.078037],"type":"Point"},"properties":{"osm_id":"6482836282","tag":{"amenity":"waste_basket"}},"type":"Feature"},
	{"geometry":{"coordinates":[4.261217,52.079137],"type":"Point"},"properties":{"osm_id":"6482836499","tag":{"amenity":"waste_basket"}},"type":"Feature"},
	{"geometry":{"coordinates":[4.260513,52.078898],"type":"Point"},"properties":{"osm_id":"6482836500","tag":{"amenity":"waste_basket"}},"type":"Feature"},
	{"geometry":{"coordinates":[4.257377,52.077816],"type":"Point"},"properties":{"osm_id":"6482836502","tag":{"amenity":"waste_basket"}},"type":"Feature"},
	{"geometry":{"coordinates":[4.25845,52.078695],"type":"Point"},"properties":{"osm_id":"6482837434","tag":{"amenity":"waste_basket"}},"type":"Feature"},
	{"geometry":{"coordinates":[4.26092,52.079021],"type":"Point"},"properties":{"osm_id":"6482837435","tag":{"amenity":"waste_basket"}},"type":"Feature"},
	{"geometry":{"coordinates":[4.25884,52.078692],"type":"Point"},"properties":{"osm_id":"6483981569","tag":{"amenity":"waste_basket"}},"type":"Feature"},
	{"geometry":{"coordinates":[4.305459,52.069826],"type":"Point"},"properties":{"osm_id":"6551706279","tag":{"amenity":"recycling","designation":"Restafval","recycling:batteries":"no","recycling:books":"no","recycling:cans":"no","recycling:cardboard":"no","recycling:cartons":"no","recycling:clothes":"no","recycling:electrical_appliances":"no","recycling:glass":"no","recycling:glass_bottles":"no","recycling:green_waste":"no","recycling:magazines":"no","recycling:newspaper":"no","recycling:paper":"no","recycling:paper_packaging":"no","recycling:plastic":"no","recycling:plastic_bottles":"no","recycling:plastic_packaging":"no","recycling:scrap_metal":"no","recycling:small_appliances":"no","recycling:waste":"yes","recycling:wood":"no","recycling_type":"container"}},"type":"Feature"},
	{"geometry":{"coordinates":[4.304951,52.069363],"type":"Point"},"properties":{"osm_id":"6551725426","tag":{"amenity":"recycling","recycling:batteries":"no","recycling:books":"no","recycling:cans":"no","recycling:cardboard":"no","recycling:cartons":"no","recycling:clothes":"no","recycling:electrical_appliances":"no","recycling:glass":"no","recycling:glass_bottles":"no","recycling:green_waste":"no","recycling:magazines":"no","recycling:newspaper":"no","recycling:paper":"no","recycling:paper_packaging":"no","recycling:plastic":"no","recycling:plastic_bottles":"no","recycling:plastic_packaging":"no","recycling:scrap_metal":"no","recycling:small_appliances":"no","recycling:waste":"yes","recycling_type":"container"}},"type":"Feature"},
	{"geometry":{"coordinates":[4.305438,52.068961],"type":"Point"},"properties":{"osm_id":"6551725785","tag":{"amenity":"recycling","recycling:batteries":"yes","recycling:books":"yes","recycling:cans":"no","recycling:cardboard":"no","recycling:cartons":"no","recycling:clothes":"yes","recycling:electrical_appliances":"yes","recycling:glass":"no","recycling:glass_bottles":"no","recycling:green_waste":"yes","recycling:magazines":"no","recycling:newspaper":"no","recycling:paper":"no","recycling:paper_packaging":"no","recycling:plastic":"no","recycling:plastic_bottles":"no","recycling:plastic_packaging":"no","recycling:scrap_metal":"no","recycling:small_appliances":"yes","recycling:waste":"no","recycling:wood":"no","recycling_type":"container"}},"type":"Feature"},
	{"geometry":{"coordinates":[4.306143,52.072866],"type":"Point"},"properties":{"osm_id":"6551819808","tag":{"amenity":"recycling","recycling:glass":"yes","recycling:paper":"yes","recycling_type":"container"}},"type":"Feature"},
	{"geometry":{"coordinates":[4.30612,52.069801],"type":"Point"},"properties":{"osm_id":"6551819809","tag":{"amenity":"recycling","recycling:waste":"yes","recycling_type":"container"}},"type":"Feature"},
	{"geometry":{"coordinates":[4.267671,52.090672],"type":"Point"},"properties":{"osm_id":"6630810856","tag":{"amenity":"recycling","recycling:drink_cartons":"yes","recycling:metal":"yes","recycling:paper":"yes","recycling:plastic":"yes","recycling_type":"container"}},"type":"Feature"},
	{"geometry":{"coordinates":[4.279412,52.09416],"type":"Point"},"properties":{"osm_id":"7066599564","tag":{"amenity":"recycling","recycling:cardboard":"yes","recycling:paper":"yes","recycling_type":"container"}},"type":"Feature"},
	{"geometry":{"coordinates":[4.279435,52.094148],"type":"Point"},"properties":{"osm_id":"7066599565","tag":{"amenity":"recycling","recycling:cardboard":"yes","recycling:paper":"yes","recycling_type":"container"}},"type":"Feature"},
	{"geometry":{"coordinates":[4.27946,52.094137],"type":"Point"},"properties":{"osm_id":"7066599566","tag":{"amenity":"recycling","recycling:clothes":"yes","recycling_type":"container"}},"type":"Feature"},
	{"geometry":{"coordinates":[4.279484,52.094125],"type":"Point"},"properties":{"osm_id":"7066599567","tag":{"amenity":"recycling","recycling:glass_bottles":"yes","recycling_type":"container"}},"type":"Feature"},
	{"geometry":{"coordinates":[4.279508,52.094114],"type":"Point"},"properties":{"osm_id":"7066599568","tag":{"amenity":"recycling","recycling:glass_bottles":"yes","recycling_type":"container"}},"type":"Feature"},
	{"geometry":{"coordinates":[4.279474,52.094088],"type":"Point"},"properties":{"osm_id":"7066599569","tag":{"amenity":"recycling","recycling:cans":"yes","recycling:plastic":"yes","recycling_type":"container"}},"type":"Feature"},
	{"geometry":{"coordinates":[4.279449,52.0941],"type":"Point"},"properties":{"osm_id":"7066599570","tag":{"amenity":"recycling","recycling:cans":"yes","recycling:plastic":"yes","recycling_type":"container"}},"type":"Feature"},
	{"geometry":{"coordinates":[4.279424,52.094111],"type":"Point"},"properties":{"osm_id":"7066599571","tag":{"amenity":"recycling","recycling:cans":"yes","recycling:plastic":"yes","recycling_type":"container"}},"type":"Feature"},
	{"geometry":{"coordinates":[4.279402,52.094123],"type":"Point"},"properties":{"osm_id":"7066599572","tag":{"amenity":"recycling","recycling:cardboard":"yes","recycling:paper":"yes","recycling_type":"container"}},"type":"Feature"},
	{"geometry":{"coordinates":[4.279377,52.094134],"type":"Point"},"properties":{"osm_id":"7066599573","tag":{"amenity":"recycling","recycling:cardboard":"yes","recycling:paper":"yes","recycling_type":"container"}},"type":"Feature"},
	{"geometry":{"coordinates":[4.239113,52.063137],"type":"Point"},"properties":{"osm_id":"7472805741","tag":{"amenity":"waste_basket"}},"type":"Feature"},
	{"geometry":{"coordinates":[4.239462,52.063242],"type":"Point"},"properties":{"osm_id":"7472805744","tag":{"amenity":"waste_basket"}},"type":"Feature"},
	{"geometry":{"coordinates":[4.239274,52.063222],"type":"Point"},"properties":{"osm_id":"7472805745","tag":{"amenity":"waste_basket"}},"type":"Feature"},
	{"geometry":{"coordinates":[4.251374,52.065007],"type":"Point"},"properties":{"osm_id":"7472874402","tag":{"amenity":"waste_basket"}},"type":"Feature"},
	{"geometry":{"coordinates":[4.248346,52.066377],"type":"Point"},"properties":{"osm_id":"7472874403","tag":{"amenity":"waste_basket"}},"type":"Feature"},
	{"geometry":{"coordinates":[4.248948,52.06603],"type":"Point"},"properties":{"osm_id":"7472874404","tag":{"amenity":"waste_basket"}},"type":"Feature"},
	{"geometry":{"coordinates":[4.249701,52.065569],"type":"Point"},"properties":{"osm_id":"7472874406","tag":{"amenity":"waste_basket"}},"type":"Feature"},
	{"geometry":{"coordinates":[4.250642,52.065183],"type":"Point"},"properties":{"osm_id":"7472874407","tag":{"amenity":"waste_basket"}},"type":"Feature"},
	{"geometry":{"coordinates":[4.252371,52.064744],"type":"Point"},"properties":{"osm_id":"7472874408","tag":{"amenity":"waste_basket"}},"type":"Feature"},
	{"geometry":{"coordinates":[4.25563,52.064005],"type":"Point"},"properties":{"osm_id":"7472874409","tag":{"amenity":"waste_basket"}},"type":"Feature"},
	{"geometry":{"coordinates":[4.256402,52.063854],"type":"Point"},"properties":{"osm_id":"7472874411","tag":{"amenity":"waste_basket"}},"type":"Feature"},
	{"geometry":{"coordinates":[4.257324,52.063668],"type":"Point"},"properties":{"osm_id":"7472874412","tag":{"amenity":"waste_basket"}},"type":"Feature"},
	{"geometry":{"coordinates":[4.253277,52.065518],"type":"Point"},"properties":{"osm_id":"7472889611","tag":{"amenity":"waste_basket"}},"type":"Feature"},
	{"geometry":{"coordinates":[4.253196,52.066076],"type":"Point"},"properties":{"osm_id":"7472889614","tag":{"amenity":"waste_basket"}},"type":"Feature"},
	{"geometry":{"coordinates":[4.253148,52.066128],"type":"Point"},"properties":{"osm_id":"7472933992","tag":{"amenity":"waste_basket"}},"type":"Feature"},
	{"geometry":{"coordinates":[4.2531,52.066707],"type":"Point"},"properties":{"osm_id":"7472933994","tag":{"amenity":"waste_basket"}},"type":"Feature"},
	{"geometry":{"coordinates":[4.257345,52.063712],"type":"Point"},"properties":{"osm_id":"7472933995","tag":{"amenity":"recycling","operator":"Gemeente Den Haag","recycling:glass":"yes","recycling:paper":"yes","recycling_type":"container"}},"type":"Feature"},
	{"geometry":{"coordinates":[4.256737,52.068248],"type":"Point"},"properties":{"osm_id":"7472933996","tag":{"amenity":"recycling","operator":"Gemeente Den Haag","recycling:glass":"yes","recycling:paper":"yes","recycling_type":"container"}},"type":"Feature"},
	{"geometry":{"coordinates":[4.256972,52.068311],"type":"Point"},"properties":{"osm_id":"7472933997","tag":{"amenity":"recycling","operator":"Gemeente Den Haag","recycling:plastic":"yes","recycling_type":"container"}},"type":"Feature"},
	{"geometry":{"coordinates":[4.256943,52.068347],"type":"Point"},"properties":{"osm_id":"7472933998","tag":{"amenity":"recycling","operator":"Leger des Heils","recycling:clothes":"yes","recycling_type":"container"}},"type":"Feature"},
	{"geometry":{"coordinates":[4.260666,52.069755],"type":"Point"},"properties":{"osm_id":"7472934000","tag":{"amenity":"recycling","operator":"Leger des Heils","recycling:clothes":"yes","recycling_type":"container"}},"type":"Feature"},
	{"geometry":{"coordinates":[4.260666,52.069723],"type":"Point"},"properties":{"osm_id":"7472934001","tag":{"amenity":"recycling","operator":"Gemeente Den Haag","recycling:electrical_appliances":"yes","recycling:glass":"yes","recycling:paper":"yes","recycling_type":"container"}},"type":"Feature"},
	{"geometry":{"coordinates":[4.255668,52.066956],"type":"Point"},"properties":{"osm_id":"7472934006","tag":{"amenity":"waste_basket"}},"type":"Feature"},
	{"geometry":{"coordinates":[4.257782,52.064413],"type":"Point"},"properties":{"osm_id":"7473033568","tag":{"amenity":"waste_basket"}},"type":"Feature"},
	{"geometry":{"coordinates":[4.246737,52.066167],"type":"Point"},"properties":{"osm_id":"7477971075","tag":{"amenity":"recycling","operator":"Leger des Heils","recycling:clothes":"yes","recycling_type":"container"}},"type":"Feature"},
	{"geometry":{"coordinates":[4.294944,52.09284],"type":"Point"},"properties":{"osm_id":"7711246543","tag":{"amenity":"waste_basket"}},"type":"Feature"},
	{"geometry":{"coordinates":[4.293762,52.094485],"type":"Point"},"properties":{"osm_id":"7711307957","tag":{"amenity":"waste_basket"}},"type":"Feature"},
	{"geometry":{"coordinates":[4.29073,52.092733],"type":"Point"},"properties":{"osm_id":"7711308093","tag":{"amenity":"waste_basket"}},"type":"Feature"},
	{"geometry":{"coordinates":[4.30151,52.074599],"type":"Point"},"properties":{"osm_id":"7746347900","tag":{"amenity":"waste_basket"}},"type":"Feature"},
	{"geometry":{"coordinates":[4.301585,52.074627],"type":"Point"},"properties":{"osm_id":"7746347901","tag":{"amenity":"waste_basket"}},"type":"Feature"},
	{"geometry":{"coordinates":[4.30166,52.074698],"type":"Point"},"properties":{"osm_id":"7747297012","tag":{"amenity":"waste_basket"}},"type":"Feature"},
	{"geometry":{"coordinates":[4.256648,52.065932],"type":"Point"},"properties":{"osm_id":"7763952517","tag":{"amenity":"waste_basket"}},"type":"Feature"},
	{"geometry":{"coordinates":[4.256328,52.066081],"type":"Point"},"properties":{"osm_id":"7763952518","tag":{"amenity":"waste_basket"}},"type":"Feature"},
	{"geometry":{"coordinates":[4.256622,52.066184],"type":"Point"},"properties":{"osm_id":"7763952519","tag":{"amenity":"waste_basket"}},"type":"Feature"},
	{"geometry":{"coordinates":[4.253078,52.065384],"type":"Point"},"properties":{"osm_id":"7763980129","tag":{"amenity":"waste_basket"}},"type":"Feature"},
	{"geometry":{"coordinates":[4.257555,52.069957],"type":"Point"},"properties":{"osm_id":"7764358702","tag":{"amenity":"waste_basket"}},"type":"Feature"},
	{"geometry":{"coordinates":[4.251512,52.069296],"type":"Point"},"properties":{"osm_id":"7780055706","tag":{"amenity":"waste_basket"}},"type":"Feature"},
	{"geometry":{"coordinates":[4.251428,52.069406],"type":"Point"},"properties":{"osm_id":"7780055707","tag":{"amenity":"waste_basket"}},"type":"Feature"}
]
}
