{
"type": "FeatureCollection",
"lastupdate": "2020-08-05T00:00:00Z",
"features": [
	{"geometry":{"coordinates":[4.238109,51.928745],"type":"Point"},"properties":{"osm_id":"955001934","tag":{"amenity":"recycling","recycling_type":"container"}},"type":"Feature"},
	{"geometry":{"coordinates":[4.272889,51.935504],"type":"Point"},"properties":{"osm_id":"1487333133","tag":{"amenity":"waste_basket"}},"type":"Feature"},
	{"geometry":{"coordinates":[4.274434,51.934918],"type":"Point"},"properties":{"osm_id":"1487349826","tag":{"amenity":"waste_basket"}},"type":"Feature"},
	{"geometry":{"coordinates":[4.27746,51.937597],"type":"Point"},"properties":{"osm_id":"1487351945","tag":{"amenity":"waste_basket"}},"type":"Feature"},
	{"geometry":{"coordinates":[4.26277,51.918186],"type":"Point"},"properties":{"osm_id":"1560893797","tag":{"amenity":"recycling","recycling:glass_bottles":"yes","recycling_type":"container"}},"type":"Feature"},
	{"geometry":{"coordinates":[4.227797,51.937578],"type":"Point"},"properties":{"osm_id":"1560893798","tag":{"amenity":"recycling","recycling_type":"container"}},"type":"Feature"},
	{"geometry":{"coordinates":[4.227628,51.937646],"type":"Point"},"properties":{"osm_id":"1560893799","tag":{"amenity":"recycling","recycling_type":"container"}},"type":"Feature"},
	{"geometry":{"coordinates":[4.250769,51.922756],"type":"Point"},"properties":{"osm_id":"4244187275","tag":{"amenity":"waste_basket"}},"type":"Feature"},
	{"geometry":{"coordinates":[4.249226,51.917703],"type":"Point"},"properties":{"osm_id":"4273347124","tag":{"amenity":"waste_basket"}},"type":"Feature"},
	{"geometry":{"coordinates":[4.24361,51.903018],"type":"Point"},"properties":{"osm_id":"5150714712","tag":{"amenity":"recycling","recycling_type":"centre"}},"type":"Feature"},
	{"geometry":{"coordinates":[4.263439,51.923772],"type":"Point"},"properties":{"osm_id":"5276042698","tag":{"amenity":"recycling","recycling:plastic":"yes","recycling_type":"container"}},"type":"Feature"},
	{"geometry":{"coordinates":[4.262676,51.918288],"type":"Point"},"properties":{"osm_id":"5276042700","tag":{"amenity":"recycling","recycling:plastic":"yes","recycling_type":"container"}},"type":"Feature"},
	{"geometry":{"coordinates":[4.259215,51.920524],"type":"Point"},"properties":{"osm_id":"5276042704","tag":{"amenity":"recycling","recycling:clothes":"yes","recycling_type":"container"}},"type":"Feature"},
	{"geometry":{"coordinates":[4.264521,51.920454],"type":"Point"},"properties":{"osm_id":"5278589430","tag":{"amenity":"recycling","recycling:green_waste":"yes","recycling_type":"container"}},"type":"Feature"},
	{"geometry":{"coordinates":[4.263647,51.920174],"type":"Point"},"properties":{"osm_id":"5278589433","tag":{"amenity":"recycling","recycling:green_waste":"yes","recycling_type":"container"}},"type":"Feature"},
	{"geometry":{"coordinates":[4.262789,51.919905],"type":"Point"},"properties":{"osm_id":"5278589434","tag":{"amenity":"recycling","recycling:green_waste":"yes","recycling_type":"container"}},"type":"Feature"},
	{"geometry":{"coordinates":[4.25375,51.919775],"type":"Point"},"properties":{"osm_id":"5291313056","tag":{"amenity":"recycling","recycling:clothes":"yes","recycling_type":"container"}},"type":"Feature"},
	{"geometry":{"coordinates":[4.257536,51.922558],"type":"Point"},"properties":{"osm_id":"5291445956","tag":{"amenity":"recycling","recycling:plastic":"yes","recycling_type":"container"}},"type":"Feature"},
	{"geometry":{"coordinates":[4.257498,51.922548],"type":"Point"},"properties":{"osm_id":"5291445957","tag":{"amenity":"recycling","recycling:clothes":"yes","recycling_type":"container"}},"type":"Feature"},
	{"geometry":{"coordinates":[4.264556,51.923969],"type":"Point"},"properties":{"osm_id":"5303876953","tag":{"amenity":"recycling","recycling:green_waste":"yes","recycling_type":"container"}},"type":"Feature"},
	{"geometry":{"coordinates":[4.264152,51.923255],"type":"Point"},"properties":{"osm_id":"5303876955","tag":{"amenity":"recycling","recycling:green_waste":"yes","recycling_type":"container"}},"type":"Feature"},
	{"geometry":{"coordinates":[4.264515,51.922854],"type":"Point"},"properties":{"osm_id":"5303876957","tag":{"amenity":"recycling","recycling:green_waste":"yes","recycling_type":"container"}},"type":"Feature"},
	{"geometry":{"coordinates":[4.255559,51.923585],"type":"Point"},"properties":{"osm_id":"5312666770","tag":{"amenity":"recycling","recycling:glass_bottles":"yes","recycling_type":"container"}},"type":"Feature"},
	{"geometry":{"coordinates":[4.255525,51.923576],"type":"Point"},"properties":{"osm_id":"5312666771","tag":{"amenity":"recycling","recycling:glass_bottles":"yes","recycling_type":"container"}},"type":"Feature"},
	{"geometry":{"coordinates":[4.254929,51.923798],"type":"Point"},"properties":{"osm_id":"5312666772","tag":{"amenity":"recycling","recycling:green_waste":"yes","recycling_type":"container"}},"type":"Feature"},
	{"geometry":{"coordinates":[4.255075,51.923885],"type":"Point"},"properties":{"osm_id":"5312666774","tag":{"amenity":"recycling","recycling:plastic":"yes","recycling_type":"container"}},"type":"Feature"},
	{"geometry":{"coordinates":[4.255059,51.923908],"type":"Point"},"properties":{"osm_id":"5312666775","tag":{"amenity":"recycling","recycling:plastic":"yes","recycling_type":"container"}},"type":"Feature"},
	{"geometry":{"coordinates":[4.224101,51.941567],"type":"Point"},"properties":{"osm_id":"6815735450","tag":{"amenity":"waste_basket","waste":"trash"}},"type":"Feature"},
	{"geometry":{"coordinates":[4.250686,51.914837],"type":"Point"},"properties":{"osm_id":"6815744650","tag":{"amenity":"waste_basket","waste":"trash"}},"type":"Feature"},
	{"geometry":{"coordinates":[4.250665,51.914846],"type":"Point"},"properties":{"osm_id":"6815744651","tag":{"amenity":"waste_basket","waste":"trash"}},"type":"Feature"},
	{"geometry":{"coordinates":[4.250646,51.914855],"type":"Point"},"properties":{"osm_id":"6815744652","tag":{"amenity":"waste_basket","waste":"trash"}},"type":"Feature"}
]
}
