{
"type": "FeatureCollection",
"features": [
	{"geometry":{"coordinates":[4.302848,51.416757],"type":"Point"},"properties":{"osm_id":"3643147276","tag":{"amenity":"waste_basket","designation":"Trash"}},"type":"Feature"},
	{"geometry":{"coordinates":[4.258718,51.428736],"type":"Point"},"properties":{"osm_id":"3858812100","tag":{"amenity":"waste_basket"}},"type":"Feature"},
	{"geometry":{"coordinates":[4.257514,51.428778],"type":"Point"},"properties":{"osm_id":"3858812102","tag":{"amenity":"waste_basket"}},"type":"Feature"},
	{"geometry":{"coordinates":[4.259726,51.428868],"type":"Point"},"properties":{"osm_id":"3858812104","tag":{"amenity":"waste_basket"}},"type":"Feature"},
	{"geometry":{"coordinates":[4.2584,51.428948],"type":"Point"},"properties":{"osm_id":"3858812106","tag":{"amenity":"waste_basket"}},"type":"Feature"},
	{"geometry":{"coordinates":[4.25915,51.428983],"type":"Point"},"properties":{"osm_id":"3858812108","tag":{"amenity":"waste_basket"}},"type":"Feature"},
	{"geometry":{"coordinates":[4.263175,51.430469],"type":"Point"},"properties":{"osm_id":"3858812117","tag":{"amenity":"waste_basket"}},"type":"Feature"},
	{"geometry":{"coordinates":[4.26439,51.430568],"type":"Point"},"properties":{"osm_id":"3858812121","tag":{"amenity":"waste_basket"}},"type":"Feature"},
	{"geometry":{"coordinates":[4.264916,51.430577],"type":"Point"},"properties":{"osm_id":"3858812122","tag":{"amenity":"waste_basket"}},"type":"Feature"},
	{"geometry":{"coordinates":[4.266822,51.430767],"type":"Point"},"properties":{"osm_id":"3858812134","tag":{"amenity":"waste_basket"}},"type":"Feature"},
	{"geometry":{"coordinates":[4.298036,51.450114],"type":"Point"},"properties":{"osm_id":"4351793513","tag":{"amenity":"waste_basket","image":"https://d1cuyjsrcm0gby.cloudfront.net/RdGJ7sS-obZN-hlUqLb9VQ/thumb-2048.jpg","mapillary":"https://www.mapillary.com/map/im/RdGJ7sS-obZN-hlUqLb9VQ"}},"type":"Feature"},
	{"geometry":{"coordinates":[4.231133,51.420242],"type":"Point"},"properties":{"osm_id":"4644211236","tag":{"amenity":"waste_basket"}},"type":"Feature"},
	{"geometry":{"coordinates":[4.231234,51.419631],"type":"Point"},"properties":{"osm_id":"4644211237","tag":{"amenity":"waste_basket"}},"type":"Feature"},
	{"geometry":{"coordinates":[4.237198,51.450253],"type":"Point"},"properties":{"osm_id":"4664343735","tag":{"amenity":"waste_basket","image":"https://d1cuyjsrcm0gby.cloudfront.net/-ZLBkGUM1z9VpNPsD9s4CA/thumb-2048.jpg","mapillary":"https://www.mapillary.com/map/im/-ZLBkGUM1z9VpNPsD9s4CA"}},"type":"Feature"},
	{"geometry":{"coordinates":[4.297961,51.452712],"type":"Point"},"properties":{"osm_id":"6258074803","tag":{"amenity":"waste_basket","image":"https://d1cuyjsrcm0gby.cloudfront.net/Z76AGI5hiijpEP5dvy0aVw/thumb-2048.jpg","mapillary":"https://www.mapillary.com/map/im/Z76AGI5hiijpEP5dvy0aVw"}},"type":"Feature"}
]
}
