{
"type": "FeatureCollection",
"features": [
	{"geometry":{"coordinates":[4.29097,51.258659],"type":"Point"},"properties":{"osm_id":"4853845261","tag":{"amenity":"waste_basket"}},"type":"Feature"},
	{"geometry":{"coordinates":[4.272807,51.252194],"type":"Point"},"properties":{"osm_id":"8598836493","tag":{"amenity":"waste_disposal","waste":"mixed"}},"type":"Feature"},
	{"geometry":{"coordinates":[4.272813,51.252217],"type":"Point"},"properties":{"osm_id":"8598836494","tag":{"amenity":"waste_disposal","waste":"organic"}},"type":"Feature"},
	{"geometry":{"coordinates":[4.272819,51.252238],"type":"Point"},"properties":{"osm_id":"8598836495","tag":{"amenity":"waste_disposal","waste":"pape"}},"type":"Feature"},
	{"geometry":{"coordinates":[4.272825,51.252253],"type":"Point"},"properties":{"osm_id":"8598836496","tag":{"amenity":"waste_disposal"}},"type":"Feature"},
	{"geometry":{"coordinates":[4.272835,51.252274],"type":"Point"},"properties":{"osm_id":"8598836497","tag":{"amenity":"waste_disposal"}},"type":"Feature"},
	{"geometry":{"coordinates":[4.279583,51.254796],"type":"Point"},"properties":{"osm_id":"8608073056","tag":{"amenity":"waste_basket"}},"type":"Feature"},
	{"geometry":{"coordinates":[4.282956,51.255628],"type":"Point"},"properties":{"osm_id":"8608338801","tag":{"amenity":"waste_basket"}},"type":"Feature"},
	{"geometry":{"coordinates":[4.279643,51.255172],"type":"Point"},"properties":{"osm_id":"8615188289","tag":{"amenity":"waste_basket","waste":"trash"}},"type":"Feature"},
	{"geometry":{"coordinates":[4.282406,51.252129],"type":"Point"},"properties":{"osm_id":"8617503814","tag":{"amenity":"waste_basket","colour":"green","waste":"trash"}},"type":"Feature"},
	{"geometry":{"coordinates":[4.2791,51.252681],"type":"Point"},"properties":{"osm_id":"8619011307","tag":{"amenity":"waste_basket","waste":"trash"}},"type":"Feature"}
]
}
