{
"type": "FeatureCollection",
"features": [
	{"geometry":{"coordinates":[4.302746,50.897095],"type":"Point"},"properties":{"osm_id":"1106188979","tag":{"amenity":"recycling","recycling:clothes":"yes","recycling:glass":"yes"}},"type":"Feature"},
	{"geometry":{"coordinates":[4.282649,50.900965],"type":"Point"},"properties":{"osm_id":"1106255389","tag":{"amenity":"recycling","recycling:glass":"yes"}},"type":"Feature"},
	{"geometry":{"coordinates":[4.282333,50.898905],"type":"Point"},"properties":{"osm_id":"1106255392","tag":{"amenity":"recycling","recycling:clothes":"yes"}},"type":"Feature"},
	{"geometry":{"coordinates":[4.280572,50.88997],"type":"Point"},"properties":{"osm_id":"1127865547","tag":{"amenity":"recycling","recycling:glass":"yes","recycling:glass_bottles":"yes","recycling_type":"container"}},"type":"Feature"},
	{"geometry":{"coordinates":[4.263157,50.886751],"type":"Point"},"properties":{"osm_id":"1127916461","tag":{"amenity":"recycling","recycling:glass":"yes"}},"type":"Feature"},
	{"geometry":{"coordinates":[4.277461,50.894957],"type":"Point"},"properties":{"osm_id":"1128036713","tag":{"amenity":"recycling","recycling:clothes":"yes","recycling_type":"container"}},"type":"Feature"},
	{"geometry":{"coordinates":[4.277534,50.894957],"type":"Point"},"properties":{"osm_id":"1128037067","tag":{"amenity":"recycling","recycling:glass":"yes","recycling_type":"container"}},"type":"Feature"},
	{"geometry":{"coordinates":[4.299882,50.880979],"type":"Point"},"properties":{"osm_id":"1150854802","tag":{"amenity":"recycling","recycling:glass":"yes","recycling_type":"container"}},"type":"Feature"},
	{"geometry":{"coordinates":[4.282155,50.87828],"type":"Point"},"properties":{"osm_id":"1150862743","tag":{"amenity":"recycling","recycling:glass":"yes"}},"type":"Feature"},
	{"geometry":{"coordinates":[4.278709,50.882685],"type":"Point"},"properties":{"osm_id":"1150965887","tag":{"amenity":"recycling","recycling:glass":"yes"}},"type":"Feature"},
	{"geometry":{"coordinates":[4.278584,50.879684],"type":"Point"},"properties":{"osm_id":"1150966151","tag":{"amenity":"recycling","recycling:glass":"yes"}},"type":"Feature"},
	{"geometry":{"coordinates":[4.2853,50.875751],"type":"Point"},"properties":{"osm_id":"1150966235","tag":{"amenity":"recycling","recycling:glass":"yes"}},"type":"Feature"},
	{"geometry":{"coordinates":[4.276331,50.882823],"type":"Point"},"properties":{"osm_id":"1150966358","tag":{"amenity":"recycling","recycling:clothes":"yes"}},"type":"Feature"},
	{"geometry":{"coordinates":[4.258494,50.891043],"type":"Point"},"properties":{"osm_id":"1150983338","tag":{"amenity":"recycling","recycling:glass":"yes"}},"type":"Feature"},
	{"geometry":{"coordinates":[4.264556,50.889657],"type":"Point"},"properties":{"osm_id":"1177607062","tag":{"amenity":"recycling","recycling:glass":"yes"}},"type":"Feature"},
	{"geometry":{"coordinates":[4.304231,50.874468],"type":"Point"},"properties":{"osm_id":"1189725349","tag":{"amenity":"recycling","recycling:glass":"yes"}},"type":"Feature"},
	{"geometry":{"coordinates":[4.284298,50.873941],"type":"Point"},"properties":{"osm_id":"1200266437","tag":{"amenity":"recycling","recycling:clothes":"yes"}},"type":"Feature"},
	{"geometry":{"coordinates":[4.264839,50.871139],"type":"Point"},"properties":{"osm_id":"1200285248","tag":{"amenity":"waste_basket"}},"type":"Feature"},
	{"geometry":{"coordinates":[4.302745,50.868476],"type":"Point"},"properties":{"osm_id":"1229626479","tag":{"amenity":"recycling","recycling:glass":"yes"}},"type":"Feature"},
	{"geometry":{"coordinates":[4.303898,50.866536],"type":"Point"},"properties":{"osm_id":"1229626543","tag":{"amenity":"recycling","recycling:clothes":"yes","recycling:glass":"yes"}},"type":"Feature"},
	{"geometry":{"coordinates":[4.289188,50.869451],"type":"Point"},"properties":{"osm_id":"1240089068","tag":{"amenity":"recycling","recycling:glass":"yes"}},"type":"Feature"},
	{"geometry":{"coordinates":[4.289146,50.869547],"type":"Point"},"properties":{"osm_id":"1240089114","tag":{"amenity":"recycling","recycling:clothes":"yes"}},"type":"Feature"},
	{"geometry":{"coordinates":[4.281053,50.866899],"type":"Point"},"properties":{"osm_id":"1254467830","tag":{"amenity":"recycling","location":"overground","operator":"Bruxelles-Propret\u00c3\u00a9 - Net Brussel","recycling:glass_bottles":"yes","recycling_type":"container"}},"type":"Feature"},
	{"geometry":{"coordinates":[4.235514,50.885527],"type":"Point"},"properties":{"osm_id":"1258217465","tag":{"amenity":"recycling","recycling:glass_bottles":"yes"}},"type":"Feature"},
	{"geometry":{"coordinates":[4.284632,50.862127],"type":"Point"},"properties":{"osm_id":"1259515502","tag":{"amenity":"recycling","recycling:clothes":"yes","recycling:glass":"yes"}},"type":"Feature"},
	{"geometry":{"coordinates":[4.302224,50.85532],"type":"Point"},"properties":{"osm_id":"1268741593","tag":{"amenity":"recycling","recycling:cans":"no","recycling:clothes":"no","recycling:glass":"yes","recycling:paper":"no"}},"type":"Feature"},
	{"geometry":{"coordinates":[4.302101,50.855139],"type":"Point"},"properties":{"osm_id":"1268741620","tag":{"amenity":"recycling","recycling:cans":"no","recycling:clothes":"yes","recycling:glass":"no","recycling:paper":"no"}},"type":"Feature"},
	{"geometry":{"coordinates":[4.295388,50.855009],"type":"Point"},"properties":{"osm_id":"1268781900","tag":{"amenity":"recycling","location":"overground","operator":"Bruxelles-Propret\u00c3\u00a9 - Net Brussel","recycling:glass_bottles":"yes","recycling_type":"container"}},"type":"Feature"},
	{"geometry":{"coordinates":[4.24664,50.892829],"type":"Point"},"properties":{"osm_id":"1276942217","tag":{"amenity":"recycling","recycling:glass":"yes","recycling_type":"container"}},"type":"Feature"},
	{"geometry":{"coordinates":[4.288501,50.857665],"type":"Point"},"properties":{"osm_id":"1286197156","tag":{"amenity":"recycling","recycling:clothes":"yes","recycling:glass":"yes"}},"type":"Feature"},
	{"geometry":{"coordinates":[4.256879,50.891235],"type":"Point"},"properties":{"osm_id":"2161915336","tag":{"amenity":"waste_basket"}},"type":"Feature"},
	{"geometry":{"coordinates":[4.248117,50.893024],"type":"Point"},"properties":{"osm_id":"2168941882","tag":{"amenity":"waste_basket"}},"type":"Feature"},
	{"geometry":{"coordinates":[4.23208,50.897614],"type":"Point"},"properties":{"osm_id":"2170977816","tag":{"amenity":"waste_basket"}},"type":"Feature"},
	{"geometry":{"coordinates":[4.221677,50.899906],"type":"Point"},"properties":{"osm_id":"2170977841","tag":{"amenity":"waste_basket"}},"type":"Feature"},
	{"geometry":{"coordinates":[4.29736,50.871612],"type":"Point"},"properties":{"osm_id":"2172117811","tag":{"amenity":"waste_basket"}},"type":"Feature"},
	{"geometry":{"coordinates":[4.285994,50.873523],"type":"Point"},"properties":{"osm_id":"2172117864","tag":{"amenity":"waste_basket"}},"type":"Feature"},
	{"geometry":{"coordinates":[4.28442,50.876493],"type":"Point"},"properties":{"osm_id":"2172117875","tag":{"amenity":"waste_basket"}},"type":"Feature"},
	{"geometry":{"coordinates":[4.27208,50.889323],"type":"Point"},"properties":{"osm_id":"2172117892","tag":{"amenity":"waste_basket"}},"type":"Feature"},
	{"geometry":{"coordinates":[4.271779,50.889411],"type":"Point"},"properties":{"osm_id":"2172117893","tag":{"amenity":"waste_basket"}},"type":"Feature"},
	{"geometry":{"coordinates":[4.28066,50.900068],"type":"Point"},"properties":{"osm_id":"2260753716","tag":{"amenity":"waste_basket"}},"type":"Feature"},
	{"geometry":{"coordinates":[4.289829,50.870788],"type":"Point"},"properties":{"osm_id":"2328326113","tag":{"amenity":"waste_basket"}},"type":"Feature"},
	{"geometry":{"coordinates":[4.291718,50.870939],"type":"Point"},"properties":{"osm_id":"2328326114","tag":{"amenity":"waste_basket"}},"type":"Feature"},
	{"geometry":{"coordinates":[4.291595,50.870949],"type":"Point"},"properties":{"osm_id":"2328326115","tag":{"amenity":"waste_basket"}},"type":"Feature"},
	{"geometry":{"coordinates":[4.306579,50.855405],"type":"Point"},"properties":{"osm_id":"2622475211","tag":{"amenity":"recycling","location":"overground","operator":"Bruxelles-Propret\u00c3\u00a9 - Net Brussel","recycling:glass_bottles":"yes","recycling_type":"container"}},"type":"Feature"},
	{"geometry":{"coordinates":[4.298333,50.863646],"type":"Point"},"properties":{"osm_id":"2622780565","tag":{"amenity":"waste_basket"}},"type":"Feature"},
	{"geometry":{"coordinates":[4.298588,50.863668],"type":"Point"},"properties":{"osm_id":"2622780567","tag":{"amenity":"waste_basket"}},"type":"Feature"},
	{"geometry":{"coordinates":[4.305993,50.86415],"type":"Point"},"properties":{"osm_id":"2622780573","tag":{"amenity":"waste_basket"}},"type":"Feature"},
	{"geometry":{"coordinates":[4.297792,50.864262],"type":"Point"},"properties":{"osm_id":"2622780577","tag":{"amenity":"waste_basket"}},"type":"Feature"},
	{"geometry":{"coordinates":[4.297036,50.864372],"type":"Point"},"properties":{"osm_id":"2622780591","tag":{"amenity":"waste_basket"}},"type":"Feature"},
	{"geometry":{"coordinates":[4.297574,50.864483],"type":"Point"},"properties":{"osm_id":"2622780606","tag":{"amenity":"waste_basket"}},"type":"Feature"},
	{"geometry":{"coordinates":[4.298037,50.864652],"type":"Point"},"properties":{"osm_id":"2622780616","tag":{"amenity":"waste_basket"}},"type":"Feature"},
	{"geometry":{"coordinates":[4.300038,50.865369],"type":"Point"},"properties":{"osm_id":"2622780664","tag":{"amenity":"waste_basket"}},"type":"Feature"},
	{"geometry":{"coordinates":[4.295994,50.865484],"type":"Point"},"properties":{"osm_id":"2622780671","tag":{"amenity":"waste_basket"}},"type":"Feature"},
	{"geometry":{"coordinates":[4.296092,50.865593],"type":"Point"},"properties":{"osm_id":"2622780681","tag":{"amenity":"waste_basket"}},"type":"Feature"},
	{"geometry":{"coordinates":[4.302068,50.865848],"type":"Point"},"properties":{"osm_id":"2622780694","tag":{"amenity":"waste_basket"}},"type":"Feature"},
	{"geometry":{"coordinates":[4.30339,50.866241],"type":"Point"},"properties":{"osm_id":"2622780717","tag":{"amenity":"waste_basket"}},"type":"Feature"},
	{"geometry":{"coordinates":[4.303396,50.866358],"type":"Point"},"properties":{"osm_id":"2622780727","tag":{"amenity":"waste_basket"}},"type":"Feature"},
	{"geometry":{"coordinates":[4.303082,50.86644],"type":"Point"},"properties":{"osm_id":"2622780742","tag":{"amenity":"waste_basket"}},"type":"Feature"},
	{"geometry":{"coordinates":[4.30524,50.866703],"type":"Point"},"properties":{"osm_id":"2622780822","tag":{"amenity":"waste_basket"}},"type":"Feature"},
	{"geometry":{"coordinates":[4.305732,50.866721],"type":"Point"},"properties":{"osm_id":"2622780839","tag":{"amenity":"waste_basket"}},"type":"Feature"},
	{"geometry":{"coordinates":[4.306327,50.866872],"type":"Point"},"properties":{"osm_id":"2622780971","tag":{"amenity":"waste_basket"}},"type":"Feature"},
	{"geometry":{"coordinates":[4.305732,50.866873],"type":"Point"},"properties":{"osm_id":"2622780976","tag":{"amenity":"waste_basket"}},"type":"Feature"},
	{"geometry":{"coordinates":[4.295108,50.855678],"type":"Point"},"properties":{"osm_id":"3018257526","tag":{"amenity":"waste_basket"}},"type":"Feature"},
	{"geometry":{"coordinates":[4.247095,50.864303],"type":"Point"},"properties":{"osm_id":"3105345798","tag":{"amenity":"recycling","recycling:clothes":"yes"}},"type":"Feature"},
	{"geometry":{"coordinates":[4.305378,50.860749],"type":"Point"},"properties":{"osm_id":"3148931128","tag":{"amenity":"waste_basket"}},"type":"Feature"},
	{"geometry":{"coordinates":[4.300221,50.861183],"type":"Point"},"properties":{"osm_id":"3148931136","tag":{"amenity":"waste_basket"}},"type":"Feature"},
	{"geometry":{"coordinates":[4.303228,50.861304],"type":"Point"},"properties":{"osm_id":"3148931147","tag":{"amenity":"waste_basket"}},"type":"Feature"},
	{"geometry":{"coordinates":[4.301435,50.861875],"type":"Point"},"properties":{"osm_id":"3148931198","tag":{"amenity":"waste_basket"}},"type":"Feature"},
	{"geometry":{"coordinates":[4.30077,50.862144],"type":"Point"},"properties":{"osm_id":"3148931215","tag":{"amenity":"waste_basket"}},"type":"Feature"},
	{"geometry":{"coordinates":[4.300212,50.862525],"type":"Point"},"properties":{"osm_id":"3148931246","tag":{"amenity":"waste_basket"}},"type":"Feature"},
	{"geometry":{"coordinates":[4.291427,50.870356],"type":"Point"},"properties":{"osm_id":"3148931412","tag":{"amenity":"waste_basket"}},"type":"Feature"},
	{"geometry":{"coordinates":[4.293021,50.870649],"type":"Point"},"properties":{"osm_id":"3148931418","tag":{"amenity":"waste_basket"}},"type":"Feature"},
	{"geometry":{"coordinates":[4.291175,50.870722],"type":"Point"},"properties":{"osm_id":"3148931419","tag":{"amenity":"waste_basket"}},"type":"Feature"},
	{"geometry":{"coordinates":[4.288315,50.870785],"type":"Point"},"properties":{"osm_id":"3148931421","tag":{"amenity":"waste_basket"}},"type":"Feature"},
	{"geometry":{"coordinates":[4.292819,50.870863],"type":"Point"},"properties":{"osm_id":"3148931428","tag":{"amenity":"waste_basket"}},"type":"Feature"},
	{"geometry":{"coordinates":[4.292709,50.870924],"type":"Point"},"properties":{"osm_id":"3148931429","tag":{"amenity":"waste_basket"}},"type":"Feature"},
	{"geometry":{"coordinates":[4.291592,50.870938],"type":"Point"},"properties":{"osm_id":"3148931433","tag":{"amenity":"waste_basket"}},"type":"Feature"},
	{"geometry":{"coordinates":[4.291718,50.870939],"type":"Point"},"properties":{"osm_id":"3148931434","tag":{"amenity":"waste_basket"}},"type":"Feature"},
	{"geometry":{"coordinates":[4.288587,50.87127],"type":"Point"},"properties":{"osm_id":"3148931451","tag":{"amenity":"waste_basket"}},"type":"Feature"},
	{"geometry":{"coordinates":[4.2889,50.871334],"type":"Point"},"properties":{"osm_id":"3148931454","tag":{"amenity":"waste_basket"}},"type":"Feature"},
	{"geometry":{"coordinates":[4.289213,50.872203],"type":"Point"},"properties":{"osm_id":"3148931488","tag":{"amenity":"waste_basket"}},"type":"Feature"},
	{"geometry":{"coordinates":[4.298694,50.847903],"type":"Point"},"properties":{"osm_id":"3202278387","tag":{"amenity":"waste_basket"}},"type":"Feature"},
	{"geometry":{"coordinates":[4.29917,50.847958],"type":"Point"},"properties":{"osm_id":"3202278390","tag":{"amenity":"waste_basket"}},"type":"Feature"},
	{"geometry":{"coordinates":[4.257251,50.8705],"type":"Point"},"properties":{"osm_id":"3238017912","tag":{"amenity":"waste_basket"}},"type":"Feature"},
	{"geometry":{"coordinates":[4.241573,50.874813],"type":"Point"},"properties":{"osm_id":"3238057367","tag":{"amenity":"waste_basket"}},"type":"Feature"},
	{"geometry":{"coordinates":[4.294612,50.873817],"type":"Point"},"properties":{"osm_id":"4445769877","tag":{"amenity":"waste_basket"}},"type":"Feature"},
	{"geometry":{"coordinates":[4.298008,50.872631],"type":"Point"},"properties":{"osm_id":"4445781134","tag":{"amenity":"waste_basket"}},"type":"Feature"},
	{"geometry":{"coordinates":[4.298181,50.872641],"type":"Point"},"properties":{"osm_id":"4445781139","tag":{"amenity":"waste_basket"}},"type":"Feature"},
	{"geometry":{"coordinates":[4.298049,50.872856],"type":"Point"},"properties":{"osm_id":"4445781146","tag":{"amenity":"waste_basket"}},"type":"Feature"},
	{"geometry":{"coordinates":[4.299837,50.874721],"type":"Point"},"properties":{"osm_id":"4445814443","tag":{"amenity":"waste_basket"}},"type":"Feature"},
	{"geometry":{"coordinates":[4.300149,50.875381],"type":"Point"},"properties":{"osm_id":"4445814455","tag":{"amenity":"waste_basket"}},"type":"Feature"},
	{"geometry":{"coordinates":[4.300964,50.877017],"type":"Point"},"properties":{"osm_id":"4447243865","tag":{"amenity":"waste_basket"}},"type":"Feature"},
	{"geometry":{"coordinates":[4.301015,50.877264],"type":"Point"},"properties":{"osm_id":"4447243878","tag":{"amenity":"waste_basket"}},"type":"Feature"},
	{"geometry":{"coordinates":[4.304264,50.878143],"type":"Point"},"properties":{"osm_id":"4447249425","tag":{"amenity":"waste_basket"}},"type":"Feature"},
	{"geometry":{"coordinates":[4.304002,50.878275],"type":"Point"},"properties":{"osm_id":"4447249433","tag":{"amenity":"waste_basket"}},"type":"Feature"},
	{"geometry":{"coordinates":[4.306599,50.876345],"type":"Point"},"properties":{"osm_id":"4447269238","tag":{"amenity":"waste_basket"}},"type":"Feature"},
	{"geometry":{"coordinates":[4.287066,50.866737],"type":"Point"},"properties":{"osm_id":"4540471396","tag":{"amenity":"waste_basket"}},"type":"Feature"},
	{"geometry":{"coordinates":[4.274962,50.867147],"type":"Point"},"properties":{"osm_id":"4746992105","tag":{"amenity":"waste_basket"}},"type":"Feature"},
	{"geometry":{"coordinates":[4.233538,50.878979],"type":"Point"},"properties":{"osm_id":"4878978399","tag":{"amenity":"waste_basket"}},"type":"Feature"},
	{"geometry":{"coordinates":[4.232862,50.879099],"type":"Point"},"properties":{"osm_id":"4878978400","tag":{"amenity":"waste_basket"}},"type":"Feature"},
	{"geometry":{"coordinates":[4.232805,50.879004],"type":"Point"},"properties":{"osm_id":"4878978401","tag":{"amenity":"waste_basket"}},"type":"Feature"},
	{"geometry":{"coordinates":[4.240863,50.875227],"type":"Point"},"properties":{"osm_id":"4880050906","tag":{"amenity":"waste_basket"}},"type":"Feature"},
	{"geometry":{"coordinates":[4.256639,50.870598],"type":"Point"},"properties":{"osm_id":"4880050907","tag":{"amenity":"waste_basket"}},"type":"Feature"},
	{"geometry":{"coordinates":[4.22435,50.880213],"type":"Point"},"properties":{"osm_id":"4880339926","tag":{"amenity":"waste_basket"}},"type":"Feature"},
	{"geometry":{"coordinates":[4.238456,50.89592],"type":"Point"},"properties":{"osm_id":"4892621912","tag":{"amenity":"waste_basket"}},"type":"Feature"},
	{"geometry":{"coordinates":[4.252447,50.891879],"type":"Point"},"properties":{"osm_id":"4892621913","tag":{"amenity":"waste_basket"}},"type":"Feature"},
	{"geometry":{"coordinates":[4.24486,50.873858],"type":"Point"},"properties":{"osm_id":"4894020276","tag":{"amenity":"waste_basket"}},"type":"Feature"},
	{"geometry":{"coordinates":[4.24504,50.871363],"type":"Point"},"properties":{"osm_id":"4895244536","tag":{"amenity":"waste_basket"}},"type":"Feature"},
	{"geometry":{"coordinates":[4.245344,50.863774],"type":"Point"},"properties":{"osm_id":"4895252299","tag":{"amenity":"waste_basket"}},"type":"Feature"},
	{"geometry":{"coordinates":[4.245939,50.862076],"type":"Point"},"properties":{"osm_id":"4895272614","tag":{"amenity":"waste_basket"}},"type":"Feature"},
	{"geometry":{"coordinates":[4.245751,50.859304],"type":"Point"},"properties":{"osm_id":"4895272615","tag":{"amenity":"waste_basket"}},"type":"Feature"},
	{"geometry":{"coordinates":[4.249088,50.853675],"type":"Point"},"properties":{"osm_id":"4895272616","tag":{"amenity":"waste_basket"}},"type":"Feature"},
	{"geometry":{"coordinates":[4.256502,50.847607],"type":"Point"},"properties":{"osm_id":"4895272618","tag":{"amenity":"waste_basket"}},"type":"Feature"},
	{"geometry":{"coordinates":[4.280601,50.873184],"type":"Point"},"properties":{"osm_id":"4902380645","tag":{"amenity":"waste_basket"}},"type":"Feature"},
	{"geometry":{"coordinates":[4.287583,50.874152],"type":"Point"},"properties":{"osm_id":"4902498024","tag":{"amenity":"waste_basket"}},"type":"Feature"},
	{"geometry":{"coordinates":[4.218844,50.878997],"type":"Point"},"properties":{"osm_id":"4907641040","tag":{"amenity":"waste_basket"}},"type":"Feature"},
	{"geometry":{"coordinates":[4.302663,50.852161],"type":"Point"},"properties":{"osm_id":"4908024068","tag":{"amenity":"recycling","location":"overground","operator":"Bruxelles-Propret\u00c3\u00a9 - Net Brussel","recycling:glass_bottles":"yes","recycling_type":"container"}},"type":"Feature"},
	{"geometry":{"coordinates":[4.245014,50.871657],"type":"Point"},"properties":{"osm_id":"4987169953","tag":{"amenity":"waste_basket"}},"type":"Feature"},
	{"geometry":{"coordinates":[4.244882,50.8693],"type":"Point"},"properties":{"osm_id":"4987175858","tag":{"amenity":"waste_basket"}},"type":"Feature"},
	{"geometry":{"coordinates":[4.244981,50.866364],"type":"Point"},"properties":{"osm_id":"4987194118","tag":{"amenity":"recycling","recycling:clothes":"yes","recycling:shoes":"yes","recycling_type":"container"}},"type":"Feature"},
	{"geometry":{"coordinates":[4.248973,50.87574],"type":"Point"},"properties":{"osm_id":"5003748044","tag":{"amenity":"waste_basket"}},"type":"Feature"},
	{"geometry":{"coordinates":[4.248391,50.875349],"type":"Point"},"properties":{"osm_id":"5003748045","tag":{"amenity":"waste_basket"}},"type":"Feature"},
	{"geometry":{"coordinates":[4.248731,50.875598],"type":"Point"},"properties":{"osm_id":"5003748047","tag":{"amenity":"waste_basket"}},"type":"Feature"},
	{"geometry":{"coordinates":[4.250204,50.874736],"type":"Point"},"properties":{"osm_id":"5003750700","tag":{"amenity":"waste_basket"}},"type":"Feature"},
	{"geometry":{"coordinates":[4.250104,50.874842],"type":"Point"},"properties":{"osm_id":"5003750701","tag":{"amenity":"waste_basket"}},"type":"Feature"},
	{"geometry":{"coordinates":[4.250915,50.874825],"type":"Point"},"properties":{"osm_id":"5003750702","tag":{"amenity":"waste_basket"}},"type":"Feature"},
	{"geometry":{"coordinates":[4.265402,50.871462],"type":"Point"},"properties":{"osm_id":"5006981622","tag":{"amenity":"waste_basket"}},"type":"Feature"},
	{"geometry":{"coordinates":[4.266131,50.871415],"type":"Point"},"properties":{"osm_id":"5006981625","tag":{"amenity":"waste_basket"}},"type":"Feature"},
	{"geometry":{"coordinates":[4.266998,50.871807],"type":"Point"},"properties":{"osm_id":"5006981627","tag":{"amenity":"waste_basket"}},"type":"Feature"},
	{"geometry":{"coordinates":[4.300639,50.880242],"type":"Point"},"properties":{"osm_id":"5007056397","tag":{"amenity":"waste_basket"}},"type":"Feature"},
	{"geometry":{"coordinates":[4.300788,50.880197],"type":"Point"},"properties":{"osm_id":"5007056398","tag":{"amenity":"waste_basket"}},"type":"Feature"},
	{"geometry":{"coordinates":[4.245478,50.866165],"type":"Point"},"properties":{"osm_id":"5085537365","tag":{"amenity":"waste_basket"}},"type":"Feature"},
	{"geometry":{"coordinates":[4.244664,50.866171],"type":"Point"},"properties":{"osm_id":"5085537366","tag":{"amenity":"waste_basket"}},"type":"Feature"},
	{"geometry":{"coordinates":[4.250302,50.865599],"type":"Point"},"properties":{"osm_id":"5085542504","tag":{"amenity":"waste_basket"}},"type":"Feature"},
	{"geometry":{"coordinates":[4.295895,50.873246],"type":"Point"},"properties":{"osm_id":"5144805400","tag":{"amenity":"waste_basket"}},"type":"Feature"},
	{"geometry":{"coordinates":[4.29636,50.873482],"type":"Point"},"properties":{"osm_id":"5144805401","tag":{"amenity":"waste_basket"}},"type":"Feature"},
	{"geometry":{"coordinates":[4.297826,50.87417],"type":"Point"},"properties":{"osm_id":"5144805402","tag":{"amenity":"waste_basket"}},"type":"Feature"},
	{"geometry":{"coordinates":[4.299194,50.875295],"type":"Point"},"properties":{"osm_id":"5144805404","tag":{"amenity":"waste_basket"}},"type":"Feature"},
	{"geometry":{"coordinates":[4.298989,50.87495],"type":"Point"},"properties":{"osm_id":"5144805408","tag":{"amenity":"waste_basket"}},"type":"Feature"},
	{"geometry":{"coordinates":[4.301079,50.878096],"type":"Point"},"properties":{"osm_id":"5144807349","tag":{"amenity":"waste_basket"}},"type":"Feature"},
	{"geometry":{"coordinates":[4.277137,50.867317],"type":"Point"},"properties":{"osm_id":"5159293982","tag":{"amenity":"waste_basket"}},"type":"Feature"},
	{"geometry":{"coordinates":[4.281595,50.866929],"type":"Point"},"properties":{"osm_id":"5159320280","tag":{"amenity":"waste_basket"}},"type":"Feature"},
	{"geometry":{"coordinates":[4.281423,50.867048],"type":"Point"},"properties":{"osm_id":"5159320293","tag":{"amenity":"waste_basket"}},"type":"Feature"},
	{"geometry":{"coordinates":[4.293042,50.865264],"type":"Point"},"properties":{"osm_id":"5160727655","tag":{"amenity":"waste_basket"}},"type":"Feature"},
	{"geometry":{"coordinates":[4.292366,50.865377],"type":"Point"},"properties":{"osm_id":"5160727665","tag":{"amenity":"waste_basket"}},"type":"Feature"},
	{"geometry":{"coordinates":[4.296925,50.864449],"type":"Point"},"properties":{"osm_id":"5161710388","tag":{"amenity":"waste_basket"}},"type":"Feature"},
	{"geometry":{"coordinates":[4.297095,50.864746],"type":"Point"},"properties":{"osm_id":"5161775850","tag":{"amenity":"waste_basket"}},"type":"Feature"},
	{"geometry":{"coordinates":[4.287407,50.862885],"type":"Point"},"properties":{"osm_id":"5240239697","tag":{"amenity":"waste_basket"}},"type":"Feature"},
	{"geometry":{"coordinates":[4.287055,50.863227],"type":"Point"},"properties":{"osm_id":"5240239698","tag":{"amenity":"waste_basket"}},"type":"Feature"},
	{"geometry":{"coordinates":[4.292798,50.861246],"type":"Point"},"properties":{"osm_id":"5240254127","tag":{"amenity":"waste_basket"}},"type":"Feature"},
	{"geometry":{"coordinates":[4.291753,50.861764],"type":"Point"},"properties":{"osm_id":"5240254140","tag":{"amenity":"waste_basket"}},"type":"Feature"},
	{"geometry":{"coordinates":[4.29622,50.860993],"type":"Point"},"properties":{"osm_id":"5303155553","tag":{"amenity":"waste_basket"}},"type":"Feature"},
	{"geometry":{"coordinates":[4.2907,50.872358],"type":"Point"},"properties":{"osm_id":"5403988132","tag":{"amenity":"waste_basket"}},"type":"Feature"},
	{"geometry":{"coordinates":[4.289862,50.872379],"type":"Point"},"properties":{"osm_id":"5403988147","tag":{"amenity":"waste_basket"}},"type":"Feature"},
	{"geometry":{"coordinates":[4.289975,50.872274],"type":"Point"},"properties":{"osm_id":"5403988148","tag":{"amenity":"waste_basket"}},"type":"Feature"},
	{"geometry":{"coordinates":[4.290031,50.872222],"type":"Point"},"properties":{"osm_id":"5403988149","tag":{"amenity":"waste_basket"}},"type":"Feature"},
	{"geometry":{"coordinates":[4.289959,50.872419],"type":"Point"},"properties":{"osm_id":"5403988150","tag":{"amenity":"waste_basket"}},"type":"Feature"},
	{"geometry":{"coordinates":[4.290129,50.872263],"type":"Point"},"properties":{"osm_id":"5403988152","tag":{"amenity":"waste_basket"}},"type":"Feature"},
	{"geometry":{"coordinates":[4.290073,50.872315],"type":"Point"},"properties":{"osm_id":"5403988153","tag":{"amenity":"waste_basket"}},"type":"Feature"},
	{"geometry":{"coordinates":[4.28992,50.872326],"type":"Point"},"properties":{"osm_id":"5403988178","tag":{"amenity":"waste_basket"}},"type":"Feature"},
	{"geometry":{"coordinates":[4.290016,50.872367],"type":"Point"},"properties":{"osm_id":"5403988179","tag":{"amenity":"waste_basket"}},"type":"Feature"},
	{"geometry":{"coordinates":[4.291794,50.86972],"type":"Point"},"properties":{"osm_id":"5404149158","tag":{"amenity":"waste_basket"}},"type":"Feature"},
	{"geometry":{"coordinates":[4.294411,50.866854],"type":"Point"},"properties":{"osm_id":"5404515243","tag":{"amenity":"waste_basket"}},"type":"Feature"},
	{"geometry":{"coordinates":[4.304425,50.861033],"type":"Point"},"properties":{"osm_id":"5405385175","tag":{"amenity":"waste_basket"}},"type":"Feature"},
	{"geometry":{"coordinates":[4.306631,50.860233],"type":"Point"},"properties":{"osm_id":"5405385178","tag":{"amenity":"waste_basket"}},"type":"Feature"},
	{"geometry":{"coordinates":[4.288304,50.86999],"type":"Point"},"properties":{"osm_id":"5407265310","tag":{"amenity":"waste_basket"}},"type":"Feature"},
	{"geometry":{"coordinates":[4.288624,50.869746],"type":"Point"},"properties":{"osm_id":"5407265315","tag":{"amenity":"waste_basket"}},"type":"Feature"},
	{"geometry":{"coordinates":[4.306151,50.855661],"type":"Point"},"properties":{"osm_id":"5413063394","tag":{"amenity":"waste_basket"}},"type":"Feature"},
	{"geometry":{"coordinates":[4.30661,50.855585],"type":"Point"},"properties":{"osm_id":"5413063401","tag":{"amenity":"waste_basket"}},"type":"Feature"},
	{"geometry":{"coordinates":[4.295025,50.855211],"type":"Point"},"properties":{"osm_id":"5418248269","tag":{"amenity":"waste_basket"}},"type":"Feature"},
	{"geometry":{"coordinates":[4.29513,50.855322],"type":"Point"},"properties":{"osm_id":"5418248270","tag":{"amenity":"waste_basket"}},"type":"Feature"},
	{"geometry":{"coordinates":[4.289832,50.85616],"type":"Point"},"properties":{"osm_id":"5438015616","tag":{"amenity":"waste_basket"}},"type":"Feature"},
	{"geometry":{"coordinates":[4.29003,50.856219],"type":"Point"},"properties":{"osm_id":"5438015725","tag":{"amenity":"waste_basket"}},"type":"Feature"},
	{"geometry":{"coordinates":[4.288221,50.860169],"type":"Point"},"properties":{"osm_id":"5438482090","tag":{"amenity":"waste_basket"}},"type":"Feature"},
	{"geometry":{"coordinates":[4.300718,50.872496],"type":"Point"},"properties":{"osm_id":"5537582740","tag":{"amenity":"waste_basket"}},"type":"Feature"},
	{"geometry":{"coordinates":[4.300714,50.85161],"type":"Point"},"properties":{"osm_id":"5602130750","tag":{"amenity":"waste_basket"}},"type":"Feature"},
	{"geometry":{"coordinates":[4.30129,50.851259],"type":"Point"},"properties":{"osm_id":"5602130762","tag":{"amenity":"waste_basket"}},"type":"Feature"},
	{"geometry":{"coordinates":[4.301219,50.851261],"type":"Point"},"properties":{"osm_id":"5602130763","tag":{"amenity":"waste_basket"}},"type":"Feature"},
	{"geometry":{"coordinates":[4.301109,50.85128],"type":"Point"},"properties":{"osm_id":"5602130764","tag":{"amenity":"waste_basket"}},"type":"Feature"},
	{"geometry":{"coordinates":[4.291396,50.870717],"type":"Point"},"properties":{"osm_id":"5628063391","tag":{"amenity":"recycling","recycling:glass":"yes"}},"type":"Feature"},
	{"geometry":{"coordinates":[4.306106,50.855053],"type":"Point"},"properties":{"osm_id":"5670078523","tag":{"amenity":"waste_basket"}},"type":"Feature"},
	{"geometry":{"coordinates":[4.294936,50.87352],"type":"Point"},"properties":{"osm_id":"5685735001","tag":{"amenity":"waste_basket"}},"type":"Feature"},
	{"geometry":{"coordinates":[4.302854,50.856677],"type":"Point"},"properties":{"osm_id":"5694555043","tag":{"amenity":"waste_basket"}},"type":"Feature"},
	{"geometry":{"coordinates":[4.303499,50.856963],"type":"Point"},"properties":{"osm_id":"5694555062","tag":{"amenity":"waste_basket"}},"type":"Feature"},
	{"geometry":{"coordinates":[4.29857,50.8554],"type":"Point"},"properties":{"osm_id":"5694568096","tag":{"amenity":"waste_basket"}},"type":"Feature"},
	{"geometry":{"coordinates":[4.298641,50.855518],"type":"Point"},"properties":{"osm_id":"5694568101","tag":{"amenity":"waste_basket"}},"type":"Feature"},
	{"geometry":{"coordinates":[4.301843,50.876457],"type":"Point"},"properties":{"osm_id":"5788355842","tag":{"amenity":"waste_basket"}},"type":"Feature"},
	{"geometry":{"coordinates":[4.244706,50.873938],"type":"Point"},"properties":{"osm_id":"5881340943","tag":{"amenity":"recycling","recycling:clothes":"yes","recycling:shoes":"yes","recycling_type":"container"}},"type":"Feature"},
	{"geometry":{"coordinates":[4.30522,50.8708],"type":"Point"},"properties":{"osm_id":"5985259288","tag":{"amenity":"waste_basket"}},"type":"Feature"},
	{"geometry":{"coordinates":[4.302499,50.87078],"type":"Point"},"properties":{"osm_id":"5985476626","tag":{"amenity":"waste_basket"}},"type":"Feature"},
	{"geometry":{"coordinates":[4.294684,50.858675],"type":"Point"},"properties":{"osm_id":"6122167624","tag":{"amenity":"waste_basket"}},"type":"Feature"},
	{"geometry":{"coordinates":[4.291589,50.861047],"type":"Point"},"properties":{"osm_id":"6402326565","tag":{"amenity":"recycling","location":"overground","operator":"Bruxelles-Propret\u00c3\u00a9 - Net Brussel","recycling:glass_bottles":"yes","recycling_type":"container"}},"type":"Feature"},
	{"geometry":{"coordinates":[4.28999,50.860328],"type":"Point"},"properties":{"osm_id":"6402571746","tag":{"amenity":"waste_basket"}},"type":"Feature"},
	{"geometry":{"coordinates":[4.295333,50.863891],"type":"Point"},"properties":{"osm_id":"6525009997","tag":{"amenity":"waste_basket"}},"type":"Feature"},
	{"geometry":{"coordinates":[4.295125,50.863942],"type":"Point"},"properties":{"osm_id":"6525010008","tag":{"amenity":"waste_basket"}},"type":"Feature"},
	{"geometry":{"coordinates":[4.297916,50.881951],"type":"Point"},"properties":{"osm_id":"6559442566","tag":{"amenity":"waste_basket"}},"type":"Feature"},
	{"geometry":{"coordinates":[4.30573,50.866873],"type":"Point"},"properties":{"osm_id":"6718534167","tag":{"amenity":"waste_basket"}},"type":"Feature"},
	{"geometry":{"coordinates":[4.281132,50.866891],"type":"Point"},"properties":{"osm_id":"7316439374","tag":{"amenity":"recycling","location":"overground","operator":"Terre","recycling:clothes":"yes","recycling_type":"container"}},"type":"Feature"},
	{"geometry":{"coordinates":[4.296186,50.863589],"type":"Point"},"properties":{"osm_id":"7318757533","tag":{"amenity":"recycling","location":"overground","operator":"Bruxelles-Propret\u00c3\u00a9 - Net Brussel","recycling:glass_bottles":"yes","recycling_type":"container"}},"type":"Feature"},
	{"geometry":{"coordinates":[4.29994,50.851389],"type":"Point"},"properties":{"osm_id":"7664041376","tag":{"amenity":"recycling","location":"overground","operator":"Les Petits Riens - Spullenhulp","recycling:clothes":"yes","recycling_type":"container"}},"type":"Feature"}
]
}
