{
"type": "FeatureCollection",
"features": [
	{"geometry":{"coordinates":[4.287765,50.804131],"type":"Point"},"properties":{"osm_id":"1020331806","tag":{"amenity":"recycling","operator":"Curitas","recycling:clothes":"yes"}},"type":"Feature"},
	{"geometry":{"coordinates":[4.289141,50.846169],"type":"Point"},"properties":{"osm_id":"1240012852","tag":{"amenity":"recycling","location":"overground","operator":"Les Petits Riens - Spullenhulp","recycling:clothes":"yes","recycling_type":"container"}},"type":"Feature"},
	{"geometry":{"coordinates":[4.234527,50.830489],"type":"Point"},"properties":{"osm_id":"1248528369","tag":{"amenity":"recycling","recycling:clothes":"yes"}},"type":"Feature"},
	{"geometry":{"coordinates":[4.252176,50.840107],"type":"Point"},"properties":{"osm_id":"1268919841","tag":{"amenity":"recycling","recycling:clothes":"yes"}},"type":"Feature"},
	{"geometry":{"coordinates":[4.289774,50.83479],"type":"Point"},"properties":{"osm_id":"1321573459","tag":{"amenity":"recycling","location":"overground","recycling:glass":"yes","recycling_type":"container"}},"type":"Feature"},
	{"geometry":{"coordinates":[4.289439,50.834742],"type":"Point"},"properties":{"osm_id":"1321573471","tag":{"amenity":"recycling","location":"overground","recycling:clothes":"yes","recycling_type":"container"}},"type":"Feature"},
	{"geometry":{"coordinates":[4.283753,50.832896],"type":"Point"},"properties":{"osm_id":"1321600306","tag":{"amenity":"recycling","location":"overground","recycling:clothes":"yes","recycling:glass":"yes","recycling_type":"container"}},"type":"Feature"},
	{"geometry":{"coordinates":[4.280849,50.837497],"type":"Point"},"properties":{"osm_id":"1321661730","tag":{"amenity":"recycling","location":"underground","recycling:glass":"yes","recycling_type":"container"}},"type":"Feature"},
	{"geometry":{"coordinates":[4.274307,50.836095],"type":"Point"},"properties":{"osm_id":"1321685688","tag":{"amenity":"recycling","location":"underground","recycling:glass":"yes","recycling_type":"container"}},"type":"Feature"},
	{"geometry":{"coordinates":[4.229043,50.840506],"type":"Point"},"properties":{"osm_id":"1321751466","tag":{"amenity":"recycling","recycling:clothes":"yes"}},"type":"Feature"},
	{"geometry":{"coordinates":[4.301119,50.82161],"type":"Point"},"properties":{"osm_id":"1485608647","tag":{"amenity":"waste_basket"}},"type":"Feature"},
	{"geometry":{"coordinates":[4.29832,50.818616],"type":"Point"},"properties":{"osm_id":"1485623823","tag":{"amenity":"waste_basket"}},"type":"Feature"},
	{"geometry":{"coordinates":[4.301381,50.820102],"type":"Point"},"properties":{"osm_id":"1485623864","tag":{"amenity":"recycling","location":"overground","recycling:glass":"yes","recycling_type":"container"}},"type":"Feature"},
	{"geometry":{"coordinates":[4.305752,50.828109],"type":"Point"},"properties":{"osm_id":"1488376960","tag":{"amenity":"recycling","location":"overground","operator":"Bruxelles-Propret\u00c3\u00a9 - Net Brussel","recycling:glass_bottles":"yes","recycling_type":"container"}},"type":"Feature"},
	{"geometry":{"coordinates":[4.29259,50.816623],"type":"Point"},"properties":{"osm_id":"1488411481","tag":{"amenity":"waste_basket"}},"type":"Feature"},
	{"geometry":{"coordinates":[4.230532,50.807208],"type":"Point"},"properties":{"osm_id":"1522211970","tag":{"amenity":"waste_basket"}},"type":"Feature"},
	{"geometry":{"coordinates":[4.292358,50.796567],"type":"Point"},"properties":{"osm_id":"1610154067","tag":{"amenity":"recycling","recycling:glass":"yes"}},"type":"Feature"},
	{"geometry":{"coordinates":[4.288747,50.801917],"type":"Point"},"properties":{"osm_id":"1610223307","tag":{"amenity":"recycling","recycling:clothes":"yes","recycling_type":"container"}},"type":"Feature"},
	{"geometry":{"coordinates":[4.278549,50.799658],"type":"Point"},"properties":{"osm_id":"1610248806","tag":{"amenity":"recycling","recycling:clothes":"yes","recycling_type":"container"}},"type":"Feature"},
	{"geometry":{"coordinates":[4.284879,50.804416],"type":"Point"},"properties":{"osm_id":"1610350228","tag":{"amenity":"recycling","recycling:clothes":"yes","recycling_type":"container"}},"type":"Feature"},
	{"geometry":{"coordinates":[4.28385,50.805681],"type":"Point"},"properties":{"osm_id":"1610350562","tag":{"amenity":"recycling","recycling:clothes":"yes","recycling_type":"container"}},"type":"Feature"},
	{"geometry":{"coordinates":[4.256668,50.797992],"type":"Point"},"properties":{"osm_id":"1648466441","tag":{"amenity":"recycling","recycling:clothes":"yes","recycling_type":"container"}},"type":"Feature"},
	{"geometry":{"coordinates":[4.23139,50.807399],"type":"Point"},"properties":{"osm_id":"1670436019","tag":{"amenity":"recycling","recycling:clothes":"yes","recycling_type":"container"}},"type":"Feature"},
	{"geometry":{"coordinates":[4.288176,50.81441],"type":"Point"},"properties":{"osm_id":"2622779409","tag":{"amenity":"waste_basket"}},"type":"Feature"},
	{"geometry":{"coordinates":[4.288504,50.814627],"type":"Point"},"properties":{"osm_id":"2622779410","tag":{"amenity":"waste_basket"}},"type":"Feature"},
	{"geometry":{"coordinates":[4.261799,50.814972],"type":"Point"},"properties":{"osm_id":"2622779416","tag":{"amenity":"waste_basket"}},"type":"Feature"},
	{"geometry":{"coordinates":[4.261529,50.815089],"type":"Point"},"properties":{"osm_id":"2622779421","tag":{"amenity":"waste_basket"}},"type":"Feature"},
	{"geometry":{"coordinates":[4.264324,50.815231],"type":"Point"},"properties":{"osm_id":"2622779428","tag":{"amenity":"waste_basket"}},"type":"Feature"},
	{"geometry":{"coordinates":[4.264137,50.815234],"type":"Point"},"properties":{"osm_id":"2622779430","tag":{"amenity":"waste_basket"}},"type":"Feature"},
	{"geometry":{"coordinates":[4.272937,50.815578],"type":"Point"},"properties":{"osm_id":"2622779434","tag":{"amenity":"waste_basket"}},"type":"Feature"},
	{"geometry":{"coordinates":[4.262496,50.815673],"type":"Point"},"properties":{"osm_id":"2622779437","tag":{"amenity":"waste_basket"}},"type":"Feature"},
	{"geometry":{"coordinates":[4.274464,50.815726],"type":"Point"},"properties":{"osm_id":"2622779439","tag":{"amenity":"waste_basket"}},"type":"Feature"},
	{"geometry":{"coordinates":[4.261568,50.815777],"type":"Point"},"properties":{"osm_id":"2622779440","tag":{"amenity":"waste_basket"}},"type":"Feature"},
	{"geometry":{"coordinates":[4.260219,50.816042],"type":"Point"},"properties":{"osm_id":"2622779444","tag":{"amenity":"waste_basket"}},"type":"Feature"},
	{"geometry":{"coordinates":[4.283279,50.816129],"type":"Point"},"properties":{"osm_id":"2622779445","tag":{"amenity":"waste_basket"}},"type":"Feature"},
	{"geometry":{"coordinates":[4.282083,50.816349],"type":"Point"},"properties":{"osm_id":"2622779447","tag":{"amenity":"waste_basket"}},"type":"Feature"},
	{"geometry":{"coordinates":[4.284236,50.816387],"type":"Point"},"properties":{"osm_id":"2622779449","tag":{"amenity":"waste_basket"}},"type":"Feature"},
	{"geometry":{"coordinates":[4.281769,50.816623],"type":"Point"},"properties":{"osm_id":"2622779450","tag":{"amenity":"waste_basket"}},"type":"Feature"},
	{"geometry":{"coordinates":[4.27894,50.816855],"type":"Point"},"properties":{"osm_id":"2622779453","tag":{"amenity":"waste_basket"}},"type":"Feature"},
	{"geometry":{"coordinates":[4.280246,50.817087],"type":"Point"},"properties":{"osm_id":"2622779456","tag":{"amenity":"waste_basket"}},"type":"Feature"},
	{"geometry":{"coordinates":[4.278715,50.817091],"type":"Point"},"properties":{"osm_id":"2622779457","tag":{"amenity":"waste_basket"}},"type":"Feature"},
	{"geometry":{"coordinates":[4.279905,50.817408],"type":"Point"},"properties":{"osm_id":"2622779463","tag":{"amenity":"waste_basket"}},"type":"Feature"},
	{"geometry":{"coordinates":[4.283277,50.819048],"type":"Point"},"properties":{"osm_id":"2622779475","tag":{"amenity":"waste_basket"}},"type":"Feature"},
	{"geometry":{"coordinates":[4.282991,50.819663],"type":"Point"},"properties":{"osm_id":"2622779481","tag":{"amenity":"waste_basket"}},"type":"Feature"},
	{"geometry":{"coordinates":[4.289319,50.825395],"type":"Point"},"properties":{"osm_id":"2622779510","tag":{"amenity":"waste_basket"}},"type":"Feature"},
	{"geometry":{"coordinates":[4.288051,50.825492],"type":"Point"},"properties":{"osm_id":"2622779516","tag":{"amenity":"waste_basket"}},"type":"Feature"},
	{"geometry":{"coordinates":[4.286257,50.826258],"type":"Point"},"properties":{"osm_id":"2622779526","tag":{"amenity":"waste_basket"}},"type":"Feature"},
	{"geometry":{"coordinates":[4.290273,50.826326],"type":"Point"},"properties":{"osm_id":"2622779531","tag":{"amenity":"waste_basket"}},"type":"Feature"},
	{"geometry":{"coordinates":[4.289727,50.826562],"type":"Point"},"properties":{"osm_id":"2622779539","tag":{"amenity":"waste_basket"}},"type":"Feature"},
	{"geometry":{"coordinates":[4.290761,50.826607],"type":"Point"},"properties":{"osm_id":"2622779558","tag":{"amenity":"waste_basket"}},"type":"Feature"},
	{"geometry":{"coordinates":[4.287115,50.826637],"type":"Point"},"properties":{"osm_id":"2622779563","tag":{"amenity":"waste_basket"}},"type":"Feature"},
	{"geometry":{"coordinates":[4.287115,50.826637],"type":"Point"},"properties":{"osm_id":"2622779564","tag":{"amenity":"waste_basket"}},"type":"Feature"},
	{"geometry":{"coordinates":[4.287115,50.826637],"type":"Point"},"properties":{"osm_id":"2622779565","tag":{"amenity":"waste_basket"}},"type":"Feature"},
	{"geometry":{"coordinates":[4.290986,50.826796],"type":"Point"},"properties":{"osm_id":"2622779574","tag":{"amenity":"waste_basket"}},"type":"Feature"},
	{"geometry":{"coordinates":[4.293412,50.827187],"type":"Point"},"properties":{"osm_id":"2622779606","tag":{"amenity":"waste_basket"}},"type":"Feature"},
	{"geometry":{"coordinates":[4.293412,50.827187],"type":"Point"},"properties":{"osm_id":"2622779609","tag":{"amenity":"waste_basket"}},"type":"Feature"},
	{"geometry":{"coordinates":[4.293412,50.827187],"type":"Point"},"properties":{"osm_id":"2622779611","tag":{"amenity":"waste_basket"}},"type":"Feature"},
	{"geometry":{"coordinates":[4.294131,50.827395],"type":"Point"},"properties":{"osm_id":"2622779624","tag":{"amenity":"waste_basket"}},"type":"Feature"},
	{"geometry":{"coordinates":[4.294131,50.827395],"type":"Point"},"properties":{"osm_id":"2622779626","tag":{"amenity":"waste_basket"}},"type":"Feature"},
	{"geometry":{"coordinates":[4.294131,50.827395],"type":"Point"},"properties":{"osm_id":"2622779629","tag":{"amenity":"waste_basket"}},"type":"Feature"},
	{"geometry":{"coordinates":[4.293692,50.827452],"type":"Point"},"properties":{"osm_id":"2622779632","tag":{"amenity":"waste_basket"}},"type":"Feature"},
	{"geometry":{"coordinates":[4.293692,50.827452],"type":"Point"},"properties":{"osm_id":"2622779634","tag":{"amenity":"waste_basket"}},"type":"Feature"},
	{"geometry":{"coordinates":[4.293692,50.827452],"type":"Point"},"properties":{"osm_id":"2622779637","tag":{"amenity":"waste_basket"}},"type":"Feature"},
	{"geometry":{"coordinates":[4.294903,50.827533],"type":"Point"},"properties":{"osm_id":"2622779643","tag":{"amenity":"waste_basket"}},"type":"Feature"},
	{"geometry":{"coordinates":[4.294903,50.827533],"type":"Point"},"properties":{"osm_id":"2622779646","tag":{"amenity":"waste_basket"}},"type":"Feature"},
	{"geometry":{"coordinates":[4.294903,50.827534],"type":"Point"},"properties":{"osm_id":"2622779648","tag":{"amenity":"waste_basket"}},"type":"Feature"},
	{"geometry":{"coordinates":[4.29471,50.827651],"type":"Point"},"properties":{"osm_id":"2622779670","tag":{"amenity":"waste_basket"}},"type":"Feature"},
	{"geometry":{"coordinates":[4.295453,50.827704],"type":"Point"},"properties":{"osm_id":"2622779677","tag":{"amenity":"waste_basket"}},"type":"Feature"},
	{"geometry":{"coordinates":[4.295453,50.827704],"type":"Point"},"properties":{"osm_id":"2622779680","tag":{"amenity":"waste_basket"}},"type":"Feature"},
	{"geometry":{"coordinates":[4.295453,50.827704],"type":"Point"},"properties":{"osm_id":"2622779682","tag":{"amenity":"waste_basket"}},"type":"Feature"},
	{"geometry":{"coordinates":[4.295939,50.827774],"type":"Point"},"properties":{"osm_id":"2622779697","tag":{"amenity":"waste_basket"}},"type":"Feature"},
	{"geometry":{"coordinates":[4.295939,50.827774],"type":"Point"},"properties":{"osm_id":"2622779699","tag":{"amenity":"waste_basket"}},"type":"Feature"},
	{"geometry":{"coordinates":[4.295939,50.827774],"type":"Point"},"properties":{"osm_id":"2622779703","tag":{"amenity":"waste_basket"}},"type":"Feature"},
	{"geometry":{"coordinates":[4.296617,50.827816],"type":"Point"},"properties":{"osm_id":"2622779710","tag":{"amenity":"waste_basket"}},"type":"Feature"},
	{"geometry":{"coordinates":[4.296617,50.827816],"type":"Point"},"properties":{"osm_id":"2622779713","tag":{"amenity":"waste_basket"}},"type":"Feature"},
	{"geometry":{"coordinates":[4.296617,50.827816],"type":"Point"},"properties":{"osm_id":"2622779715","tag":{"amenity":"waste_basket"}},"type":"Feature"},
	{"geometry":{"coordinates":[4.296259,50.827894],"type":"Point"},"properties":{"osm_id":"2622779728","tag":{"amenity":"waste_basket"}},"type":"Feature"},
	{"geometry":{"coordinates":[4.296259,50.827894],"type":"Point"},"properties":{"osm_id":"2622779731","tag":{"amenity":"waste_basket"}},"type":"Feature"},
	{"geometry":{"coordinates":[4.296259,50.827894],"type":"Point"},"properties":{"osm_id":"2622779733","tag":{"amenity":"waste_basket"}},"type":"Feature"},
	{"geometry":{"coordinates":[4.296666,50.827989],"type":"Point"},"properties":{"osm_id":"2622779755","tag":{"amenity":"waste_basket"}},"type":"Feature"},
	{"geometry":{"coordinates":[4.296667,50.827989],"type":"Point"},"properties":{"osm_id":"2622779757","tag":{"amenity":"waste_basket"}},"type":"Feature"},
	{"geometry":{"coordinates":[4.296667,50.827989],"type":"Point"},"properties":{"osm_id":"2622779760","tag":{"amenity":"waste_basket"}},"type":"Feature"},
	{"geometry":{"coordinates":[4.299931,50.828357],"type":"Point"},"properties":{"osm_id":"2622779810","tag":{"amenity":"waste_basket"}},"type":"Feature"},
	{"geometry":{"coordinates":[4.300617,50.828423],"type":"Point"},"properties":{"osm_id":"2622779827","tag":{"amenity":"waste_basket"}},"type":"Feature"},
	{"geometry":{"coordinates":[4.298907,50.82845],"type":"Point"},"properties":{"osm_id":"2622779836","tag":{"amenity":"waste_basket"}},"type":"Feature"},
	{"geometry":{"coordinates":[4.300219,50.828553],"type":"Point"},"properties":{"osm_id":"2622779864","tag":{"amenity":"waste_basket"}},"type":"Feature"},
	{"geometry":{"coordinates":[4.299406,50.82856],"type":"Point"},"properties":{"osm_id":"2622779867","tag":{"amenity":"waste_basket"}},"type":"Feature"},
	{"geometry":{"coordinates":[4.300325,50.828564],"type":"Point"},"properties":{"osm_id":"2622779872","tag":{"amenity":"waste_basket"}},"type":"Feature"},
	{"geometry":{"coordinates":[4.301086,50.828665],"type":"Point"},"properties":{"osm_id":"2622779892","tag":{"amenity":"waste_basket"}},"type":"Feature"},
	{"geometry":{"coordinates":[4.300124,50.828685],"type":"Point"},"properties":{"osm_id":"2622779899","tag":{"amenity":"waste_basket"}},"type":"Feature"},
	{"geometry":{"coordinates":[4.300229,50.828697],"type":"Point"},"properties":{"osm_id":"2622779913","tag":{"amenity":"waste_basket"}},"type":"Feature"},
	{"geometry":{"coordinates":[4.29995,50.828888],"type":"Point"},"properties":{"osm_id":"2622779919","tag":{"amenity":"waste_basket"}},"type":"Feature"},
	{"geometry":{"coordinates":[4.300484,50.828898],"type":"Point"},"properties":{"osm_id":"2622779921","tag":{"amenity":"waste_basket"}},"type":"Feature"},
	{"geometry":{"coordinates":[4.302047,50.832103],"type":"Point"},"properties":{"osm_id":"2622779963","tag":{"amenity":"waste_basket"}},"type":"Feature"},
	{"geometry":{"coordinates":[4.301918,50.832254],"type":"Point"},"properties":{"osm_id":"2622779968","tag":{"amenity":"waste_basket"}},"type":"Feature"},
	{"geometry":{"coordinates":[4.301918,50.832254],"type":"Point"},"properties":{"osm_id":"2622779970","tag":{"amenity":"waste_basket"}},"type":"Feature"},
	{"geometry":{"coordinates":[4.301918,50.832254],"type":"Point"},"properties":{"osm_id":"2622779972","tag":{"amenity":"waste_basket"}},"type":"Feature"},
	{"geometry":{"coordinates":[4.302401,50.832267],"type":"Point"},"properties":{"osm_id":"2622779974","tag":{"amenity":"waste_basket"}},"type":"Feature"},
	{"geometry":{"coordinates":[4.302401,50.832267],"type":"Point"},"properties":{"osm_id":"2622779975","tag":{"amenity":"waste_basket"}},"type":"Feature"},
	{"geometry":{"coordinates":[4.302401,50.832268],"type":"Point"},"properties":{"osm_id":"2622779977","tag":{"amenity":"waste_basket"}},"type":"Feature"},
	{"geometry":{"coordinates":[4.302551,50.832493],"type":"Point"},"properties":{"osm_id":"2622779979","tag":{"amenity":"waste_basket"}},"type":"Feature"},
	{"geometry":{"coordinates":[4.302879,50.83264],"type":"Point"},"properties":{"osm_id":"2622779985","tag":{"amenity":"waste_basket"}},"type":"Feature"},
	{"geometry":{"coordinates":[4.302879,50.83264],"type":"Point"},"properties":{"osm_id":"2622779986","tag":{"amenity":"waste_basket"}},"type":"Feature"},
	{"geometry":{"coordinates":[4.302879,50.83264],"type":"Point"},"properties":{"osm_id":"2622779987","tag":{"amenity":"waste_basket"}},"type":"Feature"},
	{"geometry":{"coordinates":[4.301963,50.83283],"type":"Point"},"properties":{"osm_id":"2622779991","tag":{"amenity":"waste_basket"}},"type":"Feature"},
	{"geometry":{"coordinates":[4.302783,50.832877],"type":"Point"},"properties":{"osm_id":"2622779996","tag":{"amenity":"waste_basket"}},"type":"Feature"},
	{"geometry":{"coordinates":[4.302783,50.832877],"type":"Point"},"properties":{"osm_id":"2622779997","tag":{"amenity":"waste_basket"}},"type":"Feature"},
	{"geometry":{"coordinates":[4.302783,50.832877],"type":"Point"},"properties":{"osm_id":"2622779998","tag":{"amenity":"waste_basket"}},"type":"Feature"},
	{"geometry":{"coordinates":[4.301944,50.833079],"type":"Point"},"properties":{"osm_id":"2622779999","tag":{"amenity":"waste_basket"}},"type":"Feature"},
	{"geometry":{"coordinates":[4.301944,50.833079],"type":"Point"},"properties":{"osm_id":"2622780000","tag":{"amenity":"waste_basket"}},"type":"Feature"},
	{"geometry":{"coordinates":[4.301944,50.833079],"type":"Point"},"properties":{"osm_id":"2622780001","tag":{"amenity":"waste_basket"}},"type":"Feature"},
	{"geometry":{"coordinates":[4.30236,50.833106],"type":"Point"},"properties":{"osm_id":"2622780003","tag":{"amenity":"waste_basket"}},"type":"Feature"},
	{"geometry":{"coordinates":[4.302361,50.833106],"type":"Point"},"properties":{"osm_id":"2622780004","tag":{"amenity":"waste_basket"}},"type":"Feature"},
	{"geometry":{"coordinates":[4.302361,50.833106],"type":"Point"},"properties":{"osm_id":"2622780005","tag":{"amenity":"waste_basket"}},"type":"Feature"},
	{"geometry":{"coordinates":[4.302875,50.833134],"type":"Point"},"properties":{"osm_id":"2622780013","tag":{"amenity":"waste_basket"}},"type":"Feature"},
	{"geometry":{"coordinates":[4.304763,50.834248],"type":"Point"},"properties":{"osm_id":"2622780025","tag":{"amenity":"waste_basket"}},"type":"Feature"},
	{"geometry":{"coordinates":[4.304763,50.834248],"type":"Point"},"properties":{"osm_id":"2622780026","tag":{"amenity":"waste_basket"}},"type":"Feature"},
	{"geometry":{"coordinates":[4.304763,50.834248],"type":"Point"},"properties":{"osm_id":"2622780027","tag":{"amenity":"waste_basket"}},"type":"Feature"},
	{"geometry":{"coordinates":[4.305203,50.834341],"type":"Point"},"properties":{"osm_id":"2622780030","tag":{"amenity":"waste_basket"}},"type":"Feature"},
	{"geometry":{"coordinates":[4.305204,50.834341],"type":"Point"},"properties":{"osm_id":"2622780031","tag":{"amenity":"waste_basket"}},"type":"Feature"},
	{"geometry":{"coordinates":[4.305204,50.834341],"type":"Point"},"properties":{"osm_id":"2622780032","tag":{"amenity":"waste_basket"}},"type":"Feature"},
	{"geometry":{"coordinates":[4.305005,50.834404],"type":"Point"},"properties":{"osm_id":"2622780033","tag":{"amenity":"waste_basket"}},"type":"Feature"},
	{"geometry":{"coordinates":[4.305005,50.834404],"type":"Point"},"properties":{"osm_id":"2622780034","tag":{"amenity":"waste_basket"}},"type":"Feature"},
	{"geometry":{"coordinates":[4.305005,50.834404],"type":"Point"},"properties":{"osm_id":"2622780035","tag":{"amenity":"waste_basket"}},"type":"Feature"},
	{"geometry":{"coordinates":[4.304736,50.834472],"type":"Point"},"properties":{"osm_id":"2622780036","tag":{"amenity":"waste_basket"}},"type":"Feature"},
	{"geometry":{"coordinates":[4.304736,50.834472],"type":"Point"},"properties":{"osm_id":"2622780037","tag":{"amenity":"waste_basket"}},"type":"Feature"},
	{"geometry":{"coordinates":[4.304736,50.834472],"type":"Point"},"properties":{"osm_id":"2622780038","tag":{"amenity":"waste_basket"}},"type":"Feature"},
	{"geometry":{"coordinates":[4.305304,50.834566],"type":"Point"},"properties":{"osm_id":"2622780041","tag":{"amenity":"waste_basket"}},"type":"Feature"},
	{"geometry":{"coordinates":[4.305304,50.834566],"type":"Point"},"properties":{"osm_id":"2622780042","tag":{"amenity":"waste_basket"}},"type":"Feature"},
	{"geometry":{"coordinates":[4.305304,50.834566],"type":"Point"},"properties":{"osm_id":"2622780043","tag":{"amenity":"waste_basket"}},"type":"Feature"},
	{"geometry":{"coordinates":[4.305146,50.834603],"type":"Point"},"properties":{"osm_id":"2622780045","tag":{"amenity":"waste_basket"}},"type":"Feature"},
	{"geometry":{"coordinates":[4.305146,50.834603],"type":"Point"},"properties":{"osm_id":"2622780046","tag":{"amenity":"waste_basket"}},"type":"Feature"},
	{"geometry":{"coordinates":[4.305146,50.834603],"type":"Point"},"properties":{"osm_id":"2622780047","tag":{"amenity":"waste_basket"}},"type":"Feature"},
	{"geometry":{"coordinates":[4.305326,50.834682],"type":"Point"},"properties":{"osm_id":"2622780051","tag":{"amenity":"waste_basket"}},"type":"Feature"},
	{"geometry":{"coordinates":[4.305938,50.834836],"type":"Point"},"properties":{"osm_id":"2622780052","tag":{"amenity":"waste_basket"}},"type":"Feature"},
	{"geometry":{"coordinates":[4.305938,50.834836],"type":"Point"},"properties":{"osm_id":"2622780053","tag":{"amenity":"waste_basket"}},"type":"Feature"},
	{"geometry":{"coordinates":[4.305938,50.834836],"type":"Point"},"properties":{"osm_id":"2622780054","tag":{"amenity":"waste_basket"}},"type":"Feature"},
	{"geometry":{"coordinates":[4.295388,50.836002],"type":"Point"},"properties":{"osm_id":"2622780066","tag":{"amenity":"waste_basket"}},"type":"Feature"},
	{"geometry":{"coordinates":[4.295022,50.836399],"type":"Point"},"properties":{"osm_id":"2622780074","tag":{"amenity":"waste_basket"}},"type":"Feature"},
	{"geometry":{"coordinates":[4.284123,50.83758],"type":"Point"},"properties":{"osm_id":"2622780083","tag":{"amenity":"waste_basket"}},"type":"Feature"},
	{"geometry":{"coordinates":[4.285726,50.837906],"type":"Point"},"properties":{"osm_id":"2622780092","tag":{"amenity":"waste_basket"}},"type":"Feature"},
	{"geometry":{"coordinates":[4.283925,50.837918],"type":"Point"},"properties":{"osm_id":"2622780095","tag":{"amenity":"waste_basket"}},"type":"Feature"},
	{"geometry":{"coordinates":[4.28409,50.837932],"type":"Point"},"properties":{"osm_id":"2622780096","tag":{"amenity":"waste_basket"}},"type":"Feature"},
	{"geometry":{"coordinates":[4.283941,50.838212],"type":"Point"},"properties":{"osm_id":"2622780104","tag":{"amenity":"waste_basket"}},"type":"Feature"},
	{"geometry":{"coordinates":[4.296942,50.824798],"type":"Point"},"properties":{"osm_id":"3202277538","tag":{"amenity":"waste_basket"}},"type":"Feature"},
	{"geometry":{"coordinates":[4.297022,50.824974],"type":"Point"},"properties":{"osm_id":"3202277539","tag":{"amenity":"waste_basket"}},"type":"Feature"},
	{"geometry":{"coordinates":[4.297669,50.825354],"type":"Point"},"properties":{"osm_id":"3202277829","tag":{"amenity":"waste_basket"}},"type":"Feature"},
	{"geometry":{"coordinates":[4.29797,50.825372],"type":"Point"},"properties":{"osm_id":"3202277830","tag":{"amenity":"waste_basket"}},"type":"Feature"},
	{"geometry":{"coordinates":[4.298229,50.825658],"type":"Point"},"properties":{"osm_id":"3202277831","tag":{"amenity":"waste_basket"}},"type":"Feature"},
	{"geometry":{"coordinates":[4.306582,50.834768],"type":"Point"},"properties":{"osm_id":"3202277941","tag":{"amenity":"waste_basket"}},"type":"Feature"},
	{"geometry":{"coordinates":[4.306605,50.834881],"type":"Point"},"properties":{"osm_id":"3202277951","tag":{"amenity":"waste_basket"}},"type":"Feature"},
	{"geometry":{"coordinates":[4.298291,50.845835],"type":"Point"},"properties":{"osm_id":"3202278213","tag":{"amenity":"waste_basket"}},"type":"Feature"},
	{"geometry":{"coordinates":[4.298035,50.846052],"type":"Point"},"properties":{"osm_id":"3202278215","tag":{"amenity":"waste_basket"}},"type":"Feature"},
	{"geometry":{"coordinates":[4.299086,50.846382],"type":"Point"},"properties":{"osm_id":"3202278220","tag":{"amenity":"waste_basket"}},"type":"Feature"},
	{"geometry":{"coordinates":[4.298375,50.846397],"type":"Point"},"properties":{"osm_id":"3202278223","tag":{"amenity":"waste_basket"}},"type":"Feature"},
	{"geometry":{"coordinates":[4.299019,50.846559],"type":"Point"},"properties":{"osm_id":"3202278226","tag":{"amenity":"waste_basket"}},"type":"Feature"},
	{"geometry":{"coordinates":[4.298357,50.846784],"type":"Point"},"properties":{"osm_id":"3202278229","tag":{"amenity":"waste_basket"}},"type":"Feature"},
	{"geometry":{"coordinates":[4.298581,50.846986],"type":"Point"},"properties":{"osm_id":"3202278239","tag":{"amenity":"waste_basket"}},"type":"Feature"},
	{"geometry":{"coordinates":[4.304865,50.847352],"type":"Point"},"properties":{"osm_id":"3202278376","tag":{"amenity":"waste_basket"}},"type":"Feature"},
	{"geometry":{"coordinates":[4.304514,50.847498],"type":"Point"},"properties":{"osm_id":"3202278377","tag":{"amenity":"waste_basket"}},"type":"Feature"},
	{"geometry":{"coordinates":[4.305986,50.847564],"type":"Point"},"properties":{"osm_id":"3202278378","tag":{"amenity":"waste_basket"}},"type":"Feature"},
	{"geometry":{"coordinates":[4.233158,50.805199],"type":"Point"},"properties":{"osm_id":"3439552548","tag":{"amenity":"waste_basket"}},"type":"Feature"},
	{"geometry":{"coordinates":[4.220579,50.827177],"type":"Point"},"properties":{"osm_id":"3441442308","tag":{"amenity":"waste_basket"}},"type":"Feature"},
	{"geometry":{"coordinates":[4.289369,50.81128],"type":"Point"},"properties":{"osm_id":"3441511981","tag":{"amenity":"waste_basket"}},"type":"Feature"},
	{"geometry":{"coordinates":[4.289374,50.81135],"type":"Point"},"properties":{"osm_id":"3441511987","tag":{"amenity":"waste_basket"}},"type":"Feature"},
	{"geometry":{"coordinates":[4.273101,50.802599],"type":"Point"},"properties":{"osm_id":"3500805439","tag":{"amenity":"waste_basket"}},"type":"Feature"},
	{"geometry":{"coordinates":[4.231935,50.807657],"type":"Point"},"properties":{"osm_id":"3565764280","tag":{"amenity":"waste_basket"}},"type":"Feature"},
	{"geometry":{"coordinates":[4.233615,50.831271],"type":"Point"},"properties":{"osm_id":"3612651139","tag":{"amenity":"waste_basket"}},"type":"Feature"},
	{"geometry":{"coordinates":[4.234389,50.830996],"type":"Point"},"properties":{"osm_id":"3614832239","ref":"132","tag":{"amenity":"waste_basket"}},"type":"Feature"},
	{"geometry":{"coordinates":[4.234103,50.831694],"type":"Point"},"properties":{"osm_id":"3614833193","ref":"133","tag":{"amenity":"waste_basket"}},"type":"Feature"},
	{"geometry":{"coordinates":[4.222124,50.803615],"type":"Point"},"properties":{"osm_id":"3691145949","tag":{"amenity":"waste_basket"}},"type":"Feature"},
	{"geometry":{"coordinates":[4.289102,50.812538],"type":"Point"},"properties":{"osm_id":"4040211868","tag":{"amenity":"waste_basket"}},"type":"Feature"},
	{"geometry":{"coordinates":[4.2785,50.841617],"type":"Point"},"properties":{"osm_id":"4086836025","tag":{"amenity":"recycling","recycling:clothes":"yes","recycling_type":"container"}},"type":"Feature"},
	{"geometry":{"coordinates":[4.303412,50.841462],"type":"Point"},"properties":{"osm_id":"4330719121","tag":{"amenity":"waste_basket"}},"type":"Feature"},
	{"geometry":{"coordinates":[4.303333,50.841888],"type":"Point"},"properties":{"osm_id":"4330719126","tag":{"amenity":"waste_basket"}},"type":"Feature"},
	{"geometry":{"coordinates":[4.286924,50.841852],"type":"Point"},"properties":{"osm_id":"4444197243","tag":{"amenity":"waste_basket"}},"type":"Feature"},
	{"geometry":{"coordinates":[4.281884,50.824881],"type":"Point"},"properties":{"osm_id":"4583647041","tag":{"amenity":"waste_basket"}},"type":"Feature"},
	{"geometry":{"coordinates":[4.285486,50.825782],"type":"Point"},"properties":{"osm_id":"4583652400","tag":{"amenity":"waste_basket"}},"type":"Feature"},
	{"geometry":{"coordinates":[4.288913,50.82717],"type":"Point"},"properties":{"osm_id":"4583684651","tag":{"amenity":"waste_basket"}},"type":"Feature"},
	{"geometry":{"coordinates":[4.292861,50.828945],"type":"Point"},"properties":{"osm_id":"4583704728","tag":{"amenity":"waste_basket"}},"type":"Feature"},
	{"geometry":{"coordinates":[4.292323,50.82859],"type":"Point"},"properties":{"osm_id":"4583704739","tag":{"amenity":"waste_basket"}},"type":"Feature"},
	{"geometry":{"coordinates":[4.297598,50.830842],"type":"Point"},"properties":{"osm_id":"4585067146","tag":{"amenity":"waste_basket"}},"type":"Feature"},
	{"geometry":{"coordinates":[4.296437,50.830255],"type":"Point"},"properties":{"osm_id":"4585067153","tag":{"amenity":"waste_basket"}},"type":"Feature"},
	{"geometry":{"coordinates":[4.301106,50.830216],"type":"Point"},"properties":{"osm_id":"4663580884","tag":{"amenity":"waste_basket"}},"type":"Feature"},
	{"geometry":{"coordinates":[4.300747,50.829909],"type":"Point"},"properties":{"osm_id":"4663580886","tag":{"amenity":"waste_basket"}},"type":"Feature"},
	{"geometry":{"coordinates":[4.300683,50.82981],"type":"Point"},"properties":{"osm_id":"4663582589","tag":{"amenity":"waste_basket"}},"type":"Feature"},
	{"geometry":{"coordinates":[4.263827,50.843694],"type":"Point"},"properties":{"osm_id":"4890284214","tag":{"amenity":"waste_basket"}},"type":"Feature"},
	{"geometry":{"coordinates":[4.256936,50.847534],"type":"Point"},"properties":{"osm_id":"4895272617","tag":{"amenity":"waste_basket"}},"type":"Feature"},
	{"geometry":{"coordinates":[4.278327,50.841332],"type":"Point"},"properties":{"osm_id":"4895272620","tag":{"amenity":"waste_basket"}},"type":"Feature"},
	{"geometry":{"coordinates":[4.28168,50.83997],"type":"Point"},"properties":{"osm_id":"4895274021","tag":{"amenity":"waste_basket"}},"type":"Feature"},
	{"geometry":{"coordinates":[4.281098,50.837594],"type":"Point"},"properties":{"osm_id":"4895274023","tag":{"amenity":"waste_basket"}},"type":"Feature"},
	{"geometry":{"coordinates":[4.281124,50.836364],"type":"Point"},"properties":{"osm_id":"4895277909","tag":{"amenity":"waste_basket"}},"type":"Feature"},
	{"geometry":{"coordinates":[4.299279,50.835309],"type":"Point"},"properties":{"osm_id":"4928383785","tag":{"amenity":"waste_basket"}},"type":"Feature"},
	{"geometry":{"coordinates":[4.299085,50.835444],"type":"Point"},"properties":{"osm_id":"4928383801","tag":{"amenity":"waste_basket"}},"type":"Feature"},
	{"geometry":{"coordinates":[4.306208,50.834691],"type":"Point"},"properties":{"osm_id":"4928454656","tag":{"amenity":"waste_basket"}},"type":"Feature"},
	{"geometry":{"coordinates":[4.293749,50.828894],"type":"Point"},"properties":{"osm_id":"4952699133","tag":{"amenity":"waste_basket"}},"type":"Feature"},
	{"geometry":{"coordinates":[4.29399,50.828924],"type":"Point"},"properties":{"osm_id":"4952699134","tag":{"amenity":"waste_basket"}},"type":"Feature"},
	{"geometry":{"coordinates":[4.28593,50.829516],"type":"Point"},"properties":{"osm_id":"4954538183","tag":{"amenity":"waste_basket"}},"type":"Feature"},
	{"geometry":{"coordinates":[4.285961,50.829396],"type":"Point"},"properties":{"osm_id":"4954538192","tag":{"amenity":"waste_basket"}},"type":"Feature"},
	{"geometry":{"coordinates":[4.302778,50.82898],"type":"Point"},"properties":{"osm_id":"4954588635","tag":{"amenity":"waste_basket"}},"type":"Feature"},
	{"geometry":{"coordinates":[4.296504,50.844317],"type":"Point"},"properties":{"osm_id":"5116968006","tag":{"amenity":"waste_basket"}},"type":"Feature"},
	{"geometry":{"coordinates":[4.295714,50.843525],"type":"Point"},"properties":{"osm_id":"5116968019","tag":{"amenity":"waste_basket"}},"type":"Feature"},
	{"geometry":{"coordinates":[4.296305,50.842397],"type":"Point"},"properties":{"osm_id":"5116969224","tag":{"amenity":"waste_basket"}},"type":"Feature"},
	{"geometry":{"coordinates":[4.300245,50.843806],"type":"Point"},"properties":{"osm_id":"5126136138","tag":{"amenity":"waste_basket"}},"type":"Feature"},
	{"geometry":{"coordinates":[4.300364,50.843407],"type":"Point"},"properties":{"osm_id":"5126136143","tag":{"amenity":"waste_basket"}},"type":"Feature"},
	{"geometry":{"coordinates":[4.290133,50.837345],"type":"Point"},"properties":{"osm_id":"5184002962","tag":{"amenity":"waste_basket"}},"type":"Feature"},
	{"geometry":{"coordinates":[4.290074,50.837591],"type":"Point"},"properties":{"osm_id":"5184002963","tag":{"amenity":"waste_basket"}},"type":"Feature"},
	{"geometry":{"coordinates":[4.296633,50.839151],"type":"Point"},"properties":{"osm_id":"5184066836","tag":{"amenity":"waste_basket"}},"type":"Feature"},
	{"geometry":{"coordinates":[4.284103,50.838066],"type":"Point"},"properties":{"osm_id":"5184098175","tag":{"amenity":"waste_basket"}},"type":"Feature"},
	{"geometry":{"coordinates":[4.284043,50.838118],"type":"Point"},"properties":{"osm_id":"5184098176","tag":{"amenity":"waste_basket"}},"type":"Feature"},
	{"geometry":{"coordinates":[4.305229,50.843878],"type":"Point"},"properties":{"osm_id":"5185620526","tag":{"amenity":"waste_basket"}},"type":"Feature"},
	{"geometry":{"coordinates":[4.305237,50.843552],"type":"Point"},"properties":{"osm_id":"5185620557","tag":{"amenity":"waste_basket"}},"type":"Feature"},
	{"geometry":{"coordinates":[4.280515,50.835177],"type":"Point"},"properties":{"osm_id":"5389482514","tag":{"amenity":"waste_basket"}},"type":"Feature"},
	{"geometry":{"coordinates":[4.280365,50.834929],"type":"Point"},"properties":{"osm_id":"5389482515","tag":{"amenity":"waste_basket"}},"type":"Feature"},
	{"geometry":{"coordinates":[4.30507,50.826975],"type":"Point"},"properties":{"osm_id":"5393379255","tag":{"amenity":"waste_basket"}},"type":"Feature"},
	{"geometry":{"coordinates":[4.296969,50.823097],"type":"Point"},"properties":{"osm_id":"5478901753","tag":{"amenity":"waste_basket"}},"type":"Feature"},
	{"geometry":{"coordinates":[4.295176,50.833376],"type":"Point"},"properties":{"osm_id":"5478945082","tag":{"amenity":"waste_basket"}},"type":"Feature"},
	{"geometry":{"coordinates":[4.295371,50.833703],"type":"Point"},"properties":{"osm_id":"5478945118","tag":{"amenity":"waste_basket"}},"type":"Feature"},
	{"geometry":{"coordinates":[4.289967,50.831162],"type":"Point"},"properties":{"osm_id":"5479059077","tag":{"amenity":"waste_basket"}},"type":"Feature"},
	{"geometry":{"coordinates":[4.289392,50.831077],"type":"Point"},"properties":{"osm_id":"5479059078","tag":{"amenity":"waste_basket"}},"type":"Feature"},
	{"geometry":{"coordinates":[4.290662,50.816408],"type":"Point"},"properties":{"osm_id":"5497034502","tag":{"amenity":"waste_basket"}},"type":"Feature"},
	{"geometry":{"coordinates":[4.30154,50.820018],"type":"Point"},"properties":{"osm_id":"5518432500","tag":{"amenity":"waste_basket"}},"type":"Feature"},
	{"geometry":{"coordinates":[4.301352,50.820205],"type":"Point"},"properties":{"osm_id":"5518490539","tag":{"amenity":"waste_basket"}},"type":"Feature"},
	{"geometry":{"coordinates":[4.301679,50.820405],"type":"Point"},"properties":{"osm_id":"5518490542","tag":{"amenity":"waste_basket"}},"type":"Feature"},
	{"geometry":{"coordinates":[4.301901,50.82052],"type":"Point"},"properties":{"osm_id":"5518490543","tag":{"amenity":"waste_basket"}},"type":"Feature"},
	{"geometry":{"coordinates":[4.30239,50.820932],"type":"Point"},"properties":{"osm_id":"5518490546","tag":{"amenity":"waste_basket"}},"type":"Feature"},
	{"geometry":{"coordinates":[4.302425,50.821151],"type":"Point"},"properties":{"osm_id":"5518490547","tag":{"amenity":"waste_basket"}},"type":"Feature"},
	{"geometry":{"coordinates":[4.302589,50.821347],"type":"Point"},"properties":{"osm_id":"5518490549","tag":{"amenity":"waste_basket"}},"type":"Feature"},
	{"geometry":{"coordinates":[4.302719,50.821351],"type":"Point"},"properties":{"osm_id":"5518490550","tag":{"amenity":"waste_basket"}},"type":"Feature"},
	{"geometry":{"coordinates":[4.302367,50.821332],"type":"Point"},"properties":{"osm_id":"5518490551","tag":{"amenity":"waste_basket"}},"type":"Feature"},
	{"geometry":{"coordinates":[4.27512,50.826954],"type":"Point"},"properties":{"osm_id":"5523128581","tag":{"amenity":"waste_basket"}},"type":"Feature"},
	{"geometry":{"coordinates":[4.276788,50.820598],"type":"Point"},"properties":{"osm_id":"5523155765","tag":{"amenity":"waste_basket"}},"type":"Feature"},
	{"geometry":{"coordinates":[4.281772,50.829313],"type":"Point"},"properties":{"osm_id":"5615113084","tag":{"amenity":"waste_basket"}},"type":"Feature"},
	{"geometry":{"coordinates":[4.282456,50.833254],"type":"Point"},"properties":{"osm_id":"5615269332","tag":{"amenity":"waste_basket"}},"type":"Feature"},
	{"geometry":{"coordinates":[4.282663,50.833344],"type":"Point"},"properties":{"osm_id":"5615269341","tag":{"amenity":"waste_basket"}},"type":"Feature"},
	{"geometry":{"coordinates":[4.292846,50.833115],"type":"Point"},"properties":{"osm_id":"5639596321","tag":{"amenity":"waste_basket"}},"type":"Feature"},
	{"geometry":{"coordinates":[4.29368,50.833012],"type":"Point"},"properties":{"osm_id":"5639596326","tag":{"amenity":"waste_basket"}},"type":"Feature"},
	{"geometry":{"coordinates":[4.293922,50.83291],"type":"Point"},"properties":{"osm_id":"5639596332","tag":{"amenity":"recycling","location":"underground","operator":"Bruxelles-Propret\u00c3\u00a9 - Net Brussel","recycling:glass_bottles":"yes","recycling_type":"container"}},"type":"Feature"},
	{"geometry":{"coordinates":[4.300562,50.843807],"type":"Point"},"properties":{"osm_id":"5663175641","tag":{"amenity":"recycling","operator":"Les Petits Riens - Spullenhulp","recycling:clothes":"yes","recycling_type":"container"}},"type":"Feature"},
	{"geometry":{"coordinates":[4.299119,50.847378],"type":"Point"},"properties":{"osm_id":"5663553877","tag":{"amenity":"waste_basket"}},"type":"Feature"},
	{"geometry":{"coordinates":[4.305177,50.810466],"type":"Point"},"properties":{"osm_id":"5672421584","tag":{"amenity":"waste_basket"}},"type":"Feature"},
	{"geometry":{"coordinates":[4.305568,50.810657],"type":"Point"},"properties":{"osm_id":"5672421585","tag":{"amenity":"waste_basket"}},"type":"Feature"},
	{"geometry":{"coordinates":[4.247521,50.838426],"type":"Point"},"properties":{"osm_id":"5873628226","tag":{"amenity":"waste_basket"}},"type":"Feature"},
	{"geometry":{"coordinates":[4.247634,50.838507],"type":"Point"},"properties":{"osm_id":"5873628227","tag":{"amenity":"waste_basket"}},"type":"Feature"},
	{"geometry":{"coordinates":[4.302341,50.803872],"type":"Point"},"properties":{"osm_id":"6194710967","tag":{"amenity":"waste_basket"}},"type":"Feature"},
	{"geometry":{"coordinates":[4.305013,50.838498],"type":"Point"},"properties":{"osm_id":"6223370846","tag":{"amenity":"waste_basket"}},"type":"Feature"},
	{"geometry":{"coordinates":[4.305238,50.838566],"type":"Point"},"properties":{"osm_id":"6223370849","tag":{"amenity":"waste_basket"}},"type":"Feature"},
	{"geometry":{"coordinates":[4.302353,50.835044],"type":"Point"},"properties":{"osm_id":"6229041289","tag":{"amenity":"waste_basket"}},"type":"Feature"},
	{"geometry":{"coordinates":[4.302198,50.83506],"type":"Point"},"properties":{"osm_id":"6229041290","tag":{"amenity":"waste_basket"}},"type":"Feature"},
	{"geometry":{"coordinates":[4.257892,50.817011],"type":"Point"},"properties":{"osm_id":"6600247698","tag":{"amenity":"recycling","location":"underground","operator":"Bruxelles-Propret\u00c3\u00a9 - Net Brussel","recycling:glass_bottles":"yes","recycling_type":"container"}},"type":"Feature"},
	{"geometry":{"coordinates":[4.303416,50.841619],"type":"Point"},"properties":{"osm_id":"6735092820","tag":{"amenity":"waste_basket"}},"type":"Feature"},
	{"geometry":{"coordinates":[4.304436,50.840875],"type":"Point"},"properties":{"osm_id":"6735092821","tag":{"amenity":"waste_basket"}},"type":"Feature"},
	{"geometry":{"coordinates":[4.301235,50.843458],"type":"Point"},"properties":{"osm_id":"6735289624","tag":{"amenity":"recycling","location":"underground","operator":"Bruxelles-Propret\u00c3\u00a9 - Net Brussel","recycling:glass_bottles":"yes","recycling_type":"container"}},"type":"Feature"},
	{"geometry":{"coordinates":[4.302378,50.842469],"type":"Point"},"properties":{"osm_id":"6735312117","tag":{"amenity":"waste_basket"}},"type":"Feature"},
	{"geometry":{"coordinates":[4.301565,50.843088],"type":"Point"},"properties":{"osm_id":"6735312118","tag":{"amenity":"waste_basket"}},"type":"Feature"},
	{"geometry":{"coordinates":[4.304112,50.828604],"type":"Point"},"properties":{"osm_id":"6832384544","tag":{"amenity":"waste_basket"}},"type":"Feature"},
	{"geometry":{"coordinates":[4.304523,50.828853],"type":"Point"},"properties":{"osm_id":"6832384545","tag":{"amenity":"waste_basket"}},"type":"Feature"},
	{"geometry":{"coordinates":[4.304376,50.828831],"type":"Point"},"properties":{"osm_id":"6832384546","tag":{"amenity":"waste_basket"}},"type":"Feature"},
	{"geometry":{"coordinates":[4.304001,50.828708],"type":"Point"},"properties":{"osm_id":"6832384547","tag":{"amenity":"waste_basket"}},"type":"Feature"},
	{"geometry":{"coordinates":[4.306583,50.84371],"type":"Point"},"properties":{"osm_id":"7023782895","tag":{"amenity":"recycling","location":"underground","operator":"Bruxelles-Propret\u00c3\u00a9 - Net Brussel","recycling:glass_bottles":"yes","recycling_type":"container"}},"type":"Feature"},
	{"geometry":{"coordinates":[4.295033,50.818797],"type":"Point"},"properties":{"osm_id":"7183808298","tag":{"amenity":"waste_basket"}},"type":"Feature"},
	{"geometry":{"coordinates":[4.29513,50.818545],"type":"Point"},"properties":{"osm_id":"7183808299","tag":{"amenity":"waste_basket"}},"type":"Feature"},
	{"geometry":{"coordinates":[4.293741,50.819315],"type":"Point"},"properties":{"osm_id":"7187266656","tag":{"amenity":"waste_basket"}},"type":"Feature"},
	{"geometry":{"coordinates":[4.293911,50.819102],"type":"Point"},"properties":{"osm_id":"7187266657","tag":{"amenity":"waste_basket"}},"type":"Feature"},
	{"geometry":{"coordinates":[4.289049,50.846159],"type":"Point"},"properties":{"osm_id":"7343733340","tag":{"amenity":"recycling","location":"overground","operator":"Bruxelles-Propret\u00c3\u00a9 - Net Brussel","recycling:glass_bottles":"yes","recycling_type":"container"}},"type":"Feature"},
	{"geometry":{"coordinates":[4.298691,50.827943],"type":"Point"},"properties":{"osm_id":"7490373395","tag":{"amenity":"waste_basket"}},"type":"Feature"},
	{"geometry":{"coordinates":[4.298829,50.828005],"type":"Point"},"properties":{"osm_id":"7490373396","tag":{"amenity":"waste_basket"}},"type":"Feature"},
	{"geometry":{"coordinates":[4.298368,50.828062],"type":"Point"},"properties":{"osm_id":"7490373403","tag":{"amenity":"waste_basket"}},"type":"Feature"},
	{"geometry":{"coordinates":[4.305924,50.832143],"type":"Point"},"properties":{"osm_id":"7544328643","tag":{"amenity":"recycling","location":"overground","operator":"Bruxelles-Propret\u00c3\u00a9 - Net Brussel","recycling:glass_bottles":"yes","recycling_type":"container"}},"type":"Feature"},
	{"geometry":{"coordinates":[4.289096,50.812475],"type":"Point"},"properties":{"osm_id":"7596120725","tag":{"amenity":"waste_basket"}},"type":"Feature"},
	{"geometry":{"coordinates":[4.299088,50.846551],"type":"Point"},"properties":{"osm_id":"7600051412","tag":{"amenity":"waste_basket"}},"type":"Feature"},
	{"geometry":{"coordinates":[4.287333,50.825794],"type":"Point"},"properties":{"osm_id":"7618495165","tag":{"amenity":"waste_basket"}},"type":"Feature"},
	{"geometry":{"coordinates":[4.289927,50.826777],"type":"Point"},"properties":{"osm_id":"7618511217","tag":{"amenity":"recycling","location":"underground","operator":"Bruxelles-Propret\u00c3\u00a9 - Net Brussel","recycling:glass_bottles":"yes","recycling_type":"container"}},"type":"Feature"},
	{"geometry":{"coordinates":[4.303326,50.828226],"type":"Point"},"properties":{"osm_id":"7634475618","tag":{"amenity":"waste_basket"}},"type":"Feature"},
	{"geometry":{"coordinates":[4.28397,50.821924],"type":"Point"},"properties":{"osm_id":"7634606618","tag":{"amenity":"waste_basket"}},"type":"Feature"},
	{"geometry":{"coordinates":[4.292071,50.827254],"type":"Point"},"properties":{"osm_id":"7634798297","tag":{"amenity":"waste_basket"}},"type":"Feature"},
	{"geometry":{"coordinates":[4.301825,50.827622],"type":"Point"},"properties":{"osm_id":"7843774261","tag":{"amenity":"waste_basket"}},"type":"Feature"},
	{"geometry":{"coordinates":[4.300578,50.844154],"type":"Point"},"properties":{"osm_id":"7846949763","tag":{"amenity":"waste_basket"}},"type":"Feature"},
	{"geometry":{"coordinates":[4.284603,50.837536],"type":"Point"},"properties":{"osm_id":"7851411990","tag":{"amenity":"recycling","location":"overground","operator":"Bruxelles-Propret\u00c3\u00a9 - Net Brussel","recycling:glass_bottles":"yes","recycling_type":"container"}},"type":"Feature"},
	{"geometry":{"coordinates":[4.306572,50.794614],"type":"Point"},"properties":{"osm_id":"7925192884","tag":{"amenity":"waste_basket"}},"type":"Feature"},
	{"geometry":{"coordinates":[4.284098,50.838472],"type":"Point"},"properties":{"osm_id":"7937128157","tag":{"amenity":"recycling","location":"overground","operator":"Bruxelles-Propret\u00c3\u00a9 - Net Brussel","recycling:glass_bottles":"yes","recycling_type":"container"}},"type":"Feature"},
	{"geometry":{"coordinates":[4.284088,50.838489],"type":"Point"},"properties":{"osm_id":"7937159295","tag":{"amenity":"recycling","location":"overground","operator":"Les Petits Riens - Spullenhulp","recycling:clothes":"yes","recycling_type":"container"}},"type":"Feature"},
	{"geometry":{"coordinates":[4.265892,50.814992],"type":"Point"},"properties":{"osm_id":"7945017940","tag":{"amenity":"recycling","location":"overground","operator":"Les Petits Riens - Spullenhulp","recycling:clothes":"yes","recycling_type":"container"}},"type":"Feature"},
	{"geometry":{"coordinates":[4.266232,50.815],"type":"Point"},"properties":{"osm_id":"7945027461","tag":{"amenity":"waste_basket"}},"type":"Feature"}
]
}
