{
"type": "FeatureCollection",
"features": [
	{"geometry":{"coordinates":[4.220598,50.762659],"type":"Point"},"properties":{"name":"Ingang Recyclage","osm_id":"335890026","tag":{"entrance":"yes"}},"type":"Feature"},
	{"geometry":{"coordinates":[4.289538,50.783979],"type":"Point"},"properties":{"osm_id":"768222485","tag":{"amenity":"waste_basket"}},"type":"Feature"},
	{"geometry":{"coordinates":[4.291403,50.781285],"type":"Point"},"properties":{"osm_id":"775378245","tag":{"amenity":"recycling","recycling:cans":"yes","recycling:cartons":"yes","recycling:glass_bottles":"yes","recycling:green_waste":"yes","recycling:paper":"yes","recycling:plastic_bottles":"yes","recycling_type":"container"}},"type":"Feature"},
	{"geometry":{"coordinates":[4.283487,50.79043],"type":"Point"},"properties":{"osm_id":"801073536","tag":{"amenity":"waste_basket"}},"type":"Feature"},
	{"geometry":{"coordinates":[4.272798,50.770666],"type":"Point"},"properties":{"osm_id":"944696645","tag":{"amenity":"recycling","recycling:glass":"yes","recycling_type":"container"}},"type":"Feature"},
	{"geometry":{"coordinates":[4.296631,50.786685],"type":"Point"},"properties":{"osm_id":"1260312259","tag":{"amenity":"recycling","operator":"Spullenhulp","recycling:clothes":"yes"}},"type":"Feature"},
	{"geometry":{"coordinates":[4.298895,50.784168],"type":"Point"},"properties":{"osm_id":"1260312327","tag":{"amenity":"waste_basket"}},"type":"Feature"},
	{"geometry":{"coordinates":[4.298936,50.783277],"type":"Point"},"properties":{"osm_id":"1260312392","tag":{"amenity":"waste_basket"}},"type":"Feature"},
	{"geometry":{"coordinates":[4.297923,50.786262],"type":"Point"},"properties":{"osm_id":"1260312457","tag":{"amenity":"recycling","recycling:glass":"yes","recycling:green_waste":"yes","recycling:paper":"yes","recycling:plastic_packaging":"yes","recycling:waste":"yes"}},"type":"Feature"},
	{"geometry":{"coordinates":[4.243425,50.781436],"type":"Point"},"properties":{"osm_id":"3439927441","tag":{"amenity":"recycling","recycling:glass_bottles":"yes","recycling_type":"container"}},"type":"Feature"},
	{"geometry":{"coordinates":[4.243252,50.781287],"type":"Point"},"properties":{"osm_id":"3486296828","tag":{"amenity":"waste_basket"}},"type":"Feature"},
	{"geometry":{"coordinates":[4.243979,50.783803],"type":"Point"},"properties":{"osm_id":"3486296872","tag":{"amenity":"waste_basket"}},"type":"Feature"},
	{"geometry":{"coordinates":[4.244586,50.780636],"type":"Point"},"properties":{"osm_id":"3493919739","tag":{"amenity":"recycling","recycling:glass_bottles":"yes","recycling_type":"container"}},"type":"Feature"},
	{"geometry":{"coordinates":[4.244626,50.780662],"type":"Point"},"properties":{"osm_id":"3493919740","tag":{"amenity":"waste_basket"}},"type":"Feature"},
	{"geometry":{"coordinates":[4.24389,50.780882],"type":"Point"},"properties":{"osm_id":"3514545708","tag":{"amenity":"waste_basket"}},"type":"Feature"},
	{"geometry":{"coordinates":[4.243355,50.781209],"type":"Point"},"properties":{"osm_id":"3514545723","tag":{"amenity":"waste_basket"}},"type":"Feature"},
	{"geometry":{"coordinates":[4.244644,50.744385],"type":"Point"},"properties":{"barrier":"gate","osm_id":"3908295702"},"type":"Feature"},
	{"geometry":{"coordinates":[4.244523,50.744454],"type":"Point"},"properties":{"barrier":"gate","osm_id":"3908295708"},"type":"Feature"},
	{"geometry":{"coordinates":[4.248366,50.740991],"type":"Point"},"properties":{"osm_id":"4099904203","tag":{"amenity":"waste_basket"}},"type":"Feature"},
	{"geometry":{"coordinates":[4.249136,50.741203],"type":"Point"},"properties":{"osm_id":"4099904214","tag":{"amenity":"recycling","recycling:glass_bottles":"yes","recycling_type":"container"}},"type":"Feature"},
	{"geometry":{"coordinates":[4.246146,50.738409],"type":"Point"},"properties":{"osm_id":"4099904218","tag":{"amenity":"waste_basket"}},"type":"Feature"},
	{"geometry":{"coordinates":[4.246155,50.738628],"type":"Point"},"properties":{"osm_id":"4099904226","tag":{"amenity":"waste_basket"}},"type":"Feature"},
	{"geometry":{"coordinates":[4.249093,50.741224],"type":"Point"},"properties":{"osm_id":"4099904236","tag":{"amenity":"recycling","recycling:clothes":"yes","recycling_type":"container"}},"type":"Feature"},
	{"geometry":{"coordinates":[4.247055,50.739008],"type":"Point"},"properties":{"osm_id":"4099904259","tag":{"amenity":"waste_basket"}},"type":"Feature"},
	{"geometry":{"coordinates":[4.247849,50.739418],"type":"Point"},"properties":{"osm_id":"4099904270","tag":{"amenity":"waste_basket"}},"type":"Feature"},
	{"geometry":{"coordinates":[4.249686,50.740986],"type":"Point"},"properties":{"osm_id":"4099904271","tag":{"amenity":"waste_basket"}},"type":"Feature"},
	{"geometry":{"coordinates":[4.249168,50.741188],"type":"Point"},"properties":{"osm_id":"4099904287","tag":{"amenity":"recycling","recycling:glass_bottles":"yes","recycling_type":"container"}},"type":"Feature"},
	{"geometry":{"coordinates":[4.246246,50.738362],"type":"Point"},"properties":{"osm_id":"4099909391","tag":{"amenity":"waste_basket"}},"type":"Feature"},
	{"geometry":{"coordinates":[4.249246,50.741118],"type":"Point"},"properties":{"osm_id":"4099909399","tag":{"amenity":"waste_basket"}},"type":"Feature"},
	{"geometry":{"coordinates":[4.265986,50.736554],"type":"Point"},"properties":{"osm_id":"4146189289","tag":{"amenity":"recycling","recycling:glass_bottles":"yes","recycling_type":"container"}},"type":"Feature"},
	{"geometry":{"coordinates":[4.265863,50.736603],"type":"Point"},"properties":{"osm_id":"4146189290","tag":{"amenity":"recycling","recycling:clothes":"yes","recycling_type":"container"}},"type":"Feature"},
	{"geometry":{"coordinates":[4.241039,50.737954],"type":"Point"},"properties":{"osm_id":"4155155533","tag":{"amenity":"waste_basket"}},"type":"Feature"},
	{"geometry":{"coordinates":[4.267568,50.736457],"type":"Point"},"properties":{"osm_id":"4204659490","tag":{"amenity":"recycling","recycling:clothes":"yes","recycling_type":"container"}},"type":"Feature"},
	{"geometry":{"coordinates":[4.303741,50.743293],"type":"Point"},"properties":{"osm_id":"4246629191","tag":{"amenity":"waste_basket"}},"type":"Feature"},
	{"geometry":{"coordinates":[4.257486,50.750832],"type":"Point"},"properties":{"osm_id":"4319644452","tag":{"amenity":"waste_basket"}},"type":"Feature"},
	{"geometry":{"coordinates":[4.24447,50.741557],"type":"Point"},"properties":{"osm_id":"4433189180","tag":{"amenity":"waste_basket"}},"type":"Feature"},
	{"geometry":{"coordinates":[4.246506,50.742103],"type":"Point"},"properties":{"osm_id":"4433189181","tag":{"amenity":"waste_basket"}},"type":"Feature"},
	{"geometry":{"coordinates":[4.25816,50.750737],"type":"Point"},"properties":{"osm_id":"4515685750","tag":{"amenity":"recycling","recycling:clothes":"yes","recycling_type":"container"}},"type":"Feature"},
	{"geometry":{"coordinates":[4.249773,50.740779],"type":"Point"},"properties":{"osm_id":"4534568824","tag":{"amenity":"waste_basket"}},"type":"Feature"},
	{"geometry":{"coordinates":[4.240543,50.737768],"type":"Point"},"properties":{"osm_id":"4534630892","tag":{"amenity":"waste_basket"}},"type":"Feature"},
	{"geometry":{"coordinates":[4.239899,50.736631],"type":"Point"},"properties":{"osm_id":"4534630895","tag":{"amenity":"waste_basket"}},"type":"Feature"},
	{"geometry":{"coordinates":[4.237936,50.73787],"type":"Point"},"properties":{"osm_id":"4534630899","tag":{"amenity":"waste_basket"}},"type":"Feature"},
	{"geometry":{"coordinates":[4.265195,50.746833],"type":"Point"},"properties":{"osm_id":"4841874401","tag":{"amenity":"waste_basket"}},"type":"Feature"},
	{"geometry":{"coordinates":[4.261951,50.748784],"type":"Point"},"properties":{"osm_id":"4843710547","tag":{"amenity":"recycling","recycling:glass_bottles":"yes","recycling_type":"container"}},"type":"Feature"},
	{"geometry":{"coordinates":[4.271614,50.761649],"type":"Point"},"properties":{"osm_id":"4843744692","tag":{"amenity":"recycling","recycling:clothes":"yes","recycling_type":"container"}},"type":"Feature"},
	{"geometry":{"coordinates":[4.239163,50.737733],"type":"Point"},"properties":{"osm_id":"5197710662","tag":{"amenity":"waste_basket"}},"type":"Feature"},
	{"geometry":{"coordinates":[4.239343,50.73776],"type":"Point"},"properties":{"osm_id":"5197710672","tag":{"amenity":"waste_basket"}},"type":"Feature"},
	{"geometry":{"coordinates":[4.238714,50.73646],"type":"Point"},"properties":{"osm_id":"5197710675","tag":{"amenity":"waste_basket"}},"type":"Feature"},
	{"geometry":{"coordinates":[4.23845,50.736584],"type":"Point"},"properties":{"osm_id":"5197710676","tag":{"amenity":"waste_basket"}},"type":"Feature"},
	{"geometry":{"coordinates":[4.2381,50.736684],"type":"Point"},"properties":{"osm_id":"5197710677","tag":{"amenity":"waste_basket"}},"type":"Feature"},
	{"geometry":{"coordinates":[4.240858,50.743141],"type":"Point"},"properties":{"osm_id":"5404299744","tag":{"amenity":"recycling","recycling:glass_bottles":"yes","recycling_type":"container"}},"type":"Feature"},
	{"geometry":{"coordinates":[4.240818,50.743155],"type":"Point"},"properties":{"osm_id":"5404299745","tag":{"amenity":"recycling","recycling:clothes":"yes","recycling_type":"container"}},"type":"Feature"},
	{"geometry":{"coordinates":[4.249304,50.740323],"type":"Point"},"properties":{"osm_id":"5617800311","tag":{"amenity":"waste_basket"}},"type":"Feature"},
	{"geometry":{"coordinates":[4.249266,50.740254],"type":"Point"},"properties":{"osm_id":"5617800312","tag":{"amenity":"waste_basket"}},"type":"Feature"},
	{"geometry":{"coordinates":[4.246308,50.738589],"type":"Point"},"properties":{"osm_id":"5617800313","tag":{"amenity":"waste_basket"}},"type":"Feature"},
	{"geometry":{"coordinates":[4.258021,50.750599],"type":"Point"},"properties":{"osm_id":"5688565083","tag":{"amenity":"waste_basket"}},"type":"Feature"},
	{"geometry":{"coordinates":[4.244226,50.737957],"type":"Point"},"properties":{"osm_id":"5802287754","tag":{"amenity":"waste_basket","operator":"Stad Halle"}},"type":"Feature"},
	{"geometry":{"coordinates":[4.244668,50.739179],"type":"Point"},"properties":{"osm_id":"5802287758","tag":{"amenity":"waste_basket","operator":"Stad Halle"}},"type":"Feature"},
	{"geometry":{"coordinates":[4.248942,50.74127],"type":"Point"},"properties":{"osm_id":"5844009631","tag":{"amenity":"waste_basket"}},"type":"Feature"},
	{"geometry":{"coordinates":[4.266459,50.745371],"type":"Point"},"properties":{"osm_id":"6304425699","tag":{"amenity":"recycling","recycling:clothes":"yes","recycling_type":"container"}},"type":"Feature"},
	{"geometry":{"coordinates":[4.237059,50.736471],"type":"Point"},"properties":{"osm_id":"6322751590","tag":{"amenity":"waste_basket"}},"type":"Feature"},
	{"geometry":{"coordinates":[4.25982,50.737339],"type":"Point"},"properties":{"osm_id":"6543148617","tag":{"amenity":"waste_basket","operator":"Stad Halle","waste":"dog_excrement"}},"type":"Feature"},
	{"geometry":{"coordinates":[4.262244,50.74002],"type":"Point"},"properties":{"osm_id":"6543148618","tag":{"amenity":"waste_basket","operator":"Stad Halle","waste":"dog_excrement"}},"type":"Feature"},
	{"geometry":{"coordinates":[4.266015,50.741833],"type":"Point"},"properties":{"osm_id":"6558302041","tag":{"amenity":"waste_basket","operator":"Stad Halle","waste":"dog_excrement"}},"type":"Feature"},
	{"geometry":{"coordinates":[4.253312,50.740945],"type":"Point"},"properties":{"osm_id":"6570494005","tag":{"amenity":"waste_basket","operator":"Stad Halle","waste":"dog_excrement"}},"type":"Feature"},
	{"geometry":{"coordinates":[4.255747,50.742921],"type":"Point"},"properties":{"osm_id":"6570494006","tag":{"amenity":"waste_basket","operator":"Stad Halle","waste":"dog_excrement"}},"type":"Feature"},
	{"geometry":{"coordinates":[4.254633,50.74633],"type":"Point"},"properties":{"osm_id":"6570494007","tag":{"amenity":"waste_basket","operator":"Stad Halle","waste":"dog_excrement"}},"type":"Feature"},
	{"geometry":{"coordinates":[4.260251,50.744055],"type":"Point"},"properties":{"osm_id":"6575329045","tag":{"amenity":"waste_basket","operator":"Stad Halle","waste":"dog_excrement"}},"type":"Feature"},
	{"geometry":{"coordinates":[4.253397,50.743534],"type":"Point"},"properties":{"osm_id":"6614933274","tag":{"amenity":"recycling","recycling:glass_bottles":"yes","recycling_type":"container"}},"type":"Feature"},
	{"geometry":{"coordinates":[4.24911,50.740572],"type":"Point"},"properties":{"osm_id":"6615801195","tag":{"amenity":"waste_basket","operator":"Stad Halle"}},"type":"Feature"},
	{"geometry":{"coordinates":[4.239068,50.737846],"type":"Point"},"properties":{"osm_id":"6760135637","tag":{"amenity":"waste_basket"}},"type":"Feature"},
	{"geometry":{"coordinates":[4.249465,50.777657],"type":"Point"},"properties":{"osm_id":"6957444359","tag":{"amenity":"waste_basket"}},"type":"Feature"},
	{"geometry":{"coordinates":[4.249529,50.777761],"type":"Point"},"properties":{"osm_id":"6957444360","tag":{"amenity":"waste_basket"}},"type":"Feature"},
	{"geometry":{"coordinates":[4.249985,50.777736],"type":"Point"},"properties":{"osm_id":"6957444365","tag":{"amenity":"waste_basket"}},"type":"Feature"},
	{"geometry":{"coordinates":[4.250442,50.77734],"type":"Point"},"properties":{"osm_id":"6957444573","tag":{"amenity":"waste_basket"}},"type":"Feature"},
	{"geometry":{"coordinates":[4.251012,50.777862],"type":"Point"},"properties":{"osm_id":"6968883536","tag":{"amenity":"waste_basket"}},"type":"Feature"},
	{"geometry":{"coordinates":[4.250549,50.777776],"type":"Point"},"properties":{"osm_id":"6968883547","tag":{"amenity":"waste_basket"}},"type":"Feature"},
	{"geometry":{"coordinates":[4.250381,50.777837],"type":"Point"},"properties":{"osm_id":"6968883548","tag":{"amenity":"waste_basket"}},"type":"Feature"},
	{"geometry":{"coordinates":[4.251147,50.778986],"type":"Point"},"properties":{"osm_id":"6972466665","tag":{"amenity":"waste_basket"}},"type":"Feature"},
	{"geometry":{"coordinates":[4.251739,50.778862],"type":"Point"},"properties":{"osm_id":"6972524186","tag":{"amenity":"waste_basket"}},"type":"Feature"},
	{"geometry":{"coordinates":[4.251384,50.778633],"type":"Point"},"properties":{"osm_id":"6972524586","tag":{"amenity":"waste_basket"}},"type":"Feature"},
	{"geometry":{"coordinates":[4.249533,50.777962],"type":"Point"},"properties":{"osm_id":"6979584882","tag":{"amenity":"waste_basket"}},"type":"Feature"},
	{"geometry":{"coordinates":[4.250947,50.779558],"type":"Point"},"properties":{"osm_id":"6979593323","tag":{"amenity":"waste_basket"}},"type":"Feature"},
	{"geometry":{"coordinates":[4.251651,50.779319],"type":"Point"},"properties":{"osm_id":"6979593330","tag":{"amenity":"waste_basket"}},"type":"Feature"},
	{"geometry":{"coordinates":[4.25256,50.779493],"type":"Point"},"properties":{"osm_id":"6979593387","tag":{"amenity":"waste_basket"}},"type":"Feature"},
	{"geometry":{"coordinates":[4.252405,50.779175],"type":"Point"},"properties":{"osm_id":"6979593392","tag":{"amenity":"waste_basket"}},"type":"Feature"},
	{"geometry":{"coordinates":[4.25005,50.778551],"type":"Point"},"properties":{"osm_id":"6987072388","tag":{"amenity":"waste_basket"}},"type":"Feature"},
	{"geometry":{"coordinates":[4.250151,50.777447],"type":"Point"},"properties":{"osm_id":"6987072460","tag":{"amenity":"waste_basket"}},"type":"Feature"},
	{"geometry":{"coordinates":[4.250262,50.777622],"type":"Point"},"properties":{"osm_id":"6987072462","tag":{"amenity":"waste_basket"}},"type":"Feature"},
	{"geometry":{"coordinates":[4.289333,50.756295],"type":"Point"},"properties":{"osm_id":"7341073902","tag":{"amenity":"recycling","recycling:glass_bottles":"yes","recycling_type":"container"}},"type":"Feature"},
	{"geometry":{"coordinates":[4.28939,50.756331],"type":"Point"},"properties":{"osm_id":"7341073903","tag":{"amenity":"recycling","operator":"De Kringwinkel","recycling:clothes":"yes","recycling_type":"container"}},"type":"Feature"},
	{"geometry":{"coordinates":[4.280234,50.747389],"type":"Point"},"properties":{"osm_id":"7341073910","tag":{"amenity":"waste_basket"}},"type":"Feature"},
	{"geometry":{"coordinates":[4.279873,50.747106],"type":"Point"},"properties":{"osm_id":"7341073911","tag":{"amenity":"recycling","recycling:glass_bottles":"yes","recycling_type":"container"}},"type":"Feature"},
	{"geometry":{"coordinates":[4.277419,50.746019],"type":"Point"},"properties":{"osm_id":"7341073912","tag":{"amenity":"recycling","operator":"Wereld Missie Hulp","recycling:clothes":"yes","recycling_type":"container"}},"type":"Feature"},
	{"geometry":{"coordinates":[4.276225,50.745337],"type":"Point"},"properties":{"osm_id":"7341073917","tag":{"amenity":"waste_basket"}},"type":"Feature"},
	{"geometry":{"coordinates":[4.239641,50.739038],"type":"Point"},"properties":{"osm_id":"7581118576","tag":{"amenity":"waste_basket","operator":"Stad Halle"}},"type":"Feature"},
	{"geometry":{"coordinates":[4.240184,50.739081],"type":"Point"},"properties":{"osm_id":"7581118577","tag":{"amenity":"waste_basket","operator":"Stad Halle"}},"type":"Feature"},
	{"geometry":{"coordinates":[4.242943,50.740742],"type":"Point"},"properties":{"osm_id":"7581118578","tag":{"amenity":"waste_basket","operator":"Stad Halle"}},"type":"Feature"},
	{"geometry":{"coordinates":[4.220233,50.74809],"type":"Point"},"properties":{"osm_id":"7791507443","tag":{"amenity":"waste_basket"}},"type":"Feature"},
	{"geometry":{"coordinates":[4.221043,50.748078],"type":"Point"},"properties":{"osm_id":"7791507449","tag":{"amenity":"waste_basket"}},"type":"Feature"},
	{"geometry":{"coordinates":[4.221684,50.747822],"type":"Point"},"properties":{"osm_id":"7791529818","tag":{"amenity":"waste_basket"}},"type":"Feature"},
	{"geometry":{"coordinates":[4.229329,50.744382],"type":"Point"},"properties":{"osm_id":"7791796414","tag":{"amenity":"recycling","recycling:glass_bottles":"yes","recycling_type":"container"}},"type":"Feature"},
	{"geometry":{"coordinates":[4.229286,50.744417],"type":"Point"},"properties":{"osm_id":"7791796415","tag":{"amenity":"recycling","operator":"De Kringwinkel","recycling:clothes":"yes","recycling_type":"container"}},"type":"Feature"},
	{"geometry":{"coordinates":[4.229408,50.74262],"type":"Point"},"properties":{"osm_id":"7791796420","tag":{"amenity":"waste_basket"}},"type":"Feature"},
	{"geometry":{"coordinates":[4.22923,50.742603],"type":"Point"},"properties":{"osm_id":"7791796421","tag":{"amenity":"waste_basket"}},"type":"Feature"},
	{"geometry":{"coordinates":[4.229134,50.742557],"type":"Point"},"properties":{"osm_id":"7791796422","tag":{"amenity":"waste_basket"}},"type":"Feature"},
	{"geometry":{"coordinates":[4.22901,50.742515],"type":"Point"},"properties":{"osm_id":"7791796423","tag":{"amenity":"waste_basket"}},"type":"Feature"},
	{"geometry":{"coordinates":[4.228903,50.74237],"type":"Point"},"properties":{"osm_id":"7791796425","tag":{"amenity":"waste_basket"}},"type":"Feature"},
	{"geometry":{"coordinates":[4.228752,50.742546],"type":"Point"},"properties":{"osm_id":"7791796426","tag":{"amenity":"waste_basket"}},"type":"Feature"},
	{"geometry":{"coordinates":[4.228563,50.742454],"type":"Point"},"properties":{"osm_id":"7791796427","tag":{"amenity":"waste_basket"}},"type":"Feature"},
	{"geometry":{"coordinates":[4.267038,50.744268],"type":"Point"},"properties":{"osm_id":"7864985119","tag":{"amenity":"recycling","recycling:glass_bottles":"yes","recycling_type":"container"}},"type":"Feature"},
	{"geometry":{"coordinates":[4.258247,50.746545],"type":"Point"},"properties":{"osm_id":"7865062729","tag":{"amenity":"recycling","recycling:clothes":"yes","recycling_type":"container"}},"type":"Feature"},
	{"geometry":{"coordinates":[4.231751,50.736838],"type":"Point"},"properties":{"osm_id":"7887513100","tag":{"amenity":"waste_basket"}},"type":"Feature"}
]
}
