{
"type": "FeatureCollection",
"features": [
	{"geometry":{"coordinates":[4.271437,50.681139],"type":"Point"},"properties":{"osm_id":"373825912","tag":{"amenity":"recycling","recycling:glass_bottles":"yes","recycling_type":"container"}},"type":"Feature"},
	{"geometry":{"coordinates":[4.236064,50.689802],"type":"Point"},"properties":{"osm_id":"772419996","tag":{"amenity":"recycling","recycling:glass_bottles":"yes","recycling_type":"container"}},"type":"Feature"},
	{"geometry":{"coordinates":[4.234188,50.69064],"type":"Point"},"properties":{"osm_id":"772420016","tag":{"amenity":"recycling","recycling:glass_bottles":"yes","recycling_type":"container"}},"type":"Feature"},
	{"geometry":{"coordinates":[4.220548,50.688738],"type":"Point"},"properties":{"osm_id":"772420021","tag":{"amenity":"recycling","recycling:glass_bottles":"yes","recycling_type":"container"}},"type":"Feature"},
	{"geometry":{"coordinates":[4.223838,50.685068],"type":"Point"},"properties":{"osm_id":"772420044","tag":{"amenity":"recycling","recycling:glass_bottles":"yes","recycling_type":"container"}},"type":"Feature"},
	{"geometry":{"coordinates":[4.258284,50.681152],"type":"Point"},"properties":{"osm_id":"775981897","tag":{"amenity":"recycling","recycling:glass_bottles":"yes","recycling_type":"container"}},"type":"Feature"},
	{"geometry":{"coordinates":[4.220714,50.719319],"type":"Point"},"properties":{"osm_id":"990094389","tag":{"amenity":"recycling","recycling:glass_bottles":"yes","recycling_type":"container"}},"type":"Feature"},
	{"geometry":{"coordinates":[4.3003,50.681484],"type":"Point"},"properties":{"osm_id":"1765629460","tag":{"amenity":"recycling","recycling:glass":"no","recycling:glass_bottles":"yes","recycling_type":"container"}},"type":"Feature"},
	{"geometry":{"coordinates":[4.26391,50.681183],"type":"Point"},"properties":{"osm_id":"1840944369","tag":{"amenity":"recycling","opening_hours":"24/7","operator":"ASBL Terre","recycling:clothes":"yes","recycling_type":"container","wheelchair":"yes"}},"type":"Feature"},
	{"geometry":{"coordinates":[4.266858,50.681665],"type":"Point"},"properties":{"osm_id":"1840944370","tag":{"amenity":"waste_basket"}},"type":"Feature"},
	{"geometry":{"coordinates":[4.252353,50.71995],"type":"Point"},"properties":{"osm_id":"2301820302","tag":{"amenity":"waste_basket"}},"type":"Feature"},
	{"geometry":{"coordinates":[4.242179,50.728809],"type":"Point"},"properties":{"osm_id":"2301820399","tag":{"amenity":"waste_basket"}},"type":"Feature"},
	{"geometry":{"coordinates":[4.24243,50.728894],"type":"Point"},"properties":{"osm_id":"2301820432","tag":{"amenity":"waste_basket"}},"type":"Feature"},
	{"geometry":{"coordinates":[4.240817,50.733554],"type":"Point"},"properties":{"osm_id":"2301820639","tag":{"amenity":"waste_basket"}},"type":"Feature"},
	{"geometry":{"coordinates":[4.24093,50.733637],"type":"Point"},"properties":{"osm_id":"2301820663","tag":{"amenity":"waste_basket"}},"type":"Feature"},
	{"geometry":{"coordinates":[4.241023,50.733716],"type":"Point"},"properties":{"osm_id":"2301820693","tag":{"amenity":"waste_basket"}},"type":"Feature"},
	{"geometry":{"coordinates":[4.241117,50.733795],"type":"Point"},"properties":{"osm_id":"2301820741","tag":{"amenity":"waste_basket"}},"type":"Feature"},
	{"geometry":{"coordinates":[4.241211,50.733874],"type":"Point"},"properties":{"osm_id":"2301820783","tag":{"amenity":"waste_basket"}},"type":"Feature"},
	{"geometry":{"coordinates":[4.241304,50.733953],"type":"Point"},"properties":{"osm_id":"2301820828","tag":{"amenity":"waste_basket"}},"type":"Feature"},
	{"geometry":{"coordinates":[4.241398,50.734032],"type":"Point"},"properties":{"osm_id":"2301820870","tag":{"amenity":"waste_basket"}},"type":"Feature"},
	{"geometry":{"coordinates":[4.241491,50.734111],"type":"Point"},"properties":{"osm_id":"2301820920","tag":{"amenity":"waste_basket"}},"type":"Feature"},
	{"geometry":{"coordinates":[4.242034,50.734814],"type":"Point"},"properties":{"osm_id":"2301820940","tag":{"amenity":"waste_basket"}},"type":"Feature"},
	{"geometry":{"coordinates":[4.240229,50.734539],"type":"Point"},"properties":{"osm_id":"4155155538","tag":{"amenity":"waste_basket"}},"type":"Feature"},
	{"geometry":{"coordinates":[4.239688,50.734814],"type":"Point"},"properties":{"osm_id":"4155155543","tag":{"amenity":"waste_basket"}},"type":"Feature"},
	{"geometry":{"coordinates":[4.239278,50.734605],"type":"Point"},"properties":{"osm_id":"4155155548","tag":{"amenity":"waste_basket","operator":"Stad Halle"}},"type":"Feature"},
	{"geometry":{"coordinates":[4.266469,50.68163],"type":"Point"},"properties":{"osm_id":"4260493791","tag":{"amenity":"waste_basket"}},"type":"Feature"},
	{"geometry":{"coordinates":[4.266656,50.681977],"type":"Point"},"properties":{"osm_id":"4260493792","tag":{"amenity":"waste_basket"}},"type":"Feature"},
	{"geometry":{"coordinates":[4.289649,50.682559],"type":"Point"},"properties":{"osm_id":"4260493794","tag":{"amenity":"waste_basket"}},"type":"Feature"},
	{"geometry":{"coordinates":[4.265806,50.681654],"type":"Point"},"properties":{"osm_id":"4260521921","tag":{"amenity":"waste_basket"}},"type":"Feature"},
	{"geometry":{"coordinates":[4.272696,50.682987],"type":"Point"},"properties":{"osm_id":"4260561371","tag":{"amenity":"waste_basket"}},"type":"Feature"},
	{"geometry":{"coordinates":[4.238587,50.732355],"type":"Point"},"properties":{"osm_id":"4286657230","tag":{"amenity":"waste_basket"}},"type":"Feature"},
	{"geometry":{"coordinates":[4.23979,50.733147],"type":"Point"},"properties":{"osm_id":"4286657232","tag":{"amenity":"waste_basket"}},"type":"Feature"},
	{"geometry":{"coordinates":[4.28878,50.698386],"type":"Point"},"properties":{"osm_id":"4294637391","tag":{"amenity":"waste_basket"}},"type":"Feature"},
	{"geometry":{"coordinates":[4.299349,50.699531],"type":"Point"},"properties":{"osm_id":"4294637395","tag":{"amenity":"waste_basket"}},"type":"Feature"},
	{"geometry":{"coordinates":[4.291543,50.700858],"type":"Point"},"properties":{"osm_id":"4294637397","tag":{"amenity":"waste_basket"}},"type":"Feature"},
	{"geometry":{"coordinates":[4.29886,50.704105],"type":"Point"},"properties":{"osm_id":"4294637398","tag":{"amenity":"waste_basket"}},"type":"Feature"},
	{"geometry":{"coordinates":[4.303151,50.704549],"type":"Point"},"properties":{"osm_id":"4294637400","tag":{"amenity":"waste_basket"}},"type":"Feature"},
	{"geometry":{"coordinates":[4.279446,50.707408],"type":"Point"},"properties":{"osm_id":"4294637419","tag":{"amenity":"waste_basket"}},"type":"Feature"},
	{"geometry":{"coordinates":[4.237148,50.730781],"type":"Point"},"properties":{"osm_id":"4354147213","tag":{"amenity":"waste_basket"}},"type":"Feature"},
	{"geometry":{"coordinates":[4.22209,50.71394],"type":"Point"},"properties":{"osm_id":"4357198155","tag":{"amenity":"waste_basket"}},"type":"Feature"},
	{"geometry":{"coordinates":[4.221443,50.714521],"type":"Point"},"properties":{"osm_id":"4357198158","tag":{"amenity":"waste_basket"}},"type":"Feature"},
	{"geometry":{"coordinates":[4.22151,50.714596],"type":"Point"},"properties":{"osm_id":"4357198160","tag":{"amenity":"waste_basket"}},"type":"Feature"},
	{"geometry":{"coordinates":[4.221612,50.714814],"type":"Point"},"properties":{"osm_id":"4357198163","tag":{"amenity":"waste_basket"}},"type":"Feature"},
	{"geometry":{"coordinates":[4.222005,50.715038],"type":"Point"},"properties":{"osm_id":"4357198184","tag":{"amenity":"recycling","recycling:clothes":"yes","recycling_type":"container"}},"type":"Feature"},
	{"geometry":{"coordinates":[4.222727,50.715929],"type":"Point"},"properties":{"osm_id":"4357198185","tag":{"amenity":"waste_basket"}},"type":"Feature"},
	{"geometry":{"coordinates":[4.22341,50.715732],"type":"Point"},"properties":{"osm_id":"4357198195","tag":{"amenity":"waste_basket"}},"type":"Feature"},
	{"geometry":{"coordinates":[4.288055,50.711667],"type":"Point"},"properties":{"osm_id":"4434728061","tag":{"amenity":"waste_basket"}},"type":"Feature"},
	{"geometry":{"coordinates":[4.256635,50.684865],"type":"Point"},"properties":{"osm_id":"4444124561","tag":{"amenity":"waste_basket"}},"type":"Feature"},
	{"geometry":{"coordinates":[4.255847,50.727792],"type":"Point"},"properties":{"osm_id":"4479431919","tag":{"amenity":"waste_basket"}},"type":"Feature"},
	{"geometry":{"coordinates":[4.251989,50.727704],"type":"Point"},"properties":{"osm_id":"4504498520","tag":{"amenity":"recycling","recycling:glass_bottles":"yes","recycling_type":"container"}},"type":"Feature"},
	{"geometry":{"coordinates":[4.244709,50.731058],"type":"Point"},"properties":{"osm_id":"4619242358","tag":{"amenity":"recycling","recycling:glass_bottles":"yes","recycling_type":"container"}},"type":"Feature"},
	{"geometry":{"coordinates":[4.24168,50.734457],"type":"Point"},"properties":{"osm_id":"4619242359","tag":{"amenity":"recycling","recycling:clothes":"yes","recycling_type":"container"}},"type":"Feature"},
	{"geometry":{"coordinates":[4.297144,50.68376],"type":"Point"},"properties":{"osm_id":"4708365164","tag":{"amenity":"waste_basket"}},"type":"Feature"},
	{"geometry":{"coordinates":[4.297597,50.681693],"type":"Point"},"properties":{"osm_id":"4708373614","tag":{"amenity":"waste_basket"}},"type":"Feature"},
	{"geometry":{"coordinates":[4.300416,50.681501],"type":"Point"},"properties":{"osm_id":"4708374689","tag":{"amenity":"recycling","opening_hours":"24/7","recycling:batteries":"no","recycling:books":"no","recycling:cans":"no","recycling:cardboard":"no","recycling:cartons":"no","recycling:clothes":"yes","recycling:electrical_appliances":"no","recycling:glass":"no","recycling:glass_bottles":"no","recycling:green_waste":"no","recycling:magazines":"no","recycling:newspaper":"no","recycling:paper":"no","recycling:paper_packaging":"no","recycling:plastic":"no","recycling:plastic_bottles":"no","recycling:plastic_packaging":"no","recycling:scrap_metal":"no","recycling:small_appliances":"no","recycling:waste":"no","recycling:wood":"no","recycling_type":"container"}},"type":"Feature"},
	{"geometry":{"coordinates":[4.290698,50.732983],"type":"Point"},"properties":{"osm_id":"4724669098","tag":{"amenity":"waste_basket"}},"type":"Feature"},
	{"geometry":{"coordinates":[4.297377,50.730645],"type":"Point"},"properties":{"osm_id":"4724669100","tag":{"amenity":"waste_basket"}},"type":"Feature"},
	{"geometry":{"coordinates":[4.23432,50.732989],"type":"Point"},"properties":{"osm_id":"4811566773","tag":{"amenity":"waste_basket"}},"type":"Feature"},
	{"geometry":{"coordinates":[4.240294,50.736263],"type":"Point"},"properties":{"osm_id":"4811567835","tag":{"amenity":"waste_basket"}},"type":"Feature"},
	{"geometry":{"coordinates":[4.234408,50.732705],"type":"Point"},"properties":{"osm_id":"4811567975","tag":{"amenity":"waste_basket"}},"type":"Feature"},
	{"geometry":{"coordinates":[4.246689,50.683223],"type":"Point"},"properties":{"osm_id":"4869177449","tag":{"amenity":"waste_basket"}},"type":"Feature"},
	{"geometry":{"coordinates":[4.243532,50.735957],"type":"Point"},"properties":{"osm_id":"4893415079","tag":{"amenity":"waste_basket"}},"type":"Feature"},
	{"geometry":{"coordinates":[4.29813,50.681737],"type":"Point"},"properties":{"osm_id":"4943920669","tag":{"amenity":"waste_basket","waste":"trash"}},"type":"Feature"},
	{"geometry":{"coordinates":[4.2277,50.68383],"type":"Point"},"properties":{"osm_id":"5025686496","tag":{"amenity":"recycling","recycling:batteries":"no","recycling:books":"no","recycling:cardboard":"no","recycling:clothes":"yes","recycling:glass":"no","recycling:glass_bottles":"no","recycling:green_waste":"no","recycling:plastic":"no","recycling:waste":"no","recycling_type":"container"}},"type":"Feature"},
	{"geometry":{"coordinates":[4.233448,50.734796],"type":"Point"},"properties":{"osm_id":"5086187407","tag":{"amenity":"waste_basket"}},"type":"Feature"},
	{"geometry":{"coordinates":[4.23281,50.734508],"type":"Point"},"properties":{"osm_id":"5086187418","tag":{"amenity":"waste_basket"}},"type":"Feature"},
	{"geometry":{"coordinates":[4.232814,50.734579],"type":"Point"},"properties":{"osm_id":"5086187419","tag":{"amenity":"waste_basket"}},"type":"Feature"},
	{"geometry":{"coordinates":[4.233297,50.734425],"type":"Point"},"properties":{"osm_id":"5086191521","tag":{"amenity":"waste_basket"}},"type":"Feature"},
	{"geometry":{"coordinates":[4.234258,50.73568],"type":"Point"},"properties":{"osm_id":"5086271767","tag":{"amenity":"waste_basket"}},"type":"Feature"},
	{"geometry":{"coordinates":[4.233955,50.735555],"type":"Point"},"properties":{"osm_id":"5086271768","tag":{"amenity":"waste_basket"}},"type":"Feature"},
	{"geometry":{"coordinates":[4.223121,50.688458],"type":"Point"},"properties":{"osm_id":"5101434071","tag":{"amenity":"waste_basket"}},"type":"Feature"},
	{"geometry":{"coordinates":[4.227257,50.689447],"type":"Point"},"properties":{"osm_id":"5101436792","tag":{"amenity":"waste_basket"}},"type":"Feature"},
	{"geometry":{"coordinates":[4.221999,50.689516],"type":"Point"},"properties":{"osm_id":"5101436925","tag":{"amenity":"waste_basket"}},"type":"Feature"},
	{"geometry":{"coordinates":[4.228268,50.689133],"type":"Point"},"properties":{"osm_id":"5101437063","tag":{"amenity":"waste_basket"}},"type":"Feature"},
	{"geometry":{"coordinates":[4.231166,50.698793],"type":"Point"},"properties":{"osm_id":"5101437066","tag":{"amenity":"waste_basket"}},"type":"Feature"},
	{"geometry":{"coordinates":[4.269229,50.691813],"type":"Point"},"properties":{"osm_id":"5124533023","tag":{"amenity":"waste_basket"}},"type":"Feature"},
	{"geometry":{"coordinates":[4.25413,50.732795],"type":"Point"},"properties":{"osm_id":"5135687479","tag":{"amenity":"waste_basket"}},"type":"Feature"},
	{"geometry":{"coordinates":[4.235007,50.734017],"type":"Point"},"properties":{"osm_id":"5186475748","tag":{"amenity":"waste_basket"}},"type":"Feature"},
	{"geometry":{"coordinates":[4.234634,50.733968],"type":"Point"},"properties":{"osm_id":"5186475751","tag":{"amenity":"waste_basket"}},"type":"Feature"},
	{"geometry":{"coordinates":[4.230524,50.733866],"type":"Point"},"properties":{"osm_id":"5190922188","tag":{"amenity":"recycling","recycling:clothes":"yes","recycling_type":"container"}},"type":"Feature"},
	{"geometry":{"coordinates":[4.234355,50.733815],"type":"Point"},"properties":{"osm_id":"5190968601","tag":{"amenity":"recycling","recycling:glass_bottles":"yes","recycling_type":"container"}},"type":"Feature"},
	{"geometry":{"coordinates":[4.235313,50.711204],"type":"Point"},"properties":{"osm_id":"5210682950","tag":{"amenity":"recycling","recycling:glass_bottles":"yes","recycling_type":"container"}},"type":"Feature"},
	{"geometry":{"coordinates":[4.235289,50.711227],"type":"Point"},"properties":{"osm_id":"5210682959","tag":{"amenity":"recycling","recycling:clothes":"yes","recycling_type":"container"}},"type":"Feature"},
	{"geometry":{"coordinates":[4.241111,50.729807],"type":"Point"},"properties":{"osm_id":"5220514390","tag":{"amenity":"waste_basket"}},"type":"Feature"},
	{"geometry":{"coordinates":[4.292618,50.707977],"type":"Point"},"properties":{"osm_id":"5599380944","tag":{"amenity":"waste_basket"}},"type":"Feature"},
	{"geometry":{"coordinates":[4.26081,50.716682],"type":"Point"},"properties":{"osm_id":"5688554918","tag":{"amenity":"waste_basket"}},"type":"Feature"},
	{"geometry":{"coordinates":[4.256493,50.718352],"type":"Point"},"properties":{"osm_id":"5688554919","tag":{"amenity":"waste_basket"}},"type":"Feature"},
	{"geometry":{"coordinates":[4.24247,50.725388],"type":"Point"},"properties":{"osm_id":"5736038794","tag":{"amenity":"waste_basket"}},"type":"Feature"},
	{"geometry":{"coordinates":[4.258221,50.719611],"type":"Point"},"properties":{"osm_id":"5814091285","tag":{"amenity":"recycling","recycling:glass_bottles":"yes","recycling_type":"container"}},"type":"Feature"},
	{"geometry":{"coordinates":[4.258184,50.719598],"type":"Point"},"properties":{"osm_id":"5814091286","tag":{"amenity":"recycling","recycling:clothes":"yes","recycling_type":"container"}},"type":"Feature"},
	{"geometry":{"coordinates":[4.258306,50.719635],"type":"Point"},"properties":{"osm_id":"5814091288","tag":{"amenity":"waste_basket"}},"type":"Feature"},
	{"geometry":{"coordinates":[4.257849,50.719505],"type":"Point"},"properties":{"osm_id":"5814091296","tag":{"amenity":"waste_basket","operator":"Stad Halle"}},"type":"Feature"},
	{"geometry":{"coordinates":[4.257845,50.719442],"type":"Point"},"properties":{"osm_id":"5814091297","tag":{"amenity":"waste_basket","operator":"Stad Halle"}},"type":"Feature"},
	{"geometry":{"coordinates":[4.257163,50.719532],"type":"Point"},"properties":{"osm_id":"5814091318","tag":{"amenity":"waste_basket","operator":"Stad Halle"}},"type":"Feature"},
	{"geometry":{"coordinates":[4.257097,50.71937],"type":"Point"},"properties":{"osm_id":"5814091321","tag":{"amenity":"waste_basket","operator":"Stad Halle"}},"type":"Feature"},
	{"geometry":{"coordinates":[4.221367,50.689421],"type":"Point"},"properties":{"osm_id":"5832150832","tag":{"amenity":"waste_basket"}},"type":"Feature"},
	{"geometry":{"coordinates":[4.220509,50.688756],"type":"Point"},"properties":{"osm_id":"5832150836","tag":{"amenity":"recycling","recycling:clothes":"yes","recycling_type":"container"}},"type":"Feature"},
	{"geometry":{"coordinates":[4.23961,50.733354],"type":"Point"},"properties":{"osm_id":"5843727671","tag":{"amenity":"waste_basket"}},"type":"Feature"},
	{"geometry":{"coordinates":[4.242335,50.73581],"type":"Point"},"properties":{"osm_id":"5844009617","tag":{"amenity":"waste_basket"}},"type":"Feature"},
	{"geometry":{"coordinates":[4.277051,50.681746],"type":"Point"},"properties":{"osm_id":"5894584531","tag":{"amenity":"waste_basket"}},"type":"Feature"},
	{"geometry":{"coordinates":[4.278978,50.690654],"type":"Point"},"properties":{"osm_id":"5928266732","tag":{"amenity":"recycling","recycling:glass":"yes","recycling_type":"container"}},"type":"Feature"},
	{"geometry":{"coordinates":[4.280018,50.690586],"type":"Point"},"properties":{"osm_id":"5936511308","tag":{"amenity":"waste_basket"}},"type":"Feature"},
	{"geometry":{"coordinates":[4.26725,50.682258],"type":"Point"},"properties":{"osm_id":"5963961647","tag":{"amenity":"waste_basket"}},"type":"Feature"},
	{"geometry":{"coordinates":[4.26683,50.68211],"type":"Point"},"properties":{"osm_id":"5963979127","tag":{"amenity":"waste_basket"}},"type":"Feature"},
	{"geometry":{"coordinates":[4.267154,50.682034],"type":"Point"},"properties":{"osm_id":"5963979128","tag":{"amenity":"waste_basket"}},"type":"Feature"},
	{"geometry":{"coordinates":[4.266532,50.681638],"type":"Point"},"properties":{"osm_id":"5963982901","tag":{"amenity":"waste_basket","waste":"trash"}},"type":"Feature"},
	{"geometry":{"coordinates":[4.266125,50.681709],"type":"Point"},"properties":{"osm_id":"5963986244","tag":{"amenity":"waste_basket"}},"type":"Feature"},
	{"geometry":{"coordinates":[4.270035,50.681356],"type":"Point"},"properties":{"osm_id":"5964099490","tag":{"amenity":"waste_basket","waste":"trash"}},"type":"Feature"},
	{"geometry":{"coordinates":[4.269724,50.681311],"type":"Point"},"properties":{"osm_id":"5964099491","tag":{"amenity":"waste_basket"}},"type":"Feature"},
	{"geometry":{"coordinates":[4.269605,50.681183],"type":"Point"},"properties":{"osm_id":"5964099492","tag":{"amenity":"waste_basket"}},"type":"Feature"},
	{"geometry":{"coordinates":[4.271493,50.681145],"type":"Point"},"properties":{"osm_id":"5964128870","tag":{"amenity":"recycling","recycling:clothes":"yes","recycling_type":"container"}},"type":"Feature"},
	{"geometry":{"coordinates":[4.273011,50.682328],"type":"Point"},"properties":{"osm_id":"5964214883","tag":{"amenity":"waste_basket"}},"type":"Feature"},
	{"geometry":{"coordinates":[4.269805,50.681909],"type":"Point"},"properties":{"osm_id":"5964671523","tag":{"amenity":"waste_basket"}},"type":"Feature"},
	{"geometry":{"coordinates":[4.264495,50.681404],"type":"Point"},"properties":{"osm_id":"5964708773","tag":{"amenity":"waste_basket"}},"type":"Feature"},
	{"geometry":{"coordinates":[4.264163,50.681285],"type":"Point"},"properties":{"osm_id":"5964708774","tag":{"amenity":"waste_basket"}},"type":"Feature"},
	{"geometry":{"coordinates":[4.298578,50.681009],"type":"Point"},"properties":{"osm_id":"5964805915","tag":{"amenity":"waste_basket","waste":"trash"}},"type":"Feature"},
	{"geometry":{"coordinates":[4.298317,50.68088],"type":"Point"},"properties":{"osm_id":"5964815880","tag":{"amenity":"waste_basket"}},"type":"Feature"},
	{"geometry":{"coordinates":[4.298242,50.680906],"type":"Point"},"properties":{"osm_id":"5964815881","tag":{"amenity":"waste_basket","material":"plastic"}},"type":"Feature"},
	{"geometry":{"coordinates":[4.298294,50.680994],"type":"Point"},"properties":{"osm_id":"5964815882","tag":{"amenity":"waste_basket"}},"type":"Feature"},
	{"geometry":{"coordinates":[4.272273,50.683974],"type":"Point"},"properties":{"osm_id":"5965645370","tag":{"amenity":"waste_basket"}},"type":"Feature"},
	{"geometry":{"coordinates":[4.272223,50.68453],"type":"Point"},"properties":{"osm_id":"5965645372","tag":{"amenity":"waste_basket"}},"type":"Feature"},
	{"geometry":{"coordinates":[4.276188,50.684039],"type":"Point"},"properties":{"osm_id":"5965708320","tag":{"amenity":"waste_basket"}},"type":"Feature"},
	{"geometry":{"coordinates":[4.271125,50.682597],"type":"Point"},"properties":{"osm_id":"5969107645","tag":{"amenity":"waste_basket"}},"type":"Feature"},
	{"geometry":{"coordinates":[4.270654,50.682466],"type":"Point"},"properties":{"osm_id":"5969107646","tag":{"amenity":"waste_basket"}},"type":"Feature"},
	{"geometry":{"coordinates":[4.30639,50.688264],"type":"Point"},"properties":{"osm_id":"6008077912","tag":{"amenity":"waste_basket"}},"type":"Feature"},
	{"geometry":{"coordinates":[4.306614,50.686321],"type":"Point"},"properties":{"osm_id":"6071246581","tag":{"amenity":"waste_basket"}},"type":"Feature"},
	{"geometry":{"coordinates":[4.257355,50.682547],"type":"Point"},"properties":{"osm_id":"6159205573","tag":{"amenity":"waste_basket"}},"type":"Feature"},
	{"geometry":{"coordinates":[4.237084,50.736185],"type":"Point"},"properties":{"osm_id":"6322751589","tag":{"amenity":"waste_basket"}},"type":"Feature"},
	{"geometry":{"coordinates":[4.271738,50.68485],"type":"Point"},"properties":{"osm_id":"6579863746","tag":{"amenity":"waste_basket"}},"type":"Feature"},
	{"geometry":{"coordinates":[4.254608,50.685343],"type":"Point"},"properties":{"osm_id":"6587400725","tag":{"amenity":"waste_basket"}},"type":"Feature"},
	{"geometry":{"coordinates":[4.255389,50.683885],"type":"Point"},"properties":{"osm_id":"6587400729","tag":{"amenity":"waste_basket"}},"type":"Feature"},
	{"geometry":{"coordinates":[4.261039,50.684536],"type":"Point"},"properties":{"osm_id":"6587400730","tag":{"amenity":"waste_basket"}},"type":"Feature"},
	{"geometry":{"coordinates":[4.264787,50.683815],"type":"Point"},"properties":{"osm_id":"6587400733","tag":{"amenity":"waste_basket"}},"type":"Feature"},
	{"geometry":{"coordinates":[4.243297,50.732733],"type":"Point"},"properties":{"osm_id":"6677151296","tag":{"amenity":"waste_basket","operator":"Stad Halle"}},"type":"Feature"},
	{"geometry":{"coordinates":[4.243259,50.732682],"type":"Point"},"properties":{"osm_id":"6677151297","tag":{"amenity":"waste_basket","operator":"Stad Halle"}},"type":"Feature"},
	{"geometry":{"coordinates":[4.237095,50.732375],"type":"Point"},"properties":{"osm_id":"6677672015","tag":{"amenity":"recycling","recycling:clothes":"yes","recycling_type":"container"}},"type":"Feature"},
	{"geometry":{"coordinates":[4.254192,50.71991],"type":"Point"},"properties":{"osm_id":"6723217885","tag":{"amenity":"waste_basket"}},"type":"Feature"},
	{"geometry":{"coordinates":[4.252458,50.719706],"type":"Point"},"properties":{"osm_id":"6723288670","tag":{"amenity":"waste_basket"}},"type":"Feature"},
	{"geometry":{"coordinates":[4.252313,50.719977],"type":"Point"},"properties":{"osm_id":"6723288671","tag":{"amenity":"waste_basket"}},"type":"Feature"},
	{"geometry":{"coordinates":[4.265598,50.683053],"type":"Point"},"properties":{"osm_id":"6906741516","tag":{"amenity":"waste_basket"}},"type":"Feature"},
	{"geometry":{"coordinates":[4.266699,50.681817],"type":"Point"},"properties":{"osm_id":"6906741519","tag":{"amenity":"waste_basket"}},"type":"Feature"},
	{"geometry":{"coordinates":[4.272389,50.682928],"type":"Point"},"properties":{"osm_id":"6906803284","tag":{"amenity":"waste_basket"}},"type":"Feature"},
	{"geometry":{"coordinates":[4.272193,50.682848],"type":"Point"},"properties":{"osm_id":"6906820085","tag":{"amenity":"waste_basket"}},"type":"Feature"},
	{"geometry":{"coordinates":[4.268915,50.682512],"type":"Point"},"properties":{"osm_id":"6906820087","tag":{"amenity":"waste_basket"}},"type":"Feature"},
	{"geometry":{"coordinates":[4.268061,50.682432],"type":"Point"},"properties":{"osm_id":"6906820088","tag":{"amenity":"waste_basket"}},"type":"Feature"},
	{"geometry":{"coordinates":[4.272598,50.68178],"type":"Point"},"properties":{"osm_id":"7124372427","tag":{"amenity":"waste_basket"}},"type":"Feature"},
	{"geometry":{"coordinates":[4.274557,50.68345],"type":"Point"},"properties":{"osm_id":"7124436550","tag":{"amenity":"waste_basket"}},"type":"Feature"},
	{"geometry":{"coordinates":[4.258916,50.685892],"type":"Point"},"properties":{"osm_id":"7124563358","tag":{"amenity":"waste_basket"}},"type":"Feature"},
	{"geometry":{"coordinates":[4.271576,50.681157],"type":"Point"},"properties":{"osm_id":"7124563417","tag":{"amenity":"waste_basket"}},"type":"Feature"},
	{"geometry":{"coordinates":[4.270255,50.681089],"type":"Point"},"properties":{"osm_id":"7124563422","tag":{"amenity":"waste_basket"}},"type":"Feature"},
	{"geometry":{"coordinates":[4.273619,50.681106],"type":"Point"},"properties":{"osm_id":"7141220749","tag":{"amenity":"waste_basket"}},"type":"Feature"},
	{"geometry":{"coordinates":[4.272547,50.683436],"type":"Point"},"properties":{"osm_id":"7236793042","tag":{"amenity":"waste_basket"}},"type":"Feature"},
	{"geometry":{"coordinates":[4.276351,50.683929],"type":"Point"},"properties":{"osm_id":"7236793046","tag":{"amenity":"waste_basket"}},"type":"Feature"},
	{"geometry":{"coordinates":[4.276805,50.684141],"type":"Point"},"properties":{"osm_id":"7236793047","tag":{"amenity":"waste_basket"}},"type":"Feature"},
	{"geometry":{"coordinates":[4.234018,50.72139],"type":"Point"},"properties":{"osm_id":"7358855475","tag":{"amenity":"recycling","recycling:glass_bottles":"yes","recycling_type":"container"}},"type":"Feature"},
	{"geometry":{"coordinates":[4.243852,50.729367],"type":"Point"},"properties":{"osm_id":"7358862607","tag":{"amenity":"waste_basket"}},"type":"Feature"},
	{"geometry":{"coordinates":[4.236091,50.736196],"type":"Point"},"properties":{"osm_id":"7390437016","tag":{"amenity":"waste_basket"}},"type":"Feature"},
	{"geometry":{"coordinates":[4.236231,50.736236],"type":"Point"},"properties":{"osm_id":"7390437017","tag":{"amenity":"waste_basket"}},"type":"Feature"},
	{"geometry":{"coordinates":[4.298959,50.729216],"type":"Point"},"properties":{"osm_id":"7411569560","tag":{"amenity":"recycling","recycling:glass_bottles":"yes","recycling_type":"container"}},"type":"Feature"},
	{"geometry":{"coordinates":[4.298911,50.7292],"type":"Point"},"properties":{"osm_id":"7411569561","tag":{"amenity":"recycling","recycling:clothes":"yes","recycling_type":"container"}},"type":"Feature"},
	{"geometry":{"coordinates":[4.299487,50.729],"type":"Point"},"properties":{"osm_id":"7411569566","tag":{"amenity":"waste_basket"}},"type":"Feature"},
	{"geometry":{"coordinates":[4.25558,50.685131],"type":"Point"},"properties":{"osm_id":"7612098709","tag":{"amenity":"waste_basket"}},"type":"Feature"},
	{"geometry":{"coordinates":[4.227165,50.732213],"type":"Point"},"properties":{"osm_id":"7710563981","tag":{"amenity":"waste_basket","operator":"Stad Halle","waste":"dog_excrement"}},"type":"Feature"},
	{"geometry":{"coordinates":[4.239797,50.727693],"type":"Point"},"properties":{"osm_id":"7737971579","tag":{"amenity":"waste_basket"}},"type":"Feature"},
	{"geometry":{"coordinates":[4.24088,50.728692],"type":"Point"},"properties":{"osm_id":"7737972899","tag":{"amenity":"waste_basket"}},"type":"Feature"},
	{"geometry":{"coordinates":[4.224023,50.710901],"type":"Point"},"properties":{"osm_id":"7781148384","tag":{"amenity":"waste_basket"}},"type":"Feature"},
	{"geometry":{"coordinates":[4.223701,50.710977],"type":"Point"},"properties":{"osm_id":"7781169285","tag":{"amenity":"waste_basket"}},"type":"Feature"},
	{"geometry":{"coordinates":[4.292385,50.708353],"type":"Point"},"properties":{"osm_id":"7781481493","tag":{"amenity":"waste_basket"}},"type":"Feature"},
	{"geometry":{"coordinates":[4.267885,50.713018],"type":"Point"},"properties":{"osm_id":"7781682792","tag":{"amenity":"waste_basket"}},"type":"Feature"},
	{"geometry":{"coordinates":[4.230415,50.731332],"type":"Point"},"properties":{"osm_id":"7791796446","tag":{"amenity":"waste_basket"}},"type":"Feature"},
	{"geometry":{"coordinates":[4.246484,50.718854],"type":"Point"},"properties":{"osm_id":"7837806359","tag":{"amenity":"waste_basket","waste":"dog_excrement"}},"type":"Feature"},
	{"geometry":{"coordinates":[4.231057,50.713472],"type":"Point"},"properties":{"osm_id":"7837806360","tag":{"amenity":"waste_basket","waste":"dog_excrement"}},"type":"Feature"},
	{"geometry":{"coordinates":[4.229671,50.713974],"type":"Point"},"properties":{"osm_id":"7837806362","tag":{"amenity":"waste_basket","waste":"dog_excrement"}},"type":"Feature"}
]
}
