{
"type": "FeatureCollection",
"features": [
	{"geometry":{"coordinates":[4.234021,50.663627],"type":"Point"},"properties":{"osm_id":"775935047","tag":{"amenity":"recycling","recycling:glass_bottles":"yes","recycling_type":"container"}},"type":"Feature"},
	{"geometry":{"coordinates":[4.220106,50.666807],"type":"Point"},"properties":{"osm_id":"775935048","tag":{"amenity":"recycling","recycling:glass_bottles":"yes","recycling_type":"container"}},"type":"Feature"},
	{"geometry":{"coordinates":[4.279313,50.669935],"type":"Point"},"properties":{"osm_id":"1217249343","tag":{"amenity":"recycling","recycling:glass":"yes"}},"type":"Feature"},
	{"geometry":{"coordinates":[4.255963,50.650342],"type":"Point"},"properties":{"osm_id":"1765664135","tag":{"amenity":"recycling","recycling:glass_bottles":"yes","recycling_type":"container"}},"type":"Feature"},
	{"geometry":{"coordinates":[4.264657,50.674343],"type":"Point"},"properties":{"osm_id":"1840944350","tag":{"amenity":"waste_basket"}},"type":"Feature"},
	{"geometry":{"coordinates":[4.273927,50.678787],"type":"Point"},"properties":{"osm_id":"1840944357","tag":{"amenity":"waste_basket"}},"type":"Feature"},
	{"geometry":{"coordinates":[4.22912,50.625115],"type":"Point"},"properties":{"osm_id":"2864912573","tag":{"amenity":"recycling","recycling:cans":"no","recycling:clothes":"no","recycling:glass_bottles":"yes","recycling:paper":"no","recycling:plastic":"no","recycling_type":"container"}},"type":"Feature"},
	{"geometry":{"coordinates":[4.274326,50.674435],"type":"Point"},"properties":{"osm_id":"4260659038","tag":{"amenity":"waste_basket"}},"type":"Feature"},
	{"geometry":{"coordinates":[4.279613,50.6728],"type":"Point"},"properties":{"osm_id":"4260673305","tag":{"amenity":"recycling","glass_bottles":"yes","recycling_type":"container"}},"type":"Feature"},
	{"geometry":{"coordinates":[4.279572,50.67272],"type":"Point"},"properties":{"osm_id":"4260673317","tag":{"amenity":"waste_basket"}},"type":"Feature"},
	{"geometry":{"coordinates":[4.299129,50.680438],"type":"Point"},"properties":{"osm_id":"4708377228","tag":{"amenity":"waste_basket","waste":"trash"}},"type":"Feature"},
	{"geometry":{"coordinates":[4.267345,50.648882],"type":"Point"},"properties":{"osm_id":"5013868883","tag":{"amenity":"waste_disposal"}},"type":"Feature"},
	{"geometry":{"coordinates":[4.268556,50.649328],"type":"Point"},"properties":{"osm_id":"5013876810","tag":{"amenity":"waste_basket"}},"type":"Feature"},
	{"geometry":{"coordinates":[4.266389,50.649416],"type":"Point"},"properties":{"osm_id":"5013881784","tag":{"amenity":"recycling","recycling:clothes":"yes","recycling_type":"container"}},"type":"Feature"},
	{"geometry":{"coordinates":[4.265562,50.649267],"type":"Point"},"properties":{"osm_id":"5013884796","tag":{"amenity":"waste_basket"}},"type":"Feature"},
	{"geometry":{"coordinates":[4.26374,50.650063],"type":"Point"},"properties":{"osm_id":"5013920652","tag":{"amenity":"waste_basket"}},"type":"Feature"},
	{"geometry":{"coordinates":[4.26396,50.650137],"type":"Point"},"properties":{"osm_id":"5013920658","tag":{"amenity":"waste_basket"}},"type":"Feature"},
	{"geometry":{"coordinates":[4.26399,50.650332],"type":"Point"},"properties":{"osm_id":"5013928578","tag":{"amenity":"waste_basket"}},"type":"Feature"},
	{"geometry":{"coordinates":[4.266044,50.650259],"type":"Point"},"properties":{"osm_id":"5013936208","tag":{"amenity":"waste_basket"}},"type":"Feature"},
	{"geometry":{"coordinates":[4.255847,50.649861],"type":"Point"},"properties":{"osm_id":"5014052116","tag":{"amenity":"waste_basket"}},"type":"Feature"},
	{"geometry":{"coordinates":[4.256769,50.65442],"type":"Point"},"properties":{"osm_id":"5014073710","tag":{"amenity":"waste_basket"}},"type":"Feature"},
	{"geometry":{"coordinates":[4.234636,50.662155],"type":"Point"},"properties":{"osm_id":"5014224378","tag":{"amenity":"waste_basket"}},"type":"Feature"},
	{"geometry":{"coordinates":[4.225331,50.667361],"type":"Point"},"properties":{"osm_id":"5014291088","tag":{"amenity":"waste_basket"}},"type":"Feature"},
	{"geometry":{"coordinates":[4.245993,50.680294],"type":"Point"},"properties":{"osm_id":"5130446949","tag":{"amenity":"waste_basket"}},"type":"Feature"},
	{"geometry":{"coordinates":[4.242019,50.678279],"type":"Point"},"properties":{"osm_id":"5130446959","tag":{"amenity":"waste_basket"}},"type":"Feature"},
	{"geometry":{"coordinates":[4.295662,50.654112],"type":"Point"},"properties":{"osm_id":"5482269770","tag":{"amenity":"recycling","recycling:clothes":"yes","recycling_type":"container"}},"type":"Feature"},
	{"geometry":{"coordinates":[4.233718,50.647187],"type":"Point"},"properties":{"osm_id":"5696901825","tag":{"amenity":"waste_basket"}},"type":"Feature"},
	{"geometry":{"coordinates":[4.243346,50.637454],"type":"Point"},"properties":{"osm_id":"5913549298","tag":{"amenity":"recycling","recycling:glass_bottles":"yes","recycling_type":"container"}},"type":"Feature"},
	{"geometry":{"coordinates":[4.263791,50.648362],"type":"Point"},"properties":{"osm_id":"5914587156","tag":{"amenity":"waste_basket"}},"type":"Feature"},
	{"geometry":{"coordinates":[4.267491,50.68004],"type":"Point"},"properties":{"osm_id":"5936396285","tag":{"amenity":"waste_basket"}},"type":"Feature"},
	{"geometry":{"coordinates":[4.260501,50.680248],"type":"Point"},"properties":{"osm_id":"5964740268","tag":{"amenity":"waste_basket"}},"type":"Feature"},
	{"geometry":{"coordinates":[4.298158,50.680597],"type":"Point"},"properties":{"osm_id":"5964805914","tag":{"amenity":"waste_basket"}},"type":"Feature"},
	{"geometry":{"coordinates":[4.298909,50.680407],"type":"Point"},"properties":{"osm_id":"5964819403","tag":{"amenity":"waste_basket","waste":"trash"}},"type":"Feature"},
	{"geometry":{"coordinates":[4.304282,50.671037],"type":"Point"},"properties":{"osm_id":"5971435259","tag":{"amenity":"waste_basket"}},"type":"Feature"},
	{"geometry":{"coordinates":[4.249047,50.68034],"type":"Point"},"properties":{"name":"MONSEU Recycling","osm_id":"6162032339","tag":{"addr:housenumber":"135","addr:street":"Rue de Tubize","amenity":"recycling","recycling_type":"centre","website":"https://www.monseurecycling.be"}},"type":"Feature"},
	{"geometry":{"coordinates":[4.245934,50.680172],"type":"Point"},"properties":{"osm_id":"6162122762","tag":{"amenity":"waste_basket"}},"type":"Feature"},
	{"geometry":{"coordinates":[4.240563,50.678586],"type":"Point"},"properties":{"osm_id":"6162259590","tag":{"amenity":"waste_basket"}},"type":"Feature"},
	{"geometry":{"coordinates":[4.232905,50.654736],"type":"Point"},"properties":{"osm_id":"6677723607","tag":{"amenity":"waste_basket"}},"type":"Feature"},
	{"geometry":{"coordinates":[4.219012,50.662075],"type":"Point"},"properties":{"osm_id":"7124191120","tag":{"amenity":"waste_basket"}},"type":"Feature"},
	{"geometry":{"coordinates":[4.218876,50.662766],"type":"Point"},"properties":{"osm_id":"7124191123","tag":{"amenity":"waste_basket"}},"type":"Feature"},
	{"geometry":{"coordinates":[4.219194,50.666541],"type":"Point"},"properties":{"osm_id":"7124191135","tag":{"amenity":"waste_basket"}},"type":"Feature"},
	{"geometry":{"coordinates":[4.220185,50.666806],"type":"Point"},"properties":{"osm_id":"7124191166","tag":{"amenity":"recycling","recycling:clothes":"yes","recycling_type":"container"}},"type":"Feature"},
	{"geometry":{"coordinates":[4.264612,50.673638],"type":"Point"},"properties":{"osm_id":"7626503996","tag":{"amenity":"waste_basket"}},"type":"Feature"},
	{"geometry":{"coordinates":[4.264164,50.673232],"type":"Point"},"properties":{"osm_id":"7626503998","tag":{"amenity":"waste_basket"}},"type":"Feature"},
	{"geometry":{"coordinates":[4.258564,50.664264],"type":"Point"},"properties":{"osm_id":"7626504008","tag":{"amenity":"waste_basket"}},"type":"Feature"},
	{"geometry":{"coordinates":[4.273127,50.671416],"type":"Point"},"properties":{"osm_id":"7626528217","tag":{"amenity":"waste_basket"}},"type":"Feature"},
	{"geometry":{"coordinates":[4.273385,50.671422],"type":"Point"},"properties":{"osm_id":"7626528219","tag":{"amenity":"waste_basket"}},"type":"Feature"},
	{"geometry":{"coordinates":[4.273008,50.671505],"type":"Point"},"properties":{"osm_id":"7626528220","tag":{"amenity":"waste_basket"}},"type":"Feature"},
	{"geometry":{"coordinates":[4.265095,50.674454],"type":"Point"},"properties":{"osm_id":"7628464899","tag":{"amenity":"waste_basket"}},"type":"Feature"},
	{"geometry":{"coordinates":[4.297169,50.679735],"type":"Point"},"properties":{"osm_id":"7704943151","tag":{"amenity":"waste_basket"}},"type":"Feature"}
]
}
