{
"type": "FeatureCollection",
"features": [
	{"geometry":{"coordinates":[4.245948,49.528654],"type":"Point"},"properties":{"osm_id":"1668869526","tag":{"amenity":"waste_basket"}},"type":"Feature"},
	{"geometry":{"coordinates":[4.24468,49.529366],"type":"Point"},"properties":{"osm_id":"1668869551","tag":{"amenity":"waste_basket"}},"type":"Feature"},
	{"geometry":{"coordinates":[4.243113,49.531486],"type":"Point"},"properties":{"osm_id":"1668909559","tag":{"amenity":"recycling","recycling:glass":"yes","recycling_type":"container"}},"type":"Feature"},
	{"geometry":{"coordinates":[4.248263,49.530257],"type":"Point"},"properties":{"osm_id":"1668909696","tag":{"amenity":"recycling","recycling:paper":"yes","recycling_type":"container"}},"type":"Feature"},
	{"geometry":{"coordinates":[4.248352,49.530274],"type":"Point"},"properties":{"osm_id":"1668909702","tag":{"amenity":"recycling","recycling:glass":"yes","recycling_type":"container"}},"type":"Feature"},
	{"geometry":{"coordinates":[4.244508,49.529148],"type":"Point"},"properties":{"osm_id":"1668909817","tag":{"amenity":"waste_basket"}},"type":"Feature"},
	{"geometry":{"coordinates":[4.254291,49.531693],"type":"Point"},"properties":{"osm_id":"1668909820","tag":{"amenity":"waste_basket"}},"type":"Feature"},
	{"geometry":{"coordinates":[4.248733,49.529805],"type":"Point"},"properties":{"osm_id":"1668909828","tag":{"amenity":"waste_basket"}},"type":"Feature"},
	{"geometry":{"coordinates":[4.253684,49.532898],"type":"Point"},"properties":{"name":"Container Verre","osm_id":"1668909882","tag":{"amenity":"recycling","recycling_type":"container"}},"type":"Feature"},
	{"geometry":{"coordinates":[4.224483,49.528851],"type":"Point"},"properties":{"name":"Conteneur \u00c3\u00a0 verres","osm_id":"4119307797","tag":{"amenity":"recycling","recycling_type":"container"}},"type":"Feature"}
]
}
