{
"type": "FeatureCollection",
"features": [
	{"geometry":{"coordinates":[4.286124,46.025339],"type":"Point"},"properties":{"name":"D\u00c3\u00a9ch\u00c3\u00a8terie\u00c2\u00a0Thizy-les-bourgs\u00c2\u00a0Malbarde","osm_id":"1708661888","tag":{"amenity":"recycling","operator":"Communaut\u00c3\u00a9\u00c2\u00a0d'Agglom\u00c3\u00a9ration\u00c2\u00a0de\u00c2\u00a0l'Ouest\u00c2\u00a0Rhodanien","phone":"+33 4 74 89 58 39","recycling:batteries":"yes","recycling:clothes":"yes","recycling:glass":"yes","recycling:paper":"yes","recycling:scrap_metal":"yes","recycling_type":"centre","ref:FR:SINOE":"3751","start_date":"1997"}},"type":"Feature"},
	{"geometry":{"coordinates":[4.29477,46.031274],"type":"Point"},"properties":{"osm_id":"1740198339","tag":{"amenity":"recycling"}},"type":"Feature"},
	{"geometry":{"coordinates":[4.296197,46.032534],"type":"Point"},"properties":{"osm_id":"1777486318","tag":{"amenity":"recycling"}},"type":"Feature"},
	{"geometry":{"coordinates":[4.290181,46.023813],"type":"Point"},"properties":{"osm_id":"1994527113","tag":{"amenity":"recycling","recycling_type":"container"}},"type":"Feature"},
	{"geometry":{"coordinates":[4.300961,46.034589],"type":"Point"},"properties":{"osm_id":"2011502344","tag":{"amenity":"recycling"}},"type":"Feature"}
]
}
