{
"type": "FeatureCollection",
"features": [
	{"geometry":{"coordinates":[4.266659,43.758123],"type":"Point"},"properties":{"osm_id":"867479957","tag":{"amenity":"recycling","recycling:glass":"yes","recycling_type":"container"}},"type":"Feature"},
	{"geometry":{"coordinates":[4.218977,43.748328],"type":"Point"},"properties":{"osm_id":"1843069284","tag":{"amenity":"waste_basket"}},"type":"Feature"},
	{"geometry":{"coordinates":[4.264593,43.725068],"type":"Point"},"properties":{"osm_id":"1851875941","tag":{"amenity":"waste_basket"}},"type":"Feature"},
	{"geometry":{"coordinates":[4.263196,43.725093],"type":"Point"},"properties":{"osm_id":"1851875944","tag":{"amenity":"waste_basket"}},"type":"Feature"},
	{"geometry":{"coordinates":[4.264389,43.725708],"type":"Point"},"properties":{"osm_id":"1851875948","tag":{"amenity":"recycling","recycling:glass":"yes","recycling_type":"container"}},"type":"Feature"},
	{"geometry":{"coordinates":[4.265116,43.726565],"type":"Point"},"properties":{"osm_id":"1851875953","tag":{"amenity":"waste_basket"}},"type":"Feature"},
	{"geometry":{"coordinates":[4.262965,43.726786],"type":"Point"},"properties":{"osm_id":"1851875954","tag":{"amenity":"waste_basket"}},"type":"Feature"},
	{"geometry":{"coordinates":[4.263303,43.726875],"type":"Point"},"properties":{"osm_id":"1851875955","tag":{"amenity":"waste_basket"}},"type":"Feature"},
	{"geometry":{"coordinates":[4.265093,43.727205],"type":"Point"},"properties":{"osm_id":"1851875958","tag":{"amenity":"waste_basket"}},"type":"Feature"},
	{"geometry":{"coordinates":[4.263727,43.727456],"type":"Point"},"properties":{"osm_id":"1851875959","tag":{"amenity":"waste_basket"}},"type":"Feature"},
	{"geometry":{"coordinates":[4.264225,43.728668],"type":"Point"},"properties":{"osm_id":"1851875960","tag":{"amenity":"waste_basket"}},"type":"Feature"},
	{"geometry":{"coordinates":[4.264926,43.728728],"type":"Point"},"properties":{"osm_id":"1851875962","tag":{"amenity":"waste_basket"}},"type":"Feature"},
	{"geometry":{"coordinates":[4.261026,43.737492],"type":"Point"},"properties":{"osm_id":"1851875977","tag":{"amenity":"recycling","recycling:glass":"yes","recycling_type":"container"}},"type":"Feature"},
	{"geometry":{"coordinates":[4.280527,43.768358],"type":"Point"},"properties":{"osm_id":"1917666354","tag":{"amenity":"recycling","recycling:glass":"yes","recycling:paper":"yes","recycling_type":"container"}},"type":"Feature"},
	{"geometry":{"coordinates":[4.285322,43.762678],"type":"Point"},"properties":{"osm_id":"2296322532","tag":{"amenity":"recycling","recycling:glass":"yes","recycling:paper":"yes","recycling_type":"container"}},"type":"Feature"},
	{"geometry":{"coordinates":[4.224924,43.742926],"type":"Point"},"properties":{"osm_id":"3365593699","tag":{"amenity":"waste_basket"}},"type":"Feature"},
	{"geometry":{"coordinates":[4.22616,43.743104],"type":"Point"},"properties":{"osm_id":"3365593720","tag":{"amenity":"waste_basket"}},"type":"Feature"},
	{"geometry":{"coordinates":[4.225372,43.743206],"type":"Point"},"properties":{"osm_id":"3365593730","tag":{"amenity":"waste_basket"}},"type":"Feature"},
	{"geometry":{"coordinates":[4.283746,43.708387],"type":"Point"},"properties":{"barrier":"gate","osm_id":"3376461788"},"type":"Feature"},
	{"geometry":{"coordinates":[4.219826,43.736632],"type":"Point"},"properties":{"osm_id":"3715508370","tag":{"amenity":"recycling","recycling:glass":"yes","recycling_type":"container"}},"type":"Feature"},
	{"geometry":{"coordinates":[4.224748,43.736216],"type":"Point"},"properties":{"osm_id":"3715513838","tag":{"amenity":"recycling","recycling:glass":"yes","recycling_type":"container"}},"type":"Feature"},
	{"geometry":{"coordinates":[4.226799,43.735153],"type":"Point"},"properties":{"osm_id":"3715586850","tag":{"amenity":"recycling","mapillary":"-0W7nLPQ3SRS1FArzvfSZg","recycling:glass":"no","recycling:glass_bottles":"yes","recycling:paper":"yes","recycling_type":"container","survey:date":"2017-07-29"}},"type":"Feature"},
	{"geometry":{"coordinates":[4.220012,43.74359],"type":"Point"},"properties":{"osm_id":"3715857005","tag":{"amenity":"waste_basket"}},"type":"Feature"},
	{"geometry":{"coordinates":[4.220523,43.7431],"type":"Point"},"properties":{"osm_id":"3716660628","tag":{"amenity":"waste_basket"}},"type":"Feature"},
	{"geometry":{"coordinates":[4.218795,43.743112],"type":"Point"},"properties":{"osm_id":"3716660629","tag":{"amenity":"recycling","recycling:glass":"yes","recycling_type":"container"}},"type":"Feature"},
	{"geometry":{"coordinates":[4.21908,43.743171],"type":"Point"},"properties":{"osm_id":"3716660634","tag":{"amenity":"waste_basket"}},"type":"Feature"},
	{"geometry":{"coordinates":[4.220938,43.750387],"type":"Point"},"properties":{"osm_id":"3737420886","tag":{"amenity":"waste_basket"}},"type":"Feature"},
	{"geometry":{"coordinates":[4.221187,43.75052],"type":"Point"},"properties":{"osm_id":"3737420897","tag":{"amenity":"waste_basket"}},"type":"Feature"},
	{"geometry":{"coordinates":[4.219467,43.748305],"type":"Point"},"properties":{"osm_id":"3737421965","tag":{"amenity":"waste_basket"}},"type":"Feature"},
	{"geometry":{"coordinates":[4.222755,43.747416],"type":"Point"},"properties":{"osm_id":"3737955965","tag":{"amenity":"recycling","recycling:glass":"yes","recycling_type":"container"}},"type":"Feature"},
	{"geometry":{"coordinates":[4.223458,43.748491],"type":"Point"},"properties":{"osm_id":"3737955970","tag":{"amenity":"recycling","recycling:glass":"yes","recycling_type":"container"}},"type":"Feature"},
	{"geometry":{"coordinates":[4.222781,43.747421],"type":"Point"},"properties":{"osm_id":"3737968451","tag":{"amenity":"recycling","recycling:clothes":"yes","recycling_type":"container"}},"type":"Feature"},
	{"geometry":{"coordinates":[4.221171,43.730997],"type":"Point"},"properties":{"osm_id":"3751965878","tag":{"amenity":"waste_basket"}},"type":"Feature"},
	{"geometry":{"coordinates":[4.225314,43.732064],"type":"Point"},"properties":{"osm_id":"3751991497","tag":{"amenity":"recycling","mapillary":"eAdDKjVt05JfM1-MBQ7yXA","recycling:glass":"no","recycling:glass_bottles":"yes","recycling_type":"container","survey:date":"2017-09-10"}},"type":"Feature"},
	{"geometry":{"coordinates":[4.258667,43.740585],"type":"Point"},"properties":{"osm_id":"3761470585","tag":{"amenity":"recycling","recycling:clothes":"yes","recycling:glass":"yes","recycling:paper":"yes","recycling_type":"container"}},"type":"Feature"},
	{"geometry":{"coordinates":[4.258546,43.740577],"type":"Point"},"properties":{"osm_id":"3761470586","tag":{"amenity":"waste_basket"}},"type":"Feature"},
	{"geometry":{"coordinates":[4.268985,43.758622],"type":"Point"},"properties":{"osm_id":"3761503518","tag":{"amenity":"recycling","recycling:glass":"yes","recycling_type":"container"}},"type":"Feature"},
	{"geometry":{"coordinates":[4.222471,43.726729],"type":"Point"},"properties":{"osm_id":"4066944755","tag":{"amenity":"recycling","recycling:glass":"yes","recycling_type":"container"}},"type":"Feature"},
	{"geometry":{"coordinates":[4.222433,43.726753],"type":"Point"},"properties":{"osm_id":"4066944756","tag":{"amenity":"recycling","recycling:paper":"yes","recycling_type":"container"}},"type":"Feature"},
	{"geometry":{"coordinates":[4.224104,43.72859],"type":"Point"},"properties":{"osm_id":"4067183151","tag":{"amenity":"recycling","recycling:glass":"yes","recycling_type":"container"}},"type":"Feature"},
	{"geometry":{"coordinates":[4.224764,43.743901],"type":"Point"},"properties":{"osm_id":"4124497297","tag":{"amenity":"recycling","recycling:glass":"yes","recycling_type":"container"}},"type":"Feature"},
	{"geometry":{"coordinates":[4.220801,43.745038],"type":"Point"},"properties":{"osm_id":"4124497331","tag":{"amenity":"recycling","mapillary":"BfDDxXazQyk1Zf5vHJcF8w","recycling:glass":"no","recycling:glass_bottles":"yes","recycling_type":"container","survey:date":"2017-07-27"}},"type":"Feature"},
	{"geometry":{"coordinates":[4.222546,43.745653],"type":"Point"},"properties":{"osm_id":"4124528425","tag":{"amenity":"recycling","recycling:glass":"yes","recycling_type":"container"}},"type":"Feature"},
	{"geometry":{"coordinates":[4.223134,43.741029],"type":"Point"},"properties":{"osm_id":"4124563189","tag":{"amenity":"recycling","recycling:clothes":"yes","recycling_type":"container"}},"type":"Feature"},
	{"geometry":{"coordinates":[4.223127,43.741046],"type":"Point"},"properties":{"osm_id":"4124563190","tag":{"amenity":"recycling","recycling:glass":"yes","recycling_type":"container"}},"type":"Feature"},
	{"geometry":{"coordinates":[4.22312,43.741062],"type":"Point"},"properties":{"osm_id":"4124563191","tag":{"amenity":"recycling","recycling:paper":"yes","recycling_type":"container"}},"type":"Feature"},
	{"geometry":{"coordinates":[4.223105,43.742476],"type":"Point"},"properties":{"osm_id":"4124563204","tag":{"amenity":"waste_basket"}},"type":"Feature"},
	{"geometry":{"coordinates":[4.220186,43.743016],"type":"Point"},"properties":{"osm_id":"4124563222","tag":{"amenity":"waste_basket"}},"type":"Feature"},
	{"geometry":{"coordinates":[4.259216,43.740512],"type":"Point"},"properties":{"osm_id":"4913569214","tag":{"amenity":"waste_basket"}},"type":"Feature"},
	{"geometry":{"coordinates":[4.257887,43.741598],"type":"Point"},"properties":{"osm_id":"4913569218","tag":{"amenity":"waste_basket"}},"type":"Feature"},
	{"geometry":{"coordinates":[4.257914,43.741603],"type":"Point"},"properties":{"osm_id":"4913569219","tag":{"amenity":"recycling","recycling:glass":"yes","recycling_type":"container"}},"type":"Feature"},
	{"geometry":{"coordinates":[4.257508,43.743516],"type":"Point"},"properties":{"osm_id":"4913569220","tag":{"amenity":"waste_basket"}},"type":"Feature"},
	{"geometry":{"coordinates":[4.257469,43.743527],"type":"Point"},"properties":{"osm_id":"4913569621","tag":{"amenity":"recycling","recycling:paper":"yes","recycling_type":"container"}},"type":"Feature"},
	{"geometry":{"coordinates":[4.257497,43.743531],"type":"Point"},"properties":{"osm_id":"4913569622","tag":{"amenity":"recycling","recycling:glass":"yes","recycling_type":"container"}},"type":"Feature"},
	{"geometry":{"coordinates":[4.257532,43.743522],"type":"Point"},"properties":{"osm_id":"4913569623","tag":{"amenity":"recycling","recycling:clothes":"yes","recycling_type":"container"}},"type":"Feature"},
	{"geometry":{"coordinates":[4.258459,43.743766],"type":"Point"},"properties":{"osm_id":"4913569626","tag":{"amenity":"waste_basket"}},"type":"Feature"},
	{"geometry":{"coordinates":[4.258101,43.743316],"type":"Point"},"properties":{"osm_id":"4913569628","tag":{"amenity":"waste_basket"}},"type":"Feature"},
	{"geometry":{"coordinates":[4.253637,43.743439],"type":"Point"},"properties":{"osm_id":"4913569654","tag":{"amenity":"waste_basket"}},"type":"Feature"},
	{"geometry":{"coordinates":[4.253422,43.743409],"type":"Point"},"properties":{"osm_id":"4913569655","tag":{"amenity":"recycling","recycling:glass":"yes","recycling_type":"container"}},"type":"Feature"},
	{"geometry":{"coordinates":[4.255423,43.742123],"type":"Point"},"properties":{"osm_id":"4913569665","tag":{"amenity":"recycling","recycling:glass":"yes","recycling_type":"container"}},"type":"Feature"},
	{"geometry":{"coordinates":[4.255428,43.742101],"type":"Point"},"properties":{"osm_id":"4913569666","tag":{"amenity":"waste_basket"}},"type":"Feature"},
	{"geometry":{"coordinates":[4.255898,43.741377],"type":"Point"},"properties":{"osm_id":"4913569676","tag":{"amenity":"waste_basket"}},"type":"Feature"},
	{"geometry":{"coordinates":[4.257656,43.739906],"type":"Point"},"properties":{"osm_id":"4913569714","tag":{"amenity":"waste_basket"}},"type":"Feature"},
	{"geometry":{"coordinates":[4.258948,43.740407],"type":"Point"},"properties":{"osm_id":"4913569722","tag":{"amenity":"waste_basket"}},"type":"Feature"},
	{"geometry":{"coordinates":[4.258663,43.740605],"type":"Point"},"properties":{"osm_id":"4913569723","tag":{"amenity":"waste_basket"}},"type":"Feature"},
	{"geometry":{"coordinates":[4.260137,43.741171],"type":"Point"},"properties":{"osm_id":"4913578900","tag":{"amenity":"waste_basket"}},"type":"Feature"},
	{"geometry":{"coordinates":[4.267779,43.757978],"type":"Point"},"properties":{"osm_id":"4914695835","tag":{"amenity":"recycling","recycling:glass":"yes","recycling_type":"container"}},"type":"Feature"},
	{"geometry":{"coordinates":[4.267796,43.757983],"type":"Point"},"properties":{"osm_id":"4914695836","tag":{"amenity":"recycling","recycling:paper":"yes","recycling_type":"container"}},"type":"Feature"},
	{"geometry":{"coordinates":[4.219615,43.743934],"type":"Point"},"properties":{"osm_id":"4998313781","tag":{"amenity":"waste_basket"}},"type":"Feature"},
	{"geometry":{"coordinates":[4.219646,43.732101],"type":"Point"},"properties":{"osm_id":"5002167536","tag":{"amenity":"waste_basket"}},"type":"Feature"},
	{"geometry":{"coordinates":[4.21902,43.732166],"type":"Point"},"properties":{"osm_id":"5002167562","tag":{"amenity":"waste_basket"}},"type":"Feature"},
	{"geometry":{"coordinates":[4.218762,43.732347],"type":"Point"},"properties":{"osm_id":"5002167570","tag":{"amenity":"waste_basket"}},"type":"Feature"},
	{"geometry":{"coordinates":[4.229606,43.74185],"type":"Point"},"properties":{"osm_id":"5002213373","tag":{"amenity":"recycling","recycling:glass":"yes","recycling_type":"container"}},"type":"Feature"},
	{"geometry":{"coordinates":[4.221271,43.725593],"type":"Point"},"properties":{"osm_id":"5095457535","tag":{"amenity":"recycling","recycling:glass":"yes","recycling_type":"container"}},"type":"Feature"},
	{"geometry":{"coordinates":[4.219248,43.732119],"type":"Point"},"properties":{"osm_id":"5095457559","tag":{"amenity":"waste_basket"}},"type":"Feature"},
	{"geometry":{"coordinates":[4.219632,43.739902],"type":"Point"},"properties":{"osm_id":"5095677994","tag":{"amenity":"recycling","recycling:glass":"yes","recycling_type":"container"}},"type":"Feature"},
	{"geometry":{"coordinates":[4.222482,43.738581],"type":"Point"},"properties":{"osm_id":"5095678127","tag":{"amenity":"recycling","mapillary":"e4ZT61oGzQCbHTE9bEQ9xw","recycling:glass":"no","recycling:glass_bottles":"yes","recycling_type":"container","survey:date":"2017-09-10"}},"type":"Feature"},
	{"geometry":{"coordinates":[4.225336,43.732069],"type":"Point"},"properties":{"osm_id":"5095678276","tag":{"amenity":"recycling","recycling:paper":"yes","recycling_type":"container"}},"type":"Feature"},
	{"geometry":{"coordinates":[4.284264,43.769273],"type":"Point"},"properties":{"osm_id":"5270364311","tag":{"amenity":"recycling","recycling:glass":"yes","recycling:glass_bottles":"yes","recycling:plastic":"yes","recycling:plastic_bottles":"yes","recycling:plastic_packaging":"yes","recycling_type":"container"}},"type":"Feature"},
	{"geometry":{"coordinates":[4.219177,43.739991],"type":"Point"},"properties":{"osm_id":"6553520488","tag":{"amenity":"waste_basket"}},"type":"Feature"},
	{"geometry":{"coordinates":[4.226562,43.740943],"type":"Point"},"properties":{"osm_id":"7446831115","tag":{"amenity":"waste_basket"}},"type":"Feature"}
]
}
