{
"type": "FeatureCollection",
"features": [
	{"geometry":{"coordinates":[37.402749,55.898638],"type":"Point"},"properties":{"osm_id":"759482100","tag":{"amenity":"waste_disposal","waste":"trash"}},"type":"Feature"},
	{"geometry":{"coordinates":[37.400398,55.902498],"type":"Point"},"properties":{"osm_id":"759482107","tag":{"amenity":"waste_disposal","waste":"trash"}},"type":"Feature"},
	{"geometry":{"coordinates":[37.393998,55.904049],"type":"Point"},"properties":{"osm_id":"980557452","tag":{"amenity":"waste_disposal","waste":"trash"}},"type":"Feature"},
	{"geometry":{"coordinates":[37.40132,55.900564],"type":"Point"},"properties":{"osm_id":"1031610706","tag":{"amenity":"waste_disposal","waste":"trash"}},"type":"Feature"},
	{"geometry":{"coordinates":[37.402582,55.899596],"type":"Point"},"properties":{"osm_id":"1031649779","tag":{"amenity":"waste_disposal","waste":"trash"}},"type":"Feature"},
	{"geometry":{"coordinates":[37.400354,55.901983],"type":"Point"},"properties":{"osm_id":"1243211841","tag":{"amenity":"waste_disposal","waste":"trash"}},"type":"Feature"},
	{"geometry":{"coordinates":[37.392378,55.906999],"type":"Point"},"properties":{"osm_id":"2165861142","tag":{"amenity":"waste_disposal"}},"type":"Feature"},
	{"geometry":{"coordinates":[37.416315,55.883512],"type":"Point"},"properties":{"osm_id":"2401308787","tag":{"amenity":"waste_disposal"}},"type":"Feature"},
	{"geometry":{"coordinates":[37.421011,55.881765],"type":"Point"},"properties":{"osm_id":"2443362295","tag":{"amenity":"waste_disposal"}},"type":"Feature"},
	{"geometry":{"coordinates":[37.419742,55.896041],"type":"Point"},"properties":{"osm_id":"2493482741","tag":{"amenity":"waste_disposal"}},"type":"Feature"},
	{"geometry":{"coordinates":[37.384416,55.911069],"type":"Point"},"properties":{"osm_id":"2506208775","tag":{"amenity":"waste_disposal"}},"type":"Feature"},
	{"geometry":{"coordinates":[37.398472,55.910841],"type":"Point"},"properties":{"osm_id":"4175052504","tag":{"amenity":"waste_basket"}},"type":"Feature"},
	{"geometry":{"coordinates":[37.39843,55.91086],"type":"Point"},"properties":{"osm_id":"4175052505","tag":{"amenity":"waste_basket"}},"type":"Feature"},
	{"geometry":{"coordinates":[37.417104,55.878674],"type":"Point"},"properties":{"osm_id":"4359304351","tag":{"amenity":"waste_disposal"}},"type":"Feature"},
	{"geometry":{"coordinates":[37.439587,55.893926],"type":"Point"},"properties":{"osm_id":"4693222691","tag":{"amenity":"waste_disposal"}},"type":"Feature"},
	{"geometry":{"coordinates":[37.437459,55.893686],"type":"Point"},"properties":{"osm_id":"4693248089","tag":{"amenity":"waste_disposal"}},"type":"Feature"},
	{"geometry":{"coordinates":[37.416629,55.921272],"type":"Point"},"properties":{"osm_id":"5550709474","tag":{"access":"private","amenity":"waste_disposal"}},"type":"Feature"},
	{"geometry":{"coordinates":[37.426089,55.889779],"type":"Point"},"properties":{"osm_id":"5574777200","tag":{"amenity":"waste_disposal"}},"type":"Feature"},
	{"geometry":{"coordinates":[37.401815,55.901389],"type":"Point"},"properties":{"osm_id":"5599992553","tag":{"amenity":"waste_disposal"}},"type":"Feature"},
	{"geometry":{"coordinates":[37.434829,55.894744],"type":"Point"},"properties":{"osm_id":"5633452322","tag":{"amenity":"waste_disposal"}},"type":"Feature"},
	{"geometry":{"coordinates":[37.434834,55.894774],"type":"Point"},"properties":{"osm_id":"5677850175","tag":{"amenity":"recycling"}},"type":"Feature"},
	{"geometry":{"coordinates":[37.3909,55.911842],"type":"Point"},"properties":{"osm_id":"5764006834","tag":{"amenity":"recycling","collection_times":"We-Sa 16:00-18:00,18:15-20:00; Th off","recycling:glass":"yes","recycling:paper":"yes","recycling:plastic":"yes","recycling:plastic_bottles":"yes","recycling:scrap_metal":"yes","recycling_type":"centre"}},"type":"Feature"},
	{"geometry":{"coordinates":[37.401214,55.910596],"type":"Point"},"properties":{"osm_id":"5770763562","tag":{"amenity":"recycling","recycling:batteries":"yes","recycling:fluorescent_tubes":"yes","recycling_type":"container"}},"type":"Feature"},
	{"geometry":{"coordinates":[37.427815,55.889224],"type":"Point"},"properties":{"osm_id":"5840262223","tag":{"amenity":"waste_disposal"}},"type":"Feature"},
	{"geometry":{"coordinates":[37.40115,55.904008],"type":"Point"},"properties":{"osm_id":"6117846931","tag":{"amenity":"waste_disposal","waste":"trash"}},"type":"Feature"},
	{"geometry":{"coordinates":[37.408283,55.915476],"type":"Point"},"properties":{"osm_id":"6524254489","tag":{"amenity":"waste_disposal","operator":"\u00d0\u00a5\u00d0\u00b8\u00d0\u00bc\u00d0\u00ba\u00d0\u00b8-\u00d0\u009a\u00d0\u00be\u00d0\u00bc\u00d1\u0084\u00d0\u00be\u00d1\u0080\u00d1\u0082"}},"type":"Feature"},
	{"geometry":{"coordinates":[37.407521,55.915866],"type":"Point"},"properties":{"osm_id":"6524354486","tag":{"amenity":"waste_disposal","operator":"\u00d0\u00a5\u00d0\u00b8\u00d0\u00bc\u00d0\u00ba\u00d0\u00b8-\u00d0\u009a\u00d0\u00be\u00d0\u00bc\u00d1\u0084\u00d0\u00be\u00d1\u0080\u00d1\u0082"}},"type":"Feature"},
	{"geometry":{"coordinates":[37.410157,55.915398],"type":"Point"},"properties":{"osm_id":"6524354487","tag":{"amenity":"waste_disposal","operator":"\u00d0\u00a5\u00d0\u00b8\u00d0\u00bc\u00d0\u00ba\u00d0\u00b8-\u00d0\u009a\u00d0\u00be\u00d0\u00bc\u00d1\u0084\u00d0\u00be\u00d1\u0080\u00d1\u0082"}},"type":"Feature"},
	{"geometry":{"coordinates":[37.414072,55.915207],"type":"Point"},"properties":{"osm_id":"6524433894","tag":{"amenity":"waste_disposal"}},"type":"Feature"},
	{"geometry":{"coordinates":[37.414666,55.916724],"type":"Point"},"properties":{"osm_id":"6533137887","tag":{"amenity":"waste_disposal"}},"type":"Feature"},
	{"geometry":{"coordinates":[37.397266,55.907077],"type":"Point"},"properties":{"osm_id":"7226614202","tag":{"amenity":"waste_disposal","waste":"trash"}},"type":"Feature"},
	{"geometry":{"coordinates":[37.401769,55.903027],"type":"Point"},"properties":{"osm_id":"7226614209","tag":{"amenity":"waste_disposal","waste":"trash"}},"type":"Feature"},
	{"geometry":{"coordinates":[37.40368,55.900868],"type":"Point"},"properties":{"osm_id":"7226614210","tag":{"amenity":"waste_disposal","waste":"trash"}},"type":"Feature"},
	{"geometry":{"coordinates":[37.396228,55.907955],"type":"Point"},"properties":{"osm_id":"7549130710","tag":{"amenity":"waste_disposal","waste":"trash"}},"type":"Feature"},
	{"geometry":{"coordinates":[37.395923,55.893275],"type":"Point"},"properties":{"osm_id":"7637923462","tag":{"amenity":"waste_basket","material":"metal"}},"type":"Feature"},
	{"geometry":{"coordinates":[37.397075,55.893289],"type":"Point"},"properties":{"osm_id":"7637942591","tag":{"amenity":"waste_basket","material":"metal"}},"type":"Feature"},
	{"geometry":{"coordinates":[37.396423,55.893066],"type":"Point"},"properties":{"osm_id":"7637942592","tag":{"amenity":"waste_disposal"}},"type":"Feature"},
	{"geometry":{"coordinates":[37.395248,55.893026],"type":"Point"},"properties":{"osm_id":"7639742967","tag":{"amenity":"waste_disposal"}},"type":"Feature"},
	{"geometry":{"coordinates":[37.395521,55.908124],"type":"Point"},"properties":{"osm_id":"7755721185","tag":{"amenity":"waste_basket"}},"type":"Feature"}
]
}
