{
"type": "FeatureCollection",
"lastupdate": "2020-08-06T00:00:00Z",
"features": [
	{"geometry":{"coordinates":[37.415216,55.868837],"type":"Point"},"properties":{"osm_id":"1229943565","tag":{"amenity":"waste_basket"}},"type":"Feature"},
	{"geometry":{"coordinates":[37.417457,55.833014],"type":"Point"},"properties":{"osm_id":"1672372006","tag":{"amenity":"waste_basket","waste":"trash"}},"type":"Feature"},
	{"geometry":{"coordinates":[37.411452,55.858386],"type":"Point"},"properties":{"osm_id":"3149587472","tag":{"amenity":"waste_basket"}},"type":"Feature"},
	{"geometry":{"coordinates":[37.408818,55.857471],"type":"Point"},"properties":{"osm_id":"3149587500","tag":{"amenity":"waste_basket"}},"type":"Feature"},
	{"geometry":{"coordinates":[37.373424,55.855866],"type":"Point"},"properties":{"osm_id":"3487768805","tag":{"amenity":"recycling","recycling:glass":"yes","recycling:paper":"yes","recycling_type":"container"}},"type":"Feature"},
	{"geometry":{"coordinates":[37.35884,55.849311],"type":"Point"},"properties":{"osm_id":"3760425038","tag":{"amenity":"waste_basket"}},"type":"Feature"},
	{"geometry":{"coordinates":[37.359133,55.849495],"type":"Point"},"properties":{"osm_id":"3760425046","tag":{"amenity":"waste_basket"}},"type":"Feature"},
	{"geometry":{"coordinates":[37.383677,55.83458],"type":"Point"},"properties":{"osm_id":"3785963615","tag":{"amenity":"waste_basket"}},"type":"Feature"},
	{"geometry":{"coordinates":[37.38373,55.834597],"type":"Point"},"properties":{"osm_id":"3785963618","tag":{"amenity":"waste_basket"}},"type":"Feature"},
	{"geometry":{"coordinates":[37.383763,55.834616],"type":"Point"},"properties":{"osm_id":"3785963628","tag":{"amenity":"waste_basket"}},"type":"Feature"},
	{"geometry":{"coordinates":[37.38337,55.834616],"type":"Point"},"properties":{"osm_id":"3785963630","tag":{"amenity":"waste_basket"}},"type":"Feature"},
	{"geometry":{"coordinates":[37.383353,55.834633],"type":"Point"},"properties":{"osm_id":"3785963636","tag":{"amenity":"waste_basket"}},"type":"Feature"},
	{"geometry":{"coordinates":[37.383813,55.834666],"type":"Point"},"properties":{"osm_id":"3785963645","tag":{"amenity":"waste_basket"}},"type":"Feature"},
	{"geometry":{"coordinates":[37.364179,55.849675],"type":"Point"},"properties":{"osm_id":"3798791923","tag":{"amenity":"waste_basket"}},"type":"Feature"},
	{"geometry":{"coordinates":[37.357746,55.852916],"type":"Point"},"properties":{"osm_id":"4289374904","tag":{"amenity":"waste_basket"}},"type":"Feature"},
	{"geometry":{"coordinates":[37.4354,55.861682],"type":"Point"},"properties":{"osm_id":"4443787890","tag":{"amenity":"waste_basket"}},"type":"Feature"},
	{"geometry":{"coordinates":[37.435726,55.861589],"type":"Point"},"properties":{"osm_id":"4443807416","tag":{"amenity":"waste_basket"}},"type":"Feature"},
	{"geometry":{"coordinates":[37.435688,55.86162],"type":"Point"},"properties":{"osm_id":"4443807418","tag":{"amenity":"waste_basket"}},"type":"Feature"},
	{"geometry":{"coordinates":[37.435647,55.861657],"type":"Point"},"properties":{"osm_id":"4443807420","tag":{"amenity":"waste_basket"}},"type":"Feature"},
	{"geometry":{"coordinates":[37.435502,55.861739],"type":"Point"},"properties":{"osm_id":"4443807425","tag":{"amenity":"waste_basket"}},"type":"Feature"},
	{"geometry":{"coordinates":[37.381558,55.840564],"type":"Point"},"properties":{"osm_id":"5084144692","tag":{"amenity":"recycling","location":"overground","recycling:aluminium":"Yes","recycling:bottles":"Yes","recycling:paper":"yes","recycling:plastic_bottles":"yes","recycling_type":"container"}},"type":"Feature"},
	{"geometry":{"coordinates":[37.389263,55.838045],"type":"Point"},"properties":{"osm_id":"5084892712","tag":{"amenity":"recycling","location":"overground","operator":"\u042d\u043a\u043e \u0413\u0440\u0443\u043f\u043f","recycling:plastic_bottles":"yes","recycling_type":"container"}},"type":"Feature"},
	{"geometry":{"coordinates":[37.437499,55.861784],"type":"Point"},"properties":{"osm_id":"5113429246","tag":{"amenity":"waste_basket"}},"type":"Feature"},
	{"geometry":{"coordinates":[37.437212,55.861813],"type":"Point"},"properties":{"osm_id":"5113429247","tag":{"amenity":"waste_basket"}},"type":"Feature"},
	{"geometry":{"coordinates":[37.440836,55.862545],"type":"Point"},"properties":{"osm_id":"5124381358","tag":{"amenity":"waste_basket"}},"type":"Feature"},
	{"geometry":{"coordinates":[37.440582,55.86255],"type":"Point"},"properties":{"osm_id":"5124381359","tag":{"amenity":"waste_basket"}},"type":"Feature"},
	{"geometry":{"coordinates":[37.439947,55.861993],"type":"Point"},"properties":{"osm_id":"5128363323","tag":{"amenity":"waste_basket"}},"type":"Feature"},
	{"geometry":{"coordinates":[37.436918,55.861812],"type":"Point"},"properties":{"osm_id":"5128363324","tag":{"amenity":"waste_basket"}},"type":"Feature"},
	{"geometry":{"coordinates":[37.423571,55.844587],"type":"Point"},"properties":{"osm_id":"5133123004","tag":{"amenity":"recycling","recycling:car_batteries":"yes","recycling_type":"centre"}},"type":"Feature"},
	{"geometry":{"coordinates":[37.427898,55.85062],"type":"Point"},"properties":{"osm_id":"5163910244","tag":{"amenity":"recycling","opening_hours":"24/7","operator":"\u041e\u041e\u041e \u00ab\u0421\u043f\u0435\u0446\u0442\u0440\u0430\u043d\u0441\u00bb","recycling:plastic_bottles":"yes","recycling_type":"container","website":"http://spt.moscow/"}},"type":"Feature"},
	{"geometry":{"coordinates":[37.428034,55.855275],"type":"Point"},"properties":{"osm_id":"5163910245","tag":{"amenity":"recycling","opening_hours":"24/7","operator":"\u041e\u041e\u041e \u00ab\u0421\u043f\u0435\u0446\u0442\u0440\u0430\u043d\u0441\u00bb","recycling:plastic_bottles":"yes","recycling_type":"container","website":"http://spt.moscow/"}},"type":"Feature"},
	{"geometry":{"coordinates":[37.430492,55.856148],"type":"Point"},"properties":{"osm_id":"5163910246","tag":{"amenity":"recycling","opening_hours":"24/7","operator":"\u041e\u041e\u041e \u00ab\u0421\u043f\u0435\u0446\u0442\u0440\u0430\u043d\u0441\u00bb","recycling:plastic_bottles":"yes","recycling_type":"container","website":"http://spt.moscow/"}},"type":"Feature"},
	{"geometry":{"coordinates":[37.422319,55.859011],"type":"Point"},"properties":{"osm_id":"5163910247","tag":{"amenity":"recycling","opening_hours":"24/7","operator":"\u041e\u041e\u041e \u00ab\u0421\u043f\u0435\u0446\u0442\u0440\u0430\u043d\u0441\u00bb","recycling:plastic_bottles":"yes","recycling_type":"container","website":"http://spt.moscow/"}},"type":"Feature"},
	{"geometry":{"coordinates":[37.433576,55.862016],"type":"Point"},"properties":{"osm_id":"5165434993","tag":{"amenity":"recycling","opening_hours":"24/7","operator":"\u041e\u041e\u041e \u00ab\u0421\u043f\u0435\u0446\u0442\u0440\u0430\u043d\u0441\u00bb","recycling:plastic_bottles":"yes","recycling_type":"container","website":"http://spt.moscow/"}},"type":"Feature"},
	{"geometry":{"coordinates":[37.43217,55.861863],"type":"Point"},"properties":{"osm_id":"5171913885","tag":{"amenity":"recycling","opening_hours":"24/7","operator":"\u041e\u041e\u041e \u00ab\u0421\u043f\u0435\u0446\u0442\u0440\u0430\u043d\u0441\u00bb","recycling:plastic_bottles":"yes","recycling_type":"container","website":"http://spt.moscow/"}},"type":"Feature"},
	{"geometry":{"coordinates":[37.431036,55.84537],"type":"Point"},"properties":{"osm_id":"5331073551","tag":{"amenity":"recycling","opening_hours":"24/7","operator":"\u041e\u041e\u041e \u00ab\u0421\u043f\u0435\u0446\u0442\u0440\u0430\u043d\u0441\u00bb","recycling:cardboard":"yes","recycling:glass":"yes","recycling:paper":"yes","recycling:plastic":"yes","recycling:scrap_metal":"yes","recycling_type":"container","website":"http://spt.moscow"}},"type":"Feature"},
	{"geometry":{"coordinates":[37.436554,55.863569],"type":"Point"},"properties":{"osm_id":"5331073552","tag":{"amenity":"recycling","opening_hours":"24/7","operator":"\u041e\u041e\u041e \u00ab\u0421\u043f\u0435\u0446\u0442\u0440\u0430\u043d\u0441\u00bb","recycling:cardboard":"yes","recycling:glass":"yes","recycling:paper":"yes","recycling:plastic":"yes","recycling:scrap_metal":"yes","recycling_type":"container","website":"http://spt.moscow"}},"type":"Feature"},
	{"geometry":{"coordinates":[37.429153,55.863324],"type":"Point"},"properties":{"osm_id":"5331073553","tag":{"amenity":"recycling","opening_hours":"24/7","operator":"\u041e\u041e\u041e \u00ab\u0421\u043f\u0435\u0446\u0442\u0440\u0430\u043d\u0441\u00bb","recycling:cardboard":"yes","recycling:glass":"yes","recycling:paper":"yes","recycling:plastic":"yes","recycling:scrap_metal":"yes","recycling_type":"container","website":"http://spt.moscow"}},"type":"Feature"},
	{"geometry":{"coordinates":[37.440989,55.826828],"type":"Point"},"properties":{"osm_id":"5420305512","tag":{"amenity":"waste_basket"}},"type":"Feature"},
	{"geometry":{"coordinates":[37.441111,55.826785],"type":"Point"},"properties":{"osm_id":"5420305513","tag":{"amenity":"waste_basket"}},"type":"Feature"},
	{"geometry":{"coordinates":[37.406237,55.855633],"type":"Point"},"properties":{"osm_id":"5527581289","tag":{"amenity":"recycling","opening_hours":"24/7","operator":"\u041e\u041e\u041e \u00ab\u0421\u043f\u0435\u0446\u0442\u0440\u0430\u043d\u0441\u00bb","recycling:cardboard":"yes","recycling:glass":"yes","recycling:paper":"yes","recycling:plastic":"yes","recycling:scrap_metal":"yes","recycling_type":"container","website":"http://www.spt.moscow/"}},"type":"Feature"},
	{"geometry":{"coordinates":[37.411019,55.857402],"type":"Point"},"properties":{"osm_id":"5527581292","tag":{"amenity":"recycling","opening_hours":"24/7","operator":"\u041e\u041e\u041e \u00ab\u0421\u043f\u0435\u0446\u0442\u0440\u0430\u043d\u0441\u00bb","recycling:cardboard":"yes","recycling:glass":"yes","recycling:paper":"yes","recycling:plastic":"yes","recycling:scrap_metal":"yes","recycling_type":"container","website":"http://www.spt.moscow/"}},"type":"Feature"},
	{"geometry":{"coordinates":[37.416139,55.857045],"type":"Point"},"properties":{"osm_id":"5527581293","tag":{"amenity":"recycling","opening_hours":"24/7","operator":"\u041e\u041e\u041e \u00ab\u0421\u043f\u0435\u0446\u0442\u0440\u0430\u043d\u0441\u00bb","recycling:cardboard":"yes","recycling:glass":"yes","recycling:paper":"yes","recycling:plastic":"yes","recycling:scrap_metal":"yes","recycling_type":"container","website":"http://www.spt.moscow/"}},"type":"Feature"},
	{"geometry":{"coordinates":[37.422134,55.855672],"type":"Point"},"properties":{"osm_id":"5527581294","tag":{"amenity":"recycling","opening_hours":"24/7","operator":"\u041e\u041e\u041e \u00ab\u0421\u043f\u0435\u0446\u0442\u0440\u0430\u043d\u0441\u00bb","recycling:cardboard":"yes","recycling:glass":"yes","recycling:paper":"yes","recycling:plastic":"yes","recycling:scrap_metal":"yes","recycling_type":"container","website":"http://www.spt.moscow/"}},"type":"Feature"},
	{"geometry":{"coordinates":[37.379452,55.835747],"type":"Point"},"properties":{"osm_id":"5580484356","tag":{"amenity":"waste_basket"}},"type":"Feature"},
	{"geometry":{"coordinates":[37.377947,55.837329],"type":"Point"},"properties":{"osm_id":"5582725222","tag":{"amenity":"waste_basket"}},"type":"Feature"},
	{"geometry":{"coordinates":[37.377948,55.837381],"type":"Point"},"properties":{"osm_id":"5582725225","tag":{"amenity":"waste_basket"}},"type":"Feature"},
	{"geometry":{"coordinates":[37.400098,55.833027],"type":"Point"},"properties":{"osm_id":"5793065570","tag":{"amenity":"waste_basket"}},"type":"Feature"},
	{"geometry":{"coordinates":[37.400763,55.832917],"type":"Point"},"properties":{"osm_id":"5793065571","tag":{"amenity":"waste_basket"}},"type":"Feature"},
	{"geometry":{"coordinates":[37.400533,55.832955],"type":"Point"},"properties":{"osm_id":"5793065573","tag":{"amenity":"waste_basket"}},"type":"Feature"},
	{"geometry":{"coordinates":[37.400409,55.832975],"type":"Point"},"properties":{"osm_id":"5793065575","tag":{"amenity":"waste_basket"}},"type":"Feature"},
	{"geometry":{"coordinates":[37.399676,55.833096],"type":"Point"},"properties":{"osm_id":"5793065580","tag":{"amenity":"waste_basket"}},"type":"Feature"},
	{"geometry":{"coordinates":[37.399349,55.833149],"type":"Point"},"properties":{"osm_id":"5793065583","tag":{"amenity":"waste_basket"}},"type":"Feature"},
	{"geometry":{"coordinates":[37.398766,55.833245],"type":"Point"},"properties":{"osm_id":"5793065587","tag":{"amenity":"waste_basket"}},"type":"Feature"},
	{"geometry":{"coordinates":[37.398529,55.833284],"type":"Point"},"properties":{"osm_id":"5793065589","tag":{"amenity":"waste_basket"}},"type":"Feature"},
	{"geometry":{"coordinates":[37.400735,55.832791],"type":"Point"},"properties":{"osm_id":"5793065595","tag":{"amenity":"waste_basket"}},"type":"Feature"},
	{"geometry":{"coordinates":[37.400351,55.832853],"type":"Point"},"properties":{"osm_id":"5793065598","tag":{"amenity":"waste_basket"}},"type":"Feature"},
	{"geometry":{"coordinates":[37.400125,55.832891],"type":"Point"},"properties":{"osm_id":"5793065600","tag":{"amenity":"waste_basket"}},"type":"Feature"},
	{"geometry":{"coordinates":[37.399915,55.832925],"type":"Point"},"properties":{"osm_id":"5793065602","tag":{"amenity":"waste_basket"}},"type":"Feature"},
	{"geometry":{"coordinates":[37.399269,55.833031],"type":"Point"},"properties":{"osm_id":"5793065607","tag":{"amenity":"waste_basket"}},"type":"Feature"},
	{"geometry":{"coordinates":[37.398544,55.83315],"type":"Point"},"properties":{"osm_id":"5793065611","tag":{"amenity":"waste_basket"}},"type":"Feature"},
	{"geometry":{"coordinates":[37.39822,55.833203],"type":"Point"},"properties":{"osm_id":"5793065614","tag":{"amenity":"waste_basket"}},"type":"Feature"},
	{"geometry":{"coordinates":[37.397858,55.833264],"type":"Point"},"properties":{"osm_id":"5793065616","tag":{"amenity":"waste_basket"}},"type":"Feature"},
	{"geometry":{"coordinates":[37.397259,55.833361],"type":"Point"},"properties":{"osm_id":"5793065619","tag":{"amenity":"waste_basket"}},"type":"Feature"},
	{"geometry":{"coordinates":[37.396942,55.833413],"type":"Point"},"properties":{"osm_id":"5793065621","tag":{"amenity":"waste_basket"}},"type":"Feature"},
	{"geometry":{"coordinates":[37.365383,55.843878],"type":"Point"},"properties":{"osm_id":"5914416524","tag":{"amenity":"recycling","opening_hours":"24/7","recycling:plastic_bottles":"yes","recycling_type":"container"}},"type":"Feature"},
	{"geometry":{"coordinates":[37.357559,55.84535],"type":"Point"},"properties":{"osm_id":"6112824383","tag":{"amenity":"recycling","recycling:plastic_bottles":"yes","recycling_type":"container"}},"type":"Feature"},
	{"geometry":{"coordinates":[37.364068,55.846268],"type":"Point"},"properties":{"osm_id":"6254074772","tag":{"amenity":"recycling","recycling:plastic_bottles":"yes","recycling_type":"container"}},"type":"Feature"},
	{"geometry":{"coordinates":[37.434791,55.826118],"type":"Point"},"properties":{"osm_id":"6259373014","tag":{"amenity":"recycling","recycling:plastic_bottles":"yes","recycling_type":"container"}},"type":"Feature"},
	{"geometry":{"coordinates":[37.36146,55.844816],"type":"Point"},"properties":{"osm_id":"6291829849","tag":{"amenity":"recycling","recycling:glass":"yes","recycling:paper":"yes","recycling:plastic":"yes","recycling_type":"container"}},"type":"Feature"},
	{"geometry":{"coordinates":[37.355387,55.844502],"type":"Point"},"properties":{"osm_id":"6350343047","tag":{"amenity":"recycling","recycling:plastic_bottles":"yes","recycling_type":"container"}},"type":"Feature"},
	{"geometry":{"coordinates":[37.354314,55.855375],"type":"Point"},"properties":{"osm_id":"6373163071","tag":{"amenity":"recycling","recycling:glass":"yes","recycling:plastic":"yes","recycling_type":"container"}},"type":"Feature"},
	{"geometry":{"coordinates":[37.382216,55.83674],"type":"Point"},"properties":{"osm_id":"6449935715","tag":{"amenity":"recycling","recycling:glass":"yes","recycling:plastic":"yes","recycling_type":"container"}},"type":"Feature"},
	{"geometry":{"coordinates":[37.368525,55.848055],"type":"Point"},"properties":{"osm_id":"6631621542","tag":{"amenity":"recycling","recycling:plastic_bottles":"yes","recycling_type":"container"}},"type":"Feature"},
	{"geometry":{"coordinates":[37.364998,55.848663],"type":"Point"},"properties":{"osm_id":"6631629523","tag":{"amenity":"recycling","recycling:plastic_bottles":"yes","recycling_type":"container"}},"type":"Feature"},
	{"geometry":{"coordinates":[37.437075,55.860862],"type":"Point"},"properties":{"osm_id":"6674353588","tag":{"amenity":"recycling","recycling:batteries":"yes","recycling_type":"container"}},"type":"Feature"},
	{"geometry":{"coordinates":[37.358888,55.841925],"type":"Point"},"properties":{"osm_id":"6769635343","tag":{"amenity":"recycling","recycling:plastic_bottles":"yes","recycling_type":"container"}},"type":"Feature"},
	{"geometry":{"coordinates":[37.361394,55.840205],"type":"Point"},"properties":{"osm_id":"6769711009","tag":{"amenity":"recycling","recycling:plastic_bottles":"yes","recycling_type":"container"}},"type":"Feature"},
	{"geometry":{"coordinates":[37.361515,55.84479],"type":"Point"},"properties":{"osm_id":"6780627694","tag":{"amenity":"recycling","recycling:plastic_bottles":"yes","recycling_type":"container"}},"type":"Feature"},
	{"geometry":{"coordinates":[37.362252,55.845929],"type":"Point"},"properties":{"osm_id":"6970116653","tag":{"amenity":"recycling","recycling:glass":"yes","recycling:plastic":"yes","recycling_type":"container"}},"type":"Feature"},
	{"geometry":{"coordinates":[37.440413,55.862591],"type":"Point"},"properties":{"osm_id":"7035363932","tag":{"amenity":"waste_basket"}},"type":"Feature"},
	{"geometry":{"coordinates":[37.441299,55.862575],"type":"Point"},"properties":{"osm_id":"7056626022","tag":{"amenity":"recycling","recycling:dry_waste":"yes","recycling:waste":"yes","recycling_type":"container"}},"type":"Feature"},
	{"geometry":{"coordinates":[37.355542,55.841922],"type":"Point"},"properties":{"osm_id":"7126876788","tag":{"amenity":"recycling","recycling:plastic_bottles":"yes","recycling_type":"container"}},"type":"Feature"},
	{"geometry":{"coordinates":[37.367667,55.841181],"type":"Point"},"properties":{"osm_id":"7545516214","tag":{"amenity":"recycling","recycling:plastic_bottles":"yes","recycling_type":"container"}},"type":"Feature"},
	{"geometry":{"coordinates":[37.354734,55.849821],"type":"Point"},"properties":{"osm_id":"7562972855","tag":{"amenity":"recycling","recycling:glass":"yes","recycling:plastic":"yes","recycling_type":"container"}},"type":"Feature"},
	{"geometry":{"coordinates":[37.353991,55.836323],"type":"Point"},"properties":{"osm_id":"7700609507","tag":{"amenity":"recycling","recycling:plastic_bottles":"yes","recycling_type":"container"}},"type":"Feature"},
	{"geometry":{"coordinates":[37.354069,55.833955],"type":"Point"},"properties":{"osm_id":"7762866585","tag":{"amenity":"waste_basket"}},"type":"Feature"},
	{"geometry":{"coordinates":[37.355943,55.833527],"type":"Point"},"properties":{"osm_id":"7762866685","tag":{"amenity":"waste_basket"}},"type":"Feature"},
	{"geometry":{"coordinates":[37.383874,55.834186],"type":"Point"},"properties":{"osm_id":"7771220811","tag":{"amenity":"waste_basket"}},"type":"Feature"}
]
}
