{
"type": "FeatureCollection",
"features": [
	{"geometry":{"coordinates":[37.411311,55.810323],"type":"Point"},"properties":{"osm_id":"581004718","tag":{"amenity":"waste_disposal"}},"type":"Feature"},
	{"geometry":{"coordinates":[37.408942,55.811666],"type":"Point"},"properties":{"osm_id":"602527719","tag":{"amenity":"waste_disposal"}},"type":"Feature"},
	{"geometry":{"coordinates":[37.393635,55.818332],"type":"Point"},"properties":{"osm_id":"638971597","tag":{"amenity":"waste_basket"}},"type":"Feature"},
	{"geometry":{"coordinates":[37.396321,55.821011],"type":"Point"},"properties":{"osm_id":"638971598","tag":{"amenity":"waste_basket"}},"type":"Feature"},
	{"geometry":{"coordinates":[37.430378,55.80769],"type":"Point"},"properties":{"osm_id":"638972016","tag":{"amenity":"waste_basket"}},"type":"Feature"},
	{"geometry":{"coordinates":[37.417674,55.810824],"type":"Point"},"properties":{"osm_id":"638973288","tag":{"amenity":"waste_basket"}},"type":"Feature"},
	{"geometry":{"coordinates":[37.409918,55.81818],"type":"Point"},"properties":{"osm_id":"638975794","tag":{"amenity":"waste_basket"}},"type":"Feature"},
	{"geometry":{"coordinates":[37.397769,55.818209],"type":"Point"},"properties":{"osm_id":"675134765","tag":{"amenity":"waste_basket"}},"type":"Feature"},
	{"geometry":{"coordinates":[37.394944,55.814242],"type":"Point"},"properties":{"osm_id":"826466311","tag":{"amenity":"waste_disposal"}},"type":"Feature"},
	{"geometry":{"coordinates":[37.395035,55.815713],"type":"Point"},"properties":{"osm_id":"904639940","tag":{"amenity":"waste_basket"}},"type":"Feature"},
	{"geometry":{"coordinates":[37.367989,55.821802],"type":"Point"},"properties":{"osm_id":"1011975958","tag":{"amenity":"waste_disposal"}},"type":"Feature"},
	{"geometry":{"coordinates":[37.366961,55.822831],"type":"Point"},"properties":{"osm_id":"1011975961","tag":{"amenity":"waste_disposal"}},"type":"Feature"},
	{"geometry":{"coordinates":[37.407317,55.814827],"type":"Point"},"properties":{"osm_id":"1037259780","tag":{"amenity":"waste_basket"}},"type":"Feature"},
	{"geometry":{"coordinates":[37.432934,55.780059],"type":"Point"},"properties":{"osm_id":"1261381787","tag":{"amenity":"waste_basket"}},"type":"Feature"},
	{"geometry":{"coordinates":[37.433781,55.780107],"type":"Point"},"properties":{"osm_id":"1261381788","tag":{"amenity":"waste_basket"}},"type":"Feature"},
	{"geometry":{"coordinates":[37.434752,55.780401],"type":"Point"},"properties":{"osm_id":"1261381789","tag":{"amenity":"recycling"}},"type":"Feature"},
	{"geometry":{"coordinates":[37.435546,55.780482],"type":"Point"},"properties":{"osm_id":"1261381790","tag":{"amenity":"recycling"}},"type":"Feature"},
	{"geometry":{"coordinates":[37.436027,55.780498],"type":"Point"},"properties":{"osm_id":"1261381791","tag":{"amenity":"recycling"}},"type":"Feature"},
	{"geometry":{"coordinates":[37.429465,55.779691],"type":"Point"},"properties":{"osm_id":"1261381792","tag":{"amenity":"waste_basket"}},"type":"Feature"},
	{"geometry":{"coordinates":[37.429844,55.779799],"type":"Point"},"properties":{"osm_id":"1261381793","tag":{"amenity":"waste_basket"}},"type":"Feature"},
	{"geometry":{"coordinates":[37.430734,55.779689],"type":"Point"},"properties":{"osm_id":"1261381794","tag":{"amenity":"waste_basket"}},"type":"Feature"},
	{"geometry":{"coordinates":[37.431432,55.779835],"type":"Point"},"properties":{"osm_id":"1261381795","tag":{"amenity":"waste_basket"}},"type":"Feature"},
	{"geometry":{"coordinates":[37.43185,55.779878],"type":"Point"},"properties":{"osm_id":"1261381796","tag":{"amenity":"waste_basket"}},"type":"Feature"},
	{"geometry":{"coordinates":[37.424894,55.778276],"type":"Point"},"properties":{"osm_id":"1261381799","tag":{"amenity":"waste_basket"}},"type":"Feature"},
	{"geometry":{"coordinates":[37.431436,55.777225],"type":"Point"},"properties":{"osm_id":"1395460148","tag":{"amenity":"waste_disposal"}},"type":"Feature"},
	{"geometry":{"coordinates":[37.431413,55.777241],"type":"Point"},"properties":{"osm_id":"1395460149","tag":{"amenity":"waste_disposal"}},"type":"Feature"},
	{"geometry":{"coordinates":[37.431261,55.777384],"type":"Point"},"properties":{"osm_id":"1395460156","tag":{"amenity":"waste_disposal"}},"type":"Feature"},
	{"geometry":{"coordinates":[37.429805,55.776601],"type":"Point"},"properties":{"osm_id":"1396540254","tag":{"amenity":"waste_disposal"}},"type":"Feature"},
	{"geometry":{"coordinates":[37.413194,55.797991],"type":"Point"},"properties":{"osm_id":"1785692986","tag":{"amenity":"waste_basket"}},"type":"Feature"},
	{"geometry":{"coordinates":[37.41363,55.79832],"type":"Point"},"properties":{"osm_id":"1785692988","tag":{"amenity":"waste_disposal"}},"type":"Feature"},
	{"geometry":{"coordinates":[37.41616,55.800252],"type":"Point"},"properties":{"osm_id":"1785693020","tag":{"amenity":"waste_disposal"}},"type":"Feature"},
	{"geometry":{"coordinates":[37.366661,55.823584],"type":"Point"},"properties":{"osm_id":"2411969693","tag":{"amenity":"waste_disposal"}},"type":"Feature"},
	{"geometry":{"coordinates":[37.366173,55.824039],"type":"Point"},"properties":{"osm_id":"2411969694","tag":{"amenity":"waste_disposal"}},"type":"Feature"},
	{"geometry":{"coordinates":[37.40072,55.797779],"type":"Point"},"properties":{"osm_id":"2429000561","tag":{"amenity":"recycling"}},"type":"Feature"},
	{"geometry":{"coordinates":[37.370001,55.82285],"type":"Point"},"properties":{"osm_id":"2595547230","tag":{"amenity":"waste_disposal"}},"type":"Feature"},
	{"geometry":{"coordinates":[37.367237,55.824729],"type":"Point"},"properties":{"osm_id":"3034545634","tag":{"amenity":"waste_disposal"}},"type":"Feature"},
	{"geometry":{"coordinates":[37.411298,55.809791],"type":"Point"},"properties":{"osm_id":"3135546508","tag":{"amenity":"waste_disposal"}},"type":"Feature"},
	{"geometry":{"coordinates":[37.354758,55.82184],"type":"Point"},"properties":{"osm_id":"3212420972","tag":{"amenity":"waste_disposal"}},"type":"Feature"},
	{"geometry":{"coordinates":[37.356033,55.823261],"type":"Point"},"properties":{"osm_id":"3773086880","tag":{"amenity":"waste_disposal"}},"type":"Feature"},
	{"geometry":{"coordinates":[37.407906,55.804451],"type":"Point"},"properties":{"osm_id":"3777848157","tag":{"amenity":"waste_disposal"}},"type":"Feature"},
	{"geometry":{"coordinates":[37.374683,55.820179],"type":"Point"},"properties":{"osm_id":"3947690314","tag":{"amenity":"waste_disposal"}},"type":"Feature"},
	{"geometry":{"coordinates":[37.394049,55.804837],"type":"Point"},"properties":{"osm_id":"4194204911","tag":{"amenity":"waste_disposal"}},"type":"Feature"},
	{"geometry":{"coordinates":[37.403716,55.804668],"type":"Point"},"properties":{"osm_id":"4194206112","tag":{"amenity":"waste_disposal"}},"type":"Feature"},
	{"geometry":{"coordinates":[37.392832,55.801757],"type":"Point"},"properties":{"osm_id":"4198412123","tag":{"amenity":"waste_disposal"}},"type":"Feature"},
	{"geometry":{"coordinates":[37.401929,55.802099],"type":"Point"},"properties":{"osm_id":"4201687055","tag":{"amenity":"waste_disposal"}},"type":"Feature"},
	{"geometry":{"coordinates":[37.402308,55.800507],"type":"Point"},"properties":{"osm_id":"4201687889","tag":{"amenity":"waste_disposal"}},"type":"Feature"},
	{"geometry":{"coordinates":[37.406438,55.801306],"type":"Point"},"properties":{"osm_id":"4211232460","tag":{"amenity":"waste_disposal"}},"type":"Feature"},
	{"geometry":{"coordinates":[37.394966,55.812627],"type":"Point"},"properties":{"osm_id":"4214928427","tag":{"amenity":"waste_disposal"}},"type":"Feature"},
	{"geometry":{"coordinates":[37.417595,55.801679],"type":"Point"},"properties":{"osm_id":"4218017384","tag":{"amenity":"waste_disposal"}},"type":"Feature"},
	{"geometry":{"coordinates":[37.409202,55.800813],"type":"Point"},"properties":{"osm_id":"4218070002","tag":{"amenity":"waste_disposal"}},"type":"Feature"},
	{"geometry":{"coordinates":[37.412282,55.800266],"type":"Point"},"properties":{"osm_id":"4218071565","tag":{"amenity":"waste_disposal"}},"type":"Feature"},
	{"geometry":{"coordinates":[37.401311,55.799838],"type":"Point"},"properties":{"osm_id":"4229052651","tag":{"amenity":"waste_disposal"}},"type":"Feature"},
	{"geometry":{"coordinates":[37.40141,55.801247],"type":"Point"},"properties":{"osm_id":"4232133724","tag":{"amenity":"waste_disposal"}},"type":"Feature"},
	{"geometry":{"coordinates":[37.401235,55.802304],"type":"Point"},"properties":{"osm_id":"4232134875","tag":{"amenity":"waste_disposal"}},"type":"Feature"},
	{"geometry":{"coordinates":[37.398567,55.805169],"type":"Point"},"properties":{"osm_id":"4232134877","tag":{"amenity":"waste_disposal"}},"type":"Feature"},
	{"geometry":{"coordinates":[37.37662,55.821496],"type":"Point"},"properties":{"osm_id":"4235053117","tag":{"amenity":"waste_disposal"}},"type":"Feature"},
	{"geometry":{"coordinates":[37.404752,55.805124],"type":"Point"},"properties":{"osm_id":"4243896888","tag":{"amenity":"waste_disposal"}},"type":"Feature"},
	{"geometry":{"coordinates":[37.406037,55.802068],"type":"Point"},"properties":{"osm_id":"4245735689","tag":{"amenity":"waste_disposal"}},"type":"Feature"},
	{"geometry":{"coordinates":[37.395117,55.800064],"type":"Point"},"properties":{"osm_id":"4251318795","tag":{"amenity":"waste_disposal"}},"type":"Feature"},
	{"geometry":{"coordinates":[37.39659,55.801516],"type":"Point"},"properties":{"osm_id":"4252258277","tag":{"amenity":"waste_disposal"}},"type":"Feature"},
	{"geometry":{"coordinates":[37.397182,55.801722],"type":"Point"},"properties":{"osm_id":"4252258278","tag":{"amenity":"waste_disposal"}},"type":"Feature"},
	{"geometry":{"coordinates":[37.396149,55.804249],"type":"Point"},"properties":{"osm_id":"4252260068","tag":{"amenity":"waste_disposal"}},"type":"Feature"},
	{"geometry":{"coordinates":[37.397487,55.803987],"type":"Point"},"properties":{"osm_id":"4252267096","tag":{"amenity":"waste_disposal"}},"type":"Feature"},
	{"geometry":{"coordinates":[37.405802,55.801313],"type":"Point"},"properties":{"osm_id":"4252987259","tag":{"amenity":"waste_disposal"}},"type":"Feature"},
	{"geometry":{"coordinates":[37.394105,55.797427],"type":"Point"},"properties":{"osm_id":"4252987261","tag":{"amenity":"waste_disposal"}},"type":"Feature"},
	{"geometry":{"coordinates":[37.404579,55.802454],"type":"Point"},"properties":{"osm_id":"4307772726","tag":{"amenity":"waste_disposal"}},"type":"Feature"},
	{"geometry":{"coordinates":[37.417478,55.787593],"type":"Point"},"properties":{"osm_id":"4344323790","tag":{"amenity":"waste_disposal"}},"type":"Feature"},
	{"geometry":{"coordinates":[37.416625,55.788035],"type":"Point"},"properties":{"osm_id":"4344344190","tag":{"amenity":"waste_disposal"}},"type":"Feature"},
	{"geometry":{"coordinates":[37.435071,55.78079],"type":"Point"},"properties":{"osm_id":"4354214296","tag":{"amenity":"waste_disposal"}},"type":"Feature"},
	{"geometry":{"coordinates":[37.40262,55.806642],"type":"Point"},"properties":{"osm_id":"4607504123","tag":{"amenity":"waste_disposal"}},"type":"Feature"},
	{"geometry":{"coordinates":[37.412226,55.809195],"type":"Point"},"properties":{"osm_id":"4624334189","tag":{"amenity":"waste_disposal"}},"type":"Feature"},
	{"geometry":{"coordinates":[37.421145,55.793446],"type":"Point"},"properties":{"osm_id":"4665026082","tag":{"amenity":"waste_basket"}},"type":"Feature"},
	{"geometry":{"coordinates":[37.423793,55.792974],"type":"Point"},"properties":{"osm_id":"4665073210","tag":{"amenity":"waste_basket"}},"type":"Feature"},
	{"geometry":{"coordinates":[37.422882,55.793338],"type":"Point"},"properties":{"osm_id":"4665073211","tag":{"amenity":"waste_basket"}},"type":"Feature"},
	{"geometry":{"coordinates":[37.422007,55.793634],"type":"Point"},"properties":{"osm_id":"4665073212","tag":{"amenity":"waste_basket"}},"type":"Feature"},
	{"geometry":{"coordinates":[37.421639,55.793655],"type":"Point"},"properties":{"osm_id":"4665073213","tag":{"amenity":"waste_disposal"}},"type":"Feature"},
	{"geometry":{"coordinates":[37.420386,55.794234],"type":"Point"},"properties":{"osm_id":"4665073217","tag":{"amenity":"waste_disposal"}},"type":"Feature"},
	{"geometry":{"coordinates":[37.420275,55.794282],"type":"Point"},"properties":{"osm_id":"4665073218","tag":{"amenity":"waste_basket"}},"type":"Feature"},
	{"geometry":{"coordinates":[37.418903,55.794813],"type":"Point"},"properties":{"osm_id":"4665073220","tag":{"amenity":"waste_basket"}},"type":"Feature"},
	{"geometry":{"coordinates":[37.417543,55.795348],"type":"Point"},"properties":{"osm_id":"4665073222","tag":{"amenity":"waste_basket"}},"type":"Feature"},
	{"geometry":{"coordinates":[37.414848,55.796396],"type":"Point"},"properties":{"osm_id":"4665089199","tag":{"amenity":"waste_disposal"}},"type":"Feature"},
	{"geometry":{"coordinates":[37.415376,55.796193],"type":"Point"},"properties":{"osm_id":"4665089515","tag":{"amenity":"waste_basket"}},"type":"Feature"},
	{"geometry":{"coordinates":[37.410275,55.794098],"type":"Point"},"properties":{"osm_id":"4677311337","tag":{"amenity":"waste_basket"}},"type":"Feature"},
	{"geometry":{"coordinates":[37.410101,55.795023],"type":"Point"},"properties":{"osm_id":"4677311338","tag":{"amenity":"waste_basket"}},"type":"Feature"},
	{"geometry":{"coordinates":[37.410469,55.795568],"type":"Point"},"properties":{"osm_id":"4677311339","tag":{"amenity":"waste_basket"}},"type":"Feature"},
	{"geometry":{"coordinates":[37.410815,55.796066],"type":"Point"},"properties":{"osm_id":"4677311342","tag":{"amenity":"waste_basket"}},"type":"Feature"},
	{"geometry":{"coordinates":[37.411072,55.796331],"type":"Point"},"properties":{"osm_id":"4677311344","tag":{"amenity":"waste_basket"}},"type":"Feature"},
	{"geometry":{"coordinates":[37.37041,55.820073],"type":"Point"},"properties":{"osm_id":"4680057196","tag":{"amenity":"waste_basket"}},"type":"Feature"},
	{"geometry":{"coordinates":[37.406888,55.803532],"type":"Point"},"properties":{"osm_id":"4711035391","tag":{"amenity":"waste_disposal"}},"type":"Feature"},
	{"geometry":{"coordinates":[37.413127,55.80622],"type":"Point"},"properties":{"osm_id":"4731921622","tag":{"amenity":"recycling","operator":"\u00d0\u009e\u00d0\u009e\u00d0\u009e \u00c2\u00ab\u00d0\u00a1\u00d0\u00bf\u00d0\u00b5\u00d1\u0086\u00d1\u0082\u00d1\u0080\u00d0\u00b0\u00d0\u00bd\u00d1\u0081\u00c2\u00bb","recycling_type":"container","website":"http://spt.moscow"}},"type":"Feature"},
	{"geometry":{"coordinates":[37.421974,55.805505],"type":"Point"},"properties":{"osm_id":"4731921624","tag":{"amenity":"recycling","operator":"\u00d0\u009e\u00d0\u009e\u00d0\u009e \u00c2\u00ab\u00d0\u00a1\u00d0\u00bf\u00d0\u00b5\u00d1\u0086\u00d1\u0082\u00d1\u0080\u00d0\u00b0\u00d0\u00bd\u00d1\u0081\u00c2\u00bb","recycling_type":"container","website":"http://spt.moscow"}},"type":"Feature"},
	{"geometry":{"coordinates":[37.397001,55.799846],"type":"Point"},"properties":{"osm_id":"4754150323","tag":{"amenity":"waste_disposal"}},"type":"Feature"},
	{"geometry":{"coordinates":[37.39879,55.801195],"type":"Point"},"properties":{"osm_id":"4754150324","tag":{"amenity":"waste_disposal"}},"type":"Feature"},
	{"geometry":{"coordinates":[37.397181,55.802827],"type":"Point"},"properties":{"osm_id":"4754153122","tag":{"amenity":"waste_disposal"}},"type":"Feature"},
	{"geometry":{"coordinates":[37.41667,55.779441],"type":"Point"},"properties":{"osm_id":"4785030605","tag":{"amenity":"waste_basket"}},"type":"Feature"},
	{"geometry":{"coordinates":[37.409885,55.801232],"type":"Point"},"properties":{"osm_id":"4796403823","tag":{"amenity":"waste_disposal"}},"type":"Feature"},
	{"geometry":{"coordinates":[37.43838,55.777324],"type":"Point"},"properties":{"osm_id":"4809508604","tag":{"amenity":"recycling","recycling_type":"container"}},"type":"Feature"},
	{"geometry":{"coordinates":[37.401378,55.801991],"type":"Point"},"properties":{"osm_id":"4939692621","tag":{"amenity":"waste_disposal"}},"type":"Feature"},
	{"geometry":{"coordinates":[37.403726,55.804692],"type":"Point"},"properties":{"osm_id":"4946100308","tag":{"amenity":"recycling","recycling:plastic_bottles":"yes","recycling_type":"container"}},"type":"Feature"},
	{"geometry":{"coordinates":[37.406853,55.802272],"type":"Point"},"properties":{"osm_id":"4946100309","tag":{"amenity":"recycling","comment":"\u00d0\u0092\u00d0\u00be \u00d0\u0092\u00d0\u00ba\u00d1\u0083\u00d1\u0081\u00d0\u00b2\u00d0\u00b8\u00d0\u00bb\u00d0\u00bb\u00d0\u00b5","recycling:batteries":"yes","recycling_type":"container"}},"type":"Feature"},
	{"geometry":{"coordinates":[37.357261,55.783717],"type":"Point"},"properties":{"osm_id":"5141854772","tag":{"amenity":"waste_disposal"}},"type":"Feature"},
	{"geometry":{"coordinates":[37.398358,55.806879],"type":"Point"},"properties":{"osm_id":"5193737171","tag":{"amenity":"waste_disposal"}},"type":"Feature"},
	{"geometry":{"coordinates":[37.390588,55.798669],"type":"Point"},"properties":{"osm_id":"5588753670","tag":{"amenity":"waste_disposal"}},"type":"Feature"},
	{"geometry":{"coordinates":[37.412861,55.806167],"type":"Point"},"properties":{"osm_id":"6198611785","tag":{"amenity":"waste_disposal"}},"type":"Feature"},
	{"geometry":{"coordinates":[37.410954,55.807706],"type":"Point"},"properties":{"osm_id":"6198611790","tag":{"amenity":"waste_disposal"}},"type":"Feature"},
	{"geometry":{"coordinates":[37.399186,55.795787],"type":"Point"},"properties":{"osm_id":"6755886966","tag":{"amenity":"recycling","opening_hours":"24/7","operator":"\u00d0\u009e\u00d0\u009e\u00d0\u009e \u00c2\u00ab\u00d0\u00a1\u00d0\u00bf\u00d0\u00b5\u00d1\u0086\u00d1\u0082\u00d1\u0080\u00d0\u00b0\u00d0\u00bd\u00d1\u0081\u00c2\u00bb","recycling:cardboard":"yes","recycling:glass":"yes","recycling:paper":"yes","recycling:plastic":"yes","recycling:scrap_metal":"yes","recycling_type":"container","website":"http://www.spt.moscow/"}},"type":"Feature"},
	{"geometry":{"coordinates":[37.397136,55.793669],"type":"Point"},"properties":{"osm_id":"6755886967","tag":{"amenity":"recycling","opening_hours":"24/7","operator":"\u00d0\u009e\u00d0\u009e\u00d0\u009e \u00c2\u00ab\u00d0\u00a1\u00d0\u00bf\u00d0\u00b5\u00d1\u0086\u00d1\u0082\u00d1\u0080\u00d0\u00b0\u00d0\u00bd\u00d1\u0081\u00c2\u00bb","recycling:cardboard":"yes","recycling:glass":"yes","recycling:paper":"yes","recycling:plastic":"yes","recycling:scrap_metal":"yes","recycling_type":"container","website":"http://www.spt.moscow/"}},"type":"Feature"},
	{"geometry":{"coordinates":[37.409528,55.813214],"type":"Point"},"properties":{"osm_id":"7175455404","tag":{"amenity":"waste_disposal"}},"type":"Feature"},
	{"geometry":{"coordinates":[37.402185,55.818175],"type":"Point"},"properties":{"osm_id":"7175455428","tag":{"amenity":"waste_disposal"}},"type":"Feature"},
	{"geometry":{"coordinates":[37.431941,55.821058],"type":"Point"},"properties":{"osm_id":"7385165687","tag":{"amenity":"waste_disposal"}},"type":"Feature"},
	{"geometry":{"coordinates":[37.431921,55.82103],"type":"Point"},"properties":{"osm_id":"7385165688","tag":{"amenity":"waste_disposal"}},"type":"Feature"},
	{"geometry":{"coordinates":[37.374725,55.82017],"type":"Point"},"properties":{"osm_id":"7441091533","tag":{"amenity":"waste_disposal"}},"type":"Feature"},
	{"geometry":{"coordinates":[37.371799,55.816606],"type":"Point"},"properties":{"osm_id":"7441091621","tag":{"amenity":"waste_disposal"}},"type":"Feature"},
	{"geometry":{"coordinates":[37.371757,55.816612],"type":"Point"},"properties":{"osm_id":"7441091622","tag":{"amenity":"waste_disposal"}},"type":"Feature"},
	{"geometry":{"coordinates":[37.392895,55.798607],"type":"Point"},"properties":{"osm_id":"7557534918","tag":{"amenity":"waste_disposal"}},"type":"Feature"}
]
}
