{
"type": "FeatureCollection",
"features": [
	{"geometry":{"coordinates":[37.397421,55.645534],"type":"Point"},"properties":{"osm_id":"681736665","tag":{"amenity":"waste_disposal"}},"type":"Feature"},
	{"geometry":{"coordinates":[37.371217,55.641947],"type":"Point"},"properties":{"osm_id":"693034026","tag":{"amenity":"waste_disposal"}},"type":"Feature"},
	{"geometry":{"coordinates":[37.366859,55.641338],"type":"Point"},"properties":{"osm_id":"693301960","tag":{"amenity":"recycling"}},"type":"Feature"},
	{"geometry":{"coordinates":[37.39352,55.648808],"type":"Point"},"properties":{"osm_id":"918468605","tag":{"access":"no","amenity":"waste_disposal"}},"type":"Feature"},
	{"geometry":{"coordinates":[37.390868,55.647342],"type":"Point"},"properties":{"osm_id":"918518581","tag":{"amenity":"waste_disposal"}},"type":"Feature"},
	{"geometry":{"coordinates":[37.367429,55.644048],"type":"Point"},"properties":{"osm_id":"1742840697","tag":{"amenity":"recycling","recycling:cans":"yes","recycling:clothes":"yes","recycling:glass":"yes","recycling:paper":"yes","recycling:scrap_metal":"no"}},"type":"Feature"},
	{"geometry":{"coordinates":[37.369482,55.645825],"type":"Point"},"properties":{"osm_id":"1742840698","tag":{"amenity":"waste_disposal","recycling:cans":"yes","recycling:clothes":"yes","recycling:glass":"yes","recycling:paper":"yes","recycling:scrap_metal":"no"}},"type":"Feature"},
	{"geometry":{"coordinates":[37.371445,55.645829],"type":"Point"},"properties":{"osm_id":"1742840699","tag":{"amenity":"waste_disposal","recycling:cans":"yes","recycling:clothes":"yes","recycling:glass":"yes","recycling:paper":"yes","recycling:scrap_metal":"no"}},"type":"Feature"},
	{"geometry":{"coordinates":[37.370702,55.647377],"type":"Point"},"properties":{"osm_id":"1742840738","tag":{"amenity":"waste_disposal","recycling:cans":"yes","recycling:clothes":"yes","recycling:glass":"yes","recycling:paper":"yes","recycling:scrap_metal":"no"}},"type":"Feature"},
	{"geometry":{"coordinates":[37.370076,55.643098],"type":"Point"},"properties":{"osm_id":"1765959001","tag":{"amenity":"recycling","recycling:cans":"yes","recycling:clothes":"yes","recycling:glass":"yes","recycling:paper":"yes","recycling:scrap_metal":"no"}},"type":"Feature"},
	{"geometry":{"coordinates":[37.436959,55.674953],"type":"Point"},"properties":{"osm_id":"2349771992","tag":{"amenity":"waste_basket"}},"type":"Feature"},
	{"geometry":{"coordinates":[37.401,55.644574],"type":"Point"},"properties":{"osm_id":"2522839740","tag":{"amenity":"waste_disposal"}},"type":"Feature"},
	{"geometry":{"coordinates":[37.400072,55.654935],"type":"Point"},"properties":{"osm_id":"2522839776","tag":{"amenity":"waste_disposal"}},"type":"Feature"},
	{"geometry":{"coordinates":[37.402653,55.6555],"type":"Point"},"properties":{"osm_id":"2522839782","tag":{"amenity":"waste_disposal"}},"type":"Feature"},
	{"geometry":{"coordinates":[37.404119,55.655521],"type":"Point"},"properties":{"osm_id":"2522839783","tag":{"amenity":"waste_disposal"}},"type":"Feature"},
	{"geometry":{"coordinates":[37.403675,55.644356],"type":"Point"},"properties":{"osm_id":"2530210355","tag":{"amenity":"waste_disposal"}},"type":"Feature"},
	{"geometry":{"coordinates":[37.398602,55.652791],"type":"Point"},"properties":{"osm_id":"2542161282","tag":{"amenity":"waste_disposal"}},"type":"Feature"},
	{"geometry":{"coordinates":[37.40331,55.651357],"type":"Point"},"properties":{"osm_id":"2542245291","tag":{"amenity":"waste_disposal"}},"type":"Feature"},
	{"geometry":{"coordinates":[37.401224,55.65201],"type":"Point"},"properties":{"osm_id":"2542245302","tag":{"amenity":"waste_disposal"}},"type":"Feature"},
	{"geometry":{"coordinates":[37.406523,55.656841],"type":"Point"},"properties":{"osm_id":"2547086488","tag":{"amenity":"waste_disposal"}},"type":"Feature"},
	{"geometry":{"coordinates":[37.398242,55.647543],"type":"Point"},"properties":{"osm_id":"2559726184","tag":{"amenity":"waste_disposal"}},"type":"Feature"},
	{"geometry":{"coordinates":[37.404543,55.64566],"type":"Point"},"properties":{"osm_id":"2565654763","tag":{"amenity":"waste_disposal"}},"type":"Feature"},
	{"geometry":{"coordinates":[37.411544,55.652789],"type":"Point"},"properties":{"osm_id":"2565677364","tag":{"amenity":"waste_disposal"}},"type":"Feature"},
	{"geometry":{"coordinates":[37.411668,55.6532],"type":"Point"},"properties":{"osm_id":"2565677380","tag":{"amenity":"waste_disposal"}},"type":"Feature"},
	{"geometry":{"coordinates":[37.411488,55.653898],"type":"Point"},"properties":{"osm_id":"2565677409","tag":{"amenity":"waste_disposal"}},"type":"Feature"},
	{"geometry":{"coordinates":[37.413591,55.654827],"type":"Point"},"properties":{"osm_id":"2565693060","tag":{"amenity":"waste_disposal"}},"type":"Feature"},
	{"geometry":{"coordinates":[37.409629,55.656582],"type":"Point"},"properties":{"osm_id":"2571248715","tag":{"amenity":"waste_disposal"}},"type":"Feature"},
	{"geometry":{"coordinates":[37.410952,55.65714],"type":"Point"},"properties":{"osm_id":"2571248733","tag":{"amenity":"waste_disposal"}},"type":"Feature"},
	{"geometry":{"coordinates":[37.41127,55.658477],"type":"Point"},"properties":{"osm_id":"2571248761","tag":{"amenity":"waste_disposal"}},"type":"Feature"},
	{"geometry":{"coordinates":[37.409795,55.655731],"type":"Point"},"properties":{"osm_id":"2574176442","tag":{"amenity":"waste_disposal"}},"type":"Feature"},
	{"geometry":{"coordinates":[37.412061,55.648243],"type":"Point"},"properties":{"osm_id":"2580407602","tag":{"amenity":"waste_disposal"}},"type":"Feature"},
	{"geometry":{"coordinates":[37.395232,55.647044],"type":"Point"},"properties":{"osm_id":"2587252202","tag":{"amenity":"waste_disposal"}},"type":"Feature"},
	{"geometry":{"coordinates":[37.385148,55.6565],"type":"Point"},"properties":{"osm_id":"2662902611","tag":{"amenity":"waste_disposal"}},"type":"Feature"},
	{"geometry":{"coordinates":[37.413651,55.645894],"type":"Point"},"properties":{"osm_id":"2774698929","tag":{"amenity":"waste_disposal"}},"type":"Feature"},
	{"geometry":{"coordinates":[37.413151,55.650594],"type":"Point"},"properties":{"osm_id":"3750517350","tag":{"amenity":"waste_basket"}},"type":"Feature"},
	{"geometry":{"coordinates":[37.412867,55.650653],"type":"Point"},"properties":{"osm_id":"3750517360","tag":{"amenity":"waste_basket"}},"type":"Feature"},
	{"geometry":{"coordinates":[37.412937,55.650689],"type":"Point"},"properties":{"osm_id":"3750517361","tag":{"amenity":"waste_basket"}},"type":"Feature"},
	{"geometry":{"coordinates":[37.405225,55.650791],"type":"Point"},"properties":{"osm_id":"4425973089","tag":{"amenity":"waste_disposal"}},"type":"Feature"},
	{"geometry":{"coordinates":[37.410588,55.649977],"type":"Point"},"properties":{"osm_id":"4427554091","tag":{"amenity":"waste_disposal"}},"type":"Feature"},
	{"geometry":{"coordinates":[37.399107,55.655071],"type":"Point"},"properties":{"osm_id":"4624319260","tag":{"amenity":"waste_disposal"}},"type":"Feature"},
	{"geometry":{"coordinates":[37.428417,55.633475],"type":"Point"},"properties":{"osm_id":"4805418321","tag":{"amenity":"waste_basket"}},"type":"Feature"},
	{"geometry":{"coordinates":[37.430025,55.633127],"type":"Point"},"properties":{"osm_id":"4805418322","tag":{"amenity":"waste_basket"}},"type":"Feature"},
	{"geometry":{"coordinates":[37.429122,55.633364],"type":"Point"},"properties":{"osm_id":"4805418325","tag":{"amenity":"waste_basket"}},"type":"Feature"},
	{"geometry":{"coordinates":[37.429562,55.633202],"type":"Point"},"properties":{"osm_id":"4805418326","tag":{"amenity":"waste_basket"}},"type":"Feature"},
	{"geometry":{"coordinates":[37.383473,55.670279],"type":"Point"},"properties":{"osm_id":"4908555022","tag":{"amenity":"waste_basket"}},"type":"Feature"},
	{"geometry":{"coordinates":[37.38568,55.669962],"type":"Point"},"properties":{"osm_id":"4908575021","tag":{"amenity":"waste_basket"}},"type":"Feature"},
	{"geometry":{"coordinates":[37.396592,55.668452],"type":"Point"},"properties":{"osm_id":"4908575023","tag":{"amenity":"waste_basket"}},"type":"Feature"},
	{"geometry":{"coordinates":[37.382876,55.668679],"type":"Point"},"properties":{"osm_id":"4908575421","tag":{"amenity":"waste_basket"}},"type":"Feature"},
	{"geometry":{"coordinates":[37.391544,55.669107],"type":"Point"},"properties":{"osm_id":"4908575422","tag":{"amenity":"waste_basket"}},"type":"Feature"},
	{"geometry":{"coordinates":[37.388413,55.669592],"type":"Point"},"properties":{"osm_id":"4908575721","tag":{"amenity":"waste_basket"}},"type":"Feature"},
	{"geometry":{"coordinates":[37.394754,55.668564],"type":"Point"},"properties":{"osm_id":"4908575722","tag":{"amenity":"waste_basket"}},"type":"Feature"},
	{"geometry":{"coordinates":[37.395957,55.668402],"type":"Point"},"properties":{"osm_id":"4908575723","tag":{"amenity":"waste_basket"}},"type":"Feature"},
	{"geometry":{"coordinates":[37.401227,55.655671],"type":"Point"},"properties":{"osm_id":"4972325924","tag":{"amenity":"waste_basket"}},"type":"Feature"},
	{"geometry":{"coordinates":[37.400729,55.655618],"type":"Point"},"properties":{"osm_id":"4972325925","tag":{"amenity":"waste_basket"}},"type":"Feature"},
	{"geometry":{"coordinates":[37.40073,55.655491],"type":"Point"},"properties":{"osm_id":"4972375425","tag":{"amenity":"waste_basket"}},"type":"Feature"},
	{"geometry":{"coordinates":[37.364387,55.638072],"type":"Point"},"properties":{"osm_id":"5047366523","tag":{"amenity":"waste_basket"}},"type":"Feature"},
	{"geometry":{"coordinates":[37.364407,55.638147],"type":"Point"},"properties":{"osm_id":"5047366525","tag":{"amenity":"waste_basket"}},"type":"Feature"},
	{"geometry":{"coordinates":[37.364267,55.638215],"type":"Point"},"properties":{"osm_id":"5047366527","tag":{"amenity":"waste_basket"}},"type":"Feature"},
	{"geometry":{"coordinates":[37.364403,55.638226],"type":"Point"},"properties":{"osm_id":"5047382922","tag":{"amenity":"waste_basket"}},"type":"Feature"},
	{"geometry":{"coordinates":[37.386986,55.665564],"type":"Point"},"properties":{"osm_id":"5081475633","tag":{"amenity":"waste_basket"}},"type":"Feature"},
	{"geometry":{"coordinates":[37.383139,55.669445],"type":"Point"},"properties":{"osm_id":"5081509472","tag":{"amenity":"waste_basket"}},"type":"Feature"},
	{"geometry":{"coordinates":[37.41256,55.643428],"type":"Point"},"properties":{"osm_id":"5098538671","tag":{"amenity":"waste_disposal"}},"type":"Feature"},
	{"geometry":{"coordinates":[37.389517,55.648189],"type":"Point"},"properties":{"osm_id":"5098538672","tag":{"amenity":"waste_disposal"}},"type":"Feature"},
	{"geometry":{"coordinates":[37.39882,55.652144],"type":"Point"},"properties":{"osm_id":"5215847422","tag":{"amenity":"waste_basket"}},"type":"Feature"},
	{"geometry":{"coordinates":[37.398714,55.652178],"type":"Point"},"properties":{"osm_id":"5215847522","tag":{"amenity":"waste_basket"}},"type":"Feature"},
	{"geometry":{"coordinates":[37.398569,55.652222],"type":"Point"},"properties":{"osm_id":"5215847621","tag":{"amenity":"waste_basket"}},"type":"Feature"},
	{"geometry":{"coordinates":[37.367596,55.646154],"type":"Point"},"properties":{"osm_id":"5559392744","tag":{"amenity":"waste_disposal"}},"type":"Feature"},
	{"geometry":{"coordinates":[37.364661,55.644506],"type":"Point"},"properties":{"osm_id":"5576056668","tag":{"amenity":"waste_disposal"}},"type":"Feature"},
	{"geometry":{"coordinates":[37.439856,55.657199],"type":"Point"},"properties":{"osm_id":"5646579414","tag":{"amenity":"waste_disposal"}},"type":"Feature"},
	{"geometry":{"coordinates":[37.440939,55.657504],"type":"Point"},"properties":{"osm_id":"5646579415","tag":{"amenity":"waste_disposal"}},"type":"Feature"},
	{"geometry":{"coordinates":[37.439877,55.658582],"type":"Point"},"properties":{"osm_id":"5646579418","tag":{"amenity":"waste_disposal"}},"type":"Feature"},
	{"geometry":{"coordinates":[37.439218,55.659356],"type":"Point"},"properties":{"osm_id":"5646580424","tag":{"amenity":"waste_disposal"}},"type":"Feature"},
	{"geometry":{"coordinates":[37.438941,55.661161],"type":"Point"},"properties":{"osm_id":"5646580426","tag":{"amenity":"waste_disposal"}},"type":"Feature"},
	{"geometry":{"coordinates":[37.361765,55.641984],"type":"Point"},"properties":{"osm_id":"5699614322","tag":{"amenity":"waste_disposal"}},"type":"Feature"},
	{"geometry":{"coordinates":[37.388694,55.649879],"type":"Point"},"properties":{"osm_id":"5699621121","tag":{"amenity":"waste_disposal"}},"type":"Feature"},
	{"geometry":{"coordinates":[37.362187,55.642206],"type":"Point"},"properties":{"osm_id":"5699621122","tag":{"amenity":"waste_disposal"}},"type":"Feature"},
	{"geometry":{"coordinates":[37.402431,55.666067],"type":"Point"},"properties":{"osm_id":"5713272025","tag":{"amenity":"waste_basket"}},"type":"Feature"},
	{"geometry":{"coordinates":[37.402199,55.665322],"type":"Point"},"properties":{"osm_id":"5713291723","tag":{"amenity":"waste_basket"}},"type":"Feature"},
	{"geometry":{"coordinates":[37.367686,55.649308],"type":"Point"},"properties":{"osm_id":"5735135452","tag":{"amenity":"waste_disposal"}},"type":"Feature"},
	{"geometry":{"coordinates":[37.395507,55.667044],"type":"Point"},"properties":{"osm_id":"5801259286","tag":{"amenity":"waste_basket"}},"type":"Feature"},
	{"geometry":{"coordinates":[37.393365,55.663966],"type":"Point"},"properties":{"osm_id":"5801259288","tag":{"amenity":"waste_basket"}},"type":"Feature"},
	{"geometry":{"coordinates":[37.403801,55.667207],"type":"Point"},"properties":{"osm_id":"5801259290","tag":{"amenity":"waste_basket"}},"type":"Feature"},
	{"geometry":{"coordinates":[37.400036,55.666324],"type":"Point"},"properties":{"osm_id":"5801259292","tag":{"amenity":"waste_basket"}},"type":"Feature"},
	{"geometry":{"coordinates":[37.395511,55.666213],"type":"Point"},"properties":{"osm_id":"5801259295","tag":{"amenity":"waste_basket"}},"type":"Feature"},
	{"geometry":{"coordinates":[37.392366,55.663026],"type":"Point"},"properties":{"osm_id":"5801259297","tag":{"amenity":"waste_basket"}},"type":"Feature"},
	{"geometry":{"coordinates":[37.399362,55.666559],"type":"Point"},"properties":{"osm_id":"5801259299","tag":{"amenity":"waste_basket"}},"type":"Feature"},
	{"geometry":{"coordinates":[37.404905,55.667131],"type":"Point"},"properties":{"osm_id":"5801259300","tag":{"amenity":"waste_basket"}},"type":"Feature"},
	{"geometry":{"coordinates":[37.40351,55.668359],"type":"Point"},"properties":{"osm_id":"5801259304","tag":{"amenity":"waste_basket"}},"type":"Feature"},
	{"geometry":{"coordinates":[37.397225,55.666886],"type":"Point"},"properties":{"osm_id":"5801259305","tag":{"amenity":"waste_basket"}},"type":"Feature"},
	{"geometry":{"coordinates":[37.405258,55.667073],"type":"Point"},"properties":{"osm_id":"5801259306","tag":{"amenity":"waste_basket"}},"type":"Feature"},
	{"geometry":{"coordinates":[37.395869,55.665674],"type":"Point"},"properties":{"osm_id":"5801259307","tag":{"amenity":"waste_basket"}},"type":"Feature"},
	{"geometry":{"coordinates":[37.402766,55.66679],"type":"Point"},"properties":{"osm_id":"5801259311","tag":{"amenity":"waste_basket"}},"type":"Feature"},
	{"geometry":{"coordinates":[37.394817,55.665245],"type":"Point"},"properties":{"osm_id":"5801259312","tag":{"amenity":"waste_basket"}},"type":"Feature"},
	{"geometry":{"coordinates":[37.390563,55.662406],"type":"Point"},"properties":{"osm_id":"5801277581","tag":{"amenity":"waste_basket"}},"type":"Feature"},
	{"geometry":{"coordinates":[37.390435,55.661629],"type":"Point"},"properties":{"osm_id":"5801289295","tag":{"amenity":"waste_basket"}},"type":"Feature"},
	{"geometry":{"coordinates":[37.356489,55.637796],"type":"Point"},"properties":{"osm_id":"6205486591","tag":{"amenity":"waste_disposal"}},"type":"Feature"},
	{"geometry":{"coordinates":[37.398001,55.649781],"type":"Point"},"properties":{"osm_id":"6324709414","tag":{"amenity":"waste_disposal"}},"type":"Feature"},
	{"geometry":{"coordinates":[37.426372,55.655434],"type":"Point"},"properties":{"osm_id":"6399290316","tag":{"amenity":"waste_disposal"}},"type":"Feature"},
	{"geometry":{"coordinates":[37.366025,55.642876],"type":"Point"},"properties":{"osm_id":"6618700260","tag":{"amenity":"recycling","recycling:glass":"yes","recycling:paper":"yes","recycling:plastic":"yes","recycling_type":"container"}},"type":"Feature"},
	{"geometry":{"coordinates":[37.407843,55.656786],"type":"Point"},"properties":{"osm_id":"7134033416","tag":{"amenity":"recycling","operator":"\u00d0\u009c\u00d0\u009a\u00d0\u009c \u00d0\u009b\u00d0\u00be\u00d0\u00b3\u00d0\u00b8\u00d1\u0081\u00d1\u0082\u00d0\u00b8\u00d0\u00ba\u00d0\u00b0","recycling:books":"yes","recycling:cans":"yes","recycling:glass":"yes","recycling:paper":"yes","recycling:plastic_bottles":"yes","recycling_type":"container"}},"type":"Feature"},
	{"geometry":{"coordinates":[37.403326,55.656701],"type":"Point"},"properties":{"osm_id":"7134033417","tag":{"amenity":"recycling","recycling_type":"container"}},"type":"Feature"}
]
}
