{
"type": "FeatureCollection",
"features": [
	{"geometry":{"coordinates":[8.31784,44.859987],"type":"Point"},"properties":{"osm_id":"4535684351","tag":{"natural":"tree"}},"type":"Feature"},
	{"geometry":{"coordinates":[8.315137,44.87934],"type":"Point"},"properties":{"osm_id":"4694335221","tag":{"natural":"tree"}},"type":"Feature"},
	{"geometry":{"coordinates":[8.315092,44.879382],"type":"Point"},"properties":{"osm_id":"4694335222","tag":{"natural":"tree"}},"type":"Feature"},
	{"geometry":{"coordinates":[8.315051,44.879424],"type":"Point"},"properties":{"osm_id":"4694335223","tag":{"natural":"tree"}},"type":"Feature"},
	{"geometry":{"coordinates":[8.314979,44.879407],"type":"Point"},"properties":{"osm_id":"4694335224","tag":{"natural":"tree"}},"type":"Feature"},
	{"geometry":{"coordinates":[8.324902,44.869076],"type":"Point"},"properties":{"name":"Juniperus virginiana","osm_id":"5611618876","tag":{"denotation":"natural_monument","description":"Albero monumentale del Piemonte","leaf_cycle":"evergreen","leaf_type":"needleleaved","name:de":"Virginischer Wacholder","name:en":"Red cedar","name:fr":"Gen\u00c3\u00a9vrier de Virginie","name:it":"Ginepro della Virginia","natural":"tree"}},"type":"Feature"},
	{"geometry":{"coordinates":[8.324443,44.860005],"type":"Point"},"properties":{"name":"Fagus sylvatica","osm_id":"5611618877","tag":{"denotation":"natural_monument","description":"Albero monumentale del Piemonte","leaf_cycle":"deciduous","leaf_type":"broadleaved","name:de":"Rotbuche","name:en":"Beech","name:fr":"H\u00c3\u00aatre commun","name:it":"Faggio","natural":"tree"}},"type":"Feature"},
	{"geometry":{"coordinates":[8.285699,44.873106],"type":"Point"},"properties":{"osm_id":"6034568139","tag":{"natural":"tree"}},"type":"Feature"},
	{"geometry":{"coordinates":[8.286001,44.873068],"type":"Point"},"properties":{"osm_id":"6034568144","tag":{"natural":"tree"}},"type":"Feature"},
	{"geometry":{"coordinates":[8.286068,44.873093],"type":"Point"},"properties":{"osm_id":"6034568145","tag":{"natural":"tree"}},"type":"Feature"},
	{"geometry":{"coordinates":[8.268783,44.849886],"type":"Point"},"properties":{"osm_id":"6090676900","tag":{"natural":"tree"}},"type":"Feature"},
	{"geometry":{"coordinates":[8.268764,44.849865],"type":"Point"},"properties":{"osm_id":"6090676901","tag":{"natural":"tree"}},"type":"Feature"},
	{"geometry":{"coordinates":[8.268802,44.849908],"type":"Point"},"properties":{"osm_id":"6090676902","tag":{"natural":"tree"}},"type":"Feature"}
]
}
