{
"type": "FeatureCollection",
"features": [
	{"geometry":{"coordinates":[-95.467578,29.693009],"type":"Point"},"properties":{"osm_id":"2133915432","tag":{"amenity":"waste_basket"}},"type":"Feature"},
	{"geometry":{"coordinates":[-95.463716,29.693038],"type":"Point"},"properties":{"osm_id":"2169684100","tag":{"amenity":"waste_basket"}},"type":"Feature"},
	{"geometry":{"coordinates":[-95.467472,29.689287],"type":"Point"},"properties":{"osm_id":"2169742012","tag":{"amenity":"waste_basket"}},"type":"Feature"},
	{"geometry":{"coordinates":[-95.466643,29.705794],"type":"Point"},"properties":{"osm_id":"2612925914","tag":{"amenity":"waste_basket"}},"type":"Feature"},
	{"geometry":{"coordinates":[-95.466993,29.705793],"type":"Point"},"properties":{"osm_id":"2612925918","tag":{"amenity":"waste_basket"}},"type":"Feature"},
	{"geometry":{"coordinates":[-95.454162,29.737141],"type":"Point"},"properties":{"osm_id":"5899651995","tag":{"amenity":"waste_basket","waste":"dog_excrement"}},"type":"Feature"},
	{"geometry":{"coordinates":[-95.454901,29.75289],"type":"Point"},"properties":{"osm_id":"5899962745","tag":{"amenity":"waste_basket"}},"type":"Feature"},
	{"geometry":{"coordinates":[-95.454939,29.752368],"type":"Point"},"properties":{"osm_id":"5899977427","tag":{"amenity":"waste_basket"}},"type":"Feature"},
	{"geometry":{"coordinates":[-95.451064,29.74791],"type":"Point"},"properties":{"osm_id":"5900063051","tag":{"amenity":"waste_basket","waste":"dog_excrement"}},"type":"Feature"},
	{"geometry":{"coordinates":[-95.463558,29.750085],"type":"Point"},"properties":{"osm_id":"5900429801","tag":{"amenity":"waste_basket"}},"type":"Feature"},
	{"geometry":{"coordinates":[-95.461973,29.734287],"type":"Point"},"properties":{"osm_id":"5904035789","tag":{"amenity":"waste_basket"}},"type":"Feature"},
	{"geometry":{"coordinates":[-95.453609,29.743359],"type":"Point"},"properties":{"osm_id":"5904555942","tag":{"amenity":"waste_basket"}},"type":"Feature"},
	{"geometry":{"coordinates":[-95.449958,29.742619],"type":"Point"},"properties":{"osm_id":"5906777485","tag":{"amenity":"waste_basket","waste":"dog_excrement"}},"type":"Feature"},
	{"geometry":{"coordinates":[-95.452838,29.748717],"type":"Point"},"properties":{"osm_id":"6498060782","tag":{"amenity":"waste_basket","waste":"dog_excrement"}},"type":"Feature"},
	{"geometry":{"coordinates":[-95.452899,29.748225],"type":"Point"},"properties":{"osm_id":"6498060783","tag":{"amenity":"waste_basket","waste":"dog_excrement"}},"type":"Feature"},
	{"geometry":{"coordinates":[-95.452561,29.748409],"type":"Point"},"properties":{"osm_id":"6498060785","tag":{"amenity":"waste_basket"}},"type":"Feature"},
	{"geometry":{"coordinates":[-95.482409,29.759695],"type":"Point"},"properties":{"name":"Goodwill Donation Center","osm_id":"6917875413","tag":{"amenity":"recycling","recycling_type":"centre"}},"type":"Feature"},
	{"geometry":{"coordinates":[-95.47175,29.73742],"type":"Point"},"properties":{"osm_id":"8577213146","tag":{"amenity":"waste_disposal"}},"type":"Feature"},
	{"geometry":{"coordinates":[-95.47366,29.735823],"type":"Point"},"properties":{"osm_id":"8577213396","tag":{"amenity":"waste_disposal"}},"type":"Feature"},
	{"geometry":{"coordinates":[-95.467981,29.692305],"type":"Point"},"properties":{"osm_id":"8728682445","tag":{"amenity":"waste_basket"}},"type":"Feature"},
	{"geometry":{"coordinates":[-95.467961,29.691363],"type":"Point"},"properties":{"osm_id":"8728682446","tag":{"amenity":"waste_basket"}},"type":"Feature"},
	{"geometry":{"coordinates":[-95.468718,29.691339],"type":"Point"},"properties":{"osm_id":"8728682451","tag":{"amenity":"waste_basket"}},"type":"Feature"},
	{"geometry":{"coordinates":[-95.468752,29.691337],"type":"Point"},"properties":{"osm_id":"8728682452","tag":{"amenity":"waste_basket"}},"type":"Feature"},
	{"geometry":{"coordinates":[-95.468792,29.691337],"type":"Point"},"properties":{"osm_id":"8728682453","tag":{"amenity":"waste_basket"}},"type":"Feature"},
	{"geometry":{"coordinates":[-95.468838,29.691336],"type":"Point"},"properties":{"osm_id":"8728682454","tag":{"amenity":"waste_basket"}},"type":"Feature"},
	{"geometry":{"coordinates":[-95.468879,29.691336],"type":"Point"},"properties":{"osm_id":"8728682455","tag":{"amenity":"waste_basket"}},"type":"Feature"},
	{"geometry":{"coordinates":[-95.468926,29.691335],"type":"Point"},"properties":{"osm_id":"8728682456","tag":{"amenity":"waste_basket"}},"type":"Feature"},
	{"geometry":{"coordinates":[-95.468965,29.691334],"type":"Point"},"properties":{"osm_id":"8728682457","tag":{"amenity":"waste_basket"}},"type":"Feature"},
	{"geometry":{"coordinates":[-95.469006,29.691335],"type":"Point"},"properties":{"osm_id":"8728682458","tag":{"amenity":"waste_basket"}},"type":"Feature"},
	{"geometry":{"coordinates":[-95.46877,29.691782],"type":"Point"},"properties":{"osm_id":"8728682496","tag":{"amenity":"waste_basket"}},"type":"Feature"},
	{"geometry":{"coordinates":[-95.46873,29.691784],"type":"Point"},"properties":{"osm_id":"8728682497","tag":{"amenity":"waste_basket"}},"type":"Feature"},
	{"geometry":{"coordinates":[-95.468993,29.69178],"type":"Point"},"properties":{"osm_id":"8728682499","tag":{"amenity":"waste_basket"}},"type":"Feature"}
]
}
