{
"type": "FeatureCollection",
"features": [
	{"geometry":{"coordinates":[-53.717272,-29.71245],"type":"Point"},"properties":{"osm_id":"2852674094","tag":{"amenity":"waste_basket"}},"type":"Feature"},
	{"geometry":{"coordinates":[-53.718124,-29.711207],"type":"Point"},"properties":{"osm_id":"2852941921","tag":{"amenity":"waste_disposal"}},"type":"Feature"},
	{"geometry":{"coordinates":[-53.717635,-29.711855],"type":"Point"},"properties":{"osm_id":"2852976502","tag":{"amenity":"waste_basket"}},"type":"Feature"},
	{"geometry":{"coordinates":[-53.716938,-29.714012],"type":"Point"},"properties":{"osm_id":"2853002945","tag":{"amenity":"waste_disposal"}},"type":"Feature"},
	{"geometry":{"coordinates":[-53.717784,-29.714826],"type":"Point"},"properties":{"osm_id":"2853040964","tag":{"amenity":"recycling","recycling:plastic":"yes","recycling:scrap_metal":"yes","recycling_type":"container"}},"type":"Feature"},
	{"geometry":{"coordinates":[-53.718898,-29.714342],"type":"Point"},"properties":{"osm_id":"2853040978","tag":{"amenity":"waste_disposal"}},"type":"Feature"},
	{"geometry":{"coordinates":[-53.717798,-29.714768],"type":"Point"},"properties":{"osm_id":"2853044044","tag":{"amenity":"waste_basket"}},"type":"Feature"},
	{"geometry":{"coordinates":[-53.718595,-29.715568],"type":"Point"},"properties":{"osm_id":"2853044047","tag":{"amenity":"waste_disposal"}},"type":"Feature"},
	{"geometry":{"coordinates":[-53.71822,-29.714466],"type":"Point"},"properties":{"osm_id":"2853044052","tag":{"amenity":"waste_basket","natural":"tree","shop":"copyshop"}},"type":"Feature"},
	{"geometry":{"coordinates":[-53.71734,-29.704097],"type":"Point"},"properties":{"osm_id":"2868314390","tag":{"amenity":"waste_disposal"}},"type":"Feature"},
	{"geometry":{"coordinates":[-53.736058,-29.701],"type":"Point"},"properties":{"osm_id":"3268171992","tag":{"amenity":"waste_basket"}},"type":"Feature"},
	{"geometry":{"coordinates":[-53.736322,-29.701129],"type":"Point"},"properties":{"osm_id":"3268172007","tag":{"amenity":"waste_basket"}},"type":"Feature"},
	{"geometry":{"coordinates":[-53.736167,-29.701255],"type":"Point"},"properties":{"osm_id":"3268172023","tag":{"amenity":"waste_basket"}},"type":"Feature"},
	{"geometry":{"coordinates":[-53.716763,-29.701863],"type":"Point"},"properties":{"osm_id":"3310194516","tag":{"amenity":"waste_disposal"}},"type":"Feature"},
	{"geometry":{"coordinates":[-53.718704,-29.710543],"type":"Point"},"properties":{"osm_id":"4109808380","tag":{"amenity":"waste_basket"}},"type":"Feature"},
	{"geometry":{"coordinates":[-53.717749,-29.717971],"type":"Point"},"properties":{"osm_id":"4207427539","tag":{"amenity":"waste_disposal"}},"type":"Feature"},
	{"geometry":{"coordinates":[-53.71537,-29.712786],"type":"Point"},"properties":{"osm_id":"4207556874","tag":{"amenity":"recycling","recycling:paper":"yes","recycling:plastic":"yes","recycling:scrap_metal":"yes","recycling:waste":"yes","recycling_type":"container"}},"type":"Feature"},
	{"geometry":{"coordinates":[-53.714995,-29.708963],"type":"Point"},"properties":{"osm_id":"4222087168","tag":{"amenity":"waste_disposal"}},"type":"Feature"},
	{"geometry":{"coordinates":[-53.715078,-29.70957],"type":"Point"},"properties":{"osm_id":"4222087171","tag":{"amenity":"waste_disposal"}},"type":"Feature"},
	{"geometry":{"coordinates":[-53.732232,-29.69848],"type":"Point"},"properties":{"osm_id":"4713711710","tag":{"amenity":"waste_disposal"}},"type":"Feature"},
	{"geometry":{"coordinates":[-53.717867,-29.71701],"type":"Point"},"properties":{"osm_id":"4820742081","tag":{"amenity":"waste_disposal"}},"type":"Feature"},
	{"geometry":{"coordinates":[-53.717908,-29.717017],"type":"Point"},"properties":{"osm_id":"4820742083","tag":{"amenity":"waste_disposal"}},"type":"Feature"},
	{"geometry":{"coordinates":[-53.715928,-29.71563],"type":"Point"},"properties":{"osm_id":"4820742085","tag":{"amenity":"waste_basket"}},"type":"Feature"},
	{"geometry":{"coordinates":[-53.717365,-29.709265],"type":"Point"},"properties":{"osm_id":"4820742120","tag":{"amenity":"waste_disposal"}},"type":"Feature"},
	{"geometry":{"coordinates":[-53.716255,-29.716669],"type":"Point"},"properties":{"osm_id":"4820755559","tag":{"amenity":"waste_disposal"}},"type":"Feature"},
	{"geometry":{"coordinates":[-53.716602,-29.716819],"type":"Point"},"properties":{"osm_id":"4820755560","tag":{"amenity":"waste_disposal"}},"type":"Feature"},
	{"geometry":{"coordinates":[-53.717533,-29.716817],"type":"Point"},"properties":{"osm_id":"4820755561","tag":{"amenity":"waste_basket"}},"type":"Feature"},
	{"geometry":{"coordinates":[-53.717075,-29.716869],"type":"Point"},"properties":{"osm_id":"4820755562","tag":{"amenity":"waste_disposal"}},"type":"Feature"},
	{"geometry":{"coordinates":[-53.717505,-29.716914],"type":"Point"},"properties":{"osm_id":"4820755563","tag":{"amenity":"waste_disposal"}},"type":"Feature"},
	{"geometry":{"coordinates":[-53.718165,-29.723021],"type":"Point"},"properties":{"osm_id":"4820793912","tag":{"amenity":"waste_basket"}},"type":"Feature"},
	{"geometry":{"coordinates":[-53.716207,-29.715212],"type":"Point"},"properties":{"osm_id":"4820793918","tag":{"amenity":"waste_disposal"}},"type":"Feature"},
	{"geometry":{"coordinates":[-53.716069,-29.716431],"type":"Point"},"properties":{"osm_id":"4820793919","tag":{"amenity":"waste_basket"}},"type":"Feature"},
	{"geometry":{"coordinates":[-53.717452,-29.702087],"type":"Point"},"properties":{"osm_id":"4820847433","tag":{"amenity":"waste_disposal"}},"type":"Feature"},
	{"geometry":{"coordinates":[-53.715892,-29.712703],"type":"Point"},"properties":{"osm_id":"4820847435","tag":{"amenity":"waste_disposal"}},"type":"Feature"},
	{"geometry":{"coordinates":[-53.716397,-29.711168],"type":"Point"},"properties":{"osm_id":"4820847440","tag":{"amenity":"waste_disposal"}},"type":"Feature"},
	{"geometry":{"coordinates":[-53.716398,-29.711151],"type":"Point"},"properties":{"osm_id":"4820847441","tag":{"amenity":"waste_disposal"}},"type":"Feature"},
	{"geometry":{"coordinates":[-53.716276,-29.716635],"type":"Point"},"properties":{"osm_id":"4981031122","tag":{"amenity":"recycling","recycling:paper":"yes","recycling:plastic":"yes","recycling:scrap_metal":"yes","recycling:waste":"yes","recycling_type":"container"}},"type":"Feature"},
	{"geometry":{"coordinates":[-53.716152,-29.714557],"type":"Point"},"properties":{"osm_id":"4981046701","tag":{"amenity":"recycling","recycling:glass":"yes","recycling:waste":"yes","recycling_type":"container"}},"type":"Feature"},
	{"geometry":{"coordinates":[-53.716159,-29.714082],"type":"Point"},"properties":{"osm_id":"4981046702","tag":{"amenity":"recycling","recycling:paper":"yes","recycling:plastic":"yes","recycling:waste":"yes","recycling_type":"container"}},"type":"Feature"},
	{"geometry":{"coordinates":[-53.716357,-29.711447],"type":"Point"},"properties":{"osm_id":"4981046703","tag":{"amenity":"recycling","recycling:glass":"yes","recycling:paper":"yes","recycling:plastic":"yes","recycling:scrap_metal":"yes","recycling:waste":"yes","recycling_type":"container"}},"type":"Feature"},
	{"geometry":{"coordinates":[-53.717009,-29.716742],"type":"Point"},"properties":{"osm_id":"4981046704","tag":{"amenity":"recycling","recycling:paper":"yes","recycling:plastic":"yes","recycling:scrap_metal":"yes","recycling:waste":"yes","recycling_type":"container"}},"type":"Feature"},
	{"geometry":{"coordinates":[-53.716576,-29.716671],"type":"Point"},"properties":{"osm_id":"4981046705","tag":{"amenity":"recycling","recycling:paper":"yes","recycling:plastic":"yes","recycling:scrap_metal":"yes","recycling:waste":"yes","recycling_type":"container"}},"type":"Feature"},
	{"geometry":{"coordinates":[-53.716097,-29.714839],"type":"Point"},"properties":{"osm_id":"4981120944","tag":{"amenity":"recycling","recycling:paper":"yes","recycling:plastic":"yes","recycling:scrap_metal":"yes","recycling:waste":"yes","recycling_type":"container"}},"type":"Feature"},
	{"geometry":{"coordinates":[-53.715859,-29.715518],"type":"Point"},"properties":{"osm_id":"4981120945","tag":{"amenity":"recycling","recycling:paper":"yes","recycling:waste":"yes","recycling_type":"container"}},"type":"Feature"},
	{"geometry":{"coordinates":[-53.712111,-29.713779],"type":"Point"},"properties":{"osm_id":"4985449707","tag":{"amenity":"waste_disposal"}},"type":"Feature"},
	{"geometry":{"coordinates":[-53.712277,-29.713531],"type":"Point"},"properties":{"osm_id":"4985449708","tag":{"amenity":"waste_disposal"}},"type":"Feature"},
	{"geometry":{"coordinates":[-53.713925,-29.714066],"type":"Point"},"properties":{"osm_id":"4985449709","tag":{"amenity":"waste_disposal"}},"type":"Feature"},
	{"geometry":{"coordinates":[-53.713926,-29.714057],"type":"Point"},"properties":{"osm_id":"4985449710","tag":{"amenity":"waste_disposal"}},"type":"Feature"},
	{"geometry":{"coordinates":[-53.715711,-29.712499],"type":"Point"},"properties":{"osm_id":"4985449712","tag":{"amenity":"waste_disposal"}},"type":"Feature"},
	{"geometry":{"coordinates":[-53.714698,-29.712973],"type":"Point"},"properties":{"osm_id":"4985449713","tag":{"amenity":"waste_disposal"}},"type":"Feature"},
	{"geometry":{"coordinates":[-53.71472,-29.71297],"type":"Point"},"properties":{"osm_id":"4985449714","tag":{"amenity":"waste_disposal"}},"type":"Feature"},
	{"geometry":{"coordinates":[-53.716323,-29.711131],"type":"Point"},"properties":{"osm_id":"4985449715","tag":{"amenity":"waste_disposal"}},"type":"Feature"},
	{"geometry":{"coordinates":[-53.714832,-29.717582],"type":"Point"},"properties":{"osm_id":"4985498209","tag":{"amenity":"waste_disposal"}},"type":"Feature"},
	{"geometry":{"coordinates":[-53.714844,-29.717583],"type":"Point"},"properties":{"osm_id":"4985498210","tag":{"amenity":"waste_disposal"}},"type":"Feature"},
	{"geometry":{"coordinates":[-53.714776,-29.715908],"type":"Point"},"properties":{"osm_id":"4985498211","tag":{"amenity":"waste_disposal"}},"type":"Feature"},
	{"geometry":{"coordinates":[-53.71279,-29.718222],"type":"Point"},"properties":{"osm_id":"4985518846","tag":{"amenity":"waste_disposal"}},"type":"Feature"},
	{"geometry":{"coordinates":[-53.712889,-29.717937],"type":"Point"},"properties":{"osm_id":"4985518847","tag":{"amenity":"waste_disposal"}},"type":"Feature"},
	{"geometry":{"coordinates":[-53.71294,-29.717274],"type":"Point"},"properties":{"osm_id":"4985518848","tag":{"amenity":"waste_disposal"}},"type":"Feature"},
	{"geometry":{"coordinates":[-53.713371,-29.718116],"type":"Point"},"properties":{"osm_id":"4985518849","tag":{"amenity":"waste_disposal"}},"type":"Feature"},
	{"geometry":{"coordinates":[-53.713671,-29.718609],"type":"Point"},"properties":{"osm_id":"4985518850","tag":{"amenity":"waste_disposal"}},"type":"Feature"},
	{"geometry":{"coordinates":[-53.713839,-29.718131],"type":"Point"},"properties":{"osm_id":"4985518851","tag":{"amenity":"waste_disposal"}},"type":"Feature"},
	{"geometry":{"coordinates":[-53.713949,-29.717636],"type":"Point"},"properties":{"osm_id":"4985518852","tag":{"amenity":"waste_disposal"}},"type":"Feature"},
	{"geometry":{"coordinates":[-53.713979,-29.717495],"type":"Point"},"properties":{"osm_id":"4985518853","tag":{"amenity":"waste_disposal"}},"type":"Feature"},
	{"geometry":{"coordinates":[-53.714025,-29.717486],"type":"Point"},"properties":{"osm_id":"4985518854","tag":{"amenity":"waste_disposal"}},"type":"Feature"},
	{"geometry":{"coordinates":[-53.714097,-29.717501],"type":"Point"},"properties":{"osm_id":"4985518855","tag":{"amenity":"waste_disposal"}},"type":"Feature"},
	{"geometry":{"coordinates":[-53.71411,-29.717504],"type":"Point"},"properties":{"osm_id":"4985518856","tag":{"amenity":"waste_disposal"}},"type":"Feature"},
	{"geometry":{"coordinates":[-53.714127,-29.717506],"type":"Point"},"properties":{"osm_id":"4985518857","tag":{"amenity":"waste_disposal"}},"type":"Feature"},
	{"geometry":{"coordinates":[-53.714142,-29.717509],"type":"Point"},"properties":{"osm_id":"4985518858","tag":{"amenity":"waste_disposal"}},"type":"Feature"},
	{"geometry":{"coordinates":[-53.714156,-29.717511],"type":"Point"},"properties":{"osm_id":"4985518859","tag":{"amenity":"waste_disposal"}},"type":"Feature"},
	{"geometry":{"coordinates":[-53.714173,-29.717514],"type":"Point"},"properties":{"osm_id":"4985518860","tag":{"amenity":"waste_disposal"}},"type":"Feature"},
	{"geometry":{"coordinates":[-53.714294,-29.717599],"type":"Point"},"properties":{"osm_id":"4985518861","tag":{"amenity":"waste_disposal"}},"type":"Feature"},
	{"geometry":{"coordinates":[-53.71414,-29.718784],"type":"Point"},"properties":{"osm_id":"4985518862","tag":{"amenity":"waste_disposal"}},"type":"Feature"},
	{"geometry":{"coordinates":[-53.714347,-29.718098],"type":"Point"},"properties":{"osm_id":"4985518863","tag":{"amenity":"waste_disposal"}},"type":"Feature"},
	{"geometry":{"coordinates":[-53.714616,-29.717459],"type":"Point"},"properties":{"osm_id":"4985518865","tag":{"amenity":"waste_disposal"}},"type":"Feature"},
	{"geometry":{"coordinates":[-53.714629,-29.717461],"type":"Point"},"properties":{"osm_id":"4985518866","tag":{"amenity":"waste_disposal"}},"type":"Feature"},
	{"geometry":{"coordinates":[-53.714641,-29.717462],"type":"Point"},"properties":{"osm_id":"4985518867","tag":{"amenity":"waste_disposal"}},"type":"Feature"},
	{"geometry":{"coordinates":[-53.714654,-29.717464],"type":"Point"},"properties":{"osm_id":"4985518868","tag":{"amenity":"waste_disposal"}},"type":"Feature"},
	{"geometry":{"coordinates":[-53.714773,-29.71844],"type":"Point"},"properties":{"osm_id":"4985518869","tag":{"amenity":"waste_disposal"}},"type":"Feature"},
	{"geometry":{"coordinates":[-53.713905,-29.713181],"type":"Point"},"properties":{"osm_id":"4993700047","tag":{"amenity":"waste_disposal"}},"type":"Feature"},
	{"geometry":{"coordinates":[-53.713898,-29.713191],"type":"Point"},"properties":{"osm_id":"4993700048","tag":{"amenity":"waste_disposal"}},"type":"Feature"},
	{"geometry":{"coordinates":[-53.716455,-29.714764],"type":"Point"},"properties":{"osm_id":"5001117180","tag":{"amenity":"recycling","recycling:paper":"yes","recycling:plastic":"yes","recycling:scrap_metal":"yes","recycling:waste":"yes","recycling_type":"container"}},"type":"Feature"},
	{"geometry":{"coordinates":[-53.715763,-29.718425],"type":"Point"},"properties":{"osm_id":"5001117183","tag":{"amenity":"recycling","recycling:paper":"yes","recycling:scrap_metal":"yes","recycling:waste":"yes","recycling_type":"container"}},"type":"Feature"},
	{"geometry":{"coordinates":[-53.717544,-29.711862],"type":"Point"},"properties":{"osm_id":"5001117192","tag":{"amenity":"recycling","recycling_type":"container"}},"type":"Feature"},
	{"geometry":{"coordinates":[-53.716322,-29.711228],"type":"Point"},"properties":{"osm_id":"5030434287","tag":{"amenity":"recycling","recycling:glass":"yes","recycling:plastic":"yes","recycling:scrap_metal":"yes","recycling_type":"container"}},"type":"Feature"},
	{"geometry":{"coordinates":[-53.713377,-29.717548],"type":"Point"},"properties":{"osm_id":"5030625427","tag":{"amenity":"waste_disposal"}},"type":"Feature"},
	{"geometry":{"coordinates":[-53.713116,-29.718673],"type":"Point"},"properties":{"osm_id":"5030625432","tag":{"amenity":"waste_disposal"}},"type":"Feature"},
	{"geometry":{"coordinates":[-53.716418,-29.715878],"type":"Point"},"properties":{"osm_id":"5030669128","tag":{"amenity":"recycling","recycling:waste":"yes","recycling_type":"container"}},"type":"Feature"},
	{"geometry":{"coordinates":[-53.716693,-29.715981],"type":"Point"},"properties":{"osm_id":"5030669134","tag":{"amenity":"recycling","recycling:paper":"yes","recycling:plastic":"yes","recycling:scrap_metal":"yes","recycling:waste":"yes","recycling_type":"container"}},"type":"Feature"},
	{"geometry":{"coordinates":[-53.716182,-29.712002],"type":"Point"},"properties":{"osm_id":"5030782182","tag":{"amenity":"recycling","recycling:glass":"yes","recycling:paper":"yes","recycling:plastic":"yes","recycling:scrap_metal":"yes","recycling:waste":"yes","recycling_type":"container"}},"type":"Feature"},
	{"geometry":{"coordinates":[-53.713986,-29.713747],"type":"Point"},"properties":{"osm_id":"5030831456","tag":{"amenity":"recycling","recycling:paper":"yes","recycling:plastic":"yes","recycling:scrap_metal":"yes","recycling:waste":"yes","recycling_type":"container"}},"type":"Feature"},
	{"geometry":{"coordinates":[-53.714748,-29.717027],"type":"Point"},"properties":{"osm_id":"5143151951","tag":{"amenity":"recycling","recycling:paper":"yes","recycling:plastic":"yes","recycling:scrap_metal":"yes","recycling:waste":"yes","recycling_type":"container"}},"type":"Feature"},
	{"geometry":{"coordinates":[-53.718388,-29.712948],"type":"Point"},"properties":{"osm_id":"5474340010","tag":{"amenity":"waste_disposal"}},"type":"Feature"},
	{"geometry":{"coordinates":[-53.717916,-29.711719],"type":"Point"},"properties":{"osm_id":"5474340015","tag":{"amenity":"waste_disposal"}},"type":"Feature"},
	{"geometry":{"coordinates":[-53.71791,-29.711744],"type":"Point"},"properties":{"osm_id":"5474340016","tag":{"amenity":"waste_disposal"}},"type":"Feature"},
	{"geometry":{"coordinates":[-53.717871,-29.711724],"type":"Point"},"properties":{"osm_id":"5474340017","tag":{"amenity":"waste_disposal"}},"type":"Feature"},
	{"geometry":{"coordinates":[-53.717849,-29.711662],"type":"Point"},"properties":{"osm_id":"5474340018","tag":{"amenity":"waste_disposal"}},"type":"Feature"},
	{"geometry":{"coordinates":[-53.718807,-29.712058],"type":"Point"},"properties":{"osm_id":"5474340032","tag":{"amenity":"waste_disposal"}},"type":"Feature"},
	{"geometry":{"coordinates":[-53.717144,-29.710769],"type":"Point"},"properties":{"osm_id":"5474340111","tag":{"amenity":"waste_disposal"}},"type":"Feature"},
	{"geometry":{"coordinates":[-53.717162,-29.710771],"type":"Point"},"properties":{"osm_id":"5474340112","tag":{"amenity":"waste_disposal"}},"type":"Feature"},
	{"geometry":{"coordinates":[-53.718863,-29.712743],"type":"Point"},"properties":{"osm_id":"5474340324","tag":{"amenity":"waste_disposal"}},"type":"Feature"},
	{"geometry":{"coordinates":[-53.718932,-29.712203],"type":"Point"},"properties":{"osm_id":"5474340331","tag":{"amenity":"recycling","recycling:paper":"yes","recycling:plastic":"yes","recycling:waste":"yes","recycling_type":"container"}},"type":"Feature"},
	{"geometry":{"coordinates":[-53.719757,-29.712358],"type":"Point"},"properties":{"osm_id":"5474340336","tag":{"amenity":"recycling","recycling_type":"container"}},"type":"Feature"},
	{"geometry":{"coordinates":[-53.718377,-29.722329],"type":"Point"},"properties":{"osm_id":"5480287694","tag":{"amenity":"recycling","recycling_type":"container"}},"type":"Feature"},
	{"geometry":{"coordinates":[-53.717899,-29.722155],"type":"Point"},"properties":{"osm_id":"5480287705","tag":{"amenity":"waste_basket","waste":"trash"}},"type":"Feature"},
	{"geometry":{"coordinates":[-53.715804,-29.703339],"type":"Point"},"properties":{"osm_id":"5569589672","tag":{"amenity":"recycling","recycling:glass":"yes","recycling:green_waste":"yes","recycling:waste":"yes","recycling_type":"container"}},"type":"Feature"},
	{"geometry":{"coordinates":[-53.716885,-29.7071],"type":"Point"},"properties":{"osm_id":"5569630377","tag":{"access":"private","amenity":"waste_disposal"}},"type":"Feature"},
	{"geometry":{"coordinates":[-53.722493,-29.702256],"type":"Point"},"properties":{"osm_id":"5889484976","tag":{"amenity":"waste_disposal"}},"type":"Feature"},
	{"geometry":{"coordinates":[-53.729222,-29.717041],"type":"Point"},"properties":{"osm_id":"5889581671","tag":{"amenity":"recycling","recycling:paper":"yes","recycling:plastic":"yes","recycling:scrap_metal":"yes","recycling:waste":"yes","recycling_type":"container"}},"type":"Feature"},
	{"geometry":{"coordinates":[-53.728048,-29.716908],"type":"Point"},"properties":{"osm_id":"5889581673","tag":{"amenity":"waste_disposal"}},"type":"Feature"},
	{"geometry":{"coordinates":[-53.780978,-29.691465],"type":"Point"},"properties":{"name":"Reciclagem Km 3","osm_id":"6216511539","tag":{"amenity":"recycling","contact:phone":"+55 55 3027-2974","recycling_type":"centre"}},"type":"Feature"},
	{"geometry":{"coordinates":[-53.718837,-29.720482],"type":"Point"},"properties":{"osm_id":"6956055509","tag":{"amenity":"waste_disposal"}},"type":"Feature"}
]
}
