{
"type": "FeatureCollection",
"features": [
	{"geometry":{"coordinates":[-117.334932,47.655203],"type":"Point"},"properties":{"osm_id":"3137637304","tag":{"amenity":"waste_disposal"}},"type":"Feature"},
	{"geometry":{"coordinates":[-117.360556,47.673916],"type":"Point"},"properties":{"osm_id":"3137958948","tag":{"amenity":"waste_disposal"}},"type":"Feature"},
	{"geometry":{"coordinates":[-117.358078,47.674748],"type":"Point"},"properties":{"osm_id":"3137959234","tag":{"amenity":"waste_disposal"}},"type":"Feature"},
	{"geometry":{"coordinates":[-117.355823,47.67381],"type":"Point"},"properties":{"osm_id":"3137959235","tag":{"amenity":"waste_disposal"}},"type":"Feature"},
	{"geometry":{"coordinates":[-117.415668,47.671833],"type":"Point"},"properties":{"osm_id":"5925830837","tag":{"amenity":"waste_basket"}},"type":"Feature"},
	{"geometry":{"coordinates":[-117.411842,47.671834],"type":"Point"},"properties":{"osm_id":"5925830843","tag":{"amenity":"waste_basket"}},"type":"Feature"},
	{"geometry":{"coordinates":[-117.409254,47.671838],"type":"Point"},"properties":{"osm_id":"5925830849","tag":{"amenity":"waste_basket"}},"type":"Feature"},
	{"geometry":{"coordinates":[-117.363954,47.672503],"type":"Point"},"properties":{"osm_id":"5982567650","tag":{"amenity":"waste_basket"}},"type":"Feature"},
	{"geometry":{"coordinates":[-117.373089,47.666252],"type":"Point"},"properties":{"name":"Spokane Solid Waste Collection Department","osm_id":"6015143141","tag":{"amenity":"recycling","recycling_type":"centre"}},"type":"Feature"},
	{"geometry":{"coordinates":[-117.385884,47.657303],"type":"Point"},"properties":{"osm_id":"6163470727","tag":{"amenity":"waste_basket"}},"type":"Feature"},
	{"geometry":{"coordinates":[-117.409406,47.63872],"type":"Point"},"properties":{"osm_id":"6235402921","tag":{"amenity":"waste_basket"}},"type":"Feature"},
	{"geometry":{"coordinates":[-117.410226,47.637381],"type":"Point"},"properties":{"osm_id":"6235402981","tag":{"amenity":"waste_basket"}},"type":"Feature"},
	{"geometry":{"coordinates":[-117.381566,47.657326],"type":"Point"},"properties":{"osm_id":"6758982964","tag":{"amenity":"waste_basket"}},"type":"Feature"},
	{"geometry":{"coordinates":[-117.382555,47.657318],"type":"Point"},"properties":{"osm_id":"6758982972","tag":{"amenity":"waste_basket"}},"type":"Feature"},
	{"geometry":{"coordinates":[-117.382883,47.657313],"type":"Point"},"properties":{"osm_id":"6758982974","tag":{"amenity":"waste_basket"}},"type":"Feature"},
	{"geometry":{"coordinates":[-117.387649,47.657304],"type":"Point"},"properties":{"osm_id":"6758991913","tag":{"amenity":"waste_basket"}},"type":"Feature"},
	{"geometry":{"coordinates":[-117.38104,47.657182],"type":"Point"},"properties":{"osm_id":"6758991926","tag":{"amenity":"waste_basket"}},"type":"Feature"},
	{"geometry":{"coordinates":[-117.382573,47.657178],"type":"Point"},"properties":{"osm_id":"6758991928","tag":{"amenity":"waste_basket"}},"type":"Feature"},
	{"geometry":{"coordinates":[-117.384063,47.657173],"type":"Point"},"properties":{"osm_id":"6758991930","tag":{"amenity":"waste_basket"}},"type":"Feature"},
	{"geometry":{"coordinates":[-117.385563,47.657168],"type":"Point"},"properties":{"osm_id":"6758991937","tag":{"amenity":"waste_basket"}},"type":"Feature"},
	{"geometry":{"coordinates":[-117.387061,47.657153],"type":"Point"},"properties":{"osm_id":"6758991941","tag":{"amenity":"waste_basket"}},"type":"Feature"},
	{"geometry":{"coordinates":[-117.387367,47.657156],"type":"Point"},"properties":{"osm_id":"6758991943","tag":{"amenity":"waste_basket"}},"type":"Feature"},
	{"geometry":{"coordinates":[-117.376832,47.657396],"type":"Point"},"properties":{"osm_id":"6780465712","tag":{"amenity":"waste_basket"}},"type":"Feature"},
	{"geometry":{"coordinates":[-117.378385,47.657335],"type":"Point"},"properties":{"osm_id":"6780465718","tag":{"amenity":"waste_basket"}},"type":"Feature"},
	{"geometry":{"coordinates":[-117.379553,47.657324],"type":"Point"},"properties":{"osm_id":"6780465720","tag":{"amenity":"waste_basket"}},"type":"Feature"},
	{"geometry":{"coordinates":[-117.37657,47.657203],"type":"Point"},"properties":{"osm_id":"6780465726","tag":{"amenity":"waste_basket"}},"type":"Feature"},
	{"geometry":{"coordinates":[-117.378065,47.657198],"type":"Point"},"properties":{"osm_id":"6780465727","tag":{"amenity":"waste_basket"}},"type":"Feature"},
	{"geometry":{"coordinates":[-117.379578,47.657189],"type":"Point"},"properties":{"osm_id":"6780465734","tag":{"amenity":"waste_basket"}},"type":"Feature"},
	{"geometry":{"coordinates":[-117.385879,47.673118],"type":"Point"},"properties":{"osm_id":"7450687092","tag":{"amenity":"waste_basket","waste":"trash"}},"type":"Feature"},
	{"geometry":{"coordinates":[-117.375253,47.677808],"type":"Point"},"properties":{"osm_id":"7450687144","tag":{"amenity":"waste_basket"}},"type":"Feature"},
	{"geometry":{"coordinates":[-117.379803,47.677366],"type":"Point"},"properties":{"osm_id":"7450687150","tag":{"amenity":"waste_basket","waste":"trash"}},"type":"Feature"},
	{"geometry":{"coordinates":[-117.362168,47.678194],"type":"Point"},"properties":{"osm_id":"7478292753","tag":{"amenity":"waste_basket","waste":"trash"}},"type":"Feature"}
]
}
