{
"type": "FeatureCollection",
"features": [
	{"geometry":{"coordinates":[22.824661,62.790066],"type":"Point"},"properties":{"osm_id":"315027558","tag":{"access":"private","amenity":"waste_disposal","waste":"household"}},"type":"Feature"},
	{"geometry":{"coordinates":[22.826316,62.788951],"type":"Point"},"properties":{"osm_id":"315032881","tag":{"amenity":"waste_disposal","waste":"litter"}},"type":"Feature"},
	{"geometry":{"coordinates":[22.82273,62.758841],"type":"Point"},"properties":{"osm_id":"839842904","tag":{"amenity":"recycling"}},"type":"Feature"},
	{"geometry":{"coordinates":[22.846485,62.766589],"type":"Point"},"properties":{"osm_id":"1776913564","tag":{"addr:city":"Sein\u00c3\u00a4joki","addr:postcode":"60200","addr:street":"Ruukintie","amenity":"recycling","recycling:cans":"no","recycling:glass":"yes","recycling:glass_bottles":"no","recycling:paper":"yes","recycling:scrap_metal":"yes","recycling_type":"container"}},"type":"Feature"},
	{"geometry":{"coordinates":[22.848527,62.771837],"type":"Point"},"properties":{"osm_id":"1776932342","tag":{"amenity":"recycling","recycling_type":"container"}},"type":"Feature"},
	{"geometry":{"coordinates":[22.819631,62.786416],"type":"Point"},"properties":{"osm_id":"1821319610","tag":{"amenity":"recycling","recycling:glass":"yes","recycling:paper":"yes","recycling:scrap_metal":"yes"}},"type":"Feature"},
	{"geometry":{"coordinates":[22.844294,62.782014],"type":"Point"},"properties":{"osm_id":"3120323850","tag":{"amenity":"recycling"}},"type":"Feature"},
	{"geometry":{"coordinates":[22.842222,62.778905],"type":"Point"},"properties":{"osm_id":"3415606537","tag":{"amenity":"recycling"}},"type":"Feature"},
	{"geometry":{"coordinates":[22.829642,62.763081],"type":"Point"},"properties":{"osm_id":"3953232487","tag":{"addr:street":"Simunantie","amenity":"recycling","recycling:cans":"no","recycling:clothes":"no","recycling:glass":"no","recycling:glass_bottles":"no","recycling:paper":"yes","recycling:plastic":"no","recycling_type":"container"}},"type":"Feature"},
	{"geometry":{"coordinates":[22.839931,62.78762],"type":"Point"},"properties":{"osm_id":"6806322599","tag":{"amenity":"waste_basket"}},"type":"Feature"},
	{"geometry":{"coordinates":[22.840211,62.787051],"type":"Point"},"properties":{"osm_id":"6806322600","tag":{"amenity":"waste_basket"}},"type":"Feature"},
	{"geometry":{"coordinates":[22.839629,62.786908],"type":"Point"},"properties":{"osm_id":"6806322605","tag":{"amenity":"waste_basket"}},"type":"Feature"},
	{"geometry":{"coordinates":[22.84179,62.787492],"type":"Point"},"properties":{"osm_id":"6806322612","tag":{"amenity":"waste_basket"}},"type":"Feature"},
	{"geometry":{"coordinates":[22.842025,62.787361],"type":"Point"},"properties":{"osm_id":"6806324889","tag":{"amenity":"waste_basket"}},"type":"Feature"},
	{"geometry":{"coordinates":[22.841651,62.787302],"type":"Point"},"properties":{"osm_id":"6806325087","tag":{"amenity":"waste_basket"}},"type":"Feature"},
	{"geometry":{"coordinates":[22.840386,62.786422],"type":"Point"},"properties":{"osm_id":"6806359124","tag":{"amenity":"recycling","recycling_type":"container"}},"type":"Feature"},
	{"geometry":{"coordinates":[22.844944,62.787806],"type":"Point"},"properties":{"osm_id":"7931625488","tag":{"amenity":"waste_basket","material":"metal","waste":"trash"}},"type":"Feature"},
	{"geometry":{"coordinates":[22.846009,62.785097],"type":"Point"},"properties":{"osm_id":"7931625497","tag":{"amenity":"waste_basket","waste":"trash"}},"type":"Feature"},
	{"geometry":{"coordinates":[22.846139,62.784758],"type":"Point"},"properties":{"osm_id":"7931625498","tag":{"amenity":"waste_basket","waste":"trash"}},"type":"Feature"},
	{"geometry":{"coordinates":[22.841512,62.787651],"type":"Point"},"properties":{"osm_id":"7931625501","tag":{"amenity":"waste_basket","waste":"trash"}},"type":"Feature"},
	{"geometry":{"coordinates":[22.841463,62.787692],"type":"Point"},"properties":{"osm_id":"7931625502","tag":{"amenity":"waste_basket","waste":"trash"}},"type":"Feature"},
	{"geometry":{"coordinates":[22.840471,62.788569],"type":"Point"},"properties":{"osm_id":"7931625503","tag":{"amenity":"waste_basket","waste":"trash"}},"type":"Feature"},
	{"geometry":{"coordinates":[22.839798,62.788745],"type":"Point"},"properties":{"osm_id":"7931625505","tag":{"amenity":"waste_basket","waste":"trash"}},"type":"Feature"},
	{"geometry":{"coordinates":[22.84606,62.784903],"type":"Point"},"properties":{"osm_id":"7931625600","tag":{"amenity":"waste_basket","waste":"trash"}},"type":"Feature"},
	{"geometry":{"coordinates":[22.84203,62.787367],"type":"Point"},"properties":{"osm_id":"7931625602","tag":{"amenity":"waste_basket","waste":"trash"}},"type":"Feature"},
	{"geometry":{"coordinates":[22.848028,62.785135],"type":"Point"},"properties":{"osm_id":"7931625695","tag":{"amenity":"waste_basket","waste":"trash"}},"type":"Feature"},
	{"geometry":{"coordinates":[22.847434,62.785174],"type":"Point"},"properties":{"osm_id":"7931625698","tag":{"amenity":"waste_basket","waste":"trash"}},"type":"Feature"},
	{"geometry":{"coordinates":[22.84173,62.78761],"type":"Point"},"properties":{"osm_id":"7931625703","tag":{"amenity":"waste_basket","waste":"trash"}},"type":"Feature"},
	{"geometry":{"coordinates":[22.841414,62.787969],"type":"Point"},"properties":{"osm_id":"7931625705","tag":{"amenity":"waste_basket","waste":"trash"}},"type":"Feature"},
	{"geometry":{"coordinates":[22.848012,62.785053],"type":"Point"},"properties":{"osm_id":"7931625788","tag":{"amenity":"waste_basket","waste":"trash"}},"type":"Feature"},
	{"geometry":{"coordinates":[22.847499,62.784989],"type":"Point"},"properties":{"osm_id":"7931625987","tag":{"amenity":"waste_basket","waste":"trash"}},"type":"Feature"},
	{"geometry":{"coordinates":[22.839521,62.788418],"type":"Point"},"properties":{"osm_id":"7931626386","tag":{"amenity":"waste_basket","waste":"trash"}},"type":"Feature"}
]
}
