{
"type": "FeatureCollection",
"features": [
	{"geometry":{"coordinates":[-97.295092,32.83628],"type":"Point"},"properties":{"osm_id":"6989374819","tag":{"amenity":"waste_disposal"}},"type":"Feature"},
	{"geometry":{"coordinates":[-97.295159,32.835748],"type":"Point"},"properties":{"osm_id":"6989374820","tag":{"amenity":"waste_disposal"}},"type":"Feature"},
	{"geometry":{"coordinates":[-97.296486,32.836695],"type":"Point"},"properties":{"osm_id":"6989374821","tag":{"amenity":"waste_disposal"}},"type":"Feature"},
	{"geometry":{"coordinates":[-97.296848,32.8352],"type":"Point"},"properties":{"osm_id":"6989374822","tag":{"amenity":"waste_disposal"}},"type":"Feature"},
	{"geometry":{"coordinates":[-97.29835,32.836064],"type":"Point"},"properties":{"osm_id":"6989374823","tag":{"amenity":"waste_disposal"}},"type":"Feature"},
	{"geometry":{"coordinates":[-97.320553,32.776191],"type":"Point"},"properties":{"osm_id":"8218110177","tag":{"amenity":"waste_basket","colour":"gray","covered":"yes","material":"metal","waste":"mixed"}},"type":"Feature"},
	{"geometry":{"coordinates":[-97.314795,32.774466],"type":"Point"},"properties":{"osm_id":"8218338495","tag":{"amenity":"waste_basket","colour":"green","material":"steel","waste":"mixed"}},"type":"Feature"},
	{"geometry":{"coordinates":[-97.314261,32.774273],"type":"Point"},"properties":{"osm_id":"8218371476","tag":{"amenity":"waste_basket","colour":"green","material":"steel","waste":"mixed"}},"type":"Feature"},
	{"geometry":{"coordinates":[-97.314373,32.774137],"type":"Point"},"properties":{"osm_id":"8218380643","tag":{"amenity":"waste_basket","colour":"green","material":"steel","waste":"mixed"}},"type":"Feature"},
	{"geometry":{"coordinates":[-97.314666,32.773869],"type":"Point"},"properties":{"osm_id":"8218388030","tag":{"amenity":"waste_basket","colour":"green","material":"steel","waste":"mixed"}},"type":"Feature"},
	{"geometry":{"coordinates":[-97.314121,32.774121],"type":"Point"},"properties":{"osm_id":"8218388132","tag":{"amenity":"waste_basket","colour":"green","material":"steel","waste":"mixed"}},"type":"Feature"},
	{"geometry":{"coordinates":[-97.333695,32.782165],"type":"Point"},"properties":{"osm_id":"8218403349","tag":{"amenity":"recycling","recycling:cans":"yes","recycling:glass_bottles":"yes","recycling:plastic_bottles":"yes","recycling_type":"container"}},"type":"Feature"},
	{"geometry":{"coordinates":[-97.333598,32.782123],"type":"Point"},"properties":{"osm_id":"8218412304","tag":{"amenity":"waste_basket","colour":"white","material":"concrete","waste":"mixed"}},"type":"Feature"}
]
}
