{
"type": "FeatureCollection",
"features": [
	{"geometry":{"coordinates":[-118.527507,34.236133],"type":"Point"},"properties":{"osm_id":"2327089364","tag":{"access":"private","amenity":"waste_disposal","waste":"trash"}},"type":"Feature"},
	{"geometry":{"coordinates":[-118.523841,34.236592],"type":"Point"},"properties":{"osm_id":"2327089367","tag":{"access":"private","amenity":"waste_disposal","waste":"trash"}},"type":"Feature"},
	{"geometry":{"coordinates":[-118.527699,34.23736],"type":"Point"},"properties":{"osm_id":"2327089370","tag":{"access":"private","amenity":"waste_disposal","waste":"trash"}},"type":"Feature"},
	{"geometry":{"coordinates":[-118.530704,34.23747],"type":"Point"},"properties":{"osm_id":"2327089373","tag":{"access":"private","amenity":"waste_disposal","waste":"trash"}},"type":"Feature"},
	{"geometry":{"coordinates":[-118.526606,34.238608],"type":"Point"},"properties":{"osm_id":"2327089376","tag":{"access":"private","amenity":"waste_disposal","waste":"trash"}},"type":"Feature"},
	{"geometry":{"coordinates":[-118.527896,34.238783],"type":"Point"},"properties":{"osm_id":"2327089379","tag":{"access":"private","amenity":"waste_disposal","waste":"trash"}},"type":"Feature"},
	{"geometry":{"coordinates":[-118.530391,34.238937],"type":"Point"},"properties":{"osm_id":"2327089382","tag":{"access":"private","amenity":"waste_disposal","waste":"trash"}},"type":"Feature"},
	{"geometry":{"coordinates":[-118.53123,34.23907],"type":"Point"},"properties":{"osm_id":"2327089385","tag":{"access":"private","amenity":"waste_disposal","waste":"trash"}},"type":"Feature"},
	{"geometry":{"coordinates":[-118.529098,34.240392],"type":"Point"},"properties":{"osm_id":"2327089390","tag":{"access":"private","amenity":"waste_disposal","waste":"trash"}},"type":"Feature"},
	{"geometry":{"coordinates":[-118.525617,34.240479],"type":"Point"},"properties":{"osm_id":"2327089391","tag":{"access":"private","amenity":"waste_disposal","waste":"trash"}},"type":"Feature"},
	{"geometry":{"coordinates":[-118.527532,34.240643],"type":"Point"},"properties":{"osm_id":"2327089392","tag":{"access":"private","amenity":"waste_disposal","waste":"trash"}},"type":"Feature"},
	{"geometry":{"coordinates":[-118.531334,34.240987],"type":"Point"},"properties":{"osm_id":"2327089395","tag":{"access":"private","amenity":"waste_disposal","waste":"trash"}},"type":"Feature"},
	{"geometry":{"coordinates":[-118.527806,34.241364],"type":"Point"},"properties":{"osm_id":"2327089397","tag":{"access":"private","amenity":"waste_disposal","waste":"trash"}},"type":"Feature"},
	{"geometry":{"coordinates":[-118.528704,34.242363],"type":"Point"},"properties":{"osm_id":"2327089400","tag":{"access":"private","amenity":"waste_disposal","waste":"trash"}},"type":"Feature"},
	{"geometry":{"coordinates":[-118.530465,34.242558],"type":"Point"},"properties":{"osm_id":"2327089403","tag":{"access":"private","amenity":"waste_disposal","waste":"trash"}},"type":"Feature"},
	{"geometry":{"coordinates":[-118.530722,34.243949],"type":"Point"},"properties":{"osm_id":"2327089405","tag":{"access":"private","amenity":"waste_disposal","waste":"trash"}},"type":"Feature"},
	{"geometry":{"coordinates":[-118.53072,34.243889],"type":"Point"},"properties":{"osm_id":"2327098503","tag":{"access":"private","amenity":"waste_disposal","waste":"organic"}},"type":"Feature"},
	{"geometry":{"coordinates":[-118.530329,34.244258],"type":"Point"},"properties":{"osm_id":"2327098506","tag":{"access":"private","amenity":"waste_disposal","waste":"trash"}},"type":"Feature"},
	{"geometry":{"coordinates":[-118.524892,34.236618],"type":"Point"},"properties":{"osm_id":"2346596988","tag":{"access":"private","amenity":"waste_disposal","waste":"trash"}},"type":"Feature"},
	{"geometry":{"coordinates":[-118.530947,34.236715],"type":"Point"},"properties":{"osm_id":"2346596993","tag":{"access":"private","amenity":"waste_disposal","layer":"1","waste":"trash"}},"type":"Feature"},
	{"geometry":{"coordinates":[-118.528637,34.237008],"type":"Point"},"properties":{"osm_id":"2346596997","tag":{"access":"private","amenity":"waste_disposal","waste":"trash"}},"type":"Feature"},
	{"geometry":{"coordinates":[-118.531315,34.237831],"type":"Point"},"properties":{"osm_id":"2346597013","tag":{"access":"private","amenity":"waste_disposal","waste":"trash"}},"type":"Feature"},
	{"geometry":{"coordinates":[-118.526405,34.238341],"type":"Point"},"properties":{"osm_id":"2346597017","tag":{"access":"private","amenity":"waste_disposal","waste":"trash"}},"type":"Feature"},
	{"geometry":{"coordinates":[-118.532504,34.240359],"type":"Point"},"properties":{"osm_id":"2346597021","tag":{"access":"private","amenity":"waste_disposal","waste":"trash"}},"type":"Feature"},
	{"geometry":{"coordinates":[-118.527865,34.243801],"type":"Point"},"properties":{"osm_id":"2346597025","tag":{"access":"private","amenity":"waste_disposal","waste":"trash"}},"type":"Feature"},
	{"geometry":{"coordinates":[-118.523444,34.237542],"type":"Point"},"properties":{"osm_id":"2893550677","tag":{"access":"private","amenity":"waste_disposal","waste":"trash"}},"type":"Feature"},
	{"geometry":{"coordinates":[-118.526494,34.241268],"type":"Point"},"properties":{"osm_id":"2893550678","tag":{"access":"private","amenity":"waste_disposal","waste":"trash"}},"type":"Feature"},
	{"geometry":{"coordinates":[-118.528177,34.243024],"type":"Point"},"properties":{"osm_id":"4308014294","tag":{"access":"private","amenity":"waste_disposal","waste":"trash"}},"type":"Feature"},
	{"geometry":{"coordinates":[-118.526121,34.236837],"type":"Point"},"properties":{"osm_id":"4707684330","tag":{"amenity":"waste_basket"}},"type":"Feature"},
	{"geometry":{"coordinates":[-118.526169,34.236594],"type":"Point"},"properties":{"osm_id":"4707684331","tag":{"amenity":"waste_basket"}},"type":"Feature"},
	{"geometry":{"coordinates":[-118.525924,34.236977],"type":"Point"},"properties":{"osm_id":"4707684332","tag":{"amenity":"waste_basket"}},"type":"Feature"},
	{"geometry":{"coordinates":[-118.526544,34.236542],"type":"Point"},"properties":{"osm_id":"4707684333","tag":{"amenity":"waste_basket"}},"type":"Feature"},
	{"geometry":{"coordinates":[-118.524574,34.244616],"type":"Point"},"properties":{"osm_id":"4717656569","tag":{"amenity":"waste_basket"}},"type":"Feature"},
	{"geometry":{"coordinates":[-118.526055,34.236403],"type":"Point"},"properties":{"osm_id":"4719469693","tag":{"amenity":"waste_basket"}},"type":"Feature"},
	{"geometry":{"coordinates":[-118.554553,34.274724],"type":"Point"},"properties":{"osm_id":"7711574877","tag":{"amenity":"recycling","recycling_type":"centre"}},"type":"Feature"}
]
}
