{
"type": "FeatureCollection",
"features": [
	{"geometry":{"coordinates":[137.784835,35.493957],"type":"Point"},"properties":{"name":"\u00e5\u00a2\u0097\u00e6\u00b3\u0089\u00e5\u00af\u00ba\u00e3\u0081\u00ae\u00e6\u00a1\u009c","osm_id":"8132939002","tag":{"circumference":"4","denotation":"landmark","height":"18","leaf_cycle":"deciduous","leaf_type":"broadleaved","natural":"tree","tourism":"attraction"}},"type":"Feature"},
	{"geometry":{"coordinates":[137.80842,35.52299],"type":"Point"},"properties":{"name":"\u00e9\u0098\u00bf\u00e5\u00bc\u00a5\u00e9\u0099\u0080\u00e5\u00af\u00ba\u00e3\u0081\u00ae\u00e3\u0082\u00b7\u00e3\u0083\u0080\u00e3\u0083\u00ac\u00e3\u0082\u00b6\u00e3\u0082\u00af\u00e3\u0083\u00a9","osm_id":"8502935720","tag":{"denotation":"natural_monument","leaf_cycle":"deciduous","leaf_type":"broadleaved","name:en":"Amidaji Weeping Cherry Tree (Shidarezakura)","name:ja":"\u00e9\u0098\u00bf\u00e5\u00bc\u00a5\u00e9\u0099\u0080\u00e5\u00af\u00ba\u00e3\u0081\u00ae\u00e3\u0082\u00b7\u00e3\u0083\u0080\u00e3\u0083\u00ac\u00e3\u0082\u00b6\u00e3\u0082\u00af\u00e3\u0083\u00a9","natural":"tree","tourism":"attraction","website":"https://www.city.iida.lg.jp/site/bunkazai/amidajinosidarezakura.html"}},"type":"Feature"},
	{"geometry":{"coordinates":[137.798743,35.526353],"type":"Point"},"properties":{"name":"\u00e6\u00ad\u00a3\u00e6\u00b0\u00b8\u00e5\u00af\u00ba\u00e5\u008e\u009f\u00e3\u0081\u00ae\u00e5\u0085\u00ac\u00e5\u00ad\u00ab\u00e6\u00a8\u00b9","osm_id":"8505250789","tag":{"denotation":"natural_monument","leaf_cycle":"deciduous","leaf_type":"broadleaved","name:en":"Shoeijibara Gingko","name:ja":"\u00e6\u00ad\u00a3\u00e6\u00b0\u00b8\u00e5\u00af\u00ba\u00e5\u008e\u009f\u00e3\u0081\u00ae\u00e5\u0085\u00ac\u00e5\u00ad\u00ab\u00e6\u00a8\u00b9","natural":"tree","website":"https://www.city.iida.lg.jp/site/bunkazai/shoueijibaranoichou.html"}},"type":"Feature"},
	{"geometry":{"coordinates":[137.766516,35.467538],"type":"Point"},"properties":{"osm_id":"9073124795","tag":{"denotation":"natural_monument","leaf_cycle":"deciduous","leaf_type":"broadleaved","natural":"tree"}},"type":"Feature"},
	{"geometry":{"coordinates":[137.762304,35.489145],"type":"Point"},"properties":{"name":"\u00e5\u00b1\u00b1\u00e6\u009c\u00ac\u00e3\u0081\u00ae\u00e3\u0083\u008f\u00e3\u0083\u008a\u00e3\u0083\u008e\u00e3\u0082\u00ad","osm_id":"9086111846","tag":{"denotation":"natural_monument","leaf_cycle":"deciduous","leaf_type":"broadleaved","name:en":"Yamamoto Hananoki","name:ja":"\u00e5\u00b1\u00b1\u00e6\u009c\u00ac\u00e3\u0081\u00ae\u00e3\u0083\u008f\u00e3\u0083\u008a\u00e3\u0083\u008e\u00e3\u0082\u00ad","natural":"tree","species":"Acer pycnanthum","species:wikidata":"Q15287999","species:wikipedia":"en:Acer pycnanthum","website":"https://www.city.iida.lg.jp/site/bunkazai/hananoki.html"}},"type":"Feature"}
]
}
