{
"type": "FeatureCollection",
"lastupdate": "2020-07-31T00:00:00Z",
"features": [
	{"geometry":{"coordinates":[-7.987968,41.400221],"type":"Point"},"properties":{"osm_id":"2640903902","tag":{"amenity":"recycling"}},"type":"Feature"},
	{"geometry":{"coordinates":[-7.971609,41.438447],"type":"Point"},"properties":{"name":"Ecoponto","osm_id":"2884176229","tag":{"amenity":"recycling"}},"type":"Feature"},
	{"geometry":{"coordinates":[-7.943644,41.418337],"type":"Point"},"properties":{"osm_id":"2969107283","tag":{"amenity":"recycling"}},"type":"Feature"},
	{"geometry":{"coordinates":[-7.926736,41.438079],"type":"Point"},"properties":{"name":"Ecoponto","osm_id":"2979081351","tag":{"amenity":"recycling"}},"type":"Feature"},
	{"geometry":{"coordinates":[-7.972577,41.411244],"type":"Point"},"properties":{"name":"Ecoponto","osm_id":"2981949810","tag":{"amenity":"recycling"}},"type":"Feature"},
	{"geometry":{"coordinates":[-7.967243,41.442566],"type":"Point"},"properties":{"name":"Ecoponto","osm_id":"3109681627","tag":{"amenity":"recycling","mapillary":"GKIE7bdb-AVr0JW5EMVIEw","recycling_type":"container","survey:date":"2020-01-04"}},"type":"Feature"},
	{"geometry":{"coordinates":[-7.946537,41.37976],"type":"Point"},"properties":{"osm_id":"3259547466","tag":{"amenity":"recycling","image":"https://storage13.openstreetcam.org/files/photo/2019/11/10/lth/2052470_14_e9e2c_34.jpg","recycling_type":"container","survey:date":"2019-11-10"}},"type":"Feature"},
	{"geometry":{"coordinates":[-7.9837,41.43555],"type":"Point"},"properties":{"osm_id":"3312071881","tag":{"amenity":"recycling"}},"type":"Feature"},
	{"geometry":{"coordinates":[-7.986975,41.424425],"type":"Point"},"properties":{"name":"Ecoponto","osm_id":"3758750219","tag":{"amenity":"recycling"}},"type":"Feature"}
]
}
