{
"type": "FeatureCollection",
"features": [
	{"geometry":{"coordinates":[-7.913817,40.654964],"type":"Point"},"properties":{"osm_id":"4995489503","tag":{"amenity":"recycling","recycling:cans":"yes","recycling:cardboard":"yes","recycling:glass_bottles":"yes","recycling:paper":"yes","recycling_type":"container"}},"type":"Feature"},
	{"geometry":{"coordinates":[-7.923805,40.654142],"type":"Point"},"properties":{"osm_id":"5883026203","tag":{"amenity":"recycling","recycling_type":"container"}},"type":"Feature"},
	{"geometry":{"coordinates":[-7.927613,40.654963],"type":"Point"},"properties":{"osm_id":"5905118463","tag":{"amenity":"waste_disposal"}},"type":"Feature"},
	{"geometry":{"coordinates":[-7.927588,40.654956],"type":"Point"},"properties":{"osm_id":"5905118464","tag":{"amenity":"recycling","recycling_type":"container"}},"type":"Feature"},
	{"geometry":{"coordinates":[-7.927596,40.654933],"type":"Point"},"properties":{"osm_id":"5905118465","tag":{"amenity":"waste_disposal"}},"type":"Feature"},
	{"geometry":{"coordinates":[-7.927629,40.654939],"type":"Point"},"properties":{"osm_id":"5905118466","tag":{"amenity":"recycling","recycling_type":"container"}},"type":"Feature"},
	{"geometry":{"coordinates":[-7.917869,40.654146],"type":"Point"},"properties":{"osm_id":"5907901218","tag":{"amenity":"waste_basket"}},"type":"Feature"},
	{"geometry":{"coordinates":[-7.917867,40.654127],"type":"Point"},"properties":{"osm_id":"5907901219","tag":{"amenity":"waste_basket"}},"type":"Feature"},
	{"geometry":{"coordinates":[-7.914893,40.65958],"type":"Point"},"properties":{"osm_id":"5909816928","tag":{"amenity":"waste_disposal"}},"type":"Feature"},
	{"geometry":{"coordinates":[-7.914898,40.659594],"type":"Point"},"properties":{"osm_id":"5909816929","tag":{"amenity":"waste_disposal"}},"type":"Feature"},
	{"geometry":{"coordinates":[-7.914904,40.659609],"type":"Point"},"properties":{"osm_id":"5909816930","tag":{"amenity":"waste_disposal"}},"type":"Feature"},
	{"geometry":{"coordinates":[-7.914908,40.659626],"type":"Point"},"properties":{"osm_id":"5909816931","tag":{"amenity":"waste_disposal"}},"type":"Feature"},
	{"geometry":{"coordinates":[-7.914915,40.659644],"type":"Point"},"properties":{"osm_id":"5909816932","tag":{"amenity":"waste_disposal"}},"type":"Feature"},
	{"geometry":{"coordinates":[-7.913706,40.657284],"type":"Point"},"properties":{"osm_id":"5909837277","tag":{"amenity":"waste_basket"}},"type":"Feature"},
	{"geometry":{"coordinates":[-7.914029,40.657336],"type":"Point"},"properties":{"osm_id":"5909843417","tag":{"amenity":"waste_basket"}},"type":"Feature"},
	{"geometry":{"coordinates":[-7.914106,40.657002],"type":"Point"},"properties":{"osm_id":"5909843418","tag":{"amenity":"waste_basket","backrest":"yes"}},"type":"Feature"},
	{"geometry":{"coordinates":[-7.914617,40.65714],"type":"Point"},"properties":{"osm_id":"5909851351","tag":{"amenity":"waste_basket"}},"type":"Feature"},
	{"geometry":{"coordinates":[-7.911856,40.659935],"type":"Point"},"properties":{"osm_id":"5916454308","tag":{"amenity":"waste_disposal"}},"type":"Feature"},
	{"geometry":{"coordinates":[-7.911834,40.659927],"type":"Point"},"properties":{"osm_id":"5916454309","tag":{"amenity":"waste_disposal"}},"type":"Feature"},
	{"geometry":{"coordinates":[-7.911847,40.659909],"type":"Point"},"properties":{"osm_id":"5916454310","tag":{"amenity":"waste_disposal"}},"type":"Feature"},
	{"geometry":{"coordinates":[-7.91187,40.659918],"type":"Point"},"properties":{"osm_id":"5916454311","tag":{"amenity":"waste_disposal"}},"type":"Feature"},
	{"geometry":{"coordinates":[-7.914267,40.656752],"type":"Point"},"properties":{"osm_id":"5916542279","tag":{"amenity":"waste_basket"}},"type":"Feature"},
	{"geometry":{"coordinates":[-7.911975,40.659116],"type":"Point"},"properties":{"osm_id":"5916555292","tag":{"amenity":"waste_disposal"}},"type":"Feature"},
	{"geometry":{"coordinates":[-7.91196,40.659111],"type":"Point"},"properties":{"osm_id":"5916555297","tag":{"amenity":"waste_disposal"}},"type":"Feature"},
	{"geometry":{"coordinates":[-7.921915,40.65576],"type":"Point"},"properties":{"osm_id":"5922162737","tag":{"amenity":"recycling","recycling_type":"container"}},"type":"Feature"},
	{"geometry":{"coordinates":[-7.921935,40.655751],"type":"Point"},"properties":{"osm_id":"5922162738","tag":{"amenity":"recycling","recycling_type":"container"}},"type":"Feature"},
	{"geometry":{"coordinates":[-7.921922,40.655735],"type":"Point"},"properties":{"osm_id":"5922162739","tag":{"amenity":"recycling","recycling_type":"container"}},"type":"Feature"},
	{"geometry":{"coordinates":[-7.921905,40.655742],"type":"Point"},"properties":{"osm_id":"5922162740","tag":{"amenity":"recycling","recycling_type":"container"}},"type":"Feature"},
	{"geometry":{"coordinates":[-7.920062,40.672109],"type":"Point"},"properties":{"osm_id":"5981490433","tag":{"amenity":"recycling","recycling_type":"container"}},"type":"Feature"},
	{"geometry":{"coordinates":[-7.920082,40.672124],"type":"Point"},"properties":{"osm_id":"5981490434","tag":{"amenity":"recycling","recycling_type":"container"}},"type":"Feature"},
	{"geometry":{"coordinates":[-7.920043,40.672093],"type":"Point"},"properties":{"osm_id":"5981490435","tag":{"amenity":"recycling","recycling_type":"container"}},"type":"Feature"},
	{"geometry":{"coordinates":[-7.915407,40.660958],"type":"Point"},"properties":{"osm_id":"6001611134","tag":{"amenity":"recycling","recycling_type":"container"}},"type":"Feature"},
	{"geometry":{"coordinates":[-7.915414,40.661018],"type":"Point"},"properties":{"osm_id":"6001611135","tag":{"amenity":"recycling","recycling_type":"container"}},"type":"Feature"},
	{"geometry":{"coordinates":[-7.915412,40.660978],"type":"Point"},"properties":{"osm_id":"6001611136","tag":{"amenity":"recycling","recycling_type":"container"}},"type":"Feature"},
	{"geometry":{"coordinates":[-7.915416,40.661036],"type":"Point"},"properties":{"osm_id":"6001611137","tag":{"amenity":"recycling","recycling_type":"container"}},"type":"Feature"},
	{"geometry":{"coordinates":[-7.915302,40.66162],"type":"Point"},"properties":{"osm_id":"6002563285","tag":{"amenity":"waste_basket"}},"type":"Feature"},
	{"geometry":{"coordinates":[-7.914892,40.660883],"type":"Point"},"properties":{"osm_id":"6002565400","tag":{"amenity":"waste_basket"}},"type":"Feature"},
	{"geometry":{"coordinates":[-7.914959,40.660954],"type":"Point"},"properties":{"osm_id":"6002565401","tag":{"amenity":"waste_basket"}},"type":"Feature"},
	{"geometry":{"coordinates":[-7.914758,40.661204],"type":"Point"},"properties":{"osm_id":"6002565402","tag":{"amenity":"waste_basket"}},"type":"Feature"},
	{"geometry":{"coordinates":[-7.914648,40.661143],"type":"Point"},"properties":{"osm_id":"6002565403","tag":{"amenity":"waste_basket"}},"type":"Feature"},
	{"geometry":{"coordinates":[-7.914457,40.661397],"type":"Point"},"properties":{"osm_id":"6002565404","tag":{"amenity":"waste_basket"}},"type":"Feature"},
	{"geometry":{"coordinates":[-7.923045,40.659879],"type":"Point"},"properties":{"osm_id":"6005365953","tag":{"amenity":"recycling","recycling_type":"container"}},"type":"Feature"},
	{"geometry":{"coordinates":[-7.911895,40.662057],"type":"Point"},"properties":{"osm_id":"6008550069","tag":{"amenity":"recycling","recycling_type":"container"}},"type":"Feature"},
	{"geometry":{"coordinates":[-7.913288,40.664906],"type":"Point"},"properties":{"osm_id":"6014115442","tag":{"amenity":"recycling","recycling_type":"container"}},"type":"Feature"},
	{"geometry":{"coordinates":[-7.916443,40.664595],"type":"Point"},"properties":{"osm_id":"6014118183","tag":{"amenity":"recycling","recycling_type":"container"}},"type":"Feature"},
	{"geometry":{"coordinates":[-7.91879,40.659391],"type":"Point"},"properties":{"osm_id":"6018115787","tag":{"amenity":"recycling","recycling_type":"container"}},"type":"Feature"},
	{"geometry":{"coordinates":[-7.918914,40.659146],"type":"Point"},"properties":{"osm_id":"6018115788","tag":{"amenity":"waste_disposal"}},"type":"Feature"},
	{"geometry":{"coordinates":[-7.919652,40.659716],"type":"Point"},"properties":{"osm_id":"6018115820","tag":{"amenity":"recycling","recycling_type":"container"}},"type":"Feature"},
	{"geometry":{"coordinates":[-7.921224,40.660021],"type":"Point"},"properties":{"osm_id":"6018115873","tag":{"amenity":"recycling","recycling_type":"container"}},"type":"Feature"},
	{"geometry":{"coordinates":[-7.920831,40.659415],"type":"Point"},"properties":{"osm_id":"6018141940","tag":{"amenity":"waste_disposal"}},"type":"Feature"},
	{"geometry":{"coordinates":[-7.910835,40.663504],"type":"Point"},"properties":{"osm_id":"6051286264","tag":{"amenity":"waste_disposal"}},"type":"Feature"},
	{"geometry":{"coordinates":[-7.912824,40.647851],"type":"Point"},"properties":{"osm_id":"6051466579","tag":{"amenity":"waste_basket"}},"type":"Feature"},
	{"geometry":{"coordinates":[-7.912744,40.648462],"type":"Point"},"properties":{"osm_id":"6052758107","tag":{"amenity":"waste_disposal"}},"type":"Feature"},
	{"geometry":{"coordinates":[-7.910302,40.657549],"type":"Point"},"properties":{"osm_id":"6070656357","tag":{"amenity":"waste_basket"}},"type":"Feature"},
	{"geometry":{"coordinates":[-7.920056,40.653883],"type":"Point"},"properties":{"osm_id":"6110177712","tag":{"amenity":"waste_basket"}},"type":"Feature"},
	{"geometry":{"coordinates":[-7.928057,40.659849],"type":"Point"},"properties":{"osm_id":"6133719783","tag":{"amenity":"recycling","recycling_type":"container"}},"type":"Feature"},
	{"geometry":{"coordinates":[-7.926865,40.653179],"type":"Point"},"properties":{"osm_id":"6136029305","tag":{"amenity":"recycling","recycling_type":"container"}},"type":"Feature"},
	{"geometry":{"coordinates":[-7.925195,40.653163],"type":"Point"},"properties":{"osm_id":"6136029307","tag":{"amenity":"recycling","recycling_type":"container"}},"type":"Feature"},
	{"geometry":{"coordinates":[-7.926157,40.653231],"type":"Point"},"properties":{"osm_id":"6136029308","tag":{"amenity":"waste_basket"}},"type":"Feature"},
	{"geometry":{"coordinates":[-7.925664,40.653434],"type":"Point"},"properties":{"osm_id":"6136029309","tag":{"amenity":"waste_basket"}},"type":"Feature"},
	{"geometry":{"coordinates":[-7.925353,40.65347],"type":"Point"},"properties":{"osm_id":"6136029310","tag":{"amenity":"waste_basket"}},"type":"Feature"},
	{"geometry":{"coordinates":[-7.925686,40.65357],"type":"Point"},"properties":{"osm_id":"6136029313","tag":{"amenity":"waste_basket"}},"type":"Feature"},
	{"geometry":{"coordinates":[-7.923849,40.654271],"type":"Point"},"properties":{"osm_id":"6136029331","tag":{"amenity":"waste_basket"}},"type":"Feature"},
	{"geometry":{"coordinates":[-7.924674,40.654488],"type":"Point"},"properties":{"osm_id":"6136029332","tag":{"amenity":"waste_basket"}},"type":"Feature"},
	{"geometry":{"coordinates":[-7.914685,40.654063],"type":"Point"},"properties":{"osm_id":"6137332242","tag":{"amenity":"recycling","recycling_type":"container"}},"type":"Feature"},
	{"geometry":{"coordinates":[-7.928462,40.653593],"type":"Point"},"properties":{"osm_id":"6139515198","tag":{"amenity":"recycling","recycling_type":"container"}},"type":"Feature"},
	{"geometry":{"coordinates":[-7.916334,40.647607],"type":"Point"},"properties":{"osm_id":"6139624496","tag":{"amenity":"waste_disposal"}},"type":"Feature"},
	{"geometry":{"coordinates":[-7.91629,40.648531],"type":"Point"},"properties":{"osm_id":"6139624497","tag":{"amenity":"waste_disposal"}},"type":"Feature"},
	{"geometry":{"coordinates":[-7.914854,40.647858],"type":"Point"},"properties":{"osm_id":"6139624498","tag":{"amenity":"waste_disposal"}},"type":"Feature"},
	{"geometry":{"coordinates":[-7.916902,40.660135],"type":"Point"},"properties":{"osm_id":"6150254591","tag":{"amenity":"waste_disposal"}},"type":"Feature"},
	{"geometry":{"coordinates":[-7.913574,40.656738],"type":"Point"},"properties":{"osm_id":"6163883161","tag":{"amenity":"recycling","recycling:glass_bottles":"yes","recycling:organic":"yes","recycling:paper":"yes","recycling:plastic":"yes","recycling:plastic_packaging":"yes","recycling_type":"container"}},"type":"Feature"},
	{"geometry":{"coordinates":[-7.923524,40.655447],"type":"Point"},"properties":{"osm_id":"6163883179","tag":{"amenity":"waste_basket"}},"type":"Feature"},
	{"geometry":{"coordinates":[-7.924209,40.655192],"type":"Point"},"properties":{"osm_id":"6163883180","tag":{"amenity":"waste_basket"}},"type":"Feature"},
	{"geometry":{"coordinates":[-7.924179,40.655369],"type":"Point"},"properties":{"osm_id":"6163883181","tag":{"amenity":"waste_basket"}},"type":"Feature"},
	{"geometry":{"coordinates":[-7.923907,40.655251],"type":"Point"},"properties":{"osm_id":"6163883182","tag":{"amenity":"waste_basket"}},"type":"Feature"},
	{"geometry":{"coordinates":[-7.923821,40.65541],"type":"Point"},"properties":{"osm_id":"6163883183","tag":{"amenity":"waste_basket"}},"type":"Feature"},
	{"geometry":{"coordinates":[-7.923591,40.655312],"type":"Point"},"properties":{"osm_id":"6163883184","tag":{"amenity":"waste_basket"}},"type":"Feature"},
	{"geometry":{"coordinates":[-7.924053,40.65609],"type":"Point"},"properties":{"osm_id":"6163883468","tag":{"amenity":"waste_disposal"}},"type":"Feature"},
	{"geometry":{"coordinates":[-7.923905,40.657103],"type":"Point"},"properties":{"osm_id":"6166797178","tag":{"amenity":"waste_disposal"}},"type":"Feature"},
	{"geometry":{"coordinates":[-7.926324,40.669421],"type":"Point"},"properties":{"osm_id":"6170592013","tag":{"amenity":"recycling","recycling_type":"container"}},"type":"Feature"},
	{"geometry":{"coordinates":[-7.91793,40.670371],"type":"Point"},"properties":{"osm_id":"6172015207","tag":{"amenity":"waste_disposal"}},"type":"Feature"},
	{"geometry":{"coordinates":[-7.910494,40.649735],"type":"Point"},"properties":{"osm_id":"6177480745","tag":{"amenity":"recycling","recycling_type":"container"}},"type":"Feature"},
	{"geometry":{"coordinates":[-7.910715,40.64872],"type":"Point"},"properties":{"osm_id":"6177484096","tag":{"amenity":"recycling","recycling_type":"container"}},"type":"Feature"},
	{"geometry":{"coordinates":[-7.910641,40.648587],"type":"Point"},"properties":{"osm_id":"6177484097","tag":{"amenity":"waste_disposal"}},"type":"Feature"},
	{"geometry":{"coordinates":[-7.910487,40.647948],"type":"Point"},"properties":{"osm_id":"6177484098","tag":{"amenity":"recycling","recycling_type":"container"}},"type":"Feature"},
	{"geometry":{"coordinates":[-7.922814,40.653344],"type":"Point"},"properties":{"osm_id":"6181130345","tag":{"amenity":"waste_basket"}},"type":"Feature"},
	{"geometry":{"coordinates":[-7.923898,40.654538],"type":"Point"},"properties":{"osm_id":"6182548450","tag":{"amenity":"waste_basket","waste":"dog_excrement"}},"type":"Feature"},
	{"geometry":{"coordinates":[-7.923795,40.654126],"type":"Point"},"properties":{"osm_id":"6182548451","tag":{"amenity":"recycling","recycling_type":"container"}},"type":"Feature"},
	{"geometry":{"coordinates":[-7.923785,40.654109],"type":"Point"},"properties":{"osm_id":"6182548452","tag":{"amenity":"recycling","recycling_type":"container"}},"type":"Feature"},
	{"geometry":{"coordinates":[-7.923813,40.654157],"type":"Point"},"properties":{"osm_id":"6182548453","tag":{"amenity":"waste_disposal"}},"type":"Feature"},
	{"geometry":{"coordinates":[-7.925136,40.65553],"type":"Point"},"properties":{"osm_id":"6182548463","tag":{"amenity":"waste_basket"}},"type":"Feature"},
	{"geometry":{"coordinates":[-7.925426,40.655109],"type":"Point"},"properties":{"osm_id":"6182548464","tag":{"amenity":"waste_basket"}},"type":"Feature"},
	{"geometry":{"coordinates":[-7.912813,40.665514],"type":"Point"},"properties":{"osm_id":"6182564300","tag":{"amenity":"waste_disposal"}},"type":"Feature"},
	{"geometry":{"coordinates":[-7.923074,40.654276],"type":"Point"},"properties":{"osm_id":"6182588190","tag":{"amenity":"waste_disposal"}},"type":"Feature"},
	{"geometry":{"coordinates":[-7.913258,40.653421],"type":"Point"},"properties":{"osm_id":"6182588193","tag":{"amenity":"waste_disposal"}},"type":"Feature"},
	{"geometry":{"coordinates":[-7.924024,40.657909],"type":"Point"},"properties":{"osm_id":"6185061248","tag":{"amenity":"recycling","recycling_type":"container"}},"type":"Feature"},
	{"geometry":{"coordinates":[-7.914438,40.653217],"type":"Point"},"properties":{"osm_id":"6186149487","tag":{"amenity":"recycling","recycling:glass_bottles":"yes","recycling:organic":"yes","recycling:paper":"yes","recycling:plastic":"yes","recycling:plastic_packaging":"yes","recycling_type":"container"}},"type":"Feature"},
	{"geometry":{"coordinates":[-7.914492,40.652648],"type":"Point"},"properties":{"osm_id":"6186149500","tag":{"amenity":"waste_disposal"}},"type":"Feature"},
	{"geometry":{"coordinates":[-7.919062,40.649042],"type":"Point"},"properties":{"osm_id":"6186284599","tag":{"amenity":"waste_disposal"}},"type":"Feature"},
	{"geometry":{"coordinates":[-7.919054,40.649019],"type":"Point"},"properties":{"osm_id":"6186284600","tag":{"amenity":"waste_disposal"}},"type":"Feature"},
	{"geometry":{"coordinates":[-7.927684,40.661948],"type":"Point"},"properties":{"osm_id":"6193880092","tag":{"amenity":"recycling","recycling_type":"container"}},"type":"Feature"},
	{"geometry":{"coordinates":[-7.926678,40.659122],"type":"Point"},"properties":{"osm_id":"6193880477","tag":{"amenity":"recycling","recycling_type":"container"}},"type":"Feature"},
	{"geometry":{"coordinates":[-7.928128,40.658849],"type":"Point"},"properties":{"osm_id":"6193884019","tag":{"amenity":"waste_disposal"}},"type":"Feature"},
	{"geometry":{"coordinates":[-7.912124,40.660432],"type":"Point"},"properties":{"osm_id":"6193955395","tag":{"amenity":"waste_disposal"}},"type":"Feature"},
	{"geometry":{"coordinates":[-7.913663,40.650355],"type":"Point"},"properties":{"osm_id":"6222015897","tag":{"amenity":"waste_disposal"}},"type":"Feature"},
	{"geometry":{"coordinates":[-7.915492,40.650281],"type":"Point"},"properties":{"osm_id":"6222015898","tag":{"amenity":"recycling","recycling_type":"container"}},"type":"Feature"},
	{"geometry":{"coordinates":[-7.914545,40.649138],"type":"Point"},"properties":{"osm_id":"6222015910","tag":{"amenity":"waste_disposal"}},"type":"Feature"},
	{"geometry":{"coordinates":[-7.913217,40.649404],"type":"Point"},"properties":{"osm_id":"6222015911","tag":{"amenity":"waste_disposal"}},"type":"Feature"},
	{"geometry":{"coordinates":[-7.915503,40.649878],"type":"Point"},"properties":{"osm_id":"6222015935","tag":{"amenity":"waste_basket"}},"type":"Feature"},
	{"geometry":{"coordinates":[-7.914698,40.649924],"type":"Point"},"properties":{"osm_id":"6222015936","tag":{"amenity":"waste_basket"}},"type":"Feature"},
	{"geometry":{"coordinates":[-7.914312,40.649743],"type":"Point"},"properties":{"osm_id":"6222015937","tag":{"amenity":"waste_basket"}},"type":"Feature"},
	{"geometry":{"coordinates":[-7.914597,40.649427],"type":"Point"},"properties":{"osm_id":"6222015938","tag":{"amenity":"waste_basket"}},"type":"Feature"},
	{"geometry":{"coordinates":[-7.912154,40.656286],"type":"Point"},"properties":{"osm_id":"6270206966","tag":{"amenity":"recycling","recycling_type":"container"}},"type":"Feature"},
	{"geometry":{"coordinates":[-7.920501,40.661498],"type":"Point"},"properties":{"osm_id":"6277123768","tag":{"amenity":"recycling","recycling_type":"container"}},"type":"Feature"},
	{"geometry":{"coordinates":[-7.910185,40.65685],"type":"Point"},"properties":{"osm_id":"6283324324","tag":{"amenity":"waste_basket"}},"type":"Feature"},
	{"geometry":{"coordinates":[-7.911043,40.656652],"type":"Point"},"properties":{"osm_id":"6283324332","tag":{"amenity":"recycling","recycling_type":"container"}},"type":"Feature"},
	{"geometry":{"coordinates":[-7.910708,40.656159],"type":"Point"},"properties":{"osm_id":"6283324501","tag":{"amenity":"waste_disposal"}},"type":"Feature"},
	{"geometry":{"coordinates":[-7.916599,40.657956],"type":"Point"},"properties":{"osm_id":"6283450128","tag":{"amenity":"waste_disposal"}},"type":"Feature"},
	{"geometry":{"coordinates":[-7.916294,40.657694],"type":"Point"},"properties":{"osm_id":"6283450140","tag":{"amenity":"recycling","recycling_type":"container"}},"type":"Feature"},
	{"geometry":{"coordinates":[-7.910619,40.656256],"type":"Point"},"properties":{"osm_id":"6288834287","tag":{"amenity":"waste_basket"}},"type":"Feature"},
	{"geometry":{"coordinates":[-7.910541,40.658361],"type":"Point"},"properties":{"osm_id":"6293395446","tag":{"amenity":"recycling","recycling_type":"container"}},"type":"Feature"},
	{"geometry":{"coordinates":[-7.924665,40.652538],"type":"Point"},"properties":{"osm_id":"6306356854","tag":{"amenity":"recycling","recycling_type":"container"}},"type":"Feature"},
	{"geometry":{"coordinates":[-7.910673,40.655395],"type":"Point"},"properties":{"osm_id":"6341337045","tag":{"amenity":"waste_disposal"}},"type":"Feature"},
	{"geometry":{"coordinates":[-7.919201,40.66033],"type":"Point"},"properties":{"osm_id":"6372271053","tag":{"amenity":"waste_disposal"}},"type":"Feature"},
	{"geometry":{"coordinates":[-7.91066,40.660397],"type":"Point"},"properties":{"osm_id":"6760857654","tag":{"amenity":"recycling","recycling_type":"container"}},"type":"Feature"},
	{"geometry":{"coordinates":[-7.911441,40.649958],"type":"Point"},"properties":{"osm_id":"6967442713","tag":{"amenity":"recycling","recycling_type":"container"}},"type":"Feature"},
	{"geometry":{"coordinates":[-7.925387,40.677134],"type":"Point"},"properties":{"osm_id":"6987989380","tag":{"amenity":"recycling","recycling_type":"container"}},"type":"Feature"},
	{"geometry":{"coordinates":[-7.914923,40.663305],"type":"Point"},"properties":{"osm_id":"7139353416","tag":{"amenity":"recycling","recycling_type":"container"}},"type":"Feature"},
	{"geometry":{"coordinates":[-7.916062,40.659485],"type":"Point"},"properties":{"osm_id":"7140860976","tag":{"amenity":"recycling","recycling_type":"container"}},"type":"Feature"},
	{"geometry":{"coordinates":[-7.919329,40.647865],"type":"Point"},"properties":{"osm_id":"7200534570","tag":{"amenity":"recycling","recycling_type":"container"}},"type":"Feature"},
	{"geometry":{"coordinates":[-7.913491,40.648341],"type":"Point"},"properties":{"osm_id":"7230294142","tag":{"amenity":"recycling","recycling_type":"container"}},"type":"Feature"},
	{"geometry":{"coordinates":[-7.922382,40.652737],"type":"Point"},"properties":{"osm_id":"7247373803","tag":{"amenity":"waste_basket"}},"type":"Feature"},
	{"geometry":{"coordinates":[-7.930778,40.670203],"type":"Point"},"properties":{"osm_id":"7291410903","tag":{"amenity":"recycling","recycling_type":"container"}},"type":"Feature"},
	{"geometry":{"coordinates":[-7.93075,40.670202],"type":"Point"},"properties":{"osm_id":"7291410904","tag":{"amenity":"waste_disposal"}},"type":"Feature"},
	{"geometry":{"coordinates":[-7.919807,40.672299],"type":"Point"},"properties":{"osm_id":"7382762327","tag":{"amenity":"recycling","recycling_type":"container"}},"type":"Feature"},
	{"geometry":{"coordinates":[-7.926467,40.660341],"type":"Point"},"properties":{"osm_id":"7402723178","tag":{"amenity":"recycling","recycling_type":"container"}},"type":"Feature"},
	{"geometry":{"coordinates":[-7.928603,40.66126],"type":"Point"},"properties":{"osm_id":"7402736862","tag":{"amenity":"waste_disposal"}},"type":"Feature"},
	{"geometry":{"coordinates":[-7.927055,40.65711],"type":"Point"},"properties":{"osm_id":"7475713790","tag":{"amenity":"recycling","recycling_type":"container"}},"type":"Feature"},
	{"geometry":{"coordinates":[-7.915362,40.664593],"type":"Point"},"properties":{"osm_id":"7498635565","tag":{"amenity":"waste_disposal"}},"type":"Feature"},
	{"geometry":{"coordinates":[-7.915784,40.657399],"type":"Point"},"properties":{"osm_id":"7524573437","tag":{"amenity":"recycling","recycling_type":"container"}},"type":"Feature"},
	{"geometry":{"coordinates":[-7.916267,40.657681],"type":"Point"},"properties":{"osm_id":"7524573440","tag":{"amenity":"waste_disposal"}},"type":"Feature"},
	{"geometry":{"coordinates":[-7.927293,40.67206],"type":"Point"},"properties":{"osm_id":"7552795661","tag":{"amenity":"waste_disposal"}},"type":"Feature"},
	{"geometry":{"coordinates":[-7.917218,40.665449],"type":"Point"},"properties":{"osm_id":"7556654846","tag":{"amenity":"waste_basket"}},"type":"Feature"},
	{"geometry":{"coordinates":[-7.917172,40.665397],"type":"Point"},"properties":{"osm_id":"7556654847","tag":{"amenity":"waste_basket"}},"type":"Feature"},
	{"geometry":{"coordinates":[-7.916948,40.665584],"type":"Point"},"properties":{"osm_id":"7556654848","tag":{"amenity":"waste_basket"}},"type":"Feature"},
	{"geometry":{"coordinates":[-7.916939,40.665509],"type":"Point"},"properties":{"osm_id":"7556654849","tag":{"amenity":"waste_basket"}},"type":"Feature"},
	{"geometry":{"coordinates":[-7.917705,40.666004],"type":"Point"},"properties":{"osm_id":"7556654866","tag":{"amenity":"waste_basket"}},"type":"Feature"},
	{"geometry":{"coordinates":[-7.917649,40.665944],"type":"Point"},"properties":{"osm_id":"7556654867","tag":{"amenity":"waste_basket"}},"type":"Feature"},
	{"geometry":{"coordinates":[-7.926401,40.673803],"type":"Point"},"properties":{"osm_id":"7603915086","tag":{"amenity":"recycling","recycling_type":"container"}},"type":"Feature"},
	{"geometry":{"coordinates":[-7.926413,40.673782],"type":"Point"},"properties":{"osm_id":"7603915087","tag":{"amenity":"waste_disposal"}},"type":"Feature"},
	{"geometry":{"coordinates":[-7.91376,40.655011],"type":"Point"},"properties":{"osm_id":"7678471186","tag":{"amenity":"recycling","recycling_type":"container"}},"type":"Feature"},
	{"geometry":{"coordinates":[-7.926358,40.66809],"type":"Point"},"properties":{"osm_id":"7932174749","tag":{"amenity":"waste_disposal"}},"type":"Feature"},
	{"geometry":{"coordinates":[-7.923194,40.660587],"type":"Point"},"properties":{"osm_id":"8174079067","tag":{"amenity":"recycling","recycling_type":"container"}},"type":"Feature"},
	{"geometry":{"coordinates":[-7.922072,40.661911],"type":"Point"},"properties":{"osm_id":"8174138545","tag":{"amenity":"recycling","recycling_type":"container"}},"type":"Feature"},
	{"geometry":{"coordinates":[-7.921767,40.661075],"type":"Point"},"properties":{"osm_id":"8174138546","tag":{"amenity":"recycling","recycling_type":"container"}},"type":"Feature"},
	{"geometry":{"coordinates":[-7.92094,40.660551],"type":"Point"},"properties":{"osm_id":"8191510344","tag":{"amenity":"waste_basket"}},"type":"Feature"},
	{"geometry":{"coordinates":[-7.921377,40.661213],"type":"Point"},"properties":{"osm_id":"8191510345","tag":{"amenity":"waste_basket"}},"type":"Feature"},
	{"geometry":{"coordinates":[-7.913668,40.658432],"type":"Point"},"properties":{"osm_id":"8499618001","tag":{"amenity":"recycling","recycling_type":"container"}},"type":"Feature"},
	{"geometry":{"coordinates":[-7.916958,40.65233],"type":"Point"},"properties":{"osm_id":"8521276941","tag":{"amenity":"waste_disposal"}},"type":"Feature"},
	{"geometry":{"coordinates":[-7.911171,40.649999],"type":"Point"},"properties":{"osm_id":"8894854446","tag":{"amenity":"waste_basket"}},"type":"Feature"},
	{"geometry":{"coordinates":[-7.910676,40.650176],"type":"Point"},"properties":{"osm_id":"8894854447","tag":{"amenity":"waste_basket"}},"type":"Feature"},
	{"geometry":{"coordinates":[-7.91056,40.650195],"type":"Point"},"properties":{"osm_id":"8894854448","tag":{"amenity":"waste_basket"}},"type":"Feature"},
	{"geometry":{"coordinates":[-7.917762,40.656327],"type":"Point"},"properties":{"osm_id":"9124584805","tag":{"amenity":"recycling","recycling_type":"container"}},"type":"Feature"}
]
}
