{
"type": "FeatureCollection",
"lastupdate": "2020-08-02T00:00:00Z",
"features": [
	{"geometry":{"coordinates":[-7.931645,38.568631],"type":"Point"},"properties":{"osm_id":"5227104365","tag":{"amenity":"recycling","recycling:cartons":"yes","recycling:glass_bottles":"yes","recycling:magazines":"yes","recycling:newspaper":"yes","recycling:paper":"yes","recycling:paper_packaging":"yes","recycling:plastic_bottles":"yes","recycling_type":"container"}},"type":"Feature"},
	{"geometry":{"coordinates":[-7.924023,38.573683],"type":"Point"},"properties":{"osm_id":"5227127969","tag":{"amenity":"recycling"}},"type":"Feature"},
	{"geometry":{"coordinates":[-7.913472,38.583782],"type":"Point"},"properties":{"osm_id":"5291426185","tag":{"amenity":"recycling","recycling:batteries":"yes","recycling:glass_bottles":"yes","recycling:oils":"yes","recycling:paper":"yes","recycling:plastic":"yes","recycling_type":"container"}},"type":"Feature"},
	{"geometry":{"coordinates":[-7.91903,38.573769],"type":"Point"},"properties":{"osm_id":"5309149700","tag":{"amenity":"recycling","recycling_type":"container"}},"type":"Feature"},
	{"geometry":{"coordinates":[-7.917739,38.57536],"type":"Point"},"properties":{"osm_id":"5309149701","tag":{"amenity":"recycling","recycling_type":"container"}},"type":"Feature"},
	{"geometry":{"coordinates":[-7.916766,38.574187],"type":"Point"},"properties":{"osm_id":"5309149702","tag":{"amenity":"recycling","recycling_type":"container"}},"type":"Feature"},
	{"geometry":{"coordinates":[-7.913867,38.572733],"type":"Point"},"properties":{"osm_id":"5309149703","tag":{"amenity":"recycling","recycling_type":"container"}},"type":"Feature"},
	{"geometry":{"coordinates":[-7.91217,38.573113],"type":"Point"},"properties":{"osm_id":"5309149704","tag":{"amenity":"recycling","recycling_type":"container"}},"type":"Feature"},
	{"geometry":{"coordinates":[-7.916028,38.574771],"type":"Point"},"properties":{"osm_id":"5310701756","tag":{"amenity":"recycling","recycling_type":"container"}},"type":"Feature"},
	{"geometry":{"coordinates":[-7.915244,38.575575],"type":"Point"},"properties":{"highway":"street_lamp","osm_id":"5328429698"},"type":"Feature"},
	{"geometry":{"coordinates":[-7.915252,38.575609],"type":"Point"},"properties":{"osm_id":"5328429707","tag":{"amenity":"recycling","recycling_type":"container"}},"type":"Feature"},
	{"geometry":{"coordinates":[-7.922364,38.577228],"type":"Point"},"properties":{"osm_id":"5342635677","tag":{"amenity":"recycling","recycling_type":"container"}},"type":"Feature"},
	{"geometry":{"coordinates":[-7.922574,38.57881],"type":"Point"},"properties":{"osm_id":"5342656030","tag":{"amenity":"recycling","recycling_type":"container"}},"type":"Feature"},
	{"geometry":{"coordinates":[-7.923514,38.579506],"type":"Point"},"properties":{"osm_id":"5342663531","tag":{"amenity":"recycling","recycling_type":"container"}},"type":"Feature"},
	{"geometry":{"coordinates":[-7.923229,38.578204],"type":"Point"},"properties":{"osm_id":"5342663534","tag":{"amenity":"recycling","recycling_type":"container"}},"type":"Feature"},
	{"geometry":{"coordinates":[-7.913014,38.575861],"type":"Point"},"properties":{"osm_id":"6110235437","tag":{"amenity":"recycling"}},"type":"Feature"},
	{"geometry":{"coordinates":[-7.925358,38.569782],"type":"Point"},"properties":{"osm_id":"7438027872","tag":{"amenity":"recycling","recycling_type":"container"}},"type":"Feature"},
	{"geometry":{"coordinates":[-7.920573,38.569754],"type":"Point"},"properties":{"osm_id":"7438027876","tag":{"amenity":"recycling","recycling_type":"container"}},"type":"Feature"},
	{"geometry":{"coordinates":[-7.92869,38.572634],"type":"Point"},"properties":{"osm_id":"7438076194","tag":{"amenity":"recycling","recycling_type":"container"}},"type":"Feature"},
	{"geometry":{"coordinates":[-7.92706,38.570131],"type":"Point"},"properties":{"osm_id":"7438076198","tag":{"amenity":"recycling","recycling_type":"container"}},"type":"Feature"}
]
}
