{
"type": "FeatureCollection",
"features": [
	{"geometry":{"coordinates":[-2.904386,54.376162],"type":"Point"},"properties":{"osm_id":"834435990","tag":{"amenity":"recycling","recycling:cans":"yes","recycling:clothes":"yes","recycling:glass":"yes","recycling:paper":"yes"}},"type":"Feature"},
	{"geometry":{"coordinates":[-2.901015,54.373037],"type":"Point"},"properties":{"osm_id":"3915080159","tag":{"amenity":"waste_basket"}},"type":"Feature"},
	{"geometry":{"coordinates":[-2.92274,54.392874],"type":"Point"},"properties":{"osm_id":"4041962332","tag":{"amenity":"recycling","recycling:cardboard":"yes","recycling:clothes":"no","recycling:glass":"no","recycling:glass_bottles":"no","recycling:paper":"yes","recycling:plastic":"no"}},"type":"Feature"},
	{"geometry":{"coordinates":[-2.902596,54.378565],"type":"Point"},"properties":{"osm_id":"4056509054","tag":{"amenity":"recycling","recycling:books":"yes","recycling:cans":"yes","recycling:cardboard":"yes","recycling:cds":"yes","recycling:clothes":"yes","recycling:glass":"yes","recycling:glass_bottles":"yes","recycling:paper":"yes","recycling:plastic":"yes","recycling:plastic_bags":"yes","recycling:shoes":"yes"}},"type":"Feature"},
	{"geometry":{"coordinates":[-2.905639,54.377676],"type":"Point"},"properties":{"osm_id":"4088972242","tag":{"amenity":"waste_basket"}},"type":"Feature"},
	{"geometry":{"coordinates":[-2.918747,54.393348],"type":"Point"},"properties":{"osm_id":"4248081380","tag":{"amenity":"waste_basket"}},"type":"Feature"},
	{"geometry":{"coordinates":[-2.918818,54.381082],"type":"Point"},"properties":{"osm_id":"4248118971","tag":{"amenity":"waste_basket","check_date":"2021-05-01"}},"type":"Feature"},
	{"geometry":{"coordinates":[-2.918926,54.380786],"type":"Point"},"properties":{"osm_id":"4248118979","tag":{"amenity":"waste_basket"}},"type":"Feature"},
	{"geometry":{"coordinates":[-2.919613,54.379022],"type":"Point"},"properties":{"osm_id":"4248142305","tag":{"amenity":"waste_basket"}},"type":"Feature"},
	{"geometry":{"coordinates":[-2.920237,54.394468],"type":"Point"},"properties":{"osm_id":"4958467090","tag":{"amenity":"waste_basket"}},"type":"Feature"},
	{"geometry":{"coordinates":[-2.913073,54.369037],"type":"Point"},"properties":{"osm_id":"5028971321","tag":{"amenity":"waste_basket"}},"type":"Feature"},
	{"geometry":{"coordinates":[-2.911883,54.369476],"type":"Point"},"properties":{"osm_id":"5028971325","tag":{"amenity":"waste_basket"}},"type":"Feature"},
	{"geometry":{"coordinates":[-2.911538,54.370489],"type":"Point"},"properties":{"osm_id":"5028971331","tag":{"amenity":"waste_basket"}},"type":"Feature"},
	{"geometry":{"coordinates":[-2.91108,54.370751],"type":"Point"},"properties":{"osm_id":"5028971333","tag":{"amenity":"waste_basket"}},"type":"Feature"},
	{"geometry":{"coordinates":[-2.91137,54.37093],"type":"Point"},"properties":{"osm_id":"5028971334","tag":{"amenity":"waste_basket"}},"type":"Feature"},
	{"geometry":{"coordinates":[-2.909877,54.372652],"type":"Point"},"properties":{"osm_id":"5028971354","tag":{"amenity":"waste_basket"}},"type":"Feature"},
	{"geometry":{"coordinates":[-2.909779,54.372881],"type":"Point"},"properties":{"osm_id":"5028971355","tag":{"amenity":"waste_basket"}},"type":"Feature"},
	{"geometry":{"coordinates":[-2.905083,54.380383],"type":"Point"},"properties":{"osm_id":"5028971416","tag":{"amenity":"waste_basket"}},"type":"Feature"},
	{"geometry":{"coordinates":[-2.914694,54.415641],"type":"Point"},"properties":{"osm_id":"5109845784","tag":{"amenity":"waste_basket"}},"type":"Feature"},
	{"geometry":{"coordinates":[-2.901036,54.373492],"type":"Point"},"properties":{"osm_id":"5110986669","tag":{"amenity":"waste_basket"}},"type":"Feature"},
	{"geometry":{"coordinates":[-2.90472,54.38035],"type":"Point"},"properties":{"osm_id":"5180347989","tag":{"amenity":"waste_basket"}},"type":"Feature"},
	{"geometry":{"coordinates":[-2.90339,54.37968],"type":"Point"},"properties":{"osm_id":"5180347993","tag":{"amenity":"waste_basket"}},"type":"Feature"},
	{"geometry":{"coordinates":[-2.903134,54.379462],"type":"Point"},"properties":{"osm_id":"5180347994","tag":{"amenity":"waste_basket"}},"type":"Feature"},
	{"geometry":{"coordinates":[-2.905924,54.380731],"type":"Point"},"properties":{"osm_id":"5181961137","tag":{"amenity":"waste_basket"}},"type":"Feature"},
	{"geometry":{"coordinates":[-2.905519,54.380837],"type":"Point"},"properties":{"osm_id":"5181961139","tag":{"amenity":"waste_basket"}},"type":"Feature"},
	{"geometry":{"coordinates":[-2.909671,54.377354],"type":"Point"},"properties":{"osm_id":"5357690901","tag":{"amenity":"waste_basket"}},"type":"Feature"},
	{"geometry":{"coordinates":[-2.913455,54.370757],"type":"Point"},"properties":{"osm_id":"5368438298","tag":{"amenity":"waste_basket"}},"type":"Feature"},
	{"geometry":{"coordinates":[-2.902151,54.37434],"type":"Point"},"properties":{"osm_id":"5525914630","tag":{"amenity":"waste_basket"}},"type":"Feature"},
	{"geometry":{"coordinates":[-2.901559,54.370389],"type":"Point"},"properties":{"osm_id":"5562146223","tag":{"amenity":"waste_basket"}},"type":"Feature"},
	{"geometry":{"coordinates":[-2.910721,54.381119],"type":"Point"},"properties":{"osm_id":"5679521605","tag":{"amenity":"waste_basket"}},"type":"Feature"},
	{"geometry":{"coordinates":[-2.970626,54.40476],"type":"Point"},"properties":{"osm_id":"6551543873","tag":{"access":"customers","amenity":"recycling","operator":"Low Wray Campsite","recycling_type":"centre"}},"type":"Feature"},
	{"geometry":{"coordinates":[-2.971888,54.406691],"type":"Point"},"properties":{"osm_id":"6657291696","tag":{"amenity":"waste_basket"}},"type":"Feature"},
	{"geometry":{"coordinates":[-2.971933,54.406675],"type":"Point"},"properties":{"osm_id":"6657291708","tag":{"amenity":"recycling","recycling_type":"container"}},"type":"Feature"},
	{"geometry":{"coordinates":[-2.905221,54.374917],"type":"Point"},"properties":{"osm_id":"7223242056","tag":{"amenity":"recycling","operator":"The Fire Fighters Charity","recycling:clothes":"yes","recycling:handbags":"yes","recycling:linen":"yes","recycling:shoes":"yes","recycling_type":"container"}},"type":"Feature"},
	{"geometry":{"coordinates":[-2.909132,54.372634],"type":"Point"},"properties":{"osm_id":"7223242060","tag":{"amenity":"waste_basket"}},"type":"Feature"},
	{"geometry":{"coordinates":[-2.9078,54.372123],"type":"Point"},"properties":{"osm_id":"7223242061","tag":{"amenity":"recycling","operator":"The Salvation Army","recycling:clothes":"yes","recycling:handbags":"yes","recycling:shoes":"yes","recycling:textiles":"yes","recycling_type":"container"}},"type":"Feature"},
	{"geometry":{"coordinates":[-2.918238,54.369974],"type":"Point"},"properties":{"osm_id":"7389369639","tag":{"amenity":"waste_basket"}},"type":"Feature"},
	{"geometry":{"coordinates":[-2.902636,54.379011],"type":"Point"},"properties":{"osm_id":"9064582403","tag":{"amenity":"waste_basket"}},"type":"Feature"},
	{"geometry":{"coordinates":[-2.902627,54.379004],"type":"Point"},"properties":{"osm_id":"9064582404","tag":{"amenity":"recycling","recycling_type":"container"}},"type":"Feature"},
	{"geometry":{"coordinates":[-2.903149,54.379402],"type":"Point"},"properties":{"osm_id":"9064582407","tag":{"amenity":"waste_basket"}},"type":"Feature"},
	{"geometry":{"coordinates":[-2.903142,54.379396],"type":"Point"},"properties":{"osm_id":"9064582408","tag":{"amenity":"recycling","recycling_type":"container"}},"type":"Feature"}
]
}
