{
"type": "FeatureCollection",
"features": [
	{"geometry":{"coordinates":[-2.914475,53.155861],"type":"Point"},"properties":{"highway":"crossing","osm_id":"3734850526","tag":{"crossing":"uncontrolled","tactile_paving":"yes"}},"type":"Feature"},
	{"geometry":{"coordinates":[-2.929902,53.170938],"type":"Point"},"properties":{"osm_id":"7611719997","tag":{"amenity":"waste_basket","waste":"dog_excrement"}},"type":"Feature"},
	{"geometry":{"coordinates":[-2.930737,53.170603],"type":"Point"},"properties":{"osm_id":"7611719998","tag":{"amenity":"waste_basket","waste":"dog_excrement"}},"type":"Feature"},
	{"geometry":{"coordinates":[-2.933037,53.171614],"type":"Point"},"properties":{"osm_id":"7611720001","tag":{"amenity":"waste_basket","waste":"dog_excrement"}},"type":"Feature"},
	{"geometry":{"coordinates":[-2.93247,53.172584],"type":"Point"},"properties":{"osm_id":"7611720002","tag":{"amenity":"waste_basket"}},"type":"Feature"},
	{"geometry":{"coordinates":[-2.93246,53.172381],"type":"Point"},"properties":{"osm_id":"7611720003","tag":{"amenity":"waste_basket","waste":"dog_excrement"}},"type":"Feature"},
	{"geometry":{"coordinates":[-2.927146,53.172725],"type":"Point"},"properties":{"osm_id":"7613388105","tag":{"amenity":"waste_basket","waste":"dog_excrement"}},"type":"Feature"},
	{"geometry":{"coordinates":[-2.928085,53.172599],"type":"Point"},"properties":{"osm_id":"7613388106","tag":{"amenity":"waste_basket","waste":"dog_excrement"}},"type":"Feature"},
	{"geometry":{"coordinates":[-2.927618,53.171435],"type":"Point"},"properties":{"osm_id":"7613388107","tag":{"amenity":"waste_basket","waste":"dog_excrement","waste_basket":"trash"}},"type":"Feature"}
]
}
