{
"type": "FeatureCollection",
"lastupdate": "2020-08-02T00:00:00Z",
"features": [
	{"geometry":{"coordinates":[-2.912078,43.264517],"type":"Point"},"properties":{"osm_id":"610919967","tag":{"amenity":"recycling"}},"type":"Feature"},
	{"geometry":{"coordinates":[-2.912295,43.263428],"type":"Point"},"properties":{"osm_id":"610961636","tag":{"amenity":"recycling"}},"type":"Feature"},
	{"geometry":{"coordinates":[-2.98716,43.291679],"type":"Point"},"properties":{"osm_id":"1644082112","tag":{"amenity":"recycling","recycling_type":"container"}},"type":"Feature"},
	{"geometry":{"coordinates":[-2.942655,43.267804],"type":"Point"},"properties":{"osm_id":"2933379713","tag":{"amenity":"waste_basket"}},"type":"Feature"},
	{"geometry":{"coordinates":[-2.980047,43.312215],"type":"Point"},"properties":{"name":"Asociaci\u00c3\u00b3n Educativa Reciclanet","osm_id":"2936061810","tag":{"addr:city":"Erandio","addr:housenumber":"11","addr:postcode":"48950","addr:street":"Ribera de Axpe","amenity":"recycling","collection_times":"Lunes-Viernes de 10:00 a 13:00","phone":"+34 94 657 37 45","recycling:batteries":"no","recycling:scrap_metal":"yes","recycling_type":"centre","website":"https://www.reciclanet.org/"}},"type":"Feature"},
	{"geometry":{"coordinates":[-2.960941,43.27583],"type":"Point"},"properties":{"osm_id":"2936061897","tag":{"amenity":"waste_basket"}},"type":"Feature"},
	{"geometry":{"coordinates":[-2.961167,43.275977],"type":"Point"},"properties":{"osm_id":"2936062708","tag":{"amenity":"waste_basket"}},"type":"Feature"},
	{"geometry":{"coordinates":[-2.961109,43.275994],"type":"Point"},"properties":{"osm_id":"2936062710","tag":{"amenity":"waste_basket"}},"type":"Feature"},
	{"geometry":{"coordinates":[-2.961048,43.276012],"type":"Point"},"properties":{"osm_id":"2936062712","tag":{"amenity":"waste_basket"}},"type":"Feature"},
	{"geometry":{"coordinates":[-2.96121,43.276175],"type":"Point"},"properties":{"osm_id":"2936062718","tag":{"amenity":"waste_basket"}},"type":"Feature"},
	{"geometry":{"coordinates":[-2.961145,43.276197],"type":"Point"},"properties":{"osm_id":"2936062719","tag":{"amenity":"waste_basket"}},"type":"Feature"},
	{"geometry":{"coordinates":[-2.961247,43.276376],"type":"Point"},"properties":{"osm_id":"2936062728","tag":{"amenity":"waste_basket"}},"type":"Feature"},
	{"geometry":{"coordinates":[-2.961372,43.276591],"type":"Point"},"properties":{"osm_id":"2936062739","tag":{"amenity":"waste_basket"}},"type":"Feature"},
	{"geometry":{"coordinates":[-2.961454,43.276603],"type":"Point"},"properties":{"osm_id":"2936062741","tag":{"amenity":"waste_basket"}},"type":"Feature"},
	{"geometry":{"coordinates":[-2.932505,43.261914],"type":"Point"},"properties":{"osm_id":"3213181168","tag":{"amenity":"waste_basket"}},"type":"Feature"},
	{"geometry":{"coordinates":[-2.931973,43.26242],"type":"Point"},"properties":{"osm_id":"3213181169","tag":{"amenity":"waste_basket"}},"type":"Feature"},
	{"geometry":{"coordinates":[-2.931508,43.262432],"type":"Point"},"properties":{"osm_id":"3213181170","tag":{"amenity":"recycling","location":"overground","recycling:paper":"yes","recycling_type":"container"}},"type":"Feature"},
	{"geometry":{"coordinates":[-2.987951,43.292652],"type":"Point"},"properties":{"osm_id":"3556441080","tag":{"amenity":"recycling","location":"overground","recycling_type":"container"}},"type":"Feature"},
	{"geometry":{"coordinates":[-2.968254,43.317195],"type":"Point"},"properties":{"barrier":"gate","osm_id":"4513382151"},"type":"Feature"},
	{"geometry":{"coordinates":[-2.968521,43.316702],"type":"Point"},"properties":{"barrier":"gate","osm_id":"4513382152"},"type":"Feature"},
	{"geometry":{"coordinates":[-2.949178,43.298113],"type":"Point"},"properties":{"name":"Indumental recycling","osm_id":"4599539692","tag":{"amenity":"recycling","name:es":"Indumental recycling"}},"type":"Feature"},
	{"geometry":{"coordinates":[-2.922817,43.263614],"type":"Point"},"properties":{"osm_id":"4701162679","tag":{"amenity":"recycling","recycling_type":"container"}},"type":"Feature"},
	{"geometry":{"coordinates":[-2.919058,43.262639],"type":"Point"},"properties":{"osm_id":"4701258318","tag":{"amenity":"waste_basket"}},"type":"Feature"},
	{"geometry":{"coordinates":[-2.922945,43.261639],"type":"Point"},"properties":{"osm_id":"4701258415","tag":{"amenity":"recycling","recycling_type":"container"}},"type":"Feature"},
	{"geometry":{"coordinates":[-2.927419,43.261485],"type":"Point"},"properties":{"osm_id":"4714969537","tag":{"amenity":"recycling","recycling:cans":"yes","recycling:clothes":"yes","recycling:electrical_appliances":"yes","recycling:glass_bottles":"yes","recycling:green_waste":"yes","recycling:paper":"yes","recycling:plastic":"no","recycling:plastic_packaging":"yes","recycling:shoes":"yes","recycling_type":"container"}},"type":"Feature"},
	{"geometry":{"coordinates":[-2.92605,43.26208],"type":"Point"},"properties":{"osm_id":"4715162008","tag":{"amenity":"recycling","recycling_type":"container"}},"type":"Feature"},
	{"geometry":{"coordinates":[-2.929352,43.262523],"type":"Point"},"properties":{"osm_id":"4724275787","tag":{"amenity":"recycling","recycling_type":"container"}},"type":"Feature"},
	{"geometry":{"coordinates":[-2.930662,43.263088],"type":"Point"},"properties":{"osm_id":"4724275806","tag":{"amenity":"recycling","recycling_type":"container"}},"type":"Feature"},
	{"geometry":{"coordinates":[-2.929501,43.26487],"type":"Point"},"properties":{"osm_id":"4727590974","tag":{"amenity":"recycling","recycling_type":"container"}},"type":"Feature"},
	{"geometry":{"coordinates":[-2.929769,43.265306],"type":"Point"},"properties":{"osm_id":"4727590976","tag":{"amenity":"waste_basket"}},"type":"Feature"},
	{"geometry":{"coordinates":[-2.929921,43.26531],"type":"Point"},"properties":{"osm_id":"4727590977","tag":{"amenity":"recycling","recycling:cans":"yes","recycling:glass_bottles":"yes","recycling:green_waste":"yes","recycling:paper":"yes","recycling:plastic":"no","recycling:plastic_packaging":"yes","recycling_type":"container"}},"type":"Feature"},
	{"geometry":{"coordinates":[-2.930701,43.264946],"type":"Point"},"properties":{"osm_id":"4727604402","tag":{"amenity":"recycling","recycling_type":"container"}},"type":"Feature"},
	{"geometry":{"coordinates":[-2.930466,43.267107],"type":"Point"},"properties":{"osm_id":"4727774404","tag":{"amenity":"recycling","recycling_type":"container"}},"type":"Feature"},
	{"geometry":{"coordinates":[-2.93673,43.265554],"type":"Point"},"properties":{"osm_id":"4734092586","tag":{"amenity":"recycling","recycling_type":"container"}},"type":"Feature"},
	{"geometry":{"coordinates":[-2.932055,43.264607],"type":"Point"},"properties":{"osm_id":"4734482709","tag":{"amenity":"recycling","recycling_type":"container"}},"type":"Feature"},
	{"geometry":{"coordinates":[-2.932989,43.262876],"type":"Point"},"properties":{"osm_id":"4735968192","tag":{"amenity":"recycling","recycling_type":"container"}},"type":"Feature"},
	{"geometry":{"coordinates":[-2.935741,43.26417],"type":"Point"},"properties":{"osm_id":"4736192777","tag":{"amenity":"waste_basket"}},"type":"Feature"},
	{"geometry":{"coordinates":[-2.932447,43.261331],"type":"Point"},"properties":{"osm_id":"4736447966","tag":{"amenity":"recycling","recycling_type":"container"}},"type":"Feature"},
	{"geometry":{"coordinates":[-2.940867,43.265911],"type":"Point"},"properties":{"osm_id":"4757637999","tag":{"amenity":"waste_basket"}},"type":"Feature"},
	{"geometry":{"coordinates":[-2.940911,43.300312],"type":"Point"},"properties":{"osm_id":"4791796836","tag":{"amenity":"waste_basket"}},"type":"Feature"},
	{"geometry":{"coordinates":[-2.940901,43.300312],"type":"Point"},"properties":{"osm_id":"4791796837","tag":{"amenity":"waste_basket"}},"type":"Feature"},
	{"geometry":{"coordinates":[-2.931011,43.262227],"type":"Point"},"properties":{"osm_id":"5609826118","tag":{"amenity":"waste_basket"}},"type":"Feature"},
	{"geometry":{"coordinates":[-2.930844,43.26204],"type":"Point"},"properties":{"osm_id":"5675951487","tag":{"amenity":"waste_basket"}},"type":"Feature"},
	{"geometry":{"coordinates":[-2.931366,43.262153],"type":"Point"},"properties":{"osm_id":"5675973428","tag":{"amenity":"waste_basket"}},"type":"Feature"},
	{"geometry":{"coordinates":[-2.930582,43.261983],"type":"Point"},"properties":{"osm_id":"5676049057","tag":{"amenity":"waste_basket"}},"type":"Feature"},
	{"geometry":{"coordinates":[-2.930433,43.262092],"type":"Point"},"properties":{"osm_id":"5676056636","tag":{"amenity":"waste_basket"}},"type":"Feature"},
	{"geometry":{"coordinates":[-2.917867,43.266692],"type":"Point"},"properties":{"osm_id":"6082563696","tag":{"amenity":"recycling","recycling:glass_bottles":"yes","recycling_type":"container"}},"type":"Feature"},
	{"geometry":{"coordinates":[-2.915483,43.262065],"type":"Point"},"properties":{"osm_id":"6127224557","tag":{"amenity":"waste_basket","waste":"trash"}},"type":"Feature"},
	{"geometry":{"coordinates":[-2.931816,43.261669],"type":"Point"},"properties":{"osm_id":"6852462095","tag":{"amenity":"recycling","recycling:cardboard":"yes","recycling:paper":"yes","recycling_type":"container"}},"type":"Feature"},
	{"geometry":{"coordinates":[-2.931825,43.261653],"type":"Point"},"properties":{"osm_id":"6852462097","tag":{"amenity":"recycling","recycling:plastic_packaging":"yes","recycling_type":"container"}},"type":"Feature"},
	{"geometry":{"coordinates":[-2.931844,43.261612],"type":"Point"},"properties":{"osm_id":"6852462098","tag":{"amenity":"recycling","recycling:waste":"yes","recycling_type":"container"}},"type":"Feature"},
	{"geometry":{"coordinates":[-2.93181,43.261685],"type":"Point"},"properties":{"osm_id":"6852462099","tag":{"amenity":"recycling","recycling:glass_bottles":"yes","recycling_type":"container"}},"type":"Feature"},
	{"geometry":{"coordinates":[-2.915686,43.264949],"type":"Point"},"properties":{"osm_id":"7519689050","tag":{"amenity":"recycling","recycling:cardboard":"yes","recycling:glass":"yes","recycling:paper":"yes","recycling:plastic_packaging":"yes","recycling:waste":"yes","recycling_type":"container"}},"type":"Feature"},
	{"geometry":{"coordinates":[-2.916341,43.264874],"type":"Point"},"properties":{"osm_id":"7519689051","tag":{"amenity":"recycling","recycling:cardboard":"yes","recycling:clothes":"yes","recycling:glass":"yes","recycling:paper":"yes","recycling:plastic_packaging":"yes","recycling:waste":"yes","recycling_type":"container"}},"type":"Feature"},
	{"geometry":{"coordinates":[-2.915384,43.264465],"type":"Point"},"properties":{"osm_id":"7519705484","tag":{"amenity":"recycling","recycling:cardboard":"yes","recycling:paper":"yes","recycling:plastic_packaging":"yes","recycling:waste":"yes","recycling_type":"container"}},"type":"Feature"},
	{"geometry":{"coordinates":[-2.91438,43.265395],"type":"Point"},"properties":{"osm_id":"7519764985","tag":{"amenity":"recycling","recycling:cardboard":"yes","recycling:glass":"no","recycling:paper":"yes","recycling:plastic_packaging":"yes","recycling:waste":"yes","recycling_type":"container"}},"type":"Feature"},
	{"geometry":{"coordinates":[-2.916266,43.264908],"type":"Point"},"properties":{"osm_id":"7521994547","tag":{"amenity":"waste_basket","waste":"trash"}},"type":"Feature"},
	{"geometry":{"coordinates":[-2.916001,43.264862],"type":"Point"},"properties":{"osm_id":"7521994548","tag":{"amenity":"waste_basket","waste":"trash"}},"type":"Feature"},
	{"geometry":{"coordinates":[-2.915618,43.264985],"type":"Point"},"properties":{"osm_id":"7521994549","tag":{"amenity":"waste_basket","waste":"trash"}},"type":"Feature"},
	{"geometry":{"coordinates":[-2.915336,43.265219],"type":"Point"},"properties":{"osm_id":"7521994550","tag":{"amenity":"waste_basket","waste":"trash"}},"type":"Feature"},
	{"geometry":{"coordinates":[-2.915066,43.26516],"type":"Point"},"properties":{"osm_id":"7521994551","tag":{"amenity":"waste_basket","waste":"trash"}},"type":"Feature"},
	{"geometry":{"coordinates":[-2.915215,43.265008],"type":"Point"},"properties":{"osm_id":"7521994552","tag":{"amenity":"waste_basket","waste":"trash"}},"type":"Feature"},
	{"geometry":{"coordinates":[-2.915098,43.264853],"type":"Point"},"properties":{"osm_id":"7521994553","tag":{"amenity":"waste_basket","waste":"trash"}},"type":"Feature"},
	{"geometry":{"coordinates":[-2.914856,43.264984],"type":"Point"},"properties":{"osm_id":"7521994554","tag":{"amenity":"waste_basket","waste":"trash"}},"type":"Feature"},
	{"geometry":{"coordinates":[-2.914988,43.264904],"type":"Point"},"properties":{"osm_id":"7521994555","tag":{"amenity":"waste_basket","waste":"trash"}},"type":"Feature"},
	{"geometry":{"coordinates":[-2.916085,43.265734],"type":"Point"},"properties":{"osm_id":"7522042510","tag":{"amenity":"waste_basket","waste":"trash"}},"type":"Feature"},
	{"geometry":{"coordinates":[-2.916322,43.265992],"type":"Point"},"properties":{"osm_id":"7522042511","tag":{"amenity":"waste_basket","waste":"trash"}},"type":"Feature"},
	{"geometry":{"coordinates":[-2.916608,43.26619],"type":"Point"},"properties":{"osm_id":"7522042514","tag":{"amenity":"waste_basket","waste":"trash"}},"type":"Feature"},
	{"geometry":{"coordinates":[-2.916717,43.26545],"type":"Point"},"properties":{"osm_id":"7522042515","tag":{"amenity":"waste_basket","waste":"trash"}},"type":"Feature"},
	{"geometry":{"coordinates":[-2.916583,43.264871],"type":"Point"},"properties":{"osm_id":"7522042516","tag":{"amenity":"waste_basket","waste":"trash"}},"type":"Feature"},
	{"geometry":{"coordinates":[-2.916425,43.266141],"type":"Point"},"properties":{"osm_id":"7525711452","tag":{"amenity":"recycling","recycling:cardboard":"yes","recycling:glass":"yes","recycling:paper":"yes","recycling:plastic_packaging":"yes","recycling:waste":"yes","recycling_type":"container"}},"type":"Feature"},
	{"geometry":{"coordinates":[-2.915789,43.266104],"type":"Point"},"properties":{"osm_id":"7525711453","tag":{"amenity":"recycling","recycling:cardboard":"yes","recycling:glass":"yes","recycling:green_waste":"yes","recycling:paper":"yes","recycling:plastic_packaging":"yes","recycling:waste":"yes","recycling_type":"container"}},"type":"Feature"},
	{"geometry":{"coordinates":[-2.914869,43.265689],"type":"Point"},"properties":{"osm_id":"7525711454","tag":{"amenity":"recycling","recycling:plastic_packaging":"yes","recycling:waste":"yes","recycling_type":"container"}},"type":"Feature"},
	{"geometry":{"coordinates":[-2.914997,43.26529],"type":"Point"},"properties":{"osm_id":"7525711455","tag":{"amenity":"recycling","recycling:cardboard":"yes","recycling:glass":"yes","recycling:green_waste":"yes","recycling:paper":"yes","recycling:plastic_packaging":"yes","recycling:waste":"yes","recycling_type":"container"}},"type":"Feature"},
	{"geometry":{"coordinates":[-2.915501,43.26533],"type":"Point"},"properties":{"osm_id":"7525711456","tag":{"amenity":"recycling","recycling:green_waste":"yes","recycling:plastic_packaging":"yes","recycling:waste":"yes","recycling_type":"container"}},"type":"Feature"},
	{"geometry":{"coordinates":[-2.916297,43.263406],"type":"Point"},"properties":{"osm_id":"7525715984","tag":{"amenity":"recycling","recycling:cardboard":"yes","recycling:paper":"yes","recycling:waste":"yes","recycling_type":"container"}},"type":"Feature"},
	{"geometry":{"coordinates":[-2.916941,43.263581],"type":"Point"},"properties":{"osm_id":"7525734672","tag":{"amenity":"recycling","recycling:cardboard":"yes","recycling:paper":"yes","recycling:waste":"yes","recycling_type":"container"}},"type":"Feature"},
	{"geometry":{"coordinates":[-2.915778,43.263904],"type":"Point"},"properties":{"osm_id":"7525740244","tag":{"amenity":"recycling","recycling:cardboard":"yes","recycling:green_waste":"yes","recycling:paper":"yes","recycling:plastic_packaging":"yes","recycling:waste":"yes","recycling_type":"container"}},"type":"Feature"},
	{"geometry":{"coordinates":[-2.915863,43.263876],"type":"Point"},"properties":{"osm_id":"7525740245","tag":{"amenity":"recycling","recycling:glass":"yes","recycling_type":"container"}},"type":"Feature"},
	{"geometry":{"coordinates":[-2.916312,43.263728],"type":"Point"},"properties":{"osm_id":"7525753585","tag":{"amenity":"recycling","recycling:cardboard":"yes","recycling:paper":"yes","recycling:plastic_packaging":"yes","recycling_type":"container"}},"type":"Feature"},
	{"geometry":{"coordinates":[-2.916299,43.263882],"type":"Point"},"properties":{"osm_id":"7525753586","tag":{"amenity":"recycling","recycling:glass":"yes","recycling:green_waste":"yes","recycling:waste":"yes","recycling_type":"container"}},"type":"Feature"},
	{"geometry":{"coordinates":[-2.91595,43.262988],"type":"Point"},"properties":{"osm_id":"7525755087","tag":{"amenity":"recycling","recycling:green_waste":"yes","recycling:plastic_packaging":"yes","recycling:waste":"yes","recycling_type":"container"}},"type":"Feature"},
	{"geometry":{"coordinates":[-2.915688,43.263316],"type":"Point"},"properties":{"osm_id":"7525761187","tag":{"amenity":"recycling","recycling:glass":"yes","recycling:green_waste":"yes","recycling:waste":"yes","recycling_type":"container"}},"type":"Feature"},
	{"geometry":{"coordinates":[-2.916834,43.264163],"type":"Point"},"properties":{"osm_id":"7525767092","tag":{"amenity":"waste_basket","waste":"trash"}},"type":"Feature"},
	{"geometry":{"coordinates":[-2.915746,43.264067],"type":"Point"},"properties":{"osm_id":"7525767093","tag":{"amenity":"waste_basket","waste":"trash"}},"type":"Feature"},
	{"geometry":{"coordinates":[-2.916088,43.26401],"type":"Point"},"properties":{"osm_id":"7525767094","tag":{"amenity":"waste_basket","waste":"trash"}},"type":"Feature"},
	{"geometry":{"coordinates":[-2.915316,43.266017],"type":"Point"},"properties":{"osm_id":"7525767095","tag":{"amenity":"waste_basket","waste":"trash"}},"type":"Feature"},
	{"geometry":{"coordinates":[-2.915824,43.265961],"type":"Point"},"properties":{"osm_id":"7525767096","tag":{"amenity":"waste_basket","waste":"trash"}},"type":"Feature"},
	{"geometry":{"coordinates":[-2.908155,43.27064],"type":"Point"},"properties":{"osm_id":"7558858331","tag":{"amenity":"waste_basket","waste":"trash"}},"type":"Feature"}
]
}
