{
"type": "FeatureCollection",
"features": [
	{"geometry":{"coordinates":[-2.934946,43.243178],"type":"Point"},"properties":{"name":"Garbigune Larraskitu","osm_id":"1048044143","tag":{"amenity":"recycling"}},"type":"Feature"},
	{"geometry":{"coordinates":[-2.987223,43.240867],"type":"Point"},"properties":{"osm_id":"2772386609","tag":{"amenity":"recycling","recycling:cans":"yes","recycling:paper":"yes"}},"type":"Feature"},
	{"geometry":{"coordinates":[-2.98727,43.240886],"type":"Point"},"properties":{"osm_id":"2772386615","tag":{"amenity":"waste_disposal"}},"type":"Feature"},
	{"geometry":{"coordinates":[-2.924468,43.258405],"type":"Point"},"properties":{"osm_id":"2813269285","tag":{"amenity":"waste_basket"}},"type":"Feature"},
	{"geometry":{"coordinates":[-2.924288,43.25752],"type":"Point"},"properties":{"osm_id":"2813304682","tag":{"amenity":"waste_disposal"}},"type":"Feature"},
	{"geometry":{"coordinates":[-2.915116,43.256304],"type":"Point"},"properties":{"osm_id":"3573290607","tag":{"amenity":"waste_basket"}},"type":"Feature"},
	{"geometry":{"coordinates":[-2.915301,43.256366],"type":"Point"},"properties":{"osm_id":"3573290615","tag":{"amenity":"waste_basket"}},"type":"Feature"},
	{"geometry":{"coordinates":[-2.915008,43.256377],"type":"Point"},"properties":{"osm_id":"3573290619","tag":{"amenity":"waste_basket"}},"type":"Feature"},
	{"geometry":{"coordinates":[-2.915732,43.256649],"type":"Point"},"properties":{"osm_id":"3573290642","tag":{"amenity":"waste_basket"}},"type":"Feature"},
	{"geometry":{"coordinates":[-2.915579,43.256709],"type":"Point"},"properties":{"osm_id":"3573290646","tag":{"amenity":"waste_basket"}},"type":"Feature"},
	{"geometry":{"coordinates":[-2.914451,43.253023],"type":"Point"},"properties":{"osm_id":"3744428856","tag":{"amenity":"waste_basket"}},"type":"Feature"},
	{"geometry":{"coordinates":[-2.913458,43.253159],"type":"Point"},"properties":{"osm_id":"3744428874","tag":{"amenity":"waste_basket"}},"type":"Feature"},
	{"geometry":{"coordinates":[-2.91459,43.253209],"type":"Point"},"properties":{"osm_id":"3744428879","tag":{"amenity":"waste_basket"}},"type":"Feature"},
	{"geometry":{"coordinates":[-2.914514,43.253274],"type":"Point"},"properties":{"osm_id":"3744428885","tag":{"amenity":"waste_basket"}},"type":"Feature"},
	{"geometry":{"coordinates":[-2.914737,43.253395],"type":"Point"},"properties":{"osm_id":"3744428897","tag":{"amenity":"waste_basket"}},"type":"Feature"},
	{"geometry":{"coordinates":[-2.914065,43.252305],"type":"Point"},"properties":{"osm_id":"3744497890","tag":{"amenity":"waste_basket"}},"type":"Feature"},
	{"geometry":{"coordinates":[-2.91387,43.252424],"type":"Point"},"properties":{"osm_id":"3744497919","tag":{"amenity":"waste_basket"}},"type":"Feature"},
	{"geometry":{"coordinates":[-2.914219,43.2525],"type":"Point"},"properties":{"osm_id":"3744502236","tag":{"amenity":"waste_basket"}},"type":"Feature"},
	{"geometry":{"coordinates":[-2.914019,43.252532],"type":"Point"},"properties":{"osm_id":"3744502244","tag":{"amenity":"waste_basket"}},"type":"Feature"},
	{"geometry":{"coordinates":[-2.987971,43.245516],"type":"Point"},"properties":{"osm_id":"3793820693","tag":{"amenity":"recycling","recycling:cans":"no","recycling:clothes":"yes","recycling:glass":"no","recycling:glass_bottles":"no","recycling:paper":"no","recycling:plastic":"no","recycling_type":"container"}},"type":"Feature"},
	{"geometry":{"coordinates":[-2.92271,43.259617],"type":"Point"},"properties":{"osm_id":"4701494366","tag":{"amenity":"recycling","recycling:cans":"yes","recycling:glass_bottles":"yes","recycling:green_waste":"yes","recycling:plastic":"no","recycling:plastic_packaging":"yes","recycling_type":"container"}},"type":"Feature"},
	{"geometry":{"coordinates":[-2.923081,43.258541],"type":"Point"},"properties":{"osm_id":"4701570962","tag":{"amenity":"waste_basket"}},"type":"Feature"},
	{"geometry":{"coordinates":[-2.926514,43.258577],"type":"Point"},"properties":{"osm_id":"4703598547","tag":{"amenity":"recycling","recycling_type":"container"}},"type":"Feature"},
	{"geometry":{"coordinates":[-2.935796,43.26079],"type":"Point"},"properties":{"osm_id":"4723777456","tag":{"amenity":"recycling","recycling:cans":"yes","recycling:green_waste":"yes","recycling:paper":"yes","recycling:plastic":"no","recycling:plastic_packaging":"yes","recycling_type":"container"}},"type":"Feature"},
	{"geometry":{"coordinates":[-2.93082,43.260932],"type":"Point"},"properties":{"osm_id":"4723870065","tag":{"amenity":"recycling","recycling:cans":"yes","recycling:glass_bottles":"yes","recycling:green_waste":"yes","recycling:paper":"yes","recycling:plastic":"no","recycling:plastic_packaging":"yes","recycling_type":"container"}},"type":"Feature"},
	{"geometry":{"coordinates":[-2.93206,43.257001],"type":"Point"},"properties":{"osm_id":"4738272339","tag":{"amenity":"waste_basket"}},"type":"Feature"},
	{"geometry":{"coordinates":[-2.927207,43.257074],"type":"Point"},"properties":{"osm_id":"4739796159","tag":{"amenity":"waste_basket"}},"type":"Feature"},
	{"geometry":{"coordinates":[-2.926441,43.259606],"type":"Point"},"properties":{"osm_id":"4739821707","tag":{"amenity":"recycling","recycling_type":"container"}},"type":"Feature"},
	{"geometry":{"coordinates":[-2.905707,43.250853],"type":"Point"},"properties":{"osm_id":"6790214928","tag":{"amenity":"waste_basket","waste":"trash"}},"type":"Feature"},
	{"geometry":{"coordinates":[-2.905413,43.250964],"type":"Point"},"properties":{"osm_id":"6790214929","tag":{"amenity":"waste_basket","waste":"trash"}},"type":"Feature"},
	{"geometry":{"coordinates":[-2.9055,43.251065],"type":"Point"},"properties":{"osm_id":"7881724216","tag":{"amenity":"recycling","image":"https://westnordost.de/p/17643.jpg","recycling:glass":"yes","recycling:paper":"yes"}},"type":"Feature"},
	{"geometry":{"coordinates":[-2.905942,43.251198],"type":"Point"},"properties":{"osm_id":"7881724217","tag":{"amenity":"recycling","image":"https://westnordost.de/p/17642.jpg","recycling:glass":"yes","recycling:paper":"yes"}},"type":"Feature"},
	{"geometry":{"coordinates":[-2.903789,43.25199],"type":"Point"},"properties":{"osm_id":"7881770846","tag":{"amenity":"recycling","image":"https://westnordost.de/p/17643.jpg","recycling:glass":"yes","recycling:paper":"yes"}},"type":"Feature"}
]
}
