{
"type": "FeatureCollection",
"features": [
	{"geometry":{"coordinates":[-2.96183,42.681572],"type":"Point"},"properties":{"osm_id":"2213762653","tag":{"amenity":"recycling"}},"type":"Feature"},
	{"geometry":{"coordinates":[-2.931575,42.679485],"type":"Point"},"properties":{"osm_id":"4483117800","tag":{"amenity":"recycling","recycling:paper":"yes","recycling_type":"container"}},"type":"Feature"},
	{"geometry":{"coordinates":[-2.931589,42.679488],"type":"Point"},"properties":{"osm_id":"4483117801","tag":{"amenity":"recycling","recycling:plastic_packaging":"yes","recycling_type":"container"}},"type":"Feature"},
	{"geometry":{"coordinates":[-2.931602,42.67949],"type":"Point"},"properties":{"osm_id":"4483117802","tag":{"amenity":"recycling","recycling:glass_bottles":"yes","recycling_type":"container"}},"type":"Feature"},
	{"geometry":{"coordinates":[-2.931617,42.679495],"type":"Point"},"properties":{"osm_id":"4483117803","tag":{"amenity":"waste_disposal"}},"type":"Feature"},
	{"geometry":{"coordinates":[-2.981297,42.671133],"type":"Point"},"properties":{"osm_id":"4684296826","tag":{"amenity":"recycling"}},"type":"Feature"},
	{"geometry":{"coordinates":[-2.950377,42.670589],"type":"Point"},"properties":{"osm_id":"4684296827","tag":{"amenity":"recycling"}},"type":"Feature"},
	{"geometry":{"coordinates":[-2.929029,42.665262],"type":"Point"},"properties":{"osm_id":"4684296828","tag":{"amenity":"recycling"}},"type":"Feature"},
	{"geometry":{"coordinates":[-2.930354,42.660561],"type":"Point"},"properties":{"osm_id":"4684296829","tag":{"amenity":"recycling"}},"type":"Feature"},
	{"geometry":{"coordinates":[-2.969357,42.679611],"type":"Point"},"properties":{"osm_id":"4710493881","tag":{"amenity":"recycling"}},"type":"Feature"},
	{"geometry":{"coordinates":[-2.970715,42.681233],"type":"Point"},"properties":{"osm_id":"4710493882","tag":{"amenity":"recycling"}},"type":"Feature"},
	{"geometry":{"coordinates":[-2.969119,42.68169],"type":"Point"},"properties":{"osm_id":"4710493883","tag":{"amenity":"recycling"}},"type":"Feature"},
	{"geometry":{"coordinates":[-2.970991,42.681793],"type":"Point"},"properties":{"osm_id":"4710493884","tag":{"amenity":"recycling"}},"type":"Feature"},
	{"geometry":{"coordinates":[-2.967191,42.679969],"type":"Point"},"properties":{"osm_id":"4710493885","tag":{"amenity":"recycling"}},"type":"Feature"},
	{"geometry":{"coordinates":[-2.966019,42.68006],"type":"Point"},"properties":{"osm_id":"4710493887","tag":{"amenity":"recycling","recycling:glass_bottles":"yes"}},"type":"Feature"},
	{"geometry":{"coordinates":[-2.964857,42.681742],"type":"Point"},"properties":{"osm_id":"4710495090","tag":{"amenity":"recycling"}},"type":"Feature"},
	{"geometry":{"coordinates":[-2.947523,42.678337],"type":"Point"},"properties":{"osm_id":"4710495098","tag":{"amenity":"recycling"}},"type":"Feature"},
	{"geometry":{"coordinates":[-2.952178,42.681065],"type":"Point"},"properties":{"osm_id":"4710495099","tag":{"amenity":"recycling"}},"type":"Feature"},
	{"geometry":{"coordinates":[-2.946308,42.682277],"type":"Point"},"properties":{"osm_id":"4714047398","tag":{"amenity":"recycling"}},"type":"Feature"},
	{"geometry":{"coordinates":[-2.941217,42.682226],"type":"Point"},"properties":{"osm_id":"4714047442","tag":{"amenity":"recycling"}},"type":"Feature"},
	{"geometry":{"coordinates":[-2.943076,42.681183],"type":"Point"},"properties":{"osm_id":"4714047449","tag":{"amenity":"recycling"}},"type":"Feature"},
	{"geometry":{"coordinates":[-2.944805,42.682004],"type":"Point"},"properties":{"osm_id":"4714047459","tag":{"amenity":"recycling"}},"type":"Feature"},
	{"geometry":{"coordinates":[-2.936406,42.680775],"type":"Point"},"properties":{"osm_id":"4721036023","tag":{"amenity":"recycling"}},"type":"Feature"},
	{"geometry":{"coordinates":[-2.971309,42.678952],"type":"Point"},"properties":{"osm_id":"4764935960","tag":{"amenity":"recycling"}},"type":"Feature"}
]
}
