{
"type": "FeatureCollection",
"lastupdate": "2020-08-06T00:00:00Z",
"features": [
	{"geometry":{"coordinates":[21.088502,52.69695],"type":"Point"},"properties":{"osm_id":"4915362786","tag":{"amenity":"waste_basket"}},"type":"Feature"},
	{"geometry":{"coordinates":[21.087483,52.697166],"type":"Point"},"properties":{"osm_id":"4915362787","tag":{"amenity":"waste_basket"}},"type":"Feature"},
	{"geometry":{"coordinates":[21.085741,52.697569],"type":"Point"},"properties":{"osm_id":"4915362788","tag":{"amenity":"waste_basket"}},"type":"Feature"},
	{"geometry":{"coordinates":[21.085429,52.697986],"type":"Point"},"properties":{"osm_id":"4915362789","tag":{"amenity":"waste_basket"}},"type":"Feature"},
	{"geometry":{"coordinates":[21.085539,52.698371],"type":"Point"},"properties":{"osm_id":"4915362790","tag":{"amenity":"waste_basket"}},"type":"Feature"},
	{"geometry":{"coordinates":[21.085601,52.69863],"type":"Point"},"properties":{"osm_id":"4915362791","tag":{"amenity":"waste_basket"}},"type":"Feature"},
	{"geometry":{"coordinates":[21.085574,52.700776],"type":"Point"},"properties":{"osm_id":"4915362796","tag":{"amenity":"waste_basket"}},"type":"Feature"},
	{"geometry":{"coordinates":[21.085655,52.701061],"type":"Point"},"properties":{"osm_id":"4915362797","tag":{"amenity":"waste_basket"}},"type":"Feature"},
	{"geometry":{"coordinates":[21.085341,52.700994],"type":"Point"},"properties":{"name":"\u00c5\u009amietnk","osm_id":"4915362798","tag":{"amenity":"waste_basket"}},"type":"Feature"},
	{"geometry":{"coordinates":[21.085376,52.701786],"type":"Point"},"properties":{"osm_id":"4915362799","tag":{"amenity":"waste_basket"}},"type":"Feature"},
	{"geometry":{"coordinates":[21.085429,52.702399],"type":"Point"},"properties":{"osm_id":"4915362800","tag":{"amenity":"waste_basket"}},"type":"Feature"},
	{"geometry":{"coordinates":[21.085775,52.701625],"type":"Point"},"properties":{"osm_id":"6187854169","tag":{"amenity":"waste_basket"}},"type":"Feature"},
	{"geometry":{"coordinates":[21.085766,52.701432],"type":"Point"},"properties":{"osm_id":"6882818359","tag":{"amenity":"waste_basket"}},"type":"Feature"}
]
}
