{
"type": "FeatureCollection",
"lastupdate": "2020-08-04T00:00:00Z",
"features": [
	{"geometry":{"coordinates":[21.020749,52.292551],"type":"Point"},"properties":{"osm_id":"1960379076","tag":{"amenity":"recycling"}},"type":"Feature"},
	{"geometry":{"coordinates":[21.061623,52.276157],"type":"Point"},"properties":{"osm_id":"2134827843","tag":{"amenity":"recycling","recycling:clothes":"yes","recycling:glass":"yes","recycling:paper":"yes","recycling:plastic":"yes","recycling_type":"container"}},"type":"Feature"},
	{"geometry":{"coordinates":[21.059217,52.276271],"type":"Point"},"properties":{"osm_id":"2134827844","tag":{"amenity":"recycling","recycling:clothes":"yes","recycling:glass":"yes","recycling:paper":"yes","recycling:plastic":"yes","recycling_type":"container"}},"type":"Feature"},
	{"geometry":{"coordinates":[21.081953,52.276239],"type":"Point"},"properties":{"osm_id":"2859248031","tag":{"amenity":"waste_basket","waste":"trash"}},"type":"Feature"},
	{"geometry":{"coordinates":[21.080532,52.274128],"type":"Point"},"properties":{"osm_id":"3647112173","tag":{"amenity":"recycling"}},"type":"Feature"},
	{"geometry":{"coordinates":[21.08116,52.273992],"type":"Point"},"properties":{"osm_id":"3647112174","tag":{"amenity":"recycling"}},"type":"Feature"},
	{"geometry":{"coordinates":[21.051744,52.27999],"type":"Point"},"properties":{"osm_id":"3957187720","tag":{"amenity":"waste_basket"}},"type":"Feature"},
	{"geometry":{"coordinates":[21.05169,52.280397],"type":"Point"},"properties":{"osm_id":"3957187776","tag":{"amenity":"waste_basket"}},"type":"Feature"},
	{"geometry":{"coordinates":[21.051438,52.280532],"type":"Point"},"properties":{"osm_id":"3957187786","tag":{"amenity":"waste_basket"}},"type":"Feature"},
	{"geometry":{"coordinates":[21.051371,52.280712],"type":"Point"},"properties":{"osm_id":"3957187790","tag":{"amenity":"waste_basket"}},"type":"Feature"},
	{"geometry":{"coordinates":[21.051294,52.313783],"type":"Point"},"properties":{"osm_id":"4066214402","tag":{"amenity":"waste_basket"}},"type":"Feature"},
	{"geometry":{"coordinates":[21.089486,52.3038],"type":"Point"},"properties":{"osm_id":"4210825305","tag":{"amenity":"waste_basket"}},"type":"Feature"},
	{"geometry":{"coordinates":[21.089558,52.303908],"type":"Point"},"properties":{"osm_id":"4210825311","tag":{"amenity":"waste_basket"}},"type":"Feature"},
	{"geometry":{"coordinates":[21.057899,52.31265],"type":"Point"},"properties":{"osm_id":"4244910406","tag":{"amenity":"waste_basket"}},"type":"Feature"},
	{"geometry":{"coordinates":[21.056185,52.305024],"type":"Point"},"properties":{"osm_id":"4421563406","tag":{"amenity":"waste_basket","source:position":"geoportal.gov.pl:ortofoto"}},"type":"Feature"},
	{"geometry":{"coordinates":[21.056232,52.304762],"type":"Point"},"properties":{"osm_id":"4436380524","tag":{"amenity":"waste_basket","source:position":"geoportal.gov.pl:ortofoto"}},"type":"Feature"},
	{"geometry":{"coordinates":[21.056277,52.30446],"type":"Point"},"properties":{"osm_id":"4436484336","tag":{"amenity":"waste_basket","source:position":"geoportal.gov.pl:ortofoto"}},"type":"Feature"},
	{"geometry":{"coordinates":[21.056311,52.30431],"type":"Point"},"properties":{"osm_id":"4436505116","tag":{"amenity":"waste_basket","source:position":"geoportal.gov.pl:ortofoto"}},"type":"Feature"},
	{"geometry":{"coordinates":[21.059761,52.313006],"type":"Point"},"properties":{"osm_id":"4462216146","tag":{"amenity":"waste_basket"}},"type":"Feature"},
	{"geometry":{"coordinates":[21.059918,52.313033],"type":"Point"},"properties":{"osm_id":"4462216147","tag":{"amenity":"waste_basket"}},"type":"Feature"},
	{"geometry":{"coordinates":[21.038263,52.289087],"type":"Point"},"properties":{"osm_id":"4530239253","tag":{"amenity":"waste_basket"}},"type":"Feature"},
	{"geometry":{"coordinates":[21.03587,52.28942],"type":"Point"},"properties":{"osm_id":"4530239261","tag":{"amenity":"waste_basket"}},"type":"Feature"},
	{"geometry":{"coordinates":[21.077186,52.273323],"type":"Point"},"properties":{"osm_id":"5046642401","tag":{"amenity":"waste_basket"}},"type":"Feature"},
	{"geometry":{"coordinates":[21.062145,52.310393],"type":"Point"},"properties":{"osm_id":"5133567891","tag":{"amenity":"waste_basket"}},"type":"Feature"},
	{"geometry":{"coordinates":[21.082393,52.304545],"type":"Point"},"properties":{"osm_id":"5332145889","tag":{"amenity":"waste_basket"}},"type":"Feature"},
	{"geometry":{"coordinates":[21.082513,52.304585],"type":"Point"},"properties":{"osm_id":"5332145890","tag":{"amenity":"waste_basket"}},"type":"Feature"},
	{"geometry":{"coordinates":[21.05124,52.281237],"type":"Point"},"properties":{"osm_id":"5521000622","tag":{"amenity":"waste_basket"}},"type":"Feature"},
	{"geometry":{"coordinates":[21.051333,52.281325],"type":"Point"},"properties":{"osm_id":"5521000623","tag":{"amenity":"waste_basket"}},"type":"Feature"},
	{"geometry":{"coordinates":[21.073047,52.287764],"type":"Point"},"properties":{"osm_id":"5924036161","tag":{"amenity":"waste_basket"}},"type":"Feature"},
	{"geometry":{"coordinates":[21.044866,52.287212],"type":"Point"},"properties":{"osm_id":"6258542241","tag":{"amenity":"waste_basket"}},"type":"Feature"},
	{"geometry":{"coordinates":[21.040025,52.292858],"type":"Point"},"properties":{"osm_id":"6266949390","tag":{"amenity":"waste_basket"}},"type":"Feature"},
	{"geometry":{"coordinates":[21.034191,52.29169],"type":"Point"},"properties":{"osm_id":"6274745476","tag":{"amenity":"waste_basket"}},"type":"Feature"},
	{"geometry":{"coordinates":[21.036664,52.291552],"type":"Point"},"properties":{"osm_id":"6274748896","tag":{"amenity":"waste_basket"}},"type":"Feature"},
	{"geometry":{"coordinates":[21.037474,52.290885],"type":"Point"},"properties":{"osm_id":"6274748906","tag":{"amenity":"waste_basket"}},"type":"Feature"},
	{"geometry":{"coordinates":[21.032292,52.288747],"type":"Point"},"properties":{"osm_id":"6274748941","tag":{"amenity":"waste_basket"}},"type":"Feature"},
	{"geometry":{"coordinates":[21.035711,52.289332],"type":"Point"},"properties":{"osm_id":"6274748987","tag":{"amenity":"waste_basket"}},"type":"Feature"},
	{"geometry":{"coordinates":[21.035749,52.289496],"type":"Point"},"properties":{"osm_id":"6274748988","tag":{"amenity":"waste_basket"}},"type":"Feature"},
	{"geometry":{"coordinates":[21.069816,52.311571],"type":"Point"},"properties":{"osm_id":"6313212215","tag":{"amenity":"waste_basket"}},"type":"Feature"},
	{"geometry":{"coordinates":[21.069495,52.311514],"type":"Point"},"properties":{"osm_id":"6313212222","tag":{"amenity":"waste_basket"}},"type":"Feature"},
	{"geometry":{"coordinates":[21.066668,52.312548],"type":"Point"},"properties":{"osm_id":"6313212381","tag":{"amenity":"waste_basket"}},"type":"Feature"},
	{"geometry":{"coordinates":[21.070823,52.31206],"type":"Point"},"properties":{"osm_id":"6313212480","tag":{"amenity":"waste_basket"}},"type":"Feature"},
	{"geometry":{"coordinates":[21.034359,52.290325],"type":"Point"},"properties":{"osm_id":"6327266762","tag":{"amenity":"waste_basket"}},"type":"Feature"},
	{"geometry":{"coordinates":[21.031164,52.295298],"type":"Point"},"properties":{"osm_id":"6327269732","tag":{"amenity":"waste_basket"}},"type":"Feature"},
	{"geometry":{"coordinates":[21.082649,52.275961],"type":"Point"},"properties":{"osm_id":"6561117873","tag":{"amenity":"waste_basket"}},"type":"Feature"},
	{"geometry":{"coordinates":[21.084793,52.276019],"type":"Point"},"properties":{"osm_id":"6561123878","tag":{"amenity":"waste_basket"}},"type":"Feature"},
	{"geometry":{"coordinates":[21.084592,52.27593],"type":"Point"},"properties":{"osm_id":"6561123879","tag":{"amenity":"waste_basket"}},"type":"Feature"},
	{"geometry":{"coordinates":[21.084347,52.275826],"type":"Point"},"properties":{"osm_id":"6561123880","tag":{"amenity":"waste_basket"}},"type":"Feature"},
	{"geometry":{"coordinates":[21.083497,52.275461],"type":"Point"},"properties":{"osm_id":"6561123884","tag":{"amenity":"waste_basket"}},"type":"Feature"},
	{"geometry":{"coordinates":[21.083652,52.275527],"type":"Point"},"properties":{"osm_id":"6561123885","tag":{"amenity":"waste_basket"}},"type":"Feature"},
	{"geometry":{"coordinates":[21.084106,52.275721],"type":"Point"},"properties":{"osm_id":"6561123888","tag":{"amenity":"waste_basket"}},"type":"Feature"},
	{"geometry":{"coordinates":[21.083807,52.274916],"type":"Point"},"properties":{"osm_id":"6561123889","tag":{"amenity":"waste_basket"}},"type":"Feature"},
	{"geometry":{"coordinates":[21.083661,52.275047],"type":"Point"},"properties":{"osm_id":"6561123890","tag":{"amenity":"waste_basket"}},"type":"Feature"},
	{"geometry":{"coordinates":[21.083517,52.275174],"type":"Point"},"properties":{"osm_id":"6561123891","tag":{"amenity":"waste_basket"}},"type":"Feature"},
	{"geometry":{"coordinates":[21.083402,52.275275],"type":"Point"},"properties":{"osm_id":"6561123892","tag":{"amenity":"waste_basket"}},"type":"Feature"},
	{"geometry":{"coordinates":[21.07825,52.27419],"type":"Point"},"properties":{"osm_id":"6561384150","tag":{"amenity":"waste_basket"}},"type":"Feature"},
	{"geometry":{"coordinates":[21.078339,52.274238],"type":"Point"},"properties":{"osm_id":"6561384151","tag":{"amenity":"waste_basket"}},"type":"Feature"},
	{"geometry":{"coordinates":[21.080314,52.274702],"type":"Point"},"properties":{"osm_id":"6561384277","tag":{"amenity":"waste_basket"}},"type":"Feature"},
	{"geometry":{"coordinates":[21.080072,52.274634],"type":"Point"},"properties":{"osm_id":"6561384281","tag":{"amenity":"waste_basket"}},"type":"Feature"},
	{"geometry":{"coordinates":[21.082668,52.275384],"type":"Point"},"properties":{"osm_id":"6561384305","tag":{"amenity":"waste_basket"}},"type":"Feature"},
	{"geometry":{"coordinates":[21.082471,52.275326],"type":"Point"},"properties":{"osm_id":"6561384306","tag":{"amenity":"waste_basket"}},"type":"Feature"},
	{"geometry":{"coordinates":[21.080542,52.274051],"type":"Point"},"properties":{"osm_id":"6565926960","tag":{"amenity":"waste_basket"}},"type":"Feature"},
	{"geometry":{"coordinates":[21.081196,52.273914],"type":"Point"},"properties":{"osm_id":"6565926961","tag":{"amenity":"waste_basket"}},"type":"Feature"},
	{"geometry":{"coordinates":[21.081755,52.273889],"type":"Point"},"properties":{"osm_id":"6565926962","tag":{"amenity":"waste_basket"}},"type":"Feature"},
	{"geometry":{"coordinates":[21.082426,52.273914],"type":"Point"},"properties":{"osm_id":"6565926963","tag":{"amenity":"waste_basket"}},"type":"Feature"},
	{"geometry":{"coordinates":[21.083078,52.274008],"type":"Point"},"properties":{"osm_id":"6565926964","tag":{"amenity":"waste_basket"}},"type":"Feature"},
	{"geometry":{"coordinates":[21.083873,52.274219],"type":"Point"},"properties":{"osm_id":"6565926965","tag":{"amenity":"waste_basket"}},"type":"Feature"},
	{"geometry":{"coordinates":[21.082817,52.27577],"type":"Point"},"properties":{"osm_id":"6565933662","tag":{"amenity":"waste_basket"}},"type":"Feature"},
	{"geometry":{"coordinates":[21.082986,52.275694],"type":"Point"},"properties":{"osm_id":"6565933664","tag":{"amenity":"waste_basket"}},"type":"Feature"},
	{"geometry":{"coordinates":[21.082792,52.27585],"type":"Point"},"properties":{"osm_id":"6565933665","tag":{"amenity":"waste_basket"}},"type":"Feature"},
	{"geometry":{"coordinates":[21.08095,52.274688],"type":"Point"},"properties":{"osm_id":"6565933698","tag":{"amenity":"waste_basket"}},"type":"Feature"},
	{"geometry":{"coordinates":[21.08113,52.274741],"type":"Point"},"properties":{"osm_id":"6565933699","tag":{"amenity":"waste_basket"}},"type":"Feature"},
	{"geometry":{"coordinates":[21.082078,52.275015],"type":"Point"},"properties":{"osm_id":"6565933700","tag":{"amenity":"waste_basket"}},"type":"Feature"},
	{"geometry":{"coordinates":[21.079973,52.274345],"type":"Point"},"properties":{"osm_id":"6565933775","tag":{"amenity":"waste_basket"}},"type":"Feature"},
	{"geometry":{"coordinates":[21.051397,52.268431],"type":"Point"},"properties":{"osm_id":"6800118483","tag":{"amenity":"waste_basket"}},"type":"Feature"},
	{"geometry":{"coordinates":[21.05098,52.269517],"type":"Point"},"properties":{"osm_id":"6800128491","tag":{"amenity":"waste_basket"}},"type":"Feature"},
	{"geometry":{"coordinates":[21.051105,52.269512],"type":"Point"},"properties":{"osm_id":"6800128492","tag":{"amenity":"waste_basket"}},"type":"Feature"},
	{"geometry":{"coordinates":[21.052992,52.273273],"type":"Point"},"properties":{"osm_id":"6800128515","tag":{"amenity":"waste_basket"}},"type":"Feature"},
	{"geometry":{"coordinates":[21.051974,52.273404],"type":"Point"},"properties":{"osm_id":"6800206024","tag":{"amenity":"waste_basket"}},"type":"Feature"},
	{"geometry":{"coordinates":[21.054449,52.274292],"type":"Point"},"properties":{"osm_id":"6800206033","tag":{"amenity":"waste_basket"}},"type":"Feature"},
	{"geometry":{"coordinates":[21.023809,52.2769],"type":"Point"},"properties":{"name":"Skup z\u00c5\u0082omu i makulatury","osm_id":"6833010757","tag":{"amenity":"recycling","recycling_type":"centre"}},"type":"Feature"},
	{"geometry":{"coordinates":[21.043941,52.297469],"type":"Point"},"properties":{"osm_id":"7096714678","tag":{"amenity":"waste_basket","waste":"trash"}},"type":"Feature"},
	{"geometry":{"coordinates":[21.043633,52.296946],"type":"Point"},"properties":{"osm_id":"7096727636","tag":{"amenity":"recycling","recycling:clothes":"yes","recycling_type":"container"}},"type":"Feature"},
	{"geometry":{"coordinates":[21.086348,52.277386],"type":"Point"},"properties":{"osm_id":"7626859610","tag":{"amenity":"waste_basket"}},"type":"Feature"},
	{"geometry":{"coordinates":[21.081286,52.276683],"type":"Point"},"properties":{"osm_id":"7632508012","tag":{"amenity":"waste_basket","waste":"trash"}},"type":"Feature"},
	{"geometry":{"coordinates":[21.08156,52.2764],"type":"Point"},"properties":{"osm_id":"7632508014","tag":{"amenity":"waste_basket","waste":"trash"}},"type":"Feature"},
	{"geometry":{"coordinates":[21.080882,52.277093],"type":"Point"},"properties":{"osm_id":"7632508026","tag":{"amenity":"waste_basket"}},"type":"Feature"},
	{"geometry":{"coordinates":[21.080384,52.277661],"type":"Point"},"properties":{"osm_id":"7632748504","tag":{"amenity":"waste_basket"}},"type":"Feature"},
	{"geometry":{"coordinates":[21.080353,52.2773],"type":"Point"},"properties":{"osm_id":"7632748508","tag":{"amenity":"waste_basket"}},"type":"Feature"},
	{"geometry":{"coordinates":[21.080942,52.277418],"type":"Point"},"properties":{"osm_id":"7632748510","tag":{"amenity":"waste_basket"}},"type":"Feature"},
	{"geometry":{"coordinates":[21.081032,52.277336],"type":"Point"},"properties":{"osm_id":"7632748511","tag":{"amenity":"waste_basket"}},"type":"Feature"}
]
}
