{
"type": "FeatureCollection",
"features": [
	{"geometry":{"coordinates":[21.079004,52.164787],"type":"Point"},"properties":{"osm_id":"778785751","tag":{"amenity":"recycling"}},"type":"Feature"},
	{"geometry":{"coordinates":[21.073638,52.172027],"type":"Point"},"properties":{"osm_id":"897150033","tag":{"amenity":"recycling"}},"type":"Feature"},
	{"geometry":{"coordinates":[21.015882,52.180571],"type":"Point"},"properties":{"osm_id":"1496723409","tag":{"amenity":"waste_basket"}},"type":"Feature"},
	{"geometry":{"coordinates":[21.083602,52.167043],"type":"Point"},"properties":{"osm_id":"1977957138","tag":{"amenity":"waste_disposal"}},"type":"Feature"},
	{"geometry":{"coordinates":[21.081451,52.167728],"type":"Point"},"properties":{"osm_id":"1977957165","tag":{"amenity":"waste_disposal"}},"type":"Feature"},
	{"geometry":{"coordinates":[21.034952,52.17172],"type":"Point"},"properties":{"osm_id":"2025523151","tag":{"amenity":"waste_disposal"}},"type":"Feature"},
	{"geometry":{"coordinates":[21.034877,52.173368],"type":"Point"},"properties":{"osm_id":"2025523228","tag":{"amenity":"waste_disposal"}},"type":"Feature"},
	{"geometry":{"coordinates":[21.006789,52.210206],"type":"Point"},"properties":{"osm_id":"2636946101","tag":{"amenity":"waste_basket","waste":"trash"}},"type":"Feature"},
	{"geometry":{"coordinates":[21.013627,52.202847],"type":"Point"},"properties":{"osm_id":"3444972714","tag":{"amenity":"waste_disposal"}},"type":"Feature"},
	{"geometry":{"coordinates":[21.016127,52.18918],"type":"Point"},"properties":{"osm_id":"3517052454","tag":{"amenity":"waste_basket"}},"type":"Feature"},
	{"geometry":{"coordinates":[21.016241,52.189187],"type":"Point"},"properties":{"osm_id":"3517052455","tag":{"amenity":"waste_basket"}},"type":"Feature"},
	{"geometry":{"coordinates":[21.016567,52.189274],"type":"Point"},"properties":{"osm_id":"3517052459","tag":{"amenity":"waste_basket"}},"type":"Feature"},
	{"geometry":{"coordinates":[21.016756,52.189337],"type":"Point"},"properties":{"osm_id":"3517052462","tag":{"amenity":"waste_basket"}},"type":"Feature"},
	{"geometry":{"coordinates":[21.016546,52.189405],"type":"Point"},"properties":{"osm_id":"3517052463","tag":{"amenity":"waste_basket"}},"type":"Feature"},
	{"geometry":{"coordinates":[21.022771,52.164421],"type":"Point"},"properties":{"osm_id":"3705172964","tag":{"amenity":"waste_basket"}},"type":"Feature"},
	{"geometry":{"coordinates":[21.02318,52.163302],"type":"Point"},"properties":{"osm_id":"3705431265","tag":{"amenity":"waste_basket"}},"type":"Feature"},
	{"geometry":{"coordinates":[21.023295,52.164013],"type":"Point"},"properties":{"osm_id":"3705431270","tag":{"amenity":"waste_basket"}},"type":"Feature"},
	{"geometry":{"coordinates":[21.023303,52.164049],"type":"Point"},"properties":{"osm_id":"3705431271","tag":{"amenity":"waste_basket"}},"type":"Feature"},
	{"geometry":{"coordinates":[21.024054,52.164431],"type":"Point"},"properties":{"osm_id":"3705431273","tag":{"amenity":"waste_basket"}},"type":"Feature"},
	{"geometry":{"coordinates":[21.023948,52.164436],"type":"Point"},"properties":{"osm_id":"3705431274","tag":{"amenity":"waste_basket"}},"type":"Feature"},
	{"geometry":{"coordinates":[21.023728,52.164446],"type":"Point"},"properties":{"osm_id":"3705431276","tag":{"amenity":"waste_basket"}},"type":"Feature"},
	{"geometry":{"coordinates":[21.02366,52.164451],"type":"Point"},"properties":{"osm_id":"3705431277","tag":{"amenity":"waste_basket"}},"type":"Feature"},
	{"geometry":{"coordinates":[21.023524,52.164456],"type":"Point"},"properties":{"osm_id":"3705431279","tag":{"amenity":"waste_basket"}},"type":"Feature"},
	{"geometry":{"coordinates":[21.023656,52.164476],"type":"Point"},"properties":{"osm_id":"3705431281","tag":{"amenity":"waste_basket"}},"type":"Feature"},
	{"geometry":{"coordinates":[21.0233,52.164601],"type":"Point"},"properties":{"osm_id":"3705431285","tag":{"amenity":"waste_basket"}},"type":"Feature"},
	{"geometry":{"coordinates":[21.0233,52.164644],"type":"Point"},"properties":{"osm_id":"3705431287","tag":{"amenity":"waste_basket"}},"type":"Feature"},
	{"geometry":{"coordinates":[21.023243,52.164712],"type":"Point"},"properties":{"osm_id":"3705431288","tag":{"amenity":"waste_basket"}},"type":"Feature"},
	{"geometry":{"coordinates":[21.023284,52.164884],"type":"Point"},"properties":{"osm_id":"3705431293","tag":{"amenity":"waste_basket"}},"type":"Feature"},
	{"geometry":{"coordinates":[21.023233,52.16491],"type":"Point"},"properties":{"osm_id":"3705431298","tag":{"amenity":"waste_basket"}},"type":"Feature"},
	{"geometry":{"coordinates":[21.024094,52.165008],"type":"Point"},"properties":{"osm_id":"3705431304","tag":{"amenity":"waste_basket"}},"type":"Feature"},
	{"geometry":{"coordinates":[21.023719,52.165015],"type":"Point"},"properties":{"osm_id":"3705431305","tag":{"amenity":"waste_basket"}},"type":"Feature"},
	{"geometry":{"coordinates":[21.023906,52.165061],"type":"Point"},"properties":{"osm_id":"3705431309","tag":{"amenity":"waste_basket"}},"type":"Feature"},
	{"geometry":{"coordinates":[21.023974,52.165073],"type":"Point"},"properties":{"osm_id":"3705431310","tag":{"amenity":"waste_basket"}},"type":"Feature"},
	{"geometry":{"coordinates":[21.024033,52.165113],"type":"Point"},"properties":{"osm_id":"3705431314","tag":{"amenity":"waste_basket"}},"type":"Feature"},
	{"geometry":{"coordinates":[21.023835,52.16514],"type":"Point"},"properties":{"osm_id":"3705431316","tag":{"amenity":"waste_basket"}},"type":"Feature"},
	{"geometry":{"coordinates":[21.023985,52.165177],"type":"Point"},"properties":{"osm_id":"3705431319","tag":{"amenity":"waste_basket"}},"type":"Feature"},
	{"geometry":{"coordinates":[21.022714,52.165348],"type":"Point"},"properties":{"osm_id":"3705431332","tag":{"amenity":"waste_basket"}},"type":"Feature"},
	{"geometry":{"coordinates":[21.022361,52.165379],"type":"Point"},"properties":{"osm_id":"3705431343","tag":{"amenity":"waste_basket"}},"type":"Feature"},
	{"geometry":{"coordinates":[21.0221,52.165446],"type":"Point"},"properties":{"osm_id":"3705431368","tag":{"amenity":"waste_basket"}},"type":"Feature"},
	{"geometry":{"coordinates":[21.023922,52.165582],"type":"Point"},"properties":{"osm_id":"3705431396","tag":{"amenity":"waste_basket"}},"type":"Feature"},
	{"geometry":{"coordinates":[21.023488,52.165584],"type":"Point"},"properties":{"osm_id":"3705431397","tag":{"amenity":"waste_basket"}},"type":"Feature"},
	{"geometry":{"coordinates":[21.022729,52.165613],"type":"Point"},"properties":{"osm_id":"3705431407","tag":{"amenity":"waste_basket"}},"type":"Feature"},
	{"geometry":{"coordinates":[21.024427,52.165786],"type":"Point"},"properties":{"osm_id":"3705431418","tag":{"amenity":"waste_basket"}},"type":"Feature"},
	{"geometry":{"coordinates":[21.023546,52.163271],"type":"Point"},"properties":{"osm_id":"3707219379","tag":{"amenity":"waste_basket"}},"type":"Feature"},
	{"geometry":{"coordinates":[21.023376,52.163294],"type":"Point"},"properties":{"osm_id":"3707219382","tag":{"amenity":"waste_basket"}},"type":"Feature"},
	{"geometry":{"coordinates":[21.023314,52.163353],"type":"Point"},"properties":{"osm_id":"3707219384","tag":{"amenity":"waste_basket"}},"type":"Feature"},
	{"geometry":{"coordinates":[21.02339,52.163374],"type":"Point"},"properties":{"osm_id":"3707219385","tag":{"amenity":"waste_basket"}},"type":"Feature"},
	{"geometry":{"coordinates":[21.023086,52.163384],"type":"Point"},"properties":{"osm_id":"3707219386","tag":{"amenity":"waste_basket"}},"type":"Feature"},
	{"geometry":{"coordinates":[21.021331,52.163486],"type":"Point"},"properties":{"osm_id":"3707219387","tag":{"amenity":"waste_basket"}},"type":"Feature"},
	{"geometry":{"coordinates":[21.021759,52.163489],"type":"Point"},"properties":{"osm_id":"3707219388","tag":{"amenity":"waste_basket"}},"type":"Feature"},
	{"geometry":{"coordinates":[21.023233,52.163485],"type":"Point"},"properties":{"osm_id":"3707219389","tag":{"amenity":"waste_basket"}},"type":"Feature"},
	{"geometry":{"coordinates":[21.021424,52.163545],"type":"Point"},"properties":{"osm_id":"3707219390","tag":{"amenity":"waste_basket"}},"type":"Feature"},
	{"geometry":{"coordinates":[21.023297,52.163648],"type":"Point"},"properties":{"osm_id":"3707219391","tag":{"amenity":"waste_basket"}},"type":"Feature"},
	{"geometry":{"coordinates":[21.021234,52.163663],"type":"Point"},"properties":{"osm_id":"3707219392","tag":{"amenity":"waste_basket"}},"type":"Feature"},
	{"geometry":{"coordinates":[21.023296,52.163789],"type":"Point"},"properties":{"osm_id":"3707219393","tag":{"amenity":"waste_basket"}},"type":"Feature"},
	{"geometry":{"coordinates":[21.021276,52.164437],"type":"Point"},"properties":{"osm_id":"3707219394","tag":{"amenity":"waste_basket"}},"type":"Feature"},
	{"geometry":{"coordinates":[21.021073,52.164464],"type":"Point"},"properties":{"osm_id":"3707219395","tag":{"amenity":"waste_basket"}},"type":"Feature"},
	{"geometry":{"coordinates":[21.021206,52.164605],"type":"Point"},"properties":{"osm_id":"3707219397","tag":{"amenity":"waste_basket"}},"type":"Feature"},
	{"geometry":{"coordinates":[21.023214,52.165258],"type":"Point"},"properties":{"osm_id":"3707219400","tag":{"amenity":"waste_basket"}},"type":"Feature"},
	{"geometry":{"coordinates":[21.023093,52.165264],"type":"Point"},"properties":{"osm_id":"3707219401","tag":{"amenity":"waste_basket"}},"type":"Feature"},
	{"geometry":{"coordinates":[21.021582,52.165334],"type":"Point"},"properties":{"osm_id":"3707219406","tag":{"amenity":"waste_basket"}},"type":"Feature"},
	{"geometry":{"coordinates":[21.021367,52.165346],"type":"Point"},"properties":{"osm_id":"3707219408","tag":{"amenity":"waste_basket"}},"type":"Feature"},
	{"geometry":{"coordinates":[21.020601,52.165502],"type":"Point"},"properties":{"osm_id":"3707219732","tag":{"amenity":"waste_basket"}},"type":"Feature"},
	{"geometry":{"coordinates":[21.024038,52.165556],"type":"Point"},"properties":{"osm_id":"3707219734","tag":{"amenity":"waste_basket"}},"type":"Feature"},
	{"geometry":{"coordinates":[21.02019,52.165566],"type":"Point"},"properties":{"osm_id":"3707219735","tag":{"amenity":"waste_basket"}},"type":"Feature"},
	{"geometry":{"coordinates":[21.023724,52.165574],"type":"Point"},"properties":{"osm_id":"3707219736","tag":{"amenity":"waste_basket"}},"type":"Feature"},
	{"geometry":{"coordinates":[21.023219,52.165625],"type":"Point"},"properties":{"osm_id":"3707219740","tag":{"amenity":"waste_basket"}},"type":"Feature"},
	{"geometry":{"coordinates":[21.022945,52.165646],"type":"Point"},"properties":{"osm_id":"3707219743","tag":{"amenity":"waste_basket"}},"type":"Feature"},
	{"geometry":{"coordinates":[21.020565,52.16569],"type":"Point"},"properties":{"osm_id":"3707219744","tag":{"amenity":"waste_basket"}},"type":"Feature"},
	{"geometry":{"coordinates":[21.021129,52.165846],"type":"Point"},"properties":{"osm_id":"3707219745","tag":{"amenity":"waste_basket"}},"type":"Feature"},
	{"geometry":{"coordinates":[21.024045,52.160982],"type":"Point"},"properties":{"osm_id":"3708493091","tag":{"amenity":"waste_basket"}},"type":"Feature"},
	{"geometry":{"coordinates":[21.022418,52.161901],"type":"Point"},"properties":{"osm_id":"3708493093","tag":{"amenity":"waste_basket"}},"type":"Feature"},
	{"geometry":{"coordinates":[21.022915,52.163916],"type":"Point"},"properties":{"osm_id":"3708493112","tag":{"amenity":"waste_basket"}},"type":"Feature"},
	{"geometry":{"coordinates":[21.022861,52.164127],"type":"Point"},"properties":{"osm_id":"3708493115","tag":{"amenity":"waste_basket"}},"type":"Feature"},
	{"geometry":{"coordinates":[21.020837,52.165372],"type":"Point"},"properties":{"osm_id":"3708493117","tag":{"amenity":"waste_basket"}},"type":"Feature"},
	{"geometry":{"coordinates":[21.020938,52.1655],"type":"Point"},"properties":{"osm_id":"3708493118","tag":{"amenity":"waste_basket"}},"type":"Feature"},
	{"geometry":{"coordinates":[21.021077,52.165503],"type":"Point"},"properties":{"osm_id":"3708493119","tag":{"amenity":"waste_basket"}},"type":"Feature"},
	{"geometry":{"coordinates":[21.022867,52.165517],"type":"Point"},"properties":{"osm_id":"3708493122","tag":{"amenity":"waste_basket"}},"type":"Feature"},
	{"geometry":{"coordinates":[21.021655,52.165555],"type":"Point"},"properties":{"osm_id":"3708493429","tag":{"amenity":"waste_basket"}},"type":"Feature"},
	{"geometry":{"coordinates":[21.021069,52.165623],"type":"Point"},"properties":{"osm_id":"3708493446","tag":{"amenity":"waste_basket"}},"type":"Feature"},
	{"geometry":{"coordinates":[21.021912,52.165663],"type":"Point"},"properties":{"osm_id":"3708493449","tag":{"amenity":"waste_basket"}},"type":"Feature"},
	{"geometry":{"coordinates":[21.022295,52.165705],"type":"Point"},"properties":{"osm_id":"3708493451","tag":{"amenity":"waste_basket"}},"type":"Feature"},
	{"geometry":{"coordinates":[21.022034,52.165727],"type":"Point"},"properties":{"osm_id":"3708493452","tag":{"amenity":"waste_basket"}},"type":"Feature"},
	{"geometry":{"coordinates":[21.021691,52.16576],"type":"Point"},"properties":{"osm_id":"3708493453","tag":{"amenity":"waste_basket"}},"type":"Feature"},
	{"geometry":{"coordinates":[21.02493,52.162319],"type":"Point"},"properties":{"osm_id":"3711105781","tag":{"amenity":"waste_basket"}},"type":"Feature"},
	{"geometry":{"coordinates":[21.024401,52.162571],"type":"Point"},"properties":{"osm_id":"3711105790","tag":{"amenity":"waste_basket"}},"type":"Feature"},
	{"geometry":{"coordinates":[21.023973,52.162627],"type":"Point"},"properties":{"osm_id":"3711105791","tag":{"amenity":"waste_basket"}},"type":"Feature"},
	{"geometry":{"coordinates":[21.024024,52.162695],"type":"Point"},"properties":{"osm_id":"3711105794","tag":{"amenity":"waste_basket"}},"type":"Feature"},
	{"geometry":{"coordinates":[21.024356,52.162774],"type":"Point"},"properties":{"osm_id":"3711105798","tag":{"amenity":"waste_basket"}},"type":"Feature"},
	{"geometry":{"coordinates":[21.024065,52.1628],"type":"Point"},"properties":{"osm_id":"3711105800","tag":{"amenity":"waste_basket"}},"type":"Feature"},
	{"geometry":{"coordinates":[21.024163,52.162851],"type":"Point"},"properties":{"osm_id":"3711105803","tag":{"amenity":"waste_basket"}},"type":"Feature"},
	{"geometry":{"coordinates":[21.024171,52.162914],"type":"Point"},"properties":{"osm_id":"3711105806","tag":{"amenity":"waste_basket"}},"type":"Feature"},
	{"geometry":{"coordinates":[21.024274,52.162954],"type":"Point"},"properties":{"osm_id":"3711105809","tag":{"amenity":"waste_basket"}},"type":"Feature"},
	{"geometry":{"coordinates":[21.024235,52.162967],"type":"Point"},"properties":{"osm_id":"3711105810","tag":{"amenity":"waste_basket"}},"type":"Feature"},
	{"geometry":{"coordinates":[21.024767,52.163056],"type":"Point"},"properties":{"osm_id":"3714270223","tag":{"amenity":"waste_basket"}},"type":"Feature"},
	{"geometry":{"coordinates":[21.047515,52.189321],"type":"Point"},"properties":{"osm_id":"3717016555","tag":{"amenity":"waste_basket"}},"type":"Feature"},
	{"geometry":{"coordinates":[21.046202,52.190079],"type":"Point"},"properties":{"osm_id":"3717016711","tag":{"amenity":"waste_basket"}},"type":"Feature"},
	{"geometry":{"coordinates":[21.046236,52.190152],"type":"Point"},"properties":{"osm_id":"3717016724","tag":{"amenity":"waste_basket"}},"type":"Feature"},
	{"geometry":{"coordinates":[21.046097,52.190582],"type":"Point"},"properties":{"osm_id":"3717016815","tag":{"amenity":"waste_basket"}},"type":"Feature"},
	{"geometry":{"coordinates":[21.04653,52.190917],"type":"Point"},"properties":{"osm_id":"3717016885","tag":{"amenity":"waste_basket"}},"type":"Feature"},
	{"geometry":{"coordinates":[21.013867,52.179307],"type":"Point"},"properties":{"osm_id":"3720057815","tag":{"amenity":"waste_basket"}},"type":"Feature"},
	{"geometry":{"coordinates":[21.013876,52.179382],"type":"Point"},"properties":{"osm_id":"3720058735","tag":{"amenity":"waste_basket"}},"type":"Feature"},
	{"geometry":{"coordinates":[21.013862,52.179632],"type":"Point"},"properties":{"osm_id":"3720058825","tag":{"amenity":"waste_basket"}},"type":"Feature"},
	{"geometry":{"coordinates":[21.013111,52.179815],"type":"Point"},"properties":{"osm_id":"3720058912","tag":{"amenity":"waste_basket"}},"type":"Feature"},
	{"geometry":{"coordinates":[21.014513,52.179977],"type":"Point"},"properties":{"osm_id":"3720058989","tag":{"amenity":"waste_basket"}},"type":"Feature"},
	{"geometry":{"coordinates":[21.040129,52.201102],"type":"Point"},"properties":{"osm_id":"4414418165","tag":{"amenity":"waste_basket"}},"type":"Feature"},
	{"geometry":{"coordinates":[21.040024,52.201186],"type":"Point"},"properties":{"osm_id":"4414418166","tag":{"amenity":"waste_basket"}},"type":"Feature"},
	{"geometry":{"coordinates":[21.075673,52.165086],"type":"Point"},"properties":{"osm_id":"4432474815","tag":{"amenity":"waste_basket","source:position":"geoportal.gov.pl:ortofoto"}},"type":"Feature"},
	{"geometry":{"coordinates":[21.076051,52.16509],"type":"Point"},"properties":{"osm_id":"4432502806","tag":{"amenity":"waste_basket","source:position":"geoportal.gov.pl:ortofoto"}},"type":"Feature"},
	{"geometry":{"coordinates":[21.010552,52.194043],"type":"Point"},"properties":{"osm_id":"4564260191","tag":{"amenity":"waste_disposal","operator":"Wsp\u00c3\u00b3lnota Mieszkaniowa J. Curie 26"}},"type":"Feature"},
	{"geometry":{"coordinates":[21.010808,52.192898],"type":"Point"},"properties":{"osm_id":"4564260490","tag":{"amenity":"waste_disposal","operator":"Wsp\u00c3\u00b3lnota Mieszkaniowa"}},"type":"Feature"},
	{"geometry":{"coordinates":[21.012064,52.193097],"type":"Point"},"properties":{"osm_id":"4564283089","tag":{"amenity":"waste_disposal","operator":"Wsp\u00c3\u00b3lnota Mieszkaniowa"}},"type":"Feature"},
	{"geometry":{"coordinates":[21.021041,52.164154],"type":"Point"},"properties":{"osm_id":"4770120002","tag":{"amenity":"waste_basket"}},"type":"Feature"},
	{"geometry":{"coordinates":[21.021572,52.163849],"type":"Point"},"properties":{"osm_id":"4770120006","tag":{"amenity":"waste_basket"}},"type":"Feature"},
	{"geometry":{"coordinates":[21.022294,52.164073],"type":"Point"},"properties":{"osm_id":"4770120007","tag":{"amenity":"waste_basket"}},"type":"Feature"},
	{"geometry":{"coordinates":[21.022813,52.16349],"type":"Point"},"properties":{"osm_id":"4770121029","tag":{"amenity":"waste_basket"}},"type":"Feature"},
	{"geometry":{"coordinates":[21.016026,52.190811],"type":"Point"},"properties":{"osm_id":"4913185924","tag":{"amenity":"waste_basket"}},"type":"Feature"},
	{"geometry":{"coordinates":[21.066559,52.170163],"type":"Point"},"properties":{"osm_id":"5225501974","tag":{"amenity":"waste_basket"}},"type":"Feature"},
	{"geometry":{"coordinates":[21.066643,52.170151],"type":"Point"},"properties":{"osm_id":"5225501975","tag":{"amenity":"waste_basket"}},"type":"Feature"},
	{"geometry":{"coordinates":[21.020928,52.170657],"type":"Point"},"properties":{"osm_id":"5259398381","tag":{"amenity":"waste_disposal"}},"type":"Feature"},
	{"geometry":{"coordinates":[21.022094,52.170508],"type":"Point"},"properties":{"osm_id":"5259413201","tag":{"amenity":"waste_disposal"}},"type":"Feature"},
	{"geometry":{"coordinates":[21.021875,52.17098],"type":"Point"},"properties":{"osm_id":"5259413202","tag":{"amenity":"waste_disposal"}},"type":"Feature"},
	{"geometry":{"coordinates":[21.020057,52.170459],"type":"Point"},"properties":{"osm_id":"5259413203","tag":{"amenity":"waste_disposal"}},"type":"Feature"},
	{"geometry":{"coordinates":[21.020811,52.171193],"type":"Point"},"properties":{"osm_id":"5259413208","tag":{"amenity":"waste_disposal"}},"type":"Feature"},
	{"geometry":{"coordinates":[21.022738,52.171423],"type":"Point"},"properties":{"osm_id":"5259413209","tag":{"amenity":"waste_disposal"}},"type":"Feature"},
	{"geometry":{"coordinates":[21.023273,52.171571],"type":"Point"},"properties":{"osm_id":"5259413210","tag":{"amenity":"waste_disposal"}},"type":"Feature"},
	{"geometry":{"coordinates":[21.006927,52.199529],"type":"Point"},"properties":{"osm_id":"5503883889","tag":{"amenity":"waste_basket"}},"type":"Feature"},
	{"geometry":{"coordinates":[21.027108,52.176164],"type":"Point"},"properties":{"osm_id":"5616000231","tag":{"amenity":"waste_basket"}},"type":"Feature"},
	{"geometry":{"coordinates":[21.025786,52.173518],"type":"Point"},"properties":{"osm_id":"5616000232","tag":{"amenity":"waste_basket"}},"type":"Feature"},
	{"geometry":{"coordinates":[21.02664,52.176222],"type":"Point"},"properties":{"osm_id":"5616197181","tag":{"amenity":"waste_basket"}},"type":"Feature"},
	{"geometry":{"coordinates":[21.027398,52.178594],"type":"Point"},"properties":{"osm_id":"5616535200","tag":{"amenity":"waste_basket"}},"type":"Feature"},
	{"geometry":{"coordinates":[21.026683,52.173683],"type":"Point"},"properties":{"osm_id":"5630790362","tag":{"amenity":"waste_basket"}},"type":"Feature"},
	{"geometry":{"coordinates":[21.026478,52.173103],"type":"Point"},"properties":{"osm_id":"5635759181","tag":{"amenity":"waste_basket"}},"type":"Feature"},
	{"geometry":{"coordinates":[21.034526,52.17716],"type":"Point"},"properties":{"osm_id":"5635759185","tag":{"amenity":"waste_basket"}},"type":"Feature"},
	{"geometry":{"coordinates":[21.026687,52.171879],"type":"Point"},"properties":{"osm_id":"5635759187","tag":{"amenity":"waste_basket"}},"type":"Feature"},
	{"geometry":{"coordinates":[21.027517,52.177353],"type":"Point"},"properties":{"osm_id":"5635759189","tag":{"amenity":"waste_basket"}},"type":"Feature"},
	{"geometry":{"coordinates":[21.026576,52.172066],"type":"Point"},"properties":{"osm_id":"5635759192","tag":{"amenity":"waste_basket"}},"type":"Feature"},
	{"geometry":{"coordinates":[21.02725,52.178327],"type":"Point"},"properties":{"osm_id":"5635759195","tag":{"amenity":"waste_basket"}},"type":"Feature"},
	{"geometry":{"coordinates":[21.026169,52.169945],"type":"Point"},"properties":{"osm_id":"5635759197","tag":{"amenity":"waste_basket"}},"type":"Feature"},
	{"geometry":{"coordinates":[21.027806,52.178205],"type":"Point"},"properties":{"osm_id":"5635759199","tag":{"amenity":"waste_basket"}},"type":"Feature"},
	{"geometry":{"coordinates":[21.026617,52.171726],"type":"Point"},"properties":{"osm_id":"5635759202","tag":{"amenity":"waste_basket"}},"type":"Feature"},
	{"geometry":{"coordinates":[21.02654,52.1731],"type":"Point"},"properties":{"osm_id":"5635759206","tag":{"amenity":"waste_basket"}},"type":"Feature"},
	{"geometry":{"coordinates":[21.025046,52.169781],"type":"Point"},"properties":{"osm_id":"5635759208","tag":{"amenity":"waste_basket"}},"type":"Feature"},
	{"geometry":{"coordinates":[21.032771,52.177227],"type":"Point"},"properties":{"osm_id":"5635759210","tag":{"amenity":"waste_basket"}},"type":"Feature"},
	{"geometry":{"coordinates":[21.026678,52.171929],"type":"Point"},"properties":{"osm_id":"5635759212","tag":{"amenity":"waste_basket"}},"type":"Feature"},
	{"geometry":{"coordinates":[21.026631,52.170331],"type":"Point"},"properties":{"osm_id":"5638430674","tag":{"amenity":"waste_basket"}},"type":"Feature"},
	{"geometry":{"coordinates":[21.030614,52.168286],"type":"Point"},"properties":{"osm_id":"5638430675","tag":{"amenity":"waste_basket"}},"type":"Feature"},
	{"geometry":{"coordinates":[21.024978,52.169176],"type":"Point"},"properties":{"osm_id":"5638430677","tag":{"amenity":"waste_basket"}},"type":"Feature"},
	{"geometry":{"coordinates":[21.026106,52.173273],"type":"Point"},"properties":{"osm_id":"5638430678","tag":{"amenity":"waste_basket"}},"type":"Feature"},
	{"geometry":{"coordinates":[21.026555,52.169941],"type":"Point"},"properties":{"osm_id":"5638430679","tag":{"amenity":"waste_basket"}},"type":"Feature"},
	{"geometry":{"coordinates":[21.034576,52.1684],"type":"Point"},"properties":{"osm_id":"5638430681","tag":{"amenity":"waste_basket"}},"type":"Feature"},
	{"geometry":{"coordinates":[21.02535,52.169787],"type":"Point"},"properties":{"osm_id":"5638430682","tag":{"amenity":"waste_basket"}},"type":"Feature"},
	{"geometry":{"coordinates":[21.026578,52.169735],"type":"Point"},"properties":{"osm_id":"5638430689","tag":{"amenity":"waste_basket"}},"type":"Feature"},
	{"geometry":{"coordinates":[21.03419,52.168295],"type":"Point"},"properties":{"osm_id":"5638430691","tag":{"amenity":"waste_basket"}},"type":"Feature"},
	{"geometry":{"coordinates":[21.026117,52.171317],"type":"Point"},"properties":{"osm_id":"5638430692","tag":{"amenity":"waste_basket"}},"type":"Feature"},
	{"geometry":{"coordinates":[21.033805,52.168817],"type":"Point"},"properties":{"osm_id":"5638430694","tag":{"amenity":"waste_basket"}},"type":"Feature"},
	{"geometry":{"coordinates":[21.03599,52.169872],"type":"Point"},"properties":{"osm_id":"5638430698","tag":{"amenity":"waste_basket"}},"type":"Feature"},
	{"geometry":{"coordinates":[21.033741,52.168169],"type":"Point"},"properties":{"osm_id":"5638430699","tag":{"amenity":"waste_basket"}},"type":"Feature"},
	{"geometry":{"coordinates":[21.025882,52.172102],"type":"Point"},"properties":{"osm_id":"5638430700","tag":{"amenity":"waste_basket"}},"type":"Feature"},
	{"geometry":{"coordinates":[21.02708,52.168416],"type":"Point"},"properties":{"osm_id":"5638430701","tag":{"amenity":"waste_basket"}},"type":"Feature"},
	{"geometry":{"coordinates":[21.036205,52.169906],"type":"Point"},"properties":{"osm_id":"5638430702","tag":{"amenity":"waste_basket"}},"type":"Feature"},
	{"geometry":{"coordinates":[21.036652,52.170165],"type":"Point"},"properties":{"osm_id":"5638430706","tag":{"amenity":"waste_basket"}},"type":"Feature"},
	{"geometry":{"coordinates":[21.032995,52.16812],"type":"Point"},"properties":{"osm_id":"5638430707","tag":{"amenity":"waste_basket"}},"type":"Feature"},
	{"geometry":{"coordinates":[21.027703,52.16778],"type":"Point"},"properties":{"osm_id":"5638430709","tag":{"amenity":"waste_basket"}},"type":"Feature"},
	{"geometry":{"coordinates":[21.032838,52.168269],"type":"Point"},"properties":{"osm_id":"5638430711","tag":{"amenity":"waste_basket"}},"type":"Feature"},
	{"geometry":{"coordinates":[21.025798,52.173099],"type":"Point"},"properties":{"osm_id":"5638430712","tag":{"amenity":"waste_basket"}},"type":"Feature"},
	{"geometry":{"coordinates":[21.030105,52.168346],"type":"Point"},"properties":{"osm_id":"5638430713","tag":{"amenity":"waste_basket"}},"type":"Feature"},
	{"geometry":{"coordinates":[21.034933,52.168537],"type":"Point"},"properties":{"osm_id":"5638430714","tag":{"amenity":"waste_basket"}},"type":"Feature"},
	{"geometry":{"coordinates":[21.030677,52.167871],"type":"Point"},"properties":{"osm_id":"5638430715","tag":{"amenity":"waste_basket"}},"type":"Feature"},
	{"geometry":{"coordinates":[21.025935,52.173065],"type":"Point"},"properties":{"osm_id":"5638430716","tag":{"amenity":"waste_basket"}},"type":"Feature"},
	{"geometry":{"coordinates":[21.026114,52.169539],"type":"Point"},"properties":{"osm_id":"5638718884","tag":{"amenity":"waste_basket"}},"type":"Feature"},
	{"geometry":{"coordinates":[21.02518,52.17054],"type":"Point"},"properties":{"osm_id":"5640529246","tag":{"amenity":"waste_basket"}},"type":"Feature"},
	{"geometry":{"coordinates":[21.023335,52.173441],"type":"Point"},"properties":{"osm_id":"5640529247","tag":{"amenity":"waste_basket"}},"type":"Feature"},
	{"geometry":{"coordinates":[21.024504,52.16809],"type":"Point"},"properties":{"osm_id":"5640529249","tag":{"amenity":"waste_basket"}},"type":"Feature"},
	{"geometry":{"coordinates":[21.025683,52.173515],"type":"Point"},"properties":{"osm_id":"5640529250","tag":{"amenity":"waste_basket"}},"type":"Feature"},
	{"geometry":{"coordinates":[21.023313,52.173183],"type":"Point"},"properties":{"osm_id":"5640529255","tag":{"amenity":"waste_basket"}},"type":"Feature"},
	{"geometry":{"coordinates":[21.02609,52.172887],"type":"Point"},"properties":{"osm_id":"5640529257","tag":{"amenity":"waste_basket"}},"type":"Feature"},
	{"geometry":{"coordinates":[21.025034,52.17115],"type":"Point"},"properties":{"osm_id":"5640529258","tag":{"amenity":"waste_basket"}},"type":"Feature"},
	{"geometry":{"coordinates":[21.02322,52.173361],"type":"Point"},"properties":{"osm_id":"5640529259","tag":{"amenity":"waste_basket"}},"type":"Feature"},
	{"geometry":{"coordinates":[21.036831,52.169928],"type":"Point"},"properties":{"osm_id":"5646074187","tag":{"amenity":"waste_basket"}},"type":"Feature"},
	{"geometry":{"coordinates":[21.04476,52.174844],"type":"Point"},"properties":{"osm_id":"5646074188","tag":{"amenity":"waste_basket"}},"type":"Feature"},
	{"geometry":{"coordinates":[21.044535,52.174766],"type":"Point"},"properties":{"osm_id":"5646074190","tag":{"amenity":"waste_basket"}},"type":"Feature"},
	{"geometry":{"coordinates":[21.031181,52.173548],"type":"Point"},"properties":{"osm_id":"5646074192","tag":{"amenity":"waste_basket"}},"type":"Feature"},
	{"geometry":{"coordinates":[21.030918,52.173537],"type":"Point"},"properties":{"osm_id":"5646074194","tag":{"amenity":"waste_basket"}},"type":"Feature"},
	{"geometry":{"coordinates":[21.037784,52.170374],"type":"Point"},"properties":{"osm_id":"5646074195","tag":{"amenity":"waste_basket"}},"type":"Feature"},
	{"geometry":{"coordinates":[21.030795,52.173534],"type":"Point"},"properties":{"osm_id":"5646074196","tag":{"amenity":"waste_basket"}},"type":"Feature"},
	{"geometry":{"coordinates":[21.040512,52.171134],"type":"Point"},"properties":{"osm_id":"5646074197","tag":{"amenity":"waste_basket"}},"type":"Feature"},
	{"geometry":{"coordinates":[21.040253,52.170434],"type":"Point"},"properties":{"osm_id":"5646074199","tag":{"amenity":"waste_basket"}},"type":"Feature"},
	{"geometry":{"coordinates":[21.04114,52.170067],"type":"Point"},"properties":{"osm_id":"5646074201","tag":{"amenity":"waste_basket"}},"type":"Feature"},
	{"geometry":{"coordinates":[21.047527,52.168328],"type":"Point"},"properties":{"osm_id":"5646074204","tag":{"amenity":"waste_basket"}},"type":"Feature"},
	{"geometry":{"coordinates":[21.051562,52.16906],"type":"Point"},"properties":{"osm_id":"5646074206","tag":{"amenity":"waste_basket"}},"type":"Feature"},
	{"geometry":{"coordinates":[21.025873,52.171913],"type":"Point"},"properties":{"osm_id":"5646145410","tag":{"amenity":"waste_basket"}},"type":"Feature"},
	{"geometry":{"coordinates":[21.02566,52.172017],"type":"Point"},"properties":{"osm_id":"5646145411","tag":{"amenity":"waste_basket"}},"type":"Feature"},
	{"geometry":{"coordinates":[21.025185,52.171771],"type":"Point"},"properties":{"osm_id":"5646145412","tag":{"amenity":"waste_basket"}},"type":"Feature"},
	{"geometry":{"coordinates":[21.025029,52.17102],"type":"Point"},"properties":{"osm_id":"5646145413","tag":{"amenity":"waste_basket"}},"type":"Feature"},
	{"geometry":{"coordinates":[21.028778,52.167737],"type":"Point"},"properties":{"osm_id":"5646145414","tag":{"amenity":"waste_basket"}},"type":"Feature"},
	{"geometry":{"coordinates":[21.012906,52.175811],"type":"Point"},"properties":{"osm_id":"5673544678","tag":{"amenity":"waste_basket"}},"type":"Feature"},
	{"geometry":{"coordinates":[21.013622,52.178478],"type":"Point"},"properties":{"osm_id":"5673544681","tag":{"amenity":"waste_basket"}},"type":"Feature"},
	{"geometry":{"coordinates":[21.011549,52.174543],"type":"Point"},"properties":{"osm_id":"5673544682","tag":{"amenity":"waste_basket"}},"type":"Feature"},
	{"geometry":{"coordinates":[21.01304,52.175997],"type":"Point"},"properties":{"osm_id":"5673544685","tag":{"amenity":"waste_basket"}},"type":"Feature"},
	{"geometry":{"coordinates":[21.013568,52.17816],"type":"Point"},"properties":{"osm_id":"5673544687","tag":{"amenity":"waste_basket"}},"type":"Feature"},
	{"geometry":{"coordinates":[21.012285,52.174527],"type":"Point"},"properties":{"osm_id":"5673544688","tag":{"amenity":"waste_basket"}},"type":"Feature"},
	{"geometry":{"coordinates":[21.012815,52.175632],"type":"Point"},"properties":{"osm_id":"5673544691","tag":{"amenity":"waste_basket"}},"type":"Feature"},
	{"geometry":{"coordinates":[21.013576,52.177626],"type":"Point"},"properties":{"osm_id":"5673544692","tag":{"amenity":"waste_basket"}},"type":"Feature"},
	{"geometry":{"coordinates":[21.013603,52.178431],"type":"Point"},"properties":{"osm_id":"5673544693","tag":{"amenity":"waste_basket"}},"type":"Feature"},
	{"geometry":{"coordinates":[21.011483,52.174553],"type":"Point"},"properties":{"osm_id":"5673544694","tag":{"amenity":"waste_basket"}},"type":"Feature"},
	{"geometry":{"coordinates":[21.015021,52.179792],"type":"Point"},"properties":{"osm_id":"5673575042","tag":{"amenity":"waste_basket"}},"type":"Feature"},
	{"geometry":{"coordinates":[21.014167,52.179602],"type":"Point"},"properties":{"osm_id":"5673575043","tag":{"amenity":"waste_basket"}},"type":"Feature"},
	{"geometry":{"coordinates":[21.017884,52.17993],"type":"Point"},"properties":{"osm_id":"5673575044","tag":{"amenity":"waste_basket"}},"type":"Feature"},
	{"geometry":{"coordinates":[21.013591,52.179693],"type":"Point"},"properties":{"osm_id":"5673575045","tag":{"amenity":"waste_basket"}},"type":"Feature"},
	{"geometry":{"coordinates":[21.027992,52.178496],"type":"Point"},"properties":{"osm_id":"5675437787","tag":{"amenity":"waste_basket"}},"type":"Feature"},
	{"geometry":{"coordinates":[21.027208,52.177776],"type":"Point"},"properties":{"osm_id":"5675437788","tag":{"amenity":"waste_basket"}},"type":"Feature"},
	{"geometry":{"coordinates":[21.021545,52.176588],"type":"Point"},"properties":{"osm_id":"5675437789","tag":{"amenity":"waste_basket"}},"type":"Feature"},
	{"geometry":{"coordinates":[21.022542,52.172476],"type":"Point"},"properties":{"osm_id":"5677762072","tag":{"amenity":"waste_basket"}},"type":"Feature"},
	{"geometry":{"coordinates":[21.024174,52.171171],"type":"Point"},"properties":{"osm_id":"5677762073","tag":{"amenity":"waste_basket"}},"type":"Feature"},
	{"geometry":{"coordinates":[21.024779,52.170406],"type":"Point"},"properties":{"osm_id":"5677762075","tag":{"amenity":"waste_basket"}},"type":"Feature"},
	{"geometry":{"coordinates":[21.022473,52.172135],"type":"Point"},"properties":{"osm_id":"5677762076","tag":{"amenity":"waste_basket"}},"type":"Feature"},
	{"geometry":{"coordinates":[21.022871,52.171546],"type":"Point"},"properties":{"osm_id":"5677762077","tag":{"amenity":"waste_basket"}},"type":"Feature"},
	{"geometry":{"coordinates":[21.024262,52.165805],"type":"Point"},"properties":{"osm_id":"5677773490","tag":{"amenity":"waste_basket"}},"type":"Feature"},
	{"geometry":{"coordinates":[21.025585,52.167189],"type":"Point"},"properties":{"osm_id":"5677773493","tag":{"amenity":"waste_basket"}},"type":"Feature"},
	{"geometry":{"coordinates":[21.023677,52.212087],"type":"Point"},"properties":{"osm_id":"5827966939","tag":{"amenity":"recycling"}},"type":"Feature"},
	{"geometry":{"coordinates":[21.023488,52.212265],"type":"Point"},"properties":{"osm_id":"5827967406","tag":{"amenity":"waste_disposal"}},"type":"Feature"},
	{"geometry":{"coordinates":[21.005969,52.209463],"type":"Point"},"properties":{"osm_id":"5967593839","tag":{"amenity":"recycling","recycling:clothes":"yes","recycling_type":"container"}},"type":"Feature"},
	{"geometry":{"coordinates":[21.016841,52.188699],"type":"Point"},"properties":{"osm_id":"6037336558","tag":{"amenity":"waste_basket"}},"type":"Feature"},
	{"geometry":{"coordinates":[21.016774,52.188716],"type":"Point"},"properties":{"osm_id":"6037336559","tag":{"amenity":"waste_basket"}},"type":"Feature"},
	{"geometry":{"coordinates":[21.016765,52.188742],"type":"Point"},"properties":{"osm_id":"6037336560","tag":{"amenity":"waste_basket"}},"type":"Feature"},
	{"geometry":{"coordinates":[21.032611,52.161927],"type":"Point"},"properties":{"osm_id":"6284226524","tag":{"amenity":"waste_disposal"}},"type":"Feature"},
	{"geometry":{"coordinates":[21.029818,52.210296],"type":"Point"},"properties":{"osm_id":"6504915973","tag":{"amenity":"waste_basket","waste":"dog_excrement"}},"type":"Feature"},
	{"geometry":{"coordinates":[21.009639,52.201239],"type":"Point"},"properties":{"osm_id":"6617109658","tag":{"amenity":"waste_disposal"}},"type":"Feature"},
	{"geometry":{"coordinates":[21.068962,52.184142],"type":"Point"},"properties":{"osm_id":"6672798501","tag":{"amenity":"waste_basket"}},"type":"Feature"},
	{"geometry":{"coordinates":[21.02193,52.164038],"type":"Point"},"properties":{"osm_id":"6673894507","tag":{"amenity":"waste_basket"}},"type":"Feature"},
	{"geometry":{"coordinates":[21.024652,52.180991],"type":"Point"},"properties":{"osm_id":"6783130416","tag":{"amenity":"waste_basket"}},"type":"Feature"},
	{"geometry":{"coordinates":[21.024741,52.181028],"type":"Point"},"properties":{"osm_id":"6783130417","tag":{"amenity":"waste_basket"}},"type":"Feature"},
	{"geometry":{"coordinates":[21.014366,52.210283],"type":"Point"},"properties":{"osm_id":"6919106219","tag":{"amenity":"waste_basket"}},"type":"Feature"},
	{"geometry":{"coordinates":[21.014361,52.210793],"type":"Point"},"properties":{"osm_id":"6919106220","tag":{"amenity":"waste_basket"}},"type":"Feature"},
	{"geometry":{"coordinates":[21.052646,52.17453],"type":"Point"},"properties":{"osm_id":"6964108214","tag":{"amenity":"waste_basket","waste":"trash"}},"type":"Feature"},
	{"geometry":{"coordinates":[21.052646,52.17483],"type":"Point"},"properties":{"osm_id":"6964108218","tag":{"amenity":"waste_basket","waste":"trash"}},"type":"Feature"},
	{"geometry":{"coordinates":[21.068411,52.177909],"type":"Point"},"properties":{"osm_id":"6964108257","tag":{"amenity":"waste_basket","waste":"trash"}},"type":"Feature"},
	{"geometry":{"coordinates":[21.055567,52.172185],"type":"Point"},"properties":{"osm_id":"6984919536","tag":{"amenity":"recycling","recycling:clothes":"yes","recycling_type":"container"}},"type":"Feature"},
	{"geometry":{"coordinates":[21.030068,52.173603],"type":"Point"},"properties":{"osm_id":"7003407360","tag":{"amenity":"recycling","recycling:clothes":"yes","recycling_type":"container"}},"type":"Feature"},
	{"geometry":{"coordinates":[21.088531,52.181558],"type":"Point"},"properties":{"barrier":"gate","osm_id":"7929447556","tag":{"access":"customers"}},"type":"Feature"}
]
}
