{
"type": "FeatureCollection",
"lastupdate": "2020-08-01T00:00:00Z",
"features": [
	{"geometry":{"coordinates":[21.047702,52.138191],"type":"Point"},"properties":{"osm_id":"764747426","tag":{"amenity":"recycling"}},"type":"Feature"},
	{"geometry":{"coordinates":[21.0444,52.137978],"type":"Point"},"properties":{"osm_id":"764747479","tag":{"amenity":"recycling"}},"type":"Feature"},
	{"geometry":{"coordinates":[21.046396,52.141363],"type":"Point"},"properties":{"osm_id":"764747545","tag":{"amenity":"recycling","recycling_type":"container"}},"type":"Feature"},
	{"geometry":{"coordinates":[21.059095,52.141363],"type":"Point"},"properties":{"osm_id":"765065674","tag":{"amenity":"recycling","recycling:glass":"yes","recycling_type":"container"}},"type":"Feature"},
	{"geometry":{"coordinates":[21.039154,52.159242],"type":"Point"},"properties":{"osm_id":"1110345177","tag":{"amenity":"recycling"}},"type":"Feature"},
	{"geometry":{"coordinates":[21.063382,52.144598],"type":"Point"},"properties":{"osm_id":"1493460062","tag":{"amenity":"recycling"}},"type":"Feature"},
	{"geometry":{"coordinates":[21.051493,52.155889],"type":"Point"},"properties":{"osm_id":"1710312236","tag":{"amenity":"recycling"}},"type":"Feature"},
	{"geometry":{"coordinates":[21.064417,52.114542],"type":"Point"},"properties":{"osm_id":"1940731644","tag":{"amenity":"waste_basket"}},"type":"Feature"},
	{"geometry":{"coordinates":[21.06721,52.11466],"type":"Point"},"properties":{"osm_id":"1940731646","tag":{"amenity":"waste_basket"}},"type":"Feature"},
	{"geometry":{"coordinates":[21.067194,52.1147],"type":"Point"},"properties":{"osm_id":"1940731657","tag":{"amenity":"waste_basket"}},"type":"Feature"},
	{"geometry":{"coordinates":[21.072139,52.115398],"type":"Point"},"properties":{"osm_id":"1940731677","tag":{"amenity":"waste_basket"}},"type":"Feature"},
	{"geometry":{"coordinates":[21.075254,52.115791],"type":"Point"},"properties":{"osm_id":"1940731680","tag":{"amenity":"waste_basket"}},"type":"Feature"},
	{"geometry":{"coordinates":[21.083872,52.118008],"type":"Point"},"properties":{"osm_id":"1940731727","tag":{"amenity":"waste_basket"}},"type":"Feature"},
	{"geometry":{"coordinates":[21.063814,52.119728],"type":"Point"},"properties":{"osm_id":"1940731763","tag":{"amenity":"waste_basket"}},"type":"Feature"},
	{"geometry":{"coordinates":[21.079572,52.120293],"type":"Point"},"properties":{"osm_id":"1940731788","tag":{"amenity":"waste_basket"}},"type":"Feature"},
	{"geometry":{"coordinates":[21.079684,52.12037],"type":"Point"},"properties":{"osm_id":"1940731794","tag":{"amenity":"waste_basket"}},"type":"Feature"},
	{"geometry":{"coordinates":[21.047049,52.120458],"type":"Point"},"properties":{"osm_id":"1940731800","tag":{"amenity":"waste_basket"}},"type":"Feature"},
	{"geometry":{"coordinates":[21.077458,52.123741],"type":"Point"},"properties":{"osm_id":"1940731807","tag":{"amenity":"waste_basket"}},"type":"Feature"},
	{"geometry":{"coordinates":[21.048606,52.123738],"type":"Point"},"properties":{"osm_id":"1940731811","tag":{"amenity":"waste_basket"}},"type":"Feature"},
	{"geometry":{"coordinates":[21.077908,52.124095],"type":"Point"},"properties":{"osm_id":"1940731815","tag":{"amenity":"waste_basket"}},"type":"Feature"},
	{"geometry":{"coordinates":[21.043968,52.114176],"type":"Point"},"properties":{"osm_id":"1994577646","tag":{"amenity":"waste_basket"}},"type":"Feature"},
	{"geometry":{"coordinates":[21.055478,52.114232],"type":"Point"},"properties":{"osm_id":"1994577648","tag":{"amenity":"waste_basket"}},"type":"Feature"},
	{"geometry":{"coordinates":[21.055506,52.114269],"type":"Point"},"properties":{"osm_id":"1994577650","tag":{"amenity":"waste_basket"}},"type":"Feature"},
	{"geometry":{"coordinates":[21.055633,52.114269],"type":"Point"},"properties":{"osm_id":"1994577651","tag":{"amenity":"waste_basket"}},"type":"Feature"},
	{"geometry":{"coordinates":[21.056243,52.114279],"type":"Point"},"properties":{"osm_id":"1994577654","tag":{"amenity":"waste_basket"}},"type":"Feature"},
	{"geometry":{"coordinates":[21.058585,52.114322],"type":"Point"},"properties":{"osm_id":"1994577655","tag":{"amenity":"waste_basket"}},"type":"Feature"},
	{"geometry":{"coordinates":[21.052684,52.114408],"type":"Point"},"properties":{"osm_id":"1994577658","tag":{"amenity":"waste_basket"}},"type":"Feature"},
	{"geometry":{"coordinates":[21.062063,52.114429],"type":"Point"},"properties":{"osm_id":"1994577660","tag":{"amenity":"waste_basket"}},"type":"Feature"},
	{"geometry":{"coordinates":[21.044016,52.11472],"type":"Point"},"properties":{"osm_id":"1994577661","tag":{"amenity":"waste_basket"}},"type":"Feature"},
	{"geometry":{"coordinates":[21.048162,52.114765],"type":"Point"},"properties":{"osm_id":"1994577663","tag":{"amenity":"waste_basket"}},"type":"Feature"},
	{"geometry":{"coordinates":[21.045805,52.115017],"type":"Point"},"properties":{"osm_id":"1994577665","tag":{"amenity":"waste_basket"}},"type":"Feature"},
	{"geometry":{"coordinates":[21.044344,52.115141],"type":"Point"},"properties":{"osm_id":"1994577667","tag":{"amenity":"waste_basket"}},"type":"Feature"},
	{"geometry":{"coordinates":[21.069746,52.116072],"type":"Point"},"properties":{"osm_id":"1994577672","tag":{"amenity":"waste_basket"}},"type":"Feature"},
	{"geometry":{"coordinates":[21.041698,52.116181],"type":"Point"},"properties":{"osm_id":"1994577676","tag":{"amenity":"waste_basket"}},"type":"Feature"},
	{"geometry":{"coordinates":[21.080349,52.116651],"type":"Point"},"properties":{"osm_id":"1994577679","tag":{"amenity":"waste_basket"}},"type":"Feature"},
	{"geometry":{"coordinates":[21.03976,52.117034],"type":"Point"},"properties":{"osm_id":"1994577680","tag":{"amenity":"waste_basket"}},"type":"Feature"},
	{"geometry":{"coordinates":[21.038293,52.117665],"type":"Point"},"properties":{"osm_id":"1994577682","tag":{"amenity":"waste_basket"}},"type":"Feature"},
	{"geometry":{"coordinates":[21.072256,52.118534],"type":"Point"},"properties":{"osm_id":"1994577685","tag":{"amenity":"waste_basket"}},"type":"Feature"},
	{"geometry":{"coordinates":[21.035825,52.118763],"type":"Point"},"properties":{"osm_id":"1994577686","tag":{"amenity":"waste_basket"}},"type":"Feature"},
	{"geometry":{"coordinates":[21.034536,52.119364],"type":"Point"},"properties":{"osm_id":"1994577689","tag":{"amenity":"waste_basket"}},"type":"Feature"},
	{"geometry":{"coordinates":[21.034486,52.119412],"type":"Point"},"properties":{"osm_id":"1994577692","tag":{"amenity":"waste_basket"}},"type":"Feature"},
	{"geometry":{"coordinates":[21.033946,52.119422],"type":"Point"},"properties":{"osm_id":"1994577694","tag":{"amenity":"waste_basket"}},"type":"Feature"},
	{"geometry":{"coordinates":[21.058433,52.119656],"type":"Point"},"properties":{"osm_id":"1994577696","tag":{"amenity":"waste_basket"}},"type":"Feature"},
	{"geometry":{"coordinates":[21.060478,52.119667],"type":"Point"},"properties":{"osm_id":"1994577698","tag":{"amenity":"waste_basket"}},"type":"Feature"},
	{"geometry":{"coordinates":[21.053222,52.119822],"type":"Point"},"properties":{"osm_id":"1994577701","tag":{"amenity":"waste_basket"}},"type":"Feature"},
	{"geometry":{"coordinates":[21.055336,52.120043],"type":"Point"},"properties":{"osm_id":"1994577704","tag":{"amenity":"waste_basket"}},"type":"Feature"},
	{"geometry":{"coordinates":[21.074774,52.120194],"type":"Point"},"properties":{"osm_id":"1994577705","tag":{"amenity":"waste_basket"}},"type":"Feature"},
	{"geometry":{"coordinates":[21.035847,52.121211],"type":"Point"},"properties":{"osm_id":"1994577707","tag":{"amenity":"waste_basket"}},"type":"Feature"},
	{"geometry":{"coordinates":[21.055381,52.121558],"type":"Point"},"properties":{"osm_id":"1994577710","tag":{"amenity":"waste_basket"}},"type":"Feature"},
	{"geometry":{"coordinates":[21.037227,52.122763],"type":"Point"},"properties":{"osm_id":"1994577711","tag":{"amenity":"waste_basket"}},"type":"Feature"},
	{"geometry":{"coordinates":[21.037972,52.12337],"type":"Point"},"properties":{"osm_id":"1994577713","tag":{"amenity":"waste_basket"}},"type":"Feature"},
	{"geometry":{"coordinates":[21.038556,52.124117],"type":"Point"},"properties":{"osm_id":"1994577715","tag":{"amenity":"waste_basket"}},"type":"Feature"},
	{"geometry":{"coordinates":[21.038871,52.124295],"type":"Point"},"properties":{"osm_id":"1994577717","tag":{"amenity":"waste_basket"}},"type":"Feature"},
	{"geometry":{"coordinates":[21.055712,52.124455],"type":"Point"},"properties":{"osm_id":"1994577719","tag":{"amenity":"waste_basket"}},"type":"Feature"},
	{"geometry":{"coordinates":[21.052545,52.125294],"type":"Point"},"properties":{"osm_id":"1994577720","tag":{"amenity":"waste_basket"}},"type":"Feature"},
	{"geometry":{"coordinates":[21.049551,52.125507],"type":"Point"},"properties":{"osm_id":"1994577721","tag":{"amenity":"waste_basket"}},"type":"Feature"},
	{"geometry":{"coordinates":[21.040072,52.125552],"type":"Point"},"properties":{"osm_id":"1994577723","tag":{"amenity":"waste_basket"}},"type":"Feature"},
	{"geometry":{"coordinates":[21.041114,52.126603],"type":"Point"},"properties":{"osm_id":"1994577724","tag":{"amenity":"waste_basket"}},"type":"Feature"},
	{"geometry":{"coordinates":[21.042247,52.127772],"type":"Point"},"properties":{"osm_id":"1994577725","tag":{"amenity":"waste_basket"}},"type":"Feature"},
	{"geometry":{"coordinates":[21.04369,52.128847],"type":"Point"},"properties":{"osm_id":"1994577727","tag":{"amenity":"waste_basket"}},"type":"Feature"},
	{"geometry":{"coordinates":[21.043249,52.128901],"type":"Point"},"properties":{"osm_id":"1994577729","tag":{"amenity":"waste_basket"}},"type":"Feature"},
	{"geometry":{"coordinates":[21.056015,52.143881],"type":"Point"},"properties":{"osm_id":"2640247866","tag":{"amenity":"recycling","recycling:glass":"yes","recycling:paper":"yes"}},"type":"Feature"},
	{"geometry":{"coordinates":[21.062698,52.14321],"type":"Point"},"properties":{"osm_id":"2646392087","tag":{"amenity":"recycling"}},"type":"Feature"},
	{"geometry":{"coordinates":[21.057673,52.131133],"type":"Point"},"properties":{"osm_id":"3262429650","tag":{"amenity":"waste_basket"}},"type":"Feature"},
	{"geometry":{"coordinates":[21.058404,52.140812],"type":"Point"},"properties":{"osm_id":"3515846915","tag":{"amenity":"recycling","recycling_type":"container"}},"type":"Feature"},
	{"geometry":{"coordinates":[21.068452,52.128922],"type":"Point"},"properties":{"osm_id":"3686767286","tag":{"amenity":"waste_basket"}},"type":"Feature"},
	{"geometry":{"coordinates":[21.068608,52.128985],"type":"Point"},"properties":{"osm_id":"3686767289","tag":{"amenity":"waste_basket"}},"type":"Feature"},
	{"geometry":{"coordinates":[21.068383,52.128985],"type":"Point"},"properties":{"osm_id":"3686767290","tag":{"amenity":"waste_basket"}},"type":"Feature"},
	{"geometry":{"coordinates":[21.068145,52.129241],"type":"Point"},"properties":{"osm_id":"3686767296","tag":{"amenity":"waste_basket"}},"type":"Feature"},
	{"geometry":{"coordinates":[21.068295,52.129319],"type":"Point"},"properties":{"osm_id":"3686767300","tag":{"amenity":"waste_basket"}},"type":"Feature"},
	{"geometry":{"coordinates":[21.068077,52.129322],"type":"Point"},"properties":{"osm_id":"3686767301","tag":{"amenity":"waste_basket"}},"type":"Feature"},
	{"geometry":{"coordinates":[21.068242,52.129379],"type":"Point"},"properties":{"osm_id":"3686767303","tag":{"amenity":"waste_basket"}},"type":"Feature"},
	{"geometry":{"coordinates":[21.068047,52.129781],"type":"Point"},"properties":{"osm_id":"3686767315","tag":{"amenity":"waste_basket"}},"type":"Feature"},
	{"geometry":{"coordinates":[21.067344,52.129508],"type":"Point"},"properties":{"osm_id":"3686980888","tag":{"amenity":"waste_basket"}},"type":"Feature"},
	{"geometry":{"coordinates":[21.067256,52.129624],"type":"Point"},"properties":{"osm_id":"3686980895","tag":{"amenity":"waste_basket"}},"type":"Feature"},
	{"geometry":{"coordinates":[21.064166,52.143733],"type":"Point"},"properties":{"osm_id":"4244332703","tag":{"amenity":"recycling"}},"type":"Feature"},
	{"geometry":{"coordinates":[21.053476,52.138909],"type":"Point"},"properties":{"osm_id":"4485306597","tag":{"amenity":"recycling"}},"type":"Feature"},
	{"geometry":{"coordinates":[21.070931,52.132927],"type":"Point"},"properties":{"name":"Pojemnik na odzie\u00c5\u00bc u\u00c5\u00bcywan\u00c4\u0085 PCK","osm_id":"5048099459","tag":{"amenity":"recycling","recycling:clothes":"yes","recycling_type":"container"}},"type":"Feature"},
	{"geometry":{"coordinates":[21.063308,52.141681],"type":"Point"},"properties":{"osm_id":"5102775607","tag":{"amenity":"recycling","recycling_type":"container"}},"type":"Feature"},
	{"geometry":{"coordinates":[21.061556,52.141806],"type":"Point"},"properties":{"osm_id":"5102890580","tag":{"amenity":"recycling","recycling_type":"container"}},"type":"Feature"},
	{"geometry":{"coordinates":[21.059612,52.142735],"type":"Point"},"properties":{"osm_id":"5103341428","tag":{"amenity":"recycling","recycling_type":"container"}},"type":"Feature"},
	{"geometry":{"coordinates":[21.029872,52.155765],"type":"Point"},"properties":{"osm_id":"5679417369","tag":{"amenity":"waste_basket","waste":"trash"}},"type":"Feature"},
	{"geometry":{"coordinates":[21.033515,52.151616],"type":"Point"},"properties":{"osm_id":"6471091612","tag":{"amenity":"waste_basket","waste":"trash"}},"type":"Feature"},
	{"geometry":{"coordinates":[21.033303,52.15157],"type":"Point"},"properties":{"osm_id":"6471091614","tag":{"amenity":"waste_basket","waste":"trash"}},"type":"Feature"},
	{"geometry":{"coordinates":[21.033481,52.151552],"type":"Point"},"properties":{"osm_id":"6471091615","tag":{"amenity":"waste_basket","waste":"trash"}},"type":"Feature"},
	{"geometry":{"coordinates":[21.033162,52.151396],"type":"Point"},"properties":{"osm_id":"6471091618","tag":{"amenity":"waste_basket","waste":"trash"}},"type":"Feature"},
	{"geometry":{"coordinates":[21.041896,52.137654],"type":"Point"},"properties":{"osm_id":"6474011582","tag":{"amenity":"waste_basket","waste":"trash"}},"type":"Feature"},
	{"geometry":{"coordinates":[21.041887,52.137597],"type":"Point"},"properties":{"osm_id":"6474011583","tag":{"amenity":"waste_basket","waste":"trash"}},"type":"Feature"},
	{"geometry":{"coordinates":[21.041674,52.137658],"type":"Point"},"properties":{"osm_id":"6474011686","tag":{"amenity":"waste_basket","waste":"trash"}},"type":"Feature"},
	{"geometry":{"coordinates":[21.041632,52.137578],"type":"Point"},"properties":{"osm_id":"6474011687","tag":{"amenity":"waste_basket","waste":"trash"}},"type":"Feature"},
	{"geometry":{"coordinates":[21.007439,52.154968],"type":"Point"},"properties":{"osm_id":"6727719406","tag":{"amenity":"waste_basket"}},"type":"Feature"}
]
}
