{
"type": "FeatureCollection",
"features": [
	{"geometry":{"coordinates":[21.0263,49.135941],"type":"Point"},"properties":{"osm_id":"2314808698","tag":{"amenity":"recycling","recycling:clothes":"yes","recycling_type":"container"}},"type":"Feature"},
	{"geometry":{"coordinates":[21.088866,49.145948],"type":"Point"},"properties":{"osm_id":"2314808725","tag":{"amenity":"recycling","recycling_type":"container"}},"type":"Feature"},
	{"geometry":{"coordinates":[21.067642,49.151698],"type":"Point"},"properties":{"osm_id":"2314808753","tag":{"amenity":"waste_disposal"}},"type":"Feature"},
	{"geometry":{"coordinates":[21.013711,49.103265],"type":"Point"},"properties":{"osm_id":"2702233677","tag":{"amenity":"waste_basket"}},"type":"Feature"},
	{"geometry":{"coordinates":[21.04615,49.123939],"type":"Point"},"properties":{"osm_id":"2891381767","tag":{"amenity":"waste_basket","check_date":"2021-08-07"}},"type":"Feature"},
	{"geometry":{"coordinates":[21.085177,49.104909],"type":"Point"},"properties":{"barrier":"gate","osm_id":"9024861213","tag":{"access":"private"}},"type":"Feature"},
	{"geometry":{"coordinates":[21.081005,49.112477],"type":"Point"},"properties":{"name":"Zbern\u00c3\u00bd dvor","osm_id":"9032231477","tag":{"addr:city":"Sabinov","addr:housenumber":"388/35","addr:postcode":"08301","addr:street":"Holl\u00c3\u00a9ho","amenity":"recycling","recycling_type":"centre","website":"https://www.sabinov.sk/odpadove-hospodarstvo-kat"}},"type":"Feature"}
]
}
