{
"type": "FeatureCollection",
"features": [
	{"geometry":{"coordinates":[-83.640354,41.377506],"type":"Point"},"properties":{"osm_id":"3280940374","tag":{"amenity":"waste_basket"}},"type":"Feature"},
	{"geometry":{"coordinates":[-83.640406,41.377567],"type":"Point"},"properties":{"osm_id":"3280940375","tag":{"amenity":"recycling","location":"overground","recycling_type":"container"}},"type":"Feature"},
	{"geometry":{"coordinates":[-83.638248,41.376916],"type":"Point"},"properties":{"osm_id":"3428713535","tag":{"amenity":"waste_basket"}},"type":"Feature"},
	{"geometry":{"coordinates":[-83.627013,41.380293],"type":"Point"},"properties":{"osm_id":"3503132152","tag":{"amenity":"waste_basket"}},"type":"Feature"},
	{"geometry":{"coordinates":[-83.623412,41.378657],"type":"Point"},"properties":{"osm_id":"3533909136","tag":{"amenity":"waste_basket"}},"type":"Feature"},
	{"geometry":{"coordinates":[-83.639715,41.377618],"type":"Point"},"properties":{"osm_id":"3705693170","tag":{"amenity":"waste_basket"}},"type":"Feature"},
	{"geometry":{"coordinates":[-83.640561,41.377215],"type":"Point"},"properties":{"osm_id":"3705793227","tag":{"amenity":"recycling","level":"3","location":"overground","recycling:clothes":"no","recycling_type":"container"}},"type":"Feature"},
	{"geometry":{"coordinates":[-83.63944,41.381973],"type":"Point"},"properties":{"osm_id":"3708765663","tag":{"amenity":"recycling","operator":"Bowling Green State University","recycling_type":"container"}},"type":"Feature"},
	{"geometry":{"coordinates":[-83.640631,41.383175],"type":"Point"},"properties":{"osm_id":"3708768763","tag":{"amenity":"waste_basket"}},"type":"Feature"},
	{"geometry":{"coordinates":[-83.631236,41.381668],"type":"Point"},"properties":{"osm_id":"3708784309","tag":{"amenity":"recycling","location":"overground","operator":"Bowling Green State University","recycling:cans":"yes","recycling_type":"container"}},"type":"Feature"},
	{"geometry":{"coordinates":[-83.631282,41.381623],"type":"Point"},"properties":{"osm_id":"3708784311","tag":{"amenity":"recycling","location":"overground","operator":"Bowling Green State University","recycling:cans":"yes","recycling_type":"container"}},"type":"Feature"},
	{"geometry":{"coordinates":[-83.635613,41.378737],"type":"Point"},"properties":{"osm_id":"3717485051","tag":{"amenity":"waste_basket"}},"type":"Feature"},
	{"geometry":{"coordinates":[-83.631996,41.378992],"type":"Point"},"properties":{"osm_id":"3744891028","tag":{"amenity":"waste_basket"}},"type":"Feature"},
	{"geometry":{"coordinates":[-83.639819,41.379528],"type":"Point"},"properties":{"osm_id":"3744899377","tag":{"amenity":"recycling","location":"overground","operator":"Bowling Green State University","recycling_type":"container"}},"type":"Feature"},
	{"geometry":{"coordinates":[-83.657118,41.379494],"type":"Point"},"properties":{"osm_id":"3751929754","tag":{"amenity":"waste_basket"}},"type":"Feature"},
	{"geometry":{"coordinates":[-83.63811,41.378635],"type":"Point"},"properties":{"osm_id":"3759632435","tag":{"amenity":"waste_basket"}},"type":"Feature"},
	{"geometry":{"coordinates":[-83.634332,41.377844],"type":"Point"},"properties":{"osm_id":"3759641151","tag":{"amenity":"recycling","operator":"Bowling Green State University","recycling_type":"container"}},"type":"Feature"},
	{"geometry":{"coordinates":[-83.634411,41.377449],"type":"Point"},"properties":{"osm_id":"3759647863","tag":{"amenity":"recycling","operator":"Bowling Green State University","recycling_type":"container"}},"type":"Feature"},
	{"geometry":{"coordinates":[-83.637714,41.38064],"type":"Point"},"properties":{"osm_id":"3767484192","tag":{"amenity":"waste_basket"}},"type":"Feature"},
	{"geometry":{"coordinates":[-83.633248,41.379687],"type":"Point"},"properties":{"osm_id":"3767484674","tag":{"amenity":"waste_basket"}},"type":"Feature"},
	{"geometry":{"coordinates":[-83.635778,41.377068],"type":"Point"},"properties":{"osm_id":"3857917502","tag":{"amenity":"recycling","recycling:clothes":"no","recycling_type":"container"}},"type":"Feature"},
	{"geometry":{"coordinates":[-83.64439,41.382572],"type":"Point"},"properties":{"osm_id":"3857945315","ref":"5","tag":{"access":"private","amenity":"waste_disposal","operator":"Bowling Green State University","start_date":"1983"}},"type":"Feature"},
	{"geometry":{"coordinates":[-83.639732,41.380508],"type":"Point"},"properties":{"name":"Psychology Recycling Room","osm_id":"4002036326","ref":"216","tag":{"addr:city":"Bowling Green","addr:postcode":"43403","addr:state":"OH","amenity":"recycling","indoor":"room","level":"1","operator":"Bowling Green State University","recycling:cans":"yes","recycling:clothes":"no","recycling:glass":"no","recycling:glass_bottles":"no","recycling:paper":"yes","recycling:plastic":"yes","recycling_type":"centre","room":"recycling"}},"type":"Feature"},
	{"geometry":{"coordinates":[-83.632807,41.378817],"type":"Point"},"properties":{"osm_id":"4072658520","tag":{"amenity":"waste_basket"}},"type":"Feature"},
	{"geometry":{"coordinates":[-83.637804,41.384397],"type":"Point"},"properties":{"osm_id":"4074515740","tag":{"amenity":"waste_basket"}},"type":"Feature"},
	{"geometry":{"coordinates":[-83.637789,41.377759],"type":"Point"},"properties":{"osm_id":"4119475932","tag":{"amenity":"recycling","indoor":"yes","level":"0","operator":"Bowling Green State University","recycling:cans":"yes","recycling:clothes":"no","recycling:paper":"yes","recycling:plastic":"yes","recycling_type":"centre"}},"type":"Feature"},
	{"geometry":{"coordinates":[-83.671169,41.37684],"type":"Point"},"properties":{"osm_id":"4192706813","tag":{"amenity":"waste_basket"}},"type":"Feature"},
	{"geometry":{"coordinates":[-83.657556,41.3873],"type":"Point"},"properties":{"osm_id":"4236751765","tag":{"amenity":"waste_basket"}},"type":"Feature"},
	{"geometry":{"coordinates":[-83.641232,41.377505],"type":"Point"},"properties":{"osm_id":"4366329479","tag":{"amenity":"recycling","operator":"Bowling Green State University","recycling:cans":"yes","recycling:glass":"yes","recycling:glass_bottles":"yes","recycling:paper":"yes","recycling:plastic":"yes","recycling_type":"container"}},"type":"Feature"},
	{"geometry":{"coordinates":[-83.641164,41.377681],"type":"Point"},"properties":{"osm_id":"4366346572","tag":{"amenity":"recycling","operator":"Bowling Green State University","recycling:glass":"yes","recycling:paper":"yes","recycling:plastic":"yes","recycling_type":"container"}},"type":"Feature"},
	{"geometry":{"coordinates":[-83.641032,41.378193],"type":"Point"},"properties":{"osm_id":"4366350800","tag":{"amenity":"recycling","operator":"Bowling Green State University","recycling_type":"container"}},"type":"Feature"},
	{"geometry":{"coordinates":[-83.640242,41.377401],"type":"Point"},"properties":{"osm_id":"4383884288","tag":{"amenity":"waste_basket"}},"type":"Feature"},
	{"geometry":{"coordinates":[-83.64568,41.385066],"type":"Point"},"properties":{"osm_id":"4584225322","tag":{"amenity":"waste_basket"}},"type":"Feature"},
	{"geometry":{"coordinates":[-83.645834,41.385146],"type":"Point"},"properties":{"osm_id":"4584225323","tag":{"amenity":"recycling","indoor":"yes","level":"0","recycling_type":"container"}},"type":"Feature"},
	{"geometry":{"coordinates":[-83.651098,41.386825],"type":"Point"},"properties":{"osm_id":"5728828524","tag":{"amenity":"waste_basket"}},"type":"Feature"},
	{"geometry":{"coordinates":[-83.650973,41.386914],"type":"Point"},"properties":{"osm_id":"5728828525","tag":{"amenity":"waste_basket"}},"type":"Feature"},
	{"geometry":{"coordinates":[-83.650558,41.378059],"type":"Point"},"properties":{"osm_id":"5731392424","tag":{"amenity":"waste_basket"}},"type":"Feature"},
	{"geometry":{"coordinates":[-83.630118,41.379146],"type":"Point"},"properties":{"osm_id":"5747845165","tag":{"access":"private","amenity":"waste_disposal","operator":"Bowling Green State University"}},"type":"Feature"},
	{"geometry":{"coordinates":[-83.630163,41.37915],"type":"Point"},"properties":{"osm_id":"5747845166","tag":{"access":"private","amenity":"waste_disposal","operator":"Bowling Green State University"}},"type":"Feature"},
	{"geometry":{"coordinates":[-83.638092,41.377373],"type":"Point"},"properties":{"osm_id":"5792488890","tag":{"amenity":"waste_basket"}},"type":"Feature"},
	{"geometry":{"coordinates":[-83.634236,41.382995],"type":"Point"},"properties":{"osm_id":"5794928710","tag":{"amenity":"waste_basket"}},"type":"Feature"},
	{"geometry":{"coordinates":[-83.639773,41.377029],"type":"Point"},"properties":{"osm_id":"5804471720","tag":{"amenity":"waste_basket"}},"type":"Feature"},
	{"geometry":{"coordinates":[-83.638448,41.377496],"type":"Point"},"properties":{"osm_id":"5808113439","tag":{"amenity":"waste_basket"}},"type":"Feature"},
	{"geometry":{"coordinates":[-83.641425,41.376988],"type":"Point"},"properties":{"osm_id":"5808343373","tag":{"amenity":"recycling","recycling:cans":"yes","recycling:glass_bottles":"yes","recycling:paper":"yes","recycling:plastic_bottles":"yes","recycling_type":"container"}},"type":"Feature"},
	{"geometry":{"coordinates":[-83.64142,41.376985],"type":"Point"},"properties":{"osm_id":"5808343374","tag":{"amenity":"waste_basket"}},"type":"Feature"},
	{"geometry":{"coordinates":[-83.640719,41.383273],"type":"Point"},"properties":{"osm_id":"5828844091","tag":{"amenity":"recycling","recycling_type":"container"}},"type":"Feature"},
	{"geometry":{"coordinates":[-83.643154,41.378168],"type":"Point"},"properties":{"osm_id":"5830296713","tag":{"amenity":"recycling","recycling_type":"container"}},"type":"Feature"},
	{"geometry":{"coordinates":[-83.643141,41.378169],"type":"Point"},"properties":{"osm_id":"5830296714","tag":{"amenity":"waste_basket"}},"type":"Feature"},
	{"geometry":{"coordinates":[-83.642615,41.37841],"type":"Point"},"properties":{"osm_id":"5830298584","tag":{"amenity":"recycling","recycling_type":"container"}},"type":"Feature"},
	{"geometry":{"coordinates":[-83.642615,41.378408],"type":"Point"},"properties":{"osm_id":"5830298685","tag":{"amenity":"waste_basket"}},"type":"Feature"},
	{"geometry":{"coordinates":[-83.642397,41.378663],"type":"Point"},"properties":{"osm_id":"5830304689","ref":"90845","tag":{"access":"private","amenity":"waste_disposal"}},"type":"Feature"},
	{"geometry":{"coordinates":[-83.64217,41.381371],"type":"Point"},"properties":{"osm_id":"5830323538","tag":{"amenity":"waste_basket"}},"type":"Feature"},
	{"geometry":{"coordinates":[-83.641379,41.380797],"type":"Point"},"properties":{"osm_id":"5830328302","tag":{"amenity":"recycling","recycling_type":"container"}},"type":"Feature"},
	{"geometry":{"coordinates":[-83.641368,41.380797],"type":"Point"},"properties":{"osm_id":"5830328303","tag":{"amenity":"waste_basket"}},"type":"Feature"},
	{"geometry":{"coordinates":[-83.640719,41.383277],"type":"Point"},"properties":{"osm_id":"5830350433","tag":{"amenity":"waste_basket"}},"type":"Feature"},
	{"geometry":{"coordinates":[-83.631631,41.379046],"type":"Point"},"properties":{"osm_id":"5850129151","tag":{"amenity":"waste_basket"}},"type":"Feature"},
	{"geometry":{"coordinates":[-83.631623,41.37904],"type":"Point"},"properties":{"osm_id":"5850129152","tag":{"amenity":"recycling","recycling_type":"container"}},"type":"Feature"},
	{"geometry":{"coordinates":[-83.664726,41.378718],"type":"Point"},"properties":{"osm_id":"6410454050","tag":{"amenity":"waste_basket"}},"type":"Feature"},
	{"geometry":{"coordinates":[-83.652729,41.39],"type":"Point"},"properties":{"osm_id":"7070990058","tag":{"amenity":"waste_disposal"}},"type":"Feature"},
	{"geometry":{"coordinates":[-83.6476,41.378808],"type":"Point"},"properties":{"osm_id":"7140298706","tag":{"amenity":"waste_basket"}},"type":"Feature"},
	{"geometry":{"coordinates":[-83.650224,41.399898],"type":"Point"},"properties":{"osm_id":"7470385194","tag":{"amenity":"waste_basket","colour":"beige","material":"concrete","operator":"Burger King","waste":"trash"}},"type":"Feature"},
	{"geometry":{"coordinates":[-83.65079,41.386189],"type":"Point"},"properties":{"osm_id":"7650424955","tag":{"amenity":"waste_basket","colour":"black","material":"plastic"}},"type":"Feature"},
	{"geometry":{"coordinates":[-83.641866,41.388072],"type":"Point"},"properties":{"osm_id":"7735103070","tag":{"entrance":"main","level":"0"}},"type":"Feature"}
]
}
