{
"type": "FeatureCollection",
"features": [
	{"geometry":{"coordinates":[-73.034488,-36.866027],"type":"Point"},"properties":{"osm_id":"4611195513","tag":{"addr:street":"Abraham Romero","amenity":"recycling","recycling:glass":"yes","recycling_type":"container"}},"type":"Feature"},
	{"geometry":{"coordinates":[-72.993799,-36.827518],"type":"Point"},"properties":{"osm_id":"4612341786","tag":{"addr:street":"Nongu\u00e9n","amenity":"recycling","recycling:cans":"yes","recycling:plastic":"yes","recycling_type":"container"}},"type":"Feature"},
	{"geometry":{"coordinates":[-72.993427,-36.824354],"type":"Point"},"properties":{"osm_id":"4664629199","tag":{"amenity":"recycling","recycling_type":"container"}},"type":"Feature"},
	{"geometry":{"coordinates":[-73.006201,-36.829649],"type":"Point"},"properties":{"osm_id":"4672176894","tag":{"amenity":"recycling","recycling:glass":"yes","recycling_type":"container"}},"type":"Feature"},
	{"geometry":{"coordinates":[-73.000771,-36.836077],"type":"Point"},"properties":{"osm_id":"4672945788","tag":{"amenity":"recycling","recycling:glass":"yes","recycling_type":"container"}},"type":"Feature"},
	{"geometry":{"coordinates":[-73.022441,-36.82039],"type":"Point"},"properties":{"osm_id":"6247298464","tag":{"amenity":"recycling","recycling:glass":"yes","recycling:glass_bottles":"yes","recycling_type":"container"}},"type":"Feature"}
]
}
