{
"type": "FeatureCollection",
"features": [
	{"geometry":{"coordinates":[-72.988006,-41.317052],"type":"Point"},"properties":{"name":"Punto Limpio","osm_id":"5754206859","tag":{"amenity":"recycling"}},"type":"Feature"},
	{"geometry":{"coordinates":[-72.982524,-41.322625],"type":"Point"},"properties":{"osm_id":"7233466322","tag":{"amenity":"waste_basket"}},"type":"Feature"},
	{"geometry":{"coordinates":[-72.982557,-41.322756],"type":"Point"},"properties":{"osm_id":"7233466323","tag":{"amenity":"waste_basket"}},"type":"Feature"},
	{"geometry":{"coordinates":[-73.009997,-41.326473],"type":"Point"},"properties":{"osm_id":"7285334785","tag":{"amenity":"waste_basket"}},"type":"Feature"},
	{"geometry":{"coordinates":[-72.982454,-41.317613],"type":"Point"},"properties":{"osm_id":"7700914826","tag":{"amenity":"waste_basket"}},"type":"Feature"},
	{"geometry":{"coordinates":[-72.982836,-41.317899],"type":"Point"},"properties":{"osm_id":"7700914840","tag":{"amenity":"waste_basket"}},"type":"Feature"},
	{"geometry":{"coordinates":[-72.98262,-41.318099],"type":"Point"},"properties":{"osm_id":"7700914842","tag":{"amenity":"waste_basket"}},"type":"Feature"},
	{"geometry":{"coordinates":[-72.982721,-41.317823],"type":"Point"},"properties":{"osm_id":"7700968813","tag":{"amenity":"waste_basket"}},"type":"Feature"},
	{"geometry":{"coordinates":[-72.982797,-41.317754],"type":"Point"},"properties":{"osm_id":"7700968815","tag":{"amenity":"waste_basket"}},"type":"Feature"},
	{"geometry":{"coordinates":[-72.987934,-41.326121],"type":"Point"},"properties":{"osm_id":"8649073902","tag":{"amenity":"waste_basket"}},"type":"Feature"}
]
}
