{
"type": "FeatureCollection",
"features": [
	{"geometry":{"coordinates":[47.512545,42.955497],"type":"Point"},"properties":{"osm_id":"1013436239","tag":{"amenity":"waste_basket"}},"type":"Feature"},
	{"geometry":{"coordinates":[47.511428,42.955997],"type":"Point"},"properties":{"osm_id":"1013445333","tag":{"amenity":"waste_basket"}},"type":"Feature"},
	{"geometry":{"coordinates":[47.514049,42.954892],"type":"Point"},"properties":{"osm_id":"1013485715","tag":{"amenity":"waste_basket"}},"type":"Feature"},
	{"geometry":{"coordinates":[47.513401,42.956467],"type":"Point"},"properties":{"osm_id":"1333382539","tag":{"amenity":"waste_basket"}},"type":"Feature"},
	{"geometry":{"coordinates":[47.46816,42.982616],"type":"Point"},"properties":{"osm_id":"4336490591","tag":{"amenity":"waste_disposal"}},"type":"Feature"},
	{"geometry":{"coordinates":[47.473054,42.981244],"type":"Point"},"properties":{"osm_id":"4373087103","tag":{"amenity":"waste_disposal"}},"type":"Feature"},
	{"geometry":{"coordinates":[47.548706,42.963137],"type":"Point"},"properties":{"osm_id":"4428444389","tag":{"amenity":"waste_disposal"}},"type":"Feature"},
	{"geometry":{"coordinates":[47.5033,42.984188],"type":"Point"},"properties":{"osm_id":"4593937290","tag":{"amenity":"waste_disposal"}},"type":"Feature"},
	{"geometry":{"coordinates":[47.516005,42.951022],"type":"Point"},"properties":{"osm_id":"4603794198","tag":{"amenity":"waste_disposal","description":"10 \u00d1\u0088\u00d1\u0082\u00d1\u0083\u00d0\u00ba"}},"type":"Feature"},
	{"geometry":{"coordinates":[47.515881,42.950783],"type":"Point"},"properties":{"osm_id":"4603835991","tag":{"amenity":"waste_disposal","description":"4 \u00d1\u0088\u00d1\u0082\u00d1\u0083\u00d0\u00ba"}},"type":"Feature"},
	{"geometry":{"coordinates":[47.502787,42.957886],"type":"Point"},"properties":{"osm_id":"4607328990","tag":{"amenity":"waste_disposal"}},"type":"Feature"},
	{"geometry":{"coordinates":[47.501759,42.986761],"type":"Point"},"properties":{"osm_id":"4691723290","tag":{"amenity":"waste_disposal"}},"type":"Feature"},
	{"geometry":{"coordinates":[47.483328,42.974045],"type":"Point"},"properties":{"osm_id":"4691723392","tag":{"amenity":"waste_disposal"}},"type":"Feature"},
	{"geometry":{"coordinates":[47.501749,42.986738],"type":"Point"},"properties":{"osm_id":"4691723490","tag":{"amenity":"waste_disposal"}},"type":"Feature"},
	{"geometry":{"coordinates":[47.510179,42.956833],"type":"Point"},"properties":{"osm_id":"4853075842","tag":{"amenity":"waste_disposal"}},"type":"Feature"},
	{"geometry":{"coordinates":[47.511347,42.95879],"type":"Point"},"properties":{"osm_id":"4853075843","tag":{"amenity":"waste_disposal"}},"type":"Feature"},
	{"geometry":{"coordinates":[47.490575,42.964369],"type":"Point"},"properties":{"osm_id":"4896645422","tag":{"amenity":"waste_disposal"}},"type":"Feature"},
	{"geometry":{"coordinates":[47.489026,42.987216],"type":"Point"},"properties":{"osm_id":"5195880924","tag":{"amenity":"waste_disposal"}},"type":"Feature"},
	{"geometry":{"coordinates":[47.489073,42.987222],"type":"Point"},"properties":{"osm_id":"5195892826","tag":{"amenity":"waste_disposal"}},"type":"Feature"},
	{"geometry":{"coordinates":[47.489004,42.987191],"type":"Point"},"properties":{"osm_id":"5195900122","tag":{"amenity":"waste_disposal"}},"type":"Feature"},
	{"geometry":{"coordinates":[47.49688,42.970919],"type":"Point"},"properties":{"osm_id":"6219556232","tag":{"amenity":"waste_disposal"}},"type":"Feature"},
	{"geometry":{"coordinates":[47.484512,42.990108],"type":"Point"},"properties":{"osm_id":"6226877587","tag":{"amenity":"waste_disposal"}},"type":"Feature"},
	{"geometry":{"coordinates":[47.484536,42.990097],"type":"Point"},"properties":{"osm_id":"6226877588","tag":{"amenity":"waste_disposal"}},"type":"Feature"},
	{"geometry":{"coordinates":[47.508399,42.962657],"type":"Point"},"properties":{"osm_id":"6284406703","tag":{"amenity":"waste_disposal","waste":"trash"}},"type":"Feature"},
	{"geometry":{"coordinates":[47.508335,42.962584],"type":"Point"},"properties":{"osm_id":"6284406704","tag":{"amenity":"waste_disposal","waste":"trash"}},"type":"Feature"},
	{"geometry":{"coordinates":[47.505859,42.961065],"type":"Point"},"properties":{"osm_id":"6284406710","tag":{"amenity":"waste_disposal","waste":"trash"}},"type":"Feature"}
]
}
