{
"type": "FeatureCollection",
"features": [
	{"geometry":{"coordinates":[47.546711,-18.876475],"type":"Point"},"properties":{"osm_id":"5796258851","tag":{"amenity":"waste_disposal"}},"type":"Feature"},
	{"geometry":{"coordinates":[47.535768,-18.87198],"type":"Point"},"properties":{"osm_id":"5796259522","tag":{"amenity":"waste_disposal"}},"type":"Feature"},
	{"geometry":{"coordinates":[47.491299,-18.872226],"type":"Point"},"properties":{"name":"VILLA TELO DAHY","osm_id":"5905958808","tag":{"CODE":"6024.0","amenity":"waste_disposal","operator":"SAMVA","trash":"yes"}},"type":"Feature"},
	{"geometry":{"coordinates":[47.522583,-18.871625],"type":"Point"},"properties":{"name":"TP 3","osm_id":"5905958810","tag":{"CODE":"5038.0","amenity":"waste_disposal","operator":"SAMVA","trash":"yes"}},"type":"Feature"},
	{"geometry":{"coordinates":[47.520976,-18.872227],"type":"Point"},"properties":{"name":"TP 2","osm_id":"5905958811","tag":{"CODE":"5026.0","amenity":"waste_disposal","operator":"SAMVA","trash":"yes"}},"type":"Feature"},
	{"geometry":{"coordinates":[47.522564,-18.871872],"type":"Point"},"properties":{"name":"TP 1","osm_id":"5905958812","tag":{"CODE":"5012.0","amenity":"waste_disposal","operator":"SAMVA","trash":"yes"}},"type":"Feature"},
	{"geometry":{"coordinates":[47.52271,-18.888371],"type":"Point"},"properties":{"name":"MIDI ANKORONDRANO","osm_id":"5905958816","tag":{"CODE":"3077.0","amenity":"waste_disposal","operator":"SAMVA","trash":"yes"}},"type":"Feature"},
	{"geometry":{"coordinates":[47.512239,-18.858798],"type":"Point"},"properties":{"name":"AMBODITANIMENA","osm_id":"5905958822","tag":{"CODE":"5003.0","amenity":"waste_disposal","operator":"SAMVA","trash":"yes"}},"type":"Feature"},
	{"geometry":{"coordinates":[47.516595,-18.895091],"type":"Point"},"properties":{"name":"PONT ANTANIMENA","osm_id":"5905958837","tag":{"CODE":"1037.0","amenity":"waste_disposal","operator":"SAMVA","trash":"yes"}},"type":"Feature"},
	{"geometry":{"coordinates":[47.521803,-18.894849],"type":"Point"},"properties":{"name":"SOCIMEX","osm_id":"5905960943","tag":{"CODE":"3005.0","amenity":"waste_disposal","operator":"SAMVA","trash":"yes"}},"type":"Feature"},
	{"geometry":{"coordinates":[47.522499,-18.890037],"type":"Point"},"properties":{"name":"CODAL","osm_id":"5905960949","tag":{"CODE":"3004.0","amenity":"waste_disposal","operator":"SAMVA","trash":"yes"}},"type":"Feature"},
	{"geometry":{"coordinates":[47.528498,-18.888791],"type":"Point"},"properties":{"name":"MASAY","osm_id":"5905960953","tag":{"CODE":"3084.0","amenity":"waste_disposal","operator":"SAMVA","trash":"yes"}},"type":"Feature"},
	{"geometry":{"coordinates":[47.518987,-18.892295],"type":"Point"},"properties":{"name":"CENTER POINT ANKORONDRANO","osm_id":"5905960954","tag":{"CODE":"3076.0","amenity":"waste_disposal","operator":"SAMVA","trash":"yes"}},"type":"Feature"},
	{"geometry":{"coordinates":[47.518116,-18.887319],"type":"Point"},"properties":{"name":"STEDIC","osm_id":"5905960965","tag":{"CODE":"3003.0","amenity":"waste_disposal","operator":"SAMVA","trash":"yes"}},"type":"Feature"},
	{"geometry":{"coordinates":[47.521946,-18.885611],"type":"Point"},"properties":{"name":"EPP ANKORONDRANO","osm_id":"5905960968","tag":{"CODE":"3061.0","amenity":"waste_disposal","operator":"SAMVA","trash":"yes"}},"type":"Feature"},
	{"geometry":{"coordinates":[47.528981,-18.895063],"type":"Point"},"properties":{"name":"SOLOPRIX TSENA","osm_id":"5905960970","tag":{"CODE":"3048.0","amenity":"waste_disposal","operator":"SAMVA","trash":"yes"}},"type":"Feature"},
	{"geometry":{"coordinates":[47.531199,-18.892336],"type":"Point"},"properties":{"name":"GARA ROUTIERE AMBODIVONA","osm_id":"5905960977","tag":{"CODE":"3040.0","amenity":"waste_disposal","operator":"SAMVA","trash":"yes"}},"type":"Feature"},
	{"geometry":{"coordinates":[47.526333,-18.893006],"type":"Point"},"properties":{"name":"TRANSFO AMBODIVONA","osm_id":"5905960982","tag":{"CODE":"3009.0","amenity":"waste_disposal","operator":"SAMVA","trash":"yes"}},"type":"Feature"},
	{"geometry":{"coordinates":[47.516499,-18.893198],"type":"Point"},"properties":{"name":"SOEUR TSARAMASAY","osm_id":"5905960983","tag":{"CODE":"3002.0","amenity":"waste_disposal","operator":"SAMVA","trash":"yes"}},"type":"Feature"},
	{"geometry":{"coordinates":[47.516986,-18.894844],"type":"Point"},"properties":{"name":"SILEM","osm_id":"5905960984","tag":{"CODE":"3001.0","amenity":"waste_disposal","operator":"SAMVA","trash":"yes"}},"type":"Feature"},
	{"geometry":{"coordinates":[47.526023,-18.873448],"type":"Point"},"properties":{"name":"STADE ALAROBIA","osm_id":"5905961635","tag":{"CODE":"5006.0","amenity":"waste_disposal","operator":"SAMVA","trash":"yes"}},"type":"Feature"},
	{"geometry":{"coordinates":[47.534619,-18.871268],"type":"Point"},"properties":{"name":"BETON France","osm_id":"5905961636","tag":{"CODE":"5027.0","amenity":"waste_disposal","operator":"SAMVA","trash":"yes"}},"type":"Feature"},
	{"geometry":{"coordinates":[47.542566,-18.869206],"type":"Point"},"properties":{"name":"CEG ANDROHIBE","osm_id":"5905961638","tag":{"CODE":"5010.0","amenity":"waste_disposal","operator":"SAMVA","trash":"yes"}},"type":"Feature"},
	{"geometry":{"coordinates":[47.541873,-18.887841],"type":"Point"},"properties":{"name":"FRERES SOAVIMBAHOAKA","osm_id":"5905961639","tag":{"CODE":"5090.0","amenity":"waste_disposal","operator":"SAMVA","trash":"yes"}},"type":"Feature"},
	{"geometry":{"coordinates":[47.515938,-18.860602],"type":"Point"},"properties":{"name":"DS SOAVIMASOANDRO","osm_id":"5905961643","tag":{"CODE":"5076.0","amenity":"waste_disposal","operator":"SAMVA","trash":"yes"}},"type":"Feature"},
	{"geometry":{"coordinates":[47.543103,-18.89362],"type":"Point"},"properties":{"name":"GAMO","osm_id":"5905961644","tag":{"CODE":"5073.0","amenity":"waste_disposal","operator":"SAMVA","trash":"yes"}},"type":"Feature"},
	{"geometry":{"coordinates":[47.540503,-18.894576],"type":"Point"},"properties":{"name":"FKT ANJANAHARY","osm_id":"5905961645","tag":{"CODE":"5072.0","amenity":"waste_disposal","operator":"SAMVA","trash":"yes"}},"type":"Feature"},
	{"geometry":{"coordinates":[47.518919,-18.872375],"type":"Point"},"properties":{"name":"DS LALAMBY","osm_id":"5905961647","tag":{"CODE":"5061.0","amenity":"waste_disposal","operator":"SAMVA","trash":"yes"}},"type":"Feature"},
	{"geometry":{"coordinates":[47.543225,-18.879671],"type":"Point"},"properties":{"name":"ANDRANOBEVAVA","osm_id":"5905961648","tag":{"CODE":"5057.0","amenity":"waste_disposal","operator":"SAMVA","trash":"yes"}},"type":"Feature"},
	{"geometry":{"coordinates":[47.537442,-18.894915],"type":"Point"},"properties":{"name":"DEWARA","osm_id":"5905961650","tag":{"CODE":"5042.0","amenity":"waste_disposal","operator":"SAMVA","trash":"yes"}},"type":"Feature"},
	{"geometry":{"coordinates":[47.543009,-18.88256],"type":"Point"},"properties":{"name":"DOMA","osm_id":"5905961652","tag":{"CODE":"5039.0","amenity":"waste_disposal","operator":"SAMVA","trash":"yes"}},"type":"Feature"},
	{"geometry":{"coordinates":[47.539433,-18.886832],"type":"Point"},"properties":{"osm_id":"5905961653","tag":{"CODE":"5037.0","amenity":"waste_disposal","operator":"SAMVA","trash":"yes"}},"type":"Feature"},
	{"geometry":{"coordinates":[47.537679,-18.890994],"type":"Point"},"properties":{"name":"ESSENCE AMBATOMAINTY","osm_id":"5905961654","tag":{"CODE":"5035.0","amenity":"waste_disposal","operator":"SAMVA","trash":"yes"}},"type":"Feature"},
	{"geometry":{"coordinates":[47.535824,-18.891271],"type":"Point"},"properties":{"name":"LETCHIS MANJAKARAY","osm_id":"5905961655","tag":{"CODE":"5034.0","amenity":"waste_disposal","operator":"SAMVA","trash":"yes"}},"type":"Feature"},
	{"geometry":{"coordinates":[47.546703,-18.895028],"type":"Point"},"properties":{"name":"FASANA AMPASAMPITO","osm_id":"5905961663","tag":{"CODE":"5019.0","amenity":"waste_disposal","operator":"SAMVA","trash":"yes"}},"type":"Feature"},
	{"geometry":{"coordinates":[47.548558,-18.890015],"type":"Point"},"properties":{"name":"FANALAMANGA","osm_id":"5905961664","tag":{"CODE":"5018.0","amenity":"waste_disposal","operator":"SAMVA","trash":"yes"}},"type":"Feature"},
	{"geometry":{"coordinates":[47.546694,-18.876474],"type":"Point"},"properties":{"name":"BUS 26","osm_id":"5905961665","tag":{"CODE":"5013.0","amenity":"waste_disposal","operator":"SAMVA","trash":"yes"}},"type":"Feature"},
	{"geometry":{"coordinates":[47.544912,-18.871581],"type":"Point"},"properties":{"name":"ANTSONJOMBE","osm_id":"5905961666","tag":{"CODE":"5011.0","amenity":"waste_disposal","operator":"SAMVA","trash":"yes"}},"type":"Feature"},
	{"geometry":{"coordinates":[47.535399,-18.860076],"type":"Point"},"properties":{"name":"FKT ANDROHIBE","osm_id":"5905961667","tag":{"CODE":"5009.0","amenity":"waste_disposal","operator":"SAMVA","trash":"yes"}},"type":"Feature"},
	{"geometry":{"coordinates":[47.524739,-18.869669],"type":"Point"},"properties":{"name":"RESTO JAZZ","osm_id":"5905961668","tag":{"CODE":"5007.0","amenity":"waste_disposal","operator":"SAMVA","trash":"yes"}},"type":"Feature"},
	{"geometry":{"coordinates":[47.512569,-18.861801],"type":"Point"},"properties":{"name":"ASSEMBLEE DE DIEU","osm_id":"5905961676","tag":{"CODE":"5002.0","amenity":"waste_disposal","operator":"SAMVA","trash":"yes"}},"type":"Feature"},
	{"geometry":{"coordinates":[47.514844,-18.864817],"type":"Point"},"properties":{"name":"AML","osm_id":"5905961677","tag":{"CODE":"5001.0","amenity":"waste_disposal","operator":"SAMVA","trash":"yes"}},"type":"Feature"},
	{"geometry":{"coordinates":[47.48439,-18.858456],"type":"Point"},"properties":{"name":"AMBOAVAHY","osm_id":"5905961678","tag":{"CODE":"6007.0","amenity":"waste_disposal","operator":"SAMVA","trash":"yes"}},"type":"Feature"},
	{"geometry":{"coordinates":[47.493212,-18.87206],"type":"Point"},"properties":{"name":"AMBOHIMITSINJO","osm_id":"5905961679","tag":{"CODE":"6005.0","amenity":"waste_disposal","operator":"SAMVA","trash":"yes"}},"type":"Feature"},
	{"geometry":{"coordinates":[47.488247,-18.867864],"type":"Point"},"properties":{"name":"ARRET BUS AMBODIMITA ABA","osm_id":"5905961680","tag":{"CODE":"6022.0","amenity":"waste_disposal","operator":"SAMVA","trash":"yes"}},"type":"Feature"},
	{"geometry":{"coordinates":[47.484825,-18.859656],"type":"Point"},"properties":{"name":"AVARATETEZANA AVANT PONT","osm_id":"5905961681","tag":{"CODE":"6043.0","amenity":"waste_disposal","operator":"SAMVA","trash":"yes"}},"type":"Feature"},
	{"geometry":{"coordinates":[47.484841,-18.852674],"type":"Point"},"properties":{"name":"EPP AMBOHIDROA","osm_id":"5905961682","tag":{"CODE":"6039.0","amenity":"waste_disposal","operator":"SAMVA","trash":"yes"}},"type":"Feature"},
	{"geometry":{"coordinates":[47.511138,-18.870786],"type":"Point"},"properties":{"name":"GARAGE RAPIERA","osm_id":"5905961683","tag":{"CODE":"6038.0","amenity":"waste_disposal","operator":"SAMVA","trash":"yes"}},"type":"Feature"},
	{"geometry":{"coordinates":[47.485498,-18.866813],"type":"Point"},"properties":{"name":"PAPIER ANTEMORO","osm_id":"5905961684","tag":{"CODE":"6030.0","amenity":"waste_disposal","operator":"SAMVA","trash":"yes"}},"type":"Feature"},
	{"geometry":{"coordinates":[47.502937,-18.875335],"type":"Point"},"properties":{"name":"PARKING AMBOHIMIADANA","osm_id":"5905962085","tag":{"CODE":"6027.0","amenity":"waste_disposal","operator":"SAMVA","trash":"yes"}},"type":"Feature"},
	{"geometry":{"coordinates":[47.481463,-18.843818],"type":"Point"},"properties":{"name":"KINININA AMBATOLAMPY","osm_id":"5905962086","tag":{"CODE":"6025.0","amenity":"waste_disposal","operator":"SAMVA","trash":"yes"}},"type":"Feature"},
	{"geometry":{"coordinates":[47.486489,-18.844127],"type":"Point"},"properties":{"name":"BASSIN AMBATOLAMPY","osm_id":"5905962087","tag":{"CODE":"6021.0","amenity":"waste_disposal","operator":"SAMVA","trash":"yes"}},"type":"Feature"},
	{"geometry":{"coordinates":[47.509095,-18.884875],"type":"Point"},"properties":{"name":"FLOREAL","osm_id":"5905962088","tag":{"CODE":"6020.0","amenity":"waste_disposal","operator":"SAMVA","trash":"yes"}},"type":"Feature"},
	{"geometry":{"coordinates":[47.505132,-18.879943],"type":"Point"},"properties":{"name":"DISCOGI ANOSIVAVAKA","osm_id":"5905962089","tag":{"CODE":"6018.0","amenity":"waste_disposal","operator":"SAMVA","trash":"yes"}},"type":"Feature"},
	{"geometry":{"coordinates":[47.50086,-18.874413],"type":"Point"},"properties":{"name":"TSENA AMBOHIMANARINA","osm_id":"5905962090","tag":{"CODE":"6017.0","amenity":"waste_disposal","operator":"SAMVA","trash":"yes"}},"type":"Feature"},
	{"geometry":{"coordinates":[47.513287,-18.890549],"type":"Point"},"properties":{"name":"YAMAHA","osm_id":"5905962091","tag":{"CODE":"6016.0","amenity":"waste_disposal","operator":"SAMVA","trash":"yes"}},"type":"Feature"},
	{"geometry":{"coordinates":[47.496183,-18.869251],"type":"Point"},"properties":{"name":"AMBODIVONA AMBOHIMANARINA","osm_id":"5905962092","tag":{"CODE":"6014.0","amenity":"waste_disposal","operator":"SAMVA","trash":"yes"}},"type":"Feature"},
	{"geometry":{"coordinates":[47.482486,-18.857234],"type":"Point"},"properties":{"name":"GARAGE ANDRANOMENA","osm_id":"5905962093","tag":{"CODE":"6012.0","amenity":"waste_disposal","operator":"SAMVA","trash":"yes"}},"type":"Feature"},
	{"geometry":{"coordinates":[47.496133,-18.872039],"type":"Point"},"properties":{"name":"ANTSARARAY","osm_id":"5905962094","tag":{"CODE":"6010.0","amenity":"waste_disposal","operator":"SAMVA","trash":"yes"}},"type":"Feature"},
	{"geometry":{"coordinates":[47.480124,-18.855249],"type":"Point"},"properties":{"name":"DIGUE ANDRANOMENA","osm_id":"5905962095","tag":{"CODE":"6008.0","amenity":"waste_disposal","operator":"SAMVA","trash":"yes"}},"type":"Feature"},
	{"geometry":{"coordinates":[47.498961,-18.872954],"type":"Point"},"properties":{"name":"ANTANETY","osm_id":"5905962097","tag":{"CODE":"6003.0","amenity":"waste_disposal","operator":"SAMVA","trash":"yes"}},"type":"Feature"},
	{"geometry":{"coordinates":[47.505736,-18.87608],"type":"Point"},"properties":{"name":"PAIN DE MADACASCAR","osm_id":"5905962098","tag":{"CODE":"6002.0","amenity":"waste_disposal","operator":"SAMVA","trash":"yes"}},"type":"Feature"},
	{"geometry":{"coordinates":[47.509019,-18.872707],"type":"Point"},"properties":{"name":"SOAM","osm_id":"5905962099","tag":{"CODE":"6001.0","amenity":"waste_disposal","operator":"SAMVA","trash":"yes"}},"type":"Feature"},
	{"geometry":{"coordinates":[47.492238,-18.891825],"type":"Point"},"properties":{"osm_id":"7206153465","tag":{"amenity":"recycling","operator":"kopakelatra","recycling:plastic_bottles":"yes","recycling_type":"container"}},"type":"Feature"},
	{"geometry":{"coordinates":[47.462122,-18.841628],"type":"Point"},"properties":{"osm_id":"7218730895","tag":{"amenity":"recycling","operator":"kopakelatra","recycling:plastic_bottles":"yes","recycling_type":"container"}},"type":"Feature"},
	{"geometry":{"coordinates":[47.463168,-18.841421],"type":"Point"},"properties":{"osm_id":"7218730896","tag":{"amenity":"recycling","operator":"kopakelatra","recycling:plastic_bottles":"yes","recycling_type":"container"}},"type":"Feature"},
	{"geometry":{"coordinates":[47.478917,-18.851822],"type":"Point"},"properties":{"osm_id":"7221869194","tag":{"amenity":"recycling","operator":"kopakelatra","recycling:plastic_bottles":"yes","recycling_type":"container"}},"type":"Feature"},
	{"geometry":{"coordinates":[47.529689,-18.868907],"type":"Point"},"properties":{"osm_id":"7230689543","tag":{"amenity":"recycling","operator":"kopakelatra","recycling:plastic_bottles":"yes","recycling_type":"container"}},"type":"Feature"},
	{"geometry":{"coordinates":[47.471406,-18.844025],"type":"Point"},"properties":{"osm_id":"7434244046","tag":{"amenity":"recycling","operator":"kopakelatra","recycling:plastic_bottles":"yes","recycling_type":"container"}},"type":"Feature"},
	{"geometry":{"coordinates":[47.526498,-18.892095],"type":"Point"},"properties":{"osm_id":"7622855544","tag":{"amenity":"recycling","operator":"kopakelatra","recycling:plastic_bottles":"yes","recycling_type":"container"}},"type":"Feature"},
	{"geometry":{"coordinates":[47.462243,-18.84042],"type":"Point"},"properties":{"osm_id":"7930478932","tag":{"amenity":"recycling","operator":"kopakelatra","recycling:plastic_bottles":"yes","recycling_type":"container"}},"type":"Feature"},
	{"geometry":{"coordinates":[47.498741,-18.87839],"type":"Point"},"properties":{"osm_id":"8437444318","tag":{"amenity":"waste_disposal"}},"type":"Feature"},
	{"geometry":{"coordinates":[47.498553,-18.878499],"type":"Point"},"properties":{"osm_id":"8552973217","tag":{"amenity":"waste_disposal"}},"type":"Feature"},
	{"geometry":{"coordinates":[47.498609,-18.878432],"type":"Point"},"properties":{"osm_id":"8862064117","tag":{"amenity":"waste_disposal"}},"type":"Feature"}
]
}
