{
"type": "FeatureCollection",
"features": [
	{"geometry":{"coordinates":[120.703313,24.057093],"type":"Point"},"properties":{"osm_id":"1619718098","tag":{"amenity":"waste_basket"}},"type":"Feature"},
	{"geometry":{"coordinates":[120.714978,24.080402],"type":"Point"},"properties":{"is_in":"Wufeng District","osm_id":"1619844387","tag":{"amenity":"waste_basket","is_in:zh":"\u00e9\u009c\u00a7\u00e5\u00b3\u00b0\u00e5\u008d\u0080"}},"type":"Feature"},
	{"geometry":{"coordinates":[120.67739,24.116977],"type":"Point"},"properties":{"osm_id":"3866856040","tag":{"amenity":"waste_basket"}},"type":"Feature"},
	{"geometry":{"coordinates":[120.679973,24.116759],"type":"Point"},"properties":{"osm_id":"3868395883","tag":{"amenity":"waste_basket"}},"type":"Feature"},
	{"geometry":{"coordinates":[120.686636,24.118236],"type":"Point"},"properties":{"osm_id":"3868426581","tag":{"amenity":"waste_basket"}},"type":"Feature"},
	{"geometry":{"coordinates":[120.686884,24.117934],"type":"Point"},"properties":{"osm_id":"3868429047","tag":{"amenity":"waste_basket"}},"type":"Feature"},
	{"geometry":{"coordinates":[120.6758,24.108101],"type":"Point"},"properties":{"osm_id":"3887350154","tag":{"amenity":"waste_basket"}},"type":"Feature"},
	{"geometry":{"coordinates":[120.674775,24.105599],"type":"Point"},"properties":{"osm_id":"3887367970","tag":{"amenity":"waste_basket"}},"type":"Feature"},
	{"geometry":{"coordinates":[120.679268,24.104941],"type":"Point"},"properties":{"osm_id":"3887422978","tag":{"amenity":"waste_basket"}},"type":"Feature"},
	{"geometry":{"coordinates":[120.678537,24.104662],"type":"Point"},"properties":{"osm_id":"3887436890","tag":{"amenity":"waste_basket"}},"type":"Feature"},
	{"geometry":{"coordinates":[120.678618,24.104437],"type":"Point"},"properties":{"osm_id":"3887438664","tag":{"amenity":"waste_basket"}},"type":"Feature"},
	{"geometry":{"coordinates":[120.674585,24.105352],"type":"Point"},"properties":{"osm_id":"4025467149","tag":{"amenity":"waste_basket"}},"type":"Feature"},
	{"geometry":{"coordinates":[120.674045,24.110053],"type":"Point"},"properties":{"osm_id":"6080569447","tag":{"amenity":"recycling","recycling_type":"centre"}},"type":"Feature"}
]
}
