{
"type": "FeatureCollection",
"features": [
	{"geometry":{"coordinates":[130.568414,30.306047],"type":"Point"},"properties":{"name":"Tenchusugi","osm_id":"588929947","tag":{"natural":"tree"}},"type":"Feature"},
	{"geometry":{"coordinates":[130.574952,30.303724],"type":"Point"},"properties":{"name":"Sennensugi Cedar","osm_id":"588930133","tag":{"name:en":"Yakusugi cedar harvesting","natural":"tree","tourism":"information"}},"type":"Feature"},
	{"geometry":{"coordinates":[130.5319,30.360966],"type":"Point"},"properties":{"name":"\u00e7\u00b8\u0084\u00e6\u0096\u0087\u00e6\u009d\u0089 (J\u00c5\u008dmon Sugi cedar)","osm_id":"2579982408","tag":{"denotation":"natural_monument","name:en":"J\u00c5\u008dmon Sugi cedar","name:fr":"J\u00c5\u008dmon Sugi","name:ja":"\u00e7\u00b8\u0084\u00e6\u0096\u0087\u00e6\u009d\u0089","name:ja_kana":"\u00e3\u0081\u0098\u00e3\u0082\u0087\u00e3\u0081\u0086\u00e3\u0082\u0082\u00e3\u0082\u0093\u00e3\u0081\u0099\u00e3\u0081\u008e","name:ja_rm":"J\u00c5\u008dmon Sugi","natural":"tree","species:wikidata":"Q589967","species:wikipedia":"ja:\u00e7\u00b8\u0084\u00e6\u0096\u0087\u00e6\u009d\u0089","wikidata":"Q589967","wikipedia":"ja:\u00e7\u00b8\u0084\u00e6\u0096\u0087\u00e6\u009d\u0089"}},"type":"Feature"},
	{"geometry":{"coordinates":[130.567883,30.37287],"type":"Point"},"properties":{"name":"\u00e5\u00a5\u0089\u00e8\u00a1\u008c\u00e6\u009d\u0089","osm_id":"4867357668","tag":{"name:en":"Bugyou Sugi","name:ja":"\u00e5\u00a5\u0089\u00e8\u00a1\u008c\u00e6\u009d\u0089","natural":"tree"}},"type":"Feature"},
	{"geometry":{"coordinates":[130.536353,30.359622],"type":"Point"},"properties":{"name":"\u00e5\u00a4\u00a7\u00e7\u008e\u008b\u00e6\u009d\u0089","osm_id":"4869328350","tag":{"name:en":"Daio Sugi","natural":"tree"}},"type":"Feature"}
]
}
