{
"type": "FeatureCollection",
"features": [
	{"geometry":{"coordinates":[-8.839989,39.848852],"type":"Point"},"properties":{"osm_id":"4344575946","tag":{"amenity":"recycling","recycling:cans":"yes","recycling:plastic_bottles":"yes","recycling:plastic_packaging":"yes","recycling_type":"container"}},"type":"Feature"},
	{"geometry":{"coordinates":[-8.839975,39.848852],"type":"Point"},"properties":{"osm_id":"4344575947","tag":{"amenity":"recycling","recycling:glass":"yes","recycling_type":"container"}},"type":"Feature"},
	{"geometry":{"coordinates":[-8.83996,39.848852],"type":"Point"},"properties":{"osm_id":"4344575948","tag":{"amenity":"recycling","recycling:cardboard":"yes","recycling:paper":"yes","recycling_type":"container"}},"type":"Feature"},
	{"geometry":{"coordinates":[-8.839922,39.848854],"type":"Point"},"properties":{"osm_id":"4344575949","tag":{"amenity":"waste_disposal"}},"type":"Feature"},
	{"geometry":{"coordinates":[-8.844161,39.850118],"type":"Point"},"properties":{"osm_id":"4344679693","tag":{"amenity":"waste_basket"}},"type":"Feature"},
	{"geometry":{"coordinates":[-8.843836,39.850197],"type":"Point"},"properties":{"osm_id":"4344679698","tag":{"amenity":"waste_basket"}},"type":"Feature"},
	{"geometry":{"coordinates":[-8.844147,39.850259],"type":"Point"},"properties":{"osm_id":"4344679703","tag":{"amenity":"recycling","material":"metal","operator":"sarah","recycling:clothes":"yes","recycling:sheets":"yes","recycling:shoes":"yes","recycling_type":"container"}},"type":"Feature"},
	{"geometry":{"coordinates":[-8.844145,39.850268],"type":"Point"},"properties":{"osm_id":"4344679704","tag":{"amenity":"waste_basket"}},"type":"Feature"},
	{"geometry":{"coordinates":[-8.844058,39.85027],"type":"Point"},"properties":{"osm_id":"4344679705","tag":{"amenity":"waste_basket"}},"type":"Feature"},
	{"geometry":{"coordinates":[-8.843516,39.850514],"type":"Point"},"properties":{"osm_id":"4346211274","tag":{"amenity":"waste_disposal"}},"type":"Feature"},
	{"geometry":{"coordinates":[-8.843513,39.850531],"type":"Point"},"properties":{"osm_id":"4346211277","tag":{"amenity":"recycling","recycling:cardboard":"yes","recycling:paper":"yes","recycling_type":"container"}},"type":"Feature"},
	{"geometry":{"coordinates":[-8.843509,39.850544],"type":"Point"},"properties":{"osm_id":"4346211281","tag":{"amenity":"recycling","recycling:glass":"yes","recycling_type":"container"}},"type":"Feature"},
	{"geometry":{"coordinates":[-8.843505,39.850554],"type":"Point"},"properties":{"osm_id":"4346211286","tag":{"amenity":"recycling","recycling:cans":"yes","recycling:plastic_bottles":"yes","recycling_type":"container"}},"type":"Feature"},
	{"geometry":{"coordinates":[-8.843697,39.850643],"type":"Point"},"properties":{"osm_id":"4346215504","tag":{"amenity":"waste_basket"}},"type":"Feature"},
	{"geometry":{"coordinates":[-8.84383,39.850684],"type":"Point"},"properties":{"osm_id":"4346215512","tag":{"amenity":"waste_basket"}},"type":"Feature"},
	{"geometry":{"coordinates":[-8.843856,39.850693],"type":"Point"},"properties":{"osm_id":"4346215513","tag":{"amenity":"waste_basket","support":"wall_mounted","waste":"cigarettes"}},"type":"Feature"},
	{"geometry":{"coordinates":[-8.844222,39.850862],"type":"Point"},"properties":{"osm_id":"4346215545","tag":{"amenity":"waste_basket"}},"type":"Feature"},
	{"geometry":{"coordinates":[-8.844263,39.85087],"type":"Point"},"properties":{"osm_id":"4346215549","tag":{"amenity":"waste_basket","support":"wall_mounted","waste":"cigarettes"}},"type":"Feature"},
	{"geometry":{"coordinates":[-8.844184,39.850328],"type":"Point"},"properties":{"osm_id":"4347476760","tag":{"amenity":"waste_basket","support":"wall_mounted","waste":"cigarettes"}},"type":"Feature"},
	{"geometry":{"coordinates":[-8.867123,39.850538],"type":"Point"},"properties":{"osm_id":"4352756547","tag":{"amenity":"waste_basket"}},"type":"Feature"},
	{"geometry":{"coordinates":[-8.867422,39.850669],"type":"Point"},"properties":{"osm_id":"4352756580","tag":{"amenity":"waste_basket"}},"type":"Feature"},
	{"geometry":{"coordinates":[-8.866939,39.850663],"type":"Point"},"properties":{"osm_id":"4352756584","tag":{"amenity":"waste_basket"}},"type":"Feature"},
	{"geometry":{"coordinates":[-8.867397,39.850736],"type":"Point"},"properties":{"osm_id":"4352756913","tag":{"amenity":"waste_basket"}},"type":"Feature"},
	{"geometry":{"coordinates":[-8.866698,39.850773],"type":"Point"},"properties":{"osm_id":"4352756926","tag":{"amenity":"waste_basket"}},"type":"Feature"},
	{"geometry":{"coordinates":[-8.866765,39.850887],"type":"Point"},"properties":{"osm_id":"4352756945","tag":{"amenity":"waste_basket"}},"type":"Feature"},
	{"geometry":{"coordinates":[-8.866833,39.851104],"type":"Point"},"properties":{"osm_id":"4352756982","tag":{"amenity":"waste_basket"}},"type":"Feature"},
	{"geometry":{"coordinates":[-8.864456,39.84844],"type":"Point"},"properties":{"osm_id":"4354322685","tag":{"amenity":"waste_disposal"}},"type":"Feature"},
	{"geometry":{"coordinates":[-8.865084,39.848866],"type":"Point"},"properties":{"osm_id":"4354322805","tag":{"amenity":"recycling","location":"underground","recycling:cans":"yes","recycling:cardboard":"yes","recycling_type":"container"}},"type":"Feature"},
	{"geometry":{"coordinates":[-8.865069,39.848875],"type":"Point"},"properties":{"osm_id":"4354322806","tag":{"amenity":"recycling","location":"underground","recycling:glass":"yes","recycling_type":"container"}},"type":"Feature"},
	{"geometry":{"coordinates":[-8.865105,39.848879],"type":"Point"},"properties":{"osm_id":"4354322807","tag":{"amenity":"recycling","location":"underground","recycling:paper":"yes","recycling_type":"container"}},"type":"Feature"},
	{"geometry":{"coordinates":[-8.865086,39.848888],"type":"Point"},"properties":{"osm_id":"4354322808","tag":{"amenity":"waste_disposal","location":"underground","recycling_type":"container"}},"type":"Feature"},
	{"geometry":{"coordinates":[-8.865102,39.848899],"type":"Point"},"properties":{"osm_id":"4354322809","tag":{"amenity":"waste_disposal","location":"underground","recycling_type":"container"}},"type":"Feature"},
	{"geometry":{"coordinates":[-8.859767,39.850422],"type":"Point"},"properties":{"osm_id":"4354322858","tag":{"amenity":"recycling","operator":"Valorlis","recycling:glass":"yes","recycling_type":"container"}},"type":"Feature"},
	{"geometry":{"coordinates":[-8.868345,39.84997],"type":"Point"},"properties":{"osm_id":"4357657124","tag":{"amenity":"waste_disposal"}},"type":"Feature"},
	{"geometry":{"coordinates":[-8.867735,39.85029],"type":"Point"},"properties":{"osm_id":"4357657174","tag":{"amenity":"waste_disposal"}},"type":"Feature"},
	{"geometry":{"coordinates":[-8.867315,39.850554],"type":"Point"},"properties":{"osm_id":"4357657224","tag":{"amenity":"waste_basket"}},"type":"Feature"},
	{"geometry":{"coordinates":[-8.867697,39.850574],"type":"Point"},"properties":{"osm_id":"4357657234","tag":{"amenity":"recycling","recycling:cooking_oil":"yes","recycling:waste_oil":"yes","recycling_type":"container"}},"type":"Feature"},
	{"geometry":{"coordinates":[-8.867681,39.850577],"type":"Point"},"properties":{"osm_id":"4357657236","tag":{"amenity":"recycling","colour":"green","operator":"Humana Portugal","recycling:clothes":"yes","recycling:sheets":"yes","recycling:shoes":"yes","recycling_type":"container"}},"type":"Feature"},
	{"geometry":{"coordinates":[-8.867023,39.850807],"type":"Point"},"properties":{"osm_id":"4357657413","tag":{"amenity":"waste_basket"}},"type":"Feature"},
	{"geometry":{"coordinates":[-8.867084,39.851124],"type":"Point"},"properties":{"osm_id":"4357657567","tag":{"amenity":"waste_basket"}},"type":"Feature"},
	{"geometry":{"coordinates":[-8.871637,39.848578],"type":"Point"},"properties":{"osm_id":"4361664060","tag":{"amenity":"waste_disposal"}},"type":"Feature"},
	{"geometry":{"coordinates":[-8.871599,39.84862],"type":"Point"},"properties":{"osm_id":"4361664064","tag":{"amenity":"recycling","recycling:paper":"yes","recycling_type":"container"}},"type":"Feature"},
	{"geometry":{"coordinates":[-8.871585,39.848634],"type":"Point"},"properties":{"osm_id":"4361664065","tag":{"amenity":"recycling","recycling:paper":"yes","recycling_type":"container"}},"type":"Feature"},
	{"geometry":{"coordinates":[-8.871572,39.848649],"type":"Point"},"properties":{"osm_id":"4361664067","tag":{"amenity":"recycling","recycling:glass":"yes","recycling_type":"container"}},"type":"Feature"},
	{"geometry":{"coordinates":[-8.87156,39.848665],"type":"Point"},"properties":{"osm_id":"4361664068","tag":{"amenity":"recycling","recycling_type":"container"}},"type":"Feature"},
	{"geometry":{"coordinates":[-8.866214,39.849444],"type":"Point"},"properties":{"osm_id":"4361664073","tag":{"amenity":"waste_basket","backrest":"yes"}},"type":"Feature"},
	{"geometry":{"coordinates":[-8.865887,39.849806],"type":"Point"},"properties":{"osm_id":"4361664098","tag":{"amenity":"waste_basket"}},"type":"Feature"},
	{"geometry":{"coordinates":[-8.869845,39.84865],"type":"Point"},"properties":{"osm_id":"4364736171","tag":{"amenity":"recycling","recycling:glass":"yes","recycling_type":"container"}},"type":"Feature"},
	{"geometry":{"coordinates":[-8.869816,39.848658],"type":"Point"},"properties":{"osm_id":"4364736173","tag":{"amenity":"waste_disposal"}},"type":"Feature"},
	{"geometry":{"coordinates":[-8.867115,39.852032],"type":"Point"},"properties":{"osm_id":"4364955252","tag":{"amenity":"waste_basket","material":"wood"}},"type":"Feature"},
	{"geometry":{"coordinates":[-8.868474,39.85421],"type":"Point"},"properties":{"osm_id":"4364955921","tag":{"amenity":"waste_basket","material":"wood"}},"type":"Feature"},
	{"geometry":{"coordinates":[-8.868558,39.854368],"type":"Point"},"properties":{"osm_id":"4364955937","tag":{"amenity":"recycling","recycling:organic":"yes","recycling_type":"container"}},"type":"Feature"},
	{"geometry":{"coordinates":[-8.868555,39.854372],"type":"Point"},"properties":{"osm_id":"4364955939","tag":{"amenity":"recycling","recycling:glass":"yes","recycling_type":"container"}},"type":"Feature"},
	{"geometry":{"coordinates":[-8.867162,39.851788],"type":"Point"},"properties":{"osm_id":"4366360898","tag":{"amenity":"recycling","operator":"Valorlis","recycling:glass":"yes","recycling_type":"container"}},"type":"Feature"},
	{"geometry":{"coordinates":[-8.867187,39.851791],"type":"Point"},"properties":{"osm_id":"4366360899","tag":{"amenity":"recycling","operator":"Valorlis","recycling:cans":"yes","recycling:plastic_bottles":"yes","recycling:plastic_packaging":"yes","recycling_type":"container"}},"type":"Feature"},
	{"geometry":{"coordinates":[-8.867211,39.851795],"type":"Point"},"properties":{"osm_id":"4366360900","tag":{"amenity":"recycling","operator":"Valorlis","recycling:cardboard":"yes","recycling:paper":"yes","recycling_type":"container"}},"type":"Feature"},
	{"geometry":{"coordinates":[-8.867247,39.852976],"type":"Point"},"properties":{"osm_id":"4366360941","tag":{"amenity":"waste_basket","material":"wood"}},"type":"Feature"},
	{"geometry":{"coordinates":[-8.868361,39.853107],"type":"Point"},"properties":{"osm_id":"4366360956","tag":{"amenity":"waste_basket","material":"wood"}},"type":"Feature"},
	{"geometry":{"coordinates":[-8.868774,39.853481],"type":"Point"},"properties":{"osm_id":"4366360997","tag":{"amenity":"waste_basket","material":"wood"}},"type":"Feature"},
	{"geometry":{"coordinates":[-8.869976,39.854555],"type":"Point"},"properties":{"osm_id":"4366361132","tag":{"amenity":"waste_basket","material":"metal"}},"type":"Feature"},
	{"geometry":{"coordinates":[-8.869209,39.854602],"type":"Point"},"properties":{"osm_id":"4366361146","tag":{"amenity":"waste_basket","material":"wood"}},"type":"Feature"},
	{"geometry":{"coordinates":[-8.870463,39.854687],"type":"Point"},"properties":{"osm_id":"4366361179","tag":{"amenity":"waste_basket","material":"metal"}},"type":"Feature"},
	{"geometry":{"coordinates":[-8.870124,39.854903],"type":"Point"},"properties":{"osm_id":"4366361250","tag":{"amenity":"waste_basket","material":"metal"}},"type":"Feature"},
	{"geometry":{"coordinates":[-8.868697,39.854963],"type":"Point"},"properties":{"osm_id":"4366361266","tag":{"amenity":"waste_basket","material":"wood"}},"type":"Feature"},
	{"geometry":{"coordinates":[-8.859722,39.85042],"type":"Point"},"properties":{"osm_id":"4367835286","tag":{"amenity":"waste_disposal"}},"type":"Feature"},
	{"geometry":{"coordinates":[-8.859742,39.85042],"type":"Point"},"properties":{"osm_id":"4367835287","tag":{"amenity":"recycling","operator":"Valorlis","recycling:metal":"yes","recycling:plastic":"yes","recycling_type":"container"}},"type":"Feature"},
	{"geometry":{"coordinates":[-8.85979,39.850422],"type":"Point"},"properties":{"osm_id":"4367835288","tag":{"amenity":"recycling","operator":"Valorlis","recycling:cardboard":"yes","recycling:paper":"yes","recycling_type":"container"}},"type":"Feature"},
	{"geometry":{"coordinates":[-8.866902,39.851911],"type":"Point"},"properties":{"osm_id":"4379406429","tag":{"amenity":"waste_basket","colour":"green","material":"plastic","support":"pole"}},"type":"Feature"},
	{"geometry":{"coordinates":[-8.866111,39.85118],"type":"Point"},"properties":{"osm_id":"4380739924","tag":{"amenity":"waste_basket","material":"metal"}},"type":"Feature"},
	{"geometry":{"coordinates":[-8.866202,39.851421],"type":"Point"},"properties":{"osm_id":"4380739932","tag":{"amenity":"recycling","operator":"Valorlis","recycling:cans":"yes","recycling:plastic_bottles":"yes","recycling:plastic_packaging":"yes","recycling_type":"container"}},"type":"Feature"},
	{"geometry":{"coordinates":[-8.866202,39.851439],"type":"Point"},"properties":{"osm_id":"4380739933","tag":{"amenity":"recycling","operator":"Valorlis","recycling:glass":"yes","recycling_type":"container"}},"type":"Feature"},
	{"geometry":{"coordinates":[-8.866203,39.851458],"type":"Point"},"properties":{"osm_id":"4380739934","tag":{"amenity":"recycling","operator":"Valorlis","recycling:cardboard":"yes","recycling:paper":"yes","recycling_type":"container"}},"type":"Feature"},
	{"geometry":{"coordinates":[-8.800547,39.908263],"type":"Point"},"properties":{"osm_id":"7911491182","tag":{"amenity":"recycling","recycling:glass":"yes","recycling:paper":"yes","recycling:plastic":"yes","recycling_type":"container"}},"type":"Feature"}
]
}
