{
"type": "FeatureCollection",
"features": [
	{"geometry":{"coordinates":[-8.860741,39.800971],"type":"Point"},"properties":{"osm_id":"4337293147","tag":{"amenity":"waste_disposal"}},"type":"Feature"},
	{"geometry":{"coordinates":[-8.860745,39.800986],"type":"Point"},"properties":{"osm_id":"4337293148","tag":{"amenity":"waste_disposal"}},"type":"Feature"},
	{"geometry":{"coordinates":[-8.860751,39.801007],"type":"Point"},"properties":{"osm_id":"4337293149","tag":{"amenity":"waste_disposal"}},"type":"Feature"},
	{"geometry":{"coordinates":[-8.860756,39.801032],"type":"Point"},"properties":{"osm_id":"4337293150","tag":{"amenity":"recycling","material":"plastic","recycling:beverage_carton":"yes","recycling:plastic_packaging":"yes","recycling_type":"container"}},"type":"Feature"},
	{"geometry":{"coordinates":[-8.860761,39.801054],"type":"Point"},"properties":{"osm_id":"4337293151","tag":{"amenity":"recycling","material":"plastic","recycling:glass":"yes","recycling_type":"container"}},"type":"Feature"},
	{"geometry":{"coordinates":[-8.860765,39.801072],"type":"Point"},"properties":{"osm_id":"4337293152","tag":{"amenity":"recycling","material":"plastic","recycling:newspaper":"yes","recycling:paper":"yes","recycling_type":"container"}},"type":"Feature"},
	{"geometry":{"coordinates":[-8.860767,39.801088],"type":"Point"},"properties":{"osm_id":"4337293153","tag":{"amenity":"recycling","colour":"brown","material":"plastic","recycling:engine_oil":"yes","recycling_type":"container"}},"type":"Feature"},
	{"geometry":{"coordinates":[-8.860777,39.801127],"type":"Point"},"properties":{"osm_id":"4337293154","tag":{"amenity":"recycling","colour":"green","material":"metal","recycling:clothes":"yes","recycling:shoes":"yes","recycling_type":"container"}},"type":"Feature"},
	{"geometry":{"coordinates":[-8.862461,39.802303],"type":"Point"},"properties":{"osm_id":"4337293203","tag":{"amenity":"waste_disposal"}},"type":"Feature"},
	{"geometry":{"coordinates":[-8.859307,39.798393],"type":"Point"},"properties":{"osm_id":"4341338201","tag":{"amenity":"recycling","recycling:cardboard":"yes","recycling:newspaper":"yes","recycling:paper":"yes","recycling_type":"container"}},"type":"Feature"},
	{"geometry":{"coordinates":[-8.859279,39.798395],"type":"Point"},"properties":{"osm_id":"4341338202","tag":{"amenity":"waste_disposal"}},"type":"Feature"},
	{"geometry":{"coordinates":[-8.859285,39.798397],"type":"Point"},"properties":{"osm_id":"4341338203","tag":{"amenity":"waste_disposal"}},"type":"Feature"},
	{"geometry":{"coordinates":[-8.859292,39.798399],"type":"Point"},"properties":{"osm_id":"4341338204","tag":{"amenity":"waste_disposal"}},"type":"Feature"},
	{"geometry":{"coordinates":[-8.859301,39.798404],"type":"Point"},"properties":{"osm_id":"4341338207","tag":{"amenity":"waste_disposal"}},"type":"Feature"},
	{"geometry":{"coordinates":[-8.860748,39.800995],"type":"Point"},"properties":{"osm_id":"4341338498","tag":{"amenity":"waste_disposal"}},"type":"Feature"},
	{"geometry":{"coordinates":[-8.838102,39.832253],"type":"Point"},"properties":{"osm_id":"4380843218","tag":{"amenity":"waste_disposal"}},"type":"Feature"},
	{"geometry":{"coordinates":[-8.815337,39.834864],"type":"Point"},"properties":{"osm_id":"4391556954","tag":{"amenity":"recycling","operator":"Valorlis","recycling:cardboard":"yes","recycling:paper":"yes","recycling_type":"container"}},"type":"Feature"},
	{"geometry":{"coordinates":[-8.815359,39.834873],"type":"Point"},"properties":{"osm_id":"4391556957","tag":{"amenity":"recycling","operator":"Valorlis","recycling:glass":"yes","recycling_type":"container"}},"type":"Feature"},
	{"geometry":{"coordinates":[-8.815377,39.83488],"type":"Point"},"properties":{"osm_id":"4391556959","tag":{"amenity":"recycling","operator":"Valorlis","recycling:cans":"yes","recycling:plastic_bottles":"yes","recycling:plastic_packaging":"yes","recycling_type":"container"}},"type":"Feature"},
	{"geometry":{"coordinates":[-8.81541,39.834892],"type":"Point"},"properties":{"osm_id":"4391556962","tag":{"amenity":"waste_disposal","operator":"Suma"}},"type":"Feature"},
	{"geometry":{"coordinates":[-8.841889,39.831854],"type":"Point"},"properties":{"osm_id":"4392092889","tag":{"amenity":"recycling","operator":"Valorlis","recycling_type":"container"}},"type":"Feature"},
	{"geometry":{"coordinates":[-8.841907,39.831856],"type":"Point"},"properties":{"osm_id":"4392092890","tag":{"amenity":"recycling","operator":"Valorlis","recycling_type":"container"}},"type":"Feature"},
	{"geometry":{"coordinates":[-8.841932,39.831862],"type":"Point"},"properties":{"osm_id":"4392092891","tag":{"amenity":"recycling","operator":"Valorlis","recycling_type":"container"}},"type":"Feature"},
	{"geometry":{"coordinates":[-8.871473,39.795163],"type":"Point"},"properties":{"osm_id":"4939848692","tag":{"amenity":"waste_basket"}},"type":"Feature"},
	{"geometry":{"coordinates":[-8.801804,39.831401],"type":"Point"},"properties":{"osm_id":"5421912595","tag":{"amenity":"recycling","recycling:glass":"yes","recycling:paper":"yes","recycling:plastic":"yes","recycling_type":"container"}},"type":"Feature"},
	{"geometry":{"coordinates":[-8.804136,39.832567],"type":"Point"},"properties":{"osm_id":"5425487993","tag":{"amenity":"waste_disposal"}},"type":"Feature"},
	{"geometry":{"coordinates":[-8.794961,39.831395],"type":"Point"},"properties":{"osm_id":"5425497631","tag":{"amenity":"waste_disposal"}},"type":"Feature"},
	{"geometry":{"coordinates":[-8.789719,39.777171],"type":"Point"},"properties":{"osm_id":"6106961509","tag":{"amenity":"recycling","recycling:glass":"yes","recycling:paper":"yes","recycling:plastic":"yes","recycling_type":"container"}},"type":"Feature"},
	{"geometry":{"coordinates":[-8.791326,39.830584],"type":"Point"},"properties":{"osm_id":"6123582327","tag":{"amenity":"waste_disposal"}},"type":"Feature"},
	{"geometry":{"coordinates":[-8.857231,39.797463],"type":"Point"},"properties":{"osm_id":"6955968739","tag":{"amenity":"waste_disposal"}},"type":"Feature"},
	{"geometry":{"coordinates":[-8.796543,39.790216],"type":"Point"},"properties":{"osm_id":"6988577219","tag":{"amenity":"recycling","recycling:glass":"yes","recycling:paper":"yes","recycling:plastic":"yes","recycling_type":"container"}},"type":"Feature"}
]
}
