{
"type": "FeatureCollection",
"features": [
	{"geometry":{"coordinates":[-8.867273,37.957045],"type":"Point"},"properties":{"name":"Ecoponto","osm_id":"652056974","tag":{"amenity":"waste_basket"}},"type":"Feature"},
	{"geometry":{"coordinates":[-8.867519,37.95766],"type":"Point"},"properties":{"name":"Eco ponto","osm_id":"655300650","tag":{"amenity":"recycling"}},"type":"Feature"},
	{"geometry":{"coordinates":[-8.872788,37.955482],"type":"Point"},"properties":{"osm_id":"881633377","tag":{"amenity":"recycling"}},"type":"Feature"},
	{"geometry":{"coordinates":[-8.873825,37.956596],"type":"Point"},"properties":{"osm_id":"2407701358","tag":{"addr:city":"Sines","addr:country":"PT","amenity":"recycling"}},"type":"Feature"},
	{"geometry":{"coordinates":[-8.866521,37.955672],"type":"Point"},"properties":{"osm_id":"5041058824","tag":{"amenity":"waste_basket"}},"type":"Feature"},
	{"geometry":{"coordinates":[-8.866193,37.954692],"type":"Point"},"properties":{"osm_id":"5041068303","tag":{"amenity":"waste_basket"}},"type":"Feature"},
	{"geometry":{"coordinates":[-8.865882,37.955377],"type":"Point"},"properties":{"osm_id":"5041068316","tag":{"amenity":"recycling","recycling_type":"container","source:amenity":"survey"}},"type":"Feature"},
	{"geometry":{"coordinates":[-8.86514,37.953606],"type":"Point"},"properties":{"osm_id":"5041068318","tag":{"amenity":"waste_basket"}},"type":"Feature"},
	{"geometry":{"coordinates":[-8.867163,37.954813],"type":"Point"},"properties":{"osm_id":"5041068321","tag":{"amenity":"waste_basket"}},"type":"Feature"},
	{"geometry":{"coordinates":[-8.865987,37.955396],"type":"Point"},"properties":{"osm_id":"5041068328","tag":{"amenity":"waste_basket"}},"type":"Feature"},
	{"geometry":{"coordinates":[-8.869,37.954453],"type":"Point"},"properties":{"osm_id":"5041555580","tag":{"amenity":"recycling"}},"type":"Feature"},
	{"geometry":{"coordinates":[-8.863909,37.956881],"type":"Point"},"properties":{"osm_id":"5041868661","tag":{"amenity":"waste_basket"}},"type":"Feature"},
	{"geometry":{"coordinates":[-8.863822,37.956842],"type":"Point"},"properties":{"osm_id":"5041868667","tag":{"amenity":"waste_basket"}},"type":"Feature"},
	{"geometry":{"coordinates":[-8.864078,37.95716],"type":"Point"},"properties":{"osm_id":"5041868922","tag":{"amenity":"waste_basket"}},"type":"Feature"},
	{"geometry":{"coordinates":[-8.874537,37.952891],"type":"Point"},"properties":{"osm_id":"7159579613","tag":{"amenity":"waste_basket","waste":"trash"}},"type":"Feature"},
	{"geometry":{"coordinates":[-8.807338,37.927529],"type":"Point"},"properties":{"osm_id":"7857671850","tag":{"amenity":"recycling","recycling_type":"container"}},"type":"Feature"}
]
}
