{
"type": "FeatureCollection",
"features": [
	{"geometry":{"coordinates":[-42.492565,-14.071886],"type":"Point"},"properties":{"name":"Ponto de coleta seletiva de lixo","osm_id":"3659222115","tag":{"addr:city":"Caetit\u00c3\u00a9","addr:postcode":"46400-000","addr:street":"Avenida Dom Manoel Raimundode Melo","addr:suburb":"Centro","amenity":"recycling","operator":"Prefeitura Municipal de Caetit\u00c3\u00a9","recycling:cans":"yes","recycling:clothes":"no","recycling:glass":"yes","recycling:paper":"yes","recycling_type":"container"}},"type":"Feature"},
	{"geometry":{"coordinates":[-42.484173,-14.069515],"type":"Point"},"properties":{"osm_id":"3786927895","tag":{"addr:city":"Caetit\u00c3\u00a9","addr:postcode":"46400-000","addr:street":"Pra\u00c3\u00a7a Coronel Cazuzinha","addr:suburb":"Centro","amenity":"recycling","recycling:cans":"yes","recycling:clothes":"no","recycling:glass":"yes","recycling:glass_bottles":"yes","recycling:paper":"yes","recycling:plastic":"yes","recycling_type":"container"}},"type":"Feature"},
	{"geometry":{"coordinates":[-42.484536,-14.065297],"type":"Point"},"properties":{"osm_id":"3832060095","tag":{"addr:city":"Caetit\u00c3\u00a9","addr:postcode":"46400-000","addr:street":"Avenida Waldick Soriano","amenity":"recycling","operator":"Coopercicle","recycling:cans":"yes","recycling:cardboard":"yes","recycling:glass":"yes","recycling:glass_bottles":"yes","recycling:paper":"yes","recycling:plastic":"yes","recycling:plastic_bottles":"yes","recycling:plastic_packaging":"yes","recycling_type":"container"}},"type":"Feature"},
	{"geometry":{"coordinates":[-42.493181,-14.067609],"type":"Point"},"properties":{"name":"Ponto de coleta seletiva de lixo","osm_id":"3944301028","tag":{"addr:city":"Caetit\u00c3\u00a9","addr:postcode":"46400-000","addr:street":"Avenida Professor An\u00c3\u00adsio Teixeira","addr:suburb":"Centro","amenity":"recycling","operator":"Prefeitura Municipal de Caetit\u00c3\u00a9","recycling:cans":"yes","recycling:clothes":"no","recycling:glass":"yes","recycling:paper":"yes","recycling_type":"container"}},"type":"Feature"},
	{"geometry":{"coordinates":[-42.49094,-14.068924],"type":"Point"},"properties":{"osm_id":"4543674195","tag":{"amenity":"waste_basket"}},"type":"Feature"},
	{"geometry":{"coordinates":[-42.490877,-14.068823],"type":"Point"},"properties":{"osm_id":"4543674196","tag":{"amenity":"waste_basket"}},"type":"Feature"},
	{"geometry":{"coordinates":[-42.492076,-14.071037],"type":"Point"},"properties":{"osm_id":"4543674231","tag":{"amenity":"waste_basket"}},"type":"Feature"},
	{"geometry":{"coordinates":[-42.492165,-14.071168],"type":"Point"},"properties":{"osm_id":"4543674232","tag":{"amenity":"waste_basket"}},"type":"Feature"},
	{"geometry":{"coordinates":[-42.492499,-14.071413],"type":"Point"},"properties":{"osm_id":"4543674234","tag":{"amenity":"waste_basket"}},"type":"Feature"},
	{"geometry":{"coordinates":[-42.491508,-14.070714],"type":"Point"},"properties":{"osm_id":"4543674235","tag":{"amenity":"waste_basket"}},"type":"Feature"},
	{"geometry":{"coordinates":[-42.49181,-14.070996],"type":"Point"},"properties":{"osm_id":"4543674236","tag":{"amenity":"waste_basket"}},"type":"Feature"},
	{"geometry":{"coordinates":[-42.491908,-14.071079],"type":"Point"},"properties":{"osm_id":"4543674237","tag":{"amenity":"waste_basket"}},"type":"Feature"},
	{"geometry":{"coordinates":[-42.491988,-14.071143],"type":"Point"},"properties":{"osm_id":"4543674238","tag":{"amenity":"waste_basket"}},"type":"Feature"},
	{"geometry":{"coordinates":[-42.490162,-14.065637],"type":"Point"},"properties":{"osm_id":"4606146337","tag":{"amenity":"recycling","opening_hours":"24/7","operator":"Coopercicle","recycling:cans":"yes","recycling:cardboard":"yes","recycling:glass":"yes","recycling:glass_bottles":"yes","recycling:paper":"yes","recycling:plastic":"yes","recycling:plastic_bottles":"yes","recycling:plastic_packaging":"yes","recycling:scrap_metal":"yes","recycling_type":"container","wheelchair":"no"}},"type":"Feature"},
	{"geometry":{"coordinates":[-42.483623,-14.059578],"type":"Point"},"properties":{"osm_id":"6616414822","tag":{"amenity":"recycling","operator":"Coopercicle","recycling:cans":"yes","recycling:cardboard":"yes","recycling:glass":"yes","recycling:glass_bottles":"yes","recycling:paper":"yes","recycling:plastic":"yes","recycling:plastic_bottles":"yes","recycling:plastic_packaging":"yes","recycling_type":"container","wheelchair":"no"}},"type":"Feature"},
	{"geometry":{"coordinates":[-42.480286,-14.068234],"type":"Point"},"properties":{"osm_id":"7248604797","tag":{"addr:city":"Caetit\u00c3\u00a9","addr:postcode":"46400-000","addr:street":"Rua 12 de Outubro","amenity":"recycling","operator":"Coopercicle","recycling:cans":"yes","recycling:cardboard":"yes","recycling:glass":"yes","recycling:glass_bottles":"yes","recycling:paper":"yes","recycling:plastic":"yes","recycling:plastic_bottles":"yes","recycling:plastic_packaging":"yes","recycling_type":"container"}},"type":"Feature"}
]
}
