{
"type": "FeatureCollection",
"features": [
	{"geometry":{"coordinates":[69.058205,61.008867],"type":"Point"},"properties":{"osm_id":"2313792495","tag":{"amenity":"waste_disposal"}},"type":"Feature"},
	{"geometry":{"coordinates":[69.008619,61.005217],"type":"Point"},"properties":{"osm_id":"2883792575","tag":{"amenity":"recycling"}},"type":"Feature"},
	{"geometry":{"coordinates":[68.99974,61.006372],"type":"Point"},"properties":{"osm_id":"2883792586","tag":{"amenity":"waste_disposal"}},"type":"Feature"},
	{"geometry":{"coordinates":[69.037584,60.988012],"type":"Point"},"properties":{"osm_id":"4284079937","tag":{"amenity":"waste_disposal"}},"type":"Feature"},
	{"geometry":{"coordinates":[69.054121,61.015187],"type":"Point"},"properties":{"osm_id":"4315093790","tag":{"amenity":"waste_disposal","operator":"\u00d0\u0094\u00d0\u00ad\u00d0\u0097"}},"type":"Feature"},
	{"geometry":{"coordinates":[69.035841,61.010029],"type":"Point"},"properties":{"osm_id":"4315239992","tag":{"amenity":"waste_disposal","operator":"\u00d0\u0094\u00d0\u00ad\u00d0\u0097"}},"type":"Feature"},
	{"geometry":{"coordinates":[69.049962,61.014961],"type":"Point"},"properties":{"osm_id":"4336825892","tag":{"amenity":"waste_disposal"}},"type":"Feature"},
	{"geometry":{"coordinates":[69.051846,61.014589],"type":"Point"},"properties":{"osm_id":"4336825893","tag":{"amenity":"waste_disposal"}},"type":"Feature"},
	{"geometry":{"coordinates":[69.051424,61.015518],"type":"Point"},"properties":{"osm_id":"4336891889","tag":{"amenity":"waste_disposal"}},"type":"Feature"},
	{"geometry":{"coordinates":[69.053842,61.015201],"type":"Point"},"properties":{"osm_id":"4336891989","tag":{"amenity":"waste_basket"}},"type":"Feature"},
	{"geometry":{"coordinates":[69.054258,61.014452],"type":"Point"},"properties":{"osm_id":"4346472110","tag":{"amenity":"waste_disposal"}},"type":"Feature"},
	{"geometry":{"coordinates":[69.044129,61.008093],"type":"Point"},"properties":{"osm_id":"4379264900","tag":{"amenity":"waste_disposal"}},"type":"Feature"},
	{"geometry":{"coordinates":[69.034567,61.008411],"type":"Point"},"properties":{"osm_id":"4402129192","tag":{"amenity":"waste_disposal"}},"type":"Feature"},
	{"geometry":{"coordinates":[69.04872,61.011036],"type":"Point"},"properties":{"osm_id":"4402129193","tag":{"amenity":"waste_disposal"}},"type":"Feature"},
	{"geometry":{"coordinates":[69.045275,61.014025],"type":"Point"},"properties":{"osm_id":"4402129194","tag":{"amenity":"waste_disposal"}},"type":"Feature"},
	{"geometry":{"coordinates":[69.03795,61.008412],"type":"Point"},"properties":{"osm_id":"4402135190","tag":{"amenity":"waste_disposal"}},"type":"Feature"},
	{"geometry":{"coordinates":[69.048269,61.009809],"type":"Point"},"properties":{"osm_id":"4424819889","tag":{"amenity":"waste_disposal"}},"type":"Feature"},
	{"geometry":{"coordinates":[69.045406,61.013055],"type":"Point"},"properties":{"osm_id":"4456253594","tag":{"amenity":"waste_disposal"}},"type":"Feature"},
	{"geometry":{"coordinates":[69.038145,61.010356],"type":"Point"},"properties":{"osm_id":"4456253595","tag":{"amenity":"waste_disposal"}},"type":"Feature"},
	{"geometry":{"coordinates":[69.042434,61.012908],"type":"Point"},"properties":{"osm_id":"4456261190","tag":{"amenity":"waste_disposal"}},"type":"Feature"},
	{"geometry":{"coordinates":[69.042085,61.011373],"type":"Point"},"properties":{"osm_id":"4456261191","tag":{"amenity":"waste_disposal"}},"type":"Feature"},
	{"geometry":{"coordinates":[69.04664,61.005057],"type":"Point"},"properties":{"osm_id":"4587219689","tag":{"amenity":"waste_disposal","operator":"\u00d0\u0094\u00d0\u00a0\u00d0\u00a1\u00d0\u00a3"}},"type":"Feature"},
	{"geometry":{"coordinates":[69.044414,61.004495],"type":"Point"},"properties":{"osm_id":"4641905489","tag":{"amenity":"waste_disposal","operator":"\u00d0\u0094\u00d0\u00a0\u00d0\u00a1\u00d0\u00a3"}},"type":"Feature"},
	{"geometry":{"coordinates":[69.021379,60.975746],"type":"Point"},"properties":{"osm_id":"4770777258","tag":{"amenity":"waste_disposal"}},"type":"Feature"},
	{"geometry":{"coordinates":[69.02081,60.973908],"type":"Point"},"properties":{"osm_id":"4770777259","tag":{"amenity":"waste_disposal"}},"type":"Feature"},
	{"geometry":{"coordinates":[69.025752,61.008588],"type":"Point"},"properties":{"osm_id":"5119741523","tag":{"amenity":"waste_disposal"}},"type":"Feature"},
	{"geometry":{"coordinates":[69.030533,61.012256],"type":"Point"},"properties":{"osm_id":"5133216298","tag":{"amenity":"waste_disposal"}},"type":"Feature"},
	{"geometry":{"coordinates":[69.029912,61.009777],"type":"Point"},"properties":{"osm_id":"5133216299","tag":{"amenity":"waste_disposal"}},"type":"Feature"},
	{"geometry":{"coordinates":[69.039299,61.010948],"type":"Point"},"properties":{"osm_id":"5213791421","tag":{"amenity":"waste_disposal"}},"type":"Feature"},
	{"geometry":{"coordinates":[69.011383,61.007741],"type":"Point"},"properties":{"osm_id":"5260111221","tag":{"amenity":"waste_disposal"}},"type":"Feature"},
	{"geometry":{"coordinates":[69.043918,60.985467],"type":"Point"},"properties":{"osm_id":"5648956002","tag":{"amenity":"waste_disposal"}},"type":"Feature"},
	{"geometry":{"coordinates":[69.043065,60.98812],"type":"Point"},"properties":{"osm_id":"5649280186","tag":{"amenity":"waste_disposal"}},"type":"Feature"},
	{"geometry":{"coordinates":[69.051645,61.003743],"type":"Point"},"properties":{"osm_id":"5656165710","tag":{"amenity":"waste_disposal"}},"type":"Feature"},
	{"geometry":{"coordinates":[69.043662,61.005839],"type":"Point"},"properties":{"osm_id":"5656166239","tag":{"amenity":"waste_disposal"}},"type":"Feature"},
	{"geometry":{"coordinates":[69.043446,61.005803],"type":"Point"},"properties":{"osm_id":"5656166240","tag":{"amenity":"waste_disposal"}},"type":"Feature"},
	{"geometry":{"coordinates":[69.048787,60.983018],"type":"Point"},"properties":{"osm_id":"5664599815","tag":{"amenity":"waste_disposal"}},"type":"Feature"},
	{"geometry":{"coordinates":[69.056241,61.001518],"type":"Point"},"properties":{"osm_id":"5664602137","tag":{"amenity":"waste_disposal"}},"type":"Feature"},
	{"geometry":{"coordinates":[69.057285,61.008125],"type":"Point"},"properties":{"osm_id":"5670138067","tag":{"amenity":"waste_disposal"}},"type":"Feature"},
	{"geometry":{"coordinates":[69.056092,61.008999],"type":"Point"},"properties":{"osm_id":"5670138090","tag":{"amenity":"waste_disposal"}},"type":"Feature"},
	{"geometry":{"coordinates":[69.014204,61.004526],"type":"Point"},"properties":{"osm_id":"5678198224","tag":{"amenity":"waste_disposal"}},"type":"Feature"},
	{"geometry":{"coordinates":[69.042345,61.00557],"type":"Point"},"properties":{"osm_id":"5695753763","tag":{"amenity":"waste_disposal"}},"type":"Feature"},
	{"geometry":{"coordinates":[69.043774,61.006665],"type":"Point"},"properties":{"osm_id":"5695764379","tag":{"amenity":"waste_disposal","operator":"\u00d0\u0094\u00d0\u00a0\u00d0\u00a1\u00d0\u00a3"}},"type":"Feature"},
	{"geometry":{"coordinates":[69.046622,61.007153],"type":"Point"},"properties":{"osm_id":"5695787892","tag":{"amenity":"waste_disposal"}},"type":"Feature"},
	{"geometry":{"coordinates":[68.998151,61.005093],"type":"Point"},"properties":{"osm_id":"5993810683","tag":{"amenity":"waste_disposal"}},"type":"Feature"}
]
}
