{
"type": "FeatureCollection",
"lastupdate": "2020-08-01T00:00:00Z",
"features": [
	{"geometry":{"coordinates":[-63.528444,44.674839],"type":"Point"},"properties":{"name":"Bluenose Bottle Exchange","osm_id":"4550019268","tag":{"addr:city":"Dartmouth","addr:housenumber":"99","addr:postcode":"B2W 2S6","addr:province":"Nova Scotia","addr:street":"Woodlawn Road","amenity":"recycling","recycling:bottles":"yes","recycling:cans":"yes","recycling:electronics":"yes","recycling_type":"centre"}},"type":"Feature"},
	{"geometry":{"coordinates":[-63.485405,44.685681],"type":"Point"},"properties":{"osm_id":"4833290619","tag":{"addr:city":"Cole Harbour","addr:housenumber":"360","addr:postcode":"B2W 6E1","addr:province":"Nova Scotia","addr:street":"Auburn Drive","amenity":"waste_basket"}},"type":"Feature"},
	{"geometry":{"coordinates":[-63.485622,44.68641],"type":"Point"},"properties":{"osm_id":"4833290620","tag":{"amenity":"waste_basket"}},"type":"Feature"},
	{"geometry":{"coordinates":[-63.490077,44.679825],"type":"Point"},"properties":{"osm_id":"4849832058","tag":{"amenity":"waste_basket"}},"type":"Feature"}
]
}
