{
"type": "FeatureCollection",
"lastupdate": "2020-08-06T00:00:00Z",
"features": [
	{"geometry":{"coordinates":[152.957255,-27.093182],"type":"Point"},"properties":{"osm_id":"2409844520","tag":{"amenity":"waste_basket"}},"type":"Feature"},
	{"geometry":{"coordinates":[152.959548,-27.095216],"type":"Point"},"properties":{"osm_id":"2409844602","tag":{"amenity":"waste_basket"}},"type":"Feature"},
	{"geometry":{"coordinates":[152.990695,-27.073718],"type":"Point"},"properties":{"name":"Caboolture Landfill & Transfer Station","osm_id":"2771575191","tag":{"amenity":"recycling"}},"type":"Feature"},
	{"geometry":{"coordinates":[152.973794,-27.077649],"type":"Point"},"properties":{"osm_id":"3374319811","tag":{"amenity":"waste_basket"}},"type":"Feature"},
	{"geometry":{"coordinates":[152.985879,-27.120734],"type":"Point"},"properties":{"osm_id":"5243845841","tag":{"amenity":"waste_basket"}},"type":"Feature"},
	{"geometry":{"coordinates":[152.946672,-27.111907],"type":"Point"},"properties":{"osm_id":"5474620572","tag":{"amenity":"waste_basket"}},"type":"Feature"},
	{"geometry":{"coordinates":[152.938984,-27.123921],"type":"Point"},"properties":{"osm_id":"5474620835","tag":{"amenity":"waste_basket"}},"type":"Feature"},
	{"geometry":{"coordinates":[152.930976,-27.060698],"type":"Point"},"properties":{"osm_id":"5649296967","tag":{"amenity":"waste_basket","waste":"trash"}},"type":"Feature"},
	{"geometry":{"coordinates":[152.945332,-27.101237],"type":"Point"},"properties":{"osm_id":"5918311726","tag":{"amenity":"waste_basket"}},"type":"Feature"},
	{"geometry":{"coordinates":[152.945074,-27.101058],"type":"Point"},"properties":{"osm_id":"5918311727","tag":{"amenity":"waste_basket"}},"type":"Feature"},
	{"geometry":{"coordinates":[152.95845,-27.097014],"type":"Point"},"properties":{"osm_id":"6062398055","tag":{"amenity":"waste_basket"}},"type":"Feature"},
	{"geometry":{"coordinates":[152.963034,-27.09421],"type":"Point"},"properties":{"osm_id":"7682690623","tag":{"amenity":"recycling","recycling:cans":"yes","recycling:cardboard":"yes","recycling:glass_bottles":"yes","recycling:paper":"yes","recycling:plastic_bottles":"yes","recycling_type":"container"}},"type":"Feature"},
	{"geometry":{"coordinates":[152.963034,-27.094218],"type":"Point"},"properties":{"osm_id":"7682690624","tag":{"amenity":"waste_basket","waste":"trash"}},"type":"Feature"}
]
}
