{
"type": "FeatureCollection",
"features": [
	{"geometry":{"coordinates":[153.008076,-27.219182],"type":"Point"},"properties":{"osm_id":"1342078794","tag":{"amenity":"waste_basket"}},"type":"Feature"},
	{"geometry":{"coordinates":[153.010911,-27.216161],"type":"Point"},"properties":{"osm_id":"1342078989","tag":{"amenity":"waste_basket"}},"type":"Feature"},
	{"geometry":{"coordinates":[153.008076,-27.219141],"type":"Point"},"properties":{"osm_id":"1342078992","tag":{"amenity":"waste_basket"}},"type":"Feature"},
	{"geometry":{"coordinates":[153.004527,-27.222055],"type":"Point"},"properties":{"osm_id":"1346598653","tag":{"amenity":"waste_basket"}},"type":"Feature"},
	{"geometry":{"coordinates":[153.003897,-27.218735],"type":"Point"},"properties":{"osm_id":"1346598716","tag":{"amenity":"waste_basket"}},"type":"Feature"},
	{"geometry":{"coordinates":[153.006145,-27.222301],"type":"Point"},"properties":{"osm_id":"1346598740","tag":{"amenity":"waste_basket"}},"type":"Feature"},
	{"geometry":{"coordinates":[153.015865,-27.237708],"type":"Point"},"properties":{"osm_id":"1348962235","tag":{"amenity":"waste_basket"}},"type":"Feature"},
	{"geometry":{"coordinates":[153.015923,-27.234377],"type":"Point"},"properties":{"osm_id":"1348962316","tag":{"amenity":"waste_basket"}},"type":"Feature"},
	{"geometry":{"coordinates":[153.01551,-27.235073],"type":"Point"},"properties":{"osm_id":"1348962469","tag":{"amenity":"waste_basket"}},"type":"Feature"},
	{"geometry":{"coordinates":[152.991687,-27.224729],"type":"Point"},"properties":{"name":"Moreton Bay Regional Council Dakabin waste management facility","osm_id":"2264493090","tag":{"amenity":"recycling","recycling_type":"centre"}},"type":"Feature"},
	{"geometry":{"coordinates":[152.992147,-27.224869],"type":"Point"},"properties":{"name":"Recycling","osm_id":"2264493096","tag":{"amenity":"recycling","recycling:batteries":"yes","recycling:cans":"yes","recycling:scrap_metal":"yes","recycling_type":"centre"}},"type":"Feature"},
	{"geometry":{"coordinates":[152.999757,-27.222567],"type":"Point"},"properties":{"osm_id":"2537586177","tag":{"amenity":"waste_basket"}},"type":"Feature"},
	{"geometry":{"coordinates":[153.000826,-27.224746],"type":"Point"},"properties":{"osm_id":"2537586187","tag":{"amenity":"waste_basket"}},"type":"Feature"},
	{"geometry":{"coordinates":[153.009903,-27.236377],"type":"Point"},"properties":{"osm_id":"2541113389","tag":{"amenity":"waste_basket"}},"type":"Feature"},
	{"geometry":{"coordinates":[153.009754,-27.23684],"type":"Point"},"properties":{"osm_id":"2541113398","tag":{"amenity":"waste_basket"}},"type":"Feature"},
	{"geometry":{"coordinates":[152.999128,-27.226981],"type":"Point"},"properties":{"name":"green waste","osm_id":"3110662088","tag":{"amenity":"recycling","recycling:green_waste":"yes"}},"type":"Feature"},
	{"geometry":{"coordinates":[153.002979,-27.221554],"type":"Point"},"properties":{"osm_id":"5602458697","tag":{"amenity":"waste_basket","waste":"trash"}},"type":"Feature"},
	{"geometry":{"coordinates":[152.994655,-27.22456],"type":"Point"},"properties":{"osm_id":"5791197212","tag":{"amenity":"recycling","recycling:waste":"yes"}},"type":"Feature"},
	{"geometry":{"coordinates":[152.997499,-27.226768],"type":"Point"},"properties":{"osm_id":"5791197228","tag":{"amenity":"recycling"}},"type":"Feature"},
	{"geometry":{"coordinates":[152.999632,-27.227169],"type":"Point"},"properties":{"name":"wood","osm_id":"5791197241","tag":{"amenity":"recycling"}},"type":"Feature"},
	{"geometry":{"coordinates":[152.995687,-27.222807],"type":"Point"},"properties":{"name":"Steel","osm_id":"7436818651","tag":{"amenity":"recycling","recycling_type":"centre"}},"type":"Feature"},
	{"geometry":{"coordinates":[152.954351,-27.292491],"type":"Point"},"properties":{"osm_id":"7461443618","tag":{"amenity":"waste_basket"}},"type":"Feature"},
	{"geometry":{"coordinates":[152.961174,-27.274856],"type":"Point"},"properties":{"osm_id":"7462303698","tag":{"amenity":"waste_basket"}},"type":"Feature"},
	{"geometry":{"coordinates":[152.959271,-27.271542],"type":"Point"},"properties":{"osm_id":"7462303700","tag":{"amenity":"waste_basket"}},"type":"Feature"},
	{"geometry":{"coordinates":[152.957728,-27.267295],"type":"Point"},"properties":{"osm_id":"7462303706","tag":{"amenity":"waste_basket"}},"type":"Feature"},
	{"geometry":{"coordinates":[152.949472,-27.279274],"type":"Point"},"properties":{"osm_id":"7462303717","tag":{"amenity":"waste_basket"}},"type":"Feature"},
	{"geometry":{"coordinates":[152.997537,-27.238738],"type":"Point"},"properties":{"osm_id":"8653740329","tag":{"amenity":"waste_basket"}},"type":"Feature"},
	{"geometry":{"coordinates":[152.997862,-27.219367],"type":"Point"},"properties":{"name":"Containers for Change","osm_id":"8768463729","tag":{"amenity":"recycling","opening_hours":"Mo-Fr 08:00-17:00; Sa 09:00-16:00; Su 10:00-16:00","opening_hours:covid19":"same","operator":"Return-It","phone:AU":"13 42 42","recycling:cans":"yes","recycling:glass_bottles":"yes","recycling:plastic_bottles":"yes","recycling_type":"centre","vending":"bottle_return","website":"https://www.containersforchange.com.au/qld/where-to-return?sn=QC12027193"}},"type":"Feature"}
]
}
