{
"type": "FeatureCollection",
"features": [
	{"geometry":{"coordinates":[152.989414,-27.31122],"type":"Point"},"properties":{"osm_id":"436250806","tag":{"amenity":"waste_basket"}},"type":"Feature"},
	{"geometry":{"coordinates":[152.988552,-27.309177],"type":"Point"},"properties":{"osm_id":"436250812","tag":{"amenity":"waste_basket"}},"type":"Feature"},
	{"geometry":{"coordinates":[152.990648,-27.311981],"type":"Point"},"properties":{"osm_id":"441032925","tag":{"amenity":"waste_basket"}},"type":"Feature"},
	{"geometry":{"coordinates":[152.985643,-27.309885],"type":"Point"},"properties":{"osm_id":"441605686","tag":{"amenity":"waste_basket"}},"type":"Feature"},
	{"geometry":{"coordinates":[152.989605,-27.31115],"type":"Point"},"properties":{"osm_id":"442432525","tag":{"amenity":"waste_basket"}},"type":"Feature"},
	{"geometry":{"coordinates":[152.990149,-27.311116],"type":"Point"},"properties":{"osm_id":"442432542","tag":{"amenity":"waste_basket"}},"type":"Feature"},
	{"geometry":{"coordinates":[152.983563,-27.310358],"type":"Point"},"properties":{"osm_id":"580356063","tag":{"amenity":"waste_basket"}},"type":"Feature"},
	{"geometry":{"coordinates":[152.987772,-27.304627],"type":"Point"},"properties":{"osm_id":"647601354","tag":{"amenity":"waste_basket"}},"type":"Feature"},
	{"geometry":{"coordinates":[152.995865,-27.308013],"type":"Point"},"properties":{"osm_id":"726581768","tag":{"amenity":"waste_basket","natural":"tree"}},"type":"Feature"},
	{"geometry":{"coordinates":[153.003877,-27.316208],"type":"Point"},"properties":{"name":"Charity Collection Bins","osm_id":"2599146947","tag":{"amenity":"recycling","recycling:clothes":"yes"}},"type":"Feature"},
	{"geometry":{"coordinates":[152.930221,-27.296119],"type":"Point"},"properties":{"osm_id":"3463016256","tag":{"amenity":"waste_basket"}},"type":"Feature"},
	{"geometry":{"coordinates":[152.972981,-27.355753],"type":"Point"},"properties":{"osm_id":"4631368161","tag":{"amenity":"waste_basket"}},"type":"Feature"},
	{"geometry":{"coordinates":[152.952792,-27.33156],"type":"Point"},"properties":{"osm_id":"6014918409","tag":{"amenity":"waste_basket"}},"type":"Feature"},
	{"geometry":{"coordinates":[152.953044,-27.33294],"type":"Point"},"properties":{"osm_id":"6072407250","tag":{"amenity":"waste_basket"}},"type":"Feature"},
	{"geometry":{"coordinates":[152.954308,-27.306161],"type":"Point"},"properties":{"osm_id":"6217650373","tag":{"amenity":"waste_basket"}},"type":"Feature"},
	{"geometry":{"coordinates":[152.955734,-27.305509],"type":"Point"},"properties":{"osm_id":"6217650380","tag":{"amenity":"waste_basket"}},"type":"Feature"},
	{"geometry":{"coordinates":[152.972849,-27.342891],"type":"Point"},"properties":{"osm_id":"6217666931","tag":{"amenity":"waste_basket"}},"type":"Feature"},
	{"geometry":{"coordinates":[152.972485,-27.345363],"type":"Point"},"properties":{"osm_id":"6217666933","tag":{"amenity":"waste_basket"}},"type":"Feature"},
	{"geometry":{"coordinates":[152.972781,-27.348417],"type":"Point"},"properties":{"osm_id":"6217666953","tag":{"amenity":"waste_basket"}},"type":"Feature"},
	{"geometry":{"coordinates":[152.955232,-27.30836],"type":"Point"},"properties":{"osm_id":"6243391257","tag":{"amenity":"waste_basket"}},"type":"Feature"},
	{"geometry":{"coordinates":[152.99027,-27.370951],"type":"Point"},"properties":{"osm_id":"6315306955","tag":{"amenity":"waste_basket"}},"type":"Feature"},
	{"geometry":{"coordinates":[152.961347,-27.347818],"type":"Point"},"properties":{"osm_id":"6353486118","tag":{"amenity":"waste_basket"}},"type":"Feature"},
	{"geometry":{"coordinates":[152.964252,-27.34496],"type":"Point"},"properties":{"osm_id":"6353486142","tag":{"amenity":"waste_basket"}},"type":"Feature"},
	{"geometry":{"coordinates":[152.971712,-27.351591],"type":"Point"},"properties":{"osm_id":"6366349559","tag":{"amenity":"waste_basket"}},"type":"Feature"},
	{"geometry":{"coordinates":[152.971493,-27.351443],"type":"Point"},"properties":{"osm_id":"6366349562","tag":{"amenity":"waste_basket"}},"type":"Feature"},
	{"geometry":{"coordinates":[152.962877,-27.345572],"type":"Point"},"properties":{"osm_id":"6366409004","tag":{"amenity":"waste_basket"}},"type":"Feature"},
	{"geometry":{"coordinates":[152.976037,-27.346164],"type":"Point"},"properties":{"osm_id":"6374809750","tag":{"amenity":"waste_basket"}},"type":"Feature"},
	{"geometry":{"coordinates":[152.977319,-27.346875],"type":"Point"},"properties":{"osm_id":"6374809760","tag":{"amenity":"waste_basket"}},"type":"Feature"},
	{"geometry":{"coordinates":[152.97452,-27.358345],"type":"Point"},"properties":{"osm_id":"6375165201","tag":{"amenity":"waste_basket"}},"type":"Feature"},
	{"geometry":{"coordinates":[152.974981,-27.358206],"type":"Point"},"properties":{"osm_id":"6375165231","tag":{"amenity":"waste_basket"}},"type":"Feature"},
	{"geometry":{"coordinates":[152.977274,-27.348281],"type":"Point"},"properties":{"osm_id":"6375305003","tag":{"amenity":"waste_basket"}},"type":"Feature"},
	{"geometry":{"coordinates":[152.976225,-27.345639],"type":"Point"},"properties":{"osm_id":"6375305042","tag":{"amenity":"waste_basket"}},"type":"Feature"},
	{"geometry":{"coordinates":[152.961449,-27.312825],"type":"Point"},"properties":{"osm_id":"6399645710","tag":{"amenity":"waste_basket"}},"type":"Feature"},
	{"geometry":{"coordinates":[152.961442,-27.313073],"type":"Point"},"properties":{"osm_id":"6399645716","tag":{"amenity":"waste_basket","waste":"dog_excrement"}},"type":"Feature"},
	{"geometry":{"coordinates":[152.987893,-27.306911],"type":"Point"},"properties":{"osm_id":"6978611924","tag":{"amenity":"waste_basket","waste":"dog_excrement"}},"type":"Feature"},
	{"geometry":{"coordinates":[153.012946,-27.363522],"type":"Point"},"properties":{"osm_id":"7058950792","tag":{"amenity":"waste_basket"}},"type":"Feature"},
	{"geometry":{"coordinates":[152.987514,-27.304752],"type":"Point"},"properties":{"osm_id":"7099269044","tag":{"amenity":"waste_basket"}},"type":"Feature"},
	{"geometry":{"coordinates":[152.961305,-27.355227],"type":"Point"},"properties":{"osm_id":"7237976253","tag":{"amenity":"waste_basket","waste":"trash"}},"type":"Feature"},
	{"geometry":{"coordinates":[152.961214,-27.35498],"type":"Point"},"properties":{"osm_id":"7237976258","tag":{"amenity":"waste_basket","waste":"trash"}},"type":"Feature"},
	{"geometry":{"coordinates":[152.98262,-27.365318],"type":"Point"},"properties":{"osm_id":"7349923919","tag":{"amenity":"waste_basket"}},"type":"Feature"},
	{"geometry":{"coordinates":[152.999264,-27.363246],"type":"Point"},"properties":{"osm_id":"7374801268","tag":{"amenity":"waste_basket"}},"type":"Feature"},
	{"geometry":{"coordinates":[152.953948,-27.332331],"type":"Point"},"properties":{"osm_id":"7451840920","tag":{"amenity":"waste_basket"}},"type":"Feature"},
	{"geometry":{"coordinates":[153.009692,-27.322498],"type":"Point"},"properties":{"osm_id":"7465186461","tag":{"amenity":"waste_basket"}},"type":"Feature"},
	{"geometry":{"coordinates":[153.012965,-27.321841],"type":"Point"},"properties":{"osm_id":"7488500304","tag":{"amenity":"waste_basket"}},"type":"Feature"}
]
}
