{
"type": "FeatureCollection",
"features": [
	{"geometry":{"coordinates":[153.01361,-27.505724],"type":"Point"},"properties":{"osm_id":"316883867","tag":{"amenity":"waste_disposal","waste":"trash;recycling"}},"type":"Feature"},
	{"geometry":{"coordinates":[153.01209,-27.505772],"type":"Point"},"properties":{"osm_id":"316883869","tag":{"amenity":"waste_disposal","waste":"trash"}},"type":"Feature"},
	{"geometry":{"coordinates":[153.005433,-27.506228],"type":"Point"},"properties":{"osm_id":"316885167","tag":{"amenity":"waste_disposal","waste":"trash"}},"type":"Feature"},
	{"geometry":{"coordinates":[153.004881,-27.507861],"type":"Point"},"properties":{"osm_id":"316885168","tag":{"amenity":"waste_disposal","waste":"trash"}},"type":"Feature"},
	{"geometry":{"coordinates":[153.01632,-27.4786],"type":"Point"},"properties":{"osm_id":"457959701","tag":{"amenity":"waste_basket"}},"type":"Feature"},
	{"geometry":{"coordinates":[153.016621,-27.478868],"type":"Point"},"properties":{"osm_id":"457959702","tag":{"amenity":"waste_basket"}},"type":"Feature"},
	{"geometry":{"coordinates":[153.016724,-27.479394],"type":"Point"},"properties":{"osm_id":"457959706","tag":{"amenity":"waste_basket"}},"type":"Feature"},
	{"geometry":{"coordinates":[153.016202,-27.479727],"type":"Point"},"properties":{"osm_id":"457959763","tag":{"amenity":"waste_basket"}},"type":"Feature"},
	{"geometry":{"coordinates":[153.015762,-27.47939],"type":"Point"},"properties":{"osm_id":"457959764","tag":{"amenity":"waste_basket"}},"type":"Feature"},
	{"geometry":{"coordinates":[153.0154,-27.478965],"type":"Point"},"properties":{"osm_id":"457959766","tag":{"amenity":"waste_basket"}},"type":"Feature"},
	{"geometry":{"coordinates":[153.004074,-27.453107],"type":"Point"},"properties":{"osm_id":"705724581","tag":{"amenity":"waste_basket"}},"type":"Feature"},
	{"geometry":{"coordinates":[152.992272,-27.459543],"type":"Point"},"properties":{"osm_id":"705729427","tag":{"amenity":"waste_basket"}},"type":"Feature"},
	{"geometry":{"coordinates":[152.992363,-27.485781],"type":"Point"},"properties":{"osm_id":"1305545463","tag":{"amenity":"waste_disposal"}},"type":"Feature"},
	{"geometry":{"coordinates":[152.979621,-27.476202],"type":"Point"},"properties":{"osm_id":"3544478612","tag":{"amenity":"waste_basket"}},"type":"Feature"},
	{"geometry":{"coordinates":[152.979622,-27.476211],"type":"Point"},"properties":{"osm_id":"3544478613","tag":{"amenity":"recycling","recycling_type":"container"}},"type":"Feature"},
	{"geometry":{"coordinates":[152.980385,-27.476915],"type":"Point"},"properties":{"osm_id":"3544478627","tag":{"amenity":"waste_basket"}},"type":"Feature"},
	{"geometry":{"coordinates":[152.980386,-27.476923],"type":"Point"},"properties":{"osm_id":"3544478628","tag":{"amenity":"recycling","recycling_type":"container"}},"type":"Feature"},
	{"geometry":{"coordinates":[153.017524,-27.497682],"type":"Point"},"properties":{"osm_id":"3987321499","tag":{"amenity":"waste_basket"}},"type":"Feature"},
	{"geometry":{"coordinates":[152.97623,-27.475306],"type":"Point"},"properties":{"osm_id":"4135854399","tag":{"amenity":"waste_basket"}},"type":"Feature"},
	{"geometry":{"coordinates":[153.012311,-27.479335],"type":"Point"},"properties":{"osm_id":"4415960449","tag":{"amenity":"waste_basket"}},"type":"Feature"},
	{"geometry":{"coordinates":[153.012435,-27.479235],"type":"Point"},"properties":{"osm_id":"4415960450","tag":{"amenity":"waste_basket"}},"type":"Feature"},
	{"geometry":{"coordinates":[153.012361,-27.479119],"type":"Point"},"properties":{"osm_id":"4415960451","tag":{"amenity":"waste_basket"}},"type":"Feature"},
	{"geometry":{"coordinates":[153.012506,-27.478928],"type":"Point"},"properties":{"osm_id":"4415960452","tag":{"amenity":"waste_basket"}},"type":"Feature"},
	{"geometry":{"coordinates":[153.012579,-27.478493],"type":"Point"},"properties":{"osm_id":"4415960466","tag":{"amenity":"waste_basket"}},"type":"Feature"},
	{"geometry":{"coordinates":[153.012691,-27.477846],"type":"Point"},"properties":{"osm_id":"4415960476","tag":{"amenity":"waste_basket"}},"type":"Feature"},
	{"geometry":{"coordinates":[153.002309,-27.484968],"type":"Point"},"properties":{"osm_id":"4464465590","tag":{"amenity":"waste_basket"}},"type":"Feature"},
	{"geometry":{"coordinates":[153.006393,-27.476061],"type":"Point"},"properties":{"osm_id":"4556177203","tag":{"amenity":"waste_basket"}},"type":"Feature"},
	{"geometry":{"coordinates":[153.016171,-27.497401],"type":"Point"},"properties":{"osm_id":"4568000189","tag":{"amenity":"waste_basket"}},"type":"Feature"},
	{"geometry":{"coordinates":[152.999311,-27.483599],"type":"Point"},"properties":{"osm_id":"4587836872","tag":{"amenity":"waste_basket"}},"type":"Feature"},
	{"geometry":{"coordinates":[152.938261,-27.508409],"type":"Point"},"properties":{"name":"McIntyre Recycle Centre","osm_id":"4967535114","tag":{"addr:housenumber":"2069","addr:postcode":"4069","addr:street":"Moggill Road","amenity":"recycling","recycling_type":"centre"}},"type":"Feature"},
	{"geometry":{"coordinates":[153.011829,-27.496908],"type":"Point"},"properties":{"osm_id":"5023437514","tag":{"amenity":"waste_basket"}},"type":"Feature"},
	{"geometry":{"coordinates":[153.011433,-27.496668],"type":"Point"},"properties":{"osm_id":"5023437515","tag":{"amenity":"waste_basket"}},"type":"Feature"},
	{"geometry":{"coordinates":[153.016506,-27.474892],"type":"Point"},"properties":{"osm_id":"5136616002","tag":{"amenity":"waste_basket"}},"type":"Feature"},
	{"geometry":{"coordinates":[152.948669,-27.506162],"type":"Point"},"properties":{"osm_id":"5136900650","tag":{"amenity":"waste_basket"}},"type":"Feature"},
	{"geometry":{"coordinates":[153.016621,-27.471709],"type":"Point"},"properties":{"osm_id":"5149245032","tag":{"amenity":"waste_basket"}},"type":"Feature"},
	{"geometry":{"coordinates":[153.017333,-27.472823],"type":"Point"},"properties":{"osm_id":"5149607065","tag":{"amenity":"waste_basket"}},"type":"Feature"},
	{"geometry":{"coordinates":[153.014493,-27.473908],"type":"Point"},"properties":{"osm_id":"5149875818","tag":{"amenity":"waste_basket"}},"type":"Feature"},
	{"geometry":{"coordinates":[152.938791,-27.507307],"type":"Point"},"properties":{"osm_id":"5185578910","tag":{"amenity":"waste_basket"}},"type":"Feature"},
	{"geometry":{"coordinates":[152.985771,-27.490681],"type":"Point"},"properties":{"osm_id":"5201412157","tag":{"amenity":"waste_basket"}},"type":"Feature"},
	{"geometry":{"coordinates":[152.947856,-27.506528],"type":"Point"},"properties":{"osm_id":"5219078156","tag":{"amenity":"waste_basket"}},"type":"Feature"},
	{"geometry":{"coordinates":[152.938494,-27.508185],"type":"Point"},"properties":{"osm_id":"5219078157","tag":{"amenity":"waste_basket"}},"type":"Feature"},
	{"geometry":{"coordinates":[152.948043,-27.506536],"type":"Point"},"properties":{"osm_id":"5219078158","tag":{"amenity":"waste_basket"}},"type":"Feature"},
	{"geometry":{"coordinates":[153.010999,-27.480712],"type":"Point"},"properties":{"osm_id":"5239425317","tag":{"amenity":"waste_basket"}},"type":"Feature"},
	{"geometry":{"coordinates":[153.010987,-27.480712],"type":"Point"},"properties":{"osm_id":"5239425318","tag":{"amenity":"recycling","recycling_type":"container"}},"type":"Feature"},
	{"geometry":{"coordinates":[152.974604,-27.499648],"type":"Point"},"properties":{"osm_id":"5274559185","tag":{"amenity":"waste_basket"}},"type":"Feature"},
	{"geometry":{"coordinates":[152.97403,-27.499737],"type":"Point"},"properties":{"osm_id":"5274559187","tag":{"amenity":"waste_basket"}},"type":"Feature"},
	{"geometry":{"coordinates":[152.938435,-27.508432],"type":"Point"},"properties":{"osm_id":"5336110439","tag":{"amenity":"waste_basket"}},"type":"Feature"},
	{"geometry":{"coordinates":[152.959165,-27.485008],"type":"Point"},"properties":{"osm_id":"5344722988","tag":{"amenity":"waste_basket"}},"type":"Feature"},
	{"geometry":{"coordinates":[152.958964,-27.484814],"type":"Point"},"properties":{"osm_id":"5344730512","tag":{"amenity":"waste_basket"}},"type":"Feature"},
	{"geometry":{"coordinates":[152.938548,-27.507732],"type":"Point"},"properties":{"osm_id":"5418232160","tag":{"amenity":"waste_basket","waste":"trash"}},"type":"Feature"},
	{"geometry":{"coordinates":[152.950544,-27.514108],"type":"Point"},"properties":{"osm_id":"5418318638","tag":{"amenity":"waste_basket","waste":"dog_excrement"}},"type":"Feature"},
	{"geometry":{"coordinates":[152.950554,-27.514107],"type":"Point"},"properties":{"osm_id":"5418318639","tag":{"amenity":"waste_basket","waste":"trash"}},"type":"Feature"},
	{"geometry":{"coordinates":[152.951418,-27.510303],"type":"Point"},"properties":{"osm_id":"5418318643","tag":{"amenity":"waste_basket","waste":"trash"}},"type":"Feature"},
	{"geometry":{"coordinates":[152.97919,-27.491592],"type":"Point"},"properties":{"osm_id":"5474632983","tag":{"amenity":"waste_basket","waste":"trash"}},"type":"Feature"},
	{"geometry":{"coordinates":[152.979575,-27.490837],"type":"Point"},"properties":{"osm_id":"5474633002","tag":{"amenity":"waste_basket","waste":"trash"}},"type":"Feature"},
	{"geometry":{"coordinates":[152.997322,-27.489165],"type":"Point"},"properties":{"osm_id":"5492473455","tag":{"amenity":"waste_basket"}},"type":"Feature"},
	{"geometry":{"coordinates":[152.977134,-27.486809],"type":"Point"},"properties":{"osm_id":"5537765804","tag":{"amenity":"waste_basket","waste":"trash"}},"type":"Feature"},
	{"geometry":{"coordinates":[152.965013,-27.498702],"type":"Point"},"properties":{"osm_id":"5551678155","tag":{"amenity":"waste_basket","waste":"trash"}},"type":"Feature"},
	{"geometry":{"coordinates":[153.014923,-27.496532],"type":"Point"},"properties":{"osm_id":"5565327550","tag":{"amenity":"waste_basket"}},"type":"Feature"},
	{"geometry":{"coordinates":[153.014851,-27.496328],"type":"Point"},"properties":{"osm_id":"5565327553","tag":{"amenity":"recycling","location":"overground","recycling_type":"container"}},"type":"Feature"},
	{"geometry":{"coordinates":[153.014274,-27.496284],"type":"Point"},"properties":{"osm_id":"5565327554","tag":{"amenity":"waste_basket"}},"type":"Feature"},
	{"geometry":{"coordinates":[153.014919,-27.496516],"type":"Point"},"properties":{"osm_id":"5565327558","tag":{"amenity":"recycling","location":"overground","recycling_type":"container"}},"type":"Feature"},
	{"geometry":{"coordinates":[153.014714,-27.496555],"type":"Point"},"properties":{"osm_id":"5565327559","tag":{"amenity":"recycling","location":"overground","recycling_type":"container"}},"type":"Feature"},
	{"geometry":{"coordinates":[153.014497,-27.496326],"type":"Point"},"properties":{"osm_id":"5565327561","tag":{"amenity":"recycling","location":"overground","recycling_type":"container"}},"type":"Feature"},
	{"geometry":{"coordinates":[153.014264,-27.496296],"type":"Point"},"properties":{"osm_id":"5565327562","tag":{"amenity":"recycling","location":"overground","recycling_type":"container"}},"type":"Feature"},
	{"geometry":{"coordinates":[153.014727,-27.496548],"type":"Point"},"properties":{"osm_id":"5565327568","tag":{"amenity":"waste_basket"}},"type":"Feature"},
	{"geometry":{"coordinates":[153.014845,-27.496318],"type":"Point"},"properties":{"osm_id":"5565327569","tag":{"amenity":"waste_basket"}},"type":"Feature"},
	{"geometry":{"coordinates":[153.014503,-27.496319],"type":"Point"},"properties":{"osm_id":"5565327570","tag":{"amenity":"waste_basket"}},"type":"Feature"},
	{"geometry":{"coordinates":[152.976036,-27.495789],"type":"Point"},"properties":{"osm_id":"5565487681","tag":{"amenity":"waste_basket"}},"type":"Feature"},
	{"geometry":{"coordinates":[152.975843,-27.496246],"type":"Point"},"properties":{"osm_id":"5565488023","tag":{"amenity":"waste_basket"}},"type":"Feature"},
	{"geometry":{"coordinates":[152.975996,-27.496799],"type":"Point"},"properties":{"osm_id":"5565488221","tag":{"amenity":"waste_basket"}},"type":"Feature"},
	{"geometry":{"coordinates":[153.014466,-27.495236],"type":"Point"},"properties":{"osm_id":"5574822210","tag":{"amenity":"recycling","location":"overground","recycling_type":"container"}},"type":"Feature"},
	{"geometry":{"coordinates":[153.014471,-27.495249],"type":"Point"},"properties":{"osm_id":"5574823627","tag":{"amenity":"waste_basket"}},"type":"Feature"},
	{"geometry":{"coordinates":[153.012776,-27.489013],"type":"Point"},"properties":{"osm_id":"5587071238","tag":{"amenity":"recycling"}},"type":"Feature"},
	{"geometry":{"coordinates":[153.012349,-27.489067],"type":"Point"},"properties":{"osm_id":"5587071245","tag":{"amenity":"waste_basket"}},"type":"Feature"},
	{"geometry":{"coordinates":[153.01278,-27.48899],"type":"Point"},"properties":{"osm_id":"5587071250","tag":{"amenity":"waste_basket"}},"type":"Feature"},
	{"geometry":{"coordinates":[152.938816,-27.506393],"type":"Point"},"properties":{"osm_id":"5589512165","tag":{"amenity":"waste_basket"}},"type":"Feature"},
	{"geometry":{"coordinates":[152.938641,-27.506332],"type":"Point"},"properties":{"osm_id":"5589513483","tag":{"amenity":"waste_basket"}},"type":"Feature"},
	{"geometry":{"coordinates":[153.013985,-27.496104],"type":"Point"},"properties":{"osm_id":"5610393161","tag":{"amenity":"waste_basket"}},"type":"Feature"},
	{"geometry":{"coordinates":[153.013974,-27.496106],"type":"Point"},"properties":{"osm_id":"5610393163","tag":{"amenity":"recycling","recycling_type":"container"}},"type":"Feature"},
	{"geometry":{"coordinates":[153.015058,-27.496736],"type":"Point"},"properties":{"osm_id":"5639131648","tag":{"amenity":"waste_basket"}},"type":"Feature"},
	{"geometry":{"coordinates":[153.01504,-27.496736],"type":"Point"},"properties":{"osm_id":"5639131651","tag":{"amenity":"recycling","recycling_type":"container"}},"type":"Feature"},
	{"geometry":{"coordinates":[152.938647,-27.506677],"type":"Point"},"properties":{"osm_id":"5655389018","tag":{"amenity":"waste_basket","waste":"trash"}},"type":"Feature"},
	{"geometry":{"coordinates":[152.938996,-27.506758],"type":"Point"},"properties":{"osm_id":"5655389019","tag":{"amenity":"waste_basket","waste":"trash"}},"type":"Feature"},
	{"geometry":{"coordinates":[152.939406,-27.506901],"type":"Point"},"properties":{"osm_id":"5655391422","tag":{"amenity":"waste_basket","waste":"trash"}},"type":"Feature"},
	{"geometry":{"coordinates":[153.013668,-27.476413],"type":"Point"},"properties":{"osm_id":"5665297409","tag":{"amenity":"waste_basket"}},"type":"Feature"},
	{"geometry":{"coordinates":[153.013036,-27.476771],"type":"Point"},"properties":{"osm_id":"5665297413","tag":{"amenity":"waste_basket"}},"type":"Feature"},
	{"geometry":{"coordinates":[153.011865,-27.482507],"type":"Point"},"properties":{"osm_id":"5815892145","tag":{"amenity":"waste_basket"}},"type":"Feature"},
	{"geometry":{"coordinates":[153.011646,-27.482826],"type":"Point"},"properties":{"osm_id":"5815892148","tag":{"amenity":"waste_basket"}},"type":"Feature"},
	{"geometry":{"coordinates":[152.93799,-27.451027],"type":"Point"},"properties":{"osm_id":"5833996912","tag":{"amenity":"waste_basket","waste":"dog_excrement"}},"type":"Feature"},
	{"geometry":{"coordinates":[153.0116,-27.483117],"type":"Point"},"properties":{"osm_id":"5895270619","tag":{"amenity":"waste_basket"}},"type":"Feature"},
	{"geometry":{"coordinates":[153.016853,-27.479115],"type":"Point"},"properties":{"osm_id":"6038009232","tag":{"amenity":"waste_basket"}},"type":"Feature"},
	{"geometry":{"coordinates":[153.011821,-27.478254],"type":"Point"},"properties":{"osm_id":"6056372485","tag":{"amenity":"waste_basket"}},"type":"Feature"},
	{"geometry":{"coordinates":[153.012355,-27.478071],"type":"Point"},"properties":{"osm_id":"6130072889","tag":{"amenity":"recycling","recycling_type":"container"}},"type":"Feature"},
	{"geometry":{"coordinates":[153.012401,-27.477907],"type":"Point"},"properties":{"osm_id":"6130072890","tag":{"amenity":"recycling","recycling_type":"container"}},"type":"Feature"},
	{"geometry":{"coordinates":[153.012335,-27.478064],"type":"Point"},"properties":{"osm_id":"6130072891","tag":{"amenity":"waste_basket"}},"type":"Feature"},
	{"geometry":{"coordinates":[153.012371,-27.477906],"type":"Point"},"properties":{"osm_id":"6130072893","tag":{"amenity":"waste_basket"}},"type":"Feature"},
	{"geometry":{"coordinates":[153.013501,-27.499716],"type":"Point"},"properties":{"osm_id":"6257174055","tag":{"amenity":"waste_basket"}},"type":"Feature"},
	{"geometry":{"coordinates":[153.013354,-27.500432],"type":"Point"},"properties":{"osm_id":"6257174058","tag":{"amenity":"waste_basket"}},"type":"Feature"},
	{"geometry":{"coordinates":[153.013347,-27.500436],"type":"Point"},"properties":{"osm_id":"6257174071","tag":{"amenity":"recycling","recycling_type":"container"}},"type":"Feature"},
	{"geometry":{"coordinates":[153.012642,-27.499943],"type":"Point"},"properties":{"osm_id":"6273618699","tag":{"amenity":"recycling","recycling_type":"container"}},"type":"Feature"},
	{"geometry":{"coordinates":[153.012607,-27.499959],"type":"Point"},"properties":{"osm_id":"6273618724","tag":{"amenity":"waste_basket"}},"type":"Feature"},
	{"geometry":{"coordinates":[153.008777,-27.46893],"type":"Point"},"properties":{"osm_id":"6284124140","tag":{"amenity":"waste_basket"}},"type":"Feature"},
	{"geometry":{"coordinates":[153.014325,-27.498557],"type":"Point"},"properties":{"osm_id":"6332449658","tag":{"amenity":"recycling","recycling_type":"container"}},"type":"Feature"},
	{"geometry":{"coordinates":[153.014355,-27.498543],"type":"Point"},"properties":{"osm_id":"6332449659","tag":{"amenity":"waste_basket"}},"type":"Feature"},
	{"geometry":{"coordinates":[152.999096,-27.485564],"type":"Point"},"properties":{"osm_id":"6501454524","tag":{"amenity":"waste_basket"}},"type":"Feature"},
	{"geometry":{"coordinates":[153.01336,-27.497847],"type":"Point"},"properties":{"osm_id":"6595396712","tag":{"amenity":"waste_basket"}},"type":"Feature"},
	{"geometry":{"coordinates":[153.013358,-27.497829],"type":"Point"},"properties":{"osm_id":"6595396713","tag":{"amenity":"recycling","recycling_type":"container"}},"type":"Feature"},
	{"geometry":{"coordinates":[153.012711,-27.497981],"type":"Point"},"properties":{"osm_id":"6595396715","tag":{"amenity":"recycling","recycling_type":"container"}},"type":"Feature"},
	{"geometry":{"coordinates":[153.012735,-27.497956],"type":"Point"},"properties":{"osm_id":"6595396716","tag":{"amenity":"waste_basket"}},"type":"Feature"},
	{"geometry":{"coordinates":[153.00245,-27.489882],"type":"Point"},"properties":{"osm_id":"6642102856","tag":{"amenity":"waste_basket","waste":"trash"}},"type":"Feature"},
	{"geometry":{"coordinates":[153.001204,-27.489837],"type":"Point"},"properties":{"osm_id":"6642102865","tag":{"amenity":"waste_basket","waste":"trash"}},"type":"Feature"},
	{"geometry":{"coordinates":[153.001201,-27.489836],"type":"Point"},"properties":{"osm_id":"6642102866","tag":{"amenity":"recycling","recycling_type":"container"}},"type":"Feature"},
	{"geometry":{"coordinates":[153.013097,-27.488889],"type":"Point"},"properties":{"osm_id":"6678046159","tag":{"amenity":"recycling","comment":"lawn clippings only","recycling:organic":"yes","recycling_type":"container"}},"type":"Feature"},
	{"geometry":{"coordinates":[153.005753,-27.477914],"type":"Point"},"properties":{"osm_id":"6680639807","tag":{"amenity":"recycling","recycling:organic":"yes","recycling_type":"container"}},"type":"Feature"},
	{"geometry":{"coordinates":[153.006265,-27.486614],"type":"Point"},"properties":{"osm_id":"6699496039","tag":{"amenity":"waste_basket"}},"type":"Feature"},
	{"geometry":{"coordinates":[153.003209,-27.489882],"type":"Point"},"properties":{"osm_id":"6701045711","tag":{"amenity":"recycling","recycling_type":"container"}},"type":"Feature"},
	{"geometry":{"coordinates":[153.00322,-27.489885],"type":"Point"},"properties":{"osm_id":"6701045718","tag":{"amenity":"waste_basket"}},"type":"Feature"},
	{"geometry":{"coordinates":[153.013454,-27.483412],"type":"Point"},"properties":{"osm_id":"6755012283","tag":{"amenity":"waste_basket"}},"type":"Feature"},
	{"geometry":{"coordinates":[153.01754,-27.497676],"type":"Point"},"properties":{"osm_id":"6775796049","tag":{"amenity":"recycling","recycling_type":"container"}},"type":"Feature"},
	{"geometry":{"coordinates":[152.999696,-27.489761],"type":"Point"},"properties":{"osm_id":"6779028475","tag":{"amenity":"waste_basket"}},"type":"Feature"},
	{"geometry":{"coordinates":[152.999704,-27.489761],"type":"Point"},"properties":{"osm_id":"6779028477","tag":{"amenity":"recycling","recycling_type":"container"}},"type":"Feature"},
	{"geometry":{"coordinates":[153.006122,-27.486853],"type":"Point"},"properties":{"osm_id":"6779956847","tag":{"amenity":"waste_basket"}},"type":"Feature"},
	{"geometry":{"coordinates":[153.012386,-27.499016],"type":"Point"},"properties":{"osm_id":"6784402705","tag":{"amenity":"recycling","recycling:cans":"yes","recycling:glass_bottles":"yes","recycling:plastic_bottles":"yes","recycling_type":"container"}},"type":"Feature"},
	{"geometry":{"coordinates":[153.012161,-27.498927],"type":"Point"},"properties":{"osm_id":"6784402707","tag":{"amenity":"recycling","recycling_type":"container"}},"type":"Feature"},
	{"geometry":{"coordinates":[153.012396,-27.499134],"type":"Point"},"properties":{"osm_id":"6784402708","tag":{"amenity":"recycling","recycling_type":"container"}},"type":"Feature"},
	{"geometry":{"coordinates":[153.011531,-27.497094],"type":"Point"},"properties":{"osm_id":"6784402709","tag":{"amenity":"waste_basket"}},"type":"Feature"},
	{"geometry":{"coordinates":[153.012401,-27.499021],"type":"Point"},"properties":{"osm_id":"6784402710","tag":{"amenity":"recycling","recycling_type":"container"}},"type":"Feature"},
	{"geometry":{"coordinates":[153.012403,-27.499121],"type":"Point"},"properties":{"osm_id":"6784402713","tag":{"amenity":"recycling","recycling:cans":"yes","recycling:glass_bottles":"yes","recycling:plastic_bottles":"yes","recycling_type":"container"}},"type":"Feature"},
	{"geometry":{"coordinates":[153.012158,-27.498932],"type":"Point"},"properties":{"osm_id":"6784402716","tag":{"amenity":"waste_basket"}},"type":"Feature"},
	{"geometry":{"coordinates":[153.011462,-27.497529],"type":"Point"},"properties":{"osm_id":"6784402718","tag":{"amenity":"waste_basket"}},"type":"Feature"},
	{"geometry":{"coordinates":[153.012392,-27.499017],"type":"Point"},"properties":{"osm_id":"6784402719","tag":{"amenity":"waste_basket"}},"type":"Feature"},
	{"geometry":{"coordinates":[153.012165,-27.498919],"type":"Point"},"properties":{"osm_id":"6784402722","tag":{"amenity":"recycling","recycling:organic":"yes","recycling_type":"container"}},"type":"Feature"},
	{"geometry":{"coordinates":[153.012398,-27.499129],"type":"Point"},"properties":{"osm_id":"6784402723","tag":{"amenity":"waste_basket"}},"type":"Feature"},
	{"geometry":{"coordinates":[153.011546,-27.497093],"type":"Point"},"properties":{"osm_id":"6784402724","tag":{"amenity":"recycling","recycling_type":"container"}},"type":"Feature"},
	{"geometry":{"coordinates":[153.011467,-27.497545],"type":"Point"},"properties":{"osm_id":"6784402727","tag":{"amenity":"recycling","recycling_type":"container"}},"type":"Feature"},
	{"geometry":{"coordinates":[153.01616,-27.497401],"type":"Point"},"properties":{"osm_id":"6789413908","tag":{"amenity":"recycling","recycling_type":"container"}},"type":"Feature"},
	{"geometry":{"coordinates":[153.014761,-27.500236],"type":"Point"},"properties":{"osm_id":"6791553480","tag":{"amenity":"waste_basket"}},"type":"Feature"},
	{"geometry":{"coordinates":[153.01475,-27.500237],"type":"Point"},"properties":{"osm_id":"6791554098","tag":{"amenity":"recycling","recycling_type":"container"}},"type":"Feature"},
	{"geometry":{"coordinates":[153.005243,-27.479539],"type":"Point"},"properties":{"name":"TOMRA","osm_id":"6795260067","tag":{"amenity":"recycling","fee":"no","recycling:cans":"yes","recycling:cardboard":"no","recycling:clothes":"no","recycling:glass":"no","recycling:glass_bottles":"yes","recycling:paper":"no","recycling:plastic":"no","recycling:plastic_bottles":"yes","recycling:plastic_packaging":"no","recycling:waste":"no","recycling_type":"centre","wheelchair":"Yes"}},"type":"Feature"},
	{"geometry":{"coordinates":[153.01463,-27.496993],"type":"Point"},"properties":{"osm_id":"6798094629","tag":{"amenity":"recycling","recycling_type":"container"}},"type":"Feature"},
	{"geometry":{"coordinates":[153.015685,-27.497977],"type":"Point"},"properties":{"osm_id":"6798094641","tag":{"amenity":"waste_basket"}},"type":"Feature"},
	{"geometry":{"coordinates":[153.014922,-27.497826],"type":"Point"},"properties":{"osm_id":"6798094642","tag":{"amenity":"recycling","recycling_type":"container"}},"type":"Feature"},
	{"geometry":{"coordinates":[153.014644,-27.496995],"type":"Point"},"properties":{"osm_id":"6798094647","tag":{"amenity":"waste_basket"}},"type":"Feature"},
	{"geometry":{"coordinates":[153.015675,-27.497972],"type":"Point"},"properties":{"osm_id":"6798094653","tag":{"amenity":"recycling","recycling_type":"container"}},"type":"Feature"},
	{"geometry":{"coordinates":[153.014927,-27.497816],"type":"Point"},"properties":{"osm_id":"6798094654","tag":{"amenity":"waste_basket"}},"type":"Feature"},
	{"geometry":{"coordinates":[153.015336,-27.499131],"type":"Point"},"properties":{"osm_id":"6801278687","tag":{"amenity":"waste_basket"}},"type":"Feature"},
	{"geometry":{"coordinates":[153.015337,-27.499142],"type":"Point"},"properties":{"osm_id":"6801278690","tag":{"amenity":"recycling","recycling_type":"container"}},"type":"Feature"},
	{"geometry":{"coordinates":[153.014557,-27.496884],"type":"Point"},"properties":{"osm_id":"6801278703","tag":{"amenity":"waste_basket"}},"type":"Feature"},
	{"geometry":{"coordinates":[153.014544,-27.496888],"type":"Point"},"properties":{"osm_id":"6801278709","tag":{"amenity":"recycling","recycling_type":"container"}},"type":"Feature"},
	{"geometry":{"coordinates":[153.015496,-27.497154],"type":"Point"},"properties":{"osm_id":"6817218584","tag":{"amenity":"recycling","recycling:cans":"yes","recycling:glass_bottles":"yes","recycling:plastic_bottles":"yes","recycling_type":"container"}},"type":"Feature"},
	{"geometry":{"coordinates":[153.014863,-27.497159],"type":"Point"},"properties":{"osm_id":"6817232086","tag":{"amenity":"recycling","recycling:cans":"yes","recycling:glass_bottles":"yes","recycling:plastic_bottles":"yes","recycling_type":"container"}},"type":"Feature"},
	{"geometry":{"coordinates":[153.015012,-27.496959],"type":"Point"},"properties":{"osm_id":"6817232090","tag":{"amenity":"waste_basket"}},"type":"Feature"},
	{"geometry":{"coordinates":[153.015462,-27.497158],"type":"Point"},"properties":{"osm_id":"6817232091","tag":{"amenity":"recycling","recycling_type":"container"}},"type":"Feature"},
	{"geometry":{"coordinates":[153.01489,-27.497163],"type":"Point"},"properties":{"osm_id":"6817232093","tag":{"amenity":"recycling","recycling_type":"container"}},"type":"Feature"},
	{"geometry":{"coordinates":[153.01502,-27.496957],"type":"Point"},"properties":{"osm_id":"6817232097","tag":{"amenity":"recycling","recycling_type":"container"}},"type":"Feature"},
	{"geometry":{"coordinates":[153.01547,-27.497157],"type":"Point"},"properties":{"osm_id":"6817232098","tag":{"amenity":"waste_basket"}},"type":"Feature"},
	{"geometry":{"coordinates":[153.014873,-27.497161],"type":"Point"},"properties":{"osm_id":"6817232099","tag":{"amenity":"waste_basket"}},"type":"Feature"},
	{"geometry":{"coordinates":[153.002813,-27.483888],"type":"Point"},"properties":{"osm_id":"6822717957","tag":{"amenity":"waste_basket"}},"type":"Feature"},
	{"geometry":{"coordinates":[153.003663,-27.482418],"type":"Point"},"properties":{"osm_id":"6822720406","tag":{"amenity":"waste_basket"}},"type":"Feature"},
	{"geometry":{"coordinates":[153.015618,-27.498932],"type":"Point"},"properties":{"osm_id":"6848992798","tag":{"amenity":"waste_basket"}},"type":"Feature"},
	{"geometry":{"coordinates":[153.015621,-27.498947],"type":"Point"},"properties":{"osm_id":"6848992813","tag":{"amenity":"recycling","recycling_type":"container"}},"type":"Feature"},
	{"geometry":{"coordinates":[153.008248,-27.476818],"type":"Point"},"properties":{"osm_id":"6862307957","tag":{"amenity":"waste_basket"}},"type":"Feature"},
	{"geometry":{"coordinates":[153.014172,-27.497033],"type":"Point"},"properties":{"osm_id":"6901946125","tag":{"amenity":"waste_basket"}},"type":"Feature"},
	{"geometry":{"coordinates":[153.014187,-27.497037],"type":"Point"},"properties":{"osm_id":"6901946129","tag":{"amenity":"recycling","recycling_type":"container"}},"type":"Feature"},
	{"geometry":{"coordinates":[153.012733,-27.498195],"type":"Point"},"properties":{"osm_id":"6904699887","tag":{"amenity":"recycling","recycling_type":"container"}},"type":"Feature"},
	{"geometry":{"coordinates":[153.012736,-27.498183],"type":"Point"},"properties":{"osm_id":"6904699897","tag":{"amenity":"waste_basket"}},"type":"Feature"},
	{"geometry":{"coordinates":[153.014497,-27.495485],"type":"Point"},"properties":{"osm_id":"6911392389","tag":{"amenity":"waste_basket"}},"type":"Feature"},
	{"geometry":{"coordinates":[153.014503,-27.495481],"type":"Point"},"properties":{"osm_id":"6911392401","tag":{"amenity":"recycling","recycling_type":"container"}},"type":"Feature"},
	{"geometry":{"coordinates":[153.006875,-27.495894],"type":"Point"},"properties":{"name":"Envirobank","osm_id":"6934343824","tag":{"amenity":"recycling","recycling_type":"container"}},"type":"Feature"},
	{"geometry":{"coordinates":[153.00075,-27.481293],"type":"Point"},"properties":{"osm_id":"6950389540","tag":{"amenity":"recycling","recycling_type":"container"}},"type":"Feature"},
	{"geometry":{"coordinates":[153.000762,-27.481301],"type":"Point"},"properties":{"osm_id":"6950389544","tag":{"amenity":"waste_basket"}},"type":"Feature"},
	{"geometry":{"coordinates":[152.999392,-27.483011],"type":"Point"},"properties":{"osm_id":"6950389546","tag":{"amenity":"waste_basket"}},"type":"Feature"},
	{"geometry":{"coordinates":[152.996651,-27.488614],"type":"Point"},"properties":{"osm_id":"6950389549","tag":{"amenity":"waste_basket"}},"type":"Feature"},
	{"geometry":{"coordinates":[152.996645,-27.488605],"type":"Point"},"properties":{"osm_id":"6950389553","tag":{"amenity":"recycling","recycling_type":"container"}},"type":"Feature"},
	{"geometry":{"coordinates":[153.016628,-27.498627],"type":"Point"},"properties":{"osm_id":"6968216615","tag":{"amenity":"recycling","recycling_type":"container"}},"type":"Feature"},
	{"geometry":{"coordinates":[153.016606,-27.498629],"type":"Point"},"properties":{"osm_id":"6968216644","tag":{"amenity":"waste_basket"}},"type":"Feature"},
	{"geometry":{"coordinates":[153.012125,-27.497567],"type":"Point"},"properties":{"osm_id":"6975734894","tag":{"amenity":"waste_basket"}},"type":"Feature"},
	{"geometry":{"coordinates":[153.012116,-27.497569],"type":"Point"},"properties":{"osm_id":"6975734900","tag":{"amenity":"recycling","recycling_type":"container"}},"type":"Feature"},
	{"geometry":{"coordinates":[153.013488,-27.49972],"type":"Point"},"properties":{"osm_id":"6975734922","tag":{"amenity":"recycling","recycling_type":"container"}},"type":"Feature"},
	{"geometry":{"coordinates":[153.014114,-27.495827],"type":"Point"},"properties":{"osm_id":"6987406519","tag":{"amenity":"recycling","recycling_type":"container"}},"type":"Feature"},
	{"geometry":{"coordinates":[153.014126,-27.495834],"type":"Point"},"properties":{"osm_id":"6987406526","tag":{"amenity":"waste_basket"}},"type":"Feature"},
	{"geometry":{"coordinates":[153.01245,-27.496771],"type":"Point"},"properties":{"osm_id":"6988919357","tag":{"amenity":"recycling","recycling_type":"container"}},"type":"Feature"},
	{"geometry":{"coordinates":[153.010957,-27.497291],"type":"Point"},"properties":{"osm_id":"6988919359","tag":{"amenity":"recycling","recycling_type":"container"}},"type":"Feature"},
	{"geometry":{"coordinates":[153.012439,-27.496773],"type":"Point"},"properties":{"osm_id":"6988919363","tag":{"amenity":"waste_basket"}},"type":"Feature"},
	{"geometry":{"coordinates":[153.010947,-27.497303],"type":"Point"},"properties":{"osm_id":"6988919364","tag":{"amenity":"waste_basket"}},"type":"Feature"},
	{"geometry":{"coordinates":[153.011815,-27.496903],"type":"Point"},"properties":{"osm_id":"6988919371","tag":{"amenity":"recycling","recycling_type":"container"}},"type":"Feature"},
	{"geometry":{"coordinates":[153.011751,-27.498739],"type":"Point"},"properties":{"osm_id":"7010507503","tag":{"amenity":"recycling","recycling_type":"container"}},"type":"Feature"},
	{"geometry":{"coordinates":[153.011437,-27.49854],"type":"Point"},"properties":{"osm_id":"7010507509","tag":{"amenity":"recycling","recycling_type":"container"}},"type":"Feature"},
	{"geometry":{"coordinates":[153.013516,-27.49647],"type":"Point"},"properties":{"osm_id":"7010507514","tag":{"amenity":"waste_basket"}},"type":"Feature"},
	{"geometry":{"coordinates":[153.011738,-27.498733],"type":"Point"},"properties":{"osm_id":"7010507517","tag":{"amenity":"waste_basket"}},"type":"Feature"},
	{"geometry":{"coordinates":[153.011429,-27.498546],"type":"Point"},"properties":{"osm_id":"7010507521","tag":{"amenity":"waste_basket"}},"type":"Feature"},
	{"geometry":{"coordinates":[153.013512,-27.496458],"type":"Point"},"properties":{"osm_id":"7010507522","tag":{"amenity":"recycling","recycling_type":"container"}},"type":"Feature"},
	{"geometry":{"coordinates":[153.011599,-27.498895],"type":"Point"},"properties":{"osm_id":"7025157623","tag":{"amenity":"waste_basket"}},"type":"Feature"},
	{"geometry":{"coordinates":[153.01161,-27.498894],"type":"Point"},"properties":{"osm_id":"7025157640","tag":{"amenity":"recycling","recycling_type":"container"}},"type":"Feature"},
	{"geometry":{"coordinates":[152.9975,-27.486607],"type":"Point"},"properties":{"osm_id":"7031844595","tag":{"amenity":"waste_basket"}},"type":"Feature"},
	{"geometry":{"coordinates":[152.99749,-27.48662],"type":"Point"},"properties":{"osm_id":"7031844598","tag":{"amenity":"recycling","recycling_type":"container"}},"type":"Feature"},
	{"geometry":{"coordinates":[153.014664,-27.497971],"type":"Point"},"properties":{"osm_id":"7035813718","tag":{"amenity":"recycling","recycling_type":"container"}},"type":"Feature"},
	{"geometry":{"coordinates":[153.014656,-27.497981],"type":"Point"},"properties":{"osm_id":"7035813731","tag":{"amenity":"waste_basket"}},"type":"Feature"},
	{"geometry":{"coordinates":[153.015562,-27.497197],"type":"Point"},"properties":{"osm_id":"7059418637","tag":{"amenity":"waste_basket"}},"type":"Feature"},
	{"geometry":{"coordinates":[153.015771,-27.497164],"type":"Point"},"properties":{"osm_id":"7059418647","tag":{"amenity":"waste_basket"}},"type":"Feature"},
	{"geometry":{"coordinates":[153.01577,-27.497176],"type":"Point"},"properties":{"osm_id":"7059418648","tag":{"amenity":"recycling","recycling_type":"container"}},"type":"Feature"},
	{"geometry":{"coordinates":[153.015572,-27.497199],"type":"Point"},"properties":{"osm_id":"7059418650","tag":{"amenity":"recycling","recycling_type":"container"}},"type":"Feature"},
	{"geometry":{"coordinates":[153.014081,-27.495146],"type":"Point"},"properties":{"osm_id":"7061752189","tag":{"amenity":"waste_basket"}},"type":"Feature"},
	{"geometry":{"coordinates":[153.01408,-27.495133],"type":"Point"},"properties":{"osm_id":"7061752190","tag":{"amenity":"recycling","recycling_type":"container"}},"type":"Feature"},
	{"geometry":{"coordinates":[153.01278,-27.498796],"type":"Point"},"properties":{"osm_id":"7113610300","tag":{"amenity":"recycling","recycling_type":"container"}},"type":"Feature"},
	{"geometry":{"coordinates":[153.012773,-27.49879],"type":"Point"},"properties":{"osm_id":"7113610319","tag":{"amenity":"waste_basket"}},"type":"Feature"},
	{"geometry":{"coordinates":[153.011144,-27.493874],"type":"Point"},"properties":{"osm_id":"7121402242","tag":{"amenity":"recycling","recycling:organic":"yes","recycling_type":"container"}},"type":"Feature"},
	{"geometry":{"coordinates":[153.012883,-27.499312],"type":"Point"},"properties":{"osm_id":"7249269094","tag":{"amenity":"recycling","recycling_type":"container"}},"type":"Feature"},
	{"geometry":{"coordinates":[153.012873,-27.499313],"type":"Point"},"properties":{"osm_id":"7249269123","tag":{"amenity":"waste_basket"}},"type":"Feature"},
	{"geometry":{"coordinates":[153.014492,-27.500472],"type":"Point"},"properties":{"osm_id":"7259887106","tag":{"amenity":"recycling","recycling_type":"container"}},"type":"Feature"},
	{"geometry":{"coordinates":[153.014479,-27.500472],"type":"Point"},"properties":{"osm_id":"7259887108","tag":{"amenity":"waste_basket"}},"type":"Feature"},
	{"geometry":{"coordinates":[153.016581,-27.461918],"type":"Point"},"properties":{"osm_id":"7270874664","tag":{"amenity":"waste_basket"}},"type":"Feature"},
	{"geometry":{"coordinates":[153.011245,-27.497909],"type":"Point"},"properties":{"osm_id":"7278897466","tag":{"amenity":"waste_basket"}},"type":"Feature"},
	{"geometry":{"coordinates":[153.011243,-27.497901],"type":"Point"},"properties":{"osm_id":"7278897468","tag":{"amenity":"recycling","recycling_type":"container"}},"type":"Feature"},
	{"geometry":{"coordinates":[153.010836,-27.498532],"type":"Point"},"properties":{"osm_id":"7278897473","tag":{"amenity":"recycling","recycling_type":"container"}},"type":"Feature"},
	{"geometry":{"coordinates":[153.010825,-27.498532],"type":"Point"},"properties":{"osm_id":"7278897475","tag":{"amenity":"waste_basket"}},"type":"Feature"},
	{"geometry":{"coordinates":[153.011262,-27.499043],"type":"Point"},"properties":{"osm_id":"7278897479","tag":{"amenity":"recycling","recycling_type":"container"}},"type":"Feature"},
	{"geometry":{"coordinates":[153.01125,-27.499042],"type":"Point"},"properties":{"osm_id":"7278897480","tag":{"amenity":"waste_basket"}},"type":"Feature"},
	{"geometry":{"coordinates":[153.012247,-27.480945],"type":"Point"},"properties":{"osm_id":"7284283922","tag":{"amenity":"waste_basket"}},"type":"Feature"},
	{"geometry":{"coordinates":[152.976544,-27.456644],"type":"Point"},"properties":{"osm_id":"7288303381","tag":{"amenity":"waste_basket","waste":"Waste and dog excrement bin"}},"type":"Feature"},
	{"geometry":{"coordinates":[152.978169,-27.457261],"type":"Point"},"properties":{"osm_id":"7288303382","tag":{"amenity":"waste_basket","vending":"excrement_bags","waste":"Waste bin for dog excremwnr"}},"type":"Feature"},
	{"geometry":{"coordinates":[153.011909,-27.48248],"type":"Point"},"properties":{"osm_id":"7296203102","tag":{"amenity":"waste_basket"}},"type":"Feature"},
	{"geometry":{"coordinates":[152.972541,-27.459423],"type":"Point"},"properties":{"osm_id":"7302037685","tag":{"amenity":"waste_basket","waste":"Waste bin"}},"type":"Feature"},
	{"geometry":{"coordinates":[153.012161,-27.480108],"type":"Point"},"properties":{"osm_id":"7305288845","tag":{"amenity":"waste_basket"}},"type":"Feature"},
	{"geometry":{"coordinates":[153.01252,-27.478189],"type":"Point"},"properties":{"osm_id":"7305288863","tag":{"amenity":"waste_basket"}},"type":"Feature"},
	{"geometry":{"coordinates":[153.006178,-27.486181],"type":"Point"},"properties":{"osm_id":"7311933932","tag":{"amenity":"waste_basket"}},"type":"Feature"},
	{"geometry":{"coordinates":[152.976281,-27.457131],"type":"Point"},"properties":{"osm_id":"7339761383","tag":{"amenity":"waste_basket"}},"type":"Feature"},
	{"geometry":{"coordinates":[153.010341,-27.489919],"type":"Point"},"properties":{"osm_id":"7360467324","tag":{"amenity":"waste_basket","covered":"no","indoor":"no","material":"plastic","waste":"mixed"}},"type":"Feature"},
	{"geometry":{"coordinates":[153.012875,-27.47928],"type":"Point"},"properties":{"osm_id":"7365606531","tag":{"amenity":"waste_basket"}},"type":"Feature"},
	{"geometry":{"coordinates":[153.012612,-27.477146],"type":"Point"},"properties":{"osm_id":"7365924833","tag":{"amenity":"recycling","recycling_type":"centre"}},"type":"Feature"},
	{"geometry":{"coordinates":[153.012626,-27.477148],"type":"Point"},"properties":{"osm_id":"7365924835","tag":{"amenity":"waste_basket"}},"type":"Feature"},
	{"geometry":{"coordinates":[153.011908,-27.480871],"type":"Point"},"properties":{"osm_id":"7391536984","tag":{"amenity":"waste_basket"}},"type":"Feature"},
	{"geometry":{"coordinates":[153.012224,-27.479769],"type":"Point"},"properties":{"osm_id":"7391559591","tag":{"amenity":"waste_basket"}},"type":"Feature"},
	{"geometry":{"coordinates":[153.011895,-27.480871],"type":"Point"},"properties":{"osm_id":"7391559593","tag":{"amenity":"recycling"}},"type":"Feature"},
	{"geometry":{"coordinates":[153.010457,-27.48972],"type":"Point"},"properties":{"osm_id":"7396784560","tag":{"amenity":"recycling","recycling:organic":"yes","recycling_type":"container"}},"type":"Feature"},
	{"geometry":{"coordinates":[153.012647,-27.477472],"type":"Point"},"properties":{"osm_id":"7396914460","tag":{"amenity":"waste_basket","covered":"yes","indoor":"no"}},"type":"Feature"},
	{"geometry":{"coordinates":[152.977381,-27.458663],"type":"Point"},"properties":{"osm_id":"7397363718","tag":{"amenity":"waste_basket","material":"plastic","operator":"Brisbane City Council","waste":"mixed;dog_excrement;trash"}},"type":"Feature"},
	{"geometry":{"coordinates":[152.97576,-27.459506],"type":"Point"},"properties":{"osm_id":"7405627187","tag":{"amenity":"recycling","colour":"Blue","opening_hours":"24/7","operator":"Lifeline","recycling:clothes":"yes","recycling_type":"container","wheelchair":"no"}},"type":"Feature"},
	{"geometry":{"coordinates":[152.975837,-27.4594],"type":"Point"},"properties":{"osm_id":"7405627967","tag":{"amenity":"waste_basket","material":"metal","operator":"Brisbane City Council"}},"type":"Feature"},
	{"geometry":{"coordinates":[152.976538,-27.459277],"type":"Point"},"properties":{"osm_id":"7412984524","tag":{"amenity":"waste_basket","material":"metal"}},"type":"Feature"},
	{"geometry":{"coordinates":[152.972969,-27.464838],"type":"Point"},"properties":{"osm_id":"7418509238","tag":{"amenity":"waste_basket","colour":"green","material":"plastic","operator":"Brisbane City Council","waste":"mixed"}},"type":"Feature"},
	{"geometry":{"coordinates":[153.012552,-27.487198],"type":"Point"},"properties":{"osm_id":"7425527474","tag":{"amenity":"waste_basket","covered":"no","indoor":"no"}},"type":"Feature"},
	{"geometry":{"coordinates":[152.973295,-27.451783],"type":"Point"},"properties":{"osm_id":"7458697099","tag":{"amenity":"waste_basket"}},"type":"Feature"},
	{"geometry":{"coordinates":[152.968251,-27.464284],"type":"Point"},"properties":{"osm_id":"7465194914","tag":{"amenity":"waste_basket"}},"type":"Feature"},
	{"geometry":{"coordinates":[152.970682,-27.461273],"type":"Point"},"properties":{"osm_id":"7465241587","tag":{"amenity":"waste_basket"}},"type":"Feature"},
	{"geometry":{"coordinates":[152.977443,-27.461995],"type":"Point"},"properties":{"osm_id":"7509149834","tag":{"amenity":"waste_basket","material":"metal"}},"type":"Feature"},
	{"geometry":{"coordinates":[152.979603,-27.463675],"type":"Point"},"properties":{"osm_id":"7509200601","tag":{"amenity":"waste_basket"}},"type":"Feature"},
	{"geometry":{"coordinates":[152.96499,-27.49872],"type":"Point"},"properties":{"osm_id":"7560975991","tag":{"amenity":"recycling","recycling_type":"container"}},"type":"Feature"},
	{"geometry":{"coordinates":[153.007805,-27.480501],"type":"Point"},"properties":{"osm_id":"7561843821","tag":{"amenity":"waste_basket"}},"type":"Feature"},
	{"geometry":{"coordinates":[153.007564,-27.479584],"type":"Point"},"properties":{"osm_id":"7561843845","tag":{"amenity":"waste_basket"}},"type":"Feature"},
	{"geometry":{"coordinates":[153.003618,-27.487929],"type":"Point"},"properties":{"osm_id":"7593789450","tag":{"amenity":"waste_basket"}},"type":"Feature"},
	{"geometry":{"coordinates":[153.007481,-27.480586],"type":"Point"},"properties":{"osm_id":"7593873868","tag":{"amenity":"waste_basket"}},"type":"Feature"},
	{"geometry":{"coordinates":[153.002982,-27.489867],"type":"Point"},"properties":{"osm_id":"7599433775","tag":{"amenity":"waste_basket"}},"type":"Feature"},
	{"geometry":{"coordinates":[152.997337,-27.489169],"type":"Point"},"properties":{"osm_id":"7622867923","tag":{"amenity":"recycling","recycling_type":"container"}},"type":"Feature"},
	{"geometry":{"coordinates":[152.974405,-27.452338],"type":"Point"},"properties":{"osm_id":"7657920025","tag":{"amenity":"waste_basket","vending":"excrement_bags","waste":"dog_excrement"}},"type":"Feature"},
	{"geometry":{"coordinates":[152.974241,-27.452387],"type":"Point"},"properties":{"osm_id":"7657994796","tag":{"amenity":"waste_basket","vending":"excrement_bags","waste":"dog_excrement"}},"type":"Feature"},
	{"geometry":{"coordinates":[152.973931,-27.451115],"type":"Point"},"properties":{"osm_id":"7658255731","tag":{"amenity":"waste_basket","vending":"excrement_bags","waste":"dog_excrement"}},"type":"Feature"},
	{"geometry":{"coordinates":[153.000044,-27.484001],"type":"Point"},"properties":{"osm_id":"7674851363","tag":{"amenity":"waste_basket"}},"type":"Feature"},
	{"geometry":{"coordinates":[153.008731,-27.470689],"type":"Point"},"properties":{"osm_id":"7687060234","tag":{"amenity":"waste_basket"}},"type":"Feature"},
	{"geometry":{"coordinates":[153.010043,-27.469473],"type":"Point"},"properties":{"osm_id":"7687073811","tag":{"amenity":"recycling","recycling_type":"container"}},"type":"Feature"},
	{"geometry":{"coordinates":[153.010055,-27.469461],"type":"Point"},"properties":{"osm_id":"7687073813","tag":{"amenity":"waste_basket"}},"type":"Feature"},
	{"geometry":{"coordinates":[152.985282,-27.458423],"type":"Point"},"properties":{"osm_id":"7706467593","tag":{"amenity":"waste_basket"}},"type":"Feature"},
	{"geometry":{"coordinates":[153.004601,-27.481087],"type":"Point"},"properties":{"osm_id":"7722328312","tag":{"amenity":"waste_basket"}},"type":"Feature"},
	{"geometry":{"coordinates":[153.000691,-27.487264],"type":"Point"},"properties":{"osm_id":"7728139513","tag":{"amenity":"waste_basket"}},"type":"Feature"},
	{"geometry":{"coordinates":[153.003876,-27.482499],"type":"Point"},"properties":{"osm_id":"7742017153","tag":{"amenity":"waste_basket"}},"type":"Feature"},
	{"geometry":{"coordinates":[152.97953,-27.477256],"type":"Point"},"properties":{"osm_id":"7797736894","tag":{"amenity":"recycling","recycling_type":"container"}},"type":"Feature"},
	{"geometry":{"coordinates":[152.97954,-27.477261],"type":"Point"},"properties":{"osm_id":"7797736900","tag":{"amenity":"waste_basket"}},"type":"Feature"},
	{"geometry":{"coordinates":[153.009559,-27.475675],"type":"Point"},"properties":{"osm_id":"7800491305","tag":{"amenity":"waste_basket"}},"type":"Feature"},
	{"geometry":{"coordinates":[153.009569,-27.475665],"type":"Point"},"properties":{"osm_id":"7800491308","tag":{"amenity":"recycling","recycling_type":"container"}},"type":"Feature"},
	{"geometry":{"coordinates":[153.001544,-27.492705],"type":"Point"},"properties":{"osm_id":"7811319264","tag":{"amenity":"waste_basket"}},"type":"Feature"},
	{"geometry":{"coordinates":[153.004886,-27.477079],"type":"Point"},"properties":{"osm_id":"7816293184","tag":{"amenity":"recycling","recycling_type":"container"}},"type":"Feature"},
	{"geometry":{"coordinates":[153.004877,-27.477068],"type":"Point"},"properties":{"osm_id":"7816311297","tag":{"amenity":"waste_basket"}},"type":"Feature"},
	{"geometry":{"coordinates":[153.009574,-27.480658],"type":"Point"},"properties":{"osm_id":"7821257778","tag":{"amenity":"waste_basket"}},"type":"Feature"},
	{"geometry":{"coordinates":[153.009587,-27.480661],"type":"Point"},"properties":{"osm_id":"7821257781","tag":{"amenity":"recycling","recycling_type":"container"}},"type":"Feature"},
	{"geometry":{"coordinates":[153.005876,-27.478827],"type":"Point"},"properties":{"osm_id":"7844842309","tag":{"amenity":"waste_basket"}},"type":"Feature"},
	{"geometry":{"coordinates":[153.012812,-27.476915],"type":"Point"},"properties":{"osm_id":"7863717133","tag":{"amenity":"waste_basket"}},"type":"Feature"},
	{"geometry":{"coordinates":[153.001157,-27.484291],"type":"Point"},"properties":{"osm_id":"7883013070","tag":{"amenity":"recycling","recycling_type":"container"}},"type":"Feature"},
	{"geometry":{"coordinates":[153.001146,-27.484289],"type":"Point"},"properties":{"osm_id":"7883013079","tag":{"amenity":"waste_basket"}},"type":"Feature"},
	{"geometry":{"coordinates":[153.002336,-27.48573],"type":"Point"},"properties":{"osm_id":"7886516648","tag":{"amenity":"recycling","recycling_type":"container"}},"type":"Feature"},
	{"geometry":{"coordinates":[153.001483,-27.485996],"type":"Point"},"properties":{"osm_id":"7886516651","tag":{"amenity":"recycling","recycling_type":"container"}},"type":"Feature"},
	{"geometry":{"coordinates":[153.002123,-27.485572],"type":"Point"},"properties":{"osm_id":"7886516652","tag":{"amenity":"recycling","recycling_type":"container"}},"type":"Feature"},
	{"geometry":{"coordinates":[153.002321,-27.485728],"type":"Point"},"properties":{"osm_id":"7886516654","tag":{"amenity":"waste_basket"}},"type":"Feature"},
	{"geometry":{"coordinates":[153.002129,-27.485562],"type":"Point"},"properties":{"osm_id":"7886516655","tag":{"amenity":"waste_basket"}},"type":"Feature"},
	{"geometry":{"coordinates":[153.001489,-27.485979],"type":"Point"},"properties":{"osm_id":"7886516656","tag":{"amenity":"waste_basket"}},"type":"Feature"},
	{"geometry":{"coordinates":[153.000538,-27.473818],"type":"Point"},"properties":{"osm_id":"7902080135","tag":{"amenity":"waste_basket"}},"type":"Feature"},
	{"geometry":{"coordinates":[153.016682,-27.480863],"type":"Point"},"properties":{"osm_id":"7907149425","tag":{"amenity":"recycling","recycling:clothes":"yes","recycling_type":"container"}},"type":"Feature"},
	{"geometry":{"coordinates":[153.016414,-27.469742],"type":"Point"},"properties":{"osm_id":"7918777537","tag":{"amenity":"waste_basket"}},"type":"Feature"},
	{"geometry":{"coordinates":[153.01744,-27.469984],"type":"Point"},"properties":{"osm_id":"7918777548","tag":{"amenity":"waste_basket"}},"type":"Feature"},
	{"geometry":{"coordinates":[153.001424,-27.485847],"type":"Point"},"properties":{"osm_id":"7919531600","tag":{"amenity":"waste_basket"}},"type":"Feature"},
	{"geometry":{"coordinates":[153.001409,-27.485871],"type":"Point"},"properties":{"osm_id":"7919531602","tag":{"amenity":"recycling","recycling_type":"container"}},"type":"Feature"},
	{"geometry":{"coordinates":[153.012702,-27.492453],"type":"Point"},"properties":{"osm_id":"7926550139","tag":{"amenity":"waste_basket","waste":"trash;recycling"}},"type":"Feature"},
	{"geometry":{"coordinates":[153.013077,-27.492265],"type":"Point"},"properties":{"osm_id":"7926550140","tag":{"amenity":"waste_basket","waste":"trash;recycling"}},"type":"Feature"}
]
}
