{
"type": "FeatureCollection",
"features": [
	{"geometry":{"coordinates":[83.757063,28.39433],"type":"Point"},"properties":{"osm_id":"6905200366","tag":{"amenity":"waste_basket","waste":"Dustbin"}},"type":"Feature"},
	{"geometry":{"coordinates":[83.759506,28.396225],"type":"Point"},"properties":{"osm_id":"6905204866","tag":{"amenity":"waste_basket","waste":"ACAP Trash Can"}},"type":"Feature"},
	{"geometry":{"coordinates":[83.70187,28.402013],"type":"Point"},"properties":{"osm_id":"6907937185","tag":{"amenity":"waste_basket"}},"type":"Feature"},
	{"geometry":{"coordinates":[83.705916,28.399943],"type":"Point"},"properties":{"osm_id":"6907937187","tag":{"amenity":"waste_basket"}},"type":"Feature"},
	{"geometry":{"coordinates":[83.705904,28.398664],"type":"Point"},"properties":{"osm_id":"6907937189","tag":{"amenity":"waste_basket"}},"type":"Feature"},
	{"geometry":{"coordinates":[83.708536,28.39718],"type":"Point"},"properties":{"osm_id":"6907937191","tag":{"amenity":"waste_basket"}},"type":"Feature"},
	{"geometry":{"coordinates":[83.700813,28.398878],"type":"Point"},"properties":{"osm_id":"6908282947","tag":{"amenity":"waste_basket"}},"type":"Feature"},
	{"geometry":{"coordinates":[83.70203,28.396658],"type":"Point"},"properties":{"osm_id":"6908282956","tag":{"amenity":"waste_basket"}},"type":"Feature"},
	{"geometry":{"coordinates":[83.702657,28.394851],"type":"Point"},"properties":{"osm_id":"6908282958","tag":{"amenity":"waste_basket"}},"type":"Feature"},
	{"geometry":{"coordinates":[83.699802,28.401296],"type":"Point"},"properties":{"osm_id":"6908487496","tag":{"amenity":"waste_basket"}},"type":"Feature"},
	{"geometry":{"coordinates":[83.699399,28.400559],"type":"Point"},"properties":{"osm_id":"6908487498","tag":{"amenity":"waste_basket"}},"type":"Feature"},
	{"geometry":{"coordinates":[83.734407,28.394979],"type":"Point"},"properties":{"osm_id":"6908588221","tag":{"amenity":"waste_basket"}},"type":"Feature"},
	{"geometry":{"coordinates":[83.733945,28.394895],"type":"Point"},"properties":{"osm_id":"6908588222","tag":{"amenity":"waste_basket"}},"type":"Feature"}
]
}
