{
"type": "FeatureCollection",
"features": [
	{"geometry":{"coordinates":[-79.81088,43.337966],"type":"Point"},"properties":{"osm_id":"1969288874","tag":{"amenity":"waste_basket"}},"type":"Feature"},
	{"geometry":{"coordinates":[-79.826828,43.377209],"type":"Point"},"properties":{"osm_id":"2562372043","tag":{"amenity":"waste_basket"}},"type":"Feature"},
	{"geometry":{"coordinates":[-79.826811,43.377213],"type":"Point"},"properties":{"osm_id":"2562372045","tag":{"amenity":"recycling","recycling:cans":"yes","recycling:glass":"yes","recycling:paper":"yes","recycling_type":"container"}},"type":"Feature"},
	{"geometry":{"coordinates":[-79.824756,43.377817],"type":"Point"},"properties":{"osm_id":"2562372162","tag":{"amenity":"waste_basket"}},"type":"Feature"},
	{"geometry":{"coordinates":[-79.824739,43.377821],"type":"Point"},"properties":{"osm_id":"2562372168","tag":{"amenity":"recycling","recycling:cans":"yes","recycling:glass":"yes","recycling:paper":"yes","recycling_type":"container"}},"type":"Feature"},
	{"geometry":{"coordinates":[-79.827407,43.378115],"type":"Point"},"properties":{"osm_id":"2562372178","tag":{"amenity":"recycling","recycling:cans":"yes","recycling:glass":"yes","recycling:paper":"yes","recycling_type":"container"}},"type":"Feature"},
	{"geometry":{"coordinates":[-79.827389,43.378116],"type":"Point"},"properties":{"osm_id":"2562372179","tag":{"amenity":"waste_basket"}},"type":"Feature"},
	{"geometry":{"coordinates":[-79.827567,43.379027],"type":"Point"},"properties":{"osm_id":"2562372231","tag":{"amenity":"waste_basket"}},"type":"Feature"},
	{"geometry":{"coordinates":[-79.827568,43.37904],"type":"Point"},"properties":{"osm_id":"2562372232","tag":{"amenity":"recycling","recycling:cans":"yes","recycling:glass":"yes","recycling:paper":"yes","recycling_type":"container"}},"type":"Feature"},
	{"geometry":{"coordinates":[-79.865342,43.351917],"type":"Point"},"properties":{"osm_id":"2567352227","tag":{"amenity":"waste_basket"}},"type":"Feature"},
	{"geometry":{"coordinates":[-79.865368,43.351922],"type":"Point"},"properties":{"osm_id":"2567352229","tag":{"amenity":"recycling","recycling:cans":"yes","recycling:glass":"yes","recycling:paper":"yes","recycling_type":"container"}},"type":"Feature"},
	{"geometry":{"coordinates":[-79.864312,43.352413],"type":"Point"},"properties":{"osm_id":"2567352309","tag":{"amenity":"recycling","recycling:cans":"yes","recycling:glass":"yes","recycling:paper":"yes","recycling_type":"container"}},"type":"Feature"},
	{"geometry":{"coordinates":[-79.864305,43.352432],"type":"Point"},"properties":{"osm_id":"2567352312","tag":{"amenity":"waste_basket"}},"type":"Feature"},
	{"geometry":{"coordinates":[-79.865905,43.352641],"type":"Point"},"properties":{"osm_id":"2567352320","tag":{"amenity":"recycling","recycling:cans":"yes","recycling:glass":"yes","recycling:paper":"yes","recycling_type":"container"}},"type":"Feature"},
	{"geometry":{"coordinates":[-79.865901,43.352661],"type":"Point"},"properties":{"osm_id":"2567352323","tag":{"amenity":"waste_basket"}},"type":"Feature"},
	{"geometry":{"coordinates":[-79.86558,43.353314],"type":"Point"},"properties":{"osm_id":"2567352354","tag":{"amenity":"recycling","recycling:cans":"yes","recycling:glass":"yes","recycling:paper":"yes","recycling_type":"container"}},"type":"Feature"},
	{"geometry":{"coordinates":[-79.865576,43.353333],"type":"Point"},"properties":{"osm_id":"2567352357","tag":{"amenity":"waste_basket"}},"type":"Feature"},
	{"geometry":{"coordinates":[-79.818845,43.370655],"type":"Point"},"properties":{"osm_id":"2660601303","tag":{"amenity":"waste_basket"}},"type":"Feature"},
	{"geometry":{"coordinates":[-79.818839,43.370663],"type":"Point"},"properties":{"osm_id":"2660601304","tag":{"amenity":"recycling","recycling:cans":"yes","recycling:glass":"yes","recycling:paper":"yes","recycling_type":"container"}},"type":"Feature"},
	{"geometry":{"coordinates":[-79.818771,43.37087],"type":"Point"},"properties":{"osm_id":"2660601307","tag":{"amenity":"waste_basket"}},"type":"Feature"},
	{"geometry":{"coordinates":[-79.818764,43.370878],"type":"Point"},"properties":{"osm_id":"2660601308","tag":{"amenity":"recycling","recycling:cans":"yes","recycling:glass":"yes","recycling:paper":"yes","recycling_type":"container"}},"type":"Feature"},
	{"geometry":{"coordinates":[-79.819093,43.375375],"type":"Point"},"properties":{"osm_id":"2660601318","tag":{"amenity":"waste_basket"}},"type":"Feature"},
	{"geometry":{"coordinates":[-79.819091,43.375384],"type":"Point"},"properties":{"osm_id":"2660601321","tag":{"amenity":"recycling","recycling:cans":"yes","recycling:glass":"yes","recycling:paper":"yes","recycling_type":"container"}},"type":"Feature"},
	{"geometry":{"coordinates":[-79.819166,43.37556],"type":"Point"},"properties":{"osm_id":"2660601322","tag":{"amenity":"waste_basket"}},"type":"Feature"},
	{"geometry":{"coordinates":[-79.819165,43.37557],"type":"Point"},"properties":{"osm_id":"2660601323","tag":{"amenity":"recycling","recycling:cans":"yes","recycling:glass":"yes","recycling:paper":"yes","recycling_type":"container"}},"type":"Feature"},
	{"geometry":{"coordinates":[-79.817016,43.387261],"type":"Point"},"properties":{"osm_id":"2660601503","tag":{"amenity":"waste_basket"}},"type":"Feature"},
	{"geometry":{"coordinates":[-79.817028,43.387266],"type":"Point"},"properties":{"osm_id":"2660601505","tag":{"amenity":"recycling","recycling:cans":"yes","recycling:glass":"yes","recycling:paper":"yes","recycling_type":"container"}},"type":"Feature"},
	{"geometry":{"coordinates":[-79.841392,43.344151],"type":"Point"},"properties":{"osm_id":"2953438719","tag":{"amenity":"waste_basket"}},"type":"Feature"},
	{"geometry":{"coordinates":[-79.838105,43.340792],"type":"Point"},"properties":{"osm_id":"2953465115","tag":{"amenity":"waste_basket"}},"type":"Feature"},
	{"geometry":{"coordinates":[-79.844489,43.362116],"type":"Point"},"properties":{"osm_id":"2953480638","tag":{"amenity":"waste_basket"}},"type":"Feature"},
	{"geometry":{"coordinates":[-79.818257,43.362163],"type":"Point"},"properties":{"osm_id":"3149508217","tag":{"amenity":"waste_basket"}},"type":"Feature"},
	{"geometry":{"coordinates":[-79.818714,43.362917],"type":"Point"},"properties":{"osm_id":"3149508224","tag":{"amenity":"waste_basket"}},"type":"Feature"},
	{"geometry":{"coordinates":[-79.808586,43.355065],"type":"Point"},"properties":{"osm_id":"3561676072","tag":{"amenity":"waste_basket"}},"type":"Feature"},
	{"geometry":{"coordinates":[-79.833821,43.350118],"type":"Point"},"properties":{"osm_id":"3634013067","tag":{"amenity":"waste_basket","sidewalk_orientation":"between"}},"type":"Feature"},
	{"geometry":{"coordinates":[-79.835583,43.351332],"type":"Point"},"properties":{"osm_id":"3634013157","tag":{"amenity":"waste_basket","sidewalk_orientation":"between"}},"type":"Feature"},
	{"geometry":{"coordinates":[-79.842465,43.356198],"type":"Point"},"properties":{"osm_id":"3634015880","tag":{"amenity":"waste_basket","sidewalk_orientation":"between"}},"type":"Feature"},
	{"geometry":{"coordinates":[-79.842986,43.357876],"type":"Point"},"properties":{"osm_id":"3634016622","tag":{"amenity":"waste_basket","sidewalk_orientation":"away"}},"type":"Feature"},
	{"geometry":{"coordinates":[-79.817743,43.348719],"type":"Point"},"properties":{"osm_id":"4209274806","tag":{"amenity":"waste_basket"}},"type":"Feature"},
	{"geometry":{"coordinates":[-79.814898,43.33478],"type":"Point"},"properties":{"osm_id":"7858998892","tag":{"amenity":"waste_basket"}},"type":"Feature"}
]
}
