{
"type": "FeatureCollection",
"features": [
	{"geometry":{"coordinates":[-79.877474,43.262861],"type":"Point"},"properties":{"osm_id":"1538599574","tag":{"amenity":"waste_basket"}},"type":"Feature"},
	{"geometry":{"coordinates":[-79.864539,43.266799],"type":"Point"},"properties":{"osm_id":"3632296280","tag":{"amenity":"waste_basket","colour":"black","sidewalk_orientation":"between"}},"type":"Feature"},
	{"geometry":{"coordinates":[-79.864707,43.266843],"type":"Point"},"properties":{"osm_id":"3645296816","tag":{"amenity":"waste_basket","colour":"black","sidewalk_orientation":"between"}},"type":"Feature"},
	{"geometry":{"coordinates":[-79.862678,43.266368],"type":"Point"},"properties":{"osm_id":"3671035301","tag":{"amenity":"waste_basket","colour":"green"}},"type":"Feature"},
	{"geometry":{"coordinates":[-79.864238,43.303334],"type":"Point"},"properties":{"osm_id":"3861773954","tag":{"amenity":"waste_basket"}},"type":"Feature"},
	{"geometry":{"coordinates":[-79.86426,43.303334],"type":"Point"},"properties":{"osm_id":"3861773955","tag":{"amenity":"recycling","recycling_type":"container"}},"type":"Feature"},
	{"geometry":{"coordinates":[-79.886268,43.289359],"type":"Point"},"properties":{"osm_id":"4040416708","tag":{"amenity":"waste_basket"}},"type":"Feature"}
]
}
