{
"type": "FeatureCollection",
"features": [
	{"geometry":{"coordinates":[-79.889494,40.390903],"type":"Point"},"properties":{"is_in":"Allegheny,Pennsylvania,Pa.,PA,USA","name":"Terrace","osm_id":"158481393","place":"hamlet","tag":{"gnis:Class":"Populated Place","gnis:County":"Allegheny","gnis:County_num":"003","gnis:ST_alpha":"PA","gnis:ST_num":"42","gnis:id":"1189372","import_uuid":"bb7269ee-502a-5391-8056-e3ce0e66489c"}},"type":"Feature"},
	{"geometry":{"coordinates":[-79.841834,40.410335],"type":"Point"},"properties":{"osm_id":"1981241414","tag":{"amenity":"waste_basket"}},"type":"Feature"},
	{"geometry":{"coordinates":[-79.841475,40.408473],"type":"Point"},"properties":{"osm_id":"1981434596","tag":{"amenity":"waste_basket"}},"type":"Feature"},
	{"geometry":{"coordinates":[-79.840978,40.411622],"type":"Point"},"properties":{"osm_id":"1981569972","tag":{"amenity":"waste_basket"}},"type":"Feature"},
	{"geometry":{"coordinates":[-79.838642,40.411673],"type":"Point"},"properties":{"osm_id":"1981640514","tag":{"amenity":"waste_basket"}},"type":"Feature"},
	{"geometry":{"coordinates":[-79.838183,40.412063],"type":"Point"},"properties":{"osm_id":"1981655689","tag":{"amenity":"waste_basket"}},"type":"Feature"},
	{"geometry":{"coordinates":[-79.834884,40.408385],"type":"Point"},"properties":{"osm_id":"1981730058","tag":{"amenity":"waste_basket"}},"type":"Feature"},
	{"geometry":{"coordinates":[-79.835847,40.406051],"type":"Point"},"properties":{"osm_id":"1981730089","tag":{"amenity":"waste_basket"}},"type":"Feature"},
	{"geometry":{"coordinates":[-79.835163,40.406398],"type":"Point"},"properties":{"osm_id":"1981730133","tag":{"amenity":"waste_basket"}},"type":"Feature"},
	{"geometry":{"coordinates":[-79.835198,40.406418],"type":"Point"},"properties":{"osm_id":"1981730169","tag":{"amenity":"waste_basket"}},"type":"Feature"},
	{"geometry":{"coordinates":[-79.837486,40.41298],"type":"Point"},"properties":{"osm_id":"1984647984","tag":{"amenity":"waste_basket"}},"type":"Feature"},
	{"geometry":{"coordinates":[-79.840568,40.412435],"type":"Point"},"properties":{"osm_id":"1985444604","tag":{"amenity":"waste_basket"}},"type":"Feature"},
	{"geometry":{"coordinates":[-79.892017,40.446194],"type":"Point"},"properties":{"osm_id":"2362106495","tag":{"amenity":"waste_basket"}},"type":"Feature"},
	{"geometry":{"coordinates":[-79.887905,40.44464],"type":"Point"},"properties":{"osm_id":"2362146818","tag":{"amenity":"waste_basket"}},"type":"Feature"},
	{"geometry":{"coordinates":[-79.887277,40.444453],"type":"Point"},"properties":{"osm_id":"2362180779","tag":{"amenity":"waste_basket"}},"type":"Feature"},
	{"geometry":{"coordinates":[-79.886761,40.444285],"type":"Point"},"properties":{"osm_id":"2362184231","tag":{"amenity":"waste_basket"}},"type":"Feature"},
	{"geometry":{"coordinates":[-79.885855,40.443926],"type":"Point"},"properties":{"osm_id":"2362199475","tag":{"amenity":"waste_basket"}},"type":"Feature"},
	{"geometry":{"coordinates":[-79.885459,40.443854],"type":"Point"},"properties":{"osm_id":"2362205972","tag":{"amenity":"waste_basket"}},"type":"Feature"},
	{"geometry":{"coordinates":[-79.885163,40.443888],"type":"Point"},"properties":{"osm_id":"2362210146","tag":{"amenity":"waste_basket"}},"type":"Feature"},
	{"geometry":{"coordinates":[-79.884724,40.443552],"type":"Point"},"properties":{"osm_id":"2362227979","tag":{"amenity":"waste_basket"}},"type":"Feature"},
	{"geometry":{"coordinates":[-79.884843,40.443602],"type":"Point"},"properties":{"osm_id":"2362227982","tag":{"amenity":"waste_basket"}},"type":"Feature"},
	{"geometry":{"coordinates":[-79.884565,40.443689],"type":"Point"},"properties":{"osm_id":"2362227983","tag":{"amenity":"waste_basket"}},"type":"Feature"},
	{"geometry":{"coordinates":[-79.884561,40.443552],"type":"Point"},"properties":{"osm_id":"2362227984","tag":{"amenity":"waste_basket"}},"type":"Feature"},
	{"geometry":{"coordinates":[-79.884716,40.443827],"type":"Point"},"properties":{"osm_id":"2362227985","tag":{"amenity":"waste_basket"}},"type":"Feature"},
	{"geometry":{"coordinates":[-79.884488,40.444494],"type":"Point"},"properties":{"osm_id":"2362258370","tag":{"amenity":"waste_basket"}},"type":"Feature"}
]
}
