{
"type": "FeatureCollection",
"features": [
	{"geometry":{"coordinates":[-75.076822,39.951889],"type":"Point"},"properties":{"osm_id":"3686401466","tag":{"amenity":"recycling","recycling:clothes":"yes"}},"type":"Feature"},
	{"geometry":{"coordinates":[-75.12045,39.944265],"type":"Point"},"properties":{"osm_id":"5056929302","tag":{"amenity":"waste_disposal"}},"type":"Feature"},
	{"geometry":{"coordinates":[-75.120983,39.945017],"type":"Point"},"properties":{"osm_id":"5508720104","tag":{"amenity":"waste_basket"}},"type":"Feature"},
	{"geometry":{"coordinates":[-75.120845,39.944992],"type":"Point"},"properties":{"osm_id":"5508720105","tag":{"amenity":"waste_basket"}},"type":"Feature"},
	{"geometry":{"coordinates":[-75.12102,39.94489],"type":"Point"},"properties":{"osm_id":"5508720106","tag":{"amenity":"waste_basket"}},"type":"Feature"},
	{"geometry":{"coordinates":[-75.121087,39.944558],"type":"Point"},"properties":{"osm_id":"5508720113","tag":{"amenity":"waste_basket"}},"type":"Feature"},
	{"geometry":{"coordinates":[-75.121035,39.944735],"type":"Point"},"properties":{"osm_id":"5508720114","tag":{"amenity":"waste_basket"}},"type":"Feature"},
	{"geometry":{"coordinates":[-75.072688,39.926704],"type":"Point"},"properties":{"osm_id":"5620406764","tag":{"amenity":"waste_disposal"}},"type":"Feature"},
	{"geometry":{"coordinates":[-75.108501,39.932993],"type":"Point"},"properties":{"name":"Penn Jersey Recycling","osm_id":"5650297542","tag":{"amenity":"recycling","recycling_type":"centre"}},"type":"Feature"},
	{"geometry":{"coordinates":[-75.119268,39.944189],"type":"Point"},"properties":{"osm_id":"5656873632","tag":{"amenity":"waste_basket"}},"type":"Feature"},
	{"geometry":{"coordinates":[-75.103857,39.95039],"type":"Point"},"properties":{"name":"W. Hargrove Recycling","osm_id":"5662286854","tag":{"addr:city":"Camden","addr:housenumber":"1507","addr:postcode":"08105","addr:state":"NJ","addr:street":"East State Street","amenity":"recycling","recycling_type":"centre"}},"type":"Feature"},
	{"geometry":{"coordinates":[-75.098824,39.957342],"type":"Point"},"properties":{"name":"River Front Recycling","osm_id":"5662286862","tag":{"amenity":"recycling","recycling_type":"centre"}},"type":"Feature"},
	{"geometry":{"coordinates":[-75.070409,39.940142],"type":"Point"},"properties":{"osm_id":"5688657727","tag":{"amenity":"waste_disposal"}},"type":"Feature"},
	{"geometry":{"coordinates":[-75.139253,39.953273],"type":"Point"},"properties":{"osm_id":"5723276158","tag":{"amenity":"waste_basket"}},"type":"Feature"},
	{"geometry":{"coordinates":[-75.137851,39.952906],"type":"Point"},"properties":{"osm_id":"5723276166","tag":{"amenity":"waste_basket"}},"type":"Feature"},
	{"geometry":{"coordinates":[-75.139615,39.953303],"type":"Point"},"properties":{"osm_id":"5723276184","tag":{"amenity":"waste_basket"}},"type":"Feature"},
	{"geometry":{"coordinates":[-75.142156,39.946517],"type":"Point"},"properties":{"osm_id":"5723276191","tag":{"amenity":"waste_basket"}},"type":"Feature"},
	{"geometry":{"coordinates":[-75.142144,39.946593],"type":"Point"},"properties":{"osm_id":"5723276192","tag":{"amenity":"waste_basket"}},"type":"Feature"},
	{"geometry":{"coordinates":[-75.141482,39.946505],"type":"Point"},"properties":{"osm_id":"5723276193","tag":{"amenity":"waste_basket"}},"type":"Feature"},
	{"geometry":{"coordinates":[-75.141496,39.946429],"type":"Point"},"properties":{"osm_id":"5723276194","tag":{"amenity":"waste_basket"}},"type":"Feature"},
	{"geometry":{"coordinates":[-75.142912,39.946555],"type":"Point"},"properties":{"osm_id":"5723276195","tag":{"amenity":"waste_basket"}},"type":"Feature"},
	{"geometry":{"coordinates":[-75.118682,39.945367],"type":"Point"},"properties":{"osm_id":"5771278175","tag":{"amenity":"waste_basket"}},"type":"Feature"},
	{"geometry":{"coordinates":[-75.118817,39.945714],"type":"Point"},"properties":{"osm_id":"5771278177","tag":{"amenity":"waste_basket"}},"type":"Feature"},
	{"geometry":{"coordinates":[-75.118858,39.945512],"type":"Point"},"properties":{"osm_id":"5771278178","tag":{"amenity":"waste_basket"}},"type":"Feature"},
	{"geometry":{"coordinates":[-75.119306,39.945413],"type":"Point"},"properties":{"osm_id":"5771278179","tag":{"amenity":"waste_basket"}},"type":"Feature"},
	{"geometry":{"coordinates":[-75.119552,39.945453],"type":"Point"},"properties":{"osm_id":"5771278180","tag":{"amenity":"waste_basket"}},"type":"Feature"},
	{"geometry":{"coordinates":[-75.120635,39.945468],"type":"Point"},"properties":{"osm_id":"5771278182","tag":{"amenity":"waste_basket"}},"type":"Feature"},
	{"geometry":{"coordinates":[-75.120998,39.94551],"type":"Point"},"properties":{"osm_id":"5771278183","tag":{"amenity":"waste_basket"}},"type":"Feature"},
	{"geometry":{"coordinates":[-75.061192,39.948715],"type":"Point"},"properties":{"osm_id":"5823603809","tag":{"amenity":"waste_basket"}},"type":"Feature"},
	{"geometry":{"coordinates":[-75.06107,39.948708],"type":"Point"},"properties":{"osm_id":"5823603810","tag":{"amenity":"waste_basket"}},"type":"Feature"},
	{"geometry":{"coordinates":[-75.114865,39.955293],"type":"Point"},"properties":{"osm_id":"6047191910","tag":{"amenity":"waste_basket"}},"type":"Feature"},
	{"geometry":{"coordinates":[-75.115474,39.955536],"type":"Point"},"properties":{"osm_id":"6047191912","tag":{"amenity":"waste_basket"}},"type":"Feature"},
	{"geometry":{"coordinates":[-75.14549,39.950211],"type":"Point"},"properties":{"osm_id":"6698253875","tag":{"amenity":"waste_basket"}},"type":"Feature"},
	{"geometry":{"coordinates":[-75.145471,39.950208],"type":"Point"},"properties":{"osm_id":"6698253876","tag":{"amenity":"recycling","recycling_type":"container"}},"type":"Feature"},
	{"geometry":{"coordinates":[-75.131771,39.948229],"type":"Point"},"properties":{"osm_id":"7596079637","tag":{"amenity":"waste_basket","material":"metal","waste":"trash"}},"type":"Feature"},
	{"geometry":{"coordinates":[-75.13216,39.948264],"type":"Point"},"properties":{"osm_id":"7596079638","tag":{"amenity":"waste_basket","material":"metal","waste":"trash"}},"type":"Feature"},
	{"geometry":{"coordinates":[-75.131415,39.948159],"type":"Point"},"properties":{"osm_id":"7596079639","tag":{"amenity":"waste_basket","material":"metal","waste":"trash"}},"type":"Feature"},
	{"geometry":{"coordinates":[-75.132325,39.948355],"type":"Point"},"properties":{"osm_id":"7596079640","tag":{"amenity":"waste_basket","material":"metal","waste":"trash"}},"type":"Feature"},
	{"geometry":{"coordinates":[-75.131887,39.948337],"type":"Point"},"properties":{"osm_id":"7596079641","tag":{"amenity":"waste_basket","material":"metal","waste":"trash"}},"type":"Feature"},
	{"geometry":{"coordinates":[-75.132207,39.948622],"type":"Point"},"properties":{"osm_id":"7596079642","tag":{"amenity":"waste_basket","material":"metal","waste":"trash"}},"type":"Feature"},
	{"geometry":{"coordinates":[-75.131732,39.948477],"type":"Point"},"properties":{"osm_id":"7596079648","tag":{"amenity":"waste_basket","material":"metal","waste":"trash"}},"type":"Feature"},
	{"geometry":{"coordinates":[-75.131339,39.94854],"type":"Point"},"properties":{"osm_id":"7596079654","tag":{"amenity":"waste_basket","material":"metal","waste":"trash"}},"type":"Feature"}
]
}
