{
"type": "FeatureCollection",
"features": [
	{"geometry":{"coordinates":[-75.079373,39.792144],"type":"Point"},"properties":{"name":"Wash Twp Recycling","osm_id":"1612442358","tag":{"amenity":"recycling"}},"type":"Feature"},
	{"geometry":{"coordinates":[-75.124054,39.780827],"type":"Point"},"properties":{"osm_id":"5685357335","tag":{"amenity":"waste_basket"}},"type":"Feature"},
	{"geometry":{"coordinates":[-75.070333,39.785932],"type":"Point"},"properties":{"osm_id":"5768823024","tag":{"amenity":"waste_basket"}},"type":"Feature"},
	{"geometry":{"coordinates":[-75.070288,39.785805],"type":"Point"},"properties":{"osm_id":"5768823028","tag":{"amenity":"waste_basket"}},"type":"Feature"},
	{"geometry":{"coordinates":[-75.070418,39.785861],"type":"Point"},"properties":{"osm_id":"5768823030","tag":{"amenity":"waste_basket"}},"type":"Feature"},
	{"geometry":{"coordinates":[-75.070228,39.785928],"type":"Point"},"properties":{"osm_id":"5768823033","tag":{"amenity":"waste_basket"}},"type":"Feature"}
]
}
