{
"type": "FeatureCollection",
"features": [
	{"geometry":{"coordinates":[-75.121956,39.712129],"type":"Point"},"properties":{"osm_id":"1261524158","tag":{"Comment":"eng 1","GPS_Date":"2011/04/15","GPS_Time":"01:33:06pm","Horz_Prec":"2.0","Max_PDOP":"7.2","Vert_Prec":"2.7","amenity":"waste_basket"}},"type":"Feature"},
	{"geometry":{"coordinates":[-75.116275,39.709546],"type":"Point"},"properties":{"osm_id":"1261524159","tag":{"Comment":"willlow volleyballl side","GPS_Date":"2011/04/15","GPS_Time":"02:24:21pm","Horz_Prec":"0.4","Max_PDOP":"1.9","Vert_Prec":"0.6","amenity":"waste_basket"}},"type":"Feature"},
	{"geometry":{"coordinates":[-75.119234,39.709606],"type":"Point"},"properties":{"osm_id":"1261524160","tag":{"Comment":"savitz riv side","GPS_Date":"2011/04/15","GPS_Time":"01:47:41pm","Horz_Prec":"0.7","Max_PDOP":"3.0","Vert_Prec":"1.2","amenity":"waste_basket"}},"type":"Feature"},
	{"geometry":{"coordinates":[-75.117153,39.708099],"type":"Point"},"properties":{"osm_id":"1261524171","tag":{"Comment":"winans door 323","GPS_Date":"2011/04/15","GPS_Time":"02:12:41pm","Horz_Prec":"0.7","Max_PDOP":"2.3","Vert_Prec":"0.8","amenity":"waste_basket"}},"type":"Feature"},
	{"geometry":{"coordinates":[-75.119771,39.709905],"type":"Point"},"properties":{"osm_id":"1261524173","tag":{"Comment":"clock can","GPS_Date":"2011/04/15","GPS_Time":"01:46:26pm","Horz_Prec":"0.5","Max_PDOP":"1.8","Vert_Prec":"0.7","amenity":"waste_basket"}},"type":"Feature"},
	{"geometry":{"coordinates":[-75.118189,39.710201],"type":"Point"},"properties":{"osm_id":"1261524178","tag":{"Comment":"rec center door","GPS_Date":"2011/04/15","GPS_Time":"02:20:11pm","Horz_Prec":"0.4","Max_PDOP":"2.3","Std_Dev":"0.130730","Vert_Prec":"0.7","amenity":"waste_basket"}},"type":"Feature"},
	{"geometry":{"coordinates":[-75.118533,39.709034],"type":"Point"},"properties":{"osm_id":"1261524179","tag":{"Comment":"student center path1","GPS_Date":"2011/04/15","GPS_Time":"01:56:51pm","Horz_Prec":"0.5","Max_PDOP":"2.2","Vert_Prec":"0.6","amenity":"waste_basket"}},"type":"Feature"},
	{"geometry":{"coordinates":[-75.122354,39.71227],"type":"Point"},"properties":{"osm_id":"1261524194","tag":{"Comment":"eng 2","GPS_Date":"2011/04/15","GPS_Time":"01:35:11pm","Horz_Prec":"2.1","Max_PDOP":"6.2","Vert_Prec":"2.1","amenity":"waste_basket"}},"type":"Feature"},
	{"geometry":{"coordinates":[-75.118142,39.708376],"type":"Point"},"properties":{"osm_id":"1261524197","tag":{"Comment":"student center 322 door","GPS_Date":"2011/04/15","GPS_Time":"02:09:46pm","Horz_Prec":"3.4","Max_PDOP":"6.9","Vert_Prec":"3.4","amenity":"waste_basket"}},"type":"Feature"},
	{"geometry":{"coordinates":[-75.120604,39.710215],"type":"Point"},"properties":{"osm_id":"1261524200","tag":{"Comment":"robinson 1","GPS_Date":"2011/04/15","GPS_Time":"01:43:31pm","Horz_Prec":"0.9","Max_PDOP":"2.9","Vert_Prec":"1.0","amenity":"waste_basket"}},"type":"Feature"},
	{"geometry":{"coordinates":[-75.118111,39.708861],"type":"Point"},"properties":{"osm_id":"1261524205","tag":{"Comment":"student center door","GPS_Date":"2011/04/15","GPS_Time":"01:54:46pm","Horz_Prec":"1.4","Max_PDOP":"6.6","Vert_Prec":"2.7","amenity":"waste_basket"}},"type":"Feature"},
	{"geometry":{"coordinates":[-75.118459,39.708513],"type":"Point"},"properties":{"osm_id":"1261524212","tag":{"Comment":"sc 322 side","GPS_Date":"2011/04/15","GPS_Time":"02:08:06pm","Horz_Prec":"0.8","Max_PDOP":"4.6","Vert_Prec":"1.0","amenity":"waste_basket"}},"type":"Feature"},
	{"geometry":{"coordinates":[-75.119788,39.711532],"type":"Point"},"properties":{"osm_id":"1261524215","tag":{"Comment":"education","GPS_Date":"2011/04/15","GPS_Time":"01:24:26pm","Horz_Prec":"1.6","Max_PDOP":"3.8","Std_Dev":"1.138997","Vert_Prec":"1.7","amenity":"waste_basket"}},"type":"Feature"},
	{"geometry":{"coordinates":[-75.117184,39.709744],"type":"Point"},"properties":{"osm_id":"1261524221","tag":{"Comment":"mimosa courtside","GPS_Date":"2011/04/15","GPS_Time":"02:22:41pm","Horz_Prec":"0.4","Max_PDOP":"2.3","Vert_Prec":"0.7","amenity":"waste_basket"}},"type":"Feature"},
	{"geometry":{"coordinates":[-75.117919,39.709093],"type":"Point"},"properties":{"osm_id":"1261524222","tag":{"Comment":"student center bridge","GPS_Date":"2011/04/15","GPS_Time":"01:53:56pm","Horz_Prec":"1.6","Max_PDOP":"3.3","Vert_Prec":"1.1","amenity":"waste_basket"}},"type":"Feature"},
	{"geometry":{"coordinates":[-75.119836,39.709142],"type":"Point"},"properties":{"osm_id":"1261524232","tag":{"Comment":"savitz 322 side","GPS_Date":"2011/04/15","GPS_Time":"02:01:01pm","Horz_Prec":"2.2","Max_PDOP":"11.6","Vert_Prec":"2.1","amenity":"waste_basket"}},"type":"Feature"},
	{"geometry":{"coordinates":[-75.120173,39.71011],"type":"Point"},"properties":{"osm_id":"1261524235","tag":{"Comment":"robinson 2","GPS_Date":"2011/04/15","GPS_Time":"01:45:36pm","Horz_Prec":"0.8","Max_PDOP":"1.9","Vert_Prec":"1.1","amenity":"waste_basket"}},"type":"Feature"},
	{"geometry":{"coordinates":[-75.117849,39.709672],"type":"Point"},"properties":{"osm_id":"1261524238","tag":{"Comment":"mimosa door","GPS_Date":"2011/04/15","GPS_Time":"02:18:56pm","Horz_Prec":"13.6","Max_PDOP":"8.7","Vert_Prec":"4.6","amenity":"waste_basket"}},"type":"Feature"},
	{"geometry":{"coordinates":[-75.121482,39.71193],"type":"Point"},"properties":{"osm_id":"1261524243","tag":{"Comment":"wilson1","GPS_Date":"2011/04/15","GPS_Time":"01:31:26pm","Horz_Prec":"0.6","Max_PDOP":"2.0","Vert_Prec":"0.8","amenity":"waste_basket"}},"type":"Feature"},
	{"geometry":{"coordinates":[-75.118549,39.709451],"type":"Point"},"properties":{"osm_id":"1261524251","tag":{"Comment":"library riv side","GPS_Date":"2011/04/15","GPS_Time":"01:51:51pm","Horz_Prec":"0.7","Max_PDOP":"3.2","Vert_Prec":"0.9","amenity":"waste_basket"}},"type":"Feature"},
	{"geometry":{"coordinates":[-75.117143,39.707996],"type":"Point"},"properties":{"osm_id":"1261524253","tag":{"Comment":"winans 322","GPS_Date":"2011/04/15","GPS_Time":"02:13:31pm","Horz_Prec":"0.5","Max_PDOP":"2.3","Vert_Prec":"0.7","amenity":"waste_basket"}},"type":"Feature"},
	{"geometry":{"coordinates":[-75.121042,39.710347],"type":"Point"},"properties":{"osm_id":"1261524254","tag":{"Comment":"meditation westby","GPS_Date":"2011/04/15","GPS_Time":"01:42:16pm","Horz_Prec":"0.5","Max_PDOP":"2.0","Vert_Prec":"0.6","amenity":"waste_basket"}},"type":"Feature"},
	{"geometry":{"coordinates":[-75.118725,39.709091],"type":"Point"},"properties":{"osm_id":"1261524261","tag":{"Comment":"library door path","GPS_Date":"2011/04/15","GPS_Time":"01:57:41pm","Horz_Prec":"2.7","Max_PDOP":"8.3","Vert_Prec":"2.3","amenity":"waste_basket"}},"type":"Feature"},
	{"geometry":{"coordinates":[-75.120098,39.709217],"type":"Point"},"properties":{"osm_id":"1261524269","tag":{"Comment":"savitz handicap path","GPS_Date":"2011/04/15","GPS_Time":"02:02:16pm","Horz_Prec":"1.0","Max_PDOP":"2.2","Vert_Prec":"1.0","amenity":"waste_basket"}},"type":"Feature"},
	{"geometry":{"coordinates":[-75.121972,39.7105],"type":"Point"},"properties":{"osm_id":"1261524274","tag":{"Comment":"A lot bridge","GPS_Date":"2011/04/15","GPS_Time":"01:40:11pm","Horz_Prec":"0.4","Max_PDOP":"1.8","Vert_Prec":"0.6","amenity":"waste_basket"}},"type":"Feature"},
	{"geometry":{"coordinates":[-75.117492,39.708215],"type":"Point"},"properties":{"osm_id":"1261524275","tag":{"Comment":"student center/old bookstore 322","GPS_Date":"2011/04/15","GPS_Time":"02:11:01pm","Horz_Prec":"0.6","Max_PDOP":"2.3","Std_Dev":"0.159129","Vert_Prec":"0.9","amenity":"waste_basket"}},"type":"Feature"},
	{"geometry":{"coordinates":[-75.118557,39.70932],"type":"Point"},"properties":{"osm_id":"1261524276","tag":{"Comment":"library door riv side","GPS_Date":"2011/04/15","GPS_Time":"01:52:41pm","Horz_Prec":"1.1","Max_PDOP":"3.2","Vert_Prec":"1.7","amenity":"waste_basket"}},"type":"Feature"},
	{"geometry":{"coordinates":[-75.118204,39.709171],"type":"Point"},"properties":{"osm_id":"1261524285","tag":{"Comment":"student center plaza","GPS_Date":"2011/04/15","GPS_Time":"01:56:01pm","Horz_Prec":"0.6","Max_PDOP":"1.9","Vert_Prec":"0.7","amenity":"waste_basket"}},"type":"Feature"},
	{"geometry":{"coordinates":[-75.119262,39.708666],"type":"Point"},"properties":{"osm_id":"1261524292","tag":{"Comment":"lib 322 side","GPS_Date":"2011/04/15","GPS_Time":"01:59:21pm","Horz_Prec":"0.5","Max_PDOP":"3.0","Vert_Prec":"0.7","amenity":"waste_basket"}},"type":"Feature"},
	{"geometry":{"coordinates":[-75.127796,39.712138],"type":"Point"},"properties":{"osm_id":"2160252706","tag":{"amenity":"waste_basket"}},"type":"Feature"},
	{"geometry":{"coordinates":[-75.127839,39.712109],"type":"Point"},"properties":{"osm_id":"2160252708","tag":{"amenity":"recycling"}},"type":"Feature"},
	{"geometry":{"coordinates":[-75.127544,39.714484],"type":"Point"},"properties":{"osm_id":"2160252715","tag":{"amenity":"recycling"}},"type":"Feature"},
	{"geometry":{"coordinates":[-75.129711,39.712697],"type":"Point"},"properties":{"osm_id":"2160252720","tag":{"amenity":"waste_basket"}},"type":"Feature"},
	{"geometry":{"coordinates":[-75.128641,39.711787],"type":"Point"},"properties":{"osm_id":"2160252723","tag":{"amenity":"recycling"}},"type":"Feature"},
	{"geometry":{"coordinates":[-75.129089,39.713945],"type":"Point"},"properties":{"osm_id":"2160252726","tag":{"amenity":"waste_basket"}},"type":"Feature"},
	{"geometry":{"coordinates":[-75.128748,39.714673],"type":"Point"},"properties":{"osm_id":"2160252730","tag":{"amenity":"recycling"}},"type":"Feature"},
	{"geometry":{"coordinates":[-75.128593,39.711772],"type":"Point"},"properties":{"osm_id":"2160252736","tag":{"amenity":"waste_basket"}},"type":"Feature"},
	{"geometry":{"coordinates":[-75.127547,39.714543],"type":"Point"},"properties":{"osm_id":"2160252757","tag":{"amenity":"waste_basket"}},"type":"Feature"},
	{"geometry":{"coordinates":[-75.127212,39.713343],"type":"Point"},"properties":{"osm_id":"2160252762","tag":{"amenity":"waste_basket"}},"type":"Feature"},
	{"geometry":{"coordinates":[-75.129668,39.712713],"type":"Point"},"properties":{"osm_id":"2160252765","tag":{"amenity":"recycling"}},"type":"Feature"},
	{"geometry":{"coordinates":[-75.129387,39.713326],"type":"Point"},"properties":{"osm_id":"2160252768","tag":{"amenity":"recycling"}},"type":"Feature"},
	{"geometry":{"coordinates":[-75.129408,39.713289],"type":"Point"},"properties":{"osm_id":"2160252771","tag":{"amenity":"waste_basket"}},"type":"Feature"},
	{"geometry":{"coordinates":[-75.127971,39.714038],"type":"Point"},"properties":{"osm_id":"2160252774","tag":{"amenity":"recycling"}},"type":"Feature"},
	{"geometry":{"coordinates":[-75.128786,39.714665],"type":"Point"},"properties":{"osm_id":"2160252785","tag":{"amenity":"waste_basket"}},"type":"Feature"},
	{"geometry":{"coordinates":[-75.129111,39.713914],"type":"Point"},"properties":{"osm_id":"2160252788","tag":{"amenity":"recycling"}},"type":"Feature"},
	{"geometry":{"coordinates":[-75.127257,39.713365],"type":"Point"},"properties":{"osm_id":"2160252790","tag":{"amenity":"recycling"}},"type":"Feature"},
	{"geometry":{"coordinates":[-75.12803,39.714061],"type":"Point"},"properties":{"osm_id":"2160252797","tag":{"amenity":"waste_basket"}},"type":"Feature"},
	{"geometry":{"coordinates":[-75.117426,39.71011],"type":"Point"},"properties":{"osm_id":"3629620812","tag":{"amenity":"waste_basket"}},"type":"Feature"},
	{"geometry":{"coordinates":[-75.117362,39.709975],"type":"Point"},"properties":{"osm_id":"3629620813","tag":{"amenity":"waste_basket"}},"type":"Feature"},
	{"geometry":{"coordinates":[-75.11731,39.710053],"type":"Point"},"properties":{"osm_id":"3629620815","tag":{"amenity":"waste_basket"}},"type":"Feature"},
	{"geometry":{"coordinates":[-75.117829,39.708519],"type":"Point"},"properties":{"osm_id":"5228820011","tag":{"amenity":"waste_basket"}},"type":"Feature"},
	{"geometry":{"coordinates":[-75.117256,39.708729],"type":"Point"},"properties":{"osm_id":"5228820012","tag":{"amenity":"waste_disposal"}},"type":"Feature"},
	{"geometry":{"coordinates":[-75.117305,39.708636],"type":"Point"},"properties":{"osm_id":"5228820013","tag":{"amenity":"waste_disposal"}},"type":"Feature"},
	{"geometry":{"coordinates":[-75.116168,39.711238],"type":"Point"},"properties":{"osm_id":"5393597424","tag":{"amenity":"waste_disposal"}},"type":"Feature"},
	{"geometry":{"coordinates":[-75.125119,39.71086],"type":"Point"},"properties":{"osm_id":"5407635649","tag":{"amenity":"waste_disposal"}},"type":"Feature"},
	{"geometry":{"coordinates":[-75.120256,39.707812],"type":"Point"},"properties":{"osm_id":"5489452051","tag":{"amenity":"waste_basket"}},"type":"Feature"},
	{"geometry":{"coordinates":[-75.121239,39.707726],"type":"Point"},"properties":{"osm_id":"5489452057","tag":{"amenity":"waste_basket"}},"type":"Feature"},
	{"geometry":{"coordinates":[-75.121565,39.708052],"type":"Point"},"properties":{"osm_id":"5489452058","tag":{"amenity":"waste_basket"}},"type":"Feature"},
	{"geometry":{"coordinates":[-75.121302,39.70832],"type":"Point"},"properties":{"osm_id":"5489452061","tag":{"amenity":"waste_basket"}},"type":"Feature"},
	{"geometry":{"coordinates":[-75.121377,39.708572],"type":"Point"},"properties":{"osm_id":"5489452064","tag":{"amenity":"waste_basket"}},"type":"Feature"},
	{"geometry":{"coordinates":[-75.120849,39.70872],"type":"Point"},"properties":{"osm_id":"5489452072","tag":{"amenity":"waste_basket"}},"type":"Feature"},
	{"geometry":{"coordinates":[-75.120656,39.708709],"type":"Point"},"properties":{"osm_id":"5489452073","tag":{"amenity":"waste_basket"}},"type":"Feature"},
	{"geometry":{"coordinates":[-75.121066,39.708825],"type":"Point"},"properties":{"osm_id":"5489452076","tag":{"amenity":"waste_basket"}},"type":"Feature"},
	{"geometry":{"coordinates":[-75.119546,39.708827],"type":"Point"},"properties":{"osm_id":"5489452080","tag":{"amenity":"waste_basket"}},"type":"Feature"},
	{"geometry":{"coordinates":[-75.116712,39.707924],"type":"Point"},"properties":{"osm_id":"5489452084","tag":{"amenity":"waste_basket"}},"type":"Feature"},
	{"geometry":{"coordinates":[-75.116327,39.70777],"type":"Point"},"properties":{"osm_id":"5489452085","tag":{"amenity":"waste_basket"}},"type":"Feature"},
	{"geometry":{"coordinates":[-75.119781,39.708636],"type":"Point"},"properties":{"osm_id":"5592675474","tag":{"amenity":"waste_basket"}},"type":"Feature"},
	{"geometry":{"coordinates":[-75.120041,39.711181],"type":"Point"},"properties":{"osm_id":"5592675485","tag":{"amenity":"waste_basket"}},"type":"Feature"},
	{"geometry":{"coordinates":[-75.120133,39.711639],"type":"Point"},"properties":{"osm_id":"5640079760","tag":{"amenity":"waste_basket"}},"type":"Feature"},
	{"geometry":{"coordinates":[-75.11966,39.711485],"type":"Point"},"properties":{"osm_id":"5640079763","tag":{"amenity":"waste_basket"}},"type":"Feature"},
	{"geometry":{"coordinates":[-75.118056,39.709083],"type":"Point"},"properties":{"osm_id":"5640079773","tag":{"amenity":"waste_basket"}},"type":"Feature"},
	{"geometry":{"coordinates":[-75.123155,39.71063],"type":"Point"},"properties":{"osm_id":"5640132176","tag":{"amenity":"waste_basket"}},"type":"Feature"},
	{"geometry":{"coordinates":[-75.119451,39.708524],"type":"Point"},"properties":{"osm_id":"5640132209","tag":{"amenity":"waste_basket"}},"type":"Feature"},
	{"geometry":{"coordinates":[-75.121183,39.708114],"type":"Point"},"properties":{"osm_id":"5640160251","tag":{"amenity":"waste_basket"}},"type":"Feature"},
	{"geometry":{"coordinates":[-75.113714,39.709492],"type":"Point"},"properties":{"osm_id":"5640160253","tag":{"amenity":"waste_basket"}},"type":"Feature"},
	{"geometry":{"coordinates":[-75.113792,39.709436],"type":"Point"},"properties":{"osm_id":"5640160254","tag":{"amenity":"waste_basket"}},"type":"Feature"},
	{"geometry":{"coordinates":[-75.120521,39.710243],"type":"Point"},"properties":{"osm_id":"5641815771","tag":{"amenity":"waste_basket"}},"type":"Feature"},
	{"geometry":{"coordinates":[-75.117799,39.709338],"type":"Point"},"properties":{"osm_id":"5641815783","tag":{"amenity":"waste_basket"}},"type":"Feature"},
	{"geometry":{"coordinates":[-75.119427,39.710783],"type":"Point"},"properties":{"osm_id":"5641873688","tag":{"amenity":"waste_basket"}},"type":"Feature"},
	{"geometry":{"coordinates":[-75.119706,39.710488],"type":"Point"},"properties":{"osm_id":"5641873692","tag":{"amenity":"waste_basket"}},"type":"Feature"},
	{"geometry":{"coordinates":[-75.122257,39.709049],"type":"Point"},"properties":{"osm_id":"5641934780","tag":{"amenity":"waste_basket"}},"type":"Feature"},
	{"geometry":{"coordinates":[-75.122844,39.707914],"type":"Point"},"properties":{"osm_id":"5641934783","tag":{"amenity":"waste_disposal"}},"type":"Feature"},
	{"geometry":{"coordinates":[-75.112035,39.708556],"type":"Point"},"properties":{"osm_id":"5685156981","tag":{"amenity":"waste_basket"}},"type":"Feature"},
	{"geometry":{"coordinates":[-75.114492,39.710372],"type":"Point"},"properties":{"osm_id":"5685156983","tag":{"amenity":"waste_disposal"}},"type":"Feature"},
	{"geometry":{"coordinates":[-75.121222,39.710038],"type":"Point"},"properties":{"osm_id":"5787741783","tag":{"amenity":"waste_disposal"}},"type":"Feature"},
	{"geometry":{"coordinates":[-75.121126,39.709658],"type":"Point"},"properties":{"osm_id":"5787741787","tag":{"amenity":"waste_basket"}},"type":"Feature"},
	{"geometry":{"coordinates":[-75.121026,39.708954],"type":"Point"},"properties":{"osm_id":"5787753577","tag":{"amenity":"waste_basket"}},"type":"Feature"},
	{"geometry":{"coordinates":[-75.122997,39.712435],"type":"Point"},"properties":{"osm_id":"5787781036","tag":{"amenity":"waste_basket"}},"type":"Feature"},
	{"geometry":{"coordinates":[-75.122934,39.712436],"type":"Point"},"properties":{"osm_id":"5787781037","tag":{"amenity":"waste_basket"}},"type":"Feature"},
	{"geometry":{"coordinates":[-75.118418,39.709122],"type":"Point"},"properties":{"osm_id":"5821292617","tag":{"amenity":"waste_basket"}},"type":"Feature"},
	{"geometry":{"coordinates":[-75.120571,39.710909],"type":"Point"},"properties":{"osm_id":"7272676965","tag":{"amenity":"waste_basket","waste":"trash;recycling"}},"type":"Feature"}
]
}
