{
"type": "FeatureCollection",
"features": [
	{"geometry":{"coordinates":[-4.423255,55.834139],"type":"Point"},"properties":{"osm_id":"29583291","tag":{"amenity":"recycling"}},"type":"Feature"},
	{"geometry":{"coordinates":[-4.437238,55.848824],"type":"Point"},"properties":{"name":"Paisley Recycling Centre","osm_id":"1312933966","tag":{"amenity":"recycling","owner":"Renfrewshire Council","ownership":"municipal","recycling_type":"centre","wikidata":"Q106085861"}},"type":"Feature"},
	{"geometry":{"coordinates":[-4.402627,55.835647],"type":"Point"},"properties":{"osm_id":"6812292286","tag":{"amenity":"waste_basket"}},"type":"Feature"},
	{"geometry":{"coordinates":[-4.401127,55.835019],"type":"Point"},"properties":{"osm_id":"6943847551","tag":{"amenity":"waste_basket"}},"type":"Feature"},
	{"geometry":{"coordinates":[-4.420624,55.844046],"type":"Point"},"properties":{"osm_id":"8071221523","tag":{"amenity":"waste_basket","survey:date":"2020-10-31","waste":"litter"}},"type":"Feature"},
	{"geometry":{"coordinates":[-4.421354,55.84552],"type":"Point"},"properties":{"osm_id":"8071224520","tag":{"amenity":"waste_basket","survey:date":"2020-10-31","waste":"litter"}},"type":"Feature"},
	{"geometry":{"coordinates":[-4.425023,55.843482],"type":"Point"},"properties":{"osm_id":"8085509824","tag":{"amenity":"waste_basket","colour":"black","survey:date":"2020-11-05","waste":"litter"}},"type":"Feature"},
	{"geometry":{"coordinates":[-4.430655,55.844309],"type":"Point"},"properties":{"osm_id":"8085509923","tag":{"amenity":"waste_basket","survey:date":"2020-11-05","waste":"litter"}},"type":"Feature"},
	{"geometry":{"coordinates":[-4.41861,55.846301],"type":"Point"},"properties":{"osm_id":"8101477317","tag":{"amenity":"waste_basket","survey:date":"2020-11-10","waste":"litter"}},"type":"Feature"}
]
}
