{
"type": "FeatureCollection",
"features": [
	{"geometry":{"coordinates":[-4.452626,50.351913],"type":"Point"},"properties":{"osm_id":"4372630133","tag":{"amenity":"waste_basket","operator":"East Looe Town Trust"}},"type":"Feature"},
	{"geometry":{"coordinates":[-4.454282,50.354742],"type":"Point"},"properties":{"osm_id":"4372630397","tag":{"amenity":"waste_basket"}},"type":"Feature"},
	{"geometry":{"coordinates":[-4.455232,50.356157],"type":"Point"},"properties":{"osm_id":"4372630444","tag":{"amenity":"waste_basket"}},"type":"Feature"},
	{"geometry":{"coordinates":[-4.451571,50.346953],"type":"Point"},"properties":{"osm_id":"5486683663","tag":{"amenity":"waste_basket"}},"type":"Feature"},
	{"geometry":{"coordinates":[-4.468879,50.360538],"type":"Point"},"properties":{"osm_id":"5910407081","tag":{"amenity":"waste_basket","waste":"trash"}},"type":"Feature"},
	{"geometry":{"coordinates":[-4.452631,50.351712],"type":"Point"},"properties":{"osm_id":"7785161682","tag":{"amenity":"waste_basket","operator":"East Looe Town Trust"}},"type":"Feature"}
]
}
