{
"type": "FeatureCollection",
"features": [
	{"geometry":{"coordinates":[-4.441657,48.393228],"type":"Point"},"properties":{"osm_id":"286310778","tag":{"amenity":"recycling","recycling:glass":"yes","recycling:glass_bottles":"yes","recycling_type":"container"}},"type":"Feature"},
	{"geometry":{"coordinates":[-4.43335,48.389611],"type":"Point"},"properties":{"osm_id":"286363073","tag":{"amenity":"recycling","recycling_type":"container"}},"type":"Feature"},
	{"geometry":{"coordinates":[-4.405099,48.399549],"type":"Point"},"properties":{"osm_id":"721429208","tag":{"amenity":"recycling","recycling_type":"container"}},"type":"Feature"},
	{"geometry":{"coordinates":[-4.463363,48.396108],"type":"Point"},"properties":{"osm_id":"721429225","tag":{"amenity":"recycling","recycling_type":"container"}},"type":"Feature"},
	{"geometry":{"coordinates":[-4.433846,48.393812],"type":"Point"},"properties":{"osm_id":"721429250","tag":{"amenity":"recycling","recycling_type":"container"}},"type":"Feature"},
	{"geometry":{"coordinates":[-4.404143,48.359192],"type":"Point"},"properties":{"osm_id":"721429254","tag":{"amenity":"waste_disposal"}},"type":"Feature"},
	{"geometry":{"coordinates":[-4.396155,48.38303],"type":"Point"},"properties":{"osm_id":"721429258","tag":{"amenity":"recycling"}},"type":"Feature"},
	{"geometry":{"coordinates":[-4.47456,48.390344],"type":"Point"},"properties":{"osm_id":"721429260","tag":{"amenity":"recycling","recycling_type":"container"}},"type":"Feature"},
	{"geometry":{"coordinates":[-4.461026,48.396484],"type":"Point"},"properties":{"osm_id":"721429262","tag":{"amenity":"recycling","recycling_type":"container"}},"type":"Feature"},
	{"geometry":{"coordinates":[-4.415923,48.348678],"type":"Point"},"properties":{"osm_id":"721429266","tag":{"amenity":"waste_disposal"}},"type":"Feature"},
	{"geometry":{"coordinates":[-4.42748,48.345006],"type":"Point"},"properties":{"osm_id":"721429286","tag":{"amenity":"recycling"}},"type":"Feature"},
	{"geometry":{"coordinates":[-4.413669,48.397804],"type":"Point"},"properties":{"osm_id":"721429295","tag":{"amenity":"recycling","recycling_type":"container"}},"type":"Feature"},
	{"geometry":{"coordinates":[-4.453297,48.397882],"type":"Point"},"properties":{"osm_id":"721429312","tag":{"amenity":"recycling","recycling:glass_bottles":"yes","recycling_type":"container"}},"type":"Feature"},
	{"geometry":{"coordinates":[-4.396471,48.345993],"type":"Point"},"properties":{"osm_id":"721429316","tag":{"amenity":"waste_disposal"}},"type":"Feature"},
	{"geometry":{"coordinates":[-4.477075,48.397827],"type":"Point"},"properties":{"osm_id":"721429324","tag":{"amenity":"recycling","recycling:glass":"yes","recycling:paper":"yes","recycling_type":"container"}},"type":"Feature"},
	{"geometry":{"coordinates":[-4.433682,48.393002],"type":"Point"},"properties":{"osm_id":"721429352","tag":{"amenity":"recycling","recycling_type":"container"}},"type":"Feature"},
	{"geometry":{"coordinates":[-4.461005,48.396357],"type":"Point"},"properties":{"osm_id":"721429363","tag":{"amenity":"recycling","recycling_type":"container"}},"type":"Feature"},
	{"geometry":{"coordinates":[-4.395202,48.354381],"type":"Point"},"properties":{"osm_id":"721429366","tag":{"amenity":"waste_disposal"}},"type":"Feature"},
	{"geometry":{"coordinates":[-4.400857,48.380011],"type":"Point"},"properties":{"osm_id":"721429373","tag":{"amenity":"waste_disposal"}},"type":"Feature"},
	{"geometry":{"coordinates":[-4.433194,48.39313],"type":"Point"},"properties":{"name":"Moulin blanc","osm_id":"721429386","tag":{"amenity":"waste_disposal","seamark:small_craft_facility:category":"refuse_bin","seamark:type":"small_craft_facility"}},"type":"Feature"},
	{"geometry":{"coordinates":[-4.43134,48.389262],"type":"Point"},"properties":{"name":"Moulin blanc","osm_id":"721429391","tag":{"amenity":"waste_disposal"}},"type":"Feature"},
	{"geometry":{"coordinates":[-4.478963,48.399645],"type":"Point"},"properties":{"osm_id":"721429392","tag":{"amenity":"recycling","recycling_type":"container"}},"type":"Feature"},
	{"geometry":{"coordinates":[-4.479889,48.387307],"type":"Point"},"properties":{"osm_id":"721429428","tag":{"amenity":"recycling","recycling:glass":"yes","recycling_type":"container"}},"type":"Feature"},
	{"geometry":{"coordinates":[-4.408635,48.395325],"type":"Point"},"properties":{"osm_id":"721429431","tag":{"amenity":"recycling","recycling_type":"container"}},"type":"Feature"},
	{"geometry":{"coordinates":[-4.421554,48.36305],"type":"Point"},"properties":{"osm_id":"721429436","tag":{"amenity":"recycling"}},"type":"Feature"},
	{"geometry":{"coordinates":[-4.460713,48.395965],"type":"Point"},"properties":{"osm_id":"721429439","tag":{"amenity":"recycling","recycling_type":"container"}},"type":"Feature"},
	{"geometry":{"coordinates":[-4.413434,48.368457],"type":"Point"},"properties":{"osm_id":"721429441","tag":{"amenity":"waste_disposal"}},"type":"Feature"},
	{"geometry":{"coordinates":[-4.481619,48.399991],"type":"Point"},"properties":{"osm_id":"721429468","tag":{"amenity":"recycling","recycling_type":"container"}},"type":"Feature"},
	{"geometry":{"coordinates":[-4.434498,48.353754],"type":"Point"},"properties":{"osm_id":"721429477","tag":{"amenity":"waste_disposal"}},"type":"Feature"},
	{"geometry":{"coordinates":[-4.411046,48.375704],"type":"Point"},"properties":{"osm_id":"721429505","tag":{"amenity":"waste_disposal"}},"type":"Feature"},
	{"geometry":{"coordinates":[-4.441698,48.393279],"type":"Point"},"properties":{"osm_id":"721429508","tag":{"amenity":"recycling","recycling_type":"container"}},"type":"Feature"},
	{"geometry":{"coordinates":[-4.481788,48.395384],"type":"Point"},"properties":{"osm_id":"721429517","tag":{"amenity":"recycling","recycling_type":"container"}},"type":"Feature"},
	{"geometry":{"coordinates":[-4.462794,48.395009],"type":"Point"},"properties":{"osm_id":"721429526","tag":{"amenity":"recycling","recycling_type":"container"}},"type":"Feature"},
	{"geometry":{"coordinates":[-4.481128,48.399924],"type":"Point"},"properties":{"osm_id":"721429568","tag":{"amenity":"waste_disposal"}},"type":"Feature"},
	{"geometry":{"coordinates":[-4.394624,48.397899],"type":"Point"},"properties":{"osm_id":"721429599","tag":{"amenity":"recycling","recycling_type":"container"}},"type":"Feature"},
	{"geometry":{"coordinates":[-4.46077,48.395519],"type":"Point"},"properties":{"osm_id":"721429729","tag":{"amenity":"recycling","recycling_type":"container"}},"type":"Feature"},
	{"geometry":{"coordinates":[-4.417693,48.363887],"type":"Point"},"properties":{"osm_id":"721429738","tag":{"amenity":"waste_disposal"}},"type":"Feature"},
	{"geometry":{"coordinates":[-4.414438,48.35642],"type":"Point"},"properties":{"osm_id":"721429749","tag":{"amenity":"waste_disposal"}},"type":"Feature"},
	{"geometry":{"coordinates":[-4.433976,48.3564],"type":"Point"},"properties":{"osm_id":"721429801","tag":{"amenity":"waste_disposal"}},"type":"Feature"},
	{"geometry":{"coordinates":[-4.409809,48.376996],"type":"Point"},"properties":{"osm_id":"721429843","tag":{"amenity":"waste_disposal"}},"type":"Feature"},
	{"geometry":{"coordinates":[-4.447178,48.39486],"type":"Point"},"properties":{"osm_id":"721429868","tag":{"amenity":"recycling","recycling_type":"container"}},"type":"Feature"},
	{"geometry":{"coordinates":[-4.481195,48.399831],"type":"Point"},"properties":{"osm_id":"721429913","tag":{"amenity":"waste_disposal"}},"type":"Feature"},
	{"geometry":{"coordinates":[-4.462114,48.396092],"type":"Point"},"properties":{"osm_id":"721430034","tag":{"amenity":"recycling","recycling_type":"container"}},"type":"Feature"},
	{"geometry":{"coordinates":[-4.420545,48.353324],"type":"Point"},"properties":{"osm_id":"721430047","tag":{"amenity":"waste_disposal"}},"type":"Feature"},
	{"geometry":{"coordinates":[-4.411356,48.35714],"type":"Point"},"properties":{"osm_id":"721430055","tag":{"amenity":"waste_disposal"}},"type":"Feature"},
	{"geometry":{"coordinates":[-4.430532,48.360461],"type":"Point"},"properties":{"osm_id":"721430059","tag":{"amenity":"waste_disposal"}},"type":"Feature"},
	{"geometry":{"coordinates":[-4.457063,48.396026],"type":"Point"},"properties":{"osm_id":"721430071","tag":{"amenity":"recycling","recycling_type":"container"}},"type":"Feature"},
	{"geometry":{"coordinates":[-4.471177,48.391019],"type":"Point"},"properties":{"osm_id":"721430106","tag":{"amenity":"recycling","recycling_type":"container"}},"type":"Feature"},
	{"geometry":{"coordinates":[-4.462219,48.396283],"type":"Point"},"properties":{"osm_id":"721430116","tag":{"amenity":"recycling","recycling_type":"container"}},"type":"Feature"},
	{"geometry":{"coordinates":[-4.431752,48.347051],"type":"Point"},"properties":{"osm_id":"721430120","tag":{"amenity":"waste_disposal"}},"type":"Feature"},
	{"geometry":{"coordinates":[-4.466572,48.396202],"type":"Point"},"properties":{"osm_id":"721430138","tag":{"amenity":"recycling","recycling_type":"container"}},"type":"Feature"},
	{"geometry":{"coordinates":[-4.455324,48.393742],"type":"Point"},"properties":{"osm_id":"721430144","tag":{"amenity":"recycling","recycling_type":"container"}},"type":"Feature"},
	{"geometry":{"coordinates":[-4.482127,48.387957],"type":"Point"},"properties":{"osm_id":"721430160","tag":{"amenity":"recycling","recycling_type":"container"}},"type":"Feature"},
	{"geometry":{"coordinates":[-4.433325,48.393942],"type":"Point"},"properties":{"osm_id":"721430169","tag":{"amenity":"recycling","recycling_type":"container"}},"type":"Feature"},
	{"geometry":{"coordinates":[-4.433451,48.392144],"type":"Point"},"properties":{"osm_id":"721430179","tag":{"amenity":"waste_disposal","seamark:small_craft_facility:category":"refuse_bin","seamark:type":"small_craft_facility"}},"type":"Feature"},
	{"geometry":{"coordinates":[-4.462674,48.396534],"type":"Point"},"properties":{"osm_id":"721430186","tag":{"amenity":"recycling","recycling_type":"container"}},"type":"Feature"},
	{"geometry":{"coordinates":[-4.449549,48.399078],"type":"Point"},"properties":{"osm_id":"721430206","tag":{"amenity":"recycling","recycling_type":"container"}},"type":"Feature"},
	{"geometry":{"coordinates":[-4.454943,48.387834],"type":"Point"},"properties":{"osm_id":"721430211","tag":{"amenity":"recycling","recycling_type":"container"}},"type":"Feature"},
	{"geometry":{"coordinates":[-4.411915,48.342689],"type":"Point"},"properties":{"osm_id":"721430213","tag":{"amenity":"waste_disposal"}},"type":"Feature"},
	{"geometry":{"coordinates":[-4.401527,48.37604],"type":"Point"},"properties":{"name":"Route de Traouidan","osm_id":"721430220","tag":{"amenity":"waste_disposal"}},"type":"Feature"},
	{"geometry":{"coordinates":[-4.473893,48.397063],"type":"Point"},"properties":{"osm_id":"721430227","tag":{"amenity":"recycling","recycling:glass_bottles":"yes","recycling:paper":"yes","recycling:plastic":"yes","recycling_type":"container"}},"type":"Feature"},
	{"geometry":{"coordinates":[-4.481457,48.385131],"type":"Point"},"properties":{"osm_id":"721430229","tag":{"amenity":"recycling","recycling_type":"container"}},"type":"Feature"},
	{"geometry":{"coordinates":[-4.400774,48.343637],"type":"Point"},"properties":{"osm_id":"721430245","tag":{"amenity":"recycling","recycling_type":"container"}},"type":"Feature"},
	{"geometry":{"coordinates":[-4.433561,48.390938],"type":"Point"},"properties":{"osm_id":"721430248","tag":{"amenity":"waste_disposal","seamark:small_craft_facility:category":"refuse_bin","seamark:type":"small_craft_facility"}},"type":"Feature"},
	{"geometry":{"coordinates":[-4.46091,48.396779],"type":"Point"},"properties":{"osm_id":"721430255","tag":{"amenity":"recycling","recycling_type":"container"}},"type":"Feature"},
	{"geometry":{"coordinates":[-4.401937,48.37886],"type":"Point"},"properties":{"osm_id":"721430258","tag":{"amenity":"waste_disposal"}},"type":"Feature"},
	{"geometry":{"coordinates":[-4.463975,48.399898],"type":"Point"},"properties":{"osm_id":"721430265","tag":{"amenity":"recycling","recycling_type":"container"}},"type":"Feature"},
	{"geometry":{"coordinates":[-4.4053,48.368144],"type":"Point"},"properties":{"osm_id":"721430268","tag":{"amenity":"waste_disposal"}},"type":"Feature"},
	{"geometry":{"coordinates":[-4.471475,48.393977],"type":"Point"},"properties":{"osm_id":"721430274","tag":{"amenity":"recycling","recycling_type":"container"}},"type":"Feature"},
	{"geometry":{"coordinates":[-4.431036,48.345174],"type":"Point"},"properties":{"osm_id":"721430279","tag":{"amenity":"waste_disposal"}},"type":"Feature"},
	{"geometry":{"coordinates":[-4.420541,48.396408],"type":"Point"},"properties":{"osm_id":"721430283","tag":{"amenity":"recycling","recycling_type":"container"}},"type":"Feature"},
	{"geometry":{"coordinates":[-4.473501,48.383674],"type":"Point"},"properties":{"osm_id":"721430291","tag":{"amenity":"recycling","recycling_type":"container"}},"type":"Feature"},
	{"geometry":{"coordinates":[-4.461687,48.395109],"type":"Point"},"properties":{"osm_id":"721430301","tag":{"amenity":"recycling","recycling_type":"container"}},"type":"Feature"},
	{"geometry":{"coordinates":[-4.47948,48.395539],"type":"Point"},"properties":{"osm_id":"721430309","tag":{"amenity":"recycling","recycling:aluminium":"yes","recycling:cartons":"yes","recycling:plastics":"yes","recycling:waste":"yes","recycling_type":"container"}},"type":"Feature"},
	{"geometry":{"coordinates":[-4.433784,48.3952],"type":"Point"},"properties":{"osm_id":"721430327","tag":{"amenity":"recycling","recycling_type":"container"}},"type":"Feature"},
	{"geometry":{"coordinates":[-4.425612,48.363519],"type":"Point"},"properties":{"osm_id":"721430339","tag":{"amenity":"recycling"}},"type":"Feature"},
	{"geometry":{"coordinates":[-4.469114,48.388886],"type":"Point"},"properties":{"osm_id":"721430349","tag":{"amenity":"recycling","recycling_type":"container"}},"type":"Feature"},
	{"geometry":{"coordinates":[-4.409761,48.347849],"type":"Point"},"properties":{"osm_id":"721430351","tag":{"amenity":"recycling","recycling_type":"container"}},"type":"Feature"},
	{"geometry":{"coordinates":[-4.467715,48.390389],"type":"Point"},"properties":{"osm_id":"721430361","tag":{"amenity":"recycling","recycling_type":"container"}},"type":"Feature"},
	{"geometry":{"coordinates":[-4.462595,48.395157],"type":"Point"},"properties":{"osm_id":"721430372","tag":{"amenity":"recycling","recycling_type":"container"}},"type":"Feature"},
	{"geometry":{"coordinates":[-4.481743,48.395023],"type":"Point"},"properties":{"osm_id":"721430391","tag":{"amenity":"recycling","recycling_type":"container"}},"type":"Feature"},
	{"geometry":{"coordinates":[-4.433476,48.389998],"type":"Point"},"properties":{"osm_id":"721430399","tag":{"amenity":"recycling","recycling_type":"container"}},"type":"Feature"},
	{"geometry":{"coordinates":[-4.459706,48.397546],"type":"Point"},"properties":{"osm_id":"721430400","tag":{"amenity":"recycling","recycling_type":"container"}},"type":"Feature"},
	{"geometry":{"coordinates":[-4.399764,48.361562],"type":"Point"},"properties":{"osm_id":"721430407","tag":{"amenity":"waste_disposal"}},"type":"Feature"},
	{"geometry":{"coordinates":[-4.425521,48.356574],"type":"Point"},"properties":{"osm_id":"721430417","tag":{"amenity":"waste_disposal"}},"type":"Feature"},
	{"geometry":{"coordinates":[-4.419745,48.346242],"type":"Point"},"properties":{"osm_id":"721430418","tag":{"amenity":"waste_disposal"}},"type":"Feature"},
	{"geometry":{"coordinates":[-4.454996,48.392734],"type":"Point"},"properties":{"osm_id":"2630164184","tag":{"amenity":"waste_basket"}},"type":"Feature"},
	{"geometry":{"coordinates":[-4.454112,48.393912],"type":"Point"},"properties":{"osm_id":"2630164209","tag":{"amenity":"waste_basket"}},"type":"Feature"},
	{"geometry":{"coordinates":[-4.453393,48.393388],"type":"Point"},"properties":{"osm_id":"2630164234","tag":{"amenity":"waste_basket"}},"type":"Feature"},
	{"geometry":{"coordinates":[-4.479909,48.387191],"type":"Point"},"properties":{"osm_id":"3045246233","tag":{"amenity":"waste_basket"}},"type":"Feature"},
	{"geometry":{"coordinates":[-4.481453,48.387415],"type":"Point"},"properties":{"osm_id":"3045246248","tag":{"amenity":"waste_basket"}},"type":"Feature"},
	{"geometry":{"coordinates":[-4.480734,48.387419],"type":"Point"},"properties":{"osm_id":"3045246251","tag":{"amenity":"waste_basket"}},"type":"Feature"},
	{"geometry":{"coordinates":[-4.481886,48.387436],"type":"Point"},"properties":{"osm_id":"3045246252","tag":{"amenity":"waste_basket"}},"type":"Feature"},
	{"geometry":{"coordinates":[-4.48126,48.387589],"type":"Point"},"properties":{"osm_id":"3045246261","tag":{"amenity":"waste_basket"}},"type":"Feature"},
	{"geometry":{"coordinates":[-4.480697,48.387623],"type":"Point"},"properties":{"osm_id":"3045246264","tag":{"amenity":"waste_basket"}},"type":"Feature"},
	{"geometry":{"coordinates":[-4.481664,48.387691],"type":"Point"},"properties":{"osm_id":"3045246269","tag":{"amenity":"waste_basket"}},"type":"Feature"},
	{"geometry":{"coordinates":[-4.479121,48.387367],"type":"Point"},"properties":{"osm_id":"3299897065","tag":{"amenity":"waste_basket"}},"type":"Feature"},
	{"geometry":{"coordinates":[-4.477857,48.387579],"type":"Point"},"properties":{"osm_id":"3299897084","tag":{"amenity":"waste_basket"}},"type":"Feature"},
	{"geometry":{"coordinates":[-4.481459,48.38451],"type":"Point"},"properties":{"osm_id":"3309034485","tag":{"amenity":"waste_basket"}},"type":"Feature"},
	{"geometry":{"coordinates":[-4.480504,48.38477],"type":"Point"},"properties":{"osm_id":"3309034487","tag":{"amenity":"waste_basket"}},"type":"Feature"},
	{"geometry":{"coordinates":[-4.481297,48.385233],"type":"Point"},"properties":{"osm_id":"3309034490","tag":{"amenity":"waste_basket"}},"type":"Feature"},
	{"geometry":{"coordinates":[-4.481275,48.385252],"type":"Point"},"properties":{"osm_id":"3309034491","tag":{"amenity":"recycling","recycling:cans":"yes","recycling:cardboard":"yes","recycling:glass":"yes","recycling:glass_bottles":"yes","recycling:paper":"yes","recycling:plastic":"yes","recycling:plastic_packaging":"yes","recycling_type":"container"}},"type":"Feature"},
	{"geometry":{"coordinates":[-4.476633,48.385356],"type":"Point"},"properties":{"osm_id":"3309034492","tag":{"amenity":"waste_basket"}},"type":"Feature"},
	{"geometry":{"coordinates":[-4.454464,48.398626],"type":"Point"},"properties":{"osm_id":"3736001838","tag":{"amenity":"waste_basket"}},"type":"Feature"},
	{"geometry":{"coordinates":[-4.454475,48.398676],"type":"Point"},"properties":{"osm_id":"3736001839","tag":{"amenity":"waste_basket"}},"type":"Feature"},
	{"geometry":{"coordinates":[-4.454284,48.398297],"type":"Point"},"properties":{"osm_id":"3736049891","tag":{"amenity":"recycling","recycling:paper":"yes","recycling:plastic":"yes","recycling:plastic_bottles":"yes","recycling_type":"container"}},"type":"Feature"},
	{"geometry":{"coordinates":[-4.462775,48.391628],"type":"Point"},"properties":{"osm_id":"3779314290","tag":{"amenity":"waste_basket"}},"type":"Feature"},
	{"geometry":{"coordinates":[-4.462887,48.391809],"type":"Point"},"properties":{"osm_id":"3779314300","tag":{"amenity":"recycling","recycling_type":"container"}},"type":"Feature"},
	{"geometry":{"coordinates":[-4.481813,48.387121],"type":"Point"},"properties":{"osm_id":"3886160191","tag":{"amenity":"waste_basket"}},"type":"Feature"},
	{"geometry":{"coordinates":[-4.463913,48.399885],"type":"Point"},"properties":{"osm_id":"4047814042","tag":{"amenity":"waste_basket"}},"type":"Feature"},
	{"geometry":{"coordinates":[-4.472343,48.392647],"type":"Point"},"properties":{"osm_id":"4479946693","tag":{"amenity":"recycling","recycling:organic":"yes","recycling_type":"container"}},"type":"Feature"},
	{"geometry":{"coordinates":[-4.401795,48.396837],"type":"Point"},"properties":{"osm_id":"4665374224","tag":{"amenity":"recycling","recycling:glass":"yes","recycling:plastic":"yes","recycling_type":"container"}},"type":"Feature"},
	{"geometry":{"coordinates":[-4.478679,48.396088],"type":"Point"},"properties":{"osm_id":"4665814222","tag":{"amenity":"recycling","recycling:aluminium":"yes","recycling:cartons":"yes","recycling:plastic":"yes","recycling:waste":"yes","recycling_type":"container"}},"type":"Feature"},
	{"geometry":{"coordinates":[-4.479509,48.395002],"type":"Point"},"properties":{"osm_id":"4665814223","tag":{"amenity":"recycling","recycling:aluminium":"yes","recycling:cartons":"yes","recycling:glass":"yes","recycling:plastic":"yes","recycling:waste":"yes","recycling_type":"container"}},"type":"Feature"},
	{"geometry":{"coordinates":[-4.479467,48.396521],"type":"Point"},"properties":{"osm_id":"4665814224","tag":{"amenity":"recycling","recycling:organic_waste":"yes","recycling_type":"container"}},"type":"Feature"},
	{"geometry":{"coordinates":[-4.480022,48.38765],"type":"Point"},"properties":{"osm_id":"5017826649","tag":{"amenity":"waste_basket"}},"type":"Feature"},
	{"geometry":{"coordinates":[-4.4803,48.387642],"type":"Point"},"properties":{"osm_id":"5017826668","tag":{"amenity":"waste_basket"}},"type":"Feature"},
	{"geometry":{"coordinates":[-4.480303,48.387707],"type":"Point"},"properties":{"osm_id":"5017826671","tag":{"amenity":"waste_basket"}},"type":"Feature"},
	{"geometry":{"coordinates":[-4.478609,48.388107],"type":"Point"},"properties":{"osm_id":"5018123415","tag":{"amenity":"waste_basket"}},"type":"Feature"},
	{"geometry":{"coordinates":[-4.479608,48.387926],"type":"Point"},"properties":{"osm_id":"5018123421","tag":{"amenity":"waste_basket"}},"type":"Feature"},
	{"geometry":{"coordinates":[-4.47979,48.387888],"type":"Point"},"properties":{"osm_id":"5018123423","tag":{"amenity":"waste_basket"}},"type":"Feature"},
	{"geometry":{"coordinates":[-4.477323,48.388263],"type":"Point"},"properties":{"osm_id":"5018123458","tag":{"amenity":"waste_basket"}},"type":"Feature"},
	{"geometry":{"coordinates":[-4.478116,48.388103],"type":"Point"},"properties":{"osm_id":"5018123460","tag":{"amenity":"waste_basket"}},"type":"Feature"},
	{"geometry":{"coordinates":[-4.478853,48.387957],"type":"Point"},"properties":{"osm_id":"5018123462","tag":{"amenity":"waste_basket"}},"type":"Feature"},
	{"geometry":{"coordinates":[-4.478542,48.387905],"type":"Point"},"properties":{"osm_id":"5018123819","tag":{"amenity":"waste_basket"}},"type":"Feature"},
	{"geometry":{"coordinates":[-4.479368,48.387719],"type":"Point"},"properties":{"osm_id":"5018123823","tag":{"amenity":"waste_basket"}},"type":"Feature"},
	{"geometry":{"coordinates":[-4.479807,48.387625],"type":"Point"},"properties":{"osm_id":"5018123828","tag":{"amenity":"waste_basket"}},"type":"Feature"},
	{"geometry":{"coordinates":[-4.479878,48.38778],"type":"Point"},"properties":{"osm_id":"5018123829","tag":{"amenity":"waste_basket"}},"type":"Feature"},
	{"geometry":{"coordinates":[-4.481914,48.387761],"type":"Point"},"properties":{"osm_id":"5018250486","tag":{"amenity":"waste_basket"}},"type":"Feature"},
	{"geometry":{"coordinates":[-4.482219,48.387934],"type":"Point"},"properties":{"osm_id":"5018293663","tag":{"amenity":"waste_basket"}},"type":"Feature"},
	{"geometry":{"coordinates":[-4.481199,48.387854],"type":"Point"},"properties":{"osm_id":"5018293676","tag":{"amenity":"waste_basket"}},"type":"Feature"},
	{"geometry":{"coordinates":[-4.481456,48.387798],"type":"Point"},"properties":{"osm_id":"5018293683","tag":{"amenity":"waste_basket"}},"type":"Feature"},
	{"geometry":{"coordinates":[-4.480967,48.387902],"type":"Point"},"properties":{"osm_id":"5018293689","tag":{"amenity":"waste_basket"}},"type":"Feature"},
	{"geometry":{"coordinates":[-4.395835,48.383384],"type":"Point"},"properties":{"osm_id":"5758909708","tag":{"amenity":"waste_basket"}},"type":"Feature"},
	{"geometry":{"coordinates":[-4.396098,48.383064],"type":"Point"},"properties":{"osm_id":"5758909709","tag":{"amenity":"waste_basket"}},"type":"Feature"},
	{"geometry":{"coordinates":[-4.474474,48.390786],"type":"Point"},"properties":{"osm_id":"5832817311","tag":{"amenity":"recycling","recycling:cans":"yes","recycling:glass":"yes","recycling:glass_bottles":"yes","recycling:paper":"yes","recycling:plastic":"yes","recycling:plastic_bottles":"yes","recycling:waste":"yes","recycling_type":"container","wheelchair":"yes"}},"type":"Feature"},
	{"geometry":{"coordinates":[-4.471208,48.399159],"type":"Point"},"properties":{"osm_id":"6288263587","tag":{"amenity":"recycling","recycling:glass_bottles":"yes","recycling:paper":"yes","recycling:plastic":"yes","recycling_type":"container"}},"type":"Feature"},
	{"geometry":{"coordinates":[-4.445787,48.38572],"type":"Point"},"properties":{"name":"Guyot Environement","osm_id":"6952217315","tag":{"amenity":"recycling","recycling_type":"centre"}},"type":"Feature"},
	{"geometry":{"coordinates":[-4.447086,48.394799],"type":"Point"},"properties":{"osm_id":"7001098300","tag":{"amenity":"recycling","recycling_type":"container"}},"type":"Feature"}
]
}
