{
"type": "FeatureCollection",
"features": [
	{"geometry":{"coordinates":[-4.399681,40.365317],"type":"Point"},"properties":{"highway":"crossing","osm_id":"727783519","tag":{"amenity":"recycling","recycling:clothes":"yes","recycling_type":"container"}},"type":"Feature"},
	{"geometry":{"coordinates":[-4.403747,40.361396],"type":"Point"},"properties":{"osm_id":"5595052164","tag":{"amenity":"waste_basket"}},"type":"Feature"},
	{"geometry":{"coordinates":[-4.400554,40.364024],"type":"Point"},"properties":{"osm_id":"5595052206","tag":{"amenity":"waste_basket"}},"type":"Feature"},
	{"geometry":{"coordinates":[-4.40068,40.364217],"type":"Point"},"properties":{"osm_id":"5595052208","tag":{"amenity":"waste_disposal"}},"type":"Feature"},
	{"geometry":{"coordinates":[-4.399486,40.365308],"type":"Point"},"properties":{"osm_id":"5595052214","tag":{"amenity":"waste_disposal"}},"type":"Feature"},
	{"geometry":{"coordinates":[-4.399513,40.365307],"type":"Point"},"properties":{"osm_id":"5595052215","tag":{"amenity":"recycling","recycling:plastic":"yes","recycling:plastic_bottles":"yes","recycling:plastic_packaging":"yes","recycling_type":"container"}},"type":"Feature"},
	{"geometry":{"coordinates":[-4.399536,40.365307],"type":"Point"},"properties":{"osm_id":"5595052216","tag":{"amenity":"recycling","recycling:cardboard":"yes","recycling:paper":"yes","recycling_type":"container"}},"type":"Feature"},
	{"geometry":{"coordinates":[-4.399552,40.365307],"type":"Point"},"properties":{"osm_id":"5595052217","tag":{"amenity":"waste_disposal"}},"type":"Feature"},
	{"geometry":{"coordinates":[-4.396537,40.365253],"type":"Point"},"properties":{"osm_id":"5595052344","tag":{"amenity":"waste_disposal"}},"type":"Feature"},
	{"geometry":{"coordinates":[-4.396673,40.365271],"type":"Point"},"properties":{"osm_id":"5595052345","tag":{"amenity":"recycling","recycling:paper":"yes","recycling_type":"container"}},"type":"Feature"}
]
}
