{
"type": "FeatureCollection",
"lastupdate": "2020-07-31T00:00:00Z",
"features": [
	{"geometry":{"coordinates":[-4.422758,36.743412],"type":"Point"},"properties":{"osm_id":"2957648330","tag":{"amenity":"recycling","recycling:cans":"yes","recycling:cardboard":"yes","recycling:glass_bottles":"yes","recycling:green_waste":"no","recycling:paper":"yes","recycling:plastic_bottles":"yes","recycling:plastic_packaging":"yes","recycling_type":"container"}},"type":"Feature"},
	{"geometry":{"coordinates":[-4.40878,36.745874],"type":"Point"},"properties":{"osm_id":"7188197679","tag":{"amenity":"recycling","operator":"Limasa","recycling:cans":"yes","recycling:cardboard":"yes","recycling:glass_bottles":"yes","recycling:paper":"yes","recycling:plastic_bottles":"yes","recycling:plastic_packaging":"yes","recycling_type":"container"}},"type":"Feature"},
	{"geometry":{"coordinates":[-4.410946,36.743057],"type":"Point"},"properties":{"osm_id":"7188284651","tag":{"amenity":"recycling","operator":"Limasa","recycling:cans":"yes","recycling:cardboard":"yes","recycling:glass_bottles":"yes","recycling:paper":"yes","recycling:plastic_bottles":"yes","recycling:plastic_packaging":"yes","recycling_type":"container"}},"type":"Feature"},
	{"geometry":{"coordinates":[-4.423482,36.741718],"type":"Point"},"properties":{"osm_id":"7448672913","tag":{"amenity":"recycling","operator":"Limasa","recycling:cans":"yes","recycling:cardboard":"yes","recycling:glass_bottles":"yes","recycling:paper":"yes","recycling:plastic_bottles":"yes","recycling:plastic_packaging":"yes","recycling_type":"container"}},"type":"Feature"},
	{"geometry":{"coordinates":[-4.423742,36.740058],"type":"Point"},"properties":{"osm_id":"7448672953","tag":{"amenity":"recycling","operator":"Limasa","recycling:cans":"yes","recycling:cardboard":"yes","recycling:glass_bottles":"yes","recycling:paper":"yes","recycling:plastic_bottles":"yes","recycling:plastic_packaging":"yes","recycling_type":"container"}},"type":"Feature"},
	{"geometry":{"coordinates":[-4.426394,36.747865],"type":"Point"},"properties":{"osm_id":"7459249089","tag":{"amenity":"recycling","operator":"Limasa","recycling:cans":"yes","recycling:cardboard":"yes","recycling:glass_bottles":"yes","recycling:paper":"yes","recycling:plastic":"no","recycling:plastic_bottles":"yes","recycling:plastic_packaging":"yes","recycling_type":"container"}},"type":"Feature"},
	{"geometry":{"coordinates":[-4.42462,36.754181],"type":"Point"},"properties":{"osm_id":"7470215740","tag":{"amenity":"recycling","recycling:cans":"yes","recycling:cardboard":"yes","recycling:glass_bottles":"yes","recycling:paper":"yes","recycling:plastic_bottles":"yes","recycling:plastic_packaging":"yes","recycling_type":"container"}},"type":"Feature"},
	{"geometry":{"coordinates":[-4.424034,36.754624],"type":"Point"},"properties":{"osm_id":"7470459370","tag":{"amenity":"recycling","operator":"Limasa","recycling:cans":"yes","recycling:cardboard":"yes","recycling:glass_bottles":"yes","recycling:paper":"yes","recycling:plastic_bottles":"yes","recycling:plastic_packaging":"yes","recycling_type":"container"}},"type":"Feature"},
	{"geometry":{"coordinates":[-4.424048,36.757225],"type":"Point"},"properties":{"osm_id":"7475652612","tag":{"amenity":"recycling","operator":"Limasa","recycling:cans":"yes","recycling:cardboard":"yes","recycling:glass_bottles":"yes","recycling:paper":"yes","recycling:plastic_packaging":"yes","recycling_type":"container"}},"type":"Feature"},
	{"geometry":{"coordinates":[-4.422757,36.738929],"type":"Point"},"properties":{"osm_id":"7497796682","tag":{"amenity":"recycling","operator":"Limasa","recycling:cans":"yes","recycling:cardboard":"yes","recycling:glass_bottles":"yes","recycling:paper":"yes","recycling:plastic_bottles":"yes","recycling:plastic_packaging":"yes","recycling_type":"container"}},"type":"Feature"},
	{"geometry":{"coordinates":[-4.421508,36.739249],"type":"Point"},"properties":{"osm_id":"7498539809","tag":{"amenity":"recycling","operator":"Limasa","recycling:cans":"yes","recycling:glass_bottles":"yes","recycling:paper":"yes","recycling:plastic_bottles":"yes","recycling:plastic_packaging":"yes","recycling_type":"container"}},"type":"Feature"},
	{"geometry":{"coordinates":[-4.422638,36.740456],"type":"Point"},"properties":{"osm_id":"7522162515","tag":{"amenity":"recycling","operator":"Limasa","recycling:cans":"yes","recycling:glass_bottles":"yes","recycling:paper":"yes","recycling:plastic_bottles":"yes","recycling:plastic_packaging":"yes","recycling_type":"container"}},"type":"Feature"},
	{"geometry":{"coordinates":[-4.422409,36.741859],"type":"Point"},"properties":{"osm_id":"7522359945","tag":{"amenity":"recycling","operator":"Limasa","recycling:cans":"yes","recycling:glass_bottles":"yes","recycling:green_waste":"no","recycling:paper":"yes","recycling:plastic_bottles":"yes","recycling:plastic_packaging":"yes","recycling_type":"container"}},"type":"Feature"},
	{"geometry":{"coordinates":[-4.421174,36.743334],"type":"Point"},"properties":{"osm_id":"7531805077","tag":{"amenity":"waste_basket"}},"type":"Feature"},
	{"geometry":{"coordinates":[-4.415171,36.747304],"type":"Point"},"properties":{"osm_id":"7566587007","tag":{"amenity":"waste_basket"}},"type":"Feature"},
	{"geometry":{"coordinates":[-4.415565,36.747313],"type":"Point"},"properties":{"osm_id":"7566587022","tag":{"amenity":"waste_basket"}},"type":"Feature"},
	{"geometry":{"coordinates":[-4.415203,36.747491],"type":"Point"},"properties":{"osm_id":"7566587023","tag":{"amenity":"waste_basket"}},"type":"Feature"},
	{"geometry":{"coordinates":[-4.415466,36.747607],"type":"Point"},"properties":{"osm_id":"7566587024","tag":{"amenity":"waste_basket"}},"type":"Feature"},
	{"geometry":{"coordinates":[-4.415034,36.74758],"type":"Point"},"properties":{"osm_id":"7566587025","tag":{"amenity":"waste_basket"}},"type":"Feature"},
	{"geometry":{"coordinates":[-4.41219,36.741667],"type":"Point"},"properties":{"osm_id":"7606789643","tag":{"amenity":"waste_basket"}},"type":"Feature"},
	{"geometry":{"coordinates":[-4.412221,36.74393],"type":"Point"},"properties":{"osm_id":"7645257693","tag":{"amenity":"recycling","operator":"Limasa","recycling:books":"yes","recycling:cans":"yes","recycling:cardboard":"yes","recycling:glass_bottles":"yes","recycling:magazines":"yes","recycling:newspaper":"yes","recycling:paper":"yes","recycling:paper_packaging":"yes","recycling:plastic_bottles":"yes","recycling:plastic_packaging":"yes","recycling_type":"container"}},"type":"Feature"}
]
}
