{
"type": "FeatureCollection",
"features": [
	{"geometry":{"coordinates":[-4.406676,36.719766],"type":"Point"},"properties":{"osm_id":"1259434680","tag":{"amenity":"recycling","recycling:glass_bottles":"yes","recycling:paper":"yes","recycling:plastic":"yes","recycling_type":"container"}},"type":"Feature"},
	{"geometry":{"coordinates":[-4.425566,36.7154],"type":"Point"},"properties":{"osm_id":"2009646739","tag":{"amenity":"recycling","recycling_type":"container"}},"type":"Feature"},
	{"geometry":{"coordinates":[-4.421851,36.72212],"type":"Point"},"properties":{"osm_id":"2083959242","tag":{"amenity":"recycling","recycling_type":"container"}},"type":"Feature"},
	{"geometry":{"coordinates":[-4.445756,36.684784],"type":"Point"},"properties":{"osm_id":"2155778126","tag":{"amenity":"recycling","recycling:glass_bottles":"yes","recycling_type":"container"}},"type":"Feature"},
	{"geometry":{"coordinates":[-4.444952,36.690264],"type":"Point"},"properties":{"osm_id":"2371603494","tag":{"amenity":"recycling","recycling:clothes":"no","recycling:glass_bottles":"yes","recycling_type":"container"}},"type":"Feature"},
	{"geometry":{"coordinates":[-4.444676,36.690772],"type":"Point"},"properties":{"osm_id":"2371603495","tag":{"amenity":"recycling","recycling:clothes":"yes","recycling_type":"container"}},"type":"Feature"},
	{"geometry":{"coordinates":[-4.442428,36.691188],"type":"Point"},"properties":{"osm_id":"2371603498","tag":{"amenity":"recycling","recycling:cooking_oil":"yes","recycling_type":"container"}},"type":"Feature"},
	{"geometry":{"coordinates":[-4.420421,36.737894],"type":"Point"},"properties":{"osm_id":"2955720141","tag":{"amenity":"recycling","recycling:cans":"yes","recycling:clothes":"no","recycling:glass_bottles":"yes","recycling:paper":"yes","recycling_type":"container"}},"type":"Feature"},
	{"geometry":{"coordinates":[-4.424073,36.738374],"type":"Point"},"properties":{"osm_id":"2955720142","tag":{"amenity":"recycling","recycling:cans":"yes","recycling:clothes":"no","recycling:glass_bottles":"yes","recycling:paper":"yes","recycling_type":"container"}},"type":"Feature"},
	{"geometry":{"coordinates":[-4.456908,36.684837],"type":"Point"},"properties":{"osm_id":"3362376362","tag":{"amenity":"recycling","recycling_type":"container"}},"type":"Feature"},
	{"geometry":{"coordinates":[-4.434268,36.708862],"type":"Point"},"properties":{"osm_id":"3393825945","tag":{"amenity":"recycling","recycling:cans":"yes","recycling:cardboard":"yes","recycling:glass_bottles":"yes","recycling:paper":"yes","recycling:plastic_bottles":"yes","recycling:plastic_packaging":"yes","recycling_type":"container"}},"type":"Feature"},
	{"geometry":{"coordinates":[-4.436716,36.706927],"type":"Point"},"properties":{"osm_id":"3393863915","tag":{"amenity":"recycling","operator":"Limasa","recycling:cans":"yes","recycling:cardboard":"yes","recycling:glass_bottles":"yes","recycling:paper":"yes","recycling:plastic_bottles":"yes","recycling:plastic_packaging":"yes","recycling_type":"container"}},"type":"Feature"},
	{"geometry":{"coordinates":[-4.435888,36.707427],"type":"Point"},"properties":{"osm_id":"3393863921","tag":{"amenity":"recycling","recycling_type":"container"}},"type":"Feature"},
	{"geometry":{"coordinates":[-4.437071,36.706505],"type":"Point"},"properties":{"osm_id":"3393991894","tag":{"amenity":"recycling","operator":"Limasa","recycling:cans":"yes","recycling:cardboard":"yes","recycling:glass_bottles":"yes","recycling:paper":"yes","recycling:plastic_bottles":"yes","recycling:plastic_packaging":"yes","recycling_type":"container"}},"type":"Feature"},
	{"geometry":{"coordinates":[-4.43768,36.706175],"type":"Point"},"properties":{"osm_id":"3394030523","tag":{"amenity":"recycling","operator":"Limasa","recycling:cans":"yes","recycling:cardboard":"yes","recycling:glass_bottles":"yes","recycling:paper":"yes","recycling:plastic_bottles":"yes","recycling:plastic_packaging":"yes","recycling_type":"container"}},"type":"Feature"},
	{"geometry":{"coordinates":[-4.438624,36.705442],"type":"Point"},"properties":{"osm_id":"3394140006","tag":{"amenity":"recycling","recycling:cans":"yes","recycling:cardboard":"yes","recycling:glass_bottles":"yes","recycling:paper":"yes","recycling:plastic_bottles":"yes","recycling:plastic_packaging":"yes","recycling_type":"container"}},"type":"Feature"},
	{"geometry":{"coordinates":[-4.448205,36.680432],"type":"Point"},"properties":{"osm_id":"3556674083","tag":{"amenity":"waste_basket"}},"type":"Feature"},
	{"geometry":{"coordinates":[-4.444401,36.711491],"type":"Point"},"properties":{"osm_id":"3747624340","tag":{"amenity":"recycling","recycling:glass_bottles":"yes","recycling:paper":"yes","recycling:plastic":"yes","recycling_type":"container"}},"type":"Feature"},
	{"geometry":{"coordinates":[-4.442611,36.711844],"type":"Point"},"properties":{"osm_id":"3747624341","tag":{"amenity":"recycling","recycling:glass_bottles":"yes","recycling:paper":"yes","recycling:plastic":"yes","recycling_type":"container"}},"type":"Feature"},
	{"geometry":{"coordinates":[-4.443218,36.7119],"type":"Point"},"properties":{"osm_id":"3747624342","tag":{"amenity":"recycling","recycling:paper":"yes","recycling:plastic":"yes","recycling_type":"container"}},"type":"Feature"},
	{"geometry":{"coordinates":[-4.443497,36.710412],"type":"Point"},"properties":{"osm_id":"3754070351","tag":{"amenity":"recycling","recycling:paper":"yes","recycling:plastic":"yes","recycling_type":"container"}},"type":"Feature"},
	{"geometry":{"coordinates":[-4.438976,36.711173],"type":"Point"},"properties":{"osm_id":"3754070352","tag":{"amenity":"recycling","recycling:glass_bottles":"yes","recycling:paper":"yes","recycling:plastic":"yes","recycling_type":"container"}},"type":"Feature"},
	{"geometry":{"coordinates":[-4.445823,36.716531],"type":"Point"},"properties":{"osm_id":"3755501414","tag":{"amenity":"recycling","recycling:glass_bottles":"yes","recycling:paper":"yes","recycling:plastic":"yes","recycling_type":"container"}},"type":"Feature"},
	{"geometry":{"coordinates":[-4.446078,36.717436],"type":"Point"},"properties":{"osm_id":"3755501415","tag":{"amenity":"recycling","recycling:paper":"yes","recycling:plastic":"yes","recycling_type":"container"}},"type":"Feature"},
	{"geometry":{"coordinates":[-4.440569,36.718459],"type":"Point"},"properties":{"osm_id":"3757002209","tag":{"amenity":"recycling","recycling:glass_bottles":"yes","recycling:paper":"yes","recycling:plastic":"yes","recycling_type":"container"}},"type":"Feature"},
	{"geometry":{"coordinates":[-4.412438,36.71794],"type":"Point"},"properties":{"osm_id":"3799171265","tag":{"amenity":"waste_basket","layer":"1","location":"roof"}},"type":"Feature"},
	{"geometry":{"coordinates":[-4.413487,36.71574],"type":"Point"},"properties":{"osm_id":"3799239974","tag":{"amenity":"recycling"}},"type":"Feature"},
	{"geometry":{"coordinates":[-4.415045,36.730249],"type":"Point"},"properties":{"osm_id":"4354994050","tag":{"amenity":"waste_basket"}},"type":"Feature"},
	{"geometry":{"coordinates":[-4.415088,36.730373],"type":"Point"},"properties":{"osm_id":"4354994052","tag":{"amenity":"waste_basket"}},"type":"Feature"},
	{"geometry":{"coordinates":[-4.415201,36.730897],"type":"Point"},"properties":{"osm_id":"4354994055","tag":{"amenity":"recycling","location":"overground","recycling:glass_bottles":"yes","recycling:paper":"yes","recycling_type":"container"}},"type":"Feature"},
	{"geometry":{"coordinates":[-4.4154,36.731836],"type":"Point"},"properties":{"osm_id":"4354994059","tag":{"amenity":"waste_basket"}},"type":"Feature"},
	{"geometry":{"coordinates":[-4.415523,36.732452],"type":"Point"},"properties":{"osm_id":"4354994061","tag":{"amenity":"recycling","recycling:glass_bottles":"yes","recycling:paper":"yes","recycling_type":"container"}},"type":"Feature"},
	{"geometry":{"coordinates":[-4.41556,36.732631],"type":"Point"},"properties":{"osm_id":"4354994063","tag":{"amenity":"waste_basket"}},"type":"Feature"},
	{"geometry":{"coordinates":[-4.417396,36.735171],"type":"Point"},"properties":{"osm_id":"4500604059","tag":{"amenity":"waste_basket","waste":"dog_excrement"}},"type":"Feature"},
	{"geometry":{"coordinates":[-4.417207,36.735025],"type":"Point"},"properties":{"osm_id":"4500604060","tag":{"amenity":"waste_basket","waste":"dog_excrement"}},"type":"Feature"},
	{"geometry":{"coordinates":[-4.424309,36.737856],"type":"Point"},"properties":{"osm_id":"4630856648","tag":{"amenity":"waste_basket"}},"type":"Feature"},
	{"geometry":{"coordinates":[-4.424188,36.737659],"type":"Point"},"properties":{"osm_id":"4630856649","tag":{"amenity":"waste_basket"}},"type":"Feature"},
	{"geometry":{"coordinates":[-4.4198,36.719544],"type":"Point"},"properties":{"osm_id":"4719433409","tag":{"amenity":"waste_basket"}},"type":"Feature"},
	{"geometry":{"coordinates":[-4.416009,36.73084],"type":"Point"},"properties":{"osm_id":"4728823192","tag":{"amenity":"waste_basket"}},"type":"Feature"},
	{"geometry":{"coordinates":[-4.406684,36.727371],"type":"Point"},"properties":{"osm_id":"4861435873","tag":{"amenity":"recycling","operator":"Madre Coraje","recycling:clothes":"yes","recycling_type":"container"}},"type":"Feature"},
	{"geometry":{"coordinates":[-4.412496,36.727156],"type":"Point"},"properties":{"osm_id":"4861836429","tag":{"amenity":"recycling","operator":"Madre Coraje","recycling:clothes":"yes","recycling_type":"container"}},"type":"Feature"},
	{"geometry":{"coordinates":[-4.397532,36.732357],"type":"Point"},"properties":{"osm_id":"4866594382","tag":{"amenity":"recycling","operator":"Madre Coraje","recycling:clothes":"yes","recycling_type":"container"}},"type":"Feature"},
	{"geometry":{"coordinates":[-4.39863,36.725996],"type":"Point"},"properties":{"osm_id":"4870038475","tag":{"amenity":"recycling","operator":"Ayuntamiento de M\u00c3\u00a1laga","recycling:batteries":"yes","recycling_type":"container"}},"type":"Feature"},
	{"geometry":{"coordinates":[-4.398425,36.726274],"type":"Point"},"properties":{"osm_id":"4870038476","tag":{"amenity":"recycling","operator":"Ayuntamiento de M\u00c3\u00a1laga","recycling:cooking_oil":"yes","recycling_type":"container"}},"type":"Feature"},
	{"geometry":{"coordinates":[-4.398639,36.726455],"type":"Point"},"properties":{"osm_id":"4870038477","tag":{"amenity":"recycling","operator":"Madre Coraje","recycling:clothes":"yes","recycling_type":"container"}},"type":"Feature"},
	{"geometry":{"coordinates":[-4.395496,36.723637],"type":"Point"},"properties":{"osm_id":"4882100794","tag":{"amenity":"recycling","recycling:cooking_oil":"yes","recycling:glass_bottles":"yes","recycling:paper":"yes","recycling:plastic":"yes","recycling:plastic_bottles":"yes","recycling_type":"container"}},"type":"Feature"},
	{"geometry":{"coordinates":[-4.419073,36.721279],"type":"Point"},"properties":{"osm_id":"5131377521","tag":{"amenity":"waste_basket"}},"type":"Feature"},
	{"geometry":{"coordinates":[-4.431658,36.722743],"type":"Point"},"properties":{"osm_id":"5339795931","tag":{"amenity":"recycling","mapillary":"HsXjgyfHPUadFuVXWMCEbA","recycling:paper":"yes","recycling_type":"container"}},"type":"Feature"},
	{"geometry":{"coordinates":[-4.43166,36.722763],"type":"Point"},"properties":{"osm_id":"5339795932","tag":{"amenity":"recycling","mapillary":"HsXjgyfHPUadFuVXWMCEbA","recycling:plastic":"yes","recycling_type":"container"}},"type":"Feature"},
	{"geometry":{"coordinates":[-4.431659,36.722785],"type":"Point"},"properties":{"osm_id":"5339795933","tag":{"amenity":"recycling","mapillary":"HsXjgyfHPUadFuVXWMCEbA","recycling:glass_bottles":"yes","recycling_type":"container"}},"type":"Feature"},
	{"geometry":{"coordinates":[-4.418011,36.723496],"type":"Point"},"properties":{"osm_id":"5480403208","tag":{"amenity":"recycling"}},"type":"Feature"},
	{"geometry":{"coordinates":[-4.410673,36.720926],"type":"Point"},"properties":{"osm_id":"5489330619","tag":{"amenity":"recycling","recycling:cans":"yes","recycling:cardboard":"yes","recycling:glass_bottles":"yes","recycling:paper":"yes","recycling:plastic":"yes","recycling:plastic_bottles":"yes","recycling:plastic_packaging":"yes","recycling_type":"container"}},"type":"Feature"},
	{"geometry":{"coordinates":[-4.424013,36.718029],"type":"Point"},"properties":{"osm_id":"5570584202","tag":{"amenity":"waste_basket"}},"type":"Feature"},
	{"geometry":{"coordinates":[-4.424003,36.717812],"type":"Point"},"properties":{"osm_id":"5570584211","tag":{"amenity":"waste_basket"}},"type":"Feature"},
	{"geometry":{"coordinates":[-4.425228,36.717846],"type":"Point"},"properties":{"osm_id":"5570584821","tag":{"amenity":"waste_basket"}},"type":"Feature"},
	{"geometry":{"coordinates":[-4.424691,36.717949],"type":"Point"},"properties":{"osm_id":"5570584822","tag":{"amenity":"waste_basket"}},"type":"Feature"},
	{"geometry":{"coordinates":[-4.424632,36.717636],"type":"Point"},"properties":{"osm_id":"5570584823","tag":{"amenity":"waste_basket"}},"type":"Feature"},
	{"geometry":{"coordinates":[-4.422131,36.718058],"type":"Point"},"properties":{"osm_id":"5571448816","tag":{"amenity":"waste_basket"}},"type":"Feature"},
	{"geometry":{"coordinates":[-4.421987,36.718091],"type":"Point"},"properties":{"osm_id":"5571448817","tag":{"amenity":"waste_basket"}},"type":"Feature"},
	{"geometry":{"coordinates":[-4.421648,36.718177],"type":"Point"},"properties":{"osm_id":"5571455823","tag":{"amenity":"waste_basket"}},"type":"Feature"},
	{"geometry":{"coordinates":[-4.423865,36.718101],"type":"Point"},"properties":{"osm_id":"5571455833","tag":{"amenity":"waste_basket"}},"type":"Feature"},
	{"geometry":{"coordinates":[-4.423031,36.718518],"type":"Point"},"properties":{"osm_id":"5571455850","tag":{"amenity":"waste_basket"}},"type":"Feature"},
	{"geometry":{"coordinates":[-4.42273,36.717942],"type":"Point"},"properties":{"osm_id":"5571455859","tag":{"amenity":"waste_basket","operator":"Dentix"}},"type":"Feature"},
	{"geometry":{"coordinates":[-4.422842,36.718234],"type":"Point"},"properties":{"osm_id":"5571455860","tag":{"amenity":"waste_basket"}},"type":"Feature"},
	{"geometry":{"coordinates":[-4.423451,36.718274],"type":"Point"},"properties":{"osm_id":"5571455879","tag":{"amenity":"waste_basket","check_date":"2018-06-06"}},"type":"Feature"},
	{"geometry":{"coordinates":[-4.423523,36.718367],"type":"Point"},"properties":{"osm_id":"5571455880","tag":{"amenity":"waste_basket","check_date":"2018-06-06"}},"type":"Feature"},
	{"geometry":{"coordinates":[-4.42361,36.71834],"type":"Point"},"properties":{"osm_id":"5571455881","tag":{"amenity":"waste_basket","check_date":"2018-06-06"}},"type":"Feature"},
	{"geometry":{"coordinates":[-4.424375,36.718091],"type":"Point"},"properties":{"osm_id":"5571455884","tag":{"amenity":"recycling","recycling:clothes":"yes","recycling_type":"container"}},"type":"Feature"},
	{"geometry":{"coordinates":[-4.42421,36.717984],"type":"Point"},"properties":{"osm_id":"5571455903","tag":{"amenity":"waste_basket"}},"type":"Feature"},
	{"geometry":{"coordinates":[-4.425121,36.719715],"type":"Point"},"properties":{"osm_id":"5578133286","tag":{"amenity":"waste_basket"}},"type":"Feature"},
	{"geometry":{"coordinates":[-4.42525,36.719628],"type":"Point"},"properties":{"osm_id":"5578133287","tag":{"amenity":"waste_basket"}},"type":"Feature"},
	{"geometry":{"coordinates":[-4.425165,36.719403],"type":"Point"},"properties":{"osm_id":"5578133288","tag":{"amenity":"waste_basket"}},"type":"Feature"},
	{"geometry":{"coordinates":[-4.425343,36.719167],"type":"Point"},"properties":{"osm_id":"5578133294","tag":{"amenity":"waste_basket"}},"type":"Feature"},
	{"geometry":{"coordinates":[-4.425312,36.718661],"type":"Point"},"properties":{"osm_id":"5578133303","tag":{"amenity":"waste_basket"}},"type":"Feature"},
	{"geometry":{"coordinates":[-4.423386,36.718447],"type":"Point"},"properties":{"osm_id":"5578170718","tag":{"amenity":"waste_basket"}},"type":"Feature"},
	{"geometry":{"coordinates":[-4.423349,36.71851],"type":"Point"},"properties":{"osm_id":"5578170720","tag":{"amenity":"recycling","check_date":"2018-06-06","location":"underground","recycling_type":"container"}},"type":"Feature"},
	{"geometry":{"coordinates":[-4.423312,36.718459],"type":"Point"},"properties":{"osm_id":"5578171721","tag":{"amenity":"waste_basket"}},"type":"Feature"},
	{"geometry":{"coordinates":[-4.422968,36.719144],"type":"Point"},"properties":{"osm_id":"5580224661","tag":{"amenity":"waste_basket"}},"type":"Feature"},
	{"geometry":{"coordinates":[-4.468073,36.725338],"type":"Point"},"properties":{"osm_id":"5696417015","tag":{"amenity":"recycling","operator":"LIMASA","recycling:cans":"yes","recycling:cardboard":"yes","recycling:glass_bottles":"yes","recycling:paper":"yes","recycling:plastic_bottles":"yes","recycling:plastic_packaging":"yes","recycling:waste":"yes","recycling_type":"container"}},"type":"Feature"},
	{"geometry":{"coordinates":[-4.475852,36.723317],"type":"Point"},"properties":{"osm_id":"5881457150","tag":{"amenity":"waste_basket","waste":"trash"}},"type":"Feature"},
	{"geometry":{"coordinates":[-4.475669,36.723405],"type":"Point"},"properties":{"osm_id":"5881457152","tag":{"amenity":"waste_disposal"}},"type":"Feature"},
	{"geometry":{"coordinates":[-4.462035,36.723675],"type":"Point"},"properties":{"osm_id":"5909688045","tag":{"amenity":"recycling","operator":"Ayuntamiento de M\u00c3\u00a1laga","recycling:glass_bottles":"yes","recycling_type":"container"}},"type":"Feature"},
	{"geometry":{"coordinates":[-4.462039,36.723695],"type":"Point"},"properties":{"osm_id":"5909688046","tag":{"amenity":"recycling","operator":"Ayuntamiento de M\u00c3\u00a1laga","recycling:cans":"yes","recycling:plastic":"yes","recycling_type":"container"}},"type":"Feature"},
	{"geometry":{"coordinates":[-4.462043,36.723716],"type":"Point"},"properties":{"osm_id":"5909688047","tag":{"amenity":"waste_disposal","operator":"Ayuntamiento de M\u00c3\u00a1laga"}},"type":"Feature"},
	{"geometry":{"coordinates":[-4.462047,36.72374],"type":"Point"},"properties":{"osm_id":"5909688048","tag":{"amenity":"waste_disposal","operator":"Ayuntamiento de M\u00c3\u00a1laga"}},"type":"Feature"},
	{"geometry":{"coordinates":[-4.462052,36.723762],"type":"Point"},"properties":{"osm_id":"5909688049","tag":{"amenity":"recycling","operator":"Ayuntamiento de M\u00c3\u00a1laga","recycling:cardboard":"yes","recycling:paper":"yes","recycling_type":"container"}},"type":"Feature"},
	{"geometry":{"coordinates":[-4.460869,36.723871],"type":"Point"},"properties":{"osm_id":"5909688050","tag":{"amenity":"waste_disposal","operator":"Ayuntamiento de M\u00c3\u00a1laga"}},"type":"Feature"},
	{"geometry":{"coordinates":[-4.460866,36.723855],"type":"Point"},"properties":{"osm_id":"5909688051","tag":{"amenity":"waste_disposal","operator":"Ayuntamiento de M\u00c3\u00a1laga"}},"type":"Feature"},
	{"geometry":{"coordinates":[-4.460872,36.723896],"type":"Point"},"properties":{"osm_id":"5909688052","tag":{"amenity":"recycling","operator":"Ayuntamiento de M\u00c3\u00a1laga","recycling:glass_bottles":"yes"}},"type":"Feature"},
	{"geometry":{"coordinates":[-4.460874,36.723921],"type":"Point"},"properties":{"osm_id":"5909688053","tag":{"amenity":"recycling","operator":"Ayuntamiento de M\u00c3\u00a1laga","recycling:cardboard":"yes","recycling:paper":"yes"}},"type":"Feature"},
	{"geometry":{"coordinates":[-4.460878,36.723942],"type":"Point"},"properties":{"osm_id":"5909688054","tag":{"amenity":"recycling","operator":"Ayuntamiento de M\u00c3\u00a1laga","recycling:cans":"yes","recycling:plastic":"yes"}},"type":"Feature"},
	{"geometry":{"coordinates":[-4.462075,36.725251],"type":"Point"},"properties":{"osm_id":"5909702035","tag":{"amenity":"recycling","operator":"Ayuntamiento de M\u00c3\u00a1laga","recycling:cans":"yes","recycling:plastic":"yes","recycling_type":"container"}},"type":"Feature"},
	{"geometry":{"coordinates":[-4.461194,36.725401],"type":"Point"},"properties":{"osm_id":"5909702036","tag":{"amenity":"recycling","operator":"Ayuntamiento de M\u00c3\u00a1laga","recycling:cans":"yes","recycling:plastic":"yes","recycling_type":"container"}},"type":"Feature"},
	{"geometry":{"coordinates":[-4.462082,36.725215],"type":"Point"},"properties":{"osm_id":"5909702037","tag":{"amenity":"waste_disposal","operator":"Ayuntamiento de M\u00c3\u00a1laga"}},"type":"Feature"},
	{"geometry":{"coordinates":[-4.461201,36.725435],"type":"Point"},"properties":{"osm_id":"5909702038","tag":{"amenity":"waste_disposal","operator":"Ayuntamiento de M\u00c3\u00a1laga"}},"type":"Feature"},
	{"geometry":{"coordinates":[-4.46207,36.725277],"type":"Point"},"properties":{"osm_id":"5909702039","tag":{"amenity":"recycling","operator":"Ayuntamiento de M\u00c3\u00a1laga","recycling:glass_bottles":"yes","recycling_type":"container"}},"type":"Feature"},
	{"geometry":{"coordinates":[-4.461188,36.725382],"type":"Point"},"properties":{"osm_id":"5909702040","tag":{"amenity":"recycling","operator":"Ayuntamiento de M\u00c3\u00a1laga","recycling:glass_bottles":"yes","recycling_type":"container"}},"type":"Feature"},
	{"geometry":{"coordinates":[-4.461838,36.721531],"type":"Point"},"properties":{"osm_id":"5913401871","tag":{"amenity":"recycling","operator":"Ayuntamiento de M\u00c3\u00a1laga","recycling:glass_bottles":"yes","recycling_type":"container"}},"type":"Feature"},
	{"geometry":{"coordinates":[-4.462161,36.721487],"type":"Point"},"properties":{"osm_id":"5913401872","tag":{"amenity":"waste_disposal","operator":"Ayuntamiento de M\u00c3\u00a1laga"}},"type":"Feature"},
	{"geometry":{"coordinates":[-4.46213,36.72149],"type":"Point"},"properties":{"osm_id":"5913401873","tag":{"amenity":"recycling","operator":"Ayuntamiento de M\u00c3\u00a1laga","recycling:cardboard":"yes","recycling:paper":"yes","recycling_type":"container"}},"type":"Feature"},
	{"geometry":{"coordinates":[-4.46211,36.721493],"type":"Point"},"properties":{"osm_id":"5913401874","tag":{"amenity":"recycling","operator":"Ayuntamiento de M\u00c3\u00a1laga","recycling:glass_bottles":"yes","recycling_type":"container"}},"type":"Feature"},
	{"geometry":{"coordinates":[-4.461791,36.721537],"type":"Point"},"properties":{"osm_id":"5913401875","tag":{"amenity":"recycling","operator":"Ayuntamiento de M\u00c3\u00a1laga","recycling:cans":"yes","recycling:plastic":"yes","recycling_type":"container"}},"type":"Feature"},
	{"geometry":{"coordinates":[-4.461817,36.721533],"type":"Point"},"properties":{"osm_id":"5913401876","tag":{"amenity":"waste_disposal","operator":"Ayuntamiento de M\u00c3\u00a1laga"}},"type":"Feature"},
	{"geometry":{"coordinates":[-4.460454,36.721942],"type":"Point"},"properties":{"osm_id":"5913401877","tag":{"amenity":"waste_disposal","operator":"Ayuntamiento de M\u00c3\u00a1laga"}},"type":"Feature"},
	{"geometry":{"coordinates":[-4.460465,36.721985],"type":"Point"},"properties":{"osm_id":"5913401878","tag":{"amenity":"recycling","operator":"Ayuntamiento de M\u00c3\u00a1laga","recycling:cardboard":"yes","recycling:paper":"yes","recycling_type":"container"}},"type":"Feature"},
	{"geometry":{"coordinates":[-4.460459,36.721963],"type":"Point"},"properties":{"osm_id":"5913401879","tag":{"amenity":"recycling","operator":"Ayuntamiento de M\u00c3\u00a1laga","recycling:cans":"yes","recycling:plastic":"yes","recycling_type":"container"}},"type":"Feature"},
	{"geometry":{"coordinates":[-4.461759,36.722385],"type":"Point"},"properties":{"osm_id":"5913401880","tag":{"amenity":"recycling","operator":"Ayuntamiento de M\u00c3\u00a1laga","recycling:cans":"yes","recycling:plastic":"yes","recycling_type":"container"}},"type":"Feature"},
	{"geometry":{"coordinates":[-4.461756,36.722365],"type":"Point"},"properties":{"osm_id":"5913401881","tag":{"amenity":"waste_disposal","operator":"Ayuntamiento de M\u00c3\u00a1laga"}},"type":"Feature"},
	{"geometry":{"coordinates":[-4.418034,36.733031],"type":"Point"},"properties":{"osm_id":"6180995948","tag":{"amenity":"waste_basket"}},"type":"Feature"},
	{"geometry":{"coordinates":[-4.418681,36.733312],"type":"Point"},"properties":{"osm_id":"6180995956","tag":{"amenity":"waste_basket"}},"type":"Feature"},
	{"geometry":{"coordinates":[-4.418932,36.733201],"type":"Point"},"properties":{"osm_id":"6180996188","tag":{"amenity":"waste_basket"}},"type":"Feature"},
	{"geometry":{"coordinates":[-4.440531,36.710754],"type":"Point"},"properties":{"osm_id":"6223640799","tag":{"amenity":"recycling","recycling_type":"container"}},"type":"Feature"},
	{"geometry":{"coordinates":[-4.402144,36.721535],"type":"Point"},"properties":{"osm_id":"6245046324","tag":{"amenity":"waste_disposal"}},"type":"Feature"},
	{"geometry":{"coordinates":[-4.426909,36.715228],"type":"Point"},"properties":{"osm_id":"6262858089","tag":{"amenity":"recycling","image":"https://d1cuyjsrcm0gby.cloudfront.net/zYNI_ygbsc32a-WwvjLXaw/thumb-2048.jpg","mapillary":"https://www.mapillary.com/map/im/zYNI_ygbsc32a-WwvjLXaw","recycling_type":"container"}},"type":"Feature"},
	{"geometry":{"coordinates":[-4.410631,36.723528],"type":"Point"},"properties":{"osm_id":"6264795308","tag":{"amenity":"waste_basket"}},"type":"Feature"},
	{"geometry":{"coordinates":[-4.412034,36.722496],"type":"Point"},"properties":{"osm_id":"6264795329","tag":{"amenity":"waste_basket"}},"type":"Feature"},
	{"geometry":{"coordinates":[-4.422393,36.72733],"type":"Point"},"properties":{"osm_id":"6314130212","tag":{"amenity":"recycling","recycling:glass_bottles":"yes","recycling_type":"container"}},"type":"Feature"},
	{"geometry":{"coordinates":[-4.421878,36.727814],"type":"Point"},"properties":{"osm_id":"6314152979","tag":{"amenity":"recycling","recycling:cans":"yes","recycling:cardboard":"yes","recycling:paper":"yes","recycling:plastic_bottles":"yes","recycling:plastic_packaging":"yes","recycling_type":"container"}},"type":"Feature"},
	{"geometry":{"coordinates":[-4.409921,36.718116],"type":"Point"},"properties":{"osm_id":"6553360242","tag":{"amenity":"waste_basket"}},"type":"Feature"},
	{"geometry":{"coordinates":[-4.41031,36.717653],"type":"Point"},"properties":{"osm_id":"6553360249","tag":{"amenity":"waste_basket"}},"type":"Feature"},
	{"geometry":{"coordinates":[-4.410325,36.717518],"type":"Point"},"properties":{"osm_id":"6553360250","tag":{"amenity":"waste_basket"}},"type":"Feature"},
	{"geometry":{"coordinates":[-4.410281,36.718373],"type":"Point"},"properties":{"osm_id":"6553360251","tag":{"amenity":"waste_basket"}},"type":"Feature"},
	{"geometry":{"coordinates":[-4.443234,36.727276],"type":"Point"},"properties":{"osm_id":"6875176601","tag":{"amenity":"waste_disposal"}},"type":"Feature"},
	{"geometry":{"coordinates":[-4.444373,36.727656],"type":"Point"},"properties":{"osm_id":"6875176602","tag":{"amenity":"waste_disposal"}},"type":"Feature"},
	{"geometry":{"coordinates":[-4.444315,36.728046],"type":"Point"},"properties":{"osm_id":"6875176603","tag":{"amenity":"recycling","recycling:plastic":"yes","recycling:plastic_bottles":"yes","recycling_type":"container"}},"type":"Feature"},
	{"geometry":{"coordinates":[-4.444334,36.728281],"type":"Point"},"properties":{"osm_id":"6875176604","tag":{"amenity":"recycling","recycling:paper":"yes","recycling_type":"container"}},"type":"Feature"},
	{"geometry":{"coordinates":[-4.476779,36.720349],"type":"Point"},"properties":{"osm_id":"6899992014","tag":{"amenity":"recycling","recycling:cooking_oil":"yes","recycling_type":"container"}},"type":"Feature"},
	{"geometry":{"coordinates":[-4.460363,36.720205],"type":"Point"},"properties":{"osm_id":"6899992015","tag":{"amenity":"recycling","recycling:clothes":"yes","recycling_type":"container"}},"type":"Feature"},
	{"geometry":{"coordinates":[-4.451436,36.700672],"type":"Point"},"properties":{"osm_id":"6899992016","tag":{"amenity":"recycling","operator":"Madre Coraje","recycling:clothes":"yes","recycling_type":"container"}},"type":"Feature"},
	{"geometry":{"coordinates":[-4.451022,36.709696],"type":"Point"},"properties":{"osm_id":"6899992017","tag":{"amenity":"recycling","recycling_type":"container"}},"type":"Feature"},
	{"geometry":{"coordinates":[-4.47588,36.719],"type":"Point"},"properties":{"osm_id":"6899992018","tag":{"amenity":"recycling","operator":"Madre coraje","recycling:clothes":"yes","recycling_type":"container"}},"type":"Feature"},
	{"geometry":{"coordinates":[-4.481952,36.719952],"type":"Point"},"properties":{"osm_id":"6899992019","tag":{"amenity":"recycling","operator":"Madre coraje","recycling:clothes":"yes","recycling:cooking_oil":"yes","recycling_type":"container"}},"type":"Feature"},
	{"geometry":{"coordinates":[-4.462696,36.71021],"type":"Point"},"properties":{"osm_id":"6959730943","tag":{"amenity":"recycling","recycling:cooking_oil":"yes","recycling_type":"container"}},"type":"Feature"},
	{"geometry":{"coordinates":[-4.463369,36.716661],"type":"Point"},"properties":{"osm_id":"6959730944","tag":{"amenity":"recycling","recycling:cooking_oil":"yes","recycling_type":"container"}},"type":"Feature"},
	{"geometry":{"coordinates":[-4.464668,36.71649],"type":"Point"},"properties":{"osm_id":"6959730945","tag":{"amenity":"recycling","operator":"Madre Coraje","recycling:clothes":"yes","recycling_type":"container"}},"type":"Feature"},
	{"geometry":{"coordinates":[-4.465962,36.69514],"type":"Point"},"properties":{"barrier":"gate","osm_id":"7021627172","tag":{"addr:housenumber":"85","addr:postcode":"29004","addr:street":"Calle Hermanas Bronte","entrance":"main","motor_vehicle":"yes"}},"type":"Feature"},
	{"geometry":{"coordinates":[-4.426594,36.725541],"type":"Point"},"properties":{"osm_id":"7101317175","tag":{"amenity":"recycling","recycling_type":"container"}},"type":"Feature"},
	{"geometry":{"coordinates":[-4.450197,36.695634],"type":"Point"},"properties":{"osm_id":"7117296634","tag":{"amenity":"waste_basket"}},"type":"Feature"},
	{"geometry":{"coordinates":[-4.445941,36.693209],"type":"Point"},"properties":{"osm_id":"7139831817","tag":{"amenity":"waste_basket"}},"type":"Feature"},
	{"geometry":{"coordinates":[-4.445647,36.692656],"type":"Point"},"properties":{"osm_id":"7139831820","tag":{"amenity":"waste_basket"}},"type":"Feature"},
	{"geometry":{"coordinates":[-4.442818,36.691687],"type":"Point"},"properties":{"osm_id":"7141052771","tag":{"amenity":"waste_basket"}},"type":"Feature"},
	{"geometry":{"coordinates":[-4.447089,36.693941],"type":"Point"},"properties":{"osm_id":"7141111984","tag":{"amenity":"waste_basket"}},"type":"Feature"},
	{"geometry":{"coordinates":[-4.446538,36.692768],"type":"Point"},"properties":{"osm_id":"7141116720","tag":{"amenity":"waste_basket"}},"type":"Feature"},
	{"geometry":{"coordinates":[-4.44797,36.694031],"type":"Point"},"properties":{"osm_id":"7141131417","tag":{"amenity":"waste_basket"}},"type":"Feature"},
	{"geometry":{"coordinates":[-4.447849,36.69395],"type":"Point"},"properties":{"osm_id":"7141131419","tag":{"amenity":"waste_basket"}},"type":"Feature"},
	{"geometry":{"coordinates":[-4.447766,36.693862],"type":"Point"},"properties":{"osm_id":"7141131421","tag":{"amenity":"waste_basket"}},"type":"Feature"},
	{"geometry":{"coordinates":[-4.4477,36.693784],"type":"Point"},"properties":{"osm_id":"7141131423","tag":{"amenity":"waste_basket"}},"type":"Feature"},
	{"geometry":{"coordinates":[-4.447642,36.693707],"type":"Point"},"properties":{"osm_id":"7141131424","tag":{"amenity":"waste_basket"}},"type":"Feature"},
	{"geometry":{"coordinates":[-4.450522,36.696176],"type":"Point"},"properties":{"osm_id":"7308542302","tag":{"amenity":"recycling","operator":"Limasa","recycling:cans":"yes","recycling:cardboard":"yes","recycling:glass_bottles":"yes","recycling:paper":"yes","recycling:plastic_bottles":"yes","recycling:plastic_packaging":"yes","recycling_type":"container"}},"type":"Feature"},
	{"geometry":{"coordinates":[-4.450703,36.697488],"type":"Point"},"properties":{"osm_id":"7308542314","tag":{"amenity":"recycling","operator":"Limasa","recycling:glass_bottles":"yes","recycling_type":"container"}},"type":"Feature"},
	{"geometry":{"coordinates":[-4.444965,36.700522],"type":"Point"},"properties":{"osm_id":"7315164623","tag":{"amenity":"recycling","operator":"Limasa","recycling:cans":"yes","recycling:cardboard":"yes","recycling:glass_bottles":"yes","recycling:paper":"yes","recycling:plastic_bottles":"yes","recycling:plastic_packaging":"yes","recycling_type":"container"}},"type":"Feature"},
	{"geometry":{"coordinates":[-4.424054,36.738126],"type":"Point"},"properties":{"osm_id":"7466491340","tag":{"amenity":"waste_disposal","operator":"Limasa"}},"type":"Feature"},
	{"geometry":{"coordinates":[-4.42324,36.736839],"type":"Point"},"properties":{"osm_id":"7503135320","tag":{"amenity":"waste_disposal","operator":"Limasa"}},"type":"Feature"},
	{"geometry":{"coordinates":[-4.423226,36.736886],"type":"Point"},"properties":{"osm_id":"7503135321","tag":{"amenity":"recycling","operator":"Limasa","recycling:cans":"yes","recycling:glass_bottles":"yes","recycling:green_waste":"no","recycling:paper":"yes","recycling:plastic_bottles":"yes","recycling:plastic_packaging":"yes","recycling_type":"container"}},"type":"Feature"},
	{"geometry":{"coordinates":[-4.423976,36.734288],"type":"Point"},"properties":{"osm_id":"7517666193","tag":{"amenity":"waste_basket"}},"type":"Feature"},
	{"geometry":{"coordinates":[-4.424178,36.734301],"type":"Point"},"properties":{"osm_id":"7517666194","tag":{"amenity":"waste_basket"}},"type":"Feature"},
	{"geometry":{"coordinates":[-4.424187,36.734141],"type":"Point"},"properties":{"osm_id":"7517666220","tag":{"amenity":"waste_basket"}},"type":"Feature"},
	{"geometry":{"coordinates":[-4.423981,36.734131],"type":"Point"},"properties":{"osm_id":"7517666221","tag":{"amenity":"waste_basket"}},"type":"Feature"},
	{"geometry":{"coordinates":[-4.401319,36.725034],"type":"Point"},"properties":{"osm_id":"7526249114","tag":{"amenity":"recycling","operator":"Limasa","recycling:cans":"yes","recycling:cardboard":"yes","recycling:glass_bottles":"yes","recycling:paper":"yes","recycling:plastic_bottles":"yes","recycling:plastic_packaging":"yes","recycling_type":"container"}},"type":"Feature"},
	{"geometry":{"coordinates":[-4.415847,36.737794],"type":"Point"},"properties":{"osm_id":"7568771768","tag":{"amenity":"recycling","operator":"Limasa","recycling:cans":"yes","recycling:cardboard":"yes","recycling:glass_bottles":"yes","recycling:paper":"yes","recycling:plastic":"no","recycling:plastic_bottles":"yes","recycling:plastic_packaging":"yes","recycling_type":"container"}},"type":"Feature"},
	{"geometry":{"coordinates":[-4.415882,36.73777],"type":"Point"},"properties":{"osm_id":"7568771769","tag":{"amenity":"waste_disposal","operator":"Limasa"}},"type":"Feature"},
	{"geometry":{"coordinates":[-4.416864,36.722494],"type":"Point"},"properties":{"osm_id":"7830439485","tag":{"amenity":"recycling","recycling:clothes":"yes","recycling:shoes":"yes","recycling:toys":"yes","recycling_type":"container"}},"type":"Feature"},
	{"geometry":{"coordinates":[-4.419743,36.723897],"type":"Point"},"properties":{"osm_id":"7830439488","tag":{"amenity":"recycling","recycling:organic":"yes","recycling_type":"container"}},"type":"Feature"},
	{"geometry":{"coordinates":[-4.420967,36.724351],"type":"Point"},"properties":{"osm_id":"7830597927","tag":{"amenity":"recycling","recycling:glass_bottles":"yes","recycling:plastic_bottles":"yes","recycling_type":"container"}},"type":"Feature"},
	{"geometry":{"coordinates":[-4.427907,36.727487],"type":"Point"},"properties":{"osm_id":"7831930908","tag":{"amenity":"recycling","recycling:glass_bottles":"yes","recycling_type":"container"}},"type":"Feature"},
	{"geometry":{"coordinates":[-4.42014,36.721387],"type":"Point"},"properties":{"osm_id":"7832857885","tag":{"amenity":"recycling"}},"type":"Feature"},
	{"geometry":{"coordinates":[-4.419919,36.719494],"type":"Point"},"properties":{"osm_id":"7832866385","tag":{"amenity":"recycling"}},"type":"Feature"},
	{"geometry":{"coordinates":[-4.421189,36.719199],"type":"Point"},"properties":{"osm_id":"7832873785","tag":{"amenity":"recycling"}},"type":"Feature"},
	{"geometry":{"coordinates":[-4.422996,36.725939],"type":"Point"},"properties":{"osm_id":"7858248791","tag":{"amenity":"recycling","location":"underground","recycling:organic":"yes","recycling_type":"container"}},"type":"Feature"},
	{"geometry":{"coordinates":[-4.422903,36.725859],"type":"Point"},"properties":{"osm_id":"7858248792","tag":{"amenity":"recycling","location":"underground","recycling:glass_bottles":"yes","recycling:plastic_packaging":"yes","recycling_type":"container"}},"type":"Feature"},
	{"geometry":{"coordinates":[-4.422566,36.737762],"type":"Point"},"properties":{"osm_id":"7900110940","tag":{"amenity":"waste_basket"}},"type":"Feature"},
	{"geometry":{"coordinates":[-4.422347,36.73776],"type":"Point"},"properties":{"osm_id":"7900110946","tag":{"amenity":"waste_basket"}},"type":"Feature"},
	{"geometry":{"coordinates":[-4.452605,36.717106],"type":"Point"},"properties":{"osm_id":"7914285418","tag":{"amenity":"waste_basket"}},"type":"Feature"},
	{"geometry":{"coordinates":[-4.405875,36.721373],"type":"Point"},"properties":{"osm_id":"7944401201","tag":{"amenity":"recycling","recycling:batteries":"yes","recycling_type":"container"}},"type":"Feature"}
]
}
