{
"type": "FeatureCollection",
"features": [
	{"geometry":{"coordinates":[-94.680355,38.911099],"type":"Point"},"properties":{"name":"Overland Park Recycling Center","osm_id":"2207718824","tag":{"amenity":"recycling","recycling_type":"centre"}},"type":"Feature"},
	{"geometry":{"coordinates":[-94.725375,38.90091],"type":"Point"},"properties":{"osm_id":"3996455662","tag":{"amenity":"waste_basket"}},"type":"Feature"},
	{"geometry":{"coordinates":[-94.737847,38.949531],"type":"Point"},"properties":{"osm_id":"5955638936","tag":{"amenity":"waste_basket"}},"type":"Feature"},
	{"geometry":{"coordinates":[-94.734152,38.950537],"type":"Point"},"properties":{"osm_id":"6943862789","tag":{"amenity":"waste_disposal"}},"type":"Feature"},
	{"geometry":{"coordinates":[-94.734144,38.950014],"type":"Point"},"properties":{"osm_id":"6943862790","tag":{"amenity":"waste_disposal"}},"type":"Feature"},
	{"geometry":{"coordinates":[-94.733164,38.949791],"type":"Point"},"properties":{"osm_id":"6943862791","tag":{"amenity":"waste_disposal"}},"type":"Feature"},
	{"geometry":{"coordinates":[-94.733388,38.950977],"type":"Point"},"properties":{"osm_id":"6943862792","tag":{"amenity":"waste_disposal"}},"type":"Feature"},
	{"geometry":{"coordinates":[-94.73452,38.950559],"type":"Point"},"properties":{"osm_id":"6943862793","tag":{"amenity":"waste_disposal"}},"type":"Feature"},
	{"geometry":{"coordinates":[-94.73451,38.949812],"type":"Point"},"properties":{"osm_id":"6943862794","tag":{"amenity":"recycling","recycling_type":"container"}},"type":"Feature"},
	{"geometry":{"coordinates":[-94.735255,38.950513],"type":"Point"},"properties":{"osm_id":"6943862795","tag":{"amenity":"waste_disposal"}},"type":"Feature"},
	{"geometry":{"coordinates":[-94.7375,38.950084],"type":"Point"},"properties":{"osm_id":"6943862796","tag":{"amenity":"waste_disposal"}},"type":"Feature"},
	{"geometry":{"coordinates":[-94.736672,38.950854],"type":"Point"},"properties":{"osm_id":"7022876141","tag":{"amenity":"waste_disposal"}},"type":"Feature"},
	{"geometry":{"coordinates":[-94.737189,38.956124],"type":"Point"},"properties":{"osm_id":"7495340534","tag":{"amenity":"waste_disposal"}},"type":"Feature"},
	{"geometry":{"coordinates":[-94.737211,38.956028],"type":"Point"},"properties":{"osm_id":"7495340535","tag":{"amenity":"waste_disposal"}},"type":"Feature"},
	{"geometry":{"coordinates":[-94.727843,38.929051],"type":"Point"},"properties":{"osm_id":"7598944693","tag":{"amenity":"waste_disposal"}},"type":"Feature"}
]
}
