{
"type": "FeatureCollection",
"features": [
	{"geometry":{"coordinates":[-6.294996,53.389957],"type":"Point"},"properties":{"osm_id":"644741194","tag":{"amenity":"recycling","location":"overground","recycling:clothes":"yes","recycling:glass":"yes","recycling_type":"container"}},"type":"Feature"},
	{"geometry":{"coordinates":[-6.254254,53.387603],"type":"Point"},"properties":{"name":"Collins Avenue Recycling Station","osm_id":"660705095","tag":{"amenity":"recycling","recycling_type":"centre"}},"type":"Feature"},
	{"geometry":{"coordinates":[-6.278083,53.407833],"type":"Point"},"properties":{"name":"Ikea","osm_id":"1583388211","tag":{"amenity":"recycling","recycling:batteries":"yes","recycling:beverage_cartons":"yes","recycling:cans":"yes","recycling:cardboard":"yes","recycling:cartons":"yes","recycling:clothes":"yes","recycling:electrical_appliances":"yes","recycling:fluorescent_tubes":"yes","recycling:fridge_and_freezer":"yes","recycling:glass_bottles":"yes","recycling:light_bulbs":"yes","recycling:low_energy_bulbs":"yes","recycling:mobile_phones":"yes","recycling:newspaper":"yes","recycling:paper":"yes","recycling:paper_packaging":"yes","recycling:small_appliances":"yes","recycling:tv_monitor":"yes","recycling_type":"container"}},"type":"Feature"},
	{"geometry":{"coordinates":[-6.299768,53.390667],"type":"Point"},"properties":{"osm_id":"1691814783","tag":{"amenity":"recycling","recycling:glass":"yes","recycling:glass_bottles":"yes","recycling_type":"centre"}},"type":"Feature"},
	{"geometry":{"coordinates":[-6.257594,53.384524],"type":"Point"},"properties":{"osm_id":"3873003062","tag":{"amenity":"waste_disposal"}},"type":"Feature"},
	{"geometry":{"coordinates":[-6.257587,53.385131],"type":"Point"},"properties":{"osm_id":"3873003063","tag":{"amenity":"waste_basket"}},"type":"Feature"},
	{"geometry":{"coordinates":[-6.257715,53.385641],"type":"Point"},"properties":{"osm_id":"3873003064","tag":{"amenity":"waste_basket"}},"type":"Feature"},
	{"geometry":{"coordinates":[-6.257022,53.384584],"type":"Point"},"properties":{"osm_id":"3873003065","tag":{"amenity":"waste_basket"}},"type":"Feature"},
	{"geometry":{"coordinates":[-6.257547,53.384083],"type":"Point"},"properties":{"osm_id":"3873003066","tag":{"amenity":"waste_basket"}},"type":"Feature"},
	{"geometry":{"coordinates":[-6.26073,53.3849],"type":"Point"},"properties":{"osm_id":"3873003108","tag":{"amenity":"waste_basket"}},"type":"Feature"},
	{"geometry":{"coordinates":[-6.265602,53.38567],"type":"Point"},"properties":{"osm_id":"3873003109","tag":{"amenity":"waste_basket"}},"type":"Feature"},
	{"geometry":{"coordinates":[-6.259394,53.40036],"type":"Point"},"properties":{"osm_id":"5021605539","tag":{"amenity":"waste_basket"}},"type":"Feature"},
	{"geometry":{"coordinates":[-6.257267,53.400117],"type":"Point"},"properties":{"osm_id":"5120677822","tag":{"amenity":"waste_basket"}},"type":"Feature"},
	{"geometry":{"coordinates":[-6.241268,53.398148],"type":"Point"},"properties":{"osm_id":"5121047921","tag":{"amenity":"waste_basket"}},"type":"Feature"},
	{"geometry":{"coordinates":[-6.264647,53.386221],"type":"Point"},"properties":{"osm_id":"5337558038","tag":{"amenity":"waste_basket"}},"type":"Feature"},
	{"geometry":{"coordinates":[-6.256877,53.390753],"type":"Point"},"properties":{"osm_id":"5381116602","tag":{"amenity":"waste_basket"}},"type":"Feature"},
	{"geometry":{"coordinates":[-6.258938,53.385892],"type":"Point"},"properties":{"osm_id":"5387045983","tag":{"amenity":"waste_basket"}},"type":"Feature"},
	{"geometry":{"coordinates":[-6.258837,53.385956],"type":"Point"},"properties":{"osm_id":"5387045984","tag":{"amenity":"waste_basket"}},"type":"Feature"},
	{"geometry":{"coordinates":[-6.258929,53.386172],"type":"Point"},"properties":{"osm_id":"5387045987","tag":{"amenity":"waste_basket"}},"type":"Feature"},
	{"geometry":{"coordinates":[-6.250299,53.38468],"type":"Point"},"properties":{"osm_id":"5388085348","tag":{"amenity":"waste_basket"}},"type":"Feature"},
	{"geometry":{"coordinates":[-6.250557,53.384862],"type":"Point"},"properties":{"osm_id":"5388085349","tag":{"amenity":"waste_basket"}},"type":"Feature"},
	{"geometry":{"coordinates":[-6.250957,53.384748],"type":"Point"},"properties":{"osm_id":"5388085360","tag":{"amenity":"waste_basket"}},"type":"Feature"},
	{"geometry":{"coordinates":[-6.25759,53.388999],"type":"Point"},"properties":{"osm_id":"5388334409","tag":{"amenity":"waste_basket"}},"type":"Feature"},
	{"geometry":{"coordinates":[-6.257377,53.389024],"type":"Point"},"properties":{"osm_id":"5388334410","tag":{"amenity":"waste_basket"}},"type":"Feature"},
	{"geometry":{"coordinates":[-6.254748,53.388763],"type":"Point"},"properties":{"osm_id":"5388348964","tag":{"amenity":"waste_basket"}},"type":"Feature"},
	{"geometry":{"coordinates":[-6.25666,53.39132],"type":"Point"},"properties":{"osm_id":"5391173789","tag":{"amenity":"waste_basket"}},"type":"Feature"},
	{"geometry":{"coordinates":[-6.256586,53.391427],"type":"Point"},"properties":{"osm_id":"5391173790","tag":{"amenity":"waste_basket"}},"type":"Feature"},
	{"geometry":{"coordinates":[-6.251326,53.39115],"type":"Point"},"properties":{"osm_id":"5391173805","tag":{"amenity":"waste_basket"}},"type":"Feature"},
	{"geometry":{"coordinates":[-6.249076,53.389751],"type":"Point"},"properties":{"osm_id":"5391266563","tag":{"amenity":"waste_basket"}},"type":"Feature"},
	{"geometry":{"coordinates":[-6.246833,53.389802],"type":"Point"},"properties":{"osm_id":"5394312804","tag":{"amenity":"waste_basket"}},"type":"Feature"},
	{"geometry":{"coordinates":[-6.245936,53.389209],"type":"Point"},"properties":{"osm_id":"5394355215","tag":{"amenity":"waste_basket"}},"type":"Feature"},
	{"geometry":{"coordinates":[-6.245953,53.388669],"type":"Point"},"properties":{"osm_id":"5395878531","tag":{"amenity":"waste_basket"}},"type":"Feature"},
	{"geometry":{"coordinates":[-6.244998,53.387943],"type":"Point"},"properties":{"osm_id":"5395878557","tag":{"amenity":"waste_basket"}},"type":"Feature"},
	{"geometry":{"coordinates":[-6.242424,53.386457],"type":"Point"},"properties":{"osm_id":"5396031718","tag":{"amenity":"waste_basket"}},"type":"Feature"},
	{"geometry":{"coordinates":[-6.242143,53.387005],"type":"Point"},"properties":{"osm_id":"5396031721","tag":{"amenity":"waste_basket"}},"type":"Feature"},
	{"geometry":{"coordinates":[-6.249861,53.384783],"type":"Point"},"properties":{"osm_id":"5400449605","tag":{"amenity":"waste_basket"}},"type":"Feature"},
	{"geometry":{"coordinates":[-6.247819,53.386619],"type":"Point"},"properties":{"osm_id":"5400449610","tag":{"amenity":"waste_basket"}},"type":"Feature"},
	{"geometry":{"coordinates":[-6.247384,53.386633],"type":"Point"},"properties":{"osm_id":"5400449613","tag":{"amenity":"waste_basket","waste":"dog_excrement"}},"type":"Feature"},
	{"geometry":{"coordinates":[-6.26372,53.392317],"type":"Point"},"properties":{"osm_id":"5415051618","tag":{"amenity":"waste_basket"}},"type":"Feature"},
	{"geometry":{"coordinates":[-6.264009,53.395333],"type":"Point"},"properties":{"osm_id":"5417474286","tag":{"amenity":"waste_basket"}},"type":"Feature"},
	{"geometry":{"coordinates":[-6.263701,53.391336],"type":"Point"},"properties":{"osm_id":"5417474293","tag":{"amenity":"waste_basket"}},"type":"Feature"},
	{"geometry":{"coordinates":[-6.257887,53.385649],"type":"Point"},"properties":{"osm_id":"5419404770","tag":{"amenity":"waste_basket"}},"type":"Feature"},
	{"geometry":{"coordinates":[-6.257454,53.385239],"type":"Point"},"properties":{"osm_id":"5419404780","tag":{"amenity":"waste_basket"}},"type":"Feature"},
	{"geometry":{"coordinates":[-6.257256,53.384862],"type":"Point"},"properties":{"osm_id":"5419404782","tag":{"amenity":"recycling","operator":"Enable Ireland","recycling:clothes":"yes","recycling_type":"container"}},"type":"Feature"},
	{"geometry":{"coordinates":[-6.24394,53.387857],"type":"Point"},"properties":{"osm_id":"5419437502","tag":{"amenity":"waste_basket"}},"type":"Feature"},
	{"geometry":{"coordinates":[-6.243512,53.388278],"type":"Point"},"properties":{"osm_id":"5419442523","tag":{"amenity":"waste_basket"}},"type":"Feature"},
	{"geometry":{"coordinates":[-6.297164,53.386729],"type":"Point"},"properties":{"osm_id":"5543790835","tag":{"amenity":"waste_basket"}},"type":"Feature"},
	{"geometry":{"coordinates":[-6.313034,53.389309],"type":"Point"},"properties":{"osm_id":"5546762370","tag":{"amenity":"waste_basket"}},"type":"Feature"},
	{"geometry":{"coordinates":[-6.315692,53.389907],"type":"Point"},"properties":{"osm_id":"5546762372","tag":{"amenity":"waste_basket"}},"type":"Feature"},
	{"geometry":{"coordinates":[-6.318012,53.39038],"type":"Point"},"properties":{"osm_id":"5546762373","tag":{"amenity":"waste_basket"}},"type":"Feature"},
	{"geometry":{"coordinates":[-6.311794,53.383435],"type":"Point"},"properties":{"osm_id":"5546953987","tag":{"amenity":"waste_basket"}},"type":"Feature"},
	{"geometry":{"coordinates":[-6.303104,53.399754],"type":"Point"},"properties":{"osm_id":"5555315635","tag":{"amenity":"waste_basket"}},"type":"Feature"},
	{"geometry":{"coordinates":[-6.299994,53.389424],"type":"Point"},"properties":{"osm_id":"5555349100","tag":{"amenity":"waste_basket"}},"type":"Feature"},
	{"geometry":{"coordinates":[-6.311462,53.390579],"type":"Point"},"properties":{"osm_id":"5555359914","tag":{"amenity":"waste_basket"}},"type":"Feature"},
	{"geometry":{"coordinates":[-6.312852,53.385565],"type":"Point"},"properties":{"osm_id":"5555502384","tag":{"amenity":"waste_basket"}},"type":"Feature"},
	{"geometry":{"coordinates":[-6.312319,53.38882],"type":"Point"},"properties":{"osm_id":"5555502388","tag":{"amenity":"waste_basket"}},"type":"Feature"},
	{"geometry":{"coordinates":[-6.293431,53.383777],"type":"Point"},"properties":{"osm_id":"5555534422","tag":{"amenity":"waste_basket"}},"type":"Feature"},
	{"geometry":{"coordinates":[-6.294757,53.384446],"type":"Point"},"properties":{"osm_id":"5555534428","tag":{"amenity":"waste_basket"}},"type":"Feature"},
	{"geometry":{"coordinates":[-6.281962,53.384275],"type":"Point"},"properties":{"osm_id":"5558629519","tag":{"amenity":"waste_basket"}},"type":"Feature"},
	{"geometry":{"coordinates":[-6.287446,53.385165],"type":"Point"},"properties":{"osm_id":"5558630737","tag":{"amenity":"waste_basket"}},"type":"Feature"},
	{"geometry":{"coordinates":[-6.302487,53.396133],"type":"Point"},"properties":{"osm_id":"5558688418","tag":{"amenity":"waste_basket"}},"type":"Feature"},
	{"geometry":{"coordinates":[-6.302761,53.396134],"type":"Point"},"properties":{"osm_id":"5558688419","tag":{"amenity":"waste_basket"}},"type":"Feature"},
	{"geometry":{"coordinates":[-6.301082,53.394373],"type":"Point"},"properties":{"osm_id":"5558688723","tag":{"amenity":"waste_basket"}},"type":"Feature"},
	{"geometry":{"coordinates":[-6.298244,53.390431],"type":"Point"},"properties":{"osm_id":"5558688739","tag":{"amenity":"waste_basket"}},"type":"Feature"},
	{"geometry":{"coordinates":[-6.300718,53.407475],"type":"Point"},"properties":{"osm_id":"5559698930","tag":{"amenity":"waste_basket"}},"type":"Feature"},
	{"geometry":{"coordinates":[-6.304565,53.397012],"type":"Point"},"properties":{"osm_id":"5559704257","tag":{"amenity":"waste_basket"}},"type":"Feature"},
	{"geometry":{"coordinates":[-6.267669,53.397745],"type":"Point"},"properties":{"osm_id":"5569759128","tag":{"amenity":"waste_basket"}},"type":"Feature"},
	{"geometry":{"coordinates":[-6.282756,53.390495],"type":"Point"},"properties":{"osm_id":"5570285205","tag":{"amenity":"waste_basket"}},"type":"Feature"},
	{"geometry":{"coordinates":[-6.280421,53.388402],"type":"Point"},"properties":{"osm_id":"5570969882","tag":{"amenity":"waste_basket"}},"type":"Feature"},
	{"geometry":{"coordinates":[-6.28436,53.389245],"type":"Point"},"properties":{"osm_id":"5570969885","tag":{"amenity":"waste_basket"}},"type":"Feature"},
	{"geometry":{"coordinates":[-6.285786,53.389462],"type":"Point"},"properties":{"osm_id":"5570969891","tag":{"amenity":"waste_basket"}},"type":"Feature"},
	{"geometry":{"coordinates":[-6.287261,53.390267],"type":"Point"},"properties":{"osm_id":"5570969892","tag":{"amenity":"waste_basket"}},"type":"Feature"},
	{"geometry":{"coordinates":[-6.287656,53.390639],"type":"Point"},"properties":{"osm_id":"5570969899","tag":{"amenity":"recycling","recycling_type":"container"}},"type":"Feature"},
	{"geometry":{"coordinates":[-6.287003,53.390193],"type":"Point"},"properties":{"osm_id":"5570969900","tag":{"amenity":"waste_basket"}},"type":"Feature"},
	{"geometry":{"coordinates":[-6.283706,53.389018],"type":"Point"},"properties":{"osm_id":"5570979072","tag":{"amenity":"waste_basket"}},"type":"Feature"},
	{"geometry":{"coordinates":[-6.305955,53.389899],"type":"Point"},"properties":{"osm_id":"5581566333","tag":{"amenity":"waste_basket"}},"type":"Feature"},
	{"geometry":{"coordinates":[-6.304609,53.389918],"type":"Point"},"properties":{"osm_id":"5581566334","tag":{"amenity":"waste_basket"}},"type":"Feature"},
	{"geometry":{"coordinates":[-6.30317,53.390011],"type":"Point"},"properties":{"osm_id":"5581566355","tag":{"amenity":"recycling","recycling:clothes":"yes","recycling_type":"container"}},"type":"Feature"},
	{"geometry":{"coordinates":[-6.242599,53.398148],"type":"Point"},"properties":{"osm_id":"5581572047","tag":{"amenity":"waste_basket"}},"type":"Feature"},
	{"geometry":{"coordinates":[-6.264383,53.396038],"type":"Point"},"properties":{"osm_id":"5591318778","tag":{"amenity":"waste_basket"}},"type":"Feature"},
	{"geometry":{"coordinates":[-6.264358,53.396625],"type":"Point"},"properties":{"osm_id":"5591318779","tag":{"amenity":"waste_basket"}},"type":"Feature"},
	{"geometry":{"coordinates":[-6.264083,53.399142],"type":"Point"},"properties":{"osm_id":"5591318780","tag":{"amenity":"waste_basket"}},"type":"Feature"},
	{"geometry":{"coordinates":[-6.263673,53.399181],"type":"Point"},"properties":{"osm_id":"5591318781","tag":{"amenity":"waste_basket"}},"type":"Feature"},
	{"geometry":{"coordinates":[-6.271369,53.38987],"type":"Point"},"properties":{"osm_id":"5591395064","tag":{"amenity":"waste_basket"}},"type":"Feature"},
	{"geometry":{"coordinates":[-6.274185,53.39006],"type":"Point"},"properties":{"osm_id":"5591395088","tag":{"amenity":"waste_basket"}},"type":"Feature"},
	{"geometry":{"coordinates":[-6.279107,53.390545],"type":"Point"},"properties":{"osm_id":"5591435564","tag":{"amenity":"waste_basket"}},"type":"Feature"},
	{"geometry":{"coordinates":[-6.278106,53.390477],"type":"Point"},"properties":{"osm_id":"5591435566","tag":{"amenity":"waste_basket"}},"type":"Feature"},
	{"geometry":{"coordinates":[-6.286486,53.39053],"type":"Point"},"properties":{"osm_id":"5591435574","tag":{"amenity":"waste_basket"}},"type":"Feature"},
	{"geometry":{"coordinates":[-6.309521,53.39791],"type":"Point"},"properties":{"osm_id":"5681359202","tag":{"amenity":"waste_basket"}},"type":"Feature"},
	{"geometry":{"coordinates":[-6.243314,53.401119],"type":"Point"},"properties":{"osm_id":"6043117656","tag":{"amenity":"waste_basket"}},"type":"Feature"},
	{"geometry":{"coordinates":[-6.245111,53.396525],"type":"Point"},"properties":{"osm_id":"6050242218","tag":{"amenity":"waste_basket"}},"type":"Feature"},
	{"geometry":{"coordinates":[-6.266484,53.397154],"type":"Point"},"properties":{"osm_id":"6219768655","tag":{"amenity":"recycling","recycling:clothes":"yes","recycling:glass":"yes","recycling_type":"container"}},"type":"Feature"},
	{"geometry":{"coordinates":[-6.266144,53.397631],"type":"Point"},"properties":{"osm_id":"6219768656","tag":{"amenity":"waste_basket"}},"type":"Feature"},
	{"geometry":{"coordinates":[-6.276966,53.400124],"type":"Point"},"properties":{"osm_id":"6219861454","tag":{"amenity":"waste_basket"}},"type":"Feature"},
	{"geometry":{"coordinates":[-6.276575,53.399867],"type":"Point"},"properties":{"osm_id":"6219861456","tag":{"amenity":"waste_basket"}},"type":"Feature"},
	{"geometry":{"coordinates":[-6.276924,53.400102],"type":"Point"},"properties":{"osm_id":"6219861483","tag":{"amenity":"waste_basket"}},"type":"Feature"},
	{"geometry":{"coordinates":[-6.279215,53.401736],"type":"Point"},"properties":{"osm_id":"6219877424","tag":{"amenity":"waste_basket"}},"type":"Feature"},
	{"geometry":{"coordinates":[-6.279772,53.402061],"type":"Point"},"properties":{"osm_id":"6219883048","tag":{"amenity":"waste_basket"}},"type":"Feature"},
	{"geometry":{"coordinates":[-6.281706,53.402935],"type":"Point"},"properties":{"osm_id":"6219917341","ref":"WMS 2157","tag":{"amenity":"waste_basket"}},"type":"Feature"},
	{"geometry":{"coordinates":[-6.266915,53.40112],"type":"Point"},"properties":{"osm_id":"6221819233","tag":{"amenity":"waste_basket"}},"type":"Feature"},
	{"geometry":{"coordinates":[-6.265823,53.400712],"type":"Point"},"properties":{"osm_id":"6221968334","tag":{"amenity":"waste_basket"}},"type":"Feature"},
	{"geometry":{"coordinates":[-6.265679,53.38346],"type":"Point"},"properties":{"osm_id":"6248356865","tag":{"amenity":"waste_basket"}},"type":"Feature"},
	{"geometry":{"coordinates":[-6.265021,53.38459],"type":"Point"},"properties":{"osm_id":"6248356870","tag":{"amenity":"waste_basket"}},"type":"Feature"},
	{"geometry":{"coordinates":[-6.264965,53.384603],"type":"Point"},"properties":{"osm_id":"6248356871","tag":{"amenity":"waste_basket","waste":"dog_excrement"}},"type":"Feature"},
	{"geometry":{"coordinates":[-6.265341,53.384976],"type":"Point"},"properties":{"osm_id":"6248356873","tag":{"amenity":"waste_basket"}},"type":"Feature"},
	{"geometry":{"coordinates":[-6.264897,53.38531],"type":"Point"},"properties":{"osm_id":"6248356874","tag":{"amenity":"waste_basket"}},"type":"Feature"},
	{"geometry":{"coordinates":[-6.265639,53.385733],"type":"Point"},"properties":{"osm_id":"6248359789","tag":{"amenity":"waste_basket"}},"type":"Feature"},
	{"geometry":{"coordinates":[-6.265253,53.386431],"type":"Point"},"properties":{"osm_id":"6248359790","tag":{"amenity":"waste_basket"}},"type":"Feature"},
	{"geometry":{"coordinates":[-6.264874,53.386805],"type":"Point"},"properties":{"osm_id":"6248359791","tag":{"amenity":"waste_basket"}},"type":"Feature"},
	{"geometry":{"coordinates":[-6.264884,53.387371],"type":"Point"},"properties":{"osm_id":"6248359843","tag":{"amenity":"waste_basket"}},"type":"Feature"},
	{"geometry":{"coordinates":[-6.26508,53.387893],"type":"Point"},"properties":{"osm_id":"6248403877","tag":{"amenity":"waste_basket"}},"type":"Feature"},
	{"geometry":{"coordinates":[-6.264675,53.389832],"type":"Point"},"properties":{"osm_id":"6248454694","tag":{"amenity":"waste_basket"}},"type":"Feature"},
	{"geometry":{"coordinates":[-6.264319,53.389708],"type":"Point"},"properties":{"osm_id":"6248454699","tag":{"amenity":"waste_basket"}},"type":"Feature"},
	{"geometry":{"coordinates":[-6.264153,53.392257],"type":"Point"},"properties":{"osm_id":"6248495650","tag":{"amenity":"waste_basket"}},"type":"Feature"},
	{"geometry":{"coordinates":[-6.264298,53.394024],"type":"Point"},"properties":{"osm_id":"6248495663","tag":{"amenity":"waste_basket"}},"type":"Feature"},
	{"geometry":{"coordinates":[-6.263917,53.394158],"type":"Point"},"properties":{"osm_id":"6248495664","tag":{"amenity":"waste_basket"}},"type":"Feature"},
	{"geometry":{"coordinates":[-6.263965,53.39454],"type":"Point"},"properties":{"osm_id":"6248495665","tag":{"amenity":"waste_basket"}},"type":"Feature"},
	{"geometry":{"coordinates":[-6.264365,53.394502],"type":"Point"},"properties":{"osm_id":"6248508782","tag":{"amenity":"waste_basket"}},"type":"Feature"},
	{"geometry":{"coordinates":[-6.264379,53.394787],"type":"Point"},"properties":{"osm_id":"6248540750","tag":{"amenity":"waste_basket"}},"type":"Feature"},
	{"geometry":{"coordinates":[-6.264398,53.395498],"type":"Point"},"properties":{"osm_id":"6248574890","tag":{"amenity":"waste_basket"}},"type":"Feature"},
	{"geometry":{"coordinates":[-6.264405,53.395243],"type":"Point"},"properties":{"osm_id":"6248574898","tag":{"amenity":"waste_basket"}},"type":"Feature"},
	{"geometry":{"coordinates":[-6.263997,53.395761],"type":"Point"},"properties":{"osm_id":"6248574915","tag":{"amenity":"waste_basket"}},"type":"Feature"},
	{"geometry":{"coordinates":[-6.263969,53.396216],"type":"Point"},"properties":{"osm_id":"6248574927","tag":{"amenity":"waste_basket"}},"type":"Feature"},
	{"geometry":{"coordinates":[-6.263434,53.396099],"type":"Point"},"properties":{"osm_id":"6248574929","tag":{"amenity":"waste_basket"}},"type":"Feature"},
	{"geometry":{"coordinates":[-6.263926,53.396901],"type":"Point"},"properties":{"osm_id":"6248578889","tag":{"amenity":"waste_basket"}},"type":"Feature"},
	{"geometry":{"coordinates":[-6.263894,53.396357],"type":"Point"},"properties":{"osm_id":"6253063837","tag":{"amenity":"waste_basket"}},"type":"Feature"},
	{"geometry":{"coordinates":[-6.264006,53.395072],"type":"Point"},"properties":{"osm_id":"6253063847","tag":{"amenity":"waste_basket"}},"type":"Feature"},
	{"geometry":{"coordinates":[-6.265415,53.388382],"type":"Point"},"properties":{"osm_id":"6254341528","ref":"WMS 3346","tag":{"amenity":"waste_basket"}},"type":"Feature"},
	{"geometry":{"coordinates":[-6.265403,53.389357],"type":"Point"},"properties":{"osm_id":"6254341532","tag":{"amenity":"waste_basket"}},"type":"Feature"},
	{"geometry":{"coordinates":[-6.264266,53.391234],"type":"Point"},"properties":{"osm_id":"6254341533","tag":{"amenity":"recycling","recycling:clothes":"yes","recycling:glass":"yes","recycling_type":"container"}},"type":"Feature"},
	{"geometry":{"coordinates":[-6.30067,53.405638],"type":"Point"},"properties":{"osm_id":"6329858121","tag":{"amenity":"waste_basket"}},"type":"Feature"},
	{"geometry":{"coordinates":[-6.300967,53.405588],"type":"Point"},"properties":{"osm_id":"6329858122","tag":{"amenity":"waste_basket"}},"type":"Feature"},
	{"geometry":{"coordinates":[-6.30065,53.407677],"type":"Point"},"properties":{"osm_id":"6329874085","tag":{"amenity":"waste_basket"}},"type":"Feature"},
	{"geometry":{"coordinates":[-6.312783,53.387087],"type":"Point"},"properties":{"osm_id":"6795635499","tag":{"amenity":"waste_basket","colour":"grey","material":"steel","operator":"Dublin City Council"}},"type":"Feature"},
	{"geometry":{"coordinates":[-6.322536,53.392919],"type":"Point"},"properties":{"osm_id":"6797473785","tag":{"amenity":"waste_basket","colour":"black","material":"steel","operator":"Fingal County Council"}},"type":"Feature"},
	{"geometry":{"coordinates":[-6.307349,53.399553],"type":"Point"},"properties":{"osm_id":"7622952475","tag":{"amenity":"waste_basket"}},"type":"Feature"},
	{"geometry":{"coordinates":[-6.29681,53.386919],"type":"Point"},"properties":{"osm_id":"7762652437","tag":{"amenity":"waste_basket","material":"steel","operator":"Dublin City Council"}},"type":"Feature"},
	{"geometry":{"coordinates":[-6.297682,53.38749],"type":"Point"},"properties":{"osm_id":"7762652440","tag":{"amenity":"waste_basket","material":"steel","operator":"Dublin City Council"}},"type":"Feature"}
]
}
