{
"type": "FeatureCollection",
"features": [
	{"geometry":{"coordinates":[-6.325969,53.296868],"type":"Point"},"properties":{"osm_id":"59998053","tag":{"amenity":"recycling","recycling:glass":"yes","recycling_type":"container"}},"type":"Feature"},
	{"geometry":{"coordinates":[-6.322948,53.310918],"type":"Point"},"properties":{"osm_id":"108004939","tag":{"amenity":"recycling","recycling:glass":"yes"}},"type":"Feature"},
	{"geometry":{"coordinates":[-6.296721,53.298235],"type":"Point"},"properties":{"osm_id":"282961930","tag":{"amenity":"recycling","recycling:cans":"yes","recycling:clothes":"yes","recycling:glass_bottles":"yes","recycling_type":"container"}},"type":"Feature"},
	{"geometry":{"coordinates":[-6.26366,53.324195],"type":"Point"},"properties":{"name":"Dublin City Council Gulistan Terrace Bring Centre","osm_id":"560602926","tag":{"addr:street":"Gulistan Terrace","amenity":"recycling","recycling:batteries":"yes","recycling:cans":"yes","recycling:cooking_oil":"yes","recycling:engine_oil":"yes","recycling:garden_waste":"yes","recycling:glass":"yes","recycling:paper":"yes","recycling_type":"centre"}},"type":"Feature"},
	{"geometry":{"coordinates":[-6.26022,53.328494],"type":"Point"},"properties":{"name":"McGovern's Metals Recycling","osm_id":"564399664","tag":{"addr:city":"Dublin","addr:housenumber":"12","addr:street":"Price's Lane","amenity":"recycling","phone":"+353 1 4977466","recycling:cans":"yes","recycling:clothes":"no","recycling:glass":"no","recycling:glass_bottles":"no","recycling:metal":"yes","recycling:paper":"no","recycling:plastic":"no","recycling_type":"centre","website":"http://www.mcgovernmetals.com/"}},"type":"Feature"},
	{"geometry":{"coordinates":[-6.266583,53.321015],"type":"Point"},"properties":{"osm_id":"564430856","tag":{"addr:housename":"Tesco Car Park","addr:street":"Rathmines Road Upper","amenity":"recycling","recycling:glass":"yes","recycling_type":"container"}},"type":"Feature"},
	{"geometry":{"coordinates":[-6.293338,53.319092],"type":"Point"},"properties":{"osm_id":"612930963","tag":{"amenity":"recycling"}},"type":"Feature"},
	{"geometry":{"coordinates":[-6.282776,53.312062],"type":"Point"},"properties":{"osm_id":"646566132","tag":{"amenity":"recycling","location":"overground","recycling:clothes":"yes","recycling:glass_bottles":"yes","recycling_type":"container"}},"type":"Feature"},
	{"geometry":{"coordinates":[-6.27464,53.310293],"type":"Point"},"properties":{"name":"Herzog Park Bring Centre","osm_id":"1218889395","tag":{"addr:street":"Orwell Mews","amenity":"recycling","opening_hours":"Mo-Th 09:00-16:00, Fr 09:00-13:00","phone":"+353 1 4924920","recycling:cans":"yes","recycling:clothes":"yes","recycling:glass":"yes","recycling:paper":"yes","recycling_type":"centre"}},"type":"Feature"},
	{"geometry":{"coordinates":[-6.243983,53.302382],"type":"Point"},"properties":{"osm_id":"1348263279","tag":{"amenity":"recycling"}},"type":"Feature"},
	{"geometry":{"coordinates":[-6.246328,53.287996],"type":"Point"},"properties":{"osm_id":"2601850490","tag":{"amenity":"waste_basket"}},"type":"Feature"},
	{"geometry":{"coordinates":[-6.295843,53.323965],"type":"Point"},"properties":{"osm_id":"2990830228","tag":{"amenity":"recycling","recycling:cans":"no","recycling:clothes":"yes","recycling:glass":"yes","recycling:paper":"no"}},"type":"Feature"},
	{"geometry":{"coordinates":[-6.275769,53.330122],"type":"Point"},"properties":{"name":"Mullen Scrap","osm_id":"3008616857","tag":{"addr:city":"Dublin","addr:street":"Clanbrassil Street Upper","amenity":"recycling","opening_hours":"Mo-Sa","phone":"+353 1 453 4758","recycling:metal":"yes","recycling_type":"centre"}},"type":"Feature"},
	{"geometry":{"coordinates":[-6.27351,53.312621],"type":"Point"},"properties":{"osm_id":"3067708137","tag":{"amenity":"recycling","recycling:cans":"no","recycling:clothes":"yes","recycling:glass":"no","recycling:paper":"no"}},"type":"Feature"},
	{"geometry":{"coordinates":[-6.265078,53.32514],"type":"Point"},"properties":{"osm_id":"4022239141","tag":{"amenity":"waste_basket"}},"type":"Feature"},
	{"geometry":{"coordinates":[-6.293614,53.326303],"type":"Point"},"properties":{"osm_id":"4022309981","tag":{"amenity":"waste_basket"}},"type":"Feature"},
	{"geometry":{"coordinates":[-6.281066,53.316326],"type":"Point"},"properties":{"osm_id":"4194406229","ref":"WMS 3227","tag":{"amenity":"waste_basket"}},"type":"Feature"},
	{"geometry":{"coordinates":[-6.299021,53.329596],"type":"Point"},"properties":{"osm_id":"4218063066","tag":{"amenity":"waste_basket"}},"type":"Feature"},
	{"geometry":{"coordinates":[-6.297295,53.330372],"type":"Point"},"properties":{"osm_id":"4218064191","tag":{"amenity":"waste_basket"}},"type":"Feature"},
	{"geometry":{"coordinates":[-6.27756,53.326961],"type":"Point"},"properties":{"osm_id":"4230598392","tag":{"amenity":"waste_basket"}},"type":"Feature"},
	{"geometry":{"coordinates":[-6.300115,53.329676],"type":"Point"},"properties":{"osm_id":"4255858495","tag":{"amenity":"waste_basket"}},"type":"Feature"},
	{"geometry":{"coordinates":[-6.30226,53.329055],"type":"Point"},"properties":{"osm_id":"4255859493","tag":{"amenity":"waste_basket"}},"type":"Feature"},
	{"geometry":{"coordinates":[-6.303379,53.328912],"type":"Point"},"properties":{"osm_id":"4255859494","tag":{"amenity":"waste_basket"}},"type":"Feature"},
	{"geometry":{"coordinates":[-6.301112,53.329467],"type":"Point"},"properties":{"osm_id":"4255868496","tag":{"amenity":"waste_basket"}},"type":"Feature"},
	{"geometry":{"coordinates":[-6.300961,53.329546],"type":"Point"},"properties":{"osm_id":"4255873092","tag":{"amenity":"waste_basket"}},"type":"Feature"},
	{"geometry":{"coordinates":[-6.301009,53.329591],"type":"Point"},"properties":{"osm_id":"4255922891","tag":{"amenity":"waste_basket"}},"type":"Feature"},
	{"geometry":{"coordinates":[-6.299886,53.329579],"type":"Point"},"properties":{"osm_id":"4255922991","tag":{"amenity":"waste_basket"}},"type":"Feature"},
	{"geometry":{"coordinates":[-6.296964,53.330503],"type":"Point"},"properties":{"osm_id":"4266245742","tag":{"amenity":"waste_basket"}},"type":"Feature"},
	{"geometry":{"coordinates":[-6.254758,53.320784],"type":"Point"},"properties":{"osm_id":"4368837109","tag":{"amenity":"waste_basket"}},"type":"Feature"},
	{"geometry":{"coordinates":[-6.254587,53.320899],"type":"Point"},"properties":{"osm_id":"4368837110","tag":{"amenity":"waste_basket"}},"type":"Feature"},
	{"geometry":{"coordinates":[-6.320556,53.324944],"type":"Point"},"properties":{"osm_id":"4381627824","tag":{"amenity":"waste_basket"}},"type":"Feature"},
	{"geometry":{"coordinates":[-6.32001,53.324957],"type":"Point"},"properties":{"osm_id":"4381627825","tag":{"amenity":"waste_basket"}},"type":"Feature"},
	{"geometry":{"coordinates":[-6.319379,53.324982],"type":"Point"},"properties":{"osm_id":"4381627826","tag":{"amenity":"waste_basket"}},"type":"Feature"},
	{"geometry":{"coordinates":[-6.326658,53.296467],"type":"Point"},"properties":{"osm_id":"4777537243","tag":{"amenity":"waste_basket"}},"type":"Feature"},
	{"geometry":{"coordinates":[-6.327857,53.295384],"type":"Point"},"properties":{"osm_id":"4777537244","tag":{"amenity":"waste_basket"}},"type":"Feature"},
	{"geometry":{"coordinates":[-6.31926,53.298741],"type":"Point"},"properties":{"osm_id":"4790761338","tag":{"amenity":"waste_basket"}},"type":"Feature"},
	{"geometry":{"coordinates":[-6.319119,53.29857],"type":"Point"},"properties":{"osm_id":"4790761339","tag":{"amenity":"waste_basket"}},"type":"Feature"},
	{"geometry":{"coordinates":[-6.319381,53.299144],"type":"Point"},"properties":{"osm_id":"4794092186","tag":{"amenity":"waste_basket"}},"type":"Feature"},
	{"geometry":{"coordinates":[-6.297901,53.29862],"type":"Point"},"properties":{"osm_id":"4842394858","tag":{"amenity":"waste_basket"}},"type":"Feature"},
	{"geometry":{"coordinates":[-6.30273,53.29848],"type":"Point"},"properties":{"osm_id":"4842395049","tag":{"amenity":"waste_basket"}},"type":"Feature"},
	{"geometry":{"coordinates":[-6.317779,53.315401],"type":"Point"},"properties":{"osm_id":"4913827520","tag":{"amenity":"recycling","recycling:glass":"yes","recycling_type":"container"}},"type":"Feature"},
	{"geometry":{"coordinates":[-6.31781,53.315408],"type":"Point"},"properties":{"osm_id":"4913827521","tag":{"amenity":"recycling","recycling:glass":"yes","recycling_type":"container"}},"type":"Feature"},
	{"geometry":{"coordinates":[-6.317845,53.315405],"type":"Point"},"properties":{"osm_id":"4913827522","tag":{"amenity":"recycling","recycling:glass":"yes","recycling_type":"container"}},"type":"Feature"},
	{"geometry":{"coordinates":[-6.317867,53.315393],"type":"Point"},"properties":{"osm_id":"4913827523","tag":{"amenity":"recycling","recycling:glass":"yes","recycling_type":"container"}},"type":"Feature"},
	{"geometry":{"coordinates":[-6.318029,53.315291],"type":"Point"},"properties":{"osm_id":"4913827524","tag":{"amenity":"recycling","recycling:cans":"yes","recycling_type":"container"}},"type":"Feature"},
	{"geometry":{"coordinates":[-6.318099,53.315248],"type":"Point"},"properties":{"osm_id":"4913827525","tag":{"amenity":"recycling","recycling:cans":"yes","recycling_type":"container"}},"type":"Feature"},
	{"geometry":{"coordinates":[-6.276319,53.328393],"type":"Point"},"properties":{"osm_id":"5114039008","tag":{"amenity":"waste_basket"}},"type":"Feature"},
	{"geometry":{"coordinates":[-6.274383,53.319704],"type":"Point"},"properties":{"osm_id":"5114144842","tag":{"amenity":"waste_basket"}},"type":"Feature"},
	{"geometry":{"coordinates":[-6.274142,53.319865],"type":"Point"},"properties":{"osm_id":"5114144843","tag":{"amenity":"waste_basket"}},"type":"Feature"},
	{"geometry":{"coordinates":[-6.257571,53.328516],"type":"Point"},"properties":{"osm_id":"5116091278","tag":{"amenity":"waste_basket"}},"type":"Feature"},
	{"geometry":{"coordinates":[-6.264973,53.32545],"type":"Point"},"properties":{"osm_id":"5123390148","tag":{"amenity":"waste_basket"}},"type":"Feature"},
	{"geometry":{"coordinates":[-6.265348,53.320788],"type":"Point"},"properties":{"osm_id":"5159793833","tag":{"amenity":"waste_basket"}},"type":"Feature"},
	{"geometry":{"coordinates":[-6.264816,53.317043],"type":"Point"},"properties":{"osm_id":"5159880294","tag":{"amenity":"waste_basket"}},"type":"Feature"},
	{"geometry":{"coordinates":[-6.253227,53.325109],"type":"Point"},"properties":{"osm_id":"5245010412","tag":{"amenity":"waste_basket"}},"type":"Feature"},
	{"geometry":{"coordinates":[-6.253867,53.324719],"type":"Point"},"properties":{"osm_id":"5245029553","tag":{"amenity":"waste_basket"}},"type":"Feature"},
	{"geometry":{"coordinates":[-6.255553,53.325046],"type":"Point"},"properties":{"osm_id":"5245029570","tag":{"amenity":"waste_basket"}},"type":"Feature"},
	{"geometry":{"coordinates":[-6.25529,53.325271],"type":"Point"},"properties":{"osm_id":"5245029571","tag":{"amenity":"waste_basket"}},"type":"Feature"},
	{"geometry":{"coordinates":[-6.259034,53.330823],"type":"Point"},"properties":{"osm_id":"5302670217","tag":{"amenity":"waste_basket"}},"type":"Feature"},
	{"geometry":{"coordinates":[-6.262026,53.330253],"type":"Point"},"properties":{"osm_id":"5302675430","tag":{"amenity":"waste_basket"}},"type":"Feature"},
	{"geometry":{"coordinates":[-6.260989,53.330345],"type":"Point"},"properties":{"osm_id":"5302675431","tag":{"amenity":"waste_basket"}},"type":"Feature"},
	{"geometry":{"coordinates":[-6.25967,53.330698],"type":"Point"},"properties":{"osm_id":"5303844910","tag":{"amenity":"waste_basket"}},"type":"Feature"},
	{"geometry":{"coordinates":[-6.264871,53.327249],"type":"Point"},"properties":{"osm_id":"5308813923","tag":{"amenity":"waste_basket"}},"type":"Feature"},
	{"geometry":{"coordinates":[-6.26524,53.325487],"type":"Point"},"properties":{"osm_id":"5308813935","tag":{"amenity":"waste_basket"}},"type":"Feature"},
	{"geometry":{"coordinates":[-6.273581,53.312644],"type":"Point"},"properties":{"osm_id":"5347473523","tag":{"amenity":"waste_basket"}},"type":"Feature"},
	{"geometry":{"coordinates":[-6.278186,53.318748],"type":"Point"},"properties":{"osm_id":"5356937273","ref":"WMS 3235","tag":{"amenity":"waste_basket"}},"type":"Feature"},
	{"geometry":{"coordinates":[-6.277433,53.319027],"type":"Point"},"properties":{"osm_id":"5356937274","tag":{"amenity":"waste_basket"}},"type":"Feature"},
	{"geometry":{"coordinates":[-6.265714,53.321877],"type":"Point"},"properties":{"osm_id":"5367444923","tag":{"amenity":"waste_basket"}},"type":"Feature"},
	{"geometry":{"coordinates":[-6.264633,53.327626],"type":"Point"},"properties":{"osm_id":"5373753033","tag":{"amenity":"waste_basket"}},"type":"Feature"},
	{"geometry":{"coordinates":[-6.26485,53.326411],"type":"Point"},"properties":{"osm_id":"5373753035","tag":{"amenity":"waste_basket"}},"type":"Feature"},
	{"geometry":{"coordinates":[-6.265381,53.324966],"type":"Point"},"properties":{"osm_id":"5373753059","tag":{"amenity":"waste_basket"}},"type":"Feature"},
	{"geometry":{"coordinates":[-6.265401,53.324789],"type":"Point"},"properties":{"osm_id":"5373753065","tag":{"amenity":"waste_basket"}},"type":"Feature"},
	{"geometry":{"coordinates":[-6.265234,53.324324],"type":"Point"},"properties":{"osm_id":"5373753081","tag":{"amenity":"waste_basket"}},"type":"Feature"},
	{"geometry":{"coordinates":[-6.266739,53.32135],"type":"Point"},"properties":{"osm_id":"5431095490","tag":{"addr:housename":"Tesco Car Park","addr:street":"Rathmines Road Upper","amenity":"recycling","recycling:clothes":"yes"}},"type":"Feature"},
	{"geometry":{"coordinates":[-6.250413,53.329606],"type":"Point"},"properties":{"osm_id":"5434513426","tag":{"amenity":"waste_basket"}},"type":"Feature"},
	{"geometry":{"coordinates":[-6.252185,53.330868],"type":"Point"},"properties":{"osm_id":"5434523744","tag":{"amenity":"waste_basket"}},"type":"Feature"},
	{"geometry":{"coordinates":[-6.247992,53.32781],"type":"Point"},"properties":{"osm_id":"5434530125","tag":{"amenity":"waste_basket"}},"type":"Feature"},
	{"geometry":{"coordinates":[-6.252403,53.325559],"type":"Point"},"properties":{"osm_id":"5440663759","tag":{"amenity":"waste_basket"}},"type":"Feature"},
	{"geometry":{"coordinates":[-6.255218,53.3252],"type":"Point"},"properties":{"osm_id":"5444033425","tag":{"amenity":"waste_basket"}},"type":"Feature"},
	{"geometry":{"coordinates":[-6.24067,53.324701],"type":"Point"},"properties":{"osm_id":"5444050853","ref":"WMS 3117","tag":{"amenity":"waste_basket"}},"type":"Feature"},
	{"geometry":{"coordinates":[-6.240304,53.32442],"type":"Point"},"properties":{"osm_id":"5491829619","ref":"WMS 3166","tag":{"amenity":"waste_basket"}},"type":"Feature"},
	{"geometry":{"coordinates":[-6.241746,53.325447],"type":"Point"},"properties":{"osm_id":"5494136509","ref":"WMS 3118","tag":{"amenity":"waste_basket"}},"type":"Feature"},
	{"geometry":{"coordinates":[-6.242636,53.326387],"type":"Point"},"properties":{"osm_id":"5494137321","tag":{"amenity":"waste_basket"}},"type":"Feature"},
	{"geometry":{"coordinates":[-6.242391,53.325918],"type":"Point"},"properties":{"osm_id":"5495191225","tag":{"amenity":"waste_basket"}},"type":"Feature"},
	{"geometry":{"coordinates":[-6.243653,53.326931],"type":"Point"},"properties":{"osm_id":"5495191227","ref":"WMS 3120","tag":{"amenity":"waste_basket"}},"type":"Feature"},
	{"geometry":{"coordinates":[-6.246381,53.328258],"type":"Point"},"properties":{"osm_id":"5500055970","ref":"WMS 4447","tag":{"amenity":"waste_basket"}},"type":"Feature"},
	{"geometry":{"coordinates":[-6.246219,53.328475],"type":"Point"},"properties":{"osm_id":"5500055974","tag":{"amenity":"waste_basket"}},"type":"Feature"},
	{"geometry":{"coordinates":[-6.245082,53.301777],"type":"Point"},"properties":{"osm_id":"5502182022","tag":{"amenity":"waste_basket"}},"type":"Feature"},
	{"geometry":{"coordinates":[-6.244943,53.302377],"type":"Point"},"properties":{"osm_id":"5502182023","tag":{"amenity":"waste_basket"}},"type":"Feature"},
	{"geometry":{"coordinates":[-6.279005,53.319161],"type":"Point"},"properties":{"osm_id":"5502248508","tag":{"amenity":"waste_basket"}},"type":"Feature"},
	{"geometry":{"coordinates":[-6.272859,53.313932],"type":"Point"},"properties":{"osm_id":"5504164576","tag":{"amenity":"waste_basket"}},"type":"Feature"},
	{"geometry":{"coordinates":[-6.26564,53.322151],"type":"Point"},"properties":{"osm_id":"5504227280","tag":{"amenity":"waste_basket"}},"type":"Feature"},
	{"geometry":{"coordinates":[-6.273748,53.310268],"type":"Point"},"properties":{"osm_id":"5506791732","ref":"WMS 1190","tag":{"amenity":"waste_basket"}},"type":"Feature"},
	{"geometry":{"coordinates":[-6.273574,53.30839],"type":"Point"},"properties":{"osm_id":"5506791772","tag":{"amenity":"waste_basket"}},"type":"Feature"},
	{"geometry":{"coordinates":[-6.283277,53.307243],"type":"Point"},"properties":{"osm_id":"5506970888","tag":{"amenity":"waste_basket"}},"type":"Feature"},
	{"geometry":{"coordinates":[-6.283932,53.307392],"type":"Point"},"properties":{"osm_id":"5507081010","tag":{"amenity":"waste_basket"}},"type":"Feature"},
	{"geometry":{"coordinates":[-6.283794,53.30692],"type":"Point"},"properties":{"osm_id":"5507081011","tag":{"amenity":"waste_basket"}},"type":"Feature"},
	{"geometry":{"coordinates":[-6.283411,53.30492],"type":"Point"},"properties":{"osm_id":"5507081014","tag":{"amenity":"waste_basket"}},"type":"Feature"},
	{"geometry":{"coordinates":[-6.285828,53.297696],"type":"Point"},"properties":{"osm_id":"5515238575","tag":{"amenity":"waste_basket"}},"type":"Feature"},
	{"geometry":{"coordinates":[-6.298274,53.290742],"type":"Point"},"properties":{"osm_id":"5515321815","tag":{"amenity":"waste_basket"}},"type":"Feature"},
	{"geometry":{"coordinates":[-6.299117,53.288493],"type":"Point"},"properties":{"osm_id":"5515323739","tag":{"amenity":"waste_basket"}},"type":"Feature"},
	{"geometry":{"coordinates":[-6.294082,53.285726],"type":"Point"},"properties":{"osm_id":"5515413313","tag":{"amenity":"waste_basket"}},"type":"Feature"},
	{"geometry":{"coordinates":[-6.296203,53.28331],"type":"Point"},"properties":{"osm_id":"5515413319","tag":{"amenity":"waste_basket"}},"type":"Feature"},
	{"geometry":{"coordinates":[-6.296709,53.283017],"type":"Point"},"properties":{"osm_id":"5515435421","tag":{"amenity":"waste_basket"}},"type":"Feature"},
	{"geometry":{"coordinates":[-6.295343,53.284841],"type":"Point"},"properties":{"osm_id":"5515435423","tag":{"amenity":"waste_basket"}},"type":"Feature"},
	{"geometry":{"coordinates":[-6.299211,53.282387],"type":"Point"},"properties":{"osm_id":"5515464045","tag":{"amenity":"waste_basket"}},"type":"Feature"},
	{"geometry":{"coordinates":[-6.279515,53.317844],"type":"Point"},"properties":{"osm_id":"5526305880","tag":{"amenity":"waste_basket"}},"type":"Feature"},
	{"geometry":{"coordinates":[-6.271436,53.315989],"type":"Point"},"properties":{"osm_id":"5541381292","tag":{"amenity":"waste_basket"}},"type":"Feature"},
	{"geometry":{"coordinates":[-6.314955,53.282519],"type":"Point"},"properties":{"osm_id":"5555371022","tag":{"amenity":"waste_basket"}},"type":"Feature"},
	{"geometry":{"coordinates":[-6.281114,53.294568],"type":"Point"},"properties":{"osm_id":"5555383469","tag":{"amenity":"recycling","recycling:glass":"yes","recycling_type":"container"}},"type":"Feature"},
	{"geometry":{"coordinates":[-6.281126,53.294552],"type":"Point"},"properties":{"osm_id":"5555383470","tag":{"amenity":"recycling","recycling:glass":"yes","recycling_type":"container"}},"type":"Feature"},
	{"geometry":{"coordinates":[-6.280821,53.294441],"type":"Point"},"properties":{"osm_id":"5555383471","tag":{"amenity":"waste_basket"}},"type":"Feature"},
	{"geometry":{"coordinates":[-6.281222,53.294409],"type":"Point"},"properties":{"osm_id":"5555383472","tag":{"amenity":"waste_basket"}},"type":"Feature"},
	{"geometry":{"coordinates":[-6.281957,53.294987],"type":"Point"},"properties":{"osm_id":"5555383475","tag":{"amenity":"waste_basket"}},"type":"Feature"},
	{"geometry":{"coordinates":[-6.300249,53.294823],"type":"Point"},"properties":{"osm_id":"5560577949","tag":{"amenity":"waste_basket"}},"type":"Feature"},
	{"geometry":{"coordinates":[-6.269855,53.291899],"type":"Point"},"properties":{"osm_id":"5560609433","tag":{"amenity":"waste_basket"}},"type":"Feature"},
	{"geometry":{"coordinates":[-6.31112,53.288946],"type":"Point"},"properties":{"osm_id":"5561893474","tag":{"amenity":"waste_basket"}},"type":"Feature"},
	{"geometry":{"coordinates":[-6.310973,53.289911],"type":"Point"},"properties":{"osm_id":"5561893487","tag":{"amenity":"waste_basket"}},"type":"Feature"},
	{"geometry":{"coordinates":[-6.3134,53.283491],"type":"Point"},"properties":{"osm_id":"5561949265","tag":{"amenity":"waste_basket"}},"type":"Feature"},
	{"geometry":{"coordinates":[-6.262752,53.311814],"type":"Point"},"properties":{"osm_id":"5562058645","tag":{"amenity":"waste_basket"}},"type":"Feature"},
	{"geometry":{"coordinates":[-6.2455,53.288888],"type":"Point"},"properties":{"osm_id":"5567365594","tag":{"amenity":"waste_basket"}},"type":"Feature"},
	{"geometry":{"coordinates":[-6.244102,53.28974],"type":"Point"},"properties":{"osm_id":"5567365614","tag":{"amenity":"waste_basket"}},"type":"Feature"},
	{"geometry":{"coordinates":[-6.262088,53.313315],"type":"Point"},"properties":{"osm_id":"5581532435","tag":{"amenity":"waste_basket"}},"type":"Feature"},
	{"geometry":{"coordinates":[-6.261951,53.313318],"type":"Point"},"properties":{"osm_id":"5581532436","tag":{"amenity":"waste_basket"}},"type":"Feature"},
	{"geometry":{"coordinates":[-6.24863,53.32262],"type":"Point"},"properties":{"osm_id":"5581542353","tag":{"amenity":"waste_basket"}},"type":"Feature"},
	{"geometry":{"coordinates":[-6.245402,53.32862],"type":"Point"},"properties":{"osm_id":"5590814535","tag":{"amenity":"waste_basket"}},"type":"Feature"},
	{"geometry":{"coordinates":[-6.245083,53.328847],"type":"Point"},"properties":{"osm_id":"5590814537","tag":{"amenity":"waste_basket"}},"type":"Feature"},
	{"geometry":{"coordinates":[-6.307211,53.328072],"type":"Point"},"properties":{"osm_id":"5599425987","tag":{"amenity":"waste_basket"}},"type":"Feature"},
	{"geometry":{"coordinates":[-6.315102,53.31931],"type":"Point"},"properties":{"osm_id":"5603052004","ref":"WMS 3364","tag":{"amenity":"waste_basket"}},"type":"Feature"},
	{"geometry":{"coordinates":[-6.315216,53.319253],"type":"Point"},"properties":{"osm_id":"5603052005","tag":{"amenity":"waste_basket"}},"type":"Feature"},
	{"geometry":{"coordinates":[-6.315234,53.319568],"type":"Point"},"properties":{"osm_id":"5603052006","ref":"WMS 3363","tag":{"amenity":"waste_basket"}},"type":"Feature"},
	{"geometry":{"coordinates":[-6.315499,53.319601],"type":"Point"},"properties":{"osm_id":"5603052007","tag":{"amenity":"waste_basket"}},"type":"Feature"},
	{"geometry":{"coordinates":[-6.291343,53.318729],"type":"Point"},"properties":{"osm_id":"5603225350","tag":{"amenity":"waste_basket"}},"type":"Feature"},
	{"geometry":{"coordinates":[-6.295395,53.315194],"type":"Point"},"properties":{"osm_id":"5603225351","tag":{"amenity":"waste_basket"}},"type":"Feature"},
	{"geometry":{"coordinates":[-6.325541,53.316992],"type":"Point"},"properties":{"osm_id":"5605194230","tag":{"amenity":"waste_basket"}},"type":"Feature"},
	{"geometry":{"coordinates":[-6.311252,53.303441],"type":"Point"},"properties":{"osm_id":"5605285903","tag":{"amenity":"waste_basket"}},"type":"Feature"},
	{"geometry":{"coordinates":[-6.30249,53.312674],"type":"Point"},"properties":{"osm_id":"5605907506","tag":{"amenity":"waste_basket"}},"type":"Feature"},
	{"geometry":{"coordinates":[-6.309006,53.313678],"type":"Point"},"properties":{"osm_id":"5605907508","tag":{"amenity":"waste_basket"}},"type":"Feature"},
	{"geometry":{"coordinates":[-6.279736,53.324246],"type":"Point"},"properties":{"osm_id":"5606208642","tag":{"amenity":"waste_basket"}},"type":"Feature"},
	{"geometry":{"coordinates":[-6.299239,53.312463],"type":"Point"},"properties":{"osm_id":"5606216473","tag":{"amenity":"waste_basket"}},"type":"Feature"},
	{"geometry":{"coordinates":[-6.297741,53.313515],"type":"Point"},"properties":{"osm_id":"5606216474","tag":{"amenity":"waste_basket"}},"type":"Feature"},
	{"geometry":{"coordinates":[-6.301201,53.306906],"type":"Point"},"properties":{"osm_id":"5606459099","tag":{"amenity":"waste_basket"}},"type":"Feature"},
	{"geometry":{"coordinates":[-6.300762,53.306538],"type":"Point"},"properties":{"osm_id":"5606459102","tag":{"amenity":"waste_basket"}},"type":"Feature"},
	{"geometry":{"coordinates":[-6.323504,53.28912],"type":"Point"},"properties":{"osm_id":"5610491457","tag":{"amenity":"waste_basket"}},"type":"Feature"},
	{"geometry":{"coordinates":[-6.318588,53.289203],"type":"Point"},"properties":{"osm_id":"5610491459","tag":{"amenity":"waste_basket"}},"type":"Feature"},
	{"geometry":{"coordinates":[-6.309548,53.293295],"type":"Point"},"properties":{"osm_id":"5610494139","tag":{"amenity":"waste_basket"}},"type":"Feature"},
	{"geometry":{"coordinates":[-6.313585,53.295656],"type":"Point"},"properties":{"osm_id":"5611693625","tag":{"amenity":"waste_basket"}},"type":"Feature"},
	{"geometry":{"coordinates":[-6.249818,53.29395],"type":"Point"},"properties":{"osm_id":"5618835678","tag":{"amenity":"waste_basket"}},"type":"Feature"},
	{"geometry":{"coordinates":[-6.24635,53.31446],"type":"Point"},"properties":{"osm_id":"5618853222","tag":{"amenity":"waste_basket"}},"type":"Feature"},
	{"geometry":{"coordinates":[-6.245764,53.293548],"type":"Point"},"properties":{"osm_id":"5623548004","tag":{"amenity":"waste_basket"}},"type":"Feature"},
	{"geometry":{"coordinates":[-6.24365,53.289569],"type":"Point"},"properties":{"osm_id":"5623567439","tag":{"amenity":"waste_basket"}},"type":"Feature"},
	{"geometry":{"coordinates":[-6.287199,53.294825],"type":"Point"},"properties":{"osm_id":"5630668792","tag":{"amenity":"waste_basket"}},"type":"Feature"},
	{"geometry":{"coordinates":[-6.285209,53.296278],"type":"Point"},"properties":{"osm_id":"5630668795","tag":{"amenity":"waste_basket"}},"type":"Feature"},
	{"geometry":{"coordinates":[-6.270019,53.279274],"type":"Point"},"properties":{"osm_id":"5630852802","tag":{"amenity":"waste_basket","material":"metal"}},"type":"Feature"},
	{"geometry":{"coordinates":[-6.253661,53.324794],"type":"Point"},"properties":{"osm_id":"5659006422","ref":"WMS 3141","tag":{"amenity":"waste_basket"}},"type":"Feature"},
	{"geometry":{"coordinates":[-6.2534,53.324677],"type":"Point"},"properties":{"osm_id":"5659006424","ref":"WMS 3142","tag":{"amenity":"waste_basket"}},"type":"Feature"},
	{"geometry":{"coordinates":[-6.252891,53.324464],"type":"Point"},"properties":{"osm_id":"5659006426","tag":{"amenity":"waste_basket"}},"type":"Feature"},
	{"geometry":{"coordinates":[-6.246276,53.321252],"type":"Point"},"properties":{"osm_id":"5659027544","tag":{"amenity":"waste_basket"}},"type":"Feature"},
	{"geometry":{"coordinates":[-6.244199,53.319989],"type":"Point"},"properties":{"osm_id":"5659027545","tag":{"amenity":"waste_basket"}},"type":"Feature"},
	{"geometry":{"coordinates":[-6.247836,53.311243],"type":"Point"},"properties":{"osm_id":"5659515201","tag":{"amenity":"waste_basket"}},"type":"Feature"},
	{"geometry":{"coordinates":[-6.246877,53.311876],"type":"Point"},"properties":{"osm_id":"5659515203","tag":{"amenity":"recycling","recycling:clothes":"yes","recycling:glass":"yes","recycling_type":"container"}},"type":"Feature"},
	{"geometry":{"coordinates":[-6.289803,53.278657],"type":"Point"},"properties":{"osm_id":"5693414200","tag":{"amenity":"recycling","recycling:clothes":"yes","recycling_type":"container"}},"type":"Feature"},
	{"geometry":{"coordinates":[-6.290531,53.279086],"type":"Point"},"properties":{"osm_id":"5693414201","tag":{"amenity":"recycling","recycling:glass":"yes"}},"type":"Feature"},
	{"geometry":{"coordinates":[-6.248898,53.329691],"type":"Point"},"properties":{"osm_id":"5859732691","tag":{"amenity":"waste_basket"}},"type":"Feature"},
	{"geometry":{"coordinates":[-6.249512,53.330011],"type":"Point"},"properties":{"osm_id":"5859744467","ref":"WMS 3092","tag":{"amenity":"waste_basket"}},"type":"Feature"},
	{"geometry":{"coordinates":[-6.282401,53.312372],"type":"Point"},"properties":{"osm_id":"6020587329","tag":{"amenity":"waste_basket"}},"type":"Feature"},
	{"geometry":{"coordinates":[-6.283912,53.308329],"type":"Point"},"properties":{"osm_id":"6020587330","ref":"WMS 3215","tag":{"amenity":"waste_basket"}},"type":"Feature"},
	{"geometry":{"coordinates":[-6.307178,53.29676],"type":"Point"},"properties":{"osm_id":"6020713829","tag":{"amenity":"waste_basket"}},"type":"Feature"},
	{"geometry":{"coordinates":[-6.308291,53.296305],"type":"Point"},"properties":{"osm_id":"6020713830","tag":{"amenity":"waste_basket"}},"type":"Feature"},
	{"geometry":{"coordinates":[-6.309956,53.293278],"type":"Point"},"properties":{"osm_id":"6020758536","tag":{"amenity":"waste_basket"}},"type":"Feature"},
	{"geometry":{"coordinates":[-6.324407,53.288514],"type":"Point"},"properties":{"osm_id":"6024709846","tag":{"amenity":"waste_basket"}},"type":"Feature"},
	{"geometry":{"coordinates":[-6.318052,53.289492],"type":"Point"},"properties":{"osm_id":"6024814341","tag":{"amenity":"waste_basket"}},"type":"Feature"},
	{"geometry":{"coordinates":[-6.283085,53.311105],"type":"Point"},"properties":{"osm_id":"6055624749","tag":{"amenity":"waste_basket"}},"type":"Feature"},
	{"geometry":{"coordinates":[-6.281655,53.310388],"type":"Point"},"properties":{"osm_id":"6055624750","ref":"WMS 3214","tag":{"amenity":"waste_basket"}},"type":"Feature"},
	{"geometry":{"coordinates":[-6.285389,53.309043],"type":"Point"},"properties":{"osm_id":"6055670920","tag":{"amenity":"waste_basket"}},"type":"Feature"},
	{"geometry":{"coordinates":[-6.311044,53.287194],"type":"Point"},"properties":{"osm_id":"6055937358","tag":{"amenity":"waste_basket"}},"type":"Feature"},
	{"geometry":{"coordinates":[-6.315084,53.282287],"type":"Point"},"properties":{"osm_id":"6058643433","tag":{"amenity":"waste_basket"}},"type":"Feature"},
	{"geometry":{"coordinates":[-6.311,53.286789],"type":"Point"},"properties":{"osm_id":"6058695811","tag":{"amenity":"waste_basket"}},"type":"Feature"},
	{"geometry":{"coordinates":[-6.278825,53.320648],"type":"Point"},"properties":{"osm_id":"6066452375","tag":{"amenity":"waste_basket"}},"type":"Feature"},
	{"geometry":{"coordinates":[-6.279339,53.322708],"type":"Point"},"properties":{"osm_id":"6066452376","tag":{"amenity":"waste_basket"}},"type":"Feature"},
	{"geometry":{"coordinates":[-6.279125,53.322771],"type":"Point"},"properties":{"osm_id":"6066452377","tag":{"amenity":"waste_basket"}},"type":"Feature"},
	{"geometry":{"coordinates":[-6.277596,53.327213],"type":"Point"},"properties":{"osm_id":"6066452378","tag":{"amenity":"waste_basket"}},"type":"Feature"},
	{"geometry":{"coordinates":[-6.276276,53.328748],"type":"Point"},"properties":{"osm_id":"6066452379","tag":{"amenity":"waste_basket"}},"type":"Feature"},
	{"geometry":{"coordinates":[-6.264554,53.328949],"type":"Point"},"properties":{"osm_id":"6139612952","ref":"WMS 0962","tag":{"amenity":"waste_basket"}},"type":"Feature"},
	{"geometry":{"coordinates":[-6.321768,53.326087],"type":"Point"},"properties":{"osm_id":"6179488754","ref":"WMS 3384","tag":{"amenity":"waste_basket"}},"type":"Feature"},
	{"geometry":{"coordinates":[-6.321078,53.325052],"type":"Point"},"properties":{"osm_id":"6179488756","ref":"WMS 3383","tag":{"amenity":"waste_basket"}},"type":"Feature"},
	{"geometry":{"coordinates":[-6.315283,53.319775],"type":"Point"},"properties":{"osm_id":"6179754247","tag":{"amenity":"recycling","operator":"Textile Recycling Limited","recycling:clothes":"yes","recycling_type":"container","website":"http://trl.ie/"}},"type":"Feature"},
	{"geometry":{"coordinates":[-6.291418,53.320059],"type":"Point"},"properties":{"osm_id":"6180794900","tag":{"amenity":"waste_basket"}},"type":"Feature"},
	{"geometry":{"coordinates":[-6.264211,53.330293],"type":"Point"},"properties":{"osm_id":"6185162575","tag":{"amenity":"waste_basket"}},"type":"Feature"},
	{"geometry":{"coordinates":[-6.278412,53.325884],"type":"Point"},"properties":{"osm_id":"6238315443","tag":{"amenity":"waste_basket"}},"type":"Feature"},
	{"geometry":{"coordinates":[-6.264287,53.329487],"type":"Point"},"properties":{"osm_id":"6240679035","ref":"WMS 0943","tag":{"amenity":"waste_basket"}},"type":"Feature"},
	{"geometry":{"coordinates":[-6.282875,53.28882],"type":"Point"},"properties":{"osm_id":"6266562075","tag":{"amenity":"waste_basket"}},"type":"Feature"},
	{"geometry":{"coordinates":[-6.282376,53.292198],"type":"Point"},"properties":{"osm_id":"6266562076","tag":{"amenity":"waste_basket"}},"type":"Feature"},
	{"geometry":{"coordinates":[-6.282176,53.292479],"type":"Point"},"properties":{"osm_id":"6266563796","tag":{"amenity":"waste_basket"}},"type":"Feature"},
	{"geometry":{"coordinates":[-6.284435,53.317606],"type":"Point"},"properties":{"osm_id":"6301944403","tag":{"amenity":"waste_basket"}},"type":"Feature"},
	{"geometry":{"coordinates":[-6.317075,53.320368],"type":"Point"},"properties":{"osm_id":"6302603656","tag":{"amenity":"waste_basket"}},"type":"Feature"},
	{"geometry":{"coordinates":[-6.280509,53.286047],"type":"Point"},"properties":{"osm_id":"6325721483","tag":{"amenity":"waste_basket"}},"type":"Feature"},
	{"geometry":{"coordinates":[-6.27862,53.318316],"type":"Point"},"properties":{"osm_id":"6360144411","tag":{"amenity":"waste_basket","waste":"dog_excrement"}},"type":"Feature"},
	{"geometry":{"coordinates":[-6.284084,53.308447],"type":"Point"},"properties":{"osm_id":"6368910233","tag":{"amenity":"waste_basket"}},"type":"Feature"},
	{"geometry":{"coordinates":[-6.284089,53.308083],"type":"Point"},"properties":{"osm_id":"6368910255","tag":{"amenity":"waste_basket"}},"type":"Feature"},
	{"geometry":{"coordinates":[-6.284024,53.308849],"type":"Point"},"properties":{"osm_id":"6368910260","tag":{"amenity":"waste_basket"}},"type":"Feature"},
	{"geometry":{"coordinates":[-6.282869,53.31111],"type":"Point"},"properties":{"osm_id":"6372064965","tag":{"amenity":"waste_basket"}},"type":"Feature"},
	{"geometry":{"coordinates":[-6.249205,53.329617],"type":"Point"},"properties":{"osm_id":"6372471611","ref":"WMS 4446","tag":{"amenity":"waste_basket"}},"type":"Feature"},
	{"geometry":{"coordinates":[-6.270567,53.30774],"type":"Point"},"properties":{"osm_id":"6401461061","tag":{"amenity":"waste_basket"}},"type":"Feature"},
	{"geometry":{"coordinates":[-6.270525,53.307995],"type":"Point"},"properties":{"osm_id":"6401461062","ref":"WMS 3496","tag":{"amenity":"waste_basket"}},"type":"Feature"},
	{"geometry":{"coordinates":[-6.270335,53.308845],"type":"Point"},"properties":{"osm_id":"6401461133","tag":{"amenity":"waste_basket"}},"type":"Feature"},
	{"geometry":{"coordinates":[-6.273778,53.310934],"type":"Point"},"properties":{"osm_id":"6405533823","tag":{"amenity":"waste_basket"}},"type":"Feature"},
	{"geometry":{"coordinates":[-6.265668,53.315579],"type":"Point"},"properties":{"osm_id":"6412395562","tag":{"amenity":"waste_basket"}},"type":"Feature"},
	{"geometry":{"coordinates":[-6.262316,53.311068],"type":"Point"},"properties":{"osm_id":"6412557546","tag":{"amenity":"waste_basket"}},"type":"Feature"},
	{"geometry":{"coordinates":[-6.247517,53.310289],"type":"Point"},"properties":{"osm_id":"6413096131","tag":{"amenity":"waste_basket"}},"type":"Feature"},
	{"geometry":{"coordinates":[-6.281619,53.310308],"type":"Point"},"properties":{"osm_id":"6426719687","tag":{"amenity":"waste_basket"}},"type":"Feature"},
	{"geometry":{"coordinates":[-6.321598,53.318433],"type":"Point"},"properties":{"osm_id":"6534482507","tag":{"amenity":"recycling","recycling:clothes":"yes","recycling:glass":"yes","recycling_type":"container"}},"type":"Feature"},
	{"geometry":{"coordinates":[-6.266781,53.321636],"type":"Point"},"properties":{"osm_id":"6704229272","tag":{"amenity":"waste_basket","colour":"black","material":"steel","operator":"Dublin City Council"}},"type":"Feature"},
	{"geometry":{"coordinates":[-6.246901,53.29234],"type":"Point"},"properties":{"osm_id":"7212965823","tag":{"amenity":"waste_basket","material":"metal"}},"type":"Feature"},
	{"geometry":{"coordinates":[-6.284298,53.296635],"type":"Point"},"properties":{"osm_id":"7227857734","tag":{"amenity":"waste_basket","material":"metal"}},"type":"Feature"},
	{"geometry":{"coordinates":[-6.282672,53.297281],"type":"Point"},"properties":{"osm_id":"7227857740","tag":{"amenity":"waste_basket","material":"metal"}},"type":"Feature"},
	{"geometry":{"coordinates":[-6.245228,53.279247],"type":"Point"},"properties":{"osm_id":"7393340269","tag":{"amenity":"waste_basket","material":"metal"}},"type":"Feature"},
	{"geometry":{"coordinates":[-6.267231,53.306001],"type":"Point"},"properties":{"osm_id":"7501820563","tag":{"amenity":"waste_basket"}},"type":"Feature"},
	{"geometry":{"coordinates":[-6.267236,53.306175],"type":"Point"},"properties":{"osm_id":"7501820564","tag":{"amenity":"waste_basket"}},"type":"Feature"},
	{"geometry":{"coordinates":[-6.29192,53.320365],"type":"Point"},"properties":{"osm_id":"7501820582","tag":{"amenity":"waste_basket"}},"type":"Feature"},
	{"geometry":{"coordinates":[-6.293056,53.321022],"type":"Point"},"properties":{"osm_id":"7501820583","tag":{"amenity":"waste_basket"}},"type":"Feature"},
	{"geometry":{"coordinates":[-6.29715,53.326489],"type":"Point"},"properties":{"osm_id":"7501823786","tag":{"amenity":"waste_basket"}},"type":"Feature"},
	{"geometry":{"coordinates":[-6.24457,53.290245],"type":"Point"},"properties":{"osm_id":"7522682246","tag":{"amenity":"waste_basket"}},"type":"Feature"},
	{"geometry":{"coordinates":[-6.245612,53.29196],"type":"Point"},"properties":{"osm_id":"7522682295","tag":{"amenity":"waste_basket"}},"type":"Feature"},
	{"geometry":{"coordinates":[-6.315757,53.304882],"type":"Point"},"properties":{"osm_id":"7581132791","tag":{"amenity":"waste_basket"}},"type":"Feature"},
	{"geometry":{"coordinates":[-6.312776,53.303917],"type":"Point"},"properties":{"osm_id":"7581132801","tag":{"amenity":"waste_basket"}},"type":"Feature"},
	{"geometry":{"coordinates":[-6.311181,53.303263],"type":"Point"},"properties":{"osm_id":"7581132802","tag":{"amenity":"waste_basket"}},"type":"Feature"},
	{"geometry":{"coordinates":[-6.268616,53.278557],"type":"Point"},"properties":{"osm_id":"7650633184","tag":{"amenity":"waste_basket","material":"metal"}},"type":"Feature"},
	{"geometry":{"coordinates":[-6.270328,53.279134],"type":"Point"},"properties":{"osm_id":"7650652088","tag":{"amenity":"waste_basket","material":"metal"}},"type":"Feature"}
]
}
