{
"type": "FeatureCollection",
"features": [
	{"geometry":{"coordinates":[-6.243438,53.269076],"type":"Point"},"properties":{"osm_id":"760250461","tag":{"amenity":"recycling"}},"type":"Feature"},
	{"geometry":{"coordinates":[-6.289002,53.277964],"type":"Point"},"properties":{"osm_id":"1320086493","tag":{"amenity":"recycling","recycling:glass":"yes","recycling_type":"container"}},"type":"Feature"},
	{"geometry":{"coordinates":[-6.273255,53.268714],"type":"Point"},"properties":{"osm_id":"1425374428","tag":{"amenity":"recycling","recycling_type":"container"}},"type":"Feature"},
	{"geometry":{"coordinates":[-6.302297,53.276393],"type":"Point"},"properties":{"osm_id":"5515562923","tag":{"amenity":"waste_basket"}},"type":"Feature"},
	{"geometry":{"coordinates":[-6.316282,53.273423],"type":"Point"},"properties":{"osm_id":"5515711038","tag":{"amenity":"waste_basket"}},"type":"Feature"},
	{"geometry":{"coordinates":[-6.322098,53.27191],"type":"Point"},"properties":{"highway":"bus_stop","name":"Stocking Avenue","osm_id":"5515711060","ref":"6286","tag":{"amenity":"waste_basket","bench":"no","bus":"yes","departures_board":"no","lit":"yes","network":"Dublin Bus","operator":"Dublin Bus","passenger_information_display":"no","public_transport":"platform","route_ref":"15b","shelter":"no","tactile_paving":"no","website":"http://www.dublinbus.ie/","wheelchair":"limited"}},"type":"Feature"},
	{"geometry":{"coordinates":[-6.325979,53.271091],"type":"Point"},"properties":{"osm_id":"5515730551","tag":{"amenity":"waste_basket"}},"type":"Feature"},
	{"geometry":{"coordinates":[-6.327618,53.271542],"type":"Point"},"properties":{"osm_id":"5516014736","tag":{"amenity":"waste_basket"}},"type":"Feature"},
	{"geometry":{"coordinates":[-6.268354,53.273965],"type":"Point"},"properties":{"osm_id":"5910080642","tag":{"amenity":"waste_basket"}},"type":"Feature"},
	{"geometry":{"coordinates":[-6.275561,53.271249],"type":"Point"},"properties":{"osm_id":"5910080651","tag":{"amenity":"waste_basket"}},"type":"Feature"},
	{"geometry":{"coordinates":[-6.276056,53.271175],"type":"Point"},"properties":{"osm_id":"5910080653","tag":{"amenity":"waste_basket"}},"type":"Feature"},
	{"geometry":{"coordinates":[-6.272798,53.274319],"type":"Point"},"properties":{"osm_id":"6036758756","tag":{"amenity":"waste_basket"}},"type":"Feature"},
	{"geometry":{"coordinates":[-6.275037,53.270985],"type":"Point"},"properties":{"osm_id":"6036759659","tag":{"amenity":"waste_basket"}},"type":"Feature"},
	{"geometry":{"coordinates":[-6.275139,53.271394],"type":"Point"},"properties":{"osm_id":"6036759924","tag":{"amenity":"waste_basket"}},"type":"Feature"},
	{"geometry":{"coordinates":[-6.2489,53.271643],"type":"Point"},"properties":{"osm_id":"6173487890","tag":{"amenity":"waste_basket"}},"type":"Feature"},
	{"geometry":{"coordinates":[-6.260299,53.273571],"type":"Point"},"properties":{"osm_id":"6173602063","tag":{"amenity":"waste_basket"}},"type":"Feature"},
	{"geometry":{"coordinates":[-6.264431,53.27602],"type":"Point"},"properties":{"osm_id":"7792736219","tag":{"amenity":"recycling","recycling:clothes":"yes","recycling:shoes":"yes","recycling_type":"container"}},"type":"Feature"}
]
}
