{
"type": "FeatureCollection",
"features": [
	{"geometry":{"coordinates":[39.659831,56.499529],"type":"Point"},"properties":{"osm_id":"1141219103","tag":{"amenity":"waste_disposal"}},"type":"Feature"},
	{"geometry":{"coordinates":[39.662473,56.501553],"type":"Point"},"properties":{"osm_id":"1141246330","tag":{"amenity":"waste_disposal"}},"type":"Feature"},
	{"geometry":{"coordinates":[39.679355,56.501967],"type":"Point"},"properties":{"osm_id":"1414304564","tag":{"amenity":"recycling","recycling_type":"container"}},"type":"Feature"},
	{"geometry":{"coordinates":[39.670805,56.491652],"type":"Point"},"properties":{"osm_id":"1736930470","tag":{"amenity":"waste_basket","description":"\u00d0\u009f\u00d0\u00be\u00d0\u00bc\u00d0\u00be\u00d0\u00b9\u00d0\u00ba\u00d0\u00b0"}},"type":"Feature"},
	{"geometry":{"coordinates":[39.66843,56.484064],"type":"Point"},"properties":{"osm_id":"2918576321","tag":{"amenity":"waste_disposal"}},"type":"Feature"},
	{"geometry":{"coordinates":[39.661468,56.484188],"type":"Point"},"properties":{"osm_id":"2918576334","tag":{"amenity":"waste_disposal"}},"type":"Feature"},
	{"geometry":{"coordinates":[39.668687,56.484434],"type":"Point"},"properties":{"osm_id":"2918576340","tag":{"amenity":"waste_basket"}},"type":"Feature"},
	{"geometry":{"coordinates":[39.670302,56.48835],"type":"Point"},"properties":{"osm_id":"2918576536","tag":{"amenity":"waste_basket"}},"type":"Feature"},
	{"geometry":{"coordinates":[39.670254,56.48885],"type":"Point"},"properties":{"osm_id":"2918576560","tag":{"amenity":"waste_disposal"}},"type":"Feature"},
	{"geometry":{"coordinates":[39.67719,56.496332],"type":"Point"},"properties":{"osm_id":"2918576978","tag":{"amenity":"waste_disposal"}},"type":"Feature"},
	{"geometry":{"coordinates":[39.68743,56.498529],"type":"Point"},"properties":{"osm_id":"2918577429","tag":{"amenity":"waste_disposal"}},"type":"Feature"},
	{"geometry":{"coordinates":[39.685406,56.501174],"type":"Point"},"properties":{"osm_id":"2918577496","tag":{"amenity":"waste_basket"}},"type":"Feature"},
	{"geometry":{"coordinates":[39.681554,56.502586],"type":"Point"},"properties":{"osm_id":"2918577624","tag":{"amenity":"waste_basket"}},"type":"Feature"},
	{"geometry":{"coordinates":[39.68405,56.506158],"type":"Point"},"properties":{"osm_id":"4428734864","tag":{"amenity":"waste_disposal"}},"type":"Feature"},
	{"geometry":{"coordinates":[39.690761,56.505446],"type":"Point"},"properties":{"osm_id":"4428734865","tag":{"amenity":"waste_disposal"}},"type":"Feature"},
	{"geometry":{"coordinates":[39.69023,56.503494],"type":"Point"},"properties":{"osm_id":"4428734866","tag":{"amenity":"waste_disposal"}},"type":"Feature"},
	{"geometry":{"coordinates":[39.691219,56.50866],"type":"Point"},"properties":{"osm_id":"4428734867","tag":{"amenity":"waste_disposal"}},"type":"Feature"},
	{"geometry":{"coordinates":[39.69212,56.510624],"type":"Point"},"properties":{"osm_id":"4428734868","tag":{"amenity":"waste_disposal"}},"type":"Feature"},
	{"geometry":{"coordinates":[39.685876,56.509526],"type":"Point"},"properties":{"osm_id":"4428734872","tag":{"amenity":"waste_disposal"}},"type":"Feature"},
	{"geometry":{"coordinates":[39.685017,56.502524],"type":"Point"},"properties":{"osm_id":"4428734873","tag":{"amenity":"waste_disposal"}},"type":"Feature"},
	{"geometry":{"coordinates":[39.688155,56.499874],"type":"Point"},"properties":{"osm_id":"4428734874","tag":{"amenity":"waste_disposal"}},"type":"Feature"},
	{"geometry":{"coordinates":[39.676235,56.50504],"type":"Point"},"properties":{"osm_id":"4428734876","tag":{"amenity":"waste_disposal"}},"type":"Feature"},
	{"geometry":{"coordinates":[39.673413,56.505424],"type":"Point"},"properties":{"osm_id":"4428734877","tag":{"amenity":"waste_disposal"}},"type":"Feature"},
	{"geometry":{"coordinates":[39.676575,56.510819],"type":"Point"},"properties":{"osm_id":"4437289176","tag":{"amenity":"waste_disposal"}},"type":"Feature"},
	{"geometry":{"coordinates":[39.662921,56.482665],"type":"Point"},"properties":{"osm_id":"4443481944","tag":{"amenity":"waste_disposal"}},"type":"Feature"},
	{"geometry":{"coordinates":[39.671808,56.497354],"type":"Point"},"properties":{"osm_id":"4444435324","tag":{"amenity":"waste_disposal"}},"type":"Feature"},
	{"geometry":{"coordinates":[39.677284,56.498366],"type":"Point"},"properties":{"osm_id":"4444435325","tag":{"amenity":"waste_disposal"}},"type":"Feature"},
	{"geometry":{"coordinates":[39.681677,56.505523],"type":"Point"},"properties":{"osm_id":"4448818401","tag":{"amenity":"waste_disposal"}},"type":"Feature"},
	{"geometry":{"coordinates":[39.669449,56.504761],"type":"Point"},"properties":{"osm_id":"4448818402","tag":{"amenity":"waste_disposal"}},"type":"Feature"},
	{"geometry":{"coordinates":[39.68458,56.49548],"type":"Point"},"properties":{"osm_id":"4448865159","tag":{"amenity":"waste_disposal"}},"type":"Feature"},
	{"geometry":{"coordinates":[39.680715,56.501903],"type":"Point"},"properties":{"osm_id":"4458145532","tag":{"amenity":"waste_disposal"}},"type":"Feature"},
	{"geometry":{"coordinates":[39.679019,56.5005],"type":"Point"},"properties":{"osm_id":"4458145533","tag":{"amenity":"waste_disposal"}},"type":"Feature"},
	{"geometry":{"coordinates":[39.693316,56.509221],"type":"Point"},"properties":{"name":"\u00d0\u00a6\u00d0\u00b2\u00d0\u00b5\u00d1\u0082\u00d0\u00bc\u00d0\u00b5\u00d1\u0082","osm_id":"4788844101","tag":{"addr:city":"\u00d0\u00ae\u00d1\u0080\u00d1\u008c\u00d0\u00b5\u00d0\u00b2-\u00d0\u009f\u00d0\u00be\u00d0\u00bb\u00d1\u008c\u00d1\u0081\u00d0\u00ba\u00d0\u00b8\u00d0\u00b9","addr:postcode":"601800","addr:street":"\u00d0\u009f\u00d1\u0080\u00d0\u00be\u00d0\u00b8\u00d0\u00b7\u00d0\u00b2\u00d0\u00be\u00d0\u00b4\u00d1\u0081\u00d1\u0082\u00d0\u00b2\u00d0\u00b5\u00d0\u00bd\u00d0\u00bd\u00d0\u00b0\u00d1\u008f \u00d1\u0083\u00d0\u00bb\u00d0\u00b8\u00d1\u0086\u00d0\u00b0","amenity":"recycling","recycling_type":"centre"}},"type":"Feature"},
	{"geometry":{"coordinates":[39.679589,56.494772],"type":"Point"},"properties":{"osm_id":"4838897313","tag":{"amenity":"waste_disposal"}},"type":"Feature"}
]
}
