{
"type": "FeatureCollection",
"features": [
	{"geometry":{"coordinates":[39.726065,47.234708],"type":"Point"},"properties":{"osm_id":"700204982","tag":{"amenity":"waste_disposal"}},"type":"Feature"},
	{"geometry":{"coordinates":[39.696424,47.277531],"type":"Point"},"properties":{"osm_id":"953112643","tag":{"amenity":"waste_disposal"}},"type":"Feature"},
	{"geometry":{"coordinates":[39.642384,47.256563],"type":"Point"},"properties":{"osm_id":"979726121","tag":{"amenity":"recycling","opening_hours":"24/7","recycling:plastic":"no","recycling:plastic_bottles":"yes","recycling_type":"container"}},"type":"Feature"},
	{"geometry":{"coordinates":[39.7077,47.241161],"type":"Point"},"properties":{"osm_id":"1065420198","tag":{"amenity":"recycling"}},"type":"Feature"},
	{"geometry":{"coordinates":[39.709781,47.237089],"type":"Point"},"properties":{"osm_id":"1065421447","tag":{"amenity":"waste_disposal"}},"type":"Feature"},
	{"geometry":{"coordinates":[39.713326,47.23299],"type":"Point"},"properties":{"osm_id":"1123347596","tag":{"amenity":"recycling"}},"type":"Feature"},
	{"geometry":{"coordinates":[39.715979,47.234684],"type":"Point"},"properties":{"osm_id":"1458084145","tag":{"amenity":"waste_disposal"}},"type":"Feature"},
	{"geometry":{"coordinates":[39.723642,47.234458],"type":"Point"},"properties":{"osm_id":"1650267413","tag":{"amenity":"waste_disposal"}},"type":"Feature"},
	{"geometry":{"coordinates":[39.716214,47.263345],"type":"Point"},"properties":{"osm_id":"1825895288","tag":{"amenity":"waste_basket"}},"type":"Feature"},
	{"geometry":{"coordinates":[39.718099,47.263139],"type":"Point"},"properties":{"osm_id":"1828120281","tag":{"amenity":"waste_disposal"}},"type":"Feature"},
	{"geometry":{"coordinates":[39.718993,47.264332],"type":"Point"},"properties":{"osm_id":"1828124447","tag":{"amenity":"waste_disposal"}},"type":"Feature"},
	{"geometry":{"coordinates":[39.713005,47.272058],"type":"Point"},"properties":{"osm_id":"1829741851","tag":{"amenity":"waste_disposal"}},"type":"Feature"},
	{"geometry":{"coordinates":[39.717998,47.262108],"type":"Point"},"properties":{"osm_id":"1837682942","tag":{"amenity":"waste_disposal"}},"type":"Feature"},
	{"geometry":{"coordinates":[39.715444,47.261763],"type":"Point"},"properties":{"osm_id":"2250192226","tag":{"amenity":"waste_disposal"}},"type":"Feature"},
	{"geometry":{"coordinates":[39.717054,47.26452],"type":"Point"},"properties":{"osm_id":"2255778257","tag":{"amenity":"waste_disposal"}},"type":"Feature"},
	{"geometry":{"coordinates":[39.722411,47.220409],"type":"Point"},"properties":{"osm_id":"2277706345","tag":{"amenity":"waste_basket"}},"type":"Feature"},
	{"geometry":{"coordinates":[39.715847,47.263315],"type":"Point"},"properties":{"osm_id":"2302681783","tag":{"amenity":"waste_basket"}},"type":"Feature"},
	{"geometry":{"coordinates":[39.713786,47.239744],"type":"Point"},"properties":{"osm_id":"2334449845","tag":{"amenity":"waste_basket"}},"type":"Feature"},
	{"geometry":{"coordinates":[39.713784,47.239811],"type":"Point"},"properties":{"osm_id":"2334449848","tag":{"amenity":"waste_basket"}},"type":"Feature"},
	{"geometry":{"coordinates":[39.683881,47.225232],"type":"Point"},"properties":{"osm_id":"2339676528","tag":{"amenity":"waste_disposal"}},"type":"Feature"},
	{"geometry":{"coordinates":[39.694968,47.226919],"type":"Point"},"properties":{"osm_id":"2340999795","tag":{"amenity":"waste_disposal"}},"type":"Feature"},
	{"geometry":{"coordinates":[39.692949,47.230583],"type":"Point"},"properties":{"osm_id":"2340999854","tag":{"amenity":"waste_disposal"}},"type":"Feature"},
	{"geometry":{"coordinates":[39.686637,47.256072],"type":"Point"},"properties":{"osm_id":"2368785537","tag":{"amenity":"recycling"}},"type":"Feature"},
	{"geometry":{"coordinates":[39.67931,47.269771],"type":"Point"},"properties":{"osm_id":"2368785539","tag":{"amenity":"recycling"}},"type":"Feature"},
	{"geometry":{"coordinates":[39.67947,47.269808],"type":"Point"},"properties":{"osm_id":"2368785540","tag":{"amenity":"recycling"}},"type":"Feature"},
	{"geometry":{"coordinates":[39.717463,47.263454],"type":"Point"},"properties":{"osm_id":"2409008258","tag":{"amenity":"waste_basket"}},"type":"Feature"},
	{"geometry":{"coordinates":[39.717524,47.26347],"type":"Point"},"properties":{"osm_id":"2409008259","tag":{"amenity":"waste_basket"}},"type":"Feature"},
	{"geometry":{"coordinates":[39.713281,47.25686],"type":"Point"},"properties":{"highway":"bus_stop","name":"\u00d0\u0097\u00d0\u00b0\u00d0\u00b1\u00d0\u00b0\u00d0\u00b9\u00d0\u00ba\u00d0\u00b0\u00d0\u00bb\u00d1\u008c\u00d1\u0081\u00d0\u00ba\u00d0\u00b8\u00d0\u00b9","osm_id":"2409033279","tag":{"amenity":"waste_basket","public_transport":"platform","shelter":"yes"}},"type":"Feature"},
	{"geometry":{"coordinates":[39.719672,47.22928],"type":"Point"},"properties":{"osm_id":"2410078541","tag":{"amenity":"waste_basket"}},"type":"Feature"},
	{"geometry":{"coordinates":[39.699032,47.240744],"type":"Point"},"properties":{"osm_id":"2410884388","tag":{"amenity":"waste_disposal"}},"type":"Feature"},
	{"geometry":{"coordinates":[39.718166,47.223036],"type":"Point"},"properties":{"osm_id":"2413757520","tag":{"amenity":"waste_basket"}},"type":"Feature"},
	{"geometry":{"coordinates":[39.718146,47.223085],"type":"Point"},"properties":{"osm_id":"2413757522","tag":{"amenity":"waste_basket"}},"type":"Feature"},
	{"geometry":{"coordinates":[39.71813,47.223125],"type":"Point"},"properties":{"highway":"bus_stop","name":"\u00d1\u0083\u00d0\u00bb. \u00d0\u0091. \u00d0\u00a1\u00d0\u00b0\u00d0\u00b4\u00d0\u00be\u00d0\u00b2\u00d0\u00b0\u00d1\u008f","osm_id":"2413757525","tag":{"amenity":"waste_basket","bench":"yes","bus":"yes","name:ru":"\u00d0\u0091\u00d0\u00be\u00d0\u00bb\u00d1\u008c\u00d1\u0088\u00d0\u00b0\u00d1\u008f \u00d0\u00a1\u00d0\u00b0\u00d0\u00b4\u00d0\u00be\u00d0\u00b2\u00d0\u00b0\u00d1\u008f \u00d1\u0083\u00d0\u00bb\u00d0\u00b8\u00d1\u0086\u00d0\u00b0","public_transport":"platform","share_taxi":"yes","shelter":"yes","trolleybus":"yes"}},"type":"Feature"},
	{"geometry":{"coordinates":[39.718262,47.22382],"type":"Point"},"properties":{"osm_id":"2449459002","tag":{"amenity":"waste_basket"}},"type":"Feature"},
	{"geometry":{"coordinates":[39.719287,47.228483],"type":"Point"},"properties":{"osm_id":"2475171878","tag":{"amenity":"waste_basket"}},"type":"Feature"},
	{"geometry":{"coordinates":[39.716266,47.236689],"type":"Point"},"properties":{"osm_id":"2475220748","tag":{"amenity":"waste_basket"}},"type":"Feature"},
	{"geometry":{"coordinates":[39.694348,47.238561],"type":"Point"},"properties":{"osm_id":"2475239617","tag":{"amenity":"waste_basket"}},"type":"Feature"},
	{"geometry":{"coordinates":[39.694285,47.238568],"type":"Point"},"properties":{"osm_id":"2475239619","tag":{"amenity":"waste_basket"}},"type":"Feature"},
	{"geometry":{"coordinates":[39.713111,47.238476],"type":"Point"},"properties":{"osm_id":"2637930532","tag":{"amenity":"waste_basket"}},"type":"Feature"},
	{"geometry":{"coordinates":[39.713108,47.238505],"type":"Point"},"properties":{"osm_id":"2637930534","tag":{"amenity":"waste_basket"}},"type":"Feature"},
	{"geometry":{"coordinates":[39.712003,47.258379],"type":"Point"},"properties":{"osm_id":"2659034373","tag":{"amenity":"waste_disposal"}},"type":"Feature"},
	{"geometry":{"coordinates":[39.713775,47.258823],"type":"Point"},"properties":{"osm_id":"2659034374","tag":{"amenity":"waste_disposal"}},"type":"Feature"},
	{"geometry":{"coordinates":[39.71573,47.259439],"type":"Point"},"properties":{"osm_id":"2659034375","tag":{"amenity":"waste_disposal"}},"type":"Feature"},
	{"geometry":{"coordinates":[39.695443,47.254076],"type":"Point"},"properties":{"osm_id":"3235390752","tag":{"amenity":"waste_basket"}},"type":"Feature"},
	{"geometry":{"coordinates":[39.701,47.228545],"type":"Point"},"properties":{"osm_id":"3241163766","tag":{"amenity":"waste_disposal"}},"type":"Feature"},
	{"geometry":{"coordinates":[39.705897,47.226399],"type":"Point"},"properties":{"osm_id":"3249023372","tag":{"amenity":"waste_disposal"}},"type":"Feature"},
	{"geometry":{"coordinates":[39.69454,47.239436],"type":"Point"},"properties":{"osm_id":"3250226619","tag":{"amenity":"waste_disposal"}},"type":"Feature"},
	{"geometry":{"coordinates":[39.672784,47.241998],"type":"Point"},"properties":{"osm_id":"3258703637","tag":{"amenity":"waste_basket"}},"type":"Feature"},
	{"geometry":{"coordinates":[39.687692,47.223941],"type":"Point"},"properties":{"osm_id":"3270735707","tag":{"amenity":"waste_disposal"}},"type":"Feature"},
	{"geometry":{"coordinates":[39.681605,47.225938],"type":"Point"},"properties":{"osm_id":"3271618423","tag":{"amenity":"waste_disposal"}},"type":"Feature"},
	{"geometry":{"coordinates":[39.67443,47.225949],"type":"Point"},"properties":{"osm_id":"3271618424","tag":{"amenity":"waste_disposal"}},"type":"Feature"},
	{"geometry":{"coordinates":[39.670537,47.229597],"type":"Point"},"properties":{"osm_id":"3271620131","tag":{"amenity":"waste_disposal"}},"type":"Feature"},
	{"geometry":{"coordinates":[39.671719,47.237022],"type":"Point"},"properties":{"osm_id":"3271620239","tag":{"amenity":"waste_disposal"}},"type":"Feature"},
	{"geometry":{"coordinates":[39.67171,47.238719],"type":"Point"},"properties":{"osm_id":"3271620372","tag":{"amenity":"waste_disposal"}},"type":"Feature"},
	{"geometry":{"coordinates":[39.671864,47.240339],"type":"Point"},"properties":{"osm_id":"3271620377","tag":{"amenity":"waste_disposal"}},"type":"Feature"},
	{"geometry":{"coordinates":[39.672959,47.242904],"type":"Point"},"properties":{"osm_id":"3271620379","tag":{"amenity":"waste_disposal"}},"type":"Feature"},
	{"geometry":{"coordinates":[39.693418,47.24496],"type":"Point"},"properties":{"osm_id":"3271620408","tag":{"amenity":"waste_disposal"}},"type":"Feature"},
	{"geometry":{"coordinates":[39.689017,47.245183],"type":"Point"},"properties":{"osm_id":"3271620412","tag":{"amenity":"waste_disposal"}},"type":"Feature"},
	{"geometry":{"coordinates":[39.686874,47.245285],"type":"Point"},"properties":{"osm_id":"3271620417","tag":{"amenity":"waste_disposal"}},"type":"Feature"},
	{"geometry":{"coordinates":[39.68508,47.245367],"type":"Point"},"properties":{"osm_id":"3271620420","tag":{"amenity":"waste_disposal"}},"type":"Feature"},
	{"geometry":{"coordinates":[39.682475,47.245505],"type":"Point"},"properties":{"osm_id":"3271620426","tag":{"amenity":"waste_disposal"}},"type":"Feature"},
	{"geometry":{"coordinates":[39.67972,47.245638],"type":"Point"},"properties":{"osm_id":"3271620429","tag":{"amenity":"waste_disposal"}},"type":"Feature"},
	{"geometry":{"coordinates":[39.711931,47.245347],"type":"Point"},"properties":{"osm_id":"3734523525","tag":{"amenity":"waste_basket"}},"type":"Feature"},
	{"geometry":{"coordinates":[39.699177,47.24196],"type":"Point"},"properties":{"osm_id":"3954711865","tag":{"amenity":"waste_disposal"}},"type":"Feature"},
	{"geometry":{"coordinates":[39.724126,47.223336],"type":"Point"},"properties":{"osm_id":"3979318774","tag":{"amenity":"waste_disposal"}},"type":"Feature"},
	{"geometry":{"coordinates":[39.712709,47.220526],"type":"Point"},"properties":{"osm_id":"4110098766","tag":{"amenity":"waste_disposal"}},"type":"Feature"},
	{"geometry":{"coordinates":[39.723257,47.224459],"type":"Point"},"properties":{"osm_id":"4114604190","tag":{"amenity":"waste_disposal"}},"type":"Feature"},
	{"geometry":{"coordinates":[39.715358,47.273388],"type":"Point"},"properties":{"osm_id":"4144950992","tag":{"amenity":"waste_disposal"}},"type":"Feature"},
	{"geometry":{"coordinates":[39.718673,47.222475],"type":"Point"},"properties":{"osm_id":"4153335691","tag":{"amenity":"waste_disposal"}},"type":"Feature"},
	{"geometry":{"coordinates":[39.723564,47.222234],"type":"Point"},"properties":{"osm_id":"4347777486","tag":{"amenity":"waste_disposal"}},"type":"Feature"},
	{"geometry":{"coordinates":[39.698634,47.225479],"type":"Point"},"properties":{"osm_id":"4773219887","tag":{"amenity":"waste_disposal"}},"type":"Feature"},
	{"geometry":{"coordinates":[39.723351,47.252376],"type":"Point"},"properties":{"osm_id":"4864030623","tag":{"amenity":"waste_basket"}},"type":"Feature"},
	{"geometry":{"coordinates":[39.723235,47.252451],"type":"Point"},"properties":{"osm_id":"4864034521","tag":{"amenity":"waste_basket"}},"type":"Feature"},
	{"geometry":{"coordinates":[39.642389,47.256504],"type":"Point"},"properties":{"osm_id":"5039809382","tag":{"amenity":"waste_disposal"}},"type":"Feature"},
	{"geometry":{"coordinates":[39.658236,47.263448],"type":"Point"},"properties":{"osm_id":"5247387938","tag":{"amenity":"waste_disposal"}},"type":"Feature"},
	{"geometry":{"coordinates":[39.690296,47.229373],"type":"Point"},"properties":{"osm_id":"5488326735","tag":{"amenity":"waste_disposal"}},"type":"Feature"},
	{"geometry":{"coordinates":[39.689556,47.231032],"type":"Point"},"properties":{"osm_id":"5488326736","tag":{"amenity":"waste_disposal"}},"type":"Feature"},
	{"geometry":{"coordinates":[39.653555,47.259493],"type":"Point"},"properties":{"osm_id":"5581882333","tag":{"amenity":"waste_disposal"}},"type":"Feature"},
	{"geometry":{"coordinates":[39.645415,47.256838],"type":"Point"},"properties":{"osm_id":"6797443435","tag":{"amenity":"recycling","recycling:plastic":"yes","recycling:plastic_bottles":"yes","recycling_type":"container"}},"type":"Feature"},
	{"geometry":{"coordinates":[39.646818,47.257526],"type":"Point"},"properties":{"osm_id":"6797443439","tag":{"amenity":"waste_disposal"}},"type":"Feature"},
	{"geometry":{"coordinates":[39.646806,47.257523],"type":"Point"},"properties":{"osm_id":"6797443440","tag":{"amenity":"waste_disposal"}},"type":"Feature"},
	{"geometry":{"coordinates":[39.646794,47.257519],"type":"Point"},"properties":{"osm_id":"6797443441","tag":{"amenity":"waste_disposal"}},"type":"Feature"},
	{"geometry":{"coordinates":[39.646779,47.257514],"type":"Point"},"properties":{"osm_id":"6797443442","tag":{"amenity":"waste_disposal"}},"type":"Feature"},
	{"geometry":{"coordinates":[39.646764,47.257508],"type":"Point"},"properties":{"osm_id":"6797443443","tag":{"amenity":"waste_disposal"}},"type":"Feature"},
	{"geometry":{"coordinates":[39.646749,47.257503],"type":"Point"},"properties":{"osm_id":"6797443444","tag":{"amenity":"waste_disposal"}},"type":"Feature"},
	{"geometry":{"coordinates":[39.646725,47.257494],"type":"Point"},"properties":{"osm_id":"6797443445","tag":{"amenity":"waste_disposal"}},"type":"Feature"},
	{"geometry":{"coordinates":[39.646711,47.25749],"type":"Point"},"properties":{"osm_id":"6797443446","tag":{"amenity":"waste_disposal"}},"type":"Feature"},
	{"geometry":{"coordinates":[39.646685,47.25748],"type":"Point"},"properties":{"osm_id":"6797443447","tag":{"amenity":"recycling","recycling:plastic":"yes","recycling:plastic_bottles":"yes","recycling_type":"container"}},"type":"Feature"},
	{"geometry":{"coordinates":[39.646669,47.257474],"type":"Point"},"properties":{"osm_id":"6797443448","tag":{"amenity":"recycling","recycling:plastic":"yes","recycling:plastic_bottles":"yes","recycling_type":"container"}},"type":"Feature"},
	{"geometry":{"coordinates":[39.64224,47.257211],"type":"Point"},"properties":{"osm_id":"7323650305","tag":{"amenity":"waste_basket"}},"type":"Feature"},
	{"geometry":{"coordinates":[39.642317,47.257213],"type":"Point"},"properties":{"osm_id":"7323650306","tag":{"amenity":"waste_basket"}},"type":"Feature"},
	{"geometry":{"coordinates":[39.642283,47.257123],"type":"Point"},"properties":{"osm_id":"7323650308","tag":{"amenity":"waste_basket"}},"type":"Feature"}
]
}
