{
"type": "FeatureCollection",
"features": [
	{"geometry":{"coordinates":[39.720409,43.58248],"type":"Point"},"properties":{"osm_id":"673978789","tag":{"amenity":"waste_disposal"}},"type":"Feature"},
	{"geometry":{"coordinates":[39.724375,43.603533],"type":"Point"},"properties":{"name":"\u00d0\u009f\u00d0\u00b8\u00d1\u0086\u00d1\u0086\u00d0\u00b5\u00d1\u0080\u00d0\u00b8\u00d1\u008f \u00d0\u00a1\u00d0\u00b8\u00d1\u0086\u00d0\u00b8\u00d0\u00bb\u00d0\u00b8\u00d1\u008f","osm_id":"1025381152","tag":{"amenity":"restaurant"}},"type":"Feature"},
	{"geometry":{"coordinates":[39.715056,43.627923],"type":"Point"},"properties":{"osm_id":"1146504106","tag":{"amenity":"recycling"}},"type":"Feature"},
	{"geometry":{"coordinates":[39.715695,43.625923],"type":"Point"},"properties":{"osm_id":"1146508859","tag":{"amenity":"recycling"}},"type":"Feature"},
	{"geometry":{"coordinates":[39.714772,43.623364],"type":"Point"},"properties":{"osm_id":"1146510264","tag":{"amenity":"recycling"}},"type":"Feature"},
	{"geometry":{"coordinates":[39.713426,43.628773],"type":"Point"},"properties":{"osm_id":"1146526551","tag":{"amenity":"recycling"}},"type":"Feature"},
	{"geometry":{"coordinates":[39.72329,43.60071],"type":"Point"},"properties":{"osm_id":"2461262975","tag":{"amenity":"waste_disposal"}},"type":"Feature"},
	{"geometry":{"coordinates":[39.723227,43.600728],"type":"Point"},"properties":{"osm_id":"2461262976","tag":{"amenity":"waste_disposal"}},"type":"Feature"},
	{"geometry":{"coordinates":[39.723315,43.600753],"type":"Point"},"properties":{"osm_id":"2461262980","tag":{"amenity":"waste_disposal"}},"type":"Feature"},
	{"geometry":{"coordinates":[39.723252,43.60077],"type":"Point"},"properties":{"osm_id":"2461262982","tag":{"amenity":"waste_disposal"}},"type":"Feature"},
	{"geometry":{"coordinates":[39.723855,43.602206],"type":"Point"},"properties":{"osm_id":"2461263096","tag":{"amenity":"waste_disposal"}},"type":"Feature"},
	{"geometry":{"coordinates":[39.723792,43.602233],"type":"Point"},"properties":{"osm_id":"2461263098","tag":{"amenity":"recycling","recycling_type":"container"}},"type":"Feature"},
	{"geometry":{"coordinates":[39.721805,43.626166],"type":"Point"},"properties":{"osm_id":"2907680221","tag":{"amenity":"waste_disposal"}},"type":"Feature"},
	{"geometry":{"coordinates":[39.719671,43.62832],"type":"Point"},"properties":{"osm_id":"2907680222","tag":{"amenity":"waste_disposal"}},"type":"Feature"},
	{"geometry":{"coordinates":[39.718817,43.627442],"type":"Point"},"properties":{"osm_id":"2907680223","tag":{"amenity":"waste_disposal"}},"type":"Feature"},
	{"geometry":{"coordinates":[39.720139,43.627446],"type":"Point"},"properties":{"osm_id":"2946261410","tag":{"amenity":"waste_basket"}},"type":"Feature"},
	{"geometry":{"coordinates":[39.723028,43.618232],"type":"Point"},"properties":{"osm_id":"2946263198","tag":{"amenity":"waste_disposal"}},"type":"Feature"},
	{"geometry":{"coordinates":[39.722682,43.589949],"type":"Point"},"properties":{"osm_id":"3037182866","tag":{"amenity":"waste_disposal"}},"type":"Feature"},
	{"geometry":{"coordinates":[39.723115,43.627586],"type":"Point"},"properties":{"osm_id":"3811466474","tag":{"amenity":"recycling","recycling_type":"container"}},"type":"Feature"},
	{"geometry":{"coordinates":[39.717717,43.595428],"type":"Point"},"properties":{"osm_id":"4071963323","tag":{"amenity":"recycling"}},"type":"Feature"},
	{"geometry":{"coordinates":[39.712882,43.614415],"type":"Point"},"properties":{"osm_id":"4098688272","tag":{"amenity":"waste_disposal"}},"type":"Feature"},
	{"geometry":{"coordinates":[39.712693,43.615205],"type":"Point"},"properties":{"osm_id":"4098688285","tag":{"amenity":"waste_disposal"}},"type":"Feature"},
	{"geometry":{"coordinates":[39.714635,43.614402],"type":"Point"},"properties":{"osm_id":"4413425157","tag":{"amenity":"waste_disposal"}},"type":"Feature"},
	{"geometry":{"coordinates":[39.716582,43.599271],"type":"Point"},"properties":{"osm_id":"6688279515","tag":{"amenity":"waste_disposal"}},"type":"Feature"},
	{"geometry":{"coordinates":[39.720125,43.580509],"type":"Point"},"properties":{"osm_id":"6790672469","tag":{"amenity":"waste_basket"}},"type":"Feature"},
	{"geometry":{"coordinates":[39.719933,43.603777],"type":"Point"},"properties":{"osm_id":"7158907834","tag":{"amenity":"waste_disposal"}},"type":"Feature"},
	{"geometry":{"coordinates":[39.723905,43.632329],"type":"Point"},"properties":{"osm_id":"7247339149","tag":{"amenity":"waste_disposal"}},"type":"Feature"},
	{"geometry":{"coordinates":[39.725353,43.59649],"type":"Point"},"properties":{"osm_id":"7383026733","tag":{"amenity":"recycling","recycling_type":"container"}},"type":"Feature"},
	{"geometry":{"coordinates":[39.721175,43.600865],"type":"Point"},"properties":{"osm_id":"7384815814","tag":{"access":"yes","amenity":"waste_disposal"}},"type":"Feature"},
	{"geometry":{"coordinates":[39.725079,43.633626],"type":"Point"},"properties":{"osm_id":"7469456590","tag":{"amenity":"recycling","recycling_type":"container"}},"type":"Feature"},
	{"geometry":{"coordinates":[39.725124,43.633623],"type":"Point"},"properties":{"osm_id":"7469456591","tag":{"amenity":"waste_disposal"}},"type":"Feature"},
	{"geometry":{"coordinates":[39.719916,43.589156],"type":"Point"},"properties":{"osm_id":"7476877645","tag":{"access":"yes","amenity":"waste_disposal"}},"type":"Feature"},
	{"geometry":{"coordinates":[39.700035,43.633629],"type":"Point"},"properties":{"osm_id":"7485962235","tag":{"amenity":"recycling","recycling_type":"container"}},"type":"Feature"},
	{"geometry":{"coordinates":[39.700028,43.633603],"type":"Point"},"properties":{"osm_id":"7485962236","tag":{"access":"yes","amenity":"waste_disposal"}},"type":"Feature"},
	{"geometry":{"coordinates":[39.698877,43.634291],"type":"Point"},"properties":{"osm_id":"7485962273","tag":{"amenity":"recycling","recycling_type":"container"}},"type":"Feature"},
	{"geometry":{"coordinates":[39.698876,43.634269],"type":"Point"},"properties":{"osm_id":"7485962274","tag":{"access":"yes","amenity":"waste_disposal"}},"type":"Feature"},
	{"geometry":{"coordinates":[39.700685,43.624479],"type":"Point"},"properties":{"osm_id":"7489217051","tag":{"amenity":"recycling","recycling_type":"container"}},"type":"Feature"},
	{"geometry":{"coordinates":[39.700631,43.624463],"type":"Point"},"properties":{"osm_id":"7489217052","tag":{"access":"yes","amenity":"waste_disposal"}},"type":"Feature"},
	{"geometry":{"coordinates":[39.709364,43.630171],"type":"Point"},"properties":{"osm_id":"7489217122","tag":{"amenity":"recycling","recycling_type":"container"}},"type":"Feature"},
	{"geometry":{"coordinates":[39.709404,43.630171],"type":"Point"},"properties":{"osm_id":"7489217123","tag":{"access":"yes","amenity":"waste_disposal"}},"type":"Feature"},
	{"geometry":{"coordinates":[39.696311,43.626442],"type":"Point"},"properties":{"osm_id":"7491729631","tag":{"amenity":"recycling","recycling_type":"container"}},"type":"Feature"},
	{"geometry":{"coordinates":[39.696311,43.626409],"type":"Point"},"properties":{"osm_id":"7491729632","tag":{"access":"yes","amenity":"waste_disposal"}},"type":"Feature"},
	{"geometry":{"coordinates":[39.692207,43.635751],"type":"Point"},"properties":{"osm_id":"7492193672","tag":{"access":"yes","amenity":"waste_disposal"}},"type":"Feature"},
	{"geometry":{"coordinates":[39.692232,43.635755],"type":"Point"},"properties":{"osm_id":"7492193673","tag":{"amenity":"recycling","recycling_type":"container"}},"type":"Feature"}
]
}
