{
"type": "FeatureCollection",
"features": [
	{"geometry":{"coordinates":[-149.552121,-17.541002],"type":"Point"},"properties":{"osm_id":"495948466","tag":{"amenity":"recycling","recycling:glass":"yes","recycling_type":"container"}},"type":"Feature"},
	{"geometry":{"coordinates":[-149.532863,-17.524186],"type":"Point"},"properties":{"osm_id":"6770724902","tag":{"amenity":"recycling","collection_times":"Mo","operator":"SEP","recycling:glass_bottles":"yes","recycling_type":"container"}},"type":"Feature"},
	{"geometry":{"coordinates":[-149.574443,-17.542493],"type":"Point"},"properties":{"osm_id":"8914630171","tag":{"amenity":"waste_basket"}},"type":"Feature"},
	{"geometry":{"coordinates":[-149.57369,-17.542007],"type":"Point"},"properties":{"osm_id":"8914630172","tag":{"amenity":"waste_basket"}},"type":"Feature"},
	{"geometry":{"coordinates":[-149.573999,-17.542244],"type":"Point"},"properties":{"osm_id":"8914662492","tag":{"amenity":"waste_basket"}},"type":"Feature"},
	{"geometry":{"coordinates":[-149.573578,-17.542141],"type":"Point"},"properties":{"osm_id":"8914662501","tag":{"amenity":"waste_basket"}},"type":"Feature"},
	{"geometry":{"coordinates":[-149.573839,-17.542675],"type":"Point"},"properties":{"osm_id":"8914668754","tag":{"amenity":"waste_basket"}},"type":"Feature"},
	{"geometry":{"coordinates":[-149.549554,-17.526694],"type":"Point"},"properties":{"osm_id":"8914673597","tag":{"amenity":"waste_basket"}},"type":"Feature"},
	{"geometry":{"coordinates":[-149.57432,-17.542802],"type":"Point"},"properties":{"osm_id":"8914673598","tag":{"amenity":"waste_basket"}},"type":"Feature"},
	{"geometry":{"coordinates":[-149.573461,-17.542367],"type":"Point"},"properties":{"osm_id":"8914683651","tag":{"amenity":"waste_basket"}},"type":"Feature"},
	{"geometry":{"coordinates":[-149.573503,-17.541957],"type":"Point"},"properties":{"osm_id":"8914694903","tag":{"amenity":"waste_basket"}},"type":"Feature"},
	{"geometry":{"coordinates":[-149.576652,-17.543518],"type":"Point"},"properties":{"osm_id":"8914699105","tag":{"amenity":"waste_basket"}},"type":"Feature"},
	{"geometry":{"coordinates":[-149.575269,-17.54258],"type":"Point"},"properties":{"osm_id":"8914699106","tag":{"amenity":"waste_basket"}},"type":"Feature"},
	{"geometry":{"coordinates":[-149.576918,-17.543018],"type":"Point"},"properties":{"osm_id":"8914700650","tag":{"amenity":"waste_basket"}},"type":"Feature"},
	{"geometry":{"coordinates":[-149.574148,-17.542261],"type":"Point"},"properties":{"osm_id":"8914700818","tag":{"amenity":"waste_basket"}},"type":"Feature"},
	{"geometry":{"coordinates":[-149.549647,-17.526413],"type":"Point"},"properties":{"osm_id":"8914705021","tag":{"amenity":"waste_basket"}},"type":"Feature"},
	{"geometry":{"coordinates":[-149.572878,-17.541926],"type":"Point"},"properties":{"osm_id":"8914705022","tag":{"amenity":"waste_basket"}},"type":"Feature"},
	{"geometry":{"coordinates":[-149.573228,-17.541743],"type":"Point"},"properties":{"osm_id":"8914707851","tag":{"amenity":"waste_basket"}},"type":"Feature"},
	{"geometry":{"coordinates":[-149.573568,-17.541661],"type":"Point"},"properties":{"osm_id":"8914708583","tag":{"amenity":"waste_basket"}},"type":"Feature"},
	{"geometry":{"coordinates":[-149.575115,-17.542576],"type":"Point"},"properties":{"osm_id":"8914710690","tag":{"amenity":"waste_basket"}},"type":"Feature"},
	{"geometry":{"coordinates":[-149.572604,-17.540989],"type":"Point"},"properties":{"osm_id":"8914710777","tag":{"amenity":"waste_basket"}},"type":"Feature"},
	{"geometry":{"coordinates":[-149.575148,-17.542671],"type":"Point"},"properties":{"osm_id":"8914711294","tag":{"amenity":"waste_basket"}},"type":"Feature"},
	{"geometry":{"coordinates":[-149.573637,-17.541858],"type":"Point"},"properties":{"osm_id":"8914713119","tag":{"amenity":"waste_basket"}},"type":"Feature"},
	{"geometry":{"coordinates":[-149.572355,-17.540586],"type":"Point"},"properties":{"osm_id":"8914719328","tag":{"amenity":"waste_basket"}},"type":"Feature"},
	{"geometry":{"coordinates":[-149.57294,-17.541538],"type":"Point"},"properties":{"osm_id":"8914721429","tag":{"amenity":"waste_basket"}},"type":"Feature"},
	{"geometry":{"coordinates":[-149.549554,-17.526694],"type":"Point"},"properties":{"osm_id":"8925183778","tag":{"amenity":"waste_basket"}},"type":"Feature"},
	{"geometry":{"coordinates":[-149.548028,-17.535384],"type":"Point"},"properties":{"osm_id":"9133533265","tag":{"amenity":"waste_basket"}},"type":"Feature"},
	{"geometry":{"coordinates":[-149.547585,-17.535741],"type":"Point"},"properties":{"osm_id":"9133541581","tag":{"amenity":"waste_basket"}},"type":"Feature"},
	{"geometry":{"coordinates":[-149.547976,-17.535407],"type":"Point"},"properties":{"osm_id":"9133553012","tag":{"amenity":"waste_basket"}},"type":"Feature"},
	{"geometry":{"coordinates":[-149.548242,-17.534797],"type":"Point"},"properties":{"osm_id":"9133553065","tag":{"amenity":"waste_basket"}},"type":"Feature"},
	{"geometry":{"coordinates":[-149.547912,-17.534389],"type":"Point"},"properties":{"osm_id":"9133553066","tag":{"amenity":"waste_basket"}},"type":"Feature"},
	{"geometry":{"coordinates":[-149.547512,-17.535488],"type":"Point"},"properties":{"osm_id":"9133557745","tag":{"amenity":"waste_basket"}},"type":"Feature"},
	{"geometry":{"coordinates":[-149.548063,-17.535116],"type":"Point"},"properties":{"osm_id":"9133558292","tag":{"amenity":"waste_basket"}},"type":"Feature"}
]
}
