{
"type": "FeatureCollection",
"lastupdate": "2020-08-02T00:00:00Z",
"features": [
	{"geometry":{"coordinates":[-104.943454,39.783287],"type":"Point"},"properties":{"osm_id":"1068468416","tag":{"amenity":"recycling"}},"type":"Feature"},
	{"geometry":{"coordinates":[-104.979882,39.777571],"type":"Point"},"properties":{"name":"Ultimate Specialties","osm_id":"4233808454","tag":{"addr:city":"Denver","addr:housenumber":"4458","addr:postcode":"80216","addr:state":"CO","addr:street":"Pearl Street","amenity":"recycling","recycling_type":"centre"}},"type":"Feature"},
	{"geometry":{"coordinates":[-104.976403,39.790805],"type":"Point"},"properties":{"name":"Environmental Planet Recycling","osm_id":"5115147753","tag":{"addr:city":"Denver","addr:housenumber":"5171","addr:postcode":"80216","addr:state":"CO","addr:street":"Emerson Street","amenity":"recycling","recycling_type":"centre"}},"type":"Feature"},
	{"geometry":{"coordinates":[-104.969132,39.797567],"type":"Point"},"properties":{"name":"Iron and Metals","osm_id":"5117179548","tag":{"addr:city":"Denver","addr:housenumber":"555","addr:postcode":"80216","addr:state":"CO","addr:street":"Franklin Street","amenity":"recycling","recycling_type":"centre"}},"type":"Feature"},
	{"geometry":{"coordinates":[-104.969679,39.794917],"type":"Point"},"properties":{"name":"Waste Management Recycle America","osm_id":"5117180261","tag":{"addr:city":"Denver","addr:housenumber":"5395","addr:postcode":"80216","addr:state":"CO","addr:street":"Franklin Street","amenity":"recycling","recycling_type":"centre"}},"type":"Feature"},
	{"geometry":{"coordinates":[-104.992047,39.795203],"type":"Point"},"properties":{"name":"METech Recycling","osm_id":"5830756742","tag":{"addr:city":"Denver","addr:housenumber":"500","addr:postcode":"80216","addr:state":"CO","addr:street":"West 53rd Place","amenity":"recycling","opening_hours":"Mo-Fr 07:30-15:30, Sa-Su closed","phone":"+1 720 377 7700","phone:toll-free":"+1 866 479 4920","recycling:batteries":"no","recycling:books":"no","recycling:cans":"no","recycling:cardboard":"no","recycling:cartons":"no","recycling:cds":"yes","recycling:clothes":"no","recycling:computers":"yes","recycling:dvds":"yes","recycling:electrical_appliances":"yes","recycling:electronics":"yes","recycling:glass":"no","recycling:glass_bottles":"no","recycling:green_waste":"no","recycling:magazines":"no","recycling:newspaper":"no","recycling:paper":"no","recycling:paper_packaging":"no","recycling:plastic":"no","recycling:plastic_bottles":"no","recycling:plastic_packaging":"no","recycling:scrap_metal":"no","recycling:small_appliances":"yes","recycling:video_audio":"yes","recycling:waste":"no","recycling:wood":"no","recycling_type":"centre","website":"http://www.metechrecycling.com"}},"type":"Feature"},
	{"geometry":{"coordinates":[-104.9698,39.779098],"type":"Point"},"properties":{"osm_id":"6635553855","tag":{"amenity":"waste_basket"}},"type":"Feature"},
	{"geometry":{"coordinates":[-104.969799,39.779162],"type":"Point"},"properties":{"osm_id":"6635553858","tag":{"amenity":"waste_basket"}},"type":"Feature"},
	{"geometry":{"coordinates":[-104.977063,39.781475],"type":"Point"},"properties":{"osm_id":"6635710696","tag":{"amenity":"waste_basket"}},"type":"Feature"},
	{"geometry":{"coordinates":[-104.994422,39.776687],"type":"Point"},"properties":{"osm_id":"7282660346","tag":{"amenity":"waste_basket"}},"type":"Feature"}
]
}
