{
"type": "FeatureCollection",
"features": [
	{"geometry":{"coordinates":[-104.972626,39.694417],"type":"Point"},"properties":{"osm_id":"1210934979","tag":{"amenity":"waste_basket"}},"type":"Feature"},
	{"geometry":{"coordinates":[-104.972675,39.699614],"type":"Point"},"properties":{"osm_id":"1210934981","tag":{"amenity":"waste_basket"}},"type":"Feature"},
	{"geometry":{"coordinates":[-104.97219,39.70308],"type":"Point"},"properties":{"osm_id":"1210945983","tag":{"amenity":"waste_disposal"}},"type":"Feature"},
	{"geometry":{"coordinates":[-104.970849,39.693333],"type":"Point"},"properties":{"osm_id":"1239301925","tag":{"amenity":"waste_basket"}},"type":"Feature"},
	{"geometry":{"coordinates":[-104.969765,39.699626],"type":"Point"},"properties":{"osm_id":"1239301926","tag":{"amenity":"waste_basket"}},"type":"Feature"},
	{"geometry":{"coordinates":[-104.973772,39.653478],"type":"Point"},"properties":{"osm_id":"2863340156","tag":{"amenity":"recycling","recycling:clothes":"yes","recycling_type":"container"}},"type":"Feature"},
	{"geometry":{"coordinates":[-105.011994,39.65219],"type":"Point"},"properties":{"osm_id":"2886380285","tag":{"amenity":"recycling","phone":"888-402-2665","recycling:books":"yes","recycling_type":"container","website":"https://www.readingtree.org/"}},"type":"Feature"},
	{"geometry":{"coordinates":[-104.946202,39.68079],"type":"Point"},"properties":{"osm_id":"3442092903","tag":{"amenity":"waste_basket"}},"type":"Feature"},
	{"geometry":{"coordinates":[-104.996008,39.701778],"type":"Point"},"properties":{"osm_id":"4624420759","tag":{"amenity":"recycling","recycling_type":"container"}},"type":"Feature"},
	{"geometry":{"coordinates":[-104.991892,39.704268],"type":"Point"},"properties":{"osm_id":"4624501914","tag":{"amenity":"waste_basket"}},"type":"Feature"},
	{"geometry":{"coordinates":[-104.973391,39.672579],"type":"Point"},"properties":{"osm_id":"5515076202","tag":{"amenity":"waste_basket"}},"type":"Feature"},
	{"geometry":{"coordinates":[-104.973358,39.672248],"type":"Point"},"properties":{"osm_id":"5515076205","tag":{"amenity":"waste_basket"}},"type":"Feature"},
	{"geometry":{"coordinates":[-104.973375,39.673327],"type":"Point"},"properties":{"osm_id":"5515193456","tag":{"amenity":"waste_basket"}},"type":"Feature"},
	{"geometry":{"coordinates":[-104.973589,39.673393],"type":"Point"},"properties":{"osm_id":"5515193461","tag":{"amenity":"waste_basket"}},"type":"Feature"},
	{"geometry":{"coordinates":[-104.973563,39.672884],"type":"Point"},"properties":{"osm_id":"5515220324","tag":{"amenity":"waste_basket"}},"type":"Feature"},
	{"geometry":{"coordinates":[-104.972184,39.70299],"type":"Point"},"properties":{"osm_id":"6348483565","tag":{"amenity":"recycling","recycling_type":"container"}},"type":"Feature"}
]
}
