{
"type": "FeatureCollection",
"features": [
	{"geometry":{"coordinates":[5.214495,52.395257],"type":"Point"},"properties":{"osm_id":"3170367970","tag":{"amenity":"recycling","recycling_type":"container"}},"type":"Feature"},
	{"geometry":{"coordinates":[5.215145,52.394557],"type":"Point"},"properties":{"osm_id":"3170383024","tag":{"amenity":"recycling","recycling_type":"container"}},"type":"Feature"},
	{"geometry":{"coordinates":[5.215786,52.393841],"type":"Point"},"properties":{"osm_id":"3170385210","tag":{"amenity":"recycling","recycling_type":"container"}},"type":"Feature"},
	{"geometry":{"coordinates":[5.246498,52.376118],"type":"Point"},"properties":{"name":"Rest-afval","osm_id":"3269756338","tag":{"amenity":"recycling","location":"underground","recycling_type":"container"}},"type":"Feature"},
	{"geometry":{"coordinates":[5.246489,52.376149],"type":"Point"},"properties":{"name":"GFT-afval","osm_id":"3269756339","tag":{"amenity":"recycling","location":"underground","recycling_type":"container"}},"type":"Feature"},
	{"geometry":{"coordinates":[5.231738,52.38949],"type":"Point"},"properties":{"osm_id":"4266029908","tag":{"amenity":"recycling","recycling:clothes":"yes","recycling_type":"container"}},"type":"Feature"},
	{"geometry":{"coordinates":[5.24437,52.376635],"type":"Point"},"properties":{"osm_id":"5574239172","tag":{"amenity":"waste_basket","layer":"1"}},"type":"Feature"},
	{"geometry":{"coordinates":[5.244347,52.376758],"type":"Point"},"properties":{"osm_id":"5574239173","tag":{"amenity":"waste_basket","layer":"1"}},"type":"Feature"},
	{"geometry":{"coordinates":[5.245611,52.376906],"type":"Point"},"properties":{"osm_id":"5574239174","tag":{"amenity":"waste_basket","layer":"1"}},"type":"Feature"},
	{"geometry":{"coordinates":[5.24565,52.376783],"type":"Point"},"properties":{"osm_id":"5574239175","tag":{"amenity":"waste_basket","layer":"1"}},"type":"Feature"},
	{"geometry":{"coordinates":[5.246456,52.376152],"type":"Point"},"properties":{"name":"plasitic","osm_id":"6351024230","tag":{"amenity":"recycling","location":"overground","recycling:plastic":"yes","recycling_type":"container"}},"type":"Feature"}
]
}
