{
"type": "FeatureCollection",
"features": [
	{"geometry":{"coordinates":[5.271101,52.339342],"type":"Point"},"properties":{"osm_id":"2055154178","tag":{"amenity":"waste_disposal"}},"type":"Feature"},
	{"geometry":{"coordinates":[5.258572,52.331695],"type":"Point"},"properties":{"osm_id":"2056077620","tag":{"amenity":"recycling","recycling:cans":"yes","recycling:glass":"yes","recycling:paper":"no","recycling_type":"container"}},"type":"Feature"},
	{"geometry":{"coordinates":[5.203407,52.337884],"type":"Point"},"properties":{"osm_id":"2339398066","tag":{"amenity":"recycling","recycling:clothes":"yes","recycling_type":"container"}},"type":"Feature"},
	{"geometry":{"coordinates":[5.216082,52.337276],"type":"Point"},"properties":{"osm_id":"3163800440","tag":{"amenity":"recycling","recycling_type":"container"}},"type":"Feature"},
	{"geometry":{"coordinates":[5.256015,52.362242],"type":"Point"},"properties":{"osm_id":"3268049146","tag":{"addr:city":"Almere","addr:postcode":"1326RL","addr:street":"Isadora Duncanweg","amenity":"recycling","recycling:cans":"no","recycling:clothes":"no","recycling:glass":"no","recycling:paper":"yes","recycling_type":"container"}},"type":"Feature"},
	{"geometry":{"coordinates":[5.256154,52.362291],"type":"Point"},"properties":{"osm_id":"3268049147","tag":{"addr:city":"Almere","addr:postcode":"1326RL","addr:street":"Isadora Duncanweg","amenity":"recycling","recycling:cans":"no","recycling:clothes":"no","recycling:glass":"yes","recycling:paper":"no","recycling_type":"container"}},"type":"Feature"},
	{"geometry":{"coordinates":[5.260369,52.370859],"type":"Point"},"properties":{"osm_id":"3268929267","tag":{"amenity":"waste_basket"}},"type":"Feature"},
	{"geometry":{"coordinates":[5.246641,52.375485],"type":"Point"},"properties":{"osm_id":"3269768956","tag":{"amenity":"waste_basket"}},"type":"Feature"},
	{"geometry":{"coordinates":[5.246648,52.375451],"type":"Point"},"properties":{"name":"Rest-afval","osm_id":"3269768957","tag":{"amenity":"recycling","recycling:cans":"yes","recycling:clothes":"no","recycling:glass":"no","recycling:paper":"no","recycling_type":"container"}},"type":"Feature"},
	{"geometry":{"coordinates":[5.246653,52.375432],"type":"Point"},"properties":{"name":"GFT-afval","osm_id":"3269768958","tag":{"amenity":"recycling","recycling:cans":"no","recycling:clothes":"no","recycling:glass":"no","recycling:paper":"no","recycling_type":"container"}},"type":"Feature"},
	{"geometry":{"coordinates":[5.241702,52.375099],"type":"Point"},"properties":{"osm_id":"3274423049","tag":{"amenity":"waste_basket"}},"type":"Feature"},
	{"geometry":{"coordinates":[5.222046,52.334323],"type":"Point"},"properties":{"osm_id":"4610323555","tag":{"amenity":"waste_basket"}},"type":"Feature"},
	{"geometry":{"coordinates":[5.222059,52.3325],"type":"Point"},"properties":{"osm_id":"4610345157","tag":{"amenity":"waste_basket"}},"type":"Feature"}
]
}
