{
"type": "FeatureCollection",
"features": [
	{"geometry":{"coordinates":[5.241291,52.101326],"type":"Point"},"properties":{"osm_id":"417322531","tag":{"amenity":"waste_basket"}},"type":"Feature"},
	{"geometry":{"coordinates":[5.243091,52.092937],"type":"Point"},"properties":{"osm_id":"435273656","tag":{"amenity":"waste_basket"}},"type":"Feature"},
	{"geometry":{"coordinates":[5.241672,52.102859],"type":"Point"},"properties":{"osm_id":"435273657","tag":{"amenity":"waste_basket"}},"type":"Feature"},
	{"geometry":{"coordinates":[5.240665,52.106246],"type":"Point"},"properties":{"osm_id":"676860565","tag":{"amenity":"waste_basket"}},"type":"Feature"},
	{"geometry":{"coordinates":[5.240687,52.106236],"type":"Point"},"properties":{"osm_id":"676860569","tag":{"amenity":"waste_basket"}},"type":"Feature"},
	{"geometry":{"coordinates":[5.240522,52.106218],"type":"Point"},"properties":{"osm_id":"676860572","tag":{"amenity":"waste_basket"}},"type":"Feature"},
	{"geometry":{"coordinates":[5.239927,52.052965],"type":"Point"},"properties":{"osm_id":"799584327","tag":{"amenity":"recycling","recycling:clothes":"yes","recycling:glass":"yes","recycling_type":"container"}},"type":"Feature"},
	{"geometry":{"coordinates":[5.233253,52.07996],"type":"Point"},"properties":{"osm_id":"936348303","tag":{"amenity":"waste_basket"}},"type":"Feature"},
	{"geometry":{"coordinates":[5.272029,52.071526],"type":"Point"},"properties":{"osm_id":"1255688418","tag":{"amenity":"waste_basket"}},"type":"Feature"},
	{"geometry":{"coordinates":[5.27042,52.098443],"type":"Point"},"properties":{"osm_id":"1376014279","tag":{"amenity":"waste_basket"}},"type":"Feature"},
	{"geometry":{"coordinates":[5.247052,52.085838],"type":"Point"},"properties":{"osm_id":"1499784831","tag":{"amenity":"waste_basket"}},"type":"Feature"},
	{"geometry":{"coordinates":[5.201683,52.065194],"type":"Point"},"properties":{"osm_id":"1503844915","tag":{"amenity":"recycling","recycling:cans":"no","recycling:glass":"no","recycling:glass_bottles":"yes","recycling_type":"container"}},"type":"Feature"},
	{"geometry":{"coordinates":[5.195938,52.069956],"type":"Point"},"properties":{"osm_id":"1503846177","tag":{"amenity":"recycling","description":"Glas en kledingcontainers","opening_hours":"24/7","recycling:clothes":"yes","recycling:glass_bottles":"yes","recycling_type":"container"}},"type":"Feature"},
	{"geometry":{"coordinates":[5.221324,52.101094],"type":"Point"},"properties":{"osm_id":"1596260412","tag":{"amenity":"recycling","recycling:clothes":"yes","recycling:glass_bottles":"yes","recycling:paper":"yes","recycling:plastic":"yes","recycling_type":"container"}},"type":"Feature"},
	{"geometry":{"coordinates":[5.25006,52.093713],"type":"Point"},"properties":{"osm_id":"1599611260","tag":{"amenity":"waste_basket"}},"type":"Feature"},
	{"geometry":{"coordinates":[5.249199,52.095892],"type":"Point"},"properties":{"osm_id":"1599611261","tag":{"amenity":"waste_basket"}},"type":"Feature"},
	{"geometry":{"coordinates":[5.243239,52.091351],"type":"Point"},"properties":{"osm_id":"1641037219","tag":{"amenity":"waste_basket"}},"type":"Feature"},
	{"geometry":{"coordinates":[5.231506,52.088195],"type":"Point"},"properties":{"osm_id":"1808422393","tag":{"amenity":"waste_disposal"}},"type":"Feature"},
	{"geometry":{"coordinates":[5.221672,52.101092],"type":"Point"},"properties":{"osm_id":"1864405791","tag":{"amenity":"waste_basket"}},"type":"Feature"},
	{"geometry":{"coordinates":[5.204457,52.067194],"type":"Point"},"properties":{"osm_id":"1977201935","tag":{"amenity":"recycling","recycling:glass":"yes","recycling:glass_bottles":"yes","recycling_type":"container"}},"type":"Feature"},
	{"geometry":{"coordinates":[5.221773,52.100785],"type":"Point"},"properties":{"osm_id":"2215018644","tag":{"amenity":"waste_basket"}},"type":"Feature"},
	{"geometry":{"coordinates":[5.222009,52.100561],"type":"Point"},"properties":{"osm_id":"2215018646","tag":{"amenity":"waste_basket"}},"type":"Feature"},
	{"geometry":{"coordinates":[5.22611,52.084882],"type":"Point"},"properties":{"osm_id":"2438744146","tag":{"amenity":"waste_basket"}},"type":"Feature"},
	{"geometry":{"coordinates":[5.22607,52.086379],"type":"Point"},"properties":{"osm_id":"2438750481","tag":{"amenity":"waste_basket"}},"type":"Feature"},
	{"geometry":{"coordinates":[5.218741,52.094821],"type":"Point"},"properties":{"osm_id":"2626920169","tag":{"amenity":"waste_basket"}},"type":"Feature"},
	{"geometry":{"coordinates":[5.218625,52.094873],"type":"Point"},"properties":{"osm_id":"2626920171","tag":{"amenity":"waste_basket"}},"type":"Feature"},
	{"geometry":{"coordinates":[5.22693,52.080369],"type":"Point"},"properties":{"osm_id":"2650368557","tag":{"amenity":"waste_basket"}},"type":"Feature"},
	{"geometry":{"coordinates":[5.228129,52.080764],"type":"Point"},"properties":{"osm_id":"2650388042","tag":{"amenity":"waste_basket"}},"type":"Feature"},
	{"geometry":{"coordinates":[5.227182,52.080125],"type":"Point"},"properties":{"osm_id":"2650388044","tag":{"amenity":"waste_basket"}},"type":"Feature"},
	{"geometry":{"coordinates":[5.228083,52.080573],"type":"Point"},"properties":{"osm_id":"2650388047","tag":{"amenity":"waste_basket"}},"type":"Feature"},
	{"geometry":{"coordinates":[5.227305,52.08057],"type":"Point"},"properties":{"osm_id":"2650388050","tag":{"amenity":"waste_basket"}},"type":"Feature"},
	{"geometry":{"coordinates":[5.216465,52.061703],"type":"Point"},"properties":{"osm_id":"2725145450","tag":{"amenity":"recycling","opening_hours":"24/7","recycling:cans":"no","recycling:clothes":"yes","recycling:glass":"no","recycling:glass_bottles":"yes","recycling_type":"container"}},"type":"Feature"},
	{"geometry":{"coordinates":[5.260761,52.076199],"type":"Point"},"properties":{"osm_id":"3257864375","tag":{"amenity":"recycling","recycling:glass":"yes","recycling:paper":"yes","recycling:plastic":"yes","recycling_type":"container"}},"type":"Feature"},
	{"geometry":{"coordinates":[5.199704,52.067826],"type":"Point"},"properties":{"osm_id":"3575333607","tag":{"amenity":"waste_basket"}},"type":"Feature"},
	{"geometry":{"coordinates":[5.23238,52.102042],"type":"Point"},"properties":{"osm_id":"3728682404","tag":{"amenity":"recycling","recycling:glass_bottles":"yes","recycling_type":"container"}},"type":"Feature"},
	{"geometry":{"coordinates":[5.232342,52.10208],"type":"Point"},"properties":{"osm_id":"3728682406","tag":{"amenity":"recycling","recycling:plastic":"yes","recycling_type":"container"}},"type":"Feature"},
	{"geometry":{"coordinates":[5.236827,52.102746],"type":"Point"},"properties":{"osm_id":"3836978164","tag":{"access":"private","amenity":"waste_disposal"}},"type":"Feature"},
	{"geometry":{"coordinates":[5.236889,52.102767],"type":"Point"},"properties":{"osm_id":"3836978165","tag":{"amenity":"recycling","recycling:paper":"yes","recycling_type":"container"}},"type":"Feature"},
	{"geometry":{"coordinates":[5.233303,52.101967],"type":"Point"},"properties":{"osm_id":"3836978174","tag":{"amenity":"recycling","recycling:paper":"yes","recycling_type":"container"}},"type":"Feature"},
	{"geometry":{"coordinates":[5.233368,52.101983],"type":"Point"},"properties":{"osm_id":"3836978175","tag":{"access":"private","amenity":"waste_disposal"}},"type":"Feature"},
	{"geometry":{"coordinates":[5.23492,52.102329],"type":"Point"},"properties":{"osm_id":"3836978176","tag":{"access":"private","amenity":"waste_disposal"}},"type":"Feature"},
	{"geometry":{"coordinates":[5.23485,52.102319],"type":"Point"},"properties":{"osm_id":"3836978177","tag":{"amenity":"recycling","recycling:paper":"yes","recycling_type":"container"}},"type":"Feature"},
	{"geometry":{"coordinates":[5.234199,52.102177],"type":"Point"},"properties":{"osm_id":"3836978178","tag":{"access":"private","amenity":"waste_disposal"}},"type":"Feature"},
	{"geometry":{"coordinates":[5.234261,52.102197],"type":"Point"},"properties":{"osm_id":"3836978179","tag":{"amenity":"recycling","recycling:paper":"yes","recycling_type":"container"}},"type":"Feature"},
	{"geometry":{"coordinates":[5.235749,52.102504],"type":"Point"},"properties":{"osm_id":"3836978180","tag":{"amenity":"recycling","recycling:paper":"yes","recycling_type":"container"}},"type":"Feature"},
	{"geometry":{"coordinates":[5.235819,52.102514],"type":"Point"},"properties":{"osm_id":"3836978181","tag":{"access":"private","amenity":"waste_disposal"}},"type":"Feature"},
	{"geometry":{"coordinates":[5.23254,52.101934],"type":"Point"},"properties":{"osm_id":"3836978185","tag":{"amenity":"recycling","recycling:paper":"yes","recycling_type":"container"}},"type":"Feature"},
	{"geometry":{"coordinates":[5.23247,52.10197],"type":"Point"},"properties":{"osm_id":"3836978186","tag":{"access":"private","amenity":"waste_disposal"}},"type":"Feature"},
	{"geometry":{"coordinates":[5.230539,52.102777],"type":"Point"},"properties":{"osm_id":"3837000811","tag":{"amenity":"recycling","recycling:paper":"yes","recycling_type":"container"}},"type":"Feature"},
	{"geometry":{"coordinates":[5.230481,52.102768],"type":"Point"},"properties":{"osm_id":"3837000812","tag":{"access":"private","amenity":"waste_disposal"}},"type":"Feature"},
	{"geometry":{"coordinates":[5.229658,52.102719],"type":"Point"},"properties":{"osm_id":"3837000814","tag":{"access":"private","amenity":"waste_disposal"}},"type":"Feature"},
	{"geometry":{"coordinates":[5.229716,52.102728],"type":"Point"},"properties":{"osm_id":"3837000815","tag":{"amenity":"recycling","recycling:paper":"yes","recycling_type":"container"}},"type":"Feature"},
	{"geometry":{"coordinates":[5.228724,52.102672],"type":"Point"},"properties":{"osm_id":"3837000819","tag":{"access":"private","amenity":"waste_disposal"}},"type":"Feature"},
	{"geometry":{"coordinates":[5.228782,52.102681],"type":"Point"},"properties":{"osm_id":"3837000820","tag":{"amenity":"recycling","recycling:paper":"yes","recycling_type":"container"}},"type":"Feature"},
	{"geometry":{"coordinates":[5.227864,52.102623],"type":"Point"},"properties":{"osm_id":"3837000821","tag":{"access":"private","amenity":"waste_disposal"}},"type":"Feature"},
	{"geometry":{"coordinates":[5.227923,52.102632],"type":"Point"},"properties":{"osm_id":"3837000822","tag":{"amenity":"recycling","recycling:paper":"yes","recycling_type":"container"}},"type":"Feature"},
	{"geometry":{"coordinates":[5.255559,52.101285],"type":"Point"},"properties":{"osm_id":"3915389373","tag":{"amenity":"waste_basket"}},"type":"Feature"},
	{"geometry":{"coordinates":[5.192406,52.072349],"type":"Point"},"properties":{"osm_id":"3933541504","tag":{"amenity":"waste_basket"}},"type":"Feature"},
	{"geometry":{"coordinates":[5.190444,52.072298],"type":"Point"},"properties":{"osm_id":"4191877646","tag":{"amenity":"waste_basket"}},"type":"Feature"},
	{"geometry":{"coordinates":[5.193054,52.071225],"type":"Point"},"properties":{"osm_id":"4191877647","tag":{"amenity":"waste_basket"}},"type":"Feature"},
	{"geometry":{"coordinates":[5.191303,52.072852],"type":"Point"},"properties":{"osm_id":"4191898849","tag":{"amenity":"waste_basket"}},"type":"Feature"},
	{"geometry":{"coordinates":[5.194454,52.071576],"type":"Point"},"properties":{"osm_id":"4191903060","tag":{"amenity":"waste_basket"}},"type":"Feature"},
	{"geometry":{"coordinates":[5.195154,52.069943],"type":"Point"},"properties":{"osm_id":"4191908096","tag":{"amenity":"waste_basket"}},"type":"Feature"},
	{"geometry":{"coordinates":[5.194967,52.070192],"type":"Point"},"properties":{"osm_id":"4191908097","tag":{"amenity":"waste_basket"}},"type":"Feature"},
	{"geometry":{"coordinates":[5.194902,52.07012],"type":"Point"},"properties":{"osm_id":"4191908098","tag":{"amenity":"waste_basket"}},"type":"Feature"},
	{"geometry":{"coordinates":[5.191665,52.069548],"type":"Point"},"properties":{"osm_id":"4191911540","tag":{"amenity":"waste_basket"}},"type":"Feature"},
	{"geometry":{"coordinates":[5.190353,52.068101],"type":"Point"},"properties":{"osm_id":"4192161334","tag":{"amenity":"waste_basket"}},"type":"Feature"},
	{"geometry":{"coordinates":[5.20213,52.067818],"type":"Point"},"properties":{"osm_id":"4193471267","tag":{"amenity":"waste_basket"}},"type":"Feature"},
	{"geometry":{"coordinates":[5.201247,52.068115],"type":"Point"},"properties":{"osm_id":"4193471268","tag":{"amenity":"waste_basket"}},"type":"Feature"},
	{"geometry":{"coordinates":[5.201116,52.068029],"type":"Point"},"properties":{"osm_id":"4193471269","tag":{"amenity":"waste_basket"}},"type":"Feature"},
	{"geometry":{"coordinates":[5.199847,52.067574],"type":"Point"},"properties":{"osm_id":"4193498628","tag":{"amenity":"waste_basket"}},"type":"Feature"},
	{"geometry":{"coordinates":[5.202519,52.067894],"type":"Point"},"properties":{"osm_id":"4193505965","tag":{"amenity":"waste_basket"}},"type":"Feature"},
	{"geometry":{"coordinates":[5.19663,52.069016],"type":"Point"},"properties":{"osm_id":"4194942593","tag":{"amenity":"waste_basket"}},"type":"Feature"},
	{"geometry":{"coordinates":[5.230807,52.089726],"type":"Point"},"properties":{"osm_id":"4237332741","tag":{"amenity":"recycling","recycling:glass_bottles":"yes","recycling_type":"container"}},"type":"Feature"},
	{"geometry":{"coordinates":[5.234723,52.091546],"type":"Point"},"properties":{"osm_id":"4237332742","tag":{"amenity":"recycling","recycling:glass_bottles":"yes","recycling_type":"container"}},"type":"Feature"},
	{"geometry":{"coordinates":[5.21837,52.082903],"type":"Point"},"properties":{"osm_id":"4241721561","tag":{"amenity":"recycling","recycling:glass_bottles":"yes","recycling_type":"container"}},"type":"Feature"},
	{"geometry":{"coordinates":[5.189852,52.070752],"type":"Point"},"properties":{"osm_id":"4256607418","tag":{"amenity":"waste_basket"}},"type":"Feature"},
	{"geometry":{"coordinates":[5.187854,52.070407],"type":"Point"},"properties":{"osm_id":"4256607420","tag":{"amenity":"waste_basket"}},"type":"Feature"},
	{"geometry":{"coordinates":[5.187446,52.071736],"type":"Point"},"properties":{"osm_id":"4256615853","tag":{"amenity":"waste_basket"}},"type":"Feature"},
	{"geometry":{"coordinates":[5.189227,52.067024],"type":"Point"},"properties":{"osm_id":"4256622410","tag":{"amenity":"waste_basket"}},"type":"Feature"},
	{"geometry":{"coordinates":[5.208444,52.068155],"type":"Point"},"properties":{"osm_id":"4258734256","tag":{"amenity":"waste_basket"}},"type":"Feature"},
	{"geometry":{"coordinates":[5.193285,52.070015],"type":"Point"},"properties":{"osm_id":"4266235061","tag":{"amenity":"waste_basket"}},"type":"Feature"},
	{"geometry":{"coordinates":[5.193569,52.068811],"type":"Point"},"properties":{"osm_id":"4266235062","tag":{"amenity":"waste_basket"}},"type":"Feature"},
	{"geometry":{"coordinates":[5.218262,52.062968],"type":"Point"},"properties":{"osm_id":"4275328717","tag":{"amenity":"waste_basket"}},"type":"Feature"},
	{"geometry":{"coordinates":[5.209505,52.06262],"type":"Point"},"properties":{"osm_id":"4275338579","tag":{"amenity":"waste_basket"}},"type":"Feature"},
	{"geometry":{"coordinates":[5.202587,52.066358],"type":"Point"},"properties":{"osm_id":"4275355737","tag":{"amenity":"waste_basket"}},"type":"Feature"},
	{"geometry":{"coordinates":[5.202207,52.066446],"type":"Point"},"properties":{"osm_id":"4275355738","tag":{"amenity":"waste_basket"}},"type":"Feature"},
	{"geometry":{"coordinates":[5.192443,52.066151],"type":"Point"},"properties":{"osm_id":"4275359183","tag":{"amenity":"waste_basket"}},"type":"Feature"},
	{"geometry":{"coordinates":[5.193007,52.066014],"type":"Point"},"properties":{"osm_id":"4275359184","tag":{"amenity":"waste_basket"}},"type":"Feature"},
	{"geometry":{"coordinates":[5.19155,52.065725],"type":"Point"},"properties":{"osm_id":"4275359185","tag":{"amenity":"waste_basket"}},"type":"Feature"},
	{"geometry":{"coordinates":[5.207548,52.066155],"type":"Point"},"properties":{"osm_id":"4275725011","tag":{"amenity":"waste_basket"}},"type":"Feature"},
	{"geometry":{"coordinates":[5.207645,52.065896],"type":"Point"},"properties":{"osm_id":"4275726774","tag":{"amenity":"waste_basket"}},"type":"Feature"},
	{"geometry":{"coordinates":[5.200539,52.067954],"type":"Point"},"properties":{"osm_id":"4275747612","tag":{"amenity":"waste_basket"}},"type":"Feature"},
	{"geometry":{"coordinates":[5.200191,52.067916],"type":"Point"},"properties":{"osm_id":"4275747613","tag":{"amenity":"waste_basket"}},"type":"Feature"},
	{"geometry":{"coordinates":[5.200896,52.067452],"type":"Point"},"properties":{"osm_id":"4275751096","tag":{"amenity":"waste_basket"}},"type":"Feature"},
	{"geometry":{"coordinates":[5.199735,52.067746],"type":"Point"},"properties":{"osm_id":"4275752546","tag":{"amenity":"waste_basket"}},"type":"Feature"},
	{"geometry":{"coordinates":[5.201433,52.063625],"type":"Point"},"properties":{"osm_id":"4275771136","tag":{"amenity":"waste_basket"}},"type":"Feature"},
	{"geometry":{"coordinates":[5.246734,52.098341],"type":"Point"},"properties":{"osm_id":"4302838395","tag":{"amenity":"waste_basket"}},"type":"Feature"},
	{"geometry":{"coordinates":[5.186779,52.075995],"type":"Point"},"properties":{"osm_id":"4326595523","tag":{"amenity":"waste_basket","ref:source":"1243907.0"}},"type":"Feature"},
	{"geometry":{"coordinates":[5.186579,52.076474],"type":"Point"},"properties":{"osm_id":"4326595524","tag":{"amenity":"waste_basket","ref:source":"1243908.0"}},"type":"Feature"},
	{"geometry":{"coordinates":[5.189307,52.077255],"type":"Point"},"properties":{"osm_id":"4326595527","tag":{"amenity":"waste_basket","ref:source":"1243923.0"}},"type":"Feature"},
	{"geometry":{"coordinates":[5.1863,52.082054],"type":"Point"},"properties":{"osm_id":"4326595552","tag":{"amenity":"waste_basket","ref:source":"1244058.0"}},"type":"Feature"},
	{"geometry":{"coordinates":[5.194025,52.071061],"type":"Point"},"properties":{"osm_id":"4376038635","tag":{"amenity":"waste_basket"}},"type":"Feature"},
	{"geometry":{"coordinates":[5.194522,52.063663],"type":"Point"},"properties":{"osm_id":"4487645315","tag":{"amenity":"waste_basket"}},"type":"Feature"},
	{"geometry":{"coordinates":[5.207996,52.067732],"type":"Point"},"properties":{"osm_id":"4496577169","tag":{"amenity":"waste_basket"}},"type":"Feature"},
	{"geometry":{"coordinates":[5.194546,52.063667],"type":"Point"},"properties":{"osm_id":"4509212208","tag":{"amenity":"waste_basket"}},"type":"Feature"},
	{"geometry":{"coordinates":[5.19711,52.067482],"type":"Point"},"properties":{"osm_id":"4510003310","tag":{"amenity":"waste_basket"}},"type":"Feature"},
	{"geometry":{"coordinates":[5.21268,52.069607],"type":"Point"},"properties":{"osm_id":"4510214415","tag":{"amenity":"waste_basket"}},"type":"Feature"},
	{"geometry":{"coordinates":[5.241232,52.091613],"type":"Point"},"properties":{"osm_id":"4577774871","tag":{"amenity":"recycling","recycling:beverage_cartons":"yes","recycling:glass_bottles":"yes","recycling:paper":"yes","recycling:plastic":"yes","recycling:plastic_packaging":"yes","recycling_type":"container","website":"https://www.rmn.nl/"}},"type":"Feature"},
	{"geometry":{"coordinates":[5.225901,52.054187],"type":"Point"},"properties":{"highway":"traffic_signals","osm_id":"4592255804","tag":{"traffic_signals":"signal","traffic_signals:direction":"backward"}},"type":"Feature"},
	{"geometry":{"coordinates":[5.226102,52.054025],"type":"Point"},"properties":{"highway":"traffic_signals","osm_id":"4592255808","tag":{"traffic_signals":"signal","traffic_signals:direction":"forward"}},"type":"Feature"},
	{"geometry":{"coordinates":[5.2073,52.062093],"type":"Point"},"properties":{"osm_id":"4614354910","tag":{"amenity":"waste_basket"}},"type":"Feature"},
	{"geometry":{"coordinates":[5.225474,52.054462],"type":"Point"},"properties":{"osm_id":"4614359893","tag":{"amenity":"waste_basket"}},"type":"Feature"},
	{"geometry":{"coordinates":[5.238655,52.052924],"type":"Point"},"properties":{"osm_id":"4614368317","tag":{"amenity":"waste_basket"}},"type":"Feature"},
	{"geometry":{"coordinates":[5.23887,52.052998],"type":"Point"},"properties":{"osm_id":"4614368318","tag":{"amenity":"waste_basket"}},"type":"Feature"},
	{"geometry":{"coordinates":[5.234723,52.054224],"type":"Point"},"properties":{"osm_id":"4614372434","tag":{"amenity":"waste_basket"}},"type":"Feature"},
	{"geometry":{"coordinates":[5.234792,52.054284],"type":"Point"},"properties":{"osm_id":"4614372435","tag":{"amenity":"waste_basket"}},"type":"Feature"},
	{"geometry":{"coordinates":[5.222526,52.07837],"type":"Point"},"properties":{"osm_id":"4756600387","tag":{"amenity":"waste_basket"}},"type":"Feature"},
	{"geometry":{"coordinates":[5.199139,52.067809],"type":"Point"},"properties":{"osm_id":"4826608452","tag":{"amenity":"recycling","recycling:glass_bottles":"yes","recycling_type":"container"}},"type":"Feature"},
	{"geometry":{"coordinates":[5.196655,52.0731],"type":"Point"},"properties":{"osm_id":"4839890758","tag":{"amenity":"waste_basket"}},"type":"Feature"},
	{"geometry":{"coordinates":[5.203707,52.06918],"type":"Point"},"properties":{"osm_id":"4894380586","tag":{"amenity":"waste_basket"}},"type":"Feature"},
	{"geometry":{"coordinates":[5.23621,52.079849],"type":"Point"},"properties":{"osm_id":"5210628415","tag":{"amenity":"waste_basket"}},"type":"Feature"},
	{"geometry":{"coordinates":[5.245644,52.102272],"type":"Point"},"properties":{"osm_id":"5338308532","tag":{"amenity":"recycling","recycling:textile":"yes","recycling_type":"container"}},"type":"Feature"},
	{"geometry":{"coordinates":[5.245622,52.102267],"type":"Point"},"properties":{"osm_id":"5338308533","tag":{"amenity":"recycling","recycling:paper":"yes","recycling_type":"container"}},"type":"Feature"},
	{"geometry":{"coordinates":[5.245598,52.102261],"type":"Point"},"properties":{"osm_id":"5338308534","tag":{"amenity":"recycling","recycling:paper":"yes","recycling_type":"container"}},"type":"Feature"},
	{"geometry":{"coordinates":[5.245628,52.102255],"type":"Point"},"properties":{"osm_id":"5338308535","tag":{"amenity":"recycling","recycling:glass_bottles":"yes","recycling_type":"container"}},"type":"Feature"},
	{"geometry":{"coordinates":[5.245604,52.102249],"type":"Point"},"properties":{"osm_id":"5338308536","tag":{"amenity":"recycling","recycling:glass_bottles":"yes","recycling_type":"container"}},"type":"Feature"},
	{"geometry":{"coordinates":[5.245536,52.102234],"type":"Point"},"properties":{"osm_id":"5338308537","tag":{"amenity":"recycling","recycling:plastic":"yes","recycling_type":"container"}},"type":"Feature"},
	{"geometry":{"coordinates":[5.245493,52.102224],"type":"Point"},"properties":{"osm_id":"5338308538","tag":{"amenity":"recycling","recycling:glass_bottles":"yes","recycling_type":"container"}},"type":"Feature"},
	{"geometry":{"coordinates":[5.245362,52.102214],"type":"Point"},"properties":{"osm_id":"5338308539","tag":{"amenity":"waste_basket"}},"type":"Feature"},
	{"geometry":{"coordinates":[5.189264,52.071985],"type":"Point"},"properties":{"osm_id":"5599186385","tag":{"amenity":"waste_basket"}},"type":"Feature"},
	{"geometry":{"coordinates":[5.199101,52.067912],"type":"Point"},"properties":{"osm_id":"5599936305","tag":{"amenity":"recycling","recycling:clothes":"yes","recycling_type":"container"}},"type":"Feature"},
	{"geometry":{"coordinates":[5.195928,52.063663],"type":"Point"},"properties":{"osm_id":"5661842192","tag":{"amenity":"waste_basket"}},"type":"Feature"},
	{"geometry":{"coordinates":[5.196303,52.063528],"type":"Point"},"properties":{"osm_id":"5661843981","tag":{"amenity":"waste_basket"}},"type":"Feature"},
	{"geometry":{"coordinates":[5.200538,52.067383],"type":"Point"},"properties":{"osm_id":"5715124124","tag":{"amenity":"waste_basket"}},"type":"Feature"},
	{"geometry":{"coordinates":[5.200712,52.06739],"type":"Point"},"properties":{"osm_id":"5715124747","tag":{"amenity":"waste_basket"}},"type":"Feature"},
	{"geometry":{"coordinates":[5.238671,52.089054],"type":"Point"},"properties":{"osm_id":"5759550856","tag":{"amenity":"recycling","recycling:waste":"yes","recycling_type":"container","start_date":"2015","website":"https://www.rmn.nl/"}},"type":"Feature"},
	{"geometry":{"coordinates":[5.240654,52.087875],"type":"Point"},"properties":{"osm_id":"5759850198","tag":{"amenity":"waste_basket","start_date":"07-2018"}},"type":"Feature"},
	{"geometry":{"coordinates":[5.241316,52.088584],"type":"Point"},"properties":{"osm_id":"5759850199","tag":{"amenity":"waste_basket"}},"type":"Feature"},
	{"geometry":{"coordinates":[5.240181,52.087552],"type":"Point"},"properties":{"osm_id":"5759850200","tag":{"amenity":"waste_basket"}},"type":"Feature"},
	{"geometry":{"coordinates":[5.238459,52.08897],"type":"Point"},"properties":{"osm_id":"5759915423","tag":{"amenity":"waste_basket"}},"type":"Feature"},
	{"geometry":{"coordinates":[5.238931,52.090515],"type":"Point"},"properties":{"osm_id":"5759915424","tag":{"amenity":"waste_basket"}},"type":"Feature"},
	{"geometry":{"coordinates":[5.241323,52.087633],"type":"Point"},"properties":{"osm_id":"5760192184","tag":{"amenity":"recycling","recycling:paper":"yes","recycling:plastic":"yes","recycling_type":"container","website":"https://www.rmn.nl/"}},"type":"Feature"},
	{"geometry":{"coordinates":[5.23954,52.089626],"type":"Point"},"properties":{"osm_id":"5760192185","tag":{"amenity":"recycling","recycling:waste":"yes","recycling_type":"container","website":"https://www.rmn.nl/"}},"type":"Feature"},
	{"geometry":{"coordinates":[5.23976,52.090857],"type":"Point"},"properties":{"osm_id":"5760192186","tag":{"amenity":"waste_basket","website":"https://www.rmn.nl/"}},"type":"Feature"},
	{"geometry":{"coordinates":[5.239772,52.087039],"type":"Point"},"properties":{"osm_id":"5761683316","tag":{"amenity":"waste_basket"}},"type":"Feature"},
	{"geometry":{"coordinates":[5.239953,52.086723],"type":"Point"},"properties":{"osm_id":"5761683317","tag":{"amenity":"waste_basket"}},"type":"Feature"},
	{"geometry":{"coordinates":[5.239642,52.086515],"type":"Point"},"properties":{"osm_id":"5761683318","tag":{"amenity":"waste_basket"}},"type":"Feature"},
	{"geometry":{"coordinates":[5.240175,52.087017],"type":"Point"},"properties":{"osm_id":"5761683319","tag":{"amenity":"waste_basket"}},"type":"Feature"},
	{"geometry":{"coordinates":[5.199967,52.067847],"type":"Point"},"properties":{"osm_id":"5792802422","tag":{"amenity":"waste_basket"}},"type":"Feature"},
	{"geometry":{"coordinates":[5.194823,52.062797],"type":"Point"},"properties":{"osm_id":"6655400855","tag":{"amenity":"waste_basket"}},"type":"Feature"},
	{"geometry":{"coordinates":[5.194655,52.062674],"type":"Point"},"properties":{"osm_id":"6655405350","tag":{"amenity":"waste_basket"}},"type":"Feature"},
	{"geometry":{"coordinates":[5.194467,52.063692],"type":"Point"},"properties":{"osm_id":"6858680553","tag":{"amenity":"waste_basket"}},"type":"Feature"},
	{"geometry":{"coordinates":[5.206232,52.063438],"type":"Point"},"properties":{"osm_id":"6858725852","tag":{"amenity":"waste_basket"}},"type":"Feature"},
	{"geometry":{"coordinates":[5.187785,52.066564],"type":"Point"},"properties":{"osm_id":"7407151240","tag":{"amenity":"waste_basket"}},"type":"Feature"},
	{"geometry":{"coordinates":[5.198252,52.06895],"type":"Point"},"properties":{"osm_id":"7433551522","tag":{"amenity":"waste_basket"}},"type":"Feature"},
	{"geometry":{"coordinates":[5.246471,52.090404],"type":"Point"},"properties":{"osm_id":"7515328110","tag":{"amenity":"waste_basket"}},"type":"Feature"},
	{"geometry":{"coordinates":[5.247706,52.09061],"type":"Point"},"properties":{"osm_id":"7515342736","tag":{"amenity":"waste_basket"}},"type":"Feature"},
	{"geometry":{"coordinates":[5.189611,52.071291],"type":"Point"},"properties":{"osm_id":"7614539970","tag":{"amenity":"waste_basket"}},"type":"Feature"},
	{"geometry":{"coordinates":[5.194513,52.065827],"type":"Point"},"properties":{"osm_id":"7792180952","tag":{"amenity":"waste_basket"}},"type":"Feature"},
	{"geometry":{"coordinates":[5.19989,52.066464],"type":"Point"},"properties":{"osm_id":"7801786141","tag":{"amenity":"waste_basket"}},"type":"Feature"}
]
}
