{
"type": "FeatureCollection",
"features": [
	{"geometry":{"coordinates":[5.267129,51.694139],"type":"Point"},"properties":{"name":"Helftheuvel","osm_id":"1004232112","tag":{"amenity":"recycling","recycling:clothes":"yes","recycling:glass":"yes","recycling:plastic":"yes","recycling_type":"container"}},"type":"Feature"},
	{"geometry":{"coordinates":[5.199928,51.710222],"type":"Point"},"properties":{"osm_id":"1106640451","tag":{"amenity":"recycling","recycling:glass":"yes","recycling_type":"container"}},"type":"Feature"},
	{"geometry":{"coordinates":[5.26105,51.723192],"type":"Point"},"properties":{"osm_id":"3195623653","tag":{"amenity":"recycling","location":"underground","recycling:glass":"yes","recycling_type":"container"}},"type":"Feature"},
	{"geometry":{"coordinates":[5.271157,51.689454],"type":"Point"},"properties":{"osm_id":"3215650563","tag":{"amenity":"waste_disposal"}},"type":"Feature"},
	{"geometry":{"coordinates":[5.269238,51.69067],"type":"Point"},"properties":{"osm_id":"3215650570","tag":{"amenity":"waste_disposal"}},"type":"Feature"},
	{"geometry":{"coordinates":[5.272973,51.693102],"type":"Point"},"properties":{"osm_id":"3215650593","tag":{"amenity":"waste_disposal"}},"type":"Feature"},
	{"geometry":{"coordinates":[5.260009,51.693306],"type":"Point"},"properties":{"osm_id":"3215650646","tag":{"amenity":"waste_disposal"}},"type":"Feature"},
	{"geometry":{"coordinates":[5.272009,51.693508],"type":"Point"},"properties":{"osm_id":"3215650649","tag":{"amenity":"waste_disposal"}},"type":"Feature"},
	{"geometry":{"coordinates":[5.268749,51.693792],"type":"Point"},"properties":{"osm_id":"3215650661","tag":{"amenity":"recycling","recycling:glass":"yes","recycling:plastic":"yes","recycling_type":"container"}},"type":"Feature"},
	{"geometry":{"coordinates":[5.271245,51.693913],"type":"Point"},"properties":{"osm_id":"3215650664","tag":{"amenity":"waste_disposal"}},"type":"Feature"},
	{"geometry":{"coordinates":[5.268408,51.6946],"type":"Point"},"properties":{"osm_id":"3215650684","tag":{"amenity":"waste_disposal"}},"type":"Feature"},
	{"geometry":{"coordinates":[5.269881,51.695039],"type":"Point"},"properties":{"osm_id":"3215650705","tag":{"amenity":"waste_disposal"}},"type":"Feature"},
	{"geometry":{"coordinates":[5.257167,51.695085],"type":"Point"},"properties":{"osm_id":"3215650709","tag":{"amenity":"waste_disposal"}},"type":"Feature"},
	{"geometry":{"coordinates":[5.270615,51.695162],"type":"Point"},"properties":{"osm_id":"3215650712","tag":{"amenity":"waste_disposal"}},"type":"Feature"},
	{"geometry":{"coordinates":[5.25265,51.695364],"type":"Point"},"properties":{"osm_id":"3215650724","tag":{"amenity":"recycling","location":"underground","recycling:glass":"yes","recycling_type":"container"}},"type":"Feature"},
	{"geometry":{"coordinates":[5.251276,51.695281],"type":"Point"},"properties":{"osm_id":"3215650726","tag":{"amenity":"waste_disposal"}},"type":"Feature"},
	{"geometry":{"coordinates":[5.266829,51.695814],"type":"Point"},"properties":{"osm_id":"3215650738","tag":{"amenity":"waste_disposal"}},"type":"Feature"},
	{"geometry":{"coordinates":[5.266946,51.697052],"type":"Point"},"properties":{"osm_id":"3215650770","tag":{"amenity":"recycling","recycling:clothes":"yes","recycling_type":"container"}},"type":"Feature"},
	{"geometry":{"coordinates":[5.267118,51.697081],"type":"Point"},"properties":{"osm_id":"3215650772","tag":{"amenity":"recycling","recycling:glass":"yes","recycling:plastic":"yes","recycling_type":"container"}},"type":"Feature"},
	{"geometry":{"coordinates":[5.263786,51.699074],"type":"Point"},"properties":{"osm_id":"3215650785","tag":{"amenity":"waste_disposal"}},"type":"Feature"},
	{"geometry":{"coordinates":[5.260902,51.700766],"type":"Point"},"properties":{"osm_id":"3215650786","tag":{"amenity":"waste_disposal"}},"type":"Feature"},
	{"geometry":{"coordinates":[5.259069,51.701548],"type":"Point"},"properties":{"osm_id":"3215650787","tag":{"amenity":"waste_disposal"}},"type":"Feature"},
	{"geometry":{"coordinates":[5.220773,51.693727],"type":"Point"},"properties":{"osm_id":"3452765293","tag":{"amenity":"recycling","recycling:glass_bottles":"yes","recycling_type":"container"}},"type":"Feature"},
	{"geometry":{"coordinates":[5.22081,51.693731],"type":"Point"},"properties":{"osm_id":"3452765294","tag":{"amenity":"recycling","recycling:clothes":"yes","recycling_type":"container"}},"type":"Feature"},
	{"geometry":{"coordinates":[5.208942,51.695019],"type":"Point"},"properties":{"osm_id":"3452765295","tag":{"amenity":"recycling","recycling:glass_bottles":"yes","recycling_type":"container"}},"type":"Feature"},
	{"geometry":{"coordinates":[5.208085,51.693333],"type":"Point"},"properties":{"osm_id":"3452765296","tag":{"amenity":"recycling","recycling:clothes":"yes","recycling_type":"container"}},"type":"Feature"},
	{"geometry":{"coordinates":[5.234285,51.702799],"type":"Point"},"properties":{"osm_id":"3814306267","tag":{"amenity":"waste_basket"}},"type":"Feature"},
	{"geometry":{"coordinates":[5.248763,51.703292],"type":"Point"},"properties":{"osm_id":"4367945305","tag":{"amenity":"waste_basket"}},"type":"Feature"},
	{"geometry":{"coordinates":[5.249171,51.703403],"type":"Point"},"properties":{"osm_id":"4367945306","tag":{"amenity":"waste_basket"}},"type":"Feature"},
	{"geometry":{"coordinates":[5.249588,51.703519],"type":"Point"},"properties":{"osm_id":"4367945307","tag":{"amenity":"waste_basket"}},"type":"Feature"},
	{"geometry":{"coordinates":[5.208481,51.695023],"type":"Point"},"properties":{"osm_id":"4870670356","tag":{"amenity":"waste_disposal","fee":"yes","waste":"trash"}},"type":"Feature"},
	{"geometry":{"coordinates":[5.208972,51.69502],"type":"Point"},"properties":{"osm_id":"5265979507","tag":{"amenity":"waste_disposal","location":"underground","waste":"trash"}},"type":"Feature"},
	{"geometry":{"coordinates":[5.201066,51.700464],"type":"Point"},"properties":{"osm_id":"5265979509","tag":{"amenity":"waste_disposal","location":"underground","waste":"trash"}},"type":"Feature"},
	{"geometry":{"coordinates":[5.220003,51.696322],"type":"Point"},"properties":{"osm_id":"5282958786","tag":{"amenity":"recycling","location":"underground","recycling:glass_bottles":"yes","recycling_type":"container"}},"type":"Feature"},
	{"geometry":{"coordinates":[5.220041,51.696311],"type":"Point"},"properties":{"osm_id":"5282958787","tag":{"access":"private","amenity":"waste_disposal","location":"underground","waste":"trash"}},"type":"Feature"},
	{"geometry":{"coordinates":[5.22011,51.696383],"type":"Point"},"properties":{"osm_id":"5305410124","tag":{"amenity":"recycling","operator":"Twiddus","recycling:clothes":"yes","recycling_type":"container"}},"type":"Feature"},
	{"geometry":{"coordinates":[5.194184,51.691897],"type":"Point"},"properties":{"osm_id":"5934611182","tag":{"amenity":"waste_disposal"}},"type":"Feature"},
	{"geometry":{"coordinates":[5.220112,51.69623],"type":"Point"},"properties":{"osm_id":"6204198812","tag":{"amenity":"waste_basket"}},"type":"Feature"},
	{"geometry":{"coordinates":[5.214421,51.698775],"type":"Point"},"properties":{"osm_id":"6239959460","tag":{"amenity":"waste_disposal","fee":"yes","location":"underground","waste":"trash"}},"type":"Feature"},
	{"geometry":{"coordinates":[5.201908,51.69185],"type":"Point"},"properties":{"osm_id":"6257996193","tag":{"amenity":"waste_disposal","fee":"yes","location":"underground","waste":"trash"}},"type":"Feature"},
	{"geometry":{"coordinates":[5.208827,51.69985],"type":"Point"},"properties":{"osm_id":"6267046526","tag":{"amenity":"waste_basket","waste":"dog_excrement"}},"type":"Feature"},
	{"geometry":{"coordinates":[5.203982,51.695834],"type":"Point"},"properties":{"osm_id":"6321609230","tag":{"amenity":"waste_disposal","location":"underground","waste":"trash"}},"type":"Feature"},
	{"geometry":{"coordinates":[5.222407,51.696942],"type":"Point"},"properties":{"osm_id":"6327251685","tag":{"amenity":"waste_disposal","waste":"dog_excrement"}},"type":"Feature"},
	{"geometry":{"coordinates":[5.224628,51.693468],"type":"Point"},"properties":{"osm_id":"6470150650","tag":{"amenity":"waste_basket","waste":"dog_excrement"}},"type":"Feature"},
	{"geometry":{"coordinates":[5.224964,51.693976],"type":"Point"},"properties":{"osm_id":"6470152767","tag":{"amenity":"waste_basket"}},"type":"Feature"},
	{"geometry":{"coordinates":[5.22445,51.694111],"type":"Point"},"properties":{"osm_id":"6470152768","tag":{"amenity":"waste_basket"}},"type":"Feature"},
	{"geometry":{"coordinates":[5.221387,51.69346],"type":"Point"},"properties":{"osm_id":"6524148270","tag":{"access":"private","amenity":"waste_disposal","fee":"yes","location":"underground","waste":"trash"}},"type":"Feature"},
	{"geometry":{"coordinates":[5.221348,51.693445],"type":"Point"},"properties":{"osm_id":"6524148271","tag":{"amenity":"recycling","location":"underground","recycling:glass_bottles":"yes","recycling_type":"container"}},"type":"Feature"},
	{"geometry":{"coordinates":[5.202631,51.709982],"type":"Point"},"properties":{"osm_id":"6583446034","tag":{"amenity":"recycling","recycling:waste":"yes","recycling_type":"container"}},"type":"Feature"},
	{"geometry":{"coordinates":[5.252633,51.695373],"type":"Point"},"properties":{"osm_id":"7072709101","tag":{"amenity":"recycling","location":"underground","recycling:cartons":"yes","recycling:plastic":"yes","recycling_type":"container"}},"type":"Feature"},
	{"geometry":{"coordinates":[5.25281,51.721582],"type":"Point"},"properties":{"osm_id":"7072709102","tag":{"amenity":"waste_disposal","location":"underground"}},"type":"Feature"},
	{"geometry":{"coordinates":[5.252825,51.721566],"type":"Point"},"properties":{"osm_id":"7072709103","tag":{"amenity":"waste_disposal","location":"underground"}},"type":"Feature"},
	{"geometry":{"coordinates":[5.252847,51.721573],"type":"Point"},"properties":{"osm_id":"7072709104","tag":{"amenity":"recycling","location":"underground","recycling:paper":"yes","recycling_type":"container"}},"type":"Feature"},
	{"geometry":{"coordinates":[5.252833,51.721588],"type":"Point"},"properties":{"osm_id":"7072709105","tag":{"amenity":"recycling","location":"underground","recycling:cartons":"yes","recycling:plastic":"yes","recycling_type":"container"}},"type":"Feature"},
	{"geometry":{"coordinates":[5.26119,51.723339],"type":"Point"},"properties":{"osm_id":"7073599454","tag":{"amenity":"recycling","recycling:clothes":"yes","recycling_type":"container"}},"type":"Feature"},
	{"geometry":{"coordinates":[5.26117,51.723324],"type":"Point"},"properties":{"osm_id":"7073599455","tag":{"amenity":"recycling","recycling:clothes":"yes","recycling_type":"container"}},"type":"Feature"},
	{"geometry":{"coordinates":[5.261078,51.723198],"type":"Point"},"properties":{"osm_id":"7073599456","tag":{"amenity":"recycling","location":"underground","recycling:glass":"yes","recycling_type":"container"}},"type":"Feature"},
	{"geometry":{"coordinates":[5.261094,51.723158],"type":"Point"},"properties":{"osm_id":"7073599457","tag":{"amenity":"recycling","location":"underground","recycling:cartons":"yes","recycling:plastic":"yes","recycling_type":"container"}},"type":"Feature"},
	{"geometry":{"coordinates":[5.27057,51.718382],"type":"Point"},"properties":{"osm_id":"7073599458","tag":{"amenity":"recycling","recycling:clothes":"yes","recycling_type":"container"}},"type":"Feature"},
	{"geometry":{"coordinates":[5.270672,51.718301],"type":"Point"},"properties":{"osm_id":"7073599459","tag":{"amenity":"recycling","recycling:cartons":"yes","recycling:plastic":"yes","recycling_type":"container"}},"type":"Feature"},
	{"geometry":{"coordinates":[5.270636,51.718327],"type":"Point"},"properties":{"osm_id":"7073599460","tag":{"amenity":"recycling","recycling:glass":"yes","recycling_type":"container"}},"type":"Feature"},
	{"geometry":{"coordinates":[5.270594,51.718366],"type":"Point"},"properties":{"osm_id":"7073599461","tag":{"amenity":"waste_basket"}},"type":"Feature"},
	{"geometry":{"coordinates":[5.262254,51.723145],"type":"Point"},"properties":{"osm_id":"7666561503","tag":{"amenity":"waste_basket"}},"type":"Feature"},
	{"geometry":{"coordinates":[5.262834,51.724428],"type":"Point"},"properties":{"osm_id":"7666564387","tag":{"amenity":"waste_basket"}},"type":"Feature"},
	{"geometry":{"coordinates":[5.266045,51.721911],"type":"Point"},"properties":{"osm_id":"7666581665","tag":{"amenity":"waste_basket"}},"type":"Feature"},
	{"geometry":{"coordinates":[5.199893,51.710218],"type":"Point"},"properties":{"osm_id":"7741952445","tag":{"amenity":"recycling","operator":"Twiddus","recycling:clothes":"yes","recycling_type":"container"}},"type":"Feature"},
	{"geometry":{"coordinates":[5.195972,51.691297],"type":"Point"},"properties":{"osm_id":"7778161028","tag":{"amenity":"recycling","operator":"Twiddus","recycling:clothes":"yes","recycling_type":"container"}},"type":"Feature"}
]
}
