{
"type": "FeatureCollection",
"features": [
	{"geometry":{"coordinates":[5.194161,51.607509],"type":"Point"},"properties":{"osm_id":"3636376945","tag":{"amenity":"waste_basket"}},"type":"Feature"},
	{"geometry":{"coordinates":[5.201644,51.58021],"type":"Point"},"properties":{"osm_id":"4610791246","tag":{"amenity":"recycling","recycling:glass_bottles":"yes","recycling_type":"container"}},"type":"Feature"},
	{"geometry":{"coordinates":[5.201635,51.580234],"type":"Point"},"properties":{"osm_id":"4612115974","tag":{"amenity":"recycling","recycling:clothes":"yes","recycling_type":"container"}},"type":"Feature"},
	{"geometry":{"coordinates":[5.209977,51.583424],"type":"Point"},"properties":{"osm_id":"4625697896","tag":{"amenity":"recycling","recycling:glass":"yes","recycling_type":"container"}},"type":"Feature"},
	{"geometry":{"coordinates":[5.209954,51.583443],"type":"Point"},"properties":{"osm_id":"4625697897","tag":{"amenity":"recycling","recycling:clothes":"yes","recycling_type":"container"}},"type":"Feature"},
	{"geometry":{"coordinates":[5.194095,51.579471],"type":"Point"},"properties":{"osm_id":"4674498555","tag":{"amenity":"recycling","recycling:glass":"yes","recycling_type":"container"}},"type":"Feature"},
	{"geometry":{"coordinates":[5.194116,51.579472],"type":"Point"},"properties":{"osm_id":"4674498556","tag":{"amenity":"recycling","recycling:glass":"yes","recycling_type":"container"}},"type":"Feature"},
	{"geometry":{"coordinates":[5.208898,51.580801],"type":"Point"},"properties":{"osm_id":"4685954994","tag":{"amenity":"recycling","recycling:glass":"yes","recycling_type":"container","source_date":"2017-02-14"}},"type":"Feature"},
	{"geometry":{"coordinates":[5.235253,51.593907],"type":"Point"},"properties":{"osm_id":"6135719587","tag":{"amenity":"waste_basket"}},"type":"Feature"},
	{"geometry":{"coordinates":[5.234715,51.594276],"type":"Point"},"properties":{"osm_id":"6135719597","tag":{"amenity":"waste_basket"}},"type":"Feature"},
	{"geometry":{"coordinates":[5.227665,51.59978],"type":"Point"},"properties":{"osm_id":"6301727801","tag":{"amenity":"waste_basket"}},"type":"Feature"},
	{"geometry":{"coordinates":[5.224202,51.603318],"type":"Point"},"properties":{"osm_id":"6919690436","tag":{"amenity":"waste_basket"}},"type":"Feature"}
]
}
