{
"type": "FeatureCollection",
"features": [
	{"geometry":{"coordinates":[5.260717,50.765363],"type":"Point"},"properties":{"osm_id":"2132380605","tag":{"amenity":"waste_basket"}},"type":"Feature"},
	{"geometry":{"coordinates":[5.266489,50.791577],"type":"Point"},"properties":{"osm_id":"2132466399","tag":{"amenity":"waste_basket"}},"type":"Feature"},
	{"geometry":{"coordinates":[5.264621,50.773403],"type":"Point"},"properties":{"osm_id":"2277559757","tag":{"amenity":"waste_basket"}},"type":"Feature"},
	{"geometry":{"coordinates":[5.263333,50.759584],"type":"Point"},"properties":{"osm_id":"2277629264","tag":{"amenity":"waste_basket"}},"type":"Feature"},
	{"geometry":{"coordinates":[5.225266,50.78186],"type":"Point"},"properties":{"osm_id":"2550846498","tag":{"amenity":"waste_basket"}},"type":"Feature"},
	{"geometry":{"coordinates":[5.258798,50.748623],"type":"Point"},"properties":{"osm_id":"2658314476","tag":{"amenity":"waste_basket"}},"type":"Feature"},
	{"geometry":{"coordinates":[5.26799,50.747455],"type":"Point"},"properties":{"osm_id":"2658425436","tag":{"amenity":"waste_basket"}},"type":"Feature"},
	{"geometry":{"coordinates":[5.268303,50.769563],"type":"Point"},"properties":{"osm_id":"2662030531","tag":{"amenity":"waste_basket"}},"type":"Feature"},
	{"geometry":{"coordinates":[5.261287,50.741017],"type":"Point"},"properties":{"osm_id":"2664025402","tag":{"amenity":"recycling","recycling:glass_bottles":"yes","recycling_type":"container"}},"type":"Feature"},
	{"geometry":{"coordinates":[5.265857,50.743958],"type":"Point"},"properties":{"osm_id":"2664025476","tag":{"amenity":"waste_basket"}},"type":"Feature"},
	{"geometry":{"coordinates":[5.250668,50.738939],"type":"Point"},"properties":{"osm_id":"2664159140","tag":{"amenity":"waste_basket"}},"type":"Feature"},
	{"geometry":{"coordinates":[5.252207,50.740742],"type":"Point"},"properties":{"osm_id":"2664159154","tag":{"amenity":"waste_basket"}},"type":"Feature"},
	{"geometry":{"coordinates":[5.236828,50.751874],"type":"Point"},"properties":{"osm_id":"2759445645","tag":{"amenity":"waste_basket"}},"type":"Feature"},
	{"geometry":{"coordinates":[5.228207,50.791945],"type":"Point"},"properties":{"osm_id":"2872664622","tag":{"amenity":"waste_basket"}},"type":"Feature"},
	{"geometry":{"coordinates":[5.254384,50.763968],"type":"Point"},"properties":{"osm_id":"3966015890","tag":{"amenity":"recycling","operator":"Inzamelpunt in Vlaanderen","recycling:clothes":"yes","recycling_type":"container"}},"type":"Feature"},
	{"geometry":{"coordinates":[5.250956,50.767848],"type":"Point"},"properties":{"osm_id":"4207081933","tag":{"amenity":"waste_basket"}},"type":"Feature"},
	{"geometry":{"coordinates":[5.208591,50.784419],"type":"Point"},"properties":{"osm_id":"6092685887","tag":{"amenity":"waste_basket"}},"type":"Feature"}
]
}
