{
"type": "FeatureCollection",
"features": [
	{"geometry":{"coordinates":[5.233306,50.520817],"type":"Point"},"properties":{"name":"Bulles \u00c3\u00a0 verre","osm_id":"1222392866","tag":{"amenity":"recycling","recycling:glass":"yes","recycling_type":"container"}},"type":"Feature"},
	{"geometry":{"coordinates":[5.230648,50.565514],"type":"Point"},"properties":{"name":"Bulle \u00c3\u00a0 vetements","osm_id":"2790707274","tag":{"amenity":"recycling","lbcs:function:code":"Clothes container","recycling:cans":"no","recycling:clothes":"yes","recycling:glass":"no","recycling:paper":"no"}},"type":"Feature"},
	{"geometry":{"coordinates":[5.23078,50.56531],"type":"Point"},"properties":{"name":"Bulles \u00c3\u00a0 verre","osm_id":"2810798741","tag":{"amenity":"recycling","recycling:cans":"no","recycling:clothes":"no","recycling:glass":"yes","recycling:paper":"no"}},"type":"Feature"},
	{"geometry":{"coordinates":[5.236113,50.551302],"type":"Point"},"properties":{"name":"Oxfam clothes container","osm_id":"2965962872","tag":{"amenity":"recycling","recycling:clothes":"yes","recycling_type":"container"}},"type":"Feature"},
	{"geometry":{"coordinates":[5.235619,50.56209],"type":"Point"},"properties":{"name":"Bulles \u00c3\u00a0 verre","osm_id":"2965965477","tag":{"amenity":"recycling","recycling:cans":"no","recycling:clothes":"no","recycling:glass":"yes","recycling:paper":"no"}},"type":"Feature"},
	{"geometry":{"coordinates":[5.236152,50.546907],"type":"Point"},"properties":{"name":"Bulle \u00c3\u00a0 v\u00c3\u00aatements","osm_id":"2975406647","tag":{"amenity":"recycling","recycling:cans":"no","recycling:clothes":"yes","recycling:glass":"no","recycling:paper":"no"}},"type":"Feature"},
	{"geometry":{"coordinates":[5.23347,50.546096],"type":"Point"},"properties":{"osm_id":"2975410146","tag":{"amenity":"waste_basket"}},"type":"Feature"},
	{"geometry":{"coordinates":[5.225936,50.562864],"type":"Point"},"properties":{"osm_id":"2976290855","tag":{"amenity":"waste_basket"}},"type":"Feature"},
	{"geometry":{"coordinates":[5.238251,50.55163],"type":"Point"},"properties":{"name":"Bulle \u00c3\u00a0 verre","osm_id":"2977788188","tag":{"amenity":"recycling","bin":"yes","recycling:cans":"no","recycling:clothes":"no","recycling:glass":"yes","recycling:glass_bottles":"yes","recycling:paper":"no","recycling:plastic":"no","recycling_type":"container"}},"type":"Feature"},
	{"geometry":{"coordinates":[5.193242,50.553259],"type":"Point"},"properties":{"name":"Bulle \u00c3\u00a0 verre","osm_id":"2986656168","tag":{"amenity":"recycling","recycling:cans":"no","recycling:clothes":"yes","recycling:glass":"yes","recycling:paper":"no"}},"type":"Feature"},
	{"geometry":{"coordinates":[5.224366,50.54349],"type":"Point"},"properties":{"name":"Bulle \u00c3\u00a0 verre","osm_id":"2986684762","tag":{"amenity":"recycling","amenity_1":"waste_basket","recycling:cans":"no","recycling:clothes":"no","recycling:glass":"yes","recycling:paper":"no"}},"type":"Feature"},
	{"geometry":{"coordinates":[5.206029,50.538505],"type":"Point"},"properties":{"name":"Bulle \u00c3\u00a0 verre","osm_id":"2986698082","tag":{"amenity":"recycling","recycling:cans":"no","recycling:glass":"yes","recycling:paper":"no"}},"type":"Feature"},
	{"geometry":{"coordinates":[5.233284,50.526578],"type":"Point"},"properties":{"osm_id":"3015229076","tag":{"amenity":"waste_basket"}},"type":"Feature"},
	{"geometry":{"coordinates":[5.229811,50.53663],"type":"Point"},"properties":{"osm_id":"3016662901","tag":{"amenity":"waste_basket"}},"type":"Feature"},
	{"geometry":{"coordinates":[5.215704,50.535862],"type":"Point"},"properties":{"osm_id":"3016969179","tag":{"amenity":"waste_basket"}},"type":"Feature"},
	{"geometry":{"coordinates":[5.230755,50.565398],"type":"Point"},"properties":{"osm_id":"3017011138","tag":{"amenity":"waste_basket"}},"type":"Feature"},
	{"geometry":{"coordinates":[5.195959,50.551056],"type":"Point"},"properties":{"osm_id":"3020826016","tag":{"amenity":"waste_basket"}},"type":"Feature"},
	{"geometry":{"coordinates":[5.200736,50.553069],"type":"Point"},"properties":{"osm_id":"3020835867","tag":{"amenity":"waste_basket"}},"type":"Feature"},
	{"geometry":{"coordinates":[5.213155,50.552418],"type":"Point"},"properties":{"osm_id":"3020835868","tag":{"amenity":"waste_basket"}},"type":"Feature"},
	{"geometry":{"coordinates":[5.229863,50.566267],"type":"Point"},"properties":{"osm_id":"3020861898","tag":{"amenity":"waste_basket"}},"type":"Feature"},
	{"geometry":{"coordinates":[5.235981,50.546778],"type":"Point"},"properties":{"osm_id":"3020871785","tag":{"amenity":"waste_basket"}},"type":"Feature"},
	{"geometry":{"coordinates":[5.223171,50.535459],"type":"Point"},"properties":{"osm_id":"3020925843","tag":{"amenity":"waste_basket"}},"type":"Feature"},
	{"geometry":{"coordinates":[5.22184,50.566316],"type":"Point"},"properties":{"osm_id":"3023093204","tag":{"amenity":"waste_basket"}},"type":"Feature"},
	{"geometry":{"coordinates":[5.232247,50.565857],"type":"Point"},"properties":{"osm_id":"3023343878","tag":{"amenity":"waste_basket"}},"type":"Feature"},
	{"geometry":{"coordinates":[5.222356,50.537481],"type":"Point"},"properties":{"osm_id":"3024310487","tag":{"amenity":"waste_basket"}},"type":"Feature"},
	{"geometry":{"coordinates":[5.222436,50.537096],"type":"Point"},"properties":{"osm_id":"3024310489","tag":{"amenity":"waste_basket"}},"type":"Feature"},
	{"geometry":{"coordinates":[5.22066,50.533935],"type":"Point"},"properties":{"name":"Bulle \u00c3\u00a0 v\u00c3\u00aatements","osm_id":"3024316536","tag":{"amenity":"recycling","recycling:cans":"no","recycling:clothes":"yes","recycling:glass":"no","recycling:paper":"no"}},"type":"Feature"},
	{"geometry":{"coordinates":[5.220647,50.533926],"type":"Point"},"properties":{"osm_id":"3024316537","tag":{"amenity":"waste_basket"}},"type":"Feature"},
	{"geometry":{"coordinates":[5.220714,50.53422],"type":"Point"},"properties":{"osm_id":"3024316538","tag":{"amenity":"waste_basket"}},"type":"Feature"},
	{"geometry":{"coordinates":[5.218295,50.534898],"type":"Point"},"properties":{"osm_id":"3026779142","tag":{"amenity":"waste_basket"}},"type":"Feature"},
	{"geometry":{"coordinates":[5.214683,50.53606],"type":"Point"},"properties":{"osm_id":"3027263771","tag":{"amenity":"waste_basket"}},"type":"Feature"},
	{"geometry":{"coordinates":[5.215107,50.536338],"type":"Point"},"properties":{"osm_id":"3027263772","tag":{"amenity":"waste_basket"}},"type":"Feature"},
	{"geometry":{"coordinates":[5.217739,50.541013],"type":"Point"},"properties":{"osm_id":"3027265857","tag":{"amenity":"waste_basket"}},"type":"Feature"},
	{"geometry":{"coordinates":[5.214706,50.535694],"type":"Point"},"properties":{"osm_id":"3027265858","tag":{"amenity":"waste_basket"}},"type":"Feature"},
	{"geometry":{"coordinates":[5.214325,50.534552],"type":"Point"},"properties":{"osm_id":"3027265860","tag":{"amenity":"waste_basket"}},"type":"Feature"},
	{"geometry":{"coordinates":[5.214079,50.534354],"type":"Point"},"properties":{"osm_id":"3027265862","tag":{"amenity":"waste_basket"}},"type":"Feature"},
	{"geometry":{"coordinates":[5.214666,50.534466],"type":"Point"},"properties":{"osm_id":"3027265864","tag":{"amenity":"waste_basket"}},"type":"Feature"},
	{"geometry":{"coordinates":[5.212162,50.533151],"type":"Point"},"properties":{"osm_id":"3027265866","tag":{"amenity":"waste_basket"}},"type":"Feature"},
	{"geometry":{"coordinates":[5.214214,50.537675],"type":"Point"},"properties":{"osm_id":"3249581909","tag":{"amenity":"waste_basket"}},"type":"Feature"},
	{"geometry":{"coordinates":[5.231261,50.563603],"type":"Point"},"properties":{"osm_id":"3254986134","tag":{"amenity":"waste_basket"}},"type":"Feature"},
	{"geometry":{"coordinates":[5.235583,50.562099],"type":"Point"},"properties":{"osm_id":"3254988750","tag":{"amenity":"waste_basket"}},"type":"Feature"},
	{"geometry":{"coordinates":[5.190739,50.539978],"type":"Point"},"properties":{"name":"Bulle \u00c3\u00a0 v\u00c3\u00aatements","osm_id":"3426633176","tag":{"amenity":"recycling","recycling:cans":"no","recycling:clothes":"yes","recycling:glass":"no","recycling:paper":"no"}},"type":"Feature"},
	{"geometry":{"coordinates":[5.189889,50.52301],"type":"Point"},"properties":{"osm_id":"3783619364","tag":{"amenity":"waste_basket"}},"type":"Feature"},
	{"geometry":{"coordinates":[5.220753,50.532239],"type":"Point"},"properties":{"osm_id":"3912808580","tag":{"amenity":"waste_basket"}},"type":"Feature"},
	{"geometry":{"coordinates":[5.220926,50.528189],"type":"Point"},"properties":{"osm_id":"3946380797","tag":{"amenity":"recycling","operator":"Intradel","recycling:cans":"no","recycling:clothes":"no","recycling:glass":"yes","recycling:glass_bottles":"yes","recycling:paper":"no","recycling:plastic":"no"}},"type":"Feature"},
	{"geometry":{"coordinates":[5.213264,50.564914],"type":"Point"},"properties":{"osm_id":"3962442652","tag":{"amenity":"waste_basket"}},"type":"Feature"},
	{"geometry":{"coordinates":[5.242301,50.542949],"type":"Point"},"properties":{"osm_id":"3964946414","tag":{"amenity":"waste_basket"}},"type":"Feature"},
	{"geometry":{"coordinates":[5.236412,50.547857],"type":"Point"},"properties":{"osm_id":"3964946456","tag":{"amenity":"waste_basket"}},"type":"Feature"},
	{"geometry":{"coordinates":[5.23823,50.551608],"type":"Point"},"properties":{"osm_id":"3964946657","tag":{"amenity":"recycling","recycling:cans":"no","recycling:clothes":"yes","recycling:glass":"no","recycling:glass_bottles":"no","recycling:paper":"no","recycling:plastic":"no","recycling_type":"container"}},"type":"Feature"},
	{"geometry":{"coordinates":[5.236202,50.55129],"type":"Point"},"properties":{"osm_id":"3971336887","tag":{"amenity":"waste_basket"}},"type":"Feature"},
	{"geometry":{"coordinates":[5.236233,50.551203],"type":"Point"},"properties":{"osm_id":"3971336888","tag":{"amenity":"waste_basket"}},"type":"Feature"},
	{"geometry":{"coordinates":[5.211903,50.534234],"type":"Point"},"properties":{"osm_id":"3971346606","tag":{"amenity":"waste_basket"}},"type":"Feature"},
	{"geometry":{"coordinates":[5.23011,50.548381],"type":"Point"},"properties":{"osm_id":"3971361774","tag":{"amenity":"waste_basket"}},"type":"Feature"},
	{"geometry":{"coordinates":[5.237803,50.538095],"type":"Point"},"properties":{"osm_id":"3971364859","tag":{"amenity":"recycling","operator":"Terre","recycling:cans":"no","recycling:clothes":"yes","recycling:glass":"no","recycling:glass_bottles":"no","recycling:paper":"no","recycling:plastic":"no"}},"type":"Feature"},
	{"geometry":{"coordinates":[5.251529,50.514435],"type":"Point"},"properties":{"name":"Bulle \u00c3\u00a0 v\u00c3\u00aatements","osm_id":"4451028820","tag":{"amenity":"recycling","recycling:clothes":"yes","recycling_type":"container"}},"type":"Feature"},
	{"geometry":{"coordinates":[5.25155,50.514422],"type":"Point"},"properties":{"name":"Bulle \u00c3\u00a0 verres","osm_id":"4451029086","tag":{"amenity":"recycling","recycling:glass":"yes","recycling_type":"container"}},"type":"Feature"},
	{"geometry":{"coordinates":[5.219178,50.522518],"type":"Point"},"properties":{"name":"Bulles \u00c3\u00a0 verre","osm_id":"4451029704","tag":{"amenity":"recycling","recycling:glass":"yes","recycling_type":"container"}},"type":"Feature"},
	{"geometry":{"coordinates":[5.219163,50.52253],"type":"Point"},"properties":{"name":"Bulles \u00c3\u00a0 v\u00c3\u00aatements","osm_id":"4451029967","tag":{"amenity":"recycling"}},"type":"Feature"},
	{"geometry":{"coordinates":[5.247149,50.518813],"type":"Point"},"properties":{"name":"Bulles \u00c3\u00a0 verre","osm_id":"4681741237","tag":{"amenity":"recycling","recycling:glass":"yes","recycling_type":"container"}},"type":"Feature"},
	{"geometry":{"coordinates":[5.247193,50.518825],"type":"Point"},"properties":{"name":"Bulle \u00c3\u00a0 v\u00c3\u00aatements","osm_id":"4730504712","tag":{"amenity":"recycling","recycling:clothes":"yes","recycling_type":"container"}},"type":"Feature"},
	{"geometry":{"coordinates":[5.242551,50.523357],"type":"Point"},"properties":{"osm_id":"4730537359","tag":{"amenity":"recycling","location":"underground","recycling:glass":"yes","recycling_type":"container"}},"type":"Feature"},
	{"geometry":{"coordinates":[5.261222,50.532429],"type":"Point"},"properties":{"name":"Bulles \u00c3\u00a0 verres","osm_id":"7023953568","tag":{"amenity":"recycling","recycling:glass":"yes"}},"type":"Feature"},
	{"geometry":{"coordinates":[5.261211,50.532436],"type":"Point"},"properties":{"name":"Bulles \u00c3\u00a0 v\u00c3\u00aatements","osm_id":"7023970514","tag":{"amenity":"recycling","recycling:clothes":"yes"}},"type":"Feature"}
]
}
