{
"type": "FeatureCollection",
"features": [
	{"geometry":{"coordinates":[5.225005,50.481469],"type":"Point"},"properties":{"osm_id":"1252930308","tag":{"amenity":"recycling","location":"overground","recycling:clothes":"yes","recycling:glass":"yes","recycling_type":"container"}},"type":"Feature"},
	{"geometry":{"coordinates":[5.20995,50.502867],"type":"Point"},"properties":{"name":"Recyparc de Huy","osm_id":"2601158877","tag":{"addr:city":"Huy","addr:postcode":"4500","addr:street":"Chauss\u00c3\u00a9e de Dinant","amenity":"recycling","contact:phone":"+32 85 23 32 17","opening_hours":"Tu-Fr 09:00-12:30,13:00-17:00; Sa 08:30-12:30,13:00-17:00; Mo,Su off","operator":"Intradel","recycling:batteries":"yes","recycling:cans":"yes","recycling:clothes":"yes","recycling:electrical_appliances":"yes","recycling:glass":"yes","recycling:green_waste":"yes","recycling:hazardous_waste":"yes","recycling:light_bulbs":"yes","recycling:paper":"yes","recycling:rubble":"yes","recycling:scrap_metal":"yes","recycling:tyres":"yes","recycling:waste_oil":"yes","recycling:wood":"yes","recycling_type":"centre","website":"https://www.intradel.be/trier-ses-dechets/recyparcs/trouver-un-recyparc/recyparc-de-huy.htm?lng=fr"}},"type":"Feature"},
	{"geometry":{"coordinates":[5.226631,50.489053],"type":"Point"},"properties":{"osm_id":"8868521652","tag":{"amenity":"waste_basket"}},"type":"Feature"},
	{"geometry":{"coordinates":[5.232332,50.483183],"type":"Point"},"properties":{"osm_id":"8868694535","tag":{"amenity":"waste_basket"}},"type":"Feature"}
]
}
