{
"type": "FeatureCollection",
"features": [
	{"geometry":{"coordinates":[5.186884,50.127599],"type":"Point"},"properties":{"osm_id":"1393043816","tag":{"amenity":"recycling","location":"underground","recycling:glass_bottles":"yes","recycling_type":"container"}},"type":"Feature"},
	{"geometry":{"coordinates":[5.210465,50.169658],"type":"Point"},"properties":{"osm_id":"3096948513","tag":{"amenity":"recycling","recycling:glass":"yes","recycling_type":"container"}},"type":"Feature"},
	{"geometry":{"coordinates":[5.187997,50.127533],"type":"Point"},"properties":{"osm_id":"6976413458","tag":{"amenity":"recycling","recycling:beverage_carton":"yes","recycling:cans":"yes","recycling:plastic_bottles":"yes","recycling:waste":"yes","recycling_type":"container"}},"type":"Feature"},
	{"geometry":{"coordinates":[5.265673,50.1608],"type":"Point"},"properties":{"osm_id":"7709804917","tag":{"amenity":"recycling","recycling:glass_bottles":"yes","recycling_type":"container"}},"type":"Feature"},
	{"geometry":{"coordinates":[5.273116,50.166731],"type":"Point"},"properties":{"osm_id":"7849444845","tag":{"amenity":"recycling","opening_hours":"24/7","operator":"IDELUX-Environnement","recycling:clothes":"yes","recycling:glass_bottles":"yes","recycling_type":"container"}},"type":"Feature"},
	{"geometry":{"coordinates":[5.245519,50.158597],"type":"Point"},"properties":{"osm_id":"7897154934","tag":{"amenity":"recycling","recycling_type":"centre"}},"type":"Feature"}
]
}
