{
"type": "FeatureCollection",
"features": [
	{"geometry":{"coordinates":[5.192195,49.667256],"type":"Point"},"properties":{"osm_id":"5246310081","tag":{"amenity":"recycling","recycling_type":"container"}},"type":"Feature"},
	{"geometry":{"coordinates":[5.223915,49.61409],"type":"Point"},"properties":{"osm_id":"8003815030","tag":{"amenity":"recycling","recycling_type":"container","religion":"christian"}},"type":"Feature"},
	{"geometry":{"coordinates":[5.223931,49.614084],"type":"Point"},"properties":{"osm_id":"8003815031","tag":{"amenity":"recycling","recycling_type":"container","religion":"christian"}},"type":"Feature"},
	{"geometry":{"coordinates":[5.244293,49.630763],"type":"Point"},"properties":{"osm_id":"8005721834","tag":{"amenity":"recycling","recycling_type":"container"}},"type":"Feature"},
	{"geometry":{"coordinates":[5.271066,49.630852],"type":"Point"},"properties":{"osm_id":"8005987500","tag":{"amenity":"recycling","recycling_type":"container"}},"type":"Feature"},
	{"geometry":{"coordinates":[5.238241,49.652972],"type":"Point"},"properties":{"osm_id":"8006388215","tag":{"amenity":"recycling","recycling_type":"container"}},"type":"Feature"},
	{"geometry":{"coordinates":[5.201392,49.664209],"type":"Point"},"properties":{"osm_id":"8006849693","tag":{"amenity":"recycling","recycling_type":"container"}},"type":"Feature"},
	{"geometry":{"coordinates":[5.188333,49.618622],"type":"Point"},"properties":{"osm_id":"8021370432","tag":{"amenity":"recycling","recycling_type":"container"}},"type":"Feature"},
	{"geometry":{"coordinates":[5.188322,49.618607],"type":"Point"},"properties":{"osm_id":"8021370433","tag":{"amenity":"recycling","recycling_type":"container"}},"type":"Feature"},
	{"geometry":{"coordinates":[5.188313,49.618595],"type":"Point"},"properties":{"osm_id":"8021370434","tag":{"amenity":"recycling","recycling_type":"container"}},"type":"Feature"},
	{"geometry":{"coordinates":[5.188301,49.618578],"type":"Point"},"properties":{"osm_id":"8021370435","tag":{"amenity":"recycling","recycling_type":"container"}},"type":"Feature"},
	{"geometry":{"coordinates":[5.191669,49.618942],"type":"Point"},"properties":{"osm_id":"8021878928","tag":{"amenity":"recycling","recycling_type":"container"}},"type":"Feature"},
	{"geometry":{"coordinates":[5.191676,49.619895],"type":"Point"},"properties":{"osm_id":"8021878931","tag":{"amenity":"recycling","recycling_type":"container"}},"type":"Feature"}
]
}
