{
"type": "FeatureCollection",
"features": [
	{"geometry":{"coordinates":[5.218224,45.617798],"type":"Point"},"properties":{"osm_id":"274917600","tag":{"amenity":"recycling","recycling:glass_bottles":"yes","recycling_type":"container"}},"type":"Feature"},
	{"geometry":{"coordinates":[5.213326,45.621924],"type":"Point"},"properties":{"osm_id":"494323459","tag":{"amenity":"recycling","recycling:glass_bottles":"yes","recycling:paper":"yes","recycling_type":"container"}},"type":"Feature"},
	{"geometry":{"coordinates":[5.218009,45.624677],"type":"Point"},"properties":{"osm_id":"1794283585","tag":{"amenity":"recycling","recycling:glass_bottles":"yes","recycling_type":"container"}},"type":"Feature"},
	{"geometry":{"coordinates":[5.233446,45.596917],"type":"Point"},"properties":{"osm_id":"1837912668","tag":{"amenity":"recycling","recycling:clothes":"yes","recycling_type":"container"}},"type":"Feature"},
	{"geometry":{"coordinates":[5.230071,45.598343],"type":"Point"},"properties":{"osm_id":"1837912670","tag":{"amenity":"recycling","recycling:cans":"yes","recycling:cardboard":"yes","recycling:clothes":"yes","recycling:glass_bottles":"yes","recycling:plastic_bottles":"yes","recycling:plastic_packaging":"yes","recycling:shoes":"yes","recycling_type":"container"}},"type":"Feature"},
	{"geometry":{"coordinates":[5.238612,45.590975],"type":"Point"},"properties":{"osm_id":"1837912690","tag":{"amenity":"recycling","recycling:cartons":"yes","recycling:glass_bottles":"yes","recycling:magazines":"yes","recycling:newspaper":"yes","recycling:paper":"yes","recycling:paper_packaging":"yes","recycling:plastic_bottles":"yes","recycling:plastic_packaging":"yes","recycling:small_appliances":"no","recycling_type":"container"}},"type":"Feature"},
	{"geometry":{"coordinates":[5.232412,45.59989],"type":"Point"},"properties":{"osm_id":"1837912691","tag":{"amenity":"recycling","recycling:glass_bottles":"yes","recycling_type":"container"}},"type":"Feature"},
	{"geometry":{"coordinates":[5.225477,45.614122],"type":"Point"},"properties":{"osm_id":"1930454751","tag":{"amenity":"recycling","recycling:glass_bottles":"yes","recycling_type":"container"}},"type":"Feature"},
	{"geometry":{"coordinates":[5.223371,45.594654],"type":"Point"},"properties":{"osm_id":"2476612761","tag":{"amenity":"recycling","recycling_type":"container"}},"type":"Feature"},
	{"geometry":{"coordinates":[5.21144,45.613374],"type":"Point"},"properties":{"osm_id":"3100246487","tag":{"amenity":"waste_basket"}},"type":"Feature"},
	{"geometry":{"coordinates":[5.211468,45.613493],"type":"Point"},"properties":{"osm_id":"3100246488","tag":{"amenity":"waste_basket"}},"type":"Feature"},
	{"geometry":{"coordinates":[5.211102,45.613837],"type":"Point"},"properties":{"osm_id":"3100246489","tag":{"amenity":"waste_basket"}},"type":"Feature"},
	{"geometry":{"coordinates":[5.210668,45.613648],"type":"Point"},"properties":{"osm_id":"3100246490","tag":{"amenity":"waste_basket"}},"type":"Feature"},
	{"geometry":{"coordinates":[5.210449,45.613467],"type":"Point"},"properties":{"osm_id":"3100246491","tag":{"amenity":"waste_basket"}},"type":"Feature"},
	{"geometry":{"coordinates":[5.211886,45.613332],"type":"Point"},"properties":{"osm_id":"3100252060","tag":{"amenity":"waste_basket"}},"type":"Feature"},
	{"geometry":{"coordinates":[5.212317,45.613065],"type":"Point"},"properties":{"osm_id":"3100252061","tag":{"amenity":"waste_basket"}},"type":"Feature"},
	{"geometry":{"coordinates":[5.269061,45.599417],"type":"Point"},"properties":{"osm_id":"3539495445","tag":{"amenity":"waste_basket"}},"type":"Feature"},
	{"geometry":{"coordinates":[5.263923,45.585634],"type":"Point"},"properties":{"osm_id":"3832519665","tag":{"amenity":"recycling","recycling:glass_bottles":"yes","recycling_type":"container"}},"type":"Feature"},
	{"geometry":{"coordinates":[5.263922,45.585657],"type":"Point"},"properties":{"osm_id":"3832519668","tag":{"amenity":"recycling","recycling:clothes":"yes","recycling:shoes":"yes","recycling_type":"container"}},"type":"Feature"},
	{"geometry":{"coordinates":[5.27079,45.588769],"type":"Point"},"properties":{"osm_id":"4329241515","tag":{"amenity":"waste_basket"}},"type":"Feature"},
	{"geometry":{"coordinates":[5.273332,45.595102],"type":"Point"},"properties":{"osm_id":"4329241518","tag":{"amenity":"recycling","recycling:clothes":"yes","recycling:glass_bottles":"yes","recycling_type":"container"}},"type":"Feature"},
	{"geometry":{"coordinates":[5.219095,45.601417],"type":"Point"},"properties":{"osm_id":"4379330060","tag":{"amenity":"waste_basket"}},"type":"Feature"},
	{"geometry":{"coordinates":[5.219055,45.601439],"type":"Point"},"properties":{"osm_id":"4379330061","tag":{"amenity":"recycling","recycling:cans":"yes","recycling:cardboard":"yes","recycling:glass_bottles":"yes","recycling_type":"container"}},"type":"Feature"},
	{"geometry":{"coordinates":[5.262401,45.61071],"type":"Point"},"properties":{"osm_id":"4746936264","tag":{"amenity":"recycling","recycling:glass_bottles":"yes","recycling_type":"container"}},"type":"Feature"},
	{"geometry":{"coordinates":[5.271106,45.602271],"type":"Point"},"properties":{"osm_id":"4755347821","tag":{"amenity":"recycling","recycling:glass_bottles":"yes","recycling_type":"container"}},"type":"Feature"},
	{"geometry":{"coordinates":[5.224776,45.618521],"type":"Point"},"properties":{"osm_id":"5143355056","tag":{"amenity":"recycling","recycling:clothes":"yes","recycling_type":"container"}},"type":"Feature"},
	{"geometry":{"coordinates":[5.221439,45.613147],"type":"Point"},"properties":{"osm_id":"5165086871","tag":{"amenity":"waste_basket"}},"type":"Feature"},
	{"geometry":{"coordinates":[5.221075,45.612598],"type":"Point"},"properties":{"osm_id":"5165086881","tag":{"amenity":"waste_basket"}},"type":"Feature"},
	{"geometry":{"coordinates":[5.219593,45.612936],"type":"Point"},"properties":{"osm_id":"5165086882","tag":{"amenity":"waste_basket"}},"type":"Feature"},
	{"geometry":{"coordinates":[5.230827,45.622041],"type":"Point"},"properties":{"osm_id":"5222004936","tag":{"amenity":"recycling","recycling:beverage_carton":"yes","recycling:cans":"yes","recycling:cardboard":"no","recycling:clothes":"yes","recycling:glass_bottles":"yes","recycling:paper":"yes","recycling:plastic_bottles":"yes","recycling:shoes":"yes","recycling_type":"container"}},"type":"Feature"},
	{"geometry":{"coordinates":[5.191908,45.60401],"type":"Point"},"properties":{"osm_id":"5240084840","tag":{"amenity":"waste_basket"}},"type":"Feature"},
	{"geometry":{"coordinates":[5.273299,45.595117],"type":"Point"},"properties":{"osm_id":"5320347827","tag":{"amenity":"waste_basket"}},"type":"Feature"},
	{"geometry":{"coordinates":[5.260157,45.59558],"type":"Point"},"properties":{"highway":"stop","osm_id":"5722535038","tag":{"direction":"backward"}},"type":"Feature"},
	{"geometry":{"coordinates":[5.233766,45.597203],"type":"Point"},"properties":{"osm_id":"5888396176","tag":{"amenity":"waste_basket","waste":"trash"}},"type":"Feature"},
	{"geometry":{"coordinates":[5.234772,45.597808],"type":"Point"},"properties":{"osm_id":"5888508008","tag":{"amenity":"waste_basket","waste":"trash"}},"type":"Feature"},
	{"geometry":{"coordinates":[5.238095,45.595277],"type":"Point"},"properties":{"osm_id":"5888537215","tag":{"amenity":"recycling","recycling:glass_bottles":"yes","recycling_type":"container"}},"type":"Feature"},
	{"geometry":{"coordinates":[5.237446,45.62106],"type":"Point"},"properties":{"osm_id":"5986932635","tag":{"amenity":"waste_basket","waste":"trash"}},"type":"Feature"},
	{"geometry":{"coordinates":[5.248671,45.589973],"type":"Point"},"properties":{"osm_id":"5994254044","tag":{"amenity":"recycling","recycling:glass_bottles":"yes","recycling_type":"container"}},"type":"Feature"},
	{"geometry":{"coordinates":[5.26129,45.590374],"type":"Point"},"properties":{"osm_id":"6028157100","tag":{"amenity":"waste_basket","waste":"trash"}},"type":"Feature"},
	{"geometry":{"coordinates":[5.241861,45.6138],"type":"Point"},"properties":{"osm_id":"6049605777","tag":{"amenity":"recycling","recycling:paper":"yes","recycling_type":"container"}},"type":"Feature"},
	{"geometry":{"coordinates":[5.241826,45.613813],"type":"Point"},"properties":{"osm_id":"6049605778","tag":{"amenity":"recycling","recycling:cans":"yes","recycling:cardboard":"yes","recycling:plastic_bottles":"yes","recycling:plastic_packaging":"yes","recycling_type":"container"}},"type":"Feature"},
	{"geometry":{"coordinates":[5.241777,45.613829],"type":"Point"},"properties":{"osm_id":"6049605779","tag":{"amenity":"recycling","recycling:glass_bottles":"yes","recycling_type":"container"}},"type":"Feature"},
	{"geometry":{"coordinates":[5.217302,45.618058],"type":"Point"},"properties":{"osm_id":"6163694486","tag":{"amenity":"waste_basket"}},"type":"Feature"},
	{"geometry":{"coordinates":[5.196089,45.6098],"type":"Point"},"properties":{"osm_id":"6215594985","tag":{"amenity":"recycling","location":"underground","recycling:glass_bottles":"yes","recycling_type":"container"}},"type":"Feature"},
	{"geometry":{"coordinates":[5.229633,45.594029],"type":"Point"},"properties":{"osm_id":"6259508698","tag":{"amenity":"recycling","operator":"SMND","recycling:glass_bottles":"yes","recycling_type":"container"}},"type":"Feature"},
	{"geometry":{"coordinates":[5.229621,45.594],"type":"Point"},"properties":{"osm_id":"6259508699","tag":{"amenity":"recycling","operator":"SMND","recycling:cans":"yes","recycling:cardboard":"yes","recycling:plastic_bottles":"yes","recycling:plastic_packaging":"yes","recycling_type":"container"}},"type":"Feature"},
	{"geometry":{"coordinates":[5.229605,45.593963],"type":"Point"},"properties":{"osm_id":"6259508700","tag":{"amenity":"recycling","operator":"SMND","recycling:newspaper":"yes","recycling:paper":"yes","recycling_type":"container"}},"type":"Feature"},
	{"geometry":{"coordinates":[5.229604,45.593928],"type":"Point"},"properties":{"osm_id":"6259508701","tag":{"amenity":"recycling","operator":"Le Relais","recycling:clothes":"yes","recycling:shoes":"yes","recycling_type":"container"}},"type":"Feature"},
	{"geometry":{"coordinates":[5.222152,45.60247],"type":"Point"},"properties":{"osm_id":"6260634139","tag":{"amenity":"waste_basket","waste":"trash"}},"type":"Feature"},
	{"geometry":{"coordinates":[5.220962,45.60388],"type":"Point"},"properties":{"osm_id":"6260634140","tag":{"amenity":"waste_basket","waste":"trash"}},"type":"Feature"},
	{"geometry":{"coordinates":[5.220916,45.603703],"type":"Point"},"properties":{"osm_id":"6260634141","tag":{"amenity":"waste_basket","waste":"trash"}},"type":"Feature"},
	{"geometry":{"coordinates":[5.223841,45.591948],"type":"Point"},"properties":{"osm_id":"6260747280","tag":{"amenity":"recycling","operator":"SMND","recycling:cans":"yes","recycling:cardboard":"yes","recycling:newspaper":"yes","recycling:plastic_bottles":"yes","recycling:plastic_packaging":"yes","recycling_type":"container"}},"type":"Feature"},
	{"geometry":{"coordinates":[5.223824,45.591934],"type":"Point"},"properties":{"osm_id":"6260747281","tag":{"amenity":"recycling","operator":"SMND","recycling:glass_bottles":"yes","recycling_type":"container"}},"type":"Feature"},
	{"geometry":{"coordinates":[5.223807,45.59191],"type":"Point"},"properties":{"osm_id":"6260747282","tag":{"amenity":"recycling","operator":"SMND","recycling:newspaper":"yes","recycling:paper":"yes","recycling_type":"container"}},"type":"Feature"},
	{"geometry":{"coordinates":[5.241612,45.588321],"type":"Point"},"properties":{"osm_id":"6275313278","tag":{"amenity":"recycling","operator":"SMND","recycling:newspaper":"yes","recycling:paper":"yes","recycling_type":"container"}},"type":"Feature"},
	{"geometry":{"coordinates":[5.241583,45.588332],"type":"Point"},"properties":{"osm_id":"6275313279","tag":{"amenity":"recycling","operator":"SMND","recycling:cans":"yes","recycling:plastic_bottles":"yes","recycling:plastic_packaging":"yes","recycling_type":"container"}},"type":"Feature"},
	{"geometry":{"coordinates":[5.241549,45.588343],"type":"Point"},"properties":{"osm_id":"6275313280","tag":{"amenity":"recycling","operator":"SMND","recycling:glass_bottles":"yes","recycling_type":"container"}},"type":"Feature"},
	{"geometry":{"coordinates":[5.195214,45.587891],"type":"Point"},"properties":{"osm_id":"6292104804","tag":{"amenity":"recycling","location":"underground","operator":"SMND","recycling:newspaper":"yes","recycling:paper":"yes","recycling_type":"container"}},"type":"Feature"},
	{"geometry":{"coordinates":[5.19519,45.587891],"type":"Point"},"properties":{"osm_id":"6292104805","tag":{"amenity":"recycling","location":"underground","operator":"SMND","recycling:glass_bottles":"yes","recycling_type":"container"}},"type":"Feature"},
	{"geometry":{"coordinates":[5.195162,45.587891],"type":"Point"},"properties":{"osm_id":"6292104806","tag":{"amenity":"recycling","location":"underground","operator":"SMND","recycling:cans":"yes","recycling:cardboard":"yes","recycling:plastic_bottles":"yes","recycling:plastic_packaging":"yes","recycling_type":"container"}},"type":"Feature"},
	{"geometry":{"coordinates":[5.195132,45.58789],"type":"Point"},"properties":{"osm_id":"6292104807","tag":{"amenity":"recycling","location":"underground","operator":"SMND","recycling:cans":"yes","recycling:cardboard":"yes","recycling:plastic_bottles":"yes","recycling:plastic_packaging":"yes","recycling_type":"container"}},"type":"Feature"},
	{"geometry":{"coordinates":[5.191435,45.586127],"type":"Point"},"properties":{"osm_id":"6332019698","tag":{"amenity":"recycling","location":"underground","operator":"SMND","recycling:cans":"yes","recycling:cardboard":"yes","recycling:plastic_bottles":"yes","recycling:plastic_packaging":"yes","recycling_type":"container"}},"type":"Feature"},
	{"geometry":{"coordinates":[5.191407,45.586174],"type":"Point"},"properties":{"osm_id":"6332019699","tag":{"amenity":"recycling","operator":"Le Relais","recycling:clothes":"yes","recycling:shoes":"yes","recycling_type":"container"}},"type":"Feature"},
	{"geometry":{"coordinates":[5.191446,45.586117],"type":"Point"},"properties":{"osm_id":"6332019700","tag":{"amenity":"recycling","location":"underground","operator":"SMND","recycling:cans":"yes","recycling:cardboard":"yes","recycling:plastic_bottles":"yes","recycling:plastic_packaging":"yes","recycling_type":"container"}},"type":"Feature"},
	{"geometry":{"coordinates":[5.191461,45.586103],"type":"Point"},"properties":{"osm_id":"6332019701","tag":{"amenity":"recycling","location":"underground","operator":"SMND","recycling:newspaper":"yes","recycling:paper":"yes","recycling_type":"container"}},"type":"Feature"},
	{"geometry":{"coordinates":[5.191479,45.586087],"type":"Point"},"properties":{"osm_id":"6332019702","tag":{"amenity":"recycling","location":"underground","operator":"SMND","recycling:glass_bottles":"yes","recycling_type":"container"}},"type":"Feature"},
	{"geometry":{"coordinates":[5.218115,45.598335],"type":"Point"},"properties":{"osm_id":"6332019708","tag":{"amenity":"recycling","recycling:glass_bottles":"yes","recycling_type":"container"}},"type":"Feature"},
	{"geometry":{"coordinates":[5.264444,45.590128],"type":"Point"},"properties":{"osm_id":"6337319265","tag":{"amenity":"recycling","operator":"SMND","recycling:glass_bottles":"yes","recycling_type":"container"}},"type":"Feature"},
	{"geometry":{"coordinates":[5.264409,45.590123],"type":"Point"},"properties":{"osm_id":"6337319266","tag":{"amenity":"recycling","operator":"Le Relais","recycling:clothes":"yes","recycling:shoes":"yes","recycling_type":"container"}},"type":"Feature"},
	{"geometry":{"coordinates":[5.230812,45.615412],"type":"Point"},"properties":{"osm_id":"6349710712","tag":{"amenity":"recycling","recycling:glass_bottles":"yes","recycling_type":"container"}},"type":"Feature"},
	{"geometry":{"coordinates":[5.248689,45.589593],"type":"Point"},"properties":{"osm_id":"6447099368","tag":{"amenity":"recycling","recycling:clothes":"yes","recycling:shoes":"yes","recycling_type":"container"}},"type":"Feature"},
	{"geometry":{"coordinates":[5.269331,45.596416],"type":"Point"},"properties":{"osm_id":"6511682941","tag":{"amenity":"recycling","operator":"SMND","recycling:glass_bottles":"yes","recycling_type":"container"}},"type":"Feature"},
	{"geometry":{"coordinates":[5.244071,45.585185],"type":"Point"},"properties":{"osm_id":"6560520750","tag":{"amenity":"waste_basket","waste":"trash"}},"type":"Feature"},
	{"geometry":{"coordinates":[5.248766,45.586025],"type":"Point"},"properties":{"osm_id":"6560528696","tag":{"amenity":"waste_basket","waste":"trash"}},"type":"Feature"},
	{"geometry":{"coordinates":[5.270058,45.604101],"type":"Point"},"properties":{"osm_id":"6621887210","tag":{"amenity":"recycling","recycling_type":"container"}},"type":"Feature"},
	{"geometry":{"coordinates":[5.220914,45.61275],"type":"Point"},"properties":{"osm_id":"6861088549","tag":{"amenity":"waste_basket","waste":"trash"}},"type":"Feature"},
	{"geometry":{"coordinates":[5.212118,45.611766],"type":"Point"},"properties":{"osm_id":"6861234603","tag":{"amenity":"waste_basket"}},"type":"Feature"},
	{"geometry":{"coordinates":[5.254252,45.604839],"type":"Point"},"properties":{"osm_id":"7294925007","tag":{"amenity":"waste_basket","waste":"trash"}},"type":"Feature"},
	{"geometry":{"coordinates":[5.219039,45.6195],"type":"Point"},"properties":{"osm_id":"7301670263","tag":{"amenity":"waste_basket","waste":"trash"}},"type":"Feature"},
	{"geometry":{"coordinates":[5.193012,45.586941],"type":"Point"},"properties":{"osm_id":"7685332527","tag":{"amenity":"waste_basket","waste":"dog_excrement"}},"type":"Feature"},
	{"geometry":{"coordinates":[5.192715,45.587575],"type":"Point"},"properties":{"osm_id":"7685332530","tag":{"amenity":"waste_basket","waste":"dog_excrement"}},"type":"Feature"},
	{"geometry":{"coordinates":[5.191729,45.586599],"type":"Point"},"properties":{"osm_id":"7685392477","tag":{"amenity":"waste_basket","waste":"trash"}},"type":"Feature"},
	{"geometry":{"coordinates":[5.191413,45.586168],"type":"Point"},"properties":{"osm_id":"7685392484","tag":{"amenity":"recycling","operator":"Le Relais","recycling:clothes":"yes","recycling:shoes":"yes","recycling_type":"container"}},"type":"Feature"},
	{"geometry":{"coordinates":[5.266609,45.603542],"type":"Point"},"properties":{"osm_id":"7795327051","tag":{"amenity":"recycling","operator":"SMND","recycling:glass_bottles":"yes","recycling_type":"container"}},"type":"Feature"},
	{"geometry":{"coordinates":[5.266714,45.602188],"type":"Point"},"properties":{"osm_id":"7795327052","tag":{"amenity":"waste_basket","waste":"trash"}},"type":"Feature"},
	{"geometry":{"coordinates":[5.26681,45.601612],"type":"Point"},"properties":{"osm_id":"7795327054","tag":{"amenity":"waste_basket","waste":"trash"}},"type":"Feature"},
	{"geometry":{"coordinates":[5.262588,45.599365],"type":"Point"},"properties":{"osm_id":"7795342342","tag":{"amenity":"recycling","operator":"SMND","recycling:glass_bottles":"yes","recycling_type":"container"}},"type":"Feature"},
	{"geometry":{"coordinates":[5.273245,45.583833],"type":"Point"},"properties":{"osm_id":"7892556686","tag":{"amenity":"waste_basket","survey:date":"2020-09-10","waste":"trash"}},"type":"Feature"},
	{"geometry":{"coordinates":[5.273237,45.583832],"type":"Point"},"properties":{"osm_id":"7892559186","tag":{"amenity":"waste_basket","survey:date":"2020-09-10","waste":"recycling"}},"type":"Feature"}
]
}
