{
"type": "FeatureCollection",
"features": [
	{"geometry":{"coordinates":[5.214792,44.245346],"type":"Point"},"properties":{"osm_id":"1932436685","tag":{"amenity":"waste_disposal"}},"type":"Feature"},
	{"geometry":{"coordinates":[5.217731,44.246558],"type":"Point"},"properties":{"osm_id":"1932436709","tag":{"amenity":"waste_disposal"}},"type":"Feature"},
	{"geometry":{"coordinates":[5.254559,44.254669],"type":"Point"},"properties":{"osm_id":"1944628236","tag":{"amenity":"recycling","recycling:glass_bottles":"yes","recycling_type":"container"}},"type":"Feature"},
	{"geometry":{"coordinates":[5.261809,44.266111],"type":"Point"},"properties":{"osm_id":"1945867683","tag":{"amenity":"waste_disposal"}},"type":"Feature"},
	{"geometry":{"coordinates":[5.263711,44.268526],"type":"Point"},"properties":{"osm_id":"1945867685","tag":{"amenity":"waste_disposal"}},"type":"Feature"},
	{"geometry":{"coordinates":[5.267729,44.272453],"type":"Point"},"properties":{"osm_id":"1945867695","tag":{"amenity":"recycling","recycling:glass_bottles":"yes","recycling_type":"container"}},"type":"Feature"},
	{"geometry":{"coordinates":[5.267727,44.272493],"type":"Point"},"properties":{"osm_id":"1945867702","tag":{"amenity":"waste_disposal"}},"type":"Feature"},
	{"geometry":{"coordinates":[5.269776,44.274038],"type":"Point"},"properties":{"osm_id":"1945867705","tag":{"amenity":"recycling","recycling:glass_bottles":"yes","recycling_type":"container"}},"type":"Feature"},
	{"geometry":{"coordinates":[5.218244,44.246318],"type":"Point"},"properties":{"osm_id":"1946454753","tag":{"amenity":"waste_disposal"}},"type":"Feature"},
	{"geometry":{"coordinates":[5.218267,44.246334],"type":"Point"},"properties":{"osm_id":"1946454761","tag":{"amenity":"recycling","recycling_type":"container"}},"type":"Feature"},
	{"geometry":{"coordinates":[5.21778,44.246576],"type":"Point"},"properties":{"osm_id":"1946454792","tag":{"amenity":"recycling","recycling:glass_bottles":"yes","recycling_type":"container"}},"type":"Feature"},
	{"geometry":{"coordinates":[5.214749,44.245354],"type":"Point"},"properties":{"osm_id":"1946616078","tag":{"amenity":"recycling","recycling_type":"container"}},"type":"Feature"},
	{"geometry":{"coordinates":[5.268053,44.246619],"type":"Point"},"properties":{"osm_id":"1949538201","tag":{"amenity":"waste_disposal"}},"type":"Feature"},
	{"geometry":{"coordinates":[5.25947,44.249241],"type":"Point"},"properties":{"osm_id":"1949538204","tag":{"amenity":"waste_disposal"}},"type":"Feature"},
	{"geometry":{"coordinates":[5.19024,44.236954],"type":"Point"},"properties":{"osm_id":"1956562693","ref":"N\u00c2\u00b06 - Place du 14 Juillet","tag":{"amenity":"recycling","operator":"COPAVO","recycling:cans":"yes","recycling:cardboard":"yes","recycling:glass_bottles":"yes","recycling:paper":"yes","recycling:plastic":"yes","recycling:plastic_bottles":"yes","recycling:plastic_packaging":"yes","recycling:waste":"yes","recycling_type":"container"}},"type":"Feature"},
	{"geometry":{"coordinates":[5.193575,44.23911],"type":"Point"},"properties":{"osm_id":"1956562705","ref":"N\u00c2\u00b04 - Le Portalet","tag":{"amenity":"recycling","operator":"COPAVO","recycling:cans":"yes","recycling:cardboard":"yes","recycling:paper":"yes","recycling:plastic":"yes","recycling:plastic_bottles":"yes","recycling:plastic_packaging":"yes","recycling:waste":"yes","recycling_type":"container"}},"type":"Feature"},
	{"geometry":{"coordinates":[5.189959,44.228718],"type":"Point"},"properties":{"osm_id":"2286660975","ref":"N\u00c2\u00b012 - Col de Veaux","tag":{"amenity":"recycling","operator":"COPAVO","recycling:cans":"yes","recycling:cardboard":"yes","recycling:glass_bottles":"yes","recycling:paper":"yes","recycling:plastic":"yes","recycling:plastic_bottles":"yes","recycling:plastic_packaging":"yes","recycling:waste":"yes","recycling_type":"container"}},"type":"Feature"},
	{"geometry":{"coordinates":[5.193483,44.237599],"type":"Point"},"properties":{"osm_id":"2379097965","ref":"N\u00c2\u00b05 - Rue du faubourg","tag":{"amenity":"recycling","operator":"COPAVO","recycling:cans":"yes","recycling:cardboard":"yes","recycling:paper":"yes","recycling:plastic":"yes","recycling:plastic_bottles":"yes","recycling:plastic_packaging":"yes","recycling:waste":"yes","recycling_type":"container"}},"type":"Feature"},
	{"geometry":{"coordinates":[5.190345,44.239034],"type":"Point"},"properties":{"osm_id":"2417454378","tag":{"amenity":"waste_basket"}},"type":"Feature"},
	{"geometry":{"coordinates":[5.197824,44.239067],"type":"Point"},"properties":{"osm_id":"2417458530","tag":{"amenity":"waste_basket"}},"type":"Feature"},
	{"geometry":{"coordinates":[5.189668,44.236409],"type":"Point"},"properties":{"osm_id":"2417460001","ref":"N\u00c2\u00b07 - H\u00c3\u00b4tel Saint-Marc","tag":{"amenity":"recycling","operator":"COPAVO","recycling:cans":"yes","recycling:cardboard":"yes","recycling:paper":"yes","recycling:plastic":"yes","recycling:plastic_bottles":"yes","recycling:plastic_packaging":"yes","recycling:waste":"yes","recycling_type":"container"}},"type":"Feature"},
	{"geometry":{"coordinates":[5.188134,44.235223],"type":"Point"},"properties":{"osm_id":"2417461411","ref":"N\u00c2\u00b08 - Pompiers","tag":{"amenity":"recycling","operator":"COPAVO","recycling:cans":"yes","recycling:cardboard":"yes","recycling:glass_bottles":"yes","recycling:paper":"yes","recycling:plastic":"yes","recycling:plastic_bottles":"yes","recycling:plastic_packaging":"yes","recycling:waste":"yes","recycling_type":"container"}},"type":"Feature"},
	{"geometry":{"coordinates":[5.186767,44.234171],"type":"Point"},"properties":{"osm_id":"2417463141","ref":"N\u00c2\u00b015 - Four \u00c3\u00a0 Chaux","tag":{"amenity":"recycling","operator":"COPAVO","recycling:cans":"yes","recycling:cardboard":"yes","recycling:paper":"yes","recycling:plastic":"yes","recycling:plastic_bottles":"yes","recycling:plastic_packaging":"yes","recycling:waste":"yes","recycling_type":"container"}},"type":"Feature"},
	{"geometry":{"coordinates":[5.187817,44.228685],"type":"Point"},"properties":{"osm_id":"2417465688","tag":{"amenity":"waste_basket"}},"type":"Feature"},
	{"geometry":{"coordinates":[5.186618,44.228153],"type":"Point"},"properties":{"osm_id":"2417465689","tag":{"amenity":"waste_basket"}},"type":"Feature"},
	{"geometry":{"coordinates":[5.188785,44.234397],"type":"Point"},"properties":{"osm_id":"2417465690","tag":{"amenity":"waste_basket"}},"type":"Feature"},
	{"geometry":{"coordinates":[5.188643,44.227344],"type":"Point"},"properties":{"osm_id":"2417465691","tag":{"amenity":"waste_basket"}},"type":"Feature"},
	{"geometry":{"coordinates":[5.193836,44.230478],"type":"Point"},"properties":{"osm_id":"2417465746","tag":{"amenity":"recycling","operator":"COPAVO","recycling:cans":"yes","recycling:cardboard":"yes","recycling:glass_bottles":"yes","recycling:paper":"yes","recycling:plastic":"yes","recycling:plastic_bottles":"yes","recycling:plastic_packaging":"yes","recycling:waste":"yes","recycling_type":"container"}},"type":"Feature"},
	{"geometry":{"coordinates":[5.196751,44.230298],"type":"Point"},"properties":{"osm_id":"2417466014","tag":{"amenity":"waste_basket"}},"type":"Feature"},
	{"geometry":{"coordinates":[5.1905,44.237411],"type":"Point"},"properties":{"osm_id":"4476320174","tag":{"amenity":"waste_basket"}},"type":"Feature"},
	{"geometry":{"coordinates":[5.19018,44.235941],"type":"Point"},"properties":{"osm_id":"4478651681","tag":{"amenity":"waste_basket"}},"type":"Feature"},
	{"geometry":{"coordinates":[5.190958,44.23668],"type":"Point"},"properties":{"osm_id":"4939925569","tag":{"amenity":"waste_basket"}},"type":"Feature"},
	{"geometry":{"coordinates":[5.190961,44.237685],"type":"Point"},"properties":{"osm_id":"4996549247","tag":{"amenity":"waste_basket"}},"type":"Feature"},
	{"geometry":{"coordinates":[5.262328,44.257175],"type":"Point"},"properties":{"barrier":"gate","osm_id":"5181321385","tag":{"bicycle":"no","foot":"no"}},"type":"Feature"},
	{"geometry":{"coordinates":[5.21957,44.247011],"type":"Point"},"properties":{"osm_id":"5862967553","tag":{"amenity":"recycling","recycling:cardboard":"yes","recycling:glass_bottles":"yes","recycling:paper":"yes","recycling:plastic":"yes","recycling:plastic_bottles":"yes","recycling:plastic_packaging":"yes","recycling:waste":"yes","recycling_type":"container"}},"type":"Feature"}
]
}
