{
"type": "FeatureCollection",
"features": [
	{"geometry":{"coordinates":[27.55931,54.00522],"type":"Point"},"properties":{"osm_id":"1338345108","tag":{"amenity":"waste_basket"}},"type":"Feature"},
	{"geometry":{"coordinates":[27.542131,54.000664],"type":"Point"},"properties":{"osm_id":"1378087709","tag":{"amenity":"waste_basket"}},"type":"Feature"},
	{"geometry":{"coordinates":[27.539665,53.959984],"type":"Point"},"properties":{"osm_id":"3015868675","tag":{"amenity":"recycling","recycling:cans":"yes","recycling:glass":"yes","recycling:paper":"yes"}},"type":"Feature"},
	{"geometry":{"coordinates":[27.537916,53.958367],"type":"Point"},"properties":{"osm_id":"3033444587","tag":{"amenity":"waste_disposal"}},"type":"Feature"},
	{"geometry":{"coordinates":[27.586907,53.956881],"type":"Point"},"properties":{"osm_id":"4226959642","tag":{"amenity":"waste_basket"}},"type":"Feature"},
	{"geometry":{"coordinates":[27.59246,53.958096],"type":"Point"},"properties":{"osm_id":"4246601684","tag":{"amenity":"waste_disposal"}},"type":"Feature"},
	{"geometry":{"coordinates":[27.588494,53.959299],"type":"Point"},"properties":{"osm_id":"4246678754","tag":{"amenity":"waste_disposal"}},"type":"Feature"},
	{"geometry":{"coordinates":[27.571116,53.958793],"type":"Point"},"properties":{"osm_id":"4246681801","tag":{"amenity":"waste_disposal"}},"type":"Feature"},
	{"geometry":{"coordinates":[27.588868,53.95905],"type":"Point"},"properties":{"osm_id":"4246711393","tag":{"amenity":"waste_disposal"}},"type":"Feature"},
	{"geometry":{"coordinates":[27.516575,53.986667],"type":"Point"},"properties":{"osm_id":"4269506991","tag":{"amenity":"waste_disposal","operator":"\u0421/\u0422 \"\u0422\u0435\u043a\u0441\u0442\u0438\u043b\u044c\u0449\u0438\u043a-1\""}},"type":"Feature"},
	{"geometry":{"coordinates":[27.537478,53.959199],"type":"Point"},"properties":{"name":"\u00d0\u0091\u00d0\u00b5\u00d0\u00bb\u00d1\u0085\u00d0\u00b8\u00d0\u00bc\u00d0\u00bf\u00d0\u00bb\u00d0\u00b0\u00d1\u0081\u00d1\u0082","osm_id":"4425657190","tag":{"amenity":"recycling","description":"\u041a\u043e\u043c\u043f\u0430\u043d\u0438\u044f \u043f\u043e \u043f\u0435\u0440\u0435\u0440\u0430\u0431\u043e\u0442\u043a\u0435 \u0432\u0442\u043e\u0440\u0441\u044b\u0440\u044c\u044f \u0438\u0437 \u043f\u043b\u0430\u0441\u0442\u0438\u043a\u0430 \u0438 \u043f\u0440\u043e\u0438\u0437\u0432\u043e\u0434\u0441\u0442\u0432\u0443 \u0442\u043e\u0432\u0430\u0440\u043e\u0432 \u043d\u0430\u0440\u043e\u0434\u043d\u043e\u0433\u043e \u043f\u043e\u0442\u0440\u0435\u0431\u043b\u0435\u043d\u0438\u044f","name:en":"Belhimplast","name:ru":"\u0411\u0435\u043b\u0445\u0438\u043c\u043f\u043b\u0430\u0441\u0442","phone":"+375 (44) 788-10-25","website":"http://belhimplasr.by"}},"type":"Feature"},
	{"geometry":{"coordinates":[27.525305,53.960929],"type":"Point"},"properties":{"osm_id":"4607996266","tag":{"amenity":"waste_disposal"}},"type":"Feature"},
	{"geometry":{"coordinates":[27.525373,53.96307],"type":"Point"},"properties":{"osm_id":"4607999889","tag":{"amenity":"waste_basket"}},"type":"Feature"},
	{"geometry":{"coordinates":[27.572699,53.957406],"type":"Point"},"properties":{"osm_id":"6374729885","tag":{"amenity":"waste_disposal"}},"type":"Feature"},
	{"geometry":{"coordinates":[27.583334,53.962809],"type":"Point"},"properties":{"osm_id":"6637081009","tag":{"amenity":"waste_disposal"}},"type":"Feature"},
	{"geometry":{"coordinates":[27.562016,53.986207],"type":"Point"},"properties":{"osm_id":"6900996352","tag":{"amenity":"waste_disposal"}},"type":"Feature"},
	{"geometry":{"coordinates":[27.537966,53.956454],"type":"Point"},"properties":{"osm_id":"7320223738","tag":{"amenity":"waste_disposal"}},"type":"Feature"},
	{"geometry":{"coordinates":[27.532263,53.996085],"type":"Point"},"properties":{"osm_id":"7365038171","tag":{"access":"private","amenity":"waste_disposal","waste":"mixed"}},"type":"Feature"},
	{"geometry":{"coordinates":[27.591552,53.959619],"type":"Point"},"properties":{"osm_id":"7446755414","tag":{"amenity":"waste_disposal"}},"type":"Feature"},
	{"geometry":{"coordinates":[27.588868,53.959601],"type":"Point"},"properties":{"osm_id":"7446755417","tag":{"amenity":"waste_disposal"}},"type":"Feature"},
	{"geometry":{"coordinates":[27.592296,53.959621],"type":"Point"},"properties":{"osm_id":"7446755419","tag":{"amenity":"waste_disposal"}},"type":"Feature"},
	{"geometry":{"coordinates":[27.590704,53.959612],"type":"Point"},"properties":{"osm_id":"7446755422","tag":{"amenity":"waste_disposal"}},"type":"Feature"},
	{"geometry":{"coordinates":[27.593104,53.959784],"type":"Point"},"properties":{"osm_id":"7446755425","tag":{"amenity":"waste_disposal"}},"type":"Feature"},
	{"geometry":{"coordinates":[27.594666,53.96287],"type":"Point"},"properties":{"osm_id":"7448783518","tag":{"amenity":"waste_disposal"}},"type":"Feature"},
	{"geometry":{"coordinates":[27.591302,53.963908],"type":"Point"},"properties":{"osm_id":"7452761678","tag":{"amenity":"waste_disposal"}},"type":"Feature"},
	{"geometry":{"coordinates":[27.592286,53.96396],"type":"Point"},"properties":{"osm_id":"7452761680","tag":{"amenity":"waste_disposal"}},"type":"Feature"},
	{"geometry":{"coordinates":[27.589889,53.959604],"type":"Point"},"properties":{"osm_id":"7475742607","tag":{"amenity":"waste_disposal"}},"type":"Feature"},
	{"geometry":{"coordinates":[27.518275,53.964739],"type":"Point"},"properties":{"osm_id":"7732231274","tag":{"amenity":"waste_disposal"}},"type":"Feature"},
	{"geometry":{"coordinates":[27.569791,54.000914],"type":"Point"},"properties":{"osm_id":"7826123966","tag":{"amenity":"waste_disposal"}},"type":"Feature"}
]
}
