{
"type": "FeatureCollection",
"features": [
	{"geometry":{"coordinates":[27.559412,53.92849],"type":"Point"},"properties":{"osm_id":"907467312","tag":{"amenity":"recycling"}},"type":"Feature"},
	{"geometry":{"coordinates":[27.561118,53.927909],"type":"Point"},"properties":{"osm_id":"907467366","tag":{"amenity":"recycling"}},"type":"Feature"},
	{"geometry":{"coordinates":[27.556987,53.926649],"type":"Point"},"properties":{"osm_id":"907467453","tag":{"amenity":"recycling"}},"type":"Feature"},
	{"geometry":{"coordinates":[27.557309,53.92813],"type":"Point"},"properties":{"osm_id":"907467552","tag":{"amenity":"recycling"}},"type":"Feature"},
	{"geometry":{"coordinates":[27.560345,53.926412],"type":"Point"},"properties":{"osm_id":"907467622","tag":{"amenity":"recycling"}},"type":"Feature"},
	{"geometry":{"coordinates":[27.557341,53.925458],"type":"Point"},"properties":{"osm_id":"907470259","tag":{"amenity":"recycling"}},"type":"Feature"},
	{"geometry":{"coordinates":[27.558672,53.925332],"type":"Point"},"properties":{"osm_id":"907470342","tag":{"amenity":"recycling"}},"type":"Feature"},
	{"geometry":{"coordinates":[27.554756,53.926919],"type":"Point"},"properties":{"osm_id":"907470810","tag":{"amenity":"recycling"}},"type":"Feature"},
	{"geometry":{"coordinates":[27.551151,53.926583],"type":"Point"},"properties":{"osm_id":"907470985","tag":{"amenity":"recycling"}},"type":"Feature"},
	{"geometry":{"coordinates":[27.551476,53.923921],"type":"Point"},"properties":{"osm_id":"907510571","tag":{"amenity":"recycling"}},"type":"Feature"},
	{"geometry":{"coordinates":[27.550693,53.928912],"type":"Point"},"properties":{"osm_id":"907510678","tag":{"amenity":"recycling"}},"type":"Feature"},
	{"geometry":{"coordinates":[27.590944,53.91964],"type":"Point"},"properties":{"osm_id":"983365834","tag":{"amenity":"recycling"}},"type":"Feature"},
	{"geometry":{"coordinates":[27.555411,53.922113],"type":"Point"},"properties":{"osm_id":"984477500","tag":{"amenity":"recycling"}},"type":"Feature"},
	{"geometry":{"coordinates":[27.552145,53.928788],"type":"Point"},"properties":{"osm_id":"988911435","tag":{"amenity":"recycling"}},"type":"Feature"},
	{"geometry":{"coordinates":[27.591834,53.912669],"type":"Point"},"properties":{"osm_id":"1177244881","tag":{"amenity":"recycling","recycling:glass":"yes","recycling:paper":"yes","recycling_type":"container"}},"type":"Feature"},
	{"geometry":{"coordinates":[27.589973,53.913307],"type":"Point"},"properties":{"osm_id":"1177650311","tag":{"amenity":"recycling","recycling:paper":"yes","recycling_type":"container"}},"type":"Feature"},
	{"geometry":{"coordinates":[27.545794,53.9365],"type":"Point"},"properties":{"osm_id":"1239574717","tag":{"amenity":"waste_basket"}},"type":"Feature"},
	{"geometry":{"coordinates":[27.549943,53.937229],"type":"Point"},"properties":{"osm_id":"1239574718","tag":{"amenity":"recycling","recycling:paper":"yes"}},"type":"Feature"},
	{"geometry":{"coordinates":[27.548243,53.936425],"type":"Point"},"properties":{"osm_id":"1239574722","tag":{"amenity":"waste_basket"}},"type":"Feature"},
	{"geometry":{"coordinates":[27.553011,53.936313],"type":"Point"},"properties":{"osm_id":"1248108134","tag":{"amenity":"waste_basket"}},"type":"Feature"},
	{"geometry":{"coordinates":[27.553967,53.937966],"type":"Point"},"properties":{"osm_id":"1248969943","tag":{"amenity":"waste_basket"}},"type":"Feature"},
	{"geometry":{"coordinates":[27.553763,53.93904],"type":"Point"},"properties":{"osm_id":"1249001147","tag":{"amenity":"waste_basket"}},"type":"Feature"},
	{"geometry":{"coordinates":[27.554867,53.939142],"type":"Point"},"properties":{"osm_id":"1249001148","tag":{"amenity":"waste_basket"}},"type":"Feature"},
	{"geometry":{"coordinates":[27.543079,53.919171],"type":"Point"},"properties":{"osm_id":"1412591270","tag":{"amenity":"waste_basket"}},"type":"Feature"},
	{"geometry":{"coordinates":[27.575285,53.915329],"type":"Point"},"properties":{"osm_id":"1413895184","tag":{"amenity":"waste_basket"}},"type":"Feature"},
	{"geometry":{"coordinates":[27.577968,53.916955],"type":"Point"},"properties":{"osm_id":"1413895469","tag":{"amenity":"waste_basket"}},"type":"Feature"},
	{"geometry":{"coordinates":[27.574434,53.916347],"type":"Point"},"properties":{"osm_id":"1458126618","tag":{"amenity":"waste_basket"}},"type":"Feature"},
	{"geometry":{"coordinates":[27.572761,53.916709],"type":"Point"},"properties":{"osm_id":"1458126619","tag":{"amenity":"waste_basket"}},"type":"Feature"},
	{"geometry":{"coordinates":[27.573077,53.916127],"type":"Point"},"properties":{"osm_id":"1458128030","tag":{"amenity":"waste_basket"}},"type":"Feature"},
	{"geometry":{"coordinates":[27.560186,53.929679],"type":"Point"},"properties":{"osm_id":"1502724492","tag":{"amenity":"recycling"}},"type":"Feature"},
	{"geometry":{"coordinates":[27.567014,53.919376],"type":"Point"},"properties":{"osm_id":"1561454521","tag":{"amenity":"waste_basket"}},"type":"Feature"},
	{"geometry":{"coordinates":[27.570903,53.918629],"type":"Point"},"properties":{"osm_id":"1561454536","tag":{"amenity":"waste_basket"}},"type":"Feature"},
	{"geometry":{"coordinates":[27.567865,53.919864],"type":"Point"},"properties":{"osm_id":"1561454549","tag":{"amenity":"waste_basket"}},"type":"Feature"},
	{"geometry":{"coordinates":[27.551742,53.922472],"type":"Point"},"properties":{"osm_id":"1845141705","tag":{"amenity":"recycling"}},"type":"Feature"},
	{"geometry":{"coordinates":[27.553462,53.922098],"type":"Point"},"properties":{"osm_id":"1845141717","tag":{"amenity":"recycling","recycling_type":"container"}},"type":"Feature"},
	{"geometry":{"coordinates":[27.531483,53.929241],"type":"Point"},"properties":{"osm_id":"1845167369","tag":{"amenity":"recycling"}},"type":"Feature"},
	{"geometry":{"coordinates":[27.530462,53.927389],"type":"Point"},"properties":{"osm_id":"1845213360","tag":{"amenity":"recycling"}},"type":"Feature"},
	{"geometry":{"coordinates":[27.544839,53.922489],"type":"Point"},"properties":{"osm_id":"1845301977","tag":{"amenity":"recycling"}},"type":"Feature"},
	{"geometry":{"coordinates":[27.546334,53.921656],"type":"Point"},"properties":{"osm_id":"1847831651","tag":{"amenity":"recycling"}},"type":"Feature"},
	{"geometry":{"coordinates":[27.555506,53.919168],"type":"Point"},"properties":{"osm_id":"1936482301","tag":{"amenity":"recycling"}},"type":"Feature"},
	{"geometry":{"coordinates":[27.592005,53.908148],"type":"Point"},"properties":{"osm_id":"2149995271","tag":{"amenity":"recycling","recycling:glass":"yes","recycling:paper":"yes","recycling:plastic":"yes","recycling_type":"container"}},"type":"Feature"},
	{"geometry":{"coordinates":[27.561842,53.935204],"type":"Point"},"properties":{"osm_id":"2418007499","tag":{"amenity":"recycling","recycling_type":"container"}},"type":"Feature"},
	{"geometry":{"coordinates":[27.554876,53.940522],"type":"Point"},"properties":{"osm_id":"2495567629","tag":{"amenity":"waste_basket"}},"type":"Feature"},
	{"geometry":{"coordinates":[27.549431,53.939426],"type":"Point"},"properties":{"osm_id":"2495567630","tag":{"amenity":"waste_basket"}},"type":"Feature"},
	{"geometry":{"coordinates":[27.579985,53.911406],"type":"Point"},"properties":{"osm_id":"2572551205","tag":{"amenity":"waste_disposal"}},"type":"Feature"},
	{"geometry":{"coordinates":[27.564006,53.929564],"type":"Point"},"properties":{"osm_id":"2628705309","tag":{"amenity":"waste_basket"}},"type":"Feature"},
	{"geometry":{"coordinates":[27.564627,53.930225],"type":"Point"},"properties":{"osm_id":"2628712489","tag":{"amenity":"waste_basket"}},"type":"Feature"},
	{"geometry":{"coordinates":[27.562982,53.931127],"type":"Point"},"properties":{"osm_id":"2628740577","tag":{"amenity":"waste_basket"}},"type":"Feature"},
	{"geometry":{"coordinates":[27.50997,53.907579],"type":"Point"},"properties":{"osm_id":"2629162324","tag":{"amenity":"waste_basket"}},"type":"Feature"},
	{"geometry":{"coordinates":[27.592676,53.909594],"type":"Point"},"properties":{"osm_id":"2631134855","tag":{"amenity":"recycling","location":"overground","recycling:paper":"yes","recycling:plastic":"yes","recycling_type":"container"}},"type":"Feature"},
	{"geometry":{"coordinates":[27.550235,53.905157],"type":"Point"},"properties":{"osm_id":"3385510546","tag":{"amenity":"recycling"}},"type":"Feature"},
	{"geometry":{"coordinates":[27.55868,53.905779],"type":"Point"},"properties":{"osm_id":"3536745606","tag":{"amenity":"waste_basket"}},"type":"Feature"},
	{"geometry":{"coordinates":[27.581216,53.920529],"type":"Point"},"properties":{"osm_id":"3599169436","tag":{"amenity":"waste_basket"}},"type":"Feature"},
	{"geometry":{"coordinates":[27.581147,53.920565],"type":"Point"},"properties":{"osm_id":"3599169437","tag":{"amenity":"waste_basket"}},"type":"Feature"},
	{"geometry":{"coordinates":[27.595425,53.927098],"type":"Point"},"properties":{"osm_id":"3638295940","tag":{"amenity":"recycling","operator":"\u00d0\u0091\u00d0\u0095\u00d0\u009b\u00d0\u0093\u00d0\u0098\u00d0\u009f\u00d0\u00a1-\u00d0\u00ad\u00d0\u009a\u00d0\u009e","operator:ru":"\u00d0\u0091\u00d0\u0095\u00d0\u009b\u00d0\u0093\u00d0\u0098\u00d0\u009f\u00d0\u00a1-\u00d0\u00ad\u00d0\u009a\u00d0\u009e","phone":"+375 33 3336272","recycling:books":"yes","recycling:magazines":"yes","recycling:newspaper":"yes","recycling:paper":"yes","recycling_type":"container","website":"http://www.belgips.by/belgips-eko/"}},"type":"Feature"},
	{"geometry":{"coordinates":[27.570019,53.92732],"type":"Point"},"properties":{"osm_id":"3639553514","tag":{"amenity":"waste_basket"}},"type":"Feature"},
	{"geometry":{"coordinates":[27.586996,53.90629],"type":"Point"},"properties":{"osm_id":"3643276637","tag":{"amenity":"recycling","recycling:paper":"yes","recycling_type":"container"}},"type":"Feature"},
	{"geometry":{"coordinates":[27.572865,53.90919],"type":"Point"},"properties":{"osm_id":"3672837846","tag":{"amenity":"recycling","location":"overground","recycling_type":"container"}},"type":"Feature"},
	{"geometry":{"coordinates":[27.541603,53.933114],"type":"Point"},"properties":{"osm_id":"3691177768","tag":{"amenity":"waste_disposal"}},"type":"Feature"},
	{"geometry":{"coordinates":[27.583779,53.905887],"type":"Point"},"properties":{"osm_id":"3785861011","tag":{"amenity":"recycling","recycling:paper":"yes","recycling_type":"container"}},"type":"Feature"},
	{"geometry":{"coordinates":[27.586265,53.912862],"type":"Point"},"properties":{"osm_id":"3785861024","tag":{"amenity":"recycling","operator":"\u00d0\u0091\u00d0\u0095\u00d0\u009b\u00d0\u0093\u00d0\u0098\u00d0\u009f\u00d0\u00a1-\u00d0\u00ad\u00d0\u009a\u00d0\u009e","operator:ru":"\u00d0\u0091\u00d0\u0095\u00d0\u009b\u00d0\u0093\u00d0\u0098\u00d0\u009f\u00d0\u00a1-\u00d0\u00ad\u00d0\u009a\u00d0\u009e","phone":"+375 33 3336272","recycling:books":"yes","recycling:magazines":"yes","recycling:newspaper":"yes","recycling:paper":"yes","recycling_type":"container"}},"type":"Feature"},
	{"geometry":{"coordinates":[27.595102,53.911024],"type":"Point"},"properties":{"osm_id":"3794003950","tag":{"amenity":"recycling","recycling:paper":"yes","recycling_type":"container"}},"type":"Feature"},
	{"geometry":{"coordinates":[27.553613,53.932064],"type":"Point"},"properties":{"osm_id":"3798988658","tag":{"amenity":"recycling","recycling:paper":"yes","recycling_type":"container"}},"type":"Feature"},
	{"geometry":{"coordinates":[27.564036,53.925448],"type":"Point"},"properties":{"osm_id":"3841675193","tag":{"amenity":"recycling"}},"type":"Feature"},
	{"geometry":{"coordinates":[27.545794,53.914005],"type":"Point"},"properties":{"osm_id":"3862692658","tag":{"amenity":"waste_basket"}},"type":"Feature"},
	{"geometry":{"coordinates":[27.544207,53.914998],"type":"Point"},"properties":{"osm_id":"3862705001","tag":{"amenity":"recycling","recycling_type":"container"}},"type":"Feature"},
	{"geometry":{"coordinates":[27.543449,53.914887],"type":"Point"},"properties":{"osm_id":"3862712295","tag":{"amenity":"waste_basket"}},"type":"Feature"},
	{"geometry":{"coordinates":[27.541668,53.914608],"type":"Point"},"properties":{"osm_id":"3862714893","tag":{"amenity":"waste_basket"}},"type":"Feature"},
	{"geometry":{"coordinates":[27.536612,53.917049],"type":"Point"},"properties":{"osm_id":"3881615425","tag":{"amenity":"waste_basket"}},"type":"Feature"},
	{"geometry":{"coordinates":[27.544002,53.909838],"type":"Point"},"properties":{"osm_id":"3890080157","tag":{"amenity":"recycling","operator":"\u00d0\u0091\u00d0\u0095\u00d0\u009b\u00d0\u0093\u00d0\u0098\u00d0\u009f\u00d0\u00a1-\u00d0\u00ad\u00d0\u009a\u00d0\u009e","operator:ru":"\u00d0\u0091\u00d0\u0095\u00d0\u009b\u00d0\u0093\u00d0\u0098\u00d0\u009f\u00d0\u00a1-\u00d0\u00ad\u00d0\u009a\u00d0\u009e","phone":"+375 33 3336272","recycling:books":"yes","recycling:magazines":"yes","recycling:newspaper":"yes","recycling:paper":"yes","recycling_type":"container","website":"http://www.belgips.by/belgips-eko/"}},"type":"Feature"},
	{"geometry":{"coordinates":[27.571903,53.909119],"type":"Point"},"properties":{"osm_id":"4038157118","tag":{"amenity":"recycling","location":"overground","recycling_type":"container"}},"type":"Feature"},
	{"geometry":{"coordinates":[27.569233,53.912619],"type":"Point"},"properties":{"osm_id":"4096012294","tag":{"amenity":"recycling","recycling:paper":"yes","recycling_type":"container"}},"type":"Feature"},
	{"geometry":{"coordinates":[27.565087,53.930865],"type":"Point"},"properties":{"osm_id":"4112318289","tag":{"amenity":"waste_disposal"}},"type":"Feature"},
	{"geometry":{"coordinates":[27.567064,53.925791],"type":"Point"},"properties":{"osm_id":"4133308234","tag":{"amenity":"waste_disposal"}},"type":"Feature"},
	{"geometry":{"coordinates":[27.577031,53.913734],"type":"Point"},"properties":{"osm_id":"4141196429","tag":{"amenity":"recycling","recycling:paper":"yes","recycling_type":"container"}},"type":"Feature"},
	{"geometry":{"coordinates":[27.582048,53.952896],"type":"Point"},"properties":{"osm_id":"4246580212","tag":{"amenity":"waste_disposal"}},"type":"Feature"},
	{"geometry":{"coordinates":[27.577515,53.952071],"type":"Point"},"properties":{"osm_id":"4246581504","tag":{"amenity":"waste_disposal"}},"type":"Feature"},
	{"geometry":{"coordinates":[27.574656,53.954351],"type":"Point"},"properties":{"osm_id":"4246680095","tag":{"amenity":"waste_disposal"}},"type":"Feature"},
	{"geometry":{"coordinates":[27.564628,53.925947],"type":"Point"},"properties":{"osm_id":"4253453729","tag":{"amenity":"waste_disposal"}},"type":"Feature"},
	{"geometry":{"coordinates":[27.564266,53.925915],"type":"Point"},"properties":{"osm_id":"4253453730","tag":{"amenity":"waste_disposal"}},"type":"Feature"},
	{"geometry":{"coordinates":[27.561134,53.926271],"type":"Point"},"properties":{"osm_id":"4253453731","tag":{"amenity":"waste_disposal"}},"type":"Feature"},
	{"geometry":{"coordinates":[27.547851,53.929322],"type":"Point"},"properties":{"osm_id":"4254610185","tag":{"amenity":"waste_disposal"}},"type":"Feature"},
	{"geometry":{"coordinates":[27.565026,53.91754],"type":"Point"},"properties":{"osm_id":"4262033654","tag":{"amenity":"recycling","recycling:paper":"yes","recycling_type":"container"}},"type":"Feature"},
	{"geometry":{"coordinates":[27.575534,53.907468],"type":"Point"},"properties":{"osm_id":"4262431628","tag":{"amenity":"waste_disposal"}},"type":"Feature"},
	{"geometry":{"coordinates":[27.574455,53.907011],"type":"Point"},"properties":{"osm_id":"4262436837","tag":{"amenity":"waste_disposal"}},"type":"Feature"},
	{"geometry":{"coordinates":[27.568586,53.926014],"type":"Point"},"properties":{"osm_id":"4265341803","tag":{"amenity":"waste_disposal"}},"type":"Feature"},
	{"geometry":{"coordinates":[27.586632,53.928688],"type":"Point"},"properties":{"osm_id":"4277719300","tag":{"amenity":"recycling","recycling:paper":"yes","recycling_type":"container"}},"type":"Feature"},
	{"geometry":{"coordinates":[27.517336,53.912519],"type":"Point"},"properties":{"name":"\u00d0\u009e\u00d0\u0090\u00d0\u009e \u00d0\u0091\u00d0\u00b5\u00d0\u00bb\u00d0\u00b2\u00d1\u0082\u00d0\u00be\u00d1\u0080\u00d1\u0080\u00d0\u00b5\u00d1\u0081\u00d1\u0083\u00d1\u0080\u00d1\u0081\u00d1\u008b \u00e2\u0084\u009614","osm_id":"4298674686","tag":{"amenity":"recycling","recycling_type":"centre"}},"type":"Feature"},
	{"geometry":{"coordinates":[27.534809,53.928047],"type":"Point"},"properties":{"osm_id":"4303906054","tag":{"amenity":"waste_disposal"}},"type":"Feature"},
	{"geometry":{"coordinates":[27.535144,53.927595],"type":"Point"},"properties":{"osm_id":"4303906055","tag":{"amenity":"waste_disposal"}},"type":"Feature"},
	{"geometry":{"coordinates":[27.57018,53.919541],"type":"Point"},"properties":{"osm_id":"4303906065","tag":{"amenity":"waste_disposal"}},"type":"Feature"},
	{"geometry":{"coordinates":[27.570712,53.926394],"type":"Point"},"properties":{"osm_id":"4320138566","tag":{"amenity":"waste_basket"}},"type":"Feature"},
	{"geometry":{"coordinates":[27.566431,53.914165],"type":"Point"},"properties":{"osm_id":"4323082989","tag":{"amenity":"recycling","recycling:glass":"yes","recycling:paper":"yes","recycling:plastic":"yes","recycling_type":"container"}},"type":"Feature"},
	{"geometry":{"coordinates":[27.567536,53.913712],"type":"Point"},"properties":{"osm_id":"4323096589","tag":{"amenity":"recycling","recycling:paper":"yes","recycling:plastic":"yes","recycling_type":"container"}},"type":"Feature"},
	{"geometry":{"coordinates":[27.578195,53.909082],"type":"Point"},"properties":{"osm_id":"4397775128","tag":{"amenity":"waste_disposal"}},"type":"Feature"},
	{"geometry":{"coordinates":[27.578277,53.909128],"type":"Point"},"properties":{"osm_id":"4397775129","tag":{"amenity":"recycling","recycling:paper":"yes","recycling_type":"container"}},"type":"Feature"},
	{"geometry":{"coordinates":[27.575902,53.914218],"type":"Point"},"properties":{"osm_id":"4411719701","tag":{"amenity":"waste_disposal"}},"type":"Feature"},
	{"geometry":{"coordinates":[27.537105,53.908394],"type":"Point"},"properties":{"osm_id":"4434674827","tag":{"amenity":"waste_disposal"}},"type":"Feature"},
	{"geometry":{"coordinates":[27.556033,53.910586],"type":"Point"},"properties":{"osm_id":"4483824633","tag":{"amenity":"waste_basket"}},"type":"Feature"},
	{"geometry":{"coordinates":[27.553208,53.913205],"type":"Point"},"properties":{"osm_id":"4483824635","tag":{"amenity":"waste_basket"}},"type":"Feature"},
	{"geometry":{"coordinates":[27.57601,53.913371],"type":"Point"},"properties":{"osm_id":"4519333341","tag":{"amenity":"waste_disposal"}},"type":"Feature"},
	{"geometry":{"coordinates":[27.587858,53.91865],"type":"Point"},"properties":{"osm_id":"4519333348","tag":{"amenity":"waste_disposal"}},"type":"Feature"},
	{"geometry":{"coordinates":[27.563568,53.937099],"type":"Point"},"properties":{"osm_id":"4550744393","tag":{"amenity":"waste_disposal"}},"type":"Feature"},
	{"geometry":{"coordinates":[27.562914,53.935989],"type":"Point"},"properties":{"osm_id":"4550838093","tag":{"amenity":"waste_disposal"}},"type":"Feature"},
	{"geometry":{"coordinates":[27.564994,53.938039],"type":"Point"},"properties":{"osm_id":"4550858990","tag":{"amenity":"waste_disposal"}},"type":"Feature"},
	{"geometry":{"coordinates":[27.5651,53.938077],"type":"Point"},"properties":{"osm_id":"4569680589","tag":{"amenity":"waste_disposal"}},"type":"Feature"},
	{"geometry":{"coordinates":[27.563539,53.937098],"type":"Point"},"properties":{"osm_id":"4569680689","tag":{"amenity":"waste_disposal"}},"type":"Feature"},
	{"geometry":{"coordinates":[27.58087,53.923648],"type":"Point"},"properties":{"osm_id":"4593766289","tag":{"amenity":"waste_basket"}},"type":"Feature"},
	{"geometry":{"coordinates":[27.581528,53.923328],"type":"Point"},"properties":{"osm_id":"4593766290","tag":{"amenity":"waste_basket"}},"type":"Feature"},
	{"geometry":{"coordinates":[27.552305,53.921534],"type":"Point"},"properties":{"osm_id":"4659512605","tag":{"amenity":"recycling","recycling_type":"container"}},"type":"Feature"},
	{"geometry":{"coordinates":[27.530368,53.916897],"type":"Point"},"properties":{"osm_id":"4688736063","tag":{"amenity":"waste_disposal","recycling:glass":"yes","recycling:paper":"yes","recycling:plastic":"yes"}},"type":"Feature"},
	{"geometry":{"coordinates":[27.538454,53.909562],"type":"Point"},"properties":{"osm_id":"4704652947","tag":{"amenity":"waste_disposal","waste":"plastic;glass;recycling"}},"type":"Feature"},
	{"geometry":{"coordinates":[27.534947,53.908374],"type":"Point"},"properties":{"osm_id":"4704654341","tag":{"amenity":"waste_disposal"}},"type":"Feature"},
	{"geometry":{"coordinates":[27.589286,53.921192],"type":"Point"},"properties":{"osm_id":"4712228107","tag":{"amenity":"waste_basket"}},"type":"Feature"},
	{"geometry":{"coordinates":[27.589184,53.92119],"type":"Point"},"properties":{"osm_id":"4712228108","tag":{"amenity":"waste_basket"}},"type":"Feature"},
	{"geometry":{"coordinates":[27.589328,53.921237],"type":"Point"},"properties":{"osm_id":"4712228109","tag":{"amenity":"waste_basket"}},"type":"Feature"},
	{"geometry":{"coordinates":[27.589277,53.921292],"type":"Point"},"properties":{"osm_id":"4712228110","tag":{"amenity":"waste_basket"}},"type":"Feature"},
	{"geometry":{"coordinates":[27.516657,53.911482],"type":"Point"},"properties":{"osm_id":"4748580358","tag":{"amenity":"waste_basket"}},"type":"Feature"},
	{"geometry":{"coordinates":[27.516612,53.911362],"type":"Point"},"properties":{"osm_id":"4748580360","tag":{"amenity":"waste_basket"}},"type":"Feature"},
	{"geometry":{"coordinates":[27.516898,53.911868],"type":"Point"},"properties":{"osm_id":"4748580361","tag":{"amenity":"waste_basket"}},"type":"Feature"},
	{"geometry":{"coordinates":[27.516977,53.911882],"type":"Point"},"properties":{"osm_id":"4748580362","tag":{"amenity":"waste_basket"}},"type":"Feature"},
	{"geometry":{"coordinates":[27.516888,53.911931],"type":"Point"},"properties":{"osm_id":"4748580363","tag":{"amenity":"waste_basket"}},"type":"Feature"},
	{"geometry":{"coordinates":[27.516935,53.911924],"type":"Point"},"properties":{"osm_id":"4748580364","tag":{"amenity":"waste_basket"}},"type":"Feature"},
	{"geometry":{"coordinates":[27.516602,53.910528],"type":"Point"},"properties":{"osm_id":"4748580386","tag":{"amenity":"waste_basket"}},"type":"Feature"},
	{"geometry":{"coordinates":[27.516479,53.910689],"type":"Point"},"properties":{"osm_id":"4748580387","tag":{"amenity":"waste_basket"}},"type":"Feature"},
	{"geometry":{"coordinates":[27.510022,53.912655],"type":"Point"},"properties":{"osm_id":"4778716442","tag":{"amenity":"waste_disposal"}},"type":"Feature"},
	{"geometry":{"coordinates":[27.510754,53.912578],"type":"Point"},"properties":{"osm_id":"4778716443","tag":{"amenity":"waste_disposal"}},"type":"Feature"},
	{"geometry":{"coordinates":[27.511911,53.91244],"type":"Point"},"properties":{"osm_id":"4778716444","tag":{"amenity":"waste_disposal"}},"type":"Feature"},
	{"geometry":{"coordinates":[27.584495,53.920863],"type":"Point"},"properties":{"osm_id":"4818809450","tag":{"amenity":"waste_disposal"}},"type":"Feature"},
	{"geometry":{"coordinates":[27.583407,53.920696],"type":"Point"},"properties":{"osm_id":"4818809451","tag":{"amenity":"waste_disposal"}},"type":"Feature"},
	{"geometry":{"coordinates":[27.58433,53.921879],"type":"Point"},"properties":{"osm_id":"4818827861","tag":{"amenity":"waste_disposal"}},"type":"Feature"},
	{"geometry":{"coordinates":[27.551055,53.925585],"type":"Point"},"properties":{"osm_id":"4948367723","tag":{"amenity":"recycling"}},"type":"Feature"},
	{"geometry":{"coordinates":[27.5845,53.920834],"type":"Point"},"properties":{"osm_id":"4954928067","tag":{"amenity":"recycling","recycling:paper":"yes","recycling:plastic":"yes","recycling_type":"container"}},"type":"Feature"},
	{"geometry":{"coordinates":[27.585731,53.921808],"type":"Point"},"properties":{"osm_id":"4954928077","tag":{"amenity":"waste_disposal"}},"type":"Feature"},
	{"geometry":{"coordinates":[27.585754,53.921826],"type":"Point"},"properties":{"osm_id":"4954928078","tag":{"amenity":"recycling","recycling:paper":"yes","recycling:plastic":"yes","recycling_type":"container"}},"type":"Feature"},
	{"geometry":{"coordinates":[27.584326,53.921867],"type":"Point"},"properties":{"osm_id":"4954928079","tag":{"amenity":"recycling","recycling:paper":"yes","recycling:plastic":"yes","recycling_type":"container"}},"type":"Feature"},
	{"geometry":{"coordinates":[27.583443,53.920676],"type":"Point"},"properties":{"osm_id":"4954928080","tag":{"amenity":"recycling","recycling:paper":"yes","recycling:plastic":"yes","recycling_type":"container"}},"type":"Feature"},
	{"geometry":{"coordinates":[27.562862,53.92241],"type":"Point"},"properties":{"osm_id":"4975661322","tag":{"amenity":"recycling","recycling:paper":"yes","recycling_type":"container"}},"type":"Feature"},
	{"geometry":{"coordinates":[27.564136,53.922741],"type":"Point"},"properties":{"osm_id":"4975661324","tag":{"amenity":"recycling","recycling:paper":"yes","recycling:plastic":"yes","recycling_type":"container"}},"type":"Feature"},
	{"geometry":{"coordinates":[27.567886,53.923246],"type":"Point"},"properties":{"osm_id":"4975661348","tag":{"amenity":"recycling","recycling:glass":"yes","recycling_type":"container"}},"type":"Feature"},
	{"geometry":{"coordinates":[27.570537,53.923186],"type":"Point"},"properties":{"osm_id":"4976025351","tag":{"amenity":"recycling","recycling:plastic":"yes","recycling_type":"container"}},"type":"Feature"},
	{"geometry":{"coordinates":[27.57014,53.923001],"type":"Point"},"properties":{"osm_id":"4976025352","tag":{"amenity":"recycling","recycling:glass":"yes","recycling:paper":"yes","recycling:plastic":"yes","recycling_type":"container"}},"type":"Feature"},
	{"geometry":{"coordinates":[27.577155,53.908242],"type":"Point"},"properties":{"osm_id":"4977712454","tag":{"amenity":"recycling","recycling:glass":"yes","recycling:paper":"yes","recycling:plastic":"yes","recycling_type":"container"}},"type":"Feature"},
	{"geometry":{"coordinates":[27.579662,53.908366],"type":"Point"},"properties":{"osm_id":"4977769284","tag":{"amenity":"recycling","recycling:plastic":"yes","recycling_type":"container"}},"type":"Feature"},
	{"geometry":{"coordinates":[27.581207,53.908015],"type":"Point"},"properties":{"osm_id":"4977769295","tag":{"amenity":"recycling","recycling:paper":"yes","recycling_type":"container"}},"type":"Feature"},
	{"geometry":{"coordinates":[27.574505,53.907032],"type":"Point"},"properties":{"osm_id":"4979161637","tag":{"amenity":"recycling","recycling:glass":"yes","recycling:paper":"yes","recycling:plastic":"yes","recycling_type":"container"}},"type":"Feature"},
	{"geometry":{"coordinates":[27.584336,53.911227],"type":"Point"},"properties":{"osm_id":"4984758552","tag":{"amenity":"recycling","recycling:glass":"yes","recycling:paper":"yes","recycling_type":"container"}},"type":"Feature"},
	{"geometry":{"coordinates":[27.584869,53.909905],"type":"Point"},"properties":{"osm_id":"4984758553","tag":{"amenity":"recycling","recycling:paper":"yes","recycling:plastic":"yes","recycling_type":"container"}},"type":"Feature"},
	{"geometry":{"coordinates":[27.587982,53.909291],"type":"Point"},"properties":{"osm_id":"4984758555","tag":{"amenity":"recycling","recycling:paper":"yes","recycling:plastic":"yes","recycling_type":"container"}},"type":"Feature"},
	{"geometry":{"coordinates":[27.592833,53.912083],"type":"Point"},"properties":{"osm_id":"5022634834","tag":{"amenity":"recycling","recycling:glass":"yes","recycling:paper":"yes","recycling:plastic":"yes","recycling_type":"container"}},"type":"Feature"},
	{"geometry":{"coordinates":[27.594568,53.911284],"type":"Point"},"properties":{"osm_id":"5022634840","tag":{"amenity":"recycling","recycling:paper":"yes","recycling:plastic":"yes","recycling_type":"container"}},"type":"Feature"},
	{"geometry":{"coordinates":[27.595494,53.917012],"type":"Point"},"properties":{"osm_id":"5043358488","tag":{"amenity":"recycling","recycling:paper":"yes","recycling_type":"container"}},"type":"Feature"},
	{"geometry":{"coordinates":[27.575344,53.91534],"type":"Point"},"properties":{"osm_id":"5077130929","tag":{"amenity":"recycling","recycling:glass":"yes","recycling:paper":"yes","recycling:plastic":"yes","recycling_type":"container"}},"type":"Feature"},
	{"geometry":{"coordinates":[27.586115,53.917823],"type":"Point"},"properties":{"osm_id":"5117541194","tag":{"amenity":"recycling","recycling:glass":"yes","recycling:paper":"yes","recycling:plastic":"yes","recycling_type":"container"}},"type":"Feature"},
	{"geometry":{"coordinates":[27.517673,53.911082],"type":"Point"},"properties":{"osm_id":"5137970386","tag":{"amenity":"waste_disposal"}},"type":"Feature"},
	{"geometry":{"coordinates":[27.514208,53.908135],"type":"Point"},"properties":{"osm_id":"5138033099","tag":{"amenity":"waste_basket"}},"type":"Feature"},
	{"geometry":{"coordinates":[27.514163,53.908083],"type":"Point"},"properties":{"osm_id":"5138033100","tag":{"amenity":"waste_basket"}},"type":"Feature"},
	{"geometry":{"coordinates":[27.578468,53.921983],"type":"Point"},"properties":{"osm_id":"5142853722","tag":{"amenity":"waste_basket"}},"type":"Feature"},
	{"geometry":{"coordinates":[27.576529,53.920304],"type":"Point"},"properties":{"osm_id":"5142960524","tag":{"amenity":"waste_basket"}},"type":"Feature"},
	{"geometry":{"coordinates":[27.57858,53.922067],"type":"Point"},"properties":{"osm_id":"5143000921","tag":{"amenity":"waste_basket"}},"type":"Feature"},
	{"geometry":{"coordinates":[27.582943,53.925876],"type":"Point"},"properties":{"osm_id":"5143001521","tag":{"amenity":"waste_basket"}},"type":"Feature"},
	{"geometry":{"coordinates":[27.588673,53.921483],"type":"Point"},"properties":{"osm_id":"5143645349","tag":{"amenity":"waste_basket"}},"type":"Feature"},
	{"geometry":{"coordinates":[27.588498,53.921325],"type":"Point"},"properties":{"osm_id":"5143645351","tag":{"amenity":"waste_basket"}},"type":"Feature"},
	{"geometry":{"coordinates":[27.588606,53.921424],"type":"Point"},"properties":{"osm_id":"5143683338","tag":{"amenity":"waste_basket"}},"type":"Feature"},
	{"geometry":{"coordinates":[27.587278,53.920001],"type":"Point"},"properties":{"osm_id":"5143683340","tag":{"amenity":"waste_basket"}},"type":"Feature"},
	{"geometry":{"coordinates":[27.588564,53.921381],"type":"Point"},"properties":{"osm_id":"5143692045","tag":{"amenity":"waste_basket"}},"type":"Feature"},
	{"geometry":{"coordinates":[27.587484,53.919893],"type":"Point"},"properties":{"osm_id":"5143696332","tag":{"amenity":"waste_basket"}},"type":"Feature"},
	{"geometry":{"coordinates":[27.582332,53.924795],"type":"Point"},"properties":{"osm_id":"5143773321","tag":{"amenity":"waste_basket"}},"type":"Feature"},
	{"geometry":{"coordinates":[27.539586,53.906077],"type":"Point"},"properties":{"osm_id":"5162773822","tag":{"amenity":"waste_disposal"}},"type":"Feature"},
	{"geometry":{"coordinates":[27.580887,53.921737],"type":"Point"},"properties":{"osm_id":"5163761217","tag":{"amenity":"recycling","operator":"\u00d0\u0091\u00d0\u0095\u00d0\u009b\u00d0\u0093\u00d0\u0098\u00d0\u009f\u00d0\u00a1-\u00d0\u00ad\u00d0\u009a\u00d0\u009e","operator:ru":"\u00d0\u0091\u00d0\u0095\u00d0\u009b\u00d0\u0093\u00d0\u0098\u00d0\u009f\u00d0\u00a1-\u00d0\u00ad\u00d0\u009a\u00d0\u009e","phone":"+375 33 3336272","recycling:books":"yes","recycling:magazines":"yes","recycling:newspaper":"yes","recycling:paper":"yes","recycling_type":"container"}},"type":"Feature"},
	{"geometry":{"coordinates":[27.517072,53.911886],"type":"Point"},"properties":{"osm_id":"5169132835","tag":{"amenity":"waste_disposal"}},"type":"Feature"},
	{"geometry":{"coordinates":[27.589918,53.922941],"type":"Point"},"properties":{"osm_id":"5173248126","tag":{"amenity":"recycling","recycling:paper":"yes","recycling_type":"container"}},"type":"Feature"},
	{"geometry":{"coordinates":[27.58773,53.919253],"type":"Point"},"properties":{"osm_id":"5174396283","tag":{"amenity":"recycling","recycling:glass":"yes","recycling:paper":"yes","recycling:plastic":"yes","recycling_type":"container"}},"type":"Feature"},
	{"geometry":{"coordinates":[27.51359,53.909873],"type":"Point"},"properties":{"osm_id":"5174503091","tag":{"amenity":"waste_basket"}},"type":"Feature"},
	{"geometry":{"coordinates":[27.513322,53.909855],"type":"Point"},"properties":{"osm_id":"5174503092","tag":{"amenity":"waste_basket"}},"type":"Feature"},
	{"geometry":{"coordinates":[27.513116,53.909554],"type":"Point"},"properties":{"osm_id":"5174503093","tag":{"amenity":"waste_disposal"}},"type":"Feature"},
	{"geometry":{"coordinates":[27.50981,53.910734],"type":"Point"},"properties":{"osm_id":"5174576677","tag":{"entrance":"yes"}},"type":"Feature"},
	{"geometry":{"coordinates":[27.514747,53.908938],"type":"Point"},"properties":{"osm_id":"5174576694","tag":{"amenity":"waste_disposal"}},"type":"Feature"},
	{"geometry":{"coordinates":[27.513765,53.912149],"type":"Point"},"properties":{"osm_id":"5174644781","tag":{"amenity":"waste_basket"}},"type":"Feature"},
	{"geometry":{"coordinates":[27.559971,53.911289],"type":"Point"},"properties":{"osm_id":"5186817080","tag":{"amenity":"waste_disposal"}},"type":"Feature"},
	{"geometry":{"coordinates":[27.576644,53.949116],"type":"Point"},"properties":{"osm_id":"5215168821","tag":{"amenity":"waste_disposal"}},"type":"Feature"},
	{"geometry":{"coordinates":[27.582501,53.913585],"type":"Point"},"properties":{"osm_id":"5228439423","tag":{"amenity":"recycling","recycling:glass":"yes","recycling:paper":"yes","recycling:plastic":"yes","recycling_type":"container"}},"type":"Feature"},
	{"geometry":{"coordinates":[27.582417,53.913629],"type":"Point"},"properties":{"osm_id":"5228439424","tag":{"amenity":"waste_disposal"}},"type":"Feature"},
	{"geometry":{"coordinates":[27.581615,53.913087],"type":"Point"},"properties":{"osm_id":"5228439425","tag":{"amenity":"waste_disposal"}},"type":"Feature"},
	{"geometry":{"coordinates":[27.581717,53.913045],"type":"Point"},"properties":{"osm_id":"5228451522","tag":{"amenity":"recycling","recycling:glass":"yes","recycling:paper":"yes","recycling:plastic":"yes","recycling_type":"container"}},"type":"Feature"},
	{"geometry":{"coordinates":[27.553214,53.925376],"type":"Point"},"properties":{"osm_id":"5254518121","tag":{"amenity":"recycling"}},"type":"Feature"},
	{"geometry":{"coordinates":[27.521004,53.905499],"type":"Point"},"properties":{"osm_id":"5264319006","tag":{"amenity":"waste_basket"}},"type":"Feature"},
	{"geometry":{"coordinates":[27.52101,53.905531],"type":"Point"},"properties":{"osm_id":"5264319007","tag":{"amenity":"waste_basket"}},"type":"Feature"},
	{"geometry":{"coordinates":[27.521018,53.905565],"type":"Point"},"properties":{"osm_id":"5264319008","tag":{"amenity":"waste_basket"}},"type":"Feature"},
	{"geometry":{"coordinates":[27.521023,53.905589],"type":"Point"},"properties":{"osm_id":"5264319009","tag":{"amenity":"waste_basket"}},"type":"Feature"},
	{"geometry":{"coordinates":[27.520426,53.905578],"type":"Point"},"properties":{"osm_id":"5264319016","tag":{"amenity":"recycling","recycling_type":"container"}},"type":"Feature"},
	{"geometry":{"coordinates":[27.570246,53.921149],"type":"Point"},"properties":{"osm_id":"5264320721","tag":{"amenity":"recycling","recycling:glass":"yes","recycling_type":"container"}},"type":"Feature"},
	{"geometry":{"coordinates":[27.588487,53.942582],"type":"Point"},"properties":{"name":"\u00d0\u009f\u00d1\u0080\u00d0\u00b8\u00d0\u00b5\u00d0\u00bc \u00d1\u0086\u00d0\u00b2\u00d0\u00b5\u00d1\u0082\u00d0\u00bd\u00d0\u00be\u00d0\u00b3\u00d0\u00be \u00d0\u00bb\u00d0\u00be\u00d0\u00bc\u00d0\u00b0","osm_id":"5328084622","tag":{"amenity":"recycling"}},"type":"Feature"},
	{"geometry":{"coordinates":[27.566504,53.942363],"type":"Point"},"properties":{"osm_id":"5347229362","tag":{"amenity":"waste_basket","collection_times":"\u00d0\u00ba\u00d0\u00b0\u00d0\u00b6\u00d0\u00b4\u00d1\u008b\u00d0\u00b9 \u00d0\u00b4\u00d0\u00b5\u00d0\u00bd\u00d1\u008c"}},"type":"Feature"},
	{"geometry":{"coordinates":[27.553834,53.905637],"type":"Point"},"properties":{"osm_id":"5349626826","tag":{"amenity":"waste_basket"}},"type":"Feature"},
	{"geometry":{"coordinates":[27.568072,53.928956],"type":"Point"},"properties":{"osm_id":"5404147607","tag":{"amenity":"waste_disposal"}},"type":"Feature"},
	{"geometry":{"coordinates":[27.592272,53.935961],"type":"Point"},"properties":{"osm_id":"5645556318","tag":{"amenity":"recycling","operator":"\u00d0\u009e\u00d0\u0090\u00d0\u009e \u00d0\u0091\u00d0\u00b5\u00d0\u00bb\u00d0\u00b3\u00d0\u00b8\u00d0\u00bf\u00d1\u0081","recycling:cardboard":"yes","recycling:cartons":"yes","recycling:magazines":"yes","recycling:newspaper":"yes","recycling:paper":"yes","recycling:paper_packaging":"yes","recycling_type":"container"}},"type":"Feature"},
	{"geometry":{"coordinates":[27.586734,53.913796],"type":"Point"},"properties":{"osm_id":"5649829519","tag":{"amenity":"recycling","recycling:glass":"yes","recycling:plastic":"yes","recycling_type":"container","type":"container"}},"type":"Feature"},
	{"geometry":{"coordinates":[27.591039,53.943653],"type":"Point"},"properties":{"osm_id":"5654158324","tag":{"amenity":"waste_disposal"}},"type":"Feature"},
	{"geometry":{"coordinates":[27.593563,53.943935],"type":"Point"},"properties":{"osm_id":"5654158325","tag":{"amenity":"waste_basket"}},"type":"Feature"},
	{"geometry":{"coordinates":[27.518158,53.911104],"type":"Point"},"properties":{"osm_id":"5675711476","tag":{"amenity":"waste_disposal"}},"type":"Feature"},
	{"geometry":{"coordinates":[27.544559,53.905155],"type":"Point"},"properties":{"osm_id":"5702970422","tag":{"amenity":"waste_disposal"}},"type":"Feature"},
	{"geometry":{"coordinates":[27.557732,53.916243],"type":"Point"},"properties":{"osm_id":"5786621454","tag":{"amenity":"waste_basket"}},"type":"Feature"},
	{"geometry":{"coordinates":[27.558057,53.916373],"type":"Point"},"properties":{"osm_id":"5791605753","tag":{"amenity":"waste_basket"}},"type":"Feature"},
	{"geometry":{"coordinates":[27.578523,53.910762],"type":"Point"},"properties":{"osm_id":"5808806253","tag":{"amenity":"waste_disposal"}},"type":"Feature"},
	{"geometry":{"coordinates":[27.580476,53.930717],"type":"Point"},"properties":{"osm_id":"5867391466","tag":{"entrance":"yes"}},"type":"Feature"},
	{"geometry":{"coordinates":[27.564504,53.942629],"type":"Point"},"properties":{"name":"\u00d0\u0097\u00d0\u00b0\u00d0\u00b3\u00d0\u00be\u00d1\u0082\u00d0\u00be\u00d0\u00b2\u00d0\u00b8\u00d1\u0082\u00d0\u00b5\u00d0\u00bb\u00d1\u008c\u00d0\u00bd\u00d1\u008b\u00d0\u00b9 \u00d0\u00bf\u00d1\u0083\u00d0\u00bd\u00d0\u00ba\u00d1\u0082 9","osm_id":"5867668918","tag":{"amenity":"recycling","opening_hours":"Mo-Fr 09:00-11:00, 15:00-17:00; Sa 09:00-11:30","operator":"\u00d0\u009c\u00d0\u00b8\u00d0\u00bd\u00d1\u0081\u00d0\u00ba\u00d0\u00ba\u00d0\u00be\u00d0\u00be\u00d0\u00bf\u00d0\u00b2\u00d1\u0082\u00d0\u00be\u00d1\u0080\u00d1\u0080\u00d0\u00b5\u00d1\u0081\u00d1\u0083\u00d1\u0080\u00d1\u0081\u00d1\u008b","recycling:batteries":"yes","recycling:clothes":"yes","recycling:engine_oil":"yes","recycling:paper":"yes","recycling:plastic":"yes","recycling:plastic_bottles":"yes","recycling:scrap_metal":"yes","recycling_type":"centre","website":"http://www.minskkoopvtorresursy.by"}},"type":"Feature"},
	{"geometry":{"coordinates":[27.554774,53.932917],"type":"Point"},"properties":{"osm_id":"5870318574","tag":{"amenity":"waste_disposal"}},"type":"Feature"},
	{"geometry":{"coordinates":[27.551001,53.908207],"type":"Point"},"properties":{"osm_id":"5906147009","tag":{"amenity":"waste_basket"}},"type":"Feature"},
	{"geometry":{"coordinates":[27.578056,53.924688],"type":"Point"},"properties":{"name":"\u00d0\u009f\u00d1\u0080\u00d0\u00b8\u00d1\u0091\u00d0\u00bc\u00d0\u00bd\u00d1\u008b\u00d0\u00b9 \u00d0\u00bf\u00d1\u0083\u00d0\u00bd\u00d0\u00ba\u00d1\u0082 \u00d0\u00bf\u00d0\u00be \u00d0\u00b7\u00d0\u00b0\u00d0\u00b3\u00d0\u00be\u00d1\u0082\u00d0\u00be\u00d0\u00b2\u00d0\u00ba\u00d0\u00b5 \u00d0\u00b2\u00d1\u0082\u00d0\u00be\u00d1\u0080\u00d0\u00b8\u00d1\u0087\u00d0\u00bd\u00d0\u00be\u00d0\u00b3\u00d0\u00be \u00d1\u0081\u00d1\u008b\u00d1\u0080\u00d1\u008c\u00d1\u008f","osm_id":"5919134778","tag":{"amenity":"recycling","opening_hours":"Mo-Fr 09:00-13:00; Sa 09:00-11:00; Su off","recycling:electrical_appliances":"yes","recycling:small_appliances":"yes","recycling_type":"centre"}},"type":"Feature"},
	{"geometry":{"coordinates":[27.558271,53.942206],"type":"Point"},"properties":{"osm_id":"5927172085","tag":{"amenity":"recycling"}},"type":"Feature"},
	{"geometry":{"coordinates":[27.562934,53.931128],"type":"Point"},"properties":{"osm_id":"5927177785","tag":{"amenity":"waste_disposal"}},"type":"Feature"},
	{"geometry":{"coordinates":[27.560174,53.929634],"type":"Point"},"properties":{"osm_id":"5927201188","tag":{"amenity":"waste_disposal"}},"type":"Feature"},
	{"geometry":{"coordinates":[27.57188,53.93308],"type":"Point"},"properties":{"osm_id":"5978472227","tag":{"amenity":"waste_basket"}},"type":"Feature"},
	{"geometry":{"coordinates":[27.570218,53.93345],"type":"Point"},"properties":{"osm_id":"5978472228","tag":{"amenity":"waste_basket"}},"type":"Feature"},
	{"geometry":{"coordinates":[27.56935,53.933232],"type":"Point"},"properties":{"osm_id":"5978472229","tag":{"amenity":"waste_disposal"}},"type":"Feature"},
	{"geometry":{"coordinates":[27.570095,53.935377],"type":"Point"},"properties":{"osm_id":"5978472235","tag":{"amenity":"waste_basket"}},"type":"Feature"},
	{"geometry":{"coordinates":[27.567418,53.937944],"type":"Point"},"properties":{"osm_id":"5978472247","tag":{"amenity":"waste_disposal"}},"type":"Feature"},
	{"geometry":{"coordinates":[27.566721,53.941249],"type":"Point"},"properties":{"osm_id":"6015323051","tag":{"amenity":"waste_disposal","waste":"trash"}},"type":"Feature"},
	{"geometry":{"coordinates":[27.554152,53.91955],"type":"Point"},"properties":{"osm_id":"6130455011","tag":{"amenity":"waste_disposal"}},"type":"Feature"},
	{"geometry":{"coordinates":[27.552163,53.927152],"type":"Point"},"properties":{"osm_id":"6131320008","tag":{"amenity":"recycling","recycling_type":"container"}},"type":"Feature"},
	{"geometry":{"coordinates":[27.54991,53.924691],"type":"Point"},"properties":{"osm_id":"6131504701","tag":{"amenity":"recycling","recycling_type":"container"}},"type":"Feature"},
	{"geometry":{"coordinates":[27.538024,53.921079],"type":"Point"},"properties":{"osm_id":"6368444585","tag":{"amenity":"waste_basket"}},"type":"Feature"},
	{"geometry":{"coordinates":[27.571954,53.953672],"type":"Point"},"properties":{"osm_id":"6374729886","tag":{"amenity":"waste_disposal"}},"type":"Feature"},
	{"geometry":{"coordinates":[27.513795,53.912199],"type":"Point"},"properties":{"name":"\u00d0\u009c\u00d1\u0083\u00d0\u00ba\u00d1\u0083\u00d0\u00bb\u00d0\u00b0\u00d1\u0082\u00d1\u0083\u00d1\u0080\u00d0\u00b0 \u00d0\u0091\u00d0\u00b5\u00d0\u00bb\u00d0\u0093\u00d0\u00b8\u00d0\u00bf\u00d1\u0081-\u00d0\u0092\u00d0\u00be\u00d0\u00bb\u00d0\u00bc\u00d0\u00b0","osm_id":"6417589117","tag":{"amenity":"recycling","recycling:paper":"yes","recycling_type":"container"}},"type":"Feature"},
	{"geometry":{"coordinates":[27.515049,53.911196],"type":"Point"},"properties":{"osm_id":"6417589122","tag":{"amenity":"waste_disposal"}},"type":"Feature"},
	{"geometry":{"coordinates":[27.515038,53.911136],"type":"Point"},"properties":{"osm_id":"6417589123","tag":{"amenity":"waste_disposal"}},"type":"Feature"},
	{"geometry":{"coordinates":[27.527479,53.919509],"type":"Point"},"properties":{"osm_id":"6440541462","tag":{"amenity":"waste_disposal"}},"type":"Feature"},
	{"geometry":{"coordinates":[27.525267,53.918976],"type":"Point"},"properties":{"osm_id":"6440541467","tag":{"amenity":"waste_disposal"}},"type":"Feature"},
	{"geometry":{"coordinates":[27.566391,53.938389],"type":"Point"},"properties":{"osm_id":"6522599472","tag":{"amenity":"waste_basket","colour":"White","material":"concrete"}},"type":"Feature"},
	{"geometry":{"coordinates":[27.566306,53.933829],"type":"Point"},"properties":{"osm_id":"6522634112","tag":{"amenity":"waste_basket","colour":"White"}},"type":"Feature"},
	{"geometry":{"coordinates":[27.575547,53.905726],"type":"Point"},"properties":{"osm_id":"6534096227","tag":{"amenity":"recycling","recycling_type":"container"}},"type":"Feature"},
	{"geometry":{"coordinates":[27.584883,53.920433],"type":"Point"},"properties":{"osm_id":"6723619031","tag":{"amenity":"waste_disposal"}},"type":"Feature"},
	{"geometry":{"coordinates":[27.553744,53.91858],"type":"Point"},"properties":{"osm_id":"6765090659","tag":{"access":"yes","amenity":"waste_disposal"}},"type":"Feature"},
	{"geometry":{"coordinates":[27.556505,53.934154],"type":"Point"},"properties":{"osm_id":"6776781123","tag":{"addr:housenumber":"16\u00d0\u0090","addr:street":"3-\u00d0\u00b9 \u00d0\u009e\u00d1\u0080\u00d0\u00bb\u00d0\u00be\u00d0\u00b2\u00d1\u0081\u00d0\u00ba\u00d0\u00b8\u00d0\u00b9 \u00d0\u00bf\u00d0\u00b5\u00d1\u0080\u00d0\u00b5\u00d1\u0083\u00d0\u00bb\u00d0\u00be\u00d0\u00ba","amenity":"recycling","contact:website":"http://www.minskkoopvtorresursy.by/","operator":"\u00d0\u00a3\u00d0\u009f \u00c2\u00ab\u00d0\u009c\u00d0\u0098\u00d0\u009d\u00d0\u00a1\u00d0\u009a\u00d0\u009a\u00d0\u009e\u00d0\u009e\u00d0\u009f\u00d0\u0092\u00d0\u00a2\u00d0\u009e\u00d0\u00a0\u00d0\u00a0\u00d0\u0095\u00d0\u00a1\u00d0\u00a3\u00d0\u00a0\u00d0\u00a1\u00d0\u00ab\u00c2\u00bb","recycling:glass":"yes","recycling:paper":"yes","recycling:plastic_bottles":"yes","recycling:scrap_metal":"yes","recycling_type":"centre"}},"type":"Feature"},
	{"geometry":{"coordinates":[27.558476,53.932771],"type":"Point"},"properties":{"osm_id":"6856981642","tag":{"amenity":"recycling","opening_hours":"Mo-Fr 09:00-17:00","operator":"\u00d0\u009e\u00d0\u009e\u00d0\u009e \"\u00d0\u00a1\u00d1\u0082\u00d0\u00b0\u00d0\u00bd\u00d0\u00b4\u00d0\u00b0\u00d1\u0080\u00d1\u0082 \u00d0\u00a0\u00d0\u00b5\u00d0\u00b7\u00d0\u00b5\u00d1\u0080\u00d0\u00b2\"","recycling:glass_bottles":"yes","recycling_type":"centre"}},"type":"Feature"},
	{"geometry":{"coordinates":[27.572568,53.922863],"type":"Point"},"properties":{"osm_id":"6959744145","tag":{"amenity":"recycling","operator":"\u00d0\u009e\u00d0\u009e\u00d0\u009e \"\u00d0\u00a1\u00d1\u0082\u00d0\u00b0\u00d0\u00bd\u00d0\u00b4\u00d0\u00b0\u00d1\u0080\u00d1\u0082 \u00d0\u00a0\u00d0\u00b5\u00d0\u00b7\u00d0\u00b5\u00d1\u0080\u00d0\u00b2\"","recycling:glass":"yes","recycling_type":"centre"}},"type":"Feature"},
	{"geometry":{"coordinates":[27.511694,53.910799],"type":"Point"},"properties":{"osm_id":"7058387920","tag":{"amenity":"waste_disposal"}},"type":"Feature"},
	{"geometry":{"coordinates":[27.511642,53.910839],"type":"Point"},"properties":{"osm_id":"7058387924","tag":{"amenity":"waste_basket"}},"type":"Feature"},
	{"geometry":{"coordinates":[27.545466,53.937662],"type":"Point"},"properties":{"osm_id":"7369294259","tag":{"amenity":"waste_disposal"}},"type":"Feature"},
	{"geometry":{"coordinates":[27.578449,53.914727],"type":"Point"},"properties":{"osm_id":"7376295634","tag":{"amenity":"waste_disposal"}},"type":"Feature"},
	{"geometry":{"coordinates":[27.534098,53.914137],"type":"Point"},"properties":{"name":"\u00d0\u00a3\u00d0\u009f \u00d0\u00ad\u00d0\u00ba\u00d0\u00be\u00d1\u0080\u00d0\u00b5\u00d1\u0081","osm_id":"7396860785","tag":{"amenity":"recycling","opening_hours":"Tu 09:00-10:30"}},"type":"Feature"},
	{"geometry":{"coordinates":[27.525872,53.910255],"type":"Point"},"properties":{"osm_id":"7448484685","tag":{"amenity":"recycling"}},"type":"Feature"},
	{"geometry":{"coordinates":[27.540549,53.909018],"type":"Point"},"properties":{"osm_id":"7449519185","tag":{"amenity":"waste_disposal"}},"type":"Feature"},
	{"geometry":{"coordinates":[27.52759,53.912355],"type":"Point"},"properties":{"osm_id":"7634394392","tag":{"amenity":"waste_disposal"}},"type":"Feature"},
	{"geometry":{"coordinates":[27.51099,53.910995],"type":"Point"},"properties":{"osm_id":"7838897330","tag":{"amenity":"waste_disposal"}},"type":"Feature"},
	{"geometry":{"coordinates":[27.575084,53.910183],"type":"Point"},"properties":{"osm_id":"7900266431","tag":{"amenity":"waste_disposal"}},"type":"Feature"},
	{"geometry":{"coordinates":[27.575096,53.910177],"type":"Point"},"properties":{"osm_id":"7900266432","tag":{"amenity":"waste_disposal"}},"type":"Feature"},
	{"geometry":{"coordinates":[27.575107,53.91017],"type":"Point"},"properties":{"osm_id":"7900266433","tag":{"amenity":"waste_disposal"}},"type":"Feature"},
	{"geometry":{"coordinates":[27.575043,53.910161],"type":"Point"},"properties":{"osm_id":"7900266434","tag":{"amenity":"waste_disposal"}},"type":"Feature"},
	{"geometry":{"coordinates":[27.575056,53.910156],"type":"Point"},"properties":{"osm_id":"7900266435","tag":{"amenity":"waste_disposal"}},"type":"Feature"},
	{"geometry":{"coordinates":[27.575067,53.910148],"type":"Point"},"properties":{"osm_id":"7900266436","tag":{"amenity":"waste_disposal"}},"type":"Feature"}
]
}
