{
"type": "FeatureCollection",
"features": [
	{"geometry":{"coordinates":[27.539259,53.851033],"type":"Point"},"properties":{"osm_id":"560995174","tag":{"amenity":"recycling"}},"type":"Feature"},
	{"geometry":{"coordinates":[27.579036,53.810935],"type":"Point"},"properties":{"osm_id":"561011990","tag":{"amenity":"recycling"}},"type":"Feature"},
	{"geometry":{"coordinates":[27.553736,53.850654],"type":"Point"},"properties":{"osm_id":"2623889282","tag":{"amenity":"recycling","recycling_type":"centre"}},"type":"Feature"},
	{"geometry":{"coordinates":[27.549378,53.846071],"type":"Point"},"properties":{"osm_id":"2623897600","tag":{"amenity":"waste_basket"}},"type":"Feature"},
	{"geometry":{"coordinates":[27.51364,53.849617],"type":"Point"},"properties":{"osm_id":"3588056802","tag":{"amenity":"waste_basket"}},"type":"Feature"},
	{"geometry":{"coordinates":[27.597006,53.851794],"type":"Point"},"properties":{"osm_id":"4114874091","tag":{"amenity":"recycling","recycling:paper":"yes","recycling_type":"container"}},"type":"Feature"},
	{"geometry":{"coordinates":[27.52966,53.84522],"type":"Point"},"properties":{"osm_id":"4186955023","tag":{"amenity":"waste_disposal"}},"type":"Feature"},
	{"geometry":{"coordinates":[27.529376,53.845099],"type":"Point"},"properties":{"osm_id":"4186955024","tag":{"amenity":"waste_disposal"}},"type":"Feature"},
	{"geometry":{"coordinates":[27.589748,53.851336],"type":"Point"},"properties":{"osm_id":"4252580993","tag":{"amenity":"waste_disposal"}},"type":"Feature"},
	{"geometry":{"coordinates":[27.587309,53.850891],"type":"Point"},"properties":{"osm_id":"4252610199","tag":{"amenity":"waste_disposal"}},"type":"Feature"},
	{"geometry":{"coordinates":[27.544276,53.85075],"type":"Point"},"properties":{"osm_id":"4366144898","tag":{"amenity":"waste_disposal"}},"type":"Feature"},
	{"geometry":{"coordinates":[27.544343,53.85074],"type":"Point"},"properties":{"osm_id":"4366144899","tag":{"amenity":"waste_disposal"}},"type":"Feature"},
	{"geometry":{"coordinates":[27.574156,53.839678],"type":"Point"},"properties":{"osm_id":"4417332101","tag":{"amenity":"waste_basket"}},"type":"Feature"},
	{"geometry":{"coordinates":[27.573037,53.84],"type":"Point"},"properties":{"osm_id":"4417332102","tag":{"amenity":"waste_basket"}},"type":"Feature"},
	{"geometry":{"coordinates":[27.573104,53.840627],"type":"Point"},"properties":{"osm_id":"4417332103","tag":{"amenity":"waste_basket"}},"type":"Feature"},
	{"geometry":{"coordinates":[27.571821,53.842567],"type":"Point"},"properties":{"osm_id":"4417332104","tag":{"amenity":"waste_basket"}},"type":"Feature"},
	{"geometry":{"coordinates":[27.568844,53.842107],"type":"Point"},"properties":{"osm_id":"4417332105","tag":{"amenity":"waste_basket"}},"type":"Feature"},
	{"geometry":{"coordinates":[27.568498,53.842106],"type":"Point"},"properties":{"osm_id":"4417332106","tag":{"amenity":"waste_basket"}},"type":"Feature"},
	{"geometry":{"coordinates":[27.567907,53.84186],"type":"Point"},"properties":{"osm_id":"4417332108","tag":{"amenity":"waste_basket"}},"type":"Feature"},
	{"geometry":{"coordinates":[27.572053,53.843126],"type":"Point"},"properties":{"osm_id":"4474657889","tag":{"amenity":"waste_basket"}},"type":"Feature"},
	{"geometry":{"coordinates":[27.541454,53.844149],"type":"Point"},"properties":{"name":"\u00d0\u009f\u00d1\u0080\u00d0\u00b8\u00d1\u0091\u00d0\u00bc\u00d0\u00bd\u00d0\u00be-\u00d0\u00b7\u00d0\u00b0\u00d0\u00b3\u00d0\u00be\u00d1\u0082\u00d0\u00be\u00d0\u00b2\u00d0\u00b8\u00d1\u0082\u00d0\u00b5\u00d0\u00bb\u00d1\u008c\u00d0\u00bd\u00d1\u008b\u00d0\u00b9 \u00d0\u00bf\u00d1\u0083\u00d0\u00bd\u00d0\u00ba\u00d1\u0082","osm_id":"4530086165","tag":{"amenity":"recycling","opening_hours":"Mo-Fr 09:00-19:00; Sa 09:00-14:00; Su off","operator":"\u00d0\u009e\u00d0\u0090\u00d0\u009e \"\u00d0\u0091\u00d0\u00b5\u00d0\u00bb\u00d0\u00b2\u00d1\u0082\u00d0\u00be\u00d1\u0080\u00d1\u0080\u00d0\u00b5\u00d1\u0081\u00d1\u0083\u00d1\u0080\u00d1\u0081\u00d1\u008b\"","recycling:batteries":"yes","recycling:glass":"yes","recycling:glass_bottles":"yes","recycling:paper":"yes","recycling:scrap_metal":"yes","recycling_type":"centre"}},"type":"Feature"},
	{"geometry":{"coordinates":[27.568249,53.842044],"type":"Point"},"properties":{"osm_id":"4600090990","tag":{"amenity":"waste_basket"}},"type":"Feature"},
	{"geometry":{"coordinates":[27.571733,53.842386],"type":"Point"},"properties":{"osm_id":"4609663500","tag":{"amenity":"recycling","recycling:paper":"yes","recycling_type":"container"}},"type":"Feature"},
	{"geometry":{"coordinates":[27.567087,53.842225],"type":"Point"},"properties":{"osm_id":"4616380490","tag":{"amenity":"waste_basket"}},"type":"Feature"},
	{"geometry":{"coordinates":[27.521911,53.82339],"type":"Point"},"properties":{"osm_id":"4738134369","tag":{"amenity":"waste_disposal"}},"type":"Feature"},
	{"geometry":{"coordinates":[27.534468,53.846068],"type":"Point"},"properties":{"osm_id":"5103853615","tag":{"amenity":"recycling","operator":"\u00d0\u0091\u00d0\u0095\u00d0\u009b\u00d0\u0093\u00d0\u0098\u00d0\u009f\u00d0\u00a1-\u00d0\u00ad\u00d0\u009a\u00d0\u009e","operator:ru":"\u00d0\u0091\u00d0\u0095\u00d0\u009b\u00d0\u0093\u00d0\u0098\u00d0\u009f\u00d0\u00a1-\u00d0\u00ad\u00d0\u009a\u00d0\u009e","phone":"+375 33 3336272","recycling:books":"yes","recycling:magazines":"yes","recycling:newspaper":"yes","recycling:paper":"yes","recycling_type":"container"}},"type":"Feature"},
	{"geometry":{"coordinates":[27.527969,53.84451],"type":"Point"},"properties":{"osm_id":"5104741478","tag":{"amenity":"waste_disposal"}},"type":"Feature"},
	{"geometry":{"coordinates":[27.575967,53.852092],"type":"Point"},"properties":{"osm_id":"5110994222","tag":{"amenity":"waste_disposal"}},"type":"Feature"},
	{"geometry":{"coordinates":[27.577542,53.845892],"type":"Point"},"properties":{"osm_id":"5111103146","tag":{"amenity":"recycling","recycling:glass":"yes","recycling:paper":"yes","recycling:plastic":"yes","recycling_type":"container"}},"type":"Feature"},
	{"geometry":{"coordinates":[27.554313,53.851446],"type":"Point"},"properties":{"osm_id":"5115885633","tag":{"amenity":"recycling","operator":"\u00d0\u0091\u00d0\u0095\u00d0\u009b\u00d0\u0093\u00d0\u0098\u00d0\u009f\u00d0\u00a1-\u00d0\u00ad\u00d0\u009a\u00d0\u009e","operator:ru":"\u00d0\u0091\u00d0\u0095\u00d0\u009b\u00d0\u0093\u00d0\u0098\u00d0\u009f\u00d0\u00a1-\u00d0\u00ad\u00d0\u009a\u00d0\u009e","phone":"+375 33 3336272","recycling:books":"yes","recycling:magazines":"yes","recycling:newspaper":"yes","recycling:paper":"yes","recycling_type":"container"}},"type":"Feature"},
	{"geometry":{"coordinates":[27.546294,53.851523],"type":"Point"},"properties":{"osm_id":"5115885646","tag":{"amenity":"recycling","operator":"\u00d0\u0091\u00d0\u0095\u00d0\u009b\u00d0\u0093\u00d0\u0098\u00d0\u009f\u00d0\u00a1-\u00d0\u00ad\u00d0\u009a\u00d0\u009e","operator:ru":"\u00d0\u0091\u00d0\u0095\u00d0\u009b\u00d0\u0093\u00d0\u0098\u00d0\u009f\u00d0\u00a1-\u00d0\u00ad\u00d0\u009a\u00d0\u009e","phone":"+375 33 3336272","recycling:books":"yes","recycling:magazines":"yes","recycling:newspaper":"yes","recycling:paper":"yes","recycling_type":"container"}},"type":"Feature"},
	{"geometry":{"coordinates":[27.550905,53.848682],"type":"Point"},"properties":{"osm_id":"5129123813","tag":{"amenity":"recycling","operator":"\u00d0\u0091\u00d0\u0095\u00d0\u009b\u00d0\u0093\u00d0\u0098\u00d0\u009f\u00d0\u00a1-\u00d0\u00ad\u00d0\u009a\u00d0\u009e","operator:ru":"\u00d0\u0091\u00d0\u0095\u00d0\u009b\u00d0\u0093\u00d0\u0098\u00d0\u009f\u00d0\u00a1-\u00d0\u00ad\u00d0\u009a\u00d0\u009e","phone":"+375 33 3336272","recycling:books":"yes","recycling:magazines":"yes","recycling:newspaper":"yes","recycling:paper":"yes","recycling_type":"container"}},"type":"Feature"},
	{"geometry":{"coordinates":[27.537812,53.852039],"type":"Point"},"properties":{"osm_id":"5129127528","tag":{"amenity":"recycling","operator":"\u00d0\u0091\u00d0\u0095\u00d0\u009b\u00d0\u0093\u00d0\u0098\u00d0\u009f\u00d0\u00a1-\u00d0\u00ad\u00d0\u009a\u00d0\u009e","operator:ru":"\u00d0\u0091\u00d0\u0095\u00d0\u009b\u00d0\u0093\u00d0\u0098\u00d0\u009f\u00d0\u00a1-\u00d0\u00ad\u00d0\u009a\u00d0\u009e","phone":"+375 33 3336272","recycling:books":"yes","recycling:magazines":"yes","recycling:newspaper":"yes","recycling:paper":"yes","recycling_type":"container"}},"type":"Feature"},
	{"geometry":{"coordinates":[27.581317,53.834273],"type":"Point"},"properties":{"osm_id":"5239488789","tag":{"amenity":"recycling","recycling_type":"centre"}},"type":"Feature"},
	{"geometry":{"coordinates":[27.516649,53.848386],"type":"Point"},"properties":{"osm_id":"5250245715","tag":{"amenity":"waste_basket"}},"type":"Feature"},
	{"geometry":{"coordinates":[27.568202,53.839188],"type":"Point"},"properties":{"osm_id":"5418972241","tag":{"amenity":"recycling","operator":"\u00d0\u0091\u00d0\u0095\u00d0\u009b\u00d0\u0093\u00d0\u0098\u00d0\u009f\u00d0\u00a1-\u00d0\u00ad\u00d0\u009a\u00d0\u009e","operator:ru":"\u00d0\u0091\u00d0\u0095\u00d0\u009b\u00d0\u0093\u00d0\u0098\u00d0\u009f\u00d0\u00a1-\u00d0\u00ad\u00d0\u009a\u00d0\u009e","phone":"+375 33 3336272","recycling:books":"yes","recycling:magazines":"yes","recycling:newspaper":"yes","recycling:paper":"yes","recycling_type":"container"}},"type":"Feature"},
	{"geometry":{"coordinates":[27.563501,53.841034],"type":"Point"},"properties":{"osm_id":"5485174273","tag":{"amenity":"recycling","operator":"\u00d0\u0091\u00d0\u0095\u00d0\u009b\u00d0\u0093\u00d0\u0098\u00d0\u009f\u00d0\u00a1-\u00d0\u00ad\u00d0\u009a\u00d0\u009e","operator:ru":"\u00d0\u0091\u00d0\u0095\u00d0\u009b\u00d0\u0093\u00d0\u0098\u00d0\u009f\u00d0\u00a1-\u00d0\u00ad\u00d0\u009a\u00d0\u009e","phone":"+375 33 3336272","recycling:books":"yes","recycling:magazines":"yes","recycling:newspaper":"yes","recycling:paper":"yes","recycling_type":"container","website":"http://www.belgips.by/belgips-eko/"}},"type":"Feature"},
	{"geometry":{"coordinates":[27.527496,53.843379],"type":"Point"},"properties":{"osm_id":"5550517265","tag":{"amenity":"waste_basket"}},"type":"Feature"},
	{"geometry":{"coordinates":[27.517351,53.847707],"type":"Point"},"properties":{"osm_id":"5604004252","tag":{"amenity":"waste_basket"}},"type":"Feature"},
	{"geometry":{"coordinates":[27.582715,53.839391],"type":"Point"},"properties":{"osm_id":"5679784795","tag":{"amenity":"recycling","recycling:paper":"yes","type":"container"}},"type":"Feature"},
	{"geometry":{"coordinates":[27.588529,53.835027],"type":"Point"},"properties":{"osm_id":"5685432760","tag":{"amenity":"recycling","recycling_type":"centre"}},"type":"Feature"},
	{"geometry":{"coordinates":[27.54538,53.844569],"type":"Point"},"properties":{"name":"\u00d0\u009f\u00d1\u0083\u00d0\u00bd\u00d0\u00ba\u00d1\u0082 \u00d0\u00bf\u00d1\u0080\u00d0\u00b8\u00d1\u0091\u00d0\u00bc\u00d0\u00b0 \u00d1\u0081\u00d1\u0082\u00d0\u00b5\u00d0\u00ba\u00d0\u00bb\u00d0\u00be\u00d1\u0082\u00d0\u00b0\u00d1\u0080\u00d1\u008b","osm_id":"5935081978","tag":{"amenity":"recycling","opening_hours":"Mo-Fr 08:00-16:00; Sa,Su off","operator":"\u00d0\u009e\u00d0\u009e\u00d0\u009e \"\u00d0\u00a1\u00d1\u0082\u00d0\u00b0\u00d0\u00bd\u00d0\u00b4\u00d0\u00b0\u00d1\u0080\u00d1\u0082 \u00d0\u00a0\u00d0\u00b5\u00d0\u00b7\u00d0\u00b5\u00d1\u0080\u00d0\u00b2\"","recycling:glass":"yes","recycling:glass_bottles":"yes","recycling_type":"centre"}},"type":"Feature"},
	{"geometry":{"coordinates":[27.56826,53.845596],"type":"Point"},"properties":{"osm_id":"6139016762","tag":{"amenity":"waste_basket"}},"type":"Feature"},
	{"geometry":{"coordinates":[27.520834,53.844657],"type":"Point"},"properties":{"osm_id":"6365060039","tag":{"amenity":"waste_basket"}},"type":"Feature"},
	{"geometry":{"coordinates":[27.532038,53.837985],"type":"Point"},"properties":{"osm_id":"6451598595","tag":{"amenity":"waste_disposal"}},"type":"Feature"},
	{"geometry":{"coordinates":[27.565348,53.845314],"type":"Point"},"properties":{"osm_id":"6540227834","tag":{"amenity":"waste_disposal"}},"type":"Feature"},
	{"geometry":{"coordinates":[27.564139,53.845284],"type":"Point"},"properties":{"osm_id":"6540340749","tag":{"amenity":"recycling","recycling_type":"container"}},"type":"Feature"},
	{"geometry":{"coordinates":[27.5636,53.844413],"type":"Point"},"properties":{"osm_id":"6540418309","tag":{"amenity":"waste_disposal"}},"type":"Feature"},
	{"geometry":{"coordinates":[27.563928,53.844267],"type":"Point"},"properties":{"osm_id":"6540418337","tag":{"amenity":"waste_basket"}},"type":"Feature"},
	{"geometry":{"coordinates":[27.564198,53.844269],"type":"Point"},"properties":{"osm_id":"6540418342","tag":{"amenity":"waste_basket"}},"type":"Feature"},
	{"geometry":{"coordinates":[27.5693,53.840554],"type":"Point"},"properties":{"osm_id":"6792389525","tag":{"amenity":"recycling","recycling:batteries":"yes","recycling_type":"container"}},"type":"Feature"},
	{"geometry":{"coordinates":[27.584397,53.819054],"type":"Point"},"properties":{"osm_id":"7572298692","tag":{"access":"private","amenity":"waste_disposal","waste":"mixed"}},"type":"Feature"},
	{"geometry":{"coordinates":[27.578535,53.850378],"type":"Point"},"properties":{"osm_id":"7930401303","tag":{"amenity":"waste_disposal"}},"type":"Feature"}
]
}
