{
"type": "FeatureCollection",
"features": [
	{"geometry":{"coordinates":[101.433722,0.515636],"type":"Point"},"properties":{"osm_id":"5179350737","tag":{"amenity":"waste_basket","description":"Tempat Sampah Bau"}},"type":"Feature"},
	{"geometry":{"coordinates":[101.510866,0.525657],"type":"Point"},"properties":{"name":"Manusia Sampah 102","osm_id":"6116226523","tag":{"amenity":"waste_basket","operator":"Manusia Sampah"}},"type":"Feature"},
	{"geometry":{"coordinates":[101.512298,0.52305],"type":"Point"},"properties":{"name":"Manusia Sampah 101","osm_id":"6204798654","tag":{"amenity":"waste_basket","operator":"Manusia Sampah"}},"type":"Feature"},
	{"geometry":{"coordinates":[101.502803,0.519408],"type":"Point"},"properties":{"name":"Manusia Sampah 103","osm_id":"6559395622","tag":{"amenity":"waste_basket","operator":"Manusua Sampah"}},"type":"Feature"},
	{"geometry":{"coordinates":[101.4969,0.524433],"type":"Point"},"properties":{"name":"Manusia Sampah 105","osm_id":"8388320618","tag":{"amenity":"waste_basket","operator":"Manusia Sampah"}},"type":"Feature"},
	{"geometry":{"coordinates":[101.499974,0.525233],"type":"Point"},"properties":{"name":"Manusia Sampah 104","osm_id":"8388320619","tag":{"amenity":"waste_basket","operator":"Manusia Sampah"}},"type":"Feature"},
	{"geometry":{"coordinates":[101.512758,0.521904],"type":"Point"},"properties":{"name":"Manusia Sampah 100","osm_id":"8388320620","tag":{"amenity":"waste_basket","operator":"Manusia Sampah"}},"type":"Feature"},
	{"geometry":{"coordinates":[101.510036,0.519513],"type":"Point"},"properties":{"name":"Manusia Sampah 110","osm_id":"8467283355","tag":{"amenity":"waste_basket","operator":"Manusia Sampah"}},"type":"Feature"}
]
}
