{
"type": "FeatureCollection",
"features": [
	{"geometry":{"coordinates":[35.143483,31.841421],"type":"Point"},"properties":{"name":"\u00d9\u0085\u00d9\u0086\u00d8\u00b7\u00d9\u0082\u00d8\u00a9 \u00d8\u00a7\u00d8\u00b9\u00d8\u00a7\u00d8\u00af\u00d8\u00a9 \u00d8\u00aa\u00d8\u00af\u00d9\u0088\u00d9\u008a\u00d8\u00b1","osm_id":"432285850","tag":{"amenity":"recycling","name:ar":"\u00d9\u0085\u00d9\u0086\u00d8\u00b7\u00d9\u0082\u00d8\u00a9 \u00d8\u00a7\u00d8\u00b9\u00d8\u00a7\u00d8\u00af\u00d8\u00a9 \u00d8\u00aa\u00d8\u00af\u00d9\u0088\u00d9\u008a\u00d8\u00b1","recycling:batteries":"yes","recycling:clothes":"yes","recycling:glass":"yes"}},"type":"Feature"},
	{"geometry":{"coordinates":[35.08839,31.811262],"type":"Point"},"properties":{"osm_id":"4154126603","tag":{"amenity":"waste_basket"}},"type":"Feature"},
	{"geometry":{"coordinates":[35.089871,31.810015],"type":"Point"},"properties":{"osm_id":"6801670980","tag":{"amenity":"waste_basket"}},"type":"Feature"},
	{"geometry":{"coordinates":[35.148805,31.807335],"type":"Point"},"properties":{"osm_id":"7215751675","tag":{"amenity":"waste_basket","waste":"trash"}},"type":"Feature"},
	{"geometry":{"coordinates":[35.149103,31.807223],"type":"Point"},"properties":{"osm_id":"7215773188","tag":{"amenity":"waste_basket","waste":"trash"}},"type":"Feature"},
	{"geometry":{"coordinates":[35.14879,31.807276],"type":"Point"},"properties":{"osm_id":"7215773193","tag":{"amenity":"waste_basket","waste":"trash"}},"type":"Feature"},
	{"geometry":{"coordinates":[35.148829,31.807403],"type":"Point"},"properties":{"osm_id":"7215773202","tag":{"amenity":"waste_basket","waste":"trash"}},"type":"Feature"},
	{"geometry":{"coordinates":[35.149123,31.807388],"type":"Point"},"properties":{"osm_id":"7215773203","tag":{"amenity":"waste_basket","waste":"trash"}},"type":"Feature"},
	{"geometry":{"coordinates":[35.153878,31.811072],"type":"Point"},"properties":{"osm_id":"7236295861","tag":{"amenity":"waste_basket","waste":"trash"}},"type":"Feature"},
	{"geometry":{"coordinates":[35.154076,31.811193],"type":"Point"},"properties":{"osm_id":"7236295862","tag":{"amenity":"waste_basket","waste":"trash"}},"type":"Feature"},
	{"geometry":{"coordinates":[35.15399,31.811097],"type":"Point"},"properties":{"osm_id":"7236295875","tag":{"amenity":"waste_basket","waste":"trash"}},"type":"Feature"}
]
}
