{
"type": "FeatureCollection",
"features": [
	{"geometry":{"coordinates":[49.780684,52.990591],"type":"Point"},"properties":{"osm_id":"1510094898","tag":{"amenity":"waste_disposal"}},"type":"Feature"},
	{"geometry":{"coordinates":[49.774921,52.995017],"type":"Point"},"properties":{"osm_id":"1510094908","tag":{"amenity":"waste_disposal"}},"type":"Feature"},
	{"geometry":{"coordinates":[49.773531,52.993883],"type":"Point"},"properties":{"osm_id":"1510094969","tag":{"amenity":"waste_disposal"}},"type":"Feature"},
	{"geometry":{"coordinates":[49.776754,52.996272],"type":"Point"},"properties":{"osm_id":"1510095029","tag":{"amenity":"waste_disposal"}},"type":"Feature"},
	{"geometry":{"coordinates":[49.774284,52.99144],"type":"Point"},"properties":{"osm_id":"1510095035","tag":{"amenity":"waste_disposal"}},"type":"Feature"},
	{"geometry":{"coordinates":[49.781582,52.995108],"type":"Point"},"properties":{"osm_id":"1510095042","tag":{"amenity":"waste_disposal"}},"type":"Feature"},
	{"geometry":{"coordinates":[49.775535,52.99507],"type":"Point"},"properties":{"osm_id":"1510150568","tag":{"amenity":"waste_basket"}},"type":"Feature"},
	{"geometry":{"coordinates":[49.774927,52.996547],"type":"Point"},"properties":{"osm_id":"1720993149","tag":{"amenity":"waste_disposal"}},"type":"Feature"},
	{"geometry":{"coordinates":[49.773116,52.994462],"type":"Point"},"properties":{"osm_id":"1752675661","tag":{"amenity":"waste_disposal"}},"type":"Feature"},
	{"geometry":{"coordinates":[49.775671,52.995044],"type":"Point"},"properties":{"osm_id":"3044966484","tag":{"amenity":"waste_basket","start_date":"2014-08"}},"type":"Feature"},
	{"geometry":{"coordinates":[49.778334,52.992637],"type":"Point"},"properties":{"osm_id":"3060797060","tag":{"amenity":"waste_basket"}},"type":"Feature"},
	{"geometry":{"coordinates":[49.778121,52.992671],"type":"Point"},"properties":{"osm_id":"3060797064","tag":{"amenity":"waste_basket"}},"type":"Feature"},
	{"geometry":{"coordinates":[49.778428,52.992681],"type":"Point"},"properties":{"osm_id":"3060797068","tag":{"amenity":"waste_basket"}},"type":"Feature"},
	{"geometry":{"coordinates":[49.778379,52.992797],"type":"Point"},"properties":{"osm_id":"3060797074","tag":{"amenity":"waste_basket"}},"type":"Feature"},
	{"geometry":{"coordinates":[49.774374,52.992407],"type":"Point"},"properties":{"osm_id":"3595680432","tag":{"amenity":"waste_basket"}},"type":"Feature"},
	{"geometry":{"coordinates":[49.750572,53.005164],"type":"Point"},"properties":{"osm_id":"4368592091","tag":{"amenity":"waste_disposal"}},"type":"Feature"},
	{"geometry":{"coordinates":[49.778452,52.992883],"type":"Point"},"properties":{"osm_id":"5178248675","tag":{"amenity":"waste_basket"}},"type":"Feature"},
	{"geometry":{"coordinates":[49.778432,52.992872],"type":"Point"},"properties":{"osm_id":"5178248676","tag":{"amenity":"waste_basket"}},"type":"Feature"}
]
}
