{
"type": "FeatureCollection",
"features": [
	{"geometry":{"coordinates":[0.710851,51.556615],"type":"Point"},"properties":{"name":"Stock Rd Civic Amenity Site","osm_id":"628243322","tag":{"amenity":"recycling"}},"type":"Feature"},
	{"geometry":{"coordinates":[0.707601,51.546167],"type":"Point"},"properties":{"osm_id":"630506620","tag":{"amenity":"waste_basket","waste":"dog_excrement"}},"type":"Feature"},
	{"geometry":{"coordinates":[0.705769,51.548511],"type":"Point"},"properties":{"osm_id":"630653833","tag":{"amenity":"waste_basket","waste":"dog_excrement"}},"type":"Feature"},
	{"geometry":{"coordinates":[0.706655,51.54826],"type":"Point"},"properties":{"osm_id":"630661635","tag":{"amenity":"waste_basket"}},"type":"Feature"},
	{"geometry":{"coordinates":[0.706634,51.548226],"type":"Point"},"properties":{"osm_id":"630661636","tag":{"amenity":"waste_basket","waste":"dog_excrement"}},"type":"Feature"},
	{"geometry":{"coordinates":[0.706046,51.548375],"type":"Point"},"properties":{"osm_id":"630661637","tag":{"amenity":"waste_basket"}},"type":"Feature"},
	{"geometry":{"coordinates":[0.706398,51.548496],"type":"Point"},"properties":{"osm_id":"630661644","tag":{"amenity":"waste_basket"}},"type":"Feature"},
	{"geometry":{"coordinates":[0.731032,51.540459],"type":"Point"},"properties":{"osm_id":"1599844128","tag":{"amenity":"recycling"}},"type":"Feature"}
]
}
