{
"type": "FeatureCollection",
"features": [
	{"geometry":{"coordinates":[0.787522,50.936275],"type":"Point"},"properties":{"osm_id":"420417857","tag":{"amenity":"recycling","recycling:glass_bottles":"yes"}},"type":"Feature"},
	{"geometry":{"coordinates":[0.725185,50.949899],"type":"Point"},"properties":{"name":"Gibbet Marsh Car Park","osm_id":"420420602","tag":{"amenity":"recycling","recycling:cans":"yes","recycling:cardboard":"yes","recycling:glass_bottles":"yes"}},"type":"Feature"},
	{"geometry":{"coordinates":[0.722825,50.915754],"type":"Point"},"properties":{"osm_id":"2923645057","tag":{"amenity":"recycling","recycling:glass":"yes"}},"type":"Feature"},
	{"geometry":{"coordinates":[0.732073,50.949026],"type":"Point"},"properties":{"osm_id":"6087860704","tag":{"amenity":"waste_basket"}},"type":"Feature"},
	{"geometry":{"coordinates":[0.707812,50.922492],"type":"Point"},"properties":{"osm_id":"8340399148","tag":{"amenity":"recycling","recycling_type":"container"}},"type":"Feature"},
	{"geometry":{"coordinates":[0.729298,50.949637],"type":"Point"},"properties":{"osm_id":"8606356550","tag":{"amenity":"waste_basket"}},"type":"Feature"}
]
}
