{
"type": "FeatureCollection",
"features": [
	{"geometry":{"coordinates":[0.703596,47.427908],"type":"Point"},"properties":{"osm_id":"831318170","tag":{"amenity":"waste_basket"}},"type":"Feature"},
	{"geometry":{"coordinates":[0.707706,47.438571],"type":"Point"},"properties":{"name":"D\u00c3\u00a9ch\u00c3\u00a8terie de la Milleti\u00c3\u00a8re","osm_id":"2387340178","tag":{"amenity":"recycling","operator":"Tours(s)plus","phone":"+33 2 47 41 74 28","recycling_type":"centre","ref:FR:SINOE":"98671","start_date":"2011"}},"type":"Feature"},
	{"geometry":{"coordinates":[0.756208,47.413121],"type":"Point"},"properties":{"osm_id":"3559049726","tag":{"amenity":"recycling","recycling:glass_bottles":"yes","recycling_type":"container"}},"type":"Feature"},
	{"geometry":{"coordinates":[0.712131,47.402492],"type":"Point"},"properties":{"osm_id":"4383605993","tag":{"amenity":"recycling","recycling:glass_bottles":"yes","recycling_type":"container"}},"type":"Feature"},
	{"geometry":{"coordinates":[0.703628,47.42697],"type":"Point"},"properties":{"osm_id":"4451050884","tag":{"amenity":"waste_basket"}},"type":"Feature"},
	{"geometry":{"coordinates":[0.703259,47.427062],"type":"Point"},"properties":{"osm_id":"4451050886","tag":{"amenity":"waste_basket"}},"type":"Feature"},
	{"geometry":{"coordinates":[0.703535,47.427311],"type":"Point"},"properties":{"osm_id":"4451051289","tag":{"amenity":"waste_basket"}},"type":"Feature"},
	{"geometry":{"coordinates":[0.703799,47.427395],"type":"Point"},"properties":{"osm_id":"4451051290","tag":{"amenity":"waste_basket"}},"type":"Feature"},
	{"geometry":{"coordinates":[0.704052,47.435124],"type":"Point"},"properties":{"osm_id":"4456725605","tag":{"amenity":"waste_basket"}},"type":"Feature"},
	{"geometry":{"coordinates":[0.755189,47.414448],"type":"Point"},"properties":{"osm_id":"5155847321","tag":{"amenity":"waste_basket"}},"type":"Feature"},
	{"geometry":{"coordinates":[0.704786,47.400537],"type":"Point"},"properties":{"osm_id":"6363523346","tag":{"amenity":"waste_basket"}},"type":"Feature"},
	{"geometry":{"coordinates":[0.706384,47.409357],"type":"Point"},"properties":{"osm_id":"6373259219","tag":{"amenity":"recycling","recycling:glass_bottles":"yes","recycling_type":"container"}},"type":"Feature"},
	{"geometry":{"coordinates":[0.706393,47.409335],"type":"Point"},"properties":{"osm_id":"6373259220","tag":{"amenity":"recycling","operator":"Le Relais","recycling:clothes":"yes","recycling_type":"container"}},"type":"Feature"},
	{"geometry":{"coordinates":[0.718181,47.408304],"type":"Point"},"properties":{"osm_id":"6793972688","tag":{"amenity":"recycling","location":"overground","recycling:glass_bottles":"yes","recycling_type":"container"}},"type":"Feature"},
	{"geometry":{"coordinates":[0.711578,47.415792],"type":"Point"},"properties":{"osm_id":"6794030615","tag":{"amenity":"recycling","location":"overground","recycling:glass_bottles":"yes","recycling_type":"container"}},"type":"Feature"},
	{"geometry":{"coordinates":[0.711222,47.419638],"type":"Point"},"properties":{"osm_id":"6805667961","tag":{"amenity":"recycling","location":"underground","recycling_type":"container"}},"type":"Feature"},
	{"geometry":{"coordinates":[0.704557,47.422259],"type":"Point"},"properties":{"osm_id":"7007666135","tag":{"amenity":"recycling","location":"underground","recycling:cans":"yes","recycling:paper":"yes","recycling:plastic_bottles":"yes","recycling:waste":"yes","recycling_type":"container"}},"type":"Feature"},
	{"geometry":{"coordinates":[0.708864,47.422185],"type":"Point"},"properties":{"osm_id":"7007721390","tag":{"amenity":"recycling","location":"underground","recycling:cans":"yes","recycling:paper":"yes","recycling:plastic_bottles":"yes","recycling:waste":"yes","recycling_type":"container"}},"type":"Feature"},
	{"geometry":{"coordinates":[0.709828,47.415167],"type":"Point"},"properties":{"osm_id":"7007721391","tag":{"amenity":"recycling","location":"underground","recycling:cans":"yes","recycling:glass_bottles":"yes","recycling:paper":"yes","recycling:plastic_bottles":"yes","recycling:waste":"yes","recycling_type":"container"}},"type":"Feature"},
	{"geometry":{"coordinates":[0.706547,47.449734],"type":"Point"},"properties":{"osm_id":"7011953950","tag":{"amenity":"recycling","location":"overground","recycling:glass_bottles":"yes","recycling_type":"container"}},"type":"Feature"},
	{"geometry":{"coordinates":[0.705616,47.42825],"type":"Point"},"properties":{"osm_id":"7054329389","tag":{"amenity":"recycling","capacity":"2","location":"overground","operator":"Le Relais","recycling:clothes":"yes","recycling_type":"container"}},"type":"Feature"},
	{"geometry":{"coordinates":[0.756242,47.413561],"type":"Point"},"properties":{"osm_id":"7510766299","tag":{"amenity":"recycling","location":"overground","recycling:glass_bottles":"yes","recycling_type":"container"}},"type":"Feature"},
	{"geometry":{"coordinates":[0.756278,47.413585],"type":"Point"},"properties":{"osm_id":"7510766303","tag":{"amenity":"recycling","location":"overground","operator":"Le Relais","recycling:clothes":"yes","recycling_type":"container"}},"type":"Feature"},
	{"geometry":{"coordinates":[0.745153,47.442254],"type":"Point"},"properties":{"osm_id":"7517166665","tag":{"amenity":"recycling","location":"overground","recycling:glass_bottles":"yes","recycling_type":"container"}},"type":"Feature"},
	{"geometry":{"coordinates":[0.710477,47.401803],"type":"Point"},"properties":{"osm_id":"8265145214","tag":{"amenity":"waste_basket","waste":"trash"}},"type":"Feature"},
	{"geometry":{"coordinates":[0.708848,47.401121],"type":"Point"},"properties":{"osm_id":"8265209533","tag":{"amenity":"waste_basket","material":"steel"}},"type":"Feature"},
	{"geometry":{"coordinates":[0.708497,47.400667],"type":"Point"},"properties":{"osm_id":"8265209534","tag":{"amenity":"waste_basket","material":"steel","waste":"trash"}},"type":"Feature"},
	{"geometry":{"coordinates":[0.707898,47.400651],"type":"Point"},"properties":{"osm_id":"8265209535","tag":{"amenity":"waste_basket","material":"steel"}},"type":"Feature"},
	{"geometry":{"coordinates":[0.706886,47.401286],"type":"Point"},"properties":{"osm_id":"8265209537","tag":{"amenity":"waste_basket","material":"steel","waste":"trash"}},"type":"Feature"},
	{"geometry":{"coordinates":[0.704531,47.401709],"type":"Point"},"properties":{"osm_id":"8265257355","tag":{"amenity":"waste_basket","waste":"trash"}},"type":"Feature"},
	{"geometry":{"coordinates":[0.70747,47.402049],"type":"Point"},"properties":{"osm_id":"8265257361","tag":{"amenity":"waste_basket","material":"steel","waste":"trash"}},"type":"Feature"},
	{"geometry":{"coordinates":[0.70549,47.401994],"type":"Point"},"properties":{"osm_id":"8265257364","tag":{"amenity":"waste_basket","material":"steel","waste":"trash"}},"type":"Feature"},
	{"geometry":{"coordinates":[0.724596,47.403241],"type":"Point"},"properties":{"osm_id":"8265257367","tag":{"amenity":"waste_basket","material":"steel","waste":"trash"}},"type":"Feature"},
	{"geometry":{"coordinates":[0.73438,47.404711],"type":"Point"},"properties":{"osm_id":"8693603518","tag":{"amenity":"waste_basket","survey:date":"2021-05-03"}},"type":"Feature"},
	{"geometry":{"coordinates":[0.734389,47.404601],"type":"Point"},"properties":{"osm_id":"8693603617","tag":{"amenity":"waste_basket","survey:date":"2021-05-03"}},"type":"Feature"},
	{"geometry":{"coordinates":[0.734077,47.404865],"type":"Point"},"properties":{"osm_id":"8693603618","tag":{"amenity":"waste_basket","survey:date":"2021-05-03"}},"type":"Feature"},
	{"geometry":{"coordinates":[0.734359,47.404955],"type":"Point"},"properties":{"osm_id":"8693603717","tag":{"amenity":"waste_basket","survey:date":"2021-05-03"}},"type":"Feature"},
	{"geometry":{"coordinates":[0.706222,47.402288],"type":"Point"},"properties":{"osm_id":"8911440210","tag":{"amenity":"waste_basket","waste":"trash"}},"type":"Feature"},
	{"geometry":{"coordinates":[0.708578,47.402099],"type":"Point"},"properties":{"osm_id":"8911440211","tag":{"amenity":"waste_basket","waste":"trash"}},"type":"Feature"},
	{"geometry":{"coordinates":[0.706866,47.402295],"type":"Point"},"properties":{"osm_id":"8911440213","tag":{"amenity":"waste_basket","waste":"trash"}},"type":"Feature"},
	{"geometry":{"coordinates":[0.7108,47.40229],"type":"Point"},"properties":{"osm_id":"8911440214","tag":{"amenity":"waste_basket","waste":"trash"}},"type":"Feature"},
	{"geometry":{"coordinates":[0.703127,47.40192],"type":"Point"},"properties":{"osm_id":"8911440215","tag":{"amenity":"waste_basket","waste":"trash"}},"type":"Feature"}
]
}
