{
"type": "FeatureCollection",
"features": [
	{"geometry":{"coordinates":[0.71462,45.179337],"type":"Point"},"properties":{"osm_id":"3056286285","tag":{"amenity":"waste_basket"}},"type":"Feature"},
	{"geometry":{"coordinates":[0.713714,45.179919],"type":"Point"},"properties":{"osm_id":"3056286293","tag":{"amenity":"waste_basket"}},"type":"Feature"},
	{"geometry":{"coordinates":[0.713793,45.179947],"type":"Point"},"properties":{"osm_id":"3056286295","tag":{"amenity":"waste_basket"}},"type":"Feature"},
	{"geometry":{"coordinates":[0.712949,45.18268],"type":"Point"},"properties":{"osm_id":"3056286310","tag":{"amenity":"waste_basket"}},"type":"Feature"},
	{"geometry":{"coordinates":[0.717884,45.182752],"type":"Point"},"properties":{"osm_id":"3056286316","tag":{"amenity":"waste_basket"}},"type":"Feature"},
	{"geometry":{"coordinates":[0.713147,45.183179],"type":"Point"},"properties":{"osm_id":"3056287136","tag":{"amenity":"waste_basket"}},"type":"Feature"},
	{"geometry":{"coordinates":[0.720602,45.182664],"type":"Point"},"properties":{"osm_id":"3057614600","tag":{"amenity":"waste_basket"}},"type":"Feature"},
	{"geometry":{"coordinates":[0.720525,45.182688],"type":"Point"},"properties":{"osm_id":"3057614601","tag":{"amenity":"waste_basket"}},"type":"Feature"},
	{"geometry":{"coordinates":[0.721578,45.183438],"type":"Point"},"properties":{"osm_id":"3057614607","tag":{"amenity":"waste_basket"}},"type":"Feature"},
	{"geometry":{"coordinates":[0.721647,45.185391],"type":"Point"},"properties":{"osm_id":"3057676969","tag":{"amenity":"waste_basket"}},"type":"Feature"},
	{"geometry":{"coordinates":[0.722922,45.185691],"type":"Point"},"properties":{"osm_id":"3057676971","tag":{"amenity":"recycling","location":"underground","recycling:glass_bottles":"yes","recycling_type":"container"}},"type":"Feature"},
	{"geometry":{"coordinates":[0.722604,45.18316],"type":"Point"},"properties":{"osm_id":"3057808132","tag":{"amenity":"waste_basket"}},"type":"Feature"},
	{"geometry":{"coordinates":[0.722302,45.183175],"type":"Point"},"properties":{"osm_id":"3057809235","tag":{"amenity":"waste_basket"}},"type":"Feature"},
	{"geometry":{"coordinates":[0.723646,45.183475],"type":"Point"},"properties":{"osm_id":"3057809250","tag":{"amenity":"waste_basket"}},"type":"Feature"},
	{"geometry":{"coordinates":[0.73171,45.177384],"type":"Point"},"properties":{"osm_id":"3170322543","tag":{"amenity":"waste_basket"}},"type":"Feature"},
	{"geometry":{"coordinates":[0.732156,45.177525],"type":"Point"},"properties":{"osm_id":"3170338443","tag":{"amenity":"waste_basket"}},"type":"Feature"},
	{"geometry":{"coordinates":[0.732848,45.177645],"type":"Point"},"properties":{"osm_id":"3170338446","tag":{"amenity":"recycling","recycling:clothes":"yes"}},"type":"Feature"},
	{"geometry":{"coordinates":[0.707424,45.193269],"type":"Point"},"properties":{"osm_id":"3170474949","tag":{"amenity":"recycling","recycling:glass_bottles":"yes","recycling_type":"container"}},"type":"Feature"},
	{"geometry":{"coordinates":[0.707397,45.193289],"type":"Point"},"properties":{"osm_id":"3170474950","tag":{"amenity":"recycling","recycling:glass_bottles":"yes","recycling_type":"container"}},"type":"Feature"},
	{"geometry":{"coordinates":[0.708304,45.194984],"type":"Point"},"properties":{"osm_id":"3170484483","tag":{"amenity":"recycling","recycling:glass_bottles":"yes","recycling_type":"container"}},"type":"Feature"},
	{"geometry":{"coordinates":[0.707401,45.19603],"type":"Point"},"properties":{"osm_id":"3170484484","tag":{"amenity":"waste_basket"}},"type":"Feature"},
	{"geometry":{"coordinates":[0.719279,45.18493],"type":"Point"},"properties":{"osm_id":"4279860804","tag":{"amenity":"waste_basket"}},"type":"Feature"},
	{"geometry":{"coordinates":[0.710333,45.156066],"type":"Point"},"properties":{"name":"Centre de Tri - La Rampinsolle","osm_id":"4308361107","tag":{"amenity":"recycling","recycling_type":"centre"}},"type":"Feature"},
	{"geometry":{"coordinates":[0.708761,45.155589],"type":"Point"},"properties":{"name":"SMD3","osm_id":"4308361589","tag":{"amenity":"recycling","recycling_type":"centre"}},"type":"Feature"},
	{"geometry":{"coordinates":[0.726329,45.21275],"type":"Point"},"properties":{"osm_id":"5471658463","tag":{"amenity":"recycling","recycling:cans":"yes","recycling:cardboard":"yes","recycling:paper":"yes","recycling:plastic":"yes","recycling:plastic_bottles":"yes","recycling:plastic_packaging":"yes","recycling:waste":"yes","recycling_type":"container"}},"type":"Feature"},
	{"geometry":{"coordinates":[0.72473,45.201645],"type":"Point"},"properties":{"osm_id":"5471658466","tag":{"amenity":"recycling","recycling_type":"container"}},"type":"Feature"},
	{"geometry":{"coordinates":[0.72319,45.184061],"type":"Point"},"properties":{"osm_id":"5685832456","tag":{"amenity":"waste_disposal"}},"type":"Feature"},
	{"geometry":{"coordinates":[0.723212,45.184057],"type":"Point"},"properties":{"osm_id":"5685832457","tag":{"amenity":"recycling","recycling_type":"container"}},"type":"Feature"},
	{"geometry":{"coordinates":[0.716946,45.184264],"type":"Point"},"properties":{"osm_id":"5739211192","tag":{"amenity":"recycling","recycling_type":"container"}},"type":"Feature"},
	{"geometry":{"coordinates":[0.716921,45.184233],"type":"Point"},"properties":{"osm_id":"5739211193","tag":{"amenity":"waste_disposal"}},"type":"Feature"},
	{"geometry":{"coordinates":[0.718646,45.182951],"type":"Point"},"properties":{"osm_id":"5818001155","tag":{"amenity":"waste_basket"}},"type":"Feature"},
	{"geometry":{"coordinates":[0.718665,45.182773],"type":"Point"},"properties":{"osm_id":"5818027753","tag":{"amenity":"waste_basket"}},"type":"Feature"},
	{"geometry":{"coordinates":[0.725767,45.183041],"type":"Point"},"properties":{"osm_id":"5865527138","tag":{"amenity":"waste_disposal"}},"type":"Feature"},
	{"geometry":{"coordinates":[0.725393,45.179833],"type":"Point"},"properties":{"osm_id":"5985968678","tag":{"amenity":"recycling","recycling_type":"container"}},"type":"Feature"},
	{"geometry":{"coordinates":[0.725387,45.179823],"type":"Point"},"properties":{"osm_id":"5985968681","tag":{"amenity":"waste_disposal"}},"type":"Feature"},
	{"geometry":{"coordinates":[0.725777,45.183039],"type":"Point"},"properties":{"osm_id":"5985968682","tag":{"amenity":"recycling","recycling_type":"container"}},"type":"Feature"},
	{"geometry":{"coordinates":[0.718791,45.196446],"type":"Point"},"properties":{"osm_id":"6435479871","tag":{"amenity":"waste_basket"}},"type":"Feature"},
	{"geometry":{"coordinates":[0.718964,45.196339],"type":"Point"},"properties":{"osm_id":"6435479872","tag":{"amenity":"waste_basket"}},"type":"Feature"},
	{"geometry":{"coordinates":[0.718981,45.196444],"type":"Point"},"properties":{"osm_id":"6435479873","tag":{"amenity":"waste_basket"}},"type":"Feature"},
	{"geometry":{"coordinates":[0.718873,45.196272],"type":"Point"},"properties":{"osm_id":"6435479875","tag":{"amenity":"waste_basket"}},"type":"Feature"},
	{"geometry":{"coordinates":[0.719088,45.196057],"type":"Point"},"properties":{"osm_id":"6435479876","tag":{"amenity":"waste_basket"}},"type":"Feature"},
	{"geometry":{"coordinates":[0.717746,45.196511],"type":"Point"},"properties":{"osm_id":"6435479877","tag":{"amenity":"waste_basket"}},"type":"Feature"},
	{"geometry":{"coordinates":[0.719393,45.1964],"type":"Point"},"properties":{"osm_id":"6435479878","tag":{"amenity":"waste_basket"}},"type":"Feature"},
	{"geometry":{"coordinates":[0.719779,45.195995],"type":"Point"},"properties":{"osm_id":"6435479879","tag":{"amenity":"waste_basket"}},"type":"Feature"},
	{"geometry":{"coordinates":[0.719201,45.196451],"type":"Point"},"properties":{"osm_id":"6435479880","tag":{"amenity":"waste_basket"}},"type":"Feature"},
	{"geometry":{"coordinates":[0.72019,45.196416],"type":"Point"},"properties":{"osm_id":"6435479881","tag":{"amenity":"waste_basket"}},"type":"Feature"},
	{"geometry":{"coordinates":[0.718597,45.196475],"type":"Point"},"properties":{"osm_id":"6435479882","tag":{"amenity":"waste_basket"}},"type":"Feature"},
	{"geometry":{"coordinates":[0.718383,45.196532],"type":"Point"},"properties":{"osm_id":"6435479883","tag":{"amenity":"waste_basket"}},"type":"Feature"},
	{"geometry":{"coordinates":[0.719013,45.179699],"type":"Point"},"properties":{"osm_id":"6477888487","tag":{"amenity":"waste_basket"}},"type":"Feature"},
	{"geometry":{"coordinates":[0.718819,45.179708],"type":"Point"},"properties":{"osm_id":"6477888491","tag":{"amenity":"waste_basket"}},"type":"Feature"},
	{"geometry":{"coordinates":[0.718188,45.182931],"type":"Point"},"properties":{"osm_id":"6706262608","tag":{"amenity":"waste_basket"}},"type":"Feature"},
	{"geometry":{"coordinates":[0.718212,45.183065],"type":"Point"},"properties":{"osm_id":"6706262609","tag":{"amenity":"waste_basket"}},"type":"Feature"},
	{"geometry":{"coordinates":[0.716182,45.184108],"type":"Point"},"properties":{"osm_id":"6708729184","tag":{"amenity":"waste_basket"}},"type":"Feature"},
	{"geometry":{"coordinates":[0.716843,45.183938],"type":"Point"},"properties":{"osm_id":"6708749185","tag":{"amenity":"waste_basket"}},"type":"Feature"},
	{"geometry":{"coordinates":[0.717392,45.183927],"type":"Point"},"properties":{"osm_id":"6708749186","tag":{"amenity":"waste_basket"}},"type":"Feature"},
	{"geometry":{"coordinates":[0.717931,45.183768],"type":"Point"},"properties":{"osm_id":"6708749187","tag":{"amenity":"waste_basket"}},"type":"Feature"},
	{"geometry":{"coordinates":[0.717384,45.182225],"type":"Point"},"properties":{"osm_id":"6708749188","tag":{"amenity":"waste_basket"}},"type":"Feature"},
	{"geometry":{"coordinates":[0.718685,45.182376],"type":"Point"},"properties":{"osm_id":"6708749190","tag":{"amenity":"waste_basket"}},"type":"Feature"},
	{"geometry":{"coordinates":[0.721469,45.181557],"type":"Point"},"properties":{"osm_id":"6708749193","tag":{"amenity":"waste_disposal"}},"type":"Feature"},
	{"geometry":{"coordinates":[0.724312,45.179861],"type":"Point"},"properties":{"osm_id":"6708749194","tag":{"amenity":"recycling","recycling_type":"container"}},"type":"Feature"},
	{"geometry":{"coordinates":[0.724303,45.179851],"type":"Point"},"properties":{"osm_id":"6708749195","tag":{"amenity":"waste_disposal"}},"type":"Feature"},
	{"geometry":{"coordinates":[0.725906,45.179271],"type":"Point"},"properties":{"osm_id":"6708749199","tag":{"amenity":"waste_basket"}},"type":"Feature"},
	{"geometry":{"coordinates":[0.730095,45.177554],"type":"Point"},"properties":{"osm_id":"6708749201","tag":{"amenity":"waste_basket"}},"type":"Feature"},
	{"geometry":{"coordinates":[0.731392,45.177235],"type":"Point"},"properties":{"osm_id":"6708749205","tag":{"amenity":"waste_basket"}},"type":"Feature"},
	{"geometry":{"coordinates":[0.731662,45.176969],"type":"Point"},"properties":{"osm_id":"6708749206","tag":{"amenity":"waste_basket"}},"type":"Feature"},
	{"geometry":{"coordinates":[0.722096,45.183149],"type":"Point"},"properties":{"osm_id":"6723665460","tag":{"amenity":"recycling","location":"underground","recycling_type":"container"}},"type":"Feature"},
	{"geometry":{"coordinates":[0.721245,45.184339],"type":"Point"},"properties":{"osm_id":"7190940573","tag":{"amenity":"recycling","recycling_type":"container"}},"type":"Feature"},
	{"geometry":{"coordinates":[0.7244,45.180252],"type":"Point"},"properties":{"osm_id":"7515420532","tag":{"amenity":"recycling","recycling:clothes":"yes","recycling_type":"container"}},"type":"Feature"}
]
}
