{
"type": "FeatureCollection",
"features": [
	{"geometry":{"coordinates":[0.708589,42.410065],"type":"Point"},"properties":{"osm_id":"8985455283","tag":{"amenity":"recycling","opening_hours":"24/7","recycling:PET":"yes","recycling:plastic":"yes","recycling:plastic_bottles":"yes","recycling:plastic_packaging":"yes","recycling_type":"container","wheelchair":"yes"}},"type":"Feature"},
	{"geometry":{"coordinates":[0.708583,42.410066],"type":"Point"},"properties":{"osm_id":"8985455284","ref":"8N1293","tag":{"amenity":"waste_disposal","emergency":"fire_hydrant","fire_hydrant:type":"pillar"}},"type":"Feature"},
	{"geometry":{"coordinates":[0.708576,42.410068],"type":"Point"},"properties":{"osm_id":"8985455285","tag":{"amenity":"waste_disposal"}},"type":"Feature"},
	{"geometry":{"coordinates":[0.708599,42.410063],"type":"Point"},"properties":{"osm_id":"8985455286","tag":{"amenity":"recycling","opening_hours":"24/7","recycling:cardboard":"yes","recycling:paper":"yes","recycling_type":"container","wheelchair":"yes"}},"type":"Feature"}
]
}
