{
"type": "FeatureCollection",
"features": [
	{"geometry":{"coordinates":[17.326789,62.447134],"type":"Point"},"properties":{"osm_id":"444936714","tag":{"amenity":"recycling"}},"type":"Feature"},
	{"geometry":{"coordinates":[17.3802,62.437155],"type":"Point"},"properties":{"highway":"street_lamp","osm_id":"1983330674","tag":{"amenity":"waste_basket"}},"type":"Feature"},
	{"geometry":{"coordinates":[17.329638,62.467666],"type":"Point"},"properties":{"highway":"street_lamp","osm_id":"1984558989","tag":{"amenity":"waste_basket"}},"type":"Feature"},
	{"geometry":{"coordinates":[17.345707,62.46055],"type":"Point"},"properties":{"osm_id":"1984801884","tag":{"amenity":"waste_basket"}},"type":"Feature"},
	{"geometry":{"coordinates":[17.355319,62.458373],"type":"Point"},"properties":{"highway":"street_lamp","osm_id":"1984975236","tag":{"amenity":"waste_basket"}},"type":"Feature"},
	{"geometry":{"coordinates":[17.35195,62.455891],"type":"Point"},"properties":{"osm_id":"1987512182","tag":{"amenity":"waste_basket"}},"type":"Feature"},
	{"geometry":{"coordinates":[17.353109,62.452581],"type":"Point"},"properties":{"osm_id":"1987606824","tag":{"amenity":"waste_basket"}},"type":"Feature"},
	{"geometry":{"coordinates":[17.361024,62.437704],"type":"Point"},"properties":{"highway":"street_lamp","osm_id":"1987984072","tag":{"amenity":"waste_basket"}},"type":"Feature"},
	{"geometry":{"coordinates":[17.365648,62.437756],"type":"Point"},"properties":{"osm_id":"1989347438","tag":{"amenity":"waste_basket"}},"type":"Feature"},
	{"geometry":{"coordinates":[17.347823,62.441988],"type":"Point"},"properties":{"osm_id":"7699494030","tag":{"amenity":"waste_basket"}},"type":"Feature"}
]
}
