{
"type": "FeatureCollection",
"features": [
	{"geometry":{"coordinates":[100.499963,13.766297],"type":"Point"},"properties":{"osm_id":"2143722459","tag":{"amenity":"waste_disposal"}},"type":"Feature"},
	{"geometry":{"coordinates":[100.49939,13.7594],"type":"Point"},"properties":{"osm_id":"5911758044","tag":{"amenity":"waste_basket"}},"type":"Feature"},
	{"geometry":{"coordinates":[100.49876,13.757588],"type":"Point"},"properties":{"osm_id":"5941020477","tag":{"amenity":"waste_basket"}},"type":"Feature"},
	{"geometry":{"coordinates":[100.499929,13.757357],"type":"Point"},"properties":{"osm_id":"5941020478","tag":{"amenity":"waste_basket"}},"type":"Feature"},
	{"geometry":{"coordinates":[100.48518,13.773537],"type":"Point"},"properties":{"osm_id":"5957714488","tag":{"amenity":"waste_basket"}},"type":"Feature"},
	{"geometry":{"coordinates":[100.4998,13.75686],"type":"Point"},"properties":{"osm_id":"5975195546","tag":{"amenity":"waste_basket"}},"type":"Feature"},
	{"geometry":{"coordinates":[100.501733,13.757298],"type":"Point"},"properties":{"osm_id":"5975917987","tag":{"amenity":"waste_basket"}},"type":"Feature"},
	{"geometry":{"coordinates":[100.502068,13.757863],"type":"Point"},"properties":{"osm_id":"5986259917","tag":{"amenity":"waste_basket"}},"type":"Feature"},
	{"geometry":{"coordinates":[100.507661,13.771519],"type":"Point"},"properties":{"osm_id":"6019263619","tag":{"access":"private","amenity":"waste_disposal"}},"type":"Feature"},
	{"geometry":{"coordinates":[100.504318,13.755809],"type":"Point"},"properties":{"osm_id":"6102876213","tag":{"amenity":"waste_basket"}},"type":"Feature"},
	{"geometry":{"coordinates":[100.50522,13.77269],"type":"Point"},"properties":{"osm_id":"6301005061","tag":{"amenity":"waste_basket"}},"type":"Feature"},
	{"geometry":{"coordinates":[100.50539,13.77255],"type":"Point"},"properties":{"osm_id":"6301005062","tag":{"amenity":"waste_basket"}},"type":"Feature"},
	{"geometry":{"coordinates":[100.5051,13.77183],"type":"Point"},"properties":{"osm_id":"6301005063","tag":{"amenity":"waste_basket"}},"type":"Feature"},
	{"geometry":{"coordinates":[100.502165,13.768116],"type":"Point"},"properties":{"osm_id":"6541769175","tag":{"amenity":"waste_basket"}},"type":"Feature"},
	{"geometry":{"coordinates":[100.542001,13.789955],"type":"Point"},"properties":{"osm_id":"6807172746","tag":{"amenity":"waste_basket"}},"type":"Feature"},
	{"geometry":{"coordinates":[100.468241,13.832703],"type":"Point"},"properties":{"osm_id":"7621064813","tag":{"amenity":"waste_basket","collection_times":"Tu 07:00-10:00; Fr 07:00-10:00","material":"plastic"}},"type":"Feature"}
]
}
