{
"type": "FeatureCollection",
"features": [
	{"geometry":{"coordinates":[-90.292101,38.635628],"type":"Point"},"properties":{"osm_id":"3678031232","tag":{"amenity":"waste_basket"}},"type":"Feature"},
	{"geometry":{"coordinates":[-90.292203,38.635832],"type":"Point"},"properties":{"osm_id":"3678032925","tag":{"amenity":"waste_basket"}},"type":"Feature"},
	{"geometry":{"coordinates":[-90.29201,38.635288],"type":"Point"},"properties":{"osm_id":"3678037225","tag":{"amenity":"waste_basket"}},"type":"Feature"},
	{"geometry":{"coordinates":[-90.288639,38.634447],"type":"Point"},"properties":{"osm_id":"3679304946","tag":{"amenity":"waste_basket"}},"type":"Feature"},
	{"geometry":{"coordinates":[-90.288626,38.634447],"type":"Point"},"properties":{"osm_id":"3679304947","tag":{"amenity":"recycling","recycling:cans":"yes","recycling:glass":"yes","recycling:paper":"yes"}},"type":"Feature"},
	{"geometry":{"coordinates":[-90.289321,38.634836],"type":"Point"},"properties":{"osm_id":"3679304948","tag":{"amenity":"recycling","operator":"St Louis Zoo","recycling:cans":"yes"}},"type":"Feature"},
	{"geometry":{"coordinates":[-90.28931,38.634832],"type":"Point"},"properties":{"osm_id":"3679304949","tag":{"amenity":"recycling","recycling:glass":"yes","recycling:paper":"yes"}},"type":"Feature"},
	{"geometry":{"coordinates":[-90.289298,38.634828],"type":"Point"},"properties":{"osm_id":"3679304950","tag":{"amenity":"waste_basket"}},"type":"Feature"},
	{"geometry":{"coordinates":[-90.289624,38.634228],"type":"Point"},"properties":{"osm_id":"3679416730","tag":{"amenity":"waste_basket"}},"type":"Feature"},
	{"geometry":{"coordinates":[-90.289647,38.634237],"type":"Point"},"properties":{"osm_id":"3679416731","tag":{"amenity":"recycling","recycling:cans":"yes","recycling:glass":"yes","recycling:paper":"yes"}},"type":"Feature"},
	{"geometry":{"coordinates":[-90.288823,38.634218],"type":"Point"},"properties":{"osm_id":"3679423042","tag":{"amenity":"waste_basket"}},"type":"Feature"},
	{"geometry":{"coordinates":[-90.288813,38.634218],"type":"Point"},"properties":{"osm_id":"3679423043","tag":{"amenity":"recycling","recycling:cans":"yes","recycling:glass":"yes","recycling:paper":"yes"}},"type":"Feature"},
	{"geometry":{"coordinates":[-90.289816,38.634386],"type":"Point"},"properties":{"osm_id":"3679431823","tag":{"amenity":"waste_basket"}},"type":"Feature"},
	{"geometry":{"coordinates":[-90.28981,38.634377],"type":"Point"},"properties":{"osm_id":"3679431824","tag":{"amenity":"recycling","recycling:cans":"yes","recycling:glass":"yes","recycling:paper":"yes"}},"type":"Feature"},
	{"geometry":{"coordinates":[-90.288875,38.633855],"type":"Point"},"properties":{"osm_id":"3679471590","tag":{"amenity":"waste_basket"}},"type":"Feature"},
	{"geometry":{"coordinates":[-90.28886,38.633857],"type":"Point"},"properties":{"osm_id":"3679471591","tag":{"amenity":"recycling"}},"type":"Feature"},
	{"geometry":{"coordinates":[-90.288054,38.633293],"type":"Point"},"properties":{"osm_id":"3679488987","tag":{"amenity":"recycling","recycling:cans":"yes","recycling:glass":"yes"}},"type":"Feature"},
	{"geometry":{"coordinates":[-90.28805,38.633279],"type":"Point"},"properties":{"osm_id":"3679488988","tag":{"amenity":"waste_basket"}},"type":"Feature"},
	{"geometry":{"coordinates":[-90.289021,38.633784],"type":"Point"},"properties":{"osm_id":"3679492940","tag":{"amenity":"waste_basket"}},"type":"Feature"},
	{"geometry":{"coordinates":[-90.28906,38.633802],"type":"Point"},"properties":{"osm_id":"3679492941","tag":{"amenity":"waste_basket"}},"type":"Feature"},
	{"geometry":{"coordinates":[-90.288371,38.633694],"type":"Point"},"properties":{"osm_id":"3679492955","tag":{"amenity":"waste_basket"}},"type":"Feature"},
	{"geometry":{"coordinates":[-90.288338,38.633695],"type":"Point"},"properties":{"osm_id":"3679492956","tag":{"amenity":"recycling"}},"type":"Feature"},
	{"geometry":{"coordinates":[-90.287996,38.633771],"type":"Point"},"properties":{"osm_id":"3679517803","tag":{"amenity":"waste_basket"}},"type":"Feature"},
	{"geometry":{"coordinates":[-90.287982,38.633793],"type":"Point"},"properties":{"osm_id":"3679517804","tag":{"amenity":"recycling"}},"type":"Feature"},
	{"geometry":{"coordinates":[-90.287815,38.633993],"type":"Point"},"properties":{"osm_id":"3679517805","tag":{"amenity":"waste_basket"}},"type":"Feature"},
	{"geometry":{"coordinates":[-90.285605,38.633715],"type":"Point"},"properties":{"osm_id":"3680898533","tag":{"amenity":"waste_basket"}},"type":"Feature"},
	{"geometry":{"coordinates":[-90.285584,38.633724],"type":"Point"},"properties":{"osm_id":"3680898534","tag":{"amenity":"recycling","operator":"St Louis Zoo","recycling:cans":"yes","recycling:glass":"yes","recycling:paper":"yes"}},"type":"Feature"},
	{"geometry":{"coordinates":[-90.287017,38.633628],"type":"Point"},"properties":{"osm_id":"3680906782","tag":{"amenity":"waste_basket"}},"type":"Feature"},
	{"geometry":{"coordinates":[-90.286997,38.633634],"type":"Point"},"properties":{"osm_id":"3680906783","tag":{"amenity":"recycling","operator":"St Louis Zoo","recycling:cans":"yes","recycling:glass":"yes","recycling:paper":"yes"}},"type":"Feature"},
	{"geometry":{"coordinates":[-90.284894,38.648536],"type":"Point"},"properties":{"osm_id":"5902406930","tag":{"amenity":"waste_basket"}},"type":"Feature"},
	{"geometry":{"coordinates":[-90.27399,38.648022],"type":"Point"},"properties":{"osm_id":"5902406939","tag":{"amenity":"waste_basket"}},"type":"Feature"},
	{"geometry":{"coordinates":[-90.273433,38.653029],"type":"Point"},"properties":{"osm_id":"5902406946","tag":{"amenity":"waste_basket"}},"type":"Feature"},
	{"geometry":{"coordinates":[-90.273284,38.652194],"type":"Point"},"properties":{"osm_id":"5902406948","tag":{"amenity":"waste_basket"}},"type":"Feature"},
	{"geometry":{"coordinates":[-90.285594,38.647921],"type":"Point"},"properties":{"osm_id":"5907828213","tag":{"amenity":"waste_basket"}},"type":"Feature"},
	{"geometry":{"coordinates":[-90.284284,38.647787],"type":"Point"},"properties":{"osm_id":"5907828363","tag":{"amenity":"waste_basket"}},"type":"Feature"},
	{"geometry":{"coordinates":[-90.283099,38.667087],"type":"Point"},"properties":{"osm_id":"5909423367","tag":{"amenity":"waste_basket"}},"type":"Feature"},
	{"geometry":{"coordinates":[-90.282917,38.666617],"type":"Point"},"properties":{"osm_id":"5909423371","tag":{"amenity":"waste_basket"}},"type":"Feature"},
	{"geometry":{"coordinates":[-90.279831,38.66496],"type":"Point"},"properties":{"osm_id":"5909423380","tag":{"amenity":"waste_basket"}},"type":"Feature"},
	{"geometry":{"coordinates":[-90.271491,38.660758],"type":"Point"},"properties":{"osm_id":"5909423896","tag":{"amenity":"waste_basket"}},"type":"Feature"},
	{"geometry":{"coordinates":[-90.299519,38.655346],"type":"Point"},"properties":{"osm_id":"5910581812","tag":{"amenity":"waste_basket"}},"type":"Feature"},
	{"geometry":{"coordinates":[-90.297764,38.655338],"type":"Point"},"properties":{"osm_id":"5910581814","tag":{"amenity":"waste_basket"}},"type":"Feature"},
	{"geometry":{"coordinates":[-90.297058,38.655281],"type":"Point"},"properties":{"osm_id":"5910581994","tag":{"amenity":"waste_basket"}},"type":"Feature"},
	{"geometry":{"coordinates":[-90.296742,38.655256],"type":"Point"},"properties":{"osm_id":"5910581995","tag":{"amenity":"waste_basket"}},"type":"Feature"},
	{"geometry":{"coordinates":[-90.2947,38.655152],"type":"Point"},"properties":{"osm_id":"5910582015","tag":{"amenity":"waste_basket"}},"type":"Feature"},
	{"geometry":{"coordinates":[-90.294647,38.655067],"type":"Point"},"properties":{"osm_id":"5910582016","tag":{"amenity":"waste_basket"}},"type":"Feature"},
	{"geometry":{"coordinates":[-90.294912,38.655073],"type":"Point"},"properties":{"osm_id":"5910582017","tag":{"amenity":"waste_basket"}},"type":"Feature"},
	{"geometry":{"coordinates":[-90.29476,38.654865],"type":"Point"},"properties":{"osm_id":"5910582019","tag":{"amenity":"waste_basket"}},"type":"Feature"},
	{"geometry":{"coordinates":[-90.265666,38.625688],"type":"Point"},"properties":{"osm_id":"5924522099","tag":{"amenity":"waste_basket"}},"type":"Feature"},
	{"geometry":{"coordinates":[-90.286093,38.622602],"type":"Point"},"properties":{"osm_id":"5924522114","tag":{"amenity":"waste_basket"}},"type":"Feature"},
	{"geometry":{"coordinates":[-90.290304,38.622094],"type":"Point"},"properties":{"osm_id":"5924522121","tag":{"amenity":"waste_basket"}},"type":"Feature"},
	{"geometry":{"coordinates":[-90.303111,38.618266],"type":"Point"},"properties":{"osm_id":"5924522133","tag":{"amenity":"waste_basket"}},"type":"Feature"},
	{"geometry":{"coordinates":[-90.27244,38.657378],"type":"Point"},"properties":{"osm_id":"5930906460","tag":{"amenity":"waste_basket"}},"type":"Feature"},
	{"geometry":{"coordinates":[-90.271911,38.661315],"type":"Point"},"properties":{"osm_id":"5930906465","tag":{"amenity":"waste_basket"}},"type":"Feature"},
	{"geometry":{"coordinates":[-90.271654,38.661226],"type":"Point"},"properties":{"osm_id":"5930906468","tag":{"amenity":"waste_basket"}},"type":"Feature"},
	{"geometry":{"coordinates":[-90.266107,38.682851],"type":"Point"},"properties":{"osm_id":"5937679886","tag":{"amenity":"waste_basket"}},"type":"Feature"},
	{"geometry":{"coordinates":[-90.301036,38.646109],"type":"Point"},"properties":{"osm_id":"5938565673","tag":{"amenity":"waste_basket"}},"type":"Feature"},
	{"geometry":{"coordinates":[-90.3012,38.647087],"type":"Point"},"properties":{"osm_id":"5938567285","tag":{"amenity":"waste_basket"}},"type":"Feature"},
	{"geometry":{"coordinates":[-90.300772,38.64963],"type":"Point"},"properties":{"osm_id":"5938567289","tag":{"amenity":"waste_basket"}},"type":"Feature"},
	{"geometry":{"coordinates":[-90.300408,38.650055],"type":"Point"},"properties":{"osm_id":"5938567291","tag":{"amenity":"waste_basket"}},"type":"Feature"},
	{"geometry":{"coordinates":[-90.267612,38.629153],"type":"Point"},"properties":{"osm_id":"5939587982","tag":{"amenity":"waste_basket"}},"type":"Feature"},
	{"geometry":{"coordinates":[-90.291431,38.628595],"type":"Point"},"properties":{"osm_id":"5939663412","tag":{"amenity":"waste_basket"}},"type":"Feature"},
	{"geometry":{"coordinates":[-90.29226,38.628583],"type":"Point"},"properties":{"osm_id":"5939663414","tag":{"amenity":"waste_basket"}},"type":"Feature"},
	{"geometry":{"coordinates":[-90.293365,38.6285],"type":"Point"},"properties":{"osm_id":"5939663416","tag":{"amenity":"waste_basket"}},"type":"Feature"},
	{"geometry":{"coordinates":[-90.293369,38.628753],"type":"Point"},"properties":{"osm_id":"5939663421","tag":{"amenity":"waste_basket"}},"type":"Feature"},
	{"geometry":{"coordinates":[-90.293672,38.628832],"type":"Point"},"properties":{"osm_id":"5939663426","tag":{"amenity":"waste_basket"}},"type":"Feature"},
	{"geometry":{"coordinates":[-90.300529,38.630045],"type":"Point"},"properties":{"osm_id":"5939663432","tag":{"amenity":"waste_basket"}},"type":"Feature"},
	{"geometry":{"coordinates":[-90.270308,38.652144],"type":"Point"},"properties":{"osm_id":"5939942065","tag":{"amenity":"waste_basket"}},"type":"Feature"},
	{"geometry":{"coordinates":[-90.272926,38.652675],"type":"Point"},"properties":{"osm_id":"5939942101","tag":{"amenity":"waste_basket"}},"type":"Feature"},
	{"geometry":{"coordinates":[-90.273048,38.652471],"type":"Point"},"properties":{"osm_id":"5939942104","tag":{"amenity":"waste_basket"}},"type":"Feature"},
	{"geometry":{"coordinates":[-90.275274,38.653166],"type":"Point"},"properties":{"osm_id":"5939942111","tag":{"amenity":"waste_basket"}},"type":"Feature"},
	{"geometry":{"coordinates":[-90.275067,38.652923],"type":"Point"},"properties":{"osm_id":"5939942113","tag":{"amenity":"waste_basket"}},"type":"Feature"},
	{"geometry":{"coordinates":[-90.279447,38.653346],"type":"Point"},"properties":{"osm_id":"5939942116","tag":{"amenity":"waste_basket"}},"type":"Feature"},
	{"geometry":{"coordinates":[-90.283997,38.654018],"type":"Point"},"properties":{"osm_id":"5939942124","tag":{"amenity":"waste_basket"}},"type":"Feature"},
	{"geometry":{"coordinates":[-90.290836,38.654463],"type":"Point"},"properties":{"osm_id":"5939942140","tag":{"amenity":"waste_basket"}},"type":"Feature"},
	{"geometry":{"coordinates":[-90.293196,38.654696],"type":"Point"},"properties":{"osm_id":"5939942158","tag":{"amenity":"waste_basket"}},"type":"Feature"},
	{"geometry":{"coordinates":[-90.265225,38.664345],"type":"Point"},"properties":{"osm_id":"5940391072","tag":{"amenity":"waste_basket"}},"type":"Feature"},
	{"geometry":{"coordinates":[-90.268036,38.666065],"type":"Point"},"properties":{"osm_id":"5940391077","tag":{"amenity":"waste_basket"}},"type":"Feature"},
	{"geometry":{"coordinates":[-90.270348,38.66729],"type":"Point"},"properties":{"osm_id":"5940391079","tag":{"amenity":"waste_basket"}},"type":"Feature"},
	{"geometry":{"coordinates":[-90.270854,38.667376],"type":"Point"},"properties":{"osm_id":"5940391080","tag":{"amenity":"waste_basket"}},"type":"Feature"},
	{"geometry":{"coordinates":[-90.27548,38.670061],"type":"Point"},"properties":{"osm_id":"5940391485","tag":{"amenity":"waste_basket"}},"type":"Feature"},
	{"geometry":{"coordinates":[-90.275417,38.669837],"type":"Point"},"properties":{"osm_id":"5940391487","tag":{"amenity":"waste_basket"}},"type":"Feature"},
	{"geometry":{"coordinates":[-90.275984,38.670336],"type":"Point"},"properties":{"osm_id":"5940391489","tag":{"amenity":"waste_basket"}},"type":"Feature"},
	{"geometry":{"coordinates":[-90.276023,38.670167],"type":"Point"},"properties":{"osm_id":"5940391490","tag":{"amenity":"waste_basket"}},"type":"Feature"},
	{"geometry":{"coordinates":[-90.277466,38.671131],"type":"Point"},"properties":{"osm_id":"5940391491","tag":{"amenity":"waste_basket"}},"type":"Feature"},
	{"geometry":{"coordinates":[-90.279144,38.671827],"type":"Point"},"properties":{"osm_id":"5940391495","tag":{"amenity":"waste_basket"}},"type":"Feature"},
	{"geometry":{"coordinates":[-90.280993,38.67284],"type":"Point"},"properties":{"osm_id":"5940391499","tag":{"amenity":"waste_basket"}},"type":"Feature"},
	{"geometry":{"coordinates":[-90.282878,38.674044],"type":"Point"},"properties":{"osm_id":"5940391501","tag":{"amenity":"waste_basket"}},"type":"Feature"},
	{"geometry":{"coordinates":[-90.28276,38.673797],"type":"Point"},"properties":{"osm_id":"5940391503","tag":{"amenity":"waste_basket"}},"type":"Feature"},
	{"geometry":{"coordinates":[-90.285319,38.675353],"type":"Point"},"properties":{"osm_id":"5940391505","tag":{"amenity":"waste_basket"}},"type":"Feature"},
	{"geometry":{"coordinates":[-90.285423,38.675226],"type":"Point"},"properties":{"osm_id":"5940391506","tag":{"amenity":"waste_basket"}},"type":"Feature"},
	{"geometry":{"coordinates":[-90.264884,38.644355],"type":"Point"},"properties":{"osm_id":"5949585644","tag":{"amenity":"waste_basket"}},"type":"Feature"},
	{"geometry":{"coordinates":[-90.264775,38.64352],"type":"Point"},"properties":{"osm_id":"5949585646","tag":{"amenity":"waste_basket"}},"type":"Feature"},
	{"geometry":{"coordinates":[-90.265255,38.640674],"type":"Point"},"properties":{"osm_id":"5949585649","tag":{"amenity":"waste_basket"}},"type":"Feature"},
	{"geometry":{"coordinates":[-90.264767,38.626178],"type":"Point"},"properties":{"osm_id":"5950243848","tag":{"amenity":"waste_basket"}},"type":"Feature"},
	{"geometry":{"coordinates":[-90.287172,38.617359],"type":"Point"},"properties":{"osm_id":"6541518459","tag":{"amenity":"waste_basket"}},"type":"Feature"},
	{"geometry":{"coordinates":[-90.287338,38.616969],"type":"Point"},"properties":{"osm_id":"6541518462","tag":{"amenity":"waste_basket"}},"type":"Feature"},
	{"geometry":{"coordinates":[-90.300952,38.648894],"type":"Point"},"properties":{"osm_id":"6545996861","tag":{"amenity":"waste_basket"}},"type":"Feature"},
	{"geometry":{"coordinates":[-90.314498,38.651665],"type":"Point"},"properties":{"osm_id":"6546374814","tag":{"amenity":"waste_basket"}},"type":"Feature"},
	{"geometry":{"coordinates":[-90.314638,38.651402],"type":"Point"},"properties":{"osm_id":"6546374881","tag":{"amenity":"waste_basket"}},"type":"Feature"},
	{"geometry":{"coordinates":[-90.313845,38.651338],"type":"Point"},"properties":{"osm_id":"6546404358","tag":{"amenity":"waste_basket"}},"type":"Feature"},
	{"geometry":{"coordinates":[-90.307395,38.649693],"type":"Point"},"properties":{"osm_id":"6546456663","tag":{"amenity":"waste_basket"}},"type":"Feature"},
	{"geometry":{"coordinates":[-90.289605,38.646341],"type":"Point"},"properties":{"osm_id":"6546847629","tag":{"amenity":"waste_basket"}},"type":"Feature"},
	{"geometry":{"coordinates":[-90.286647,38.654347],"type":"Point"},"properties":{"osm_id":"6548739612","tag":{"amenity":"waste_basket"}},"type":"Feature"},
	{"geometry":{"coordinates":[-90.279481,38.672239],"type":"Point"},"properties":{"osm_id":"6548790795","tag":{"amenity":"waste_basket"}},"type":"Feature"},
	{"geometry":{"coordinates":[-90.27746,38.675046],"type":"Point"},"properties":{"osm_id":"6548790810","tag":{"amenity":"waste_basket"}},"type":"Feature"},
	{"geometry":{"coordinates":[-90.275889,38.677125],"type":"Point"},"properties":{"osm_id":"6548790823","tag":{"amenity":"waste_basket"}},"type":"Feature"},
	{"geometry":{"coordinates":[-90.273096,38.681227],"type":"Point"},"properties":{"osm_id":"6548790846","tag":{"amenity":"waste_basket"}},"type":"Feature"},
	{"geometry":{"coordinates":[-90.265215,38.643577],"type":"Point"},"properties":{"osm_id":"6548827605","tag":{"amenity":"waste_basket"}},"type":"Feature"},
	{"geometry":{"coordinates":[-90.265357,38.642775],"type":"Point"},"properties":{"osm_id":"6548827633","tag":{"amenity":"waste_basket"}},"type":"Feature"},
	{"geometry":{"coordinates":[-90.263718,38.651325],"type":"Point"},"properties":{"osm_id":"6548870457","tag":{"amenity":"waste_basket"}},"type":"Feature"},
	{"geometry":{"coordinates":[-90.269676,38.6523],"type":"Point"},"properties":{"osm_id":"6554171268","tag":{"amenity":"waste_basket"}},"type":"Feature"},
	{"geometry":{"coordinates":[-90.279276,38.653558],"type":"Point"},"properties":{"osm_id":"6554171280","tag":{"amenity":"waste_basket"}},"type":"Feature"},
	{"geometry":{"coordinates":[-90.284955,38.651303],"type":"Point"},"properties":{"osm_id":"7857381299","tag":{"amenity":"waste_basket"}},"type":"Feature"},
	{"geometry":{"coordinates":[-90.285221,38.648363],"type":"Point"},"properties":{"osm_id":"7857381329","tag":{"amenity":"waste_basket"}},"type":"Feature"},
	{"geometry":{"coordinates":[-90.284567,38.654142],"type":"Point"},"properties":{"osm_id":"7857495197","tag":{"amenity":"waste_basket"}},"type":"Feature"},
	{"geometry":{"coordinates":[-90.284173,38.654215],"type":"Point"},"properties":{"osm_id":"7857495198","tag":{"amenity":"waste_basket"}},"type":"Feature"},
	{"geometry":{"coordinates":[-90.282186,38.641818],"type":"Point"},"properties":{"osm_id":"7863039734","tag":{"amenity":"waste_basket"}},"type":"Feature"},
	{"geometry":{"coordinates":[-90.282123,38.641865],"type":"Point"},"properties":{"osm_id":"7863039735","tag":{"amenity":"waste_basket"}},"type":"Feature"},
	{"geometry":{"coordinates":[-90.282279,38.641956],"type":"Point"},"properties":{"osm_id":"7863039736","tag":{"amenity":"waste_basket"}},"type":"Feature"}
]
}
