{
"type": "FeatureCollection",
"features": [
	{"geometry":{"coordinates":[-89.56973,20.961511],"type":"Point"},"properties":{"osm_id":"5937301651","tag":{"amenity":"recycling"}},"type":"Feature"},
	{"geometry":{"coordinates":[-89.573604,20.979194],"type":"Point"},"properties":{"name":"Par de reyes","osm_id":"5937301652","tag":{"amenity":"recycling","recycling_type":"centre"}},"type":"Feature"},
	{"geometry":{"coordinates":[-89.570039,20.962583],"type":"Point"},"properties":{"name":"Par de reyes","osm_id":"5937301653","tag":{"amenity":"recycling","recycling_type":"centre"}},"type":"Feature"},
	{"geometry":{"coordinates":[-89.568016,20.971685],"type":"Point"},"properties":{"name":"El Crucero","osm_id":"5937359106","tag":{"amenity":"recycling","recycling_type":"centre"}},"type":"Feature"},
	{"geometry":{"coordinates":[-89.573405,20.976657],"type":"Point"},"properties":{"name":"El Papel de Oro","osm_id":"5937366059","tag":{"amenity":"recycling","recycling_type":"centre"}},"type":"Feature"},
	{"geometry":{"coordinates":[-89.585861,20.974062],"type":"Point"},"properties":{"osm_id":"5937377722","tag":{"amenity":"recycling","recycling_type":"centre"}},"type":"Feature"},
	{"geometry":{"coordinates":[-89.590137,20.977671],"type":"Point"},"properties":{"osm_id":"5937377723","tag":{"amenity":"recycling","recycling_type":"centre"}},"type":"Feature"},
	{"geometry":{"coordinates":[-89.58661,20.978988],"type":"Point"},"properties":{"osm_id":"5937377724","tag":{"amenity":"recycling","recycling_type":"centre"}},"type":"Feature"},
	{"geometry":{"coordinates":[-89.592666,21.003529],"type":"Point"},"properties":{"osm_id":"5937385646","tag":{"amenity":"recycling","recycling_type":"centre"}},"type":"Feature"}
]
}
