{
"type": "FeatureCollection",
"features": [
	{"geometry":{"coordinates":[-73.159857,-36.98512],"type":"Point"},"properties":{"name":"Contenedor reclaje vidrio \" Cristoro\"","osm_id":"4650201976","tag":{"addr:street":"Los Notros","amenity":"recycling","recycling:glass":"yes","recycling:glass_bottles":"yes","recycling_type":"centre"}},"type":"Feature"},
	{"geometry":{"coordinates":[-73.159846,-36.985131],"type":"Point"},"properties":{"name":"Contenedor reclaje","osm_id":"4650205238","tag":{"addr:street":"Los Notros","amenity":"recycling","recycling:glass":"yes","recycling:paper":"yes","recycling:plastic":"yes","recycling_type":"container"}},"type":"Feature"},
	{"geometry":{"coordinates":[-73.160187,-36.982357],"type":"Point"},"properties":{"name":"Contenedor reciclaje de vidrio","osm_id":"4650433266","tag":{"addr:street":"Los \u00c3\u0081lamos","amenity":"recycling","recycling:glass":"yes","recycling:glass_bottles":"yes","recycling_type":"container"}},"type":"Feature"},
	{"geometry":{"coordinates":[-73.162477,-36.97951],"type":"Point"},"properties":{"osm_id":"6015964254","tag":{"amenity":"waste_basket"}},"type":"Feature"},
	{"geometry":{"coordinates":[-73.162491,-36.979841],"type":"Point"},"properties":{"osm_id":"6015964255","tag":{"amenity":"waste_basket"}},"type":"Feature"},
	{"geometry":{"coordinates":[-73.162501,-36.98169],"type":"Point"},"properties":{"osm_id":"6016024936","tag":{"amenity":"waste_basket"}},"type":"Feature"},
	{"geometry":{"coordinates":[-73.162849,-36.981666],"type":"Point"},"properties":{"osm_id":"6016051593","tag":{"amenity":"waste_basket"}},"type":"Feature"},
	{"geometry":{"coordinates":[-73.162824,-36.981326],"type":"Point"},"properties":{"osm_id":"6016069845","tag":{"amenity":"waste_basket"}},"type":"Feature"},
	{"geometry":{"coordinates":[-73.162719,-36.984671],"type":"Point"},"properties":{"osm_id":"6016445772","tag":{"amenity":"waste_basket"}},"type":"Feature"},
	{"geometry":{"coordinates":[-73.162748,-36.985327],"type":"Point"},"properties":{"osm_id":"6016465192","tag":{"amenity":"waste_basket"}},"type":"Feature"},
	{"geometry":{"coordinates":[-73.162627,-36.98482],"type":"Point"},"properties":{"osm_id":"6016484684","tag":{"amenity":"waste_basket"}},"type":"Feature"},
	{"geometry":{"coordinates":[-73.162722,-36.986131],"type":"Point"},"properties":{"osm_id":"6016882592","tag":{"amenity":"waste_disposal"}},"type":"Feature"},
	{"geometry":{"coordinates":[-73.162789,-36.98976],"type":"Point"},"properties":{"osm_id":"6017058726","tag":{"amenity":"waste_disposal"}},"type":"Feature"},
	{"geometry":{"coordinates":[-73.162788,-36.989635],"type":"Point"},"properties":{"osm_id":"6017112343","tag":{"amenity":"waste_disposal"}},"type":"Feature"},
	{"geometry":{"coordinates":[-73.162794,-36.989124],"type":"Point"},"properties":{"osm_id":"6017112344","tag":{"amenity":"waste_disposal"}},"type":"Feature"},
	{"geometry":{"coordinates":[-73.162874,-36.98875],"type":"Point"},"properties":{"osm_id":"6017112345","tag":{"amenity":"waste_disposal"}},"type":"Feature"},
	{"geometry":{"coordinates":[-73.162619,-36.982889],"type":"Point"},"properties":{"osm_id":"6017118190","tag":{"amenity":"waste_basket"}},"type":"Feature"},
	{"geometry":{"coordinates":[-73.1629,-36.99005],"type":"Point"},"properties":{"osm_id":"6017184338","tag":{"amenity":"waste_basket"}},"type":"Feature"},
	{"geometry":{"coordinates":[-73.162838,-36.987639],"type":"Point"},"properties":{"osm_id":"6017184353","tag":{"amenity":"waste_basket"}},"type":"Feature"},
	{"geometry":{"coordinates":[-73.163199,-36.979369],"type":"Point"},"properties":{"osm_id":"6018440828","tag":{"amenity":"waste_basket"}},"type":"Feature"}
]
}
