{
"type": "FeatureCollection",
"features": [
	{"geometry":{"coordinates":[7.559244,45.728848],"type":"Point"},"properties":{"osm_id":"4071844854","tag":{"natural":"tree"}},"type":"Feature"},
	{"geometry":{"coordinates":[7.558981,45.728938],"type":"Point"},"properties":{"osm_id":"4071844855","tag":{"natural":"tree"}},"type":"Feature"},
	{"geometry":{"coordinates":[7.558965,45.729002],"type":"Point"},"properties":{"osm_id":"4071844856","tag":{"natural":"tree"}},"type":"Feature"},
	{"geometry":{"coordinates":[7.559011,45.729045],"type":"Point"},"properties":{"osm_id":"4071844857","tag":{"natural":"tree"}},"type":"Feature"},
	{"geometry":{"coordinates":[7.558976,45.729137],"type":"Point"},"properties":{"osm_id":"4071844858","tag":{"natural":"tree"}},"type":"Feature"},
	{"geometry":{"coordinates":[7.559046,45.729156],"type":"Point"},"properties":{"osm_id":"4071844859","tag":{"natural":"tree"}},"type":"Feature"},
	{"geometry":{"coordinates":[7.558965,45.729193],"type":"Point"},"properties":{"osm_id":"4071844860","tag":{"natural":"tree"}},"type":"Feature"},
	{"geometry":{"coordinates":[7.559089,45.729204],"type":"Point"},"properties":{"osm_id":"4071844861","tag":{"natural":"tree"}},"type":"Feature"},
	{"geometry":{"coordinates":[7.559405,45.729223],"type":"Point"},"properties":{"osm_id":"4071844862","tag":{"natural":"tree"}},"type":"Feature"},
	{"geometry":{"coordinates":[7.568125,45.729251],"type":"Point"},"properties":{"osm_id":"4071844863","tag":{"natural":"tree"}},"type":"Feature"},
	{"geometry":{"coordinates":[7.559773,45.729253],"type":"Point"},"properties":{"osm_id":"4071844864","tag":{"natural":"tree"}},"type":"Feature"},
	{"geometry":{"coordinates":[7.567173,45.729347],"type":"Point"},"properties":{"osm_id":"4071844865","tag":{"natural":"tree"}},"type":"Feature"},
	{"geometry":{"coordinates":[7.561658,45.72935],"type":"Point"},"properties":{"osm_id":"4071844866","tag":{"natural":"tree"}},"type":"Feature"},
	{"geometry":{"coordinates":[7.567806,45.729354],"type":"Point"},"properties":{"osm_id":"4071844867","tag":{"natural":"tree"}},"type":"Feature"},
	{"geometry":{"coordinates":[7.561787,45.72941],"type":"Point"},"properties":{"osm_id":"4071844868","tag":{"natural":"tree"}},"type":"Feature"},
	{"geometry":{"coordinates":[7.567945,45.72942],"type":"Point"},"properties":{"osm_id":"4071844869","tag":{"natural":"tree"}},"type":"Feature"},
	{"geometry":{"coordinates":[7.567025,45.729423],"type":"Point"},"properties":{"osm_id":"4071844870","tag":{"natural":"tree"}},"type":"Feature"},
	{"geometry":{"coordinates":[7.56165,45.729459],"type":"Point"},"properties":{"osm_id":"4071844871","tag":{"natural":"tree"}},"type":"Feature"},
	{"geometry":{"coordinates":[7.562087,45.729474],"type":"Point"},"properties":{"osm_id":"4071844872","tag":{"natural":"tree"}},"type":"Feature"},
	{"geometry":{"coordinates":[7.566829,45.729489],"type":"Point"},"properties":{"osm_id":"4071844873","tag":{"natural":"tree"}},"type":"Feature"},
	{"geometry":{"coordinates":[7.566714,45.729493],"type":"Point"},"properties":{"osm_id":"4071844874","tag":{"natural":"tree"}},"type":"Feature"},
	{"geometry":{"coordinates":[7.566942,45.729493],"type":"Point"},"properties":{"osm_id":"4071844875","tag":{"natural":"tree"}},"type":"Feature"},
	{"geometry":{"coordinates":[7.56768,45.729543],"type":"Point"},"properties":{"osm_id":"4071844876","tag":{"natural":"tree"}},"type":"Feature"},
	{"geometry":{"coordinates":[7.566942,45.729565],"type":"Point"},"properties":{"osm_id":"4071844877","tag":{"natural":"tree"}},"type":"Feature"},
	{"geometry":{"coordinates":[7.567707,45.729614],"type":"Point"},"properties":{"osm_id":"4071844878","tag":{"natural":"tree"}},"type":"Feature"},
	{"geometry":{"coordinates":[7.566966,45.729648],"type":"Point"},"properties":{"osm_id":"4071844879","tag":{"natural":"tree"}},"type":"Feature"},
	{"geometry":{"coordinates":[7.568082,45.729672],"type":"Point"},"properties":{"osm_id":"4071844880","tag":{"natural":"tree"}},"type":"Feature"},
	{"geometry":{"coordinates":[7.563749,45.729706],"type":"Point"},"properties":{"osm_id":"4071844881","tag":{"natural":"tree"}},"type":"Feature"},
	{"geometry":{"coordinates":[7.567755,45.729708],"type":"Point"},"properties":{"osm_id":"4071844882","tag":{"natural":"tree"}},"type":"Feature"},
	{"geometry":{"coordinates":[7.564849,45.729717],"type":"Point"},"properties":{"osm_id":"4071844883","tag":{"natural":"tree"}},"type":"Feature"},
	{"geometry":{"coordinates":[7.567004,45.729732],"type":"Point"},"properties":{"osm_id":"4071844884","tag":{"natural":"tree"}},"type":"Feature"},
	{"geometry":{"coordinates":[7.563913,45.729742],"type":"Point"},"properties":{"osm_id":"4071844885","tag":{"natural":"tree"}},"type":"Feature"},
	{"geometry":{"coordinates":[7.56805,45.729779],"type":"Point"},"properties":{"osm_id":"4071844886","tag":{"natural":"tree"}},"type":"Feature"},
	{"geometry":{"coordinates":[7.560929,45.72985],"type":"Point"},"properties":{"osm_id":"4071844887","tag":{"natural":"tree"}},"type":"Feature"},
	{"geometry":{"coordinates":[7.564892,45.730108],"type":"Point"},"properties":{"osm_id":"4071846692","tag":{"natural":"tree"}},"type":"Feature"},
	{"geometry":{"coordinates":[7.565924,45.730084],"type":"Point"},"properties":{"osm_id":"4071846704","tag":{"natural":"tree"}},"type":"Feature"},
	{"geometry":{"coordinates":[7.565211,45.730127],"type":"Point"},"properties":{"osm_id":"4071846708","tag":{"natural":"tree"}},"type":"Feature"},
	{"geometry":{"coordinates":[7.567351,45.730133],"type":"Point"},"properties":{"osm_id":"4071846710","tag":{"natural":"tree"}},"type":"Feature"},
	{"geometry":{"coordinates":[7.565294,45.730148],"type":"Point"},"properties":{"osm_id":"4071846712","tag":{"natural":"tree"}},"type":"Feature"},
	{"geometry":{"coordinates":[7.565718,45.730185],"type":"Point"},"properties":{"osm_id":"4071846713","tag":{"natural":"tree"}},"type":"Feature"},
	{"geometry":{"coordinates":[7.567153,45.730154],"type":"Point"},"properties":{"osm_id":"4071846714","tag":{"natural":"tree"}},"type":"Feature"},
	{"geometry":{"coordinates":[7.567458,45.730162],"type":"Point"},"properties":{"osm_id":"4071846716","tag":{"natural":"tree"}},"type":"Feature"},
	{"geometry":{"coordinates":[7.567194,45.730199],"type":"Point"},"properties":{"osm_id":"4071846725","tag":{"natural":"tree"}},"type":"Feature"},
	{"geometry":{"coordinates":[7.565589,45.730206],"type":"Point"},"properties":{"osm_id":"4071846728","tag":{"natural":"tree"}},"type":"Feature"},
	{"geometry":{"coordinates":[7.56745,45.730363],"type":"Point"},"properties":{"osm_id":"4071846781","tag":{"natural":"tree"}},"type":"Feature"},
	{"geometry":{"coordinates":[7.566801,45.730366],"type":"Point"},"properties":{"osm_id":"4071846782","tag":{"natural":"tree"}},"type":"Feature"},
	{"geometry":{"coordinates":[7.566871,45.73043],"type":"Point"},"properties":{"osm_id":"4071846804","tag":{"natural":"tree"}},"type":"Feature"},
	{"geometry":{"coordinates":[7.565739,45.73053],"type":"Point"},"properties":{"osm_id":"4071846829","tag":{"natural":"tree"}},"type":"Feature"},
	{"geometry":{"coordinates":[7.568041,45.730905],"type":"Point"},"properties":{"osm_id":"4071846840","tag":{"natural":"tree"}},"type":"Feature"},
	{"geometry":{"coordinates":[7.563988,45.731238],"type":"Point"},"properties":{"osm_id":"4071846863","tag":{"natural":"tree"}},"type":"Feature"},
	{"geometry":{"coordinates":[7.564347,45.731297],"type":"Point"},"properties":{"osm_id":"4071846869","tag":{"natural":"tree"}},"type":"Feature"},
	{"geometry":{"coordinates":[7.56409,45.731417],"type":"Point"},"properties":{"osm_id":"4071846875","tag":{"natural":"tree"}},"type":"Feature"},
	{"geometry":{"coordinates":[7.564143,45.731593],"type":"Point"},"properties":{"osm_id":"4071846885","tag":{"natural":"tree"}},"type":"Feature"},
	{"geometry":{"coordinates":[7.564175,45.731702],"type":"Point"},"properties":{"osm_id":"4071846889","tag":{"natural":"tree"}},"type":"Feature"},
	{"geometry":{"coordinates":[7.566761,45.731938],"type":"Point"},"properties":{"osm_id":"4071846894","tag":{"natural":"tree"}},"type":"Feature"},
	{"geometry":{"coordinates":[7.56726,45.731941],"type":"Point"},"properties":{"osm_id":"4071846895","tag":{"natural":"tree"}},"type":"Feature"},
	{"geometry":{"coordinates":[7.564819,45.732005],"type":"Point"},"properties":{"osm_id":"4071846896","tag":{"natural":"tree"}},"type":"Feature"},
	{"geometry":{"coordinates":[7.567756,45.732102],"type":"Point"},"properties":{"osm_id":"4071846897","tag":{"natural":"tree"}},"type":"Feature"},
	{"geometry":{"coordinates":[7.568086,45.732226],"type":"Point"},"properties":{"osm_id":"4071846898","tag":{"natural":"tree"}},"type":"Feature"},
	{"geometry":{"coordinates":[7.566069,45.732342],"type":"Point"},"properties":{"osm_id":"4071846901","tag":{"natural":"tree"}},"type":"Feature"},
	{"geometry":{"coordinates":[7.611431,45.749878],"type":"Point"},"properties":{"name":"Fagus sylvatica var.Rubra","osm_id":"5615049613","tag":{"denotation":"natural_monument","leaf_cycle":"deciduous","leaf_type":"broadleaved","name:de":"Rotbuche","name:en":"Copper beech","name:es":"Haya com\u00c3\u00ban","name:fr":"H\u00c3\u00aatre commun","name:it":"Faggio rosso","natural":"tree","species":"Fagus sylvatica f. purpurea","species:de":"Rotbuche","species:en":"Copper beech","species:es":"Haya com\u00c3\u00ban","species:fr":"H\u00c3\u00aatre commun","species:it":"Faggio rosso","wikidata":"Q55743222"}},"type":"Feature"},
	{"geometry":{"coordinates":[7.612049,45.750571],"type":"Point"},"properties":{"name":"Tilia platyphyllos","osm_id":"5615074030","tag":{"denotation":"natural_monument","leaf_cycle":"deciduous","leaf_type":"broadleaved","name:de":"Sommerlinde","name:en":"Largeleaf linden","name:es":"Tilo de hoja ancha","name:fr":"Tilleul \u00c3\u00a0 grandes feuilles","name:it":"Tiglio","natural":"tree","species":"Tilia platyphyllos","species:de":"Sommerlinde","species:en":"Largeleaf linden","species:es":"Tilo de hoja ancha","species:fr":"Tilleul \u00c3\u00a0 grandes feuilles","species:it":"Tiglio nostrano"}},"type":"Feature"},
	{"geometry":{"coordinates":[7.612077,45.750545],"type":"Point"},"properties":{"name":"Tilia platyphyllos","osm_id":"5615074031","tag":{"denotation":"natural_monument","leaf_cycle":"evergreen","leaf_type":"broadleaved","name:de":"Sommerlinde","name:en":"Largeleaf linden","name:es":"Tilo de hoja ancha","name:fr":"Tilleul \u00c3\u00a0 grandes feuilles","name:it":"Tiglio","natural":"tree","species":"Tilia platyphyllos","species:de":"Sommerlinde","species:en":"Littleleaf Linden","species:es":"Tilo de hoja ancha","species:fr":"Tilleul \u00c3\u00a0 grandes feuilles","species:it":"Tiglio nostrano"}},"type":"Feature"},
	{"geometry":{"coordinates":[7.611767,45.744906],"type":"Point"},"properties":{"name":"Sequoiadendron giganteum","osm_id":"5615149481","tag":{"denotation":"natural_monument","leaf_cycle":"evergreen","leaf_type":"needleleaved","name:de":"Riesenmammutbaum","name:en":"Giant sequoia","name:es":"Secoya gigante","name:fr":"S\u00c3\u00a9quoia g\u00c3\u00a9ant","name:it":"Sequoia gigante","natural":"tree","species":"Sequoiadendron giganteum","species:de":"Riesenmammutbaum","species:en":"Giant sequoia","species:es":"Secoya gigante","species:fr":"S\u00c3\u00a9quoia g\u00c3\u00a9ant","species:it":"Sequoia gigante","wikidata":"Q55743219"}},"type":"Feature"},
	{"geometry":{"coordinates":[7.612069,45.751485],"type":"Point"},"properties":{"name":"Cedrus atlantica","osm_id":"5615159483","tag":{"denotation":"natural_monument","leaf_cycle":"evergreen","leaf_type":"needleleaved","name:de":"Atlas-Zeder","name:en":"Atlas cedar","name:es":"Cedro del Atlas","name:fr":"C\u00c3\u00a8dre de l'Atlas","name:it":"Cedro dell' Atlante","natural":"tree","species":"Cedrus atlantica","species:de":"Atlas-Zeder","species:en":"Atlas cedar","species:es":"Cedro del Atlas","species:fr":"C\u00c3\u00a8dre de l'Atlas","species:it":"Cedro dell'Atlante","wikidata":"Q55743220"}},"type":"Feature"},
	{"geometry":{"coordinates":[7.618894,45.760312],"type":"Point"},"properties":{"name":"Fagus sylvatica","osm_id":"5615167842","tag":{"denotation":"natural_monument","leaf_cycle":"deciduous","leaf_type":"broadleaved","name:de":"Rotbuche","name:en":"Beech","name:es":"Haya com\u00c3\u00ban","name:fr":"H\u00c3\u00aatre commun","name:it":"Faggio","natural":"tree","species":"Fagus sylvatica","species:de":"Rotbuche","species:en":"Beech","species:es":"Haya com\u00c3\u00ban","species:fr":"H\u00c3\u00aatre commun","species:it":"Faggio","wikidata":"Q55743221"}},"type":"Feature"},
	{"geometry":{"coordinates":[7.599516,45.731786],"type":"Point"},"properties":{"name":"Le M\u00c3\u00b4n-\u00c3\u00b4 de Gimiod (pianta monumentale)","osm_id":"6246344731","tag":{"denotation":"natural_monument","genus":"Morus","height":"6","leaf_cycle":"deciduous","leaf_type":"broadleaved","natural":"tree","taxon":"Morus Nigra L.","taxon:it":"Gelso Nero o Comune","tourism":"attraction"}},"type":"Feature"}
]
}
