{
"type": "FeatureCollection",
"features": [
	{"geometry":{"coordinates":[7.634763,45.212714],"type":"Point"},"properties":{"osm_id":"5342428687","tag":{"natural":"tree"}},"type":"Feature"},
	{"geometry":{"coordinates":[7.634891,45.212708],"type":"Point"},"properties":{"osm_id":"5342428688","tag":{"natural":"tree"}},"type":"Feature"},
	{"geometry":{"coordinates":[7.635009,45.212727],"type":"Point"},"properties":{"osm_id":"5342428689","tag":{"natural":"tree"}},"type":"Feature"},
	{"geometry":{"coordinates":[7.635028,45.212606],"type":"Point"},"properties":{"osm_id":"5342428690","tag":{"natural":"tree"}},"type":"Feature"},
	{"geometry":{"coordinates":[7.635189,45.212651],"type":"Point"},"properties":{"osm_id":"5342428691","tag":{"natural":"tree"}},"type":"Feature"},
	{"geometry":{"coordinates":[7.63528,45.2128],"type":"Point"},"properties":{"osm_id":"5342428692","tag":{"natural":"tree"}},"type":"Feature"},
	{"geometry":{"coordinates":[7.635347,45.212912],"type":"Point"},"properties":{"osm_id":"5342428693","tag":{"natural":"tree"}},"type":"Feature"},
	{"geometry":{"coordinates":[7.635031,45.212479],"type":"Point"},"properties":{"osm_id":"5342428695","tag":{"natural":"tree"}},"type":"Feature"},
	{"geometry":{"coordinates":[7.634926,45.212309],"type":"Point"},"properties":{"osm_id":"5342428696","tag":{"natural":"tree"}},"type":"Feature"},
	{"geometry":{"coordinates":[7.634945,45.212256],"type":"Point"},"properties":{"osm_id":"5342428697","tag":{"natural":"tree"}},"type":"Feature"},
	{"geometry":{"coordinates":[7.568766,45.160988],"type":"Point"},"properties":{"name":"Ciliegio selvatico","osm_id":"5682537325","tag":{"circumference":"3.08","denotation":"natural_monument","description":"a) et\u00c3\u00a0 e/o dimensioni","height":"27.0","leaf_cycle":"deciduous","leaf_type":"broadleaved","name:de":"Vogel-Kirsche","name:en":"Wild cherry","name:es":"Cerezo silvestre","name:fr":"Merisier","name:it":"Ciliegio selvatico","name:la":"Prunus avium","natural":"tree","protected":"yes","species":"Prunus avium","species:de":"Vogel-Kirsche","species:en":"Wild cherry","species:es":"Cerezo silvestre","species:fr":"Merisier","species:it":"Ciliegio selvatico","wikidata":"Q55742353"}},"type":"Feature"},
	{"geometry":{"coordinates":[7.624965,45.203204],"type":"Point"},"properties":{"osm_id":"6684239604","tag":{"denotation":"natural_monument","leaf_cycle":"deciduous","leaf_type":"broadleaved","natural":"tree"}},"type":"Feature"},
	{"geometry":{"coordinates":[7.627322,45.184403],"type":"Point"},"properties":{"osm_id":"7242685110","tag":{"natural":"tree"}},"type":"Feature"},
	{"geometry":{"coordinates":[7.627273,45.183469],"type":"Point"},"properties":{"osm_id":"7242685111","tag":{"natural":"tree"}},"type":"Feature"},
	{"geometry":{"coordinates":[7.627115,45.183497],"type":"Point"},"properties":{"osm_id":"7242685112","tag":{"natural":"tree"}},"type":"Feature"},
	{"geometry":{"coordinates":[7.626882,45.183507],"type":"Point"},"properties":{"osm_id":"7242685113","tag":{"natural":"tree"}},"type":"Feature"},
	{"geometry":{"coordinates":[7.626549,45.183535],"type":"Point"},"properties":{"osm_id":"7242685114","tag":{"natural":"tree"}},"type":"Feature"},
	{"geometry":{"coordinates":[7.626365,45.183561],"type":"Point"},"properties":{"osm_id":"7242685115","tag":{"natural":"tree"}},"type":"Feature"}
]
}
