{
"type": "FeatureCollection",
"features": [
	{"geometry":{"coordinates":[-43.450119,-22.760639],"type":"Point"},"properties":{"name":"Nova Igua\u00c3\u00a7u","osm_id":"992849414","ref":"NIU","tag":{"addr:city":"Nova Igua\u00c3\u00a7u","addr:country":"BR","addr:postcode":"26210-000","addr:street":"Avenida Marechal Floriano Peixoto","natural":"tree","old_name":"Maxambomba","opening_hours":"Mo-Fr 04:00-23:55; Sa 05:00-21:05; Su 05:50-21:00; PH 06:00-19:20","operator":"SuperVia","public_transport":"station","railway":"station","start_date":"1858-03-29"}},"type":"Feature"},
	{"geometry":{"coordinates":[-43.489707,-22.762707],"type":"Point"},"properties":{"osm_id":"1270308436","tag":{"denotation":"urban","leaf_cycle":"evergreen","leaf_type":"broadleaved","natural":"tree","tree_form":"urban"}},"type":"Feature"},
	{"geometry":{"coordinates":[-43.466024,-22.764038],"type":"Point"},"properties":{"osm_id":"4542209272","tag":{"natural":"tree"}},"type":"Feature"},
	{"geometry":{"coordinates":[-43.466093,-22.764025],"type":"Point"},"properties":{"osm_id":"4542209273","tag":{"natural":"tree"}},"type":"Feature"},
	{"geometry":{"coordinates":[-43.466082,-22.763978],"type":"Point"},"properties":{"osm_id":"4542209274","tag":{"natural":"tree"}},"type":"Feature"},
	{"geometry":{"coordinates":[-43.466012,-22.76399],"type":"Point"},"properties":{"osm_id":"4542209275","tag":{"natural":"tree"}},"type":"Feature"},
	{"geometry":{"coordinates":[-43.466056,-22.763889],"type":"Point"},"properties":{"osm_id":"4542209276","tag":{"natural":"tree"}},"type":"Feature"},
	{"geometry":{"coordinates":[-43.465987,-22.763901],"type":"Point"},"properties":{"osm_id":"4542209277","tag":{"natural":"tree"}},"type":"Feature"},
	{"geometry":{"coordinates":[-43.465998,-22.763949],"type":"Point"},"properties":{"osm_id":"4542209278","tag":{"natural":"tree"}},"type":"Feature"},
	{"geometry":{"coordinates":[-43.466068,-22.763936],"type":"Point"},"properties":{"osm_id":"4542209279","tag":{"natural":"tree"}},"type":"Feature"},
	{"geometry":{"coordinates":[-43.464655,-22.763889],"type":"Point"},"properties":{"osm_id":"4542209280","tag":{"natural":"tree"}},"type":"Feature"},
	{"geometry":{"coordinates":[-43.464706,-22.763883],"type":"Point"},"properties":{"osm_id":"4542209281","tag":{"natural":"tree"}},"type":"Feature"},
	{"geometry":{"coordinates":[-43.464671,-22.763816],"type":"Point"},"properties":{"osm_id":"4542209282","tag":{"natural":"tree"}},"type":"Feature"},
	{"geometry":{"coordinates":[-43.46466,-22.763736],"type":"Point"},"properties":{"osm_id":"4542209283","tag":{"natural":"tree"}},"type":"Feature"},
	{"geometry":{"coordinates":[-43.464992,-22.764221],"type":"Point"},"properties":{"osm_id":"4542209284","tag":{"natural":"tree"}},"type":"Feature"},
	{"geometry":{"coordinates":[-43.464948,-22.764226],"type":"Point"},"properties":{"osm_id":"4542209285","tag":{"natural":"tree"}},"type":"Feature"},
	{"geometry":{"coordinates":[-43.464902,-22.764233],"type":"Point"},"properties":{"osm_id":"4542209286","tag":{"natural":"tree"}},"type":"Feature"},
	{"geometry":{"coordinates":[-43.464602,-22.762148],"type":"Point"},"properties":{"osm_id":"4542209287","tag":{"natural":"tree"}},"type":"Feature"},
	{"geometry":{"coordinates":[-43.464653,-22.762104],"type":"Point"},"properties":{"osm_id":"4542209288","tag":{"natural":"tree"}},"type":"Feature"},
	{"geometry":{"coordinates":[-43.464714,-22.762067],"type":"Point"},"properties":{"osm_id":"4542209289","tag":{"natural":"tree"}},"type":"Feature"},
	{"geometry":{"coordinates":[-43.464619,-22.76171],"type":"Point"},"properties":{"osm_id":"4542209290","tag":{"natural":"tree"}},"type":"Feature"},
	{"geometry":{"coordinates":[-43.464619,-22.761755],"type":"Point"},"properties":{"osm_id":"4542209291","tag":{"natural":"tree"}},"type":"Feature"},
	{"geometry":{"coordinates":[-43.464621,-22.761798],"type":"Point"},"properties":{"osm_id":"4542209292","tag":{"natural":"tree"}},"type":"Feature"},
	{"geometry":{"coordinates":[-43.464621,-22.761849],"type":"Point"},"properties":{"osm_id":"4542209293","tag":{"natural":"tree"}},"type":"Feature"},
	{"geometry":{"coordinates":[-43.505169,-22.768613],"type":"Point"},"properties":{"name":"Serra do Mendanha","osm_id":"6828853933","tag":{"leaf_cycle":"semi_evergreen","leaf_type":"mixed","natural":"tree"}},"type":"Feature"},
	{"geometry":{"coordinates":[-43.449724,-22.760483],"type":"Point"},"properties":{"osm_id":"8126391779","tag":{"natural":"tree"}},"type":"Feature"},
	{"geometry":{"coordinates":[-43.449565,-22.760553],"type":"Point"},"properties":{"osm_id":"8126391780","tag":{"natural":"tree"}},"type":"Feature"},
	{"geometry":{"coordinates":[-43.449636,-22.760521],"type":"Point"},"properties":{"osm_id":"8126391781","tag":{"natural":"tree"}},"type":"Feature"},
	{"geometry":{"coordinates":[-43.449458,-22.760599],"type":"Point"},"properties":{"osm_id":"8126391782","tag":{"natural":"tree"}},"type":"Feature"},
	{"geometry":{"coordinates":[-43.449266,-22.760683],"type":"Point"},"properties":{"osm_id":"8126391784","tag":{"natural":"tree"}},"type":"Feature"},
	{"geometry":{"coordinates":[-43.449129,-22.760744],"type":"Point"},"properties":{"osm_id":"8126391785","tag":{"natural":"tree"}},"type":"Feature"},
	{"geometry":{"coordinates":[-43.449191,-22.760717],"type":"Point"},"properties":{"osm_id":"8126391786","tag":{"natural":"tree"}},"type":"Feature"},
	{"geometry":{"coordinates":[-43.449223,-22.760702],"type":"Point"},"properties":{"osm_id":"8126391787","tag":{"natural":"tree"}},"type":"Feature"},
	{"geometry":{"coordinates":[-43.449053,-22.760777],"type":"Point"},"properties":{"osm_id":"8126391788","tag":{"natural":"tree"}},"type":"Feature"},
	{"geometry":{"coordinates":[-43.449022,-22.760791],"type":"Point"},"properties":{"osm_id":"8126391789","tag":{"natural":"tree"}},"type":"Feature"},
	{"geometry":{"coordinates":[-43.449418,-22.760617],"type":"Point"},"properties":{"osm_id":"8126391790","tag":{"natural":"tree"}},"type":"Feature"},
	{"geometry":{"coordinates":[-43.449227,-22.760617],"type":"Point"},"properties":{"osm_id":"8126391791","tag":{"natural":"tree"}},"type":"Feature"},
	{"geometry":{"coordinates":[-43.449284,-22.760593],"type":"Point"},"properties":{"osm_id":"8126391792","tag":{"natural":"tree"}},"type":"Feature"},
	{"geometry":{"coordinates":[-43.449178,-22.760638],"type":"Point"},"properties":{"osm_id":"8126391793","tag":{"natural":"tree"}},"type":"Feature"},
	{"geometry":{"coordinates":[-43.449149,-22.760651],"type":"Point"},"properties":{"osm_id":"8126391794","tag":{"natural":"tree"}},"type":"Feature"},
	{"geometry":{"coordinates":[-43.448983,-22.760722],"type":"Point"},"properties":{"osm_id":"8126391795","tag":{"natural":"tree"}},"type":"Feature"},
	{"geometry":{"coordinates":[-43.44903,-22.760702],"type":"Point"},"properties":{"osm_id":"8126391796","tag":{"natural":"tree"}},"type":"Feature"},
	{"geometry":{"coordinates":[-43.449074,-22.760683],"type":"Point"},"properties":{"osm_id":"8126391797","tag":{"natural":"tree"}},"type":"Feature"},
	{"geometry":{"coordinates":[-43.449374,-22.760554],"type":"Point"},"properties":{"osm_id":"8126391798","tag":{"natural":"tree"}},"type":"Feature"},
	{"geometry":{"coordinates":[-43.449461,-22.760517],"type":"Point"},"properties":{"osm_id":"8126391799","tag":{"natural":"tree"}},"type":"Feature"},
	{"geometry":{"coordinates":[-43.449531,-22.760487],"type":"Point"},"properties":{"osm_id":"8126391800","tag":{"natural":"tree"}},"type":"Feature"},
	{"geometry":{"coordinates":[-43.427944,-22.782438],"type":"Point"},"properties":{"osm_id":"8127007374","tag":{"natural":"tree"}},"type":"Feature"},
	{"geometry":{"coordinates":[-43.427985,-22.782571],"type":"Point"},"properties":{"osm_id":"8127007375","tag":{"natural":"tree"}},"type":"Feature"},
	{"geometry":{"coordinates":[-43.428242,-22.782588],"type":"Point"},"properties":{"osm_id":"8127007376","tag":{"diameter":"250cm","natural":"tree"}},"type":"Feature"},
	{"geometry":{"coordinates":[-43.428261,-22.782465],"type":"Point"},"properties":{"osm_id":"8127007377","tag":{"natural":"tree"}},"type":"Feature"},
	{"geometry":{"coordinates":[-43.428366,-22.782506],"type":"Point"},"properties":{"osm_id":"8127007378","tag":{"natural":"tree"}},"type":"Feature"},
	{"geometry":{"coordinates":[-43.42838,-22.782469],"type":"Point"},"properties":{"osm_id":"8127007379","tag":{"natural":"tree"}},"type":"Feature"},
	{"geometry":{"coordinates":[-43.428334,-22.782339],"type":"Point"},"properties":{"osm_id":"8127007380","tag":{"natural":"tree"}},"type":"Feature"},
	{"geometry":{"coordinates":[-43.428417,-22.782346],"type":"Point"},"properties":{"osm_id":"8127007381","tag":{"natural":"tree"}},"type":"Feature"},
	{"geometry":{"coordinates":[-43.428383,-22.782252],"type":"Point"},"properties":{"osm_id":"8127007382","tag":{"natural":"tree"}},"type":"Feature"},
	{"geometry":{"coordinates":[-43.428465,-22.78212],"type":"Point"},"properties":{"osm_id":"8127007383","tag":{"natural":"tree"}},"type":"Feature"},
	{"geometry":{"coordinates":[-43.4284,-22.78214],"type":"Point"},"properties":{"osm_id":"8127007384","tag":{"natural":"tree"}},"type":"Feature"},
	{"geometry":{"coordinates":[-43.428479,-22.782165],"type":"Point"},"properties":{"osm_id":"8127007385","tag":{"natural":"tree"}},"type":"Feature"},
	{"geometry":{"coordinates":[-43.428182,-22.782052],"type":"Point"},"properties":{"osm_id":"8127007386","tag":{"diameter":"250cm","natural":"tree"}},"type":"Feature"},
	{"geometry":{"coordinates":[-43.428068,-22.782279],"type":"Point"},"properties":{"osm_id":"8127007387","tag":{"natural":"tree"}},"type":"Feature"},
	{"geometry":{"coordinates":[-43.42813,-22.782224],"type":"Point"},"properties":{"osm_id":"8127007388","tag":{"natural":"tree"}},"type":"Feature"},
	{"geometry":{"coordinates":[-43.42808,-22.782224],"type":"Point"},"properties":{"osm_id":"8127007389","tag":{"natural":"tree"}},"type":"Feature"},
	{"geometry":{"coordinates":[-43.427814,-22.782581],"type":"Point"},"properties":{"osm_id":"8127007390","tag":{"natural":"tree"}},"type":"Feature"},
	{"geometry":{"coordinates":[-43.427774,-22.782702],"type":"Point"},"properties":{"osm_id":"8127007391","tag":{"natural":"tree"}},"type":"Feature"},
	{"geometry":{"coordinates":[-43.427754,-22.782752],"type":"Point"},"properties":{"osm_id":"8127007392","tag":{"natural":"tree"}},"type":"Feature"},
	{"geometry":{"coordinates":[-43.427754,-22.782911],"type":"Point"},"properties":{"osm_id":"8127007393","tag":{"natural":"tree"}},"type":"Feature"},
	{"geometry":{"coordinates":[-43.427828,-22.782949],"type":"Point"},"properties":{"osm_id":"8127007394","tag":{"natural":"tree"}},"type":"Feature"},
	{"geometry":{"coordinates":[-43.428088,-22.78303],"type":"Point"},"properties":{"osm_id":"8127007395","tag":{"natural":"tree"}},"type":"Feature"},
	{"geometry":{"coordinates":[-43.428016,-22.782971],"type":"Point"},"properties":{"osm_id":"8127007396","tag":{"natural":"tree"}},"type":"Feature"},
	{"geometry":{"coordinates":[-43.428057,-22.782998],"type":"Point"},"properties":{"osm_id":"8127007397","tag":{"natural":"tree"}},"type":"Feature"},
	{"geometry":{"coordinates":[-43.427867,-22.782774],"type":"Point"},"properties":{"osm_id":"8127007398","tag":{"natural":"tree"}},"type":"Feature"},
	{"geometry":{"coordinates":[-43.427903,-22.782714],"type":"Point"},"properties":{"osm_id":"8127007399","tag":{"natural":"tree"}},"type":"Feature"},
	{"geometry":{"coordinates":[-43.427893,-22.782739],"type":"Point"},"properties":{"osm_id":"8127007400","tag":{"natural":"tree"}},"type":"Feature"},
	{"geometry":{"coordinates":[-43.427783,-22.783436],"type":"Point"},"properties":{"osm_id":"8127007423","tag":{"natural":"tree"}},"type":"Feature"},
	{"geometry":{"coordinates":[-43.42752,-22.783268],"type":"Point"},"properties":{"osm_id":"8127007447","tag":{"natural":"tree"}},"type":"Feature"},
	{"geometry":{"coordinates":[-43.427563,-22.783178],"type":"Point"},"properties":{"osm_id":"8127007448","tag":{"natural":"tree"}},"type":"Feature"},
	{"geometry":{"coordinates":[-43.427542,-22.783222],"type":"Point"},"properties":{"osm_id":"8127007449","tag":{"natural":"tree"}},"type":"Feature"},
	{"geometry":{"coordinates":[-43.42768,-22.783396],"type":"Point"},"properties":{"osm_id":"8127007452","tag":{"natural":"tree"}},"type":"Feature"},
	{"geometry":{"coordinates":[-43.427551,-22.783346],"type":"Point"},"properties":{"osm_id":"8127007453","tag":{"natural":"tree"}},"type":"Feature"},
	{"geometry":{"coordinates":[-43.427904,-22.78343],"type":"Point"},"properties":{"osm_id":"8127007454","tag":{"natural":"tree"}},"type":"Feature"},
	{"geometry":{"coordinates":[-43.427924,-22.783384],"type":"Point"},"properties":{"osm_id":"8127007455","tag":{"natural":"tree"}},"type":"Feature"},
	{"geometry":{"coordinates":[-43.428062,-22.783107],"type":"Point"},"properties":{"osm_id":"8127007456","tag":{"natural":"tree"}},"type":"Feature"},
	{"geometry":{"coordinates":[-43.428084,-22.782918],"type":"Point"},"properties":{"osm_id":"8127321667","tag":{"natural":"tree"}},"type":"Feature"},
	{"geometry":{"coordinates":[-43.428002,-22.78289],"type":"Point"},"properties":{"osm_id":"8127321668","tag":{"natural":"tree"}},"type":"Feature"},
	{"geometry":{"coordinates":[-43.427575,-22.783517],"type":"Point"},"properties":{"osm_id":"8127600748","tag":{"natural":"tree"}},"type":"Feature"},
	{"geometry":{"coordinates":[-43.4306,-22.782748],"type":"Point"},"properties":{"osm_id":"9111265991","tag":{"natural":"tree"}},"type":"Feature"},
	{"geometry":{"coordinates":[-43.430607,-22.782627],"type":"Point"},"properties":{"osm_id":"9111266009","tag":{"natural":"tree"}},"type":"Feature"},
	{"geometry":{"coordinates":[-43.491176,-22.756082],"type":"Point"},"properties":{"osm_id":"9136158395","tag":{"natural":"tree"}},"type":"Feature"},
	{"geometry":{"coordinates":[-43.490385,-22.756178],"type":"Point"},"properties":{"osm_id":"9136158438","tag":{"natural":"tree"}},"type":"Feature"},
	{"geometry":{"coordinates":[-43.490341,-22.756176],"type":"Point"},"properties":{"osm_id":"9136158439","tag":{"natural":"tree"}},"type":"Feature"},
	{"geometry":{"coordinates":[-43.490303,-22.756176],"type":"Point"},"properties":{"osm_id":"9136158440","tag":{"natural":"tree"}},"type":"Feature"},
	{"geometry":{"coordinates":[-43.490265,-22.756174],"type":"Point"},"properties":{"osm_id":"9136158441","tag":{"natural":"tree"}},"type":"Feature"},
	{"geometry":{"coordinates":[-43.490224,-22.756173],"type":"Point"},"properties":{"osm_id":"9136158442","tag":{"natural":"tree"}},"type":"Feature"},
	{"geometry":{"coordinates":[-43.490182,-22.756173],"type":"Point"},"properties":{"osm_id":"9136158443","tag":{"natural":"tree"}},"type":"Feature"},
	{"geometry":{"coordinates":[-43.490146,-22.75617],"type":"Point"},"properties":{"osm_id":"9136158444","tag":{"natural":"tree"}},"type":"Feature"},
	{"geometry":{"coordinates":[-43.490109,-22.756168],"type":"Point"},"properties":{"osm_id":"9136158445","tag":{"natural":"tree"}},"type":"Feature"},
	{"geometry":{"coordinates":[-43.490072,-22.756166],"type":"Point"},"properties":{"osm_id":"9136158446","tag":{"natural":"tree"}},"type":"Feature"},
	{"geometry":{"coordinates":[-43.490025,-22.756165],"type":"Point"},"properties":{"osm_id":"9136158447","tag":{"natural":"tree"}},"type":"Feature"},
	{"geometry":{"coordinates":[-43.489968,-22.756164],"type":"Point"},"properties":{"osm_id":"9136158448","tag":{"natural":"tree"}},"type":"Feature"},
	{"geometry":{"coordinates":[-43.48991,-22.756162],"type":"Point"},"properties":{"osm_id":"9136158449","tag":{"natural":"tree"}},"type":"Feature"},
	{"geometry":{"coordinates":[-43.48987,-22.75616],"type":"Point"},"properties":{"osm_id":"9136158450","tag":{"natural":"tree"}},"type":"Feature"},
	{"geometry":{"coordinates":[-43.489823,-22.756161],"type":"Point"},"properties":{"osm_id":"9136158451","tag":{"natural":"tree"}},"type":"Feature"}
]
}
