{
"type": "FeatureCollection",
"features": [
	{"geometry":{"coordinates":[23.820083,62.636539],"type":"Point"},"properties":{"name":"Ekopiste T\u00c3\u00b6ys\u00c3\u00a4 Kirkonkyl\u00c3\u00a4","osm_id":"1371980690","tag":{"addr:housenumber":"5","addr:postcode":"63600","addr:street":"Keskustie","amenity":"recycling","operator":"Rinki Oy","recycling:books":"no","recycling:cans":"yes","recycling:cardboard":"yes","recycling:cartons":"yes","recycling:clothes":"no","recycling:electrical_appliances":"no","recycling:glass":"yes","recycling:glass_bottles":"yes","recycling:magazines":"yes","recycling:newspaper":"yes","recycling:paper":"yes","recycling:paper_packaging":"yes","recycling:plastic":"yes","recycling:plastic_bottles":"yes","recycling:plastic_packaging":"yes","recycling:scrap_metal":"yes","recycling:small_appliances":"no","recycling:waste":"no","recycling:wood":"no","recycling_type":"container","website":"https://www.etappi.com/index.php?page=vastaanotto&subid=21&jateasema=5&jateasemaid=10"}},"type":"Feature"},
	{"geometry":{"coordinates":[23.81932,62.644169],"type":"Point"},"properties":{"name":"Ekopiste T\u00c3\u00b6ys\u00c3\u00a4","osm_id":"1371981687","tag":{"amenity":"recycling","description":"paperi- ja lasiker\u00c3\u00a4ys,j\u00c3\u00a4teaseman vieress\u00c3\u00a4","operator":"Lakeuden Etappi Oy","recycling:glass":"yes","recycling:glass_bottles":"yes","recycling:magazines":"yes","recycling:newspaper":"yes","recycling:paper":"yes","recycling:paper_packaging":"yes","recycling_type":"container","website":"https://www.etappi.com/fi/mihin-vien-jatteeni/ekopisteet/toysa/toysa-lehtim/"}},"type":"Feature"},
	{"geometry":{"coordinates":[23.81978,62.65039],"type":"Point"},"properties":{"osm_id":"1508379795","tag":{"amenity":"waste_basket"}},"type":"Feature"},
	{"geometry":{"coordinates":[23.826996,62.643666],"type":"Point"},"properties":{"osm_id":"2019744379","tag":{"amenity":"waste_basket"}},"type":"Feature"},
	{"geometry":{"coordinates":[23.822006,62.634677],"type":"Point"},"properties":{"osm_id":"2054233636","tag":{"amenity":"waste_basket"}},"type":"Feature"},
	{"geometry":{"coordinates":[23.820526,62.636571],"type":"Point"},"properties":{"osm_id":"2351507128","tag":{"amenity":"waste_basket"}},"type":"Feature"},
	{"geometry":{"coordinates":[23.820705,62.636291],"type":"Point"},"properties":{"osm_id":"2351507131","tag":{"amenity":"waste_basket"}},"type":"Feature"},
	{"geometry":{"coordinates":[23.820659,62.636329],"type":"Point"},"properties":{"osm_id":"2351507133","tag":{"amenity":"waste_basket"}},"type":"Feature"},
	{"geometry":{"coordinates":[23.821835,62.635898],"type":"Point"},"properties":{"osm_id":"2355749085","tag":{"amenity":"waste_basket"}},"type":"Feature"},
	{"geometry":{"coordinates":[23.821153,62.635791],"type":"Point"},"properties":{"osm_id":"7941990471","tag":{"amenity":"waste_basket"}},"type":"Feature"}
]
}
