{
"type": "FeatureCollection",
"features": [
	{"geometry":{"coordinates":[23.832151,61.473137],"type":"Point"},"properties":{"osm_id":"317090466","tag":{"amenity":"recycling","location":"underground","recycling:batteries":"yes","recycling:glass":"yes","recycling:paper":"yes","recycling_type":"container"}},"type":"Feature"},
	{"geometry":{"coordinates":[23.837648,61.464094],"type":"Point"},"properties":{"osm_id":"317090740","tag":{"amenity":"recycling","recycling:batteries":"yes","recycling:clothes":"yes","recycling:glass":"yes","recycling:paper":"yes"}},"type":"Feature"},
	{"geometry":{"coordinates":[23.869684,61.4676],"type":"Point"},"properties":{"osm_id":"542250089","tag":{"amenity":"recycling"}},"type":"Feature"},
	{"geometry":{"coordinates":[23.832473,61.466751],"type":"Point"},"properties":{"osm_id":"564094156","tag":{"amenity":"waste_basket"}},"type":"Feature"},
	{"geometry":{"coordinates":[23.852247,61.44183],"type":"Point"},"properties":{"osm_id":"919640456","tag":{"amenity":"recycling","recycling:cans":"yes","recycling:clothes":"yes","recycling:glass":"yes","recycling:scrap_metal":"yes","recycling:waste":"yes","recycling_type":"container"}},"type":"Feature"},
	{"geometry":{"coordinates":[23.839954,61.477923],"type":"Point"},"properties":{"osm_id":"920428660","tag":{"amenity":"recycling","recycling:clothes":"yes"}},"type":"Feature"},
	{"geometry":{"coordinates":[23.851869,61.451205],"type":"Point"},"properties":{"osm_id":"950770104","tag":{"amenity":"recycling","recycling:cans":"yes","recycling_type":"container"}},"type":"Feature"},
	{"geometry":{"coordinates":[23.835836,61.455685],"type":"Point"},"properties":{"osm_id":"951479339","tag":{"amenity":"recycling","location":"overground","recycling_type":"container"}},"type":"Feature"},
	{"geometry":{"coordinates":[23.834405,61.443355],"type":"Point"},"properties":{"osm_id":"957182288","tag":{"amenity":"waste_basket"}},"type":"Feature"},
	{"geometry":{"coordinates":[23.818553,61.463848],"type":"Point"},"properties":{"osm_id":"972452680","tag":{"amenity":"waste_basket"}},"type":"Feature"},
	{"geometry":{"coordinates":[23.832327,61.452124],"type":"Point"},"properties":{"osm_id":"1069948912","tag":{"amenity":"recycling"}},"type":"Feature"},
	{"geometry":{"coordinates":[23.832155,61.454366],"type":"Point"},"properties":{"osm_id":"1271862637","tag":{"amenity":"waste_basket"}},"type":"Feature"},
	{"geometry":{"coordinates":[23.846516,61.446831],"type":"Point"},"properties":{"osm_id":"1296946299","tag":{"amenity":"waste_basket"}},"type":"Feature"},
	{"geometry":{"coordinates":[23.853322,61.446717],"type":"Point"},"properties":{"osm_id":"1414625303","tag":{"amenity":"waste_disposal"}},"type":"Feature"},
	{"geometry":{"coordinates":[23.866092,61.44342],"type":"Point"},"properties":{"highway":"street_lamp","osm_id":"1416906792","tag":{"amenity":"waste_basket"}},"type":"Feature"},
	{"geometry":{"coordinates":[23.867607,61.443506],"type":"Point"},"properties":{"highway":"street_lamp","osm_id":"1416906816","tag":{"amenity":"waste_basket"}},"type":"Feature"},
	{"geometry":{"coordinates":[23.86383,61.442331],"type":"Point"},"properties":{"name":"Hy\u00c3\u00b6tyj\u00c3\u00a4tepiste","osm_id":"1854611152","tag":{"amenity":"recycling","recycling_type":"container"}},"type":"Feature"},
	{"geometry":{"coordinates":[23.867887,61.442646],"type":"Point"},"properties":{"osm_id":"2310882460","tag":{"amenity":"waste_basket"}},"type":"Feature"},
	{"geometry":{"coordinates":[23.866678,61.443369],"type":"Point"},"properties":{"osm_id":"2313164725","tag":{"amenity":"waste_basket"}},"type":"Feature"},
	{"geometry":{"coordinates":[23.866048,61.443021],"type":"Point"},"properties":{"osm_id":"2313166378","tag":{"amenity":"waste_basket"}},"type":"Feature"},
	{"geometry":{"coordinates":[23.866924,61.442694],"type":"Point"},"properties":{"osm_id":"2313166379","tag":{"amenity":"waste_basket"}},"type":"Feature"},
	{"geometry":{"coordinates":[23.849059,61.452619],"type":"Point"},"properties":{"osm_id":"3020625816","tag":{"amenity":"waste_basket"}},"type":"Feature"},
	{"geometry":{"coordinates":[23.851362,61.454111],"type":"Point"},"properties":{"osm_id":"4543673887","tag":{"access":"private","amenity":"recycling","recycling:cans":"yes","recycling:cardboard":"yes","recycling:cartons":"yes","recycling:glass":"yes","recycling:newspaper":"yes","recycling:organic":"yes","recycling:paper":"yes","recycling:scrap_metal":"yes","recycling:waste":"yes","recycling_type":"container"}},"type":"Feature"},
	{"geometry":{"coordinates":[23.888169,61.464584],"type":"Point"},"properties":{"osm_id":"5618149098","tag":{"amenity":"recycling","location":"underground","recycling_type":"container"}},"type":"Feature"},
	{"geometry":{"coordinates":[23.835272,61.447132],"type":"Point"},"properties":{"osm_id":"6229509385","tag":{"amenity":"waste_basket"}},"type":"Feature"},
	{"geometry":{"coordinates":[23.835574,61.448523],"type":"Point"},"properties":{"osm_id":"6230795528","tag":{"amenity":"waste_basket","waste":"trash"}},"type":"Feature"},
	{"geometry":{"coordinates":[23.836622,61.449029],"type":"Point"},"properties":{"osm_id":"6230801466","tag":{"amenity":"waste_basket","waste":"trash"}},"type":"Feature"},
	{"geometry":{"coordinates":[23.837012,61.450154],"type":"Point"},"properties":{"osm_id":"6230827070","tag":{"amenity":"waste_basket","waste":"trash"}},"type":"Feature"}
]
}
