{
"type": "FeatureCollection",
"features": [
	{"geometry":{"coordinates":[23.856123,38.049485],"type":"Point"},"properties":{"osm_id":"4188187877","tag":{"amenity":"recycling","recycling_type":"container"}},"type":"Feature"},
	{"geometry":{"coordinates":[23.819604,38.008394],"type":"Point"},"properties":{"osm_id":"5077137498","tag":{"amenity":"recycling","recycling:paper":"yes","recycling_type":"container"}},"type":"Feature"},
	{"geometry":{"coordinates":[23.820163,38.008261],"type":"Point"},"properties":{"osm_id":"5077137499","tag":{"amenity":"waste_disposal"}},"type":"Feature"},
	{"geometry":{"coordinates":[23.818584,38.030131],"type":"Point"},"properties":{"osm_id":"5616400262","tag":{"amenity":"recycling","operator":"Waste4Think","recycling:organic":"yes","recycling_type":"container"}},"type":"Feature"},
	{"geometry":{"coordinates":[23.821367,38.032024],"type":"Point"},"properties":{"osm_id":"5753906262","tag":{"amenity":"recycling","operator":"Waste4Think","recycling:organic":"yes","recycling_type":"container"}},"type":"Feature"},
	{"geometry":{"coordinates":[23.825919,38.026998],"type":"Point"},"properties":{"osm_id":"5753906263","tag":{"amenity":"recycling","operator":"Waste4Think","recycling:organic":"yes","recycling_type":"container"}},"type":"Feature"},
	{"geometry":{"coordinates":[23.824403,38.025599],"type":"Point"},"properties":{"osm_id":"5753906264","tag":{"amenity":"recycling","operator":"Waste4Think","recycling:organic":"yes","recycling_type":"container"}},"type":"Feature"},
	{"geometry":{"coordinates":[23.862149,38.021806],"type":"Point"},"properties":{"osm_id":"5815004850","tag":{"amenity":"waste_disposal"}},"type":"Feature"},
	{"geometry":{"coordinates":[23.862191,38.021802],"type":"Point"},"properties":{"osm_id":"5815004851","tag":{"amenity":"recycling","recycling:glass":"yes","recycling_type":"container"}},"type":"Feature"},
	{"geometry":{"coordinates":[23.864363,38.020664],"type":"Point"},"properties":{"osm_id":"5815004900","tag":{"amenity":"recycling","recycling:glass":"yes","recycling_type":"container"}},"type":"Feature"},
	{"geometry":{"coordinates":[23.825594,38.03562],"type":"Point"},"properties":{"osm_id":"5824389876","tag":{"amenity":"recycling","recycling:bottles":"yes"}},"type":"Feature"},
	{"geometry":{"coordinates":[23.825755,38.037881],"type":"Point"},"properties":{"osm_id":"5824397431","tag":{"amenity":"recycling","recycling:bottles":"yes"}},"type":"Feature"},
	{"geometry":{"coordinates":[23.827246,38.037908],"type":"Point"},"properties":{"osm_id":"5824405412","tag":{"amenity":"recycling","recycling:bottles":"yes"}},"type":"Feature"},
	{"geometry":{"coordinates":[23.880605,37.996777],"type":"Point"},"properties":{"osm_id":"5870495964","tag":{"amenity":"waste_disposal"}},"type":"Feature"},
	{"geometry":{"coordinates":[23.821261,38.022136],"type":"Point"},"properties":{"osm_id":"5977429596","tag":{"amenity":"recycling","operator":"Waste4Think","recycling:organic":"yes","recycling_type":"container"}},"type":"Feature"},
	{"geometry":{"coordinates":[23.850776,38.020816],"type":"Point"},"properties":{"osm_id":"6001160959","tag":{"amenity":"waste_disposal"}},"type":"Feature"},
	{"geometry":{"coordinates":[23.822252,38.030814],"type":"Point"},"properties":{"osm_id":"6004742633","tag":{"amenity":"recycling","operator":"Waste4Think","recycling:organic":"yes","recycling_type":"container"}},"type":"Feature"},
	{"geometry":{"coordinates":[23.858438,38.009023],"type":"Point"},"properties":{"osm_id":"6314663916","tag":{"amenity":"recycling","recycling:clothes":"yes","recycling:glass_bottles":"yes","recycling:shoes":"yes","recycling_type":"container"}},"type":"Feature"},
	{"geometry":{"coordinates":[23.820333,38.007577],"type":"Point"},"properties":{"osm_id":"6455953735","tag":{"amenity":"waste_disposal"}},"type":"Feature"},
	{"geometry":{"coordinates":[23.821712,38.016863],"type":"Point"},"properties":{"osm_id":"6475888553","tag":{"amenity":"recycling","recycling_type":"container"}},"type":"Feature"},
	{"geometry":{"coordinates":[23.830027,38.003924],"type":"Point"},"properties":{"osm_id":"6490942786","tag":{"amenity":"recycling","recycling_type":"container"}},"type":"Feature"},
	{"geometry":{"coordinates":[23.818414,38.00037],"type":"Point"},"properties":{"osm_id":"6495047993","tag":{"amenity":"recycling","recycling_type":"container"}},"type":"Feature"},
	{"geometry":{"coordinates":[23.818453,38.000381],"type":"Point"},"properties":{"osm_id":"6495047994","tag":{"amenity":"waste_disposal"}},"type":"Feature"},
	{"geometry":{"coordinates":[23.818449,38.000396],"type":"Point"},"properties":{"osm_id":"6495047995","tag":{"amenity":"recycling","recycling_type":"container"}},"type":"Feature"},
	{"geometry":{"coordinates":[23.818678,38.000537],"type":"Point"},"properties":{"osm_id":"6495047996","tag":{"amenity":"waste_disposal"}},"type":"Feature"},
	{"geometry":{"coordinates":[23.819022,38.000978],"type":"Point"},"properties":{"osm_id":"6495047997","tag":{"amenity":"waste_disposal"}},"type":"Feature"},
	{"geometry":{"coordinates":[23.819034,38.000987],"type":"Point"},"properties":{"osm_id":"6495047998","tag":{"amenity":"waste_disposal"}},"type":"Feature"},
	{"geometry":{"coordinates":[23.819042,38.001006],"type":"Point"},"properties":{"osm_id":"6495047999","tag":{"amenity":"recycling","recycling_type":"container"}},"type":"Feature"},
	{"geometry":{"coordinates":[23.819138,38.001083],"type":"Point"},"properties":{"osm_id":"6495048000","tag":{"amenity":"recycling","recycling_type":"container"}},"type":"Feature"},
	{"geometry":{"coordinates":[23.819351,38.0011],"type":"Point"},"properties":{"osm_id":"6495048001","tag":{"amenity":"waste_disposal"}},"type":"Feature"},
	{"geometry":{"coordinates":[23.819455,38.001372],"type":"Point"},"properties":{"osm_id":"6495048002","tag":{"amenity":"waste_disposal"}},"type":"Feature"},
	{"geometry":{"coordinates":[23.819683,38.001501],"type":"Point"},"properties":{"osm_id":"6495048003","tag":{"amenity":"recycling","recycling_type":"container"}},"type":"Feature"},
	{"geometry":{"coordinates":[23.819679,38.00148],"type":"Point"},"properties":{"osm_id":"6495048004","tag":{"amenity":"waste_disposal"}},"type":"Feature"},
	{"geometry":{"coordinates":[23.81967,38.001681],"type":"Point"},"properties":{"osm_id":"6495048005","tag":{"amenity":"waste_disposal"}},"type":"Feature"},
	{"geometry":{"coordinates":[23.820098,38.002065],"type":"Point"},"properties":{"osm_id":"6495048006","tag":{"amenity":"waste_disposal"}},"type":"Feature"},
	{"geometry":{"coordinates":[23.820103,38.002088],"type":"Point"},"properties":{"osm_id":"6495048007","tag":{"amenity":"recycling","recycling_type":"container"}},"type":"Feature"},
	{"geometry":{"coordinates":[23.820136,38.002246],"type":"Point"},"properties":{"osm_id":"6495048008","tag":{"amenity":"waste_disposal"}},"type":"Feature"},
	{"geometry":{"coordinates":[23.820385,38.00237],"type":"Point"},"properties":{"osm_id":"6495048009","tag":{"amenity":"waste_disposal"}},"type":"Feature"},
	{"geometry":{"coordinates":[23.820377,38.002349],"type":"Point"},"properties":{"osm_id":"6495048010","tag":{"amenity":"recycling","recycling_type":"container"}},"type":"Feature"},
	{"geometry":{"coordinates":[23.82031,38.002466],"type":"Point"},"properties":{"osm_id":"6495048011","tag":{"amenity":"waste_disposal"}},"type":"Feature"},
	{"geometry":{"coordinates":[23.820398,38.002582],"type":"Point"},"properties":{"osm_id":"6495048012","tag":{"amenity":"waste_disposal"}},"type":"Feature"},
	{"geometry":{"coordinates":[23.820747,38.002856],"type":"Point"},"properties":{"osm_id":"6495048013","tag":{"amenity":"recycling","recycling_type":"container"}},"type":"Feature"},
	{"geometry":{"coordinates":[23.82104,38.003261],"type":"Point"},"properties":{"osm_id":"6495048014","tag":{"amenity":"waste_disposal"}},"type":"Feature"},
	{"geometry":{"coordinates":[23.82094,38.003319],"type":"Point"},"properties":{"osm_id":"6495048015","tag":{"amenity":"waste_disposal"}},"type":"Feature"},
	{"geometry":{"coordinates":[23.821126,38.003559],"type":"Point"},"properties":{"osm_id":"6495048016","tag":{"amenity":"waste_disposal"}},"type":"Feature"},
	{"geometry":{"coordinates":[23.821284,38.003577],"type":"Point"},"properties":{"osm_id":"6495048017","tag":{"amenity":"recycling","recycling_type":"container"}},"type":"Feature"},
	{"geometry":{"coordinates":[23.821863,38.004086],"type":"Point"},"properties":{"osm_id":"6495048018","tag":{"amenity":"waste_disposal"}},"type":"Feature"},
	{"geometry":{"coordinates":[23.821768,38.004164],"type":"Point"},"properties":{"osm_id":"6495048019","tag":{"amenity":"waste_disposal"}},"type":"Feature"},
	{"geometry":{"coordinates":[23.821786,38.004175],"type":"Point"},"properties":{"osm_id":"6495048020","tag":{"amenity":"recycling","recycling_type":"container"}},"type":"Feature"},
	{"geometry":{"coordinates":[23.822283,38.004495],"type":"Point"},"properties":{"osm_id":"6495048021","tag":{"amenity":"recycling","recycling_type":"container"}},"type":"Feature"},
	{"geometry":{"coordinates":[23.822308,38.004499],"type":"Point"},"properties":{"osm_id":"6495048022","tag":{"amenity":"waste_disposal"}},"type":"Feature"},
	{"geometry":{"coordinates":[23.822232,38.004586],"type":"Point"},"properties":{"osm_id":"6495048023","tag":{"amenity":"waste_disposal"}},"type":"Feature"},
	{"geometry":{"coordinates":[23.822724,38.004868],"type":"Point"},"properties":{"osm_id":"6495048024","tag":{"amenity":"recycling","recycling_type":"container"}},"type":"Feature"},
	{"geometry":{"coordinates":[23.822747,38.004869],"type":"Point"},"properties":{"osm_id":"6495048025","tag":{"amenity":"waste_disposal"}},"type":"Feature"},
	{"geometry":{"coordinates":[23.822782,38.004873],"type":"Point"},"properties":{"osm_id":"6495048026","tag":{"amenity":"recycling","recycling_type":"container"}},"type":"Feature"},
	{"geometry":{"coordinates":[23.822688,38.005033],"type":"Point"},"properties":{"osm_id":"6495048027","tag":{"amenity":"recycling","recycling_type":"container"}},"type":"Feature"},
	{"geometry":{"coordinates":[23.821769,38.012649],"type":"Point"},"properties":{"osm_id":"6563281684","tag":{"amenity":"recycling","colour":"blue","recycling_type":"container","type":"\u00cf\u0084\u00cf\u0081\u00ce\u00bf\u00cf\u0087\u00ce\u00ae\u00ce\u00bb\u00ce\u00b1\u00cf\u0084\u00ce\u00bf\u00cf\u0082"}},"type":"Feature"},
	{"geometry":{"coordinates":[23.821761,38.012657],"type":"Point"},"properties":{"osm_id":"6563315393","tag":{"amenity":"waste_disposal","colour":"\u00cf\u0080\u00cf\u0081\u00ce\u00ac\u00cf\u0083\u00ce\u00b9\u00ce\u00bd\u00ce\u00bf"}},"type":"Feature"},
	{"geometry":{"coordinates":[23.822134,38.012274],"type":"Point"},"properties":{"osm_id":"7285495984","tag":{"amenity":"recycling","colour":"blue","recycling_type":"container","type":"\u00cf\u0084\u00cf\u0081\u00ce\u00bf\u00cf\u0087\u00ce\u00ae\u00ce\u00bb\u00ce\u00b1\u00cf\u0084\u00ce\u00bf\u00cf\u0082"}},"type":"Feature"},
	{"geometry":{"coordinates":[23.822148,38.012262],"type":"Point"},"properties":{"osm_id":"7285543585","tag":{"amenity":"waste_disposal"}},"type":"Feature"},
	{"geometry":{"coordinates":[23.823428,38.010977],"type":"Point"},"properties":{"osm_id":"7286086965","tag":{"amenity":"waste_disposal"}},"type":"Feature"},
	{"geometry":{"coordinates":[23.823435,38.010972],"type":"Point"},"properties":{"osm_id":"7286086966","tag":{"amenity":"recycling","recycling_type":"container"}},"type":"Feature"},
	{"geometry":{"coordinates":[23.822857,38.0115],"type":"Point"},"properties":{"osm_id":"7286124112","tag":{"amenity":"recycling","recycling_type":"container"}},"type":"Feature"},
	{"geometry":{"coordinates":[23.822862,38.011496],"type":"Point"},"properties":{"osm_id":"7286159565","tag":{"amenity":"recycling","recycling_type":"container"}},"type":"Feature"},
	{"geometry":{"coordinates":[23.823025,38.011323],"type":"Point"},"properties":{"osm_id":"7286199876","tag":{"amenity":"recycling","recycling_type":"container"}},"type":"Feature"},
	{"geometry":{"coordinates":[23.822464,38.011917],"type":"Point"},"properties":{"osm_id":"7286204560","tag":{"amenity":"recycling","colour":"blue","recycling_type":"container","type":"\u00cf\u0084\u00cf\u0081\u00ce\u00bf\u00cf\u0087\u00ce\u00ae\u00ce\u00bb\u00ce\u00b1\u00cf\u0084\u00ce\u00bf\u00cf\u0082"}},"type":"Feature"},
	{"geometry":{"coordinates":[23.822473,38.011906],"type":"Point"},"properties":{"osm_id":"7286204561","tag":{"amenity":"waste_disposal","colour":"green","waste":"trash"}},"type":"Feature"},
	{"geometry":{"coordinates":[23.823579,38.010814],"type":"Point"},"properties":{"osm_id":"7286205605","tag":{"amenity":"waste_disposal"}},"type":"Feature"},
	{"geometry":{"coordinates":[23.82301,38.011337],"type":"Point"},"properties":{"osm_id":"7286231051","tag":{"amenity":"waste_disposal"}},"type":"Feature"},
	{"geometry":{"coordinates":[23.823016,38.011331],"type":"Point"},"properties":{"osm_id":"7286231052","tag":{"amenity":"waste_disposal"}},"type":"Feature"},
	{"geometry":{"coordinates":[23.826763,38.022018],"type":"Point"},"properties":{"osm_id":"7289645351","tag":{"amenity":"waste_disposal","colour":"green","type":"\u00cf\u0084\u00cf\u0081\u00ce\u00bf\u00cf\u0087\u00ce\u00ae\u00ce\u00bb\u00ce\u00b1\u00cf\u0084\u00ce\u00bf\u00cf\u0082","waste":"trash"}},"type":"Feature"},
	{"geometry":{"coordinates":[23.825354,38.021929],"type":"Point"},"properties":{"osm_id":"7289680551","tag":{"amenity":"waste_disposal","colour":"green","type":"\u00cf\u0084\u00cf\u0081\u00ce\u00bf\u00cf\u0087\u00ce\u00ae\u00ce\u00bb\u00ce\u00b1\u00cf\u0084\u00ce\u00bf\u00cf\u0082","waste":"trash"}},"type":"Feature"},
	{"geometry":{"coordinates":[23.825885,38.021915],"type":"Point"},"properties":{"osm_id":"7289685817","tag":{"amenity":"waste_disposal","colour":"green","type":"\u00cf\u0084\u00cf\u0081\u00ce\u00bf\u00cf\u0087\u00ce\u00ae\u00ce\u00bb\u00ce\u00b1\u00cf\u0084\u00ce\u00bf\u00cf\u0082","waste":"trash"}},"type":"Feature"},
	{"geometry":{"coordinates":[23.818911,38.008962],"type":"Point"},"properties":{"osm_id":"7301974536","tag":{"amenity":"recycling","recycling_type":"container"}},"type":"Feature"},
	{"geometry":{"coordinates":[23.81848,38.009377],"type":"Point"},"properties":{"osm_id":"7302026342","tag":{"amenity":"waste_disposal"}},"type":"Feature"},
	{"geometry":{"coordinates":[23.818741,38.00922],"type":"Point"},"properties":{"osm_id":"7302029523","tag":{"amenity":"recycling","recycling_type":"container"}},"type":"Feature"},
	{"geometry":{"coordinates":[23.818726,38.009234],"type":"Point"},"properties":{"osm_id":"7302029524","tag":{"amenity":"waste_disposal"}},"type":"Feature"},
	{"geometry":{"coordinates":[23.864365,38.020682],"type":"Point"},"properties":{"osm_id":"7491617181","tag":{"amenity":"waste_disposal"}},"type":"Feature"},
	{"geometry":{"coordinates":[23.821978,38.012906],"type":"Point"},"properties":{"osm_id":"7519915212","tag":{"amenity":"recycling","colour":"red","material":"metal","recycling:clothes":"yes","recycling:shoes":"yes","recycling_type":"container"}},"type":"Feature"},
	{"geometry":{"coordinates":[23.821932,38.012906],"type":"Point"},"properties":{"osm_id":"7519915511","tag":{"amenity":"recycling","colour":"blue","material":"plastic","recycling:glass_bottles":"yes","recycling_type":"container"}},"type":"Feature"},
	{"geometry":{"coordinates":[23.819524,38.012988],"type":"Point"},"properties":{"osm_id":"7912136558","tag":{"amenity":"recycling","colour":"red","material":"metal","recycling:clothes":"yes","recycling:shoes":"yes","recycling_type":"container"}},"type":"Feature"},
	{"geometry":{"coordinates":[23.819484,38.012992],"type":"Point"},"properties":{"osm_id":"7912141348","tag":{"addr:city":"\u00ce\u0091\u00ce\u00b3\u00ce\u00af\u00ce\u00b1 \u00ce\u00a0\u00ce\u00b1\u00cf\u0081\u00ce\u00b1\u00cf\u0083\u00ce\u00ba\u00ce\u00b5\u00cf\u0085\u00ce\u00ae","amenity":"recycling","recycling_type":"centre"}},"type":"Feature"},
	{"geometry":{"coordinates":[23.819417,38.012996],"type":"Point"},"properties":{"osm_id":"7912145605","tag":{"amenity":"recycling","colour":"blue","material":"plastic","recycling:glass_bottles":"yes","recycling_type":"container"}},"type":"Feature"},
	{"geometry":{"coordinates":[23.821956,38.012722],"type":"Point"},"properties":{"osm_id":"7940096280","tag":{"amenity":"recycling","recycling_type":"container"}},"type":"Feature"}
]
}
