{
"type": "FeatureCollection",
"features": [
	{"geometry":{"coordinates":[17.856234,59.369566],"type":"Point"},"properties":{"osm_id":"207048930","tag":{"amenity":"recycling"}},"type":"Feature"},
	{"geometry":{"coordinates":[17.847948,59.384104],"type":"Point"},"properties":{"osm_id":"266742084","tag":{"amenity":"recycling"}},"type":"Feature"},
	{"geometry":{"coordinates":[17.900831,59.397409],"type":"Point"},"properties":{"osm_id":"270723000","tag":{"amenity":"recycling","recycling_type":"container"}},"type":"Feature"},
	{"geometry":{"coordinates":[17.899569,59.398626],"type":"Point"},"properties":{"osm_id":"270723072","tag":{"amenity":"recycling","recycling_type":"container"}},"type":"Feature"},
	{"geometry":{"coordinates":[17.902111,59.397011],"type":"Point"},"properties":{"osm_id":"273441621","tag":{"amenity":"recycling","recycling_type":"container"}},"type":"Feature"},
	{"geometry":{"coordinates":[17.90541,59.361545],"type":"Point"},"properties":{"osm_id":"275646614","tag":{"amenity":"recycling"}},"type":"Feature"},
	{"geometry":{"coordinates":[17.85259,59.39738],"type":"Point"},"properties":{"osm_id":"308634041","tag":{"amenity":"recycling"}},"type":"Feature"},
	{"geometry":{"coordinates":[17.865573,59.38341],"type":"Point"},"properties":{"osm_id":"324296850","tag":{"amenity":"recycling","location":"overground","recycling:cans":"yes","recycling:glass_bottles":"yes","recycling:paper":"yes","recycling:plastic":"no","recycling:plastic_packaging":"yes","recycling_type":"container"}},"type":"Feature"},
	{"geometry":{"coordinates":[17.926053,59.367835],"type":"Point"},"properties":{"osm_id":"409541145","tag":{"amenity":"recycling","recycling:cans":"yes","recycling:glass_bottles":"yes","recycling:paper":"yes"}},"type":"Feature"},
	{"geometry":{"coordinates":[17.916812,59.365616],"type":"Point"},"properties":{"osm_id":"409546222","tag":{"amenity":"recycling"}},"type":"Feature"},
	{"geometry":{"coordinates":[17.906311,59.377891],"type":"Point"},"properties":{"osm_id":"409623087","tag":{"amenity":"recycling"}},"type":"Feature"},
	{"geometry":{"coordinates":[17.892098,59.397589],"type":"Point"},"properties":{"osm_id":"762270951","tag":{"amenity":"recycling","recycling:cans":"yes","recycling:glass_bottles":"yes","recycling:paper":"yes","recycling:plastic":"no","recycling:plastic_packaging":"yes","recycling_type":"container"}},"type":"Feature"},
	{"geometry":{"coordinates":[17.899116,59.397654],"type":"Point"},"properties":{"osm_id":"1411955380","tag":{"amenity":"recycling","recycling_type":"container"}},"type":"Feature"},
	{"geometry":{"coordinates":[17.858713,59.383302],"type":"Point"},"properties":{"osm_id":"1459263114","tag":{"amenity":"recycling"}},"type":"Feature"},
	{"geometry":{"coordinates":[17.904111,59.363692],"type":"Point"},"properties":{"osm_id":"1832055357","tag":{"amenity":"recycling","recycling:batteries":"yes","recycling:cartons":"yes","recycling:clothes":"yes","recycling:glass_bottles":"yes","recycling:newspaper":"yes","recycling:plastic":"yes","recycling:scrap_metal":"yes"}},"type":"Feature"},
	{"geometry":{"coordinates":[17.919597,59.376272],"type":"Point"},"properties":{"osm_id":"1930936390","tag":{"amenity":"recycling","recycling:glass":"no","recycling:paper":"no","recycling_type":"container"}},"type":"Feature"},
	{"geometry":{"coordinates":[17.891542,59.371723],"type":"Point"},"properties":{"osm_id":"2657056662","tag":{"amenity":"waste_basket"}},"type":"Feature"},
	{"geometry":{"coordinates":[17.883264,59.372148],"type":"Point"},"properties":{"osm_id":"2657056664","tag":{"amenity":"waste_basket"}},"type":"Feature"},
	{"geometry":{"coordinates":[17.884225,59.374124],"type":"Point"},"properties":{"osm_id":"2657056819","tag":{"amenity":"waste_basket"}},"type":"Feature"},
	{"geometry":{"coordinates":[17.88625,59.374347],"type":"Point"},"properties":{"osm_id":"2657056825","tag":{"amenity":"waste_basket"}},"type":"Feature"},
	{"geometry":{"coordinates":[17.889936,59.371849],"type":"Point"},"properties":{"osm_id":"2669491998","tag":{"amenity":"waste_basket"}},"type":"Feature"},
	{"geometry":{"coordinates":[17.890284,59.371886],"type":"Point"},"properties":{"osm_id":"2669492000","tag":{"amenity":"waste_basket"}},"type":"Feature"},
	{"geometry":{"coordinates":[17.887334,59.374118],"type":"Point"},"properties":{"osm_id":"2669492064","tag":{"amenity":"waste_basket"}},"type":"Feature"},
	{"geometry":{"coordinates":[17.882387,59.374426],"type":"Point"},"properties":{"osm_id":"2669492099","tag":{"amenity":"waste_basket"}},"type":"Feature"},
	{"geometry":{"coordinates":[17.880244,59.367168],"type":"Point"},"properties":{"osm_id":"2670607766","tag":{"amenity":"waste_basket"}},"type":"Feature"},
	{"geometry":{"coordinates":[17.883787,59.36794],"type":"Point"},"properties":{"osm_id":"2670607933","tag":{"amenity":"waste_basket"}},"type":"Feature"},
	{"geometry":{"coordinates":[17.872408,59.368907],"type":"Point"},"properties":{"osm_id":"2670608041","tag":{"amenity":"waste_basket"}},"type":"Feature"},
	{"geometry":{"coordinates":[17.874503,59.369625],"type":"Point"},"properties":{"osm_id":"2670608105","tag":{"amenity":"waste_basket"}},"type":"Feature"},
	{"geometry":{"coordinates":[17.878532,59.369628],"type":"Point"},"properties":{"osm_id":"2670608108","tag":{"amenity":"waste_basket"}},"type":"Feature"},
	{"geometry":{"coordinates":[17.884927,59.367689],"type":"Point"},"properties":{"osm_id":"2672379286","tag":{"amenity":"waste_basket"}},"type":"Feature"},
	{"geometry":{"coordinates":[17.885855,59.367966],"type":"Point"},"properties":{"osm_id":"2672379347","tag":{"amenity":"waste_basket"}},"type":"Feature"},
	{"geometry":{"coordinates":[17.882216,59.368286],"type":"Point"},"properties":{"osm_id":"2672379375","tag":{"amenity":"waste_basket"}},"type":"Feature"},
	{"geometry":{"coordinates":[17.886274,59.368567],"type":"Point"},"properties":{"osm_id":"2672379393","tag":{"amenity":"waste_basket"}},"type":"Feature"},
	{"geometry":{"coordinates":[17.88105,59.368614],"type":"Point"},"properties":{"osm_id":"2672379394","tag":{"amenity":"waste_basket"}},"type":"Feature"},
	{"geometry":{"coordinates":[17.886518,59.368903],"type":"Point"},"properties":{"osm_id":"2672379396","tag":{"amenity":"waste_basket"}},"type":"Feature"},
	{"geometry":{"coordinates":[17.881571,59.369239],"type":"Point"},"properties":{"osm_id":"2672379406","tag":{"amenity":"waste_basket"}},"type":"Feature"},
	{"geometry":{"coordinates":[17.882161,59.369262],"type":"Point"},"properties":{"osm_id":"2672379407","tag":{"amenity":"waste_basket"}},"type":"Feature"},
	{"geometry":{"coordinates":[17.882788,59.369375],"type":"Point"},"properties":{"osm_id":"2672379408","tag":{"amenity":"waste_basket"}},"type":"Feature"},
	{"geometry":{"coordinates":[17.887076,59.369623],"type":"Point"},"properties":{"osm_id":"2672379409","tag":{"amenity":"waste_basket"}},"type":"Feature"},
	{"geometry":{"coordinates":[17.883042,59.370193],"type":"Point"},"properties":{"osm_id":"2672379415","tag":{"amenity":"waste_basket"}},"type":"Feature"},
	{"geometry":{"coordinates":[17.886019,59.370598],"type":"Point"},"properties":{"osm_id":"2672379419","tag":{"amenity":"waste_basket"}},"type":"Feature"},
	{"geometry":{"coordinates":[17.88576,59.371223],"type":"Point"},"properties":{"osm_id":"2672379422","tag":{"amenity":"waste_basket"}},"type":"Feature"},
	{"geometry":{"coordinates":[17.880869,59.374928],"type":"Point"},"properties":{"osm_id":"2673005823","tag":{"amenity":"waste_basket"}},"type":"Feature"},
	{"geometry":{"coordinates":[17.85904,59.369644],"type":"Point"},"properties":{"osm_id":"2673689030","tag":{"amenity":"recycling","recycling:batteries":"yes","recycling:low_energy_bulbs":"yes","recycling:mobile_phones":"yes","recycling_type":"container"}},"type":"Feature"},
	{"geometry":{"coordinates":[17.860774,59.369956],"type":"Point"},"properties":{"osm_id":"2673689047","tag":{"amenity":"waste_basket"}},"type":"Feature"},
	{"geometry":{"coordinates":[17.859451,59.37006],"type":"Point"},"properties":{"osm_id":"2673689052","tag":{"amenity":"waste_basket"}},"type":"Feature"},
	{"geometry":{"coordinates":[17.867452,59.370408],"type":"Point"},"properties":{"osm_id":"2673689055","tag":{"amenity":"waste_basket"}},"type":"Feature"},
	{"geometry":{"coordinates":[17.869238,59.370834],"type":"Point"},"properties":{"osm_id":"2673689061","tag":{"amenity":"waste_basket"}},"type":"Feature"},
	{"geometry":{"coordinates":[17.87125,59.371314],"type":"Point"},"properties":{"osm_id":"2673689140","tag":{"amenity":"waste_basket"}},"type":"Feature"},
	{"geometry":{"coordinates":[17.865948,59.371804],"type":"Point"},"properties":{"osm_id":"2673689183","tag":{"amenity":"waste_basket"}},"type":"Feature"},
	{"geometry":{"coordinates":[17.87337,59.372018],"type":"Point"},"properties":{"osm_id":"2673689206","tag":{"amenity":"waste_basket"}},"type":"Feature"},
	{"geometry":{"coordinates":[17.883028,59.372556],"type":"Point"},"properties":{"osm_id":"2673689268","tag":{"amenity":"waste_basket"}},"type":"Feature"},
	{"geometry":{"coordinates":[17.882259,59.372629],"type":"Point"},"properties":{"osm_id":"2673689276","tag":{"amenity":"waste_basket"}},"type":"Feature"},
	{"geometry":{"coordinates":[17.886745,59.366048],"type":"Point"},"properties":{"osm_id":"2674260193","tag":{"amenity":"waste_basket"}},"type":"Feature"},
	{"geometry":{"coordinates":[17.883748,59.366241],"type":"Point"},"properties":{"osm_id":"2674260195","tag":{"amenity":"waste_basket"}},"type":"Feature"},
	{"geometry":{"coordinates":[17.889674,59.366393],"type":"Point"},"properties":{"osm_id":"2674260202","tag":{"amenity":"waste_basket"}},"type":"Feature"},
	{"geometry":{"coordinates":[17.883142,59.367118],"type":"Point"},"properties":{"osm_id":"2674260314","tag":{"amenity":"waste_basket"}},"type":"Feature"},
	{"geometry":{"coordinates":[17.889827,59.367564],"type":"Point"},"properties":{"osm_id":"2674260316","tag":{"amenity":"waste_basket"}},"type":"Feature"},
	{"geometry":{"coordinates":[17.879806,59.369004],"type":"Point"},"properties":{"osm_id":"2674260376","tag":{"amenity":"waste_basket"}},"type":"Feature"},
	{"geometry":{"coordinates":[17.879668,59.369124],"type":"Point"},"properties":{"osm_id":"2674260380","tag":{"amenity":"waste_basket"}},"type":"Feature"},
	{"geometry":{"coordinates":[17.888437,59.370356],"type":"Point"},"properties":{"osm_id":"2674260382","tag":{"amenity":"waste_basket"}},"type":"Feature"},
	{"geometry":{"coordinates":[17.888147,59.37036],"type":"Point"},"properties":{"osm_id":"2674260384","tag":{"amenity":"waste_basket"}},"type":"Feature"},
	{"geometry":{"coordinates":[17.879027,59.370732],"type":"Point"},"properties":{"osm_id":"2674260386","tag":{"amenity":"waste_basket"}},"type":"Feature"},
	{"geometry":{"coordinates":[17.875926,59.3692],"type":"Point"},"properties":{"osm_id":"2675105005","tag":{"amenity":"waste_basket"}},"type":"Feature"},
	{"geometry":{"coordinates":[17.87189,59.370393],"type":"Point"},"properties":{"osm_id":"2675105423","tag":{"amenity":"waste_basket"}},"type":"Feature"},
	{"geometry":{"coordinates":[17.875677,59.370723],"type":"Point"},"properties":{"osm_id":"2675105552","tag":{"amenity":"waste_basket"}},"type":"Feature"},
	{"geometry":{"coordinates":[17.874053,59.37107],"type":"Point"},"properties":{"osm_id":"2675105563","tag":{"amenity":"waste_basket"}},"type":"Feature"},
	{"geometry":{"coordinates":[17.88628,59.371786],"type":"Point"},"properties":{"osm_id":"2676236370","tag":{"amenity":"waste_basket"}},"type":"Feature"},
	{"geometry":{"coordinates":[17.88577,59.372322],"type":"Point"},"properties":{"osm_id":"2676236372","tag":{"amenity":"waste_basket"}},"type":"Feature"},
	{"geometry":{"coordinates":[17.886414,59.372793],"type":"Point"},"properties":{"osm_id":"2676236386","tag":{"amenity":"waste_basket"}},"type":"Feature"},
	{"geometry":{"coordinates":[17.884625,59.37345],"type":"Point"},"properties":{"osm_id":"2677795101","tag":{"amenity":"waste_basket"}},"type":"Feature"},
	{"geometry":{"coordinates":[17.885922,59.373858],"type":"Point"},"properties":{"osm_id":"2677795105","tag":{"amenity":"waste_basket"}},"type":"Feature"},
	{"geometry":{"coordinates":[17.869266,59.369137],"type":"Point"},"properties":{"osm_id":"2681320377","tag":{"amenity":"waste_basket"}},"type":"Feature"},
	{"geometry":{"coordinates":[17.887027,59.361898],"type":"Point"},"properties":{"osm_id":"2690069445","tag":{"amenity":"waste_basket"}},"type":"Feature"},
	{"geometry":{"coordinates":[17.885285,59.364175],"type":"Point"},"properties":{"osm_id":"2690069539","tag":{"amenity":"waste_basket"}},"type":"Feature"},
	{"geometry":{"coordinates":[17.897286,59.365125],"type":"Point"},"properties":{"osm_id":"2690153004","tag":{"amenity":"waste_basket"}},"type":"Feature"},
	{"geometry":{"coordinates":[17.871793,59.37246],"type":"Point"},"properties":{"osm_id":"2691974986","tag":{"amenity":"waste_basket"}},"type":"Feature"},
	{"geometry":{"coordinates":[17.86972,59.374279],"type":"Point"},"properties":{"osm_id":"2691975003","tag":{"amenity":"waste_basket"}},"type":"Feature"},
	{"geometry":{"coordinates":[17.896203,59.362395],"type":"Point"},"properties":{"osm_id":"2697090236","tag":{"amenity":"waste_basket"}},"type":"Feature"},
	{"geometry":{"coordinates":[17.892964,59.366023],"type":"Point"},"properties":{"osm_id":"2697090245","tag":{"amenity":"waste_basket"}},"type":"Feature"},
	{"geometry":{"coordinates":[17.881583,59.364753],"type":"Point"},"properties":{"osm_id":"2703480134","tag":{"amenity":"waste_basket"}},"type":"Feature"},
	{"geometry":{"coordinates":[17.880746,59.364905],"type":"Point"},"properties":{"osm_id":"2703480161","tag":{"amenity":"waste_basket"}},"type":"Feature"},
	{"geometry":{"coordinates":[17.882417,59.36526],"type":"Point"},"properties":{"osm_id":"2703480202","tag":{"amenity":"waste_basket"}},"type":"Feature"},
	{"geometry":{"coordinates":[17.879947,59.365401],"type":"Point"},"properties":{"osm_id":"2703480216","tag":{"amenity":"waste_basket"}},"type":"Feature"},
	{"geometry":{"coordinates":[17.894459,59.371363],"type":"Point"},"properties":{"osm_id":"2703480311","tag":{"amenity":"waste_basket"}},"type":"Feature"},
	{"geometry":{"coordinates":[17.86796,59.372223],"type":"Point"},"properties":{"osm_id":"2703480387","tag":{"amenity":"waste_basket"}},"type":"Feature"},
	{"geometry":{"coordinates":[17.876088,59.377556],"type":"Point"},"properties":{"osm_id":"2704481378","tag":{"amenity":"waste_basket"}},"type":"Feature"},
	{"geometry":{"coordinates":[17.865329,59.374736],"type":"Point"},"properties":{"osm_id":"2707949130","tag":{"amenity":"waste_basket"}},"type":"Feature"},
	{"geometry":{"coordinates":[17.866345,59.37614],"type":"Point"},"properties":{"osm_id":"2707949264","tag":{"amenity":"waste_basket"}},"type":"Feature"},
	{"geometry":{"coordinates":[17.866617,59.376854],"type":"Point"},"properties":{"osm_id":"2707949352","tag":{"amenity":"waste_basket"}},"type":"Feature"},
	{"geometry":{"coordinates":[17.87333,59.377346],"type":"Point"},"properties":{"osm_id":"2707949414","tag":{"amenity":"waste_basket"}},"type":"Feature"},
	{"geometry":{"coordinates":[17.871946,59.377457],"type":"Point"},"properties":{"osm_id":"2709252853","tag":{"amenity":"waste_basket"}},"type":"Feature"},
	{"geometry":{"coordinates":[17.871078,59.377495],"type":"Point"},"properties":{"osm_id":"2709252879","tag":{"amenity":"waste_basket"}},"type":"Feature"},
	{"geometry":{"coordinates":[17.89173,59.360765],"type":"Point"},"properties":{"osm_id":"2710172641","tag":{"amenity":"waste_basket"}},"type":"Feature"},
	{"geometry":{"coordinates":[17.894593,59.361702],"type":"Point"},"properties":{"osm_id":"2710172691","tag":{"amenity":"waste_basket"}},"type":"Feature"},
	{"geometry":{"coordinates":[17.897234,59.362811],"type":"Point"},"properties":{"osm_id":"2710172764","tag":{"amenity":"waste_basket"}},"type":"Feature"},
	{"geometry":{"coordinates":[17.89777,59.36305],"type":"Point"},"properties":{"osm_id":"2710172770","tag":{"amenity":"waste_basket"}},"type":"Feature"},
	{"geometry":{"coordinates":[17.898696,59.363725],"type":"Point"},"properties":{"osm_id":"2710172808","tag":{"amenity":"waste_basket"}},"type":"Feature"},
	{"geometry":{"coordinates":[17.888849,59.356531],"type":"Point"},"properties":{"osm_id":"2713381693","tag":{"amenity":"waste_basket"}},"type":"Feature"},
	{"geometry":{"coordinates":[17.887292,59.356761],"type":"Point"},"properties":{"osm_id":"2713381699","tag":{"amenity":"waste_basket"}},"type":"Feature"},
	{"geometry":{"coordinates":[17.887088,59.356884],"type":"Point"},"properties":{"osm_id":"2713381705","tag":{"amenity":"waste_basket"}},"type":"Feature"},
	{"geometry":{"coordinates":[17.88596,59.357458],"type":"Point"},"properties":{"osm_id":"2713381721","tag":{"amenity":"waste_basket"}},"type":"Feature"},
	{"geometry":{"coordinates":[17.892342,59.358815],"type":"Point"},"properties":{"osm_id":"2713381725","tag":{"amenity":"waste_basket"}},"type":"Feature"},
	{"geometry":{"coordinates":[17.88456,59.35893],"type":"Point"},"properties":{"osm_id":"2713381726","tag":{"amenity":"waste_basket"}},"type":"Feature"},
	{"geometry":{"coordinates":[17.881569,59.361726],"type":"Point"},"properties":{"osm_id":"2713381742","tag":{"amenity":"waste_basket"}},"type":"Feature"},
	{"geometry":{"coordinates":[17.880799,59.362048],"type":"Point"},"properties":{"osm_id":"2713381743","tag":{"amenity":"waste_basket"}},"type":"Feature"},
	{"geometry":{"coordinates":[17.890806,59.36311],"type":"Point"},"properties":{"osm_id":"2713381745","tag":{"amenity":"waste_basket"}},"type":"Feature"},
	{"geometry":{"coordinates":[17.879959,59.363655],"type":"Point"},"properties":{"osm_id":"2713381746","tag":{"amenity":"waste_basket"}},"type":"Feature"},
	{"geometry":{"coordinates":[17.889149,59.364078],"type":"Point"},"properties":{"osm_id":"2713381749","tag":{"amenity":"waste_basket"}},"type":"Feature"},
	{"geometry":{"coordinates":[17.88506,59.362995],"type":"Point"},"properties":{"osm_id":"2714884404","tag":{"amenity":"waste_basket"}},"type":"Feature"},
	{"geometry":{"coordinates":[17.88367,59.363837],"type":"Point"},"properties":{"osm_id":"2714884571","tag":{"amenity":"waste_basket"}},"type":"Feature"},
	{"geometry":{"coordinates":[17.883324,59.364311],"type":"Point"},"properties":{"osm_id":"2714884600","tag":{"amenity":"waste_basket"}},"type":"Feature"},
	{"geometry":{"coordinates":[17.87282,59.367172],"type":"Point"},"properties":{"osm_id":"2714884602","tag":{"amenity":"waste_basket"}},"type":"Feature"},
	{"geometry":{"coordinates":[17.869145,59.372137],"type":"Point"},"properties":{"osm_id":"2716340243","tag":{"amenity":"waste_basket"}},"type":"Feature"},
	{"geometry":{"coordinates":[17.87871,59.376448],"type":"Point"},"properties":{"osm_id":"2716340397","tag":{"amenity":"waste_basket"}},"type":"Feature"},
	{"geometry":{"coordinates":[17.901118,59.379595],"type":"Point"},"properties":{"osm_id":"2725938741","tag":{"amenity":"waste_basket"}},"type":"Feature"},
	{"geometry":{"coordinates":[17.890942,59.360838],"type":"Point"},"properties":{"osm_id":"2727906811","tag":{"amenity":"waste_basket"}},"type":"Feature"},
	{"geometry":{"coordinates":[17.87876,59.366246],"type":"Point"},"properties":{"osm_id":"2727906882","tag":{"amenity":"waste_basket"}},"type":"Feature"},
	{"geometry":{"coordinates":[17.879593,59.366829],"type":"Point"},"properties":{"osm_id":"2727906883","tag":{"amenity":"waste_basket"}},"type":"Feature"},
	{"geometry":{"coordinates":[17.878201,59.366832],"type":"Point"},"properties":{"osm_id":"2727906884","tag":{"amenity":"waste_basket"}},"type":"Feature"},
	{"geometry":{"coordinates":[17.8766,59.367249],"type":"Point"},"properties":{"osm_id":"2727906885","tag":{"amenity":"waste_basket"}},"type":"Feature"},
	{"geometry":{"coordinates":[17.877493,59.365016],"type":"Point"},"properties":{"osm_id":"2730331743","tag":{"amenity":"waste_basket"}},"type":"Feature"},
	{"geometry":{"coordinates":[17.870767,59.367313],"type":"Point"},"properties":{"osm_id":"2730331786","tag":{"amenity":"waste_basket"}},"type":"Feature"},
	{"geometry":{"coordinates":[17.869405,59.367696],"type":"Point"},"properties":{"osm_id":"2730331793","tag":{"amenity":"waste_basket"}},"type":"Feature"},
	{"geometry":{"coordinates":[17.889734,59.360188],"type":"Point"},"properties":{"osm_id":"2732926512","tag":{"amenity":"waste_basket"}},"type":"Feature"},
	{"geometry":{"coordinates":[17.877071,59.362852],"type":"Point"},"properties":{"osm_id":"2740916595","tag":{"amenity":"waste_basket"}},"type":"Feature"},
	{"geometry":{"coordinates":[17.876705,59.363393],"type":"Point"},"properties":{"osm_id":"2740916643","tag":{"amenity":"waste_basket"}},"type":"Feature"},
	{"geometry":{"coordinates":[17.874239,59.364843],"type":"Point"},"properties":{"osm_id":"2740916670","tag":{"amenity":"waste_basket"}},"type":"Feature"},
	{"geometry":{"coordinates":[17.889478,59.380279],"type":"Point"},"properties":{"osm_id":"2752722994","tag":{"amenity":"waste_basket"}},"type":"Feature"},
	{"geometry":{"coordinates":[17.892635,59.371835],"type":"Point"},"properties":{"osm_id":"2754518858","tag":{"amenity":"waste_basket"}},"type":"Feature"},
	{"geometry":{"coordinates":[17.89863,59.373254],"type":"Point"},"properties":{"osm_id":"2756796666","tag":{"amenity":"waste_basket"}},"type":"Feature"},
	{"geometry":{"coordinates":[17.881746,59.358867],"type":"Point"},"properties":{"osm_id":"2765140748","tag":{"amenity":"waste_basket"}},"type":"Feature"},
	{"geometry":{"coordinates":[17.879519,59.362584],"type":"Point"},"properties":{"osm_id":"2765141041","tag":{"amenity":"waste_basket"}},"type":"Feature"},
	{"geometry":{"coordinates":[17.89205,59.363479],"type":"Point"},"properties":{"osm_id":"2765141100","tag":{"amenity":"waste_basket"}},"type":"Feature"},
	{"geometry":{"coordinates":[17.876498,59.364045],"type":"Point"},"properties":{"osm_id":"2768561724","tag":{"amenity":"waste_basket"}},"type":"Feature"},
	{"geometry":{"coordinates":[17.873582,59.364898],"type":"Point"},"properties":{"osm_id":"2770895611","tag":{"amenity":"waste_basket"}},"type":"Feature"},
	{"geometry":{"coordinates":[17.868788,59.366561],"type":"Point"},"properties":{"osm_id":"2770895627","tag":{"amenity":"waste_basket"}},"type":"Feature"},
	{"geometry":{"coordinates":[17.868921,59.366965],"type":"Point"},"properties":{"osm_id":"2770895638","tag":{"amenity":"waste_basket"}},"type":"Feature"},
	{"geometry":{"coordinates":[17.868763,59.365484],"type":"Point"},"properties":{"osm_id":"2776299780","tag":{"amenity":"waste_basket"}},"type":"Feature"},
	{"geometry":{"coordinates":[17.865524,59.365506],"type":"Point"},"properties":{"osm_id":"2776299785","tag":{"amenity":"waste_basket"}},"type":"Feature"},
	{"geometry":{"coordinates":[17.86287,59.366285],"type":"Point"},"properties":{"osm_id":"2776299834","tag":{"amenity":"waste_basket"}},"type":"Feature"},
	{"geometry":{"coordinates":[17.866483,59.362716],"type":"Point"},"properties":{"osm_id":"2782424566","tag":{"amenity":"waste_basket"}},"type":"Feature"},
	{"geometry":{"coordinates":[17.867462,59.362727],"type":"Point"},"properties":{"osm_id":"2782424567","tag":{"amenity":"waste_basket"}},"type":"Feature"},
	{"geometry":{"coordinates":[17.868046,59.364685],"type":"Point"},"properties":{"osm_id":"2782424596","tag":{"amenity":"waste_basket"}},"type":"Feature"},
	{"geometry":{"coordinates":[17.863321,59.365137],"type":"Point"},"properties":{"osm_id":"2782424608","tag":{"amenity":"waste_basket"}},"type":"Feature"},
	{"geometry":{"coordinates":[17.900111,59.374056],"type":"Point"},"properties":{"osm_id":"2894052323","tag":{"amenity":"waste_basket"}},"type":"Feature"},
	{"geometry":{"coordinates":[17.867466,59.382466],"type":"Point"},"properties":{"osm_id":"2915884849","tag":{"amenity":"waste_basket"}},"type":"Feature"},
	{"geometry":{"coordinates":[17.871182,59.38314],"type":"Point"},"properties":{"osm_id":"2915885019","tag":{"amenity":"waste_basket"}},"type":"Feature"},
	{"geometry":{"coordinates":[17.870501,59.377861],"type":"Point"},"properties":{"osm_id":"2917368354","tag":{"amenity":"waste_basket"}},"type":"Feature"},
	{"geometry":{"coordinates":[17.884101,59.35642],"type":"Point"},"properties":{"osm_id":"2924720725","tag":{"amenity":"waste_basket"}},"type":"Feature"},
	{"geometry":{"coordinates":[17.884284,59.356642],"type":"Point"},"properties":{"osm_id":"2924720726","tag":{"amenity":"waste_basket"}},"type":"Feature"},
	{"geometry":{"coordinates":[17.884688,59.356853],"type":"Point"},"properties":{"osm_id":"2924720727","tag":{"amenity":"waste_basket"}},"type":"Feature"},
	{"geometry":{"coordinates":[17.885294,59.35715],"type":"Point"},"properties":{"osm_id":"2924720728","tag":{"amenity":"waste_basket"}},"type":"Feature"},
	{"geometry":{"coordinates":[17.914879,59.361246],"type":"Point"},"properties":{"osm_id":"2924720730","tag":{"amenity":"waste_basket"}},"type":"Feature"},
	{"geometry":{"coordinates":[17.911269,59.361493],"type":"Point"},"properties":{"osm_id":"2924720731","tag":{"amenity":"waste_basket"}},"type":"Feature"},
	{"geometry":{"coordinates":[17.909836,59.361785],"type":"Point"},"properties":{"osm_id":"2924720733","tag":{"amenity":"waste_basket"}},"type":"Feature"},
	{"geometry":{"coordinates":[17.914974,59.361909],"type":"Point"},"properties":{"osm_id":"2924720734","tag":{"amenity":"waste_basket"}},"type":"Feature"},
	{"geometry":{"coordinates":[17.908309,59.362606],"type":"Point"},"properties":{"osm_id":"2924720804","tag":{"amenity":"waste_basket"}},"type":"Feature"},
	{"geometry":{"coordinates":[17.90589,59.362947],"type":"Point"},"properties":{"osm_id":"2924720822","tag":{"amenity":"waste_basket"}},"type":"Feature"},
	{"geometry":{"coordinates":[17.887285,59.386785],"type":"Point"},"properties":{"osm_id":"3363700195","tag":{"amenity":"waste_basket"}},"type":"Feature"},
	{"geometry":{"coordinates":[17.887221,59.387156],"type":"Point"},"properties":{"osm_id":"3363700196","tag":{"amenity":"waste_basket"}},"type":"Feature"},
	{"geometry":{"coordinates":[17.887334,59.387325],"type":"Point"},"properties":{"osm_id":"3363700198","tag":{"amenity":"waste_basket"}},"type":"Feature"},
	{"geometry":{"coordinates":[17.898735,59.36957],"type":"Point"},"properties":{"osm_id":"3389733035","tag":{"amenity":"waste_basket"}},"type":"Feature"},
	{"geometry":{"coordinates":[17.895874,59.382283],"type":"Point"},"properties":{"osm_id":"3394125263","tag":{"amenity":"recycling","location":"overground","recycling:cans":"yes","recycling:glass_bottles":"yes","recycling:paper":"yes","recycling:plastic":"no","recycling:plastic_packaging":"yes","recycling_type":"container"}},"type":"Feature"},
	{"geometry":{"coordinates":[17.895575,59.382549],"type":"Point"},"properties":{"osm_id":"3400822912","tag":{"amenity":"waste_basket"}},"type":"Feature"},
	{"geometry":{"coordinates":[17.894466,59.383319],"type":"Point"},"properties":{"osm_id":"3400822920","tag":{"amenity":"waste_basket"}},"type":"Feature"},
	{"geometry":{"coordinates":[17.893831,59.383608],"type":"Point"},"properties":{"osm_id":"3400822929","tag":{"amenity":"waste_basket"}},"type":"Feature"},
	{"geometry":{"coordinates":[17.900833,59.36883],"type":"Point"},"properties":{"osm_id":"3400932632","tag":{"amenity":"waste_basket"}},"type":"Feature"},
	{"geometry":{"coordinates":[17.914712,59.368422],"type":"Point"},"properties":{"osm_id":"3402558413","tag":{"amenity":"waste_basket"}},"type":"Feature"},
	{"geometry":{"coordinates":[17.886731,59.380673],"type":"Point"},"properties":{"osm_id":"3404390854","tag":{"amenity":"waste_basket"}},"type":"Feature"},
	{"geometry":{"coordinates":[17.889492,59.380432],"type":"Point"},"properties":{"osm_id":"3407505973","tag":{"amenity":"waste_basket"}},"type":"Feature"},
	{"geometry":{"coordinates":[17.89331,59.381301],"type":"Point"},"properties":{"osm_id":"3407507007","tag":{"amenity":"waste_basket"}},"type":"Feature"},
	{"geometry":{"coordinates":[17.893899,59.381326],"type":"Point"},"properties":{"osm_id":"3407507012","tag":{"amenity":"waste_basket"}},"type":"Feature"},
	{"geometry":{"coordinates":[17.908899,59.364064],"type":"Point"},"properties":{"osm_id":"3435255385","tag":{"amenity":"waste_basket"}},"type":"Feature"},
	{"geometry":{"coordinates":[17.906532,59.364998],"type":"Point"},"properties":{"osm_id":"3435277748","tag":{"amenity":"waste_basket"}},"type":"Feature"},
	{"geometry":{"coordinates":[17.910177,59.365625],"type":"Point"},"properties":{"osm_id":"3435278102","tag":{"amenity":"waste_basket"}},"type":"Feature"},
	{"geometry":{"coordinates":[17.911935,59.367379],"type":"Point"},"properties":{"osm_id":"3435278840","tag":{"amenity":"waste_basket"}},"type":"Feature"},
	{"geometry":{"coordinates":[17.901902,59.367818],"type":"Point"},"properties":{"osm_id":"3435278892","tag":{"amenity":"waste_basket"}},"type":"Feature"},
	{"geometry":{"coordinates":[17.919943,59.360802],"type":"Point"},"properties":{"osm_id":"3441856964","tag":{"amenity":"waste_basket"}},"type":"Feature"},
	{"geometry":{"coordinates":[17.917625,59.363473],"type":"Point"},"properties":{"osm_id":"3441858402","tag":{"amenity":"waste_basket"}},"type":"Feature"},
	{"geometry":{"coordinates":[17.907769,59.36357],"type":"Point"},"properties":{"osm_id":"3441858410","tag":{"amenity":"waste_basket"}},"type":"Feature"},
	{"geometry":{"coordinates":[17.923186,59.36827],"type":"Point"},"properties":{"osm_id":"3447300992","tag":{"amenity":"waste_basket"}},"type":"Feature"},
	{"geometry":{"coordinates":[17.911389,59.359519],"type":"Point"},"properties":{"osm_id":"3471804801","tag":{"amenity":"waste_basket"}},"type":"Feature"},
	{"geometry":{"coordinates":[17.911217,59.357041],"type":"Point"},"properties":{"osm_id":"3473768722","tag":{"amenity":"waste_basket"}},"type":"Feature"},
	{"geometry":{"coordinates":[17.879201,59.381549],"type":"Point"},"properties":{"osm_id":"3485333408","tag":{"amenity":"waste_basket"}},"type":"Feature"},
	{"geometry":{"coordinates":[17.929614,59.366361],"type":"Point"},"properties":{"osm_id":"3499741040","tag":{"amenity":"waste_basket"}},"type":"Feature"},
	{"geometry":{"coordinates":[17.913784,59.375096],"type":"Point"},"properties":{"osm_id":"3499741445","tag":{"amenity":"waste_basket"}},"type":"Feature"},
	{"geometry":{"coordinates":[17.898193,59.382675],"type":"Point"},"properties":{"osm_id":"4421696839","tag":{"amenity":"waste_basket"}},"type":"Feature"},
	{"geometry":{"coordinates":[17.848342,59.37882],"type":"Point"},"properties":{"osm_id":"5284489605","tag":{"amenity":"recycling","recycling_type":"container"}},"type":"Feature"},
	{"geometry":{"coordinates":[17.883647,59.355703],"type":"Point"},"properties":{"osm_id":"5594551870","tag":{"amenity":"waste_basket"}},"type":"Feature"},
	{"geometry":{"coordinates":[17.842049,59.36404],"type":"Point"},"properties":{"osm_id":"5635110987","tag":{"amenity":"recycling","location":"overground","recycling_type":"container"}},"type":"Feature"},
	{"geometry":{"coordinates":[17.922502,59.371582],"type":"Point"},"properties":{"osm_id":"7727260924","tag":{"amenity":"waste_basket"}},"type":"Feature"}
]
}
