{
"type": "FeatureCollection",
"features": [
	{"geometry":{"coordinates":[17.867658,50.682986],"type":"Point"},"properties":{"osm_id":"3485966276","tag":{"amenity":"waste_disposal"}},"type":"Feature"},
	{"geometry":{"coordinates":[17.885336,50.687734],"type":"Point"},"properties":{"name":"Miejski Punkt Elektroodpad\u00c3\u00b3w","osm_id":"8658489944","tag":{"addr:city":"Opole","addr:street":"Partyzancka/Kukuczki","amenity":"recycling","description":"Gablota na drobne elektroodpady t.j. baterie, \u00c5\u00bcar\u00c3\u00b3wki, p\u00c5\u0082yty CD, drobna elektronika komputerowa, telefony, opakowania po tonerach","image":"https://www.smieciopolis.opole.pl/wp-content/uploads/2021/04/IMG_20210421_144521-scaled.jpg","opening_hours":"24/7","opening_hours:covid19":"open","operator":"Urz\u00c4\u0085d Miasta Opola","recycling:batteries":"yes","recycling:cds":"yes","recycling:computers":"yes","recycling:electrical_items":"yes","recycling:light_bulbs":"yes","recycling:mobile_phones":"yes","recycling_type":"container","start_date":"2021-04-21"}},"type":"Feature"},
	{"geometry":{"coordinates":[17.859239,50.703289],"type":"Point"},"properties":{"name":"Miejski Punkt Elektroodpad\u00c3\u00b3w","osm_id":"8696459775","tag":{"addr:street":"Szcz\u00c4\u0099\u00c5\u009bliwa - p\u00c4\u0099tla","amenity":"recycling","description":"Gablota do zbierania drobnych elektroodpad\u00c3\u00b3w","image":"https://www.smieciopolis.opole.pl/wp-content/uploads/2021/04/Slawice-scaled.jpg","opening_hours":"24/7","opening_hours:covid19":"open","operator":"Urz\u00c4\u0085d Miasta Opola","recycling:batteries":"yes","recycling:cds":"yes","recycling:computers":"yes","recycling:electrical_items":"yes","recycling:light_bulbs":"yes","recycling:mobile_phones":"yes","recycling:printer_toner_cartridges":"yes","recycling:small_electrical_appliances":"yes","recycling_type":"container"}},"type":"Feature"},
	{"geometry":{"coordinates":[17.854381,50.682028],"type":"Point"},"properties":{"name":"Miejski Punkt Elektroodpad\u00c3\u00b3w","osm_id":"8696572739","tag":{"addr:city":"Opole","addr:street":"Bierkowicka - p\u00c4\u0099tla","amenity":"recycling","description":"Gablota do zbierania drobnych elektroodpad\u00c3\u00b3w","image":"https://www.smieciopolis.opole.pl/wp-content/uploads/2021/04/IMG_20190319_Bierkow1-scaled.jpg","opening_hours":"24/7","opening_hours:covid19":"open","operator":"Urz\u00c4\u0085d Miasta Opola","recycling:batteries":"yes","recycling:cds":"yes","recycling:computers":"yes","recycling:electrical_items":"yes","recycling:light_bulbs":"yes","recycling:mobile_phones":"yes","recycling:printer_toner_cartridges":"yes","recycling:small_electrical_appliances":"yes","recycling_type":"container"}},"type":"Feature"},
	{"geometry":{"coordinates":[17.900042,50.726111],"type":"Point"},"properties":{"name":"Miejski Punkt Elektroodpad\u00c3\u00b3w","osm_id":"8696841101","tag":{"addr:city":"Opole","addr:street":"K\u00c5\u0082opockiej","amenity":"recycling","description":"Pojemnik na drobne elektroodpady w formie gabloty.","image":"https://www.smieciopolis.opole.pl/wp-content/uploads/2021/04/IMG_20180829_143845-scaled.jpg","opening_hours":"24/7","opening_hours:covid19":"open","operator":"Urz\u00c4\u0085d Miasta Opola","recycling:batteries":"yes","recycling:cds":"yes","recycling:computers":"yes","recycling:electrical_items":"yes","recycling:light_bulbs":"yes","recycling:mobile_phones":"yes","recycling:printer_toner_cartridges":"yes","recycling:small_electrical_appliances":"yes","recycling_type":"container"}},"type":"Feature"}
]
}
