{
"type": "FeatureCollection",
"features": [
	{"geometry":{"coordinates":[17.893801,50.629006],"type":"Point"},"properties":{"osm_id":"3140316959","tag":{"amenity":"waste_basket"}},"type":"Feature"},
	{"geometry":{"coordinates":[17.919808,50.666091],"type":"Point"},"properties":{"osm_id":"7110952295","tag":{"amenity":"waste_basket"}},"type":"Feature"},
	{"geometry":{"coordinates":[17.92819,50.667694],"type":"Point"},"properties":{"osm_id":"7856232491","tag":{"amenity":"waste_basket"}},"type":"Feature"},
	{"geometry":{"coordinates":[17.866607,50.646579],"type":"Point"},"properties":{"osm_id":"8431787879","tag":{"amenity":"waste_basket","material":"concrete"}},"type":"Feature"},
	{"geometry":{"coordinates":[17.865617,50.648534],"type":"Point"},"properties":{"name":"Miejski Punkt Elektroodpad\u00c3\u00b3w","osm_id":"8431787880","tag":{"addr:city":"Opole","addr:street":"Nyska/Dworcowa","amenity":"recycling","description":"Gablota do zbierania drobnych elektroodpad\u00c3\u00b3w","image":"https://www.smieciopolis.opole.pl/wp-content/uploads/2019/07/Chmielowice-cz.-4-e1562218969166.jpg","opening_hours":"24/7","opening_hours:covid19":"open","operator":"Urz\u00c4\u0085d Miasta Opola","recycling:batteries":"yes","recycling:cds":"yes","recycling:computers":"yes","recycling:electrical_items":"yes","recycling:electronics":"yes","recycling:light_bulbs":"yes","recycling:mobile_phones":"yes","recycling:printer_toner_cartridges":"yes","recycling_type":"container"}},"type":"Feature"},
	{"geometry":{"coordinates":[17.865736,50.648592],"type":"Point"},"properties":{"osm_id":"8432877899","tag":{"amenity":"waste_basket"}},"type":"Feature"},
	{"geometry":{"coordinates":[17.866603,50.649119],"type":"Point"},"properties":{"osm_id":"8439085868","tag":{"amenity":"waste_basket","material":"plastic"}},"type":"Feature"},
	{"geometry":{"coordinates":[17.865953,50.64805],"type":"Point"},"properties":{"osm_id":"8491285391","tag":{"amenity":"waste_basket"}},"type":"Feature"},
	{"geometry":{"coordinates":[17.86451,50.648459],"type":"Point"},"properties":{"osm_id":"8504841270","tag":{"amenity":"waste_basket"}},"type":"Feature"},
	{"geometry":{"coordinates":[17.864687,50.648336],"type":"Point"},"properties":{"osm_id":"8507887473","tag":{"amenity":"waste_basket"}},"type":"Feature"},
	{"geometry":{"coordinates":[17.867038,50.6448],"type":"Point"},"properties":{"osm_id":"8507887479","tag":{"amenity":"waste_basket"}},"type":"Feature"},
	{"geometry":{"coordinates":[17.86634,50.653618],"type":"Point"},"properties":{"osm_id":"8507887482","tag":{"amenity":"waste_basket"}},"type":"Feature"},
	{"geometry":{"coordinates":[17.912888,50.669955],"type":"Point"},"properties":{"osm_id":"8524457247","tag":{"amenity":"waste_basket"}},"type":"Feature"},
	{"geometry":{"coordinates":[17.911158,50.670294],"type":"Point"},"properties":{"osm_id":"8524457249","tag":{"amenity":"waste_basket"}},"type":"Feature"},
	{"geometry":{"coordinates":[17.85813,50.6486],"type":"Point"},"properties":{"osm_id":"8553610800","tag":{"amenity":"recycling","recycling_type":"container"}},"type":"Feature"},
	{"geometry":{"coordinates":[17.860935,50.637392],"type":"Point"},"properties":{"osm_id":"8561225700","tag":{"amenity":"recycling","recycling:electrical_items":"yes","recycling_type":"container"}},"type":"Feature"},
	{"geometry":{"coordinates":[17.923736,50.655961],"type":"Point"},"properties":{"osm_id":"8602613526","tag":{"amenity":"waste_basket"}},"type":"Feature"},
	{"geometry":{"coordinates":[17.860111,50.647198],"type":"Point"},"properties":{"osm_id":"8671614280","tag":{"amenity":"waste_basket"}},"type":"Feature"},
	{"geometry":{"coordinates":[17.888626,50.661754],"type":"Point"},"properties":{"name":"Miejski Punkt Elektroodpad\u00c3\u00b3w","osm_id":"8696731346","tag":{"addr:city":"Opole","addr:street":"Dambonia p\u00c4\u0099tla","amenity":"recycling","description":"Gablota do zbierania drobnych elektroodpad\u00c3\u00b3w","image":"https://www.smieciopolis.opole.pl/wp-content/uploads/2021/04/IMG_20171026_155518-scaled.jpg","opening_hours":"24/7","opening_hours:covid19":"open","operator":"Urz\u00c4\u0085d Miasta Opola","recycling:batteries":"yes","recycling:cds":"yes","recycling:computers":"yes","recycling:electrical_items":"yes","recycling:light_bulbs":"yes","recycling:mobile_phones":"yes","recycling:printer_toner_cartridges":"yes","recycling:small_electrical_appliances":"yes","recycling_type":"container"}},"type":"Feature"},
	{"geometry":{"coordinates":[17.903919,50.666246],"type":"Point"},"properties":{"name":"Miejski Punkt Elektroodpad\u00c3\u00b3w","osm_id":"8700610403","tag":{"addr:city":"Opole","addr:street":"Niemodli\u00c5\u0084ska 23","amenity":"recycling","description":"Gablota z funkcj\u00c4\u0085 pojemnika na drobne elektroodpady","image":"https://www.smieciopolis.opole.pl/wp-content/uploads/2021/04/MPE_Niemodlinska1.jpg","opening_hours":"24/7","opening_hours:covid19":"open","operator":"Urz\u00c4\u0085d Miasta Opola","recycling:batteries":"yes","recycling:cds":"yes","recycling:computers":"yes","recycling:electrical_items":"yes","recycling:light_bulbs":"yes","recycling:mobile_phones":"yes","recycling:printer_toner_cartridges":"yes","recycling:small_electrical_appliances":"yes","recycling_type":"container"}},"type":"Feature"},
	{"geometry":{"coordinates":[17.920707,50.667137],"type":"Point"},"properties":{"name":"Miejski Punkt Elektroodpad\u00c3\u00b3w","osm_id":"8700643517","tag":{"addr:city":"Opole","addr:street":"Piastowska","amenity":"recycling","description":"Gablota z funkcj\u00c4\u0085 pojemnika na drobne elektroodpady","image":"https://www.smieciopolis.opole.pl/wp-content/uploads/2021/04/IMG_20171026_151656-scaled.jpg","opening_hours":"24/7","opening_hours:covid19":"open","operator":"Urz\u00c4\u0085d Miasta Opola","recycling:batteries":"yes","recycling:cds":"yes","recycling:computers":"yes","recycling:electrical_items":"yes","recycling:light_bulbs":"yes","recycling:mobile_phones":"yes","recycling:printer_toner_cartridges":"yes","recycling:small_electrical_appliances":"yes","recycling_type":"container"}},"type":"Feature"},
	{"geometry":{"coordinates":[17.918608,50.672756],"type":"Point"},"properties":{"name":"Miejski Punkt Elektroodpad\u00c3\u00b3w","osm_id":"8700702943","tag":{"addr:city":"Opole","addr:street":"Ksi\u00c4\u0085\u00c5\u00bc\u00c4\u0085t Opolskich 27","amenity":"recycling","description":"Gablota z funkcj\u00c4\u0085 pojemnika na drobne elektroodpady","image":"https://www.smieciopolis.opole.pl/wp-content/uploads/2021/04/IMG_20171026_161332-scaled.jpg","opening_hours":"24/7","opening_hours:covid19":"open","operator":"Urz\u00c4\u0085d Miasta Opola","recycling:batteries":"yes","recycling:cds":"yes","recycling:computers":"yes","recycling:electrical_items":"yes","recycling:light_bulbs":"yes","recycling:mobile_phones":"yes","recycling:printer_toner_cartridges":"yes","recycling:small_electrical_appliances":"yes","recycling_type":"container"}},"type":"Feature"},
	{"geometry":{"coordinates":[17.913322,50.668439],"type":"Point"},"properties":{"name":"Miejski Punkt Elektroodpad\u00c3\u00b3w","osm_id":"8700914027","tag":{"addr:city":"Opole","addr:street":"Spychalskiego 4D","amenity":"recycling","description":"Gablota z funkcj\u00c4\u0085 pojemnika na drobne elektroodpady","image":"https://www.smieciopolis.opole.pl/wp-content/uploads/2021/04/Spychalskiego-1_20201208-scaled.jpg","opening_hours":"24/7","opening_hours:covid19":"open","operator":"Urz\u00c4\u0085d Miasta Opola","recycling:batteries":"yes","recycling:cds":"yes","recycling:computers":"yes","recycling:electrical_items":"yes","recycling:light_bulbs":"yes","recycling:mobile_phones":"yes","recycling:printer_toner_cartridges":"yes","recycling:small_electrical_appliances":"yes","recycling_type":"container"}},"type":"Feature"},
	{"geometry":{"coordinates":[17.915766,50.662498],"type":"Point"},"properties":{"osm_id":"8702592599","tag":{"amenity":"waste_basket","material":"concrete","waste":"mixed"}},"type":"Feature"},
	{"geometry":{"coordinates":[17.915825,50.662861],"type":"Point"},"properties":{"osm_id":"8702592600","tag":{"amenity":"waste_basket","material":"concrete","waste":"mixed"}},"type":"Feature"},
	{"geometry":{"coordinates":[17.916614,50.661208],"type":"Point"},"properties":{"osm_id":"8702592601","tag":{"amenity":"waste_basket","material":"concrete","waste":"mixed"}},"type":"Feature"},
	{"geometry":{"coordinates":[17.918415,50.659889],"type":"Point"},"properties":{"osm_id":"8702592602","tag":{"amenity":"waste_basket","material":"concrete","waste":"mixed"}},"type":"Feature"},
	{"geometry":{"coordinates":[17.915312,50.664349],"type":"Point"},"properties":{"osm_id":"8702609735","tag":{"amenity":"waste_basket","material":"concrete","waste":"mixed"}},"type":"Feature"},
	{"geometry":{"coordinates":[17.915273,50.663591],"type":"Point"},"properties":{"osm_id":"8702609736","tag":{"amenity":"waste_basket","material":"concrete","waste":"mixed"}},"type":"Feature"},
	{"geometry":{"coordinates":[17.915276,50.663736],"type":"Point"},"properties":{"osm_id":"8702609737","tag":{"amenity":"waste_basket","material":"concrete","waste":"mixed"}},"type":"Feature"},
	{"geometry":{"coordinates":[17.915504,50.663074],"type":"Point"},"properties":{"osm_id":"8702609746","tag":{"amenity":"waste_basket","material":"concrete","waste":"mixed"}},"type":"Feature"},
	{"geometry":{"coordinates":[17.915543,50.662733],"type":"Point"},"properties":{"osm_id":"8702609749","tag":{"amenity":"waste_basket","material":"concrete","waste":"mixed"}},"type":"Feature"},
	{"geometry":{"coordinates":[17.91562,50.6626],"type":"Point"},"properties":{"osm_id":"8702609750","tag":{"amenity":"waste_basket","material":"concrete","waste":"mixed"}},"type":"Feature"},
	{"geometry":{"coordinates":[17.915543,50.662833],"type":"Point"},"properties":{"osm_id":"8702609757","tag":{"amenity":"waste_basket","material":"concrete","waste":"mixed"}},"type":"Feature"},
	{"geometry":{"coordinates":[17.91547,50.662837],"type":"Point"},"properties":{"osm_id":"8702609758","tag":{"amenity":"waste_basket","material":"concrete","waste":"mixed"}},"type":"Feature"},
	{"geometry":{"coordinates":[17.915151,50.663263],"type":"Point"},"properties":{"osm_id":"8702609759","tag":{"amenity":"waste_basket","material":"concrete","waste":"mixed"}},"type":"Feature"},
	{"geometry":{"coordinates":[17.915195,50.66313],"type":"Point"},"properties":{"osm_id":"8702609760","tag":{"amenity":"waste_basket","material":"concrete","waste":"mixed"}},"type":"Feature"},
	{"geometry":{"coordinates":[17.91524,50.662984],"type":"Point"},"properties":{"osm_id":"8702609761","tag":{"amenity":"waste_basket","material":"concrete","waste":"mixed"}},"type":"Feature"},
	{"geometry":{"coordinates":[17.915286,50.662875],"type":"Point"},"properties":{"osm_id":"8702609762","tag":{"amenity":"waste_basket","material":"concrete","waste":"mixed"}},"type":"Feature"},
	{"geometry":{"coordinates":[17.915329,50.662724],"type":"Point"},"properties":{"osm_id":"8702609763","tag":{"amenity":"waste_basket","material":"concrete","waste":"mixed"}},"type":"Feature"},
	{"geometry":{"coordinates":[17.916818,50.66176],"type":"Point"},"properties":{"osm_id":"8702609768","tag":{"amenity":"waste_basket","waste":"dog_excrement"}},"type":"Feature"},
	{"geometry":{"coordinates":[17.91688,50.661718],"type":"Point"},"properties":{"osm_id":"8702609769","tag":{"amenity":"waste_basket","waste":"dog_excrement"}},"type":"Feature"},
	{"geometry":{"coordinates":[17.917606,50.661324],"type":"Point"},"properties":{"osm_id":"8702609770","tag":{"amenity":"waste_basket","material":"concrete","waste":"mixed"}},"type":"Feature"},
	{"geometry":{"coordinates":[17.921995,50.659033],"type":"Point"},"properties":{"osm_id":"8702609791","tag":{"amenity":"waste_basket","material":"concrete","waste":"mixed"}},"type":"Feature"},
	{"geometry":{"coordinates":[17.917894,50.660073],"type":"Point"},"properties":{"osm_id":"8702609792","tag":{"amenity":"waste_basket","material":"concrete","waste":"mixed"}},"type":"Feature"},
	{"geometry":{"coordinates":[17.917886,50.66009],"type":"Point"},"properties":{"osm_id":"8702609793","tag":{"amenity":"waste_basket","material":"concrete","waste":"mixed"}},"type":"Feature"},
	{"geometry":{"coordinates":[17.917971,50.660101],"type":"Point"},"properties":{"osm_id":"8702609794","tag":{"amenity":"waste_basket","material":"concrete","waste":"mixed"}},"type":"Feature"},
	{"geometry":{"coordinates":[17.917975,50.660089],"type":"Point"},"properties":{"osm_id":"8702609795","tag":{"amenity":"waste_basket","material":"concrete","waste":"mixed"}},"type":"Feature"},
	{"geometry":{"coordinates":[17.921733,50.659023],"type":"Point"},"properties":{"osm_id":"8702609799","tag":{"amenity":"waste_basket","material":"concrete","waste":"mixed"}},"type":"Feature"},
	{"geometry":{"coordinates":[17.916322,50.661461],"type":"Point"},"properties":{"osm_id":"8702609800","tag":{"amenity":"waste_basket","material":"concrete","waste":"mixed"}},"type":"Feature"},
	{"geometry":{"coordinates":[17.919989,50.659256],"type":"Point"},"properties":{"osm_id":"8702609807","tag":{"amenity":"waste_basket","material":"concrete","waste":"mixed"}},"type":"Feature"},
	{"geometry":{"coordinates":[17.920018,50.65922],"type":"Point"},"properties":{"osm_id":"8702609808","tag":{"amenity":"waste_basket","material":"concrete","waste":"mixed"}},"type":"Feature"},
	{"geometry":{"coordinates":[17.919876,50.659211],"type":"Point"},"properties":{"osm_id":"8702609809","tag":{"amenity":"waste_basket","material":"concrete","waste":"mixed"}},"type":"Feature"},
	{"geometry":{"coordinates":[17.916276,50.661736],"type":"Point"},"properties":{"osm_id":"8702609811","tag":{"amenity":"waste_basket","material":"concrete","waste":"mixed"}},"type":"Feature"},
	{"geometry":{"coordinates":[17.915493,50.662992],"type":"Point"},"properties":{"osm_id":"8702609812","tag":{"amenity":"waste_basket","colour":"yellow","material":"metal","waste":"mixed"}},"type":"Feature"},
	{"geometry":{"coordinates":[17.9241,50.664829],"type":"Point"},"properties":{"osm_id":"9106174439","tag":{"access":"yes","amenity":"waste_disposal","waste":"recycling;plastic;organic"}},"type":"Feature"}
]
}
