{
"type": "FeatureCollection",
"features": [
	{"geometry":{"coordinates":[17.855755,50.623935],"type":"Point"},"properties":{"osm_id":"8431787883","tag":{"amenity":"recycling","recycling_type":"container"}},"type":"Feature"},
	{"geometry":{"coordinates":[17.862031,50.599843],"type":"Point"},"properties":{"osm_id":"8459001684","tag":{"amenity":"waste_basket"}},"type":"Feature"},
	{"geometry":{"coordinates":[17.86125,50.601313],"type":"Point"},"properties":{"osm_id":"8459001685","tag":{"amenity":"waste_basket"}},"type":"Feature"},
	{"geometry":{"coordinates":[17.861593,50.597973],"type":"Point"},"properties":{"osm_id":"8459001686","tag":{"amenity":"waste_basket"}},"type":"Feature"},
	{"geometry":{"coordinates":[17.862142,50.598452],"type":"Point"},"properties":{"osm_id":"8461451269","tag":{"amenity":"waste_basket"}},"type":"Feature"},
	{"geometry":{"coordinates":[17.862028,50.602076],"type":"Point"},"properties":{"osm_id":"8461451277","tag":{"amenity":"waste_basket"}},"type":"Feature"},
	{"geometry":{"coordinates":[17.865739,50.602452],"type":"Point"},"properties":{"osm_id":"8461451279","tag":{"amenity":"recycling","recycling:electrical_items":"yes","recycling_type":"container"}},"type":"Feature"},
	{"geometry":{"coordinates":[17.860594,50.619616],"type":"Point"},"properties":{"osm_id":"8561225698","tag":{"amenity":"recycling","recycling:electrical_items":"yes","recycling_type":"container"}},"type":"Feature"},
	{"geometry":{"coordinates":[17.880114,50.578397],"type":"Point"},"properties":{"name":"PSZOK Pr\u00c3\u00b3\u00c4\u0084szk\u00c3\u00b3w","osm_id":"9169022375","tag":{"amenity":"recycling","operator":"ZGKiM Pr\u00c3\u00b3szk\u00c3\u00b3w","recycling_type":"centre"}},"type":"Feature"}
]
}
