{
"type": "FeatureCollection",
"features": [
	{"geometry":{"coordinates":[17.885624,50.556503],"type":"Point"},"properties":{"osm_id":"2924791226","tag":{"amenity":"waste_basket"}},"type":"Feature"},
	{"geometry":{"coordinates":[17.862815,50.524733],"type":"Point"},"properties":{"osm_id":"2925703965","tag":{"amenity":"waste_basket","colour":"grey","material":"concrete","waste":"trash"}},"type":"Feature"},
	{"geometry":{"coordinates":[17.881167,50.562108],"type":"Point"},"properties":{"osm_id":"8437676452","tag":{"amenity":"waste_basket"}},"type":"Feature"},
	{"geometry":{"coordinates":[17.887608,50.54706],"type":"Point"},"properties":{"osm_id":"8809172374","tag":{"amenity":"waste_basket","colour":"grey","material":"concrete","waste":"trash"}},"type":"Feature"},
	{"geometry":{"coordinates":[17.869449,50.531454],"type":"Point"},"properties":{"osm_id":"8809172392","tag":{"amenity":"waste_basket","colour":"grey","material":"concrete","waste":"trash"}},"type":"Feature"},
	{"geometry":{"coordinates":[17.881349,50.56183],"type":"Point"},"properties":{"osm_id":"8839703555","tag":{"amenity":"waste_basket"}},"type":"Feature"},
	{"geometry":{"coordinates":[17.859018,50.558047],"type":"Point"},"properties":{"osm_id":"8845952844","tag":{"amenity":"recycling","recycling:electrical_items":"yes","recycling_type":"container"}},"type":"Feature"},
	{"geometry":{"coordinates":[17.859046,50.558057],"type":"Point"},"properties":{"osm_id":"8845952845","tag":{"amenity":"recycling","recycling_type":"container"}},"type":"Feature"},
	{"geometry":{"coordinates":[17.858861,50.551154],"type":"Point"},"properties":{"osm_id":"8845952852","tag":{"amenity":"waste_basket","colour":"grey","material":"concrete","waste":"trash"}},"type":"Feature"},
	{"geometry":{"coordinates":[17.871636,50.554646],"type":"Point"},"properties":{"osm_id":"9093708593","tag":{"amenity":"waste_basket","material":"concrete","operator":"Nadle\u00c5\u009bnictwo Pr\u00c3\u00b3szk\u00c3\u00b3w"}},"type":"Feature"}
]
}
