{
"type": "FeatureCollection",
"features": [
	{"geometry":{"coordinates":[17.912131,49.944139],"type":"Point"},"properties":{"osm_id":"2307588993","tag":{"amenity":"recycling","opening_hours":"Mar 15-Nov 15: Mo-Fr 11:00-17:30; Sa 8:00-11:00 || Nov 16-Mar 14: We 11:00-17:30; Sa 8:00-11:00","recycling_type":"centre"}},"type":"Feature"},
	{"geometry":{"coordinates":[17.907024,49.951054],"type":"Point"},"properties":{"osm_id":"2307588994","tag":{"amenity":"recycling","recycling:glass":"yes","recycling:paper":"yes","recycling:plastic":"yes","recycling_type":"container"}},"type":"Feature"},
	{"geometry":{"coordinates":[17.86913,49.94801],"type":"Point"},"properties":{"osm_id":"6543891313","tag":{"amenity":"waste_disposal"}},"type":"Feature"},
	{"geometry":{"coordinates":[17.889672,49.936353],"type":"Point"},"properties":{"osm_id":"9022621163","tag":{"amenity":"waste_basket","operator":"Technick\u00c3\u00a9 slu\u00c5\u00beby Opava s.r.o.","waste":"trash"}},"type":"Feature"},
	{"geometry":{"coordinates":[17.889125,49.935894],"type":"Point"},"properties":{"osm_id":"9022621164","tag":{"amenity":"waste_disposal","amenity_1":"recycling","operator":"Technick\u00c3\u00a9 slu\u00c5\u00beby Opava s.r.o.","recycling:cooking_oil":"yes","recycling_type":"container","waste":"trash;recycling;plastic;glass;mixed;oil;paper"}},"type":"Feature"}
]
}
