{
"type": "FeatureCollection",
"features": [
	{"geometry":{"coordinates":[17.913842,49.22564],"type":"Point"},"properties":{"osm_id":"4034248280","tag":{"amenity":"recycling","recycling:paper":"yes","recycling_type":"container"}},"type":"Feature"},
	{"geometry":{"coordinates":[17.913832,49.225656],"type":"Point"},"properties":{"osm_id":"4034248282","tag":{"amenity":"recycling","recycling:paper":"yes","recycling_type":"container"}},"type":"Feature"},
	{"geometry":{"coordinates":[17.913824,49.225669],"type":"Point"},"properties":{"osm_id":"4034248283","tag":{"amenity":"recycling","recycling:paper":"yes","recycling_type":"container"}},"type":"Feature"},
	{"geometry":{"coordinates":[17.846404,49.218509],"type":"Point"},"properties":{"osm_id":"5030610982","tag":{"amenity":"waste_basket"}},"type":"Feature"},
	{"geometry":{"coordinates":[17.856095,49.249799],"type":"Point"},"properties":{"osm_id":"8230350477","tag":{"amenity":"recycling","recycling_type":"container"}},"type":"Feature"},
	{"geometry":{"coordinates":[17.85631,49.249723],"type":"Point"},"properties":{"osm_id":"8230376790","tag":{"amenity":"recycling","recycling_type":"container"}},"type":"Feature"},
	{"geometry":{"coordinates":[17.848809,49.263706],"type":"Point"},"properties":{"osm_id":"8230383591","tag":{"amenity":"recycling","recycling_type":"container"}},"type":"Feature"},
	{"geometry":{"coordinates":[17.845441,49.266549],"type":"Point"},"properties":{"osm_id":"8230460951","tag":{"amenity":"recycling","recycling_type":"container"}},"type":"Feature"},
	{"geometry":{"coordinates":[17.843691,49.267715],"type":"Point"},"properties":{"osm_id":"8230470995","tag":{"amenity":"recycling","recycling_type":"container"}},"type":"Feature"}
]
}
