{
"type": "FeatureCollection",
"features": [
	{"geometry":{"coordinates":[17.874692,48.150722],"type":"Point"},"properties":{"osm_id":"5198976290","tag":{"amenity":"waste_basket"}},"type":"Feature"},
	{"geometry":{"coordinates":[17.875405,48.151597],"type":"Point"},"properties":{"osm_id":"5198976316","tag":{"amenity":"waste_basket"}},"type":"Feature"},
	{"geometry":{"coordinates":[17.875471,48.151559],"type":"Point"},"properties":{"osm_id":"5198976317","tag":{"amenity":"waste_basket"}},"type":"Feature"},
	{"geometry":{"coordinates":[17.849506,48.130178],"type":"Point"},"properties":{"osm_id":"6985894985","tag":{"amenity":"recycling","recycling:glass":"yes","recycling:scrap_metal":"yes","recycling_type":"container"}},"type":"Feature"},
	{"geometry":{"coordinates":[17.844158,48.132599],"type":"Point"},"properties":{"osm_id":"7924407750","tag":{"amenity":"recycling","recycling:clothes":"yes","recycling:shoes":"yes","recycling_type":"container"}},"type":"Feature"},
	{"geometry":{"coordinates":[17.872736,48.149764],"type":"Point"},"properties":{"osm_id":"7949011043","tag":{"amenity":"waste_basket"}},"type":"Feature"}
]
}
