{
"type": "FeatureCollection",
"features": [
	{"geometry":{"coordinates":[17.87796,46.924507],"type":"Point"},"properties":{"osm_id":"1977127655","tag":{"amenity":"waste_basket"}},"type":"Feature"},
	{"geometry":{"coordinates":[17.899224,46.960449],"type":"Point"},"properties":{"osm_id":"1977127735","tag":{"amenity":"waste_basket"}},"type":"Feature"},
	{"geometry":{"coordinates":[17.898869,46.960847],"type":"Point"},"properties":{"osm_id":"1977127740","tag":{"amenity":"waste_basket"}},"type":"Feature"},
	{"geometry":{"coordinates":[17.894871,46.973925],"type":"Point"},"properties":{"osm_id":"2426391330","tag":{"amenity":"recycling","recycling_type":"container"}},"type":"Feature"},
	{"geometry":{"coordinates":[17.882824,46.965019],"type":"Point"},"properties":{"name":"szelekt\u00c3\u00adv h.gy","osm_id":"2934330049","tag":{"amenity":"recycling"}},"type":"Feature"},
	{"geometry":{"coordinates":[17.876013,46.963161],"type":"Point"},"properties":{"name":"Szelekt\u00c3\u00adv","osm_id":"2934330051","tag":{"amenity":"recycling"}},"type":"Feature"},
	{"geometry":{"coordinates":[17.877552,46.955504],"type":"Point"},"properties":{"osm_id":"2956283914","tag":{"amenity":"recycling"}},"type":"Feature"},
	{"geometry":{"coordinates":[17.878059,46.956053],"type":"Point"},"properties":{"osm_id":"2956284434","tag":{"amenity":"recycling"}},"type":"Feature"},
	{"geometry":{"coordinates":[17.880374,46.95735],"type":"Point"},"properties":{"osm_id":"2956284454","tag":{"amenity":"recycling"}},"type":"Feature"},
	{"geometry":{"coordinates":[17.87505,46.957378],"type":"Point"},"properties":{"osm_id":"3003408367","tag":{"amenity":"recycling"}},"type":"Feature"},
	{"geometry":{"coordinates":[17.867813,46.960422],"type":"Point"},"properties":{"osm_id":"3003408378","tag":{"amenity":"recycling"}},"type":"Feature"},
	{"geometry":{"coordinates":[17.899402,46.95954],"type":"Point"},"properties":{"osm_id":"3458341359","tag":{"addr:street":"De\u00c3\u00a1k Ferenc utca \u00c3\u00a9s Mikes Kelemen utca sarka","amenity":"recycling","source:date":"2011-04-22","url":"http://turistautak.hu/poi.php?id=10221"}},"type":"Feature"},
	{"geometry":{"coordinates":[17.867867,46.961111],"type":"Point"},"properties":{"osm_id":"3458341363","tag":{"amenity":"recycling","source:date":"2011-06-28","url":"http://turistautak.hu/poi.php?id=119764"}},"type":"Feature"},
	{"geometry":{"coordinates":[17.872919,46.96502],"type":"Point"},"properties":{"osm_id":"3458341372","tag":{"amenity":"recycling","source:date":"2011-06-28","url":"http://turistautak.hu/poi.php?id=119763"}},"type":"Feature"},
	{"geometry":{"coordinates":[17.873918,46.965265],"type":"Point"},"properties":{"osm_id":"3458341373","tag":{"amenity":"recycling","description":"Pacsirta utca, 2 m\u00c5\u00b1anyag, 1 pap\u00c3\u00adr \u00c3\u00a9s 1 \u00c3\u00bcveg","source:date":"2012-09-16","url":"http://turistautak.hu/poi.php?id=144893"}},"type":"Feature"},
	{"geometry":{"coordinates":[17.883016,46.952093],"type":"Point"},"properties":{"osm_id":"3458341815","tag":{"amenity":"recycling","source:date":"2011-05-26","url":"http://turistautak.hu/poi.php?id=81389"}},"type":"Feature"},
	{"geometry":{"coordinates":[17.8923,46.956483],"type":"Point"},"properties":{"osm_id":"3458341824","tag":{"addr:city":"Balatonf\u00c3\u00bcred","addr:postcode":"8230","addr:street":"Zsigmon utca \u00c3\u00a9s F\u00c3\u00a9szek utca sarka","amenity":"recycling","source:date":"2011-05-26","url":"http://turistautak.hu/poi.php?id=10223"}},"type":"Feature"},
	{"geometry":{"coordinates":[17.90426,46.958206],"type":"Point"},"properties":{"osm_id":"3458341830","tag":{"amenity":"recycling","source:date":"2011-05-26","url":"http://turistautak.hu/poi.php?id=81386"}},"type":"Feature"},
	{"geometry":{"coordinates":[17.88409,46.964322],"type":"Point"},"properties":{"osm_id":"3511919293","tag":{"amenity":"waste_basket"}},"type":"Feature"},
	{"geometry":{"coordinates":[17.887122,46.95561],"type":"Point"},"properties":{"osm_id":"3511919894","tag":{"amenity":"waste_basket"}},"type":"Feature"},
	{"geometry":{"coordinates":[17.885571,46.962565],"type":"Point"},"properties":{"osm_id":"3511923793","tag":{"amenity":"waste_basket"}},"type":"Feature"},
	{"geometry":{"coordinates":[17.885914,46.962155],"type":"Point"},"properties":{"osm_id":"3511924193","tag":{"amenity":"waste_basket"}},"type":"Feature"},
	{"geometry":{"coordinates":[17.886643,46.961071],"type":"Point"},"properties":{"osm_id":"3511924194","tag":{"amenity":"waste_basket"}},"type":"Feature"},
	{"geometry":{"coordinates":[17.885957,46.961745],"type":"Point"},"properties":{"osm_id":"3511925293","tag":{"amenity":"waste_basket"}},"type":"Feature"},
	{"geometry":{"coordinates":[17.88645,46.9611],"type":"Point"},"properties":{"osm_id":"3511933493","tag":{"amenity":"waste_basket"}},"type":"Feature"},
	{"geometry":{"coordinates":[17.886794,46.960646],"type":"Point"},"properties":{"osm_id":"3511934193","tag":{"amenity":"waste_basket"}},"type":"Feature"},
	{"geometry":{"coordinates":[17.885399,46.959314],"type":"Point"},"properties":{"osm_id":"3511936093","tag":{"amenity":"waste_basket"}},"type":"Feature"},
	{"geometry":{"coordinates":[17.874737,46.954256],"type":"Point"},"properties":{"osm_id":"3668945604","tag":{"amenity":"recycling","recycling:glass":"yes","recycling:paper":"yes","recycling:plastic":"yes","recycling_type":"container"}},"type":"Feature"},
	{"geometry":{"coordinates":[17.890754,46.954194],"type":"Point"},"properties":{"osm_id":"4262344321","tag":{"amenity":"waste_basket"}},"type":"Feature"},
	{"geometry":{"coordinates":[17.88613,46.952493],"type":"Point"},"properties":{"osm_id":"4262344365","tag":{"amenity":"waste_basket"}},"type":"Feature"},
	{"geometry":{"coordinates":[17.892942,46.957027],"type":"Point"},"properties":{"osm_id":"4368454326","tag":{"amenity":"waste_basket"}},"type":"Feature"},
	{"geometry":{"coordinates":[17.898453,46.961292],"type":"Point"},"properties":{"osm_id":"4368454343","tag":{"amenity":"waste_basket"}},"type":"Feature"},
	{"geometry":{"coordinates":[17.884367,46.949944],"type":"Point"},"properties":{"osm_id":"4368454450","tag":{"amenity":"waste_basket"}},"type":"Feature"},
	{"geometry":{"coordinates":[17.894674,46.954372],"type":"Point"},"properties":{"osm_id":"5064460419","tag":{"amenity":"waste_basket"}},"type":"Feature"},
	{"geometry":{"coordinates":[17.89764,46.962548],"type":"Point"},"properties":{"osm_id":"5064461041","tag":{"amenity":"waste_basket"}},"type":"Feature"},
	{"geometry":{"coordinates":[17.886524,46.957532],"type":"Point"},"properties":{"osm_id":"5526689821","tag":{"amenity":"waste_basket"}},"type":"Feature"},
	{"geometry":{"coordinates":[17.898981,46.973133],"type":"Point"},"properties":{"osm_id":"5623000444","tag":{"amenity":"recycling","recycling:glass":"yes","recycling_type":"container"}},"type":"Feature"},
	{"geometry":{"coordinates":[17.902422,46.956015],"type":"Point"},"properties":{"osm_id":"5809773892","tag":{"amenity":"waste_basket"}},"type":"Feature"},
	{"geometry":{"coordinates":[17.902769,46.956036],"type":"Point"},"properties":{"osm_id":"5809773893","tag":{"amenity":"waste_basket"}},"type":"Feature"},
	{"geometry":{"coordinates":[17.902821,46.955794],"type":"Point"},"properties":{"osm_id":"5809774970","tag":{"amenity":"waste_basket"}},"type":"Feature"},
	{"geometry":{"coordinates":[17.90392,46.956097],"type":"Point"},"properties":{"osm_id":"5825896400","tag":{"amenity":"waste_basket"}},"type":"Feature"},
	{"geometry":{"coordinates":[17.904275,46.95602],"type":"Point"},"properties":{"osm_id":"5825896401","tag":{"amenity":"waste_basket"}},"type":"Feature"},
	{"geometry":{"coordinates":[17.904211,46.955872],"type":"Point"},"properties":{"osm_id":"5825896402","tag":{"amenity":"waste_basket"}},"type":"Feature"},
	{"geometry":{"coordinates":[17.888161,46.954711],"type":"Point"},"properties":{"osm_id":"5827790022","tag":{"amenity":"waste_disposal"}},"type":"Feature"},
	{"geometry":{"coordinates":[17.874606,46.944144],"type":"Point"},"properties":{"osm_id":"6634172360","tag":{"amenity":"waste_basket"}},"type":"Feature"},
	{"geometry":{"coordinates":[17.883999,46.955425],"type":"Point"},"properties":{"osm_id":"6653544682","tag":{"amenity":"waste_basket","waste":"trash"}},"type":"Feature"},
	{"geometry":{"coordinates":[17.884409,46.955019],"type":"Point"},"properties":{"osm_id":"6653547188","tag":{"amenity":"waste_basket","waste":"trash"}},"type":"Feature"},
	{"geometry":{"coordinates":[17.884344,46.955076],"type":"Point"},"properties":{"osm_id":"6653547189","tag":{"amenity":"waste_basket","waste":"trash"}},"type":"Feature"},
	{"geometry":{"coordinates":[17.885168,46.955397],"type":"Point"},"properties":{"osm_id":"6653547208","tag":{"amenity":"waste_basket","waste":"trash"}},"type":"Feature"},
	{"geometry":{"coordinates":[17.885507,46.955656],"type":"Point"},"properties":{"osm_id":"6653547210","tag":{"amenity":"waste_basket","waste":"trash"}},"type":"Feature"},
	{"geometry":{"coordinates":[17.885898,46.95576],"type":"Point"},"properties":{"osm_id":"6653547211","tag":{"amenity":"waste_basket","waste":"trash"}},"type":"Feature"},
	{"geometry":{"coordinates":[17.886312,46.956074],"type":"Point"},"properties":{"osm_id":"6653547221","tag":{"amenity":"waste_basket","waste":"trash"}},"type":"Feature"}
]
}
