{
"type": "FeatureCollection",
"features": [
	{"geometry":{"coordinates":[17.883812,46.855718],"type":"Point"},"properties":{"osm_id":"1280171597","tag":{"amenity":"recycling"}},"type":"Feature"},
	{"geometry":{"coordinates":[17.90058,46.856729],"type":"Point"},"properties":{"osm_id":"2939829715","tag":{"amenity":"waste_basket"}},"type":"Feature"},
	{"geometry":{"coordinates":[17.898983,46.858921],"type":"Point"},"properties":{"osm_id":"2939829748","tag":{"amenity":"waste_basket"}},"type":"Feature"},
	{"geometry":{"coordinates":[17.898735,46.859095],"type":"Point"},"properties":{"osm_id":"2939829756","tag":{"amenity":"waste_basket"}},"type":"Feature"},
	{"geometry":{"coordinates":[17.898103,46.859667],"type":"Point"},"properties":{"osm_id":"2939829761","tag":{"amenity":"waste_basket"}},"type":"Feature"},
	{"geometry":{"coordinates":[17.902209,46.858436],"type":"Point"},"properties":{"osm_id":"2940480315","tag":{"amenity":"recycling"}},"type":"Feature"},
	{"geometry":{"coordinates":[17.902048,46.858643],"type":"Point"},"properties":{"osm_id":"2940480322","tag":{"amenity":"waste_basket"}},"type":"Feature"},
	{"geometry":{"coordinates":[17.905617,46.8221],"type":"Point"},"properties":{"osm_id":"3441443762","tag":{"addr:street":"Pet\u00c5\u0091fi utca","amenity":"recycling","source:date":"2012-10-14","url":"http://turistautak.hu/poi.php?id=74389"}},"type":"Feature"},
	{"geometry":{"coordinates":[17.900283,46.832333],"type":"Point"},"properties":{"osm_id":"3441443777","tag":{"addr:street":"Pet\u00c5\u0091fi utca","amenity":"recycling","source:date":"2012-10-14","url":"http://turistautak.hu/poi.php?id=74385"}},"type":"Feature"},
	{"geometry":{"coordinates":[17.879303,46.84894],"type":"Point"},"properties":{"osm_id":"3441443800","tag":{"amenity":"recycling","source:date":"2012-10-14","url":"http://turistautak.hu/poi.php?id=100058"}},"type":"Feature"},
	{"geometry":{"coordinates":[17.876815,46.85292],"type":"Point"},"properties":{"osm_id":"6178417644","tag":{"amenity":"waste_basket","waste":"trash"}},"type":"Feature"},
	{"geometry":{"coordinates":[17.871048,46.850075],"type":"Point"},"properties":{"osm_id":"6178417647","tag":{"amenity":"waste_basket","mapillary":"Nd2LHyRCOH_utqPbmOkB-w","waste":"trash"}},"type":"Feature"},
	{"geometry":{"coordinates":[17.870965,46.840829],"type":"Point"},"properties":{"osm_id":"6178417674","tag":{"amenity":"waste_basket","waste":"trash"}},"type":"Feature"},
	{"geometry":{"coordinates":[17.877482,46.847457],"type":"Point"},"properties":{"osm_id":"6178417809","tag":{"amenity":"waste_basket","waste":"trash"}},"type":"Feature"},
	{"geometry":{"coordinates":[17.865194,46.845564],"type":"Point"},"properties":{"osm_id":"6178418146","tag":{"amenity":"waste_basket","waste":"dog_excrement"}},"type":"Feature"},
	{"geometry":{"coordinates":[17.867222,46.846644],"type":"Point"},"properties":{"osm_id":"6178418151","tag":{"amenity":"waste_basket","waste":"trash"}},"type":"Feature"},
	{"geometry":{"coordinates":[17.86329,46.846818],"type":"Point"},"properties":{"name":"Kutya illemhely","osm_id":"6988313288","tag":{"amenity":"waste_basket","mapillary":"l7IxMlZ8558EHby5TDpXJA","waste":"dog_excrement"}},"type":"Feature"}
]
}
