{
"type": "FeatureCollection",
"features": [
	{"geometry":{"coordinates":[48.318399,54.267958],"type":"Point"},"properties":{"osm_id":"2063591500","tag":{"amenity":"waste_disposal"}},"type":"Feature"},
	{"geometry":{"coordinates":[48.334083,54.27449],"type":"Point"},"properties":{"osm_id":"2299236308","tag":{"amenity":"waste_disposal","waste":"trash"}},"type":"Feature"},
	{"geometry":{"coordinates":[48.337507,54.273088],"type":"Point"},"properties":{"osm_id":"2328195138","tag":{"amenity":"waste_disposal"}},"type":"Feature"},
	{"geometry":{"coordinates":[48.324615,54.272463],"type":"Point"},"properties":{"osm_id":"2352643750","tag":{"amenity":"waste_disposal"}},"type":"Feature"},
	{"geometry":{"coordinates":[48.325497,54.27283],"type":"Point"},"properties":{"osm_id":"2352643768","tag":{"amenity":"waste_disposal"}},"type":"Feature"},
	{"geometry":{"coordinates":[48.326485,54.273251],"type":"Point"},"properties":{"osm_id":"2352643788","tag":{"amenity":"waste_disposal"}},"type":"Feature"},
	{"geometry":{"coordinates":[48.32129,54.295693],"type":"Point"},"properties":{"osm_id":"2449595908","tag":{"amenity":"waste_disposal"}},"type":"Feature"},
	{"geometry":{"coordinates":[48.331062,54.299165],"type":"Point"},"properties":{"osm_id":"2900353748","tag":{"amenity":"waste_disposal"}},"type":"Feature"},
	{"geometry":{"coordinates":[48.33216,54.300266],"type":"Point"},"properties":{"osm_id":"2900353773","tag":{"amenity":"waste_disposal"}},"type":"Feature"},
	{"geometry":{"coordinates":[48.295157,54.29563],"type":"Point"},"properties":{"osm_id":"3081499454","tag":{"amenity":"waste_disposal"}},"type":"Feature"},
	{"geometry":{"coordinates":[48.333782,54.302142],"type":"Point"},"properties":{"osm_id":"3101414496","tag":{"amenity":"waste_disposal"}},"type":"Feature"},
	{"geometry":{"coordinates":[48.286646,54.298499],"type":"Point"},"properties":{"osm_id":"3579924859","tag":{"amenity":"waste_disposal"}},"type":"Feature"},
	{"geometry":{"coordinates":[48.282263,54.314142],"type":"Point"},"properties":{"osm_id":"3585440004","tag":{"amenity":"waste_disposal"}},"type":"Feature"},
	{"geometry":{"coordinates":[48.284873,54.314261],"type":"Point"},"properties":{"osm_id":"3585440006","tag":{"amenity":"waste_disposal"}},"type":"Feature"},
	{"geometry":{"coordinates":[48.293172,54.31454],"type":"Point"},"properties":{"osm_id":"3585536806","tag":{"amenity":"waste_disposal"}},"type":"Feature"},
	{"geometry":{"coordinates":[48.28683,54.31437],"type":"Point"},"properties":{"osm_id":"3585565397","tag":{"amenity":"waste_disposal"}},"type":"Feature"},
	{"geometry":{"coordinates":[48.289794,54.314375],"type":"Point"},"properties":{"osm_id":"3585726699","tag":{"amenity":"waste_disposal"}},"type":"Feature"},
	{"geometry":{"coordinates":[48.291361,54.31455],"type":"Point"},"properties":{"osm_id":"3585726700","tag":{"amenity":"waste_disposal"}},"type":"Feature"},
	{"geometry":{"coordinates":[48.294726,54.314692],"type":"Point"},"properties":{"osm_id":"3585726701","tag":{"amenity":"waste_disposal"}},"type":"Feature"},
	{"geometry":{"coordinates":[48.296336,54.315027],"type":"Point"},"properties":{"osm_id":"3586163293","tag":{"amenity":"waste_disposal"}},"type":"Feature"},
	{"geometry":{"coordinates":[48.336818,54.303995],"type":"Point"},"properties":{"osm_id":"3663076918","tag":{"amenity":"waste_disposal"}},"type":"Feature"},
	{"geometry":{"coordinates":[48.332567,54.30688],"type":"Point"},"properties":{"osm_id":"3663077370","tag":{"amenity":"waste_disposal"}},"type":"Feature"},
	{"geometry":{"coordinates":[48.320914,54.302544],"type":"Point"},"properties":{"osm_id":"3668776491","tag":{"amenity":"waste_disposal"}},"type":"Feature"},
	{"geometry":{"coordinates":[48.328598,54.306125],"type":"Point"},"properties":{"osm_id":"3668779461","tag":{"amenity":"waste_disposal"}},"type":"Feature"},
	{"geometry":{"coordinates":[48.325315,54.306721],"type":"Point"},"properties":{"osm_id":"3668779480","tag":{"amenity":"waste_disposal"}},"type":"Feature"},
	{"geometry":{"coordinates":[48.272985,54.281841],"type":"Point"},"properties":{"osm_id":"3728660693","tag":{"amenity":"waste_disposal"}},"type":"Feature"},
	{"geometry":{"coordinates":[48.33207,54.265342],"type":"Point"},"properties":{"osm_id":"3812384912","tag":{"amenity":"waste_disposal"}},"type":"Feature"},
	{"geometry":{"coordinates":[48.332184,54.266604],"type":"Point"},"properties":{"osm_id":"3812384957","tag":{"amenity":"waste_disposal"}},"type":"Feature"},
	{"geometry":{"coordinates":[48.329484,54.266901],"type":"Point"},"properties":{"osm_id":"3812384974","tag":{"amenity":"waste_disposal"}},"type":"Feature"},
	{"geometry":{"coordinates":[48.274941,54.281329],"type":"Point"},"properties":{"osm_id":"3817367485","tag":{"amenity":"waste_disposal"}},"type":"Feature"},
	{"geometry":{"coordinates":[48.276056,54.282711],"type":"Point"},"properties":{"osm_id":"3817367498","tag":{"amenity":"waste_disposal"}},"type":"Feature"},
	{"geometry":{"coordinates":[48.3329,54.268202],"type":"Point"},"properties":{"osm_id":"3817580420","tag":{"amenity":"waste_disposal"}},"type":"Feature"},
	{"geometry":{"coordinates":[48.32934,54.269224],"type":"Point"},"properties":{"osm_id":"3817580488","tag":{"amenity":"waste_disposal"}},"type":"Feature"},
	{"geometry":{"coordinates":[48.332167,54.26998],"type":"Point"},"properties":{"osm_id":"3817580552","tag":{"amenity":"waste_disposal"}},"type":"Feature"},
	{"geometry":{"coordinates":[48.326648,54.269945],"type":"Point"},"properties":{"osm_id":"3836379895","tag":{"amenity":"waste_disposal"}},"type":"Feature"},
	{"geometry":{"coordinates":[48.32541,54.270158],"type":"Point"},"properties":{"osm_id":"3836379910","tag":{"amenity":"waste_disposal"}},"type":"Feature"},
	{"geometry":{"coordinates":[48.31949,54.266315],"type":"Point"},"properties":{"osm_id":"3837312394","tag":{"amenity":"waste_disposal"}},"type":"Feature"},
	{"geometry":{"coordinates":[48.326618,54.265691],"type":"Point"},"properties":{"osm_id":"3867960296","tag":{"amenity":"waste_disposal"}},"type":"Feature"},
	{"geometry":{"coordinates":[48.33878,54.265249],"type":"Point"},"properties":{"osm_id":"3890470734","tag":{"amenity":"waste_disposal"}},"type":"Feature"},
	{"geometry":{"coordinates":[48.338057,54.266058],"type":"Point"},"properties":{"osm_id":"3890470742","tag":{"amenity":"waste_disposal"}},"type":"Feature"},
	{"geometry":{"coordinates":[48.316281,54.30204],"type":"Point"},"properties":{"osm_id":"3951390258","tag":{"amenity":"waste_disposal"}},"type":"Feature"},
	{"geometry":{"coordinates":[48.315624,54.302826],"type":"Point"},"properties":{"osm_id":"3951390269","tag":{"amenity":"waste_disposal"}},"type":"Feature"},
	{"geometry":{"coordinates":[48.312963,54.304398],"type":"Point"},"properties":{"osm_id":"3951390295","tag":{"amenity":"waste_disposal"}},"type":"Feature"},
	{"geometry":{"coordinates":[48.299403,54.285973],"type":"Point"},"properties":{"osm_id":"3951779665","tag":{"amenity":"waste_disposal"}},"type":"Feature"},
	{"geometry":{"coordinates":[48.289972,54.289725],"type":"Point"},"properties":{"osm_id":"3951901943","tag":{"amenity":"waste_disposal"}},"type":"Feature"},
	{"geometry":{"coordinates":[48.291178,54.278736],"type":"Point"},"properties":{"osm_id":"3978019389","tag":{"amenity":"waste_disposal"}},"type":"Feature"},
	{"geometry":{"coordinates":[48.305,54.298892],"type":"Point"},"properties":{"osm_id":"3980060660","tag":{"amenity":"waste_disposal"}},"type":"Feature"},
	{"geometry":{"coordinates":[48.308763,54.300839],"type":"Point"},"properties":{"osm_id":"3980061060","tag":{"amenity":"waste_disposal"}},"type":"Feature"},
	{"geometry":{"coordinates":[48.314451,54.304606],"type":"Point"},"properties":{"osm_id":"3980185324","tag":{"amenity":"waste_disposal"}},"type":"Feature"},
	{"geometry":{"coordinates":[48.295424,54.282664],"type":"Point"},"properties":{"osm_id":"3987946847","tag":{"amenity":"waste_disposal"}},"type":"Feature"},
	{"geometry":{"coordinates":[48.321255,54.296761],"type":"Point"},"properties":{"osm_id":"4005351707","tag":{"amenity":"waste_disposal"}},"type":"Feature"},
	{"geometry":{"coordinates":[48.275024,54.285747],"type":"Point"},"properties":{"osm_id":"4013229996","tag":{"amenity":"waste_basket"}},"type":"Feature"},
	{"geometry":{"coordinates":[48.333482,54.304304],"type":"Point"},"properties":{"osm_id":"4033214994","tag":{"amenity":"waste_disposal"}},"type":"Feature"},
	{"geometry":{"coordinates":[48.291916,54.287253],"type":"Point"},"properties":{"osm_id":"4054605403","tag":{"amenity":"waste_disposal"}},"type":"Feature"},
	{"geometry":{"coordinates":[48.289146,54.267013],"type":"Point"},"properties":{"osm_id":"4060652502","tag":{"amenity":"waste_disposal"}},"type":"Feature"},
	{"geometry":{"coordinates":[48.290639,54.270161],"type":"Point"},"properties":{"osm_id":"4060652538","tag":{"amenity":"waste_disposal"}},"type":"Feature"},
	{"geometry":{"coordinates":[48.294309,54.289476],"type":"Point"},"properties":{"osm_id":"4116842952","tag":{"amenity":"waste_basket"}},"type":"Feature"},
	{"geometry":{"coordinates":[48.294193,54.289489],"type":"Point"},"properties":{"osm_id":"4116842954","tag":{"amenity":"waste_basket"}},"type":"Feature"},
	{"geometry":{"coordinates":[48.297747,54.287595],"type":"Point"},"properties":{"osm_id":"4349781133","tag":{"amenity":"waste_disposal"}},"type":"Feature"},
	{"geometry":{"coordinates":[48.31939,54.296719],"type":"Point"},"properties":{"osm_id":"4352591051","tag":{"amenity":"waste_disposal"}},"type":"Feature"},
	{"geometry":{"coordinates":[48.337808,54.306219],"type":"Point"},"properties":{"osm_id":"4366203288","tag":{"amenity":"waste_disposal"}},"type":"Feature"},
	{"geometry":{"coordinates":[48.317739,54.293437],"type":"Point"},"properties":{"osm_id":"4375904059","tag":{"amenity":"waste_disposal"}},"type":"Feature"},
	{"geometry":{"coordinates":[48.313345,54.290215],"type":"Point"},"properties":{"osm_id":"4375904088","tag":{"amenity":"waste_disposal"}},"type":"Feature"},
	{"geometry":{"coordinates":[48.308276,54.291646],"type":"Point"},"properties":{"osm_id":"4375944035","tag":{"amenity":"waste_disposal"}},"type":"Feature"},
	{"geometry":{"coordinates":[48.306343,54.293535],"type":"Point"},"properties":{"osm_id":"4375944049","tag":{"amenity":"waste_disposal"}},"type":"Feature"},
	{"geometry":{"coordinates":[48.310518,54.292618],"type":"Point"},"properties":{"osm_id":"4375944145","tag":{"amenity":"waste_disposal"}},"type":"Feature"},
	{"geometry":{"coordinates":[48.32514,54.305603],"type":"Point"},"properties":{"osm_id":"4382274173","tag":{"amenity":"waste_disposal"}},"type":"Feature"},
	{"geometry":{"coordinates":[48.321743,54.306391],"type":"Point"},"properties":{"osm_id":"4382274187","tag":{"amenity":"waste_disposal"}},"type":"Feature"},
	{"geometry":{"coordinates":[48.319574,54.305771],"type":"Point"},"properties":{"osm_id":"4382274263","tag":{"amenity":"waste_disposal"}},"type":"Feature"},
	{"geometry":{"coordinates":[48.306951,54.290609],"type":"Point"},"properties":{"osm_id":"4382389961","tag":{"amenity":"waste_disposal"}},"type":"Feature"},
	{"geometry":{"coordinates":[48.304513,54.289926],"type":"Point"},"properties":{"osm_id":"4382390098","tag":{"amenity":"waste_disposal"}},"type":"Feature"},
	{"geometry":{"coordinates":[48.305171,54.29113],"type":"Point"},"properties":{"osm_id":"4382390144","tag":{"amenity":"waste_disposal"}},"type":"Feature"},
	{"geometry":{"coordinates":[48.3018,54.291925],"type":"Point"},"properties":{"osm_id":"4382390176","tag":{"amenity":"waste_disposal"}},"type":"Feature"},
	{"geometry":{"coordinates":[48.301468,54.292328],"type":"Point"},"properties":{"osm_id":"4382390191","tag":{"amenity":"waste_disposal"}},"type":"Feature"},
	{"geometry":{"coordinates":[48.299646,54.290027],"type":"Point"},"properties":{"osm_id":"4382390245","tag":{"amenity":"waste_disposal"}},"type":"Feature"},
	{"geometry":{"coordinates":[48.299126,54.290603],"type":"Point"},"properties":{"osm_id":"4382390273","tag":{"amenity":"waste_disposal"}},"type":"Feature"},
	{"geometry":{"coordinates":[48.29984,54.288209],"type":"Point"},"properties":{"osm_id":"4382390391","tag":{"amenity":"waste_disposal"}},"type":"Feature"},
	{"geometry":{"coordinates":[48.302213,54.289872],"type":"Point"},"properties":{"osm_id":"4382390421","tag":{"amenity":"waste_disposal"}},"type":"Feature"},
	{"geometry":{"coordinates":[48.302169,54.288323],"type":"Point"},"properties":{"osm_id":"4382390427","tag":{"amenity":"waste_disposal"}},"type":"Feature"},
	{"geometry":{"coordinates":[48.334227,54.298942],"type":"Point"},"properties":{"osm_id":"4387357548","tag":{"amenity":"waste_disposal"}},"type":"Feature"},
	{"geometry":{"coordinates":[48.333671,54.29948],"type":"Point"},"properties":{"osm_id":"4387357559","tag":{"amenity":"waste_disposal"}},"type":"Feature"},
	{"geometry":{"coordinates":[48.336798,54.301245],"type":"Point"},"properties":{"osm_id":"4387357583","tag":{"amenity":"waste_disposal"}},"type":"Feature"},
	{"geometry":{"coordinates":[48.337601,54.299528],"type":"Point"},"properties":{"osm_id":"4387357587","tag":{"amenity":"waste_disposal"}},"type":"Feature"},
	{"geometry":{"coordinates":[48.334989,54.298455],"type":"Point"},"properties":{"osm_id":"4387358267","tag":{"amenity":"waste_disposal"}},"type":"Feature"},
	{"geometry":{"coordinates":[48.311253,54.275081],"type":"Point"},"properties":{"osm_id":"4387385884","tag":{"amenity":"waste_disposal"}},"type":"Feature"},
	{"geometry":{"coordinates":[48.311207,54.273659],"type":"Point"},"properties":{"osm_id":"4387625714","tag":{"amenity":"waste_disposal"}},"type":"Feature"},
	{"geometry":{"coordinates":[48.337858,54.27575],"type":"Point"},"properties":{"osm_id":"4387974445","tag":{"amenity":"waste_disposal"}},"type":"Feature"},
	{"geometry":{"coordinates":[48.33874,54.275527],"type":"Point"},"properties":{"osm_id":"4387974798","tag":{"amenity":"waste_disposal"}},"type":"Feature"},
	{"geometry":{"coordinates":[48.307973,54.287673],"type":"Point"},"properties":{"osm_id":"4394577890","tag":{"amenity":"waste_disposal"}},"type":"Feature"},
	{"geometry":{"coordinates":[48.308815,54.289098],"type":"Point"},"properties":{"osm_id":"4394577950","tag":{"amenity":"waste_disposal"}},"type":"Feature"},
	{"geometry":{"coordinates":[48.310221,54.288633],"type":"Point"},"properties":{"osm_id":"4394577967","tag":{"amenity":"waste_disposal"}},"type":"Feature"},
	{"geometry":{"coordinates":[48.297864,54.292542],"type":"Point"},"properties":{"osm_id":"4394632522","tag":{"amenity":"waste_disposal"}},"type":"Feature"},
	{"geometry":{"coordinates":[48.296549,54.291805],"type":"Point"},"properties":{"osm_id":"4394632617","tag":{"amenity":"waste_disposal"}},"type":"Feature"},
	{"geometry":{"coordinates":[48.300437,54.293653],"type":"Point"},"properties":{"osm_id":"4394714510","tag":{"amenity":"waste_disposal"}},"type":"Feature"},
	{"geometry":{"coordinates":[48.301861,54.294462],"type":"Point"},"properties":{"osm_id":"4394782154","tag":{"amenity":"waste_disposal"}},"type":"Feature"},
	{"geometry":{"coordinates":[48.305258,54.294168],"type":"Point"},"properties":{"osm_id":"4394782162","tag":{"amenity":"waste_disposal"}},"type":"Feature"},
	{"geometry":{"coordinates":[48.305738,54.295876],"type":"Point"},"properties":{"osm_id":"4394818287","tag":{"amenity":"waste_disposal"}},"type":"Feature"},
	{"geometry":{"coordinates":[48.304181,54.295252],"type":"Point"},"properties":{"osm_id":"4394818628","tag":{"amenity":"waste_disposal"}},"type":"Feature"},
	{"geometry":{"coordinates":[48.316778,54.304666],"type":"Point"},"properties":{"osm_id":"4396298965","tag":{"amenity":"waste_disposal"}},"type":"Feature"},
	{"geometry":{"coordinates":[48.317313,54.30365],"type":"Point"},"properties":{"osm_id":"4396298992","tag":{"amenity":"waste_disposal"}},"type":"Feature"},
	{"geometry":{"coordinates":[48.313002,54.301116],"type":"Point"},"properties":{"osm_id":"4396365397","tag":{"amenity":"waste_disposal"}},"type":"Feature"},
	{"geometry":{"coordinates":[48.31503,54.29812],"type":"Point"},"properties":{"osm_id":"4396413863","tag":{"amenity":"waste_disposal"}},"type":"Feature"},
	{"geometry":{"coordinates":[48.312943,54.298633],"type":"Point"},"properties":{"osm_id":"4396414110","tag":{"amenity":"waste_disposal"}},"type":"Feature"},
	{"geometry":{"coordinates":[48.318695,54.301963],"type":"Point"},"properties":{"osm_id":"4396483812","tag":{"amenity":"waste_disposal"}},"type":"Feature"},
	{"geometry":{"coordinates":[48.324389,54.301669],"type":"Point"},"properties":{"osm_id":"4396519999","tag":{"amenity":"waste_disposal"}},"type":"Feature"},
	{"geometry":{"coordinates":[48.323879,54.299248],"type":"Point"},"properties":{"osm_id":"4396520010","tag":{"amenity":"waste_disposal"}},"type":"Feature"},
	{"geometry":{"coordinates":[48.323225,54.293513],"type":"Point"},"properties":{"osm_id":"4423901483","tag":{"amenity":"waste_disposal"}},"type":"Feature"},
	{"geometry":{"coordinates":[48.32861,54.293187],"type":"Point"},"properties":{"osm_id":"4423901534","tag":{"amenity":"waste_disposal"}},"type":"Feature"},
	{"geometry":{"coordinates":[48.330556,54.290729],"type":"Point"},"properties":{"osm_id":"4424242014","tag":{"amenity":"waste_disposal"}},"type":"Feature"},
	{"geometry":{"coordinates":[48.302085,54.278283],"type":"Point"},"properties":{"osm_id":"4425486355","tag":{"amenity":"waste_basket"}},"type":"Feature"},
	{"geometry":{"coordinates":[48.301632,54.278442],"type":"Point"},"properties":{"osm_id":"4425486358","tag":{"amenity":"waste_basket"}},"type":"Feature"},
	{"geometry":{"coordinates":[48.302142,54.27852],"type":"Point"},"properties":{"osm_id":"4425486362","tag":{"amenity":"waste_basket"}},"type":"Feature"},
	{"geometry":{"coordinates":[48.301696,54.27853],"type":"Point"},"properties":{"osm_id":"4425486364","tag":{"amenity":"waste_basket"}},"type":"Feature"},
	{"geometry":{"coordinates":[48.296403,54.275659],"type":"Point"},"properties":{"osm_id":"4425503352","tag":{"amenity":"waste_disposal"}},"type":"Feature"},
	{"geometry":{"coordinates":[48.313954,54.29136],"type":"Point"},"properties":{"osm_id":"4439149518","tag":{"amenity":"waste_disposal"}},"type":"Feature"},
	{"geometry":{"coordinates":[48.317392,54.295973],"type":"Point"},"properties":{"osm_id":"4444045592","tag":{"amenity":"waste_disposal"}},"type":"Feature"},
	{"geometry":{"coordinates":[48.302317,54.287571],"type":"Point"},"properties":{"osm_id":"4444094996","tag":{"amenity":"waste_disposal"}},"type":"Feature"},
	{"geometry":{"coordinates":[48.29862,54.285524],"type":"Point"},"properties":{"osm_id":"4444155850","tag":{"amenity":"waste_disposal"}},"type":"Feature"},
	{"geometry":{"coordinates":[48.288444,54.285248],"type":"Point"},"properties":{"osm_id":"4444197489","tag":{"amenity":"waste_disposal"}},"type":"Feature"},
	{"geometry":{"coordinates":[48.304111,54.277881],"type":"Point"},"properties":{"osm_id":"4451069355","tag":{"amenity":"waste_disposal"}},"type":"Feature"},
	{"geometry":{"coordinates":[48.29382,54.280544],"type":"Point"},"properties":{"osm_id":"4714712220","tag":{"amenity":"waste_disposal"}},"type":"Feature"},
	{"geometry":{"coordinates":[48.336656,54.302306],"type":"Point"},"properties":{"osm_id":"4727970677","tag":{"amenity":"waste_disposal"}},"type":"Feature"},
	{"geometry":{"coordinates":[48.335661,54.304181],"type":"Point"},"properties":{"osm_id":"4740020331","tag":{"amenity":"waste_disposal"}},"type":"Feature"},
	{"geometry":{"coordinates":[48.328385,54.301222],"type":"Point"},"properties":{"osm_id":"4781069400","tag":{"amenity":"waste_disposal"}},"type":"Feature"},
	{"geometry":{"coordinates":[48.311917,54.288774],"type":"Point"},"properties":{"osm_id":"4786501237","tag":{"amenity":"waste_disposal"}},"type":"Feature"},
	{"geometry":{"coordinates":[48.317879,54.291445],"type":"Point"},"properties":{"osm_id":"4786593559","tag":{"amenity":"waste_disposal"}},"type":"Feature"},
	{"geometry":{"coordinates":[48.286002,54.283144],"type":"Point"},"properties":{"osm_id":"4791816655","tag":{"amenity":"waste_disposal"}},"type":"Feature"},
	{"geometry":{"coordinates":[48.281928,54.280874],"type":"Point"},"properties":{"osm_id":"4791889354","tag":{"amenity":"waste_disposal"}},"type":"Feature"},
	{"geometry":{"coordinates":[48.316461,54.291699],"type":"Point"},"properties":{"osm_id":"4880673733","tag":{"amenity":"waste_disposal"}},"type":"Feature"},
	{"geometry":{"coordinates":[48.285028,54.273754],"type":"Point"},"properties":{"osm_id":"4919015701","tag":{"amenity":"waste_disposal"}},"type":"Feature"},
	{"geometry":{"coordinates":[48.293393,54.279095],"type":"Point"},"properties":{"osm_id":"4929003505","tag":{"amenity":"waste_disposal"}},"type":"Feature"},
	{"geometry":{"coordinates":[48.325052,54.299955],"type":"Point"},"properties":{"osm_id":"4944827972","tag":{"amenity":"waste_disposal"}},"type":"Feature"},
	{"geometry":{"coordinates":[48.283241,54.278433],"type":"Point"},"properties":{"osm_id":"4952230138","tag":{"amenity":"waste_disposal"}},"type":"Feature"},
	{"geometry":{"coordinates":[48.321975,54.305768],"type":"Point"},"properties":{"osm_id":"4958619061","tag":{"amenity":"waste_disposal"}},"type":"Feature"},
	{"geometry":{"coordinates":[48.298797,54.274848],"type":"Point"},"properties":{"osm_id":"4970955563","tag":{"amenity":"waste_disposal"}},"type":"Feature"},
	{"geometry":{"coordinates":[48.310202,54.290548],"type":"Point"},"properties":{"osm_id":"4984955882","tag":{"amenity":"waste_disposal"}},"type":"Feature"},
	{"geometry":{"coordinates":[48.32202,54.299079],"type":"Point"},"properties":{"osm_id":"4995254091","tag":{"amenity":"waste_disposal"}},"type":"Feature"},
	{"geometry":{"coordinates":[48.299841,54.279187],"type":"Point"},"properties":{"osm_id":"5016634186","tag":{"amenity":"waste_disposal"}},"type":"Feature"},
	{"geometry":{"coordinates":[48.321192,54.301181],"type":"Point"},"properties":{"osm_id":"5032846242","tag":{"amenity":"waste_disposal"}},"type":"Feature"},
	{"geometry":{"coordinates":[48.316541,54.300298],"type":"Point"},"properties":{"osm_id":"5032846263","tag":{"amenity":"waste_disposal"}},"type":"Feature"},
	{"geometry":{"coordinates":[48.288553,54.271885],"type":"Point"},"properties":{"osm_id":"5039810769","tag":{"amenity":"waste_disposal"}},"type":"Feature"},
	{"geometry":{"coordinates":[48.311236,54.280472],"type":"Point"},"properties":{"osm_id":"5110874895","tag":{"amenity":"waste_disposal"}},"type":"Feature"},
	{"geometry":{"coordinates":[48.319678,54.300383],"type":"Point"},"properties":{"osm_id":"5122013026","tag":{"amenity":"waste_disposal"}},"type":"Feature"},
	{"geometry":{"coordinates":[48.328864,54.302095],"type":"Point"},"properties":{"osm_id":"5143279289","tag":{"amenity":"waste_disposal"}},"type":"Feature"},
	{"geometry":{"coordinates":[48.32181,54.303444],"type":"Point"},"properties":{"osm_id":"5143298014","tag":{"amenity":"waste_disposal"}},"type":"Feature"},
	{"geometry":{"coordinates":[48.321268,54.305107],"type":"Point"},"properties":{"osm_id":"5143383863","tag":{"amenity":"waste_disposal"}},"type":"Feature"},
	{"geometry":{"coordinates":[48.318875,54.298768],"type":"Point"},"properties":{"osm_id":"5165680037","tag":{"amenity":"waste_disposal"}},"type":"Feature"},
	{"geometry":{"coordinates":[48.31988,54.297866],"type":"Point"},"properties":{"osm_id":"5165680047","tag":{"amenity":"waste_disposal"}},"type":"Feature"},
	{"geometry":{"coordinates":[48.314108,54.295057],"type":"Point"},"properties":{"osm_id":"5165680082","tag":{"amenity":"waste_disposal"}},"type":"Feature"},
	{"geometry":{"coordinates":[48.295275,54.294711],"type":"Point"},"properties":{"osm_id":"5173102212","tag":{"amenity":"waste_disposal"}},"type":"Feature"},
	{"geometry":{"coordinates":[48.294401,54.277941],"type":"Point"},"properties":{"osm_id":"5193768337","tag":{"amenity":"waste_disposal"}},"type":"Feature"},
	{"geometry":{"coordinates":[48.270155,54.276688],"type":"Point"},"properties":{"osm_id":"5204980279","tag":{"amenity":"waste_disposal"}},"type":"Feature"},
	{"geometry":{"coordinates":[48.270522,54.277266],"type":"Point"},"properties":{"osm_id":"5204980282","tag":{"amenity":"waste_disposal"}},"type":"Feature"},
	{"geometry":{"coordinates":[48.264095,54.283292],"type":"Point"},"properties":{"osm_id":"5208872372","tag":{"amenity":"waste_disposal"}},"type":"Feature"},
	{"geometry":{"coordinates":[48.264883,54.284087],"type":"Point"},"properties":{"osm_id":"5208872391","tag":{"amenity":"waste_basket"}},"type":"Feature"},
	{"geometry":{"coordinates":[48.264213,54.285885],"type":"Point"},"properties":{"osm_id":"5208872397","tag":{"amenity":"waste_disposal"}},"type":"Feature"},
	{"geometry":{"coordinates":[48.263029,54.286453],"type":"Point"},"properties":{"osm_id":"5208872400","tag":{"amenity":"waste_disposal"}},"type":"Feature"},
	{"geometry":{"coordinates":[48.268222,54.283865],"type":"Point"},"properties":{"osm_id":"5208873877","tag":{"amenity":"waste_disposal"}},"type":"Feature"},
	{"geometry":{"coordinates":[48.269257,54.283371],"type":"Point"},"properties":{"osm_id":"5208873878","tag":{"amenity":"waste_disposal"}},"type":"Feature"},
	{"geometry":{"coordinates":[48.270034,54.283001],"type":"Point"},"properties":{"osm_id":"5208873879","tag":{"amenity":"waste_disposal"}},"type":"Feature"},
	{"geometry":{"coordinates":[48.270879,54.282601],"type":"Point"},"properties":{"osm_id":"5208873880","tag":{"amenity":"waste_disposal"}},"type":"Feature"},
	{"geometry":{"coordinates":[48.27165,54.28223],"type":"Point"},"properties":{"osm_id":"5208873881","tag":{"amenity":"waste_disposal"}},"type":"Feature"},
	{"geometry":{"coordinates":[48.277662,54.281592],"type":"Point"},"properties":{"osm_id":"5208874330","tag":{"amenity":"waste_disposal"}},"type":"Feature"},
	{"geometry":{"coordinates":[48.32248,54.271037],"type":"Point"},"properties":{"osm_id":"5239701625","tag":{"amenity":"waste_basket"}},"type":"Feature"},
	{"geometry":{"coordinates":[48.322534,54.270994],"type":"Point"},"properties":{"osm_id":"5239701626","tag":{"amenity":"waste_basket"}},"type":"Feature"},
	{"geometry":{"coordinates":[48.322591,54.270949],"type":"Point"},"properties":{"osm_id":"5239701627","tag":{"amenity":"waste_basket"}},"type":"Feature"},
	{"geometry":{"coordinates":[48.322644,54.270906],"type":"Point"},"properties":{"osm_id":"5239701628","tag":{"amenity":"waste_basket"}},"type":"Feature"},
	{"geometry":{"coordinates":[48.322677,54.271124],"type":"Point"},"properties":{"osm_id":"5239701633","tag":{"amenity":"waste_basket"}},"type":"Feature"},
	{"geometry":{"coordinates":[48.322737,54.271077],"type":"Point"},"properties":{"osm_id":"5239701634","tag":{"amenity":"waste_basket"}},"type":"Feature"},
	{"geometry":{"coordinates":[48.322792,54.271033],"type":"Point"},"properties":{"osm_id":"5239701635","tag":{"amenity":"waste_basket"}},"type":"Feature"},
	{"geometry":{"coordinates":[48.322847,54.270992],"type":"Point"},"properties":{"osm_id":"5239701636","tag":{"amenity":"waste_basket"}},"type":"Feature"},
	{"geometry":{"coordinates":[48.286347,54.275216],"type":"Point"},"properties":{"osm_id":"5298139632","tag":{"amenity":"waste_disposal"}},"type":"Feature"},
	{"geometry":{"coordinates":[48.290088,54.275702],"type":"Point"},"properties":{"osm_id":"5298140200","tag":{"amenity":"waste_basket"}},"type":"Feature"},
	{"geometry":{"coordinates":[48.313555,54.284944],"type":"Point"},"properties":{"osm_id":"5382904418","tag":{"amenity":"waste_disposal"}},"type":"Feature"},
	{"geometry":{"coordinates":[48.284632,54.284572],"type":"Point"},"properties":{"osm_id":"5577854090","tag":{"amenity":"waste_disposal"}},"type":"Feature"},
	{"geometry":{"coordinates":[48.282284,54.286323],"type":"Point"},"properties":{"osm_id":"5618089798","tag":{"amenity":"waste_disposal"}},"type":"Feature"},
	{"geometry":{"coordinates":[48.284513,54.275263],"type":"Point"},"properties":{"osm_id":"5668476369","tag":{"amenity":"waste_disposal"}},"type":"Feature"},
	{"geometry":{"coordinates":[48.292135,54.280062],"type":"Point"},"properties":{"osm_id":"5886654732","tag":{"amenity":"waste_basket"}},"type":"Feature"},
	{"geometry":{"coordinates":[48.291972,54.280094],"type":"Point"},"properties":{"osm_id":"5886654735","tag":{"amenity":"waste_disposal"}},"type":"Feature"},
	{"geometry":{"coordinates":[48.288376,54.279266],"type":"Point"},"properties":{"osm_id":"5886654750","tag":{"amenity":"waste_basket"}},"type":"Feature"},
	{"geometry":{"coordinates":[48.289646,54.27655],"type":"Point"},"properties":{"osm_id":"5886654765","tag":{"amenity":"waste_disposal"}},"type":"Feature"},
	{"geometry":{"coordinates":[48.285807,54.267698],"type":"Point"},"properties":{"osm_id":"5894645140","tag":{"amenity":"waste_disposal"}},"type":"Feature"},
	{"geometry":{"coordinates":[48.290599,54.272701],"type":"Point"},"properties":{"osm_id":"5894952695","tag":{"amenity":"waste_disposal"}},"type":"Feature"},
	{"geometry":{"coordinates":[48.31818,54.299875],"type":"Point"},"properties":{"osm_id":"5906313579","tag":{"amenity":"waste_disposal"}},"type":"Feature"},
	{"geometry":{"coordinates":[48.332161,54.299602],"type":"Point"},"properties":{"osm_id":"5922549491","tag":{"amenity":"waste_disposal"}},"type":"Feature"},
	{"geometry":{"coordinates":[48.302826,54.286889],"type":"Point"},"properties":{"osm_id":"5964110892","tag":{"amenity":"waste_basket"}},"type":"Feature"},
	{"geometry":{"coordinates":[48.302766,54.286858],"type":"Point"},"properties":{"osm_id":"5964110893","tag":{"amenity":"waste_basket"}},"type":"Feature"},
	{"geometry":{"coordinates":[48.333895,54.271526],"type":"Point"},"properties":{"osm_id":"5983745818","tag":{"amenity":"waste_basket"}},"type":"Feature"},
	{"geometry":{"coordinates":[48.333829,54.271565],"type":"Point"},"properties":{"osm_id":"5983745819","tag":{"amenity":"waste_basket"}},"type":"Feature"},
	{"geometry":{"coordinates":[48.33387,54.271348],"type":"Point"},"properties":{"osm_id":"5983745827","tag":{"amenity":"waste_basket"}},"type":"Feature"},
	{"geometry":{"coordinates":[48.337576,54.273102],"type":"Point"},"properties":{"osm_id":"6467189458","tag":{"amenity":"recycling","recycling:plastic_bottles":"yes","recycling_type":"container"}},"type":"Feature"},
	{"geometry":{"coordinates":[48.308218,54.283027],"type":"Point"},"properties":{"osm_id":"6588273771","tag":{"amenity":"waste_disposal"}},"type":"Feature"},
	{"geometry":{"coordinates":[48.29086,54.27744],"type":"Point"},"properties":{"osm_id":"6592841805","tag":{"amenity":"waste_disposal"}},"type":"Feature"},
	{"geometry":{"coordinates":[48.281004,54.288707],"type":"Point"},"properties":{"osm_id":"6592947264","tag":{"amenity":"waste_disposal"}},"type":"Feature"},
	{"geometry":{"coordinates":[48.274935,54.281371],"type":"Point"},"properties":{"osm_id":"6719362918","tag":{"amenity":"waste_disposal"}},"type":"Feature"},
	{"geometry":{"coordinates":[48.316611,54.290067],"type":"Point"},"properties":{"osm_id":"6738001790","tag":{"amenity":"waste_disposal"}},"type":"Feature"},
	{"geometry":{"coordinates":[48.291773,54.285869],"type":"Point"},"properties":{"osm_id":"7028216468","tag":{"amenity":"waste_disposal"}},"type":"Feature"},
	{"geometry":{"coordinates":[48.284154,54.285588],"type":"Point"},"properties":{"osm_id":"7404875497","tag":{"amenity":"waste_disposal"}},"type":"Feature"},
	{"geometry":{"coordinates":[48.264098,54.280925],"type":"Point"},"properties":{"osm_id":"7751957553","tag":{"amenity":"waste_disposal"}},"type":"Feature"},
	{"geometry":{"coordinates":[48.280421,54.277284],"type":"Point"},"properties":{"osm_id":"7914226810","tag":{"amenity":"waste_disposal"}},"type":"Feature"},
	{"geometry":{"coordinates":[48.282799,54.272938],"type":"Point"},"properties":{"osm_id":"7914227049","tag":{"amenity":"waste_disposal"}},"type":"Feature"},
	{"geometry":{"coordinates":[48.290547,54.280432],"type":"Point"},"properties":{"osm_id":"7914227132","tag":{"amenity":"waste_basket"}},"type":"Feature"},
	{"geometry":{"coordinates":[48.290425,54.280461],"type":"Point"},"properties":{"osm_id":"7914227133","tag":{"amenity":"waste_basket"}},"type":"Feature"},
	{"geometry":{"coordinates":[48.290394,54.280439],"type":"Point"},"properties":{"osm_id":"7914227134","tag":{"amenity":"waste_basket"}},"type":"Feature"},
	{"geometry":{"coordinates":[48.327095,54.266248],"type":"Point"},"properties":{"osm_id":"7942996884","tag":{"amenity":"waste_disposal"}},"type":"Feature"},
	{"geometry":{"coordinates":[48.330455,54.271167],"type":"Point"},"properties":{"osm_id":"7943004701","tag":{"amenity":"waste_disposal"}},"type":"Feature"},
	{"geometry":{"coordinates":[48.329662,54.272237],"type":"Point"},"properties":{"osm_id":"7943004711","tag":{"amenity":"waste_disposal"}},"type":"Feature"},
	{"geometry":{"coordinates":[48.328572,54.273902],"type":"Point"},"properties":{"osm_id":"7943004716","tag":{"amenity":"waste_disposal"}},"type":"Feature"},
	{"geometry":{"coordinates":[48.328563,54.273624],"type":"Point"},"properties":{"osm_id":"7943004728","tag":{"amenity":"waste_basket"}},"type":"Feature"},
	{"geometry":{"coordinates":[48.328585,54.273672],"type":"Point"},"properties":{"osm_id":"7943004730","tag":{"amenity":"waste_basket"}},"type":"Feature"},
	{"geometry":{"coordinates":[48.285264,54.279157],"type":"Point"},"properties":{"osm_id":"7947404696","tag":{"amenity":"waste_disposal"}},"type":"Feature"}
]
}
