{
"type": "FeatureCollection",
"features": [
	{"geometry":{"coordinates":[48.324249,54.257924],"type":"Point"},"properties":{"osm_id":"2436578394","tag":{"amenity":"waste_disposal"}},"type":"Feature"},
	{"geometry":{"coordinates":[48.327166,54.261551],"type":"Point"},"properties":{"osm_id":"2436578509","tag":{"amenity":"waste_disposal"}},"type":"Feature"},
	{"geometry":{"coordinates":[48.326247,54.262706],"type":"Point"},"properties":{"osm_id":"2436578555","tag":{"amenity":"waste_disposal"}},"type":"Feature"},
	{"geometry":{"coordinates":[48.321059,54.260133],"type":"Point"},"properties":{"osm_id":"2823982781","tag":{"amenity":"waste_disposal"}},"type":"Feature"},
	{"geometry":{"coordinates":[48.32554,54.259521],"type":"Point"},"properties":{"osm_id":"2977168291","tag":{"amenity":"waste_disposal"}},"type":"Feature"},
	{"geometry":{"coordinates":[48.32523,54.255964],"type":"Point"},"properties":{"osm_id":"2985516424","tag":{"amenity":"waste_disposal"}},"type":"Feature"},
	{"geometry":{"coordinates":[48.336175,54.253096],"type":"Point"},"properties":{"osm_id":"2989077152","tag":{"amenity":"waste_disposal"}},"type":"Feature"},
	{"geometry":{"coordinates":[48.328662,54.259377],"type":"Point"},"properties":{"osm_id":"3031262890","tag":{"amenity":"waste_disposal"}},"type":"Feature"},
	{"geometry":{"coordinates":[48.324172,54.259901],"type":"Point"},"properties":{"osm_id":"3063204019","tag":{"amenity":"waste_basket"}},"type":"Feature"},
	{"geometry":{"coordinates":[48.324026,54.259935],"type":"Point"},"properties":{"osm_id":"3063204023","tag":{"amenity":"waste_basket"}},"type":"Feature"},
	{"geometry":{"coordinates":[48.331292,54.257539],"type":"Point"},"properties":{"osm_id":"3069729652","tag":{"amenity":"waste_disposal"}},"type":"Feature"},
	{"geometry":{"coordinates":[48.332613,54.261109],"type":"Point"},"properties":{"osm_id":"3079618141","tag":{"amenity":"waste_disposal"}},"type":"Feature"},
	{"geometry":{"coordinates":[48.333251,54.262389],"type":"Point"},"properties":{"osm_id":"3174831372","tag":{"amenity":"waste_disposal"}},"type":"Feature"},
	{"geometry":{"coordinates":[48.285634,54.259799],"type":"Point"},"properties":{"osm_id":"3193263793","tag":{"amenity":"waste_disposal"}},"type":"Feature"},
	{"geometry":{"coordinates":[48.282482,54.259862],"type":"Point"},"properties":{"osm_id":"3195408314","tag":{"amenity":"waste_disposal"}},"type":"Feature"},
	{"geometry":{"coordinates":[48.279527,54.260224],"type":"Point"},"properties":{"osm_id":"3195408379","tag":{"amenity":"waste_disposal"}},"type":"Feature"},
	{"geometry":{"coordinates":[48.322608,54.252847],"type":"Point"},"properties":{"osm_id":"3298096141","tag":{"amenity":"waste_disposal"}},"type":"Feature"},
	{"geometry":{"coordinates":[48.319284,54.25414],"type":"Point"},"properties":{"osm_id":"3298096861","tag":{"amenity":"waste_disposal"}},"type":"Feature"},
	{"geometry":{"coordinates":[48.323918,54.251223],"type":"Point"},"properties":{"osm_id":"3347296962","tag":{"amenity":"waste_disposal"}},"type":"Feature"},
	{"geometry":{"coordinates":[48.307262,54.258238],"type":"Point"},"properties":{"osm_id":"3377938641","tag":{"amenity":"waste_disposal"}},"type":"Feature"},
	{"geometry":{"coordinates":[48.336343,54.25701],"type":"Point"},"properties":{"osm_id":"3594062726","tag":{"amenity":"waste_disposal"}},"type":"Feature"},
	{"geometry":{"coordinates":[48.337802,54.251115],"type":"Point"},"properties":{"osm_id":"3599320796","tag":{"amenity":"waste_disposal"}},"type":"Feature"},
	{"geometry":{"coordinates":[48.30491,54.242514],"type":"Point"},"properties":{"osm_id":"3657785994","tag":{"amenity":"waste_disposal"}},"type":"Feature"},
	{"geometry":{"coordinates":[48.305978,54.24508],"type":"Point"},"properties":{"osm_id":"3657787316","tag":{"amenity":"waste_disposal"}},"type":"Feature"},
	{"geometry":{"coordinates":[48.306801,54.247498],"type":"Point"},"properties":{"osm_id":"3657787725","tag":{"amenity":"waste_disposal"}},"type":"Feature"},
	{"geometry":{"coordinates":[48.310025,54.249076],"type":"Point"},"properties":{"osm_id":"3657787890","tag":{"amenity":"waste_disposal"}},"type":"Feature"},
	{"geometry":{"coordinates":[48.301892,54.234832],"type":"Point"},"properties":{"osm_id":"3761387499","tag":{"amenity":"waste_disposal"}},"type":"Feature"},
	{"geometry":{"coordinates":[48.312574,54.250539],"type":"Point"},"properties":{"osm_id":"3761388029","tag":{"amenity":"waste_disposal"}},"type":"Feature"},
	{"geometry":{"coordinates":[48.290681,54.259647],"type":"Point"},"properties":{"osm_id":"3798047843","tag":{"amenity":"waste_disposal"}},"type":"Feature"},
	{"geometry":{"coordinates":[48.293164,54.261022],"type":"Point"},"properties":{"osm_id":"3798050488","tag":{"amenity":"waste_disposal"}},"type":"Feature"},
	{"geometry":{"coordinates":[48.288819,54.255118],"type":"Point"},"properties":{"osm_id":"3798077422","tag":{"amenity":"waste_disposal"}},"type":"Feature"},
	{"geometry":{"coordinates":[48.284317,54.251464],"type":"Point"},"properties":{"osm_id":"3798741937","tag":{"amenity":"waste_disposal"}},"type":"Feature"},
	{"geometry":{"coordinates":[48.287947,54.251568],"type":"Point"},"properties":{"osm_id":"3798741952","tag":{"amenity":"waste_disposal"}},"type":"Feature"},
	{"geometry":{"coordinates":[48.281139,54.252783],"type":"Point"},"properties":{"osm_id":"3799936019","tag":{"amenity":"waste_disposal"}},"type":"Feature"},
	{"geometry":{"coordinates":[48.278663,54.253628],"type":"Point"},"properties":{"osm_id":"3804263262","tag":{"amenity":"waste_disposal"}},"type":"Feature"},
	{"geometry":{"coordinates":[48.266169,54.251817],"type":"Point"},"properties":{"osm_id":"3811147411","tag":{"amenity":"waste_disposal"}},"type":"Feature"},
	{"geometry":{"coordinates":[48.277794,54.259298],"type":"Point"},"properties":{"osm_id":"3811219722","tag":{"amenity":"waste_disposal"}},"type":"Feature"},
	{"geometry":{"coordinates":[48.286254,54.261553],"type":"Point"},"properties":{"osm_id":"3811219831","tag":{"amenity":"waste_disposal"}},"type":"Feature"},
	{"geometry":{"coordinates":[48.283132,54.262581],"type":"Point"},"properties":{"osm_id":"3811219865","tag":{"amenity":"waste_disposal"}},"type":"Feature"},
	{"geometry":{"coordinates":[48.32831,54.264397],"type":"Point"},"properties":{"osm_id":"3812384878","tag":{"amenity":"waste_disposal"}},"type":"Feature"},
	{"geometry":{"coordinates":[48.330532,54.263678],"type":"Point"},"properties":{"osm_id":"3881716195","tag":{"amenity":"waste_basket"}},"type":"Feature"},
	{"geometry":{"coordinates":[48.329549,54.264846],"type":"Point"},"properties":{"osm_id":"3881716197","tag":{"amenity":"waste_disposal"}},"type":"Feature"},
	{"geometry":{"coordinates":[48.296605,54.224458],"type":"Point"},"properties":{"osm_id":"3923447731","tag":{"amenity":"waste_disposal"}},"type":"Feature"},
	{"geometry":{"coordinates":[48.328676,54.247494],"type":"Point"},"properties":{"osm_id":"3931034794","tag":{"amenity":"waste_disposal"}},"type":"Feature"},
	{"geometry":{"coordinates":[48.324594,54.250033],"type":"Point"},"properties":{"osm_id":"3931034823","tag":{"amenity":"waste_disposal"}},"type":"Feature"},
	{"geometry":{"coordinates":[48.327195,54.253343],"type":"Point"},"properties":{"osm_id":"3931034849","tag":{"amenity":"waste_disposal"}},"type":"Feature"},
	{"geometry":{"coordinates":[48.323542,54.256397],"type":"Point"},"properties":{"osm_id":"3931137255","tag":{"amenity":"waste_disposal"}},"type":"Feature"},
	{"geometry":{"coordinates":[48.288957,54.259287],"type":"Point"},"properties":{"osm_id":"4060652303","tag":{"amenity":"waste_disposal"}},"type":"Feature"},
	{"geometry":{"coordinates":[48.290136,54.262718],"type":"Point"},"properties":{"osm_id":"4060652420","tag":{"amenity":"waste_disposal"}},"type":"Feature"},
	{"geometry":{"coordinates":[48.339516,54.254259],"type":"Point"},"properties":{"osm_id":"4069767204","tag":{"amenity":"waste_disposal"}},"type":"Feature"},
	{"geometry":{"coordinates":[48.339461,54.2569],"type":"Point"},"properties":{"osm_id":"4069772301","tag":{"amenity":"waste_disposal"}},"type":"Feature"},
	{"geometry":{"coordinates":[48.338471,54.258072],"type":"Point"},"properties":{"osm_id":"4069772307","tag":{"amenity":"waste_disposal"}},"type":"Feature"},
	{"geometry":{"coordinates":[48.294811,54.22744],"type":"Point"},"properties":{"osm_id":"4161120862","tag":{"amenity":"waste_disposal"}},"type":"Feature"},
	{"geometry":{"coordinates":[48.294551,54.223314],"type":"Point"},"properties":{"osm_id":"4161332847","tag":{"amenity":"waste_disposal"}},"type":"Feature"},
	{"geometry":{"coordinates":[48.294589,54.216595],"type":"Point"},"properties":{"osm_id":"4161509898","tag":{"amenity":"waste_disposal"}},"type":"Feature"},
	{"geometry":{"coordinates":[48.292566,54.223925],"type":"Point"},"properties":{"osm_id":"4161510251","tag":{"amenity":"waste_disposal"}},"type":"Feature"},
	{"geometry":{"coordinates":[48.333816,54.261995],"type":"Point"},"properties":{"osm_id":"4209735649","tag":{"amenity":"waste_basket"}},"type":"Feature"},
	{"geometry":{"coordinates":[48.333821,54.262092],"type":"Point"},"properties":{"osm_id":"4209735657","tag":{"amenity":"waste_basket"}},"type":"Feature"},
	{"geometry":{"coordinates":[48.326418,54.263332],"type":"Point"},"properties":{"osm_id":"4209735665","tag":{"amenity":"waste_basket"}},"type":"Feature"},
	{"geometry":{"coordinates":[48.326298,54.263366],"type":"Point"},"properties":{"osm_id":"4209735668","tag":{"amenity":"waste_basket"}},"type":"Feature"},
	{"geometry":{"coordinates":[48.326211,54.263385],"type":"Point"},"properties":{"osm_id":"4209735671","tag":{"amenity":"waste_basket"}},"type":"Feature"},
	{"geometry":{"coordinates":[48.326141,54.263406],"type":"Point"},"properties":{"osm_id":"4209735673","tag":{"amenity":"waste_basket"}},"type":"Feature"},
	{"geometry":{"coordinates":[48.326769,54.263469],"type":"Point"},"properties":{"osm_id":"4209735677","tag":{"amenity":"waste_basket"}},"type":"Feature"},
	{"geometry":{"coordinates":[48.326699,54.263487],"type":"Point"},"properties":{"osm_id":"4209735679","tag":{"amenity":"waste_basket"}},"type":"Feature"},
	{"geometry":{"coordinates":[48.3265,54.263561],"type":"Point"},"properties":{"osm_id":"4209735681","tag":{"amenity":"waste_basket"}},"type":"Feature"},
	{"geometry":{"coordinates":[48.326408,54.263583],"type":"Point"},"properties":{"osm_id":"4209735683","tag":{"amenity":"waste_basket"}},"type":"Feature"},
	{"geometry":{"coordinates":[48.320084,54.258442],"type":"Point"},"properties":{"osm_id":"4314949944","tag":{"amenity":"waste_basket"}},"type":"Feature"},
	{"geometry":{"coordinates":[48.320021,54.25851],"type":"Point"},"properties":{"osm_id":"4314949954","tag":{"amenity":"waste_basket"}},"type":"Feature"},
	{"geometry":{"coordinates":[48.318925,54.258648],"type":"Point"},"properties":{"osm_id":"4314949966","tag":{"amenity":"waste_disposal"}},"type":"Feature"},
	{"geometry":{"coordinates":[48.319868,54.255019],"type":"Point"},"properties":{"osm_id":"4316723273","tag":{"amenity":"waste_disposal"}},"type":"Feature"},
	{"geometry":{"coordinates":[48.32195,54.256992],"type":"Point"},"properties":{"osm_id":"4316723287","tag":{"amenity":"waste_disposal"}},"type":"Feature"},
	{"geometry":{"coordinates":[48.336441,54.25425],"type":"Point"},"properties":{"osm_id":"4340018283","tag":{"amenity":"waste_disposal"}},"type":"Feature"},
	{"geometry":{"coordinates":[48.327637,54.257771],"type":"Point"},"properties":{"osm_id":"4387509886","tag":{"amenity":"waste_disposal"}},"type":"Feature"},
	{"geometry":{"coordinates":[48.329551,54.260177],"type":"Point"},"properties":{"osm_id":"4387565011","tag":{"amenity":"waste_disposal"}},"type":"Feature"},
	{"geometry":{"coordinates":[48.331813,54.260191],"type":"Point"},"properties":{"osm_id":"4387565057","tag":{"amenity":"waste_disposal"}},"type":"Feature"},
	{"geometry":{"coordinates":[48.332841,54.254217],"type":"Point"},"properties":{"osm_id":"4389392877","tag":{"amenity":"waste_disposal"}},"type":"Feature"},
	{"geometry":{"coordinates":[48.32831,54.25199],"type":"Point"},"properties":{"osm_id":"4389393251","tag":{"amenity":"waste_disposal"}},"type":"Feature"},
	{"geometry":{"coordinates":[48.326326,54.252157],"type":"Point"},"properties":{"osm_id":"4389457214","tag":{"amenity":"waste_disposal"}},"type":"Feature"},
	{"geometry":{"coordinates":[48.321215,54.255266],"type":"Point"},"properties":{"osm_id":"4389457350","tag":{"amenity":"waste_disposal"}},"type":"Feature"},
	{"geometry":{"coordinates":[48.32775,54.25474],"type":"Point"},"properties":{"osm_id":"4389457376","tag":{"amenity":"waste_disposal"}},"type":"Feature"},
	{"geometry":{"coordinates":[48.323324,54.262326],"type":"Point"},"properties":{"osm_id":"4425365409","tag":{"amenity":"waste_disposal"}},"type":"Feature"},
	{"geometry":{"coordinates":[48.336301,54.261503],"type":"Point"},"properties":{"osm_id":"4425398920","tag":{"amenity":"waste_disposal"}},"type":"Feature"},
	{"geometry":{"coordinates":[48.337945,54.261728],"type":"Point"},"properties":{"osm_id":"4425398943","tag":{"amenity":"waste_disposal"}},"type":"Feature"},
	{"geometry":{"coordinates":[48.336343,54.259712],"type":"Point"},"properties":{"osm_id":"4425399158","tag":{"amenity":"waste_disposal"}},"type":"Feature"},
	{"geometry":{"coordinates":[48.339825,54.259899],"type":"Point"},"properties":{"osm_id":"4425459938","tag":{"amenity":"waste_disposal"}},"type":"Feature"},
	{"geometry":{"coordinates":[48.30946,54.255421],"type":"Point"},"properties":{"osm_id":"4439296741","tag":{"amenity":"waste_disposal"}},"type":"Feature"},
	{"geometry":{"coordinates":[48.306205,54.255859],"type":"Point"},"properties":{"osm_id":"4439296903","tag":{"amenity":"waste_disposal"}},"type":"Feature"},
	{"geometry":{"coordinates":[48.305645,54.253482],"type":"Point"},"properties":{"osm_id":"4439364898","tag":{"amenity":"waste_disposal"}},"type":"Feature"},
	{"geometry":{"coordinates":[48.30331,54.252247],"type":"Point"},"properties":{"osm_id":"4439364966","tag":{"amenity":"waste_disposal"}},"type":"Feature"},
	{"geometry":{"coordinates":[48.33901,54.263301],"type":"Point"},"properties":{"osm_id":"4440835413","tag":{"amenity":"waste_disposal"}},"type":"Feature"},
	{"geometry":{"coordinates":[48.33728,54.264456],"type":"Point"},"properties":{"osm_id":"4440835439","tag":{"amenity":"waste_disposal"}},"type":"Feature"},
	{"geometry":{"coordinates":[48.339117,54.26519],"type":"Point"},"properties":{"osm_id":"4440835501","tag":{"amenity":"waste_disposal"}},"type":"Feature"},
	{"geometry":{"coordinates":[48.317394,54.262954],"type":"Point"},"properties":{"osm_id":"4575828679","tag":{"amenity":"waste_disposal"}},"type":"Feature"},
	{"geometry":{"coordinates":[48.303427,54.255132],"type":"Point"},"properties":{"osm_id":"4827101596","tag":{"amenity":"waste_disposal"}},"type":"Feature"},
	{"geometry":{"coordinates":[48.329516,54.263417],"type":"Point"},"properties":{"osm_id":"4859069073","tag":{"amenity":"waste_basket"}},"type":"Feature"},
	{"geometry":{"coordinates":[48.261239,54.244257],"type":"Point"},"properties":{"osm_id":"4874799088","tag":{"amenity":"waste_disposal"}},"type":"Feature"},
	{"geometry":{"coordinates":[48.322777,54.25923],"type":"Point"},"properties":{"osm_id":"4896487924","tag":{"amenity":"waste_basket"}},"type":"Feature"},
	{"geometry":{"coordinates":[48.322769,54.25922],"type":"Point"},"properties":{"osm_id":"4896487925","tag":{"amenity":"waste_basket"}},"type":"Feature"},
	{"geometry":{"coordinates":[48.276619,54.26083],"type":"Point"},"properties":{"osm_id":"5020692160","tag":{"amenity":"waste_disposal"}},"type":"Feature"},
	{"geometry":{"coordinates":[48.277811,54.264787],"type":"Point"},"properties":{"osm_id":"5020692232","tag":{"amenity":"waste_disposal"}},"type":"Feature"},
	{"geometry":{"coordinates":[48.275746,54.263765],"type":"Point"},"properties":{"osm_id":"5020692250","tag":{"amenity":"waste_disposal"}},"type":"Feature"},
	{"geometry":{"coordinates":[48.298584,54.216177],"type":"Point"},"properties":{"osm_id":"5032992217","tag":{"amenity":"waste_disposal"}},"type":"Feature"},
	{"geometry":{"coordinates":[48.292226,54.220135],"type":"Point"},"properties":{"osm_id":"5032992318","tag":{"amenity":"waste_disposal"}},"type":"Feature"},
	{"geometry":{"coordinates":[48.277351,54.260248],"type":"Point"},"properties":{"osm_id":"5039810938","tag":{"amenity":"waste_disposal"}},"type":"Feature"},
	{"geometry":{"coordinates":[48.320951,54.258456],"type":"Point"},"properties":{"osm_id":"5160508756","tag":{"amenity":"recycling","operator":"\u00d0\u00a1\u00d0\u00b8\u00d0\u00bc\u00d0\u00b1\u00d0\u00b8\u00d1\u0080\u00d1\u0081\u00d0\u00ba\u00d0\u0092\u00d1\u0082\u00d0\u00be\u00d1\u0080\u00d0\u00a0\u00d0\u00b5\u00d1\u0081\u00d1\u0083\u00d1\u0080\u00d1\u0081","recycling:batteries":"yes","recycling:white_goods":"yes","recycling_type":"centre"}},"type":"Feature"},
	{"geometry":{"coordinates":[48.326683,54.263361],"type":"Point"},"properties":{"osm_id":"5428579661","tag":{"amenity":"waste_basket"}},"type":"Feature"},
	{"geometry":{"coordinates":[48.326618,54.26338],"type":"Point"},"properties":{"osm_id":"5428579662","tag":{"amenity":"waste_basket"}},"type":"Feature"},
	{"geometry":{"coordinates":[48.326392,54.263419],"type":"Point"},"properties":{"osm_id":"5428579663","tag":{"amenity":"waste_basket"}},"type":"Feature"},
	{"geometry":{"coordinates":[48.326315,54.263439],"type":"Point"},"properties":{"osm_id":"5428579664","tag":{"amenity":"waste_basket"}},"type":"Feature"},
	{"geometry":{"coordinates":[48.310563,54.25405],"type":"Point"},"properties":{"osm_id":"5440406834","tag":{"amenity":"waste_disposal"}},"type":"Feature"},
	{"geometry":{"coordinates":[48.325944,54.251608],"type":"Point"},"properties":{"osm_id":"5920252163","tag":{"amenity":"waste_disposal"}},"type":"Feature"},
	{"geometry":{"coordinates":[48.324411,54.262305],"type":"Point"},"properties":{"osm_id":"5983746063","tag":{"amenity":"waste_basket"}},"type":"Feature"},
	{"geometry":{"coordinates":[48.325576,54.259564],"type":"Point"},"properties":{"osm_id":"6589722425","tag":{"amenity":"recycling","recycling:plastic":"yes","recycling_type":"container"}},"type":"Feature"},
	{"geometry":{"coordinates":[48.321161,54.258262],"type":"Point"},"properties":{"osm_id":"6589722434","tag":{"amenity":"waste_basket"}},"type":"Feature"},
	{"geometry":{"coordinates":[48.321598,54.219654],"type":"Point"},"properties":{"osm_id":"6712628646","tag":{"amenity":"waste_disposal"}},"type":"Feature"},
	{"geometry":{"coordinates":[48.323746,54.256133],"type":"Point"},"properties":{"osm_id":"6867449461","tag":{"amenity":"waste_disposal"}},"type":"Feature"},
	{"geometry":{"coordinates":[48.325532,54.261452],"type":"Point"},"properties":{"osm_id":"7638460090","tag":{"amenity":"waste_basket"}},"type":"Feature"},
	{"geometry":{"coordinates":[48.325739,54.26173],"type":"Point"},"properties":{"osm_id":"7638460091","tag":{"amenity":"waste_basket"}},"type":"Feature"},
	{"geometry":{"coordinates":[48.325946,54.261822],"type":"Point"},"properties":{"osm_id":"7638460095","tag":{"amenity":"waste_disposal"}},"type":"Feature"},
	{"geometry":{"coordinates":[48.325882,54.264732],"type":"Point"},"properties":{"osm_id":"7942996883","tag":{"amenity":"waste_disposal"}},"type":"Feature"}
]
}
