{
"type": "FeatureCollection",
"features": [
	{"geometry":{"coordinates":[48.29364,42.084117],"type":"Point"},"properties":{"osm_id":"5840262259","tag":{"addr:street":"\u0443\u043b\u0438\u0446\u0430 \u0425\u0430\u043d\u0434\u0430\u0434\u0430\u0448\u0430 \u0422\u0430\u0433\u0438\u0435\u0432\u0430","amenity":"waste_disposal"}},"type":"Feature"},
	{"geometry":{"coordinates":[48.293525,42.084602],"type":"Point"},"properties":{"osm_id":"5840267354","tag":{"addr:street":"\u0443\u043b\u0438\u0446\u0430 \u0425\u0430\u043d\u0434\u0430\u0434\u0430\u0448\u0430 \u0422\u0430\u0433\u0438\u0435\u0432\u0430","amenity":"waste_disposal"}},"type":"Feature"},
	{"geometry":{"coordinates":[48.293075,42.086246],"type":"Point"},"properties":{"osm_id":"5840272440","tag":{"addr:street":"\u0443\u043b\u0438\u0446\u0430 \u0425\u0430\u043d\u0434\u0430\u0434\u0430\u0448\u0430 \u0422\u0430\u0433\u0438\u0435\u0432\u0430","amenity":"waste_disposal"}},"type":"Feature"},
	{"geometry":{"coordinates":[48.289669,42.072464],"type":"Point"},"properties":{"osm_id":"6814124490","tag":{"amenity":"waste_disposal"}},"type":"Feature"}
]
}
