{
"type": "FeatureCollection",
"features": [
	{"geometry":{"coordinates":[31.580767,3.429592],"type":"Point"},"properties":{"name":"Kali hills sendonary school ravish pit.","osm_id":"5772350830","tag":{"addr:block":"Kali village","addr:district":"Moyo","addr:settlement":"Palorinya","addr:zone":"Zone_02","amenity":"waste_disposal","fee":"no","lit":"no","operator:type":"community","source:version":"Sanitation;v3.0.2","start_date":"2017-09-01","waste":"Rabush pit"}},"type":"Feature"},
	{"geometry":{"coordinates":[31.580208,3.42999],"type":"Point"},"properties":{"name":"Waste bin","osm_id":"5772350837","tag":{"addr:block":"Tank 8","addr:district":"Moyo","addr:settlement":"Palorinya","addr:zone":"Zone_02","amenity":"waste_disposal","fee":"yes","lit":"no","operator":"LWF","operator:type":"ngo","source:version":"Sanitation;v3.0.2","start_date":"2017-10-01","waste":"Food items like tomatoes, cabbages, greens,"}},"type":"Feature"},
	{"geometry":{"coordinates":[31.571757,3.426178],"type":"Point"},"properties":{"name":"Morobi primary school","osm_id":"5772350844","tag":{"addr:block":"Morobi primary school","addr:district":"Moyo","addr:settlement":"Palorinya","addr:zone":"Zone_02","amenity":"waste_basket","fee":"no","lit":"no","operator":"LWF","operator:type":"ngo","source:version":"Sanitation;v3.0.2","start_date":"2017-06-01","waste":"Plastic wheel basket"}},"type":"Feature"},
	{"geometry":{"coordinates":[31.578293,3.433082],"type":"Point"},"properties":{"name":"Morobi market waste disposal side","osm_id":"5772350852","tag":{"addr:block":"Morobi market waste disposal side","addr:district":"Moyo","addr:settlement":"Palorinya","addr:zone":"Zone_02","amenity":"waste_disposal","fee":"yes","lit":"no","operator:type":"community","source:version":"Sanitation;v3.0.2","start_date":"2017-06-01","waste":"Round deep hole"}},"type":"Feature"},
	{"geometry":{"coordinates":[31.578295,3.430148],"type":"Point"},"properties":{"name":"Morobi market zone II","osm_id":"5772353153","tag":{"addr:block":"Morobi market zone II","addr:district":"Moyo","addr:settlement":"Palorinya","addr:zone":"Zone_02","amenity":"waste_basket","fee":"yes","lit":"yes","lit_operational":"yes","operator":"LWF","operator:type":"ngo","source:version":"Sanitation;v3.0.2","start_date":"2018-03-01","waste":"Plastic well roll basket"}},"type":"Feature"},
	{"geometry":{"coordinates":[31.580175,3.429868],"type":"Point"},"properties":{"name":"Jayo sigma","osm_id":"5772353156","tag":{"addr:block":"Moroni market","addr:district":"Moyo","addr:settlement":"Palorinya","addr:zone":"Zone_02","amenity":"waste_disposal","fee":"no","lit":"no","operator":"LWF","operator:type":"ngo","source:version":"Sanitation;v3.0.2","start_date":"2018-03-01","waste":"Wasted mangoes"}},"type":"Feature"}
]
}
