{
"type": "FeatureCollection",
"features": [
	{"geometry":{"coordinates":[19.93872,52.100789],"type":"Point"},"properties":{"osm_id":"1244078094","tag":{"amenity":"waste_disposal"}},"type":"Feature"},
	{"geometry":{"coordinates":[19.93874,52.100815],"type":"Point"},"properties":{"osm_id":"1244078122","tag":{"amenity":"waste_disposal"}},"type":"Feature"},
	{"geometry":{"coordinates":[19.938984,52.104458],"type":"Point"},"properties":{"osm_id":"1428139188","tag":{"amenity":"waste_basket"}},"type":"Feature"},
	{"geometry":{"coordinates":[19.939106,52.104509],"type":"Point"},"properties":{"osm_id":"1428139190","tag":{"amenity":"waste_basket"}},"type":"Feature"},
	{"geometry":{"coordinates":[19.939227,52.104558],"type":"Point"},"properties":{"osm_id":"1428139192","tag":{"amenity":"waste_basket"}},"type":"Feature"},
	{"geometry":{"coordinates":[19.938153,52.103879],"type":"Point"},"properties":{"osm_id":"1445515431","tag":{"amenity":"waste_basket"}},"type":"Feature"},
	{"geometry":{"coordinates":[19.934519,52.104487],"type":"Point"},"properties":{"osm_id":"1445515437","tag":{"amenity":"waste_basket"}},"type":"Feature"},
	{"geometry":{"coordinates":[19.938856,52.104781],"type":"Point"},"properties":{"osm_id":"1445515440","tag":{"amenity":"waste_basket"}},"type":"Feature"},
	{"geometry":{"coordinates":[19.935935,52.105204],"type":"Point"},"properties":{"osm_id":"1445515447","tag":{"amenity":"waste_basket"}},"type":"Feature"},
	{"geometry":{"coordinates":[19.935816,52.105261],"type":"Point"},"properties":{"osm_id":"1445515449","tag":{"amenity":"waste_basket"}},"type":"Feature"},
	{"geometry":{"coordinates":[19.945056,52.102046],"type":"Point"},"properties":{"osm_id":"1447249384","tag":{"amenity":"waste_basket"}},"type":"Feature"},
	{"geometry":{"coordinates":[19.944778,52.102079],"type":"Point"},"properties":{"osm_id":"1447249392","tag":{"amenity":"waste_basket"}},"type":"Feature"},
	{"geometry":{"coordinates":[19.928151,52.102721],"type":"Point"},"properties":{"osm_id":"1529998310","tag":{"amenity":"waste_basket"}},"type":"Feature"},
	{"geometry":{"coordinates":[19.92744,52.102876],"type":"Point"},"properties":{"osm_id":"1529998313","tag":{"amenity":"waste_basket"}},"type":"Feature"},
	{"geometry":{"coordinates":[19.922634,52.103002],"type":"Point"},"properties":{"osm_id":"1529998316","tag":{"amenity":"waste_basket"}},"type":"Feature"},
	{"geometry":{"coordinates":[19.926417,52.103098],"type":"Point"},"properties":{"osm_id":"1529998317","tag":{"amenity":"waste_basket"}},"type":"Feature"},
	{"geometry":{"coordinates":[19.92263,52.10311],"type":"Point"},"properties":{"osm_id":"1529998318","tag":{"amenity":"waste_basket"}},"type":"Feature"},
	{"geometry":{"coordinates":[19.925081,52.103148],"type":"Point"},"properties":{"osm_id":"1529998319","tag":{"amenity":"waste_basket"}},"type":"Feature"},
	{"geometry":{"coordinates":[19.922869,52.104671],"type":"Point"},"properties":{"osm_id":"1529998336","tag":{"amenity":"waste_basket"}},"type":"Feature"},
	{"geometry":{"coordinates":[19.926811,52.104713],"type":"Point"},"properties":{"osm_id":"1566026090","tag":{"amenity":"waste_basket"}},"type":"Feature"},
	{"geometry":{"coordinates":[19.942656,52.095034],"type":"Point"},"properties":{"osm_id":"1570144456","tag":{"amenity":"waste_basket"}},"type":"Feature"},
	{"geometry":{"coordinates":[19.938172,52.095526],"type":"Point"},"properties":{"osm_id":"1570144470","tag":{"amenity":"waste_basket"}},"type":"Feature"},
	{"geometry":{"coordinates":[19.94574,52.102432],"type":"Point"},"properties":{"barrier":"gate","osm_id":"2494948798"},"type":"Feature"},
	{"geometry":{"coordinates":[19.946011,52.103167],"type":"Point"},"properties":{"barrier":"gate","osm_id":"2494948818"},"type":"Feature"},
	{"geometry":{"coordinates":[19.919071,52.100956],"type":"Point"},"properties":{"osm_id":"2498852084","tag":{"amenity":"waste_disposal"}},"type":"Feature"},
	{"geometry":{"coordinates":[19.921816,52.101217],"type":"Point"},"properties":{"osm_id":"2498852099","tag":{"amenity":"waste_disposal","capacity":"2"}},"type":"Feature"},
	{"geometry":{"coordinates":[19.921924,52.102452],"type":"Point"},"properties":{"osm_id":"2498852126","tag":{"amenity":"waste_disposal"}},"type":"Feature"},
	{"geometry":{"coordinates":[19.933645,52.102967],"type":"Point"},"properties":{"osm_id":"2761486695","tag":{"amenity":"waste_basket"}},"type":"Feature"},
	{"geometry":{"coordinates":[19.933702,52.103051],"type":"Point"},"properties":{"osm_id":"2761486790","tag":{"amenity":"waste_basket"}},"type":"Feature"},
	{"geometry":{"coordinates":[19.94785,52.105549],"type":"Point"},"properties":{"osm_id":"2761749957","tag":{"amenity":"waste_basket"}},"type":"Feature"},
	{"geometry":{"coordinates":[19.948082,52.105566],"type":"Point"},"properties":{"osm_id":"2761749996","tag":{"amenity":"waste_basket"}},"type":"Feature"},
	{"geometry":{"coordinates":[19.947606,52.105624],"type":"Point"},"properties":{"osm_id":"2761750033","tag":{"amenity":"waste_basket"}},"type":"Feature"},
	{"geometry":{"coordinates":[19.946982,52.105645],"type":"Point"},"properties":{"osm_id":"2761750058","tag":{"amenity":"waste_basket"}},"type":"Feature"},
	{"geometry":{"coordinates":[19.947676,52.105684],"type":"Point"},"properties":{"osm_id":"2761750090","tag":{"amenity":"waste_basket"}},"type":"Feature"},
	{"geometry":{"coordinates":[19.947836,52.105736],"type":"Point"},"properties":{"osm_id":"2761750127","tag":{"amenity":"waste_basket"}},"type":"Feature"},
	{"geometry":{"coordinates":[19.947381,52.105737],"type":"Point"},"properties":{"osm_id":"2761750163","tag":{"amenity":"waste_basket"}},"type":"Feature"},
	{"geometry":{"coordinates":[19.947277,52.105794],"type":"Point"},"properties":{"osm_id":"2761750247","tag":{"amenity":"waste_basket"}},"type":"Feature"},
	{"geometry":{"coordinates":[19.924841,52.099295],"type":"Point"},"properties":{"osm_id":"2798015415","tag":{"amenity":"waste_disposal"}},"type":"Feature"},
	{"geometry":{"coordinates":[19.927266,52.099742],"type":"Point"},"properties":{"osm_id":"3296568466","tag":{"amenity":"waste_disposal"}},"type":"Feature"}
]
}
