{
"type": "FeatureCollection",
"features": [
	{"geometry":{"coordinates":[19.906266,46.365671],"type":"Point"},"properties":{"osm_id":"5906752274","tag":{"amenity":"recycling","description":"Forr\u00c3\u00a1sk\u00c3\u00bat, Pet\u00c5\u0091fi S\u00c3\u00a1ndor utca","operator":"Szegedi Hullad\u00c3\u00a9kgazd\u00c3\u00a1lkod\u00c3\u00a1si Nonprofit Kft.","recycling_type":"container"}},"type":"Feature"},
	{"geometry":{"coordinates":[19.921393,46.32199],"type":"Point"},"properties":{"osm_id":"5906752283","tag":{"amenity":"recycling","description":"Bord\u00c3\u00a1ny, Pet\u00c5\u0091fi utca","operator":"Szegedi Hullad\u00c3\u00a9kgazd\u00c3\u00a1lkod\u00c3\u00a1si Nonprofit Kft.","recycling_type":"container"}},"type":"Feature"},
	{"geometry":{"coordinates":[19.916419,46.316909],"type":"Point"},"properties":{"osm_id":"5906753619","tag":{"amenity":"recycling","description":"Bord\u00c3\u00a1ny, Felszabadul\u00c3\u00a1s utca","operator":"Szegedi Hullad\u00c3\u00a9kgazd\u00c3\u00a1lkod\u00c3\u00a1si Nonprofit Kft.","recycling_type":"container"}},"type":"Feature"},
	{"geometry":{"coordinates":[19.925594,46.317726],"type":"Point"},"properties":{"osm_id":"5906753695","tag":{"amenity":"recycling","description":"Bord\u00c3\u00a1ny, Dud\u00c3\u00a1s utca 61-63","operator":"Szegedi Hullad\u00c3\u00a9kgazd\u00c3\u00a1lkod\u00c3\u00a1si Nonprofit Kft.","recycling_type":"container"}},"type":"Feature"},
	{"geometry":{"coordinates":[19.924579,46.318397],"type":"Point"},"properties":{"osm_id":"5906753715","tag":{"amenity":"recycling","description":"Bord\u00c3\u00a1ny, Z\u00c3\u00a1k\u00c3\u00a1nysz\u00c3\u00a9ki \u00c3\u00bat(bolt)","operator":"Szegedi Hullad\u00c3\u00a9kgazd\u00c3\u00a1lkod\u00c3\u00a1si Nonprofit Kft.","recycling_type":"container"}},"type":"Feature"},
	{"geometry":{"coordinates":[19.916346,46.320731],"type":"Point"},"properties":{"osm_id":"5906753716","tag":{"amenity":"recycling","description":"Bord\u00c3\u00a1ny, COOP","operator":"Szegedi Hullad\u00c3\u00a9kgazd\u00c3\u00a1lkod\u00c3\u00a1si Nonprofit Kft.","recycling_type":"container"}},"type":"Feature"}
]
}
