{
"type": "FeatureCollection",
"features": [
	{"geometry":{"coordinates":[19.89268,46.27506],"type":"Point"},"properties":{"osm_id":"5804952763","tag":{"amenity":"waste_basket"}},"type":"Feature"},
	{"geometry":{"coordinates":[19.892919,46.274823],"type":"Point"},"properties":{"osm_id":"5804952764","tag":{"amenity":"waste_basket"}},"type":"Feature"},
	{"geometry":{"coordinates":[19.887004,46.275329],"type":"Point"},"properties":{"osm_id":"5906753614","tag":{"amenity":"recycling","description":"Z\u00c3\u00a1k\u00c3\u00a1nysz\u00c3\u00a9k, Pet\u00c5\u0091fi utca ISPA","operator":"Szegedi Hullad\u00c3\u00a9kgazd\u00c3\u00a1lkod\u00c3\u00a1si Nonprofit Kft.","recycling_type":"container"}},"type":"Feature"},
	{"geometry":{"coordinates":[19.892036,46.272957],"type":"Point"},"properties":{"osm_id":"5906753702","tag":{"amenity":"recycling","description":"Z\u00c3\u00a1k\u00c3\u00a1nysz\u00c3\u00a9k, Ny\u00c3\u00a1r utca","operator":"Szegedi Hullad\u00c3\u00a9kgazd\u00c3\u00a1lkod\u00c3\u00a1si Nonprofit Kft.","recycling:glass_bottles":"yes","recycling_type":"container"}},"type":"Feature"},
	{"geometry":{"coordinates":[19.894413,46.278054],"type":"Point"},"properties":{"osm_id":"5906753706","tag":{"amenity":"recycling","description":"Z\u00c3\u00a1k\u00c3\u00a1nysz\u00c3\u00a9k, Vas\u00c3\u00bat utca","operator":"Szegedi Hullad\u00c3\u00a9kgazd\u00c3\u00a1lkod\u00c3\u00a1si Nonprofit Kft.","recycling:glass_bottles":"yes","recycling_type":"container"}},"type":"Feature"},
	{"geometry":{"coordinates":[19.881228,46.275929],"type":"Point"},"properties":{"osm_id":"5906753723","tag":{"amenity":"recycling","description":"Z\u00c3\u00a1k\u00c3\u00a1nysz\u00c3\u00a9k, Ifj\u00c3\u00bas\u00c3\u00a1g utca","operator":"Szegedi Hullad\u00c3\u00a9kgazd\u00c3\u00a1lkod\u00c3\u00a1si Nonprofit Kft.","recycling:glass_bottles":"yes","recycling_type":"container"}},"type":"Feature"},
	{"geometry":{"coordinates":[19.888287,46.274143],"type":"Point"},"properties":{"osm_id":"6708698899","tag":{"amenity":"waste_basket","waste":"trash"}},"type":"Feature"},
	{"geometry":{"coordinates":[19.883637,46.272642],"type":"Point"},"properties":{"osm_id":"6708698937","tag":{"amenity":"recycling","recycling:glass_bottles":"yes","recycling_type":"container"}},"type":"Feature"}
]
}
