{
"type": "FeatureCollection",
"features": [
	{"geometry":{"coordinates":[-114.205251,51.12509],"type":"Point"},"properties":{"name":"Community Recycling Depot","osm_id":"196662378","tag":{"amenity":"recycling","recycling:glass":"yes","recycling:paper":"yes"}},"type":"Feature"},
	{"geometry":{"coordinates":[-114.197755,51.153646],"type":"Point"},"properties":{"name":"Spy Hill Bottle Depot","osm_id":"196662393","tag":{"amenity":"recycling"}},"type":"Feature"},
	{"geometry":{"coordinates":[-114.224151,51.147731],"type":"Point"},"properties":{"osm_id":"4170200615","tag":{"amenity":"waste_basket"}},"type":"Feature"},
	{"geometry":{"coordinates":[-114.23939,51.137722],"type":"Point"},"properties":{"osm_id":"4170520497","tag":{"amenity":"waste_basket"}},"type":"Feature"},
	{"geometry":{"coordinates":[-114.225389,51.125147],"type":"Point"},"properties":{"osm_id":"4171796727","tag":{"amenity":"waste_basket"}},"type":"Feature"},
	{"geometry":{"coordinates":[-114.18376,51.132411],"type":"Point"},"properties":{"osm_id":"4182109792","tag":{"amenity":"waste_basket"}},"type":"Feature"},
	{"geometry":{"coordinates":[-114.18341,51.132366],"type":"Point"},"properties":{"osm_id":"4182109793","tag":{"amenity":"waste_basket"}},"type":"Feature"},
	{"geometry":{"coordinates":[-114.203509,51.150407],"type":"Point"},"properties":{"osm_id":"4261980293","tag":{"amenity":"waste_basket"}},"type":"Feature"},
	{"geometry":{"coordinates":[-114.212364,51.14571],"type":"Point"},"properties":{"osm_id":"4262568559","tag":{"amenity":"waste_basket"}},"type":"Feature"},
	{"geometry":{"coordinates":[-114.187311,51.153838],"type":"Point"},"properties":{"osm_id":"4262584656","tag":{"amenity":"waste_basket"}},"type":"Feature"},
	{"geometry":{"coordinates":[-114.196882,51.13913],"type":"Point"},"properties":{"osm_id":"4264429747","tag":{"amenity":"waste_basket"}},"type":"Feature"},
	{"geometry":{"coordinates":[-114.196784,51.140608],"type":"Point"},"properties":{"osm_id":"4264429748","tag":{"amenity":"waste_basket"}},"type":"Feature"},
	{"geometry":{"coordinates":[-114.194854,51.141552],"type":"Point"},"properties":{"osm_id":"4264429753","tag":{"amenity":"waste_basket"}},"type":"Feature"},
	{"geometry":{"coordinates":[-114.210758,51.129772],"type":"Point"},"properties":{"osm_id":"4286248194","tag":{"amenity":"waste_basket"}},"type":"Feature"},
	{"geometry":{"coordinates":[-114.220351,51.125124],"type":"Point"},"properties":{"osm_id":"4416352251","tag":{"amenity":"waste_basket"}},"type":"Feature"},
	{"geometry":{"coordinates":[-114.192122,51.137144],"type":"Point"},"properties":{"osm_id":"4422644842","tag":{"amenity":"waste_basket"}},"type":"Feature"},
	{"geometry":{"coordinates":[-114.206261,51.137423],"type":"Point"},"properties":{"osm_id":"4422650011","tag":{"amenity":"waste_basket"}},"type":"Feature"},
	{"geometry":{"coordinates":[-114.229096,51.14787],"type":"Point"},"properties":{"osm_id":"4442463694","tag":{"amenity":"waste_basket"}},"type":"Feature"},
	{"geometry":{"coordinates":[-114.184496,51.13427],"type":"Point"},"properties":{"osm_id":"4831049064","tag":{"amenity":"waste_basket"}},"type":"Feature"},
	{"geometry":{"coordinates":[-114.23949,51.139963],"type":"Point"},"properties":{"osm_id":"4894024241","tag":{"amenity":"waste_basket"}},"type":"Feature"},
	{"geometry":{"coordinates":[-114.23809,51.139997],"type":"Point"},"properties":{"osm_id":"4894024242","tag":{"amenity":"waste_basket"}},"type":"Feature"},
	{"geometry":{"coordinates":[-114.25513,51.134856],"type":"Point"},"properties":{"osm_id":"6770865888","tag":{"amenity":"waste_basket"}},"type":"Feature"},
	{"geometry":{"coordinates":[-114.254749,51.13421],"type":"Point"},"properties":{"osm_id":"6770865890","tag":{"amenity":"waste_basket"}},"type":"Feature"},
	{"geometry":{"coordinates":[-114.252321,51.143479],"type":"Point"},"properties":{"osm_id":"6938060134","tag":{"amenity":"waste_basket","colour":"Green","material":"steel","waste":"trash;dog_excrement;litter"}},"type":"Feature"},
	{"geometry":{"coordinates":[-114.254698,51.147049],"type":"Point"},"properties":{"osm_id":"6938127269","tag":{"amenity":"waste_basket","colour":"Green","material":"steel","waste":"trash;dog_excrement;litter"}},"type":"Feature"}
]
}
