{
"type": "FeatureCollection",
"features": [
	{"geometry":{"coordinates":[-114.24066,51.10776],"type":"Point"},"properties":{"name":"Tuscany Recycling Depot","osm_id":"531856844","tag":{"amenity":"recycling"}},"type":"Feature"},
	{"geometry":{"coordinates":[-114.202283,51.099669],"type":"Point"},"properties":{"osm_id":"4176838765","tag":{"amenity":"waste_basket"}},"type":"Feature"},
	{"geometry":{"coordinates":[-114.189853,51.121662],"type":"Point"},"properties":{"osm_id":"4181194916","tag":{"amenity":"waste_basket"}},"type":"Feature"},
	{"geometry":{"coordinates":[-114.18076,51.090936],"type":"Point"},"properties":{"osm_id":"4219289891","tag":{"amenity":"waste_basket"}},"type":"Feature"},
	{"geometry":{"coordinates":[-114.17335,51.086955],"type":"Point"},"properties":{"osm_id":"4219289893","tag":{"amenity":"waste_basket"}},"type":"Feature"},
	{"geometry":{"coordinates":[-114.182145,51.1052],"type":"Point"},"properties":{"osm_id":"4256846079","tag":{"amenity":"waste_basket"}},"type":"Feature"},
	{"geometry":{"coordinates":[-114.181018,51.107679],"type":"Point"},"properties":{"osm_id":"4256846085","tag":{"amenity":"waste_basket"}},"type":"Feature"},
	{"geometry":{"coordinates":[-114.184736,51.112483],"type":"Point"},"properties":{"osm_id":"4256995633","tag":{"amenity":"waste_basket"}},"type":"Feature"},
	{"geometry":{"coordinates":[-114.21876,51.10821],"type":"Point"},"properties":{"osm_id":"4259716909","tag":{"amenity":"waste_basket"}},"type":"Feature"},
	{"geometry":{"coordinates":[-114.232397,51.097342],"type":"Point"},"properties":{"osm_id":"4259719019","tag":{"amenity":"waste_basket"}},"type":"Feature"},
	{"geometry":{"coordinates":[-114.216169,51.110823],"type":"Point"},"properties":{"osm_id":"4259733178","tag":{"amenity":"waste_basket"}},"type":"Feature"},
	{"geometry":{"coordinates":[-114.216513,51.116073],"type":"Point"},"properties":{"osm_id":"4264747476","tag":{"amenity":"waste_basket"}},"type":"Feature"},
	{"geometry":{"coordinates":[-114.238682,51.124185],"type":"Point"},"properties":{"osm_id":"4405803886","tag":{"amenity":"waste_basket","elevation":"1166"}},"type":"Feature"},
	{"geometry":{"coordinates":[-114.237379,51.12154],"type":"Point"},"properties":{"osm_id":"4405803889","tag":{"amenity":"waste_basket"}},"type":"Feature"},
	{"geometry":{"coordinates":[-114.236887,51.115816],"type":"Point"},"properties":{"osm_id":"4405803891","tag":{"amenity":"waste_basket","elevation":"1153"}},"type":"Feature"},
	{"geometry":{"coordinates":[-114.231574,51.111006],"type":"Point"},"properties":{"osm_id":"4405803892","tag":{"amenity":"waste_basket"}},"type":"Feature"},
	{"geometry":{"coordinates":[-114.235249,51.108759],"type":"Point"},"properties":{"osm_id":"4405803893","tag":{"amenity":"waste_basket","elevation":"1143"}},"type":"Feature"},
	{"geometry":{"coordinates":[-114.246256,51.114375],"type":"Point"},"properties":{"osm_id":"4405803894","tag":{"amenity":"waste_basket","elevation":"1143"}},"type":"Feature"},
	{"geometry":{"coordinates":[-114.244443,51.108865],"type":"Point"},"properties":{"osm_id":"4405811099","tag":{"amenity":"waste_basket","elevation":"1103"}},"type":"Feature"},
	{"geometry":{"coordinates":[-114.216503,51.09825],"type":"Point"},"properties":{"osm_id":"4406040342","tag":{"amenity":"waste_basket"}},"type":"Feature"},
	{"geometry":{"coordinates":[-114.216471,51.098251],"type":"Point"},"properties":{"osm_id":"4406040343","tag":{"amenity":"recycling"}},"type":"Feature"},
	{"geometry":{"coordinates":[-114.213933,51.09817],"type":"Point"},"properties":{"osm_id":"4406040344","tag":{"amenity":"recycling"}},"type":"Feature"},
	{"geometry":{"coordinates":[-114.213971,51.098171],"type":"Point"},"properties":{"osm_id":"4406040345","tag":{"amenity":"waste_basket"}},"type":"Feature"},
	{"geometry":{"coordinates":[-114.21754,51.09827],"type":"Point"},"properties":{"osm_id":"4406040346","tag":{"amenity":"waste_basket"}},"type":"Feature"},
	{"geometry":{"coordinates":[-114.217508,51.098271],"type":"Point"},"properties":{"osm_id":"4406040347","tag":{"amenity":"recycling"}},"type":"Feature"},
	{"geometry":{"coordinates":[-114.218296,51.0983],"type":"Point"},"properties":{"osm_id":"4406040348","tag":{"amenity":"waste_basket"}},"type":"Feature"},
	{"geometry":{"coordinates":[-114.218264,51.0983],"type":"Point"},"properties":{"osm_id":"4406040349","tag":{"amenity":"recycling"}},"type":"Feature"},
	{"geometry":{"coordinates":[-114.224229,51.097166],"type":"Point"},"properties":{"osm_id":"4406040351","tag":{"amenity":"waste_basket"}},"type":"Feature"},
	{"geometry":{"coordinates":[-114.224197,51.097166],"type":"Point"},"properties":{"osm_id":"4406040352","tag":{"amenity":"recycling"}},"type":"Feature"},
	{"geometry":{"coordinates":[-114.223858,51.096803],"type":"Point"},"properties":{"osm_id":"4406040355","tag":{"amenity":"waste_basket"}},"type":"Feature"},
	{"geometry":{"coordinates":[-114.223826,51.096803],"type":"Point"},"properties":{"osm_id":"4406040356","tag":{"amenity":"recycling"}},"type":"Feature"},
	{"geometry":{"coordinates":[-114.229402,51.097739],"type":"Point"},"properties":{"osm_id":"4408440061","tag":{"amenity":"waste_basket"}},"type":"Feature"},
	{"geometry":{"coordinates":[-114.229364,51.097738],"type":"Point"},"properties":{"osm_id":"4408440062","tag":{"amenity":"recycling"}},"type":"Feature"},
	{"geometry":{"coordinates":[-114.22016,51.097572],"type":"Point"},"properties":{"osm_id":"4408450124","tag":{"amenity":"waste_basket"}},"type":"Feature"},
	{"geometry":{"coordinates":[-114.220122,51.097571],"type":"Point"},"properties":{"osm_id":"4408450125","tag":{"amenity":"recycling"}},"type":"Feature"},
	{"geometry":{"coordinates":[-114.218498,51.097476],"type":"Point"},"properties":{"osm_id":"4408450126","tag":{"amenity":"waste_basket"}},"type":"Feature"},
	{"geometry":{"coordinates":[-114.218459,51.097475],"type":"Point"},"properties":{"osm_id":"4408450127","tag":{"amenity":"recycling"}},"type":"Feature"},
	{"geometry":{"coordinates":[-114.217471,51.09749],"type":"Point"},"properties":{"osm_id":"4408450128","tag":{"amenity":"waste_basket"}},"type":"Feature"},
	{"geometry":{"coordinates":[-114.21745,51.097499],"type":"Point"},"properties":{"osm_id":"4408450129","tag":{"amenity":"recycling"}},"type":"Feature"},
	{"geometry":{"coordinates":[-114.216108,51.097707],"type":"Point"},"properties":{"osm_id":"4408450855","tag":{"amenity":"waste_basket"}},"type":"Feature"},
	{"geometry":{"coordinates":[-114.216481,51.097696],"type":"Point"},"properties":{"osm_id":"4408450856","tag":{"amenity":"waste_basket"}},"type":"Feature"},
	{"geometry":{"coordinates":[-114.216443,51.097695],"type":"Point"},"properties":{"osm_id":"4408450857","tag":{"amenity":"recycling"}},"type":"Feature"},
	{"geometry":{"coordinates":[-114.211293,51.098086],"type":"Point"},"properties":{"osm_id":"4408450859","tag":{"amenity":"waste_basket"}},"type":"Feature"},
	{"geometry":{"coordinates":[-114.211255,51.098086],"type":"Point"},"properties":{"osm_id":"4408450860","tag":{"amenity":"recycling"}},"type":"Feature"},
	{"geometry":{"coordinates":[-114.172588,51.079367],"type":"Point"},"properties":{"osm_id":"4408454630","tag":{"amenity":"waste_basket"}},"type":"Feature"},
	{"geometry":{"coordinates":[-114.173881,51.077757],"type":"Point"},"properties":{"osm_id":"4408454631","tag":{"amenity":"waste_basket"}},"type":"Feature"},
	{"geometry":{"coordinates":[-114.176378,51.076688],"type":"Point"},"properties":{"osm_id":"4408454633","tag":{"amenity":"waste_basket"}},"type":"Feature"},
	{"geometry":{"coordinates":[-114.175453,51.075939],"type":"Point"},"properties":{"osm_id":"4408454634","tag":{"amenity":"waste_basket"}},"type":"Feature"},
	{"geometry":{"coordinates":[-114.20098,51.097525],"type":"Point"},"properties":{"osm_id":"4427834394","tag":{"amenity":"waste_basket"}},"type":"Feature"},
	{"geometry":{"coordinates":[-114.198053,51.102522],"type":"Point"},"properties":{"osm_id":"4427843338","tag":{"amenity":"waste_basket"}},"type":"Feature"},
	{"geometry":{"coordinates":[-114.170197,51.076332],"type":"Point"},"properties":{"osm_id":"4434793409","tag":{"amenity":"waste_basket"}},"type":"Feature"},
	{"geometry":{"coordinates":[-114.192947,51.115318],"type":"Point"},"properties":{"osm_id":"4734874154","tag":{"amenity":"waste_basket"}},"type":"Feature"},
	{"geometry":{"coordinates":[-114.175115,51.07723],"type":"Point"},"properties":{"osm_id":"4837877050","tag":{"amenity":"waste_basket"}},"type":"Feature"},
	{"geometry":{"coordinates":[-114.243016,51.112212],"type":"Point"},"properties":{"osm_id":"4936260190","tag":{"amenity":"waste_basket"}},"type":"Feature"},
	{"geometry":{"coordinates":[-114.239767,51.111194],"type":"Point"},"properties":{"osm_id":"5569868938","tag":{"amenity":"waste_basket"}},"type":"Feature"},
	{"geometry":{"coordinates":[-114.210508,51.099799],"type":"Point"},"properties":{"osm_id":"5633988396","tag":{"amenity":"waste_basket","waste":"trash"}},"type":"Feature"},
	{"geometry":{"coordinates":[-114.206797,51.100182],"type":"Point"},"properties":{"osm_id":"5633988397","tag":{"amenity":"waste_basket","waste":"dog_excrement"}},"type":"Feature"},
	{"geometry":{"coordinates":[-114.208031,51.100502],"type":"Point"},"properties":{"osm_id":"5633988398","tag":{"amenity":"waste_basket","waste":"trash"}},"type":"Feature"},
	{"geometry":{"coordinates":[-114.171389,51.070825],"type":"Point"},"properties":{"osm_id":"6373424120","tag":{"amenity":"waste_basket"}},"type":"Feature"},
	{"geometry":{"coordinates":[-114.233496,51.117471],"type":"Point"},"properties":{"osm_id":"6988747674","tag":{"amenity":"waste_basket"}},"type":"Feature"},
	{"geometry":{"coordinates":[-114.201874,51.101502],"type":"Point"},"properties":{"osm_id":"7579325156","tag":{"amenity":"waste_basket"}},"type":"Feature"}
]
}
