{
"type": "FeatureCollection",
"features": [
	{"geometry":{"coordinates":[2.304544,49.895821],"type":"Point"},"properties":{"osm_id":"387788521","tag":{"amenity":"recycling","recycling:glass_bottles":"yes","recycling_type":"container"}},"type":"Feature"},
	{"geometry":{"coordinates":[2.306074,49.895986],"type":"Point"},"properties":{"osm_id":"387788522","tag":{"amenity":"recycling","recycling:glass_bottles":"yes","recycling_type":"container"}},"type":"Feature"},
	{"geometry":{"coordinates":[2.298034,49.896559],"type":"Point"},"properties":{"osm_id":"3106173436","tag":{"amenity":"recycling","recycling:cardboard":"yes","recycling:waste":"yes","recycling_type":"container"}},"type":"Feature"},
	{"geometry":{"coordinates":[2.299107,49.89597],"type":"Point"},"properties":{"osm_id":"3106173444","tag":{"amenity":"recycling","recycling:waste":"yes","recycling_type":"container"}},"type":"Feature"},
	{"geometry":{"coordinates":[2.300918,49.897511],"type":"Point"},"properties":{"osm_id":"3106849295","tag":{"amenity":"waste_basket","check_date":"2021-08-25"}},"type":"Feature"},
	{"geometry":{"coordinates":[2.317814,49.91316],"type":"Point"},"properties":{"osm_id":"3145147594","tag":{"amenity":"recycling","recycling_type":"container"}},"type":"Feature"},
	{"geometry":{"coordinates":[2.320405,49.906952],"type":"Point"},"properties":{"osm_id":"3145147622","tag":{"amenity":"waste_basket"}},"type":"Feature"},
	{"geometry":{"coordinates":[2.306294,49.913519],"type":"Point"},"properties":{"osm_id":"3145378119","tag":{"amenity":"recycling","recycling_type":"container"}},"type":"Feature"},
	{"geometry":{"coordinates":[2.307844,49.912207],"type":"Point"},"properties":{"osm_id":"3145390361","tag":{"amenity":"recycling","recycling_type":"container"}},"type":"Feature"},
	{"geometry":{"coordinates":[2.31368,49.913601],"type":"Point"},"properties":{"osm_id":"3145390362","tag":{"amenity":"waste_basket","description":"Simple","mapillary":"M8MbYm5u42xU5GDW_w4r8g","material":"metal"}},"type":"Feature"},
	{"geometry":{"coordinates":[2.306879,49.913596],"type":"Point"},"properties":{"osm_id":"3145390394","tag":{"amenity":"recycling","recycling_type":"container"}},"type":"Feature"},
	{"geometry":{"coordinates":[2.307817,49.912822],"type":"Point"},"properties":{"osm_id":"3145390406","tag":{"amenity":"recycling","recycling_type":"container"}},"type":"Feature"},
	{"geometry":{"coordinates":[2.30617,49.912811],"type":"Point"},"properties":{"osm_id":"3145390409","tag":{"amenity":"recycling","recycling_type":"container"}},"type":"Feature"},
	{"geometry":{"coordinates":[2.305157,49.913585],"type":"Point"},"properties":{"osm_id":"3145390434","tag":{"amenity":"recycling","recycling_type":"container"}},"type":"Feature"},
	{"geometry":{"coordinates":[2.306544,49.912061],"type":"Point"},"properties":{"osm_id":"3147074333","tag":{"amenity":"waste_basket"}},"type":"Feature"},
	{"geometry":{"coordinates":[2.306176,49.912225],"type":"Point"},"properties":{"osm_id":"3147074388","tag":{"amenity":"recycling","recycling_type":"container"}},"type":"Feature"},
	{"geometry":{"coordinates":[2.305978,49.909825],"type":"Point"},"properties":{"osm_id":"3147074402","tag":{"amenity":"recycling","recycling_type":"container"}},"type":"Feature"},
	{"geometry":{"coordinates":[2.304487,49.912932],"type":"Point"},"properties":{"osm_id":"3147074439","tag":{"amenity":"recycling","recycling_type":"container"}},"type":"Feature"},
	{"geometry":{"coordinates":[2.304478,49.912179],"type":"Point"},"properties":{"osm_id":"3147074490","tag":{"amenity":"recycling","recycling_type":"container"}},"type":"Feature"},
	{"geometry":{"coordinates":[2.312723,49.900167],"type":"Point"},"properties":{"osm_id":"3314350679","tag":{"amenity":"recycling","recycling_type":"container"}},"type":"Feature"},
	{"geometry":{"coordinates":[2.301617,49.910998],"type":"Point"},"properties":{"osm_id":"3314401000","tag":{"amenity":"recycling","recycling:plastic_bottles":"yes","recycling:plastic_packaging":"yes","recycling_type":"underfloor-container"}},"type":"Feature"},
	{"geometry":{"coordinates":[2.300404,49.910462],"type":"Point"},"properties":{"osm_id":"3314408671","tag":{"amenity":"waste_basket"}},"type":"Feature"},
	{"geometry":{"coordinates":[2.292365,49.896955],"type":"Point"},"properties":{"osm_id":"3334022430","tag":{"amenity":"waste_basket"}},"type":"Feature"},
	{"geometry":{"coordinates":[2.288626,49.897467],"type":"Point"},"properties":{"osm_id":"3334158226","tag":{"amenity":"recycling","recycling_type":"container"}},"type":"Feature"},
	{"geometry":{"coordinates":[2.292912,49.909751],"type":"Point"},"properties":{"osm_id":"3334270985","tag":{"amenity":"recycling","recycling_type":"container"}},"type":"Feature"},
	{"geometry":{"coordinates":[2.301789,49.913552],"type":"Point"},"properties":{"osm_id":"3336182206","tag":{"amenity":"recycling","recycling_type":"container"}},"type":"Feature"},
	{"geometry":{"coordinates":[2.29702,49.913704],"type":"Point"},"properties":{"osm_id":"3336182217","tag":{"amenity":"recycling","recycling_type":"container"}},"type":"Feature"},
	{"geometry":{"coordinates":[2.296215,49.913718],"type":"Point"},"properties":{"osm_id":"3336182220","tag":{"amenity":"recycling","recycling_type":"container"}},"type":"Feature"},
	{"geometry":{"coordinates":[2.299831,49.913721],"type":"Point"},"properties":{"osm_id":"3336182229","tag":{"amenity":"recycling","recycling_type":"container"}},"type":"Feature"},
	{"geometry":{"coordinates":[2.298817,49.91369],"type":"Point"},"properties":{"osm_id":"3336182234","tag":{"amenity":"recycling","recycling_type":"container"}},"type":"Feature"},
	{"geometry":{"coordinates":[2.300748,49.91358],"type":"Point"},"properties":{"osm_id":"3336182235","tag":{"amenity":"recycling","recycling_type":"container"}},"type":"Feature"},
	{"geometry":{"coordinates":[2.348592,49.899567],"type":"Point"},"properties":{"osm_id":"3338037126","tag":{"amenity":"recycling","recycling_type":"container"}},"type":"Feature"},
	{"geometry":{"coordinates":[2.293894,49.918223],"type":"Point"},"properties":{"osm_id":"3339679606","tag":{"amenity":"recycling","recycling_type":"container"}},"type":"Feature"},
	{"geometry":{"coordinates":[2.294323,49.922906],"type":"Point"},"properties":{"osm_id":"3339679633","tag":{"amenity":"recycling","recycling_type":"container"}},"type":"Feature"},
	{"geometry":{"coordinates":[2.322532,49.906128],"type":"Point"},"properties":{"osm_id":"3350274404","tag":{"amenity":"recycling","recycling_type":"container"}},"type":"Feature"},
	{"geometry":{"coordinates":[2.324642,49.912096],"type":"Point"},"properties":{"osm_id":"3350420166","tag":{"amenity":"recycling","recycling_type":"container"}},"type":"Feature"},
	{"geometry":{"coordinates":[2.291202,49.895062],"type":"Point"},"properties":{"osm_id":"3783577761","tag":{"amenity":"recycling","recycling:glass_bottles":"yes","recycling:paper":"yes","recycling_type":"container"}},"type":"Feature"},
	{"geometry":{"coordinates":[2.321316,49.900536],"type":"Point"},"properties":{"osm_id":"3790467767","tag":{"amenity":"waste_basket"}},"type":"Feature"},
	{"geometry":{"coordinates":[2.322089,49.902306],"type":"Point"},"properties":{"osm_id":"3790467781","tag":{"amenity":"recycling","recycling_type":"container"}},"type":"Feature"},
	{"geometry":{"coordinates":[2.325198,49.899103],"type":"Point"},"properties":{"osm_id":"3791816411","tag":{"amenity":"recycling","recycling_type":"container"}},"type":"Feature"},
	{"geometry":{"coordinates":[2.295235,49.903108],"type":"Point"},"properties":{"osm_id":"3791900167","tag":{"amenity":"recycling","recycling_type":"container"}},"type":"Feature"},
	{"geometry":{"coordinates":[2.288141,49.904242],"type":"Point"},"properties":{"osm_id":"3794925958","tag":{"amenity":"recycling","recycling_type":"container"}},"type":"Feature"},
	{"geometry":{"coordinates":[2.300699,49.896768],"type":"Point"},"properties":{"osm_id":"4068068129","tag":{"amenity":"recycling","recycling:cans":"no","recycling:clothes":"no","recycling:glass":"no","recycling:glass_bottles":"yes","recycling:paper":"no","recycling:plastic":"no","recycling_type":"container"}},"type":"Feature"},
	{"geometry":{"coordinates":[2.306109,49.896281],"type":"Point"},"properties":{"osm_id":"4123634808","tag":{"amenity":"recycling","opening_hours":"24/7","recycling:cardboard":"yes","recycling:paper":"yes","recycling:waste":"yes","recycling_type":"container"}},"type":"Feature"},
	{"geometry":{"coordinates":[2.288677,49.89612],"type":"Point"},"properties":{"osm_id":"4404406074","tag":{"amenity":"recycling","recycling:glass_bottles":"yes","recycling:paper":"yes","recycling_type":"container"}},"type":"Feature"},
	{"geometry":{"coordinates":[2.288007,49.897108],"type":"Point"},"properties":{"osm_id":"4418629829","tag":{"amenity":"recycling","recycling:glass_bottles":"yes","recycling:paper":"yes","recycling_type":"container"}},"type":"Feature"},
	{"geometry":{"coordinates":[2.2856,49.898969],"type":"Point"},"properties":{"osm_id":"4418629830","tag":{"amenity":"recycling","recycling:glass_bottles":"yes","recycling:paper":"yes","recycling_type":"container"}},"type":"Feature"},
	{"geometry":{"coordinates":[2.29467,49.897097],"type":"Point"},"properties":{"osm_id":"4599289823","tag":{"amenity":"recycling","recycling:glass_bottles":"yes","recycling:paper":"yes","recycling_type":"container"}},"type":"Feature"},
	{"geometry":{"coordinates":[2.300028,49.90169],"type":"Point"},"properties":{"osm_id":"4643694394","tag":{"amenity":"recycling","recycling:glass_bottles":"yes","recycling:paper":"yes","recycling_type":"container"}},"type":"Feature"},
	{"geometry":{"coordinates":[2.316103,49.908994],"type":"Point"},"properties":{"osm_id":"4805422872","tag":{"amenity":"waste_basket"}},"type":"Feature"},
	{"geometry":{"coordinates":[2.316748,49.907994],"type":"Point"},"properties":{"osm_id":"4805422893","tag":{"amenity":"waste_basket"}},"type":"Feature"},
	{"geometry":{"coordinates":[2.300152,49.910983],"type":"Point"},"properties":{"osm_id":"4813345552","tag":{"amenity":"recycling","recycling:glasses":"yes","recycling_type":"underfloor-container"}},"type":"Feature"},
	{"geometry":{"coordinates":[2.301298,49.911404],"type":"Point"},"properties":{"osm_id":"4813347752","tag":{"amenity":"recycling","recycling_type":"container"}},"type":"Feature"},
	{"geometry":{"coordinates":[2.295182,49.901564],"type":"Point"},"properties":{"osm_id":"4828486919","tag":{"amenity":"recycling","recycling:glass_bottles":"yes","recycling:paper":"yes","recycling_type":"container"}},"type":"Feature"},
	{"geometry":{"coordinates":[2.294892,49.898604],"type":"Point"},"properties":{"osm_id":"4828514095","tag":{"amenity":"recycling","recycling:cardboard":"yes","recycling:glass_bottles":"yes","recycling:paper":"yes","recycling_type":"container"}},"type":"Feature"},
	{"geometry":{"coordinates":[2.306781,49.902489],"type":"Point"},"properties":{"osm_id":"4920350662","tag":{"amenity":"recycling","recycling:bottles":"yes","recycling:cartons":"yes","recycling:paper":"yes"}},"type":"Feature"},
	{"geometry":{"coordinates":[2.300077,49.895701],"type":"Point"},"properties":{"osm_id":"4920550676","tag":{"amenity":"recycling","recycling:glass_bottles":"yes","recycling_type":"container"}},"type":"Feature"},
	{"geometry":{"coordinates":[2.307425,49.900532],"type":"Point"},"properties":{"osm_id":"4922899321","tag":{"amenity":"waste_basket"}},"type":"Feature"},
	{"geometry":{"coordinates":[2.300999,49.912154],"type":"Point"},"properties":{"osm_id":"5042997181","tag":{"amenity":"recycling","recycling:aluminium":"yes","recycling:cans":"yes","recycling:cardboard":"yes","recycling:plastic_bottles":"yes","recycling:plastic_packaging":"yes","recycling:waste":"yes","recycling_type":"container"}},"type":"Feature"},
	{"geometry":{"coordinates":[2.297725,49.897907],"type":"Point"},"properties":{"osm_id":"5050123868","tag":{"amenity":"recycling","recycling:beverage_carton":"yes","recycling:glass_bottles":"yes","recycling:plastic_bottles":"yes","recycling:waste":"yes","recycling_type":"container"}},"type":"Feature"},
	{"geometry":{"coordinates":[2.29737,49.896719],"type":"Point"},"properties":{"osm_id":"5116838791","tag":{"amenity":"waste_basket"}},"type":"Feature"},
	{"geometry":{"coordinates":[2.295423,49.90047],"type":"Point"},"properties":{"osm_id":"5463876992","tag":{"amenity":"recycling","recycling:cartons":"yes","recycling:clothes":"yes","recycling:glass_bottles":"yes","recycling:paper":"yes","recycling:paper_packaging":"yes","recycling_type":"container"}},"type":"Feature"},
	{"geometry":{"coordinates":[2.304137,49.920774],"type":"Point"},"properties":{"osm_id":"5482683045","tag":{"amenity":"recycling","recycling:cardboard":"yes","recycling:glass_bottles":"yes","recycling_type":"container"}},"type":"Feature"},
	{"geometry":{"coordinates":[2.291339,49.902171],"type":"Point"},"properties":{"osm_id":"5535564569","tag":{"amenity":"waste_basket"}},"type":"Feature"},
	{"geometry":{"coordinates":[2.294895,49.902772],"type":"Point"},"properties":{"osm_id":"5535564581","tag":{"amenity":"waste_basket"}},"type":"Feature"},
	{"geometry":{"coordinates":[2.294415,49.902742],"type":"Point"},"properties":{"osm_id":"5535564582","tag":{"amenity":"waste_basket"}},"type":"Feature"},
	{"geometry":{"coordinates":[2.296448,49.902182],"type":"Point"},"properties":{"osm_id":"5535603780","tag":{"amenity":"waste_basket"}},"type":"Feature"},
	{"geometry":{"coordinates":[2.28555,49.903008],"type":"Point"},"properties":{"osm_id":"5537378373","tag":{"amenity":"recycling","recycling_type":"container"}},"type":"Feature"},
	{"geometry":{"coordinates":[2.297955,49.897202],"type":"Point"},"properties":{"osm_id":"5571121114","tag":{"amenity":"recycling","recycling:glass_bottles":"yes","recycling:paper":"yes","recycling_type":"container"}},"type":"Feature"},
	{"geometry":{"coordinates":[2.296247,49.894884],"type":"Point"},"properties":{"osm_id":"5571122539","tag":{"amenity":"recycling","recycling:glass_bottles":"yes","recycling:paper":"yes","recycling_type":"container"}},"type":"Feature"},
	{"geometry":{"coordinates":[2.290846,49.8969],"type":"Point"},"properties":{"osm_id":"5571122599","tag":{"amenity":"recycling","recycling:glass_bottles":"yes","recycling:paper":"yes","recycling_type":"container"}},"type":"Feature"},
	{"geometry":{"coordinates":[2.296691,49.896934],"type":"Point"},"properties":{"osm_id":"5571671567","tag":{"amenity":"waste_basket"}},"type":"Feature"},
	{"geometry":{"coordinates":[2.285643,49.897609],"type":"Point"},"properties":{"osm_id":"5571709392","tag":{"amenity":"recycling","recycling:glass_bottles":"yes","recycling:paper":"yes","recycling_type":"container"}},"type":"Feature"},
	{"geometry":{"coordinates":[2.301273,49.896435],"type":"Point"},"properties":{"osm_id":"5573231115","tag":{"amenity":"waste_basket"}},"type":"Feature"},
	{"geometry":{"coordinates":[2.301525,49.896368],"type":"Point"},"properties":{"osm_id":"5573231120","tag":{"amenity":"waste_basket"}},"type":"Feature"},
	{"geometry":{"coordinates":[2.302062,49.896372],"type":"Point"},"properties":{"osm_id":"5573232723","tag":{"amenity":"recycling","recycling:glass_bottles":"yes","recycling:paper":"yes","recycling_type":"container"}},"type":"Feature"},
	{"geometry":{"coordinates":[2.302005,49.89648],"type":"Point"},"properties":{"osm_id":"5573232728","tag":{"amenity":"waste_basket"}},"type":"Feature"},
	{"geometry":{"coordinates":[2.301486,49.896292],"type":"Point"},"properties":{"osm_id":"5573232740","tag":{"amenity":"waste_basket"}},"type":"Feature"},
	{"geometry":{"coordinates":[2.320444,49.898131],"type":"Point"},"properties":{"osm_id":"5760365083","tag":{"amenity":"waste_basket"}},"type":"Feature"},
	{"geometry":{"coordinates":[2.308456,49.896618],"type":"Point"},"properties":{"osm_id":"5810395123","tag":{"amenity":"waste_basket","description":"Simple","mapillary":"TYMT7hKjYnjT6ft84wHWZg","material":"metal","waste":"trash"}},"type":"Feature"},
	{"geometry":{"coordinates":[2.304729,49.906335],"type":"Point"},"properties":{"osm_id":"5845585742","tag":{"amenity":"recycling","recycling:glass_bottles":"yes","recycling:paper":"yes","recycling_type":"container"}},"type":"Feature"},
	{"geometry":{"coordinates":[2.288059,49.899998],"type":"Point"},"properties":{"osm_id":"5934172330","tag":{"amenity":"recycling","recycling:glass_bottles":"yes","recycling:paper":"yes","recycling_type":"container"}},"type":"Feature"},
	{"geometry":{"coordinates":[2.288511,49.904056],"type":"Point"},"properties":{"osm_id":"6043439324","tag":{"amenity":"waste_basket"}},"type":"Feature"},
	{"geometry":{"coordinates":[2.333696,49.89627],"type":"Point"},"properties":{"osm_id":"6269701595","tag":{"amenity":"waste_basket"}},"type":"Feature"},
	{"geometry":{"coordinates":[2.33437,49.895988],"type":"Point"},"properties":{"osm_id":"6269701603","tag":{"amenity":"waste_basket"}},"type":"Feature"},
	{"geometry":{"coordinates":[2.334651,49.895791],"type":"Point"},"properties":{"osm_id":"6269701607","tag":{"amenity":"waste_basket"}},"type":"Feature"},
	{"geometry":{"coordinates":[2.285187,49.907076],"type":"Point"},"properties":{"osm_id":"6310890161","tag":{"amenity":"waste_basket"}},"type":"Feature"},
	{"geometry":{"coordinates":[2.289044,49.903921],"type":"Point"},"properties":{"osm_id":"6310890164","tag":{"amenity":"waste_basket"}},"type":"Feature"},
	{"geometry":{"coordinates":[2.289128,49.903814],"type":"Point"},"properties":{"osm_id":"6310890166","tag":{"amenity":"waste_basket"}},"type":"Feature"},
	{"geometry":{"coordinates":[2.290586,49.903232],"type":"Point"},"properties":{"osm_id":"6310890168","tag":{"amenity":"waste_basket"}},"type":"Feature"},
	{"geometry":{"coordinates":[2.295779,49.902336],"type":"Point"},"properties":{"osm_id":"6310890173","tag":{"amenity":"waste_basket"}},"type":"Feature"},
	{"geometry":{"coordinates":[2.305846,49.900815],"type":"Point"},"properties":{"osm_id":"6393163393","tag":{"amenity":"waste_basket","description":"Simple","mapillary":"kGSfVRbMQCPtrjXdrzG0ng","material":"metal"}},"type":"Feature"},
	{"geometry":{"coordinates":[2.308066,49.898797],"type":"Point"},"properties":{"osm_id":"6400440989","tag":{"amenity":"waste_basket"}},"type":"Feature"},
	{"geometry":{"coordinates":[2.308711,49.897956],"type":"Point"},"properties":{"osm_id":"6400461190","tag":{"amenity":"waste_basket","description":"Simple","mapillary":"aA52c3akydy7s6i0phtWsA","material":"metal"}},"type":"Feature"},
	{"geometry":{"coordinates":[2.309037,49.897315],"type":"Point"},"properties":{"osm_id":"6400485385","tag":{"amenity":"waste_basket","description":"Simple","mapillary":"zwIqylfhk7IHd2uKnBRiFg","material":"metal"}},"type":"Feature"},
	{"geometry":{"coordinates":[2.306286,49.911748],"type":"Point"},"properties":{"osm_id":"6520657685","tag":{"amenity":"waste_basket","description":"Simple","material":"metal"}},"type":"Feature"},
	{"geometry":{"coordinates":[2.300435,49.899736],"type":"Point"},"properties":{"osm_id":"6522717685","tag":{"amenity":"waste_basket","description":"Simple","mapillary":"kfaJo-SsTVvV0mZElczGJA","material":"metal"}},"type":"Feature"},
	{"geometry":{"coordinates":[2.30805,49.900247],"type":"Point"},"properties":{"osm_id":"6522727685","tag":{"amenity":"waste_basket","description":"Simple","mapillary":"9zHfAQmQYL_OSDgScn8gzA","material":"metal"}},"type":"Feature"},
	{"geometry":{"coordinates":[2.310275,49.898058],"type":"Point"},"properties":{"osm_id":"6522730885","tag":{"amenity":"waste_basket","description":"Simple","mapillary":"d6RQNhKb2VaynX3PLTHKEg","material":"metal"}},"type":"Feature"},
	{"geometry":{"coordinates":[2.309386,49.911374],"type":"Point"},"properties":{"osm_id":"6541768387","tag":{"amenity":"waste_basket","description":"Simple","mapillary":"V4zi-kDBODItTuZdleqJow"}},"type":"Feature"},
	{"geometry":{"coordinates":[2.310116,49.912427],"type":"Point"},"properties":{"osm_id":"6541794489","tag":{"amenity":"waste_basket","description":"Simple","mapillary":"zHve_2BVWg4MqxRF71lKUA","material":"metal"}},"type":"Feature"},
	{"geometry":{"coordinates":[2.309966,49.911319],"type":"Point"},"properties":{"osm_id":"6541800386","tag":{"amenity":"waste_basket","description":"Simple","material":"metal"}},"type":"Feature"},
	{"geometry":{"coordinates":[2.309986,49.911419],"type":"Point"},"properties":{"osm_id":"6541800387","tag":{"amenity":"waste_basket","description":"Simple","material":"metal"}},"type":"Feature"},
	{"geometry":{"coordinates":[2.30984,49.911219],"type":"Point"},"properties":{"osm_id":"6541811986","tag":{"amenity":"waste_basket","description":"Simple"}},"type":"Feature"},
	{"geometry":{"coordinates":[2.310049,49.912524],"type":"Point"},"properties":{"osm_id":"6542350185","tag":{"amenity":"waste_basket","description":"Simple","mapillary":"zHve_2BVWg4MqxRF71lKUA"}},"type":"Feature"},
	{"geometry":{"coordinates":[2.30811,49.912119],"type":"Point"},"properties":{"osm_id":"6542404185","tag":{"amenity":"waste_basket","description":"Simple","mapillary":"SLVHyygG299eWPWPWZQ76g"}},"type":"Feature"},
	{"geometry":{"coordinates":[2.312343,49.913223],"type":"Point"},"properties":{"osm_id":"6542521890","tag":{"amenity":"waste_basket","description":"Simple","mapillary":"JMl0cSkFt2HcJC3XbIC3mw"}},"type":"Feature"},
	{"geometry":{"coordinates":[2.312501,49.913152],"type":"Point"},"properties":{"osm_id":"6542533486","tag":{"amenity":"waste_basket","description":"Simple","mapillary":"NAyB_WcbjlLphktvnhVj5Q"}},"type":"Feature"},
	{"geometry":{"coordinates":[2.308687,49.913738],"type":"Point"},"properties":{"osm_id":"6544106985","tag":{"amenity":"waste_basket","description":"Simple"}},"type":"Feature"},
	{"geometry":{"coordinates":[2.308333,49.913657],"type":"Point"},"properties":{"osm_id":"6544107788","tag":{"amenity":"waste_basket","description":"Simple","mapillary":"f9YEoWDn97AZnY2CNr8R1Q"}},"type":"Feature"},
	{"geometry":{"coordinates":[2.303015,49.911931],"type":"Point"},"properties":{"osm_id":"6544228088","tag":{"amenity":"waste_basket","description":"Simple","mapillary":"PeZEumsvyga8tsITLQp3JQ","material":"metal"}},"type":"Feature"},
	{"geometry":{"coordinates":[2.302432,49.911773],"type":"Point"},"properties":{"osm_id":"6544240488","tag":{"amenity":"waste_basket","description":"Simple","mapillary":"Dbjc8Irk_hOhv7In3U2D_g","material":"metal"}},"type":"Feature"},
	{"geometry":{"coordinates":[2.302938,49.911945],"type":"Point"},"properties":{"osm_id":"6544247285","tag":{"amenity":"waste_basket","description":"Simple","mapillary":"G8VnBB6U9ipqzWXHf1m46Q","material":"metal"}},"type":"Feature"},
	{"geometry":{"coordinates":[2.300774,49.911683],"type":"Point"},"properties":{"osm_id":"6544313986","tag":{"amenity":"waste_basket","description":"Simple","mapillary":"7FonLJ9LzOzJsxXPy-pF5g","material":"metal"}},"type":"Feature"},
	{"geometry":{"coordinates":[2.300806,49.91152],"type":"Point"},"properties":{"osm_id":"6544874016","tag":{"amenity":"waste_basket","description":"Simple","mapillary":"ROvAPbq0BKh2jJ2e_Tvd8w","material":"metal"}},"type":"Feature"},
	{"geometry":{"coordinates":[2.300583,49.911256],"type":"Point"},"properties":{"osm_id":"6546803600","tag":{"amenity":"waste_basket","description":"Simple","material":"metal"}},"type":"Feature"},
	{"geometry":{"coordinates":[2.300546,49.911093],"type":"Point"},"properties":{"osm_id":"6552343085","tag":{"amenity":"waste_basket","description":"Simple","mapillary":"sW-jomh75Qxbb20HtBhIJw"}},"type":"Feature"},
	{"geometry":{"coordinates":[2.30057,49.910584],"type":"Point"},"properties":{"osm_id":"6562373885","tag":{"amenity":"waste_basket","description":"Simple","mapillary":"nyNZaRw5i_JGm68wtDESaw"}},"type":"Feature"},
	{"geometry":{"coordinates":[2.303304,49.911791],"type":"Point"},"properties":{"osm_id":"6562461885","tag":{"amenity":"waste_basket","description":"Simple","material":"metal"}},"type":"Feature"},
	{"geometry":{"coordinates":[2.307099,49.911757],"type":"Point"},"properties":{"osm_id":"6562557685","tag":{"amenity":"waste_basket","description":"Simple","mapillary":"986UhGoAEZ4lD5uzTF0JnQ","material":"metal"}},"type":"Feature"},
	{"geometry":{"coordinates":[2.306938,49.912007],"type":"Point"},"properties":{"osm_id":"6562587285","tag":{"amenity":"waste_basket","description":"Simple","mapillary":"jyMeTvc3YHlL6EMTEwmJ-A","material":"metal"}},"type":"Feature"},
	{"geometry":{"coordinates":[2.300345,49.910291],"type":"Point"},"properties":{"osm_id":"6562843886","tag":{"amenity":"waste_basket","description":"Simple","mapillary":"o-t8atbLk63b8HO_GexBCQ"}},"type":"Feature"},
	{"geometry":{"coordinates":[2.300813,49.910521],"type":"Point"},"properties":{"osm_id":"6562866685","tag":{"amenity":"waste_basket","description":"Simple","mapillary":"cvtZw0FxCyzEcNpseUxCfg","material":"metal"}},"type":"Feature"},
	{"geometry":{"coordinates":[2.300253,49.910595],"type":"Point"},"properties":{"osm_id":"6562869986","tag":{"amenity":"waste_basket","description":"Simple","mapillary":"ZuUSkWtOZtVGbrnCDnrUYQ","material":"metal"}},"type":"Feature"},
	{"geometry":{"coordinates":[2.300251,49.910848],"type":"Point"},"properties":{"osm_id":"6562945985","tag":{"amenity":"waste_basket","description":"Simple","mapillary":"xho4ob2Nlpsa8UDRyn6kFA"}},"type":"Feature"},
	{"geometry":{"coordinates":[2.300263,49.911419],"type":"Point"},"properties":{"osm_id":"6562954586","tag":{"amenity":"waste_basket","description":"Simple","mapillary":"X8nrpXOVX_ZrvLWu5AJToQ","material":"metal"}},"type":"Feature"},
	{"geometry":{"coordinates":[2.304275,49.908757],"type":"Point"},"properties":{"osm_id":"6567176286","tag":{"amenity":"waste_basket","description":"Simple","mapillary":"c1QxJGDzjMBmRuL5sIJeSQ","material":"metal"}},"type":"Feature"},
	{"geometry":{"coordinates":[2.304548,49.908415],"type":"Point"},"properties":{"osm_id":"6567204086","tag":{"amenity":"waste_basket","description":"Simple","mapillary":"yzWYyL5qJ1mLpt7dUN7RHg","material":"steel"}},"type":"Feature"},
	{"geometry":{"coordinates":[2.303701,49.907973],"type":"Point"},"properties":{"osm_id":"6567313685","tag":{"amenity":"waste_basket","description":"Simple","mapillary":"gf5uTN0JYPH7S-3ZQ6TMrQ","material":"metal"}},"type":"Feature"},
	{"geometry":{"coordinates":[2.303958,49.9077],"type":"Point"},"properties":{"osm_id":"6567313686","tag":{"amenity":"waste_basket","description":"Simple","mapillary":"P0DuBIsNDXTniw27d6O0yg","material":"steel"}},"type":"Feature"},
	{"geometry":{"coordinates":[2.306914,49.91255],"type":"Point"},"properties":{"osm_id":"6567659885","tag":{"amenity":"waste_basket","description":"Simple","mapillary":"nLyGn8LDss2bGHAOVXfeIw","material":"metal"}},"type":"Feature"},
	{"geometry":{"coordinates":[2.306463,49.912543],"type":"Point"},"properties":{"osm_id":"6567676185","tag":{"amenity":"waste_basket","description":"Simple","mapillary":"ZYykJ8AoP2s9JWziHv9Mnw","material":"metal"}},"type":"Feature"},
	{"geometry":{"coordinates":[2.306986,49.9138],"type":"Point"},"properties":{"osm_id":"6567713785","tag":{"amenity":"waste_basket","description":"Simple","mapillary":"xAzTIp93QJDj-ZMrOgqiyg","material":"metal"}},"type":"Feature"},
	{"geometry":{"coordinates":[2.305101,49.913681],"type":"Point"},"properties":{"osm_id":"6567735685","tag":{"amenity":"waste_basket","description":"Simple","mapillary":"X6_ikQP-SwagBEEWMLPZyw","material":"metal"}},"type":"Feature"},
	{"geometry":{"coordinates":[2.300361,49.911689],"type":"Point"},"properties":{"osm_id":"6567902185","tag":{"amenity":"waste_basket","description":"Simple","mapillary":"6mY724zB0fcy7og2-EregA","material":"metal"}},"type":"Feature"},
	{"geometry":{"coordinates":[2.300261,49.912687],"type":"Point"},"properties":{"osm_id":"6569328988","tag":{"amenity":"waste_basket","description":"Simple","mapillary":"6V5mSO2Z8fuelvQGehofmQ","material":"metal"}},"type":"Feature"},
	{"geometry":{"coordinates":[2.300364,49.912422],"type":"Point"},"properties":{"osm_id":"6569342285","tag":{"amenity":"waste_basket","description":"Simple","mapillary":"r7cL_nJvasKiaqOf5OFViQ","material":"metal"}},"type":"Feature"},
	{"geometry":{"coordinates":[2.304395,49.909064],"type":"Point"},"properties":{"osm_id":"6569987085","tag":{"amenity":"waste_basket","description":"Simple","mapillary":"-ANUPQlplb2bn6-f4T9SEg","material":"metal"}},"type":"Feature"},
	{"geometry":{"coordinates":[2.301776,49.913148],"type":"Point"},"properties":{"osm_id":"6570031788","tag":{"amenity":"waste_basket","description":"Simple","mapillary":"hW_VPnQva-uudwU4N7vbyw","material":"metal"}},"type":"Feature"},
	{"geometry":{"coordinates":[2.30043,49.913704],"type":"Point"},"properties":{"osm_id":"6570102885","tag":{"amenity":"waste_basket","description":"Simple","mapillary":"QSOuDJj4xJvHdIiy4gCpHA","material":"metal"}},"type":"Feature"},
	{"geometry":{"coordinates":[2.300113,49.913704],"type":"Point"},"properties":{"osm_id":"6570102887","tag":{"amenity":"waste_basket","description":"Simple","mapillary":"QJCjzJyOykY8ZQjR_9cXQg","material":"metal"}},"type":"Feature"},
	{"geometry":{"coordinates":[2.298645,49.913708],"type":"Point"},"properties":{"osm_id":"6572028585","tag":{"amenity":"waste_basket","description":"Simple","mapillary":"Ry0it4YQrj6URlEA7gEQgA","material":"wood"}},"type":"Feature"},
	{"geometry":{"coordinates":[2.298236,49.913684],"type":"Point"},"properties":{"osm_id":"6572030587","tag":{"amenity":"waste_basket","description":"Simple","mapillary":"elqsw_wlCoq0wTwyPEarFg","material":"metal"}},"type":"Feature"},
	{"geometry":{"coordinates":[2.296676,49.913688],"type":"Point"},"properties":{"osm_id":"6581128185","tag":{"amenity":"waste_basket","description":"Simple","mapillary":"2vjnwYj0X2VL5OhWSPSp1g","material":"metal"}},"type":"Feature"},
	{"geometry":{"coordinates":[2.296479,49.913817],"type":"Point"},"properties":{"osm_id":"6581130685","tag":{"amenity":"waste_basket","description":"Simple","mapillary":"9IPkKmsl-KLi7TC0rJMbig","material":"metal"}},"type":"Feature"},
	{"geometry":{"coordinates":[2.300364,49.90828],"type":"Point"},"properties":{"osm_id":"6581282185","tag":{"amenity":"waste_basket","description":"Simple","mapillary":"tyebNjfNnTSx265j_Q9q4w","material":"metal"}},"type":"Feature"},
	{"geometry":{"coordinates":[2.298657,49.909615],"type":"Point"},"properties":{"osm_id":"6581282186","tag":{"amenity":"waste_basket","description":"Simple","mapillary":"9TDu5uk-ewLtRwvWnot_mA","material":"metal"}},"type":"Feature"},
	{"geometry":{"coordinates":[2.298004,49.909678],"type":"Point"},"properties":{"osm_id":"6581288785","tag":{"amenity":"waste_basket","description":"Simple","mapillary":"QBBJc-TyCPhUy22asPETOw","material":"metal"}},"type":"Feature"},
	{"geometry":{"coordinates":[2.322086,49.91417],"type":"Point"},"properties":{"osm_id":"6581629485","tag":{"amenity":"waste_basket","description":"Simple","mapillary":"aXTwtrY2b2SlV5FNQxguDw","material":"metal"}},"type":"Feature"},
	{"geometry":{"coordinates":[2.322732,49.913883],"type":"Point"},"properties":{"osm_id":"6581631485","tag":{"amenity":"waste_basket","description":"Simple","mapillary":"9Qx3GpSlQVe5q8p7Sdy0xg","material":"metal"}},"type":"Feature"},
	{"geometry":{"coordinates":[2.325207,49.911913],"type":"Point"},"properties":{"osm_id":"6581643685","tag":{"amenity":"waste_basket","description":"Simple","mapillary":"DgLhNBjqnwnjc9LSL6OUtw","material":"metal"}},"type":"Feature"},
	{"geometry":{"coordinates":[2.314027,49.913638],"type":"Point"},"properties":{"osm_id":"6585937485","tag":{"amenity":"waste_basket","description":"Simple","mapillary":"NAyB_WcbjlLphktvnhVj5Q","material":"metal"}},"type":"Feature"},
	{"geometry":{"coordinates":[2.323892,49.910583],"type":"Point"},"properties":{"osm_id":"6586550741","tag":{"amenity":"waste_basket","description":"Simple","mapillary":"FR5X894RKGHskIf1vWT5bA","material":"metal"}},"type":"Feature"},
	{"geometry":{"coordinates":[2.323882,49.910295],"type":"Point"},"properties":{"osm_id":"6586561169","tag":{"amenity":"waste_basket","description":"Simple","mapillary":"aTwFWkIA_Df7BYQNe-cvPg","material":"metal"}},"type":"Feature"},
	{"geometry":{"coordinates":[2.324203,49.910398],"type":"Point"},"properties":{"osm_id":"6586581885","tag":{"amenity":"waste_basket","description":"Simple","mapillary":"b3rI7iYeB2QmGQdlE0l17g","material":"metal"}},"type":"Feature"},
	{"geometry":{"coordinates":[2.325561,49.911538],"type":"Point"},"properties":{"osm_id":"6586592685","tag":{"amenity":"waste_basket","description":"Simple","mapillary":"6HEz-i3ZRGniSXCLnnGGiA","material":"metal"}},"type":"Feature"},
	{"geometry":{"coordinates":[2.315875,49.912483],"type":"Point"},"properties":{"osm_id":"6619065386","tag":{"amenity":"waste_basket","description":"Simple","mapillary":"y7PWSuoF5eW7RrnBrEc0SA","material":"metal"}},"type":"Feature"},
	{"geometry":{"coordinates":[2.31378,49.913556],"type":"Point"},"properties":{"osm_id":"6619134285","tag":{"amenity":"waste_basket","description":"Simple","mapillary":"AJOL66DXnZiIIYGmAkGCPg","material":"metal"}},"type":"Feature"},
	{"geometry":{"coordinates":[2.316236,49.912597],"type":"Point"},"properties":{"osm_id":"6619141985","tag":{"amenity":"waste_basket","description":"Simple","mapillary":"K4q-N3hsu9-LFPOdESGsBA","material":"metal"}},"type":"Feature"},
	{"geometry":{"coordinates":[2.316512,49.912223],"type":"Point"},"properties":{"osm_id":"6619148085","tag":{"amenity":"waste_basket","description":"Simple","mapillary":"dFrgHTVBPnJ8LTtNxi61RQ","material":"metal"}},"type":"Feature"},
	{"geometry":{"coordinates":[2.324914,49.912274],"type":"Point"},"properties":{"osm_id":"6619148086","tag":{"amenity":"waste_basket","description":"Simple","mapillary":"DV_eShpQgbubCSDt7ZAFEg","material":"metal"}},"type":"Feature"},
	{"geometry":{"coordinates":[2.322068,49.914409],"type":"Point"},"properties":{"osm_id":"6619154585","tag":{"amenity":"waste_basket","description":"Simple","mapillary":"dcqXcbcX6HIHY0ulzY6wRw","material":"metal"}},"type":"Feature"},
	{"geometry":{"coordinates":[2.319827,49.904473],"type":"Point"},"properties":{"osm_id":"6619166588","tag":{"amenity":"waste_basket","description":"Simple","mapillary":"Do74w0mDBZRMQFkMvrOx0A","material":"metal"}},"type":"Feature"},
	{"geometry":{"coordinates":[2.325001,49.912819],"type":"Point"},"properties":{"osm_id":"6619199485","tag":{"amenity":"waste_basket","description":"Simple","mapillary":"wVxvoy2-1YLCWEkm2ZmWRg","material":"metal"}},"type":"Feature"},
	{"geometry":{"coordinates":[2.314669,49.899736],"type":"Point"},"properties":{"osm_id":"6619240887","tag":{"amenity":"waste_basket","description":"Simple","mapillary":"dH8v64WAFt3i25QIZx6Bdg","material":"metal"}},"type":"Feature"},
	{"geometry":{"coordinates":[2.314342,49.899739],"type":"Point"},"properties":{"osm_id":"6619241289","tag":{"amenity":"waste_basket","description":"Simple","mapillary":"0UZhXpN8SZneTP6MccJOew","material":"metal"}},"type":"Feature"},
	{"geometry":{"coordinates":[2.320404,49.906969],"type":"Point"},"properties":{"osm_id":"6619247685","tag":{"amenity":"waste_basket","description":"Simple","mapillary":"ANvjvDQ9EU7Q7CTB6fP5kg","material":"metal"}},"type":"Feature"},
	{"geometry":{"coordinates":[2.318888,49.902813],"type":"Point"},"properties":{"osm_id":"6619274385","tag":{"amenity":"waste_basket","description":"Simple","mapillary":"FL17pms5dmbJ27E4dMC0jQ","material":"metal"}},"type":"Feature"},
	{"geometry":{"coordinates":[2.313291,49.900149],"type":"Point"},"properties":{"osm_id":"6619446686","tag":{"amenity":"waste_basket","description":"Simple","mapillary":"H78-XMoe4fXZfhawZxd_6g","material":"metal"}},"type":"Feature"},
	{"geometry":{"coordinates":[2.314853,49.899596],"type":"Point"},"properties":{"osm_id":"6619515185","tag":{"amenity":"waste_basket","description":"Simple","mapillary":"_kqOY5h2ND5WazsC9D3toA","material":"metal"}},"type":"Feature"},
	{"geometry":{"coordinates":[2.311826,49.90008],"type":"Point"},"properties":{"osm_id":"6619678885","tag":{"amenity":"waste_basket","description":"Simple","mapillary":"vx5XlrUCFKPdIYu1Rb8L8A","material":"metal"}},"type":"Feature"},
	{"geometry":{"coordinates":[2.316163,49.89727],"type":"Point"},"properties":{"osm_id":"6619832585","tag":{"amenity":"waste_basket","description":"Simple","mapillary":"ieRI7f6st6HuYsqIeyZLUg","material":"metal"}},"type":"Feature"},
	{"geometry":{"coordinates":[2.315201,49.897983],"type":"Point"},"properties":{"osm_id":"6619907585","tag":{"amenity":"waste_basket","description":"Simple","mapillary":"MQcSPkKC9O4s576io7sWxw","material":"wood"}},"type":"Feature"},
	{"geometry":{"coordinates":[2.291535,49.897046],"type":"Point"},"properties":{"osm_id":"6622348073","tag":{"amenity":"waste_basket"}},"type":"Feature"},
	{"geometry":{"coordinates":[2.292068,49.896988],"type":"Point"},"properties":{"osm_id":"6622348075","tag":{"amenity":"waste_basket"}},"type":"Feature"},
	{"geometry":{"coordinates":[2.292275,49.896998],"type":"Point"},"properties":{"osm_id":"6622348077","tag":{"amenity":"waste_basket"}},"type":"Feature"},
	{"geometry":{"coordinates":[2.2905,49.895633],"type":"Point"},"properties":{"osm_id":"6622365633","tag":{"amenity":"waste_basket","material":"steel"}},"type":"Feature"},
	{"geometry":{"coordinates":[2.317573,49.908867],"type":"Point"},"properties":{"osm_id":"6622679188","tag":{"amenity":"waste_basket","description":"Simple","mapillary":"tfJDBla-XV8LZbmifCSRtg","material":"metal"}},"type":"Feature"},
	{"geometry":{"coordinates":[2.314171,49.900888],"type":"Point"},"properties":{"osm_id":"6622680585","tag":{"amenity":"waste_basket","description":"Simple","mapillary":"XRX8pByU-FEJGetlTOuG0A","material":"metal"}},"type":"Feature"},
	{"geometry":{"coordinates":[2.306412,49.901067],"type":"Point"},"properties":{"osm_id":"6640274787","tag":{"amenity":"waste_basket","description":"Simple","mapillary":"FQmgN7hrMTTsZP61YgPr7w","material":"metal"}},"type":"Feature"},
	{"geometry":{"coordinates":[2.306571,49.900901],"type":"Point"},"properties":{"osm_id":"6640274789","tag":{"amenity":"waste_basket","description":"Simple","mapillary":"_Cg53IX0dMuFhXB5lsWpOA","material":"metal"}},"type":"Feature"},
	{"geometry":{"coordinates":[2.306845,49.900815],"type":"Point"},"properties":{"osm_id":"6640309485","tag":{"amenity":"waste_basket","description":"Simple","mapillary":"TPeaWXSUacTg80Oc5kV4-w","material":"metal"}},"type":"Feature"},
	{"geometry":{"coordinates":[2.307104,49.900661],"type":"Point"},"properties":{"osm_id":"6640323485","tag":{"amenity":"waste_basket","description":"Simple","mapillary":"OzSP1lWjtR2I1D1EThEKFQ","material":"metal"}},"type":"Feature"},
	{"geometry":{"coordinates":[2.307622,49.900532],"type":"Point"},"properties":{"osm_id":"6640327385","tag":{"amenity":"waste_basket","description":"Simple","mapillary":"waurpHIMfyxjBCiVH9QA8w","material":"metal"}},"type":"Feature"},
	{"geometry":{"coordinates":[2.308393,49.900212],"type":"Point"},"properties":{"osm_id":"6640382785","tag":{"amenity":"waste_basket","description":"Simple","mapillary":"DViij2LKo02J_4h3HYmzng","material":"metal"}},"type":"Feature"},
	{"geometry":{"coordinates":[2.30839,49.900289],"type":"Point"},"properties":{"osm_id":"6640384885","tag":{"amenity":"waste_basket","description":"Simple","mapillary":"EVTMzHxU9_tes8woijjX8A","material":"metal"}},"type":"Feature"},
	{"geometry":{"coordinates":[2.307436,49.900442],"type":"Point"},"properties":{"osm_id":"6640501585","tag":{"amenity":"waste_basket","description":"Simple","mapillary":"weTU79fpQuvofmDT3g-yTA","material":"metal"}},"type":"Feature"},
	{"geometry":{"coordinates":[2.306325,49.90078],"type":"Point"},"properties":{"osm_id":"6640501589","tag":{"amenity":"waste_basket","description":"Simple","mapillary":"8mSAk9incLa7F_yHXPAeGQ","material":"metal"}},"type":"Feature"},
	{"geometry":{"coordinates":[2.305362,49.901051],"type":"Point"},"properties":{"osm_id":"6642653585","tag":{"amenity":"waste_basket","description":"Simple","mapillary":"HgYmO5GeEDwZqcNQUX5Fkg","material":"metal"}},"type":"Feature"},
	{"geometry":{"coordinates":[2.304955,49.901183],"type":"Point"},"properties":{"osm_id":"6642653587","tag":{"amenity":"waste_basket","description":"Simple","mapillary":"BF0Jan4yKqGufEU06_vJeA","material":"metal"}},"type":"Feature"},
	{"geometry":{"coordinates":[2.304323,49.901335],"type":"Point"},"properties":{"osm_id":"6642670086","tag":{"amenity":"waste_basket","description":"Simple","mapillary":"O4-i7FnKvatU0wHQ0rKS1A","material":"metal"}},"type":"Feature"},
	{"geometry":{"coordinates":[2.303664,49.901597],"type":"Point"},"properties":{"osm_id":"6642747086","tag":{"amenity":"waste_basket","description":"Simple","mapillary":"cWD3IDr18AK01hNYi1Fymg","material":"metal"}},"type":"Feature"},
	{"geometry":{"coordinates":[2.305648,49.900517],"type":"Point"},"properties":{"osm_id":"6642831696","tag":{"amenity":"waste_basket","description":"Simple","mapillary":"fJETCvSYDg6Og6OedsHbxQ","material":"metal"}},"type":"Feature"},
	{"geometry":{"coordinates":[2.306613,49.89936],"type":"Point"},"properties":{"osm_id":"6642831698","tag":{"amenity":"waste_basket","description":"Simple","mapillary":"nlZVCqLSA4CTfLo4mWOh3w","material":"metal"}},"type":"Feature"},
	{"geometry":{"coordinates":[2.306109,49.899035],"type":"Point"},"properties":{"osm_id":"6642832093","tag":{"amenity":"waste_basket","description":"Simple","mapillary":"2i0dkc7cWJDw_ijPC0B6CQ","material":"plastic"}},"type":"Feature"},
	{"geometry":{"coordinates":[2.306089,49.89914],"type":"Point"},"properties":{"osm_id":"6642839488","tag":{"amenity":"waste_basket","description":"Simple","mapillary":"pEK8jXsuJVMgf6czAozNXA","material":"plastic"}},"type":"Feature"},
	{"geometry":{"coordinates":[2.306078,49.899465],"type":"Point"},"properties":{"osm_id":"6642842488","tag":{"amenity":"waste_basket","description":"Simple","mapillary":"FzjF8l3p37rvVgjFeL0FaA","material":"metal"}},"type":"Feature"},
	{"geometry":{"coordinates":[2.306431,49.899559],"type":"Point"},"properties":{"osm_id":"6642847486","tag":{"amenity":"waste_basket","description":"Simple","mapillary":"KddozzDs1SyU5dWOfrKXOg","material":"metal"}},"type":"Feature"},
	{"geometry":{"coordinates":[2.305789,49.90011],"type":"Point"},"properties":{"osm_id":"6642848186","tag":{"amenity":"waste_basket","description":"Simple","mapillary":"xb9O_IJ-BLHNTU38h-qRnA","material":"metal"}},"type":"Feature"},
	{"geometry":{"coordinates":[2.30616,49.900438],"type":"Point"},"properties":{"osm_id":"6642886686","tag":{"amenity":"waste_basket","description":"Simple","mapillary":"IqHP9SBZHAmouw9_TouILA","material":"metal"}},"type":"Feature"},
	{"geometry":{"coordinates":[2.305771,49.900224],"type":"Point"},"properties":{"osm_id":"6642887185","tag":{"amenity":"waste_basket","description":"Simple","mapillary":"o13FANUyY7gcsbA1GEu3ew","material":"metal"}},"type":"Feature"},
	{"geometry":{"coordinates":[2.309516,49.900262],"type":"Point"},"properties":{"osm_id":"6643344988","tag":{"amenity":"waste_basket","description":"Simple","mapillary":"1FCYY2pxn44GKIB0NLPJQw","material":"metal"}},"type":"Feature"},
	{"geometry":{"coordinates":[2.310575,49.900017],"type":"Point"},"properties":{"osm_id":"6643348985","tag":{"amenity":"waste_basket","description":"Simple","mapillary":"1tu-omWnShlSBCZmJ5nFdw","material":"metal"}},"type":"Feature"},
	{"geometry":{"coordinates":[2.310068,49.900119],"type":"Point"},"properties":{"osm_id":"6643348986","tag":{"amenity":"waste_basket","description":"Simple","mapillary":"CEOB9J56XOH9L2bQ-krisg","material":"metal"}},"type":"Feature"},
	{"geometry":{"coordinates":[2.309915,49.900176],"type":"Point"},"properties":{"osm_id":"6643352785","tag":{"amenity":"waste_basket","description":"Simple","mapillary":"2qEdaMsE5Q_rTKXnGR_NxA","material":"metal"}},"type":"Feature"},
	{"geometry":{"coordinates":[2.309714,49.900232],"type":"Point"},"properties":{"osm_id":"6643352787","tag":{"amenity":"waste_basket","description":"Simple","mapillary":"7K2UKTXDlezRZxhEd64iUA","material":"metal"}},"type":"Feature"},
	{"geometry":{"coordinates":[2.308879,49.900334],"type":"Point"},"properties":{"osm_id":"6643352789","tag":{"amenity":"waste_basket","description":"Simple","mapillary":"ivkMRAXSZUvJHXrJjKHPzQ","material":"metal"}},"type":"Feature"},
	{"geometry":{"coordinates":[2.308652,49.900447],"type":"Point"},"properties":{"osm_id":"6643403785","tag":{"amenity":"waste_basket","description":"Simple","mapillary":"etM00j6aj2oNJbAgReu86g","material":"metal"}},"type":"Feature"},
	{"geometry":{"coordinates":[2.308675,49.900223],"type":"Point"},"properties":{"osm_id":"6643431886","tag":{"amenity":"waste_basket","description":"Simple","mapillary":"sge8wSkijFYO-borlBDh9g","material":"metal"}},"type":"Feature"},
	{"geometry":{"coordinates":[2.310733,49.8996],"type":"Point"},"properties":{"osm_id":"6643464786","tag":{"amenity":"waste_basket","description":"Simple","mapillary":"Q8KkzHhphRSyxfQLZPHAXw","material":"metal"}},"type":"Feature"},
	{"geometry":{"coordinates":[2.309064,49.90008],"type":"Point"},"properties":{"osm_id":"6643472685","tag":{"amenity":"waste_basket","description":"Simple","mapillary":"TNn9iqkwz8bFEOrdipDCQA","material":"metal"}},"type":"Feature"},
	{"geometry":{"coordinates":[2.309306,49.900015],"type":"Point"},"properties":{"osm_id":"6643475485","tag":{"amenity":"waste_basket","description":"Simple","mapillary":"61Ej1JIhR1oqRmJDQO2YMg","material":"metal"}},"type":"Feature"},
	{"geometry":{"coordinates":[2.310642,49.898564],"type":"Point"},"properties":{"osm_id":"6643475486","tag":{"amenity":"waste_basket","description":"Simple","mapillary":"eylEexUWOFz46yC4X4x0ZQ","material":"metal"}},"type":"Feature"},
	{"geometry":{"coordinates":[2.309942,49.899826],"type":"Point"},"properties":{"osm_id":"6643476585","tag":{"amenity":"waste_basket","description":"Simple","mapillary":"8UPno31b_o6aLRPwawMOPw","material":"metal"}},"type":"Feature"},
	{"geometry":{"coordinates":[2.310167,49.897952],"type":"Point"},"properties":{"osm_id":"6643476593","tag":{"amenity":"waste_basket","description":"Simple","mapillary":"4hTDys69y5V7XThHG6LxBg","material":"metal"}},"type":"Feature"},
	{"geometry":{"coordinates":[2.311142,49.899472],"type":"Point"},"properties":{"osm_id":"6643479185","tag":{"amenity":"waste_basket","description":"Simple","mapillary":"wC29ajHMwB14-EByYAtLSw","material":"metal"}},"type":"Feature"},
	{"geometry":{"coordinates":[2.310981,49.898753],"type":"Point"},"properties":{"osm_id":"6643482885","tag":{"amenity":"waste_basket","description":"Simple","mapillary":"ukNmuz1EtJp11gTFvRceUQ","material":"metal"}},"type":"Feature"},
	{"geometry":{"coordinates":[2.309929,49.89818],"type":"Point"},"properties":{"osm_id":"6643642594","tag":{"amenity":"waste_basket","description":"Simple","mapillary":"4hTDys69y5V7XThHG6LxBg","material":"metal"}},"type":"Feature"},
	{"geometry":{"coordinates":[2.309347,49.898369],"type":"Point"},"properties":{"osm_id":"6643685386","tag":{"amenity":"waste_basket","description":"Simple","mapillary":"Qa8Hpsh8Zmb9dUkFZ9z5pA","material":"metal"}},"type":"Feature"},
	{"geometry":{"coordinates":[2.31687,49.913081],"type":"Point"},"properties":{"osm_id":"6646422585","tag":{"amenity":"waste_basket","description":"Simple","mapillary":"PBf9Os9ZpfcMGkx-ZG3o8g","material":"metal"}},"type":"Feature"},
	{"geometry":{"coordinates":[2.316516,49.912762],"type":"Point"},"properties":{"osm_id":"6646424790","tag":{"amenity":"waste_basket","description":"Simple","mapillary":"eKfWCPKxKswPuvPHBrT31A","material":"metal"}},"type":"Feature"},
	{"geometry":{"coordinates":[2.316253,49.913213],"type":"Point"},"properties":{"osm_id":"6646424791","tag":{"amenity":"waste_basket","description":"Simple","mapillary":"7UAx6bCJVrwzH2UbWiJniQ","material":"metal"}},"type":"Feature"},
	{"geometry":{"coordinates":[2.3165,49.913075],"type":"Point"},"properties":{"osm_id":"6646425286","tag":{"amenity":"waste_basket","description":"Simple","mapillary":"lkN3OvqKa5-1SJ8OIxGTCg","material":"metal"}},"type":"Feature"},
	{"geometry":{"coordinates":[2.31696,49.913211],"type":"Point"},"properties":{"osm_id":"6646437886","tag":{"amenity":"waste_basket","description":"Simple","mapillary":"UklNc_AckAyVQOrCPO30tw","material":"metal"}},"type":"Feature"},
	{"geometry":{"coordinates":[2.316796,49.913407],"type":"Point"},"properties":{"osm_id":"6646442585","tag":{"amenity":"waste_basket","description":"Simple","mapillary":"IuXs1FO0bDllWc_GoucXuw","material":"metal"}},"type":"Feature"},
	{"geometry":{"coordinates":[2.316157,49.914411],"type":"Point"},"properties":{"osm_id":"6646452385","tag":{"amenity":"waste_basket","description":"Simple","mapillary":"3xeca4G2g7F0Ov-hL6drhg","material":"metal"}},"type":"Feature"},
	{"geometry":{"coordinates":[2.314775,49.914477],"type":"Point"},"properties":{"osm_id":"6646452386","tag":{"amenity":"waste_basket","description":"Simple","mapillary":"4nrD7N2bnIq8TC4CqV-h5g","material":"metal"}},"type":"Feature"},
	{"geometry":{"coordinates":[2.309014,49.897717],"type":"Point"},"properties":{"osm_id":"6646468185","tag":{"amenity":"waste_basket","description":"Simple","mapillary":"bzJbBtPuq55POZgluQdqeg","material":"metal"}},"type":"Feature"},
	{"geometry":{"coordinates":[2.30955,49.897717],"type":"Point"},"properties":{"osm_id":"6646472686","tag":{"amenity":"waste_basket","description":"Simple","mapillary":"JL0NG0lyJ9Yp4QsAI3YA2g","material":"metal"}},"type":"Feature"},
	{"geometry":{"coordinates":[2.309504,49.89714],"type":"Point"},"properties":{"osm_id":"6646477085","tag":{"amenity":"waste_basket","description":"Simple","mapillary":"p3xcFUSNt5OqoQQ93ud1yA","material":"metal"}},"type":"Feature"},
	{"geometry":{"coordinates":[2.308934,49.896361],"type":"Point"},"properties":{"osm_id":"6646517385","tag":{"amenity":"waste_basket","description":"Simple","mapillary":"5zzrwchH5pDl_R42rrxvLQ","material":"metal"}},"type":"Feature"},
	{"geometry":{"coordinates":[2.304216,49.90066],"type":"Point"},"properties":{"osm_id":"6659947886","tag":{"amenity":"waste_basket","description":"Simple","mapillary":"_vLNixFDRU_1oMMaOR3grQ","material":"metal"}},"type":"Feature"},
	{"geometry":{"coordinates":[2.306407,49.898455],"type":"Point"},"properties":{"osm_id":"6659952687","tag":{"amenity":"waste_basket","description":"Simple","mapillary":"QOsMJP_nexA2M1nwskOMzQ","material":"metal"}},"type":"Feature"},
	{"geometry":{"coordinates":[2.305346,49.899482],"type":"Point"},"properties":{"osm_id":"6659952985","tag":{"amenity":"waste_basket","description":"Simple","mapillary":"TpttKNiGK0505tGiPeJkBg","material":"metal"}},"type":"Feature"},
	{"geometry":{"coordinates":[2.306308,49.898671],"type":"Point"},"properties":{"osm_id":"6659975886","tag":{"amenity":"waste_basket","description":"Simple","mapillary":"_2KjrGomTnbax4i7EZOq_A","material":"metal"}},"type":"Feature"},
	{"geometry":{"coordinates":[2.308116,49.895713],"type":"Point"},"properties":{"osm_id":"6660775990","tag":{"amenity":"waste_basket","description":"Simple","mapillary":"tkqUv3NgYGyLOybM7UZweQ","material":"metal"}},"type":"Feature"},
	{"geometry":{"coordinates":[2.308665,49.895629],"type":"Point"},"properties":{"osm_id":"6660780688","tag":{"amenity":"waste_basket","description":"Simple","mapillary":"qO1UtVDYBP0BxOj4FGVKWg","material":"metal"}},"type":"Feature"},
	{"geometry":{"coordinates":[2.308816,49.895603],"type":"Point"},"properties":{"osm_id":"6660780689","tag":{"amenity":"waste_basket","description":"Simple","mapillary":"OD0CBBOXX7mFmimFD-tHWw","material":"metal"}},"type":"Feature"},
	{"geometry":{"coordinates":[2.307786,49.895772],"type":"Point"},"properties":{"osm_id":"6660789085","tag":{"amenity":"waste_basket","description":"Simple","mapillary":"p_-TMh4-4kXzrrrM-8CfBg","material":"metal"}},"type":"Feature"},
	{"geometry":{"coordinates":[2.308409,49.895671],"type":"Point"},"properties":{"osm_id":"6660797785","tag":{"amenity":"waste_basket","description":"Simple","mapillary":"aGw_Zw-PICdg4tljcNjCUA","material":"metal"}},"type":"Feature"},
	{"geometry":{"coordinates":[2.309387,49.896965],"type":"Point"},"properties":{"osm_id":"6660987085","tag":{"amenity":"waste_basket","description":"Simple","mapillary":"p3xcFUSNt5OqoQQ93ud1yA","material":"metal"}},"type":"Feature"},
	{"geometry":{"coordinates":[2.33023,49.911577],"type":"Point"},"properties":{"osm_id":"6665118785","tag":{"amenity":"waste_basket","description":"Simple","mapillary":"FHG0R3qKOmFFRZI1jVmn7w","material":"metal"}},"type":"Feature"},
	{"geometry":{"coordinates":[2.307775,49.895964],"type":"Point"},"properties":{"osm_id":"6665518886","tag":{"amenity":"waste_basket","description":"Simple","mapillary":"0ujk1Q_Yx6irW6JH9BIkuw","material":"metal"}},"type":"Feature"},
	{"geometry":{"coordinates":[2.308083,49.896435],"type":"Point"},"properties":{"osm_id":"6665528487","tag":{"amenity":"waste_basket","description":"Simple","mapillary":"b8bXg7rVtNUV-OO00IkngQ","material":"metal"}},"type":"Feature"},
	{"geometry":{"coordinates":[2.308671,49.897123],"type":"Point"},"properties":{"osm_id":"6665541085","tag":{"amenity":"waste_basket","description":"Simple","mapillary":"sMJGMBOrLy2Q7eNU3WwRIA","material":"metal"}},"type":"Feature"},
	{"geometry":{"coordinates":[2.308955,49.897489],"type":"Point"},"properties":{"osm_id":"6665541787","tag":{"amenity":"waste_basket","description":"Simple","mapillary":"ToDEnaRzi3leVvNTioBRqw","material":"metal"}},"type":"Feature"},
	{"geometry":{"coordinates":[2.308844,49.896853],"type":"Point"},"properties":{"osm_id":"6665546187","tag":{"amenity":"waste_basket","description":"Simple","mapillary":"qhHJ18mTJ_uOl1R904037g","material":"metal"}},"type":"Feature"},
	{"geometry":{"coordinates":[2.308652,49.896365],"type":"Point"},"properties":{"osm_id":"6665550786","tag":{"amenity":"waste_basket","description":"Simple","mapillary":"qhHJ18mTJ_uOl1R904037g","material":"metal"}},"type":"Feature"},
	{"geometry":{"coordinates":[2.307403,49.899556],"type":"Point"},"properties":{"osm_id":"6669606885","tag":{"amenity":"waste_basket","description":"Simple","mapillary":"pV9vr1oFLFzFGO_y7z8bkA","material":"metal"}},"type":"Feature"},
	{"geometry":{"coordinates":[2.316259,49.910263],"type":"Point"},"properties":{"osm_id":"6765640885","tag":{"amenity":"waste_basket","description":"Simple","mapillary":"f9zed58DfwIIhbVLSwuufQ","material":"metal"}},"type":"Feature"},
	{"geometry":{"coordinates":[2.309502,49.895436],"type":"Point"},"properties":{"osm_id":"6768634086","tag":{"amenity":"waste_basket","description":"Simple","mapillary":"3df4u5Nkrfo-Tj2st9cXGg","material":"metal"}},"type":"Feature"},
	{"geometry":{"coordinates":[2.311639,49.894945],"type":"Point"},"properties":{"osm_id":"6768640886","tag":{"amenity":"waste_basket","description":"Simple","mapillary":"fjXlL40bVBG63x6sf3GQBw","material":"metal"}},"type":"Feature"},
	{"geometry":{"coordinates":[2.302252,49.904321],"type":"Point"},"properties":{"osm_id":"6768687388","tag":{"amenity":"waste_basket","description":"Simple","mapillary":"xboAtbjNd_zg113w5ioHsg","material":"metal"}},"type":"Feature"},
	{"geometry":{"coordinates":[2.304575,49.904338],"type":"Point"},"properties":{"osm_id":"6768687400","tag":{"amenity":"waste_basket","description":"Simple","mapillary":"Li35jIW_xqdKbntVNIaGiQ","material":"metal"}},"type":"Feature"},
	{"geometry":{"coordinates":[2.300962,49.902133],"type":"Point"},"properties":{"osm_id":"6769263186","tag":{"amenity":"waste_basket","description":"Simple","mapillary":"TaUqn8TzRuDVg4dRvs02Kg","material":"metal"}},"type":"Feature"},
	{"geometry":{"coordinates":[2.311302,49.897749],"type":"Point"},"properties":{"osm_id":"6769452387","tag":{"amenity":"waste_basket","description":"Simple","mapillary":"jNfnxHoJ9d4GwsyhiJpaNQ","material":"metal"}},"type":"Feature"},
	{"geometry":{"coordinates":[2.311966,49.898459],"type":"Point"},"properties":{"osm_id":"6769465588","tag":{"amenity":"waste_basket","description":"Simple","mapillary":"mBKwmznE4OCZyaY7rx7zHQ","material":"metal"}},"type":"Feature"},
	{"geometry":{"coordinates":[2.311656,49.89825],"type":"Point"},"properties":{"osm_id":"6769465589","tag":{"amenity":"waste_basket","description":"Simple","mapillary":"1r0gdbpU4Z6iyjjDj-jrXg","material":"metal"}},"type":"Feature"},
	{"geometry":{"coordinates":[2.311235,49.897633],"type":"Point"},"properties":{"osm_id":"6769482585","tag":{"amenity":"waste_basket","description":"Simple","mapillary":"Z63rePGLoBvMz4QbsJ4_dw","material":"metal"}},"type":"Feature"},
	{"geometry":{"coordinates":[2.317417,49.906491],"type":"Point"},"properties":{"osm_id":"6771280785","tag":{"amenity":"waste_basket","description":"Simple","mapillary":"kW6IFsGBzGVxFp-k2DZX1A","material":"metal"}},"type":"Feature"},
	{"geometry":{"coordinates":[2.31694,49.906518],"type":"Point"},"properties":{"osm_id":"6771280786","tag":{"amenity":"waste_basket","description":"Simple","mapillary":"jJ_xveefavEwJBlXr0BgSw","material":"metal"}},"type":"Feature"},
	{"geometry":{"coordinates":[2.313571,49.905572],"type":"Point"},"properties":{"osm_id":"6771282885","tag":{"amenity":"waste_basket","description":"Simple","mapillary":"OBI_WIBMBeWCf-Jy5Yz70w","material":"metal"}},"type":"Feature"},
	{"geometry":{"coordinates":[2.309204,49.904287],"type":"Point"},"properties":{"osm_id":"6771287985","tag":{"amenity":"waste_basket","description":"Simple","mapillary":"N8wBEY2bq7JrsV2OW7ee3Q","material":"metal"}},"type":"Feature"},
	{"geometry":{"coordinates":[2.30877,49.903961],"type":"Point"},"properties":{"osm_id":"6771289285","tag":{"amenity":"waste_basket","description":"Simple","mapillary":"Seums1rri5Dlk4Vep3WNfA","material":"metal"}},"type":"Feature"},
	{"geometry":{"coordinates":[2.307024,49.903602],"type":"Point"},"properties":{"osm_id":"6771294085","tag":{"amenity":"waste_basket","description":"Simple","mapillary":"jZeeNtKgPmeBrP0iZNOG_Q","material":"metal"}},"type":"Feature"},
	{"geometry":{"coordinates":[2.309778,49.895586],"type":"Point"},"properties":{"osm_id":"6771297085","tag":{"amenity":"waste_basket","description":"Simple","mapillary":"7bPha_UfP93mhSuOB_JPLg","material":"metal"}},"type":"Feature"},
	{"geometry":{"coordinates":[2.310503,49.895976],"type":"Point"},"properties":{"osm_id":"6771374985","tag":{"amenity":"waste_basket","description":"Simple","mapillary":"JOcMqpMlUPzKoWXkLyJiPg","material":"metal"}},"type":"Feature"},
	{"geometry":{"coordinates":[2.311313,49.896854],"type":"Point"},"properties":{"osm_id":"6771384385","tag":{"amenity":"waste_basket","description":"Simple","mapillary":"6dcLWEFTJtmOBqqtV4-aGQ","material":"metal"}},"type":"Feature"},
	{"geometry":{"coordinates":[2.30682,49.903634],"type":"Point"},"properties":{"osm_id":"6774686285","tag":{"amenity":"waste_basket","description":"Simple","mapillary":"SyllzeFDtzlwwMxlMoAcZw","material":"metal"}},"type":"Feature"},
	{"geometry":{"coordinates":[2.306418,49.903398],"type":"Point"},"properties":{"osm_id":"6774686286","tag":{"amenity":"waste_basket","description":"Simple","mapillary":"OVD1icCl4mbMx_s7Iu8vaA","material":"metal"}},"type":"Feature"},
	{"geometry":{"coordinates":[2.304342,49.902935],"type":"Point"},"properties":{"osm_id":"6774692785","tag":{"amenity":"waste_basket","description":"Simple","mapillary":"DJ6VQfna0UfyNXLzS9grvQ","material":"metal"}},"type":"Feature"},
	{"geometry":{"coordinates":[2.303245,49.902762],"type":"Point"},"properties":{"osm_id":"6774696485","tag":{"amenity":"waste_basket","description":"Simple","mapillary":"ISxWCTi48KYQlupkL-DloA","material":"metal"}},"type":"Feature"},
	{"geometry":{"coordinates":[2.312608,49.904004],"type":"Point"},"properties":{"osm_id":"6774702286","tag":{"amenity":"waste_basket","description":"Simple","mapillary":"oL9Ohkw2zzwiB-syMMpCwQ","material":"metal"}},"type":"Feature"},
	{"geometry":{"coordinates":[2.312166,49.910769],"type":"Point"},"properties":{"osm_id":"6792867487","tag":{"amenity":"waste_basket","description":"Simple","mapillary":"D8sRsCgPr31SUN4O9R0fPA","material":"metal"}},"type":"Feature"},
	{"geometry":{"coordinates":[2.311932,49.910701],"type":"Point"},"properties":{"osm_id":"6792869687","tag":{"amenity":"waste_basket","description":"Simple","mapillary":"FgIRcISrFEp2J3Na2qgckw","material":"metal"}},"type":"Feature"},
	{"geometry":{"coordinates":[2.290865,49.907818],"type":"Point"},"properties":{"osm_id":"6792874091","tag":{"amenity":"waste_basket","description":"Simple","mapillary":"QkWJ1tV9GyGIvDnrQkETzg","material":"metal"}},"type":"Feature"},
	{"geometry":{"coordinates":[2.295348,49.910229],"type":"Point"},"properties":{"osm_id":"6792874092","tag":{"amenity":"waste_basket","description":"Simple","mapillary":"c16zrdevc3aW3SNToUjd_Q","material":"metal"}},"type":"Feature"},
	{"geometry":{"coordinates":[2.293004,49.909776],"type":"Point"},"properties":{"osm_id":"6792874093","tag":{"amenity":"waste_basket","description":"Simple","mapillary":"qNxSitGT3bGIoLjjC_y8Gg","material":"metal"}},"type":"Feature"},
	{"geometry":{"coordinates":[2.291395,49.908491],"type":"Point"},"properties":{"osm_id":"6792874094","tag":{"amenity":"waste_basket","description":"Simple","mapillary":"Lfm4vMJz33yCYGGQYGaSOg","material":"metal"}},"type":"Feature"},
	{"geometry":{"coordinates":[2.291556,49.908657],"type":"Point"},"properties":{"osm_id":"6792877988","tag":{"amenity":"waste_basket","description":"Simple","mapillary":"WxsfVDjUuXd4AXGRo8QS_w","material":"metal"}},"type":"Feature"},
	{"geometry":{"coordinates":[2.312018,49.910732],"type":"Point"},"properties":{"osm_id":"6792878985","tag":{"amenity":"waste_basket","description":"Simple","mapillary":"heqEzCHyM1pkiuieE77mOg","material":"metal"}},"type":"Feature"},
	{"geometry":{"coordinates":[2.293621,49.905238],"type":"Point"},"properties":{"osm_id":"6792878987","tag":{"amenity":"waste_basket","description":"Simple","mapillary":"JeOfBy0hiUOMPDvNsvGqwQ","material":"metal"}},"type":"Feature"},
	{"geometry":{"coordinates":[2.314569,49.910397],"type":"Point"},"properties":{"osm_id":"6792886686","tag":{"amenity":"waste_basket","description":"Simple","mapillary":"jng8WM8HiiSf4L9bjOhZZQ","material":"metal"}},"type":"Feature"},
	{"geometry":{"coordinates":[2.290343,49.90714],"type":"Point"},"properties":{"osm_id":"6792886687","tag":{"amenity":"waste_basket","description":"Simple","mapillary":"296cItH-vAFlSh8-PMjhhw","material":"metal"}},"type":"Feature"},
	{"geometry":{"coordinates":[2.290161,49.907315],"type":"Point"},"properties":{"osm_id":"6792894485","tag":{"amenity":"waste_basket","description":"Simple","mapillary":"aFxjNqHNCRcDFW86jVQQaw","material":"metal"}},"type":"Feature"},
	{"geometry":{"coordinates":[2.294895,49.915553],"type":"Point"},"properties":{"osm_id":"6821906186","tag":{"amenity":"waste_basket","description":"Simple","mapillary":"V1CkMAWbREuSyckyftyNEA","material":"metal"}},"type":"Feature"},
	{"geometry":{"coordinates":[2.294767,49.913819],"type":"Point"},"properties":{"osm_id":"6821918485","tag":{"amenity":"waste_basket","description":"Simple","mapillary":"Os69H60HvCV59TgZbLrxTw","material":"metal"}},"type":"Feature"},
	{"geometry":{"coordinates":[2.294881,49.914078],"type":"Point"},"properties":{"osm_id":"6821919485","tag":{"amenity":"waste_basket","description":"Simple","mapillary":"s55_Mh4tKnoYzEpuXmQesg","material":"metal"}},"type":"Feature"},
	{"geometry":{"coordinates":[2.301169,49.915308],"type":"Point"},"properties":{"osm_id":"6821922785","tag":{"amenity":"waste_basket","description":"Simple","mapillary":"KkDb9GqZXYfxKYtnYdqUPQ","material":"metal"}},"type":"Feature"},
	{"geometry":{"coordinates":[2.295323,49.915439],"type":"Point"},"properties":{"osm_id":"6821926585","tag":{"amenity":"waste_basket","description":"Simple","mapillary":"9dqSrg3wjRrY0j56WbbBpA","material":"metal"}},"type":"Feature"},
	{"geometry":{"coordinates":[2.296758,49.91727],"type":"Point"},"properties":{"osm_id":"6821948285","tag":{"amenity":"waste_basket","description":"Simple","mapillary":"AMfCQwRIqn5JUvHqEIYZWA","material":"metal"}},"type":"Feature"},
	{"geometry":{"coordinates":[2.296857,49.917225],"type":"Point"},"properties":{"osm_id":"6821951086","tag":{"amenity":"waste_basket","description":"Simple","mapillary":"plWnn2XtfNifo-DshhZbNQ","material":"metal"}},"type":"Feature"},
	{"geometry":{"coordinates":[2.300642,49.922034],"type":"Point"},"properties":{"osm_id":"6824836886","tag":{"amenity":"waste_basket","description":"Simple","mapillary":"l16gRHGm5_dY7WHs7QFxdw","material":"metal"}},"type":"Feature"},
	{"geometry":{"coordinates":[2.300637,49.921818],"type":"Point"},"properties":{"osm_id":"6824856685","tag":{"amenity":"waste_basket","description":"Simple","mapillary":"eoUYVHaZlnWEtFakVuCxzg","material":"metal"}},"type":"Feature"},
	{"geometry":{"coordinates":[2.298916,49.919094],"type":"Point"},"properties":{"osm_id":"6824856687","tag":{"amenity":"waste_basket","description":"Simple","mapillary":"ImhZCoMssc89ltUCKBV2_A","material":"metal"}},"type":"Feature"},
	{"geometry":{"coordinates":[2.298312,49.916804],"type":"Point"},"properties":{"osm_id":"6824856688","tag":{"amenity":"waste_basket","description":"Simple","mapillary":"zjIlM5jf_S0fXd--Hugr_w","material":"metal"}},"type":"Feature"},
	{"geometry":{"coordinates":[2.299714,49.92101],"type":"Point"},"properties":{"osm_id":"6824864285","tag":{"amenity":"waste_basket","description":"Simple","mapillary":"CGUVvug4ugsadJTbacwzLg","material":"metal"}},"type":"Feature"},
	{"geometry":{"coordinates":[2.299063,49.919021],"type":"Point"},"properties":{"osm_id":"6824868685","tag":{"amenity":"waste_basket","description":"Simple","mapillary":"cmQQ6Fa-e6uRx8KhRF4z-g","material":"metal"}},"type":"Feature"},
	{"geometry":{"coordinates":[2.298793,49.916825],"type":"Point"},"properties":{"osm_id":"6824870285","tag":{"amenity":"waste_basket","description":"Simple","mapillary":"GtgM2uzc1hiwIgIxsh6Dkw","material":"metal"}},"type":"Feature"},
	{"geometry":{"coordinates":[2.297194,49.9191],"type":"Point"},"properties":{"osm_id":"6839484686","tag":{"amenity":"waste_basket","description":"Simple","mapillary":"1dsJSlKcoOImpqq5dYkuQQ","material":"metal"}},"type":"Feature"},
	{"geometry":{"coordinates":[2.296652,49.919237],"type":"Point"},"properties":{"osm_id":"6839484687","tag":{"amenity":"waste_basket","description":"Simple","mapillary":"X5osovKfd5D85NSiWoJAxA","material":"metal"}},"type":"Feature"},
	{"geometry":{"coordinates":[2.296401,49.919386],"type":"Point"},"properties":{"osm_id":"6839492887","tag":{"amenity":"waste_basket","description":"Simple","mapillary":"mqQUqbySrxb1SeoHtFw4dw","material":"metal"}},"type":"Feature"},
	{"geometry":{"coordinates":[2.295984,49.919996],"type":"Point"},"properties":{"osm_id":"6839493187","tag":{"amenity":"waste_basket","description":"Simple","mapillary":"29o-kGhvSM3L8U1HHkzBOw","material":"metal"}},"type":"Feature"},
	{"geometry":{"coordinates":[2.297151,49.921269],"type":"Point"},"properties":{"osm_id":"6839511185","tag":{"amenity":"waste_basket","description":"Simple","mapillary":"QXSdgU8p2KeqitUi97RMDw","material":"metal"}},"type":"Feature"},
	{"geometry":{"coordinates":[2.297292,49.921771],"type":"Point"},"properties":{"osm_id":"6839610285","tag":{"amenity":"waste_basket","description":"Simple","mapillary":"fldX-E0L6pP2FO0jknV_ow","material":"metal"}},"type":"Feature"},
	{"geometry":{"coordinates":[2.29677,49.921846],"type":"Point"},"properties":{"osm_id":"6839618985","tag":{"amenity":"waste_basket","description":"Simple","mapillary":"i5rgsBcbQEUzNq0eIIhrVw","material":"metal"}},"type":"Feature"},
	{"geometry":{"coordinates":[2.295561,49.921461],"type":"Point"},"properties":{"osm_id":"6839622785","tag":{"amenity":"waste_basket","description":"Simple","mapillary":"Hx3_rS-SRBZzUY-UVuniJg","material":"metal"}},"type":"Feature"},
	{"geometry":{"coordinates":[2.295407,49.920827],"type":"Point"},"properties":{"osm_id":"6839623286","tag":{"amenity":"waste_basket","description":"Simple","mapillary":"_CJoEKMh5j6lkpB772FKTw","material":"metal"}},"type":"Feature"},
	{"geometry":{"coordinates":[2.294795,49.921285],"type":"Point"},"properties":{"osm_id":"6839627286","tag":{"amenity":"waste_basket","description":"Simple","mapillary":"VILv5QrOkBhXJGcHGCCbKA","material":"metal"}},"type":"Feature"},
	{"geometry":{"coordinates":[2.296427,49.921522],"type":"Point"},"properties":{"osm_id":"6839659726","tag":{"amenity":"waste_basket","description":"Simple","mapillary":"jQn963INWTvzwIO1lP_6MQ","material":"metal"}},"type":"Feature"},
	{"geometry":{"coordinates":[2.296034,49.920373],"type":"Point"},"properties":{"osm_id":"6839673128","tag":{"amenity":"waste_basket","description":"Simple","mapillary":"YkkLtZaH2qCjHyObqJZIVw","material":"metal"}},"type":"Feature"},
	{"geometry":{"coordinates":[2.295826,49.918836],"type":"Point"},"properties":{"osm_id":"6839675607","tag":{"amenity":"waste_basket","description":"Simple","mapillary":"__xD65RzCjVaMX5F9hUI2w","material":"metal"}},"type":"Feature"},
	{"geometry":{"coordinates":[2.295765,49.918567],"type":"Point"},"properties":{"osm_id":"6839678019","tag":{"amenity":"waste_basket","description":"Simple","mapillary":"zC8uNUNePDesOx5YqfBLjw","material":"metal"}},"type":"Feature"},
	{"geometry":{"coordinates":[2.294388,49.917898],"type":"Point"},"properties":{"osm_id":"6839680793","tag":{"amenity":"waste_basket","description":"Simple","mapillary":"RCV20rUehdA5m-mnrN3sDA","material":"metal"}},"type":"Feature"},
	{"geometry":{"coordinates":[2.29523,49.918],"type":"Point"},"properties":{"osm_id":"6839693785","tag":{"amenity":"waste_basket","description":"Simple","mapillary":"XzmTgPg598GvVGCakP6okQ","material":"metal"}},"type":"Feature"},
	{"geometry":{"coordinates":[2.29453,49.917394],"type":"Point"},"properties":{"osm_id":"6839783685","tag":{"amenity":"waste_basket","description":"Simple","mapillary":"weydAU9VafqoJP-tp4hj1w","material":"metal"}},"type":"Feature"},
	{"geometry":{"coordinates":[2.296188,49.917408],"type":"Point"},"properties":{"osm_id":"6839785985","tag":{"amenity":"waste_basket","description":"Simple","mapillary":"ERL_oLg3swvQP1zsA6Dp0Q","material":"metal"}},"type":"Feature"},
	{"geometry":{"coordinates":[2.296693,49.917892],"type":"Point"},"properties":{"osm_id":"6842748785","tag":{"amenity":"waste_basket","description":"Simple","mapillary":"RTT7jmFdFZy2I_cwK6xLoQ","material":"metal"}},"type":"Feature"},
	{"geometry":{"coordinates":[2.296306,49.918252],"type":"Point"},"properties":{"osm_id":"6842748787","tag":{"amenity":"waste_basket","description":"Simple","mapillary":"dvXiLZRxUzV_39CzIxfryw","material":"metal"}},"type":"Feature"},
	{"geometry":{"coordinates":[2.29639,49.918148],"type":"Point"},"properties":{"osm_id":"6842753985","tag":{"amenity":"waste_basket","description":"Simple","mapillary":"6SCxu5axKnfVPzhRsEhCsQ","material":"metal"}},"type":"Feature"},
	{"geometry":{"coordinates":[2.302583,49.901707],"type":"Point"},"properties":{"osm_id":"6867315351","tag":{"amenity":"recycling","recycling:glass_bottles":"yes","recycling_type":"container"}},"type":"Feature"},
	{"geometry":{"coordinates":[2.302664,49.901673],"type":"Point"},"properties":{"osm_id":"6867315352","tag":{"amenity":"recycling","recycling:paper":"yes","recycling_type":"container"}},"type":"Feature"},
	{"geometry":{"coordinates":[2.307434,49.911753],"type":"Point"},"properties":{"osm_id":"6884790087","tag":{"amenity":"waste_basket","description":"Simple","mapillary":"8F_UzQy_kA1lC-2L5DCm9w","material":"metal"}},"type":"Feature"},
	{"geometry":{"coordinates":[2.297603,49.922973],"type":"Point"},"properties":{"osm_id":"6884833685","tag":{"amenity":"waste_basket","description":"Simple","mapillary":"vPvERBhwkLpBKbOakqPVwg","material":"metal"}},"type":"Feature"},
	{"geometry":{"coordinates":[2.296943,49.922001],"type":"Point"},"properties":{"osm_id":"6906269154","tag":{"amenity":"waste_basket","description":"Simple","mapillary":"bosSA8LCeGXTlyuvKIpSbw","material":"metal"}},"type":"Feature"},
	{"geometry":{"coordinates":[2.297509,49.922107],"type":"Point"},"properties":{"osm_id":"6906269155","tag":{"amenity":"waste_basket","description":"Simple","mapillary":"Ki2qIsF5ESJtCrwZ44LoSw","material":"metal"}},"type":"Feature"},
	{"geometry":{"coordinates":[2.297409,49.923077],"type":"Point"},"properties":{"osm_id":"6906269164","tag":{"amenity":"waste_basket","description":"Simple","mapillary":"dvKPA_cuAxP9VXpqfbziRQ","material":"metal"}},"type":"Feature"},
	{"geometry":{"coordinates":[2.300989,49.896546],"type":"Point"},"properties":{"osm_id":"6909731417","tag":{"amenity":"waste_basket","description":"Bi-flux","material":"metal"}},"type":"Feature"},
	{"geometry":{"coordinates":[2.300789,49.896738],"type":"Point"},"properties":{"osm_id":"6909742507","tag":{"amenity":"waste_basket","description":"Bi-flux","material":"metal"}},"type":"Feature"},
	{"geometry":{"coordinates":[2.300858,49.896763],"type":"Point"},"properties":{"osm_id":"6909750385","tag":{"amenity":"waste_basket","description":"Bi-flux","material":"metal"}},"type":"Feature"},
	{"geometry":{"coordinates":[2.300533,49.903855],"type":"Point"},"properties":{"osm_id":"7149199519","tag":{"amenity":"waste_basket","material":"steel"}},"type":"Feature"},
	{"geometry":{"coordinates":[2.300449,49.903708],"type":"Point"},"properties":{"osm_id":"7149199520","tag":{"amenity":"waste_basket","material":"steel"}},"type":"Feature"},
	{"geometry":{"coordinates":[2.317837,49.910024],"type":"Point"},"properties":{"osm_id":"7609347544","tag":{"amenity":"recycling","recycling:organic":"yes","recycling:waste":"yes","recycling_type":"underfloor-container"}},"type":"Feature"},
	{"geometry":{"coordinates":[2.318834,49.910291],"type":"Point"},"properties":{"osm_id":"7609347545","tag":{"amenity":"waste_basket","material":"steel"}},"type":"Feature"},
	{"geometry":{"coordinates":[2.317838,49.909986],"type":"Point"},"properties":{"osm_id":"7609347550","tag":{"amenity":"recycling","recycling:organic":"yes","recycling:waste":"yes","recycling_type":"underfloor-container"}},"type":"Feature"},
	{"geometry":{"coordinates":[2.317836,49.909926],"type":"Point"},"properties":{"osm_id":"7609347551","tag":{"amenity":"recycling","recycling:paper":"yes","recycling_type":"underfloor-container"}},"type":"Feature"},
	{"geometry":{"coordinates":[2.317837,49.909947],"type":"Point"},"properties":{"osm_id":"7609347552","tag":{"amenity":"recycling","recycling:glass_bottles":"yes","recycling_type":"underfloor-container"}},"type":"Feature"},
	{"geometry":{"coordinates":[2.317837,49.909966],"type":"Point"},"properties":{"osm_id":"7609347553","tag":{"amenity":"recycling","location":"underground","recycling:cans":"yes","recycling:plastic":"yes","recycling_type":"container"}},"type":"Feature"},
	{"geometry":{"coordinates":[2.317837,49.910005],"type":"Point"},"properties":{"osm_id":"7609347554","tag":{"amenity":"recycling","location":"underground","recycling:cans":"yes","recycling:plastic":"yes","recycling_type":"container"}},"type":"Feature"},
	{"geometry":{"coordinates":[2.301617,49.911035],"type":"Point"},"properties":{"osm_id":"7656452228","tag":{"amenity":"recycling","recycling:waste":"yes","recycling_type":"underfloor-container"}},"type":"Feature"},
	{"geometry":{"coordinates":[2.301618,49.911016],"type":"Point"},"properties":{"osm_id":"7656452229","tag":{"amenity":"recycling","recycling:glasses":"yes","recycling_type":"underfloor-container"}},"type":"Feature"},
	{"geometry":{"coordinates":[2.300171,49.911096],"type":"Point"},"properties":{"osm_id":"7656452230","tag":{"amenity":"waste_basket","material":"steel"}},"type":"Feature"},
	{"geometry":{"coordinates":[2.300151,49.911],"type":"Point"},"properties":{"osm_id":"7656452231","tag":{"amenity":"recycling","recycling:waste":"yes","recycling_type":"underfloor-container"}},"type":"Feature"},
	{"geometry":{"coordinates":[2.300122,49.911],"type":"Point"},"properties":{"osm_id":"7656452232","tag":{"amenity":"recycling","recycling:plastic_bottles":"yes","recycling:plastic_packaging":"yes","recycling_type":"underfloor-container"}},"type":"Feature"},
	{"geometry":{"coordinates":[2.300152,49.911016],"type":"Point"},"properties":{"osm_id":"7656452233","tag":{"amenity":"recycling","recycling:waste":"yes","recycling_type":"underfloor-container"}},"type":"Feature"},
	{"geometry":{"coordinates":[2.300152,49.911032],"type":"Point"},"properties":{"osm_id":"7656452234","tag":{"amenity":"recycling","recycling:waste":"yes","recycling_type":"underfloor-container"}},"type":"Feature"},
	{"geometry":{"coordinates":[2.300123,49.911016],"type":"Point"},"properties":{"osm_id":"7656452235","tag":{"amenity":"recycling","recycling:waste":"yes","recycling_type":"underfloor-container"}},"type":"Feature"},
	{"geometry":{"coordinates":[2.300123,49.910984],"type":"Point"},"properties":{"osm_id":"7656452236","tag":{"amenity":"recycling","recycling:plastic_bottles":"yes","recycling:plastic_packaging":"yes","recycling_type":"underfloor-container"}},"type":"Feature"},
	{"geometry":{"coordinates":[2.297372,49.906488],"type":"Point"},"properties":{"osm_id":"7829955941","tag":{"amenity":"waste_basket","material":"steel"}},"type":"Feature"},
	{"geometry":{"coordinates":[2.297509,49.906512],"type":"Point"},"properties":{"osm_id":"7829955942","tag":{"amenity":"waste_basket","material":"steel"}},"type":"Feature"},
	{"geometry":{"coordinates":[2.305109,49.898811],"type":"Point"},"properties":{"osm_id":"7842614556","tag":{"amenity":"waste_basket","material":"steel"}},"type":"Feature"},
	{"geometry":{"coordinates":[2.300054,49.895711],"type":"Point"},"properties":{"osm_id":"8396240848","tag":{"amenity":"recycling","recycling:glass_bottles":"yes","recycling_type":"container"}},"type":"Feature"},
	{"geometry":{"coordinates":[2.300101,49.895691],"type":"Point"},"properties":{"osm_id":"8396240849","tag":{"amenity":"recycling","recycling:aluminium":"yes","recycling_type":"container"}},"type":"Feature"},
	{"geometry":{"coordinates":[2.300124,49.89568],"type":"Point"},"properties":{"osm_id":"8396240850","tag":{"amenity":"recycling","recycling:waste":"yes","recycling_type":"container"}},"type":"Feature"}
]
}
