{
"type": "FeatureCollection",
"features": [
	{"geometry":{"coordinates":[2.29062,49.889688],"type":"Point"},"properties":{"osm_id":"299783948","tag":{"amenity":"recycling","recycling:clothes":"yes","recycling:glass_bottles":"yes","recycling:paper":"yes","recycling:waste":"yes","recycling_type":"container"}},"type":"Feature"},
	{"geometry":{"coordinates":[2.318404,49.839905],"type":"Point"},"properties":{"osm_id":"664603899","tag":{"amenity":"recycling","recycling:cans":"no","recycling:glass":"yes","recycling:paper":"yes"}},"type":"Feature"},
	{"geometry":{"coordinates":[2.30379,49.887964],"type":"Point"},"properties":{"osm_id":"1239516771","tag":{"amenity":"recycling","recycling:glass":"yes","recycling:glass_bottles":"yes","recycling:newspapers":"yes","recycling:paper":"yes","recycling:waste":"yes"}},"type":"Feature"},
	{"geometry":{"coordinates":[2.29002,49.892301],"type":"Point"},"properties":{"osm_id":"1239516772","tag":{"amenity":"recycling","recycling:glass_bottles":"yes"}},"type":"Feature"},
	{"geometry":{"coordinates":[2.333481,49.877184],"type":"Point"},"properties":{"osm_id":"1982878596","tag":{"amenity":"recycling"}},"type":"Feature"},
	{"geometry":{"coordinates":[2.30355,49.890832],"type":"Point"},"properties":{"osm_id":"1993990119","tag":{"amenity":"recycling","recycling:glass_bottles":"yes","recycling_type":"container"}},"type":"Feature"},
	{"geometry":{"coordinates":[2.304672,49.893409],"type":"Point"},"properties":{"osm_id":"2811194288","tag":{"amenity":"recycling","recycling:glass_bottles":"yes","recycling_type":"container"}},"type":"Feature"},
	{"geometry":{"coordinates":[2.311077,49.8705],"type":"Point"},"properties":{"osm_id":"2870808138","tag":{"amenity":"recycling","recycling_type":"container"}},"type":"Feature"},
	{"geometry":{"coordinates":[2.317016,49.883573],"type":"Point"},"properties":{"osm_id":"2985123546","tag":{"amenity":"recycling"}},"type":"Feature"},
	{"geometry":{"coordinates":[2.316784,49.88651],"type":"Point"},"properties":{"osm_id":"2985123548","tag":{"amenity":"recycling","location":"overground","recycling:glass_bottles":"yes","recycling:paper":"yes","recycling_type":"container"}},"type":"Feature"},
	{"geometry":{"coordinates":[2.312835,49.888419],"type":"Point"},"properties":{"osm_id":"2985123549","tag":{"amenity":"recycling","recycling:glass_bottles":"yes","recycling:paper":"yes","recycling_type":"container"}},"type":"Feature"},
	{"geometry":{"coordinates":[2.301992,49.890474],"type":"Point"},"properties":{"osm_id":"3104072694","tag":{"amenity":"waste_basket"}},"type":"Feature"},
	{"geometry":{"coordinates":[2.298849,49.894318],"type":"Point"},"properties":{"osm_id":"3105867502","tag":{"amenity":"waste_basket"}},"type":"Feature"},
	{"geometry":{"coordinates":[2.304485,49.879022],"type":"Point"},"properties":{"osm_id":"3140093035","tag":{"amenity":"recycling","recycling_type":"container"}},"type":"Feature"},
	{"geometry":{"coordinates":[2.295327,49.884842],"type":"Point"},"properties":{"osm_id":"3186672350","tag":{"amenity":"recycling","recycling_type":"container"}},"type":"Feature"},
	{"geometry":{"coordinates":[2.31803,49.882206],"type":"Point"},"properties":{"osm_id":"3270645863","tag":{"amenity":"waste_basket"}},"type":"Feature"},
	{"geometry":{"coordinates":[2.318105,49.882094],"type":"Point"},"properties":{"osm_id":"3270645870","tag":{"amenity":"waste_basket"}},"type":"Feature"},
	{"geometry":{"coordinates":[2.312177,49.886333],"type":"Point"},"properties":{"osm_id":"3332154028","tag":{"amenity":"recycling","recycling_type":"container"}},"type":"Feature"},
	{"geometry":{"coordinates":[2.296786,49.887774],"type":"Point"},"properties":{"osm_id":"3339726646","tag":{"amenity":"recycling","recycling:glass_bottles":"yes","recycling_type":"container"}},"type":"Feature"},
	{"geometry":{"coordinates":[2.306658,49.873908],"type":"Point"},"properties":{"osm_id":"3340254224","tag":{"amenity":"recycling","recycling_type":"container"}},"type":"Feature"},
	{"geometry":{"coordinates":[2.344102,49.888264],"type":"Point"},"properties":{"osm_id":"3350357087","tag":{"amenity":"recycling","location":"underground","recycling:glass":"yes","recycling_type":"container"}},"type":"Feature"},
	{"geometry":{"coordinates":[2.291557,49.891367],"type":"Point"},"properties":{"osm_id":"3545474042","tag":{"amenity":"waste_basket"}},"type":"Feature"},
	{"geometry":{"coordinates":[2.310863,49.888954],"type":"Point"},"properties":{"osm_id":"3546816078","tag":{"amenity":"recycling","recycling:glass_bottles":"yes","recycling:paper":"yes","recycling:waste":"yes","recycling_type":"container"}},"type":"Feature"},
	{"geometry":{"coordinates":[2.326935,49.878349],"type":"Point"},"properties":{"osm_id":"3547102372","tag":{"amenity":"recycling","recycling_type":"container"}},"type":"Feature"},
	{"geometry":{"coordinates":[2.306669,49.879131],"type":"Point"},"properties":{"osm_id":"3547251678","tag":{"amenity":"waste_basket"}},"type":"Feature"},
	{"geometry":{"coordinates":[2.331416,49.872134],"type":"Point"},"properties":{"osm_id":"3554588553","tag":{"amenity":"recycling","recycling_type":"container"}},"type":"Feature"},
	{"geometry":{"coordinates":[2.339824,49.877722],"type":"Point"},"properties":{"osm_id":"3556079777","tag":{"amenity":"recycling","recycling_type":"container"}},"type":"Feature"},
	{"geometry":{"coordinates":[2.337726,49.871346],"type":"Point"},"properties":{"osm_id":"3556079784","tag":{"amenity":"recycling","recycling_type":"container"}},"type":"Feature"},
	{"geometry":{"coordinates":[2.342252,49.877264],"type":"Point"},"properties":{"osm_id":"3556080516","tag":{"amenity":"recycling","recycling_type":"container"}},"type":"Feature"},
	{"geometry":{"coordinates":[2.332398,49.886465],"type":"Point"},"properties":{"osm_id":"3574164173","tag":{"amenity":"recycling","recycling_type":"container"}},"type":"Feature"},
	{"geometry":{"coordinates":[2.333597,49.876764],"type":"Point"},"properties":{"osm_id":"3574164234","tag":{"amenity":"waste_basket"}},"type":"Feature"},
	{"geometry":{"coordinates":[2.30802,49.890579],"type":"Point"},"properties":{"osm_id":"3732065375","tag":{"amenity":"waste_basket","level":"-1;0","mapillary:0:E":"rWr8VHAfoSqQsSKJiJ6exw","recycling":"yes"}},"type":"Feature"},
	{"geometry":{"coordinates":[2.308354,49.890657],"type":"Point"},"properties":{"osm_id":"3732209650","tag":{"amenity":"waste_basket","level":"0","operator":"SNCF","recycling":"yes"}},"type":"Feature"},
	{"geometry":{"coordinates":[2.308344,49.890606],"type":"Point"},"properties":{"osm_id":"3732209768","tag":{"amenity":"waste_basket","level":"-1;0","mapillary:0:S":"9uknV6O-C4eCjeuffQKg2A","operator":"SNCF","recycling":"yes"}},"type":"Feature"},
	{"geometry":{"coordinates":[2.308243,49.890469],"type":"Point"},"properties":{"osm_id":"3732465707","tag":{"amenity":"waste_basket","level":"0","mapillary:N":"_c3gM_HJCg32tKon3Weuvw","operator":"SNCF","recycling":"yes"}},"type":"Feature"},
	{"geometry":{"coordinates":[2.308084,49.890674],"type":"Point"},"properties":{"osm_id":"3740621588","tag":{"amenity":"waste_basket","level":"-1;0","mapillary:0:E":"-t8mbGBpO4D5060heSoNwg","recycling":"yes"}},"type":"Feature"},
	{"geometry":{"coordinates":[2.308497,49.890348],"type":"Point"},"properties":{"osm_id":"3746244655","tag":{"amenity":"waste_basket","level":"0","mapillary:N":"2B0XXflOQDU2OkXJiiUlaw","operator":"SNCF","recycling":"yes"}},"type":"Feature"},
	{"geometry":{"coordinates":[2.308112,49.890455],"type":"Point"},"properties":{"osm_id":"3746292277","tag":{"amenity":"waste_basket","level":"0","mapillary:SE":"FyizztILbg_xDv5Ppe7XyQ","operator":"SNCF","recycling":"no"}},"type":"Feature"},
	{"geometry":{"coordinates":[2.308614,49.89039],"type":"Point"},"properties":{"osm_id":"3755325227","tag":{"amenity":"waste_basket","level":"0","operator":"SNCF","recycling":"yes"}},"type":"Feature"},
	{"geometry":{"coordinates":[2.308521,49.890566],"type":"Point"},"properties":{"osm_id":"3755326229","tag":{"amenity":"waste_basket","level":"0","operator":"SNCF","recycling":"yes"}},"type":"Feature"},
	{"geometry":{"coordinates":[2.308672,49.890229],"type":"Point"},"properties":{"osm_id":"3756393285","tag":{"amenity":"waste_basket","level":"0","operator":"SNCF","recycling":"yes"}},"type":"Feature"},
	{"geometry":{"coordinates":[2.308608,49.890491],"type":"Point"},"properties":{"osm_id":"3756393287","tag":{"amenity":"waste_basket","level":"0","operator":"SNCF","recycling":"yes"}},"type":"Feature"},
	{"geometry":{"coordinates":[2.308645,49.890667],"type":"Point"},"properties":{"osm_id":"3756393288","tag":{"amenity":"waste_basket","level":"0","operator":"SNCF","recycling":"yes"}},"type":"Feature"},
	{"geometry":{"coordinates":[2.30854,49.890266],"type":"Point"},"properties":{"osm_id":"3756400282","tag":{"amenity":"waste_basket","level":"0","mapillary:E":"-ZfdbYiFkabetKGDS2DbHQ","mapillary:NE":"7L2IIzbE_FInLhXbnJD2ZQ","operator":"SNCF","recycling":"yes"}},"type":"Feature"},
	{"geometry":{"coordinates":[2.30845,49.890628],"type":"Point"},"properties":{"osm_id":"3756401496","tag":{"amenity":"waste_basket","level":"0","operator":"SNCF","recycling":"yes"}},"type":"Feature"},
	{"geometry":{"coordinates":[2.308948,49.889999],"type":"Point"},"properties":{"osm_id":"3844678050","tag":{"amenity":"waste_basket","level":"0","mapillary:S":"HIiClE4QQtX-Cb_awYjfvg","operator":"SNCF","recycling":"yes"}},"type":"Feature"},
	{"geometry":{"coordinates":[2.308244,49.89063],"type":"Point"},"properties":{"osm_id":"3846039777","tag":{"amenity":"waste_basket","level":"-1","operator":"SNCF","recycling":"yes"}},"type":"Feature"},
	{"geometry":{"coordinates":[2.308297,49.890448],"type":"Point"},"properties":{"osm_id":"3846065058","tag":{"amenity":"waste_basket","level":"-1","operator":"SNCF","recycling":"yes"}},"type":"Feature"},
	{"geometry":{"coordinates":[2.308404,49.890719],"type":"Point"},"properties":{"osm_id":"3846074972","tag":{"amenity":"waste_basket","level":"-1","mapillary:SE":"ftzk149X2P9p4UghAA6X8g","operator":"SNCF","recycling":"yes"}},"type":"Feature"},
	{"geometry":{"coordinates":[2.286218,49.885794],"type":"Point"},"properties":{"osm_id":"4138619754","tag":{"amenity":"recycling","recycling:glass":"yes","recycling_type":"container"}},"type":"Feature"},
	{"geometry":{"coordinates":[2.2972,49.88815],"type":"Point"},"properties":{"osm_id":"4198867268","tag":{"amenity":"recycling","recycling:paper":"yes","recycling:waste":"yes","recycling_type":"container"}},"type":"Feature"},
	{"geometry":{"coordinates":[2.285712,49.885544],"type":"Point"},"properties":{"osm_id":"4409226998","tag":{"amenity":"recycling","recycling:paper":"yes","recycling:waste":"yes","recycling_type":"container"}},"type":"Feature"},
	{"geometry":{"coordinates":[2.36291,49.867507],"type":"Point"},"properties":{"osm_id":"4820559319","tag":{"amenity":"recycling","recycling:glass_bottles":"yes","recycling_type":"container"}},"type":"Feature"},
	{"geometry":{"coordinates":[2.300932,49.871291],"type":"Point"},"properties":{"osm_id":"4940404091","tag":{"amenity":"recycling","recycling:glass_bottles":"yes","recycling_type":"container"}},"type":"Feature"},
	{"geometry":{"coordinates":[2.301131,49.871277],"type":"Point"},"properties":{"osm_id":"4940404092","tag":{"amenity":"recycling","recycling:clothes":"yes","recycling_type":"container"}},"type":"Feature"},
	{"geometry":{"coordinates":[2.300372,49.871342],"type":"Point"},"properties":{"osm_id":"4940404101","tag":{"amenity":"waste_basket"}},"type":"Feature"},
	{"geometry":{"coordinates":[2.294151,49.869165],"type":"Point"},"properties":{"osm_id":"4940404102","tag":{"amenity":"waste_basket"}},"type":"Feature"},
	{"geometry":{"coordinates":[2.300513,49.893032],"type":"Point"},"properties":{"osm_id":"5026405342","tag":{"amenity":"waste_basket"}},"type":"Feature"},
	{"geometry":{"coordinates":[2.300399,49.892996],"type":"Point"},"properties":{"osm_id":"5026405343","tag":{"amenity":"waste_basket"}},"type":"Feature"},
	{"geometry":{"coordinates":[2.300472,49.893132],"type":"Point"},"properties":{"osm_id":"5026405344","tag":{"amenity":"waste_basket"}},"type":"Feature"},
	{"geometry":{"coordinates":[2.300422,49.893363],"type":"Point"},"properties":{"osm_id":"5026405381","tag":{"amenity":"waste_basket"}},"type":"Feature"},
	{"geometry":{"coordinates":[2.302806,49.887864],"type":"Point"},"properties":{"osm_id":"5128350467","tag":{"amenity":"waste_basket"}},"type":"Feature"},
	{"geometry":{"coordinates":[2.302393,49.88795],"type":"Point"},"properties":{"osm_id":"5128350468","tag":{"amenity":"recycling","recycling:glass":"yes","recycling:glass_bottles":"yes","recycling:newspaper":"yes","recycling:paper":"yes","recycling:waste":"yes","recycling_type":"container"}},"type":"Feature"},
	{"geometry":{"coordinates":[2.303614,49.887902],"type":"Point"},"properties":{"osm_id":"5128350470","tag":{"amenity":"waste_basket"}},"type":"Feature"},
	{"geometry":{"coordinates":[2.303793,49.888086],"type":"Point"},"properties":{"osm_id":"5128350474","tag":{"amenity":"recycling","recycling:clothes":"yes"}},"type":"Feature"},
	{"geometry":{"coordinates":[2.300892,49.887982],"type":"Point"},"properties":{"osm_id":"5147917213","tag":{"amenity":"waste_basket"}},"type":"Feature"},
	{"geometry":{"coordinates":[2.309828,49.891713],"type":"Point"},"properties":{"osm_id":"5149234048","tag":{"amenity":"waste_basket"}},"type":"Feature"},
	{"geometry":{"coordinates":[2.309862,49.89177],"type":"Point"},"properties":{"osm_id":"5149234049","tag":{"amenity":"waste_basket"}},"type":"Feature"},
	{"geometry":{"coordinates":[2.308837,49.890881],"type":"Point"},"properties":{"osm_id":"5149234051","tag":{"amenity":"waste_basket"}},"type":"Feature"},
	{"geometry":{"coordinates":[2.309024,49.891002],"type":"Point"},"properties":{"osm_id":"5149234052","tag":{"amenity":"recycling","location":"underground","recycling:glass_bottles":"yes","recycling_type":"container"}},"type":"Feature"},
	{"geometry":{"coordinates":[2.309701,49.890936],"type":"Point"},"properties":{"osm_id":"5149234055","tag":{"amenity":"waste_basket"}},"type":"Feature"},
	{"geometry":{"coordinates":[2.309939,49.890936],"type":"Point"},"properties":{"osm_id":"5149234056","tag":{"amenity":"waste_basket"}},"type":"Feature"},
	{"geometry":{"coordinates":[2.312831,49.892799],"type":"Point"},"properties":{"osm_id":"5538303614","tag":{"amenity":"recycling","recycling:waste":"yes","recycling_type":"underfloor-container"}},"type":"Feature"},
	{"geometry":{"coordinates":[2.287591,49.891524],"type":"Point"},"properties":{"osm_id":"5571122566","tag":{"amenity":"waste_basket"}},"type":"Feature"},
	{"geometry":{"coordinates":[2.285403,49.889539],"type":"Point"},"properties":{"osm_id":"5571122584","tag":{"amenity":"recycling","recycling:glass_bottles":"yes","recycling:paper":"yes","recycling_type":"container"}},"type":"Feature"},
	{"geometry":{"coordinates":[2.287154,49.891716],"type":"Point"},"properties":{"osm_id":"5571122619","tag":{"amenity":"recycling","recycling:glass_bottles":"yes","recycling:paper":"yes","recycling_type":"container"}},"type":"Feature"},
	{"geometry":{"coordinates":[2.315465,49.893612],"type":"Point"},"properties":{"osm_id":"5571761428","tag":{"amenity":"recycling","recycling:clothes":"yes","recycling:glass":"yes","recycling:paper":"yes","recycling_type":"container"}},"type":"Feature"},
	{"geometry":{"coordinates":[2.292741,49.893825],"type":"Point"},"properties":{"osm_id":"5578154045","tag":{"amenity":"waste_basket"}},"type":"Feature"},
	{"geometry":{"coordinates":[2.293634,49.890714],"type":"Point"},"properties":{"osm_id":"5732392758","tag":{"amenity":"waste_basket","wheelchair":"yes"}},"type":"Feature"},
	{"geometry":{"coordinates":[2.307195,49.883479],"type":"Point"},"properties":{"osm_id":"6123414858","tag":{"amenity":"recycling","recycling_type":"container"}},"type":"Feature"},
	{"geometry":{"coordinates":[2.336064,49.879039],"type":"Point"},"properties":{"osm_id":"6134733971","tag":{"amenity":"recycling","recycling:glass":"yes","recycling:paper":"yes","recycling_type":"container"}},"type":"Feature"},
	{"geometry":{"coordinates":[2.287723,49.873795],"type":"Point"},"properties":{"osm_id":"6213346210","tag":{"amenity":"recycling","recycling:clothes":"yes","recycling:glass_bottles":"yes","recycling:paper":"yes","recycling:paper_packaging":"yes","recycling_type":"container"}},"type":"Feature"},
	{"geometry":{"coordinates":[2.295621,49.888456],"type":"Point"},"properties":{"osm_id":"6562848559","tag":{"amenity":"waste_basket","material":"steel"}},"type":"Feature"},
	{"geometry":{"coordinates":[2.29595,49.888439],"type":"Point"},"properties":{"osm_id":"6562848560","tag":{"amenity":"waste_basket","material":"steel"}},"type":"Feature"},
	{"geometry":{"coordinates":[2.313409,49.894627],"type":"Point"},"properties":{"osm_id":"6768628286","tag":{"amenity":"waste_basket","description":"Simple","mapillary":"UuiTNd0RgbT8SaYr6g8iHA","material":"metal"}},"type":"Feature"},
	{"geometry":{"coordinates":[2.299588,49.893623],"type":"Point"},"properties":{"osm_id":"6914927713","tag":{"amenity":"waste_basket","description":"Simple","material":"metal"}},"type":"Feature"},
	{"geometry":{"coordinates":[2.299395,49.893399],"type":"Point"},"properties":{"osm_id":"6914927715","tag":{"amenity":"waste_basket","description":"Simple","material":"metal"}},"type":"Feature"},
	{"geometry":{"coordinates":[2.296507,49.879197],"type":"Point"},"properties":{"osm_id":"7149199531","tag":{"amenity":"waste_basket","material":"steel"}},"type":"Feature"},
	{"geometry":{"coordinates":[2.344189,49.88801],"type":"Point"},"properties":{"osm_id":"7379766761","tag":{"amenity":"recycling","recycling:paper":"yes","recycling_type":"container"}},"type":"Feature"},
	{"geometry":{"coordinates":[2.312784,49.892694],"type":"Point"},"properties":{"osm_id":"7635850855","tag":{"amenity":"waste_basket","material":"steel"}},"type":"Feature"},
	{"geometry":{"coordinates":[2.312839,49.892815],"type":"Point"},"properties":{"osm_id":"7635850859","tag":{"amenity":"recycling","recycling:waste":"yes","recycling_type":"underfloor-container"}},"type":"Feature"},
	{"geometry":{"coordinates":[2.312847,49.892833],"type":"Point"},"properties":{"osm_id":"7635850860","tag":{"amenity":"recycling","recycling:paper":"yes","recycling_type":"underfloor-container"}},"type":"Feature"},
	{"geometry":{"coordinates":[2.312855,49.892849],"type":"Point"},"properties":{"osm_id":"7635850861","tag":{"amenity":"recycling","recycling:glass_bottles":"yes","recycling_type":"underfloor-container"}},"type":"Feature"},
	{"geometry":{"coordinates":[2.335652,49.872832],"type":"Point"},"properties":{"osm_id":"7646507247","tag":{"amenity":"waste_basket","material":"steel"}},"type":"Feature"},
	{"geometry":{"coordinates":[2.324249,49.883595],"type":"Point"},"properties":{"osm_id":"7646886610","tag":{"amenity":"waste_basket","material":"steel"}},"type":"Feature"},
	{"geometry":{"coordinates":[2.324016,49.88346],"type":"Point"},"properties":{"osm_id":"7646886614","tag":{"amenity":"waste_basket","material":"steel"}},"type":"Feature"},
	{"geometry":{"coordinates":[2.329176,49.883263],"type":"Point"},"properties":{"osm_id":"7646886622","tag":{"amenity":"waste_basket","material":"steel"}},"type":"Feature"},
	{"geometry":{"coordinates":[2.32736,49.886399],"type":"Point"},"properties":{"osm_id":"7652096384","tag":{"amenity":"waste_basket","material":"steel"}},"type":"Feature"},
	{"geometry":{"coordinates":[2.318013,49.888616],"type":"Point"},"properties":{"osm_id":"7652096462","tag":{"amenity":"waste_basket","material":"steel"}},"type":"Feature"},
	{"geometry":{"coordinates":[2.287901,49.874574],"type":"Point"},"properties":{"osm_id":"7798716015","tag":{"amenity":"recycling","opening_hours":"24/7","recycling:clothes":"yes","recycling_type":"container"}},"type":"Feature"},
	{"geometry":{"coordinates":[2.327442,49.871587],"type":"Point"},"properties":{"osm_id":"7801549340","tag":{"amenity":"waste_disposal","waste":"household"}},"type":"Feature"},
	{"geometry":{"coordinates":[2.327412,49.871586],"type":"Point"},"properties":{"osm_id":"7801549341","tag":{"amenity":"waste_disposal","waste":"plastic"}},"type":"Feature"},
	{"geometry":{"coordinates":[2.322364,49.868056],"type":"Point"},"properties":{"osm_id":"7801786130","tag":{"amenity":"recycling","recycling:clothes":"yes","recycling:glass":"yes","recycling:paper":"yes","recycling_type":"container"}},"type":"Feature"}
]
}
