{
"type": "FeatureCollection",
"features": [
	{"geometry":{"coordinates":[2.368204,49.110895],"type":"Point"},"properties":{"name":"Dechetterie de Viarmes","osm_id":"694355653","tag":{"amenity":"recycling","recycling_type":"centre"}},"type":"Feature"},
	{"geometry":{"coordinates":[2.361376,49.098111],"type":"Point"},"properties":{"osm_id":"2752769526","tag":{"amenity":"waste_basket"}},"type":"Feature"},
	{"geometry":{"coordinates":[2.367693,49.116287],"type":"Point"},"properties":{"osm_id":"2752793826","tag":{"amenity":"waste_basket"}},"type":"Feature"},
	{"geometry":{"coordinates":[2.368065,49.116551],"type":"Point"},"properties":{"osm_id":"2752793843","tag":{"amenity":"waste_basket"}},"type":"Feature"},
	{"geometry":{"coordinates":[2.36833,49.116744],"type":"Point"},"properties":{"osm_id":"2752793861","tag":{"amenity":"waste_basket"}},"type":"Feature"},
	{"geometry":{"coordinates":[2.368393,49.116803],"type":"Point"},"properties":{"osm_id":"2752793869","tag":{"amenity":"waste_basket"}},"type":"Feature"},
	{"geometry":{"coordinates":[2.368594,49.116923],"type":"Point"},"properties":{"osm_id":"2752793911","tag":{"amenity":"waste_basket"}},"type":"Feature"},
	{"geometry":{"coordinates":[2.368852,49.117101],"type":"Point"},"properties":{"osm_id":"2752793925","tag":{"amenity":"waste_basket"}},"type":"Feature"},
	{"geometry":{"coordinates":[2.368488,49.116878],"type":"Point"},"properties":{"osm_id":"2754912341","tag":{"amenity":"waste_basket"}},"type":"Feature"},
	{"geometry":{"coordinates":[2.368364,49.116903],"type":"Point"},"properties":{"osm_id":"2754912381","tag":{"amenity":"waste_basket"}},"type":"Feature"},
	{"geometry":{"coordinates":[2.36099,49.097823],"type":"Point"},"properties":{"osm_id":"2754964779","tag":{"amenity":"waste_basket"}},"type":"Feature"},
	{"geometry":{"coordinates":[2.361041,49.097864],"type":"Point"},"properties":{"osm_id":"2754964790","tag":{"amenity":"waste_basket"}},"type":"Feature"},
	{"geometry":{"coordinates":[2.360948,49.098017],"type":"Point"},"properties":{"osm_id":"2754964807","tag":{"amenity":"waste_basket"}},"type":"Feature"},
	{"geometry":{"coordinates":[2.361203,49.098095],"type":"Point"},"properties":{"osm_id":"2754964813","tag":{"amenity":"waste_basket"}},"type":"Feature"},
	{"geometry":{"coordinates":[2.361034,49.098141],"type":"Point"},"properties":{"osm_id":"2754964835","tag":{"amenity":"waste_basket"}},"type":"Feature"},
	{"geometry":{"coordinates":[2.361418,49.098202],"type":"Point"},"properties":{"osm_id":"2754964865","tag":{"amenity":"waste_basket"}},"type":"Feature"},
	{"geometry":{"coordinates":[2.361081,49.098209],"type":"Point"},"properties":{"osm_id":"2754964867","tag":{"amenity":"waste_basket"}},"type":"Feature"},
	{"geometry":{"coordinates":[2.361122,49.09829],"type":"Point"},"properties":{"osm_id":"2754964887","tag":{"amenity":"waste_basket"}},"type":"Feature"},
	{"geometry":{"coordinates":[2.361415,49.098422],"type":"Point"},"properties":{"osm_id":"2754964902","tag":{"amenity":"waste_basket"}},"type":"Feature"},
	{"geometry":{"coordinates":[2.361303,49.098535],"type":"Point"},"properties":{"osm_id":"2754964917","tag":{"amenity":"waste_basket"}},"type":"Feature"},
	{"geometry":{"coordinates":[2.361602,49.098709],"type":"Point"},"properties":{"osm_id":"2754964928","tag":{"amenity":"waste_basket"}},"type":"Feature"},
	{"geometry":{"coordinates":[2.361434,49.09873],"type":"Point"},"properties":{"osm_id":"2754964934","tag":{"amenity":"waste_basket"}},"type":"Feature"},
	{"geometry":{"coordinates":[2.28794,49.113575],"type":"Point"},"properties":{"osm_id":"2848089395","tag":{"amenity":"waste_basket"}},"type":"Feature"},
	{"geometry":{"coordinates":[2.287938,49.113767],"type":"Point"},"properties":{"osm_id":"2848090193","tag":{"amenity":"waste_basket"}},"type":"Feature"},
	{"geometry":{"coordinates":[2.287771,49.113793],"type":"Point"},"properties":{"osm_id":"2848090403","tag":{"amenity":"waste_basket"}},"type":"Feature"},
	{"geometry":{"coordinates":[2.287585,49.113449],"type":"Point"},"properties":{"osm_id":"2848130663","tag":{"amenity":"waste_basket"}},"type":"Feature"},
	{"geometry":{"coordinates":[2.287704,49.113364],"type":"Point"},"properties":{"osm_id":"2848131999","tag":{"amenity":"waste_basket"}},"type":"Feature"},
	{"geometry":{"coordinates":[2.287533,49.113671],"type":"Point"},"properties":{"osm_id":"2848133803","tag":{"amenity":"recycling","recycling:clothes":"yes"}},"type":"Feature"},
	{"geometry":{"coordinates":[2.287581,49.113257],"type":"Point"},"properties":{"osm_id":"2848146407","tag":{"amenity":"waste_basket"}},"type":"Feature"},
	{"geometry":{"coordinates":[2.287871,49.11299],"type":"Point"},"properties":{"osm_id":"2848170334","tag":{"amenity":"waste_basket"}},"type":"Feature"},
	{"geometry":{"coordinates":[2.28788,49.113172],"type":"Point"},"properties":{"osm_id":"2848170337","tag":{"amenity":"waste_basket"}},"type":"Feature"},
	{"geometry":{"coordinates":[2.287622,49.113347],"type":"Point"},"properties":{"osm_id":"2848170339","tag":{"amenity":"recycling"}},"type":"Feature"},
	{"geometry":{"coordinates":[2.287598,49.113348],"type":"Point"},"properties":{"osm_id":"2848170340","tag":{"amenity":"recycling"}},"type":"Feature"},
	{"geometry":{"coordinates":[2.368206,49.116864],"type":"Point"},"properties":{"osm_id":"5764394090","tag":{"amenity":"waste_basket"}},"type":"Feature"},
	{"geometry":{"coordinates":[2.368181,49.116875],"type":"Point"},"properties":{"osm_id":"5764394091","tag":{"amenity":"recycling","recycling:paper":"yes","recycling:plastic_packaging":"yes","recycling_type":"container"}},"type":"Feature"},
	{"geometry":{"coordinates":[2.368154,49.116886],"type":"Point"},"properties":{"osm_id":"5764394092","tag":{"amenity":"recycling","recycling:glass_bottles":"yes","recycling_type":"container"}},"type":"Feature"},
	{"geometry":{"coordinates":[2.367922,49.11708],"type":"Point"},"properties":{"osm_id":"5764394105","tag":{"amenity":"recycling","recycling:paper":"yes","recycling_type":"container"}},"type":"Feature"},
	{"geometry":{"coordinates":[2.367962,49.117106],"type":"Point"},"properties":{"osm_id":"5764394106","tag":{"amenity":"recycling","recycling:plastic_packaging":"yes","recycling_type":"container"}},"type":"Feature"},
	{"geometry":{"coordinates":[2.368009,49.11713],"type":"Point"},"properties":{"osm_id":"5764394107","tag":{"amenity":"recycling","recycling:glass_bottles":"yes","recycling_type":"container"}},"type":"Feature"},
	{"geometry":{"coordinates":[2.357437,49.135967],"type":"Point"},"properties":{"osm_id":"9193316629","tag":{"amenity":"waste_basket","waste":"dog_excrement"}},"type":"Feature"}
]
}
