{
"type": "FeatureCollection",
"features": [
	{"geometry":{"coordinates":[2.288583,49.006552],"type":"Point"},"properties":{"osm_id":"1613932607","tag":{"amenity":"waste_basket"}},"type":"Feature"},
	{"geometry":{"coordinates":[2.289923,49.008646],"type":"Point"},"properties":{"osm_id":"1613932613","tag":{"amenity":"waste_basket"}},"type":"Feature"},
	{"geometry":{"coordinates":[2.289606,49.010944],"type":"Point"},"properties":{"osm_id":"1613932621","tag":{"amenity":"waste_basket"}},"type":"Feature"},
	{"geometry":{"coordinates":[2.285218,49.010171],"type":"Point"},"properties":{"osm_id":"1625938966","tag":{"amenity":"waste_basket"}},"type":"Feature"},
	{"geometry":{"coordinates":[2.324445,49.025247],"type":"Point"},"properties":{"osm_id":"2288706934","tag":{"amenity":"waste_basket"}},"type":"Feature"},
	{"geometry":{"coordinates":[2.329417,49.029129],"type":"Point"},"properties":{"osm_id":"2289972396","tag":{"amenity":"waste_basket"}},"type":"Feature"},
	{"geometry":{"coordinates":[2.329673,49.029284],"type":"Point"},"properties":{"osm_id":"2289972401","tag":{"amenity":"waste_basket"}},"type":"Feature"},
	{"geometry":{"coordinates":[2.368442,48.994847],"type":"Point"},"properties":{"osm_id":"2727671405","tag":{"amenity":"waste_basket","layer":"-1","level":"-1"}},"type":"Feature"},
	{"geometry":{"coordinates":[2.368289,48.995055],"type":"Point"},"properties":{"osm_id":"2727671410","tag":{"amenity":"waste_basket"}},"type":"Feature"},
	{"geometry":{"coordinates":[2.368695,48.995372],"type":"Point"},"properties":{"osm_id":"2727671458","tag":{"amenity":"waste_basket"}},"type":"Feature"},
	{"geometry":{"coordinates":[2.368667,48.99561],"type":"Point"},"properties":{"osm_id":"2727671473","tag":{"amenity":"waste_basket"}},"type":"Feature"},
	{"geometry":{"coordinates":[2.368469,48.995702],"type":"Point"},"properties":{"osm_id":"2727671476","tag":{"amenity":"waste_basket"}},"type":"Feature"},
	{"geometry":{"coordinates":[2.368736,48.995837],"type":"Point"},"properties":{"osm_id":"2727671482","tag":{"amenity":"waste_basket"}},"type":"Feature"},
	{"geometry":{"coordinates":[2.368506,48.99584],"type":"Point"},"properties":{"osm_id":"2727671483","tag":{"amenity":"waste_basket"}},"type":"Feature"},
	{"geometry":{"coordinates":[2.36877,48.9959],"type":"Point"},"properties":{"osm_id":"2727671500","tag":{"amenity":"waste_basket"}},"type":"Feature"},
	{"geometry":{"coordinates":[2.368561,48.995952],"type":"Point"},"properties":{"osm_id":"2727671506","tag":{"amenity":"waste_basket"}},"type":"Feature"},
	{"geometry":{"coordinates":[2.368617,48.99608],"type":"Point"},"properties":{"osm_id":"2727671508","tag":{"amenity":"waste_basket"}},"type":"Feature"},
	{"geometry":{"coordinates":[2.368851,48.996107],"type":"Point"},"properties":{"osm_id":"2727671517","tag":{"amenity":"waste_basket"}},"type":"Feature"},
	{"geometry":{"coordinates":[2.368837,48.996153],"type":"Point"},"properties":{"osm_id":"2727671522","tag":{"amenity":"waste_basket"}},"type":"Feature"},
	{"geometry":{"coordinates":[2.368647,48.996347],"type":"Point"},"properties":{"osm_id":"2727671524","tag":{"amenity":"waste_basket"}},"type":"Feature"},
	{"geometry":{"coordinates":[2.368911,48.996523],"type":"Point"},"properties":{"osm_id":"2727671550","tag":{"amenity":"waste_basket"}},"type":"Feature"},
	{"geometry":{"coordinates":[2.368763,48.996758],"type":"Point"},"properties":{"osm_id":"2727671556","tag":{"amenity":"waste_basket"}},"type":"Feature"},
	{"geometry":{"coordinates":[2.369005,48.996999],"type":"Point"},"properties":{"osm_id":"2727671582","tag":{"amenity":"waste_basket"}},"type":"Feature"},
	{"geometry":{"coordinates":[2.368802,48.997005],"type":"Point"},"properties":{"osm_id":"2727671587","tag":{"amenity":"waste_basket"}},"type":"Feature"},
	{"geometry":{"coordinates":[2.337531,49.03275],"type":"Point"},"properties":{"osm_id":"2752687568","tag":{"amenity":"waste_basket"}},"type":"Feature"},
	{"geometry":{"coordinates":[2.337912,49.032785],"type":"Point"},"properties":{"osm_id":"2752687585","tag":{"amenity":"waste_basket"}},"type":"Feature"},
	{"geometry":{"coordinates":[2.337356,49.032788],"type":"Point"},"properties":{"osm_id":"2752687587","tag":{"amenity":"waste_basket"}},"type":"Feature"},
	{"geometry":{"coordinates":[2.337241,49.032791],"type":"Point"},"properties":{"osm_id":"2752687590","tag":{"amenity":"waste_basket"}},"type":"Feature"},
	{"geometry":{"coordinates":[2.337664,49.032866],"type":"Point"},"properties":{"osm_id":"2752687611","tag":{"amenity":"waste_basket"}},"type":"Feature"},
	{"geometry":{"coordinates":[2.337289,49.032933],"type":"Point"},"properties":{"osm_id":"2752687633","tag":{"amenity":"waste_basket"}},"type":"Feature"},
	{"geometry":{"coordinates":[2.336328,49.033004],"type":"Point"},"properties":{"osm_id":"2752687634","tag":{"amenity":"waste_basket"}},"type":"Feature"},
	{"geometry":{"coordinates":[2.337721,49.03232],"type":"Point"},"properties":{"osm_id":"2757362065","tag":{"amenity":"waste_basket"}},"type":"Feature"},
	{"geometry":{"coordinates":[2.33823,49.032523],"type":"Point"},"properties":{"osm_id":"2757362100","tag":{"amenity":"waste_basket"}},"type":"Feature"},
	{"geometry":{"coordinates":[2.337516,49.032699],"type":"Point"},"properties":{"osm_id":"2757362174","tag":{"amenity":"waste_basket"}},"type":"Feature"},
	{"geometry":{"coordinates":[2.338691,49.032705],"type":"Point"},"properties":{"osm_id":"2757362189","tag":{"amenity":"waste_basket"}},"type":"Feature"},
	{"geometry":{"coordinates":[2.352576,48.983738],"type":"Point"},"properties":{"osm_id":"2787685008","tag":{"amenity":"waste_basket"}},"type":"Feature"},
	{"geometry":{"coordinates":[2.352524,48.983885],"type":"Point"},"properties":{"osm_id":"2787685010","tag":{"amenity":"waste_basket"}},"type":"Feature"},
	{"geometry":{"coordinates":[2.35287,48.983923],"type":"Point"},"properties":{"osm_id":"2787685019","tag":{"amenity":"waste_basket"}},"type":"Feature"},
	{"geometry":{"coordinates":[2.35316,48.98407],"type":"Point"},"properties":{"osm_id":"2787685032","tag":{"amenity":"waste_basket"}},"type":"Feature"},
	{"geometry":{"coordinates":[2.352929,48.984114],"type":"Point"},"properties":{"osm_id":"2787685037","tag":{"amenity":"waste_basket"}},"type":"Feature"},
	{"geometry":{"coordinates":[2.353351,48.984184],"type":"Point"},"properties":{"osm_id":"2787685040","tag":{"amenity":"waste_basket"}},"type":"Feature"},
	{"geometry":{"coordinates":[2.353584,48.984309],"type":"Point"},"properties":{"osm_id":"2787685049","tag":{"amenity":"waste_basket"}},"type":"Feature"},
	{"geometry":{"coordinates":[2.353296,48.98434],"type":"Point"},"properties":{"osm_id":"2787685054","tag":{"amenity":"waste_basket"}},"type":"Feature"},
	{"geometry":{"coordinates":[2.353706,48.984382],"type":"Point"},"properties":{"osm_id":"2787685059","tag":{"amenity":"waste_basket"}},"type":"Feature"},
	{"geometry":{"coordinates":[2.353363,48.984473],"type":"Point"},"properties":{"osm_id":"2787685069","tag":{"amenity":"waste_basket"}},"type":"Feature"},
	{"geometry":{"coordinates":[2.354051,48.984584],"type":"Point"},"properties":{"osm_id":"2787685086","tag":{"amenity":"waste_basket"}},"type":"Feature"},
	{"geometry":{"coordinates":[2.353778,48.984623],"type":"Point"},"properties":{"osm_id":"2787685097","tag":{"amenity":"waste_basket"}},"type":"Feature"},
	{"geometry":{"coordinates":[2.353822,48.984636],"type":"Point"},"properties":{"osm_id":"2787685100","tag":{"amenity":"waste_basket"}},"type":"Feature"},
	{"geometry":{"coordinates":[2.354389,48.984759],"type":"Point"},"properties":{"osm_id":"2787685114","tag":{"amenity":"waste_basket"}},"type":"Feature"},
	{"geometry":{"coordinates":[2.354212,48.984827],"type":"Point"},"properties":{"osm_id":"2787685121","tag":{"amenity":"waste_basket"}},"type":"Feature"},
	{"geometry":{"coordinates":[2.354341,48.98489],"type":"Point"},"properties":{"osm_id":"2787685130","tag":{"amenity":"waste_basket"}},"type":"Feature"},
	{"geometry":{"coordinates":[2.354663,48.984912],"type":"Point"},"properties":{"osm_id":"2787685133","tag":{"amenity":"waste_basket"}},"type":"Feature"},
	{"geometry":{"coordinates":[2.354622,48.985052],"type":"Point"},"properties":{"osm_id":"2787685154","tag":{"amenity":"waste_basket"}},"type":"Feature"},
	{"geometry":{"coordinates":[2.362984,49.022616],"type":"Point"},"properties":{"osm_id":"2793032317","tag":{"amenity":"waste_basket"}},"type":"Feature"},
	{"geometry":{"coordinates":[2.363223,49.022663],"type":"Point"},"properties":{"osm_id":"2793032366","tag":{"amenity":"waste_basket"}},"type":"Feature"},
	{"geometry":{"coordinates":[2.362909,49.02268],"type":"Point"},"properties":{"osm_id":"2793032387","tag":{"amenity":"waste_basket"}},"type":"Feature"},
	{"geometry":{"coordinates":[2.36312,49.022702],"type":"Point"},"properties":{"osm_id":"2793032409","tag":{"amenity":"waste_basket"}},"type":"Feature"},
	{"geometry":{"coordinates":[2.36288,49.022704],"type":"Point"},"properties":{"osm_id":"2793032412","tag":{"amenity":"waste_basket"}},"type":"Feature"},
	{"geometry":{"coordinates":[2.362985,49.022808],"type":"Point"},"properties":{"osm_id":"2793032467","tag":{"amenity":"waste_basket"}},"type":"Feature"},
	{"geometry":{"coordinates":[2.362537,49.022953],"type":"Point"},"properties":{"osm_id":"2793032514","tag":{"amenity":"waste_basket"}},"type":"Feature"},
	{"geometry":{"coordinates":[2.362786,49.022954],"type":"Point"},"properties":{"osm_id":"2793032518","tag":{"amenity":"waste_basket"}},"type":"Feature"},
	{"geometry":{"coordinates":[2.362841,49.022997],"type":"Point"},"properties":{"osm_id":"2793032540","tag":{"amenity":"waste_basket"}},"type":"Feature"},
	{"geometry":{"coordinates":[2.362184,49.023167],"type":"Point"},"properties":{"osm_id":"2793032580","tag":{"amenity":"waste_basket"}},"type":"Feature"},
	{"geometry":{"coordinates":[2.362297,49.023246],"type":"Point"},"properties":{"osm_id":"2793032585","tag":{"amenity":"waste_basket"}},"type":"Feature"},
	{"geometry":{"coordinates":[2.361892,49.023331],"type":"Point"},"properties":{"osm_id":"2793032597","tag":{"amenity":"waste_basket"}},"type":"Feature"},
	{"geometry":{"coordinates":[2.361954,49.023441],"type":"Point"},"properties":{"osm_id":"2793032604","tag":{"amenity":"waste_basket"}},"type":"Feature"},
	{"geometry":{"coordinates":[2.361782,49.023537],"type":"Point"},"properties":{"osm_id":"2793032628","tag":{"amenity":"waste_basket"}},"type":"Feature"},
	{"geometry":{"coordinates":[2.326929,49.023726],"type":"Point"},"properties":{"osm_id":"3033937807","tag":{"amenity":"waste_basket"}},"type":"Feature"},
	{"geometry":{"coordinates":[2.332517,49.030153],"type":"Point"},"properties":{"osm_id":"3071376157","tag":{"amenity":"waste_basket"}},"type":"Feature"},
	{"geometry":{"coordinates":[2.362129,49.030885],"type":"Point"},"properties":{"osm_id":"3079030648","tag":{"amenity":"waste_basket"}},"type":"Feature"},
	{"geometry":{"coordinates":[2.361824,49.031483],"type":"Point"},"properties":{"osm_id":"3079030662","tag":{"amenity":"recycling","recycling:glass":"yes","recycling:paper":"yes"}},"type":"Feature"},
	{"geometry":{"coordinates":[2.372305,48.980398],"type":"Point"},"properties":{"osm_id":"3451985379","tag":{"amenity":"recycling","recycling:clothes":"yes","recycling:glass":"yes"}},"type":"Feature"},
	{"geometry":{"coordinates":[2.288992,49.001292],"type":"Point"},"properties":{"osm_id":"3495893141","tag":{"amenity":"waste_basket"}},"type":"Feature"},
	{"geometry":{"coordinates":[2.329712,48.996661],"type":"Point"},"properties":{"osm_id":"5484333546","tag":{"amenity":"waste_basket"}},"type":"Feature"},
	{"geometry":{"coordinates":[2.329792,48.996378],"type":"Point"},"properties":{"osm_id":"5484333547","tag":{"amenity":"waste_basket"}},"type":"Feature"},
	{"geometry":{"coordinates":[2.329165,48.996704],"type":"Point"},"properties":{"osm_id":"5484333559","tag":{"amenity":"waste_basket"}},"type":"Feature"},
	{"geometry":{"coordinates":[2.304461,48.984018],"type":"Point"},"properties":{"osm_id":"5532794427","tag":{"amenity":"recycling"}},"type":"Feature"},
	{"geometry":{"coordinates":[2.302948,48.985844],"type":"Point"},"properties":{"osm_id":"5719592633","tag":{"amenity":"waste_basket"}},"type":"Feature"},
	{"geometry":{"coordinates":[2.300988,48.994434],"type":"Point"},"properties":{"osm_id":"6182362734","tag":{"amenity":"recycling","recycling:clothes":"yes","recycling_type":"container"}},"type":"Feature"}
]
}
