{
"type": "FeatureCollection",
"features": [
	{"geometry":{"coordinates":[2.364392,48.925494],"type":"Point"},"properties":{"osm_id":"568376465","tag":{"amenity":"recycling","recycling:glass_bottles":"yes","recycling_type":"container"}},"type":"Feature"},
	{"geometry":{"coordinates":[2.306124,48.926015],"type":"Point"},"properties":{"name":"D\u00c3\u00a9ch\u00c3\u00a8terie fixe de Gennevilliers","osm_id":"776524582","tag":{"addr:city":"Gennevilliers","addr:housenumber":"93","addr:street":"Rue des Cab\u00c5\u0093ufs","amenity":"recycling","opening_hours":"Mo-Fr 14:00-18:30; Sa 09:00-18:30; Su 09:00-12:30","operator":"SYELOM","phone":"+33 1 46 17 01 60","recycling:cans":"yes","recycling:glass":"yes","recycling:paper":"yes","recycling_type":"centre","website":"http://www.syelom.fr"}},"type":"Feature"},
	{"geometry":{"coordinates":[2.297804,48.924334],"type":"Point"},"properties":{"osm_id":"799070613","tag":{"amenity":"recycling","recycling:glass_bottles":"yes","recycling_type":"container"}},"type":"Feature"},
	{"geometry":{"coordinates":[2.29929,48.928394],"type":"Point"},"properties":{"osm_id":"896007854","tag":{"amenity":"recycling","recycling:glass_bottles":"yes","recycling_type":"container"}},"type":"Feature"},
	{"geometry":{"coordinates":[2.355207,48.929316],"type":"Point"},"properties":{"osm_id":"1370818040","tag":{"amenity":"recycling"}},"type":"Feature"},
	{"geometry":{"coordinates":[2.350273,48.934168],"type":"Point"},"properties":{"osm_id":"1631395227","tag":{"amenity":"recycling","recycling:glass":"yes","recycling_type":"container"}},"type":"Feature"},
	{"geometry":{"coordinates":[2.369862,48.923148],"type":"Point"},"properties":{"osm_id":"1792382053","tag":{"amenity":"recycling","recycling:glass_bottles":"yes","recycling_type":"container"}},"type":"Feature"},
	{"geometry":{"coordinates":[2.371988,48.924348],"type":"Point"},"properties":{"osm_id":"1792383158","tag":{"amenity":"recycling","recycling:glass":"yes","recycling:paper":"yes","recycling_type":"container"}},"type":"Feature"},
	{"geometry":{"coordinates":[2.371945,48.924398],"type":"Point"},"properties":{"osm_id":"1792383165","tag":{"amenity":"waste_basket"}},"type":"Feature"},
	{"geometry":{"coordinates":[2.372567,48.924632],"type":"Point"},"properties":{"osm_id":"1792383199","tag":{"amenity":"waste_basket"}},"type":"Feature"},
	{"geometry":{"coordinates":[2.372992,48.92482],"type":"Point"},"properties":{"osm_id":"1792383211","tag":{"amenity":"waste_basket"}},"type":"Feature"},
	{"geometry":{"coordinates":[2.371576,48.924859],"type":"Point"},"properties":{"osm_id":"1792383220","tag":{"amenity":"waste_basket"}},"type":"Feature"},
	{"geometry":{"coordinates":[2.371658,48.925147],"type":"Point"},"properties":{"osm_id":"1792383253","tag":{"amenity":"recycling","recycling:glass":"yes","recycling:paper":"yes","recycling_type":"container"}},"type":"Feature"},
	{"geometry":{"coordinates":[2.372424,48.925165],"type":"Point"},"properties":{"osm_id":"1792383256","tag":{"amenity":"waste_basket"}},"type":"Feature"},
	{"geometry":{"coordinates":[2.371829,48.92722],"type":"Point"},"properties":{"osm_id":"1792383904","tag":{"amenity":"waste_basket"}},"type":"Feature"},
	{"geometry":{"coordinates":[2.372141,48.927297],"type":"Point"},"properties":{"osm_id":"1792383906","tag":{"amenity":"recycling","recycling:clothes":"yes","recycling_type":"container"}},"type":"Feature"},
	{"geometry":{"coordinates":[2.365976,48.928928],"type":"Point"},"properties":{"osm_id":"1792384846","tag":{"amenity":"recycling","recycling:clothes":"yes","recycling_type":"container"}},"type":"Feature"},
	{"geometry":{"coordinates":[2.367007,48.927086],"type":"Point"},"properties":{"osm_id":"1792385829","tag":{"amenity":"recycling","recycling:glass":"yes","recycling_type":"container"}},"type":"Feature"},
	{"geometry":{"coordinates":[2.361509,48.946809],"type":"Point"},"properties":{"osm_id":"1923481523","tag":{"amenity":"waste_basket"}},"type":"Feature"},
	{"geometry":{"coordinates":[2.365462,48.943673],"type":"Point"},"properties":{"osm_id":"1924964663","tag":{"amenity":"waste_basket"}},"type":"Feature"},
	{"geometry":{"coordinates":[2.364898,48.944227],"type":"Point"},"properties":{"osm_id":"1924964666","tag":{"amenity":"waste_basket"}},"type":"Feature"},
	{"geometry":{"coordinates":[2.363995,48.945193],"type":"Point"},"properties":{"osm_id":"1924964667","tag":{"amenity":"waste_basket"}},"type":"Feature"},
	{"geometry":{"coordinates":[2.350515,48.94138],"type":"Point"},"properties":{"osm_id":"2525827405","tag":{"amenity":"recycling","recycling:glass":"yes","recycling:glass_bottles":"yes","recycling_type":"container"}},"type":"Feature"},
	{"geometry":{"coordinates":[2.290955,48.979675],"type":"Point"},"properties":{"osm_id":"2777690942","tag":{"amenity":"waste_basket"}},"type":"Feature"},
	{"geometry":{"coordinates":[2.290103,48.979832],"type":"Point"},"properties":{"osm_id":"2777690989","tag":{"amenity":"waste_basket"}},"type":"Feature"},
	{"geometry":{"coordinates":[2.289919,48.979883],"type":"Point"},"properties":{"osm_id":"2777690992","tag":{"amenity":"waste_basket"}},"type":"Feature"},
	{"geometry":{"coordinates":[2.292708,48.979448],"type":"Point"},"properties":{"osm_id":"2781486406","tag":{"amenity":"waste_basket"}},"type":"Feature"},
	{"geometry":{"coordinates":[2.29271,48.97945],"type":"Point"},"properties":{"osm_id":"2781486408","tag":{"amenity":"waste_basket"}},"type":"Feature"},
	{"geometry":{"coordinates":[2.292046,48.979577],"type":"Point"},"properties":{"osm_id":"2781486443","tag":{"amenity":"waste_basket"}},"type":"Feature"},
	{"geometry":{"coordinates":[2.290835,48.9797],"type":"Point"},"properties":{"osm_id":"2781486482","tag":{"amenity":"waste_basket"}},"type":"Feature"},
	{"geometry":{"coordinates":[2.291523,48.979712],"type":"Point"},"properties":{"osm_id":"2781486488","tag":{"amenity":"waste_basket"}},"type":"Feature"},
	{"geometry":{"coordinates":[2.291516,48.979713],"type":"Point"},"properties":{"osm_id":"2781486494","tag":{"amenity":"waste_basket"}},"type":"Feature"},
	{"geometry":{"coordinates":[2.290083,48.979834],"type":"Point"},"properties":{"osm_id":"2781486506","tag":{"amenity":"waste_basket"}},"type":"Feature"},
	{"geometry":{"coordinates":[2.291231,48.979619],"type":"Point"},"properties":{"osm_id":"2781663763","tag":{"amenity":"waste_basket"}},"type":"Feature"},
	{"geometry":{"coordinates":[2.291234,48.979622],"type":"Point"},"properties":{"osm_id":"2781663767","tag":{"amenity":"waste_basket"}},"type":"Feature"},
	{"geometry":{"coordinates":[2.290955,48.979681],"type":"Point"},"properties":{"osm_id":"2781663785","tag":{"amenity":"waste_basket"}},"type":"Feature"},
	{"geometry":{"coordinates":[2.291402,48.979722],"type":"Point"},"properties":{"osm_id":"2781663817","tag":{"amenity":"waste_basket"}},"type":"Feature"},
	{"geometry":{"coordinates":[2.291402,48.979727],"type":"Point"},"properties":{"osm_id":"2781663830","tag":{"amenity":"waste_basket"}},"type":"Feature"},
	{"geometry":{"coordinates":[2.291133,48.979761],"type":"Point"},"properties":{"osm_id":"2781663836","tag":{"amenity":"waste_basket"}},"type":"Feature"},
	{"geometry":{"coordinates":[2.337459,48.975409],"type":"Point"},"properties":{"osm_id":"2791433933","tag":{"amenity":"waste_basket"}},"type":"Feature"},
	{"geometry":{"coordinates":[2.337244,48.975424],"type":"Point"},"properties":{"osm_id":"2791433941","tag":{"amenity":"waste_basket"}},"type":"Feature"},
	{"geometry":{"coordinates":[2.337597,48.975484],"type":"Point"},"properties":{"osm_id":"2791433956","tag":{"amenity":"waste_basket"}},"type":"Feature"},
	{"geometry":{"coordinates":[2.337457,48.975539],"type":"Point"},"properties":{"osm_id":"2791433963","tag":{"amenity":"waste_basket"}},"type":"Feature"},
	{"geometry":{"coordinates":[2.3379,48.975636],"type":"Point"},"properties":{"osm_id":"2791433973","tag":{"amenity":"waste_basket"}},"type":"Feature"},
	{"geometry":{"coordinates":[2.338147,48.975767],"type":"Point"},"properties":{"osm_id":"2791434006","tag":{"amenity":"waste_basket"}},"type":"Feature"},
	{"geometry":{"coordinates":[2.337697,48.975776],"type":"Point"},"properties":{"osm_id":"2791434011","tag":{"amenity":"waste_basket"}},"type":"Feature"},
	{"geometry":{"coordinates":[2.33819,48.975837],"type":"Point"},"properties":{"osm_id":"2791434036","tag":{"amenity":"waste_basket","layer":"-1","level":"-1"}},"type":"Feature"},
	{"geometry":{"coordinates":[2.337618,48.975865],"type":"Point"},"properties":{"osm_id":"2791434050","tag":{"amenity":"waste_basket"}},"type":"Feature"},
	{"geometry":{"coordinates":[2.33806,48.975872],"type":"Point"},"properties":{"osm_id":"2791434058","tag":{"amenity":"waste_basket"}},"type":"Feature"},
	{"geometry":{"coordinates":[2.337869,48.97589],"type":"Point"},"properties":{"osm_id":"2791434071","tag":{"amenity":"waste_basket"}},"type":"Feature"},
	{"geometry":{"coordinates":[2.338483,48.975963],"type":"Point"},"properties":{"osm_id":"2791434084","tag":{"amenity":"waste_basket"}},"type":"Feature"},
	{"geometry":{"coordinates":[2.33841,48.97606],"type":"Point"},"properties":{"osm_id":"2791434115","tag":{"amenity":"waste_basket"}},"type":"Feature"},
	{"geometry":{"coordinates":[2.338758,48.976116],"type":"Point"},"properties":{"osm_id":"2791434138","tag":{"amenity":"waste_basket"}},"type":"Feature"},
	{"geometry":{"coordinates":[2.338598,48.976171],"type":"Point"},"properties":{"osm_id":"2791434161","tag":{"amenity":"waste_basket"}},"type":"Feature"},
	{"geometry":{"coordinates":[2.339157,48.976334],"type":"Point"},"properties":{"osm_id":"2791434190","tag":{"amenity":"waste_basket"}},"type":"Feature"},
	{"geometry":{"coordinates":[2.317566,48.965726],"type":"Point"},"properties":{"osm_id":"2804408008","tag":{"amenity":"waste_basket"}},"type":"Feature"},
	{"geometry":{"coordinates":[2.317456,48.965821],"type":"Point"},"properties":{"osm_id":"2804408012","tag":{"amenity":"waste_basket"}},"type":"Feature"},
	{"geometry":{"coordinates":[2.317181,48.965861],"type":"Point"},"properties":{"osm_id":"2804408014","tag":{"amenity":"waste_basket"}},"type":"Feature"},
	{"geometry":{"coordinates":[2.317061,48.965947],"type":"Point"},"properties":{"osm_id":"2804408015","tag":{"amenity":"waste_basket"}},"type":"Feature"},
	{"geometry":{"coordinates":[2.31721,48.965974],"type":"Point"},"properties":{"osm_id":"2804408019","tag":{"amenity":"waste_basket"}},"type":"Feature"},
	{"geometry":{"coordinates":[2.317162,48.966006],"type":"Point"},"properties":{"osm_id":"2804408022","tag":{"amenity":"waste_basket"}},"type":"Feature"},
	{"geometry":{"coordinates":[2.317077,48.966063],"type":"Point"},"properties":{"osm_id":"2804408026","tag":{"amenity":"waste_basket"}},"type":"Feature"},
	{"geometry":{"coordinates":[2.316871,48.966083],"type":"Point"},"properties":{"osm_id":"2804408030","tag":{"amenity":"waste_basket"}},"type":"Feature"},
	{"geometry":{"coordinates":[2.316714,48.966161],"type":"Point"},"properties":{"osm_id":"2804408051","tag":{"amenity":"waste_basket"}},"type":"Feature"},
	{"geometry":{"coordinates":[2.316645,48.966215],"type":"Point"},"properties":{"osm_id":"2804408055","tag":{"amenity":"waste_basket"}},"type":"Feature"},
	{"geometry":{"coordinates":[2.316851,48.966216],"type":"Point"},"properties":{"osm_id":"2804408056","tag":{"amenity":"waste_basket"}},"type":"Feature"},
	{"geometry":{"coordinates":[2.316732,48.966303],"type":"Point"},"properties":{"osm_id":"2804408060","tag":{"amenity":"waste_basket"}},"type":"Feature"},
	{"geometry":{"coordinates":[2.316848,48.966329],"type":"Point"},"properties":{"osm_id":"2804408064","tag":{"amenity":"waste_basket"}},"type":"Feature"},
	{"geometry":{"coordinates":[2.316402,48.966391],"type":"Point"},"properties":{"osm_id":"2804408075","tag":{"amenity":"waste_basket"}},"type":"Feature"},
	{"geometry":{"coordinates":[2.316508,48.966451],"type":"Point"},"properties":{"osm_id":"2804408079","tag":{"amenity":"waste_basket"}},"type":"Feature"},
	{"geometry":{"coordinates":[2.316456,48.966484],"type":"Point"},"properties":{"osm_id":"2804408081","tag":{"amenity":"waste_basket"}},"type":"Feature"},
	{"geometry":{"coordinates":[2.316178,48.966545],"type":"Point"},"properties":{"osm_id":"2804408085","tag":{"amenity":"waste_basket"}},"type":"Feature"},
	{"geometry":{"coordinates":[2.316281,48.966595],"type":"Point"},"properties":{"osm_id":"2804408089","tag":{"amenity":"waste_basket"}},"type":"Feature"},
	{"geometry":{"coordinates":[2.316048,48.966751],"type":"Point"},"properties":{"osm_id":"2804408095","tag":{"amenity":"waste_basket"}},"type":"Feature"},
	{"geometry":{"coordinates":[2.371786,48.963513],"type":"Point"},"properties":{"osm_id":"2807079484","tag":{"amenity":"waste_basket","disused":"yes"}},"type":"Feature"},
	{"geometry":{"coordinates":[2.371594,48.963563],"type":"Point"},"properties":{"osm_id":"2807079486","tag":{"amenity":"waste_basket"}},"type":"Feature"},
	{"geometry":{"coordinates":[2.371895,48.963588],"type":"Point"},"properties":{"osm_id":"2807079493","tag":{"amenity":"waste_basket"}},"type":"Feature"},
	{"geometry":{"coordinates":[2.371971,48.963811],"type":"Point"},"properties":{"osm_id":"2807079707","tag":{"amenity":"waste_basket"}},"type":"Feature"},
	{"geometry":{"coordinates":[2.372228,48.963851],"type":"Point"},"properties":{"osm_id":"2807079712","tag":{"amenity":"waste_basket"}},"type":"Feature"},
	{"geometry":{"coordinates":[2.372071,48.963932],"type":"Point"},"properties":{"osm_id":"2807079716","tag":{"amenity":"waste_basket"}},"type":"Feature"},
	{"geometry":{"coordinates":[2.372142,48.963981],"type":"Point"},"properties":{"osm_id":"2807079718","tag":{"amenity":"waste_basket"}},"type":"Feature"},
	{"geometry":{"coordinates":[2.372532,48.964046],"type":"Point"},"properties":{"osm_id":"2807079732","tag":{"amenity":"waste_basket"}},"type":"Feature"},
	{"geometry":{"coordinates":[2.372296,48.964087],"type":"Point"},"properties":{"osm_id":"2807079733","tag":{"amenity":"waste_basket"}},"type":"Feature"},
	{"geometry":{"coordinates":[2.372095,48.964061],"type":"Point"},"properties":{"osm_id":"2807079734","tag":{"amenity":"waste_basket"}},"type":"Feature"},
	{"geometry":{"coordinates":[2.372604,48.964092],"type":"Point"},"properties":{"osm_id":"2807079739","tag":{"amenity":"waste_basket"}},"type":"Feature"},
	{"geometry":{"coordinates":[2.37224,48.964127],"type":"Point"},"properties":{"osm_id":"2807079745","tag":{"amenity":"waste_basket"}},"type":"Feature"},
	{"geometry":{"coordinates":[2.371911,48.964138],"type":"Point"},"properties":{"osm_id":"2807079747","tag":{"amenity":"waste_basket"}},"type":"Feature"},
	{"geometry":{"coordinates":[2.346169,48.935129],"type":"Point"},"properties":{"osm_id":"2809950737","tag":{"amenity":"waste_basket"}},"type":"Feature"},
	{"geometry":{"coordinates":[2.346325,48.935142],"type":"Point"},"properties":{"osm_id":"2809950739","tag":{"amenity":"waste_basket"}},"type":"Feature"},
	{"geometry":{"coordinates":[2.345908,48.935232],"type":"Point"},"properties":{"osm_id":"2809950747","tag":{"amenity":"waste_basket","level":"0"}},"type":"Feature"},
	{"geometry":{"coordinates":[2.346,48.935245],"type":"Point"},"properties":{"osm_id":"2809950749","tag":{"amenity":"waste_basket","level":"0"}},"type":"Feature"},
	{"geometry":{"coordinates":[2.345697,48.935307],"type":"Point"},"properties":{"osm_id":"2809950756","tag":{"amenity":"waste_basket","level":"0"}},"type":"Feature"},
	{"geometry":{"coordinates":[2.346189,48.935309],"type":"Point"},"properties":{"osm_id":"2809950759","tag":{"amenity":"waste_basket"}},"type":"Feature"},
	{"geometry":{"coordinates":[2.345883,48.935377],"type":"Point"},"properties":{"osm_id":"2809950762","tag":{"amenity":"waste_basket","level":"0"}},"type":"Feature"},
	{"geometry":{"coordinates":[2.346245,48.935391],"type":"Point"},"properties":{"osm_id":"2809950765","tag":{"amenity":"waste_basket"}},"type":"Feature"},
	{"geometry":{"coordinates":[2.32912,48.957759],"type":"Point"},"properties":{"osm_id":"2834130540","tag":{"amenity":"waste_basket"}},"type":"Feature"},
	{"geometry":{"coordinates":[2.32887,48.957775],"type":"Point"},"properties":{"osm_id":"2834130541","tag":{"amenity":"waste_basket"}},"type":"Feature"},
	{"geometry":{"coordinates":[2.328619,48.957776],"type":"Point"},"properties":{"osm_id":"2834130542","tag":{"amenity":"waste_basket"}},"type":"Feature"},
	{"geometry":{"coordinates":[2.32898,48.957874],"type":"Point"},"properties":{"osm_id":"2834130549","tag":{"amenity":"waste_basket"}},"type":"Feature"},
	{"geometry":{"coordinates":[2.328449,48.957913],"type":"Point"},"properties":{"osm_id":"2834130555","tag":{"amenity":"waste_basket"}},"type":"Feature"},
	{"geometry":{"coordinates":[2.328754,48.957959],"type":"Point"},"properties":{"osm_id":"2834130561","tag":{"amenity":"waste_basket","layer":"-1"}},"type":"Feature"},
	{"geometry":{"coordinates":[2.328157,48.958096],"type":"Point"},"properties":{"osm_id":"2834130577","tag":{"amenity":"waste_basket"}},"type":"Feature"},
	{"geometry":{"coordinates":[2.328421,48.958109],"type":"Point"},"properties":{"osm_id":"2834130579","tag":{"amenity":"waste_basket"}},"type":"Feature"},
	{"geometry":{"coordinates":[2.328461,48.958127],"type":"Point"},"properties":{"osm_id":"2834130581","tag":{"amenity":"waste_basket"}},"type":"Feature"},
	{"geometry":{"coordinates":[2.32851,48.958229],"type":"Point"},"properties":{"osm_id":"2834130590","tag":{"amenity":"waste_basket"}},"type":"Feature"},
	{"geometry":{"coordinates":[2.328478,48.958251],"type":"Point"},"properties":{"osm_id":"2834130595","tag":{"amenity":"waste_basket"}},"type":"Feature"},
	{"geometry":{"coordinates":[2.327789,48.958341],"type":"Point"},"properties":{"osm_id":"2834130809","tag":{"amenity":"waste_basket"}},"type":"Feature"},
	{"geometry":{"coordinates":[2.328485,48.958344],"type":"Point"},"properties":{"osm_id":"2834130810","tag":{"amenity":"waste_basket"}},"type":"Feature"},
	{"geometry":{"coordinates":[2.327801,48.958432],"type":"Point"},"properties":{"osm_id":"2834130825","tag":{"amenity":"waste_basket"}},"type":"Feature"},
	{"geometry":{"coordinates":[2.327983,48.958466],"type":"Point"},"properties":{"osm_id":"2834130829","tag":{"amenity":"waste_basket"}},"type":"Feature"},
	{"geometry":{"coordinates":[2.328164,48.958482],"type":"Point"},"properties":{"osm_id":"2834130831","tag":{"amenity":"waste_basket"}},"type":"Feature"},
	{"geometry":{"coordinates":[2.328124,48.95852],"type":"Point"},"properties":{"osm_id":"2834130836","tag":{"amenity":"waste_basket"}},"type":"Feature"},
	{"geometry":{"coordinates":[2.307835,48.972215],"type":"Point"},"properties":{"osm_id":"2834843522","tag":{"amenity":"waste_basket"}},"type":"Feature"},
	{"geometry":{"coordinates":[2.307954,48.972273],"type":"Point"},"properties":{"osm_id":"2834843525","tag":{"amenity":"waste_basket"}},"type":"Feature"},
	{"geometry":{"coordinates":[2.307797,48.972373],"type":"Point"},"properties":{"osm_id":"2834843533","tag":{"amenity":"waste_basket"}},"type":"Feature"},
	{"geometry":{"coordinates":[2.307466,48.972454],"type":"Point"},"properties":{"osm_id":"2834843538","tag":{"amenity":"waste_basket"}},"type":"Feature"},
	{"geometry":{"coordinates":[2.307392,48.972659],"type":"Point"},"properties":{"osm_id":"2834843546","tag":{"amenity":"waste_basket"}},"type":"Feature"},
	{"geometry":{"coordinates":[2.307244,48.97277],"type":"Point"},"properties":{"osm_id":"2834843547","tag":{"amenity":"waste_basket"}},"type":"Feature"},
	{"geometry":{"coordinates":[2.307104,48.972866],"type":"Point"},"properties":{"osm_id":"2834843554","tag":{"amenity":"waste_basket"}},"type":"Feature"},
	{"geometry":{"coordinates":[2.306704,48.972919],"type":"Point"},"properties":{"osm_id":"2834843557","tag":{"amenity":"waste_basket"}},"type":"Feature"},
	{"geometry":{"coordinates":[2.306257,48.973411],"type":"Point"},"properties":{"osm_id":"2834843589","tag":{"amenity":"waste_basket"}},"type":"Feature"},
	{"geometry":{"coordinates":[2.345602,48.933749],"type":"Point"},"properties":{"osm_id":"2870901221","tag":{"amenity":"waste_basket","level":"0"}},"type":"Feature"},
	{"geometry":{"coordinates":[2.345892,48.933824],"type":"Point"},"properties":{"osm_id":"2870901225","tag":{"amenity":"waste_basket","level":"0"}},"type":"Feature"},
	{"geometry":{"coordinates":[2.345589,48.933843],"type":"Point"},"properties":{"osm_id":"2870901227","tag":{"amenity":"waste_basket","level":"0"}},"type":"Feature"},
	{"geometry":{"coordinates":[2.345749,48.933861],"type":"Point"},"properties":{"osm_id":"2870901228","tag":{"amenity":"waste_basket","level":"0"}},"type":"Feature"},
	{"geometry":{"coordinates":[2.345863,48.933928],"type":"Point"},"properties":{"osm_id":"2870901234","tag":{"amenity":"waste_basket","level":"0"}},"type":"Feature"},
	{"geometry":{"coordinates":[2.345822,48.93407],"type":"Point"},"properties":{"osm_id":"2870901243","tag":{"amenity":"waste_basket","level":"0"}},"type":"Feature"},
	{"geometry":{"coordinates":[2.345422,48.934461],"type":"Point"},"properties":{"osm_id":"2870916843","tag":{"amenity":"waste_basket","level":"0"}},"type":"Feature"},
	{"geometry":{"coordinates":[2.345568,48.934512],"type":"Point"},"properties":{"osm_id":"2870916848","tag":{"amenity":"waste_basket","level":"0"}},"type":"Feature"},
	{"geometry":{"coordinates":[2.345532,48.934676],"type":"Point"},"properties":{"osm_id":"2870916873","tag":{"amenity":"waste_basket","level":"0"}},"type":"Feature"},
	{"geometry":{"coordinates":[2.345353,48.934705],"type":"Point"},"properties":{"osm_id":"2870916874","tag":{"amenity":"waste_basket","level":"0"}},"type":"Feature"},
	{"geometry":{"coordinates":[2.345306,48.934879],"type":"Point"},"properties":{"osm_id":"2870940701","tag":{"amenity":"waste_basket","level":"0"}},"type":"Feature"},
	{"geometry":{"coordinates":[2.345585,48.934992],"type":"Point"},"properties":{"osm_id":"2870940708","tag":{"amenity":"waste_basket","level":"0"}},"type":"Feature"},
	{"geometry":{"coordinates":[2.345259,48.935113],"type":"Point"},"properties":{"osm_id":"2870940720","tag":{"amenity":"waste_basket","level":"0"}},"type":"Feature"},
	{"geometry":{"coordinates":[2.345405,48.935219],"type":"Point"},"properties":{"osm_id":"2870940731","tag":{"amenity":"waste_basket","level":"0"}},"type":"Feature"},
	{"geometry":{"coordinates":[2.345501,48.935357],"type":"Point"},"properties":{"osm_id":"2870940744","tag":{"amenity":"waste_basket","level":"0"}},"type":"Feature"},
	{"geometry":{"coordinates":[2.345471,48.935478],"type":"Point"},"properties":{"osm_id":"2870940756","tag":{"amenity":"waste_basket","level":"0"}},"type":"Feature"},
	{"geometry":{"coordinates":[2.342407,48.92494],"type":"Point"},"properties":{"osm_id":"3147212100","tag":{"amenity":"waste_basket"}},"type":"Feature"},
	{"geometry":{"coordinates":[2.341508,48.927897],"type":"Point"},"properties":{"osm_id":"3147212101","tag":{"amenity":"waste_basket"}},"type":"Feature"},
	{"geometry":{"coordinates":[2.295126,48.961839],"type":"Point"},"properties":{"osm_id":"3255656200","tag":{"amenity":"waste_basket"}},"type":"Feature"},
	{"geometry":{"coordinates":[2.300508,48.933445],"type":"Point"},"properties":{"osm_id":"3289217951","tag":{"amenity":"waste_basket"}},"type":"Feature"},
	{"geometry":{"coordinates":[2.300361,48.933478],"type":"Point"},"properties":{"osm_id":"3289218081","tag":{"amenity":"waste_basket"}},"type":"Feature"},
	{"geometry":{"coordinates":[2.301108,48.932859],"type":"Point"},"properties":{"osm_id":"3289219578","tag":{"amenity":"recycling","location":"underground","opening_hours":"24/7","recycling:aluminium":"yes","recycling:beverage_cartons":"yes","recycling:cans":"yes","recycling:cardboard":"yes","recycling:glass_bottles":"yes","recycling:magazines":"yes","recycling:newspaper":"yes","recycling:paper":"yes","recycling:paper_packaging":"yes","recycling:plastic":"yes","recycling_type":"container","wheelchair":"yes"}},"type":"Feature"},
	{"geometry":{"coordinates":[2.300771,48.933449],"type":"Point"},"properties":{"osm_id":"3289219579","tag":{"amenity":"waste_basket"}},"type":"Feature"},
	{"geometry":{"coordinates":[2.361946,48.945795],"type":"Point"},"properties":{"osm_id":"3304354963","tag":{"amenity":"waste_basket"}},"type":"Feature"},
	{"geometry":{"coordinates":[2.365008,48.945578],"type":"Point"},"properties":{"osm_id":"3304389039","tag":{"amenity":"waste_disposal"}},"type":"Feature"},
	{"geometry":{"coordinates":[2.357796,48.938724],"type":"Point"},"properties":{"osm_id":"3481836492","tag":{"amenity":"waste_basket"}},"type":"Feature"},
	{"geometry":{"coordinates":[2.358579,48.938769],"type":"Point"},"properties":{"osm_id":"3481837293","tag":{"amenity":"waste_basket"}},"type":"Feature"},
	{"geometry":{"coordinates":[2.354751,48.935955],"type":"Point"},"properties":{"osm_id":"3482398295","tag":{"amenity":"waste_basket"}},"type":"Feature"},
	{"geometry":{"coordinates":[2.30113,48.953961],"type":"Point"},"properties":{"osm_id":"3509167672","tag":{"amenity":"waste_basket"}},"type":"Feature"},
	{"geometry":{"coordinates":[2.353162,48.930506],"type":"Point"},"properties":{"osm_id":"3578829377","tag":{"amenity":"recycling","recycling:glass":"yes","recycling_type":"container"}},"type":"Feature"},
	{"geometry":{"coordinates":[2.3531,48.930695],"type":"Point"},"properties":{"osm_id":"3578829378","tag":{"amenity":"recycling","recycling:glass":"yes","recycling_type":"container"}},"type":"Feature"},
	{"geometry":{"coordinates":[2.346034,48.93516],"type":"Point"},"properties":{"osm_id":"3693450315","tag":{"amenity":"waste_basket","level":"0"}},"type":"Feature"},
	{"geometry":{"coordinates":[2.345643,48.934237],"type":"Point"},"properties":{"osm_id":"3693576524","tag":{"amenity":"waste_basket","level":"0"}},"type":"Feature"},
	{"geometry":{"coordinates":[2.345497,48.934124],"type":"Point"},"properties":{"osm_id":"3693598285","tag":{"amenity":"waste_basket","level":"0"}},"type":"Feature"},
	{"geometry":{"coordinates":[2.345512,48.934071],"type":"Point"},"properties":{"osm_id":"3693598288","tag":{"amenity":"waste_basket","level":"0"}},"type":"Feature"},
	{"geometry":{"coordinates":[2.34504,48.935326],"type":"Point"},"properties":{"osm_id":"3693600698","tag":{"amenity":"waste_basket","level":"0"}},"type":"Feature"},
	{"geometry":{"coordinates":[2.345139,48.934963],"type":"Point"},"properties":{"osm_id":"3693600702","tag":{"amenity":"waste_basket","level":"0"}},"type":"Feature"},
	{"geometry":{"coordinates":[2.345183,48.934558],"type":"Point"},"properties":{"osm_id":"3693600707","tag":{"amenity":"waste_basket","level":"0"}},"type":"Feature"},
	{"geometry":{"coordinates":[2.345128,48.934845],"type":"Point"},"properties":{"osm_id":"3693600710","tag":{"amenity":"waste_basket","level":"0"}},"type":"Feature"},
	{"geometry":{"coordinates":[2.345378,48.933913],"type":"Point"},"properties":{"osm_id":"3693600714","tag":{"amenity":"waste_basket","level":"0"}},"type":"Feature"},
	{"geometry":{"coordinates":[2.345525,48.935292],"type":"Point"},"properties":{"osm_id":"3694919009","tag":{"amenity":"waste_basket","level":"0"}},"type":"Feature"},
	{"geometry":{"coordinates":[2.364044,48.945807],"type":"Point"},"properties":{"osm_id":"3734220571","tag":{"amenity":"waste_basket"}},"type":"Feature"},
	{"geometry":{"coordinates":[2.298949,48.952895],"type":"Point"},"properties":{"osm_id":"4263211294","tag":{"amenity":"waste_disposal"}},"type":"Feature"},
	{"geometry":{"coordinates":[2.298934,48.952896],"type":"Point"},"properties":{"osm_id":"4263211295","tag":{"amenity":"recycling","location":"overground","recycling:glass":"yes","recycling_type":"container"}},"type":"Feature"},
	{"geometry":{"coordinates":[2.298921,48.952895],"type":"Point"},"properties":{"osm_id":"4263211296","tag":{"amenity":"recycling","recycling:cartons":"yes","recycling:paper":"yes","recycling:plastic_packaging":"yes"}},"type":"Feature"},
	{"geometry":{"coordinates":[2.342056,48.959421],"type":"Point"},"properties":{"osm_id":"4411711095","tag":{"amenity":"waste_basket"}},"type":"Feature"},
	{"geometry":{"coordinates":[2.32293,48.941955],"type":"Point"},"properties":{"osm_id":"4417669526","tag":{"amenity":"recycling","recycling:cans":"yes","recycling:glass":"yes","recycling:glass_bottles":"yes","recycling:paper":"yes","recycling:plastic_bottles":"yes","recycling_type":"centre"}},"type":"Feature"},
	{"geometry":{"coordinates":[2.320855,48.943147],"type":"Point"},"properties":{"osm_id":"4417669931","tag":{"amenity":"recycling","recycling:cans":"yes","recycling:paper":"yes","recycling:plastic_bottles":"yes","recycling_type":"container"}},"type":"Feature"},
	{"geometry":{"coordinates":[2.324289,48.943885],"type":"Point"},"properties":{"osm_id":"4417670001","tag":{"amenity":"recycling","recycling:cans":"yes","recycling:glass_bottles":"yes","recycling:paper":"yes","recycling:plastic_bottles":"yes","recycling_type":"container"}},"type":"Feature"},
	{"geometry":{"coordinates":[2.344958,48.977324],"type":"Point"},"properties":{"osm_id":"4506345689","tag":{"amenity":"waste_disposal"}},"type":"Feature"},
	{"geometry":{"coordinates":[2.305587,48.970868],"type":"Point"},"properties":{"osm_id":"4542479454","tag":{"amenity":"waste_basket"}},"type":"Feature"},
	{"geometry":{"coordinates":[2.309021,48.971985],"type":"Point"},"properties":{"osm_id":"4543362885","tag":{"amenity":"waste_basket"}},"type":"Feature"},
	{"geometry":{"coordinates":[2.343592,48.954223],"type":"Point"},"properties":{"osm_id":"4845097662","tag":{"amenity":"recycling","recycling:glass_bottles":"yes","recycling_type":"container"}},"type":"Feature"},
	{"geometry":{"coordinates":[2.287595,48.96882],"type":"Point"},"properties":{"osm_id":"4945268131","tag":{"amenity":"waste_basket"}},"type":"Feature"},
	{"geometry":{"coordinates":[2.287406,48.968793],"type":"Point"},"properties":{"osm_id":"4945268134","tag":{"amenity":"waste_basket"}},"type":"Feature"},
	{"geometry":{"coordinates":[2.306558,48.933106],"type":"Point"},"properties":{"osm_id":"5097158324","tag":{"amenity":"recycling","recycling:glass_bottles":"yes","recycling_type":"container"}},"type":"Feature"},
	{"geometry":{"coordinates":[2.306483,48.933106],"type":"Point"},"properties":{"osm_id":"5097158325","tag":{"amenity":"recycling","recycling:clothes":"yes","recycling_type":"container"}},"type":"Feature"},
	{"geometry":{"coordinates":[2.35724,48.929868],"type":"Point"},"properties":{"osm_id":"5491257429","tag":{"amenity":"waste_basket"}},"type":"Feature"},
	{"geometry":{"coordinates":[2.357435,48.929864],"type":"Point"},"properties":{"osm_id":"5491257430","tag":{"amenity":"waste_basket"}},"type":"Feature"},
	{"geometry":{"coordinates":[2.357311,48.929766],"type":"Point"},"properties":{"osm_id":"5491257432","tag":{"amenity":"waste_basket"}},"type":"Feature"},
	{"geometry":{"coordinates":[2.369823,48.923133],"type":"Point"},"properties":{"osm_id":"5519192039","tag":{"amenity":"recycling","recycling:clothes":"yes","recycling_type":"container"}},"type":"Feature"},
	{"geometry":{"coordinates":[2.306855,48.98008],"type":"Point"},"properties":{"osm_id":"5532795570","tag":{"amenity":"waste_basket"}},"type":"Feature"},
	{"geometry":{"coordinates":[2.307621,48.976484],"type":"Point"},"properties":{"osm_id":"5532795571","tag":{"amenity":"waste_basket"}},"type":"Feature"},
	{"geometry":{"coordinates":[2.307187,48.977246],"type":"Point"},"properties":{"osm_id":"5532796000","tag":{"amenity":"waste_basket"}},"type":"Feature"},
	{"geometry":{"coordinates":[2.319076,48.94975],"type":"Point"},"properties":{"osm_id":"5714643319","tag":{"amenity":"waste_basket"}},"type":"Feature"},
	{"geometry":{"coordinates":[2.312655,48.937392],"type":"Point"},"properties":{"osm_id":"6074587044","tag":{"amenity":"waste_basket"}},"type":"Feature"},
	{"geometry":{"coordinates":[2.312621,48.937397],"type":"Point"},"properties":{"osm_id":"6074587045","tag":{"amenity":"recycling"}},"type":"Feature"},
	{"geometry":{"coordinates":[2.313895,48.937738],"type":"Point"},"properties":{"osm_id":"6074587046","tag":{"amenity":"recycling"}},"type":"Feature"},
	{"geometry":{"coordinates":[2.313886,48.937774],"type":"Point"},"properties":{"osm_id":"6074587047","tag":{"amenity":"waste_basket"}},"type":"Feature"},
	{"geometry":{"coordinates":[2.302625,48.954185],"type":"Point"},"properties":{"osm_id":"6096227902","tag":{"amenity":"waste_basket"}},"type":"Feature"},
	{"geometry":{"coordinates":[2.285494,48.9641],"type":"Point"},"properties":{"osm_id":"6119503147","tag":{"amenity":"recycling","level":"0","recycling:glass":"yes","recycling_type":"container"}},"type":"Feature"},
	{"geometry":{"coordinates":[2.357285,48.926218],"type":"Point"},"properties":{"osm_id":"6191647957","tag":{"amenity":"recycling","description":"Conteneur \u00c3\u00a0 verre int\u00c3\u00a9gr\u00c3\u00a9 dans l'abri d'attente de bus.","recycling:glass":"yes","recycling:glass_bottles":"yes"}},"type":"Feature"},
	{"geometry":{"coordinates":[2.351456,48.945398],"type":"Point"},"properties":{"osm_id":"6236221879","tag":{"amenity":"recycling","recycling:glass":"yes","recycling:glass_bottles":"yes","recycling_type":"container"}},"type":"Feature"},
	{"geometry":{"coordinates":[2.351456,48.945376],"type":"Point"},"properties":{"osm_id":"6236221880","tag":{"amenity":"waste_basket"}},"type":"Feature"},
	{"geometry":{"coordinates":[2.351318,48.945256],"type":"Point"},"properties":{"osm_id":"6236221881","tag":{"amenity":"waste_basket"}},"type":"Feature"},
	{"geometry":{"coordinates":[2.351723,48.945148],"type":"Point"},"properties":{"osm_id":"6236221882","tag":{"amenity":"waste_basket"}},"type":"Feature"},
	{"geometry":{"coordinates":[2.355804,48.951284],"type":"Point"},"properties":{"osm_id":"6402569657","tag":{"amenity":"waste_basket"}},"type":"Feature"},
	{"geometry":{"coordinates":[2.355522,48.951349],"type":"Point"},"properties":{"osm_id":"6402569658","tag":{"amenity":"waste_basket"}},"type":"Feature"},
	{"geometry":{"coordinates":[2.371028,48.933643],"type":"Point"},"properties":{"osm_id":"6780495630","tag":{"amenity":"waste_basket"}},"type":"Feature"},
	{"geometry":{"coordinates":[2.371215,48.93361],"type":"Point"},"properties":{"osm_id":"6780495631","tag":{"amenity":"waste_basket"}},"type":"Feature"},
	{"geometry":{"coordinates":[2.370993,48.933553],"type":"Point"},"properties":{"osm_id":"6780495632","tag":{"amenity":"waste_basket"}},"type":"Feature"},
	{"geometry":{"coordinates":[2.371187,48.933519],"type":"Point"},"properties":{"osm_id":"6780495633","tag":{"amenity":"waste_basket"}},"type":"Feature"},
	{"geometry":{"coordinates":[2.307685,48.954232],"type":"Point"},"properties":{"osm_id":"6896446516","tag":{"amenity":"waste_basket"}},"type":"Feature"},
	{"geometry":{"coordinates":[2.342798,48.937733],"type":"Point"},"properties":{"name":"Tri des d\u00c3\u00a9chets","osm_id":"7417909448","tag":{"amenity":"waste_disposal","waste":"trash;recycling;glass"}},"type":"Feature"},
	{"geometry":{"coordinates":[2.343706,48.937609],"type":"Point"},"properties":{"osm_id":"7418059342","tag":{"amenity":"waste_disposal","waste":"recycling;trash;glass"}},"type":"Feature"},
	{"geometry":{"coordinates":[2.343237,48.936559],"type":"Point"},"properties":{"osm_id":"7418059343","tag":{"amenity":"waste_disposal","waste":"trash;recycling;glass"}},"type":"Feature"},
	{"geometry":{"coordinates":[2.343898,48.936181],"type":"Point"},"properties":{"osm_id":"7418059344","tag":{"amenity":"waste_disposal","waste":"trash;recycling;glass"}},"type":"Feature"},
	{"geometry":{"coordinates":[2.343916,48.936943],"type":"Point"},"properties":{"osm_id":"7418059345","tag":{"amenity":"waste_disposal","waste":"trash;recycling;glass"}},"type":"Feature"},
	{"geometry":{"coordinates":[2.332708,48.938679],"type":"Point"},"properties":{"osm_id":"7443516976","tag":{"amenity":"waste_basket"}},"type":"Feature"},
	{"geometry":{"coordinates":[2.299505,48.931268],"type":"Point"},"properties":{"osm_id":"7606814373","tag":{"amenity":"waste_basket","waste":"trash"}},"type":"Feature"},
	{"geometry":{"coordinates":[2.29982,48.928813],"type":"Point"},"properties":{"osm_id":"7697394971","tag":{"amenity":"waste_basket"}},"type":"Feature"},
	{"geometry":{"coordinates":[2.307898,48.944183],"type":"Point"},"properties":{"osm_id":"7779175390","tag":{"amenity":"waste_basket","waste":"trash"}},"type":"Feature"},
	{"geometry":{"coordinates":[2.30016,48.926298],"type":"Point"},"properties":{"osm_id":"7791489558","tag":{"amenity":"recycling","opening_hours":"24/7","recycling:beverage_cartons":"yes","recycling:cans":"yes","recycling:cardboard":"yes","recycling:glass":"no","recycling:glass_bottles":"yes","recycling:magazines":"yes","recycling:newspaper":"yes","recycling:paper":"yes","recycling:paper_packaging":"no","recycling:plastic":"yes","recycling:plastic_bottles":"yes","recycling:plastic_packaging":"yes","recycling:waste":"no","recycling_type":"container","wheelchair":"yes"}},"type":"Feature"},
	{"geometry":{"coordinates":[2.300031,48.926223],"type":"Point"},"properties":{"osm_id":"7791489559","tag":{"amenity":"recycling","opening_hours":"24/7","recycling:beverage_cartons":"yes","recycling:cans":"yes","recycling:cardboard":"yes","recycling:glass":"no","recycling:glass_bottles":"yes","recycling:magazines":"yes","recycling:newspaper":"yes","recycling:paper":"yes","recycling:paper_packaging":"no","recycling:plastic":"yes","recycling:plastic_bottles":"yes","recycling:plastic_packaging":"yes","recycling:waste":"no","recycling_type":"container","wheelchair":"yes"}},"type":"Feature"},
	{"geometry":{"coordinates":[2.302556,48.930458],"type":"Point"},"properties":{"osm_id":"7791592769","tag":{"amenity":"recycling","recycling:glass_bottles":"yes","recycling_type":"container"}},"type":"Feature"},
	{"geometry":{"coordinates":[2.301191,48.930539],"type":"Point"},"properties":{"osm_id":"7791592770","tag":{"amenity":"recycling","recycling:glass_bottles":"yes","recycling_type":"container"}},"type":"Feature"},
	{"geometry":{"coordinates":[2.298636,48.930868],"type":"Point"},"properties":{"osm_id":"7791592771","tag":{"amenity":"recycling","recycling:glass_bottles":"yes","recycling_type":"container"}},"type":"Feature"},
	{"geometry":{"coordinates":[2.285187,48.92915],"type":"Point"},"properties":{"osm_id":"7858576550","tag":{"amenity":"recycling","recycling:beverage_cartons":"yes","recycling:cans":"yes","recycling:cardboard":"yes","recycling:glass_bottles":"no","recycling:magazines":"yes","recycling:newspaper":"yes","recycling:paper":"yes","recycling:paper_packaging":"yes","recycling:plastic":"yes","recycling:plastic_packaging":"yes","recycling:waste":"yes","recycling_type":"container"}},"type":"Feature"},
	{"geometry":{"coordinates":[2.285451,48.929209],"type":"Point"},"properties":{"osm_id":"7858576551","tag":{"amenity":"recycling","recycling:glass_bottles":"yes","recycling_type":"container"}},"type":"Feature"},
	{"geometry":{"coordinates":[2.301925,48.924058],"type":"Point"},"properties":{"osm_id":"7925849024","tag":{"amenity":"waste_basket"}},"type":"Feature"}
]
}
