{
"type": "FeatureCollection",
"features": [
	{"geometry":{"coordinates":[2.363442,48.788441],"type":"Point"},"properties":{"osm_id":"330992944","tag":{"amenity":"recycling","location":"overground","recycling:glass_bottles":"yes","recycling_type":"container"}},"type":"Feature"},
	{"geometry":{"coordinates":[2.363254,48.797399],"type":"Point"},"properties":{"osm_id":"331249389","tag":{"amenity":"recycling","recycling:glass_bottles":"yes"}},"type":"Feature"},
	{"geometry":{"coordinates":[2.36456,48.790567],"type":"Point"},"properties":{"osm_id":"366948020","tag":{"amenity":"recycling","recycling:glass_bottles":"yes"}},"type":"Feature"},
	{"geometry":{"coordinates":[2.328227,48.779285],"type":"Point"},"properties":{"osm_id":"619624778","tag":{"amenity":"recycling","recycling:glass_bottles":"yes","recycling_type":"container"}},"type":"Feature"},
	{"geometry":{"coordinates":[2.335946,48.803915],"type":"Point"},"properties":{"osm_id":"788616751","tag":{"noexit":"yes"}},"type":"Feature"},
	{"geometry":{"coordinates":[2.337631,48.804677],"type":"Point"},"properties":{"barrier":"gate","osm_id":"788616760","tag":{"access":"private"}},"type":"Feature"},
	{"geometry":{"coordinates":[2.333389,48.770094],"type":"Point"},"properties":{"osm_id":"826649949","tag":{"amenity":"recycling","location":"overground","recycling:glass_bottles":"yes","recycling_type":"container"}},"type":"Feature"},
	{"geometry":{"coordinates":[2.355131,48.798142],"type":"Point"},"properties":{"osm_id":"858012201","tag":{"amenity":"recycling","recycling:glass_bottles":"yes","recycling_type":"container"}},"type":"Feature"},
	{"geometry":{"coordinates":[2.314022,48.75595],"type":"Point"},"properties":{"osm_id":"984529404","tag":{"amenity":"recycling","recycling:paper":"yes","recycling_type":"container"}},"type":"Feature"},
	{"geometry":{"coordinates":[2.292503,48.794968],"type":"Point"},"properties":{"osm_id":"1587682927","tag":{"amenity":"waste_basket"}},"type":"Feature"},
	{"geometry":{"coordinates":[2.334065,48.791387],"type":"Point"},"properties":{"osm_id":"1687532289","tag":{"amenity":"recycling","location":"underground","recycling:glass_bottles":"yes","recycling_type":"container"}},"type":"Feature"},
	{"geometry":{"coordinates":[2.299462,48.763118],"type":"Point"},"properties":{"osm_id":"1734560158","tag":{"amenity":"waste_basket"}},"type":"Feature"},
	{"geometry":{"coordinates":[2.301923,48.773494],"type":"Point"},"properties":{"osm_id":"1735751197","tag":{"amenity":"waste_basket"}},"type":"Feature"},
	{"geometry":{"coordinates":[2.33761,48.805775],"type":"Point"},"properties":{"osm_id":"1804838596","tag":{"amenity":"recycling","recycling_type":"container"}},"type":"Feature"},
	{"geometry":{"coordinates":[2.335813,48.777522],"type":"Point"},"properties":{"osm_id":"1812407589","tag":{"amenity":"recycling","recycling:glass_bottles":"yes","recycling_type":"container"}},"type":"Feature"},
	{"geometry":{"coordinates":[2.328388,48.775312],"type":"Point"},"properties":{"osm_id":"1812410604","tag":{"amenity":"recycling","recycling:glass_bottles":"yes","recycling_type":"container"}},"type":"Feature"},
	{"geometry":{"coordinates":[2.335855,48.779533],"type":"Point"},"properties":{"osm_id":"1812754640","tag":{"amenity":"waste_basket"}},"type":"Feature"},
	{"geometry":{"coordinates":[2.313758,48.780073],"type":"Point"},"properties":{"osm_id":"1814600688","tag":{"amenity":"recycling","recycling:glass_bottles":"yes","recycling_type":"container"}},"type":"Feature"},
	{"geometry":{"coordinates":[2.30038,48.752819],"type":"Point"},"properties":{"osm_id":"1814667424","tag":{"amenity":"waste_basket"}},"type":"Feature"},
	{"geometry":{"coordinates":[2.314048,48.779482],"type":"Point"},"properties":{"osm_id":"2088957263","tag":{"access":"private","amenity":"waste_basket"}},"type":"Feature"},
	{"geometry":{"coordinates":[2.30133,48.763474],"type":"Point"},"properties":{"osm_id":"2143841964","tag":{"amenity":"waste_basket"}},"type":"Feature"},
	{"geometry":{"coordinates":[2.295127,48.763733],"type":"Point"},"properties":{"osm_id":"2145437845","tag":{"amenity":"waste_basket"}},"type":"Feature"},
	{"geometry":{"coordinates":[2.300869,48.76268],"type":"Point"},"properties":{"osm_id":"2145437846","tag":{"amenity":"waste_basket"}},"type":"Feature"},
	{"geometry":{"coordinates":[2.300505,48.762849],"type":"Point"},"properties":{"osm_id":"2145437847","tag":{"amenity":"waste_basket"}},"type":"Feature"},
	{"geometry":{"coordinates":[2.305386,48.765206],"type":"Point"},"properties":{"osm_id":"2145437855","tag":{"amenity":"waste_basket"}},"type":"Feature"},
	{"geometry":{"coordinates":[2.302698,48.767509],"type":"Point"},"properties":{"osm_id":"2145437873","tag":{"amenity":"waste_basket"}},"type":"Feature"},
	{"geometry":{"coordinates":[2.30294,48.768687],"type":"Point"},"properties":{"osm_id":"2145437879","tag":{"amenity":"waste_basket"}},"type":"Feature"},
	{"geometry":{"coordinates":[2.305265,48.769053],"type":"Point"},"properties":{"osm_id":"2145437885","tag":{"amenity":"waste_basket"}},"type":"Feature"},
	{"geometry":{"coordinates":[2.296722,48.772169],"type":"Point"},"properties":{"osm_id":"2145437911","tag":{"amenity":"waste_basket"}},"type":"Feature"},
	{"geometry":{"coordinates":[2.303952,48.7633],"type":"Point"},"properties":{"osm_id":"2161060947","tag":{"amenity":"waste_basket"}},"type":"Feature"},
	{"geometry":{"coordinates":[2.364407,48.80284],"type":"Point"},"properties":{"osm_id":"2332877029","tag":{"amenity":"recycling","recycling:glass":"yes","recycling_type":"container"}},"type":"Feature"},
	{"geometry":{"coordinates":[2.363857,48.804381],"type":"Point"},"properties":{"osm_id":"2332878662","tag":{"amenity":"recycling","recycling:glass":"yes","recycling_type":"container"}},"type":"Feature"},
	{"geometry":{"coordinates":[2.365839,48.798247],"type":"Point"},"properties":{"osm_id":"2546584736","tag":{"amenity":"recycling","recycling:glass":"yes","recycling_type":"container"}},"type":"Feature"},
	{"geometry":{"coordinates":[2.31329,48.774006],"type":"Point"},"properties":{"name":"Bac a verre","osm_id":"2656753725","tag":{"amenity":"recycling","location":"underground","recycling:cans":"no","recycling:clothes":"no","recycling:glass":"yes","recycling:glass_bottles":"yes","recycling:paper":"no","recycling:plastic":"no","recycling_type":"container"}},"type":"Feature"},
	{"geometry":{"coordinates":[2.296442,48.797426],"type":"Point"},"properties":{"osm_id":"3025936029","tag":{"amenity":"waste_basket"}},"type":"Feature"},
	{"geometry":{"coordinates":[2.29592,48.800416],"type":"Point"},"properties":{"osm_id":"3044781579","tag":{"amenity":"waste_basket"}},"type":"Feature"},
	{"geometry":{"coordinates":[2.296457,48.797425],"type":"Point"},"properties":{"osm_id":"3045724825","tag":{"amenity":"waste_basket"}},"type":"Feature"},
	{"geometry":{"coordinates":[2.32582,48.805813],"type":"Point"},"properties":{"osm_id":"3157000768","tag":{"amenity":"waste_basket"}},"type":"Feature"},
	{"geometry":{"coordinates":[2.316156,48.781065],"type":"Point"},"properties":{"osm_id":"3239607274","tag":{"addr:city":"Bourg-la-Reine","addr:housenumber":"79","addr:postcode":"92340","addr:street":"Avenue du G\u00c3\u00a9n\u00c3\u00a9ral Leclerc","amenity":"recycling","recycling:cans":"no","recycling:clothes":"no","recycling:glass":"no","recycling:glass_bottles":"yes","recycling:paper":"no","recycling_type":"container"}},"type":"Feature"},
	{"geometry":{"coordinates":[2.300478,48.749794],"type":"Point"},"properties":{"osm_id":"3390421744","tag":{"amenity":"waste_basket"}},"type":"Feature"},
	{"geometry":{"coordinates":[2.301144,48.750317],"type":"Point"},"properties":{"osm_id":"3393219857","tag":{"amenity":"waste_basket"}},"type":"Feature"},
	{"geometry":{"coordinates":[2.315351,48.765102],"type":"Point"},"properties":{"osm_id":"3452857016","tag":{"amenity":"waste_basket"}},"type":"Feature"},
	{"geometry":{"coordinates":[2.313987,48.755919],"type":"Point"},"properties":{"osm_id":"3647537559","tag":{"amenity":"recycling","recycling:glass":"yes","recycling_type":"container"}},"type":"Feature"},
	{"geometry":{"coordinates":[2.314005,48.755933],"type":"Point"},"properties":{"osm_id":"3647537560","tag":{"amenity":"recycling","recycling:glass":"yes","recycling_type":"container"}},"type":"Feature"},
	{"geometry":{"coordinates":[2.324731,48.78011],"type":"Point"},"properties":{"osm_id":"3664033231","tag":{"amenity":"recycling","recycling:glass_bottles":"yes","recycling_type":"container"}},"type":"Feature"},
	{"geometry":{"coordinates":[2.366782,48.784968],"type":"Point"},"properties":{"osm_id":"3699704096","tag":{"amenity":"waste_basket"}},"type":"Feature"},
	{"geometry":{"coordinates":[2.366771,48.785335],"type":"Point"},"properties":{"osm_id":"3699704099","tag":{"amenity":"waste_basket"}},"type":"Feature"},
	{"geometry":{"coordinates":[2.366756,48.785786],"type":"Point"},"properties":{"osm_id":"3699704102","tag":{"amenity":"waste_basket"}},"type":"Feature"},
	{"geometry":{"coordinates":[2.363957,48.804296],"type":"Point"},"properties":{"osm_id":"3758738672","tag":{"amenity":"waste_basket"}},"type":"Feature"},
	{"geometry":{"coordinates":[2.364188,48.804324],"type":"Point"},"properties":{"osm_id":"3758738676","tag":{"amenity":"waste_basket"}},"type":"Feature"},
	{"geometry":{"coordinates":[2.363804,48.804553],"type":"Point"},"properties":{"osm_id":"3758738703","tag":{"amenity":"waste_basket"}},"type":"Feature"},
	{"geometry":{"coordinates":[2.364041,48.804751],"type":"Point"},"properties":{"osm_id":"3758738738","tag":{"amenity":"waste_basket"}},"type":"Feature"},
	{"geometry":{"coordinates":[2.363733,48.804906],"type":"Point"},"properties":{"osm_id":"3758738761","tag":{"amenity":"waste_basket"}},"type":"Feature"},
	{"geometry":{"coordinates":[2.363993,48.804938],"type":"Point"},"properties":{"osm_id":"3758738768","tag":{"amenity":"waste_basket"}},"type":"Feature"},
	{"geometry":{"coordinates":[2.363662,48.805121],"type":"Point"},"properties":{"osm_id":"3758738773","tag":{"amenity":"waste_basket"}},"type":"Feature"},
	{"geometry":{"coordinates":[2.363554,48.805457],"type":"Point"},"properties":{"osm_id":"3758738780","tag":{"amenity":"waste_basket"}},"type":"Feature"},
	{"geometry":{"coordinates":[2.363792,48.805491],"type":"Point"},"properties":{"osm_id":"3758738786","tag":{"amenity":"waste_basket"}},"type":"Feature"},
	{"geometry":{"coordinates":[2.363373,48.805697],"type":"Point"},"properties":{"osm_id":"3758738801","tag":{"amenity":"waste_basket"}},"type":"Feature"},
	{"geometry":{"coordinates":[2.363808,48.80574],"type":"Point"},"properties":{"osm_id":"3758738802","tag":{"amenity":"waste_basket"}},"type":"Feature"},
	{"geometry":{"coordinates":[2.298969,48.770022],"type":"Point"},"properties":{"osm_id":"3782264199","tag":{"amenity":"waste_basket"}},"type":"Feature"},
	{"geometry":{"coordinates":[2.296436,48.771964],"type":"Point"},"properties":{"osm_id":"3782264201","tag":{"amenity":"waste_basket"}},"type":"Feature"},
	{"geometry":{"coordinates":[2.296903,48.770507],"type":"Point"},"properties":{"osm_id":"3782264203","tag":{"amenity":"waste_basket"}},"type":"Feature"},
	{"geometry":{"coordinates":[2.287351,48.770623],"type":"Point"},"properties":{"osm_id":"3785254397","tag":{"amenity":"waste_basket"}},"type":"Feature"},
	{"geometry":{"coordinates":[2.304337,48.771739],"type":"Point"},"properties":{"osm_id":"3785308118","tag":{"amenity":"waste_basket"}},"type":"Feature"},
	{"geometry":{"coordinates":[2.300297,48.754792],"type":"Point"},"properties":{"osm_id":"3790444623","tag":{"amenity":"waste_basket"}},"type":"Feature"},
	{"geometry":{"coordinates":[2.300372,48.754519],"type":"Point"},"properties":{"osm_id":"3790831358","tag":{"amenity":"waste_basket"}},"type":"Feature"},
	{"geometry":{"coordinates":[2.30028,48.75454],"type":"Point"},"properties":{"osm_id":"3790831362","tag":{"amenity":"waste_basket"}},"type":"Feature"},
	{"geometry":{"coordinates":[2.298953,48.764122],"type":"Point"},"properties":{"osm_id":"3791332519","tag":{"amenity":"waste_basket"}},"type":"Feature"},
	{"geometry":{"coordinates":[2.297891,48.774855],"type":"Point"},"properties":{"osm_id":"3791343825","tag":{"amenity":"waste_basket"}},"type":"Feature"},
	{"geometry":{"coordinates":[2.299743,48.772724],"type":"Point"},"properties":{"osm_id":"3791500599","tag":{"amenity":"waste_basket"}},"type":"Feature"},
	{"geometry":{"coordinates":[2.305417,48.767855],"type":"Point"},"properties":{"osm_id":"3791500600","tag":{"amenity":"waste_basket"}},"type":"Feature"},
	{"geometry":{"coordinates":[2.302095,48.770823],"type":"Point"},"properties":{"osm_id":"3791500601","tag":{"amenity":"waste_basket"}},"type":"Feature"},
	{"geometry":{"coordinates":[2.29284,48.783413],"type":"Point"},"properties":{"osm_id":"3792041450","tag":{"amenity":"waste_basket"}},"type":"Feature"},
	{"geometry":{"coordinates":[2.363113,48.793569],"type":"Point"},"properties":{"osm_id":"3802655357","tag":{"amenity":"waste_basket","source:amenity":"survey"}},"type":"Feature"},
	{"geometry":{"coordinates":[2.360974,48.793105],"type":"Point"},"properties":{"osm_id":"3802655358","tag":{"amenity":"waste_basket"}},"type":"Feature"},
	{"geometry":{"coordinates":[2.362476,48.793507],"type":"Point"},"properties":{"osm_id":"3802657357","tag":{"amenity":"recycling","location":"overground","recycling:glass_bottles":"yes","recycling_type":"container"}},"type":"Feature"},
	{"geometry":{"coordinates":[2.361851,48.793383],"type":"Point"},"properties":{"osm_id":"3804127080","tag":{"amenity":"waste_basket"}},"type":"Feature"},
	{"geometry":{"coordinates":[2.295328,48.775146],"type":"Point"},"properties":{"osm_id":"3873860311","tag":{"amenity":"waste_basket"}},"type":"Feature"},
	{"geometry":{"coordinates":[2.295322,48.775151],"type":"Point"},"properties":{"osm_id":"3873860312","tag":{"amenity":"waste_basket"}},"type":"Feature"},
	{"geometry":{"coordinates":[2.292813,48.766902],"type":"Point"},"properties":{"osm_id":"3876393117","tag":{"amenity":"waste_basket"}},"type":"Feature"},
	{"geometry":{"coordinates":[2.292727,48.766891],"type":"Point"},"properties":{"osm_id":"3876393119","tag":{"amenity":"waste_basket"}},"type":"Feature"},
	{"geometry":{"coordinates":[2.295505,48.772962],"type":"Point"},"properties":{"osm_id":"3876464491","tag":{"amenity":"waste_basket"}},"type":"Feature"},
	{"geometry":{"coordinates":[2.295497,48.772985],"type":"Point"},"properties":{"osm_id":"3876464493","tag":{"amenity":"waste_basket"}},"type":"Feature"},
	{"geometry":{"coordinates":[2.298501,48.778287],"type":"Point"},"properties":{"osm_id":"3880377417","tag":{"amenity":"waste_basket"}},"type":"Feature"},
	{"geometry":{"coordinates":[2.29852,48.777839],"type":"Point"},"properties":{"osm_id":"3880377419","tag":{"amenity":"waste_basket"}},"type":"Feature"},
	{"geometry":{"coordinates":[2.296824,48.777731],"type":"Point"},"properties":{"osm_id":"3880377421","tag":{"amenity":"waste_basket"}},"type":"Feature"},
	{"geometry":{"coordinates":[2.297257,48.776613],"type":"Point"},"properties":{"osm_id":"3880423660","tag":{"amenity":"waste_basket"}},"type":"Feature"},
	{"geometry":{"coordinates":[2.295534,48.776038],"type":"Point"},"properties":{"osm_id":"3886952086","tag":{"amenity":"waste_basket"}},"type":"Feature"},
	{"geometry":{"coordinates":[2.295521,48.776042],"type":"Point"},"properties":{"osm_id":"3886952087","tag":{"amenity":"waste_basket"}},"type":"Feature"},
	{"geometry":{"coordinates":[2.301515,48.766904],"type":"Point"},"properties":{"osm_id":"4006506732","tag":{"amenity":"waste_basket"}},"type":"Feature"},
	{"geometry":{"coordinates":[2.297338,48.775352],"type":"Point"},"properties":{"osm_id":"4031384877","tag":{"amenity":"waste_basket"}},"type":"Feature"},
	{"geometry":{"coordinates":[2.334579,48.788381],"type":"Point"},"properties":{"osm_id":"4222957620","tag":{"amenity":"recycling","location":"underground","recycling:glass_bottles":"yes","recycling_type":"container"}},"type":"Feature"},
	{"geometry":{"coordinates":[2.332478,48.787797],"type":"Point"},"properties":{"osm_id":"4222960473","tag":{"amenity":"recycling","location":"underground","recycling:glass_bottles":"yes","recycling_type":"container"}},"type":"Feature"},
	{"geometry":{"coordinates":[2.332646,48.786557],"type":"Point"},"properties":{"osm_id":"4225459997","tag":{"amenity":"recycling","recycling:glass_bottles":"yes","recycling_type":"container"}},"type":"Feature"},
	{"geometry":{"coordinates":[2.328365,48.791399],"type":"Point"},"properties":{"osm_id":"4232698015","tag":{"amenity":"recycling","recycling:glass_bottles":"yes","recycling_type":"container"}},"type":"Feature"},
	{"geometry":{"coordinates":[2.365489,48.799576],"type":"Point"},"properties":{"osm_id":"4238669181","tag":{"amenity":"waste_basket"}},"type":"Feature"},
	{"geometry":{"coordinates":[2.365568,48.799624],"type":"Point"},"properties":{"osm_id":"4238669182","tag":{"amenity":"waste_basket"}},"type":"Feature"},
	{"geometry":{"coordinates":[2.365681,48.799554],"type":"Point"},"properties":{"osm_id":"4238669183","tag":{"amenity":"waste_basket"}},"type":"Feature"},
	{"geometry":{"coordinates":[2.34912,48.774643],"type":"Point"},"properties":{"osm_id":"4270117143","tag":{"amenity":"recycling","recycling:glass_bottles":"yes","recycling_type":"container"}},"type":"Feature"},
	{"geometry":{"coordinates":[2.359717,48.778625],"type":"Point"},"properties":{"osm_id":"4270117149","tag":{"amenity":"recycling","recycling:glass_bottles":"yes","recycling_type":"container"}},"type":"Feature"},
	{"geometry":{"coordinates":[2.337134,48.794869],"type":"Point"},"properties":{"osm_id":"4273465024","tag":{"amenity":"recycling","recycling:glass_bottles":"yes","recycling_type":"container"}},"type":"Feature"},
	{"geometry":{"coordinates":[2.339306,48.799188],"type":"Point"},"properties":{"osm_id":"4280551007","tag":{"amenity":"recycling","recycling:clothes":"yes","recycling_type":"container"}},"type":"Feature"},
	{"geometry":{"coordinates":[2.313073,48.784261],"type":"Point"},"properties":{"osm_id":"4280836743","tag":{"amenity":"recycling","recycling:glass_bottles":"yes","recycling_type":"container"}},"type":"Feature"},
	{"geometry":{"coordinates":[2.314436,48.776937],"type":"Point"},"properties":{"osm_id":"4280836755","tag":{"amenity":"recycling","recycling:glass_bottles":"yes","recycling_type":"underground"}},"type":"Feature"},
	{"geometry":{"coordinates":[2.303834,48.78571],"type":"Point"},"properties":{"osm_id":"4281671444","tag":{"amenity":"recycling","recycling:clothes":"yes","recycling:glass_bottles":"yes","recycling:paper":"yes","recycling_type":"container"}},"type":"Feature"},
	{"geometry":{"coordinates":[2.320099,48.770656],"type":"Point"},"properties":{"osm_id":"4349825112","tag":{"amenity":"waste_basket"}},"type":"Feature"},
	{"geometry":{"coordinates":[2.323217,48.772018],"type":"Point"},"properties":{"osm_id":"4349854457","tag":{"amenity":"waste_basket"}},"type":"Feature"},
	{"geometry":{"coordinates":[2.330555,48.792399],"type":"Point"},"properties":{"osm_id":"4395478628","tag":{"amenity":"recycling","recycling:glass_bottles":"yes","recycling_type":"container"}},"type":"Feature"},
	{"geometry":{"coordinates":[2.324311,48.77625],"type":"Point"},"properties":{"osm_id":"4668460976","tag":{"amenity":"recycling","recycling:glass_bottles":"yes","recycling_type":"container"}},"type":"Feature"},
	{"geometry":{"coordinates":[2.336082,48.788618],"type":"Point"},"properties":{"osm_id":"4730758158","tag":{"amenity":"recycling","recycling:glass_bottles":"yes","recycling_type":"container"}},"type":"Feature"},
	{"geometry":{"coordinates":[2.328485,48.786258],"type":"Point"},"properties":{"osm_id":"4730865457","tag":{"amenity":"recycling","recycling:glass_bottles":"yes","recycling_type":"container"}},"type":"Feature"},
	{"geometry":{"coordinates":[2.29229,48.777712],"type":"Point"},"properties":{"osm_id":"4868031931","tag":{"amenity":"waste_basket"}},"type":"Feature"},
	{"geometry":{"coordinates":[2.295097,48.777297],"type":"Point"},"properties":{"osm_id":"4895746628","tag":{"amenity":"waste_basket"}},"type":"Feature"},
	{"geometry":{"coordinates":[2.293137,48.781257],"type":"Point"},"properties":{"osm_id":"4895747921","tag":{"amenity":"waste_basket"}},"type":"Feature"},
	{"geometry":{"coordinates":[2.303749,48.778791],"type":"Point"},"properties":{"osm_id":"4895759523","tag":{"amenity":"waste_basket"}},"type":"Feature"},
	{"geometry":{"coordinates":[2.303647,48.779297],"type":"Point"},"properties":{"osm_id":"4895787221","tag":{"amenity":"waste_basket"}},"type":"Feature"},
	{"geometry":{"coordinates":[2.317876,48.751067],"type":"Point"},"properties":{"osm_id":"4911399427","tag":{"amenity":"waste_basket"}},"type":"Feature"},
	{"geometry":{"coordinates":[2.323192,48.758064],"type":"Point"},"properties":{"osm_id":"4911426874","tag":{"amenity":"waste_basket"}},"type":"Feature"},
	{"geometry":{"coordinates":[2.323262,48.758017],"type":"Point"},"properties":{"osm_id":"4911426879","tag":{"amenity":"recycling"}},"type":"Feature"},
	{"geometry":{"coordinates":[2.328643,48.785361],"type":"Point"},"properties":{"osm_id":"4919843987","tag":{"amenity":"recycling","recycling:glass_bottles":"yes","recycling_type":"container"}},"type":"Feature"},
	{"geometry":{"coordinates":[2.292265,48.789623],"type":"Point"},"properties":{"osm_id":"4970606513","tag":{"amenity":"recycling","location":"underground","recycling:glass_bottles":"yes","recycling_type":"container"}},"type":"Feature"},
	{"geometry":{"coordinates":[2.329003,48.770754],"type":"Point"},"properties":{"osm_id":"5047363246","tag":{"amenity":"recycling","recycling:clothes":"yes","recycling:glass_bottles":"yes","recycling_type":"container"}},"type":"Feature"},
	{"geometry":{"coordinates":[2.31712,48.778968],"type":"Point"},"properties":{"osm_id":"5051729734","tag":{"amenity":"recycling","location":"underground","recycling:glass_bottles":"yes","recycling_type":"container"}},"type":"Feature"},
	{"geometry":{"coordinates":[2.323571,48.772625],"type":"Point"},"properties":{"osm_id":"5055995925","tag":{"amenity":"recycling","recycling:glass_bottles":"yes","recycling_type":"container"}},"type":"Feature"},
	{"geometry":{"coordinates":[2.326687,48.776936],"type":"Point"},"properties":{"osm_id":"5059640054","tag":{"amenity":"recycling","recycling:glass_bottles":"yes","recycling_type":"container"}},"type":"Feature"},
	{"geometry":{"coordinates":[2.32129,48.766451],"type":"Point"},"properties":{"osm_id":"5062321704","tag":{"amenity":"recycling","recycling:glass_bottles":"yes","recycling_type":"container"}},"type":"Feature"},
	{"geometry":{"coordinates":[2.318377,48.761948],"type":"Point"},"properties":{"osm_id":"5062367510","tag":{"amenity":"recycling","recycling:clothes":"yes","recycling:glass_bottles":"yes","recycling_type":"container"}},"type":"Feature"},
	{"geometry":{"coordinates":[2.331308,48.790072],"type":"Point"},"properties":{"osm_id":"5066370386","tag":{"amenity":"recycling","recycling:glass_bottles":"yes","recycling_type":"container"}},"type":"Feature"},
	{"geometry":{"coordinates":[2.318514,48.776841],"type":"Point"},"properties":{"osm_id":"5069765937","tag":{"amenity":"recycling","recycling:glass_bottles":"yes","recycling_type":"container"}},"type":"Feature"},
	{"geometry":{"coordinates":[2.319141,48.778292],"type":"Point"},"properties":{"osm_id":"5070823014","tag":{"amenity":"recycling","location":"underground","recycling:glass_bottles":"yes","recycling_type":"container"}},"type":"Feature"},
	{"geometry":{"coordinates":[2.320988,48.783085],"type":"Point"},"properties":{"osm_id":"5075522761","tag":{"amenity":"recycling","recycling:glass_bottles":"yes","recycling_type":"container"}},"type":"Feature"},
	{"geometry":{"coordinates":[2.354997,48.777486],"type":"Point"},"properties":{"osm_id":"5103157387","tag":{"amenity":"recycling","recycling:glass_bottles":"yes","recycling_type":"container"}},"type":"Feature"},
	{"geometry":{"coordinates":[2.363603,48.778213],"type":"Point"},"properties":{"osm_id":"5103157391","tag":{"amenity":"recycling","recycling:glass_bottles":"yes","recycling_type":"container"}},"type":"Feature"},
	{"geometry":{"coordinates":[2.318083,48.759499],"type":"Point"},"properties":{"osm_id":"5119955681","tag":{"amenity":"recycling","recycling:clothes":"yes","recycling:glass_bottles":"yes","recycling_type":"container"}},"type":"Feature"},
	{"geometry":{"coordinates":[2.341409,48.781076],"type":"Point"},"properties":{"osm_id":"5131676686","tag":{"amenity":"recycling","recycling:glass_bottles":"yes","recycling_type":"container"}},"type":"Feature"},
	{"geometry":{"coordinates":[2.349471,48.785917],"type":"Point"},"properties":{"osm_id":"5131676693","tag":{"amenity":"recycling","recycling:glass_bottles":"yes","recycling_type":"container"}},"type":"Feature"},
	{"geometry":{"coordinates":[2.354933,48.778831],"type":"Point"},"properties":{"osm_id":"5143938196","tag":{"amenity":"recycling","recycling:glass_bottles":"yes","recycling_type":"container"}},"type":"Feature"},
	{"geometry":{"coordinates":[2.358705,48.803759],"type":"Point"},"properties":{"osm_id":"5143938197","tag":{"amenity":"recycling","recycling:glass_bottles":"yes","recycling_type":"container"}},"type":"Feature"},
	{"geometry":{"coordinates":[2.322594,48.776859],"type":"Point"},"properties":{"osm_id":"5151098525","tag":{"amenity":"recycling","location":"overground","recycling:bottles":"yes","recycling_type":"container"}},"type":"Feature"},
	{"geometry":{"coordinates":[2.344808,48.778214],"type":"Point"},"properties":{"osm_id":"5155084450","tag":{"amenity":"recycling","recycling:glass_bottles":"yes","recycling_type":"container"}},"type":"Feature"},
	{"geometry":{"coordinates":[2.339819,48.775724],"type":"Point"},"properties":{"osm_id":"5155099071","tag":{"amenity":"recycling","recycling:glass_bottles":"yes","recycling_type":"container"}},"type":"Feature"},
	{"geometry":{"coordinates":[2.337001,48.773421],"type":"Point"},"properties":{"osm_id":"5155099072","tag":{"amenity":"recycling","recycling:clothes":"yes","recycling:glass_bottles":"yes","recycling_type":"container"}},"type":"Feature"},
	{"geometry":{"coordinates":[2.333086,48.797867],"type":"Point"},"properties":{"osm_id":"5170032826","tag":{"amenity":"recycling","location":"underground","recycling:glass_bottles":"yes","recycling_type":"container"}},"type":"Feature"},
	{"geometry":{"coordinates":[2.312332,48.753815],"type":"Point"},"properties":{"osm_id":"5187038962","tag":{"amenity":"recycling","recycling:glass_bottles":"yes","recycling_type":"container"}},"type":"Feature"},
	{"geometry":{"coordinates":[2.327773,48.765021],"type":"Point"},"properties":{"osm_id":"5188441071","tag":{"amenity":"recycling","recycling:glass_bottles":"yes","recycling_type":"container"}},"type":"Feature"},
	{"geometry":{"coordinates":[2.327964,48.766186],"type":"Point"},"properties":{"osm_id":"5188441077","tag":{"amenity":"recycling","recycling:glass_bottles":"yes","recycling_type":"container"}},"type":"Feature"},
	{"geometry":{"coordinates":[2.326802,48.762227],"type":"Point"},"properties":{"osm_id":"5194201478","tag":{"amenity":"recycling","recycling:glass_bottles":"yes","recycling_type":"container"}},"type":"Feature"},
	{"geometry":{"coordinates":[2.333576,48.759122],"type":"Point"},"properties":{"osm_id":"5196881982","tag":{"amenity":"recycling","recycling:glass_bottles":"yes","recycling_type":"container"}},"type":"Feature"},
	{"geometry":{"coordinates":[2.329971,48.761032],"type":"Point"},"properties":{"osm_id":"5196882504","tag":{"amenity":"recycling","recycling:glass_bottles":"yes","recycling_type":"container"}},"type":"Feature"},
	{"geometry":{"coordinates":[2.307884,48.753836],"type":"Point"},"properties":{"osm_id":"5210175983","tag":{"amenity":"waste_basket"}},"type":"Feature"},
	{"geometry":{"coordinates":[2.309067,48.75345],"type":"Point"},"properties":{"osm_id":"5210175985","tag":{"amenity":"waste_basket"}},"type":"Feature"},
	{"geometry":{"coordinates":[2.33695,48.789439],"type":"Point"},"properties":{"highway":"bus_stop","name":"Blum - Belgrand","osm_id":"5251997725","tag":{"STIF:zone":"3","amenity":"waste_basket","bench":"no","bus":"yes","lit":"no","public_transport":"platform","ref:FR:STIF":"37245","ref:FR:STIF:stop_id":"StopPoint:59:4293211","route_ref":"v1","shelter":"no"}},"type":"Feature"},
	{"geometry":{"coordinates":[2.315746,48.782742],"type":"Point"},"properties":{"osm_id":"5265686078","tag":{"amenity":"recycling","recycling:glass_bottles":"yes","recycling_type":"container"}},"type":"Feature"},
	{"geometry":{"coordinates":[2.351833,48.750098],"type":"Point"},"properties":{"osm_id":"5291378450","tag":{"amenity":"recycling","recycling:clothes":"yes","recycling_type":"container"}},"type":"Feature"},
	{"geometry":{"coordinates":[2.33366,48.763246],"type":"Point"},"properties":{"osm_id":"5300861275","tag":{"amenity":"recycling","recycling:glass_bottles":"yes","recycling_type":"container"}},"type":"Feature"},
	{"geometry":{"coordinates":[2.3192,48.767778],"type":"Point"},"properties":{"osm_id":"5303344722","tag":{"amenity":"waste_basket"}},"type":"Feature"},
	{"geometry":{"coordinates":[2.319635,48.768144],"type":"Point"},"properties":{"osm_id":"5303356321","tag":{"amenity":"waste_basket"}},"type":"Feature"},
	{"geometry":{"coordinates":[2.323903,48.76203],"type":"Point"},"properties":{"osm_id":"5306229126","tag":{"amenity":"recycling","recycling:glass_bottles":"yes","recycling_type":"container"}},"type":"Feature"},
	{"geometry":{"coordinates":[2.323959,48.764366],"type":"Point"},"properties":{"osm_id":"5306229127","tag":{"amenity":"recycling","recycling:glass_bottles":"yes","recycling_type":"container"}},"type":"Feature"},
	{"geometry":{"coordinates":[2.347308,48.751118],"type":"Point"},"properties":{"osm_id":"5323318011","tag":{"amenity":"waste_basket"}},"type":"Feature"},
	{"geometry":{"coordinates":[2.344834,48.750445],"type":"Point"},"properties":{"osm_id":"5323318013","tag":{"amenity":"waste_basket"}},"type":"Feature"},
	{"geometry":{"coordinates":[2.345011,48.750355],"type":"Point"},"properties":{"osm_id":"5323318015","tag":{"amenity":"waste_basket"}},"type":"Feature"},
	{"geometry":{"coordinates":[2.345683,48.75045],"type":"Point"},"properties":{"osm_id":"5323318018","tag":{"amenity":"waste_basket"}},"type":"Feature"},
	{"geometry":{"coordinates":[2.35317,48.749857],"type":"Point"},"properties":{"osm_id":"5323321575","tag":{"amenity":"waste_basket"}},"type":"Feature"},
	{"geometry":{"coordinates":[2.348031,48.750995],"type":"Point"},"properties":{"osm_id":"5323321581","tag":{"amenity":"waste_basket"}},"type":"Feature"},
	{"geometry":{"coordinates":[2.353224,48.749964],"type":"Point"},"properties":{"osm_id":"5323321821","tag":{"amenity":"waste_basket"}},"type":"Feature"},
	{"geometry":{"coordinates":[2.35208,48.750058],"type":"Point"},"properties":{"osm_id":"5323482412","tag":{"amenity":"waste_basket"}},"type":"Feature"},
	{"geometry":{"coordinates":[2.353254,48.749809],"type":"Point"},"properties":{"osm_id":"5323487410","tag":{"amenity":"waste_basket"}},"type":"Feature"},
	{"geometry":{"coordinates":[2.350351,48.750547],"type":"Point"},"properties":{"osm_id":"5323487523","tag":{"amenity":"waste_basket"}},"type":"Feature"},
	{"geometry":{"coordinates":[2.360461,48.804382],"type":"Point"},"properties":{"osm_id":"5351224209","tag":{"amenity":"recycling","recycling:clothes":"yes","recycling_type":"container"}},"type":"Feature"},
	{"geometry":{"coordinates":[2.314143,48.781422],"type":"Point"},"properties":{"osm_id":"5382616545","tag":{"amenity":"recycling","recycling:glass_bottles":"yes","recycling_type":"container"}},"type":"Feature"},
	{"geometry":{"coordinates":[2.331561,48.79561],"type":"Point"},"properties":{"osm_id":"5402577995","tag":{"amenity":"waste_basket"}},"type":"Feature"},
	{"geometry":{"coordinates":[2.331602,48.796062],"type":"Point"},"properties":{"osm_id":"5402578003","tag":{"amenity":"waste_basket"}},"type":"Feature"},
	{"geometry":{"coordinates":[2.332219,48.795665],"type":"Point"},"properties":{"osm_id":"5402578004","tag":{"amenity":"waste_basket"}},"type":"Feature"},
	{"geometry":{"coordinates":[2.33165,48.796275],"type":"Point"},"properties":{"osm_id":"5402578009","tag":{"amenity":"waste_basket"}},"type":"Feature"},
	{"geometry":{"coordinates":[2.331509,48.795853],"type":"Point"},"properties":{"osm_id":"5402578010","tag":{"amenity":"waste_basket"}},"type":"Feature"},
	{"geometry":{"coordinates":[2.331778,48.794467],"type":"Point"},"properties":{"osm_id":"5418174349","tag":{"amenity":"waste_basket"}},"type":"Feature"},
	{"geometry":{"coordinates":[2.331226,48.795079],"type":"Point"},"properties":{"osm_id":"5418174354","tag":{"amenity":"waste_basket"}},"type":"Feature"},
	{"geometry":{"coordinates":[2.331202,48.795544],"type":"Point"},"properties":{"osm_id":"5418174359","tag":{"amenity":"waste_basket"}},"type":"Feature"},
	{"geometry":{"coordinates":[2.331243,48.796023],"type":"Point"},"properties":{"osm_id":"5418174360","tag":{"amenity":"waste_basket"}},"type":"Feature"},
	{"geometry":{"coordinates":[2.332918,48.79538],"type":"Point"},"properties":{"osm_id":"5418174373","tag":{"amenity":"waste_basket"}},"type":"Feature"},
	{"geometry":{"coordinates":[2.332605,48.794485],"type":"Point"},"properties":{"osm_id":"5418174374","tag":{"amenity":"waste_basket"}},"type":"Feature"},
	{"geometry":{"coordinates":[2.343379,48.775928],"type":"Point"},"properties":{"osm_id":"5503325906","tag":{"amenity":"recycling","recycling:glass_bottles":"yes","recycling_type":"container"}},"type":"Feature"},
	{"geometry":{"coordinates":[2.342149,48.781413],"type":"Point"},"properties":{"osm_id":"5503349724","tag":{"amenity":"recycling","recycling:clothes":"yes","recycling:glass_bottles":"yes","recycling_type":"container"}},"type":"Feature"},
	{"geometry":{"coordinates":[2.311318,48.763782],"type":"Point"},"properties":{"osm_id":"5600421121","tag":{"amenity":"recycling","location":"underground","recycling:glass":"no","recycling:glass_bottles":"yes","recycling:plastic_bottles":"yes","recycling:waste":"yes","recycling_type":"container"}},"type":"Feature"},
	{"geometry":{"coordinates":[2.310592,48.764028],"type":"Point"},"properties":{"osm_id":"5600421122","tag":{"amenity":"recycling","location":"underground","recycling:glass":"no","recycling:glass_bottles":"yes","recycling:plastic_bottles":"yes","recycling:waste":"yes","recycling_type":"container"}},"type":"Feature"},
	{"geometry":{"coordinates":[2.309915,48.76424],"type":"Point"},"properties":{"osm_id":"5600421123","tag":{"amenity":"recycling","location":"underground","recycling:glass":"no","recycling:glass_bottles":"yes","recycling:plastic_bottles":"yes","recycling:waste":"yes","recycling_type":"container"}},"type":"Feature"},
	{"geometry":{"coordinates":[2.287134,48.792004],"type":"Point"},"properties":{"osm_id":"5600490125","tag":{"amenity":"recycling","recycling:glass":"yes"}},"type":"Feature"},
	{"geometry":{"coordinates":[2.292232,48.789629],"type":"Point"},"properties":{"osm_id":"5696124994","tag":{"amenity":"recycling","location":"underground","recycling:paper":"yes","recycling:plastic_packaging":"yes","recycling_type":"container"}},"type":"Feature"},
	{"geometry":{"coordinates":[2.334169,48.796617],"type":"Point"},"properties":{"osm_id":"5744622574","tag":{"amenity":"waste_basket"}},"type":"Feature"},
	{"geometry":{"coordinates":[2.33378,48.797],"type":"Point"},"properties":{"osm_id":"5744622575","tag":{"amenity":"waste_basket"}},"type":"Feature"},
	{"geometry":{"coordinates":[2.332083,48.794793],"type":"Point"},"properties":{"osm_id":"5745156337","tag":{"amenity":"waste_basket"}},"type":"Feature"},
	{"geometry":{"coordinates":[2.331675,48.794758],"type":"Point"},"properties":{"osm_id":"5745156338","tag":{"amenity":"waste_basket"}},"type":"Feature"},
	{"geometry":{"coordinates":[2.331575,48.794763],"type":"Point"},"properties":{"osm_id":"5745156341","tag":{"amenity":"waste_basket"}},"type":"Feature"},
	{"geometry":{"coordinates":[2.332168,48.794967],"type":"Point"},"properties":{"osm_id":"5745156342","tag":{"amenity":"waste_basket"}},"type":"Feature"},
	{"geometry":{"coordinates":[2.331819,48.795047],"type":"Point"},"properties":{"osm_id":"5745156378","tag":{"amenity":"waste_basket"}},"type":"Feature"},
	{"geometry":{"coordinates":[2.331977,48.795263],"type":"Point"},"properties":{"osm_id":"5745156379","tag":{"amenity":"waste_basket"}},"type":"Feature"},
	{"geometry":{"coordinates":[2.331794,48.795319],"type":"Point"},"properties":{"osm_id":"5745156380","tag":{"amenity":"waste_basket"}},"type":"Feature"},
	{"geometry":{"coordinates":[2.331471,48.79549],"type":"Point"},"properties":{"osm_id":"5745156382","tag":{"amenity":"waste_basket"}},"type":"Feature"},
	{"geometry":{"coordinates":[2.331495,48.796538],"type":"Point"},"properties":{"osm_id":"5745156407","tag":{"amenity":"waste_basket"}},"type":"Feature"},
	{"geometry":{"coordinates":[2.327624,48.798393],"type":"Point"},"properties":{"osm_id":"5747720592","tag":{"amenity":"waste_basket"}},"type":"Feature"},
	{"geometry":{"coordinates":[2.345524,48.751333],"type":"Point"},"properties":{"osm_id":"5748574465","tag":{"amenity":"waste_basket"}},"type":"Feature"},
	{"geometry":{"coordinates":[2.345205,48.751373],"type":"Point"},"properties":{"osm_id":"5748579461","tag":{"amenity":"waste_basket"}},"type":"Feature"},
	{"geometry":{"coordinates":[2.331827,48.794948],"type":"Point"},"properties":{"osm_id":"5749933122","tag":{"amenity":"waste_basket"}},"type":"Feature"},
	{"geometry":{"coordinates":[2.332627,48.794979],"type":"Point"},"properties":{"osm_id":"5749933127","tag":{"amenity":"waste_basket"}},"type":"Feature"},
	{"geometry":{"coordinates":[2.353719,48.749569],"type":"Point"},"properties":{"osm_id":"5784910811","tag":{"amenity":"recycling","location":"overground","recycling:glass":"no","recycling:glass_bottles":"yes","recycling_type":"container"}},"type":"Feature"},
	{"geometry":{"coordinates":[2.354136,48.7493],"type":"Point"},"properties":{"osm_id":"5784913814","tag":{"amenity":"waste_basket"}},"type":"Feature"},
	{"geometry":{"coordinates":[2.28695,48.806047],"type":"Point"},"properties":{"osm_id":"5825018377","tag":{"amenity":"recycling","recycling:glass_bottles":"yes","recycling_type":"container"}},"type":"Feature"},
	{"geometry":{"coordinates":[2.328361,48.753039],"type":"Point"},"properties":{"osm_id":"5878638921","tag":{"amenity":"recycling","location":"underground","recycling:cans":"yes","recycling:glass_bottles":"yes","recycling:plastic_bottles":"yes","recycling:plastic_packaging":"yes","recycling:waste":"yes","recycling_type":"container"}},"type":"Feature"},
	{"geometry":{"coordinates":[2.332946,48.786363],"type":"Point"},"properties":{"osm_id":"5939663216","tag":{"amenity":"waste_basket"}},"type":"Feature"},
	{"geometry":{"coordinates":[2.35364,48.749033],"type":"Point"},"properties":{"osm_id":"5942855991","tag":{"amenity":"waste_basket"}},"type":"Feature"},
	{"geometry":{"coordinates":[2.331103,48.785916],"type":"Point"},"properties":{"osm_id":"5981745092","tag":{"amenity":"recycling","location":"underground","recycling:glass_bottles":"yes","recycling_type":"container"}},"type":"Feature"},
	{"geometry":{"coordinates":[2.331118,48.785906],"type":"Point"},"properties":{"osm_id":"5981745093","tag":{"amenity":"waste_basket"}},"type":"Feature"},
	{"geometry":{"coordinates":[2.330741,48.785848],"type":"Point"},"properties":{"osm_id":"5981745097","tag":{"amenity":"waste_basket"}},"type":"Feature"},
	{"geometry":{"coordinates":[2.33083,48.78556],"type":"Point"},"properties":{"osm_id":"5981745109","tag":{"amenity":"waste_basket"}},"type":"Feature"},
	{"geometry":{"coordinates":[2.330866,48.78542],"type":"Point"},"properties":{"osm_id":"5981745110","tag":{"amenity":"waste_basket"}},"type":"Feature"},
	{"geometry":{"coordinates":[2.331139,48.787635],"type":"Point"},"properties":{"osm_id":"5991816063","tag":{"amenity":"waste_basket"}},"type":"Feature"},
	{"geometry":{"coordinates":[2.326026,48.783738],"type":"Point"},"properties":{"osm_id":"6043598394","tag":{"amenity":"waste_basket"}},"type":"Feature"},
	{"geometry":{"coordinates":[2.346116,48.764586],"type":"Point"},"properties":{"name":"Centre de Recyclage des Emballages","osm_id":"6186775063","tag":{"amenity":"recycling"}},"type":"Feature"},
	{"geometry":{"coordinates":[2.31507,48.780596],"type":"Point"},"properties":{"osm_id":"6189545157","tag":{"amenity":"recycling","recycling:glass_bottles":"yes","recycling_type":"container"}},"type":"Feature"},
	{"geometry":{"coordinates":[2.327452,48.752831],"type":"Point"},"properties":{"osm_id":"6208529125","tag":{"amenity":"recycling","location":"underground","recycling:paper":"yes","recycling:plastic_bottles":"yes","recycling:plastic_packaging":"yes","recycling:waste":"yes","recycling_type":"container"}},"type":"Feature"},
	{"geometry":{"coordinates":[2.32741,48.752967],"type":"Point"},"properties":{"osm_id":"6208529126","tag":{"amenity":"recycling","location":"underground","recycling:waste":"yes","recycling_type":"container"}},"type":"Feature"},
	{"geometry":{"coordinates":[2.312085,48.763534],"type":"Point"},"properties":{"osm_id":"6224845731","tag":{"amenity":"recycling","recycling_type":"container"}},"type":"Feature"},
	{"geometry":{"coordinates":[2.295655,48.805221],"type":"Point"},"properties":{"osm_id":"6224866392","tag":{"amenity":"waste_basket","waste":"trash"}},"type":"Feature"},
	{"geometry":{"coordinates":[2.338133,48.789053],"type":"Point"},"properties":{"osm_id":"6285126005","tag":{"amenity":"waste_basket"}},"type":"Feature"},
	{"geometry":{"coordinates":[2.340112,48.788667],"type":"Point"},"properties":{"osm_id":"6285126006","tag":{"amenity":"waste_basket"}},"type":"Feature"},
	{"geometry":{"coordinates":[2.340393,48.78729],"type":"Point"},"properties":{"osm_id":"6285126018","tag":{"amenity":"waste_basket"}},"type":"Feature"},
	{"geometry":{"coordinates":[2.342737,48.78394],"type":"Point"},"properties":{"osm_id":"6285126027","tag":{"amenity":"waste_basket"}},"type":"Feature"},
	{"geometry":{"coordinates":[2.340643,48.786443],"type":"Point"},"properties":{"osm_id":"6315580413","tag":{"amenity":"recycling","location":"underground","recycling:glass_bottles":"yes","recycling_type":"container"}},"type":"Feature"},
	{"geometry":{"coordinates":[2.343033,48.778286],"type":"Point"},"properties":{"osm_id":"6321378758","tag":{"amenity":"waste_basket"}},"type":"Feature"},
	{"geometry":{"coordinates":[2.364372,48.790891],"type":"Point"},"properties":{"osm_id":"6327645328","tag":{"amenity":"recycling","recycling:glass":"yes","recycling_type":"container"}},"type":"Feature"},
	{"geometry":{"coordinates":[2.297045,48.797785],"type":"Point"},"properties":{"osm_id":"6371213246","tag":{"amenity":"recycling","location":"underground","recycling_type":"container"}},"type":"Feature"},
	{"geometry":{"coordinates":[2.297055,48.797758],"type":"Point"},"properties":{"osm_id":"6371213247","tag":{"amenity":"recycling","location":"underground","recycling_type":"container"}},"type":"Feature"},
	{"geometry":{"coordinates":[2.332577,48.791263],"type":"Point"},"properties":{"osm_id":"6386897666","tag":{"amenity":"waste_basket"}},"type":"Feature"},
	{"geometry":{"coordinates":[2.327289,48.786016],"type":"Point"},"properties":{"osm_id":"6499801742","tag":{"amenity":"recycling","location":"underground","recycling:glass_bottles":"yes","recycling_type":"container"}},"type":"Feature"},
	{"geometry":{"coordinates":[2.333379,48.786812],"type":"Point"},"properties":{"osm_id":"6499801743","tag":{"amenity":"waste_basket"}},"type":"Feature"},
	{"geometry":{"coordinates":[2.336264,48.793692],"type":"Point"},"properties":{"osm_id":"6499851537","tag":{"amenity":"waste_basket"}},"type":"Feature"},
	{"geometry":{"coordinates":[2.337165,48.789017],"type":"Point"},"properties":{"osm_id":"6500317510","tag":{"amenity":"waste_basket"}},"type":"Feature"},
	{"geometry":{"coordinates":[2.337344,48.789097],"type":"Point"},"properties":{"osm_id":"6500317515","tag":{"amenity":"waste_basket"}},"type":"Feature"},
	{"geometry":{"coordinates":[2.336583,48.79311],"type":"Point"},"properties":{"osm_id":"6502213929","tag":{"amenity":"waste_basket"}},"type":"Feature"},
	{"geometry":{"coordinates":[2.336687,48.794135],"type":"Point"},"properties":{"osm_id":"6502298701","tag":{"amenity":"waste_basket"}},"type":"Feature"},
	{"geometry":{"coordinates":[2.336682,48.794374],"type":"Point"},"properties":{"osm_id":"6502298702","tag":{"amenity":"waste_basket"}},"type":"Feature"},
	{"geometry":{"coordinates":[2.33681,48.794521],"type":"Point"},"properties":{"osm_id":"6502298703","tag":{"amenity":"waste_basket"}},"type":"Feature"},
	{"geometry":{"coordinates":[2.296695,48.760056],"type":"Point"},"properties":{"osm_id":"6502328068","tag":{"amenity":"recycling"}},"type":"Feature"},
	{"geometry":{"coordinates":[2.296665,48.759617],"type":"Point"},"properties":{"osm_id":"6502328078","tag":{"amenity":"recycling"}},"type":"Feature"},
	{"geometry":{"coordinates":[2.296915,48.759474],"type":"Point"},"properties":{"osm_id":"6502328398","tag":{"amenity":"recycling"}},"type":"Feature"},
	{"geometry":{"coordinates":[2.296598,48.75998],"type":"Point"},"properties":{"osm_id":"6502328401","tag":{"amenity":"recycling"}},"type":"Feature"},
	{"geometry":{"coordinates":[2.317197,48.783914],"type":"Point"},"properties":{"osm_id":"6511736764","tag":{"amenity":"recycling","location":"underground","recycling_type":"container"}},"type":"Feature"},
	{"geometry":{"coordinates":[2.300882,48.785014],"type":"Point"},"properties":{"osm_id":"6513536800","tag":{"amenity":"recycling","location":"underground","recycling_type":"container"}},"type":"Feature"},
	{"geometry":{"coordinates":[2.334079,48.791415],"type":"Point"},"properties":{"osm_id":"6514691355","tag":{"amenity":"waste_basket"}},"type":"Feature"},
	{"geometry":{"coordinates":[2.334817,48.791922],"type":"Point"},"properties":{"osm_id":"6514697580","tag":{"amenity":"waste_basket"}},"type":"Feature"},
	{"geometry":{"coordinates":[2.338865,48.784312],"type":"Point"},"properties":{"osm_id":"6522082045","tag":{"amenity":"waste_basket"}},"type":"Feature"},
	{"geometry":{"coordinates":[2.339232,48.781405],"type":"Point"},"properties":{"osm_id":"6522089498","tag":{"amenity":"waste_basket"}},"type":"Feature"},
	{"geometry":{"coordinates":[2.3439,48.793001],"type":"Point"},"properties":{"osm_id":"6534000873","tag":{"amenity":"waste_basket"}},"type":"Feature"},
	{"geometry":{"coordinates":[2.339364,48.791717],"type":"Point"},"properties":{"osm_id":"6534007101","tag":{"amenity":"waste_basket"}},"type":"Feature"},
	{"geometry":{"coordinates":[2.33445,48.793276],"type":"Point"},"properties":{"osm_id":"6565212551","tag":{"amenity":"waste_basket"}},"type":"Feature"},
	{"geometry":{"coordinates":[2.334129,48.793765],"type":"Point"},"properties":{"osm_id":"6565250431","tag":{"amenity":"waste_basket"}},"type":"Feature"},
	{"geometry":{"coordinates":[2.334036,48.793041],"type":"Point"},"properties":{"osm_id":"6565273678","tag":{"amenity":"waste_basket"}},"type":"Feature"},
	{"geometry":{"coordinates":[2.334954,48.792516],"type":"Point"},"properties":{"osm_id":"6565278385","tag":{"amenity":"waste_basket"}},"type":"Feature"},
	{"geometry":{"coordinates":[2.334453,48.792712],"type":"Point"},"properties":{"osm_id":"6565278386","tag":{"amenity":"waste_basket"}},"type":"Feature"},
	{"geometry":{"coordinates":[2.334062,48.792865],"type":"Point"},"properties":{"osm_id":"6565278387","tag":{"amenity":"waste_basket"}},"type":"Feature"},
	{"geometry":{"coordinates":[2.333275,48.792039],"type":"Point"},"properties":{"osm_id":"6565278394","tag":{"amenity":"waste_basket"}},"type":"Feature"},
	{"geometry":{"coordinates":[2.332621,48.793179],"type":"Point"},"properties":{"osm_id":"6565278404","tag":{"amenity":"waste_basket"}},"type":"Feature"},
	{"geometry":{"coordinates":[2.332292,48.793134],"type":"Point"},"properties":{"osm_id":"6565278409","tag":{"amenity":"waste_basket"}},"type":"Feature"},
	{"geometry":{"coordinates":[2.331896,48.793347],"type":"Point"},"properties":{"osm_id":"6565278410","tag":{"amenity":"waste_basket"}},"type":"Feature"},
	{"geometry":{"coordinates":[2.333215,48.791878],"type":"Point"},"properties":{"osm_id":"6565281406","tag":{"amenity":"waste_basket"}},"type":"Feature"},
	{"geometry":{"coordinates":[2.332727,48.7908],"type":"Point"},"properties":{"osm_id":"6565281407","tag":{"amenity":"waste_basket"}},"type":"Feature"},
	{"geometry":{"coordinates":[2.332464,48.790876],"type":"Point"},"properties":{"osm_id":"6565281408","tag":{"amenity":"waste_basket"}},"type":"Feature"},
	{"geometry":{"coordinates":[2.332077,48.791007],"type":"Point"},"properties":{"osm_id":"6565281409","tag":{"amenity":"waste_basket"}},"type":"Feature"},
	{"geometry":{"coordinates":[2.333323,48.790608],"type":"Point"},"properties":{"osm_id":"6565281415","tag":{"amenity":"waste_basket"}},"type":"Feature"},
	{"geometry":{"coordinates":[2.350289,48.751067],"type":"Point"},"properties":{"osm_id":"6603775578","tag":{"amenity":"waste_basket"}},"type":"Feature"},
	{"geometry":{"coordinates":[2.350382,48.750705],"type":"Point"},"properties":{"osm_id":"6603827493","tag":{"amenity":"waste_basket"}},"type":"Feature"},
	{"geometry":{"coordinates":[2.355253,48.753056],"type":"Point"},"properties":{"osm_id":"6603854728","tag":{"amenity":"waste_basket"}},"type":"Feature"},
	{"geometry":{"coordinates":[2.354948,48.752928],"type":"Point"},"properties":{"osm_id":"6603855797","tag":{"amenity":"waste_basket"}},"type":"Feature"},
	{"geometry":{"coordinates":[2.354878,48.75275],"type":"Point"},"properties":{"osm_id":"6603856146","tag":{"amenity":"waste_basket"}},"type":"Feature"},
	{"geometry":{"coordinates":[2.355419,48.753014],"type":"Point"},"properties":{"osm_id":"6603857102","tag":{"amenity":"waste_basket"}},"type":"Feature"},
	{"geometry":{"coordinates":[2.305581,48.787373],"type":"Point"},"properties":{"osm_id":"6606524013","tag":{"amenity":"recycling","location":"underground","recycling:glass_bottles":"yes","recycling:paper":"yes","recycling_type":"container"}},"type":"Feature"},
	{"geometry":{"coordinates":[2.307596,48.787555],"type":"Point"},"properties":{"osm_id":"6606524015","tag":{"amenity":"recycling","location":"underground","recycling:glass_bottles":"yes","recycling:paper":"yes","recycling_type":"container"}},"type":"Feature"},
	{"geometry":{"coordinates":[2.307935,48.787655],"type":"Point"},"properties":{"osm_id":"6606524016","tag":{"amenity":"recycling","location":"underground","recycling:paper":"yes","recycling_type":"container"}},"type":"Feature"},
	{"geometry":{"coordinates":[2.310707,48.789229],"type":"Point"},"properties":{"osm_id":"6606563198","tag":{"amenity":"recycling","recycling:clothes":"yes","recycling_type":"container"}},"type":"Feature"},
	{"geometry":{"coordinates":[2.306373,48.78745],"type":"Point"},"properties":{"osm_id":"6606563199","tag":{"amenity":"recycling","location":"underground","recycling:paper":"yes","recycling_type":"container"}},"type":"Feature"},
	{"geometry":{"coordinates":[2.309021,48.789015],"type":"Point"},"properties":{"osm_id":"6611937916","tag":{"amenity":"recycling","location":"underground","recycling:glass_bottles":"yes","recycling:paper":"yes","recycling_type":"container"}},"type":"Feature"},
	{"geometry":{"coordinates":[2.347378,48.75049],"type":"Point"},"properties":{"osm_id":"6632316774","tag":{"amenity":"waste_basket"}},"type":"Feature"},
	{"geometry":{"coordinates":[2.34732,48.750424],"type":"Point"},"properties":{"osm_id":"6632320335","tag":{"amenity":"waste_basket"}},"type":"Feature"},
	{"geometry":{"coordinates":[2.347109,48.75052],"type":"Point"},"properties":{"osm_id":"6632334777","tag":{"amenity":"waste_basket"}},"type":"Feature"},
	{"geometry":{"coordinates":[2.345813,48.751048],"type":"Point"},"properties":{"osm_id":"6632339152","tag":{"amenity":"waste_basket"}},"type":"Feature"},
	{"geometry":{"coordinates":[2.345968,48.750813],"type":"Point"},"properties":{"osm_id":"6632345691","tag":{"amenity":"waste_basket"}},"type":"Feature"},
	{"geometry":{"coordinates":[2.345402,48.750749],"type":"Point"},"properties":{"osm_id":"6632346660","tag":{"amenity":"waste_basket"}},"type":"Feature"},
	{"geometry":{"coordinates":[2.346081,48.750931],"type":"Point"},"properties":{"osm_id":"6632347226","tag":{"amenity":"waste_basket"}},"type":"Feature"},
	{"geometry":{"coordinates":[2.349716,48.74921],"type":"Point"},"properties":{"osm_id":"6632349179","tag":{"amenity":"waste_basket"}},"type":"Feature"},
	{"geometry":{"coordinates":[2.346294,48.751001],"type":"Point"},"properties":{"osm_id":"6632349849","tag":{"amenity":"waste_basket"}},"type":"Feature"},
	{"geometry":{"coordinates":[2.345711,48.750932],"type":"Point"},"properties":{"osm_id":"6632352445","tag":{"amenity":"waste_basket"}},"type":"Feature"},
	{"geometry":{"coordinates":[2.33554,48.773683],"type":"Point"},"properties":{"osm_id":"6635690945","tag":{"amenity":"waste_basket"}},"type":"Feature"},
	{"geometry":{"coordinates":[2.335512,48.803676],"type":"Point"},"properties":{"name":"Ressourcerie La Mine","osm_id":"6668229983","tag":{"amenity":"recycling","cafe":"yes","leisure":"hackerspace","website":"http://www.ressourcerie-la-mine.com/"}},"type":"Feature"},
	{"geometry":{"coordinates":[2.333326,48.800419],"type":"Point"},"properties":{"osm_id":"6668250554","tag":{"amenity":"waste_basket"}},"type":"Feature"},
	{"geometry":{"coordinates":[2.331494,48.801435],"type":"Point"},"properties":{"osm_id":"6668250555","tag":{"amenity":"waste_basket"}},"type":"Feature"},
	{"geometry":{"coordinates":[2.331761,48.801219],"type":"Point"},"properties":{"osm_id":"6668250556","tag":{"amenity":"waste_basket"}},"type":"Feature"},
	{"geometry":{"coordinates":[2.331511,48.801771],"type":"Point"},"properties":{"osm_id":"6668250557","tag":{"amenity":"waste_basket"}},"type":"Feature"},
	{"geometry":{"coordinates":[2.331544,48.802731],"type":"Point"},"properties":{"osm_id":"6668250558","tag":{"amenity":"waste_basket"}},"type":"Feature"},
	{"geometry":{"coordinates":[2.335561,48.805404],"type":"Point"},"properties":{"osm_id":"6668250563","tag":{"amenity":"waste_basket"}},"type":"Feature"},
	{"geometry":{"coordinates":[2.33627,48.806211],"type":"Point"},"properties":{"osm_id":"6668250565","tag":{"amenity":"waste_basket"}},"type":"Feature"},
	{"geometry":{"coordinates":[2.335996,48.806297],"type":"Point"},"properties":{"osm_id":"6668250566","tag":{"amenity":"waste_basket"}},"type":"Feature"},
	{"geometry":{"coordinates":[2.336998,48.806317],"type":"Point"},"properties":{"osm_id":"6668250567","tag":{"amenity":"waste_basket"}},"type":"Feature"},
	{"geometry":{"coordinates":[2.336548,48.806439],"type":"Point"},"properties":{"osm_id":"6668250568","tag":{"amenity":"waste_basket"}},"type":"Feature"},
	{"geometry":{"coordinates":[2.336566,48.806339],"type":"Point"},"properties":{"osm_id":"6668250572","tag":{"amenity":"waste_basket"}},"type":"Feature"},
	{"geometry":{"coordinates":[2.3228,48.78757],"type":"Point"},"properties":{"osm_id":"6679925666","tag":{"amenity":"waste_basket"}},"type":"Feature"},
	{"geometry":{"coordinates":[2.324793,48.788725],"type":"Point"},"properties":{"osm_id":"6679925667","tag":{"amenity":"waste_basket"}},"type":"Feature"},
	{"geometry":{"coordinates":[2.322389,48.787052],"type":"Point"},"properties":{"osm_id":"6679925668","tag":{"amenity":"waste_basket"}},"type":"Feature"},
	{"geometry":{"coordinates":[2.321727,48.787225],"type":"Point"},"properties":{"osm_id":"6679925671","tag":{"amenity":"recycling","recycling:glass_bottles":"yes","recycling_type":"container"}},"type":"Feature"},
	{"geometry":{"coordinates":[2.321308,48.786784],"type":"Point"},"properties":{"osm_id":"6679948189","tag":{"amenity":"recycling","recycling:glass_bottles":"yes","recycling_type":"container"}},"type":"Feature"},
	{"geometry":{"coordinates":[2.321474,48.786873],"type":"Point"},"properties":{"osm_id":"6679948190","tag":{"amenity":"waste_basket"}},"type":"Feature"},
	{"geometry":{"coordinates":[2.321561,48.786765],"type":"Point"},"properties":{"osm_id":"6679948192","tag":{"amenity":"waste_basket"}},"type":"Feature"},
	{"geometry":{"coordinates":[2.318036,48.786098],"type":"Point"},"properties":{"osm_id":"6679948194","tag":{"amenity":"waste_basket"}},"type":"Feature"},
	{"geometry":{"coordinates":[2.317732,48.786114],"type":"Point"},"properties":{"osm_id":"6679948195","tag":{"amenity":"recycling","recycling:glass_bottles":"yes","recycling_type":"container"}},"type":"Feature"},
	{"geometry":{"coordinates":[2.317763,48.786123],"type":"Point"},"properties":{"osm_id":"6679948196","tag":{"amenity":"waste_basket"}},"type":"Feature"},
	{"geometry":{"coordinates":[2.318217,48.786388],"type":"Point"},"properties":{"osm_id":"6679948197","tag":{"amenity":"waste_basket"}},"type":"Feature"},
	{"geometry":{"coordinates":[2.321768,48.787274],"type":"Point"},"properties":{"osm_id":"6680070822","tag":{"amenity":"waste_basket"}},"type":"Feature"},
	{"geometry":{"coordinates":[2.322054,48.787224],"type":"Point"},"properties":{"osm_id":"6680070848","tag":{"amenity":"waste_basket"}},"type":"Feature"},
	{"geometry":{"coordinates":[2.331379,48.796324],"type":"Point"},"properties":{"osm_id":"6680133579","tag":{"amenity":"waste_basket"}},"type":"Feature"},
	{"geometry":{"coordinates":[2.331634,48.795839],"type":"Point"},"properties":{"osm_id":"6680150016","tag":{"amenity":"waste_basket"}},"type":"Feature"},
	{"geometry":{"coordinates":[2.333149,48.794768],"type":"Point"},"properties":{"osm_id":"6680150028","tag":{"amenity":"waste_basket"}},"type":"Feature"},
	{"geometry":{"coordinates":[2.334212,48.791285],"type":"Point"},"properties":{"osm_id":"6680209908","tag":{"amenity":"waste_basket"}},"type":"Feature"},
	{"geometry":{"coordinates":[2.335021,48.794574],"type":"Point"},"properties":{"osm_id":"6680209966","tag":{"amenity":"waste_basket"}},"type":"Feature"},
	{"geometry":{"coordinates":[2.334849,48.794485],"type":"Point"},"properties":{"osm_id":"6680209967","tag":{"amenity":"waste_basket"}},"type":"Feature"},
	{"geometry":{"coordinates":[2.336453,48.795243],"type":"Point"},"properties":{"osm_id":"6680209968","tag":{"amenity":"waste_basket"}},"type":"Feature"},
	{"geometry":{"coordinates":[2.335363,48.795454],"type":"Point"},"properties":{"osm_id":"6680209992","tag":{"amenity":"waste_basket"}},"type":"Feature"},
	{"geometry":{"coordinates":[2.328269,48.798063],"type":"Point"},"properties":{"osm_id":"6680225428","tag":{"amenity":"waste_basket"}},"type":"Feature"},
	{"geometry":{"coordinates":[2.3314,48.799054],"type":"Point"},"properties":{"osm_id":"6681556651","tag":{"amenity":"waste_basket"}},"type":"Feature"},
	{"geometry":{"coordinates":[2.332681,48.799169],"type":"Point"},"properties":{"osm_id":"6681558513","tag":{"amenity":"waste_basket"}},"type":"Feature"},
	{"geometry":{"coordinates":[2.33138,48.78633],"type":"Point"},"properties":{"osm_id":"6681619978","tag":{"amenity":"waste_basket"}},"type":"Feature"},
	{"geometry":{"coordinates":[2.331364,48.786452],"type":"Point"},"properties":{"osm_id":"6681619979","tag":{"amenity":"waste_basket"}},"type":"Feature"},
	{"geometry":{"coordinates":[2.330968,48.787499],"type":"Point"},"properties":{"osm_id":"6681619980","tag":{"amenity":"waste_basket"}},"type":"Feature"},
	{"geometry":{"coordinates":[2.330712,48.78788],"type":"Point"},"properties":{"osm_id":"6681649397","tag":{"amenity":"waste_basket"}},"type":"Feature"},
	{"geometry":{"coordinates":[2.329916,48.786912],"type":"Point"},"properties":{"osm_id":"6681649453","tag":{"amenity":"waste_basket"}},"type":"Feature"},
	{"geometry":{"coordinates":[2.330718,48.787217],"type":"Point"},"properties":{"osm_id":"6681649470","tag":{"amenity":"waste_basket"}},"type":"Feature"},
	{"geometry":{"coordinates":[2.328249,48.78384],"type":"Point"},"properties":{"osm_id":"6681649476","tag":{"amenity":"waste_basket"}},"type":"Feature"},
	{"geometry":{"coordinates":[2.327911,48.77968],"type":"Point"},"properties":{"osm_id":"6681649486","tag":{"amenity":"waste_basket"}},"type":"Feature"},
	{"geometry":{"coordinates":[2.328053,48.779858],"type":"Point"},"properties":{"osm_id":"6681649487","tag":{"amenity":"waste_basket"}},"type":"Feature"},
	{"geometry":{"coordinates":[2.328357,48.7793],"type":"Point"},"properties":{"osm_id":"6681649488","tag":{"amenity":"waste_basket"}},"type":"Feature"},
	{"geometry":{"coordinates":[2.327862,48.778884],"type":"Point"},"properties":{"osm_id":"6681649499","tag":{"amenity":"waste_basket"}},"type":"Feature"},
	{"geometry":{"coordinates":[2.327372,48.77777],"type":"Point"},"properties":{"osm_id":"6681649501","tag":{"amenity":"waste_basket"}},"type":"Feature"},
	{"geometry":{"coordinates":[2.326014,48.775443],"type":"Point"},"properties":{"osm_id":"6681649506","tag":{"amenity":"waste_basket"}},"type":"Feature"},
	{"geometry":{"coordinates":[2.325586,48.775625],"type":"Point"},"properties":{"osm_id":"6681649507","tag":{"amenity":"waste_basket"}},"type":"Feature"},
	{"geometry":{"coordinates":[2.324182,48.776302],"type":"Point"},"properties":{"osm_id":"6681649508","tag":{"amenity":"waste_basket"}},"type":"Feature"},
	{"geometry":{"coordinates":[2.334592,48.795011],"type":"Point"},"properties":{"osm_id":"6685491935","tag":{"amenity":"waste_basket"}},"type":"Feature"},
	{"geometry":{"coordinates":[2.334224,48.794036],"type":"Point"},"properties":{"osm_id":"6685491936","tag":{"amenity":"waste_basket"}},"type":"Feature"},
	{"geometry":{"coordinates":[2.334268,48.793325],"type":"Point"},"properties":{"osm_id":"6685491937","tag":{"amenity":"waste_basket"}},"type":"Feature"},
	{"geometry":{"coordinates":[2.333267,48.792321],"type":"Point"},"properties":{"osm_id":"6685491938","tag":{"amenity":"waste_basket"}},"type":"Feature"},
	{"geometry":{"coordinates":[2.334003,48.792556],"type":"Point"},"properties":{"osm_id":"6685491941","tag":{"amenity":"waste_basket"}},"type":"Feature"},
	{"geometry":{"coordinates":[2.33438,48.792484],"type":"Point"},"properties":{"osm_id":"6685491947","tag":{"amenity":"waste_basket"}},"type":"Feature"},
	{"geometry":{"coordinates":[2.334442,48.792613],"type":"Point"},"properties":{"osm_id":"6685491948","tag":{"amenity":"waste_basket"}},"type":"Feature"},
	{"geometry":{"coordinates":[2.332779,48.792183],"type":"Point"},"properties":{"osm_id":"6685491949","tag":{"amenity":"waste_basket"}},"type":"Feature"},
	{"geometry":{"coordinates":[2.293281,48.793519],"type":"Point"},"properties":{"osm_id":"6687697267","tag":{"amenity":"recycling","recycling_type":"container"}},"type":"Feature"},
	{"geometry":{"coordinates":[2.324224,48.77859],"type":"Point"},"properties":{"osm_id":"6710539355","tag":{"amenity":"recycling","recycling:glass_bottles":"yes","recycling_type":"container"}},"type":"Feature"},
	{"geometry":{"coordinates":[2.331088,48.785752],"type":"Point"},"properties":{"osm_id":"6744769549","tag":{"amenity":"waste_basket"}},"type":"Feature"},
	{"geometry":{"coordinates":[2.331165,48.78522],"type":"Point"},"properties":{"osm_id":"6744769551","tag":{"amenity":"waste_basket"}},"type":"Feature"},
	{"geometry":{"coordinates":[2.330909,48.785189],"type":"Point"},"properties":{"osm_id":"6744769552","tag":{"amenity":"recycling","location":"underground","recycling:glass_bottles":"yes","recycling_type":"container"}},"type":"Feature"},
	{"geometry":{"coordinates":[2.330561,48.789252],"type":"Point"},"properties":{"osm_id":"6746011729","tag":{"amenity":"recycling","material":"plastic","recycling:glass":"yes","recycling_type":"container"}},"type":"Feature"},
	{"geometry":{"coordinates":[2.319686,48.7902],"type":"Point"},"properties":{"osm_id":"6761380522","tag":{"amenity":"recycling","recycling:bottles":"yes","recycling_type":"container","survey:date":"2020-05-20"}},"type":"Feature"},
	{"geometry":{"coordinates":[2.333524,48.788961],"type":"Point"},"properties":{"osm_id":"6773082739","tag":{"amenity":"waste_basket"}},"type":"Feature"},
	{"geometry":{"coordinates":[2.333391,48.788865],"type":"Point"},"properties":{"osm_id":"6773082740","tag":{"amenity":"waste_basket"}},"type":"Feature"},
	{"geometry":{"coordinates":[2.333998,48.788235],"type":"Point"},"properties":{"osm_id":"6773088615","tag":{"amenity":"waste_basket"}},"type":"Feature"},
	{"geometry":{"coordinates":[2.332466,48.789085],"type":"Point"},"properties":{"osm_id":"6773088644","tag":{"amenity":"waste_basket"}},"type":"Feature"},
	{"geometry":{"coordinates":[2.332329,48.789187],"type":"Point"},"properties":{"osm_id":"6773088799","tag":{"amenity":"waste_basket"}},"type":"Feature"},
	{"geometry":{"coordinates":[2.359196,48.764129],"type":"Point"},"properties":{"osm_id":"6790257079","tag":{"amenity":"waste_basket"}},"type":"Feature"},
	{"geometry":{"coordinates":[2.337766,48.779914],"type":"Point"},"properties":{"osm_id":"6795364611","tag":{"amenity":"waste_basket"}},"type":"Feature"},
	{"geometry":{"coordinates":[2.337432,48.779965],"type":"Point"},"properties":{"osm_id":"6795364612","tag":{"amenity":"waste_basket"}},"type":"Feature"},
	{"geometry":{"coordinates":[2.337966,48.77986],"type":"Point"},"properties":{"osm_id":"6795364613","tag":{"amenity":"waste_basket"}},"type":"Feature"},
	{"geometry":{"coordinates":[2.338348,48.779768],"type":"Point"},"properties":{"osm_id":"6795364615","tag":{"amenity":"waste_basket"}},"type":"Feature"},
	{"geometry":{"coordinates":[2.338565,48.779685],"type":"Point"},"properties":{"osm_id":"6795364616","tag":{"amenity":"waste_basket"}},"type":"Feature"},
	{"geometry":{"coordinates":[2.339094,48.779839],"type":"Point"},"properties":{"osm_id":"6795364619","tag":{"amenity":"waste_basket"}},"type":"Feature"},
	{"geometry":{"coordinates":[2.33892,48.779522],"type":"Point"},"properties":{"osm_id":"6795364620","tag":{"amenity":"waste_basket"}},"type":"Feature"},
	{"geometry":{"coordinates":[2.337873,48.778956],"type":"Point"},"properties":{"osm_id":"6795364624","tag":{"amenity":"waste_basket"}},"type":"Feature"},
	{"geometry":{"coordinates":[2.337152,48.779048],"type":"Point"},"properties":{"osm_id":"6795364625","tag":{"amenity":"waste_basket"}},"type":"Feature"},
	{"geometry":{"coordinates":[2.335619,48.778979],"type":"Point"},"properties":{"osm_id":"6795364626","tag":{"amenity":"waste_basket"}},"type":"Feature"},
	{"geometry":{"coordinates":[2.335272,48.779178],"type":"Point"},"properties":{"osm_id":"6795364628","tag":{"amenity":"waste_basket"}},"type":"Feature"},
	{"geometry":{"coordinates":[2.336887,48.782443],"type":"Point"},"properties":{"osm_id":"6795364659","tag":{"amenity":"waste_basket"}},"type":"Feature"},
	{"geometry":{"coordinates":[2.338231,48.781856],"type":"Point"},"properties":{"osm_id":"6795364662","tag":{"amenity":"waste_basket"}},"type":"Feature"},
	{"geometry":{"coordinates":[2.339118,48.781446],"type":"Point"},"properties":{"osm_id":"6795364664","tag":{"amenity":"waste_basket"}},"type":"Feature"},
	{"geometry":{"coordinates":[2.339585,48.78122],"type":"Point"},"properties":{"osm_id":"6795364681","tag":{"amenity":"waste_basket"}},"type":"Feature"},
	{"geometry":{"coordinates":[2.340241,48.780587],"type":"Point"},"properties":{"osm_id":"6795364682","tag":{"amenity":"waste_basket"}},"type":"Feature"},
	{"geometry":{"coordinates":[2.340101,48.780483],"type":"Point"},"properties":{"osm_id":"6795377804","tag":{"amenity":"waste_basket"}},"type":"Feature"},
	{"geometry":{"coordinates":[2.341045,48.778564],"type":"Point"},"properties":{"osm_id":"6795377808","tag":{"amenity":"waste_basket"}},"type":"Feature"},
	{"geometry":{"coordinates":[2.34478,48.778216],"type":"Point"},"properties":{"osm_id":"6795377836","tag":{"amenity":"recycling","recycling:glass_bottles":"yes","recycling_type":"container"}},"type":"Feature"},
	{"geometry":{"coordinates":[2.34123,48.772785],"type":"Point"},"properties":{"osm_id":"6795377892","tag":{"amenity":"waste_basket"}},"type":"Feature"},
	{"geometry":{"coordinates":[2.341711,48.772801],"type":"Point"},"properties":{"osm_id":"6795377893","tag":{"amenity":"waste_basket"}},"type":"Feature"},
	{"geometry":{"coordinates":[2.340038,48.772873],"type":"Point"},"properties":{"osm_id":"6795377894","tag":{"amenity":"waste_basket"}},"type":"Feature"},
	{"geometry":{"coordinates":[2.332379,48.774304],"type":"Point"},"properties":{"osm_id":"6795377895","tag":{"amenity":"waste_basket"}},"type":"Feature"},
	{"geometry":{"coordinates":[2.334557,48.781187],"type":"Point"},"properties":{"osm_id":"6795377900","tag":{"amenity":"waste_basket"}},"type":"Feature"},
	{"geometry":{"coordinates":[2.328511,48.779468],"type":"Point"},"properties":{"osm_id":"6795418759","tag":{"amenity":"waste_basket"}},"type":"Feature"},
	{"geometry":{"coordinates":[2.328516,48.77939],"type":"Point"},"properties":{"osm_id":"6795418765","tag":{"amenity":"waste_basket"}},"type":"Feature"},
	{"geometry":{"coordinates":[2.326965,48.770636],"type":"Point"},"properties":{"osm_id":"6795720861","tag":{"amenity":"waste_basket"}},"type":"Feature"},
	{"geometry":{"coordinates":[2.327521,48.770843],"type":"Point"},"properties":{"osm_id":"6795720862","tag":{"amenity":"waste_basket"}},"type":"Feature"},
	{"geometry":{"coordinates":[2.328063,48.770529],"type":"Point"},"properties":{"osm_id":"6795720866","tag":{"amenity":"waste_basket"}},"type":"Feature"},
	{"geometry":{"coordinates":[2.328526,48.770643],"type":"Point"},"properties":{"osm_id":"6795720871","tag":{"amenity":"waste_basket"}},"type":"Feature"},
	{"geometry":{"coordinates":[2.328506,48.770418],"type":"Point"},"properties":{"osm_id":"6795720872","tag":{"amenity":"waste_basket"}},"type":"Feature"},
	{"geometry":{"coordinates":[2.329007,48.770737],"type":"Point"},"properties":{"osm_id":"6795720874","tag":{"amenity":"recycling","recycling:clothes":"yes","recycling:glass_bottles":"yes","recycling_type":"container"}},"type":"Feature"},
	{"geometry":{"coordinates":[2.32899,48.770824],"type":"Point"},"properties":{"osm_id":"6795720875","tag":{"amenity":"waste_basket"}},"type":"Feature"},
	{"geometry":{"coordinates":[2.349027,48.776562],"type":"Point"},"properties":{"osm_id":"6795769153","tag":{"amenity":"waste_basket"}},"type":"Feature"},
	{"geometry":{"coordinates":[2.350227,48.777694],"type":"Point"},"properties":{"osm_id":"6795769165","tag":{"amenity":"waste_basket"}},"type":"Feature"},
	{"geometry":{"coordinates":[2.350128,48.777743],"type":"Point"},"properties":{"osm_id":"6795769166","tag":{"amenity":"waste_basket"}},"type":"Feature"},
	{"geometry":{"coordinates":[2.349109,48.777948],"type":"Point"},"properties":{"osm_id":"6795769177","tag":{"amenity":"waste_basket"}},"type":"Feature"},
	{"geometry":{"coordinates":[2.349802,48.777059],"type":"Point"},"properties":{"osm_id":"6795769180","tag":{"amenity":"waste_basket"}},"type":"Feature"},
	{"geometry":{"coordinates":[2.349589,48.777038],"type":"Point"},"properties":{"osm_id":"6795769183","tag":{"amenity":"waste_basket"}},"type":"Feature"},
	{"geometry":{"coordinates":[2.324669,48.764782],"type":"Point"},"properties":{"osm_id":"6795843544","tag":{"amenity":"waste_basket"}},"type":"Feature"},
	{"geometry":{"coordinates":[2.32445,48.764768],"type":"Point"},"properties":{"osm_id":"6795843545","tag":{"amenity":"waste_basket"}},"type":"Feature"},
	{"geometry":{"coordinates":[2.323938,48.765664],"type":"Point"},"properties":{"osm_id":"6795843570","tag":{"amenity":"waste_basket"}},"type":"Feature"},
	{"geometry":{"coordinates":[2.325057,48.766127],"type":"Point"},"properties":{"osm_id":"6795843576","tag":{"amenity":"waste_basket"}},"type":"Feature"},
	{"geometry":{"coordinates":[2.3243,48.766906],"type":"Point"},"properties":{"osm_id":"6795843615","tag":{"amenity":"waste_basket"}},"type":"Feature"},
	{"geometry":{"coordinates":[2.324237,48.766753],"type":"Point"},"properties":{"osm_id":"6795843617","tag":{"amenity":"waste_basket"}},"type":"Feature"},
	{"geometry":{"coordinates":[2.324073,48.767892],"type":"Point"},"properties":{"osm_id":"6795843709","tag":{"amenity":"waste_basket"}},"type":"Feature"},
	{"geometry":{"coordinates":[2.322828,48.767826],"type":"Point"},"properties":{"osm_id":"6795843728","tag":{"amenity":"waste_basket"}},"type":"Feature"},
	{"geometry":{"coordinates":[2.322934,48.767963],"type":"Point"},"properties":{"osm_id":"6795843729","tag":{"amenity":"waste_basket"}},"type":"Feature"},
	{"geometry":{"coordinates":[2.322841,48.766835],"type":"Point"},"properties":{"osm_id":"6795843850","tag":{"amenity":"waste_basket"}},"type":"Feature"},
	{"geometry":{"coordinates":[2.322955,48.766741],"type":"Point"},"properties":{"osm_id":"6795843851","tag":{"amenity":"waste_basket"}},"type":"Feature"},
	{"geometry":{"coordinates":[2.320118,48.767022],"type":"Point"},"properties":{"osm_id":"6795843860","tag":{"amenity":"waste_basket"}},"type":"Feature"},
	{"geometry":{"coordinates":[2.320394,48.766986],"type":"Point"},"properties":{"osm_id":"6795843863","tag":{"amenity":"waste_basket"}},"type":"Feature"},
	{"geometry":{"coordinates":[2.320548,48.766954],"type":"Point"},"properties":{"osm_id":"6795843864","tag":{"amenity":"waste_basket"}},"type":"Feature"},
	{"geometry":{"coordinates":[2.320807,48.766888],"type":"Point"},"properties":{"osm_id":"6795843865","tag":{"amenity":"waste_basket"}},"type":"Feature"},
	{"geometry":{"coordinates":[2.321021,48.766789],"type":"Point"},"properties":{"osm_id":"6795843868","tag":{"amenity":"waste_basket"}},"type":"Feature"},
	{"geometry":{"coordinates":[2.319478,48.767471],"type":"Point"},"properties":{"osm_id":"6795843876","tag":{"amenity":"waste_basket"}},"type":"Feature"},
	{"geometry":{"coordinates":[2.325241,48.76639],"type":"Point"},"properties":{"osm_id":"6795843927","tag":{"amenity":"waste_basket"}},"type":"Feature"},
	{"geometry":{"coordinates":[2.330694,48.795645],"type":"Point"},"properties":{"osm_id":"6795994175","tag":{"amenity":"waste_basket"}},"type":"Feature"},
	{"geometry":{"coordinates":[2.328102,48.79552],"type":"Point"},"properties":{"osm_id":"6795994179","tag":{"amenity":"waste_basket"}},"type":"Feature"},
	{"geometry":{"coordinates":[2.32832,48.79548],"type":"Point"},"properties":{"osm_id":"6795994180","tag":{"amenity":"recycling","recycling:glass_bottles":"yes","recycling_type":"container"}},"type":"Feature"},
	{"geometry":{"coordinates":[2.33083,48.795219],"type":"Point"},"properties":{"osm_id":"6796054836","tag":{"amenity":"waste_basket"}},"type":"Feature"},
	{"geometry":{"coordinates":[2.331733,48.790917],"type":"Point"},"properties":{"osm_id":"6796065279","tag":{"amenity":"waste_basket"}},"type":"Feature"},
	{"geometry":{"coordinates":[2.329511,48.795815],"type":"Point"},"properties":{"osm_id":"6797786061","tag":{"amenity":"waste_basket"}},"type":"Feature"},
	{"geometry":{"coordinates":[2.339146,48.788878],"type":"Point"},"properties":{"osm_id":"6810512312","tag":{"amenity":"waste_basket"}},"type":"Feature"},
	{"geometry":{"coordinates":[2.318207,48.796054],"type":"Point"},"properties":{"osm_id":"6815553959","tag":{"amenity":"waste_basket"}},"type":"Feature"},
	{"geometry":{"coordinates":[2.33682,48.795392],"type":"Point"},"properties":{"osm_id":"7006288948","tag":{"amenity":"recycling","recycling:glass":"yes","recycling_type":"container"}},"type":"Feature"},
	{"geometry":{"coordinates":[2.33656,48.793814],"type":"Point"},"properties":{"name":"Composteur partag\u00c3\u00a9","osm_id":"7006357976","tag":{"amenity":"recycling","mapillary":"MNzeN24VemHDnJRs8EKmDw","recycling:green_waste":"yes","recycling:organic":"yes","recycling_type":"container"}},"type":"Feature"},
	{"geometry":{"coordinates":[2.329286,48.786603],"type":"Point"},"properties":{"osm_id":"7006846839","tag":{"amenity":"waste_basket"}},"type":"Feature"},
	{"geometry":{"coordinates":[2.28618,48.761242],"type":"Point"},"properties":{"osm_id":"7058335644","tag":{"amenity":"waste_basket"}},"type":"Feature"},
	{"geometry":{"coordinates":[2.332066,48.788956],"type":"Point"},"properties":{"osm_id":"7143128026","tag":{"amenity":"waste_basket"}},"type":"Feature"},
	{"geometry":{"coordinates":[2.337007,48.791738],"type":"Point"},"properties":{"osm_id":"7179947760","tag":{"amenity":"waste_basket"}},"type":"Feature"},
	{"geometry":{"coordinates":[2.337372,48.78601],"type":"Point"},"properties":{"osm_id":"7179947763","tag":{"amenity":"waste_basket"}},"type":"Feature"},
	{"geometry":{"coordinates":[2.337884,48.785299],"type":"Point"},"properties":{"osm_id":"7179947764","tag":{"amenity":"waste_basket"}},"type":"Feature"},
	{"geometry":{"coordinates":[2.338726,48.786546],"type":"Point"},"properties":{"osm_id":"7179947765","tag":{"amenity":"waste_basket"}},"type":"Feature"},
	{"geometry":{"coordinates":[2.340119,48.790641],"type":"Point"},"properties":{"osm_id":"7179947766","tag":{"amenity":"waste_basket"}},"type":"Feature"},
	{"geometry":{"coordinates":[2.326042,48.77565],"type":"Point"},"properties":{"osm_id":"7182872365","tag":{"amenity":"waste_basket"}},"type":"Feature"},
	{"geometry":{"coordinates":[2.326183,48.775738],"type":"Point"},"properties":{"osm_id":"7182872366","tag":{"amenity":"waste_basket"}},"type":"Feature"},
	{"geometry":{"coordinates":[2.327871,48.798243],"type":"Point"},"properties":{"osm_id":"7198786950","tag":{"amenity":"waste_basket"}},"type":"Feature"},
	{"geometry":{"coordinates":[2.345371,48.783854],"type":"Point"},"properties":{"osm_id":"7209604070","tag":{"amenity":"waste_basket"}},"type":"Feature"},
	{"geometry":{"coordinates":[2.342843,48.791451],"type":"Point"},"properties":{"osm_id":"7231500439","tag":{"amenity":"waste_basket"}},"type":"Feature"},
	{"geometry":{"coordinates":[2.334102,48.787534],"type":"Point"},"properties":{"osm_id":"7231664341","tag":{"amenity":"waste_basket"}},"type":"Feature"},
	{"geometry":{"coordinates":[2.332378,48.785582],"type":"Point"},"properties":{"osm_id":"7231673794","tag":{"amenity":"waste_basket"}},"type":"Feature"},
	{"geometry":{"coordinates":[2.350629,48.799582],"type":"Point"},"properties":{"osm_id":"7261946387","tag":{"amenity":"waste_basket","survey:date":"2020-03-03"}},"type":"Feature"},
	{"geometry":{"coordinates":[2.347081,48.798256],"type":"Point"},"properties":{"osm_id":"7261966786","tag":{"amenity":"recycling","recycling:glass_bottles":"yes","recycling_type":"container","survey:date":"2020-03-03"}},"type":"Feature"},
	{"geometry":{"coordinates":[2.34711,48.798197],"type":"Point"},"properties":{"osm_id":"7261966787","tag":{"amenity":"recycling","recycling:clothes":"yes","recycling_type":"container","survey:date":"2020-03-03"}},"type":"Feature"},
	{"geometry":{"coordinates":[2.355123,48.798165],"type":"Point"},"properties":{"osm_id":"7261966788","tag":{"amenity":"recycling","recycling:clothes":"yes","recycling_type":"container","survey:date":"2020-03-03"}},"type":"Feature"},
	{"geometry":{"coordinates":[2.351478,48.801683],"type":"Point"},"properties":{"osm_id":"7261972685","tag":{"amenity":"recycling","recycling:glass_bottles":"yes","recycling_type":"container","survey:date":"2020-03-03"}},"type":"Feature"},
	{"geometry":{"coordinates":[2.35151,48.801695],"type":"Point"},"properties":{"osm_id":"7261972785","tag":{"amenity":"recycling","recycling:clothes":"yes","recycling_type":"container","survey:date":"2020-03-03"}},"type":"Feature"},
	{"geometry":{"coordinates":[2.353032,48.799844],"type":"Point"},"properties":{"osm_id":"7262862685","tag":{"amenity":"waste_basket","survey:date":"2020-03-04"}},"type":"Feature"},
	{"geometry":{"coordinates":[2.352829,48.800028],"type":"Point"},"properties":{"osm_id":"7262862785","tag":{"amenity":"waste_basket","survey:date":"2020-03-04"}},"type":"Feature"},
	{"geometry":{"coordinates":[2.332253,48.786074],"type":"Point"},"properties":{"osm_id":"7288244908","tag":{"amenity":"waste_basket"}},"type":"Feature"},
	{"geometry":{"coordinates":[2.296057,48.80583],"type":"Point"},"properties":{"osm_id":"7300051450","tag":{"amenity":"waste_basket"}},"type":"Feature"},
	{"geometry":{"coordinates":[2.295677,48.805374],"type":"Point"},"properties":{"osm_id":"7300051451","tag":{"amenity":"waste_basket"}},"type":"Feature"},
	{"geometry":{"coordinates":[2.295463,48.805242],"type":"Point"},"properties":{"osm_id":"7300051452","tag":{"amenity":"waste_basket"}},"type":"Feature"},
	{"geometry":{"coordinates":[2.295161,48.804329],"type":"Point"},"properties":{"osm_id":"7300051453","tag":{"amenity":"waste_basket"}},"type":"Feature"},
	{"geometry":{"coordinates":[2.295107,48.804413],"type":"Point"},"properties":{"osm_id":"7300051454","tag":{"amenity":"waste_basket"}},"type":"Feature"},
	{"geometry":{"coordinates":[2.295145,48.804387],"type":"Point"},"properties":{"osm_id":"7300051455","tag":{"amenity":"waste_basket"}},"type":"Feature"},
	{"geometry":{"coordinates":[2.294439,48.803053],"type":"Point"},"properties":{"osm_id":"7300051456","tag":{"amenity":"waste_basket"}},"type":"Feature"},
	{"geometry":{"coordinates":[2.295924,48.800429],"type":"Point"},"properties":{"osm_id":"7300051457","tag":{"amenity":"waste_basket"}},"type":"Feature"},
	{"geometry":{"coordinates":[2.295789,48.798134],"type":"Point"},"properties":{"osm_id":"7300051458","tag":{"amenity":"waste_basket"}},"type":"Feature"},
	{"geometry":{"coordinates":[2.296416,48.797385],"type":"Point"},"properties":{"osm_id":"7300051459","tag":{"amenity":"waste_basket"}},"type":"Feature"},
	{"geometry":{"coordinates":[2.294549,48.795424],"type":"Point"},"properties":{"osm_id":"7300051460","tag":{"amenity":"waste_basket"}},"type":"Feature"},
	{"geometry":{"coordinates":[2.294257,48.794468],"type":"Point"},"properties":{"osm_id":"7300051461","tag":{"amenity":"waste_basket"}},"type":"Feature"},
	{"geometry":{"coordinates":[2.293171,48.793694],"type":"Point"},"properties":{"osm_id":"7300051462","tag":{"amenity":"waste_basket"}},"type":"Feature"},
	{"geometry":{"coordinates":[2.292857,48.792599],"type":"Point"},"properties":{"osm_id":"7300051463","tag":{"amenity":"waste_basket"}},"type":"Feature"},
	{"geometry":{"coordinates":[2.292774,48.791584],"type":"Point"},"properties":{"osm_id":"7300051464","tag":{"amenity":"waste_basket"}},"type":"Feature"},
	{"geometry":{"coordinates":[2.349336,48.74949],"type":"Point"},"properties":{"osm_id":"7340968910","tag":{"amenity":"waste_basket"}},"type":"Feature"},
	{"geometry":{"coordinates":[2.331967,48.790847],"type":"Point"},"properties":{"osm_id":"7344126015","tag":{"amenity":"waste_basket"}},"type":"Feature"},
	{"geometry":{"coordinates":[2.331969,48.790228],"type":"Point"},"properties":{"osm_id":"7344126016","tag":{"amenity":"waste_basket"}},"type":"Feature"},
	{"geometry":{"coordinates":[2.33253,48.789791],"type":"Point"},"properties":{"osm_id":"7344126018","tag":{"amenity":"waste_basket"}},"type":"Feature"},
	{"geometry":{"coordinates":[2.361202,48.779475],"type":"Point"},"properties":{"osm_id":"7354649905","tag":{"amenity":"waste_basket"}},"type":"Feature"},
	{"geometry":{"coordinates":[2.362142,48.779775],"type":"Point"},"properties":{"osm_id":"7354649906","tag":{"amenity":"waste_basket"}},"type":"Feature"},
	{"geometry":{"coordinates":[2.363111,48.779993],"type":"Point"},"properties":{"osm_id":"7354649907","tag":{"amenity":"waste_basket"}},"type":"Feature"},
	{"geometry":{"coordinates":[2.362741,48.780637],"type":"Point"},"properties":{"osm_id":"7354649908","tag":{"amenity":"waste_basket"}},"type":"Feature"},
	{"geometry":{"coordinates":[2.362828,48.780401],"type":"Point"},"properties":{"osm_id":"7354649909","tag":{"amenity":"waste_basket"}},"type":"Feature"},
	{"geometry":{"coordinates":[2.362648,48.780402],"type":"Point"},"properties":{"osm_id":"7354649910","tag":{"amenity":"waste_basket"}},"type":"Feature"},
	{"geometry":{"coordinates":[2.362397,48.780477],"type":"Point"},"properties":{"osm_id":"7354649911","tag":{"amenity":"waste_basket"}},"type":"Feature"},
	{"geometry":{"coordinates":[2.355382,48.780646],"type":"Point"},"properties":{"osm_id":"7354650117","tag":{"amenity":"recycling","recycling:glass_bottles":"yes","recycling_type":"container"}},"type":"Feature"},
	{"geometry":{"coordinates":[2.344098,48.753699],"type":"Point"},"properties":{"osm_id":"7363556520","tag":{"amenity":"waste_basket"}},"type":"Feature"},
	{"geometry":{"coordinates":[2.345473,48.749305],"type":"Point"},"properties":{"osm_id":"7363563405","tag":{"amenity":"waste_basket"}},"type":"Feature"},
	{"geometry":{"coordinates":[2.344065,48.753741],"type":"Point"},"properties":{"osm_id":"7363580399","tag":{"amenity":"recycling","recycling:clothes":"yes","recycling_type":"container"}},"type":"Feature"},
	{"geometry":{"coordinates":[2.332302,48.790647],"type":"Point"},"properties":{"osm_id":"7417094662","tag":{"amenity":"waste_basket"}},"type":"Feature"},
	{"geometry":{"coordinates":[2.333818,48.787816],"type":"Point"},"properties":{"osm_id":"7417492835","tag":{"amenity":"waste_basket"}},"type":"Feature"},
	{"geometry":{"coordinates":[2.332448,48.786521],"type":"Point"},"properties":{"osm_id":"7417492847","tag":{"amenity":"waste_basket"}},"type":"Feature"},
	{"geometry":{"coordinates":[2.332189,48.786622],"type":"Point"},"properties":{"osm_id":"7417492852","tag":{"amenity":"waste_basket"}},"type":"Feature"},
	{"geometry":{"coordinates":[2.330552,48.786602],"type":"Point"},"properties":{"osm_id":"7417599900","tag":{"amenity":"waste_basket"}},"type":"Feature"},
	{"geometry":{"coordinates":[2.330517,48.78618],"type":"Point"},"properties":{"osm_id":"7417599902","tag":{"amenity":"waste_basket"}},"type":"Feature"},
	{"geometry":{"coordinates":[2.329948,48.787811],"type":"Point"},"properties":{"osm_id":"7417599912","tag":{"amenity":"recycling","recycling:glass_bottles":"yes","recycling_type":"container"}},"type":"Feature"},
	{"geometry":{"coordinates":[2.329458,48.786923],"type":"Point"},"properties":{"osm_id":"7417599920","tag":{"amenity":"waste_basket"}},"type":"Feature"},
	{"geometry":{"coordinates":[2.329256,48.786807],"type":"Point"},"properties":{"osm_id":"7417599921","tag":{"amenity":"waste_basket"}},"type":"Feature"},
	{"geometry":{"coordinates":[2.329944,48.787642],"type":"Point"},"properties":{"osm_id":"7417599924","tag":{"amenity":"waste_basket"}},"type":"Feature"},
	{"geometry":{"coordinates":[2.329164,48.785851],"type":"Point"},"properties":{"osm_id":"7417599925","tag":{"amenity":"waste_basket"}},"type":"Feature"},
	{"geometry":{"coordinates":[2.339263,48.788442],"type":"Point"},"properties":{"osm_id":"7422088223","tag":{"amenity":"waste_basket"}},"type":"Feature"},
	{"geometry":{"coordinates":[2.338901,48.788204],"type":"Point"},"properties":{"osm_id":"7422088225","tag":{"amenity":"waste_basket"}},"type":"Feature"},
	{"geometry":{"coordinates":[2.338825,48.786935],"type":"Point"},"properties":{"osm_id":"7422088230","tag":{"amenity":"waste_basket"}},"type":"Feature"},
	{"geometry":{"coordinates":[2.345183,48.783894],"type":"Point"},"properties":{"osm_id":"7433290379","tag":{"amenity":"waste_basket"}},"type":"Feature"},
	{"geometry":{"coordinates":[2.34493,48.783885],"type":"Point"},"properties":{"osm_id":"7433307646","tag":{"amenity":"waste_basket"}},"type":"Feature"},
	{"geometry":{"coordinates":[2.340881,48.750361],"type":"Point"},"properties":{"osm_id":"7449927219","tag":{"amenity":"waste_basket"}},"type":"Feature"},
	{"geometry":{"coordinates":[2.345377,48.750189],"type":"Point"},"properties":{"osm_id":"7485739908","tag":{"amenity":"waste_basket"}},"type":"Feature"},
	{"geometry":{"coordinates":[2.333443,48.7539],"type":"Point"},"properties":{"osm_id":"7490382082","tag":{"amenity":"waste_basket"}},"type":"Feature"},
	{"geometry":{"coordinates":[2.336771,48.752907],"type":"Point"},"properties":{"osm_id":"7490382109","tag":{"amenity":"waste_basket"}},"type":"Feature"},
	{"geometry":{"coordinates":[2.336382,48.752936],"type":"Point"},"properties":{"osm_id":"7490409305","tag":{"amenity":"waste_basket"}},"type":"Feature"},
	{"geometry":{"coordinates":[2.337667,48.752739],"type":"Point"},"properties":{"osm_id":"7490410884","tag":{"amenity":"waste_basket"}},"type":"Feature"},
	{"geometry":{"coordinates":[2.337233,48.752773],"type":"Point"},"properties":{"osm_id":"7490415781","tag":{"amenity":"waste_basket"}},"type":"Feature"},
	{"geometry":{"coordinates":[2.333785,48.753805],"type":"Point"},"properties":{"osm_id":"7490417909","tag":{"amenity":"waste_basket"}},"type":"Feature"},
	{"geometry":{"coordinates":[2.336713,48.795427],"type":"Point"},"properties":{"name":"Composteur partag\u00c3\u00a9","osm_id":"7499482206","tag":{"amenity":"recycling","recycling:green_waste":"yes","recycling:organic":"yes","recycling_type":"container"}},"type":"Feature"},
	{"geometry":{"coordinates":[2.328631,48.795943],"type":"Point"},"properties":{"name":"Composteur partag\u00c3\u00a9","osm_id":"7499494090","tag":{"amenity":"recycling","recycling:green_waste":"yes","recycling:organic":"yes","recycling_type":"container"}},"type":"Feature"},
	{"geometry":{"coordinates":[2.288286,48.804401],"type":"Point"},"properties":{"osm_id":"7565270097","tag":{"amenity":"waste_basket"}},"type":"Feature"},
	{"geometry":{"coordinates":[2.329997,48.763159],"type":"Point"},"properties":{"osm_id":"7602881642","tag":{"amenity":"recycling","recycling:clothes":"yes","recycling:glass_bottles":"yes","recycling_type":"container"}},"type":"Feature"},
	{"geometry":{"coordinates":[2.310958,48.781312],"type":"Point"},"properties":{"osm_id":"7620210286","tag":{"amenity":"waste_basket","material":"metal","survey:date":"2020-06-14","waste":"trash"}},"type":"Feature"},
	{"geometry":{"coordinates":[2.307202,48.783824],"type":"Point"},"properties":{"osm_id":"7620212888","tag":{"amenity":"waste_basket","survey:date":"2020-06-14","waste":"trash"}},"type":"Feature"},
	{"geometry":{"coordinates":[2.30757,48.783653],"type":"Point"},"properties":{"osm_id":"7620213086","tag":{"amenity":"waste_basket","survey:date":"2020-06-14","waste":"trash"}},"type":"Feature"},
	{"geometry":{"coordinates":[2.310466,48.781762],"type":"Point"},"properties":{"osm_id":"7620230585","tag":{"amenity":"waste_basket","material":"metal","survey:date":"2020-06-14","waste":"trash"}},"type":"Feature"},
	{"geometry":{"coordinates":[2.31243,48.779881],"type":"Point"},"properties":{"osm_id":"7620684785","tag":{"amenity":"waste_basket","material":"metal","survey:date":"2020-06-14","waste":"trash"}},"type":"Feature"},
	{"geometry":{"coordinates":[2.342107,48.798497],"type":"Point"},"properties":{"osm_id":"7674804559","tag":{"amenity":"recycling","recycling:clothes":"yes","recycling_type":"container"}},"type":"Feature"},
	{"geometry":{"coordinates":[2.3282,48.755761],"type":"Point"},"properties":{"name":"Le Relais","osm_id":"7706635287","tag":{"amenity":"recycling","recycling:clothes":"yes","recycling:glass_bottles":"no","recycling:paper":"no","recycling:plastic":"no","recycling_type":"container","survey:date":"2020-07-12"}},"type":"Feature"},
	{"geometry":{"coordinates":[2.341289,48.751121],"type":"Point"},"properties":{"osm_id":"7755960972","tag":{"amenity":"waste_basket"}},"type":"Feature"},
	{"geometry":{"coordinates":[2.300909,48.765242],"type":"Point"},"properties":{"osm_id":"7799194356","tag":{"amenity":"waste_basket"}},"type":"Feature"},
	{"geometry":{"coordinates":[2.303325,48.765653],"type":"Point"},"properties":{"osm_id":"7799194363","tag":{"amenity":"waste_basket"}},"type":"Feature"},
	{"geometry":{"coordinates":[2.300935,48.765246],"type":"Point"},"properties":{"osm_id":"7799194364","tag":{"amenity":"waste_basket"}},"type":"Feature"},
	{"geometry":{"coordinates":[2.303354,48.765654],"type":"Point"},"properties":{"osm_id":"7799194371","tag":{"amenity":"waste_basket"}},"type":"Feature"},
	{"geometry":{"coordinates":[2.313941,48.781033],"type":"Point"},"properties":{"osm_id":"7816180917","tag":{"amenity":"waste_basket"}},"type":"Feature"},
	{"geometry":{"coordinates":[2.32242,48.776828],"type":"Point"},"properties":{"osm_id":"7816180943","tag":{"amenity":"recycling","recycling:glass":"yes","recycling:glass_bottles":"yes","recycling_type":"container"}},"type":"Feature"},
	{"geometry":{"coordinates":[2.297363,48.760797],"type":"Point"},"properties":{"osm_id":"7820927523","tag":{"amenity":"recycling","recycling_type":"container"}},"type":"Feature"},
	{"geometry":{"coordinates":[2.297316,48.760818],"type":"Point"},"properties":{"osm_id":"7821352498","tag":{"amenity":"recycling","recycling_type":"container"}},"type":"Feature"},
	{"geometry":{"coordinates":[2.297323,48.760798],"type":"Point"},"properties":{"osm_id":"7821352499","tag":{"amenity":"recycling","recycling_type":"container"}},"type":"Feature"},
	{"geometry":{"coordinates":[2.297334,48.760773],"type":"Point"},"properties":{"osm_id":"7821352500","tag":{"amenity":"recycling","recycling_type":"container"}},"type":"Feature"},
	{"geometry":{"coordinates":[2.29737,48.760779],"type":"Point"},"properties":{"osm_id":"7821352501","tag":{"amenity":"recycling","recycling_type":"container"}},"type":"Feature"},
	{"geometry":{"coordinates":[2.297352,48.760822],"type":"Point"},"properties":{"osm_id":"7821352502","tag":{"amenity":"recycling","recycling_type":"container"}},"type":"Feature"},
	{"geometry":{"coordinates":[2.302082,48.7739],"type":"Point"},"properties":{"osm_id":"7830273538","tag":{"amenity":"waste_basket"}},"type":"Feature"},
	{"geometry":{"coordinates":[2.30526,48.769034],"type":"Point"},"properties":{"osm_id":"7830273545","tag":{"amenity":"waste_basket"}},"type":"Feature"},
	{"geometry":{"coordinates":[2.294452,48.762227],"type":"Point"},"properties":{"osm_id":"7833212289","tag":{"amenity":"waste_basket"}},"type":"Feature"},
	{"geometry":{"coordinates":[2.287123,48.770955],"type":"Point"},"properties":{"osm_id":"7833212291","tag":{"amenity":"waste_basket"}},"type":"Feature"},
	{"geometry":{"coordinates":[2.288205,48.769573],"type":"Point"},"properties":{"osm_id":"7833212299","tag":{"amenity":"waste_basket"}},"type":"Feature"},
	{"geometry":{"coordinates":[2.294135,48.770539],"type":"Point"},"properties":{"osm_id":"7833212307","tag":{"amenity":"waste_basket"}},"type":"Feature"},
	{"geometry":{"coordinates":[2.288825,48.773942],"type":"Point"},"properties":{"osm_id":"7833212310","tag":{"amenity":"waste_basket"}},"type":"Feature"},
	{"geometry":{"coordinates":[2.293771,48.770216],"type":"Point"},"properties":{"osm_id":"7833212314","tag":{"amenity":"waste_basket"}},"type":"Feature"},
	{"geometry":{"coordinates":[2.293776,48.770182],"type":"Point"},"properties":{"osm_id":"7833212322","tag":{"amenity":"waste_basket"}},"type":"Feature"},
	{"geometry":{"coordinates":[2.33187,48.793274],"type":"Point"},"properties":{"name":"Composteur partag\u00c3\u00a9","osm_id":"7867823245","tag":{"amenity":"recycling","recycling:green_waste":"yes","recycling:organic":"yes","recycling_type":"container"}},"type":"Feature"}
]
}
