{
"type": "FeatureCollection",
"features": [
	{"geometry":{"coordinates":[2.285896,48.702683],"type":"Point"},"properties":{"osm_id":"1383638953","tag":{"amenity":"recycling","recycling:clothes":"yes","recycling:glass":"yes","recycling_type":"container"}},"type":"Feature"},
	{"geometry":{"coordinates":[2.299434,48.698981],"type":"Point"},"properties":{"osm_id":"1383753261","tag":{"amenity":"recycling","recycling:glass":"yes","recycling_type":"container"}},"type":"Feature"},
	{"geometry":{"coordinates":[2.300718,48.697653],"type":"Point"},"properties":{"osm_id":"1383753266","tag":{"amenity":"recycling"}},"type":"Feature"},
	{"geometry":{"coordinates":[2.3128,48.698192],"type":"Point"},"properties":{"osm_id":"2838731849","tag":{"amenity":"waste_basket"}},"type":"Feature"},
	{"geometry":{"coordinates":[2.294504,48.695169],"type":"Point"},"properties":{"osm_id":"2888099922","tag":{"amenity":"waste_basket"}},"type":"Feature"},
	{"geometry":{"coordinates":[2.287426,48.725518],"type":"Point"},"properties":{"osm_id":"3046330838","tag":{"amenity":"waste_basket"}},"type":"Feature"},
	{"geometry":{"coordinates":[2.289972,48.726552],"type":"Point"},"properties":{"osm_id":"3046330853","tag":{"amenity":"waste_basket"}},"type":"Feature"},
	{"geometry":{"coordinates":[2.292354,48.727955],"type":"Point"},"properties":{"osm_id":"3046441148","tag":{"amenity":"recycling","recycling:glass":"yes","recycling:paper":"yes","recycling_type":"container"}},"type":"Feature"},
	{"geometry":{"coordinates":[2.289459,48.695658],"type":"Point"},"properties":{"osm_id":"3393564660","tag":{"amenity":"waste_basket"}},"type":"Feature"},
	{"geometry":{"coordinates":[2.285689,48.747238],"type":"Point"},"properties":{"osm_id":"3765602046","tag":{"amenity":"waste_basket"}},"type":"Feature"},
	{"geometry":{"coordinates":[2.292874,48.747979],"type":"Point"},"properties":{"osm_id":"3765602047","tag":{"amenity":"waste_basket"}},"type":"Feature"},
	{"geometry":{"coordinates":[2.287728,48.745662],"type":"Point"},"properties":{"osm_id":"3765602048","tag":{"amenity":"waste_basket"}},"type":"Feature"},
	{"geometry":{"coordinates":[2.289186,48.746895],"type":"Point"},"properties":{"osm_id":"3765602051","tag":{"amenity":"waste_basket"}},"type":"Feature"},
	{"geometry":{"coordinates":[2.292339,48.74763],"type":"Point"},"properties":{"osm_id":"3765602053","tag":{"amenity":"waste_basket"}},"type":"Feature"},
	{"geometry":{"coordinates":[2.290359,48.746898],"type":"Point"},"properties":{"osm_id":"3765602055","tag":{"amenity":"waste_basket"}},"type":"Feature"},
	{"geometry":{"coordinates":[2.289514,48.74623],"type":"Point"},"properties":{"osm_id":"3765602477","tag":{"amenity":"waste_basket"}},"type":"Feature"},
	{"geometry":{"coordinates":[2.288206,48.745751],"type":"Point"},"properties":{"osm_id":"3765602480","tag":{"amenity":"waste_basket"}},"type":"Feature"},
	{"geometry":{"coordinates":[2.290325,48.746574],"type":"Point"},"properties":{"osm_id":"3765602481","tag":{"amenity":"waste_basket"}},"type":"Feature"},
	{"geometry":{"coordinates":[2.288998,48.746236],"type":"Point"},"properties":{"osm_id":"3765602486","tag":{"amenity":"waste_basket"}},"type":"Feature"},
	{"geometry":{"coordinates":[2.289327,48.745904],"type":"Point"},"properties":{"osm_id":"3765602495","tag":{"amenity":"waste_basket"}},"type":"Feature"},
	{"geometry":{"coordinates":[2.286419,48.746175],"type":"Point"},"properties":{"osm_id":"3765602499","tag":{"amenity":"waste_basket"}},"type":"Feature"},
	{"geometry":{"coordinates":[2.287885,48.744888],"type":"Point"},"properties":{"osm_id":"3791424084","tag":{"amenity":"waste_basket"}},"type":"Feature"},
	{"geometry":{"coordinates":[2.286692,48.727609],"type":"Point"},"properties":{"osm_id":"3938018096","tag":{"amenity":"waste_basket"}},"type":"Feature"},
	{"geometry":{"coordinates":[2.3128,48.747874],"type":"Point"},"properties":{"osm_id":"3939479661","tag":{"amenity":"waste_basket","level":"0","operator":"SNCF"}},"type":"Feature"},
	{"geometry":{"coordinates":[2.312187,48.747853],"type":"Point"},"properties":{"osm_id":"3939479861","tag":{"amenity":"waste_basket","level":"0","operator":"SNCF"}},"type":"Feature"},
	{"geometry":{"coordinates":[2.31326,48.747865],"type":"Point"},"properties":{"osm_id":"3939480059","tag":{"amenity":"waste_basket","level":"0","operator":"SNCF"}},"type":"Feature"},
	{"geometry":{"coordinates":[2.312358,48.748001],"type":"Point"},"properties":{"osm_id":"3939485457","tag":{"amenity":"waste_basket","level":"0","operator":"SNCF"}},"type":"Feature"},
	{"geometry":{"coordinates":[2.31297,48.748026],"type":"Point"},"properties":{"osm_id":"3939485957","tag":{"amenity":"waste_basket","level":"0","operator":"SNCF"}},"type":"Feature"},
	{"geometry":{"coordinates":[2.285591,48.728584],"type":"Point"},"properties":{"name":"Borne \u00c3\u0089co Textile","osm_id":"4480920934","tag":{"amenity":"recycling","recycling:clothes":"yes","recycling:shoes":"yes","recycling_type":"container"}},"type":"Feature"},
	{"geometry":{"coordinates":[2.287672,48.731641],"type":"Point"},"properties":{"name":"Borne \u00c3\u0089co Textile","osm_id":"4480920939","tag":{"amenity":"recycling","recycling:clothes":"yes","recycling:shoes":"yes","recycling_type":"container"}},"type":"Feature"},
	{"geometry":{"coordinates":[2.291825,48.731889],"type":"Point"},"properties":{"osm_id":"4480920940","tag":{"amenity":"recycling","location":"Angle Av. du Noyer Lambert / All\u00c3\u00a9e de Nantes","recycling:clothes":"yes","recycling:shoes":"yes","recycling_type":"container"}},"type":"Feature"},
	{"geometry":{"coordinates":[2.297435,48.707836],"type":"Point"},"properties":{"osm_id":"4494689505","tag":{"amenity":"waste_basket"}},"type":"Feature"},
	{"geometry":{"coordinates":[2.289329,48.695982],"type":"Point"},"properties":{"osm_id":"4782956226","tag":{"amenity":"waste_basket"}},"type":"Feature"},
	{"geometry":{"coordinates":[2.294819,48.695965],"type":"Point"},"properties":{"osm_id":"4862130938","tag":{"amenity":"waste_basket"}},"type":"Feature"},
	{"geometry":{"coordinates":[2.290012,48.735857],"type":"Point"},"properties":{"osm_id":"4878957524","tag":{"amenity":"waste_basket"}},"type":"Feature"},
	{"geometry":{"coordinates":[2.289173,48.73604],"type":"Point"},"properties":{"osm_id":"4878957528","tag":{"amenity":"waste_basket"}},"type":"Feature"},
	{"geometry":{"coordinates":[2.28934,48.735667],"type":"Point"},"properties":{"osm_id":"4878957533","tag":{"amenity":"waste_basket"}},"type":"Feature"},
	{"geometry":{"coordinates":[2.328942,48.733045],"type":"Point"},"properties":{"osm_id":"4895237521","tag":{"amenity":"waste_basket"}},"type":"Feature"},
	{"geometry":{"coordinates":[2.328733,48.733294],"type":"Point"},"properties":{"osm_id":"4895261721","tag":{"amenity":"waste_basket"}},"type":"Feature"},
	{"geometry":{"coordinates":[2.330075,48.736719],"type":"Point"},"properties":{"osm_id":"4895284125","tag":{"amenity":"waste_basket"}},"type":"Feature"},
	{"geometry":{"coordinates":[2.328981,48.736678],"type":"Point"},"properties":{"osm_id":"4895285228","tag":{"amenity":"waste_basket"}},"type":"Feature"},
	{"geometry":{"coordinates":[2.287071,48.72323],"type":"Point"},"properties":{"osm_id":"4913276024","tag":{"amenity":"waste_basket"}},"type":"Feature"},
	{"geometry":{"coordinates":[2.287783,48.726663],"type":"Point"},"properties":{"osm_id":"4913321178","tag":{"amenity":"waste_basket"}},"type":"Feature"},
	{"geometry":{"coordinates":[2.348591,48.744139],"type":"Point"},"properties":{"osm_id":"5175888123","tag":{"amenity":"waste_basket"}},"type":"Feature"},
	{"geometry":{"coordinates":[2.289448,48.695877],"type":"Point"},"properties":{"osm_id":"5184743652","tag":{"amenity":"waste_basket"}},"type":"Feature"},
	{"geometry":{"coordinates":[2.290285,48.695732],"type":"Point"},"properties":{"osm_id":"5184743653","tag":{"amenity":"waste_basket"}},"type":"Feature"},
	{"geometry":{"coordinates":[2.314353,48.746092],"type":"Point"},"properties":{"osm_id":"5198653840","tag":{"amenity":"waste_basket","source:date":"2017-10-28"}},"type":"Feature"},
	{"geometry":{"coordinates":[2.287931,48.696127],"type":"Point"},"properties":{"osm_id":"5200794809","tag":{"amenity":"waste_basket"}},"type":"Feature"},
	{"geometry":{"coordinates":[2.301644,48.73626],"type":"Point"},"properties":{"osm_id":"5209993124","tag":{"amenity":"waste_basket"}},"type":"Feature"},
	{"geometry":{"coordinates":[2.35295,48.741155],"type":"Point"},"properties":{"osm_id":"5212668874","tag":{"amenity":"waste_basket"}},"type":"Feature"},
	{"geometry":{"coordinates":[2.297282,48.708581],"type":"Point"},"properties":{"osm_id":"5223655459","tag":{"amenity":"waste_basket"}},"type":"Feature"},
	{"geometry":{"coordinates":[2.297335,48.709498],"type":"Point"},"properties":{"osm_id":"5223655464","tag":{"amenity":"waste_basket"}},"type":"Feature"},
	{"geometry":{"coordinates":[2.349001,48.748302],"type":"Point"},"properties":{"osm_id":"5323482415","tag":{"amenity":"waste_basket"}},"type":"Feature"},
	{"geometry":{"coordinates":[2.348481,48.745034],"type":"Point"},"properties":{"osm_id":"5361885006","tag":{"amenity":"waste_basket"}},"type":"Feature"},
	{"geometry":{"coordinates":[2.344845,48.746384],"type":"Point"},"properties":{"osm_id":"5387066383","tag":{"amenity":"waste_basket"}},"type":"Feature"},
	{"geometry":{"coordinates":[2.342186,48.748197],"type":"Point"},"properties":{"osm_id":"5387101109","tag":{"amenity":"waste_basket"}},"type":"Feature"},
	{"geometry":{"coordinates":[2.298119,48.738466],"type":"Point"},"properties":{"osm_id":"5412522803","tag":{"amenity":"waste_basket"}},"type":"Feature"},
	{"geometry":{"coordinates":[2.314884,48.74568],"type":"Point"},"properties":{"osm_id":"5412595735","tag":{"amenity":"waste_basket"}},"type":"Feature"},
	{"geometry":{"coordinates":[2.314581,48.745628],"type":"Point"},"properties":{"osm_id":"5412595737","tag":{"amenity":"waste_basket"}},"type":"Feature"},
	{"geometry":{"coordinates":[2.318127,48.742631],"type":"Point"},"properties":{"osm_id":"5412619268","tag":{"amenity":"waste_basket"}},"type":"Feature"},
	{"geometry":{"coordinates":[2.317694,48.74316],"type":"Point"},"properties":{"osm_id":"5412621655","tag":{"amenity":"waste_basket"}},"type":"Feature"},
	{"geometry":{"coordinates":[2.350535,48.74123],"type":"Point"},"properties":{"osm_id":"5415200058","tag":{"amenity":"recycling","location":"overground","recycling:glass_bottles":"yes","recycling_type":"container"}},"type":"Feature"},
	{"geometry":{"coordinates":[2.351811,48.746929],"type":"Point"},"properties":{"osm_id":"5415200194","tag":{"amenity":"waste_basket"}},"type":"Feature"},
	{"geometry":{"coordinates":[2.297468,48.708799],"type":"Point"},"properties":{"osm_id":"5420520177","tag":{"amenity":"waste_basket"}},"type":"Feature"},
	{"geometry":{"coordinates":[2.29353,48.693384],"type":"Point"},"properties":{"osm_id":"5420536947","tag":{"amenity":"waste_basket"}},"type":"Feature"},
	{"geometry":{"coordinates":[2.28629,48.742743],"type":"Point"},"properties":{"osm_id":"5433923804","tag":{"access":"customers","amenity":"waste_basket"}},"type":"Feature"},
	{"geometry":{"coordinates":[2.363199,48.709521],"type":"Point"},"properties":{"osm_id":"5435526846","tag":{"amenity":"waste_basket"}},"type":"Feature"},
	{"geometry":{"coordinates":[2.353354,48.746744],"type":"Point"},"properties":{"osm_id":"5516861647","tag":{"amenity":"waste_basket"}},"type":"Feature"},
	{"geometry":{"coordinates":[2.356007,48.747824],"type":"Point"},"properties":{"osm_id":"5516861652","tag":{"amenity":"waste_basket"}},"type":"Feature"},
	{"geometry":{"coordinates":[2.354386,48.7481],"type":"Point"},"properties":{"osm_id":"5516861653","tag":{"amenity":"waste_basket"}},"type":"Feature"},
	{"geometry":{"coordinates":[2.355087,48.748416],"type":"Point"},"properties":{"osm_id":"5516861654","tag":{"amenity":"waste_basket"}},"type":"Feature"},
	{"geometry":{"coordinates":[2.354368,48.745279],"type":"Point"},"properties":{"osm_id":"5516862714","tag":{"amenity":"waste_basket"}},"type":"Feature"},
	{"geometry":{"coordinates":[2.354246,48.747724],"type":"Point"},"properties":{"osm_id":"5516862717","tag":{"amenity":"waste_basket"}},"type":"Feature"},
	{"geometry":{"coordinates":[2.354573,48.748373],"type":"Point"},"properties":{"osm_id":"5516862718","tag":{"amenity":"waste_basket"}},"type":"Feature"},
	{"geometry":{"coordinates":[2.35402,48.748651],"type":"Point"},"properties":{"osm_id":"5516862719","tag":{"amenity":"waste_basket"}},"type":"Feature"},
	{"geometry":{"coordinates":[2.355547,48.745843],"type":"Point"},"properties":{"osm_id":"5516862814","tag":{"amenity":"waste_basket"}},"type":"Feature"},
	{"geometry":{"coordinates":[2.356598,48.747368],"type":"Point"},"properties":{"osm_id":"5516862816","tag":{"amenity":"waste_basket"}},"type":"Feature"},
	{"geometry":{"coordinates":[2.358687,48.694633],"type":"Point"},"properties":{"osm_id":"5609546483","tag":{"amenity":"waste_basket"}},"type":"Feature"},
	{"geometry":{"coordinates":[2.371093,48.693277],"type":"Point"},"properties":{"osm_id":"5609572844","tag":{"amenity":"waste_basket"}},"type":"Feature"},
	{"geometry":{"coordinates":[2.370729,48.692977],"type":"Point"},"properties":{"osm_id":"5609573237","tag":{"amenity":"waste_basket"}},"type":"Feature"},
	{"geometry":{"coordinates":[2.353728,48.746126],"type":"Point"},"properties":{"osm_id":"5751678512","tag":{"amenity":"waste_basket"}},"type":"Feature"},
	{"geometry":{"coordinates":[2.353838,48.746354],"type":"Point"},"properties":{"osm_id":"5751679219","tag":{"amenity":"waste_basket"}},"type":"Feature"},
	{"geometry":{"coordinates":[2.35393,48.746243],"type":"Point"},"properties":{"osm_id":"5751680223","tag":{"amenity":"waste_basket"}},"type":"Feature"},
	{"geometry":{"coordinates":[2.294252,48.697536],"type":"Point"},"properties":{"osm_id":"5759117090","tag":{"amenity":"recycling","location":"underground","recycling:glass_bottles":"yes","recycling_type":"container"}},"type":"Feature"},
	{"geometry":{"coordinates":[2.295061,48.697312],"type":"Point"},"properties":{"osm_id":"5777576710","tag":{"amenity":"waste_basket"}},"type":"Feature"},
	{"geometry":{"coordinates":[2.29517,48.697301],"type":"Point"},"properties":{"osm_id":"5777576711","tag":{"amenity":"waste_basket"}},"type":"Feature"},
	{"geometry":{"coordinates":[2.355009,48.747367],"type":"Point"},"properties":{"osm_id":"5784913806","tag":{"amenity":"waste_basket"}},"type":"Feature"},
	{"geometry":{"coordinates":[2.3552,48.74746],"type":"Point"},"properties":{"osm_id":"5784913807","tag":{"amenity":"waste_basket"}},"type":"Feature"},
	{"geometry":{"coordinates":[2.355667,48.747723],"type":"Point"},"properties":{"osm_id":"5784913808","tag":{"amenity":"waste_basket"}},"type":"Feature"},
	{"geometry":{"coordinates":[2.35397,48.747578],"type":"Point"},"properties":{"osm_id":"5784913810","tag":{"amenity":"waste_basket"}},"type":"Feature"},
	{"geometry":{"coordinates":[2.353981,48.748421],"type":"Point"},"properties":{"osm_id":"5784913811","tag":{"amenity":"waste_basket"}},"type":"Feature"},
	{"geometry":{"coordinates":[2.35395,48.748392],"type":"Point"},"properties":{"osm_id":"5784913812","tag":{"amenity":"waste_basket"}},"type":"Feature"},
	{"geometry":{"coordinates":[2.370692,48.701252],"type":"Point"},"properties":{"osm_id":"5809512358","tag":{"amenity":"waste_basket","colour":"black","material":"metal","operator":"Mairie d'Ahtis-Mons","waste":"trash"}},"type":"Feature"},
	{"geometry":{"coordinates":[2.348738,48.744872],"type":"Point"},"properties":{"osm_id":"5863138951","tag":{"amenity":"waste_basket"}},"type":"Feature"},
	{"geometry":{"coordinates":[2.294554,48.701967],"type":"Point"},"properties":{"osm_id":"5894644118","tag":{"amenity":"waste_basket"}},"type":"Feature"},
	{"geometry":{"coordinates":[2.296107,48.701857],"type":"Point"},"properties":{"osm_id":"5894644129","tag":{"amenity":"waste_basket"}},"type":"Feature"},
	{"geometry":{"coordinates":[2.294116,48.701702],"type":"Point"},"properties":{"osm_id":"5894644221","tag":{"amenity":"waste_basket"}},"type":"Feature"},
	{"geometry":{"coordinates":[2.294244,48.701823],"type":"Point"},"properties":{"osm_id":"5894644222","tag":{"amenity":"waste_basket"}},"type":"Feature"},
	{"geometry":{"coordinates":[2.296636,48.703828],"type":"Point"},"properties":{"osm_id":"5894949529","tag":{"amenity":"waste_basket"}},"type":"Feature"},
	{"geometry":{"coordinates":[2.350514,48.70542],"type":"Point"},"properties":{"osm_id":"5900601485","tag":{"amenity":"waste_basket"}},"type":"Feature"},
	{"geometry":{"coordinates":[2.352216,48.705463],"type":"Point"},"properties":{"osm_id":"5900601486","tag":{"amenity":"waste_basket"}},"type":"Feature"},
	{"geometry":{"coordinates":[2.287301,48.724296],"type":"Point"},"properties":{"osm_id":"5940368040","tag":{"amenity":"waste_basket"}},"type":"Feature"},
	{"geometry":{"coordinates":[2.285977,48.726075],"type":"Point"},"properties":{"osm_id":"5940374388","tag":{"amenity":"waste_basket"}},"type":"Feature"},
	{"geometry":{"coordinates":[2.288154,48.725947],"type":"Point"},"properties":{"osm_id":"5940374390","tag":{"amenity":"waste_basket"}},"type":"Feature"},
	{"geometry":{"coordinates":[2.289394,48.726745],"type":"Point"},"properties":{"osm_id":"5940374393","tag":{"amenity":"waste_basket"}},"type":"Feature"},
	{"geometry":{"coordinates":[2.312603,48.748125],"type":"Point"},"properties":{"osm_id":"6049388489","tag":{"amenity":"waste_basket"}},"type":"Feature"},
	{"geometry":{"coordinates":[2.312689,48.748029],"type":"Point"},"properties":{"osm_id":"6049388493","tag":{"amenity":"waste_basket"}},"type":"Feature"},
	{"geometry":{"coordinates":[2.31255,48.747868],"type":"Point"},"properties":{"osm_id":"6049474227","tag":{"amenity":"waste_basket"}},"type":"Feature"},
	{"geometry":{"coordinates":[2.312828,48.748445],"type":"Point"},"properties":{"osm_id":"6049474276","tag":{"amenity":"waste_basket"}},"type":"Feature"},
	{"geometry":{"coordinates":[2.312627,48.748388],"type":"Point"},"properties":{"osm_id":"6049474277","tag":{"amenity":"waste_basket"}},"type":"Feature"},
	{"geometry":{"coordinates":[2.352937,48.740588],"type":"Point"},"properties":{"osm_id":"6055150007","tag":{"amenity":"waste_basket"}},"type":"Feature"},
	{"geometry":{"coordinates":[2.352505,48.740456],"type":"Point"},"properties":{"osm_id":"6055150010","tag":{"amenity":"waste_basket"}},"type":"Feature"},
	{"geometry":{"coordinates":[2.352189,48.740385],"type":"Point"},"properties":{"osm_id":"6055150012","tag":{"amenity":"waste_basket"}},"type":"Feature"},
	{"geometry":{"coordinates":[2.352759,48.741592],"type":"Point"},"properties":{"osm_id":"6055150034","tag":{"amenity":"waste_basket"}},"type":"Feature"},
	{"geometry":{"coordinates":[2.352875,48.74171],"type":"Point"},"properties":{"osm_id":"6055150035","tag":{"amenity":"waste_basket"}},"type":"Feature"},
	{"geometry":{"coordinates":[2.352807,48.741842],"type":"Point"},"properties":{"osm_id":"6055150037","tag":{"amenity":"waste_basket"}},"type":"Feature"},
	{"geometry":{"coordinates":[2.352694,48.74172],"type":"Point"},"properties":{"osm_id":"6055150044","tag":{"amenity":"waste_basket"}},"type":"Feature"},
	{"geometry":{"coordinates":[2.353165,48.740491],"type":"Point"},"properties":{"osm_id":"6055150049","tag":{"amenity":"waste_basket"}},"type":"Feature"},
	{"geometry":{"coordinates":[2.352979,48.740366],"type":"Point"},"properties":{"osm_id":"6055180423","tag":{"amenity":"waste_basket"}},"type":"Feature"},
	{"geometry":{"coordinates":[2.352925,48.740626],"type":"Point"},"properties":{"osm_id":"6055180425","tag":{"amenity":"waste_basket"}},"type":"Feature"},
	{"geometry":{"coordinates":[2.370208,48.746014],"type":"Point"},"properties":{"osm_id":"6055392508","tag":{"amenity":"waste_basket"}},"type":"Feature"},
	{"geometry":{"coordinates":[2.36914,48.747041],"type":"Point"},"properties":{"osm_id":"6055392513","tag":{"amenity":"waste_basket"}},"type":"Feature"},
	{"geometry":{"coordinates":[2.370248,48.74627],"type":"Point"},"properties":{"osm_id":"6055392515","tag":{"amenity":"waste_basket"}},"type":"Feature"},
	{"geometry":{"coordinates":[2.372854,48.748153],"type":"Point"},"properties":{"osm_id":"6055392530","tag":{"amenity":"waste_basket","level":"0"}},"type":"Feature"},
	{"geometry":{"coordinates":[2.372942,48.748181],"type":"Point"},"properties":{"osm_id":"6055392542","tag":{"amenity":"waste_basket","level":"0"}},"type":"Feature"},
	{"geometry":{"coordinates":[2.372815,48.748301],"type":"Point"},"properties":{"osm_id":"6055392557","tag":{"amenity":"waste_basket","level":"-1"}},"type":"Feature"},
	{"geometry":{"coordinates":[2.306294,48.722207],"type":"Point"},"properties":{"osm_id":"6173280492","tag":{"amenity":"waste_basket"}},"type":"Feature"},
	{"geometry":{"coordinates":[2.306512,48.722076],"type":"Point"},"properties":{"osm_id":"6173280550","tag":{"amenity":"waste_basket"}},"type":"Feature"},
	{"geometry":{"coordinates":[2.295045,48.696861],"type":"Point"},"properties":{"osm_id":"6187840854","tag":{"amenity":"recycling","location":"underground","recycling:paper_packaging":"yes","recycling:waste":"yes","recycling_type":"container"}},"type":"Feature"},
	{"geometry":{"coordinates":[2.351769,48.745475],"type":"Point"},"properties":{"osm_id":"6210430855","tag":{"amenity":"recycling","recycling:glass_bottles":"yes","recycling_type":"container"}},"type":"Feature"},
	{"geometry":{"coordinates":[2.332454,48.738574],"type":"Point"},"properties":{"osm_id":"6314542881","tag":{"amenity":"waste_basket"}},"type":"Feature"},
	{"geometry":{"coordinates":[2.329172,48.733911],"type":"Point"},"properties":{"osm_id":"6314543296","tag":{"amenity":"waste_basket"}},"type":"Feature"},
	{"geometry":{"coordinates":[2.329509,48.733902],"type":"Point"},"properties":{"osm_id":"6314543461","tag":{"amenity":"waste_basket"}},"type":"Feature"},
	{"geometry":{"coordinates":[2.285567,48.727998],"type":"Point"},"properties":{"osm_id":"6450779493","tag":{"amenity":"waste_basket","waste":"trash"}},"type":"Feature"},
	{"geometry":{"coordinates":[2.285359,48.728346],"type":"Point"},"properties":{"osm_id":"6450779505","tag":{"amenity":"waste_basket","waste":"trash"}},"type":"Feature"},
	{"geometry":{"coordinates":[2.293567,48.747563],"type":"Point"},"properties":{"osm_id":"6469895093","tag":{"amenity":"waste_basket"}},"type":"Feature"},
	{"geometry":{"coordinates":[2.293665,48.747695],"type":"Point"},"properties":{"osm_id":"6469895094","tag":{"amenity":"waste_basket"}},"type":"Feature"},
	{"geometry":{"coordinates":[2.288612,48.745798],"type":"Point"},"properties":{"osm_id":"6469895095","tag":{"amenity":"waste_basket"}},"type":"Feature"},
	{"geometry":{"coordinates":[2.289113,48.743635],"type":"Point"},"properties":{"osm_id":"6511569285","tag":{"amenity":"recycling"}},"type":"Feature"},
	{"geometry":{"coordinates":[2.293983,48.734831],"type":"Point"},"properties":{"osm_id":"6515218413","tag":{"amenity":"recycling"}},"type":"Feature"},
	{"geometry":{"coordinates":[2.294804,48.73506],"type":"Point"},"properties":{"osm_id":"6515218415","tag":{"amenity":"recycling"}},"type":"Feature"},
	{"geometry":{"coordinates":[2.289884,48.737318],"type":"Point"},"properties":{"osm_id":"6548568436","tag":{"amenity":"waste_basket"}},"type":"Feature"},
	{"geometry":{"coordinates":[2.354344,48.746126],"type":"Point"},"properties":{"osm_id":"6732274386","tag":{"amenity":"waste_basket"}},"type":"Feature"},
	{"geometry":{"coordinates":[2.372196,48.715316],"type":"Point"},"properties":{"osm_id":"6912754091","tag":{"amenity":"waste_basket"}},"type":"Feature"},
	{"geometry":{"coordinates":[2.371665,48.715506],"type":"Point"},"properties":{"osm_id":"6912754092","tag":{"amenity":"waste_basket"}},"type":"Feature"},
	{"geometry":{"coordinates":[2.371147,48.708817],"type":"Point"},"properties":{"osm_id":"6915909716","tag":{"amenity":"waste_basket"}},"type":"Feature"},
	{"geometry":{"coordinates":[2.359079,48.702841],"type":"Point"},"properties":{"osm_id":"6927309932","tag":{"amenity":"waste_basket","colour":"black","material":"metal","operator":"Mairie d'Athis-Mons","waste":"trash"}},"type":"Feature"},
	{"geometry":{"coordinates":[2.362226,48.70362],"type":"Point"},"properties":{"osm_id":"6927310061","tag":{"amenity":"waste_basket","colour":"black","material":"metal","operator":"Mairie d'Athis-Mons","waste":"trash"}},"type":"Feature"},
	{"geometry":{"coordinates":[2.362929,48.703552],"type":"Point"},"properties":{"osm_id":"6927310062","tag":{"amenity":"waste_basket","colour":"black","material":"metal","operator":"Mairie d'Athis-Mons","waste":"trash"}},"type":"Feature"},
	{"geometry":{"coordinates":[2.363141,48.703486],"type":"Point"},"properties":{"osm_id":"6927310063","tag":{"amenity":"waste_basket","colour":"black","material":"metal","operator":"Mairie d'Athis-Mons","waste":"trash"}},"type":"Feature"},
	{"geometry":{"coordinates":[2.36324,48.704789],"type":"Point"},"properties":{"osm_id":"6927310320","ref":"ATH 019","tag":{"amenity":"recycling","location":"underground","operator":"Grand-Orly Seine Bi\u00c3\u00a8vre","recycling:glass":"yes","recycling:glass_bottles":"yes","recycling_type":"container"}},"type":"Feature"},
	{"geometry":{"coordinates":[2.363241,48.704771],"type":"Point"},"properties":{"osm_id":"6927310321","ref":"ATH 018","tag":{"amenity":"recycling","location":"underground","operator":"Grand-Orly Seine Bi\u00c3\u00a8vre","recycling:waste":"yes","recycling_type":"container"}},"type":"Feature"},
	{"geometry":{"coordinates":[2.363241,48.704752],"type":"Point"},"properties":{"osm_id":"6927310322","ref":"ATH 017","tag":{"amenity":"recycling","location":"underground","operator":"Grand-Orly Seine Bi\u00c3\u00a8vre","recycling:waste":"yes","recycling_type":"container"}},"type":"Feature"},
	{"geometry":{"coordinates":[2.363241,48.704734],"type":"Point"},"properties":{"osm_id":"6927310323","ref":"ATH 016","tag":{"amenity":"recycling","location":"underground","operator":"Grand-Orly Seine Bi\u00c3\u00a8vre","recycling:cans":"yes","recycling:magazines":"yes","recycling:metal_packaging":"yes","recycling:packaging":"yes","recycling:paper":"yes","recycling:paper_packaging":"yes","recycling:plastic":"yes","recycling:plastic_bottles":"yes","recycling:plastic_packaging":"yes","recycling_type":"container"}},"type":"Feature"},
	{"geometry":{"coordinates":[2.363252,48.704517],"type":"Point"},"properties":{"osm_id":"6927310324","tag":{"amenity":"recycling","location":"underground","operator":"Grand-Orly Seine Bi\u00c3\u00a8vre","recycling_type":"container"}},"type":"Feature"},
	{"geometry":{"coordinates":[2.363252,48.704498],"type":"Point"},"properties":{"osm_id":"6927310325","tag":{"amenity":"recycling","location":"underground","operator":"Grand-Orly Seine Bi\u00c3\u00a8vre","recycling_type":"container"}},"type":"Feature"},
	{"geometry":{"coordinates":[2.363253,48.704481],"type":"Point"},"properties":{"osm_id":"6927310326","tag":{"amenity":"recycling","location":"underground","operator":"Grand-Orly Seine Bi\u00c3\u00a8vre","recycling_type":"container"}},"type":"Feature"},
	{"geometry":{"coordinates":[2.363204,48.705107],"type":"Point"},"properties":{"osm_id":"6927310327","tag":{"amenity":"waste_basket","colour":"black","material":"metal","operator":"Mairie d'Athis-Mons","waste":"trash"}},"type":"Feature"},
	{"geometry":{"coordinates":[2.363384,48.704725],"type":"Point"},"properties":{"osm_id":"6927310328","tag":{"amenity":"waste_basket","colour":"black","material":"metal","operator":"Mairie d'Athis-Mons","waste":"trash"}},"type":"Feature"},
	{"geometry":{"coordinates":[2.363421,48.704557],"type":"Point"},"properties":{"osm_id":"6927310337","tag":{"amenity":"waste_basket","colour":"black","material":"metal","operator":"Mairie d'Athis-Mons","waste":"trash"}},"type":"Feature"},
	{"geometry":{"coordinates":[2.36319,48.704111],"type":"Point"},"properties":{"osm_id":"6927310338","tag":{"amenity":"waste_basket","colour":"black","material":"metal","operator":"Mairie d'Athis-Mons","waste":"trash"}},"type":"Feature"},
	{"geometry":{"coordinates":[2.363259,48.703805],"type":"Point"},"properties":{"osm_id":"6927310339","tag":{"amenity":"waste_basket","colour":"black","material":"metal","operator":"Mairie d'Athis-Mons","waste":"trash"}},"type":"Feature"},
	{"geometry":{"coordinates":[2.363391,48.703222],"type":"Point"},"properties":{"osm_id":"6927310343","tag":{"amenity":"waste_basket","colour":"black","material":"metal","operator":"Mairie d'Athis-Mons","waste":"trash"}},"type":"Feature"},
	{"geometry":{"coordinates":[2.36301,48.705626],"type":"Point"},"properties":{"osm_id":"6927342494","tag":{"amenity":"waste_basket","colour":"black","material":"metal","operator":"Mairie d'Athis-Mons","waste":"trash"}},"type":"Feature"},
	{"geometry":{"coordinates":[2.363089,48.702571],"type":"Point"},"properties":{"osm_id":"6928001036","tag":{"amenity":"waste_basket","colour":"black","material":"metal","operator":"Mairie d'Athis-Mons","waste":"trash"}},"type":"Feature"},
	{"geometry":{"coordinates":[2.363251,48.70271],"type":"Point"},"properties":{"osm_id":"6928001037","tag":{"amenity":"waste_basket","colour":"black","material":"metal","operator":"Mairie d'Athis-Mons","waste":"trash"}},"type":"Feature"},
	{"geometry":{"coordinates":[2.363324,48.702514],"type":"Point"},"properties":{"osm_id":"6928001038","tag":{"amenity":"waste_basket","colour":"black","material":"metal","operator":"Mairie d'Athis-Mons","waste":"trash"}},"type":"Feature"},
	{"geometry":{"coordinates":[2.362878,48.705012],"type":"Point"},"properties":{"osm_id":"6929796126","ref":"ATH 022","tag":{"amenity":"recycling","location":"underground","operator":"Grand-Orly Seine Bi\u00c3\u00a8vre","recycling:cans":"yes","recycling:magazines":"yes","recycling:metal_packaging":"yes","recycling:paper":"yes","recycling:plastic":"yes","recycling:plastic_bottles":"yes","recycling:plastic_packaging":"yes","recycling:plastics":"yes","recycling_type":"container"}},"type":"Feature"},
	{"geometry":{"coordinates":[2.362904,48.705012],"type":"Point"},"properties":{"osm_id":"6929796127","ref":"ATH 021","tag":{"amenity":"recycling","location":"underground","operator":"Grand-Orly Seine Bi\u00c3\u00a8vre","recycling:waste":"yes","recycling_type":"container"}},"type":"Feature"},
	{"geometry":{"coordinates":[2.36293,48.705012],"type":"Point"},"properties":{"osm_id":"6929796128","ref":"ATH 020","tag":{"amenity":"recycling","location":"underground","operator":"Grand-Orly Seine Bi\u00c3\u00a8vre","recycling:glass":"yes","recycling:glass_bottles":"yes","recycling_type":"container"}},"type":"Feature"},
	{"geometry":{"coordinates":[2.371284,48.701023],"type":"Point"},"properties":{"osm_id":"6934967337","tag":{"amenity":"waste_basket","colour":"black","material":"metal","operator":"Mairie d'Athis-Mons","waste":"trash"}},"type":"Feature"},
	{"geometry":{"coordinates":[2.371074,48.701041],"type":"Point"},"properties":{"osm_id":"6934967338","tag":{"amenity":"waste_basket","colour":"black","material":"metal","operator":"Mairie d'Athis-Mons","waste":"trash"}},"type":"Feature"},
	{"geometry":{"coordinates":[2.370865,48.70106],"type":"Point"},"properties":{"osm_id":"6934967339","tag":{"amenity":"waste_basket","colour":"black","material":"metal","operator":"Mairie d'Athis-Mons","waste":"trash"}},"type":"Feature"},
	{"geometry":{"coordinates":[2.370656,48.701079],"type":"Point"},"properties":{"osm_id":"6934967340","tag":{"amenity":"waste_basket","colour":"black","material":"metal","operator":"Mairie d'Athis-Mons","waste":"trash"}},"type":"Feature"},
	{"geometry":{"coordinates":[2.370609,48.70109],"type":"Point"},"properties":{"osm_id":"6934967341","tag":{"amenity":"waste_basket","colour":"black","material":"metal","operator":"Mairie d'Athis-Mons","waste":"trash"}},"type":"Feature"},
	{"geometry":{"coordinates":[2.370683,48.701421],"type":"Point"},"properties":{"osm_id":"6934975988","tag":{"amenity":"waste_basket","colour":"black","material":"metal","operator":"Mairie d'Athis-Mons","waste":"trash"}},"type":"Feature"},
	{"geometry":{"coordinates":[2.371535,48.708865],"type":"Point"},"properties":{"osm_id":"6935197331","tag":{"amenity":"waste_basket","colour":"black","material":"metal","operator":"Mairie d'Athis-Mons","waste":"trash"}},"type":"Feature"},
	{"geometry":{"coordinates":[2.371746,48.709152],"type":"Point"},"properties":{"osm_id":"6935357995","tag":{"amenity":"waste_basket","material":"wood","operator":"Mc Donald's"}},"type":"Feature"},
	{"geometry":{"coordinates":[2.371746,48.709125],"type":"Point"},"properties":{"osm_id":"6935357996","tag":{"amenity":"waste_basket","material":"wood","operator":"Mc Donald's"}},"type":"Feature"},
	{"geometry":{"coordinates":[2.371637,48.709096],"type":"Point"},"properties":{"osm_id":"6935357997","tag":{"amenity":"waste_basket","material":"wood","operator":"Mc Donald's"}},"type":"Feature"},
	{"geometry":{"coordinates":[2.371684,48.709151],"type":"Point"},"properties":{"osm_id":"6935357998","tag":{"amenity":"waste_basket","material":"wood","operator":"Mc Donald's"}},"type":"Feature"},
	{"geometry":{"coordinates":[2.364707,48.70466],"type":"Point"},"properties":{"osm_id":"6996184182","tag":{"amenity":"waste_basket","waste":"trash"}},"type":"Feature"},
	{"geometry":{"coordinates":[2.364063,48.70564],"type":"Point"},"properties":{"osm_id":"6996780337","tag":{"amenity":"waste_basket","waste":"trash"}},"type":"Feature"},
	{"geometry":{"coordinates":[2.360647,48.702372],"type":"Point"},"properties":{"osm_id":"6997052424","tag":{"amenity":"waste_basket","waste":"trash"}},"type":"Feature"},
	{"geometry":{"coordinates":[2.372279,48.706123],"type":"Point"},"properties":{"osm_id":"7001583825","tag":{"amenity":"waste_basket","waste":"trash"}},"type":"Feature"},
	{"geometry":{"coordinates":[2.359986,48.70297],"type":"Point"},"properties":{"osm_id":"7031549239","tag":{"amenity":"recycling","location":"underground","recycling_type":"container"}},"type":"Feature"},
	{"geometry":{"coordinates":[2.360013,48.702969],"type":"Point"},"properties":{"osm_id":"7031549240","tag":{"amenity":"recycling","location":"underground","recycling_type":"container"}},"type":"Feature"},
	{"geometry":{"coordinates":[2.360038,48.702971],"type":"Point"},"properties":{"osm_id":"7031549241","tag":{"amenity":"recycling","location":"underground","recycling_type":"container"}},"type":"Feature"},
	{"geometry":{"coordinates":[2.359457,48.702958],"type":"Point"},"properties":{"osm_id":"7031549242","tag":{"amenity":"recycling","location":"underground","recycling_type":"container"}},"type":"Feature"},
	{"geometry":{"coordinates":[2.359432,48.702958],"type":"Point"},"properties":{"osm_id":"7031549243","tag":{"amenity":"recycling","location":"underground","recycling_type":"container"}},"type":"Feature"},
	{"geometry":{"coordinates":[2.358973,48.703024],"type":"Point"},"properties":{"osm_id":"7031549244","tag":{"amenity":"waste_basket","colour":"black","material":"metal","operator":"Mairie d'Ahtis-Mons","waste":"trash"}},"type":"Feature"},
	{"geometry":{"coordinates":[2.358815,48.702392],"type":"Point"},"properties":{"osm_id":"7031558196","tag":{"amenity":"recycling","location":"underground","recycling_type":"container"}},"type":"Feature"},
	{"geometry":{"coordinates":[2.358841,48.702389],"type":"Point"},"properties":{"osm_id":"7031558197","tag":{"amenity":"recycling","location":"underground","recycling_type":"container"}},"type":"Feature"},
	{"geometry":{"coordinates":[2.359229,48.70234],"type":"Point"},"properties":{"osm_id":"7031558198","tag":{"amenity":"recycling","location":"underground","recycling_type":"container"}},"type":"Feature"},
	{"geometry":{"coordinates":[2.359252,48.702337],"type":"Point"},"properties":{"osm_id":"7031558199","tag":{"amenity":"recycling","location":"underground","recycling_type":"container"}},"type":"Feature"},
	{"geometry":{"coordinates":[2.359286,48.702333],"type":"Point"},"properties":{"osm_id":"7031558200","tag":{"amenity":"recycling","location":"underground","recycling_type":"container"}},"type":"Feature"},
	{"geometry":{"coordinates":[2.359074,48.703442],"type":"Point"},"properties":{"osm_id":"7031558203","tag":{"amenity":"recycling","location":"underground","recycling_type":"container"}},"type":"Feature"},
	{"geometry":{"coordinates":[2.359074,48.70346],"type":"Point"},"properties":{"osm_id":"7031558204","tag":{"amenity":"recycling","location":"underground","recycling_type":"container"}},"type":"Feature"},
	{"geometry":{"coordinates":[2.359073,48.703475],"type":"Point"},"properties":{"osm_id":"7031558205","tag":{"amenity":"recycling","location":"underground","recycling_type":"container"}},"type":"Feature"},
	{"geometry":{"coordinates":[2.358959,48.70344],"type":"Point"},"properties":{"osm_id":"7031558206","tag":{"amenity":"recycling","location":"underground","recycling_type":"container"}},"type":"Feature"},
	{"geometry":{"coordinates":[2.358962,48.70342],"type":"Point"},"properties":{"osm_id":"7031558207","tag":{"amenity":"recycling","location":"underground","recycling_type":"container"}},"type":"Feature"},
	{"geometry":{"coordinates":[2.358963,48.7034],"type":"Point"},"properties":{"osm_id":"7031558208","tag":{"amenity":"recycling","location":"underground","recycling_type":"container"}},"type":"Feature"},
	{"geometry":{"coordinates":[2.358963,48.703381],"type":"Point"},"properties":{"osm_id":"7031558209","tag":{"amenity":"recycling","location":"underground","recycling_type":"container"}},"type":"Feature"},
	{"geometry":{"coordinates":[2.361751,48.705214],"type":"Point"},"properties":{"osm_id":"7043520556","tag":{"amenity":"recycling","location":"underground","recycling_type":"container"}},"type":"Feature"},
	{"geometry":{"coordinates":[2.36175,48.705234],"type":"Point"},"properties":{"osm_id":"7043520557","tag":{"amenity":"recycling","location":"underground","recycling_type":"container"}},"type":"Feature"},
	{"geometry":{"coordinates":[2.360671,48.704971],"type":"Point"},"properties":{"osm_id":"7043520558","tag":{"amenity":"recycling","location":"underground","recycling:organic":"yes","recycling:waste":"yes","recycling_type":"container"}},"type":"Feature"},
	{"geometry":{"coordinates":[2.3607,48.704972],"type":"Point"},"properties":{"osm_id":"7043520559","tag":{"amenity":"recycling","location":"underground","recycling:beverage_cartons":"yes","recycling:books":"yes","recycling:cans":"yes","recycling:cartons":"yes","recycling:magazines":"yes","recycling:paper":"yes","recycling:paper_packaging":"yes","recycling:plastic":"yes","recycling:plastic_packaging":"yes","recycling_type":"container"}},"type":"Feature"},
	{"geometry":{"coordinates":[2.361739,48.705507],"type":"Point"},"properties":{"osm_id":"7043531515","tag":{"amenity":"recycling","location":"underground","recycling:beverage_cartons":"yes","recycling:books":"yes","recycling:cans":"yes","recycling:cartons":"yes","recycling:magazines":"yes","recycling:paper":"yes","recycling:paper_packaging":"yes","recycling:plastic":"yes","recycling:plastic_packaging":"yes","recycling_type":"container"}},"type":"Feature"},
	{"geometry":{"coordinates":[2.36174,48.705487],"type":"Point"},"properties":{"osm_id":"7043531516","tag":{"amenity":"recycling","location":"underground","recycling:organic":"yes","recycling:waste":"yes","recycling_type":"container"}},"type":"Feature"},
	{"geometry":{"coordinates":[2.36135,48.704982],"type":"Point"},"properties":{"osm_id":"7043531517","tag":{"amenity":"recycling","location":"underground","recycling:organic":"yes","recycling:waste":"yes","recycling_type":"container"}},"type":"Feature"},
	{"geometry":{"coordinates":[2.36138,48.704983],"type":"Point"},"properties":{"osm_id":"7043531518","tag":{"amenity":"recycling","location":"underground","recycling:beverage_cartons":"yes","recycling:books":"yes","recycling:cans":"yes","recycling:cartons":"yes","recycling:magazines":"yes","recycling:paper":"yes","recycling:paper_packaging":"yes","recycling:plastic":"yes","recycling:plastic_packaging":"yes","recycling_type":"container"}},"type":"Feature"},
	{"geometry":{"coordinates":[2.347523,48.744175],"type":"Point"},"properties":{"osm_id":"7043653255","tag":{"amenity":"waste_basket"}},"type":"Feature"},
	{"geometry":{"coordinates":[2.347093,48.743338],"type":"Point"},"properties":{"osm_id":"7043661032","tag":{"amenity":"waste_basket"}},"type":"Feature"},
	{"geometry":{"coordinates":[2.365278,48.703301],"type":"Point"},"properties":{"osm_id":"7044404127","tag":{"amenity":"waste_basket","waste":"trash"}},"type":"Feature"},
	{"geometry":{"coordinates":[2.365314,48.70303],"type":"Point"},"properties":{"osm_id":"7044404128","tag":{"amenity":"waste_basket","colour":"black","material":"metal","operator":"Mairie d'Ahtis-Mons","waste":"trash"}},"type":"Feature"},
	{"geometry":{"coordinates":[2.365343,48.702343],"type":"Point"},"properties":{"osm_id":"7044404140","tag":{"amenity":"waste_basket","material":"wood","operator":"Mairie d'Ahtis-Mons","waste":"trash"}},"type":"Feature"},
	{"geometry":{"coordinates":[2.364588,48.705134],"type":"Point"},"properties":{"osm_id":"7044706238","tag":{"amenity":"waste_basket","waste":"trash"}},"type":"Feature"},
	{"geometry":{"coordinates":[2.365598,48.70542],"type":"Point"},"properties":{"osm_id":"7044706247","tag":{"amenity":"waste_basket","waste":"trash"}},"type":"Feature"},
	{"geometry":{"coordinates":[2.364916,48.705572],"type":"Point"},"properties":{"osm_id":"7044706264","tag":{"amenity":"waste_basket","waste":"trash"}},"type":"Feature"},
	{"geometry":{"coordinates":[2.358727,48.702778],"type":"Point"},"properties":{"osm_id":"7046878748","tag":{"amenity":"recycling","location":"underground","recycling_type":"container"}},"type":"Feature"},
	{"geometry":{"coordinates":[2.35872,48.702766],"type":"Point"},"properties":{"osm_id":"7046878749","tag":{"amenity":"recycling","location":"underground","recycling_type":"container"}},"type":"Feature"},
	{"geometry":{"coordinates":[2.358712,48.702749],"type":"Point"},"properties":{"osm_id":"7046878750","tag":{"amenity":"recycling","location":"underground","recycling_type":"container"}},"type":"Feature"},
	{"geometry":{"coordinates":[2.37111,48.711189],"type":"Point"},"properties":{"osm_id":"7128229791","tag":{"amenity":"waste_basket","waste":"trash"}},"type":"Feature"},
	{"geometry":{"coordinates":[2.371267,48.708307],"type":"Point"},"properties":{"osm_id":"7128238400","tag":{"amenity":"waste_basket","waste":"trash"}},"type":"Feature"},
	{"geometry":{"coordinates":[2.371264,48.70853],"type":"Point"},"properties":{"osm_id":"7128238402","tag":{"amenity":"waste_basket","waste":"trash"}},"type":"Feature"},
	{"geometry":{"coordinates":[2.371192,48.708719],"type":"Point"},"properties":{"osm_id":"7128238403","tag":{"amenity":"waste_basket","waste":"trash"}},"type":"Feature"},
	{"geometry":{"coordinates":[2.371183,48.709082],"type":"Point"},"properties":{"osm_id":"7128238406","tag":{"amenity":"waste_basket","waste":"trash"}},"type":"Feature"},
	{"geometry":{"coordinates":[2.371029,48.712761],"type":"Point"},"properties":{"osm_id":"7128238422","tag":{"amenity":"waste_basket","waste":"trash"}},"type":"Feature"},
	{"geometry":{"coordinates":[2.370981,48.713224],"type":"Point"},"properties":{"osm_id":"7128238423","tag":{"amenity":"waste_basket","waste":"trash"}},"type":"Feature"},
	{"geometry":{"coordinates":[2.371107,48.711508],"type":"Point"},"properties":{"osm_id":"7128238424","tag":{"amenity":"waste_basket","waste":"trash"}},"type":"Feature"},
	{"geometry":{"coordinates":[2.371981,48.700636],"type":"Point"},"properties":{"osm_id":"7132822442","tag":{"amenity":"waste_basket","waste":"trash"}},"type":"Feature"},
	{"geometry":{"coordinates":[2.372696,48.698482],"type":"Point"},"properties":{"osm_id":"7145666999","tag":{"amenity":"waste_basket","colour":"black","material":"metal","operator":"Mairie d'Athis-Mons","waste":"trash"}},"type":"Feature"},
	{"geometry":{"coordinates":[2.37172,48.700359],"type":"Point"},"properties":{"osm_id":"7149090352","tag":{"amenity":"waste_basket","waste":"trash"}},"type":"Feature"},
	{"geometry":{"coordinates":[2.371413,48.700829],"type":"Point"},"properties":{"osm_id":"7149090355","tag":{"amenity":"waste_basket","colour":"black","material":"metal","operator":"Mairie d'Ahtis-Mons","waste":"trash"}},"type":"Feature"},
	{"geometry":{"coordinates":[2.371504,48.703525],"type":"Point"},"properties":{"osm_id":"7204004281","tag":{"amenity":"waste_basket","waste":"trash"}},"type":"Feature"},
	{"geometry":{"coordinates":[2.371839,48.703551],"type":"Point"},"properties":{"osm_id":"7204005790","tag":{"amenity":"waste_basket","waste":"trash"}},"type":"Feature"},
	{"geometry":{"coordinates":[2.369225,48.731599],"type":"Point"},"properties":{"osm_id":"7205700590","tag":{"amenity":"waste_basket","waste":"trash"}},"type":"Feature"},
	{"geometry":{"coordinates":[2.368739,48.732761],"type":"Point"},"properties":{"osm_id":"7205700592","tag":{"amenity":"waste_basket","waste":"trash"}},"type":"Feature"},
	{"geometry":{"coordinates":[2.362937,48.705488],"type":"Point"},"properties":{"osm_id":"7230052157","tag":{"amenity":"waste_basket","colour":"black","material":"metal","operator":"Mairie d'Athis-Mons","waste":"trash"}},"type":"Feature"},
	{"geometry":{"coordinates":[2.367668,48.703418],"type":"Point"},"properties":{"osm_id":"7230064753","tag":{"amenity":"waste_basket","colour":"black","material":"metal","operator":"Mairie d'Athis-Mons","waste":"trash"}},"type":"Feature"},
	{"geometry":{"coordinates":[2.372801,48.69941],"type":"Point"},"properties":{"osm_id":"7271546346","tag":{"amenity":"waste_basket","waste":"trash"}},"type":"Feature"},
	{"geometry":{"coordinates":[2.358042,48.705542],"type":"Point"},"properties":{"osm_id":"7274635182","tag":{"amenity":"waste_basket","waste":"trash"}},"type":"Feature"},
	{"geometry":{"coordinates":[2.363464,48.705781],"type":"Point"},"properties":{"osm_id":"7279770093","tag":{"amenity":"waste_basket","waste":"trash"}},"type":"Feature"},
	{"geometry":{"coordinates":[2.362627,48.705755],"type":"Point"},"properties":{"osm_id":"7279770095","tag":{"amenity":"waste_basket","waste":"trash"}},"type":"Feature"},
	{"geometry":{"coordinates":[2.364819,48.705409],"type":"Point"},"properties":{"osm_id":"7279770107","tag":{"amenity":"waste_basket","waste":"trash"}},"type":"Feature"},
	{"geometry":{"coordinates":[2.362427,48.704162],"type":"Point"},"properties":{"osm_id":"7279789007","tag":{"amenity":"waste_basket","waste":"trash"}},"type":"Feature"},
	{"geometry":{"coordinates":[2.363201,48.705218],"type":"Point"},"properties":{"osm_id":"7279789029","tag":{"amenity":"waste_basket","colour":"black","material":"metal","operator":"Mairie d'Athis-Mons","waste":"trash"}},"type":"Feature"},
	{"geometry":{"coordinates":[2.360149,48.704963],"type":"Point"},"properties":{"osm_id":"7279842308","tag":{"amenity":"recycling","location":"underground","recycling:organic":"yes","recycling:waste":"yes","recycling_type":"container"}},"type":"Feature"},
	{"geometry":{"coordinates":[2.360118,48.704963],"type":"Point"},"properties":{"osm_id":"7279842309","tag":{"amenity":"recycling","location":"underground","recycling:beverage_cartons":"yes","recycling:books":"yes","recycling:cans":"yes","recycling:cartons":"yes","recycling:magazines":"yes","recycling:paper":"yes","recycling:paper_packaging":"yes","recycling:plastic":"yes","recycling:plastic_packaging":"yes","recycling_type":"container"}},"type":"Feature"},
	{"geometry":{"coordinates":[2.372442,48.698361],"type":"Point"},"properties":{"osm_id":"7284574600","tag":{"amenity":"waste_basket","colour":"black","material":"metal","operator":"Mairie d'Athis-Mons","waste":"trash"}},"type":"Feature"},
	{"geometry":{"coordinates":[2.371327,48.70627],"type":"Point"},"properties":{"osm_id":"7293534324","tag":{"amenity":"waste_basket","colour":"black","material":"metal","operator":"Mairie d'Athis-Mons","waste":"trash"}},"type":"Feature"},
	{"geometry":{"coordinates":[2.37129,48.697924],"type":"Point"},"properties":{"osm_id":"7293584659","tag":{"amenity":"waste_basket","colour":"black","material":"metal","operator":"Mairie d'Athis-Mons","waste":"trash"}},"type":"Feature"},
	{"geometry":{"coordinates":[2.368482,48.696214],"type":"Point"},"properties":{"osm_id":"7293584664","tag":{"amenity":"waste_basket","colour":"black","material":"metal","operator":"Mairie de Juvisy-sur-Orge","waste":"trash"}},"type":"Feature"},
	{"geometry":{"coordinates":[2.366378,48.69447],"type":"Point"},"properties":{"osm_id":"7293584681","tag":{"amenity":"waste_basket","colour":"black","material":"metal","operator":"Mairie d'Athis-Mons","waste":"trash"}},"type":"Feature"},
	{"geometry":{"coordinates":[2.371747,48.699427],"type":"Point"},"properties":{"osm_id":"7293589638","tag":{"amenity":"waste_basket","colour":"black","material":"metal","operator":"Mairie d'Athis-Mons","waste":"trash"}},"type":"Feature"},
	{"geometry":{"coordinates":[2.363515,48.699255],"type":"Point"},"properties":{"osm_id":"7293589644","tag":{"amenity":"waste_basket","colour":"black","material":"metal","operator":"MAirie d'Athis-Mons","waste":"trash"}},"type":"Feature"},
	{"geometry":{"coordinates":[2.361907,48.699695],"type":"Point"},"properties":{"osm_id":"7293589645","tag":{"amenity":"waste_basket","colour":"black","material":"metal","operator":"Mairie d'Athis-Mons","waste":"trash"}},"type":"Feature"},
	{"geometry":{"coordinates":[2.36893,48.699925],"type":"Point"},"properties":{"osm_id":"7293589743","tag":{"amenity":"waste_basket","colour":"black","material":"metal","operator":"Mairie d'Athis-Mons","waste":"trash"}},"type":"Feature"},
	{"geometry":{"coordinates":[2.367772,48.703561],"type":"Point"},"properties":{"osm_id":"7293589750","tag":{"amenity":"waste_basket","colour":"black","material":"metal","operator":"Mairie d'Athis-Mons","waste":"trash"}},"type":"Feature"},
	{"geometry":{"coordinates":[2.363405,48.70491],"type":"Point"},"properties":{"osm_id":"7293589759","tag":{"amenity":"waste_basket","colour":"black","material":"metal","operator":"Mairie d'Athis-Mons","waste":"trash"}},"type":"Feature"},
	{"geometry":{"coordinates":[2.371951,48.701545],"type":"Point"},"properties":{"osm_id":"7295843313","tag":{"amenity":"waste_basket","colour":"black","material":"metal","operator":"Mairie d'Ahtis-Mons","waste":"trash"}},"type":"Feature"},
	{"geometry":{"coordinates":[2.35634,48.705532],"type":"Point"},"properties":{"osm_id":"7295843321","tag":{"amenity":"waste_basket","colour":"black","material":"metal","operator":"Mairie d'Ahtis-Mons","waste":"trash"}},"type":"Feature"},
	{"geometry":{"coordinates":[2.360222,48.703523],"type":"Point"},"properties":{"osm_id":"7295843336","tag":{"amenity":"recycling","location":"underground","recycling_type":"container"}},"type":"Feature"},
	{"geometry":{"coordinates":[2.360223,48.703505],"type":"Point"},"properties":{"osm_id":"7295843337","tag":{"amenity":"recycling","location":"underground","recycling_type":"container"}},"type":"Feature"},
	{"geometry":{"coordinates":[2.360224,48.703486],"type":"Point"},"properties":{"osm_id":"7295843338","tag":{"amenity":"recycling","location":"underground","recycling_type":"container"}},"type":"Feature"},
	{"geometry":{"coordinates":[2.360226,48.703469],"type":"Point"},"properties":{"osm_id":"7295843339","tag":{"amenity":"recycling","location":"underground","recycling_type":"container"}},"type":"Feature"},
	{"geometry":{"coordinates":[2.360464,48.702845],"type":"Point"},"properties":{"osm_id":"7295843340","tag":{"amenity":"waste_basket","colour":"black","material":"metal","operator":"Mairie d'Ahtis-Mons","waste":"trash"}},"type":"Feature"},
	{"geometry":{"coordinates":[2.358677,48.702462],"type":"Point"},"properties":{"osm_id":"7295843342","tag":{"amenity":"waste_basket","colour":"black","material":"metal","operator":"Mairie d'Ahtis-Mons"}},"type":"Feature"},
	{"geometry":{"coordinates":[2.359368,48.702246],"type":"Point"},"properties":{"osm_id":"7295843343","tag":{"amenity":"waste_basket","colour":"black","material":"metal","operator":"Mairie d'Ahtis-Mons"}},"type":"Feature"},
	{"geometry":{"coordinates":[2.359225,48.702227],"type":"Point"},"properties":{"osm_id":"7295843344","tag":{"amenity":"waste_basket","colour":"black","material":"metal","operator":"Mairie d'Ahtis-Mons"}},"type":"Feature"},
	{"geometry":{"coordinates":[2.359936,48.702269],"type":"Point"},"properties":{"osm_id":"7295861788","tag":{"amenity":"waste_basket","colour":"black","material":"metal","operator":"Mairie d'Ahtis-Mons","waste":"trash"}},"type":"Feature"},
	{"geometry":{"coordinates":[2.359934,48.702541],"type":"Point"},"properties":{"osm_id":"7295861789","tag":{"amenity":"waste_basket","colour":"black","material":"metal","operator":"Mairie d'Ahtis-Mons","waste":"trash"}},"type":"Feature"},
	{"geometry":{"coordinates":[2.359923,48.702867],"type":"Point"},"properties":{"osm_id":"7295861790","tag":{"amenity":"waste_basket","colour":"black","material":"metal","operator":"Mairie d'Ahtis-Mons","waste":"trash"}},"type":"Feature"},
	{"geometry":{"coordinates":[2.359833,48.702839],"type":"Point"},"properties":{"osm_id":"7295861792","tag":{"amenity":"waste_basket","colour":"black","material":"metal","operator":"Mairie d'Ahtis-Mons","waste":"trash"}},"type":"Feature"},
	{"geometry":{"coordinates":[2.361548,48.70218],"type":"Point"},"properties":{"osm_id":"7295861808","tag":{"amenity":"waste_basket","colour":"black","material":"metal","operator":"Mairie d'Ahtis-Mons","waste":"trash"}},"type":"Feature"},
	{"geometry":{"coordinates":[2.362264,48.702192],"type":"Point"},"properties":{"osm_id":"7295861819","tag":{"amenity":"waste_basket","colour":"black","material":"metal","operator":"Mairie d'Ahtis-Mons","waste":"trash"}},"type":"Feature"},
	{"geometry":{"coordinates":[2.36337,48.701971],"type":"Point"},"properties":{"osm_id":"7295861840","tag":{"amenity":"waste_basket","colour":"black","material":"metal","operator":"Mairie d'Ahtis-Mons","waste":"trash"}},"type":"Feature"},
	{"geometry":{"coordinates":[2.365038,48.701968],"type":"Point"},"properties":{"osm_id":"7295861854","tag":{"amenity":"waste_basket","colour":"black","material":"metal","operator":"Mairie d'Ahtis-Mons","waste":"trash"}},"type":"Feature"},
	{"geometry":{"coordinates":[2.357639,48.700501],"type":"Point"},"properties":{"osm_id":"7295861874","tag":{"amenity":"waste_basket","colour":"black","material":"metal","operator":"Mairie d'Ahtis-Mons","waste":"trash"}},"type":"Feature"},
	{"geometry":{"coordinates":[2.357925,48.700188],"type":"Point"},"properties":{"osm_id":"7295861878","tag":{"amenity":"waste_basket","colour":"black","material":"metal","operator":"Mairie d'Ahtis-Mons","waste":"trash"}},"type":"Feature"},
	{"geometry":{"coordinates":[2.358348,48.701146],"type":"Point"},"properties":{"osm_id":"7295861880","tag":{"amenity":"waste_basket","colour":"black","material":"metal","operator":"Mairie d'Ahtis-Mons","waste":"trash"}},"type":"Feature"},
	{"geometry":{"coordinates":[2.363629,48.698017],"type":"Point"},"properties":{"osm_id":"7295861891","tag":{"amenity":"waste_basket","colour":"black","material":"metal","operator":"Mairie d'Ahtis-Mons"}},"type":"Feature"},
	{"geometry":{"coordinates":[2.35896,48.702879],"type":"Point"},"properties":{"osm_id":"7296795347","tag":{"amenity":"waste_basket","colour":"black","material":"metal","operator":"Mairie d'Ahtis-Mons","waste":"trash"}},"type":"Feature"},
	{"geometry":{"coordinates":[2.367496,48.717318],"type":"Point"},"properties":{"osm_id":"7310664605","tag":{"amenity":"recycling","recycling_type":"container"}},"type":"Feature"},
	{"geometry":{"coordinates":[2.367487,48.717301],"type":"Point"},"properties":{"osm_id":"7310664606","tag":{"amenity":"recycling","recycling_type":"container"}},"type":"Feature"},
	{"geometry":{"coordinates":[2.367478,48.717283],"type":"Point"},"properties":{"osm_id":"7310664607","tag":{"amenity":"recycling","recycling_type":"container"}},"type":"Feature"},
	{"geometry":{"coordinates":[2.367796,48.715696],"type":"Point"},"properties":{"osm_id":"7310664665","tag":{"amenity":"waste_basket","waste":"trash"}},"type":"Feature"},
	{"geometry":{"coordinates":[2.367881,48.715934],"type":"Point"},"properties":{"osm_id":"7310664686","tag":{"amenity":"waste_basket","waste":"trash"}},"type":"Feature"},
	{"geometry":{"coordinates":[2.368851,48.715954],"type":"Point"},"properties":{"osm_id":"7310664690","tag":{"amenity":"waste_basket","colour":"noir","material":"metal","operator":"Mairie d'Athis-Mons","waste":"trash"}},"type":"Feature"},
	{"geometry":{"coordinates":[2.359581,48.744906],"type":"Point"},"properties":{"osm_id":"7319030462","tag":{"amenity":"waste_basket"}},"type":"Feature"},
	{"geometry":{"coordinates":[2.359682,48.744967],"type":"Point"},"properties":{"osm_id":"7319061257","tag":{"amenity":"waste_basket"}},"type":"Feature"},
	{"geometry":{"coordinates":[2.354601,48.745942],"type":"Point"},"properties":{"osm_id":"7319062804","tag":{"amenity":"waste_basket"}},"type":"Feature"},
	{"geometry":{"coordinates":[2.352649,48.745779],"type":"Point"},"properties":{"osm_id":"7319085416","tag":{"amenity":"waste_basket"}},"type":"Feature"},
	{"geometry":{"coordinates":[2.359505,48.745158],"type":"Point"},"properties":{"osm_id":"7319095478","tag":{"amenity":"waste_basket"}},"type":"Feature"},
	{"geometry":{"coordinates":[2.357675,48.746089],"type":"Point"},"properties":{"osm_id":"7319099122","tag":{"amenity":"waste_basket"}},"type":"Feature"},
	{"geometry":{"coordinates":[2.354578,48.745929],"type":"Point"},"properties":{"osm_id":"7319111614","tag":{"amenity":"waste_basket"}},"type":"Feature"},
	{"geometry":{"coordinates":[2.355626,48.744188],"type":"Point"},"properties":{"osm_id":"7319135499","tag":{"amenity":"waste_basket"}},"type":"Feature"},
	{"geometry":{"coordinates":[2.354373,48.745918],"type":"Point"},"properties":{"osm_id":"7319135702","tag":{"amenity":"waste_basket"}},"type":"Feature"},
	{"geometry":{"coordinates":[2.355201,48.745637],"type":"Point"},"properties":{"osm_id":"7319152489","tag":{"amenity":"waste_basket"}},"type":"Feature"},
	{"geometry":{"coordinates":[2.359364,48.745619],"type":"Point"},"properties":{"osm_id":"7319153672","tag":{"amenity":"recycling","location":"overground","recycling:glass_bottles":"yes","recycling_type":"container"}},"type":"Feature"},
	{"geometry":{"coordinates":[2.35264,48.745781],"type":"Point"},"properties":{"osm_id":"7319153673","tag":{"amenity":"waste_basket"}},"type":"Feature"},
	{"geometry":{"coordinates":[2.360903,48.743669],"type":"Point"},"properties":{"osm_id":"7319154056","tag":{"amenity":"waste_basket"}},"type":"Feature"},
	{"geometry":{"coordinates":[2.354728,48.744961],"type":"Point"},"properties":{"osm_id":"7319154561","tag":{"amenity":"waste_basket"}},"type":"Feature"},
	{"geometry":{"coordinates":[2.357784,48.746402],"type":"Point"},"properties":{"osm_id":"7319154749","tag":{"amenity":"waste_basket"}},"type":"Feature"},
	{"geometry":{"coordinates":[2.357499,48.745137],"type":"Point"},"properties":{"osm_id":"7319154902","tag":{"amenity":"waste_basket"}},"type":"Feature"},
	{"geometry":{"coordinates":[2.355175,48.745669],"type":"Point"},"properties":{"osm_id":"7319156195","tag":{"amenity":"waste_basket"}},"type":"Feature"},
	{"geometry":{"coordinates":[2.359337,48.745395],"type":"Point"},"properties":{"osm_id":"7319156385","tag":{"amenity":"waste_basket"}},"type":"Feature"},
	{"geometry":{"coordinates":[2.347434,48.743117],"type":"Point"},"properties":{"osm_id":"7340884141","tag":{"amenity":"waste_basket"}},"type":"Feature"},
	{"geometry":{"coordinates":[2.350249,48.748864],"type":"Point"},"properties":{"osm_id":"7340925650","tag":{"amenity":"waste_basket"}},"type":"Feature"},
	{"geometry":{"coordinates":[2.349768,48.740334],"type":"Point"},"properties":{"osm_id":"7340927933","tag":{"amenity":"waste_basket"}},"type":"Feature"},
	{"geometry":{"coordinates":[2.349812,48.740386],"type":"Point"},"properties":{"osm_id":"7340935118","tag":{"amenity":"waste_basket"}},"type":"Feature"},
	{"geometry":{"coordinates":[2.348451,48.742904],"type":"Point"},"properties":{"osm_id":"7340935553","tag":{"amenity":"waste_basket"}},"type":"Feature"},
	{"geometry":{"coordinates":[2.350173,48.748878],"type":"Point"},"properties":{"osm_id":"7340935554","tag":{"amenity":"waste_basket"}},"type":"Feature"},
	{"geometry":{"coordinates":[2.348205,48.745077],"type":"Point"},"properties":{"osm_id":"7340949328","tag":{"amenity":"waste_basket"}},"type":"Feature"},
	{"geometry":{"coordinates":[2.349262,48.740602],"type":"Point"},"properties":{"osm_id":"7340954912","tag":{"amenity":"waste_basket"}},"type":"Feature"},
	{"geometry":{"coordinates":[2.347221,48.740081],"type":"Point"},"properties":{"osm_id":"7340968909","tag":{"amenity":"waste_basket"}},"type":"Feature"},
	{"geometry":{"coordinates":[2.347236,48.742879],"type":"Point"},"properties":{"osm_id":"7340969977","tag":{"amenity":"waste_basket"}},"type":"Feature"},
	{"geometry":{"coordinates":[2.352822,48.748221],"type":"Point"},"properties":{"osm_id":"7340970858","tag":{"amenity":"waste_basket"}},"type":"Feature"},
	{"geometry":{"coordinates":[2.349756,48.740644],"type":"Point"},"properties":{"osm_id":"7340974089","tag":{"amenity":"waste_basket"}},"type":"Feature"},
	{"geometry":{"coordinates":[2.346883,48.742778],"type":"Point"},"properties":{"osm_id":"7340974371","tag":{"amenity":"waste_basket"}},"type":"Feature"},
	{"geometry":{"coordinates":[2.348138,48.745256],"type":"Point"},"properties":{"osm_id":"7341022650","tag":{"amenity":"recycling","recycling:clothes":"yes","recycling_type":"container"}},"type":"Feature"},
	{"geometry":{"coordinates":[2.370987,48.705781],"type":"Point"},"properties":{"osm_id":"7341666860","tag":{"amenity":"waste_basket","colour":"noir","material":"metal","operator":"Mairie d'Ahtis-Mons","waste":"trash"}},"type":"Feature"},
	{"geometry":{"coordinates":[2.37104,48.705929],"type":"Point"},"properties":{"osm_id":"7341666861","tag":{"amenity":"waste_basket","colour":"noir","material":"metal","operator":"Mairie d'Ahtis-Mons","waste":"trash"}},"type":"Feature"},
	{"geometry":{"coordinates":[2.372598,48.694482],"type":"Point"},"properties":{"osm_id":"7354474927","tag":{"amenity":"waste_basket","colour":"noir","material":"metal","operator":"Mairie de Juvisy-sur-Orge","waste":"trash"}},"type":"Feature"},
	{"geometry":{"coordinates":[2.372405,48.695523],"type":"Point"},"properties":{"osm_id":"7354474929","tag":{"amenity":"waste_basket","colour":"noir","material":"metal","operator":"Mairie de Juvisy-sur-Orge","waste":"trash"}},"type":"Feature"},
	{"geometry":{"coordinates":[2.362822,48.712787],"type":"Point"},"properties":{"osm_id":"7358018380","tag":{"amenity":"waste_basket","material":"metal","operator":"Mairie de Paray-Vieille-Poste","waste":"trash"}},"type":"Feature"},
	{"geometry":{"coordinates":[2.362502,48.712919],"type":"Point"},"properties":{"osm_id":"7358018381","tag":{"amenity":"waste_basket","material":"metal","operator":"Mairie de Paray-Vieille-Poste","waste":"trash"}},"type":"Feature"},
	{"geometry":{"coordinates":[2.362247,48.712942],"type":"Point"},"properties":{"osm_id":"7358039438","tag":{"amenity":"waste_basket","material":"metal","operator":"Mairie de Paray-Vieille-Poste","waste":"trash"}},"type":"Feature"},
	{"geometry":{"coordinates":[2.362392,48.713084],"type":"Point"},"properties":{"osm_id":"7358039439","tag":{"amenity":"waste_basket","material":"metal","operator":"Mairie de Paray-Vieille-Poste","waste":"trash"}},"type":"Feature"},
	{"geometry":{"coordinates":[2.362724,48.713046],"type":"Point"},"properties":{"osm_id":"7358039485","tag":{"amenity":"waste_basket","material":"metal","operator":"Mairie de Paray-Vieille-Poste","waste":"trash"}},"type":"Feature"},
	{"geometry":{"coordinates":[2.363312,48.712579],"type":"Point"},"properties":{"osm_id":"7358039486","tag":{"amenity":"waste_basket","material":"metal","operator":"Mairie de Paray-Vieille-Poste","waste":"trash"}},"type":"Feature"},
	{"geometry":{"coordinates":[2.363291,48.712795],"type":"Point"},"properties":{"osm_id":"7358039487","tag":{"amenity":"waste_basket","material":"metal","operator":"Mairie de Paray-Vieille-Poste","waste":"trash"}},"type":"Feature"},
	{"geometry":{"coordinates":[2.365064,48.709729],"type":"Point"},"properties":{"osm_id":"7358125065","tag":{"amenity":"recycling","recycling:magazines":"yes","recycling:paper":"yes","recycling_type":"container"}},"type":"Feature"},
	{"geometry":{"coordinates":[2.365215,48.709721],"type":"Point"},"properties":{"osm_id":"7358125066","tag":{"amenity":"recycling","recycling:glass":"yes","recycling_type":"container"}},"type":"Feature"},
	{"geometry":{"coordinates":[2.365225,48.709732],"type":"Point"},"properties":{"osm_id":"7358125067","tag":{"amenity":"recycling","recycling:glass":"yes","recycling_type":"container"}},"type":"Feature"},
	{"geometry":{"coordinates":[2.365173,48.709714],"type":"Point"},"properties":{"osm_id":"7358125068","tag":{"amenity":"recycling","recycling_type":"container"}},"type":"Feature"},
	{"geometry":{"coordinates":[2.363906,48.712447],"type":"Point"},"properties":{"osm_id":"7358167857","tag":{"amenity":"waste_basket","material":"metal","operator":"Mairie de Paray-Vieille-Poste","waste":"trash"}},"type":"Feature"},
	{"geometry":{"coordinates":[2.363649,48.712295],"type":"Point"},"properties":{"osm_id":"7358167858","tag":{"amenity":"waste_basket","material":"metal","operator":"Mairie de Paray-Vieille-Poste","waste":"trash"}},"type":"Feature"},
	{"geometry":{"coordinates":[2.372354,48.691186],"type":"Point"},"properties":{"osm_id":"7358343764","tag":{"amenity":"waste_basket","material":"metal","operator":"Mairie de Juvisy-sur-Orge","waste":"trash"}},"type":"Feature"},
	{"geometry":{"coordinates":[2.362578,48.712619],"type":"Point"},"properties":{"osm_id":"7358722007","tag":{"amenity":"waste_basket","material":"metal","operator":"Mairie de Paray-Vieille-Poste","waste":"trash"}},"type":"Feature"},
	{"geometry":{"coordinates":[2.363114,48.713219],"type":"Point"},"properties":{"osm_id":"7358738840","tag":{"amenity":"waste_basket","material":"metal","operator":"Mairie de Paray-Vieille-Poste","waste":"trash"}},"type":"Feature"},
	{"geometry":{"coordinates":[2.344147,48.747536],"type":"Point"},"properties":{"osm_id":"7363535627","tag":{"amenity":"waste_basket"}},"type":"Feature"},
	{"geometry":{"coordinates":[2.367376,48.694338],"type":"Point"},"properties":{"osm_id":"7367629002","tag":{"amenity":"waste_disposal"}},"type":"Feature"},
	{"geometry":{"coordinates":[2.366607,48.694552],"type":"Point"},"properties":{"osm_id":"7367629003","tag":{"amenity":"waste_disposal"}},"type":"Feature"},
	{"geometry":{"coordinates":[2.36838,48.694123],"type":"Point"},"properties":{"osm_id":"7367629004","tag":{"amenity":"waste_disposal"}},"type":"Feature"},
	{"geometry":{"coordinates":[2.368389,48.694121],"type":"Point"},"properties":{"osm_id":"7367629005","tag":{"amenity":"waste_disposal"}},"type":"Feature"},
	{"geometry":{"coordinates":[2.36813,48.693624],"type":"Point"},"properties":{"osm_id":"7367629006","tag":{"amenity":"waste_disposal"}},"type":"Feature"},
	{"geometry":{"coordinates":[2.368148,48.693619],"type":"Point"},"properties":{"osm_id":"7367629007","tag":{"amenity":"waste_disposal"}},"type":"Feature"},
	{"geometry":{"coordinates":[2.367666,48.693769],"type":"Point"},"properties":{"osm_id":"7367629013","tag":{"amenity":"waste_disposal"}},"type":"Feature"},
	{"geometry":{"coordinates":[2.367674,48.693766],"type":"Point"},"properties":{"osm_id":"7367629014","tag":{"amenity":"waste_disposal"}},"type":"Feature"},
	{"geometry":{"coordinates":[2.353558,48.745332],"type":"Point"},"properties":{"osm_id":"7418773697","tag":{"amenity":"waste_basket"}},"type":"Feature"},
	{"geometry":{"coordinates":[2.358459,48.746185],"type":"Point"},"properties":{"osm_id":"7447030367","tag":{"amenity":"waste_basket"}},"type":"Feature"},
	{"geometry":{"coordinates":[2.358444,48.746005],"type":"Point"},"properties":{"osm_id":"7447088109","tag":{"amenity":"waste_basket"}},"type":"Feature"},
	{"geometry":{"coordinates":[2.356165,48.746627],"type":"Point"},"properties":{"osm_id":"7447088288","tag":{"amenity":"waste_basket"}},"type":"Feature"},
	{"geometry":{"coordinates":[2.356703,48.742476],"type":"Point"},"properties":{"osm_id":"7449923281","tag":{"amenity":"waste_basket"}},"type":"Feature"},
	{"geometry":{"coordinates":[2.356579,48.742612],"type":"Point"},"properties":{"osm_id":"7449929480","tag":{"amenity":"waste_basket"}},"type":"Feature"},
	{"geometry":{"coordinates":[2.354745,48.741419],"type":"Point"},"properties":{"osm_id":"7449932237","tag":{"amenity":"waste_basket"}},"type":"Feature"},
	{"geometry":{"coordinates":[2.354804,48.741873],"type":"Point"},"properties":{"osm_id":"7449937906","tag":{"amenity":"waste_basket"}},"type":"Feature"},
	{"geometry":{"coordinates":[2.349032,48.741141],"type":"Point"},"properties":{"osm_id":"7449957676","tag":{"amenity":"waste_basket"}},"type":"Feature"},
	{"geometry":{"coordinates":[2.354949,48.741849],"type":"Point"},"properties":{"osm_id":"7449960656","tag":{"amenity":"waste_basket"}},"type":"Feature"},
	{"geometry":{"coordinates":[2.349109,48.742513],"type":"Point"},"properties":{"osm_id":"7449960816","tag":{"amenity":"waste_basket"}},"type":"Feature"},
	{"geometry":{"coordinates":[2.358995,48.746069],"type":"Point"},"properties":{"osm_id":"7449983088","tag":{"amenity":"recycling","recycling:glass":"yes","recycling_type":"container"}},"type":"Feature"},
	{"geometry":{"coordinates":[2.329972,48.73713],"type":"Point"},"properties":{"osm_id":"7490413016","tag":{"amenity":"waste_basket"}},"type":"Feature"},
	{"geometry":{"coordinates":[2.330041,48.736096],"type":"Point"},"properties":{"osm_id":"7490415780","tag":{"amenity":"waste_basket"}},"type":"Feature"},
	{"geometry":{"coordinates":[2.331157,48.733983],"type":"Point"},"properties":{"osm_id":"7490422409","tag":{"amenity":"waste_basket"}},"type":"Feature"},
	{"geometry":{"coordinates":[2.329467,48.736834],"type":"Point"},"properties":{"osm_id":"7490424496","tag":{"amenity":"waste_basket"}},"type":"Feature"},
	{"geometry":{"coordinates":[2.358829,48.739576],"type":"Point"},"properties":{"osm_id":"7515547908","tag":{"amenity":"recycling","recycling:paper":"yes","recycling_type":"container"}},"type":"Feature"},
	{"geometry":{"coordinates":[2.358713,48.739005],"type":"Point"},"properties":{"osm_id":"7515547909","tag":{"amenity":"recycling","recycling:paper":"yes","recycling_type":"container"}},"type":"Feature"},
	{"geometry":{"coordinates":[2.356427,48.747932],"type":"Point"},"properties":{"osm_id":"7515567517","tag":{"amenity":"waste_basket"}},"type":"Feature"},
	{"geometry":{"coordinates":[2.360631,48.742073],"type":"Point"},"properties":{"osm_id":"7515589507","tag":{"amenity":"waste_basket"}},"type":"Feature"},
	{"geometry":{"coordinates":[2.35884,48.739343],"type":"Point"},"properties":{"osm_id":"7515590565","tag":{"amenity":"waste_basket"}},"type":"Feature"},
	{"geometry":{"coordinates":[2.359442,48.739875],"type":"Point"},"properties":{"osm_id":"7515592429","tag":{"amenity":"waste_basket"}},"type":"Feature"},
	{"geometry":{"coordinates":[2.359628,48.739613],"type":"Point"},"properties":{"osm_id":"7515599302","tag":{"amenity":"waste_basket"}},"type":"Feature"},
	{"geometry":{"coordinates":[2.359373,48.741133],"type":"Point"},"properties":{"osm_id":"7515637104","tag":{"amenity":"recycling","recycling:paper":"yes","recycling_type":"container"}},"type":"Feature"},
	{"geometry":{"coordinates":[2.360143,48.74145],"type":"Point"},"properties":{"osm_id":"7515637107","tag":{"amenity":"recycling","recycling:paper":"yes","recycling_type":"container"}},"type":"Feature"},
	{"geometry":{"coordinates":[2.368011,48.703491],"type":"Point"},"properties":{"osm_id":"7546394973","tag":{"amenity":"waste_basket","material":"plastic","operator":"Mairie d'Ahtis-Mons","waste":"trash"}},"type":"Feature"},
	{"geometry":{"coordinates":[2.364597,48.704955],"type":"Point"},"properties":{"osm_id":"7546474036","tag":{"amenity":"waste_basket","waste":"trash"}},"type":"Feature"},
	{"geometry":{"coordinates":[2.370673,48.692884],"type":"Point"},"properties":{"osm_id":"7553347712","tag":{"amenity":"waste_basket","colour":"noir","material":"metal","operator":"Mairie de Juvisy-sur-Orge","waste":"trash"}},"type":"Feature"},
	{"geometry":{"coordinates":[2.370831,48.691613],"type":"Point"},"properties":{"osm_id":"7553347715","tag":{"amenity":"waste_basket","colour":"noir","material":"metal","operator":"Mairie de Juvisy-sur-Orge","waste":"trash"}},"type":"Feature"},
	{"geometry":{"coordinates":[2.37192,48.697202],"type":"Point"},"properties":{"osm_id":"7557425318","tag":{"amenity":"waste_basket","material":"metal","operator":"Mairie de Juvisy-sur-Orge","waste":"trash"}},"type":"Feature"},
	{"geometry":{"coordinates":[2.371842,48.696765],"type":"Point"},"properties":{"osm_id":"7557425319","tag":{"amenity":"waste_basket","material":"metal","operator":"Mairie de Juvisy-sur-Orge","waste":"trash"}},"type":"Feature"},
	{"geometry":{"coordinates":[2.371526,48.695425],"type":"Point"},"properties":{"osm_id":"7557425320","tag":{"amenity":"waste_basket","material":"metal","operator":"Mairie de Juvisy-sur-Orge","waste":"trash"}},"type":"Feature"},
	{"geometry":{"coordinates":[2.371132,48.695012],"type":"Point"},"properties":{"osm_id":"7557425327","tag":{"amenity":"waste_basket","material":"metal","operator":"Mairie de Juvisy-sur-Orge","waste":"trash"}},"type":"Feature"},
	{"geometry":{"coordinates":[2.371182,48.695165],"type":"Point"},"properties":{"osm_id":"7557425328","tag":{"amenity":"waste_basket","material":"metal","operator":"Mairie de Juvisy-sur-Orge","waste":"trash"}},"type":"Feature"},
	{"geometry":{"coordinates":[2.371052,48.692853],"type":"Point"},"properties":{"osm_id":"7557425329","tag":{"amenity":"waste_basket","material":"metal","operator":"Mairie de Juvisy-sur-Orge","waste":"trash"}},"type":"Feature"},
	{"geometry":{"coordinates":[2.350614,48.696636],"type":"Point"},"properties":{"osm_id":"7612900575","tag":{"amenity":"waste_basket","operator":"Mairie de Juvisy-sur-Orge","waste":"trash"}},"type":"Feature"},
	{"geometry":{"coordinates":[2.351627,48.697167],"type":"Point"},"properties":{"osm_id":"7612900576","tag":{"amenity":"waste_basket","operator":"Mairie de Juvisy-sur-Orge","waste":"trash"}},"type":"Feature"},
	{"geometry":{"coordinates":[2.370704,48.692988],"type":"Point"},"properties":{"osm_id":"7640760691","tag":{"amenity":"waste_basket","colour":"noir","material":"metal","operator":"Mairie de Juvisy-sur-Orge","waste":"trash"}},"type":"Feature"},
	{"geometry":{"coordinates":[2.357321,48.700611],"type":"Point"},"properties":{"osm_id":"7651776334","tag":{"amenity":"waste_basket","colour":"black","material":"metal","operator":"Mairie d'Ahtis-Mons","waste":"trash"}},"type":"Feature"},
	{"geometry":{"coordinates":[2.29291,48.692638],"type":"Point"},"properties":{"osm_id":"7790891238","tag":{"amenity":"waste_basket"}},"type":"Feature"},
	{"geometry":{"coordinates":[2.288545,48.692989],"type":"Point"},"properties":{"osm_id":"7790968433","tag":{"amenity":"waste_basket"}},"type":"Feature"},
	{"geometry":{"coordinates":[2.290167,48.692644],"type":"Point"},"properties":{"osm_id":"7790968436","tag":{"amenity":"waste_basket"}},"type":"Feature"},
	{"geometry":{"coordinates":[2.290636,48.692589],"type":"Point"},"properties":{"osm_id":"7790968440","tag":{"amenity":"waste_basket"}},"type":"Feature"},
	{"geometry":{"coordinates":[2.290379,48.692619],"type":"Point"},"properties":{"osm_id":"7790968442","tag":{"amenity":"waste_basket"}},"type":"Feature"},
	{"geometry":{"coordinates":[2.290403,48.693494],"type":"Point"},"properties":{"osm_id":"7790968444","tag":{"amenity":"waste_basket"}},"type":"Feature"},
	{"geometry":{"coordinates":[2.289239,48.693491],"type":"Point"},"properties":{"osm_id":"7790968446","tag":{"amenity":"waste_basket"}},"type":"Feature"},
	{"geometry":{"coordinates":[2.305357,48.699947],"type":"Point"},"properties":{"osm_id":"7838072472","tag":{"amenity":"waste_basket"}},"type":"Feature"},
	{"geometry":{"coordinates":[2.287017,48.692324],"type":"Point"},"properties":{"osm_id":"7844754218","tag":{"amenity":"waste_basket"}},"type":"Feature"},
	{"geometry":{"coordinates":[2.287213,48.693234],"type":"Point"},"properties":{"osm_id":"7844754221","tag":{"amenity":"waste_basket"}},"type":"Feature"},
	{"geometry":{"coordinates":[2.289943,48.693322],"type":"Point"},"properties":{"osm_id":"7846802591","tag":{"amenity":"waste_basket"}},"type":"Feature"},
	{"geometry":{"coordinates":[2.290907,48.693259],"type":"Point"},"properties":{"osm_id":"7846802598","tag":{"amenity":"waste_basket"}},"type":"Feature"},
	{"geometry":{"coordinates":[2.291824,48.72675],"type":"Point"},"properties":{"osm_id":"7850653185","tag":{"amenity":"waste_basket"}},"type":"Feature"},
	{"geometry":{"coordinates":[2.365741,48.69455],"type":"Point"},"properties":{"osm_id":"7853456294","tag":{"amenity":"waste_basket","material":"metal","operator":"Mairie de Juvisy-sur-Orge","waste":"trash"}},"type":"Feature"},
	{"geometry":{"coordinates":[2.288924,48.692434],"type":"Point"},"properties":{"osm_id":"7857356823","tag":{"amenity":"waste_basket"}},"type":"Feature"},
	{"geometry":{"coordinates":[2.288676,48.692918],"type":"Point"},"properties":{"osm_id":"7857356843","tag":{"amenity":"waste_basket"}},"type":"Feature"}
]
}
