{
"type": "FeatureCollection",
"features": [
	{"geometry":{"coordinates":[2.372474,48.68827],"type":"Point"},"properties":{"osm_id":"1140777261","tag":{"amenity":"waste_basket"}},"type":"Feature"},
	{"geometry":{"coordinates":[2.35092,48.671023],"type":"Point"},"properties":{"osm_id":"1599987979","tag":{"amenity":"waste_basket"}},"type":"Feature"},
	{"geometry":{"coordinates":[2.351334,48.672825],"type":"Point"},"properties":{"osm_id":"1640423404","tag":{"amenity":"recycling"}},"type":"Feature"},
	{"geometry":{"coordinates":[2.345243,48.668427],"type":"Point"},"properties":{"osm_id":"1672882967","tag":{"amenity":"waste_basket"}},"type":"Feature"},
	{"geometry":{"coordinates":[2.323715,48.66847],"type":"Point"},"properties":{"osm_id":"2275821146","tag":{"amenity":"waste_basket"}},"type":"Feature"},
	{"geometry":{"coordinates":[2.327397,48.65954],"type":"Point"},"properties":{"osm_id":"2304905575","tag":{"amenity":"waste_basket"}},"type":"Feature"},
	{"geometry":{"coordinates":[2.326858,48.659852],"type":"Point"},"properties":{"osm_id":"2304905612","tag":{"amenity":"waste_basket"}},"type":"Feature"},
	{"geometry":{"coordinates":[2.32759,48.660073],"type":"Point"},"properties":{"osm_id":"2304905629","tag":{"amenity":"waste_basket"}},"type":"Feature"},
	{"geometry":{"coordinates":[2.32699,48.660296],"type":"Point"},"properties":{"osm_id":"2304905658","tag":{"amenity":"waste_basket"}},"type":"Feature"},
	{"geometry":{"coordinates":[2.323498,48.662921],"type":"Point"},"properties":{"osm_id":"2304905801","tag":{"amenity":"waste_basket"}},"type":"Feature"},
	{"geometry":{"coordinates":[2.33361,48.634852],"type":"Point"},"properties":{"osm_id":"2917922606","tag":{"amenity":"waste_basket"}},"type":"Feature"},
	{"geometry":{"coordinates":[2.319655,48.649248],"type":"Point"},"properties":{"osm_id":"2921155538","tag":{"amenity":"waste_basket"}},"type":"Feature"},
	{"geometry":{"coordinates":[2.325583,48.635307],"type":"Point"},"properties":{"osm_id":"2928774027","tag":{"amenity":"waste_basket"}},"type":"Feature"},
	{"geometry":{"coordinates":[2.325671,48.635318],"type":"Point"},"properties":{"osm_id":"2928774030","tag":{"amenity":"waste_basket"}},"type":"Feature"},
	{"geometry":{"coordinates":[2.325883,48.635344],"type":"Point"},"properties":{"osm_id":"2928774031","tag":{"amenity":"waste_basket"}},"type":"Feature"},
	{"geometry":{"coordinates":[2.326097,48.635371],"type":"Point"},"properties":{"osm_id":"2928774032","tag":{"amenity":"waste_basket"}},"type":"Feature"},
	{"geometry":{"coordinates":[2.326305,48.635396],"type":"Point"},"properties":{"osm_id":"2928774034","tag":{"amenity":"waste_basket"}},"type":"Feature"},
	{"geometry":{"coordinates":[2.326513,48.635423],"type":"Point"},"properties":{"osm_id":"2928774035","tag":{"amenity":"waste_basket"}},"type":"Feature"},
	{"geometry":{"coordinates":[2.326727,48.635453],"type":"Point"},"properties":{"osm_id":"2928774036","tag":{"amenity":"waste_basket"}},"type":"Feature"},
	{"geometry":{"coordinates":[2.326935,48.635478],"type":"Point"},"properties":{"osm_id":"2928774037","tag":{"amenity":"waste_basket"}},"type":"Feature"},
	{"geometry":{"coordinates":[2.32697,48.63594],"type":"Point"},"properties":{"osm_id":"2928774048","tag":{"amenity":"recycling","recycling:cans":"yes","recycling:clothes":"yes","recycling:glass":"yes","recycling:paper":"yes","recycling_type":"container"}},"type":"Feature"},
	{"geometry":{"coordinates":[2.327031,48.635952],"type":"Point"},"properties":{"osm_id":"2928774049","tag":{"amenity":"waste_basket"}},"type":"Feature"},
	{"geometry":{"coordinates":[2.372336,48.651392],"type":"Point"},"properties":{"osm_id":"3184572425","tag":{"amenity":"recycling"}},"type":"Feature"},
	{"geometry":{"coordinates":[2.372588,48.655119],"type":"Point"},"properties":{"osm_id":"3184572426","tag":{"amenity":"recycling","location":"underground","recycling:paper":"yes","recycling:paper_packaging":"yes","recycling:waste":"yes","recycling_type":"container"}},"type":"Feature"},
	{"geometry":{"coordinates":[2.368066,48.648528],"type":"Point"},"properties":{"name":"Tri","osm_id":"3184572440","tag":{"amenity":"recycling","recycling_type":"container"}},"type":"Feature"},
	{"geometry":{"coordinates":[2.372959,48.655786],"type":"Point"},"properties":{"osm_id":"3184572442","tag":{"amenity":"recycling","recycling_type":"container"}},"type":"Feature"},
	{"geometry":{"coordinates":[2.368849,48.648188],"type":"Point"},"properties":{"osm_id":"3184572445","tag":{"amenity":"recycling"}},"type":"Feature"},
	{"geometry":{"coordinates":[2.369804,48.650144],"type":"Point"},"properties":{"osm_id":"3184572447","tag":{"amenity":"recycling"}},"type":"Feature"},
	{"geometry":{"coordinates":[2.370845,48.651165],"type":"Point"},"properties":{"osm_id":"3184572449","tag":{"amenity":"recycling"}},"type":"Feature"},
	{"geometry":{"coordinates":[2.369933,48.648188],"type":"Point"},"properties":{"osm_id":"3184572450","tag":{"amenity":"recycling"}},"type":"Feature"},
	{"geometry":{"coordinates":[2.371703,48.650797],"type":"Point"},"properties":{"osm_id":"3184572451","tag":{"amenity":"recycling"}},"type":"Feature"},
	{"geometry":{"coordinates":[2.372744,48.652427],"type":"Point"},"properties":{"osm_id":"3184572456","tag":{"amenity":"recycling","recycling_type":"container"}},"type":"Feature"},
	{"geometry":{"coordinates":[2.371392,48.64911],"type":"Point"},"properties":{"osm_id":"3184573261","tag":{"amenity":"recycling","comment":"must be checked","recycling:glass_bottles":"yes","recycling_type":"container"}},"type":"Feature"},
	{"geometry":{"coordinates":[2.369568,48.649946],"type":"Point"},"properties":{"osm_id":"3184573264","tag":{"amenity":"recycling"}},"type":"Feature"},
	{"geometry":{"coordinates":[2.371478,48.648457],"type":"Point"},"properties":{"osm_id":"3184573268","tag":{"amenity":"recycling","comment":"must be checked","recycling:glass_bottles":"yes","recycling_type":"container"}},"type":"Feature"},
	{"geometry":{"coordinates":[2.370555,48.648358],"type":"Point"},"properties":{"osm_id":"3184573271","tag":{"amenity":"recycling","comment":"must be checked","recycling:glass_bottles":"yes","recycling_type":"container"}},"type":"Feature"},
	{"geometry":{"coordinates":[2.371939,48.649733],"type":"Point"},"properties":{"osm_id":"3184573273","tag":{"amenity":"recycling","comment":"must be checked","recycling:glass_bottles":"yes","recycling_type":"container"}},"type":"Feature"},
	{"geometry":{"coordinates":[2.367594,48.647968],"type":"Point"},"properties":{"osm_id":"3184573275","tag":{"amenity":"recycling","recycling_type":"container"}},"type":"Feature"},
	{"geometry":{"coordinates":[2.371285,48.647444],"type":"Point"},"properties":{"osm_id":"3191415503","tag":{"amenity":"recycling"}},"type":"Feature"},
	{"geometry":{"coordinates":[2.369622,48.647387],"type":"Point"},"properties":{"osm_id":"3191415504","tag":{"amenity":"recycling"}},"type":"Feature"},
	{"geometry":{"coordinates":[2.371811,48.647004],"type":"Point"},"properties":{"osm_id":"3191415505","tag":{"amenity":"recycling"}},"type":"Feature"},
	{"geometry":{"coordinates":[2.292139,48.688349],"type":"Point"},"properties":{"osm_id":"3219629665","tag":{"amenity":"waste_basket"}},"type":"Feature"},
	{"geometry":{"coordinates":[2.338692,48.634543],"type":"Point"},"properties":{"osm_id":"3461487866","tag":{"amenity":"waste_basket"}},"type":"Feature"},
	{"geometry":{"coordinates":[2.335357,48.640046],"type":"Point"},"properties":{"osm_id":"3838888919","tag":{"amenity":"recycling","opening_hours":"24/7","recycling:glass":"yes","recycling:glass_bottles":"yes","recycling_type":"container"}},"type":"Feature"},
	{"geometry":{"coordinates":[2.332149,48.636131],"type":"Point"},"properties":{"osm_id":"3838961581","tag":{"amenity":"recycling","opening_hours":"24/7","recycling:syringes":"yes","recycling_type":"container"}},"type":"Feature"},
	{"geometry":{"coordinates":[2.33284,48.638649],"type":"Point"},"properties":{"osm_id":"3838961636","tag":{"amenity":"recycling","opening_hours":"24/7","recycling:glass":"yes","recycling:glass_bottles":"yes","recycling_type":"container"}},"type":"Feature"},
	{"geometry":{"coordinates":[2.345447,48.65737],"type":"Point"},"properties":{"osm_id":"3866741661","tag":{"amenity":"recycling","opening_hours":"24/7","recycling:paper":"yes","recycling:plastic":"yes","recycling:plastic_bottles":"yes","recycling:plastic_packaging":"yes","recycling:waste":"yes","recycling_type":"container"}},"type":"Feature"},
	{"geometry":{"coordinates":[2.358198,48.672418],"type":"Point"},"properties":{"osm_id":"3902704077","tag":{"amenity":"waste_basket"}},"type":"Feature"},
	{"geometry":{"coordinates":[2.352491,48.664412],"type":"Point"},"properties":{"osm_id":"4140190304","tag":{"amenity":"waste_basket"}},"type":"Feature"},
	{"geometry":{"coordinates":[2.336171,48.66782],"type":"Point"},"properties":{"osm_id":"4307136157","tag":{"amenity":"waste_basket"}},"type":"Feature"},
	{"geometry":{"coordinates":[2.336035,48.667895],"type":"Point"},"properties":{"osm_id":"4307136158","tag":{"amenity":"recycling","recycling:clothes":"yes","recycling_type":"container"}},"type":"Feature"},
	{"geometry":{"coordinates":[2.344627,48.667064],"type":"Point"},"properties":{"osm_id":"4307656447","tag":{"amenity":"waste_basket"}},"type":"Feature"},
	{"geometry":{"coordinates":[2.34818,48.66649],"type":"Point"},"properties":{"osm_id":"4316757857","tag":{"amenity":"waste_basket"}},"type":"Feature"},
	{"geometry":{"coordinates":[2.349068,48.667849],"type":"Point"},"properties":{"osm_id":"4316757860","tag":{"amenity":"waste_basket"}},"type":"Feature"},
	{"geometry":{"coordinates":[2.349012,48.668564],"type":"Point"},"properties":{"osm_id":"4316757862","tag":{"amenity":"waste_basket"}},"type":"Feature"},
	{"geometry":{"coordinates":[2.316092,48.65209],"type":"Point"},"properties":{"osm_id":"4331106354","tag":{"amenity":"waste_basket"}},"type":"Feature"},
	{"geometry":{"coordinates":[2.361392,48.646656],"type":"Point"},"properties":{"osm_id":"4431022096","tag":{"amenity":"waste_basket"}},"type":"Feature"},
	{"geometry":{"coordinates":[2.361519,48.646995],"type":"Point"},"properties":{"osm_id":"4431022103","tag":{"amenity":"recycling","recycling:glass":"yes","recycling_type":"container"}},"type":"Feature"},
	{"geometry":{"coordinates":[2.345151,48.679471],"type":"Point"},"properties":{"osm_id":"4730656027","tag":{"amenity":"waste_basket"}},"type":"Feature"},
	{"geometry":{"coordinates":[2.332349,48.639722],"type":"Point"},"properties":{"osm_id":"4732342280","tag":{"amenity":"waste_basket"}},"type":"Feature"},
	{"geometry":{"coordinates":[2.317218,48.685145],"type":"Point"},"properties":{"osm_id":"4783032452","tag":{"amenity":"recycling","recycling_type":"container"}},"type":"Feature"},
	{"geometry":{"coordinates":[2.346399,48.661907],"type":"Point"},"properties":{"osm_id":"4795394313","tag":{"amenity":"waste_basket"}},"type":"Feature"},
	{"geometry":{"coordinates":[2.346269,48.663596],"type":"Point"},"properties":{"osm_id":"4795474086","tag":{"amenity":"recycling","recycling:glass":"yes","recycling:glass_bottles":"yes","recycling_type":"container"}},"type":"Feature"},
	{"geometry":{"coordinates":[2.343554,48.664151],"type":"Point"},"properties":{"osm_id":"4795474089","tag":{"amenity":"recycling","recycling:glass":"yes","recycling:glass_bottles":"yes","recycling_type":"container"}},"type":"Feature"},
	{"geometry":{"coordinates":[2.34174,48.661598],"type":"Point"},"properties":{"osm_id":"4795474090","tag":{"amenity":"recycling","recycling:glass":"yes","recycling:glass_bottles":"yes","recycling_type":"container"}},"type":"Feature"},
	{"geometry":{"coordinates":[2.33786,48.665706],"type":"Point"},"properties":{"osm_id":"4795474091","tag":{"amenity":"recycling","recycling:glass":"yes","recycling:glass_bottles":"yes","recycling_type":"container"}},"type":"Feature"},
	{"geometry":{"coordinates":[2.318749,48.66607],"type":"Point"},"properties":{"osm_id":"4799182862","tag":{"amenity":"waste_basket"}},"type":"Feature"},
	{"geometry":{"coordinates":[2.323612,48.668937],"type":"Point"},"properties":{"osm_id":"4810484298","tag":{"amenity":"waste_basket"}},"type":"Feature"},
	{"geometry":{"coordinates":[2.309386,48.656801],"type":"Point"},"properties":{"osm_id":"4811635727","tag":{"amenity":"waste_basket"}},"type":"Feature"},
	{"geometry":{"coordinates":[2.305948,48.653744],"type":"Point"},"properties":{"osm_id":"4811812493","tag":{"amenity":"waste_basket"}},"type":"Feature"},
	{"geometry":{"coordinates":[2.337668,48.68337],"type":"Point"},"properties":{"osm_id":"4881751630","tag":{"amenity":"waste_basket"}},"type":"Feature"},
	{"geometry":{"coordinates":[2.34499,48.667287],"type":"Point"},"properties":{"osm_id":"5035070021","tag":{"amenity":"waste_basket"}},"type":"Feature"},
	{"geometry":{"coordinates":[2.355878,48.671137],"type":"Point"},"properties":{"osm_id":"5338944224","tag":{"amenity":"waste_basket"}},"type":"Feature"},
	{"geometry":{"coordinates":[2.371198,48.684204],"type":"Point"},"properties":{"osm_id":"5339029722","tag":{"amenity":"waste_basket"}},"type":"Feature"},
	{"geometry":{"coordinates":[2.364335,48.67534],"type":"Point"},"properties":{"osm_id":"5339096623","tag":{"amenity":"waste_basket"}},"type":"Feature"},
	{"geometry":{"coordinates":[2.347084,48.668138],"type":"Point"},"properties":{"osm_id":"5403357122","tag":{"amenity":"waste_basket"}},"type":"Feature"},
	{"geometry":{"coordinates":[2.318678,48.689106],"type":"Point"},"properties":{"osm_id":"5405604700","tag":{"amenity":"waste_basket"}},"type":"Feature"},
	{"geometry":{"coordinates":[2.294722,48.690518],"type":"Point"},"properties":{"osm_id":"5420605759","tag":{"amenity":"waste_basket"}},"type":"Feature"},
	{"geometry":{"coordinates":[2.290693,48.68698],"type":"Point"},"properties":{"osm_id":"5420728811","tag":{"amenity":"waste_basket"}},"type":"Feature"},
	{"geometry":{"coordinates":[2.289093,48.687549],"type":"Point"},"properties":{"osm_id":"5420728812","tag":{"amenity":"waste_basket"}},"type":"Feature"},
	{"geometry":{"coordinates":[2.349586,48.670188],"type":"Point"},"properties":{"osm_id":"5632464334","tag":{"amenity":"waste_basket"}},"type":"Feature"},
	{"geometry":{"coordinates":[2.311801,48.655295],"type":"Point"},"properties":{"osm_id":"5912555617","tag":{"amenity":"recycling","recycling:glass_bottles":"yes","recycling_type":"container"}},"type":"Feature"},
	{"geometry":{"coordinates":[2.313878,48.653665],"type":"Point"},"properties":{"osm_id":"5912555618","tag":{"amenity":"recycling","recycling:glass_bottles":"yes","recycling_type":"container"}},"type":"Feature"},
	{"geometry":{"coordinates":[2.31386,48.653656],"type":"Point"},"properties":{"osm_id":"5912555619","tag":{"amenity":"waste_basket"}},"type":"Feature"},
	{"geometry":{"coordinates":[2.307182,48.662728],"type":"Point"},"properties":{"osm_id":"6030163698","tag":{"amenity":"recycling","recycling:glass_bottles":"yes","recycling_type":"container"}},"type":"Feature"},
	{"geometry":{"coordinates":[2.307233,48.636343],"type":"Point"},"properties":{"osm_id":"6046679791","tag":{"amenity":"waste_basket"}},"type":"Feature"},
	{"geometry":{"coordinates":[2.307198,48.6361],"type":"Point"},"properties":{"osm_id":"6046679799","tag":{"amenity":"waste_basket"}},"type":"Feature"},
	{"geometry":{"coordinates":[2.307071,48.636088],"type":"Point"},"properties":{"osm_id":"6046679800","tag":{"amenity":"waste_basket"}},"type":"Feature"},
	{"geometry":{"coordinates":[2.306897,48.636225],"type":"Point"},"properties":{"osm_id":"6046679815","tag":{"amenity":"waste_basket"}},"type":"Feature"},
	{"geometry":{"coordinates":[2.306633,48.635624],"type":"Point"},"properties":{"osm_id":"6046679886","tag":{"amenity":"waste_basket","level":"0"}},"type":"Feature"},
	{"geometry":{"coordinates":[2.306495,48.6353],"type":"Point"},"properties":{"osm_id":"6046679903","tag":{"amenity":"recycling","recycling:glass_bottles":"yes","recycling_type":"container"}},"type":"Feature"},
	{"geometry":{"coordinates":[2.314342,48.650171],"type":"Point"},"properties":{"osm_id":"6474013080","tag":{"amenity":"recycling","recycling:glass_bottles":"yes","recycling_type":"container"}},"type":"Feature"},
	{"geometry":{"coordinates":[2.319198,48.649239],"type":"Point"},"properties":{"osm_id":"6475085718","tag":{"amenity":"recycling","recycling:glass_bottles":"yes","recycling_type":"container"}},"type":"Feature"},
	{"geometry":{"coordinates":[2.317144,48.648302],"type":"Point"},"properties":{"osm_id":"6475385679","tag":{"amenity":"waste_basket"}},"type":"Feature"},
	{"geometry":{"coordinates":[2.317993,48.638671],"type":"Point"},"properties":{"osm_id":"6675784804","tag":{"amenity":"recycling","recycling:glass_bottles":"yes","recycling_type":"container"}},"type":"Feature"},
	{"geometry":{"coordinates":[2.314135,48.644484],"type":"Point"},"properties":{"osm_id":"6783039038","tag":{"amenity":"recycling","recycling:glass_bottles":"yes","recycling_type":"container"}},"type":"Feature"},
	{"geometry":{"coordinates":[2.314341,48.650072],"type":"Point"},"properties":{"osm_id":"6783039039","tag":{"amenity":"recycling","recycling:glass_bottles":"yes","recycling_type":"container"}},"type":"Feature"},
	{"geometry":{"coordinates":[2.311989,48.676943],"type":"Point"},"properties":{"osm_id":"6899913613","tag":{"amenity":"waste_basket"}},"type":"Feature"},
	{"geometry":{"coordinates":[2.32261,48.6777],"type":"Point"},"properties":{"osm_id":"6960340964","tag":{"amenity":"waste_basket"}},"type":"Feature"},
	{"geometry":{"coordinates":[2.372772,48.686564],"type":"Point"},"properties":{"osm_id":"7031989895","tag":{"amenity":"waste_basket","waste":"trash"}},"type":"Feature"},
	{"geometry":{"coordinates":[2.372485,48.690856],"type":"Point"},"properties":{"osm_id":"7358343753","tag":{"amenity":"waste_basket","material":"metal","operator":"Mairie de Juvisy-sur-Orge","waste":"trash"}},"type":"Feature"},
	{"geometry":{"coordinates":[2.372111,48.690601],"type":"Point"},"properties":{"osm_id":"7358343754","tag":{"amenity":"waste_basket","material":"metal","operator":"Mairie de Juvisy-sur-Orge","waste":"trash"}},"type":"Feature"},
	{"geometry":{"coordinates":[2.372424,48.690455],"type":"Point"},"properties":{"osm_id":"7358343760","tag":{"amenity":"waste_basket","material":"metal","operator":"Mairie de Juvisy-sur-Orge","waste":"trash"}},"type":"Feature"},
	{"geometry":{"coordinates":[2.334766,48.637071],"type":"Point"},"properties":{"osm_id":"7532594555","tag":{"amenity":"recycling","opening_hours":"24/7","recycling:glass":"yes","recycling_type":"container"}},"type":"Feature"},
	{"geometry":{"coordinates":[2.344326,48.667071],"type":"Point"},"properties":{"osm_id":"7578044962","tag":{"amenity":"recycling","recycling:glass":"yes","recycling_type":"container"}},"type":"Feature"},
	{"geometry":{"coordinates":[2.345564,48.679016],"type":"Point"},"properties":{"osm_id":"7838247439","tag":{"amenity":"waste_basket"}},"type":"Feature"},
	{"geometry":{"coordinates":[2.323702,48.672899],"type":"Point"},"properties":{"osm_id":"7945730163","tag":{"amenity":"waste_basket"}},"type":"Feature"}
]
}
