{
"type": "FeatureCollection",
"features": [
	{"geometry":{"coordinates":[2.306018,48.603189],"type":"Point"},"properties":{"osm_id":"2441654731","tag":{"amenity":"recycling","recycling:paper":"yes","recycling:scrap_metal":"yes","recycling_type":"container"}},"type":"Feature"},
	{"geometry":{"coordinates":[2.305664,48.603706],"type":"Point"},"properties":{"osm_id":"2441654734","tag":{"amenity":"recycling","recycling:paper":"yes","recycling:scrap_metal":"yes","recycling_type":"container"}},"type":"Feature"},
	{"geometry":{"coordinates":[2.306318,48.603815],"type":"Point"},"properties":{"osm_id":"2441654736","tag":{"amenity":"recycling","recycling:paper":"yes","recycling:scrap_metal":"yes","recycling_type":"container"}},"type":"Feature"},
	{"geometry":{"coordinates":[2.30577,48.604608],"type":"Point"},"properties":{"osm_id":"2441655007","tag":{"amenity":"recycling","recycling:paper":"yes","recycling:scrap_metal":"yes"}},"type":"Feature"},
	{"geometry":{"coordinates":[2.307286,48.604773],"type":"Point"},"properties":{"osm_id":"2441655013","tag":{"amenity":"recycling","recycling:paper":"yes","recycling:scrap_metal":"yes"}},"type":"Feature"},
	{"geometry":{"coordinates":[2.305697,48.604893],"type":"Point"},"properties":{"osm_id":"2441655017","tag":{"amenity":"recycling","recycling:clothes":"yes","recycling_type":"container","website":"http://www.lerelais.org"}},"type":"Feature"},
	{"geometry":{"coordinates":[2.333228,48.62588],"type":"Point"},"properties":{"name":"Eco-centre (d\u00c3\u00a9ch\u00c3\u00a8terie) de Sainte-Genevi\u00c3\u00a8ve-des-Bois","osm_id":"3298903779","tag":{"addr:city":"Sainte-Genevi\u00c3\u00a8ve-des-Bois","addr:housenumber":"13","addr:postcode":"91700","addr:street":"Rue Paul Langevin","amenity":"recycling","operator":"Siredom","recycling_type":"centre"}},"type":"Feature"},
	{"geometry":{"coordinates":[2.33294,48.626296],"type":"Point"},"properties":{"osm_id":"3298903780","tag":{"amenity":"recycling","recycling:glass":"yes","recycling:paper":"yes","recycling_type":"container"}},"type":"Feature"},
	{"geometry":{"coordinates":[2.357588,48.62054],"type":"Point"},"properties":{"osm_id":"3577529207","tag":{"amenity":"waste_basket"}},"type":"Feature"},
	{"geometry":{"coordinates":[2.344623,48.629384],"type":"Point"},"properties":{"osm_id":"3812434920","ref":"274;275;276;277","tag":{"amenity":"recycling","opening_hours":"24/7","recycling:cans":"yes","recycling:cardboard":"yes","recycling:glass":"yes","recycling:glass_bottles":"yes","recycling:paper":"yes","recycling:plastic":"yes","recycling:plastic_bottles":"yes","recycling:plastic_packaging":"yes","recycling:waste":"yes","recycling_type":"container","wheelchair":"yes"}},"type":"Feature"},
	{"geometry":{"coordinates":[2.345821,48.629537],"type":"Point"},"properties":{"osm_id":"3812434924","tag":{"amenity":"recycling","opening_hours":"24/7","recycling:cans":"yes","recycling:cardboard":"yes","recycling:glass":"yes","recycling:glass_bottles":"yes","recycling:paper":"yes","recycling:plastic":"yes","recycling:plastic_bottles":"yes","recycling:plastic_packaging":"yes","recycling:scrap_metal":"no","recycling:waste":"yes","recycling_type":"container","wheelchair":"yes"}},"type":"Feature"},
	{"geometry":{"coordinates":[2.345037,48.629779],"type":"Point"},"properties":{"osm_id":"3812434945","tag":{"amenity":"recycling","recycling:cans":"yes","recycling:cardboard":"yes","recycling:glass":"yes","recycling:glass_bottles":"yes","recycling:paper":"yes","recycling:plastic":"yes","recycling:plastic_bottles":"yes","recycling:waste":"yes","recycling_type":"container"}},"type":"Feature"},
	{"geometry":{"coordinates":[2.341616,48.630367],"type":"Point"},"properties":{"osm_id":"3812475998","tag":{"amenity":"recycling","opening_hours":"24/7","recycling:cans":"yes","recycling:cardboard":"yes","recycling:glass":"yes","recycling:glass_bottles":"yes","recycling:green_waste":"no","recycling:paper":"yes","recycling:plastic":"yes","recycling:plastic_bottles":"yes","recycling:plastic_packaging":"yes","recycling:waste":"yes","recycling_type":"container","wheelchair":"yes"}},"type":"Feature"},
	{"geometry":{"coordinates":[2.34184,48.630823],"type":"Point"},"properties":{"osm_id":"3812476011","ref":"264;265;266","tag":{"amenity":"recycling","opening_hours":"24/7","recycling:cans":"yes","recycling:cardboard":"yes","recycling:glass":"yes","recycling:glass_bottles":"yes","recycling:green_waste":"no","recycling:paper":"yes","recycling:plastic":"yes","recycling:plastic_bottles":"yes","recycling:plastic_packaging":"yes","recycling:waste":"yes","recycling_type":"container","wheelchair":"yes"}},"type":"Feature"},
	{"geometry":{"coordinates":[2.36581,48.61039],"type":"Point"},"properties":{"osm_id":"3917999979","tag":{"amenity":"waste_basket"}},"type":"Feature"},
	{"geometry":{"coordinates":[2.366287,48.610492],"type":"Point"},"properties":{"osm_id":"3917999996","tag":{"amenity":"recycling","location":"underground","recycling:cans":"yes","recycling:cardboard":"yes","recycling:paper":"yes","recycling:plastic":"yes","recycling:plastic_bottles":"yes","recycling:plastic_packaging":"yes","recycling:waste":"yes","recycling_type":"container"}},"type":"Feature"},
	{"geometry":{"coordinates":[2.365259,48.610575],"type":"Point"},"properties":{"osm_id":"3918000014","tag":{"amenity":"recycling","location":"underground","recycling:cans":"yes","recycling:cardboard":"yes","recycling:paper":"yes","recycling:plastic":"yes","recycling:plastic_bottles":"yes","recycling:plastic_packaging":"yes","recycling:waste":"yes","recycling_type":"container"}},"type":"Feature"},
	{"geometry":{"coordinates":[2.365347,48.611103],"type":"Point"},"properties":{"osm_id":"3918000132","tag":{"amenity":"recycling","location":"underground","recycling:cans":"yes","recycling:cardboard":"yes","recycling:paper":"yes","recycling:plastic":"yes","recycling:plastic_bottles":"yes","recycling:plastic_packaging":"yes","recycling:waste":"yes","recycling_type":"container"}},"type":"Feature"},
	{"geometry":{"coordinates":[2.367142,48.614338],"type":"Point"},"properties":{"osm_id":"3918000298","tag":{"amenity":"recycling","location":"underground","opening_hours":"24/7","recycling_type":"container"}},"type":"Feature"},
	{"geometry":{"coordinates":[2.293981,48.617719],"type":"Point"},"properties":{"osm_id":"5034179926","tag":{"amenity":"recycling","recycling:glass":"yes","recycling_type":"container"}},"type":"Feature"},
	{"geometry":{"coordinates":[2.324851,48.606857],"type":"Point"},"properties":{"osm_id":"6506040470","tag":{"amenity":"recycling","recycling:glass_bottles":"yes","recycling_type":"container"}},"type":"Feature"},
	{"geometry":{"coordinates":[2.367222,48.614334],"type":"Point"},"properties":{"osm_id":"6740147327","tag":{"amenity":"recycling","location":"underground","opening_hours":"24/7","recycling_type":"container"}},"type":"Feature"},
	{"geometry":{"coordinates":[2.367195,48.614335],"type":"Point"},"properties":{"osm_id":"6740147328","tag":{"amenity":"recycling","location":"underground","opening_hours":"24/7","recycling_type":"container"}},"type":"Feature"},
	{"geometry":{"coordinates":[2.367169,48.614337],"type":"Point"},"properties":{"osm_id":"6740147329","tag":{"amenity":"recycling","location":"underground","opening_hours":"24/7","recycling_type":"container"}},"type":"Feature"},
	{"geometry":{"coordinates":[2.366184,48.611615],"type":"Point"},"properties":{"osm_id":"6740147344","tag":{"amenity":"recycling","location":"underground","recycling_type":"container"}},"type":"Feature"},
	{"geometry":{"coordinates":[2.366158,48.61162],"type":"Point"},"properties":{"osm_id":"6740147345","tag":{"amenity":"recycling","location":"underground","recycling_type":"container"}},"type":"Feature"},
	{"geometry":{"coordinates":[2.365621,48.611723],"type":"Point"},"properties":{"osm_id":"6740147346","tag":{"amenity":"recycling","location":"underground","recycling_type":"container"}},"type":"Feature"},
	{"geometry":{"coordinates":[2.365593,48.611729],"type":"Point"},"properties":{"osm_id":"6740147347","tag":{"amenity":"recycling","location":"underground","recycling_type":"container"}},"type":"Feature"},
	{"geometry":{"coordinates":[2.3652,48.611805],"type":"Point"},"properties":{"osm_id":"6740147348","tag":{"amenity":"recycling","location":"underground","recycling_type":"container"}},"type":"Feature"},
	{"geometry":{"coordinates":[2.365174,48.61181],"type":"Point"},"properties":{"osm_id":"6740147349","tag":{"amenity":"recycling","location":"underground","recycling_type":"container"}},"type":"Feature"},
	{"geometry":{"coordinates":[2.367386,48.614136],"type":"Point"},"properties":{"osm_id":"6740167088","tag":{"amenity":"recycling","location":"underground","recycling_type":"container"}},"type":"Feature"},
	{"geometry":{"coordinates":[2.367374,48.614119],"type":"Point"},"properties":{"osm_id":"6740167089","tag":{"amenity":"recycling","location":"underground","recycling_type":"container"}},"type":"Feature"},
	{"geometry":{"coordinates":[2.367361,48.614103],"type":"Point"},"properties":{"osm_id":"6740167090","tag":{"amenity":"recycling","location":"underground","recycling_type":"container"}},"type":"Feature"},
	{"geometry":{"coordinates":[2.367252,48.61329],"type":"Point"},"properties":{"osm_id":"6740167091","tag":{"amenity":"recycling","location":"underground","recycling_type":"container"}},"type":"Feature"},
	{"geometry":{"coordinates":[2.367255,48.613307],"type":"Point"},"properties":{"osm_id":"6740167092","tag":{"amenity":"recycling","location":"underground","recycling_type":"container"}},"type":"Feature"},
	{"geometry":{"coordinates":[2.367257,48.613324],"type":"Point"},"properties":{"osm_id":"6740167093","tag":{"amenity":"recycling","location":"underground","recycling_type":"container"}},"type":"Feature"},
	{"geometry":{"coordinates":[2.365511,48.614243],"type":"Point"},"properties":{"osm_id":"6740167126","tag":{"amenity":"recycling","location":"underground","recycling_type":"container"}},"type":"Feature"},
	{"geometry":{"coordinates":[2.365517,48.61426],"type":"Point"},"properties":{"osm_id":"6740167127","tag":{"amenity":"recycling","location":"underground","recycling_type":"container"}},"type":"Feature"},
	{"geometry":{"coordinates":[2.365523,48.614277],"type":"Point"},"properties":{"osm_id":"6740167128","tag":{"amenity":"recycling","location":"underground","recycling_type":"container"}},"type":"Feature"},
	{"geometry":{"coordinates":[2.365528,48.614294],"type":"Point"},"properties":{"osm_id":"6740167129","tag":{"amenity":"recycling","location":"underground","recycling_type":"container"}},"type":"Feature"},
	{"geometry":{"coordinates":[2.365106,48.61315],"type":"Point"},"properties":{"osm_id":"6740167130","tag":{"amenity":"recycling","location":"underground","recycling_type":"container"}},"type":"Feature"},
	{"geometry":{"coordinates":[2.365112,48.613168],"type":"Point"},"properties":{"osm_id":"6740167131","tag":{"amenity":"recycling","location":"underground","recycling_type":"container"}},"type":"Feature"},
	{"geometry":{"coordinates":[2.365118,48.613185],"type":"Point"},"properties":{"osm_id":"6740167132","tag":{"amenity":"recycling","location":"underground","recycling_type":"container"}},"type":"Feature"},
	{"geometry":{"coordinates":[2.365125,48.613203],"type":"Point"},"properties":{"osm_id":"6740167133","tag":{"amenity":"recycling","location":"underground","recycling_type":"container"}},"type":"Feature"},
	{"geometry":{"coordinates":[2.365252,48.613896],"type":"Point"},"properties":{"osm_id":"6740167134","tag":{"amenity":"recycling","location":"underground","recycling_type":"container"}},"type":"Feature"},
	{"geometry":{"coordinates":[2.365248,48.613879],"type":"Point"},"properties":{"osm_id":"6740167135","tag":{"amenity":"recycling","location":"underground","recycling_type":"container"}},"type":"Feature"},
	{"geometry":{"coordinates":[2.36524,48.61386],"type":"Point"},"properties":{"osm_id":"6740167136","tag":{"amenity":"recycling","location":"underground","recycling_type":"container"}},"type":"Feature"},
	{"geometry":{"coordinates":[2.365736,48.612255],"type":"Point"},"properties":{"osm_id":"6740292134","tag":{"amenity":"waste_basket"}},"type":"Feature"},
	{"geometry":{"coordinates":[2.365225,48.610581],"type":"Point"},"properties":{"osm_id":"6740292172","tag":{"amenity":"waste_basket"}},"type":"Feature"},
	{"geometry":{"coordinates":[2.365139,48.610565],"type":"Point"},"properties":{"osm_id":"6740292173","tag":{"amenity":"recycling","location":"underground","recycling:glass":"yes","recycling_type":"container"}},"type":"Feature"},
	{"geometry":{"coordinates":[2.366406,48.611027],"type":"Point"},"properties":{"osm_id":"6740292177","tag":{"amenity":"recycling","location":"underground","recycling_type":"container"}},"type":"Feature"},
	{"geometry":{"coordinates":[2.365354,48.611147],"type":"Point"},"properties":{"osm_id":"6740292178","tag":{"amenity":"recycling","location":"underground","recycling:glass":"yes","recycling_type":"container"}},"type":"Feature"},
	{"geometry":{"coordinates":[2.366221,48.612232],"type":"Point"},"properties":{"osm_id":"6740298396","tag":{"amenity":"waste_basket"}},"type":"Feature"},
	{"geometry":{"coordinates":[2.31506,48.627654],"type":"Point"},"properties":{"osm_id":"6766011764","tag":{"amenity":"recycling","recycling:glass_bottles":"yes","recycling_type":"container"}},"type":"Feature"},
	{"geometry":{"coordinates":[2.315971,48.627276],"type":"Point"},"properties":{"osm_id":"6766011765","tag":{"amenity":"waste_basket"}},"type":"Feature"},
	{"geometry":{"coordinates":[2.315461,48.627512],"type":"Point"},"properties":{"osm_id":"6766011766","tag":{"amenity":"waste_basket"}},"type":"Feature"},
	{"geometry":{"coordinates":[2.300729,48.581115],"type":"Point"},"properties":{"osm_id":"6801810843","tag":{"amenity":"waste_basket"}},"type":"Feature"},
	{"geometry":{"coordinates":[2.300553,48.580776],"type":"Point"},"properties":{"osm_id":"6801810845","tag":{"amenity":"waste_basket"}},"type":"Feature"},
	{"geometry":{"coordinates":[2.31745,48.609145],"type":"Point"},"properties":{"name":"Centre Technique Municipal","osm_id":"7347679117","tag":{"amenity":"recycling","recycling_type":"centre"}},"type":"Feature"},
	{"geometry":{"coordinates":[2.296994,48.606724],"type":"Point"},"properties":{"osm_id":"7383369583","tag":{"amenity":"recycling","recycling_type":"container"}},"type":"Feature"},
	{"geometry":{"coordinates":[2.296975,48.606735],"type":"Point"},"properties":{"osm_id":"7383369584","tag":{"amenity":"recycling","recycling_type":"container"}},"type":"Feature"},
	{"geometry":{"coordinates":[2.296953,48.606746],"type":"Point"},"properties":{"osm_id":"7383374685","tag":{"amenity":"recycling","recycling_type":"container"}},"type":"Feature"},
	{"geometry":{"coordinates":[2.296191,48.607135],"type":"Point"},"properties":{"osm_id":"7383374686","tag":{"amenity":"recycling","recycling_type":"container"}},"type":"Feature"},
	{"geometry":{"coordinates":[2.296171,48.607147],"type":"Point"},"properties":{"osm_id":"7383374687","tag":{"amenity":"recycling","recycling_type":"container"}},"type":"Feature"},
	{"geometry":{"coordinates":[2.296149,48.607158],"type":"Point"},"properties":{"osm_id":"7383374688","tag":{"amenity":"recycling","recycling_type":"container"}},"type":"Feature"},
	{"geometry":{"coordinates":[2.295644,48.607414],"type":"Point"},"properties":{"osm_id":"7383374689","tag":{"amenity":"recycling","recycling_type":"container"}},"type":"Feature"},
	{"geometry":{"coordinates":[2.295625,48.607425],"type":"Point"},"properties":{"osm_id":"7383374690","tag":{"amenity":"recycling","recycling_type":"container"}},"type":"Feature"},
	{"geometry":{"coordinates":[2.295603,48.607437],"type":"Point"},"properties":{"osm_id":"7383374691","tag":{"amenity":"recycling","recycling_type":"container"}},"type":"Feature"},
	{"geometry":{"coordinates":[2.295333,48.607573],"type":"Point"},"properties":{"osm_id":"7383374692","tag":{"amenity":"recycling","recycling_type":"container"}},"type":"Feature"},
	{"geometry":{"coordinates":[2.295315,48.607583],"type":"Point"},"properties":{"osm_id":"7383374693","tag":{"amenity":"recycling","recycling_type":"container"}},"type":"Feature"},
	{"geometry":{"coordinates":[2.295296,48.607594],"type":"Point"},"properties":{"osm_id":"7383374694","tag":{"amenity":"recycling","recycling_type":"container"}},"type":"Feature"},
	{"geometry":{"coordinates":[2.295273,48.607606],"type":"Point"},"properties":{"osm_id":"7383374695","tag":{"amenity":"recycling","recycling_type":"container"}},"type":"Feature"},
	{"geometry":{"coordinates":[2.294053,48.608229],"type":"Point"},"properties":{"osm_id":"7383374696","tag":{"amenity":"recycling","recycling_type":"container"}},"type":"Feature"},
	{"geometry":{"coordinates":[2.294033,48.608241],"type":"Point"},"properties":{"osm_id":"7383374697","tag":{"amenity":"recycling","recycling_type":"container"}},"type":"Feature"},
	{"geometry":{"coordinates":[2.294011,48.608252],"type":"Point"},"properties":{"osm_id":"7383374698","tag":{"amenity":"recycling","recycling_type":"container"}},"type":"Feature"}
]
}
