{
"type": "FeatureCollection",
"features": [
	{"geometry":{"coordinates":[2.371715,48.532447],"type":"Point"},"properties":{"osm_id":"333288109","tag":{"amenity":"recycling","recycling:clothes":"yes","recycling:glass":"yes","recycling:paper":"yes"}},"type":"Feature"},
	{"geometry":{"coordinates":[2.292952,48.56441],"type":"Point"},"properties":{"osm_id":"1768177670","tag":{"amenity":"recycling","operator":"Sictom du Hurepoix","recycling:glass":"yes","recycling:paper":"yes","recycling_type":"container"}},"type":"Feature"},
	{"geometry":{"coordinates":[2.28941,48.565094],"type":"Point"},"properties":{"osm_id":"1768177671","tag":{"amenity":"recycling","operator":"Sictom du Hurepoix","recycling:glass":"yes","recycling:paper":"yes","recycling_type":"container"}},"type":"Feature"},
	{"geometry":{"coordinates":[2.298447,48.561107],"type":"Point"},"properties":{"osm_id":"1771090639","tag":{"amenity":"recycling","operator":"Sictom du Hurepoix","recycling:glass":"yes","recycling_type":"container"}},"type":"Feature"},
	{"geometry":{"coordinates":[2.297165,48.564995],"type":"Point"},"properties":{"osm_id":"1771090640","tag":{"amenity":"recycling","recycling:clothes":"yes","recycling_type":"container"}},"type":"Feature"},
	{"geometry":{"coordinates":[2.301378,48.565491],"type":"Point"},"properties":{"osm_id":"1771090641","tag":{"amenity":"recycling","operator":"Sictom du Hurepoix","recycling:glass":"yes","recycling:paper":"yes","recycling_type":"container"}},"type":"Feature"},
	{"geometry":{"coordinates":[2.314748,48.559068],"type":"Point"},"properties":{"name":"Route d'\u00c3\u0089vry","osm_id":"2365957416","tag":{"amenity":"recycling","recycling:glass_bottles":"yes","recycling_type":"container"}},"type":"Feature"},
	{"geometry":{"coordinates":[2.370116,48.530957],"type":"Point"},"properties":{"osm_id":"2868321993","tag":{"amenity":"waste_basket"}},"type":"Feature"},
	{"geometry":{"coordinates":[2.370253,48.531111],"type":"Point"},"properties":{"osm_id":"2868321996","tag":{"amenity":"waste_basket"}},"type":"Feature"},
	{"geometry":{"coordinates":[2.370119,48.531141],"type":"Point"},"properties":{"osm_id":"2868321997","tag":{"amenity":"waste_basket"}},"type":"Feature"},
	{"geometry":{"coordinates":[2.370364,48.531233],"type":"Point"},"properties":{"osm_id":"2868321998","tag":{"amenity":"waste_basket"}},"type":"Feature"},
	{"geometry":{"coordinates":[2.370232,48.531275],"type":"Point"},"properties":{"osm_id":"2868321999","tag":{"amenity":"waste_basket"}},"type":"Feature"},
	{"geometry":{"coordinates":[2.3703,48.531351],"type":"Point"},"properties":{"osm_id":"2868322201","tag":{"amenity":"waste_basket"}},"type":"Feature"},
	{"geometry":{"coordinates":[2.370528,48.531616],"type":"Point"},"properties":{"osm_id":"2868322209","tag":{"amenity":"waste_basket"}},"type":"Feature"},
	{"geometry":{"coordinates":[2.37071,48.531626],"type":"Point"},"properties":{"osm_id":"2868322211","tag":{"amenity":"waste_basket"}},"type":"Feature"},
	{"geometry":{"coordinates":[2.370773,48.531644],"type":"Point"},"properties":{"osm_id":"2868322213","tag":{"amenity":"waste_basket"}},"type":"Feature"},
	{"geometry":{"coordinates":[2.370616,48.531721],"type":"Point"},"properties":{"osm_id":"2868322219","tag":{"amenity":"waste_basket"}},"type":"Feature"},
	{"geometry":{"coordinates":[2.370647,48.531755],"type":"Point"},"properties":{"osm_id":"2868322220","tag":{"amenity":"waste_basket"}},"type":"Feature"},
	{"geometry":{"coordinates":[2.37077,48.531952],"type":"Point"},"properties":{"osm_id":"2868322229","tag":{"amenity":"waste_basket"}},"type":"Feature"},
	{"geometry":{"coordinates":[2.371023,48.531999],"type":"Point"},"properties":{"osm_id":"2868322237","tag":{"amenity":"waste_basket"}},"type":"Feature"},
	{"geometry":{"coordinates":[2.371161,48.532107],"type":"Point"},"properties":{"osm_id":"2868322248","tag":{"amenity":"waste_basket"}},"type":"Feature"},
	{"geometry":{"coordinates":[2.370946,48.532131],"type":"Point"},"properties":{"osm_id":"2868322253","tag":{"amenity":"waste_basket"}},"type":"Feature"},
	{"geometry":{"coordinates":[2.371312,48.532166],"type":"Point"},"properties":{"osm_id":"2868322259","tag":{"amenity":"waste_basket"}},"type":"Feature"},
	{"geometry":{"coordinates":[2.371093,48.532313],"type":"Point"},"properties":{"osm_id":"2868322262","tag":{"amenity":"waste_basket"}},"type":"Feature"},
	{"geometry":{"coordinates":[2.371131,48.532363],"type":"Point"},"properties":{"osm_id":"2868322266","tag":{"amenity":"waste_basket"}},"type":"Feature"},
	{"geometry":{"coordinates":[2.371329,48.532098],"type":"Point"},"properties":{"osm_id":"2989241626","tag":{"amenity":"waste_basket"}},"type":"Feature"},
	{"geometry":{"coordinates":[2.366988,48.551521],"type":"Point"},"properties":{"osm_id":"5748753643","tag":{"amenity":"waste_basket","waste":"trash"}},"type":"Feature"},
	{"geometry":{"coordinates":[2.365228,48.552558],"type":"Point"},"properties":{"osm_id":"6795390359","tag":{"amenity":"recycling"}},"type":"Feature"}
]
}
