{
"type": "FeatureCollection",
"lastupdate": "2020-08-03T00:00:00Z",
"features": [
	{"geometry":{"coordinates":[2.2897,44.407437],"type":"Point"},"properties":{"osm_id":"2606110380","tag":{"amenity":"waste_basket","covered":"booth"}},"type":"Feature"},
	{"geometry":{"coordinates":[2.290113,44.404817],"type":"Point"},"properties":{"osm_id":"2873164242","tag":{"amenity":"waste_basket"}},"type":"Feature"},
	{"geometry":{"coordinates":[2.289683,44.404926],"type":"Point"},"properties":{"osm_id":"2873164259","tag":{"amenity":"waste_basket"}},"type":"Feature"},
	{"geometry":{"coordinates":[2.289767,44.407737],"type":"Point"},"properties":{"osm_id":"2873164339","tag":{"amenity":"recycling","description":"Panneau \u00e0 proximit\u00e9 qui indique d\u00e9p\u00f4t de verre interdit de 21H \u00e0 8H","opening_hours":"Mo-Su 08:00-21:00","recycling:glass_bottles":"yes","recycling_type":"container"}},"type":"Feature"},
	{"geometry":{"coordinates":[2.289752,44.407753],"type":"Point"},"properties":{"osm_id":"2873164340","tag":{"amenity":"recycling","description":"Panneau \u00e0 proximit\u00e9 qui indique d\u00e9p\u00f4t de verre interdit de 21H \u00e0 8H","opening_hours":"Mo-Su 08:00-21:00","recycling:glass_bottles":"yes","recycling_type":"container"}},"type":"Feature"},
	{"geometry":{"coordinates":[2.289735,44.40777],"type":"Point"},"properties":{"osm_id":"2873164343","tag":{"amenity":"recycling","description":"Panneau \u00e0 proximit\u00e9 qui indique d\u00e9p\u00f4t de verre interdit de 21H \u00e0 8H","opening_hours":"Mo-Su 08:00-21:00","recycling:glass_bottles":"yes","recycling_type":"container"}},"type":"Feature"},
	{"geometry":{"coordinates":[2.289723,44.407781],"type":"Point"},"properties":{"osm_id":"2873164346","tag":{"amenity":"recycling","description":"Panneau \u00e0 proximit\u00e9 qui indique d\u00e9p\u00f4t de verre interdit de 21H \u00e0 8H","opening_hours":"Mo-Su 08:00-21:00","recycling:glass_bottles":"yes","recycling_type":"container"}},"type":"Feature"},
	{"geometry":{"coordinates":[2.288022,44.404668],"type":"Point"},"properties":{"osm_id":"2874543742","tag":{"amenity":"waste_basket"}},"type":"Feature"},
	{"geometry":{"coordinates":[2.293437,44.431508],"type":"Point"},"properties":{"barrier":"gate","osm_id":"3186290377"},"type":"Feature"},
	{"geometry":{"coordinates":[2.297553,44.461499],"type":"Point"},"properties":{"osm_id":"5372902809","tag":{"amenity":"recycling","recycling_type":"container"}},"type":"Feature"},
	{"geometry":{"coordinates":[2.287327,44.404759],"type":"Point"},"properties":{"osm_id":"6396176823","tag":{"amenity":"recycling","description":"container verre","recycling:glass":"yes"}},"type":"Feature"},
	{"geometry":{"coordinates":[2.289476,44.40631],"type":"Point"},"properties":{"osm_id":"6691667228","tag":{"amenity":"waste_basket"}},"type":"Feature"},
	{"geometry":{"coordinates":[2.367277,44.416787],"type":"Point"},"properties":{"osm_id":"6943347919","tag":{"amenity":"waste_basket"}},"type":"Feature"},
	{"geometry":{"coordinates":[2.372227,44.443499],"type":"Point"},"properties":{"osm_id":"6982403567","tag":{"amenity":"recycling","recycling:glass_bottles":"yes","recycling_type":"container"}},"type":"Feature"},
	{"geometry":{"coordinates":[2.372244,44.443488],"type":"Point"},"properties":{"osm_id":"7562119783","tag":{"amenity":"recycling","recycling:glass_bottles":"yes","recycling_type":"container"}},"type":"Feature"}
]
}
