{
"type": "FeatureCollection",
"features": [
	{"geometry":{"coordinates":[2.343345,43.465081],"type":"Point"},"properties":{"osm_id":"3707182720","tag":{"amenity":"waste_basket"}},"type":"Feature"},
	{"geometry":{"coordinates":[2.344363,43.460049],"type":"Point"},"properties":{"osm_id":"3707183927","tag":{"amenity":"waste_basket"}},"type":"Feature"},
	{"geometry":{"coordinates":[2.33943,43.460821],"type":"Point"},"properties":{"osm_id":"3707183932","tag":{"amenity":"waste_basket"}},"type":"Feature"},
	{"geometry":{"coordinates":[2.338624,43.46321],"type":"Point"},"properties":{"osm_id":"3707183949","tag":{"amenity":"waste_basket"}},"type":"Feature"},
	{"geometry":{"coordinates":[2.351307,43.515899],"type":"Point"},"properties":{"osm_id":"4416552572","tag":{"amenity":"waste_basket","note:fr":"Placement approximatif."}},"type":"Feature"},
	{"geometry":{"coordinates":[2.372345,43.508414],"type":"Point"},"properties":{"osm_id":"6597482421","tag":{"amenity":"waste_basket"}},"type":"Feature"},
	{"geometry":{"coordinates":[2.368795,43.509392],"type":"Point"},"properties":{"osm_id":"6597482424","tag":{"amenity":"waste_basket"}},"type":"Feature"},
	{"geometry":{"coordinates":[2.363867,43.496864],"type":"Point"},"properties":{"osm_id":"6899004138","tag":{"amenity":"waste_basket"}},"type":"Feature"},
	{"geometry":{"coordinates":[2.364234,43.496519],"type":"Point"},"properties":{"osm_id":"6899004141","tag":{"amenity":"waste_basket"}},"type":"Feature"}
]
}
