{
"type": "FeatureCollection",
"features": [
	{"geometry":{"coordinates":[2.355497,43.211667],"type":"Point"},"properties":{"osm_id":"842481322","tag":{"amenity":"recycling"}},"type":"Feature"},
	{"geometry":{"coordinates":[2.311799,43.203836],"type":"Point"},"properties":{"osm_id":"912580329","tag":{"amenity":"waste_basket"}},"type":"Feature"},
	{"geometry":{"coordinates":[2.351305,43.213192],"type":"Point"},"properties":{"osm_id":"1643022885","tag":{"amenity":"waste_basket"}},"type":"Feature"},
	{"geometry":{"coordinates":[2.352195,43.213353],"type":"Point"},"properties":{"osm_id":"1643022903","tag":{"amenity":"waste_basket"}},"type":"Feature"},
	{"geometry":{"coordinates":[2.355589,43.21277],"type":"Point"},"properties":{"osm_id":"1643202450","tag":{"amenity":"recycling"}},"type":"Feature"},
	{"geometry":{"coordinates":[2.355003,43.214777],"type":"Point"},"properties":{"osm_id":"1643202456","tag":{"amenity":"recycling"}},"type":"Feature"},
	{"geometry":{"coordinates":[2.325075,43.222892],"type":"Point"},"properties":{"osm_id":"2139982471","tag":{"amenity":"recycling","recycling:glass_bottles":"yes","recycling_type":"container"}},"type":"Feature"},
	{"geometry":{"coordinates":[2.352261,43.217228],"type":"Point"},"properties":{"osm_id":"2147756672","tag":{"amenity":"waste_basket"}},"type":"Feature"},
	{"geometry":{"coordinates":[2.350955,43.216401],"type":"Point"},"properties":{"osm_id":"2496330766","tag":{"amenity":"recycling","recycling:glass_bottles":"yes","recycling_type":"container"}},"type":"Feature"},
	{"geometry":{"coordinates":[2.351896,43.216496],"type":"Point"},"properties":{"osm_id":"2496330777","tag":{"amenity":"waste_basket"}},"type":"Feature"},
	{"geometry":{"coordinates":[2.35013,43.216533],"type":"Point"},"properties":{"osm_id":"2496330781","tag":{"amenity":"recycling","recycling:glass_bottles":"yes","recycling_type":"container"}},"type":"Feature"},
	{"geometry":{"coordinates":[2.347208,43.214238],"type":"Point"},"properties":{"osm_id":"2496435842","tag":{"amenity":"waste_basket"}},"type":"Feature"},
	{"geometry":{"coordinates":[2.348448,43.216407],"type":"Point"},"properties":{"osm_id":"2496435878","tag":{"amenity":"waste_basket"}},"type":"Feature"},
	{"geometry":{"coordinates":[2.365962,43.20665],"type":"Point"},"properties":{"osm_id":"2496637551","tag":{"amenity":"waste_basket"}},"type":"Feature"},
	{"geometry":{"coordinates":[2.357546,43.210734],"type":"Point"},"properties":{"osm_id":"4253563496","tag":{"amenity":"recycling"}},"type":"Feature"},
	{"geometry":{"coordinates":[2.366805,43.206109],"type":"Point"},"properties":{"osm_id":"4843488621","tag":{"amenity":"waste_basket"}},"type":"Feature"},
	{"geometry":{"coordinates":[2.367058,43.20581],"type":"Point"},"properties":{"osm_id":"4843488625","tag":{"amenity":"waste_basket"}},"type":"Feature"},
	{"geometry":{"coordinates":[2.367179,43.205787],"type":"Point"},"properties":{"osm_id":"4843488628","tag":{"amenity":"waste_basket"}},"type":"Feature"},
	{"geometry":{"coordinates":[2.367249,43.205785],"type":"Point"},"properties":{"osm_id":"4843488630","tag":{"amenity":"waste_basket"}},"type":"Feature"},
	{"geometry":{"coordinates":[2.367396,43.205792],"type":"Point"},"properties":{"osm_id":"4843488633","tag":{"amenity":"waste_basket"}},"type":"Feature"},
	{"geometry":{"coordinates":[2.30096,43.210967],"type":"Point"},"properties":{"name":"D\u00c3\u00a9ch\u00c3\u00a8terie Carcassonne Salvaza","osm_id":"7185383163","tag":{"amenity":"recycling","opening_hours":"Mo-Sa 09:00-12:00,14:00-18:00; Su 09:00-12:30","recycling_type":"centre"}},"type":"Feature"}
]
}
