{
"type": "FeatureCollection",
"features": [
	{"geometry":{"coordinates":[2.342019,6.420088],"type":"Point"},"properties":{"osm_id":"5171289531","tag":{"amenity":"waste_basket"}},"type":"Feature"},
	{"geometry":{"coordinates":[2.342465,6.420312],"type":"Point"},"properties":{"osm_id":"5171289532","tag":{"amenity":"waste_basket"}},"type":"Feature"},
	{"geometry":{"coordinates":[2.341675,6.420133],"type":"Point"},"properties":{"osm_id":"5171289535","tag":{"amenity":"waste_basket"}},"type":"Feature"},
	{"geometry":{"coordinates":[2.339946,6.41981],"type":"Point"},"properties":{"osm_id":"5938770179","tag":{"amenity":"waste_basket"}},"type":"Feature"},
	{"geometry":{"coordinates":[2.343114,6.413342],"type":"Point"},"properties":{"osm_id":"7271514133","tag":{"amenity":"waste_basket","waste":"trash"}},"type":"Feature"},
	{"geometry":{"coordinates":[2.338445,6.412678],"type":"Point"},"properties":{"name":"Laboratoire des Sciences et Techniques de l\u00e2\u0080\u0099Eau et de l'Environnement","osm_id":"7839054557","tag":{"addr:street":"Rue des Ma\u00e7ons","amenity":"recycling","description":"Laboratoire de recherche \ud83d\udd0e et structures de conseils","office":"educational_institution"}},"type":"Feature"}
]
}
