{
"type": "FeatureCollection",
"features": [
	{"geometry":{"coordinates":[27.50327,53.89041],"type":"Point"},"properties":{"osm_id":"1011745345","tag":{"amenity":"waste_basket"}},"type":"Feature"},
	{"geometry":{"coordinates":[27.501822,53.890482],"type":"Point"},"properties":{"osm_id":"1078542584","tag":{"amenity":"waste_basket"}},"type":"Feature"},
	{"geometry":{"coordinates":[27.502123,53.889475],"type":"Point"},"properties":{"osm_id":"1078542935","tag":{"amenity":"waste_basket"}},"type":"Feature"},
	{"geometry":{"coordinates":[27.504547,53.889341],"type":"Point"},"properties":{"osm_id":"1079701178","tag":{"amenity":"waste_basket"}},"type":"Feature"},
	{"geometry":{"coordinates":[27.509235,53.890541],"type":"Point"},"properties":{"osm_id":"1081680544","tag":{"amenity":"recycling","recycling:glass":"yes","recycling:paper":"yes","recycling:plastic":"yes","recycling:waste":"yes","recycling_type":"container"}},"type":"Feature"},
	{"geometry":{"coordinates":[27.505313,53.886927],"type":"Point"},"properties":{"osm_id":"1563416740","tag":{"amenity":"waste_basket"}},"type":"Feature"},
	{"geometry":{"coordinates":[27.46083,53.89424],"type":"Point"},"properties":{"osm_id":"2569729763","tag":{"amenity":"waste_disposal"}},"type":"Feature"},
	{"geometry":{"coordinates":[27.503912,53.890447],"type":"Point"},"properties":{"osm_id":"2613439392","tag":{"amenity":"waste_basket"}},"type":"Feature"},
	{"geometry":{"coordinates":[27.500195,53.901508],"type":"Point"},"properties":{"osm_id":"2627031577","tag":{"amenity":"waste_basket"}},"type":"Feature"},
	{"geometry":{"coordinates":[27.500903,53.900683],"type":"Point"},"properties":{"osm_id":"2627033873","tag":{"amenity":"waste_basket"}},"type":"Feature"},
	{"geometry":{"coordinates":[27.493399,53.894214],"type":"Point"},"properties":{"osm_id":"2629155569","tag":{"amenity":"waste_basket"}},"type":"Feature"},
	{"geometry":{"coordinates":[27.473146,53.852877],"type":"Point"},"properties":{"osm_id":"2772396922","tag":{"addr:city":"\u00d0\u009c\u00d0\u00b8\u00d0\u00bd\u00d1\u0081\u00d0\u00ba","addr:city:ru":"\u00d0\u009c\u00d0\u00b8\u00d0\u00bd\u00d1\u0081\u00d0\u00ba","addr:country":"BY","addr:housenumber":"3 \u00d0\u00ba2","addr:postcode":"220025","addr:street":"\u00d1\u0083\u00d0\u00bb\u00d0\u00b8\u00d1\u0086\u00d0\u00b0 \u00d0\u009a\u00d0\u00be\u00d1\u0081\u00d0\u00bc\u00d0\u00be\u00d0\u00bd\u00d0\u00b0\u00d0\u00b2\u00d1\u0082\u00d0\u00be\u00d0\u00b2","amenity":"recycling","recycling:cans":"no","recycling:clothes":"no","recycling:plastic":"yes","recycling:plastic_bottles":"yes","recycling_type":"container","wheelchair":"yes"}},"type":"Feature"},
	{"geometry":{"coordinates":[27.495835,53.895646],"type":"Point"},"properties":{"osm_id":"2780794309","tag":{"amenity":"waste_basket"}},"type":"Feature"},
	{"geometry":{"coordinates":[27.495722,53.896457],"type":"Point"},"properties":{"osm_id":"2780794311","tag":{"amenity":"waste_basket"}},"type":"Feature"},
	{"geometry":{"coordinates":[27.493867,53.896507],"type":"Point"},"properties":{"osm_id":"2780794312","tag":{"amenity":"waste_basket"}},"type":"Feature"},
	{"geometry":{"coordinates":[27.473872,53.852965],"type":"Point"},"properties":{"osm_id":"2813286148","tag":{"amenity":"waste_basket"}},"type":"Feature"},
	{"geometry":{"coordinates":[27.473779,53.853257],"type":"Point"},"properties":{"osm_id":"2813286163","tag":{"amenity":"waste_basket"}},"type":"Feature"},
	{"geometry":{"coordinates":[27.47334,53.852622],"type":"Point"},"properties":{"osm_id":"2813286196","tag":{"amenity":"waste_basket"}},"type":"Feature"},
	{"geometry":{"coordinates":[27.473038,53.852664],"type":"Point"},"properties":{"osm_id":"2813286199","tag":{"amenity":"waste_basket"}},"type":"Feature"},
	{"geometry":{"coordinates":[27.47362,53.852755],"type":"Point"},"properties":{"osm_id":"2862078608","tag":{"amenity":"waste_basket"}},"type":"Feature"},
	{"geometry":{"coordinates":[27.429396,53.881704],"type":"Point"},"properties":{"osm_id":"2941624771","tag":{"amenity":"recycling","recycling:glass":"yes","recycling:paper":"yes","recycling:plastic":"yes","recycling_type":"container"}},"type":"Feature"},
	{"geometry":{"coordinates":[27.429328,53.881793],"type":"Point"},"properties":{"osm_id":"2941624772","tag":{"amenity":"waste_disposal","waste":"trash"}},"type":"Feature"},
	{"geometry":{"coordinates":[27.432368,53.896414],"type":"Point"},"properties":{"osm_id":"3106564899","tag":{"amenity":"waste_basket"}},"type":"Feature"},
	{"geometry":{"coordinates":[27.461677,53.870762],"type":"Point"},"properties":{"name":"\u00d0\u00b1\u00d0\u00b0\u00d0\u00ba\u00d0\u00b8 \u00d0\u00b4\u00d0\u00bb\u00d1\u008f \u00d1\u0080\u00d0\u00b0\u00d0\u00b7\u00d0\u00b4\u00d0\u00b5\u00d0\u00bb\u00d1\u008c\u00d0\u00bd\u00d0\u00be\u00d0\u00b3\u00d0\u00be \u00d1\u0081\u00d0\u00b1\u00d0\u00be\u00d1\u0080\u00d0\u00b0 \u00d0\u00bc\u00d1\u0083\u00d1\u0081\u00d0\u00be\u00d1\u0080\u00d0\u00b0","osm_id":"3272645490","tag":{"amenity":"waste_basket"}},"type":"Feature"},
	{"geometry":{"coordinates":[27.461648,53.870676],"type":"Point"},"properties":{"osm_id":"3272650491","tag":{"amenity":"waste_basket"}},"type":"Feature"},
	{"geometry":{"coordinates":[27.472869,53.853635],"type":"Point"},"properties":{"name":"\u00d0\u009c\u00d0\u00b0\u00d0\u00ba\u00d1\u0083\u00d0\u00bb\u00d0\u00b0\u00d1\u0082\u00d1\u0083\u00d1\u0080\u00d0\u00b0","osm_id":"3458440651","tag":{"addr:street":"\u00d1\u0083\u00d0\u00bb\u00d0\u00b8\u00d1\u0086\u00d0\u00b0 \u00d0\u009a\u00d0\u00be\u00d1\u0081\u00d0\u00bc\u00d0\u00be\u00d0\u00bd\u00d0\u00b0\u00d0\u00b2\u00d1\u0082\u00d0\u00be\u00d0\u00b2","amenity":"recycling","mapillary":"EZTUsijvEwwjZFAT4HaQiw","operator":"\u00d0\u0091\u00d0\u0095\u00d0\u009b\u00d0\u0093\u00d0\u0098\u00d0\u009f\u00d0\u00a1-\u00d0\u00ad\u00d0\u009a\u00d0\u009e","operator:ru":"\u00d0\u0091\u00d0\u0095\u00d0\u009b\u00d0\u0093\u00d0\u0098\u00d0\u009f\u00d0\u00a1-\u00d0\u00ad\u00d0\u009a\u00d0\u009e","phone":"+375 33 3336272","recycling:books":"yes","recycling:cans":"no","recycling:clothes":"no","recycling:glass":"no","recycling:magazines":"yes","recycling:newspaper":"yes","recycling:paper":"yes","recycling_type":"container","website":"http://www.belgips.by/belgips-eko/"}},"type":"Feature"},
	{"geometry":{"coordinates":[27.498519,53.876665],"type":"Point"},"properties":{"osm_id":"3510069231","tag":{"amenity":"waste_disposal"}},"type":"Feature"},
	{"geometry":{"coordinates":[27.467065,53.853616],"type":"Point"},"properties":{"osm_id":"3583785398","tag":{"amenity":"recycling","recycling:cans":"no","recycling:clothes":"no","recycling:glass":"no","recycling:paper":"yes"}},"type":"Feature"},
	{"geometry":{"coordinates":[27.428747,53.887677],"type":"Point"},"properties":{"name":"\u00d0\u009c\u00d0\u00b0\u00d0\u00ba\u00d1\u0083\u00d0\u00bb\u00d0\u00b0\u00d1\u0082\u00d1\u0083\u00d1\u0080\u00d0\u00b0","osm_id":"3739229773","tag":{"amenity":"recycling","operator":"\u00d0\u0092\u00d0\u00be\u00d0\u00bb\u00d0\u00bc\u00d0\u00b0","phone":"+375 33 3336272","recycling:cans":"no","recycling:clothes":"no","recycling:glass":"no","recycling:paper":"yes","recycling_type":"container"}},"type":"Feature"},
	{"geometry":{"coordinates":[27.491746,53.898742],"type":"Point"},"properties":{"osm_id":"3810633921","tag":{"amenity":"waste_basket"}},"type":"Feature"},
	{"geometry":{"coordinates":[27.453968,53.864084],"type":"Point"},"properties":{"name":"\u00d0\u009f\u00d1\u0083\u00d0\u00bd\u00d0\u00ba\u00d1\u0082 \u00d1\u0081\u00d0\u00b1\u00d0\u00be\u00d1\u0080\u00d0\u00b0 \u00d0\u00bc\u00d0\u00b0\u00d0\u00ba\u00d1\u0083\u00d0\u00bb\u00d0\u00b0\u00d1\u0082\u00d1\u0083\u00d1\u0080\u00d1\u008b","osm_id":"3946247872","tag":{"amenity":"recycling","recycling:books":"yes","recycling:magazines":"yes","recycling:newspaper":"yes","recycling:paper":"yes","recycling_type":"centre"}},"type":"Feature"},
	{"geometry":{"coordinates":[27.497945,53.876],"type":"Point"},"properties":{"osm_id":"4031035344","tag":{"amenity":"recycling","recycling:paper":"yes","recycling_type":"container"}},"type":"Feature"},
	{"geometry":{"coordinates":[27.45446,53.897424],"type":"Point"},"properties":{"osm_id":"4154283294","tag":{"amenity":"waste_disposal"}},"type":"Feature"},
	{"geometry":{"coordinates":[27.45618,53.897144],"type":"Point"},"properties":{"osm_id":"4155797290","tag":{"amenity":"waste_disposal"}},"type":"Feature"},
	{"geometry":{"coordinates":[27.508491,53.892688],"type":"Point"},"properties":{"osm_id":"4290110936","tag":{"amenity":"waste_disposal"}},"type":"Feature"},
	{"geometry":{"coordinates":[27.484559,53.865925],"type":"Point"},"properties":{"osm_id":"4397043480","tag":{"amenity":"waste_disposal"}},"type":"Feature"},
	{"geometry":{"coordinates":[27.454002,53.880834],"type":"Point"},"properties":{"osm_id":"4474308574","tag":{"amenity":"recycling","recycling:paper":"yes","recycling_type":"container"}},"type":"Feature"},
	{"geometry":{"coordinates":[27.482726,53.878416],"type":"Point"},"properties":{"osm_id":"4491107418","tag":{"amenity":"recycling","operator":"\u00d0\u0091\u00d0\u0095\u00d0\u009b\u00d0\u0093\u00d0\u0098\u00d0\u009f\u00d0\u00a1-\u00d0\u00ad\u00d0\u009a\u00d0\u009e","operator:ru":"\u00d0\u0091\u00d0\u0095\u00d0\u009b\u00d0\u0093\u00d0\u0098\u00d0\u009f\u00d0\u00a1-\u00d0\u00ad\u00d0\u009a\u00d0\u009e","phone":"+375 33 3336272","recycling:books":"yes","recycling:magazines":"yes","recycling:newspaper":"yes","recycling:paper":"yes","recycling_type":"container"}},"type":"Feature"},
	{"geometry":{"coordinates":[27.482919,53.894195],"type":"Point"},"properties":{"name":"\u00d0\u009f\u00d1\u0080\u00d0\u00b8\u00d0\u00b5\u00d0\u00bc \u00d1\u0080\u00d1\u0082\u00d1\u0083\u00d1\u0082\u00d0\u00bd\u00d1\u008b\u00d1\u0085 \u00d0\u00bb\u00d0\u00b0\u00d0\u00bc\u00d0\u00bf \u00d0\u00b8 \u00d0\u00b1\u00d0\u00b0\u00d1\u0082\u00d0\u00b0\u00d1\u0080\u00d0\u00b5\u00d0\u00b5\u00d0\u00ba","osm_id":"4592685190","tag":{"amenity":"recycling","opening_hours":"Mo-Fr 09:00-20:00; Sa 09:00-18:00; Su 10:00-17:00","recycling:batteries":"yes","recycling:fluorescent_tubes":"yes","recycling:mobile_phones":"yes","recycling_type":"container"}},"type":"Feature"},
	{"geometry":{"coordinates":[27.496299,53.897019],"type":"Point"},"properties":{"osm_id":"4595992683","tag":{"amenity":"waste_basket"}},"type":"Feature"},
	{"geometry":{"coordinates":[27.496084,53.897196],"type":"Point"},"properties":{"osm_id":"4595996663","tag":{"amenity":"waste_basket"}},"type":"Feature"},
	{"geometry":{"coordinates":[27.49608,53.896723],"type":"Point"},"properties":{"osm_id":"4596001083","tag":{"amenity":"waste_basket"}},"type":"Feature"},
	{"geometry":{"coordinates":[27.505452,53.889675],"type":"Point"},"properties":{"osm_id":"4628432898","tag":{"amenity":"recycling","operator":"\u00d0\u0091\u00d0\u0095\u00d0\u009b\u00d0\u0093\u00d0\u0098\u00d0\u009f\u00d0\u00a1-\u00d0\u00ad\u00d0\u009a\u00d0\u009e","operator:ru":"\u00d0\u0091\u00d0\u0095\u00d0\u009b\u00d0\u0093\u00d0\u0098\u00d0\u009f\u00d0\u00a1-\u00d0\u00ad\u00d0\u009a\u00d0\u009e","phone":"+375 33 3336272","recycling:books":"yes","recycling:magazines":"yes","recycling:newspaper":"yes","recycling:paper":"yes","recycling_type":"container"}},"type":"Feature"},
	{"geometry":{"coordinates":[27.501473,53.890337],"type":"Point"},"properties":{"osm_id":"4628432899","tag":{"amenity":"recycling","operator":"\u00d0\u0091\u00d0\u0095\u00d0\u009b\u00d0\u0093\u00d0\u0098\u00d0\u009f\u00d0\u00a1-\u00d0\u00ad\u00d0\u009a\u00d0\u009e","operator:ru":"\u00d0\u0091\u00d0\u0095\u00d0\u009b\u00d0\u0093\u00d0\u0098\u00d0\u009f\u00d0\u00a1-\u00d0\u00ad\u00d0\u009a\u00d0\u009e","phone":"+375 33 3336272","recycling:books":"yes","recycling:magazines":"yes","recycling:newspaper":"yes","recycling:paper":"yes","recycling_type":"container"}},"type":"Feature"},
	{"geometry":{"coordinates":[27.464246,53.899213],"type":"Point"},"properties":{"osm_id":"4724009391","tag":{"amenity":"recycling"}},"type":"Feature"},
	{"geometry":{"coordinates":[27.456862,53.890474],"type":"Point"},"properties":{"osm_id":"4724065391","tag":{"amenity":"recycling"}},"type":"Feature"},
	{"geometry":{"coordinates":[27.468512,53.865256],"type":"Point"},"properties":{"osm_id":"4727808567","tag":{"amenity":"recycling","operator":"\u00d0\u0091\u00d0\u0095\u00d0\u009b\u00d0\u0093\u00d0\u0098\u00d0\u009f\u00d0\u00a1-\u00d0\u00ad\u00d0\u009a\u00d0\u009e","operator:ru":"\u00d0\u0091\u00d0\u0095\u00d0\u009b\u00d0\u0093\u00d0\u0098\u00d0\u009f\u00d0\u00a1-\u00d0\u00ad\u00d0\u009a\u00d0\u009e","phone":"+375 33 3336272","recycling:books":"yes","recycling:magazines":"yes","recycling:newspaper":"yes","recycling:paper":"yes","recycling_type":"container"}},"type":"Feature"},
	{"geometry":{"coordinates":[27.476847,53.861328],"type":"Point"},"properties":{"osm_id":"4732179053","tag":{"amenity":"recycling","recycling:paper":"yes"}},"type":"Feature"},
	{"geometry":{"coordinates":[27.477765,53.862199],"type":"Point"},"properties":{"osm_id":"4732179060","tag":{"amenity":"recycling","recycling:glass":"yes"}},"type":"Feature"},
	{"geometry":{"coordinates":[27.481802,53.860262],"type":"Point"},"properties":{"osm_id":"4784506111","tag":{"amenity":"recycling","operator":"\u00d0\u0091\u00d0\u0095\u00d0\u009b\u00d0\u0093\u00d0\u0098\u00d0\u009f\u00d0\u00a1-\u00d0\u00ad\u00d0\u009a\u00d0\u009e","operator:ru":"\u00d0\u0091\u00d0\u0095\u00d0\u009b\u00d0\u0093\u00d0\u0098\u00d0\u009f\u00d0\u00a1-\u00d0\u00ad\u00d0\u009a\u00d0\u009e","phone":"+375 33 3336272","recycling:books":"yes","recycling:magazines":"yes","recycling:newspaper":"yes","recycling:paper":"yes","recycling_type":"container"}},"type":"Feature"},
	{"geometry":{"coordinates":[27.473328,53.85706],"type":"Point"},"properties":{"osm_id":"4799047293","tag":{"amenity":"waste_disposal"}},"type":"Feature"},
	{"geometry":{"coordinates":[27.479743,53.85461],"type":"Point"},"properties":{"osm_id":"4835526692","tag":{"amenity":"waste_disposal"}},"type":"Feature"},
	{"geometry":{"coordinates":[27.479198,53.85545],"type":"Point"},"properties":{"osm_id":"4835526697","tag":{"amenity":"waste_disposal"}},"type":"Feature"},
	{"geometry":{"coordinates":[27.478138,53.856445],"type":"Point"},"properties":{"osm_id":"4842032203","tag":{"amenity":"recycling","operator":"\u00d0\u0091\u00d0\u0095\u00d0\u009b\u00d0\u0093\u00d0\u0098\u00d0\u009f\u00d0\u00a1-\u00d0\u00ad\u00d0\u009a\u00d0\u009e","operator:ru":"\u00d0\u0091\u00d0\u0095\u00d0\u009b\u00d0\u0093\u00d0\u0098\u00d0\u009f\u00d0\u00a1-\u00d0\u00ad\u00d0\u009a\u00d0\u009e","phone":"+375 33 3336272","recycling:books":"yes","recycling:magazines":"yes","recycling:newspaper":"yes","recycling:paper":"yes","recycling_type":"container","website":"http://www.belgips.by/belgips-eko/"}},"type":"Feature"},
	{"geometry":{"coordinates":[27.478928,53.855318],"type":"Point"},"properties":{"osm_id":"4844036329","tag":{"amenity":"waste_disposal"}},"type":"Feature"},
	{"geometry":{"coordinates":[27.483722,53.853483],"type":"Point"},"properties":{"osm_id":"4844036356","tag":{"amenity":"waste_disposal"}},"type":"Feature"},
	{"geometry":{"coordinates":[27.478916,53.8551],"type":"Point"},"properties":{"osm_id":"4844143121","tag":{"amenity":"waste_disposal"}},"type":"Feature"},
	{"geometry":{"coordinates":[27.467553,53.858778],"type":"Point"},"properties":{"osm_id":"4872773923","tag":{"amenity":"waste_disposal"}},"type":"Feature"},
	{"geometry":{"coordinates":[27.4547,53.903304],"type":"Point"},"properties":{"osm_id":"4925093422","tag":{"amenity":"waste_disposal"}},"type":"Feature"},
	{"geometry":{"coordinates":[27.503312,53.888078],"type":"Point"},"properties":{"osm_id":"4992020306","tag":{"amenity":"waste_basket"}},"type":"Feature"},
	{"geometry":{"coordinates":[27.49732,53.855071],"type":"Point"},"properties":{"name":"\u00d0\u009a\u00d0\u00be\u00d0\u00bc\u00d0\u00bf\u00d0\u00bb\u00d0\u00b5\u00d0\u00ba\u00d1\u0081\u00d0\u00bd\u00d1\u008b\u00d0\u00b9 \u00d0\u00b7\u00d0\u00b0\u00d0\u00b3\u00d0\u00be\u00d1\u0082\u00d0\u00be\u00d0\u00b2\u00d0\u00b8\u00d1\u0082\u00d0\u00b5\u00d0\u00bb\u00d1\u008c\u00d0\u00bd\u00d1\u008b\u00d0\u00b9 \u00d0\u00bf\u00d1\u0083\u00d0\u00bd\u00d0\u00ba\u00d1\u0082 \u00e2\u0084\u009622","osm_id":"5041585216","tag":{"amenity":"recycling","opening_hours":"08:00-13:00,14:00-20:00","operator":"\u00d0\u0091\u00d0\u00b5\u00d0\u00bb\u00d0\u00b2\u00d1\u0082\u00d0\u00be\u00d1\u0080\u00d1\u0080\u00d0\u00b5\u00d1\u0081\u00d1\u0083\u00d1\u0080\u00d1\u0081\u00d1\u008b","recycling:glass":"yes","recycling:glass_bottles":"yes","recycling:paper":"yes","recycling:plastic":"yes","recycling:plastic_bottles":"yes","recycling:plastic_packaging":"yes","recycling:scrap_metal":"yes","recycling_type":"centre"}},"type":"Feature"},
	{"geometry":{"coordinates":[27.485368,53.857062],"type":"Point"},"properties":{"osm_id":"5078283448","tag":{"amenity":"waste_basket"}},"type":"Feature"},
	{"geometry":{"coordinates":[27.485849,53.857019],"type":"Point"},"properties":{"osm_id":"5078283449","tag":{"amenity":"waste_disposal"}},"type":"Feature"},
	{"geometry":{"coordinates":[27.485774,53.8566],"type":"Point"},"properties":{"osm_id":"5078283450","tag":{"amenity":"waste_disposal"}},"type":"Feature"},
	{"geometry":{"coordinates":[27.484513,53.857123],"type":"Point"},"properties":{"osm_id":"5078283451","tag":{"amenity":"waste_disposal"}},"type":"Feature"},
	{"geometry":{"coordinates":[27.484627,53.857529],"type":"Point"},"properties":{"osm_id":"5078283452","tag":{"amenity":"waste_disposal"}},"type":"Feature"},
	{"geometry":{"coordinates":[27.483297,53.857654],"type":"Point"},"properties":{"osm_id":"5078283453","tag":{"amenity":"waste_disposal"}},"type":"Feature"},
	{"geometry":{"coordinates":[27.483397,53.85805],"type":"Point"},"properties":{"osm_id":"5078283454","tag":{"amenity":"waste_disposal"}},"type":"Feature"},
	{"geometry":{"coordinates":[27.483259,53.859355],"type":"Point"},"properties":{"osm_id":"5078295735","tag":{"amenity":"waste_disposal"}},"type":"Feature"},
	{"geometry":{"coordinates":[27.484219,53.861015],"type":"Point"},"properties":{"osm_id":"5113288231","tag":{"amenity":"waste_disposal"}},"type":"Feature"},
	{"geometry":{"coordinates":[27.459448,53.86972],"type":"Point"},"properties":{"osm_id":"5128797340","tag":{"amenity":"waste_disposal"}},"type":"Feature"},
	{"geometry":{"coordinates":[27.481324,53.8645],"type":"Point"},"properties":{"osm_id":"5131465984","tag":{"amenity":"recycling","operator":"\u00d0\u0091\u00d0\u0095\u00d0\u009b\u00d0\u0093\u00d0\u0098\u00d0\u009f\u00d0\u00a1-\u00d0\u00ad\u00d0\u009a\u00d0\u009e","operator:ru":"\u00d0\u0091\u00d0\u0095\u00d0\u009b\u00d0\u0093\u00d0\u0098\u00d0\u009f\u00d0\u00a1-\u00d0\u00ad\u00d0\u009a\u00d0\u009e","phone":"+375 33 3336272","recycling:books":"yes","recycling:magazines":"yes","recycling:newspaper":"yes","recycling:paper":"yes","recycling_type":"container"}},"type":"Feature"},
	{"geometry":{"coordinates":[27.484673,53.86856],"type":"Point"},"properties":{"osm_id":"5166158181","tag":{"amenity":"recycling","operator":"\u00d0\u0091\u00d0\u0095\u00d0\u009b\u00d0\u0093\u00d0\u0098\u00d0\u009f\u00d0\u00a1-\u00d0\u00ad\u00d0\u009a\u00d0\u009e","operator:ru":"\u00d0\u0091\u00d0\u0095\u00d0\u009b\u00d0\u0093\u00d0\u0098\u00d0\u009f\u00d0\u00a1-\u00d0\u00ad\u00d0\u009a\u00d0\u009e","phone":"+375 33 3336272","recycling:books":"yes","recycling:magazines":"yes","recycling:newspaper":"yes","recycling:paper":"yes","recycling_type":"container"}},"type":"Feature"},
	{"geometry":{"coordinates":[27.476014,53.865718],"type":"Point"},"properties":{"osm_id":"5166160222","tag":{"amenity":"recycling","operator":"\u00d0\u0091\u00d0\u0095\u00d0\u009b\u00d0\u0093\u00d0\u0098\u00d0\u009f\u00d0\u00a1-\u00d0\u00ad\u00d0\u009a\u00d0\u009e","operator:ru":"\u00d0\u0091\u00d0\u0095\u00d0\u009b\u00d0\u0093\u00d0\u0098\u00d0\u009f\u00d0\u00a1-\u00d0\u00ad\u00d0\u009a\u00d0\u009e","phone":"+375 33 3336272","recycling:books":"yes","recycling:magazines":"yes","recycling:newspaper":"yes","recycling:paper":"yes","recycling_type":"container"}},"type":"Feature"},
	{"geometry":{"coordinates":[27.505456,53.897975],"type":"Point"},"properties":{"osm_id":"5216808590","tag":{"amenity":"recycling","recycling:batteries":"yes","recycling_type":"container"}},"type":"Feature"},
	{"geometry":{"coordinates":[27.432853,53.901725],"type":"Point"},"properties":{"osm_id":"5224666623","tag":{"amenity":"waste_disposal"}},"type":"Feature"},
	{"geometry":{"coordinates":[27.505805,53.897839],"type":"Point"},"properties":{"osm_id":"5243047551","tag":{"amenity":"recycling","operator":"\u00d0\u0091\u00d0\u0095\u00d0\u009b\u00d0\u0093\u00d0\u0098\u00d0\u009f\u00d0\u00a1-\u00d0\u00ad\u00d0\u009a\u00d0\u009e","operator:ru":"\u00d0\u0091\u00d0\u0095\u00d0\u009b\u00d0\u0093\u00d0\u0098\u00d0\u009f\u00d0\u00a1-\u00d0\u00ad\u00d0\u009a\u00d0\u009e","phone":"+375 33 3336272","recycling:books":"yes","recycling:magazines":"yes","recycling:newspaper":"yes","recycling:paper":"yes","recycling_type":"container","website":"http://www.belgips.by/belgips-eko/"}},"type":"Feature"},
	{"geometry":{"coordinates":[27.469863,53.858325],"type":"Point"},"properties":{"osm_id":"5257164396","tag":{"amenity":"recycling","operator":"\u00d0\u0091\u00d0\u0095\u00d0\u009b\u00d0\u0093\u00d0\u0098\u00d0\u009f\u00d0\u00a1-\u00d0\u00ad\u00d0\u009a\u00d0\u009e","operator:ru":"\u00d0\u0091\u00d0\u0095\u00d0\u009b\u00d0\u0093\u00d0\u0098\u00d0\u009f\u00d0\u00a1-\u00d0\u00ad\u00d0\u009a\u00d0\u009e","phone":"+375 33 3336272","recycling:books":"yes","recycling:magazines":"yes","recycling:newspaper":"yes","recycling:paper":"yes","recycling_type":"container"}},"type":"Feature"},
	{"geometry":{"coordinates":[27.456829,53.857108],"type":"Point"},"properties":{"osm_id":"5288141001","tag":{"amenity":"recycling","operator":"\u00d0\u0091\u00d0\u0095\u00d0\u009b\u00d0\u0093\u00d0\u0098\u00d0\u009f\u00d0\u00a1-\u00d0\u00ad\u00d0\u009a\u00d0\u009e","operator:ru":"\u00d0\u0091\u00d0\u0095\u00d0\u009b\u00d0\u0093\u00d0\u0098\u00d0\u009f\u00d0\u00a1-\u00d0\u00ad\u00d0\u009a\u00d0\u009e","phone":"+375 33 3336272","recycling:books":"yes","recycling:magazines":"yes","recycling:newspaper":"yes","recycling:paper":"yes","recycling_type":"container"}},"type":"Feature"},
	{"geometry":{"coordinates":[27.454042,53.89096],"type":"Point"},"properties":{"osm_id":"5304880816","tag":{"amenity":"waste_disposal"}},"type":"Feature"},
	{"geometry":{"coordinates":[27.497423,53.898545],"type":"Point"},"properties":{"osm_id":"5305199851","tag":{"amenity":"recycling","operator":"\u00d0\u0091\u00d0\u0095\u00d0\u009b\u00d0\u0093\u00d0\u0098\u00d0\u009f\u00d0\u00a1-\u00d0\u00ad\u00d0\u009a\u00d0\u009e","operator:ru":"\u00d0\u0091\u00d0\u0095\u00d0\u009b\u00d0\u0093\u00d0\u0098\u00d0\u009f\u00d0\u00a1-\u00d0\u00ad\u00d0\u009a\u00d0\u009e","phone":"+375 33 3336272","recycling:books":"yes","recycling:magazines":"yes","recycling:newspaper":"yes","recycling:paper":"yes","recycling_type":"container"}},"type":"Feature"},
	{"geometry":{"coordinates":[27.497004,53.902187],"type":"Point"},"properties":{"osm_id":"5305199852","tag":{"amenity":"recycling","operator":"\u00d0\u0091\u00d0\u0095\u00d0\u009b\u00d0\u0093\u00d0\u0098\u00d0\u009f\u00d0\u00a1-\u00d0\u00ad\u00d0\u009a\u00d0\u009e","operator:ru":"\u00d0\u0091\u00d0\u0095\u00d0\u009b\u00d0\u0093\u00d0\u0098\u00d0\u009f\u00d0\u00a1-\u00d0\u00ad\u00d0\u009a\u00d0\u009e","phone":"+375 33 3336272","recycling:books":"yes","recycling:magazines":"yes","recycling:newspaper":"yes","recycling:paper":"yes","recycling_type":"container"}},"type":"Feature"},
	{"geometry":{"coordinates":[27.454326,53.87437],"type":"Point"},"properties":{"osm_id":"5333989421","tag":{"amenity":"waste_disposal"}},"type":"Feature"},
	{"geometry":{"coordinates":[27.465946,53.867108],"type":"Point"},"properties":{"osm_id":"5343588028","tag":{"amenity":"recycling","operator":"\u00d0\u0091\u00d0\u0095\u00d0\u009b\u00d0\u0093\u00d0\u0098\u00d0\u009f\u00d0\u00a1-\u00d0\u00ad\u00d0\u009a\u00d0\u009e","operator:ru":"\u00d0\u0091\u00d0\u0095\u00d0\u009b\u00d0\u0093\u00d0\u0098\u00d0\u009f\u00d0\u00a1-\u00d0\u00ad\u00d0\u009a\u00d0\u009e","phone":"+375 33 3336272","recycling:books":"yes","recycling:magazines":"yes","recycling:newspaper":"yes","recycling:paper":"yes","recycling_type":"container"}},"type":"Feature"},
	{"geometry":{"coordinates":[27.438945,53.889392],"type":"Point"},"properties":{"osm_id":"5357529522","tag":{"amenity":"waste_basket"}},"type":"Feature"},
	{"geometry":{"coordinates":[27.461254,53.863726],"type":"Point"},"properties":{"osm_id":"5364307100","tag":{"amenity":"recycling","operator":"\u00d0\u0091\u00d0\u0095\u00d0\u009b\u00d0\u0093\u00d0\u0098\u00d0\u009f\u00d0\u00a1-\u00d0\u00ad\u00d0\u009a\u00d0\u009e","operator:ru":"\u00d0\u0091\u00d0\u0095\u00d0\u009b\u00d0\u0093\u00d0\u0098\u00d0\u009f\u00d0\u00a1-\u00d0\u00ad\u00d0\u009a\u00d0\u009e","phone":"+375 33 3336272","recycling:books":"yes","recycling:magazines":"yes","recycling:newspaper":"yes","recycling:paper":"yes","recycling_type":"container"}},"type":"Feature"},
	{"geometry":{"coordinates":[27.43021,53.886578],"type":"Point"},"properties":{"osm_id":"5365445022","tag":{"amenity":"waste_disposal"}},"type":"Feature"},
	{"geometry":{"coordinates":[27.434346,53.884647],"type":"Point"},"properties":{"osm_id":"5365445023","tag":{"amenity":"waste_disposal"}},"type":"Feature"},
	{"geometry":{"coordinates":[27.483737,53.859238],"type":"Point"},"properties":{"osm_id":"5381036474","tag":{"amenity":"recycling","operator":"\u00d0\u0091\u00d0\u0095\u00d0\u009b\u00d0\u0093\u00d0\u0098\u00d0\u009f\u00d0\u00a1-\u00d0\u00ad\u00d0\u009a\u00d0\u009e","operator:ru":"\u00d0\u0091\u00d0\u0095\u00d0\u009b\u00d0\u0093\u00d0\u0098\u00d0\u009f\u00d0\u00a1-\u00d0\u00ad\u00d0\u009a\u00d0\u009e","phone":"+375 33 3336272","recycling:books":"yes","recycling:magazines":"yes","recycling:newspaper":"yes","recycling:paper":"yes","recycling_type":"container"}},"type":"Feature"},
	{"geometry":{"coordinates":[27.500862,53.876552],"type":"Point"},"properties":{"osm_id":"5403154700","tag":{"amenity":"recycling","operator":"\u00d0\u0091\u00d0\u0095\u00d0\u009b\u00d0\u0093\u00d0\u0098\u00d0\u009f\u00d0\u00a1-\u00d0\u00ad\u00d0\u009a\u00d0\u009e","operator:ru":"\u00d0\u0091\u00d0\u0095\u00d0\u009b\u00d0\u0093\u00d0\u0098\u00d0\u009f\u00d0\u00a1-\u00d0\u00ad\u00d0\u009a\u00d0\u009e","phone":"+375 33 3336272","recycling:books":"yes","recycling:magazines":"yes","recycling:newspaper":"yes","recycling:paper":"yes","recycling_type":"container"}},"type":"Feature"},
	{"geometry":{"coordinates":[27.461388,53.865077],"type":"Point"},"properties":{"osm_id":"5407986805","tag":{"amenity":"recycling","operator":"\u00d0\u0091\u00d0\u0095\u00d0\u009b\u00d0\u0093\u00d0\u0098\u00d0\u009f\u00d0\u00a1-\u00d0\u00ad\u00d0\u009a\u00d0\u009e","operator:ru":"\u00d0\u0091\u00d0\u0095\u00d0\u009b\u00d0\u0093\u00d0\u0098\u00d0\u009f\u00d0\u00a1-\u00d0\u00ad\u00d0\u009a\u00d0\u009e","phone":"+375 33 3336272","recycling:books":"yes","recycling:magazines":"yes","recycling:newspaper":"yes","recycling:paper":"yes","recycling_type":"container"}},"type":"Feature"},
	{"geometry":{"coordinates":[27.494922,53.877959],"type":"Point"},"properties":{"osm_id":"5412918373","tag":{"amenity":"recycling","operator":"\u00d0\u0091\u00d0\u0095\u00d0\u009b\u00d0\u0093\u00d0\u0098\u00d0\u009f\u00d0\u00a1-\u00d0\u00ad\u00d0\u009a\u00d0\u009e","operator:ru":"\u00d0\u0091\u00d0\u0095\u00d0\u009b\u00d0\u0093\u00d0\u0098\u00d0\u009f\u00d0\u00a1-\u00d0\u00ad\u00d0\u009a\u00d0\u009e","phone":"+375 33 3336272","recycling:books":"yes","recycling:magazines":"yes","recycling:newspaper":"yes","recycling:paper":"yes","recycling_type":"container","website":"http://www.belgips.by/belgips-eko/"}},"type":"Feature"},
	{"geometry":{"coordinates":[27.429314,53.861055],"type":"Point"},"properties":{"osm_id":"5420742427","tag":{"amenity":"recycling","operator":"\u00d0\u0091\u00d0\u0095\u00d0\u009b\u00d0\u0093\u00d0\u0098\u00d0\u009f\u00d0\u00a1-\u00d0\u00ad\u00d0\u009a\u00d0\u009e","operator:ru":"\u00d0\u0091\u00d0\u0095\u00d0\u009b\u00d0\u0093\u00d0\u0098\u00d0\u009f\u00d0\u00a1-\u00d0\u00ad\u00d0\u009a\u00d0\u009e","phone":"+375 33 3336272","recycling:books":"yes","recycling:magazines":"yes","recycling:newspaper":"yes","recycling:paper":"yes","recycling_type":"container"}},"type":"Feature"},
	{"geometry":{"coordinates":[27.508535,53.892342],"type":"Point"},"properties":{"osm_id":"5423096786","tag":{"amenity":"recycling","operator":"\u00d0\u0091\u00d0\u0095\u00d0\u009b\u00d0\u0093\u00d0\u0098\u00d0\u009f\u00d0\u00a1-\u00d0\u00ad\u00d0\u009a\u00d0\u009e","phone":"+375 33 3336272","recycling:books":"yes","recycling:magazines":"yes","recycling:newspaper":"yes","recycling:paper":"yes","recycling_type":"container","website":"http://www.belgips.by/belgips-eko/"}},"type":"Feature"},
	{"geometry":{"coordinates":[27.436991,53.859795],"type":"Point"},"properties":{"osm_id":"5427389315","tag":{"amenity":"recycling","operator":"\u00d0\u0091\u00d0\u0095\u00d0\u009b\u00d0\u0093\u00d0\u0098\u00d0\u009f\u00d0\u00a1-\u00d0\u00ad\u00d0\u009a\u00d0\u009e","operator:ru":"\u00d0\u0091\u00d0\u0095\u00d0\u009b\u00d0\u0093\u00d0\u0098\u00d0\u009f\u00d0\u00a1-\u00d0\u00ad\u00d0\u009a\u00d0\u009e","phone":"+375 33 3336272","recycling:books":"yes","recycling:magazines":"yes","recycling:newspaper":"yes","recycling:paper":"yes","recycling_type":"container"}},"type":"Feature"},
	{"geometry":{"coordinates":[27.477174,53.879868],"type":"Point"},"properties":{"osm_id":"5458552940","tag":{"amenity":"recycling","operator":"\u00d0\u0091\u00d0\u0095\u00d0\u009b\u00d0\u0093\u00d0\u0098\u00d0\u009f\u00d0\u00a1-\u00d0\u00ad\u00d0\u009a\u00d0\u009e","operator:ru":"\u00d0\u0091\u00d0\u0095\u00d0\u009b\u00d0\u0093\u00d0\u0098\u00d0\u009f\u00d0\u00a1-\u00d0\u00ad\u00d0\u009a\u00d0\u009e","phone":"+375 33 3336272","recycling:books":"yes","recycling:magazines":"yes","recycling:newspaper":"yes","recycling:paper":"yes","recycling_type":"container","website":"http://www.belgips.by/belgips-eko/"}},"type":"Feature"},
	{"geometry":{"coordinates":[27.476063,53.87739],"type":"Point"},"properties":{"osm_id":"5458553034","tag":{"amenity":"recycling","operator":"\u00d0\u0091\u00d0\u0095\u00d0\u009b\u00d0\u0093\u00d0\u0098\u00d0\u009f\u00d0\u00a1-\u00d0\u00ad\u00d0\u009a\u00d0\u009e","operator:ru":"\u00d0\u0091\u00d0\u0095\u00d0\u009b\u00d0\u0093\u00d0\u0098\u00d0\u009f\u00d0\u00a1-\u00d0\u00ad\u00d0\u009a\u00d0\u009e","phone":"+375 33 3336272","recycling:books":"yes","recycling:magazines":"yes","recycling:newspaper":"yes","recycling:paper":"yes","recycling_type":"container","website":"http://www.belgips.by/belgips-eko/"}},"type":"Feature"},
	{"geometry":{"coordinates":[27.480972,53.873086],"type":"Point"},"properties":{"osm_id":"5459891888","tag":{"amenity":"recycling","operator":"\u00d0\u0091\u00d0\u0095\u00d0\u009b\u00d0\u0093\u00d0\u0098\u00d0\u009f\u00d0\u00a1-\u00d0\u00ad\u00d0\u009a\u00d0\u009e","operator:ru":"\u00d0\u0091\u00d0\u0095\u00d0\u009b\u00d0\u0093\u00d0\u0098\u00d0\u009f\u00d0\u00a1-\u00d0\u00ad\u00d0\u009a\u00d0\u009e","phone":"+375 33 3336272","recycling:books":"yes","recycling:magazines":"yes","recycling:newspaper":"yes","recycling:paper":"yes","recycling_type":"container","website":"http://www.belgips.by/belgips-eko/"}},"type":"Feature"},
	{"geometry":{"coordinates":[27.481463,53.872726],"type":"Point"},"properties":{"osm_id":"5459891898","tag":{"amenity":"recycling","operator":"\u00d0\u0091\u00d0\u0095\u00d0\u009b\u00d0\u0093\u00d0\u0098\u00d0\u009f\u00d0\u00a1-\u00d0\u00ad\u00d0\u009a\u00d0\u009e","operator:ru":"\u00d0\u0091\u00d0\u0095\u00d0\u009b\u00d0\u0093\u00d0\u0098\u00d0\u009f\u00d0\u00a1-\u00d0\u00ad\u00d0\u009a\u00d0\u009e","phone":"+375 33 3336272","recycling:books":"yes","recycling:magazines":"yes","recycling:newspaper":"yes","recycling:paper":"yes","recycling_type":"container","website":"http://www.belgips.by/belgips-eko/"}},"type":"Feature"},
	{"geometry":{"coordinates":[27.490042,53.870189],"type":"Point"},"properties":{"osm_id":"5459892259","tag":{"amenity":"recycling","operator":"\u00d0\u0091\u00d0\u0095\u00d0\u009b\u00d0\u0093\u00d0\u0098\u00d0\u009f\u00d0\u00a1-\u00d0\u00ad\u00d0\u009a\u00d0\u009e","operator:ru":"\u00d0\u0091\u00d0\u0095\u00d0\u009b\u00d0\u0093\u00d0\u0098\u00d0\u009f\u00d0\u00a1-\u00d0\u00ad\u00d0\u009a\u00d0\u009e","phone":"+375 33 3336272","recycling:books":"yes","recycling:magazines":"yes","recycling:newspaper":"yes","recycling:paper":"yes","recycling_type":"container","website":"http://www.belgips.by/belgips-eko/"}},"type":"Feature"},
	{"geometry":{"coordinates":[27.502712,53.888985],"type":"Point"},"properties":{"osm_id":"5521803519","tag":{"amenity":"waste_basket"}},"type":"Feature"},
	{"geometry":{"coordinates":[27.501406,53.896687],"type":"Point"},"properties":{"osm_id":"5527841999","tag":{"amenity":"recycling","recycling:glass":"yes","recycling:paper":"yes","recycling:plastic_bottles":"yes","recycling_type":"container"}},"type":"Feature"},
	{"geometry":{"coordinates":[27.504117,53.897592],"type":"Point"},"properties":{"osm_id":"5527842000","tag":{"amenity":"recycling","recycling:batteries":"yes","recycling_type":"container"}},"type":"Feature"},
	{"geometry":{"coordinates":[27.422311,53.888036],"type":"Point"},"properties":{"osm_id":"5570783730","tag":{"amenity":"waste_basket"}},"type":"Feature"},
	{"geometry":{"coordinates":[27.427073,53.901071],"type":"Point"},"properties":{"osm_id":"5766474029","tag":{"amenity":"recycling","operator":"\u00d0\u0091\u00d0\u0095\u00d0\u009b\u00d0\u0093\u00d0\u0098\u00d0\u009f\u00d0\u00a1-\u00d0\u00ad\u00d0\u009a\u00d0\u009e","operator:ru":"\u00d0\u0091\u00d0\u0095\u00d0\u009b\u00d0\u0093\u00d0\u0098\u00d0\u009f\u00d0\u00a1-\u00d0\u00ad\u00d0\u009a\u00d0\u009e","phone":"+375 33 3336272","recycling:books":"yes","recycling:magazines":"yes","recycling:newspaper":"yes","recycling:paper":"yes","recycling_type":"container","website":"http://www.belgips.by/belgips-eko/"}},"type":"Feature"},
	{"geometry":{"coordinates":[27.475647,53.852822],"type":"Point"},"properties":{"osm_id":"5810017746","tag":{"amenity":"waste_basket"}},"type":"Feature"},
	{"geometry":{"coordinates":[27.475571,53.852638],"type":"Point"},"properties":{"osm_id":"5810017747","tag":{"amenity":"waste_basket"}},"type":"Feature"},
	{"geometry":{"coordinates":[27.477228,53.856967],"type":"Point"},"properties":{"osm_id":"5810018359","tag":{"amenity":"waste_basket"}},"type":"Feature"},
	{"geometry":{"coordinates":[27.504677,53.903187],"type":"Point"},"properties":{"osm_id":"5832037636","tag":{"amenity":"waste_basket"}},"type":"Feature"},
	{"geometry":{"coordinates":[27.470056,53.856218],"type":"Point"},"properties":{"osm_id":"5865440878","tag":{"amenity":"waste_disposal"}},"type":"Feature"},
	{"geometry":{"coordinates":[27.44256,53.893537],"type":"Point"},"properties":{"osm_id":"5877974021","tag":{"amenity":"waste_disposal"}},"type":"Feature"},
	{"geometry":{"coordinates":[27.456191,53.900936],"type":"Point"},"properties":{"osm_id":"5889858375","tag":{"amenity":"waste_disposal"}},"type":"Feature"},
	{"geometry":{"coordinates":[27.499485,53.894554],"type":"Point"},"properties":{"osm_id":"5894863115","tag":{"amenity":"waste_basket"}},"type":"Feature"},
	{"geometry":{"coordinates":[27.45493,53.899328],"type":"Point"},"properties":{"osm_id":"5895546519","tag":{"amenity":"waste_basket"}},"type":"Feature"},
	{"geometry":{"coordinates":[27.45482,53.899938],"type":"Point"},"properties":{"osm_id":"5895548377","tag":{"amenity":"waste_disposal"}},"type":"Feature"},
	{"geometry":{"coordinates":[27.453527,53.899932],"type":"Point"},"properties":{"osm_id":"5895550435","tag":{"amenity":"waste_basket"}},"type":"Feature"},
	{"geometry":{"coordinates":[27.446409,53.900358],"type":"Point"},"properties":{"name":"\u00d0\u0092\u00d0\u00be\u00d0\u00bb\u00d0\u00bc\u00d0\u00b0","osm_id":"5909774666","tag":{"amenity":"recycling"}},"type":"Feature"},
	{"geometry":{"coordinates":[27.452799,53.901431],"type":"Point"},"properties":{"osm_id":"5909784652","tag":{"amenity":"waste_disposal"}},"type":"Feature"},
	{"geometry":{"coordinates":[27.484738,53.857916],"type":"Point"},"properties":{"osm_id":"5980071972","tag":{"amenity":"waste_basket"}},"type":"Feature"},
	{"geometry":{"coordinates":[27.477692,53.873186],"type":"Point"},"properties":{"osm_id":"6063046316","tag":{"amenity":"waste_basket"}},"type":"Feature"},
	{"geometry":{"coordinates":[27.457536,53.87166],"type":"Point"},"properties":{"osm_id":"6173148972","tag":{"amenity":"waste_basket","waste":"trash"}},"type":"Feature"},
	{"geometry":{"coordinates":[27.451353,53.873141],"type":"Point"},"properties":{"osm_id":"6173910031","tag":{"amenity":"waste_basket","waste":"trash"}},"type":"Feature"},
	{"geometry":{"coordinates":[27.453837,53.872892],"type":"Point"},"properties":{"osm_id":"6173910033","tag":{"amenity":"waste_basket","waste":"trash"}},"type":"Feature"},
	{"geometry":{"coordinates":[27.455659,53.873122],"type":"Point"},"properties":{"osm_id":"6173910035","tag":{"amenity":"waste_basket","waste":"trash"}},"type":"Feature"},
	{"geometry":{"coordinates":[27.459384,53.870154],"type":"Point"},"properties":{"osm_id":"6173910039","tag":{"amenity":"waste_basket","waste":"trash"}},"type":"Feature"},
	{"geometry":{"coordinates":[27.457256,53.87264],"type":"Point"},"properties":{"osm_id":"6177424990","tag":{"amenity":"waste_basket","waste":"trash"}},"type":"Feature"},
	{"geometry":{"coordinates":[27.441496,53.873147],"type":"Point"},"properties":{"osm_id":"6188022020","tag":{"amenity":"waste_basket","waste":"trash"}},"type":"Feature"},
	{"geometry":{"coordinates":[27.441504,53.872918],"type":"Point"},"properties":{"osm_id":"6188022021","tag":{"amenity":"waste_basket","waste":"trash"}},"type":"Feature"},
	{"geometry":{"coordinates":[27.4435,53.87358],"type":"Point"},"properties":{"osm_id":"6188022026","tag":{"amenity":"waste_basket","waste":"trash"}},"type":"Feature"},
	{"geometry":{"coordinates":[27.443103,53.873146],"type":"Point"},"properties":{"osm_id":"6188445485","tag":{"amenity":"waste_basket","waste":"trash"}},"type":"Feature"},
	{"geometry":{"coordinates":[27.442713,53.87314],"type":"Point"},"properties":{"osm_id":"6188445487","tag":{"amenity":"waste_basket","waste":"trash"}},"type":"Feature"},
	{"geometry":{"coordinates":[27.442305,53.873135],"type":"Point"},"properties":{"osm_id":"6188445489","tag":{"amenity":"waste_basket","waste":"trash"}},"type":"Feature"},
	{"geometry":{"coordinates":[27.4419,53.873129],"type":"Point"},"properties":{"osm_id":"6188445491","tag":{"amenity":"waste_basket","waste":"trash"}},"type":"Feature"},
	{"geometry":{"coordinates":[27.440484,53.8738],"type":"Point"},"properties":{"osm_id":"6188998867","tag":{"amenity":"waste_disposal","waste":"trash"}},"type":"Feature"},
	{"geometry":{"coordinates":[27.442058,53.873433],"type":"Point"},"properties":{"osm_id":"6191264687","tag":{"amenity":"waste_basket","waste":"trash"}},"type":"Feature"},
	{"geometry":{"coordinates":[27.441379,53.873424],"type":"Point"},"properties":{"osm_id":"6191264688","tag":{"amenity":"waste_basket","waste":"trash"}},"type":"Feature"},
	{"geometry":{"coordinates":[27.440881,53.873418],"type":"Point"},"properties":{"osm_id":"6191264689","tag":{"amenity":"waste_basket","waste":"trash"}},"type":"Feature"},
	{"geometry":{"coordinates":[27.442743,53.873442],"type":"Point"},"properties":{"osm_id":"6191264690","tag":{"amenity":"waste_basket","waste":"trash"}},"type":"Feature"},
	{"geometry":{"coordinates":[27.443171,53.873446],"type":"Point"},"properties":{"osm_id":"6191264700","tag":{"amenity":"waste_basket","waste":"trash"}},"type":"Feature"},
	{"geometry":{"coordinates":[27.442268,53.873806],"type":"Point"},"properties":{"osm_id":"6192950950","tag":{"amenity":"waste_basket","layer":"1","location":"rooftop","waste":"trash"}},"type":"Feature"},
	{"geometry":{"coordinates":[27.441353,53.873795],"type":"Point"},"properties":{"osm_id":"6192950952","tag":{"amenity":"waste_basket","layer":"1","location":"rooftop","waste":"trash"}},"type":"Feature"},
	{"geometry":{"coordinates":[27.443212,53.873669],"type":"Point"},"properties":{"osm_id":"6192950955","tag":{"amenity":"waste_basket","waste":"trash"}},"type":"Feature"},
	{"geometry":{"coordinates":[27.442767,53.873666],"type":"Point"},"properties":{"osm_id":"6192950957","tag":{"amenity":"waste_basket","layer":"1","location":"rooftop","waste":"trash"}},"type":"Feature"},
	{"geometry":{"coordinates":[27.442478,53.873662],"type":"Point"},"properties":{"osm_id":"6192950959","tag":{"amenity":"waste_basket","layer":"1","location":"rooftop","waste":"trash"}},"type":"Feature"},
	{"geometry":{"coordinates":[27.442091,53.873657],"type":"Point"},"properties":{"osm_id":"6192950961","tag":{"amenity":"waste_basket","layer":"1","location":"rooftop","waste":"trash"}},"type":"Feature"},
	{"geometry":{"coordinates":[27.441789,53.873654],"type":"Point"},"properties":{"osm_id":"6192950963","tag":{"amenity":"waste_basket","layer":"1","location":"rooftop","waste":"trash"}},"type":"Feature"},
	{"geometry":{"coordinates":[27.441412,53.873649],"type":"Point"},"properties":{"osm_id":"6192950965","tag":{"amenity":"waste_basket","layer":"1","location":"rooftop","waste":"trash"}},"type":"Feature"},
	{"geometry":{"coordinates":[27.441078,53.873644],"type":"Point"},"properties":{"osm_id":"6192950967","tag":{"amenity":"waste_basket","layer":"1","location":"rooftop","waste":"trash"}},"type":"Feature"},
	{"geometry":{"coordinates":[27.442764,53.874352],"type":"Point"},"properties":{"osm_id":"6205242444","tag":{"amenity":"waste_basket","waste":"trash"}},"type":"Feature"},
	{"geometry":{"coordinates":[27.441603,53.874695],"type":"Point"},"properties":{"osm_id":"6216919392","tag":{"amenity":"waste_disposal","waste":"trash"}},"type":"Feature"},
	{"geometry":{"coordinates":[27.441678,53.874703],"type":"Point"},"properties":{"osm_id":"6216919393","tag":{"amenity":"waste_disposal","waste":"trash"}},"type":"Feature"},
	{"geometry":{"coordinates":[27.440333,53.874659],"type":"Point"},"properties":{"osm_id":"6216919399","tag":{"amenity":"waste_disposal","waste":"trash"}},"type":"Feature"},
	{"geometry":{"coordinates":[27.478592,53.899944],"type":"Point"},"properties":{"osm_id":"6220935257","tag":{"amenity":"waste_disposal"}},"type":"Feature"},
	{"geometry":{"coordinates":[27.442525,53.874575],"type":"Point"},"properties":{"osm_id":"6223344425","tag":{"amenity":"waste_basket","waste":"trash"}},"type":"Feature"},
	{"geometry":{"coordinates":[27.442202,53.87457],"type":"Point"},"properties":{"osm_id":"6223344427","tag":{"amenity":"waste_basket","waste":"trash"}},"type":"Feature"},
	{"geometry":{"coordinates":[27.475284,53.89528],"type":"Point"},"properties":{"osm_id":"6255527847","tag":{"amenity":"waste_disposal"}},"type":"Feature"},
	{"geometry":{"coordinates":[27.472515,53.85344],"type":"Point"},"properties":{"osm_id":"6269888388","tag":{"amenity":"recycling","mapillary":"VhVycpw_9kQFlpw0cgYG_Q","recycling:glass":"yes","recycling:paper":"yes","recycling:plastic":"yes","recycling_type":"container"}},"type":"Feature"},
	{"geometry":{"coordinates":[27.485086,53.900605],"type":"Point"},"properties":{"osm_id":"6270311926","tag":{"amenity":"waste_disposal","waste":"trash"}},"type":"Feature"},
	{"geometry":{"coordinates":[27.48507,53.90069],"type":"Point"},"properties":{"name":"\u00d0\u009a\u00d1\u0080\u00d1\u0083\u00d0\u00bf\u00d0\u00bd\u00d0\u00be\u00d0\u00b3\u00d0\u00b0\u00d0\u00b1\u00d0\u00b0\u00d1\u0080\u00d0\u00b8\u00d0\u00bd\u00d1\u008b\u00d0\u00b9 \u00d0\u00bc\u00d1\u0083\u00d1\u0081\u00d0\u00be\u00d1\u0080","osm_id":"6270311927","tag":{"amenity":"recycling","recycling:waste":"no","recycling_type":"centre","shelter_type":"lean_to"}},"type":"Feature"},
	{"geometry":{"coordinates":[27.470723,53.857493],"type":"Point"},"properties":{"osm_id":"6274644334","tag":{"amenity":"waste_disposal"}},"type":"Feature"},
	{"geometry":{"coordinates":[27.48268,53.901421],"type":"Point"},"properties":{"osm_id":"6296435031","tag":{"amenity":"waste_disposal","waste":"trash"}},"type":"Feature"},
	{"geometry":{"coordinates":[27.445034,53.880793],"type":"Point"},"properties":{"osm_id":"6329157885","tag":{"amenity":"waste_disposal","operator":"\u00d0\u00a1\u00d1\u0080\u00d0\u00b5\u00d0\u00b4\u00d0\u00bd\u00d1\u008f\u00d1\u008f \u00d1\u0088\u00d0\u00ba\u00d0\u00be\u00d0\u00bb\u00d0\u00b0 No 6 \u00d0\u00b3. \u00d0\u009c\u00d0\u00b8\u00d0\u00bd\u00d1\u0081\u00d0\u00ba\u00d0\u00b0"}},"type":"Feature"},
	{"geometry":{"coordinates":[27.445173,53.880268],"type":"Point"},"properties":{"osm_id":"6329157886","tag":{"amenity":"waste_basket"}},"type":"Feature"},
	{"geometry":{"coordinates":[27.445403,53.880372],"type":"Point"},"properties":{"osm_id":"6329157887","tag":{"amenity":"waste_basket"}},"type":"Feature"},
	{"geometry":{"coordinates":[27.444322,53.880276],"type":"Point"},"properties":{"osm_id":"6329158085","tag":{"amenity":"waste_basket"}},"type":"Feature"},
	{"geometry":{"coordinates":[27.445392,53.880904],"type":"Point"},"properties":{"osm_id":"6329158285","tag":{"amenity":"waste_basket"}},"type":"Feature"},
	{"geometry":{"coordinates":[27.444225,53.880436],"type":"Point"},"properties":{"osm_id":"6329158286","tag":{"amenity":"waste_basket"}},"type":"Feature"},
	{"geometry":{"coordinates":[27.444015,53.874462],"type":"Point"},"properties":{"osm_id":"6388007928","tag":{"amenity":"waste_disposal","recycling:paper":"yes"}},"type":"Feature"},
	{"geometry":{"coordinates":[27.475949,53.899534],"type":"Point"},"properties":{"osm_id":"6390353390","tag":{"amenity":"waste_disposal"}},"type":"Feature"},
	{"geometry":{"coordinates":[27.451048,53.867257],"type":"Point"},"properties":{"osm_id":"6467658586","tag":{"amenity":"waste_disposal"}},"type":"Feature"},
	{"geometry":{"coordinates":[27.456343,53.867391],"type":"Point"},"properties":{"osm_id":"6467710385","tag":{"amenity":"waste_disposal"}},"type":"Feature"},
	{"geometry":{"coordinates":[27.44921,53.864202],"type":"Point"},"properties":{"osm_id":"6467716886","tag":{"amenity":"recycling","recycling:paper":"yes","recycling_type":"container"}},"type":"Feature"},
	{"geometry":{"coordinates":[27.426739,53.865142],"type":"Point"},"properties":{"osm_id":"6467755285","tag":{"amenity":"recycling","opening_hours":"Mo-Fr 09:00-19:00"}},"type":"Feature"},
	{"geometry":{"coordinates":[27.451838,53.858862],"type":"Point"},"properties":{"osm_id":"6622369686","tag":{"amenity":"recycling","recycling:electrical_appliances":"yes","recycling:glass":"yes","recycling:plastic":"yes","recycling:scrap_metal":"yes","recycling:small_appliances":"yes"}},"type":"Feature"},
	{"geometry":{"coordinates":[27.443845,53.877905],"type":"Point"},"properties":{"osm_id":"6974582485","tag":{"amenity":"waste_disposal"}},"type":"Feature"},
	{"geometry":{"coordinates":[27.444504,53.877854],"type":"Point"},"properties":{"osm_id":"6974582486","tag":{"amenity":"waste_disposal"}},"type":"Feature"},
	{"geometry":{"coordinates":[27.443851,53.878042],"type":"Point"},"properties":{"osm_id":"6974582585","tag":{"amenity":"waste_disposal"}},"type":"Feature"},
	{"geometry":{"coordinates":[27.446482,53.87795],"type":"Point"},"properties":{"osm_id":"6974582685","tag":{"amenity":"waste_disposal"}},"type":"Feature"},
	{"geometry":{"coordinates":[27.444241,53.877885],"type":"Point"},"properties":{"osm_id":"7024307893","tag":{"amenity":"waste_disposal"}},"type":"Feature"},
	{"geometry":{"coordinates":[27.48017,53.884522],"type":"Point"},"properties":{"osm_id":"7166910564","tag":{"amenity":"waste_disposal"}},"type":"Feature"},
	{"geometry":{"coordinates":[27.480889,53.884804],"type":"Point"},"properties":{"osm_id":"7166910570","tag":{"amenity":"waste_basket"}},"type":"Feature"},
	{"geometry":{"coordinates":[27.480912,53.88475],"type":"Point"},"properties":{"osm_id":"7166910571","tag":{"amenity":"waste_basket"}},"type":"Feature"},
	{"geometry":{"coordinates":[27.480928,53.884704],"type":"Point"},"properties":{"osm_id":"7166910572","tag":{"amenity":"waste_basket"}},"type":"Feature"},
	{"geometry":{"coordinates":[27.480628,53.884915],"type":"Point"},"properties":{"osm_id":"7166910573","tag":{"amenity":"waste_basket"}},"type":"Feature"},
	{"geometry":{"coordinates":[27.480738,53.884926],"type":"Point"},"properties":{"osm_id":"7166910574","tag":{"amenity":"waste_basket"}},"type":"Feature"},
	{"geometry":{"coordinates":[27.502697,53.877579],"type":"Point"},"properties":{"osm_id":"7179827283","tag":{"amenity":"waste_disposal"}},"type":"Feature"},
	{"geometry":{"coordinates":[27.504505,53.87631],"type":"Point"},"properties":{"osm_id":"7179827284","tag":{"amenity":"waste_disposal"}},"type":"Feature"},
	{"geometry":{"coordinates":[27.504869,53.88525],"type":"Point"},"properties":{"name":"\u00d0\u00bc\u00d0\u00b0\u00d0\u00ba\u00d1\u0083\u00d0\u00bb\u00d0\u00b0\u00d1\u0082\u00d1\u0083\u00d1\u0080\u00d0\u00b0","osm_id":"7233581908","tag":{"amenity":"recycling"}},"type":"Feature"},
	{"geometry":{"coordinates":[27.479214,53.892928],"type":"Point"},"properties":{"osm_id":"7252470485","tag":{"amenity":"recycling","recycling_type":"centre"}},"type":"Feature"},
	{"geometry":{"coordinates":[27.452469,53.874387],"type":"Point"},"properties":{"osm_id":"7289173637","tag":{"amenity":"waste_disposal"}},"type":"Feature"},
	{"geometry":{"coordinates":[27.46879,53.893467],"type":"Point"},"properties":{"osm_id":"7370977441","tag":{"amenity":"recycling","opening_hours":"Mo-Fr 09:00-13:00; Sa 09:00-13:00","operator":"\u00d0\u0091\u00d0\u00b5\u00d0\u00bb\u00d0\u00b2\u00d1\u0082\u00d0\u00be\u00d1\u0080\u00d1\u0080\u00d0\u00b5\u00d1\u0081\u00d1\u0083\u00d1\u0080\u00d1\u0081\u00d1\u008b","recycling_type":"centre"}},"type":"Feature"},
	{"geometry":{"coordinates":[27.481733,53.860039],"type":"Point"},"properties":{"osm_id":"7372804281","tag":{"amenity":"recycling","operator":"\u00d0\u0091\u00d0\u0095\u00d0\u009b\u00d0\u0093\u00d0\u0098\u00d0\u009f\u00d0\u00a1-\u00d0\u00ad\u00d0\u009a\u00d0\u009e","operator:ru":"\u00d0\u0091\u00d0\u0095\u00d0\u009b\u00d0\u0093\u00d0\u0098\u00d0\u009f\u00d0\u00a1-\u00d0\u00ad\u00d0\u009a\u00d0\u009e","phone":"+375 33 3336272","recycling:books":"yes","recycling:magazines":"yes","recycling:newspaper":"yes","recycling:paper":"yes","recycling_type":"container","website":"http://www.belgips.by/belgips-eko/"}},"type":"Feature"},
	{"geometry":{"coordinates":[27.453075,53.873444],"type":"Point"},"properties":{"osm_id":"7394381231","tag":{"amenity":"waste_disposal"}},"type":"Feature"},
	{"geometry":{"coordinates":[27.45308,53.873435],"type":"Point"},"properties":{"osm_id":"7394381232","tag":{"amenity":"waste_disposal"}},"type":"Feature"},
	{"geometry":{"coordinates":[27.453085,53.873427],"type":"Point"},"properties":{"osm_id":"7394381233","tag":{"amenity":"waste_disposal"}},"type":"Feature"},
	{"geometry":{"coordinates":[27.484906,53.860716],"type":"Point"},"properties":{"osm_id":"7523573794","tag":{"amenity":"waste_disposal"}},"type":"Feature"},
	{"geometry":{"coordinates":[27.456752,53.903542],"type":"Point"},"properties":{"osm_id":"7616919329","tag":{"amenity":"waste_disposal"}},"type":"Feature"},
	{"geometry":{"coordinates":[27.480972,53.873067],"type":"Point"},"properties":{"osm_id":"7683632788","tag":{"amenity":"recycling","recycling:plastic":"yes","recycling_type":"container"}},"type":"Feature"},
	{"geometry":{"coordinates":[27.485911,53.899346],"type":"Point"},"properties":{"osm_id":"7684624585","tag":{"amenity":"waste_disposal"}},"type":"Feature"},
	{"geometry":{"coordinates":[27.484244,53.899402],"type":"Point"},"properties":{"osm_id":"7684624586","tag":{"amenity":"waste_disposal"}},"type":"Feature"},
	{"geometry":{"coordinates":[27.483162,53.898522],"type":"Point"},"properties":{"osm_id":"7684624589","tag":{"amenity":"waste_disposal"}},"type":"Feature"},
	{"geometry":{"coordinates":[27.4755,53.89711],"type":"Point"},"properties":{"osm_id":"7684674085","tag":{"amenity":"waste_disposal"}},"type":"Feature"},
	{"geometry":{"coordinates":[27.475329,53.897649],"type":"Point"},"properties":{"osm_id":"7684677785","tag":{"amenity":"waste_disposal"}},"type":"Feature"},
	{"geometry":{"coordinates":[27.459502,53.899147],"type":"Point"},"properties":{"osm_id":"7685255986","tag":{"amenity":"waste_disposal"}},"type":"Feature"},
	{"geometry":{"coordinates":[27.433264,53.897859],"type":"Point"},"properties":{"osm_id":"7686426186","tag":{"amenity":"waste_disposal"}},"type":"Feature"},
	{"geometry":{"coordinates":[27.461892,53.896401],"type":"Point"},"properties":{"osm_id":"7686443586","tag":{"amenity":"waste_disposal"}},"type":"Feature"},
	{"geometry":{"coordinates":[27.445519,53.881177],"type":"Point"},"properties":{"osm_id":"7829319586","tag":{"amenity":"waste_basket"}},"type":"Feature"},
	{"geometry":{"coordinates":[27.4951,53.882336],"type":"Point"},"properties":{"osm_id":"7835464485","tag":{"amenity":"waste_disposal"}},"type":"Feature"},
	{"geometry":{"coordinates":[27.484467,53.855637],"type":"Point"},"properties":{"osm_id":"7865198379","tag":{"amenity":"waste_disposal"}},"type":"Feature"},
	{"geometry":{"coordinates":[27.481817,53.856272],"type":"Point"},"properties":{"osm_id":"7865198380","tag":{"amenity":"waste_disposal"}},"type":"Feature"},
	{"geometry":{"coordinates":[27.480864,53.856424],"type":"Point"},"properties":{"osm_id":"7865198381","tag":{"amenity":"waste_disposal"}},"type":"Feature"},
	{"geometry":{"coordinates":[27.483144,53.856026],"type":"Point"},"properties":{"osm_id":"7865198382","tag":{"amenity":"waste_disposal"}},"type":"Feature"},
	{"geometry":{"coordinates":[27.490425,53.892473],"type":"Point"},"properties":{"osm_id":"7924907955","tag":{"amenity":"recycling","recycling_type":"centre"}},"type":"Feature"},
	{"geometry":{"coordinates":[27.483321,53.896175],"type":"Point"},"properties":{"osm_id":"7968110665","tag":{"amenity":"waste_disposal"}},"type":"Feature"},
	{"geometry":{"coordinates":[27.482674,53.896114],"type":"Point"},"properties":{"osm_id":"7968110669","tag":{"amenity":"waste_disposal"}},"type":"Feature"},
	{"geometry":{"coordinates":[27.472919,53.893152],"type":"Point"},"properties":{"osm_id":"7977863913","tag":{"amenity":"waste_disposal"}},"type":"Feature"},
	{"geometry":{"coordinates":[27.482559,53.896214],"type":"Point"},"properties":{"osm_id":"7995757441","tag":{"amenity":"waste_basket"}},"type":"Feature"},
	{"geometry":{"coordinates":[27.482626,53.895839],"type":"Point"},"properties":{"osm_id":"7995757442","tag":{"amenity":"waste_basket"}},"type":"Feature"},
	{"geometry":{"coordinates":[27.482723,53.895466],"type":"Point"},"properties":{"osm_id":"7995757443","tag":{"amenity":"waste_basket"}},"type":"Feature"},
	{"geometry":{"coordinates":[27.482481,53.896579],"type":"Point"},"properties":{"osm_id":"7995757444","tag":{"amenity":"waste_basket"}},"type":"Feature"},
	{"geometry":{"coordinates":[27.482196,53.89719],"type":"Point"},"properties":{"osm_id":"7995757445","tag":{"amenity":"waste_disposal","waste":"plastic"}},"type":"Feature"},
	{"geometry":{"coordinates":[27.498199,53.877344],"type":"Point"},"properties":{"osm_id":"8000941139","tag":{"amenity":"recycling","recycling:batteries":"yes","recycling_type":"container"}},"type":"Feature"},
	{"geometry":{"coordinates":[27.474619,53.900517],"type":"Point"},"properties":{"osm_id":"8138192064","tag":{"amenity":"waste_disposal"}},"type":"Feature"},
	{"geometry":{"coordinates":[27.452539,53.874402],"type":"Point"},"properties":{"osm_id":"8201148205","tag":{"amenity":"waste_disposal"}},"type":"Feature"},
	{"geometry":{"coordinates":[27.452551,53.874382],"type":"Point"},"properties":{"osm_id":"8201148206","tag":{"amenity":"waste_disposal"}},"type":"Feature"},
	{"geometry":{"coordinates":[27.452562,53.874363],"type":"Point"},"properties":{"osm_id":"8201148207","tag":{"amenity":"waste_disposal"}},"type":"Feature"},
	{"geometry":{"coordinates":[27.475642,53.900992],"type":"Point"},"properties":{"osm_id":"8219526016","tag":{"amenity":"waste_disposal"}},"type":"Feature"},
	{"geometry":{"coordinates":[27.461048,53.900676],"type":"Point"},"properties":{"osm_id":"8564519991","tag":{"amenity":"waste_disposal","waste":"trash"}},"type":"Feature"},
	{"geometry":{"coordinates":[27.460509,53.876976],"type":"Point"},"properties":{"osm_id":"8752951947","tag":{"amenity":"waste_disposal"}},"type":"Feature"},
	{"geometry":{"coordinates":[27.436284,53.896833],"type":"Point"},"properties":{"osm_id":"8765477720","tag":{"amenity":"waste_disposal"}},"type":"Feature"},
	{"geometry":{"coordinates":[27.438939,53.897782],"type":"Point"},"properties":{"osm_id":"8765477721","tag":{"access":"yes","amenity":"waste_disposal","collection_times":"thursdays"}},"type":"Feature"},
	{"geometry":{"coordinates":[27.44034,53.896517],"type":"Point"},"properties":{"osm_id":"8767119099","tag":{"amenity":"waste_disposal"}},"type":"Feature"},
	{"geometry":{"coordinates":[27.436373,53.895243],"type":"Point"},"properties":{"osm_id":"8771732534","tag":{"amenity":"waste_disposal"}},"type":"Feature"},
	{"geometry":{"coordinates":[27.442457,53.897122],"type":"Point"},"properties":{"osm_id":"8771732535","tag":{"amenity":"waste_disposal"}},"type":"Feature"},
	{"geometry":{"coordinates":[27.447779,53.898495],"type":"Point"},"properties":{"osm_id":"8771732540","tag":{"amenity":"waste_disposal"}},"type":"Feature"},
	{"geometry":{"coordinates":[27.459421,53.900298],"type":"Point"},"properties":{"osm_id":"8771732542","tag":{"amenity":"recycling","recycling_type":"centre"}},"type":"Feature"},
	{"geometry":{"coordinates":[27.446762,53.901233],"type":"Point"},"properties":{"osm_id":"8771732544","tag":{"amenity":"recycling","recycling_type":"centre"}},"type":"Feature"},
	{"geometry":{"coordinates":[27.438183,53.901437],"type":"Point"},"properties":{"osm_id":"8771732546","tag":{"amenity":"waste_disposal"}},"type":"Feature"},
	{"geometry":{"coordinates":[27.433405,53.896273],"type":"Point"},"properties":{"osm_id":"8776515662","tag":{"amenity":"waste_basket"}},"type":"Feature"},
	{"geometry":{"coordinates":[27.427507,53.895945],"type":"Point"},"properties":{"osm_id":"8831610806","tag":{"amenity":"waste_basket"}},"type":"Feature"},
	{"geometry":{"coordinates":[27.457818,53.896308],"type":"Point"},"properties":{"osm_id":"8856667853","tag":{"amenity":"waste_basket"}},"type":"Feature"},
	{"geometry":{"coordinates":[27.440732,53.898791],"type":"Point"},"properties":{"osm_id":"8865846731","tag":{"access":"yes","amenity":"waste_disposal"}},"type":"Feature"},
	{"geometry":{"coordinates":[27.439849,53.897564],"type":"Point"},"properties":{"osm_id":"8865846759","tag":{"amenity":"waste_basket","colour":"grey","material":"concrete","waste":"mixed"}},"type":"Feature"},
	{"geometry":{"coordinates":[27.439434,53.897581],"type":"Point"},"properties":{"osm_id":"8865846760","tag":{"amenity":"waste_basket"}},"type":"Feature"},
	{"geometry":{"coordinates":[27.439087,53.897601],"type":"Point"},"properties":{"osm_id":"8865846761","tag":{"amenity":"waste_basket"}},"type":"Feature"},
	{"geometry":{"coordinates":[27.441023,53.898668],"type":"Point"},"properties":{"osm_id":"8868023063","tag":{"amenity":"waste_basket"}},"type":"Feature"},
	{"geometry":{"coordinates":[27.470987,53.875152],"type":"Point"},"properties":{"osm_id":"8889801640","tag":{"amenity":"waste_disposal","waste":"trash"}},"type":"Feature"},
	{"geometry":{"coordinates":[27.470921,53.875137],"type":"Point"},"properties":{"osm_id":"8889801675","tag":{"amenity":"waste_basket","colour":"brown","waste":"trash"}},"type":"Feature"},
	{"geometry":{"coordinates":[27.471333,53.875032],"type":"Point"},"properties":{"osm_id":"8889801684","tag":{"amenity":"waste_basket","colour":"brown","waste":"trash"}},"type":"Feature"},
	{"geometry":{"coordinates":[27.428181,53.886788],"type":"Point"},"properties":{"osm_id":"8910133692","tag":{"amenity":"recycling","description":"\u00d0\u00a3\u00d1\u0082\u00d0\u00b8\u00d0\u00bb\u00d0\u00b8\u00d0\u00b7\u00d0\u00b0\u00d1\u0086\u00d0\u00b8\u00d1\u008f \u00d1\u0081\u00d0\u00bc\u00d0\u00b0\u00d1\u0080\u00d1\u0082\u00d1\u0084\u00d0\u00be\u00d0\u00bd\u00d0\u00be\u00d0\u00b2, \u00d0\u00bf\u00d0\u00bb\u00d0\u00b0\u00d0\u00bd\u00d1\u0088\u00d0\u00b5\u00d1\u0082\u00d0\u00be\u00d0\u00b2, \u00d0\u00bd\u00d0\u00be\u00d1\u0083\u00d1\u0082\u00d0\u00b1\u00d1\u0083\u00d0\u00ba\u00d0\u00be\u00d0\u00b2. \u00d0\u00af\u00d1\u0089\u00d0\u00b8\u00d0\u00ba \u00d1\u0081 \u00d1\u0083\u00d0\u00b7\u00d0\u00ba\u00d0\u00be\u00d0\u00b9 \u00d1\u0089\u00d0\u00b5\u00d0\u00bb\u00d1\u008c\u00d1\u008e.","operator":"Asbis","recycling:computers":"yes","recycling:mobile_phones":"yes","recycling_type":"container"}},"type":"Feature"},
	{"geometry":{"coordinates":[27.433204,53.881688],"type":"Point"},"properties":{"name":"\u00d0\u009c\u00d0\u00b0\u00d0\u00ba\u00d1\u0083\u00d0\u00bb\u00d0\u00b0\u00d1\u0082\u00d1\u0083\u00d1\u0080\u00d0\u00b0","osm_id":"9169839779","tag":{"amenity":"recycling","contact:phone":"+375 33 3336275","operator":"\u00d0\u0092\u00d0\u00be\u00d0\u00bb\u00d0\u00bc\u00d0\u00b0","recycling:paper":"yes"}},"type":"Feature"}
]
}
