{
"type": "FeatureCollection",
"features": [
	{"geometry":{"coordinates":[27.478311,53.836185],"type":"Point"},"properties":{"osm_id":"277050339","tag":{"amenity":"recycling"}},"type":"Feature"},
	{"geometry":{"coordinates":[27.505849,53.845461],"type":"Point"},"properties":{"osm_id":"849505766","tag":{"amenity":"recycling","recycling_type":"container"}},"type":"Feature"},
	{"geometry":{"coordinates":[27.487192,53.843145],"type":"Point"},"properties":{"osm_id":"1480124641","tag":{"amenity":"recycling"}},"type":"Feature"},
	{"geometry":{"coordinates":[27.490467,53.844308],"type":"Point"},"properties":{"osm_id":"1480124643","tag":{"amenity":"recycling"}},"type":"Feature"},
	{"geometry":{"coordinates":[27.441394,53.849294],"type":"Point"},"properties":{"osm_id":"2623731354","tag":{"amenity":"waste_basket"}},"type":"Feature"},
	{"geometry":{"coordinates":[27.442508,53.849611],"type":"Point"},"properties":{"osm_id":"2623731355","tag":{"amenity":"waste_basket"}},"type":"Feature"},
	{"geometry":{"coordinates":[27.44047,53.851034],"type":"Point"},"properties":{"osm_id":"2623819962","tag":{"amenity":"waste_basket"}},"type":"Feature"},
	{"geometry":{"coordinates":[27.444956,53.848067],"type":"Point"},"properties":{"osm_id":"2623837163","tag":{"amenity":"waste_basket"}},"type":"Feature"},
	{"geometry":{"coordinates":[27.452192,53.846019],"type":"Point"},"properties":{"osm_id":"2623844243","tag":{"amenity":"waste_basket"}},"type":"Feature"},
	{"geometry":{"coordinates":[27.470279,53.846749],"type":"Point"},"properties":{"osm_id":"2623902385","tag":{"amenity":"recycling","operator":"\u00d0\u0091\u00d0\u0095\u00d0\u009b\u00d0\u0093\u00d0\u0098\u00d0\u009f\u00d0\u00a1-\u00d0\u00ad\u00d0\u009a\u00d0\u009e","operator:ru":"\u00d0\u0091\u00d0\u0095\u00d0\u009b\u00d0\u0093\u00d0\u0098\u00d0\u009f\u00d0\u00a1-\u00d0\u00ad\u00d0\u009a\u00d0\u009e","phone":"+375 33 3336272","recycling:books":"yes","recycling:magazines":"yes","recycling:newspaper":"yes","recycling:paper":"yes","recycling_type":"container"}},"type":"Feature"},
	{"geometry":{"coordinates":[27.479013,53.851475],"type":"Point"},"properties":{"osm_id":"2793138774","tag":{"amenity":"waste_basket"}},"type":"Feature"},
	{"geometry":{"coordinates":[27.479,53.851424],"type":"Point"},"properties":{"osm_id":"2793138777","tag":{"amenity":"waste_basket"}},"type":"Feature"},
	{"geometry":{"coordinates":[27.474265,53.85202],"type":"Point"},"properties":{"osm_id":"2813006930","tag":{"amenity":"waste_basket"}},"type":"Feature"},
	{"geometry":{"coordinates":[27.474431,53.851921],"type":"Point"},"properties":{"osm_id":"2813286129","tag":{"amenity":"waste_basket"}},"type":"Feature"},
	{"geometry":{"coordinates":[27.474176,53.852472],"type":"Point"},"properties":{"osm_id":"2813286138","tag":{"amenity":"waste_basket"}},"type":"Feature"},
	{"geometry":{"coordinates":[27.474162,53.852446],"type":"Point"},"properties":{"osm_id":"2813286139","tag":{"amenity":"waste_basket"}},"type":"Feature"},
	{"geometry":{"coordinates":[27.474208,53.852502],"type":"Point"},"properties":{"osm_id":"2813286140","tag":{"amenity":"waste_basket"}},"type":"Feature"},
	{"geometry":{"coordinates":[27.474229,53.852511],"type":"Point"},"properties":{"osm_id":"2813286141","tag":{"amenity":"waste_basket"}},"type":"Feature"},
	{"geometry":{"coordinates":[27.44737,53.847513],"type":"Point"},"properties":{"osm_id":"3098540968","tag":{"amenity":"waste_basket"}},"type":"Feature"},
	{"geometry":{"coordinates":[27.476831,53.84962],"type":"Point"},"properties":{"osm_id":"3282092898","tag":{"amenity":"waste_basket"}},"type":"Feature"},
	{"geometry":{"coordinates":[27.476497,53.849689],"type":"Point"},"properties":{"osm_id":"3282103962","tag":{"amenity":"waste_basket"}},"type":"Feature"},
	{"geometry":{"coordinates":[27.464887,53.84962],"type":"Point"},"properties":{"name":"\u00d0\u009f\u00d0\u00b5\u00d1\u0087\u00d0\u00b0\u00d1\u0082\u00d1\u008c","osm_id":"3282436152","tag":{"amenity":"recycling"}},"type":"Feature"},
	{"geometry":{"coordinates":[27.475333,53.84436],"type":"Point"},"properties":{"osm_id":"3318597907","tag":{"amenity":"waste_basket"}},"type":"Feature"},
	{"geometry":{"coordinates":[27.475493,53.844232],"type":"Point"},"properties":{"osm_id":"3318597910","tag":{"amenity":"waste_basket"}},"type":"Feature"},
	{"geometry":{"coordinates":[27.474675,53.845454],"type":"Point"},"properties":{"osm_id":"3318601350","tag":{"amenity":"waste_basket"}},"type":"Feature"},
	{"geometry":{"coordinates":[27.47499,53.844417],"type":"Point"},"properties":{"osm_id":"3318601744","tag":{"amenity":"waste_basket"}},"type":"Feature"},
	{"geometry":{"coordinates":[27.475305,53.844225],"type":"Point"},"properties":{"osm_id":"3318623267","tag":{"amenity":"waste_basket"}},"type":"Feature"},
	{"geometry":{"coordinates":[27.476383,53.844626],"type":"Point"},"properties":{"osm_id":"3318623278","tag":{"amenity":"waste_basket"}},"type":"Feature"},
	{"geometry":{"coordinates":[27.4772,53.844278],"type":"Point"},"properties":{"osm_id":"3318623292","tag":{"amenity":"waste_basket"}},"type":"Feature"},
	{"geometry":{"coordinates":[27.476886,53.84414],"type":"Point"},"properties":{"osm_id":"3318638801","tag":{"amenity":"waste_basket"}},"type":"Feature"},
	{"geometry":{"coordinates":[27.472769,53.850304],"type":"Point"},"properties":{"osm_id":"3389007978","tag":{"amenity":"waste_basket"}},"type":"Feature"},
	{"geometry":{"coordinates":[27.473264,53.850747],"type":"Point"},"properties":{"osm_id":"3395860558","tag":{"amenity":"waste_basket"}},"type":"Feature"},
	{"geometry":{"coordinates":[27.478765,53.85174],"type":"Point"},"properties":{"osm_id":"3400469107","tag":{"amenity":"waste_basket"}},"type":"Feature"},
	{"geometry":{"coordinates":[27.478988,53.851483],"type":"Point"},"properties":{"osm_id":"3400469108","tag":{"amenity":"waste_basket"}},"type":"Feature"},
	{"geometry":{"coordinates":[27.478912,53.851394],"type":"Point"},"properties":{"osm_id":"3400469109","tag":{"amenity":"waste_basket"}},"type":"Feature"},
	{"geometry":{"coordinates":[27.477462,53.851841],"type":"Point"},"properties":{"osm_id":"3400469110","tag":{"amenity":"waste_basket"}},"type":"Feature"},
	{"geometry":{"coordinates":[27.478202,53.850966],"type":"Point"},"properties":{"osm_id":"3400540136","tag":{"amenity":"waste_basket"}},"type":"Feature"},
	{"geometry":{"coordinates":[27.48001,53.852293],"type":"Point"},"properties":{"osm_id":"3400678635","tag":{"amenity":"waste_basket"}},"type":"Feature"},
	{"geometry":{"coordinates":[27.479917,53.85233],"type":"Point"},"properties":{"osm_id":"3400678644","tag":{"amenity":"waste_basket"}},"type":"Feature"},
	{"geometry":{"coordinates":[27.479877,53.85241],"type":"Point"},"properties":{"osm_id":"3400678650","tag":{"amenity":"waste_basket"}},"type":"Feature"},
	{"geometry":{"coordinates":[27.476145,53.850525],"type":"Point"},"properties":{"osm_id":"3474266307","tag":{"amenity":"recycling","phone":"+375 33 3336272","recycling:cans":"no","recycling:clothes":"no","recycling:glass":"no","recycling:paper":"yes","recycling_type":"container"}},"type":"Feature"},
	{"geometry":{"coordinates":[27.475155,53.852079],"type":"Point"},"properties":{"name":"\u00d0\u009c\u00d0\u00b0\u00d0\u00ba\u00d1\u0083\u00d0\u00bb\u00d0\u00b0\u00d1\u0082\u00d1\u0083\u00d1\u0080\u00d0\u00b0","osm_id":"3474266310","tag":{"addr:housenumber":"122","addr:street":"\u00d0\u00bf\u00d1\u0080\u00d0\u00be\u00d1\u0081\u00d0\u00bf\u00d0\u00b5\u00d0\u00ba\u00d1\u0082 \u00d0\u0094\u00d0\u00b7\u00d0\u00b5\u00d1\u0080\u00d0\u00b6\u00d0\u00b8\u00d0\u00bd\u00d1\u0081\u00d0\u00ba\u00d0\u00be\u00d0\u00b3\u00d0\u00be","amenity":"recycling","operator":"\u00d0\u0092\u00d0\u00be\u00d0\u00bb\u00d0\u00bc\u00d0\u00b0","phone":"+375 33 3336272","recycling:cans":"no","recycling:clothes":"no","recycling:glass":"no","recycling:paper":"yes","recycling_type":"container"}},"type":"Feature"},
	{"geometry":{"coordinates":[27.500928,53.850298],"type":"Point"},"properties":{"osm_id":"4133308233","tag":{"amenity":"waste_disposal"}},"type":"Feature"},
	{"geometry":{"coordinates":[27.50578,53.848628],"type":"Point"},"properties":{"osm_id":"4292791412","tag":{"amenity":"waste_disposal"}},"type":"Feature"},
	{"geometry":{"coordinates":[27.472597,53.851241],"type":"Point"},"properties":{"osm_id":"4302597793","tag":{"amenity":"recycling"}},"type":"Feature"},
	{"geometry":{"coordinates":[27.488714,53.848732],"type":"Point"},"properties":{"osm_id":"4462809789","tag":{"amenity":"waste_disposal","operator":"\u00d0\u0096\u00d0\u00ad\u00d0\u00a1"}},"type":"Feature"},
	{"geometry":{"coordinates":[27.47982,53.845105],"type":"Point"},"properties":{"osm_id":"4592761944","tag":{"amenity":"waste_disposal"}},"type":"Feature"},
	{"geometry":{"coordinates":[27.480194,53.845143],"type":"Point"},"properties":{"osm_id":"4592763829","tag":{"amenity":"waste_basket"}},"type":"Feature"},
	{"geometry":{"coordinates":[27.48012,53.845155],"type":"Point"},"properties":{"osm_id":"4592764221","tag":{"amenity":"waste_basket"}},"type":"Feature"},
	{"geometry":{"coordinates":[27.505668,53.846942],"type":"Point"},"properties":{"osm_id":"4792726520","tag":{"amenity":"recycling","recycling:glass":"yes","recycling:paper":"yes","recycling:plastic":"yes","recycling:waste":"yes","recycling_type":"container"}},"type":"Feature"},
	{"geometry":{"coordinates":[27.452809,53.845919],"type":"Point"},"properties":{"osm_id":"4811832822","tag":{"amenity":"waste_basket"}},"type":"Feature"},
	{"geometry":{"coordinates":[27.453221,53.846384],"type":"Point"},"properties":{"osm_id":"4811853122","tag":{"amenity":"waste_basket"}},"type":"Feature"},
	{"geometry":{"coordinates":[27.499276,53.847984],"type":"Point"},"properties":{"osm_id":"4952997574","tag":{"amenity":"recycling","recycling:glass":"yes","recycling:paper":"yes","recycling:plastic":"yes","recycling:waste":"yes","recycling_type":"container"}},"type":"Feature"},
	{"geometry":{"coordinates":[27.4871,53.845564],"type":"Point"},"properties":{"name":"\u00d0\u009f\u00d1\u0080\u00d0\u00b8\u00d1\u0091\u00d0\u00bc\u00d0\u00bd\u00d0\u00be-\u00d0\u00b7\u00d0\u00b0\u00d0\u00b3\u00d0\u00be\u00d1\u0082\u00d0\u00be\u00d0\u00b2\u00d0\u00b8\u00d1\u0082\u00d0\u00b5\u00d0\u00bb\u00d1\u008c\u00d0\u00bd\u00d1\u008b\u00d0\u00b9 \u00d0\u00bf\u00d1\u0083\u00d0\u00bd\u00d0\u00ba\u00d1\u0082","osm_id":"4952997588","tag":{"amenity":"recycling","opening_hours":"Mo-Fr 09:00-17:00; Sa 09:00-15:00; Su off","operator":"\u00d0\u009e\u00d0\u0090\u00d0\u009e\u00c2\u00a0\u00c2\u00ab\u00d0\u0091\u00d0\u00b5\u00d0\u00bb\u00d0\u00b2\u00d1\u0082\u00d0\u00be\u00d1\u0080\u00d1\u0080\u00d0\u00b5\u00d1\u0081\u00d1\u0083\u00d1\u0080\u00d1\u0081\u00d1\u008b\u00c2\u00bb","recycling:batteries":"yes","recycling:glass":"yes","recycling:plastic":"yes","recycling:scrap_metal":"yes","recycling_type":"centre"}},"type":"Feature"},
	{"geometry":{"coordinates":[27.506894,53.844955],"type":"Point"},"properties":{"osm_id":"5095822508","tag":{"amenity":"recycling","operator":"\u00d0\u0091\u00d0\u0095\u00d0\u009b\u00d0\u0093\u00d0\u0098\u00d0\u009f\u00d0\u00a1-\u00d0\u00ad\u00d0\u009a\u00d0\u009e","operator:ru":"\u00d0\u0091\u00d0\u0095\u00d0\u009b\u00d0\u0093\u00d0\u0098\u00d0\u009f\u00d0\u00a1-\u00d0\u00ad\u00d0\u009a\u00d0\u009e","phone":"+375 33 3336272","recycling:books":"yes","recycling:magazines":"yes","recycling:newspaper":"yes","recycling:paper":"yes","recycling_type":"container"}},"type":"Feature"},
	{"geometry":{"coordinates":[27.464184,53.849551],"type":"Point"},"properties":{"osm_id":"5243131449","tag":{"amenity":"recycling","operator":"\u00d0\u0091\u00d0\u0095\u00d0\u009b\u00d0\u0093\u00d0\u0098\u00d0\u009f\u00d0\u00a1-\u00d0\u00ad\u00d0\u009a\u00d0\u009e","operator:ru":"\u00d0\u0091\u00d0\u0095\u00d0\u009b\u00d0\u0093\u00d0\u0098\u00d0\u009f\u00d0\u00a1-\u00d0\u00ad\u00d0\u009a\u00d0\u009e","phone":"+375 33 3336272","recycling:books":"yes","recycling:magazines":"yes","recycling:newspaper":"yes","recycling:paper":"yes","recycling_type":"container"}},"type":"Feature"},
	{"geometry":{"coordinates":[27.447161,53.847232],"type":"Point"},"properties":{"osm_id":"5420741225","tag":{"amenity":"recycling","operator":"\u00d0\u0091\u00d0\u0095\u00d0\u009b\u00d0\u0093\u00d0\u0098\u00d0\u009f\u00d0\u00a1-\u00d0\u00ad\u00d0\u009a\u00d0\u009e","operator:ru":"\u00d0\u0091\u00d0\u0095\u00d0\u009b\u00d0\u0093\u00d0\u0098\u00d0\u009f\u00d0\u00a1-\u00d0\u00ad\u00d0\u009a\u00d0\u009e","phone":"+375 33 3336272","recycling:books":"yes","recycling:magazines":"yes","recycling:newspaper":"yes","recycling:paper":"yes","recycling_type":"container"}},"type":"Feature"},
	{"geometry":{"coordinates":[27.45288,53.85118],"type":"Point"},"properties":{"osm_id":"5427390356","tag":{"amenity":"recycling","operator":"\u00d0\u0091\u00d0\u0095\u00d0\u009b\u00d0\u0093\u00d0\u0098\u00d0\u009f\u00d0\u00a1-\u00d0\u00ad\u00d0\u009a\u00d0\u009e","operator:ru":"\u00d0\u0091\u00d0\u0095\u00d0\u009b\u00d0\u0093\u00d0\u0098\u00d0\u009f\u00d0\u00a1-\u00d0\u00ad\u00d0\u009a\u00d0\u009e","phone":"+375 33 3336272","recycling:books":"yes","recycling:magazines":"yes","recycling:newspaper":"yes","recycling:paper":"yes","recycling_type":"container"}},"type":"Feature"},
	{"geometry":{"coordinates":[27.479351,53.849408],"type":"Point"},"properties":{"osm_id":"5535610673","tag":{"amenity":"recycling","operator":"\u00d0\u0091\u00d0\u0095\u00d0\u009b\u00d0\u0093\u00d0\u0098\u00d0\u009f\u00d0\u00a1-\u00d0\u00ad\u00d0\u009a\u00d0\u009e","operator:ru":"\u00d0\u0091\u00d0\u0095\u00d0\u009b\u00d0\u0093\u00d0\u0098\u00d0\u009f\u00d0\u00a1-\u00d0\u00ad\u00d0\u009a\u00d0\u009e","phone":"+375 33 3336272","recycling:books":"yes","recycling:magazines":"yes","recycling:newspaper":"yes","recycling:paper":"yes","recycling_type":"container","website":"http://www.belgips.by/belgips-eko/"}},"type":"Feature"},
	{"geometry":{"coordinates":[27.494977,53.846124],"type":"Point"},"properties":{"osm_id":"5964168065","tag":{"amenity":"recycling","recycling:glass":"yes","recycling_type":"container"}},"type":"Feature"},
	{"geometry":{"coordinates":[27.495012,53.846201],"type":"Point"},"properties":{"osm_id":"5964168066","tag":{"entrance":"yes"}},"type":"Feature"},
	{"geometry":{"coordinates":[27.493198,53.842832],"type":"Point"},"properties":{"osm_id":"6071645736","tag":{"amenity":"recycling","operator":"\u00d0\u0091\u00d0\u0095\u00d0\u009b\u00d0\u0093\u00d0\u0098\u00d0\u009f\u00d0\u00a1-\u00d0\u00ad\u00d0\u009a\u00d0\u009e","operator:ru":"\u00d0\u0091\u00d0\u0095\u00d0\u009b\u00d0\u0093\u00d0\u0098\u00d0\u009f\u00d0\u00a1-\u00d0\u00ad\u00d0\u009a\u00d0\u009e","phone":"+375 33 3336272","recycling:books":"yes","recycling:magazines":"yes","recycling:newspaper":"yes","recycling:paper":"yes","recycling_type":"container","website":"http://www.belgips.by/belgips-eko/"}},"type":"Feature"},
	{"geometry":{"coordinates":[27.488743,53.847656],"type":"Point"},"properties":{"osm_id":"6083346284","tag":{"amenity":"recycling","operator":"\u00d0\u0091\u00d0\u0095\u00d0\u009b\u00d0\u0093\u00d0\u0098\u00d0\u009f\u00d0\u00a1-\u00d0\u00ad\u00d0\u009a\u00d0\u009e","operator:ru":"\u00d0\u0091\u00d0\u0095\u00d0\u009b\u00d0\u0093\u00d0\u0098\u00d0\u009f\u00d0\u00a1-\u00d0\u00ad\u00d0\u009a\u00d0\u009e","phone":"+375 33 3336272","recycling:books":"yes","recycling:magazines":"yes","recycling:newspaper":"yes","recycling:paper":"yes","recycling_type":"container","website":"http://www.belgips.by/belgips-eko/"}},"type":"Feature"},
	{"geometry":{"coordinates":[27.484268,53.84477],"type":"Point"},"properties":{"osm_id":"6226266191","tag":{"amenity":"recycling","recycling:paper":"yes","recycling_type":"container"}},"type":"Feature"},
	{"geometry":{"coordinates":[27.476158,53.850041],"type":"Point"},"properties":{"osm_id":"6227698416","tag":{"amenity":"recycling","level":"0","recycling:plastic":"yes","recycling:plastic_caps":"yes","recycling:plastic_corks":"yes","recycling_type":"container","start_date":"2018"}},"type":"Feature"},
	{"geometry":{"coordinates":[27.474276,53.852054],"type":"Point"},"properties":{"osm_id":"6269888389","tag":{"amenity":"recycling","recycling:paper":"yes","recycling:plastic":"yes","recycling_type":"container"}},"type":"Feature"},
	{"geometry":{"coordinates":[27.474449,53.851958],"type":"Point"},"properties":{"osm_id":"6269888390","tag":{"amenity":"recycling","recycling:paper":"yes","recycling_type":"container"}},"type":"Feature"},
	{"geometry":{"coordinates":[27.479297,53.849882],"type":"Point"},"properties":{"osm_id":"6394767009","tag":{"amenity":"recycling","recycling:plastic":"yes","recycling_type":"container"}},"type":"Feature"},
	{"geometry":{"coordinates":[27.50116,53.84663],"type":"Point"},"properties":{"osm_id":"6473479317","tag":{"amenity":"recycling","operator":"\u00d0\u0091\u00d0\u0095\u00d0\u009b\u00d0\u0093\u00d0\u0098\u00d0\u009f\u00d0\u00a1-\u00d0\u00ad\u00d0\u009a\u00d0\u009e","operator:ru":"\u00d0\u0091\u00d0\u0095\u00d0\u009b\u00d0\u0093\u00d0\u0098\u00d0\u009f\u00d0\u00a1-\u00d0\u00ad\u00d0\u009a\u00d0\u009e","phone":"+375 33 3336272","recycling:books":"yes","recycling:magazines":"yes","recycling:newspaper":"yes","recycling:paper":"yes","recycling_type":"container","website":"http://www.belgips.by/belgips-eko/"}},"type":"Feature"},
	{"geometry":{"coordinates":[27.509754,53.845664],"type":"Point"},"properties":{"osm_id":"6643768566","tag":{"amenity":"waste_disposal"}},"type":"Feature"},
	{"geometry":{"coordinates":[27.481258,53.849835],"type":"Point"},"properties":{"osm_id":"6672471262","tag":{"amenity":"waste_disposal"}},"type":"Feature"},
	{"geometry":{"coordinates":[27.482242,53.849471],"type":"Point"},"properties":{"osm_id":"6672493615","tag":{"amenity":"waste_disposal"}},"type":"Feature"},
	{"geometry":{"coordinates":[27.478898,53.848847],"type":"Point"},"properties":{"osm_id":"6727616553","tag":{"amenity":"recycling","recycling:batteries":"yes","recycling:fluorescent_tubes":"yes","recycling:lamps":"yes","recycling_type":"container"}},"type":"Feature"},
	{"geometry":{"coordinates":[27.484429,53.85002],"type":"Point"},"properties":{"osm_id":"7230123508","tag":{"amenity":"waste_basket"}},"type":"Feature"},
	{"geometry":{"coordinates":[27.450241,53.848777],"type":"Point"},"properties":{"osm_id":"7554561945","tag":{"amenity":"waste_disposal"}},"type":"Feature"}
]
}
