{
"type": "FeatureCollection",
"features": [
	{"geometry":{"coordinates":[27.495776,41.17145],"type":"Point"},"properties":{"name":"Elektronik At\u00c4\u00b1k Toplama Noktas\u00c4\u00b1","osm_id":"5538760025","tag":{"amenity":"recycling"}},"type":"Feature"},
	{"geometry":{"coordinates":[27.49702,41.171506],"type":"Point"},"properties":{"osm_id":"6342172205","tag":{"amenity":"waste_disposal"}},"type":"Feature"},
	{"geometry":{"coordinates":[27.496992,41.1716],"type":"Point"},"properties":{"osm_id":"6342172947","tag":{"amenity":"waste_basket"}},"type":"Feature"},
	{"geometry":{"coordinates":[27.50553,41.17634],"type":"Point"},"properties":{"osm_id":"6342172948","tag":{"amenity":"waste_disposal"}},"type":"Feature"},
	{"geometry":{"coordinates":[27.509055,41.173227],"type":"Point"},"properties":{"osm_id":"6419977084","tag":{"amenity":"waste_disposal"}},"type":"Feature"},
	{"geometry":{"coordinates":[27.496676,41.177975],"type":"Point"},"properties":{"osm_id":"8697816873","tag":{"amenity":"waste_disposal"}},"type":"Feature"},
	{"geometry":{"coordinates":[27.497109,41.177528],"type":"Point"},"properties":{"osm_id":"8697816875","tag":{"amenity":"waste_disposal"}},"type":"Feature"},
	{"geometry":{"coordinates":[27.497895,41.177076],"type":"Point"},"properties":{"osm_id":"8697816896","tag":{"amenity":"waste_disposal"}},"type":"Feature"},
	{"geometry":{"coordinates":[27.497754,41.176552],"type":"Point"},"properties":{"osm_id":"8697816904","tag":{"amenity":"waste_disposal"}},"type":"Feature"},
	{"geometry":{"coordinates":[27.49749,41.176064],"type":"Point"},"properties":{"osm_id":"8697816906","tag":{"amenity":"waste_disposal"}},"type":"Feature"},
	{"geometry":{"coordinates":[27.497385,41.175516],"type":"Point"},"properties":{"osm_id":"8697816911","tag":{"amenity":"waste_disposal"}},"type":"Feature"},
	{"geometry":{"coordinates":[27.497396,41.175616],"type":"Point"},"properties":{"osm_id":"8697816912","tag":{"amenity":"waste_disposal"}},"type":"Feature"},
	{"geometry":{"coordinates":[27.497627,41.175607],"type":"Point"},"properties":{"osm_id":"8697816913","tag":{"amenity":"waste_disposal"}},"type":"Feature"},
	{"geometry":{"coordinates":[27.496557,41.174524],"type":"Point"},"properties":{"osm_id":"8697816915","tag":{"amenity":"waste_disposal"}},"type":"Feature"},
	{"geometry":{"coordinates":[27.495975,41.173855],"type":"Point"},"properties":{"osm_id":"8697962018","tag":{"amenity":"waste_disposal"}},"type":"Feature"},
	{"geometry":{"coordinates":[27.496008,41.173822],"type":"Point"},"properties":{"osm_id":"8697962019","tag":{"amenity":"recycling","recycling:paper_packaging":"yes","recycling:plastic_packaging":"yes","recycling_type":"container"}},"type":"Feature"},
	{"geometry":{"coordinates":[27.495993,41.173839],"type":"Point"},"properties":{"osm_id":"8697962020","tag":{"amenity":"waste_disposal"}},"type":"Feature"},
	{"geometry":{"coordinates":[27.496388,41.173646],"type":"Point"},"properties":{"osm_id":"8697962021","tag":{"amenity":"waste_disposal"}},"type":"Feature"},
	{"geometry":{"coordinates":[27.49638,41.173655],"type":"Point"},"properties":{"osm_id":"8697962022","tag":{"amenity":"waste_disposal"}},"type":"Feature"},
	{"geometry":{"coordinates":[27.489237,41.17761],"type":"Point"},"properties":{"osm_id":"8697962039","tag":{"amenity":"waste_disposal"}},"type":"Feature"},
	{"geometry":{"coordinates":[27.50331,41.178203],"type":"Point"},"properties":{"osm_id":"8699851818","tag":{"amenity":"waste_disposal"}},"type":"Feature"}
]
}
