{
"type": "FeatureCollection",
"features": [
	{"geometry":{"coordinates":[72.525927,65.530084],"type":"Point"},"properties":{"osm_id":"6569181485","tag":{"amenity":"waste_disposal"}},"type":"Feature"},
	{"geometry":{"coordinates":[72.518189,65.5303],"type":"Point"},"properties":{"osm_id":"6578350335","tag":{"amenity":"waste_basket"}},"type":"Feature"},
	{"geometry":{"coordinates":[72.518124,65.530296],"type":"Point"},"properties":{"osm_id":"6578350899","tag":{"amenity":"waste_basket"}},"type":"Feature"},
	{"geometry":{"coordinates":[72.524724,65.530476],"type":"Point"},"properties":{"osm_id":"6578374429","tag":{"amenity":"waste_basket"}},"type":"Feature"},
	{"geometry":{"coordinates":[72.528858,65.530592],"type":"Point"},"properties":{"osm_id":"6647745535","tag":{"amenity":"waste_basket"}},"type":"Feature"},
	{"geometry":{"coordinates":[72.518951,65.540073],"type":"Point"},"properties":{"osm_id":"7154192105","tag":{"amenity":"waste_disposal"}},"type":"Feature"},
	{"geometry":{"coordinates":[72.520139,65.535482],"type":"Point"},"properties":{"osm_id":"7154238339","tag":{"amenity":"waste_disposal"}},"type":"Feature"}
]
}
