{
"type": "FeatureCollection",
"features": [
	{"geometry":{"coordinates":[-77.278189,38.834744],"type":"Point"},"properties":{"osm_id":"613477840","tag":{"amenity":"waste_basket"}},"type":"Feature"},
	{"geometry":{"coordinates":[-77.273885,38.825992],"type":"Point"},"properties":{"name":"Wastebasket","osm_id":"616310468","tag":{"amenity":"waste_basket","wpt_description":"16-JAN-10 15:22:30","wpt_symbol":"Fishing Hot Spot Facility"}},"type":"Feature"},
	{"geometry":{"coordinates":[-77.292556,38.876144],"type":"Point"},"properties":{"osm_id":"2698558043","tag":{"amenity":"recycling","recycling:cans":"yes"}},"type":"Feature"},
	{"geometry":{"coordinates":[-77.298783,38.829887],"type":"Point"},"properties":{"osm_id":"4777842896","tag":{"access":"private","amenity":"waste_disposal","waste":"trash"}},"type":"Feature"},
	{"geometry":{"coordinates":[-77.269197,38.874189],"type":"Point"},"properties":{"osm_id":"5537099090","tag":{"amenity":"waste_disposal"}},"type":"Feature"},
	{"geometry":{"coordinates":[-77.267176,38.874289],"type":"Point"},"properties":{"osm_id":"5537130297","tag":{"amenity":"waste_disposal"}},"type":"Feature"},
	{"geometry":{"coordinates":[-77.268735,38.874063],"type":"Point"},"properties":{"osm_id":"5555028833","tag":{"amenity":"waste_basket"}},"type":"Feature"},
	{"geometry":{"coordinates":[-77.266688,38.874799],"type":"Point"},"properties":{"osm_id":"5591108968","tag":{"amenity":"waste_basket","waste":"dog_excrement"}},"type":"Feature"},
	{"geometry":{"coordinates":[-77.268512,38.874299],"type":"Point"},"properties":{"osm_id":"5723923626","tag":{"amenity":"waste_basket","waste":"dog_excrement"}},"type":"Feature"},
	{"geometry":{"coordinates":[-77.261377,38.871509],"type":"Point"},"properties":{"osm_id":"5723961811","tag":{"amenity":"waste_basket"}},"type":"Feature"},
	{"geometry":{"coordinates":[-77.261367,38.871131],"type":"Point"},"properties":{"osm_id":"5723961813","tag":{"amenity":"waste_basket"}},"type":"Feature"},
	{"geometry":{"coordinates":[-77.261354,38.870974],"type":"Point"},"properties":{"osm_id":"5723961814","tag":{"amenity":"waste_basket"}},"type":"Feature"},
	{"geometry":{"coordinates":[-77.261355,38.870925],"type":"Point"},"properties":{"osm_id":"5723961815","tag":{"amenity":"waste_basket"}},"type":"Feature"},
	{"geometry":{"coordinates":[-77.256833,38.867269],"type":"Point"},"properties":{"osm_id":"6778387275","tag":{"amenity":"waste_basket","waste":"dog_excrement"}},"type":"Feature"},
	{"geometry":{"coordinates":[-77.257943,38.867413],"type":"Point"},"properties":{"osm_id":"6779480822","tag":{"amenity":"waste_basket"}},"type":"Feature"},
	{"geometry":{"coordinates":[-77.255875,38.869634],"type":"Point"},"properties":{"osm_id":"6779480823","tag":{"amenity":"waste_basket","waste":"dog_excrement"}},"type":"Feature"},
	{"geometry":{"coordinates":[-77.256644,38.87062],"type":"Point"},"properties":{"osm_id":"6779480824","tag":{"amenity":"waste_basket","waste":"dog_excrement"}},"type":"Feature"},
	{"geometry":{"coordinates":[-77.256273,38.871193],"type":"Point"},"properties":{"osm_id":"6779480830","tag":{"amenity":"waste_basket"}},"type":"Feature"},
	{"geometry":{"coordinates":[-77.259087,38.868886],"type":"Point"},"properties":{"osm_id":"6779494606","tag":{"amenity":"waste_basket"}},"type":"Feature"},
	{"geometry":{"coordinates":[-77.259526,38.868772],"type":"Point"},"properties":{"osm_id":"6779494611","tag":{"amenity":"waste_basket","waste":"dog_excrement"}},"type":"Feature"}
]
}
