{
"type": "FeatureCollection",
"features": [
	{"geometry":{"coordinates":[6.327707,49.752742],"type":"Point"},"properties":{"name":"Heeschbrecher Bildchen","osm_id":"1303833069","tag":{"amenity":"place_of_worship","denotation":"natural_monument","genus":"Quercus","heritage":"2","heritage:operator":"anf","historic":"wayside_shrine","leaf_cycle":"deciduous","leaf_type":"broadleaved","name:de":"Mitte-Tausendj\u00c3\u00a4hrige Eiche ven Hersberg","name:en":"Hersberg's Mid-Millennium Oak Tree","name:fr":"Ch\u00c3\u00aane Mi-mill\u00c3\u00a9naire de Hersberg","name:lb":"Bildchenkuescht op der Schanz","natural":"tree","religion":"christian","taxon":"Quercus sp.","wikipedia":"lb:Heeschbrecher Bildchen"}},"type":"Feature"},
	{"geometry":{"coordinates":[6.276628,49.778617],"type":"Point"},"properties":{"osm_id":"1563836609","tag":{"natural":"tree"}},"type":"Feature"},
	{"geometry":{"coordinates":[6.3268,49.74995],"type":"Point"},"properties":{"osm_id":"1635856499","tag":{"natural":"tree"}},"type":"Feature"},
	{"geometry":{"coordinates":[6.326921,49.74998],"type":"Point"},"properties":{"osm_id":"1635856500","tag":{"natural":"tree"}},"type":"Feature"},
	{"geometry":{"coordinates":[6.32675,49.75003],"type":"Point"},"properties":{"osm_id":"1635856501","tag":{"natural":"tree"}},"type":"Feature"},
	{"geometry":{"coordinates":[6.326884,49.750061],"type":"Point"},"properties":{"osm_id":"1635856502","tag":{"natural":"tree"}},"type":"Feature"},
	{"geometry":{"coordinates":[6.327295,49.751713],"type":"Point"},"properties":{"osm_id":"3394883865","tag":{"natural":"tree"}},"type":"Feature"},
	{"geometry":{"coordinates":[6.327717,49.751832],"type":"Point"},"properties":{"osm_id":"3394883866","tag":{"natural":"tree"}},"type":"Feature"},
	{"geometry":{"coordinates":[6.327872,49.751875],"type":"Point"},"properties":{"osm_id":"3394883867","tag":{"natural":"tree"}},"type":"Feature"},
	{"geometry":{"coordinates":[6.328113,49.751943],"type":"Point"},"properties":{"osm_id":"3394883868","tag":{"natural":"tree"}},"type":"Feature"},
	{"geometry":{"coordinates":[6.28708,49.734919],"type":"Point"},"properties":{"osm_id":"3399329883","tag":{"natural":"tree"}},"type":"Feature"},
	{"geometry":{"coordinates":[6.297097,49.780252],"type":"Point"},"properties":{"osm_id":"4374066646","tag":{"natural":"tree"}},"type":"Feature"},
	{"geometry":{"coordinates":[6.297121,49.780388],"type":"Point"},"properties":{"osm_id":"4374066648","tag":{"natural":"tree"}},"type":"Feature"},
	{"geometry":{"coordinates":[6.29716,49.780504],"type":"Point"},"properties":{"osm_id":"4374066650","tag":{"natural":"tree"}},"type":"Feature"},
	{"geometry":{"coordinates":[6.319769,49.738943],"type":"Point"},"properties":{"osm_id":"5028319502","tag":{"natural":"tree"}},"type":"Feature"},
	{"geometry":{"coordinates":[6.319946,49.73905],"type":"Point"},"properties":{"osm_id":"5028319503","tag":{"natural":"tree"}},"type":"Feature"},
	{"geometry":{"coordinates":[6.320376,49.739167],"type":"Point"},"properties":{"osm_id":"5028319505","tag":{"natural":"tree"}},"type":"Feature"},
	{"geometry":{"coordinates":[6.320172,49.739134],"type":"Point"},"properties":{"osm_id":"5028319506","tag":{"natural":"tree"}},"type":"Feature"},
	{"geometry":{"coordinates":[6.319953,49.738982],"type":"Point"},"properties":{"osm_id":"5028319507","tag":{"natural":"tree"}},"type":"Feature"},
	{"geometry":{"coordinates":[6.319881,49.738877],"type":"Point"},"properties":{"osm_id":"5028319508","tag":{"natural":"tree"}},"type":"Feature"},
	{"geometry":{"coordinates":[6.261662,49.75258],"type":"Point"},"properties":{"osm_id":"5200058778","tag":{"natural":"tree"}},"type":"Feature"},
	{"geometry":{"coordinates":[6.261328,49.752098],"type":"Point"},"properties":{"osm_id":"5200058779","tag":{"natural":"tree"}},"type":"Feature"},
	{"geometry":{"coordinates":[6.255914,49.75201],"type":"Point"},"properties":{"osm_id":"5200058815","tag":{"natural":"tree"}},"type":"Feature"},
	{"geometry":{"coordinates":[6.25862,49.748408],"type":"Point"},"properties":{"osm_id":"5216379390","tag":{"natural":"tree"}},"type":"Feature"},
	{"geometry":{"coordinates":[6.249673,49.747683],"type":"Point"},"properties":{"osm_id":"5216379391","tag":{"natural":"tree"}},"type":"Feature"},
	{"geometry":{"coordinates":[6.266143,49.742683],"type":"Point"},"properties":{"osm_id":"6531965770","tag":{"leaf_type":"broadleaved","natural":"tree"}},"type":"Feature"},
	{"geometry":{"coordinates":[6.266127,49.742788],"type":"Point"},"properties":{"osm_id":"6531965771","tag":{"leaf_type":"broadleaved","natural":"tree"}},"type":"Feature"},
	{"geometry":{"coordinates":[6.266066,49.742883],"type":"Point"},"properties":{"osm_id":"6531965772","tag":{"leaf_type":"broadleaved","natural":"tree"}},"type":"Feature"},
	{"geometry":{"coordinates":[6.266014,49.742968],"type":"Point"},"properties":{"osm_id":"6531965773","tag":{"leaf_type":"broadleaved","natural":"tree"}},"type":"Feature"},
	{"geometry":{"coordinates":[6.265813,49.74342],"type":"Point"},"properties":{"osm_id":"6531965774","tag":{"leaf_type":"broadleaved","natural":"tree"}},"type":"Feature"},
	{"geometry":{"coordinates":[6.265789,49.743495],"type":"Point"},"properties":{"osm_id":"6531965775","tag":{"leaf_type":"broadleaved","natural":"tree"}},"type":"Feature"},
	{"geometry":{"coordinates":[6.312088,49.737731],"type":"Point"},"properties":{"osm_id":"6630180053","tag":{"denotation":"natural_monument","genus":"Quercus","heritage":"2","heritage:operator":"anf","natural":"tree","taxon":"Quercus sp."}},"type":"Feature"},
	{"geometry":{"coordinates":[6.314772,49.779597],"type":"Point"},"properties":{"osm_id":"6630180148","tag":{"denotation":"natural_monument","genus":"Pseudotsuga","heritage":"2","heritage:operator":"anf","natural":"tree","taxon":"Pseudotsuga menz."}},"type":"Feature"},
	{"geometry":{"coordinates":[6.273463,49.746557],"type":"Point"},"properties":{"osm_id":"6630180155","tag":{"denotation":"natural_monument","genus":"Ilex","heritage":"2","heritage:operator":"anf","natural":"tree","taxon":"Ilex"}},"type":"Feature"},
	{"geometry":{"coordinates":[6.311732,49.737641],"type":"Point"},"properties":{"osm_id":"6630180156","tag":{"denotation":"natural_monument","genus":"Quercus","heritage":"2","heritage:operator":"anf","natural":"tree","taxon":"Quercus sp."}},"type":"Feature"},
	{"geometry":{"coordinates":[6.254399,49.730776],"type":"Point"},"properties":{"barrier":"block","osm_id":"6763885891","tag":{"description":"fallen tree","natural":"tree"}},"type":"Feature"},
	{"geometry":{"coordinates":[6.243105,49.753066],"type":"Point"},"properties":{"osm_id":"7242649996","tag":{"information":"guidepost","natural":"tree","tourism":"information"}},"type":"Feature"},
	{"geometry":{"coordinates":[6.327541,49.758337],"type":"Point"},"properties":{"osm_id":"7395162587","tag":{"natural":"tree"}},"type":"Feature"},
	{"geometry":{"coordinates":[6.30256,49.778561],"type":"Point"},"properties":{"osm_id":"7399305252","tag":{"natural":"tree"}},"type":"Feature"},
	{"geometry":{"coordinates":[6.302553,49.778472],"type":"Point"},"properties":{"osm_id":"7399305253","tag":{"natural":"tree"}},"type":"Feature"},
	{"geometry":{"coordinates":[6.302309,49.778514],"type":"Point"},"properties":{"osm_id":"7399305254","tag":{"natural":"tree"}},"type":"Feature"},
	{"geometry":{"coordinates":[6.302333,49.778359],"type":"Point"},"properties":{"osm_id":"7399305255","tag":{"natural":"tree"}},"type":"Feature"},
	{"geometry":{"coordinates":[6.302522,49.77873],"type":"Point"},"properties":{"osm_id":"7399305256","tag":{"natural":"tree"}},"type":"Feature"},
	{"geometry":{"coordinates":[6.302856,49.777489],"type":"Point"},"properties":{"osm_id":"7399305257","tag":{"natural":"tree"}},"type":"Feature"},
	{"geometry":{"coordinates":[6.302858,49.777553],"type":"Point"},"properties":{"osm_id":"7399305258","tag":{"natural":"tree"}},"type":"Feature"},
	{"geometry":{"coordinates":[6.302051,49.77854],"type":"Point"},"properties":{"osm_id":"7399305267","tag":{"natural":"tree"}},"type":"Feature"},
	{"geometry":{"coordinates":[6.308226,49.777965],"type":"Point"},"properties":{"osm_id":"7399305268","tag":{"natural":"tree"}},"type":"Feature"},
	{"geometry":{"coordinates":[6.308333,49.777847],"type":"Point"},"properties":{"osm_id":"7399305269","tag":{"natural":"tree"}},"type":"Feature"},
	{"geometry":{"coordinates":[6.308844,49.777785],"type":"Point"},"properties":{"osm_id":"7399305270","tag":{"natural":"tree"}},"type":"Feature"},
	{"geometry":{"coordinates":[6.287124,49.735101],"type":"Point"},"properties":{"osm_id":"7403138188","tag":{"natural":"tree"}},"type":"Feature"},
	{"geometry":{"coordinates":[6.2871,49.73503],"type":"Point"},"properties":{"osm_id":"7403138189","tag":{"natural":"tree"}},"type":"Feature"},
	{"geometry":{"coordinates":[6.286952,49.735053],"type":"Point"},"properties":{"osm_id":"7403138190","tag":{"natural":"tree"}},"type":"Feature"},
	{"geometry":{"coordinates":[6.287245,49.73505],"type":"Point"},"properties":{"osm_id":"7403138191","tag":{"natural":"tree"}},"type":"Feature"},
	{"geometry":{"coordinates":[6.287252,49.73512],"type":"Point"},"properties":{"osm_id":"7403138192","tag":{"natural":"tree"}},"type":"Feature"},
	{"geometry":{"coordinates":[6.287274,49.735278],"type":"Point"},"properties":{"osm_id":"7403138193","tag":{"natural":"tree"}},"type":"Feature"},
	{"geometry":{"coordinates":[6.28715,49.735273],"type":"Point"},"properties":{"osm_id":"7403138194","tag":{"natural":"tree"}},"type":"Feature"},
	{"geometry":{"coordinates":[6.287142,49.735199],"type":"Point"},"properties":{"osm_id":"7403138195","tag":{"natural":"tree"}},"type":"Feature"},
	{"geometry":{"coordinates":[6.287227,49.735727],"type":"Point"},"properties":{"osm_id":"7403138196","tag":{"natural":"tree"}},"type":"Feature"},
	{"geometry":{"coordinates":[6.287341,49.73572],"type":"Point"},"properties":{"osm_id":"7403138197","tag":{"natural":"tree"}},"type":"Feature"},
	{"geometry":{"coordinates":[6.287345,49.735838],"type":"Point"},"properties":{"osm_id":"7403138198","tag":{"natural":"tree"}},"type":"Feature"},
	{"geometry":{"coordinates":[6.287252,49.735817],"type":"Point"},"properties":{"osm_id":"7403138199","tag":{"natural":"tree"}},"type":"Feature"},
	{"geometry":{"coordinates":[6.287278,49.73592],"type":"Point"},"properties":{"osm_id":"7403138200","tag":{"natural":"tree"}},"type":"Feature"},
	{"geometry":{"coordinates":[6.287357,49.73594],"type":"Point"},"properties":{"osm_id":"7403138201","tag":{"natural":"tree"}},"type":"Feature"},
	{"geometry":{"coordinates":[6.326656,49.750054],"type":"Point"},"properties":{"osm_id":"7525210681","tag":{"natural":"tree"}},"type":"Feature"},
	{"geometry":{"coordinates":[6.326481,49.750011],"type":"Point"},"properties":{"osm_id":"7525210682","tag":{"natural":"tree"}},"type":"Feature"},
	{"geometry":{"coordinates":[6.325673,49.740473],"type":"Point"},"properties":{"osm_id":"7795305935","tag":{"leaf_type":"broadleaved","natural":"tree"}},"type":"Feature"},
	{"geometry":{"coordinates":[6.319934,49.738712],"type":"Point"},"properties":{"osm_id":"7795305936","tag":{"leaf_type":"broadleaved","natural":"tree"}},"type":"Feature"},
	{"geometry":{"coordinates":[6.320067,49.738704],"type":"Point"},"properties":{"osm_id":"7795305937","tag":{"leaf_type":"broadleaved","natural":"tree"}},"type":"Feature"},
	{"geometry":{"coordinates":[6.320929,49.738168],"type":"Point"},"properties":{"osm_id":"7795305942","tag":{"leaf_type":"broadleaved","natural":"tree"}},"type":"Feature"},
	{"geometry":{"coordinates":[6.321069,49.738196],"type":"Point"},"properties":{"osm_id":"7795305943","tag":{"leaf_type":"broadleaved","natural":"tree"}},"type":"Feature"},
	{"geometry":{"coordinates":[6.320885,49.738483],"type":"Point"},"properties":{"osm_id":"7795305944","tag":{"leaf_type":"broadleaved","natural":"tree"}},"type":"Feature"},
	{"geometry":{"coordinates":[6.320229,49.738142],"type":"Point"},"properties":{"osm_id":"7795305945","tag":{"leaf_type":"broadleaved","natural":"tree"}},"type":"Feature"},
	{"geometry":{"coordinates":[6.319956,49.738119],"type":"Point"},"properties":{"osm_id":"7795305946","tag":{"leaf_type":"broadleaved","natural":"tree"}},"type":"Feature"},
	{"geometry":{"coordinates":[6.319808,49.738784],"type":"Point"},"properties":{"osm_id":"7795305957","tag":{"height":"2","leaf_type":"broadleaved","natural":"tree"}},"type":"Feature"},
	{"geometry":{"coordinates":[6.319108,49.738867],"type":"Point"},"properties":{"osm_id":"7797045876","tag":{"height":"15","leaf_type":"broadleaved","natural":"tree"}},"type":"Feature"},
	{"geometry":{"coordinates":[6.319258,49.738803],"type":"Point"},"properties":{"osm_id":"7797045877","tag":{"height":"15","leaf_type":"broadleaved","natural":"tree"}},"type":"Feature"},
	{"geometry":{"coordinates":[6.319424,49.738772],"type":"Point"},"properties":{"osm_id":"7797045878","tag":{"height":"15","leaf_type":"broadleaved","natural":"tree"}},"type":"Feature"},
	{"geometry":{"coordinates":[6.302249,49.730948],"type":"Point"},"properties":{"osm_id":"7797057825","tag":{"height":"15","leaf_type":"broadleaved","natural":"tree"}},"type":"Feature"},
	{"geometry":{"coordinates":[6.302388,49.730863],"type":"Point"},"properties":{"osm_id":"7797057826","tag":{"height":"15","leaf_type":"broadleaved","natural":"tree"}},"type":"Feature"},
	{"geometry":{"coordinates":[6.302463,49.730796],"type":"Point"},"properties":{"osm_id":"7797057827","tag":{"height":"15","leaf_type":"broadleaved","natural":"tree"}},"type":"Feature"},
	{"geometry":{"coordinates":[6.302557,49.730707],"type":"Point"},"properties":{"osm_id":"7797057828","tag":{"height":"15","leaf_type":"broadleaved","natural":"tree"}},"type":"Feature"},
	{"geometry":{"coordinates":[6.302662,49.730621],"type":"Point"},"properties":{"osm_id":"7797057829","tag":{"height":"15","leaf_type":"broadleaved","natural":"tree"}},"type":"Feature"},
	{"geometry":{"coordinates":[6.30286,49.73046],"type":"Point"},"properties":{"osm_id":"7797057830","tag":{"height":"15","leaf_type":"broadleaved","natural":"tree"}},"type":"Feature"},
	{"geometry":{"coordinates":[6.304169,49.730331],"type":"Point"},"properties":{"osm_id":"7797057831","tag":{"height":"15","leaf_type":"broadleaved","natural":"tree"}},"type":"Feature"},
	{"geometry":{"coordinates":[6.302512,49.730191],"type":"Point"},"properties":{"osm_id":"7797057832","tag":{"height":"12","leaf_type":"broadleaved","natural":"tree"}},"type":"Feature"},
	{"geometry":{"coordinates":[6.297526,49.781027],"type":"Point"},"properties":{"osm_id":"7931006290","tag":{"natural":"tree"}},"type":"Feature"},
	{"geometry":{"coordinates":[6.297409,49.780961],"type":"Point"},"properties":{"osm_id":"7931006291","tag":{"natural":"tree"}},"type":"Feature"},
	{"geometry":{"coordinates":[6.327423,49.758375],"type":"Point"},"properties":{"osm_id":"7934349562","tag":{"natural":"tree"}},"type":"Feature"}
]
}
