{
"type": "FeatureCollection",
"features": [
	{"geometry":{"coordinates":[-8.737803,42.213576],"type":"Point"},"properties":{"osm_id":"1618959949","tag":{"addr:city":"Vigo","addr:country":"ES","addr:postcode":"36210","addr:street":"Avenida de Fragoso","amenity":"recycling"}},"type":"Feature"},
	{"geometry":{"coordinates":[-8.737445,42.213988],"type":"Point"},"properties":{"osm_id":"1618959971","tag":{"addr:city":"Vigo","addr:country":"ES","addr:postcode":"36210","addr:street":"Avenida de Fragoso","amenity":"recycling"}},"type":"Feature"},
	{"geometry":{"coordinates":[-8.73578,42.215856],"type":"Point"},"properties":{"osm_id":"1618960027","tag":{"addr:city":"Vigo","addr:country":"ES","addr:postcode":"36210","addr:street":"Avenida de Fragoso","amenity":"recycling"}},"type":"Feature"},
	{"geometry":{"coordinates":[-8.734436,42.217783],"type":"Point"},"properties":{"osm_id":"1618960053","tag":{"addr:city":"Vigo","addr:country":"ES","addr:street":"Avenida de Fragoso","amenity":"recycling"}},"type":"Feature"},
	{"geometry":{"coordinates":[-8.712984,42.226717],"type":"Point"},"properties":{"osm_id":"2685096092","tag":{"amenity":"recycling","recycling:cans":"yes","recycling:glass":"yes","recycling:paper":"yes"}},"type":"Feature"},
	{"geometry":{"coordinates":[-8.731603,42.221354],"type":"Point"},"properties":{"osm_id":"3149305827","tag":{"amenity":"recycling"}},"type":"Feature"},
	{"geometry":{"coordinates":[-8.731017,42.221364],"type":"Point"},"properties":{"osm_id":"3149305828","tag":{"amenity":"waste_basket"}},"type":"Feature"},
	{"geometry":{"coordinates":[-8.731208,42.221347],"type":"Point"},"properties":{"osm_id":"3149317316","tag":{"amenity":"waste_disposal"}},"type":"Feature"},
	{"geometry":{"coordinates":[-8.731707,42.221744],"type":"Point"},"properties":{"osm_id":"3149317323","tag":{"amenity":"waste_disposal"}},"type":"Feature"},
	{"geometry":{"coordinates":[-8.731072,42.221421],"type":"Point"},"properties":{"osm_id":"3149330129","tag":{"amenity":"waste_basket"}},"type":"Feature"},
	{"geometry":{"coordinates":[-8.730179,42.222088],"type":"Point"},"properties":{"osm_id":"3149336443","tag":{"amenity":"waste_disposal"}},"type":"Feature"},
	{"geometry":{"coordinates":[-8.737143,42.21783],"type":"Point"},"properties":{"osm_id":"3149340014","tag":{"amenity":"recycling","recycling:plastic":"yes","recycling_type":"container"}},"type":"Feature"},
	{"geometry":{"coordinates":[-8.73709,42.21786],"type":"Point"},"properties":{"osm_id":"3149340015","tag":{"amenity":"waste_disposal"}},"type":"Feature"},
	{"geometry":{"coordinates":[-8.736401,42.218147],"type":"Point"},"properties":{"osm_id":"3149340016","tag":{"amenity":"waste_disposal"}},"type":"Feature"},
	{"geometry":{"coordinates":[-8.748111,42.212013],"type":"Point"},"properties":{"osm_id":"3149351490","tag":{"amenity":"waste_disposal"}},"type":"Feature"},
	{"geometry":{"coordinates":[-8.748111,42.212352],"type":"Point"},"properties":{"osm_id":"3149351500","tag":{"amenity":"waste_disposal"}},"type":"Feature"},
	{"geometry":{"coordinates":[-8.746004,42.212553],"type":"Point"},"properties":{"osm_id":"3149351503","tag":{"amenity":"recycling","recycling_type":"container"}},"type":"Feature"},
	{"geometry":{"coordinates":[-8.747061,42.212931],"type":"Point"},"properties":{"osm_id":"3149404969","tag":{"amenity":"waste_disposal"}},"type":"Feature"},
	{"geometry":{"coordinates":[-8.746352,42.213047],"type":"Point"},"properties":{"osm_id":"3149404970","tag":{"amenity":"waste_disposal"}},"type":"Feature"},
	{"geometry":{"coordinates":[-8.729832,42.222464],"type":"Point"},"properties":{"osm_id":"3149420362","tag":{"amenity":"waste_disposal"}},"type":"Feature"},
	{"geometry":{"coordinates":[-8.727401,42.222539],"type":"Point"},"properties":{"osm_id":"3149420363","tag":{"amenity":"recycling"}},"type":"Feature"},
	{"geometry":{"coordinates":[-8.727376,42.222856],"type":"Point"},"properties":{"osm_id":"3149420366","tag":{"amenity":"waste_disposal"}},"type":"Feature"},
	{"geometry":{"coordinates":[-8.72739,42.222871],"type":"Point"},"properties":{"osm_id":"3149420367","tag":{"amenity":"waste_disposal"}},"type":"Feature"},
	{"geometry":{"coordinates":[-8.727398,42.222882],"type":"Point"},"properties":{"osm_id":"3149420368","tag":{"amenity":"waste_disposal"}},"type":"Feature"},
	{"geometry":{"coordinates":[-8.72837,42.222924],"type":"Point"},"properties":{"osm_id":"3149420369","tag":{"amenity":"waste_disposal"}},"type":"Feature"},
	{"geometry":{"coordinates":[-8.72835,42.222929],"type":"Point"},"properties":{"osm_id":"3149420370","tag":{"amenity":"waste_disposal"}},"type":"Feature"},
	{"geometry":{"coordinates":[-8.728324,42.222936],"type":"Point"},"properties":{"osm_id":"3149420371","tag":{"amenity":"waste_disposal"}},"type":"Feature"},
	{"geometry":{"coordinates":[-8.728302,42.222943],"type":"Point"},"properties":{"osm_id":"3149420372","tag":{"amenity":"waste_disposal"}},"type":"Feature"},
	{"geometry":{"coordinates":[-8.727638,42.223238],"type":"Point"},"properties":{"osm_id":"3149920929","tag":{"amenity":"recycling","recycling:cans":"yes","recycling:paper":"yes"}},"type":"Feature"},
	{"geometry":{"coordinates":[-8.735003,42.225389],"type":"Point"},"properties":{"osm_id":"3452605815","tag":{"addr:city":"Vigo","addr:street":"R\u00c3\u00baa de Elio Antonio de Nebrija","amenity":"recycling","recycling:cans":"yes","recycling:plastic_packaging":"yes"}},"type":"Feature"},
	{"geometry":{"coordinates":[-8.759891,42.206737],"type":"Point"},"properties":{"osm_id":"3770264300","tag":{"amenity":"recycling","recycling_type":"container"}},"type":"Feature"},
	{"geometry":{"coordinates":[-8.727953,42.223684],"type":"Point"},"properties":{"osm_id":"4153142425","tag":{"amenity":"recycling","recycling:cans":"yes","recycling:clothes":"no","recycling:glass":"yes","recycling:glass_bottles":"yes","recycling:paper":"yes","recycling:plastic":"yes","recycling_type":"container"}},"type":"Feature"},
	{"geometry":{"coordinates":[-8.728543,42.223452],"type":"Point"},"properties":{"osm_id":"4153142426","tag":{"amenity":"waste_disposal"}},"type":"Feature"},
	{"geometry":{"coordinates":[-8.74458,42.218966],"type":"Point"},"properties":{"osm_id":"4153155191","tag":{"amenity":"waste_disposal"}},"type":"Feature"},
	{"geometry":{"coordinates":[-8.732518,42.212748],"type":"Point"},"properties":{"osm_id":"4710098286","tag":{"amenity":"waste_basket"}},"type":"Feature"},
	{"geometry":{"coordinates":[-8.732331,42.212723],"type":"Point"},"properties":{"osm_id":"4710098287","tag":{"amenity":"waste_basket"}},"type":"Feature"},
	{"geometry":{"coordinates":[-8.732313,42.212721],"type":"Point"},"properties":{"osm_id":"4710098288","tag":{"amenity":"recycling","recycling_type":"container"}},"type":"Feature"},
	{"geometry":{"coordinates":[-8.761581,42.223169],"type":"Point"},"properties":{"osm_id":"4869868660","tag":{"amenity":"waste_disposal"}},"type":"Feature"},
	{"geometry":{"coordinates":[-8.739369,42.214034],"type":"Point"},"properties":{"osm_id":"4870527904","tag":{"amenity":"recycling","recycling_type":"container"}},"type":"Feature"},
	{"geometry":{"coordinates":[-8.739631,42.21473],"type":"Point"},"properties":{"osm_id":"4870527905","tag":{"amenity":"recycling","recycling_type":"container"}},"type":"Feature"},
	{"geometry":{"coordinates":[-8.73409,42.227444],"type":"Point"},"properties":{"osm_id":"4887553041","tag":{"amenity":"recycling","recycling:batteries":"yes","recycling:cans":"yes","recycling:glass_bottles":"yes","recycling:paper":"yes","recycling:plastic":"yes","recycling_type":"container"}},"type":"Feature"},
	{"geometry":{"coordinates":[-8.734791,42.22614],"type":"Point"},"properties":{"osm_id":"4887553070","tag":{"amenity":"recycling","recycling:plastic_bottles":"yes","recycling_type":"container"}},"type":"Feature"},
	{"geometry":{"coordinates":[-8.751114,42.2127],"type":"Point"},"properties":{"osm_id":"4889672084","tag":{"amenity":"recycling","recycling_type":"container"}},"type":"Feature"},
	{"geometry":{"coordinates":[-8.751499,42.213865],"type":"Point"},"properties":{"osm_id":"4889672086","tag":{"amenity":"recycling","recycling_type":"container"}},"type":"Feature"},
	{"geometry":{"coordinates":[-8.750964,42.211393],"type":"Point"},"properties":{"osm_id":"4889672114","tag":{"amenity":"recycling","recycling_type":"container"}},"type":"Feature"},
	{"geometry":{"coordinates":[-8.752,42.217395],"type":"Point"},"properties":{"osm_id":"4889673163","tag":{"amenity":"recycling","recycling_type":"container"}},"type":"Feature"},
	{"geometry":{"coordinates":[-8.747941,42.211303],"type":"Point"},"properties":{"osm_id":"4889683740","tag":{"amenity":"recycling","recycling_type":"container"}},"type":"Feature"},
	{"geometry":{"coordinates":[-8.747172,42.21135],"type":"Point"},"properties":{"osm_id":"4889683741","tag":{"amenity":"recycling","recycling_type":"container"}},"type":"Feature"},
	{"geometry":{"coordinates":[-8.746803,42.210419],"type":"Point"},"properties":{"osm_id":"4889683743","tag":{"amenity":"recycling","recycling_type":"container"}},"type":"Feature"},
	{"geometry":{"coordinates":[-8.744389,42.211085],"type":"Point"},"properties":{"osm_id":"4889683745","tag":{"amenity":"recycling","recycling_type":"container"}},"type":"Feature"},
	{"geometry":{"coordinates":[-8.742602,42.211704],"type":"Point"},"properties":{"osm_id":"4889683748","tag":{"amenity":"recycling","recycling_type":"container"}},"type":"Feature"},
	{"geometry":{"coordinates":[-8.74183,42.212234],"type":"Point"},"properties":{"osm_id":"4889683749","tag":{"amenity":"recycling","recycling_type":"container"}},"type":"Feature"},
	{"geometry":{"coordinates":[-8.740954,42.212462],"type":"Point"},"properties":{"osm_id":"4889683750","tag":{"amenity":"recycling","recycling_type":"container"}},"type":"Feature"},
	{"geometry":{"coordinates":[-8.745947,42.212474],"type":"Point"},"properties":{"osm_id":"4889683754","tag":{"amenity":"recycling","recycling_type":"container"}},"type":"Feature"},
	{"geometry":{"coordinates":[-8.753318,42.217905],"type":"Point"},"properties":{"osm_id":"4889712408","tag":{"amenity":"recycling","recycling_type":"container"}},"type":"Feature"},
	{"geometry":{"coordinates":[-8.75426,42.219435],"type":"Point"},"properties":{"osm_id":"4889712417","tag":{"amenity":"recycling","recycling_type":"container"}},"type":"Feature"},
	{"geometry":{"coordinates":[-8.752443,42.222054],"type":"Point"},"properties":{"osm_id":"4889712722","tag":{"amenity":"recycling","recycling_type":"container"}},"type":"Feature"},
	{"geometry":{"coordinates":[-8.751543,42.223414],"type":"Point"},"properties":{"osm_id":"4889712725","tag":{"amenity":"recycling","recycling_type":"container"}},"type":"Feature"},
	{"geometry":{"coordinates":[-8.749968,42.218665],"type":"Point"},"properties":{"osm_id":"4889712730","tag":{"amenity":"recycling","recycling_type":"container"}},"type":"Feature"},
	{"geometry":{"coordinates":[-8.749164,42.218768],"type":"Point"},"properties":{"osm_id":"4889712731","tag":{"amenity":"recycling","recycling_type":"container"}},"type":"Feature"},
	{"geometry":{"coordinates":[-8.748337,42.219183],"type":"Point"},"properties":{"osm_id":"4889712734","tag":{"amenity":"recycling","recycling_type":"container"}},"type":"Feature"},
	{"geometry":{"coordinates":[-8.746948,42.219346],"type":"Point"},"properties":{"osm_id":"4889712736","tag":{"amenity":"recycling","recycling_type":"container"}},"type":"Feature"},
	{"geometry":{"coordinates":[-8.731997,42.226162],"type":"Point"},"properties":{"osm_id":"4889866220","tag":{"amenity":"recycling","recycling_type":"container"}},"type":"Feature"},
	{"geometry":{"coordinates":[-8.731491,42.225265],"type":"Point"},"properties":{"osm_id":"4889872508","tag":{"amenity":"recycling","recycling_type":"container"}},"type":"Feature"},
	{"geometry":{"coordinates":[-8.713918,42.223957],"type":"Point"},"properties":{"osm_id":"4889892573","tag":{"amenity":"recycling","recycling_type":"container"}},"type":"Feature"},
	{"geometry":{"coordinates":[-8.714218,42.225367],"type":"Point"},"properties":{"osm_id":"4889897880","tag":{"amenity":"recycling","recycling_type":"container"}},"type":"Feature"},
	{"geometry":{"coordinates":[-8.729819,42.218706],"type":"Point"},"properties":{"osm_id":"4889958736","tag":{"amenity":"recycling","recycling_type":"container"}},"type":"Feature"},
	{"geometry":{"coordinates":[-8.732289,42.218789],"type":"Point"},"properties":{"osm_id":"4889958746","tag":{"amenity":"recycling","recycling_type":"container"}},"type":"Feature"},
	{"geometry":{"coordinates":[-8.732461,42.218626],"type":"Point"},"properties":{"osm_id":"4889958747","tag":{"amenity":"recycling","recycling_type":"container"}},"type":"Feature"},
	{"geometry":{"coordinates":[-8.734712,42.212794],"type":"Point"},"properties":{"osm_id":"4892025606","tag":{"amenity":"recycling","recycling_type":"container"}},"type":"Feature"},
	{"geometry":{"coordinates":[-8.732998,42.213204],"type":"Point"},"properties":{"osm_id":"4892025607","tag":{"amenity":"recycling","recycling_type":"container"}},"type":"Feature"},
	{"geometry":{"coordinates":[-8.74043,42.212904],"type":"Point"},"properties":{"osm_id":"4892025611","tag":{"amenity":"recycling","recycling_type":"container"}},"type":"Feature"},
	{"geometry":{"coordinates":[-8.7472,42.211343],"type":"Point"},"properties":{"osm_id":"4903622272","tag":{"amenity":"recycling","recycling_type":"container"}},"type":"Feature"},
	{"geometry":{"coordinates":[-8.7472,42.211343],"type":"Point"},"properties":{"osm_id":"4903624827","tag":{"amenity":"recycling","recycling_type":"container"}},"type":"Feature"},
	{"geometry":{"coordinates":[-8.749062,42.215881],"type":"Point"},"properties":{"osm_id":"4903631253","tag":{"amenity":"recycling","recycling_type":"container"}},"type":"Feature"},
	{"geometry":{"coordinates":[-8.749909,42.215259],"type":"Point"},"properties":{"osm_id":"4904557166","tag":{"amenity":"recycling","recycling:batteries":"yes","recycling:cans":"yes","recycling:cardboard":"yes","recycling:glass":"yes","recycling:glass_bottles":"yes","recycling:paper":"yes","recycling:plastic":"yes","recycling:plastic_bottles":"yes","recycling:scrap_metal":"yes","recycling_type":"container"}},"type":"Feature"},
	{"geometry":{"coordinates":[-8.747406,42.217049],"type":"Point"},"properties":{"osm_id":"4904557181","tag":{"amenity":"recycling","recycling_type":"container"}},"type":"Feature"},
	{"geometry":{"coordinates":[-8.749265,42.213675],"type":"Point"},"properties":{"osm_id":"4909261982","tag":{"amenity":"waste_disposal"}},"type":"Feature"},
	{"geometry":{"coordinates":[-8.762072,42.192879],"type":"Point"},"properties":{"osm_id":"5282972158","tag":{"amenity":"recycling","recycling:cans":"no","recycling:glass_bottles":"yes","recycling:paper":"yes","recycling:plastic":"yes","recycling_type":"container"}},"type":"Feature"},
	{"geometry":{"coordinates":[-8.773631,42.187897],"type":"Point"},"properties":{"osm_id":"5286708745","tag":{"amenity":"recycling","recycling:glass":"yes","recycling:paper":"yes","recycling:plastic":"yes","recycling_type":"container"}},"type":"Feature"},
	{"geometry":{"coordinates":[-8.73449,42.226694],"type":"Point"},"properties":{"osm_id":"6290077161","tag":{"amenity":"recycling","recycling:paper":"yes","recycling_type":"container"}},"type":"Feature"},
	{"geometry":{"coordinates":[-8.734809,42.226092],"type":"Point"},"properties":{"osm_id":"6290077162","tag":{"amenity":"recycling","recycling:paper":"yes","recycling_type":"container"}},"type":"Feature"},
	{"geometry":{"coordinates":[-8.734798,42.226118],"type":"Point"},"properties":{"osm_id":"6290077163","tag":{"amenity":"recycling","recycling:plastic_bottles":"yes","recycling_type":"container"}},"type":"Feature"},
	{"geometry":{"coordinates":[-8.758222,42.222412],"type":"Point"},"properties":{"osm_id":"7809481583","tag":{"amenity":"waste_disposal","waste":"glass;plastic;paper;batteries;mixed"}},"type":"Feature"},
	{"geometry":{"coordinates":[-8.730393,42.223412],"type":"Point"},"properties":{"osm_id":"7826253014","tag":{"amenity":"recycling","recycling:cans":"yes","recycling:clothes":"no","recycling:glass":"yes","recycling:glass_bottles":"yes","recycling:paper":"yes","recycling:plastic":"yes","recycling_type":"container"}},"type":"Feature"}
]
}
