{
"type": "FeatureCollection",
"features": [
	{"geometry":{"coordinates":[35.905127,56.883144],"type":"Point"},"properties":{"osm_id":"923151726","tag":{"amenity":"waste_disposal"}},"type":"Feature"},
	{"geometry":{"coordinates":[35.909426,56.876522],"type":"Point"},"properties":{"osm_id":"951331654","tag":{"amenity":"waste_disposal"}},"type":"Feature"},
	{"geometry":{"coordinates":[35.914006,56.868906],"type":"Point"},"properties":{"osm_id":"951333778","tag":{"amenity":"waste_disposal"}},"type":"Feature"},
	{"geometry":{"coordinates":[35.912075,56.871298],"type":"Point"},"properties":{"osm_id":"951334012","tag":{"amenity":"waste_disposal"}},"type":"Feature"},
	{"geometry":{"coordinates":[35.909929,56.871553],"type":"Point"},"properties":{"osm_id":"951334157","tag":{"amenity":"waste_disposal"}},"type":"Feature"},
	{"geometry":{"coordinates":[35.909034,56.870839],"type":"Point"},"properties":{"osm_id":"951334189","tag":{"amenity":"waste_disposal"}},"type":"Feature"},
	{"geometry":{"coordinates":[35.910429,56.87304],"type":"Point"},"properties":{"osm_id":"951680825","tag":{"amenity":"waste_disposal"}},"type":"Feature"},
	{"geometry":{"coordinates":[35.909047,56.857266],"type":"Point"},"properties":{"osm_id":"1001376004","tag":{"amenity":"waste_basket"}},"type":"Feature"},
	{"geometry":{"coordinates":[35.908353,56.857367],"type":"Point"},"properties":{"osm_id":"1001376107","tag":{"amenity":"waste_basket"}},"type":"Feature"},
	{"geometry":{"coordinates":[35.903791,56.859276],"type":"Point"},"properties":{"osm_id":"1102975996","tag":{"amenity":"waste_basket"}},"type":"Feature"},
	{"geometry":{"coordinates":[35.903863,56.859427],"type":"Point"},"properties":{"osm_id":"1102975999","tag":{"amenity":"waste_basket"}},"type":"Feature"},
	{"geometry":{"coordinates":[35.903855,56.859412],"type":"Point"},"properties":{"osm_id":"1102976000","tag":{"amenity":"waste_basket"}},"type":"Feature"},
	{"geometry":{"coordinates":[35.903784,56.85926],"type":"Point"},"properties":{"osm_id":"1102976009","tag":{"amenity":"waste_basket"}},"type":"Feature"},
	{"geometry":{"coordinates":[35.905174,56.861172],"type":"Point"},"properties":{"osm_id":"1124995348","tag":{"amenity":"waste_basket"}},"type":"Feature"},
	{"geometry":{"coordinates":[35.905572,56.861041],"type":"Point"},"properties":{"osm_id":"1124995350","tag":{"amenity":"waste_basket"}},"type":"Feature"},
	{"geometry":{"coordinates":[35.903394,56.860912],"type":"Point"},"properties":{"osm_id":"1124995366","tag":{"amenity":"waste_basket"}},"type":"Feature"},
	{"geometry":{"coordinates":[35.9052,56.861119],"type":"Point"},"properties":{"osm_id":"1124995370","tag":{"amenity":"waste_basket"}},"type":"Feature"},
	{"geometry":{"coordinates":[35.905625,56.861052],"type":"Point"},"properties":{"osm_id":"1124995371","tag":{"amenity":"waste_basket"}},"type":"Feature"},
	{"geometry":{"coordinates":[35.905322,56.861088],"type":"Point"},"properties":{"osm_id":"1124995390","tag":{"amenity":"waste_basket"}},"type":"Feature"},
	{"geometry":{"coordinates":[35.905623,56.860948],"type":"Point"},"properties":{"osm_id":"1124995392","tag":{"amenity":"waste_basket"}},"type":"Feature"},
	{"geometry":{"coordinates":[35.903894,56.860845],"type":"Point"},"properties":{"osm_id":"1124995398","tag":{"amenity":"waste_basket"}},"type":"Feature"},
	{"geometry":{"coordinates":[35.90313,56.860944],"type":"Point"},"properties":{"osm_id":"1124995401","tag":{"amenity":"waste_basket"}},"type":"Feature"},
	{"geometry":{"coordinates":[35.90571,56.860969],"type":"Point"},"properties":{"osm_id":"1124995422","tag":{"amenity":"waste_basket"}},"type":"Feature"},
	{"geometry":{"coordinates":[35.90377,56.860859],"type":"Point"},"properties":{"osm_id":"1124995428","tag":{"amenity":"waste_basket"}},"type":"Feature"},
	{"geometry":{"coordinates":[35.905475,56.861093],"type":"Point"},"properties":{"osm_id":"1124995487","tag":{"amenity":"waste_basket"}},"type":"Feature"},
	{"geometry":{"coordinates":[35.905031,56.862606],"type":"Point"},"properties":{"osm_id":"1137807039","tag":{"amenity":"waste_basket"}},"type":"Feature"},
	{"geometry":{"coordinates":[35.903651,56.861602],"type":"Point"},"properties":{"osm_id":"1159289415","tag":{"amenity":"waste_basket"}},"type":"Feature"},
	{"geometry":{"coordinates":[35.903709,56.86236],"type":"Point"},"properties":{"osm_id":"1159289423","tag":{"amenity":"waste_basket"}},"type":"Feature"},
	{"geometry":{"coordinates":[35.90371,56.862399],"type":"Point"},"properties":{"osm_id":"1159289466","tag":{"amenity":"waste_basket"}},"type":"Feature"},
	{"geometry":{"coordinates":[35.903655,56.861657],"type":"Point"},"properties":{"osm_id":"1159289507","tag":{"amenity":"waste_basket"}},"type":"Feature"},
	{"geometry":{"coordinates":[35.903655,56.861729],"type":"Point"},"properties":{"osm_id":"1159289552","tag":{"amenity":"waste_basket"}},"type":"Feature"},
	{"geometry":{"coordinates":[35.903714,56.862323],"type":"Point"},"properties":{"osm_id":"1159289571","tag":{"amenity":"waste_basket"}},"type":"Feature"},
	{"geometry":{"coordinates":[35.893715,56.863254],"type":"Point"},"properties":{"osm_id":"1284283731","tag":{"amenity":"waste_basket"}},"type":"Feature"},
	{"geometry":{"coordinates":[35.894106,56.863238],"type":"Point"},"properties":{"osm_id":"1284283743","tag":{"amenity":"waste_basket"}},"type":"Feature"},
	{"geometry":{"coordinates":[35.903543,56.859304],"type":"Point"},"properties":{"osm_id":"1335856477","tag":{"amenity":"waste_basket"}},"type":"Feature"},
	{"geometry":{"coordinates":[35.903536,56.859289],"type":"Point"},"properties":{"osm_id":"1335856485","tag":{"amenity":"waste_basket"}},"type":"Feature"},
	{"geometry":{"coordinates":[35.903592,56.859397],"type":"Point"},"properties":{"osm_id":"1335856496","tag":{"amenity":"waste_basket"}},"type":"Feature"},
	{"geometry":{"coordinates":[35.903711,56.859654],"type":"Point"},"properties":{"osm_id":"1335856499","tag":{"amenity":"waste_basket"}},"type":"Feature"},
	{"geometry":{"coordinates":[35.9036,56.859412],"type":"Point"},"properties":{"osm_id":"1335856513","tag":{"amenity":"waste_basket"}},"type":"Feature"},
	{"geometry":{"coordinates":[35.903719,56.859669],"type":"Point"},"properties":{"osm_id":"1335856515","tag":{"amenity":"waste_basket"}},"type":"Feature"},
	{"geometry":{"coordinates":[35.908562,56.849668],"type":"Point"},"properties":{"osm_id":"1360168092","tag":{"amenity":"waste_disposal"}},"type":"Feature"},
	{"geometry":{"coordinates":[35.909593,56.861544],"type":"Point"},"properties":{"osm_id":"1363348521","tag":{"amenity":"waste_disposal"}},"type":"Feature"},
	{"geometry":{"coordinates":[35.905299,56.883219],"type":"Point"},"properties":{"osm_id":"1457460679","tag":{"amenity":"waste_basket"}},"type":"Feature"},
	{"geometry":{"coordinates":[35.905414,56.883248],"type":"Point"},"properties":{"osm_id":"1457460681","tag":{"amenity":"waste_basket"}},"type":"Feature"},
	{"geometry":{"coordinates":[35.912603,56.856734],"type":"Point"},"properties":{"osm_id":"1458637570","tag":{"amenity":"waste_basket"}},"type":"Feature"},
	{"geometry":{"coordinates":[35.912423,56.856767],"type":"Point"},"properties":{"osm_id":"1458637571","tag":{"amenity":"waste_basket"}},"type":"Feature"},
	{"geometry":{"coordinates":[35.912332,56.856779],"type":"Point"},"properties":{"osm_id":"1458637575","tag":{"amenity":"waste_basket"}},"type":"Feature"},
	{"geometry":{"coordinates":[35.912084,56.856784],"type":"Point"},"properties":{"osm_id":"1458637576","tag":{"amenity":"waste_basket"}},"type":"Feature"},
	{"geometry":{"coordinates":[35.911745,56.856844],"type":"Point"},"properties":{"osm_id":"1458637579","tag":{"amenity":"waste_basket"}},"type":"Feature"},
	{"geometry":{"coordinates":[35.911962,56.856845],"type":"Point"},"properties":{"osm_id":"1458637582","tag":{"amenity":"waste_basket"}},"type":"Feature"},
	{"geometry":{"coordinates":[35.91143,56.856891],"type":"Point"},"properties":{"osm_id":"1458637586","tag":{"amenity":"waste_basket"}},"type":"Feature"},
	{"geometry":{"coordinates":[35.911194,56.856923],"type":"Point"},"properties":{"osm_id":"1458637590","tag":{"amenity":"waste_basket"}},"type":"Feature"},
	{"geometry":{"coordinates":[35.929287,56.851412],"type":"Point"},"properties":{"osm_id":"1488140388","tag":{"amenity":"waste_disposal"}},"type":"Feature"},
	{"geometry":{"coordinates":[35.868656,56.85443],"type":"Point"},"properties":{"osm_id":"1829376066","tag":{"amenity":"recycling"}},"type":"Feature"},
	{"geometry":{"coordinates":[35.913084,56.86602],"type":"Point"},"properties":{"osm_id":"1949482023","tag":{"amenity":"waste_disposal"}},"type":"Feature"},
	{"geometry":{"coordinates":[35.930331,56.895696],"type":"Point"},"properties":{"osm_id":"4069601236","tag":{"amenity":"waste_disposal"}},"type":"Feature"},
	{"geometry":{"coordinates":[35.889709,56.854616],"type":"Point"},"properties":{"name":"\u00d0\u0093\u00d0\u00be\u00d1\u0080\u00d0\u00be\u00d0\u00b4\u00d1\u0081\u00d0\u00ba\u00d0\u00be\u00d0\u00b9 \u00d1\u0081\u00d0\u00b1\u00d0\u00be\u00d1\u0080 \u00d0\u00b2\u00d1\u0082\u00d0\u00be\u00d1\u0080\u00d0\u00b8\u00d1\u0087\u00d0\u00bd\u00d1\u008b\u00d1\u0085 \u00d0\u00be\u00d1\u0082\u00d1\u0085\u00d0\u00be\u00d0\u00b4\u00d0\u00be\u00d0\u00b2 \u00d0\u00ad\u00d0\u00ba\u00d0\u00be-\u00d0\u00a1\u00d0\u00b5\u00d1\u0080\u00d0\u00b2\u00d0\u00b8\u00d1\u0081","osm_id":"5081611592","tag":{"addr:city":"\u00d0\u00a2\u00d0\u00b2\u00d0\u00b5\u00d1\u0080\u00d1\u008c","addr:housenumber":"36","addr:street":"\u00d1\u0083\u00d0\u00bb\u00d0\u00b8\u00d1\u0086\u00d0\u00b0 \u00d0\u0091\u00d1\u0080\u00d0\u00b0\u00d0\u00b3\u00d0\u00b8\u00d0\u00bd\u00d0\u00b0","amenity":"recycling","opening_hours":"Mo-Fr 09:00-17:00","phone":"34-71-01, 34-15-74","recycling_type":"centre","website":"https://eco69.ru/"}},"type":"Feature"},
	{"geometry":{"coordinates":[35.906405,56.855322],"type":"Point"},"properties":{"osm_id":"5752587137","tag":{"amenity":"waste_basket"}},"type":"Feature"},
	{"geometry":{"coordinates":[35.90091,56.857194],"type":"Point"},"properties":{"osm_id":"5752587138","tag":{"amenity":"waste_disposal"}},"type":"Feature"},
	{"geometry":{"coordinates":[35.90256,56.855859],"type":"Point"},"properties":{"osm_id":"5752587139","tag":{"amenity":"waste_disposal"}},"type":"Feature"},
	{"geometry":{"coordinates":[35.912993,56.854849],"type":"Point"},"properties":{"osm_id":"5956925536","tag":{"amenity":"waste_basket"}},"type":"Feature"},
	{"geometry":{"coordinates":[35.912956,56.854855],"type":"Point"},"properties":{"osm_id":"5956925537","tag":{"amenity":"waste_basket"}},"type":"Feature"},
	{"geometry":{"coordinates":[35.912932,56.854798],"type":"Point"},"properties":{"osm_id":"5956925538","tag":{"amenity":"waste_basket"}},"type":"Feature"},
	{"geometry":{"coordinates":[35.91297,56.854793],"type":"Point"},"properties":{"osm_id":"5956925539","tag":{"amenity":"waste_basket"}},"type":"Feature"},
	{"geometry":{"coordinates":[35.903482,56.857704],"type":"Point"},"properties":{"osm_id":"6241185935","tag":{"amenity":"waste_disposal"}},"type":"Feature"},
	{"geometry":{"coordinates":[35.913523,56.850263],"type":"Point"},"properties":{"osm_id":"6398320687","tag":{"amenity":"waste_disposal"}},"type":"Feature"},
	{"geometry":{"coordinates":[35.893626,56.850884],"type":"Point"},"properties":{"osm_id":"6420679117","tag":{"amenity":"waste_disposal"}},"type":"Feature"},
	{"geometry":{"coordinates":[35.904619,56.849187],"type":"Point"},"properties":{"osm_id":"6437935756","tag":{"amenity":"waste_disposal"}},"type":"Feature"},
	{"geometry":{"coordinates":[35.906169,56.849125],"type":"Point"},"properties":{"osm_id":"6438279372","tag":{"amenity":"waste_disposal"}},"type":"Feature"},
	{"geometry":{"coordinates":[35.884416,56.854836],"type":"Point"},"properties":{"osm_id":"6745645993","tag":{"amenity":"waste_disposal"}},"type":"Feature"},
	{"geometry":{"coordinates":[35.942765,56.861542],"type":"Point"},"properties":{"osm_id":"6906958032","tag":{"amenity":"waste_disposal"}},"type":"Feature"},
	{"geometry":{"coordinates":[35.906119,56.857075],"type":"Point"},"properties":{"osm_id":"7126014880","tag":{"amenity":"waste_disposal"}},"type":"Feature"},
	{"geometry":{"coordinates":[35.90796,56.856992],"type":"Point"},"properties":{"osm_id":"7126014884","tag":{"amenity":"waste_basket"}},"type":"Feature"},
	{"geometry":{"coordinates":[35.860277,56.85342],"type":"Point"},"properties":{"osm_id":"7713276486","tag":{"amenity":"recycling"}},"type":"Feature"},
	{"geometry":{"coordinates":[35.860271,56.853476],"type":"Point"},"properties":{"osm_id":"7713289957","tag":{"amenity":"waste_disposal"}},"type":"Feature"}
]
}
