{
"type": "FeatureCollection",
"features": [
	{"geometry":{"coordinates":[35.91077,31.950844],"type":"Point"},"properties":{"osm_id":"1894348091","tag":{"amenity":"waste_disposal"}},"type":"Feature"},
	{"geometry":{"coordinates":[35.931213,31.951297],"type":"Point"},"properties":{"name":"BE REcycling Center","osm_id":"5553303456","tag":{"amenity":"recycling","building":"shop","collection_times":"Sa-Th 09:00-17:00","name:en":"BE REcycling Center","operator":"BE Environmental services","recycling:cans":"yes","recycling:cardboard":"yes","recycling:oils":"yes","recycling:paper":"yes","recycling:plastic":"yes","recycling:scrap_metal":"yes","recycling_type":"centre"}},"type":"Feature"},
	{"geometry":{"coordinates":[35.915261,31.951382],"type":"Point"},"properties":{"osm_id":"8738456917","tag":{"amenity":"waste_disposal"}},"type":"Feature"},
	{"geometry":{"coordinates":[35.883631,31.950162],"type":"Point"},"properties":{"osm_id":"8762218617","tag":{"amenity":"waste_disposal"}},"type":"Feature"},
	{"geometry":{"coordinates":[35.921553,31.948044],"type":"Point"},"properties":{"osm_id":"8786812018","tag":{"amenity":"waste_disposal"}},"type":"Feature"}
]
}
