{
"type": "FeatureCollection",
"features": [
	{"geometry":{"coordinates":[21.475384,65.334127],"type":"Point"},"properties":{"name":"\u00c3\u0085tervinningsstation","osm_id":"729955765","tag":{"amenity":"recycling"}},"type":"Feature"},
	{"geometry":{"coordinates":[21.497608,65.330945],"type":"Point"},"properties":{"osm_id":"3020530897","tag":{"amenity":"waste_basket"}},"type":"Feature"},
	{"geometry":{"coordinates":[21.497248,65.331251],"type":"Point"},"properties":{"osm_id":"3020530904","tag":{"amenity":"waste_basket"}},"type":"Feature"},
	{"geometry":{"coordinates":[21.496161,65.332106],"type":"Point"},"properties":{"osm_id":"3020530923","tag":{"amenity":"waste_basket"}},"type":"Feature"},
	{"geometry":{"coordinates":[21.494224,65.333282],"type":"Point"},"properties":{"osm_id":"3020531046","tag":{"amenity":"waste_basket"}},"type":"Feature"},
	{"geometry":{"coordinates":[21.49071,65.334391],"type":"Point"},"properties":{"osm_id":"3020531072","tag":{"amenity":"waste_basket"}},"type":"Feature"},
	{"geometry":{"coordinates":[21.477305,65.33927],"type":"Point"},"properties":{"osm_id":"3020531131","tag":{"amenity":"waste_basket"}},"type":"Feature"}
]
}
