{
"type": "FeatureCollection",
"features": [
	{"geometry":{"coordinates":[21.452931,48.513551],"type":"Point"},"properties":{"osm_id":"2273067000","tag":{"amenity":"waste_basket"}},"type":"Feature"},
	{"geometry":{"coordinates":[21.450265,48.516183],"type":"Point"},"properties":{"osm_id":"2273067004","tag":{"amenity":"waste_basket"}},"type":"Feature"},
	{"geometry":{"coordinates":[21.456499,48.513275],"type":"Point"},"properties":{"osm_id":"2385769911","tag":{"amenity":"waste_basket","mapillary":"9ZymPDLAag0fLX06szp3Fg"}},"type":"Feature"},
	{"geometry":{"coordinates":[21.506985,48.47399],"type":"Point"},"properties":{"osm_id":"5826694579","tag":{"amenity":"waste_basket"}},"type":"Feature"},
	{"geometry":{"coordinates":[21.525285,48.484535],"type":"Point"},"properties":{"osm_id":"5845934911","tag":{"amenity":"waste_basket"}},"type":"Feature"},
	{"geometry":{"coordinates":[21.527989,48.480534],"type":"Point"},"properties":{"osm_id":"5845934967","tag":{"amenity":"waste_basket"}},"type":"Feature"},
	{"geometry":{"coordinates":[21.451503,48.5142],"type":"Point"},"properties":{"osm_id":"5916346728","tag":{"amenity":"waste_basket","waste":"trash"}},"type":"Feature"},
	{"geometry":{"coordinates":[21.510434,48.471932],"type":"Point"},"properties":{"osm_id":"5916346805","tag":{"amenity":"waste_basket","waste":"trash"}},"type":"Feature"},
	{"geometry":{"coordinates":[21.492585,48.492964],"type":"Point"},"properties":{"osm_id":"5916346867","tag":{"amenity":"waste_basket","waste":"trash"}},"type":"Feature"},
	{"geometry":{"coordinates":[21.489558,48.494143],"type":"Point"},"properties":{"osm_id":"5916347092","tag":{"amenity":"waste_basket"}},"type":"Feature"},
	{"geometry":{"coordinates":[21.453405,48.513318],"type":"Point"},"properties":{"osm_id":"5916347146","tag":{"amenity":"recycling","recycling_type":"container"}},"type":"Feature"},
	{"geometry":{"coordinates":[21.525769,48.484803],"type":"Point"},"properties":{"osm_id":"5917727200","tag":{"amenity":"recycling","recycling_type":"container"}},"type":"Feature"},
	{"geometry":{"coordinates":[21.525383,48.483083],"type":"Point"},"properties":{"osm_id":"5917727204","tag":{"amenity":"waste_basket","waste":"trash"}},"type":"Feature"},
	{"geometry":{"coordinates":[21.529306,48.470606],"type":"Point"},"properties":{"osm_id":"5960711980","tag":{"amenity":"waste_basket"}},"type":"Feature"},
	{"geometry":{"coordinates":[21.510001,48.471108],"type":"Point"},"properties":{"osm_id":"5963648501","tag":{"amenity":"recycling","recycling_type":"container"}},"type":"Feature"},
	{"geometry":{"coordinates":[21.469697,48.47197],"type":"Point"},"properties":{"osm_id":"6041831615","tag":{"amenity":"waste_basket","waste":"trash"}},"type":"Feature"}
]
}
