{
"type": "FeatureCollection",
"features": [
	{"geometry":{"coordinates":[21.521482,48.285987],"type":"Point"},"properties":{"osm_id":"3461953340","tag":{"amenity":"recycling","source:date":"2011-05-08","url":"http://turistautak.hu/poi.php?id=97942"}},"type":"Feature"},
	{"geometry":{"coordinates":[21.529917,48.33453],"type":"Point"},"properties":{"osm_id":"3461953378","tag":{"amenity":"recycling","source:date":"2011-05-08","url":"http://turistautak.hu/poi.php?id=97954"}},"type":"Feature"},
	{"geometry":{"coordinates":[21.458538,48.336406],"type":"Point"},"properties":{"osm_id":"3461953382","tag":{"addr:city":"Koml\u00c3\u00b3ska","addr:street":"R\u00c3\u00a1k\u00c3\u00b3czi utca","amenity":"recycling","source:date":"2011-05-08","url":"http://turistautak.hu/poi.php?id=41381"}},"type":"Feature"},
	{"geometry":{"coordinates":[21.462283,48.339567],"type":"Point"},"properties":{"osm_id":"3461953390","tag":{"addr:city":"Koml\u00c3\u00b3ska","addr:housenumber":"29","addr:postcode":"3937","addr:street":"R\u00c3\u00a1k\u00c3\u00b3czi utca","amenity":"recycling","source:date":"2011-05-08","url":"http://turistautak.hu/poi.php?id=41382"}},"type":"Feature"}
]
}
