{
"type": "FeatureCollection",
"features": [
	{"geometry":{"coordinates":[30.343859,59.99005],"type":"Point"},"properties":{"barrier":"block","osm_id":"297811789","tag":{"motor_vehicle":"no"}},"type":"Feature"},
	{"geometry":{"coordinates":[30.352146,60.00622],"type":"Point"},"properties":{"osm_id":"634883308","tag":{"amenity":"waste_disposal"}},"type":"Feature"},
	{"geometry":{"coordinates":[30.371676,60.005909],"type":"Point"},"properties":{"osm_id":"858397132","tag":{"amenity":"waste_basket"}},"type":"Feature"},
	{"geometry":{"coordinates":[30.373955,60.009008],"type":"Point"},"properties":{"osm_id":"911553810","tag":{"amenity":"waste_disposal","waste":"trash"}},"type":"Feature"},
	{"geometry":{"coordinates":[30.370885,60.009535],"type":"Point"},"properties":{"osm_id":"914748990","tag":{"amenity":"waste_disposal","waste":"trash"}},"type":"Feature"},
	{"geometry":{"coordinates":[30.373738,60.00754],"type":"Point"},"properties":{"osm_id":"920039166","tag":{"amenity":"waste_disposal","waste":"trash"}},"type":"Feature"},
	{"geometry":{"coordinates":[30.358788,60.004954],"type":"Point"},"properties":{"osm_id":"951330507","tag":{"amenity":"waste_disposal"}},"type":"Feature"},
	{"geometry":{"coordinates":[30.377476,60.003381],"type":"Point"},"properties":{"osm_id":"963809927","tag":{"amenity":"waste_basket"}},"type":"Feature"},
	{"geometry":{"coordinates":[30.326967,60.011941],"type":"Point"},"properties":{"osm_id":"1104261943","tag":{"amenity":"waste_disposal"}},"type":"Feature"},
	{"geometry":{"coordinates":[30.332705,60.016774],"type":"Point"},"properties":{"osm_id":"1104261949","tag":{"amenity":"waste_disposal"}},"type":"Feature"},
	{"geometry":{"coordinates":[30.326284,60.016747],"type":"Point"},"properties":{"osm_id":"1104261950","tag":{"amenity":"waste_disposal"}},"type":"Feature"},
	{"geometry":{"coordinates":[30.324079,60.015788],"type":"Point"},"properties":{"osm_id":"1104261951","tag":{"amenity":"waste_disposal"}},"type":"Feature"},
	{"geometry":{"coordinates":[30.324336,60.014258],"type":"Point"},"properties":{"osm_id":"1104261952","tag":{"amenity":"waste_disposal"}},"type":"Feature"},
	{"geometry":{"coordinates":[30.331868,60.014694],"type":"Point"},"properties":{"osm_id":"1104261953","tag":{"amenity":"waste_disposal"}},"type":"Feature"},
	{"geometry":{"coordinates":[30.328734,60.020451],"type":"Point"},"properties":{"osm_id":"1107495160","tag":{"amenity":"waste_disposal"}},"type":"Feature"},
	{"geometry":{"coordinates":[30.32858,60.018173],"type":"Point"},"properties":{"osm_id":"1107495161","tag":{"amenity":"waste_disposal"}},"type":"Feature"},
	{"geometry":{"coordinates":[30.325312,60.013637],"type":"Point"},"properties":{"osm_id":"1110371510","tag":{"amenity":"waste_disposal"}},"type":"Feature"},
	{"geometry":{"coordinates":[30.327425,60.01487],"type":"Point"},"properties":{"osm_id":"1110599611","tag":{"amenity":"waste_disposal"}},"type":"Feature"},
	{"geometry":{"coordinates":[30.336714,60.015893],"type":"Point"},"properties":{"osm_id":"1110599654","tag":{"amenity":"waste_disposal"}},"type":"Feature"},
	{"geometry":{"coordinates":[30.33536,60.01469],"type":"Point"},"properties":{"osm_id":"1111784398","tag":{"amenity":"waste_disposal"}},"type":"Feature"},
	{"geometry":{"coordinates":[30.322725,60.018673],"type":"Point"},"properties":{"osm_id":"1115423943","tag":{"amenity":"waste_disposal"}},"type":"Feature"},
	{"geometry":{"coordinates":[30.32492,60.004609],"type":"Point"},"properties":{"osm_id":"1123512191","tag":{"amenity":"waste_disposal"}},"type":"Feature"},
	{"geometry":{"coordinates":[30.332247,60.017146],"type":"Point"},"properties":{"osm_id":"1123566358","tag":{"amenity":"waste_disposal"}},"type":"Feature"},
	{"geometry":{"coordinates":[30.323935,60.009235],"type":"Point"},"properties":{"osm_id":"1127120582","tag":{"amenity":"waste_disposal"}},"type":"Feature"},
	{"geometry":{"coordinates":[30.337738,60.001126],"type":"Point"},"properties":{"osm_id":"1152741228","tag":{"amenity":"waste_disposal"}},"type":"Feature"},
	{"geometry":{"coordinates":[30.343419,59.999227],"type":"Point"},"properties":{"osm_id":"1152741975","tag":{"amenity":"waste_disposal"}},"type":"Feature"},
	{"geometry":{"coordinates":[30.353003,60.009696],"type":"Point"},"properties":{"osm_id":"1156220526","tag":{"amenity":"waste_disposal"}},"type":"Feature"},
	{"geometry":{"coordinates":[30.357001,60.010106],"type":"Point"},"properties":{"osm_id":"1156221060","tag":{"amenity":"waste_disposal"}},"type":"Feature"},
	{"geometry":{"coordinates":[30.352026,60.011624],"type":"Point"},"properties":{"osm_id":"1156221442","tag":{"amenity":"waste_disposal"}},"type":"Feature"},
	{"geometry":{"coordinates":[30.343257,60.005853],"type":"Point"},"properties":{"osm_id":"1189523940","tag":{"amenity":"waste_disposal"}},"type":"Feature"},
	{"geometry":{"coordinates":[30.340932,60.004234],"type":"Point"},"properties":{"osm_id":"1189527814","tag":{"amenity":"waste_disposal"}},"type":"Feature"},
	{"geometry":{"coordinates":[30.35705,60.007641],"type":"Point"},"properties":{"osm_id":"1217860045","tag":{"amenity":"waste_disposal"}},"type":"Feature"},
	{"geometry":{"coordinates":[30.358539,60.009126],"type":"Point"},"properties":{"osm_id":"1217860049","tag":{"amenity":"waste_disposal"}},"type":"Feature"},
	{"geometry":{"coordinates":[30.365803,60.015908],"type":"Point"},"properties":{"osm_id":"1217860097","tag":{"amenity":"waste_disposal"}},"type":"Feature"},
	{"geometry":{"coordinates":[30.355077,60.007954],"type":"Point"},"properties":{"osm_id":"1217860898","tag":{"amenity":"waste_disposal"}},"type":"Feature"},
	{"geometry":{"coordinates":[30.353959,60.011193],"type":"Point"},"properties":{"osm_id":"1217861680","tag":{"amenity":"waste_disposal"}},"type":"Feature"},
	{"geometry":{"coordinates":[30.347246,59.995989],"type":"Point"},"properties":{"osm_id":"1350413286","tag":{"amenity":"waste_disposal"}},"type":"Feature"},
	{"geometry":{"coordinates":[30.34705,59.996755],"type":"Point"},"properties":{"osm_id":"1350413289","tag":{"amenity":"waste_disposal"}},"type":"Feature"},
	{"geometry":{"coordinates":[30.359388,59.994117],"type":"Point"},"properties":{"osm_id":"1369691784","tag":{"amenity":"waste_basket"}},"type":"Feature"},
	{"geometry":{"coordinates":[30.370226,59.997328],"type":"Point"},"properties":{"osm_id":"1369716704","tag":{"amenity":"waste_basket"}},"type":"Feature"},
	{"geometry":{"coordinates":[30.370172,59.997336],"type":"Point"},"properties":{"osm_id":"1369716712","tag":{"amenity":"waste_basket"}},"type":"Feature"},
	{"geometry":{"coordinates":[30.369428,59.997445],"type":"Point"},"properties":{"osm_id":"1369716715","tag":{"amenity":"waste_basket"}},"type":"Feature"},
	{"geometry":{"coordinates":[30.369374,59.997453],"type":"Point"},"properties":{"osm_id":"1369716724","tag":{"amenity":"waste_basket"}},"type":"Feature"},
	{"geometry":{"coordinates":[30.368492,59.997584],"type":"Point"},"properties":{"osm_id":"1369716727","tag":{"amenity":"waste_basket"}},"type":"Feature"},
	{"geometry":{"coordinates":[30.368438,59.997592],"type":"Point"},"properties":{"osm_id":"1369716729","tag":{"amenity":"waste_basket"}},"type":"Feature"},
	{"geometry":{"coordinates":[30.367679,59.997695],"type":"Point"},"properties":{"osm_id":"1369716732","tag":{"amenity":"waste_basket"}},"type":"Feature"},
	{"geometry":{"coordinates":[30.367625,59.997703],"type":"Point"},"properties":{"osm_id":"1369716735","tag":{"amenity":"waste_basket"}},"type":"Feature"},
	{"geometry":{"coordinates":[30.327145,60.014027],"type":"Point"},"properties":{"osm_id":"1376623469","tag":{"amenity":"waste_disposal"}},"type":"Feature"},
	{"geometry":{"coordinates":[30.323493,60.016379],"type":"Point"},"properties":{"osm_id":"1399428868","tag":{"amenity":"waste_disposal"}},"type":"Feature"},
	{"geometry":{"coordinates":[30.322362,60.017459],"type":"Point"},"properties":{"osm_id":"1399429048","tag":{"amenity":"waste_basket"}},"type":"Feature"},
	{"geometry":{"coordinates":[30.322323,60.017557],"type":"Point"},"properties":{"osm_id":"1399429085","tag":{"amenity":"waste_basket"}},"type":"Feature"},
	{"geometry":{"coordinates":[30.348946,60.002656],"type":"Point"},"properties":{"osm_id":"1401451486","tag":{"amenity":"waste_basket"}},"type":"Feature"},
	{"geometry":{"coordinates":[30.362554,60.001668],"type":"Point"},"properties":{"osm_id":"1402389585","tag":{"amenity":"waste_disposal"}},"type":"Feature"},
	{"geometry":{"coordinates":[30.323162,59.997367],"type":"Point"},"properties":{"osm_id":"1406129350","tag":{"amenity":"waste_disposal"}},"type":"Feature"},
	{"geometry":{"coordinates":[30.409906,59.978901],"type":"Point"},"properties":{"osm_id":"1410303166","tag":{"amenity":"waste_disposal"}},"type":"Feature"},
	{"geometry":{"coordinates":[30.328623,60.006049],"type":"Point"},"properties":{"osm_id":"1425736630","tag":{"amenity":"waste_disposal"}},"type":"Feature"},
	{"geometry":{"coordinates":[30.375052,60.003551],"type":"Point"},"properties":{"osm_id":"1431736978","tag":{"amenity":"waste_basket"}},"type":"Feature"},
	{"geometry":{"coordinates":[30.368722,60.002838],"type":"Point"},"properties":{"osm_id":"1431740743","tag":{"amenity":"waste_basket"}},"type":"Feature"},
	{"geometry":{"coordinates":[30.345188,60.012194],"type":"Point"},"properties":{"osm_id":"1444910434","tag":{"amenity":"waste_basket","waste_basket":"urn"}},"type":"Feature"},
	{"geometry":{"coordinates":[30.347735,60.01229],"type":"Point"},"properties":{"osm_id":"1444910441","tag":{"amenity":"waste_basket","waste_basket":"sack"}},"type":"Feature"},
	{"geometry":{"coordinates":[30.348007,60.012741],"type":"Point"},"properties":{"osm_id":"1444910467","tag":{"amenity":"waste_basket","waste_basket":"sack"}},"type":"Feature"},
	{"geometry":{"coordinates":[30.346894,60.012916],"type":"Point"},"properties":{"osm_id":"1444910480","tag":{"amenity":"waste_basket","waste_basket":"sack"}},"type":"Feature"},
	{"geometry":{"coordinates":[30.348879,60.013032],"type":"Point"},"properties":{"osm_id":"1444910490","tag":{"amenity":"waste_basket","waste_basket":"urn"}},"type":"Feature"},
	{"geometry":{"coordinates":[30.348824,60.013049],"type":"Point"},"properties":{"osm_id":"1444910499","tag":{"amenity":"waste_basket","waste_basket":"urn"}},"type":"Feature"},
	{"geometry":{"coordinates":[30.348931,60.013049],"type":"Point"},"properties":{"osm_id":"1444910501","tag":{"amenity":"waste_basket","waste_basket":"urn"}},"type":"Feature"},
	{"geometry":{"coordinates":[30.348955,60.013074],"type":"Point"},"properties":{"osm_id":"1444910513","tag":{"amenity":"waste_basket","waste_basket":"urn"}},"type":"Feature"},
	{"geometry":{"coordinates":[30.348796,60.013078],"type":"Point"},"properties":{"osm_id":"1444910514","tag":{"amenity":"waste_basket","waste_basket":"urn"}},"type":"Feature"},
	{"geometry":{"coordinates":[30.348952,60.013104],"type":"Point"},"properties":{"osm_id":"1444910529","tag":{"amenity":"waste_basket","waste_basket":"urn"}},"type":"Feature"},
	{"geometry":{"coordinates":[30.345707,60.013228],"type":"Point"},"properties":{"osm_id":"1444910561","tag":{"amenity":"waste_basket","waste_basket":"sack"}},"type":"Feature"},
	{"geometry":{"coordinates":[30.348658,60.013235],"type":"Point"},"properties":{"osm_id":"1444910565","tag":{"amenity":"waste_basket","waste_basket":"urn"}},"type":"Feature"},
	{"geometry":{"coordinates":[30.348662,60.013258],"type":"Point"},"properties":{"osm_id":"1444910571","tag":{"amenity":"waste_basket","waste_basket":"urn"}},"type":"Feature"},
	{"geometry":{"coordinates":[30.348649,60.01328],"type":"Point"},"properties":{"osm_id":"1444910580","tag":{"amenity":"waste_basket","waste_basket":"urn"}},"type":"Feature"},
	{"geometry":{"coordinates":[30.343286,60.013391],"type":"Point"},"properties":{"osm_id":"1444910616","tag":{"amenity":"waste_basket","waste_basket":"urn"}},"type":"Feature"},
	{"geometry":{"coordinates":[30.349182,60.0135],"type":"Point"},"properties":{"osm_id":"1444910631","tag":{"amenity":"waste_basket","waste_basket":"urn"}},"type":"Feature"},
	{"geometry":{"coordinates":[30.349674,60.013514],"type":"Point"},"properties":{"osm_id":"1444910634","tag":{"amenity":"waste_basket","waste_basket":"urn"}},"type":"Feature"},
	{"geometry":{"coordinates":[30.349228,60.013518],"type":"Point"},"properties":{"osm_id":"1444910636","tag":{"amenity":"waste_basket","waste_basket":"urn"}},"type":"Feature"},
	{"geometry":{"coordinates":[30.349276,60.013535],"type":"Point"},"properties":{"osm_id":"1444910643","tag":{"amenity":"waste_basket","waste_basket":"urn"}},"type":"Feature"},
	{"geometry":{"coordinates":[30.349616,60.013556],"type":"Point"},"properties":{"osm_id":"1444910650","tag":{"amenity":"waste_basket","waste_basket":"urn"}},"type":"Feature"},
	{"geometry":{"coordinates":[30.345697,60.01375],"type":"Point"},"properties":{"osm_id":"1444910681","tag":{"amenity":"waste_basket","waste_basket":"urn"}},"type":"Feature"},
	{"geometry":{"coordinates":[30.342102,60.014158],"type":"Point"},"properties":{"osm_id":"1444910729","tag":{"amenity":"waste_basket","waste_basket":"urn"}},"type":"Feature"},
	{"geometry":{"coordinates":[30.345577,60.014451],"type":"Point"},"properties":{"osm_id":"1444910767","tag":{"amenity":"waste_basket","waste_basket":"urn"}},"type":"Feature"},
	{"geometry":{"coordinates":[30.355317,60.014681],"type":"Point"},"properties":{"osm_id":"1444910783","tag":{"amenity":"waste_basket","waste_basket":"sack"}},"type":"Feature"},
	{"geometry":{"coordinates":[30.351087,60.014711],"type":"Point"},"properties":{"osm_id":"1444910792","tag":{"amenity":"waste_basket","waste_basket":"urn"}},"type":"Feature"},
	{"geometry":{"coordinates":[30.351161,60.014881],"type":"Point"},"properties":{"osm_id":"1444910813","tag":{"amenity":"waste_basket","waste_basket":"sack"}},"type":"Feature"},
	{"geometry":{"coordinates":[30.340892,60.014935],"type":"Point"},"properties":{"osm_id":"1444910827","tag":{"amenity":"waste_basket","waste_basket":"urn"}},"type":"Feature"},
	{"geometry":{"coordinates":[30.3578,60.015103],"type":"Point"},"properties":{"osm_id":"1444910869","tag":{"amenity":"waste_basket","waste_basket":"urn"}},"type":"Feature"},
	{"geometry":{"coordinates":[30.355686,60.015148],"type":"Point"},"properties":{"osm_id":"1444910884","tag":{"amenity":"waste_basket","waste_basket":"urn"}},"type":"Feature"},
	{"geometry":{"coordinates":[30.357539,60.015173],"type":"Point"},"properties":{"osm_id":"1444910896","tag":{"amenity":"waste_basket","waste_basket":"urn"}},"type":"Feature"},
	{"geometry":{"coordinates":[30.345067,60.015213],"type":"Point"},"properties":{"osm_id":"1444910897","tag":{"amenity":"waste_basket","waste_basket":"urn"}},"type":"Feature"},
	{"geometry":{"coordinates":[30.348937,60.01528],"type":"Point"},"properties":{"osm_id":"1444910927","tag":{"amenity":"waste_basket","waste_basket":"sack"}},"type":"Feature"},
	{"geometry":{"coordinates":[30.35462,60.015514],"type":"Point"},"properties":{"osm_id":"1444910981","tag":{"amenity":"waste_basket","waste_basket":"sack"}},"type":"Feature"},
	{"geometry":{"coordinates":[30.344442,60.015624],"type":"Point"},"properties":{"osm_id":"1444910996","tag":{"amenity":"waste_basket","waste_basket":"urn"}},"type":"Feature"},
	{"geometry":{"coordinates":[30.358916,60.015686],"type":"Point"},"properties":{"osm_id":"1444911000","tag":{"amenity":"waste_basket","waste_basket":"sack"}},"type":"Feature"},
	{"geometry":{"coordinates":[30.34957,60.015985],"type":"Point"},"properties":{"osm_id":"1444911032","tag":{"amenity":"waste_basket","waste_basket":"sack"}},"type":"Feature"},
	{"geometry":{"coordinates":[30.339156,60.01601],"type":"Point"},"properties":{"osm_id":"1444911040","tag":{"amenity":"waste_basket","waste_basket":"sack"}},"type":"Feature"},
	{"geometry":{"coordinates":[30.356856,60.016042],"type":"Point"},"properties":{"osm_id":"1444911045","tag":{"amenity":"waste_basket","waste_basket":"sack"}},"type":"Feature"},
	{"geometry":{"coordinates":[30.349024,60.016148],"type":"Point"},"properties":{"osm_id":"1444911060","tag":{"amenity":"waste_basket","waste_basket":"sack"}},"type":"Feature"},
	{"geometry":{"coordinates":[30.349246,60.016232],"type":"Point"},"properties":{"osm_id":"1444911069","tag":{"amenity":"waste_basket","waste_basket":"sack"}},"type":"Feature"},
	{"geometry":{"coordinates":[30.340577,60.016383],"type":"Point"},"properties":{"osm_id":"1444911083","tag":{"amenity":"waste_basket","waste_basket":"sack"}},"type":"Feature"},
	{"geometry":{"coordinates":[30.357793,60.016486],"type":"Point"},"properties":{"osm_id":"1444911095","tag":{"amenity":"waste_basket","waste_basket":"sack"}},"type":"Feature"},
	{"geometry":{"coordinates":[30.355072,60.016488],"type":"Point"},"properties":{"osm_id":"1444911096","tag":{"amenity":"waste_basket","waste_basket":"sack"}},"type":"Feature"},
	{"geometry":{"coordinates":[30.338075,60.016708],"type":"Point"},"properties":{"osm_id":"1444911134","tag":{"amenity":"waste_basket","waste_basket":"sack"}},"type":"Feature"},
	{"geometry":{"coordinates":[30.347711,60.016895],"type":"Point"},"properties":{"osm_id":"1444911155","tag":{"amenity":"waste_basket","waste_basket":"sack"}},"type":"Feature"},
	{"geometry":{"coordinates":[30.362082,60.017168],"type":"Point"},"properties":{"osm_id":"1444911174","tag":{"amenity":"waste_basket","waste_basket":"sack"}},"type":"Feature"},
	{"geometry":{"coordinates":[30.354902,60.017234],"type":"Point"},"properties":{"osm_id":"1444911182","tag":{"amenity":"waste_basket","waste_basket":"sack"}},"type":"Feature"},
	{"geometry":{"coordinates":[30.352379,60.017347],"type":"Point"},"properties":{"osm_id":"1444911194","tag":{"amenity":"waste_basket","waste_basket":"urn"}},"type":"Feature"},
	{"geometry":{"coordinates":[30.347257,60.017358],"type":"Point"},"properties":{"osm_id":"1444911195","tag":{"amenity":"waste_basket","waste_basket":"sack"}},"type":"Feature"},
	{"geometry":{"coordinates":[30.342397,60.017397],"type":"Point"},"properties":{"osm_id":"1444911206","tag":{"amenity":"waste_basket","waste_basket":"sack"}},"type":"Feature"},
	{"geometry":{"coordinates":[30.346952,60.017446],"type":"Point"},"properties":{"osm_id":"1444911215","tag":{"amenity":"waste_basket","waste_basket":"sack"}},"type":"Feature"},
	{"geometry":{"coordinates":[30.336622,60.017603],"type":"Point"},"properties":{"osm_id":"1444911282","tag":{"amenity":"waste_basket","waste_basket":"sack"}},"type":"Feature"},
	{"geometry":{"coordinates":[30.363825,60.017627],"type":"Point"},"properties":{"osm_id":"1444911309","tag":{"amenity":"waste_basket","waste_basket":"urn"}},"type":"Feature"},
	{"geometry":{"coordinates":[30.347794,60.017653],"type":"Point"},"properties":{"osm_id":"1444911327","tag":{"amenity":"waste_basket","waste_basket":"urn"}},"type":"Feature"},
	{"geometry":{"coordinates":[30.346248,60.017948],"type":"Point"},"properties":{"osm_id":"1444911460","tag":{"amenity":"waste_basket","waste_basket":"sack"}},"type":"Feature"},
	{"geometry":{"coordinates":[30.354519,60.018079],"type":"Point"},"properties":{"osm_id":"1444911475","tag":{"amenity":"waste_basket","waste_basket":"sack"}},"type":"Feature"},
	{"geometry":{"coordinates":[30.348799,60.018127],"type":"Point"},"properties":{"osm_id":"1444911481","tag":{"amenity":"waste_basket","waste_basket":"sack"}},"type":"Feature"},
	{"geometry":{"coordinates":[30.340596,60.018173],"type":"Point"},"properties":{"osm_id":"1444911487","tag":{"amenity":"waste_basket","waste_basket":"sack"}},"type":"Feature"},
	{"geometry":{"coordinates":[30.340249,60.018291],"type":"Point"},"properties":{"osm_id":"1444911518","tag":{"amenity":"waste_basket","waste_basket":"sack"}},"type":"Feature"},
	{"geometry":{"coordinates":[30.345676,60.018301],"type":"Point"},"properties":{"osm_id":"1444911520","tag":{"amenity":"waste_basket","waste_basket":"sack"}},"type":"Feature"},
	{"geometry":{"coordinates":[30.359732,60.018587],"type":"Point"},"properties":{"osm_id":"1444911557","tag":{"amenity":"waste_basket","waste_basket":"sack"}},"type":"Feature"},
	{"geometry":{"coordinates":[30.335086,60.018592],"type":"Point"},"properties":{"osm_id":"1444911558","tag":{"amenity":"waste_basket","waste_basket":"urn"}},"type":"Feature"},
	{"geometry":{"coordinates":[30.35788,60.018601],"type":"Point"},"properties":{"osm_id":"1444911560","tag":{"amenity":"waste_basket","waste_basket":"sack"}},"type":"Feature"},
	{"geometry":{"coordinates":[30.355658,60.018678],"type":"Point"},"properties":{"osm_id":"1444911576","tag":{"amenity":"waste_basket","waste_basket":"sack"}},"type":"Feature"},
	{"geometry":{"coordinates":[30.364399,60.018679],"type":"Point"},"properties":{"osm_id":"1444911579","tag":{"amenity":"waste_basket","waste_basket":"sack"}},"type":"Feature"},
	{"geometry":{"coordinates":[30.350885,60.018741],"type":"Point"},"properties":{"osm_id":"1444911590","tag":{"amenity":"waste_basket","waste_basket":"urn"}},"type":"Feature"},
	{"geometry":{"coordinates":[30.365576,60.018847],"type":"Point"},"properties":{"osm_id":"1444911603","tag":{"amenity":"waste_basket","waste_basket":"urn"}},"type":"Feature"},
	{"geometry":{"coordinates":[30.344754,60.018865],"type":"Point"},"properties":{"osm_id":"1444911606","tag":{"amenity":"waste_basket","waste_basket":"sack"}},"type":"Feature"},
	{"geometry":{"coordinates":[30.350502,60.018934],"type":"Point"},"properties":{"osm_id":"1444911616","tag":{"amenity":"waste_basket","waste_basket":"urn"}},"type":"Feature"},
	{"geometry":{"coordinates":[30.366859,60.019107],"type":"Point"},"properties":{"osm_id":"1444911633","tag":{"amenity":"waste_basket","waste_basket":"urn"}},"type":"Feature"},
	{"geometry":{"coordinates":[30.365665,60.019082],"type":"Point"},"properties":{"osm_id":"1444911649","tag":{"amenity":"waste_basket","waste_basket":"urn"}},"type":"Feature"},
	{"geometry":{"coordinates":[30.366068,60.019199],"type":"Point"},"properties":{"osm_id":"1444911661","tag":{"amenity":"waste_basket","waste_basket":"urn"}},"type":"Feature"},
	{"geometry":{"coordinates":[30.339136,60.019305],"type":"Point"},"properties":{"osm_id":"1444911674","tag":{"amenity":"waste_basket","waste_basket":"sack"}},"type":"Feature"},
	{"geometry":{"coordinates":[30.343986,60.019291],"type":"Point"},"properties":{"osm_id":"1444911682","tag":{"amenity":"waste_basket","waste_basket":"sack"}},"type":"Feature"},
	{"geometry":{"coordinates":[30.357968,60.019496],"type":"Point"},"properties":{"osm_id":"1444911694","tag":{"amenity":"waste_basket","waste_basket":"urn"}},"type":"Feature"},
	{"geometry":{"coordinates":[30.342954,60.019827],"type":"Point"},"properties":{"osm_id":"1444911706","tag":{"amenity":"waste_basket","waste_basket":"sack"}},"type":"Feature"},
	{"geometry":{"coordinates":[30.359626,60.020164],"type":"Point"},"properties":{"osm_id":"1444911732","tag":{"amenity":"waste_basket","waste_basket":"urn"}},"type":"Feature"},
	{"geometry":{"coordinates":[30.342892,60.020539],"type":"Point"},"properties":{"osm_id":"1444911753","tag":{"amenity":"waste_basket","waste_basket":"sack"}},"type":"Feature"},
	{"geometry":{"coordinates":[30.360885,60.020689],"type":"Point"},"properties":{"osm_id":"1444911776","tag":{"amenity":"waste_basket","waste_basket":"sack"}},"type":"Feature"},
	{"geometry":{"coordinates":[30.34488,60.020874],"type":"Point"},"properties":{"osm_id":"1444911817","tag":{"amenity":"waste_basket","waste_basket":"sack"}},"type":"Feature"},
	{"geometry":{"coordinates":[30.339877,60.015544],"type":"Point"},"properties":{"osm_id":"1454866002","tag":{"amenity":"waste_basket","waste_basket":"urn"}},"type":"Feature"},
	{"geometry":{"coordinates":[30.329143,59.995971],"type":"Point"},"properties":{"osm_id":"1473218850","tag":{"amenity":"waste_disposal","operator":"\u00d0\u009f\u00d0\u00b5\u00d1\u0082\u00d1\u0080\u00d0\u00be\u00d0\u00b2\u00d0\u00b0\u00d1\u0081\u00d1\u0082","website":"https://p-w.ru"}},"type":"Feature"},
	{"geometry":{"coordinates":[30.362625,60.013306],"type":"Point"},"properties":{"osm_id":"1483572645","tag":{"amenity":"waste_disposal"}},"type":"Feature"},
	{"geometry":{"coordinates":[30.366385,60.014791],"type":"Point"},"properties":{"osm_id":"1483572882","tag":{"amenity":"waste_disposal"}},"type":"Feature"},
	{"geometry":{"coordinates":[30.364969,60.017013],"type":"Point"},"properties":{"osm_id":"1483573262","tag":{"amenity":"waste_disposal"}},"type":"Feature"},
	{"geometry":{"coordinates":[30.327382,60.01954],"type":"Point"},"properties":{"osm_id":"1493045206","tag":{"amenity":"waste_disposal"}},"type":"Feature"},
	{"geometry":{"coordinates":[30.375276,60.015635],"type":"Point"},"properties":{"osm_id":"1493406614","tag":{"amenity":"waste_disposal"}},"type":"Feature"},
	{"geometry":{"coordinates":[30.37289,60.015909],"type":"Point"},"properties":{"osm_id":"1493406686","tag":{"amenity":"waste_disposal"}},"type":"Feature"},
	{"geometry":{"coordinates":[30.371073,60.015927],"type":"Point"},"properties":{"osm_id":"1493406698","tag":{"amenity":"waste_disposal"}},"type":"Feature"},
	{"geometry":{"coordinates":[30.373917,60.016667],"type":"Point"},"properties":{"osm_id":"1493406828","tag":{"amenity":"waste_disposal"}},"type":"Feature"},
	{"geometry":{"coordinates":[30.324881,60.020822],"type":"Point"},"properties":{"osm_id":"1497510016","tag":{"amenity":"waste_disposal"}},"type":"Feature"},
	{"geometry":{"coordinates":[30.379986,60.020575],"type":"Point"},"properties":{"osm_id":"1499067318","tag":{"amenity":"waste_disposal"}},"type":"Feature"},
	{"geometry":{"coordinates":[30.345632,59.979565],"type":"Point"},"properties":{"osm_id":"1524293218","tag":{"amenity":"waste_disposal"}},"type":"Feature"},
	{"geometry":{"coordinates":[30.346942,59.988711],"type":"Point"},"properties":{"osm_id":"1524294447","tag":{"amenity":"waste_disposal"}},"type":"Feature"},
	{"geometry":{"coordinates":[30.374107,60.003755],"type":"Point"},"properties":{"osm_id":"1594458173","tag":{"amenity":"waste_basket"}},"type":"Feature"},
	{"geometry":{"coordinates":[30.367866,60.000621],"type":"Point"},"properties":{"osm_id":"1658342441","tag":{"amenity":"waste_disposal"}},"type":"Feature"},
	{"geometry":{"coordinates":[30.408038,60.020789],"type":"Point"},"properties":{"osm_id":"1659010129","tag":{"amenity":"waste_disposal"}},"type":"Feature"},
	{"geometry":{"coordinates":[30.372729,59.998007],"type":"Point"},"properties":{"osm_id":"1659363442","tag":{"amenity":"waste_disposal"}},"type":"Feature"},
	{"geometry":{"coordinates":[30.36734,59.998568],"type":"Point"},"properties":{"osm_id":"1659363445","tag":{"amenity":"waste_disposal"}},"type":"Feature"},
	{"geometry":{"coordinates":[30.37547,59.99867],"type":"Point"},"properties":{"osm_id":"1659363451","tag":{"amenity":"waste_disposal"}},"type":"Feature"},
	{"geometry":{"coordinates":[30.374191,59.99919],"type":"Point"},"properties":{"osm_id":"1659363486","tag":{"amenity":"waste_disposal"}},"type":"Feature"},
	{"geometry":{"coordinates":[30.373051,59.999823],"type":"Point"},"properties":{"osm_id":"1659363526","tag":{"amenity":"waste_disposal"}},"type":"Feature"},
	{"geometry":{"coordinates":[30.323161,60.005659],"type":"Point"},"properties":{"osm_id":"1659409550","tag":{"amenity":"waste_basket"}},"type":"Feature"},
	{"geometry":{"coordinates":[30.323518,60.005678],"type":"Point"},"properties":{"osm_id":"1659409574","tag":{"amenity":"waste_basket"}},"type":"Feature"},
	{"geometry":{"coordinates":[30.322762,60.006097],"type":"Point"},"properties":{"osm_id":"1659409694","tag":{"amenity":"waste_basket"}},"type":"Feature"},
	{"geometry":{"coordinates":[30.323316,60.006176],"type":"Point"},"properties":{"osm_id":"1659409725","tag":{"amenity":"waste_basket"}},"type":"Feature"},
	{"geometry":{"coordinates":[30.330047,60.003473],"type":"Point"},"properties":{"osm_id":"1664717342","tag":{"amenity":"waste_disposal"}},"type":"Feature"},
	{"geometry":{"coordinates":[30.379481,59.997157],"type":"Point"},"properties":{"osm_id":"1667581031","tag":{"amenity":"waste_disposal"}},"type":"Feature"},
	{"geometry":{"coordinates":[30.389536,59.995716],"type":"Point"},"properties":{"osm_id":"1669785885","tag":{"amenity":"waste_disposal"}},"type":"Feature"},
	{"geometry":{"coordinates":[30.351273,59.999315],"type":"Point"},"properties":{"osm_id":"1674397866","tag":{"amenity":"waste_disposal"}},"type":"Feature"},
	{"geometry":{"coordinates":[30.358136,60.00178],"type":"Point"},"properties":{"osm_id":"1674398127","tag":{"amenity":"waste_disposal"}},"type":"Feature"},
	{"geometry":{"coordinates":[30.351826,60.004118],"type":"Point"},"properties":{"osm_id":"1674398257","tag":{"amenity":"waste_disposal"}},"type":"Feature"},
	{"geometry":{"coordinates":[30.353295,60.004515],"type":"Point"},"properties":{"osm_id":"1674398273","tag":{"amenity":"waste_disposal"}},"type":"Feature"},
	{"geometry":{"coordinates":[30.34992,60.010387],"type":"Point"},"properties":{"osm_id":"1681287823","tag":{"amenity":"waste_disposal"}},"type":"Feature"},
	{"geometry":{"coordinates":[30.352405,60.010867],"type":"Point"},"properties":{"osm_id":"1681288029","tag":{"amenity":"waste_disposal"}},"type":"Feature"},
	{"geometry":{"coordinates":[30.392831,60.004368],"type":"Point"},"properties":{"osm_id":"1683119853","tag":{"amenity":"waste_disposal"}},"type":"Feature"},
	{"geometry":{"coordinates":[30.391525,60.003042],"type":"Point"},"properties":{"osm_id":"1683119861","tag":{"amenity":"waste_disposal"}},"type":"Feature"},
	{"geometry":{"coordinates":[30.398073,60.005714],"type":"Point"},"properties":{"osm_id":"1683119866","tag":{"amenity":"waste_disposal"}},"type":"Feature"},
	{"geometry":{"coordinates":[30.395161,60.008737],"type":"Point"},"properties":{"osm_id":"1683129769","tag":{"amenity":"waste_disposal"}},"type":"Feature"},
	{"geometry":{"coordinates":[30.396749,60.00473],"type":"Point"},"properties":{"osm_id":"1683129772","tag":{"amenity":"waste_disposal"}},"type":"Feature"},
	{"geometry":{"coordinates":[30.348027,60.007999],"type":"Point"},"properties":{"osm_id":"1683423967","tag":{"amenity":"waste_disposal"}},"type":"Feature"},
	{"geometry":{"coordinates":[30.345435,60.008849],"type":"Point"},"properties":{"osm_id":"1683424142","tag":{"amenity":"waste_disposal"}},"type":"Feature"},
	{"geometry":{"coordinates":[30.346454,60.005504],"type":"Point"},"properties":{"osm_id":"1685726897","tag":{"amenity":"waste_disposal"}},"type":"Feature"},
	{"geometry":{"coordinates":[30.342253,60.0067],"type":"Point"},"properties":{"osm_id":"1685727337","tag":{"amenity":"waste_disposal"}},"type":"Feature"},
	{"geometry":{"coordinates":[30.349484,60.006906],"type":"Point"},"properties":{"osm_id":"1685727440","tag":{"amenity":"waste_disposal"}},"type":"Feature"},
	{"geometry":{"coordinates":[30.35236,60.007127],"type":"Point"},"properties":{"osm_id":"1685727548","tag":{"amenity":"waste_basket"}},"type":"Feature"},
	{"geometry":{"coordinates":[30.352313,60.007155],"type":"Point"},"properties":{"osm_id":"1685727555","tag":{"amenity":"waste_basket"}},"type":"Feature"},
	{"geometry":{"coordinates":[30.347937,60.010594],"type":"Point"},"properties":{"osm_id":"1685727738","tag":{"amenity":"waste_basket"}},"type":"Feature"},
	{"geometry":{"coordinates":[30.348052,60.010599],"type":"Point"},"properties":{"osm_id":"1685727739","tag":{"amenity":"waste_basket"}},"type":"Feature"},
	{"geometry":{"coordinates":[30.347871,60.010637],"type":"Point"},"properties":{"osm_id":"1685727745","tag":{"amenity":"waste_basket"}},"type":"Feature"},
	{"geometry":{"coordinates":[30.350164,60.010784],"type":"Point"},"properties":{"osm_id":"1685727759","tag":{"amenity":"waste_basket"}},"type":"Feature"},
	{"geometry":{"coordinates":[30.350238,60.010814],"type":"Point"},"properties":{"osm_id":"1685727767","tag":{"amenity":"waste_basket"}},"type":"Feature"},
	{"geometry":{"coordinates":[30.350103,60.010825],"type":"Point"},"properties":{"osm_id":"1685727772","tag":{"amenity":"waste_basket"}},"type":"Feature"},
	{"geometry":{"coordinates":[30.350365,60.010864],"type":"Point"},"properties":{"osm_id":"1685727778","tag":{"amenity":"waste_basket"}},"type":"Feature"},
	{"geometry":{"coordinates":[30.350216,60.010879],"type":"Point"},"properties":{"osm_id":"1685727780","tag":{"amenity":"waste_basket"}},"type":"Feature"},
	{"geometry":{"coordinates":[30.35045,60.010897],"type":"Point"},"properties":{"osm_id":"1685727793","tag":{"amenity":"waste_basket"}},"type":"Feature"},
	{"geometry":{"coordinates":[30.350391,60.010938],"type":"Point"},"properties":{"osm_id":"1685727800","tag":{"amenity":"waste_basket"}},"type":"Feature"},
	{"geometry":{"coordinates":[30.340286,60.002503],"type":"Point"},"properties":{"osm_id":"1688275930","tag":{"amenity":"waste_disposal"}},"type":"Feature"},
	{"geometry":{"coordinates":[30.333765,60.004171],"type":"Point"},"properties":{"osm_id":"1688276585","tag":{"amenity":"waste_disposal"}},"type":"Feature"},
	{"geometry":{"coordinates":[30.336829,60.004983],"type":"Point"},"properties":{"osm_id":"1688276741","tag":{"amenity":"waste_disposal"}},"type":"Feature"},
	{"geometry":{"coordinates":[30.344924,60.007646],"type":"Point"},"properties":{"osm_id":"1688277207","tag":{"amenity":"waste_disposal"}},"type":"Feature"},
	{"geometry":{"coordinates":[30.332989,60.017954],"type":"Point"},"properties":{"osm_id":"1699996606","tag":{"amenity":"waste_disposal"}},"type":"Feature"},
	{"geometry":{"coordinates":[30.322796,60.019835],"type":"Point"},"properties":{"osm_id":"1699997097","tag":{"amenity":"waste_disposal"}},"type":"Feature"},
	{"geometry":{"coordinates":[30.330598,59.995292],"type":"Point"},"properties":{"osm_id":"1712942096","tag":{"amenity":"waste_basket"}},"type":"Feature"},
	{"geometry":{"coordinates":[30.324547,60.007666],"type":"Point"},"properties":{"osm_id":"1712942692","tag":{"amenity":"waste_disposal"}},"type":"Feature"},
	{"geometry":{"coordinates":[30.323831,60.011407],"type":"Point"},"properties":{"osm_id":"1712943811","tag":{"amenity":"waste_basket"}},"type":"Feature"},
	{"geometry":{"coordinates":[30.323481,60.012481],"type":"Point"},"properties":{"osm_id":"1712944554","tag":{"amenity":"waste_basket"}},"type":"Feature"},
	{"geometry":{"coordinates":[30.323049,60.014252],"type":"Point"},"properties":{"osm_id":"1712944925","tag":{"amenity":"waste_basket"}},"type":"Feature"},
	{"geometry":{"coordinates":[30.322307,60.015402],"type":"Point"},"properties":{"osm_id":"1712945328","tag":{"amenity":"waste_basket"}},"type":"Feature"},
	{"geometry":{"coordinates":[30.388422,60.002096],"type":"Point"},"properties":{"osm_id":"1748894223","tag":{"amenity":"waste_disposal"}},"type":"Feature"},
	{"geometry":{"coordinates":[30.393866,60.002517],"type":"Point"},"properties":{"osm_id":"1748894269","tag":{"amenity":"waste_disposal"}},"type":"Feature"},
	{"geometry":{"coordinates":[30.388675,60.002564],"type":"Point"},"properties":{"osm_id":"1748894273","tag":{"amenity":"waste_disposal"}},"type":"Feature"},
	{"geometry":{"coordinates":[30.396429,60.003511],"type":"Point"},"properties":{"osm_id":"1748894350","tag":{"amenity":"waste_disposal"}},"type":"Feature"},
	{"geometry":{"coordinates":[30.3937,60.006449],"type":"Point"},"properties":{"osm_id":"1748894661","tag":{"amenity":"waste_disposal"}},"type":"Feature"},
	{"geometry":{"coordinates":[30.400081,60.00672],"type":"Point"},"properties":{"osm_id":"1748894688","tag":{"amenity":"waste_disposal"}},"type":"Feature"},
	{"geometry":{"coordinates":[30.394339,60.008276],"type":"Point"},"properties":{"osm_id":"1748894924","tag":{"amenity":"waste_disposal"}},"type":"Feature"},
	{"geometry":{"coordinates":[30.363842,60.00073],"type":"Point"},"properties":{"osm_id":"1753132118","tag":{"amenity":"waste_disposal"}},"type":"Feature"},
	{"geometry":{"coordinates":[30.361495,60.003029],"type":"Point"},"properties":{"osm_id":"1753132706","tag":{"amenity":"waste_disposal"}},"type":"Feature"},
	{"geometry":{"coordinates":[30.380284,60.007484],"type":"Point"},"properties":{"osm_id":"1958838421","tag":{"amenity":"waste_disposal","waste":"trash"}},"type":"Feature"},
	{"geometry":{"coordinates":[30.382841,59.980935],"type":"Point"},"properties":{"osm_id":"1995792513","tag":{"amenity":"waste_disposal"}},"type":"Feature"},
	{"geometry":{"coordinates":[30.330638,60.012355],"type":"Point"},"properties":{"osm_id":"2081057100","tag":{"amenity":"waste_disposal"}},"type":"Feature"},
	{"geometry":{"coordinates":[30.392294,60.015128],"type":"Point"},"properties":{"osm_id":"2095802990","tag":{"amenity":"waste_disposal"}},"type":"Feature"},
	{"geometry":{"coordinates":[30.387805,60.015964],"type":"Point"},"properties":{"osm_id":"2095803089","tag":{"amenity":"waste_disposal"}},"type":"Feature"},
	{"geometry":{"coordinates":[30.389947,60.016363],"type":"Point"},"properties":{"osm_id":"2095803171","tag":{"amenity":"waste_disposal"}},"type":"Feature"},
	{"geometry":{"coordinates":[30.394784,60.016629],"type":"Point"},"properties":{"osm_id":"2095803224","tag":{"amenity":"waste_disposal"}},"type":"Feature"},
	{"geometry":{"coordinates":[30.385956,60.019391],"type":"Point"},"properties":{"osm_id":"2095803862","tag":{"amenity":"waste_disposal"}},"type":"Feature"},
	{"geometry":{"coordinates":[30.387349,60.020177],"type":"Point"},"properties":{"osm_id":"2095804004","tag":{"amenity":"waste_disposal"}},"type":"Feature"},
	{"geometry":{"coordinates":[30.401861,60.02066],"type":"Point"},"properties":{"osm_id":"2095804114","tag":{"amenity":"waste_disposal"}},"type":"Feature"},
	{"geometry":{"coordinates":[30.397223,60.015039],"type":"Point"},"properties":{"osm_id":"2097398224","tag":{"amenity":"waste_disposal"}},"type":"Feature"},
	{"geometry":{"coordinates":[30.404474,60.017808],"type":"Point"},"properties":{"osm_id":"2097549427","tag":{"amenity":"waste_disposal"}},"type":"Feature"},
	{"geometry":{"coordinates":[30.406826,60.018064],"type":"Point"},"properties":{"osm_id":"2097549464","tag":{"amenity":"waste_disposal"}},"type":"Feature"},
	{"geometry":{"coordinates":[30.406268,60.014254],"type":"Point"},"properties":{"osm_id":"2097631034","tag":{"amenity":"waste_disposal"}},"type":"Feature"},
	{"geometry":{"coordinates":[30.403891,60.01618],"type":"Point"},"properties":{"osm_id":"2097631269","tag":{"amenity":"waste_disposal"}},"type":"Feature"},
	{"geometry":{"coordinates":[30.40649,60.016775],"type":"Point"},"properties":{"osm_id":"2097631381","tag":{"amenity":"waste_disposal"}},"type":"Feature"},
	{"geometry":{"coordinates":[30.410048,60.020186],"type":"Point"},"properties":{"osm_id":"2097631631","tag":{"amenity":"waste_disposal"}},"type":"Feature"},
	{"geometry":{"coordinates":[30.407772,60.011661],"type":"Point"},"properties":{"osm_id":"2099104483","tag":{"amenity":"waste_disposal"}},"type":"Feature"},
	{"geometry":{"coordinates":[30.4043,60.012223],"type":"Point"},"properties":{"osm_id":"2099104528","tag":{"amenity":"waste_disposal"}},"type":"Feature"},
	{"geometry":{"coordinates":[30.402057,60.012751],"type":"Point"},"properties":{"osm_id":"2099104573","tag":{"amenity":"waste_disposal"}},"type":"Feature"},
	{"geometry":{"coordinates":[30.402872,60.014261],"type":"Point"},"properties":{"osm_id":"2099104683","tag":{"amenity":"waste_disposal"}},"type":"Feature"},
	{"geometry":{"coordinates":[30.377512,60.017803],"type":"Point"},"properties":{"osm_id":"2106080908","tag":{"amenity":"waste_disposal"}},"type":"Feature"},
	{"geometry":{"coordinates":[30.375468,60.019739],"type":"Point"},"properties":{"osm_id":"2106081014","tag":{"amenity":"waste_disposal"}},"type":"Feature"},
	{"geometry":{"coordinates":[30.378774,60.01522],"type":"Point"},"properties":{"osm_id":"2114649062","tag":{"amenity":"waste_disposal"}},"type":"Feature"},
	{"geometry":{"coordinates":[30.343446,59.988408],"type":"Point"},"properties":{"osm_id":"2131947709","tag":{"amenity":"waste_disposal"}},"type":"Feature"},
	{"geometry":{"coordinates":[30.332401,59.998487],"type":"Point"},"properties":{"osm_id":"2272013691","tag":{"amenity":"waste_disposal"}},"type":"Feature"},
	{"geometry":{"coordinates":[30.332268,59.998873],"type":"Point"},"properties":{"osm_id":"2272013718","tag":{"amenity":"waste_disposal"}},"type":"Feature"},
	{"geometry":{"coordinates":[30.333876,59.999286],"type":"Point"},"properties":{"osm_id":"2272013764","tag":{"amenity":"waste_disposal"}},"type":"Feature"},
	{"geometry":{"coordinates":[30.330396,60.001666],"type":"Point"},"properties":{"osm_id":"2272013900","tag":{"amenity":"waste_disposal"}},"type":"Feature"},
	{"geometry":{"coordinates":[30.40543,59.978088],"type":"Point"},"properties":{"osm_id":"2272113044","tag":{"amenity":"waste_disposal"}},"type":"Feature"},
	{"geometry":{"coordinates":[30.403105,59.978299],"type":"Point"},"properties":{"osm_id":"2272113052","tag":{"amenity":"waste_disposal"}},"type":"Feature"},
	{"geometry":{"coordinates":[30.33507,60.000677],"type":"Point"},"properties":{"osm_id":"2272806026","tag":{"amenity":"waste_disposal"}},"type":"Feature"},
	{"geometry":{"coordinates":[30.333943,60.001057],"type":"Point"},"properties":{"osm_id":"2272806065","tag":{"amenity":"waste_disposal"}},"type":"Feature"},
	{"geometry":{"coordinates":[30.33485,60.001623],"type":"Point"},"properties":{"osm_id":"2272806123","tag":{"amenity":"waste_disposal"}},"type":"Feature"},
	{"geometry":{"coordinates":[30.341942,59.996712],"type":"Point"},"properties":{"osm_id":"2275074340","tag":{"amenity":"waste_disposal"}},"type":"Feature"},
	{"geometry":{"coordinates":[30.344786,59.997263],"type":"Point"},"properties":{"osm_id":"2275074537","tag":{"amenity":"waste_disposal"}},"type":"Feature"},
	{"geometry":{"coordinates":[30.342138,59.997735],"type":"Point"},"properties":{"osm_id":"2275074762","tag":{"amenity":"waste_disposal"}},"type":"Feature"},
	{"geometry":{"coordinates":[30.337212,59.998146],"type":"Point"},"properties":{"osm_id":"2275074968","tag":{"amenity":"waste_disposal"}},"type":"Feature"},
	{"geometry":{"coordinates":[30.341895,59.998826],"type":"Point"},"properties":{"osm_id":"2275075331","tag":{"amenity":"waste_disposal"}},"type":"Feature"},
	{"geometry":{"coordinates":[30.334707,59.998897],"type":"Point"},"properties":{"osm_id":"2275075387","tag":{"amenity":"waste_disposal"}},"type":"Feature"},
	{"geometry":{"coordinates":[30.334535,59.999271],"type":"Point"},"properties":{"osm_id":"2275075479","tag":{"amenity":"waste_disposal"}},"type":"Feature"},
	{"geometry":{"coordinates":[30.3387,60.000286],"type":"Point"},"properties":{"osm_id":"2275075624","tag":{"amenity":"waste_disposal"}},"type":"Feature"},
	{"geometry":{"coordinates":[30.344588,60.000493],"type":"Point"},"properties":{"osm_id":"2275993876","tag":{"amenity":"waste_disposal"}},"type":"Feature"},
	{"geometry":{"coordinates":[30.343424,60.001075],"type":"Point"},"properties":{"osm_id":"2275994011","tag":{"amenity":"waste_basket"}},"type":"Feature"},
	{"geometry":{"coordinates":[30.351083,59.996445],"type":"Point"},"properties":{"osm_id":"2291046608","tag":{"amenity":"waste_disposal"}},"type":"Feature"},
	{"geometry":{"coordinates":[30.346125,59.997112],"type":"Point"},"properties":{"osm_id":"2291046707","tag":{"amenity":"waste_basket"}},"type":"Feature"},
	{"geometry":{"coordinates":[30.347805,59.997751],"type":"Point"},"properties":{"osm_id":"2291046809","tag":{"amenity":"waste_disposal"}},"type":"Feature"},
	{"geometry":{"coordinates":[30.346637,59.998092],"type":"Point"},"properties":{"osm_id":"2291046864","tag":{"amenity":"waste_basket"}},"type":"Feature"},
	{"geometry":{"coordinates":[30.347458,59.998141],"type":"Point"},"properties":{"osm_id":"2291046877","tag":{"amenity":"waste_disposal"}},"type":"Feature"},
	{"geometry":{"coordinates":[30.34826,59.998621],"type":"Point"},"properties":{"osm_id":"2291046958","tag":{"amenity":"waste_disposal"}},"type":"Feature"},
	{"geometry":{"coordinates":[30.373351,59.997619],"type":"Point"},"properties":{"osm_id":"2320061047","tag":{"access":"private","amenity":"waste_disposal"}},"type":"Feature"},
	{"geometry":{"coordinates":[30.352771,59.989383],"type":"Point"},"properties":{"name":"\u00d0\u009f\u00d1\u0083\u00d0\u00bd\u00d0\u00ba\u00d1\u0082 \u00d0\u00bf\u00d1\u0080\u00d0\u00b8\u00d1\u0091\u00d0\u00bc\u00d0\u00b0 \u00d1\u0086\u00d0\u00b2\u00d0\u00b5\u00d1\u0082. \u00d0\u00bc\u00d0\u00b5\u00d1\u0082\u00d0\u00b0\u00d0\u00bb\u00d0\u00bb\u00d0\u00b0","osm_id":"2377436022","tag":{"amenity":"recycling","recycling:aluminium":"yes","recycling:scrap_metal":"yes"}},"type":"Feature"},
	{"geometry":{"coordinates":[30.409617,60.005751],"type":"Point"},"properties":{"osm_id":"2379606329","tag":{"amenity":"waste_disposal"}},"type":"Feature"},
	{"geometry":{"coordinates":[30.409692,60.005827],"type":"Point"},"properties":{"osm_id":"2379606349","tag":{"amenity":"waste_disposal"}},"type":"Feature"},
	{"geometry":{"coordinates":[30.407501,60.006614],"type":"Point"},"properties":{"osm_id":"2379606545","tag":{"amenity":"waste_disposal"}},"type":"Feature"},
	{"geometry":{"coordinates":[30.404705,60.007552],"type":"Point"},"properties":{"osm_id":"2379606797","tag":{"amenity":"waste_disposal"}},"type":"Feature"},
	{"geometry":{"coordinates":[30.410143,60.007742],"type":"Point"},"properties":{"osm_id":"2379606867","tag":{"amenity":"waste_disposal"}},"type":"Feature"},
	{"geometry":{"coordinates":[30.371051,60.01108],"type":"Point"},"properties":{"osm_id":"2379607154","tag":{"amenity":"waste_disposal"}},"type":"Feature"},
	{"geometry":{"coordinates":[30.364657,60.012785],"type":"Point"},"properties":{"osm_id":"2379607322","tag":{"amenity":"waste_disposal"}},"type":"Feature"},
	{"geometry":{"coordinates":[30.372189,60.012889],"type":"Point"},"properties":{"osm_id":"2379607355","tag":{"amenity":"waste_disposal"}},"type":"Feature"},
	{"geometry":{"coordinates":[30.370627,60.013177],"type":"Point"},"properties":{"osm_id":"2379607437","tag":{"amenity":"waste_disposal"}},"type":"Feature"},
	{"geometry":{"coordinates":[30.369869,60.013398],"type":"Point"},"properties":{"osm_id":"2379607476","tag":{"amenity":"waste_disposal"}},"type":"Feature"},
	{"geometry":{"coordinates":[30.376327,60.014477],"type":"Point"},"properties":{"osm_id":"2379607587","tag":{"amenity":"waste_disposal"}},"type":"Feature"},
	{"geometry":{"coordinates":[30.361742,60.014858],"type":"Point"},"properties":{"osm_id":"2379607629","tag":{"amenity":"waste_disposal"}},"type":"Feature"},
	{"geometry":{"coordinates":[30.324467,59.993856],"type":"Point"},"properties":{"osm_id":"2380657266","tag":{"amenity":"waste_disposal"}},"type":"Feature"},
	{"geometry":{"coordinates":[30.399588,60.011483],"type":"Point"},"properties":{"osm_id":"2388923661","tag":{"amenity":"waste_disposal","covered":"yes","layer":"0"}},"type":"Feature"},
	{"geometry":{"coordinates":[30.332805,59.993342],"type":"Point"},"properties":{"osm_id":"2405230354","tag":{"amenity":"waste_disposal"}},"type":"Feature"},
	{"geometry":{"coordinates":[30.350263,59.981311],"type":"Point"},"properties":{"osm_id":"2445410877","tag":{"amenity":"waste_basket"}},"type":"Feature"},
	{"geometry":{"coordinates":[30.35033,59.980097],"type":"Point"},"properties":{"osm_id":"2445411104","tag":{"amenity":"waste_basket"}},"type":"Feature"},
	{"geometry":{"coordinates":[30.348495,59.982599],"type":"Point"},"properties":{"osm_id":"2445411638","tag":{"amenity":"waste_basket"}},"type":"Feature"},
	{"geometry":{"coordinates":[30.345938,59.98158],"type":"Point"},"properties":{"osm_id":"2445411639","tag":{"amenity":"waste_basket"}},"type":"Feature"},
	{"geometry":{"coordinates":[30.378645,60.019147],"type":"Point"},"properties":{"osm_id":"2448498900","tag":{"amenity":"waste_disposal","waste":"trash"}},"type":"Feature"},
	{"geometry":{"coordinates":[30.392331,60.018026],"type":"Point"},"properties":{"osm_id":"2450049098","tag":{"amenity":"waste_disposal"}},"type":"Feature"},
	{"geometry":{"coordinates":[30.352913,59.979638],"type":"Point"},"properties":{"osm_id":"2465092833","tag":{"amenity":"waste_basket"}},"type":"Feature"},
	{"geometry":{"coordinates":[30.332867,59.987268],"type":"Point"},"properties":{"osm_id":"2466796363","tag":{"amenity":"waste_disposal","waste":"trash"}},"type":"Feature"},
	{"geometry":{"coordinates":[30.379327,59.997815],"type":"Point"},"properties":{"osm_id":"2472989547","tag":{"amenity":"waste_disposal"}},"type":"Feature"},
	{"geometry":{"coordinates":[30.348933,59.978794],"type":"Point"},"properties":{"osm_id":"2479289748","tag":{"amenity":"waste_disposal"}},"type":"Feature"},
	{"geometry":{"coordinates":[30.379805,59.998564],"type":"Point"},"properties":{"osm_id":"2481812565","tag":{"amenity":"waste_disposal"}},"type":"Feature"},
	{"geometry":{"coordinates":[30.373787,59.998198],"type":"Point"},"properties":{"osm_id":"2484273252","tag":{"amenity":"waste_disposal"}},"type":"Feature"},
	{"geometry":{"coordinates":[30.3738,59.998304],"type":"Point"},"properties":{"osm_id":"2484273268","tag":{"amenity":"waste_disposal"}},"type":"Feature"},
	{"geometry":{"coordinates":[30.381015,59.998846],"type":"Point"},"properties":{"osm_id":"2484273289","tag":{"amenity":"waste_disposal"}},"type":"Feature"},
	{"geometry":{"coordinates":[30.380163,59.9978],"type":"Point"},"properties":{"osm_id":"2488832463","tag":{"amenity":"waste_disposal"}},"type":"Feature"},
	{"geometry":{"coordinates":[30.381537,60.000349],"type":"Point"},"properties":{"osm_id":"2506428219","tag":{"amenity":"waste_disposal"}},"type":"Feature"},
	{"geometry":{"coordinates":[30.382188,60.006482],"type":"Point"},"properties":{"osm_id":"2524145863","tag":{"amenity":"waste_disposal","waste":"trash"}},"type":"Feature"},
	{"geometry":{"coordinates":[30.332747,59.985064],"type":"Point"},"properties":{"osm_id":"2529803102","tag":{"amenity":"waste_disposal","waste":"trash"}},"type":"Feature"},
	{"geometry":{"coordinates":[30.331692,59.985467],"type":"Point"},"properties":{"osm_id":"2529803126","tag":{"amenity":"waste_disposal","waste":"trash"}},"type":"Feature"},
	{"geometry":{"coordinates":[30.32952,59.988554],"type":"Point"},"properties":{"osm_id":"2624027349","tag":{"amenity":"waste_disposal"}},"type":"Feature"},
	{"geometry":{"coordinates":[30.409904,59.99586],"type":"Point"},"properties":{"osm_id":"2764840223","tag":{"amenity":"waste_disposal"}},"type":"Feature"},
	{"geometry":{"coordinates":[30.368951,59.998754],"type":"Point"},"properties":{"osm_id":"2864779807","tag":{"amenity":"waste_disposal"}},"type":"Feature"},
	{"geometry":{"coordinates":[30.372398,60.008635],"type":"Point"},"properties":{"osm_id":"2900271903","tag":{"amenity":"waste_basket"}},"type":"Feature"},
	{"geometry":{"coordinates":[30.327705,60.000031],"type":"Point"},"properties":{"osm_id":"2918969628","tag":{"amenity":"waste_disposal"}},"type":"Feature"},
	{"geometry":{"coordinates":[30.334092,60.017618],"type":"Point"},"properties":{"name":"\u00d0\u00ad\u00d0\u00ba\u00d0\u00be\u00d0\u00b1\u00d0\u00be\u00d0\u00ba\u00d1\u0081","osm_id":"2928315102","tag":{"amenity":"recycling","recycling:batteries":"yes","recycling_type":"container"}},"type":"Feature"},
	{"geometry":{"coordinates":[30.386683,60.014957],"type":"Point"},"properties":{"name":"\u00d0\u00ad\u00d0\u00ba\u00d0\u00be\u00d0\u00b1\u00d0\u00be\u00d0\u00ba\u00d1\u0081","osm_id":"2928505801","tag":{"amenity":"recycling","recycling:batteries":"yes","recycling:fluorescent_tubes":"yes","recycling:hazardous_waste":"yes","recycling:hydrargyrum":"yes","recycling:low_energy_bulbs":"yes","recycling_type":"container"}},"type":"Feature"},
	{"geometry":{"coordinates":[30.390693,60.014205],"type":"Point"},"properties":{"name":"\u00d0\u00ad\u00d0\u00ba\u00d0\u00be\u00d0\u00b1\u00d0\u00be\u00d0\u00ba\u00d1\u0081","osm_id":"2928506001","tag":{"amenity":"recycling","recycling:batteries":"yes","recycling:fluorescent_tubes":"yes","recycling:hazardous_waste":"yes","recycling:hydrargyrum":"yes","recycling:low_energy_bulbs":"yes","recycling_type":"container"}},"type":"Feature"},
	{"geometry":{"coordinates":[30.393997,60.010936],"type":"Point"},"properties":{"name":"\u00d0\u00ad\u00d0\u00ba\u00d0\u00be\u00d0\u00b1\u00d0\u00be\u00d0\u00ba\u00d1\u0081","osm_id":"2928506302","tag":{"amenity":"recycling","recycling:batteries":"yes","recycling:fluorescent_tubes":"yes","recycling:hazardous_waste":"yes","recycling:hydrargyrum":"yes","recycling:low_energy_bulbs":"yes","recycling_type":"container"}},"type":"Feature"},
	{"geometry":{"coordinates":[30.394903,60.01293],"type":"Point"},"properties":{"name":"\u00d0\u00ad\u00d0\u00ba\u00d0\u00be\u00d0\u00b1\u00d0\u00be\u00d0\u00ba\u00d1\u0081","osm_id":"2928506601","tag":{"amenity":"recycling","recycling:batteries":"yes","recycling:fluorescent_tubes":"yes","recycling:hazardous_waste":"yes","recycling:hydrargyrum":"yes","recycling:low_energy_bulbs":"yes","recycling_type":"container"}},"type":"Feature"},
	{"geometry":{"coordinates":[30.374321,60.002794],"type":"Point"},"properties":{"name":"\u00d0\u00ad\u00d0\u00ba\u00d0\u00be\u00d0\u00b1\u00d0\u00be\u00d0\u00ba\u00d1\u0081","osm_id":"2928507401","tag":{"amenity":"recycling","recycling:batteries":"yes","recycling_type":"container"}},"type":"Feature"},
	{"geometry":{"coordinates":[30.325659,59.989825],"type":"Point"},"properties":{"name":"\u00d0\u00ad\u00d0\u00ba\u00d0\u00be\u00d0\u00b1\u00d0\u00be\u00d0\u00ba\u00d1\u0081","osm_id":"2930285802","tag":{"amenity":"recycling","recycling:batteries":"yes","recycling:fluorescent_tubes":"yes","recycling:hazardous_waste":"yes","recycling:hydrargyrum":"yes","recycling:low_energy_bulbs":"yes","recycling_type":"container"}},"type":"Feature"},
	{"geometry":{"coordinates":[30.392741,60.0199],"type":"Point"},"properties":{"osm_id":"2978964197","tag":{"amenity":"waste_disposal"}},"type":"Feature"},
	{"geometry":{"coordinates":[30.408205,59.980616],"type":"Point"},"properties":{"osm_id":"2995357424","tag":{"amenity":"waste_disposal"}},"type":"Feature"},
	{"geometry":{"coordinates":[30.392117,60.018737],"type":"Point"},"properties":{"osm_id":"3177789386","tag":{"amenity":"waste_disposal"}},"type":"Feature"},
	{"geometry":{"coordinates":[30.3302,60.018738],"type":"Point"},"properties":{"osm_id":"3303322267","tag":{"amenity":"recycling","description":"\u00d0\u009f\u00d1\u0080\u00d0\u00b8\u00d1\u0091\u00d0\u00bc \u00d0\u00b2\u00d1\u0082\u00d0\u00be\u00d1\u0080\u00d1\u0081\u00d1\u008b\u00d1\u0080\u00d1\u008c\u00d1\u008f, \u00d1\u0081\u00d1\u0082\u00d0\u00b5\u00d0\u00ba\u00d0\u00bb\u00d0\u00be\u00d1\u0082\u00d0\u00b0\u00d1\u0080\u00d1\u008b \"\u00d0\u00a7\u00d0\u00b8\u00d1\u0081\u00d1\u0082\u00d1\u008b\u00d0\u00b9 \u00d0\u00b3\u00d0\u00be\u00d1\u0080\u00d0\u00be\u00d0\u00b4\"","recycling:glass":"yes"}},"type":"Feature"},
	{"geometry":{"coordinates":[30.394488,60.001265],"type":"Point"},"properties":{"osm_id":"3309574093","tag":{"amenity":"waste_basket"}},"type":"Feature"},
	{"geometry":{"coordinates":[30.370603,59.984315],"type":"Point"},"properties":{"osm_id":"3546473318","tag":{"amenity":"waste_disposal"}},"type":"Feature"},
	{"geometry":{"coordinates":[30.382561,60.016878],"type":"Point"},"properties":{"osm_id":"3655480113","tag":{"amenity":"waste_disposal"}},"type":"Feature"},
	{"geometry":{"coordinates":[30.384773,60.017967],"type":"Point"},"properties":{"osm_id":"3655480285","tag":{"amenity":"waste_disposal"}},"type":"Feature"},
	{"geometry":{"coordinates":[30.374836,60.019794],"type":"Point"},"properties":{"osm_id":"3655480984","tag":{"amenity":"waste_disposal"}},"type":"Feature"},
	{"geometry":{"coordinates":[30.345902,59.983823],"type":"Point"},"properties":{"osm_id":"3678829313","tag":{"amenity":"waste_disposal"}},"type":"Feature"},
	{"geometry":{"coordinates":[30.34773,59.984278],"type":"Point"},"properties":{"osm_id":"3678829314","tag":{"amenity":"waste_disposal"}},"type":"Feature"},
	{"geometry":{"coordinates":[30.367719,59.998478],"type":"Point"},"properties":{"osm_id":"3725371371","tag":{"amenity":"waste_disposal"}},"type":"Feature"},
	{"geometry":{"coordinates":[30.366958,59.999805],"type":"Point"},"properties":{"osm_id":"3725371626","tag":{"access":"private","amenity":"waste_disposal"}},"type":"Feature"},
	{"geometry":{"coordinates":[30.378553,59.997415],"type":"Point"},"properties":{"osm_id":"3729924782","tag":{"access":"private","amenity":"waste_disposal"}},"type":"Feature"},
	{"geometry":{"coordinates":[30.383085,59.996893],"type":"Point"},"properties":{"osm_id":"3729924843","tag":{"access":"private","amenity":"waste_disposal"}},"type":"Feature"},
	{"geometry":{"coordinates":[30.383998,59.996902],"type":"Point"},"properties":{"osm_id":"3729924845","tag":{"amenity":"waste_disposal"}},"type":"Feature"},
	{"geometry":{"coordinates":[30.388986,60.016563],"type":"Point"},"properties":{"osm_id":"3730613404","tag":{"amenity":"waste_disposal"}},"type":"Feature"},
	{"geometry":{"coordinates":[30.33185,59.988818],"type":"Point"},"properties":{"osm_id":"3732087945","tag":{"amenity":"waste_disposal"}},"type":"Feature"},
	{"geometry":{"coordinates":[30.334183,59.989945],"type":"Point"},"properties":{"osm_id":"3732088179","tag":{"amenity":"waste_disposal"}},"type":"Feature"},
	{"geometry":{"coordinates":[30.32874,59.999576],"type":"Point"},"properties":{"osm_id":"3732088762","tag":{"amenity":"waste_basket"}},"type":"Feature"},
	{"geometry":{"coordinates":[30.374644,59.994877],"type":"Point"},"properties":{"osm_id":"3732287069","tag":{"amenity":"waste_disposal"}},"type":"Feature"},
	{"geometry":{"coordinates":[30.378628,59.995591],"type":"Point"},"properties":{"osm_id":"3732287078","tag":{"amenity":"waste_disposal"}},"type":"Feature"},
	{"geometry":{"coordinates":[30.3855,60.002592],"type":"Point"},"properties":{"osm_id":"3732287863","tag":{"amenity":"waste_disposal"}},"type":"Feature"},
	{"geometry":{"coordinates":[30.386833,60.003911],"type":"Point"},"properties":{"osm_id":"3732287912","tag":{"amenity":"waste_disposal"}},"type":"Feature"},
	{"geometry":{"coordinates":[30.388015,60.005339],"type":"Point"},"properties":{"osm_id":"3732288147","tag":{"amenity":"waste_disposal"}},"type":"Feature"},
	{"geometry":{"coordinates":[30.33399,59.983038],"type":"Point"},"properties":{"osm_id":"3742986871","tag":{"amenity":"waste_disposal"}},"type":"Feature"},
	{"geometry":{"coordinates":[30.334454,59.981344],"type":"Point"},"properties":{"osm_id":"3742987049","tag":{"amenity":"waste_disposal"}},"type":"Feature"},
	{"geometry":{"coordinates":[30.325476,60.002301],"type":"Point"},"properties":{"osm_id":"3742987443","tag":{"amenity":"waste_disposal"}},"type":"Feature"},
	{"geometry":{"coordinates":[30.327191,60.018549],"type":"Point"},"properties":{"osm_id":"3747306624","tag":{"amenity":"waste_basket"}},"type":"Feature"},
	{"geometry":{"coordinates":[30.324127,60.018763],"type":"Point"},"properties":{"osm_id":"3747308335","tag":{"amenity":"waste_disposal"}},"type":"Feature"},
	{"geometry":{"coordinates":[30.405828,60.008819],"type":"Point"},"properties":{"osm_id":"3750181342","tag":{"amenity":"waste_disposal"}},"type":"Feature"},
	{"geometry":{"coordinates":[30.322829,60.011573],"type":"Point"},"properties":{"osm_id":"3773997042","tag":{"amenity":"waste_basket"}},"type":"Feature"},
	{"geometry":{"coordinates":[30.32282,60.011599],"type":"Point"},"properties":{"osm_id":"3773997044","tag":{"amenity":"waste_basket"}},"type":"Feature"},
	{"geometry":{"coordinates":[30.400246,59.983726],"type":"Point"},"properties":{"osm_id":"4107046490","tag":{"amenity":"waste_disposal"}},"type":"Feature"},
	{"geometry":{"coordinates":[30.397536,59.979798],"type":"Point"},"properties":{"osm_id":"4107053490","tag":{"amenity":"waste_disposal"}},"type":"Feature"},
	{"geometry":{"coordinates":[30.397466,59.980391],"type":"Point"},"properties":{"osm_id":"4107053491","tag":{"amenity":"waste_disposal"}},"type":"Feature"},
	{"geometry":{"coordinates":[30.40204,59.980162],"type":"Point"},"properties":{"osm_id":"4107053492","tag":{"amenity":"waste_disposal"}},"type":"Feature"},
	{"geometry":{"coordinates":[30.327813,60.000383],"type":"Point"},"properties":{"osm_id":"4315501493","tag":{"amenity":"waste_disposal","operator":"\"\u00d0\u009f\u00d1\u0080\u00d0\u00be\u00d0\u00b3\u00d1\u0080\u00d0\u00b5\u00d1\u0081\u00d1\u0081\""}},"type":"Feature"},
	{"geometry":{"coordinates":[30.398658,59.981669],"type":"Point"},"properties":{"osm_id":"4362054993","tag":{"amenity":"waste_disposal"}},"type":"Feature"},
	{"geometry":{"coordinates":[30.324369,59.996236],"type":"Point"},"properties":{"osm_id":"4423384190","tag":{"amenity":"waste_disposal"}},"type":"Feature"},
	{"geometry":{"coordinates":[30.387852,59.993295],"type":"Point"},"properties":{"osm_id":"4425653590","tag":{"amenity":"waste_disposal","operator":"\u00d0\u009c\u00d1\u0083\u00d1\u0081\u00d0\u00be\u00d1\u0080\u00d0\u00bd\u00d1\u008b\u00d0\u00b9 \u00d0\u00ba\u00d0\u00be\u00d0\u00bd\u00d1\u0082\u00d0\u00b5\u00d0\u00b9\u00d0\u00bd\u00d0\u00b5\u00d1\u0080 \u00d0\u00b4\u00d0\u00be\u00d0\u00bc\u00d0\u00b0 \u00d0\u009d\u00d0\u00b5\u00d0\u00bf\u00d0\u00be\u00d0\u00ba\u00d0\u00be\u00d1\u0080\u00d0\u00b5\u00d0\u00bd\u00d0\u00bd\u00d1\u008b\u00d1\u0085 \u00d0\u00bf\u00d1\u0080-\u00d1\u0082 \u00d0\u00b4.49 \u00d0\u00ba.2"}},"type":"Feature"},
	{"geometry":{"coordinates":[30.358498,59.997168],"type":"Point"},"properties":{"osm_id":"4448113190","tag":{"amenity":"waste_disposal"}},"type":"Feature"},
	{"geometry":{"coordinates":[30.369591,59.987651],"type":"Point"},"properties":{"osm_id":"4471488028","tag":{"amenity":"recycling","recycling_type":"container","waste":"paper"}},"type":"Feature"},
	{"geometry":{"coordinates":[30.369594,59.987656],"type":"Point"},"properties":{"osm_id":"4471488029","tag":{"amenity":"waste_disposal"}},"type":"Feature"},
	{"geometry":{"coordinates":[30.3696,59.987662],"type":"Point"},"properties":{"osm_id":"4471488030","tag":{"amenity":"recycling","recycling_type":"container","waste":"clothes","website":"http://peremolka.ru/"}},"type":"Feature"},
	{"geometry":{"coordinates":[30.371426,59.988041],"type":"Point"},"properties":{"osm_id":"4483632828","tag":{"amenity":"waste_disposal"}},"type":"Feature"},
	{"geometry":{"coordinates":[30.372277,59.987876],"type":"Point"},"properties":{"osm_id":"4483645157","tag":{"amenity":"recycling","recycling_type":"container","waste":"clothes","website":"http://lepta.info/"}},"type":"Feature"},
	{"geometry":{"coordinates":[30.372423,59.987347],"type":"Point"},"properties":{"osm_id":"4483650238","tag":{"amenity":"waste_disposal"}},"type":"Feature"},
	{"geometry":{"coordinates":[30.335446,59.98602],"type":"Point"},"properties":{"osm_id":"4518520424","tag":{"amenity":"waste_basket"}},"type":"Feature"},
	{"geometry":{"coordinates":[30.335464,59.986093],"type":"Point"},"properties":{"osm_id":"4518520425","tag":{"amenity":"waste_basket"}},"type":"Feature"},
	{"geometry":{"coordinates":[30.335415,59.98616],"type":"Point"},"properties":{"osm_id":"4518520426","tag":{"amenity":"waste_basket"}},"type":"Feature"},
	{"geometry":{"coordinates":[30.330113,59.993347],"type":"Point"},"properties":{"osm_id":"4581820010","tag":{"amenity":"waste_disposal"}},"type":"Feature"},
	{"geometry":{"coordinates":[30.368893,59.98732],"type":"Point"},"properties":{"osm_id":"4622227792","tag":{"amenity":"waste_disposal"}},"type":"Feature"},
	{"geometry":{"coordinates":[30.343811,60.016106],"type":"Point"},"properties":{"osm_id":"4706357689","tag":{"amenity":"waste_basket"}},"type":"Feature"},
	{"geometry":{"coordinates":[30.332388,59.993875],"type":"Point"},"properties":{"osm_id":"4806938166","tag":{"amenity":"waste_basket"}},"type":"Feature"},
	{"geometry":{"coordinates":[30.385593,60.015015],"type":"Point"},"properties":{"name":"\u00d1\u008d\u00d0\u00ba\u00d0\u00be\u00d0\u00b1\u00d0\u00be\u00d0\u00ba\u00d1\u0081","osm_id":"4867399521","tag":{"amenity":"recycling","name:en":"ecobox"}},"type":"Feature"},
	{"geometry":{"coordinates":[30.329496,59.993839],"type":"Point"},"properties":{"osm_id":"4871362658","tag":{"amenity":"waste_basket"}},"type":"Feature"},
	{"geometry":{"coordinates":[30.403689,60.004816],"type":"Point"},"properties":{"osm_id":"4945695011","tag":{"amenity":"waste_basket"}},"type":"Feature"},
	{"geometry":{"coordinates":[30.403656,60.004788],"type":"Point"},"properties":{"osm_id":"4945695012","tag":{"amenity":"waste_basket"}},"type":"Feature"},
	{"geometry":{"coordinates":[30.403863,60.005148],"type":"Point"},"properties":{"osm_id":"4945695015","tag":{"amenity":"waste_basket"}},"type":"Feature"},
	{"geometry":{"coordinates":[30.403836,60.005192],"type":"Point"},"properties":{"osm_id":"4945695016","tag":{"amenity":"waste_basket"}},"type":"Feature"},
	{"geometry":{"coordinates":[30.40347,60.004973],"type":"Point"},"properties":{"osm_id":"4945695019","tag":{"amenity":"waste_basket"}},"type":"Feature"},
	{"geometry":{"coordinates":[30.403664,60.005223],"type":"Point"},"properties":{"osm_id":"4945715121","tag":{"amenity":"waste_basket"}},"type":"Feature"},
	{"geometry":{"coordinates":[30.403626,60.005187],"type":"Point"},"properties":{"osm_id":"4945715123","tag":{"amenity":"waste_basket"}},"type":"Feature"},
	{"geometry":{"coordinates":[30.352162,59.988795],"type":"Point"},"properties":{"osm_id":"4986865623","tag":{"amenity":"waste_basket"}},"type":"Feature"},
	{"geometry":{"coordinates":[30.352184,59.98918],"type":"Point"},"properties":{"osm_id":"4986865624","tag":{"amenity":"waste_basket"}},"type":"Feature"},
	{"geometry":{"coordinates":[30.351678,59.987718],"type":"Point"},"properties":{"osm_id":"4986866623","tag":{"amenity":"waste_basket"}},"type":"Feature"},
	{"geometry":{"coordinates":[30.351228,59.988155],"type":"Point"},"properties":{"osm_id":"4986866624","tag":{"amenity":"waste_basket"}},"type":"Feature"},
	{"geometry":{"coordinates":[30.352082,59.988513],"type":"Point"},"properties":{"osm_id":"4986888721","tag":{"amenity":"waste_basket"}},"type":"Feature"},
	{"geometry":{"coordinates":[30.407719,60.011827],"type":"Point"},"properties":{"osm_id":"5643886131","tag":{"amenity":"waste_disposal","operator":"\u00d0\u00ad\u00d0\u00ba\u00d0\u00be\u00d0\u00b1\u00d0\u00be\u00d0\u00ba\u00d1\u0081"}},"type":"Feature"},
	{"geometry":{"coordinates":[30.402101,60.017847],"type":"Point"},"properties":{"osm_id":"5822425293","tag":{"amenity":"waste_basket"}},"type":"Feature"},
	{"geometry":{"coordinates":[30.36781,60.009153],"type":"Point"},"properties":{"osm_id":"6516215069","tag":{"amenity":"recycling","email":"zakaz@priemakbspb.ru","opening_hours":"Mo-Fr 09:00-20:00; Sa-Su 12:00-17:00","operator":"\u00d0\u0090\u00d0\u00ba\u00d0\u00ba\u00d1\u0083\u00d0\u00bc\u00d0\u00bb\u00d0\u00be\u00d0\u00bc","phone":"+7 904 5521263","recycling:car_batteries":"yes","recycling_type":"centre","website":"https://priemakbspb.ru/punkt-priema-akkumulyatorov","wheelchair":"no"}},"type":"Feature"},
	{"geometry":{"coordinates":[30.330526,60.019208],"type":"Point"},"properties":{"name":"\u00d0\u00a3\u00d1\u0082\u00d0\u00b8\u00d0\u00bb\u00d1\u008c","osm_id":"6578276259","tag":{"amenity":"recycling","email":"info@vutil.spb.ru","opening_hours":"Mo,Tu,Th,Fr 09:00-12:00,13:00-18:00; Sa-Su 09:00-12:00,13:00-17:30","operator":"\u00d0\u0093\u00d1\u0080\u00d1\u0083\u00d0\u00bf\u00d0\u00bf\u00d0\u00b0 \u00d0\u00ba\u00d0\u00be\u00d0\u00bc\u00d0\u00bf\u00d0\u00b0\u00d0\u00bd\u00d0\u00b8\u00d0\u00b9 \u00c2\u00ab\u00d0\u009a\u00d0\u00a3\u00d0\u0091\u00c2\u00bb","recycling:cardboard":"yes","recycling:paper":"yes","recycling:plastic":"yes","recycling:plastic_bottles":"yes","recycling:plastic_packaging":"yes","recycling_type":"centre","website":"http://vutil.spb.ru"}},"type":"Feature"},
	{"geometry":{"coordinates":[30.329402,59.99978],"type":"Point"},"properties":{"osm_id":"6696971453","tag":{"amenity":"waste_basket"}},"type":"Feature"},
	{"geometry":{"coordinates":[30.325453,60.002349],"type":"Point"},"properties":{"osm_id":"6697276115","tag":{"amenity":"recycling","email":"pet78spb@yandex.ru","opening_hours":"24/7","operator":"\u00d0\u009f\u00d0\u00ad\u00d0\u00a278","phone":"+7 965 7822000","recycling:plastic":"yes","recycling:plastic_bottles":"yes","recycling:plastic_packaging":"yes","recycling_type":"container","wheelchair":"yes"}},"type":"Feature"},
	{"geometry":{"coordinates":[30.390606,60.014362],"type":"Point"},"properties":{"name":"\u00d0\u00ad\u00d0\u00ba\u00d0\u00be\u00d0\u00b1\u00d0\u00be\u00d0\u00ba\u00d1\u0081","osm_id":"6835391858","tag":{"amenity":"recycling","recycling:paper":"yes","recycling:plastic":"yes","recycling_type":"container"}},"type":"Feature"},
	{"geometry":{"coordinates":[30.409534,59.979781],"type":"Point"},"properties":{"osm_id":"6903407128","tag":{"amenity":"waste_disposal"}},"type":"Feature"},
	{"geometry":{"coordinates":[30.408124,59.978655],"type":"Point"},"properties":{"osm_id":"6903407133","tag":{"amenity":"waste_disposal"}},"type":"Feature"},
	{"geometry":{"coordinates":[30.373091,59.999819],"type":"Point"},"properties":{"osm_id":"7049524368","tag":{"amenity":"recycling","operator":"https://vk.com/ecopet78","recycling:plastic_bottles":"yes","recycling:plastic_packaging":"yes","recycling_type":"container"}},"type":"Feature"},
	{"geometry":{"coordinates":[30.355008,60.003328],"type":"Point"},"properties":{"osm_id":"7146634836","tag":{"amenity":"waste_disposal"}},"type":"Feature"},
	{"geometry":{"coordinates":[30.376593,59.985324],"type":"Point"},"properties":{"osm_id":"7196091813","tag":{"amenity":"waste_disposal"}},"type":"Feature"},
	{"geometry":{"coordinates":[30.378625,59.984768],"type":"Point"},"properties":{"osm_id":"7246086491","tag":{"amenity":"waste_disposal"}},"type":"Feature"},
	{"geometry":{"coordinates":[30.329214,59.995971],"type":"Point"},"properties":{"osm_id":"7419959555","tag":{"amenity":"recycling","opening_hours":"24/7","operator":"\u00d0\u009f\u00d0\u00b5\u00d1\u0082\u00d1\u0080\u00d0\u00be\u00d0\u00b2\u00d0\u00b0\u00d1\u0081\u00d1\u0082","recycling:plastic_bottles":"yes","recycling_type":"container","website":"https://p-w.ru","wheelchair":"yes"}},"type":"Feature"},
	{"geometry":{"coordinates":[30.329205,59.995989],"type":"Point"},"properties":{"osm_id":"7419959556","tag":{"amenity":"recycling","opening_hours":"24/7","operator":"\u00d0\u009f\u00d0\u00b5\u00d1\u0082\u00d1\u0080\u00d0\u00be\u00d0\u00b2\u00d0\u00b0\u00d1\u0081\u00d1\u0082","recycling:glass_bottles":"yes","recycling_type":"container","website":"https://p-w.ru","wheelchair":"yes"}},"type":"Feature"},
	{"geometry":{"coordinates":[30.387568,60.011722],"type":"Point"},"properties":{"osm_id":"7610973785","tag":{"amenity":"waste_disposal","operator":"\u00d0\u009e\u00d1\u0080\u00d0\u00b1\u00d0\u00b8\u00d1\u0082\u00d0\u00b0"}},"type":"Feature"},
	{"geometry":{"coordinates":[30.361063,60.008274],"type":"Point"},"properties":{"osm_id":"7862273156","tag":{"amenity":"waste_basket"}},"type":"Feature"}
]
}
