{
"type": "FeatureCollection",
"features": [
	{"geometry":{"coordinates":[30.330556,59.7724],"type":"Point"},"properties":{"osm_id":"921247858","tag":{"amenity":"waste_disposal"}},"type":"Feature"},
	{"geometry":{"coordinates":[30.330849,59.769851],"type":"Point"},"properties":{"osm_id":"922535329","tag":{"amenity":"waste_disposal"}},"type":"Feature"},
	{"geometry":{"coordinates":[30.335237,59.769824],"type":"Point"},"properties":{"osm_id":"922535336","tag":{"amenity":"waste_disposal"}},"type":"Feature"},
	{"geometry":{"coordinates":[30.32331,59.77215],"type":"Point"},"properties":{"osm_id":"922804802","tag":{"amenity":"waste_disposal"}},"type":"Feature"},
	{"geometry":{"coordinates":[30.324575,59.768499],"type":"Point"},"properties":{"osm_id":"946092521","tag":{"amenity":"waste_disposal"}},"type":"Feature"},
	{"geometry":{"coordinates":[30.324047,59.781505],"type":"Point"},"properties":{"osm_id":"1602692620","tag":{"amenity":"waste_disposal"}},"type":"Feature"},
	{"geometry":{"coordinates":[30.39406,59.792162],"type":"Point"},"properties":{"osm_id":"2534013130","tag":{"amenity":"waste_disposal"}},"type":"Feature"},
	{"geometry":{"coordinates":[30.360824,59.762528],"type":"Point"},"properties":{"osm_id":"3717035201","tag":{"amenity":"waste_disposal"}},"type":"Feature"},
	{"geometry":{"coordinates":[30.363979,59.75718],"type":"Point"},"properties":{"osm_id":"7793686949","tag":{"amenity":"waste_disposal","lastcheck":"2020-08-07"}},"type":"Feature"},
	{"geometry":{"coordinates":[30.364063,59.757207],"type":"Point"},"properties":{"osm_id":"7793686950","tag":{"amenity":"recycling","lastcheck":"2020-08-07","recycling:cartons":"yes","recycling:glass":"yes","recycling:paper":"yes","recycling:plastic":"yes","recycling_type":"container"}},"type":"Feature"}
]
}
