{
"type": "FeatureCollection",
"features": [
	{"geometry":{"coordinates":[30.40779,50.483139],"type":"Point"},"properties":{"osm_id":"1541567975","tag":{"amenity":"waste_disposal"}},"type":"Feature"},
	{"geometry":{"coordinates":[30.347754,50.461411],"type":"Point"},"properties":{"osm_id":"3139593257","tag":{"amenity":"recycling","recycling:glass":"yes","recycling:paper":"yes"}},"type":"Feature"},
	{"geometry":{"coordinates":[30.385573,50.459289],"type":"Point"},"properties":{"osm_id":"3145112738","tag":{"amenity":"recycling","recycling_type":"centre"}},"type":"Feature"},
	{"geometry":{"coordinates":[30.344925,50.459056],"type":"Point"},"properties":{"osm_id":"3272445831","tag":{"amenity":"recycling"}},"type":"Feature"},
	{"geometry":{"coordinates":[30.330577,50.467703],"type":"Point"},"properties":{"osm_id":"3403663280","tag":{"amenity":"recycling","recycling_type":"container"}},"type":"Feature"},
	{"geometry":{"coordinates":[30.33123,50.467643],"type":"Point"},"properties":{"osm_id":"3438213215","tag":{"amenity":"recycling","recycling_type":"container"}},"type":"Feature"},
	{"geometry":{"coordinates":[30.331538,50.467714],"type":"Point"},"properties":{"osm_id":"3438213221","tag":{"amenity":"recycling","recycling_type":"container"}},"type":"Feature"},
	{"geometry":{"coordinates":[30.330555,50.467643],"type":"Point"},"properties":{"osm_id":"3438213226","tag":{"amenity":"recycling","recycling_type":"container"}},"type":"Feature"},
	{"geometry":{"coordinates":[30.336561,50.472303],"type":"Point"},"properties":{"osm_id":"3447460628","tag":{"amenity":"recycling","recycling_type":"container"}},"type":"Feature"},
	{"geometry":{"coordinates":[30.334124,50.471876],"type":"Point"},"properties":{"osm_id":"3447460641","tag":{"amenity":"recycling","recycling_type":"container"}},"type":"Feature"},
	{"geometry":{"coordinates":[30.340483,50.479261],"type":"Point"},"properties":{"osm_id":"3451768559","tag":{"amenity":"waste_disposal"}},"type":"Feature"},
	{"geometry":{"coordinates":[30.340564,50.479266],"type":"Point"},"properties":{"osm_id":"3451768601","tag":{"amenity":"waste_disposal"}},"type":"Feature"},
	{"geometry":{"coordinates":[30.340523,50.479263],"type":"Point"},"properties":{"osm_id":"3451768646","tag":{"amenity":"waste_disposal"}},"type":"Feature"},
	{"geometry":{"coordinates":[30.340604,50.479268],"type":"Point"},"properties":{"osm_id":"3451768687","tag":{"amenity":"waste_disposal"}},"type":"Feature"},
	{"geometry":{"coordinates":[30.340443,50.479258],"type":"Point"},"properties":{"osm_id":"3451768801","tag":{"amenity":"waste_disposal"}},"type":"Feature"},
	{"geometry":{"coordinates":[30.343688,50.476754],"type":"Point"},"properties":{"osm_id":"3562253701","tag":{"amenity":"waste_disposal"}},"type":"Feature"},
	{"geometry":{"coordinates":[30.406543,50.468446],"type":"Point"},"properties":{"osm_id":"3750744325","tag":{"amenity":"waste_disposal"}},"type":"Feature"},
	{"geometry":{"coordinates":[30.406573,50.469529],"type":"Point"},"properties":{"osm_id":"3750744525","tag":{"amenity":"waste_disposal"}},"type":"Feature"},
	{"geometry":{"coordinates":[30.408393,50.459836],"type":"Point"},"properties":{"osm_id":"3804437961","tag":{"amenity":"waste_disposal"}},"type":"Feature"},
	{"geometry":{"coordinates":[30.409849,50.459822],"type":"Point"},"properties":{"osm_id":"3804438087","tag":{"amenity":"waste_disposal"}},"type":"Feature"},
	{"geometry":{"coordinates":[30.40898,50.463256],"type":"Point"},"properties":{"osm_id":"3806108801","tag":{"amenity":"waste_disposal"}},"type":"Feature"},
	{"geometry":{"coordinates":[30.402979,50.458111],"type":"Point"},"properties":{"osm_id":"3819110059","tag":{"access":"yes","amenity":"waste_disposal","capacity":"1","material":"steel","operator":"\u00d0\u009a\u00d0\u00b8\u00d1\u0097\u00d0\u00b2\u00d1\u0081\u00d0\u00ba\u00d0\u00b8\u00d0\u00b9 \u00d0\u00bc\u00d0\u00b5\u00d1\u0082\u00d1\u0080\u00d0\u00be\u00d0\u00bf\u00d0\u00be\u00d0\u00bb\u00d1\u0096\u00d1\u0082\u00d0\u00b5\u00d0\u00bd","waste":"trash"}},"type":"Feature"},
	{"geometry":{"coordinates":[30.405169,50.46846],"type":"Point"},"properties":{"osm_id":"3874596167","tag":{"access":"yes","amenity":"waste_disposal","capacity":"1","material":"steel","waste":"trash"}},"type":"Feature"},
	{"geometry":{"coordinates":[30.405104,50.470839],"type":"Point"},"properties":{"osm_id":"3874597261","tag":{"access":"yes","amenity":"waste_disposal","capacity":"1","material":"steel","operator":"\u00d0\u00a9\u00d0\u00b5\u00d1\u0080\u00d0\u00b1\u00d0\u00b0\u00d0\u00ba\u00d0\u00be\u00d0\u00b2\u00d1\u0081\u00d0\u00ba\u00d0\u00be\u00d0\u00b3\u00d0\u00be 43","waste":"trash"}},"type":"Feature"},
	{"geometry":{"coordinates":[30.40522,50.464312],"type":"Point"},"properties":{"osm_id":"3874597367","tag":{"access":"yes","amenity":"waste_disposal","capacity":"1","material":"plastic","waste":"trash"}},"type":"Feature"},
	{"geometry":{"coordinates":[30.409242,50.457769],"type":"Point"},"properties":{"osm_id":"4056927592","tag":{"amenity":"waste_disposal"}},"type":"Feature"},
	{"geometry":{"coordinates":[30.344937,50.46344],"type":"Point"},"properties":{"osm_id":"4071565224","tag":{"amenity":"waste_disposal"}},"type":"Feature"},
	{"geometry":{"coordinates":[30.406734,50.464561],"type":"Point"},"properties":{"osm_id":"4103393993","tag":{"access":"yes","amenity":"waste_disposal","capacity":"1","material":"plastic","waste":"trash"}},"type":"Feature"},
	{"geometry":{"coordinates":[30.364752,50.458534],"type":"Point"},"properties":{"osm_id":"4252481499","tag":{"access":"yes","amenity":"waste_disposal","capacity":"1","material":"plastic","waste":"trash"}},"type":"Feature"},
	{"geometry":{"coordinates":[30.365154,50.460234],"type":"Point"},"properties":{"osm_id":"4252610193","tag":{"amenity":"recycling","opening_hours":"Mo-Fr 10:00-20:00","recycling:cans":"yes","recycling:cardboard":"yes","recycling:glass_bottles":"yes","recycling:paper":"yes","recycling:plastic_bottles":"yes","recycling:plastic_packaging":"yes","recycling_type":"centre"}},"type":"Feature"},
	{"geometry":{"coordinates":[30.399708,50.481295],"type":"Point"},"properties":{"osm_id":"4307986399","tag":{"access":"yes","amenity":"waste_disposal","capacity":"1","material":"steel","waste":"trash"}},"type":"Feature"},
	{"geometry":{"coordinates":[30.402791,50.481246],"type":"Point"},"properties":{"osm_id":"4307986403","tag":{"access":"yes","amenity":"waste_disposal","capacity":"1","material":"steel","operator":"\u00d0\u00a1\u00d1\u0082\u00d0\u00b5\u00d1\u0086\u00d0\u00b5\u00d0\u00bd\u00d0\u00ba\u00d0\u00be 13","waste":"trash"}},"type":"Feature"},
	{"geometry":{"coordinates":[30.396959,50.480383],"type":"Point"},"properties":{"osm_id":"4308042991","tag":{"amenity":"waste_disposal"}},"type":"Feature"},
	{"geometry":{"coordinates":[30.402721,50.479893],"type":"Point"},"properties":{"osm_id":"4308063692","tag":{"access":"yes","amenity":"waste_disposal","capacity":"1","material":"steel","operator":"\u00d0\u00a9\u00d0\u00b5\u00d1\u0080\u00d0\u00b1\u00d0\u00b0\u00d0\u00ba\u00d0\u00be\u00d0\u00b2\u00d1\u0081\u00d0\u00ba\u00d0\u00be\u00d0\u00b3\u00d0\u00be 63\u00d0\u0091","waste":"trash"}},"type":"Feature"},
	{"geometry":{"coordinates":[30.406988,50.476015],"type":"Point"},"properties":{"osm_id":"4316097505","tag":{"access":"yes","amenity":"waste_disposal","capacity":"1","material":"plastic","waste":"trash"}},"type":"Feature"},
	{"geometry":{"coordinates":[30.406691,50.477813],"type":"Point"},"properties":{"osm_id":"4316234209","tag":{"access":"yes","amenity":"waste_disposal","capacity":"1","material":"steel","waste":"trash"}},"type":"Feature"},
	{"geometry":{"coordinates":[30.406704,50.473218],"type":"Point"},"properties":{"osm_id":"4316253697","tag":{"amenity":"waste_disposal"}},"type":"Feature"},
	{"geometry":{"coordinates":[30.407767,50.478928],"type":"Point"},"properties":{"osm_id":"4316253903","tag":{"access":"yes","amenity":"waste_disposal","capacity":"1","material":"plastic","waste":"trash"}},"type":"Feature"},
	{"geometry":{"coordinates":[30.410096,50.472839],"type":"Point"},"properties":{"osm_id":"4316263890","tag":{"access":"yes","amenity":"waste_disposal","capacity":"1","material":"plastic","waste":"trash"}},"type":"Feature"},
	{"geometry":{"coordinates":[30.404829,50.492382],"type":"Point"},"properties":{"osm_id":"4328361608","tag":{"amenity":"waste_disposal"}},"type":"Feature"},
	{"geometry":{"coordinates":[30.409082,50.483158],"type":"Point"},"properties":{"osm_id":"4328361649","tag":{"amenity":"waste_disposal"}},"type":"Feature"},
	{"geometry":{"coordinates":[30.407139,50.490397],"type":"Point"},"properties":{"osm_id":"4328369340","tag":{"amenity":"waste_disposal"}},"type":"Feature"},
	{"geometry":{"coordinates":[30.407078,50.489242],"type":"Point"},"properties":{"osm_id":"4328393699","tag":{"amenity":"waste_disposal"}},"type":"Feature"},
	{"geometry":{"coordinates":[30.409104,50.488462],"type":"Point"},"properties":{"osm_id":"4328393702","tag":{"amenity":"waste_disposal"}},"type":"Feature"},
	{"geometry":{"coordinates":[30.409833,50.482924],"type":"Point"},"properties":{"osm_id":"4330457010","tag":{"amenity":"waste_disposal"}},"type":"Feature"},
	{"geometry":{"coordinates":[30.407039,50.481776],"type":"Point"},"properties":{"osm_id":"4331497014","tag":{"amenity":"waste_disposal"}},"type":"Feature"},
	{"geometry":{"coordinates":[30.408001,50.471626],"type":"Point"},"properties":{"osm_id":"4337539301","tag":{"amenity":"waste_disposal"}},"type":"Feature"},
	{"geometry":{"coordinates":[30.406609,50.472765],"type":"Point"},"properties":{"osm_id":"4356336328","tag":{"access":"yes","amenity":"waste_disposal","capacity":"1","material":"plastic","waste":"trash"}},"type":"Feature"},
	{"geometry":{"coordinates":[30.345066,50.478003],"type":"Point"},"properties":{"osm_id":"4504614992","tag":{"amenity":"waste_disposal"}},"type":"Feature"},
	{"geometry":{"coordinates":[30.364239,50.460388],"type":"Point"},"properties":{"osm_id":"4555413987","tag":{"access":"yes","amenity":"waste_disposal","capacity":"1","material":"steel","waste":"trash"}},"type":"Feature"},
	{"geometry":{"coordinates":[30.364207,50.46063],"type":"Point"},"properties":{"osm_id":"4555413988","tag":{"access":"yes","amenity":"waste_disposal","capacity":"1","material":"steel","waste":"trash"}},"type":"Feature"},
	{"geometry":{"coordinates":[30.36418,50.460844],"type":"Point"},"properties":{"osm_id":"4555414989","tag":{"access":"yes","amenity":"waste_disposal","capacity":"1","material":"steel","waste":"trash"}},"type":"Feature"},
	{"geometry":{"coordinates":[30.364153,50.461037],"type":"Point"},"properties":{"osm_id":"4555414990","tag":{"access":"yes","amenity":"waste_disposal","capacity":"1","material":"steel","waste":"trash"}},"type":"Feature"},
	{"geometry":{"coordinates":[30.408298,50.469316],"type":"Point"},"properties":{"osm_id":"4809828198","tag":{"amenity":"waste_disposal"}},"type":"Feature"},
	{"geometry":{"coordinates":[30.39739,50.45861],"type":"Point"},"properties":{"name":"\u00d0\u009a\u00d0\u00b8\u00d1\u0097\u00d0\u00b2\u00d0\u00bc\u00d1\u0096\u00d1\u0081\u00d1\u008c\u00d0\u00ba\u00d0\u00b2\u00d1\u0082\u00d0\u00be\u00d1\u0080\u00d1\u0080\u00d0\u00b5\u00d1\u0081\u00d1\u0083\u00d1\u0080\u00d1\u0081\u00d0\u00b8","osm_id":"4840241331","tag":{"amenity":"recycling","name:uk":"\u00d0\u009a\u00d0\u00b8\u00d1\u0097\u00d0\u00b2\u00d0\u00bc\u00d1\u0096\u00d1\u0081\u00d1\u008c\u00d0\u00ba\u00d0\u00b2\u00d1\u0082\u00d0\u00be\u00d1\u0080\u00d1\u0080\u00d0\u00b5\u00d1\u0081\u00d1\u0083\u00d1\u0080\u00d1\u0081\u00d0\u00b8","operator":"\u00d0\u009a\u00d0\u00b8\u00d1\u0097\u00d0\u00b2\u00d0\u00bc\u00d1\u0096\u00d1\u0081\u00d1\u008c\u00d0\u00ba\u00d0\u00b2\u00d1\u0082\u00d0\u00be\u00d1\u0080\u00d1\u0080\u00d0\u00b5\u00d1\u0081\u00d1\u0083\u00d1\u0080\u00d1\u0081\u00d0\u00b8"}},"type":"Feature"},
	{"geometry":{"coordinates":[30.397208,50.458729],"type":"Point"},"properties":{"osm_id":"4840242323","tag":{"access":"yes","amenity":"waste_disposal","capacity":"1","material":"steel","operator":"\u00d0\u009f\u00d0\u00b5\u00d1\u0080\u00d0\u00b5\u00d0\u00bc\u00d0\u00be\u00d0\u00b3\u00d0\u00b8 98/2","waste":"trash"}},"type":"Feature"},
	{"geometry":{"coordinates":[30.325541,50.459254],"type":"Point"},"properties":{"osm_id":"4844947955","tag":{"amenity":"waste_disposal"}},"type":"Feature"},
	{"geometry":{"coordinates":[30.363693,50.464854],"type":"Point"},"properties":{"osm_id":"4884314321","tag":{"amenity":"waste_disposal"}},"type":"Feature"},
	{"geometry":{"coordinates":[30.340125,50.478744],"type":"Point"},"properties":{"osm_id":"4895746521","tag":{"amenity":"waste_disposal"}},"type":"Feature"},
	{"geometry":{"coordinates":[30.366434,50.463274],"type":"Point"},"properties":{"osm_id":"4915616809","tag":{"amenity":"waste_disposal"}},"type":"Feature"},
	{"geometry":{"coordinates":[30.365135,50.4623],"type":"Point"},"properties":{"osm_id":"4915616813","tag":{"access":"yes","amenity":"waste_disposal","capacity":"1","material":"steel","waste":"trash"}},"type":"Feature"},
	{"geometry":{"coordinates":[30.365035,50.488902],"type":"Point"},"properties":{"osm_id":"4988886324","tag":{"amenity":"waste_disposal"}},"type":"Feature"},
	{"geometry":{"coordinates":[30.343401,50.492089],"type":"Point"},"properties":{"osm_id":"5037443624","tag":{"amenity":"waste_disposal"}},"type":"Feature"},
	{"geometry":{"coordinates":[30.34476,50.4917],"type":"Point"},"properties":{"osm_id":"5037443625","tag":{"amenity":"waste_disposal"}},"type":"Feature"},
	{"geometry":{"coordinates":[30.364623,50.461977],"type":"Point"},"properties":{"osm_id":"5073635931","tag":{"access":"yes","amenity":"waste_disposal","capacity":"1","material":"plastic","waste":"trash"}},"type":"Feature"},
	{"geometry":{"coordinates":[30.364626,50.461324],"type":"Point"},"properties":{"osm_id":"5073635932","tag":{"access":"yes","amenity":"waste_disposal","capacity":"1","material":"plastic","waste":"trash"}},"type":"Feature"},
	{"geometry":{"coordinates":[30.346049,50.493438],"type":"Point"},"properties":{"osm_id":"5122428123","tag":{"amenity":"waste_disposal"}},"type":"Feature"},
	{"geometry":{"coordinates":[30.344903,50.460721],"type":"Point"},"properties":{"osm_id":"5346286221","tag":{"amenity":"waste_basket"}},"type":"Feature"},
	{"geometry":{"coordinates":[30.344503,50.460698],"type":"Point"},"properties":{"osm_id":"5346286222","tag":{"amenity":"waste_basket"}},"type":"Feature"},
	{"geometry":{"coordinates":[30.344907,50.460774],"type":"Point"},"properties":{"osm_id":"5346286223","tag":{"amenity":"waste_disposal","operator":"\u00d0\u00a6\u00d0\u00b5\u00d1\u0080\u00d0\u00ba\u00d0\u00b2\u00d0\u00b0"}},"type":"Feature"},
	{"geometry":{"coordinates":[30.354797,50.468463],"type":"Point"},"properties":{"osm_id":"5598738541","tag":{"amenity":"recycling","recycling_type":"centre"}},"type":"Feature"},
	{"geometry":{"coordinates":[30.363691,50.457949],"type":"Point"},"properties":{"osm_id":"5789473916","tag":{"amenity":"waste_basket"}},"type":"Feature"},
	{"geometry":{"coordinates":[30.407769,50.489227],"type":"Point"},"properties":{"osm_id":"5905025525","tag":{"amenity":"waste_disposal"}},"type":"Feature"},
	{"geometry":{"coordinates":[30.409049,50.489207],"type":"Point"},"properties":{"osm_id":"5905025526","tag":{"amenity":"waste_disposal"}},"type":"Feature"},
	{"geometry":{"coordinates":[30.367202,50.462205],"type":"Point"},"properties":{"osm_id":"5928588176","tag":{"access":"yes","amenity":"waste_disposal","capacity":"1","material":"steel","waste":"trash"}},"type":"Feature"},
	{"geometry":{"coordinates":[30.365429,50.462312],"type":"Point"},"properties":{"osm_id":"5928588177","tag":{"access":"yes","amenity":"waste_disposal","capacity":"1","material":"steel","waste":"trash"}},"type":"Feature"},
	{"geometry":{"coordinates":[30.368589,50.463039],"type":"Point"},"properties":{"osm_id":"5941092645","tag":{"amenity":"waste_disposal"}},"type":"Feature"},
	{"geometry":{"coordinates":[30.338201,50.47277],"type":"Point"},"properties":{"osm_id":"6227550822","tag":{"addr:housenumber":"3","addr:street":"\u00d0\u009f\u00d1\u0096\u00d0\u00b4\u00d0\u00bb\u00d1\u0096\u00d1\u0081\u00d0\u00bd\u00d0\u00b0 \u00d0\u00b2\u00d1\u0083\u00d0\u00bb\u00d0\u00b8\u00d1\u0086\u00d1\u008f","amenity":"recycling","recycling_type":"container"}},"type":"Feature"},
	{"geometry":{"coordinates":[30.39,50.482262],"type":"Point"},"properties":{"osm_id":"6415905504","tag":{"amenity":"waste_disposal"}},"type":"Feature"},
	{"geometry":{"coordinates":[30.405116,50.474924],"type":"Point"},"properties":{"osm_id":"6444896753","tag":{"access":"yes","amenity":"waste_disposal","capacity":"1","material":"steel","waste":"trash"}},"type":"Feature"},
	{"geometry":{"coordinates":[30.404234,50.475195],"type":"Point"},"properties":{"osm_id":"6444896754","tag":{"amenity":"waste_disposal","operator":"\u00d0\u00a9\u00d0\u00b5\u00d1\u0080\u00d0\u00b1\u00d0\u00b0\u00d0\u00ba\u00d0\u00be\u00d0\u00b2\u00d1\u0081\u00d0\u00ba\u00d0\u00be\u00d0\u00b3\u00d0\u00be 53\u00d0\u0090"}},"type":"Feature"},
	{"geometry":{"coordinates":[30.398736,50.472764],"type":"Point"},"properties":{"osm_id":"6461833726","tag":{"access":"yes","amenity":"waste_disposal","capacity":"1","material":"steel","waste":"trash"}},"type":"Feature"},
	{"geometry":{"coordinates":[30.400034,50.473993],"type":"Point"},"properties":{"osm_id":"6461833727","tag":{"access":"yes","amenity":"waste_disposal","capacity":"1","material":"steel","waste":"trash"}},"type":"Feature"},
	{"geometry":{"coordinates":[30.401018,50.475321],"type":"Point"},"properties":{"osm_id":"6487689275","tag":{"access":"yes","amenity":"waste_disposal","capacity":"1","material":"steel","waste":"trash"}},"type":"Feature"},
	{"geometry":{"coordinates":[30.408642,50.462285],"type":"Point"},"properties":{"osm_id":"6577531240","tag":{"access":"yes","amenity":"waste_disposal","capacity":"1","material":"steel","waste":"trash"}},"type":"Feature"},
	{"geometry":{"coordinates":[30.408935,50.462557],"type":"Point"},"properties":{"osm_id":"6577531241","tag":{"access":"yes","amenity":"waste_disposal","capacity":"1","material":"steel","waste":"trash"}},"type":"Feature"},
	{"geometry":{"coordinates":[30.409385,50.461935],"type":"Point"},"properties":{"osm_id":"6577531242","tag":{"access":"yes","amenity":"waste_disposal","capacity":"1","material":"steel","waste":"trash"}},"type":"Feature"},
	{"geometry":{"coordinates":[30.407308,50.467539],"type":"Point"},"properties":{"osm_id":"6587259447","tag":{"access":"yes","amenity":"waste_disposal","capacity":"1","material":"steel","waste":"trash"}},"type":"Feature"},
	{"geometry":{"coordinates":[30.407322,50.46754],"type":"Point"},"properties":{"osm_id":"6587259448","tag":{"access":"yes","amenity":"waste_disposal","capacity":"1","material":"steel","waste":"trash"}},"type":"Feature"},
	{"geometry":{"coordinates":[30.407337,50.46754],"type":"Point"},"properties":{"osm_id":"6587259449","tag":{"access":"yes","amenity":"waste_disposal","capacity":"1","material":"steel","waste":"trash"}},"type":"Feature"},
	{"geometry":{"coordinates":[30.407351,50.467539],"type":"Point"},"properties":{"osm_id":"6587259450","tag":{"access":"yes","amenity":"waste_disposal","capacity":"1","material":"steel","waste":"trash"}},"type":"Feature"},
	{"geometry":{"coordinates":[30.406452,50.465762],"type":"Point"},"properties":{"osm_id":"6587259451","tag":{"access":"yes","amenity":"waste_disposal","capacity":"1","material":"steel","waste":"trash"}},"type":"Feature"},
	{"geometry":{"coordinates":[30.406454,50.465746],"type":"Point"},"properties":{"osm_id":"6587259452","tag":{"access":"yes","amenity":"waste_disposal","capacity":"1","material":"steel","waste":"trash"}},"type":"Feature"},
	{"geometry":{"coordinates":[30.406452,50.465727],"type":"Point"},"properties":{"osm_id":"6587259453","tag":{"access":"yes","amenity":"waste_disposal","capacity":"1","material":"steel","waste":"trash"}},"type":"Feature"},
	{"geometry":{"coordinates":[30.406734,50.464556],"type":"Point"},"properties":{"osm_id":"6587259454","tag":{"access":"yes","amenity":"waste_disposal","capacity":"1","material":"plastic","waste":"trash"}},"type":"Feature"},
	{"geometry":{"coordinates":[30.406734,50.464552],"type":"Point"},"properties":{"osm_id":"6587259455","tag":{"access":"yes","amenity":"waste_disposal","capacity":"1","material":"steel","waste":"recycling"}},"type":"Feature"},
	{"geometry":{"coordinates":[30.406734,50.464545],"type":"Point"},"properties":{"osm_id":"6587259456","tag":{"access":"yes","amenity":"waste_disposal","capacity":"1","material":"steel","waste":"trash"}},"type":"Feature"},
	{"geometry":{"coordinates":[30.405218,50.464324],"type":"Point"},"properties":{"osm_id":"6587259457","tag":{"access":"yes","amenity":"waste_disposal","capacity":"1","material":"steel","operator":"\u00d0\u00a9\u00d0\u00b5\u00d1\u0080\u00d0\u00b1\u00d0\u00b0\u00d0\u00ba\u00d0\u00be\u00d0\u00b2\u00d1\u0081\u00d0\u00ba\u00d0\u00be\u00d0\u00b3\u00d0\u00be 31/40","waste":"trash"}},"type":"Feature"},
	{"geometry":{"coordinates":[30.399758,50.461606],"type":"Point"},"properties":{"osm_id":"6587259458","tag":{"access":"yes","amenity":"waste_disposal","capacity":"1","material":"steel","waste":"trash"}},"type":"Feature"},
	{"geometry":{"coordinates":[30.399754,50.46163],"type":"Point"},"properties":{"osm_id":"6587259459","tag":{"access":"yes","amenity":"waste_disposal","capacity":"1","material":"steel","waste":"trash"}},"type":"Feature"},
	{"geometry":{"coordinates":[30.399759,50.461582],"type":"Point"},"properties":{"osm_id":"6587259460","tag":{"access":"yes","amenity":"waste_disposal","capacity":"1","material":"steel","waste":"trash"}},"type":"Feature"},
	{"geometry":{"coordinates":[30.399084,50.459514],"type":"Point"},"properties":{"osm_id":"6587259461","tag":{"access":"yes","amenity":"waste_disposal","capacity":"1","material":"steel","waste":"trash"}},"type":"Feature"},
	{"geometry":{"coordinates":[30.399094,50.459503],"type":"Point"},"properties":{"osm_id":"6587259462","tag":{"access":"yes","amenity":"waste_disposal","capacity":"1","material":"steel","operator":"\u00d0\u009d\u00d0\u00b5\u00d0\u00b2\u00d1\u0081\u00d0\u00ba\u00d0\u00b0\u00d1\u008f 3/5","waste":"trash"}},"type":"Feature"},
	{"geometry":{"coordinates":[30.399377,50.459301],"type":"Point"},"properties":{"osm_id":"6587259464","tag":{"access":"yes","amenity":"waste_disposal","capacity":"1","material":"steel","waste":"trash"}},"type":"Feature"},
	{"geometry":{"coordinates":[30.398397,50.458841],"type":"Point"},"properties":{"osm_id":"6587259465","tag":{"access":"yes","amenity":"waste_disposal","capacity":"1","material":"steel","waste":"trash"}},"type":"Feature"},
	{"geometry":{"coordinates":[30.398357,50.458833],"type":"Point"},"properties":{"osm_id":"6587259466","tag":{"access":"yes","amenity":"waste_disposal","capacity":"1","material":"steel","waste":"trash"}},"type":"Feature"},
	{"geometry":{"coordinates":[30.397215,50.458708],"type":"Point"},"properties":{"osm_id":"6587259467","tag":{"access":"yes","amenity":"waste_disposal","capacity":"1","material":"steel","waste":"trash"}},"type":"Feature"},
	{"geometry":{"coordinates":[30.396698,50.460189],"type":"Point"},"properties":{"osm_id":"6587259468","tag":{"access":"yes","amenity":"waste_disposal","capacity":"1","material":"steel","waste":"trash"}},"type":"Feature"},
	{"geometry":{"coordinates":[30.396744,50.46019],"type":"Point"},"properties":{"osm_id":"6587259469","tag":{"access":"yes","amenity":"waste_disposal","capacity":"1","material":"steel","operator":"\u00d0\u00a2\u00d1\u0083\u00d0\u00bf\u00d0\u00be\u00d0\u00bb\u00d0\u00b5\u00d0\u00b2\u00d0\u00b0 4","waste":"recycling"}},"type":"Feature"},
	{"geometry":{"coordinates":[30.397688,50.460121],"type":"Point"},"properties":{"osm_id":"6587259470","tag":{"access":"yes","amenity":"waste_disposal","capacity":"1","material":"steel","operator":"Veolia","waste":"trash"}},"type":"Feature"},
	{"geometry":{"coordinates":[30.399059,50.464343],"type":"Point"},"properties":{"osm_id":"6587259471","tag":{"access":"yes","amenity":"waste_disposal","capacity":"1","material":"steel","waste":"trash"}},"type":"Feature"},
	{"geometry":{"coordinates":[30.405172,50.465062],"type":"Point"},"properties":{"osm_id":"6587259472","tag":{"access":"yes","amenity":"waste_disposal","capacity":"1","material":"steel","operator":"\u00d0\u00a9\u00d0\u00b5\u00d1\u0080\u00d0\u00b1\u00d0\u00b0\u00d0\u00ba\u00d0\u00be\u00d0\u00b2\u00d1\u0081\u00d0\u00ba\u00d0\u00be\u00d0\u00b3\u00d0\u00be 31\u00d0\u00b0","waste":"trash"}},"type":"Feature"},
	{"geometry":{"coordinates":[30.405145,50.465058],"type":"Point"},"properties":{"osm_id":"6587259473","tag":{"access":"yes","amenity":"waste_disposal","capacity":"1","material":"steel","waste":"recycling"}},"type":"Feature"},
	{"geometry":{"coordinates":[30.405174,50.466364],"type":"Point"},"properties":{"osm_id":"6587259474","tag":{"access":"yes","amenity":"waste_disposal","capacity":"1","material":"steel","operator":"\u00d0\u00a9\u00d0\u00b5\u00d1\u0080\u00d0\u00b1\u00d0\u00b0\u00d0\u00ba\u00d0\u00be\u00d0\u00b2\u00d1\u0081\u00d0\u00ba\u00d0\u00be\u00d0\u00b3\u00d0\u00be 33","waste":"trash"}},"type":"Feature"},
	{"geometry":{"coordinates":[30.405162,50.466957],"type":"Point"},"properties":{"osm_id":"6587259475","tag":{"access":"yes","amenity":"waste_disposal","capacity":"1","material":"steel","operator":"\u00d0\u00a9\u00d0\u00b5\u00d1\u0080\u00d0\u00b1\u00d0\u00b0\u00d0\u00ba\u00d0\u00be\u00d0\u00b2\u00d1\u0081\u00d0\u00ba\u00d0\u00be\u00d0\u00b3\u00d0\u00be 35","waste":"trash"}},"type":"Feature"},
	{"geometry":{"coordinates":[30.405155,50.468437],"type":"Point"},"properties":{"osm_id":"6587259476","tag":{"access":"yes","amenity":"waste_disposal","capacity":"1","material":"steel","operator":"\u00d0\u00a9\u00d0\u00b5\u00d1\u0080\u00d0\u00b1\u00d0\u00b0\u00d0\u00ba\u00d0\u00be\u00d0\u00b2\u00d1\u0081\u00d0\u00ba\u00d0\u00be\u00d0\u00b3\u00d0\u00be 39","waste":"trash"}},"type":"Feature"},
	{"geometry":{"coordinates":[30.40516,50.469942],"type":"Point"},"properties":{"osm_id":"6587259477","tag":{"access":"yes","amenity":"waste_disposal","capacity":"1","material":"steel","operator":"\u00d0\u00a9\u00d0\u00b5\u00d1\u0080\u00d0\u00b1\u00d0\u00b0\u00d0\u00ba\u00d0\u00be\u00d0\u00b2\u00d1\u0081\u00d0\u00ba\u00d0\u00be\u00d0\u00b3\u00d0\u00be 41","waste":"trash"}},"type":"Feature"},
	{"geometry":{"coordinates":[30.405104,50.470871],"type":"Point"},"properties":{"osm_id":"6587259478","tag":{"access":"yes","amenity":"waste_disposal","capacity":"1","material":"steel","operator":"\u00d0\u00a9\u00d0\u00b5\u00d1\u0080\u00d0\u00b1\u00d0\u00b0\u00d0\u00ba\u00d0\u00be\u00d0\u00b2\u00d1\u0081\u00d0\u00ba\u00d0\u00be\u00d0\u00b3\u00d0\u00be 43","waste":"trash"}},"type":"Feature"},
	{"geometry":{"coordinates":[30.405108,50.470911],"type":"Point"},"properties":{"osm_id":"6587259479","tag":{"access":"yes","amenity":"waste_disposal","capacity":"1","material":"steel","operator":"\u00d0\u00a9\u00d0\u00b5\u00d1\u0080\u00d0\u00b1\u00d0\u00b0\u00d0\u00ba\u00d0\u00be\u00d0\u00b2\u00d1\u0081\u00d0\u00ba\u00d0\u00be\u00d0\u00b3\u00d0\u00be 43","waste":"trash"}},"type":"Feature"},
	{"geometry":{"coordinates":[30.402514,50.472932],"type":"Point"},"properties":{"osm_id":"6587259480","tag":{"access":"yes","amenity":"waste_disposal","capacity":"1","material":"steel","operator":"\u00d0\u00a1\u00d0\u00b0\u00d0\u00bb\u00d1\u008e\u00d1\u0082\u00d0\u00bd\u00d0\u00b0\u00d1\u008f 5","waste":"trash"}},"type":"Feature"},
	{"geometry":{"coordinates":[30.401879,50.472843],"type":"Point"},"properties":{"osm_id":"6587259481","tag":{"access":"yes","amenity":"waste_disposal","capacity":"1","material":"steel","waste":"trash"}},"type":"Feature"},
	{"geometry":{"coordinates":[30.401821,50.472833],"type":"Point"},"properties":{"osm_id":"6587259482","tag":{"access":"yes","amenity":"waste_disposal","capacity":"1","material":"steel","waste":"trash"}},"type":"Feature"},
	{"geometry":{"coordinates":[30.401766,50.472833],"type":"Point"},"properties":{"osm_id":"6587259483","tag":{"access":"yes","amenity":"waste_disposal","capacity":"1","material":"steel","waste":"trash"}},"type":"Feature"},
	{"geometry":{"coordinates":[30.401723,50.472828],"type":"Point"},"properties":{"osm_id":"6587259484","tag":{"access":"yes","amenity":"waste_disposal","capacity":"1","material":"plastic","waste":"trash"}},"type":"Feature"},
	{"geometry":{"coordinates":[30.401669,50.472833],"type":"Point"},"properties":{"osm_id":"6587277685","tag":{"access":"yes","amenity":"waste_disposal","capacity":"1","material":"plastic","waste":"trash"}},"type":"Feature"},
	{"geometry":{"coordinates":[30.400143,50.472165],"type":"Point"},"properties":{"osm_id":"6587277686","tag":{"access":"yes","amenity":"waste_disposal","capacity":"1","material":"steel","waste":"trash"}},"type":"Feature"},
	{"geometry":{"coordinates":[30.400127,50.472165],"type":"Point"},"properties":{"osm_id":"6587277687","tag":{"access":"yes","amenity":"waste_disposal","capacity":"1","material":"steel","waste":"trash"}},"type":"Feature"},
	{"geometry":{"coordinates":[30.400109,50.472165],"type":"Point"},"properties":{"osm_id":"6587277688","tag":{"access":"yes","amenity":"waste_disposal","capacity":"1","material":"steel","waste":"trash"}},"type":"Feature"},
	{"geometry":{"coordinates":[30.398653,50.472055],"type":"Point"},"properties":{"osm_id":"6587277689","tag":{"access":"yes","amenity":"waste_disposal","capacity":"1","material":"steel","waste":"trash"}},"type":"Feature"},
	{"geometry":{"coordinates":[30.39864,50.472055],"type":"Point"},"properties":{"osm_id":"6587277690","tag":{"access":"yes","amenity":"waste_disposal","capacity":"1","material":"steel","waste":"trash"}},"type":"Feature"},
	{"geometry":{"coordinates":[30.398625,50.472054],"type":"Point"},"properties":{"osm_id":"6587277691","tag":{"access":"yes","amenity":"waste_disposal","capacity":"1","material":"steel","waste":"trash"}},"type":"Feature"},
	{"geometry":{"coordinates":[30.398659,50.473919],"type":"Point"},"properties":{"osm_id":"6587277692","tag":{"access":"yes","amenity":"waste_disposal","capacity":"1","material":"steel","waste":"trash"}},"type":"Feature"},
	{"geometry":{"coordinates":[30.398633,50.473918],"type":"Point"},"properties":{"osm_id":"6587277693","tag":{"access":"yes","amenity":"waste_disposal","capacity":"1","material":"steel","waste":"trash"}},"type":"Feature"},
	{"geometry":{"coordinates":[30.39811,50.473989],"type":"Point"},"properties":{"osm_id":"6587277694","tag":{"access":"yes","amenity":"waste_disposal","capacity":"1","material":"steel","waste":"trash"}},"type":"Feature"},
	{"geometry":{"coordinates":[30.39751,50.47422],"type":"Point"},"properties":{"osm_id":"6587277695","tag":{"access":"yes","amenity":"waste_disposal","capacity":"1","material":"steel","waste":"trash"}},"type":"Feature"},
	{"geometry":{"coordinates":[30.396989,50.474615],"type":"Point"},"properties":{"osm_id":"6587277696","tag":{"access":"yes","amenity":"waste_disposal","capacity":"1","material":"steel","waste":"trash"}},"type":"Feature"},
	{"geometry":{"coordinates":[30.39698,50.474666],"type":"Point"},"properties":{"osm_id":"6587277697","tag":{"access":"yes","amenity":"waste_disposal","capacity":"1","material":"steel","waste":"trash"}},"type":"Feature"},
	{"geometry":{"coordinates":[30.396511,50.474804],"type":"Point"},"properties":{"osm_id":"6587277698","tag":{"access":"yes","amenity":"waste_disposal","capacity":"1","material":"steel","waste":"trash"}},"type":"Feature"},
	{"geometry":{"coordinates":[30.39647,50.474801],"type":"Point"},"properties":{"osm_id":"6587277699","tag":{"access":"yes","amenity":"waste_disposal","capacity":"1","material":"steel","waste":"trash"}},"type":"Feature"},
	{"geometry":{"coordinates":[30.399992,50.473992],"type":"Point"},"properties":{"osm_id":"6587277700","tag":{"access":"yes","amenity":"waste_disposal","capacity":"1","material":"steel","waste":"trash"}},"type":"Feature"},
	{"geometry":{"coordinates":[30.400344,50.474706],"type":"Point"},"properties":{"osm_id":"6587277701","tag":{"access":"yes","amenity":"waste_disposal","capacity":"1","material":"steel","waste":"trash"}},"type":"Feature"},
	{"geometry":{"coordinates":[30.400023,50.475469],"type":"Point"},"properties":{"osm_id":"6587277702","tag":{"access":"yes","amenity":"waste_disposal","capacity":"1","material":"steel","waste":"trash"}},"type":"Feature"},
	{"geometry":{"coordinates":[30.400062,50.475471],"type":"Point"},"properties":{"osm_id":"6587277703","tag":{"access":"yes","amenity":"waste_disposal","capacity":"1","material":"steel","waste":"trash"}},"type":"Feature"},
	{"geometry":{"coordinates":[30.399367,50.475659],"type":"Point"},"properties":{"osm_id":"6587277704","tag":{"access":"yes","amenity":"waste_disposal","capacity":"1","material":"steel","waste":"trash"}},"type":"Feature"},
	{"geometry":{"coordinates":[30.401054,50.475326],"type":"Point"},"properties":{"osm_id":"6587277705","tag":{"access":"yes","amenity":"waste_disposal","capacity":"1","material":"steel","waste":"trash"}},"type":"Feature"},
	{"geometry":{"coordinates":[30.398703,50.47684],"type":"Point"},"properties":{"osm_id":"6587416601","tag":{"access":"yes","amenity":"waste_disposal","capacity":"1","material":"steel","waste":"trash"}},"type":"Feature"},
	{"geometry":{"coordinates":[30.398666,50.476826],"type":"Point"},"properties":{"osm_id":"6587416602","tag":{"access":"yes","amenity":"waste_disposal","capacity":"1","material":"steel","waste":"trash"}},"type":"Feature"},
	{"geometry":{"coordinates":[30.397682,50.47688],"type":"Point"},"properties":{"osm_id":"6587416603","tag":{"access":"yes","amenity":"waste_disposal","capacity":"1","material":"steel","waste":"trash"}},"type":"Feature"},
	{"geometry":{"coordinates":[30.397714,50.476846],"type":"Point"},"properties":{"osm_id":"6587416604","tag":{"access":"yes","amenity":"waste_disposal","capacity":"1","material":"steel","waste":"trash"}},"type":"Feature"},
	{"geometry":{"coordinates":[30.396665,50.477434],"type":"Point"},"properties":{"osm_id":"6587416605","tag":{"access":"yes","amenity":"waste_disposal","capacity":"1","material":"steel","waste":"trash"}},"type":"Feature"},
	{"geometry":{"coordinates":[30.397153,50.478289],"type":"Point"},"properties":{"osm_id":"6587416606","tag":{"access":"yes","amenity":"waste_disposal","capacity":"1","material":"steel","waste":"trash"}},"type":"Feature"},
	{"geometry":{"coordinates":[30.397148,50.478253],"type":"Point"},"properties":{"osm_id":"6587416607","tag":{"access":"yes","amenity":"waste_disposal","capacity":"1","material":"steel","waste":"trash"}},"type":"Feature"},
	{"geometry":{"coordinates":[30.398661,50.478249],"type":"Point"},"properties":{"osm_id":"6587416608","tag":{"access":"yes","amenity":"waste_disposal","capacity":"1","material":"steel","waste":"trash"}},"type":"Feature"},
	{"geometry":{"coordinates":[30.398725,50.478231],"type":"Point"},"properties":{"osm_id":"6587416609","tag":{"access":"yes","amenity":"waste_disposal","capacity":"1","material":"steel","waste":"trash"}},"type":"Feature"},
	{"geometry":{"coordinates":[30.398406,50.477995],"type":"Point"},"properties":{"osm_id":"6587416610","tag":{"access":"yes","amenity":"waste_disposal","capacity":"1","material":"steel","waste":"trash"}},"type":"Feature"},
	{"geometry":{"coordinates":[30.398752,50.477937],"type":"Point"},"properties":{"osm_id":"6587416611","tag":{"access":"yes","amenity":"waste_disposal","capacity":"1","material":"steel","waste":"trash"}},"type":"Feature"},
	{"geometry":{"coordinates":[30.397655,50.47976],"type":"Point"},"properties":{"osm_id":"6587416612","tag":{"access":"yes","amenity":"waste_disposal","capacity":"1","material":"steel","waste":"trash"}},"type":"Feature"},
	{"geometry":{"coordinates":[30.396968,50.480383],"type":"Point"},"properties":{"osm_id":"6587416613","tag":{"access":"yes","amenity":"waste_disposal","capacity":"1","material":"steel","waste":"trash"}},"type":"Feature"},
	{"geometry":{"coordinates":[30.396976,50.480382],"type":"Point"},"properties":{"osm_id":"6587416614","tag":{"access":"yes","amenity":"waste_disposal","capacity":"1","material":"steel","waste":"trash"}},"type":"Feature"},
	{"geometry":{"coordinates":[30.396984,50.480382],"type":"Point"},"properties":{"osm_id":"6587416615","tag":{"access":"yes","amenity":"waste_disposal","capacity":"1","material":"steel","waste":"trash"}},"type":"Feature"},
	{"geometry":{"coordinates":[30.396968,50.480367],"type":"Point"},"properties":{"osm_id":"6587416616","tag":{"access":"yes","amenity":"waste_disposal","capacity":"1","material":"steel","waste":"recycling"}},"type":"Feature"},
	{"geometry":{"coordinates":[30.396968,50.480359],"type":"Point"},"properties":{"osm_id":"6587416617","tag":{"access":"yes","amenity":"waste_disposal","capacity":"1","material":"steel","waste":"recycling"}},"type":"Feature"},
	{"geometry":{"coordinates":[30.396968,50.480354],"type":"Point"},"properties":{"osm_id":"6587416618","tag":{"access":"yes","amenity":"waste_disposal","capacity":"1","material":"steel","waste":"recycling"}},"type":"Feature"},
	{"geometry":{"coordinates":[30.397149,50.481228],"type":"Point"},"properties":{"osm_id":"6587416619","tag":{"access":"yes","amenity":"waste_disposal","capacity":"1","material":"steel","waste":"trash"}},"type":"Feature"},
	{"geometry":{"coordinates":[30.39647,50.482361],"type":"Point"},"properties":{"osm_id":"6587416620","tag":{"access":"yes","amenity":"waste_disposal","capacity":"1","material":"steel","waste":"trash"}},"type":"Feature"},
	{"geometry":{"coordinates":[30.396462,50.482383],"type":"Point"},"properties":{"osm_id":"6587416621","tag":{"access":"yes","amenity":"waste_disposal","capacity":"1","material":"steel","waste":"trash"}},"type":"Feature"},
	{"geometry":{"coordinates":[30.397575,50.482797],"type":"Point"},"properties":{"osm_id":"6587416622","tag":{"access":"yes","amenity":"waste_disposal","capacity":"1","material":"steel","waste":"trash"}},"type":"Feature"},
	{"geometry":{"coordinates":[30.398174,50.482803],"type":"Point"},"properties":{"osm_id":"6587416623","tag":{"access":"yes","amenity":"waste_disposal","capacity":"1","material":"steel","waste":"trash"}},"type":"Feature"},
	{"geometry":{"coordinates":[30.398769,50.482806],"type":"Point"},"properties":{"osm_id":"6587416624","tag":{"access":"yes","amenity":"waste_disposal","capacity":"1","material":"steel","waste":"trash"}},"type":"Feature"},
	{"geometry":{"coordinates":[30.401925,50.482686],"type":"Point"},"properties":{"osm_id":"6587416625","tag":{"access":"yes","amenity":"waste_disposal","capacity":"1","material":"steel","waste":"trash"}},"type":"Feature"},
	{"geometry":{"coordinates":[30.401973,50.48266],"type":"Point"},"properties":{"osm_id":"6587416626","tag":{"access":"yes","amenity":"waste_disposal","capacity":"1","material":"steel","waste":"trash"}},"type":"Feature"},
	{"geometry":{"coordinates":[30.401691,50.482557],"type":"Point"},"properties":{"osm_id":"6587416627","tag":{"access":"yes","amenity":"waste_disposal","capacity":"1","material":"steel","waste":"trash"}},"type":"Feature"},
	{"geometry":{"coordinates":[30.40176,50.48131],"type":"Point"},"properties":{"osm_id":"6587416628","tag":{"access":"yes","amenity":"waste_disposal","capacity":"1","material":"steel","operator":"\u00d0\u00a2\u00d1\u0083\u00d1\u0080\u00d1\u0087\u00d0\u00b8\u00d0\u00bd\u00d0\u00b0 3","waste":"trash"}},"type":"Feature"},
	{"geometry":{"coordinates":[30.402135,50.481362],"type":"Point"},"properties":{"osm_id":"6587416629","tag":{"access":"yes","amenity":"waste_disposal","capacity":"1","material":"steel","operator":"\u00d0\u00a2\u00d1\u0083\u00d1\u0080\u00d1\u0087\u00d0\u00b8\u00d0\u00bd\u00d0\u00b0 3","waste":"trash"}},"type":"Feature"},
	{"geometry":{"coordinates":[30.40276,50.481264],"type":"Point"},"properties":{"osm_id":"6587416630","tag":{"access":"yes","amenity":"waste_disposal","capacity":"1","material":"steel","waste":"trash"}},"type":"Feature"},
	{"geometry":{"coordinates":[30.402727,50.481285],"type":"Point"},"properties":{"osm_id":"6587416631","tag":{"access":"yes","amenity":"waste_disposal","capacity":"1","material":"steel","operator":"\u00d0\u00a1\u00d1\u0082\u00d0\u00b5\u00d1\u0086\u00d0\u00b5\u00d0\u00bd\u00d0\u00ba\u00d0\u00be 13","waste":"trash"}},"type":"Feature"},
	{"geometry":{"coordinates":[30.403535,50.480649],"type":"Point"},"properties":{"osm_id":"6587416632","tag":{"access":"yes","amenity":"waste_disposal","capacity":"1","material":"steel","waste":"trash"}},"type":"Feature"},
	{"geometry":{"coordinates":[30.403555,50.480631],"type":"Point"},"properties":{"osm_id":"6587416633","tag":{"access":"yes","amenity":"waste_disposal","capacity":"1","material":"steel","operator":"\u00d0\u00a1\u00d1\u0082\u00d0\u00b5\u00d1\u0086\u00d0\u00b5\u00d0\u00bd\u00d0\u00ba\u00d0\u00be 11","waste":"trash"}},"type":"Feature"},
	{"geometry":{"coordinates":[30.403341,50.480233],"type":"Point"},"properties":{"osm_id":"6587416634","tag":{"access":"yes","amenity":"waste_disposal","capacity":"1","material":"steel","operator":"\u00d0\u00a9\u00d0\u00b5\u00d1\u0080\u00d0\u00b1\u00d0\u00b0\u00d0\u00ba\u00d0\u00be\u00d0\u00b2\u00d1\u0081\u00d0\u00ba\u00d0\u00be\u00d0\u00b3\u00d0\u00be 61\u00d0\u0092","waste":"trash"}},"type":"Feature"},
	{"geometry":{"coordinates":[30.404899,50.47762],"type":"Point"},"properties":{"osm_id":"6587416635","tag":{"access":"yes","amenity":"waste_disposal","capacity":"1","material":"steel","operator":"\u00d0\u00a9\u00d0\u00b5\u00d1\u0080\u00d0\u00b1\u00d0\u00b0\u00d0\u00ba\u00d0\u00be\u00d0\u00b2\u00d1\u0081\u00d0\u00ba\u00d0\u00be\u00d0\u00b3\u00d0\u00be 57","waste":"trash"}},"type":"Feature"},
	{"geometry":{"coordinates":[30.404899,50.477584],"type":"Point"},"properties":{"osm_id":"6587416636","tag":{"access":"yes","amenity":"waste_disposal","capacity":"1","material":"steel","waste":"trash"}},"type":"Feature"},
	{"geometry":{"coordinates":[30.404989,50.476492],"type":"Point"},"properties":{"osm_id":"6587416637","tag":{"access":"yes","amenity":"waste_disposal","capacity":"1","material":"steel","operator":"\u00d0\u00a9\u00d0\u00b5\u00d1\u0080\u00d0\u00b1\u00d0\u00b0\u00d0\u00ba\u00d0\u00be\u00d0\u00b2\u00d1\u0081\u00d0\u00ba\u00d0\u00be\u00d0\u00b3\u00d0\u00be 55","waste":"trash"}},"type":"Feature"},
	{"geometry":{"coordinates":[30.404972,50.476493],"type":"Point"},"properties":{"osm_id":"6587416638","tag":{"access":"yes","amenity":"waste_disposal","capacity":"1","material":"steel","waste":"trash"}},"type":"Feature"},
	{"geometry":{"coordinates":[30.404954,50.476491],"type":"Point"},"properties":{"osm_id":"6587416639","tag":{"access":"yes","amenity":"waste_disposal","capacity":"1","material":"steel","waste":"trash"}},"type":"Feature"},
	{"geometry":{"coordinates":[30.404938,50.476492],"type":"Point"},"properties":{"osm_id":"6587416640","tag":{"access":"yes","amenity":"waste_disposal","capacity":"1","material":"steel","waste":"trash"}},"type":"Feature"},
	{"geometry":{"coordinates":[30.404979,50.475953],"type":"Point"},"properties":{"osm_id":"6587416641","tag":{"access":"yes","amenity":"waste_disposal","capacity":"1","material":"steel","operator":"\u00d0\u00a9\u00d0\u00b5\u00d1\u0080\u00d0\u00b1\u00d0\u00b0\u00d0\u00ba\u00d0\u00be\u00d0\u00b2\u00d1\u0081\u00d0\u00ba\u00d0\u00be\u00d0\u00b3\u00d0\u00be 53","waste":"trash"}},"type":"Feature"},
	{"geometry":{"coordinates":[30.405159,50.474924],"type":"Point"},"properties":{"osm_id":"6587416642","tag":{"access":"yes","amenity":"waste_disposal","capacity":"1","material":"steel","operator":"\u00d0\u00a9\u00d0\u00b5\u00d1\u0080\u00d0\u00b1\u00d0\u00b0\u00d0\u00ba\u00d0\u00be\u00d0\u00b2\u00d1\u0081\u00d0\u00ba\u00d0\u00be\u00d0\u00b3\u00d0\u00be 51","waste":"trash"}},"type":"Feature"},
	{"geometry":{"coordinates":[30.404979,50.474188],"type":"Point"},"properties":{"osm_id":"6587416643","tag":{"access":"yes","amenity":"waste_disposal","capacity":"1","material":"steel","operator":"\u00d0\u00a9\u00d0\u00b5\u00d1\u0080\u00d0\u00b1\u00d0\u00b0\u00d0\u00ba\u00d0\u00be\u00d0\u00b2\u00d1\u0081\u00d0\u00ba\u00d0\u00be\u00d0\u00b3\u00d0\u00be 49","waste":"trash"}},"type":"Feature"},
	{"geometry":{"coordinates":[30.40499,50.474166],"type":"Point"},"properties":{"osm_id":"6587416644","tag":{"access":"yes","amenity":"waste_disposal","capacity":"1","material":"steel","waste":"trash"}},"type":"Feature"},
	{"geometry":{"coordinates":[30.404179,50.473285],"type":"Point"},"properties":{"osm_id":"6587416645","tag":{"access":"yes","amenity":"waste_disposal","capacity":"1","material":"steel","operator":"\u00d0\u00a9\u00d0\u00b5\u00d1\u0080\u00d0\u00b1\u00d0\u00b0\u00d0\u00ba\u00d0\u00be\u00d0\u00b2\u00d1\u0081\u00d0\u00ba\u00d0\u00be\u00d0\u00b3\u00d0\u00be 49\u00d0\u0090","waste":"trash"}},"type":"Feature"},
	{"geometry":{"coordinates":[30.403624,50.473442],"type":"Point"},"properties":{"osm_id":"6587416646","tag":{"access":"yes","amenity":"waste_disposal","capacity":"1","material":"steel","operator":"\u00d0\u00a9\u00d0\u00b5\u00d1\u0080\u00d0\u00b1\u00d0\u00b0\u00d0\u00ba\u00d0\u00be\u00d0\u00b2\u00d1\u0081\u00d0\u00ba\u00d0\u00be\u00d0\u00b3\u00d0\u00be 49\u00d0\u0091","waste":"trash"}},"type":"Feature"},
	{"geometry":{"coordinates":[30.40176,50.473901],"type":"Point"},"properties":{"osm_id":"6587416647","tag":{"access":"yes","amenity":"waste_disposal","capacity":"1","material":"steel","operator":"\u00d0\u00a9\u00d0\u00b5\u00d1\u0080\u00d0\u00b1\u00d0\u00b0\u00d0\u00ba\u00d0\u00be\u00d0\u00b2\u00d1\u0081\u00d0\u00ba\u00d0\u00be\u00d0\u00b3\u00d0\u00be 49\u00d0\u0094","waste":"trash"}},"type":"Feature"},
	{"geometry":{"coordinates":[30.401762,50.473886],"type":"Point"},"properties":{"osm_id":"6587416648","tag":{"access":"yes","amenity":"waste_disposal","capacity":"1","material":"steel","waste":"trash"}},"type":"Feature"},
	{"geometry":{"coordinates":[30.401761,50.47387],"type":"Point"},"properties":{"osm_id":"6587416649","tag":{"access":"yes","amenity":"waste_disposal","capacity":"1","material":"steel","waste":"trash"}},"type":"Feature"},
	{"geometry":{"coordinates":[30.401367,50.473574],"type":"Point"},"properties":{"osm_id":"6587416650","tag":{"access":"yes","amenity":"waste_disposal","capacity":"1","material":"steel","waste":"trash"}},"type":"Feature"},
	{"geometry":{"coordinates":[30.401363,50.473294],"type":"Point"},"properties":{"osm_id":"6587416651","tag":{"access":"yes","amenity":"waste_disposal","capacity":"1","material":"steel","waste":"trash"}},"type":"Feature"},
	{"geometry":{"coordinates":[30.401737,50.473319],"type":"Point"},"properties":{"osm_id":"6587416652","tag":{"access":"yes","amenity":"waste_disposal","capacity":"1","material":"steel","waste":"trash"}},"type":"Feature"},
	{"geometry":{"coordinates":[30.401729,50.473591],"type":"Point"},"properties":{"osm_id":"6587416653","tag":{"access":"yes","amenity":"waste_disposal","capacity":"1","material":"steel","waste":"trash"}},"type":"Feature"},
	{"geometry":{"coordinates":[30.402095,50.475051],"type":"Point"},"properties":{"osm_id":"6587416654","tag":{"access":"yes","amenity":"waste_disposal","capacity":"1","material":"steel","waste":"trash"}},"type":"Feature"},
	{"geometry":{"coordinates":[30.4021,50.475321],"type":"Point"},"properties":{"osm_id":"6587416655","tag":{"access":"yes","amenity":"waste_disposal","capacity":"1","material":"steel","waste":"trash"}},"type":"Feature"},
	{"geometry":{"coordinates":[30.402647,50.476598],"type":"Point"},"properties":{"osm_id":"6587416656","tag":{"access":"yes","amenity":"waste_disposal","capacity":"1","material":"steel","operator":"\u00d0\u00a9\u00d0\u00b5\u00d1\u0080\u00d0\u00b1\u00d0\u00b0\u00d0\u00ba\u00d0\u00be\u00d0\u00b2\u00d1\u0081\u00d0\u00ba\u00d0\u00be\u00d0\u00b3\u00d0\u00be 53\u00d0\u0093","waste":"trash"}},"type":"Feature"},
	{"geometry":{"coordinates":[30.404216,50.477067],"type":"Point"},"properties":{"osm_id":"6587416657","tag":{"access":"yes","amenity":"waste_disposal","capacity":"1","material":"steel","waste":"trash"}},"type":"Feature"},
	{"geometry":{"coordinates":[30.404216,50.477043],"type":"Point"},"properties":{"osm_id":"6587416658","tag":{"access":"yes","amenity":"waste_disposal","capacity":"1","material":"steel","operator":"\u00d0\u00a9\u00d0\u00b5\u00d1\u0080\u00d0\u00b1\u00d0\u00b0\u00d0\u00ba\u00d0\u00be\u00d0\u00b2\u00d1\u0081\u00d0\u00ba\u00d0\u00be\u00d0\u00b3\u00d0\u00be 57\u00d0\u0090","waste":"trash"}},"type":"Feature"},
	{"geometry":{"coordinates":[30.404218,50.4771],"type":"Point"},"properties":{"osm_id":"6587416659","tag":{"access":"yes","amenity":"waste_disposal","capacity":"1","material":"steel","operator":"\u00d0\u00a9\u00d0\u00b5\u00d1\u0080\u00d0\u00b1\u00d0\u00b0\u00d0\u00ba\u00d0\u00be\u00d0\u00b2\u00d1\u0081\u00d0\u00ba\u00d0\u00be\u00d0\u00b3\u00d0\u00be 57\u00d0\u0091","waste":"trash"}},"type":"Feature"},
	{"geometry":{"coordinates":[30.403447,50.476108],"type":"Point"},"properties":{"osm_id":"6587416660","tag":{"access":"yes","amenity":"waste_disposal","capacity":"1","material":"steel","operator":"\u00d0\u00a9\u00d0\u00b5\u00d1\u0080\u00d0\u00b1\u00d0\u00b0\u00d0\u00ba\u00d0\u00be\u00d0\u00b2\u00d1\u0081\u00d0\u00ba\u00d0\u00be\u00d0\u00b3\u00d0\u00be 53\u00d0\u0092","waste":"trash"}},"type":"Feature"},
	{"geometry":{"coordinates":[30.402711,50.476117],"type":"Point"},"properties":{"osm_id":"6587416661","tag":{"access":"yes","amenity":"waste_disposal","capacity":"1","material":"steel","operator":"\u00d0\u00a9\u00d0\u00b5\u00d1\u0080\u00d0\u00b1\u00d0\u00b0\u00d0\u00ba\u00d0\u00be\u00d0\u00b2\u00d1\u0081\u00d0\u00ba\u00d0\u00be\u00d0\u00b3\u00d0\u00be 53\u00d0\u0093","waste":"trash"}},"type":"Feature"},
	{"geometry":{"coordinates":[30.402719,50.476088],"type":"Point"},"properties":{"osm_id":"6587416662","tag":{"access":"yes","amenity":"waste_disposal","capacity":"1","material":"steel","operator":"\u00d0\u00a9\u00d0\u00b5\u00d1\u0080\u00d0\u00b1\u00d0\u00b0\u00d0\u00ba\u00d0\u00be\u00d0\u00b2\u00d1\u0081\u00d0\u00ba\u00d0\u00be\u00d0\u00b3\u00d0\u00be 53\u00d0\u0093","waste":"trash"}},"type":"Feature"},
	{"geometry":{"coordinates":[30.402701,50.477715],"type":"Point"},"properties":{"osm_id":"6587416663","tag":{"access":"yes","amenity":"waste_disposal","capacity":"1","material":"steel","operator":"\u00d0\u00a9\u00d0\u00b5\u00d1\u0080\u00d0\u00b1\u00d0\u00b0\u00d0\u00ba\u00d0\u00be\u00d0\u00b2\u00d1\u0081\u00d0\u00ba\u00d0\u00be\u00d0\u00b3\u00d0\u00be 57\u00d0\u0093","waste":"trash"}},"type":"Feature"},
	{"geometry":{"coordinates":[30.402709,50.47794],"type":"Point"},"properties":{"osm_id":"6587416664","tag":{"access":"yes","amenity":"waste_disposal","capacity":"1","material":"steel","operator":"\u00d0\u00a9\u00d0\u00b5\u00d1\u0080\u00d0\u00b1\u00d0\u00b0\u00d0\u00ba\u00d0\u00be\u00d0\u00b2\u00d1\u0081\u00d0\u00ba\u00d0\u00be\u00d0\u00b3\u00d0\u00be 57\u00d0\u0093","waste":"trash"}},"type":"Feature"},
	{"geometry":{"coordinates":[30.402692,50.478091],"type":"Point"},"properties":{"osm_id":"6587416665","tag":{"access":"yes","amenity":"waste_disposal","capacity":"1","material":"steel","operator":"\u00d0\u00a9\u00d0\u00b5\u00d1\u0080\u00d0\u00b1\u00d0\u00b0\u00d0\u00ba\u00d0\u00be\u00d0\u00b2\u00d1\u0081\u00d0\u00ba\u00d0\u00be\u00d0\u00b3\u00d0\u00be 57\u00d0\u0093","waste":"trash"}},"type":"Feature"},
	{"geometry":{"coordinates":[30.402696,50.47812],"type":"Point"},"properties":{"osm_id":"6587416666","tag":{"access":"yes","amenity":"waste_disposal","capacity":"1","material":"steel","operator":"\u00d0\u00a9\u00d0\u00b5\u00d1\u0080\u00d0\u00b1\u00d0\u00b0\u00d0\u00ba\u00d0\u00be\u00d0\u00b2\u00d1\u0081\u00d0\u00ba\u00d0\u00be\u00d0\u00b3\u00d0\u00be 57\u00d0\u0093","waste":"trash"}},"type":"Feature"},
	{"geometry":{"coordinates":[30.403444,50.477793],"type":"Point"},"properties":{"osm_id":"6587416667","tag":{"access":"yes","amenity":"waste_disposal","capacity":"1","material":"steel","operator":"\u00d0\u00a9\u00d0\u00b5\u00d1\u0080\u00d0\u00b1\u00d0\u00b0\u00d0\u00ba\u00d0\u00be\u00d0\u00b2\u00d1\u0081\u00d0\u00ba\u00d0\u00be\u00d0\u00b3\u00d0\u00be 57\u00d0\u0092","waste":"trash"}},"type":"Feature"},
	{"geometry":{"coordinates":[30.404165,50.478873],"type":"Point"},"properties":{"osm_id":"6587416668","tag":{"access":"yes","amenity":"waste_disposal","capacity":"1","material":"steel","operator":"\u00d0\u00a9\u00d0\u00b5\u00d1\u0080\u00d0\u00b1\u00d0\u00b0\u00d0\u00ba\u00d0\u00be\u00d0\u00b2\u00d1\u0081\u00d0\u00ba\u00d0\u00be\u00d0\u00b3\u00d0\u00be 61\u00d0\u0091","waste":"trash"}},"type":"Feature"},
	{"geometry":{"coordinates":[30.404197,50.478872],"type":"Point"},"properties":{"osm_id":"6587416669","tag":{"access":"yes","amenity":"waste_disposal","capacity":"1","material":"steel","waste":"trash"}},"type":"Feature"},
	{"geometry":{"coordinates":[30.40423,50.47887],"type":"Point"},"properties":{"osm_id":"6587416670","tag":{"access":"yes","amenity":"waste_disposal","capacity":"1","material":"steel","operator":"\u00d0\u00a9\u00d0\u00b5\u00d1\u0080\u00d0\u00b1\u00d0\u00b0\u00d0\u00ba\u00d0\u00be\u00d0\u00b2\u00d1\u0081\u00d0\u00ba\u00d0\u00be\u00d0\u00b3\u00d0\u00be 61\u00d0\u0090","waste":"trash"}},"type":"Feature"},
	{"geometry":{"coordinates":[30.402726,50.479929],"type":"Point"},"properties":{"osm_id":"6587416671","tag":{"access":"yes","amenity":"waste_disposal","capacity":"1","material":"steel","operator":"\u00d0\u00a9\u00d0\u00b5\u00d1\u0080\u00d0\u00b1\u00d0\u00b0\u00d0\u00ba\u00d0\u00be\u00d0\u00b2\u00d1\u0081\u00d0\u00ba\u00d0\u00be\u00d0\u00b3\u00d0\u00be 63\u00d0\u0091","waste":"trash"}},"type":"Feature"},
	{"geometry":{"coordinates":[30.400292,50.481286],"type":"Point"},"properties":{"osm_id":"6587416672","tag":{"access":"yes","amenity":"waste_disposal","capacity":"1","material":"steel","waste":"trash"}},"type":"Feature"},
	{"geometry":{"coordinates":[30.400708,50.481773],"type":"Point"},"properties":{"osm_id":"6587416673","tag":{"access":"yes","amenity":"waste_disposal","capacity":"1","material":"steel","waste":"trash"}},"type":"Feature"},
	{"geometry":{"coordinates":[30.399855,50.481924],"type":"Point"},"properties":{"osm_id":"6587416674","tag":{"access":"yes","amenity":"waste_disposal","capacity":"1","material":"steel","waste":"trash"}},"type":"Feature"},
	{"geometry":{"coordinates":[30.399919,50.481926],"type":"Point"},"properties":{"osm_id":"6587416675","tag":{"access":"yes","amenity":"waste_disposal","capacity":"1","material":"steel","waste":"trash"}},"type":"Feature"},
	{"geometry":{"coordinates":[30.398831,50.481967],"type":"Point"},"properties":{"osm_id":"6587416676","tag":{"access":"yes","amenity":"waste_disposal","capacity":"1","material":"steel","waste":"trash"}},"type":"Feature"},
	{"geometry":{"coordinates":[30.397434,50.481895],"type":"Point"},"properties":{"osm_id":"6587416677","tag":{"access":"yes","amenity":"waste_disposal","capacity":"1","material":"steel","waste":"trash"}},"type":"Feature"},
	{"geometry":{"coordinates":[30.396894,50.48199],"type":"Point"},"properties":{"osm_id":"6587416678","tag":{"access":"yes","amenity":"waste_disposal","capacity":"1","material":"steel","waste":"trash"}},"type":"Feature"},
	{"geometry":{"coordinates":[30.406601,50.480015],"type":"Point"},"properties":{"osm_id":"6589734020","tag":{"access":"yes","amenity":"waste_disposal","capacity":"1","material":"steel","waste":"trash"}},"type":"Feature"},
	{"geometry":{"coordinates":[30.406684,50.480042],"type":"Point"},"properties":{"osm_id":"6589734021","tag":{"access":"yes","amenity":"waste_disposal","capacity":"1","material":"plastic","waste":"trash"}},"type":"Feature"},
	{"geometry":{"coordinates":[30.406681,50.48001],"type":"Point"},"properties":{"osm_id":"6589734022","tag":{"access":"yes","amenity":"waste_disposal","capacity":"1","material":"plastic","waste":"trash"}},"type":"Feature"},
	{"geometry":{"coordinates":[30.406606,50.479986],"type":"Point"},"properties":{"osm_id":"6589734023","tag":{"access":"yes","amenity":"waste_disposal","capacity":"1","material":"steel","waste":"recycling"}},"type":"Feature"},
	{"geometry":{"coordinates":[30.408885,50.479048],"type":"Point"},"properties":{"osm_id":"6589734024","tag":{"access":"yes","amenity":"waste_disposal","capacity":"1","material":"plastic","waste":"trash"}},"type":"Feature"},
	{"geometry":{"coordinates":[30.408849,50.479015],"type":"Point"},"properties":{"osm_id":"6589734025","tag":{"access":"yes","amenity":"waste_disposal","capacity":"1","material":"steel","waste":"recycling"}},"type":"Feature"},
	{"geometry":{"coordinates":[30.408893,50.478998],"type":"Point"},"properties":{"osm_id":"6589734026","tag":{"access":"yes","amenity":"waste_disposal","capacity":"1","material":"steel","waste":"recycling"}},"type":"Feature"},
	{"geometry":{"coordinates":[30.407795,50.478942],"type":"Point"},"properties":{"osm_id":"6589734027","tag":{"access":"yes","amenity":"waste_disposal","capacity":"1","material":"plastic","waste":"trash"}},"type":"Feature"},
	{"geometry":{"coordinates":[30.406923,50.477833],"type":"Point"},"properties":{"osm_id":"6589734028","tag":{"access":"yes","amenity":"waste_disposal","capacity":"1","material":"plastic","waste":"trash"}},"type":"Feature"},
	{"geometry":{"coordinates":[30.406957,50.477833],"type":"Point"},"properties":{"osm_id":"6589734029","tag":{"access":"yes","amenity":"waste_disposal","capacity":"1","material":"plastic","waste":"trash"}},"type":"Feature"},
	{"geometry":{"coordinates":[30.406988,50.477831],"type":"Point"},"properties":{"osm_id":"6589734030","tag":{"access":"yes","amenity":"waste_disposal","capacity":"1","material":"plastic","waste":"trash"}},"type":"Feature"},
	{"geometry":{"coordinates":[30.407011,50.476015],"type":"Point"},"properties":{"osm_id":"6589734031","tag":{"access":"yes","amenity":"waste_disposal","capacity":"1","material":"plastic","waste":"trash"}},"type":"Feature"},
	{"geometry":{"coordinates":[30.40703,50.476014],"type":"Point"},"properties":{"osm_id":"6589734032","tag":{"access":"yes","amenity":"waste_disposal","capacity":"1","material":"plastic","waste":"trash"}},"type":"Feature"},
	{"geometry":{"coordinates":[30.406644,50.474782],"type":"Point"},"properties":{"osm_id":"6589734033","tag":{"access":"yes","amenity":"waste_disposal","capacity":"1","material":"steel","waste":"trash"}},"type":"Feature"},
	{"geometry":{"coordinates":[30.406672,50.474779],"type":"Point"},"properties":{"osm_id":"6589734034","tag":{"access":"yes","amenity":"waste_disposal","capacity":"1","material":"plastic","waste":"trash"}},"type":"Feature"},
	{"geometry":{"coordinates":[30.408886,50.47428],"type":"Point"},"properties":{"osm_id":"6589734035","tag":{"access":"yes","amenity":"waste_disposal","capacity":"1","material":"steel","waste":"trash"}},"type":"Feature"},
	{"geometry":{"coordinates":[30.408885,50.474297],"type":"Point"},"properties":{"osm_id":"6589734036","tag":{"access":"yes","amenity":"waste_disposal","capacity":"1","material":"plastic","waste":"trash"}},"type":"Feature"},
	{"geometry":{"coordinates":[30.408883,50.474315],"type":"Point"},"properties":{"osm_id":"6589734037","tag":{"access":"yes","amenity":"waste_disposal","capacity":"1","material":"steel","waste":"trash"}},"type":"Feature"},
	{"geometry":{"coordinates":[30.41006,50.472841],"type":"Point"},"properties":{"osm_id":"6589734038","tag":{"access":"yes","amenity":"waste_disposal","capacity":"1","material":"plastic","waste":"trash"}},"type":"Feature"},
	{"geometry":{"coordinates":[30.410118,50.472842],"type":"Point"},"properties":{"osm_id":"6589734039","tag":{"access":"yes","amenity":"waste_disposal","capacity":"1","material":"plastic","waste":"trash"}},"type":"Feature"},
	{"geometry":{"coordinates":[30.407726,50.472794],"type":"Point"},"properties":{"osm_id":"6589734040","tag":{"access":"yes","amenity":"waste_disposal","capacity":"1","material":"plastic","waste":"trash"}},"type":"Feature"},
	{"geometry":{"coordinates":[30.407644,50.472776],"type":"Point"},"properties":{"osm_id":"6589734041","tag":{"access":"yes","amenity":"waste_disposal","capacity":"1","material":"plastic","waste":"trash"}},"type":"Feature"},
	{"geometry":{"coordinates":[30.4066,50.472765],"type":"Point"},"properties":{"osm_id":"6589734042","tag":{"access":"yes","amenity":"waste_disposal","capacity":"1","material":"plastic","waste":"trash"}},"type":"Feature"},
	{"geometry":{"coordinates":[30.406593,50.472764],"type":"Point"},"properties":{"osm_id":"6589734043","tag":{"access":"yes","amenity":"waste_disposal","capacity":"1","material":"plastic","waste":"trash"}},"type":"Feature"},
	{"geometry":{"coordinates":[30.406587,50.472764],"type":"Point"},"properties":{"osm_id":"6589734044","tag":{"access":"yes","amenity":"waste_disposal","capacity":"1","material":"plastic","waste":"trash"}},"type":"Feature"},
	{"geometry":{"coordinates":[30.40658,50.472764],"type":"Point"},"properties":{"osm_id":"6589734045","tag":{"access":"yes","amenity":"waste_disposal","capacity":"1","material":"plastic","waste":"trash"}},"type":"Feature"},
	{"geometry":{"coordinates":[30.406614,50.472765],"type":"Point"},"properties":{"osm_id":"6589734046","tag":{"access":"yes","amenity":"waste_disposal","capacity":"1","material":"steel","waste":"trash"}},"type":"Feature"},
	{"geometry":{"coordinates":[30.402982,50.458095],"type":"Point"},"properties":{"osm_id":"6742655035","tag":{"access":"yes","amenity":"waste_disposal","capacity":"1","material":"steel","operator":"\u00d0\u009a\u00d0\u00b8\u00d1\u0097\u00d0\u00b2\u00d1\u0081\u00d1\u008c\u00d0\u00ba\u00d0\u00b8\u00d0\u00b9 \u00d0\u00bc\u00d0\u00b5\u00d1\u0082\u00d1\u0080\u00d0\u00be\u00d0\u00bf\u00d0\u00be\u00d0\u00bb\u00d1\u0096\u00d1\u0082\u00d0\u00b5\u00d0\u00bd","waste":"trash"}},"type":"Feature"},
	{"geometry":{"coordinates":[30.384049,50.458567],"type":"Point"},"properties":{"osm_id":"6742655036","tag":{"access":"yes","amenity":"waste_disposal","capacity":"1","material":"steel","waste":"recycling"}},"type":"Feature"},
	{"geometry":{"coordinates":[30.384052,50.458549],"type":"Point"},"properties":{"osm_id":"6742655037","tag":{"access":"yes","amenity":"waste_disposal","capacity":"1","material":"steel","waste":"trash"}},"type":"Feature"},
	{"geometry":{"coordinates":[30.384052,50.458532],"type":"Point"},"properties":{"osm_id":"6742655038","tag":{"access":"yes","amenity":"waste_disposal","capacity":"1","material":"steel","waste":"trash"}},"type":"Feature"},
	{"geometry":{"coordinates":[30.384054,50.458516],"type":"Point"},"properties":{"osm_id":"6742655039","tag":{"access":"yes","amenity":"waste_disposal","capacity":"1","material":"steel","waste":"trash"}},"type":"Feature"},
	{"geometry":{"coordinates":[30.384056,50.458503],"type":"Point"},"properties":{"osm_id":"6742655040","tag":{"access":"yes","amenity":"waste_disposal","capacity":"1","material":"steel","operator":"Veolia","waste":"trash"}},"type":"Feature"},
	{"geometry":{"coordinates":[30.385182,50.458047],"type":"Point"},"properties":{"osm_id":"6742655041","tag":{"access":"yes","amenity":"waste_disposal","capacity":"1","material":"steel","operator":"Veolia","waste":"recycling"}},"type":"Feature"},
	{"geometry":{"coordinates":[30.385181,50.458089],"type":"Point"},"properties":{"osm_id":"6742655042","tag":{"access":"yes","amenity":"waste_disposal","capacity":"1","material":"steel","operator":"Veolia","waste":"trash"}},"type":"Feature"},
	{"geometry":{"coordinates":[30.385181,50.45807],"type":"Point"},"properties":{"osm_id":"6742655043","tag":{"access":"yes","amenity":"waste_disposal","capacity":"1","material":"steel","waste":"trash"}},"type":"Feature"},
	{"geometry":{"coordinates":[30.385447,50.458946],"type":"Point"},"properties":{"osm_id":"6742655044","tag":{"access":"yes","amenity":"waste_disposal","capacity":"1","material":"steel","waste":"trash"}},"type":"Feature"},
	{"geometry":{"coordinates":[30.384754,50.458808],"type":"Point"},"properties":{"osm_id":"6742655045","tag":{"access":"yes","amenity":"waste_disposal","capacity":"1","material":"steel","waste":"trash"}},"type":"Feature"},
	{"geometry":{"coordinates":[30.382324,50.457666],"type":"Point"},"properties":{"osm_id":"6742655046","tag":{"access":"yes","amenity":"waste_disposal","capacity":"1","material":"plastic","waste":"trash"}},"type":"Feature"},
	{"geometry":{"coordinates":[30.382368,50.45767],"type":"Point"},"properties":{"osm_id":"6742655047","tag":{"access":"yes","amenity":"waste_disposal","capacity":"1","material":"steel","waste":"trash"}},"type":"Feature"},
	{"geometry":{"coordinates":[30.38241,50.457671],"type":"Point"},"properties":{"osm_id":"6742655048","tag":{"access":"yes","amenity":"waste_disposal","capacity":"1","material":"steel","waste":"trash"}},"type":"Feature"},
	{"geometry":{"coordinates":[30.381476,50.457893],"type":"Point"},"properties":{"osm_id":"6742655049","tag":{"access":"private","amenity":"waste_disposal","capacity":"1","material":"steel","waste":"trash"}},"type":"Feature"},
	{"geometry":{"coordinates":[30.383506,50.459697],"type":"Point"},"properties":{"osm_id":"6742655050","tag":{"access":"yes","amenity":"waste_disposal","capacity":"1","material":"steel","operator":"Veolia","waste":"recycling"}},"type":"Feature"},
	{"geometry":{"coordinates":[30.383482,50.459695],"type":"Point"},"properties":{"osm_id":"6742655051","tag":{"access":"yes","amenity":"waste_disposal","capacity":"1","material":"steel","operator":"Veolia","waste":"trash"}},"type":"Feature"},
	{"geometry":{"coordinates":[30.381895,50.459368],"type":"Point"},"properties":{"osm_id":"6742655052","tag":{"access":"yes","amenity":"waste_disposal","capacity":"1","material":"steel","operator":"Veolia","waste":"trash"}},"type":"Feature"},
	{"geometry":{"coordinates":[30.381895,50.459392],"type":"Point"},"properties":{"osm_id":"6742655053","tag":{"access":"yes","amenity":"waste_disposal","capacity":"1","material":"steel","waste":"trash"}},"type":"Feature"},
	{"geometry":{"coordinates":[30.381893,50.459423],"type":"Point"},"properties":{"osm_id":"6742655054","tag":{"access":"yes","amenity":"waste_disposal","capacity":"1","material":"steel","operator":"Veolia","waste":"recycling"}},"type":"Feature"},
	{"geometry":{"coordinates":[30.380825,50.459343],"type":"Point"},"properties":{"osm_id":"6742655055","tag":{"access":"yes","amenity":"waste_disposal","capacity":"1","material":"steel","waste":"trash"}},"type":"Feature"},
	{"geometry":{"coordinates":[30.380824,50.459317],"type":"Point"},"properties":{"osm_id":"6742655056","tag":{"access":"yes","amenity":"waste_disposal","capacity":"1","material":"steel","operator":"Veolia","waste":"trash"}},"type":"Feature"},
	{"geometry":{"coordinates":[30.380827,50.459296],"type":"Point"},"properties":{"osm_id":"6742655057","tag":{"access":"yes","amenity":"waste_disposal","capacity":"1","material":"steel","operator":"Veolia","waste":"trash"}},"type":"Feature"},
	{"geometry":{"coordinates":[30.380829,50.459275],"type":"Point"},"properties":{"osm_id":"6742655058","tag":{"access":"yes","amenity":"waste_disposal","capacity":"1","material":"steel","operator":"Veolia","waste":"trash"}},"type":"Feature"},
	{"geometry":{"coordinates":[30.378596,50.460533],"type":"Point"},"properties":{"osm_id":"6742655059","tag":{"access":"yes","amenity":"waste_disposal","capacity":"1","material":"steel","waste":"trash"}},"type":"Feature"},
	{"geometry":{"coordinates":[30.380157,50.460786],"type":"Point"},"properties":{"osm_id":"6742655060","tag":{"access":"yes","amenity":"waste_disposal","capacity":"1","material":"steel","operator":"Veolia","waste":"trash"}},"type":"Feature"},
	{"geometry":{"coordinates":[30.380203,50.460786],"type":"Point"},"properties":{"osm_id":"6742655061","tag":{"access":"yes","amenity":"waste_disposal","capacity":"1","material":"steel","operator":"Veolia","waste":"trash"}},"type":"Feature"},
	{"geometry":{"coordinates":[30.380257,50.460792],"type":"Point"},"properties":{"osm_id":"6742655062","tag":{"access":"yes","amenity":"waste_disposal","capacity":"1","material":"steel","waste":"trash"}},"type":"Feature"},
	{"geometry":{"coordinates":[30.380303,50.460794],"type":"Point"},"properties":{"osm_id":"6742655063","tag":{"access":"yes","amenity":"waste_disposal","capacity":"1","material":"steel","waste":"trash"}},"type":"Feature"},
	{"geometry":{"coordinates":[30.380355,50.460796],"type":"Point"},"properties":{"osm_id":"6742655064","tag":{"access":"yes","amenity":"waste_disposal","capacity":"1","material":"steel","waste":"trash"}},"type":"Feature"},
	{"geometry":{"coordinates":[30.379544,50.461431],"type":"Point"},"properties":{"osm_id":"6742655065","tag":{"access":"private","amenity":"waste_disposal","capacity":"1","material":"steel","waste":"trash"}},"type":"Feature"},
	{"geometry":{"coordinates":[30.381029,50.460549],"type":"Point"},"properties":{"osm_id":"6742655066","tag":{"access":"yes","amenity":"waste_disposal","capacity":"1","material":"steel","waste":"trash"}},"type":"Feature"},
	{"geometry":{"coordinates":[30.381073,50.460551],"type":"Point"},"properties":{"osm_id":"6742655067","tag":{"access":"yes","amenity":"waste_disposal","capacity":"1","material":"steel","waste":"trash"}},"type":"Feature"},
	{"geometry":{"coordinates":[30.381119,50.460552],"type":"Point"},"properties":{"osm_id":"6742655068","tag":{"access":"yes","amenity":"waste_disposal","capacity":"1","material":"steel","waste":"trash"}},"type":"Feature"},
	{"geometry":{"coordinates":[30.381682,50.460041],"type":"Point"},"properties":{"osm_id":"6742655069","tag":{"access":"yes","amenity":"waste_disposal","capacity":"1","material":"steel","waste":"trash"}},"type":"Feature"},
	{"geometry":{"coordinates":[30.382327,50.459801],"type":"Point"},"properties":{"osm_id":"6742655070","tag":{"access":"yes","amenity":"waste_disposal","capacity":"1","material":"steel","waste":"trash"}},"type":"Feature"},
	{"geometry":{"coordinates":[30.382327,50.459781],"type":"Point"},"properties":{"osm_id":"6742655071","tag":{"access":"yes","amenity":"waste_disposal","capacity":"1","material":"steel","waste":"trash"}},"type":"Feature"},
	{"geometry":{"coordinates":[30.382334,50.459757],"type":"Point"},"properties":{"osm_id":"6742655072","tag":{"access":"yes","amenity":"waste_disposal","capacity":"1","material":"steel","waste":"trash"}},"type":"Feature"},
	{"geometry":{"coordinates":[30.383253,50.462798],"type":"Point"},"properties":{"osm_id":"6742655073","tag":{"access":"yes","amenity":"waste_disposal","capacity":"1","material":"steel","waste":"trash"}},"type":"Feature"},
	{"geometry":{"coordinates":[30.383277,50.4628],"type":"Point"},"properties":{"osm_id":"6742655074","tag":{"access":"yes","amenity":"waste_disposal","capacity":"1","material":"steel","waste":"trash"}},"type":"Feature"},
	{"geometry":{"coordinates":[30.383301,50.4628],"type":"Point"},"properties":{"osm_id":"6742655075","tag":{"access":"yes","amenity":"waste_disposal","capacity":"1","material":"plastic","waste":"trash"}},"type":"Feature"},
	{"geometry":{"coordinates":[30.383329,50.462801],"type":"Point"},"properties":{"osm_id":"6742655076","tag":{"access":"yes","amenity":"waste_disposal","capacity":"1","material":"plastic","waste":"trash"}},"type":"Feature"},
	{"geometry":{"coordinates":[30.384746,50.46241],"type":"Point"},"properties":{"osm_id":"6742655077","tag":{"access":"yes","amenity":"waste_disposal","capacity":"1","material":"steel","waste":"trash"}},"type":"Feature"},
	{"geometry":{"coordinates":[30.384754,50.46239],"type":"Point"},"properties":{"osm_id":"6742655078","tag":{"access":"yes","amenity":"waste_disposal","capacity":"1","material":"plastic","waste":"trash"}},"type":"Feature"},
	{"geometry":{"coordinates":[30.381259,50.461781],"type":"Point"},"properties":{"osm_id":"6742655079","tag":{"access":"yes","amenity":"waste_disposal","capacity":"1","material":"steel","waste":"trash"}},"type":"Feature"},
	{"geometry":{"coordinates":[30.38121,50.461738],"type":"Point"},"properties":{"osm_id":"6742655080","tag":{"access":"yes","amenity":"waste_disposal","capacity":"1","material":"steel","waste":"trash"}},"type":"Feature"},
	{"geometry":{"coordinates":[30.378629,50.461534],"type":"Point"},"properties":{"osm_id":"6742655081","tag":{"access":"yes","amenity":"waste_disposal","capacity":"1","material":"steel","waste":"trash"}},"type":"Feature"},
	{"geometry":{"coordinates":[30.378652,50.461522],"type":"Point"},"properties":{"osm_id":"6742655082","tag":{"access":"yes","amenity":"waste_disposal","capacity":"1","material":"steel","waste":"trash"}},"type":"Feature"},
	{"geometry":{"coordinates":[30.375037,50.458857],"type":"Point"},"properties":{"osm_id":"6743590928","tag":{"access":"yes","amenity":"waste_disposal","capacity":"1","material":"steel","waste":"trash"}},"type":"Feature"},
	{"geometry":{"coordinates":[30.375053,50.458871],"type":"Point"},"properties":{"osm_id":"6743590929","tag":{"access":"yes","amenity":"waste_disposal","capacity":"1","material":"steel","operator":"Veolia","waste":"trash"}},"type":"Feature"},
	{"geometry":{"coordinates":[30.374966,50.458427],"type":"Point"},"properties":{"osm_id":"6743590930","tag":{"access":"yes","amenity":"waste_disposal","capacity":"1","material":"steel","waste":"trash"}},"type":"Feature"},
	{"geometry":{"coordinates":[30.374994,50.458429],"type":"Point"},"properties":{"osm_id":"6743590931","tag":{"access":"yes","amenity":"waste_disposal","capacity":"1","material":"steel","waste":"trash"}},"type":"Feature"},
	{"geometry":{"coordinates":[30.375027,50.458429],"type":"Point"},"properties":{"osm_id":"6743590932","tag":{"access":"yes","amenity":"waste_disposal","capacity":"1","material":"steel","waste":"trash"}},"type":"Feature"},
	{"geometry":{"coordinates":[30.377753,50.458353],"type":"Point"},"properties":{"osm_id":"6743590933","tag":{"access":"yes","amenity":"waste_disposal","capacity":"1","material":"steel","operator":"Veolia","waste":"trash"}},"type":"Feature"},
	{"geometry":{"coordinates":[30.377755,50.458323],"type":"Point"},"properties":{"osm_id":"6743590934","tag":{"access":"yes","amenity":"waste_disposal","capacity":"1","material":"steel","operator":"Veolia","waste":"trash"}},"type":"Feature"},
	{"geometry":{"coordinates":[30.376514,50.458139],"type":"Point"},"properties":{"osm_id":"6743590938","tag":{"access":"yes","amenity":"waste_disposal","capacity":"1","material":"steel","waste":"trash"}},"type":"Feature"},
	{"geometry":{"coordinates":[30.37575,50.458827],"type":"Point"},"properties":{"osm_id":"6743590939","tag":{"access":"yes","amenity":"waste_disposal","capacity":"1","material":"steel","waste":"trash"}},"type":"Feature"},
	{"geometry":{"coordinates":[30.375767,50.458827],"type":"Point"},"properties":{"osm_id":"6743590940","tag":{"access":"yes","amenity":"waste_disposal","capacity":"1","material":"steel","waste":"trash"}},"type":"Feature"},
	{"geometry":{"coordinates":[30.375602,50.458816],"type":"Point"},"properties":{"osm_id":"6743590941","tag":{"access":"yes","amenity":"waste_disposal","capacity":"1","material":"steel","waste":"trash"}},"type":"Feature"},
	{"geometry":{"coordinates":[30.372898,50.458884],"type":"Point"},"properties":{"osm_id":"6743590942","tag":{"access":"yes","amenity":"waste_disposal","capacity":"1","material":"plastic","operator":"Veolia","waste":"trash"}},"type":"Feature"},
	{"geometry":{"coordinates":[30.372905,50.458874],"type":"Point"},"properties":{"osm_id":"6743590943","tag":{"access":"yes","amenity":"waste_disposal","capacity":"1","material":"plastic","waste":"trash"}},"type":"Feature"},
	{"geometry":{"coordinates":[30.372912,50.458863],"type":"Point"},"properties":{"osm_id":"6743590944","tag":{"access":"yes","amenity":"waste_disposal","capacity":"1","material":"plastic","waste":"trash"}},"type":"Feature"},
	{"geometry":{"coordinates":[30.372918,50.458854],"type":"Point"},"properties":{"osm_id":"6743590945","tag":{"access":"yes","amenity":"waste_disposal","capacity":"1","material":"steel","waste":"trash"}},"type":"Feature"},
	{"geometry":{"coordinates":[30.372924,50.458844],"type":"Point"},"properties":{"osm_id":"6743590946","tag":{"access":"yes","amenity":"waste_disposal","capacity":"1","material":"steel","waste":"trash"}},"type":"Feature"},
	{"geometry":{"coordinates":[30.373321,50.458017],"type":"Point"},"properties":{"osm_id":"6743590947","tag":{"access":"yes","amenity":"waste_disposal","capacity":"1","material":"steel","waste":"trash"}},"type":"Feature"},
	{"geometry":{"coordinates":[30.372718,50.457582],"type":"Point"},"properties":{"osm_id":"6743590948","tag":{"access":"yes","amenity":"waste_disposal","capacity":"1","material":"steel","waste":"trash"}},"type":"Feature"},
	{"geometry":{"coordinates":[30.372746,50.457591],"type":"Point"},"properties":{"osm_id":"6743590949","tag":{"access":"yes","amenity":"waste_disposal","capacity":"1","material":"steel","waste":"trash"}},"type":"Feature"},
	{"geometry":{"coordinates":[30.37153,50.45918],"type":"Point"},"properties":{"osm_id":"6743590954","tag":{"access":"private","amenity":"waste_disposal","capacity":"1","material":"steel","waste":"trash"}},"type":"Feature"},
	{"geometry":{"coordinates":[30.371486,50.459186],"type":"Point"},"properties":{"osm_id":"6743590955","tag":{"access":"private","amenity":"waste_disposal","capacity":"1","material":"steel","waste":"trash"}},"type":"Feature"},
	{"geometry":{"coordinates":[30.37207,50.460367],"type":"Point"},"properties":{"osm_id":"6743590956","tag":{"access":"yes","amenity":"waste_disposal","capacity":"1","material":"steel","waste":"trash"}},"type":"Feature"},
	{"geometry":{"coordinates":[30.37204,50.460349],"type":"Point"},"properties":{"osm_id":"6743590957","tag":{"access":"yes","amenity":"waste_disposal","capacity":"1","material":"steel","waste":"trash"}},"type":"Feature"},
	{"geometry":{"coordinates":[30.371153,50.459681],"type":"Point"},"properties":{"osm_id":"6743590958","tag":{"access":"yes","amenity":"waste_disposal","capacity":"1","material":"steel","waste":"plastic"}},"type":"Feature"},
	{"geometry":{"coordinates":[30.371142,50.459661],"type":"Point"},"properties":{"osm_id":"6743590959","tag":{"access":"yes","amenity":"waste_disposal","capacity":"1","material":"steel","waste":"trash"}},"type":"Feature"},
	{"geometry":{"coordinates":[30.371135,50.459647],"type":"Point"},"properties":{"osm_id":"6743590960","tag":{"access":"yes","amenity":"waste_disposal","capacity":"1","material":"steel","waste":"trash"}},"type":"Feature"},
	{"geometry":{"coordinates":[30.371122,50.459634],"type":"Point"},"properties":{"osm_id":"6743590961","tag":{"access":"yes","amenity":"waste_disposal","capacity":"1","material":"steel","waste":"trash"}},"type":"Feature"},
	{"geometry":{"coordinates":[30.371113,50.459616],"type":"Point"},"properties":{"osm_id":"6743590962","tag":{"access":"yes","amenity":"waste_disposal","capacity":"1","material":"plastic","waste":"trash"}},"type":"Feature"},
	{"geometry":{"coordinates":[30.371105,50.459602],"type":"Point"},"properties":{"osm_id":"6743590963","tag":{"access":"yes","amenity":"waste_disposal","capacity":"1","material":"steel","waste":"trash"}},"type":"Feature"},
	{"geometry":{"coordinates":[30.371092,50.459588],"type":"Point"},"properties":{"osm_id":"6743590964","tag":{"access":"yes","amenity":"waste_disposal","capacity":"1","material":"steel","waste":"recycling"}},"type":"Feature"},
	{"geometry":{"coordinates":[30.371103,50.45951],"type":"Point"},"properties":{"osm_id":"6743590965","tag":{"access":"yes","amenity":"waste_disposal","capacity":"1","material":"steel","waste":"trash"}},"type":"Feature"},
	{"geometry":{"coordinates":[30.370981,50.459393],"type":"Point"},"properties":{"osm_id":"6743590966","tag":{"access":"yes","amenity":"waste_disposal","capacity":"1","material":"plastic","waste":"trash"}},"type":"Feature"},
	{"geometry":{"coordinates":[30.370757,50.459217],"type":"Point"},"properties":{"osm_id":"6743590967","tag":{"access":"yes","amenity":"waste_disposal","capacity":"1","material":"plastic","operator":"\u00d0\u009a\u00d0\u00b8\u00d1\u0097\u00d0\u00b2\u00d1\u0081\u00d0\u00bf\u00d0\u00b5\u00d1\u0086\u00d1\u0082\u00d1\u0080\u00d0\u00b0\u00d0\u00bd\u00d1\u0081","waste":"trash"}},"type":"Feature"},
	{"geometry":{"coordinates":[30.369489,50.459566],"type":"Point"},"properties":{"osm_id":"6743590968","tag":{"access":"yes","amenity":"waste_disposal","capacity":"1","material":"steel","waste":"trash"}},"type":"Feature"},
	{"geometry":{"coordinates":[30.369442,50.459473],"type":"Point"},"properties":{"osm_id":"6743590969","tag":{"access":"yes","amenity":"waste_disposal","capacity":"1","material":"steel","waste":"trash"}},"type":"Feature"},
	{"geometry":{"coordinates":[30.365865,50.459871],"type":"Point"},"properties":{"osm_id":"6743590970","tag":{"access":"yes","amenity":"waste_disposal","capacity":"1","material":"plastic","waste":"trash"}},"type":"Feature"},
	{"geometry":{"coordinates":[30.365808,50.459868],"type":"Point"},"properties":{"osm_id":"6743590971","tag":{"access":"yes","amenity":"waste_disposal","capacity":"1","material":"plastic","waste":"trash"}},"type":"Feature"},
	{"geometry":{"coordinates":[30.365749,50.459867],"type":"Point"},"properties":{"osm_id":"6743590972","tag":{"access":"yes","amenity":"waste_disposal","capacity":"1","material":"plastic","waste":"trash"}},"type":"Feature"},
	{"geometry":{"coordinates":[30.365697,50.459865],"type":"Point"},"properties":{"osm_id":"6743590973","tag":{"access":"yes","amenity":"waste_disposal","capacity":"1","material":"plastic","waste":"trash"}},"type":"Feature"},
	{"geometry":{"coordinates":[30.364824,50.459833],"type":"Point"},"properties":{"osm_id":"6743590974","tag":{"access":"yes","amenity":"waste_disposal","capacity":"1","material":"steel","waste":"trash"}},"type":"Feature"},
	{"geometry":{"coordinates":[30.364293,50.45979],"type":"Point"},"properties":{"osm_id":"6743590975","tag":{"access":"yes","amenity":"waste_disposal","capacity":"1","material":"steel","waste":"trash"}},"type":"Feature"},
	{"geometry":{"coordinates":[30.36393,50.46196],"type":"Point"},"properties":{"osm_id":"6743590976","tag":{"access":"yes","amenity":"waste_disposal","capacity":"1","material":"steel","operator":"Veolia","waste":"trash"}},"type":"Feature"},
	{"geometry":{"coordinates":[30.363957,50.461962],"type":"Point"},"properties":{"osm_id":"6743590977","tag":{"access":"yes","amenity":"waste_disposal","capacity":"1","material":"steel","waste":"recycling"}},"type":"Feature"},
	{"geometry":{"coordinates":[30.363982,50.461962],"type":"Point"},"properties":{"osm_id":"6743590978","tag":{"access":"yes","amenity":"waste_disposal","capacity":"1","material":"steel","waste":"plastic"}},"type":"Feature"},
	{"geometry":{"coordinates":[30.364012,50.461963],"type":"Point"},"properties":{"osm_id":"6743590979","tag":{"access":"yes","amenity":"waste_disposal","capacity":"1","material":"steel","waste":"trash"}},"type":"Feature"},
	{"geometry":{"coordinates":[30.364552,50.461828],"type":"Point"},"properties":{"osm_id":"6743590980","tag":{"access":"yes","amenity":"waste_disposal","capacity":"1","material":"plastic","waste":"trash"}},"type":"Feature"},
	{"geometry":{"coordinates":[30.367306,50.46069],"type":"Point"},"properties":{"osm_id":"6743590981","tag":{"access":"yes","amenity":"waste_disposal","capacity":"1","material":"plastic","operator":"Veolia","waste":"trash"}},"type":"Feature"},
	{"geometry":{"coordinates":[30.369071,50.461231],"type":"Point"},"properties":{"osm_id":"6743590982","tag":{"access":"yes","amenity":"waste_disposal","capacity":"1","material":"steel","waste":"trash"}},"type":"Feature"},
	{"geometry":{"coordinates":[30.369045,50.461462],"type":"Point"},"properties":{"osm_id":"6743590983","tag":{"access":"yes","amenity":"waste_disposal","capacity":"1","material":"steel","waste":"trash"}},"type":"Feature"},
	{"geometry":{"coordinates":[30.369385,50.461792],"type":"Point"},"properties":{"osm_id":"6743590984","tag":{"access":"yes","amenity":"waste_disposal","capacity":"1","material":"steel","waste":"trash"}},"type":"Feature"},
	{"geometry":{"coordinates":[30.361878,50.458382],"type":"Point"},"properties":{"osm_id":"6743591588","tag":{"access":"yes","amenity":"waste_disposal","capacity":"1","material":"steel","waste":"trash"}},"type":"Feature"},
	{"geometry":{"coordinates":[30.361844,50.458384],"type":"Point"},"properties":{"osm_id":"6743591589","tag":{"access":"yes","amenity":"waste_disposal","capacity":"1","material":"steel","waste":"trash"}},"type":"Feature"},
	{"geometry":{"coordinates":[30.361804,50.458387],"type":"Point"},"properties":{"osm_id":"6743591590","tag":{"access":"yes","amenity":"waste_disposal","capacity":"1","material":"steel","waste":"trash"}},"type":"Feature"},
	{"geometry":{"coordinates":[30.369418,50.461793],"type":"Point"},"properties":{"osm_id":"6743600185","tag":{"access":"yes","amenity":"waste_disposal","capacity":"1","material":"steel","waste":"trash"}},"type":"Feature"},
	{"geometry":{"coordinates":[30.368022,50.462216],"type":"Point"},"properties":{"osm_id":"6743600186","tag":{"access":"yes","amenity":"waste_disposal","capacity":"1","material":"steel","waste":"trash"}},"type":"Feature"},
	{"geometry":{"coordinates":[30.367971,50.462216],"type":"Point"},"properties":{"osm_id":"6743600187","tag":{"access":"yes","amenity":"waste_disposal","capacity":"1","material":"steel","waste":"recycling"}},"type":"Feature"},
	{"geometry":{"coordinates":[30.368054,50.461719],"type":"Point"},"properties":{"osm_id":"6743600188","tag":{"access":"yes","amenity":"waste_disposal","capacity":"1","material":"steel","waste":"trash"}},"type":"Feature"},
	{"geometry":{"coordinates":[30.36724,50.462197],"type":"Point"},"properties":{"osm_id":"6743600189","tag":{"access":"yes","amenity":"waste_disposal","capacity":"1","material":"steel","waste":"recycling"}},"type":"Feature"},
	{"geometry":{"coordinates":[30.366383,50.462156],"type":"Point"},"properties":{"osm_id":"6743600190","tag":{"access":"yes","amenity":"waste_disposal","capacity":"1","material":"steel","waste":"trash"}},"type":"Feature"},
	{"geometry":{"coordinates":[30.366411,50.462157],"type":"Point"},"properties":{"osm_id":"6743600191","tag":{"access":"yes","amenity":"waste_disposal","capacity":"1","material":"steel","waste":"trash"}},"type":"Feature"},
	{"geometry":{"coordinates":[30.365135,50.462276],"type":"Point"},"properties":{"osm_id":"6743600192","tag":{"access":"yes","amenity":"waste_disposal","capacity":"1","material":"steel","waste":"trash"}},"type":"Feature"},
	{"geometry":{"coordinates":[30.364347,50.459205],"type":"Point"},"properties":{"osm_id":"6743600193","tag":{"access":"yes","amenity":"waste_disposal","capacity":"1","material":"steel","waste":"trash"}},"type":"Feature"},
	{"geometry":{"coordinates":[30.364682,50.458944],"type":"Point"},"properties":{"osm_id":"6743600194","tag":{"access":"yes","amenity":"waste_disposal","capacity":"1","material":"steel","waste":"recycling"}},"type":"Feature"},
	{"geometry":{"coordinates":[30.364631,50.458928],"type":"Point"},"properties":{"osm_id":"6743600195","tag":{"access":"yes","amenity":"waste_disposal","capacity":"1","material":"steel","waste":"trash"}},"type":"Feature"},
	{"geometry":{"coordinates":[30.364951,50.458276],"type":"Point"},"properties":{"osm_id":"6743600196","tag":{"access":"yes","amenity":"waste_disposal","capacity":"1","material":"steel","waste":"recycling"}},"type":"Feature"},
	{"geometry":{"coordinates":[30.364951,50.458237],"type":"Point"},"properties":{"osm_id":"6743600197","tag":{"access":"yes","amenity":"waste_disposal","capacity":"1","material":"plastic","waste":"trash"}},"type":"Feature"},
	{"geometry":{"coordinates":[30.365367,50.458257],"type":"Point"},"properties":{"osm_id":"6743600198","tag":{"access":"yes","amenity":"waste_disposal","capacity":"1","material":"steel","waste":"trash"}},"type":"Feature"},
	{"geometry":{"coordinates":[30.365929,50.457826],"type":"Point"},"properties":{"osm_id":"6743600199","tag":{"access":"yes","amenity":"waste_disposal","capacity":"1","material":"steel","waste":"trash"}},"type":"Feature"},
	{"geometry":{"coordinates":[30.365201,50.457778],"type":"Point"},"properties":{"osm_id":"6743600200","tag":{"access":"yes","amenity":"waste_disposal","capacity":"1","material":"steel","waste":"trash"}},"type":"Feature"},
	{"geometry":{"coordinates":[30.36523,50.457779],"type":"Point"},"properties":{"osm_id":"6743600201","tag":{"access":"yes","amenity":"waste_disposal","capacity":"1","material":"steel","waste":"trash"}},"type":"Feature"},
	{"geometry":{"coordinates":[30.365256,50.457781],"type":"Point"},"properties":{"osm_id":"6743600202","tag":{"access":"yes","amenity":"waste_disposal","capacity":"1","material":"steel","waste":"trash"}},"type":"Feature"},
	{"geometry":{"coordinates":[30.365284,50.457783],"type":"Point"},"properties":{"osm_id":"6743600203","tag":{"access":"yes","amenity":"waste_disposal","capacity":"1","material":"steel","waste":"trash"}},"type":"Feature"},
	{"geometry":{"coordinates":[30.365217,50.457758],"type":"Point"},"properties":{"osm_id":"6743600204","tag":{"access":"yes","amenity":"waste_disposal","capacity":"1","material":"steel","waste":"trash"}},"type":"Feature"},
	{"geometry":{"coordinates":[30.365252,50.457757],"type":"Point"},"properties":{"osm_id":"6743600205","tag":{"access":"yes","amenity":"waste_disposal","capacity":"1","material":"plastic","operator":"\u00d0\u0092\u00d0\u00be\u00d0\u00bb\u00d0\u00be\u00d0\u00b4\u00d0\u00b0\u00d1\u0080 \u00d1\u0080\u00d0\u00be\u00d0\u00b7","waste":"trash"}},"type":"Feature"},
	{"geometry":{"coordinates":[30.365912,50.457809],"type":"Point"},"properties":{"osm_id":"6743600209","tag":{"access":"yes","amenity":"waste_disposal","capacity":"1","material":"steel","waste":"trash"}},"type":"Feature"},
	{"geometry":{"coordinates":[30.370226,50.458559],"type":"Point"},"properties":{"osm_id":"6743600210","tag":{"access":"yes","amenity":"waste_disposal","capacity":"1","material":"steel","waste":"trash"}},"type":"Feature"},
	{"geometry":{"coordinates":[30.370674,50.458501],"type":"Point"},"properties":{"osm_id":"6743600211","tag":{"access":"yes","amenity":"waste_disposal","capacity":"1","material":"plastic","waste":"trash"}},"type":"Feature"},
	{"geometry":{"coordinates":[30.398627,50.458719],"type":"Point"},"properties":{"osm_id":"6744799885","tag":{"amenity":"waste_disposal","operator":"\u00d0\u009f\u00d0\u00b5\u00d1\u0080\u00d0\u00b5\u00d0\u00bc\u00d0\u00be\u00d0\u00b3\u00d0\u00b8 96"}},"type":"Feature"},
	{"geometry":{"coordinates":[30.398651,50.458694],"type":"Point"},"properties":{"osm_id":"6744800685","tag":{"amenity":"waste_disposal","operator":"\u00d0\u009f\u00d0\u00b5\u00d1\u0080\u00d0\u00b5\u00d0\u00bc\u00d0\u00be\u00d0\u00b3\u00d0\u00b8 96"}},"type":"Feature"},
	{"geometry":{"coordinates":[30.396964,50.465639],"type":"Point"},"properties":{"osm_id":"6744816985","tag":{"amenity":"waste_disposal","operator":"\u00d0\u00a2\u00d1\u0083\u00d0\u00bf\u00d0\u00be\u00d0\u00bb\u00d0\u00b5\u00d0\u00b2\u00d0\u00b0 12. \u00d0\u009a\u00d0\u00b8\u00d0\u00b5\u00d0\u00b2\u00d1\u0081\u00d0\u00ba\u00d0\u00b0\u00d1\u008f \u00d0\u00be\u00d0\u00b2\u00d0\u00be\u00d1\u0089\u00d0\u00bd\u00d0\u00b0\u00d1\u008f \u00d1\u0084\u00d0\u00b0\u00d0\u00b1\u00d1\u0080\u00d0\u00b8\u00d0\u00ba\u00d0\u00b0"}},"type":"Feature"},
	{"geometry":{"coordinates":[30.404836,50.465307],"type":"Point"},"properties":{"osm_id":"6744820285","tag":{"amenity":"waste_disposal","operator":"\u00d0\u00a9\u00d0\u00b5\u00d1\u0080\u00d0\u00b1\u00d0\u00b0\u00d0\u00ba\u00d0\u00be\u00d0\u00b2\u00d1\u0081\u00d0\u00ba\u00d0\u00be\u00d0\u00b3\u00d0\u00be 31\u00d0\u00b1"}},"type":"Feature"},
	{"geometry":{"coordinates":[30.404849,50.465721],"type":"Point"},"properties":{"osm_id":"6744820385","tag":{"amenity":"waste_disposal","operator":"\u00d0\u00a9\u00d0\u00b5\u00d1\u0080\u00d0\u00b1\u00d0\u00b0\u00d0\u00ba\u00d0\u00be\u00d0\u00b2\u00d1\u0081\u00d0\u00ba\u00d0\u00be\u00d0\u00b3\u00d0\u00be 31\u00d0\u00b1"}},"type":"Feature"},
	{"geometry":{"coordinates":[30.402503,50.474325],"type":"Point"},"properties":{"osm_id":"6744821187","tag":{"amenity":"waste_disposal","operator":"\u00d0\u00a9\u00d0\u00b5\u00d1\u0080\u00d0\u00b1\u00d0\u00b0\u00d0\u00ba\u00d0\u00be\u00d0\u00b2\u00d1\u0081\u00d0\u00ba\u00d0\u00be\u00d0\u00b3\u00d0\u00be 49\u00d0\u0093"}},"type":"Feature"},
	{"geometry":{"coordinates":[30.405145,50.46847],"type":"Point"},"properties":{"osm_id":"6744832885","tag":{"amenity":"waste_disposal","operator":"\u00d0\u00a9\u00d0\u00b5\u00d1\u0080\u00d0\u00b1\u00d0\u00b0\u00d0\u00ba\u00d0\u00be\u00d0\u00b2\u00d1\u0081\u00d0\u00ba\u00d0\u00be\u00d0\u00b3\u00d0\u00be 39"}},"type":"Feature"},
	{"geometry":{"coordinates":[30.402498,50.474084],"type":"Point"},"properties":{"osm_id":"6744832886","tag":{"amenity":"waste_disposal","operator":"\u00d0\u00a9\u00d0\u00b5\u00d1\u0080\u00d0\u00b1\u00d0\u00b0\u00d0\u00ba\u00d0\u00be\u00d0\u00b2\u00d1\u0081\u00d0\u00ba\u00d0\u00be\u00d0\u00b3\u00d0\u00be 49\u00d0\u0093"}},"type":"Feature"},
	{"geometry":{"coordinates":[30.403425,50.474402],"type":"Point"},"properties":{"osm_id":"6744832985","tag":{"amenity":"waste_disposal","operator":"\u00d0\u00a9\u00d0\u00b5\u00d1\u0080\u00d0\u00b1\u00d0\u00b0\u00d0\u00ba\u00d0\u00be\u00d0\u00b2\u00d1\u0081\u00d0\u00ba\u00d0\u00be\u00d0\u00b3\u00d0\u00be 49\u00d0\u0092"}},"type":"Feature"},
	{"geometry":{"coordinates":[30.404161,50.475193],"type":"Point"},"properties":{"osm_id":"6744982485","tag":{"amenity":"waste_disposal","operator":"\u00d0\u00a9\u00d0\u00b5\u00d1\u0080\u00d0\u00b1\u00d0\u00b0\u00d0\u00ba\u00d0\u00be\u00d0\u00b2\u00d1\u0081\u00d0\u00ba\u00d0\u00be\u00d0\u00b3\u00d0\u00be 53\u00d0\u0091"}},"type":"Feature"},
	{"geometry":{"coordinates":[30.404984,50.478445],"type":"Point"},"properties":{"osm_id":"6745000285","tag":{"amenity":"waste_disposal","operator":"\u00d0\u00a9\u00d0\u00b5\u00d1\u0080\u00d0\u00b1\u00d0\u00b0\u00d0\u00ba\u00d0\u00be\u00d0\u00b2\u00d1\u0081\u00d0\u00ba\u00d0\u00be\u00d0\u00b3\u00d0\u00be 59"}},"type":"Feature"},
	{"geometry":{"coordinates":[30.404988,50.478482],"type":"Point"},"properties":{"osm_id":"6745001785","tag":{"amenity":"waste_disposal","operator":"\u00d0\u00a9\u00d0\u00b5\u00d1\u0080\u00d0\u00b1\u00d0\u00b0\u00d0\u00ba\u00d0\u00be\u00d0\u00b2\u00d1\u0081\u00d0\u00ba\u00d0\u00be\u00d0\u00b3\u00d0\u00be 59"}},"type":"Feature"},
	{"geometry":{"coordinates":[30.405025,50.479134],"type":"Point"},"properties":{"osm_id":"6745022985","tag":{"amenity":"waste_disposal","operator":"\u00d0\u00a9\u00d0\u00b5\u00d1\u0080\u00d0\u00b1\u00d0\u00b0\u00d0\u00ba\u00d0\u00be\u00d0\u00b2\u00d1\u0081\u00d0\u00ba\u00d0\u00be\u00d0\u00b3\u00d0\u00be 61"}},"type":"Feature"},
	{"geometry":{"coordinates":[30.405022,50.479073],"type":"Point"},"properties":{"osm_id":"6745035985","tag":{"amenity":"waste_disposal","operator":"\u00d0\u00a9\u00d0\u00b5\u00d1\u0080\u00d0\u00b1\u00d0\u00b0\u00d0\u00ba\u00d0\u00be\u00d0\u00b2\u00d1\u0081\u00d0\u00ba\u00d0\u00be\u00d0\u00b3\u00d0\u00be 61"}},"type":"Feature"},
	{"geometry":{"coordinates":[30.405239,50.480245],"type":"Point"},"properties":{"osm_id":"6745036085","tag":{"amenity":"waste_disposal","operator":"\u00d0\u00a9\u00d0\u00b5\u00d1\u0080\u00d0\u00b1\u00d0\u00b0\u00d0\u00ba\u00d0\u00be\u00d0\u00b2\u00d1\u0081\u00d0\u00ba\u00d0\u00be\u00d0\u00b3\u00d0\u00be 63"}},"type":"Feature"},
	{"geometry":{"coordinates":[30.405236,50.480314],"type":"Point"},"properties":{"osm_id":"6745037285","tag":{"amenity":"waste_disposal","operator":"\u00d0\u00a9\u00d0\u00b5\u00d1\u0080\u00d0\u00b1\u00d0\u00b0\u00d0\u00ba\u00d0\u00be\u00d0\u00b2\u00d1\u0081\u00d0\u00ba\u00d0\u00be\u00d0\u00b3\u00d0\u00be 63"}},"type":"Feature"},
	{"geometry":{"coordinates":[30.4052,50.480289],"type":"Point"},"properties":{"osm_id":"6745037286","tag":{"amenity":"waste_disposal","operator":"\u00d0\u00a9\u00d0\u00b5\u00d1\u0080\u00d0\u00b1\u00d0\u00b0\u00d0\u00ba\u00d0\u00be\u00d0\u00b2\u00d1\u0081\u00d0\u00ba\u00d0\u00be\u00d0\u00b3\u00d0\u00be 63"}},"type":"Feature"},
	{"geometry":{"coordinates":[30.358482,50.458674],"type":"Point"},"properties":{"osm_id":"6745513008","tag":{"access":"yes","amenity":"waste_disposal","capacity":"1","material":"plastic","waste":"trash"}},"type":"Feature"},
	{"geometry":{"coordinates":[30.358482,50.458662],"type":"Point"},"properties":{"osm_id":"6745513009","tag":{"access":"yes","amenity":"waste_disposal","capacity":"1","material":"plastic","waste":"trash"}},"type":"Feature"},
	{"geometry":{"coordinates":[30.358483,50.458649],"type":"Point"},"properties":{"osm_id":"6745513010","tag":{"access":"yes","amenity":"waste_disposal","capacity":"1","material":"plastic","waste":"trash"}},"type":"Feature"},
	{"geometry":{"coordinates":[30.358484,50.45864],"type":"Point"},"properties":{"osm_id":"6745513011","tag":{"access":"yes","amenity":"waste_disposal","capacity":"1","material":"steel","waste":"recycling"}},"type":"Feature"},
	{"geometry":{"coordinates":[30.358308,50.458786],"type":"Point"},"properties":{"osm_id":"6745513012","tag":{"access":"yes","amenity":"waste_disposal","capacity":"1","material":"steel","waste":"trash"}},"type":"Feature"},
	{"geometry":{"coordinates":[30.358308,50.45877],"type":"Point"},"properties":{"osm_id":"6745513013","tag":{"access":"yes","amenity":"waste_disposal","capacity":"1","material":"steel","waste":"trash"}},"type":"Feature"},
	{"geometry":{"coordinates":[30.357945,50.460287],"type":"Point"},"properties":{"osm_id":"6745513014","tag":{"access":"yes","amenity":"waste_disposal","capacity":"1","material":"steel","waste":"trash"}},"type":"Feature"},
	{"geometry":{"coordinates":[30.357936,50.46029],"type":"Point"},"properties":{"osm_id":"6745513015","tag":{"access":"yes","amenity":"waste_disposal","capacity":"1","material":"steel","waste":"trash"}},"type":"Feature"},
	{"geometry":{"coordinates":[30.357925,50.460292],"type":"Point"},"properties":{"osm_id":"6745513016","tag":{"access":"yes","amenity":"waste_disposal","capacity":"1","material":"steel","waste":"trash"}},"type":"Feature"},
	{"geometry":{"coordinates":[30.357916,50.460294],"type":"Point"},"properties":{"osm_id":"6745513017","tag":{"access":"yes","amenity":"waste_disposal","capacity":"1","material":"steel","waste":"trash"}},"type":"Feature"},
	{"geometry":{"coordinates":[30.357906,50.460298],"type":"Point"},"properties":{"osm_id":"6745513018","tag":{"access":"yes","amenity":"waste_disposal","capacity":"1","material":"steel","waste":"trash"}},"type":"Feature"},
	{"geometry":{"coordinates":[30.357898,50.4603],"type":"Point"},"properties":{"osm_id":"6745513019","tag":{"access":"yes","amenity":"waste_disposal","capacity":"1","material":"steel","waste":"trash"}},"type":"Feature"},
	{"geometry":{"coordinates":[30.357887,50.460304],"type":"Point"},"properties":{"osm_id":"6745513020","tag":{"access":"yes","amenity":"waste_disposal","capacity":"1","material":"steel","waste":"trash"}},"type":"Feature"},
	{"geometry":{"coordinates":[30.357468,50.46128],"type":"Point"},"properties":{"osm_id":"6745513021","tag":{"access":"yes","amenity":"waste_disposal","capacity":"1","material":"steel","waste":"trash"}},"type":"Feature"},
	{"geometry":{"coordinates":[30.357479,50.46128],"type":"Point"},"properties":{"osm_id":"6745513022","tag":{"access":"yes","amenity":"waste_disposal","capacity":"1","material":"steel","waste":"trash"}},"type":"Feature"},
	{"geometry":{"coordinates":[30.357494,50.46128],"type":"Point"},"properties":{"osm_id":"6745513023","tag":{"access":"yes","amenity":"waste_disposal","capacity":"1","material":"steel","waste":"trash"}},"type":"Feature"},
	{"geometry":{"coordinates":[30.357469,50.461269],"type":"Point"},"properties":{"osm_id":"6745513024","tag":{"access":"yes","amenity":"waste_disposal","capacity":"1","material":"steel","waste":"trash"}},"type":"Feature"},
	{"geometry":{"coordinates":[30.357479,50.461269],"type":"Point"},"properties":{"osm_id":"6745513025","tag":{"access":"yes","amenity":"waste_disposal","capacity":"1","material":"steel","waste":"trash"}},"type":"Feature"},
	{"geometry":{"coordinates":[30.357494,50.46127],"type":"Point"},"properties":{"osm_id":"6745513026","tag":{"access":"yes","amenity":"waste_disposal","capacity":"1","material":"steel","waste":"trash"}},"type":"Feature"},
	{"geometry":{"coordinates":[30.356867,50.46235],"type":"Point"},"properties":{"osm_id":"6745513027","tag":{"access":"yes","amenity":"waste_disposal","capacity":"1","material":"steel","waste":"trash"}},"type":"Feature"},
	{"geometry":{"coordinates":[30.356792,50.462801],"type":"Point"},"properties":{"osm_id":"6745513028","tag":{"access":"yes","amenity":"waste_disposal","capacity":"1","material":"steel","waste":"trash"}},"type":"Feature"},
	{"geometry":{"coordinates":[30.356708,50.463373],"type":"Point"},"properties":{"osm_id":"6745513029","tag":{"access":"yes","amenity":"waste_disposal","capacity":"1","material":"steel","waste":"trash"}},"type":"Feature"},
	{"geometry":{"coordinates":[30.35722,50.463922],"type":"Point"},"properties":{"osm_id":"6745513030","tag":{"access":"yes","amenity":"waste_disposal","capacity":"1","material":"steel","waste":"trash"}},"type":"Feature"},
	{"geometry":{"coordinates":[30.357308,50.463931],"type":"Point"},"properties":{"osm_id":"6745513031","tag":{"access":"yes","amenity":"waste_disposal","capacity":"1","material":"steel","waste":"trash"}},"type":"Feature"},
	{"geometry":{"coordinates":[30.357415,50.464592],"type":"Point"},"properties":{"osm_id":"6745513032","tag":{"access":"yes","amenity":"waste_disposal","capacity":"1","material":"steel","waste":"recycling"}},"type":"Feature"},
	{"geometry":{"coordinates":[30.357417,50.464576],"type":"Point"},"properties":{"osm_id":"6745513033","tag":{"access":"yes","amenity":"waste_disposal","capacity":"1","material":"steel","waste":"trash"}},"type":"Feature"},
	{"geometry":{"coordinates":[30.357419,50.464562],"type":"Point"},"properties":{"osm_id":"6745513034","tag":{"access":"yes","amenity":"waste_disposal","capacity":"1","material":"steel","waste":"trash"}},"type":"Feature"},
	{"geometry":{"coordinates":[30.358316,50.464651],"type":"Point"},"properties":{"osm_id":"6745513035","tag":{"access":"yes","amenity":"waste_disposal","capacity":"1","material":"steel","operator":"\u00d0\u009a\u00d0\u00b8\u00d1\u0097\u00d0\u00b2\u00d1\u0081\u00d0\u00bf\u00d0\u00b5\u00d1\u0086\u00d1\u0082\u00d1\u0080\u00d0\u00b0\u00d0\u00bd\u00d1\u0081","waste":"trash"}},"type":"Feature"},
	{"geometry":{"coordinates":[30.359554,50.46472],"type":"Point"},"properties":{"osm_id":"6745513036","tag":{"access":"yes","amenity":"waste_disposal","capacity":"1","material":"steel","waste":"trash"}},"type":"Feature"},
	{"geometry":{"coordinates":[30.360136,50.464757],"type":"Point"},"properties":{"osm_id":"6745513037","tag":{"access":"yes","amenity":"waste_disposal","capacity":"1","material":"steel","waste":"trash"}},"type":"Feature"},
	{"geometry":{"coordinates":[30.360903,50.464816],"type":"Point"},"properties":{"osm_id":"6745513038","tag":{"access":"yes","amenity":"waste_disposal","capacity":"1","material":"steel","waste":"trash"}},"type":"Feature"},
	{"geometry":{"coordinates":[30.361759,50.464879],"type":"Point"},"properties":{"osm_id":"6745513039","tag":{"access":"private","amenity":"waste_disposal","capacity":"1","material":"plastic","waste":"trash"}},"type":"Feature"},
	{"geometry":{"coordinates":[30.361747,50.464877],"type":"Point"},"properties":{"osm_id":"6745513040","tag":{"access":"private","amenity":"waste_disposal","capacity":"1","material":"plastic","waste":"trash"}},"type":"Feature"},
	{"geometry":{"coordinates":[30.361733,50.464877],"type":"Point"},"properties":{"osm_id":"6745513041","tag":{"access":"private","amenity":"waste_disposal","capacity":"1","material":"plastic","waste":"trash"}},"type":"Feature"},
	{"geometry":{"coordinates":[30.361333,50.46425],"type":"Point"},"properties":{"osm_id":"6745513042","tag":{"access":"yes","amenity":"waste_disposal","capacity":"1","material":"plastic","waste":"trash"}},"type":"Feature"},
	{"geometry":{"coordinates":[30.361367,50.464249],"type":"Point"},"properties":{"osm_id":"6745513043","tag":{"access":"yes","amenity":"waste_disposal","capacity":"1","material":"plastic","waste":"trash"}},"type":"Feature"},
	{"geometry":{"coordinates":[30.361234,50.464165],"type":"Point"},"properties":{"osm_id":"6745513044","tag":{"access":"private","amenity":"waste_disposal","capacity":"1","material":"steel","waste":"trash"}},"type":"Feature"},
	{"geometry":{"coordinates":[30.359996,50.46388],"type":"Point"},"properties":{"osm_id":"6745513045","tag":{"access":"private","amenity":"waste_disposal","capacity":"1","material":"plastic","waste":"trash"}},"type":"Feature"},
	{"geometry":{"coordinates":[30.359952,50.463875],"type":"Point"},"properties":{"osm_id":"6745513046","tag":{"access":"private","amenity":"waste_disposal","capacity":"1","material":"plastic","waste":"trash"}},"type":"Feature"},
	{"geometry":{"coordinates":[30.359436,50.464074],"type":"Point"},"properties":{"osm_id":"6745513047","tag":{"access":"yes","amenity":"waste_disposal","capacity":"1","material":"plastic","waste":"trash"}},"type":"Feature"},
	{"geometry":{"coordinates":[30.358325,50.463169],"type":"Point"},"properties":{"osm_id":"6745513048","tag":{"access":"yes","amenity":"waste_disposal","capacity":"1","material":"steel","waste":"trash"}},"type":"Feature"},
	{"geometry":{"coordinates":[30.359148,50.462681],"type":"Point"},"properties":{"osm_id":"6745513049","tag":{"access":"yes","amenity":"waste_disposal","capacity":"1","material":"steel","waste":"trash"}},"type":"Feature"},
	{"geometry":{"coordinates":[30.358886,50.461476],"type":"Point"},"properties":{"osm_id":"6745513050","tag":{"access":"yes","amenity":"waste_disposal","capacity":"1","material":"steel","waste":"plastic"}},"type":"Feature"},
	{"geometry":{"coordinates":[30.359105,50.461423],"type":"Point"},"properties":{"osm_id":"6745513051","tag":{"access":"yes","amenity":"waste_disposal","capacity":"1","material":"steel","waste":"trash"}},"type":"Feature"},
	{"geometry":{"coordinates":[30.359109,50.46139],"type":"Point"},"properties":{"osm_id":"6745513052","tag":{"access":"yes","amenity":"waste_disposal","capacity":"1","material":"steel","waste":"trash"}},"type":"Feature"},
	{"geometry":{"coordinates":[30.359114,50.461367],"type":"Point"},"properties":{"osm_id":"6745513053","tag":{"access":"yes","amenity":"waste_disposal","capacity":"1","material":"steel","waste":"trash"}},"type":"Feature"},
	{"geometry":{"coordinates":[30.358898,50.461295],"type":"Point"},"properties":{"osm_id":"6745513054","tag":{"access":"yes","amenity":"waste_disposal","capacity":"1","material":"steel","waste":"plastic"}},"type":"Feature"},
	{"geometry":{"coordinates":[30.359556,50.461938],"type":"Point"},"properties":{"osm_id":"6745513055","tag":{"access":"yes","amenity":"waste_disposal","capacity":"1","material":"plastic","waste":"trash"}},"type":"Feature"},
	{"geometry":{"coordinates":[30.359542,50.461935],"type":"Point"},"properties":{"osm_id":"6745513056","tag":{"access":"yes","amenity":"waste_disposal","capacity":"1","material":"plastic","waste":"trash"}},"type":"Feature"},
	{"geometry":{"coordinates":[30.359532,50.461931],"type":"Point"},"properties":{"osm_id":"6745513057","tag":{"access":"yes","amenity":"waste_disposal","capacity":"1","material":"plastic","waste":"trash"}},"type":"Feature"},
	{"geometry":{"coordinates":[30.359522,50.461928],"type":"Point"},"properties":{"osm_id":"6745513058","tag":{"access":"yes","amenity":"waste_disposal","capacity":"1","material":"plastic","waste":"trash"}},"type":"Feature"},
	{"geometry":{"coordinates":[30.361511,50.461849],"type":"Point"},"properties":{"osm_id":"6745513059","tag":{"access":"yes","amenity":"waste_disposal","capacity":"1","material":"plastic","waste":"trash"}},"type":"Feature"},
	{"geometry":{"coordinates":[30.362382,50.462043],"type":"Point"},"properties":{"osm_id":"6745513060","tag":{"access":"yes","amenity":"waste_disposal","capacity":"1","material":"steel","waste":"trash"}},"type":"Feature"},
	{"geometry":{"coordinates":[30.362444,50.461824],"type":"Point"},"properties":{"osm_id":"6745513061","tag":{"access":"yes","amenity":"waste_disposal","capacity":"1","material":"steel","waste":"trash"}},"type":"Feature"},
	{"geometry":{"coordinates":[30.362458,50.461378],"type":"Point"},"properties":{"osm_id":"6745513062","tag":{"access":"yes","amenity":"waste_disposal","capacity":"1","material":"steel","waste":"trash"}},"type":"Feature"},
	{"geometry":{"coordinates":[30.362422,50.461373],"type":"Point"},"properties":{"osm_id":"6745513063","tag":{"access":"yes","amenity":"waste_disposal","capacity":"1","material":"plastic","waste":"trash"}},"type":"Feature"},
	{"geometry":{"coordinates":[30.362391,50.461369],"type":"Point"},"properties":{"osm_id":"6745513064","tag":{"access":"yes","amenity":"waste_disposal","capacity":"1","material":"plastic","waste":"trash"}},"type":"Feature"},
	{"geometry":{"coordinates":[30.362352,50.461369],"type":"Point"},"properties":{"osm_id":"6745513065","tag":{"access":"yes","amenity":"waste_disposal","capacity":"1","material":"steel","waste":"recycling"}},"type":"Feature"},
	{"geometry":{"coordinates":[30.362319,50.461366],"type":"Point"},"properties":{"osm_id":"6745513066","tag":{"access":"yes","amenity":"waste_disposal","capacity":"1","material":"steel","waste":"recycling"}},"type":"Feature"},
	{"geometry":{"coordinates":[30.362278,50.461364],"type":"Point"},"properties":{"osm_id":"6745513067","tag":{"access":"yes","amenity":"waste_disposal","capacity":"1","material":"plastic","waste":"trash"}},"type":"Feature"},
	{"geometry":{"coordinates":[30.359038,50.460853],"type":"Point"},"properties":{"osm_id":"6745513068","tag":{"access":"yes","amenity":"waste_disposal","capacity":"1","material":"steel","waste":"trash"}},"type":"Feature"},
	{"geometry":{"coordinates":[30.359238,50.460858],"type":"Point"},"properties":{"osm_id":"6745513069","tag":{"access":"yes","amenity":"waste_disposal","capacity":"1","material":"plastic","waste":"recycling"}},"type":"Feature"},
	{"geometry":{"coordinates":[30.359239,50.460833],"type":"Point"},"properties":{"osm_id":"6745513070","tag":{"access":"yes","amenity":"waste_disposal","capacity":"1","material":"plastic","waste":"recycling"}},"type":"Feature"},
	{"geometry":{"coordinates":[30.359244,50.460809],"type":"Point"},"properties":{"osm_id":"6745513071","tag":{"access":"yes","amenity":"waste_disposal","capacity":"1","material":"plastic","waste":"recycling"}},"type":"Feature"},
	{"geometry":{"coordinates":[30.359245,50.460785],"type":"Point"},"properties":{"osm_id":"6745513072","tag":{"access":"yes","amenity":"waste_disposal","capacity":"1","material":"steel","waste":"recycling"}},"type":"Feature"},
	{"geometry":{"coordinates":[30.359252,50.460761],"type":"Point"},"properties":{"osm_id":"6745513073","tag":{"access":"yes","amenity":"waste_disposal","capacity":"1","material":"steel","waste":"trash"}},"type":"Feature"},
	{"geometry":{"coordinates":[30.359187,50.460545],"type":"Point"},"properties":{"osm_id":"6745513074","tag":{"access":"yes","amenity":"waste_disposal","capacity":"1","material":"steel","waste":"trash"}},"type":"Feature"},
	{"geometry":{"coordinates":[30.359193,50.460515],"type":"Point"},"properties":{"osm_id":"6745513075","tag":{"access":"yes","amenity":"waste_disposal","capacity":"1","material":"steel","waste":"trash"}},"type":"Feature"},
	{"geometry":{"coordinates":[30.359459,50.460327],"type":"Point"},"properties":{"osm_id":"6745513076","tag":{"access":"yes","amenity":"waste_disposal","capacity":"1","material":"steel","waste":"trash"}},"type":"Feature"},
	{"geometry":{"coordinates":[30.359503,50.460055],"type":"Point"},"properties":{"osm_id":"6745513077","tag":{"access":"yes","amenity":"waste_disposal","capacity":"1","material":"steel","waste":"trash"}},"type":"Feature"},
	{"geometry":{"coordinates":[30.358981,50.460012],"type":"Point"},"properties":{"osm_id":"6745513078","tag":{"access":"yes","amenity":"waste_disposal","capacity":"1","material":"plastic","waste":"trash"}},"type":"Feature"},
	{"geometry":{"coordinates":[30.358716,50.4601],"type":"Point"},"properties":{"osm_id":"6745513079","tag":{"access":"yes","amenity":"waste_disposal","capacity":"1","material":"steel","waste":"trash"}},"type":"Feature"},
	{"geometry":{"coordinates":[30.358748,50.460091],"type":"Point"},"properties":{"osm_id":"6745513080","tag":{"access":"yes","amenity":"waste_disposal","capacity":"1","material":"steel","waste":"trash"}},"type":"Feature"},
	{"geometry":{"coordinates":[30.360517,50.460494],"type":"Point"},"properties":{"osm_id":"6745513081","tag":{"access":"yes","amenity":"waste_disposal","capacity":"1","material":"steel","waste":"trash"}},"type":"Feature"},
	{"geometry":{"coordinates":[30.360522,50.460475],"type":"Point"},"properties":{"osm_id":"6745513082","tag":{"access":"yes","amenity":"waste_disposal","capacity":"1","material":"steel","waste":"trash"}},"type":"Feature"},
	{"geometry":{"coordinates":[30.360527,50.460455],"type":"Point"},"properties":{"osm_id":"6745513083","tag":{"access":"yes","amenity":"waste_disposal","capacity":"1","material":"steel","waste":"trash"}},"type":"Feature"},
	{"geometry":{"coordinates":[30.361737,50.460194],"type":"Point"},"properties":{"osm_id":"6745513084","tag":{"access":"yes","amenity":"waste_disposal","capacity":"1","material":"steel","waste":"trash"}},"type":"Feature"},
	{"geometry":{"coordinates":[30.361686,50.460191],"type":"Point"},"properties":{"osm_id":"6745522385","tag":{"access":"yes","amenity":"waste_disposal","capacity":"1","material":"steel","waste":"recycling"}},"type":"Feature"},
	{"geometry":{"coordinates":[30.359678,50.459133],"type":"Point"},"properties":{"osm_id":"6745522386","tag":{"access":"yes","amenity":"waste_disposal","capacity":"1","material":"steel","waste":"trash"}},"type":"Feature"},
	{"geometry":{"coordinates":[30.359705,50.459135],"type":"Point"},"properties":{"osm_id":"6745522387","tag":{"access":"yes","amenity":"waste_disposal","capacity":"1","material":"steel","waste":"trash"}},"type":"Feature"},
	{"geometry":{"coordinates":[30.359729,50.459137],"type":"Point"},"properties":{"osm_id":"6745522388","tag":{"access":"yes","amenity":"waste_disposal","capacity":"1","material":"steel","waste":"trash"}},"type":"Feature"},
	{"geometry":{"coordinates":[30.359756,50.45914],"type":"Point"},"properties":{"osm_id":"6745522389","tag":{"access":"yes","amenity":"waste_disposal","capacity":"1","material":"steel","waste":"trash"}},"type":"Feature"},
	{"geometry":{"coordinates":[30.359667,50.45919],"type":"Point"},"properties":{"osm_id":"6745522390","tag":{"access":"yes","amenity":"waste_disposal","capacity":"1","material":"steel","waste":"trash"}},"type":"Feature"},
	{"geometry":{"coordinates":[30.359701,50.459192],"type":"Point"},"properties":{"osm_id":"6745522391","tag":{"access":"yes","amenity":"waste_disposal","capacity":"1","material":"steel","waste":"trash"}},"type":"Feature"},
	{"geometry":{"coordinates":[30.360844,50.45959],"type":"Point"},"properties":{"osm_id":"6745522392","tag":{"access":"private","amenity":"waste_disposal","capacity":"1","material":"steel","waste":"trash"}},"type":"Feature"},
	{"geometry":{"coordinates":[30.361928,50.45943],"type":"Point"},"properties":{"osm_id":"6745522393","tag":{"access":"yes","amenity":"waste_disposal","capacity":"1","material":"steel","waste":"trash"}},"type":"Feature"},
	{"geometry":{"coordinates":[30.361972,50.459422],"type":"Point"},"properties":{"osm_id":"6745522394","tag":{"access":"yes","amenity":"waste_disposal","capacity":"1","material":"steel","waste":"recycling"}},"type":"Feature"},
	{"geometry":{"coordinates":[30.362863,50.459592],"type":"Point"},"properties":{"osm_id":"6745522395","tag":{"access":"yes","amenity":"waste_disposal","capacity":"1","material":"steel","waste":"trash"}},"type":"Feature"},
	{"geometry":{"coordinates":[30.362881,50.459592],"type":"Point"},"properties":{"osm_id":"6745522396","tag":{"access":"yes","amenity":"waste_disposal","capacity":"1","material":"steel","waste":"recycling"}},"type":"Feature"},
	{"geometry":{"coordinates":[30.402326,50.460031],"type":"Point"},"properties":{"osm_id":"6781604085","tag":{"amenity":"waste_disposal","operator":"\u00d0\u009e\u00d0\u00bb\u00d0\u00b5\u00d0\u00ba\u00d1\u0081\u00d0\u00b0\u00d0\u00bd\u00d0\u00b4\u00d1\u0080\u00d0\u00be\u00d0\u00b2\u00d1\u0081\u00d0\u00ba\u00d0\u00b0\u00d1\u008f 12/14"}},"type":"Feature"},
	{"geometry":{"coordinates":[30.402087,50.460163],"type":"Point"},"properties":{"osm_id":"6781604185","tag":{"amenity":"waste_disposal","operator":"\u00d0\u009e\u00d0\u00bb\u00d0\u00b5\u00d0\u00ba\u00d1\u0081\u00d0\u00b0\u00d0\u00bd\u00d0\u00b4\u00d1\u0080\u00d0\u00be\u00d0\u00b2\u00d1\u0081\u00d0\u00ba\u00d0\u00b0\u00d1\u008f 16"}},"type":"Feature"},
	{"geometry":{"coordinates":[30.402017,50.459348],"type":"Point"},"properties":{"osm_id":"6781608285","tag":{"amenity":"waste_disposal","operator":"\u00d0\u009f\u00d0\u00b5\u00d1\u0080\u00d0\u00b5\u00d0\u00bc\u00d0\u00be\u00d0\u00b3\u00d0\u00b8 88/2"}},"type":"Feature"},
	{"geometry":{"coordinates":[30.325166,50.465435],"type":"Point"},"properties":{"osm_id":"7227154931","tag":{"amenity":"recycling","recycling_type":"container"}},"type":"Feature"},
	{"geometry":{"coordinates":[30.347598,50.466584],"type":"Point"},"properties":{"osm_id":"7497291055","tag":{"amenity":"waste_disposal"}},"type":"Feature"},
	{"geometry":{"coordinates":[30.394965,50.457719],"type":"Point"},"properties":{"osm_id":"7501524187","tag":{"amenity":"waste_basket","colour":"black","material":"metal","survey:date":"2020-05-09"}},"type":"Feature"},
	{"geometry":{"coordinates":[30.395432,50.457756],"type":"Point"},"properties":{"osm_id":"7501524585","tag":{"amenity":"waste_basket","colour":"black","survey:date":"2020-05-09"}},"type":"Feature"},
	{"geometry":{"coordinates":[30.378406,50.458611],"type":"Point"},"properties":{"osm_id":"7554714874","tag":{"amenity":"waste_basket","colour":"grey","survey:date":"2020-05-24"}},"type":"Feature"},
	{"geometry":{"coordinates":[30.379025,50.457761],"type":"Point"},"properties":{"osm_id":"7562257129","tag":{"amenity":"waste_basket","colour":"grey","survey:date":"2020-05-24"}},"type":"Feature"},
	{"geometry":{"coordinates":[30.379053,50.457993],"type":"Point"},"properties":{"osm_id":"7562257132","tag":{"amenity":"waste_basket","colour":"grey","survey:date":"2020-05-24"}},"type":"Feature"},
	{"geometry":{"coordinates":[30.378827,50.458671],"type":"Point"},"properties":{"osm_id":"7562257133","tag":{"amenity":"waste_basket","colour":"grey","survey:date":"2020-05-24"}},"type":"Feature"},
	{"geometry":{"coordinates":[30.378654,50.458653],"type":"Point"},"properties":{"osm_id":"7562257134","tag":{"amenity":"waste_basket","colour":"grey","survey:date":"2020-05-24"}},"type":"Feature"},
	{"geometry":{"coordinates":[30.378562,50.45913],"type":"Point"},"properties":{"osm_id":"7562257135","tag":{"amenity":"waste_basket","material":"metal"}},"type":"Feature"},
	{"geometry":{"coordinates":[30.378553,50.459513],"type":"Point"},"properties":{"osm_id":"7562257138","tag":{"amenity":"waste_basket","material":"metal"}},"type":"Feature"},
	{"geometry":{"coordinates":[30.378449,50.459799],"type":"Point"},"properties":{"osm_id":"7562257139","tag":{"amenity":"waste_basket","material":"metal"}},"type":"Feature"},
	{"geometry":{"coordinates":[30.378401,50.460079],"type":"Point"},"properties":{"osm_id":"7562257141","tag":{"amenity":"waste_basket","material":"metal"}},"type":"Feature"},
	{"geometry":{"coordinates":[30.377948,50.460335],"type":"Point"},"properties":{"osm_id":"7562257143","tag":{"amenity":"waste_basket","material":"metal"}},"type":"Feature"},
	{"geometry":{"coordinates":[30.377609,50.460548],"type":"Point"},"properties":{"osm_id":"7562257145","tag":{"amenity":"waste_basket","material":"metal"}},"type":"Feature"},
	{"geometry":{"coordinates":[30.376878,50.460896],"type":"Point"},"properties":{"osm_id":"7562257147","tag":{"amenity":"waste_basket","material":"metal"}},"type":"Feature"},
	{"geometry":{"coordinates":[30.37661,50.460997],"type":"Point"},"properties":{"osm_id":"7562257149","tag":{"amenity":"waste_basket","material":"metal"}},"type":"Feature"},
	{"geometry":{"coordinates":[30.376362,50.461109],"type":"Point"},"properties":{"osm_id":"7562257151","tag":{"amenity":"waste_basket","material":"metal"}},"type":"Feature"},
	{"geometry":{"coordinates":[30.376214,50.461222],"type":"Point"},"properties":{"osm_id":"7562257153","tag":{"amenity":"waste_basket","material":"metal"}},"type":"Feature"},
	{"geometry":{"coordinates":[30.375942,50.461318],"type":"Point"},"properties":{"osm_id":"7562257156","tag":{"amenity":"waste_basket","material":"metal"}},"type":"Feature"},
	{"geometry":{"coordinates":[30.375511,50.461561],"type":"Point"},"properties":{"osm_id":"7562257158","tag":{"amenity":"waste_basket","material":"metal"}},"type":"Feature"},
	{"geometry":{"coordinates":[30.375027,50.461797],"type":"Point"},"properties":{"osm_id":"7562257160","tag":{"amenity":"waste_basket","material":"metal"}},"type":"Feature"},
	{"geometry":{"coordinates":[30.374639,50.461949],"type":"Point"},"properties":{"osm_id":"7562257162","tag":{"amenity":"waste_basket","material":"metal"}},"type":"Feature"},
	{"geometry":{"coordinates":[30.374154,50.462181],"type":"Point"},"properties":{"osm_id":"7562257163","tag":{"amenity":"waste_basket","material":"metal"}},"type":"Feature"},
	{"geometry":{"coordinates":[30.373867,50.462316],"type":"Point"},"properties":{"osm_id":"7562257165","tag":{"amenity":"waste_basket","material":"metal"}},"type":"Feature"},
	{"geometry":{"coordinates":[30.373104,50.462718],"type":"Point"},"properties":{"osm_id":"7562257167","tag":{"amenity":"waste_basket","material":"metal"}},"type":"Feature"},
	{"geometry":{"coordinates":[30.372438,50.463015],"type":"Point"},"properties":{"osm_id":"7562257169","tag":{"amenity":"waste_basket","material":"metal"}},"type":"Feature"},
	{"geometry":{"coordinates":[30.372088,50.463199],"type":"Point"},"properties":{"osm_id":"7562257171","tag":{"amenity":"waste_basket","material":"metal"}},"type":"Feature"},
	{"geometry":{"coordinates":[30.37181,50.463312],"type":"Point"},"properties":{"osm_id":"7562257174","tag":{"amenity":"waste_basket","material":"metal"}},"type":"Feature"},
	{"geometry":{"coordinates":[30.370798,50.463796],"type":"Point"},"properties":{"osm_id":"7562257175","tag":{"amenity":"waste_basket","material":"metal"}},"type":"Feature"},
	{"geometry":{"coordinates":[30.370805,50.463917],"type":"Point"},"properties":{"osm_id":"7562257177","tag":{"amenity":"waste_basket","material":"metal"}},"type":"Feature"},
	{"geometry":{"coordinates":[30.369208,50.46468],"type":"Point"},"properties":{"osm_id":"7562257179","tag":{"amenity":"waste_basket","material":"metal"}},"type":"Feature"},
	{"geometry":{"coordinates":[30.368779,50.464751],"type":"Point"},"properties":{"osm_id":"7562257181","tag":{"amenity":"waste_basket","material":"metal"}},"type":"Feature"},
	{"geometry":{"coordinates":[30.368442,50.465045],"type":"Point"},"properties":{"osm_id":"7562257183","tag":{"amenity":"waste_basket","material":"metal"}},"type":"Feature"},
	{"geometry":{"coordinates":[30.367996,50.465125],"type":"Point"},"properties":{"osm_id":"7562273885","tag":{"amenity":"waste_basket","material":"metal"}},"type":"Feature"},
	{"geometry":{"coordinates":[30.367672,50.465406],"type":"Point"},"properties":{"osm_id":"7562273887","tag":{"amenity":"waste_basket","material":"metal"}},"type":"Feature"},
	{"geometry":{"coordinates":[30.367328,50.465443],"type":"Point"},"properties":{"osm_id":"7562273889","tag":{"amenity":"waste_basket","material":"metal"}},"type":"Feature"},
	{"geometry":{"coordinates":[30.36599,50.46561],"type":"Point"},"properties":{"osm_id":"7562273891","tag":{"amenity":"waste_basket","material":"metal"}},"type":"Feature"},
	{"geometry":{"coordinates":[30.365214,50.46565],"type":"Point"},"properties":{"osm_id":"7562273893","tag":{"amenity":"waste_basket","material":"metal"}},"type":"Feature"},
	{"geometry":{"coordinates":[30.364564,50.465525],"type":"Point"},"properties":{"osm_id":"7562273895","tag":{"amenity":"waste_basket","material":"metal"}},"type":"Feature"},
	{"geometry":{"coordinates":[30.363984,50.465563],"type":"Point"},"properties":{"osm_id":"7562273898","tag":{"amenity":"waste_basket","material":"metal"}},"type":"Feature"},
	{"geometry":{"coordinates":[30.361434,50.465383],"type":"Point"},"properties":{"osm_id":"7562273900","tag":{"amenity":"waste_basket","material":"metal"}},"type":"Feature"},
	{"geometry":{"coordinates":[30.361331,50.465313],"type":"Point"},"properties":{"osm_id":"7562273902","tag":{"amenity":"waste_basket","material":"metal"}},"type":"Feature"},
	{"geometry":{"coordinates":[30.361001,50.465357],"type":"Point"},"properties":{"osm_id":"7562273904","tag":{"amenity":"waste_basket","material":"metal"}},"type":"Feature"},
	{"geometry":{"coordinates":[30.360858,50.465282],"type":"Point"},"properties":{"osm_id":"7562273906","tag":{"amenity":"waste_basket","material":"metal"}},"type":"Feature"},
	{"geometry":{"coordinates":[30.36035,50.465247],"type":"Point"},"properties":{"osm_id":"7562273908","tag":{"amenity":"waste_basket","material":"metal"}},"type":"Feature"},
	{"geometry":{"coordinates":[30.360154,50.465235],"type":"Point"},"properties":{"osm_id":"7562273910","tag":{"amenity":"waste_basket","material":"metal"}},"type":"Feature"},
	{"geometry":{"coordinates":[30.360083,50.465313],"type":"Point"},"properties":{"osm_id":"7562273912","tag":{"amenity":"waste_basket","material":"metal"}},"type":"Feature"},
	{"geometry":{"coordinates":[30.359886,50.465217],"type":"Point"},"properties":{"osm_id":"7562273914","tag":{"amenity":"waste_basket","material":"metal"}},"type":"Feature"},
	{"geometry":{"coordinates":[30.359663,50.465283],"type":"Point"},"properties":{"osm_id":"7562273916","tag":{"amenity":"waste_basket","material":"metal"}},"type":"Feature"},
	{"geometry":{"coordinates":[30.359324,50.465181],"type":"Point"},"properties":{"osm_id":"7562273918","tag":{"amenity":"waste_basket","material":"metal"}},"type":"Feature"},
	{"geometry":{"coordinates":[30.359303,50.465256],"type":"Point"},"properties":{"osm_id":"7562273920","tag":{"amenity":"waste_basket","material":"metal"}},"type":"Feature"},
	{"geometry":{"coordinates":[30.358882,50.465155],"type":"Point"},"properties":{"osm_id":"7562273922","tag":{"amenity":"waste_basket","material":"metal"}},"type":"Feature"},
	{"geometry":{"coordinates":[30.358873,50.465232],"type":"Point"},"properties":{"osm_id":"7562273924","tag":{"amenity":"waste_basket","material":"metal"}},"type":"Feature"},
	{"geometry":{"coordinates":[30.358489,50.465207],"type":"Point"},"properties":{"osm_id":"7562273926","tag":{"amenity":"waste_basket","material":"metal"}},"type":"Feature"},
	{"geometry":{"coordinates":[30.358345,50.465121],"type":"Point"},"properties":{"osm_id":"7562273928","tag":{"amenity":"waste_basket","material":"metal"}},"type":"Feature"},
	{"geometry":{"coordinates":[30.358088,50.465185],"type":"Point"},"properties":{"osm_id":"7562273930","tag":{"amenity":"waste_basket","material":"metal"}},"type":"Feature"},
	{"geometry":{"coordinates":[30.356843,50.465037],"type":"Point"},"properties":{"osm_id":"7562273934","tag":{"amenity":"waste_basket","material":"metal"}},"type":"Feature"},
	{"geometry":{"coordinates":[30.356607,50.465025],"type":"Point"},"properties":{"osm_id":"7562273936","tag":{"amenity":"waste_basket","material":"metal"}},"type":"Feature"},
	{"geometry":{"coordinates":[30.356358,50.465006],"type":"Point"},"properties":{"osm_id":"7562273938","tag":{"amenity":"waste_basket","material":"metal"}},"type":"Feature"},
	{"geometry":{"coordinates":[30.356138,50.46499],"type":"Point"},"properties":{"osm_id":"7562273940","tag":{"amenity":"waste_basket","material":"metal"}},"type":"Feature"},
	{"geometry":{"coordinates":[30.356018,50.46498],"type":"Point"},"properties":{"osm_id":"7562273943","tag":{"amenity":"waste_basket","material":"metal"}},"type":"Feature"},
	{"geometry":{"coordinates":[30.383782,50.461534],"type":"Point"},"properties":{"osm_id":"7591353285","tag":{"amenity":"waste_basket","colour":"grey","material":"metal","survey:date":"2020-06-04"}},"type":"Feature"},
	{"geometry":{"coordinates":[30.383889,50.461541],"type":"Point"},"properties":{"osm_id":"7591353385","tag":{"amenity":"waste_basket","colour":"grey","material":"metal","survey:date":"2020-06-04"}},"type":"Feature"},
	{"geometry":{"coordinates":[30.383934,50.461481],"type":"Point"},"properties":{"osm_id":"7591353386","tag":{"amenity":"waste_basket","colour":"grey","material":"metal","survey:date":"2020-06-04"}},"type":"Feature"},
	{"geometry":{"coordinates":[30.383575,50.461485],"type":"Point"},"properties":{"osm_id":"7591353387","tag":{"amenity":"waste_basket","colour":"grey","material":"metal","survey:date":"2020-06-04"}},"type":"Feature"},
	{"geometry":{"coordinates":[30.383694,50.46153],"type":"Point"},"properties":{"osm_id":"7591353487","tag":{"amenity":"waste_basket","colour":"grey","material":"metal","survey:date":"2020-06-04"}},"type":"Feature"},
	{"geometry":{"coordinates":[30.383728,50.461386],"type":"Point"},"properties":{"osm_id":"7591353489","tag":{"amenity":"waste_basket","colour":"grey","material":"metal","survey:date":"2020-06-04"}},"type":"Feature"},
	{"geometry":{"coordinates":[30.383849,50.461439],"type":"Point"},"properties":{"osm_id":"7591353685","tag":{"amenity":"waste_basket","colour":"grey","material":"metal","survey:date":"2020-06-04"}},"type":"Feature"},
	{"geometry":{"coordinates":[30.400027,50.471659],"type":"Point"},"properties":{"osm_id":"7814448465","tag":{"amenity":"waste_basket"}},"type":"Feature"}
]
}
