{
"type": "FeatureCollection",
"features": [
	{"geometry":{"coordinates":[30.389477,50.42224],"type":"Point"},"properties":{"osm_id":"1224120848","tag":{"amenity":"recycling","recycling:glass":"yes","recycling:paper":"yes"}},"type":"Feature"},
	{"geometry":{"coordinates":[30.381865,50.424786],"type":"Point"},"properties":{"osm_id":"1382188032","tag":{"amenity":"waste_basket"}},"type":"Feature"},
	{"geometry":{"coordinates":[30.384334,50.453434],"type":"Point"},"properties":{"osm_id":"3361636904","tag":{"access":"yes","amenity":"waste_disposal","capacity":"1","material":"steel","waste":"trash"}},"type":"Feature"},
	{"geometry":{"coordinates":[30.380256,50.454373],"type":"Point"},"properties":{"osm_id":"3361636926","tag":{"access":"yes","amenity":"waste_disposal","capacity":"1","material":"steel","waste":"trash"}},"type":"Feature"},
	{"geometry":{"coordinates":[30.380182,50.454857],"type":"Point"},"properties":{"osm_id":"3361636927","tag":{"access":"yes","amenity":"waste_disposal","capacity":"1","material":"steel","operator":"Veolia","waste":"trash"}},"type":"Feature"},
	{"geometry":{"coordinates":[30.386768,50.454726],"type":"Point"},"properties":{"osm_id":"3362229317","tag":{"access":"yes","amenity":"waste_disposal","capacity":"1","material":"steel","operator":"Veolia","waste":"trash"}},"type":"Feature"},
	{"geometry":{"coordinates":[30.389781,50.430862],"type":"Point"},"properties":{"osm_id":"3500004397","tag":{"amenity":"waste_basket"}},"type":"Feature"},
	{"geometry":{"coordinates":[30.401663,50.435973],"type":"Point"},"properties":{"osm_id":"3531901419","tag":{"amenity":"waste_disposal"}},"type":"Feature"},
	{"geometry":{"coordinates":[30.368613,50.42758],"type":"Point"},"properties":{"osm_id":"3545444853","tag":{"amenity":"waste_basket"}},"type":"Feature"},
	{"geometry":{"coordinates":[30.371832,50.42821],"type":"Point"},"properties":{"osm_id":"3545444898","tag":{"amenity":"waste_basket"}},"type":"Feature"},
	{"geometry":{"coordinates":[30.407701,50.440697],"type":"Point"},"properties":{"osm_id":"3552460787","tag":{"amenity":"waste_basket"}},"type":"Feature"},
	{"geometry":{"coordinates":[30.407923,50.441253],"type":"Point"},"properties":{"osm_id":"3552460790","tag":{"amenity":"waste_basket"}},"type":"Feature"},
	{"geometry":{"coordinates":[30.382431,50.429692],"type":"Point"},"properties":{"osm_id":"3555178007","tag":{"amenity":"waste_disposal"}},"type":"Feature"},
	{"geometry":{"coordinates":[30.383921,50.430774],"type":"Point"},"properties":{"osm_id":"3555178081","tag":{"amenity":"waste_basket"}},"type":"Feature"},
	{"geometry":{"coordinates":[30.383616,50.430889],"type":"Point"},"properties":{"osm_id":"3555178091","tag":{"amenity":"waste_disposal"}},"type":"Feature"},
	{"geometry":{"coordinates":[30.383056,50.431194],"type":"Point"},"properties":{"osm_id":"3555178112","tag":{"amenity":"waste_basket"}},"type":"Feature"},
	{"geometry":{"coordinates":[30.384212,50.431246],"type":"Point"},"properties":{"osm_id":"3555178117","tag":{"amenity":"waste_basket"}},"type":"Feature"},
	{"geometry":{"coordinates":[30.383018,50.431248],"type":"Point"},"properties":{"osm_id":"3555178119","tag":{"amenity":"waste_basket"}},"type":"Feature"},
	{"geometry":{"coordinates":[30.382358,50.431288],"type":"Point"},"properties":{"osm_id":"3555178124","tag":{"amenity":"waste_basket"}},"type":"Feature"},
	{"geometry":{"coordinates":[30.390139,50.435746],"type":"Point"},"properties":{"osm_id":"3579415227","tag":{"amenity":"waste_basket"}},"type":"Feature"},
	{"geometry":{"coordinates":[30.389536,50.436057],"type":"Point"},"properties":{"osm_id":"3579415255","tag":{"amenity":"waste_basket"}},"type":"Feature"},
	{"geometry":{"coordinates":[30.386743,50.430742],"type":"Point"},"properties":{"osm_id":"3627296923","tag":{"amenity":"waste_disposal"}},"type":"Feature"},
	{"geometry":{"coordinates":[30.386042,50.432215],"type":"Point"},"properties":{"osm_id":"3627405958","tag":{"amenity":"waste_disposal"}},"type":"Feature"},
	{"geometry":{"coordinates":[30.395857,50.457417],"type":"Point"},"properties":{"osm_id":"3819226216","tag":{"amenity":"waste_disposal"}},"type":"Feature"},
	{"geometry":{"coordinates":[30.383335,50.456381],"type":"Point"},"properties":{"osm_id":"3831366659","tag":{"amenity":"waste_disposal"}},"type":"Feature"},
	{"geometry":{"coordinates":[30.382676,50.456044],"type":"Point"},"properties":{"osm_id":"3831367563","tag":{"amenity":"waste_disposal"}},"type":"Feature"},
	{"geometry":{"coordinates":[30.362028,50.455241],"type":"Point"},"properties":{"osm_id":"3831369260","tag":{"amenity":"waste_disposal"}},"type":"Feature"},
	{"geometry":{"coordinates":[30.385479,50.453513],"type":"Point"},"properties":{"osm_id":"3836347471","tag":{"access":"yes","amenity":"waste_disposal","capacity":"1","material":"steel","operator":"Veolia","waste":"trash"}},"type":"Feature"},
	{"geometry":{"coordinates":[30.366022,50.457059],"type":"Point"},"properties":{"osm_id":"4252609689","tag":{"access":"yes","amenity":"waste_disposal","capacity":"1","material":"steel","waste":"trash"}},"type":"Feature"},
	{"geometry":{"coordinates":[30.364127,50.431554],"type":"Point"},"properties":{"osm_id":"4272310266","tag":{"amenity":"waste_disposal"}},"type":"Feature"},
	{"geometry":{"coordinates":[30.381677,50.423936],"type":"Point"},"properties":{"osm_id":"4431145691","tag":{"amenity":"waste_disposal"}},"type":"Feature"},
	{"geometry":{"coordinates":[30.366298,50.45642],"type":"Point"},"properties":{"osm_id":"4528422364","tag":{"access":"yes","amenity":"waste_disposal","capacity":"1","material":"steel","waste":"trash"}},"type":"Feature"},
	{"geometry":{"coordinates":[30.400358,50.456447],"type":"Point"},"properties":{"osm_id":"4840238232","tag":{"amenity":"waste_disposal"}},"type":"Feature"},
	{"geometry":{"coordinates":[30.384187,50.456196],"type":"Point"},"properties":{"osm_id":"4840242325","tag":{"amenity":"waste_disposal"}},"type":"Feature"},
	{"geometry":{"coordinates":[30.372319,50.441033],"type":"Point"},"properties":{"name":"\u00d0\u009f\u00d1\u0083\u00d0\u00bd\u00d0\u00ba\u00d1\u0082 \u00d0\u00bf\u00d1\u0080\u00d0\u00b8\u00d0\u00b5\u00d0\u00bc\u00d0\u00b0 \u00d1\u0088\u00d0\u00b8\u00d0\u00bd","osm_id":"4841962139","tag":{"addr:housenumber":"8","addr:street":"\u00d0\u0091\u00d0\u00b5\u00d1\u0082\u00d1\u0085\u00d0\u00be\u00d0\u00b2\u00d0\u00b5\u00d0\u00bd\u00d0\u00b0 \u00d0\u00b2\u00d1\u0083\u00d0\u00bb\u00d0\u00b8\u00d1\u0086\u00d1\u008f","amenity":"recycling","opening_hours":"Mo-Su 08:00-17:00","operator":"\u00d0\u009a\u00d0\u009f \u00d0\u00a3\u00d0\u0097\u00d0\u009d","recycling_type":"centre"}},"type":"Feature"},
	{"geometry":{"coordinates":[30.354206,50.439799],"type":"Point"},"properties":{"osm_id":"4854324945","tag":{"amenity":"recycling","recycling:batteries":"yes","recycling_type":"container"}},"type":"Feature"},
	{"geometry":{"coordinates":[30.376745,50.455662],"type":"Point"},"properties":{"osm_id":"4870369440","tag":{"amenity":"waste_disposal"}},"type":"Feature"},
	{"geometry":{"coordinates":[30.376724,50.455662],"type":"Point"},"properties":{"osm_id":"4870369441","tag":{"amenity":"waste_disposal"}},"type":"Feature"},
	{"geometry":{"coordinates":[30.376703,50.455662],"type":"Point"},"properties":{"osm_id":"4870369442","tag":{"amenity":"waste_disposal"}},"type":"Feature"},
	{"geometry":{"coordinates":[30.377066,50.455154],"type":"Point"},"properties":{"osm_id":"4870369443","tag":{"amenity":"waste_disposal"}},"type":"Feature"},
	{"geometry":{"coordinates":[30.38079,50.422282],"type":"Point"},"properties":{"osm_id":"4885145024","tag":{"amenity":"waste_disposal"}},"type":"Feature"},
	{"geometry":{"coordinates":[30.39874,50.451012],"type":"Point"},"properties":{"osm_id":"5018800422","tag":{"access":"yes","amenity":"waste_disposal","capacity":"1","material":"steel","waste":"trash"}},"type":"Feature"},
	{"geometry":{"coordinates":[30.389468,50.451737],"type":"Point"},"properties":{"osm_id":"5030793824","tag":{"amenity":"waste_disposal"}},"type":"Feature"},
	{"geometry":{"coordinates":[30.370104,50.452431],"type":"Point"},"properties":{"osm_id":"5032593129","tag":{"access":"yes","amenity":"waste_disposal","capacity":"1","material":"steel","waste":"trash"}},"type":"Feature"},
	{"geometry":{"coordinates":[30.40422,50.416259],"type":"Point"},"properties":{"osm_id":"5060524522","tag":{"amenity":"waste_disposal"}},"type":"Feature"},
	{"geometry":{"coordinates":[30.404493,50.414861],"type":"Point"},"properties":{"osm_id":"5060524722","tag":{"amenity":"waste_disposal"}},"type":"Feature"},
	{"geometry":{"coordinates":[30.398185,50.416486],"type":"Point"},"properties":{"osm_id":"5060537123","tag":{"amenity":"waste_disposal"}},"type":"Feature"},
	{"geometry":{"coordinates":[30.407035,50.410876],"type":"Point"},"properties":{"osm_id":"5060545021","tag":{"amenity":"waste_disposal"}},"type":"Feature"},
	{"geometry":{"coordinates":[30.372622,50.45421],"type":"Point"},"properties":{"osm_id":"5076997161","tag":{"amenity":"waste_basket"}},"type":"Feature"},
	{"geometry":{"coordinates":[30.372599,50.454354],"type":"Point"},"properties":{"osm_id":"5076997163","tag":{"amenity":"waste_basket"}},"type":"Feature"},
	{"geometry":{"coordinates":[30.395969,50.415647],"type":"Point"},"properties":{"osm_id":"5077403725","tag":{"amenity":"waste_disposal"}},"type":"Feature"},
	{"geometry":{"coordinates":[30.406731,50.411647],"type":"Point"},"properties":{"osm_id":"5077403726","tag":{"amenity":"waste_disposal"}},"type":"Feature"},
	{"geometry":{"coordinates":[30.372845,50.453727],"type":"Point"},"properties":{"osm_id":"5178882727","tag":{"access":"yes","amenity":"waste_disposal","capacity":"4","material":"plastic","waste":"trash"}},"type":"Feature"},
	{"geometry":{"coordinates":[30.38114,50.451642],"type":"Point"},"properties":{"osm_id":"5178918221","tag":{"amenity":"waste_disposal"}},"type":"Feature"},
	{"geometry":{"coordinates":[30.342649,50.407066],"type":"Point"},"properties":{"osm_id":"5402232404","tag":{"amenity":"waste_basket"}},"type":"Feature"},
	{"geometry":{"coordinates":[30.352465,50.454704],"type":"Point"},"properties":{"osm_id":"5405019423","tag":{"amenity":"recycling","operator":"\u00d0\u00a3\u00d0\u00ba\u00d1\u0080\u00d0\u00b0\u00d1\u0097\u00d0\u00bd\u00d0\u00b0 \u00d0\u00b1\u00d0\u00b5\u00d0\u00b7 \u00d1\u0081\u00d0\u00bc\u00d1\u0096\u00d1\u0082\u00d1\u0082\u00d1\u008f","recycling:plastic_caps":"yes","recycling_type":"container"}},"type":"Feature"},
	{"geometry":{"coordinates":[30.380195,50.438809],"type":"Point"},"properties":{"osm_id":"5426281448","tag":{"amenity":"recycling","recycling:paper":"yes","recycling:plastic_bottles":"yes","recycling:scrap_metal":"yes","recycling_type":"centre"}},"type":"Feature"},
	{"geometry":{"coordinates":[30.399992,50.413355],"type":"Point"},"properties":{"osm_id":"6398675190","tag":{"amenity":"waste_disposal"}},"type":"Feature"},
	{"geometry":{"coordinates":[30.397285,50.41546],"type":"Point"},"properties":{"osm_id":"6398683485","tag":{"amenity":"waste_disposal"}},"type":"Feature"},
	{"geometry":{"coordinates":[30.404163,50.412436],"type":"Point"},"properties":{"osm_id":"6398683486","tag":{"amenity":"waste_disposal"}},"type":"Feature"},
	{"geometry":{"coordinates":[30.4027,50.408984],"type":"Point"},"properties":{"osm_id":"6402259887","tag":{"amenity":"recycling","recycling:glass":"yes","recycling:glass_bottles":"yes","recycling_type":"container"}},"type":"Feature"},
	{"geometry":{"coordinates":[30.405372,50.410784],"type":"Point"},"properties":{"osm_id":"6498217486","tag":{"amenity":"waste_basket"}},"type":"Feature"},
	{"geometry":{"coordinates":[30.398128,50.407419],"type":"Point"},"properties":{"osm_id":"6498217487","tag":{"amenity":"waste_disposal"}},"type":"Feature"},
	{"geometry":{"coordinates":[30.407455,50.407873],"type":"Point"},"properties":{"osm_id":"6498217490","tag":{"amenity":"waste_basket"}},"type":"Feature"},
	{"geometry":{"coordinates":[30.39882,50.433999],"type":"Point"},"properties":{"osm_id":"6742573514","tag":{"access":"yes","amenity":"waste_disposal","capacity":"1","material":"steel","waste":"trash"}},"type":"Feature"},
	{"geometry":{"coordinates":[30.398892,50.434026],"type":"Point"},"properties":{"osm_id":"6742573515","tag":{"access":"yes","amenity":"waste_disposal","capacity":"1","material":"steel","waste":"plastic"}},"type":"Feature"},
	{"geometry":{"coordinates":[30.398836,50.434001],"type":"Point"},"properties":{"osm_id":"6742573516","tag":{"access":"yes","amenity":"waste_disposal","capacity":"1","material":"steel","waste":"trash"}},"type":"Feature"},
	{"geometry":{"coordinates":[30.398853,50.434003],"type":"Point"},"properties":{"osm_id":"6742573517","tag":{"access":"yes","amenity":"waste_disposal","capacity":"1","material":"steel","waste":"recycling"}},"type":"Feature"},
	{"geometry":{"coordinates":[30.398846,50.435534],"type":"Point"},"properties":{"osm_id":"6742573518","tag":{"access":"yes","amenity":"waste_disposal","capacity":"1","material":"steel","waste":"trash"}},"type":"Feature"},
	{"geometry":{"coordinates":[30.397622,50.436584],"type":"Point"},"properties":{"osm_id":"6742573519","tag":{"access":"private","amenity":"waste_disposal","capacity":"1","material":"steel","waste":"trash"}},"type":"Feature"},
	{"geometry":{"coordinates":[30.397403,50.435564],"type":"Point"},"properties":{"osm_id":"6742573520","tag":{"access":"yes","amenity":"waste_disposal","capacity":"1","material":"steel","waste":"trash"}},"type":"Feature"},
	{"geometry":{"coordinates":[30.397591,50.435335],"type":"Point"},"properties":{"osm_id":"6742573521","tag":{"access":"yes","amenity":"waste_disposal","capacity":"1","material":"steel","waste":"trash"}},"type":"Feature"},
	{"geometry":{"coordinates":[30.397217,50.435809],"type":"Point"},"properties":{"osm_id":"6742573522","tag":{"access":"yes","amenity":"waste_disposal","capacity":"1","material":"steel","waste":"trash"}},"type":"Feature"},
	{"geometry":{"coordinates":[30.39797,50.434831],"type":"Point"},"properties":{"osm_id":"6742573523","tag":{"access":"yes","amenity":"waste_disposal","capacity":"1","material":"steel","waste":"trash"}},"type":"Feature"},
	{"geometry":{"coordinates":[30.39798,50.434818],"type":"Point"},"properties":{"osm_id":"6742573524","tag":{"access":"yes","amenity":"waste_disposal","capacity":"1","material":"steel","waste":"trash"}},"type":"Feature"},
	{"geometry":{"coordinates":[30.397987,50.434806],"type":"Point"},"properties":{"osm_id":"6742573525","tag":{"access":"yes","amenity":"waste_disposal","capacity":"1","material":"steel","waste":"trash"}},"type":"Feature"},
	{"geometry":{"coordinates":[30.396718,50.4353],"type":"Point"},"properties":{"osm_id":"6742573526","tag":{"access":"yes","amenity":"waste_disposal","capacity":"1","material":"plastic","waste":"trash"}},"type":"Feature"},
	{"geometry":{"coordinates":[30.396742,50.435308],"type":"Point"},"properties":{"osm_id":"6742573527","tag":{"access":"yes","amenity":"waste_disposal","capacity":"1","material":"plastic","waste":"trash"}},"type":"Feature"},
	{"geometry":{"coordinates":[30.396085,50.434433],"type":"Point"},"properties":{"osm_id":"6742573528","tag":{"access":"yes","amenity":"waste_disposal","capacity":"1","material":"steel","waste":"trash"}},"type":"Feature"},
	{"geometry":{"coordinates":[30.396104,50.434442],"type":"Point"},"properties":{"osm_id":"6742573529","tag":{"access":"yes","amenity":"waste_disposal","capacity":"1","material":"steel","waste":"trash"}},"type":"Feature"},
	{"geometry":{"coordinates":[30.396122,50.434452],"type":"Point"},"properties":{"osm_id":"6742573530","tag":{"access":"yes","amenity":"waste_disposal","capacity":"1","material":"plastic","waste":"trash"}},"type":"Feature"},
	{"geometry":{"coordinates":[30.384691,50.439123],"type":"Point"},"properties":{"osm_id":"6742573531","tag":{"access":"private","amenity":"waste_disposal","capacity":"1","material":"plastic","waste":"trash"}},"type":"Feature"},
	{"geometry":{"coordinates":[30.384669,50.439166],"type":"Point"},"properties":{"osm_id":"6742573532","tag":{"access":"private","amenity":"waste_disposal","capacity":"1","material":"plastic","waste":"trash"}},"type":"Feature"},
	{"geometry":{"coordinates":[30.38468,50.439147],"type":"Point"},"properties":{"osm_id":"6742573533","tag":{"access":"private","amenity":"waste_disposal","capacity":"1","material":"plastic","waste":"trash"}},"type":"Feature"},
	{"geometry":{"coordinates":[30.384197,50.440156],"type":"Point"},"properties":{"osm_id":"6742573534","tag":{"access":"yes","amenity":"waste_disposal","capacity":"1","material":"steel","waste":"trash"}},"type":"Feature"},
	{"geometry":{"coordinates":[30.38419,50.440176],"type":"Point"},"properties":{"osm_id":"6742573535","tag":{"access":"yes","amenity":"waste_disposal","capacity":"1","material":"steel","waste":"trash"}},"type":"Feature"},
	{"geometry":{"coordinates":[30.384184,50.440153],"type":"Point"},"properties":{"osm_id":"6742573536","tag":{"access":"yes","amenity":"waste_disposal","capacity":"1","material":"steel","waste":"plastic"}},"type":"Feature"},
	{"geometry":{"coordinates":[30.383912,50.440686],"type":"Point"},"properties":{"osm_id":"6742573537","tag":{"access":"yes","amenity":"waste_disposal","capacity":"1","material":"steel","waste":"trash"}},"type":"Feature"},
	{"geometry":{"coordinates":[30.383906,50.440703],"type":"Point"},"properties":{"osm_id":"6742573538","tag":{"access":"yes","amenity":"waste_disposal","capacity":"1","material":"steel","waste":"trash"}},"type":"Feature"},
	{"geometry":{"coordinates":[30.383431,50.441307],"type":"Point"},"properties":{"osm_id":"6742573539","tag":{"access":"yes","amenity":"waste_disposal","capacity":"1","material":"plastic","waste":"trash"}},"type":"Feature"},
	{"geometry":{"coordinates":[30.383445,50.441298],"type":"Point"},"properties":{"osm_id":"6742573540","tag":{"access":"yes","amenity":"waste_disposal","capacity":"1","material":"steel","waste":"trash"}},"type":"Feature"},
	{"geometry":{"coordinates":[30.38346,50.441285],"type":"Point"},"properties":{"osm_id":"6742573541","tag":{"access":"yes","amenity":"waste_disposal","capacity":"1","material":"steel","waste":"plastic"}},"type":"Feature"},
	{"geometry":{"coordinates":[30.384232,50.447503],"type":"Point"},"properties":{"osm_id":"6742573542","tag":{"access":"yes","amenity":"waste_disposal","capacity":"1","material":"steel","waste":"trash"}},"type":"Feature"},
	{"geometry":{"coordinates":[30.384254,50.447499],"type":"Point"},"properties":{"osm_id":"6742573543","tag":{"access":"yes","amenity":"waste_disposal","capacity":"1","material":"plastic","operator":"Veolia","waste":"trash"}},"type":"Feature"},
	{"geometry":{"coordinates":[30.382114,50.451742],"type":"Point"},"properties":{"osm_id":"6742573544","tag":{"access":"yes","amenity":"waste_disposal","capacity":"1","material":"steel","operator":"Veolia","waste":"trash"}},"type":"Feature"},
	{"geometry":{"coordinates":[30.382156,50.451745],"type":"Point"},"properties":{"osm_id":"6742573545","tag":{"access":"yes","amenity":"waste_disposal","capacity":"1","material":"steel","waste":"trash"}},"type":"Feature"},
	{"geometry":{"coordinates":[30.381336,50.451662],"type":"Point"},"properties":{"osm_id":"6742573546","tag":{"access":"yes","amenity":"waste_disposal","capacity":"1","material":"steel","waste":"trash"}},"type":"Feature"},
	{"geometry":{"coordinates":[30.381064,50.451912],"type":"Point"},"properties":{"osm_id":"6742573547","tag":{"access":"yes","amenity":"waste_disposal","capacity":"1","material":"steel","waste":"trash"}},"type":"Feature"},
	{"geometry":{"coordinates":[30.381056,50.451887],"type":"Point"},"properties":{"osm_id":"6742573548","tag":{"access":"yes","amenity":"waste_disposal","capacity":"1","material":"steel","waste":"trash"}},"type":"Feature"},
	{"geometry":{"coordinates":[30.380961,50.452154],"type":"Point"},"properties":{"osm_id":"6742573549","tag":{"access":"private","amenity":"waste_disposal","capacity":"1","material":"steel","waste":"trash"}},"type":"Feature"},
	{"geometry":{"coordinates":[30.380387,50.452533],"type":"Point"},"properties":{"osm_id":"6742573550","tag":{"access":"yes","amenity":"waste_disposal","capacity":"1","material":"steel","waste":"trash"}},"type":"Feature"},
	{"geometry":{"coordinates":[30.380316,50.453031],"type":"Point"},"properties":{"osm_id":"6742573551","tag":{"access":"yes","amenity":"waste_disposal","capacity":"1","material":"steel","waste":"trash"}},"type":"Feature"},
	{"geometry":{"coordinates":[30.381051,50.453658],"type":"Point"},"properties":{"osm_id":"6742573552","tag":{"access":"yes","amenity":"waste_disposal","capacity":"1","material":"steel","waste":"trash"}},"type":"Feature"},
	{"geometry":{"coordinates":[30.381076,50.453661],"type":"Point"},"properties":{"osm_id":"6742573553","tag":{"access":"yes","amenity":"waste_disposal","capacity":"1","material":"steel","waste":"trash"}},"type":"Feature"},
	{"geometry":{"coordinates":[30.381123,50.453676],"type":"Point"},"properties":{"osm_id":"6742573554","tag":{"access":"yes","amenity":"waste_disposal","capacity":"1","material":"steel","waste":"trash"}},"type":"Feature"},
	{"geometry":{"coordinates":[30.381124,50.4537],"type":"Point"},"properties":{"osm_id":"6742573555","tag":{"access":"yes","amenity":"waste_disposal","capacity":"1","material":"steel","operator":"Veolia","waste":"trash"}},"type":"Feature"},
	{"geometry":{"coordinates":[30.380149,50.454881],"type":"Point"},"properties":{"osm_id":"6742573556","tag":{"access":"yes","amenity":"waste_disposal","capacity":"1","material":"steel","waste":"trash"}},"type":"Feature"},
	{"geometry":{"coordinates":[30.38026,50.454352],"type":"Point"},"properties":{"osm_id":"6742573557","tag":{"access":"yes","amenity":"waste_disposal","capacity":"1","material":"steel","waste":"trash"}},"type":"Feature"},
	{"geometry":{"coordinates":[30.380614,50.454619],"type":"Point"},"properties":{"osm_id":"6742573558","tag":{"access":"yes","amenity":"waste_disposal","capacity":"1","material":"steel","waste":"trash"}},"type":"Feature"},
	{"geometry":{"coordinates":[30.380626,50.45459],"type":"Point"},"properties":{"osm_id":"6742573559","tag":{"access":"yes","amenity":"waste_disposal","capacity":"1","material":"steel","waste":"trash"}},"type":"Feature"},
	{"geometry":{"coordinates":[30.384869,50.456833],"type":"Point"},"properties":{"osm_id":"6742573560","tag":{"access":"yes","amenity":"waste_disposal","capacity":"1","material":"plastic","waste":"trash"}},"type":"Feature"},
	{"geometry":{"coordinates":[30.384858,50.456865],"type":"Point"},"properties":{"osm_id":"6742573561","tag":{"access":"yes","amenity":"waste_disposal","capacity":"1","material":"plastic","waste":"trash"}},"type":"Feature"},
	{"geometry":{"coordinates":[30.384647,50.456016],"type":"Point"},"properties":{"osm_id":"6742573562","tag":{"access":"yes","amenity":"waste_disposal","capacity":"1","material":"steel","waste":"trash"}},"type":"Feature"},
	{"geometry":{"coordinates":[30.384645,50.456025],"type":"Point"},"properties":{"osm_id":"6742573563","tag":{"access":"yes","amenity":"waste_disposal","capacity":"1","material":"steel","waste":"trash"}},"type":"Feature"},
	{"geometry":{"coordinates":[30.384643,50.456036],"type":"Point"},"properties":{"osm_id":"6742573564","tag":{"access":"yes","amenity":"waste_disposal","capacity":"1","material":"steel","waste":"trash"}},"type":"Feature"},
	{"geometry":{"coordinates":[30.384642,50.456045],"type":"Point"},"properties":{"osm_id":"6742573565","tag":{"access":"yes","amenity":"waste_disposal","capacity":"1","material":"steel","waste":"trash"}},"type":"Feature"},
	{"geometry":{"coordinates":[30.384641,50.456055],"type":"Point"},"properties":{"osm_id":"6742573566","tag":{"access":"yes","amenity":"waste_disposal","capacity":"1","material":"steel","operator":"Veolia","waste":"trash"}},"type":"Feature"},
	{"geometry":{"coordinates":[30.38464,50.456065],"type":"Point"},"properties":{"osm_id":"6742573567","tag":{"access":"yes","amenity":"waste_disposal","capacity":"1","material":"steel","operator":"Veolia","waste":"trash"}},"type":"Feature"},
	{"geometry":{"coordinates":[30.384638,50.456074],"type":"Point"},"properties":{"osm_id":"6742573568","tag":{"access":"yes","amenity":"waste_disposal","capacity":"1","material":"plastic","waste":"trash"}},"type":"Feature"},
	{"geometry":{"coordinates":[30.384516,50.455161],"type":"Point"},"properties":{"osm_id":"6742573569","tag":{"access":"yes","amenity":"waste_disposal","capacity":"1","material":"steel","waste":"trash"}},"type":"Feature"},
	{"geometry":{"coordinates":[30.385182,50.454965],"type":"Point"},"properties":{"osm_id":"6742573570","tag":{"access":"yes","amenity":"waste_disposal","capacity":"1","material":"steel","waste":"trash"}},"type":"Feature"},
	{"geometry":{"coordinates":[30.385241,50.45497],"type":"Point"},"properties":{"osm_id":"6742573571","tag":{"access":"yes","amenity":"waste_disposal","capacity":"1","material":"steel","waste":"trash"}},"type":"Feature"},
	{"geometry":{"coordinates":[30.385776,50.455124],"type":"Point"},"properties":{"osm_id":"6742573572","tag":{"access":"yes","amenity":"waste_disposal","capacity":"1","material":"steel","waste":"trash"}},"type":"Feature"},
	{"geometry":{"coordinates":[30.385738,50.455233],"type":"Point"},"properties":{"osm_id":"6742573573","tag":{"access":"yes","amenity":"waste_disposal","capacity":"1.1","material":"steel","waste":"trash"}},"type":"Feature"},
	{"geometry":{"coordinates":[30.385794,50.455239],"type":"Point"},"properties":{"osm_id":"6742573574","tag":{"access":"yes","amenity":"waste_disposal","capacity":"1.1","material":"steel","waste":"trash"}},"type":"Feature"},
	{"geometry":{"coordinates":[30.385852,50.455242],"type":"Point"},"properties":{"osm_id":"6742573575","tag":{"access":"yes","amenity":"waste_disposal","capacity":"1.1","material":"steel","waste":"trash"}},"type":"Feature"},
	{"geometry":{"coordinates":[30.386778,50.454694],"type":"Point"},"properties":{"osm_id":"6742573576","tag":{"access":"yes","amenity":"waste_disposal","capacity":"1","material":"steel","operator":"Veolia","waste":"trash"}},"type":"Feature"},
	{"geometry":{"coordinates":[30.387003,50.454266],"type":"Point"},"properties":{"osm_id":"6742573577","tag":{"access":"yes","amenity":"waste_disposal","capacity":"1","material":"steel","waste":"trash"}},"type":"Feature"},
	{"geometry":{"coordinates":[30.386981,50.454241],"type":"Point"},"properties":{"osm_id":"6742573578","tag":{"access":"yes","amenity":"waste_disposal","capacity":"1","material":"steel","operator":"Veolia","waste":"trash"}},"type":"Feature"},
	{"geometry":{"coordinates":[30.38672,50.454206],"type":"Point"},"properties":{"osm_id":"6742573579","tag":{"access":"yes","amenity":"waste_disposal","capacity":"1","material":"steel","operator":"Veolia","waste":"trash"}},"type":"Feature"},
	{"geometry":{"coordinates":[30.386502,50.454244],"type":"Point"},"properties":{"osm_id":"6742573580","tag":{"access":"yes","amenity":"waste_disposal","capacity":"1","material":"steel","operator":"Veolia","waste":"trash"}},"type":"Feature"},
	{"geometry":{"coordinates":[30.386452,50.454246],"type":"Point"},"properties":{"osm_id":"6742573581","tag":{"access":"yes","amenity":"waste_disposal","capacity":"1","material":"steel","operator":"Veolia","waste":"trash"}},"type":"Feature"},
	{"geometry":{"coordinates":[30.385578,50.454137],"type":"Point"},"properties":{"osm_id":"6742573582","tag":{"access":"yes","amenity":"waste_disposal","capacity":"1","material":"steel","waste":"trash"}},"type":"Feature"},
	{"geometry":{"coordinates":[30.385481,50.453498],"type":"Point"},"properties":{"osm_id":"6742573583","tag":{"access":"yes","amenity":"waste_disposal","capacity":"1","material":"steel","waste":"trash"}},"type":"Feature"},
	{"geometry":{"coordinates":[30.387035,50.453695],"type":"Point"},"properties":{"osm_id":"6742573584","tag":{"access":"yes","amenity":"waste_disposal","capacity":"1","material":"steel","operator":"Veolia","waste":"trash"}},"type":"Feature"},
	{"geometry":{"coordinates":[30.385053,50.453259],"type":"Point"},"properties":{"osm_id":"6742582185","tag":{"access":"yes","amenity":"waste_disposal","capacity":"1","material":"steel","waste":"trash"}},"type":"Feature"},
	{"geometry":{"coordinates":[30.384289,50.453444],"type":"Point"},"properties":{"osm_id":"6742582186","tag":{"access":"yes","amenity":"waste_disposal","capacity":"1","material":"steel","operator":"Veolia","waste":"trash"}},"type":"Feature"},
	{"geometry":{"coordinates":[30.384269,50.45424],"type":"Point"},"properties":{"osm_id":"6742582187","tag":{"access":"yes","amenity":"waste_disposal","capacity":"1","material":"steel","operator":"Veolia","waste":"trash"}},"type":"Feature"},
	{"geometry":{"coordinates":[30.384173,50.454865],"type":"Point"},"properties":{"osm_id":"6742582188","tag":{"access":"yes","amenity":"waste_disposal","capacity":"1","material":"steel","operator":"Veolia","waste":"trash"}},"type":"Feature"},
	{"geometry":{"coordinates":[30.382478,50.45536],"type":"Point"},"properties":{"osm_id":"6742582189","tag":{"access":"yes","amenity":"waste_disposal","capacity":"1","material":"steel","waste":"recycling"}},"type":"Feature"},
	{"geometry":{"coordinates":[30.382468,50.455388],"type":"Point"},"properties":{"osm_id":"6742582190","tag":{"access":"yes","amenity":"waste_disposal","capacity":"1","material":"steel","operator":"Veolia","waste":"trash"}},"type":"Feature"},
	{"geometry":{"coordinates":[30.378464,50.456051],"type":"Point"},"properties":{"osm_id":"6742582191","tag":{"access":"yes","amenity":"waste_disposal","capacity":"1","material":"steel","waste":"trash"}},"type":"Feature"},
	{"geometry":{"coordinates":[30.378412,50.456051],"type":"Point"},"properties":{"osm_id":"6742582192","tag":{"access":"yes","amenity":"waste_disposal","capacity":"1","material":"steel","waste":"trash"}},"type":"Feature"},
	{"geometry":{"coordinates":[30.377819,50.455216],"type":"Point"},"properties":{"osm_id":"6742582193","tag":{"access":"yes","amenity":"waste_disposal","capacity":"1","material":"steel","waste":"trash"}},"type":"Feature"},
	{"geometry":{"coordinates":[30.378401,50.455246],"type":"Point"},"properties":{"osm_id":"6742582194","tag":{"access":"yes","amenity":"waste_disposal","capacity":"1","material":"steel","waste":"trash"}},"type":"Feature"},
	{"geometry":{"coordinates":[30.378479,50.455246],"type":"Point"},"properties":{"osm_id":"6742582195","tag":{"access":"yes","amenity":"waste_disposal","capacity":"1","material":"steel","waste":"recycling"}},"type":"Feature"},
	{"geometry":{"coordinates":[30.378793,50.455148],"type":"Point"},"properties":{"osm_id":"6742582196","tag":{"access":"yes","amenity":"waste_disposal","capacity":"1","material":"steel","waste":"trash"}},"type":"Feature"},
	{"geometry":{"coordinates":[30.387553,50.452729],"type":"Point"},"properties":{"osm_id":"6742582197","tag":{"access":"yes","amenity":"waste_disposal","capacity":"1","material":"steel","waste":"trash"}},"type":"Feature"},
	{"geometry":{"coordinates":[30.387547,50.45276],"type":"Point"},"properties":{"osm_id":"6742582198","tag":{"access":"yes","amenity":"waste_disposal","capacity":"1","material":"steel","waste":"trash"}},"type":"Feature"},
	{"geometry":{"coordinates":[30.387285,50.453023],"type":"Point"},"properties":{"osm_id":"6742582199","tag":{"access":"yes","amenity":"waste_disposal","capacity":"1","material":"steel","waste":"trash"}},"type":"Feature"},
	{"geometry":{"coordinates":[30.386143,50.452587],"type":"Point"},"properties":{"osm_id":"6742582200","tag":{"access":"yes","amenity":"waste_disposal","capacity":"1","material":"plastic","waste":"trash"}},"type":"Feature"},
	{"geometry":{"coordinates":[30.386121,50.452583],"type":"Point"},"properties":{"osm_id":"6742582201","tag":{"access":"yes","amenity":"waste_disposal","capacity":"1","material":"plastic","waste":"trash"}},"type":"Feature"},
	{"geometry":{"coordinates":[30.386092,50.452583],"type":"Point"},"properties":{"osm_id":"6742582202","tag":{"access":"yes","amenity":"waste_disposal","capacity":"1","material":"steel","waste":"trash"}},"type":"Feature"},
	{"geometry":{"coordinates":[30.385237,50.452512],"type":"Point"},"properties":{"osm_id":"6742582203","tag":{"access":"yes","amenity":"waste_disposal","capacity":"1","material":"steel","waste":"trash"}},"type":"Feature"},
	{"geometry":{"coordinates":[30.385239,50.452485],"type":"Point"},"properties":{"osm_id":"6742582204","tag":{"access":"yes","amenity":"waste_disposal","capacity":"1","material":"steel","waste":"trash"}},"type":"Feature"},
	{"geometry":{"coordinates":[30.385239,50.452459],"type":"Point"},"properties":{"osm_id":"6742582205","tag":{"access":"yes","amenity":"waste_disposal","capacity":"1","material":"steel","waste":"trash"}},"type":"Feature"},
	{"geometry":{"coordinates":[30.384394,50.451819],"type":"Point"},"properties":{"osm_id":"6742582206","tag":{"access":"yes","amenity":"waste_disposal","capacity":"1","material":"steel","waste":"trash"}},"type":"Feature"},
	{"geometry":{"coordinates":[30.384349,50.451819],"type":"Point"},"properties":{"osm_id":"6742582207","tag":{"access":"yes","amenity":"waste_disposal","capacity":"1","material":"steel","operator":"\u00d0\u0092\u00d0\u00be\u00d0\u00bb\u00d0\u00be\u00d0\u00b4\u00d0\u00b0\u00d1\u0080 \u00d0\u00a0\u00d0\u00be\u00d0\u00b7","waste":"trash"}},"type":"Feature"},
	{"geometry":{"coordinates":[30.384686,50.452545],"type":"Point"},"properties":{"osm_id":"6742582208","tag":{"access":"yes","amenity":"waste_disposal","capacity":"1","material":"steel","waste":"trash"}},"type":"Feature"},
	{"geometry":{"coordinates":[30.384722,50.452545],"type":"Point"},"properties":{"osm_id":"6742582209","tag":{"access":"yes","amenity":"waste_disposal","capacity":"1","material":"steel","waste":"trash"}},"type":"Feature"},
	{"geometry":{"coordinates":[30.384531,50.452963],"type":"Point"},"properties":{"osm_id":"6742582210","tag":{"access":"yes","amenity":"waste_disposal","capacity":"1","material":"steel","operator":"Veolia","waste":"trash"}},"type":"Feature"},
	{"geometry":{"coordinates":[30.384027,50.452957],"type":"Point"},"properties":{"osm_id":"6742582211","tag":{"access":"yes","amenity":"waste_disposal","capacity":"1","material":"steel","waste":"trash"}},"type":"Feature"},
	{"geometry":{"coordinates":[30.384042,50.452957],"type":"Point"},"properties":{"osm_id":"6742582212","tag":{"access":"yes","amenity":"waste_disposal","capacity":"1","material":"steel","waste":"trash"}},"type":"Feature"},
	{"geometry":{"coordinates":[30.383466,50.452525],"type":"Point"},"properties":{"osm_id":"6742582213","tag":{"access":"yes","amenity":"waste_disposal","capacity":"1","material":"steel","waste":"trash"}},"type":"Feature"},
	{"geometry":{"coordinates":[30.383517,50.452527],"type":"Point"},"properties":{"osm_id":"6742582214","tag":{"access":"yes","amenity":"waste_disposal","capacity":"1","material":"steel","waste":"trash"}},"type":"Feature"},
	{"geometry":{"coordinates":[30.381721,50.452317],"type":"Point"},"properties":{"osm_id":"6742582215","tag":{"access":"yes","amenity":"waste_disposal","capacity":"1","material":"steel","waste":"trash"}},"type":"Feature"},
	{"geometry":{"coordinates":[30.385045,50.448146],"type":"Point"},"properties":{"osm_id":"6742645368","tag":{"access":"yes","amenity":"waste_disposal","capacity":"1","material":"steel","waste":"trash"}},"type":"Feature"},
	{"geometry":{"coordinates":[30.385045,50.448133],"type":"Point"},"properties":{"osm_id":"6742645369","tag":{"access":"yes","amenity":"waste_disposal","capacity":"1","material":"steel","waste":"trash"}},"type":"Feature"},
	{"geometry":{"coordinates":[30.385028,50.448142],"type":"Point"},"properties":{"osm_id":"6742645370","tag":{"access":"yes","amenity":"waste_disposal","capacity":"1","material":"steel","waste":"trash"}},"type":"Feature"},
	{"geometry":{"coordinates":[30.385294,50.448507],"type":"Point"},"properties":{"osm_id":"6742645371","tag":{"access":"yes","amenity":"waste_disposal","capacity":"1","material":"steel","waste":"trash"}},"type":"Feature"},
	{"geometry":{"coordinates":[30.385036,50.448508],"type":"Point"},"properties":{"osm_id":"6742645372","tag":{"access":"yes","amenity":"waste_disposal","capacity":"1","material":"steel","waste":"trash"}},"type":"Feature"},
	{"geometry":{"coordinates":[30.385031,50.448535],"type":"Point"},"properties":{"osm_id":"6742645373","tag":{"access":"yes","amenity":"waste_disposal","capacity":"1","material":"steel","waste":"trash"}},"type":"Feature"},
	{"geometry":{"coordinates":[30.395056,50.456692],"type":"Point"},"properties":{"osm_id":"6742645374","tag":{"access":"yes","amenity":"waste_disposal","capacity":"1","material":"steel","waste":"trash"}},"type":"Feature"},
	{"geometry":{"coordinates":[30.395102,50.456692],"type":"Point"},"properties":{"osm_id":"6742645375","tag":{"access":"yes","amenity":"waste_disposal","capacity":"1","material":"steel","waste":"trash"}},"type":"Feature"},
	{"geometry":{"coordinates":[30.395797,50.456695],"type":"Point"},"properties":{"osm_id":"6742645376","tag":{"access":"yes","amenity":"waste_disposal","capacity":"1","material":"steel","waste":"trash"}},"type":"Feature"},
	{"geometry":{"coordinates":[30.395858,50.456698],"type":"Point"},"properties":{"osm_id":"6742645377","tag":{"access":"yes","amenity":"waste_disposal","capacity":"1","material":"steel","waste":"trash"}},"type":"Feature"},
	{"geometry":{"coordinates":[30.396229,50.45664],"type":"Point"},"properties":{"osm_id":"6742645378","tag":{"access":"yes","amenity":"waste_disposal","capacity":"1","material":"steel","waste":"trash"}},"type":"Feature"},
	{"geometry":{"coordinates":[30.396234,50.456609],"type":"Point"},"properties":{"osm_id":"6742645379","tag":{"access":"yes","amenity":"waste_disposal","capacity":"1","material":"steel","waste":"trash"}},"type":"Feature"},
	{"geometry":{"coordinates":[30.39583,50.456241],"type":"Point"},"properties":{"osm_id":"6742645380","tag":{"access":"yes","amenity":"waste_disposal","capacity":"1","material":"steel","operator":"Veolia","waste":"trash"}},"type":"Feature"},
	{"geometry":{"coordinates":[30.395898,50.456245],"type":"Point"},"properties":{"osm_id":"6742645381","tag":{"access":"yes","amenity":"waste_disposal","capacity":"1","material":"steel","operator":"Veolia","waste":"trash"}},"type":"Feature"},
	{"geometry":{"coordinates":[30.396278,50.454595],"type":"Point"},"properties":{"osm_id":"6742645382","tag":{"access":"yes","amenity":"waste_disposal","capacity":"1","material":"steel","waste":"trash"}},"type":"Feature"},
	{"geometry":{"coordinates":[30.39628,50.454564],"type":"Point"},"properties":{"osm_id":"6742645383","tag":{"access":"yes","amenity":"waste_disposal","capacity":"1","material":"steel","waste":"trash"}},"type":"Feature"},
	{"geometry":{"coordinates":[30.396285,50.454532],"type":"Point"},"properties":{"osm_id":"6742645384","tag":{"access":"yes","amenity":"waste_disposal","capacity":"1","material":"plastic","waste":"trash"}},"type":"Feature"},
	{"geometry":{"coordinates":[30.396285,50.454503],"type":"Point"},"properties":{"osm_id":"6742654985","tag":{"access":"yes","amenity":"waste_disposal","capacity":"1","material":"steel","waste":"recycling"}},"type":"Feature"},
	{"geometry":{"coordinates":[30.395858,50.453349],"type":"Point"},"properties":{"osm_id":"6742654986","tag":{"access":"yes","amenity":"waste_disposal","capacity":"1","material":"steel","operator":"\u00d0\u009a\u00d1\u0080\u00d0\u00b0\u00d0\u00bc\u00d0\u00b0\u00d1\u0080","waste":"trash"}},"type":"Feature"},
	{"geometry":{"coordinates":[30.398726,50.450999],"type":"Point"},"properties":{"osm_id":"6742654987","tag":{"access":"yes","amenity":"waste_disposal","capacity":"1","material":"steel","waste":"trash"}},"type":"Feature"},
	{"geometry":{"coordinates":[30.398709,50.450989],"type":"Point"},"properties":{"osm_id":"6742654988","tag":{"access":"yes","amenity":"waste_disposal","capacity":"1","material":"steel","operator":"Veolia","waste":"trash"}},"type":"Feature"},
	{"geometry":{"coordinates":[30.398691,50.450977],"type":"Point"},"properties":{"osm_id":"6742654989","tag":{"access":"yes","amenity":"waste_disposal","capacity":"1","material":"steel","waste":"recycling"}},"type":"Feature"},
	{"geometry":{"coordinates":[30.397411,50.453077],"type":"Point"},"properties":{"osm_id":"6742654990","tag":{"access":"yes","amenity":"waste_disposal","capacity":"1","material":"steel","operator":"Veolia","waste":"trash"}},"type":"Feature"},
	{"geometry":{"coordinates":[30.397391,50.4531],"type":"Point"},"properties":{"osm_id":"6742654991","tag":{"access":"yes","amenity":"waste_disposal","capacity":"1","material":"steel","waste":"trash"}},"type":"Feature"},
	{"geometry":{"coordinates":[30.397374,50.453126],"type":"Point"},"properties":{"osm_id":"6742654992","tag":{"access":"yes","amenity":"waste_disposal","capacity":"1","material":"steel","waste":"trash"}},"type":"Feature"},
	{"geometry":{"coordinates":[30.396924,50.453417],"type":"Point"},"properties":{"osm_id":"6742654993","tag":{"access":"yes","amenity":"waste_disposal","capacity":"1","material":"steel","waste":"trash"}},"type":"Feature"},
	{"geometry":{"coordinates":[30.396897,50.453411],"type":"Point"},"properties":{"osm_id":"6742654994","tag":{"access":"yes","amenity":"waste_disposal","capacity":"1","material":"steel","waste":"trash"}},"type":"Feature"},
	{"geometry":{"coordinates":[30.396875,50.453408],"type":"Point"},"properties":{"osm_id":"6742654995","tag":{"access":"yes","amenity":"waste_disposal","capacity":"1","material":"steel","waste":"trash"}},"type":"Feature"},
	{"geometry":{"coordinates":[30.396852,50.453404],"type":"Point"},"properties":{"osm_id":"6742654996","tag":{"access":"yes","amenity":"waste_disposal","capacity":"1","material":"steel","waste":"trash"}},"type":"Feature"},
	{"geometry":{"coordinates":[30.397982,50.4538],"type":"Point"},"properties":{"osm_id":"6742654997","tag":{"access":"yes","amenity":"waste_disposal","capacity":"1","material":"steel","operator":"Veolia","waste":"trash"}},"type":"Feature"},
	{"geometry":{"coordinates":[30.397982,50.453843],"type":"Point"},"properties":{"osm_id":"6742654998","tag":{"access":"yes","amenity":"waste_disposal","capacity":"1","material":"steel","waste":"trash"}},"type":"Feature"},
	{"geometry":{"coordinates":[30.397986,50.453774],"type":"Point"},"properties":{"osm_id":"6742654999","tag":{"access":"yes","amenity":"waste_disposal","capacity":"1","material":"steel","waste":"trash"}},"type":"Feature"},
	{"geometry":{"coordinates":[30.39799,50.453751],"type":"Point"},"properties":{"osm_id":"6742655000","tag":{"access":"yes","amenity":"waste_disposal","capacity":"1","material":"steel","waste":"trash"}},"type":"Feature"},
	{"geometry":{"coordinates":[30.39874,50.453754],"type":"Point"},"properties":{"osm_id":"6742655001","tag":{"access":"yes","amenity":"waste_disposal","capacity":"1","material":"steel","waste":"recycling"}},"type":"Feature"},
	{"geometry":{"coordinates":[30.39874,50.453811],"type":"Point"},"properties":{"osm_id":"6742655002","tag":{"access":"yes","amenity":"waste_disposal","capacity":"1","material":"steel","operator":"Veolia","waste":"trash"}},"type":"Feature"},
	{"geometry":{"coordinates":[30.39865,50.454368],"type":"Point"},"properties":{"osm_id":"6742655003","tag":{"access":"yes","amenity":"waste_disposal","capacity":"1","material":"steel","waste":"recycling"}},"type":"Feature"},
	{"geometry":{"coordinates":[30.39865,50.454418],"type":"Point"},"properties":{"osm_id":"6742655004","tag":{"access":"yes","amenity":"waste_disposal","capacity":"1","material":"steel","waste":"trash"}},"type":"Feature"},
	{"geometry":{"coordinates":[30.398641,50.454468],"type":"Point"},"properties":{"osm_id":"6742655005","tag":{"access":"yes","amenity":"waste_disposal","capacity":"1","material":"steel","waste":"trash"}},"type":"Feature"},
	{"geometry":{"coordinates":[30.398256,50.455113],"type":"Point"},"properties":{"osm_id":"6742655006","tag":{"access":"yes","amenity":"waste_disposal","capacity":"1","material":"steel","waste":"trash"}},"type":"Feature"},
	{"geometry":{"coordinates":[30.398254,50.455083],"type":"Point"},"properties":{"osm_id":"6742655007","tag":{"access":"yes","amenity":"waste_disposal","capacity":"1","material":"steel","operator":"Veolia","waste":"trash"}},"type":"Feature"},
	{"geometry":{"coordinates":[30.398256,50.455049],"type":"Point"},"properties":{"osm_id":"6742655008","tag":{"access":"yes","amenity":"waste_disposal","capacity":"1","material":"steel","waste":"recycling"}},"type":"Feature"},
	{"geometry":{"coordinates":[30.397391,50.454867],"type":"Point"},"properties":{"osm_id":"6742655009","tag":{"access":"yes","amenity":"waste_disposal","capacity":"1","material":"steel","operator":"Veolia","waste":"trash"}},"type":"Feature"},
	{"geometry":{"coordinates":[30.397411,50.454874],"type":"Point"},"properties":{"osm_id":"6742655010","tag":{"access":"yes","amenity":"waste_disposal","capacity":"1","material":"steel","waste":"trash"}},"type":"Feature"},
	{"geometry":{"coordinates":[30.39743,50.454874],"type":"Point"},"properties":{"osm_id":"6742655011","tag":{"access":"yes","amenity":"waste_disposal","capacity":"1","material":"steel","waste":"trash"}},"type":"Feature"},
	{"geometry":{"coordinates":[30.396718,50.454823],"type":"Point"},"properties":{"osm_id":"6742655012","tag":{"access":"yes","amenity":"waste_disposal","capacity":"1","material":"steel","waste":"trash"}},"type":"Feature"},
	{"geometry":{"coordinates":[30.396689,50.454824],"type":"Point"},"properties":{"osm_id":"6742655013","tag":{"access":"yes","amenity":"waste_disposal","capacity":"1","material":"steel","waste":"trash"}},"type":"Feature"},
	{"geometry":{"coordinates":[30.396733,50.454895],"type":"Point"},"properties":{"osm_id":"6742655014","tag":{"access":"yes","amenity":"waste_disposal","capacity":"1","material":"steel","waste":"trash"}},"type":"Feature"},
	{"geometry":{"coordinates":[30.396733,50.454877],"type":"Point"},"properties":{"osm_id":"6742655015","tag":{"access":"yes","amenity":"waste_disposal","capacity":"1","material":"steel","waste":"trash"}},"type":"Feature"},
	{"geometry":{"coordinates":[30.396291,50.454478],"type":"Point"},"properties":{"osm_id":"6742655016","tag":{"access":"yes","amenity":"waste_disposal","capacity":"1","material":"steel","waste":"recycling"}},"type":"Feature"},
	{"geometry":{"coordinates":[30.396281,50.456254],"type":"Point"},"properties":{"osm_id":"6742655017","tag":{"access":"yes","amenity":"waste_disposal","capacity":"1","material":"steel","operator":"Veolia","waste":"trash"}},"type":"Feature"},
	{"geometry":{"coordinates":[30.396311,50.456244],"type":"Point"},"properties":{"osm_id":"6742655018","tag":{"access":"yes","amenity":"waste_disposal","capacity":"1","material":"steel","waste":"trash"}},"type":"Feature"},
	{"geometry":{"coordinates":[30.396339,50.456228],"type":"Point"},"properties":{"osm_id":"6742655019","tag":{"access":"yes","amenity":"waste_disposal","capacity":"1","material":"steel","waste":"trash"}},"type":"Feature"},
	{"geometry":{"coordinates":[30.39802,50.456463],"type":"Point"},"properties":{"osm_id":"6742655020","tag":{"access":"yes","amenity":"waste_disposal","capacity":"1","material":"steel","waste":"trash"}},"type":"Feature"},
	{"geometry":{"coordinates":[30.39801,50.456505],"type":"Point"},"properties":{"osm_id":"6742655021","tag":{"access":"yes","amenity":"waste_disposal","capacity":"1","material":"steel","waste":"trash"}},"type":"Feature"},
	{"geometry":{"coordinates":[30.397905,50.456254],"type":"Point"},"properties":{"osm_id":"6742655022","tag":{"access":"yes","amenity":"waste_disposal","capacity":"1","material":"steel","waste":"trash"}},"type":"Feature"},
	{"geometry":{"coordinates":[30.397933,50.456253],"type":"Point"},"properties":{"osm_id":"6742655023","tag":{"access":"yes","amenity":"waste_disposal","capacity":"1","material":"steel","waste":"trash"}},"type":"Feature"},
	{"geometry":{"coordinates":[30.39797,50.456257],"type":"Point"},"properties":{"osm_id":"6742655024","tag":{"access":"yes","amenity":"waste_disposal","capacity":"1","material":"steel","waste":"trash"}},"type":"Feature"},
	{"geometry":{"coordinates":[30.398003,50.456257],"type":"Point"},"properties":{"osm_id":"6742655025","tag":{"access":"yes","amenity":"waste_disposal","capacity":"1","material":"steel","waste":"trash"}},"type":"Feature"},
	{"geometry":{"coordinates":[30.398063,50.456356],"type":"Point"},"properties":{"osm_id":"6742655026","tag":{"access":"yes","amenity":"waste_disposal","capacity":"1","material":"steel","waste":"trash"}},"type":"Feature"},
	{"geometry":{"coordinates":[30.39807,50.456326],"type":"Point"},"properties":{"osm_id":"6742655027","tag":{"access":"yes","amenity":"waste_disposal","capacity":"1","material":"steel","waste":"trash"}},"type":"Feature"},
	{"geometry":{"coordinates":[30.399093,50.456424],"type":"Point"},"properties":{"osm_id":"6742655028","tag":{"access":"yes","amenity":"waste_disposal","capacity":"1","material":"steel","operator":"Veolia","waste":"trash"}},"type":"Feature"},
	{"geometry":{"coordinates":[30.399093,50.456398],"type":"Point"},"properties":{"osm_id":"6742655029","tag":{"access":"yes","amenity":"waste_disposal","capacity":"1","material":"steel","waste":"trash"}},"type":"Feature"},
	{"geometry":{"coordinates":[30.399108,50.455282],"type":"Point"},"properties":{"osm_id":"6742655030","tag":{"access":"yes","amenity":"waste_disposal","capacity":"1","material":"steel","waste":"trash"}},"type":"Feature"},
	{"geometry":{"coordinates":[30.39908,50.455282],"type":"Point"},"properties":{"osm_id":"6742655031","tag":{"access":"yes","amenity":"waste_disposal","capacity":"1","material":"steel","waste":"trash"}},"type":"Feature"},
	{"geometry":{"coordinates":[30.399047,50.455281],"type":"Point"},"properties":{"osm_id":"6742655032","tag":{"access":"yes","amenity":"waste_disposal","capacity":"1","material":"steel","waste":"trash"}},"type":"Feature"},
	{"geometry":{"coordinates":[30.399017,50.455277],"type":"Point"},"properties":{"osm_id":"6742655033","tag":{"access":"yes","amenity":"waste_disposal","capacity":"1","material":"steel","waste":"trash"}},"type":"Feature"},
	{"geometry":{"coordinates":[30.401214,50.456639],"type":"Point"},"properties":{"osm_id":"6742655034","tag":{"access":"private","amenity":"waste_disposal","capacity":"1","material":"steel","waste":"trash"}},"type":"Feature"},
	{"geometry":{"coordinates":[30.3778,50.457311],"type":"Point"},"properties":{"osm_id":"6743590935","tag":{"access":"yes","amenity":"waste_disposal","capacity":"1","material":"steel","waste":"recycling"}},"type":"Feature"},
	{"geometry":{"coordinates":[30.3778,50.457288],"type":"Point"},"properties":{"osm_id":"6743590936","tag":{"access":"yes","amenity":"waste_disposal","capacity":"1","material":"steel","waste":"trash"}},"type":"Feature"},
	{"geometry":{"coordinates":[30.3778,50.457267],"type":"Point"},"properties":{"osm_id":"6743590937","tag":{"access":"yes","amenity":"waste_disposal","capacity":"1","material":"steel","waste":"trash"}},"type":"Feature"},
	{"geometry":{"coordinates":[30.373131,50.456942],"type":"Point"},"properties":{"osm_id":"6743590950","tag":{"access":"yes","amenity":"waste_disposal","capacity":"1","material":"steel","waste":"trash"}},"type":"Feature"},
	{"geometry":{"coordinates":[30.373132,50.456934],"type":"Point"},"properties":{"osm_id":"6743590951","tag":{"access":"yes","amenity":"waste_disposal","capacity":"1","material":"steel","waste":"trash"}},"type":"Feature"},
	{"geometry":{"coordinates":[30.373133,50.456927],"type":"Point"},"properties":{"osm_id":"6743590952","tag":{"access":"yes","amenity":"waste_disposal","capacity":"1","material":"steel","waste":"trash"}},"type":"Feature"},
	{"geometry":{"coordinates":[30.373134,50.45692],"type":"Point"},"properties":{"osm_id":"6743590953","tag":{"access":"yes","amenity":"waste_disposal","capacity":"1","material":"steel","waste":"trash"}},"type":"Feature"},
	{"geometry":{"coordinates":[30.36274,50.457302],"type":"Point"},"properties":{"osm_id":"6743591591","tag":{"access":"private","amenity":"waste_disposal","capacity":"1","material":"plastic","waste":"trash"}},"type":"Feature"},
	{"geometry":{"coordinates":[30.36265,50.457248],"type":"Point"},"properties":{"osm_id":"6743591592","tag":{"access":"private","amenity":"waste_disposal","capacity":"1","material":"plastic","waste":"trash"}},"type":"Feature"},
	{"geometry":{"coordinates":[30.364857,50.457115],"type":"Point"},"properties":{"osm_id":"6743600206","tag":{"access":"yes","amenity":"waste_disposal","capacity":"1","material":"steel","waste":"trash"}},"type":"Feature"},
	{"geometry":{"coordinates":[30.366273,50.456412],"type":"Point"},"properties":{"osm_id":"6743600207","tag":{"access":"yes","amenity":"waste_disposal","capacity":"1","material":"steel","waste":"trash"}},"type":"Feature"},
	{"geometry":{"coordinates":[30.366023,50.457034],"type":"Point"},"properties":{"osm_id":"6743600208","tag":{"access":"yes","amenity":"waste_disposal","capacity":"1","material":"steel","waste":"trash"}},"type":"Feature"},
	{"geometry":{"coordinates":[30.371255,50.455722],"type":"Point"},"properties":{"osm_id":"6744431927","tag":{"access":"yes","amenity":"waste_disposal","capacity":"1","material":"steel","operator":"Veolia","waste":"trash"}},"type":"Feature"},
	{"geometry":{"coordinates":[30.371093,50.455572],"type":"Point"},"properties":{"osm_id":"6744431928","tag":{"access":"yes","amenity":"waste_disposal","capacity":"1","material":"steel","operator":"Veolia","waste":"trash"}},"type":"Feature"},
	{"geometry":{"coordinates":[30.377692,50.452398],"type":"Point"},"properties":{"osm_id":"6745512995","tag":{"access":"yes","amenity":"waste_disposal","capacity":"1","material":"plastic","waste":"trash"}},"type":"Feature"},
	{"geometry":{"coordinates":[30.373742,50.452612],"type":"Point"},"properties":{"osm_id":"6745512996","tag":{"access":"private","amenity":"waste_disposal","capacity":"1","material":"steel","waste":"trash"}},"type":"Feature"},
	{"geometry":{"coordinates":[30.373973,50.453036],"type":"Point"},"properties":{"osm_id":"6745512997","tag":{"access":"yes","amenity":"waste_disposal","capacity":"1","material":"plastic","waste":"trash"}},"type":"Feature"},
	{"geometry":{"coordinates":[30.373982,50.453005],"type":"Point"},"properties":{"osm_id":"6745512998","tag":{"access":"yes","amenity":"waste_disposal","capacity":"1","material":"steel","waste":"trash"}},"type":"Feature"},
	{"geometry":{"coordinates":[30.372819,50.453727],"type":"Point"},"properties":{"osm_id":"6745512999","tag":{"access":"yes","amenity":"waste_disposal","capacity":"4","material":"plastic","waste":"trash"}},"type":"Feature"},
	{"geometry":{"coordinates":[30.369943,50.452121],"type":"Point"},"properties":{"osm_id":"6745513000","tag":{"access":"yes","amenity":"waste_disposal","capacity":"1","material":"plastic","waste":"trash"}},"type":"Feature"},
	{"geometry":{"coordinates":[30.369991,50.452121],"type":"Point"},"properties":{"osm_id":"6745513001","tag":{"access":"yes","amenity":"waste_disposal","capacity":"1","material":"plastic","waste":"trash"}},"type":"Feature"},
	{"geometry":{"coordinates":[30.371645,50.452626],"type":"Point"},"properties":{"osm_id":"6745513002","tag":{"access":"yes","amenity":"waste_disposal","capacity":"4","material":"plastic","waste":"trash"}},"type":"Feature"},
	{"geometry":{"coordinates":[30.371667,50.452626],"type":"Point"},"properties":{"osm_id":"6745513003","tag":{"access":"yes","amenity":"waste_disposal","capacity":"4","material":"plastic","waste":"trash"}},"type":"Feature"},
	{"geometry":{"coordinates":[30.371695,50.452629],"type":"Point"},"properties":{"osm_id":"6745513004","tag":{"access":"yes","amenity":"waste_disposal","capacity":"4","material":"plastic","waste":"trash"}},"type":"Feature"},
	{"geometry":{"coordinates":[30.371665,50.452585],"type":"Point"},"properties":{"osm_id":"6745513005","tag":{"access":"yes","amenity":"waste_disposal","capacity":"1","material":"steel","waste":"recycling"}},"type":"Feature"},
	{"geometry":{"coordinates":[30.371686,50.452586],"type":"Point"},"properties":{"osm_id":"6745513006","tag":{"access":"yes","amenity":"waste_disposal","capacity":"1","material":"steel","waste":"trash"}},"type":"Feature"},
	{"geometry":{"coordinates":[30.371708,50.452588],"type":"Point"},"properties":{"osm_id":"6745513007","tag":{"access":"yes","amenity":"waste_disposal","capacity":"1","material":"steel","waste":"trash"}},"type":"Feature"},
	{"geometry":{"coordinates":[30.359972,50.456408],"type":"Point"},"properties":{"osm_id":"7123951165","tag":{"amenity":"waste_disposal","capacity":"1.1","material":"steel","waste":"trash"}},"type":"Feature"},
	{"geometry":{"coordinates":[30.36002,50.456408],"type":"Point"},"properties":{"osm_id":"7123951166","tag":{"amenity":"waste_disposal","capacity":"1.1","material":"steel","waste":"trash"}},"type":"Feature"},
	{"geometry":{"coordinates":[30.360074,50.456408],"type":"Point"},"properties":{"osm_id":"7123951167","tag":{"amenity":"waste_disposal","capacity":"1.1","material":"steel","waste":"trash"}},"type":"Feature"},
	{"geometry":{"coordinates":[30.38752,50.456514],"type":"Point"},"properties":{"osm_id":"7236391568","tag":{"access":"yes","amenity":"waste_disposal","capacity":"1.1","material":"steel","waste":"trash"}},"type":"Feature"},
	{"geometry":{"coordinates":[30.387514,50.456496],"type":"Point"},"properties":{"osm_id":"7236391569","tag":{"access":"yes","amenity":"waste_disposal","capacity":"1.1","material":"steel","waste":"trash"}},"type":"Feature"},
	{"geometry":{"coordinates":[30.387509,50.456474],"type":"Point"},"properties":{"osm_id":"7236391570","tag":{"access":"yes","amenity":"waste_disposal","capacity":"1.1","material":"steel","waste":"trash"}},"type":"Feature"},
	{"geometry":{"coordinates":[30.3875,50.456455],"type":"Point"},"properties":{"osm_id":"7236391571","tag":{"access":"yes","amenity":"waste_disposal","capacity":"1.1","material":"steel","waste":"trash"}},"type":"Feature"},
	{"geometry":{"coordinates":[30.379993,50.457472],"type":"Point"},"properties":{"osm_id":"7460340448","tag":{"amenity":"recycling","recycling:glass":"yes","recycling:glass_bottles":"yes","recycling:metal":"yes","recycling:plastic":"yes","recycling_type":"container"}},"type":"Feature"},
	{"geometry":{"coordinates":[30.353948,50.450591],"type":"Point"},"properties":{"osm_id":"7476851373","tag":{"amenity":"waste_disposal"}},"type":"Feature"},
	{"geometry":{"coordinates":[30.380939,50.451029],"type":"Point"},"properties":{"osm_id":"7484366685","tag":{"access":"yes","amenity":"waste_disposal","survey:date":"2020-05-05"}},"type":"Feature"},
	{"geometry":{"coordinates":[30.37929,50.452674],"type":"Point"},"properties":{"osm_id":"7484366686","tag":{"amenity":"waste_basket","colour":"black","material":"metal","survey:date":"2020-05-05"}},"type":"Feature"},
	{"geometry":{"coordinates":[30.379179,50.452409],"type":"Point"},"properties":{"osm_id":"7484366787","tag":{"amenity":"waste_basket","colour":"black","material":"metal","survey:date":"2020-05-05"}},"type":"Feature"},
	{"geometry":{"coordinates":[30.379187,50.45242],"type":"Point"},"properties":{"osm_id":"7484366885","tag":{"amenity":"waste_basket","colour":"black","material":"metal","survey:date":"2020-05-05"}},"type":"Feature"},
	{"geometry":{"coordinates":[30.379309,50.452536],"type":"Point"},"properties":{"osm_id":"7484366985","tag":{"amenity":"waste_basket","colour":"black","material":"metal","survey:date":"2020-05-05"}},"type":"Feature"},
	{"geometry":{"coordinates":[30.379273,50.452862],"type":"Point"},"properties":{"osm_id":"7484366986","tag":{"amenity":"waste_basket","colour":"black","material":"metal","survey:date":"2020-05-05"}},"type":"Feature"},
	{"geometry":{"coordinates":[30.3793,50.456621],"type":"Point"},"properties":{"osm_id":"7501523286","tag":{"amenity":"waste_basket","colour":"black","material":"metal","survey:date":"2020-05-09"}},"type":"Feature"},
	{"geometry":{"coordinates":[30.379404,50.456685],"type":"Point"},"properties":{"osm_id":"7501523287","tag":{"amenity":"waste_basket","colour":"grey","material":"concrete","survey:date":"2020-05-09"}},"type":"Feature"},
	{"geometry":{"coordinates":[30.378577,50.456605],"type":"Point"},"properties":{"osm_id":"7501523385","tag":{"amenity":"waste_basket","colour":"black","material":"metal","survey:date":"2020-05-09"}},"type":"Feature"},
	{"geometry":{"coordinates":[30.379417,50.456689],"type":"Point"},"properties":{"osm_id":"7501523386","tag":{"amenity":"waste_basket","colour":"black","material":"metal","survey:date":"2020-05-09"}},"type":"Feature"},
	{"geometry":{"coordinates":[30.380767,50.456657],"type":"Point"},"properties":{"osm_id":"7501523887","tag":{"amenity":"waste_basket","colour":"brown","material":"concrete","survey:date":"2020-05-09"}},"type":"Feature"},
	{"geometry":{"coordinates":[30.380594,50.456647],"type":"Point"},"properties":{"osm_id":"7501524185","tag":{"amenity":"waste_basket","colour":"brown","material":"concrete","survey:date":"2020-05-09"}},"type":"Feature"},
	{"geometry":{"coordinates":[30.370854,50.453765],"type":"Point"},"properties":{"osm_id":"7540989885","tag":{"amenity":"waste_basket","colour":"grey","material":"metal","survey:date":"2020-05-20"}},"type":"Feature"},
	{"geometry":{"coordinates":[30.371581,50.453781],"type":"Point"},"properties":{"osm_id":"7541177285","tag":{"amenity":"waste_basket","colour":"grey","material":"metal","survey:date":"2020-05-20"}},"type":"Feature"},
	{"geometry":{"coordinates":[30.371677,50.453843],"type":"Point"},"properties":{"osm_id":"7541177286","tag":{"amenity":"waste_basket","colour":"grey","material":"metal","survey:date":"2020-05-20"}},"type":"Feature"},
	{"geometry":{"coordinates":[30.371581,50.453843],"type":"Point"},"properties":{"osm_id":"7541177288","tag":{"amenity":"waste_basket","colour":"grey","material":"metal","survey:date":"2020-05-20"}},"type":"Feature"},
	{"geometry":{"coordinates":[30.371684,50.453786],"type":"Point"},"properties":{"osm_id":"7541177292","tag":{"amenity":"waste_basket","colour":"grey","material":"metal","survey:date":"2020-05-20"}},"type":"Feature"},
	{"geometry":{"coordinates":[30.371317,50.452971],"type":"Point"},"properties":{"osm_id":"7541177312","tag":{"amenity":"waste_basket","colour":"grey","material":"metal","survey:date":"2020-05-20"}},"type":"Feature"},
	{"geometry":{"coordinates":[30.371328,50.453347],"type":"Point"},"properties":{"osm_id":"7541177318","tag":{"amenity":"waste_basket","colour":"grey","material":"metal","survey:date":"2020-05-20"}},"type":"Feature"},
	{"geometry":{"coordinates":[30.371235,50.453487],"type":"Point"},"properties":{"osm_id":"7541177337","tag":{"amenity":"waste_basket","colour":"grey","material":"metal","survey:date":"2020-05-20"}},"type":"Feature"},
	{"geometry":{"coordinates":[30.378615,50.457181],"type":"Point"},"properties":{"osm_id":"7554067985","tag":{"amenity":"waste_basket","colour":"grey","survey:date":"2020-05-24"}},"type":"Feature"},
	{"geometry":{"coordinates":[30.379165,50.457216],"type":"Point"},"properties":{"osm_id":"7562257125","tag":{"amenity":"waste_basket","colour":"grey","survey:date":"2020-05-24"}},"type":"Feature"},
	{"geometry":{"coordinates":[30.35955,50.456516],"type":"Point"},"properties":{"osm_id":"7562273945","tag":{"amenity":"waste_basket"}},"type":"Feature"},
	{"geometry":{"coordinates":[30.359839,50.456554],"type":"Point"},"properties":{"osm_id":"7562273946","tag":{"amenity":"waste_basket"}},"type":"Feature"},
	{"geometry":{"coordinates":[30.360905,50.456499],"type":"Point"},"properties":{"osm_id":"7562273948","tag":{"amenity":"waste_basket"}},"type":"Feature"},
	{"geometry":{"coordinates":[30.361159,50.456482],"type":"Point"},"properties":{"osm_id":"7562273951","tag":{"amenity":"waste_basket"}},"type":"Feature"},
	{"geometry":{"coordinates":[30.361963,50.456363],"type":"Point"},"properties":{"osm_id":"7562273952","tag":{"amenity":"waste_basket"}},"type":"Feature"},
	{"geometry":{"coordinates":[30.362137,50.456302],"type":"Point"},"properties":{"osm_id":"7562273955","tag":{"amenity":"waste_basket"}},"type":"Feature"},
	{"geometry":{"coordinates":[30.362306,50.456249],"type":"Point"},"properties":{"osm_id":"7562273956","tag":{"amenity":"waste_basket"}},"type":"Feature"},
	{"geometry":{"coordinates":[30.362336,50.456243],"type":"Point"},"properties":{"osm_id":"7562273958","tag":{"amenity":"waste_basket"}},"type":"Feature"},
	{"geometry":{"coordinates":[30.37686,50.456437],"type":"Point"},"properties":{"osm_id":"7562637687","tag":{"amenity":"waste_basket","colour":"green","material":"concrete","survey:date":"2020-06-04"}},"type":"Feature"},
	{"geometry":{"coordinates":[30.376812,50.456237],"type":"Point"},"properties":{"osm_id":"7562637986","tag":{"amenity":"waste_basket","survey:date":"2020-05-27"}},"type":"Feature"},
	{"geometry":{"coordinates":[30.376686,50.456418],"type":"Point"},"properties":{"osm_id":"7562637987","tag":{"amenity":"waste_basket","colour":"green","material":"concrete","survey:date":"2020-06-04"}},"type":"Feature"},
	{"geometry":{"coordinates":[30.376657,50.456183],"type":"Point"},"properties":{"osm_id":"7593153885","tag":{"amenity":"waste_basket","colour":"green","material":"concrete","survey:date":"2020-06-04"}},"type":"Feature"},
	{"geometry":{"coordinates":[30.381828,50.456426],"type":"Point"},"properties":{"osm_id":"7620573285","tag":{"amenity":"waste_disposal","survey:date":"2020-06-14"}},"type":"Feature"},
	{"geometry":{"coordinates":[30.381807,50.456423],"type":"Point"},"properties":{"osm_id":"7620573385","tag":{"amenity":"waste_disposal","survey:date":"2020-06-14"}},"type":"Feature"},
	{"geometry":{"coordinates":[30.381807,50.456443],"type":"Point"},"properties":{"osm_id":"7620573485","tag":{"amenity":"waste_disposal","survey:date":"2020-06-14"}},"type":"Feature"},
	{"geometry":{"coordinates":[30.371431,50.439185],"type":"Point"},"properties":{"osm_id":"7630258687","tag":{"amenity":"waste_disposal","survey:date":"2020-06-17"}},"type":"Feature"},
	{"geometry":{"coordinates":[30.371886,50.439281],"type":"Point"},"properties":{"osm_id":"7630258688","tag":{"amenity":"waste_disposal","survey:date":"2020-06-17"}},"type":"Feature"},
	{"geometry":{"coordinates":[30.372398,50.439417],"type":"Point"},"properties":{"osm_id":"7630258690","tag":{"amenity":"waste_disposal","survey:date":"2020-06-17"}},"type":"Feature"},
	{"geometry":{"coordinates":[30.372459,50.439471],"type":"Point"},"properties":{"osm_id":"7630258691","tag":{"amenity":"waste_disposal","survey:date":"2020-06-17"}},"type":"Feature"},
	{"geometry":{"coordinates":[30.373196,50.439629],"type":"Point"},"properties":{"osm_id":"7630258692","tag":{"amenity":"waste_disposal","survey:date":"2020-06-17"}},"type":"Feature"},
	{"geometry":{"coordinates":[30.374937,50.440175],"type":"Point"},"properties":{"osm_id":"7630258695","tag":{"amenity":"waste_disposal","survey:date":"2020-06-17"}},"type":"Feature"},
	{"geometry":{"coordinates":[30.374408,50.439946],"type":"Point"},"properties":{"osm_id":"7630258698","tag":{"amenity":"waste_disposal","survey:date":"2020-06-17"}},"type":"Feature"},
	{"geometry":{"coordinates":[30.376678,50.440094],"type":"Point"},"properties":{"osm_id":"7630258704","tag":{"amenity":"waste_disposal","survey:date":"2020-06-17"}},"type":"Feature"},
	{"geometry":{"coordinates":[30.376829,50.439796],"type":"Point"},"properties":{"osm_id":"7630258706","tag":{"amenity":"waste_disposal","survey:date":"2020-06-17"}},"type":"Feature"},
	{"geometry":{"coordinates":[30.375659,50.440422],"type":"Point"},"properties":{"osm_id":"7630290794","tag":{"amenity":"waste_disposal","survey:date":"2020-06-17"}},"type":"Feature"},
	{"geometry":{"coordinates":[30.376402,50.440499],"type":"Point"},"properties":{"osm_id":"7630290795","tag":{"amenity":"waste_disposal","survey:date":"2020-06-17"}},"type":"Feature"},
	{"geometry":{"coordinates":[30.372843,50.439518],"type":"Point"},"properties":{"osm_id":"7630306190","tag":{"amenity":"waste_disposal","survey:date":"2020-06-17"}},"type":"Feature"},
	{"geometry":{"coordinates":[30.372869,50.43961],"type":"Point"},"properties":{"osm_id":"7630306191","tag":{"amenity":"waste_disposal","survey:date":"2020-06-17"}},"type":"Feature"},
	{"geometry":{"coordinates":[30.374619,50.440085],"type":"Point"},"properties":{"osm_id":"7630306192","tag":{"amenity":"waste_disposal","survey:date":"2020-06-17"}},"type":"Feature"},
	{"geometry":{"coordinates":[30.376039,50.440466],"type":"Point"},"properties":{"osm_id":"7630306194","tag":{"amenity":"waste_disposal","survey:date":"2020-06-17"}},"type":"Feature"},
	{"geometry":{"coordinates":[30.376572,50.440291],"type":"Point"},"properties":{"osm_id":"7630306196","tag":{"amenity":"waste_disposal","survey:date":"2020-06-17"}},"type":"Feature"},
	{"geometry":{"coordinates":[30.373823,50.439788],"type":"Point"},"properties":{"osm_id":"7630306288","tag":{"amenity":"waste_disposal","survey:date":"2020-06-17"}},"type":"Feature"},
	{"geometry":{"coordinates":[30.376294,50.440648],"type":"Point"},"properties":{"osm_id":"7630306292","tag":{"amenity":"waste_disposal","survey:date":"2020-06-17"}},"type":"Feature"},
	{"geometry":{"coordinates":[30.372042,50.439351],"type":"Point"},"properties":{"osm_id":"7630306485","tag":{"amenity":"waste_disposal","survey:date":"2020-06-17"}},"type":"Feature"},
	{"geometry":{"coordinates":[30.373296,50.439718],"type":"Point"},"properties":{"osm_id":"7630306686","tag":{"amenity":"waste_disposal","survey:date":"2020-06-17"}},"type":"Feature"},
	{"geometry":{"coordinates":[30.375396,50.44022],"type":"Point"},"properties":{"osm_id":"7630306687","tag":{"amenity":"waste_disposal","survey:date":"2020-06-17"}},"type":"Feature"},
	{"geometry":{"coordinates":[30.381914,50.455242],"type":"Point"},"properties":{"osm_id":"7728320686","tag":{"amenity":"waste_basket","survey:date":"2020-07-19"}},"type":"Feature"},
	{"geometry":{"coordinates":[30.382137,50.455253],"type":"Point"},"properties":{"osm_id":"7728320687","tag":{"amenity":"waste_basket","survey:date":"2020-07-19"}},"type":"Feature"},
	{"geometry":{"coordinates":[30.381681,50.45523],"type":"Point"},"properties":{"osm_id":"7728323785","tag":{"amenity":"waste_basket","survey:date":"2020-07-19"}},"type":"Feature"}
]
}
