{
"type": "FeatureCollection",
"features": [
	{"geometry":{"coordinates":[16.293002,49.855227],"type":"Point"},"properties":{"name":"zerav z\u00c3\u00a1padn\u00c3\u00ad (Thuja occidentalis)","osm_id":"3372393819","tag":{"addr:city":"Os\u00c3\u00adk","leaf_cycle":"evergreen","leaf_type":"needleleaved","natural":"tree"}},"type":"Feature"},
	{"geometry":{"coordinates":[16.283494,49.859043],"type":"Point"},"properties":{"osm_id":"3372450137","tag":{"addr:city":"Os\u00c3\u00adk","circumference":"3.62","denotation":"landmark","description":"\u00c4\u008d\u00c3\u00a1st obce: u sadu;Typ: solit\u00c3\u00a9r;Stav: neo\u00c5\u00a1et\u00c5\u0099ovan\u00c3\u00bd;Historie: nezn\u00c3\u00a1m\u00c3\u00a1;Dal\u00c5\u00a1\u00c3\u00ad informace: dut\u00c3\u00bd, pol\u00c3\u00a1man\u00c3\u00a9 v\u00c4\u009btve;Parametry stromu: Obvod kmene 3,62 m, V\u00c3\u00bd\u00c5\u00a1ka stromu cca 24m, V\u00c3\u00bd\u00c5\u00a1ka kmene 3 m, Pr\u00c5\u00afm\u00c4\u009br koruny 18,2m","diameter_crown":"18.2","height":"24","leaf_cycle":"deciduous","leaf_type":"broadleaved","natural":"tree","taxon":"Tilia Platyphyllos","taxon:cs":"L\u00c3\u00adpa velkolist\u00c3\u00a1"}},"type":"Feature"},
	{"geometry":{"coordinates":[16.29235,49.84835],"type":"Point"},"properties":{"name":"l\u00c3\u00adpa srd\u00c4\u008dit\u00c3\u00a1 (Thilia cordata)","osm_id":"3378462310","tag":{"addr:city":"Os\u00c3\u00adk","leaf_cycle":"deciduous","leaf_type":"broadleaved","natural":"tree"}},"type":"Feature"},
	{"geometry":{"coordinates":[16.282354,49.838315],"type":"Point"},"properties":{"name":"l\u00c3\u00adpa srd\u00c4\u008dit\u00c3\u00a1 (Tilia cordata)","osm_id":"3378486401","tag":{"addr:city":"Os\u00c3\u00adk","leaf_cycle":"deciduous","leaf_type":"broadleaved","natural":"tree"}},"type":"Feature"},
	{"geometry":{"coordinates":[16.284571,49.843071],"type":"Point"},"properties":{"name":"L\u00c3\u00adpa velkolist\u00c3\u00a1 (Tilia platyphyllos)","osm_id":"3378555480","tag":{"addr:city":"Os\u00c3\u00adk","leaf_cycle":"deciduous","leaf_type":"broadleaved","natural":"tree"}},"type":"Feature"},
	{"geometry":{"coordinates":[16.28808,49.84861],"type":"Point"},"properties":{"name":"l\u00c3\u00adpa srd\u00c4\u008dit\u00c3\u00a1 (Tilia cordata)","osm_id":"3381591134","tag":{"addr:city":"Os\u00c3\u00adk","leaf_cycle":"deciduous","leaf_type":"broadleaved","natural":"tree"}},"type":"Feature"},
	{"geometry":{"coordinates":[16.292825,49.849519],"type":"Point"},"properties":{"name":"l\u00c3\u00adpy srd\u00c4\u008dit\u00c3\u00a9 (Tilia cordata)","osm_id":"3381602977","tag":{"addr:city":"os\u00c3\u00adk","leaf_cycle":"deciduous","leaf_type":"broadleaved","natural":"tree"}},"type":"Feature"}
]
}
