{
"type": "FeatureCollection",
"features": [
	{"geometry":{"coordinates":[4.081526,43.776181],"type":"Point"},"properties":{"osm_id":"2593738415","tag":{"natural":"tree"}},"type":"Feature"},
	{"geometry":{"coordinates":[4.120638,43.784402],"type":"Point"},"properties":{"name":"Cypr\u00c3\u00a8s de Lambert","osm_id":"3476389693","tag":{"genus:fr":"cypr\u00c3\u00a8s","image":"http://www.wikigarrigue.info/wiki13/files/PhotoCartopartie_20150418_152549__r_20150507123642_20150507123958.jpg","name:loc":"arbre remarquable","natural":"tree","species:fr":"Cupressus macrocarpa"}},"type":"Feature"},
	{"geometry":{"coordinates":[4.120802,43.785549],"type":"Point"},"properties":{"name":"Micocoulier","osm_id":"3476405011","tag":{"genus:fr":"micocoulier","name:loc":"arbre remarquable","natural":"tree","species:fr":"Celtis australis"}},"type":"Feature"},
	{"geometry":{"coordinates":[4.121232,43.785348],"type":"Point"},"properties":{"name":"Micocoulier","osm_id":"3476409453","tag":{"genus:fr":"micocoulier","name:loc":"arbre remarquable","natural":"tree","species:fr":"celtis australis"}},"type":"Feature"},
	{"geometry":{"coordinates":[4.120872,43.785631],"type":"Point"},"properties":{"name":"Micocoulier","osm_id":"3476416866","tag":{"genus:fr":"micocoulier","name:loc":"arbre remarquable","natural":"tree","species:fr":"Celtis australis"}},"type":"Feature"},
	{"geometry":{"coordinates":[4.122275,43.78355],"type":"Point"},"properties":{"name":"S\u00c3\u00a9quoia","osm_id":"3476542511","tag":{"genus":"Sequoiadendron","name:loc":"arbre remarquable","natural":"tree","species:fr":"Sequoiadendron giganteum"}},"type":"Feature"},
	{"geometry":{"coordinates":[4.122202,43.783602],"type":"Point"},"properties":{"name":"S\u00c3\u00a9quoia","osm_id":"3476542512","tag":{"genus":"Sequoiadendron","name:loc":"arbre remarquable","natural":"tree","species:fr":"Sequoiadendron giganteum"}},"type":"Feature"},
	{"geometry":{"coordinates":[4.121995,43.78376],"type":"Point"},"properties":{"name":"S\u00c3\u00a9quoia","osm_id":"3476542513","tag":{"genus":"Sequoiadendron","name:loc":"arbre remarquable","natural":"tree","species:fr":"Sequoiadendron giganteum"}},"type":"Feature"},
	{"geometry":{"coordinates":[4.121933,43.783794],"type":"Point"},"properties":{"name":"S\u00c3\u00a9quoia","osm_id":"3476542514","tag":{"genus":"Sequoiadendron","name:loc":"arbre remarquable","natural":"tree","species:fr":"Sequoiadendron giganteum"}},"type":"Feature"},
	{"geometry":{"coordinates":[4.121817,43.783892],"type":"Point"},"properties":{"name":"S\u00c3\u00a9quoia","osm_id":"3476542515","tag":{"genus":"Sequoiadendron","name:loc":"arbre remarquable","natural":"tree","species:fr":"Sequoiadendron giganteum"}},"type":"Feature"},
	{"geometry":{"coordinates":[4.121764,43.783928],"type":"Point"},"properties":{"name":"S\u00c3\u00a9quoia","osm_id":"3476542516","tag":{"genus":"Sequoiadendron","name:loc":"arbre remarquable","natural":"tree","species:fr":"Sequoiadendron giganteum"}},"type":"Feature"},
	{"geometry":{"coordinates":[4.121634,43.784028],"type":"Point"},"properties":{"name":"S\u00c3\u00a9quoia","osm_id":"3476542517","tag":{"genus":"Sequoiadendron","name:loc":"arbre remarquable","natural":"tree","species:fr":"Sequoiadendron giganteum"}},"type":"Feature"},
	{"geometry":{"coordinates":[4.122707,43.782808],"type":"Point"},"properties":{"name":"sequoia","osm_id":"3476552956","tag":{"genus":"Sequoiadendron","name:loc":"arbre remarquable","natural":"tree","species:fr":"Sequoiadendron giganteum"}},"type":"Feature"},
	{"geometry":{"coordinates":[4.122978,43.784091],"type":"Point"},"properties":{"name":"Cypr\u00c3\u00a8s Arizona","osm_id":"3477114782","tag":{"genus":"Cupressus","name:loc":"arbre remarquable","natural":"tree","species:fr":"Cupressus arizonica"}},"type":"Feature"},
	{"geometry":{"coordinates":[4.123263,43.783818],"type":"Point"},"properties":{"name":"Ormus Campestre","osm_id":"3477121020","tag":{"genus":"Ulmus","name:loc":"arbre remarquable","natural":"tree","species:fr":"Ulmus campestris"}},"type":"Feature"},
	{"geometry":{"coordinates":[4.1157,43.786577],"type":"Point"},"properties":{"osm_id":"3477164658","tag":{"age":"500","genus:fr":"cypr\u00c3\u00a8s","name:loc":"arbre remarquable","natural":"tree"}},"type":"Feature"},
	{"geometry":{"coordinates":[4.115617,43.786638],"type":"Point"},"properties":{"osm_id":"3477164659","tag":{"age":"500","genus:fr":"cypr\u00c3\u00a8s","name:loc":"arbre remarquable","natural":"tree"}},"type":"Feature"},
	{"geometry":{"coordinates":[4.115551,43.786717],"type":"Point"},"properties":{"osm_id":"3477164660","tag":{"age":"500","genus:fr":"cypr\u00c3\u00a8s","name:loc":"arbre remarquable","natural":"tree"}},"type":"Feature"},
	{"geometry":{"coordinates":[4.122797,43.784378],"type":"Point"},"properties":{"osm_id":"3479407765","tag":{"genus":"cupressus","genus:fr":"cypr\u00c3\u00a8s","name:loc":"arbre remarquable","natural":"tree","species:fr":"cupressus arizonica"}},"type":"Feature"},
	{"geometry":{"coordinates":[4.115491,43.786805],"type":"Point"},"properties":{"osm_id":"3510220446","tag":{"age":"500","genus:fr":"cypr\u00c3\u00a8s","name:loc":"arbre remarquable","natural":"tree"}},"type":"Feature"},
	{"geometry":{"coordinates":[4.12344,43.784491],"type":"Point"},"properties":{"name":"Ch\u00c3\u00aane blanc","osm_id":"3510315206","tag":{"name:loc":"arbre remarquable","natural":"tree"}},"type":"Feature"},
	{"geometry":{"coordinates":[4.122166,43.783933],"type":"Point"},"properties":{"osm_id":"3510315207","tag":{"name:loc":"arbre remarquable","natural":"tree","species:fr":"Fr\u00c3\u00aane m\u00c3\u00a2le Petites feuilles"}},"type":"Feature"},
	{"geometry":{"coordinates":[4.121119,43.785447],"type":"Point"},"properties":{"name":"Arbre de Jud\u00c3\u00a9e","osm_id":"3510528783","tag":{"name:loc":"arbre remarquable","natural":"tree"}},"type":"Feature"},
	{"geometry":{"coordinates":[4.121279,43.785391],"type":"Point"},"properties":{"name":"Micocoulier","osm_id":"3510528784","tag":{"genus:fr":"micocoulier","name:loc":"arbre remarquable","natural":"tree","species:fr":"celtis australis"}},"type":"Feature"},
	{"geometry":{"coordinates":[4.123733,43.783081],"type":"Point"},"properties":{"osm_id":"3510713805","tag":{"genus":"Quercus ilex","genus:fr":"Fagac\u00c3\u00a9e","name:loc":"arbre remarquable","natural":"tree","species:fr":"ch\u00c3\u00aane vert"}},"type":"Feature"},
	{"geometry":{"coordinates":[4.121768,43.785058],"type":"Point"},"properties":{"osm_id":"3510713806","tag":{"genus":"Quercus ilex","genus:fr":"fagac\u00c3\u00a9e","name:loc":"arbre remarquable","natural":"tree","species:fr":"ch\u00c3\u00aane vert"}},"type":"Feature"},
	{"geometry":{"coordinates":[4.121584,43.785156],"type":"Point"},"properties":{"osm_id":"3510713807","tag":{"genus":"Quercus ilex","genus:fr":"fagac\u00c3\u00a9e","name:loc":"arbre remarquable","natural":"tree","species:fr":"ch\u00c3\u00aane vert"}},"type":"Feature"},
	{"geometry":{"coordinates":[4.123152,43.784321],"type":"Point"},"properties":{"osm_id":"3510713808","tag":{"genus":"Cedrus atlantica","genus:fr":"Pinac\u00c3\u00a9e","name:loc":"arbre remarquable","natural":"tree","species:fr":"C\u00c3\u00a8dre de l'Atlas"}},"type":"Feature"},
	{"geometry":{"coordinates":[4.089685,43.782742],"type":"Point"},"properties":{"osm_id":"3718716179","tag":{"natural":"tree"}},"type":"Feature"},
	{"geometry":{"coordinates":[4.089557,43.782779],"type":"Point"},"properties":{"osm_id":"3718716180","tag":{"natural":"tree"}},"type":"Feature"},
	{"geometry":{"coordinates":[4.089843,43.782815],"type":"Point"},"properties":{"osm_id":"3718716181","tag":{"natural":"tree"}},"type":"Feature"},
	{"geometry":{"coordinates":[4.089559,43.782893],"type":"Point"},"properties":{"osm_id":"3718716182","tag":{"natural":"tree"}},"type":"Feature"},
	{"geometry":{"coordinates":[4.089789,43.782944],"type":"Point"},"properties":{"osm_id":"3718716183","tag":{"natural":"tree"}},"type":"Feature"},
	{"geometry":{"coordinates":[4.089652,43.782956],"type":"Point"},"properties":{"osm_id":"3718716184","tag":{"natural":"tree"}},"type":"Feature"},
	{"geometry":{"coordinates":[4.089803,43.784111],"type":"Point"},"properties":{"osm_id":"3718716185","tag":{"natural":"tree"}},"type":"Feature"},
	{"geometry":{"coordinates":[4.091199,43.784493],"type":"Point"},"properties":{"osm_id":"3718716193","tag":{"natural":"tree"}},"type":"Feature"},
	{"geometry":{"coordinates":[4.090406,43.784576],"type":"Point"},"properties":{"osm_id":"3718716199","tag":{"natural":"tree"}},"type":"Feature"},
	{"geometry":{"coordinates":[4.089974,43.784582],"type":"Point"},"properties":{"osm_id":"3718716200","tag":{"natural":"tree"}},"type":"Feature"},
	{"geometry":{"coordinates":[4.089948,43.784663],"type":"Point"},"properties":{"osm_id":"3718716203","tag":{"natural":"tree"}},"type":"Feature"},
	{"geometry":{"coordinates":[4.089918,43.784759],"type":"Point"},"properties":{"osm_id":"3718716204","tag":{"natural":"tree"}},"type":"Feature"},
	{"geometry":{"coordinates":[4.090109,43.784811],"type":"Point"},"properties":{"osm_id":"3718716205","tag":{"natural":"tree"}},"type":"Feature"},
	{"geometry":{"coordinates":[4.090231,43.784832],"type":"Point"},"properties":{"osm_id":"3718716206","tag":{"natural":"tree"}},"type":"Feature"},
	{"geometry":{"coordinates":[4.080915,43.775562],"type":"Point"},"properties":{"osm_id":"3856153304","tag":{"natural":"tree"}},"type":"Feature"},
	{"geometry":{"coordinates":[4.079542,43.776597],"type":"Point"},"properties":{"osm_id":"3856209413","tag":{"natural":"tree"}},"type":"Feature"},
	{"geometry":{"coordinates":[4.079582,43.776935],"type":"Point"},"properties":{"osm_id":"3856211045","tag":{"natural":"tree"}},"type":"Feature"},
	{"geometry":{"coordinates":[4.079689,43.776753],"type":"Point"},"properties":{"osm_id":"3856211135","tag":{"natural":"tree"}},"type":"Feature"},
	{"geometry":{"coordinates":[4.079717,43.777093],"type":"Point"},"properties":{"osm_id":"3856211357","tag":{"natural":"tree"}},"type":"Feature"},
	{"geometry":{"coordinates":[4.080879,43.776399],"type":"Point"},"properties":{"osm_id":"3856254355","tag":{"natural":"tree"}},"type":"Feature"},
	{"geometry":{"coordinates":[4.082571,43.774915],"type":"Point"},"properties":{"osm_id":"3856255983","tag":{"natural":"tree"}},"type":"Feature"},
	{"geometry":{"coordinates":[4.081019,43.776559],"type":"Point"},"properties":{"osm_id":"3856256574","tag":{"natural":"tree"}},"type":"Feature"},
	{"geometry":{"coordinates":[4.081003,43.776731],"type":"Point"},"properties":{"osm_id":"3856257257","tag":{"natural":"tree"}},"type":"Feature"},
	{"geometry":{"coordinates":[4.081192,43.776908],"type":"Point"},"properties":{"osm_id":"3856257258","tag":{"natural":"tree"}},"type":"Feature"},
	{"geometry":{"coordinates":[4.0874,43.778967],"type":"Point"},"properties":{"osm_id":"3856600378","tag":{"natural":"tree"}},"type":"Feature"},
	{"geometry":{"coordinates":[4.086633,43.77924],"type":"Point"},"properties":{"osm_id":"3856600379","tag":{"natural":"tree"}},"type":"Feature"},
	{"geometry":{"coordinates":[4.086635,43.779404],"type":"Point"},"properties":{"osm_id":"3856600380","tag":{"natural":"tree"}},"type":"Feature"},
	{"geometry":{"coordinates":[4.086408,43.779507],"type":"Point"},"properties":{"osm_id":"3856600381","tag":{"natural":"tree"}},"type":"Feature"},
	{"geometry":{"coordinates":[4.086631,43.779516],"type":"Point"},"properties":{"osm_id":"3856600382","tag":{"natural":"tree"}},"type":"Feature"},
	{"geometry":{"coordinates":[4.086629,43.779618],"type":"Point"},"properties":{"osm_id":"3856600383","tag":{"natural":"tree"}},"type":"Feature"},
	{"geometry":{"coordinates":[4.086421,43.779673],"type":"Point"},"properties":{"osm_id":"3856600384","tag":{"natural":"tree"}},"type":"Feature"},
	{"geometry":{"coordinates":[4.086359,43.779715],"type":"Point"},"properties":{"osm_id":"3856600385","tag":{"natural":"tree"}},"type":"Feature"},
	{"geometry":{"coordinates":[4.086644,43.779772],"type":"Point"},"properties":{"osm_id":"3856600386","tag":{"natural":"tree"}},"type":"Feature"},
	{"geometry":{"coordinates":[4.086453,43.779825],"type":"Point"},"properties":{"osm_id":"3856600387","tag":{"natural":"tree"}},"type":"Feature"},
	{"geometry":{"coordinates":[4.086372,43.779836],"type":"Point"},"properties":{"osm_id":"3856600388","tag":{"natural":"tree"}},"type":"Feature"},
	{"geometry":{"coordinates":[4.086398,43.779879],"type":"Point"},"properties":{"osm_id":"3856600389","tag":{"natural":"tree"}},"type":"Feature"},
	{"geometry":{"coordinates":[4.086669,43.779887],"type":"Point"},"properties":{"osm_id":"3856600390","tag":{"natural":"tree"}},"type":"Feature"},
	{"geometry":{"coordinates":[4.086592,43.780459],"type":"Point"},"properties":{"osm_id":"3856600393","tag":{"natural":"tree"}},"type":"Feature"},
	{"geometry":{"coordinates":[4.087151,43.776349],"type":"Point"},"properties":{"osm_id":"3856601463","tag":{"natural":"tree"}},"type":"Feature"},
	{"geometry":{"coordinates":[4.086894,43.776356],"type":"Point"},"properties":{"osm_id":"3856601464","tag":{"natural":"tree"}},"type":"Feature"},
	{"geometry":{"coordinates":[4.087038,43.776611],"type":"Point"},"properties":{"osm_id":"3856601465","tag":{"natural":"tree"}},"type":"Feature"},
	{"geometry":{"coordinates":[4.086944,43.776685],"type":"Point"},"properties":{"osm_id":"3856601582","tag":{"natural":"tree"}},"type":"Feature"},
	{"geometry":{"coordinates":[4.086629,43.778619],"type":"Point"},"properties":{"osm_id":"3856601583","tag":{"natural":"tree"}},"type":"Feature"},
	{"geometry":{"coordinates":[4.086693,43.778698],"type":"Point"},"properties":{"osm_id":"3856601584","tag":{"natural":"tree"}},"type":"Feature"},
	{"geometry":{"coordinates":[4.087145,43.778801],"type":"Point"},"properties":{"osm_id":"3856601585","tag":{"natural":"tree"}},"type":"Feature"},
	{"geometry":{"coordinates":[4.08729,43.778804],"type":"Point"},"properties":{"osm_id":"3856601586","tag":{"natural":"tree"}},"type":"Feature"},
	{"geometry":{"coordinates":[4.087243,43.775826],"type":"Point"},"properties":{"osm_id":"3856601748","tag":{"natural":"tree"}},"type":"Feature"},
	{"geometry":{"coordinates":[4.0872,43.776172],"type":"Point"},"properties":{"osm_id":"3856601749","tag":{"natural":"tree"}},"type":"Feature"},
	{"geometry":{"coordinates":[4.086877,43.776184],"type":"Point"},"properties":{"osm_id":"3856601750","tag":{"natural":"tree"}},"type":"Feature"},
	{"geometry":{"coordinates":[4.087141,43.77625],"type":"Point"},"properties":{"osm_id":"3856601751","tag":{"natural":"tree"}},"type":"Feature"},
	{"geometry":{"coordinates":[4.087179,43.776268],"type":"Point"},"properties":{"osm_id":"3856601752","tag":{"natural":"tree"}},"type":"Feature"},
	{"geometry":{"coordinates":[4.086569,43.776864],"type":"Point"},"properties":{"osm_id":"3856601753","tag":{"natural":"tree"}},"type":"Feature"},
	{"geometry":{"coordinates":[4.086894,43.776875],"type":"Point"},"properties":{"osm_id":"3856601754","tag":{"natural":"tree"}},"type":"Feature"},
	{"geometry":{"coordinates":[4.08653,43.776951],"type":"Point"},"properties":{"osm_id":"3856601755","tag":{"natural":"tree"}},"type":"Feature"},
	{"geometry":{"coordinates":[4.08686,43.776951],"type":"Point"},"properties":{"osm_id":"3856601756","tag":{"natural":"tree"}},"type":"Feature"},
	{"geometry":{"coordinates":[4.087243,43.775738],"type":"Point"},"properties":{"osm_id":"3856601809","tag":{"natural":"tree"}},"type":"Feature"},
	{"geometry":{"coordinates":[4.087241,43.775924],"type":"Point"},"properties":{"osm_id":"3856601810","tag":{"natural":"tree"}},"type":"Feature"},
	{"geometry":{"coordinates":[4.086809,43.776368],"type":"Point"},"properties":{"osm_id":"3856601811","tag":{"natural":"tree"}},"type":"Feature"},
	{"geometry":{"coordinates":[4.086787,43.776444],"type":"Point"},"properties":{"osm_id":"3856601812","tag":{"natural":"tree"}},"type":"Feature"},
	{"geometry":{"coordinates":[4.086528,43.778177],"type":"Point"},"properties":{"osm_id":"3856601813","tag":{"natural":"tree"}},"type":"Feature"},
	{"geometry":{"coordinates":[4.086211,43.778664],"type":"Point"},"properties":{"osm_id":"3856601814","tag":{"natural":"tree"}},"type":"Feature"},
	{"geometry":{"coordinates":[4.086783,43.778749],"type":"Point"},"properties":{"osm_id":"3856601815","tag":{"natural":"tree"}},"type":"Feature"},
	{"geometry":{"coordinates":[4.086896,43.778794],"type":"Point"},"properties":{"osm_id":"3856601816","tag":{"natural":"tree"}},"type":"Feature"},
	{"geometry":{"coordinates":[4.086927,43.779032],"type":"Point"},"properties":{"osm_id":"3856601818","tag":{"natural":"tree"}},"type":"Feature"},
	{"geometry":{"coordinates":[4.08779,43.779157],"type":"Point"},"properties":{"osm_id":"3856601819","tag":{"natural":"tree"}},"type":"Feature"},
	{"geometry":{"coordinates":[4.086143,43.779159],"type":"Point"},"properties":{"osm_id":"3856601820","tag":{"natural":"tree"}},"type":"Feature"},
	{"geometry":{"coordinates":[4.086196,43.779186],"type":"Point"},"properties":{"osm_id":"3856601821","tag":{"natural":"tree"}},"type":"Feature"},
	{"geometry":{"coordinates":[4.086854,43.776269],"type":"Point"},"properties":{"osm_id":"3856601934","tag":{"natural":"tree"}},"type":"Feature"},
	{"geometry":{"coordinates":[4.087145,43.776207],"type":"Point"},"properties":{"osm_id":"3856601978","tag":{"natural":"tree"}},"type":"Feature"},
	{"geometry":{"coordinates":[4.087417,43.778804],"type":"Point"},"properties":{"osm_id":"3856601979","tag":{"natural":"tree"}},"type":"Feature"},
	{"geometry":{"coordinates":[4.08764,43.77881],"type":"Point"},"properties":{"osm_id":"3856601980","tag":{"natural":"tree"}},"type":"Feature"},
	{"geometry":{"coordinates":[4.087036,43.778815],"type":"Point"},"properties":{"osm_id":"3856601981","tag":{"natural":"tree"}},"type":"Feature"},
	{"geometry":{"coordinates":[4.087283,43.778971],"type":"Point"},"properties":{"osm_id":"3856601982","tag":{"natural":"tree"}},"type":"Feature"},
	{"geometry":{"coordinates":[4.087161,43.778981],"type":"Point"},"properties":{"osm_id":"3856601983","tag":{"natural":"tree"}},"type":"Feature"},
	{"geometry":{"coordinates":[4.086631,43.779297],"type":"Point"},"properties":{"osm_id":"3856601984","tag":{"natural":"tree"}},"type":"Feature"},
	{"geometry":{"coordinates":[4.08632,43.779448],"type":"Point"},"properties":{"osm_id":"3856601985","tag":{"natural":"tree"}},"type":"Feature"},
	{"geometry":{"coordinates":[4.086325,43.779554],"type":"Point"},"properties":{"osm_id":"3856601986","tag":{"natural":"tree"}},"type":"Feature"},
	{"geometry":{"coordinates":[4.086631,43.779562],"type":"Point"},"properties":{"osm_id":"3856601987","tag":{"natural":"tree"}},"type":"Feature"},
	{"geometry":{"coordinates":[4.086419,43.779623],"type":"Point"},"properties":{"osm_id":"3856601988","tag":{"natural":"tree"}},"type":"Feature"},
	{"geometry":{"coordinates":[4.086434,43.779723],"type":"Point"},"properties":{"osm_id":"3856601989","tag":{"natural":"tree"}},"type":"Feature"},
	{"geometry":{"coordinates":[4.086691,43.779936],"type":"Point"},"properties":{"osm_id":"3856601990","tag":{"natural":"tree"}},"type":"Feature"},
	{"geometry":{"coordinates":[4.086395,43.779993],"type":"Point"},"properties":{"osm_id":"3856601991","tag":{"natural":"tree"}},"type":"Feature"},
	{"geometry":{"coordinates":[4.087237,43.77599],"type":"Point"},"properties":{"osm_id":"3856602096","tag":{"natural":"tree"}},"type":"Feature"},
	{"geometry":{"coordinates":[4.086901,43.776002],"type":"Point"},"properties":{"osm_id":"3856602097","tag":{"natural":"tree"}},"type":"Feature"},
	{"geometry":{"coordinates":[4.086905,43.776099],"type":"Point"},"properties":{"osm_id":"3856602100","tag":{"natural":"tree"}},"type":"Feature"},
	{"geometry":{"coordinates":[4.086952,43.776783],"type":"Point"},"properties":{"osm_id":"3856602101","tag":{"natural":"tree"}},"type":"Feature"},
	{"geometry":{"coordinates":[4.08643,43.777132],"type":"Point"},"properties":{"osm_id":"3856602102","tag":{"natural":"tree"}},"type":"Feature"},
	{"geometry":{"coordinates":[4.086387,43.777216],"type":"Point"},"properties":{"osm_id":"3856602103","tag":{"natural":"tree"}},"type":"Feature"},
	{"geometry":{"coordinates":[4.086691,43.777281],"type":"Point"},"properties":{"osm_id":"3856602104","tag":{"natural":"tree"}},"type":"Feature"},
	{"geometry":{"coordinates":[4.086359,43.777308],"type":"Point"},"properties":{"osm_id":"3856602105","tag":{"natural":"tree"}},"type":"Feature"},
	{"geometry":{"coordinates":[4.086655,43.777371],"type":"Point"},"properties":{"osm_id":"3856602106","tag":{"natural":"tree"}},"type":"Feature"},
	{"geometry":{"coordinates":[4.086577,43.777644],"type":"Point"},"properties":{"osm_id":"3856602107","tag":{"natural":"tree"}},"type":"Feature"},
	{"geometry":{"coordinates":[4.08622,43.777914],"type":"Point"},"properties":{"osm_id":"3856602108","tag":{"natural":"tree"}},"type":"Feature"},
	{"geometry":{"coordinates":[4.08653,43.777987],"type":"Point"},"properties":{"osm_id":"3856602109","tag":{"natural":"tree"}},"type":"Feature"},
	{"geometry":{"coordinates":[4.086216,43.778191],"type":"Point"},"properties":{"osm_id":"3856602110","tag":{"natural":"tree"}},"type":"Feature"},
	{"geometry":{"coordinates":[4.086532,43.778269],"type":"Point"},"properties":{"osm_id":"3856602111","tag":{"natural":"tree"}},"type":"Feature"},
	{"geometry":{"coordinates":[4.087535,43.778802],"type":"Point"},"properties":{"osm_id":"3856602112","tag":{"natural":"tree"}},"type":"Feature"},
	{"geometry":{"coordinates":[4.085995,43.778977],"type":"Point"},"properties":{"osm_id":"3856602113","tag":{"natural":"tree"}},"type":"Feature"},
	{"geometry":{"coordinates":[4.087527,43.77899],"type":"Point"},"properties":{"osm_id":"3856602114","tag":{"natural":"tree"}},"type":"Feature"},
	{"geometry":{"coordinates":[4.086034,43.779035],"type":"Point"},"properties":{"osm_id":"3856602115","tag":{"natural":"tree"}},"type":"Feature"},
	{"geometry":{"coordinates":[4.086104,43.77911],"type":"Point"},"properties":{"osm_id":"3856602116","tag":{"natural":"tree"}},"type":"Feature"},
	{"geometry":{"coordinates":[4.086734,43.779149],"type":"Point"},"properties":{"osm_id":"3856602117","tag":{"natural":"tree"}},"type":"Feature"},
	{"geometry":{"coordinates":[4.086312,43.779188],"type":"Point"},"properties":{"osm_id":"3856602118","tag":{"natural":"tree"}},"type":"Feature"},
	{"geometry":{"coordinates":[4.086231,43.77924],"type":"Point"},"properties":{"osm_id":"3856602119","tag":{"natural":"tree"}},"type":"Feature"},
	{"geometry":{"coordinates":[4.086271,43.779286],"type":"Point"},"properties":{"osm_id":"3856602120","tag":{"natural":"tree"}},"type":"Feature"},
	{"geometry":{"coordinates":[4.086372,43.779344],"type":"Point"},"properties":{"osm_id":"3856602121","tag":{"natural":"tree"}},"type":"Feature"},
	{"geometry":{"coordinates":[4.086312,43.779397],"type":"Point"},"properties":{"osm_id":"3856602122","tag":{"natural":"tree"}},"type":"Feature"},
	{"geometry":{"coordinates":[4.086398,43.779402],"type":"Point"},"properties":{"osm_id":"3856602123","tag":{"natural":"tree"}},"type":"Feature"},
	{"geometry":{"coordinates":[4.086402,43.779444],"type":"Point"},"properties":{"osm_id":"3856602124","tag":{"natural":"tree"}},"type":"Feature"},
	{"geometry":{"coordinates":[4.086601,43.780307],"type":"Point"},"properties":{"osm_id":"3856602129","tag":{"natural":"tree"}},"type":"Feature"},
	{"geometry":{"coordinates":[4.086929,43.775746],"type":"Point"},"properties":{"osm_id":"3856602157","tag":{"natural":"tree"}},"type":"Feature"},
	{"geometry":{"coordinates":[4.086927,43.775832],"type":"Point"},"properties":{"osm_id":"3856602158","tag":{"natural":"tree"}},"type":"Feature"},
	{"geometry":{"coordinates":[4.086922,43.775925],"type":"Point"},"properties":{"osm_id":"3856602159","tag":{"natural":"tree"}},"type":"Feature"},
	{"geometry":{"coordinates":[4.08722,43.776094],"type":"Point"},"properties":{"osm_id":"3856602160","tag":{"natural":"tree"}},"type":"Feature"},
	{"geometry":{"coordinates":[4.087173,43.7761],"type":"Point"},"properties":{"osm_id":"3856602161","tag":{"natural":"tree"}},"type":"Feature"},
	{"geometry":{"coordinates":[4.086993,43.776693],"type":"Point"},"properties":{"osm_id":"3856602162","tag":{"natural":"tree"}},"type":"Feature"},
	{"geometry":{"coordinates":[4.086477,43.77704],"type":"Point"},"properties":{"osm_id":"3856602357","tag":{"natural":"tree"}},"type":"Feature"},
	{"geometry":{"coordinates":[4.086618,43.777463],"type":"Point"},"properties":{"osm_id":"3856602358","tag":{"natural":"tree"}},"type":"Feature"},
	{"geometry":{"coordinates":[4.086303,43.777475],"type":"Point"},"properties":{"osm_id":"3856602359","tag":{"natural":"tree"}},"type":"Feature"},
	{"geometry":{"coordinates":[4.086586,43.777555],"type":"Point"},"properties":{"osm_id":"3856602360","tag":{"natural":"tree"}},"type":"Feature"},
	{"geometry":{"coordinates":[4.086278,43.777571],"type":"Point"},"properties":{"osm_id":"3856602361","tag":{"natural":"tree"}},"type":"Feature"},
	{"geometry":{"coordinates":[4.086254,43.777656],"type":"Point"},"properties":{"osm_id":"3856602362","tag":{"natural":"tree"}},"type":"Feature"},
	{"geometry":{"coordinates":[4.086554,43.777732],"type":"Point"},"properties":{"osm_id":"3856602363","tag":{"natural":"tree"}},"type":"Feature"},
	{"geometry":{"coordinates":[4.086233,43.777753],"type":"Point"},"properties":{"osm_id":"3856602364","tag":{"natural":"tree"}},"type":"Feature"},
	{"geometry":{"coordinates":[4.086539,43.77782],"type":"Point"},"properties":{"osm_id":"3856602365","tag":{"natural":"tree"}},"type":"Feature"},
	{"geometry":{"coordinates":[4.08622,43.777831],"type":"Point"},"properties":{"osm_id":"3856602366","tag":{"natural":"tree"}},"type":"Feature"},
	{"geometry":{"coordinates":[4.086539,43.77791],"type":"Point"},"properties":{"osm_id":"3856602367","tag":{"natural":"tree"}},"type":"Feature"},
	{"geometry":{"coordinates":[4.086216,43.77801],"type":"Point"},"properties":{"osm_id":"3856602368","tag":{"natural":"tree"}},"type":"Feature"},
	{"geometry":{"coordinates":[4.086541,43.778086],"type":"Point"},"properties":{"osm_id":"3856602369","tag":{"natural":"tree"}},"type":"Feature"},
	{"geometry":{"coordinates":[4.086072,43.779069],"type":"Point"},"properties":{"osm_id":"3856602387","tag":{"natural":"tree"}},"type":"Feature"},
	{"geometry":{"coordinates":[4.086811,43.779092],"type":"Point"},"properties":{"osm_id":"3856602388","tag":{"natural":"tree"}},"type":"Feature"},
	{"geometry":{"coordinates":[4.087713,43.7791],"type":"Point"},"properties":{"osm_id":"3856602389","tag":{"natural":"tree"}},"type":"Feature"},
	{"geometry":{"coordinates":[4.086342,43.779241],"type":"Point"},"properties":{"osm_id":"3856602390","tag":{"natural":"tree"}},"type":"Feature"},
	{"geometry":{"coordinates":[4.086325,43.777394],"type":"Point"},"properties":{"osm_id":"3856602457","tag":{"natural":"tree"}},"type":"Feature"},
	{"geometry":{"coordinates":[4.086218,43.778498],"type":"Point"},"properties":{"osm_id":"3856602459","tag":{"natural":"tree"}},"type":"Feature"},
	{"geometry":{"coordinates":[4.086582,43.778526],"type":"Point"},"properties":{"osm_id":"3856602460","tag":{"natural":"tree"}},"type":"Feature"},
	{"geometry":{"coordinates":[4.086226,43.778564],"type":"Point"},"properties":{"osm_id":"3856602461","tag":{"natural":"tree"}},"type":"Feature"},
	{"geometry":{"coordinates":[4.087044,43.779004],"type":"Point"},"properties":{"osm_id":"3856602462","tag":{"natural":"tree"}},"type":"Feature"},
	{"geometry":{"coordinates":[4.08763,43.779025],"type":"Point"},"properties":{"osm_id":"3856602463","tag":{"natural":"tree"}},"type":"Feature"},
	{"geometry":{"coordinates":[4.086216,43.778312],"type":"Point"},"properties":{"osm_id":"3856602561","tag":{"natural":"tree"}},"type":"Feature"},
	{"geometry":{"coordinates":[4.086547,43.778353],"type":"Point"},"properties":{"osm_id":"3856602562","tag":{"natural":"tree"}},"type":"Feature"},
	{"geometry":{"coordinates":[4.086361,43.779776],"type":"Point"},"properties":{"osm_id":"3856602563","tag":{"natural":"tree"}},"type":"Feature"},
	{"geometry":{"coordinates":[4.086462,43.779886],"type":"Point"},"properties":{"osm_id":"3856602565","tag":{"natural":"tree"}},"type":"Feature"},
	{"geometry":{"coordinates":[4.0864,43.779928],"type":"Point"},"properties":{"osm_id":"3856602566","tag":{"natural":"tree"}},"type":"Feature"},
	{"geometry":{"coordinates":[4.086475,43.779933],"type":"Point"},"properties":{"osm_id":"3856602567","tag":{"natural":"tree"}},"type":"Feature"},
	{"geometry":{"coordinates":[4.08649,43.779993],"type":"Point"},"properties":{"osm_id":"3856602568","tag":{"natural":"tree"}},"type":"Feature"},
	{"geometry":{"coordinates":[4.086706,43.780001],"type":"Point"},"properties":{"osm_id":"3856602569","tag":{"natural":"tree"}},"type":"Feature"},
	{"geometry":{"coordinates":[4.086513,43.780034],"type":"Point"},"properties":{"osm_id":"3856602570","tag":{"natural":"tree"}},"type":"Feature"},
	{"geometry":{"coordinates":[4.086787,43.780184],"type":"Point"},"properties":{"osm_id":"3856602584","tag":{"natural":"tree"}},"type":"Feature"},
	{"geometry":{"coordinates":[4.086584,43.780245],"type":"Point"},"properties":{"osm_id":"3856602585","tag":{"natural":"tree"}},"type":"Feature"},
	{"geometry":{"coordinates":[4.086532,43.780299],"type":"Point"},"properties":{"osm_id":"3856602586","tag":{"natural":"tree"}},"type":"Feature"},
	{"geometry":{"coordinates":[4.086558,43.780359],"type":"Point"},"properties":{"osm_id":"3856602587","tag":{"natural":"tree"}},"type":"Feature"},
	{"geometry":{"coordinates":[4.086644,43.780428],"type":"Point"},"properties":{"osm_id":"3856602588","tag":{"natural":"tree"}},"type":"Feature"},
	{"geometry":{"coordinates":[4.086877,43.780456],"type":"Point"},"properties":{"osm_id":"3856602589","tag":{"natural":"tree"}},"type":"Feature"},
	{"geometry":{"coordinates":[4.086892,43.780562],"type":"Point"},"properties":{"osm_id":"3856602590","tag":{"natural":"tree"}},"type":"Feature"},
	{"geometry":{"coordinates":[4.08668,43.78057],"type":"Point"},"properties":{"osm_id":"3856602595","tag":{"natural":"tree"}},"type":"Feature"},
	{"geometry":{"coordinates":[4.086689,43.780616],"type":"Point"},"properties":{"osm_id":"3856602596","tag":{"natural":"tree"}},"type":"Feature"},
	{"geometry":{"coordinates":[4.086614,43.780623],"type":"Point"},"properties":{"osm_id":"3856602597","tag":{"natural":"tree"}},"type":"Feature"},
	{"geometry":{"coordinates":[4.086894,43.780673],"type":"Point"},"properties":{"osm_id":"3856602598","tag":{"natural":"tree"}},"type":"Feature"},
	{"geometry":{"coordinates":[4.086697,43.780674],"type":"Point"},"properties":{"osm_id":"3856602599","tag":{"natural":"tree"}},"type":"Feature"},
	{"geometry":{"coordinates":[4.08661,43.780677],"type":"Point"},"properties":{"osm_id":"3856602600","tag":{"natural":"tree"}},"type":"Feature"},
	{"geometry":{"coordinates":[4.086607,43.780727],"type":"Point"},"properties":{"osm_id":"3856602601","tag":{"natural":"tree"}},"type":"Feature"},
	{"geometry":{"coordinates":[4.086443,43.77978],"type":"Point"},"properties":{"osm_id":"3856603058","tag":{"natural":"tree"}},"type":"Feature"},
	{"geometry":{"coordinates":[4.086562,43.780199],"type":"Point"},"properties":{"osm_id":"3856603062","tag":{"natural":"tree"}},"type":"Feature"},
	{"geometry":{"coordinates":[4.086843,43.780356],"type":"Point"},"properties":{"osm_id":"3856603063","tag":{"natural":"tree"}},"type":"Feature"},
	{"geometry":{"coordinates":[4.086569,43.780407],"type":"Point"},"properties":{"osm_id":"3856603077","tag":{"natural":"tree"}},"type":"Feature"},
	{"geometry":{"coordinates":[4.086361,43.779293],"type":"Point"},"properties":{"osm_id":"3856603371","tag":{"natural":"tree"}},"type":"Feature"},
	{"geometry":{"coordinates":[4.086303,43.779336],"type":"Point"},"properties":{"osm_id":"3856603384","tag":{"natural":"tree"}},"type":"Feature"},
	{"geometry":{"coordinates":[4.086631,43.779351],"type":"Point"},"properties":{"osm_id":"3856603385","tag":{"natural":"tree"}},"type":"Feature"},
	{"geometry":{"coordinates":[4.08641,43.779551],"type":"Point"},"properties":{"osm_id":"3856604322","tag":{"natural":"tree"}},"type":"Feature"},
	{"geometry":{"coordinates":[4.086652,43.779837],"type":"Point"},"properties":{"osm_id":"3856604323","tag":{"natural":"tree"}},"type":"Feature"},
	{"geometry":{"coordinates":[4.086629,43.779467],"type":"Point"},"properties":{"osm_id":"3856604757","tag":{"natural":"tree"}},"type":"Feature"},
	{"geometry":{"coordinates":[4.086629,43.779669],"type":"Point"},"properties":{"osm_id":"3856604758","tag":{"natural":"tree"}},"type":"Feature"},
	{"geometry":{"coordinates":[4.08664,43.779721],"type":"Point"},"properties":{"osm_id":"3856604759","tag":{"natural":"tree"}},"type":"Feature"},
	{"geometry":{"coordinates":[4.086734,43.780044],"type":"Point"},"properties":{"osm_id":"3856604779","tag":{"natural":"tree"}},"type":"Feature"},
	{"geometry":{"coordinates":[4.086443,43.780047],"type":"Point"},"properties":{"osm_id":"3856604780","tag":{"natural":"tree"}},"type":"Feature"},
	{"geometry":{"coordinates":[4.086753,43.78009],"type":"Point"},"properties":{"osm_id":"3856604781","tag":{"natural":"tree"}},"type":"Feature"},
	{"geometry":{"coordinates":[4.086533,43.780092],"type":"Point"},"properties":{"osm_id":"3856604782","tag":{"natural":"tree"}},"type":"Feature"},
	{"geometry":{"coordinates":[4.086455,43.780097],"type":"Point"},"properties":{"osm_id":"3856604783","tag":{"natural":"tree"}},"type":"Feature"},
	{"geometry":{"coordinates":[4.086766,43.780142],"type":"Point"},"properties":{"osm_id":"3856604784","tag":{"natural":"tree"}},"type":"Feature"},
	{"geometry":{"coordinates":[4.086543,43.780146],"type":"Point"},"properties":{"osm_id":"3856604785","tag":{"natural":"tree"}},"type":"Feature"},
	{"geometry":{"coordinates":[4.086494,43.780207],"type":"Point"},"properties":{"osm_id":"3856604794","tag":{"natural":"tree"}},"type":"Feature"},
	{"geometry":{"coordinates":[4.086802,43.780239],"type":"Point"},"properties":{"osm_id":"3856604795","tag":{"natural":"tree"}},"type":"Feature"},
	{"geometry":{"coordinates":[4.08686,43.780406],"type":"Point"},"properties":{"osm_id":"3856604796","tag":{"natural":"tree"}},"type":"Feature"},
	{"geometry":{"coordinates":[4.086464,43.780149],"type":"Point"},"properties":{"osm_id":"3856605874","tag":{"natural":"tree"}},"type":"Feature"},
	{"geometry":{"coordinates":[4.086505,43.780252],"type":"Point"},"properties":{"osm_id":"3856605895","tag":{"natural":"tree"}},"type":"Feature"},
	{"geometry":{"coordinates":[4.086819,43.780296],"type":"Point"},"properties":{"osm_id":"3856605896","tag":{"natural":"tree"}},"type":"Feature"},
	{"geometry":{"coordinates":[4.086601,43.780521],"type":"Point"},"properties":{"osm_id":"3856605960","tag":{"natural":"tree"}},"type":"Feature"},
	{"geometry":{"coordinates":[4.086612,43.780566],"type":"Point"},"properties":{"osm_id":"3856605962","tag":{"natural":"tree"}},"type":"Feature"},
	{"geometry":{"coordinates":[4.086892,43.780615],"type":"Point"},"properties":{"osm_id":"3856605963","tag":{"natural":"tree"}},"type":"Feature"},
	{"geometry":{"coordinates":[4.086888,43.780512],"type":"Point"},"properties":{"osm_id":"3856607211","tag":{"natural":"tree"}},"type":"Feature"},
	{"geometry":{"coordinates":[4.086618,43.780357],"type":"Point"},"properties":{"osm_id":"3856608157","tag":{"natural":"tree"}},"type":"Feature"},
	{"geometry":{"coordinates":[4.086657,43.780468],"type":"Point"},"properties":{"osm_id":"3856608662","tag":{"natural":"tree"}},"type":"Feature"},
	{"geometry":{"coordinates":[4.084561,43.780027],"type":"Point"},"properties":{"osm_id":"3856614253","tag":{"natural":"tree"}},"type":"Feature"},
	{"geometry":{"coordinates":[4.084613,43.780021],"type":"Point"},"properties":{"osm_id":"3856615363","tag":{"natural":"tree"}},"type":"Feature"},
	{"geometry":{"coordinates":[4.08465,43.780017],"type":"Point"},"properties":{"osm_id":"3856615458","tag":{"natural":"tree"}},"type":"Feature"},
	{"geometry":{"coordinates":[4.084714,43.780019],"type":"Point"},"properties":{"osm_id":"3856615657","tag":{"natural":"tree"}},"type":"Feature"},
	{"geometry":{"coordinates":[4.084749,43.78004],"type":"Point"},"properties":{"osm_id":"3856640082","tag":{"natural":"tree"}},"type":"Feature"},
	{"geometry":{"coordinates":[4.084801,43.780101],"type":"Point"},"properties":{"osm_id":"3856640083","tag":{"natural":"tree"}},"type":"Feature"},
	{"geometry":{"coordinates":[4.084825,43.78014],"type":"Point"},"properties":{"osm_id":"3856640084","tag":{"natural":"tree"}},"type":"Feature"},
	{"geometry":{"coordinates":[4.084839,43.780179],"type":"Point"},"properties":{"osm_id":"3856640085","tag":{"natural":"tree"}},"type":"Feature"},
	{"geometry":{"coordinates":[4.084858,43.78021],"type":"Point"},"properties":{"osm_id":"3856640558","tag":{"natural":"tree"}},"type":"Feature"},
	{"geometry":{"coordinates":[4.084778,43.780078],"type":"Point"},"properties":{"osm_id":"3856643605","tag":{"natural":"tree"}},"type":"Feature"},
	{"geometry":{"coordinates":[4.084849,43.780252],"type":"Point"},"properties":{"osm_id":"3856643606","tag":{"natural":"tree"}},"type":"Feature"},
	{"geometry":{"coordinates":[4.084818,43.780267],"type":"Point"},"properties":{"osm_id":"3856643607","tag":{"natural":"tree"}},"type":"Feature"},
	{"geometry":{"coordinates":[4.077002,43.785547],"type":"Point"},"properties":{"osm_id":"3862417199","tag":{"leaf_cycle":"deciduous","leaf_type":"broadleaved","natural":"tree"}},"type":"Feature"},
	{"geometry":{"coordinates":[4.077821,43.785783],"type":"Point"},"properties":{"osm_id":"3862432818","tag":{"denotation":"natural_monument","leaf_cycle":"deciduous","leaf_type":"broadleaved","natural":"tree"}},"type":"Feature"},
	{"geometry":{"coordinates":[4.091754,43.78222],"type":"Point"},"properties":{"osm_id":"4001225444","tag":{"natural":"tree"}},"type":"Feature"},
	{"geometry":{"coordinates":[4.122003,43.814312],"type":"Point"},"properties":{"osm_id":"5046985398","tag":{"natural":"tree"}},"type":"Feature"},
	{"geometry":{"coordinates":[4.085761,43.793537],"type":"Point"},"properties":{"osm_id":"5396643212","tag":{"natural":"tree"}},"type":"Feature"},
	{"geometry":{"coordinates":[4.08571,43.79358],"type":"Point"},"properties":{"osm_id":"5396643213","tag":{"natural":"tree"}},"type":"Feature"},
	{"geometry":{"coordinates":[4.069034,43.808171],"type":"Point"},"properties":{"osm_id":"6419309436","tag":{"denotation":"urban","leaf_cycle":"evergreen","leaf_type":"leafless","natural":"tree","species":"Cypr\u00c3\u00a9s"}},"type":"Feature"},
	{"geometry":{"coordinates":[4.068988,43.808162],"type":"Point"},"properties":{"osm_id":"6419309437","tag":{"denotation":"urban","leaf_cycle":"evergreen","leaf_type":"leafless","natural":"tree","species":"Cypr\u00c3\u00a9s"}},"type":"Feature"},
	{"geometry":{"coordinates":[4.06894,43.80815],"type":"Point"},"properties":{"osm_id":"6419309438","tag":{"denotation":"urban","leaf_cycle":"evergreen","leaf_type":"leafless","natural":"tree","species":"Cypr\u00c3\u00a9s"}},"type":"Feature"},
	{"geometry":{"coordinates":[4.068877,43.808136],"type":"Point"},"properties":{"osm_id":"6419309439","tag":{"denotation":"urban","leaf_cycle":"evergreen","leaf_type":"leafless","natural":"tree","species":"Cypr\u00c3\u00a9s"}},"type":"Feature"},
	{"geometry":{"coordinates":[4.068813,43.80812],"type":"Point"},"properties":{"osm_id":"6419309440","tag":{"denotation":"urban","leaf_cycle":"evergreen","leaf_type":"leafless","natural":"tree","species":"Cypr\u00c3\u00a9s"}},"type":"Feature"},
	{"geometry":{"coordinates":[4.046546,43.809617],"type":"Point"},"properties":{"osm_id":"6419557067","tag":{"natural":"tree","species":"cypres"}},"type":"Feature"},
	{"geometry":{"coordinates":[4.069343,43.796024],"type":"Point"},"properties":{"osm_id":"7171168840","tag":{"natural":"tree"}},"type":"Feature"},
	{"geometry":{"coordinates":[4.069182,43.795851],"type":"Point"},"properties":{"osm_id":"7171168841","tag":{"natural":"tree"}},"type":"Feature"},
	{"geometry":{"coordinates":[4.096083,43.789555],"type":"Point"},"properties":{"osm_id":"7755871950","tag":{"genus":"Cupressac\u00c3\u00a9es","leaf_cycle":"evergreen","leaf_type":"broadleaved","natural":"tree","species":"Cupressus","species:fr":"Cypr\u00c3\u00a8s"}},"type":"Feature"},
	{"geometry":{"coordinates":[4.096094,43.789568],"type":"Point"},"properties":{"osm_id":"7755871951","tag":{"genus":"Cupressac\u00c3\u00a9es","leaf_cycle":"evergreen","leaf_type":"broadleaved","natural":"tree","species":"Cupressus","species:fr":"Cypr\u00c3\u00a8s"}},"type":"Feature"},
	{"geometry":{"coordinates":[4.096231,43.789531],"type":"Point"},"properties":{"osm_id":"7756039458","tag":{"genus":"Cupressac\u00c3\u00a9es","leaf_cycle":"evergreen","leaf_type":"broadleaved","natural":"tree","species":"Cupressus","species:fr":"Cypr\u00c3\u00a8s"}},"type":"Feature"}
]
}
