{
"type": "FeatureCollection",
"features": [
	{"geometry":{"coordinates":[115.6317,-33.374449],"type":"Point"},"properties":{"osm_id":"2323806881","tag":{"natural":"tree"}},"type":"Feature"},
	{"geometry":{"coordinates":[115.631908,-33.373974],"type":"Point"},"properties":{"osm_id":"2323815169","tag":{"natural":"tree"}},"type":"Feature"},
	{"geometry":{"coordinates":[115.631903,-33.373629],"type":"Point"},"properties":{"osm_id":"2323815170","tag":{"natural":"tree"}},"type":"Feature"},
	{"geometry":{"coordinates":[115.632491,-33.373145],"type":"Point"},"properties":{"osm_id":"2323815171","tag":{"natural":"tree"}},"type":"Feature"},
	{"geometry":{"coordinates":[115.632393,-33.373384],"type":"Point"},"properties":{"osm_id":"2323815172","tag":{"natural":"tree"}},"type":"Feature"},
	{"geometry":{"coordinates":[115.633171,-33.372895],"type":"Point"},"properties":{"osm_id":"2323815173","tag":{"natural":"tree"}},"type":"Feature"},
	{"geometry":{"coordinates":[115.633606,-33.373207],"type":"Point"},"properties":{"osm_id":"2323815174","tag":{"natural":"tree"}},"type":"Feature"},
	{"geometry":{"coordinates":[115.631667,-33.374265],"type":"Point"},"properties":{"osm_id":"2323815175","tag":{"natural":"tree"}},"type":"Feature"},
	{"geometry":{"coordinates":[115.63363,-33.372971],"type":"Point"},"properties":{"osm_id":"2323815176","tag":{"natural":"tree"}},"type":"Feature"},
	{"geometry":{"coordinates":[115.631587,-33.373946],"type":"Point"},"properties":{"osm_id":"2323815177","tag":{"natural":"tree"}},"type":"Feature"},
	{"geometry":{"coordinates":[115.631634,-33.373905],"type":"Point"},"properties":{"osm_id":"2323815178","tag":{"natural":"tree"}},"type":"Feature"},
	{"geometry":{"coordinates":[115.631692,-33.373633],"type":"Point"},"properties":{"osm_id":"2323815179","tag":{"natural":"tree"}},"type":"Feature"},
	{"geometry":{"coordinates":[115.632157,-33.373407],"type":"Point"},"properties":{"osm_id":"2323815180","tag":{"natural":"tree"}},"type":"Feature"},
	{"geometry":{"coordinates":[115.632577,-33.373171],"type":"Point"},"properties":{"osm_id":"2323815181","tag":{"natural":"tree"}},"type":"Feature"},
	{"geometry":{"coordinates":[115.632386,-33.37329],"type":"Point"},"properties":{"osm_id":"2323815182","tag":{"natural":"tree"}},"type":"Feature"},
	{"geometry":{"coordinates":[115.633255,-33.373032],"type":"Point"},"properties":{"osm_id":"2323815183","tag":{"natural":"tree"}},"type":"Feature"},
	{"geometry":{"coordinates":[115.633364,-33.372937],"type":"Point"},"properties":{"osm_id":"2323815184","tag":{"natural":"tree"}},"type":"Feature"},
	{"geometry":{"coordinates":[115.631792,-33.374167],"type":"Point"},"properties":{"osm_id":"2323815185","tag":{"natural":"tree"}},"type":"Feature"},
	{"geometry":{"coordinates":[115.633854,-33.373104],"type":"Point"},"properties":{"osm_id":"2323815186","tag":{"natural":"tree"}},"type":"Feature"},
	{"geometry":{"coordinates":[115.631538,-33.373877],"type":"Point"},"properties":{"osm_id":"2323815187","tag":{"natural":"tree"}},"type":"Feature"},
	{"geometry":{"coordinates":[115.631719,-33.373816],"type":"Point"},"properties":{"osm_id":"2323815188","tag":{"natural":"tree"}},"type":"Feature"},
	{"geometry":{"coordinates":[115.631909,-33.373553],"type":"Point"},"properties":{"osm_id":"2323815189","tag":{"natural":"tree"}},"type":"Feature"},
	{"geometry":{"coordinates":[115.632115,-33.373553],"type":"Point"},"properties":{"osm_id":"2323815190","tag":{"natural":"tree"}},"type":"Feature"},
	{"geometry":{"coordinates":[115.632288,-33.373334],"type":"Point"},"properties":{"osm_id":"2323815191","tag":{"natural":"tree"}},"type":"Feature"},
	{"geometry":{"coordinates":[115.632956,-33.372862],"type":"Point"},"properties":{"osm_id":"2323815192","tag":{"natural":"tree"}},"type":"Feature"},
	{"geometry":{"coordinates":[115.633481,-33.373287],"type":"Point"},"properties":{"osm_id":"2323815193","tag":{"natural":"tree"}},"type":"Feature"},
	{"geometry":{"coordinates":[115.633771,-33.373198],"type":"Point"},"properties":{"osm_id":"2323815194","tag":{"natural":"tree"}},"type":"Feature"},
	{"geometry":{"coordinates":[115.631719,-33.374081],"type":"Point"},"properties":{"osm_id":"2323815195","tag":{"natural":"tree"}},"type":"Feature"},
	{"geometry":{"coordinates":[115.633757,-33.372987],"type":"Point"},"properties":{"osm_id":"2323815196","tag":{"natural":"tree"}},"type":"Feature"},
	{"geometry":{"coordinates":[115.63173,-33.373929],"type":"Point"},"properties":{"osm_id":"2323815197","tag":{"natural":"tree"}},"type":"Feature"},
	{"geometry":{"coordinates":[115.634287,-33.373982],"type":"Point"},"properties":{"osm_id":"2323816436","tag":{"natural":"tree"}},"type":"Feature"},
	{"geometry":{"coordinates":[115.634476,-33.373415],"type":"Point"},"properties":{"osm_id":"2323816437","tag":{"natural":"tree"}},"type":"Feature"},
	{"geometry":{"coordinates":[115.6345,-33.373819],"type":"Point"},"properties":{"osm_id":"2323816438","tag":{"natural":"tree"}},"type":"Feature"},
	{"geometry":{"coordinates":[115.63408,-33.373116],"type":"Point"},"properties":{"osm_id":"2323816439","tag":{"natural":"tree"}},"type":"Feature"},
	{"geometry":{"coordinates":[115.634653,-33.37337],"type":"Point"},"properties":{"osm_id":"2323816440","tag":{"natural":"tree"}},"type":"Feature"},
	{"geometry":{"coordinates":[115.633831,-33.373575],"type":"Point"},"properties":{"osm_id":"2323816441","tag":{"natural":"tree"}},"type":"Feature"},
	{"geometry":{"coordinates":[115.63426,-33.373705],"type":"Point"},"properties":{"osm_id":"2323816444","tag":{"natural":"tree"}},"type":"Feature"},
	{"geometry":{"coordinates":[115.634295,-33.373848],"type":"Point"},"properties":{"osm_id":"2323816445","tag":{"natural":"tree"}},"type":"Feature"},
	{"geometry":{"coordinates":[115.634506,-33.373353],"type":"Point"},"properties":{"osm_id":"2323816446","tag":{"natural":"tree"}},"type":"Feature"},
	{"geometry":{"coordinates":[115.634408,-33.373282],"type":"Point"},"properties":{"osm_id":"2323816447","tag":{"natural":"tree"}},"type":"Feature"},
	{"geometry":{"coordinates":[115.634494,-33.373199],"type":"Point"},"properties":{"osm_id":"2323816448","tag":{"natural":"tree"}},"type":"Feature"},
	{"geometry":{"coordinates":[115.633757,-33.373601],"type":"Point"},"properties":{"osm_id":"2323816449","tag":{"natural":"tree"}},"type":"Feature"},
	{"geometry":{"coordinates":[115.634504,-33.373918],"type":"Point"},"properties":{"osm_id":"2323816450","tag":{"natural":"tree"}},"type":"Feature"},
	{"geometry":{"coordinates":[115.63446,-33.373697],"type":"Point"},"properties":{"osm_id":"2323816452","tag":{"natural":"tree"}},"type":"Feature"},
	{"geometry":{"coordinates":[115.634503,-33.373485],"type":"Point"},"properties":{"osm_id":"2323816453","tag":{"natural":"tree"}},"type":"Feature"},
	{"geometry":{"coordinates":[115.63442,-33.373818],"type":"Point"},"properties":{"osm_id":"2323816454","tag":{"natural":"tree"}},"type":"Feature"},
	{"geometry":{"coordinates":[115.634333,-33.373153],"type":"Point"},"properties":{"osm_id":"2323816455","tag":{"natural":"tree"}},"type":"Feature"},
	{"geometry":{"coordinates":[115.634607,-33.373224],"type":"Point"},"properties":{"osm_id":"2323816456","tag":{"natural":"tree"}},"type":"Feature"},
	{"geometry":{"coordinates":[115.633708,-33.373579],"type":"Point"},"properties":{"osm_id":"2323816457","tag":{"natural":"tree"}},"type":"Feature"},
	{"geometry":{"coordinates":[115.634396,-33.37393],"type":"Point"},"properties":{"osm_id":"2323816458","tag":{"natural":"tree"}},"type":"Feature"},
	{"geometry":{"coordinates":[115.634308,-33.373773],"type":"Point"},"properties":{"osm_id":"2323816459","tag":{"natural":"tree"}},"type":"Feature"},
	{"geometry":{"coordinates":[115.646322,-33.371196],"type":"Point"},"properties":{"osm_id":"4894571089","tag":{"landcover":"tree","natural":"tree"}},"type":"Feature"},
	{"geometry":{"coordinates":[115.646357,-33.371317],"type":"Point"},"properties":{"osm_id":"4894571090","tag":{"landcover":"tree","natural":"tree"}},"type":"Feature"},
	{"geometry":{"coordinates":[115.646349,-33.371431],"type":"Point"},"properties":{"osm_id":"4894571091","tag":{"landcover":"tree","natural":"tree"}},"type":"Feature"},
	{"geometry":{"coordinates":[115.646478,-33.371547],"type":"Point"},"properties":{"osm_id":"4894571092","tag":{"landcover":"tree","natural":"tree"}},"type":"Feature"},
	{"geometry":{"coordinates":[115.646481,-33.371673],"type":"Point"},"properties":{"osm_id":"4894571093","tag":{"landcover":"tree","natural":"tree"}},"type":"Feature"},
	{"geometry":{"coordinates":[115.646465,-33.371102],"type":"Point"},"properties":{"osm_id":"4894571094","tag":{"landcover":"tree","natural":"tree"}},"type":"Feature"},
	{"geometry":{"coordinates":[115.647022,-33.371399],"type":"Point"},"properties":{"osm_id":"4894571095","tag":{"landcover":"tree","natural":"tree"}},"type":"Feature"},
	{"geometry":{"coordinates":[115.643579,-33.387918],"type":"Point"},"properties":{"osm_id":"4894571096","tag":{"landcover":"tree","natural":"tree"}},"type":"Feature"},
	{"geometry":{"coordinates":[115.643592,-33.387501],"type":"Point"},"properties":{"osm_id":"4894571097","tag":{"landcover":"tree","natural":"tree"}},"type":"Feature"},
	{"geometry":{"coordinates":[115.643565,-33.387743],"type":"Point"},"properties":{"osm_id":"4894571098","tag":{"landcover":"tree","natural":"tree"}},"type":"Feature"},
	{"geometry":{"coordinates":[115.643093,-33.389407],"type":"Point"},"properties":{"osm_id":"4894571099","tag":{"landcover":"tree","natural":"tree"}},"type":"Feature"},
	{"geometry":{"coordinates":[115.643356,-33.388811],"type":"Point"},"properties":{"osm_id":"4894571100","tag":{"landcover":"tree","natural":"tree"}},"type":"Feature"},
	{"geometry":{"coordinates":[115.643479,-33.388426],"type":"Point"},"properties":{"osm_id":"4894571101","tag":{"landcover":"tree","natural":"tree"}},"type":"Feature"},
	{"geometry":{"coordinates":[115.643444,-33.388625],"type":"Point"},"properties":{"osm_id":"4894571102","tag":{"landcover":"tree","natural":"tree"}},"type":"Feature"},
	{"geometry":{"coordinates":[115.643332,-33.389015],"type":"Point"},"properties":{"osm_id":"4894571103","tag":{"landcover":"tree","natural":"tree"}},"type":"Feature"},
	{"geometry":{"coordinates":[115.643415,-33.388957],"type":"Point"},"properties":{"osm_id":"4894571104","tag":{"landcover":"tree","natural":"tree"}},"type":"Feature"},
	{"geometry":{"coordinates":[115.643216,-33.389096],"type":"Point"},"properties":{"osm_id":"4894571105","tag":{"landcover":"tree","natural":"tree"}},"type":"Feature"},
	{"geometry":{"coordinates":[115.642868,-33.389188],"type":"Point"},"properties":{"osm_id":"4894571106","tag":{"landcover":"tree","natural":"tree"}},"type":"Feature"},
	{"geometry":{"coordinates":[115.643015,-33.388845],"type":"Point"},"properties":{"osm_id":"4894571107","tag":{"landcover":"tree","natural":"tree"}},"type":"Feature"},
	{"geometry":{"coordinates":[115.643195,-33.388433],"type":"Point"},"properties":{"osm_id":"4894571108","tag":{"landcover":"tree","natural":"tree"}},"type":"Feature"},
	{"geometry":{"coordinates":[115.643262,-33.388289],"type":"Point"},"properties":{"osm_id":"4894571109","tag":{"landcover":"tree","natural":"tree"}},"type":"Feature"},
	{"geometry":{"coordinates":[115.643351,-33.388204],"type":"Point"},"properties":{"osm_id":"4894571110","tag":{"landcover":"tree","natural":"tree"}},"type":"Feature"},
	{"geometry":{"coordinates":[115.643326,-33.388115],"type":"Point"},"properties":{"osm_id":"4894571111","tag":{"landcover":"tree","natural":"tree"}},"type":"Feature"},
	{"geometry":{"coordinates":[115.633684,-33.371812],"type":"Point"},"properties":{"osm_id":"6564652211","tag":{"name:en":"Tuart","name:nys":"Tooart","natural":"tree","species":"Eucalyptus gomphocephala"}},"type":"Feature"},
	{"geometry":{"coordinates":[115.634185,-33.371799],"type":"Point"},"properties":{"osm_id":"6564652212","tag":{"name:en":"Jarrah","name:nys":"Djarraly","natural":"tree","species":"Eucalyptus marginata"}},"type":"Feature"},
	{"geometry":{"coordinates":[115.634301,-33.371718],"type":"Point"},"properties":{"osm_id":"6564652213","tag":{"name:en":"Zamia","name:nys":"Djiridji","natural":"tree","species":"Macrozamia fraseri"}},"type":"Feature"}
]
}
