{
"type": "FeatureCollection",
"features": [
	{"geometry":{"coordinates":[-95.699845,29.815268],"type":"Point"},"properties":{"osm_id":"5762744015","tag":{"amenity":"waste_basket"}},"type":"Feature"},
	{"geometry":{"coordinates":[-95.699134,29.815319],"type":"Point"},"properties":{"osm_id":"5762744016","tag":{"amenity":"waste_basket"}},"type":"Feature"},
	{"geometry":{"coordinates":[-95.698852,29.80964],"type":"Point"},"properties":{"osm_id":"5764865737","tag":{"amenity":"waste_basket"}},"type":"Feature"},
	{"geometry":{"coordinates":[-95.698801,29.809386],"type":"Point"},"properties":{"osm_id":"5764865738","tag":{"amenity":"waste_basket"}},"type":"Feature"},
	{"geometry":{"coordinates":[-95.698741,29.808672],"type":"Point"},"properties":{"osm_id":"5769483206","tag":{"amenity":"waste_basket"}},"type":"Feature"},
	{"geometry":{"coordinates":[-95.704257,29.805232],"type":"Point"},"properties":{"osm_id":"5769483209","tag":{"amenity":"waste_basket"}},"type":"Feature"},
	{"geometry":{"coordinates":[-95.693766,29.803229],"type":"Point"},"properties":{"osm_id":"5769844865","tag":{"amenity":"waste_basket"}},"type":"Feature"},
	{"geometry":{"coordinates":[-95.698972,29.814919],"type":"Point"},"properties":{"osm_id":"5775182353","tag":{"amenity":"waste_basket"}},"type":"Feature"},
	{"geometry":{"coordinates":[-95.700178,29.819258],"type":"Point"},"properties":{"osm_id":"5775182354","tag":{"amenity":"waste_basket"}},"type":"Feature"},
	{"geometry":{"coordinates":[-95.700146,29.802928],"type":"Point"},"properties":{"osm_id":"5777865679","tag":{"amenity":"waste_basket"}},"type":"Feature"},
	{"geometry":{"coordinates":[-95.693974,29.80263],"type":"Point"},"properties":{"osm_id":"5777865686","tag":{"amenity":"waste_basket"}},"type":"Feature"},
	{"geometry":{"coordinates":[-95.694356,29.802485],"type":"Point"},"properties":{"osm_id":"5777865687","tag":{"amenity":"waste_basket"}},"type":"Feature"},
	{"geometry":{"coordinates":[-95.694689,29.802407],"type":"Point"},"properties":{"osm_id":"5777865688","tag":{"amenity":"waste_basket"}},"type":"Feature"},
	{"geometry":{"coordinates":[-95.695831,29.802452],"type":"Point"},"properties":{"osm_id":"5777865689","tag":{"amenity":"waste_basket"}},"type":"Feature"},
	{"geometry":{"coordinates":[-95.696082,29.802534],"type":"Point"},"properties":{"osm_id":"5777865690","tag":{"amenity":"waste_basket"}},"type":"Feature"},
	{"geometry":{"coordinates":[-95.695522,29.802401],"type":"Point"},"properties":{"osm_id":"5777865691","tag":{"amenity":"waste_basket"}},"type":"Feature"},
	{"geometry":{"coordinates":[-95.696483,29.802724],"type":"Point"},"properties":{"osm_id":"5777865692","tag":{"amenity":"waste_basket"}},"type":"Feature"},
	{"geometry":{"coordinates":[-95.696722,29.802875],"type":"Point"},"properties":{"osm_id":"5777865693","tag":{"amenity":"waste_basket"}},"type":"Feature"},
	{"geometry":{"coordinates":[-95.696977,29.803058],"type":"Point"},"properties":{"osm_id":"5777865694","tag":{"amenity":"waste_basket"}},"type":"Feature"},
	{"geometry":{"coordinates":[-95.697287,29.803275],"type":"Point"},"properties":{"osm_id":"5777865695","tag":{"amenity":"waste_basket"}},"type":"Feature"},
	{"geometry":{"coordinates":[-95.700218,29.803191],"type":"Point"},"properties":{"osm_id":"5777865696","tag":{"amenity":"waste_basket"}},"type":"Feature"},
	{"geometry":{"coordinates":[-95.7045,29.804944],"type":"Point"},"properties":{"osm_id":"5842254227","tag":{"amenity":"waste_basket"}},"type":"Feature"},
	{"geometry":{"coordinates":[-95.69961,29.803245],"type":"Point"},"properties":{"osm_id":"5857552380","tag":{"amenity":"waste_basket"}},"type":"Feature"},
	{"geometry":{"coordinates":[-95.69521,29.802813],"type":"Point"},"properties":{"osm_id":"5857552715","tag":{"amenity":"waste_basket"}},"type":"Feature"},
	{"geometry":{"coordinates":[-95.69776,29.803439],"type":"Point"},"properties":{"osm_id":"5857552716","tag":{"amenity":"waste_basket"}},"type":"Feature"},
	{"geometry":{"coordinates":[-95.698615,29.804178],"type":"Point"},"properties":{"osm_id":"5857552717","tag":{"amenity":"waste_basket"}},"type":"Feature"},
	{"geometry":{"coordinates":[-95.68904,29.774369],"type":"Point"},"properties":{"osm_id":"5922594108","tag":{"amenity":"waste_basket"}},"type":"Feature"},
	{"geometry":{"coordinates":[-95.689035,29.774615],"type":"Point"},"properties":{"osm_id":"5922594109","tag":{"amenity":"waste_basket"}},"type":"Feature"},
	{"geometry":{"coordinates":[-95.688989,29.774645],"type":"Point"},"properties":{"osm_id":"5922594110","tag":{"amenity":"waste_basket"}},"type":"Feature"},
	{"geometry":{"coordinates":[-95.703851,29.815436],"type":"Point"},"properties":{"osm_id":"5931863224","tag":{"amenity":"waste_disposal"}},"type":"Feature"},
	{"geometry":{"coordinates":[-95.689231,29.821734],"type":"Point"},"properties":{"osm_id":"5935435279","tag":{"amenity":"waste_disposal"}},"type":"Feature"},
	{"geometry":{"coordinates":[-95.688724,29.790499],"type":"Point"},"properties":{"osm_id":"5935908207","tag":{"amenity":"waste_disposal"}},"type":"Feature"},
	{"geometry":{"coordinates":[-95.707298,29.793026],"type":"Point"},"properties":{"osm_id":"6001198044","tag":{"amenity":"waste_disposal"}},"type":"Feature"},
	{"geometry":{"coordinates":[-95.707298,29.792992],"type":"Point"},"properties":{"osm_id":"6001198045","tag":{"amenity":"waste_disposal"}},"type":"Feature"},
	{"geometry":{"coordinates":[-95.6253,29.828109],"type":"Point"},"properties":{"osm_id":"6011376408","tag":{"amenity":"waste_basket"}},"type":"Feature"},
	{"geometry":{"coordinates":[-95.625561,29.828693],"type":"Point"},"properties":{"osm_id":"6011376411","tag":{"amenity":"waste_basket"}},"type":"Feature"},
	{"geometry":{"coordinates":[-95.627495,29.829475],"type":"Point"},"properties":{"osm_id":"6011376419","tag":{"amenity":"waste_basket"}},"type":"Feature"},
	{"geometry":{"coordinates":[-95.627208,29.829573],"type":"Point"},"properties":{"osm_id":"6011376420","tag":{"amenity":"waste_basket"}},"type":"Feature"},
	{"geometry":{"coordinates":[-95.626664,29.829354],"type":"Point"},"properties":{"osm_id":"6011376422","tag":{"amenity":"waste_basket"}},"type":"Feature"},
	{"geometry":{"coordinates":[-95.62602,29.828728],"type":"Point"},"properties":{"osm_id":"6011376423","tag":{"amenity":"waste_basket"}},"type":"Feature"},
	{"geometry":{"coordinates":[-95.627893,29.829489],"type":"Point"},"properties":{"osm_id":"6011376425","tag":{"amenity":"waste_basket"}},"type":"Feature"},
	{"geometry":{"coordinates":[-95.627937,29.829204],"type":"Point"},"properties":{"osm_id":"6011377408","tag":{"amenity":"waste_basket"}},"type":"Feature"},
	{"geometry":{"coordinates":[-95.627648,29.8287],"type":"Point"},"properties":{"osm_id":"6011377410","tag":{"amenity":"waste_basket"}},"type":"Feature"},
	{"geometry":{"coordinates":[-95.627563,29.828667],"type":"Point"},"properties":{"osm_id":"6011377411","tag":{"amenity":"waste_basket"}},"type":"Feature"},
	{"geometry":{"coordinates":[-95.628254,29.828674],"type":"Point"},"properties":{"osm_id":"6011377414","tag":{"amenity":"waste_basket"}},"type":"Feature"},
	{"geometry":{"coordinates":[-95.62824,29.828672],"type":"Point"},"properties":{"osm_id":"6011377415","tag":{"amenity":"waste_basket"}},"type":"Feature"},
	{"geometry":{"coordinates":[-95.627215,29.827771],"type":"Point"},"properties":{"osm_id":"6011377416","tag":{"amenity":"waste_basket"}},"type":"Feature"},
	{"geometry":{"coordinates":[-95.627557,29.825906],"type":"Point"},"properties":{"osm_id":"6011377425","tag":{"amenity":"waste_basket"}},"type":"Feature"},
	{"geometry":{"coordinates":[-95.627071,29.82579],"type":"Point"},"properties":{"osm_id":"6011377431","tag":{"amenity":"waste_basket"}},"type":"Feature"},
	{"geometry":{"coordinates":[-95.628019,29.824917],"type":"Point"},"properties":{"osm_id":"6011377432","tag":{"amenity":"waste_basket"}},"type":"Feature"},
	{"geometry":{"coordinates":[-95.627439,29.824538],"type":"Point"},"properties":{"osm_id":"6011377434","tag":{"amenity":"waste_basket"}},"type":"Feature"},
	{"geometry":{"coordinates":[-95.626639,29.82367],"type":"Point"},"properties":{"osm_id":"6011377436","tag":{"amenity":"waste_basket"}},"type":"Feature"},
	{"geometry":{"coordinates":[-95.626461,29.823171],"type":"Point"},"properties":{"osm_id":"6011377439","tag":{"amenity":"waste_basket"}},"type":"Feature"},
	{"geometry":{"coordinates":[-95.627079,29.823083],"type":"Point"},"properties":{"osm_id":"6011377441","tag":{"amenity":"waste_basket"}},"type":"Feature"},
	{"geometry":{"coordinates":[-95.627154,29.822501],"type":"Point"},"properties":{"osm_id":"6011377443","tag":{"amenity":"waste_basket"}},"type":"Feature"},
	{"geometry":{"coordinates":[-95.628745,29.82208],"type":"Point"},"properties":{"osm_id":"6011377446","tag":{"amenity":"waste_basket"}},"type":"Feature"},
	{"geometry":{"coordinates":[-95.629933,29.822435],"type":"Point"},"properties":{"osm_id":"6011377448","tag":{"amenity":"waste_basket"}},"type":"Feature"},
	{"geometry":{"coordinates":[-95.630103,29.822965],"type":"Point"},"properties":{"osm_id":"6011377450","tag":{"amenity":"waste_basket"}},"type":"Feature"},
	{"geometry":{"coordinates":[-95.630226,29.823261],"type":"Point"},"properties":{"osm_id":"6011381589","tag":{"amenity":"waste_basket"}},"type":"Feature"},
	{"geometry":{"coordinates":[-95.630862,29.82346],"type":"Point"},"properties":{"osm_id":"6011381594","tag":{"amenity":"waste_basket"}},"type":"Feature"},
	{"geometry":{"coordinates":[-95.631209,29.823949],"type":"Point"},"properties":{"osm_id":"6011381600","tag":{"amenity":"waste_basket"}},"type":"Feature"},
	{"geometry":{"coordinates":[-95.631625,29.824291],"type":"Point"},"properties":{"osm_id":"6011381602","tag":{"amenity":"waste_basket"}},"type":"Feature"},
	{"geometry":{"coordinates":[-95.631814,29.824645],"type":"Point"},"properties":{"osm_id":"6011381606","tag":{"amenity":"waste_basket"}},"type":"Feature"},
	{"geometry":{"coordinates":[-95.631744,29.824887],"type":"Point"},"properties":{"osm_id":"6011381608","tag":{"amenity":"waste_basket"}},"type":"Feature"},
	{"geometry":{"coordinates":[-95.631717,29.828712],"type":"Point"},"properties":{"osm_id":"6011381615","tag":{"amenity":"waste_basket"}},"type":"Feature"},
	{"geometry":{"coordinates":[-95.630766,29.82859],"type":"Point"},"properties":{"osm_id":"6011381619","tag":{"amenity":"waste_basket"}},"type":"Feature"},
	{"geometry":{"coordinates":[-95.630205,29.828479],"type":"Point"},"properties":{"osm_id":"6011381621","tag":{"amenity":"waste_basket"}},"type":"Feature"},
	{"geometry":{"coordinates":[-95.630398,29.82814],"type":"Point"},"properties":{"osm_id":"6011381627","tag":{"amenity":"waste_basket"}},"type":"Feature"},
	{"geometry":{"coordinates":[-95.629964,29.827951],"type":"Point"},"properties":{"osm_id":"6011381629","tag":{"amenity":"waste_basket"}},"type":"Feature"},
	{"geometry":{"coordinates":[-95.630649,29.827815],"type":"Point"},"properties":{"osm_id":"6011381632","tag":{"amenity":"waste_basket"}},"type":"Feature"},
	{"geometry":{"coordinates":[-95.630713,29.826378],"type":"Point"},"properties":{"osm_id":"6011383426","tag":{"amenity":"waste_basket"}},"type":"Feature"},
	{"geometry":{"coordinates":[-95.630968,29.826232],"type":"Point"},"properties":{"osm_id":"6011383428","tag":{"amenity":"waste_basket"}},"type":"Feature"},
	{"geometry":{"coordinates":[-95.630224,29.826236],"type":"Point"},"properties":{"osm_id":"6011383429","tag":{"amenity":"waste_basket"}},"type":"Feature"},
	{"geometry":{"coordinates":[-95.630515,29.825218],"type":"Point"},"properties":{"osm_id":"6011383435","tag":{"amenity":"waste_basket"}},"type":"Feature"},
	{"geometry":{"coordinates":[-95.63093,29.824314],"type":"Point"},"properties":{"osm_id":"6011383440","tag":{"amenity":"waste_basket"}},"type":"Feature"},
	{"geometry":{"coordinates":[-95.630741,29.824053],"type":"Point"},"properties":{"osm_id":"6011383443","tag":{"amenity":"waste_basket"}},"type":"Feature"},
	{"geometry":{"coordinates":[-95.630507,29.823737],"type":"Point"},"properties":{"osm_id":"6011383445","tag":{"amenity":"waste_basket"}},"type":"Feature"},
	{"geometry":{"coordinates":[-95.628441,29.822436],"type":"Point"},"properties":{"osm_id":"6011383448","tag":{"amenity":"waste_basket"}},"type":"Feature"},
	{"geometry":{"coordinates":[-95.626249,29.824468],"type":"Point"},"properties":{"osm_id":"6011383451","tag":{"amenity":"waste_basket"}},"type":"Feature"},
	{"geometry":{"coordinates":[-95.626758,29.827857],"type":"Point"},"properties":{"osm_id":"6011383454","tag":{"amenity":"waste_basket"}},"type":"Feature"},
	{"geometry":{"coordinates":[-95.62773,29.829951],"type":"Point"},"properties":{"osm_id":"6011385823","tag":{"amenity":"waste_basket"}},"type":"Feature"},
	{"geometry":{"coordinates":[-95.627214,29.830165],"type":"Point"},"properties":{"osm_id":"6011385832","tag":{"amenity":"waste_basket"}},"type":"Feature"},
	{"geometry":{"coordinates":[-95.62695,29.830813],"type":"Point"},"properties":{"osm_id":"6011385840","tag":{"amenity":"waste_basket"}},"type":"Feature"},
	{"geometry":{"coordinates":[-95.626983,29.830667],"type":"Point"},"properties":{"osm_id":"6011385841","tag":{"amenity":"waste_basket"}},"type":"Feature"},
	{"geometry":{"coordinates":[-95.627329,29.830601],"type":"Point"},"properties":{"osm_id":"6011385842","tag":{"amenity":"waste_basket"}},"type":"Feature"},
	{"geometry":{"coordinates":[-95.626767,29.831132],"type":"Point"},"properties":{"osm_id":"6011385847","tag":{"amenity":"waste_basket"}},"type":"Feature"},
	{"geometry":{"coordinates":[-95.627244,29.831005],"type":"Point"},"properties":{"osm_id":"6011385850","tag":{"amenity":"waste_basket"}},"type":"Feature"},
	{"geometry":{"coordinates":[-95.627177,29.83164],"type":"Point"},"properties":{"osm_id":"6011385863","tag":{"amenity":"waste_basket"}},"type":"Feature"},
	{"geometry":{"coordinates":[-95.626691,29.831404],"type":"Point"},"properties":{"osm_id":"6011385864","tag":{"amenity":"waste_basket"}},"type":"Feature"},
	{"geometry":{"coordinates":[-95.62749,29.831878],"type":"Point"},"properties":{"osm_id":"6011385865","tag":{"amenity":"waste_basket"}},"type":"Feature"},
	{"geometry":{"coordinates":[-95.627922,29.832057],"type":"Point"},"properties":{"osm_id":"6011385869","tag":{"amenity":"waste_basket"}},"type":"Feature"},
	{"geometry":{"coordinates":[-95.628069,29.831732],"type":"Point"},"properties":{"osm_id":"6011386133","tag":{"amenity":"waste_basket"}},"type":"Feature"},
	{"geometry":{"coordinates":[-95.628162,29.831484],"type":"Point"},"properties":{"osm_id":"6011386141","tag":{"amenity":"waste_basket"}},"type":"Feature"},
	{"geometry":{"coordinates":[-95.628008,29.831227],"type":"Point"},"properties":{"osm_id":"6011386151","tag":{"amenity":"waste_basket"}},"type":"Feature"},
	{"geometry":{"coordinates":[-95.628246,29.831226],"type":"Point"},"properties":{"osm_id":"6011386152","tag":{"amenity":"waste_basket"}},"type":"Feature"},
	{"geometry":{"coordinates":[-95.628065,29.831004],"type":"Point"},"properties":{"osm_id":"6011386153","tag":{"amenity":"waste_basket"}},"type":"Feature"},
	{"geometry":{"coordinates":[-95.627794,29.831093],"type":"Point"},"properties":{"osm_id":"6011386154","tag":{"amenity":"waste_basket"}},"type":"Feature"},
	{"geometry":{"coordinates":[-95.628665,29.831089],"type":"Point"},"properties":{"osm_id":"6011386158","tag":{"amenity":"waste_basket"}},"type":"Feature"},
	{"geometry":{"coordinates":[-95.629154,29.830231],"type":"Point"},"properties":{"osm_id":"6011386170","tag":{"amenity":"waste_basket"}},"type":"Feature"},
	{"geometry":{"coordinates":[-95.629378,29.829995],"type":"Point"},"properties":{"osm_id":"6011386175","tag":{"amenity":"waste_basket"}},"type":"Feature"},
	{"geometry":{"coordinates":[-95.628988,29.830007],"type":"Point"},"properties":{"osm_id":"6011386176","tag":{"amenity":"waste_basket"}},"type":"Feature"},
	{"geometry":{"coordinates":[-95.629577,29.829775],"type":"Point"},"properties":{"osm_id":"6011386181","tag":{"amenity":"waste_basket"}},"type":"Feature"},
	{"geometry":{"coordinates":[-95.630148,29.829361],"type":"Point"},"properties":{"osm_id":"6011386183","tag":{"amenity":"waste_basket"}},"type":"Feature"},
	{"geometry":{"coordinates":[-95.630364,29.829412],"type":"Point"},"properties":{"osm_id":"6011386487","tag":{"amenity":"waste_basket"}},"type":"Feature"},
	{"geometry":{"coordinates":[-95.631493,29.829217],"type":"Point"},"properties":{"osm_id":"6011386489","tag":{"amenity":"waste_basket"}},"type":"Feature"},
	{"geometry":{"coordinates":[-95.631944,29.828635],"type":"Point"},"properties":{"osm_id":"6011386491","tag":{"amenity":"waste_basket"}},"type":"Feature"},
	{"geometry":{"coordinates":[-95.628946,29.832259],"type":"Point"},"properties":{"osm_id":"6011390795","tag":{"amenity":"waste_basket"}},"type":"Feature"},
	{"geometry":{"coordinates":[-95.628771,29.832038],"type":"Point"},"properties":{"osm_id":"6011390799","tag":{"amenity":"waste_basket"}},"type":"Feature"},
	{"geometry":{"coordinates":[-95.628324,29.832417],"type":"Point"},"properties":{"osm_id":"6011390804","tag":{"amenity":"waste_basket"}},"type":"Feature"},
	{"geometry":{"coordinates":[-95.627765,29.833096],"type":"Point"},"properties":{"osm_id":"6011390807","tag":{"amenity":"waste_basket"}},"type":"Feature"},
	{"geometry":{"coordinates":[-95.627906,29.833411],"type":"Point"},"properties":{"osm_id":"6011390809","tag":{"amenity":"waste_basket"}},"type":"Feature"},
	{"geometry":{"coordinates":[-95.628688,29.833535],"type":"Point"},"properties":{"osm_id":"6011390813","tag":{"amenity":"waste_basket"}},"type":"Feature"},
	{"geometry":{"coordinates":[-95.629747,29.834625],"type":"Point"},"properties":{"osm_id":"6011390818","tag":{"amenity":"waste_basket"}},"type":"Feature"},
	{"geometry":{"coordinates":[-95.627542,29.835652],"type":"Point"},"properties":{"osm_id":"6011390825","tag":{"amenity":"waste_basket"}},"type":"Feature"},
	{"geometry":{"coordinates":[-95.629894,29.835057],"type":"Point"},"properties":{"osm_id":"6011390834","tag":{"amenity":"waste_basket"}},"type":"Feature"},
	{"geometry":{"coordinates":[-95.629916,29.835163],"type":"Point"},"properties":{"osm_id":"6011390836","tag":{"amenity":"waste_basket"}},"type":"Feature"},
	{"geometry":{"coordinates":[-95.630037,29.835048],"type":"Point"},"properties":{"osm_id":"6011390838","tag":{"amenity":"waste_basket"}},"type":"Feature"},
	{"geometry":{"coordinates":[-95.628125,29.835682],"type":"Point"},"properties":{"osm_id":"6011390841","tag":{"amenity":"waste_basket"}},"type":"Feature"},
	{"geometry":{"coordinates":[-95.626702,29.835178],"type":"Point"},"properties":{"osm_id":"6011390845","tag":{"amenity":"waste_basket"}},"type":"Feature"},
	{"geometry":{"coordinates":[-95.626301,29.834295],"type":"Point"},"properties":{"osm_id":"6011390855","tag":{"amenity":"waste_basket"}},"type":"Feature"},
	{"geometry":{"coordinates":[-95.62627,29.834403],"type":"Point"},"properties":{"osm_id":"6011390856","tag":{"amenity":"waste_basket"}},"type":"Feature"},
	{"geometry":{"coordinates":[-95.626735,29.833219],"type":"Point"},"properties":{"osm_id":"6011391624","tag":{"amenity":"waste_basket"}},"type":"Feature"},
	{"geometry":{"coordinates":[-95.626826,29.832378],"type":"Point"},"properties":{"osm_id":"6011391629","tag":{"amenity":"waste_basket"}},"type":"Feature"},
	{"geometry":{"coordinates":[-95.62565,29.833101],"type":"Point"},"properties":{"osm_id":"6011391635","tag":{"amenity":"waste_basket"}},"type":"Feature"},
	{"geometry":{"coordinates":[-95.625926,29.83358],"type":"Point"},"properties":{"osm_id":"6011391636","tag":{"amenity":"waste_basket"}},"type":"Feature"},
	{"geometry":{"coordinates":[-95.625402,29.833618],"type":"Point"},"properties":{"osm_id":"6011391644","tag":{"amenity":"waste_basket"}},"type":"Feature"},
	{"geometry":{"coordinates":[-95.62617,29.83172],"type":"Point"},"properties":{"osm_id":"6011391650","tag":{"amenity":"waste_basket"}},"type":"Feature"},
	{"geometry":{"coordinates":[-95.626184,29.831396],"type":"Point"},"properties":{"osm_id":"6011391653","tag":{"amenity":"waste_basket"}},"type":"Feature"},
	{"geometry":{"coordinates":[-95.626156,29.831277],"type":"Point"},"properties":{"osm_id":"6011391656","tag":{"amenity":"waste_basket"}},"type":"Feature"},
	{"geometry":{"coordinates":[-95.626135,29.831141],"type":"Point"},"properties":{"osm_id":"6011391658","tag":{"amenity":"waste_basket"}},"type":"Feature"},
	{"geometry":{"coordinates":[-95.63076,29.828294],"type":"Point"},"properties":{"osm_id":"6011393401","tag":{"amenity":"waste_basket"}},"type":"Feature"},
	{"geometry":{"coordinates":[-95.628894,29.831086],"type":"Point"},"properties":{"osm_id":"6011393406","tag":{"amenity":"waste_basket"}},"type":"Feature"},
	{"geometry":{"coordinates":[-95.630166,29.83354],"type":"Point"},"properties":{"osm_id":"6011393409","tag":{"amenity":"waste_basket"}},"type":"Feature"},
	{"geometry":{"coordinates":[-95.629412,29.834374],"type":"Point"},"properties":{"osm_id":"6011393418","tag":{"amenity":"waste_basket"}},"type":"Feature"},
	{"geometry":{"coordinates":[-95.62866,29.829855],"type":"Point"},"properties":{"osm_id":"6030926610","tag":{"amenity":"waste_basket"}},"type":"Feature"},
	{"geometry":{"coordinates":[-95.628199,29.829913],"type":"Point"},"properties":{"osm_id":"6030926611","tag":{"amenity":"waste_basket"}},"type":"Feature"},
	{"geometry":{"coordinates":[-95.687467,29.789544],"type":"Point"},"properties":{"osm_id":"6050188214","tag":{"amenity":"waste_disposal"}},"type":"Feature"},
	{"geometry":{"coordinates":[-95.673574,29.808561],"type":"Point"},"properties":{"osm_id":"6051205270","tag":{"amenity":"waste_basket"}},"type":"Feature"},
	{"geometry":{"coordinates":[-95.674489,29.809047],"type":"Point"},"properties":{"osm_id":"6051205276","tag":{"amenity":"waste_basket"}},"type":"Feature"},
	{"geometry":{"coordinates":[-95.67339,29.808383],"type":"Point"},"properties":{"osm_id":"6051205279","tag":{"amenity":"waste_basket"}},"type":"Feature"},
	{"geometry":{"coordinates":[-95.670018,29.807761],"type":"Point"},"properties":{"osm_id":"6051205284","tag":{"amenity":"waste_basket"}},"type":"Feature"},
	{"geometry":{"coordinates":[-95.670087,29.807877],"type":"Point"},"properties":{"osm_id":"6051205285","tag":{"amenity":"waste_basket"}},"type":"Feature"},
	{"geometry":{"coordinates":[-95.669845,29.807775],"type":"Point"},"properties":{"osm_id":"6051205286","tag":{"amenity":"waste_basket"}},"type":"Feature"},
	{"geometry":{"coordinates":[-95.669398,29.808228],"type":"Point"},"properties":{"osm_id":"6051205295","tag":{"amenity":"waste_basket"}},"type":"Feature"},
	{"geometry":{"coordinates":[-95.669189,29.809054],"type":"Point"},"properties":{"osm_id":"6051213269","tag":{"amenity":"waste_basket"}},"type":"Feature"},
	{"geometry":{"coordinates":[-95.66916,29.80853],"type":"Point"},"properties":{"osm_id":"6051213271","tag":{"amenity":"waste_basket"}},"type":"Feature"},
	{"geometry":{"coordinates":[-95.689689,29.7995],"type":"Point"},"properties":{"osm_id":"6051280763","tag":{"amenity":"waste_basket"}},"type":"Feature"},
	{"geometry":{"coordinates":[-95.692522,29.79996],"type":"Point"},"properties":{"osm_id":"6051282014","tag":{"amenity":"waste_basket"}},"type":"Feature"},
	{"geometry":{"coordinates":[-95.693131,29.799772],"type":"Point"},"properties":{"osm_id":"6051282015","tag":{"amenity":"waste_basket"}},"type":"Feature"},
	{"geometry":{"coordinates":[-95.692413,29.799516],"type":"Point"},"properties":{"osm_id":"6051283685","tag":{"amenity":"waste_basket"}},"type":"Feature"},
	{"geometry":{"coordinates":[-95.69143,29.799244],"type":"Point"},"properties":{"osm_id":"6051283686","tag":{"amenity":"waste_basket"}},"type":"Feature"},
	{"geometry":{"coordinates":[-95.691528,29.799656],"type":"Point"},"properties":{"osm_id":"6051283689","tag":{"amenity":"waste_basket"}},"type":"Feature"},
	{"geometry":{"coordinates":[-95.69155,29.799362],"type":"Point"},"properties":{"osm_id":"6051283690","tag":{"amenity":"waste_basket"}},"type":"Feature"},
	{"geometry":{"coordinates":[-95.69094,29.799245],"type":"Point"},"properties":{"osm_id":"6051283691","tag":{"amenity":"waste_basket"}},"type":"Feature"},
	{"geometry":{"coordinates":[-95.690736,29.799245],"type":"Point"},"properties":{"osm_id":"6051283692","tag":{"amenity":"waste_basket"}},"type":"Feature"},
	{"geometry":{"coordinates":[-95.690495,29.799405],"type":"Point"},"properties":{"osm_id":"6051283693","tag":{"amenity":"waste_basket"}},"type":"Feature"},
	{"geometry":{"coordinates":[-95.690523,29.799239],"type":"Point"},"properties":{"osm_id":"6051283694","tag":{"amenity":"waste_basket"}},"type":"Feature"},
	{"geometry":{"coordinates":[-95.690782,29.799517],"type":"Point"},"properties":{"osm_id":"6051283695","tag":{"amenity":"waste_basket"}},"type":"Feature"},
	{"geometry":{"coordinates":[-95.69094,29.799671],"type":"Point"},"properties":{"osm_id":"6051283696","tag":{"amenity":"waste_basket"}},"type":"Feature"},
	{"geometry":{"coordinates":[-95.69057,29.800002],"type":"Point"},"properties":{"osm_id":"6051283697","tag":{"amenity":"waste_basket"}},"type":"Feature"},
	{"geometry":{"coordinates":[-95.672482,29.838377],"type":"Point"},"properties":{"osm_id":"6074595357","tag":{"amenity":"waste_basket","waste":"dog_excrement"}},"type":"Feature"},
	{"geometry":{"coordinates":[-95.669432,29.837008],"type":"Point"},"properties":{"osm_id":"6074595358","tag":{"amenity":"waste_basket","waste":"dog_excrement"}},"type":"Feature"},
	{"geometry":{"coordinates":[-95.673376,29.840076],"type":"Point"},"properties":{"osm_id":"6074595359","tag":{"amenity":"waste_basket","waste":"dog_excrement"}},"type":"Feature"},
	{"geometry":{"coordinates":[-95.705505,29.796244],"type":"Point"},"properties":{"osm_id":"6126912670","tag":{"amenity":"waste_disposal"}},"type":"Feature"},
	{"geometry":{"coordinates":[-95.705459,29.796246],"type":"Point"},"properties":{"osm_id":"6126912671","tag":{"amenity":"waste_disposal"}},"type":"Feature"},
	{"geometry":{"coordinates":[-95.643254,29.786529],"type":"Point"},"properties":{"osm_id":"6133354361","tag":{"amenity":"waste_disposal"}},"type":"Feature"},
	{"geometry":{"coordinates":[-95.696746,29.798699],"type":"Point"},"properties":{"osm_id":"6167524304","tag":{"amenity":"waste_basket"}},"type":"Feature"},
	{"geometry":{"coordinates":[-95.697642,29.79849],"type":"Point"},"properties":{"osm_id":"6167524305","tag":{"amenity":"waste_basket"}},"type":"Feature"},
	{"geometry":{"coordinates":[-95.697806,29.798704],"type":"Point"},"properties":{"osm_id":"6167524306","tag":{"amenity":"waste_basket"}},"type":"Feature"},
	{"geometry":{"coordinates":[-95.69872,29.798704],"type":"Point"},"properties":{"osm_id":"6167524318","tag":{"amenity":"waste_basket"}},"type":"Feature"},
	{"geometry":{"coordinates":[-95.688051,29.812116],"type":"Point"},"properties":{"osm_id":"6710097817","tag":{"amenity":"waste_disposal"}},"type":"Feature"}
]
}
