{
"type": "FeatureCollection",
"features": [
	{"geometry":{"coordinates":[-3.600973,51.544997],"type":"Point"},"properties":{"name":"Recycling Transfer Centre","osm_id":"3939264835","tag":{"amenity":"recycling","operator":"Kier","recycling:cans":"no","recycling:clothes":"no","recycling:glass":"no","recycling:glass_bottles":"no","recycling:paper":"no","recycling:plastic":"no","recycling_type":"centre"}},"type":"Feature"},
	{"geometry":{"coordinates":[-3.57933,51.509374],"type":"Point"},"properties":{"osm_id":"5184084057","tag":{"amenity":"waste_disposal"}},"type":"Feature"},
	{"geometry":{"coordinates":[-3.576329,51.532653],"type":"Point"},"properties":{"osm_id":"5184084126","tag":{"amenity":"waste_disposal"}},"type":"Feature"},
	{"geometry":{"coordinates":[-3.578268,51.531199],"type":"Point"},"properties":{"osm_id":"5184084130","tag":{"amenity":"waste_disposal"}},"type":"Feature"},
	{"geometry":{"coordinates":[-3.579278,51.509375],"type":"Point"},"properties":{"osm_id":"5184093930","tag":{"amenity":"waste_disposal"}},"type":"Feature"},
	{"geometry":{"coordinates":[-3.580652,51.549439],"type":"Point"},"properties":{"barrier":"gate","osm_id":"7101747721"},"type":"Feature"},
	{"geometry":{"coordinates":[-3.580649,51.549062],"type":"Point"},"properties":{"barrier":"gate","osm_id":"7101747722"},"type":"Feature"},
	{"geometry":{"coordinates":[-3.577259,51.534519],"type":"Point"},"properties":{"osm_id":"8128009388","tag":{"amenity":"waste_basket"}},"type":"Feature"},
	{"geometry":{"coordinates":[-3.577006,51.534658],"type":"Point"},"properties":{"osm_id":"8128009389","tag":{"amenity":"waste_basket"}},"type":"Feature"},
	{"geometry":{"coordinates":[-3.576863,51.534661],"type":"Point"},"properties":{"osm_id":"8128009390","tag":{"amenity":"waste_basket"}},"type":"Feature"},
	{"geometry":{"coordinates":[-3.576725,51.534663],"type":"Point"},"properties":{"osm_id":"8128009391","tag":{"amenity":"waste_basket"}},"type":"Feature"},
	{"geometry":{"coordinates":[-3.576812,51.534782],"type":"Point"},"properties":{"osm_id":"8128009413","tag":{"amenity":"waste_basket"}},"type":"Feature"},
	{"geometry":{"coordinates":[-3.576786,51.534822],"type":"Point"},"properties":{"osm_id":"8128009417","tag":{"amenity":"waste_basket"}},"type":"Feature"}
]
}
