{
"type": "FeatureCollection",
"features": [
	{"geometry":{"coordinates":[-3.578012,48.802739],"type":"Point"},"properties":{"osm_id":"2426500741","tag":{"amenity":"recycling","operator":"LTC","recycling:glass":"yes","recycling:glass_bottles":"yes","recycling_type":"container"}},"type":"Feature"},
	{"geometry":{"coordinates":[-3.577016,48.782402],"type":"Point"},"properties":{"osm_id":"3358447815","tag":{"amenity":"recycling","operator":"LTC","recycling:cans":"yes","recycling:cartons":"yes","recycling:glass":"yes","recycling:magazines":"yes","recycling:newspaper":"yes","recycling:paper":"yes","recycling:plastic_bottles":"yes","recycling:waste":"yes","recycling_type":"container"}},"type":"Feature"},
	{"geometry":{"coordinates":[-3.558296,48.791372],"type":"Point"},"properties":{"osm_id":"3608792830","tag":{"amenity":"recycling","operator":"LTC","recycling:glass":"yes","recycling:glass_bottles":"yes","recycling_type":"container"}},"type":"Feature"},
	{"geometry":{"coordinates":[-3.566905,48.801614],"type":"Point"},"properties":{"osm_id":"3610939836","tag":{"amenity":"recycling","recycling:glass":"yes","recycling_type":"container"}},"type":"Feature"},
	{"geometry":{"coordinates":[-3.566869,48.801621],"type":"Point"},"properties":{"osm_id":"3610939837","tag":{"amenity":"recycling","recycling_type":"container"}},"type":"Feature"},
	{"geometry":{"coordinates":[-3.563845,48.795038],"type":"Point"},"properties":{"osm_id":"3610939869","tag":{"amenity":"recycling","operator":"LTC","recycling:cans":"yes","recycling:glass":"yes","recycling:glass_bottles":"yes","recycling:magazines":"yes","recycling:newspaper":"yes","recycling:paper":"yes","recycling:plastic_bottles":"yes","recycling:waste":"yes","recycling_type":"container"}},"type":"Feature"},
	{"geometry":{"coordinates":[-3.531891,48.783125],"type":"Point"},"properties":{"osm_id":"3617833301","tag":{"amenity":"recycling","operator":"LTC","recycling:cans":"yes","recycling:glass":"yes","recycling:glass_bottles":"yes","recycling:magazines":"yes","recycling:newspaper":"yes","recycling:paper":"yes","recycling:plastic_bottles":"yes","recycling_type":"container"}},"type":"Feature"},
	{"geometry":{"coordinates":[-3.565385,48.805554],"type":"Point"},"properties":{"osm_id":"4043885775","tag":{"amenity":"recycling","operator":"LTC","recycling:cans":"no","recycling:glass":"yes","recycling:glass_bottles":"yes","recycling_type":"container"}},"type":"Feature"},
	{"geometry":{"coordinates":[-3.535578,48.758864],"type":"Point"},"properties":{"osm_id":"4073015403","tag":{"amenity":"recycling","operator":"LTC","recycling:glass":"yes","recycling_type":"container"}},"type":"Feature"},
	{"geometry":{"coordinates":[-3.583976,48.770357],"type":"Point"},"properties":{"osm_id":"4107599022","tag":{"amenity":"recycling","location":"underground","operator":"LTC","recycling:cans":"yes","recycling:glass":"yes","recycling:glass_bottles":"yes","recycling:paper":"yes","recycling:plastic":"yes","recycling:plastic_bottles":"yes","recycling:waste":"yes","recycling_type":"container"}},"type":"Feature"},
	{"geometry":{"coordinates":[-3.581834,48.76867],"type":"Point"},"properties":{"osm_id":"4107599023","tag":{"amenity":"recycling","operator":"LTC","recycling:glass":"yes","recycling:glass_bottles":"yes","recycling_type":"container"}},"type":"Feature"},
	{"geometry":{"coordinates":[-3.582777,48.773732],"type":"Point"},"properties":{"osm_id":"4107599024","tag":{"amenity":"recycling","operator":"LTC","recycling:waste":"yes","recycling_type":"container","waste":"trash"}},"type":"Feature"},
	{"geometry":{"coordinates":[-3.57857,48.772944],"type":"Point"},"properties":{"osm_id":"4107599025","tag":{"amenity":"recycling","location":"underground","operator":"LTC","recycling:cans":"yes","recycling:glass":"yes","recycling:glass_bottles":"yes","recycling:paper":"yes","recycling:plastic":"yes","recycling:plastic_bottles":"yes","recycling:waste":"yes","recycling_type":"container"}},"type":"Feature"},
	{"geometry":{"coordinates":[-3.577725,48.770635],"type":"Point"},"properties":{"osm_id":"4107599026","tag":{"amenity":"recycling","operator":"LTC","recycling:cans":"yes","recycling:glass":"yes","recycling:glass_bottles":"yes","recycling:plastic":"yes","recycling_type":"container"}},"type":"Feature"},
	{"geometry":{"coordinates":[-3.564869,48.761238],"type":"Point"},"properties":{"osm_id":"4107616755","tag":{"amenity":"recycling","operator":"LTC","recycling:glass":"yes","recycling:glass_bottles":"yes","recycling:paper":"no","recycling:waste":"yes","recycling_type":"container"}},"type":"Feature"},
	{"geometry":{"coordinates":[-3.569278,48.764629],"type":"Point"},"properties":{"osm_id":"4107616756","tag":{"amenity":"recycling","operator":"LTC","recycling:glass":"yes","recycling:glass_bottles":"yes","recycling_type":"container"}},"type":"Feature"},
	{"geometry":{"coordinates":[-3.566479,48.772141],"type":"Point"},"properties":{"osm_id":"4142861897","tag":{"amenity":"waste_basket"}},"type":"Feature"},
	{"geometry":{"coordinates":[-3.518491,48.772817],"type":"Point"},"properties":{"osm_id":"4357110213","tag":{"amenity":"recycling","operator":"LTC","recycling:cans":"yes","recycling:glass":"yes","recycling:glass_bottles":"yes","recycling:magazines":"yes","recycling:newspaper":"yes","recycling:paper":"yes","recycling:plastic_bottles":"yes","recycling_type":"container"}},"type":"Feature"},
	{"geometry":{"coordinates":[-3.515757,48.774349],"type":"Point"},"properties":{"osm_id":"4357110214","tag":{"amenity":"recycling","operator":"LTC","recycling:cans":"yes","recycling:glass":"yes","recycling:glass_bottles":"yes","recycling:magazines":"yes","recycling:newspaper":"yes","recycling:paper":"yes","recycling:plastic_bottles":"yes","recycling:waste":"yes","recycling_type":"container"}},"type":"Feature"},
	{"geometry":{"coordinates":[-3.517181,48.76952],"type":"Point"},"properties":{"osm_id":"4357110215","tag":{"amenity":"recycling","operator":"LTC","recycling:glass":"yes","recycling:glass_bottles":"yes","recycling_type":"container"}},"type":"Feature"},
	{"geometry":{"coordinates":[-3.517996,48.784247],"type":"Point"},"properties":{"osm_id":"4357110216","tag":{"amenity":"recycling","operator":"LTC","recycling:glass":"yes","recycling:glass_bottles":"yes","recycling_type":"container"}},"type":"Feature"},
	{"geometry":{"coordinates":[-3.538752,48.799809],"type":"Point"},"properties":{"osm_id":"4357267096","tag":{"amenity":"recycling","operator":"LTC","recycling:glass":"yes","recycling:glass_bottles":"yes","recycling_type":"container"}},"type":"Feature"},
	{"geometry":{"coordinates":[-3.541071,48.798439],"type":"Point"},"properties":{"osm_id":"4357267097","tag":{"amenity":"recycling","operator":"LTC","recycling:waste":"yes","recycling_type":"container"}},"type":"Feature"},
	{"geometry":{"coordinates":[-3.565297,48.806014],"type":"Point"},"properties":{"osm_id":"4357449744","tag":{"amenity":"recycling","operator":"LTC","recycling:waste":"yes","recycling_type":"container"}},"type":"Feature"},
	{"geometry":{"coordinates":[-3.575361,48.799805],"type":"Point"},"properties":{"osm_id":"4357449745","tag":{"amenity":"recycling","operator":"LTC","recycling:waste":"yes","recycling_type":"container"}},"type":"Feature"},
	{"geometry":{"coordinates":[-3.584121,48.799247],"type":"Point"},"properties":{"osm_id":"4357449746","tag":{"amenity":"recycling","location":"underground","recycling:cans":"yes","recycling:glass":"yes","recycling:glass_bottles":"yes","recycling:magazines":"yes","recycling:newspaper":"yes","recycling:paper":"yes","recycling:plastic_bottles":"yes","recycling:waste":"yes","recycling_type":"container"}},"type":"Feature"},
	{"geometry":{"coordinates":[-3.575795,48.786046],"type":"Point"},"properties":{"osm_id":"4357449747","tag":{"amenity":"recycling","operator":"LTC","recycling:glass":"yes","recycling:glass_bottles":"yes","recycling_type":"container"}},"type":"Feature"},
	{"geometry":{"coordinates":[-3.579348,48.777888],"type":"Point"},"properties":{"osm_id":"4357449748","tag":{"amenity":"recycling","operator":"LTC","recycling:glass":"yes","recycling:glass_bottles":"yes","recycling_type":"container"}},"type":"Feature"},
	{"geometry":{"coordinates":[-3.570682,48.769724],"type":"Point"},"properties":{"osm_id":"4357464327","tag":{"amenity":"recycling","operator":"LTC","recycling:glass":"yes","recycling:glass_bottles":"yes","recycling_type":"container"}},"type":"Feature"},
	{"geometry":{"coordinates":[-3.566598,48.769093],"type":"Point"},"properties":{"osm_id":"4357464328","tag":{"amenity":"recycling","operator":"LTC","recycling:glass":"yes","recycling:glass_bottles":"yes","recycling_type":"container"}},"type":"Feature"},
	{"geometry":{"coordinates":[-3.562278,48.768525],"type":"Point"},"properties":{"osm_id":"4357464329","tag":{"amenity":"recycling","operator":"LTC","recycling:cans":"yes","recycling:glass":"yes","recycling:glass_bottles":"yes","recycling:magazines":"yes","recycling:newspaper":"yes","recycling:paper":"yes","recycling:plastic_bottles":"yes","recycling_type":"container"}},"type":"Feature"},
	{"geometry":{"coordinates":[-3.560864,48.77091],"type":"Point"},"properties":{"osm_id":"4357464330","tag":{"amenity":"recycling","operator":"LTC","recycling:glass":"yes","recycling:glass_bottles":"yes","recycling_type":"container"}},"type":"Feature"},
	{"geometry":{"coordinates":[-3.555557,48.767606],"type":"Point"},"properties":{"osm_id":"4357464331","tag":{"amenity":"recycling","operator":"LTC","recycling:glass":"yes","recycling:glass_bottles":"yes","recycling_type":"container"}},"type":"Feature"},
	{"geometry":{"coordinates":[-3.567037,48.778845],"type":"Point"},"properties":{"osm_id":"4357464332","tag":{"amenity":"recycling","operator":"LTC","recycling:glass":"yes","recycling:glass_bottles":"yes","recycling_type":"container"}},"type":"Feature"},
	{"geometry":{"coordinates":[-3.551124,48.767051],"type":"Point"},"properties":{"osm_id":"4357469009","tag":{"amenity":"recycling","location":"underground","operator":"LTC","recycling:cans":"yes","recycling:cartons":"yes","recycling:glass":"yes","recycling:magazines":"yes","recycling:newspaper":"yes","recycling:paper":"yes","recycling:plastic_bottles":"yes","recycling:waste":"yes","recycling_type":"container"}},"type":"Feature"},
	{"geometry":{"coordinates":[-3.547958,48.764594],"type":"Point"},"properties":{"osm_id":"4357469010","tag":{"amenity":"recycling","operator":"LTC","recycling:glass":"yes","recycling:glass_bottles":"yes","recycling_type":"container"}},"type":"Feature"},
	{"geometry":{"coordinates":[-3.564277,48.76938],"type":"Point"},"properties":{"osm_id":"5801628355","tag":{"amenity":"waste_basket"}},"type":"Feature"},
	{"geometry":{"coordinates":[-3.564184,48.7693],"type":"Point"},"properties":{"osm_id":"7523416168","tag":{"amenity":"waste_basket"}},"type":"Feature"},
	{"geometry":{"coordinates":[-3.57792,48.772211],"type":"Point"},"properties":{"osm_id":"7523516297","tag":{"amenity":"waste_basket"}},"type":"Feature"},
	{"geometry":{"coordinates":[-3.57818,48.772544],"type":"Point"},"properties":{"osm_id":"7523516299","tag":{"amenity":"waste_basket"}},"type":"Feature"},
	{"geometry":{"coordinates":[-3.578248,48.772863],"type":"Point"},"properties":{"osm_id":"7523516300","tag":{"amenity":"waste_basket"}},"type":"Feature"},
	{"geometry":{"coordinates":[-3.58366,48.773382],"type":"Point"},"properties":{"osm_id":"7523552358","tag":{"amenity":"waste_basket"}},"type":"Feature"},
	{"geometry":{"coordinates":[-3.583704,48.77224],"type":"Point"},"properties":{"osm_id":"7523552363","tag":{"amenity":"waste_basket"}},"type":"Feature"},
	{"geometry":{"coordinates":[-3.583491,48.771571],"type":"Point"},"properties":{"osm_id":"7523552364","tag":{"amenity":"waste_basket"}},"type":"Feature"},
	{"geometry":{"coordinates":[-3.583702,48.770946],"type":"Point"},"properties":{"osm_id":"7523552366","tag":{"amenity":"waste_basket"}},"type":"Feature"},
	{"geometry":{"coordinates":[-3.565333,48.761175],"type":"Point"},"properties":{"osm_id":"7523589176","tag":{"amenity":"waste_basket"}},"type":"Feature"},
	{"geometry":{"coordinates":[-3.55484,48.791104],"type":"Point"},"properties":{"osm_id":"7828609160","tag":{"amenity":"waste_basket","waste":"trash"}},"type":"Feature"},
	{"geometry":{"coordinates":[-3.55424,48.790805],"type":"Point"},"properties":{"osm_id":"7828609217","tag":{"amenity":"waste_basket","waste":"trash"}},"type":"Feature"}
]
}
