{
"type": "FeatureCollection",
"features": [
	{"geometry":{"coordinates":[-3.559012,48.701709],"type":"Point"},"properties":{"osm_id":"582746569","tag":{"amenity":"recycling","recycling:glass":"yes","recycling:paper":"yes","recycling_type":"container"}},"type":"Feature"},
	{"geometry":{"coordinates":[-3.579945,48.723377],"type":"Point"},"properties":{"osm_id":"1106612874","tag":{"amenity":"recycling","operator":"LTC","recycling:cans":"yes","recycling:glass":"yes","recycling:glass_bottles":"yes","recycling:paper":"yes","recycling:plastic":"yes","recycling_type":"container"}},"type":"Feature"},
	{"geometry":{"coordinates":[-3.571413,48.724047],"type":"Point"},"properties":{"name":"Aire de Services Flot Bleu","osm_id":"1861218957","tag":{"addr:city":"Tr\u00c3\u00a9drez-Locqu\u00c3\u00a9meau","addr:country":"FR","addr:postcode":"22300","amenity":"waste_disposal","website":"www.flotbleu.com"}},"type":"Feature"},
	{"geometry":{"coordinates":[-3.571469,48.724085],"type":"Point"},"properties":{"osm_id":"1861225141","tag":{"amenity":"recycling","operator":"LTC","recycling:cans":"yes","recycling:glass":"yes","recycling:glass_bottles":"yes","recycling:paper":"yes","recycling:plastic":"yes","recycling_type":"container"}},"type":"Feature"},
	{"geometry":{"coordinates":[-3.54071,48.735457],"type":"Point"},"properties":{"osm_id":"2426689285","tag":{"amenity":"waste_basket"}},"type":"Feature"},
	{"geometry":{"coordinates":[-3.543922,48.73784],"type":"Point"},"properties":{"osm_id":"4073015402","tag":{"amenity":"recycling","operator":"LTC","recycling:glass":"yes","recycling_type":"container"}},"type":"Feature"},
	{"geometry":{"coordinates":[-3.531656,48.729156],"type":"Point"},"properties":{"osm_id":"4073098834","tag":{"amenity":"recycling","amenity_1":"recycling","operator":"LTC","recycling:glass":"yes","recycling:glass_bottles":"yes","recycling_type":"container"}},"type":"Feature"},
	{"geometry":{"coordinates":[-3.562887,48.722331],"type":"Point"},"properties":{"osm_id":"4073098835","tag":{"amenity":"recycling","operator":"LTC","recycling:cans":"yes","recycling:glass":"yes","recycling:paper":"yes","recycling:plastic":"yes","recycling_type":"container"}},"type":"Feature"},
	{"geometry":{"coordinates":[-3.566808,48.718648],"type":"Point"},"properties":{"osm_id":"4073098836","tag":{"amenity":"recycling","operator":"LTC","recycling:cans":"yes","recycling:glass":"yes","recycling:paper":"yes","recycling:plastic":"yes","recycling:plastic_bottles":"yes","recycling_type":"container"}},"type":"Feature"},
	{"geometry":{"coordinates":[-3.557962,48.693001],"type":"Point"},"properties":{"osm_id":"4073133182","tag":{"amenity":"recycling","operator":"LTC","recycling:glass":"yes","recycling:glass_bottles":"yes","recycling_type":"container"}},"type":"Feature"},
	{"geometry":{"coordinates":[-3.538857,48.734875],"type":"Point"},"properties":{"osm_id":"4076438971","tag":{"amenity":"waste_basket"}},"type":"Feature"},
	{"geometry":{"coordinates":[-3.537556,48.734985],"type":"Point"},"properties":{"osm_id":"4076438972","tag":{"amenity":"waste_basket"}},"type":"Feature"},
	{"geometry":{"coordinates":[-3.540677,48.735484],"type":"Point"},"properties":{"osm_id":"4076439562","tag":{"amenity":"waste_basket"}},"type":"Feature"},
	{"geometry":{"coordinates":[-3.54346,48.746238],"type":"Point"},"properties":{"osm_id":"5751346466","tag":{"amenity":"recycling","operator":"LTC","recycling:cartons":"yes","recycling:glass":"yes","recycling:glass_bottles":"yes","recycling:magazines":"yes","recycling:paper_packaging":"yes","recycling:waste":"yes"}},"type":"Feature"},
	{"geometry":{"coordinates":[-3.549029,48.743397],"type":"Point"},"properties":{"osm_id":"5796989311","tag":{"amenity":"waste_basket"}},"type":"Feature"},
	{"geometry":{"coordinates":[-3.549105,48.744527],"type":"Point"},"properties":{"osm_id":"5796999810","tag":{"amenity":"waste_basket"}},"type":"Feature"},
	{"geometry":{"coordinates":[-3.549118,48.74588],"type":"Point"},"properties":{"osm_id":"5796999811","tag":{"amenity":"waste_basket"}},"type":"Feature"},
	{"geometry":{"coordinates":[-3.545116,48.738157],"type":"Point"},"properties":{"osm_id":"5834360485","tag":{"amenity":"recycling","recycling:glass":"yes","recycling:plastic_bottles":"yes","recycling:waste":"yes","recycling_type":"container"}},"type":"Feature"},
	{"geometry":{"coordinates":[-3.54909,48.745914],"type":"Point"},"properties":{"osm_id":"6753800453","tag":{"amenity":"recycling","recycling:glass_bottles":"yes","recycling:waste":"yes","recycling_type":"container"}},"type":"Feature"}
]
}
