{
"type": "FeatureCollection",
"features": [
	{"geometry":{"coordinates":[-3.565095,48.510145],"type":"Point"},"properties":{"osm_id":"4086164232","tag":{"amenity":"recycling","operator":"LTC","recycling:cans":"yes","recycling:glass_bottles":"yes","recycling:paper":"yes","recycling:plastic":"yes","recycling_type":"container"}},"type":"Feature"},
	{"geometry":{"coordinates":[-3.58426,48.512691],"type":"Point"},"properties":{"osm_id":"7713935716","tag":{"access":"yes","amenity":"waste_disposal","waste":"trash"}},"type":"Feature"},
	{"geometry":{"coordinates":[-3.584264,48.512684],"type":"Point"},"properties":{"osm_id":"7713935717","tag":{"amenity":"recycling","opening_hours":"24/7","opening_hours:covid19":"open","operator":"Morlaix Communaut\u00c3\u00a9","recycling:beverage_carton":"yes","recycling:books":"yes","recycling:cans":"yes","recycling:cardboard":"yes","recycling:cork":"yes","recycling:foil":"yes","recycling:magazines":"yes","recycling:paper":"yes","recycling:paper_packaging":"yes","recycling:plastic":"yes","recycling:plastic_bags":"yes","recycling:plastic_bottles":"yes","recycling:plastic_packaging":"yes","recycling:polyester":"yes","recycling_type":"container"}},"type":"Feature"},
	{"geometry":{"coordinates":[-3.584036,48.516152],"type":"Point"},"properties":{"osm_id":"7714111086","tag":{"amenity":"recycling","operator":"Morlaix Communaut\u00c3\u00a9","recycling:glass_bottles":"yes","recycling_type":"container"}},"type":"Feature"},
	{"geometry":{"coordinates":[-3.585902,48.509352],"type":"Point"},"properties":{"osm_id":"7714111087","tag":{"amenity":"recycling","operator":"Morlaix Communaut\u00c3\u00a9","recycling:glass_bottles":"yes","recycling_type":"container"}},"type":"Feature"},
	{"geometry":{"coordinates":[-3.584033,48.516168],"type":"Point"},"properties":{"osm_id":"7716961359","tag":{"amenity":"recycling","operator":"Morlaix Communaut\u00c3\u00a9","recycling:glass_bottles":"yes","recycling_type":"container"}},"type":"Feature"},
	{"geometry":{"coordinates":[-3.58403,48.516178],"type":"Point"},"properties":{"osm_id":"7716961360","tag":{"amenity":"recycling","operator":"Morlaix Communaut\u00c3\u00a9","recycling:glass_bottles":"yes","recycling_type":"container"}},"type":"Feature"},
	{"geometry":{"coordinates":[-3.584027,48.51619],"type":"Point"},"properties":{"osm_id":"7716961361","tag":{"amenity":"recycling","operator":"Morlaix Communaut\u00c3\u00a9","recycling:glass_bottles":"yes","recycling_type":"container"}},"type":"Feature"},
	{"geometry":{"coordinates":[-3.584022,48.516209],"type":"Point"},"properties":{"osm_id":"7716961362","tag":{"amenity":"recycling","operator":"Le Relais","recycling:clothes":"yes","recycling_type":"container"}},"type":"Feature"},
	{"geometry":{"coordinates":[-3.584019,48.516222],"type":"Point"},"properties":{"osm_id":"7716961363","tag":{"amenity":"recycling","operator":"Le Relais","recycling:clothes":"yes","recycling_type":"container"}},"type":"Feature"},
	{"geometry":{"coordinates":[-3.584441,48.515635],"type":"Point"},"properties":{"osm_id":"7756314385","tag":{"amenity":"waste_basket"}},"type":"Feature"},
	{"geometry":{"coordinates":[-3.584516,48.515781],"type":"Point"},"properties":{"osm_id":"7756521583","tag":{"amenity":"recycling","opening_hours":"Mo-Sa 09:00-19:15; Su 09:00-12:30","operator":"U Express","recycling:batteries":"yes","recycling_type":"container"}},"type":"Feature"},
	{"geometry":{"coordinates":[-3.584553,48.515784],"type":"Point"},"properties":{"osm_id":"7756521584","tag":{"amenity":"recycling","opening_hours":"Mo-Sa 09:00-19:15; Su 09:00-12:30","operator":"U Express","recycling:light_bulbs":"yes","recycling_type":"container"}},"type":"Feature"},
	{"geometry":{"coordinates":[-3.59465,48.514487],"type":"Point"},"properties":{"osm_id":"7927554139","tag":{"amenity":"waste_disposal"}},"type":"Feature"},
	{"geometry":{"coordinates":[-3.594665,48.51447],"type":"Point"},"properties":{"osm_id":"7927554140","tag":{"amenity":"waste_disposal"}},"type":"Feature"},
	{"geometry":{"coordinates":[-3.594643,48.514511],"type":"Point"},"properties":{"osm_id":"7927554141","tag":{"amenity":"recycling","opening_hours":"24/7","opening_hours:covid19":"open","operator":"Morlaix Communaut\u00c3\u00a9","recycling:beverage_carton":"yes","recycling:books":"yes","recycling:cans":"yes","recycling:cardboard":"yes","recycling:cork":"yes","recycling:foil":"yes","recycling:magazines":"yes","recycling:paper":"yes","recycling:paper_packaging":"yes","recycling:plastic":"yes","recycling:plastic_bags":"yes","recycling:plastic_bottles":"yes","recycling:plastic_packaging":"yes","recycling:polyester":"yes","recycling_type":"container"}},"type":"Feature"},
	{"geometry":{"coordinates":[-3.59464,48.51453],"type":"Point"},"properties":{"osm_id":"7927554142","tag":{"amenity":"recycling","opening_hours":"24/7","opening_hours:covid19":"open","operator":"Morlaix Communaut\u00c3\u00a9","recycling:beverage_carton":"yes","recycling:books":"yes","recycling:cans":"yes","recycling:cardboard":"yes","recycling:cork":"yes","recycling:foil":"yes","recycling:magazines":"yes","recycling:paper":"yes","recycling:paper_packaging":"yes","recycling:plastic":"yes","recycling:plastic_bags":"yes","recycling:plastic_bottles":"yes","recycling:plastic_packaging":"yes","recycling:polyester":"yes","recycling_type":"container"}},"type":"Feature"},
	{"geometry":{"coordinates":[-3.594644,48.514547],"type":"Point"},"properties":{"osm_id":"7927554143","tag":{"amenity":"recycling","opening_hours":"24/7","opening_hours:covid19":"open","operator":"Morlaix Communaut\u00c3\u00a9","recycling:beverage_carton":"yes","recycling:books":"yes","recycling:cans":"yes","recycling:cardboard":"yes","recycling:cork":"yes","recycling:foil":"yes","recycling:magazines":"yes","recycling:paper":"yes","recycling:paper_packaging":"yes","recycling:plastic":"yes","recycling:plastic_bags":"yes","recycling:plastic_bottles":"yes","recycling:plastic_packaging":"yes","recycling:polyester":"yes","recycling_type":"container"}},"type":"Feature"},
	{"geometry":{"coordinates":[-3.584001,48.515747],"type":"Point"},"properties":{"osm_id":"7950465332","tag":{"amenity":"waste_basket"}},"type":"Feature"},
	{"geometry":{"coordinates":[-3.584286,48.515698],"type":"Point"},"properties":{"osm_id":"7950465333","tag":{"amenity":"waste_basket","waste":"cigarettes"}},"type":"Feature"},
	{"geometry":{"coordinates":[-3.575629,48.513785],"type":"Point"},"properties":{"osm_id":"8003219949","tag":{"amenity":"waste_basket"}},"type":"Feature"},
	{"geometry":{"coordinates":[-3.556666,48.511409],"type":"Point"},"properties":{"osm_id":"8098739636","tag":{"amenity":"waste_basket"}},"type":"Feature"},
	{"geometry":{"coordinates":[-3.560848,48.513562],"type":"Point"},"properties":{"osm_id":"8098760259","tag":{"amenity":"recycling","recycling:green_waste":"only","recycling_type":"container"}},"type":"Feature"},
	{"geometry":{"coordinates":[-3.583734,48.515536],"type":"Point"},"properties":{"osm_id":"8579043495","tag":{"amenity":"waste_basket"}},"type":"Feature"},
	{"geometry":{"coordinates":[-3.584317,48.515296],"type":"Point"},"properties":{"osm_id":"8579043496","tag":{"amenity":"waste_basket"}},"type":"Feature"},
	{"geometry":{"coordinates":[-3.584018,48.515398],"type":"Point"},"properties":{"osm_id":"8596195981","tag":{"amenity":"waste_basket"}},"type":"Feature"},
	{"geometry":{"coordinates":[-3.584547,48.515355],"type":"Point"},"properties":{"osm_id":"8596195982","tag":{"amenity":"waste_basket"}},"type":"Feature"},
	{"geometry":{"coordinates":[-3.584508,48.515525],"type":"Point"},"properties":{"osm_id":"8596195983","tag":{"amenity":"waste_basket"}},"type":"Feature"},
	{"geometry":{"coordinates":[-3.5842,48.515682],"type":"Point"},"properties":{"osm_id":"8596195984","tag":{"amenity":"waste_basket"}},"type":"Feature"},
	{"geometry":{"coordinates":[-3.5842,48.51569],"type":"Point"},"properties":{"osm_id":"8596195985","tag":{"amenity":"waste_basket"}},"type":"Feature"},
	{"geometry":{"coordinates":[-3.583957,48.515916],"type":"Point"},"properties":{"osm_id":"8596195986","tag":{"amenity":"waste_basket"}},"type":"Feature"},
	{"geometry":{"coordinates":[-3.5844,48.515703],"type":"Point"},"properties":{"osm_id":"8598728807","tag":{"amenity":"waste_basket"}},"type":"Feature"},
	{"geometry":{"coordinates":[-3.59013,48.51467],"type":"Point"},"properties":{"osm_id":"8788649136","tag":{"amenity":"recycling","opening_hours":"24/7","opening_hours:covid19":"open","operator":"Morlaix Communaut\u00c3\u00a9","recycling:beverage_carton":"yes","recycling:books":"yes","recycling:cans":"yes","recycling:cardboard":"yes","recycling:cork":"yes","recycling:foil":"yes","recycling:magazines":"yes","recycling:paper":"yes","recycling:paper_packaging":"yes","recycling:plastic":"yes","recycling:plastic_bags":"yes","recycling:plastic_bottles":"yes","recycling:plastic_packaging":"yes","recycling:polyester":"yes","recycling_type":"container"}},"type":"Feature"},
	{"geometry":{"coordinates":[-3.590137,48.514683],"type":"Point"},"properties":{"osm_id":"8788649137","tag":{"access":"yes","amenity":"waste_disposal","waste":"trash"}},"type":"Feature"},
	{"geometry":{"coordinates":[-3.590143,48.514694],"type":"Point"},"properties":{"osm_id":"8788649138","tag":{"access":"yes","amenity":"waste_disposal","waste":"trash"}},"type":"Feature"}
]
}
