{
"type": "FeatureCollection",
"features": [
	{"geometry":{"coordinates":[-3.570187,42.941592],"type":"Point"},"properties":{"osm_id":"6677315175","tag":{"amenity":"recycling","opening_hours":"24/7","recycling:clothes":"yes","recycling_type":"container","wheelchair":"limited"}},"type":"Feature"},
	{"geometry":{"coordinates":[-3.56569,42.94229],"type":"Point"},"properties":{"osm_id":"6718333133","tag":{"amenity":"recycling"}},"type":"Feature"},
	{"geometry":{"coordinates":[-3.599114,42.941158],"type":"Point"},"properties":{"osm_id":"6721267123","tag":{"amenity":"recycling","mapillary":"C2qrc9-aSKIh0IVCSOEYFQ","recycling_type":"container","survey:date":"2019-02-22"}},"type":"Feature"},
	{"geometry":{"coordinates":[-3.586375,42.986558],"type":"Point"},"properties":{"osm_id":"6724949051","tag":{"amenity":"recycling"}},"type":"Feature"},
	{"geometry":{"coordinates":[-3.568042,42.943964],"type":"Point"},"properties":{"osm_id":"6743997486","tag":{"amenity":"recycling","recycling:paper":"yes","recycling_type":"container"}},"type":"Feature"},
	{"geometry":{"coordinates":[-3.56807,42.943983],"type":"Point"},"properties":{"osm_id":"6743997487","tag":{"amenity":"waste_disposal"}},"type":"Feature"},
	{"geometry":{"coordinates":[-3.568087,42.944],"type":"Point"},"properties":{"osm_id":"6743997488","tag":{"amenity":"waste_disposal"}},"type":"Feature"},
	{"geometry":{"coordinates":[-3.568026,42.943975],"type":"Point"},"properties":{"osm_id":"6744001585","tag":{"amenity":"recycling","recycling:paper":"yes","recycling_type":"container"}},"type":"Feature"},
	{"geometry":{"coordinates":[-3.568009,42.943984],"type":"Point"},"properties":{"osm_id":"6744001685","tag":{"amenity":"recycling","recycling:glass_bottles":"yes","recycling_type":"container"}},"type":"Feature"},
	{"geometry":{"coordinates":[-3.567919,42.943822],"type":"Point"},"properties":{"name":"Papelera","osm_id":"6744001686","tag":{"amenity":"recycling","recycling_type":"centre","type":"Papelera madera"}},"type":"Feature"},
	{"geometry":{"coordinates":[-3.567386,42.943657],"type":"Point"},"properties":{"osm_id":"6744725285","tag":{"amenity":"waste_basket"}},"type":"Feature"},
	{"geometry":{"coordinates":[-3.566944,42.942928],"type":"Point"},"properties":{"osm_id":"6800261291","tag":{"amenity":"recycling","recycling:glass_bottles":"yes"}},"type":"Feature"},
	{"geometry":{"coordinates":[-3.57019,42.940447],"type":"Point"},"properties":{"osm_id":"7769645048","tag":{"amenity":"waste_disposal"}},"type":"Feature"},
	{"geometry":{"coordinates":[-3.570207,42.940437],"type":"Point"},"properties":{"osm_id":"7769645054","tag":{"amenity":"waste_disposal"}},"type":"Feature"}
]
}
