{
"type": "FeatureCollection",
"features": [
	{"geometry":{"coordinates":[-3.593407,42.893055],"type":"Point"},"properties":{"osm_id":"1827399675","tag":{"amenity":"recycling","recycling_type":"container"}},"type":"Feature"},
	{"geometry":{"coordinates":[-3.571201,42.938795],"type":"Point"},"properties":{"osm_id":"4386022725","tag":{"amenity":"recycling","recycling_type":"container"}},"type":"Feature"},
	{"geometry":{"coordinates":[-3.58312,42.937707],"type":"Point"},"properties":{"osm_id":"6298263545","tag":{"amenity":"recycling","colour":"green","material":"plastic","operator":"Ayto Villarcayo MCV","recycling:batteries":"no","recycling:cans":"no","recycling:clothes":"no","recycling:glass":"no","recycling:glass_bottles":"no","recycling:organic":"yes","recycling:paper":"no","recycling:scrap_metal":"no","recycling:waste":"no","recycling_type":"container","wheelchair":"yes"}},"type":"Feature"},
	{"geometry":{"coordinates":[-3.583193,42.937722],"type":"Point"},"properties":{"osm_id":"6669868047","tag":{"amenity":"recycling","collection_times":"24/7","colour":"yellow","level":"0","material":"plastic","operator":"Diputacion de Burgos","recycling:aluminium":"yes","recycling:plastic":"yes","recycling:plastic_bottles":"yes","recycling:plastic_packaging":"yes","recycling_type":"container"}},"type":"Feature"},
	{"geometry":{"coordinates":[-3.583138,42.93771],"type":"Point"},"properties":{"osm_id":"6669868048","tag":{"amenity":"recycling","colour":"green","material":"plastic","opening_hours":"24/7","operator":"Ayto Villarcayo MCV","recycling:organic":"yes","recycling_type":"container","wheelchair":"limited"}},"type":"Feature"},
	{"geometry":{"coordinates":[-3.584281,42.938853],"type":"Point"},"properties":{"osm_id":"6669868049","tag":{"amenity":"recycling","colour":"green","level":"0","material":"plastic","opening_hours":"24/7","operator":"Ayuntamiento de Villarcayo MCV","recycling:organic":"yes","recycling_type":"container","wheelchair":"limited"}},"type":"Feature"},
	{"geometry":{"coordinates":[-3.583173,42.937718],"type":"Point"},"properties":{"osm_id":"6669868050","tag":{"amenity":"recycling","collection_times":"24/7","colour":"blue","level":"0","material":"stone","operator":"Diputacion de Burgos","recycling:paper":"yes","recycling_type":"container"}},"type":"Feature"},
	{"geometry":{"coordinates":[-3.575365,42.938296],"type":"Point"},"properties":{"osm_id":"6670066664","tag":{"amenity":"recycling","colour":"green","material":"plastic","opening_hours":"24/7","operator":"Ayuntamiento de Villarcayo MCV","recycling:organic":"yes","recycling_type":"container","wheelchair":"limited"}},"type":"Feature"},
	{"geometry":{"coordinates":[-3.575382,42.93829],"type":"Point"},"properties":{"osm_id":"6670084439","tag":{"amenity":"recycling","colour":"Amarillo","material":"plastic","opening_hours":"24/7","operator":"Consorcio de Residuos Diputaci\u00c3\u00b3n de Burgos","recycling:glass_bottles":"yes","recycling_type":"container","wheelchair":"limited"}},"type":"Feature"},
	{"geometry":{"coordinates":[-3.573923,42.937582],"type":"Point"},"properties":{"osm_id":"6670084464","tag":{"amenity":"recycling","opening_hours":"24/7","recycling:green_waste":"yes","recycling_type":"container","wheelchair":"limited"}},"type":"Feature"},
	{"geometry":{"coordinates":[-3.572488,42.940177],"type":"Point"},"properties":{"osm_id":"6670090343","tag":{"amenity":"recycling","opening_hours":"24/7","recycling:green_waste":"yes","recycling_type":"container","wheelchair":"limited"}},"type":"Feature"},
	{"geometry":{"coordinates":[-3.571087,42.939842],"type":"Point"},"properties":{"osm_id":"6670093487","tag":{"amenity":"recycling","opening_hours":"24/7","recycling:green_waste":"yes","recycling_type":"container","wheelchair":"limited"}},"type":"Feature"},
	{"geometry":{"coordinates":[-3.571012,42.939891],"type":"Point"},"properties":{"osm_id":"6670093488","tag":{"amenity":"recycling","opening_hours":"24/7","recycling:glass_bottles":"yes","recycling_type":"container","wheelchair":"limited"}},"type":"Feature"},
	{"geometry":{"coordinates":[-3.571052,42.939866],"type":"Point"},"properties":{"osm_id":"6670093489","tag":{"amenity":"recycling","opening_hours":"24/7","recycling:green_waste":"yes","recycling_type":"container","wheelchair":"limited"}},"type":"Feature"},
	{"geometry":{"coordinates":[-3.574475,42.938454],"type":"Point"},"properties":{"osm_id":"6670106542","tag":{"amenity":"recycling","colour":"blue","material":"plastic","opening_hours":"24/7","operator":"Diputacion de Burgos","recycling:glass_bottles":"yes","recycling_type":"container","wheelchair":"limited"}},"type":"Feature"},
	{"geometry":{"coordinates":[-3.574476,42.938431],"type":"Point"},"properties":{"osm_id":"6670107356","tag":{"amenity":"recycling","colour":"red","material":"metal","opening_hours":"24/7","operator":"Caritas","recycling:clothes":"yes","recycling_type":"container","wheelchair":"limited"}},"type":"Feature"},
	{"geometry":{"coordinates":[-3.575395,42.938285],"type":"Point"},"properties":{"osm_id":"6670108747","tag":{"amenity":"recycling","colour":"Azul","material":"plastic","opening_hours":"24/7","operator":"Consosrcio de Residuos Diputaci\u00c3\u00b3n de Burgos","recycling:paper":"yes","recycling_type":"container","wheelchair":"limited"}},"type":"Feature"},
	{"geometry":{"coordinates":[-3.574656,42.939427],"type":"Point"},"properties":{"osm_id":"6670109614","tag":{"amenity":"recycling","opening_hours":"24/7","recycling:paper":"yes","recycling_type":"container","wheelchair":"limited"}},"type":"Feature"},
	{"geometry":{"coordinates":[-3.573638,42.937767],"type":"Point"},"properties":{"osm_id":"6670115195","tag":{"amenity":"recycling","opening_hours":"24/7","recycling:green_waste":"yes","recycling_type":"container","wheelchair":"limited"}},"type":"Feature"},
	{"geometry":{"coordinates":[-3.573943,42.937565],"type":"Point"},"properties":{"osm_id":"6670115888","tag":{"amenity":"recycling","opening_hours":"24/7","recycling:green_waste":"yes","recycling_type":"container","wheelchair":"limited"}},"type":"Feature"},
	{"geometry":{"coordinates":[-3.574303,42.937028],"type":"Point"},"properties":{"osm_id":"6677328770","tag":{"amenity":"recycling","opening_hours":"24/7","operator":"pmp","recycling:green_waste":"yes","recycling_type":"container","wheelchair":"limited"}},"type":"Feature"},
	{"geometry":{"coordinates":[-3.574338,42.937063],"type":"Point"},"properties":{"osm_id":"6677339980","tag":{"amenity":"recycling","opening_hours":"24/7","operator":"pmp","recycling:glass_bottles":"yes","recycling_type":"container","wheelchair":"limited"}},"type":"Feature"},
	{"geometry":{"coordinates":[-3.574282,42.936995],"type":"Point"},"properties":{"osm_id":"6677352202","tag":{"amenity":"recycling","opening_hours":"24/7","operator":"pmp","recycling:clothes":"yes","recycling_type":"container","wheelchair":"limited"}},"type":"Feature"},
	{"geometry":{"coordinates":[-3.574311,42.937038],"type":"Point"},"properties":{"osm_id":"6677356672","tag":{"amenity":"recycling","opening_hours":"24/7","operator":"pmp","recycling:green_waste":"yes","recycling_type":"container","wheelchair":"limited"}},"type":"Feature"},
	{"geometry":{"coordinates":[-3.574306,42.937028],"type":"Point"},"properties":{"osm_id":"6677362191","tag":{"amenity":"recycling","opening_hours":"24/7","operator":"pmp","recycling:green_waste":"yes","recycling_type":"container","wheelchair":"limited"}},"type":"Feature"},
	{"geometry":{"coordinates":[-3.574325,42.937056],"type":"Point"},"properties":{"osm_id":"6677367407","tag":{"amenity":"recycling","opening_hours":"24/7","operator":"pmp","recycling:paper":"yes","recycling_type":"container","wheelchair":"limited"}},"type":"Feature"},
	{"geometry":{"coordinates":[-3.574311,42.937044],"type":"Point"},"properties":{"osm_id":"6677371593","tag":{"amenity":"recycling","opening_hours":"24/7","operator":"pmp","recycling:plastic_bottles":"yes","recycling:plastic_packaging":"yes","recycling_type":"container","wheelchair":"limited"}},"type":"Feature"},
	{"geometry":{"coordinates":[-3.582953,42.938977],"type":"Point"},"properties":{"osm_id":"6677650336","tag":{"amenity":"recycling","colour":"green","material":"plastic","opening_hours":"24/7","operator":"Ayto Villarcayo MCV","recycling:organic":"yes","recycling_type":"container","wheelchair":"limited"}},"type":"Feature"},
	{"geometry":{"coordinates":[-3.583251,42.938808],"type":"Point"},"properties":{"osm_id":"6679974331","tag":{"amenity":"recycling","colour":"blue","material":"plastic","operator":"Consorcio de Residuos Diputaci\u00c3\u00b3n de Burgos","recycling:paper":"yes","recycling_type":"container"}},"type":"Feature"},
	{"geometry":{"coordinates":[-3.587142,42.939432],"type":"Point"},"properties":{"osm_id":"6680006689","tag":{"amenity":"recycling","colour":"green","material":"plastic","opening_hours":"24/7","operator":"Ayto Villarcayo MCV","recycling:organic":"yes","recycling_type":"container","wheelchair":"limited"}},"type":"Feature"},
	{"geometry":{"coordinates":[-3.588417,42.93961],"type":"Point"},"properties":{"osm_id":"6680007567","tag":{"amenity":"recycling","colour":"blue","material":"plastic","opening_hours":"24/7","operator":"Diputacion de Burgos","recycling:cardboard":"yes","recycling:paper":"yes","recycling_type":"container","wheelchair":"limited"}},"type":"Feature"},
	{"geometry":{"coordinates":[-3.588446,42.939604],"type":"Point"},"properties":{"osm_id":"6680011342","tag":{"amenity":"waste_basket","colour":"metal","material":"metal","operator":"Ayto Villarcayo MCV","waste":"trash"}},"type":"Feature"},
	{"geometry":{"coordinates":[-3.587181,42.939439],"type":"Point"},"properties":{"osm_id":"6680014269","tag":{"amenity":"recycling","colour":"green","material":"plastic","opening_hours":"24/7","operator":"Ayto Villarcayo MCV","recycling:organic":"yes","recycling_type":"container","wheelchair":"limited"}},"type":"Feature"},
	{"geometry":{"coordinates":[-3.585074,42.939092],"type":"Point"},"properties":{"osm_id":"6680029513","tag":{"amenity":"recycling","colour":"yellow","material":"plastic","opening_hours":"24/7","operator":"Diputacion de Burgos","recycling:plastic":"yes","recycling:plastic_bottles":"yes","recycling_type":"container","wheelchair":"limited"}},"type":"Feature"},
	{"geometry":{"coordinates":[-3.583171,42.938797],"type":"Point"},"properties":{"osm_id":"6680030764","tag":{"amenity":"recycling","colour":"green","material":"plastic","opening_hours":"24/7","operator":"Consorcio de Residuos Diputaci\u00c3\u00b3n de Burgos","recycling:glass_bottles":"yes","recycling_type":"container","wheelchair":"limited"}},"type":"Feature"},
	{"geometry":{"coordinates":[-3.58579,42.939195],"type":"Point"},"properties":{"osm_id":"6680030922","tag":{"amenity":"waste_basket","colour":"metal","material":"metal","operator":"Ayto Villarcayo MCV","waste":"trash"}},"type":"Feature"},
	{"geometry":{"coordinates":[-3.585049,42.939084],"type":"Point"},"properties":{"osm_id":"6680031307","tag":{"amenity":"recycling","colour":"blue","material":"plastic","opening_hours":"24/7","operator":"Diputacion de Burgos","recycling:paper":"yes","recycling_type":"container","wheelchair":"limited"}},"type":"Feature"},
	{"geometry":{"coordinates":[-3.587109,42.939427],"type":"Point"},"properties":{"osm_id":"6680035775","tag":{"amenity":"recycling","colour":"green","material":"plastic","opening_hours":"24/7","operator":"Ayto Villarcayo MCV","recycling:organic":"yes","recycling_type":"container","wheelchair":"limited"}},"type":"Feature"},
	{"geometry":{"coordinates":[-3.587217,42.939445],"type":"Point"},"properties":{"osm_id":"6680035994","tag":{"amenity":"recycling","colour":"green","material":"plastic","opening_hours":"24/7","operator":"Ayto Villarcayo MCV","recycling:organic":"yes","recycling_type":"container","wheelchair":"limited"}},"type":"Feature"},
	{"geometry":{"coordinates":[-3.588447,42.939614],"type":"Point"},"properties":{"osm_id":"6680036418","tag":{"amenity":"recycling","colour":"green","material":"plastic","opening_hours":"24/7","operator":"Ayto Villarcayo MCV","recycling:organic":"yes","recycling_type":"container","wheelchair":"limited"}},"type":"Feature"},
	{"geometry":{"coordinates":[-3.588433,42.939612],"type":"Point"},"properties":{"osm_id":"6680039409","tag":{"amenity":"recycling","colour":"green","material":"plastic","opening_hours":"24/7","operator":"Ayto Villarcayo MCV","recycling:organic":"yes","recycling_type":"container","wheelchair":"limited"}},"type":"Feature"},
	{"geometry":{"coordinates":[-3.585011,42.939084],"type":"Point"},"properties":{"osm_id":"6680338324","tag":{"amenity":"recycling","colour":"green","material":"plastic","operator":"Ayto Villarcayo MCV","recycling:organic":"yes","recycling_type":"container"}},"type":"Feature"},
	{"geometry":{"coordinates":[-3.584987,42.93908],"type":"Point"},"properties":{"osm_id":"6680338325","tag":{"amenity":"recycling","colour":"green","material":"plastic","operator":"Ayto Villarcayo MCV","recycling:organic":"yes","recycling_type":"container"}},"type":"Feature"},
	{"geometry":{"coordinates":[-3.583278,42.938815],"type":"Point"},"properties":{"osm_id":"6680338326","tag":{"amenity":"recycling","colour":"yellow","material":"plastic","operator":"Consorcio de Residuos Diputaci\u00c3\u00b3n de Burgos","recycling:plastic":"yes","recycling:plastic_bottles":"yes","recycling_type":"container"}},"type":"Feature"},
	{"geometry":{"coordinates":[-3.584702,42.938937],"type":"Point"},"properties":{"osm_id":"6681339476","tag":{"amenity":"waste_basket","colour":"metal","material":"metal","operator":"Ayuntamiento de Villarcayo MCV"}},"type":"Feature"},
	{"geometry":{"coordinates":[-3.583578,42.938737],"type":"Point"},"properties":{"osm_id":"6681339477","tag":{"amenity":"recycling","colour":"green","level":"0","material":"plastic","opening_hours":"24/7","operator":"Ayuntamiento de Villarcayo MCV","recycling:organic":"yes","recycling_type":"container","wheelchair":"limited"}},"type":"Feature"},
	{"geometry":{"coordinates":[-3.582693,42.938602],"type":"Point"},"properties":{"osm_id":"6681339478","tag":{"amenity":"recycling","colour":"green","level":"0","material":"plastic","opening_hours":"24/7","operator":"Ayuntamiento de Villarcayo MCV","recycling:organic":"yes","recycling_type":"container","wheelchair":"limited"}},"type":"Feature"},
	{"geometry":{"coordinates":[-3.58272,42.937571],"type":"Point"},"properties":{"osm_id":"6681339479","tag":{"amenity":"waste_basket","colour":"metal","material":"metal","operator":"Ayto Villarcayo MCV","waste":"trash"}},"type":"Feature"},
	{"geometry":{"coordinates":[-3.582862,42.938733],"type":"Point"},"properties":{"osm_id":"6681339482","tag":{"amenity":"waste_basket","colour":"metal","material":"metal","operator":"Ayuntamiento de Villarcayo MCV"}},"type":"Feature"},
	{"geometry":{"coordinates":[-3.583512,42.938819],"type":"Point"},"properties":{"osm_id":"6681339484","tag":{"amenity":"waste_basket","colour":"metal","material":"metal","operator":"Ayuntamiento de Villarcayo MCV"}},"type":"Feature"},
	{"geometry":{"coordinates":[-3.581791,42.938559],"type":"Point"},"properties":{"osm_id":"6681343488","tag":{"amenity":"waste_basket","colour":"metal","material":"metal","operator":"Ayuntamiento de Villarcayo MCV"}},"type":"Feature"},
	{"geometry":{"coordinates":[-3.581167,42.938464],"type":"Point"},"properties":{"osm_id":"6681343489","tag":{"amenity":"waste_basket","colour":"metal","material":"metal","operator":"Ayuntamiento de Villarcayo MCV"}},"type":"Feature"},
	{"geometry":{"coordinates":[-3.580409,42.938345],"type":"Point"},"properties":{"osm_id":"6681343492","tag":{"amenity":"waste_basket","colour":"metal","material":"metal","operator":"Ayuntamiento de Villarcayo MCV"}},"type":"Feature"},
	{"geometry":{"coordinates":[-3.579371,42.938178],"type":"Point"},"properties":{"osm_id":"6681343496","tag":{"amenity":"waste_basket","colour":"metal","material":"metal","operator":"Ayuntamiento de Villarcayo MCV"}},"type":"Feature"},
	{"geometry":{"coordinates":[-3.578487,42.938039],"type":"Point"},"properties":{"osm_id":"6681343498","tag":{"amenity":"waste_basket","colour":"metal","material":"metal","operator":"Ayuntamiento de Villarcayo MCV"}},"type":"Feature"},
	{"geometry":{"coordinates":[-3.577815,42.937807],"type":"Point"},"properties":{"osm_id":"6681343499","tag":{"amenity":"recycling","colour":"yellow","material":"plastic","operator":"Consorcio de Residuos Diputaci\u00c3\u00b3n de Burgos","recycling:plastic":"yes","recycling:plastic_bottles":"yes","recycling_type":"container"}},"type":"Feature"},
	{"geometry":{"coordinates":[-3.577793,42.937802],"type":"Point"},"properties":{"osm_id":"6681343500","tag":{"amenity":"recycling","colour":"blue","material":"plastic","operator":"Consorcio de Residuos Diputaci\u00c3\u00b3n de Burgos","recycling:paper":"yes","recycling_type":"container"}},"type":"Feature"},
	{"geometry":{"coordinates":[-3.577767,42.937796],"type":"Point"},"properties":{"osm_id":"6681343501","tag":{"amenity":"recycling","colour":"green","level":"0","material":"plastic","opening_hours":"24/7","operator":"Ayuntamiento de Villarcayo MCV","recycling:organic":"yes","recycling_type":"container","wheelchair":"limited"}},"type":"Feature"},
	{"geometry":{"coordinates":[-3.577746,42.937793],"type":"Point"},"properties":{"osm_id":"6681343502","tag":{"amenity":"recycling","colour":"green","level":"0","material":"plastic","opening_hours":"24/7","operator":"Ayuntamiento de Villarcayo MCV","recycling:organic":"yes","recycling_type":"container","wheelchair":"limited"}},"type":"Feature"},
	{"geometry":{"coordinates":[-3.575902,42.938002],"type":"Point"},"properties":{"osm_id":"6681343503","tag":{"amenity":"recycling","colour":"green","level":"0","material":"plastic","opening_hours":"24/7","operator":"Ayuntamiento de Villarcayo MCV","recycling:organic":"yes","recycling_type":"container","wheelchair":"limited"}},"type":"Feature"},
	{"geometry":{"coordinates":[-3.57535,42.938301],"type":"Point"},"properties":{"osm_id":"6681343504","tag":{"amenity":"recycling","colour":"green","material":"plastic","opening_hours":"24/7","operator":"Ayuntamiento de Villarcayo MCV","recycling:organic":"yes","recycling_type":"container","wheelchair":"limited"}},"type":"Feature"},
	{"geometry":{"coordinates":[-3.575088,42.938328],"type":"Point"},"properties":{"osm_id":"6681343505","tag":{"amenity":"waste_basket","colour":"gray","material":"metal","operator":"Ayuntamiento de Villarcayo MCV"}},"type":"Feature"},
	{"geometry":{"coordinates":[-3.574496,42.938446],"type":"Point"},"properties":{"osm_id":"6681343506","tag":{"amenity":"waste_basket","colour":"gray","material":"metal","operator":"Ayuntamiento de Villarcayo MCV"}},"type":"Feature"},
	{"geometry":{"coordinates":[-3.585076,42.936734],"type":"Point"},"properties":{"osm_id":"6684020428","tag":{"amenity":"recycling","colour":"green","material":"plastic","opening_hours":"24/7","operator":"Ayto Villarcayo MCV","recycling:organic":"yes","recycling_type":"container","wheelchair":"limited"}},"type":"Feature"},
	{"geometry":{"coordinates":[-3.585428,42.939892],"type":"Point"},"properties":{"osm_id":"6684020429","tag":{"amenity":"recycling","colour":"green","material":"plastic","opening_hours":"24/7","operator":"Ayto Villarcayo MCV","recycling:organic":"yes","recycling_type":"container","wheelchair":"limited"}},"type":"Feature"},
	{"geometry":{"coordinates":[-3.571468,42.938025],"type":"Point"},"properties":{"osm_id":"6698188685","tag":{"amenity":"recycling","colour":"green","operator":"Ayuntamiento de Villarcayo de Merindad de Castilla Vieja","recycling:glass_bottles":"no","recycling:paper":"no","recycling:plastic":"no","recycling_type":"container"}},"type":"Feature"},
	{"geometry":{"coordinates":[-3.571459,42.938047],"type":"Point"},"properties":{"osm_id":"6698188686","tag":{"amenity":"recycling","operator":"Consorcio Residuos de la diputaci\u00c3\u00b3n de Burgos","recycling:glass_bottles":"yes","recycling:paper":"no","recycling:plastic":"no","recycling_type":"container"}},"type":"Feature"},
	{"geometry":{"coordinates":[-3.582609,42.909529],"type":"Point"},"properties":{"osm_id":"6716450979","tag":{"amenity":"recycling","recycling_type":"container"}},"type":"Feature"},
	{"geometry":{"coordinates":[-3.576113,42.928513],"type":"Point"},"properties":{"osm_id":"6721267055","tag":{"amenity":"recycling","recycling_type":"container"}},"type":"Feature"},
	{"geometry":{"coordinates":[-3.524859,42.940096],"type":"Point"},"properties":{"osm_id":"6721267085","tag":{"amenity":"recycling","recycling_type":"container"}},"type":"Feature"},
	{"geometry":{"coordinates":[-3.524789,42.938721],"type":"Point"},"properties":{"osm_id":"6721267091","tag":{"amenity":"recycling","recycling:paper":"yes","recycling_type":"container"}},"type":"Feature"},
	{"geometry":{"coordinates":[-3.532842,42.916284],"type":"Point"},"properties":{"osm_id":"6721267108","tag":{"amenity":"recycling","recycling_type":"container"}},"type":"Feature"},
	{"geometry":{"coordinates":[-3.572198,42.93806],"type":"Point"},"properties":{"osm_id":"6800261292","tag":{"amenity":"recycling","recycling:glass_bottles":"yes","recycling_type":"container"}},"type":"Feature"},
	{"geometry":{"coordinates":[-3.572691,42.936698],"type":"Point"},"properties":{"osm_id":"6800261293","tag":{"amenity":"recycling","mapillary":"JjF4fymo-M7ZcXjdQzO8GQ","recycling_type":"container","survey:date":"2019-02-19"}},"type":"Feature"},
	{"geometry":{"coordinates":[-3.573193,42.935668],"type":"Point"},"properties":{"osm_id":"6800261294","tag":{"amenity":"recycling","mapillary":"IIjIZwq38SZjTadMJshixQ","recycling_type":"container","survey:date":"2019-02-19"}},"type":"Feature"},
	{"geometry":{"coordinates":[-3.573618,42.934911],"type":"Point"},"properties":{"osm_id":"6800261295","tag":{"amenity":"recycling","recycling:glass_bottles":"yes","recycling_type":"container"}},"type":"Feature"},
	{"geometry":{"coordinates":[-3.574668,42.933215],"type":"Point"},"properties":{"osm_id":"6800261296","tag":{"amenity":"recycling","mapillary":"3ShlLnLZIR35kxQlpdHmOQ","recycling_type":"container","survey:date":"2017-12-06"}},"type":"Feature"},
	{"geometry":{"coordinates":[-3.581718,42.920582],"type":"Point"},"properties":{"osm_id":"6800261298","tag":{"amenity":"recycling","recycling_type":"container"}},"type":"Feature"},
	{"geometry":{"coordinates":[-3.591968,42.893842],"type":"Point"},"properties":{"osm_id":"8362044993","tag":{"amenity":"recycling","recycling:cardboard":"yes","recycling:glass":"yes","recycling:paper":"yes","recycling:plastic":"yes","recycling:waste":"yes","recycling_type":"container"}},"type":"Feature"},
	{"geometry":{"coordinates":[-3.570084,42.895543],"type":"Point"},"properties":{"osm_id":"8410495850","tag":{"amenity":"recycling","recycling:cardboard":"yes","recycling:glass":"yes","recycling:paper":"yes","recycling:plastic":"yes","recycling:waste":"yes","recycling_type":"container"}},"type":"Feature"},
	{"geometry":{"coordinates":[-3.559734,42.931723],"type":"Point"},"properties":{"osm_id":"8424423943","tag":{"amenity":"recycling","recycling:glass":"yes","recycling_type":"container"}},"type":"Feature"},
	{"geometry":{"coordinates":[-3.560495,42.932261],"type":"Point"},"properties":{"osm_id":"8424423944","tag":{"amenity":"recycling","recycling:cardboard":"yes","recycling:paper":"yes","recycling_type":"container"}},"type":"Feature"},
	{"geometry":{"coordinates":[-3.573579,42.937986],"type":"Point"},"properties":{"osm_id":"9164789887","tag":{"amenity":"waste_disposal","operator":"Ayuntamiento"}},"type":"Feature"}
]
}
