{
"type": "FeatureCollection",
"features": [
	{"geometry":{"coordinates":[-3.536213,42.331311],"type":"Point"},"properties":{"osm_id":"1750171858","tag":{"amenity":"recycling"}},"type":"Feature"},
	{"geometry":{"coordinates":[-3.554634,42.332189],"type":"Point"},"properties":{"osm_id":"2338316453","tag":{"amenity":"recycling"}},"type":"Feature"},
	{"geometry":{"coordinates":[-3.555274,42.332318],"type":"Point"},"properties":{"osm_id":"2338316454","tag":{"amenity":"recycling","recycling:glass_bottles":"yes"}},"type":"Feature"},
	{"geometry":{"coordinates":[-3.519529,42.350941],"type":"Point"},"properties":{"osm_id":"2404519789","tag":{"amenity":"waste_basket"}},"type":"Feature"},
	{"geometry":{"coordinates":[-3.567965,42.354917],"type":"Point"},"properties":{"osm_id":"4684296627","tag":{"amenity":"recycling"}},"type":"Feature"},
	{"geometry":{"coordinates":[-3.599079,42.331565],"type":"Point"},"properties":{"osm_id":"4927100478","tag":{"amenity":"recycling","location":"overground","recycling_type":"container"}},"type":"Feature"},
	{"geometry":{"coordinates":[-3.59676,42.334331],"type":"Point"},"properties":{"osm_id":"4927100500","tag":{"amenity":"recycling","location":"overground","recycling:books":"yes","recycling:cartons":"yes","recycling:clothes":"yes","recycling:glass_bottles":"yes","recycling:organic":"yes","recycling:paper":"yes","recycling:plastic":"yes","recycling:plastic_bottles":"yes","recycling:shoes":"yes","recycling_type":"container"}},"type":"Feature"},
	{"geometry":{"coordinates":[-3.596587,42.331509],"type":"Point"},"properties":{"osm_id":"4927100505","tag":{"amenity":"recycling"}},"type":"Feature"},
	{"geometry":{"coordinates":[-3.572983,42.333991],"type":"Point"},"properties":{"osm_id":"5228332270","tag":{"amenity":"recycling","location":"overground","recycling:glass_bottles":"yes","recycling_type":"container"}},"type":"Feature"},
	{"geometry":{"coordinates":[-3.569982,42.333364],"type":"Point"},"properties":{"osm_id":"5228332297","tag":{"amenity":"recycling","location":"overground","recycling_type":"container"}},"type":"Feature"},
	{"geometry":{"coordinates":[-3.565151,42.332358],"type":"Point"},"properties":{"osm_id":"5228332653","tag":{"amenity":"recycling","location":"overground","recycling_type":"container"}},"type":"Feature"},
	{"geometry":{"coordinates":[-3.563463,42.329748],"type":"Point"},"properties":{"osm_id":"5228332655","tag":{"amenity":"recycling","location":"overground","recycling:glass_bottles":"yes","recycling_type":"container"}},"type":"Feature"},
	{"geometry":{"coordinates":[-3.560205,42.330558],"type":"Point"},"properties":{"osm_id":"5228332674","tag":{"amenity":"recycling","location":"overground","recycling_type":"container"}},"type":"Feature"},
	{"geometry":{"coordinates":[-3.56167,42.333091],"type":"Point"},"properties":{"osm_id":"5228332707","tag":{"amenity":"recycling","location":"overground","recycling_type":"container"}},"type":"Feature"},
	{"geometry":{"coordinates":[-3.551142,42.332063],"type":"Point"},"properties":{"osm_id":"5228581299","tag":{"amenity":"recycling"}},"type":"Feature"},
	{"geometry":{"coordinates":[-3.551145,42.33196],"type":"Point"},"properties":{"osm_id":"5228581300","tag":{"amenity":"recycling","recycling:paper":"yes"}},"type":"Feature"},
	{"geometry":{"coordinates":[-3.579538,42.323477],"type":"Point"},"properties":{"osm_id":"5228581931","tag":{"amenity":"recycling","location":"overground","recycling_type":"container"}},"type":"Feature"},
	{"geometry":{"coordinates":[-3.530702,42.331148],"type":"Point"},"properties":{"osm_id":"5228581984","tag":{"amenity":"recycling"}},"type":"Feature"},
	{"geometry":{"coordinates":[-3.584997,42.314343],"type":"Point"},"properties":{"osm_id":"5230708775","tag":{"amenity":"recycling","recycling:glass_bottles":"yes"}},"type":"Feature"},
	{"geometry":{"coordinates":[-3.583876,42.314672],"type":"Point"},"properties":{"osm_id":"5230709227","tag":{"amenity":"recycling","recycling":"oil"}},"type":"Feature"},
	{"geometry":{"coordinates":[-3.585303,42.3121],"type":"Point"},"properties":{"osm_id":"5231062526","tag":{"amenity":"recycling"}},"type":"Feature"},
	{"geometry":{"coordinates":[-3.586567,42.314555],"type":"Point"},"properties":{"osm_id":"5231062567","tag":{"amenity":"recycling","location":"overground","recycling_type":"container"}},"type":"Feature"},
	{"geometry":{"coordinates":[-3.537368,42.33139],"type":"Point"},"properties":{"osm_id":"5241764548","tag":{"amenity":"recycling"}},"type":"Feature"},
	{"geometry":{"coordinates":[-3.535736,42.328483],"type":"Point"},"properties":{"osm_id":"5241764614","tag":{"amenity":"recycling"}},"type":"Feature"},
	{"geometry":{"coordinates":[-3.53535,42.329738],"type":"Point"},"properties":{"osm_id":"5243417987","tag":{"amenity":"recycling"}},"type":"Feature"},
	{"geometry":{"coordinates":[-3.537519,42.332381],"type":"Point"},"properties":{"osm_id":"5243417998","tag":{"amenity":"recycling"}},"type":"Feature"},
	{"geometry":{"coordinates":[-3.535859,42.333286],"type":"Point"},"properties":{"osm_id":"5243418003","tag":{"amenity":"recycling"}},"type":"Feature"},
	{"geometry":{"coordinates":[-3.533518,42.332708],"type":"Point"},"properties":{"osm_id":"5243418006","tag":{"amenity":"recycling"}},"type":"Feature"},
	{"geometry":{"coordinates":[-3.535794,42.332575],"type":"Point"},"properties":{"osm_id":"5243418129","tag":{"amenity":"recycling"}},"type":"Feature"},
	{"geometry":{"coordinates":[-3.540302,42.332551],"type":"Point"},"properties":{"osm_id":"5243418138","tag":{"amenity":"recycling"}},"type":"Feature"},
	{"geometry":{"coordinates":[-3.543292,42.319977],"type":"Point"},"properties":{"osm_id":"6069212216","tag":{"amenity":"recycling"}},"type":"Feature"},
	{"geometry":{"coordinates":[-3.543559,42.318765],"type":"Point"},"properties":{"osm_id":"6074504779","tag":{"amenity":"recycling"}},"type":"Feature"},
	{"geometry":{"coordinates":[-3.589801,42.329688],"type":"Point"},"properties":{"osm_id":"6250294633","tag":{"amenity":"recycling","recycling:glass_bottles":"yes"}},"type":"Feature"}
]
}
