{
"type": "FeatureCollection",
"features": [
	{"geometry":{"coordinates":[-3.585522,40.473906],"type":"Point"},"properties":{"osm_id":"257739528","tag":{"amenity":"recycling","recycling_type":"centre"}},"type":"Feature"},
	{"geometry":{"coordinates":[-3.603237,40.453692],"type":"Point"},"properties":{"osm_id":"5109572221","tag":{"amenity":"waste_disposal"}},"type":"Feature"},
	{"geometry":{"coordinates":[-3.599494,40.457167],"type":"Point"},"properties":{"osm_id":"6070787527","tag":{"amenity":"waste_basket"}},"type":"Feature"},
	{"geometry":{"coordinates":[-3.600256,40.456363],"type":"Point"},"properties":{"osm_id":"6070787536","tag":{"amenity":"waste_basket"}},"type":"Feature"},
	{"geometry":{"coordinates":[-3.60095,40.455658],"type":"Point"},"properties":{"osm_id":"6070787538","tag":{"amenity":"waste_basket"}},"type":"Feature"},
	{"geometry":{"coordinates":[-3.530614,40.505221],"type":"Point"},"properties":{"osm_id":"7501487659","tag":{"amenity":"waste_disposal","waste":"recycling;organic;carton;aceite;glass"}},"type":"Feature"},
	{"geometry":{"coordinates":[-3.531879,40.508201],"type":"Point"},"properties":{"osm_id":"7501487660","tag":{"amenity":"waste_disposal","waste":"organic;recycling"}},"type":"Feature"},
	{"geometry":{"coordinates":[-3.532194,40.509033],"type":"Point"},"properties":{"osm_id":"7501487661","tag":{"amenity":"waste_disposal","waste":"organic;recycling"}},"type":"Feature"},
	{"geometry":{"coordinates":[-3.530997,40.506901],"type":"Point"},"properties":{"osm_id":"7519797698","tag":{"amenity":"waste_disposal","waste":"organic;recycling"}},"type":"Feature"},
	{"geometry":{"coordinates":[-3.531105,40.50649],"type":"Point"},"properties":{"osm_id":"7519891080","tag":{"amenity":"waste_disposal","waste":"trash;recycling"}},"type":"Feature"},
	{"geometry":{"coordinates":[-3.53286,40.505541],"type":"Point"},"properties":{"osm_id":"7519891081","tag":{"amenity":"waste_disposal","waste":"trash;recycling"}},"type":"Feature"},
	{"geometry":{"coordinates":[-3.533083,40.505412],"type":"Point"},"properties":{"osm_id":"7519891082","tag":{"amenity":"waste_disposal","waste":"glass;carton"}},"type":"Feature"},
	{"geometry":{"coordinates":[-3.532353,40.506296],"type":"Point"},"properties":{"osm_id":"7519900290","tag":{"amenity":"waste_disposal","waste":"trash;recycling;glass"}},"type":"Feature"},
	{"geometry":{"coordinates":[-3.530872,40.505509],"type":"Point"},"properties":{"osm_id":"7519900291","tag":{"amenity":"waste_disposal","waste":"trash;recycling;carton"}},"type":"Feature"},
	{"geometry":{"coordinates":[-3.528762,40.505739],"type":"Point"},"properties":{"osm_id":"7519937987","tag":{"amenity":"waste_disposal","waste":"trash;recycling;glass"}},"type":"Feature"},
	{"geometry":{"coordinates":[-3.527833,40.50566],"type":"Point"},"properties":{"osm_id":"7519937988","tag":{"amenity":"waste_disposal","waste":"organic;recycling;papel"}},"type":"Feature"},
	{"geometry":{"coordinates":[-3.526581,40.505481],"type":"Point"},"properties":{"osm_id":"7519937989","tag":{"amenity":"waste_disposal","waste":"trash;recycling;glass;papel"}},"type":"Feature"},
	{"geometry":{"coordinates":[-3.528456,40.504],"type":"Point"},"properties":{"osm_id":"7519937990","tag":{"amenity":"waste_disposal","waste":"trash;recycling;papel;glass;ropa"}},"type":"Feature"}
]
}
