{
"type": "FeatureCollection",
"features": [
	{"geometry":{"coordinates":[-3.60266,37.180162],"type":"Point"},"properties":{"osm_id":"947091770","tag":{"amenity":"recycling","recycling:batteries":"no","recycling:clothes":"no","recycling:scrap_metal":"no","recycling_type":"container"}},"type":"Feature"},
	{"geometry":{"coordinates":[-3.602343,37.182255],"type":"Point"},"properties":{"osm_id":"947091884","tag":{"amenity":"recycling","recycling:batteries":"no","recycling:scrap_metal":"no","recycling_type":"container"}},"type":"Feature"},
	{"geometry":{"coordinates":[-3.603017,37.18606],"type":"Point"},"properties":{"osm_id":"1427199312","tag":{"amenity":"recycling","recycling:cartons":"yes","recycling:glass_bottles":"yes","recycling:plastic":"yes","recycling_type":"container"}},"type":"Feature"},
	{"geometry":{"coordinates":[-3.599434,37.172595],"type":"Point"},"properties":{"osm_id":"3087360034","tag":{"amenity":"recycling","recycling:cans":"yes","recycling:paper":"yes","recycling_type":"container"}},"type":"Feature"},
	{"geometry":{"coordinates":[-3.596499,37.205118],"type":"Point"},"properties":{"osm_id":"4963571443","tag":{"amenity":"recycling","recycling_type":"container"}},"type":"Feature"},
	{"geometry":{"coordinates":[-3.601865,37.176282],"type":"Point"},"properties":{"osm_id":"5307048421","tag":{"amenity":"waste_disposal"}},"type":"Feature"},
	{"geometry":{"coordinates":[-3.592667,37.181062],"type":"Point"},"properties":{"osm_id":"5640008290","tag":{"amenity":"waste_basket"}},"type":"Feature"},
	{"geometry":{"coordinates":[-3.592462,37.181076],"type":"Point"},"properties":{"osm_id":"5640008291","tag":{"amenity":"waste_basket"}},"type":"Feature"},
	{"geometry":{"coordinates":[-3.592476,37.181188],"type":"Point"},"properties":{"osm_id":"5640008292","tag":{"amenity":"waste_basket"}},"type":"Feature"},
	{"geometry":{"coordinates":[-3.592883,37.18103],"type":"Point"},"properties":{"osm_id":"5640008293","tag":{"amenity":"waste_basket"}},"type":"Feature"},
	{"geometry":{"coordinates":[-3.592896,37.181153],"type":"Point"},"properties":{"osm_id":"5640008294","tag":{"amenity":"waste_basket"}},"type":"Feature"},
	{"geometry":{"coordinates":[-3.596219,37.176616],"type":"Point"},"properties":{"osm_id":"5809645573","tag":{"amenity":"waste_basket"}},"type":"Feature"},
	{"geometry":{"coordinates":[-3.602435,37.183235],"type":"Point"},"properties":{"osm_id":"5810936522","tag":{"amenity":"waste_basket"}},"type":"Feature"},
	{"geometry":{"coordinates":[-3.602312,37.183276],"type":"Point"},"properties":{"osm_id":"5810936523","tag":{"amenity":"waste_basket"}},"type":"Feature"},
	{"geometry":{"coordinates":[-3.602872,37.1833],"type":"Point"},"properties":{"osm_id":"5810941358","tag":{"amenity":"waste_basket"}},"type":"Feature"},
	{"geometry":{"coordinates":[-3.602526,37.183117],"type":"Point"},"properties":{"osm_id":"5810941441","tag":{"amenity":"waste_basket"}},"type":"Feature"},
	{"geometry":{"coordinates":[-3.602666,37.183054],"type":"Point"},"properties":{"osm_id":"5810941442","tag":{"amenity":"waste_basket"}},"type":"Feature"},
	{"geometry":{"coordinates":[-3.602538,37.182996],"type":"Point"},"properties":{"osm_id":"5810941443","tag":{"amenity":"waste_basket"}},"type":"Feature"},
	{"geometry":{"coordinates":[-3.602451,37.182622],"type":"Point"},"properties":{"osm_id":"5810941446","tag":{"amenity":"waste_basket"}},"type":"Feature"},
	{"geometry":{"coordinates":[-3.601972,37.182811],"type":"Point"},"properties":{"osm_id":"5810941447","tag":{"amenity":"waste_basket"}},"type":"Feature"},
	{"geometry":{"coordinates":[-3.601818,37.182873],"type":"Point"},"properties":{"osm_id":"5810941448","tag":{"amenity":"waste_basket"}},"type":"Feature"},
	{"geometry":{"coordinates":[-3.600976,37.182404],"type":"Point"},"properties":{"osm_id":"5810941449","tag":{"amenity":"recycling","recycling:glass_bottles":"yes","recycling_type":"container"}},"type":"Feature"},
	{"geometry":{"coordinates":[-3.601006,37.182473],"type":"Point"},"properties":{"osm_id":"5810941450","tag":{"amenity":"waste_basket"}},"type":"Feature"},
	{"geometry":{"coordinates":[-3.600863,37.182031],"type":"Point"},"properties":{"osm_id":"5810941451","tag":{"amenity":"waste_basket"}},"type":"Feature"},
	{"geometry":{"coordinates":[-3.599796,37.182496],"type":"Point"},"properties":{"osm_id":"5810941452","tag":{"amenity":"recycling","recycling:glass_bottles":"yes","recycling_type":"container"}},"type":"Feature"},
	{"geometry":{"coordinates":[-3.599775,37.182492],"type":"Point"},"properties":{"osm_id":"5810941453","tag":{"amenity":"waste_basket"}},"type":"Feature"},
	{"geometry":{"coordinates":[-3.599894,37.182391],"type":"Point"},"properties":{"osm_id":"5810941454","tag":{"amenity":"waste_basket"}},"type":"Feature"},
	{"geometry":{"coordinates":[-3.600005,37.182443],"type":"Point"},"properties":{"osm_id":"5810941455","tag":{"amenity":"waste_basket"}},"type":"Feature"},
	{"geometry":{"coordinates":[-3.59967,37.182284],"type":"Point"},"properties":{"osm_id":"5810941456","tag":{"amenity":"waste_basket"}},"type":"Feature"},
	{"geometry":{"coordinates":[-3.599581,37.182664],"type":"Point"},"properties":{"osm_id":"5810941462","tag":{"amenity":"waste_basket"}},"type":"Feature"},
	{"geometry":{"coordinates":[-3.599675,37.182756],"type":"Point"},"properties":{"osm_id":"5810941464","tag":{"amenity":"waste_basket"}},"type":"Feature"},
	{"geometry":{"coordinates":[-3.59998,37.182788],"type":"Point"},"properties":{"osm_id":"5810941466","tag":{"amenity":"recycling","recycling:organic":"yes","recycling:paper":"yes","recycling:plastic":"yes","recycling_type":"container"}},"type":"Feature"},
	{"geometry":{"coordinates":[-3.600656,37.183461],"type":"Point"},"properties":{"osm_id":"5810941469","tag":{"amenity":"waste_basket"}},"type":"Feature"},
	{"geometry":{"coordinates":[-3.600834,37.183644],"type":"Point"},"properties":{"osm_id":"5810941477","tag":{"amenity":"waste_disposal"}},"type":"Feature"},
	{"geometry":{"coordinates":[-3.600876,37.183838],"type":"Point"},"properties":{"osm_id":"5810941478","tag":{"amenity":"waste_basket"}},"type":"Feature"},
	{"geometry":{"coordinates":[-3.601031,37.183815],"type":"Point"},"properties":{"osm_id":"5810941479","tag":{"amenity":"waste_basket"}},"type":"Feature"},
	{"geometry":{"coordinates":[-3.600842,37.184031],"type":"Point"},"properties":{"osm_id":"5810941480","tag":{"amenity":"recycling","recycling:batteries":"yes","recycling_type":"container"}},"type":"Feature"},
	{"geometry":{"coordinates":[-3.600994,37.184033],"type":"Point"},"properties":{"osm_id":"5810941481","tag":{"amenity":"waste_basket"}},"type":"Feature"},
	{"geometry":{"coordinates":[-3.601088,37.184089],"type":"Point"},"properties":{"osm_id":"5810941482","tag":{"amenity":"waste_basket"}},"type":"Feature"},
	{"geometry":{"coordinates":[-3.601169,37.184038],"type":"Point"},"properties":{"osm_id":"5810941483","tag":{"amenity":"waste_basket"}},"type":"Feature"},
	{"geometry":{"coordinates":[-3.600103,37.184514],"type":"Point"},"properties":{"osm_id":"5810941484","tag":{"amenity":"waste_disposal"}},"type":"Feature"},
	{"geometry":{"coordinates":[-3.600277,37.184592],"type":"Point"},"properties":{"osm_id":"5810941485","tag":{"amenity":"recycling","recycling:clothes":"yes","recycling_type":"container"}},"type":"Feature"},
	{"geometry":{"coordinates":[-3.600048,37.186149],"type":"Point"},"properties":{"osm_id":"5810941487","tag":{"amenity":"waste_disposal"}},"type":"Feature"},
	{"geometry":{"coordinates":[-3.600045,37.185865],"type":"Point"},"properties":{"osm_id":"5810941492","tag":{"amenity":"waste_disposal"}},"type":"Feature"},
	{"geometry":{"coordinates":[-3.601222,37.183816],"type":"Point"},"properties":{"osm_id":"5810941498","tag":{"amenity":"waste_basket"}},"type":"Feature"},
	{"geometry":{"coordinates":[-3.601197,37.183697],"type":"Point"},"properties":{"osm_id":"5810941499","tag":{"amenity":"waste_basket"}},"type":"Feature"},
	{"geometry":{"coordinates":[-3.601881,37.183225],"type":"Point"},"properties":{"osm_id":"5810941500","tag":{"amenity":"waste_basket"}},"type":"Feature"},
	{"geometry":{"coordinates":[-3.601884,37.183037],"type":"Point"},"properties":{"osm_id":"5810941501","tag":{"amenity":"waste_basket"}},"type":"Feature"},
	{"geometry":{"coordinates":[-3.595679,37.169631],"type":"Point"},"properties":{"osm_id":"5811001346","tag":{"amenity":"waste_basket"}},"type":"Feature"},
	{"geometry":{"coordinates":[-3.596199,37.169258],"type":"Point"},"properties":{"osm_id":"5811001347","tag":{"amenity":"waste_basket"}},"type":"Feature"},
	{"geometry":{"coordinates":[-3.596018,37.169378],"type":"Point"},"properties":{"osm_id":"5811001348","tag":{"amenity":"waste_basket"}},"type":"Feature"},
	{"geometry":{"coordinates":[-3.595793,37.169471],"type":"Point"},"properties":{"osm_id":"5811001349","tag":{"amenity":"waste_basket"}},"type":"Feature"},
	{"geometry":{"coordinates":[-3.596396,37.169243],"type":"Point"},"properties":{"osm_id":"5811001350","tag":{"amenity":"waste_basket"}},"type":"Feature"},
	{"geometry":{"coordinates":[-3.596282,37.169437],"type":"Point"},"properties":{"osm_id":"5811001351","tag":{"amenity":"waste_basket"}},"type":"Feature"},
	{"geometry":{"coordinates":[-3.595691,37.169137],"type":"Point"},"properties":{"osm_id":"5811001352","tag":{"amenity":"waste_basket"}},"type":"Feature"},
	{"geometry":{"coordinates":[-3.601438,37.17633],"type":"Point"},"properties":{"osm_id":"5837219507","tag":{"amenity":"recycling","recycling:batteries":"yes","recycling_type":"container"}},"type":"Feature"},
	{"geometry":{"coordinates":[-3.601551,37.176235],"type":"Point"},"properties":{"osm_id":"5837219510","tag":{"amenity":"waste_basket"}},"type":"Feature"},
	{"geometry":{"coordinates":[-3.601882,37.175863],"type":"Point"},"properties":{"osm_id":"5837219513","tag":{"amenity":"recycling","recycling:paper":"yes","recycling_type":"container"}},"type":"Feature"},
	{"geometry":{"coordinates":[-3.601717,37.175864],"type":"Point"},"properties":{"osm_id":"5837219514","tag":{"amenity":"waste_basket"}},"type":"Feature"},
	{"geometry":{"coordinates":[-3.601326,37.178313],"type":"Point"},"properties":{"osm_id":"5837224757","tag":{"amenity":"recycling","recycling:glass_bottles":"yes","recycling_type":"container"}},"type":"Feature"},
	{"geometry":{"coordinates":[-3.601776,37.178289],"type":"Point"},"properties":{"osm_id":"5837224758","tag":{"amenity":"waste_basket"}},"type":"Feature"},
	{"geometry":{"coordinates":[-3.601642,37.178348],"type":"Point"},"properties":{"osm_id":"5837224759","tag":{"amenity":"waste_basket"}},"type":"Feature"},
	{"geometry":{"coordinates":[-3.601448,37.178436],"type":"Point"},"properties":{"osm_id":"5837224760","tag":{"amenity":"waste_basket"}},"type":"Feature"},
	{"geometry":{"coordinates":[-3.601349,37.178296],"type":"Point"},"properties":{"osm_id":"5837224761","tag":{"amenity":"waste_basket"}},"type":"Feature"},
	{"geometry":{"coordinates":[-3.601829,37.178144],"type":"Point"},"properties":{"osm_id":"5837224762","tag":{"amenity":"waste_basket"}},"type":"Feature"},
	{"geometry":{"coordinates":[-3.591697,37.185602],"type":"Point"},"properties":{"osm_id":"5888064092","tag":{"amenity":"recycling","recycling_type":"container"}},"type":"Feature"},
	{"geometry":{"coordinates":[-3.599404,37.174914],"type":"Point"},"properties":{"osm_id":"5892575062","tag":{"amenity":"waste_basket"}},"type":"Feature"},
	{"geometry":{"coordinates":[-3.599529,37.174872],"type":"Point"},"properties":{"osm_id":"5892575063","tag":{"amenity":"waste_basket"}},"type":"Feature"},
	{"geometry":{"coordinates":[-3.597335,37.175145],"type":"Point"},"properties":{"osm_id":"5894957830","tag":{"amenity":"recycling","recycling:paper":"yes","recycling:plastic":"yes","recycling_type":"container"}},"type":"Feature"},
	{"geometry":{"coordinates":[-3.599447,37.169015],"type":"Point"},"properties":{"osm_id":"5970825390","tag":{"amenity":"recycling","recycling:glass_bottles":"yes","recycling_type":"container"}},"type":"Feature"},
	{"geometry":{"coordinates":[-3.600129,37.168966],"type":"Point"},"properties":{"osm_id":"5970825395","tag":{"amenity":"waste_disposal"}},"type":"Feature"},
	{"geometry":{"coordinates":[-3.600162,37.168968],"type":"Point"},"properties":{"osm_id":"5970825396","tag":{"amenity":"recycling","recycling:paper":"yes","recycling_type":"container"}},"type":"Feature"},
	{"geometry":{"coordinates":[-3.601238,37.168965],"type":"Point"},"properties":{"osm_id":"5970825405","tag":{"amenity":"recycling","recycling:paper":"yes","recycling:plastic_packaging":"yes","recycling_type":"container"}},"type":"Feature"},
	{"geometry":{"coordinates":[-3.601267,37.168967],"type":"Point"},"properties":{"osm_id":"5970825406","tag":{"amenity":"waste_disposal"}},"type":"Feature"},
	{"geometry":{"coordinates":[-3.603256,37.171388],"type":"Point"},"properties":{"osm_id":"6016150342","tag":{"amenity":"recycling","recycling_type":"container"}},"type":"Feature"},
	{"geometry":{"coordinates":[-3.597863,37.171843],"type":"Point"},"properties":{"osm_id":"6020187499","tag":{"amenity":"waste_disposal"}},"type":"Feature"},
	{"geometry":{"coordinates":[-3.597759,37.17146],"type":"Point"},"properties":{"osm_id":"6020187503","tag":{"amenity":"recycling","recycling:glass_bottles":"yes","recycling:oil":"yes","recycling_type":"container"}},"type":"Feature"},
	{"geometry":{"coordinates":[-3.595048,37.173223],"type":"Point"},"properties":{"osm_id":"6025192737","tag":{"amenity":"recycling","recycling:bate":"yes","recycling:clothes":"yes","recycling:oil":"yes","recycling_type":"container"}},"type":"Feature"},
	{"geometry":{"coordinates":[-3.59508,37.173197],"type":"Point"},"properties":{"osm_id":"6025192746","tag":{"amenity":"waste_disposal"}},"type":"Feature"},
	{"geometry":{"coordinates":[-3.59529,37.173125],"type":"Point"},"properties":{"osm_id":"6025192747","tag":{"amenity":"waste_disposal"}},"type":"Feature"},
	{"geometry":{"coordinates":[-3.595992,37.17236],"type":"Point"},"properties":{"osm_id":"6025192762","tag":{"amenity":"recycling","recycling:glass_bottles":"yes","recycling:plastic":"yes","recycling_type":"container"}},"type":"Feature"},
	{"geometry":{"coordinates":[-3.595807,37.172272],"type":"Point"},"properties":{"osm_id":"6025192766","tag":{"amenity":"recycling","recycling:paper":"yes","recycling_type":"container"}},"type":"Feature"},
	{"geometry":{"coordinates":[-3.599189,37.179083],"type":"Point"},"properties":{"osm_id":"6029957490","tag":{"amenity":"recycling","recycling:glass_bottles":"yes","recycling_type":"container"}},"type":"Feature"},
	{"geometry":{"coordinates":[-3.601474,37.175312],"type":"Point"},"properties":{"osm_id":"6157471019","tag":{"amenity":"waste_basket"}},"type":"Feature"},
	{"geometry":{"coordinates":[-3.601536,37.17538],"type":"Point"},"properties":{"osm_id":"6157471020","tag":{"amenity":"waste_basket"}},"type":"Feature"},
	{"geometry":{"coordinates":[-3.601401,37.175432],"type":"Point"},"properties":{"osm_id":"6157471021","tag":{"amenity":"waste_basket"}},"type":"Feature"},
	{"geometry":{"coordinates":[-3.601408,37.175336],"type":"Point"},"properties":{"osm_id":"6157471022","tag":{"amenity":"waste_basket"}},"type":"Feature"},
	{"geometry":{"coordinates":[-3.597576,37.180713],"type":"Point"},"properties":{"osm_id":"6412604906","tag":{"amenity":"recycling","location":"underground","recycling_type":"container"}},"type":"Feature"},
	{"geometry":{"coordinates":[-3.596961,37.180531],"type":"Point"},"properties":{"osm_id":"7266402635","tag":{"amenity":"waste_basket"}},"type":"Feature"},
	{"geometry":{"coordinates":[-3.597055,37.180478],"type":"Point"},"properties":{"osm_id":"7266402644","tag":{"amenity":"waste_basket"}},"type":"Feature"},
	{"geometry":{"coordinates":[-3.600705,37.181536],"type":"Point"},"properties":{"osm_id":"7282417993","tag":{"amenity":"waste_disposal","waste":"contenedor 4"}},"type":"Feature"},
	{"geometry":{"coordinates":[-3.599825,37.182553],"type":"Point"},"properties":{"osm_id":"7282417994","tag":{"amenity":"waste_disposal","waste":"contenedor 3"}},"type":"Feature"},
	{"geometry":{"coordinates":[-3.598816,37.182732],"type":"Point"},"properties":{"osm_id":"7282417995","tag":{"amenity":"waste_disposal","waste":"contenedor 2"}},"type":"Feature"},
	{"geometry":{"coordinates":[-3.599321,37.182766],"type":"Point"},"properties":{"osm_id":"7282417996","tag":{"amenity":"waste_disposal","waste":"contenedor 1"}},"type":"Feature"},
	{"geometry":{"coordinates":[-3.575189,37.18196],"type":"Point"},"properties":{"osm_id":"7488896108","tag":{"amenity":"waste_disposal"}},"type":"Feature"},
	{"geometry":{"coordinates":[-3.575174,37.181957],"type":"Point"},"properties":{"osm_id":"7488896109","tag":{"amenity":"waste_disposal"}},"type":"Feature"},
	{"geometry":{"coordinates":[-3.575158,37.181955],"type":"Point"},"properties":{"osm_id":"7488896110","tag":{"amenity":"waste_disposal"}},"type":"Feature"},
	{"geometry":{"coordinates":[-3.5752,37.181899],"type":"Point"},"properties":{"osm_id":"7488896111","tag":{"amenity":"waste_disposal"}},"type":"Feature"},
	{"geometry":{"coordinates":[-3.575186,37.1819],"type":"Point"},"properties":{"osm_id":"7488896112","tag":{"amenity":"waste_disposal"}},"type":"Feature"},
	{"geometry":{"coordinates":[-3.57517,37.1819],"type":"Point"},"properties":{"osm_id":"7488896113","tag":{"amenity":"waste_disposal"}},"type":"Feature"},
	{"geometry":{"coordinates":[-3.578267,37.164435],"type":"Point"},"properties":{"osm_id":"7896877413","tag":{"amenity":"waste_disposal"}},"type":"Feature"},
	{"geometry":{"coordinates":[-3.57824,37.164428],"type":"Point"},"properties":{"osm_id":"7896877414","tag":{"amenity":"recycling","recycling:plastic":"yes","recycling_type":"container"}},"type":"Feature"},
	{"geometry":{"coordinates":[-3.578215,37.164421],"type":"Point"},"properties":{"osm_id":"7896877415","tag":{"amenity":"recycling","recycling:glass_bottles":"yes","recycling_type":"container"}},"type":"Feature"},
	{"geometry":{"coordinates":[-3.578189,37.164414],"type":"Point"},"properties":{"osm_id":"7896877416","tag":{"amenity":"recycling","recycling:cartons":"yes","recycling:paper":"yes","recycling_type":"container"}},"type":"Feature"},
	{"geometry":{"coordinates":[-3.595844,37.176865],"type":"Point"},"properties":{"osm_id":"7944419096","tag":{"amenity":"recycling","recycling:batteries":"yes","recycling_type":"container"}},"type":"Feature"},
	{"geometry":{"coordinates":[-3.599334,37.172417],"type":"Point"},"properties":{"osm_id":"7947995633","tag":{"amenity":"recycling","recycling:plastic":"yes","recycling_type":"container"}},"type":"Feature"},
	{"geometry":{"coordinates":[-3.599322,37.172394],"type":"Point"},"properties":{"osm_id":"7947995634","tag":{"amenity":"recycling","recycling:glass_bottles":"yes","recycling_type":"container"}},"type":"Feature"}
]
}
