{
"type": "FeatureCollection",
"features": [
	{"geometry":{"coordinates":[-3.581604,37.121414],"type":"Point"},"properties":{"osm_id":"1385249120","tag":{"amenity":"recycling","recycling:plastic":"yes","recycling_type":"container"}},"type":"Feature"},
	{"geometry":{"coordinates":[-3.58024,37.122103],"type":"Point"},"properties":{"osm_id":"1385249284","tag":{"amenity":"recycling","recycling:paper":"yes","recycling_type":"container"}},"type":"Feature"},
	{"geometry":{"coordinates":[-3.580289,37.12208],"type":"Point"},"properties":{"osm_id":"1385249317","tag":{"amenity":"waste_disposal","waste":"trash"}},"type":"Feature"},
	{"geometry":{"coordinates":[-3.580264,37.122092],"type":"Point"},"properties":{"osm_id":"1385249320","tag":{"amenity":"recycling","recycling:plastic":"yes","recycling_type":"container"}},"type":"Feature"},
	{"geometry":{"coordinates":[-3.581206,37.1223],"type":"Point"},"properties":{"osm_id":"1385249399","tag":{"amenity":"waste_basket"}},"type":"Feature"},
	{"geometry":{"coordinates":[-3.580019,37.12272],"type":"Point"},"properties":{"osm_id":"1385249479","tag":{"amenity":"waste_disposal","waste":"trash"}},"type":"Feature"},
	{"geometry":{"coordinates":[-3.595674,37.158014],"type":"Point"},"properties":{"osm_id":"1421367029","tag":{"amenity":"recycling","recycling:batteries":"yes","recycling_type":"container"}},"type":"Feature"},
	{"geometry":{"coordinates":[-3.58508,37.121281],"type":"Point"},"properties":{"osm_id":"4411507011","tag":{"amenity":"recycling","recycling:glass_bottles":"yes","recycling_type":"container"}},"type":"Feature"},
	{"geometry":{"coordinates":[-3.585071,37.121266],"type":"Point"},"properties":{"osm_id":"4411507012","tag":{"amenity":"recycling","recycling:cans":"yes","recycling_type":"container"}},"type":"Feature"},
	{"geometry":{"coordinates":[-3.585058,37.121246],"type":"Point"},"properties":{"osm_id":"4411507013","tag":{"amenity":"recycling","recycling:paper":"yes","recycling_type":"container"}},"type":"Feature"},
	{"geometry":{"coordinates":[-3.602681,37.117781],"type":"Point"},"properties":{"osm_id":"4998006192","tag":{"amenity":"waste_disposal"}},"type":"Feature"},
	{"geometry":{"coordinates":[-3.565607,37.144571],"type":"Point"},"properties":{"osm_id":"5058507478","tag":{"amenity":"waste_disposal","collection_times":"00:30"}},"type":"Feature"},
	{"geometry":{"coordinates":[-3.566249,37.14652],"type":"Point"},"properties":{"osm_id":"5058507977","tag":{"amenity":"waste_disposal"}},"type":"Feature"},
	{"geometry":{"coordinates":[-3.566413,37.145691],"type":"Point"},"properties":{"osm_id":"5058507986","tag":{"amenity":"waste_disposal"}},"type":"Feature"},
	{"geometry":{"coordinates":[-3.585834,37.12455],"type":"Point"},"properties":{"osm_id":"7331793032","tag":{"amenity":"recycling","recycling:plastic":"yes","recycling_type":"container"}},"type":"Feature"},
	{"geometry":{"coordinates":[-3.585845,37.124532],"type":"Point"},"properties":{"osm_id":"7331793033","tag":{"amenity":"recycling","recycling:glass_bottles":"yes","recycling_type":"container"}},"type":"Feature"},
	{"geometry":{"coordinates":[-3.585854,37.124516],"type":"Point"},"properties":{"osm_id":"7331793034","tag":{"amenity":"recycling","recycling:glass_bottles":"yes","recycling_type":"container"}},"type":"Feature"},
	{"geometry":{"coordinates":[-3.585864,37.124498],"type":"Point"},"properties":{"osm_id":"7331793035","tag":{"amenity":"recycling","recycling:cartons":"yes","recycling:paper":"yes","recycling_type":"container"}},"type":"Feature"},
	{"geometry":{"coordinates":[-3.585878,37.124543],"type":"Point"},"properties":{"osm_id":"7331793036","tag":{"amenity":"waste_disposal"}},"type":"Feature"}
]
}
