{
"type": "FeatureCollection",
"features": [
	{"geometry":{"coordinates":[-0.622605,54.488821],"type":"Point"},"properties":{"osm_id":"480460682","tag":{"amenity":"recycling"}},"type":"Feature"},
	{"geometry":{"coordinates":[-0.629146,54.470141],"type":"Point"},"properties":{"name":"Bottle Bank","osm_id":"687986501","tag":{"amenity":"recycling","recycling:glass":"yes"}},"type":"Feature"},
	{"geometry":{"coordinates":[-0.617359,54.486354],"type":"Point"},"properties":{"osm_id":"6257005864","tag":{"amenity":"waste_basket"}},"type":"Feature"},
	{"geometry":{"coordinates":[-0.653127,54.479784],"type":"Point"},"properties":{"osm_id":"7445084373","tag":{"amenity":"waste_basket"}},"type":"Feature"},
	{"geometry":{"coordinates":[-0.668455,54.500991],"type":"Point"},"properties":{"osm_id":"7593400495","tag":{"amenity":"waste_basket"}},"type":"Feature"},
	{"geometry":{"coordinates":[-0.667854,54.50078],"type":"Point"},"properties":{"osm_id":"7593428952","tag":{"amenity":"waste_basket"}},"type":"Feature"}
]
}
