{
"type": "FeatureCollection",
"features": [
	{"geometry":{"coordinates":[-0.652853,51.793344],"type":"Point"},"properties":{"osm_id":"263250791","tag":{"amenity":"recycling","location":"overground","recycling_type":"container"}},"type":"Feature"},
	{"geometry":{"coordinates":[-0.627042,51.799662],"type":"Point"},"properties":{"osm_id":"655568803","tag":{"amenity":"waste_basket"}},"type":"Feature"},
	{"geometry":{"coordinates":[-0.661232,51.795155],"type":"Point"},"properties":{"osm_id":"2211088859","tag":{"amenity":"waste_basket","waste":"trash"}},"type":"Feature"},
	{"geometry":{"coordinates":[-0.668019,51.823899],"type":"Point"},"properties":{"name":"Marsworth Rubbish Disposal","osm_id":"2508959724","tag":{"access":"permissive","amenity":"waste_disposal","centralkey":"no","operator":"Canal and River Trust","waste":"trash","waterway":"waste_disposal"}},"type":"Feature"},
	{"geometry":{"coordinates":[-0.670022,51.820848],"type":"Point"},"properties":{"osm_id":"2508960322","tag":{"amenity":"waste_disposal"}},"type":"Feature"},
	{"geometry":{"coordinates":[-0.668057,51.791558],"type":"Point"},"properties":{"osm_id":"4212318641","tag":{"amenity":"waste_basket"}},"type":"Feature"},
	{"geometry":{"coordinates":[-0.657332,51.794381],"type":"Point"},"properties":{"osm_id":"5607970086","tag":{"amenity":"waste_basket","waste":"trash"}},"type":"Feature"},
	{"geometry":{"coordinates":[-0.657061,51.794085],"type":"Point"},"properties":{"osm_id":"5607970089","tag":{"amenity":"waste_basket","waste":"trash"}},"type":"Feature"},
	{"geometry":{"coordinates":[-0.657515,51.794187],"type":"Point"},"properties":{"osm_id":"5607970115","tag":{"amenity":"waste_basket","waste":"trash"}},"type":"Feature"},
	{"geometry":{"coordinates":[-0.658096,51.794236],"type":"Point"},"properties":{"osm_id":"5607970118","tag":{"amenity":"recycling","recycling:cans":"yes","recycling:plastic_bottles":"yes","recycling:waste":"yes","recycling_type":"container"}},"type":"Feature"},
	{"geometry":{"coordinates":[-0.659638,51.795028],"type":"Point"},"properties":{"osm_id":"5612608728","tag":{"amenity":"waste_basket","waste":"trash"}},"type":"Feature"},
	{"geometry":{"coordinates":[-0.660751,51.793835],"type":"Point"},"properties":{"osm_id":"5612608731","tag":{"amenity":"waste_basket","waste":"trash"}},"type":"Feature"},
	{"geometry":{"coordinates":[-0.667862,51.800961],"type":"Point"},"properties":{"osm_id":"5612608733","tag":{"amenity":"waste_basket","waste":"trash"}},"type":"Feature"},
	{"geometry":{"coordinates":[-0.658183,51.80659],"type":"Point"},"properties":{"osm_id":"5612608742","tag":{"amenity":"waste_basket","waste":"trash"}},"type":"Feature"},
	{"geometry":{"coordinates":[-0.660137,51.794863],"type":"Point"},"properties":{"osm_id":"5612608762","tag":{"amenity":"waste_basket","waste":"trash"}},"type":"Feature"},
	{"geometry":{"coordinates":[-0.659342,51.794242],"type":"Point"},"properties":{"osm_id":"5612608774","tag":{"amenity":"waste_basket","waste":"trash"}},"type":"Feature"},
	{"geometry":{"coordinates":[-0.658875,51.795686],"type":"Point"},"properties":{"osm_id":"5784861622","tag":{"amenity":"waste_basket","waste":"trash"}},"type":"Feature"},
	{"geometry":{"coordinates":[-0.658654,51.795307],"type":"Point"},"properties":{"osm_id":"5784861626","tag":{"amenity":"waste_basket","waste":"trash"}},"type":"Feature"},
	{"geometry":{"coordinates":[-0.658238,51.79941],"type":"Point"},"properties":{"osm_id":"5784862579","tag":{"amenity":"waste_basket","waste":"dog_excrement"}},"type":"Feature"},
	{"geometry":{"coordinates":[-0.660504,51.793968],"type":"Point"},"properties":{"osm_id":"5784862617","tag":{"amenity":"waste_basket","waste":"trash"}},"type":"Feature"},
	{"geometry":{"coordinates":[-0.660883,51.79258],"type":"Point"},"properties":{"osm_id":"5784862645","tag":{"amenity":"waste_basket","waste":"dog_excrement"}},"type":"Feature"},
	{"geometry":{"coordinates":[-0.660037,51.790691],"type":"Point"},"properties":{"osm_id":"5784862646","tag":{"amenity":"waste_basket","waste":"trash"}},"type":"Feature"},
	{"geometry":{"coordinates":[-0.659607,51.789702],"type":"Point"},"properties":{"osm_id":"5784862787","tag":{"amenity":"waste_basket","waste":"dog_excrement"}},"type":"Feature"},
	{"geometry":{"coordinates":[-0.661677,51.791322],"type":"Point"},"properties":{"osm_id":"5784863021","tag":{"amenity":"waste_basket","waste":"trash"}},"type":"Feature"},
	{"geometry":{"coordinates":[-0.669583,51.794039],"type":"Point"},"properties":{"osm_id":"5784863205","tag":{"amenity":"waste_basket","waste":"dog_excrement"}},"type":"Feature"},
	{"geometry":{"coordinates":[-0.671581,51.795634],"type":"Point"},"properties":{"osm_id":"5784863236","tag":{"amenity":"waste_basket","waste":"dog_excrement"}},"type":"Feature"},
	{"geometry":{"coordinates":[-0.66658,51.801274],"type":"Point"},"properties":{"osm_id":"5784863248","tag":{"amenity":"waste_basket","waste":"dog_excrement"}},"type":"Feature"},
	{"geometry":{"coordinates":[-0.660724,51.805607],"type":"Point"},"properties":{"osm_id":"5784863464","tag":{"amenity":"waste_basket","waste":"dog_excrement"}},"type":"Feature"},
	{"geometry":{"coordinates":[-0.66066,51.805705],"type":"Point"},"properties":{"osm_id":"5784863468","tag":{"amenity":"waste_basket","waste":"trash"}},"type":"Feature"},
	{"geometry":{"coordinates":[-0.658067,51.798921],"type":"Point"},"properties":{"osm_id":"5784863521","tag":{"amenity":"waste_basket","waste":"trash"}},"type":"Feature"},
	{"geometry":{"coordinates":[-0.655497,51.797316],"type":"Point"},"properties":{"osm_id":"5784863540","tag":{"amenity":"waste_basket","waste":"trash"}},"type":"Feature"},
	{"geometry":{"coordinates":[-0.656541,51.798674],"type":"Point"},"properties":{"osm_id":"5784863550","tag":{"amenity":"waste_basket","waste":"trash"}},"type":"Feature"},
	{"geometry":{"coordinates":[-0.656374,51.798347],"type":"Point"},"properties":{"osm_id":"5784863552","tag":{"amenity":"waste_basket","waste":"dog_excrement"}},"type":"Feature"},
	{"geometry":{"coordinates":[-0.656243,51.798039],"type":"Point"},"properties":{"osm_id":"5784863653","tag":{"amenity":"waste_basket","waste":"trash"}},"type":"Feature"},
	{"geometry":{"coordinates":[-0.655948,51.797872],"type":"Point"},"properties":{"osm_id":"5784863654","tag":{"amenity":"waste_basket","waste":"trash"}},"type":"Feature"},
	{"geometry":{"coordinates":[-0.655527,51.797235],"type":"Point"},"properties":{"osm_id":"5784863655","tag":{"amenity":"waste_basket","waste":"dog_excrement"}},"type":"Feature"},
	{"geometry":{"coordinates":[-0.653386,51.794253],"type":"Point"},"properties":{"osm_id":"5784863859","tag":{"amenity":"waste_basket","waste":"dog_excrement"}},"type":"Feature"},
	{"geometry":{"coordinates":[-0.653288,51.794209],"type":"Point"},"properties":{"osm_id":"5784863860","tag":{"amenity":"waste_basket","waste":"trash"}},"type":"Feature"},
	{"geometry":{"coordinates":[-0.653153,51.79456],"type":"Point"},"properties":{"osm_id":"5784863869","tag":{"amenity":"waste_basket","waste":"trash"}},"type":"Feature"},
	{"geometry":{"coordinates":[-0.653168,51.794826],"type":"Point"},"properties":{"osm_id":"5784863879","tag":{"amenity":"waste_basket","waste":"trash"}},"type":"Feature"},
	{"geometry":{"coordinates":[-0.653128,51.794886],"type":"Point"},"properties":{"osm_id":"5784863882","tag":{"amenity":"waste_basket","waste":"trash"}},"type":"Feature"},
	{"geometry":{"coordinates":[-0.653436,51.795584],"type":"Point"},"properties":{"osm_id":"5784863891","tag":{"amenity":"waste_basket","waste":"dog_excrement"}},"type":"Feature"},
	{"geometry":{"coordinates":[-0.65353,51.795642],"type":"Point"},"properties":{"osm_id":"5784863892","tag":{"amenity":"waste_basket","waste":"trash"}},"type":"Feature"},
	{"geometry":{"coordinates":[-0.661045,51.794247],"type":"Point"},"properties":{"osm_id":"5879288133","tag":{"amenity":"waste_basket","waste":"trash"}},"type":"Feature"},
	{"geometry":{"coordinates":[-0.660293,51.795762],"type":"Point"},"properties":{"osm_id":"5879288191","tag":{"amenity":"waste_basket","waste":"trash"}},"type":"Feature"},
	{"geometry":{"coordinates":[-0.661008,51.795943],"type":"Point"},"properties":{"osm_id":"5879288192","tag":{"amenity":"waste_basket","waste":"dog_excrement"}},"type":"Feature"},
	{"geometry":{"coordinates":[-0.661076,51.796326],"type":"Point"},"properties":{"osm_id":"5879288199","tag":{"amenity":"waste_basket","waste":"trash"}},"type":"Feature"},
	{"geometry":{"coordinates":[-0.660832,51.797521],"type":"Point"},"properties":{"osm_id":"5879288206","tag":{"amenity":"waste_basket","waste":"dog_excrement"}},"type":"Feature"},
	{"geometry":{"coordinates":[-0.659625,51.799734],"type":"Point"},"properties":{"osm_id":"5879288225","tag":{"amenity":"waste_basket","waste":"trash"}},"type":"Feature"},
	{"geometry":{"coordinates":[-0.65932,51.799672],"type":"Point"},"properties":{"osm_id":"5879288227","tag":{"amenity":"waste_basket","waste":"trash"}},"type":"Feature"},
	{"geometry":{"coordinates":[-0.659228,51.799771],"type":"Point"},"properties":{"osm_id":"5879288228","tag":{"amenity":"waste_basket","waste":"trash"}},"type":"Feature"},
	{"geometry":{"coordinates":[-0.661368,51.795656],"type":"Point"},"properties":{"osm_id":"5879288257","tag":{"amenity":"waste_basket","waste":"trash"}},"type":"Feature"},
	{"geometry":{"coordinates":[-0.661725,51.79389],"type":"Point"},"properties":{"osm_id":"5879288282","tag":{"amenity":"waste_basket","waste":"trash"}},"type":"Feature"},
	{"geometry":{"coordinates":[-0.661612,51.79393],"type":"Point"},"properties":{"osm_id":"5879288287","tag":{"amenity":"waste_basket","waste":"trash"}},"type":"Feature"},
	{"geometry":{"coordinates":[-0.661645,51.793894],"type":"Point"},"properties":{"osm_id":"5879288288","tag":{"amenity":"waste_basket","waste":"trash"}},"type":"Feature"},
	{"geometry":{"coordinates":[-0.66155,51.794062],"type":"Point"},"properties":{"osm_id":"5879288291","tag":{"amenity":"waste_basket","waste":"trash"}},"type":"Feature"},
	{"geometry":{"coordinates":[-0.661646,51.794302],"type":"Point"},"properties":{"osm_id":"5879288298","tag":{"amenity":"waste_basket","waste":"trash"}},"type":"Feature"},
	{"geometry":{"coordinates":[-0.661611,51.79408],"type":"Point"},"properties":{"osm_id":"5879288304","tag":{"amenity":"waste_basket","waste":"trash"}},"type":"Feature"},
	{"geometry":{"coordinates":[-0.661911,51.794025],"type":"Point"},"properties":{"osm_id":"5879288306","tag":{"amenity":"waste_basket","waste":"trash"}},"type":"Feature"},
	{"geometry":{"coordinates":[-0.663552,51.793449],"type":"Point"},"properties":{"osm_id":"5879288316","tag":{"amenity":"waste_basket","waste":"trash"}},"type":"Feature"},
	{"geometry":{"coordinates":[-0.664755,51.793154],"type":"Point"},"properties":{"osm_id":"5879288317","tag":{"amenity":"waste_basket","waste":"trash"}},"type":"Feature"},
	{"geometry":{"coordinates":[-0.661023,51.790765],"type":"Point"},"properties":{"osm_id":"5879288396","tag":{"amenity":"waste_basket","waste":"trash"}},"type":"Feature"},
	{"geometry":{"coordinates":[-0.660855,51.790296],"type":"Point"},"properties":{"osm_id":"5879288454","tag":{"amenity":"waste_basket","waste":"trash"}},"type":"Feature"},
	{"geometry":{"coordinates":[-0.646854,51.787973],"type":"Point"},"properties":{"osm_id":"5879288789","tag":{"amenity":"waste_basket","waste":"trash"}},"type":"Feature"},
	{"geometry":{"coordinates":[-0.660962,51.795994],"type":"Point"},"properties":{"osm_id":"5952241722","tag":{"amenity":"waste_basket","waste":"trash"}},"type":"Feature"},
	{"geometry":{"coordinates":[-0.655449,51.797981],"type":"Point"},"properties":{"osm_id":"6427142281","tag":{"amenity":"waste_basket","waste":"trash"}},"type":"Feature"},
	{"geometry":{"coordinates":[-0.664154,51.793284],"type":"Point"},"properties":{"osm_id":"6746613767","tag":{"amenity":"waste_basket"}},"type":"Feature"},
	{"geometry":{"coordinates":[-0.669823,51.821375],"type":"Point"},"properties":{"name":"Aylesbury Arm Junction Rubbish Disposal","osm_id":"7447271383","tag":{"access":"permissive","amenity":"waste_disposal","centralkey":"no","operator":"Canal and River Trust","waste":"trash","waterway":"waste_disposal"}},"type":"Feature"}
]
}
