{
"type": "FeatureCollection",
"features": [
	{"geometry":{"coordinates":[-0.662124,51.221633],"type":"Point"},"properties":{"osm_id":"384728269","tag":{"amenity":"recycling"}},"type":"Feature"},
	{"geometry":{"coordinates":[-0.630532,51.213114],"type":"Point"},"properties":{"osm_id":"561391360","tag":{"amenity":"waste_basket"}},"type":"Feature"},
	{"geometry":{"coordinates":[-0.627141,51.213013],"type":"Point"},"properties":{"osm_id":"561391365","tag":{"amenity":"waste_basket"}},"type":"Feature"},
	{"geometry":{"coordinates":[-0.616237,51.189332],"type":"Point"},"properties":{"osm_id":"6126414049","tag":{"amenity":"waste_basket"}},"type":"Feature"},
	{"geometry":{"coordinates":[-0.615471,51.187659],"type":"Point"},"properties":{"osm_id":"6126414054","tag":{"amenity":"waste_basket"}},"type":"Feature"},
	{"geometry":{"coordinates":[-0.650607,51.187322],"type":"Point"},"properties":{"osm_id":"8490366874","tag":{"amenity":"waste_basket","covered":"no","material":"stone"}},"type":"Feature"},
	{"geometry":{"coordinates":[-0.616084,51.186836],"type":"Point"},"properties":{"osm_id":"8806980233","tag":{"amenity":"waste_basket"}},"type":"Feature"},
	{"geometry":{"coordinates":[-0.616545,51.184978],"type":"Point"},"properties":{"osm_id":"8811112630","tag":{"amenity":"waste_basket"}},"type":"Feature"},
	{"geometry":{"coordinates":[-0.616027,51.187358],"type":"Point"},"properties":{"osm_id":"8833013694","tag":{"amenity":"waste_basket"}},"type":"Feature"},
	{"geometry":{"coordinates":[-0.615825,51.187674],"type":"Point"},"properties":{"osm_id":"8833031201","tag":{"amenity":"waste_basket"}},"type":"Feature"},
	{"geometry":{"coordinates":[-0.616017,51.187957],"type":"Point"},"properties":{"osm_id":"8833031202","tag":{"amenity":"waste_basket"}},"type":"Feature"},
	{"geometry":{"coordinates":[-0.615574,51.185469],"type":"Point"},"properties":{"osm_id":"8837035903","tag":{"amenity":"waste_basket"}},"type":"Feature"},
	{"geometry":{"coordinates":[-0.615281,51.185461],"type":"Point"},"properties":{"osm_id":"8837035904","tag":{"amenity":"waste_basket"}},"type":"Feature"},
	{"geometry":{"coordinates":[-0.616017,51.185216],"type":"Point"},"properties":{"osm_id":"8837038318","tag":{"amenity":"waste_basket"}},"type":"Feature"},
	{"geometry":{"coordinates":[-0.616161,51.18515],"type":"Point"},"properties":{"osm_id":"8837038319","tag":{"amenity":"waste_basket"}},"type":"Feature"}
]
}
