{
"type": "FeatureCollection",
"features": [
	{"geometry":{"coordinates":[-0.627321,51.11485],"type":"Point"},"properties":{"osm_id":"8088754880","tag":{"amenity":"waste_basket","colour":"green","covered":"no"}},"type":"Feature"},
	{"geometry":{"coordinates":[-0.623022,51.118508],"type":"Point"},"properties":{"osm_id":"8088781013","tag":{"amenity":"waste_basket","colour":"green","covered":"no"}},"type":"Feature"},
	{"geometry":{"coordinates":[-0.642081,51.113891],"type":"Point"},"properties":{"osm_id":"8088809288","tag":{"amenity":"waste_basket","colour":"green","covered":"no"}},"type":"Feature"},
	{"geometry":{"coordinates":[-0.640602,51.113618],"type":"Point"},"properties":{"osm_id":"8088818385","tag":{"amenity":"waste_basket","colour":"green","covered":"no"}},"type":"Feature"},
	{"geometry":{"coordinates":[-0.690819,51.10378],"type":"Point"},"properties":{"osm_id":"8088888351","tag":{"amenity":"waste_basket","covered":"no"}},"type":"Feature"},
	{"geometry":{"coordinates":[-0.685361,51.10211],"type":"Point"},"properties":{"osm_id":"8088890752","tag":{"amenity":"waste_basket","colour":"brown","covered":"no","material":"wood"}},"type":"Feature"}
]
}
