{
"type": "FeatureCollection",
"features": [
	{"geometry":{"coordinates":[-0.670968,50.797435],"type":"Point"},"properties":{"osm_id":"428250117","tag":{"amenity":"recycling"}},"type":"Feature"},
	{"geometry":{"coordinates":[-0.680772,50.799269],"type":"Point"},"properties":{"osm_id":"811679221","tag":{"odbl":"clean"}},"type":"Feature"},
	{"geometry":{"coordinates":[-0.617911,50.794507],"type":"Point"},"properties":{"osm_id":"1966245821","tag":{"amenity":"recycling"}},"type":"Feature"},
	{"geometry":{"coordinates":[-0.656307,50.793933],"type":"Point"},"properties":{"osm_id":"4749518122","tag":{"amenity":"waste_basket"}},"type":"Feature"},
	{"geometry":{"coordinates":[-0.656547,50.79382],"type":"Point"},"properties":{"osm_id":"4749518123","tag":{"amenity":"waste_basket"}},"type":"Feature"},
	{"geometry":{"coordinates":[-0.656487,50.793818],"type":"Point"},"properties":{"osm_id":"4749518124","tag":{"amenity":"waste_basket"}},"type":"Feature"},
	{"geometry":{"coordinates":[-0.655975,50.793989],"type":"Point"},"properties":{"osm_id":"4749518125","tag":{"amenity":"waste_basket"}},"type":"Feature"},
	{"geometry":{"coordinates":[-0.655839,50.793905],"type":"Point"},"properties":{"osm_id":"4749518126","tag":{"amenity":"waste_basket"}},"type":"Feature"},
	{"geometry":{"coordinates":[-0.656519,50.793888],"type":"Point"},"properties":{"osm_id":"4752648579","tag":{"amenity":"waste_basket"}},"type":"Feature"},
	{"geometry":{"coordinates":[-0.658643,50.792905],"type":"Point"},"properties":{"osm_id":"4764732341","tag":{"amenity":"recycling","recycling_type":"container"}},"type":"Feature"},
	{"geometry":{"coordinates":[-0.639546,50.793797],"type":"Point"},"properties":{"osm_id":"4767961500","tag":{"amenity":"waste_basket"}},"type":"Feature"},
	{"geometry":{"coordinates":[-0.657337,50.793992],"type":"Point"},"properties":{"osm_id":"4852426078","tag":{"amenity":"waste_basket"}},"type":"Feature"},
	{"geometry":{"coordinates":[-0.651715,50.792474],"type":"Point"},"properties":{"osm_id":"4887295223","tag":{"amenity":"waste_basket"}},"type":"Feature"},
	{"geometry":{"coordinates":[-0.656184,50.793637],"type":"Point"},"properties":{"osm_id":"4902476050","tag":{"amenity":"waste_basket"}},"type":"Feature"},
	{"geometry":{"coordinates":[-0.655964,50.793559],"type":"Point"},"properties":{"osm_id":"4902476051","tag":{"amenity":"waste_basket"}},"type":"Feature"},
	{"geometry":{"coordinates":[-0.655763,50.793385],"type":"Point"},"properties":{"osm_id":"4902476052","tag":{"amenity":"waste_basket"}},"type":"Feature"},
	{"geometry":{"coordinates":[-0.655807,50.793432],"type":"Point"},"properties":{"osm_id":"4902476053","tag":{"amenity":"waste_basket"}},"type":"Feature"},
	{"geometry":{"coordinates":[-0.655562,50.793224],"type":"Point"},"properties":{"osm_id":"4902476054","tag":{"amenity":"waste_basket"}},"type":"Feature"},
	{"geometry":{"coordinates":[-0.655855,50.792916],"type":"Point"},"properties":{"osm_id":"4910805021","tag":{"amenity":"waste_basket"}},"type":"Feature"},
	{"geometry":{"coordinates":[-0.621342,50.794542],"type":"Point"},"properties":{"osm_id":"5003155103","tag":{"amenity":"waste_basket"}},"type":"Feature"},
	{"geometry":{"coordinates":[-0.638019,50.793995],"type":"Point"},"properties":{"osm_id":"5022418859","tag":{"amenity":"waste_basket"}},"type":"Feature"},
	{"geometry":{"coordinates":[-0.637662,50.793526],"type":"Point"},"properties":{"osm_id":"5037508928","tag":{"amenity":"waste_basket","waste":"dog_excrement"}},"type":"Feature"},
	{"geometry":{"coordinates":[-0.638359,50.793638],"type":"Point"},"properties":{"osm_id":"5037508931","tag":{"amenity":"waste_basket"}},"type":"Feature"},
	{"geometry":{"coordinates":[-0.642481,50.7922],"type":"Point"},"properties":{"osm_id":"5037508933","tag":{"amenity":"waste_basket"}},"type":"Feature"},
	{"geometry":{"coordinates":[-0.642481,50.79219],"type":"Point"},"properties":{"osm_id":"5037508934","tag":{"amenity":"waste_basket","waste":"dog_excrement"}},"type":"Feature"},
	{"geometry":{"coordinates":[-0.640884,50.792696],"type":"Point"},"properties":{"osm_id":"5037508941","tag":{"amenity":"waste_basket"}},"type":"Feature"},
	{"geometry":{"coordinates":[-0.638463,50.793517],"type":"Point"},"properties":{"osm_id":"5037508942","tag":{"amenity":"waste_basket"}},"type":"Feature"},
	{"geometry":{"coordinates":[-0.652122,50.792493],"type":"Point"},"properties":{"osm_id":"5045054582","tag":{"amenity":"waste_basket"}},"type":"Feature"},
	{"geometry":{"coordinates":[-0.641009,50.792318],"type":"Point"},"properties":{"osm_id":"5045055803","tag":{"amenity":"waste_basket"}},"type":"Feature"},
	{"geometry":{"coordinates":[-0.63782,50.792387],"type":"Point"},"properties":{"osm_id":"5061001887","tag":{"amenity":"waste_basket"}},"type":"Feature"},
	{"geometry":{"coordinates":[-0.62972,50.794995],"type":"Point"},"properties":{"osm_id":"5086911812","tag":{"amenity":"waste_basket"}},"type":"Feature"},
	{"geometry":{"coordinates":[-0.641529,50.797266],"type":"Point"},"properties":{"osm_id":"5148284528","tag":{"amenity":"waste_basket","description":"Dog waste bin only"}},"type":"Feature"},
	{"geometry":{"coordinates":[-0.666519,50.793767],"type":"Point"},"properties":{"osm_id":"5154012763","tag":{"amenity":"waste_basket"}},"type":"Feature"},
	{"geometry":{"coordinates":[-0.666647,50.793326],"type":"Point"},"properties":{"osm_id":"5154012767","tag":{"amenity":"waste_basket"}},"type":"Feature"},
	{"geometry":{"coordinates":[-0.66657,50.793337],"type":"Point"},"properties":{"osm_id":"5154012768","tag":{"amenity":"waste_disposal"}},"type":"Feature"},
	{"geometry":{"coordinates":[-0.642598,50.792614],"type":"Point"},"properties":{"osm_id":"5224887755","tag":{"amenity":"waste_basket"}},"type":"Feature"},
	{"geometry":{"coordinates":[-0.671112,50.794033],"type":"Point"},"properties":{"osm_id":"5961067630","tag":{"amenity":"waste_basket"}},"type":"Feature"},
	{"geometry":{"coordinates":[-0.67188,50.794872],"type":"Point"},"properties":{"osm_id":"5961067631","tag":{"amenity":"waste_basket"}},"type":"Feature"},
	{"geometry":{"coordinates":[-0.66933,50.80393],"type":"Point"},"properties":{"osm_id":"6778088849","tag":{"amenity":"waste_basket","waste":"dog_excrement"}},"type":"Feature"},
	{"geometry":{"coordinates":[-0.672724,50.803369],"type":"Point"},"properties":{"osm_id":"6778088852","tag":{"amenity":"waste_basket","waste":"dog_excrement"}},"type":"Feature"},
	{"geometry":{"coordinates":[-0.638197,50.793845],"type":"Point"},"properties":{"osm_id":"6778227762","tag":{"amenity":"waste_basket"}},"type":"Feature"},
	{"geometry":{"coordinates":[-0.679484,50.799833],"type":"Point"},"properties":{"osm_id":"6778410407","tag":{"amenity":"waste_basket","waste":"dog_excrement"}},"type":"Feature"},
	{"geometry":{"coordinates":[-0.679719,50.799768],"type":"Point"},"properties":{"osm_id":"7152616355","tag":{"amenity":"waste_basket","colour":"Black"}},"type":"Feature"},
	{"geometry":{"coordinates":[-0.63752,50.833044],"type":"Point"},"properties":{"osm_id":"7903515796","tag":{"amenity":"waste_basket"}},"type":"Feature"},
	{"geometry":{"coordinates":[-0.636181,50.829028],"type":"Point"},"properties":{"osm_id":"7903578622","tag":{"amenity":"waste_basket"}},"type":"Feature"},
	{"geometry":{"coordinates":[-0.681318,50.798779],"type":"Point"},"properties":{"osm_id":"7926554450","tag":{"amenity":"waste_basket","colour":"black"}},"type":"Feature"},
	{"geometry":{"coordinates":[-0.678107,50.800811],"type":"Point"},"properties":{"osm_id":"7926594150","tag":{"amenity":"waste_basket","colour":"green","material":"metal"}},"type":"Feature"},
	{"geometry":{"coordinates":[-0.678137,50.801068],"type":"Point"},"properties":{"osm_id":"7926594156","tag":{"amenity":"waste_basket","colour":"black"}},"type":"Feature"}
]
}
