{
"type": "FeatureCollection",
"features": [
	{"geometry":{"coordinates":[-0.662886,47.575915],"type":"Point"},"properties":{"osm_id":"1995265579","tag":{"amenity":"recycling","location":"underground","recycling_type":"container"}},"type":"Feature"},
	{"geometry":{"coordinates":[-0.675575,47.568586],"type":"Point"},"properties":{"osm_id":"1995279568","tag":{"addr:city":"Pruill\u00c3\u00a9","addr:postcode":"49220","addr:street":"ZA La Chesnaie","amenity":"recycling","recycling:batteries":"no","recycling:books":"no","recycling:cardboard":"yes","recycling:cartons":"yes","recycling:clothes":"no","recycling:electrical_appliances":"no","recycling:glass":"yes","recycling:glass_bottles":"yes","recycling:green_waste":"no","recycling:paper_packaging":"yes","recycling:waste":"no","recycling:wood":"no","recycling_type":"container"}},"type":"Feature"},
	{"geometry":{"coordinates":[-0.671915,47.561039],"type":"Point"},"properties":{"osm_id":"3385814414","tag":{"amenity":"waste_basket"}},"type":"Feature"},
	{"geometry":{"coordinates":[-0.670179,47.558563],"type":"Point"},"properties":{"osm_id":"3385865517","tag":{"amenity":"waste_basket"}},"type":"Feature"},
	{"geometry":{"coordinates":[-0.672237,47.560456],"type":"Point"},"properties":{"osm_id":"3403750602","tag":{"amenity":"waste_basket"}},"type":"Feature"},
	{"geometry":{"coordinates":[-0.672076,47.56034],"type":"Point"},"properties":{"osm_id":"3403750604","tag":{"amenity":"recycling","recycling:batteries":"yes","recycling:books":"no","recycling:cans":"no","recycling:cardboard":"no","recycling:cartons":"no","recycling:clothes":"no","recycling:electrical_appliances":"no","recycling:glass":"no","recycling:glass_bottles":"no","recycling:green_waste":"no","recycling:magazines":"no","recycling:newspaper":"no","recycling:paper":"no","recycling:paper_packaging":"no","recycling:plastic":"no","recycling:plastic_bottles":"no","recycling:plastic_packaging":"no","recycling:scrap_metal":"no","recycling:small_appliances":"no","recycling:waste":"no","recycling:wood":"no","recycling_type":"container"}},"type":"Feature"},
	{"geometry":{"coordinates":[-0.67151,47.5608],"type":"Point"},"properties":{"osm_id":"3403762218","tag":{"amenity":"recycling","recycling:batteries":"no","recycling:books":"no","recycling:cans":"no","recycling:cardboard":"no","recycling:cartons":"no","recycling:clothes":"yes","recycling:electrical_appliances":"no","recycling:glass":"no","recycling:glass_bottles":"no","recycling:green_waste":"no","recycling:magazines":"no","recycling:newspaper":"no","recycling:paper":"no","recycling:paper_packaging":"no","recycling:plastic":"no","recycling:plastic_bottles":"no","recycling:plastic_packaging":"no","recycling:scrap_metal":"no","recycling:small_appliances":"no","recycling:waste":"no","recycling:wood":"no","recycling_type":"container"}},"type":"Feature"},
	{"geometry":{"coordinates":[-0.671366,47.560646],"type":"Point"},"properties":{"osm_id":"3403762223","tag":{"amenity":"waste_basket"}},"type":"Feature"},
	{"geometry":{"coordinates":[-0.656022,47.549528],"type":"Point"},"properties":{"osm_id":"3429926112","tag":{"amenity":"waste_basket"}},"type":"Feature"},
	{"geometry":{"coordinates":[-0.655341,47.549341],"type":"Point"},"properties":{"osm_id":"3429926117","tag":{"amenity":"waste_basket"}},"type":"Feature"},
	{"geometry":{"coordinates":[-0.670026,47.558258],"type":"Point"},"properties":{"osm_id":"3453842340","tag":{"amenity":"waste_basket"}},"type":"Feature"},
	{"geometry":{"coordinates":[-0.675022,47.561029],"type":"Point"},"properties":{"osm_id":"3953548938","tag":{"amenity":"waste_basket"}},"type":"Feature"},
	{"geometry":{"coordinates":[-0.674868,47.561079],"type":"Point"},"properties":{"osm_id":"3953548941","tag":{"amenity":"waste_basket"}},"type":"Feature"},
	{"geometry":{"coordinates":[-0.671756,47.560342],"type":"Point"},"properties":{"osm_id":"3983841965","tag":{"amenity":"waste_basket"}},"type":"Feature"},
	{"geometry":{"coordinates":[-0.675027,47.559861],"type":"Point"},"properties":{"osm_id":"4021721830","tag":{"amenity":"recycling","recycling:batteries":"no","recycling:books":"no","recycling:cans":"no","recycling:cardboard":"no","recycling:cartons":"no","recycling:clothes":"no","recycling:electrical_appliances":"no","recycling:glass":"yes","recycling:glass_bottles":"yes","recycling:green_waste":"no","recycling:magazines":"no","recycling:newspaper":"no","recycling:paper":"no","recycling:paper_packaging":"no","recycling:plastic":"no","recycling:plastic_bottles":"no","recycling:plastic_packaging":"no","recycling:scrap_metal":"no","recycling:small_appliances":"no","recycling:waste":"no","recycling:wood":"no","recycling_type":"container"}},"type":"Feature"},
	{"geometry":{"coordinates":[-0.674988,47.559822],"type":"Point"},"properties":{"osm_id":"4021722100","tag":{"amenity":"waste_basket"}},"type":"Feature"},
	{"geometry":{"coordinates":[-0.674931,47.560491],"type":"Point"},"properties":{"osm_id":"4148777105","tag":{"amenity":"waste_basket"}},"type":"Feature"},
	{"geometry":{"coordinates":[-0.672802,47.560754],"type":"Point"},"properties":{"osm_id":"4148805296","tag":{"amenity":"waste_basket"}},"type":"Feature"},
	{"geometry":{"coordinates":[-0.668415,47.546713],"type":"Point"},"properties":{"osm_id":"5929243626","tag":{"amenity":"waste_basket"}},"type":"Feature"},
	{"geometry":{"coordinates":[-0.668587,47.546837],"type":"Point"},"properties":{"osm_id":"5929243627","tag":{"amenity":"waste_basket"}},"type":"Feature"},
	{"geometry":{"coordinates":[-0.669284,47.546328],"type":"Point"},"properties":{"osm_id":"5929243628","tag":{"amenity":"waste_basket"}},"type":"Feature"},
	{"geometry":{"coordinates":[-0.672198,47.542691],"type":"Point"},"properties":{"osm_id":"5929453408","tag":{"amenity":"recycling","recycling_type":"container"}},"type":"Feature"},
	{"geometry":{"coordinates":[-0.66969,47.546268],"type":"Point"},"properties":{"osm_id":"5929453409","tag":{"amenity":"recycling","recycling_type":"container"}},"type":"Feature"},
	{"geometry":{"coordinates":[-0.673789,47.545734],"type":"Point"},"properties":{"osm_id":"5931922647","tag":{"amenity":"waste_basket"}},"type":"Feature"},
	{"geometry":{"coordinates":[-0.675104,47.545796],"type":"Point"},"properties":{"osm_id":"5931922648","tag":{"amenity":"waste_basket"}},"type":"Feature"},
	{"geometry":{"coordinates":[-0.675531,47.545535],"type":"Point"},"properties":{"osm_id":"5931922650","tag":{"amenity":"waste_basket"}},"type":"Feature"},
	{"geometry":{"coordinates":[-0.676927,47.544866],"type":"Point"},"properties":{"osm_id":"5931922652","tag":{"amenity":"waste_basket"}},"type":"Feature"},
	{"geometry":{"coordinates":[-0.676491,47.543907],"type":"Point"},"properties":{"osm_id":"5931922654","tag":{"amenity":"waste_basket"}},"type":"Feature"},
	{"geometry":{"coordinates":[-0.677189,47.543523],"type":"Point"},"properties":{"osm_id":"5931922655","tag":{"amenity":"recycling","recycling_type":"container"}},"type":"Feature"},
	{"geometry":{"coordinates":[-0.669627,47.546254],"type":"Point"},"properties":{"osm_id":"5936658622","tag":{"amenity":"waste_basket"}},"type":"Feature"},
	{"geometry":{"coordinates":[-0.68229,47.543381],"type":"Point"},"properties":{"osm_id":"5938700469","tag":{"amenity":"waste_basket"}},"type":"Feature"},
	{"geometry":{"coordinates":[-0.683964,47.543711],"type":"Point"},"properties":{"osm_id":"5938700470","tag":{"amenity":"waste_basket"}},"type":"Feature"},
	{"geometry":{"coordinates":[-0.671761,47.539546],"type":"Point"},"properties":{"osm_id":"5939261798","tag":{"amenity":"waste_basket"}},"type":"Feature"},
	{"geometry":{"coordinates":[-0.671865,47.539654],"type":"Point"},"properties":{"osm_id":"5939261799","tag":{"amenity":"waste_basket"}},"type":"Feature"},
	{"geometry":{"coordinates":[-0.669257,47.559181],"type":"Point"},"properties":{"osm_id":"5944465584","tag":{"amenity":"recycling","recycling_type":"container"}},"type":"Feature"},
	{"geometry":{"coordinates":[-0.679729,47.542212],"type":"Point"},"properties":{"osm_id":"5949129566","tag":{"amenity":"recycling","recycling_type":"container"}},"type":"Feature"},
	{"geometry":{"coordinates":[-0.670701,47.53971],"type":"Point"},"properties":{"osm_id":"5949129583","tag":{"amenity":"recycling","recycling_type":"container"}},"type":"Feature"},
	{"geometry":{"coordinates":[-0.622611,47.54236],"type":"Point"},"properties":{"osm_id":"5961591862","tag":{"amenity":"waste_basket"}},"type":"Feature"},
	{"geometry":{"coordinates":[-0.619706,47.541295],"type":"Point"},"properties":{"osm_id":"5961591864","tag":{"amenity":"waste_basket"}},"type":"Feature"},
	{"geometry":{"coordinates":[-0.618269,47.542987],"type":"Point"},"properties":{"osm_id":"5961592212","tag":{"amenity":"waste_basket"}},"type":"Feature"},
	{"geometry":{"coordinates":[-0.622718,47.537408],"type":"Point"},"properties":{"osm_id":"5964850112","tag":{"amenity":"waste_basket"}},"type":"Feature"},
	{"geometry":{"coordinates":[-0.626325,47.534017],"type":"Point"},"properties":{"name":"D\u00c3\u00a9ch\u00c3\u00a8terie du Haut Coudray","osm_id":"6034629577","tag":{"addr:city":"Montreuil-Juign\u00c3\u00a9","addr:housenumber":"24","addr:postcode":"49460","addr:street":"Rue Paul H\u00c3\u00a9roult","amenity":"recycling","recycling_type":"centre"}},"type":"Feature"},
	{"geometry":{"coordinates":[-0.628064,47.534275],"type":"Point"},"properties":{"name":"Trang\u00c3\u00a9tal","osm_id":"6034629578","tag":{"addr:city":"Montreuil-Juign\u00c3\u00a9","addr:housenumber":"26","addr:postcode":"49460","addr:street":"Rue Paul H\u00c3\u00a9roult","amenity":"recycling","recycling_type":"centre"}},"type":"Feature"}
]
}
