{
"type": "FeatureCollection",
"features": [
	{"geometry":{"coordinates":[-0.684398,45.878101],"type":"Point"},"properties":{"osm_id":"3796981337","tag":{"amenity":"recycling"}},"type":"Feature"},
	{"geometry":{"coordinates":[-0.681072,45.877014],"type":"Point"},"properties":{"osm_id":"4240846058","tag":{"amenity":"waste_basket"}},"type":"Feature"},
	{"geometry":{"coordinates":[-0.682355,45.879923],"type":"Point"},"properties":{"osm_id":"4240846062","tag":{"amenity":"waste_basket"}},"type":"Feature"},
	{"geometry":{"coordinates":[-0.683785,45.881249],"type":"Point"},"properties":{"osm_id":"4240849191","tag":{"amenity":"waste_basket"}},"type":"Feature"},
	{"geometry":{"coordinates":[-0.677986,45.834072],"type":"Point"},"properties":{"osm_id":"4790029339","tag":{"amenity":"waste_basket"}},"type":"Feature"},
	{"geometry":{"coordinates":[-0.682988,45.879563],"type":"Point"},"properties":{"osm_id":"5050505941","tag":{"amenity":"waste_basket"}},"type":"Feature"},
	{"geometry":{"coordinates":[-0.683377,45.879176],"type":"Point"},"properties":{"osm_id":"5051362037","tag":{"amenity":"waste_basket"}},"type":"Feature"},
	{"geometry":{"coordinates":[-0.686916,45.879443],"type":"Point"},"properties":{"osm_id":"5573575874","tag":{"amenity":"waste_basket","waste":"trash"}},"type":"Feature"},
	{"geometry":{"coordinates":[-0.686951,45.879455],"type":"Point"},"properties":{"osm_id":"5573575875","tag":{"amenity":"waste_basket","waste":"trash"}},"type":"Feature"},
	{"geometry":{"coordinates":[-0.686357,45.879943],"type":"Point"},"properties":{"osm_id":"5573575876","tag":{"amenity":"waste_basket","waste":"trash"}},"type":"Feature"},
	{"geometry":{"coordinates":[-0.686379,45.879971],"type":"Point"},"properties":{"osm_id":"5573575877","tag":{"amenity":"waste_basket","waste":"trash"}},"type":"Feature"},
	{"geometry":{"coordinates":[-0.686217,45.881345],"type":"Point"},"properties":{"osm_id":"5573575878","tag":{"amenity":"waste_basket","waste":"trash"}},"type":"Feature"},
	{"geometry":{"coordinates":[-0.683263,45.879642],"type":"Point"},"properties":{"osm_id":"5573575881","tag":{"amenity":"waste_basket","waste":"trash"}},"type":"Feature"},
	{"geometry":{"coordinates":[-0.683401,45.879738],"type":"Point"},"properties":{"osm_id":"5573575882","tag":{"amenity":"waste_basket","waste":"trash"}},"type":"Feature"},
	{"geometry":{"coordinates":[-0.683623,45.879874],"type":"Point"},"properties":{"osm_id":"5573575883","tag":{"amenity":"waste_basket","waste":"trash"}},"type":"Feature"},
	{"geometry":{"coordinates":[-0.683959,45.880028],"type":"Point"},"properties":{"osm_id":"5573575884","tag":{"amenity":"waste_basket","waste":"trash"}},"type":"Feature"},
	{"geometry":{"coordinates":[-0.684102,45.87974],"type":"Point"},"properties":{"osm_id":"5573575885","tag":{"amenity":"waste_basket","waste":"trash"}},"type":"Feature"},
	{"geometry":{"coordinates":[-0.68588,45.879397],"type":"Point"},"properties":{"osm_id":"5573575886","tag":{"amenity":"waste_basket","waste":"trash"}},"type":"Feature"},
	{"geometry":{"coordinates":[-0.685848,45.879421],"type":"Point"},"properties":{"osm_id":"5573575887","tag":{"amenity":"waste_basket","waste":"trash"}},"type":"Feature"},
	{"geometry":{"coordinates":[-0.686679,45.87904],"type":"Point"},"properties":{"osm_id":"5573575888","tag":{"amenity":"waste_basket","waste":"trash"}},"type":"Feature"},
	{"geometry":{"coordinates":[-0.686233,45.878441],"type":"Point"},"properties":{"osm_id":"5573575889","tag":{"amenity":"waste_basket","waste":"trash"}},"type":"Feature"},
	{"geometry":{"coordinates":[-0.686546,45.878832],"type":"Point"},"properties":{"osm_id":"5573575890","tag":{"amenity":"waste_basket","waste":"trash"}},"type":"Feature"},
	{"geometry":{"coordinates":[-0.700675,45.846071],"type":"Point"},"properties":{"osm_id":"6709465126","tag":{"amenity":"recycling","recycling:glass":"yes","recycling:paper":"yes","recycling_type":"container"}},"type":"Feature"},
	{"geometry":{"coordinates":[-0.681004,45.877402],"type":"Point"},"properties":{"osm_id":"6710511248","tag":{"amenity":"waste_basket"}},"type":"Feature"},
	{"geometry":{"coordinates":[-0.685319,45.879853],"type":"Point"},"properties":{"osm_id":"7801600185","tag":{"amenity":"waste_basket","waste":"Poubelle de tri"}},"type":"Feature"},
	{"geometry":{"coordinates":[-0.668619,45.886463],"type":"Point"},"properties":{"osm_id":"7801611388","tag":{"amenity":"recycling"}},"type":"Feature"},
	{"geometry":{"coordinates":[-0.650049,45.835576],"type":"Point"},"properties":{"osm_id":"7829777146","tag":{"amenity":"waste_basket"}},"type":"Feature"},
	{"geometry":{"coordinates":[-0.64495,45.862159],"type":"Point"},"properties":{"osm_id":"7837612663","tag":{"amenity":"recycling","recycling:glass_bottles":"yes","recycling_type":"container"}},"type":"Feature"}
]
}
