{
"type": "FeatureCollection",
"lastupdate": "2020-08-05T00:00:00Z",
"features": [
	{"geometry":{"coordinates":[-0.624043,44.852498],"type":"Point"},"properties":{"osm_id":"364997484","tag":{"amenity":"recycling","recycling:cans":"no","recycling:glass":"no","recycling:glass_bottles":"yes","recycling_type":"container","ref:FR:CUB":"BC13"}},"type":"Feature"},
	{"geometry":{"coordinates":[-0.644262,44.863692],"type":"Point"},"properties":{"osm_id":"429656994","tag":{"amenity":"recycling","operator":"Bordeaux M\u00e9tropole","recycling:glass_bottles":"yes","recycling_type":"container","ref:FR:CUB":"EY28"}},"type":"Feature"},
	{"geometry":{"coordinates":[-0.640824,44.863285],"type":"Point"},"properties":{"osm_id":"429656996","tag":{"amenity":"recycling","operator":"Bordeaux M\u00e9tropole","recycling:glass_bottles":"yes","recycling_type":"container","ref:FR:CUB":"EY27"}},"type":"Feature"},
	{"geometry":{"coordinates":[-0.626529,44.850395],"type":"Point"},"properties":{"osm_id":"429843536","tag":{"amenity":"recycling","recycling:glass_bottles":"yes","recycling_type":"container","ref:FR:CUB":"BC40"}},"type":"Feature"},
	{"geometry":{"coordinates":[-0.626514,44.847387],"type":"Point"},"properties":{"osm_id":"429843559","tag":{"amenity":"recycling","recycling:glass_bottles":"yes","recycling_type":"container","ref:FR:CUB":"BC41"}},"type":"Feature"},
	{"geometry":{"coordinates":[-0.619357,44.875112],"type":"Point"},"properties":{"osm_id":"540247538","tag":{"amenity":"recycling","operator":"Bordeaux M\u00e9tropole","recycling:glass_bottles":"yes","recycling_type":"container","ref:FR:CUB":"BR07"}},"type":"Feature"},
	{"geometry":{"coordinates":[-0.616371,44.849598],"type":"Point"},"properties":{"osm_id":"603131454","tag":{"amenity":"recycling","recycling:glass_bottles":"yes","recycling_type":"container","ref:FR:CUB":"BC53"}},"type":"Feature"},
	{"geometry":{"coordinates":[-0.633528,44.880005],"type":"Point"},"properties":{"osm_id":"697094005","tag":{"amenity":"recycling","operator":"Bordeaux M\u00e9tropole","recycling:glass_bottles":"yes","recycling_type":"container","ref:FR:CUB":"EY16"}},"type":"Feature"},
	{"geometry":{"coordinates":[-0.633821,44.881748],"type":"Point"},"properties":{"osm_id":"697094040","tag":{"amenity":"recycling","operator":"Bordeaux M\u00e9tropole","recycling:glass_bottles":"yes","recycling_type":"container","ref:FR:CUB":"EY15"}},"type":"Feature"},
	{"geometry":{"coordinates":[-0.640133,44.877029],"type":"Point"},"properties":{"osm_id":"697094051","tag":{"amenity":"recycling","recycling:glass_bottles":"yes","recycling_type":"container","ref:FR:CUB":"EY19"}},"type":"Feature"},
	{"geometry":{"coordinates":[-0.636676,44.87992],"type":"Point"},"properties":{"osm_id":"697094060","tag":{"amenity":"recycling"}},"type":"Feature"},
	{"geometry":{"coordinates":[-0.636392,44.882906],"type":"Point"},"properties":{"osm_id":"697094077","tag":{"amenity":"recycling","operator":"Bordeaux M\u00e9tropole","recycling:glass_bottles":"yes","recycling_type":"container","ref:FR:CUB":"EY14"}},"type":"Feature"},
	{"geometry":{"coordinates":[-0.618405,44.867001],"type":"Point"},"properties":{"osm_id":"727449466","tag":{"amenity":"recycling","operator":"Bordeaux M\u00e9tropole","recycling:glass_bottles":"yes","recycling_type":"container","ref:FR:CUB":"LB34"}},"type":"Feature"},
	{"geometry":{"coordinates":[-0.619811,44.869957],"type":"Point"},"properties":{"osm_id":"727542232","tag":{"amenity":"recycling","operator":"Bordeaux M\u00e9tropole","recycling:glass_bottles":"yes","recycling_type":"container","ref:FR:CUB":"LB27"}},"type":"Feature"},
	{"geometry":{"coordinates":[-0.656665,44.850025],"type":"Point"},"properties":{"osm_id":"746328351","tag":{"amenity":"recycling","recycling:glass_bottles":"yes","recycling_type":"container","ref:FR:CUB":"ME98"}},"type":"Feature"},
	{"geometry":{"coordinates":[-0.658987,44.846336],"type":"Point"},"properties":{"osm_id":"746330296","tag":{"amenity":"recycling","recycling:glass_bottles":"yes","recycling_type":"container"}},"type":"Feature"},
	{"geometry":{"coordinates":[-0.65687,44.843665],"type":"Point"},"properties":{"osm_id":"746686365","tag":{"amenity":"recycling","operator":"Bordeaux M\u00e9tropole","recycling:glass_bottles":"yes","recycling_type":"container","ref:FR:CUB":"ME93"}},"type":"Feature"},
	{"geometry":{"coordinates":[-0.643646,44.847865],"type":"Point"},"properties":{"osm_id":"1253007017","tag":{"amenity":"recycling","operator":"Bordeaux M\u00e9tropole","recycling:glass_bottles":"yes","recycling_type":"container","ref:FR:CUB":"ME46"}},"type":"Feature"},
	{"geometry":{"coordinates":[-0.647828,44.878859],"type":"Point"},"properties":{"osm_id":"1258855288","tag":{"amenity":"recycling","operator":"Bordeaux M\u00e9tropole","recycling:glass_bottles":"yes","recycling_type":"container","ref:FR:CUB":"EY10"}},"type":"Feature"},
	{"geometry":{"coordinates":[-0.625285,44.853421],"type":"Point"},"properties":{"osm_id":"1720396064","tag":{"amenity":"recycling","recycling_type":"container"}},"type":"Feature"},
	{"geometry":{"coordinates":[-0.62412,44.852467],"type":"Point"},"properties":{"osm_id":"1720403898","tag":{"amenity":"waste_basket"}},"type":"Feature"},
	{"geometry":{"coordinates":[-0.632907,44.84451],"type":"Point"},"properties":{"osm_id":"2215107425","tag":{"amenity":"recycling","operator":"Bordeaux M\u00e9tropole","recycling:batteries":"no","recycling:books":"no","recycling:cans":"no","recycling:cardboard":"no","recycling:cartons":"no","recycling:clothes":"no","recycling:electrical_appliances":"no","recycling:glass_bottles":"yes","recycling:green_waste":"no","recycling:magazines":"no","recycling:newspaper":"no","recycling:paper":"no","recycling:paper_packaging":"no","recycling:plastic":"no","recycling:plastic_bottles":"no","recycling:plastic_packaging":"no","recycling:scrap_metal":"no","recycling:small_appliances":"no","recycling:waste":"no","recycling:wood":"no","recycling_type":"container","ref:FR:CUB":"ME38"}},"type":"Feature"},
	{"geometry":{"coordinates":[-0.636035,44.844537],"type":"Point"},"properties":{"osm_id":"2215108049","tag":{"amenity":"recycling","recycling:glass_bottles":"yes","recycling_type":"container"}},"type":"Feature"},
	{"geometry":{"coordinates":[-0.639152,44.845709],"type":"Point"},"properties":{"osm_id":"2930466505","tag":{"amenity":"recycling","operator":"Bordeaux M\u00e9tropole","recycling:glass_bottles":"yes","recycling_type":"container","ref:FR:CUB":"ME87"}},"type":"Feature"},
	{"geometry":{"coordinates":[-0.683224,44.845602],"type":"Point"},"properties":{"osm_id":"3146521975","tag":{"amenity":"recycling","recycling:glass_bottles":"yes","recycling_type":"container","ref:FR:CUB":"ME69"}},"type":"Feature"},
	{"geometry":{"coordinates":[-0.657787,44.889576],"type":"Point"},"properties":{"osm_id":"3277533948","tag":{"amenity":"recycling","recycling:glass_bottles":"yes","recycling_type":"container","ref:FR:CUB":"EY29"}},"type":"Feature"},
	{"geometry":{"coordinates":[-0.637258,44.870942],"type":"Point"},"properties":{"osm_id":"3277534064","tag":{"amenity":"recycling","recycling:glass_bottles":"yes","recycling_type":"container","ref:FR:CUB":"EY21"}},"type":"Feature"},
	{"geometry":{"coordinates":[-0.63404,44.873269],"type":"Point"},"properties":{"osm_id":"3277557808","tag":{"amenity":"recycling","recycling:glass_bottles":"yes","recycling_type":"container","ref:FR:CUB":"EY04"}},"type":"Feature"},
	{"geometry":{"coordinates":[-0.644618,44.884],"type":"Point"},"properties":{"osm_id":"3277566498","tag":{"amenity":"recycling","operator":"Bordeaux M\u00e9tropole","recycling:glass_bottles":"yes","recycling_type":"container","ref:FR:CUB":"EY12"}},"type":"Feature"},
	{"geometry":{"coordinates":[-0.636322,44.868973],"type":"Point"},"properties":{"osm_id":"3277593075","tag":{"amenity":"recycling","recycling:glass_bottles":"yes","recycling_type":"container","ref:FR:CUB":"EY24"}},"type":"Feature"},
	{"geometry":{"coordinates":[-0.648204,44.889415],"type":"Point"},"properties":{"osm_id":"3277615643","tag":{"amenity":"recycling","operator":"Bordeaux M\u00e9tropole","recycling:glass_bottles":"yes","recycling_type":"container","ref:FR:CUB":"EY07"}},"type":"Feature"},
	{"geometry":{"coordinates":[-0.667439,44.842567],"type":"Point"},"properties":{"osm_id":"3998691463","tag":{"amenity":"recycling","operator":"AMOS","recycling:clothes":"yes","recycling_type":"container"}},"type":"Feature"},
	{"geometry":{"coordinates":[-0.639378,44.844713],"type":"Point"},"properties":{"osm_id":"3998706622","tag":{"amenity":"recycling","operator":"AMOS","recycling:clothes":"yes","recycling_type":"container"}},"type":"Feature"},
	{"geometry":{"coordinates":[-0.643169,44.850933],"type":"Point"},"properties":{"osm_id":"3998708816","tag":{"amenity":"recycling","operator":"AMOS","recycling:clothes":"yes","recycling:glass_bottles":"yes","recycling_type":"container","ref:FR:CUB":"ME88"}},"type":"Feature"},
	{"geometry":{"coordinates":[-0.653082,44.859591],"type":"Point"},"properties":{"osm_id":"3998709577","tag":{"amenity":"recycling","operator":"AMOS","recycling:clothes":"yes","recycling_type":"container"}},"type":"Feature"},
	{"geometry":{"coordinates":[-0.645039,44.862065],"type":"Point"},"properties":{"osm_id":"3998713657","tag":{"amenity":"recycling","operator":"AMOS","recycling:clothes":"yes","recycling_type":"container"}},"type":"Feature"},
	{"geometry":{"coordinates":[-0.650884,44.847577],"type":"Point"},"properties":{"osm_id":"3998719279","tag":{"amenity":"recycling","operator":"AMOS","recycling:clothes":"yes","recycling_type":"container"}},"type":"Feature"},
	{"geometry":{"coordinates":[-0.651696,44.847887],"type":"Point"},"properties":{"osm_id":"3998719280","tag":{"amenity":"recycling","recycling:glass_bottles":"yes","recycling_type":"container","ref:FR:CUB":"ME58"}},"type":"Feature"},
	{"geometry":{"coordinates":[-0.615818,44.852789],"type":"Point"},"properties":{"osm_id":"3998720679","tag":{"amenity":"recycling","operator":"AMOS","recycling:clothes":"yes","recycling_type":"container"}},"type":"Feature"},
	{"geometry":{"coordinates":[-0.693657,44.874041],"type":"Point"},"properties":{"osm_id":"3998774674","tag":{"amenity":"recycling","recycling:glass_bottles":"yes","recycling_type":"container","ref:FR:CUB":"SM38"}},"type":"Feature"},
	{"geometry":{"coordinates":[-0.693673,44.874018],"type":"Point"},"properties":{"osm_id":"3998774675","tag":{"amenity":"recycling","operator":"AMOS","recycling:clothes":"yes","recycling_type":"container"}},"type":"Feature"},
	{"geometry":{"coordinates":[-0.68636,44.871393],"type":"Point"},"properties":{"osm_id":"4010814116","tag":{"amenity":"recycling"}},"type":"Feature"},
	{"geometry":{"coordinates":[-0.685905,44.871216],"type":"Point"},"properties":{"osm_id":"4010816394","tag":{"amenity":"recycling"}},"type":"Feature"},
	{"geometry":{"coordinates":[-0.685063,44.870946],"type":"Point"},"properties":{"osm_id":"4010822097","tag":{"amenity":"recycling"}},"type":"Feature"},
	{"geometry":{"coordinates":[-0.644201,44.872274],"type":"Point"},"properties":{"osm_id":"4019333821","tag":{"amenity":"recycling","recycling:glass_bottles":"yes","recycling_type":"container","ref:FR:CUB":"EY20"}},"type":"Feature"},
	{"geometry":{"coordinates":[-0.616993,44.871649],"type":"Point"},"properties":{"osm_id":"4073421098","tag":{"amenity":"recycling","recycling:glass_bottles":"yes","recycling_type":"container"}},"type":"Feature"},
	{"geometry":{"coordinates":[-0.618056,44.884703],"type":"Point"},"properties":{"osm_id":"4083024789","tag":{"amenity":"recycling","operator":"Bordeaux M\u00e9tropole","recycling:glass_bottles":"yes","recycling_type":"container","ref:FR:CUB":"BR05"}},"type":"Feature"},
	{"geometry":{"coordinates":[-0.64046,44.900129],"type":"Point"},"properties":{"osm_id":"4199308297","tag":{"amenity":"waste_basket"}},"type":"Feature"},
	{"geometry":{"coordinates":[-0.64405,44.899025],"type":"Point"},"properties":{"osm_id":"4199327840","tag":{"amenity":"waste_basket"}},"type":"Feature"},
	{"geometry":{"coordinates":[-0.646154,44.898899],"type":"Point"},"properties":{"osm_id":"4199327843","tag":{"amenity":"waste_basket"}},"type":"Feature"},
	{"geometry":{"coordinates":[-0.639672,44.844065],"type":"Point"},"properties":{"osm_id":"4262487378","tag":{"amenity":"recycling","recycling:glass_bottles":"yes","recycling_type":"container","ref:FR:CUB":"ME04"}},"type":"Feature"},
	{"geometry":{"coordinates":[-0.631757,44.8407],"type":"Point"},"properties":{"osm_id":"4665038998","tag":{"amenity":"recycling","recycling:glass_bottles":"yes","recycling_type":"container","ref:FR:CUB":"ME18"}},"type":"Feature"},
	{"geometry":{"coordinates":[-0.654484,44.844636],"type":"Point"},"properties":{"osm_id":"4736121780","tag":{"amenity":"waste_basket"}},"type":"Feature"},
	{"geometry":{"coordinates":[-0.656376,44.844453],"type":"Point"},"properties":{"osm_id":"4736121790","tag":{"amenity":"waste_basket"}},"type":"Feature"},
	{"geometry":{"coordinates":[-0.652409,44.844872],"type":"Point"},"properties":{"osm_id":"4736121914","tag":{"amenity":"recycling","recycling:glass_bottles":"yes","recycling_type":"container","ref:FR:CUB":"ME90"}},"type":"Feature"},
	{"geometry":{"coordinates":[-0.648479,44.84246],"type":"Point"},"properties":{"osm_id":"4736403870","tag":{"amenity":"recycling","location":"underground","recycling:glass_bottles":"yes","recycling_type":"container","ref:FR:CUB":"ME07"}},"type":"Feature"},
	{"geometry":{"coordinates":[-0.648989,44.841774],"type":"Point"},"properties":{"osm_id":"4736403877","tag":{"amenity":"waste_basket"}},"type":"Feature"},
	{"geometry":{"coordinates":[-0.646619,44.841579],"type":"Point"},"properties":{"osm_id":"4736403886","tag":{"amenity":"waste_basket"}},"type":"Feature"},
	{"geometry":{"coordinates":[-0.646284,44.841561],"type":"Point"},"properties":{"osm_id":"4736403903","tag":{"amenity":"waste_basket"}},"type":"Feature"},
	{"geometry":{"coordinates":[-0.647563,44.840597],"type":"Point"},"properties":{"osm_id":"4736410074","tag":{"amenity":"waste_basket"}},"type":"Feature"},
	{"geometry":{"coordinates":[-0.647302,44.84036],"type":"Point"},"properties":{"osm_id":"4736410077","tag":{"amenity":"waste_basket"}},"type":"Feature"},
	{"geometry":{"coordinates":[-0.65018,44.841655],"type":"Point"},"properties":{"osm_id":"4736410094","tag":{"amenity":"waste_basket"}},"type":"Feature"},
	{"geometry":{"coordinates":[-0.68319,44.844991],"type":"Point"},"properties":{"osm_id":"5597083654","tag":{"amenity":"waste_basket"}},"type":"Feature"},
	{"geometry":{"coordinates":[-0.68339,44.844994],"type":"Point"},"properties":{"osm_id":"5597083655","tag":{"amenity":"waste_basket"}},"type":"Feature"},
	{"geometry":{"coordinates":[-0.683345,44.845291],"type":"Point"},"properties":{"osm_id":"5597083657","tag":{"amenity":"waste_basket"}},"type":"Feature"},
	{"geometry":{"coordinates":[-0.682628,44.845187],"type":"Point"},"properties":{"osm_id":"5597083659","tag":{"amenity":"waste_basket"}},"type":"Feature"},
	{"geometry":{"coordinates":[-0.682386,44.845237],"type":"Point"},"properties":{"osm_id":"5597083682","tag":{"amenity":"recycling","recycling:clothes":"yes","recycling:glass_bottles":"yes","recycling_type":"container","ref:FR:CUB":"ME68"}},"type":"Feature"},
	{"geometry":{"coordinates":[-0.682351,44.845225],"type":"Point"},"properties":{"osm_id":"5597083683","tag":{"amenity":"recycling","recycling:glass_bottles":"yes","recycling_type":"container","ref:FR:CUB":"ME68"}},"type":"Feature"},
	{"geometry":{"coordinates":[-0.682206,44.845133],"type":"Point"},"properties":{"osm_id":"5597083684","tag":{"amenity":"waste_basket"}},"type":"Feature"},
	{"geometry":{"coordinates":[-0.682021,44.845098],"type":"Point"},"properties":{"osm_id":"5597083685","tag":{"amenity":"waste_basket"}},"type":"Feature"},
	{"geometry":{"coordinates":[-0.6821,44.845145],"type":"Point"},"properties":{"osm_id":"5597083686","tag":{"amenity":"waste_basket"}},"type":"Feature"},
	{"geometry":{"coordinates":[-0.682588,44.845758],"type":"Point"},"properties":{"osm_id":"5597083688","tag":{"amenity":"waste_basket"}},"type":"Feature"},
	{"geometry":{"coordinates":[-0.682239,44.846026],"type":"Point"},"properties":{"osm_id":"5597083690","tag":{"amenity":"waste_basket"}},"type":"Feature"},
	{"geometry":{"coordinates":[-0.682553,44.846541],"type":"Point"},"properties":{"osm_id":"5597083694","tag":{"amenity":"waste_basket"}},"type":"Feature"},
	{"geometry":{"coordinates":[-0.655643,44.864097],"type":"Point"},"properties":{"osm_id":"5801630609","tag":{"amenity":"recycling","recycling:glass_bottles":"yes","recycling_type":"container","ref:FR:CUB":"EY01"}},"type":"Feature"},
	{"geometry":{"coordinates":[-0.654083,44.841146],"type":"Point"},"properties":{"osm_id":"6419439611","tag":{"amenity":"waste_basket"}},"type":"Feature"},
	{"geometry":{"coordinates":[-0.657622,44.848118],"type":"Point"},"properties":{"osm_id":"6419457604","tag":{"amenity":"recycling","recycling:clothes":"yes","recycling_type":"container"}},"type":"Feature"},
	{"geometry":{"coordinates":[-0.643127,44.847403],"type":"Point"},"properties":{"osm_id":"6419516057","tag":{"amenity":"waste_basket"}},"type":"Feature"},
	{"geometry":{"coordinates":[-0.643151,44.847345],"type":"Point"},"properties":{"osm_id":"6419516058","tag":{"amenity":"waste_basket"}},"type":"Feature"},
	{"geometry":{"coordinates":[-0.658818,44.846813],"type":"Point"},"properties":{"osm_id":"6419549063","tag":{"amenity":"waste_basket"}},"type":"Feature"},
	{"geometry":{"coordinates":[-0.660048,44.845553],"type":"Point"},"properties":{"osm_id":"6419829931","tag":{"amenity":"waste_basket"}},"type":"Feature"},
	{"geometry":{"coordinates":[-0.658551,44.847218],"type":"Point"},"properties":{"osm_id":"6421554727","tag":{"amenity":"waste_basket"}},"type":"Feature"},
	{"geometry":{"coordinates":[-0.647832,44.885681],"type":"Point"},"properties":{"osm_id":"6873500656","tag":{"amenity":"waste_basket","material":"metal","operator":"Mairie d'Eysines"}},"type":"Feature"},
	{"geometry":{"coordinates":[-0.632801,44.883477],"type":"Point"},"properties":{"osm_id":"6992600578","tag":{"amenity":"recycling","recycling_type":"container"}},"type":"Feature"},
	{"geometry":{"coordinates":[-0.637714,44.890779],"type":"Point"},"properties":{"osm_id":"6995424350","tag":{"amenity":"waste_basket"}},"type":"Feature"},
	{"geometry":{"coordinates":[-0.626041,44.87471],"type":"Point"},"properties":{"osm_id":"6996255518","tag":{"amenity":"waste_basket"}},"type":"Feature"},
	{"geometry":{"coordinates":[-0.652668,44.881041],"type":"Point"},"properties":{"osm_id":"7005932398","tag":{"amenity":"waste_basket","colour":"red","material":"metal"}},"type":"Feature"},
	{"geometry":{"coordinates":[-0.65394,44.880505],"type":"Point"},"properties":{"osm_id":"7005932469","tag":{"amenity":"waste_basket","colour":"green"}},"type":"Feature"},
	{"geometry":{"coordinates":[-0.653793,44.879946],"type":"Point"},"properties":{"osm_id":"7005932472","tag":{"amenity":"waste_basket","colour":"green"}},"type":"Feature"},
	{"geometry":{"coordinates":[-0.654518,44.879997],"type":"Point"},"properties":{"osm_id":"7005932473","tag":{"amenity":"waste_basket","colour":"green"}},"type":"Feature"},
	{"geometry":{"coordinates":[-0.639879,44.86582],"type":"Point"},"properties":{"osm_id":"7015233801","tag":{"amenity":"recycling","operator":"Bordeaux M\u00e9tropole","recycling:glass_bottles":"yes","recycling_type":"container"}},"type":"Feature"},
	{"geometry":{"coordinates":[-0.621415,44.853575],"type":"Point"},"properties":{"osm_id":"7081974976","tag":{"amenity":"recycling","recycling:clothes":"yes","recycling_type":"container"}},"type":"Feature"},
	{"geometry":{"coordinates":[-0.633302,44.868264],"type":"Point"},"properties":{"osm_id":"7096452554","tag":{"amenity":"waste_basket"}},"type":"Feature"},
	{"geometry":{"coordinates":[-0.633318,44.868628],"type":"Point"},"properties":{"osm_id":"7096452555","tag":{"amenity":"recycling","recycling_type":"container"}},"type":"Feature"},
	{"geometry":{"coordinates":[-0.688756,44.846699],"type":"Point"},"properties":{"osm_id":"7111647441","tag":{"amenity":"recycling","recycling_type":"container","ref:FR:CUB":"ME117"}},"type":"Feature"},
	{"geometry":{"coordinates":[-0.651174,44.884315],"type":"Point"},"properties":{"osm_id":"7188612786","tag":{"amenity":"recycling","operator":"Bordeaux M\u00e9tropole","recycling:glass_bottles":"yes","recycling_type":"container"}},"type":"Feature"},
	{"geometry":{"coordinates":[-0.6362,44.879549],"type":"Point"},"properties":{"osm_id":"7249766554","tag":{"amenity":"waste_basket","material":"metal","operator":"Mairie d'Eysines"}},"type":"Feature"},
	{"geometry":{"coordinates":[-0.640694,44.880885],"type":"Point"},"properties":{"osm_id":"7249766561","tag":{"amenity":"waste_basket","material":"metal","operator":"Mairied'Eysines"}},"type":"Feature"},
	{"geometry":{"coordinates":[-0.645616,44.882565],"type":"Point"},"properties":{"osm_id":"7249766562","tag":{"amenity":"waste_basket","material":"metal","operator":"Mairie d'Eysines"}},"type":"Feature"},
	{"geometry":{"coordinates":[-0.649499,44.883891],"type":"Point"},"properties":{"osm_id":"7249766563","tag":{"amenity":"waste_basket","material":"metal","operator":"Mairie d'Eysines"}},"type":"Feature"},
	{"geometry":{"coordinates":[-0.649485,44.883976],"type":"Point"},"properties":{"osm_id":"7249766570","tag":{"amenity":"waste_basket","material":"metal","operator":"Mairie d'Eysines"}},"type":"Feature"},
	{"geometry":{"coordinates":[-0.653609,44.884835],"type":"Point"},"properties":{"osm_id":"7249766571","tag":{"amenity":"waste_basket","material":"metal","operator":"Mairie d'Eysines"}},"type":"Feature"},
	{"geometry":{"coordinates":[-0.654676,44.885678],"type":"Point"},"properties":{"osm_id":"7249766572","tag":{"amenity":"waste_basket","material":"metal","operator":"Mairie d'Eysines"}},"type":"Feature"},
	{"geometry":{"coordinates":[-0.659123,44.887202],"type":"Point"},"properties":{"osm_id":"7249766573","tag":{"amenity":"waste_basket","material":"metal","operator":"Mairie d'Eysines"}},"type":"Feature"},
	{"geometry":{"coordinates":[-0.66618,44.890422],"type":"Point"},"properties":{"osm_id":"7249766574","tag":{"amenity":"waste_basket","material":"metal","operator":"Mairie d'Eysines"}},"type":"Feature"},
	{"geometry":{"coordinates":[-0.658206,44.889673],"type":"Point"},"properties":{"osm_id":"7249766575","tag":{"amenity":"waste_basket","material":"wood","operator":"Mairie d'Eysines"}},"type":"Feature"},
	{"geometry":{"coordinates":[-0.649957,44.884867],"type":"Point"},"properties":{"osm_id":"7251499656","tag":{"amenity":"waste_basket","material":"metalMairie_d'Eysines","operator":"Mairie d'Eysines"}},"type":"Feature"},
	{"geometry":{"coordinates":[-0.649763,44.884988],"type":"Point"},"properties":{"osm_id":"7251499657","tag":{"amenity":"waste_basket","material":"metalMairie_d'Eysines","operator":"Mairie d'Eysines"}},"type":"Feature"},
	{"geometry":{"coordinates":[-0.647038,44.885493],"type":"Point"},"properties":{"osm_id":"7251499663","tag":{"amenity":"waste_basket","material":"metal","operator":"Mairie d'Eysines"}},"type":"Feature"},
	{"geometry":{"coordinates":[-0.64744,44.885162],"type":"Point"},"properties":{"osm_id":"7251499665","tag":{"amenity":"waste_basket","material":"metal","operator":"Mairie d'Eysines"}},"type":"Feature"},
	{"geometry":{"coordinates":[-0.647334,44.884615],"type":"Point"},"properties":{"osm_id":"7251499666","tag":{"amenity":"waste_basket","material":"wood"}},"type":"Feature"}
]
}
