{
"type": "FeatureCollection",
"features": [
	{"geometry":{"coordinates":[-0.61614,44.796236],"type":"Point"},"properties":{"osm_id":"355151655","tag":{"amenity":"waste_basket","waste":"cigarettes"}},"type":"Feature"},
	{"geometry":{"coordinates":[-0.616246,44.796209],"type":"Point"},"properties":{"osm_id":"355151659","tag":{"amenity":"waste_basket","waste":"cigarettes"}},"type":"Feature"},
	{"geometry":{"coordinates":[-0.674125,44.794249],"type":"Point"},"properties":{"osm_id":"391503259","tag":{"amenity":"recycling","recycling:batteries":"no","recycling:cans":"no","recycling:clothes":"no","recycling:glass_bottles":"yes","recycling:paper":"no","recycling:scrap_metal":"no","recycling_type":"container","ref:FR:CUB":"PE55"}},"type":"Feature"},
	{"geometry":{"coordinates":[-0.664245,44.838387],"type":"Point"},"properties":{"osm_id":"746325304","tag":{"amenity":"recycling","operator":"Bordeaux M\u00c3\u00a9tropole","recycling:glass_bottles":"yes","recycling_type":"container","ref:FR:CUB":"ME56"}},"type":"Feature"},
	{"geometry":{"coordinates":[-0.657169,44.838937],"type":"Point"},"properties":{"osm_id":"746724133","tag":{"amenity":"recycling","operator":"Bordeaux M\u00c3\u00a9tropole","recycling:glass_bottles":"yes","recycling_type":"container","ref:FR:CUB":"ME55"}},"type":"Feature"},
	{"geometry":{"coordinates":[-0.668897,44.804344],"type":"Point"},"properties":{"osm_id":"748839572","tag":{"amenity":"recycling"}},"type":"Feature"},
	{"geometry":{"coordinates":[-0.670388,44.802204],"type":"Point"},"properties":{"osm_id":"748839595","tag":{"amenity":"recycling","recycling:glass_bottles":"yes","recycling_type":"container","ref:FR:CUB":"PE70"}},"type":"Feature"},
	{"geometry":{"coordinates":[-0.670431,44.801443],"type":"Point"},"properties":{"osm_id":"748839601","tag":{"amenity":"recycling"}},"type":"Feature"},
	{"geometry":{"coordinates":[-0.670492,44.800596],"type":"Point"},"properties":{"osm_id":"748839608","tag":{"amenity":"recycling","recycling:glass_bottles":"yes","recycling_type":"container","ref:FR:CUB":"PE27"}},"type":"Feature"},
	{"geometry":{"coordinates":[-0.674037,44.799944],"type":"Point"},"properties":{"osm_id":"748841527","tag":{"amenity":"recycling","recycling:clothes":"yes","recycling:glass":"no","recycling_type":"container"}},"type":"Feature"},
	{"geometry":{"coordinates":[-0.669256,44.802268],"type":"Point"},"properties":{"osm_id":"748841541","tag":{"amenity":"recycling","recycling:glass_bottles":"yes","recycling_type":"container","ref:FR:CUB":"PE70"}},"type":"Feature"},
	{"geometry":{"coordinates":[-0.66932,44.801393],"type":"Point"},"properties":{"osm_id":"748841545","tag":{"amenity":"recycling","recycling:glass_bottles":"yes","recycling_type":"container","ref:FR:CUB":"PE70"}},"type":"Feature"},
	{"geometry":{"coordinates":[-0.672027,44.798708],"type":"Point"},"properties":{"osm_id":"748841559","tag":{"amenity":"recycling","recycling:glass_bottles":"yes","recycling_type":"container","ref:FR:CUB":"PE52"}},"type":"Feature"},
	{"geometry":{"coordinates":[-0.67583,44.797883],"type":"Point"},"properties":{"osm_id":"748878979","tag":{"amenity":"recycling","recycling:glass_bottles":"yes","recycling_type":"container","ref:FR:CUB":"PE19"}},"type":"Feature"},
	{"geometry":{"coordinates":[-0.682628,44.794707],"type":"Point"},"properties":{"osm_id":"748929437","tag":{"amenity":"recycling","operator":"Bordeaux M\u00c3\u00a9tropole","recycling:glass_bottles":"yes","recycling_type":"container","ref:FR:CUB":"PE59"}},"type":"Feature"},
	{"geometry":{"coordinates":[-0.683993,44.798037],"type":"Point"},"properties":{"osm_id":"748978782","tag":{"amenity":"recycling","recycling:glass_bottles":"yes","recycling_type":"container","ref:FR:CUB":"PE58"}},"type":"Feature"},
	{"geometry":{"coordinates":[-0.627443,44.834926],"type":"Point"},"properties":{"osm_id":"761665485","tag":{"amenity":"recycling","operator":"Bordeaux M\u00c3\u00a9tropole","recycling:glass_bottles":"yes","recycling_type":"container","ref:FR:CUB":"ME78"}},"type":"Feature"},
	{"geometry":{"coordinates":[-0.636789,44.833515],"type":"Point"},"properties":{"osm_id":"761665486","tag":{"amenity":"recycling","operator":"Bordeaux M\u00c3\u00a9tropole","recycling:glass_bottles":"yes","recycling_type":"container","ref:FR:CUB":"ME82"}},"type":"Feature"},
	{"geometry":{"coordinates":[-0.641642,44.836262],"type":"Point"},"properties":{"osm_id":"761724910","tag":{"amenity":"recycling","operator":"Bordeaux M\u00c3\u00a9tropole","recycling:glass_bottles":"yes","recycling_type":"container","ref:FR:CUB":"ME19"}},"type":"Feature"},
	{"geometry":{"coordinates":[-0.638916,44.837147],"type":"Point"},"properties":{"osm_id":"761724941","tag":{"amenity":"recycling","operator":"Bordeaux M\u00c3\u00a9tropole","recycling:glass_bottles":"yes","recycling_type":"container","ref:FR:CUB":"ME84"}},"type":"Feature"},
	{"geometry":{"coordinates":[-0.682342,44.788071],"type":"Point"},"properties":{"osm_id":"766939420","tag":{"amenity":"recycling","operator":"Bordeaux M\u00c3\u00a9tropole","recycling:cans":"no","recycling:clothes":"no","recycling:glass_bottles":"yes","recycling:paper":"no","recycling_type":"container","ref:FR:CUB":"PE21"}},"type":"Feature"},
	{"geometry":{"coordinates":[-0.690015,44.788693],"type":"Point"},"properties":{"osm_id":"766939421","tag":{"amenity":"recycling","recycling:glass_bottles":"yes","recycling_type":"container","ref:FR:CUB":"PE60"}},"type":"Feature"},
	{"geometry":{"coordinates":[-0.651161,44.782274],"type":"Point"},"properties":{"osm_id":"806653143","tag":{"amenity":"recycling","recycling:glass_bottles":"yes","recycling_type":"container","ref:FR:CUB":"PE25"}},"type":"Feature"},
	{"geometry":{"coordinates":[-0.651655,44.782605],"type":"Point"},"properties":{"osm_id":"806653154","tag":{"amenity":"waste_basket"}},"type":"Feature"},
	{"geometry":{"coordinates":[-0.651767,44.782892],"type":"Point"},"properties":{"osm_id":"806653156","tag":{"amenity":"waste_basket"}},"type":"Feature"},
	{"geometry":{"coordinates":[-0.653125,44.782672],"type":"Point"},"properties":{"osm_id":"807644824","tag":{"amenity":"waste_basket"}},"type":"Feature"},
	{"geometry":{"coordinates":[-0.621368,44.814424],"type":"Point"},"properties":{"osm_id":"1308844784","tag":{"amenity":"recycling","operator":"Bordeaux M\u00c3\u00a9tropole","recycling:glass_bottles":"yes","recycling_type":"container","ref:FR:CUB":"PE03"}},"type":"Feature"},
	{"geometry":{"coordinates":[-0.632273,44.790169],"type":"Point"},"properties":{"osm_id":"2040304213","tag":{"amenity":"waste_basket"}},"type":"Feature"},
	{"geometry":{"coordinates":[-0.616968,44.803383],"type":"Point"},"properties":{"osm_id":"2794759821","tag":{"amenity":"recycling","operator":"Bordeaux M\u00c3\u00a9tropole","recycling:glass_bottles":"yes","recycling_type":"container","ref:FR:CUB":"PE81"}},"type":"Feature"},
	{"geometry":{"coordinates":[-0.62363,44.822389],"type":"Point"},"properties":{"osm_id":"2860002005","tag":{"amenity":"recycling","operator":"Bordeaux M\u00c3\u00a9tropole","recycling:glass_bottles":"yes","recycling_type":"container","ref:FR:CUB":"ME09"}},"type":"Feature"},
	{"geometry":{"coordinates":[-0.683967,44.797992],"type":"Point"},"properties":{"osm_id":"3676199892","tag":{"amenity":"recycling","operator":"Fringuette","recycling:clothes":"yes","recycling_type":"container"}},"type":"Feature"},
	{"geometry":{"coordinates":[-0.618998,44.837377],"type":"Point"},"properties":{"osm_id":"3682846962","tag":{"amenity":"recycling","recycling:glass_bottles":"yes","recycling_type":"container"}},"type":"Feature"},
	{"geometry":{"coordinates":[-0.61867,44.837446],"type":"Point"},"properties":{"osm_id":"3682846963","tag":{"amenity":"recycling","operator":"Le Relais","recycling:clothes":"yes","recycling:glass_bottles":"yes","recycling_type":"container","ref:FR:CUB":"ME02"}},"type":"Feature"},
	{"geometry":{"coordinates":[-0.656326,44.789537],"type":"Point"},"properties":{"osm_id":"3765374994","tag":{"amenity":"recycling","recycling:cans":"yes","recycling:paper":"yes","recycling:plastic":"yes","recycling_type":"container"}},"type":"Feature"},
	{"geometry":{"coordinates":[-0.655667,44.790985],"type":"Point"},"properties":{"osm_id":"3765374996","tag":{"amenity":"recycling","recycling:glass_bottles":"yes","recycling_type":"container","ref:FR:CUB":"PE49"}},"type":"Feature"},
	{"geometry":{"coordinates":[-0.619727,44.836015],"type":"Point"},"properties":{"osm_id":"3998655925","tag":{"amenity":"recycling","operator":"AMOS","recycling:clothes":"yes","recycling_type":"container"}},"type":"Feature"},
	{"geometry":{"coordinates":[-0.631035,44.832653],"type":"Point"},"properties":{"osm_id":"3998659169","tag":{"amenity":"recycling","operator":"AMOS","recycling:clothes":"yes","recycling:glass_bottles":"yes","recycling_type":"container","ref:FR:CUB":"ME16"}},"type":"Feature"},
	{"geometry":{"coordinates":[-0.636375,44.815541],"type":"Point"},"properties":{"osm_id":"3998660959","tag":{"amenity":"recycling","operator":"AMOS","recycling:clothes":"yes","recycling_type":"container"}},"type":"Feature"},
	{"geometry":{"coordinates":[-0.636342,44.815549],"type":"Point"},"properties":{"osm_id":"3998660960","tag":{"amenity":"recycling","recycling:glass_bottles":"yes","recycling_type":"container","ref:FR:CUB":"ME14"}},"type":"Feature"},
	{"geometry":{"coordinates":[-0.648464,44.817571],"type":"Point"},"properties":{"osm_id":"3998663457","tag":{"amenity":"recycling","operator":"AMOS","recycling:clothes":"yes","recycling:glass_bottles":"yes","recycling_type":"container","ref:FR:CUB":"ME81"}},"type":"Feature"},
	{"geometry":{"coordinates":[-0.699951,44.818279],"type":"Point"},"properties":{"osm_id":"3998675576","tag":{"amenity":"recycling","operator":"AMOS","recycling:clothes":"yes","recycling_type":"container"}},"type":"Feature"},
	{"geometry":{"coordinates":[-0.648731,44.827744],"type":"Point"},"properties":{"osm_id":"3998679720","tag":{"amenity":"recycling","operator":"AMOS","recycling:clothes":"yes","recycling_type":"container"}},"type":"Feature"},
	{"geometry":{"coordinates":[-0.648755,44.827709],"type":"Point"},"properties":{"osm_id":"3998679721","tag":{"amenity":"recycling","operator":"Bordeaux M\u00c3\u00a9tropole","recycling:glass_bottles":"yes","recycling_type":"container","ref:FR:CUB":"ME22"}},"type":"Feature"},
	{"geometry":{"coordinates":[-0.662901,44.82656],"type":"Point"},"properties":{"osm_id":"3998682346","tag":{"amenity":"recycling","operator":"AMOS","recycling:clothes":"yes","recycling:glass_bottles":"yes","recycling_type":"container","ref:FR:CUB":"ME102"}},"type":"Feature"},
	{"geometry":{"coordinates":[-0.672448,44.833656],"type":"Point"},"properties":{"osm_id":"3998687232","tag":{"amenity":"recycling","operator":"AMOS","recycling:clothes":"yes","recycling_type":"container"}},"type":"Feature"},
	{"geometry":{"coordinates":[-0.622291,44.828617],"type":"Point"},"properties":{"osm_id":"3998696259","tag":{"amenity":"recycling","recycling:glass_bottles":"yes","recycling_type":"container","ref:FR:CUB":"ME08"}},"type":"Feature"},
	{"geometry":{"coordinates":[-0.622254,44.828612],"type":"Point"},"properties":{"osm_id":"3998696260","tag":{"amenity":"recycling","operator":"AMOS","recycling:clothes":"yes","recycling:glass_bottles":"yes","recycling_type":"container","ref:FR:CUB":"ME08"}},"type":"Feature"},
	{"geometry":{"coordinates":[-0.647946,44.840177],"type":"Point"},"properties":{"osm_id":"3998699950","tag":{"amenity":"recycling","operator":"AMOS","recycling:clothes":"yes","recycling_type":"container"}},"type":"Feature"},
	{"geometry":{"coordinates":[-0.648622,44.837032],"type":"Point"},"properties":{"osm_id":"3998704105","tag":{"amenity":"recycling","operator":"AMOS","recycling:clothes":"yes","recycling_type":"container"}},"type":"Feature"},
	{"geometry":{"coordinates":[-0.648656,44.837036],"type":"Point"},"properties":{"osm_id":"3998704106","tag":{"amenity":"recycling","recycling:glass_bottles":"yes","recycling_type":"container","ref:FR:CUB":"ME50"}},"type":"Feature"},
	{"geometry":{"coordinates":[-0.641622,44.836231],"type":"Point"},"properties":{"osm_id":"3998706751","tag":{"amenity":"recycling","operator":"AMOS","recycling:clothes":"yes","recycling_type":"container"}},"type":"Feature"},
	{"geometry":{"coordinates":[-0.674033,44.799971],"type":"Point"},"properties":{"osm_id":"4003791580","tag":{"amenity":"recycling","recycling:glass_bottles":"yes","recycling_type":"container","ref:FR:CUB":"PE54"}},"type":"Feature"},
	{"geometry":{"coordinates":[-0.629042,44.839578],"type":"Point"},"properties":{"osm_id":"4056207590","tag":{"amenity":"recycling","recycling:glass_bottles":"yes","recycling_type":"container","ref:FR:CUB":"ME17"}},"type":"Feature"},
	{"geometry":{"coordinates":[-0.67924,44.797911],"type":"Point"},"properties":{"osm_id":"4185920343","tag":{"amenity":"recycling","recycling:glass_bottles":"yes","recycling_type":"container","ref:FR:CUB":"PE57"}},"type":"Feature"},
	{"geometry":{"coordinates":[-0.63576,44.788918],"type":"Point"},"properties":{"osm_id":"4289900495","tag":{"amenity":"recycling","recycling:glass_bottles":"yes","recycling_type":"container","ref:FR:CUB":"PE45"}},"type":"Feature"},
	{"geometry":{"coordinates":[-0.616646,44.780342],"type":"Point"},"properties":{"osm_id":"4300084522","tag":{"amenity":"recycling","recycling:glass_bottles":"yes","recycling_type":"container","ref:FR:CUB":"GR04"}},"type":"Feature"},
	{"geometry":{"coordinates":[-0.61733,44.795401],"type":"Point"},"properties":{"osm_id":"4380541555","tag":{"amenity":"waste_basket"}},"type":"Feature"},
	{"geometry":{"coordinates":[-0.617653,44.794611],"type":"Point"},"properties":{"osm_id":"4380554929","tag":{"amenity":"waste_basket"}},"type":"Feature"},
	{"geometry":{"coordinates":[-0.61755,44.795381],"type":"Point"},"properties":{"osm_id":"4380558671","tag":{"amenity":"waste_basket"}},"type":"Feature"},
	{"geometry":{"coordinates":[-0.616551,44.794167],"type":"Point"},"properties":{"osm_id":"4380559106","tag":{"amenity":"waste_basket"}},"type":"Feature"},
	{"geometry":{"coordinates":[-0.616811,44.794356],"type":"Point"},"properties":{"osm_id":"4380559238","tag":{"amenity":"waste_basket"}},"type":"Feature"},
	{"geometry":{"coordinates":[-0.616357,44.794635],"type":"Point"},"properties":{"name":"waite disposal","osm_id":"4380559305","tag":{"amenity":"waste_disposal"}},"type":"Feature"},
	{"geometry":{"coordinates":[-0.616464,44.79484],"type":"Point"},"properties":{"osm_id":"4380560449","tag":{"amenity":"waste_basket"}},"type":"Feature"},
	{"geometry":{"coordinates":[-0.616045,44.796702],"type":"Point"},"properties":{"osm_id":"4436381209","tag":{"amenity":"waste_basket"}},"type":"Feature"},
	{"geometry":{"coordinates":[-0.617684,44.799933],"type":"Point"},"properties":{"osm_id":"4446078917","tag":{"amenity":"waste_basket"}},"type":"Feature"},
	{"geometry":{"coordinates":[-0.616785,44.8003],"type":"Point"},"properties":{"osm_id":"4446078918","tag":{"amenity":"waste_basket"}},"type":"Feature"},
	{"geometry":{"coordinates":[-0.616828,44.800197],"type":"Point"},"properties":{"osm_id":"4446078919","tag":{"amenity":"waste_basket"}},"type":"Feature"},
	{"geometry":{"coordinates":[-0.618201,44.79959],"type":"Point"},"properties":{"osm_id":"4446078924","tag":{"amenity":"waste_basket"}},"type":"Feature"},
	{"geometry":{"coordinates":[-0.619396,44.806023],"type":"Point"},"properties":{"osm_id":"4699173687","tag":{"amenity":"waste_basket"}},"type":"Feature"},
	{"geometry":{"coordinates":[-0.666305,44.83156],"type":"Point"},"properties":{"osm_id":"4727942554","tag":{"amenity":"waste_basket"}},"type":"Feature"},
	{"geometry":{"coordinates":[-0.632869,44.805074],"type":"Point"},"properties":{"osm_id":"4728572326","tag":{"amenity":"recycling","operator":"Secours Catholique","recycling:clothes":"yes","recycling:shoes":"yes","recycling:textiles":"yes","recycling_type":"container"}},"type":"Feature"},
	{"geometry":{"coordinates":[-0.632889,44.805105],"type":"Point"},"properties":{"osm_id":"4728572327","tag":{"amenity":"recycling","location":"underground","recycling:glass_bottles":"yes","recycling_type":"container","ref:FR:CUB":"PE112"}},"type":"Feature"},
	{"geometry":{"coordinates":[-0.615316,44.794056],"type":"Point"},"properties":{"osm_id":"4731370763","tag":{"amenity":"waste_basket"}},"type":"Feature"},
	{"geometry":{"coordinates":[-0.620183,44.797769],"type":"Point"},"properties":{"osm_id":"4731370767","tag":{"amenity":"recycling","location":"overground","material":"plastic","recycling:glass_bottles":"yes","recycling_type":"container","ref:FR:CUB":"PE34","source:ref":"Bordeaux M\u00c3\u00a9tropole - 08/2016","survey:date":"2018-06-02"}},"type":"Feature"},
	{"geometry":{"coordinates":[-0.634975,44.795107],"type":"Point"},"properties":{"osm_id":"4731370804","tag":{"amenity":"waste_basket"}},"type":"Feature"},
	{"geometry":{"coordinates":[-0.635228,44.796764],"type":"Point"},"properties":{"osm_id":"4731370805","tag":{"amenity":"waste_basket"}},"type":"Feature"},
	{"geometry":{"coordinates":[-0.634839,44.800366],"type":"Point"},"properties":{"osm_id":"4731373347","tag":{"amenity":"waste_basket"}},"type":"Feature"},
	{"geometry":{"coordinates":[-0.634823,44.800251],"type":"Point"},"properties":{"osm_id":"4731373349","tag":{"amenity":"waste_basket"}},"type":"Feature"},
	{"geometry":{"coordinates":[-0.634689,44.800263],"type":"Point"},"properties":{"osm_id":"4731373353","tag":{"amenity":"waste_basket"}},"type":"Feature"},
	{"geometry":{"coordinates":[-0.63471,44.800374],"type":"Point"},"properties":{"osm_id":"4731373354","tag":{"amenity":"waste_basket"}},"type":"Feature"},
	{"geometry":{"coordinates":[-0.630066,44.802874],"type":"Point"},"properties":{"osm_id":"4731385318","tag":{"amenity":"waste_basket"}},"type":"Feature"},
	{"geometry":{"coordinates":[-0.630188,44.803117],"type":"Point"},"properties":{"osm_id":"4731385623","tag":{"amenity":"waste_basket"}},"type":"Feature"},
	{"geometry":{"coordinates":[-0.631766,44.803906],"type":"Point"},"properties":{"osm_id":"4731386422","tag":{"amenity":"waste_basket"}},"type":"Feature"},
	{"geometry":{"coordinates":[-0.631863,44.804188],"type":"Point"},"properties":{"osm_id":"4731386427","tag":{"amenity":"waste_basket"}},"type":"Feature"},
	{"geometry":{"coordinates":[-0.64763,44.840247],"type":"Point"},"properties":{"osm_id":"4736410080","tag":{"amenity":"waste_basket"}},"type":"Feature"},
	{"geometry":{"coordinates":[-0.636733,44.808579],"type":"Point"},"properties":{"osm_id":"4816084954","tag":{"amenity":"recycling","recycling:glass_bottles":"yes","recycling_type":"container","ref:FR:CUB":"PE65"}},"type":"Feature"},
	{"geometry":{"coordinates":[-0.632202,44.806862],"type":"Point"},"properties":{"osm_id":"4816084955","tag":{"amenity":"recycling","recycling:glass_bottles":"yes","recycling_type":"container","ref:FR:CUB":"PE111"}},"type":"Feature"},
	{"geometry":{"coordinates":[-0.631207,44.806631],"type":"Point"},"properties":{"osm_id":"4816644522","tag":{"amenity":"waste_basket"}},"type":"Feature"},
	{"geometry":{"coordinates":[-0.63073,44.808072],"type":"Point"},"properties":{"osm_id":"4816644532","tag":{"amenity":"waste_basket"}},"type":"Feature"},
	{"geometry":{"coordinates":[-0.63119,44.807452],"type":"Point"},"properties":{"osm_id":"4816644536","tag":{"amenity":"waste_basket"}},"type":"Feature"},
	{"geometry":{"coordinates":[-0.631099,44.807234],"type":"Point"},"properties":{"osm_id":"4816644540","tag":{"amenity":"waste_basket"}},"type":"Feature"},
	{"geometry":{"coordinates":[-0.631277,44.807089],"type":"Point"},"properties":{"osm_id":"4816644545","tag":{"amenity":"waste_basket"}},"type":"Feature"},
	{"geometry":{"coordinates":[-0.630991,44.805811],"type":"Point"},"properties":{"osm_id":"4816644547","tag":{"amenity":"waste_basket"}},"type":"Feature"},
	{"geometry":{"coordinates":[-0.630885,44.806069],"type":"Point"},"properties":{"osm_id":"4816644552","tag":{"amenity":"waste_basket"}},"type":"Feature"},
	{"geometry":{"coordinates":[-0.631146,44.806297],"type":"Point"},"properties":{"osm_id":"4816644553","tag":{"amenity":"waste_basket"}},"type":"Feature"},
	{"geometry":{"coordinates":[-0.63091,44.80555],"type":"Point"},"properties":{"osm_id":"4816644555","tag":{"amenity":"waste_basket"}},"type":"Feature"},
	{"geometry":{"coordinates":[-0.638414,44.805411],"type":"Point"},"properties":{"osm_id":"4819033040","tag":{"amenity":"recycling","recycling:glass_bottles":"yes","recycling_type":"container","ref:FR:CUB":"PE88"}},"type":"Feature"},
	{"geometry":{"coordinates":[-0.636602,44.789613],"type":"Point"},"properties":{"osm_id":"4819033041","tag":{"amenity":"recycling","recycling:glass_bottles":"yes","recycling_type":"container","ref:FR:CUB":"PE73"}},"type":"Feature"},
	{"geometry":{"coordinates":[-0.631482,44.803672],"type":"Point"},"properties":{"osm_id":"4830959595","tag":{"amenity":"waste_basket"}},"type":"Feature"},
	{"geometry":{"coordinates":[-0.630734,44.803636],"type":"Point"},"properties":{"osm_id":"4830959596","tag":{"amenity":"waste_basket"}},"type":"Feature"},
	{"geometry":{"coordinates":[-0.630855,44.803274],"type":"Point"},"properties":{"osm_id":"4830959597","tag":{"amenity":"waste_basket"}},"type":"Feature"},
	{"geometry":{"coordinates":[-0.630235,44.80327],"type":"Point"},"properties":{"osm_id":"4830959599","tag":{"amenity":"waste_basket"}},"type":"Feature"},
	{"geometry":{"coordinates":[-0.630659,44.802854],"type":"Point"},"properties":{"osm_id":"4830959600","tag":{"amenity":"waste_basket"}},"type":"Feature"},
	{"geometry":{"coordinates":[-0.631298,44.802804],"type":"Point"},"properties":{"osm_id":"4830959608","tag":{"amenity":"waste_basket"}},"type":"Feature"},
	{"geometry":{"coordinates":[-0.631498,44.802789],"type":"Point"},"properties":{"osm_id":"4830959614","tag":{"amenity":"waste_basket"}},"type":"Feature"},
	{"geometry":{"coordinates":[-0.633298,44.802224],"type":"Point"},"properties":{"osm_id":"4830959921","tag":{"amenity":"waste_basket"}},"type":"Feature"},
	{"geometry":{"coordinates":[-0.633604,44.802187],"type":"Point"},"properties":{"osm_id":"4830959922","tag":{"amenity":"waste_basket"}},"type":"Feature"},
	{"geometry":{"coordinates":[-0.633095,44.802767],"type":"Point"},"properties":{"osm_id":"4830959925","tag":{"amenity":"recycling","recycling:clothes":"yes","recycling_type":"container"}},"type":"Feature"},
	{"geometry":{"coordinates":[-0.63196,44.803394],"type":"Point"},"properties":{"osm_id":"4830959927","tag":{"amenity":"waste_basket"}},"type":"Feature"},
	{"geometry":{"coordinates":[-0.631403,44.803352],"type":"Point"},"properties":{"osm_id":"4830959928","tag":{"amenity":"waste_basket"}},"type":"Feature"},
	{"geometry":{"coordinates":[-0.631721,44.803174],"type":"Point"},"properties":{"osm_id":"4830959930","tag":{"amenity":"waste_basket"}},"type":"Feature"},
	{"geometry":{"coordinates":[-0.630891,44.805198],"type":"Point"},"properties":{"osm_id":"4830959932","tag":{"amenity":"waste_basket"}},"type":"Feature"},
	{"geometry":{"coordinates":[-0.630629,44.805552],"type":"Point"},"properties":{"osm_id":"4830959937","tag":{"amenity":"waste_basket"}},"type":"Feature"},
	{"geometry":{"coordinates":[-0.630648,44.806168],"type":"Point"},"properties":{"osm_id":"4830959939","tag":{"amenity":"waste_basket"}},"type":"Feature"},
	{"geometry":{"coordinates":[-0.632297,44.807702],"type":"Point"},"properties":{"osm_id":"4830959944","tag":{"amenity":"waste_basket"}},"type":"Feature"},
	{"geometry":{"coordinates":[-0.629724,44.805436],"type":"Point"},"properties":{"osm_id":"4830976852","tag":{"amenity":"waste_basket"}},"type":"Feature"},
	{"geometry":{"coordinates":[-0.630172,44.805538],"type":"Point"},"properties":{"osm_id":"4830976853","tag":{"amenity":"waste_basket"}},"type":"Feature"},
	{"geometry":{"coordinates":[-0.631233,44.802046],"type":"Point"},"properties":{"osm_id":"4830978216","tag":{"amenity":"waste_basket"}},"type":"Feature"},
	{"geometry":{"coordinates":[-0.631564,44.80458],"type":"Point"},"properties":{"osm_id":"4840317157","tag":{"amenity":"waste_basket"}},"type":"Feature"},
	{"geometry":{"coordinates":[-0.631753,44.804517],"type":"Point"},"properties":{"osm_id":"4840317160","tag":{"amenity":"waste_basket"}},"type":"Feature"},
	{"geometry":{"coordinates":[-0.631745,44.80608],"type":"Point"},"properties":{"osm_id":"4840317162","tag":{"amenity":"waste_basket"}},"type":"Feature"},
	{"geometry":{"coordinates":[-0.638891,44.812041],"type":"Point"},"properties":{"osm_id":"4840317163","tag":{"amenity":"recycling","recycling:glass_bottles":"yes","recycling_type":"container","ref:FR:CUB":"PE06"}},"type":"Feature"},
	{"geometry":{"coordinates":[-0.635862,44.82247],"type":"Point"},"properties":{"osm_id":"4840317164","tag":{"amenity":"recycling","recycling:glass_bottles":"yes","recycling_type":"container","ref:FR:CUB":"ME28"}},"type":"Feature"},
	{"geometry":{"coordinates":[-0.632695,44.80428],"type":"Point"},"properties":{"osm_id":"4840317184","tag":{"amenity":"waste_basket"}},"type":"Feature"},
	{"geometry":{"coordinates":[-0.632625,44.804186],"type":"Point"},"properties":{"osm_id":"4840317185","tag":{"amenity":"waste_basket"}},"type":"Feature"},
	{"geometry":{"coordinates":[-0.632648,44.804554],"type":"Point"},"properties":{"osm_id":"4840317187","tag":{"amenity":"waste_basket"}},"type":"Feature"},
	{"geometry":{"coordinates":[-0.632319,44.804299],"type":"Point"},"properties":{"osm_id":"4840317189","tag":{"amenity":"waste_basket"}},"type":"Feature"},
	{"geometry":{"coordinates":[-0.632408,44.804388],"type":"Point"},"properties":{"osm_id":"4840317191","tag":{"amenity":"waste_basket"}},"type":"Feature"},
	{"geometry":{"coordinates":[-0.632046,44.804446],"type":"Point"},"properties":{"osm_id":"4840317196","tag":{"amenity":"waste_basket"}},"type":"Feature"},
	{"geometry":{"coordinates":[-0.631831,44.804548],"type":"Point"},"properties":{"osm_id":"4840317197","tag":{"amenity":"waste_basket"}},"type":"Feature"},
	{"geometry":{"coordinates":[-0.631801,44.804791],"type":"Point"},"properties":{"osm_id":"4840317198","tag":{"amenity":"waste_basket"}},"type":"Feature"},
	{"geometry":{"coordinates":[-0.635657,44.805739],"type":"Point"},"properties":{"osm_id":"4840358649","tag":{"amenity":"recycling","operator":"Secours Populaire Pessac","recycling:clothes":"yes","recycling_type":"container"}},"type":"Feature"},
	{"geometry":{"coordinates":[-0.633477,44.806072],"type":"Point"},"properties":{"osm_id":"4840358650","tag":{"amenity":"waste_basket"}},"type":"Feature"},
	{"geometry":{"coordinates":[-0.630447,44.808609],"type":"Point"},"properties":{"osm_id":"4840358654","tag":{"amenity":"waste_basket"}},"type":"Feature"},
	{"geometry":{"coordinates":[-0.629448,44.808853],"type":"Point"},"properties":{"osm_id":"4840358656","tag":{"amenity":"waste_basket"}},"type":"Feature"},
	{"geometry":{"coordinates":[-0.62893,44.808836],"type":"Point"},"properties":{"osm_id":"4840358657","tag":{"amenity":"waste_basket"}},"type":"Feature"},
	{"geometry":{"coordinates":[-0.619635,44.811086],"type":"Point"},"properties":{"osm_id":"4840358667","tag":{"amenity":"recycling","recycling:glass_bottles":"yes","recycling_type":"container","ref:FR:CUB":"PE04"}},"type":"Feature"},
	{"geometry":{"coordinates":[-0.655243,44.805266],"type":"Point"},"properties":{"osm_id":"4840766201","tag":{"amenity":"recycling","recycling:glass_bottles":"yes","recycling_type":"container","ref:FR:CUB":"PE64"}},"type":"Feature"},
	{"geometry":{"coordinates":[-0.627701,44.811784],"type":"Point"},"properties":{"osm_id":"4841871691","tag":{"amenity":"recycling","recycling:glass_bottles":"yes","recycling_type":"container","ref:FR:CUB":"PE66"}},"type":"Feature"},
	{"geometry":{"coordinates":[-0.627584,44.811771],"type":"Point"},"properties":{"osm_id":"4841871692","tag":{"amenity":"recycling","operator":"Le Relais","recycling:clothes":"yes","recycling_type":"container"}},"type":"Feature"},
	{"geometry":{"coordinates":[-0.685888,44.803544],"type":"Point"},"properties":{"osm_id":"4841871695","tag":{"amenity":"waste_basket"}},"type":"Feature"},
	{"geometry":{"coordinates":[-0.625871,44.804287],"type":"Point"},"properties":{"osm_id":"4841879558","tag":{"amenity":"waste_basket"}},"type":"Feature"},
	{"geometry":{"coordinates":[-0.625901,44.804462],"type":"Point"},"properties":{"osm_id":"4841879559","tag":{"amenity":"waste_basket"}},"type":"Feature"},
	{"geometry":{"coordinates":[-0.648772,44.804728],"type":"Point"},"properties":{"osm_id":"4841881895","tag":{"amenity":"waste_basket"}},"type":"Feature"},
	{"geometry":{"coordinates":[-0.64899,44.803502],"type":"Point"},"properties":{"osm_id":"4844008984","tag":{"amenity":"recycling","recycling:glass_bottles":"yes","recycling_type":"container","ref:FR:CUB":"PE90"}},"type":"Feature"},
	{"geometry":{"coordinates":[-0.625364,44.81086],"type":"Point"},"properties":{"osm_id":"4844009001","tag":{"amenity":"waste_basket"}},"type":"Feature"},
	{"geometry":{"coordinates":[-0.626822,44.793593],"type":"Point"},"properties":{"osm_id":"4847713405","tag":{"amenity":"waste_basket"}},"type":"Feature"},
	{"geometry":{"coordinates":[-0.627221,44.793299],"type":"Point"},"properties":{"osm_id":"4847713406","tag":{"amenity":"recycling","recycling:aluminium":"yes","recycling:beverage_cartons":"yes","recycling:cans":"yes","recycling:newspaper":"yes","recycling:paper":"yes","recycling:plastic_bottles":"yes","recycling:scrap_metal":"yes","recycling_type":"container"}},"type":"Feature"},
	{"geometry":{"coordinates":[-0.627219,44.793279],"type":"Point"},"properties":{"osm_id":"4847713407","tag":{"amenity":"waste_disposal"}},"type":"Feature"},
	{"geometry":{"coordinates":[-0.626926,44.791997],"type":"Point"},"properties":{"osm_id":"4847713408","tag":{"amenity":"recycling","recycling:glass_bottles":"yes","recycling_type":"container","ref:FR:CUB":"PE72"}},"type":"Feature"},
	{"geometry":{"coordinates":[-0.629142,44.794422],"type":"Point"},"properties":{"osm_id":"4847713409","tag":{"amenity":"waste_basket"}},"type":"Feature"},
	{"geometry":{"coordinates":[-0.631239,44.802297],"type":"Point"},"properties":{"osm_id":"4848490220","tag":{"amenity":"waste_basket"}},"type":"Feature"},
	{"geometry":{"coordinates":[-0.631465,44.802377],"type":"Point"},"properties":{"osm_id":"4848490922","tag":{"amenity":"waste_basket"}},"type":"Feature"},
	{"geometry":{"coordinates":[-0.623409,44.822086],"type":"Point"},"properties":{"osm_id":"4850264574","tag":{"amenity":"waste_basket"}},"type":"Feature"},
	{"geometry":{"coordinates":[-0.622829,44.822055],"type":"Point"},"properties":{"osm_id":"4850264580","tag":{"amenity":"waste_basket"}},"type":"Feature"},
	{"geometry":{"coordinates":[-0.624651,44.824154],"type":"Point"},"properties":{"osm_id":"4850264589","tag":{"amenity":"waste_basket"}},"type":"Feature"},
	{"geometry":{"coordinates":[-0.624662,44.824306],"type":"Point"},"properties":{"osm_id":"4850264590","tag":{"amenity":"waste_basket"}},"type":"Feature"},
	{"geometry":{"coordinates":[-0.631255,44.802782],"type":"Point"},"properties":{"osm_id":"4852192269","tag":{"amenity":"waste_basket"}},"type":"Feature"},
	{"geometry":{"coordinates":[-0.630852,44.803101],"type":"Point"},"properties":{"osm_id":"4852192272","tag":{"amenity":"waste_basket"}},"type":"Feature"},
	{"geometry":{"coordinates":[-0.616689,44.794778],"type":"Point"},"properties":{"osm_id":"4862011345","tag":{"amenity":"waste_basket"}},"type":"Feature"},
	{"geometry":{"coordinates":[-0.61717,44.796406],"type":"Point"},"properties":{"osm_id":"4862120550","tag":{"amenity":"waste_basket","waste":"cigarettes"}},"type":"Feature"},
	{"geometry":{"coordinates":[-0.617191,44.7964],"type":"Point"},"properties":{"osm_id":"4862185721","tag":{"amenity":"waste_basket"}},"type":"Feature"},
	{"geometry":{"coordinates":[-0.617124,44.796408],"type":"Point"},"properties":{"osm_id":"4862185722","tag":{"amenity":"waste_basket"}},"type":"Feature"},
	{"geometry":{"coordinates":[-0.623944,44.797518],"type":"Point"},"properties":{"osm_id":"4862236875","tag":{"amenity":"waste_basket"}},"type":"Feature"},
	{"geometry":{"coordinates":[-0.619042,44.796554],"type":"Point"},"properties":{"osm_id":"4862236878","tag":{"amenity":"waste_basket"}},"type":"Feature"},
	{"geometry":{"coordinates":[-0.618962,44.796152],"type":"Point"},"properties":{"osm_id":"4862236879","tag":{"amenity":"waste_basket"}},"type":"Feature"},
	{"geometry":{"coordinates":[-0.61853,44.796104],"type":"Point"},"properties":{"osm_id":"4862236880","tag":{"amenity":"waste_basket"}},"type":"Feature"},
	{"geometry":{"coordinates":[-0.619409,44.796591],"type":"Point"},"properties":{"osm_id":"4862236899","tag":{"amenity":"waste_basket"}},"type":"Feature"},
	{"geometry":{"coordinates":[-0.619364,44.79651],"type":"Point"},"properties":{"osm_id":"4862236900","tag":{"amenity":"waste_basket"}},"type":"Feature"},
	{"geometry":{"coordinates":[-0.619447,44.796603],"type":"Point"},"properties":{"osm_id":"4862236901","tag":{"amenity":"waste_basket"}},"type":"Feature"},
	{"geometry":{"coordinates":[-0.619379,44.79648],"type":"Point"},"properties":{"osm_id":"4862236902","tag":{"amenity":"waste_basket"}},"type":"Feature"},
	{"geometry":{"coordinates":[-0.617026,44.796472],"type":"Point"},"properties":{"osm_id":"4862292948","tag":{"amenity":"waste_basket","waste":"cigarettes"}},"type":"Feature"},
	{"geometry":{"coordinates":[-0.6167,44.796359],"type":"Point"},"properties":{"osm_id":"4862292950","tag":{"amenity":"waste_basket","waste":"cigarettes"}},"type":"Feature"},
	{"geometry":{"coordinates":[-0.617004,44.796061],"type":"Point"},"properties":{"osm_id":"4862292951","tag":{"amenity":"waste_basket","waste":"cigarettes"}},"type":"Feature"},
	{"geometry":{"coordinates":[-0.615969,44.796222],"type":"Point"},"properties":{"osm_id":"4862292954","tag":{"amenity":"waste_basket","waste":"cigarettes"}},"type":"Feature"},
	{"geometry":{"coordinates":[-0.617246,44.795853],"type":"Point"},"properties":{"osm_id":"4862292956","tag":{"amenity":"waste_basket","waste":"cigarettes"}},"type":"Feature"},
	{"geometry":{"coordinates":[-0.622186,44.781731],"type":"Point"},"properties":{"osm_id":"4864607385","tag":{"amenity":"recycling","recycling:glass_bottles":"yes","recycling_type":"container","ref:FR:CUB":"GR19"}},"type":"Feature"},
	{"geometry":{"coordinates":[-0.61742,44.793126],"type":"Point"},"properties":{"osm_id":"4928944047","tag":{"amenity":"recycling","recycling:glass_bottles":"yes","recycling_type":"container","ref:FR:CUB":"PE48"}},"type":"Feature"},
	{"geometry":{"coordinates":[-0.631943,44.797405],"type":"Point"},"properties":{"osm_id":"4928944056","tag":{"amenity":"recycling","recycling:clothes":"yes","recycling_type":"container"}},"type":"Feature"},
	{"geometry":{"coordinates":[-0.631914,44.797408],"type":"Point"},"properties":{"osm_id":"4928944057","tag":{"amenity":"recycling","recycling:glass_bottles":"yes","recycling_type":"container","ref:FR:CUB":"PE37"}},"type":"Feature"},
	{"geometry":{"coordinates":[-0.61831,44.80287],"type":"Point"},"properties":{"osm_id":"4957282853","tag":{"amenity":"waste_basket"}},"type":"Feature"},
	{"geometry":{"coordinates":[-0.627715,44.797099],"type":"Point"},"properties":{"osm_id":"4957282859","tag":{"amenity":"waste_basket"}},"type":"Feature"},
	{"geometry":{"coordinates":[-0.645813,44.787764],"type":"Point"},"properties":{"osm_id":"4959196777","tag":{"amenity":"recycling","recycling:glass_bottles":"yes","recycling_type":"container","ref:FR:CUB":"PE14"}},"type":"Feature"},
	{"geometry":{"coordinates":[-0.655255,44.805251],"type":"Point"},"properties":{"osm_id":"4962761670","tag":{"amenity":"recycling","recycling:clothes":"yes","recycling_type":"container"}},"type":"Feature"},
	{"geometry":{"coordinates":[-0.647423,44.797351],"type":"Point"},"properties":{"osm_id":"4962761672","tag":{"amenity":"recycling","recycling:glass_bottles":"yes","recycling_type":"container","ref:FR:CUB":"PE68"}},"type":"Feature"},
	{"geometry":{"coordinates":[-0.625768,44.793506],"type":"Point"},"properties":{"osm_id":"4970988739","tag":{"amenity":"waste_basket"}},"type":"Feature"},
	{"geometry":{"coordinates":[-0.627167,44.797684],"type":"Point"},"properties":{"osm_id":"4970988758","tag":{"amenity":"waste_basket"}},"type":"Feature"},
	{"geometry":{"coordinates":[-0.626752,44.798348],"type":"Point"},"properties":{"osm_id":"4970988761","tag":{"amenity":"waste_basket"}},"type":"Feature"},
	{"geometry":{"coordinates":[-0.616815,44.801489],"type":"Point"},"properties":{"osm_id":"4971037612","tag":{"amenity":"recycling","recycling:glass_bottles":"yes","recycling_type":"container","ref:FR:CUB":"PE02"}},"type":"Feature"},
	{"geometry":{"coordinates":[-0.641989,44.799281],"type":"Point"},"properties":{"osm_id":"4971066450","tag":{"amenity":"waste_basket"}},"type":"Feature"},
	{"geometry":{"coordinates":[-0.642385,44.798503],"type":"Point"},"properties":{"osm_id":"4971066454","tag":{"amenity":"waste_basket"}},"type":"Feature"},
	{"geometry":{"coordinates":[-0.643503,44.798846],"type":"Point"},"properties":{"osm_id":"4971066459","tag":{"amenity":"waste_basket"}},"type":"Feature"},
	{"geometry":{"coordinates":[-0.643328,44.798446],"type":"Point"},"properties":{"osm_id":"4971066463","tag":{"amenity":"waste_basket"}},"type":"Feature"},
	{"geometry":{"coordinates":[-0.643103,44.797782],"type":"Point"},"properties":{"osm_id":"4971066466","tag":{"amenity":"waste_basket"}},"type":"Feature"},
	{"geometry":{"coordinates":[-0.642303,44.797326],"type":"Point"},"properties":{"osm_id":"4971066471","tag":{"amenity":"waste_basket"}},"type":"Feature"},
	{"geometry":{"coordinates":[-0.641728,44.797275],"type":"Point"},"properties":{"osm_id":"4971066474","tag":{"amenity":"recycling","recycling:glass_bottles":"yes","recycling_type":"container","ref:FR:CUB":"PE31"}},"type":"Feature"},
	{"geometry":{"coordinates":[-0.635005,44.80079],"type":"Point"},"properties":{"osm_id":"4971066475","tag":{"amenity":"recycling","location":"underground","recycling:glass_bottles":"yes","recycling_type":"container","ref:FR:CUB":"PE79A"}},"type":"Feature"},
	{"geometry":{"coordinates":[-0.623027,44.804119],"type":"Point"},"properties":{"osm_id":"4974299404","tag":{"amenity":"waste_basket"}},"type":"Feature"},
	{"geometry":{"coordinates":[-0.623276,44.804106],"type":"Point"},"properties":{"osm_id":"4974299408","tag":{"amenity":"recycling","operator":"Association Fringuette","recycling:clothes":"yes","recycling:shoes":"yes","recycling:textiles":"yes","recycling_type":"container"}},"type":"Feature"},
	{"geometry":{"coordinates":[-0.650071,44.778973],"type":"Point"},"properties":{"osm_id":"4975751590","tag":{"amenity":"recycling","recycling:glass_bottles":"yes","recycling_type":"container","ref:FR:CUB":"PE35"}},"type":"Feature"},
	{"geometry":{"coordinates":[-0.673111,44.790891],"type":"Point"},"properties":{"osm_id":"4975751615","tag":{"amenity":"recycling","recycling:clothes":"yes","recycling_type":"container"}},"type":"Feature"},
	{"geometry":{"coordinates":[-0.673278,44.790755],"type":"Point"},"properties":{"osm_id":"4975751617","tag":{"amenity":"recycling","recycling:glass_bottles":"yes","recycling_type":"container","ref:FR:CUB":"PE86"}},"type":"Feature"},
	{"geometry":{"coordinates":[-0.690023,44.788727],"type":"Point"},"properties":{"osm_id":"4975752724","tag":{"amenity":"recycling","recycling:clothes":"yes","recycling_type":"container"}},"type":"Feature"},
	{"geometry":{"coordinates":[-0.689731,44.782898],"type":"Point"},"properties":{"osm_id":"4975752728","tag":{"amenity":"recycling","recycling:glass_bottles":"yes","recycling_type":"container","ref:FR:CUB":"PE22"}},"type":"Feature"},
	{"geometry":{"coordinates":[-0.663723,44.78516],"type":"Point"},"properties":{"osm_id":"4975799326","tag":{"amenity":"recycling","recycling:glass_bottles":"yes","recycling_type":"container","ref:FR:CUB":"PE50"}},"type":"Feature"},
	{"geometry":{"coordinates":[-0.624389,44.785093],"type":"Point"},"properties":{"osm_id":"4975799333","tag":{"amenity":"recycling","recycling:glass_bottles":"yes","recycling_type":"container","ref:FR:CUB":"GR38"}},"type":"Feature"},
	{"geometry":{"coordinates":[-0.629307,44.820427],"type":"Point"},"properties":{"osm_id":"4984995253","tag":{"amenity":"recycling","recycling:glass_bottles":"yes","recycling_type":"container","ref:FR:CUB":"ME12"}},"type":"Feature"},
	{"geometry":{"coordinates":[-0.619844,44.811096],"type":"Point"},"properties":{"osm_id":"4984995260","tag":{"amenity":"recycling","recycling:clothes":"yes","recycling_type":"container"}},"type":"Feature"},
	{"geometry":{"coordinates":[-0.620453,44.810983],"type":"Point"},"properties":{"osm_id":"4984995297","tag":{"amenity":"waste_basket"}},"type":"Feature"},
	{"geometry":{"coordinates":[-0.626849,44.804063],"type":"Point"},"properties":{"osm_id":"4998302831","tag":{"amenity":"recycling","recycling:glass_bottles":"yes","recycling_type":"container","ref:FR:CUB":"PE67"}},"type":"Feature"},
	{"geometry":{"coordinates":[-0.629777,44.791115],"type":"Point"},"properties":{"osm_id":"4998433795","tag":{"amenity":"recycling","recycling:glass_bottles":"yes","recycling_type":"container","ref:FR:CUB":"PE13"}},"type":"Feature"},
	{"geometry":{"coordinates":[-0.628097,44.790427],"type":"Point"},"properties":{"osm_id":"4998433797","tag":{"amenity":"recycling","recycling:glass_bottles":"yes","recycling_type":"container","ref:FR:CUB":"PE71"}},"type":"Feature"},
	{"geometry":{"coordinates":[-0.631053,44.790116],"type":"Point"},"properties":{"osm_id":"4998435525","tag":{"amenity":"recycling","recycling:clothes":"yes","recycling:shoes":"yes","recycling_type":"container"}},"type":"Feature"},
	{"geometry":{"coordinates":[-0.638696,44.790057],"type":"Point"},"properties":{"osm_id":"4998435529","tag":{"amenity":"recycling","recycling:glass_bottles":"yes","recycling_type":"container","ref:FR:CUB":"PE26"}},"type":"Feature"},
	{"geometry":{"coordinates":[-0.637392,44.791205],"type":"Point"},"properties":{"osm_id":"4998435532","tag":{"amenity":"recycling","recycling:glass_bottles":"yes","recycling_type":"container","ref:FR:CUB":"PE10"}},"type":"Feature"},
	{"geometry":{"coordinates":[-0.631251,44.791525],"type":"Point"},"properties":{"osm_id":"4998435539","tag":{"amenity":"recycling","recycling:glass_bottles":"yes","recycling_type":"container","ref:FR:CUB":"PE76"}},"type":"Feature"},
	{"geometry":{"coordinates":[-0.631515,44.792429],"type":"Point"},"properties":{"osm_id":"4998435541","tag":{"amenity":"recycling","recycling:glass_bottles":"yes","recycling_type":"container","ref:FR:CUB":"PE69"}},"type":"Feature"},
	{"geometry":{"coordinates":[-0.628754,44.792165],"type":"Point"},"properties":{"osm_id":"4998435542","tag":{"amenity":"recycling","recycling:glass_bottles":"yes","recycling_type":"container","ref:FR:CUB":"PE78"}},"type":"Feature"},
	{"geometry":{"coordinates":[-0.656878,44.806238],"type":"Point"},"properties":{"osm_id":"5012864210","tag":{"amenity":"recycling","recycling:glass_bottles":"yes","recycling_type":"container","ref:FR:CUB":"PE38"}},"type":"Feature"},
	{"geometry":{"coordinates":[-0.666689,44.833735],"type":"Point"},"properties":{"osm_id":"5018432094","tag":{"amenity":"waste_basket"}},"type":"Feature"},
	{"geometry":{"coordinates":[-0.666516,44.8338],"type":"Point"},"properties":{"osm_id":"5018432095","tag":{"amenity":"waste_basket"}},"type":"Feature"},
	{"geometry":{"coordinates":[-0.616413,44.7961],"type":"Point"},"properties":{"osm_id":"5055821662","tag":{"amenity":"waste_basket","waste":"cigarettes"}},"type":"Feature"},
	{"geometry":{"coordinates":[-0.616503,44.796077],"type":"Point"},"properties":{"osm_id":"5055821663","tag":{"amenity":"waste_basket","waste":"cigarettes"}},"type":"Feature"},
	{"geometry":{"coordinates":[-0.638587,44.78486],"type":"Point"},"properties":{"osm_id":"5126918992","tag":{"amenity":"waste_basket"}},"type":"Feature"},
	{"geometry":{"coordinates":[-0.638699,44.784993],"type":"Point"},"properties":{"osm_id":"5126919461","tag":{"amenity":"waste_basket"}},"type":"Feature"},
	{"geometry":{"coordinates":[-0.638477,44.784731],"type":"Point"},"properties":{"osm_id":"5126919463","tag":{"amenity":"waste_basket"}},"type":"Feature"},
	{"geometry":{"coordinates":[-0.636244,44.786432],"type":"Point"},"properties":{"osm_id":"5126919483","tag":{"amenity":"waste_basket"}},"type":"Feature"},
	{"geometry":{"coordinates":[-0.642173,44.799439],"type":"Point"},"properties":{"osm_id":"5126978216","tag":{"amenity":"waste_basket"}},"type":"Feature"},
	{"geometry":{"coordinates":[-0.631418,44.801705],"type":"Point"},"properties":{"osm_id":"5127034412","tag":{"amenity":"waste_basket"}},"type":"Feature"},
	{"geometry":{"coordinates":[-0.636089,44.786317],"type":"Point"},"properties":{"osm_id":"5141777691","tag":{"amenity":"waste_basket"}},"type":"Feature"},
	{"geometry":{"coordinates":[-0.635747,44.822269],"type":"Point"},"properties":{"osm_id":"5182111690","tag":{"amenity":"waste_basket"}},"type":"Feature"},
	{"geometry":{"coordinates":[-0.632807,44.805974],"type":"Point"},"properties":{"osm_id":"5182113891","tag":{"amenity":"waste_basket"}},"type":"Feature"},
	{"geometry":{"coordinates":[-0.632851,44.805864],"type":"Point"},"properties":{"osm_id":"5182113892","tag":{"amenity":"waste_basket"}},"type":"Feature"},
	{"geometry":{"coordinates":[-0.634001,44.811698],"type":"Point"},"properties":{"osm_id":"5195097849","tag":{"amenity":"recycling","recycling:glass_bottles":"yes","recycling_type":"container","ref:FR:CUB":"PE46"}},"type":"Feature"},
	{"geometry":{"coordinates":[-0.674822,44.798831],"type":"Point"},"properties":{"osm_id":"5215983646","tag":{"amenity":"recycling","location":"underground","recycling:cardboard":"yes","recycling:waste":"yes","recycling_type":"container"}},"type":"Feature"},
	{"geometry":{"coordinates":[-0.674942,44.799031],"type":"Point"},"properties":{"osm_id":"5215983647","tag":{"amenity":"recycling","location":"underground","recycling:cardboard":"yes","recycling:waste":"yes","recycling_type":"container"}},"type":"Feature"},
	{"geometry":{"coordinates":[-0.673792,44.799284],"type":"Point"},"properties":{"osm_id":"5215983648","tag":{"amenity":"recycling","location":"underground","recycling:cardboard":"yes","recycling:waste":"yes","recycling_type":"container"}},"type":"Feature"},
	{"geometry":{"coordinates":[-0.630262,44.803344],"type":"Point"},"properties":{"osm_id":"5221429182","tag":{"amenity":"waste_basket"}},"type":"Feature"},
	{"geometry":{"coordinates":[-0.631094,44.798659],"type":"Point"},"properties":{"osm_id":"5268026691","tag":{"amenity":"waste_basket"}},"type":"Feature"},
	{"geometry":{"coordinates":[-0.631143,44.79881],"type":"Point"},"properties":{"osm_id":"5268026693","tag":{"amenity":"waste_basket"}},"type":"Feature"},
	{"geometry":{"coordinates":[-0.631083,44.799142],"type":"Point"},"properties":{"osm_id":"5268026696","tag":{"amenity":"waste_basket"}},"type":"Feature"},
	{"geometry":{"coordinates":[-0.622512,44.792506],"type":"Point"},"properties":{"osm_id":"5279953187","tag":{"amenity":"recycling","recycling:glass_bottles":"yes","recycling_type":"container","ref:FR:CUB":"PE08"}},"type":"Feature"},
	{"geometry":{"coordinates":[-0.628541,44.791509],"type":"Point"},"properties":{"osm_id":"5290368321","tag":{"amenity":"recycling","recycling_type":"container"}},"type":"Feature"},
	{"geometry":{"coordinates":[-0.624447,44.824264],"type":"Point"},"properties":{"osm_id":"5443145617","tag":{"amenity":"waste_basket"}},"type":"Feature"},
	{"geometry":{"coordinates":[-0.624427,44.824496],"type":"Point"},"properties":{"osm_id":"5443145618","tag":{"amenity":"waste_basket"}},"type":"Feature"},
	{"geometry":{"coordinates":[-0.624383,44.824609],"type":"Point"},"properties":{"osm_id":"5443145619","tag":{"amenity":"waste_basket"}},"type":"Feature"},
	{"geometry":{"coordinates":[-0.650941,44.796263],"type":"Point"},"properties":{"osm_id":"5566302827","tag":{"amenity":"recycling","recycling:glass_bottles":"yes","recycling_type":"container","ref:FR:CUB":"PE12"}},"type":"Feature"},
	{"geometry":{"coordinates":[-0.625569,44.82608],"type":"Point"},"properties":{"osm_id":"5647581479","tag":{"amenity":"waste_basket"}},"type":"Feature"},
	{"geometry":{"coordinates":[-0.616738,44.820021],"type":"Point"},"properties":{"osm_id":"5647886740","tag":{"amenity":"waste_basket"}},"type":"Feature"},
	{"geometry":{"coordinates":[-0.624831,44.824742],"type":"Point"},"properties":{"osm_id":"5651452213","tag":{"amenity":"waste_basket"}},"type":"Feature"},
	{"geometry":{"coordinates":[-0.618664,44.794899],"type":"Point"},"properties":{"osm_id":"5658424184","tag":{"amenity":"waste_basket"}},"type":"Feature"},
	{"geometry":{"coordinates":[-0.619504,44.794695],"type":"Point"},"properties":{"osm_id":"5658424185","tag":{"amenity":"waste_basket"}},"type":"Feature"},
	{"geometry":{"coordinates":[-0.618531,44.795157],"type":"Point"},"properties":{"osm_id":"5666868020","tag":{"amenity":"waste_basket"}},"type":"Feature"},
	{"geometry":{"coordinates":[-0.617952,44.795232],"type":"Point"},"properties":{"osm_id":"5666869022","tag":{"amenity":"waste_basket"}},"type":"Feature"},
	{"geometry":{"coordinates":[-0.621794,44.81385],"type":"Point"},"properties":{"osm_id":"5702251039","tag":{"amenity":"recycling","recycling:clothes":"yes","recycling_type":"container"}},"type":"Feature"},
	{"geometry":{"coordinates":[-0.650125,44.796923],"type":"Point"},"properties":{"osm_id":"5715639096","tag":{"amenity":"recycling","recycling:glass_bottles":"yes","recycling_type":"container","ref:FR:CUB":"PE12"}},"type":"Feature"},
	{"geometry":{"coordinates":[-0.647839,44.796097],"type":"Point"},"properties":{"osm_id":"5715639098","tag":{"amenity":"recycling","recycling:glass_bottles":"yes","recycling_type":"container","ref:FR:CUB":"PE32"}},"type":"Feature"},
	{"geometry":{"coordinates":[-0.620363,44.795635],"type":"Point"},"properties":{"osm_id":"5722605296","tag":{"amenity":"waste_disposal"}},"type":"Feature"},
	{"geometry":{"coordinates":[-0.61644,44.795615],"type":"Point"},"properties":{"osm_id":"5732364229","tag":{"amenity":"waste_basket"}},"type":"Feature"},
	{"geometry":{"coordinates":[-0.618752,44.806001],"type":"Point"},"properties":{"osm_id":"5739001711","tag":{"amenity":"waste_basket"}},"type":"Feature"},
	{"geometry":{"coordinates":[-0.689617,44.780164],"type":"Point"},"properties":{"osm_id":"5745689094","tag":{"amenity":"waste_basket"}},"type":"Feature"},
	{"geometry":{"coordinates":[-0.619087,44.799029],"type":"Point"},"properties":{"osm_id":"5747908949","tag":{"amenity":"waste_basket"}},"type":"Feature"},
	{"geometry":{"coordinates":[-0.693252,44.780604],"type":"Point"},"properties":{"osm_id":"5813282852","tag":{"amenity":"recycling","recycling_type":"container"}},"type":"Feature"},
	{"geometry":{"coordinates":[-0.667974,44.79312],"type":"Point"},"properties":{"osm_id":"5838367929","tag":{"amenity":"recycling","recycling:glass_bottles":"yes","recycling_type":"container","ref:FR:CUB":"PE40"}},"type":"Feature"},
	{"geometry":{"coordinates":[-0.664346,44.794728],"type":"Point"},"properties":{"osm_id":"5838367930","tag":{"amenity":"recycling","recycling:glass_bottles":"yes","recycling_type":"container","ref:FR:CUB":"PE24"}},"type":"Feature"},
	{"geometry":{"coordinates":[-0.665239,44.791856],"type":"Point"},"properties":{"osm_id":"5838381393","tag":{"amenity":"recycling","recycling:glass_bottles":"yes","recycling_type":"container","ref:FR:CUB":"PE39"}},"type":"Feature"},
	{"geometry":{"coordinates":[-0.615323,44.798289],"type":"Point"},"properties":{"osm_id":"5884616064","tag":{"amenity":"waste_basket"}},"type":"Feature"},
	{"geometry":{"coordinates":[-0.619333,44.7955],"type":"Point"},"properties":{"osm_id":"5884635523","tag":{"amenity":"waste_basket"}},"type":"Feature"},
	{"geometry":{"coordinates":[-0.619252,44.795384],"type":"Point"},"properties":{"osm_id":"5884635524","tag":{"amenity":"waste_basket"}},"type":"Feature"},
	{"geometry":{"coordinates":[-0.615376,44.798404],"type":"Point"},"properties":{"osm_id":"5884635538","tag":{"amenity":"waste_basket"}},"type":"Feature"},
	{"geometry":{"coordinates":[-0.62179,44.794097],"type":"Point"},"properties":{"osm_id":"5932491399","tag":{"amenity":"waste_basket"}},"type":"Feature"},
	{"geometry":{"coordinates":[-0.629434,44.792149],"type":"Point"},"properties":{"osm_id":"5934162105","tag":{"amenity":"waste_disposal"}},"type":"Feature"},
	{"geometry":{"coordinates":[-0.616158,44.798587],"type":"Point"},"properties":{"osm_id":"5934293031","tag":{"amenity":"waste_basket"}},"type":"Feature"},
	{"geometry":{"coordinates":[-0.616649,44.798455],"type":"Point"},"properties":{"osm_id":"5934293036","tag":{"amenity":"waste_basket"}},"type":"Feature"},
	{"geometry":{"coordinates":[-0.617147,44.798319],"type":"Point"},"properties":{"osm_id":"5934293037","tag":{"amenity":"waste_basket"}},"type":"Feature"},
	{"geometry":{"coordinates":[-0.617734,44.798163],"type":"Point"},"properties":{"osm_id":"5934293042","tag":{"amenity":"waste_basket"}},"type":"Feature"},
	{"geometry":{"coordinates":[-0.618928,44.797783],"type":"Point"},"properties":{"osm_id":"5934293044","tag":{"amenity":"waste_basket"}},"type":"Feature"},
	{"geometry":{"coordinates":[-0.646246,44.816226],"type":"Point"},"properties":{"osm_id":"5964503207","tag":{"amenity":"waste_basket"}},"type":"Feature"},
	{"geometry":{"coordinates":[-0.619829,44.79492],"type":"Point"},"properties":{"osm_id":"5982726960","tag":{"amenity":"recycling","recycling:glass_bottles":"yes","recycling_type":"container","ref:FR:CUB":"PE80"}},"type":"Feature"},
	{"geometry":{"coordinates":[-0.619481,44.805976],"type":"Point"},"properties":{"osm_id":"5982728889","tag":{"amenity":"recycling","recycling:glass_bottles":"yes","recycling_type":"container","ref:FR:CUB":"PE89"}},"type":"Feature"},
	{"geometry":{"coordinates":[-0.65774,44.801939],"type":"Point"},"properties":{"osm_id":"6015884448","tag":{"amenity":"recycling","recycling:glass_bottles":"yes","recycling_type":"container","ref:FR:CUB":"PE15"}},"type":"Feature"},
	{"geometry":{"coordinates":[-0.656938,44.810097],"type":"Point"},"properties":{"osm_id":"6061475892","tag":{"amenity":"recycling","collection_times":"Mo","recycling:glass_bottles":"yes","recycling_type":"container"}},"type":"Feature"},
	{"geometry":{"coordinates":[-0.630965,44.839106],"type":"Point"},"properties":{"osm_id":"6092928366","tag":{"amenity":"waste_basket"}},"type":"Feature"},
	{"geometry":{"coordinates":[-0.629158,44.839165],"type":"Point"},"properties":{"osm_id":"6092932027","tag":{"amenity":"waste_basket"}},"type":"Feature"},
	{"geometry":{"coordinates":[-0.629077,44.839155],"type":"Point"},"properties":{"osm_id":"6092932028","tag":{"amenity":"waste_basket"}},"type":"Feature"},
	{"geometry":{"coordinates":[-0.618688,44.795872],"type":"Point"},"properties":{"osm_id":"6352362674","tag":{"amenity":"waste_basket"}},"type":"Feature"},
	{"geometry":{"coordinates":[-0.619119,44.795699],"type":"Point"},"properties":{"osm_id":"6352363270","tag":{"amenity":"waste_basket"}},"type":"Feature"},
	{"geometry":{"coordinates":[-0.61936,44.795647],"type":"Point"},"properties":{"osm_id":"6352366647","tag":{"amenity":"waste_basket"}},"type":"Feature"},
	{"geometry":{"coordinates":[-0.621408,44.79608],"type":"Point"},"properties":{"osm_id":"6352366953","tag":{"amenity":"waste_basket"}},"type":"Feature"},
	{"geometry":{"coordinates":[-0.621383,44.796092],"type":"Point"},"properties":{"osm_id":"6352366954","tag":{"amenity":"waste_basket"}},"type":"Feature"},
	{"geometry":{"coordinates":[-0.621339,44.796115],"type":"Point"},"properties":{"osm_id":"6352366955","tag":{"amenity":"waste_basket"}},"type":"Feature"},
	{"geometry":{"coordinates":[-0.617628,44.79561],"type":"Point"},"properties":{"osm_id":"6352369102","tag":{"amenity":"waste_basket"}},"type":"Feature"},
	{"geometry":{"coordinates":[-0.618151,44.793074],"type":"Point"},"properties":{"osm_id":"6352378203","tag":{"amenity":"waste_basket"}},"type":"Feature"},
	{"geometry":{"coordinates":[-0.6184,44.796211],"type":"Point"},"properties":{"osm_id":"6380498134","tag":{"amenity":"waste_basket"}},"type":"Feature"},
	{"geometry":{"coordinates":[-0.61745,44.796349],"type":"Point"},"properties":{"osm_id":"6380502458","tag":{"amenity":"waste_basket"}},"type":"Feature"},
	{"geometry":{"coordinates":[-0.617668,44.796376],"type":"Point"},"properties":{"osm_id":"6380502459","tag":{"amenity":"waste_basket"}},"type":"Feature"},
	{"geometry":{"coordinates":[-0.617845,44.796367],"type":"Point"},"properties":{"osm_id":"6380502460","tag":{"amenity":"waste_basket"}},"type":"Feature"},
	{"geometry":{"coordinates":[-0.61781,44.796599],"type":"Point"},"properties":{"osm_id":"6380502461","tag":{"amenity":"waste_basket"}},"type":"Feature"},
	{"geometry":{"coordinates":[-0.618277,44.796521],"type":"Point"},"properties":{"osm_id":"6380502462","tag":{"amenity":"waste_basket"}},"type":"Feature"},
	{"geometry":{"coordinates":[-0.618427,44.796517],"type":"Point"},"properties":{"osm_id":"6380502463","tag":{"amenity":"waste_basket"}},"type":"Feature"},
	{"geometry":{"coordinates":[-0.618829,44.79658],"type":"Point"},"properties":{"osm_id":"6380536568","tag":{"amenity":"waste_basket"}},"type":"Feature"},
	{"geometry":{"coordinates":[-0.619041,44.796703],"type":"Point"},"properties":{"osm_id":"6380536569","tag":{"amenity":"waste_basket"}},"type":"Feature"},
	{"geometry":{"coordinates":[-0.619113,44.796715],"type":"Point"},"properties":{"osm_id":"6380536570","tag":{"amenity":"waste_basket"}},"type":"Feature"},
	{"geometry":{"coordinates":[-0.619015,44.796765],"type":"Point"},"properties":{"osm_id":"6380536571","tag":{"amenity":"waste_basket"}},"type":"Feature"},
	{"geometry":{"coordinates":[-0.619084,44.796787],"type":"Point"},"properties":{"osm_id":"6380536572","tag":{"amenity":"waste_basket"}},"type":"Feature"},
	{"geometry":{"coordinates":[-0.618808,44.796965],"type":"Point"},"properties":{"osm_id":"6380536574","tag":{"amenity":"waste_basket"}},"type":"Feature"},
	{"geometry":{"coordinates":[-0.617796,44.796927],"type":"Point"},"properties":{"osm_id":"6380536575","tag":{"amenity":"waste_basket"}},"type":"Feature"},
	{"geometry":{"coordinates":[-0.61785,44.797043],"type":"Point"},"properties":{"osm_id":"6380536576","tag":{"amenity":"waste_basket"}},"type":"Feature"},
	{"geometry":{"coordinates":[-0.617637,44.796845],"type":"Point"},"properties":{"osm_id":"6380536577","tag":{"amenity":"waste_basket"}},"type":"Feature"},
	{"geometry":{"coordinates":[-0.617519,44.79681],"type":"Point"},"properties":{"osm_id":"6380536578","tag":{"amenity":"waste_basket"}},"type":"Feature"},
	{"geometry":{"coordinates":[-0.617255,44.796881],"type":"Point"},"properties":{"osm_id":"6380536579","tag":{"amenity":"waste_basket"}},"type":"Feature"},
	{"geometry":{"coordinates":[-0.617227,44.796834],"type":"Point"},"properties":{"osm_id":"6380536580","tag":{"amenity":"waste_basket"}},"type":"Feature"},
	{"geometry":{"coordinates":[-0.617492,44.796731],"type":"Point"},"properties":{"osm_id":"6380536581","tag":{"amenity":"waste_basket"}},"type":"Feature"},
	{"geometry":{"coordinates":[-0.634955,44.837241],"type":"Point"},"properties":{"osm_id":"6419484992","tag":{"amenity":"waste_basket"}},"type":"Feature"},
	{"geometry":{"coordinates":[-0.634982,44.83889],"type":"Point"},"properties":{"osm_id":"6509963337","tag":{"amenity":"waste_basket"}},"type":"Feature"},
	{"geometry":{"coordinates":[-0.633595,44.839186],"type":"Point"},"properties":{"osm_id":"6509963338","tag":{"amenity":"waste_basket"}},"type":"Feature"},
	{"geometry":{"coordinates":[-0.634199,44.837885],"type":"Point"},"properties":{"osm_id":"6509963339","tag":{"amenity":"waste_basket"}},"type":"Feature"},
	{"geometry":{"coordinates":[-0.634392,44.838739],"type":"Point"},"properties":{"osm_id":"6509963340","tag":{"amenity":"waste_basket"}},"type":"Feature"},
	{"geometry":{"coordinates":[-0.620871,44.830742],"type":"Point"},"properties":{"osm_id":"6509970343","tag":{"amenity":"waste_basket"}},"type":"Feature"},
	{"geometry":{"coordinates":[-0.627386,44.836649],"type":"Point"},"properties":{"osm_id":"6512768491","tag":{"amenity":"waste_basket"}},"type":"Feature"},
	{"geometry":{"coordinates":[-0.627386,44.836693],"type":"Point"},"properties":{"osm_id":"6512768492","tag":{"amenity":"waste_basket"}},"type":"Feature"},
	{"geometry":{"coordinates":[-0.634962,44.838898],"type":"Point"},"properties":{"osm_id":"6512768499","tag":{"amenity":"waste_basket"}},"type":"Feature"},
	{"geometry":{"coordinates":[-0.633612,44.839178],"type":"Point"},"properties":{"osm_id":"6512768500","tag":{"amenity":"waste_basket"}},"type":"Feature"},
	{"geometry":{"coordinates":[-0.634221,44.837884],"type":"Point"},"properties":{"osm_id":"6512768501","tag":{"amenity":"waste_basket"}},"type":"Feature"},
	{"geometry":{"coordinates":[-0.63801,44.825985],"type":"Point"},"properties":{"osm_id":"6538091054","tag":{"amenity":"waste_basket"}},"type":"Feature"},
	{"geometry":{"coordinates":[-0.638794,44.825932],"type":"Point"},"properties":{"osm_id":"6538142814","tag":{"amenity":"waste_basket"}},"type":"Feature"},
	{"geometry":{"coordinates":[-0.639481,44.825859],"type":"Point"},"properties":{"osm_id":"6538142816","tag":{"amenity":"waste_basket"}},"type":"Feature"},
	{"geometry":{"coordinates":[-0.641219,44.825326],"type":"Point"},"properties":{"osm_id":"6538142818","tag":{"amenity":"waste_basket"}},"type":"Feature"},
	{"geometry":{"coordinates":[-0.642723,44.824973],"type":"Point"},"properties":{"osm_id":"6538142820","tag":{"amenity":"waste_basket"}},"type":"Feature"},
	{"geometry":{"coordinates":[-0.667246,44.833839],"type":"Point"},"properties":{"name":"poubelle","osm_id":"6577636139","tag":{"amenity":"waste_basket"}},"type":"Feature"},
	{"geometry":{"coordinates":[-0.620474,44.794029],"type":"Point"},"properties":{"osm_id":"6790547433","tag":{"amenity":"waste_basket"}},"type":"Feature"},
	{"geometry":{"coordinates":[-0.617468,44.79616],"type":"Point"},"properties":{"osm_id":"6790586682","tag":{"amenity":"waste_basket"}},"type":"Feature"},
	{"geometry":{"coordinates":[-0.615393,44.79636],"type":"Point"},"properties":{"osm_id":"6790611198","tag":{"amenity":"waste_basket"}},"type":"Feature"},
	{"geometry":{"coordinates":[-0.622691,44.798594],"type":"Point"},"properties":{"osm_id":"6790654454","tag":{"amenity":"waste_basket"}},"type":"Feature"},
	{"geometry":{"coordinates":[-0.620276,44.79447],"type":"Point"},"properties":{"osm_id":"7079966475","tag":{"amenity":"waste_basket"}},"type":"Feature"},
	{"geometry":{"coordinates":[-0.665824,44.804414],"type":"Point"},"properties":{"osm_id":"7106837643","tag":{"amenity":"recycling","recycling:glass_bottles":"yes","recycling_type":"container"}},"type":"Feature"},
	{"geometry":{"coordinates":[-0.648016,44.786218],"type":"Point"},"properties":{"osm_id":"7111647440","tag":{"amenity":"recycling","recycling:glass_bottles":"yes","recycling_type":"container","ref:FR:CUB":"PE75"}},"type":"Feature"},
	{"geometry":{"coordinates":[-0.636115,44.837362],"type":"Point"},"properties":{"osm_id":"7192930138","tag":{"amenity":"recycling","recycling_type":"container"}},"type":"Feature"},
	{"geometry":{"coordinates":[-0.665534,44.806533],"type":"Point"},"properties":{"osm_id":"7629675818","tag":{"amenity":"recycling","recycling:glass_bottles":"yes","recycling_type":"container"}},"type":"Feature"},
	{"geometry":{"coordinates":[-0.661409,44.801538],"type":"Point"},"properties":{"osm_id":"7629675819","tag":{"amenity":"recycling","recycling:glass_bottles":"yes","recycling_type":"container"}},"type":"Feature"},
	{"geometry":{"coordinates":[-0.669304,44.80064],"type":"Point"},"properties":{"osm_id":"7629675820","tag":{"amenity":"recycling","recycling:glass_bottles":"yes","recycling_type":"container"}},"type":"Feature"},
	{"geometry":{"coordinates":[-0.669032,44.796895],"type":"Point"},"properties":{"osm_id":"7629675821","tag":{"amenity":"recycling","recycling:glass_bottles":"yes","recycling_type":"container"}},"type":"Feature"},
	{"geometry":{"coordinates":[-0.687631,44.803302],"type":"Point"},"properties":{"osm_id":"7726746617","tag":{"amenity":"recycling","recycling:glass_bottles":"yes","recycling_type":"container"}},"type":"Feature"},
	{"geometry":{"coordinates":[-0.689336,44.79708],"type":"Point"},"properties":{"osm_id":"7727970797","tag":{"amenity":"recycling","recycling:glass_bottles":"yes","recycling_type":"container"}},"type":"Feature"},
	{"geometry":{"coordinates":[-0.658623,44.778143],"type":"Point"},"properties":{"name":"Envie","osm_id":"7794329439","tag":{"amenity":"recycling"}},"type":"Feature"},
	{"geometry":{"coordinates":[-0.618117,44.795111],"type":"Point"},"properties":{"osm_id":"7874989828","tag":{"amenity":"waste_disposal"}},"type":"Feature"},
	{"geometry":{"coordinates":[-0.617977,44.795151],"type":"Point"},"properties":{"osm_id":"7874989829","tag":{"amenity":"waste_disposal"}},"type":"Feature"},
	{"geometry":{"coordinates":[-0.617858,44.795185],"type":"Point"},"properties":{"osm_id":"7874989830","tag":{"amenity":"waste_disposal"}},"type":"Feature"},
	{"geometry":{"coordinates":[-0.61769,44.795232],"type":"Point"},"properties":{"osm_id":"7874989831","tag":{"amenity":"waste_disposal"}},"type":"Feature"}
]
}
