{
"type": "FeatureCollection",
"features": [
	{"geometry":{"coordinates":[-0.626725,38.268448],"type":"Point"},"properties":{"osm_id":"5295438899","tag":{"amenity":"waste_disposal"}},"type":"Feature"},
	{"geometry":{"coordinates":[-0.626679,38.268429],"type":"Point"},"properties":{"osm_id":"5295438900","tag":{"amenity":"waste_disposal"}},"type":"Feature"},
	{"geometry":{"coordinates":[-0.700763,38.263798],"type":"Point"},"properties":{"osm_id":"7921038022","tag":{"amenity":"waste_basket"}},"type":"Feature"},
	{"geometry":{"coordinates":[-0.700873,38.263676],"type":"Point"},"properties":{"osm_id":"7921038023","tag":{"amenity":"recycling","recycling:cans":"yes","recycling:plastic":"yes","recycling_type":"container"}},"type":"Feature"},
	{"geometry":{"coordinates":[-0.700866,38.263656],"type":"Point"},"properties":{"osm_id":"7921038024","tag":{"amenity":"recycling","recycling:paper":"yes","recycling_type":"container"}},"type":"Feature"},
	{"geometry":{"coordinates":[-0.700878,38.263698],"type":"Point"},"properties":{"osm_id":"7921038025","tag":{"amenity":"waste_disposal"}},"type":"Feature"},
	{"geometry":{"coordinates":[-0.700429,38.263536],"type":"Point"},"properties":{"osm_id":"7921038030","tag":{"amenity":"recycling","recycling:glass_bottles":"yes","recycling_type":"container"}},"type":"Feature"},
	{"geometry":{"coordinates":[-0.700563,38.264562],"type":"Point"},"properties":{"osm_id":"7921038037","tag":{"amenity":"waste_basket","waste":"dog_excrement"}},"type":"Feature"},
	{"geometry":{"coordinates":[-0.700563,38.26455],"type":"Point"},"properties":{"osm_id":"7921038038","tag":{"amenity":"waste_basket"}},"type":"Feature"},
	{"geometry":{"coordinates":[-0.701114,38.261592],"type":"Point"},"properties":{"osm_id":"7921038044","tag":{"amenity":"waste_basket"}},"type":"Feature"},
	{"geometry":{"coordinates":[-0.701209,38.260891],"type":"Point"},"properties":{"osm_id":"7921038046","tag":{"amenity":"waste_disposal"}},"type":"Feature"},
	{"geometry":{"coordinates":[-0.70133,38.26058],"type":"Point"},"properties":{"osm_id":"7921038047","tag":{"amenity":"waste_disposal"}},"type":"Feature"},
	{"geometry":{"coordinates":[-0.701505,38.260147],"type":"Point"},"properties":{"osm_id":"7921038050","tag":{"amenity":"waste_disposal"}},"type":"Feature"},
	{"geometry":{"coordinates":[-0.701746,38.260166],"type":"Point"},"properties":{"osm_id":"7921038051","tag":{"amenity":"recycling","recycling:glass":"yes","recycling:glass_bottles":"yes","recycling_type":"container"}},"type":"Feature"},
	{"geometry":{"coordinates":[-0.701661,38.260196],"type":"Point"},"properties":{"osm_id":"7921038052","tag":{"amenity":"waste_basket"}},"type":"Feature"},
	{"geometry":{"coordinates":[-0.701766,38.26],"type":"Point"},"properties":{"osm_id":"7921038058","tag":{"amenity":"waste_basket"}},"type":"Feature"},
	{"geometry":{"coordinates":[-0.701518,38.26071],"type":"Point"},"properties":{"osm_id":"7921038059","tag":{"amenity":"waste_disposal"}},"type":"Feature"},
	{"geometry":{"coordinates":[-0.701345,38.261143],"type":"Point"},"properties":{"osm_id":"7921038060","tag":{"amenity":"waste_disposal"}},"type":"Feature"},
	{"geometry":{"coordinates":[-0.701288,38.261276],"type":"Point"},"properties":{"osm_id":"7921038061","tag":{"amenity":"waste_basket"}},"type":"Feature"},
	{"geometry":{"coordinates":[-0.701174,38.261757],"type":"Point"},"properties":{"osm_id":"7921038062","tag":{"amenity":"waste_disposal"}},"type":"Feature"},
	{"geometry":{"coordinates":[-0.696485,38.265103],"type":"Point"},"properties":{"osm_id":"7921952472","tag":{"amenity":"waste_basket"}},"type":"Feature"},
	{"geometry":{"coordinates":[-0.696429,38.265489],"type":"Point"},"properties":{"osm_id":"7921952480","tag":{"amenity":"waste_basket"}},"type":"Feature"},
	{"geometry":{"coordinates":[-0.696344,38.265493],"type":"Point"},"properties":{"osm_id":"7921952481","tag":{"amenity":"waste_basket"}},"type":"Feature"},
	{"geometry":{"coordinates":[-0.696684,38.265476],"type":"Point"},"properties":{"osm_id":"7921952482","tag":{"amenity":"waste_basket"}},"type":"Feature"},
	{"geometry":{"coordinates":[-0.696725,38.265596],"type":"Point"},"properties":{"osm_id":"7922078685","tag":{"amenity":"waste_basket"}},"type":"Feature"},
	{"geometry":{"coordinates":[-0.696779,38.265803],"type":"Point"},"properties":{"osm_id":"7922078688","tag":{"amenity":"waste_basket"}},"type":"Feature"},
	{"geometry":{"coordinates":[-0.702877,38.262936],"type":"Point"},"properties":{"osm_id":"7922939974","tag":{"amenity":"waste_basket"}},"type":"Feature"},
	{"geometry":{"coordinates":[-0.702815,38.263541],"type":"Point"},"properties":{"osm_id":"7922958902","tag":{"amenity":"recycling","recycling:paper":"yes","recycling_type":"container"}},"type":"Feature"},
	{"geometry":{"coordinates":[-0.702816,38.263529],"type":"Point"},"properties":{"osm_id":"7922958903","tag":{"amenity":"waste_disposal"}},"type":"Feature"},
	{"geometry":{"coordinates":[-0.702816,38.263514],"type":"Point"},"properties":{"osm_id":"7922958904","tag":{"amenity":"recycling","recycling:cans":"yes","recycling:plastic":"yes","recycling_type":"container"}},"type":"Feature"},
	{"geometry":{"coordinates":[-0.702815,38.263497],"type":"Point"},"properties":{"osm_id":"7922958905","tag":{"amenity":"recycling","recycling:glass":"yes","recycling:glass_bottles":"yes","recycling_type":"container"}},"type":"Feature"},
	{"geometry":{"coordinates":[-0.696494,38.267396],"type":"Point"},"properties":{"osm_id":"7925084572","tag":{"amenity":"waste_basket"}},"type":"Feature"},
	{"geometry":{"coordinates":[-0.696615,38.26736],"type":"Point"},"properties":{"osm_id":"7925084573","tag":{"amenity":"recycling","recycling:glass":"yes","recycling:glass_bottles":"yes","recycling_type":"container"}},"type":"Feature"},
	{"geometry":{"coordinates":[-0.696582,38.26746],"type":"Point"},"properties":{"osm_id":"7925084574","tag":{"amenity":"waste_disposal"}},"type":"Feature"},
	{"geometry":{"coordinates":[-0.696472,38.26752],"type":"Point"},"properties":{"osm_id":"7925084580","tag":{"amenity":"waste_basket"}},"type":"Feature"},
	{"geometry":{"coordinates":[-0.696481,38.267963],"type":"Point"},"properties":{"osm_id":"7925112689","tag":{"amenity":"waste_basket"}},"type":"Feature"},
	{"geometry":{"coordinates":[-0.696634,38.26817],"type":"Point"},"properties":{"osm_id":"7925112698","tag":{"amenity":"waste_basket"}},"type":"Feature"},
	{"geometry":{"coordinates":[-0.69659,38.268529],"type":"Point"},"properties":{"osm_id":"7925112703","tag":{"amenity":"waste_basket"}},"type":"Feature"},
	{"geometry":{"coordinates":[-0.696888,38.268534],"type":"Point"},"properties":{"osm_id":"7925112704","tag":{"amenity":"waste_basket"}},"type":"Feature"},
	{"geometry":{"coordinates":[-0.702895,38.261664],"type":"Point"},"properties":{"osm_id":"7928462283","tag":{"amenity":"waste_disposal"}},"type":"Feature"},
	{"geometry":{"coordinates":[-0.701001,38.262481],"type":"Point"},"properties":{"osm_id":"7928480227","tag":{"amenity":"waste_basket","give_way":"yes"}},"type":"Feature"},
	{"geometry":{"coordinates":[-0.700958,38.262443],"type":"Point"},"properties":{"osm_id":"7928480228","tag":{"amenity":"waste_disposal"}},"type":"Feature"},
	{"geometry":{"coordinates":[-0.700848,38.26159],"type":"Point"},"properties":{"osm_id":"7928480229","tag":{"amenity":"waste_basket"}},"type":"Feature"},
	{"geometry":{"coordinates":[-0.692756,38.272688],"type":"Point"},"properties":{"osm_id":"7928486466","tag":{"amenity":"waste_basket"}},"type":"Feature"},
	{"geometry":{"coordinates":[-0.696787,38.269328],"type":"Point"},"properties":{"osm_id":"7943355491","tag":{"amenity":"waste_basket"}},"type":"Feature"},
	{"geometry":{"coordinates":[-0.69683,38.270268],"type":"Point"},"properties":{"osm_id":"7943355493","tag":{"amenity":"waste_basket"}},"type":"Feature"}
]
}
