{
"type": "FeatureCollection",
"features": [
	{"geometry":{"coordinates":[-0.650692,38.127071],"type":"Point"},"properties":{"osm_id":"1918372857","tag":{"amenity":"waste_basket"}},"type":"Feature"},
	{"geometry":{"coordinates":[-0.650274,38.125326],"type":"Point"},"properties":{"osm_id":"1918374784","tag":{"amenity":"waste_basket"}},"type":"Feature"},
	{"geometry":{"coordinates":[-0.651512,38.125638],"type":"Point"},"properties":{"osm_id":"1918375420","tag":{"amenity":"waste_basket"}},"type":"Feature"},
	{"geometry":{"coordinates":[-0.651452,38.125619],"type":"Point"},"properties":{"osm_id":"1918376664","tag":{"amenity":"recycling"}},"type":"Feature"},
	{"geometry":{"coordinates":[-0.648693,38.125784],"type":"Point"},"properties":{"osm_id":"1918460882","tag":{"amenity":"waste_basket"}},"type":"Feature"},
	{"geometry":{"coordinates":[-0.661386,38.095657],"type":"Point"},"properties":{"osm_id":"1962508603","tag":{"amenity":"waste_basket"}},"type":"Feature"},
	{"geometry":{"coordinates":[-0.64907,38.108769],"type":"Point"},"properties":{"osm_id":"3674701314","tag":{"amenity":"recycling","recycling:glass_bottles":"yes","recycling:plastic_bottles":"yes","recycling_type":"container"}},"type":"Feature"},
	{"geometry":{"coordinates":[-0.655175,38.094984],"type":"Point"},"properties":{"osm_id":"4898134024","tag":{"amenity":"recycling"}},"type":"Feature"},
	{"geometry":{"coordinates":[-0.655562,38.096069],"type":"Point"},"properties":{"osm_id":"4898134025","tag":{"amenity":"recycling"}},"type":"Feature"},
	{"geometry":{"coordinates":[-0.654369,38.095615],"type":"Point"},"properties":{"osm_id":"4898134033","tag":{"amenity":"recycling"}},"type":"Feature"},
	{"geometry":{"coordinates":[-0.65629,38.095619],"type":"Point"},"properties":{"osm_id":"4898134034","tag":{"amenity":"recycling"}},"type":"Feature"},
	{"geometry":{"coordinates":[-0.654191,38.088059],"type":"Point"},"properties":{"osm_id":"4900235188","tag":{"amenity":"recycling","location":"underground","recycling:glass_bottles":"yes","recycling_type":"container"}},"type":"Feature"},
	{"geometry":{"coordinates":[-0.6544,38.089411],"type":"Point"},"properties":{"osm_id":"4900235189","tag":{"amenity":"recycling","recycling:glass_bottles":"yes","recycling_type":"container"}},"type":"Feature"},
	{"geometry":{"coordinates":[-0.654984,38.0921],"type":"Point"},"properties":{"osm_id":"4900235192","tag":{"amenity":"waste_basket"}},"type":"Feature"},
	{"geometry":{"coordinates":[-0.662416,38.096454],"type":"Point"},"properties":{"osm_id":"5241663371","tag":{"amenity":"recycling","recycling:glass_bottles":"yes","recycling_type":"container"}},"type":"Feature"},
	{"geometry":{"coordinates":[-0.646724,38.091057],"type":"Point"},"properties":{"osm_id":"5243223702","tag":{"amenity":"recycling","recycling:glass_bottles":"yes","recycling:waste":"yes","recycling_type":"container"}},"type":"Feature"},
	{"geometry":{"coordinates":[-0.658634,38.096532],"type":"Point"},"properties":{"osm_id":"5282564581","tag":{"amenity":"waste_basket"}},"type":"Feature"},
	{"geometry":{"coordinates":[-0.659541,38.096139],"type":"Point"},"properties":{"osm_id":"5282564582","tag":{"amenity":"waste_basket"}},"type":"Feature"},
	{"geometry":{"coordinates":[-0.657664,38.095847],"type":"Point"},"properties":{"osm_id":"5282564584","tag":{"amenity":"waste_basket"}},"type":"Feature"},
	{"geometry":{"coordinates":[-0.657647,38.096373],"type":"Point"},"properties":{"osm_id":"5282564585","tag":{"amenity":"waste_basket"}},"type":"Feature"},
	{"geometry":{"coordinates":[-0.660536,38.096011],"type":"Point"},"properties":{"osm_id":"5282564586","tag":{"amenity":"waste_basket"}},"type":"Feature"},
	{"geometry":{"coordinates":[-0.65947,38.096297],"type":"Point"},"properties":{"osm_id":"5282564594","tag":{"amenity":"waste_basket"}},"type":"Feature"},
	{"geometry":{"coordinates":[-0.655146,38.092133],"type":"Point"},"properties":{"osm_id":"5294160231","tag":{"amenity":"recycling","recycling:PET":"yes","recycling:cardboard":"yes","recycling:glass_bottles":"yes","recycling:paper":"yes","recycling:plastic":"yes","recycling:plastic_bottles":"yes","recycling:plastic_packaging":"yes","recycling:waste":"yes","recycling_type":"container"}},"type":"Feature"},
	{"geometry":{"coordinates":[-0.655135,38.092078],"type":"Point"},"properties":{"osm_id":"5294160232","tag":{"amenity":"waste_basket"}},"type":"Feature"},
	{"geometry":{"coordinates":[-0.640983,38.110298],"type":"Point"},"properties":{"osm_id":"5302369743","tag":{"amenity":"waste_basket"}},"type":"Feature"},
	{"geometry":{"coordinates":[-0.662553,38.096329],"type":"Point"},"properties":{"osm_id":"5330974435","tag":{"amenity":"recycling","opening_hours":"24/7","recycling:waste":"yes","recycling_type":"container"}},"type":"Feature"},
	{"geometry":{"coordinates":[-0.656074,38.097865],"type":"Point"},"properties":{"osm_id":"5331544426","tag":{"amenity":"waste_basket"}},"type":"Feature"},
	{"geometry":{"coordinates":[-0.655879,38.097732],"type":"Point"},"properties":{"osm_id":"5331544465","tag":{"amenity":"waste_basket"}},"type":"Feature"},
	{"geometry":{"coordinates":[-0.655724,38.099868],"type":"Point"},"properties":{"osm_id":"5334509427","tag":{"amenity":"recycling","recycling:PET":"yes","recycling:glass_bottles":"yes","recycling:plastic":"yes","recycling:plastic_bottles":"yes","recycling:plastic_packaging":"yes","recycling:waste":"yes","recycling_type":"container"}},"type":"Feature"},
	{"geometry":{"coordinates":[-0.647467,38.084423],"type":"Point"},"properties":{"osm_id":"5491947942","tag":{"amenity":"waste_basket"}},"type":"Feature"},
	{"geometry":{"coordinates":[-0.651474,38.086578],"type":"Point"},"properties":{"osm_id":"6440650345","tag":{"amenity":"recycling","recycling_type":"container"}},"type":"Feature"},
	{"geometry":{"coordinates":[-0.665632,38.089525],"type":"Point"},"properties":{"osm_id":"6447288445","tag":{"amenity":"waste_basket"}},"type":"Feature"},
	{"geometry":{"coordinates":[-0.651758,38.087476],"type":"Point"},"properties":{"osm_id":"6578321061","tag":{"amenity":"waste_basket"}},"type":"Feature"},
	{"geometry":{"coordinates":[-0.649,38.088901],"type":"Point"},"properties":{"osm_id":"6578344587","tag":{"amenity":"recycling","recycling_type":"container"}},"type":"Feature"},
	{"geometry":{"coordinates":[-0.654148,38.088313],"type":"Point"},"properties":{"osm_id":"6709774538","tag":{"amenity":"waste_basket"}},"type":"Feature"},
	{"geometry":{"coordinates":[-0.654646,38.089853],"type":"Point"},"properties":{"osm_id":"6715113442","tag":{"amenity":"waste_basket"}},"type":"Feature"},
	{"geometry":{"coordinates":[-0.653359,38.087204],"type":"Point"},"properties":{"osm_id":"6717821561","tag":{"amenity":"waste_basket"}},"type":"Feature"},
	{"geometry":{"coordinates":[-0.653267,38.088155],"type":"Point"},"properties":{"osm_id":"6717856180","tag":{"amenity":"waste_basket"}},"type":"Feature"},
	{"geometry":{"coordinates":[-0.655513,38.090212],"type":"Point"},"properties":{"osm_id":"6717875655","tag":{"amenity":"waste_basket"}},"type":"Feature"},
	{"geometry":{"coordinates":[-0.655438,38.090083],"type":"Point"},"properties":{"osm_id":"6717875656","tag":{"amenity":"waste_basket"}},"type":"Feature"},
	{"geometry":{"coordinates":[-0.655326,38.091073],"type":"Point"},"properties":{"osm_id":"6717875657","tag":{"amenity":"waste_basket"}},"type":"Feature"},
	{"geometry":{"coordinates":[-0.654951,38.091851],"type":"Point"},"properties":{"osm_id":"6717875658","tag":{"amenity":"waste_basket"}},"type":"Feature"},
	{"geometry":{"coordinates":[-0.653444,38.0841],"type":"Point"},"properties":{"osm_id":"6745522292","tag":{"amenity":"waste_basket"}},"type":"Feature"},
	{"geometry":{"coordinates":[-0.654061,38.08102],"type":"Point"},"properties":{"osm_id":"6760328965","tag":{"amenity":"waste_basket"}},"type":"Feature"},
	{"geometry":{"coordinates":[-0.655787,38.089279],"type":"Point"},"properties":{"osm_id":"7112036245","tag":{"amenity":"waste_basket"}},"type":"Feature"},
	{"geometry":{"coordinates":[-0.656521,38.087655],"type":"Point"},"properties":{"barrier":"gate","osm_id":"7179156850"},"type":"Feature"},
	{"geometry":{"coordinates":[-0.656579,38.087881],"type":"Point"},"properties":{"barrier":"gate","osm_id":"7179156855"},"type":"Feature"},
	{"geometry":{"coordinates":[-0.654689,38.097565],"type":"Point"},"properties":{"osm_id":"7181697491","tag":{"amenity":"waste_basket"}},"type":"Feature"},
	{"geometry":{"coordinates":[-0.649281,38.086249],"type":"Point"},"properties":{"osm_id":"7200748946","tag":{"amenity":"waste_basket"}},"type":"Feature"},
	{"geometry":{"coordinates":[-0.649405,38.085632],"type":"Point"},"properties":{"osm_id":"7712913063","tag":{"amenity":"recycling","recycling:glass":"yes","recycling:glass_bottles":"yes","recycling_type":"container"}},"type":"Feature"},
	{"geometry":{"coordinates":[-0.649272,38.085263],"type":"Point"},"properties":{"osm_id":"7712913064","tag":{"amenity":"recycling","recycling_type":"container"}},"type":"Feature"},
	{"geometry":{"coordinates":[-0.654658,38.093096],"type":"Point"},"properties":{"osm_id":"7712913065","tag":{"amenity":"recycling","recycling_type":"container"}},"type":"Feature"},
	{"geometry":{"coordinates":[-0.656003,38.090154],"type":"Point"},"properties":{"osm_id":"7712913074","tag":{"amenity":"recycling","recycling_type":"container"}},"type":"Feature"},
	{"geometry":{"coordinates":[-0.65566,38.090103],"type":"Point"},"properties":{"osm_id":"7712913075","tag":{"amenity":"recycling","recycling:glass":"yes","recycling:glass_bottles":"yes","recycling_type":"container"}},"type":"Feature"},
	{"geometry":{"coordinates":[-0.65643,38.093722],"type":"Point"},"properties":{"osm_id":"7712913076","tag":{"amenity":"recycling","recycling_type":"container"}},"type":"Feature"},
	{"geometry":{"coordinates":[-0.656987,38.094941],"type":"Point"},"properties":{"osm_id":"7712913077","tag":{"amenity":"recycling","recycling_type":"container"}},"type":"Feature"},
	{"geometry":{"coordinates":[-0.657853,38.094262],"type":"Point"},"properties":{"osm_id":"7712913078","tag":{"amenity":"recycling","recycling_type":"container"}},"type":"Feature"},
	{"geometry":{"coordinates":[-0.651511,38.083534],"type":"Point"},"properties":{"osm_id":"7712913079","tag":{"amenity":"recycling","recycling_type":"container"}},"type":"Feature"}
]
}
