{
"type": "FeatureCollection",
"features": [
	{"geometry":{"coordinates":[-77.08475,38.862052],"type":"Point"},"properties":{"osm_id":"1903461895","tag":{"amenity":"waste_basket"}},"type":"Feature"},
	{"geometry":{"coordinates":[-77.082401,38.868166],"type":"Point"},"properties":{"osm_id":"1910876305","tag":{"amenity":"waste_basket"}},"type":"Feature"},
	{"geometry":{"coordinates":[-77.093061,38.857083],"type":"Point"},"properties":{"osm_id":"1911798439","tag":{"amenity":"waste_basket"}},"type":"Feature"},
	{"geometry":{"coordinates":[-77.085123,38.873266],"type":"Point"},"properties":{"osm_id":"1934600640","tag":{"amenity":"waste_basket"}},"type":"Feature"},
	{"geometry":{"coordinates":[-77.085131,38.8733],"type":"Point"},"properties":{"osm_id":"1934600644","tag":{"amenity":"recycling"}},"type":"Feature"},
	{"geometry":{"coordinates":[-77.085612,38.872877],"type":"Point"},"properties":{"osm_id":"1953033517","tag":{"amenity":"waste_basket"}},"type":"Feature"},
	{"geometry":{"coordinates":[-77.084637,38.863658],"type":"Point"},"properties":{"osm_id":"2003280360","tag":{"amenity":"waste_basket"}},"type":"Feature"},
	{"geometry":{"coordinates":[-77.084578,38.863666],"type":"Point"},"properties":{"osm_id":"2003280383","tag":{"amenity":"recycling"}},"type":"Feature"},
	{"geometry":{"coordinates":[-77.118875,38.861426],"type":"Point"},"properties":{"osm_id":"2607287308","tag":{"amenity":"recycling"}},"type":"Feature"},
	{"geometry":{"coordinates":[-77.107781,38.885838],"type":"Point"},"properties":{"osm_id":"3722230895","tag":{"amenity":"recycling","opening_hours":"24/7","operator":"Arlington County","recycling_type":"centre"}},"type":"Feature"},
	{"geometry":{"coordinates":[-77.116424,38.872115],"type":"Point"},"properties":{"osm_id":"3733779496","tag":{"amenity":"waste_basket"}},"type":"Feature"},
	{"geometry":{"coordinates":[-77.107921,38.866079],"type":"Point"},"properties":{"osm_id":"3734659925","tag":{"amenity":"waste_basket"}},"type":"Feature"},
	{"geometry":{"coordinates":[-77.084801,38.847813],"type":"Point"},"properties":{"osm_id":"3752101907","tag":{"amenity":"waste_basket"}},"type":"Feature"},
	{"geometry":{"coordinates":[-77.08481,38.847815],"type":"Point"},"properties":{"osm_id":"3752101908","tag":{"amenity":"recycling","recycling_type":"container"}},"type":"Feature"},
	{"geometry":{"coordinates":[-77.084721,38.829008],"type":"Point"},"properties":{"osm_id":"4176967301","tag":{"amenity":"waste_basket"}},"type":"Feature"},
	{"geometry":{"coordinates":[-77.167578,38.830294],"type":"Point"},"properties":{"osm_id":"4718756770","tag":{"amenity":"waste_disposal"}},"type":"Feature"},
	{"geometry":{"coordinates":[-77.142454,38.828673],"type":"Point"},"properties":{"osm_id":"4720919200","tag":{"amenity":"waste_disposal"}},"type":"Feature"},
	{"geometry":{"coordinates":[-77.127064,38.841141],"type":"Point"},"properties":{"osm_id":"4728788291","tag":{"amenity":"waste_basket"}},"type":"Feature"},
	{"geometry":{"coordinates":[-77.127081,38.841479],"type":"Point"},"properties":{"osm_id":"4728788330","tag":{"amenity":"waste_basket"}},"type":"Feature"},
	{"geometry":{"coordinates":[-77.142533,38.828102],"type":"Point"},"properties":{"osm_id":"4781752085","tag":{"amenity":"waste_basket"}},"type":"Feature"},
	{"geometry":{"coordinates":[-77.156299,38.835174],"type":"Point"},"properties":{"osm_id":"4787375717","tag":{"amenity":"waste_basket"}},"type":"Feature"},
	{"geometry":{"coordinates":[-77.15778,38.824116],"type":"Point"},"properties":{"osm_id":"4790956171","tag":{"amenity":"waste_basket"}},"type":"Feature"},
	{"geometry":{"coordinates":[-77.157028,38.823382],"type":"Point"},"properties":{"osm_id":"4790960129","tag":{"amenity":"waste_basket"}},"type":"Feature"},
	{"geometry":{"coordinates":[-77.157079,38.823225],"type":"Point"},"properties":{"osm_id":"4790964387","tag":{"amenity":"waste_basket"}},"type":"Feature"},
	{"geometry":{"coordinates":[-77.160664,38.82368],"type":"Point"},"properties":{"osm_id":"4790980440","tag":{"amenity":"waste_disposal"}},"type":"Feature"},
	{"geometry":{"coordinates":[-77.161597,38.823677],"type":"Point"},"properties":{"osm_id":"4790983680","tag":{"amenity":"waste_disposal"}},"type":"Feature"},
	{"geometry":{"coordinates":[-77.158032,38.836055],"type":"Point"},"properties":{"osm_id":"4799582699","tag":{"amenity":"waste_disposal"}},"type":"Feature"},
	{"geometry":{"coordinates":[-77.158051,38.83604],"type":"Point"},"properties":{"name":"Planet Aid","osm_id":"4799582700","tag":{"amenity":"recycling","brand":"Planet Aid","brand:wikidata":"Q7201055","brand:wikipedia":"en:Planet Aid","recycling:clothes":"yes","recycling:shoes":"yes","recycling_type":"container"}},"type":"Feature"},
	{"geometry":{"coordinates":[-77.156474,38.885843],"type":"Point"},"properties":{"osm_id":"4812627106","tag":{"amenity":"recycling","level":"0","recycling:paper":"yes","recycling_type":"container"}},"type":"Feature"},
	{"geometry":{"coordinates":[-77.15287,38.873628],"type":"Point"},"properties":{"osm_id":"4812905306","tag":{"amenity":"recycling","network":"Planet Aid","network:wikidata":"Q7201055","recycling:clothes":"yes","recycling_type":"container"}},"type":"Feature"},
	{"geometry":{"coordinates":[-77.152884,38.87368],"type":"Point"},"properties":{"osm_id":"4812905307","tag":{"amenity":"recycling","network":"Planet Aid","network:wikidata":"Q7201055","recycling:clothes":"yes","recycling_type":"container"}},"type":"Feature"},
	{"geometry":{"coordinates":[-77.126769,38.854167],"type":"Point"},"properties":{"osm_id":"5166419935","tag":{"amenity":"waste_basket"}},"type":"Feature"},
	{"geometry":{"coordinates":[-77.126534,38.85388],"type":"Point"},"properties":{"osm_id":"5166419939","tag":{"amenity":"waste_basket"}},"type":"Feature"},
	{"geometry":{"coordinates":[-77.125451,38.854395],"type":"Point"},"properties":{"osm_id":"5166419948","tag":{"amenity":"waste_basket"}},"type":"Feature"},
	{"geometry":{"coordinates":[-77.125835,38.854251],"type":"Point"},"properties":{"osm_id":"5166419974","tag":{"amenity":"waste_basket"}},"type":"Feature"},
	{"geometry":{"coordinates":[-77.123736,38.854416],"type":"Point"},"properties":{"osm_id":"5166419997","tag":{"amenity":"waste_disposal"}},"type":"Feature"},
	{"geometry":{"coordinates":[-77.126052,38.854177],"type":"Point"},"properties":{"osm_id":"5166420000","tag":{"amenity":"waste_basket"}},"type":"Feature"},
	{"geometry":{"coordinates":[-77.156211,38.835096],"type":"Point"},"properties":{"osm_id":"5254897894","tag":{"amenity":"waste_basket"}},"type":"Feature"},
	{"geometry":{"coordinates":[-77.155795,38.835713],"type":"Point"},"properties":{"osm_id":"5254897909","tag":{"amenity":"waste_basket"}},"type":"Feature"},
	{"geometry":{"coordinates":[-77.155653,38.835851],"type":"Point"},"properties":{"osm_id":"5254897910","tag":{"amenity":"waste_basket"}},"type":"Feature"},
	{"geometry":{"coordinates":[-77.155504,38.835952],"type":"Point"},"properties":{"osm_id":"5254897911","tag":{"amenity":"waste_basket"}},"type":"Feature"},
	{"geometry":{"coordinates":[-77.155356,38.836051],"type":"Point"},"properties":{"osm_id":"5254897920","tag":{"amenity":"waste_basket"}},"type":"Feature"},
	{"geometry":{"coordinates":[-77.155179,38.836714],"type":"Point"},"properties":{"osm_id":"5254897929","tag":{"amenity":"waste_basket"}},"type":"Feature"},
	{"geometry":{"coordinates":[-77.155117,38.837007],"type":"Point"},"properties":{"osm_id":"5254897933","tag":{"amenity":"waste_basket"}},"type":"Feature"},
	{"geometry":{"coordinates":[-77.155136,38.836882],"type":"Point"},"properties":{"osm_id":"5254897934","tag":{"amenity":"waste_basket"}},"type":"Feature"},
	{"geometry":{"coordinates":[-77.155192,38.836558],"type":"Point"},"properties":{"osm_id":"5254897935","tag":{"amenity":"waste_basket"}},"type":"Feature"},
	{"geometry":{"coordinates":[-77.155209,38.836471],"type":"Point"},"properties":{"osm_id":"5254897936","tag":{"amenity":"waste_basket"}},"type":"Feature"},
	{"geometry":{"coordinates":[-77.155234,38.836323],"type":"Point"},"properties":{"osm_id":"5254897937","tag":{"amenity":"waste_basket"}},"type":"Feature"},
	{"geometry":{"coordinates":[-77.15526,38.836171],"type":"Point"},"properties":{"osm_id":"5254897938","tag":{"amenity":"waste_basket"}},"type":"Feature"},
	{"geometry":{"coordinates":[-77.157953,38.824446],"type":"Point"},"properties":{"osm_id":"5254951820","tag":{"amenity":"waste_basket"}},"type":"Feature"},
	{"geometry":{"coordinates":[-77.143704,38.828597],"type":"Point"},"properties":{"osm_id":"5281153775","tag":{"amenity":"waste_basket"}},"type":"Feature"},
	{"geometry":{"coordinates":[-77.143641,38.828707],"type":"Point"},"properties":{"osm_id":"5281153776","tag":{"amenity":"waste_basket"}},"type":"Feature"},
	{"geometry":{"coordinates":[-77.110802,38.88389],"type":"Point"},"properties":{"osm_id":"5536246218","tag":{"amenity":"waste_basket"}},"type":"Feature"},
	{"geometry":{"coordinates":[-77.119015,38.885611],"type":"Point"},"properties":{"osm_id":"5536725022","tag":{"amenity":"waste_basket","waste":"trash"}},"type":"Feature"},
	{"geometry":{"coordinates":[-77.116734,38.887786],"type":"Point"},"properties":{"osm_id":"5536725037","tag":{"amenity":"waste_basket","waste":"trash"}},"type":"Feature"},
	{"geometry":{"coordinates":[-77.103773,38.889735],"type":"Point"},"properties":{"osm_id":"5553284671","tag":{"amenity":"waste_basket","waste":"trash"}},"type":"Feature"},
	{"geometry":{"coordinates":[-77.108968,38.888831],"type":"Point"},"properties":{"osm_id":"5553510352","tag":{"amenity":"waste_basket","waste":"trash"}},"type":"Feature"},
	{"geometry":{"coordinates":[-77.104212,38.889614],"type":"Point"},"properties":{"osm_id":"5553510358","tag":{"amenity":"waste_basket","waste":"trash"}},"type":"Feature"},
	{"geometry":{"coordinates":[-77.103711,38.889482],"type":"Point"},"properties":{"osm_id":"5553510359","tag":{"amenity":"waste_basket","waste":"trash"}},"type":"Feature"},
	{"geometry":{"coordinates":[-77.103223,38.890235],"type":"Point"},"properties":{"osm_id":"5553510362","tag":{"amenity":"waste_basket","waste":"trash"}},"type":"Feature"},
	{"geometry":{"coordinates":[-77.103987,38.889874],"type":"Point"},"properties":{"osm_id":"5553510363","tag":{"amenity":"waste_basket","waste":"trash"}},"type":"Feature"},
	{"geometry":{"coordinates":[-77.104326,38.889499],"type":"Point"},"properties":{"osm_id":"5553510369","tag":{"amenity":"waste_basket","waste":"trash"}},"type":"Feature"},
	{"geometry":{"coordinates":[-77.104053,38.889733],"type":"Point"},"properties":{"osm_id":"5553510379","tag":{"amenity":"waste_basket","waste":"trash"}},"type":"Feature"},
	{"geometry":{"coordinates":[-77.104572,38.889866],"type":"Point"},"properties":{"osm_id":"5553510387","tag":{"amenity":"waste_basket","waste":"trash"}},"type":"Feature"},
	{"geometry":{"coordinates":[-77.103157,38.89009],"type":"Point"},"properties":{"osm_id":"5553510390","tag":{"amenity":"waste_basket","waste":"trash"}},"type":"Feature"},
	{"geometry":{"coordinates":[-77.110429,38.888556],"type":"Point"},"properties":{"osm_id":"5553857705","tag":{"amenity":"waste_basket","waste":"trash"}},"type":"Feature"},
	{"geometry":{"coordinates":[-77.110258,38.888563],"type":"Point"},"properties":{"osm_id":"5553857708","tag":{"amenity":"waste_basket","waste":"trash"}},"type":"Feature"},
	{"geometry":{"coordinates":[-77.09469,38.884331],"type":"Point"},"properties":{"osm_id":"5583547606","tag":{"amenity":"waste_basket","waste":"trash"}},"type":"Feature"},
	{"geometry":{"coordinates":[-77.094702,38.884661],"type":"Point"},"properties":{"osm_id":"5583547611","tag":{"amenity":"waste_basket","waste":"trash"}},"type":"Feature"},
	{"geometry":{"coordinates":[-77.112098,38.883956],"type":"Point"},"properties":{"osm_id":"5599563201","tag":{"amenity":"waste_basket","waste":"trash"}},"type":"Feature"},
	{"geometry":{"coordinates":[-77.111203,38.887326],"type":"Point"},"properties":{"osm_id":"5600855376","tag":{"amenity":"waste_basket","waste":"trash"}},"type":"Feature"},
	{"geometry":{"coordinates":[-77.087613,38.884473],"type":"Point"},"properties":{"osm_id":"5612675685","tag":{"amenity":"waste_basket","waste":"trash"}},"type":"Feature"},
	{"geometry":{"coordinates":[-77.139872,38.887589],"type":"Point"},"properties":{"osm_id":"5643920119","tag":{"amenity":"waste_basket","waste":"trash"}},"type":"Feature"},
	{"geometry":{"coordinates":[-77.085849,38.862953],"type":"Point"},"properties":{"osm_id":"5665099125","tag":{"amenity":"waste_basket","waste":"trash"}},"type":"Feature"},
	{"geometry":{"coordinates":[-77.085182,38.862938],"type":"Point"},"properties":{"osm_id":"5665099131","tag":{"amenity":"waste_basket","waste":"trash"}},"type":"Feature"},
	{"geometry":{"coordinates":[-77.085145,38.863128],"type":"Point"},"properties":{"osm_id":"5665099132","tag":{"amenity":"waste_basket","waste":"trash"}},"type":"Feature"},
	{"geometry":{"coordinates":[-77.084303,38.863358],"type":"Point"},"properties":{"osm_id":"5665099134","tag":{"amenity":"waste_basket","waste":"trash"}},"type":"Feature"},
	{"geometry":{"coordinates":[-77.083935,38.863439],"type":"Point"},"properties":{"osm_id":"5665099137","tag":{"amenity":"waste_basket","waste":"trash"}},"type":"Feature"},
	{"geometry":{"coordinates":[-77.085722,38.841858],"type":"Point"},"properties":{"osm_id":"5676681781","tag":{"amenity":"waste_basket","waste":"trash"}},"type":"Feature"},
	{"geometry":{"coordinates":[-77.091685,38.887308],"type":"Point"},"properties":{"osm_id":"6139389050","tag":{"amenity":"waste_basket","waste":"trash"}},"type":"Feature"},
	{"geometry":{"coordinates":[-77.118103,38.88188],"type":"Point"},"properties":{"osm_id":"6154374652","tag":{"amenity":"waste_basket","waste":"trash"}},"type":"Feature"},
	{"geometry":{"coordinates":[-77.101677,38.88394],"type":"Point"},"properties":{"osm_id":"6165283153","tag":{"amenity":"waste_basket","waste":"trash"}},"type":"Feature"},
	{"geometry":{"coordinates":[-77.102259,38.8837],"type":"Point"},"properties":{"osm_id":"6165283154","tag":{"amenity":"waste_basket","waste":"trash"}},"type":"Feature"},
	{"geometry":{"coordinates":[-77.121257,38.886948],"type":"Point"},"properties":{"osm_id":"6184957518","tag":{"amenity":"waste_basket","waste":"trash"}},"type":"Feature"},
	{"geometry":{"coordinates":[-77.120396,38.886423],"type":"Point"},"properties":{"osm_id":"6184957524","tag":{"amenity":"recycling","recycling_type":"container"}},"type":"Feature"},
	{"geometry":{"coordinates":[-77.120818,38.887127],"type":"Point"},"properties":{"osm_id":"6184957551","tag":{"amenity":"recycling","recycling_type":"container"}},"type":"Feature"},
	{"geometry":{"coordinates":[-77.121249,38.886954],"type":"Point"},"properties":{"osm_id":"6184957552","tag":{"amenity":"recycling","recycling_type":"container"}},"type":"Feature"},
	{"geometry":{"coordinates":[-77.120814,38.887143],"type":"Point"},"properties":{"osm_id":"6184957564","tag":{"amenity":"waste_basket","waste":"trash"}},"type":"Feature"},
	{"geometry":{"coordinates":[-77.120409,38.886419],"type":"Point"},"properties":{"osm_id":"6184958090","tag":{"amenity":"waste_basket","waste":"trash"}},"type":"Feature"},
	{"geometry":{"coordinates":[-77.107751,38.890084],"type":"Point"},"properties":{"osm_id":"6359317721","tag":{"amenity":"waste_disposal"}},"type":"Feature"},
	{"geometry":{"coordinates":[-77.107179,38.865544],"type":"Point"},"properties":{"osm_id":"6380814579","tag":{"amenity":"waste_basket"}},"type":"Feature"},
	{"geometry":{"coordinates":[-77.107546,38.865813],"type":"Point"},"properties":{"osm_id":"6380814925","tag":{"amenity":"waste_basket"}},"type":"Feature"},
	{"geometry":{"coordinates":[-77.109503,38.889918],"type":"Point"},"properties":{"osm_id":"6389029569","tag":{"amenity":"waste_basket"}},"type":"Feature"},
	{"geometry":{"coordinates":[-77.088158,38.887599],"type":"Point"},"properties":{"osm_id":"6419667210","tag":{"amenity":"waste_basket"}},"type":"Feature"},
	{"geometry":{"coordinates":[-77.128534,38.86792],"type":"Point"},"properties":{"osm_id":"7173185788","tag":{"amenity":"waste_basket","mapillary":"2Ofgtfb32DWO5KDenwTIPA","material":"Steel_Mesh"}},"type":"Feature"},
	{"geometry":{"coordinates":[-77.164365,38.836783],"type":"Point"},"properties":{"osm_id":"7262334901","tag":{"amenity":"recycling","collection_times":"24/7","operator":"Fairfax County Solid Waste","recycling:glass":"yes","recycling_type":"container"}},"type":"Feature"},
	{"geometry":{"coordinates":[-77.090912,38.886461],"type":"Point"},"properties":{"osm_id":"7574596862","tag":{"amenity":"waste_basket"}},"type":"Feature"}
]
}
