{
"type": "FeatureCollection",
"features": [
	{"geometry":{"coordinates":[72.949031,19.221326],"type":"Point"},"properties":{"name":"Kateri Seed","osm_id":"8441942634","tag":{"natural":"tree"}},"type":"Feature"},
	{"geometry":{"coordinates":[72.948809,19.22186],"type":"Point"},"properties":{"name":"Kateri seed","osm_id":"8442021277","tag":{"natural":"tree"}},"type":"Feature"},
	{"geometry":{"coordinates":[72.948668,19.222359],"type":"Point"},"properties":{"name":"Af base","osm_id":"8442047327","tag":{"natural":"tree"}},"type":"Feature"},
	{"geometry":{"coordinates":[72.878144,19.173861],"type":"Point"},"properties":{"name":"Kadamb","osm_id":"8944478702","tag":{"natural":"tree"}},"type":"Feature"},
	{"geometry":{"coordinates":[72.878437,19.174161],"type":"Point"},"properties":{"name":"Desi Badam","osm_id":"8944568042","tag":{"natural":"tree"}},"type":"Feature"},
	{"geometry":{"coordinates":[72.878434,19.174138],"type":"Point"},"properties":{"name":"Coconut tree","osm_id":"8944575072","tag":{"natural":"tree"}},"type":"Feature"},
	{"geometry":{"coordinates":[72.878747,19.173974],"type":"Point"},"properties":{"name":"Peepal (Ficus Religiosa)","osm_id":"8947870671","tag":{"addr:housenumber":"Opposite to stage","addr:street":"NNP School Ground","description":"Old peepal tree","natural":"tree"}},"type":"Feature"},
	{"geometry":{"coordinates":[72.878863,19.174166],"type":"Point"},"properties":{"name":"4 Australian Acacia","osm_id":"8947878830","tag":{"addr:street":"NNP School Ground","description":"4 trees in a row","natural":"tree"}},"type":"Feature"},
	{"geometry":{"coordinates":[72.878961,19.174148],"type":"Point"},"properties":{"name":"Peepal","osm_id":"8947888950","tag":{"addr:street":"NNP School ground","description":"Old Peepal tree near to jogging track","natural":"tree"}},"type":"Feature"},
	{"geometry":{"coordinates":[72.878778,19.17437],"type":"Point"},"properties":{"name":"4 Australian Acacia","osm_id":"8947891039","tag":{"addr:street":"Near NNP School","description":"4 Trees in a row","natural":"tree"}},"type":"Feature"}
]
}
