{
"type": "FeatureCollection",
"features": [
	{"geometry":{"coordinates":[-77.122934,38.909218],"type":"Point"},"properties":{"osm_id":"2570929371","tag":{"natural":"tree"}},"type":"Feature"},
	{"geometry":{"coordinates":[-77.122374,38.908794],"type":"Point"},"properties":{"osm_id":"2570929373","tag":{"natural":"tree"}},"type":"Feature"},
	{"geometry":{"coordinates":[-77.121542,38.908984],"type":"Point"},"properties":{"osm_id":"2570929376","tag":{"natural":"tree"}},"type":"Feature"},
	{"geometry":{"coordinates":[-77.121525,38.907789],"type":"Point"},"properties":{"osm_id":"2570929538","tag":{"natural":"tree"}},"type":"Feature"},
	{"geometry":{"coordinates":[-77.120949,38.90963],"type":"Point"},"properties":{"osm_id":"2570929541","tag":{"natural":"tree"}},"type":"Feature"},
	{"geometry":{"coordinates":[-77.121718,38.913773],"type":"Point"},"properties":{"osm_id":"2570931761","tag":{"natural":"tree"}},"type":"Feature"},
	{"geometry":{"coordinates":[-77.1216,38.913894],"type":"Point"},"properties":{"osm_id":"2570931762","tag":{"natural":"tree"}},"type":"Feature"},
	{"geometry":{"coordinates":[-77.121362,38.913973],"type":"Point"},"properties":{"osm_id":"2570931763","tag":{"natural":"tree"}},"type":"Feature"},
	{"geometry":{"coordinates":[-77.121273,38.9137],"type":"Point"},"properties":{"osm_id":"2570931764","tag":{"natural":"tree"}},"type":"Feature"},
	{"geometry":{"coordinates":[-77.121448,38.913547],"type":"Point"},"properties":{"osm_id":"2570931765","tag":{"natural":"tree"}},"type":"Feature"},
	{"geometry":{"coordinates":[-77.121212,38.913543],"type":"Point"},"properties":{"osm_id":"2570931766","tag":{"natural":"tree"}},"type":"Feature"},
	{"geometry":{"coordinates":[-77.120949,38.913679],"type":"Point"},"properties":{"osm_id":"2570931767","tag":{"natural":"tree"}},"type":"Feature"},
	{"geometry":{"coordinates":[-77.120168,38.914127],"type":"Point"},"properties":{"osm_id":"2570931768","tag":{"natural":"tree"}},"type":"Feature"},
	{"geometry":{"coordinates":[-77.119956,38.914416],"type":"Point"},"properties":{"osm_id":"2570931769","tag":{"natural":"tree"}},"type":"Feature"},
	{"geometry":{"coordinates":[-77.119785,38.914399],"type":"Point"},"properties":{"osm_id":"2570931770","tag":{"natural":"tree"}},"type":"Feature"},
	{"geometry":{"coordinates":[-77.119567,38.914461],"type":"Point"},"properties":{"osm_id":"2570931771","tag":{"natural":"tree"}},"type":"Feature"},
	{"geometry":{"coordinates":[-77.118693,38.913643],"type":"Point"},"properties":{"osm_id":"2570931772","tag":{"natural":"tree"}},"type":"Feature"},
	{"geometry":{"coordinates":[-77.118379,38.913894],"type":"Point"},"properties":{"osm_id":"2570931773","tag":{"natural":"tree"}},"type":"Feature"},
	{"geometry":{"coordinates":[-77.119774,38.913408],"type":"Point"},"properties":{"osm_id":"2570931784","tag":{"natural":"tree"}},"type":"Feature"},
	{"geometry":{"coordinates":[-77.12053,38.913218],"type":"Point"},"properties":{"osm_id":"2570931785","tag":{"natural":"tree"}},"type":"Feature"},
	{"geometry":{"coordinates":[-77.120251,38.913115],"type":"Point"},"properties":{"osm_id":"2570931786","tag":{"natural":"tree"}},"type":"Feature"},
	{"geometry":{"coordinates":[-77.120911,38.912936],"type":"Point"},"properties":{"osm_id":"2570931787","tag":{"natural":"tree"}},"type":"Feature"},
	{"geometry":{"coordinates":[-77.121641,38.912562],"type":"Point"},"properties":{"osm_id":"2570931788","tag":{"natural":"tree"}},"type":"Feature"},
	{"geometry":{"coordinates":[-77.121464,38.912702],"type":"Point"},"properties":{"osm_id":"2570931789","tag":{"natural":"tree"}},"type":"Feature"},
	{"geometry":{"coordinates":[-77.121102,38.912894],"type":"Point"},"properties":{"osm_id":"2570931790","tag":{"natural":"tree"}},"type":"Feature"},
	{"geometry":{"coordinates":[-77.122024,38.913614],"type":"Point"},"properties":{"osm_id":"2570931791","tag":{"natural":"tree"}},"type":"Feature"},
	{"geometry":{"coordinates":[-77.121772,38.913082],"type":"Point"},"properties":{"osm_id":"2570931792","tag":{"natural":"tree"}},"type":"Feature"},
	{"geometry":{"coordinates":[-77.121729,38.913238],"type":"Point"},"properties":{"osm_id":"2570931793","tag":{"natural":"tree"}},"type":"Feature"},
	{"geometry":{"coordinates":[-77.122038,38.91327],"type":"Point"},"properties":{"osm_id":"2570931794","tag":{"natural":"tree"}},"type":"Feature"},
	{"geometry":{"coordinates":[-77.122317,38.913226],"type":"Point"},"properties":{"osm_id":"2570931795","tag":{"natural":"tree"}},"type":"Feature"},
	{"geometry":{"coordinates":[-77.122343,38.912575],"type":"Point"},"properties":{"osm_id":"2570931796","tag":{"natural":"tree"}},"type":"Feature"},
	{"geometry":{"coordinates":[-77.122236,38.913733],"type":"Point"},"properties":{"osm_id":"2570931797","tag":{"natural":"tree"}},"type":"Feature"},
	{"geometry":{"coordinates":[-77.120621,38.914011],"type":"Point"},"properties":{"osm_id":"2570931801","tag":{"natural":"tree"}},"type":"Feature"},
	{"geometry":{"coordinates":[-77.120959,38.914445],"type":"Point"},"properties":{"osm_id":"2570931802","tag":{"natural":"tree"}},"type":"Feature"},
	{"geometry":{"coordinates":[-77.118975,38.912558],"type":"Point"},"properties":{"osm_id":"2570933779","tag":{"natural":"tree"}},"type":"Feature"},
	{"geometry":{"coordinates":[-77.118819,38.912729],"type":"Point"},"properties":{"osm_id":"2570933780","tag":{"natural":"tree"}},"type":"Feature"},
	{"geometry":{"coordinates":[-77.118634,38.912844],"type":"Point"},"properties":{"osm_id":"2570933781","tag":{"natural":"tree"}},"type":"Feature"},
	{"geometry":{"coordinates":[-77.119076,38.912393],"type":"Point"},"properties":{"osm_id":"2570933782","tag":{"natural":"tree"}},"type":"Feature"},
	{"geometry":{"coordinates":[-77.119524,38.912381],"type":"Point"},"properties":{"osm_id":"2570933783","tag":{"natural":"tree"}},"type":"Feature"},
	{"geometry":{"coordinates":[-77.119935,38.91212],"type":"Point"},"properties":{"osm_id":"2570933784","tag":{"natural":"tree"}},"type":"Feature"},
	{"geometry":{"coordinates":[-77.120667,38.91294],"type":"Point"},"properties":{"osm_id":"2570933785","tag":{"natural":"tree"}},"type":"Feature"},
	{"geometry":{"coordinates":[-77.11832,38.913115],"type":"Point"},"properties":{"osm_id":"2570933786","tag":{"natural":"tree"}},"type":"Feature"},
	{"geometry":{"coordinates":[-77.118476,38.913182],"type":"Point"},"properties":{"osm_id":"2570933787","tag":{"natural":"tree"}},"type":"Feature"},
	{"geometry":{"coordinates":[-77.117955,38.913326],"type":"Point"},"properties":{"osm_id":"2570933788","tag":{"natural":"tree"}},"type":"Feature"},
	{"geometry":{"coordinates":[-77.117888,38.913416],"type":"Point"},"properties":{"osm_id":"2570933789","tag":{"natural":"tree"}},"type":"Feature"},
	{"geometry":{"coordinates":[-77.117572,38.913595],"type":"Point"},"properties":{"osm_id":"2570933790","tag":{"natural":"tree"}},"type":"Feature"},
	{"geometry":{"coordinates":[-77.122027,38.909643],"type":"Point"},"properties":{"osm_id":"2570933793","tag":{"natural":"tree"}},"type":"Feature"},
	{"geometry":{"coordinates":[-77.121768,38.909614],"type":"Point"},"properties":{"osm_id":"2570933794","tag":{"natural":"tree"}},"type":"Feature"},
	{"geometry":{"coordinates":[-77.122231,38.908942],"type":"Point"},"properties":{"osm_id":"2570933795","tag":{"natural":"tree"}},"type":"Feature"},
	{"geometry":{"coordinates":[-77.122388,38.907932],"type":"Point"},"properties":{"osm_id":"2570933796","tag":{"natural":"tree"}},"type":"Feature"},
	{"geometry":{"coordinates":[-77.122734,38.908045],"type":"Point"},"properties":{"osm_id":"2570933797","tag":{"natural":"tree"}},"type":"Feature"},
	{"geometry":{"coordinates":[-77.122291,38.908237],"type":"Point"},"properties":{"osm_id":"2570933798","tag":{"natural":"tree"}},"type":"Feature"},
	{"geometry":{"coordinates":[-77.124134,38.9087],"type":"Point"},"properties":{"osm_id":"2570933799","tag":{"natural":"tree"}},"type":"Feature"},
	{"geometry":{"coordinates":[-77.124925,38.908226],"type":"Point"},"properties":{"osm_id":"2570933800","tag":{"natural":"tree"}},"type":"Feature"},
	{"geometry":{"coordinates":[-77.125199,38.907976],"type":"Point"},"properties":{"osm_id":"2570933801","tag":{"natural":"tree"}},"type":"Feature"},
	{"geometry":{"coordinates":[-77.125569,38.907748],"type":"Point"},"properties":{"osm_id":"2570933802","tag":{"natural":"tree"}},"type":"Feature"},
	{"geometry":{"coordinates":[-77.125435,38.907857],"type":"Point"},"properties":{"osm_id":"2570933803","tag":{"natural":"tree"}},"type":"Feature"},
	{"geometry":{"coordinates":[-77.126017,38.907408],"type":"Point"},"properties":{"osm_id":"2570933804","tag":{"natural":"tree"}},"type":"Feature"},
	{"geometry":{"coordinates":[-77.126127,38.907354],"type":"Point"},"properties":{"osm_id":"2570933805","tag":{"natural":"tree"}},"type":"Feature"},
	{"geometry":{"coordinates":[-77.126274,38.907247],"type":"Point"},"properties":{"osm_id":"2570933806","tag":{"natural":"tree"}},"type":"Feature"},
	{"geometry":{"coordinates":[-77.1265,38.907103],"type":"Point"},"properties":{"osm_id":"2570933807","tag":{"natural":"tree"}},"type":"Feature"},
	{"geometry":{"coordinates":[-77.126671,38.906949],"type":"Point"},"properties":{"osm_id":"2570933808","tag":{"natural":"tree"}},"type":"Feature"},
	{"geometry":{"coordinates":[-77.127543,38.90727],"type":"Point"},"properties":{"osm_id":"2570933809","tag":{"natural":"tree"}},"type":"Feature"},
	{"geometry":{"coordinates":[-77.12721,38.907172],"type":"Point"},"properties":{"osm_id":"2570933810","tag":{"natural":"tree"}},"type":"Feature"},
	{"geometry":{"coordinates":[-77.126931,38.907454],"type":"Point"},"properties":{"osm_id":"2570933811","tag":{"natural":"tree"}},"type":"Feature"},
	{"geometry":{"coordinates":[-77.126875,38.907341],"type":"Point"},"properties":{"osm_id":"2570933812","tag":{"natural":"tree"}},"type":"Feature"},
	{"geometry":{"coordinates":[-77.12643,38.907832],"type":"Point"},"properties":{"osm_id":"2570933813","tag":{"natural":"tree"}},"type":"Feature"},
	{"geometry":{"coordinates":[-77.126443,38.907686],"type":"Point"},"properties":{"osm_id":"2570933814","tag":{"natural":"tree"}},"type":"Feature"},
	{"geometry":{"coordinates":[-77.126317,38.908128],"type":"Point"},"properties":{"osm_id":"2570933815","tag":{"natural":"tree"}},"type":"Feature"},
	{"geometry":{"coordinates":[-77.126044,38.907988],"type":"Point"},"properties":{"osm_id":"2570933816","tag":{"natural":"tree"}},"type":"Feature"},
	{"geometry":{"coordinates":[-77.126462,38.908533],"type":"Point"},"properties":{"osm_id":"2570933817","tag":{"natural":"tree"}},"type":"Feature"},
	{"geometry":{"coordinates":[-77.126277,38.9086],"type":"Point"},"properties":{"osm_id":"2570933818","tag":{"natural":"tree"}},"type":"Feature"},
	{"geometry":{"coordinates":[-77.126899,38.908934],"type":"Point"},"properties":{"osm_id":"2570933819","tag":{"natural":"tree"}},"type":"Feature"},
	{"geometry":{"coordinates":[-77.127175,38.908773],"type":"Point"},"properties":{"osm_id":"2570933820","tag":{"natural":"tree"}},"type":"Feature"},
	{"geometry":{"coordinates":[-77.127513,38.908569],"type":"Point"},"properties":{"osm_id":"2570933821","tag":{"natural":"tree"}},"type":"Feature"},
	{"geometry":{"coordinates":[-77.1279,38.908911],"type":"Point"},"properties":{"osm_id":"2570933822","tag":{"natural":"tree"}},"type":"Feature"},
	{"geometry":{"coordinates":[-77.127167,38.909443],"type":"Point"},"properties":{"osm_id":"2570933823","tag":{"natural":"tree"}},"type":"Feature"},
	{"geometry":{"coordinates":[-77.126215,38.909696],"type":"Point"},"properties":{"osm_id":"2570933824","tag":{"natural":"tree"}},"type":"Feature"},
	{"geometry":{"coordinates":[-77.126406,38.90952],"type":"Point"},"properties":{"osm_id":"2570933825","tag":{"natural":"tree"}},"type":"Feature"},
	{"geometry":{"coordinates":[-77.126628,38.909504],"type":"Point"},"properties":{"osm_id":"2570933826","tag":{"natural":"tree"}},"type":"Feature"},
	{"geometry":{"coordinates":[-77.125976,38.909464],"type":"Point"},"properties":{"osm_id":"2570933827","tag":{"natural":"tree"}},"type":"Feature"},
	{"geometry":{"coordinates":[-77.125644,38.909433],"type":"Point"},"properties":{"osm_id":"2570933828","tag":{"natural":"tree"}},"type":"Feature"},
	{"geometry":{"coordinates":[-77.125856,38.90917],"type":"Point"},"properties":{"osm_id":"2570933829","tag":{"natural":"tree"}},"type":"Feature"},
	{"geometry":{"coordinates":[-77.124963,38.910027],"type":"Point"},"properties":{"osm_id":"2570933830","tag":{"natural":"tree"}},"type":"Feature"},
	{"geometry":{"coordinates":[-77.124351,38.910199],"type":"Point"},"properties":{"osm_id":"2570933831","tag":{"natural":"tree"}},"type":"Feature"},
	{"geometry":{"coordinates":[-77.124179,38.909917],"type":"Point"},"properties":{"osm_id":"2570933832","tag":{"natural":"tree"}},"type":"Feature"},
	{"geometry":{"coordinates":[-77.123887,38.910182],"type":"Point"},"properties":{"osm_id":"2570933833","tag":{"natural":"tree"}},"type":"Feature"},
	{"geometry":{"coordinates":[-77.124048,38.910098],"type":"Point"},"properties":{"osm_id":"2570933834","tag":{"natural":"tree"}},"type":"Feature"},
	{"geometry":{"coordinates":[-77.123726,38.91004],"type":"Point"},"properties":{"osm_id":"2570933835","tag":{"natural":"tree"}},"type":"Feature"},
	{"geometry":{"coordinates":[-77.123616,38.910169],"type":"Point"},"properties":{"osm_id":"2570933836","tag":{"natural":"tree"}},"type":"Feature"},
	{"geometry":{"coordinates":[-77.12342,38.910113],"type":"Point"},"properties":{"osm_id":"2570933837","tag":{"natural":"tree"}},"type":"Feature"},
	{"geometry":{"coordinates":[-77.123136,38.910048],"type":"Point"},"properties":{"osm_id":"2570933838","tag":{"natural":"tree"}},"type":"Feature"},
	{"geometry":{"coordinates":[-77.122616,38.909629],"type":"Point"},"properties":{"osm_id":"2570933839","tag":{"natural":"tree"}},"type":"Feature"},
	{"geometry":{"coordinates":[-77.12654,38.910007],"type":"Point"},"properties":{"osm_id":"2570933840","tag":{"natural":"tree"}},"type":"Feature"},
	{"geometry":{"coordinates":[-77.126333,38.910096],"type":"Point"},"properties":{"osm_id":"2570933841","tag":{"natural":"tree"}},"type":"Feature"},
	{"geometry":{"coordinates":[-77.124866,38.910829],"type":"Point"},"properties":{"osm_id":"2570933842","tag":{"natural":"tree"}},"type":"Feature"},
	{"geometry":{"coordinates":[-77.124533,38.91096],"type":"Point"},"properties":{"osm_id":"2570933843","tag":{"natural":"tree"}},"type":"Feature"},
	{"geometry":{"coordinates":[-77.122347,38.910303],"type":"Point"},"properties":{"osm_id":"2570933844","tag":{"natural":"tree"}},"type":"Feature"},
	{"geometry":{"coordinates":[-77.120931,38.910992],"type":"Point"},"properties":{"osm_id":"2570933845","tag":{"natural":"tree"}},"type":"Feature"},
	{"geometry":{"coordinates":[-77.121025,38.911159],"type":"Point"},"properties":{"osm_id":"2570933846","tag":{"natural":"tree"}},"type":"Feature"},
	{"geometry":{"coordinates":[-77.151409,38.9551],"type":"Point"},"properties":{"osm_id":"3082187850","tag":{"natural":"tree"}},"type":"Feature"},
	{"geometry":{"coordinates":[-77.151195,38.955268],"type":"Point"},"properties":{"osm_id":"3082187873","tag":{"natural":"tree"}},"type":"Feature"},
	{"geometry":{"coordinates":[-77.151397,38.955286],"type":"Point"},"properties":{"osm_id":"3082187874","tag":{"natural":"tree"}},"type":"Feature"},
	{"geometry":{"coordinates":[-77.151036,38.955336],"type":"Point"},"properties":{"osm_id":"3082187879","tag":{"natural":"tree"}},"type":"Feature"},
	{"geometry":{"coordinates":[-77.150951,38.955376],"type":"Point"},"properties":{"osm_id":"3082187883","tag":{"natural":"tree"}},"type":"Feature"},
	{"geometry":{"coordinates":[-77.150594,38.955432],"type":"Point"},"properties":{"osm_id":"3082187887","tag":{"natural":"tree"}},"type":"Feature"},
	{"geometry":{"coordinates":[-77.151,38.955467],"type":"Point"},"properties":{"osm_id":"3082187891","tag":{"natural":"tree"}},"type":"Feature"},
	{"geometry":{"coordinates":[-77.151179,38.955478],"type":"Point"},"properties":{"osm_id":"3082187892","tag":{"natural":"tree"}},"type":"Feature"},
	{"geometry":{"coordinates":[-77.150829,38.955558],"type":"Point"},"properties":{"osm_id":"3082187902","tag":{"natural":"tree"}},"type":"Feature"},
	{"geometry":{"coordinates":[-77.150702,38.955591],"type":"Point"},"properties":{"osm_id":"3082187904","tag":{"natural":"tree"}},"type":"Feature"},
	{"geometry":{"coordinates":[-77.150556,38.955597],"type":"Point"},"properties":{"osm_id":"3082187905","tag":{"natural":"tree"}},"type":"Feature"},
	{"geometry":{"coordinates":[-77.150991,38.955633],"type":"Point"},"properties":{"osm_id":"3082187907","tag":{"natural":"tree"}},"type":"Feature"},
	{"geometry":{"coordinates":[-77.150812,38.955948],"type":"Point"},"properties":{"osm_id":"3082188143","tag":{"natural":"tree"}},"type":"Feature"},
	{"geometry":{"coordinates":[-77.150574,38.956112],"type":"Point"},"properties":{"osm_id":"3082188152","tag":{"natural":"tree"}},"type":"Feature"},
	{"geometry":{"coordinates":[-77.114881,38.902856],"type":"Point"},"properties":{"name":"Cedar Tree","osm_id":"3654944801","tag":{"addr:city":"Arlington","addr:housenumber":"2363","addr:postcode":"22207","addr:state":"VA","addr:street":"North Taylor Street","leaf_cycle":"evergreen","leaf_type":"needleleaved","natural":"tree"}},"type":"Feature"},
	{"geometry":{"coordinates":[-77.121909,38.89817],"type":"Point"},"properties":{"osm_id":"3657072065","tag":{"leaf_type":"broadleaved","natural":"tree"}},"type":"Feature"},
	{"geometry":{"coordinates":[-77.121834,38.898177],"type":"Point"},"properties":{"osm_id":"3657072066","tag":{"natural":"tree"}},"type":"Feature"},
	{"geometry":{"coordinates":[-77.12176,38.898207],"type":"Point"},"properties":{"osm_id":"3657072067","tag":{"natural":"tree"}},"type":"Feature"},
	{"geometry":{"coordinates":[-77.121673,38.898233],"type":"Point"},"properties":{"osm_id":"3657072068","tag":{"natural":"tree"}},"type":"Feature"},
	{"geometry":{"coordinates":[-77.121587,38.898261],"type":"Point"},"properties":{"osm_id":"3657072069","tag":{"natural":"tree"}},"type":"Feature"},
	{"geometry":{"coordinates":[-77.121516,38.898286],"type":"Point"},"properties":{"osm_id":"3657072070","tag":{"natural":"tree"}},"type":"Feature"},
	{"geometry":{"coordinates":[-77.121437,38.898318],"type":"Point"},"properties":{"osm_id":"3657072071","tag":{"natural":"tree"}},"type":"Feature"},
	{"geometry":{"coordinates":[-77.121358,38.898342],"type":"Point"},"properties":{"osm_id":"3657072072","tag":{"natural":"tree"}},"type":"Feature"},
	{"geometry":{"coordinates":[-77.121271,38.898373],"type":"Point"},"properties":{"osm_id":"3657072073","tag":{"natural":"tree"}},"type":"Feature"},
	{"geometry":{"coordinates":[-77.121188,38.8984],"type":"Point"},"properties":{"osm_id":"3657072074","tag":{"natural":"tree"}},"type":"Feature"},
	{"geometry":{"coordinates":[-77.089421,38.914785],"type":"Point"},"properties":{"osm_id":"4957640117","tag":{"natural":"tree"}},"type":"Feature"},
	{"geometry":{"coordinates":[-77.089332,38.914746],"type":"Point"},"properties":{"osm_id":"4957640118","tag":{"natural":"tree"}},"type":"Feature"},
	{"geometry":{"coordinates":[-77.087717,38.914303],"type":"Point"},"properties":{"osm_id":"4957641300","tag":{"natural":"tree"}},"type":"Feature"},
	{"geometry":{"coordinates":[-77.087647,38.914344],"type":"Point"},"properties":{"osm_id":"4957641301","tag":{"natural":"tree"}},"type":"Feature"},
	{"geometry":{"coordinates":[-77.087591,38.914404],"type":"Point"},"properties":{"osm_id":"4957641302","tag":{"natural":"tree"}},"type":"Feature"},
	{"geometry":{"coordinates":[-77.087528,38.914442],"type":"Point"},"properties":{"osm_id":"4957641303","tag":{"natural":"tree"}},"type":"Feature"},
	{"geometry":{"coordinates":[-77.087475,38.914492],"type":"Point"},"properties":{"osm_id":"4957641304","tag":{"natural":"tree"}},"type":"Feature"},
	{"geometry":{"coordinates":[-77.087406,38.914529],"type":"Point"},"properties":{"osm_id":"4957641305","tag":{"natural":"tree"}},"type":"Feature"},
	{"geometry":{"coordinates":[-77.087807,38.913916],"type":"Point"},"properties":{"osm_id":"4957641332","tag":{"natural":"tree"}},"type":"Feature"},
	{"geometry":{"coordinates":[-77.086443,38.913755],"type":"Point"},"properties":{"osm_id":"4957641437","tag":{"natural":"tree"}},"type":"Feature"},
	{"geometry":{"coordinates":[-77.087012,38.914061],"type":"Point"},"properties":{"osm_id":"4957641438","tag":{"natural":"tree"}},"type":"Feature"},
	{"geometry":{"coordinates":[-77.087147,38.913961],"type":"Point"},"properties":{"osm_id":"4957641440","tag":{"natural":"tree"}},"type":"Feature"},
	{"geometry":{"coordinates":[-77.087244,38.913896],"type":"Point"},"properties":{"osm_id":"4957641441","tag":{"natural":"tree"}},"type":"Feature"},
	{"geometry":{"coordinates":[-77.087096,38.913913],"type":"Point"},"properties":{"osm_id":"4957641442","tag":{"natural":"tree"}},"type":"Feature"},
	{"geometry":{"coordinates":[-77.087041,38.913865],"type":"Point"},"properties":{"osm_id":"4957641443","tag":{"natural":"tree"}},"type":"Feature"},
	{"geometry":{"coordinates":[-77.08696,38.914015],"type":"Point"},"properties":{"osm_id":"4957641444","tag":{"natural":"tree"}},"type":"Feature"},
	{"geometry":{"coordinates":[-77.086917,38.91413],"type":"Point"},"properties":{"osm_id":"4957641445","tag":{"natural":"tree"}},"type":"Feature"},
	{"geometry":{"coordinates":[-77.086805,38.914207],"type":"Point"},"properties":{"osm_id":"4957641446","tag":{"natural":"tree"}},"type":"Feature"},
	{"geometry":{"coordinates":[-77.086975,38.913823],"type":"Point"},"properties":{"osm_id":"4957641448","tag":{"natural":"tree"}},"type":"Feature"},
	{"geometry":{"coordinates":[-77.087076,38.913746],"type":"Point"},"properties":{"osm_id":"4957641449","tag":{"natural":"tree"}},"type":"Feature"},
	{"geometry":{"coordinates":[-77.087134,38.913801],"type":"Point"},"properties":{"osm_id":"4957641450","tag":{"natural":"tree"}},"type":"Feature"},
	{"geometry":{"coordinates":[-77.08689,38.913963],"type":"Point"},"properties":{"osm_id":"4957641451","tag":{"natural":"tree"}},"type":"Feature"},
	{"geometry":{"coordinates":[-77.086841,38.913916],"type":"Point"},"properties":{"osm_id":"4957641452","tag":{"natural":"tree"}},"type":"Feature"},
	{"geometry":{"coordinates":[-77.086849,38.914087],"type":"Point"},"properties":{"osm_id":"4957641453","tag":{"natural":"tree"}},"type":"Feature"},
	{"geometry":{"coordinates":[-77.086793,38.914043],"type":"Point"},"properties":{"osm_id":"4957641454","tag":{"natural":"tree"}},"type":"Feature"},
	{"geometry":{"coordinates":[-77.086734,38.913995],"type":"Point"},"properties":{"osm_id":"4957641455","tag":{"natural":"tree"}},"type":"Feature"},
	{"geometry":{"coordinates":[-77.086669,38.914112],"type":"Point"},"properties":{"osm_id":"4957641456","tag":{"natural":"tree"}},"type":"Feature"},
	{"geometry":{"coordinates":[-77.087738,38.914011],"type":"Point"},"properties":{"osm_id":"4957641465","tag":{"natural":"tree"}},"type":"Feature"},
	{"geometry":{"coordinates":[-77.087808,38.91403],"type":"Point"},"properties":{"osm_id":"4957641466","tag":{"natural":"tree"}},"type":"Feature"},
	{"geometry":{"coordinates":[-77.087862,38.914053],"type":"Point"},"properties":{"osm_id":"4957641467","tag":{"natural":"tree"}},"type":"Feature"},
	{"geometry":{"coordinates":[-77.087923,38.914078],"type":"Point"},"properties":{"osm_id":"4957641468","tag":{"natural":"tree"}},"type":"Feature"},
	{"geometry":{"coordinates":[-77.08766,38.914018],"type":"Point"},"properties":{"osm_id":"4957641469","tag":{"natural":"tree"}},"type":"Feature"},
	{"geometry":{"coordinates":[-77.08741,38.914711],"type":"Point"},"properties":{"osm_id":"4957641470","tag":{"natural":"tree"}},"type":"Feature"},
	{"geometry":{"coordinates":[-77.087127,38.914474],"type":"Point"},"properties":{"osm_id":"4957641471","tag":{"natural":"tree"}},"type":"Feature"},
	{"geometry":{"coordinates":[-77.087046,38.914418],"type":"Point"},"properties":{"osm_id":"4957641472","tag":{"natural":"tree"}},"type":"Feature"},
	{"geometry":{"coordinates":[-77.086979,38.914378],"type":"Point"},"properties":{"osm_id":"4957641473","tag":{"natural":"tree"}},"type":"Feature"},
	{"geometry":{"coordinates":[-77.088037,38.914565],"type":"Point"},"properties":{"osm_id":"4957641504","tag":{"natural":"tree"}},"type":"Feature"},
	{"geometry":{"coordinates":[-77.089598,38.91468],"type":"Point"},"properties":{"osm_id":"4957641507","tag":{"natural":"tree"}},"type":"Feature"},
	{"geometry":{"coordinates":[-77.089528,38.914587],"type":"Point"},"properties":{"osm_id":"4957641508","tag":{"natural":"tree"}},"type":"Feature"},
	{"geometry":{"coordinates":[-77.086631,38.913597],"type":"Point"},"properties":{"osm_id":"4957641512","tag":{"natural":"tree"}},"type":"Feature"}
]
}
