{
"type": "FeatureCollection",
"features": [
	{"geometry":{"coordinates":[6.972511,51.699543],"type":"Point"},"properties":{"osm_id":"446933366","tag":{"amenity":"recycling","recycling:glass_bottles":"yes","recycling_type":"container"}},"type":"Feature"},
	{"geometry":{"coordinates":[7.014706,51.719901],"type":"Point"},"properties":{"osm_id":"577555667","tag":{"amenity":"recycling","recycling:glass":"yes"}},"type":"Feature"},
	{"geometry":{"coordinates":[7.019958,51.713256],"type":"Point"},"properties":{"osm_id":"601382656","tag":{"amenity":"recycling","recycling:clothes":"yes","recycling:glass_bottles":"yes","recycling_type":"container"}},"type":"Feature"},
	{"geometry":{"coordinates":[7.007018,51.672908],"type":"Point"},"properties":{"osm_id":"2433884571","tag":{"amenity":"recycling","recycling:glass":"yes","recycling:glass_bottles":"yes","recycling_type":"container"}},"type":"Feature"},
	{"geometry":{"coordinates":[7.007041,51.672913],"type":"Point"},"properties":{"osm_id":"2433884572","tag":{"amenity":"recycling","recycling:glass":"yes","recycling:glass_bottles":"yes","recycling_type":"container"}},"type":"Feature"},
	{"geometry":{"coordinates":[7.006998,51.672903],"type":"Point"},"properties":{"osm_id":"2433884575","tag":{"amenity":"recycling","recycling:clothes":"yes","recycling_type":"container"}},"type":"Feature"},
	{"geometry":{"coordinates":[6.999843,51.675757],"type":"Point"},"properties":{"osm_id":"3235649403","tag":{"amenity":"recycling","recycling:clothes":"yes","recycling_type":"container"}},"type":"Feature"},
	{"geometry":{"coordinates":[7.019519,51.68003],"type":"Point"},"properties":{"osm_id":"3250000575","tag":{"amenity":"waste_basket"}},"type":"Feature"},
	{"geometry":{"coordinates":[7.018449,51.679468],"type":"Point"},"properties":{"osm_id":"3250008843","tag":{"amenity":"waste_basket"}},"type":"Feature"},
	{"geometry":{"coordinates":[6.969512,51.718052],"type":"Point"},"properties":{"osm_id":"4054594110","tag":{"amenity":"recycling","recycling:clothes":"yes","recycling_type":"container"}},"type":"Feature"},
	{"geometry":{"coordinates":[6.963035,51.687514],"type":"Point"},"properties":{"osm_id":"4080392818","tag":{"amenity":"recycling","recycling:glass_bottles":"yes","recycling_type":"container"}},"type":"Feature"},
	{"geometry":{"coordinates":[6.968509,51.71181],"type":"Point"},"properties":{"osm_id":"4102783894","tag":{"amenity":"recycling","recycling:clothes":"yes","recycling:shoes":"yes","recycling_type":"container"}},"type":"Feature"},
	{"geometry":{"coordinates":[7.016529,51.721052],"type":"Point"},"properties":{"osm_id":"4118072033","tag":{"addr:city":"Dorsten","addr:postcode":"46286","addr:street":"D\u00c3\u00bclmener Stra\u00c3\u009fe","addr:suburb":"Wulfen","amenity":"recycling","recycling:glass":"yes","recycling:glass_bottles":"yes","recycling_type":"container"}},"type":"Feature"},
	{"geometry":{"coordinates":[6.971244,51.713174],"type":"Point"},"properties":{"osm_id":"4127870464","tag":{"amenity":"waste_basket"}},"type":"Feature"},
	{"geometry":{"coordinates":[6.971197,51.713056],"type":"Point"},"properties":{"osm_id":"4127870465","tag":{"amenity":"waste_basket"}},"type":"Feature"},
	{"geometry":{"coordinates":[7.011414,51.722112],"type":"Point"},"properties":{"osm_id":"4709768150","tag":{"amenity":"recycling","recycling:clothes":"yes","recycling:shoes":"yes","recycling_type":"container"}},"type":"Feature"},
	{"geometry":{"coordinates":[6.963326,51.673043],"type":"Point"},"properties":{"osm_id":"5051712168","tag":{"amenity":"waste_basket"}},"type":"Feature"},
	{"geometry":{"coordinates":[6.972462,51.677627],"type":"Point"},"properties":{"osm_id":"5306388377","tag":{"amenity":"recycling","recycling:glass_bottles":"yes","recycling_type":"container"}},"type":"Feature"},
	{"geometry":{"coordinates":[7.019816,51.67454],"type":"Point"},"properties":{"osm_id":"5722778198","tag":{"amenity":"recycling","recycling:clothes":"no","recycling:glass_bottles":"yes","recycling_type":"container"}},"type":"Feature"},
	{"geometry":{"coordinates":[7.0165,51.673428],"type":"Point"},"properties":{"osm_id":"5723816449","tag":{"amenity":"recycling","recycling:clothes":"yes","recycling:glass_bottles":"no","recycling_type":"container"}},"type":"Feature"},
	{"geometry":{"coordinates":[6.956232,51.682298],"type":"Point"},"properties":{"osm_id":"5756721841","tag":{"amenity":"recycling","recycling:clothes":"yes","recycling_type":"container"}},"type":"Feature"},
	{"geometry":{"coordinates":[6.95488,51.683151],"type":"Point"},"properties":{"osm_id":"5756721842","tag":{"amenity":"recycling","recycling:glass_bottles":"yes","recycling_type":"container"}},"type":"Feature"},
	{"geometry":{"coordinates":[7.018745,51.709083],"type":"Point"},"properties":{"osm_id":"5840054470","tag":{"amenity":"recycling","recycling:clothes":"yes","recycling:glass_bottles":"no","recycling_type":"container"}},"type":"Feature"},
	{"geometry":{"coordinates":[6.962652,51.682598],"type":"Point"},"properties":{"osm_id":"5859153493","tag":{"amenity":"recycling","recycling:clothes":"yes","recycling:glass_bottles":"yes","recycling_type":"container"}},"type":"Feature"},
	{"geometry":{"coordinates":[6.95261,51.686828],"type":"Point"},"properties":{"osm_id":"5863618495","tag":{"amenity":"recycling","recycling:clothes":"no","recycling:glass_bottles":"yes","recycling_type":"container"}},"type":"Feature"},
	{"geometry":{"coordinates":[6.949363,51.680863],"type":"Point"},"properties":{"osm_id":"5863673107","tag":{"amenity":"recycling","recycling:clothes":"no","recycling:glass_bottles":"yes","recycling_type":"container"}},"type":"Feature"},
	{"geometry":{"coordinates":[6.950624,51.683598],"type":"Point"},"properties":{"osm_id":"5863673139","tag":{"amenity":"recycling","recycling:clothes":"no","recycling:glass_bottles":"yes","recycling_type":"container"}},"type":"Feature"},
	{"geometry":{"coordinates":[6.943622,51.678302],"type":"Point"},"properties":{"osm_id":"5875785834","tag":{"amenity":"recycling","recycling:clothes":"yes","recycling:glass_bottles":"no","recycling_type":"container"}},"type":"Feature"},
	{"geometry":{"coordinates":[6.944834,51.682211],"type":"Point"},"properties":{"osm_id":"5875955210","tag":{"amenity":"recycling","recycling:clothes":"no","recycling:glass_bottles":"yes","recycling_type":"container"}},"type":"Feature"},
	{"geometry":{"coordinates":[7.012122,51.677153],"type":"Point"},"properties":{"osm_id":"5910033437","tag":{"amenity":"recycling","recycling:clothes":"no","recycling:glass_bottles":"yes","recycling_type":"container"}},"type":"Feature"},
	{"geometry":{"coordinates":[7.003916,51.673855],"type":"Point"},"properties":{"osm_id":"5910047501","tag":{"amenity":"recycling","recycling:clothes":"no","recycling:glass_bottles":"yes","recycling_type":"container"}},"type":"Feature"},
	{"geometry":{"coordinates":[6.973464,51.71237],"type":"Point"},"properties":{"osm_id":"6029702103","tag":{"amenity":"waste_basket"}},"type":"Feature"},
	{"geometry":{"coordinates":[6.972712,51.712273],"type":"Point"},"properties":{"osm_id":"6029702104","tag":{"amenity":"waste_basket"}},"type":"Feature"},
	{"geometry":{"coordinates":[6.958513,51.679565],"type":"Point"},"properties":{"osm_id":"6069352240","tag":{"amenity":"recycling","recycling:glass_bottles":"yes","recycling_type":"container"}},"type":"Feature"},
	{"geometry":{"coordinates":[6.976633,51.683211],"type":"Point"},"properties":{"osm_id":"6354697590","tag":{"amenity":"recycling","recycling:glass_bottles":"yes","recycling_type":"container"}},"type":"Feature"},
	{"geometry":{"coordinates":[6.99866,51.688003],"type":"Point"},"properties":{"osm_id":"6354750877","tag":{"amenity":"waste_basket"}},"type":"Feature"},
	{"geometry":{"coordinates":[6.958468,51.684766],"type":"Point"},"properties":{"osm_id":"6359889943","tag":{"amenity":"recycling","recycling:clothes":"yes","recycling_type":"container"}},"type":"Feature"},
	{"geometry":{"coordinates":[7.016552,51.711108],"type":"Point"},"properties":{"osm_id":"6389309776","tag":{"amenity":"recycling","recycling:glass_bottles":"yes","recycling_type":"container"}},"type":"Feature"},
	{"geometry":{"coordinates":[7.028232,51.718291],"type":"Point"},"properties":{"osm_id":"6389329311","tag":{"amenity":"waste_basket"}},"type":"Feature"},
	{"geometry":{"coordinates":[7.023862,51.721644],"type":"Point"},"properties":{"osm_id":"6389339608","tag":{"amenity":"recycling","recycling:glass_bottles":"yes","recycling_type":"container"}},"type":"Feature"},
	{"geometry":{"coordinates":[7.020865,51.673978],"type":"Point"},"properties":{"osm_id":"6410808800","tag":{"amenity":"waste_basket"}},"type":"Feature"},
	{"geometry":{"coordinates":[6.987631,51.672808],"type":"Point"},"properties":{"osm_id":"6410816939","tag":{"amenity":"waste_basket"}},"type":"Feature"},
	{"geometry":{"coordinates":[7.023347,51.725725],"type":"Point"},"properties":{"osm_id":"6732792668","tag":{"amenity":"recycling","layer":"1","recycling:clothes":"yes","recycling:glass_bottles":"yes","recycling_type":"container"}},"type":"Feature"},
	{"geometry":{"coordinates":[7.018413,51.725245],"type":"Point"},"properties":{"osm_id":"6744411194","tag":{"amenity":"recycling","recycling:clothes":"yes","recycling_type":"container"}},"type":"Feature"},
	{"geometry":{"coordinates":[7.027095,51.726243],"type":"Point"},"properties":{"osm_id":"6757799509","tag":{"amenity":"waste_basket"}},"type":"Feature"},
	{"geometry":{"coordinates":[7.02588,51.726155],"type":"Point"},"properties":{"osm_id":"6770028806","tag":{"amenity":"recycling","recycling:clothes":"yes","recycling_type":"container"}},"type":"Feature"},
	{"geometry":{"coordinates":[7.018911,51.708525],"type":"Point"},"properties":{"osm_id":"6791134955","tag":{"amenity":"recycling","recycling:glass_bottles":"yes","recycling_type":"container"}},"type":"Feature"},
	{"geometry":{"coordinates":[7.026122,51.726285],"type":"Point"},"properties":{"osm_id":"7114328187","tag":{"amenity":"waste_basket","colour":"orange","material":"plastic"}},"type":"Feature"},
	{"geometry":{"coordinates":[7.027381,51.726363],"type":"Point"},"properties":{"osm_id":"7114328188","tag":{"amenity":"waste_basket","colour":"orange","material":"plastic"}},"type":"Feature"},
	{"geometry":{"coordinates":[7.02487,51.72664],"type":"Point"},"properties":{"osm_id":"7241990749","tag":{"amenity":"waste_basket"}},"type":"Feature"},
	{"geometry":{"coordinates":[7.021103,51.722522],"type":"Point"},"properties":{"osm_id":"7244891703","tag":{"amenity":"waste_basket"}},"type":"Feature"},
	{"geometry":{"coordinates":[7.02308,51.718016],"type":"Point"},"properties":{"osm_id":"7245881244","tag":{"amenity":"waste_basket"}},"type":"Feature"},
	{"geometry":{"coordinates":[6.972456,51.677654],"type":"Point"},"properties":{"osm_id":"7258320893","tag":{"amenity":"recycling","recycling:clothes":"yes","recycling_type":"container"}},"type":"Feature"},
	{"geometry":{"coordinates":[6.958523,51.674668],"type":"Point"},"properties":{"osm_id":"7280989084","tag":{"amenity":"recycling","recycling:glass_bottles":"yes","recycling_type":"container"}},"type":"Feature"},
	{"geometry":{"coordinates":[6.977491,51.718734],"type":"Point"},"properties":{"osm_id":"7281535458","tag":{"amenity":"waste_basket"}},"type":"Feature"},
	{"geometry":{"coordinates":[6.958623,51.711751],"type":"Point"},"properties":{"osm_id":"7297329983","tag":{"amenity":"waste_basket"}},"type":"Feature"},
	{"geometry":{"coordinates":[6.958767,51.712482],"type":"Point"},"properties":{"osm_id":"7297329984","tag":{"amenity":"waste_basket"}},"type":"Feature"},
	{"geometry":{"coordinates":[6.969536,51.718046],"type":"Point"},"properties":{"osm_id":"7317501549","tag":{"amenity":"recycling","recycling:glass":"yes","recycling_type":"container"}},"type":"Feature"},
	{"geometry":{"coordinates":[7.011655,51.717544],"type":"Point"},"properties":{"osm_id":"7394720127","tag":{"amenity":"recycling","recycling:clothes":"yes","recycling_type":"container"}},"type":"Feature"},
	{"geometry":{"coordinates":[7.030193,51.726947],"type":"Point"},"properties":{"osm_id":"7419573797","tag":{"amenity":"waste_basket"}},"type":"Feature"},
	{"geometry":{"coordinates":[7.012477,51.708329],"type":"Point"},"properties":{"osm_id":"7680227006","tag":{"amenity":"recycling","recycling:glass_bottles":"yes","recycling_type":"container"}},"type":"Feature"},
	{"geometry":{"coordinates":[7.002899,51.716071],"type":"Point"},"properties":{"osm_id":"7684824042","tag":{"amenity":"recycling","recycling:clothes":"yes","recycling_type":"container"}},"type":"Feature"},
	{"geometry":{"coordinates":[7.019974,51.721726],"type":"Point"},"properties":{"osm_id":"7691529584","tag":{"amenity":"recycling","recycling:clothes":"yes","recycling_type":"container"}},"type":"Feature"},
	{"geometry":{"coordinates":[7.015225,51.718777],"type":"Point"},"properties":{"osm_id":"7804610101","tag":{"amenity":"waste_basket","colour":"black","material":"plastic"}},"type":"Feature"},
	{"geometry":{"coordinates":[6.993885,51.726117],"type":"Point"},"properties":{"osm_id":"7858174980","tag":{"amenity":"waste_basket"}},"type":"Feature"},
	{"geometry":{"coordinates":[6.988284,51.693438],"type":"Point"},"properties":{"osm_id":"7858248776","tag":{"amenity":"waste_basket","colour":"black"}},"type":"Feature"},
	{"geometry":{"coordinates":[7.01466,51.685161],"type":"Point"},"properties":{"osm_id":"7858764667","tag":{"amenity":"waste_basket"}},"type":"Feature"},
	{"geometry":{"coordinates":[7.018609,51.687156],"type":"Point"},"properties":{"osm_id":"7858770769","tag":{"amenity":"waste_basket"}},"type":"Feature"},
	{"geometry":{"coordinates":[6.975771,51.679524],"type":"Point"},"properties":{"osm_id":"7905933154","tag":{"amenity":"waste_basket"}},"type":"Feature"},
	{"geometry":{"coordinates":[6.964962,51.724751],"type":"Point"},"properties":{"osm_id":"7913782798","tag":{"amenity":"waste_basket"}},"type":"Feature"}
]
}
