{
"type": "FeatureCollection",
"features": [
	{"geometry":{"coordinates":[7.010836,51.535233],"type":"Point"},"properties":{"osm_id":"313234019","tag":{"amenity":"recycling","recycling:clothes":"yes","recycling:glass_bottles":"yes","recycling_type":"container"}},"type":"Feature"},
	{"geometry":{"coordinates":[6.962265,51.512498],"type":"Point"},"properties":{"osm_id":"332263599","tag":{"amenity":"recycling","recycling:clothes":"yes","recycling:glass_bottles":"yes","recycling:shoes":"yes","recycling_type":"container"}},"type":"Feature"},
	{"geometry":{"coordinates":[6.999772,51.510469],"type":"Point"},"properties":{"osm_id":"332298421","tag":{"amenity":"recycling","opening_hours":"Mo-Sa 07:00-19:00; PH Su off","operator":"Rhenus Logistics","recycling:glass_bottles":"yes","recycling_type":"container"}},"type":"Feature"},
	{"geometry":{"coordinates":[6.944025,51.551204],"type":"Point"},"properties":{"osm_id":"420337794","tag":{"amenity":"recycling","recycling:clothes":"yes","recycling:glass_bottles":"yes"}},"type":"Feature"},
	{"geometry":{"coordinates":[7.000848,51.517317],"type":"Point"},"properties":{"osm_id":"515944356","tag":{"amenity":"recycling","opening_hours":"Mo-Sa 07:00-19:00; PH Su off","operator":"Loop","recycling:clothes":"yes","recycling:shoes":"yes","recycling_type":"container"}},"type":"Feature"},
	{"geometry":{"coordinates":[6.995095,51.518788],"type":"Point"},"properties":{"osm_id":"535401985","tag":{"amenity":"recycling","opening_hours":"Mo-Sa 07:00-19:00; PH Su off","operator":"Rhenus Logistics","recycling:glass_bottles":"yes","recycling_type":"container"}},"type":"Feature"},
	{"geometry":{"coordinates":[7.015452,51.533813],"type":"Point"},"properties":{"osm_id":"540929983","tag":{"amenity":"recycling","check_date:recycling":"2020-09-22","recycling:clothes":"yes","recycling:glass_bottles":"yes","recycling_type":"container"}},"type":"Feature"},
	{"geometry":{"coordinates":[6.954468,51.527125],"type":"Point"},"properties":{"osm_id":"721559774","tag":{"amenity":"recycling","recycling:clothes":"no","recycling:glass_bottles":"yes","recycling_type":"container"}},"type":"Feature"},
	{"geometry":{"coordinates":[7.010285,51.522086],"type":"Point"},"properties":{"osm_id":"1199492448","tag":{"amenity":"recycling","operator":"Loop","recycling:clothes":"yes","recycling:shoes":"yes","recycling_type":"container"}},"type":"Feature"},
	{"geometry":{"coordinates":[7.025177,51.562759],"type":"Point"},"properties":{"osm_id":"1313312393","tag":{"amenity":"recycling","check_date:recycling":"2020-09-20","recycling:clothes":"yes","recycling:glass_bottles":"yes","recycling_type":"container"}},"type":"Feature"},
	{"geometry":{"coordinates":[7.025554,51.560706],"type":"Point"},"properties":{"osm_id":"1313312440","tag":{"amenity":"recycling","location":"overground","recycling:clothes":"yes","recycling:glass_bottles":"yes","recycling_type":"container"}},"type":"Feature"},
	{"geometry":{"coordinates":[7.018825,51.534288],"type":"Point"},"properties":{"osm_id":"1369400860","tag":{"amenity":"recycling","location":"overground","recycling:glass_bottles":"yes","recycling_type":"container"}},"type":"Feature"},
	{"geometry":{"coordinates":[6.995181,51.518787],"type":"Point"},"properties":{"osm_id":"1456017283","tag":{"amenity":"recycling","opening_hours":"Mo-Sa 07:00-19:00; PH Su off","operator":"Loop","recycling:clothes":"yes","recycling:shoes":"yes","recycling_type":"container"}},"type":"Feature"},
	{"geometry":{"coordinates":[6.9951,51.51881],"type":"Point"},"properties":{"osm_id":"1456017294","tag":{"amenity":"recycling","opening_hours":"Mo-Sa 07:00-19:00; PH Su off","operator":"Entsorgungsbetriebe Essen","recycling:cardboard":"yes","recycling:paper":"yes","recycling_type":"container"}},"type":"Feature"},
	{"geometry":{"coordinates":[7.008747,51.549828],"type":"Point"},"properties":{"osm_id":"1569947923","tag":{"amenity":"recycling","recycling:clothes":"yes","recycling:glass_bottles":"yes","recycling_type":"container"}},"type":"Feature"},
	{"geometry":{"coordinates":[7.018014,51.526794],"type":"Point"},"properties":{"osm_id":"1605313408","tag":{"amenity":"recycling"}},"type":"Feature"},
	{"geometry":{"coordinates":[7.007042,51.542071],"type":"Point"},"properties":{"osm_id":"1609042315","tag":{"amenity":"recycling","recycling:glass_bottles":"yes","recycling_type":"container"}},"type":"Feature"},
	{"geometry":{"coordinates":[7.006814,51.522593],"type":"Point"},"properties":{"osm_id":"1615770899","tag":{"amenity":"recycling","opening_hours":"Mo-Sa 07:00-19:00; PH Su off","operator":"Rhenus Logistics","recycling:glass_bottles":"yes","recycling_type":"container"}},"type":"Feature"},
	{"geometry":{"coordinates":[7.014756,51.518713],"type":"Point"},"properties":{"osm_id":"1618199184","tag":{"amenity":"recycling","opening_hours":"Mo-Sa 07:00-19:00; PH Su off","operator":"Rhenus Logistics","recycling:glass_bottles":"yes","recycling_type":"container"}},"type":"Feature"},
	{"geometry":{"coordinates":[7.01321,51.523268],"type":"Point"},"properties":{"osm_id":"1618199467","tag":{"amenity":"recycling","opening_hours":"Mo-Sa 07:00-19:00; PH Su off","operator":"Rhenus Logistics","recycling:glass_bottles":"yes","recycling_type":"container"}},"type":"Feature"},
	{"geometry":{"coordinates":[7.007785,51.525681],"type":"Point"},"properties":{"osm_id":"1618328328","tag":{"amenity":"recycling","opening_hours":"Mo-Sa 07:00-19:00; PH Su off","operator":"Rhenus Logistics","recycling:glass_bottles":"yes","recycling_type":"container"}},"type":"Feature"},
	{"geometry":{"coordinates":[7.024077,51.528008],"type":"Point"},"properties":{"osm_id":"1618328331","tag":{"amenity":"recycling","recycling:clothes":"yes","recycling:glass_bottles":"yes","recycling_type":"container"}},"type":"Feature"},
	{"geometry":{"coordinates":[7.017183,51.530398],"type":"Point"},"properties":{"osm_id":"1618328347","tag":{"amenity":"recycling","recycling:glass_bottles":"yes","recycling_type":"container"}},"type":"Feature"},
	{"geometry":{"coordinates":[6.96864,51.511097],"type":"Point"},"properties":{"osm_id":"1723174511","tag":{"amenity":"recycling","recycling:clothes":"yes","recycling:glass_bottles":"yes","recycling_type":"container"}},"type":"Feature"},
	{"geometry":{"coordinates":[6.972335,51.512329],"type":"Point"},"properties":{"osm_id":"1723174670","tag":{"amenity":"recycling","recycling:glass_bottles":"yes","recycling_type":"container"}},"type":"Feature"},
	{"geometry":{"coordinates":[6.965629,51.510129],"type":"Point"},"properties":{"osm_id":"1723431738","tag":{"amenity":"recycling","recycling:glass_bottles":"yes","recycling_type":"container"}},"type":"Feature"},
	{"geometry":{"coordinates":[7.023239,51.52728],"type":"Point"},"properties":{"osm_id":"1725776510","tag":{"amenity":"recycling","recycling:glass_bottles":"yes","recycling_type":"container"}},"type":"Feature"},
	{"geometry":{"coordinates":[7.023233,51.527295],"type":"Point"},"properties":{"osm_id":"1725776523","tag":{"amenity":"recycling","recycling:glass_bottles":"yes","recycling_type":"container"}},"type":"Feature"},
	{"geometry":{"coordinates":[7.02323,51.527312],"type":"Point"},"properties":{"osm_id":"1725776528","tag":{"amenity":"recycling","recycling:glass_bottles":"yes","recycling_type":"container"}},"type":"Feature"},
	{"geometry":{"coordinates":[7.030282,51.539363],"type":"Point"},"properties":{"osm_id":"1823014278","tag":{"amenity":"recycling","recycling:clothes":"yes","recycling_type":"container"}},"type":"Feature"},
	{"geometry":{"coordinates":[6.956388,51.526199],"type":"Point"},"properties":{"osm_id":"1904337211","tag":{"amenity":"waste_basket"}},"type":"Feature"},
	{"geometry":{"coordinates":[6.957093,51.52622],"type":"Point"},"properties":{"osm_id":"1904337214","tag":{"amenity":"waste_basket"}},"type":"Feature"},
	{"geometry":{"coordinates":[6.957961,51.526835],"type":"Point"},"properties":{"osm_id":"1904337248","tag":{"amenity":"waste_basket"}},"type":"Feature"},
	{"geometry":{"coordinates":[6.9553,51.523543],"type":"Point"},"properties":{"osm_id":"1904361960","tag":{"amenity":"waste_basket"}},"type":"Feature"},
	{"geometry":{"coordinates":[6.959366,51.524336],"type":"Point"},"properties":{"osm_id":"1904361962","tag":{"amenity":"waste_basket"}},"type":"Feature"},
	{"geometry":{"coordinates":[7.010116,51.525663],"type":"Point"},"properties":{"osm_id":"2135531801","tag":{"amenity":"recycling","opening_hours":"Mo-Sa 07:00-19:00; PH Su off","operator":"Loop","recycling:clothes":"yes","recycling:shoes":"yes","recycling_type":"container"}},"type":"Feature"},
	{"geometry":{"coordinates":[7.019864,51.509107],"type":"Point"},"properties":{"osm_id":"2138920029","tag":{"amenity":"recycling","operator":"Yeni Cami Gemeinde","recycling:clothes":"yes","recycling:shoes":"yes","recycling_type":"container"}},"type":"Feature"},
	{"geometry":{"coordinates":[6.944794,51.513932],"type":"Point"},"properties":{"osm_id":"2496196382","tag":{"amenity":"waste_basket"}},"type":"Feature"},
	{"geometry":{"coordinates":[7.024123,51.534364],"type":"Point"},"properties":{"osm_id":"2620198357","tag":{"amenity":"recycling","recycling:glass_bottles":"yes","recycling_type":"container"}},"type":"Feature"},
	{"geometry":{"coordinates":[7.012035,51.54162],"type":"Point"},"properties":{"osm_id":"3050652623","tag":{"amenity":"recycling","recycling_type":"container"}},"type":"Feature"},
	{"geometry":{"coordinates":[7.009796,51.543959],"type":"Point"},"properties":{"osm_id":"3050653375","tag":{"amenity":"recycling","operator":"Humana","recycling:clothes":"yes","recycling_type":"container"}},"type":"Feature"},
	{"geometry":{"coordinates":[7.026847,51.535576],"type":"Point"},"properties":{"osm_id":"3770930247","tag":{"amenity":"waste_basket"}},"type":"Feature"},
	{"geometry":{"coordinates":[7.027499,51.535416],"type":"Point"},"properties":{"osm_id":"3770930249","tag":{"amenity":"waste_basket"}},"type":"Feature"},
	{"geometry":{"coordinates":[7.025299,51.536434],"type":"Point"},"properties":{"osm_id":"3770930251","tag":{"amenity":"waste_basket"}},"type":"Feature"},
	{"geometry":{"coordinates":[7.024749,51.536759],"type":"Point"},"properties":{"osm_id":"3770930256","tag":{"amenity":"waste_basket"}},"type":"Feature"},
	{"geometry":{"coordinates":[7.02767,51.5357],"type":"Point"},"properties":{"osm_id":"3770941259","tag":{"amenity":"waste_basket"}},"type":"Feature"},
	{"geometry":{"coordinates":[7.024025,51.537582],"type":"Point"},"properties":{"osm_id":"3770941266","tag":{"amenity":"waste_basket"}},"type":"Feature"},
	{"geometry":{"coordinates":[7.008627,51.528396],"type":"Point"},"properties":{"osm_id":"4280557511","tag":{"amenity":"recycling","opening_hours":"Mo-Sa 07:00-19:00; PH Su off","operator":"Rhenus Logistics","recycling:glass_bottles":"yes","recycling_type":"container"}},"type":"Feature"},
	{"geometry":{"coordinates":[7.025244,51.509985],"type":"Point"},"properties":{"osm_id":"4693860875","tag":{"amenity":"recycling","opening_hours":"Mo-Sa 07:00-19:00; PH Su off","operator":"Entsorgungsbetriebe Essen","recycling:cardboard":"yes","recycling:paper":"yes","recycling_type":"container"}},"type":"Feature"},
	{"geometry":{"coordinates":[7.009542,51.509554],"type":"Point"},"properties":{"osm_id":"4708577664","tag":{"amenity":"recycling","opening_hours":"Mo-Sa 07:00-19:00; PH Su off","operator":"Loop","recycling:clothes":"yes","recycling:shoes":"yes","recycling_type":"container"}},"type":"Feature"},
	{"geometry":{"coordinates":[7.009562,51.509586],"type":"Point"},"properties":{"osm_id":"4708577665","tag":{"amenity":"recycling","opening_hours":"Mo-Sa 07:00-19:00; PH Su off","operator":"Essener Entsorgungsbetriebe","recycling:cardboard":"yes","recycling:paper":"yes","recycling_type":"container"}},"type":"Feature"},
	{"geometry":{"coordinates":[7.009448,51.509125],"type":"Point"},"properties":{"osm_id":"4708577666","tag":{"amenity":"recycling","opening_hours":"Mo-Sa 07:00-19:00; PH Su off","operator":"Rhenus Logistics","recycling:glass_bottles":"yes","recycling_type":"container"}},"type":"Feature"},
	{"geometry":{"coordinates":[7.00736,51.5101],"type":"Point"},"properties":{"osm_id":"4708577667","tag":{"amenity":"recycling","opening_hours":"Mo-Sa 07:00-19:00; PH Su off","operator":"Rhenus Logistics","recycling:glass_bottles":"yes","recycling_type":"container"}},"type":"Feature"},
	{"geometry":{"coordinates":[7.007408,51.509953],"type":"Point"},"properties":{"osm_id":"4708577668","tag":{"amenity":"recycling","opening_hours":"Mo-Sa 07:00-19:00; PH Su off","operator":"Loop","recycling:clothes":"yes","recycling:shoes":"yes","recycling_type":"container"}},"type":"Feature"},
	{"geometry":{"coordinates":[6.999835,51.510478],"type":"Point"},"properties":{"osm_id":"4708577670","tag":{"amenity":"recycling","opening_hours":"Mo-Sa 07:00-19:00; PH Su off","operator":"Loop","recycling:clothes":"yes","recycling:shoes":"yes","recycling_type":"container"}},"type":"Feature"},
	{"geometry":{"coordinates":[7.006894,51.522622],"type":"Point"},"properties":{"osm_id":"4708746516","tag":{"amenity":"recycling","opening_hours":"Mo-Sa 07:00-19:00; PH Su off","operator":"Entsorgungsbetriebe Essen","recycling:cardboard":"yes","recycling:paper":"yes","recycling_type":"container"}},"type":"Feature"},
	{"geometry":{"coordinates":[7.006857,51.522608],"type":"Point"},"properties":{"osm_id":"4708746517","tag":{"amenity":"recycling","opening_hours":"Mo-Sa 07:00-19:00; PH Su off","operator":"Loop","recycling:clothes":"yes","recycling:shoes":"yes","recycling_type":"container"}},"type":"Feature"},
	{"geometry":{"coordinates":[7.013177,51.523277],"type":"Point"},"properties":{"osm_id":"4708746522","tag":{"amenity":"recycling","opening_hours":"Mo-Sa 07:00-19:00; PH Su off","operator":"Loop","recycling:clothes":"yes","recycling:shoes":"yes","recycling_type":"container"}},"type":"Feature"},
	{"geometry":{"coordinates":[7.007935,51.525671],"type":"Point"},"properties":{"osm_id":"4708746523","tag":{"amenity":"recycling","opening_hours":"Mo-Sa 07:00-19:00; PH Su off","operator":"Loop","recycling:clothes":"yes","recycling:shoes":"yes","recycling_type":"container"}},"type":"Feature"},
	{"geometry":{"coordinates":[7.007567,51.525698],"type":"Point"},"properties":{"osm_id":"4708746524","tag":{"amenity":"recycling","opening_hours":"Mo-Sa 07:00-19:00; PH Su off","operator":"Entsorgungsbetriebe Essen","recycling:cardboard":"yes","recycling:paper":"yes","recycling_type":"container"}},"type":"Feature"},
	{"geometry":{"coordinates":[7.000688,51.5173],"type":"Point"},"properties":{"osm_id":"4708746525","tag":{"amenity":"recycling","opening_hours":"Mo-Sa 07:00-19:00; PH Su off","operator":"Entsorgungsbetriebe Essen","recycling:cardboard":"yes","recycling:paper":"yes","recycling_type":"container"}},"type":"Feature"},
	{"geometry":{"coordinates":[7.000767,51.517301],"type":"Point"},"properties":{"osm_id":"4708746526","tag":{"amenity":"recycling","opening_hours":"Mo-Sa 07:00-19:00; PH Su off","operator":"Rhenus Logistics","recycling:glass_bottles":"yes","recycling_type":"container"}},"type":"Feature"},
	{"geometry":{"coordinates":[7.01491,51.518737],"type":"Point"},"properties":{"osm_id":"4708746527","tag":{"amenity":"recycling","opening_hours":"Mo-Sa 07:00-19:00; PH Su off","operator":"Entsorgungsbetriebe Essen","recycling:cardboard":"yes","recycling:paper":"yes","recycling_type":"container"}},"type":"Feature"},
	{"geometry":{"coordinates":[7.01482,51.518721],"type":"Point"},"properties":{"osm_id":"4708746528","tag":{"amenity":"recycling","opening_hours":"Mo-Sa 07:00-19:00; PH Su off","operator":"Loop","recycling:clothes":"yes","recycling:shoes":"yes","recycling_type":"container"}},"type":"Feature"},
	{"geometry":{"coordinates":[7.022203,51.531446],"type":"Point"},"properties":{"osm_id":"4840223022","tag":{"amenity":"recycling","location":"overground","recycling:clothes":"yes","recycling:glass_bottles":"yes","recycling:paper":"yes","recycling_type":"container"}},"type":"Feature"},
	{"geometry":{"coordinates":[7.018469,51.526821],"type":"Point"},"properties":{"osm_id":"4840261222","tag":{"amenity":"waste_disposal"}},"type":"Feature"},
	{"geometry":{"coordinates":[7.002021,51.514749],"type":"Point"},"properties":{"osm_id":"4985169733","tag":{"amenity":"waste_basket"}},"type":"Feature"},
	{"geometry":{"coordinates":[6.951811,51.521236],"type":"Point"},"properties":{"osm_id":"5060193866","tag":{"amenity":"recycling","recycling:clothes":"yes","recycling:glass_bottles":"yes","recycling_type":"container"}},"type":"Feature"},
	{"geometry":{"coordinates":[7.024956,51.552514],"type":"Point"},"properties":{"osm_id":"5491068845","tag":{"amenity":"recycling","recycling:clothes":"yes","recycling_type":"container"}},"type":"Feature"},
	{"geometry":{"coordinates":[7.024985,51.5525],"type":"Point"},"properties":{"osm_id":"5491068846","tag":{"amenity":"recycling","recycling:glass_bottles":"yes","recycling_type":"container"}},"type":"Feature"},
	{"geometry":{"coordinates":[6.99731,51.555559],"type":"Point"},"properties":{"osm_id":"5696624342","tag":{"amenity":"recycling","check_date:recycling":"2020-09-22","recycling:clothes":"yes","recycling:glass_bottles":"yes","recycling:paper":"no","recycling_type":"container"}},"type":"Feature"},
	{"geometry":{"coordinates":[6.990474,51.55714],"type":"Point"},"properties":{"osm_id":"5700371226","tag":{"amenity":"recycling","check_date:recycling":"2020-09-22","recycling:clothes":"yes","recycling:glass_bottles":"yes","recycling_type":"container"}},"type":"Feature"},
	{"geometry":{"coordinates":[7.002544,51.561785],"type":"Point"},"properties":{"osm_id":"5897063269","tag":{"amenity":"recycling","check_date:recycling":"2020-09-22","recycling:clothes":"yes","recycling:glass_bottles":"yes","recycling_type":"container"}},"type":"Feature"},
	{"geometry":{"coordinates":[6.998882,51.553085],"type":"Point"},"properties":{"osm_id":"6046563318","tag":{"amenity":"recycling","recycling:clothes":"yes","recycling:glass_bottles":"yes","recycling_type":"container"}},"type":"Feature"},
	{"geometry":{"coordinates":[7.002334,51.552521],"type":"Point"},"properties":{"osm_id":"6047141026","tag":{"amenity":"recycling","recycling:clothes":"yes","recycling:glass_bottles":"yes","recycling_type":"container"}},"type":"Feature"},
	{"geometry":{"coordinates":[6.975646,51.525335],"type":"Point"},"properties":{"osm_id":"6742260923","tag":{"amenity":"recycling","recycling:clothes":"yes","recycling:glass_bottles":"yes","recycling_type":"container"}},"type":"Feature"},
	{"geometry":{"coordinates":[7.029978,51.521454],"type":"Point"},"properties":{"osm_id":"6816377607","tag":{"amenity":"waste_basket"}},"type":"Feature"},
	{"geometry":{"coordinates":[7.029962,51.521388],"type":"Point"},"properties":{"osm_id":"6816377610","tag":{"amenity":"waste_basket"}},"type":"Feature"},
	{"geometry":{"coordinates":[6.960093,51.526931],"type":"Point"},"properties":{"osm_id":"6885735949","tag":{"amenity":"waste_basket"}},"type":"Feature"},
	{"geometry":{"coordinates":[6.960167,51.52711],"type":"Point"},"properties":{"osm_id":"6885737842","tag":{"amenity":"waste_basket"}},"type":"Feature"},
	{"geometry":{"coordinates":[7.021982,51.533167],"type":"Point"},"properties":{"osm_id":"6927805239","tag":{"amenity":"recycling","recycling:glass_bottles":"yes","recycling_type":"container"}},"type":"Feature"},
	{"geometry":{"coordinates":[6.989915,51.524045],"type":"Point"},"properties":{"osm_id":"6939530826","tag":{"amenity":"recycling","recycling:glass_bottles":"yes","recycling_type":"container"}},"type":"Feature"},
	{"geometry":{"coordinates":[7.014277,51.546579],"type":"Point"},"properties":{"osm_id":"6958687661","tag":{"amenity":"recycling","recycling:glass_bottles":"yes","recycling_type":"container"}},"type":"Feature"},
	{"geometry":{"coordinates":[6.943863,51.534499],"type":"Point"},"properties":{"osm_id":"7169759603","tag":{"amenity":"recycling","recycling:clothes":"yes","recycling:glass_bottles":"yes","recycling_type":"container"}},"type":"Feature"},
	{"geometry":{"coordinates":[6.979576,51.538808],"type":"Point"},"properties":{"osm_id":"7179320187","tag":{"amenity":"waste_basket"}},"type":"Feature"},
	{"geometry":{"coordinates":[6.97856,51.539969],"type":"Point"},"properties":{"osm_id":"7179376185","tag":{"amenity":"waste_basket"}},"type":"Feature"},
	{"geometry":{"coordinates":[6.976491,51.541044],"type":"Point"},"properties":{"osm_id":"7179379885","tag":{"amenity":"waste_basket"}},"type":"Feature"},
	{"geometry":{"coordinates":[7.029169,51.533704],"type":"Point"},"properties":{"osm_id":"7212317568","tag":{"amenity":"recycling","recycling:clothes":"yes","recycling:glass_bottles":"yes","recycling_type":"container"}},"type":"Feature"},
	{"geometry":{"coordinates":[7.023222,51.536706],"type":"Point"},"properties":{"osm_id":"7417322736","tag":{"amenity":"recycling","recycling:cardboard":"yes","recycling:paper":"yes","recycling_type":"container"}},"type":"Feature"},
	{"geometry":{"coordinates":[7.023181,51.536691],"type":"Point"},"properties":{"osm_id":"7417322737","tag":{"amenity":"recycling","operator":"Rhenus Logistics","recycling:glass_bottles":"yes","recycling_type":"container"}},"type":"Feature"},
	{"geometry":{"coordinates":[7.022992,51.536678],"type":"Point"},"properties":{"osm_id":"7417322738","tag":{"amenity":"recycling","operator":"Gelsendienste","recycling:clothes":"yes","recycling:shoes":"yes","recycling_type":"container"}},"type":"Feature"},
	{"geometry":{"coordinates":[6.983003,51.542396],"type":"Point"},"properties":{"osm_id":"7560098231","tag":{"amenity":"recycling","recycling:glass_bottles":"yes","recycling_type":"container"}},"type":"Feature"},
	{"geometry":{"coordinates":[6.982934,51.542391],"type":"Point"},"properties":{"osm_id":"7560098232","tag":{"amenity":"recycling","recycling:clothes":"yes","recycling_type":"container"}},"type":"Feature"},
	{"geometry":{"coordinates":[6.952144,51.522526],"type":"Point"},"properties":{"osm_id":"7560139880","tag":{"amenity":"recycling","recycling:glass_bottles":"yes","recycling_type":"container"}},"type":"Feature"},
	{"geometry":{"coordinates":[6.94679,51.517324],"type":"Point"},"properties":{"osm_id":"7560275886","tag":{"amenity":"recycling","recycling:clothes":"yes","recycling_type":"container"}},"type":"Feature"},
	{"geometry":{"coordinates":[6.946813,51.51734],"type":"Point"},"properties":{"osm_id":"7560275887","tag":{"amenity":"recycling","recycling:glass_bottles":"yes","recycling_type":"container"}},"type":"Feature"},
	{"geometry":{"coordinates":[6.954361,51.528917],"type":"Point"},"properties":{"osm_id":"7562157030","tag":{"amenity":"recycling","recycling:clothes":"yes","recycling_type":"container"}},"type":"Feature"},
	{"geometry":{"coordinates":[6.944115,51.552551],"type":"Point"},"properties":{"osm_id":"7562721368","tag":{"amenity":"recycling","recycling:clothes":"yes","recycling_type":"container"}},"type":"Feature"},
	{"geometry":{"coordinates":[6.947613,51.552326],"type":"Point"},"properties":{"osm_id":"7562738190","tag":{"amenity":"waste_basket"}},"type":"Feature"},
	{"geometry":{"coordinates":[6.954806,51.559107],"type":"Point"},"properties":{"osm_id":"7562807631","tag":{"amenity":"recycling","recycling:glass_bottles":"yes","recycling_type":"container"}},"type":"Feature"},
	{"geometry":{"coordinates":[6.954817,51.55913],"type":"Point"},"properties":{"osm_id":"7562807632","tag":{"amenity":"recycling","recycling:clothes":"yes","recycling_type":"container"}},"type":"Feature"},
	{"geometry":{"coordinates":[6.978453,51.526854],"type":"Point"},"properties":{"osm_id":"7650257380","tag":{"amenity":"recycling","material":"metal","recycling:glass_bottles":"yes","recycling_type":"container"}},"type":"Feature"},
	{"geometry":{"coordinates":[6.98136,51.52892],"type":"Point"},"properties":{"osm_id":"7650257381","tag":{"amenity":"recycling","material":"metal","recycling:clothes":"yes","recycling_type":"container"}},"type":"Feature"},
	{"geometry":{"coordinates":[6.981393,51.528949],"type":"Point"},"properties":{"osm_id":"7650257382","tag":{"amenity":"recycling","material":"metal","recycling:glass_bottles":"yes","recycling_type":"container"}},"type":"Feature"},
	{"geometry":{"coordinates":[6.948429,51.525803],"type":"Point"},"properties":{"osm_id":"7650334720","tag":{"amenity":"recycling","material":"metal","recycling:clothes":"yes","recycling_type":"container"}},"type":"Feature"},
	{"geometry":{"coordinates":[6.948454,51.52583],"type":"Point"},"properties":{"osm_id":"7650334721","tag":{"amenity":"recycling","material":"metal","recycling:glass_bottles":"yes","recycling_type":"container"}},"type":"Feature"},
	{"geometry":{"coordinates":[6.944175,51.526485],"type":"Point"},"properties":{"osm_id":"7650360525","tag":{"amenity":"recycling","material":"metal","recycling:clothes":"yes","recycling_type":"container"}},"type":"Feature"},
	{"geometry":{"coordinates":[6.959328,51.526401],"type":"Point"},"properties":{"osm_id":"7877959480","tag":{"amenity":"waste_basket"}},"type":"Feature"}
]
}
