{
"type": "FeatureCollection",
"features": [
	{"geometry":{"coordinates":[6.963253,51.484437],"type":"Point"},"properties":{"osm_id":"287571602","tag":{"amenity":"recycling","opening_hours":"Mo-Sa 07:00-19:00; PH Su off","operator":"Rhenus Logistics","recycling:glass_bottles":"yes","recycling_type":"container"}},"type":"Feature"},
	{"geometry":{"coordinates":[6.980785,51.455473],"type":"Point"},"properties":{"osm_id":"299274100","tag":{"amenity":"recycling","opening_hours":"Mo-Sa 07:00-19:00; PH Su off","operator":"Rhenus Logistics","recycling:glass_bottles":"yes","recycling_type":"container"}},"type":"Feature"},
	{"geometry":{"coordinates":[7.016426,51.458893],"type":"Point"},"properties":{"osm_id":"300389879","tag":{"amenity":"recycling","opening_hours":"Mo-Sa 07:00-19:00; PH Su off","operator":"Loop","recycling:clothes":"yes","recycling:shoes":"yes","recycling_type":"container"}},"type":"Feature"},
	{"geometry":{"coordinates":[7.019923,51.460792],"type":"Point"},"properties":{"osm_id":"300392811","tag":{"amenity":"waste_basket"}},"type":"Feature"},
	{"geometry":{"coordinates":[6.954146,51.472544],"type":"Point"},"properties":{"osm_id":"303819037","tag":{"amenity":"recycling","opening_hours":"Mo-Sa 07:00-19:00; PH Su off","operator":"Rhenus Logistics","recycling:glass_bottles":"yes","recycling_type":"container"}},"type":"Feature"},
	{"geometry":{"coordinates":[6.981883,51.46159],"type":"Point"},"properties":{"osm_id":"304281690","tag":{"amenity":"recycling","opening_hours":"Mo-Sa 07:00-19:00; PH Su off","operator":"Rhenus Logistics","recycling:glass_bottles":"yes","recycling_type":"container"}},"type":"Feature"},
	{"geometry":{"coordinates":[7.01911,51.482808],"type":"Point"},"properties":{"osm_id":"313954534","tag":{"amenity":"recycling","opening_hours":"Mo-Sa 07:00-19:00; PH Su off","operator":"Rhenus Logostics","recycling:glass_bottles":"yes","recycling_type":"container"}},"type":"Feature"},
	{"geometry":{"coordinates":[7.024355,51.480328],"type":"Point"},"properties":{"osm_id":"313954558","tag":{"amenity":"recycling","opening_hours":"Mo-Sa 07:00-19:00; PH Su off","operator":"Rhenus Logistics","recycling:glass_bottles":"yes","recycling_type":"container"}},"type":"Feature"},
	{"geometry":{"coordinates":[7.023869,51.478925],"type":"Point"},"properties":{"osm_id":"317984326","tag":{"amenity":"recycling","opening_hours":"Mo-Sa 07:00-19:00; PH Su off","operator":"Rhenus Logostics","recycling:glass_bottles":"yes","recycling_type":"container"}},"type":"Feature"},
	{"geometry":{"coordinates":[7.013756,51.484331],"type":"Point"},"properties":{"barrier":"gate","osm_id":"318145972"},"type":"Feature"},
	{"geometry":{"coordinates":[6.986097,51.490506],"type":"Point"},"properties":{"osm_id":"322092785","tag":{"amenity":"recycling","opening_hours":"Mo-Sa 07:00-19:00; PH Su off","operator":"Rhenus Logistics","recycling:glass_bottles":"yes","recycling_type":"container"}},"type":"Feature"},
	{"geometry":{"coordinates":[6.989304,51.491355],"type":"Point"},"properties":{"osm_id":"322094120","tag":{"amenity":"recycling","opening_hours":"Mo-Sa 07:00-19:00; PH Su off","operator":"Rhenus Logistics","recycling:glass_bottles":"yes","recycling_type":"container"}},"type":"Feature"},
	{"geometry":{"coordinates":[7.015013,51.459528],"type":"Point"},"properties":{"osm_id":"337783684","tag":{"amenity":"waste_basket"}},"type":"Feature"},
	{"geometry":{"coordinates":[6.979021,51.46463],"type":"Point"},"properties":{"osm_id":"341935652","tag":{"amenity":"recycling","opening_hours":"Mo-Sa 07:00-19:00; PH Su off","operator":"Rhenus Logistics","recycling:glass_bottles":"yes","recycling_type":"container"}},"type":"Feature"},
	{"geometry":{"coordinates":[6.982532,51.456964],"type":"Point"},"properties":{"osm_id":"341967754","tag":{"amenity":"recycling","opening_hours":"Mo-Sa 07:00-19:00; PH Su off","operator":"Rhenus Logistics","recycling:glass_bottles":"yes","recycling_type":"container"}},"type":"Feature"},
	{"geometry":{"coordinates":[7.029405,51.476876],"type":"Point"},"properties":{"osm_id":"344230841","tag":{"amenity":"recycling","opening_hours":"Mo-Sa 07:00-19:00; PH Su off","operator":"Entsorgungsbetriebe Essen","recycling:cardboard":"yes","recycling:paper":"yes","recycling_type":"container"}},"type":"Feature"},
	{"geometry":{"coordinates":[7.014719,51.463454],"type":"Point"},"properties":{"osm_id":"344448891","tag":{"amenity":"recycling","opening_hours":"Mo-Sa 07:00-19:00; PH Su off","operator":"Entsorgungsbetriebe Essen","recycling:cardboard":"yes","recycling:paper":"yes","recycling_type":"container"}},"type":"Feature"},
	{"geometry":{"coordinates":[7.001007,51.506524],"type":"Point"},"properties":{"osm_id":"348101895","tag":{"amenity":"recycling","opening_hours":"Mo-Sa 07:00-19:00; PH Su off","operator":"Rhenus Logistics","recycling:glass_bottles":"yes","recycling_type":"container"}},"type":"Feature"},
	{"geometry":{"coordinates":[6.9633,51.455265],"type":"Point"},"properties":{"osm_id":"349115243","tag":{"amenity":"recycling","opening_hours":"Mo-Sa 07:00-19:00; PH Su off","operator":"Rhenus Logistics","recycling:glass_bottles":"yes","recycling_type":"container"}},"type":"Feature"},
	{"geometry":{"coordinates":[6.964383,51.460184],"type":"Point"},"properties":{"osm_id":"349117142","tag":{"amenity":"recycling","opening_hours":"Mo-Sa 07:00-19:00; PH Su off","operator":"Rhenus Logistics","recycling:glass_bottles":"yes","recycling_type":"container"}},"type":"Feature"},
	{"geometry":{"coordinates":[7.028325,51.473789],"type":"Point"},"properties":{"osm_id":"349902418","tag":{"amenity":"recycling","opening_hours":"Mo-Sa 07:00-19:00; PH Su off","operator":"Rhenus Logistics","recycling:glass_bottles":"yes","recycling_type":"container"}},"type":"Feature"},
	{"geometry":{"coordinates":[6.968419,51.454417],"type":"Point"},"properties":{"osm_id":"353883281","tag":{"amenity":"recycling","opening_hours":"Mo-Sa 07:00-19:00; PH Su off","operator":"Rhenus Logistics","recycling:glass_bottles":"yes","recycling_type":"container"}},"type":"Feature"},
	{"geometry":{"coordinates":[6.970053,51.454032],"type":"Point"},"properties":{"osm_id":"353883616","tag":{"amenity":"recycling","opening_hours":"Mo-Sa 07:00-19:00; PH Su off","operator":"Rhenus Logistics","recycling:glass_bottles":"yes","recycling_type":"container"}},"type":"Feature"},
	{"geometry":{"coordinates":[6.955207,51.4579],"type":"Point"},"properties":{"osm_id":"353886193","tag":{"amenity":"recycling","opening_hours":"Mo-Sa 07:00-19:00; PH Su off","operator":"Rhenus Logistics","recycling:glass_bottles":"yes","recycling_type":"container"}},"type":"Feature"},
	{"geometry":{"coordinates":[6.95455,51.460558],"type":"Point"},"properties":{"osm_id":"353886994","tag":{"amenity":"recycling","opening_hours":"Mo-Sa 07:00-19:00; PH Su off","operator":"Rhenus Logistics","recycling:glass_bottles":"yes","recycling_type":"container"}},"type":"Feature"},
	{"geometry":{"coordinates":[6.990593,51.495192],"type":"Point"},"properties":{"osm_id":"363752100","tag":{"amenity":"recycling","opening_hours":"Mo-Sa 07:00-19:00; PH Su off","operator":"Rhenus Logistics","recycling:glass_bottles":"yes","recycling_type":"container"}},"type":"Feature"},
	{"geometry":{"coordinates":[7.016234,51.474931],"type":"Point"},"properties":{"osm_id":"363829730","tag":{"amenity":"recycling","opening_hours":"Mo-Sa 07:00-19:00; PH Su off","operator":"Rhenus Logistics","recycling:glass_bottles":"yes","recycling_type":"container"}},"type":"Feature"},
	{"geometry":{"coordinates":[7.000264,51.491902],"type":"Point"},"properties":{"osm_id":"363847158","tag":{"amenity":"recycling","opening_hours":"Mo-Sa 07:00-19:00; PH Su off","operator":"Rhenus Logostics","recycling:glass_bottles":"yes","recycling_type":"container"}},"type":"Feature"},
	{"geometry":{"coordinates":[7.005755,51.493049],"type":"Point"},"properties":{"osm_id":"363867074","tag":{"amenity":"recycling","opening_hours":"Mo-Sa 07:00-19:00; PH Su off","operator":"Rhenus Logostics","recycling:glass_bottles":"yes","recycling_type":"container"}},"type":"Feature"},
	{"geometry":{"coordinates":[7.006406,51.495811],"type":"Point"},"properties":{"osm_id":"363878206","tag":{"amenity":"recycling","opening_hours":"Mo-Sa 07:00-19:00; PH Su off","operator":"Entsorgungsbetriebe Essen","recycling:cardboard":"yes","recycling:paper":"yes","recycling_type":"container"}},"type":"Feature"},
	{"geometry":{"coordinates":[7.006173,51.497677],"type":"Point"},"properties":{"osm_id":"363880852","tag":{"amenity":"recycling","opening_hours":"Mo-Sa 07:00-19:00; PH Su off","operator":"Rhenus Logistics","recycling:glass_bottles":"yes","recycling_type":"container"}},"type":"Feature"},
	{"geometry":{"coordinates":[7.013515,51.499795],"type":"Point"},"properties":{"osm_id":"363892250","tag":{"amenity":"recycling","opening_hours":"Mo-Sa 07:00-19:00; PH Su off","operator":"Rhenus Logistics","recycling:glass_bottles":"yes","recycling_type":"container"}},"type":"Feature"},
	{"geometry":{"coordinates":[6.974216,51.456186],"type":"Point"},"properties":{"osm_id":"364059637","tag":{"amenity":"recycling","opening_hours":"Mo-Sa 07:00-19:00; PH Su off","operator":"Rhenus Logistics","recycling:glass_bottles":"yes","recycling_type":"container"}},"type":"Feature"},
	{"geometry":{"coordinates":[6.958422,51.476706],"type":"Point"},"properties":{"osm_id":"368400427","tag":{"amenity":"recycling","opening_hours":"Mo-Sa 07:00-19:00; PH Su off","operator":"Rhenus Logistics","recycling:glass_bottles":"yes","recycling_type":"container"}},"type":"Feature"},
	{"geometry":{"coordinates":[7.003984,51.48983],"type":"Point"},"properties":{"osm_id":"373280479","tag":{"amenity":"recycling","opening_hours":"Mo-Sa 07:00-19:00; PH Su off","operator":"Entsorgungsbetriebe Essen","recycling:cardboard":"yes","recycling:paper":"yes","recycling_type":"container"}},"type":"Feature"},
	{"geometry":{"coordinates":[7.000747,51.489988],"type":"Point"},"properties":{"osm_id":"373280841","tag":{"amenity":"recycling","opening_hours":"Mo-Sa 07:00-19:00; PH Su off","operator":"Entsorgungsbetriebe Essen","recycling:cardboard":"yes","recycling:paper":"yes","recycling_type":"container"}},"type":"Feature"},
	{"geometry":{"coordinates":[6.972539,51.45894],"type":"Point"},"properties":{"osm_id":"384859014","tag":{"amenity":"recycling","opening_hours":"Mo-Sa 07:00-19:00; PH Su off","operator":"Rhenus Logistics","recycling:glass_bottles":"yes","recycling_type":"container"}},"type":"Feature"},
	{"geometry":{"coordinates":[7.026814,51.457568],"type":"Point"},"properties":{"osm_id":"392017721","tag":{"amenity":"recycling","opening_hours":"Mo-Sa 07:00-19:00; PH Su off","operator":"Rhenus Logistics","recycling:glass_bottles":"yes","recycling_type":"container"}},"type":"Feature"},
	{"geometry":{"coordinates":[7.025906,51.487767],"type":"Point"},"properties":{"osm_id":"411491479","tag":{"amenity":"recycling","opening_hours":"Mo-Sa 07:00-19:00; PH Su off","operator":"Rhenus Logistics","recycling:glass_bottles":"yes","recycling_type":"container"}},"type":"Feature"},
	{"geometry":{"coordinates":[6.976946,51.457548],"type":"Point"},"properties":{"osm_id":"412454415","tag":{"amenity":"recycling","opening_hours":"Mo-Sa 07:00-19:00; PH Su off","operator":"Rhenus Logistics","recycling:glass_bottles":"yes","recycling_type":"container"}},"type":"Feature"},
	{"geometry":{"coordinates":[7.002874,51.496604],"type":"Point"},"properties":{"osm_id":"415679494","tag":{"amenity":"recycling","opening_hours":"Mo-Sa 07:00-19:00; PH Su off","operator":"Rhenus Logistics","recycling:glass_bottles":"yes","recycling_type":"container"}},"type":"Feature"},
	{"geometry":{"coordinates":[7.001523,51.499463],"type":"Point"},"properties":{"osm_id":"415715766","tag":{"amenity":"recycling","opening_hours":"Mo-Sa 07:00-19:00; PH Su off","operator":"Rhenus Logistics","recycling:glass_bottles":"yes","recycling_type":"container"}},"type":"Feature"},
	{"geometry":{"coordinates":[6.962786,51.460652],"type":"Point"},"properties":{"osm_id":"419338545","tag":{"amenity":"waste_basket"}},"type":"Feature"},
	{"geometry":{"coordinates":[6.962825,51.460703],"type":"Point"},"properties":{"osm_id":"419338557","tag":{"amenity":"waste_basket"}},"type":"Feature"},
	{"geometry":{"coordinates":[6.995254,51.465173],"type":"Point"},"properties":{"name":"Recyclingstation Pferdebahn","osm_id":"422927158","tag":{"amenity":"recycling","opening_hours":"Mo-Fr 08:00-15:00; PH Sa,Su off","operator":"Entsorgungsbetriebe Essen","recycling:garden_waste":"yes","recycling:green_waste":"yes","recycling_type":"centre"}},"type":"Feature"},
	{"geometry":{"coordinates":[6.973403,51.490888],"type":"Point"},"properties":{"osm_id":"460383051","tag":{"amenity":"waste_basket"}},"type":"Feature"},
	{"geometry":{"coordinates":[6.950135,51.506202],"type":"Point"},"properties":{"osm_id":"471425163","tag":{"amenity":"recycling","recycling:glass_bottles":"yes","recycling_type":"container"}},"type":"Feature"},
	{"geometry":{"coordinates":[6.986471,51.46263],"type":"Point"},"properties":{"osm_id":"491013444","tag":{"amenity":"waste_basket"}},"type":"Feature"},
	{"geometry":{"coordinates":[6.985704,51.462831],"type":"Point"},"properties":{"osm_id":"491013460","tag":{"amenity":"waste_basket"}},"type":"Feature"},
	{"geometry":{"coordinates":[6.986217,51.462712],"type":"Point"},"properties":{"osm_id":"491013485","tag":{"amenity":"waste_basket"}},"type":"Feature"},
	{"geometry":{"coordinates":[6.96957,51.464972],"type":"Point"},"properties":{"osm_id":"522818741","tag":{"amenity":"recycling","opening_hours":"Mo-Sa 07:00-19:00; PH Su off","operator":"Rhenus Logistics","recycling:glass_bottles":"yes","recycling_type":"container"}},"type":"Feature"},
	{"geometry":{"coordinates":[6.96699,51.464048],"type":"Point"},"properties":{"osm_id":"583010860","tag":{"amenity":"recycling","opening_hours":"Mo-Sa 07:00-19:00; PH Su off","operator":"Rhenus Logistics","recycling:glass_bottles":"yes","recycling_type":"container"}},"type":"Feature"},
	{"geometry":{"coordinates":[6.967688,51.46566],"type":"Point"},"properties":{"osm_id":"583011894","tag":{"amenity":"recycling","opening_hours":"Mo-Sa 07:00-19:00; PH Su off","operator":"Rhenus Logistics","recycling:glass_bottles":"yes","recycling_type":"container"}},"type":"Feature"},
	{"geometry":{"coordinates":[7.0098,51.495904],"type":"Point"},"properties":{"osm_id":"585339250","tag":{"amenity":"recycling","opening_hours":"Mo-Sa 07:00-19:00; PH Su off","operator":"Rhenus Logostics","recycling:glass_bottles":"yes","recycling_type":"container"}},"type":"Feature"},
	{"geometry":{"coordinates":[7.002619,51.463483],"type":"Point"},"properties":{"osm_id":"608517582","tag":{"amenity":"recycling","opening_hours":"Mo-Sa 07:00-19:00; PH Su off","operator":"Loop","recycling:clothes":"yes","recycling:shoes":"yes","recycling_type":"container"}},"type":"Feature"},
	{"geometry":{"coordinates":[6.97873,51.470925],"type":"Point"},"properties":{"osm_id":"662287105","tag":{"amenity":"recycling","opening_hours":"Mo-Sa 07:00-19:00; PH Su off","operator":"Rhenus Logistics","recycling:glass_bottles":"yes","recycling_type":"container"}},"type":"Feature"},
	{"geometry":{"coordinates":[6.981504,51.47673],"type":"Point"},"properties":{"osm_id":"662287107","tag":{"amenity":"recycling","opening_hours":"Mo-Sa 07:00-19:00; PH Su off","operator":"Rhenus Logistics","recycling:glass_bottles":"yes","recycling_type":"container"}},"type":"Feature"},
	{"geometry":{"coordinates":[7.015491,51.460926],"type":"Point"},"properties":{"osm_id":"830369749","tag":{"amenity":"waste_basket"}},"type":"Feature"},
	{"geometry":{"coordinates":[6.962809,51.470449],"type":"Point"},"properties":{"osm_id":"876124705","tag":{"amenity":"recycling","recycling:clothes":"yes","recycling_type":"container"}},"type":"Feature"},
	{"geometry":{"coordinates":[6.999198,51.481103],"type":"Point"},"properties":{"osm_id":"910347210","tag":{"amenity":"recycling","opening_hours":"Mo-Sa 07:00-19:00; PH Su off","operator":"Loop","recycling:clothes":"yes","recycling:shoes":"yes","recycling_type":"container"}},"type":"Feature"},
	{"geometry":{"coordinates":[6.992143,51.47955],"type":"Point"},"properties":{"osm_id":"910347244","tag":{"amenity":"recycling","opening_hours":"Mo-Sa 07:00-19:00; PH Su off","operator":"Rhenus Logistics","recycling:glass_bottles":"yes","recycling_type":"container"}},"type":"Feature"},
	{"geometry":{"coordinates":[7.013649,51.468399],"type":"Point"},"properties":{"osm_id":"918045472","tag":{"amenity":"recycling","opening_hours":"Mo-Sa 07:00-19:00; PH Su off","operator":"Entsorgungsbetriebe Essen","recycling:cardboard":"yes","recycling:paper":"yes","recycling_type":"container"}},"type":"Feature"},
	{"geometry":{"coordinates":[6.95456,51.470321],"type":"Point"},"properties":{"osm_id":"954958089","tag":{"amenity":"recycling","opening_hours":"Mo-Sa 07:00-19:00; PH Su off","operator":"Rhenus Logistics","recycling:glass_bottles":"yes","recycling_type":"container"}},"type":"Feature"},
	{"geometry":{"coordinates":[6.956171,51.470929],"type":"Point"},"properties":{"osm_id":"954958096","tag":{"amenity":"recycling","opening_hours":"Mo-Sa 07:00-19:00; PH Su off","operator":"Rhenus Logistics","recycling:glass_bottles":"yes","recycling_type":"container"}},"type":"Feature"},
	{"geometry":{"coordinates":[7.017723,51.461398],"type":"Point"},"properties":{"osm_id":"986027747","tag":{"amenity":"recycling","opening_hours":"Mo-Sa 07:00-19:00; PH Su off","operator":"Rhenus Logistics","recycling:glass_bottles":"yes","recycling_type":"container"}},"type":"Feature"},
	{"geometry":{"coordinates":[7.020314,51.457209],"type":"Point"},"properties":{"osm_id":"1007132919","tag":{"amenity":"recycling","opening_hours":"Mo-Sa 07:00-19:00; PH Su off","operator":"Entsorgungsbetriebe Essen","recycling:cardboard":"yes","recycling:paper":"yes","recycling_type":"container"}},"type":"Feature"},
	{"geometry":{"coordinates":[6.974939,51.464188],"type":"Point"},"properties":{"osm_id":"1131266791","tag":{"amenity":"recycling","opening_hours":"Mo-Sa 07:00-19:00; PH Su off","operator":"Rhenus Logistics","recycling:glass_bottles":"yes","recycling_type":"container"}},"type":"Feature"},
	{"geometry":{"coordinates":[7.016876,51.50556],"type":"Point"},"properties":{"osm_id":"1239296342","tag":{"amenity":"recycling","opening_hours":"Mo-Sa 07:00-19:00; PH Su off","operator":"Essener Entsorgungsbetriebe","recycling:cardboard":"yes","recycling:paper":"yes","recycling_type":"container"}},"type":"Feature"},
	{"geometry":{"coordinates":[7.017274,51.505127],"type":"Point"},"properties":{"osm_id":"1239296369","tag":{"amenity":"recycling","opening_hours":"Mo-Sa 07:00-19:00; PH Su off","operator":"Rhenus Logistics","recycling:glass_bottles":"yes","recycling_type":"container"}},"type":"Feature"},
	{"geometry":{"coordinates":[7.026734,51.458333],"type":"Point"},"properties":{"osm_id":"1274361490","tag":{"amenity":"waste_basket"}},"type":"Feature"},
	{"geometry":{"coordinates":[7.027092,51.458161],"type":"Point"},"properties":{"osm_id":"1274361535","tag":{"amenity":"waste_basket"}},"type":"Feature"},
	{"geometry":{"coordinates":[7.012397,51.505433],"type":"Point"},"properties":{"osm_id":"1444871960","tag":{"amenity":"recycling","opening_hours":"Mo-Sa 07:00-19:00; PH Su off","operator":"Rhenus Logistics","recycling:glass_bottles":"yes","recycling_type":"container"}},"type":"Feature"},
	{"geometry":{"coordinates":[6.945773,51.489181],"type":"Point"},"properties":{"osm_id":"1520236032","tag":{"amenity":"recycling","opening_hours":"Mo-Sa 07:00-19:00; PH Su off","operator":"Rhenus Logistics","recycling:glass_bottles":"yes","recycling_type":"container"}},"type":"Feature"},
	{"geometry":{"coordinates":[6.946676,51.493214],"type":"Point"},"properties":{"osm_id":"1520236112","tag":{"amenity":"recycling","opening_hours":"Mo-Sa 07:00-19:00; PH Su off","operator":"Rhenus Logistics","recycling:glass_bottles":"yes","recycling_type":"container"}},"type":"Feature"},
	{"geometry":{"coordinates":[7.021106,51.468122],"type":"Point"},"properties":{"osm_id":"1544283710","tag":{"amenity":"recycling","opening_hours":"Mo-Sa 07:00-19:00; PH Su off","operator":"Rhenus Logistics","recycling:glass_bottles":"yes","recycling_type":"container"}},"type":"Feature"},
	{"geometry":{"coordinates":[6.977243,51.471188],"type":"Point"},"properties":{"osm_id":"1550848923","tag":{"amenity":"recycling","opening_hours":"Mo-Sa 07:00-19:00; PH Su off","operator":"Rhenus Logistics","recycling:glass_bottles":"yes","recycling_type":"container"}},"type":"Feature"},
	{"geometry":{"coordinates":[6.986853,51.483371],"type":"Point"},"properties":{"osm_id":"1550849000","tag":{"amenity":"recycling","opening_hours":"Mo-Sa 07:00-19:00; PH Su off","operator":"Rhenus Logistics","recycling:glass_bottles":"yes","recycling_type":"container"}},"type":"Feature"},
	{"geometry":{"coordinates":[6.999819,51.46611],"type":"Point"},"properties":{"osm_id":"1569027171","tag":{"amenity":"recycling","opening_hours":"Mo-Sa 07:00-19:00; PH Su off","operator":"Rhenus Logistics","recycling:glass_bottles":"yes","recycling_type":"container"}},"type":"Feature"},
	{"geometry":{"coordinates":[7.008716,51.459612],"type":"Point"},"properties":{"osm_id":"1572531085","tag":{"amenity":"recycling","opening_hours":"Mo-Sa 07:00-19:00; PH Su off","operator":"Entsorgungsbetriebe Essen","recycling:cardboard":"yes","recycling:paper":"yes","recycling_type":"container"}},"type":"Feature"},
	{"geometry":{"coordinates":[7.008623,51.503365],"type":"Point"},"properties":{"osm_id":"1573164694","tag":{"amenity":"recycling","opening_hours":"Mo-Sa 07:00-19:00; PH Su off","operator":"Essener Entsorgungsbetriebe","recycling:cardboard":"yes","recycling:paper":"yes","recycling_type":"container"}},"type":"Feature"},
	{"geometry":{"coordinates":[7.012574,51.460286],"type":"Point"},"properties":{"osm_id":"1578646548","tag":{"amenity":"recycling","opening_hours":"Mo-Sa 07:00-19:00; PH Su off","operator":"Rhenus Logistics","recycling:glass_bottles":"yes","recycling_type":"container"}},"type":"Feature"},
	{"geometry":{"coordinates":[6.984007,51.491981],"type":"Point"},"properties":{"osm_id":"1610632711","tag":{"amenity":"recycling","opening_hours":"Mo-Sa 07:00-19:00; PH Su off","operator":"Rhenus Logistics","recycling:glass_bottles":"yes","recycling_type":"container"}},"type":"Feature"},
	{"geometry":{"coordinates":[6.985249,51.493728],"type":"Point"},"properties":{"osm_id":"1610645511","tag":{"amenity":"recycling","opening_hours":"Mo-Sa 07:00-19:00; PH Su off","operator":"Rhenus Logistics","recycling:glass_bottles":"yes","recycling_type":"container"}},"type":"Feature"},
	{"geometry":{"coordinates":[7.002722,51.467456],"type":"Point"},"properties":{"osm_id":"1711827405","tag":{"amenity":"recycling","opening_hours":"Mo-Sa 07:00-19:00; PH Su off","operator":"Rhenus Logistics","recycling:glass_bottles":"yes","recycling_type":"container"}},"type":"Feature"},
	{"geometry":{"coordinates":[6.952619,51.471004],"type":"Point"},"properties":{"osm_id":"1735327046","tag":{"amenity":"recycling","opening_hours":"Mo-Sa 07:00-19:00; PH Su off","operator":"Rhenus Logistics","recycling:glass_bottles":"yes","recycling_type":"container"}},"type":"Feature"},
	{"geometry":{"coordinates":[6.952843,51.471654],"type":"Point"},"properties":{"osm_id":"1735327076","tag":{"amenity":"recycling","opening_hours":"Mo-Sa 07:00-19:00; PH Su off","operator":"Entsorgungsbetriebe Essen","recycling:cardboard":"yes","recycling:paper":"yes","recycling_type":"container"}},"type":"Feature"},
	{"geometry":{"coordinates":[6.950568,51.47684],"type":"Point"},"properties":{"osm_id":"1735817890","tag":{"amenity":"recycling","recycling:clothes":"yes","recycling_type":"container"}},"type":"Feature"},
	{"geometry":{"coordinates":[6.943937,51.45764],"type":"Point"},"properties":{"osm_id":"1746131096","tag":{"amenity":"recycling","opening_hours":"Mo-Sa 07:00-19:00; PH Su off","operator":"Rhenus Logistics","recycling:glass_bottles":"yes","recycling_type":"container"}},"type":"Feature"},
	{"geometry":{"coordinates":[6.957471,51.469127],"type":"Point"},"properties":{"osm_id":"1761080614","tag":{"amenity":"recycling","opening_hours":"Mo-Sa 07:00-19:00; PH Su off","operator":"Rhenus Logistics","recycling:glass_bottles":"yes","recycling_type":"container"}},"type":"Feature"},
	{"geometry":{"coordinates":[6.962828,51.469242],"type":"Point"},"properties":{"osm_id":"1761080620","tag":{"amenity":"recycling","opening_hours":"Mo-Sa 07:00-19:00; PH Su off","operator":"Rhenus Logistics","recycling:glass_bottles":"yes","recycling_type":"container"}},"type":"Feature"},
	{"geometry":{"coordinates":[7.019571,51.485341],"type":"Point"},"properties":{"osm_id":"1765346798","tag":{"amenity":"recycling","opening_hours":"Mo-Sa 07:00-19:00; PH Su off","operator":"Rhenus Logostics","recycling:glass_bottles":"yes","recycling_type":"container"}},"type":"Feature"},
	{"geometry":{"coordinates":[6.943524,51.468146],"type":"Point"},"properties":{"osm_id":"2084778272","tag":{"amenity":"recycling","opening_hours":"Mo-Sa 07:00-19:00; PH Su off","operator":"Rhenus Logistics","recycling:glass_bottles":"yes","recycling_type":"container"}},"type":"Feature"},
	{"geometry":{"coordinates":[6.943539,51.480973],"type":"Point"},"properties":{"osm_id":"2084823172","tag":{"amenity":"recycling","opening_hours":"Mo-Sa 07:00-19:00; PH Su off","operator":"Rhenus Logistics","recycling:glass_bottles":"yes","recycling_type":"container"}},"type":"Feature"},
	{"geometry":{"coordinates":[6.972857,51.479292],"type":"Point"},"properties":{"osm_id":"2261673344","tag":{"amenity":"recycling","opening_hours":"Mo-Sa 07:00-19:00; PH Su off","operator":"Rhenus Logistics","recycling:glass_bottles":"yes","recycling_type":"container"}},"type":"Feature"},
	{"geometry":{"coordinates":[6.959949,51.456045],"type":"Point"},"properties":{"osm_id":"2460641559","tag":{"amenity":"waste_basket","waste":"trash"}},"type":"Feature"},
	{"geometry":{"coordinates":[6.959833,51.456072],"type":"Point"},"properties":{"osm_id":"2463081574","tag":{"amenity":"waste_basket","waste":"trash"}},"type":"Feature"},
	{"geometry":{"coordinates":[6.95991,51.456183],"type":"Point"},"properties":{"osm_id":"2463081577","tag":{"amenity":"waste_basket","waste":"trash"}},"type":"Feature"},
	{"geometry":{"coordinates":[6.982912,51.458915],"type":"Point"},"properties":{"osm_id":"2985838643","tag":{"amenity":"recycling","opening_hours":"Mo-Sa 07:00-19:00; PH Su off","operator":"Rhenus Logistics","recycling:glass_bottles":"yes","recycling_type":"container"}},"type":"Feature"},
	{"geometry":{"coordinates":[7.013668,51.488149],"type":"Point"},"properties":{"osm_id":"3025389943","tag":{"amenity":"waste_basket"}},"type":"Feature"},
	{"geometry":{"coordinates":[7.013608,51.488238],"type":"Point"},"properties":{"osm_id":"3025389946","tag":{"amenity":"waste_basket"}},"type":"Feature"},
	{"geometry":{"coordinates":[7.014891,51.488244],"type":"Point"},"properties":{"osm_id":"3025389947","tag":{"amenity":"waste_basket"}},"type":"Feature"},
	{"geometry":{"coordinates":[7.013797,51.488314],"type":"Point"},"properties":{"osm_id":"3025389955","tag":{"amenity":"waste_basket"}},"type":"Feature"},
	{"geometry":{"coordinates":[7.014791,51.488626],"type":"Point"},"properties":{"osm_id":"3025389969","tag":{"amenity":"waste_basket"}},"type":"Feature"},
	{"geometry":{"coordinates":[7.012871,51.488869],"type":"Point"},"properties":{"osm_id":"3025389973","tag":{"amenity":"waste_basket"}},"type":"Feature"},
	{"geometry":{"coordinates":[7.011732,51.489147],"type":"Point"},"properties":{"osm_id":"3025389980","tag":{"amenity":"waste_basket"}},"type":"Feature"},
	{"geometry":{"coordinates":[7.013366,51.489166],"type":"Point"},"properties":{"osm_id":"3025389985","tag":{"amenity":"waste_basket"}},"type":"Feature"},
	{"geometry":{"coordinates":[7.012764,51.489172],"type":"Point"},"properties":{"osm_id":"3025389986","tag":{"amenity":"waste_basket"}},"type":"Feature"},
	{"geometry":{"coordinates":[7.014764,51.489419],"type":"Point"},"properties":{"osm_id":"3025389990","tag":{"amenity":"waste_basket"}},"type":"Feature"},
	{"geometry":{"coordinates":[7.011658,51.489599],"type":"Point"},"properties":{"osm_id":"3025389991","tag":{"amenity":"waste_basket"}},"type":"Feature"},
	{"geometry":{"coordinates":[7.01227,51.489631],"type":"Point"},"properties":{"osm_id":"3025389996","tag":{"amenity":"waste_basket"}},"type":"Feature"},
	{"geometry":{"coordinates":[7.012804,51.489825],"type":"Point"},"properties":{"osm_id":"3025390000","tag":{"amenity":"waste_basket"}},"type":"Feature"},
	{"geometry":{"coordinates":[7.014969,51.490063],"type":"Point"},"properties":{"osm_id":"3025390012","tag":{"amenity":"waste_basket"}},"type":"Feature"},
	{"geometry":{"coordinates":[7.01218,51.4901],"type":"Point"},"properties":{"osm_id":"3025390014","tag":{"amenity":"waste_basket"}},"type":"Feature"},
	{"geometry":{"coordinates":[7.011904,51.490105],"type":"Point"},"properties":{"osm_id":"3025390016","tag":{"amenity":"waste_basket"}},"type":"Feature"},
	{"geometry":{"coordinates":[7.013583,51.49012],"type":"Point"},"properties":{"osm_id":"3025390020","tag":{"amenity":"waste_basket"}},"type":"Feature"},
	{"geometry":{"coordinates":[7.012563,51.490146],"type":"Point"},"properties":{"osm_id":"3025390025","tag":{"amenity":"waste_basket"}},"type":"Feature"},
	{"geometry":{"coordinates":[7.011759,51.490171],"type":"Point"},"properties":{"osm_id":"3025390029","tag":{"amenity":"waste_basket"}},"type":"Feature"},
	{"geometry":{"coordinates":[7.01308,51.490337],"type":"Point"},"properties":{"osm_id":"3025390135","tag":{"amenity":"waste_basket"}},"type":"Feature"},
	{"geometry":{"coordinates":[7.014087,51.490339],"type":"Point"},"properties":{"osm_id":"3025390136","tag":{"amenity":"waste_basket"}},"type":"Feature"},
	{"geometry":{"coordinates":[7.012686,51.490701],"type":"Point"},"properties":{"osm_id":"3025390151","tag":{"amenity":"waste_basket"}},"type":"Feature"},
	{"geometry":{"coordinates":[7.013322,51.490728],"type":"Point"},"properties":{"osm_id":"3025390153","tag":{"amenity":"waste_basket"}},"type":"Feature"},
	{"geometry":{"coordinates":[7.013343,51.490855],"type":"Point"},"properties":{"osm_id":"3025390159","tag":{"amenity":"waste_basket"}},"type":"Feature"},
	{"geometry":{"coordinates":[7.01507,51.490981],"type":"Point"},"properties":{"osm_id":"3025390162","tag":{"amenity":"waste_basket"}},"type":"Feature"},
	{"geometry":{"coordinates":[7.013308,51.4912],"type":"Point"},"properties":{"osm_id":"3025390167","tag":{"amenity":"waste_basket"}},"type":"Feature"},
	{"geometry":{"coordinates":[7.013872,51.492153],"type":"Point"},"properties":{"osm_id":"3025390184","tag":{"amenity":"waste_basket"}},"type":"Feature"},
	{"geometry":{"coordinates":[6.981564,51.476819],"type":"Point"},"properties":{"osm_id":"3194259885","tag":{"amenity":"waste_basket"}},"type":"Feature"},
	{"geometry":{"coordinates":[6.981441,51.476929],"type":"Point"},"properties":{"osm_id":"3194259888","tag":{"amenity":"waste_basket"}},"type":"Feature"},
	{"geometry":{"coordinates":[6.948487,51.472587],"type":"Point"},"properties":{"osm_id":"3329557301","tag":{"amenity":"waste_basket"}},"type":"Feature"},
	{"geometry":{"coordinates":[6.948756,51.471593],"type":"Point"},"properties":{"osm_id":"3356853311","tag":{"amenity":"waste_basket"}},"type":"Feature"},
	{"geometry":{"coordinates":[6.948514,51.471897],"type":"Point"},"properties":{"osm_id":"3356853314","tag":{"amenity":"waste_basket"}},"type":"Feature"},
	{"geometry":{"coordinates":[6.947793,51.473303],"type":"Point"},"properties":{"osm_id":"3357361298","tag":{"amenity":"recycling","opening_hours":"Mo-Sa 07:00-19:00; PH Su off","operator":"Rhenus Logistics","recycling:glass_bottles":"yes","recycling_type":"container"}},"type":"Feature"},
	{"geometry":{"coordinates":[6.948221,51.472265],"type":"Point"},"properties":{"osm_id":"3357366993","tag":{"amenity":"waste_basket"}},"type":"Feature"},
	{"geometry":{"coordinates":[6.947688,51.473448],"type":"Point"},"properties":{"osm_id":"3357369793","tag":{"amenity":"recycling","opening_hours":"Mo-Sa 07:00-19:00; PH Su off","operator":"Entsorgungsbetriebe Essen","recycling:cardboard":"yes","recycling:paper":"yes","recycling_type":"container"}},"type":"Feature"},
	{"geometry":{"coordinates":[6.984268,51.465527],"type":"Point"},"properties":{"osm_id":"3397011937","tag":{"amenity":"waste_basket"}},"type":"Feature"},
	{"geometry":{"coordinates":[7.003757,51.465779],"type":"Point"},"properties":{"osm_id":"3404727561","tag":{"amenity":"waste_basket"}},"type":"Feature"},
	{"geometry":{"coordinates":[7.017948,51.45988],"type":"Point"},"properties":{"osm_id":"3411506841","tag":{"amenity":"waste_basket"}},"type":"Feature"},
	{"geometry":{"coordinates":[6.984518,51.464596],"type":"Point"},"properties":{"osm_id":"3435749231","tag":{"amenity":"waste_basket"}},"type":"Feature"},
	{"geometry":{"coordinates":[6.985018,51.463207],"type":"Point"},"properties":{"osm_id":"3439386473","tag":{"amenity":"waste_basket"}},"type":"Feature"},
	{"geometry":{"coordinates":[6.986153,51.464031],"type":"Point"},"properties":{"osm_id":"3439386475","tag":{"amenity":"waste_basket"}},"type":"Feature"},
	{"geometry":{"coordinates":[6.997743,51.464068],"type":"Point"},"properties":{"osm_id":"3439386476","tag":{"amenity":"waste_basket"}},"type":"Feature"},
	{"geometry":{"coordinates":[6.984443,51.464992],"type":"Point"},"properties":{"osm_id":"3439386479","tag":{"amenity":"waste_basket"}},"type":"Feature"},
	{"geometry":{"coordinates":[6.987944,51.465533],"type":"Point"},"properties":{"osm_id":"3439386483","tag":{"amenity":"waste_basket"}},"type":"Feature"},
	{"geometry":{"coordinates":[7.007629,51.466164],"type":"Point"},"properties":{"osm_id":"3474149817","tag":{"amenity":"recycling","opening_hours":"Mo-Sa 07:00-19:00; PH Su off","operator":"Entsorgungsbetriebe Essen","recycling:cardboard":"yes","recycling:paper":"yes","recycling_type":"container"}},"type":"Feature"},
	{"geometry":{"coordinates":[7.015551,51.495321],"type":"Point"},"properties":{"osm_id":"3481701509","tag":{"amenity":"recycling","opening_hours":"Mo-Sa 07:00-19:00; PH Su off","operator":"Entsorgungsbetriebe Essen","recycling:cardboard":"yes","recycling:paper":"yes","recycling_type":"container"}},"type":"Feature"},
	{"geometry":{"coordinates":[6.985635,51.4645],"type":"Point"},"properties":{"osm_id":"3507036400","tag":{"amenity":"waste_basket"}},"type":"Feature"},
	{"geometry":{"coordinates":[6.999298,51.464957],"type":"Point"},"properties":{"osm_id":"3790314136","tag":{"amenity":"recycling","recycling:clothes":"yes","recycling:shoes":"yes","recycling_type":"container"}},"type":"Feature"},
	{"geometry":{"coordinates":[6.999953,51.465266],"type":"Point"},"properties":{"osm_id":"3790314137","tag":{"amenity":"recycling","recycling:clothes":"yes","recycling:shoes":"yes","recycling_type":"container"}},"type":"Feature"},
	{"geometry":{"coordinates":[7.015805,51.467227],"type":"Point"},"properties":{"osm_id":"3808612227","tag":{"amenity":"recycling","opening_hours":"Mo-Sa 07:00-19:00; PH Su off","operator":"Loop","recycling:clothes":"yes","recycling:shoes":"yes","recycling_type":"container"}},"type":"Feature"},
	{"geometry":{"coordinates":[6.999299,51.474054],"type":"Point"},"properties":{"osm_id":"3905311817","tag":{"amenity":"recycling","opening_hours":"Mo-Sa 07:00-19:00; PH Su off","operator":"Entsorgungsbetriebe Essen","recycling:cardboard":"yes","recycling:paper":"yes","recycling_type":"container"}},"type":"Feature"},
	{"geometry":{"coordinates":[7.000152,51.467564],"type":"Point"},"properties":{"osm_id":"3929219691","tag":{"amenity":"waste_basket"}},"type":"Feature"},
	{"geometry":{"coordinates":[7.007487,51.460971],"type":"Point"},"properties":{"osm_id":"4000805173","tag":{"amenity":"waste_basket"}},"type":"Feature"},
	{"geometry":{"coordinates":[7.007332,51.461114],"type":"Point"},"properties":{"osm_id":"4000805178","tag":{"amenity":"waste_basket"}},"type":"Feature"},
	{"geometry":{"coordinates":[6.986824,51.459722],"type":"Point"},"properties":{"osm_id":"4032480833","tag":{"amenity":"waste_basket"}},"type":"Feature"},
	{"geometry":{"coordinates":[6.988342,51.459966],"type":"Point"},"properties":{"osm_id":"4032480841","tag":{"amenity":"waste_basket"}},"type":"Feature"},
	{"geometry":{"coordinates":[6.986875,51.460282],"type":"Point"},"properties":{"osm_id":"4032480847","tag":{"amenity":"waste_basket"}},"type":"Feature"},
	{"geometry":{"coordinates":[6.986719,51.461173],"type":"Point"},"properties":{"osm_id":"4032481094","tag":{"amenity":"waste_basket"}},"type":"Feature"},
	{"geometry":{"coordinates":[6.987526,51.461292],"type":"Point"},"properties":{"osm_id":"4032481111","tag":{"amenity":"waste_basket"}},"type":"Feature"},
	{"geometry":{"coordinates":[6.987658,51.461893],"type":"Point"},"properties":{"osm_id":"4032481149","tag":{"amenity":"waste_basket"}},"type":"Feature"},
	{"geometry":{"coordinates":[6.986156,51.462053],"type":"Point"},"properties":{"osm_id":"4032481168","tag":{"amenity":"waste_basket"}},"type":"Feature"},
	{"geometry":{"coordinates":[6.98625,51.462264],"type":"Point"},"properties":{"osm_id":"4032481186","tag":{"amenity":"waste_basket"}},"type":"Feature"},
	{"geometry":{"coordinates":[6.985467,51.463089],"type":"Point"},"properties":{"osm_id":"4032481264","tag":{"amenity":"waste_basket"}},"type":"Feature"},
	{"geometry":{"coordinates":[6.985818,51.463497],"type":"Point"},"properties":{"osm_id":"4032481317","tag":{"amenity":"waste_basket"}},"type":"Feature"},
	{"geometry":{"coordinates":[6.985085,51.463679],"type":"Point"},"properties":{"osm_id":"4032481340","tag":{"amenity":"waste_basket"}},"type":"Feature"},
	{"geometry":{"coordinates":[6.985027,51.464074],"type":"Point"},"properties":{"osm_id":"4032481399","tag":{"amenity":"waste_basket"}},"type":"Feature"},
	{"geometry":{"coordinates":[6.986429,51.464646],"type":"Point"},"properties":{"osm_id":"4032481438","tag":{"amenity":"waste_basket"}},"type":"Feature"},
	{"geometry":{"coordinates":[6.985145,51.464986],"type":"Point"},"properties":{"osm_id":"4032481498","tag":{"amenity":"waste_basket"}},"type":"Feature"},
	{"geometry":{"coordinates":[6.986634,51.465166],"type":"Point"},"properties":{"osm_id":"4032481511","tag":{"amenity":"waste_basket"}},"type":"Feature"},
	{"geometry":{"coordinates":[7.00246,51.482059],"type":"Point"},"properties":{"osm_id":"4044208229","tag":{"amenity":"recycling","opening_hours":"Mo-Sa 07:00-19:00; PH Su off","operator":"Entsorgungsbetriebe Essen","recycling:cardboard":"yes","recycling:paper":"yes","recycling_type":"container"}},"type":"Feature"},
	{"geometry":{"coordinates":[7.010156,51.471113],"type":"Point"},"properties":{"osm_id":"4237757671","tag":{"amenity":"waste_basket"}},"type":"Feature"},
	{"geometry":{"coordinates":[6.961015,51.464419],"type":"Point"},"properties":{"osm_id":"4313427481","tag":{"amenity":"recycling","opening_hours":"Mo-Sa 07:00-19:00; PH Su off","operator":"Rhenus Logistics","recycling:glass_bottles":"yes","recycling_type":"container"}},"type":"Feature"},
	{"geometry":{"coordinates":[7.012242,51.454435],"type":"Point"},"properties":{"osm_id":"4384567089","tag":{"amenity":"waste_basket"}},"type":"Feature"},
	{"geometry":{"coordinates":[7.007371,51.46092],"type":"Point"},"properties":{"osm_id":"4386131542","tag":{"amenity":"waste_basket"}},"type":"Feature"},
	{"geometry":{"coordinates":[7.007215,51.461061],"type":"Point"},"properties":{"osm_id":"4386131564","tag":{"amenity":"waste_basket"}},"type":"Feature"},
	{"geometry":{"coordinates":[7.006253,51.497744],"type":"Point"},"properties":{"osm_id":"4552696061","tag":{"amenity":"recycling","opening_hours":"Mo-Sa 07:00-19:00; PH Su off","operator":"Essener Entsorgungsbetriebe","recycling:cardboard":"yes","recycling:paper":"yes","recycling_type":"container"}},"type":"Feature"},
	{"geometry":{"coordinates":[7.00872,51.459254],"type":"Point"},"properties":{"osm_id":"4557356196","tag":{"amenity":"recycling","opening_hours":"Mo-Sa 07:00-19:00; PH Su off","operator":"Rhenus Logistics","recycling:glass_bottles":"yes","recycling_type":"container"}},"type":"Feature"},
	{"geometry":{"coordinates":[7.008629,51.459563],"type":"Point"},"properties":{"osm_id":"4638066584","tag":{"amenity":"recycling","opening_hours":"Mo-Sa 07:00-19:00; PH Su off","operator":"Loop","recycling:clothes":"yes","recycling:shoes":"yes","recycling_type":"container"}},"type":"Feature"},
	{"geometry":{"coordinates":[7.020192,51.457395],"type":"Point"},"properties":{"osm_id":"4638066585","tag":{"amenity":"recycling","opening_hours":"Mo-Sa 07:00-19:00; PH Su off","operator":"Rhenus Logistics","recycling:glass_bottles":"yes","recycling_type":"container"}},"type":"Feature"},
	{"geometry":{"coordinates":[7.020252,51.457306],"type":"Point"},"properties":{"osm_id":"4638066586","tag":{"amenity":"recycling","opening_hours":"Mo-Sa 07:00-19:00; PH Su off","operator":"Loop","recycling:clothes":"yes","recycling:shoes":"yes","recycling_type":"container"}},"type":"Feature"},
	{"geometry":{"coordinates":[7.021219,51.468042],"type":"Point"},"properties":{"osm_id":"4680384061","tag":{"amenity":"recycling","opening_hours":"Mo-Sa 07:00-19:00; PH Su off","operator":"Loop","recycling:clothes":"yes","recycling:shoes":"yes","recycling_type":"container"}},"type":"Feature"},
	{"geometry":{"coordinates":[7.021193,51.468064],"type":"Point"},"properties":{"osm_id":"4680384062","tag":{"amenity":"recycling","opening_hours":"Mo-Sa 07:00-19:00; PH Su off","operator":"Entsorgungsbetriebe Essen","recycling:cardboard":"yes","recycling:paper":"yes","recycling_type":"container"}},"type":"Feature"},
	{"geometry":{"coordinates":[7.017689,51.468851],"type":"Point"},"properties":{"osm_id":"4680384063","tag":{"amenity":"recycling","opening_hours":"Mo-Sa 07:00-19:00; PH Su off","operator":"Rhenus Logistics","recycling:glass_bottles":"yes","recycling_type":"container"}},"type":"Feature"},
	{"geometry":{"coordinates":[7.013648,51.468314],"type":"Point"},"properties":{"osm_id":"4680384068","tag":{"amenity":"recycling","opening_hours":"Mo-Sa 07:00-19:00; PH Su off","operator":"Rhenus Logistics","recycling:glass_bottles":"yes","recycling_type":"container"}},"type":"Feature"},
	{"geometry":{"coordinates":[7.013676,51.468371],"type":"Point"},"properties":{"osm_id":"4680384069","tag":{"amenity":"recycling","opening_hours":"Mo-Sa 07:00-19:00; PH Su off","operator":"Loop","recycling:clothes":"yes","recycling:shoes":"yes","recycling_type":"container"}},"type":"Feature"},
	{"geometry":{"coordinates":[7.014867,51.463482],"type":"Point"},"properties":{"osm_id":"4680384075","tag":{"amenity":"recycling","opening_hours":"Mo-Sa 07:00-19:00; PH Su off","operator":"Loop","recycling:clothes":"yes","recycling:shoes":"yes","recycling_type":"container"}},"type":"Feature"},
	{"geometry":{"coordinates":[7.01482,51.463472],"type":"Point"},"properties":{"osm_id":"4680384076","tag":{"amenity":"recycling","opening_hours":"Mo-Sa 07:00-19:00; PH Su off","operator":"Rhenus Logistics","recycling:glass_bottles":"yes","recycling_type":"container"}},"type":"Feature"},
	{"geometry":{"coordinates":[7.007658,51.466097],"type":"Point"},"properties":{"osm_id":"4680384078","tag":{"amenity":"recycling","opening_hours":"Mo-Sa 07:00-19:00; PH Su off","operator":"Rhenus Logistics","recycling:glass_bottles":"yes","recycling_type":"container"}},"type":"Feature"},
	{"geometry":{"coordinates":[6.999357,51.474068],"type":"Point"},"properties":{"osm_id":"4680384079","tag":{"amenity":"recycling","opening_hours":"Mo-Sa 07:00-19:00; PH Su off","operator":"Loop","recycling:clothes":"yes","recycling:shoes":"yes","recycling_type":"container"}},"type":"Feature"},
	{"geometry":{"coordinates":[6.999222,51.474029],"type":"Point"},"properties":{"osm_id":"4680384080","tag":{"amenity":"recycling","opening_hours":"Mo-Sa 07:00-19:00; PH Su off","operator":"Rhenus Logistics","recycling:glass_bottles":"yes","recycling_type":"container"}},"type":"Feature"},
	{"geometry":{"coordinates":[7.002801,51.467508],"type":"Point"},"properties":{"osm_id":"4680384081","tag":{"amenity":"recycling","recycling:clothes":"yes","recycling:shoes":"yes","recycling_type":"container"}},"type":"Feature"},
	{"geometry":{"coordinates":[7.002766,51.467487],"type":"Point"},"properties":{"osm_id":"4680384082","tag":{"amenity":"recycling","opening_hours":"Mo-Sa 07:00-19:00; PH Su off","operator":"Entsorgungsbetriebe Essen","recycling:cardboard":"yes","recycling:paper":"yes","recycling_type":"container"}},"type":"Feature"},
	{"geometry":{"coordinates":[6.999961,51.466149],"type":"Point"},"properties":{"osm_id":"4680384084","tag":{"amenity":"recycling","opening_hours":"Mo-Sa 07:00-19:00; PH Su off","operator":"Loop","recycling:clothes":"yes","recycling:shoes":"yes","recycling_type":"container"}},"type":"Feature"},
	{"geometry":{"coordinates":[6.999891,51.466126],"type":"Point"},"properties":{"osm_id":"4680384085","tag":{"amenity":"recycling","opening_hours":"Mo-Sa 07:00-19:00; PH Su off","operator":"Entsorgungsbetriebe Essen","recycling:cardboard":"yes","recycling:paper":"yes","recycling_type":"container"}},"type":"Feature"},
	{"geometry":{"coordinates":[7.002637,51.46346],"type":"Point"},"properties":{"osm_id":"4680384190","tag":{"amenity":"recycling","opening_hours":"Mo-Sa 07:00-19:00; PH Su off","operator":"Entsorgungsbetriebe Essen","recycling:cardboard":"yes","recycling:paper":"yes","recycling_type":"container"}},"type":"Feature"},
	{"geometry":{"coordinates":[7.002668,51.46341],"type":"Point"},"properties":{"osm_id":"4680384191","tag":{"amenity":"recycling","opening_hours":"Mo-Sa 07:00-19:00; PH Su off","operator":"Rhenus Logistics","recycling:glass_bottles":"yes","recycling_type":"container"}},"type":"Feature"},
	{"geometry":{"coordinates":[7.012778,51.460694],"type":"Point"},"properties":{"osm_id":"4680384195","tag":{"amenity":"recycling","opening_hours":"Mo-Sa 07:00-19:00; PH Su off","operator":"Loop","recycling:clothes":"yes","recycling:shoes":"yes","recycling_type":"container"}},"type":"Feature"},
	{"geometry":{"coordinates":[7.016399,51.458921],"type":"Point"},"properties":{"osm_id":"4680384206","tag":{"amenity":"recycling","opening_hours":"Mo-Sa 07:00-19:00; PH Su off","operator":"Entsorgungsbetriebe Essen","recycling:cardboard":"yes","recycling:paper":"yes","recycling_type":"container"}},"type":"Feature"},
	{"geometry":{"coordinates":[7.016434,51.458956],"type":"Point"},"properties":{"osm_id":"4680384207","tag":{"amenity":"recycling","opening_hours":"Mo-Sa 07:00-19:00; PH Su off","operator":"Rhenus Logistics","recycling:glass_bottles":"yes","recycling_type":"container"}},"type":"Feature"},
	{"geometry":{"coordinates":[6.99499,51.465177],"type":"Point"},"properties":{"osm_id":"4680468998","tag":{"amenity":"recycling","operator":"Loop","recycling:clothes":"yes","recycling:shoes":"yes","recycling_type":"container"}},"type":"Feature"},
	{"geometry":{"coordinates":[6.995005,51.465205],"type":"Point"},"properties":{"osm_id":"4680468999","tag":{"amenity":"recycling","operator":"Entsorgungsbetriebe Essen","recycling:cardboard":"yes","recycling:paper":"yes","recycling_type":"container"}},"type":"Feature"},
	{"geometry":{"coordinates":[6.945865,51.489063],"type":"Point"},"properties":{"osm_id":"4692679489","tag":{"amenity":"recycling","opening_hours":"Mo-Sa 07:00-19:00; PH Su off","operator":"Entsorgungsbetriebe Essen","recycling:cardboard":"yes","recycling:paper":"yes","recycling_type":"container"}},"type":"Feature"},
	{"geometry":{"coordinates":[6.986881,51.483296],"type":"Point"},"properties":{"osm_id":"4692679490","tag":{"amenity":"recycling","opening_hours":"Mo-Sa 07:00-19:00; PH Su off","operator":"Loop","recycling:clothes":"yes","recycling:shoes":"yes","recycling_type":"container"}},"type":"Feature"},
	{"geometry":{"coordinates":[6.986873,51.483331],"type":"Point"},"properties":{"osm_id":"4692679491","tag":{"amenity":"recycling","opening_hours":"Mo-Sa 07:00-19:00; PH Su off","operator":"Entsorgungsbetriebe Essen","recycling:cardboard":"yes","recycling:paper":"yes","recycling_type":"container"}},"type":"Feature"},
	{"geometry":{"coordinates":[6.992059,51.479535],"type":"Point"},"properties":{"osm_id":"4692679511","tag":{"amenity":"recycling","opening_hours":"Mo-Sa 07:00-19:00; PH Su off","operator":"Entsorgungsbetriebe Essen","recycling:cardboard":"yes","recycling:paper":"yes","recycling_type":"container"}},"type":"Feature"},
	{"geometry":{"coordinates":[6.992192,51.479562],"type":"Point"},"properties":{"osm_id":"4692679512","tag":{"amenity":"recycling","opening_hours":"Mo-Sa 07:00-19:00; PH Su off","operator":"Loop","recycling:clothes":"yes","recycling:shoes":"yes","recycling_type":"container"}},"type":"Feature"},
	{"geometry":{"coordinates":[6.999299,51.481118],"type":"Point"},"properties":{"osm_id":"4692679513","tag":{"amenity":"recycling","opening_hours":"Mo-Sa 07:00-19:00; PH Su off","operator":"Rhenus Logistics","recycling:glass_bottles":"yes","recycling_type":"container"}},"type":"Feature"},
	{"geometry":{"coordinates":[6.999247,51.48111],"type":"Point"},"properties":{"osm_id":"4692679514","tag":{"amenity":"recycling","opening_hours":"Mo-Sa 07:00-19:00; PH Su off","operator":"Entsorgungsbetriebe Essen","recycling:cardboard":"yes","recycling:paper":"yes","recycling_type":"container"}},"type":"Feature"},
	{"geometry":{"coordinates":[7.002347,51.482026],"type":"Point"},"properties":{"osm_id":"4692679515","tag":{"amenity":"recycling","opening_hours":"Mo-Sa 07:00-19:00; PH Su off","operator":"Rhenus Logistics","recycling:glass_bottles":"yes","recycling_type":"container"}},"type":"Feature"},
	{"geometry":{"coordinates":[7.002516,51.482072],"type":"Point"},"properties":{"osm_id":"4692679516","tag":{"amenity":"recycling","opening_hours":"Mo-Sa 07:00-19:00; PH Su off","operator":"Loop","recycling:clothes":"yes","recycling:shoes":"yes","recycling_type":"container"}},"type":"Feature"},
	{"geometry":{"coordinates":[7.00922,51.477253],"type":"Point"},"properties":{"osm_id":"4692679520","tag":{"amenity":"recycling","opening_hours":"Mo-Sa 07:00-19:00; PH Su off","operator":"Loop","recycling:clothes":"yes","recycling:shoes":"yes","recycling_type":"container"}},"type":"Feature"},
	{"geometry":{"coordinates":[7.009278,51.477195],"type":"Point"},"properties":{"osm_id":"4692679521","tag":{"amenity":"recycling","opening_hours":"Mo-Sa 07:00-19:00; PH Su off","operator":"Entsorgungsbetriebe Essen","recycling:cardboard":"yes","recycling:paper":"yes","recycling_type":"container"}},"type":"Feature"},
	{"geometry":{"coordinates":[7.009361,51.477106],"type":"Point"},"properties":{"osm_id":"4692679522","tag":{"amenity":"recycling","opening_hours":"Mo-Sa 07:00-19:00; PH Su off","operator":"Rhenus Logistics","recycling:glass_bottles":"yes","recycling_type":"container"}},"type":"Feature"},
	{"geometry":{"coordinates":[7.01552,51.474804],"type":"Point"},"properties":{"osm_id":"4692679524","tag":{"amenity":"recycling","opening_hours":"Mo-Sa 07:00-19:00; PH Su off","operator":"Loop","recycling:clothes":"yes","recycling:shoes":"yes","recycling_type":"container"}},"type":"Feature"},
	{"geometry":{"coordinates":[7.01556,51.47481],"type":"Point"},"properties":{"osm_id":"4692679525","tag":{"amenity":"recycling","opening_hours":"Mo-Sa 07:00-19:00; PH Su off","operator":"Entsorgungsbetriebe Essen","recycling:cardboard":"yes","recycling:paper":"yes","recycling_type":"container"}},"type":"Feature"},
	{"geometry":{"coordinates":[7.016271,51.496238],"type":"Point"},"properties":{"osm_id":"4693860876","tag":{"amenity":"recycling","operator":"L.G.R. Recycling","recycling:clothes":"yes","recycling:shoes":"yes","recycling_type":"container"}},"type":"Feature"},
	{"geometry":{"coordinates":[7.015746,51.49532],"type":"Point"},"properties":{"osm_id":"4693860894","tag":{"amenity":"recycling","opening_hours":"Mo-Sa 07:00-19:00; PH Su off","operator":"Rhenus Logostics","recycling:glass_bottles":"yes","recycling_type":"container"}},"type":"Feature"},
	{"geometry":{"coordinates":[7.015571,51.495347],"type":"Point"},"properties":{"osm_id":"4693860895","tag":{"amenity":"recycling","opening_hours":"Mo-Sa 07:00-19:00; PH Su off","operator":"Loop","recycling:clothes":"yes","recycling:shoes":"yes","recycling_type":"container"}},"type":"Feature"},
	{"geometry":{"coordinates":[7.00981,51.495853],"type":"Point"},"properties":{"osm_id":"4693860896","tag":{"amenity":"recycling","opening_hours":"Mo-Sa 07:00-19:00; PH Su off","operator":"Entsorgungsbetriebe Essen","recycling:cardboard":"yes","recycling:paper":"yes","recycling_type":"container"}},"type":"Feature"},
	{"geometry":{"coordinates":[7.009786,51.495881],"type":"Point"},"properties":{"osm_id":"4693860897","tag":{"amenity":"recycling","opening_hours":"Mo-Sa 07:00-19:00; PH Su off","operator":"Loop","recycling:clothes":"yes","recycling:shoes":"yes","recycling_type":"container"}},"type":"Feature"},
	{"geometry":{"coordinates":[7.006526,51.495858],"type":"Point"},"properties":{"osm_id":"4693860898","tag":{"amenity":"recycling","opening_hours":"Mo-Sa 07:00-19:00; PH Su off","operator":"Loop","recycling:clothes":"yes","recycling:shoes":"yes","recycling_type":"container"}},"type":"Feature"},
	{"geometry":{"coordinates":[7.006498,51.495844],"type":"Point"},"properties":{"osm_id":"4693860899","tag":{"amenity":"recycling","opening_hours":"Mo-Sa 07:00-19:00; PH Su off","operator":"Rhenus Logostics","recycling:glass_bottles":"yes","recycling_type":"container"}},"type":"Feature"},
	{"geometry":{"coordinates":[7.005702,51.493043],"type":"Point"},"properties":{"osm_id":"4693860907","tag":{"amenity":"recycling","opening_hours":"Mo-Sa 07:00-19:00; PH Su off","operator":"Loop","recycling:clothes":"yes","recycling:shoes":"yes","recycling_type":"container"}},"type":"Feature"},
	{"geometry":{"coordinates":[7.000206,51.491957],"type":"Point"},"properties":{"osm_id":"4693860917","tag":{"amenity":"recycling","opening_hours":"Mo-Sa 07:00-19:00; PH Su off","operator":"Entsorgungsbetriebe Essen","recycling:cardboard":"yes","recycling:paper":"yes","recycling_type":"container"}},"type":"Feature"},
	{"geometry":{"coordinates":[7.00023,51.491933],"type":"Point"},"properties":{"osm_id":"4693860918","tag":{"amenity":"recycling","opening_hours":"Mo-Sa 07:00-19:00; PH Su off","operator":"Loop","recycling:clothes":"yes","recycling:shoes":"yes","recycling_type":"container"}},"type":"Feature"},
	{"geometry":{"coordinates":[7.000677,51.490221],"type":"Point"},"properties":{"osm_id":"4693860948","tag":{"amenity":"recycling","opening_hours":"Mo-Sa 07:00-19:00; PH Su off","operator":"Loop","recycling:clothes":"yes","recycling:shoes":"yes","recycling_type":"container"}},"type":"Feature"},
	{"geometry":{"coordinates":[7.000683,51.490192],"type":"Point"},"properties":{"osm_id":"4693860949","tag":{"amenity":"recycling","opening_hours":"Mo-Sa 07:00-19:00; PH Su off","operator":"Rhenus Logostics","recycling:glass_bottles":"yes","recycling_type":"container"}},"type":"Feature"},
	{"geometry":{"coordinates":[7.002571,51.489654],"type":"Point"},"properties":{"osm_id":"4693860956","tag":{"amenity":"recycling","opening_hours":"Mo-Sa 07:00-19:00; PH Su off","operator":"Diakoniewerk Essen","recycling:clothes":"yes","recycling:shoes":"yes","recycling_type":"container"}},"type":"Feature"},
	{"geometry":{"coordinates":[7.004563,51.48989],"type":"Point"},"properties":{"osm_id":"4693860957","tag":{"amenity":"recycling","opening_hours":"Mo-Sa 07:00-19:00; PH Su off","operator":"Rhenus Logostics","recycling:glass_bottles":"yes","recycling_type":"container"}},"type":"Feature"},
	{"geometry":{"coordinates":[7.00394,51.489826],"type":"Point"},"properties":{"osm_id":"4693860958","tag":{"amenity":"recycling","opening_hours":"Mo-Sa 07:00-19:00; PH Su off","operator":"Loop","recycling:clothes":"yes","recycling:shoes":"yes","recycling_type":"container"}},"type":"Feature"},
	{"geometry":{"coordinates":[7.011796,51.490575],"type":"Point"},"properties":{"osm_id":"4693860959","tag":{"amenity":"recycling","opening_hours":"Mo-Sa 07:00-19:00; PH Su off","operator":"Loop","recycling:clothes":"yes","recycling:shoes":"yes","recycling_type":"container"}},"type":"Feature"},
	{"geometry":{"coordinates":[7.011759,51.490567],"type":"Point"},"properties":{"osm_id":"4693860960","tag":{"amenity":"recycling","opening_hours":"Mo-Sa 07:00-19:00; PH Su off","operator":"Rhenus Logostics","recycling:glass_bottles":"yes","recycling_type":"container"}},"type":"Feature"},
	{"geometry":{"coordinates":[7.010525,51.49053],"type":"Point"},"properties":{"osm_id":"4693860961","tag":{"amenity":"recycling","opening_hours":"Mo-Sa 07:00-19:00; PH Su off","operator":"Entsorgungsbetriebe Essen","recycling:cardboard":"yes","recycling:paper":"yes","recycling_type":"container"}},"type":"Feature"},
	{"geometry":{"coordinates":[7.01078,51.486605],"type":"Point"},"properties":{"osm_id":"4693860965","tag":{"amenity":"recycling","opening_hours":"Mo-Sa 07:00-19:00; PH Su off","operator":"Loop","recycling:clothes":"yes","recycling:shoes":"yes","recycling_type":"container"}},"type":"Feature"},
	{"geometry":{"coordinates":[7.010722,51.486686],"type":"Point"},"properties":{"osm_id":"4693860966","tag":{"amenity":"recycling","opening_hours":"Mo-Sa 07:00-19:00; PH Su off","operator":"Entsorgungsbetriebe Essen","recycling:cardboard":"yes","recycling:paper":"yes","recycling_type":"container"}},"type":"Feature"},
	{"geometry":{"coordinates":[7.013633,51.487205],"type":"Point"},"properties":{"osm_id":"4693860969","tag":{"amenity":"recycling","operator":"L.G.R. Recycling","recycling:clothes":"yes","recycling:shoes":"yes","recycling_type":"container"}},"type":"Feature"},
	{"geometry":{"coordinates":[7.019552,51.485369],"type":"Point"},"properties":{"osm_id":"4693860987","tag":{"amenity":"recycling","opening_hours":"Mo-Sa 07:00-19:00; PH Su off","operator":"Loop","recycling:clothes":"yes","recycling:shoes":"yes","recycling_type":"container"}},"type":"Feature"},
	{"geometry":{"coordinates":[7.019183,51.482742],"type":"Point"},"properties":{"osm_id":"4693860991","tag":{"amenity":"recycling","opening_hours":"Mo-Sa 07:00-19:00; PH Su off","operator":"Loop","recycling:clothes":"yes","recycling:shoes":"yes","recycling_type":"container"}},"type":"Feature"},
	{"geometry":{"coordinates":[7.019161,51.482765],"type":"Point"},"properties":{"osm_id":"4693860992","tag":{"amenity":"recycling","opening_hours":"Mo-Sa 07:00-19:00; PH Su off","operator":"Entsorgungsbetriebe Essen","recycling:cardboard":"yes","recycling:paper":"yes","recycling_type":"container"}},"type":"Feature"},
	{"geometry":{"coordinates":[7.023932,51.478965],"type":"Point"},"properties":{"osm_id":"4693860993","tag":{"amenity":"recycling","opening_hours":"Mo-Sa 07:00-19:00; PH Su off","operator":"Loop","recycling:clothes":"yes","recycling:shoes":"yes","recycling_type":"container"}},"type":"Feature"},
	{"geometry":{"coordinates":[7.023804,51.478889],"type":"Point"},"properties":{"osm_id":"4693860994","tag":{"amenity":"recycling","opening_hours":"Mo-Sa 07:00-19:00; PH Su off","operator":"Entsorgungsbetriebe Essen","recycling:cardboard":"yes","recycling:paper":"yes","recycling_type":"container"}},"type":"Feature"},
	{"geometry":{"coordinates":[6.963288,51.45531],"type":"Point"},"properties":{"osm_id":"4705602201","tag":{"amenity":"recycling","opening_hours":"Mo-Sa 07:00-19:00; PH Su off","operator":"Entsorgungsbetriebe Essen","recycling:cardboard":"yes","recycling:paper":"yes","recycling_type":"container"}},"type":"Feature"},
	{"geometry":{"coordinates":[6.980834,51.45543],"type":"Point"},"properties":{"osm_id":"4706851593","tag":{"amenity":"recycling","opening_hours":"Mo-Sa 07:00-19:00; PH Su off","operator":"Entsorgungsbetriebe Essen","recycling:cardboard":"yes","recycling:paper":"yes","recycling_type":"container"}},"type":"Feature"},
	{"geometry":{"coordinates":[6.968443,51.454447],"type":"Point"},"properties":{"osm_id":"4706851626","tag":{"amenity":"recycling","opening_hours":"Mo-Sa 07:00-19:00; PH Su off","operator":"Loop","recycling:clothes":"yes","recycling:shoes":"yes","recycling_type":"container"}},"type":"Feature"},
	{"geometry":{"coordinates":[6.983158,51.455949],"type":"Point"},"properties":{"osm_id":"4707147689","tag":{"amenity":"recycling","operator":"Texaid","recycling:clothes":"yes","recycling:shoes":"yes","recycling_type":"container"}},"type":"Feature"},
	{"geometry":{"coordinates":[6.982487,51.456962],"type":"Point"},"properties":{"osm_id":"4707147690","tag":{"amenity":"recycling","opening_hours":"Mo-Sa 07:00-19:00; PH Su off","operator":"Entsorgungsbetriebe Essen","recycling:cardboard":"yes","recycling:paper":"yes","recycling_type":"container"}},"type":"Feature"},
	{"geometry":{"coordinates":[6.982858,51.459145],"type":"Point"},"properties":{"osm_id":"4707147691","tag":{"amenity":"recycling","operator":"Humana","recycling:clothes":"yes","recycling:shoes":"yes","recycling_type":"container"}},"type":"Feature"},
	{"geometry":{"coordinates":[6.98182,51.461591],"type":"Point"},"properties":{"osm_id":"4707147692","tag":{"amenity":"recycling","opening_hours":"Mo-Sa 07:00-19:00; PH Su off","operator":"Entsorgungsbetriebe Essen","recycling:cardboard":"yes","recycling:paper":"yes","recycling_type":"container"}},"type":"Feature"},
	{"geometry":{"coordinates":[6.980762,51.467386],"type":"Point"},"properties":{"osm_id":"4707147693","tag":{"amenity":"recycling","opening_hours":"Mo-Sa 07:00-19:00; PH Su off","operator":"Loop","recycling:clothes":"yes","recycling:shoes":"yes","recycling_type":"container"}},"type":"Feature"},
	{"geometry":{"coordinates":[6.98079,51.467364],"type":"Point"},"properties":{"osm_id":"4707147694","tag":{"amenity":"recycling","opening_hours":"Mo-Sa 07:00-19:00; PH Su off","operator":"Rhenus Logistics","recycling:glass_bottles":"yes","recycling_type":"container"}},"type":"Feature"},
	{"geometry":{"coordinates":[6.978663,51.470923],"type":"Point"},"properties":{"osm_id":"4707147695","tag":{"amenity":"recycling","opening_hours":"Mo-Sa 07:00-19:00; PH Su off","operator":"Entsorgungsbetriebe Essen","recycling:cardboard":"yes","recycling:paper":"yes","recycling_type":"container"}},"type":"Feature"},
	{"geometry":{"coordinates":[6.977944,51.472682],"type":"Point"},"properties":{"osm_id":"4707147700","tag":{"amenity":"recycling","opening_hours":"Mo-Sa 07:00-19:00; PH Su off","operator":"Rhenus Logistics","recycling:glass_bottles":"yes","recycling_type":"container"}},"type":"Feature"},
	{"geometry":{"coordinates":[6.977937,51.472714],"type":"Point"},"properties":{"osm_id":"4707147701","tag":{"amenity":"recycling","opening_hours":"Mo-Sa 07:00-19:00; PH Su off","operator":"Entsorgungsbetriebe Essen","recycling:cardboard":"yes","recycling:paper":"yes","recycling_type":"container"}},"type":"Feature"},
	{"geometry":{"coordinates":[6.977193,51.472924],"type":"Point"},"properties":{"osm_id":"4707147702","tag":{"amenity":"recycling","opening_hours":"Mo-Sa 07:00-19:00; PH Su off","operator":"Rhenus Logistics","recycling:glass_bottles":"yes","recycling_type":"container"}},"type":"Feature"},
	{"geometry":{"coordinates":[6.97721,51.47299],"type":"Point"},"properties":{"osm_id":"4707147703","tag":{"amenity":"recycling","opening_hours":"Mo-Sa 07:00-19:00; PH Su off","operator":"Loop","recycling:clothes":"yes","recycling:shoes":"yes","recycling_type":"container"}},"type":"Feature"},
	{"geometry":{"coordinates":[6.977236,51.471211],"type":"Point"},"properties":{"osm_id":"4707147704","tag":{"amenity":"recycling","opening_hours":"Mo-Sa 07:00-19:00; PH Su off","operator":"Loop","recycling:clothes":"yes","recycling:shoes":"yes","recycling_type":"container"}},"type":"Feature"},
	{"geometry":{"coordinates":[6.974823,51.464204],"type":"Point"},"properties":{"osm_id":"4707147705","tag":{"amenity":"recycling","opening_hours":"Mo-Sa 07:00-19:00; PH Su off","operator":"Loop","recycling:clothes":"yes","recycling:shoes":"yes","recycling_type":"container"}},"type":"Feature"},
	{"geometry":{"coordinates":[6.974896,51.464194],"type":"Point"},"properties":{"osm_id":"4707147706","tag":{"amenity":"recycling","opening_hours":"Mo-Sa 07:00-19:00; PH Su off","operator":"Entsorgungsbetriebe Essen","recycling:cardboard":"yes","recycling:paper":"yes","recycling_type":"container"}},"type":"Feature"},
	{"geometry":{"coordinates":[6.967582,51.465684],"type":"Point"},"properties":{"osm_id":"4707147707","tag":{"amenity":"recycling","opening_hours":"Mo-Sa 07:00-19:00; PH Su off","operator":"Loop","recycling:clothes":"yes","recycling:shoes":"yes","recycling_type":"container"}},"type":"Feature"},
	{"geometry":{"coordinates":[6.967594,51.465654],"type":"Point"},"properties":{"osm_id":"4707147708","tag":{"amenity":"recycling","opening_hours":"Mo-Sa 07:00-19:00; PH Su off","operator":"Entsorgungsbetriebe Essen","recycling:cardboard":"yes","recycling:paper":"yes","recycling_type":"container"}},"type":"Feature"},
	{"geometry":{"coordinates":[6.964372,51.460158],"type":"Point"},"properties":{"osm_id":"4707147709","tag":{"amenity":"recycling","opening_hours":"Mo-Sa 07:00-19:00; PH Su off","operator":"Loop","recycling:clothes":"yes","recycling:shoes":"yes","recycling_type":"container"}},"type":"Feature"},
	{"geometry":{"coordinates":[6.964415,51.460163],"type":"Point"},"properties":{"osm_id":"4707147710","tag":{"amenity":"recycling","opening_hours":"Mo-Sa 07:00-19:00; PH Su off","operator":"Entsorgungsbetriebe Essen","recycling:cardboard":"yes","recycling:paper":"yes","recycling_type":"container"}},"type":"Feature"},
	{"geometry":{"coordinates":[6.972515,51.458975],"type":"Point"},"properties":{"osm_id":"4707147711","tag":{"amenity":"recycling","opening_hours":"Mo-Sa 07:00-19:00; PH Su off","operator":"Entsorgungsbetriebe Essen","recycling:cardboard":"yes","recycling:paper":"yes","recycling_type":"container"}},"type":"Feature"},
	{"geometry":{"coordinates":[7.016822,51.505608],"type":"Point"},"properties":{"osm_id":"4708577656","tag":{"amenity":"recycling","opening_hours":"Mo-Sa 07:00-19:00; PH Su off","operator":"Loop","recycling:clothes":"yes","recycling:shoes":"yes","recycling_type":"container"}},"type":"Feature"},
	{"geometry":{"coordinates":[7.01236,51.505404],"type":"Point"},"properties":{"osm_id":"4708577657","tag":{"amenity":"recycling","opening_hours":"Mo-Sa 07:00-19:00; PH Su off","operator":"Essener Entsorgungsbetriebe","recycling:cardboard":"yes","recycling:paper":"yes","recycling_type":"container"}},"type":"Feature"},
	{"geometry":{"coordinates":[7.012374,51.505427],"type":"Point"},"properties":{"osm_id":"4708577658","tag":{"amenity":"recycling","opening_hours":"Mo-Sa 07:00-19:00; PH Su off","operator":"Loop","recycling:clothes":"yes","recycling:shoes":"yes","recycling_type":"container"}},"type":"Feature"},
	{"geometry":{"coordinates":[7.013652,51.499819],"type":"Point"},"properties":{"osm_id":"4708577659","tag":{"amenity":"recycling","opening_hours":"Mo-Sa 07:00-19:00; PH Su off","operator":"Loop","recycling:clothes":"yes","recycling:shoes":"yes","recycling_type":"container"}},"type":"Feature"},
	{"geometry":{"coordinates":[7.013574,51.499806],"type":"Point"},"properties":{"osm_id":"4708577660","tag":{"amenity":"recycling","opening_hours":"Mo-Sa 07:00-19:00; PH Su off","operator":"Essener Entsorgungsbetriebe","recycling:cardboard":"yes","recycling:paper":"yes","recycling_type":"container"}},"type":"Feature"},
	{"geometry":{"coordinates":[7.008837,51.503191],"type":"Point"},"properties":{"osm_id":"4708577661","tag":{"amenity":"recycling","opening_hours":"Mo-Sa 07:00-19:00; PH Su off","operator":"Rhenus Logistics","recycling:glass_bottles":"yes","recycling_type":"container"}},"type":"Feature"},
	{"geometry":{"coordinates":[7.008802,51.503219],"type":"Point"},"properties":{"osm_id":"4708577662","tag":{"amenity":"recycling","opening_hours":"Mo-Sa 07:00-19:00; PH Su off","operator":"Loop","recycling:clothes":"yes","recycling:shoes":"yes","recycling_type":"container"}},"type":"Feature"},
	{"geometry":{"coordinates":[7.011028,51.506202],"type":"Point"},"properties":{"osm_id":"4708577663","tag":{"amenity":"recycling","operator":"Texaid","recycling:clothes":"yes","recycling:shoes":"yes","recycling_type":"container"}},"type":"Feature"},
	{"geometry":{"coordinates":[7.001016,51.506575],"type":"Point"},"properties":{"osm_id":"4708577671","tag":{"amenity":"recycling","opening_hours":"Mo-Sa 07:00-19:00; PH Su off","operator":"Essener Entsorgungsbetriebe","recycling:cardboard":"yes","recycling:paper":"yes","recycling_type":"container"}},"type":"Feature"},
	{"geometry":{"coordinates":[7.001028,51.50649],"type":"Point"},"properties":{"osm_id":"4708577672","tag":{"amenity":"recycling","opening_hours":"Mo-Sa 07:00-19:00; PH Su off","operator":"Loop","recycling:clothes":"yes","recycling:shoes":"yes","recycling_type":"container"}},"type":"Feature"},
	{"geometry":{"coordinates":[7.001651,51.499488],"type":"Point"},"properties":{"osm_id":"4708577679","tag":{"amenity":"recycling","opening_hours":"Mo-Sa 07:00-19:00; PH Su off","operator":"Loop","recycling:clothes":"yes","recycling:shoes":"yes","recycling_type":"container"}},"type":"Feature"},
	{"geometry":{"coordinates":[7.001606,51.499478],"type":"Point"},"properties":{"osm_id":"4708577680","tag":{"amenity":"recycling","opening_hours":"Mo-Sa 07:00-19:00; PH Su off","operator":"Essener Entsorgungsbetriebe","recycling:cardboard":"yes","recycling:paper":"yes","recycling_type":"container"}},"type":"Feature"},
	{"geometry":{"coordinates":[7.006145,51.497668],"type":"Point"},"properties":{"osm_id":"4708577681","tag":{"amenity":"recycling","opening_hours":"Mo-Sa 07:00-19:00; PH Su off","operator":"Loop","recycling:clothes":"yes","recycling:shoes":"yes","recycling_type":"container"}},"type":"Feature"},
	{"geometry":{"coordinates":[7.002829,51.496738],"type":"Point"},"properties":{"osm_id":"4708577682","tag":{"amenity":"recycling","opening_hours":"Mo-Sa 07:00-19:00; PH Su off","operator":"Entsorgungsbetriebe Essen","recycling:cardboard":"yes","recycling:paper":"yes","recycling_type":"container"}},"type":"Feature"},
	{"geometry":{"coordinates":[7.002845,51.496704],"type":"Point"},"properties":{"osm_id":"4708577683","tag":{"amenity":"recycling","opening_hours":"Mo-Sa 07:00-19:00; PH Su off","operator":"Loop","recycling:clothes":"yes","recycling:shoes":"yes","recycling_type":"container"}},"type":"Feature"},
	{"geometry":{"coordinates":[7.003492,51.494185],"type":"Point"},"properties":{"osm_id":"4708577684","tag":{"amenity":"recycling","opening_hours":"Mo-Sa 07:00-19:00; PH Su off","operator":"Loop","recycling:clothes":"yes","recycling:shoes":"yes","recycling_type":"container"}},"type":"Feature"},
	{"geometry":{"coordinates":[7.003462,51.494179],"type":"Point"},"properties":{"osm_id":"4708577685","tag":{"amenity":"recycling","opening_hours":"Mo-Sa 07:00-19:00; PH Su off","operator":"Rhenus Logistics","recycling:glass_bottles":"yes","recycling_type":"container"}},"type":"Feature"},
	{"geometry":{"coordinates":[7.017676,51.461391],"type":"Point"},"properties":{"osm_id":"4719014689","tag":{"amenity":"recycling","opening_hours":"Mo-Sa 07:00-19:00; PH Su off","operator":"Loop","recycling:clothes":"yes","recycling:shoes":"yes","recycling_type":"container"}},"type":"Feature"},
	{"geometry":{"coordinates":[7.026956,51.457571],"type":"Point"},"properties":{"osm_id":"4719014690","tag":{"amenity":"recycling","opening_hours":"Mo-Sa 07:00-19:00; PH Su off","operator":"Loop","recycling:clothes":"yes","recycling:shoes":"yes","recycling_type":"container"}},"type":"Feature"},
	{"geometry":{"coordinates":[7.026897,51.45757],"type":"Point"},"properties":{"osm_id":"4719014691","tag":{"amenity":"recycling","opening_hours":"Mo-Sa 07:00-19:00; PH Su off","operator":"Entsorgungsbetriebe Essen","recycling:cardboard":"yes","recycling:paper":"yes","recycling_type":"container"}},"type":"Feature"},
	{"geometry":{"coordinates":[7.021719,51.503479],"type":"Point"},"properties":{"osm_id":"4719192580","tag":{"amenity":"recycling","opening_hours":"Mo-Sa 07:00-19:00; PH Su off","operator":"Rhenus Logistics","recycling:glass_bottles":"yes","recycling_type":"container"}},"type":"Feature"},
	{"geometry":{"coordinates":[7.021682,51.503459],"type":"Point"},"properties":{"osm_id":"4719192581","tag":{"amenity":"recycling","opening_hours":"Mo-Sa 07:00-19:00; PH Su off","operator":"Loop","recycling:clothes":"yes","recycling:shoes":"yes","recycling_type":"container"}},"type":"Feature"},
	{"geometry":{"coordinates":[7.014015,51.503895],"type":"Point"},"properties":{"osm_id":"4719192582","tag":{"amenity":"recycling","opening_hours":"Mo-Sa 07:00-19:00; PH Su off","operator":"Loop","recycling:clothes":"yes","recycling:shoes":"yes","recycling_type":"container"}},"type":"Feature"},
	{"geometry":{"coordinates":[7.014042,51.503881],"type":"Point"},"properties":{"osm_id":"4719192583","tag":{"amenity":"recycling","opening_hours":"Mo-Sa 07:00-19:00; PH Su off","operator":"Rhenus Logistics","recycling:glass_bottles":"yes","recycling_type":"container"}},"type":"Feature"},
	{"geometry":{"coordinates":[7.005667,51.503756],"type":"Point"},"properties":{"osm_id":"4719192588","tag":{"amenity":"recycling","opening_hours":"Mo-Sa 07:00-19:00; PH Su off","operator":"Rhenus Logistics","recycling:glass_bottles":"yes","recycling_type":"container"}},"type":"Feature"},
	{"geometry":{"coordinates":[7.005673,51.503773],"type":"Point"},"properties":{"osm_id":"4719193389","tag":{"amenity":"recycling","opening_hours":"Mo-Sa 07:00-19:00; PH Su off","operator":"Entsorgungsbetriebe Essen","recycling:cardboard":"yes","recycling:paper":"yes","recycling_type":"container"}},"type":"Feature"},
	{"geometry":{"coordinates":[7.005651,51.503786],"type":"Point"},"properties":{"osm_id":"4719193390","tag":{"amenity":"recycling","opening_hours":"Mo-Sa 07:00-19:00; PH Su off","operator":"Loop","recycling:clothes":"yes","recycling:shoes":"yes","recycling_type":"container"}},"type":"Feature"},
	{"geometry":{"coordinates":[7.004486,51.500128],"type":"Point"},"properties":{"osm_id":"4719193392","tag":{"amenity":"recycling","opening_hours":"Mo-Sa 07:00-19:00; PH Su off","operator":"Rhenus Logistics","recycling:glass_bottles":"yes","recycling_type":"container"}},"type":"Feature"},
	{"geometry":{"coordinates":[7.004801,51.498785],"type":"Point"},"properties":{"osm_id":"4719193394","tag":{"amenity":"recycling","operator":"Brotex","recycling:clothes":"yes","recycling:shoes":"yes","recycling_type":"container"}},"type":"Feature"},
	{"geometry":{"coordinates":[6.999517,51.493227],"type":"Point"},"properties":{"osm_id":"4719193395","tag":{"amenity":"recycling","opening_hours":"Mo-Sa 07:00-19:00; PH Su off","operator":"Entsorgungsbetriebe Essen","recycling:cardboard":"yes","recycling:paper":"yes","recycling_type":"container"}},"type":"Feature"},
	{"geometry":{"coordinates":[6.999507,51.49325],"type":"Point"},"properties":{"osm_id":"4719193396","tag":{"amenity":"recycling","opening_hours":"Mo-Sa 07:00-19:00; PH Su off","operator":"Rhenus Logistics","recycling:glass_bottles":"yes","recycling_type":"container"}},"type":"Feature"},
	{"geometry":{"coordinates":[6.995219,51.49089],"type":"Point"},"properties":{"osm_id":"4719193397","tag":{"amenity":"recycling","opening_hours":"Mo-Sa 07:00-19:00; PH Su off","operator":"Rhenus Logistics","recycling:glass_bottles":"yes","recycling_type":"container"}},"type":"Feature"},
	{"geometry":{"coordinates":[6.995212,51.49093],"type":"Point"},"properties":{"osm_id":"4719193398","tag":{"amenity":"recycling","opening_hours":"Mo-Sa 07:00-19:00; PH Su off","operator":"Entsorgungsbetriebe Essen","recycling:cardboard":"yes","recycling:paper":"yes","recycling_type":"container"}},"type":"Feature"},
	{"geometry":{"coordinates":[6.995207,51.490959],"type":"Point"},"properties":{"osm_id":"4719193399","tag":{"amenity":"recycling","opening_hours":"Mo-Sa 07:00-19:00; PH Su off","operator":"Loop","recycling:clothes":"yes","recycling:shoes":"yes","recycling_type":"container"}},"type":"Feature"},
	{"geometry":{"coordinates":[6.99241,51.491747],"type":"Point"},"properties":{"osm_id":"4719193400","tag":{"amenity":"recycling","operator":"Humana","recycling:clothes":"yes","recycling:shoes":"yes","recycling_type":"container"}},"type":"Feature"},
	{"geometry":{"coordinates":[6.990739,51.495204],"type":"Point"},"properties":{"osm_id":"4719193405","tag":{"amenity":"recycling","opening_hours":"Mo-Sa 07:00-19:00; PH Su off","operator":"Loop","recycling:clothes":"yes","recycling:shoes":"yes","recycling_type":"container"}},"type":"Feature"},
	{"geometry":{"coordinates":[6.99068,51.495207],"type":"Point"},"properties":{"osm_id":"4719193406","tag":{"amenity":"recycling","opening_hours":"Mo-Sa 07:00-19:00; PH Su off","operator":"Entsorgungsbetriebe Essen","recycling:cardboard":"yes","recycling:paper":"yes","recycling_type":"container"}},"type":"Feature"},
	{"geometry":{"coordinates":[6.985038,51.493727],"type":"Point"},"properties":{"osm_id":"4719193407","tag":{"amenity":"recycling","opening_hours":"Mo-Sa 07:00-19:00; PH Su off","operator":"Loop","recycling:clothes":"yes","recycling:shoes":"yes","recycling_type":"container"}},"type":"Feature"},
	{"geometry":{"coordinates":[6.985191,51.493727],"type":"Point"},"properties":{"osm_id":"4719193408","tag":{"amenity":"recycling","opening_hours":"Mo-Sa 07:00-19:00; PH Su off","operator":"Entsorgungsbetriebe Essen","recycling:cardboard":"yes","recycling:paper":"yes","recycling_type":"container"}},"type":"Feature"},
	{"geometry":{"coordinates":[6.98059,51.494976],"type":"Point"},"properties":{"osm_id":"4719193409","tag":{"amenity":"recycling","opening_hours":"Mo-Sa 07:00-19:00; PH Su off","operator":"Entsorgungsbetriebe Essen","recycling:cardboard":"yes","recycling:paper":"yes","recycling_type":"container"}},"type":"Feature"},
	{"geometry":{"coordinates":[6.980559,51.494976],"type":"Point"},"properties":{"osm_id":"4719193410","tag":{"amenity":"recycling","opening_hours":"Mo-Sa 07:00-19:00; PH Su off","operator":"Rhenus Logistics","recycling:glass_bottles":"yes","recycling_type":"container"}},"type":"Feature"},
	{"geometry":{"coordinates":[6.984117,51.49198],"type":"Point"},"properties":{"osm_id":"4719193411","tag":{"amenity":"recycling","opening_hours":"Mo-Sa 07:00-19:00; PH Su off","operator":"Loop","recycling:clothes":"yes","recycling:shoes":"yes","recycling_type":"container"}},"type":"Feature"},
	{"geometry":{"coordinates":[6.984081,51.49198],"type":"Point"},"properties":{"osm_id":"4719193412","tag":{"amenity":"recycling","opening_hours":"Mo-Sa 07:00-19:00; PH Su off","operator":"Entsorgungsbetriebe Essen","recycling:cardboard":"yes","recycling:paper":"yes","recycling_type":"container"}},"type":"Feature"},
	{"geometry":{"coordinates":[6.985083,51.489696],"type":"Point"},"properties":{"osm_id":"4719193413","tag":{"amenity":"recycling","opening_hours":"Mo-Sa 07:00-19:00; PH Su off","operator":"Entsorgungsbetriebe Essen","recycling:cardboard":"yes","recycling:paper":"yes","recycling_type":"container"}},"type":"Feature"},
	{"geometry":{"coordinates":[6.985138,51.489712],"type":"Point"},"properties":{"osm_id":"4719193414","tag":{"amenity":"recycling","opening_hours":"Mo-Sa 07:00-19:00; PH Su off","operator":"Rhenus Logistics","recycling:glass_bottles":"yes","recycling_type":"container"}},"type":"Feature"},
	{"geometry":{"coordinates":[6.985176,51.489725],"type":"Point"},"properties":{"osm_id":"4719193415","tag":{"amenity":"recycling","opening_hours":"Mo-Sa 07:00-19:00; PH Su off","operator":"Loop","recycling:clothes":"yes","recycling:shoes":"yes","recycling_type":"container"}},"type":"Feature"},
	{"geometry":{"coordinates":[6.985517,51.490701],"type":"Point"},"properties":{"osm_id":"4719193416","tag":{"amenity":"recycling","operator":"Brotex","recycling:clothes":"yes","recycling:shoes":"yes","recycling_type":"container"}},"type":"Feature"},
	{"geometry":{"coordinates":[6.986076,51.490535],"type":"Point"},"properties":{"osm_id":"4719193422","tag":{"amenity":"recycling","opening_hours":"Mo-Sa 07:00-19:00; PH Su off","operator":"Loop","recycling:clothes":"yes","recycling:shoes":"yes","recycling_type":"container"}},"type":"Feature"},
	{"geometry":{"coordinates":[6.986124,51.490466],"type":"Point"},"properties":{"osm_id":"4719193423","tag":{"amenity":"recycling","opening_hours":"Mo-Sa 07:00-19:00; PH Su off","operator":"Entsorgungsbetriebe Essen","recycling:cardboard":"yes","recycling:paper":"yes","recycling_type":"container"}},"type":"Feature"},
	{"geometry":{"coordinates":[6.989346,51.49129],"type":"Point"},"properties":{"osm_id":"4719193426","tag":{"amenity":"recycling","opening_hours":"Mo-Sa 07:00-19:00; PH Su off","operator":"Loop","recycling:clothes":"yes","recycling:shoes":"yes","recycling_type":"container"}},"type":"Feature"},
	{"geometry":{"coordinates":[6.989043,51.489479],"type":"Point"},"properties":{"osm_id":"4719193433","tag":{"amenity":"recycling","opening_hours":"Mo-Sa 07:00-19:00; PH Su off","operator":"Entsorgungsbetriebe Essen","recycling:cardboard":"yes","recycling:paper":"yes","recycling_type":"container"}},"type":"Feature"},
	{"geometry":{"coordinates":[6.989102,51.489493],"type":"Point"},"properties":{"osm_id":"4719193434","tag":{"amenity":"recycling","opening_hours":"Mo-Sa 07:00-19:00; PH Su off","operator":"Rhenus Logistics","recycling:glass_bottles":"yes","recycling_type":"container"}},"type":"Feature"},
	{"geometry":{"coordinates":[6.989146,51.489505],"type":"Point"},"properties":{"osm_id":"4719193435","tag":{"amenity":"recycling","opening_hours":"Mo-Sa 07:00-19:00; PH Su off","operator":"Loop","recycling:clothes":"yes","recycling:shoes":"yes","recycling_type":"container"}},"type":"Feature"},
	{"geometry":{"coordinates":[6.988452,51.489293],"type":"Point"},"properties":{"osm_id":"4719193441","tag":{"amenity":"recycling","operator":"Brotex","recycling:clothes":"yes","recycling:shoes":"yes","recycling_type":"container"}},"type":"Feature"},
	{"geometry":{"coordinates":[6.995728,51.486463],"type":"Point"},"properties":{"osm_id":"4719193442","tag":{"amenity":"recycling","operator":"Humana","recycling:clothes":"yes","recycling:shoes":"yes","recycling_type":"container"}},"type":"Feature"},
	{"geometry":{"coordinates":[7.007498,51.485009],"type":"Point"},"properties":{"osm_id":"4719193443","tag":{"amenity":"recycling","opening_hours":"Mo-Sa 07:00-19:00; PH Su off","operator":"Rhenus Logistics","recycling:glass_bottles":"yes","recycling_type":"container"}},"type":"Feature"},
	{"geometry":{"coordinates":[7.011914,51.480106],"type":"Point"},"properties":{"osm_id":"4719193444","tag":{"amenity":"recycling","opening_hours":"Mo-Sa 07:00-19:00; PH Su off","operator":"Entsorgungsbetriebe Essen","recycling:cardboard":"yes","recycling:paper":"yes","recycling_type":"container"}},"type":"Feature"},
	{"geometry":{"coordinates":[7.011857,51.480101],"type":"Point"},"properties":{"osm_id":"4719193445","tag":{"amenity":"recycling","opening_hours":"Mo-Sa 07:00-19:00; PH Su off","operator":"Rhenus Logistics","recycling:glass_bottles":"yes","recycling_type":"container"}},"type":"Feature"},
	{"geometry":{"coordinates":[7.011908,51.480127],"type":"Point"},"properties":{"osm_id":"4719193446","tag":{"amenity":"recycling","opening_hours":"Mo-Sa 07:00-19:00; PH Su off","operator":"Loop","recycling:clothes":"yes","recycling:shoes":"yes","recycling_type":"container"}},"type":"Feature"},
	{"geometry":{"coordinates":[7.01531,51.478634],"type":"Point"},"properties":{"osm_id":"4719193452","tag":{"amenity":"recycling","opening_hours":"Mo-Sa 07:00-19:00; PH Su off","operator":"Entsorgungsbetriebe Essen","recycling:cardboard":"yes","recycling:paper":"yes","recycling_type":"container"}},"type":"Feature"},
	{"geometry":{"coordinates":[7.015339,51.478637],"type":"Point"},"properties":{"osm_id":"4719193453","tag":{"amenity":"recycling","opening_hours":"Mo-Sa 07:00-19:00; PH Su off","operator":"Rhenus Logistics","recycling:glass_bottles":"yes","recycling_type":"container"}},"type":"Feature"},
	{"geometry":{"coordinates":[7.015322,51.478603],"type":"Point"},"properties":{"osm_id":"4719193454","tag":{"amenity":"recycling","opening_hours":"Mo-Sa 07:00-19:00; PH Su off","operator":"Loop","recycling:clothes":"yes","recycling:shoes":"yes","recycling_type":"container"}},"type":"Feature"},
	{"geometry":{"coordinates":[7.012743,51.47115],"type":"Point"},"properties":{"osm_id":"4719193458","tag":{"amenity":"recycling","opening_hours":"Mo-Sa 07:00-19:00; PH Su off","operator":"Rhenus Logistics","recycling:glass_bottles":"yes","recycling_type":"container"}},"type":"Feature"},
	{"geometry":{"coordinates":[7.012745,51.47117],"type":"Point"},"properties":{"osm_id":"4719193459","tag":{"amenity":"recycling","opening_hours":"Mo-Sa 07:00-19:00; PH Su off","operator":"Diakoniewerk Essen","recycling:clothes":"yes","recycling:shoes":"yes","recycling_type":"container"}},"type":"Feature"},
	{"geometry":{"coordinates":[7.017208,51.470626],"type":"Point"},"properties":{"osm_id":"4719193460","tag":{"amenity":"recycling","opening_hours":"Mo-Sa 07:00-19:00; PH Su off","operator":"Rhenus Logistics","recycling:glass_bottles":"yes","recycling_type":"container"}},"type":"Feature"},
	{"geometry":{"coordinates":[7.017269,51.470629],"type":"Point"},"properties":{"osm_id":"4719193461","tag":{"amenity":"recycling","opening_hours":"Mo-Sa 07:00-19:00; PH Su off","operator":"Loop","recycling:clothes":"yes","recycling:shoes":"yes","recycling_type":"container"}},"type":"Feature"},
	{"geometry":{"coordinates":[6.952817,51.471643],"type":"Point"},"properties":{"osm_id":"4734995308","tag":{"amenity":"recycling","opening_hours":"Mo-Sa 07:00-19:00; PH Su off","operator":"Rhenus Logistics","recycling:glass_bottles":"yes","recycling_type":"container"}},"type":"Feature"},
	{"geometry":{"coordinates":[6.9526,51.471019],"type":"Point"},"properties":{"osm_id":"4734995309","tag":{"amenity":"recycling","opening_hours":"Mo-Sa 07:00-19:00; PH Su off","operator":"Entsorgungsbetriebe Essen","recycling:cardboard":"yes","recycling:paper":"yes","recycling_type":"container"}},"type":"Feature"},
	{"geometry":{"coordinates":[6.954205,51.472538],"type":"Point"},"properties":{"osm_id":"4734995311","tag":{"amenity":"recycling","opening_hours":"Mo-Sa 07:00-19:00; PH Su off","operator":"Entsorgungsbetriebe Essen","recycling:cardboard":"yes","recycling:paper":"yes","recycling_type":"container"}},"type":"Feature"},
	{"geometry":{"coordinates":[6.954099,51.472549],"type":"Point"},"properties":{"osm_id":"4734995312","tag":{"amenity":"recycling","opening_hours":"Mo-Sa 07:00-19:00; PH Su off","operator":"Loop","recycling:clothes":"yes","recycling:shoes":"yes","recycling_type":"container"}},"type":"Feature"},
	{"geometry":{"coordinates":[6.95364,51.475668],"type":"Point"},"properties":{"osm_id":"4734995313","tag":{"amenity":"recycling","opening_hours":"Mo-Sa 07:00-19:00; PH Su off","operator":"Rhenus Logistics","recycling:glass_bottles":"yes","recycling_type":"container"}},"type":"Feature"},
	{"geometry":{"coordinates":[6.95359,51.475722],"type":"Point"},"properties":{"osm_id":"4734995314","tag":{"amenity":"recycling","opening_hours":"Mo-Sa 07:00-19:00; PH Su off","operator":"Entsorgungsbetriebe Essen","recycling:cardboard":"yes","recycling:paper":"yes","recycling_type":"container"}},"type":"Feature"},
	{"geometry":{"coordinates":[6.953609,51.475697],"type":"Point"},"properties":{"osm_id":"4734995315","tag":{"amenity":"recycling","opening_hours":"Mo-Sa 07:00-19:00; PH Su off","operator":"Loop","recycling:clothes":"yes","recycling:shoes":"yes","recycling_type":"container"}},"type":"Feature"},
	{"geometry":{"coordinates":[6.947223,51.476795],"type":"Point"},"properties":{"osm_id":"4734995316","tag":{"amenity":"recycling","opening_hours":"Mo-Sa 07:00-19:00; PH Su off","operator":"Entsorgungsbetriebe Essen","recycling:cardboard":"yes","recycling:paper":"yes","recycling_type":"container"}},"type":"Feature"},
	{"geometry":{"coordinates":[6.947278,51.476772],"type":"Point"},"properties":{"osm_id":"4734995317","tag":{"amenity":"recycling","opening_hours":"Mo-Sa 07:00-19:00; PH Su off","operator":"Rhenus Logistics","recycling:glass_bottles":"yes","recycling_type":"container"}},"type":"Feature"},
	{"geometry":{"coordinates":[6.950008,51.479381],"type":"Point"},"properties":{"osm_id":"4734995318","tag":{"amenity":"recycling","opening_hours":"Mo-Sa 07:00-19:00; PH Su off","operator":"Loop","recycling:clothes":"yes","recycling:shoes":"yes","recycling_type":"container"}},"type":"Feature"},
	{"geometry":{"coordinates":[6.950083,51.479399],"type":"Point"},"properties":{"osm_id":"4734995319","tag":{"amenity":"recycling","opening_hours":"Mo-Sa 07:00-19:00; PH Su off","operator":"Entsorgungsbetriebe Essen","recycling:cardboard":"yes","recycling:paper":"yes","recycling_type":"container"}},"type":"Feature"},
	{"geometry":{"coordinates":[6.950116,51.479413],"type":"Point"},"properties":{"osm_id":"4734995320","tag":{"amenity":"recycling","opening_hours":"Mo-Sa 07:00-19:00; PH Su off","operator":"Rhenus Logistics","recycling:glass_bottles":"yes","recycling_type":"container"}},"type":"Feature"},
	{"geometry":{"coordinates":[6.957908,51.477552],"type":"Point"},"properties":{"osm_id":"4735001230","tag":{"amenity":"recycling","operator":"Diakoniewerk Essen","recycling:clothes":"yes","recycling:shoes":"yes","recycling_type":"container"}},"type":"Feature"},
	{"geometry":{"coordinates":[6.961112,51.478298],"type":"Point"},"properties":{"osm_id":"4735001231","tag":{"amenity":"recycling","operator":"Texaid","recycling:clothes":"yes","recycling:shoes":"yes","recycling_type":"container"}},"type":"Feature"},
	{"geometry":{"coordinates":[6.96377,51.478533],"type":"Point"},"properties":{"osm_id":"4735001232","tag":{"amenity":"recycling","opening_hours":"Mo-Sa 07:00-19:00; PH Su off","operator":"Rhenus Logistics","recycling:glass_bottles":"yes","recycling_type":"container"}},"type":"Feature"},
	{"geometry":{"coordinates":[6.963765,51.478557],"type":"Point"},"properties":{"osm_id":"4735001233","tag":{"amenity":"recycling","opening_hours":"Mo-Sa 07:00-19:00; PH Su off","operator":"Loop","recycling:clothes":"yes","recycling:shoes":"yes","recycling_type":"container"}},"type":"Feature"},
	{"geometry":{"coordinates":[6.963065,51.479197],"type":"Point"},"properties":{"osm_id":"4735001234","tag":{"amenity":"recycling","operator":"Texaid","recycling:clothes":"yes","recycling:shoes":"yes","recycling_type":"container"}},"type":"Feature"},
	{"geometry":{"coordinates":[6.949896,51.484783],"type":"Point"},"properties":{"osm_id":"4735001235","tag":{"amenity":"recycling","opening_hours":"Mo-Sa 07:00-19:00; PH Su off","operator":"Loop","recycling:clothes":"yes","recycling:shoes":"yes","recycling_type":"container"}},"type":"Feature"},
	{"geometry":{"coordinates":[6.951585,51.487102],"type":"Point"},"properties":{"osm_id":"4735001236","tag":{"amenity":"recycling","opening_hours":"Mo-Sa 07:00-19:00; PH Su off","operator":"Rhenus Logistics","recycling:glass_bottles":"yes","recycling_type":"container"}},"type":"Feature"},
	{"geometry":{"coordinates":[6.951562,51.487123],"type":"Point"},"properties":{"osm_id":"4735001237","tag":{"amenity":"recycling","opening_hours":"Mo-Sa 07:00-19:00; PH Su off","operator":"Entsorgungsbetriebe Essen","recycling:cardboard":"yes","recycling:paper":"yes","recycling_type":"container"}},"type":"Feature"},
	{"geometry":{"coordinates":[6.949956,51.48489],"type":"Point"},"properties":{"osm_id":"4735001238","tag":{"amenity":"recycling","opening_hours":"Mo-Sa 07:00-19:00; PH Su off","operator":"Entsorgungsbetriebe Essen","recycling:cardboard":"yes","recycling:paper":"yes","recycling_type":"container"}},"type":"Feature"},
	{"geometry":{"coordinates":[6.949922,51.484826],"type":"Point"},"properties":{"osm_id":"4735001239","tag":{"amenity":"recycling","opening_hours":"Mo-Sa 07:00-19:00; PH Su off","operator":"Rhenus Logistics","recycling:glass_bottles":"yes","recycling_type":"container"}},"type":"Feature"},
	{"geometry":{"coordinates":[6.94431,51.48328],"type":"Point"},"properties":{"osm_id":"4735001240","tag":{"amenity":"recycling","opening_hours":"Mo-Sa 07:00-19:00; PH Su off","operator":"Rhenus Logistics","recycling:glass_bottles":"yes","recycling_type":"container"}},"type":"Feature"},
	{"geometry":{"coordinates":[6.944396,51.483258],"type":"Point"},"properties":{"osm_id":"4735001241","tag":{"amenity":"recycling","opening_hours":"Mo-Sa 07:00-19:00; PH Su off","operator":"Entsorgungsbetriebe Essen","recycling:cardboard":"yes","recycling:paper":"yes","recycling_type":"container"}},"type":"Feature"},
	{"geometry":{"coordinates":[6.944449,51.483244],"type":"Point"},"properties":{"osm_id":"4735001242","tag":{"amenity":"recycling","opening_hours":"Mo-Sa 07:00-19:00; PH Su off","operator":"Loop","recycling:clothes":"yes","recycling:shoes":"yes","recycling_type":"container"}},"type":"Feature"},
	{"geometry":{"coordinates":[6.943464,51.480991],"type":"Point"},"properties":{"osm_id":"4735001243","tag":{"amenity":"recycling","opening_hours":"Mo-Sa 07:00-19:00; PH Su off","operator":"Loop","recycling:clothes":"yes","recycling:shoes":"yes","recycling_type":"container"}},"type":"Feature"},
	{"geometry":{"coordinates":[6.943609,51.480961],"type":"Point"},"properties":{"osm_id":"4735001244","tag":{"amenity":"recycling","opening_hours":"Mo-Sa 07:00-19:00; PH Su off","operator":"Entsorgungsbetriebe Essen","recycling:cardboard":"yes","recycling:paper":"yes","recycling_type":"container"}},"type":"Feature"},
	{"geometry":{"coordinates":[6.943485,51.468125],"type":"Point"},"properties":{"osm_id":"4735001253","tag":{"amenity":"recycling","opening_hours":"Mo-Sa 07:00-19:00; PH Su off","operator":"Entsorgungsbetriebe Essen","recycling:cardboard":"yes","recycling:paper":"yes","recycling_type":"container"}},"type":"Feature"},
	{"geometry":{"coordinates":[6.948966,51.466817],"type":"Point"},"properties":{"osm_id":"4735001257","tag":{"amenity":"recycling","opening_hours":"Mo-Sa 07:00-19:00; PH Su off","operator":"Entsorgungsbetriebe Essen","recycling:cardboard":"yes","recycling:paper":"yes","recycling_type":"container"}},"type":"Feature"},
	{"geometry":{"coordinates":[6.948995,51.466797],"type":"Point"},"properties":{"osm_id":"4735001258","tag":{"amenity":"recycling","opening_hours":"Mo-Sa 07:00-19:00; PH Su off","operator":"Loop","recycling:clothes":"yes","recycling:shoes":"yes","recycling_type":"container"}},"type":"Feature"},
	{"geometry":{"coordinates":[6.94942,51.466524],"type":"Point"},"properties":{"osm_id":"4735001259","tag":{"amenity":"recycling","opening_hours":"Mo-Sa 07:00-19:00; PH Su off","operator":"Rhenus Logistics","recycling:glass_bottles":"yes","recycling_type":"container"}},"type":"Feature"},
	{"geometry":{"coordinates":[6.976185,51.504042],"type":"Point"},"properties":{"osm_id":"4738251165","tag":{"amenity":"recycling","opening_hours":"Mo-Sa 07:00-19:00; PH, Su off","operator":"Rhenus Logistics","recycling:glass_bottles":"yes","recycling_type":"container"}},"type":"Feature"},
	{"geometry":{"coordinates":[6.976151,51.504038],"type":"Point"},"properties":{"osm_id":"4738251166","tag":{"amenity":"recycling","opening_hours":"Mo-Sa 07:00-19:00; PH, Su off","operator":"Rhenus Logistics","recycling:clothes":"yes","recycling:shoes":"yes","recycling_type":"container"}},"type":"Feature"},
	{"geometry":{"coordinates":[6.9744,51.486673],"type":"Point"},"properties":{"osm_id":"4738251196","tag":{"amenity":"recycling","opening_hours":"Mo-Sa 07:00-19:00; PH Su off","operator":"Rhenus Logistics","recycling:cardboard":"yes","recycling:paper":"yes","recycling_type":"container"}},"type":"Feature"},
	{"geometry":{"coordinates":[6.978785,51.480526],"type":"Point"},"properties":{"osm_id":"4738263633","tag":{"amenity":"recycling","opening_hours":"Mo-Sa 07:00-19:00; PH Su off","operator":"Rhenus Logistics","recycling:glass_bottles":"yes","recycling_type":"container"}},"type":"Feature"},
	{"geometry":{"coordinates":[6.97877,51.480474],"type":"Point"},"properties":{"osm_id":"4738263634","tag":{"amenity":"recycling","opening_hours":"Mo-Sa 07:00-19:00; PH Su off","operator":"Entsorgungsbetriebe Essen","recycling:cardboard":"yes","recycling:paper":"yes","recycling_type":"container"}},"type":"Feature"},
	{"geometry":{"coordinates":[6.972795,51.479293],"type":"Point"},"properties":{"osm_id":"4738263635","tag":{"amenity":"recycling","opening_hours":"Mo-Sa 07:00-19:00; PH Su off","operator":"Entsorgungsbetriebe Essen","recycling:cardboard":"yes","recycling:paper":"yes","recycling_type":"container"}},"type":"Feature"},
	{"geometry":{"coordinates":[6.972903,51.479292],"type":"Point"},"properties":{"osm_id":"4738263636","tag":{"amenity":"recycling","opening_hours":"Mo-Sa 07:00-19:00; PH Su off","operator":"Loop","recycling:clothes":"yes","recycling:shoes":"yes","recycling_type":"container"}},"type":"Feature"},
	{"geometry":{"coordinates":[6.973483,51.479907],"type":"Point"},"properties":{"osm_id":"4738263637","tag":{"amenity":"recycling","recycling:clothes":"yes","recycling:shoes":"yes","recycling_type":"container"}},"type":"Feature"},
	{"geometry":{"coordinates":[6.974451,51.479459],"type":"Point"},"properties":{"osm_id":"4738263640","tag":{"amenity":"recycling","operator":"Malteser","recycling:clothes":"yes","recycling:shoes":"yes","recycling_type":"container"}},"type":"Feature"},
	{"geometry":{"coordinates":[6.963189,51.484488],"type":"Point"},"properties":{"osm_id":"4738330973","tag":{"amenity":"recycling","opening_hours":"Mo-Sa 07:00-19:00; PH Su off","operator":"Entsorgungsbetriebe Essen","recycling:cardboard":"yes","recycling:paper":"yes","recycling_type":"container"}},"type":"Feature"},
	{"geometry":{"coordinates":[6.963171,51.484666],"type":"Point"},"properties":{"osm_id":"4738362854","tag":{"amenity":"recycling","opening_hours":"Mo-Sa 07:00-19:00; PH Su off","operator":"Entsorgungsbetriebe Essen","recycling:cardboard":"yes","recycling:paper":"yes","recycling_type":"container"}},"type":"Feature"},
	{"geometry":{"coordinates":[6.955194,51.457879],"type":"Point"},"properties":{"osm_id":"4745315494","tag":{"amenity":"recycling","opening_hours":"Mo-Sa 07:00-19:00; PH Su off","operator":"Loop","recycling:clothes":"yes","recycling:shoes":"yes","recycling_type":"container"}},"type":"Feature"},
	{"geometry":{"coordinates":[6.966481,51.47693],"type":"Point"},"properties":{"osm_id":"4745315652","tag":{"amenity":"recycling","opening_hours":"Mo-Sa 07:00-19:00; PH Su off","operator":"Rhenus Logistics","recycling:glass_bottles":"yes","recycling_type":"container"}},"type":"Feature"},
	{"geometry":{"coordinates":[6.966421,51.476997],"type":"Point"},"properties":{"osm_id":"4745315653","tag":{"amenity":"recycling","opening_hours":"Mo-Sa 07:00-19:00; PH Su off","operator":"Loop","recycling:clothes":"yes","recycling:shoes":"yes","recycling_type":"container"}},"type":"Feature"},
	{"geometry":{"coordinates":[6.96644,51.476979],"type":"Point"},"properties":{"osm_id":"4745315654","tag":{"amenity":"recycling","opening_hours":"Mo-Sa 07:00-19:00; PH Su off","operator":"Entsorgungsbetriebe Essen","recycling:cardboard":"yes","recycling:paper":"yes","recycling_type":"container"}},"type":"Feature"},
	{"geometry":{"coordinates":[6.986508,51.476065],"type":"Point"},"properties":{"osm_id":"4745315655","tag":{"amenity":"recycling","opening_hours":"Mo-Sa 07:00-19:00; PH Su off","operator":"Entsorgungsbetriebe Essen","recycling:cardboard":"yes","recycling:paper":"yes","recycling_type":"container"}},"type":"Feature"},
	{"geometry":{"coordinates":[6.986506,51.476108],"type":"Point"},"properties":{"osm_id":"4745315656","tag":{"amenity":"recycling","opening_hours":"Mo-Sa 07:00-19:00; PH Su off","operator":"Rhenus Logistics","recycling:glass_bottles":"yes","recycling_type":"container"}},"type":"Feature"},
	{"geometry":{"coordinates":[6.953479,51.48361],"type":"Point"},"properties":{"osm_id":"4751484861","tag":{"amenity":"recycling","operator":"Humana","recycling:clothes":"yes","recycling:shoes":"yes","recycling_type":"container"}},"type":"Feature"},
	{"geometry":{"coordinates":[7.028129,51.495326],"type":"Point"},"properties":{"osm_id":"4756557549","tag":{"amenity":"recycling","opening_hours":"Mo-Sa 07:00-19:00; PH Su off","operator":"Loop","recycling:clothes":"yes","recycling:shoes":"yes","recycling_type":"container"}},"type":"Feature"},
	{"geometry":{"coordinates":[7.028127,51.495298],"type":"Point"},"properties":{"osm_id":"4756557550","tag":{"amenity":"recycling","opening_hours":"Mo-Sa 07:00-19:00; PH Su off","operator":"Rhenus Logistics","recycling:glass_bottles":"yes","recycling_type":"container"}},"type":"Feature"},
	{"geometry":{"coordinates":[7.030603,51.497128],"type":"Point"},"properties":{"osm_id":"4756557551","tag":{"amenity":"recycling","opening_hours":"Mo-Sa 07:00-19:00; PH Su off","operator":"Rhenus Logistics","recycling:glass_bottles":"yes","recycling_type":"container"}},"type":"Feature"},
	{"geometry":{"coordinates":[7.03068,51.497146],"type":"Point"},"properties":{"osm_id":"4756557552","tag":{"amenity":"recycling","opening_hours":"Mo-Sa 07:00-19:00; PH Su off","operator":"Loop","recycling:clothes":"yes","recycling:shoes":"yes","recycling_type":"container"}},"type":"Feature"},
	{"geometry":{"coordinates":[7.030726,51.497152],"type":"Point"},"properties":{"osm_id":"4756557553","tag":{"amenity":"recycling","opening_hours":"Mo-Sa 07:00-19:00; PH Su off","operator":"Entsorgungsbetriebe Essen","recycling:cardboard":"yes","recycling:paper":"yes","recycling_type":"container"}},"type":"Feature"},
	{"geometry":{"coordinates":[7.025756,51.49583],"type":"Point"},"properties":{"osm_id":"4756557556","tag":{"amenity":"recycling","opening_hours":"Mo-Sa 07:00-19:00; PH Su off","operator":"Rhenus Logistics","recycling:glass_bottles":"yes","recycling_type":"container"}},"type":"Feature"},
	{"geometry":{"coordinates":[7.025673,51.49585],"type":"Point"},"properties":{"osm_id":"4756557557","tag":{"amenity":"recycling","opening_hours":"Mo-Sa 07:00-19:00; PH Su off","operator":"Loop","recycling:clothes":"yes","recycling:shoes":"yes","recycling_type":"container"}},"type":"Feature"},
	{"geometry":{"coordinates":[7.020148,51.49252],"type":"Point"},"properties":{"osm_id":"4756557580","tag":{"amenity":"recycling","opening_hours":"Mo-Sa 07:00-19:00; PH Su off","operator":"Entsorgungsbetriebe Essen","recycling:cardboard":"yes","recycling:paper":"yes","recycling_type":"container"}},"type":"Feature"},
	{"geometry":{"coordinates":[7.020154,51.492487],"type":"Point"},"properties":{"osm_id":"4756557581","tag":{"amenity":"recycling","opening_hours":"Mo-Sa 07:00-19:00; PH Su off","operator":"Rhenus Logistics","recycling:glass_bottles":"yes","recycling_type":"container"}},"type":"Feature"},
	{"geometry":{"coordinates":[7.020122,51.489864],"type":"Point"},"properties":{"osm_id":"4756557586","tag":{"amenity":"recycling","opening_hours":"Mo-Sa 07:00-19:00; PH Su off","operator":"Rhenus Logistics","recycling:glass_bottles":"yes","recycling_type":"container"}},"type":"Feature"},
	{"geometry":{"coordinates":[7.029905,51.483752],"type":"Point"},"properties":{"osm_id":"4756557587","tag":{"amenity":"recycling","opening_hours":"Mo-Sa 07:00-19:00; PH Su off","operator":"Loop","recycling:clothes":"yes","recycling:shoes":"yes","recycling_type":"container"}},"type":"Feature"},
	{"geometry":{"coordinates":[7.029954,51.483737],"type":"Point"},"properties":{"osm_id":"4756557588","tag":{"amenity":"recycling","opening_hours":"Mo-Sa 07:00-19:00; PH Su off","operator":"Entsorgungsbetriebe Essen","recycling:cardboard":"yes","recycling:paper":"yes","recycling_type":"container"}},"type":"Feature"},
	{"geometry":{"coordinates":[7.030057,51.483843],"type":"Point"},"properties":{"osm_id":"4756557589","tag":{"amenity":"recycling","opening_hours":"Mo-Sa 07:00-19:00; PH Su off","operator":"Rhenus Logistics","recycling:glass_bottles":"yes","recycling_type":"container"}},"type":"Feature"},
	{"geometry":{"coordinates":[7.024938,51.480594],"type":"Point"},"properties":{"osm_id":"4756557592","tag":{"amenity":"recycling","opening_hours":"Mo-Sa 07:00-19:00; PH Su off","operator":"Entsorgungsbetriebe Essen","recycling:cardboard":"yes","recycling:paper":"yes","recycling_type":"container"}},"type":"Feature"},
	{"geometry":{"coordinates":[7.024985,51.480514],"type":"Point"},"properties":{"osm_id":"4756557597","tag":{"amenity":"recycling","opening_hours":"Mo-Sa 07:00-19:00; PH Su off","operator":"Loop","recycling:clothes":"yes","recycling:shoes":"yes","recycling_type":"container"}},"type":"Feature"},
	{"geometry":{"coordinates":[7.027966,51.478356],"type":"Point"},"properties":{"osm_id":"4756557598","tag":{"amenity":"recycling","opening_hours":"Mo-Sa 07:00-19:00; PH Su off","operator":"Rhenus Logistics","recycling:glass_bottles":"yes","recycling_type":"container"}},"type":"Feature"},
	{"geometry":{"coordinates":[7.028037,51.478439],"type":"Point"},"properties":{"osm_id":"4756557599","tag":{"amenity":"recycling","opening_hours":"Mo-Sa 07:00-19:00; PH Su off","operator":"Entsorgungsbetriebe Essen","recycling:cardboard":"yes","recycling:paper":"yes","recycling_type":"container"}},"type":"Feature"},
	{"geometry":{"coordinates":[7.029368,51.476889],"type":"Point"},"properties":{"osm_id":"4756557604","tag":{"amenity":"recycling","opening_hours":"Mo-Sa 07:00-19:00; PH Su off","operator":"Loop","recycling:clothes":"yes","recycling:shoes":"yes","recycling_type":"container"}},"type":"Feature"},
	{"geometry":{"coordinates":[7.028399,51.473819],"type":"Point"},"properties":{"osm_id":"4756557612","tag":{"amenity":"recycling","opening_hours":"Mo-Sa 07:00-19:00; PH Su off","operator":"Entsorgungsbetriebe Essen","recycling:cardboard":"yes","recycling:paper":"yes","recycling_type":"container"}},"type":"Feature"},
	{"geometry":{"coordinates":[7.028366,51.473806],"type":"Point"},"properties":{"osm_id":"4756557613","tag":{"amenity":"recycling","opening_hours":"Mo-Sa 07:00-19:00; PH Su off","operator":"Loop","recycling:clothes":"yes","recycling:shoes":"yes","recycling_type":"container"}},"type":"Feature"},
	{"geometry":{"coordinates":[6.981403,51.476707],"type":"Point"},"properties":{"osm_id":"4761224517","tag":{"amenity":"recycling","opening_hours":"Mo-Sa 07:00-19:00; PH Su off","operator":"Loop","recycling:clothes":"yes","recycling:shoes":"yes","recycling_type":"container"}},"type":"Feature"},
	{"geometry":{"coordinates":[6.981437,51.476717],"type":"Point"},"properties":{"osm_id":"4761224518","tag":{"amenity":"recycling","opening_hours":"Mo-Sa 07:00-19:00; PH Su off","operator":"Entsorgungsbetriebe Essen","recycling:cardboard":"yes","recycling:paper":"yes","recycling_type":"container"}},"type":"Feature"},
	{"geometry":{"coordinates":[6.978842,51.476272],"type":"Point"},"properties":{"osm_id":"4761224519","tag":{"amenity":"recycling","opening_hours":"Mo-Sa 07:00-19:00; PH Su off","operator":"Rhenus Logistics","recycling:glass_bottles":"yes","recycling_type":"container"}},"type":"Feature"},
	{"geometry":{"coordinates":[6.973689,51.475502],"type":"Point"},"properties":{"osm_id":"4761224520","tag":{"amenity":"recycling","opening_hours":"Mo-Sa 07:00-19:00; PH Su off","operator":"Rhenus Logistics","recycling:glass_bottles":"yes","recycling_type":"container"}},"type":"Feature"},
	{"geometry":{"coordinates":[6.973742,51.475516],"type":"Point"},"properties":{"osm_id":"4761227921","tag":{"amenity":"recycling","opening_hours":"Mo-Sa 07:00-19:00; PH Su off","operator":"Entsorgungsbetriebe Essen","recycling:cardboard":"yes","recycling:paper":"yes","recycling_type":"container"}},"type":"Feature"},
	{"geometry":{"coordinates":[6.966504,51.473643],"type":"Point"},"properties":{"osm_id":"4761227922","tag":{"amenity":"recycling","opening_hours":"Mo-Sa 07:00-19:00; PH Su off","operator":"Loop","recycling:clothes":"yes","recycling:shoes":"yes","recycling_type":"container"}},"type":"Feature"},
	{"geometry":{"coordinates":[6.966459,51.473656],"type":"Point"},"properties":{"osm_id":"4761227923","tag":{"amenity":"recycling","opening_hours":"Mo-Sa 07:00-19:00; PH Su off","operator":"Rhenus Logistics","recycling:glass_bottles":"yes","recycling_type":"container"}},"type":"Feature"},
	{"geometry":{"coordinates":[6.966455,51.473685],"type":"Point"},"properties":{"osm_id":"4761227924","tag":{"amenity":"recycling","opening_hours":"Mo-Sa 07:00-19:00; PH Su off","operator":"Entsorgungsbetriebe Essen","recycling:cardboard":"yes","recycling:paper":"yes","recycling_type":"container"}},"type":"Feature"},
	{"geometry":{"coordinates":[6.958258,51.471256],"type":"Point"},"properties":{"osm_id":"4761227925","tag":{"amenity":"recycling","opening_hours":"Mo-Sa 07:00-19:00; PH Su off","operator":"Rhenus Logistics","recycling:glass_bottles":"yes","recycling_type":"container"}},"type":"Feature"},
	{"geometry":{"coordinates":[6.958327,51.471206],"type":"Point"},"properties":{"osm_id":"4761227926","tag":{"amenity":"recycling","opening_hours":"Mo-Sa 07:00-19:00; PH Su off","operator":"Entsorgungsbetriebe Essen","recycling:cardboard":"yes","recycling:paper":"yes","recycling_type":"container"}},"type":"Feature"},
	{"geometry":{"coordinates":[6.958366,51.471184],"type":"Point"},"properties":{"osm_id":"4761227927","tag":{"amenity":"recycling","opening_hours":"Mo-Sa 07:00-19:00; PH Su off","operator":"Loop","recycling:clothes":"yes","recycling:shoes":"yes","recycling_type":"container"}},"type":"Feature"},
	{"geometry":{"coordinates":[6.958216,51.472957],"type":"Point"},"properties":{"osm_id":"4761227935","tag":{"amenity":"recycling","operator":"Deutsches Rotes Kreuz","recycling:clothes":"yes","recycling:shoes":"yes","recycling_type":"container"}},"type":"Feature"},
	{"geometry":{"coordinates":[6.956125,51.470997],"type":"Point"},"properties":{"osm_id":"4761227936","tag":{"amenity":"recycling","opening_hours":"Mo-Sa 07:00-19:00; PH Su off","operator":"Entsorgungsbetriebe Essen","recycling:cardboard":"yes","recycling:paper":"yes","recycling_type":"container"}},"type":"Feature"},
	{"geometry":{"coordinates":[6.956196,51.470897],"type":"Point"},"properties":{"osm_id":"4761227937","tag":{"amenity":"recycling","opening_hours":"Mo-Sa 07:00-19:00; PH Su off","operator":"Loop","recycling:clothes":"yes","recycling:shoes":"yes","recycling_type":"container"}},"type":"Feature"},
	{"geometry":{"coordinates":[6.954512,51.470289],"type":"Point"},"properties":{"osm_id":"4761227938","tag":{"amenity":"recycling","opening_hours":"Mo-Sa 07:00-19:00; PH Su off","operator":"Loop","recycling:clothes":"yes","recycling:shoes":"yes","recycling_type":"container"}},"type":"Feature"},
	{"geometry":{"coordinates":[6.954535,51.470306],"type":"Point"},"properties":{"osm_id":"4761227939","tag":{"amenity":"recycling","opening_hours":"Mo-Sa 07:00-19:00; PH Su off","operator":"Entsorgungsbetriebe Essen","recycling:cardboard":"yes","recycling:paper":"yes","recycling_type":"container"}},"type":"Feature"},
	{"geometry":{"coordinates":[6.956701,51.469357],"type":"Point"},"properties":{"osm_id":"4761227940","tag":{"amenity":"recycling","operator":"Diakoniewerk Essen","recycling:clothes":"yes","recycling:shoes":"yes","recycling_type":"container"}},"type":"Feature"},
	{"geometry":{"coordinates":[6.956511,51.468977],"type":"Point"},"properties":{"osm_id":"4761227942","tag":{"amenity":"recycling","operator":"Humana","recycling:clothes":"yes","recycling:shoes":"yes","recycling_type":"container"}},"type":"Feature"},
	{"geometry":{"coordinates":[6.962772,51.469234],"type":"Point"},"properties":{"osm_id":"4761227957","tag":{"amenity":"recycling","opening_hours":"Mo-Sa 07:00-19:00; PH Su off","operator":"Entsorgungsbetriebe Essen","recycling:cardboard":"yes","recycling:paper":"yes","recycling_type":"container"}},"type":"Feature"},
	{"geometry":{"coordinates":[6.961543,51.467699],"type":"Point"},"properties":{"osm_id":"4761227959","tag":{"amenity":"recycling","opening_hours":"Mo-Sa 07:00-19:00; PH Su off","operator":"Rhenus Logistics","recycling:glass_bottles":"yes","recycling_type":"container"}},"type":"Feature"},
	{"geometry":{"coordinates":[6.961669,51.467729],"type":"Point"},"properties":{"osm_id":"4761227960","tag":{"amenity":"recycling","opening_hours":"Mo-Sa 07:00-19:00; PH Su off","operator":"Loop","recycling:clothes":"yes","recycling:shoes":"yes","recycling_type":"container"}},"type":"Feature"},
	{"geometry":{"coordinates":[6.961711,51.46774],"type":"Point"},"properties":{"osm_id":"4761227961","tag":{"amenity":"recycling","opening_hours":"Mo-Sa 07:00-19:00; PH Su off","operator":"Entsorgungsbetriebe Essen","recycling:cardboard":"yes","recycling:paper":"yes","recycling_type":"container"}},"type":"Feature"},
	{"geometry":{"coordinates":[6.961087,51.464473],"type":"Point"},"properties":{"osm_id":"4761227962","tag":{"amenity":"recycling","opening_hours":"Mo-Sa 07:00-19:00; PH Su off","operator":"Entsorgungsbetriebe Essen","recycling:cardboard":"yes","recycling:paper":"yes","recycling_type":"container"}},"type":"Feature"},
	{"geometry":{"coordinates":[6.960981,51.4644],"type":"Point"},"properties":{"osm_id":"4761227963","tag":{"amenity":"recycling","opening_hours":"Mo-Sa 07:00-19:00; PH Su off","operator":"Loop","recycling:clothes":"yes","recycling:shoes":"yes","recycling_type":"container"}},"type":"Feature"},
	{"geometry":{"coordinates":[7.00784,51.47684],"type":"Point"},"properties":{"osm_id":"4761248732","tag":{"amenity":"recycling","opening_hours":"Mo-Sa 07:00-19:00; PH Su off","operator":"Rhenus Logistics","recycling:glass_bottles":"yes","recycling_type":"container"}},"type":"Feature"},
	{"geometry":{"coordinates":[6.944004,51.45764],"type":"Point"},"properties":{"osm_id":"4772315247","tag":{"amenity":"recycling","opening_hours":"Mo-Sa 07:00-19:00; PH Su off","operator":"Entsorgungsbetriebe Essen","recycling:cardboard":"yes","recycling:paper":"yes","recycling_type":"container"}},"type":"Feature"},
	{"geometry":{"coordinates":[6.943976,51.457666],"type":"Point"},"properties":{"osm_id":"4772315248","tag":{"amenity":"recycling","opening_hours":"Mo-Sa 07:00-19:00; PH Su off","operator":"Loop","recycling:clothes":"yes","recycling:shoes":"yes","recycling_type":"container"}},"type":"Feature"},
	{"geometry":{"coordinates":[6.944534,51.454671],"type":"Point"},"properties":{"osm_id":"4772315260","tag":{"amenity":"recycling","opening_hours":"Mo-Sa 07:00-19:00; PH Su off","operator":"Entsorgungsbetriebe Essen","recycling:cardboard":"yes","recycling:paper":"yes","recycling_type":"container"}},"type":"Feature"},
	{"geometry":{"coordinates":[6.944482,51.454684],"type":"Point"},"properties":{"osm_id":"4772315261","tag":{"amenity":"recycling","opening_hours":"Mo-Sa 07:00-19:00; PH Su off","operator":"Rhenus Logistics","recycling:glass_bottles":"yes","recycling_type":"container"}},"type":"Feature"},
	{"geometry":{"coordinates":[6.944436,51.454653],"type":"Point"},"properties":{"osm_id":"4772315262","tag":{"amenity":"recycling","opening_hours":"Mo-Sa 07:00-19:00; PH Su off","operator":"Loop","recycling:clothes":"yes","recycling:shoes":"yes","recycling_type":"container"}},"type":"Feature"},
	{"geometry":{"coordinates":[7.002834,51.484373],"type":"Point"},"properties":{"osm_id":"4783056576","tag":{"amenity":"recycling","opening_hours":"Mo-Sa 07:00-19:00; PH Su off","operator":"Loop","recycling:clothes":"yes","recycling:shoes":"yes","recycling_type":"container"}},"type":"Feature"},
	{"geometry":{"coordinates":[7.003466,51.484561],"type":"Point"},"properties":{"osm_id":"4783056577","tag":{"amenity":"recycling","opening_hours":"Mo-Sa 07:00-19:00; PH Su off","operator":"Rhenus Logistics","recycling:glass_bottles":"yes","recycling_type":"container"}},"type":"Feature"},
	{"geometry":{"coordinates":[7.013904,51.476627],"type":"Point"},"properties":{"osm_id":"4783056590","tag":{"amenity":"recycling","opening_hours":"Mo-Sa 07:00-19:00; PH Su off","operator":"Loop","recycling:clothes":"yes","recycling:shoes":"yes","recycling_type":"container"}},"type":"Feature"},
	{"geometry":{"coordinates":[7.013871,51.476621],"type":"Point"},"properties":{"osm_id":"4783056591","tag":{"amenity":"recycling","opening_hours":"Mo-Sa 07:00-19:00; PH Su off","operator":"Entsorgungsbetriebe Essen","recycling:cardboard":"yes","recycling:paper":"yes","recycling_type":"container"}},"type":"Feature"},
	{"geometry":{"coordinates":[7.013837,51.476617],"type":"Point"},"properties":{"osm_id":"4783056592","tag":{"amenity":"recycling","opening_hours":"Mo-Sa 07:00-19:00; PH Su off","operator":"Rhenus Logistics","recycling:glass_bottles":"yes","recycling_type":"container"}},"type":"Feature"},
	{"geometry":{"coordinates":[6.964249,51.472485],"type":"Point"},"properties":{"osm_id":"4788487445","tag":{"amenity":"recycling","opening_hours":"Mo-Sa 07:00-19:00; PH Su off","operator":"Entsorgungsbetriebe Essen","recycling:cardboard":"yes","recycling:paper":"yes","recycling_type":"container"}},"type":"Feature"},
	{"geometry":{"coordinates":[6.964214,51.472468],"type":"Point"},"properties":{"osm_id":"4788487446","tag":{"amenity":"recycling","opening_hours":"Mo-Sa 07:00-19:00; PH Su off","operator":"Loop","recycling:clothes":"yes","recycling:shoes":"yes","recycling_type":"container"}},"type":"Feature"},
	{"geometry":{"coordinates":[6.964168,51.472435],"type":"Point"},"properties":{"osm_id":"4788487447","tag":{"amenity":"recycling","opening_hours":"Mo-Sa 07:00-19:00; PH Su off","operator":"Rhenus Logistics","recycling:glass_bottles":"yes","recycling_type":"container"}},"type":"Feature"},
	{"geometry":{"coordinates":[7.027742,51.457287],"type":"Point"},"properties":{"osm_id":"4919596264","tag":{"amenity":"waste_basket"}},"type":"Feature"},
	{"geometry":{"coordinates":[7.028975,51.457485],"type":"Point"},"properties":{"osm_id":"4919596265","tag":{"amenity":"waste_basket"}},"type":"Feature"},
	{"geometry":{"coordinates":[7.028315,51.45736],"type":"Point"},"properties":{"osm_id":"4919596266","tag":{"amenity":"waste_basket"}},"type":"Feature"},
	{"geometry":{"coordinates":[7.029933,51.457382],"type":"Point"},"properties":{"osm_id":"4919596267","tag":{"amenity":"waste_basket"}},"type":"Feature"},
	{"geometry":{"coordinates":[7.030476,51.45749],"type":"Point"},"properties":{"osm_id":"4919596268","tag":{"amenity":"waste_basket"}},"type":"Feature"},
	{"geometry":{"coordinates":[7.022147,51.457505],"type":"Point"},"properties":{"osm_id":"4920783707","tag":{"amenity":"waste_basket"}},"type":"Feature"},
	{"geometry":{"coordinates":[7.021479,51.457216],"type":"Point"},"properties":{"osm_id":"4920783708","tag":{"amenity":"waste_basket"}},"type":"Feature"},
	{"geometry":{"coordinates":[7.020504,51.456853],"type":"Point"},"properties":{"osm_id":"4920783709","tag":{"amenity":"waste_basket"}},"type":"Feature"},
	{"geometry":{"coordinates":[7.019869,51.457951],"type":"Point"},"properties":{"osm_id":"4920783710","tag":{"amenity":"waste_basket"}},"type":"Feature"},
	{"geometry":{"coordinates":[7.019674,51.458374],"type":"Point"},"properties":{"osm_id":"4920783711","tag":{"amenity":"waste_basket"}},"type":"Feature"},
	{"geometry":{"coordinates":[7.019572,51.458424],"type":"Point"},"properties":{"osm_id":"4920783712","tag":{"amenity":"waste_basket"}},"type":"Feature"},
	{"geometry":{"coordinates":[7.019828,51.45851],"type":"Point"},"properties":{"osm_id":"4920783713","tag":{"amenity":"waste_basket"}},"type":"Feature"},
	{"geometry":{"coordinates":[7.004143,51.459402],"type":"Point"},"properties":{"osm_id":"5021884553","tag":{"amenity":"waste_basket","level":"-3"}},"type":"Feature"},
	{"geometry":{"coordinates":[7.00413,51.459444],"type":"Point"},"properties":{"osm_id":"5021887326","tag":{"amenity":"waste_basket","level":"-3"}},"type":"Feature"},
	{"geometry":{"coordinates":[6.954069,51.472545],"type":"Point"},"properties":{"osm_id":"5156802088","tag":{"amenity":"recycling","opening_hours":"Mo-Sa 07:00-19:00; PH Su off","operator":"Loop","recycling:clothes":"yes","recycling:shoes":"yes","recycling_type":"container"}},"type":"Feature"},
	{"geometry":{"coordinates":[6.954577,51.470337],"type":"Point"},"properties":{"osm_id":"5157023640","tag":{"amenity":"recycling","opening_hours":"Mo-Sa 07:00-19:00; PH Su off","operator":"Rhenus Logistics","recycling:glass_bottles":"yes","recycling_type":"container"}},"type":"Feature"},
	{"geometry":{"coordinates":[6.95459,51.470349],"type":"Point"},"properties":{"osm_id":"5157023851","tag":{"amenity":"recycling","opening_hours":"Mo-Sa 07:00-19:00; PH Su off","operator":"Rhenus Logistics","recycling:glass_bottles":"yes","recycling_type":"container"}},"type":"Feature"},
	{"geometry":{"coordinates":[7.016136,51.461621],"type":"Point"},"properties":{"osm_id":"5202429944","tag":{"amenity":"waste_basket"}},"type":"Feature"},
	{"geometry":{"coordinates":[6.976908,51.45644],"type":"Point"},"properties":{"osm_id":"5225100946","tag":{"amenity":"waste_basket"}},"type":"Feature"},
	{"geometry":{"coordinates":[6.976878,51.456317],"type":"Point"},"properties":{"osm_id":"5225100947","tag":{"amenity":"waste_basket"}},"type":"Feature"},
	{"geometry":{"coordinates":[7.003647,51.45918],"type":"Point"},"properties":{"osm_id":"5279647324","tag":{"amenity":"waste_basket","level":"-3"}},"type":"Feature"},
	{"geometry":{"coordinates":[7.014898,51.470725],"type":"Point"},"properties":{"osm_id":"5355205385","tag":{"amenity":"waste_basket"}},"type":"Feature"},
	{"geometry":{"coordinates":[7.014772,51.470753],"type":"Point"},"properties":{"osm_id":"5355205386","tag":{"amenity":"waste_basket"}},"type":"Feature"},
	{"geometry":{"coordinates":[7.015019,51.471028],"type":"Point"},"properties":{"osm_id":"5357146086","tag":{"amenity":"waste_basket"}},"type":"Feature"},
	{"geometry":{"coordinates":[7.014998,51.470993],"type":"Point"},"properties":{"osm_id":"5357146087","tag":{"amenity":"waste_basket"}},"type":"Feature"},
	{"geometry":{"coordinates":[7.011676,51.504081],"type":"Point"},"properties":{"osm_id":"5469704839","tag":{"amenity":"waste_basket"}},"type":"Feature"},
	{"geometry":{"coordinates":[7.007031,51.463924],"type":"Point"},"properties":{"osm_id":"5638046039","tag":{"amenity":"waste_basket"}},"type":"Feature"},
	{"geometry":{"coordinates":[7.000438,51.467689],"type":"Point"},"properties":{"osm_id":"5638054943","tag":{"amenity":"waste_basket"}},"type":"Feature"},
	{"geometry":{"coordinates":[7.000364,51.467446],"type":"Point"},"properties":{"osm_id":"5638054947","tag":{"amenity":"waste_basket"}},"type":"Feature"},
	{"geometry":{"coordinates":[7.000081,51.467548],"type":"Point"},"properties":{"osm_id":"5638054949","tag":{"amenity":"waste_basket"}},"type":"Feature"},
	{"geometry":{"coordinates":[7.006538,51.464071],"type":"Point"},"properties":{"osm_id":"5829980240","tag":{"amenity":"waste_basket","waste":"trash"}},"type":"Feature"},
	{"geometry":{"coordinates":[7.006756,51.476313],"type":"Point"},"properties":{"osm_id":"5834606098","tag":{"amenity":"waste_basket"}},"type":"Feature"},
	{"geometry":{"coordinates":[7.006757,51.476259],"type":"Point"},"properties":{"osm_id":"5834606099","tag":{"amenity":"waste_basket"}},"type":"Feature"},
	{"geometry":{"coordinates":[7.00534,51.476788],"type":"Point"},"properties":{"osm_id":"5834732094","tag":{"amenity":"waste_basket"}},"type":"Feature"},
	{"geometry":{"coordinates":[7.001857,51.476549],"type":"Point"},"properties":{"osm_id":"5834732097","tag":{"amenity":"waste_basket"}},"type":"Feature"},
	{"geometry":{"coordinates":[7.002862,51.475948],"type":"Point"},"properties":{"osm_id":"5834732102","tag":{"amenity":"waste_basket"}},"type":"Feature"},
	{"geometry":{"coordinates":[7.001355,51.45888],"type":"Point"},"properties":{"osm_id":"6046845913","tag":{"amenity":"waste_basket"}},"type":"Feature"},
	{"geometry":{"coordinates":[7.00193,51.458946],"type":"Point"},"properties":{"osm_id":"6046845914","tag":{"amenity":"waste_basket"}},"type":"Feature"},
	{"geometry":{"coordinates":[7.004843,51.463206],"type":"Point"},"properties":{"osm_id":"6263844272","tag":{"amenity":"waste_basket"}},"type":"Feature"},
	{"geometry":{"coordinates":[7.012155,51.481674],"type":"Point"},"properties":{"osm_id":"6431136728","tag":{"amenity":"waste_basket"}},"type":"Feature"},
	{"geometry":{"coordinates":[7.012623,51.481487],"type":"Point"},"properties":{"osm_id":"6431136730","tag":{"amenity":"waste_basket"}},"type":"Feature"},
	{"geometry":{"coordinates":[7.012906,51.455779],"type":"Point"},"properties":{"osm_id":"6964157629","tag":{"amenity":"waste_basket"}},"type":"Feature"},
	{"geometry":{"coordinates":[7.01289,51.455933],"type":"Point"},"properties":{"osm_id":"6964157630","tag":{"amenity":"waste_basket"}},"type":"Feature"},
	{"geometry":{"coordinates":[7.012864,51.456061],"type":"Point"},"properties":{"osm_id":"6964157631","tag":{"amenity":"waste_basket"}},"type":"Feature"},
	{"geometry":{"coordinates":[7.012804,51.45633],"type":"Point"},"properties":{"osm_id":"6964157632","tag":{"amenity":"waste_basket"}},"type":"Feature"},
	{"geometry":{"coordinates":[7.012667,51.456438],"type":"Point"},"properties":{"osm_id":"6964157633","tag":{"amenity":"waste_basket"}},"type":"Feature"},
	{"geometry":{"coordinates":[7.012665,51.4565],"type":"Point"},"properties":{"osm_id":"6964157634","tag":{"amenity":"waste_basket"}},"type":"Feature"},
	{"geometry":{"coordinates":[7.011207,51.457125],"type":"Point"},"properties":{"osm_id":"6964157635","tag":{"amenity":"waste_basket"}},"type":"Feature"},
	{"geometry":{"coordinates":[7.010684,51.457033],"type":"Point"},"properties":{"osm_id":"6964157636","tag":{"amenity":"waste_basket"}},"type":"Feature"},
	{"geometry":{"coordinates":[7.010244,51.455812],"type":"Point"},"properties":{"osm_id":"6964157637","tag":{"amenity":"waste_basket"}},"type":"Feature"},
	{"geometry":{"coordinates":[7.010571,51.455011],"type":"Point"},"properties":{"osm_id":"6964157643","tag":{"amenity":"waste_basket"}},"type":"Feature"},
	{"geometry":{"coordinates":[7.01154,51.454954],"type":"Point"},"properties":{"osm_id":"6964157645","tag":{"amenity":"waste_basket"}},"type":"Feature"},
	{"geometry":{"coordinates":[7.011655,51.454956],"type":"Point"},"properties":{"osm_id":"6964157646","tag":{"amenity":"waste_basket"}},"type":"Feature"},
	{"geometry":{"coordinates":[7.012334,51.454523],"type":"Point"},"properties":{"osm_id":"6964157650","tag":{"amenity":"waste_basket"}},"type":"Feature"},
	{"geometry":{"coordinates":[7.012102,51.454283],"type":"Point"},"properties":{"osm_id":"6964157651","tag":{"amenity":"waste_basket"}},"type":"Feature"},
	{"geometry":{"coordinates":[7.003947,51.479269],"type":"Point"},"properties":{"osm_id":"7001594937","tag":{"amenity":"waste_basket","layer":"-2","level":"-2"}},"type":"Feature"},
	{"geometry":{"coordinates":[7.004387,51.479433],"type":"Point"},"properties":{"osm_id":"7001594938","tag":{"amenity":"waste_basket","layer":"-2","level":"-2"}},"type":"Feature"},
	{"geometry":{"coordinates":[7.004422,51.479399],"type":"Point"},"properties":{"osm_id":"7001594939","tag":{"amenity":"waste_basket","layer":"-2","level":"-2"}},"type":"Feature"},
	{"geometry":{"coordinates":[7.003977,51.479236],"type":"Point"},"properties":{"osm_id":"7001594948","tag":{"amenity":"waste_basket","layer":"-2","level":"-2"}},"type":"Feature"},
	{"geometry":{"coordinates":[7.009402,51.491177],"type":"Point"},"properties":{"osm_id":"7002358584","tag":{"amenity":"waste_basket","layer":"-2","level":"-2"}},"type":"Feature"},
	{"geometry":{"coordinates":[7.009338,51.490955],"type":"Point"},"properties":{"osm_id":"7002371485","tag":{"amenity":"waste_basket","layer":"-2","level":"-2"}},"type":"Feature"},
	{"geometry":{"coordinates":[7.009357,51.491014],"type":"Point"},"properties":{"osm_id":"7002371487","tag":{"amenity":"waste_basket","layer":"-2","level":"-2"}},"type":"Feature"},
	{"geometry":{"coordinates":[7.009296,51.490815],"type":"Point"},"properties":{"osm_id":"7002371490","tag":{"amenity":"waste_basket","layer":"-2","level":"-2"}},"type":"Feature"},
	{"geometry":{"coordinates":[7.009583,51.491163],"type":"Point"},"properties":{"osm_id":"7002371499","tag":{"amenity":"waste_basket","layer":"-2","level":"-2"}},"type":"Feature"},
	{"geometry":{"coordinates":[7.009545,51.490999],"type":"Point"},"properties":{"osm_id":"7002371500","tag":{"amenity":"waste_basket","layer":"-2","level":"-2"}},"type":"Feature"},
	{"geometry":{"coordinates":[7.009527,51.49094],"type":"Point"},"properties":{"osm_id":"7002371501","tag":{"amenity":"waste_basket","layer":"-2","level":"-2"}},"type":"Feature"},
	{"geometry":{"coordinates":[7.00949,51.490799],"type":"Point"},"properties":{"osm_id":"7002371502","tag":{"amenity":"waste_basket","layer":"-2","level":"-2"}},"type":"Feature"},
	{"geometry":{"coordinates":[7.012806,51.455023],"type":"Point"},"properties":{"osm_id":"7117999835","tag":{"amenity":"waste_basket"}},"type":"Feature"},
	{"geometry":{"coordinates":[7.013374,51.458971],"type":"Point"},"properties":{"osm_id":"7117999838","tag":{"amenity":"waste_basket"}},"type":"Feature"},
	{"geometry":{"coordinates":[7.012364,51.459765],"type":"Point"},"properties":{"osm_id":"7117999843","tag":{"amenity":"waste_basket"}},"type":"Feature"},
	{"geometry":{"coordinates":[7.012295,51.459201],"type":"Point"},"properties":{"osm_id":"7117999845","tag":{"amenity":"waste_basket"}},"type":"Feature"},
	{"geometry":{"coordinates":[7.012184,51.459123],"type":"Point"},"properties":{"osm_id":"7117999846","tag":{"amenity":"waste_basket"}},"type":"Feature"},
	{"geometry":{"coordinates":[7.012088,51.458603],"type":"Point"},"properties":{"osm_id":"7117999848","tag":{"amenity":"waste_basket"}},"type":"Feature"},
	{"geometry":{"coordinates":[7.012306,51.458251],"type":"Point"},"properties":{"osm_id":"7117999849","tag":{"amenity":"waste_basket"}},"type":"Feature"},
	{"geometry":{"coordinates":[7.01629,51.459025],"type":"Point"},"properties":{"osm_id":"7261639814","tag":{"amenity":"waste_basket"}},"type":"Feature"},
	{"geometry":{"coordinates":[7.009457,51.461772],"type":"Point"},"properties":{"osm_id":"7306730819","tag":{"amenity":"waste_basket"}},"type":"Feature"},
	{"geometry":{"coordinates":[7.010339,51.46199],"type":"Point"},"properties":{"osm_id":"7306730824","tag":{"amenity":"waste_basket"}},"type":"Feature"},
	{"geometry":{"coordinates":[7.010989,51.461947],"type":"Point"},"properties":{"osm_id":"7306730825","tag":{"amenity":"waste_basket"}},"type":"Feature"},
	{"geometry":{"coordinates":[7.01513,51.460967],"type":"Point"},"properties":{"osm_id":"7353790253","tag":{"amenity":"waste_basket","layer":"-1","level":"-1"}},"type":"Feature"},
	{"geometry":{"coordinates":[7.015664,51.461863],"type":"Point"},"properties":{"osm_id":"7353790254","tag":{"amenity":"waste_basket","layer":"-1","level":"-1"}},"type":"Feature"},
	{"geometry":{"coordinates":[7.000483,51.47442],"type":"Point"},"properties":{"osm_id":"7358966905","tag":{"amenity":"waste_basket","backrest":"yes","layer":"-2","level":"-2"}},"type":"Feature"},
	{"geometry":{"coordinates":[7.000436,51.474416],"type":"Point"},"properties":{"osm_id":"7358966906","tag":{"amenity":"waste_basket","backrest":"yes","layer":"-2","level":"-2"}},"type":"Feature"},
	{"geometry":{"coordinates":[7.000551,51.474166],"type":"Point"},"properties":{"osm_id":"7358966907","tag":{"amenity":"waste_basket","backrest":"yes","layer":"-2","level":"-2"}},"type":"Feature"},
	{"geometry":{"coordinates":[7.000504,51.474161],"type":"Point"},"properties":{"osm_id":"7358966908","tag":{"amenity":"waste_basket","backrest":"yes","layer":"-2","level":"-2"}},"type":"Feature"},
	{"geometry":{"coordinates":[7.000588,51.474028],"type":"Point"},"properties":{"osm_id":"7358966909","tag":{"amenity":"waste_basket","backrest":"yes","layer":"-2","level":"-2"}},"type":"Feature"},
	{"geometry":{"coordinates":[7.000541,51.474024],"type":"Point"},"properties":{"osm_id":"7358966910","tag":{"amenity":"waste_basket","backrest":"yes","layer":"-2","level":"-2"}},"type":"Feature"},
	{"geometry":{"coordinates":[7.00181,51.465457],"type":"Point"},"properties":{"osm_id":"7362387536","tag":{"amenity":"waste_basket","layer":"-1","level":"-1"}},"type":"Feature"},
	{"geometry":{"coordinates":[7.001569,51.465468],"type":"Point"},"properties":{"osm_id":"7362387541","tag":{"amenity":"waste_basket","layer":"-1","level":"-1"}},"type":"Feature"},
	{"geometry":{"coordinates":[7.001797,51.465272],"type":"Point"},"properties":{"osm_id":"7362387542","tag":{"amenity":"waste_basket","layer":"-1","level":"-1"}},"type":"Feature"},
	{"geometry":{"coordinates":[7.007893,51.501165],"type":"Point"},"properties":{"osm_id":"7379710648","tag":{"amenity":"waste_basket","indoor":"yes","layer":"-2","level":"-2"}},"type":"Feature"},
	{"geometry":{"coordinates":[7.007715,51.501157],"type":"Point"},"properties":{"osm_id":"7379710649","tag":{"amenity":"waste_basket","indoor":"yes","layer":"-2","level":"-2"}},"type":"Feature"},
	{"geometry":{"coordinates":[7.007905,51.50095],"type":"Point"},"properties":{"osm_id":"7379710650","tag":{"amenity":"waste_basket","indoor":"yes","layer":"-2","level":"-2"}},"type":"Feature"},
	{"geometry":{"coordinates":[7.00773,51.500942],"type":"Point"},"properties":{"osm_id":"7379710651","tag":{"amenity":"waste_basket","indoor":"yes","layer":"-2","level":"-2"}},"type":"Feature"},
	{"geometry":{"coordinates":[7.007926,51.500594],"type":"Point"},"properties":{"osm_id":"7379710652","tag":{"amenity":"waste_basket","indoor":"yes","layer":"-2","level":"-2"}},"type":"Feature"},
	{"geometry":{"coordinates":[7.007753,51.500592],"type":"Point"},"properties":{"osm_id":"7379710653","tag":{"amenity":"waste_basket","indoor":"yes","layer":"-2","level":"-2"}},"type":"Feature"},
	{"geometry":{"coordinates":[7.007765,51.50038],"type":"Point"},"properties":{"osm_id":"7379710654","tag":{"amenity":"waste_basket","indoor":"yes","layer":"-2","level":"-2"}},"type":"Feature"},
	{"geometry":{"coordinates":[7.007938,51.50038],"type":"Point"},"properties":{"osm_id":"7379710655","tag":{"amenity":"waste_basket","indoor":"yes","layer":"-2","level":"-2"}},"type":"Feature"},
	{"geometry":{"coordinates":[7.007814,51.500017],"type":"Point"},"properties":{"osm_id":"7379710667","tag":{"amenity":"waste_basket","indoor":"yes","layer":"-1","level":"-1"}},"type":"Feature"},
	{"geometry":{"coordinates":[6.947873,51.473728],"type":"Point"},"properties":{"osm_id":"7897000393","tag":{"amenity":"waste_basket","layer":"1","level":"1"}},"type":"Feature"},
	{"geometry":{"coordinates":[6.948383,51.473191],"type":"Point"},"properties":{"osm_id":"7897000394","tag":{"amenity":"waste_basket","layer":"1","level":"1"}},"type":"Feature"},
	{"geometry":{"coordinates":[6.948512,51.473052],"type":"Point"},"properties":{"osm_id":"7897000395","tag":{"amenity":"waste_basket","layer":"1","level":"1"}},"type":"Feature"}
]
}
