{
"type": "FeatureCollection",
"features": [
	{"geometry":{"coordinates":[7.01691,51.377712],"type":"Point"},"properties":{"osm_id":"345799619","tag":{"amenity":"recycling","opening_hours":"Mo-Sa 07:00-19:00; PH Su off","operator":"Entsorgungsbetriebe Essen","recycling:cardboard":"yes","recycling:paper":"yes","recycling_type":"container"}},"type":"Feature"},
	{"geometry":{"coordinates":[7.01764,51.378414],"type":"Point"},"properties":{"osm_id":"345800792","tag":{"amenity":"recycling","opening_hours":"Mo-Sa 07:00-19:00; PH Su off","operator":"Rhenus Logistics","recycling:glass_bottles":"yes","recycling_type":"container"}},"type":"Feature"},
	{"geometry":{"coordinates":[7.022332,51.382002],"type":"Point"},"properties":{"osm_id":"345801406","tag":{"amenity":"recycling","opening_hours":"Mo-Sa 07:00-19:00; PH Su off","operator":"Rhenus Logistics","recycling:glass_bottles":"yes","recycling_type":"container"}},"type":"Feature"},
	{"geometry":{"coordinates":[7.02409,51.383917],"type":"Point"},"properties":{"osm_id":"345801938","tag":{"amenity":"recycling","opening_hours":"Mo-Sa 07:00-19:00; PH Su off","operator":"Rhenus Logistics","recycling:glass_bottles":"yes","recycling_type":"container"}},"type":"Feature"},
	{"geometry":{"coordinates":[7.027098,51.385273],"type":"Point"},"properties":{"osm_id":"345805163","tag":{"amenity":"recycling","opening_hours":"Mo-Sa 07:00-19:00; PH Su off","operator":"Rhenus Logistics","recycling:glass_bottles":"yes","recycling_type":"container"}},"type":"Feature"},
	{"geometry":{"coordinates":[7.027052,51.389378],"type":"Point"},"properties":{"osm_id":"364930050","tag":{"amenity":"recycling","opening_hours":"Mo-Sa 07:00-19:00; PH Su off","operator":"Rhenus Logistics","recycling:glass_bottles":"yes","recycling_type":"container"}},"type":"Feature"},
	{"geometry":{"coordinates":[7.008787,51.396546],"type":"Point"},"properties":{"osm_id":"428561250","tag":{"amenity":"recycling","opening_hours":"Mo-Sa 07:00-19:00; PH Su off","operator":"Rhenus Logistics","recycling:glass_bottles":"yes","recycling_type":"container"}},"type":"Feature"},
	{"geometry":{"coordinates":[7.011697,51.393174],"type":"Point"},"properties":{"osm_id":"428573484","tag":{"amenity":"recycling","opening_hours":"Mo-Sa 07:00-19:00; PH Su off","operator":"Rhenus Logistics","recycling:glass_bottles":"yes","recycling_type":"container"}},"type":"Feature"},
	{"geometry":{"coordinates":[7.01675,51.393983],"type":"Point"},"properties":{"osm_id":"428578397","tag":{"amenity":"recycling","opening_hours":"Mo-Sa 07:00-19:00; PH Su off","operator":"Rhenus Logistics","recycling:glass_bottles":"yes","recycling_type":"container"}},"type":"Feature"},
	{"geometry":{"coordinates":[7.005187,51.379809],"type":"Point"},"properties":{"osm_id":"428580907","tag":{"amenity":"recycling","opening_hours":"Mo-Sa 07:00-19:00; PH Su off","operator":"Entsorgungsbetriebe Essen","recycling:cardboard":"yes","recycling:paper":"yes","recycling_type":"container"}},"type":"Feature"},
	{"geometry":{"coordinates":[6.995206,51.382866],"type":"Point"},"properties":{"osm_id":"428596761","tag":{"amenity":"recycling","opening_hours":"Mo-Sa 07:00-19:00; PH Su off","operator":"Rhenus Logistics","recycling:glass_bottles":"yes","recycling_type":"container"}},"type":"Feature"},
	{"geometry":{"coordinates":[6.985011,51.381952],"type":"Point"},"properties":{"osm_id":"429273581","tag":{"amenity":"recycling","opening_hours":"Mo-Sa 07:00-19:00; PH Su off","operator":"Rhenus Logistics","recycling:glass_bottles":"yes","recycling_type":"container"}},"type":"Feature"},
	{"geometry":{"coordinates":[6.943787,51.35849],"type":"Point"},"properties":{"osm_id":"692964056","tag":{"amenity":"waste_basket"}},"type":"Feature"},
	{"geometry":{"coordinates":[6.944062,51.358473],"type":"Point"},"properties":{"osm_id":"692964066","tag":{"amenity":"waste_basket"}},"type":"Feature"},
	{"geometry":{"coordinates":[6.949004,51.359624],"type":"Point"},"properties":{"osm_id":"692964077","tag":{"amenity":"waste_basket"}},"type":"Feature"},
	{"geometry":{"coordinates":[6.951274,51.360911],"type":"Point"},"properties":{"osm_id":"692964093","tag":{"amenity":"waste_basket","waste":"trash"}},"type":"Feature"},
	{"geometry":{"coordinates":[6.956893,51.364499],"type":"Point"},"properties":{"osm_id":"692964100","tag":{"amenity":"waste_basket"}},"type":"Feature"},
	{"geometry":{"coordinates":[6.958951,51.36612],"type":"Point"},"properties":{"osm_id":"692964104","tag":{"amenity":"waste_basket"}},"type":"Feature"},
	{"geometry":{"coordinates":[6.999501,51.390546],"type":"Point"},"properties":{"osm_id":"975692730","tag":{"amenity":"waste_basket"}},"type":"Feature"},
	{"geometry":{"coordinates":[6.998572,51.389198],"type":"Point"},"properties":{"osm_id":"975698381","tag":{"amenity":"waste_basket","waste":"trash"}},"type":"Feature"},
	{"geometry":{"coordinates":[6.998783,51.389137],"type":"Point"},"properties":{"osm_id":"975698384","tag":{"amenity":"waste_basket","waste":"trash"}},"type":"Feature"},
	{"geometry":{"coordinates":[6.998753,51.389242],"type":"Point"},"properties":{"osm_id":"975698387","tag":{"amenity":"waste_basket","waste":"trash"}},"type":"Feature"},
	{"geometry":{"coordinates":[7.02843,51.347797],"type":"Point"},"properties":{"osm_id":"1051975588","tag":{"amenity":"recycling","check_date":"2017-05-25","opening_hours":"Mo-Sa 07:00-20:00; PH off","operator":"Technische Betriebe Velbert A\u00c3\u00b6R","recycling:glass_bottles":"yes","recycling:paper":"yes","recycling_type":"container"}},"type":"Feature"},
	{"geometry":{"coordinates":[7.025028,51.392819],"type":"Point"},"properties":{"osm_id":"1668877811","tag":{"amenity":"recycling","opening_hours":"Mo-Sa 07:00-19:00; PH Su off","operator":"Rhenus Logistics","recycling:glass_bottles":"yes","recycling_type":"container"}},"type":"Feature"},
	{"geometry":{"coordinates":[7.013823,51.380444],"type":"Point"},"properties":{"osm_id":"1888316683","tag":{"amenity":"recycling","opening_hours":"Mo-Sa 07:00-19:00; PH Su off","operator":"Rhenus Logistics","recycling:glass_bottles":"yes","recycling_type":"container"}},"type":"Feature"},
	{"geometry":{"coordinates":[7.031115,51.350697],"type":"Point"},"properties":{"osm_id":"1981497073","tag":{"amenity":"recycling","check_date":"2017-05-25","opening_hours":"Mo-Sa 07:00-20:00; PH off","operator":"Technische Betriebe Velbert A\u00c3\u00b6R","recycling:glass_bottles":"yes","recycling:paper":"yes","recycling_type":"container"}},"type":"Feature"},
	{"geometry":{"coordinates":[7.026591,51.385349],"type":"Point"},"properties":{"osm_id":"2460634565","tag":{"amenity":"waste_basket"}},"type":"Feature"},
	{"geometry":{"coordinates":[7.010074,51.347862],"type":"Point"},"properties":{"osm_id":"2465182143","tag":{"amenity":"recycling","check_date":"2017-05-25","opening_hours":"Mo-Sa 07:00-20:00; PH off","operator":"Technische Betriebe Velbert A\u00c3\u00b6R","recycling:clothes":"yes","recycling:glass_bottles":"yes","recycling:paper":"yes","recycling_type":"container"}},"type":"Feature"},
	{"geometry":{"coordinates":[7.015114,51.349424],"type":"Point"},"properties":{"osm_id":"2465182146","tag":{"amenity":"recycling","check_date":"2017-05-25","opening_hours":"Mo-Sa 07:00-20:00; PH off","operator":"Technische Betriebe Velbert A\u00c3\u00b6R","recycling:clothes":"yes","recycling:glass_bottles":"yes","recycling:paper":"yes","recycling_type":"container"}},"type":"Feature"},
	{"geometry":{"coordinates":[7.00769,51.387858],"type":"Point"},"properties":{"osm_id":"2559597870","tag":{"amenity":"recycling","location":"underground","opening_hours":"Mo-Sa 07:00-19:00; PH Su off","operator":"Entsorgungsbetriebe Essen","recycling:cardboard":"yes","recycling:paper":"yes","recycling_type":"container"}},"type":"Feature"},
	{"geometry":{"coordinates":[7.007678,51.387977],"type":"Point"},"properties":{"osm_id":"2559597871","tag":{"amenity":"recycling","location":"overground","opening_hours":"Mo-Sa 07:00-19:00; PH Su off","operator":"Rhenus Logistics","recycling:glass_bottles":"yes","recycling_type":"container"}},"type":"Feature"},
	{"geometry":{"coordinates":[7.016598,51.372603],"type":"Point"},"properties":{"osm_id":"2803671437","tag":{"amenity":"recycling","opening_hours":"Mo-Sa 07:00-19:00; PH Su off","operator":"Rhenus Logistics","recycling:glass_bottles":"yes","recycling_type":"container"}},"type":"Feature"},
	{"geometry":{"coordinates":[7.012565,51.375106],"type":"Point"},"properties":{"osm_id":"3118930044","tag":{"amenity":"waste_basket"}},"type":"Feature"},
	{"geometry":{"coordinates":[7.012917,51.375115],"type":"Point"},"properties":{"osm_id":"3118930045","tag":{"amenity":"waste_basket"}},"type":"Feature"},
	{"geometry":{"coordinates":[7.012499,51.37528],"type":"Point"},"properties":{"osm_id":"3118930055","tag":{"amenity":"waste_basket"}},"type":"Feature"},
	{"geometry":{"coordinates":[7.009185,51.378836],"type":"Point"},"properties":{"osm_id":"3120491279","tag":{"amenity":"waste_basket"}},"type":"Feature"},
	{"geometry":{"coordinates":[7.015428,51.379605],"type":"Point"},"properties":{"osm_id":"3120679445","tag":{"amenity":"waste_basket"}},"type":"Feature"},
	{"geometry":{"coordinates":[7.015114,51.379769],"type":"Point"},"properties":{"osm_id":"3120679473","tag":{"amenity":"waste_basket"}},"type":"Feature"},
	{"geometry":{"coordinates":[6.951468,51.374806],"type":"Point"},"properties":{"osm_id":"3628330062","tag":{"amenity":"recycling","opening_hours":"Mo-Sa 07:00-19:00; PH Su off","operator":"Rhenus Logistics","recycling:glass_bottles":"yes","recycling_type":"container"}},"type":"Feature"},
	{"geometry":{"coordinates":[7.011719,51.350181],"type":"Point"},"properties":{"osm_id":"3925971815","tag":{"amenity":"waste_basket","waste":"trash"}},"type":"Feature"},
	{"geometry":{"coordinates":[7.011929,51.350257],"type":"Point"},"properties":{"osm_id":"3925971821","tag":{"amenity":"waste_basket","waste":"trash"}},"type":"Feature"},
	{"geometry":{"coordinates":[7.012088,51.350302],"type":"Point"},"properties":{"osm_id":"3925971827","tag":{"amenity":"waste_basket","waste":"trash"}},"type":"Feature"},
	{"geometry":{"coordinates":[7.012084,51.350106],"type":"Point"},"properties":{"osm_id":"3938109271","tag":{"amenity":"waste_basket","waste":"trash"}},"type":"Feature"},
	{"geometry":{"coordinates":[6.987515,51.378699],"type":"Point"},"properties":{"osm_id":"4676963800","tag":{"amenity":"recycling","recycling:small_appliances":"yes","recycling_type":"container"}},"type":"Feature"},
	{"geometry":{"coordinates":[6.987609,51.378524],"type":"Point"},"properties":{"osm_id":"4676963801","tag":{"amenity":"recycling","description":"\"Sperrm\u00c3\u00bcll\" -> Gartengarnitur/Sessel/Tisch/Schr\u00c3\u00a4nke/...","recycling:bulky_waste":"yes","recycling_type":"container"}},"type":"Feature"},
	{"geometry":{"coordinates":[6.987766,51.378676],"type":"Point"},"properties":{"osm_id":"4676963802","tag":{"amenity":"recycling","recycling:waste":"yes","recycling_type":"container"}},"type":"Feature"},
	{"geometry":{"coordinates":[6.987558,51.378611],"type":"Point"},"properties":{"osm_id":"4676963803","tag":{"amenity":"recycling","recycling:scrap_metal":"yes","recycling_type":"container"}},"type":"Feature"},
	{"geometry":{"coordinates":[6.987854,51.378734],"type":"Point"},"properties":{"osm_id":"4676963805","tag":{"amenity":"recycling","recycling:fluorescent_tubes":"yes","recycling_type":"container"}},"type":"Feature"},
	{"geometry":{"coordinates":[6.987924,51.378419],"type":"Point"},"properties":{"osm_id":"4676963806","tag":{"amenity":"recycling","recycling:hardcore":"yes","recycling_type":"container"}},"type":"Feature"},
	{"geometry":{"coordinates":[6.988144,51.378538],"type":"Point"},"properties":{"osm_id":"4676963807","tag":{"amenity":"recycling","recycling:garden_waste":"yes","recycling:green_waste":"yes","recycling_type":"container"}},"type":"Feature"},
	{"geometry":{"coordinates":[6.987909,51.378566],"type":"Point"},"properties":{"osm_id":"4676963808","tag":{"amenity":"recycling","operator":"Rhenus Logistics","recycling:glass_bottles":"yes","recycling_type":"container"}},"type":"Feature"},
	{"geometry":{"coordinates":[6.987861,51.37853],"type":"Point"},"properties":{"osm_id":"4676963809","tag":{"amenity":"recycling","operator":"Loop","recycling:clothes":"yes","recycling:shoes":"yes","recycling_type":"container"}},"type":"Feature"},
	{"geometry":{"coordinates":[7.000429,51.383149],"type":"Point"},"properties":{"osm_id":"4676963810","tag":{"amenity":"recycling","opening_hours":"Mo-Sa 07:00-19:00; PH Su off","operator":"Entsorgungsbetriebe Essen","recycling:cardboard":"yes","recycling:paper":"yes","recycling_type":"container"}},"type":"Feature"},
	{"geometry":{"coordinates":[7.000417,51.383113],"type":"Point"},"properties":{"osm_id":"4676963811","tag":{"amenity":"recycling","opening_hours":"Mo-Sa 07:00-19:00; PH Su off","operator":"Loop","recycling:clothes":"yes","recycling:shoes":"yes","recycling_type":"container"}},"type":"Feature"},
	{"geometry":{"coordinates":[7.000412,51.383079],"type":"Point"},"properties":{"osm_id":"4676963812","tag":{"amenity":"recycling","opening_hours":"Mo-Sa 07:00-19:00; PH Su off","operator":"Rhenus Logistics","recycling:glass_bottles":"yes","recycling_type":"container"}},"type":"Feature"},
	{"geometry":{"coordinates":[6.992801,51.37915],"type":"Point"},"properties":{"osm_id":"4676963813","tag":{"amenity":"recycling","operator":"Rhenus Logistics","recycling:glass_bottles":"yes","recycling_type":"container"}},"type":"Feature"},
	{"geometry":{"coordinates":[6.985234,51.381977],"type":"Point"},"properties":{"osm_id":"4729390484","tag":{"amenity":"recycling","opening_hours":"Mo-Sa 07:00-19:00; PH Su off","operator":"Loop","recycling:clothes":"yes","recycling:shoes":"yes","recycling_type":"container"}},"type":"Feature"},
	{"geometry":{"coordinates":[6.98517,51.381971],"type":"Point"},"properties":{"osm_id":"4729390485","tag":{"amenity":"recycling","opening_hours":"Mo-Sa 07:00-19:00; PH Su off","operator":"Entsorgungsbetriebe Essen","recycling:cardboard":"yes","recycling:paper":"yes","recycling_type":"container"}},"type":"Feature"},
	{"geometry":{"coordinates":[7.007678,51.388033],"type":"Point"},"properties":{"osm_id":"4729390488","tag":{"amenity":"recycling","location":"overground","opening_hours":"Mo-Sa 07:00-19:00; PH Su off","operator":"Loop","recycling:clothes":"yes","recycling:shoes":"yes","recycling_type":"container"}},"type":"Feature"},
	{"geometry":{"coordinates":[7.02307,51.387344],"type":"Point"},"properties":{"osm_id":"4730729460","tag":{"amenity":"recycling","opening_hours":"Mo-Sa 07:00-19:00; PH Su off","operator":"Loop","recycling:clothes":"yes","recycling:shoes":"yes","recycling_type":"container"}},"type":"Feature"},
	{"geometry":{"coordinates":[7.023061,51.387361],"type":"Point"},"properties":{"osm_id":"4730729461","tag":{"amenity":"recycling","opening_hours":"Mo-Sa 07:00-19:00; PH Su off","operator":"Rhenus Logistics","recycling:glass_bottles":"yes","recycling_type":"container"}},"type":"Feature"},
	{"geometry":{"coordinates":[7.023077,51.387377],"type":"Point"},"properties":{"osm_id":"4730729462","tag":{"amenity":"recycling","opening_hours":"Mo-Sa 07:00-19:00; PH Su off","operator":"Entsorgungsbetriebe Essen","recycling:cardboard":"yes","recycling:paper":"yes","recycling_type":"container"}},"type":"Feature"},
	{"geometry":{"coordinates":[7.008823,51.396521],"type":"Point"},"properties":{"osm_id":"4730729464","tag":{"amenity":"recycling","opening_hours":"Mo-Sa 07:00-19:00; PH Su off","operator":"Entsorgungsbetriebe Essen","recycling:cardboard":"yes","recycling:paper":"yes","recycling_type":"container"}},"type":"Feature"},
	{"geometry":{"coordinates":[7.017687,51.37839],"type":"Point"},"properties":{"osm_id":"4730799176","tag":{"amenity":"recycling","opening_hours":"Mo-Sa 07:00-19:00; PH Su off","operator":"Loop","recycling:clothes":"yes","recycling:shoes":"yes","recycling_type":"container"}},"type":"Feature"},
	{"geometry":{"coordinates":[7.005154,51.379828],"type":"Point"},"properties":{"osm_id":"4730799179","tag":{"amenity":"recycling","opening_hours":"Mo-Sa 07:00-19:00; PH Su off","operator":"Loop","recycling:clothes":"yes","recycling:shoes":"yes","recycling_type":"container"}},"type":"Feature"},
	{"geometry":{"coordinates":[7.013872,51.380436],"type":"Point"},"properties":{"osm_id":"4730799181","tag":{"amenity":"recycling","opening_hours":"Mo-Sa 07:00-19:00; PH Su off","operator":"Loop","recycling:clothes":"yes","recycling:shoes":"yes","recycling_type":"container"}},"type":"Feature"},
	{"geometry":{"coordinates":[7.017962,51.384471],"type":"Point"},"properties":{"osm_id":"4730799212","tag":{"amenity":"recycling","opening_hours":"Mo-Sa 07:00-19:00; PH Su off","operator":"Rhenus Logistics","recycling:glass_bottles":"yes","recycling_type":"container"}},"type":"Feature"},
	{"geometry":{"coordinates":[7.022261,51.381932],"type":"Point"},"properties":{"osm_id":"4730799213","tag":{"amenity":"recycling","opening_hours":"Mo-Sa 07:00-19:00; PH Su off","operator":"Entsorgungsbetriebe Essen","recycling:cardboard":"yes","recycling:paper":"yes","recycling_type":"container"}},"type":"Feature"},
	{"geometry":{"coordinates":[7.022305,51.381975],"type":"Point"},"properties":{"osm_id":"4730799214","tag":{"amenity":"recycling","opening_hours":"Mo-Sa 07:00-19:00; PH Su off","operator":"Loop","recycling:clothes":"yes","recycling:shoes":"yes","recycling_type":"container"}},"type":"Feature"},
	{"geometry":{"coordinates":[7.024159,51.383988],"type":"Point"},"properties":{"osm_id":"4730799215","tag":{"amenity":"recycling","opening_hours":"Mo-Sa 07:00-19:00; PH Su off","operator":"Loop","recycling:clothes":"yes","recycling:shoes":"yes","recycling_type":"container"}},"type":"Feature"},
	{"geometry":{"coordinates":[7.024045,51.383879],"type":"Point"},"properties":{"osm_id":"4730799216","tag":{"amenity":"recycling","opening_hours":"Mo-Sa 07:00-19:00; PH Su off","operator":"Entsorgungsbetriebe Essen","recycling:cardboard":"yes","recycling:paper":"yes","recycling_type":"container"}},"type":"Feature"},
	{"geometry":{"coordinates":[7.025941,51.38479],"type":"Point"},"properties":{"osm_id":"4730799217","tag":{"amenity":"recycling","operator":"Diakoniewerk Essen","recycling:clothes":"yes","recycling:shoes":"yes","recycling_type":"container"}},"type":"Feature"},
	{"geometry":{"coordinates":[7.02705,51.385262],"type":"Point"},"properties":{"osm_id":"4730799939","tag":{"amenity":"recycling","opening_hours":"Mo-Sa 07:00-19:00; PH Su off","operator":"Loop","recycling:clothes":"yes","recycling:shoes":"yes","recycling_type":"container"}},"type":"Feature"},
	{"geometry":{"coordinates":[7.024087,51.390472],"type":"Point"},"properties":{"osm_id":"4730799941","tag":{"amenity":"recycling","opening_hours":"Mo-Sa 07:00-19:00; PH Su off","operator":"Loop","recycling:clothes":"yes","recycling:shoes":"yes","recycling_type":"container"}},"type":"Feature"},
	{"geometry":{"coordinates":[7.016844,51.394003],"type":"Point"},"properties":{"osm_id":"4732428580","tag":{"amenity":"recycling","opening_hours":"Mo-Sa 07:00-19:00; PH Su off","operator":"Entsorgungsbetriebe Essen","recycling:cardboard":"yes","recycling:paper":"yes","recycling_type":"container"}},"type":"Feature"},
	{"geometry":{"coordinates":[7.016693,51.393957],"type":"Point"},"properties":{"osm_id":"4732428581","tag":{"amenity":"recycling","opening_hours":"Mo-Sa 07:00-19:00; PH Su off","operator":"Loop","recycling:clothes":"yes","recycling:shoes":"yes","recycling_type":"container"}},"type":"Feature"},
	{"geometry":{"coordinates":[7.024922,51.392921],"type":"Point"},"properties":{"osm_id":"4732428591","tag":{"amenity":"recycling","opening_hours":"Mo-Sa 07:00-19:00; PH Su off","operator":"Loop","recycling:clothes":"yes","recycling:shoes":"yes","recycling_type":"container"}},"type":"Feature"},
	{"geometry":{"coordinates":[7.02496,51.392894],"type":"Point"},"properties":{"osm_id":"4732428592","tag":{"amenity":"recycling","opening_hours":"Mo-Sa 07:00-19:00; PH Su off","operator":"Entsorgungsbetriebe Essen","recycling:cardboard":"yes","recycling:paper":"yes","recycling_type":"container"}},"type":"Feature"},
	{"geometry":{"coordinates":[7.027121,51.389474],"type":"Point"},"properties":{"osm_id":"4732428593","tag":{"amenity":"recycling","opening_hours":"Mo-Sa 07:00-19:00; PH Su off","operator":"Loop","recycling:cardboard":"yes","recycling:paper":"yes","recycling_type":"container"}},"type":"Feature"},
	{"geometry":{"coordinates":[7.027097,51.389442],"type":"Point"},"properties":{"osm_id":"4732428594","tag":{"amenity":"recycling","opening_hours":"Mo-Sa 07:00-19:00; PH Su off","operator":"Entsorgungsbetriebe Essen","recycling:cardboard":"yes","recycling:paper":"yes","recycling_type":"container"}},"type":"Feature"},
	{"geometry":{"coordinates":[6.951429,51.374922],"type":"Point"},"properties":{"osm_id":"4773242324","tag":{"amenity":"recycling","opening_hours":"Mo-Sa 07:00-19:00; PH Su off","operator":"Loop","recycling:clothes":"yes","recycling:shoes":"yes","recycling_type":"container"}},"type":"Feature"},
	{"geometry":{"coordinates":[6.951448,51.374871],"type":"Point"},"properties":{"osm_id":"4773242325","tag":{"amenity":"recycling","opening_hours":"Mo-Sa 07:00-19:00; PH Su off","operator":"Entsorgungsbetriebe Essen","recycling:cardboard":"yes","recycling:paper":"yes","recycling_type":"container"}},"type":"Feature"},
	{"geometry":{"coordinates":[6.99957,51.393002],"type":"Point"},"properties":{"osm_id":"5287781714","tag":{"amenity":"waste_basket"}},"type":"Feature"},
	{"geometry":{"coordinates":[7.005933,51.387887],"type":"Point"},"properties":{"osm_id":"5580967958","tag":{"amenity":"waste_basket","waste":"trash"}},"type":"Feature"},
	{"geometry":{"coordinates":[7.005257,51.396046],"type":"Point"},"properties":{"osm_id":"5790053453","tag":{"amenity":"waste_basket"}},"type":"Feature"},
	{"geometry":{"coordinates":[7.000011,51.389102],"type":"Point"},"properties":{"osm_id":"6190442511","tag":{"amenity":"waste_basket"}},"type":"Feature"},
	{"geometry":{"coordinates":[7.000197,51.388803],"type":"Point"},"properties":{"osm_id":"6190442512","tag":{"amenity":"waste_basket"}},"type":"Feature"},
	{"geometry":{"coordinates":[6.999905,51.388668],"type":"Point"},"properties":{"osm_id":"6190442513","tag":{"amenity":"waste_basket"}},"type":"Feature"},
	{"geometry":{"coordinates":[7.000367,51.3882],"type":"Point"},"properties":{"osm_id":"6190442514","tag":{"amenity":"waste_basket"}},"type":"Feature"},
	{"geometry":{"coordinates":[7.000521,51.390165],"type":"Point"},"properties":{"osm_id":"6190442522","tag":{"amenity":"waste_basket"}},"type":"Feature"},
	{"geometry":{"coordinates":[7.000584,51.389869],"type":"Point"},"properties":{"osm_id":"6190442524","tag":{"amenity":"waste_basket"}},"type":"Feature"},
	{"geometry":{"coordinates":[7.000561,51.388804],"type":"Point"},"properties":{"osm_id":"6191850400","tag":{"amenity":"waste_basket"}},"type":"Feature"},
	{"geometry":{"coordinates":[7.00067,51.388826],"type":"Point"},"properties":{"osm_id":"6191850515","tag":{"amenity":"waste_basket"}},"type":"Feature"},
	{"geometry":{"coordinates":[7.00104,51.389748],"type":"Point"},"properties":{"osm_id":"6192288509","tag":{"amenity":"waste_basket"}},"type":"Feature"},
	{"geometry":{"coordinates":[7.000453,51.388749],"type":"Point"},"properties":{"osm_id":"6192288511","tag":{"amenity":"waste_basket"}},"type":"Feature"},
	{"geometry":{"coordinates":[7.001195,51.389552],"type":"Point"},"properties":{"osm_id":"6192288539","tag":{"amenity":"waste_basket"}},"type":"Feature"},
	{"geometry":{"coordinates":[7.003166,51.387997],"type":"Point"},"properties":{"osm_id":"6192288543","tag":{"amenity":"waste_basket"}},"type":"Feature"},
	{"geometry":{"coordinates":[7.010113,51.388321],"type":"Point"},"properties":{"osm_id":"6192288544","tag":{"amenity":"waste_basket"}},"type":"Feature"},
	{"geometry":{"coordinates":[7.001236,51.389296],"type":"Point"},"properties":{"osm_id":"6192288811","tag":{"amenity":"waste_basket"}},"type":"Feature"},
	{"geometry":{"coordinates":[7.002824,51.388316],"type":"Point"},"properties":{"highway":"street_lamp","osm_id":"6192288812","tag":{"amenity":"waste_basket"}},"type":"Feature"},
	{"geometry":{"coordinates":[7.002931,51.388186],"type":"Point"},"properties":{"highway":"street_lamp","osm_id":"6192288813","tag":{"amenity":"waste_basket"}},"type":"Feature"},
	{"geometry":{"coordinates":[7.002695,51.388288],"type":"Point"},"properties":{"highway":"street_lamp","osm_id":"6192288814","tag":{"amenity":"waste_basket"}},"type":"Feature"},
	{"geometry":{"coordinates":[7.003301,51.388111],"type":"Point"},"properties":{"osm_id":"6192288815","tag":{"amenity":"waste_basket"}},"type":"Feature"},
	{"geometry":{"coordinates":[7.026697,51.385349],"type":"Point"},"properties":{"osm_id":"6192288816","tag":{"amenity":"waste_basket"}},"type":"Feature"},
	{"geometry":{"coordinates":[7.002736,51.388235],"type":"Point"},"properties":{"highway":"street_lamp","osm_id":"6192288956","tag":{"amenity":"waste_basket"}},"type":"Feature"},
	{"geometry":{"coordinates":[7.002815,51.38807],"type":"Point"},"properties":{"highway":"street_lamp","osm_id":"6192288958","tag":{"amenity":"waste_basket"}},"type":"Feature"},
	{"geometry":{"coordinates":[7.000425,51.388715],"type":"Point"},"properties":{"osm_id":"6192312486","tag":{"amenity":"waste_disposal"}},"type":"Feature"},
	{"geometry":{"coordinates":[7.0008,51.390425],"type":"Point"},"properties":{"osm_id":"6192312487","tag":{"amenity":"waste_disposal"}},"type":"Feature"},
	{"geometry":{"coordinates":[6.997149,51.384414],"type":"Point"},"properties":{"osm_id":"6195419295","tag":{"amenity":"waste_basket"}},"type":"Feature"},
	{"geometry":{"coordinates":[6.999619,51.388045],"type":"Point"},"properties":{"osm_id":"6213394372","tag":{"amenity":"waste_basket"}},"type":"Feature"},
	{"geometry":{"coordinates":[6.999564,51.388179],"type":"Point"},"properties":{"osm_id":"6213395782","tag":{"amenity":"waste_basket"}},"type":"Feature"},
	{"geometry":{"coordinates":[6.999683,51.387329],"type":"Point"},"properties":{"osm_id":"6213395784","tag":{"amenity":"waste_basket"}},"type":"Feature"},
	{"geometry":{"coordinates":[7.001904,51.389125],"type":"Point"},"properties":{"osm_id":"6229727490","tag":{"amenity":"waste_basket"}},"type":"Feature"},
	{"geometry":{"coordinates":[7.00007,51.388901],"type":"Point"},"properties":{"osm_id":"6294175971","tag":{"amenity":"waste_basket"}},"type":"Feature"},
	{"geometry":{"coordinates":[7.002823,51.388199],"type":"Point"},"properties":{"highway":"street_lamp","osm_id":"6297325536","tag":{"amenity":"waste_basket"}},"type":"Feature"},
	{"geometry":{"coordinates":[7.001344,51.388598],"type":"Point"},"properties":{"osm_id":"6310543014","tag":{"amenity":"waste_basket"}},"type":"Feature"},
	{"geometry":{"coordinates":[6.998153,51.391215],"type":"Point"},"properties":{"osm_id":"6324817024","tag":{"amenity":"waste_basket"}},"type":"Feature"},
	{"geometry":{"coordinates":[7.004563,51.389085],"type":"Point"},"properties":{"osm_id":"6369736807","tag":{"amenity":"waste_basket"}},"type":"Feature"},
	{"geometry":{"coordinates":[7.003708,51.386785],"type":"Point"},"properties":{"osm_id":"6369845002","tag":{"amenity":"waste_basket"}},"type":"Feature"},
	{"geometry":{"coordinates":[7.006368,51.39859],"type":"Point"},"properties":{"osm_id":"6370450998","tag":{"amenity":"waste_basket"}},"type":"Feature"},
	{"geometry":{"coordinates":[7.008404,51.399012],"type":"Point"},"properties":{"osm_id":"6370452495","tag":{"amenity":"waste_basket"}},"type":"Feature"},
	{"geometry":{"coordinates":[7.003281,51.396907],"type":"Point"},"properties":{"osm_id":"6385762802","tag":{"amenity":"waste_basket"}},"type":"Feature"},
	{"geometry":{"coordinates":[6.997229,51.384462],"type":"Point"},"properties":{"osm_id":"6395340843","tag":{"amenity":"waste_basket"}},"type":"Feature"},
	{"geometry":{"coordinates":[6.999274,51.391369],"type":"Point"},"properties":{"osm_id":"6395737712","tag":{"amenity":"waste_basket"}},"type":"Feature"},
	{"geometry":{"coordinates":[6.999253,51.391021],"type":"Point"},"properties":{"osm_id":"6395740686","tag":{"amenity":"waste_basket"}},"type":"Feature"},
	{"geometry":{"coordinates":[6.998349,51.391424],"type":"Point"},"properties":{"osm_id":"6395743028","tag":{"amenity":"waste_basket"}},"type":"Feature"},
	{"geometry":{"coordinates":[6.998029,51.389657],"type":"Point"},"properties":{"osm_id":"6395743029","tag":{"amenity":"waste_basket"}},"type":"Feature"},
	{"geometry":{"coordinates":[6.998894,51.388607],"type":"Point"},"properties":{"osm_id":"6395743074","tag":{"amenity":"waste_basket","waste":"trash"}},"type":"Feature"},
	{"geometry":{"coordinates":[6.997978,51.389385],"type":"Point"},"properties":{"osm_id":"6395743282","tag":{"amenity":"waste_basket"}},"type":"Feature"},
	{"geometry":{"coordinates":[6.997862,51.390122],"type":"Point"},"properties":{"osm_id":"6395743284","tag":{"amenity":"waste_basket"}},"type":"Feature"},
	{"geometry":{"coordinates":[6.998211,51.388802],"type":"Point"},"properties":{"osm_id":"6395743685","tag":{"amenity":"waste_basket"}},"type":"Feature"},
	{"geometry":{"coordinates":[6.998762,51.388033],"type":"Point"},"properties":{"osm_id":"6395743686","tag":{"amenity":"waste_basket","waste":"trash"}},"type":"Feature"},
	{"geometry":{"coordinates":[6.998856,51.388048],"type":"Point"},"properties":{"osm_id":"6395743687","tag":{"amenity":"waste_basket","waste":"trash"}},"type":"Feature"},
	{"geometry":{"coordinates":[6.999696,51.387326],"type":"Point"},"properties":{"osm_id":"6400356177","tag":{"amenity":"waste_basket"}},"type":"Feature"},
	{"geometry":{"coordinates":[6.999805,51.387683],"type":"Point"},"properties":{"osm_id":"6400356773","tag":{"amenity":"waste_basket"}},"type":"Feature"},
	{"geometry":{"coordinates":[6.999784,51.387737],"type":"Point"},"properties":{"osm_id":"6400356988","tag":{"amenity":"waste_basket"}},"type":"Feature"},
	{"geometry":{"coordinates":[7.002765,51.396168],"type":"Point"},"properties":{"osm_id":"6400655099","tag":{"amenity":"waste_basket"}},"type":"Feature"},
	{"geometry":{"coordinates":[6.989571,51.391345],"type":"Point"},"properties":{"osm_id":"6434379631","tag":{"amenity":"waste_basket","waste":"trash"}},"type":"Feature"},
	{"geometry":{"coordinates":[7.002039,51.398652],"type":"Point"},"properties":{"osm_id":"6477918423","tag":{"amenity":"waste_basket"}},"type":"Feature"},
	{"geometry":{"coordinates":[7.001162,51.388143],"type":"Point"},"properties":{"osm_id":"6544057194","tag":{"amenity":"waste_basket"}},"type":"Feature"},
	{"geometry":{"coordinates":[7.017323,51.349248],"type":"Point"},"properties":{"osm_id":"6589698504","tag":{"amenity":"recycling","opening_hours":"Mo-Sa 07:00-20:00; PH off","operator":"Technische Betriebe Velbert A\u00c3\u00b6R","recycling:cardboard":"yes","recycling:clothes":"yes","recycling:glass_bottles":"yes","recycling:paper":"yes","recycling_type":"container"}},"type":"Feature"},
	{"geometry":{"coordinates":[6.998029,51.391173],"type":"Point"},"properties":{"osm_id":"6849298226","tag":{"amenity":"waste_basket"}},"type":"Feature"},
	{"geometry":{"coordinates":[6.952357,51.347145],"type":"Point"},"properties":{"osm_id":"7214419851","tag":{"amenity":"recycling","recycling:cardboard":"yes","recycling:paper":"yes","recycling_type":"container"}},"type":"Feature"},
	{"geometry":{"coordinates":[6.948133,51.359889],"type":"Point"},"properties":{"osm_id":"7261163284","tag":{"amenity":"waste_basket","waste":"trash"}},"type":"Feature"},
	{"geometry":{"coordinates":[6.947726,51.359963],"type":"Point"},"properties":{"osm_id":"7261170085","tag":{"amenity":"waste_basket","waste":"trash"}},"type":"Feature"},
	{"geometry":{"coordinates":[6.999398,51.388793],"type":"Point"},"properties":{"osm_id":"7308681423","tag":{"amenity":"waste_disposal","waste":"trash"}},"type":"Feature"},
	{"geometry":{"coordinates":[6.954514,51.363885],"type":"Point"},"properties":{"osm_id":"7714212694","tag":{"amenity":"waste_basket"}},"type":"Feature"},
	{"geometry":{"coordinates":[6.953937,51.363583],"type":"Point"},"properties":{"osm_id":"7714212712","tag":{"amenity":"waste_basket"}},"type":"Feature"},
	{"geometry":{"coordinates":[6.954141,51.363496],"type":"Point"},"properties":{"osm_id":"7714212723","tag":{"amenity":"waste_basket"}},"type":"Feature"},
	{"geometry":{"coordinates":[6.953836,51.363327],"type":"Point"},"properties":{"osm_id":"7714212729","tag":{"amenity":"waste_basket"}},"type":"Feature"},
	{"geometry":{"coordinates":[6.954656,51.363781],"type":"Point"},"properties":{"osm_id":"7714212738","tag":{"amenity":"waste_basket"}},"type":"Feature"},
	{"geometry":{"coordinates":[7.005686,51.387682],"type":"Point"},"properties":{"osm_id":"7856983946","tag":{"amenity":"waste_basket"}},"type":"Feature"}
]
}
