{
"type": "FeatureCollection",
"lastupdate": "2020-08-05T00:00:00Z",
"features": [
	{"geometry":{"coordinates":[6.996335,51.183529],"type":"Point"},"properties":{"osm_id":"287671742","tag":{"amenity":"recycling","recycling:cans":"yes","recycling:glass":"yes","recycling_type":"container"}},"type":"Feature"},
	{"geometry":{"coordinates":[6.998311,51.188715],"type":"Point"},"properties":{"osm_id":"296038346","tag":{"amenity":"recycling","location":"overground","recycling:clothes":"yes","recycling:glass_bottles":"yes","recycling:paper":"no","recycling:shoes":"yes","recycling_type":"container"}},"type":"Feature"},
	{"geometry":{"coordinates":[7.015338,51.195823],"type":"Point"},"properties":{"osm_id":"417297999","tag":{"amenity":"recycling","recycling:clothes":"yes","recycling:glass":"yes","recycling:paper":"no","recycling_type":"container"}},"type":"Feature"},
	{"geometry":{"coordinates":[6.944905,51.214701],"type":"Point"},"properties":{"osm_id":"422005233","tag":{"amenity":"recycling","location":"overground","recycling:glass_bottles":"yes","recycling:paper":"yes","recycling_type":"container"}},"type":"Feature"},
	{"geometry":{"coordinates":[6.950525,51.206017],"type":"Point"},"properties":{"name":"Trillser Graben","osm_id":"514404898","tag":{"amenity":"recycling"}},"type":"Feature"},
	{"geometry":{"coordinates":[6.959452,51.20827],"type":"Point"},"properties":{"osm_id":"514451321","tag":{"amenity":"recycling"}},"type":"Feature"},
	{"geometry":{"coordinates":[7.017117,51.217521],"type":"Point"},"properties":{"osm_id":"570051712","tag":{"amenity":"recycling","recycling:glass_bottles":"yes"}},"type":"Feature"},
	{"geometry":{"coordinates":[6.970982,51.207735],"type":"Point"},"properties":{"osm_id":"681321979","tag":{"amenity":"recycling","recycling:glass_bottles":"yes","recycling_type":"container"}},"type":"Feature"},
	{"geometry":{"coordinates":[6.951881,51.215342],"type":"Point"},"properties":{"osm_id":"762293826","tag":{"amenity":"recycling","recycling:glass_bottles":"yes"}},"type":"Feature"},
	{"geometry":{"coordinates":[6.979694,51.207022],"type":"Point"},"properties":{"osm_id":"1051733458","tag":{"amenity":"recycling"}},"type":"Feature"},
	{"geometry":{"coordinates":[6.97697,51.221745],"type":"Point"},"properties":{"osm_id":"1229919675","tag":{"amenity":"waste_basket"}},"type":"Feature"},
	{"geometry":{"coordinates":[6.98003,51.211642],"type":"Point"},"properties":{"osm_id":"1258596552","tag":{"amenity":"recycling"}},"type":"Feature"},
	{"geometry":{"coordinates":[6.973944,51.212104],"type":"Point"},"properties":{"osm_id":"1309587027","tag":{"amenity":"waste_basket"}},"type":"Feature"},
	{"geometry":{"coordinates":[6.990773,51.217606],"type":"Point"},"properties":{"osm_id":"1309587061","tag":{"amenity":"waste_basket"}},"type":"Feature"},
	{"geometry":{"coordinates":[6.960741,51.204644],"type":"Point"},"properties":{"osm_id":"1386546405","tag":{"amenity":"waste_basket"}},"type":"Feature"},
	{"geometry":{"coordinates":[6.973683,51.209139],"type":"Point"},"properties":{"osm_id":"1386589899","tag":{"amenity":"waste_basket"}},"type":"Feature"},
	{"geometry":{"coordinates":[6.974033,51.209291],"type":"Point"},"properties":{"osm_id":"1386589905","tag":{"amenity":"waste_basket"}},"type":"Feature"},
	{"geometry":{"coordinates":[6.949158,51.199918],"type":"Point"},"properties":{"osm_id":"1417016015","tag":{"amenity":"recycling","recycling:clothes":"yes","recycling:glass_bottles":"yes","recycling:paper":"yes","recycling_type":"container"}},"type":"Feature"},
	{"geometry":{"coordinates":[7.011055,51.217054],"type":"Point"},"properties":{"osm_id":"1540049067","tag":{"amenity":"recycling","recycling:glass_bottles":"yes","recycling_type":"container"}},"type":"Feature"},
	{"geometry":{"coordinates":[6.970331,51.212294],"type":"Point"},"properties":{"osm_id":"1991817057","tag":{"amenity":"recycling","recycling:glass_bottles":"yes","recycling:paper":"yes","recycling_type":"container"}},"type":"Feature"},
	{"geometry":{"coordinates":[6.969692,51.216057],"type":"Point"},"properties":{"osm_id":"1991830245","tag":{"amenity":"recycling","recycling:clothes":"yes","recycling:glass_bottles":"yes","recycling:shoes":"yes","recycling_type":"container"}},"type":"Feature"},
	{"geometry":{"coordinates":[7.010582,51.215615],"type":"Point"},"properties":{"osm_id":"2160800271","tag":{"amenity":"waste_basket"}},"type":"Feature"},
	{"geometry":{"coordinates":[7.010423,51.21567],"type":"Point"},"properties":{"osm_id":"2160800277","tag":{"amenity":"waste_basket"}},"type":"Feature"},
	{"geometry":{"coordinates":[7.010535,51.215457],"type":"Point"},"properties":{"osm_id":"2160800278","tag":{"amenity":"waste_basket"}},"type":"Feature"},
	{"geometry":{"coordinates":[7.01092,51.215349],"type":"Point"},"properties":{"osm_id":"2160800280","tag":{"amenity":"waste_basket"}},"type":"Feature"},
	{"geometry":{"coordinates":[7.010866,51.216395],"type":"Point"},"properties":{"osm_id":"2160800292","tag":{"amenity":"waste_basket"}},"type":"Feature"},
	{"geometry":{"coordinates":[6.996026,51.215715],"type":"Point"},"properties":{"osm_id":"2279291362","tag":{"amenity":"waste_basket"}},"type":"Feature"},
	{"geometry":{"coordinates":[6.977922,51.219197],"type":"Point"},"properties":{"osm_id":"2297397981","tag":{"amenity":"waste_basket"}},"type":"Feature"},
	{"geometry":{"coordinates":[6.98044,51.219691],"type":"Point"},"properties":{"osm_id":"2297397982","tag":{"amenity":"waste_basket"}},"type":"Feature"},
	{"geometry":{"coordinates":[6.976473,51.220266],"type":"Point"},"properties":{"osm_id":"2297397983","tag":{"amenity":"waste_basket"}},"type":"Feature"},
	{"geometry":{"coordinates":[6.976864,51.221398],"type":"Point"},"properties":{"osm_id":"2297397984","tag":{"amenity":"waste_basket"}},"type":"Feature"},
	{"geometry":{"coordinates":[6.97509,51.224826],"type":"Point"},"properties":{"osm_id":"2297397985","tag":{"amenity":"waste_basket"}},"type":"Feature"},
	{"geometry":{"coordinates":[7.010626,51.189221],"type":"Point"},"properties":{"osm_id":"2465884454","tag":{"amenity":"recycling","recycling:glass":"no","recycling:glass_bottles":"yes","recycling_type":"container"}},"type":"Feature"},
	{"geometry":{"coordinates":[7.002037,51.202639],"type":"Point"},"properties":{"osm_id":"2465884462","tag":{"amenity":"recycling","recycling:glass_bottles":"yes","recycling_type":"container"}},"type":"Feature"},
	{"geometry":{"coordinates":[7.013348,51.193808],"type":"Point"},"properties":{"osm_id":"2489654895","tag":{"amenity":"recycling","recycling:glass":"yes","recycling_type":"container"}},"type":"Feature"},
	{"geometry":{"coordinates":[7.000006,51.192577],"type":"Point"},"properties":{"osm_id":"2744297429","tag":{"amenity":"recycling","recycling:cans":"no","recycling:clothes":"yes","recycling:glass":"yes","recycling:paper":"no"}},"type":"Feature"},
	{"geometry":{"coordinates":[7.023118,51.20216],"type":"Point"},"properties":{"osm_id":"2789845918","tag":{"amenity":"recycling","location":"overground","recycling:clothes":"yes","recycling:glass":"yes","recycling:paper":"no","recycling_type":"container"}},"type":"Feature"},
	{"geometry":{"coordinates":[7.012108,51.214389],"type":"Point"},"properties":{"osm_id":"2899614157","tag":{"amenity":"recycling","recycling:cans":"no","recycling:clothes":"yes","recycling:glass_bottles":"yes","recycling:paper":"no","recycling_type":"container"}},"type":"Feature"},
	{"geometry":{"coordinates":[7.021654,51.206211],"type":"Point"},"properties":{"name":"Kleinm\u00c3\u00bcll-Annahmestelle Bartz","osm_id":"2921830633","tag":{"amenity":"recycling","opening_hours":"Mo-Fr 07:00-17:00;Sa 08:00-13:00","recycling:hardcore":"yes","recycling:paper":"yes","recycling:small_appliances":"yes","recycling_type":"centre","website":"http://www.bartz-entsorgung.de/"}},"type":"Feature"},
	{"geometry":{"coordinates":[6.957852,51.206883],"type":"Point"},"properties":{"osm_id":"2957595375","tag":{"amenity":"recycling","recycling:glass_bottles":"yes","recycling_type":"container"}},"type":"Feature"},
	{"geometry":{"coordinates":[6.954955,51.208022],"type":"Point"},"properties":{"osm_id":"2957595395","tag":{"amenity":"recycling","recycling:clothes":"yes","recycling_type":"container"}},"type":"Feature"},
	{"geometry":{"coordinates":[7.012393,51.225524],"type":"Point"},"properties":{"osm_id":"3092950812","tag":{"amenity":"recycling","recycling:clothes":"yes","recycling:glass_bottles":"yes","recycling_type":"container"}},"type":"Feature"},
	{"geometry":{"coordinates":[6.98727,51.193858],"type":"Point"},"properties":{"osm_id":"3274671115","tag":{"amenity":"recycling","recycling:glass":"yes"}},"type":"Feature"},
	{"geometry":{"coordinates":[7.016273,51.189221],"type":"Point"},"properties":{"osm_id":"3390675631","tag":{"amenity":"recycling","location":"overground","recycling:cans":"no","recycling:clothes":"yes","recycling:glass":"no","recycling:glass_bottles":"yes","recycling:paper":"no","recycling_type":"container"}},"type":"Feature"},
	{"geometry":{"coordinates":[7.003866,51.226048],"type":"Point"},"properties":{"osm_id":"3500974127","tag":{"amenity":"recycling","recycling:glass_bottles":"yes"}},"type":"Feature"},
	{"geometry":{"coordinates":[7.011058,51.197152],"type":"Point"},"properties":{"osm_id":"3506845326","tag":{"amenity":"recycling","location":"overground","recycling:glass":"yes","recycling_type":"container"}},"type":"Feature"},
	{"geometry":{"coordinates":[6.969814,51.232259],"type":"Point"},"properties":{"osm_id":"4576069608","tag":{"amenity":"waste_basket","material":"metal"}},"type":"Feature"},
	{"geometry":{"coordinates":[6.97021,51.232969],"type":"Point"},"properties":{"osm_id":"4576069611","tag":{"amenity":"waste_basket","material":"metal"}},"type":"Feature"},
	{"geometry":{"coordinates":[6.970941,51.216526],"type":"Point"},"properties":{"osm_id":"4576069615","tag":{"amenity":"waste_basket"}},"type":"Feature"},
	{"geometry":{"coordinates":[6.967538,51.219791],"type":"Point"},"properties":{"osm_id":"4576069619","tag":{"amenity":"waste_basket"}},"type":"Feature"},
	{"geometry":{"coordinates":[6.959606,51.223623],"type":"Point"},"properties":{"osm_id":"4576069622","tag":{"amenity":"waste_basket"}},"type":"Feature"},
	{"geometry":{"coordinates":[6.956993,51.223542],"type":"Point"},"properties":{"osm_id":"4576069624","tag":{"amenity":"waste_basket","material":"metal"}},"type":"Feature"},
	{"geometry":{"coordinates":[6.956937,51.223468],"type":"Point"},"properties":{"osm_id":"4576069625","tag":{"amenity":"waste_basket","material":"metal"}},"type":"Feature"},
	{"geometry":{"coordinates":[6.956674,51.22265],"type":"Point"},"properties":{"osm_id":"4576069626","tag":{"amenity":"waste_basket","material":"metal"}},"type":"Feature"},
	{"geometry":{"coordinates":[6.956019,51.222172],"type":"Point"},"properties":{"osm_id":"4576069627","tag":{"amenity":"waste_basket","material":"metal"}},"type":"Feature"},
	{"geometry":{"coordinates":[6.95581,51.222404],"type":"Point"},"properties":{"osm_id":"4576069629","tag":{"amenity":"waste_basket","material":"metal"}},"type":"Feature"},
	{"geometry":{"coordinates":[6.95576,51.222471],"type":"Point"},"properties":{"osm_id":"4576069630","tag":{"amenity":"waste_basket","material":"metal"}},"type":"Feature"},
	{"geometry":{"coordinates":[6.955521,51.222698],"type":"Point"},"properties":{"osm_id":"4576069631","tag":{"amenity":"waste_basket","material":"metal"}},"type":"Feature"},
	{"geometry":{"coordinates":[6.955184,51.222992],"type":"Point"},"properties":{"osm_id":"4576069632","tag":{"amenity":"waste_basket","material":"metal"}},"type":"Feature"},
	{"geometry":{"coordinates":[6.954891,51.223253],"type":"Point"},"properties":{"osm_id":"4576069633","tag":{"amenity":"waste_basket","material":"metal"}},"type":"Feature"},
	{"geometry":{"coordinates":[6.954844,51.226042],"type":"Point"},"properties":{"osm_id":"4576069635","tag":{"amenity":"waste_basket","material":"metal"}},"type":"Feature"},
	{"geometry":{"coordinates":[6.959014,51.22647],"type":"Point"},"properties":{"osm_id":"4576069637","tag":{"amenity":"waste_basket"}},"type":"Feature"},
	{"geometry":{"coordinates":[6.967859,51.230355],"type":"Point"},"properties":{"osm_id":"4576069640","tag":{"amenity":"waste_basket","material":"metal"}},"type":"Feature"},
	{"geometry":{"coordinates":[6.968818,51.23046],"type":"Point"},"properties":{"osm_id":"4576069642","tag":{"amenity":"waste_basket","material":"metal"}},"type":"Feature"},
	{"geometry":{"coordinates":[6.944096,51.218931],"type":"Point"},"properties":{"osm_id":"4933256624","tag":{"amenity":"waste_basket"}},"type":"Feature"},
	{"geometry":{"coordinates":[6.962095,51.221563],"type":"Point"},"properties":{"osm_id":"5005343762","tag":{"amenity":"waste_basket"}},"type":"Feature"},
	{"geometry":{"coordinates":[6.961309,51.220616],"type":"Point"},"properties":{"osm_id":"5005343763","tag":{"amenity":"waste_basket"}},"type":"Feature"},
	{"geometry":{"coordinates":[6.954925,51.223204],"type":"Point"},"properties":{"osm_id":"5005343764","tag":{"amenity":"waste_basket","material":"metal"}},"type":"Feature"},
	{"geometry":{"coordinates":[6.953721,51.223682],"type":"Point"},"properties":{"osm_id":"5005343765","tag":{"amenity":"waste_basket"}},"type":"Feature"},
	{"geometry":{"coordinates":[6.952936,51.223714],"type":"Point"},"properties":{"osm_id":"5005343766","tag":{"amenity":"waste_basket"}},"type":"Feature"},
	{"geometry":{"coordinates":[6.945114,51.199504],"type":"Point"},"properties":{"osm_id":"6260233550","ref":"K3250","tag":{"amenity":"recycling","operator":"HUMANA","recycling:clothes":"yes","recycling_type":"container"}},"type":"Feature"},
	{"geometry":{"coordinates":[6.945128,51.199494],"type":"Point"},"properties":{"osm_id":"6260233553","ref":"K1684","tag":{"amenity":"recycling","operator":"HUMANA","recycling:clothes":"yes","recycling_type":"container"}},"type":"Feature"},
	{"geometry":{"coordinates":[6.951164,51.226432],"type":"Point"},"properties":{"osm_id":"6535201750","tag":{"amenity":"waste_basket","material":"metal"}},"type":"Feature"},
	{"geometry":{"coordinates":[6.951195,51.226477],"type":"Point"},"properties":{"osm_id":"6535201752","tag":{"amenity":"waste_basket","material":"metal"}},"type":"Feature"},
	{"geometry":{"coordinates":[6.951238,51.226525],"type":"Point"},"properties":{"osm_id":"6535201754","tag":{"amenity":"waste_basket","material":"metal"}},"type":"Feature"},
	{"geometry":{"coordinates":[7.030143,51.203911],"type":"Point"},"properties":{"osm_id":"6727709070","tag":{"amenity":"recycling","opening_hours":"Mo-Sa 08:00-12:00; 15:00-19:00; Su,PH off","recycling:glass_bottles":"yes","recycling_type":"container"}},"type":"Feature"},
	{"geometry":{"coordinates":[7.012276,51.21542],"type":"Point"},"properties":{"osm_id":"6772520826","tag":{"amenity":"waste_basket"}},"type":"Feature"},
	{"geometry":{"coordinates":[7.012783,51.21625],"type":"Point"},"properties":{"osm_id":"6772520831","tag":{"amenity":"waste_basket","material":"metal"}},"type":"Feature"},
	{"geometry":{"coordinates":[6.954392,51.223871],"type":"Point"},"properties":{"osm_id":"6876153132","tag":{"amenity":"waste_basket","material":"metal"}},"type":"Feature"},
	{"geometry":{"coordinates":[6.957612,51.22409],"type":"Point"},"properties":{"osm_id":"6876153133","tag":{"amenity":"waste_basket","material":"metal"}},"type":"Feature"},
	{"geometry":{"coordinates":[6.959259,51.224843],"type":"Point"},"properties":{"osm_id":"6876153134","tag":{"amenity":"waste_basket","material":"metal"}},"type":"Feature"},
	{"geometry":{"coordinates":[6.960909,51.224859],"type":"Point"},"properties":{"osm_id":"6876153135","tag":{"amenity":"waste_basket","material":"metal"}},"type":"Feature"},
	{"geometry":{"coordinates":[6.962301,51.22473],"type":"Point"},"properties":{"osm_id":"6876153136","tag":{"amenity":"waste_basket","material":"metal"}},"type":"Feature"},
	{"geometry":{"coordinates":[6.964958,51.224988],"type":"Point"},"properties":{"osm_id":"6876153138","tag":{"amenity":"waste_basket","material":"metal"}},"type":"Feature"},
	{"geometry":{"coordinates":[6.966847,51.225153],"type":"Point"},"properties":{"osm_id":"6876153139","tag":{"amenity":"waste_basket","material":"metal"}},"type":"Feature"},
	{"geometry":{"coordinates":[6.970253,51.223929],"type":"Point"},"properties":{"osm_id":"6876153140","tag":{"amenity":"waste_basket","material":"metal"}},"type":"Feature"},
	{"geometry":{"coordinates":[6.9662,51.216494],"type":"Point"},"properties":{"osm_id":"7691892230","tag":{"amenity":"waste_basket","covered":"yes","level":"1"}},"type":"Feature"},
	{"geometry":{"coordinates":[6.965882,51.216494],"type":"Point"},"properties":{"osm_id":"7691892236","tag":{"amenity":"waste_basket","covered":"yes","level":"1"}},"type":"Feature"},
	{"geometry":{"coordinates":[6.966751,51.216504],"type":"Point"},"properties":{"osm_id":"7691892246","tag":{"amenity":"waste_basket","covered":"yes","level":"1"}},"type":"Feature"},
	{"geometry":{"coordinates":[6.96695,51.216495],"type":"Point"},"properties":{"osm_id":"7691892248","tag":{"amenity":"waste_basket","covered":"yes","level":"1"}},"type":"Feature"},
	{"geometry":{"coordinates":[6.967238,51.216489],"type":"Point"},"properties":{"osm_id":"7691892253","tag":{"amenity":"waste_basket","level":"1"}},"type":"Feature"},
	{"geometry":{"coordinates":[6.949676,51.186022],"type":"Point"},"properties":{"osm_id":"7728218323","tag":{"amenity":"waste_basket"}},"type":"Feature"}
]
}
