{
"type": "FeatureCollection",
"features": [
	{"geometry":{"coordinates":[7.009223,51.169224],"type":"Point"},"properties":{"osm_id":"315542846","tag":{"amenity":"waste_basket"}},"type":"Feature"},
	{"geometry":{"coordinates":[7.005345,51.164788],"type":"Point"},"properties":{"osm_id":"315983593","tag":{"amenity":"recycling","location":"overground","material":"metal","recycling:cardboard":"yes","recycling:clothes":"yes","recycling:paper":"yes","recycling_type":"container"}},"type":"Feature"},
	{"geometry":{"coordinates":[7.010123,51.16141],"type":"Point"},"properties":{"name":"Altglascontainer","osm_id":"315983594","tag":{"amenity":"recycling","recycling:glass":"yes","recycling:glass_bottles":"yes","recycling_type":"container","wheelchair":"yes"}},"type":"Feature"},
	{"geometry":{"coordinates":[7.029245,51.168935],"type":"Point"},"properties":{"osm_id":"317746219","tag":{"amenity":"recycling","type":"glass, clothes"}},"type":"Feature"},
	{"geometry":{"coordinates":[6.991163,51.178786],"type":"Point"},"properties":{"osm_id":"351460184","tag":{"amenity":"recycling","recycling:glass":"yes","recycling:paper":"no"}},"type":"Feature"},
	{"geometry":{"coordinates":[6.946176,51.176216],"type":"Point"},"properties":{"name":"Im Biesenbusch","osm_id":"447870122","tag":{"amenity":"recycling"}},"type":"Feature"},
	{"geometry":{"coordinates":[6.978674,51.172115],"type":"Point"},"properties":{"name":"Kalstert/D\u00c3\u00bcrerweg","osm_id":"447870124","tag":{"amenity":"recycling","location":"overground","recycling:glass_bottles":"yes","recycling:paper":"yes","recycling_type":"container"}},"type":"Feature"},
	{"geometry":{"coordinates":[6.980586,51.167867],"type":"Point"},"properties":{"name":"Walder Stra\u00c3\u009fe/Max-Vollmer-Stra\u00c3\u009fe","osm_id":"447870125","tag":{"amenity":"recycling","location":"overground","recycling:clothes":"yes","recycling:shoes":"yes","recycling_type":"container"}},"type":"Feature"},
	{"geometry":{"coordinates":[6.97302,51.169098],"type":"Point"},"properties":{"name":"Holbeinweg","osm_id":"447870126","tag":{"amenity":"recycling","location":"overground","recycling:glass_bottles":"yes","recycling_type":"container"}},"type":"Feature"},
	{"geometry":{"coordinates":[6.967968,51.170695],"type":"Point"},"properties":{"name":"Kalstert/Rembrandtweg","osm_id":"447870127","tag":{"amenity":"recycling","location":"overground","recycling:clothes":"yes","recycling:glass_bottles":"yes","recycling_type":"container"}},"type":"Feature"},
	{"geometry":{"coordinates":[6.959242,51.170412],"type":"Point"},"properties":{"osm_id":"447870128","tag":{"amenity":"recycling","recycling:clothes":"yes","recycling:glass":"no","recycling:glass_bottles":"yes","recycling_type":"container"}},"type":"Feature"},
	{"geometry":{"coordinates":[6.950842,51.169278],"type":"Point"},"properties":{"name":"M\u00c3\u00bchlenbachweg","osm_id":"447870129","tag":{"amenity":"recycling","location":"overground","recycling:clothes":"yes","recycling:glass_bottles":"yes","recycling:shoes":"yes","recycling_type":"container"}},"type":"Feature"},
	{"geometry":{"coordinates":[6.945476,51.171701],"type":"Point"},"properties":{"name":"Elberfelder Stra\u00c3\u009fe/Spinnerweg","osm_id":"447870130","tag":{"amenity":"recycling","mapillary":"wYnNp-XHVI_VRtzTWeTWvA","recycling:clothes":"yes","recycling:glass_bottles":"yes","recycling:shoes":"yes","recycling_type":"container","survey:date":"2019-01-19"}},"type":"Feature"},
	{"geometry":{"coordinates":[6.95007,51.166557],"type":"Point"},"properties":{"osm_id":"447870132","tag":{"amenity":"recycling","recycling:clothes":"yes","recycling:glass":"no","recycling:glass_bottles":"yes","recycling_type":"container"}},"type":"Feature"},
	{"geometry":{"coordinates":[6.951925,51.163905],"type":"Point"},"properties":{"osm_id":"447870133","tag":{"amenity":"recycling","recycling:batteries":"yes","recycling:glass":"yes","recycling_type":"container"}},"type":"Feature"},
	{"geometry":{"coordinates":[6.955173,51.164566],"type":"Point"},"properties":{"name":"Kilvertzheide","osm_id":"447870134","tag":{"amenity":"recycling"}},"type":"Feature"},
	{"geometry":{"coordinates":[6.959857,51.165122],"type":"Point"},"properties":{"name":"Henkenheide/RWE","osm_id":"447870135","tag":{"amenity":"recycling","recycling:clothes":"yes","recycling:glass_bottles":"yes","recycling_type":"container"}},"type":"Feature"},
	{"geometry":{"coordinates":[6.953414,51.159892],"type":"Point"},"properties":{"osm_id":"447870136","tag":{"amenity":"recycling","recycling:clothes":"yes","recycling:glass":"yes","recycling_type":"container"}},"type":"Feature"},
	{"geometry":{"coordinates":[6.956841,51.157266],"type":"Point"},"properties":{"name":"Ohligser Weg/S\u00c3\u00bcdfriedhof","osm_id":"447870137","tag":{"amenity":"recycling"}},"type":"Feature"},
	{"geometry":{"coordinates":[6.94804,51.158679],"type":"Point"},"properties":{"name":"Ohligser Weg/Kirschenweg","osm_id":"447870138","tag":{"amenity":"recycling"}},"type":"Feature"},
	{"geometry":{"coordinates":[6.947158,51.163809],"type":"Point"},"properties":{"osm_id":"447870139","tag":{"amenity":"recycling","recycling:clothes":"yes","recycling:glass":"no","recycling:glass_bottles":"yes","recycling_type":"container"}},"type":"Feature"},
	{"geometry":{"coordinates":[6.947446,51.154091],"type":"Point"},"properties":{"name":"Zur Verlach/Erikaweg","osm_id":"447870140","tag":{"amenity":"recycling"}},"type":"Feature"},
	{"geometry":{"coordinates":[6.947881,51.151723],"type":"Point"},"properties":{"name":"Am Anger","osm_id":"447870141","tag":{"amenity":"recycling"}},"type":"Feature"},
	{"geometry":{"coordinates":[6.944362,51.160212],"type":"Point"},"properties":{"osm_id":"447870142","tag":{"amenity":"recycling","recycling:clothes":"yes","recycling_type":"container"}},"type":"Feature"},
	{"geometry":{"coordinates":[6.94371,51.153015],"type":"Point"},"properties":{"osm_id":"447870143","tag":{"amenity":"recycling","recycling:glass":"yes","recycling_type":"container"}},"type":"Feature"},
	{"geometry":{"coordinates":[6.946417,51.147542],"type":"Point"},"properties":{"osm_id":"447870147","tag":{"amenity":"recycling","recycling_type":"container"}},"type":"Feature"},
	{"geometry":{"coordinates":[6.944072,51.168812],"type":"Point"},"properties":{"osm_id":"447870172","tag":{"amenity":"recycling","location":"overground","recycling:glass_bottles":"yes","recycling_type":"container"}},"type":"Feature"},
	{"geometry":{"coordinates":[7.024273,51.162667],"type":"Point"},"properties":{"osm_id":"950554470","tag":{"amenity":"recycling","recycling:glass":"yes"}},"type":"Feature"},
	{"geometry":{"coordinates":[6.998545,51.13147],"type":"Point"},"properties":{"osm_id":"957177285","tag":{"amenity":"recycling","recycling:glass":"yes","recycling_type":"container"}},"type":"Feature"},
	{"geometry":{"coordinates":[7.022852,51.170353],"type":"Point"},"properties":{"osm_id":"979016081","tag":{"amenity":"recycling","location":"overground","recycling:glass_bottles":"yes","recycling_type":"container"}},"type":"Feature"},
	{"geometry":{"coordinates":[7.013707,51.170164],"type":"Point"},"properties":{"osm_id":"979021080","tag":{"amenity":"recycling","location":"overground","recycling_type":"container"}},"type":"Feature"},
	{"geometry":{"coordinates":[7.013665,51.175277],"type":"Point"},"properties":{"osm_id":"979021596","tag":{"amenity":"recycling","location":"overground","recycling:glass_bottles":"yes","recycling_type":"container"}},"type":"Feature"},
	{"geometry":{"coordinates":[7.005958,51.144147],"type":"Point"},"properties":{"osm_id":"1274199865","tag":{"amenity":"recycling"}},"type":"Feature"},
	{"geometry":{"coordinates":[6.94387,51.131835],"type":"Point"},"properties":{"osm_id":"1610821958","tag":{"amenity":"recycling","recycling:glass":"yes","recycling_type":"container"}},"type":"Feature"},
	{"geometry":{"coordinates":[7.014784,51.152025],"type":"Point"},"properties":{"osm_id":"2025549817","tag":{"amenity":"recycling","recycling:clothes":"yes","recycling_type":"container"}},"type":"Feature"},
	{"geometry":{"coordinates":[7.014508,51.159541],"type":"Point"},"properties":{"osm_id":"2205612697","tag":{"amenity":"recycling","recycling:glass_bottles":"yes","recycling_type":"container"}},"type":"Feature"},
	{"geometry":{"coordinates":[7.016109,51.160998],"type":"Point"},"properties":{"osm_id":"3282509045","tag":{"amenity":"recycling","location":"overground","recycling:cans":"no","recycling:clothes":"yes","recycling:glass":"yes","recycling:paper":"no","recycling_type":"container"}},"type":"Feature"},
	{"geometry":{"coordinates":[7.019607,51.162101],"type":"Point"},"properties":{"osm_id":"3282510042","tag":{"amenity":"recycling","location":"overground","recycling:glass":"yes","recycling_type":"container"}},"type":"Feature"},
	{"geometry":{"coordinates":[7.015663,51.145188],"type":"Point"},"properties":{"osm_id":"4112164914","tag":{"amenity":"waste_basket"}},"type":"Feature"},
	{"geometry":{"coordinates":[7.0163,51.151239],"type":"Point"},"properties":{"osm_id":"4220424773","tag":{"amenity":"recycling","recycling:glass":"no","recycling:glass_bottles":"yes","recycling_type":"container"}},"type":"Feature"},
	{"geometry":{"coordinates":[7.01009,51.152354],"type":"Point"},"properties":{"osm_id":"4220424774","tag":{"amenity":"recycling","recycling:glass_bottles":"yes","recycling_type":"container"}},"type":"Feature"},
	{"geometry":{"coordinates":[7.009574,51.16319],"type":"Point"},"properties":{"name":"Altglascontainer","osm_id":"4714521914","tag":{"amenity":"recycling","recycling:glass":"yes","recycling:glass_bottles":"yes","recycling_type":"container","wheelchair":"yes"}},"type":"Feature"},
	{"geometry":{"coordinates":[6.948105,51.166389],"type":"Point"},"properties":{"osm_id":"4963501322","tag":{"amenity":"waste_basket"}},"type":"Feature"},
	{"geometry":{"coordinates":[6.949541,51.167459],"type":"Point"},"properties":{"osm_id":"4963501348","tag":{"amenity":"waste_basket"}},"type":"Feature"},
	{"geometry":{"coordinates":[6.949297,51.167432],"type":"Point"},"properties":{"osm_id":"4963501350","tag":{"amenity":"waste_basket"}},"type":"Feature"},
	{"geometry":{"coordinates":[6.949138,51.167369],"type":"Point"},"properties":{"osm_id":"4963501352","tag":{"amenity":"waste_basket"}},"type":"Feature"},
	{"geometry":{"coordinates":[6.9454,51.166568],"type":"Point"},"properties":{"osm_id":"4963501439","tag":{"amenity":"waste_basket"}},"type":"Feature"},
	{"geometry":{"coordinates":[6.999845,51.164807],"type":"Point"},"properties":{"osm_id":"5299057421","tag":{"amenity":"waste_disposal","operator":"Stadt Solingen"}},"type":"Feature"},
	{"geometry":{"coordinates":[7.007377,51.16152],"type":"Point"},"properties":{"osm_id":"5506671226","tag":{"amenity":"waste_basket"}},"type":"Feature"},
	{"geometry":{"coordinates":[6.94592,51.17393],"type":"Point"},"properties":{"osm_id":"5760636422","tag":{"amenity":"waste_basket"}},"type":"Feature"},
	{"geometry":{"coordinates":[7.000156,51.160411],"type":"Point"},"properties":{"osm_id":"6700103851","tag":{"amenity":"recycling","recycling:glass_bottles":"yes","recycling_type":"container"}},"type":"Feature"},
	{"geometry":{"coordinates":[6.970489,51.153583],"type":"Point"},"properties":{"osm_id":"6946237543","tag":{"amenity":"waste_disposal"}},"type":"Feature"},
	{"geometry":{"coordinates":[7.01485,51.170143],"type":"Point"},"properties":{"osm_id":"6970182587","tag":{"amenity":"recycling","recycling:clothes":"yes","recycling:shoes":"yes","recycling_type":"container"}},"type":"Feature"},
	{"geometry":{"coordinates":[7.01969,51.172129],"type":"Point"},"properties":{"osm_id":"6970211085","tag":{"amenity":"recycling","recycling:glass_bottles":"yes","recycling_type":"container"}},"type":"Feature"},
	{"geometry":{"coordinates":[7.019804,51.172216],"type":"Point"},"properties":{"osm_id":"6970211086","tag":{"amenity":"recycling","operator":"Texaid","recycling:clothes":"yes","recycling:shoes":"yes","recycling_type":"container"}},"type":"Feature"},
	{"geometry":{"coordinates":[7.024028,51.175343],"type":"Point"},"properties":{"osm_id":"6970211088","tag":{"amenity":"recycling","recycling:clothes":"yes","recycling:glass_bottles":"yes","recycling:shoes":"yes","recycling_type":"container"}},"type":"Feature"},
	{"geometry":{"coordinates":[6.960682,51.166595],"type":"Point"},"properties":{"osm_id":"7017852512","tag":{"amenity":"waste_basket"}},"type":"Feature"},
	{"geometry":{"coordinates":[6.979973,51.13902],"type":"Point"},"properties":{"osm_id":"7086276608","tag":{"amenity":"waste_basket","material":"metal","operator":"Stadt Langenfeld"}},"type":"Feature"},
	{"geometry":{"coordinates":[6.979549,51.139208],"type":"Point"},"properties":{"osm_id":"7086276609","tag":{"amenity":"waste_basket","material":"metal","operator":"Stadt Langenfeld"}},"type":"Feature"},
	{"geometry":{"coordinates":[6.97441,51.14462],"type":"Point"},"properties":{"osm_id":"7086276612","tag":{"amenity":"waste_basket","material":"metal"}},"type":"Feature"},
	{"geometry":{"coordinates":[6.992339,51.136972],"type":"Point"},"properties":{"osm_id":"7086276613","tag":{"amenity":"recycling","recycling:glass":"yes","recycling_type":"container"}},"type":"Feature"},
	{"geometry":{"coordinates":[6.992274,51.137004],"type":"Point"},"properties":{"osm_id":"7086276614","tag":{"amenity":"recycling","recycling:clothes":"yes","recycling_type":"container"}},"type":"Feature"},
	{"geometry":{"coordinates":[6.96176,51.128951],"type":"Point"},"properties":{"osm_id":"7569038501","tag":{"amenity":"waste_basket"}},"type":"Feature"},
	{"geometry":{"coordinates":[6.961774,51.129727],"type":"Point"},"properties":{"osm_id":"7569038502","tag":{"amenity":"waste_basket"}},"type":"Feature"},
	{"geometry":{"coordinates":[7.005351,51.164812],"type":"Point"},"properties":{"osm_id":"7626912328","tag":{"amenity":"recycling","material":"metal","opening_hours":"Mo-Sa 08:00-20:00; Su,PH off","recycling:glass_bottles":"yes","recycling_type":"container","source:opening_hours":"Technische Betriebe Solingen"}},"type":"Feature"},
	{"geometry":{"coordinates":[6.977808,51.161845],"type":"Point"},"properties":{"osm_id":"7772848919","tag":{"amenity":"waste_basket"}},"type":"Feature"}
]
}
