{
"type": "FeatureCollection",
"features": [
	{"geometry":{"coordinates":[6.960826,51.022776],"type":"Point"},"properties":{"osm_id":"247388969","tag":{"amenity":"recycling"}},"type":"Feature"},
	{"geometry":{"coordinates":[6.993119,51.031663],"type":"Point"},"properties":{"osm_id":"332090834","tag":{"amenity":"recycling","recycling:clothes":"yes","recycling:glass_bottles":"yes","recycling_type":"container"}},"type":"Feature"},
	{"geometry":{"coordinates":[6.995533,51.030403],"type":"Point"},"properties":{"osm_id":"332090835","tag":{"amenity":"recycling","recycling:glass":"yes"}},"type":"Feature"},
	{"geometry":{"coordinates":[7.008397,51.04474],"type":"Point"},"properties":{"osm_id":"366722691","tag":{"amenity":"recycling","recycling:glass":"yes"}},"type":"Feature"},
	{"geometry":{"coordinates":[6.994667,51.064174],"type":"Point"},"properties":{"osm_id":"370132194","tag":{"amenity":"recycling","recycling:clothes":"yes","recycling:glass":"yes","recycling_type":"container"}},"type":"Feature"},
	{"geometry":{"coordinates":[7.001479,51.056733],"type":"Point"},"properties":{"osm_id":"370247781","tag":{"amenity":"recycling","recycling:clothes":"yes"}},"type":"Feature"},
	{"geometry":{"coordinates":[7.002088,51.04508],"type":"Point"},"properties":{"osm_id":"370391675","tag":{"amenity":"recycling","opening_hours":"Sa 9:00-13:00","recycling:green_waste":"yes"}},"type":"Feature"},
	{"geometry":{"coordinates":[7.001672,51.045171],"type":"Point"},"properties":{"osm_id":"370913565","tag":{"amenity":"recycling","recycling:clothes":"yes","recycling:glass":"yes","recycling:small_appliances":"yes","recycling_type":"container"}},"type":"Feature"},
	{"geometry":{"coordinates":[7.000811,51.03451],"type":"Point"},"properties":{"osm_id":"387430531","tag":{"amenity":"recycling","recycling:glass":"yes","recycling:plastic":"no"}},"type":"Feature"},
	{"geometry":{"coordinates":[6.982248,51.035176],"type":"Point"},"properties":{"osm_id":"457008174","tag":{"amenity":"recycling","recycling:clothes":"yes","recycling:glass":"yes","recycling_type":"container"}},"type":"Feature"},
	{"geometry":{"coordinates":[7.028539,51.063339],"type":"Point"},"properties":{"osm_id":"506725956","tag":{"amenity":"recycling","location":"overground","recycling:glass_bottles":"yes","recycling_type":"container"}},"type":"Feature"},
	{"geometry":{"coordinates":[7.012232,51.056893],"type":"Point"},"properties":{"name":"Wertstoffzentrum Leverkusen","osm_id":"507675815","tag":{"addr:city":"Leverkusen","addr:housenumber":"18","addr:postcode":"51381","addr:street":"Dieselstra\u00c3\u009fe","amenity":"recycling","operator":"AVEA GmbH & Co. KG","recycling:cans":"yes","recycling:cardboard":"yes","recycling:clothes":"yes","recycling:glass":"yes","recycling:paper":"yes","recycling_type":"centre"}},"type":"Feature"},
	{"geometry":{"coordinates":[7.028924,51.058901],"type":"Point"},"properties":{"name":"Altglas Textilien","osm_id":"510184467","tag":{"amenity":"recycling","name:de":"Altglas Textilien","recycling:clothes":"yes","recycling_type":"container"}},"type":"Feature"},
	{"geometry":{"coordinates":[7.003258,51.03506],"type":"Point"},"properties":{"osm_id":"516092715","tag":{"amenity":"recycling","recycling:clothes":"yes","recycling:glass":"yes"}},"type":"Feature"},
	{"geometry":{"coordinates":[6.994747,51.064221],"type":"Point"},"properties":{"osm_id":"518724249","tag":{"amenity":"recycling","recycling:clothes":"yes","recycling_type":"container"}},"type":"Feature"},
	{"geometry":{"coordinates":[7.004601,51.021199],"type":"Point"},"properties":{"osm_id":"540447555","tag":{"amenity":"recycling","recycling:clothes":"yes","recycling:glass":"yes"}},"type":"Feature"},
	{"geometry":{"coordinates":[6.9802,51.044474],"type":"Point"},"properties":{"osm_id":"559205018","tag":{"amenity":"recycling"}},"type":"Feature"},
	{"geometry":{"coordinates":[6.952834,51.030067],"type":"Point"},"properties":{"osm_id":"559420907","tag":{"amenity":"recycling"}},"type":"Feature"},
	{"geometry":{"coordinates":[6.986672,51.040138],"type":"Point"},"properties":{"osm_id":"589141177","tag":{"amenity":"recycling","location":"overground","recycling:glass":"yes","recycling_type":"container"}},"type":"Feature"},
	{"geometry":{"coordinates":[7.001601,51.031464],"type":"Point"},"properties":{"osm_id":"589141185","tag":{"amenity":"recycling","recycling:glass":"yes"}},"type":"Feature"},
	{"geometry":{"coordinates":[7.002487,51.040531],"type":"Point"},"properties":{"osm_id":"589141296","tag":{"amenity":"recycling","location":"overground","recycling:glass":"yes","recycling_type":"container"}},"type":"Feature"},
	{"geometry":{"coordinates":[7.015723,51.02703],"type":"Point"},"properties":{"osm_id":"634803612","tag":{"amenity":"recycling","recycling:clothes":"yes","recycling:glass":"yes","recycling:glass_bottles":"yes","recycling_type":"container"}},"type":"Feature"},
	{"geometry":{"coordinates":[6.991915,51.037814],"type":"Point"},"properties":{"osm_id":"708745691","tag":{"amenity":"recycling"}},"type":"Feature"},
	{"geometry":{"coordinates":[7.000037,51.039481],"type":"Point"},"properties":{"osm_id":"708747314","tag":{"amenity":"recycling","location":"overground","recycling_type":"container"}},"type":"Feature"},
	{"geometry":{"coordinates":[6.952163,51.024365],"type":"Point"},"properties":{"osm_id":"724526304","tag":{"amenity":"recycling"}},"type":"Feature"},
	{"geometry":{"coordinates":[6.985787,51.045138],"type":"Point"},"properties":{"osm_id":"726794531","tag":{"amenity":"recycling"}},"type":"Feature"},
	{"geometry":{"coordinates":[6.9505,51.049413],"type":"Point"},"properties":{"osm_id":"771070921","tag":{"amenity":"recycling","recycling:clothes":"yes"}},"type":"Feature"},
	{"geometry":{"coordinates":[7.022547,51.034217],"type":"Point"},"properties":{"osm_id":"773914913","tag":{"amenity":"recycling","recycling:clothes":"yes","recycling:glass":"yes"}},"type":"Feature"},
	{"geometry":{"coordinates":[6.946798,51.053499],"type":"Point"},"properties":{"osm_id":"789554372","tag":{"amenity":"recycling","recycling:glass":"yes","recycling_type":"container"}},"type":"Feature"},
	{"geometry":{"coordinates":[6.956411,51.051996],"type":"Point"},"properties":{"osm_id":"789554413","tag":{"amenity":"recycling","recycling:glass":"yes"}},"type":"Feature"},
	{"geometry":{"coordinates":[6.999238,51.043228],"type":"Point"},"properties":{"osm_id":"864797278","tag":{"amenity":"recycling","location":"overground","recycling_type":"container"}},"type":"Feature"},
	{"geometry":{"coordinates":[6.986296,51.03346],"type":"Point"},"properties":{"osm_id":"899395375","tag":{"amenity":"recycling","recycling:glass":"yes"}},"type":"Feature"},
	{"geometry":{"coordinates":[6.98328,51.049113],"type":"Point"},"properties":{"osm_id":"1043380067","tag":{"amenity":"recycling","recycling:batteries":"no","recycling:books":"no","recycling:cans":"no","recycling:cardboard":"no","recycling:cartons":"no","recycling:clothes":"no","recycling:electrical_appliances":"no","recycling:glass":"yes","recycling:glass_bottles":"yes","recycling:green_waste":"no","recycling:magazines":"no","recycling:newspaper":"no","recycling:paper":"no","recycling:paper_packaging":"no","recycling:plastic":"no","recycling:plastic_bottles":"no","recycling:plastic_packaging":"no","recycling:scrap_metal":"no","recycling:small_appliances":"no","recycling:waste":"no","recycling:wood":"no","recycling_type":"container"}},"type":"Feature"},
	{"geometry":{"coordinates":[6.986122,51.050345],"type":"Point"},"properties":{"osm_id":"1043380078","tag":{"amenity":"recycling","recycling:batteries":"no","recycling:books":"no","recycling:cans":"no","recycling:cardboard":"no","recycling:cartons":"no","recycling:clothes":"yes","recycling:electrical_appliances":"no","recycling:glass":"yes","recycling:glass_bottles":"yes","recycling:green_waste":"no","recycling:magazines":"no","recycling:newspaper":"no","recycling:paper":"no","recycling:paper_packaging":"no","recycling:plastic":"no","recycling:plastic_bottles":"no","recycling:plastic_packaging":"no","recycling:scrap_metal":"no","recycling:small_appliances":"no","recycling:waste":"no","recycling:wood":"no","recycling_type":"container"}},"type":"Feature"},
	{"geometry":{"coordinates":[6.984775,51.046614],"type":"Point"},"properties":{"osm_id":"1043380082","tag":{"amenity":"recycling","recycling:batteries":"no","recycling:books":"no","recycling:cans":"no","recycling:cardboard":"no","recycling:cartons":"no","recycling:clothes":"no","recycling:electrical_appliances":"no","recycling:glass":"yes","recycling:glass_bottles":"yes","recycling:green_waste":"no","recycling:magazines":"no","recycling:newspaper":"no","recycling:paper":"no","recycling:paper_packaging":"no","recycling:plastic":"no","recycling:plastic_bottles":"no","recycling:plastic_packaging":"no","recycling:scrap_metal":"no","recycling:small_appliances":"no","recycling:waste":"no","recycling:wood":"no","recycling_type":"container"}},"type":"Feature"},
	{"geometry":{"coordinates":[6.982614,51.045731],"type":"Point"},"properties":{"osm_id":"1086760601","tag":{"amenity":"recycling","recycling:batteries":"no","recycling:books":"no","recycling:cans":"no","recycling:cardboard":"no","recycling:cartons":"no","recycling:clothes":"yes","recycling:electrical_appliances":"no","recycling:glass":"no","recycling:glass_bottles":"no","recycling:green_waste":"no","recycling:magazines":"no","recycling:newspaper":"no","recycling:paper":"no","recycling:paper_packaging":"no","recycling:plastic":"no","recycling:plastic_bottles":"no","recycling:plastic_packaging":"no","recycling:scrap_metal":"no","recycling:small_appliances":"no","recycling:waste":"no","recycling:wood":"no","recycling_type":"container"}},"type":"Feature"},
	{"geometry":{"coordinates":[6.990889,51.03151],"type":"Point"},"properties":{"osm_id":"1102920267","tag":{"amenity":"waste_basket"}},"type":"Feature"},
	{"geometry":{"coordinates":[7.002955,51.029609],"type":"Point"},"properties":{"osm_id":"1234701467","tag":{"amenity":"recycling"}},"type":"Feature"},
	{"geometry":{"coordinates":[6.970107,51.05191],"type":"Point"},"properties":{"osm_id":"1241134969","tag":{"amenity":"recycling"}},"type":"Feature"},
	{"geometry":{"coordinates":[6.989987,51.049721],"type":"Point"},"properties":{"osm_id":"1241136768","tag":{"amenity":"recycling","recycling:cans":"no","recycling:clothes":"yes","recycling:glass":"yes","recycling:paper":"no","recycling:small_appliances":"yes","recycling_type":"container"}},"type":"Feature"},
	{"geometry":{"coordinates":[6.949049,51.066445],"type":"Point"},"properties":{"osm_id":"1369847994","tag":{"amenity":"recycling"}},"type":"Feature"},
	{"geometry":{"coordinates":[6.99773,51.021057],"type":"Point"},"properties":{"osm_id":"1683516904","tag":{"amenity":"recycling","recycling:clothes":"yes","recycling_type":"container"}},"type":"Feature"},
	{"geometry":{"coordinates":[7.000122,51.024572],"type":"Point"},"properties":{"osm_id":"1683516912","tag":{"amenity":"recycling","recycling:glass":"yes","recycling_type":"container"}},"type":"Feature"},
	{"geometry":{"coordinates":[7.01911,51.033112],"type":"Point"},"properties":{"osm_id":"1743976609","tag":{"amenity":"recycling","recycling:glass":"yes"}},"type":"Feature"},
	{"geometry":{"coordinates":[6.950654,51.052967],"type":"Point"},"properties":{"osm_id":"1794113783","tag":{"amenity":"recycling","recycling:clothes":"yes","recycling:glass":"yes","recycling_type":"container"}},"type":"Feature"},
	{"geometry":{"coordinates":[6.949586,51.050746],"type":"Point"},"properties":{"osm_id":"1794113787","tag":{"amenity":"recycling","recycling:electrical_appliances":"yes","recycling:glass":"yes","recycling:glass_bottles":"yes","recycling_type":"container"}},"type":"Feature"},
	{"geometry":{"coordinates":[6.978259,51.050307],"type":"Point"},"properties":{"osm_id":"1846596158","tag":{"amenity":"recycling","recycling:glass":"yes","recycling:glass_bottles":"yes"}},"type":"Feature"},
	{"geometry":{"coordinates":[6.978651,51.047666],"type":"Point"},"properties":{"osm_id":"1885232800","tag":{"amenity":"recycling","recycling:glass":"yes","recycling:glass_bottles":"yes","recycling_type":"container"}},"type":"Feature"},
	{"geometry":{"coordinates":[7.007377,51.03803],"type":"Point"},"properties":{"osm_id":"1955097384","tag":{"amenity":"recycling","recycling:clothes":"yes","recycling:glass":"yes","recycling_type":"container"}},"type":"Feature"},
	{"geometry":{"coordinates":[6.98712,51.035357],"type":"Point"},"properties":{"osm_id":"1956340245","tag":{"amenity":"recycling","recycling:clothes":"yes","recycling_type":"container"}},"type":"Feature"},
	{"geometry":{"coordinates":[6.969305,51.03227],"type":"Point"},"properties":{"osm_id":"2098020408","tag":{"amenity":"recycling","recycling:glass":"yes"}},"type":"Feature"},
	{"geometry":{"coordinates":[7.004174,51.029376],"type":"Point"},"properties":{"osm_id":"2368844567","tag":{"amenity":"recycling","recycling:clothes":"yes","recycling:glass":"yes","recycling_type":"container"}},"type":"Feature"},
	{"geometry":{"coordinates":[7.010128,51.034453],"type":"Point"},"properties":{"osm_id":"2402863818","tag":{"amenity":"recycling","recycling:clothes":"yes","recycling:glass":"yes","recycling_type":"container"}},"type":"Feature"},
	{"geometry":{"coordinates":[6.984552,51.033062],"type":"Point"},"properties":{"osm_id":"2415758272","tag":{"amenity":"recycling","recycling:clothes":"yes","recycling_type":"container"}},"type":"Feature"},
	{"geometry":{"coordinates":[6.981095,51.041654],"type":"Point"},"properties":{"osm_id":"2512831170","tag":{"amenity":"recycling","recycling:glass":"yes","recycling_type":"container"}},"type":"Feature"},
	{"geometry":{"coordinates":[7.021522,51.045092],"type":"Point"},"properties":{"osm_id":"2765609344","tag":{"amenity":"recycling","recycling:clothes":"yes","recycling:glass_bottles":"yes","recycling_type":"container"}},"type":"Feature"},
	{"geometry":{"coordinates":[6.98315,51.05361],"type":"Point"},"properties":{"osm_id":"2776271511","tag":{"amenity":"recycling","description":"Glascontainer","layer":"1","recycling:batteries":"no","recycling:books":"no","recycling:cans":"no","recycling:cardboard":"no","recycling:cartons":"no","recycling:clothes":"no","recycling:electrical_appliances":"no","recycling:glass":"yes","recycling:glass_bottles":"yes","recycling:green_waste":"no","recycling:magazines":"no","recycling:newspaper":"no","recycling:paper":"no","recycling:paper_packaging":"no","recycling:plastic":"no","recycling:plastic_bottles":"no","recycling:plastic_packaging":"no","recycling:scrap_metal":"no","recycling:small_appliances":"no","recycling:waste":"no","recycling:wood":"no","recycling_type":"container"}},"type":"Feature"},
	{"geometry":{"coordinates":[7.001998,51.064483],"type":"Point"},"properties":{"osm_id":"2777318456","tag":{"amenity":"recycling","recycling:glass":"yes","recycling_type":"container"}},"type":"Feature"},
	{"geometry":{"coordinates":[7.0155,51.049541],"type":"Point"},"properties":{"osm_id":"2777320609","tag":{"amenity":"recycling","recycling:glass_bottles":"yes","recycling_type":"container"}},"type":"Feature"},
	{"geometry":{"coordinates":[6.998186,51.060894],"type":"Point"},"properties":{"osm_id":"2873210109","tag":{"amenity":"recycling","recycling:clothes":"yes","recycling:glass_bottles":"yes","recycling_type":"container"}},"type":"Feature"},
	{"geometry":{"coordinates":[7.016821,51.059116],"type":"Point"},"properties":{"osm_id":"3782925667","tag":{"amenity":"recycling","operator":"avea","recycling:clothes":"yes","recycling_type":"container"}},"type":"Feature"},
	{"geometry":{"coordinates":[7.000403,51.052778],"type":"Point"},"properties":{"osm_id":"3902502576","tag":{"amenity":"recycling","recycling:clothes":"yes","recycling:glass":"yes","recycling_type":"container"}},"type":"Feature"},
	{"geometry":{"coordinates":[6.973896,51.033214],"type":"Point"},"properties":{"name":"Altglas Container","osm_id":"4085335803","tag":{"addr:city":"Leverkusen","addr:postcode":"51373","addr:street":"Dh\u00c3\u00bcnnstra\u00c3\u009fe","amenity":"recycling","recycling:cans":"no","recycling:clothes":"no","recycling:glass":"yes","recycling:glass_bottles":"yes","recycling:paper":"no","recycling:plastic":"no"}},"type":"Feature"},
	{"geometry":{"coordinates":[6.973853,51.033204],"type":"Point"},"properties":{"name":"Altkleider Container","osm_id":"4085335804","tag":{"addr:city":"Leverkusen","addr:postcode":"51373","addr:street":"Dh\u00c3\u00bcnnstra\u00c3\u009fe","amenity":"recycling","recycling:cans":"no","recycling:clothes":"yes","recycling:glass":"no","recycling:glass_bottles":"no","recycling:paper":"no","recycling:plastic":"no"}},"type":"Feature"},
	{"geometry":{"coordinates":[6.94659,51.055779],"type":"Point"},"properties":{"osm_id":"4596524607","tag":{"amenity":"recycling","opening_hours":"Mo-Sa 07:00-20:00; Su,PH off","operator":"AVEA GmbH & Co. KG","recycling:glass_bottles":"yes","recycling_type":"container"}},"type":"Feature"},
	{"geometry":{"coordinates":[7.003618,51.063232],"type":"Point"},"properties":{"osm_id":"4625349503","tag":{"amenity":"waste_basket"}},"type":"Feature"},
	{"geometry":{"coordinates":[7.001654,51.06212],"type":"Point"},"properties":{"osm_id":"4625349504","tag":{"amenity":"waste_basket"}},"type":"Feature"},
	{"geometry":{"coordinates":[6.998004,51.062692],"type":"Point"},"properties":{"osm_id":"4625349506","tag":{"amenity":"waste_basket"}},"type":"Feature"},
	{"geometry":{"coordinates":[6.958964,51.06161],"type":"Point"},"properties":{"osm_id":"4625349507","tag":{"amenity":"waste_basket"}},"type":"Feature"},
	{"geometry":{"coordinates":[6.989637,51.064419],"type":"Point"},"properties":{"osm_id":"4625417199","tag":{"amenity":"waste_basket"}},"type":"Feature"},
	{"geometry":{"coordinates":[6.953381,51.054813],"type":"Point"},"properties":{"osm_id":"4625417200","tag":{"amenity":"waste_basket"}},"type":"Feature"},
	{"geometry":{"coordinates":[6.953363,51.054856],"type":"Point"},"properties":{"osm_id":"4625417304","tag":{"amenity":"waste_basket"}},"type":"Feature"},
	{"geometry":{"coordinates":[6.95218,51.055373],"type":"Point"},"properties":{"osm_id":"4625417305","tag":{"amenity":"recycling","operator":"avea","recycling:clothes":"yes","recycling_type":"container"}},"type":"Feature"},
	{"geometry":{"coordinates":[6.955643,51.058271],"type":"Point"},"properties":{"osm_id":"4625417401","tag":{"amenity":"waste_basket"}},"type":"Feature"},
	{"geometry":{"coordinates":[6.952154,51.055375],"type":"Point"},"properties":{"osm_id":"4625417402","tag":{"amenity":"recycling","opening_hours":"Mo-Sa 07:00-20:00; Su,PH off","operator":"reloga","recycling:glass_bottles":"yes","recycling_type":"container"}},"type":"Feature"},
	{"geometry":{"coordinates":[6.994602,51.063973],"type":"Point"},"properties":{"osm_id":"4625417699","tag":{"amenity":"waste_basket"}},"type":"Feature"},
	{"geometry":{"coordinates":[6.991612,51.06373],"type":"Point"},"properties":{"osm_id":"4625417700","tag":{"amenity":"waste_basket"}},"type":"Feature"},
	{"geometry":{"coordinates":[6.963399,51.063926],"type":"Point"},"properties":{"osm_id":"4625417701","tag":{"amenity":"waste_basket"}},"type":"Feature"},
	{"geometry":{"coordinates":[7.004845,51.067198],"type":"Point"},"properties":{"osm_id":"4625455890","tag":{"amenity":"waste_basket"}},"type":"Feature"},
	{"geometry":{"coordinates":[7.004965,51.064424],"type":"Point"},"properties":{"osm_id":"4625455891","tag":{"amenity":"waste_basket"}},"type":"Feature"},
	{"geometry":{"coordinates":[7.031227,51.031728],"type":"Point"},"properties":{"osm_id":"4655689231","tag":{"amenity":"waste_basket"}},"type":"Feature"},
	{"geometry":{"coordinates":[7.031091,51.031783],"type":"Point"},"properties":{"osm_id":"4655689234","tag":{"amenity":"waste_basket"}},"type":"Feature"},
	{"geometry":{"coordinates":[7.031014,51.031688],"type":"Point"},"properties":{"osm_id":"4655689235","tag":{"amenity":"waste_basket"}},"type":"Feature"},
	{"geometry":{"coordinates":[6.995454,51.034831],"type":"Point"},"properties":{"osm_id":"4835346749","tag":{"amenity":"waste_basket"}},"type":"Feature"},
	{"geometry":{"coordinates":[6.995581,51.034913],"type":"Point"},"properties":{"osm_id":"4835346750","tag":{"amenity":"waste_basket"}},"type":"Feature"},
	{"geometry":{"coordinates":[7.030865,51.041345],"type":"Point"},"properties":{"name":"Schadstoffmobil","osm_id":"4842551384","tag":{"amenity":"recycling","opening_hours":"\"twice per month\"","operator":"AVEA","recycling:hazardous_waste":"yes","recycling_type":"container"}},"type":"Feature"},
	{"geometry":{"coordinates":[7.030877,51.041332],"type":"Point"},"properties":{"name":"Gr\u00c3\u00bcnschnitt","osm_id":"4842551385","tag":{"amenity":"recycling","opening_hours":"Mo 15:00-18:00","operator":"AVEA","recycling:green_waste":"yes","recycling_type":"container"}},"type":"Feature"},
	{"geometry":{"coordinates":[7.011886,51.057053],"type":"Point"},"properties":{"name":"AWL Recyclinghof","osm_id":"4890901421","tag":{"amenity":"recycling","recycling_type":"centre"}},"type":"Feature"},
	{"geometry":{"coordinates":[6.985051,51.056143],"type":"Point"},"properties":{"osm_id":"5018191723","tag":{"amenity":"waste_basket"}},"type":"Feature"},
	{"geometry":{"coordinates":[6.946666,51.056027],"type":"Point"},"properties":{"osm_id":"5217142322","tag":{"amenity":"recycling","operator":"Avea","recycling:clothes":"yes","recycling_type":"container"}},"type":"Feature"},
	{"geometry":{"coordinates":[6.953473,51.054796],"type":"Point"},"properties":{"osm_id":"5242307622","tag":{"amenity":"waste_basket"}},"type":"Feature"},
	{"geometry":{"coordinates":[6.948079,51.028226],"type":"Point"},"properties":{"osm_id":"5289546926","tag":{"amenity":"waste_basket"}},"type":"Feature"},
	{"geometry":{"coordinates":[7.028442,51.03517],"type":"Point"},"properties":{"osm_id":"5662966172","tag":{"amenity":"waste_basket"}},"type":"Feature"},
	{"geometry":{"coordinates":[6.978881,51.039309],"type":"Point"},"properties":{"osm_id":"5869294342","tag":{"amenity":"waste_basket"}},"type":"Feature"},
	{"geometry":{"coordinates":[6.973858,51.037505],"type":"Point"},"properties":{"osm_id":"5919154580","tag":{"amenity":"waste_basket","waste":"trash"}},"type":"Feature"},
	{"geometry":{"coordinates":[7.028941,51.036361],"type":"Point"},"properties":{"osm_id":"5919155089","tag":{"amenity":"waste_basket","waste":"trash"}},"type":"Feature"},
	{"geometry":{"coordinates":[7.023181,51.062791],"type":"Point"},"properties":{"osm_id":"6225946673","tag":{"amenity":"waste_basket","waste":"trash"}},"type":"Feature"},
	{"geometry":{"coordinates":[7.024525,51.061823],"type":"Point"},"properties":{"osm_id":"6226012497","tag":{"amenity":"waste_basket"}},"type":"Feature"},
	{"geometry":{"coordinates":[6.962731,51.064394],"type":"Point"},"properties":{"osm_id":"6332528759","tag":{"amenity":"recycling","recycling:clothes":"yes","recycling:glass":"yes","recycling_type":"container"}},"type":"Feature"},
	{"geometry":{"coordinates":[6.978685,51.047666],"type":"Point"},"properties":{"osm_id":"6784418129","tag":{"amenity":"recycling","recycling:electrical_items":"yes","recycling_type":"container"}},"type":"Feature"},
	{"geometry":{"coordinates":[6.982672,51.049115],"type":"Point"},"properties":{"osm_id":"6787763705","tag":{"amenity":"waste_basket","material":"metal"}},"type":"Feature"},
	{"geometry":{"coordinates":[7.023439,51.06167],"type":"Point"},"properties":{"osm_id":"7503114541","tag":{"amenity":"waste_basket"}},"type":"Feature"},
	{"geometry":{"coordinates":[6.993138,51.021206],"type":"Point"},"properties":{"osm_id":"7575816756","tag":{"amenity":"recycling","recycling:glass":"yes","recycling:glass_bottles":"yes","recycling_type":"container"}},"type":"Feature"},
	{"geometry":{"coordinates":[6.980063,51.030457],"type":"Point"},"properties":{"osm_id":"7631529507","tag":{"amenity":"recycling","recycling:clothes":"yes","recycling:shoes":"yes","recycling_type":"container"}},"type":"Feature"},
	{"geometry":{"coordinates":[6.980078,51.030431],"type":"Point"},"properties":{"osm_id":"7631529508","tag":{"amenity":"recycling","recycling:glass":"yes","recycling_type":"container","wheelchair":"no"}},"type":"Feature"},
	{"geometry":{"coordinates":[6.98707,51.03515],"type":"Point"},"properties":{"osm_id":"7631784970","tag":{"amenity":"recycling","recycling:glass":"yes","recycling_type":"container"}},"type":"Feature"},
	{"geometry":{"coordinates":[7.028053,51.061197],"type":"Point"},"properties":{"osm_id":"7947484195","tag":{"amenity":"waste_basket"}},"type":"Feature"}
]
}
