{
"type": "FeatureCollection",
"features": [
	{"geometry":{"coordinates":[6.946574,50.965762],"type":"Point"},"properties":{"osm_id":"218051009","tag":{"amenity":"recycling"}},"type":"Feature"},
	{"geometry":{"coordinates":[6.946037,50.971425],"type":"Point"},"properties":{"osm_id":"230367422","tag":{"amenity":"recycling","recycling:glass_bottles":"yes","recycling_type":"container"}},"type":"Feature"},
	{"geometry":{"coordinates":[6.946885,50.969571],"type":"Point"},"properties":{"osm_id":"242848042","tag":{"amenity":"recycling"}},"type":"Feature"},
	{"geometry":{"coordinates":[6.944149,50.982528],"type":"Point"},"properties":{"osm_id":"242924096","tag":{"amenity":"recycling","operator":"Remondis","recycling:glass_bottles":"yes","recycling_type":"container"}},"type":"Feature"},
	{"geometry":{"coordinates":[6.944856,50.960619],"type":"Point"},"properties":{"osm_id":"246271910","tag":{"amenity":"recycling"}},"type":"Feature"},
	{"geometry":{"coordinates":[6.94578,50.961857],"type":"Point"},"properties":{"osm_id":"246271995","tag":{"amenity":"recycling"}},"type":"Feature"},
	{"geometry":{"coordinates":[6.943631,50.973814],"type":"Point"},"properties":{"osm_id":"246567576","tag":{"amenity":"recycling"}},"type":"Feature"},
	{"geometry":{"coordinates":[6.949738,50.972373],"type":"Point"},"properties":{"osm_id":"246767760","tag":{"amenity":"recycling","location":"overground","recycling_type":"container"}},"type":"Feature"},
	{"geometry":{"coordinates":[6.9473,50.972243],"type":"Point"},"properties":{"osm_id":"246767761","tag":{"amenity":"recycling"}},"type":"Feature"},
	{"geometry":{"coordinates":[6.943712,50.968572],"type":"Point"},"properties":{"osm_id":"246770835","tag":{"amenity":"recycling","location":"overground","recycling:clothes":"yes","recycling:glass_bottles":"yes","recycling_type":"container"}},"type":"Feature"},
	{"geometry":{"coordinates":[6.956757,50.97431],"type":"Point"},"properties":{"osm_id":"247379920","tag":{"amenity":"recycling","operator":"AWB","recycling:clothes":"yes","recycling_type":"container"}},"type":"Feature"},
	{"geometry":{"coordinates":[6.951761,50.963276],"type":"Point"},"properties":{"osm_id":"256542284","tag":{"amenity":"recycling"}},"type":"Feature"},
	{"geometry":{"coordinates":[6.951361,50.964061],"type":"Point"},"properties":{"osm_id":"256542285","tag":{"amenity":"recycling"}},"type":"Feature"},
	{"geometry":{"coordinates":[6.960806,50.976918],"type":"Point"},"properties":{"osm_id":"268239330","tag":{"amenity":"recycling","recycling:glass_bottles":"yes","recycling_type":"container"}},"type":"Feature"},
	{"geometry":{"coordinates":[7.019543,50.96422],"type":"Point"},"properties":{"osm_id":"316257616","tag":{"amenity":"recycling","location":"overground","recycling:glass":"yes","recycling_type":"container"}},"type":"Feature"},
	{"geometry":{"coordinates":[6.997342,50.991236],"type":"Point"},"properties":{"osm_id":"317333092","tag":{"amenity":"recycling","recycling:glass":"yes"}},"type":"Feature"},
	{"geometry":{"coordinates":[6.984193,50.995522],"type":"Point"},"properties":{"osm_id":"317333200","tag":{"amenity":"recycling","location":"overground","recycling:glass":"yes","recycling_type":"container"}},"type":"Feature"},
	{"geometry":{"coordinates":[6.983926,50.997643],"type":"Point"},"properties":{"osm_id":"317333207","tag":{"amenity":"recycling","operator":"Humana","recycling:clothes":"yes","recycling_type":"container"}},"type":"Feature"},
	{"geometry":{"coordinates":[6.992346,50.993174],"type":"Point"},"properties":{"osm_id":"317378178","tag":{"amenity":"recycling","operator":"AWB K\u00c3\u00b6ln","recycling:clothes":"yes","recycling_type":"container"}},"type":"Feature"},
	{"geometry":{"coordinates":[6.992341,50.993133],"type":"Point"},"properties":{"osm_id":"317378181","tag":{"amenity":"recycling","recycling:glass_bottles":"yes","recycling_type":"container"}},"type":"Feature"},
	{"geometry":{"coordinates":[7.023256,50.975306],"type":"Point"},"properties":{"osm_id":"318609589","tag":{"amenity":"recycling","operator":"Humana","recycling:clothes":"yes"}},"type":"Feature"},
	{"geometry":{"coordinates":[7.02731,50.996266],"type":"Point"},"properties":{"osm_id":"321673539","tag":{"amenity":"recycling","recycling:glass_bottles":"yes","recycling_type":"container"}},"type":"Feature"},
	{"geometry":{"coordinates":[7.027909,51.006751],"type":"Point"},"properties":{"osm_id":"324404285","tag":{"amenity":"recycling","location":"overground","recycling:clothes":"yes","recycling:glass":"no","recycling:glass_bottles":"yes","recycling_type":"container"}},"type":"Feature"},
	{"geometry":{"coordinates":[7.030551,51.005675],"type":"Point"},"properties":{"osm_id":"348344522","tag":{"amenity":"recycling","location":"overground","recycling:glass":"no","recycling:glass_bottles":"yes","recycling_type":"container"}},"type":"Feature"},
	{"geometry":{"coordinates":[6.951583,50.972225],"type":"Point"},"properties":{"osm_id":"349019225","tag":{"amenity":"recycling","recycling:glass":"yes"}},"type":"Feature"},
	{"geometry":{"coordinates":[7.022853,50.962855],"type":"Point"},"properties":{"osm_id":"353031301","tag":{"amenity":"recycling","recycling:glass":"yes"}},"type":"Feature"},
	{"geometry":{"coordinates":[7.012216,50.961861],"type":"Point"},"properties":{"osm_id":"356002135","tag":{"amenity":"recycling","location":"overground","recycling:glass":"yes","recycling_type":"container"}},"type":"Feature"},
	{"geometry":{"coordinates":[6.959423,50.971482],"type":"Point"},"properties":{"osm_id":"366640640","tag":{"amenity":"recycling","recycling:glass_bottles":"yes","recycling_type":"container"}},"type":"Feature"},
	{"geometry":{"coordinates":[6.9526,50.977176],"type":"Point"},"properties":{"osm_id":"366660686","tag":{"amenity":"recycling","location":"overground","recycling:glass":"yes","recycling_type":"container"}},"type":"Feature"},
	{"geometry":{"coordinates":[6.964639,50.977218],"type":"Point"},"properties":{"osm_id":"366680893","tag":{"amenity":"recycling","recycling:clothes":"yes","recycling:glass_bottles":"yes","recycling_type":"container"}},"type":"Feature"},
	{"geometry":{"coordinates":[6.962855,50.98172],"type":"Point"},"properties":{"osm_id":"366686327","tag":{"amenity":"recycling","recycling:clothes":"yes"}},"type":"Feature"},
	{"geometry":{"coordinates":[6.963433,50.979774],"type":"Point"},"properties":{"osm_id":"366698457","tag":{"amenity":"recycling","recycling:glass":"yes","recycling_type":"container"}},"type":"Feature"},
	{"geometry":{"coordinates":[6.960674,50.980191],"type":"Point"},"properties":{"osm_id":"366702758","tag":{"amenity":"recycling","location":"overground","recycling:glass_bottles":"yes","recycling_type":"container"}},"type":"Feature"},
	{"geometry":{"coordinates":[6.959241,50.990079],"type":"Point"},"properties":{"osm_id":"366717019","tag":{"amenity":"recycling","recycling:glass":"yes"}},"type":"Feature"},
	{"geometry":{"coordinates":[6.95999,50.995671],"type":"Point"},"properties":{"osm_id":"366728536","tag":{"amenity":"recycling","recycling:glass_bottles":"yes","recycling_type":"container"}},"type":"Feature"},
	{"geometry":{"coordinates":[6.955397,50.992017],"type":"Point"},"properties":{"osm_id":"366729468","tag":{"amenity":"recycling","recycling:clothes":"yes","recycling:glass":"yes"}},"type":"Feature"},
	{"geometry":{"coordinates":[6.945929,50.958741],"type":"Point"},"properties":{"osm_id":"456811040","tag":{"amenity":"recycling","recycling:clothes":"yes","recycling_type":"container"}},"type":"Feature"},
	{"geometry":{"coordinates":[6.961872,50.992457],"type":"Point"},"properties":{"osm_id":"462753912","tag":{"amenity":"recycling"}},"type":"Feature"},
	{"geometry":{"coordinates":[7.006601,50.972715],"type":"Point"},"properties":{"osm_id":"469319403","tag":{"amenity":"recycling","recycling:glass":"yes"}},"type":"Feature"},
	{"geometry":{"coordinates":[7.002602,50.975038],"type":"Point"},"properties":{"osm_id":"469319421","tag":{"amenity":"recycling","recycling:glass":"yes"}},"type":"Feature"},
	{"geometry":{"coordinates":[6.995131,50.983958],"type":"Point"},"properties":{"osm_id":"469420124","tag":{"amenity":"recycling","operator":"Malteser","recycling:clothes":"yes","recycling_type":"container"}},"type":"Feature"},
	{"geometry":{"coordinates":[7.013202,50.979164],"type":"Point"},"properties":{"osm_id":"486298039","tag":{"amenity":"recycling","recycling:glass":"yes","recycling_type":"container"}},"type":"Feature"},
	{"geometry":{"coordinates":[7.011691,50.983547],"type":"Point"},"properties":{"osm_id":"486658679","tag":{"amenity":"recycling","recycling:glass_bottles":"yes","recycling_type":"container"}},"type":"Feature"},
	{"geometry":{"coordinates":[7.012272,50.98402],"type":"Point"},"properties":{"osm_id":"486659303","tag":{"amenity":"recycling","operator":"DESWOS","recycling:cans":"no","recycling:clothes":"yes","recycling:glass":"no","recycling:paper":"no","recycling_type":"container"}},"type":"Feature"},
	{"geometry":{"coordinates":[7.006973,50.984772],"type":"Point"},"properties":{"osm_id":"487083344","tag":{"amenity":"recycling","recycling:glass_bottles":"yes","recycling_type":"container"}},"type":"Feature"},
	{"geometry":{"coordinates":[6.965126,50.971135],"type":"Point"},"properties":{"osm_id":"512548224","tag":{"amenity":"recycling","location":"overground","recycling:glass":"yes","recycling_type":"container"}},"type":"Feature"},
	{"geometry":{"coordinates":[7.026367,50.975824],"type":"Point"},"properties":{"osm_id":"521419338","tag":{"amenity":"recycling","recycling:glass":"yes","recycling_type":"container"}},"type":"Feature"},
	{"geometry":{"coordinates":[6.99219,50.984279],"type":"Point"},"properties":{"osm_id":"527133342","tag":{"amenity":"recycling","recycling:glass":"yes","recycling_type":"container"}},"type":"Feature"},
	{"geometry":{"coordinates":[6.988295,51.000681],"type":"Point"},"properties":{"osm_id":"596154898","tag":{"amenity":"recycling","location":"overground","recycling:clothes":"yes","recycling:glass_bottles":"yes","recycling_type":"container"}},"type":"Feature"},
	{"geometry":{"coordinates":[6.985097,51.001438],"type":"Point"},"properties":{"osm_id":"596154900","tag":{"amenity":"recycling","recycling:glass_bottles":"yes","recycling_type":"container"}},"type":"Feature"},
	{"geometry":{"coordinates":[6.977187,50.964074],"type":"Point"},"properties":{"osm_id":"633363519","tag":{"amenity":"recycling","operator":"AWB","recycling:clothes":"yes","recycling_type":"container"}},"type":"Feature"},
	{"geometry":{"coordinates":[6.968882,50.963721],"type":"Point"},"properties":{"osm_id":"633417073","tag":{"amenity":"recycling","location":"overground","recycling:glass_bottles":"yes","recycling_type":"container"}},"type":"Feature"},
	{"geometry":{"coordinates":[6.969384,50.967429],"type":"Point"},"properties":{"osm_id":"633672228","tag":{"amenity":"recycling","opening_hours":"24/7","operator":"Remondis","recycling:glass_bottles":"yes","recycling_type":"container"}},"type":"Feature"},
	{"geometry":{"coordinates":[6.980114,50.966515],"type":"Point"},"properties":{"osm_id":"936369524","tag":{"amenity":"recycling","recycling:glass":"yes","recycling_type":"container"}},"type":"Feature"},
	{"geometry":{"coordinates":[6.973586,50.958652],"type":"Point"},"properties":{"osm_id":"937649803","tag":{"amenity":"waste_basket"}},"type":"Feature"},
	{"geometry":{"coordinates":[6.973884,50.958966],"type":"Point"},"properties":{"osm_id":"937649805","tag":{"amenity":"waste_basket"}},"type":"Feature"},
	{"geometry":{"coordinates":[7.00771,50.975239],"type":"Point"},"properties":{"osm_id":"960317008","tag":{"amenity":"recycling","recycling:clothes":"yes"}},"type":"Feature"},
	{"geometry":{"coordinates":[7.008964,50.974689],"type":"Point"},"properties":{"osm_id":"960317059","tag":{"amenity":"recycling","recycling:glass":"yes"}},"type":"Feature"},
	{"geometry":{"coordinates":[7.00661,50.973206],"type":"Point"},"properties":{"osm_id":"960317069","tag":{"amenity":"recycling","recycling:clothes":"yes"}},"type":"Feature"},
	{"geometry":{"coordinates":[7.025609,50.982465],"type":"Point"},"properties":{"osm_id":"1152590436","tag":{"amenity":"recycling","recycling:clothes":"yes"}},"type":"Feature"},
	{"geometry":{"coordinates":[6.963973,50.960854],"type":"Point"},"properties":{"osm_id":"1399985671","tag":{"amenity":"recycling","recycling:glass_bottles":"yes"}},"type":"Feature"},
	{"geometry":{"coordinates":[7.005359,50.960417],"type":"Point"},"properties":{"osm_id":"1593180561","tag":{"amenity":"recycling","recycling:glass_bottles":"yes","recycling_type":"container"}},"type":"Feature"},
	{"geometry":{"coordinates":[7.011381,50.975819],"type":"Point"},"properties":{"osm_id":"1748609467","tag":{"amenity":"waste_basket"}},"type":"Feature"},
	{"geometry":{"coordinates":[7.00318,50.961562],"type":"Point"},"properties":{"osm_id":"1822072875","tag":{"amenity":"recycling","operator":"Remondis","recycling:glass_bottles":"yes","recycling_type":"container"}},"type":"Feature"},
	{"geometry":{"coordinates":[6.993481,50.958579],"type":"Point"},"properties":{"osm_id":"1841111823","tag":{"amenity":"waste_disposal"}},"type":"Feature"},
	{"geometry":{"coordinates":[6.961443,50.961223],"type":"Point"},"properties":{"osm_id":"2030381223","tag":{"amenity":"recycling","recycling:glass_bottles":"yes","recycling_type":"container"}},"type":"Feature"},
	{"geometry":{"coordinates":[6.959181,50.969102],"type":"Point"},"properties":{"osm_id":"2032344177","tag":{"amenity":"recycling","recycling:glass_bottles":"yes","recycling_type":"container"}},"type":"Feature"},
	{"geometry":{"coordinates":[7.001793,50.972056],"type":"Point"},"properties":{"osm_id":"2056113087","tag":{"amenity":"waste_basket"}},"type":"Feature"},
	{"geometry":{"coordinates":[7.010039,50.971908],"type":"Point"},"properties":{"osm_id":"2074607003","tag":{"amenity":"waste_basket"}},"type":"Feature"},
	{"geometry":{"coordinates":[7.010288,50.972042],"type":"Point"},"properties":{"osm_id":"2074607007","tag":{"amenity":"waste_basket"}},"type":"Feature"},
	{"geometry":{"coordinates":[7.009583,50.972124],"type":"Point"},"properties":{"osm_id":"2074607010","tag":{"amenity":"waste_basket"}},"type":"Feature"},
	{"geometry":{"coordinates":[7.010064,50.972126],"type":"Point"},"properties":{"osm_id":"2074607011","tag":{"amenity":"waste_basket"}},"type":"Feature"},
	{"geometry":{"coordinates":[6.958297,50.959949],"type":"Point"},"properties":{"osm_id":"2096386170","tag":{"amenity":"recycling","recycling:glass_bottles":"yes","recycling_type":"container"}},"type":"Feature"},
	{"geometry":{"coordinates":[6.983171,50.985534],"type":"Point"},"properties":{"osm_id":"2208133937","tag":{"amenity":"waste_basket"}},"type":"Feature"},
	{"geometry":{"coordinates":[6.982941,50.985587],"type":"Point"},"properties":{"osm_id":"2208133939","tag":{"amenity":"waste_basket"}},"type":"Feature"},
	{"geometry":{"coordinates":[6.982767,50.985634],"type":"Point"},"properties":{"osm_id":"2208133941","tag":{"amenity":"waste_basket"}},"type":"Feature"},
	{"geometry":{"coordinates":[6.98258,50.985664],"type":"Point"},"properties":{"osm_id":"2208133943","tag":{"amenity":"waste_basket"}},"type":"Feature"},
	{"geometry":{"coordinates":[6.982336,50.985711],"type":"Point"},"properties":{"osm_id":"2208133944","tag":{"amenity":"waste_basket"}},"type":"Feature"},
	{"geometry":{"coordinates":[6.982111,50.98577],"type":"Point"},"properties":{"osm_id":"2208133946","tag":{"amenity":"waste_basket"}},"type":"Feature"},
	{"geometry":{"coordinates":[6.979737,50.986559],"type":"Point"},"properties":{"osm_id":"2208133955","tag":{"amenity":"waste_basket"}},"type":"Feature"},
	{"geometry":{"coordinates":[6.981961,50.986756],"type":"Point"},"properties":{"osm_id":"2208133963","tag":{"amenity":"waste_basket"}},"type":"Feature"},
	{"geometry":{"coordinates":[6.981984,50.987199],"type":"Point"},"properties":{"osm_id":"2208133968","tag":{"amenity":"waste_basket"}},"type":"Feature"},
	{"geometry":{"coordinates":[6.983433,50.987722],"type":"Point"},"properties":{"osm_id":"2208133971","tag":{"amenity":"waste_basket"}},"type":"Feature"},
	{"geometry":{"coordinates":[6.951216,50.964915],"type":"Point"},"properties":{"osm_id":"2469708029","tag":{"amenity":"waste_basket"}},"type":"Feature"},
	{"geometry":{"coordinates":[6.951191,50.964939],"type":"Point"},"properties":{"osm_id":"2469708030","tag":{"amenity":"waste_basket"}},"type":"Feature"},
	{"geometry":{"coordinates":[7.024698,50.983326],"type":"Point"},"properties":{"osm_id":"2477424882","tag":{"amenity":"waste_basket"}},"type":"Feature"},
	{"geometry":{"coordinates":[6.994959,50.983824],"type":"Point"},"properties":{"osm_id":"2480127350","tag":{"amenity":"recycling","recycling:glass":"yes","recycling_type":"container"}},"type":"Feature"},
	{"geometry":{"coordinates":[6.997968,50.985668],"type":"Point"},"properties":{"osm_id":"2480127351","tag":{"amenity":"recycling","operator":"AWB K\u00c3\u00b6ln","recycling:clothes":"yes","recycling_type":"container"}},"type":"Feature"},
	{"geometry":{"coordinates":[6.988111,51.013316],"type":"Point"},"properties":{"osm_id":"2512730521","tag":{"amenity":"waste_basket"}},"type":"Feature"},
	{"geometry":{"coordinates":[6.988066,51.012744],"type":"Point"},"properties":{"osm_id":"2512730524","tag":{"amenity":"waste_basket"}},"type":"Feature"},
	{"geometry":{"coordinates":[6.988219,51.011843],"type":"Point"},"properties":{"osm_id":"2512730526","tag":{"amenity":"waste_basket"}},"type":"Feature"},
	{"geometry":{"coordinates":[6.992203,50.984465],"type":"Point"},"properties":{"osm_id":"2949664688","tag":{"amenity":"recycling","operator":"Malteser","recycling:clothes":"yes","recycling_type":"container"}},"type":"Feature"},
	{"geometry":{"coordinates":[6.951294,50.966309],"type":"Point"},"properties":{"osm_id":"3331972764","tag":{"amenity":"recycling","recycling:glass_bottles":"yes","recycling_type":"container"}},"type":"Feature"},
	{"geometry":{"coordinates":[6.955016,50.968765],"type":"Point"},"properties":{"osm_id":"3334243264","tag":{"amenity":"recycling","recycling:glass_bottles":"yes","recycling_type":"container"}},"type":"Feature"},
	{"geometry":{"coordinates":[7.013173,50.979181],"type":"Point"},"properties":{"osm_id":"3562101327","tag":{"amenity":"recycling","operator":"AWB K\u00c3\u00b6ln","recycling:clothes":"yes","recycling_type":"container"}},"type":"Feature"},
	{"geometry":{"coordinates":[6.943533,50.98557],"type":"Point"},"properties":{"osm_id":"3596010872","tag":{"amenity":"recycling","recycling:glass":"yes"}},"type":"Feature"},
	{"geometry":{"coordinates":[6.943541,50.985578],"type":"Point"},"properties":{"osm_id":"3596010873","tag":{"amenity":"recycling","recycling:glass":"yes"}},"type":"Feature"},
	{"geometry":{"coordinates":[6.943547,50.985584],"type":"Point"},"properties":{"osm_id":"3596010874","tag":{"amenity":"recycling","recycling:glass":"yes"}},"type":"Feature"},
	{"geometry":{"coordinates":[6.943553,50.985594],"type":"Point"},"properties":{"name":"Altkleider-Container Stadt K\u00c3\u00b6ln","osm_id":"3610503400","tag":{"amenity":"recycling","recycling:clothes":"yes"}},"type":"Feature"},
	{"geometry":{"coordinates":[6.949315,50.984458],"type":"Point"},"properties":{"osm_id":"3667506491","tag":{"amenity":"waste_basket"}},"type":"Feature"},
	{"geometry":{"coordinates":[6.971431,50.960344],"type":"Point"},"properties":{"osm_id":"3675432045","tag":{"amenity":"waste_basket"}},"type":"Feature"},
	{"geometry":{"coordinates":[6.969089,50.960014],"type":"Point"},"properties":{"osm_id":"3675570678","tag":{"amenity":"waste_basket"}},"type":"Feature"},
	{"geometry":{"coordinates":[6.968519,50.960271],"type":"Point"},"properties":{"osm_id":"3675577820","tag":{"amenity":"waste_basket"}},"type":"Feature"},
	{"geometry":{"coordinates":[6.970421,50.959591],"type":"Point"},"properties":{"osm_id":"3675982981","tag":{"amenity":"waste_basket"}},"type":"Feature"},
	{"geometry":{"coordinates":[6.969642,50.959367],"type":"Point"},"properties":{"osm_id":"3677799148","tag":{"amenity":"waste_basket"}},"type":"Feature"},
	{"geometry":{"coordinates":[6.969511,50.95943],"type":"Point"},"properties":{"osm_id":"3677799149","tag":{"amenity":"waste_basket"}},"type":"Feature"},
	{"geometry":{"coordinates":[6.971201,50.960314],"type":"Point"},"properties":{"osm_id":"3684957962","tag":{"amenity":"waste_basket"}},"type":"Feature"},
	{"geometry":{"coordinates":[6.969463,50.962075],"type":"Point"},"properties":{"osm_id":"3685885543","tag":{"amenity":"waste_basket"}},"type":"Feature"},
	{"geometry":{"coordinates":[6.970897,50.963269],"type":"Point"},"properties":{"osm_id":"3685885559","tag":{"amenity":"waste_basket"}},"type":"Feature"},
	{"geometry":{"coordinates":[7.011376,50.983718],"type":"Point"},"properties":{"osm_id":"3715087040","tag":{"amenity":"waste_basket"}},"type":"Feature"},
	{"geometry":{"coordinates":[7.011803,50.98372],"type":"Point"},"properties":{"osm_id":"3715087041","tag":{"amenity":"waste_basket"}},"type":"Feature"},
	{"geometry":{"coordinates":[7.011329,50.983905],"type":"Point"},"properties":{"osm_id":"3715087049","tag":{"amenity":"waste_basket"}},"type":"Feature"},
	{"geometry":{"coordinates":[7.006521,50.95915],"type":"Point"},"properties":{"osm_id":"3735579827","tag":{"amenity":"recycling","operator":"AWB K\u00c3\u00b6ln","recycling:clothes":"yes","recycling_type":"container"}},"type":"Feature"},
	{"geometry":{"coordinates":[7.006565,50.95916],"type":"Point"},"properties":{"osm_id":"3735579828","tag":{"amenity":"recycling","recycling:glass":"yes","recycling_type":"container"}},"type":"Feature"},
	{"geometry":{"coordinates":[7.005674,50.95965],"type":"Point"},"properties":{"osm_id":"3735579829","tag":{"amenity":"recycling","recycling:glass":"yes","recycling_type":"container"}},"type":"Feature"},
	{"geometry":{"coordinates":[7.004864,50.985477],"type":"Point"},"properties":{"osm_id":"3752486362","tag":{"amenity":"recycling","recycling:glass_bottles":"yes","recycling_type":"container"}},"type":"Feature"},
	{"geometry":{"coordinates":[6.984886,50.990006],"type":"Point"},"properties":{"osm_id":"3752486364","tag":{"amenity":"recycling","operator":"Malteser","recycling:clothes":"yes","recycling_type":"container"}},"type":"Feature"},
	{"geometry":{"coordinates":[6.983979,50.997472],"type":"Point"},"properties":{"osm_id":"3752486366","tag":{"amenity":"recycling","operator":"AWB K\u00c3\u00b6ln","recycling:clothes":"yes","recycling_type":"container"}},"type":"Feature"},
	{"geometry":{"coordinates":[6.983971,50.997509],"type":"Point"},"properties":{"osm_id":"3752486367","tag":{"amenity":"recycling","recycling:glass_bottles":"yes","recycling_type":"container"}},"type":"Feature"},
	{"geometry":{"coordinates":[6.983113,51.000888],"type":"Point"},"properties":{"osm_id":"3752486368","tag":{"amenity":"recycling","recycling:glass_bottles":"yes","recycling_type":"container"}},"type":"Feature"},
	{"geometry":{"coordinates":[6.9831,51.000918],"type":"Point"},"properties":{"osm_id":"3752486369","tag":{"amenity":"recycling","operator":"AWB K\u00c3\u00b6ln","recycling:clothes":"yes","recycling_type":"container"}},"type":"Feature"},
	{"geometry":{"coordinates":[6.997837,50.985537],"type":"Point"},"properties":{"osm_id":"3760151653","tag":{"amenity":"recycling","operator":"Malteser","recycling:clothes":"yes","recycling_type":"container"}},"type":"Feature"},
	{"geometry":{"coordinates":[6.997937,50.985688],"type":"Point"},"properties":{"osm_id":"3760151654","tag":{"amenity":"recycling","recycling:glass":"yes","recycling_type":"container"}},"type":"Feature"},
	{"geometry":{"coordinates":[6.997908,50.985875],"type":"Point"},"properties":{"osm_id":"3760151655","tag":{"amenity":"recycling","description:de":"Adresse des operators: Karl-Legien-Stra\u00c3\u009fe 10, 45356 Essen, 0201-8339333","operator":"L.G.R Recycling GmbH","recycling:clothes":"yes","recycling_type":"container"}},"type":"Feature"},
	{"geometry":{"coordinates":[6.997282,50.986425],"type":"Point"},"properties":{"osm_id":"3760151656","tag":{"amenity":"recycling","recycling:glass":"yes","recycling_type":"container"}},"type":"Feature"},
	{"geometry":{"coordinates":[7.020059,50.984878],"type":"Point"},"properties":{"osm_id":"3772941174","tag":{"amenity":"recycling","operator":"AWB K\u00c3\u00b6ln","recycling:clothes":"yes","recycling_type":"container"}},"type":"Feature"},
	{"geometry":{"coordinates":[7.020038,50.984887],"type":"Point"},"properties":{"osm_id":"3772941175","tag":{"amenity":"recycling","recycling:glass":"yes","recycling_type":"container"}},"type":"Feature"},
	{"geometry":{"coordinates":[7.022983,50.979986],"type":"Point"},"properties":{"osm_id":"3781142607","tag":{"amenity":"recycling","recycling:glass_bottles":"yes","recycling_type":"container"}},"type":"Feature"},
	{"geometry":{"coordinates":[7.023028,50.979988],"type":"Point"},"properties":{"osm_id":"3781142608","tag":{"amenity":"recycling","operator":"AWB K\u00c3\u00b6ln","recycling:clothes":"yes","recycling_type":"container"}},"type":"Feature"},
	{"geometry":{"coordinates":[7.023098,50.980083],"type":"Point"},"properties":{"osm_id":"3781142609","tag":{"amenity":"recycling","operator":"Humana","recycling:clothes":"yes","recycling_type":"container"}},"type":"Feature"},
	{"geometry":{"coordinates":[7.02968,50.993262],"type":"Point"},"properties":{"osm_id":"3781142611","tag":{"amenity":"recycling","recycling:glass_bottles":"yes","recycling_type":"container"}},"type":"Feature"},
	{"geometry":{"coordinates":[7.029656,50.993286],"type":"Point"},"properties":{"osm_id":"3781142612","tag":{"amenity":"recycling","operator":"AWB K\u00c3\u00b6ln","recycling:clothes":"yes","recycling_type":"container"}},"type":"Feature"},
	{"geometry":{"coordinates":[7.028152,50.99465],"type":"Point"},"properties":{"osm_id":"3781142613","tag":{"amenity":"recycling","operator":"DESWOS","recycling:clothes":"yes","recycling_type":"container"}},"type":"Feature"},
	{"geometry":{"coordinates":[6.991075,50.965995],"type":"Point"},"properties":{"osm_id":"3903065291","tag":{"amenity":"waste_basket"}},"type":"Feature"},
	{"geometry":{"coordinates":[6.988036,50.96668],"type":"Point"},"properties":{"osm_id":"3903065295","tag":{"amenity":"waste_basket"}},"type":"Feature"},
	{"geometry":{"coordinates":[7.027733,51.001092],"type":"Point"},"properties":{"osm_id":"4099295050","tag":{"amenity":"recycling","recycling:glass_bottles":"yes","recycling_type":"container"}},"type":"Feature"},
	{"geometry":{"coordinates":[7.02774,51.001231],"type":"Point"},"properties":{"osm_id":"4099295052","tag":{"amenity":"waste_basket"}},"type":"Feature"},
	{"geometry":{"coordinates":[6.958742,50.985329],"type":"Point"},"properties":{"osm_id":"4258868785","tag":{"amenity":"recycling","recycling:glass":"yes","recycling_type":"container"}},"type":"Feature"},
	{"geometry":{"coordinates":[7.002778,50.970651],"type":"Point"},"properties":{"osm_id":"4261168677","tag":{"amenity":"recycling","recycling:glass":"yes"}},"type":"Feature"},
	{"geometry":{"coordinates":[7.002642,50.972791],"type":"Point"},"properties":{"osm_id":"4274008890","tag":{"amenity":"waste_basket"}},"type":"Feature"},
	{"geometry":{"coordinates":[6.97601,50.963866],"type":"Point"},"properties":{"osm_id":"4297860758","tag":{"amenity":"waste_basket"}},"type":"Feature"},
	{"geometry":{"coordinates":[6.969413,50.967417],"type":"Point"},"properties":{"osm_id":"4297860766","tag":{"amenity":"recycling","opening_hours":"24/7","recycling:clothes":"yes","recycling_type":"container","wheelchair":"AWB"}},"type":"Feature"},
	{"geometry":{"coordinates":[6.952915,50.975793],"type":"Point"},"properties":{"osm_id":"4341575659","tag":{"amenity":"waste_basket"}},"type":"Feature"},
	{"geometry":{"coordinates":[6.952852,50.976238],"type":"Point"},"properties":{"osm_id":"4341575660","tag":{"amenity":"waste_basket"}},"type":"Feature"},
	{"geometry":{"coordinates":[7.026879,50.982038],"type":"Point"},"properties":{"osm_id":"4382867736","tag":{"amenity":"waste_basket"}},"type":"Feature"},
	{"geometry":{"coordinates":[7.00196,50.977302],"type":"Point"},"properties":{"osm_id":"4421812291","tag":{"amenity":"recycling","location":"overground","operator":"AWB","recycling:glass_bottles":"yes","recycling_type":"container"}},"type":"Feature"},
	{"geometry":{"coordinates":[6.998878,50.978159],"type":"Point"},"properties":{"osm_id":"4560017091","tag":{"amenity":"waste_basket"}},"type":"Feature"},
	{"geometry":{"coordinates":[6.999074,50.977863],"type":"Point"},"properties":{"osm_id":"4560017092","tag":{"amenity":"waste_basket"}},"type":"Feature"},
	{"geometry":{"coordinates":[6.998005,50.97904],"type":"Point"},"properties":{"osm_id":"4560017792","tag":{"amenity":"waste_basket"}},"type":"Feature"},
	{"geometry":{"coordinates":[6.998354,50.978608],"type":"Point"},"properties":{"osm_id":"4560017793","tag":{"amenity":"waste_basket"}},"type":"Feature"},
	{"geometry":{"coordinates":[7.002946,50.970786],"type":"Point"},"properties":{"osm_id":"4560040591","tag":{"amenity":"waste_basket"}},"type":"Feature"},
	{"geometry":{"coordinates":[6.999402,50.977381],"type":"Point"},"properties":{"osm_id":"4560095391","tag":{"amenity":"waste_basket"}},"type":"Feature"},
	{"geometry":{"coordinates":[6.999547,50.977183],"type":"Point"},"properties":{"osm_id":"4560095392","tag":{"amenity":"waste_basket"}},"type":"Feature"},
	{"geometry":{"coordinates":[7.00277,50.970682],"type":"Point"},"properties":{"osm_id":"4560102991","tag":{"amenity":"waste_basket"}},"type":"Feature"},
	{"geometry":{"coordinates":[6.999042,50.977984],"type":"Point"},"properties":{"osm_id":"4560113690","tag":{"amenity":"waste_basket"}},"type":"Feature"},
	{"geometry":{"coordinates":[6.999723,50.97741],"type":"Point"},"properties":{"osm_id":"4560113691","tag":{"amenity":"waste_basket"}},"type":"Feature"},
	{"geometry":{"coordinates":[7.002207,50.97713],"type":"Point"},"properties":{"osm_id":"4560115890","tag":{"amenity":"waste_basket"}},"type":"Feature"},
	{"geometry":{"coordinates":[6.999922,50.976971],"type":"Point"},"properties":{"osm_id":"4560121590","tag":{"amenity":"waste_basket"}},"type":"Feature"},
	{"geometry":{"coordinates":[6.997832,50.98226],"type":"Point"},"properties":{"osm_id":"4560151392","tag":{"amenity":"waste_basket"}},"type":"Feature"},
	{"geometry":{"coordinates":[7.003906,50.970445],"type":"Point"},"properties":{"osm_id":"4560163890","tag":{"amenity":"waste_basket"}},"type":"Feature"},
	{"geometry":{"coordinates":[7.002259,50.977071],"type":"Point"},"properties":{"osm_id":"4560163892","tag":{"amenity":"waste_basket"}},"type":"Feature"},
	{"geometry":{"coordinates":[7.004067,50.96971],"type":"Point"},"properties":{"osm_id":"4560164589","tag":{"amenity":"waste_basket"}},"type":"Feature"},
	{"geometry":{"coordinates":[7.004789,50.969717],"type":"Point"},"properties":{"osm_id":"4560164789","tag":{"amenity":"waste_basket"}},"type":"Feature"},
	{"geometry":{"coordinates":[6.991224,50.982935],"type":"Point"},"properties":{"osm_id":"4570305498","tag":{"amenity":"waste_basket"}},"type":"Feature"},
	{"geometry":{"coordinates":[6.990191,50.983299],"type":"Point"},"properties":{"osm_id":"4570305499","tag":{"amenity":"waste_basket"}},"type":"Feature"},
	{"geometry":{"coordinates":[6.989605,50.98351],"type":"Point"},"properties":{"osm_id":"4570317293","tag":{"amenity":"waste_basket"}},"type":"Feature"},
	{"geometry":{"coordinates":[6.987206,50.984116],"type":"Point"},"properties":{"osm_id":"4570317493","tag":{"amenity":"waste_basket"}},"type":"Feature"},
	{"geometry":{"coordinates":[6.983801,50.985192],"type":"Point"},"properties":{"osm_id":"4570325908","tag":{"amenity":"waste_basket"}},"type":"Feature"},
	{"geometry":{"coordinates":[6.983132,50.985334],"type":"Point"},"properties":{"osm_id":"4570325909","tag":{"amenity":"waste_basket"}},"type":"Feature"},
	{"geometry":{"coordinates":[6.990877,50.983078],"type":"Point"},"properties":{"osm_id":"4570331791","tag":{"amenity":"waste_basket"}},"type":"Feature"},
	{"geometry":{"coordinates":[6.984066,50.985133],"type":"Point"},"properties":{"osm_id":"4570348292","tag":{"amenity":"waste_basket"}},"type":"Feature"},
	{"geometry":{"coordinates":[6.951859,50.962619],"type":"Point"},"properties":{"osm_id":"4577431093","tag":{"amenity":"waste_basket"}},"type":"Feature"},
	{"geometry":{"coordinates":[6.946497,50.971822],"type":"Point"},"properties":{"osm_id":"4711969421","tag":{"amenity":"waste_basket"}},"type":"Feature"},
	{"geometry":{"coordinates":[6.946438,50.973456],"type":"Point"},"properties":{"osm_id":"4711981652","tag":{"amenity":"waste_basket"}},"type":"Feature"},
	{"geometry":{"coordinates":[6.949156,50.975218],"type":"Point"},"properties":{"osm_id":"4713146033","tag":{"amenity":"recycling","operator":"AWB","recycling:clothes":"yes","recycling_type":"container"}},"type":"Feature"},
	{"geometry":{"coordinates":[6.949175,50.975217],"type":"Point"},"properties":{"osm_id":"4713146034","tag":{"amenity":"recycling","operator":"Remondis","recycling:glass_bottles":"yes","recycling_type":"container"}},"type":"Feature"},
	{"geometry":{"coordinates":[6.949908,50.975318],"type":"Point"},"properties":{"osm_id":"4713146036","tag":{"amenity":"waste_basket"}},"type":"Feature"},
	{"geometry":{"coordinates":[6.982567,51.012109],"type":"Point"},"properties":{"osm_id":"4784929632","tag":{"amenity":"waste_basket"}},"type":"Feature"},
	{"geometry":{"coordinates":[6.982276,51.012363],"type":"Point"},"properties":{"osm_id":"4784930032","tag":{"amenity":"waste_basket"}},"type":"Feature"},
	{"geometry":{"coordinates":[6.993584,50.981977],"type":"Point"},"properties":{"osm_id":"4793450022","tag":{"amenity":"waste_basket"}},"type":"Feature"},
	{"geometry":{"coordinates":[6.994082,50.981729],"type":"Point"},"properties":{"osm_id":"4793450023","tag":{"amenity":"waste_basket"}},"type":"Feature"},
	{"geometry":{"coordinates":[6.992604,50.984167],"type":"Point"},"properties":{"osm_id":"4793455121","tag":{"amenity":"waste_basket"}},"type":"Feature"},
	{"geometry":{"coordinates":[6.992975,50.983851],"type":"Point"},"properties":{"osm_id":"4793455122","tag":{"amenity":"waste_basket"}},"type":"Feature"},
	{"geometry":{"coordinates":[6.992876,50.983981],"type":"Point"},"properties":{"osm_id":"4793455123","tag":{"amenity":"waste_basket"}},"type":"Feature"},
	{"geometry":{"coordinates":[7.000034,50.977218],"type":"Point"},"properties":{"osm_id":"4793455125","tag":{"amenity":"waste_basket"}},"type":"Feature"},
	{"geometry":{"coordinates":[7.000439,50.975972],"type":"Point"},"properties":{"osm_id":"4793455126","tag":{"amenity":"waste_basket"}},"type":"Feature"},
	{"geometry":{"coordinates":[7.000597,50.97489],"type":"Point"},"properties":{"osm_id":"4793455127","tag":{"amenity":"waste_basket"}},"type":"Feature"},
	{"geometry":{"coordinates":[7.001083,50.974832],"type":"Point"},"properties":{"osm_id":"4793455128","tag":{"amenity":"waste_basket"}},"type":"Feature"},
	{"geometry":{"coordinates":[6.999019,50.978367],"type":"Point"},"properties":{"osm_id":"4793482523","tag":{"amenity":"waste_basket"}},"type":"Feature"},
	{"geometry":{"coordinates":[6.999839,50.977234],"type":"Point"},"properties":{"osm_id":"4793482524","tag":{"amenity":"waste_basket"}},"type":"Feature"},
	{"geometry":{"coordinates":[7.000308,50.976167],"type":"Point"},"properties":{"osm_id":"4793482526","tag":{"amenity":"waste_basket"}},"type":"Feature"},
	{"geometry":{"coordinates":[7.000126,50.976464],"type":"Point"},"properties":{"osm_id":"4793483323","tag":{"amenity":"waste_basket"}},"type":"Feature"},
	{"geometry":{"coordinates":[7.000291,50.975601],"type":"Point"},"properties":{"osm_id":"4793483324","tag":{"amenity":"waste_basket"}},"type":"Feature"},
	{"geometry":{"coordinates":[7.000452,50.975252],"type":"Point"},"properties":{"osm_id":"4793483326","tag":{"amenity":"waste_basket"}},"type":"Feature"},
	{"geometry":{"coordinates":[7.0012,50.97447],"type":"Point"},"properties":{"osm_id":"4813104921","tag":{"amenity":"waste_basket"}},"type":"Feature"},
	{"geometry":{"coordinates":[7.00144,50.974089],"type":"Point"},"properties":{"osm_id":"4825356924","tag":{"amenity":"waste_basket"}},"type":"Feature"},
	{"geometry":{"coordinates":[6.999822,50.976759],"type":"Point"},"properties":{"osm_id":"4825429524","tag":{"amenity":"waste_basket"}},"type":"Feature"},
	{"geometry":{"coordinates":[7.000784,50.974399],"type":"Point"},"properties":{"osm_id":"4825432421","tag":{"amenity":"waste_basket"}},"type":"Feature"},
	{"geometry":{"coordinates":[6.999844,50.977035],"type":"Point"},"properties":{"osm_id":"4825432422","tag":{"amenity":"waste_basket"}},"type":"Feature"},
	{"geometry":{"coordinates":[7.000466,50.975597],"type":"Point"},"properties":{"osm_id":"4825432524","tag":{"amenity":"waste_basket"}},"type":"Feature"},
	{"geometry":{"coordinates":[7.00032,50.975976],"type":"Point"},"properties":{"osm_id":"4825432525","tag":{"amenity":"waste_basket"}},"type":"Feature"},
	{"geometry":{"coordinates":[7.000191,50.976205],"type":"Point"},"properties":{"osm_id":"4825432526","tag":{"amenity":"waste_basket"}},"type":"Feature"},
	{"geometry":{"coordinates":[7.000015,50.976467],"type":"Point"},"properties":{"osm_id":"4825432528","tag":{"amenity":"waste_basket"}},"type":"Feature"},
	{"geometry":{"coordinates":[6.999904,50.976751],"type":"Point"},"properties":{"osm_id":"4825432529","tag":{"amenity":"waste_basket"}},"type":"Feature"},
	{"geometry":{"coordinates":[7.001025,50.974438],"type":"Point"},"properties":{"osm_id":"4825432533","tag":{"amenity":"waste_basket"}},"type":"Feature"},
	{"geometry":{"coordinates":[7.003218,50.961557],"type":"Point"},"properties":{"osm_id":"4840018868","tag":{"amenity":"recycling","operator":"AWB","recycling:clothes":"yes","recycling_type":"container"}},"type":"Feature"},
	{"geometry":{"coordinates":[6.981859,50.985634],"type":"Point"},"properties":{"osm_id":"4849730627","tag":{"amenity":"waste_basket"}},"type":"Feature"},
	{"geometry":{"coordinates":[6.981329,50.985771],"type":"Point"},"properties":{"osm_id":"4849730628","tag":{"amenity":"waste_basket"}},"type":"Feature"},
	{"geometry":{"coordinates":[6.979941,50.986258],"type":"Point"},"properties":{"osm_id":"4849730725","tag":{"amenity":"waste_basket"}},"type":"Feature"},
	{"geometry":{"coordinates":[6.988746,50.983663],"type":"Point"},"properties":{"osm_id":"4905949622","tag":{"amenity":"waste_basket"}},"type":"Feature"},
	{"geometry":{"coordinates":[6.989106,50.983547],"type":"Point"},"properties":{"osm_id":"4905950521","tag":{"amenity":"waste_basket"}},"type":"Feature"},
	{"geometry":{"coordinates":[6.984939,50.984864],"type":"Point"},"properties":{"osm_id":"4905967522","tag":{"amenity":"waste_basket"}},"type":"Feature"},
	{"geometry":{"coordinates":[6.99373,50.984383],"type":"Point"},"properties":{"osm_id":"4905974023","tag":{"amenity":"waste_basket"}},"type":"Feature"},
	{"geometry":{"coordinates":[6.99415,50.984057],"type":"Point"},"properties":{"osm_id":"4905993322","tag":{"amenity":"waste_basket"}},"type":"Feature"},
	{"geometry":{"coordinates":[6.993451,50.984652],"type":"Point"},"properties":{"osm_id":"4906004821","tag":{"amenity":"waste_basket"}},"type":"Feature"},
	{"geometry":{"coordinates":[6.993866,50.984834],"type":"Point"},"properties":{"osm_id":"4906004822","tag":{"amenity":"waste_basket"}},"type":"Feature"},
	{"geometry":{"coordinates":[6.994517,50.98508],"type":"Point"},"properties":{"osm_id":"4906004825","tag":{"amenity":"waste_basket"}},"type":"Feature"},
	{"geometry":{"coordinates":[6.994935,50.985151],"type":"Point"},"properties":{"osm_id":"4906004826","tag":{"amenity":"waste_basket"}},"type":"Feature"},
	{"geometry":{"coordinates":[6.995329,50.985415],"type":"Point"},"properties":{"osm_id":"4906004828","tag":{"amenity":"waste_basket"}},"type":"Feature"},
	{"geometry":{"coordinates":[6.995811,50.985786],"type":"Point"},"properties":{"osm_id":"4906004829","tag":{"amenity":"waste_basket"}},"type":"Feature"},
	{"geometry":{"coordinates":[6.997089,50.985588],"type":"Point"},"properties":{"osm_id":"4906009421","tag":{"amenity":"waste_basket"}},"type":"Feature"},
	{"geometry":{"coordinates":[6.997129,50.983812],"type":"Point"},"properties":{"osm_id":"4906019622","tag":{"amenity":"waste_basket"}},"type":"Feature"},
	{"geometry":{"coordinates":[6.996716,50.982813],"type":"Point"},"properties":{"osm_id":"4906029222","tag":{"amenity":"waste_basket"}},"type":"Feature"},
	{"geometry":{"coordinates":[6.9933,50.984132],"type":"Point"},"properties":{"osm_id":"4906055521","tag":{"amenity":"waste_basket"}},"type":"Feature"},
	{"geometry":{"coordinates":[6.993544,50.98384],"type":"Point"},"properties":{"osm_id":"4906163723","tag":{"amenity":"waste_basket"}},"type":"Feature"},
	{"geometry":{"coordinates":[6.993527,50.985619],"type":"Point"},"properties":{"osm_id":"4973328022","tag":{"amenity":"waste_basket"}},"type":"Feature"},
	{"geometry":{"coordinates":[6.985456,50.988018],"type":"Point"},"properties":{"osm_id":"4973328023","tag":{"amenity":"waste_basket"}},"type":"Feature"},
	{"geometry":{"coordinates":[6.991159,50.986968],"type":"Point"},"properties":{"osm_id":"4973730824","tag":{"amenity":"waste_basket"}},"type":"Feature"},
	{"geometry":{"coordinates":[6.985372,50.987619],"type":"Point"},"properties":{"osm_id":"4973730827","tag":{"amenity":"waste_basket"}},"type":"Feature"},
	{"geometry":{"coordinates":[6.988078,50.987146],"type":"Point"},"properties":{"osm_id":"4973748523","tag":{"amenity":"waste_basket"}},"type":"Feature"},
	{"geometry":{"coordinates":[6.983296,50.98724],"type":"Point"},"properties":{"osm_id":"4973748921","tag":{"amenity":"waste_basket"}},"type":"Feature"},
	{"geometry":{"coordinates":[6.991774,50.986427],"type":"Point"},"properties":{"osm_id":"4973748922","tag":{"amenity":"waste_basket"}},"type":"Feature"},
	{"geometry":{"coordinates":[6.992399,50.987444],"type":"Point"},"properties":{"osm_id":"4973748923","tag":{"amenity":"waste_basket"}},"type":"Feature"},
	{"geometry":{"coordinates":[6.98423,50.986828],"type":"Point"},"properties":{"osm_id":"4973756121","tag":{"amenity":"waste_basket"}},"type":"Feature"},
	{"geometry":{"coordinates":[6.983998,50.986512],"type":"Point"},"properties":{"osm_id":"4973756222","tag":{"amenity":"waste_basket"}},"type":"Feature"},
	{"geometry":{"coordinates":[6.982843,50.9861],"type":"Point"},"properties":{"osm_id":"4973756223","tag":{"amenity":"waste_basket"}},"type":"Feature"},
	{"geometry":{"coordinates":[6.984684,50.987074],"type":"Point"},"properties":{"osm_id":"4973756225","tag":{"amenity":"waste_basket"}},"type":"Feature"},
	{"geometry":{"coordinates":[6.983665,50.98599],"type":"Point"},"properties":{"osm_id":"4973756321","tag":{"amenity":"waste_basket"}},"type":"Feature"},
	{"geometry":{"coordinates":[7.002404,50.989763],"type":"Point"},"properties":{"osm_id":"5001715622","tag":{"amenity":"waste_basket"}},"type":"Feature"},
	{"geometry":{"coordinates":[7.009021,50.959821],"type":"Point"},"properties":{"osm_id":"5208402330","tag":{"amenity":"recycling","operator":"Remondis","recycling:glass":"no","recycling:glass_bottles":"yes","recycling_type":"container"}},"type":"Feature"},
	{"geometry":{"coordinates":[6.970369,50.959732],"type":"Point"},"properties":{"osm_id":"5267991922","tag":{"amenity":"waste_basket"}},"type":"Feature"},
	{"geometry":{"coordinates":[6.974852,50.968693],"type":"Point"},"properties":{"osm_id":"5283502084","tag":{"amenity":"recycling","recycling:glass":"yes","recycling:glass_bottles":"yes","recycling_type":"container"}},"type":"Feature"},
	{"geometry":{"coordinates":[7.027318,50.98204],"type":"Point"},"properties":{"osm_id":"5404231177","tag":{"amenity":"waste_basket"}},"type":"Feature"},
	{"geometry":{"coordinates":[7.026937,50.981983],"type":"Point"},"properties":{"osm_id":"5404231178","tag":{"amenity":"waste_basket"}},"type":"Feature"},
	{"geometry":{"coordinates":[7.027858,50.971744],"type":"Point"},"properties":{"osm_id":"5511202201","tag":{"amenity":"waste_basket","waste":"trash"}},"type":"Feature"},
	{"geometry":{"coordinates":[7.027883,50.972053],"type":"Point"},"properties":{"osm_id":"5511202202","tag":{"amenity":"waste_basket","waste":"trash"}},"type":"Feature"},
	{"geometry":{"coordinates":[7.027388,50.972576],"type":"Point"},"properties":{"osm_id":"5511202203","tag":{"amenity":"waste_basket","waste":"trash"}},"type":"Feature"},
	{"geometry":{"coordinates":[7.027229,50.971011],"type":"Point"},"properties":{"osm_id":"5511202205","tag":{"amenity":"waste_basket","waste":"trash"}},"type":"Feature"},
	{"geometry":{"coordinates":[7.026655,50.971898],"type":"Point"},"properties":{"osm_id":"5511202206","tag":{"amenity":"waste_basket","waste":"trash"}},"type":"Feature"},
	{"geometry":{"coordinates":[7.026576,50.972045],"type":"Point"},"properties":{"osm_id":"5511202207","tag":{"amenity":"waste_basket","waste":"trash"}},"type":"Feature"},
	{"geometry":{"coordinates":[7.026651,50.973038],"type":"Point"},"properties":{"osm_id":"5511202208","tag":{"amenity":"waste_basket","waste":"trash"}},"type":"Feature"},
	{"geometry":{"coordinates":[7.00251,50.972944],"type":"Point"},"properties":{"osm_id":"6315709085","tag":{"amenity":"waste_basket"}},"type":"Feature"},
	{"geometry":{"coordinates":[7.006021,50.973291],"type":"Point"},"properties":{"osm_id":"6315709185","tag":{"amenity":"waste_basket"}},"type":"Feature"},
	{"geometry":{"coordinates":[7.001675,50.972844],"type":"Point"},"properties":{"osm_id":"6333963385","tag":{"amenity":"waste_basket"}},"type":"Feature"},
	{"geometry":{"coordinates":[6.981314,50.959739],"type":"Point"},"properties":{"osm_id":"6432637841","tag":{"amenity":"waste_basket"}},"type":"Feature"},
	{"geometry":{"coordinates":[6.981437,50.959883],"type":"Point"},"properties":{"osm_id":"6432637843","tag":{"amenity":"waste_basket"}},"type":"Feature"},
	{"geometry":{"coordinates":[6.950081,50.99398],"type":"Point"},"properties":{"osm_id":"6578733404","tag":{"amenity":"waste_basket"}},"type":"Feature"},
	{"geometry":{"coordinates":[7.005834,50.961492],"type":"Point"},"properties":{"osm_id":"6690142687","tag":{"amenity":"waste_basket"}},"type":"Feature"},
	{"geometry":{"coordinates":[7.005689,50.961689],"type":"Point"},"properties":{"osm_id":"6690142688","tag":{"amenity":"waste_basket"}},"type":"Feature"},
	{"geometry":{"coordinates":[7.005694,50.961307],"type":"Point"},"properties":{"osm_id":"6690142689","tag":{"amenity":"waste_basket"}},"type":"Feature"},
	{"geometry":{"coordinates":[7.006544,50.966597],"type":"Point"},"properties":{"osm_id":"6745217085","tag":{"amenity":"waste_basket"}},"type":"Feature"},
	{"geometry":{"coordinates":[6.970177,50.962558],"type":"Point"},"properties":{"osm_id":"6814301011","tag":{"amenity":"waste_basket"}},"type":"Feature"},
	{"geometry":{"coordinates":[6.96947,50.962476],"type":"Point"},"properties":{"osm_id":"6814301014","tag":{"amenity":"waste_basket"}},"type":"Feature"},
	{"geometry":{"coordinates":[6.969356,50.96231],"type":"Point"},"properties":{"osm_id":"6814301017","tag":{"amenity":"waste_basket"}},"type":"Feature"},
	{"geometry":{"coordinates":[6.969323,50.962206],"type":"Point"},"properties":{"osm_id":"6814301020","tag":{"amenity":"waste_basket"}},"type":"Feature"},
	{"geometry":{"coordinates":[6.971116,50.962497],"type":"Point"},"properties":{"osm_id":"6814301029","tag":{"amenity":"waste_basket"}},"type":"Feature"},
	{"geometry":{"coordinates":[6.970765,50.96215],"type":"Point"},"properties":{"osm_id":"6814301032","tag":{"amenity":"waste_basket"}},"type":"Feature"},
	{"geometry":{"coordinates":[6.970501,50.961968],"type":"Point"},"properties":{"osm_id":"6814301035","tag":{"amenity":"waste_basket"}},"type":"Feature"},
	{"geometry":{"coordinates":[6.970704,50.96186],"type":"Point"},"properties":{"osm_id":"6814301037","tag":{"amenity":"waste_basket"}},"type":"Feature"},
	{"geometry":{"coordinates":[6.970726,50.961428],"type":"Point"},"properties":{"osm_id":"6814301039","tag":{"amenity":"waste_basket"}},"type":"Feature"},
	{"geometry":{"coordinates":[6.970807,50.960833],"type":"Point"},"properties":{"osm_id":"6814301042","tag":{"amenity":"waste_basket"}},"type":"Feature"},
	{"geometry":{"coordinates":[6.970439,50.960712],"type":"Point"},"properties":{"osm_id":"6814301044","tag":{"amenity":"waste_basket"}},"type":"Feature"},
	{"geometry":{"coordinates":[6.970267,50.963136],"type":"Point"},"properties":{"osm_id":"6814301056","tag":{"amenity":"waste_basket"}},"type":"Feature"},
	{"geometry":{"coordinates":[6.970641,50.963232],"type":"Point"},"properties":{"osm_id":"6814301059","tag":{"amenity":"waste_basket"}},"type":"Feature"},
	{"geometry":{"coordinates":[6.969737,50.961803],"type":"Point"},"properties":{"osm_id":"6814301072","tag":{"amenity":"waste_basket"}},"type":"Feature"},
	{"geometry":{"coordinates":[6.970431,50.961634],"type":"Point"},"properties":{"osm_id":"6814301077","tag":{"amenity":"waste_basket"}},"type":"Feature"},
	{"geometry":{"coordinates":[6.9684,50.959673],"type":"Point"},"properties":{"osm_id":"6814301081","tag":{"amenity":"waste_basket"}},"type":"Feature"},
	{"geometry":{"coordinates":[6.968917,50.959523],"type":"Point"},"properties":{"osm_id":"6814333186","tag":{"amenity":"waste_basket"}},"type":"Feature"},
	{"geometry":{"coordinates":[6.963589,51.008],"type":"Point"},"properties":{"osm_id":"6862335293","tag":{"amenity":"waste_basket","waste":"trash"}},"type":"Feature"},
	{"geometry":{"coordinates":[7.006159,50.963296],"type":"Point"},"properties":{"osm_id":"7026788185","tag":{"amenity":"waste_basket"}},"type":"Feature"},
	{"geometry":{"coordinates":[6.960802,50.985493],"type":"Point"},"properties":{"osm_id":"7053716949","tag":{"amenity":"recycling","recycling:glass_bottles":"yes","recycling_type":"container"}},"type":"Feature"},
	{"geometry":{"coordinates":[6.958624,50.966193],"type":"Point"},"properties":{"osm_id":"7053900695","tag":{"amenity":"waste_basket","waste":"trash"}},"type":"Feature"},
	{"geometry":{"coordinates":[6.975117,50.959041],"type":"Point"},"properties":{"osm_id":"7086201987","tag":{"amenity":"waste_basket"}},"type":"Feature"},
	{"geometry":{"coordinates":[6.975143,50.958977],"type":"Point"},"properties":{"osm_id":"7086215785","tag":{"amenity":"waste_basket"}},"type":"Feature"},
	{"geometry":{"coordinates":[6.975027,50.959184],"type":"Point"},"properties":{"osm_id":"7086215885","tag":{"amenity":"waste_basket"}},"type":"Feature"},
	{"geometry":{"coordinates":[6.975301,50.959581],"type":"Point"},"properties":{"osm_id":"7086221085","tag":{"amenity":"waste_basket"}},"type":"Feature"},
	{"geometry":{"coordinates":[6.972278,50.964117],"type":"Point"},"properties":{"osm_id":"7086363789","tag":{"amenity":"waste_basket"}},"type":"Feature"},
	{"geometry":{"coordinates":[6.961265,50.985204],"type":"Point"},"properties":{"osm_id":"7087942785","tag":{"amenity":"waste_basket"}},"type":"Feature"},
	{"geometry":{"coordinates":[7.002834,50.967533],"type":"Point"},"properties":{"osm_id":"7139088085","tag":{"amenity":"waste_basket"}},"type":"Feature"},
	{"geometry":{"coordinates":[6.986302,50.962519],"type":"Point"},"properties":{"osm_id":"7142669023","tag":{"access":"customers","amenity":"recycling","opening_hours":"07:00-19:00","operator":"Reisemobilhafen K\u00c3\u00b6ln","recycling:glass":"yes","recycling:paper":"yes","recycling:plastic":"yes","recycling:waste":"yes","recycling_type":"container"}},"type":"Feature"},
	{"geometry":{"coordinates":[7.006236,50.973514],"type":"Point"},"properties":{"osm_id":"7272195286","tag":{"amenity":"waste_basket"}},"type":"Feature"},
	{"geometry":{"coordinates":[7.005964,50.973375],"type":"Point"},"properties":{"osm_id":"7272195485","tag":{"amenity":"waste_basket"}},"type":"Feature"},
	{"geometry":{"coordinates":[6.944142,50.982548],"type":"Point"},"properties":{"osm_id":"7311856772","tag":{"amenity":"recycling","operator":"AWB","recycling:clothes":"yes","recycling_type":"container"}},"type":"Feature"},
	{"geometry":{"coordinates":[6.947252,50.984134],"type":"Point"},"properties":{"osm_id":"7313110443","tag":{"amenity":"waste_basket"}},"type":"Feature"},
	{"geometry":{"coordinates":[6.990735,50.99598],"type":"Point"},"properties":{"osm_id":"7395752137","tag":{"amenity":"recycling","opening_hours":"24/7","recycling:clothes":"yes","recycling_type":"container"}},"type":"Feature"},
	{"geometry":{"coordinates":[6.947498,50.98365],"type":"Point"},"properties":{"osm_id":"7449198177","tag":{"amenity":"waste_basket"}},"type":"Feature"},
	{"geometry":{"coordinates":[6.963806,50.97395],"type":"Point"},"properties":{"osm_id":"7449553006","tag":{"amenity":"waste_basket"}},"type":"Feature"},
	{"geometry":{"coordinates":[6.96393,50.974069],"type":"Point"},"properties":{"osm_id":"7449553007","tag":{"amenity":"waste_basket"}},"type":"Feature"},
	{"geometry":{"coordinates":[6.945247,50.985641],"type":"Point"},"properties":{"osm_id":"7626545180","tag":{"amenity":"recycling","level":"0","recycling_type":"container"}},"type":"Feature"},
	{"geometry":{"coordinates":[7.003102,50.962601],"type":"Point"},"properties":{"osm_id":"7638748749","tag":{"amenity":"recycling","recycling:glass":"yes","recycling:glass_bottles":"yes","recycling_type":"container"}},"type":"Feature"},
	{"geometry":{"coordinates":[6.976312,50.963938],"type":"Point"},"properties":{"osm_id":"7707356215","tag":{"amenity":"waste_basket"}},"type":"Feature"},
	{"geometry":{"coordinates":[6.978557,50.964575],"type":"Point"},"properties":{"osm_id":"7707356232","tag":{"amenity":"waste_basket"}},"type":"Feature"},
	{"geometry":{"coordinates":[6.979758,50.966076],"type":"Point"},"properties":{"osm_id":"7707356243","tag":{"amenity":"waste_basket"}},"type":"Feature"},
	{"geometry":{"coordinates":[7.003187,50.962562],"type":"Point"},"properties":{"osm_id":"7741382285","tag":{"amenity":"recycling","location":"overground","operator":"AWB","recycling:glass_bottles":"yes","recycling_type":"container"}},"type":"Feature"},
	{"geometry":{"coordinates":[6.958271,50.959948],"type":"Point"},"properties":{"osm_id":"7857000732","tag":{"amenity":"recycling","operator":"AWB K\u00c3\u00b6ln","recycling:clothes":"yes","recycling:shoes":"yes","recycling_type":"container","website":"http://www.altkleiderkoeln.de/"}},"type":"Feature"},
	{"geometry":{"coordinates":[6.960751,50.959571],"type":"Point"},"properties":{"osm_id":"7857096655","tag":{"amenity":"waste_basket","waste":"trash"}},"type":"Feature"},
	{"geometry":{"coordinates":[6.961542,50.962346],"type":"Point"},"properties":{"osm_id":"7857105744","tag":{"amenity":"waste_basket","waste":"trash"}},"type":"Feature"},
	{"geometry":{"coordinates":[6.961406,50.962383],"type":"Point"},"properties":{"osm_id":"7857105745","tag":{"amenity":"waste_basket","waste":"trash"}},"type":"Feature"},
	{"geometry":{"coordinates":[6.961591,50.96141],"type":"Point"},"properties":{"osm_id":"7857105746","tag":{"amenity":"waste_basket","waste":"trash"}},"type":"Feature"},
	{"geometry":{"coordinates":[6.961428,50.960494],"type":"Point"},"properties":{"osm_id":"7857149342","tag":{"amenity":"waste_basket","waste":"trash"}},"type":"Feature"},
	{"geometry":{"coordinates":[6.961675,50.959565],"type":"Point"},"properties":{"osm_id":"7857149343","tag":{"amenity":"waste_basket","waste":"trash"}},"type":"Feature"},
	{"geometry":{"coordinates":[6.961439,50.96084],"type":"Point"},"properties":{"osm_id":"7857149344","tag":{"amenity":"waste_basket","waste":"trash"}},"type":"Feature"},
	{"geometry":{"coordinates":[6.964723,50.965499],"type":"Point"},"properties":{"osm_id":"7857160005","tag":{"amenity":"waste_basket","waste":"trash"}},"type":"Feature"},
	{"geometry":{"coordinates":[6.966715,50.964816],"type":"Point"},"properties":{"osm_id":"7857172351","tag":{"amenity":"waste_basket","waste":"trash"}},"type":"Feature"},
	{"geometry":{"coordinates":[6.966225,50.964979],"type":"Point"},"properties":{"osm_id":"7857172353","tag":{"amenity":"waste_basket","waste":"trash"}},"type":"Feature"}
]
}
