{
"type": "FeatureCollection",
"features": [
	{"geometry":{"coordinates":[6.969931,50.902331],"type":"Point"},"properties":{"osm_id":"354536278","tag":{"amenity":"recycling","recycling:clothes":"yes","recycling:glass_bottles":"yes","recycling_type":"container"}},"type":"Feature"},
	{"geometry":{"coordinates":[6.95109,50.89748],"type":"Point"},"properties":{"osm_id":"366957530","tag":{"amenity":"recycling","recycling:clothes":"yes","recycling:glass_bottles":"yes","recycling_type":"container"}},"type":"Feature"},
	{"geometry":{"coordinates":[6.946708,50.900718],"type":"Point"},"properties":{"osm_id":"366959555","tag":{"amenity":"recycling","recycling:glass":"yes","recycling_type":"container"}},"type":"Feature"},
	{"geometry":{"coordinates":[6.950386,50.901524],"type":"Point"},"properties":{"osm_id":"416620256","tag":{"amenity":"recycling","recycling:glass_bottles":"yes","recycling_type":"container"}},"type":"Feature"},
	{"geometry":{"coordinates":[6.96153,50.901558],"type":"Point"},"properties":{"barrier":"gate","osm_id":"443009307","tag":{"foot":"yes"}},"type":"Feature"},
	{"geometry":{"coordinates":[6.947489,50.901662],"type":"Point"},"properties":{"osm_id":"700965895","tag":{"amenity":"waste_basket"}},"type":"Feature"},
	{"geometry":{"coordinates":[6.946422,50.900812],"type":"Point"},"properties":{"osm_id":"700965902","tag":{"amenity":"waste_basket"}},"type":"Feature"},
	{"geometry":{"coordinates":[6.946266,50.900789],"type":"Point"},"properties":{"osm_id":"700965909","tag":{"amenity":"waste_basket"}},"type":"Feature"},
	{"geometry":{"coordinates":[6.947671,50.901983],"type":"Point"},"properties":{"osm_id":"700965926","tag":{"amenity":"waste_basket"}},"type":"Feature"},
	{"geometry":{"coordinates":[6.99922,50.864365],"type":"Point"},"properties":{"osm_id":"1426230795","tag":{"amenity":"recycling","recycling:glass":"yes","recycling_type":"container"}},"type":"Feature"},
	{"geometry":{"coordinates":[7.006079,50.901476],"type":"Point"},"properties":{"osm_id":"1591518152","tag":{"amenity":"waste_basket"}},"type":"Feature"},
	{"geometry":{"coordinates":[7.025493,50.89093],"type":"Point"},"properties":{"osm_id":"1620332623","tag":{"amenity":"recycling","recycling:glass":"yes"}},"type":"Feature"},
	{"geometry":{"coordinates":[7.010453,50.890176],"type":"Point"},"properties":{"osm_id":"1623882069","tag":{"amenity":"recycling","recycling:glass":"yes"}},"type":"Feature"},
	{"geometry":{"coordinates":[7.02897,50.897768],"type":"Point"},"properties":{"osm_id":"1637133438","tag":{"amenity":"recycling","recycling_type":"container"}},"type":"Feature"},
	{"geometry":{"coordinates":[7.016706,50.899606],"type":"Point"},"properties":{"osm_id":"1637133466","tag":{"amenity":"recycling","recycling_type":"container"}},"type":"Feature"},
	{"geometry":{"coordinates":[7.013798,50.896713],"type":"Point"},"properties":{"osm_id":"1640037021","tag":{"amenity":"recycling","recycling:glass":"yes","recycling_type":"container"}},"type":"Feature"},
	{"geometry":{"coordinates":[7.021051,50.899681],"type":"Point"},"properties":{"osm_id":"1644785914","tag":{"amenity":"recycling","recycling:glass":"yes","recycling_type":"container"}},"type":"Feature"},
	{"geometry":{"coordinates":[7.015276,50.90276],"type":"Point"},"properties":{"osm_id":"1658640905","tag":{"amenity":"recycling","recycling:glass":"yes","recycling_type":"container"}},"type":"Feature"},
	{"geometry":{"coordinates":[6.953829,50.900724],"type":"Point"},"properties":{"osm_id":"1992570341","tag":{"amenity":"recycling","recycling:glass_bottles":"yes","recycling_type":"container"}},"type":"Feature"},
	{"geometry":{"coordinates":[7.016032,50.899563],"type":"Point"},"properties":{"osm_id":"2025828133","tag":{"amenity":"waste_basket"}},"type":"Feature"},
	{"geometry":{"coordinates":[7.025244,50.901156],"type":"Point"},"properties":{"osm_id":"2075214835","tag":{"amenity":"recycling","recycling:glass":"yes","recycling_type":"container"}},"type":"Feature"},
	{"geometry":{"coordinates":[6.992433,50.901882],"type":"Point"},"properties":{"osm_id":"2092817379","tag":{"amenity":"waste_basket"}},"type":"Feature"},
	{"geometry":{"coordinates":[7.031152,50.90279],"type":"Point"},"properties":{"osm_id":"2131386612","tag":{"amenity":"recycling","recycling:glass":"yes","recycling_type":"container"}},"type":"Feature"},
	{"geometry":{"coordinates":[7.030769,50.899466],"type":"Point"},"properties":{"osm_id":"2143489667","tag":{"amenity":"waste_basket"}},"type":"Feature"},
	{"geometry":{"coordinates":[7.031099,50.899517],"type":"Point"},"properties":{"osm_id":"2143489669","tag":{"amenity":"waste_basket"}},"type":"Feature"},
	{"geometry":{"coordinates":[7.018354,50.872055],"type":"Point"},"properties":{"osm_id":"2157622183","tag":{"amenity":"recycling","location":"overground","recycling_type":"container"}},"type":"Feature"},
	{"geometry":{"coordinates":[6.96978,50.88291],"type":"Point"},"properties":{"osm_id":"2373631921","tag":{"amenity":"recycling","recycling:cans":"no","recycling:clothes":"yes","recycling:glass":"no","recycling:glass_bottles":"yes","recycling:paper":"no","recycling:plastic":"no"}},"type":"Feature"},
	{"geometry":{"coordinates":[6.975364,50.853453],"type":"Point"},"properties":{"osm_id":"2536287717","tag":{"amenity":"waste_basket"}},"type":"Feature"},
	{"geometry":{"coordinates":[7.029922,50.898125],"type":"Point"},"properties":{"osm_id":"3210752497","tag":{"amenity":"recycling","recycling:clothes":"yes","recycling_type":"container"}},"type":"Feature"},
	{"geometry":{"coordinates":[7.017191,50.900531],"type":"Point"},"properties":{"osm_id":"3406046410","tag":{"amenity":"waste_basket","level":"1"}},"type":"Feature"},
	{"geometry":{"coordinates":[7.016897,50.900728],"type":"Point"},"properties":{"osm_id":"3406046419","tag":{"amenity":"waste_basket","level":"1"}},"type":"Feature"},
	{"geometry":{"coordinates":[7.017287,50.899966],"type":"Point"},"properties":{"osm_id":"3406088005","tag":{"amenity":"waste_basket"}},"type":"Feature"},
	{"geometry":{"coordinates":[7.014851,50.8964],"type":"Point"},"properties":{"osm_id":"3675434404","tag":{"amenity":"waste_basket"}},"type":"Feature"},
	{"geometry":{"coordinates":[7.01457,50.896438],"type":"Point"},"properties":{"osm_id":"3675434405","tag":{"amenity":"waste_basket"}},"type":"Feature"},
	{"geometry":{"coordinates":[7.026191,50.901066],"type":"Point"},"properties":{"osm_id":"3698156491","tag":{"amenity":"waste_basket"}},"type":"Feature"},
	{"geometry":{"coordinates":[7.026105,50.901097],"type":"Point"},"properties":{"osm_id":"3698156492","tag":{"amenity":"waste_basket"}},"type":"Feature"},
	{"geometry":{"coordinates":[7.025759,50.901222],"type":"Point"},"properties":{"osm_id":"3698156493","tag":{"amenity":"waste_basket"}},"type":"Feature"},
	{"geometry":{"coordinates":[7.022898,50.901187],"type":"Point"},"properties":{"osm_id":"3804038264","tag":{"amenity":"waste_basket"}},"type":"Feature"},
	{"geometry":{"coordinates":[7.022361,50.901356],"type":"Point"},"properties":{"osm_id":"3804038277","tag":{"amenity":"waste_basket"}},"type":"Feature"},
	{"geometry":{"coordinates":[7.022947,50.901432],"type":"Point"},"properties":{"osm_id":"3804038280","tag":{"amenity":"waste_basket"}},"type":"Feature"},
	{"geometry":{"coordinates":[7.022583,50.901507],"type":"Point"},"properties":{"osm_id":"3804038286","tag":{"amenity":"waste_basket"}},"type":"Feature"},
	{"geometry":{"coordinates":[6.989689,50.884465],"type":"Point"},"properties":{"osm_id":"4036599662","tag":{"addr:city":"K\u00c3\u00b6ln","addr:postcode":"50996","addr:street":"Schillingsrotter Stra\u00c3\u009fe","amenity":"recycling","recycling:cans":"no","recycling:clothes":"no","recycling:glass":"no","recycling:glass_bottles":"yes","recycling:paper":"no","recycling:plastic":"no","recycling_type":"container"}},"type":"Feature"},
	{"geometry":{"coordinates":[6.997314,50.893382],"type":"Point"},"properties":{"osm_id":"4036599663","tag":{"addr:city":"K\u00c3\u00b6ln","addr:postcode":"50996","addr:street":"Barbarastra\u00c3\u009fe","amenity":"recycling","recycling:cans":"no","recycling:clothes":"no","recycling:glass":"no","recycling:glass_bottles":"yes","recycling:paper":"no","recycling:plastic":"no","recycling_type":"container"}},"type":"Feature"},
	{"geometry":{"coordinates":[7.007134,50.867423],"type":"Point"},"properties":{"osm_id":"4720077767","tag":{"amenity":"waste_basket"}},"type":"Feature"},
	{"geometry":{"coordinates":[7.007812,50.867933],"type":"Point"},"properties":{"osm_id":"4720077768","tag":{"amenity":"waste_basket"}},"type":"Feature"},
	{"geometry":{"coordinates":[7.008463,50.867037],"type":"Point"},"properties":{"osm_id":"4720084380","tag":{"amenity":"waste_basket"}},"type":"Feature"},
	{"geometry":{"coordinates":[7.008394,50.866569],"type":"Point"},"properties":{"osm_id":"4720084382","tag":{"amenity":"waste_basket"}},"type":"Feature"},
	{"geometry":{"coordinates":[7.006431,50.866966],"type":"Point"},"properties":{"osm_id":"5032826383","tag":{"amenity":"waste_disposal"}},"type":"Feature"},
	{"geometry":{"coordinates":[7.005884,50.866674],"type":"Point"},"properties":{"osm_id":"5032826384","tag":{"amenity":"waste_disposal"}},"type":"Feature"},
	{"geometry":{"coordinates":[6.963554,50.891621],"type":"Point"},"properties":{"osm_id":"5210853117","tag":{"amenity":"waste_basket"}},"type":"Feature"},
	{"geometry":{"coordinates":[6.965242,50.891583],"type":"Point"},"properties":{"osm_id":"5210853118","tag":{"amenity":"waste_basket"}},"type":"Feature"},
	{"geometry":{"coordinates":[6.996726,50.892346],"type":"Point"},"properties":{"osm_id":"5768880832","tag":{"amenity":"waste_basket"}},"type":"Feature"},
	{"geometry":{"coordinates":[7.005875,50.867207],"type":"Point"},"properties":{"osm_id":"6069161862","tag":{"amenity":"waste_disposal"}},"type":"Feature"},
	{"geometry":{"coordinates":[6.983256,50.90218],"type":"Point"},"properties":{"osm_id":"6402545588","tag":{"amenity":"waste_basket"}},"type":"Feature"},
	{"geometry":{"coordinates":[6.982684,50.902454],"type":"Point"},"properties":{"osm_id":"6402545596","tag":{"amenity":"waste_basket"}},"type":"Feature"},
	{"geometry":{"coordinates":[6.984398,50.901082],"type":"Point"},"properties":{"osm_id":"6402596971","tag":{"amenity":"waste_basket"}},"type":"Feature"},
	{"geometry":{"coordinates":[6.983817,50.901526],"type":"Point"},"properties":{"osm_id":"6402596983","tag":{"amenity":"waste_basket"}},"type":"Feature"},
	{"geometry":{"coordinates":[6.982617,50.902697],"type":"Point"},"properties":{"osm_id":"6402596991","tag":{"amenity":"waste_basket"}},"type":"Feature"},
	{"geometry":{"coordinates":[6.978148,50.898561],"type":"Point"},"properties":{"osm_id":"6441414371","tag":{"amenity":"waste_basket"}},"type":"Feature"},
	{"geometry":{"coordinates":[6.975396,50.898292],"type":"Point"},"properties":{"osm_id":"6441414373","tag":{"amenity":"recycling","recycling:clothes":"yes","recycling:glass_bottles":"yes","recycling_type":"container"}},"type":"Feature"},
	{"geometry":{"coordinates":[6.976859,50.901569],"type":"Point"},"properties":{"osm_id":"6441414375","tag":{"amenity":"waste_basket","vending":"excrement_bags"}},"type":"Feature"},
	{"geometry":{"coordinates":[6.979327,50.900074],"type":"Point"},"properties":{"osm_id":"6441414377","tag":{"amenity":"waste_basket","vending":"excrement_bags"}},"type":"Feature"},
	{"geometry":{"coordinates":[6.977588,50.901038],"type":"Point"},"properties":{"osm_id":"6441414380","tag":{"amenity":"waste_basket","vending":"excrement_bags"}},"type":"Feature"},
	{"geometry":{"coordinates":[6.976221,50.898503],"type":"Point"},"properties":{"osm_id":"6441414382","tag":{"amenity":"waste_basket","vending":"excrement_bags"}},"type":"Feature"},
	{"geometry":{"coordinates":[6.978126,50.898483],"type":"Point"},"properties":{"osm_id":"6441414383","tag":{"amenity":"waste_basket","vending":"excrement_bags"}},"type":"Feature"},
	{"geometry":{"coordinates":[6.980093,50.902755],"type":"Point"},"properties":{"osm_id":"6441414384","tag":{"amenity":"waste_basket"}},"type":"Feature"},
	{"geometry":{"coordinates":[6.970622,50.896653],"type":"Point"},"properties":{"osm_id":"6447902418","tag":{"amenity":"waste_basket"}},"type":"Feature"},
	{"geometry":{"coordinates":[6.971572,50.89619],"type":"Point"},"properties":{"osm_id":"6447902419","tag":{"amenity":"waste_basket"}},"type":"Feature"},
	{"geometry":{"coordinates":[6.967061,50.900443],"type":"Point"},"properties":{"osm_id":"6447902420","tag":{"amenity":"waste_basket","vending":"excrement_bags"}},"type":"Feature"},
	{"geometry":{"coordinates":[6.974782,50.897268],"type":"Point"},"properties":{"osm_id":"6447902421","tag":{"amenity":"waste_basket"}},"type":"Feature"},
	{"geometry":{"coordinates":[6.968203,50.897728],"type":"Point"},"properties":{"osm_id":"6447902426","tag":{"amenity":"waste_basket"}},"type":"Feature"},
	{"geometry":{"coordinates":[6.973309,50.896682],"type":"Point"},"properties":{"osm_id":"6447902429","tag":{"amenity":"waste_basket"}},"type":"Feature"},
	{"geometry":{"coordinates":[6.973027,50.897186],"type":"Point"},"properties":{"osm_id":"6447902430","tag":{"amenity":"waste_basket"}},"type":"Feature"},
	{"geometry":{"coordinates":[6.97091,50.897152],"type":"Point"},"properties":{"osm_id":"6447902438","tag":{"amenity":"waste_basket"}},"type":"Feature"},
	{"geometry":{"coordinates":[6.971457,50.896286],"type":"Point"},"properties":{"osm_id":"6447902439","tag":{"amenity":"waste_basket"}},"type":"Feature"},
	{"geometry":{"coordinates":[6.974885,50.897527],"type":"Point"},"properties":{"osm_id":"6447902441","tag":{"amenity":"waste_basket"}},"type":"Feature"},
	{"geometry":{"coordinates":[6.973202,50.896907],"type":"Point"},"properties":{"osm_id":"6447902451","tag":{"amenity":"waste_basket"}},"type":"Feature"},
	{"geometry":{"coordinates":[6.972334,50.895391],"type":"Point"},"properties":{"osm_id":"6447902453","tag":{"amenity":"recycling","recycling:clothes":"yes","recycling:glass_bottles":"yes","recycling_type":"container"}},"type":"Feature"},
	{"geometry":{"coordinates":[6.973908,50.896549],"type":"Point"},"properties":{"osm_id":"6447902456","tag":{"amenity":"waste_basket"}},"type":"Feature"},
	{"geometry":{"coordinates":[6.970812,50.896433],"type":"Point"},"properties":{"osm_id":"6447902460","tag":{"amenity":"waste_basket"}},"type":"Feature"},
	{"geometry":{"coordinates":[6.96959,50.897006],"type":"Point"},"properties":{"osm_id":"6447902466","tag":{"amenity":"waste_basket"}},"type":"Feature"},
	{"geometry":{"coordinates":[6.972591,50.896396],"type":"Point"},"properties":{"osm_id":"6447902468","tag":{"amenity":"waste_basket"}},"type":"Feature"},
	{"geometry":{"coordinates":[6.971963,50.896144],"type":"Point"},"properties":{"osm_id":"6447902472","tag":{"amenity":"waste_basket"}},"type":"Feature"},
	{"geometry":{"coordinates":[6.966623,50.902675],"type":"Point"},"properties":{"osm_id":"6447902473","tag":{"amenity":"waste_basket","vending":"excrement_bags"}},"type":"Feature"},
	{"geometry":{"coordinates":[6.97466,50.897002],"type":"Point"},"properties":{"osm_id":"6447902474","tag":{"amenity":"waste_basket"}},"type":"Feature"},
	{"geometry":{"coordinates":[6.972012,50.897191],"type":"Point"},"properties":{"osm_id":"6447902483","tag":{"amenity":"waste_basket","vending":"excrement_bags"}},"type":"Feature"},
	{"geometry":{"coordinates":[6.973278,50.896972],"type":"Point"},"properties":{"osm_id":"6447903690","tag":{"amenity":"waste_basket"}},"type":"Feature"},
	{"geometry":{"coordinates":[6.970405,50.896927],"type":"Point"},"properties":{"osm_id":"6447903691","tag":{"amenity":"waste_basket"}},"type":"Feature"},
	{"geometry":{"coordinates":[6.967863,50.898551],"type":"Point"},"properties":{"osm_id":"6447903693","tag":{"amenity":"waste_basket"}},"type":"Feature"},
	{"geometry":{"coordinates":[6.970441,50.896238],"type":"Point"},"properties":{"osm_id":"6447903699","tag":{"amenity":"waste_basket"}},"type":"Feature"},
	{"geometry":{"coordinates":[6.972257,50.897209],"type":"Point"},"properties":{"osm_id":"6447903704","tag":{"amenity":"waste_basket"}},"type":"Feature"},
	{"geometry":{"coordinates":[6.973024,50.895092],"type":"Point"},"properties":{"osm_id":"6447903706","tag":{"amenity":"waste_basket"}},"type":"Feature"},
	{"geometry":{"coordinates":[6.9738,50.896797],"type":"Point"},"properties":{"osm_id":"6447903708","tag":{"amenity":"waste_basket"}},"type":"Feature"},
	{"geometry":{"coordinates":[6.967832,50.898672],"type":"Point"},"properties":{"osm_id":"6447903714","tag":{"amenity":"recycling","recycling:glass_bottles":"yes","recycling_type":"container"}},"type":"Feature"},
	{"geometry":{"coordinates":[6.970259,50.896166],"type":"Point"},"properties":{"osm_id":"6447903719","tag":{"amenity":"waste_basket","vending":"excrement_bags"}},"type":"Feature"},
	{"geometry":{"coordinates":[6.967346,50.89957],"type":"Point"},"properties":{"osm_id":"6447903720","tag":{"amenity":"waste_basket"}},"type":"Feature"},
	{"geometry":{"coordinates":[6.973906,50.897422],"type":"Point"},"properties":{"osm_id":"6447903721","tag":{"amenity":"waste_basket"}},"type":"Feature"},
	{"geometry":{"coordinates":[6.980579,50.900461],"type":"Point"},"properties":{"osm_id":"6484025419","tag":{"amenity":"waste_basket","vending":"excrement_bags"}},"type":"Feature"},
	{"geometry":{"coordinates":[6.981677,50.898309],"type":"Point"},"properties":{"osm_id":"6484025437","tag":{"amenity":"waste_basket"}},"type":"Feature"},
	{"geometry":{"coordinates":[6.984123,50.899636],"type":"Point"},"properties":{"osm_id":"6484025441","tag":{"amenity":"waste_basket","vending":"excrement_bags"}},"type":"Feature"},
	{"geometry":{"coordinates":[6.991501,50.90178],"type":"Point"},"properties":{"osm_id":"6514003199","tag":{"amenity":"waste_basket"}},"type":"Feature"},
	{"geometry":{"coordinates":[6.991826,50.901848],"type":"Point"},"properties":{"osm_id":"6514003220","tag":{"amenity":"waste_basket"}},"type":"Feature"},
	{"geometry":{"coordinates":[7.012811,50.863577],"type":"Point"},"properties":{"osm_id":"6532590035","tag":{"amenity":"waste_basket"}},"type":"Feature"},
	{"geometry":{"coordinates":[7.012604,50.86343],"type":"Point"},"properties":{"osm_id":"6532590036","tag":{"amenity":"waste_basket"}},"type":"Feature"},
	{"geometry":{"coordinates":[6.971884,50.897934],"type":"Point"},"properties":{"osm_id":"6726844283","tag":{"amenity":"waste_basket","vending":"excrement_bags"}},"type":"Feature"},
	{"geometry":{"coordinates":[6.982304,50.897837],"type":"Point"},"properties":{"osm_id":"6726912572","tag":{"amenity":"waste_basket"}},"type":"Feature"},
	{"geometry":{"coordinates":[6.982071,50.897831],"type":"Point"},"properties":{"osm_id":"6726912574","tag":{"amenity":"waste_basket"}},"type":"Feature"},
	{"geometry":{"coordinates":[6.983709,50.898852],"type":"Point"},"properties":{"osm_id":"6726912578","tag":{"amenity":"waste_basket"}},"type":"Feature"},
	{"geometry":{"coordinates":[6.982946,50.897961],"type":"Point"},"properties":{"osm_id":"6726912580","tag":{"amenity":"waste_basket"}},"type":"Feature"},
	{"geometry":{"coordinates":[6.982094,50.897707],"type":"Point"},"properties":{"osm_id":"6726912581","tag":{"amenity":"waste_basket"}},"type":"Feature"},
	{"geometry":{"coordinates":[6.983919,50.898609],"type":"Point"},"properties":{"osm_id":"6726912582","tag":{"amenity":"waste_basket"}},"type":"Feature"},
	{"geometry":{"coordinates":[6.980179,50.885554],"type":"Point"},"properties":{"osm_id":"6814613757","tag":{"amenity":"waste_basket"}},"type":"Feature"},
	{"geometry":{"coordinates":[6.979975,50.885193],"type":"Point"},"properties":{"osm_id":"6814613761","tag":{"amenity":"waste_basket"}},"type":"Feature"},
	{"geometry":{"coordinates":[6.979353,50.885424],"type":"Point"},"properties":{"osm_id":"6814613767","tag":{"amenity":"waste_basket"}},"type":"Feature"},
	{"geometry":{"coordinates":[6.977534,50.885548],"type":"Point"},"properties":{"osm_id":"6814613769","tag":{"amenity":"waste_basket"}},"type":"Feature"},
	{"geometry":{"coordinates":[6.978502,50.885615],"type":"Point"},"properties":{"osm_id":"6814613772","tag":{"amenity":"waste_basket"}},"type":"Feature"},
	{"geometry":{"coordinates":[6.979157,50.885123],"type":"Point"},"properties":{"osm_id":"6814613773","tag":{"amenity":"waste_basket"}},"type":"Feature"},
	{"geometry":{"coordinates":[6.981031,50.884829],"type":"Point"},"properties":{"osm_id":"6814613779","tag":{"amenity":"waste_basket"}},"type":"Feature"},
	{"geometry":{"coordinates":[6.9817,50.884515],"type":"Point"},"properties":{"osm_id":"6814613784","tag":{"amenity":"waste_basket"}},"type":"Feature"},
	{"geometry":{"coordinates":[6.980836,50.884259],"type":"Point"},"properties":{"osm_id":"6814625791","tag":{"amenity":"waste_basket"}},"type":"Feature"},
	{"geometry":{"coordinates":[6.982797,50.886621],"type":"Point"},"properties":{"osm_id":"6814625807","tag":{"amenity":"waste_basket"}},"type":"Feature"},
	{"geometry":{"coordinates":[6.982334,50.885638],"type":"Point"},"properties":{"osm_id":"6814625809","tag":{"amenity":"waste_basket"}},"type":"Feature"},
	{"geometry":{"coordinates":[6.984987,50.886724],"type":"Point"},"properties":{"osm_id":"6814625814","tag":{"amenity":"waste_basket"}},"type":"Feature"},
	{"geometry":{"coordinates":[6.985282,50.886028],"type":"Point"},"properties":{"osm_id":"6814625821","tag":{"amenity":"waste_basket"}},"type":"Feature"},
	{"geometry":{"coordinates":[6.98292,50.884547],"type":"Point"},"properties":{"osm_id":"6814625823","tag":{"amenity":"waste_basket"}},"type":"Feature"},
	{"geometry":{"coordinates":[6.977921,50.883767],"type":"Point"},"properties":{"osm_id":"6814625826","tag":{"amenity":"waste_basket"}},"type":"Feature"},
	{"geometry":{"coordinates":[6.980453,50.882129],"type":"Point"},"properties":{"osm_id":"7640045740","tag":{"amenity":"waste_basket"}},"type":"Feature"},
	{"geometry":{"coordinates":[6.981961,50.882711],"type":"Point"},"properties":{"osm_id":"7640053369","tag":{"amenity":"waste_basket"}},"type":"Feature"},
	{"geometry":{"coordinates":[6.983725,50.882388],"type":"Point"},"properties":{"osm_id":"7813858359","tag":{"amenity":"waste_basket"}},"type":"Feature"},
	{"geometry":{"coordinates":[6.983977,50.881757],"type":"Point"},"properties":{"osm_id":"7813861512","tag":{"amenity":"waste_basket"}},"type":"Feature"},
	{"geometry":{"coordinates":[6.985317,50.882228],"type":"Point"},"properties":{"osm_id":"7813890920","tag":{"amenity":"waste_basket"}},"type":"Feature"},
	{"geometry":{"coordinates":[6.987433,50.883282],"type":"Point"},"properties":{"osm_id":"7813892446","tag":{"amenity":"waste_basket"}},"type":"Feature"},
	{"geometry":{"coordinates":[6.987306,50.883446],"type":"Point"},"properties":{"osm_id":"7813899628","tag":{"amenity":"waste_basket"}},"type":"Feature"},
	{"geometry":{"coordinates":[6.986383,50.882995],"type":"Point"},"properties":{"osm_id":"7813899695","tag":{"amenity":"waste_basket"}},"type":"Feature"},
	{"geometry":{"coordinates":[6.980901,50.885416],"type":"Point"},"properties":{"osm_id":"7813900702","tag":{"amenity":"waste_basket"}},"type":"Feature"},
	{"geometry":{"coordinates":[6.985168,50.881838],"type":"Point"},"properties":{"osm_id":"7813901101","tag":{"amenity":"waste_basket"}},"type":"Feature"},
	{"geometry":{"coordinates":[6.98453,50.881765],"type":"Point"},"properties":{"osm_id":"7813903515","tag":{"amenity":"waste_basket"}},"type":"Feature"},
	{"geometry":{"coordinates":[6.984708,50.881315],"type":"Point"},"properties":{"osm_id":"7813904032","tag":{"amenity":"waste_basket"}},"type":"Feature"},
	{"geometry":{"coordinates":[6.982079,50.883205],"type":"Point"},"properties":{"osm_id":"7813904085","tag":{"amenity":"waste_basket"}},"type":"Feature"},
	{"geometry":{"coordinates":[6.98514,50.881513],"type":"Point"},"properties":{"osm_id":"7813904412","tag":{"amenity":"waste_basket"}},"type":"Feature"}
]
}
