{
"type": "FeatureCollection",
"features": [
	{"geometry":{"coordinates":[7.011711,50.74237],"type":"Point"},"properties":{"osm_id":"253636348","tag":{"amenity":"recycling","recycling:glass":"yes","recycling_type":"container"}},"type":"Feature"},
	{"geometry":{"coordinates":[7.005465,50.757541],"type":"Point"},"properties":{"osm_id":"262248360","tag":{"amenity":"recycling","location":"overground","recycling:glass":"yes","recycling_type":"container"}},"type":"Feature"},
	{"geometry":{"coordinates":[6.966842,50.762829],"type":"Point"},"properties":{"osm_id":"262341987","tag":{"amenity":"recycling","recycling:glass":"yes"}},"type":"Feature"},
	{"geometry":{"coordinates":[6.944371,50.769233],"type":"Point"},"properties":{"osm_id":"332583555","tag":{"amenity":"recycling","recycling:clothes":"yes","recycling:glass":"yes","recycling:paper":"yes"}},"type":"Feature"},
	{"geometry":{"coordinates":[6.979615,50.767488],"type":"Point"},"properties":{"osm_id":"332583560","tag":{"amenity":"recycling","location":"overground","recycling:glass":"yes","recycling_type":"container"}},"type":"Feature"},
	{"geometry":{"coordinates":[6.948329,50.767405],"type":"Point"},"properties":{"osm_id":"433849834","tag":{"amenity":"recycling","recycling:clothes":"yes","recycling:glass":"yes","recycling:paper":"yes","recycling_type":"container"}},"type":"Feature"},
	{"geometry":{"coordinates":[7.010409,50.757262],"type":"Point"},"properties":{"osm_id":"662528103","tag":{"amenity":"recycling","recycling:glass":"yes","recycling_type":"container"}},"type":"Feature"},
	{"geometry":{"coordinates":[6.968907,50.764617],"type":"Point"},"properties":{"osm_id":"975885938","tag":{"amenity":"recycling","recycling:clothes":"yes","recycling_type":"container"}},"type":"Feature"},
	{"geometry":{"coordinates":[7.017367,50.743687],"type":"Point"},"properties":{"osm_id":"1576927364","tag":{"amenity":"recycling","recycling:clothes":"yes","recycling:glass":"yes","recycling:glass_bottles":"yes","recycling_type":"container"}},"type":"Feature"},
	{"geometry":{"coordinates":[7.009583,50.738187],"type":"Point"},"properties":{"osm_id":"1670009869","tag":{"amenity":"recycling","recycling:glass":"yes","recycling_type":"container"}},"type":"Feature"},
	{"geometry":{"coordinates":[7.017502,50.739557],"type":"Point"},"properties":{"osm_id":"1670009872","tag":{"amenity":"recycling","recycling:glass":"yes","recycling_type":"container"}},"type":"Feature"},
	{"geometry":{"coordinates":[6.991253,50.759806],"type":"Point"},"properties":{"osm_id":"3254729604","tag":{"amenity":"recycling","recycling:glass":"yes"}},"type":"Feature"},
	{"geometry":{"coordinates":[7.001123,50.763174],"type":"Point"},"properties":{"osm_id":"3364335293","tag":{"amenity":"recycling","recycling:glass_bottles":"yes","recycling_type":"container"}},"type":"Feature"},
	{"geometry":{"coordinates":[6.947203,50.765941],"type":"Point"},"properties":{"osm_id":"3720076725","tag":{"amenity":"waste_basket"}},"type":"Feature"},
	{"geometry":{"coordinates":[6.951471,50.767692],"type":"Point"},"properties":{"osm_id":"5022304620","tag":{"amenity":"recycling","recycling:clothes":"yes","recycling_type":"container"}},"type":"Feature"},
	{"geometry":{"coordinates":[6.948406,50.767698],"type":"Point"},"properties":{"name":"Stadtbetrieb Bornheim A\u00c3\u00b6R","osm_id":"5190652950","tag":{"amenity":"recycling","opening_hours":"Mo 12:00-16:00; Th 14:00-18:00; Sa[1] 09:00-13:00; Sa[3] 09:00-13:00","recycling:electrical_appliances":"yes","recycling:green_waste":"yes","recycling_type":"centre"}},"type":"Feature"},
	{"geometry":{"coordinates":[6.975412,50.762209],"type":"Point"},"properties":{"osm_id":"5350758505","tag":{"amenity":"recycling","recycling:clothes":"yes","recycling:shoes":"yes","recycling_type":"container"}},"type":"Feature"},
	{"geometry":{"coordinates":[6.994969,50.760356],"type":"Point"},"properties":{"osm_id":"5520983899","tag":{"amenity":"waste_basket"}},"type":"Feature"},
	{"geometry":{"coordinates":[6.972954,50.754828],"type":"Point"},"properties":{"osm_id":"6382989224","tag":{"amenity":"recycling","recycling:glass":"yes","recycling_type":"container"}},"type":"Feature"},
	{"geometry":{"coordinates":[7.0088,50.757457],"type":"Point"},"properties":{"osm_id":"6391385647","tag":{"amenity":"waste_basket","waste":"trash"}},"type":"Feature"},
	{"geometry":{"coordinates":[7.008697,50.757423],"type":"Point"},"properties":{"osm_id":"6391385649","tag":{"amenity":"waste_basket","waste":"trash"}},"type":"Feature"},
	{"geometry":{"coordinates":[7.008082,50.757914],"type":"Point"},"properties":{"osm_id":"6391385651","tag":{"amenity":"waste_basket","waste":"trash"}},"type":"Feature"},
	{"geometry":{"coordinates":[6.947984,50.761901],"type":"Point"},"properties":{"osm_id":"6450739748","tag":{"amenity":"recycling","clothes":"yes","recycling_type":"container"}},"type":"Feature"},
	{"geometry":{"coordinates":[6.969584,50.764676],"type":"Point"},"properties":{"osm_id":"7142621233","tag":{"amenity":"waste_basket","waste":"trash"}},"type":"Feature"},
	{"geometry":{"coordinates":[7.015397,50.753602],"type":"Point"},"properties":{"osm_id":"7282975385","tag":{"amenity":"waste_basket"}},"type":"Feature"}
]
}
