{
"type": "FeatureCollection",
"features": [
	{"geometry":{"coordinates":[7.022481,50.688649],"type":"Point"},"properties":{"osm_id":"193969720","tag":{"amenity":"recycling","recycling:glass":"white","recycling_type":"container"}},"type":"Feature"},
	{"geometry":{"coordinates":[7.020074,50.698811],"type":"Point"},"properties":{"osm_id":"1043896116","tag":{"amenity":"recycling","description":"Glascontainer","recycling:glass":"yes","recycling_type":"container"}},"type":"Feature"},
	{"geometry":{"coordinates":[7.028995,50.692268],"type":"Point"},"properties":{"osm_id":"1585230395","tag":{"amenity":"recycling","opening_hours":"Mo-Sa 07:00-20:00; Su,PH off","operator":"REMONDIS","operator:phone":"0800 1223255","recycling:glass_bottles":"yes","recycling:glass_bottles:colour":"green;brown","recycling_type":"container"}},"type":"Feature"},
	{"geometry":{"coordinates":[7.021152,50.704777],"type":"Point"},"properties":{"osm_id":"1594610390","tag":{"amenity":"recycling","description":"Altglascontainer","recycling:glass_bottles":"yes","recycling_type":"container"}},"type":"Feature"},
	{"geometry":{"coordinates":[7.018761,50.709608],"type":"Point"},"properties":{"osm_id":"1670009846","tag":{"amenity":"recycling","recycling:glass_bottles":"yes","recycling:paper":"yes","recycling_type":"container"}},"type":"Feature"},
	{"geometry":{"coordinates":[7.02387,50.718755],"type":"Point"},"properties":{"osm_id":"1670009855","tag":{"amenity":"recycling","recycling:glass":"yes","recycling_type":"container"}},"type":"Feature"},
	{"geometry":{"coordinates":[7.026156,50.721009],"type":"Point"},"properties":{"osm_id":"1670009857","tag":{"amenity":"recycling","recycling:glass":"yes","recycling_type":"container"}},"type":"Feature"},
	{"geometry":{"coordinates":[7.013998,50.721146],"type":"Point"},"properties":{"osm_id":"1670009859","tag":{"amenity":"recycling","check_date":"2021-08-24","recycling:glass":"yes","recycling_type":"container"}},"type":"Feature"},
	{"geometry":{"coordinates":[7.019158,50.725553],"type":"Point"},"properties":{"osm_id":"1670009861","tag":{"amenity":"recycling","recycling:glass":"yes","recycling_type":"container"}},"type":"Feature"},
	{"geometry":{"coordinates":[7.009107,50.727311],"type":"Point"},"properties":{"osm_id":"1670009864","tag":{"amenity":"recycling","recycling:glass":"yes","recycling_type":"container"}},"type":"Feature"},
	{"geometry":{"coordinates":[6.992548,50.733056],"type":"Point"},"properties":{"osm_id":"1670009867","tag":{"amenity":"recycling","recycling:clothes":"yes","recycling:glass":"no","recycling:glass_bottles":"yes","recycling_type":"container"}},"type":"Feature"},
	{"geometry":{"coordinates":[6.971783,50.684361],"type":"Point"},"properties":{"osm_id":"4783484617","tag":{"amenity":"waste_basket"}},"type":"Feature"},
	{"geometry":{"coordinates":[6.97187,50.684399],"type":"Point"},"properties":{"osm_id":"4783484618","tag":{"amenity":"waste_basket"}},"type":"Feature"},
	{"geometry":{"coordinates":[6.976372,50.68532],"type":"Point"},"properties":{"osm_id":"4783484620","tag":{"amenity":"waste_basket"}},"type":"Feature"},
	{"geometry":{"coordinates":[6.961129,50.707485],"type":"Point"},"properties":{"osm_id":"4783486328","tag":{"amenity":"waste_basket"}},"type":"Feature"},
	{"geometry":{"coordinates":[6.997402,50.705462],"type":"Point"},"properties":{"osm_id":"4783486336","tag":{"amenity":"waste_basket"}},"type":"Feature"},
	{"geometry":{"coordinates":[6.979878,50.711905],"type":"Point"},"properties":{"osm_id":"4783486337","tag":{"amenity":"waste_basket"}},"type":"Feature"},
	{"geometry":{"coordinates":[6.971809,50.714808],"type":"Point"},"properties":{"osm_id":"4783486338","tag":{"amenity":"waste_basket"}},"type":"Feature"},
	{"geometry":{"coordinates":[6.975734,50.68271],"type":"Point"},"properties":{"osm_id":"4783669825","tag":{"amenity":"waste_basket"}},"type":"Feature"},
	{"geometry":{"coordinates":[7.022621,50.692462],"type":"Point"},"properties":{"osm_id":"4986767623","tag":{"amenity":"waste_basket"}},"type":"Feature"},
	{"geometry":{"coordinates":[7.029455,50.711983],"type":"Point"},"properties":{"osm_id":"5167533161","tag":{"amenity":"recycling","recycling:clothes":"yes","recycling:shoes":"yes","recycling_type":"container"}},"type":"Feature"},
	{"geometry":{"coordinates":[7.029434,50.711986],"type":"Point"},"properties":{"osm_id":"5167533162","tag":{"amenity":"recycling","recycling:clothes":"yes","recycling:shoes":"yes","recycling_type":"container"}},"type":"Feature"},
	{"geometry":{"coordinates":[7.029413,50.711989],"type":"Point"},"properties":{"osm_id":"5167533163","tag":{"amenity":"recycling","recycling:glass_bottles":"brown","recycling_type":"container"}},"type":"Feature"},
	{"geometry":{"coordinates":[7.029392,50.711992],"type":"Point"},"properties":{"osm_id":"5167533164","tag":{"amenity":"recycling","recycling:glass_bottles":"green","recycling_type":"container"}},"type":"Feature"},
	{"geometry":{"coordinates":[7.029371,50.711995],"type":"Point"},"properties":{"osm_id":"5167533165","tag":{"amenity":"recycling","recycling:glass_bottles":"white","recycling_type":"container"}},"type":"Feature"},
	{"geometry":{"coordinates":[7.026199,50.689929],"type":"Point"},"properties":{"osm_id":"5420938902","tag":{"amenity":"waste_basket","waste":"trash"}},"type":"Feature"},
	{"geometry":{"coordinates":[7.022489,50.688281],"type":"Point"},"properties":{"osm_id":"5450827361","tag":{"amenity":"recycling","operator":"Eurocycle GmbH","recycling:clothes":"yes","recycling:shoes":"yes","recycling_type":"container"}},"type":"Feature"},
	{"geometry":{"coordinates":[7.022477,50.688259],"type":"Point"},"properties":{"osm_id":"5450827362","tag":{"amenity":"recycling","operator":"Eurocycle GmbH","recycling:clothes":"yes","recycling:shoes":"yes","recycling_type":"container"}},"type":"Feature"},
	{"geometry":{"coordinates":[7.022489,50.688664],"type":"Point"},"properties":{"osm_id":"5473369967","tag":{"amenity":"recycling","operator":"AWO","recycling:clothes":"yes","recycling_type":"container"}},"type":"Feature"},
	{"geometry":{"coordinates":[7.022959,50.688832],"type":"Point"},"properties":{"osm_id":"5486942717","tag":{"amenity":"recycling","recycling:clothes":"yes","recycling_type":"container"}},"type":"Feature"},
	{"geometry":{"coordinates":[7.015561,50.699576],"type":"Point"},"properties":{"osm_id":"5503385668","tag":{"amenity":"recycling","recycling:clothes":"yes","recycling:shoes":"yes","recycling_type":"container"}},"type":"Feature"},
	{"geometry":{"coordinates":[7.025742,50.690214],"type":"Point"},"properties":{"osm_id":"5526741924","tag":{"amenity":"recycling","operator":"TEXAID","recycling:clothes":"yes","recycling:shoes":"yes","recycling_type":"container"}},"type":"Feature"},
	{"geometry":{"coordinates":[7.02573,50.690228],"type":"Point"},"properties":{"osm_id":"5526741925","tag":{"amenity":"recycling","operator":"TEXAID","recycling:clothes":"yes","recycling:shoes":"yes","recycling_type":"container"}},"type":"Feature"},
	{"geometry":{"coordinates":[7.026186,50.689567],"type":"Point"},"properties":{"osm_id":"5585890486","tag":{"amenity":"waste_basket","waste":"trash"}},"type":"Feature"},
	{"geometry":{"coordinates":[7.025513,50.688729],"type":"Point"},"properties":{"osm_id":"5585890487","tag":{"amenity":"waste_basket","waste":"trash"}},"type":"Feature"},
	{"geometry":{"coordinates":[7.026455,50.68991],"type":"Point"},"properties":{"osm_id":"5585890491","tag":{"amenity":"waste_basket","waste":"cigarettes"}},"type":"Feature"},
	{"geometry":{"coordinates":[7.025928,50.689232],"type":"Point"},"properties":{"osm_id":"5585890493","tag":{"amenity":"waste_basket","waste":"trash"}},"type":"Feature"},
	{"geometry":{"coordinates":[7.026457,50.689913],"type":"Point"},"properties":{"osm_id":"5585890500","tag":{"amenity":"waste_basket","waste":"trash"}},"type":"Feature"},
	{"geometry":{"coordinates":[7.022455,50.688606],"type":"Point"},"properties":{"osm_id":"5585933702","tag":{"amenity":"recycling","recycling:glass":"brown","recycling_type":"container"}},"type":"Feature"},
	{"geometry":{"coordinates":[7.022464,50.68862],"type":"Point"},"properties":{"osm_id":"5585933703","tag":{"amenity":"recycling","recycling:glass":"green","recycling_type":"container"}},"type":"Feature"},
	{"geometry":{"coordinates":[7.022472,50.688635],"type":"Point"},"properties":{"osm_id":"5585933704","tag":{"amenity":"recycling","recycling:glass":"white","recycling_type":"container"}},"type":"Feature"},
	{"geometry":{"coordinates":[7.022313,50.690482],"type":"Point"},"properties":{"osm_id":"5588141793","tag":{"amenity":"waste_basket"}},"type":"Feature"},
	{"geometry":{"coordinates":[7.02585,50.689454],"type":"Point"},"properties":{"osm_id":"5609971963","tag":{"amenity":"waste_basket"}},"type":"Feature"},
	{"geometry":{"coordinates":[7.026129,50.689833],"type":"Point"},"properties":{"osm_id":"5609971982","tag":{"amenity":"waste_basket"}},"type":"Feature"},
	{"geometry":{"coordinates":[7.025103,50.688632],"type":"Point"},"properties":{"osm_id":"5609971987","tag":{"amenity":"waste_basket"}},"type":"Feature"},
	{"geometry":{"coordinates":[7.025855,50.689462],"type":"Point"},"properties":{"osm_id":"5609971998","tag":{"amenity":"waste_basket"}},"type":"Feature"},
	{"geometry":{"coordinates":[7.023067,50.694738],"type":"Point"},"properties":{"osm_id":"5611782552","tag":{"amenity":"waste_basket"}},"type":"Feature"},
	{"geometry":{"coordinates":[7.023545,50.691508],"type":"Point"},"properties":{"osm_id":"6138977526","tag":{"amenity":"waste_basket"}},"type":"Feature"},
	{"geometry":{"coordinates":[7.03026,50.693755],"type":"Point"},"properties":{"osm_id":"6158721139","tag":{"amenity":"waste_basket"}},"type":"Feature"},
	{"geometry":{"coordinates":[7.029749,50.692911],"type":"Point"},"properties":{"osm_id":"6158732958","tag":{"amenity":"recycling","recycling:clothes":"yes","recycling:shoes":"yes","recycling_type":"container"}},"type":"Feature"},
	{"geometry":{"coordinates":[7.028974,50.692275],"type":"Point"},"properties":{"osm_id":"6249001364","tag":{"amenity":"recycling","opening_hours":"Mo-Sa 07:00-20:00; Su,PH off","operator":"REMONDIS","operator:phone":"+49 228 7666777","recycling:glass_bottles":"yes","recycling:glass_bottles:colour":"white","recycling_type":"container"}},"type":"Feature"},
	{"geometry":{"coordinates":[7.015019,50.694496],"type":"Point"},"properties":{"osm_id":"6681555969","tag":{"amenity":"waste_basket"}},"type":"Feature"},
	{"geometry":{"coordinates":[7.012518,50.695244],"type":"Point"},"properties":{"osm_id":"6681583165","tag":{"amenity":"waste_basket"}},"type":"Feature"},
	{"geometry":{"coordinates":[7.021412,50.698008],"type":"Point"},"properties":{"osm_id":"6700511150","tag":{"amenity":"waste_basket"}},"type":"Feature"},
	{"geometry":{"coordinates":[7.017104,50.690395],"type":"Point"},"properties":{"osm_id":"7114465089","tag":{"amenity":"waste_basket"}},"type":"Feature"},
	{"geometry":{"coordinates":[7.018545,50.696621],"type":"Point"},"properties":{"osm_id":"7116509041","tag":{"amenity":"waste_basket"}},"type":"Feature"},
	{"geometry":{"coordinates":[7.022553,50.690352],"type":"Point"},"properties":{"osm_id":"7116569994","tag":{"amenity":"waste_basket"}},"type":"Feature"},
	{"geometry":{"coordinates":[7.017076,50.690387],"type":"Point"},"properties":{"osm_id":"7319182819","tag":{"amenity":"waste_basket"}},"type":"Feature"},
	{"geometry":{"coordinates":[7.018503,50.687935],"type":"Point"},"properties":{"osm_id":"7319182826","tag":{"amenity":"waste_basket"}},"type":"Feature"},
	{"geometry":{"coordinates":[7.023752,50.697908],"type":"Point"},"properties":{"osm_id":"7325185559","tag":{"amenity":"waste_basket"}},"type":"Feature"},
	{"geometry":{"coordinates":[7.019595,50.70964],"type":"Point"},"properties":{"osm_id":"7325207794","tag":{"amenity":"waste_basket"}},"type":"Feature"},
	{"geometry":{"coordinates":[7.019629,50.710906],"type":"Point"},"properties":{"osm_id":"7325417157","tag":{"amenity":"waste_basket"}},"type":"Feature"},
	{"geometry":{"coordinates":[7.020988,50.705815],"type":"Point"},"properties":{"osm_id":"7325417162","tag":{"amenity":"waste_basket"}},"type":"Feature"},
	{"geometry":{"coordinates":[7.019451,50.710672],"type":"Point"},"properties":{"osm_id":"7325417164","tag":{"amenity":"waste_basket"}},"type":"Feature"},
	{"geometry":{"coordinates":[7.017363,50.681415],"type":"Point"},"properties":{"osm_id":"7376639396","tag":{"amenity":"waste_basket"}},"type":"Feature"},
	{"geometry":{"coordinates":[7.022975,50.688831],"type":"Point"},"properties":{"osm_id":"7379103778","tag":{"amenity":"recycling","recycling:clothes":"yes","recycling_type":"container"}},"type":"Feature"},
	{"geometry":{"coordinates":[7.029747,50.698886],"type":"Point"},"properties":{"osm_id":"7385820060","tag":{"amenity":"waste_basket","waste":"trash"}},"type":"Feature"},
	{"geometry":{"coordinates":[7.02946,50.698875],"type":"Point"},"properties":{"osm_id":"7385832960","tag":{"amenity":"waste_basket","waste":"trash"}},"type":"Feature"},
	{"geometry":{"coordinates":[7.026479,50.708466],"type":"Point"},"properties":{"osm_id":"7411243841","tag":{"amenity":"waste_basket"}},"type":"Feature"},
	{"geometry":{"coordinates":[7.020002,50.711305],"type":"Point"},"properties":{"osm_id":"8104313741","tag":{"amenity":"waste_basket"}},"type":"Feature"},
	{"geometry":{"coordinates":[7.020291,50.71161],"type":"Point"},"properties":{"osm_id":"8104313743","tag":{"amenity":"waste_basket"}},"type":"Feature"},
	{"geometry":{"coordinates":[6.970944,50.685727],"type":"Point"},"properties":{"osm_id":"8941825483","tag":{"amenity":"waste_basket"}},"type":"Feature"}
]
}
