{
"type": "FeatureCollection",
"features": [
	{"geometry":{"coordinates":[7.025046,50.678764],"type":"Point"},"properties":{"osm_id":"264402423","tag":{"amenity":"recycling","recycling:glass":"yes","recycling_type":"container"}},"type":"Feature"},
	{"geometry":{"coordinates":[6.986449,50.647256],"type":"Point"},"properties":{"osm_id":"264405212","tag":{"amenity":"recycling","location":"overground","recycling:glass":"yes","recycling_type":"container"}},"type":"Feature"},
	{"geometry":{"coordinates":[6.954518,50.665857],"type":"Point"},"properties":{"osm_id":"264412221","tag":{"amenity":"recycling","recycling:glass":"yes","recycling_type":"container"}},"type":"Feature"},
	{"geometry":{"coordinates":[6.947422,50.631608],"type":"Point"},"properties":{"osm_id":"275877977","tag":{"amenity":"recycling","recycling:glass":"yes","recycling_type":"container"}},"type":"Feature"},
	{"geometry":{"coordinates":[6.959562,50.628481],"type":"Point"},"properties":{"osm_id":"279524453","tag":{"amenity":"recycling","recycling:clothes":"yes","recycling_type":"container"}},"type":"Feature"},
	{"geometry":{"coordinates":[7.010948,50.628036],"type":"Point"},"properties":{"osm_id":"288509030","tag":{"amenity":"recycling","recycling:clothes":"yes","recycling:glass":"yes","recycling_type":"container"}},"type":"Feature"},
	{"geometry":{"coordinates":[7.024404,50.62549],"type":"Point"},"properties":{"osm_id":"297040801","tag":{"amenity":"recycling","recycling:glass":"yes","recycling_type":"container"}},"type":"Feature"},
	{"geometry":{"coordinates":[7.006733,50.64767],"type":"Point"},"properties":{"osm_id":"321583509","tag":{"amenity":"recycling","recycling:glass":"yes"}},"type":"Feature"},
	{"geometry":{"coordinates":[6.962153,50.670904],"type":"Point"},"properties":{"osm_id":"408441939","tag":{"amenity":"recycling","last_checked":"2018-03-25","operator":"Humana","recycling:clothes":"yes","recycling:shoes":"yes","recycling_type":"container"}},"type":"Feature"},
	{"geometry":{"coordinates":[6.944735,50.628948],"type":"Point"},"properties":{"osm_id":"606945154","tag":{"amenity":"recycling","recycling:clothes":"yes","recycling_type":"container"}},"type":"Feature"},
	{"geometry":{"coordinates":[7.019424,50.679334],"type":"Point"},"properties":{"osm_id":"1670009840","tag":{"amenity":"recycling","recycling:glass":"yes","recycling_type":"container"}},"type":"Feature"},
	{"geometry":{"coordinates":[6.958468,50.66602],"type":"Point"},"properties":{"osm_id":"1879597084","tag":{"amenity":"recycling","last_checked":"2018-03-25","opening_hours":"Mo-Sa 07:00-20:00; Su,PH off","recycling:glass":"no","recycling:glass_bottles":"yes","recycling_type":"container"}},"type":"Feature"},
	{"geometry":{"coordinates":[6.958544,50.666074],"type":"Point"},"properties":{"osm_id":"1879597094","tag":{"amenity":"recycling","last_checked":"2018-03-25","operator":"Humana","recycling:clothes":"yes","recycling:shoes":"yes","recycling_type":"container"}},"type":"Feature"},
	{"geometry":{"coordinates":[6.947463,50.62549],"type":"Point"},"properties":{"osm_id":"2096648785","tag":{"amenity":"waste_basket"}},"type":"Feature"},
	{"geometry":{"coordinates":[6.999875,50.651307],"type":"Point"},"properties":{"osm_id":"2393826093","tag":{"amenity":"recycling","recycling:glass":"yes"}},"type":"Feature"},
	{"geometry":{"coordinates":[6.95944,50.625472],"type":"Point"},"properties":{"osm_id":"2540078871","tag":{"amenity":"recycling","recycling:clothes":"yes","recycling_type":"container"}},"type":"Feature"},
	{"geometry":{"coordinates":[6.968912,50.628191],"type":"Point"},"properties":{"osm_id":"2587890604","tag":{"amenity":"waste_basket"}},"type":"Feature"},
	{"geometry":{"coordinates":[6.968067,50.628213],"type":"Point"},"properties":{"osm_id":"2587890644","tag":{"amenity":"waste_basket"}},"type":"Feature"},
	{"geometry":{"coordinates":[6.967479,50.628265],"type":"Point"},"properties":{"osm_id":"2587890663","tag":{"amenity":"waste_basket"}},"type":"Feature"},
	{"geometry":{"coordinates":[6.96704,50.628279],"type":"Point"},"properties":{"osm_id":"2587890673","tag":{"amenity":"waste_basket"}},"type":"Feature"},
	{"geometry":{"coordinates":[6.969083,50.628316],"type":"Point"},"properties":{"osm_id":"2587890693","tag":{"amenity":"waste_basket"}},"type":"Feature"},
	{"geometry":{"coordinates":[6.968034,50.628326],"type":"Point"},"properties":{"osm_id":"2587890705","tag":{"amenity":"waste_basket"}},"type":"Feature"},
	{"geometry":{"coordinates":[6.967597,50.628338],"type":"Point"},"properties":{"osm_id":"2587890726","tag":{"amenity":"waste_basket"}},"type":"Feature"},
	{"geometry":{"coordinates":[6.966904,50.628353],"type":"Point"},"properties":{"osm_id":"2587890752","tag":{"amenity":"waste_basket"}},"type":"Feature"},
	{"geometry":{"coordinates":[7.012117,50.629022],"type":"Point"},"properties":{"osm_id":"2594729743","tag":{"amenity":"recycling","recycling:glass_bottles":"yes","recycling_type":"container"}},"type":"Feature"},
	{"geometry":{"coordinates":[6.969176,50.627902],"type":"Point"},"properties":{"osm_id":"2626112644","tag":{"amenity":"waste_basket"}},"type":"Feature"},
	{"geometry":{"coordinates":[7.01464,50.626335],"type":"Point"},"properties":{"osm_id":"2706218534","tag":{"amenity":"recycling","recycling:glass":"yes","recycling_type":"container"}},"type":"Feature"},
	{"geometry":{"coordinates":[6.947121,50.628692],"type":"Point"},"properties":{"osm_id":"3508044517","tag":{"amenity":"recycling","recycling:electrical_appliances":"yes","recycling:glass":"yes","recycling_type":"container"}},"type":"Feature"},
	{"geometry":{"coordinates":[6.950764,50.631595],"type":"Point"},"properties":{"osm_id":"3512759617","tag":{"amenity":"waste_basket"}},"type":"Feature"},
	{"geometry":{"coordinates":[7.022021,50.662591],"type":"Point"},"properties":{"osm_id":"3583625262","tag":{"amenity":"recycling","operator":"Malteer","recycling:clothes":"yes","recycling_type":"container"}},"type":"Feature"},
	{"geometry":{"coordinates":[6.954922,50.63411],"type":"Point"},"properties":{"osm_id":"3588162393","tag":{"amenity":"waste_basket"}},"type":"Feature"},
	{"geometry":{"coordinates":[6.953548,50.632369],"type":"Point"},"properties":{"osm_id":"3601872994","tag":{"amenity":"waste_basket"}},"type":"Feature"},
	{"geometry":{"coordinates":[6.980767,50.6468],"type":"Point"},"properties":{"osm_id":"3706703781","tag":{"amenity":"waste_basket"}},"type":"Feature"},
	{"geometry":{"coordinates":[6.980534,50.646709],"type":"Point"},"properties":{"osm_id":"3706708648","tag":{"amenity":"waste_basket"}},"type":"Feature"},
	{"geometry":{"coordinates":[6.980836,50.646746],"type":"Point"},"properties":{"osm_id":"3706727795","tag":{"amenity":"waste_basket"}},"type":"Feature"},
	{"geometry":{"coordinates":[6.953483,50.630381],"type":"Point"},"properties":{"osm_id":"3721094248","tag":{"amenity":"waste_basket"}},"type":"Feature"},
	{"geometry":{"coordinates":[6.953651,50.631668],"type":"Point"},"properties":{"osm_id":"3721094278","tag":{"amenity":"waste_basket"}},"type":"Feature"},
	{"geometry":{"coordinates":[6.953927,50.632624],"type":"Point"},"properties":{"osm_id":"3721094300","tag":{"amenity":"waste_basket"}},"type":"Feature"},
	{"geometry":{"coordinates":[6.953928,50.633434],"type":"Point"},"properties":{"osm_id":"3721112046","tag":{"amenity":"waste_basket"}},"type":"Feature"},
	{"geometry":{"coordinates":[6.951574,50.633914],"type":"Point"},"properties":{"osm_id":"3721112052","tag":{"amenity":"waste_basket"}},"type":"Feature"},
	{"geometry":{"coordinates":[6.954353,50.633927],"type":"Point"},"properties":{"osm_id":"3721112053","tag":{"amenity":"waste_basket"}},"type":"Feature"},
	{"geometry":{"coordinates":[6.951447,50.633994],"type":"Point"},"properties":{"osm_id":"3722817071","tag":{"amenity":"waste_basket"}},"type":"Feature"},
	{"geometry":{"coordinates":[6.951465,50.634097],"type":"Point"},"properties":{"osm_id":"3722817076","tag":{"amenity":"waste_basket"}},"type":"Feature"},
	{"geometry":{"coordinates":[6.960234,50.625141],"type":"Point"},"properties":{"osm_id":"4089922492","tag":{"amenity":"recycling","recycling:clothes":"yes","recycling:shoes":"yes","recycling_type":"container"}},"type":"Feature"},
	{"geometry":{"coordinates":[6.962106,50.625131],"type":"Point"},"properties":{"osm_id":"4089923593","tag":{"amenity":"recycling","recycling:clothes":"yes","recycling:shoes":"yes","recycling_type":"container"}},"type":"Feature"},
	{"geometry":{"coordinates":[6.953076,50.628375],"type":"Point"},"properties":{"osm_id":"4190078274","tag":{"amenity":"recycling","operator":"RSAG","recycling:clothes":"yes","recycling:shoes":"yes","recycling_type":"container"}},"type":"Feature"},
	{"geometry":{"coordinates":[6.944692,50.6265],"type":"Point"},"properties":{"osm_id":"4732080285","tag":{"amenity":"waste_basket"}},"type":"Feature"},
	{"geometry":{"coordinates":[6.945557,50.626641],"type":"Point"},"properties":{"osm_id":"4732080312","tag":{"amenity":"recycling","capacity":"3","check_date:recycling":"2020-10-29","recycling:glass_bottles":"yes","recycling_type":"container"}},"type":"Feature"},
	{"geometry":{"coordinates":[6.958961,50.666337],"type":"Point"},"properties":{"osm_id":"4783669821","tag":{"amenity":"waste_basket"}},"type":"Feature"},
	{"geometry":{"coordinates":[6.958509,50.666076],"type":"Point"},"properties":{"osm_id":"4783669822","tag":{"amenity":"recycling","operator":"RSAG","recycling:electrical_appliances":"yes","recycling_type":"container"}},"type":"Feature"},
	{"geometry":{"coordinates":[6.961912,50.668111],"type":"Point"},"properties":{"osm_id":"4783669823","tag":{"amenity":"waste_basket"}},"type":"Feature"},
	{"geometry":{"coordinates":[6.966787,50.678173],"type":"Point"},"properties":{"osm_id":"4783669824","tag":{"amenity":"waste_basket"}},"type":"Feature"},
	{"geometry":{"coordinates":[7.028601,50.6281],"type":"Point"},"properties":{"name":"Altglascontainer","osm_id":"4939745079","tag":{"amenity":"recycling","recycling:glass":"yes","recycling_type":"container"}},"type":"Feature"},
	{"geometry":{"coordinates":[6.945017,50.627403],"type":"Point"},"properties":{"osm_id":"4985050883","tag":{"amenity":"waste_basket"}},"type":"Feature"},
	{"geometry":{"coordinates":[6.960689,50.625176],"type":"Point"},"properties":{"osm_id":"5064375302","tag":{"amenity":"recycling","recycling:clothes":"yes","recycling:shoes":"yes","recycling_type":"container"}},"type":"Feature"},
	{"geometry":{"coordinates":[6.989722,50.648419],"type":"Point"},"properties":{"osm_id":"5364275246","tag":{"amenity":"waste_basket"}},"type":"Feature"},
	{"geometry":{"coordinates":[7.018415,50.627397],"type":"Point"},"properties":{"osm_id":"5400818507","tag":{"amenity":"recycling","check_date:recycling":"2020-10-27","recycling:clothes":"yes","recycling:shoes":"yes","recycling_type":"container"}},"type":"Feature"},
	{"geometry":{"coordinates":[7.022864,50.661705],"type":"Point"},"properties":{"osm_id":"5420989746","tag":{"amenity":"waste_basket"}},"type":"Feature"},
	{"geometry":{"coordinates":[7.023049,50.661733],"type":"Point"},"properties":{"osm_id":"5420989747","tag":{"amenity":"waste_basket"}},"type":"Feature"},
	{"geometry":{"coordinates":[7.022796,50.661886],"type":"Point"},"properties":{"osm_id":"5420989748","tag":{"amenity":"waste_basket"}},"type":"Feature"},
	{"geometry":{"coordinates":[7.022988,50.661906],"type":"Point"},"properties":{"osm_id":"5420989749","tag":{"amenity":"waste_basket"}},"type":"Feature"},
	{"geometry":{"coordinates":[6.946617,50.628989],"type":"Point"},"properties":{"osm_id":"6310887075","tag":{"amenity":"waste_basket"}},"type":"Feature"},
	{"geometry":{"coordinates":[6.94713,50.629011],"type":"Point"},"properties":{"osm_id":"6310887076","tag":{"amenity":"waste_basket"}},"type":"Feature"},
	{"geometry":{"coordinates":[6.947633,50.628955],"type":"Point"},"properties":{"osm_id":"7001157945","tag":{"amenity":"waste_basket"}},"type":"Feature"},
	{"geometry":{"coordinates":[6.947896,50.629193],"type":"Point"},"properties":{"osm_id":"8004385413","tag":{"amenity":"waste_basket"}},"type":"Feature"},
	{"geometry":{"coordinates":[6.947857,50.629337],"type":"Point"},"properties":{"osm_id":"8004385415","tag":{"amenity":"waste_basket"}},"type":"Feature"},
	{"geometry":{"coordinates":[6.947608,50.629314],"type":"Point"},"properties":{"osm_id":"8004385424","tag":{"amenity":"waste_basket"}},"type":"Feature"},
	{"geometry":{"coordinates":[6.953126,50.629216],"type":"Point"},"properties":{"osm_id":"8004385429","tag":{"amenity":"recycling","recycling_type":"container"}},"type":"Feature"},
	{"geometry":{"coordinates":[6.947081,50.629045],"type":"Point"},"properties":{"osm_id":"8004385432","tag":{"amenity":"waste_basket"}},"type":"Feature"}
]
}
