{
"type": "FeatureCollection",
"features": [
	{"geometry":{"coordinates":[6.961934,50.62401],"type":"Point"},"properties":{"osm_id":"275897985","tag":{"amenity":"recycling","operator":"Remondis","recycling:glass_bottles":"yes","recycling_type":"container"}},"type":"Feature"},
	{"geometry":{"coordinates":[6.986594,50.602215],"type":"Point"},"properties":{"osm_id":"277939270","tag":{"amenity":"recycling","recycling:electrical_appliances":"yes","recycling:glass":"yes","recycling_type":"container"}},"type":"Feature"},
	{"geometry":{"coordinates":[6.948325,50.576891],"type":"Point"},"properties":{"osm_id":"279825803","tag":{"amenity":"recycling","recycling:glass":"yes","recycling_type":"container"}},"type":"Feature"},
	{"geometry":{"coordinates":[6.950545,50.622216],"type":"Point"},"properties":{"osm_id":"377836326","tag":{"amenity":"recycling","recycling:glass":"yes","recycling_type":"container"}},"type":"Feature"},
	{"geometry":{"coordinates":[6.991703,50.607975],"type":"Point"},"properties":{"osm_id":"384844816","tag":{"amenity":"recycling","recycling:glass":"yes"}},"type":"Feature"},
	{"geometry":{"coordinates":[6.955067,50.623924],"type":"Point"},"properties":{"osm_id":"423981249","tag":{"amenity":"recycling","recycling:glass":"yes","recycling_type":"container"}},"type":"Feature"},
	{"geometry":{"coordinates":[7.009161,50.591644],"type":"Point"},"properties":{"osm_id":"687796210","tag":{"amenity":"recycling","recycling:glass":"yes","recycling_type":"container"}},"type":"Feature"},
	{"geometry":{"coordinates":[6.961966,50.624087],"type":"Point"},"properties":{"osm_id":"935749648","tag":{"amenity":"recycling","operator":"AWO","recycling:clothes":"yes","recycling_type":"container"}},"type":"Feature"},
	{"geometry":{"coordinates":[7.025373,50.622395],"type":"Point"},"properties":{"osm_id":"1154629371","tag":{"amenity":"recycling","recycling:clothes":"yes","recycling:glass":"no","recycling_type":"container"}},"type":"Feature"},
	{"geometry":{"coordinates":[7.023996,50.620484],"type":"Point"},"properties":{"osm_id":"1231994920","tag":{"amenity":"recycling","recycling_type":"container"}},"type":"Feature"},
	{"geometry":{"coordinates":[7.010418,50.596199],"type":"Point"},"properties":{"osm_id":"2011290712","tag":{"amenity":"recycling","recycling:glass":"yes","recycling_type":"container","website":"https://www.rsag.de/"}},"type":"Feature"},
	{"geometry":{"coordinates":[6.957327,50.618247],"type":"Point"},"properties":{"osm_id":"2087478550","tag":{"amenity":"recycling","opening_hours":"24/7","recycling:glass_bottles":"yes","recycling:small_appliances":"yes","recycling_type":"container","wheelchair":"limited"}},"type":"Feature"},
	{"geometry":{"coordinates":[6.951011,50.622138],"type":"Point"},"properties":{"osm_id":"3723222010","tag":{"amenity":"waste_basket"}},"type":"Feature"},
	{"geometry":{"coordinates":[6.952318,50.622818],"type":"Point"},"properties":{"osm_id":"3723222012","tag":{"amenity":"waste_basket"}},"type":"Feature"},
	{"geometry":{"coordinates":[6.963461,50.623907],"type":"Point"},"properties":{"osm_id":"4174818589","tag":{"amenity":"recycling","operator":"AWO","recycling:clothes":"yes","recycling:shoes":"yes","recycling_type":"container"}},"type":"Feature"},
	{"geometry":{"coordinates":[6.963472,50.623914],"type":"Point"},"properties":{"osm_id":"4174818590","tag":{"amenity":"recycling","operator":"AWO","recycling:clothes":"yes","recycling:shoes":"yes","recycling_type":"container"}},"type":"Feature"},
	{"geometry":{"coordinates":[6.963484,50.623922],"type":"Point"},"properties":{"osm_id":"4174818591","tag":{"amenity":"recycling","operator":"AWO","recycling:clothes":"yes","recycling:shoes":"yes","recycling_type":"container"}},"type":"Feature"},
	{"geometry":{"coordinates":[6.964056,50.624206],"type":"Point"},"properties":{"osm_id":"4174818594","tag":{"amenity":"waste_basket"}},"type":"Feature"},
	{"geometry":{"coordinates":[7.00387,50.592519],"type":"Point"},"properties":{"osm_id":"4391832589","tag":{"amenity":"recycling","operator":"RSVG","recycling:glass":"yes","recycling_type":"container","website":"https://www.rsag.de/"}},"type":"Feature"},
	{"geometry":{"coordinates":[6.984635,50.573008],"type":"Point"},"properties":{"osm_id":"4609536394","tag":{"amenity":"waste_basket"}},"type":"Feature"},
	{"geometry":{"coordinates":[6.993069,50.598899],"type":"Point"},"properties":{"osm_id":"4741776960","tag":{"amenity":"recycling","recycling:green_waste":"yes","recycling_type":"container"}},"type":"Feature"},
	{"geometry":{"coordinates":[6.945029,50.618126],"type":"Point"},"properties":{"osm_id":"5224970635","tag":{"amenity":"waste_basket"}},"type":"Feature"},
	{"geometry":{"coordinates":[6.944326,50.61991],"type":"Point"},"properties":{"osm_id":"5224977994","tag":{"amenity":"waste_basket"}},"type":"Feature"},
	{"geometry":{"coordinates":[6.990066,50.605773],"type":"Point"},"properties":{"osm_id":"5517018213","tag":{"amenity":"waste_basket","waste":"trash"}},"type":"Feature"},
	{"geometry":{"coordinates":[6.990199,50.605684],"type":"Point"},"properties":{"osm_id":"5517022601","tag":{"amenity":"waste_basket","waste":"trash"}},"type":"Feature"},
	{"geometry":{"coordinates":[7.007265,50.589821],"type":"Point"},"properties":{"osm_id":"5758553568","tag":{"amenity":"waste_basket","description":"Mit Hundebeuteln"}},"type":"Feature"},
	{"geometry":{"coordinates":[7.000581,50.589954],"type":"Point"},"properties":{"osm_id":"5758553569","tag":{"amenity":"waste_basket","description":"Mit Hundebeuteln"}},"type":"Feature"}
]
}
