{
"type": "FeatureCollection",
"features": [
	{"geometry":{"coordinates":[6.948652,47.727072],"type":"Point"},"properties":{"osm_id":"4033652531","tag":{"amenity":"waste_basket"}},"type":"Feature"},
	{"geometry":{"coordinates":[6.949216,47.701295],"type":"Point"},"properties":{"name":"Ecopoint","osm_id":"4272365618","tag":{"addr:city":"Bourg-sous-Ch\u00c3\u00a2telet","addr:postcode":"90110","addr:street":"Rue d'Anjoutey","amenity":"recycling"}},"type":"Feature"},
	{"geometry":{"coordinates":[6.95762,47.699562],"type":"Point"},"properties":{"name":"Ecopoint","osm_id":"4273087804","tag":{"amenity":"recycling"}},"type":"Feature"},
	{"geometry":{"coordinates":[6.968916,47.732835],"type":"Point"},"properties":{"osm_id":"4600477940","tag":{"amenity":"waste_basket"}},"type":"Feature"},
	{"geometry":{"coordinates":[6.967226,47.732964],"type":"Point"},"properties":{"osm_id":"4613170687","tag":{"amenity":"recycling","recycling_type":"container"}},"type":"Feature"},
	{"geometry":{"coordinates":[6.968697,47.735984],"type":"Point"},"properties":{"osm_id":"4614907689","tag":{"amenity":"waste_basket"}},"type":"Feature"},
	{"geometry":{"coordinates":[6.978007,47.733201],"type":"Point"},"properties":{"osm_id":"4638638599","tag":{"amenity":"waste_basket"}},"type":"Feature"},
	{"geometry":{"coordinates":[6.968914,47.736325],"type":"Point"},"properties":{"osm_id":"4680955752","tag":{"amenity":"waste_basket"}},"type":"Feature"},
	{"geometry":{"coordinates":[6.97112,47.734685],"type":"Point"},"properties":{"osm_id":"4704515026","tag":{"amenity":"recycling","recycling_type":"container"}},"type":"Feature"},
	{"geometry":{"coordinates":[7.005399,47.707494],"type":"Point"},"properties":{"osm_id":"4853536490","tag":{"amenity":"waste_basket"}},"type":"Feature"},
	{"geometry":{"coordinates":[7.005354,47.707465],"type":"Point"},"properties":{"osm_id":"4853536491","tag":{"amenity":"waste_basket"}},"type":"Feature"},
	{"geometry":{"coordinates":[7.004842,47.722835],"type":"Point"},"properties":{"osm_id":"4876575283","tag":{"amenity":"recycling","recycling_type":"container"}},"type":"Feature"},
	{"geometry":{"coordinates":[6.98261,47.728936],"type":"Point"},"properties":{"osm_id":"4887421004","tag":{"amenity":"recycling","recycling_type":"container"}},"type":"Feature"},
	{"geometry":{"coordinates":[6.968114,47.752631],"type":"Point"},"properties":{"osm_id":"4905436638","tag":{"amenity":"waste_basket"}},"type":"Feature"},
	{"geometry":{"coordinates":[7.0149,47.735905],"type":"Point"},"properties":{"osm_id":"5954214818","tag":{"amenity":"recycling","recycling_type":"container"}},"type":"Feature"},
	{"geometry":{"coordinates":[7.014233,47.710609],"type":"Point"},"properties":{"osm_id":"6054371361","tag":{"amenity":"recycling","recycling_type":"container"}},"type":"Feature"}
]
}
