{
"type": "FeatureCollection",
"features": [
	{"geometry":{"coordinates":[6.944741,47.565935],"type":"Point"},"properties":{"osm_id":"8559647995","tag":{"amenity":"recycling","recycling:glass_bottles":"yes","recycling_type":"container"}},"type":"Feature"},
	{"geometry":{"coordinates":[7.013481,47.571665],"type":"Point"},"properties":{"osm_id":"8568194992","tag":{"amenity":"recycling","operator":"Le Relais","recycling:clothes":"yes","recycling_type":"container"}},"type":"Feature"},
	{"geometry":{"coordinates":[7.013489,47.571679],"type":"Point"},"properties":{"osm_id":"8568194993","tag":{"amenity":"recycling","recycling:glass_bottles":"yes","recycling_type":"container"}},"type":"Feature"},
	{"geometry":{"coordinates":[6.965801,47.53845],"type":"Point"},"properties":{"osm_id":"8589518414","tag":{"amenity":"recycling","operator":"Inser-vet","recycling:clothes":"yes","recycling_type":"container"}},"type":"Feature"},
	{"geometry":{"coordinates":[6.965767,47.538454],"type":"Point"},"properties":{"osm_id":"8589518415","tag":{"amenity":"recycling","operator":"Le Relais","recycling:clothes":"yes","recycling_type":"container"}},"type":"Feature"},
	{"geometry":{"coordinates":[6.965747,47.538457],"type":"Point"},"properties":{"osm_id":"8589518416","tag":{"amenity":"recycling","recycling:shoes":"yes","recycling_type":"container"}},"type":"Feature"},
	{"geometry":{"coordinates":[6.962355,47.534672],"type":"Point"},"properties":{"osm_id":"8589534730","tag":{"amenity":"recycling","recycling:glass_bottles":"yes","recycling_type":"container"}},"type":"Feature"},
	{"geometry":{"coordinates":[6.96139,47.531308],"type":"Point"},"properties":{"osm_id":"8589534731","tag":{"amenity":"recycling","operator":"Inser-vet","recycling:clothes":"yes","recycling_type":"container"}},"type":"Feature"},
	{"geometry":{"coordinates":[6.978419,47.537356],"type":"Point"},"properties":{"osm_id":"8589556193","tag":{"amenity":"recycling","recycling:glass_bottles":"yes","recycling_type":"container"}},"type":"Feature"},
	{"geometry":{"coordinates":[6.979323,47.536787],"type":"Point"},"properties":{"osm_id":"8589556196","tag":{"amenity":"waste_basket"}},"type":"Feature"},
	{"geometry":{"coordinates":[6.979219,47.53665],"type":"Point"},"properties":{"osm_id":"8589556197","tag":{"amenity":"waste_basket"}},"type":"Feature"},
	{"geometry":{"coordinates":[6.96092,47.53907],"type":"Point"},"properties":{"osm_id":"8589595145","tag":{"amenity":"recycling","recycling:glass_bottles":"yes","recycling_type":"container"}},"type":"Feature"},
	{"geometry":{"coordinates":[6.972622,47.538544],"type":"Point"},"properties":{"osm_id":"8589602357","tag":{"amenity":"recycling","recycling:glass_bottles":"yes","recycling_type":"container"}},"type":"Feature"},
	{"geometry":{"coordinates":[6.972651,47.538554],"type":"Point"},"properties":{"osm_id":"8589602358","tag":{"amenity":"recycling","recycling:glass_bottles":"yes","recycling_type":"container"}},"type":"Feature"},
	{"geometry":{"coordinates":[6.972672,47.538538],"type":"Point"},"properties":{"osm_id":"8589602359","tag":{"amenity":"recycling","operator":"Inser-vet","recycling:clothes":"yes","recycling_type":"container"}},"type":"Feature"},
	{"geometry":{"coordinates":[6.971827,47.538441],"type":"Point"},"properties":{"osm_id":"8589602363","tag":{"amenity":"waste_basket"}},"type":"Feature"},
	{"geometry":{"coordinates":[6.967767,47.536962],"type":"Point"},"properties":{"osm_id":"8589639731","tag":{"amenity":"waste_basket"}},"type":"Feature"},
	{"geometry":{"coordinates":[6.967499,47.537025],"type":"Point"},"properties":{"osm_id":"8589639734","tag":{"amenity":"waste_basket"}},"type":"Feature"},
	{"geometry":{"coordinates":[6.966956,47.537207],"type":"Point"},"properties":{"osm_id":"8589639757","tag":{"amenity":"waste_basket"}},"type":"Feature"},
	{"geometry":{"coordinates":[6.961308,47.540598],"type":"Point"},"properties":{"osm_id":"8589816443","tag":{"amenity":"recycling","recycling:glass_bottles":"yes","recycling_type":"container"}},"type":"Feature"},
	{"geometry":{"coordinates":[7.002881,47.525544],"type":"Point"},"properties":{"osm_id":"8590259179","tag":{"amenity":"recycling","recycling:glass_bottles":"yes","recycling_type":"container"}},"type":"Feature"},
	{"geometry":{"coordinates":[7.016507,47.543423],"type":"Point"},"properties":{"osm_id":"9018069238","tag":{"amenity":"recycling","recycling:glass":"yes","recycling_type":"container"}},"type":"Feature"}
]
}
