{
"type": "FeatureCollection",
"lastupdate": "2020-08-06T00:00:00Z",
"features": [
	{"geometry":{"coordinates":[6.956178,46.911594],"type":"Point"},"properties":{"osm_id":"534847117","tag":{"amenity":"recycling","recycling_type":"centre"}},"type":"Feature"},
	{"geometry":{"coordinates":[7.025256,46.911582],"type":"Point"},"properties":{"osm_id":"701408204","tag":{"amenity":"recycling"}},"type":"Feature"},
	{"geometry":{"coordinates":[7.023166,46.917847],"type":"Point"},"properties":{"osm_id":"3346652017","tag":{"amenity":"waste_basket"}},"type":"Feature"},
	{"geometry":{"coordinates":[6.96857,46.914369],"type":"Point"},"properties":{"osm_id":"4329002787","tag":{"amenity":"waste_basket"}},"type":"Feature"},
	{"geometry":{"coordinates":[7.012498,46.866602],"type":"Point"},"properties":{"osm_id":"4868488600","tag":{"amenity":"waste_basket","waste":"trash"}},"type":"Feature"},
	{"geometry":{"coordinates":[7.01304,46.867182],"type":"Point"},"properties":{"osm_id":"4868488612","tag":{"amenity":"waste_basket"}},"type":"Feature"},
	{"geometry":{"coordinates":[7.015123,46.865399],"type":"Point"},"properties":{"osm_id":"4888487001","tag":{"amenity":"waste_basket","waste":"trash"}},"type":"Feature"},
	{"geometry":{"coordinates":[7.012564,46.866453],"type":"Point"},"properties":{"osm_id":"4888487009","tag":{"amenity":"waste_basket","waste":"cigarettes"}},"type":"Feature"},
	{"geometry":{"coordinates":[7.016633,46.865801],"type":"Point"},"properties":{"osm_id":"4915258416","tag":{"amenity":"waste_basket"}},"type":"Feature"},
	{"geometry":{"coordinates":[7.02091,46.869665],"type":"Point"},"properties":{"osm_id":"4915258419","tag":{"amenity":"waste_basket"}},"type":"Feature"},
	{"geometry":{"coordinates":[7.016325,46.866825],"type":"Point"},"properties":{"osm_id":"4919866521","tag":{"amenity":"waste_basket"}},"type":"Feature"},
	{"geometry":{"coordinates":[7.01721,46.866302],"type":"Point"},"properties":{"osm_id":"4919866522","tag":{"amenity":"waste_basket"}},"type":"Feature"},
	{"geometry":{"coordinates":[7.015549,46.866905],"type":"Point"},"properties":{"osm_id":"4919866524","tag":{"amenity":"waste_basket"}},"type":"Feature"},
	{"geometry":{"coordinates":[7.011865,46.869011],"type":"Point"},"properties":{"osm_id":"5037551944","tag":{"amenity":"waste_basket"}},"type":"Feature"},
	{"geometry":{"coordinates":[7.010318,46.870598],"type":"Point"},"properties":{"osm_id":"5058928634","tag":{"amenity":"waste_basket","fee":"no"}},"type":"Feature"},
	{"geometry":{"coordinates":[7.026328,46.914635],"type":"Point"},"properties":{"osm_id":"5311980039","tag":{"amenity":"waste_basket"}},"type":"Feature"},
	{"geometry":{"coordinates":[7.029588,46.915431],"type":"Point"},"properties":{"osm_id":"5312066589","tag":{"amenity":"waste_basket"}},"type":"Feature"},
	{"geometry":{"coordinates":[7.009617,46.871051],"type":"Point"},"properties":{"osm_id":"5532169047","tag":{"amenity":"recycling","fee":"yes","opening_hours":"Mo-Sa 06:00-22:00","recycling:waste":"yes","recycling_type":"container"}},"type":"Feature"},
	{"geometry":{"coordinates":[7.021062,46.870026],"type":"Point"},"properties":{"osm_id":"6006105050","tag":{"door":"yes","entrance":"service","foot":"designated"}},"type":"Feature"},
	{"geometry":{"coordinates":[7.020748,46.869992],"type":"Point"},"properties":{"barrier":"gate","osm_id":"6006105054"},"type":"Feature"},
	{"geometry":{"coordinates":[7.021134,46.869925],"type":"Point"},"properties":{"barrier":"gate","osm_id":"6006105055"},"type":"Feature"}
]
}
