{
"type": "FeatureCollection",
"features": [
	{"geometry":{"coordinates":[6.95002,46.84122],"type":"Point"},"properties":{"osm_id":"504395962","tag":{"amenity":"recycling","recycling:batteries":"yes","recycling:cardboard":"yes","recycling:clothes":"yes","recycling:electrical_appliances":"yes","recycling:glass":"yes","recycling:glass_bottles":"yes","recycling:green_waste":"yes","recycling:paper":"yes","recycling:plastic":"yes","recycling:plastic_bottles":"yes","recycling:shoes":"yes","recycling:small_appliances":"yes","recycling:waste":"yes","recycling_type":"centre","website":"http://www.corcelles.ch/net/Net_corcelles.asp?NoOFS=5816&Sty=&NumStr=40.20"}},"type":"Feature"},
	{"geometry":{"coordinates":[7.014869,46.831462],"type":"Point"},"properties":{"osm_id":"5154266744","tag":{"amenity":"waste_disposal","description":"benne compacteuse","fee":"yes","opening_hours":"Mo-Sa 06:00-22:00","waste":"trash"}},"type":"Feature"},
	{"geometry":{"coordinates":[6.961747,46.854521],"type":"Point"},"properties":{"osm_id":"6374515813","tag":{"amenity":"waste_basket"}},"type":"Feature"},
	{"geometry":{"coordinates":[6.98436,46.856194],"type":"Point"},"properties":{"osm_id":"6397209051","tag":{"amenity":"waste_basket"}},"type":"Feature"},
	{"geometry":{"coordinates":[6.984366,46.856341],"type":"Point"},"properties":{"osm_id":"6397209052","tag":{"amenity":"waste_basket"}},"type":"Feature"},
	{"geometry":{"coordinates":[7.018286,46.858104],"type":"Point"},"properties":{"osm_id":"6800674847","tag":{"amenity":"waste_basket"}},"type":"Feature"},
	{"geometry":{"coordinates":[7.005346,46.84344],"type":"Point"},"properties":{"osm_id":"8090695828","tag":{"amenity":"waste_disposal","description":"benne compacteuse","fee":"yes","opening_hours":"Mo-Sa 06:00-22:00","waste":"trash"}},"type":"Feature"},
	{"geometry":{"coordinates":[6.984643,46.853926],"type":"Point"},"properties":{"osm_id":"8090695829","tag":{"amenity":"waste_disposal","description":"benne compacteuse","fee":"yes","opening_hours":"Mo-Sa 06:00-22:00","waste":"trash"}},"type":"Feature"},
	{"geometry":{"coordinates":[6.984223,46.853722],"type":"Point"},"properties":{"barrier":"gate","osm_id":"8090695838"},"type":"Feature"},
	{"geometry":{"coordinates":[6.984518,46.853901],"type":"Point"},"properties":{"barrier":"gate","osm_id":"8090695839"},"type":"Feature"}
]
}
