{
"type": "FeatureCollection",
"lastupdate": "2020-08-03T00:00:00Z",
"features": [
	{"geometry":{"coordinates":[6.947195,43.927469],"type":"Point"},"properties":{"osm_id":"2018544549","tag":{"amenity":"waste_basket","information":"Encombrants"}},"type":"Feature"},
	{"geometry":{"coordinates":[6.947242,43.927486],"type":"Point"},"properties":{"osm_id":"2018544552","tag":{"amenity":"waste_basket","information":"Tri s\u00e9lectif"}},"type":"Feature"},
	{"geometry":{"coordinates":[6.947293,43.927507],"type":"Point"},"properties":{"osm_id":"2018544557","tag":{"amenity":"waste_basket","information":"Ordures m\u00e9nag\u00e8res"}},"type":"Feature"},
	{"geometry":{"coordinates":[6.947607,43.927492],"type":"Point"},"properties":{"osm_id":"2018599217","tag":{"amenity":"waste_basket"}},"type":"Feature"},
	{"geometry":{"coordinates":[6.947675,43.927495],"type":"Point"},"properties":{"osm_id":"2018599218","tag":{"amenity":"waste_basket"}},"type":"Feature"},
	{"geometry":{"coordinates":[6.982776,43.909675],"type":"Point"},"properties":{"osm_id":"2530933305","tag":{"amenity":"waste_basket"}},"type":"Feature"},
	{"geometry":{"coordinates":[6.982569,43.909853],"type":"Point"},"properties":{"osm_id":"2530933311","tag":{"amenity":"waste_basket"}},"type":"Feature"},
	{"geometry":{"coordinates":[6.982424,43.909873],"type":"Point"},"properties":{"osm_id":"2530933312","tag":{"amenity":"waste_basket","recycling:cans":"yes","recycling:glass":"no","recycling:paper":"yes"}},"type":"Feature"},
	{"geometry":{"coordinates":[6.979648,43.910366],"type":"Point"},"properties":{"osm_id":"2530933326","tag":{"amenity":"waste_basket"}},"type":"Feature"},
	{"geometry":{"coordinates":[6.978757,43.910465],"type":"Point"},"properties":{"osm_id":"2530933365","tag":{"amenity":"waste_basket"}},"type":"Feature"},
	{"geometry":{"coordinates":[6.981393,43.910629],"type":"Point"},"properties":{"osm_id":"2530933390","tag":{"amenity":"waste_basket"}},"type":"Feature"},
	{"geometry":{"coordinates":[6.947222,43.927548],"type":"Point"},"properties":{"osm_id":"3715960305","tag":{"amenity":"waste_basket"}},"type":"Feature"},
	{"geometry":{"coordinates":[6.948558,43.92704],"type":"Point"},"properties":{"osm_id":"4237850589","tag":{"amenity":"waste_basket"}},"type":"Feature"}
]
}
