{
"type": "FeatureCollection",
"features": [
	{"geometry":{"coordinates":[6.985804,43.653619],"type":"Point"},"properties":{"osm_id":"251358368","tag":{"amenity":"recycling"}},"type":"Feature"},
	{"geometry":{"coordinates":[6.974963,43.676322],"type":"Point"},"properties":{"osm_id":"254918796","tag":{"amenity":"recycling","location":"overground","recycling_type":"container"}},"type":"Feature"},
	{"geometry":{"coordinates":[6.980128,43.675501],"type":"Point"},"properties":{"osm_id":"2294558694","tag":{"amenity":"recycling","recycling_type":"container"}},"type":"Feature"},
	{"geometry":{"coordinates":[6.975293,43.675208],"type":"Point"},"properties":{"osm_id":"2708404572","tag":{"amenity":"recycling","recycling:clothes":"no"}},"type":"Feature"},
	{"geometry":{"coordinates":[6.960221,43.68084],"type":"Point"},"properties":{"osm_id":"2724847741","tag":{"amenity":"recycling","recycling_type":"container"}},"type":"Feature"},
	{"geometry":{"coordinates":[7.012614,43.676268],"type":"Point"},"properties":{"osm_id":"3533029175","tag":{"amenity":"recycling","location":"overground","recycling:cans":"yes","recycling:clothes":"yes","recycling:glass_bottles":"yes","recycling:paper":"yes","recycling_type":"container"}},"type":"Feature"},
	{"geometry":{"coordinates":[6.943363,43.673686],"type":"Point"},"properties":{"osm_id":"4375939053","tag":{"amenity":"waste_basket"}},"type":"Feature"},
	{"geometry":{"coordinates":[6.947278,43.677416],"type":"Point"},"properties":{"osm_id":"4375939055","tag":{"amenity":"waste_disposal"}},"type":"Feature"},
	{"geometry":{"coordinates":[6.947288,43.677442],"type":"Point"},"properties":{"osm_id":"4375939056","tag":{"amenity":"recycling","recycling:cans":"yes","recycling:cardboard":"yes","recycling:plastic":"yes","recycling:plastic_bottles":"yes","recycling:plastic_packaging":"yes","recycling_type":"container"}},"type":"Feature"},
	{"geometry":{"coordinates":[6.960302,43.649767],"type":"Point"},"properties":{"osm_id":"5822905570","tag":{"amenity":"recycling","recycling_type":"container"}},"type":"Feature"},
	{"geometry":{"coordinates":[6.987156,43.660911],"type":"Point"},"properties":{"osm_id":"6214815114","tag":{"amenity":"recycling"}},"type":"Feature"},
	{"geometry":{"coordinates":[7.028691,43.672863],"type":"Point"},"properties":{"name":"D\u00c3\u00a9chetterie de Roquefort-les-Pins","osm_id":"6400484184","tag":{"amenity":"recycling","recycling_type":"centre"}},"type":"Feature"},
	{"geometry":{"coordinates":[6.990365,43.703719],"type":"Point"},"properties":{"osm_id":"7551650150","tag":{"amenity":"recycling","recycling_type":"container"}},"type":"Feature"},
	{"geometry":{"coordinates":[7.005272,43.67453],"type":"Point"},"properties":{"osm_id":"7722192161","tag":{"amenity":"recycling","location":"overground","recycling:cans":"yes","recycling:clothes":"yes","recycling:glass_bottles":"yes","recycling:paper":"yes","recycling_type":"container"}},"type":"Feature"},
	{"geometry":{"coordinates":[6.965974,43.680332],"type":"Point"},"properties":{"osm_id":"7836601582","tag":{"amenity":"recycling","recycling_type":"container"}},"type":"Feature"},
	{"geometry":{"coordinates":[6.966041,43.680311],"type":"Point"},"properties":{"osm_id":"7836601583","tag":{"amenity":"waste_disposal"}},"type":"Feature"},
	{"geometry":{"coordinates":[6.99558,43.658677],"type":"Point"},"properties":{"osm_id":"7970052802","tag":{"amenity":"recycling","recycling_type":"container"}},"type":"Feature"},
	{"geometry":{"coordinates":[7.017967,43.669285],"type":"Point"},"properties":{"osm_id":"8402641232","tag":{"amenity":"waste_basket"}},"type":"Feature"},
	{"geometry":{"coordinates":[6.971345,43.6803],"type":"Point"},"properties":{"osm_id":"8431025392","tag":{"amenity":"waste_basket"}},"type":"Feature"},
	{"geometry":{"coordinates":[7.001659,43.673671],"type":"Point"},"properties":{"osm_id":"8486672089","tag":{"amenity":"waste_basket"}},"type":"Feature"},
	{"geometry":{"coordinates":[7.004629,43.682655],"type":"Point"},"properties":{"osm_id":"8729778167","tag":{"amenity":"waste_basket","material":"steel"}},"type":"Feature"},
	{"geometry":{"coordinates":[7.002222,43.684428],"type":"Point"},"properties":{"osm_id":"8729778170","tag":{"amenity":"waste_basket","material":"steel"}},"type":"Feature"},
	{"geometry":{"coordinates":[6.988977,43.699412],"type":"Point"},"properties":{"osm_id":"9038299500","tag":{"amenity":"recycling","recycling:glass_bottles":"yes","recycling_type":"container"}},"type":"Feature"},
	{"geometry":{"coordinates":[6.988959,43.699395],"type":"Point"},"properties":{"osm_id":"9038299501","tag":{"amenity":"recycling","recycling:beverage_cartons":"yes","recycling:cans":"yes","recycling_type":"container"}},"type":"Feature"},
	{"geometry":{"coordinates":[6.988649,43.698491],"type":"Point"},"properties":{"osm_id":"9038299502","tag":{"amenity":"recycling","recycling:beverage_cartons":"yes","recycling:cans":"yes","recycling_type":"container"}},"type":"Feature"},
	{"geometry":{"coordinates":[6.988672,43.698501],"type":"Point"},"properties":{"osm_id":"9038299503","tag":{"amenity":"waste_disposal"}},"type":"Feature"}
]
}
