{
"type": "FeatureCollection",
"features": [
	{"geometry":{"coordinates":[7.001741,43.604725],"type":"Point"},"properties":{"osm_id":"260773010","tag":{"amenity":"recycling"}},"type":"Feature"},
	{"geometry":{"coordinates":[6.986247,43.601911],"type":"Point"},"properties":{"osm_id":"276824118","tag":{"amenity":"recycling","recycling:clothes":"yes","recycling:glass":"yes","recycling:paper":"yes"}},"type":"Feature"},
	{"geometry":{"coordinates":[7.00761,43.641808],"type":"Point"},"properties":{"osm_id":"281066582","tag":{"amenity":"recycling","location":"underground","recycling_type":"container"}},"type":"Feature"},
	{"geometry":{"coordinates":[6.972043,43.618202],"type":"Point"},"properties":{"osm_id":"332323912","tag":{"tourism":"information"}},"type":"Feature"},
	{"geometry":{"coordinates":[6.977327,43.614488],"type":"Point"},"properties":{"osm_id":"339049469","tag":{"amenity":"recycling","location":"overground","recycling:glass_bottles":"yes","recycling:paper":"yes","recycling_type":"container"}},"type":"Feature"},
	{"geometry":{"coordinates":[6.971537,43.617012],"type":"Point"},"properties":{"osm_id":"345117858","tag":{"amenity":"recycling","recycling:clothes":"yes","recycling:glass_bottles":"yes","recycling:paper":"yes"}},"type":"Feature"},
	{"geometry":{"coordinates":[6.964779,43.581638],"type":"Point"},"properties":{"barrier":"gate","osm_id":"534253026","tag":{"bicycle":"no","foot":"no"}},"type":"Feature"},
	{"geometry":{"coordinates":[7.01562,43.609683],"type":"Point"},"properties":{"osm_id":"622962900","tag":{"amenity":"recycling","location":"overground","recycling:clothes":"yes","recycling:glass":"yes","recycling:paper":"yes","recycling_type":"container"}},"type":"Feature"},
	{"geometry":{"coordinates":[7.012495,43.596839],"type":"Point"},"properties":{"osm_id":"821553800","tag":{"amenity":"waste_basket"}},"type":"Feature"},
	{"geometry":{"coordinates":[7.005074,43.638776],"type":"Point"},"properties":{"osm_id":"829833100","tag":{"amenity":"recycling","location":"overground","recycling_type":"container"}},"type":"Feature"},
	{"geometry":{"coordinates":[7.006015,43.628334],"type":"Point"},"properties":{"osm_id":"829833190","tag":{"amenity":"recycling"}},"type":"Feature"},
	{"geometry":{"coordinates":[7.011021,43.607194],"type":"Point"},"properties":{"osm_id":"915265395","tag":{"amenity":"recycling","recycling:glass":"yes","recycling:paper":"yes"}},"type":"Feature"},
	{"geometry":{"coordinates":[6.944122,43.581466],"type":"Point"},"properties":{"osm_id":"1052275819","tag":{"amenity":"recycling","location":"overground","recycling:clothes":"yes","recycling:glass":"yes","recycling:paper":"yes","recycling_type":"container"}},"type":"Feature"},
	{"geometry":{"coordinates":[7.010017,43.641781],"type":"Point"},"properties":{"osm_id":"1422477549","tag":{"amenity":"recycling"}},"type":"Feature"},
	{"geometry":{"coordinates":[6.94916,43.614851],"type":"Point"},"properties":{"barrier":"gate","osm_id":"1452920750","tag":{"bicycle":"no","foot":"no","motorcar":"yes"}},"type":"Feature"},
	{"geometry":{"coordinates":[6.965477,43.620219],"type":"Point"},"properties":{"osm_id":"1452920861","tag":{"amenity":"recycling","recycling:glass_bottles":"yes","recycling:paper":"yes"}},"type":"Feature"},
	{"geometry":{"coordinates":[6.964493,43.581565],"type":"Point"},"properties":{"barrier":"gate","osm_id":"1468385501","tag":{"bicycle":"no","foot":"no"}},"type":"Feature"},
	{"geometry":{"coordinates":[6.9703,43.60224],"type":"Point"},"properties":{"osm_id":"1470029009","tag":{"amenity":"recycling","recycling:glass_bottles":"yes","recycling:paper":"yes"}},"type":"Feature"},
	{"geometry":{"coordinates":[6.97193,43.621316],"type":"Point"},"properties":{"osm_id":"1531796047","tag":{"amenity":"recycling","recycling:glass":"yes","recycling_type":"container"}},"type":"Feature"},
	{"geometry":{"coordinates":[6.973883,43.620895],"type":"Point"},"properties":{"osm_id":"1567251324","tag":{"amenity":"recycling","recycling_type":"container"}},"type":"Feature"},
	{"geometry":{"coordinates":[6.969608,43.622029],"type":"Point"},"properties":{"osm_id":"1575873494","tag":{"amenity":"recycling"}},"type":"Feature"},
	{"geometry":{"coordinates":[6.95685,43.587911],"type":"Point"},"properties":{"osm_id":"1685126740","tag":{"amenity":"recycling","location":"overground","recycling_type":"container"}},"type":"Feature"},
	{"geometry":{"coordinates":[6.949359,43.580928],"type":"Point"},"properties":{"osm_id":"1704871437","tag":{"amenity":"waste_basket"}},"type":"Feature"},
	{"geometry":{"coordinates":[6.968771,43.619992],"type":"Point"},"properties":{"osm_id":"1858314179","tag":{"amenity":"recycling","recycling:cans":"yes","recycling:plastic":"yes","recycling:waste":"yes","recycling_type":"container"}},"type":"Feature"},
	{"geometry":{"coordinates":[6.984192,43.633589],"type":"Point"},"properties":{"osm_id":"1902899359","tag":{"amenity":"recycling","recycling:glass":"yes","recycling:paper":"yes"}},"type":"Feature"},
	{"geometry":{"coordinates":[6.996288,43.621929],"type":"Point"},"properties":{"osm_id":"1998342391","tag":{"amenity":"recycling","recycling:batteries":"no","recycling:glass":"yes","recycling:paper":"no","recycling_type":"container"}},"type":"Feature"},
	{"geometry":{"coordinates":[6.975951,43.62471],"type":"Point"},"properties":{"osm_id":"2018025477","tag":{"amenity":"recycling"}},"type":"Feature"},
	{"geometry":{"coordinates":[6.975379,43.62591],"type":"Point"},"properties":{"osm_id":"2018025861","tag":{"amenity":"recycling","recycling:batteries":"no","recycling:books":"yes","recycling:cans":"yes","recycling:cartons":"yes","recycling:clothes":"yes","recycling:electrical_appliances":"no","recycling:glass":"no","recycling:glass_bottles":"yes","recycling:magazines":"yes","recycling:newspaper":"yes","recycling:paper":"yes","recycling_type":"container"}},"type":"Feature"},
	{"geometry":{"coordinates":[6.972654,43.619074],"type":"Point"},"properties":{"osm_id":"2201435782","tag":{"amenity":"waste_basket"}},"type":"Feature"},
	{"geometry":{"coordinates":[6.968343,43.622375],"type":"Point"},"properties":{"osm_id":"2207906619","tag":{"amenity":"recycling","recycling:clothes":"yes","recycling:glass":"yes","recycling:plastic":"yes"}},"type":"Feature"},
	{"geometry":{"coordinates":[6.979227,43.639616],"type":"Point"},"properties":{"osm_id":"2272623982","tag":{"amenity":"recycling","recycling:clothes":"yes","recycling:glass":"yes"}},"type":"Feature"},
	{"geometry":{"coordinates":[6.97101,43.621473],"type":"Point"},"properties":{"osm_id":"2412406893","tag":{"amenity":"waste_basket"}},"type":"Feature"},
	{"geometry":{"coordinates":[6.949898,43.5971],"type":"Point"},"properties":{"osm_id":"2530725473","tag":{"amenity":"recycling"}},"type":"Feature"},
	{"geometry":{"coordinates":[6.977786,43.618184],"type":"Point"},"properties":{"osm_id":"2574160375","tag":{"amenity":"recycling","recycling:cans":"yes","recycling_type":"container"}},"type":"Feature"},
	{"geometry":{"coordinates":[7.009594,43.640918],"type":"Point"},"properties":{"osm_id":"2671452939","tag":{"amenity":"recycling"}},"type":"Feature"},
	{"geometry":{"coordinates":[7.014262,43.612454],"type":"Point"},"properties":{"osm_id":"2705524393","tag":{"amenity":"recycling","location":"overground","recycling:clothes":"yes","recycling:paper":"yes","recycling_type":"container"}},"type":"Feature"},
	{"geometry":{"coordinates":[6.997524,43.601014],"type":"Point"},"properties":{"osm_id":"2776305828","tag":{"amenity":"recycling","recycling:glass_bottles":"yes","recycling:paper":"yes","recycling_type":"container"}},"type":"Feature"},
	{"geometry":{"coordinates":[7.007604,43.623588],"type":"Point"},"properties":{"osm_id":"2898873817","tag":{"amenity":"recycling","recycling:clothes":"yes","recycling:glass":"yes","recycling:paper":"yes"}},"type":"Feature"},
	{"geometry":{"coordinates":[6.962613,43.613678],"type":"Point"},"properties":{"osm_id":"3212335939","tag":{"amenity":"recycling"}},"type":"Feature"},
	{"geometry":{"coordinates":[7.002516,43.634998],"type":"Point"},"properties":{"osm_id":"3507627263","tag":{"amenity":"recycling","location":"overground","recycling_type":"container"}},"type":"Feature"},
	{"geometry":{"coordinates":[6.973264,43.617738],"type":"Point"},"properties":{"osm_id":"3575001139","tag":{"amenity":"recycling","recycling:glass_bottles":"yes","recycling:paper":"yes","recycling_type":"container"}},"type":"Feature"},
	{"geometry":{"coordinates":[6.973238,43.61777],"type":"Point"},"properties":{"osm_id":"3575034826","tag":{"amenity":"waste_disposal"}},"type":"Feature"},
	{"geometry":{"coordinates":[7.00592,43.640154],"type":"Point"},"properties":{"osm_id":"3578044708","tag":{"amenity":"recycling","recycling:cans":"yes","recycling:cardboard":"yes","recycling:clothes":"no","recycling:glass_bottles":"yes","recycling:paper":"yes","recycling_type":"container"}},"type":"Feature"},
	{"geometry":{"coordinates":[6.970074,43.618849],"type":"Point"},"properties":{"name":"Composteurs publics","osm_id":"4472723547","tag":{"amenity":"recycling","opening_hours":"24/7","operator":"Univalom","recycling":"organic","recycling:green_waste":"yes","recycling_type":"container","wheelchair":"yes"}},"type":"Feature"},
	{"geometry":{"coordinates":[7.008393,43.640553],"type":"Point"},"properties":{"osm_id":"4618167626","tag":{"amenity":"waste_disposal"}},"type":"Feature"},
	{"geometry":{"coordinates":[7.003547,43.589416],"type":"Point"},"properties":{"osm_id":"4764586200","tag":{"amenity":"recycling","recycling:clothes":"yes","recycling_type":"container"}},"type":"Feature"},
	{"geometry":{"coordinates":[6.971968,43.612438],"type":"Point"},"properties":{"osm_id":"4789725352","tag":{"amenity":"recycling","operator":"Croix Rouge Fran\u00c3\u00a7aise","recycling:clothes":"yes","recycling_type":"container"}},"type":"Feature"},
	{"geometry":{"coordinates":[6.968815,43.615758],"type":"Point"},"properties":{"name":"Composteurs publics","osm_id":"4845910209","tag":{"amenity":"recycling","opening_hours":"24/7","operator":"Univalom","recycling":"organic","recycling:green_waste":"yes","recycling_type":"container","wheelchair":"yes"}},"type":"Feature"},
	{"geometry":{"coordinates":[6.976068,43.62469],"type":"Point"},"properties":{"osm_id":"4991722644","tag":{"amenity":"recycling"}},"type":"Feature"},
	{"geometry":{"coordinates":[6.976571,43.618055],"type":"Point"},"properties":{"osm_id":"5421899527","tag":{"amenity":"waste_disposal"}},"type":"Feature"},
	{"geometry":{"coordinates":[6.971453,43.615043],"type":"Point"},"properties":{"osm_id":"5537508050","tag":{"amenity":"waste_basket"}},"type":"Feature"},
	{"geometry":{"coordinates":[6.971921,43.615418],"type":"Point"},"properties":{"osm_id":"5537508051","tag":{"amenity":"waste_basket"}},"type":"Feature"},
	{"geometry":{"coordinates":[6.973597,43.616368],"type":"Point"},"properties":{"osm_id":"5537508052","tag":{"amenity":"waste_basket"}},"type":"Feature"},
	{"geometry":{"coordinates":[6.972574,43.615866],"type":"Point"},"properties":{"osm_id":"5537508053","tag":{"amenity":"waste_basket","survey:date":"2018-05-04"}},"type":"Feature"},
	{"geometry":{"coordinates":[6.972276,43.615678],"type":"Point"},"properties":{"osm_id":"5537508054","tag":{"amenity":"waste_basket"}},"type":"Feature"},
	{"geometry":{"coordinates":[6.97206,43.615537],"type":"Point"},"properties":{"osm_id":"5537508055","tag":{"amenity":"waste_basket"}},"type":"Feature"},
	{"geometry":{"coordinates":[6.971846,43.615363],"type":"Point"},"properties":{"osm_id":"5537508056","tag":{"amenity":"waste_basket"}},"type":"Feature"},
	{"geometry":{"coordinates":[6.971295,43.614935],"type":"Point"},"properties":{"osm_id":"5537508057","tag":{"amenity":"waste_basket"}},"type":"Feature"},
	{"geometry":{"coordinates":[6.970735,43.614444],"type":"Point"},"properties":{"osm_id":"5537508058","tag":{"amenity":"waste_basket"}},"type":"Feature"},
	{"geometry":{"coordinates":[6.972848,43.616171],"type":"Point"},"properties":{"osm_id":"5538296517","tag":{"amenity":"waste_basket"}},"type":"Feature"},
	{"geometry":{"coordinates":[6.973162,43.616392],"type":"Point"},"properties":{"osm_id":"5538296518","tag":{"amenity":"waste_basket"}},"type":"Feature"},
	{"geometry":{"coordinates":[6.973364,43.616606],"type":"Point"},"properties":{"osm_id":"5538296519","tag":{"amenity":"waste_basket"}},"type":"Feature"},
	{"geometry":{"coordinates":[6.973059,43.617046],"type":"Point"},"properties":{"osm_id":"5538296520","tag":{"amenity":"waste_basket"}},"type":"Feature"},
	{"geometry":{"coordinates":[6.972964,43.617179],"type":"Point"},"properties":{"osm_id":"5538299922","tag":{"amenity":"waste_basket"}},"type":"Feature"},
	{"geometry":{"coordinates":[6.972749,43.617468],"type":"Point"},"properties":{"osm_id":"5538299925","tag":{"amenity":"waste_basket"}},"type":"Feature"},
	{"geometry":{"coordinates":[7.009507,43.580889],"type":"Point"},"properties":{"osm_id":"5764039773","tag":{"amenity":"recycling"}},"type":"Feature"},
	{"geometry":{"coordinates":[7.024097,43.58336],"type":"Point"},"properties":{"osm_id":"5987066091","tag":{"amenity":"recycling","recycling:clothes":"yes","recycling:glass":"yes","recycling_type":"container"}},"type":"Feature"},
	{"geometry":{"coordinates":[6.999861,43.63304],"type":"Point"},"properties":{"osm_id":"6044052940","tag":{"amenity":"recycling","recycling:glass_bottles":"yes","recycling:packaging":"yes","recycling_type":"container"}},"type":"Feature"},
	{"geometry":{"coordinates":[6.988455,43.604385],"type":"Point"},"properties":{"osm_id":"6158944272","tag":{"amenity":"waste_basket"}},"type":"Feature"},
	{"geometry":{"coordinates":[6.950951,43.601706],"type":"Point"},"properties":{"osm_id":"6204278696","tag":{"amenity":"recycling","recycling_type":"container"}},"type":"Feature"},
	{"geometry":{"coordinates":[7.028315,43.600754],"type":"Point"},"properties":{"osm_id":"6706234386","tag":{"amenity":"waste_disposal","operator":"conseil general"}},"type":"Feature"},
	{"geometry":{"coordinates":[6.971211,43.62234],"type":"Point"},"properties":{"name":"Composteurs publics","osm_id":"6964505221","tag":{"amenity":"recycling","opening_hours":"24/7","operator":"Univalom","recycling":"organic","recycling:green_waste":"yes","recycling_type":"container","wheelchair":"yes"}},"type":"Feature"},
	{"geometry":{"coordinates":[6.967434,43.615032],"type":"Point"},"properties":{"osm_id":"7232570113","tag":{"amenity":"recycling","recycling_type":"container"}},"type":"Feature"},
	{"geometry":{"coordinates":[7.007108,43.642514],"type":"Point"},"properties":{"osm_id":"7394559403","tag":{"amenity":"recycling","recycling:clothes":"yes","recycling:paper":"yes","recycling_type":"container"}},"type":"Feature"},
	{"geometry":{"coordinates":[7.008443,43.640547],"type":"Point"},"properties":{"osm_id":"7733347800","tag":{"amenity":"recycling","recycling_type":"container"}},"type":"Feature"},
	{"geometry":{"coordinates":[7.007691,43.623548],"type":"Point"},"properties":{"osm_id":"7770087384","tag":{"amenity":"recycling","recycling:clothes":"yes","recycling:glass_bottles":"yes","recycling:paper":"yes","recycling:plastic":"yes","recycling_type":"container"}},"type":"Feature"}
]
}
