{
"type": "FeatureCollection",
"features": [
	{"geometry":{"coordinates":[6.97204,43.547751],"type":"Point"},"properties":{"osm_id":"316791519","tag":{"amenity":"recycling","recycling:glass":"yes"}},"type":"Feature"},
	{"geometry":{"coordinates":[7.006285,43.54883],"type":"Point"},"properties":{"osm_id":"331414133","tag":{"amenity":"recycling","recycling:glass":"yes"}},"type":"Feature"},
	{"geometry":{"coordinates":[7.017928,43.575024],"type":"Point"},"properties":{"osm_id":"514905966","tag":{"amenity":"recycling","recycling:glass":"yes","recycling:paper":"yes"}},"type":"Feature"},
	{"geometry":{"coordinates":[6.999397,43.550812],"type":"Point"},"properties":{"osm_id":"635378878","tag":{"amenity":"recycling","recycling:glass":"yes"}},"type":"Feature"},
	{"geometry":{"coordinates":[7.007004,43.576845],"type":"Point"},"properties":{"osm_id":"765944152","tag":{"amenity":"recycling","recycling:cans":"yes","recycling:glass":"yes","recycling:glass_bottles":"yes","recycling:plastic":"yes","recycling:plastic_bottles":"yes","recycling_type":"container"}},"type":"Feature"},
	{"geometry":{"coordinates":[6.981641,43.568626],"type":"Point"},"properties":{"osm_id":"843137502","tag":{"amenity":"recycling"}},"type":"Feature"},
	{"geometry":{"coordinates":[6.980697,43.566402],"type":"Point"},"properties":{"osm_id":"843137830","tag":{"amenity":"recycling"}},"type":"Feature"},
	{"geometry":{"coordinates":[6.984096,43.572951],"type":"Point"},"properties":{"osm_id":"843513269","tag":{"amenity":"recycling"}},"type":"Feature"},
	{"geometry":{"coordinates":[6.959526,43.571559],"type":"Point"},"properties":{"osm_id":"1667892677","tag":{"amenity":"recycling","location":"overground","recycling:clothes":"yes","recycling:glass":"yes","recycling_type":"container"}},"type":"Feature"},
	{"geometry":{"coordinates":[6.947763,43.58031],"type":"Point"},"properties":{"osm_id":"1685126654","tag":{"amenity":"waste_basket"}},"type":"Feature"},
	{"geometry":{"coordinates":[6.951448,43.578571],"type":"Point"},"properties":{"osm_id":"1690974994","tag":{"amenity":"waste_basket"}},"type":"Feature"},
	{"geometry":{"coordinates":[6.948661,43.579731],"type":"Point"},"properties":{"osm_id":"1704871483","tag":{"amenity":"recycling"}},"type":"Feature"},
	{"geometry":{"coordinates":[6.977234,43.548109],"type":"Point"},"properties":{"osm_id":"1737279606","tag":{"amenity":"recycling","recycling:glass":"yes"}},"type":"Feature"},
	{"geometry":{"coordinates":[6.972019,43.55002],"type":"Point"},"properties":{"osm_id":"1737279611","tag":{"amenity":"recycling","recycling:glass":"yes"}},"type":"Feature"},
	{"geometry":{"coordinates":[6.992198,43.558378],"type":"Point"},"properties":{"osm_id":"1751140129","tag":{"amenity":"recycling","recycling:glass":"yes","recycling_type":"container"}},"type":"Feature"},
	{"geometry":{"coordinates":[6.992871,43.559278],"type":"Point"},"properties":{"osm_id":"1751141446","tag":{"amenity":"waste_basket"}},"type":"Feature"},
	{"geometry":{"coordinates":[6.996913,43.574824],"type":"Point"},"properties":{"osm_id":"2034369371","tag":{"amenity":"recycling","location":"underground","recycling_type":"container"}},"type":"Feature"},
	{"geometry":{"coordinates":[7.01618,43.551752],"type":"Point"},"properties":{"osm_id":"2466318306","tag":{"amenity":"recycling"}},"type":"Feature"},
	{"geometry":{"coordinates":[7.008753,43.549268],"type":"Point"},"properties":{"osm_id":"2849425439","tag":{"amenity":"recycling","recycling:clothes":"no","recycling:paper":"yes"}},"type":"Feature"},
	{"geometry":{"coordinates":[7.012086,43.548234],"type":"Point"},"properties":{"osm_id":"2853366350","tag":{"amenity":"recycling","recycling:glass":"yes","recycling:paper":"yes","recycling_type":"container"}},"type":"Feature"},
	{"geometry":{"coordinates":[7.012234,43.551314],"type":"Point"},"properties":{"osm_id":"2859088056","tag":{"amenity":"recycling","location":"underground","recycling:glass":"yes","recycling:paper":"yes","recycling_type":"container"}},"type":"Feature"},
	{"geometry":{"coordinates":[7.02153,43.553002],"type":"Point"},"properties":{"osm_id":"3039119293","tag":{"amenity":"waste_basket"}},"type":"Feature"},
	{"geometry":{"coordinates":[7.021324,43.550512],"type":"Point"},"properties":{"osm_id":"3040166334","tag":{"amenity":"waste_basket"}},"type":"Feature"},
	{"geometry":{"coordinates":[7.017155,43.552309],"type":"Point"},"properties":{"osm_id":"3040166370","tag":{"amenity":"waste_basket"}},"type":"Feature"},
	{"geometry":{"coordinates":[7.021115,43.552478],"type":"Point"},"properties":{"osm_id":"3040166374","tag":{"amenity":"waste_basket"}},"type":"Feature"},
	{"geometry":{"coordinates":[7.020685,43.553082],"type":"Point"},"properties":{"osm_id":"3040166386","tag":{"amenity":"waste_basket"}},"type":"Feature"},
	{"geometry":{"coordinates":[6.961567,43.551417],"type":"Point"},"properties":{"osm_id":"3268009604","tag":{"amenity":"recycling","recycling:clothes":"yes","recycling:glass_bottles":"yes","recycling_type":"container"}},"type":"Feature"},
	{"geometry":{"coordinates":[7.018885,43.56892],"type":"Point"},"properties":{"osm_id":"3284006667","tag":{"amenity":"recycling","recycling:cans":"no","recycling:clothes":"yes","recycling:glass":"yes","recycling:paper":"yes","recycling_type":"container"}},"type":"Feature"},
	{"geometry":{"coordinates":[6.945607,43.535536],"type":"Point"},"properties":{"osm_id":"3474105702","tag":{"amenity":"recycling","recycling:batteries":"no","recycling:cans":"yes","recycling:clothes":"no","recycling:glass":"no","recycling:paper":"yes","recycling_type":"container","source:amenity":"survey"}},"type":"Feature"},
	{"geometry":{"coordinates":[7.026135,43.552104],"type":"Point"},"properties":{"osm_id":"3667364725","tag":{"amenity":"waste_basket"}},"type":"Feature"},
	{"geometry":{"coordinates":[7.025278,43.552351],"type":"Point"},"properties":{"osm_id":"3667364729","tag":{"amenity":"waste_basket"}},"type":"Feature"},
	{"geometry":{"coordinates":[7.017657,43.551488],"type":"Point"},"properties":{"osm_id":"3667405170","tag":{"amenity":"waste_basket"}},"type":"Feature"},
	{"geometry":{"coordinates":[7.026372,43.552107],"type":"Point"},"properties":{"osm_id":"3667405190","tag":{"amenity":"waste_basket"}},"type":"Feature"},
	{"geometry":{"coordinates":[7.02367,43.552382],"type":"Point"},"properties":{"osm_id":"3667405191","tag":{"amenity":"waste_basket"}},"type":"Feature"},
	{"geometry":{"coordinates":[7.023106,43.552473],"type":"Point"},"properties":{"osm_id":"3667405199","tag":{"amenity":"waste_basket"}},"type":"Feature"},
	{"geometry":{"coordinates":[7.020478,43.552559],"type":"Point"},"properties":{"osm_id":"3667405203","tag":{"amenity":"waste_basket"}},"type":"Feature"},
	{"geometry":{"coordinates":[7.015878,43.551426],"type":"Point"},"properties":{"osm_id":"3939519181","tag":{"amenity":"waste_basket"}},"type":"Feature"},
	{"geometry":{"coordinates":[7.011782,43.547957],"type":"Point"},"properties":{"osm_id":"3939527840","tag":{"amenity":"waste_basket"}},"type":"Feature"},
	{"geometry":{"coordinates":[6.960833,43.556216],"type":"Point"},"properties":{"osm_id":"4070166430","tag":{"amenity":"recycling","recycling:glass":"yes","recycling_type":"container"}},"type":"Feature"},
	{"geometry":{"coordinates":[6.948711,43.528101],"type":"Point"},"properties":{"osm_id":"4154380201","tag":{"amenity":"waste_basket"}},"type":"Feature"},
	{"geometry":{"coordinates":[6.948923,43.528696],"type":"Point"},"properties":{"osm_id":"4154380353","tag":{"amenity":"waste_basket"}},"type":"Feature"},
	{"geometry":{"coordinates":[6.948877,43.529647],"type":"Point"},"properties":{"osm_id":"4154380445","tag":{"amenity":"waste_basket"}},"type":"Feature"},
	{"geometry":{"coordinates":[7.008242,43.556668],"type":"Point"},"properties":{"osm_id":"4348088886","tag":{"amenity":"waste_disposal","waste":"trash"}},"type":"Feature"},
	{"geometry":{"coordinates":[7.012073,43.548236],"type":"Point"},"properties":{"osm_id":"4803717461","tag":{"amenity":"waste_disposal"}},"type":"Feature"},
	{"geometry":{"coordinates":[7.011949,43.549664],"type":"Point"},"properties":{"osm_id":"5012581815","tag":{"amenity":"waste_disposal"}},"type":"Feature"},
	{"geometry":{"coordinates":[7.017413,43.551645],"type":"Point"},"properties":{"osm_id":"5396060943","tag":{"amenity":"recycling","recycling:cans":"yes","recycling:paper":"yes","recycling:plastic":"yes","recycling_type":"container"}},"type":"Feature"},
	{"geometry":{"coordinates":[6.992428,43.558274],"type":"Point"},"properties":{"osm_id":"5596130984","tag":{"amenity":"waste_basket"}},"type":"Feature"},
	{"geometry":{"coordinates":[6.99683,43.559904],"type":"Point"},"properties":{"osm_id":"5596130986","tag":{"amenity":"waste_basket"}},"type":"Feature"},
	{"geometry":{"coordinates":[6.99554,43.558882],"type":"Point"},"properties":{"osm_id":"5596152525","tag":{"amenity":"waste_basket"}},"type":"Feature"},
	{"geometry":{"coordinates":[6.995944,43.558947],"type":"Point"},"properties":{"osm_id":"5596152526","tag":{"amenity":"waste_basket"}},"type":"Feature"},
	{"geometry":{"coordinates":[6.996717,43.559301],"type":"Point"},"properties":{"osm_id":"5596152527","tag":{"amenity":"waste_basket"}},"type":"Feature"},
	{"geometry":{"coordinates":[6.998241,43.576545],"type":"Point"},"properties":{"osm_id":"5764039771","tag":{"amenity":"recycling","location":"underground","recycling_type":"container"}},"type":"Feature"},
	{"geometry":{"coordinates":[6.962505,43.542345],"type":"Point"},"properties":{"osm_id":"5764041567","tag":{"amenity":"recycling"}},"type":"Feature"},
	{"geometry":{"coordinates":[7.001628,43.561772],"type":"Point"},"properties":{"osm_id":"5764042063","tag":{"amenity":"recycling"}},"type":"Feature"},
	{"geometry":{"coordinates":[6.995883,43.569092],"type":"Point"},"properties":{"osm_id":"5764042066","tag":{"amenity":"recycling"}},"type":"Feature"},
	{"geometry":{"coordinates":[7.021625,43.574764],"type":"Point"},"properties":{"osm_id":"5765388218","tag":{"amenity":"recycling","recycling:plastic":"yes","recycling_type":"container"}},"type":"Feature"},
	{"geometry":{"coordinates":[7.019749,43.57184],"type":"Point"},"properties":{"osm_id":"5922731561","tag":{"amenity":"recycling","recycling:glass":"yes","recycling_type":"container"}},"type":"Feature"},
	{"geometry":{"coordinates":[7.017012,43.56459],"type":"Point"},"properties":{"osm_id":"6297312040","tag":{"amenity":"recycling","recycling:clothes":"yes","recycling:glass":"yes","recycling_type":"container"}},"type":"Feature"},
	{"geometry":{"coordinates":[7.011946,43.572274],"type":"Point"},"properties":{"osm_id":"6314688555","tag":{"amenity":"recycling","recycling_type":"container"}},"type":"Feature"},
	{"geometry":{"coordinates":[7.011912,43.57523],"type":"Point"},"properties":{"osm_id":"6314688561","tag":{"amenity":"recycling","recycling_type":"container"}},"type":"Feature"},
	{"geometry":{"coordinates":[6.943471,43.551001],"type":"Point"},"properties":{"osm_id":"6341339439","tag":{"amenity":"waste_basket","description":"deux corbeilles + distribution sac crotte"}},"type":"Feature"},
	{"geometry":{"coordinates":[7.016305,43.577474],"type":"Point"},"properties":{"osm_id":"6604875883","tag":{"amenity":"recycling","recycling_type":"container"}},"type":"Feature"},
	{"geometry":{"coordinates":[7.018593,43.578494],"type":"Point"},"properties":{"osm_id":"6604875884","tag":{"amenity":"recycling","recycling_type":"container"}},"type":"Feature"},
	{"geometry":{"coordinates":[7.002289,43.576279],"type":"Point"},"properties":{"osm_id":"7070892153","tag":{"amenity":"recycling","recycling:glass":"yes","recycling_type":"container"}},"type":"Feature"},
	{"geometry":{"coordinates":[7.025199,43.569646],"type":"Point"},"properties":{"osm_id":"7235261039","tag":{"amenity":"waste_basket"}},"type":"Feature"},
	{"geometry":{"coordinates":[7.003413,43.573083],"type":"Point"},"properties":{"osm_id":"7236741559","tag":{"amenity":"recycling","recycling:glass":"yes","recycling:newspaper":"yes","recycling_type":"container"}},"type":"Feature"},
	{"geometry":{"coordinates":[7.000975,43.572945],"type":"Point"},"properties":{"osm_id":"7236782529","tag":{"amenity":"recycling","recycling:glass":"yes","recycling_type":"container"}},"type":"Feature"},
	{"geometry":{"coordinates":[7.015283,43.574177],"type":"Point"},"properties":{"osm_id":"7431578115","tag":{"amenity":"waste_basket"}},"type":"Feature"},
	{"geometry":{"coordinates":[7.024213,43.569899],"type":"Point"},"properties":{"osm_id":"7487430386","tag":{"amenity":"recycling","recycling:glass":"yes","recycling:glass_bottles":"yes","recycling_type":"container"}},"type":"Feature"},
	{"geometry":{"coordinates":[7.023556,43.573095],"type":"Point"},"properties":{"osm_id":"7552688846","tag":{"amenity":"recycling","recycling:glass":"yes","recycling:glass_bottles":"yes","recycling_type":"container"}},"type":"Feature"}
]
}
