{
"type": "FeatureCollection",
"features": [
	{"geometry":{"coordinates":[-99.026423,22.002375],"type":"Point"},"properties":{"name":"Recuperadora Feregrino","osm_id":"9159507720","tag":{"addr:housenumber":"820","addr:neighbourhood":"Colonia M\u00c3\u00a1rquez","addr:postcode":"79010","addr:street":"Calle 400","amenity":"recycling","craft":"upholsterer","phone":"+5214813824668","recycling_type":"centre"}},"type":"Feature"},
	{"geometry":{"coordinates":[-99.007154,21.98483],"type":"Point"},"properties":{"name":"Reciclados El Giyo","osm_id":"9159507721","tag":{"addr:housenumber":"30","addr:neighbourhood":"Colonia Obrera","addr:postcode":"79050","addr:street":"Calle Tamaulipas","amenity":"recycling","craft":"upholsterer","recycling_type":"centre"}},"type":"Feature"},
	{"geometry":{"coordinates":[-99.008637,21.987006],"type":"Point"},"properties":{"name":"Reciclados El Gigio","osm_id":"9159507722","tag":{"addr:housenumber":"5","addr:neighbourhood":"Colonia Obrera","addr:postcode":"79050","addr:street":"Calle Bocanegra","amenity":"recycling","craft":"upholsterer","phone":"+5214813814354","recycling_type":"centre"}},"type":"Feature"},
	{"geometry":{"coordinates":[-99.025073,22.001457],"type":"Point"},"properties":{"name":"Recicladora Industrial","osm_id":"9159507723","tag":{"addr:housenumber":"309","addr:neighbourhood":"Colonia M\u00c3\u00a1rquez","addr:postcode":"79010","addr:street":"Calle 400","amenity":"recycling","craft":"upholsterer","recycling_type":"centre"}},"type":"Feature"},
	{"geometry":{"coordinates":[-99.008143,22.000843],"type":"Point"},"properties":{"name":"Reciclables El Colonial","osm_id":"9159507724","tag":{"addr:housenumber":"206","addr:neighbourhood":"Colonia Campo Colonial","addr:postcode":"79020","addr:street":"Calle Monterrey (antigua Carretera M\u00c3\u00a9xico Laredo)","amenity":"recycling","craft":"upholsterer","recycling_type":"centre"}},"type":"Feature"},
	{"geometry":{"coordinates":[-99.032095,22.006089],"type":"Point"},"properties":{"name":"Metales y Papeles Aro","osm_id":"9159507741","tag":{"addr:housenumber":"5 C","addr:neighbourhood":"Fraccionamiento Morelos y Pav\u00c3\u00b3n","addr:postcode":"79010","addr:street":"Calle Lateral Carretera al Ingenio","amenity":"recycling","craft":"upholsterer","phone":"+5214813830179","recycling_type":"centre"}},"type":"Feature"},
	{"geometry":{"coordinates":[-99.017553,22.009666],"type":"Point"},"properties":{"name":"Desechos Industriales de Valles","osm_id":"9159507808","tag":{"addr:housenumber":"209","addr:neighbourhood":"Colonia Emiliano Zapata","addr:postcode":"79020","addr:street":"Calle Adolfo L\u00c3\u00b3pez Mateos","amenity":"recycling","craft":"upholsterer","email":"ocm71@hotmail.com","phone":"+521014813668233","recycling_type":"centre"}},"type":"Feature"},
	{"geometry":{"coordinates":[-99.00882,21.984471],"type":"Point"},"properties":{"name":"Desechos Industriales de La Huasteca","osm_id":"9159507809","tag":{"addr:housenumber":"27","addr:neighbourhood":"Colonia Obrera","addr:postcode":"79050","addr:street":"Calle Bocanegra","amenity":"recycling","craft":"upholsterer","phone":"+5214813823694","recycling_type":"centre"}},"type":"Feature"},
	{"geometry":{"coordinates":[-99.000055,21.969591],"type":"Point"},"properties":{"name":"Compa\u00c3\u00b1\u00c3\u00ada Recicladora del Golfo Corego","osm_id":"9159507825","tag":{"addr:housenumber":"1700","addr:neighbourhood":"Fraccionamiento Lomas Poniente","addr:street":"Calle Lateral M\u00c3\u00a9xico Laredo","amenity":"recycling","description":"11 a 30 personas","recycling_type":"centre"}},"type":"Feature"},
	{"geometry":{"coordinates":[-98.976009,21.973853],"type":"Point"},"properties":{"name":"Bodega de Compra de Chatarra","osm_id":"9159507857","tag":{"addr:housenumber":"253","addr:neighbourhood":"Colonia Real Campestre","addr:postcode":"79060","addr:street":"Calle de las Fuentes","amenity":"recycling","craft":"upholsterer","recycling_type":"centre"}},"type":"Feature"}
]
}
