{
"type": "FeatureCollection",
"features": [
	{"geometry":{"coordinates":[-98.999033,19.3956],"type":"Point"},"properties":{"osm_id":"8419103461","tag":{"addr:city":"Nezahualcoyotl","addr:postcode":"57000","addr:street":"Avenida Carmelo P\u00c3\u00a9rez","amenity":"recycling","recycling_type":"centre"}},"type":"Feature"},
	{"geometry":{"coordinates":[-98.999585,19.39587],"type":"Point"},"properties":{"osm_id":"8419110864","tag":{"addr:city":"Nezahualcoyotl","addr:postcode":"57000","addr:street":"Calle Cama de Piedra","amenity":"recycling","recycling:cartons":"yes","recycling:electrical_appliances":"yes","recycling:glass_bottles":"yes","recycling:plastic":"yes","recycling_type":"centre"}},"type":"Feature"},
	{"geometry":{"coordinates":[-98.997669,19.399409],"type":"Point"},"properties":{"name":"Centro de acopio de llanatas Neza","osm_id":"8462596076","tag":{"addr:city":"Nezahualcoyotl","addr:postcode":"57000","addr:street":"Avenida Carmelo P\u00c3\u00a9rez","amenity":"recycling","recycling:plastic":"yes","recycling_type":"centre"}},"type":"Feature"}
]
}
