{
"type": "FeatureCollection",
"features": [
	{"geometry":{"coordinates":[-93.274972,37.224788],"type":"Point"},"properties":{"osm_id":"824056240","tag":{"amenity":"recycling"}},"type":"Feature"},
	{"geometry":{"coordinates":[-93.336102,37.212532],"type":"Point"},"properties":{"name":"Complete Electronics Recycling","osm_id":"3414937279","tag":{"addr:city":"Springfield","addr:housenumber":"2935","addr:postcode":"65802","addr:state":"MO","addr:street":"West Chestnut Expressway","amenity":"recycling","phone":"(417) 864-4415","recycling:cans":"yes","recycling:clothes":"yes","website":"http://www.CompleteElectronicsRecycling.org"}},"type":"Feature"},
	{"geometry":{"coordinates":[-93.292363,37.208421],"type":"Point"},"properties":{"osm_id":"7834938468","tag":{"amenity":"waste_basket"}},"type":"Feature"},
	{"geometry":{"coordinates":[-93.294712,37.209849],"type":"Point"},"properties":{"osm_id":"7836137785","tag":{"amenity":"waste_basket"}},"type":"Feature"},
	{"geometry":{"coordinates":[-93.28987,37.207067],"type":"Point"},"properties":{"osm_id":"7836607998","tag":{"amenity":"waste_basket"}},"type":"Feature"},
	{"geometry":{"coordinates":[-93.290431,37.229774],"type":"Point"},"properties":{"osm_id":"7836695166","tag":{"amenity":"waste_basket"}},"type":"Feature"},
	{"geometry":{"coordinates":[-93.290716,37.229601],"type":"Point"},"properties":{"osm_id":"7836695169","tag":{"amenity":"waste_basket"}},"type":"Feature"},
	{"geometry":{"coordinates":[-93.280747,37.196853],"type":"Point"},"properties":{"osm_id":"7837253509","tag":{"amenity":"waste_basket"}},"type":"Feature"}
]
}
