{
"type": "FeatureCollection",
"features": [
	{"geometry":{"coordinates":[126.677691,37.955615],"type":"Point"},"properties":{"name":"2018\u00eb\u0085\u0084 \u00eb\u0082\u00a8\u00eb\u00b6\u0081\u00ec\u00a0\u0095\u00ec\u0083\u0081\u00ed\u009a\u008c\u00eb\u008b\u00b4 \u00ea\u00b8\u00b0\u00eb\u0085\u0090 \u00ec\u008b\u009d\u00ec\u0088\u0098","osm_id":"5582041202","tag":{"denotation":"landmark","leaf_cycle":"evergreen","leaf_type":"needleleaved","name:en":"Tree commemorating 2018 inter-Korean summit","name:ja":"2018\u00e5\u00b9\u00b4\u00e5\u008d\u0097\u00e5\u008c\u0097\u00e9\u00a6\u0096\u00e8\u0084\u00b3\u00e4\u00bc\u009a\u00e8\u00ab\u0087\u00e8\u00a8\u0098\u00e5\u00bf\u00b5\u00e6\u00a4\u008d\u00e6\u00a8\u00b9","name:ko":"2018\u00eb\u0085\u0084 \u00eb\u0082\u00a8\u00eb\u00b6\u0081\u00ec\u00a0\u0095\u00ec\u0083\u0081\u00ed\u009a\u008c\u00eb\u008b\u00b4 \u00ea\u00b8\u00b0\u00eb\u0085\u0090 \u00ec\u008b\u009d\u00ec\u0088\u0098","name:ko_hanja":"2018\u00e5\u00b9\u00b4\u00e5\u008d\u0097\u00e5\u008c\u0097\u00e9\u00a0\u0082\u00e4\u00b8\u008a\u00e6\u009c\u0083\u00e8\u00ab\u0087\u00e8\u00a8\u0098\u00e5\u00bf\u00b5\u00e6\u00a4\u008d\u00e6\u00a8\u00b9","name:zh":"2018\u00e5\u00b9\u00b4\u00e6\u009c\u009d\u00e9\u009f\u00a9\u00e9\u00a6\u0096\u00e8\u0084\u0091\u00e4\u00bc\u009a\u00e8\u00b0\u0088\u00e7\u00ba\u00aa\u00e5\u00bf\u00b5\u00e6\u00a4\u008d\u00e6\u00a0\u0091","natural":"tree"}},"type":"Feature"},
	{"geometry":{"coordinates":[126.676689,37.954984],"type":"Point"},"properties":{"osm_id":"6012190753","tag":{"natural":"tree"}},"type":"Feature"},
	{"geometry":{"coordinates":[126.67665,37.954987],"type":"Point"},"properties":{"osm_id":"6012190754","tag":{"natural":"tree"}},"type":"Feature"},
	{"geometry":{"coordinates":[126.676588,37.954977],"type":"Point"},"properties":{"osm_id":"6012190755","tag":{"natural":"tree"}},"type":"Feature"},
	{"geometry":{"coordinates":[126.676531,37.954979],"type":"Point"},"properties":{"osm_id":"6012190756","tag":{"natural":"tree"}},"type":"Feature"},
	{"geometry":{"coordinates":[126.676476,37.954973],"type":"Point"},"properties":{"osm_id":"6012190757","tag":{"natural":"tree"}},"type":"Feature"},
	{"geometry":{"coordinates":[126.676424,37.955041],"type":"Point"},"properties":{"osm_id":"6012190758","tag":{"natural":"tree"}},"type":"Feature"},
	{"geometry":{"coordinates":[126.676365,37.955011],"type":"Point"},"properties":{"osm_id":"6012190759","tag":{"natural":"tree"}},"type":"Feature"},
	{"geometry":{"coordinates":[126.676306,37.95504],"type":"Point"},"properties":{"osm_id":"6012190760","tag":{"natural":"tree"}},"type":"Feature"},
	{"geometry":{"coordinates":[126.676284,37.955096],"type":"Point"},"properties":{"osm_id":"6012190761","tag":{"natural":"tree"}},"type":"Feature"},
	{"geometry":{"coordinates":[126.676279,37.955161],"type":"Point"},"properties":{"osm_id":"6012190762","tag":{"natural":"tree"}},"type":"Feature"},
	{"geometry":{"coordinates":[126.676375,37.955126],"type":"Point"},"properties":{"osm_id":"6012190763","tag":{"natural":"tree"}},"type":"Feature"},
	{"geometry":{"coordinates":[126.676424,37.955207],"type":"Point"},"properties":{"osm_id":"6012190764","tag":{"natural":"tree"}},"type":"Feature"},
	{"geometry":{"coordinates":[126.676354,37.955263],"type":"Point"},"properties":{"osm_id":"6012190765","tag":{"natural":"tree"}},"type":"Feature"},
	{"geometry":{"coordinates":[126.67644,37.955296],"type":"Point"},"properties":{"osm_id":"6012190766","tag":{"natural":"tree"}},"type":"Feature"},
	{"geometry":{"coordinates":[126.676505,37.955295],"type":"Point"},"properties":{"osm_id":"6012190767","tag":{"natural":"tree"}},"type":"Feature"},
	{"geometry":{"coordinates":[126.676573,37.955274],"type":"Point"},"properties":{"osm_id":"6012190768","tag":{"natural":"tree"}},"type":"Feature"},
	{"geometry":{"coordinates":[126.676653,37.955246],"type":"Point"},"properties":{"osm_id":"6012190769","tag":{"natural":"tree"}},"type":"Feature"},
	{"geometry":{"coordinates":[126.676728,37.955197],"type":"Point"},"properties":{"osm_id":"6012190770","tag":{"natural":"tree"}},"type":"Feature"},
	{"geometry":{"coordinates":[126.676749,37.955136],"type":"Point"},"properties":{"osm_id":"6012190771","tag":{"natural":"tree"}},"type":"Feature"},
	{"geometry":{"coordinates":[126.676781,37.955089],"type":"Point"},"properties":{"osm_id":"6012190772","tag":{"natural":"tree"}},"type":"Feature"},
	{"geometry":{"coordinates":[126.676768,37.955027],"type":"Point"},"properties":{"osm_id":"6012190773","tag":{"natural":"tree"}},"type":"Feature"}
]
}
