{
"type": "FeatureCollection",
"features": [
	{"geometry":{"coordinates":[126.714223,37.533313],"type":"Point"},"properties":{"osm_id":"4634869265","tag":{"addr:city":"\u00ed\u009a\u00a8\u00ec\u0084\u00b1\u00eb\u008f\u0099","addr:housenumber":"70","addr:street":"\u00ea\u00b8\u00b8\u00eb\u00a7\u0088\u00eb\u00a1\u009c","denotation":"urban","description":"\u00ec\u0095\u0084\u00ed\u008c\u008c\u00ed\u008a\u00b8\u00ec\u0097\u0090\u00ec\u0084\u009c \u00ea\u00b0\u0080\u00ec\u009e\u00a5 \u00ed\u0081\u00ac\u00ea\u00b3\u00a0 \u00ec\u0098\u00a4\u00eb\u009e\u0098\u00eb\u0090\u009c \u00eb\u0082\u0098\u00eb\u00ac\u00b4","natural":"tree"}},"type":"Feature"},
	{"geometry":{"coordinates":[126.714308,37.533613],"type":"Point"},"properties":{"osm_id":"4634885084","tag":{"addr:city":"\u00ed\u009a\u00a8\u00ec\u0084\u00b1\u00eb\u008f\u0099","addr:housenumber":"70","addr:street":"\u00ea\u00b8\u00b8\u00eb\u00a7\u0088\u00eb\u00a1\u009c","denotation":"urban","description":"\u00ec\u0095\u0084\u00ed\u008c\u008c\u00ed\u008a\u00b8 \u00ec\u009e\u0085\u00ea\u00b5\u00ac\u00eb\u00a5\u00bc \u00ec\u00a7\u0080\u00ec\u00bc\u009c\u00ec\u00a3\u00bc\u00eb\u008a\u0094 \u00eb\u0082\u0098\u00eb\u00ac\u00b4\u00ec\u009d\u00b4\u00eb\u008b\u00a4.","natural":"tree"}},"type":"Feature"},
	{"geometry":{"coordinates":[126.667441,37.516564],"type":"Point"},"properties":{"name":"\u00ec\u009d\u00b8\u00ec\u00b2\u009c \u00ec\u008b\u00a0\u00ed\u0098\u0084\u00eb\u008f\u0099 \u00ed\u009a\u008c\u00ed\u0099\u0094\u00eb\u0082\u0098\u00eb\u00ac\u00b4","osm_id":"4864708722","tag":{"denotation":"Natural_Monument_No.315","diameter":"22 m","natural":"tree"}},"type":"Feature"},
	{"geometry":{"coordinates":[126.725274,37.519659],"type":"Point"},"properties":{"osm_id":"7046064928","tag":{"natural":"tree"}},"type":"Feature"}
]
}
