{
"type": "FeatureCollection",
"features": [
	{"geometry":{"coordinates":[18.730228,50.30481],"type":"Point"},"properties":{"osm_id":"3414330777","tag":{"amenity":"waste_basket"}},"type":"Feature"},
	{"geometry":{"coordinates":[18.730505,50.304805],"type":"Point"},"properties":{"osm_id":"3414330778","tag":{"amenity":"waste_basket"}},"type":"Feature"},
	{"geometry":{"coordinates":[18.730321,50.304827],"type":"Point"},"properties":{"osm_id":"3414330781","tag":{"amenity":"waste_basket"}},"type":"Feature"},
	{"geometry":{"coordinates":[18.73052,50.304894],"type":"Point"},"properties":{"osm_id":"3414330785","tag":{"amenity":"waste_basket"}},"type":"Feature"},
	{"geometry":{"coordinates":[18.729622,50.304952],"type":"Point"},"properties":{"osm_id":"3414330788","tag":{"amenity":"waste_basket"}},"type":"Feature"},
	{"geometry":{"coordinates":[18.73107,50.305102],"type":"Point"},"properties":{"osm_id":"3414330791","tag":{"amenity":"waste_basket"}},"type":"Feature"},
	{"geometry":{"coordinates":[18.766323,50.307148],"type":"Point"},"properties":{"osm_id":"3849877052","tag":{"amenity":"waste_basket"}},"type":"Feature"},
	{"geometry":{"coordinates":[18.727844,50.29109],"type":"Point"},"properties":{"osm_id":"4007945882","tag":{"amenity":"waste_basket"}},"type":"Feature"},
	{"geometry":{"coordinates":[18.731841,50.291361],"type":"Point"},"properties":{"osm_id":"4007951994","tag":{"amenity":"waste_basket"}},"type":"Feature"},
	{"geometry":{"coordinates":[18.728181,50.291385],"type":"Point"},"properties":{"osm_id":"4007951998","tag":{"amenity":"waste_basket"}},"type":"Feature"},
	{"geometry":{"coordinates":[18.722015,50.292176],"type":"Point"},"properties":{"osm_id":"4007952015","tag":{"amenity":"waste_basket"}},"type":"Feature"},
	{"geometry":{"coordinates":[18.726033,50.293112],"type":"Point"},"properties":{"osm_id":"4007952034","tag":{"amenity":"waste_basket"}},"type":"Feature"},
	{"geometry":{"coordinates":[18.725443,50.293218],"type":"Point"},"properties":{"osm_id":"4007952046","tag":{"amenity":"waste_basket"}},"type":"Feature"},
	{"geometry":{"coordinates":[18.72906,50.293278],"type":"Point"},"properties":{"osm_id":"4007952059","tag":{"amenity":"waste_basket"}},"type":"Feature"},
	{"geometry":{"coordinates":[18.731918,50.293617],"type":"Point"},"properties":{"osm_id":"4007952064","tag":{"amenity":"waste_basket"}},"type":"Feature"},
	{"geometry":{"coordinates":[18.732406,50.298352],"type":"Point"},"properties":{"osm_id":"4007952075","tag":{"amenity":"waste_basket"}},"type":"Feature"},
	{"geometry":{"coordinates":[18.732529,50.298394],"type":"Point"},"properties":{"osm_id":"4007952076","tag":{"amenity":"waste_basket"}},"type":"Feature"},
	{"geometry":{"coordinates":[18.779958,50.30362],"type":"Point"},"properties":{"osm_id":"4150842517","tag":{"amenity":"waste_basket"}},"type":"Feature"},
	{"geometry":{"coordinates":[18.780049,50.303799],"type":"Point"},"properties":{"osm_id":"4150846279","tag":{"amenity":"waste_basket"}},"type":"Feature"},
	{"geometry":{"coordinates":[18.779844,50.304455],"type":"Point"},"properties":{"osm_id":"4196539102","tag":{"amenity":"waste_basket"}},"type":"Feature"},
	{"geometry":{"coordinates":[18.779491,50.303572],"type":"Point"},"properties":{"osm_id":"4196539662","tag":{"amenity":"waste_basket"}},"type":"Feature"},
	{"geometry":{"coordinates":[18.77995,50.303641],"type":"Point"},"properties":{"man_made":"surveillance","osm_id":"4196540104","tag":{"amenity":"waste_basket"}},"type":"Feature"},
	{"geometry":{"coordinates":[18.77949,50.304399],"type":"Point"},"properties":{"osm_id":"4196557255","tag":{"amenity":"waste_basket"}},"type":"Feature"},
	{"geometry":{"coordinates":[18.720945,50.329017],"type":"Point"},"properties":{"osm_id":"4968172559","tag":{"amenity":"waste_basket"}},"type":"Feature"},
	{"geometry":{"coordinates":[18.722917,50.329043],"type":"Point"},"properties":{"osm_id":"4968172561","tag":{"access":"customers","amenity":"waste_basket"}},"type":"Feature"},
	{"geometry":{"coordinates":[18.720858,50.329054],"type":"Point"},"properties":{"osm_id":"4968172562","tag":{"amenity":"waste_basket"}},"type":"Feature"},
	{"geometry":{"coordinates":[18.722373,50.327006],"type":"Point"},"properties":{"osm_id":"7376600730","tag":{"amenity":"waste_basket"}},"type":"Feature"}
]
}
