{
"type": "FeatureCollection",
"features": [
	{"geometry":{"coordinates":[18.721717,49.174086],"type":"Point"},"properties":{"osm_id":"1119270417","tag":{"amenity":"recycling","recycling_type":"container"}},"type":"Feature"},
	{"geometry":{"coordinates":[18.724496,49.153662],"type":"Point"},"properties":{"osm_id":"1155077116","tag":{"amenity":"recycling","recycling:glass":"yes","recycling:paper":"yes"}},"type":"Feature"},
	{"geometry":{"coordinates":[18.740174,49.196247],"type":"Point"},"properties":{"osm_id":"1862993027","tag":{"amenity":"recycling","recycling:paper":"yes","recycling_type":"container"}},"type":"Feature"},
	{"geometry":{"coordinates":[18.738173,49.19643],"type":"Point"},"properties":{"osm_id":"1862993040","tag":{"amenity":"recycling","recycling:cans":"yes","recycling:paper":"yes","recycling_type":"container"}},"type":"Feature"},
	{"geometry":{"coordinates":[18.745345,49.199338],"type":"Point"},"properties":{"osm_id":"1862993079","tag":{"amenity":"waste_disposal"}},"type":"Feature"},
	{"geometry":{"coordinates":[18.744443,49.201352],"type":"Point"},"properties":{"osm_id":"1862993120","tag":{"amenity":"waste_disposal"}},"type":"Feature"},
	{"geometry":{"coordinates":[18.743887,49.201928],"type":"Point"},"properties":{"osm_id":"1862993133","tag":{"amenity":"waste_disposal"}},"type":"Feature"},
	{"geometry":{"coordinates":[18.744122,49.202129],"type":"Point"},"properties":{"name":"Zberne suroviny","osm_id":"1862993135","tag":{"amenity":"recycling","contact:website":"http://www.zsza.sk/zilina.htm","operator":"Zberne suroviny, a.s.","recycling:paper":"yes","recycling:scrap_metal":"yes","recycling_type":"centre"}},"type":"Feature"},
	{"geometry":{"coordinates":[18.743604,49.197186],"type":"Point"},"properties":{"osm_id":"2000008280","tag":{"amenity":"waste_disposal"}},"type":"Feature"},
	{"geometry":{"coordinates":[18.743895,49.197679],"type":"Point"},"properties":{"osm_id":"2000008352","tag":{"amenity":"waste_disposal"}},"type":"Feature"},
	{"geometry":{"coordinates":[18.740329,49.200068],"type":"Point"},"properties":{"osm_id":"2000008976","tag":{"amenity":"waste_disposal"}},"type":"Feature"},
	{"geometry":{"coordinates":[18.739952,49.200086],"type":"Point"},"properties":{"osm_id":"2000008983","tag":{"amenity":"waste_disposal"}},"type":"Feature"},
	{"geometry":{"coordinates":[18.742552,49.200358],"type":"Point"},"properties":{"osm_id":"2000009177","tag":{"amenity":"waste_disposal"}},"type":"Feature"},
	{"geometry":{"coordinates":[18.744115,49.200411],"type":"Point"},"properties":{"osm_id":"2000009195","tag":{"amenity":"recycling","recycling_type":"container"}},"type":"Feature"},
	{"geometry":{"coordinates":[18.742489,49.200416],"type":"Point"},"properties":{"osm_id":"2000009197","tag":{"amenity":"waste_disposal"}},"type":"Feature"},
	{"geometry":{"coordinates":[18.744494,49.200569],"type":"Point"},"properties":{"osm_id":"2000009228","tag":{"amenity":"waste_disposal"}},"type":"Feature"},
	{"geometry":{"coordinates":[18.740544,49.201466],"type":"Point"},"properties":{"osm_id":"2000009391","tag":{"amenity":"waste_disposal"}},"type":"Feature"},
	{"geometry":{"coordinates":[18.741892,49.201945],"type":"Point"},"properties":{"osm_id":"2000009536","tag":{"amenity":"waste_disposal"}},"type":"Feature"},
	{"geometry":{"coordinates":[18.745649,49.197381],"type":"Point"},"properties":{"osm_id":"2001084493","tag":{"amenity":"waste_disposal"}},"type":"Feature"},
	{"geometry":{"coordinates":[18.745968,49.197782],"type":"Point"},"properties":{"osm_id":"2001084507","tag":{"amenity":"waste_disposal"}},"type":"Feature"},
	{"geometry":{"coordinates":[18.745653,49.198619],"type":"Point"},"properties":{"osm_id":"2001084532","tag":{"amenity":"waste_disposal"}},"type":"Feature"},
	{"geometry":{"coordinates":[18.743982,49.198718],"type":"Point"},"properties":{"osm_id":"2001084546","tag":{"amenity":"waste_disposal"}},"type":"Feature"},
	{"geometry":{"coordinates":[18.7448,49.198787],"type":"Point"},"properties":{"osm_id":"2001084558","tag":{"amenity":"waste_disposal"}},"type":"Feature"},
	{"geometry":{"coordinates":[18.744058,49.198797],"type":"Point"},"properties":{"osm_id":"2001084561","tag":{"amenity":"waste_disposal"}},"type":"Feature"},
	{"geometry":{"coordinates":[18.743186,49.198944],"type":"Point"},"properties":{"osm_id":"2001084587","tag":{"amenity":"waste_disposal"}},"type":"Feature"},
	{"geometry":{"coordinates":[18.742164,49.199015],"type":"Point"},"properties":{"osm_id":"2001084603","tag":{"amenity":"waste_disposal"}},"type":"Feature"},
	{"geometry":{"coordinates":[18.744814,49.200194],"type":"Point"},"properties":{"osm_id":"2001084638","tag":{"amenity":"waste_disposal"}},"type":"Feature"},
	{"geometry":{"coordinates":[18.744471,49.200341],"type":"Point"},"properties":{"osm_id":"2001084643","tag":{"amenity":"waste_disposal"}},"type":"Feature"},
	{"geometry":{"coordinates":[18.742057,49.200625],"type":"Point"},"properties":{"osm_id":"2001084648","tag":{"amenity":"waste_disposal"}},"type":"Feature"},
	{"geometry":{"coordinates":[18.739023,49.196287],"type":"Point"},"properties":{"osm_id":"2001597690","tag":{"amenity":"waste_disposal"}},"type":"Feature"},
	{"geometry":{"coordinates":[18.74175,49.196491],"type":"Point"},"properties":{"osm_id":"2001597734","tag":{"amenity":"waste_disposal"}},"type":"Feature"},
	{"geometry":{"coordinates":[18.743136,49.196743],"type":"Point"},"properties":{"osm_id":"2001597784","tag":{"amenity":"waste_disposal"}},"type":"Feature"},
	{"geometry":{"coordinates":[18.73865,49.204231],"type":"Point"},"properties":{"osm_id":"2004003364","tag":{"amenity":"waste_disposal"}},"type":"Feature"},
	{"geometry":{"coordinates":[18.73868,49.204523],"type":"Point"},"properties":{"osm_id":"2004003421","tag":{"amenity":"waste_disposal"}},"type":"Feature"},
	{"geometry":{"coordinates":[18.738701,49.20511],"type":"Point"},"properties":{"osm_id":"2004068922","tag":{"amenity":"waste_disposal"}},"type":"Feature"},
	{"geometry":{"coordinates":[18.738565,49.205468],"type":"Point"},"properties":{"osm_id":"2004068938","tag":{"amenity":"waste_disposal"}},"type":"Feature"},
	{"geometry":{"coordinates":[18.738527,49.205732],"type":"Point"},"properties":{"osm_id":"2004068941","tag":{"amenity":"waste_disposal"}},"type":"Feature"},
	{"geometry":{"coordinates":[18.735992,49.206342],"type":"Point"},"properties":{"osm_id":"2004068982","tag":{"amenity":"waste_disposal"}},"type":"Feature"},
	{"geometry":{"coordinates":[18.735513,49.197867],"type":"Point"},"properties":{"osm_id":"2004213084","tag":{"amenity":"waste_basket"}},"type":"Feature"},
	{"geometry":{"coordinates":[18.733936,49.200629],"type":"Point"},"properties":{"osm_id":"2004213122","tag":{"amenity":"waste_disposal"}},"type":"Feature"},
	{"geometry":{"coordinates":[18.733825,49.200902],"type":"Point"},"properties":{"osm_id":"2004213124","tag":{"amenity":"waste_disposal"}},"type":"Feature"},
	{"geometry":{"coordinates":[18.765618,49.204502],"type":"Point"},"properties":{"osm_id":"2010685218","tag":{"amenity":"waste_disposal"}},"type":"Feature"},
	{"geometry":{"coordinates":[18.76815,49.206065],"type":"Point"},"properties":{"osm_id":"2010685469","tag":{"amenity":"waste_disposal"}},"type":"Feature"},
	{"geometry":{"coordinates":[18.764624,49.206454],"type":"Point"},"properties":{"osm_id":"2010685639","tag":{"amenity":"waste_disposal"}},"type":"Feature"},
	{"geometry":{"coordinates":[18.767793,49.206524],"type":"Point"},"properties":{"osm_id":"2010685649","tag":{"amenity":"waste_disposal"}},"type":"Feature"},
	{"geometry":{"coordinates":[18.769086,49.206594],"type":"Point"},"properties":{"osm_id":"2010685688","tag":{"amenity":"waste_disposal"}},"type":"Feature"},
	{"geometry":{"coordinates":[18.768871,49.206826],"type":"Point"},"properties":{"osm_id":"2010685735","tag":{"amenity":"waste_disposal"}},"type":"Feature"},
	{"geometry":{"coordinates":[18.768922,49.207037],"type":"Point"},"properties":{"osm_id":"2010685754","tag":{"amenity":"waste_disposal"}},"type":"Feature"},
	{"geometry":{"coordinates":[18.769508,49.207279],"type":"Point"},"properties":{"osm_id":"2010685790","tag":{"amenity":"waste_disposal"}},"type":"Feature"},
	{"geometry":{"coordinates":[18.771315,49.207503],"type":"Point"},"properties":{"osm_id":"2010685857","tag":{"amenity":"waste_disposal"}},"type":"Feature"},
	{"geometry":{"coordinates":[18.770417,49.20765],"type":"Point"},"properties":{"osm_id":"2010685877","tag":{"amenity":"waste_disposal"}},"type":"Feature"},
	{"geometry":{"coordinates":[18.771079,49.208093],"type":"Point"},"properties":{"osm_id":"2010686069","tag":{"amenity":"waste_disposal"}},"type":"Feature"},
	{"geometry":{"coordinates":[18.765811,49.208234],"type":"Point"},"properties":{"osm_id":"2010686121","tag":{"amenity":"waste_disposal"}},"type":"Feature"},
	{"geometry":{"coordinates":[18.770831,49.208608],"type":"Point"},"properties":{"osm_id":"2010686284","tag":{"amenity":"waste_disposal"}},"type":"Feature"},
	{"geometry":{"coordinates":[18.763617,49.208721],"type":"Point"},"properties":{"osm_id":"2010686361","tag":{"amenity":"waste_disposal"}},"type":"Feature"},
	{"geometry":{"coordinates":[18.763976,49.208806],"type":"Point"},"properties":{"osm_id":"2010686373","tag":{"amenity":"waste_disposal"}},"type":"Feature"},
	{"geometry":{"coordinates":[18.763327,49.209271],"type":"Point"},"properties":{"osm_id":"2010686570","tag":{"amenity":"waste_disposal"}},"type":"Feature"},
	{"geometry":{"coordinates":[18.76249,49.209629],"type":"Point"},"properties":{"osm_id":"2010686639","tag":{"amenity":"waste_disposal"}},"type":"Feature"},
	{"geometry":{"coordinates":[18.763373,49.210061],"type":"Point"},"properties":{"osm_id":"2010686793","tag":{"amenity":"waste_disposal"}},"type":"Feature"},
	{"geometry":{"coordinates":[18.764769,49.210192],"type":"Point"},"properties":{"osm_id":"2010686838","tag":{"amenity":"waste_disposal"}},"type":"Feature"},
	{"geometry":{"coordinates":[18.764045,49.210329],"type":"Point"},"properties":{"osm_id":"2010686874","tag":{"amenity":"waste_disposal"}},"type":"Feature"},
	{"geometry":{"coordinates":[18.754817,49.204865],"type":"Point"},"properties":{"osm_id":"2252544031","tag":{"amenity":"waste_basket"}},"type":"Feature"},
	{"geometry":{"coordinates":[18.769898,49.204209],"type":"Point"},"properties":{"osm_id":"2564326802","tag":{"amenity":"waste_disposal"}},"type":"Feature"},
	{"geometry":{"coordinates":[18.766832,49.207553],"type":"Point"},"properties":{"osm_id":"5320054521","tag":{"amenity":"waste_disposal"}},"type":"Feature"},
	{"geometry":{"coordinates":[18.74186,49.200354],"type":"Point"},"properties":{"osm_id":"5539666663","tag":{"amenity":"waste_disposal"}},"type":"Feature"},
	{"geometry":{"coordinates":[18.741686,49.200573],"type":"Point"},"properties":{"osm_id":"5539666664","tag":{"amenity":"waste_disposal"}},"type":"Feature"},
	{"geometry":{"coordinates":[18.741686,49.199843],"type":"Point"},"properties":{"osm_id":"5539666665","tag":{"amenity":"waste_disposal"}},"type":"Feature"},
	{"geometry":{"coordinates":[18.743764,49.200312],"type":"Point"},"properties":{"osm_id":"5539666666","tag":{"amenity":"waste_disposal"}},"type":"Feature"},
	{"geometry":{"coordinates":[18.740802,49.200935],"type":"Point"},"properties":{"osm_id":"5539666668","tag":{"amenity":"waste_disposal"}},"type":"Feature"},
	{"geometry":{"coordinates":[18.761589,49.202342],"type":"Point"},"properties":{"osm_id":"5769897423","tag":{"amenity":"recycling","recycling_type":"container"}},"type":"Feature"},
	{"geometry":{"coordinates":[18.761634,49.20239],"type":"Point"},"properties":{"osm_id":"5769897424","tag":{"amenity":"waste_disposal"}},"type":"Feature"}
]
}
