{
"type": "FeatureCollection",
"features": [
	{"geometry":{"coordinates":[18.732071,47.727877],"type":"Point"},"properties":{"osm_id":"3454425558","tag":{"addr:street":"Jubileum t\u00c3\u00a9r","amenity":"recycling","source:date":"2011-04-07","url":"http://turistautak.hu/poi.php?id=73474"}},"type":"Feature"},
	{"geometry":{"coordinates":[18.799077,47.713201],"type":"Point"},"properties":{"osm_id":"4132449538","tag":{"amenity":"waste_basket"}},"type":"Feature"},
	{"geometry":{"coordinates":[18.800199,47.712466],"type":"Point"},"properties":{"osm_id":"4171787698","tag":{"amenity":"waste_basket"}},"type":"Feature"},
	{"geometry":{"coordinates":[18.803943,47.714589],"type":"Point"},"properties":{"osm_id":"4172593190","tag":{"amenity":"waste_basket"}},"type":"Feature"},
	{"geometry":{"coordinates":[18.798778,47.713599],"type":"Point"},"properties":{"osm_id":"4172640203","tag":{"amenity":"waste_basket"}},"type":"Feature"},
	{"geometry":{"coordinates":[18.782174,47.711428],"type":"Point"},"properties":{"osm_id":"4172707217","tag":{"amenity":"waste_basket"}},"type":"Feature"},
	{"geometry":{"coordinates":[18.782591,47.712741],"type":"Point"},"properties":{"osm_id":"4172707231","tag":{"amenity":"waste_basket"}},"type":"Feature"},
	{"geometry":{"coordinates":[18.786633,47.713153],"type":"Point"},"properties":{"osm_id":"4172707245","tag":{"amenity":"waste_basket"}},"type":"Feature"},
	{"geometry":{"coordinates":[18.78195,47.713231],"type":"Point"},"properties":{"osm_id":"4172707249","tag":{"amenity":"waste_basket"}},"type":"Feature"},
	{"geometry":{"coordinates":[18.781092,47.713629],"type":"Point"},"properties":{"osm_id":"4172707256","tag":{"amenity":"waste_basket"}},"type":"Feature"},
	{"geometry":{"coordinates":[18.788169,47.713796],"type":"Point"},"properties":{"osm_id":"4172707258","tag":{"amenity":"waste_basket"}},"type":"Feature"},
	{"geometry":{"coordinates":[18.788525,47.713888],"type":"Point"},"properties":{"osm_id":"4172707261","tag":{"amenity":"waste_basket"}},"type":"Feature"},
	{"geometry":{"coordinates":[18.780925,47.714285],"type":"Point"},"properties":{"osm_id":"4172707265","tag":{"amenity":"waste_basket"}},"type":"Feature"},
	{"geometry":{"coordinates":[18.781949,47.715344],"type":"Point"},"properties":{"osm_id":"4172707268","tag":{"amenity":"waste_basket"}},"type":"Feature"},
	{"geometry":{"coordinates":[18.80014,47.712553],"type":"Point"},"properties":{"osm_id":"4190124019","tag":{"amenity":"waste_basket"}},"type":"Feature"},
	{"geometry":{"coordinates":[18.793544,47.712912],"type":"Point"},"properties":{"osm_id":"4190124036","tag":{"amenity":"waste_basket"}},"type":"Feature"},
	{"geometry":{"coordinates":[18.794761,47.712124],"type":"Point"},"properties":{"osm_id":"4214449208","tag":{"amenity":"waste_basket"}},"type":"Feature"},
	{"geometry":{"coordinates":[18.793672,47.712209],"type":"Point"},"properties":{"osm_id":"4214449210","tag":{"amenity":"waste_basket"}},"type":"Feature"},
	{"geometry":{"coordinates":[18.780601,47.713953],"type":"Point"},"properties":{"osm_id":"4214493890","tag":{"amenity":"waste_basket"}},"type":"Feature"},
	{"geometry":{"coordinates":[18.780361,47.713882],"type":"Point"},"properties":{"osm_id":"4227212078","tag":{"amenity":"waste_basket"}},"type":"Feature"},
	{"geometry":{"coordinates":[18.78692,47.714178],"type":"Point"},"properties":{"osm_id":"4227212085","tag":{"amenity":"waste_basket"}},"type":"Feature"},
	{"geometry":{"coordinates":[18.786727,47.714331],"type":"Point"},"properties":{"osm_id":"4227212086","tag":{"amenity":"waste_basket"}},"type":"Feature"},
	{"geometry":{"coordinates":[18.780463,47.717747],"type":"Point"},"properties":{"osm_id":"4227219405","tag":{"amenity":"waste_basket"}},"type":"Feature"},
	{"geometry":{"coordinates":[18.780259,47.717908],"type":"Point"},"properties":{"osm_id":"4227219407","tag":{"amenity":"waste_basket"}},"type":"Feature"},
	{"geometry":{"coordinates":[18.781946,47.711106],"type":"Point"},"properties":{"osm_id":"4238444563","tag":{"amenity":"waste_basket"}},"type":"Feature"},
	{"geometry":{"coordinates":[18.782971,47.711719],"type":"Point"},"properties":{"osm_id":"4238444565","tag":{"amenity":"waste_basket"}},"type":"Feature"},
	{"geometry":{"coordinates":[18.793277,47.71298],"type":"Point"},"properties":{"osm_id":"4238445015","tag":{"amenity":"waste_basket"}},"type":"Feature"},
	{"geometry":{"coordinates":[18.79052,47.712996],"type":"Point"},"properties":{"osm_id":"4238445017","tag":{"amenity":"waste_basket"}},"type":"Feature"},
	{"geometry":{"coordinates":[18.780685,47.713458],"type":"Point"},"properties":{"osm_id":"4238445049","tag":{"amenity":"waste_basket"}},"type":"Feature"},
	{"geometry":{"coordinates":[18.788571,47.713663],"type":"Point"},"properties":{"osm_id":"4238445057","tag":{"amenity":"waste_basket"}},"type":"Feature"},
	{"geometry":{"coordinates":[18.779974,47.713798],"type":"Point"},"properties":{"osm_id":"4238445059","tag":{"amenity":"waste_basket"}},"type":"Feature"},
	{"geometry":{"coordinates":[18.786725,47.714248],"type":"Point"},"properties":{"osm_id":"4238445060","tag":{"amenity":"waste_basket"}},"type":"Feature"},
	{"geometry":{"coordinates":[18.73344,47.721479],"type":"Point"},"properties":{"name":"M\u00c3\u0089H Telep.","osm_id":"6326269801","tag":{"amenity":"recycling","recycling_type":"centre"}},"type":"Feature"},
	{"geometry":{"coordinates":[18.749281,47.736849],"type":"Point"},"properties":{"name":"Esztergomi Hullad\u00c3\u00a9k Kezel\u00c5\u0091 Telep","osm_id":"6436903986","tag":{"addr:city":"Esztergom","addr:conscriptionnumber":"0548/4","addr:postcode":"2509","addr:street":"Keszt\u00c3\u00b6lci \u00c3\u00bat","addr:suburb":"Kertv\u00c3\u00a1ros","amenity":"recycling","recycling_type":"centre"}},"type":"Feature"},
	{"geometry":{"coordinates":[18.761324,47.741522],"type":"Point"},"properties":{"osm_id":"7526799552","tag":{"amenity":"waste_basket"}},"type":"Feature"},
	{"geometry":{"coordinates":[18.737594,47.748084],"type":"Point"},"properties":{"osm_id":"7526996018","tag":{"amenity":"waste_basket"}},"type":"Feature"},
	{"geometry":{"coordinates":[18.737787,47.747703],"type":"Point"},"properties":{"osm_id":"7526996019","tag":{"amenity":"waste_basket"}},"type":"Feature"},
	{"geometry":{"coordinates":[18.7374,47.747968],"type":"Point"},"properties":{"osm_id":"7527122867","tag":{"amenity":"waste_basket"}},"type":"Feature"}
]
}
