{
"type": "FeatureCollection",
"features": [
	{"geometry":{"coordinates":[18.296697,57.64684],"type":"Point"},"properties":{"osm_id":"2320592907","tag":{"amenity":"waste_basket"}},"type":"Feature"},
	{"geometry":{"coordinates":[18.291993,57.635211],"type":"Point"},"properties":{"osm_id":"4512253182","tag":{"amenity":"waste_basket"}},"type":"Feature"},
	{"geometry":{"coordinates":[18.291974,57.635187],"type":"Point"},"properties":{"osm_id":"4512253183","tag":{"amenity":"waste_basket"}},"type":"Feature"},
	{"geometry":{"coordinates":[18.298406,57.638512],"type":"Point"},"properties":{"osm_id":"4512436107","tag":{"amenity":"waste_basket"}},"type":"Feature"},
	{"geometry":{"coordinates":[18.299622,57.638072],"type":"Point"},"properties":{"osm_id":"4512436109","tag":{"amenity":"waste_basket"}},"type":"Feature"},
	{"geometry":{"coordinates":[18.300455,57.637673],"type":"Point"},"properties":{"highway":"street_lamp","osm_id":"4512436114","tag":{"amenity":"waste_basket","lamp_type":"electric","light_source":"lantern"}},"type":"Feature"},
	{"geometry":{"coordinates":[18.299355,57.637003],"type":"Point"},"properties":{"osm_id":"4512495073","tag":{"amenity":"waste_basket"}},"type":"Feature"},
	{"geometry":{"coordinates":[18.301463,57.637252],"type":"Point"},"properties":{"osm_id":"4512495074","tag":{"amenity":"waste_basket"}},"type":"Feature"},
	{"geometry":{"coordinates":[18.297725,57.637374],"type":"Point"},"properties":{"osm_id":"4512728867","tag":{"amenity":"waste_basket"}},"type":"Feature"},
	{"geometry":{"coordinates":[18.297398,57.63711],"type":"Point"},"properties":{"osm_id":"4512728871","tag":{"amenity":"waste_basket"}},"type":"Feature"},
	{"geometry":{"coordinates":[18.296799,57.636843],"type":"Point"},"properties":{"osm_id":"4512728877","tag":{"amenity":"waste_basket"}},"type":"Feature"},
	{"geometry":{"coordinates":[18.296785,57.636647],"type":"Point"},"properties":{"osm_id":"4512728881","tag":{"amenity":"waste_basket"}},"type":"Feature"},
	{"geometry":{"coordinates":[18.295702,57.636419],"type":"Point"},"properties":{"osm_id":"4512729090","tag":{"amenity":"waste_basket"}},"type":"Feature"},
	{"geometry":{"coordinates":[18.294877,57.63586],"type":"Point"},"properties":{"osm_id":"4512729097","tag":{"amenity":"waste_basket"}},"type":"Feature"},
	{"geometry":{"coordinates":[18.291314,57.633133],"type":"Point"},"properties":{"osm_id":"4512753251","tag":{"amenity":"waste_basket"}},"type":"Feature"},
	{"geometry":{"coordinates":[18.291069,57.632841],"type":"Point"},"properties":{"osm_id":"4512753254","tag":{"amenity":"waste_basket"}},"type":"Feature"},
	{"geometry":{"coordinates":[18.289001,57.636592],"type":"Point"},"properties":{"osm_id":"4512843421","tag":{"amenity":"waste_basket"}},"type":"Feature"},
	{"geometry":{"coordinates":[18.289032,57.633422],"type":"Point"},"properties":{"osm_id":"4512850044","tag":{"amenity":"recycling","recycling:glass":"yes","recycling_type":"container"}},"type":"Feature"},
	{"geometry":{"coordinates":[18.295896,57.630494],"type":"Point"},"properties":{"osm_id":"4513347664","tag":{"amenity":"waste_basket"}},"type":"Feature"},
	{"geometry":{"coordinates":[18.306433,57.631788],"type":"Point"},"properties":{"osm_id":"4537707234","tag":{"amenity":"waste_basket"}},"type":"Feature"},
	{"geometry":{"coordinates":[18.30699,57.631967],"type":"Point"},"properties":{"osm_id":"4537707248","tag":{"amenity":"waste_basket"}},"type":"Feature"},
	{"geometry":{"coordinates":[18.306198,57.631439],"type":"Point"},"properties":{"osm_id":"4537891515","tag":{"amenity":"waste_basket"}},"type":"Feature"},
	{"geometry":{"coordinates":[18.306576,57.631652],"type":"Point"},"properties":{"osm_id":"4537891519","tag":{"amenity":"waste_basket"}},"type":"Feature"},
	{"geometry":{"coordinates":[18.306873,57.631271],"type":"Point"},"properties":{"osm_id":"4537891529","tag":{"amenity":"waste_basket"}},"type":"Feature"},
	{"geometry":{"coordinates":[18.304266,57.630644],"type":"Point"},"properties":{"osm_id":"4538254751","tag":{"amenity":"waste_basket"}},"type":"Feature"},
	{"geometry":{"coordinates":[18.303331,57.630707],"type":"Point"},"properties":{"osm_id":"4538254755","tag":{"amenity":"waste_basket"}},"type":"Feature"},
	{"geometry":{"coordinates":[18.303755,57.63058],"type":"Point"},"properties":{"osm_id":"4538254756","tag":{"amenity":"waste_basket"}},"type":"Feature"},
	{"geometry":{"coordinates":[18.298192,57.638581],"type":"Point"},"properties":{"osm_id":"5167643262","tag":{"amenity":"waste_basket"}},"type":"Feature"},
	{"geometry":{"coordinates":[18.290983,57.638958],"type":"Point"},"properties":{"osm_id":"5167664495","tag":{"amenity":"waste_basket"}},"type":"Feature"},
	{"geometry":{"coordinates":[18.29118,57.63912],"type":"Point"},"properties":{"osm_id":"5167664500","tag":{"amenity":"waste_basket"}},"type":"Feature"},
	{"geometry":{"coordinates":[18.292863,57.640365],"type":"Point"},"properties":{"osm_id":"5167671552","tag":{"amenity":"waste_basket"}},"type":"Feature"},
	{"geometry":{"coordinates":[18.292304,57.641723],"type":"Point"},"properties":{"osm_id":"5167676159","tag":{"amenity":"waste_basket"}},"type":"Feature"},
	{"geometry":{"coordinates":[18.297801,57.644647],"type":"Point"},"properties":{"osm_id":"5167701332","tag":{"amenity":"waste_basket"}},"type":"Feature"},
	{"geometry":{"coordinates":[18.290615,57.63971],"type":"Point"},"properties":{"osm_id":"5167761202","tag":{"amenity":"waste_basket"}},"type":"Feature"},
	{"geometry":{"coordinates":[18.308255,57.650311],"type":"Point"},"properties":{"osm_id":"6641237139","tag":{"amenity":"waste_basket"}},"type":"Feature"}
]
}
