{
"type": "FeatureCollection",
"features": [
	{"geometry":{"coordinates":[18.366854,54.582548],"type":"Point"},"properties":{"osm_id":"2363125204","tag":{"amenity":"waste_basket"}},"type":"Feature"},
	{"geometry":{"coordinates":[18.364907,54.584053],"type":"Point"},"properties":{"osm_id":"2363125228","tag":{"amenity":"waste_basket"}},"type":"Feature"},
	{"geometry":{"coordinates":[18.360683,54.588128],"type":"Point"},"properties":{"osm_id":"2363125289","tag":{"amenity":"waste_basket"}},"type":"Feature"},
	{"geometry":{"coordinates":[18.352339,54.598904],"type":"Point"},"properties":{"osm_id":"2363125340","tag":{"amenity":"waste_basket"}},"type":"Feature"},
	{"geometry":{"coordinates":[18.350769,54.600611],"type":"Point"},"properties":{"osm_id":"2363125360","tag":{"amenity":"waste_basket"}},"type":"Feature"},
	{"geometry":{"coordinates":[18.289951,54.602996],"type":"Point"},"properties":{"osm_id":"2363125460","tag":{"amenity":"waste_basket"}},"type":"Feature"},
	{"geometry":{"coordinates":[18.30054,54.60287],"type":"Point"},"properties":{"osm_id":"2363125528","tag":{"amenity":"waste_basket"}},"type":"Feature"},
	{"geometry":{"coordinates":[18.29107,54.603334],"type":"Point"},"properties":{"osm_id":"2363125560","tag":{"amenity":"waste_basket"}},"type":"Feature"},
	{"geometry":{"coordinates":[18.298217,54.603152],"type":"Point"},"properties":{"osm_id":"2363125633","tag":{"amenity":"waste_basket"}},"type":"Feature"},
	{"geometry":{"coordinates":[18.348015,54.604386],"type":"Point"},"properties":{"osm_id":"2363125737","tag":{"amenity":"waste_basket"}},"type":"Feature"},
	{"geometry":{"coordinates":[18.319305,54.604469],"type":"Point"},"properties":{"osm_id":"2363125763","tag":{"amenity":"waste_basket"}},"type":"Feature"},
	{"geometry":{"coordinates":[18.315551,54.604928],"type":"Point"},"properties":{"osm_id":"2363125837","tag":{"amenity":"waste_basket"}},"type":"Feature"},
	{"geometry":{"coordinates":[18.358721,54.590269],"type":"Point"},"properties":{"osm_id":"2363161608","tag":{"amenity":"waste_basket"}},"type":"Feature"},
	{"geometry":{"coordinates":[18.313609,54.602726],"type":"Point"},"properties":{"name":"Skup Zlomu","osm_id":"3430065145","tag":{"amenity":"recycling"}},"type":"Feature"},
	{"geometry":{"coordinates":[18.281598,54.604083],"type":"Point"},"properties":{"osm_id":"5679406033","tag":{"entrance":"yes"}},"type":"Feature"}
]
}
