{
"type": "FeatureCollection",
"features": [
	{"geometry":{"coordinates":[18.34712,49.669779],"type":"Point"},"properties":{"osm_id":"2094418200","tag":{"amenity":"waste_basket"}},"type":"Feature"},
	{"geometry":{"coordinates":[18.34436,49.671952],"type":"Point"},"properties":{"osm_id":"2097777072","tag":{"amenity":"waste_basket"}},"type":"Feature"},
	{"geometry":{"coordinates":[18.351239,49.678456],"type":"Point"},"properties":{"osm_id":"2097888797","tag":{"amenity":"waste_basket"}},"type":"Feature"},
	{"geometry":{"coordinates":[18.351198,49.678469],"type":"Point"},"properties":{"osm_id":"2097888799","tag":{"amenity":"waste_basket"}},"type":"Feature"},
	{"geometry":{"coordinates":[18.328672,49.67265],"type":"Point"},"properties":{"barrier":"gate","osm_id":"2118869557","tag":{"bicycle":"yes","foot":"yes","motorcar":"yes","motorcycle":"yes"}},"type":"Feature"},
	{"geometry":{"coordinates":[18.344416,49.67204],"type":"Point"},"properties":{"osm_id":"2128972702","tag":{"amenity":"waste_basket"}},"type":"Feature"},
	{"geometry":{"coordinates":[18.342055,49.674689],"type":"Point"},"properties":{"osm_id":"2135344504","tag":{"amenity":"waste_basket"}},"type":"Feature"},
	{"geometry":{"coordinates":[18.342287,49.67486],"type":"Point"},"properties":{"osm_id":"2135344565","tag":{"amenity":"waste_basket"}},"type":"Feature"},
	{"geometry":{"coordinates":[18.342905,49.678445],"type":"Point"},"properties":{"osm_id":"2138889725","tag":{"amenity":"waste_basket"}},"type":"Feature"},
	{"geometry":{"coordinates":[18.344261,49.679576],"type":"Point"},"properties":{"osm_id":"2138889730","tag":{"amenity":"waste_basket"}},"type":"Feature"},
	{"geometry":{"coordinates":[18.341857,49.674564],"type":"Point"},"properties":{"osm_id":"2139251238","tag":{"amenity":"waste_basket"}},"type":"Feature"},
	{"geometry":{"coordinates":[18.341209,49.675004],"type":"Point"},"properties":{"osm_id":"2139251277","tag":{"amenity":"waste_basket"}},"type":"Feature"},
	{"geometry":{"coordinates":[18.341324,49.675151],"type":"Point"},"properties":{"osm_id":"2139251284","tag":{"amenity":"waste_basket"}},"type":"Feature"},
	{"geometry":{"coordinates":[18.341873,49.675166],"type":"Point"},"properties":{"osm_id":"2139251287","tag":{"amenity":"waste_basket"}},"type":"Feature"},
	{"geometry":{"coordinates":[18.340777,49.675206],"type":"Point"},"properties":{"osm_id":"2139251290","tag":{"amenity":"waste_basket"}},"type":"Feature"},
	{"geometry":{"coordinates":[18.340877,49.675239],"type":"Point"},"properties":{"osm_id":"2139251300","tag":{"amenity":"waste_basket"}},"type":"Feature"},
	{"geometry":{"coordinates":[18.341706,49.675273],"type":"Point"},"properties":{"osm_id":"2139251308","tag":{"amenity":"waste_basket"}},"type":"Feature"},
	{"geometry":{"coordinates":[18.340514,49.675447],"type":"Point"},"properties":{"osm_id":"2139251319","tag":{"amenity":"waste_basket"}},"type":"Feature"},
	{"geometry":{"coordinates":[18.341391,49.675459],"type":"Point"},"properties":{"osm_id":"2139251323","tag":{"amenity":"waste_basket"}},"type":"Feature"},
	{"geometry":{"coordinates":[18.341404,49.675463],"type":"Point"},"properties":{"osm_id":"2139251326","tag":{"amenity":"waste_basket"}},"type":"Feature"},
	{"geometry":{"coordinates":[18.340576,49.675499],"type":"Point"},"properties":{"osm_id":"2139251330","tag":{"amenity":"waste_basket"}},"type":"Feature"},
	{"geometry":{"coordinates":[18.340944,49.675532],"type":"Point"},"properties":{"osm_id":"2139251337","tag":{"amenity":"waste_basket"}},"type":"Feature"},
	{"geometry":{"coordinates":[18.341196,49.675763],"type":"Point"},"properties":{"osm_id":"2139251345","tag":{"amenity":"waste_basket"}},"type":"Feature"},
	{"geometry":{"coordinates":[18.340232,49.676215],"type":"Point"},"properties":{"osm_id":"2139251351","tag":{"amenity":"waste_basket"}},"type":"Feature"},
	{"geometry":{"coordinates":[18.339302,49.676511],"type":"Point"},"properties":{"osm_id":"2139251364","tag":{"amenity":"waste_basket"}},"type":"Feature"},
	{"geometry":{"coordinates":[18.340477,49.67671],"type":"Point"},"properties":{"osm_id":"2139251365","tag":{"amenity":"waste_basket"}},"type":"Feature"},
	{"geometry":{"coordinates":[18.335358,49.672643],"type":"Point"},"properties":{"osm_id":"2146031337","tag":{"amenity":"waste_disposal"}},"type":"Feature"},
	{"geometry":{"coordinates":[18.333654,49.673416],"type":"Point"},"properties":{"osm_id":"2146031350","tag":{"amenity":"waste_disposal"}},"type":"Feature"},
	{"geometry":{"coordinates":[18.334063,49.675072],"type":"Point"},"properties":{"osm_id":"2146031471","tag":{"amenity":"waste_disposal"}},"type":"Feature"},
	{"geometry":{"coordinates":[18.356238,49.681872],"type":"Point"},"properties":{"osm_id":"2290695878","tag":{"amenity":"waste_disposal"}},"type":"Feature"},
	{"geometry":{"coordinates":[18.34502,49.671715],"type":"Point"},"properties":{"osm_id":"3635029063","tag":{"amenity":"waste_basket"}},"type":"Feature"},
	{"geometry":{"coordinates":[18.344847,49.671808],"type":"Point"},"properties":{"osm_id":"3635029064","tag":{"amenity":"waste_basket"}},"type":"Feature"},
	{"geometry":{"coordinates":[18.344601,49.67194],"type":"Point"},"properties":{"osm_id":"3635029065","tag":{"amenity":"waste_basket"}},"type":"Feature"},
	{"geometry":{"coordinates":[18.326318,49.688316],"type":"Point"},"properties":{"osm_id":"4212980653","tag":{"amenity":"recycling","recycling:clothes":"yes","recycling_type":"container"}},"type":"Feature"},
	{"geometry":{"coordinates":[18.326379,49.688426],"type":"Point"},"properties":{"osm_id":"4212980654","tag":{"amenity":"recycling","recycling:glass":"yes","recycling:paper":"yes","recycling:plastic":"yes","recycling_type":"container"}},"type":"Feature"},
	{"geometry":{"coordinates":[18.311561,49.675967],"type":"Point"},"properties":{"osm_id":"4512281311","tag":{"amenity":"waste_basket"}},"type":"Feature"},
	{"geometry":{"coordinates":[18.345465,49.671451],"type":"Point"},"properties":{"osm_id":"4645382346","tag":{"amenity":"waste_basket"}},"type":"Feature"},
	{"geometry":{"coordinates":[18.343867,49.672072],"type":"Point"},"properties":{"osm_id":"4975693788","tag":{"amenity":"waste_basket"}},"type":"Feature"},
	{"geometry":{"coordinates":[18.342968,49.673214],"type":"Point"},"properties":{"osm_id":"4975693798","tag":{"amenity":"recycling","recycling:glass":"yes","recycling:paper":"yes","recycling:plastic":"yes","recycling_type":"container"}},"type":"Feature"},
	{"geometry":{"coordinates":[18.342964,49.673281],"type":"Point"},"properties":{"osm_id":"4975693799","tag":{"amenity":"waste_disposal"}},"type":"Feature"},
	{"geometry":{"coordinates":[18.344117,49.672564],"type":"Point"},"properties":{"osm_id":"4975693800","tag":{"amenity":"recycling","recycling:clothes":"yes","recycling:electrical_appliances":"yes","recycling:glass":"yes","recycling:paper":"yes","recycling:plastic":"yes","recycling_type":"container"}},"type":"Feature"},
	{"geometry":{"coordinates":[18.338282,49.70408],"type":"Point"},"properties":{"osm_id":"5113438942","tag":{"amenity":"recycling","recycling:glass":"yes","recycling:plastic":"yes","recycling_type":"container"}},"type":"Feature"},
	{"geometry":{"coordinates":[18.346314,49.711403],"type":"Point"},"properties":{"osm_id":"5224765588","tag":{"amenity":"waste_basket"}},"type":"Feature"},
	{"geometry":{"coordinates":[18.345573,49.710366],"type":"Point"},"properties":{"osm_id":"5224765658","tag":{"amenity":"waste_basket"}},"type":"Feature"},
	{"geometry":{"coordinates":[18.345308,49.710422],"type":"Point"},"properties":{"osm_id":"5224765659","tag":{"amenity":"waste_basket"}},"type":"Feature"},
	{"geometry":{"coordinates":[18.356038,49.686725],"type":"Point"},"properties":{"osm_id":"5237094189","tag":{"amenity":"recycling","recycling:glass":"yes","recycling:paper":"yes","recycling:plastic":"yes","recycling_type":"container"}},"type":"Feature"},
	{"geometry":{"coordinates":[18.348465,49.693011],"type":"Point"},"properties":{"osm_id":"5237094190","tag":{"amenity":"recycling","recycling:glass":"yes","recycling:paper":"yes","recycling:plastic":"yes","recycling_type":"container"}},"type":"Feature"},
	{"geometry":{"coordinates":[18.364563,49.691589],"type":"Point"},"properties":{"osm_id":"5237094191","tag":{"amenity":"recycling","recycling:glass":"yes","recycling:paper":"yes","recycling:plastic":"yes","recycling_type":"container"}},"type":"Feature"},
	{"geometry":{"coordinates":[18.356912,49.692104],"type":"Point"},"properties":{"osm_id":"5237094192","tag":{"amenity":"recycling","recycling:glass":"yes","recycling:paper":"yes","recycling:plastic":"yes","recycling_type":"container"}},"type":"Feature"},
	{"geometry":{"coordinates":[18.368615,49.695612],"type":"Point"},"properties":{"osm_id":"5237094193","tag":{"amenity":"recycling","recycling:glass":"yes","recycling:paper":"yes","recycling:plastic":"yes","recycling_type":"container"}},"type":"Feature"},
	{"geometry":{"coordinates":[18.348779,49.669858],"type":"Point"},"properties":{"osm_id":"5294375435","tag":{"amenity":"recycling","recycling:glass":"yes","recycling_type":"centre"}},"type":"Feature"},
	{"geometry":{"coordinates":[18.348717,49.669908],"type":"Point"},"properties":{"osm_id":"5294375436","tag":{"amenity":"recycling","recycling:paper":"yes","recycling:plastic":"yes","recycling_type":"centre"}},"type":"Feature"},
	{"geometry":{"coordinates":[18.348726,49.669869],"type":"Point"},"properties":{"osm_id":"5294375437","tag":{"amenity":"waste_disposal"}},"type":"Feature"},
	{"geometry":{"coordinates":[18.347858,49.669351],"type":"Point"},"properties":{"osm_id":"5294375442","tag":{"amenity":"waste_disposal"}},"type":"Feature"},
	{"geometry":{"coordinates":[18.351037,49.698681],"type":"Point"},"properties":{"osm_id":"5314788847","tag":{"amenity":"recycling","recycling:glass":"yes","recycling:paper":"yes","recycling:plastic":"yes","recycling_type":"container"}},"type":"Feature"},
	{"geometry":{"coordinates":[18.357906,49.692313],"type":"Point"},"properties":{"osm_id":"5315057170","tag":{"amenity":"recycling","recycling:glass":"yes","recycling:paper":"yes","recycling:plastic":"yes","recycling_type":"container"}},"type":"Feature"},
	{"geometry":{"coordinates":[18.359126,49.691707],"type":"Point"},"properties":{"osm_id":"5315057171","tag":{"amenity":"recycling","recycling:glass":"yes","recycling:paper":"yes","recycling:plastic":"yes","recycling_type":"container"}},"type":"Feature"},
	{"geometry":{"coordinates":[18.358487,49.68938],"type":"Point"},"properties":{"osm_id":"5315057172","tag":{"amenity":"recycling","recycling:glass":"yes","recycling:paper":"yes","recycling:plastic":"yes","recycling_type":"container"}},"type":"Feature"},
	{"geometry":{"coordinates":[18.359752,49.688263],"type":"Point"},"properties":{"osm_id":"5315057173","tag":{"amenity":"recycling","recycling:glass":"yes","recycling:paper":"yes","recycling:plastic":"yes","recycling_type":"container"}},"type":"Feature"},
	{"geometry":{"coordinates":[18.358429,49.688031],"type":"Point"},"properties":{"osm_id":"5315057174","tag":{"amenity":"recycling","recycling_type":"container"}},"type":"Feature"},
	{"geometry":{"coordinates":[18.358143,49.688164],"type":"Point"},"properties":{"osm_id":"5315057175","tag":{"amenity":"recycling","recycling:glass":"yes","recycling:paper":"yes","recycling:plastic":"yes","recycling_type":"container"}},"type":"Feature"},
	{"geometry":{"coordinates":[18.359236,49.687667],"type":"Point"},"properties":{"osm_id":"5315057176","tag":{"amenity":"recycling","recycling:glass":"yes","recycling:paper":"yes","recycling:plastic":"yes","recycling_type":"container"}},"type":"Feature"},
	{"geometry":{"coordinates":[18.357894,49.687766],"type":"Point"},"properties":{"osm_id":"5315057177","tag":{"amenity":"recycling","recycling:glass":"yes","recycling:paper":"yes","recycling:plastic":"yes","recycling_type":"container"}},"type":"Feature"},
	{"geometry":{"coordinates":[18.355118,49.689004],"type":"Point"},"properties":{"osm_id":"5315057178","tag":{"amenity":"recycling","recycling:glass":"yes","recycling:paper":"yes","recycling:plastic":"yes","recycling_type":"container"}},"type":"Feature"},
	{"geometry":{"coordinates":[18.351761,49.68976],"type":"Point"},"properties":{"osm_id":"5315057179","tag":{"amenity":"recycling","recycling:glass":"yes","recycling:paper":"yes","recycling:plastic":"yes","recycling_type":"container"}},"type":"Feature"},
	{"geometry":{"coordinates":[18.350567,49.688211],"type":"Point"},"properties":{"osm_id":"5315057180","tag":{"amenity":"recycling","recycling:glass":"yes","recycling:paper":"yes","recycling:plastic":"yes","recycling_type":"container"}},"type":"Feature"},
	{"geometry":{"coordinates":[18.351626,49.687543],"type":"Point"},"properties":{"osm_id":"5315057181","tag":{"amenity":"recycling","recycling_type":"container"}},"type":"Feature"},
	{"geometry":{"coordinates":[18.35137,49.686741],"type":"Point"},"properties":{"osm_id":"5315057182","tag":{"amenity":"recycling","recycling:glass":"yes","recycling:paper":"yes","recycling:plastic":"yes","recycling_type":"container"}},"type":"Feature"},
	{"geometry":{"coordinates":[18.349487,49.688553],"type":"Point"},"properties":{"osm_id":"5315057183","tag":{"amenity":"recycling","recycling:glass":"yes","recycling:paper":"yes","recycling:plastic":"yes","recycling_type":"container"}},"type":"Feature"},
	{"geometry":{"coordinates":[18.366054,49.676585],"type":"Point"},"properties":{"osm_id":"5485954619","tag":{"amenity":"recycling","recycling:glass":"yes","recycling:paper":"yes","recycling:plastic":"yes","recycling_type":"container"}},"type":"Feature"},
	{"geometry":{"coordinates":[18.365089,49.676703],"type":"Point"},"properties":{"osm_id":"5485954620","tag":{"amenity":"recycling","recycling:waste":"yes","recycling_type":"container"}},"type":"Feature"},
	{"geometry":{"coordinates":[18.32127,49.723424],"type":"Point"},"properties":{"osm_id":"5498039172","tag":{"amenity":"recycling","recycling:glass":"yes","recycling:paper":"yes","recycling:plastic":"yes"}},"type":"Feature"},
	{"geometry":{"coordinates":[18.330846,49.668541],"type":"Point"},"properties":{"osm_id":"5730621054","tag":{"amenity":"recycling","recycling:batteries":"yes","recycling:electrical_appliances":"yes","recycling:glass":"yes","recycling:paper":"yes","recycling:plastic":"yes","recycling_type":"container"}},"type":"Feature"},
	{"geometry":{"coordinates":[18.327714,49.691353],"type":"Point"},"properties":{"osm_id":"6387620345","tag":{"amenity":"recycling","recycling:glass":"yes","recycling:paper":"yes","recycling:plastic":"yes","recycling_type":"container"}},"type":"Feature"}
]
}
