{
"type": "FeatureCollection",
"features": [
	{"geometry":{"coordinates":[18.325433,49.059894],"type":"Point"},"properties":{"osm_id":"2091998290","tag":{"amenity":"recycling"}},"type":"Feature"},
	{"geometry":{"coordinates":[18.32514,49.061387],"type":"Point"},"properties":{"osm_id":"2091998292","tag":{"amenity":"recycling"}},"type":"Feature"},
	{"geometry":{"coordinates":[18.329933,49.062699],"type":"Point"},"properties":{"osm_id":"2091998294","tag":{"amenity":"recycling"}},"type":"Feature"},
	{"geometry":{"coordinates":[18.327602,49.071581],"type":"Point"},"properties":{"osm_id":"2091998298","tag":{"amenity":"recycling"}},"type":"Feature"},
	{"geometry":{"coordinates":[18.310903,49.050952],"type":"Point"},"properties":{"osm_id":"2093529577","tag":{"amenity":"recycling","recycling_type":"container"}},"type":"Feature"},
	{"geometry":{"coordinates":[18.312681,49.052652],"type":"Point"},"properties":{"osm_id":"2093529579","tag":{"amenity":"recycling"}},"type":"Feature"},
	{"geometry":{"coordinates":[18.314942,49.055178],"type":"Point"},"properties":{"osm_id":"2093529582","tag":{"amenity":"recycling"}},"type":"Feature"},
	{"geometry":{"coordinates":[18.325513,49.059117],"type":"Point"},"properties":{"osm_id":"2093667007","tag":{"amenity":"recycling"}},"type":"Feature"},
	{"geometry":{"coordinates":[18.32612,49.059642],"type":"Point"},"properties":{"osm_id":"2093667010","tag":{"amenity":"recycling"}},"type":"Feature"},
	{"geometry":{"coordinates":[18.323774,49.059943],"type":"Point"},"properties":{"osm_id":"2093667013","tag":{"amenity":"recycling"}},"type":"Feature"},
	{"geometry":{"coordinates":[18.323082,49.060322],"type":"Point"},"properties":{"osm_id":"2093667017","tag":{"amenity":"recycling"}},"type":"Feature"},
	{"geometry":{"coordinates":[18.323084,49.061484],"type":"Point"},"properties":{"osm_id":"2093667020","tag":{"amenity":"recycling"}},"type":"Feature"},
	{"geometry":{"coordinates":[18.323236,49.061683],"type":"Point"},"properties":{"osm_id":"2093667022","tag":{"amenity":"recycling"}},"type":"Feature"},
	{"geometry":{"coordinates":[18.328776,49.075133],"type":"Point"},"properties":{"osm_id":"2093667029","tag":{"amenity":"recycling"}},"type":"Feature"},
	{"geometry":{"coordinates":[18.338236,49.04642],"type":"Point"},"properties":{"osm_id":"2093693415","tag":{"amenity":"recycling","recycling_type":"container"}},"type":"Feature"},
	{"geometry":{"coordinates":[18.325308,49.094142],"type":"Point"},"properties":{"osm_id":"2130358962","tag":{"amenity":"recycling"}},"type":"Feature"},
	{"geometry":{"coordinates":[18.31417,49.038387],"type":"Point"},"properties":{"osm_id":"2178828250","tag":{"amenity":"recycling"}},"type":"Feature"},
	{"geometry":{"coordinates":[18.325901,49.062738],"type":"Point"},"properties":{"osm_id":"2622644100","tag":{"addr:city":"Belu\u00c5\u00a1a","addr:conscriptionnumber":"1883","addr:country":"SK","addr:housenumber":"1883/42","addr:postcode":"01861","addr:street":"\u00c4\u00bd. \u00c5\u00a0t\u00c3\u00bara","addr:streetnumber":"42","entrance":"yes"}},"type":"Feature"},
	{"geometry":{"coordinates":[18.32601,49.062669],"type":"Point"},"properties":{"osm_id":"2622644101","tag":{"addr:city":"Belu\u00c5\u00a1a","addr:conscriptionnumber":"1883","addr:country":"SK","addr:housenumber":"1883/43","addr:postcode":"01861","addr:street":"\u00c4\u00bd. \u00c5\u00a0t\u00c3\u00bara","addr:streetnumber":"43","entrance":"yes"}},"type":"Feature"},
	{"geometry":{"coordinates":[18.307461,49.051528],"type":"Point"},"properties":{"osm_id":"6468594503","tag":{"amenity":"recycling"}},"type":"Feature"},
	{"geometry":{"coordinates":[18.348382,49.064102],"type":"Point"},"properties":{"osm_id":"6780740042","tag":{"amenity":"waste_basket"}},"type":"Feature"},
	{"geometry":{"coordinates":[18.346253,49.064326],"type":"Point"},"properties":{"osm_id":"6780740045","tag":{"amenity":"waste_basket"}},"type":"Feature"}
]
}
