{
"type": "FeatureCollection",
"features": [
	{"geometry":{"coordinates":[18.342278,47.6324],"type":"Point"},"properties":{"osm_id":"2440309635","tag":{"amenity":"waste_basket"}},"type":"Feature"},
	{"geometry":{"coordinates":[18.34184,47.632714],"type":"Point"},"properties":{"osm_id":"2440309636","tag":{"amenity":"waste_basket"}},"type":"Feature"},
	{"geometry":{"coordinates":[18.332558,47.621883],"type":"Point"},"properties":{"osm_id":"2449989922","tag":{"amenity":"waste_basket"}},"type":"Feature"},
	{"geometry":{"coordinates":[18.336122,47.62584],"type":"Point"},"properties":{"osm_id":"2755099812","tag":{"amenity":"recycling","recycling:PET":"yes","recycling:glass_bottles":"yes","recycling:paper":"yes","recycling_type":"container"}},"type":"Feature"},
	{"geometry":{"coordinates":[18.33739,47.627198],"type":"Point"},"properties":{"osm_id":"2755099849","tag":{"amenity":"waste_basket"}},"type":"Feature"},
	{"geometry":{"coordinates":[18.352895,47.630923],"type":"Point"},"properties":{"osm_id":"2774662002","tag":{"amenity":"waste_basket"}},"type":"Feature"},
	{"geometry":{"coordinates":[18.324474,47.633383],"type":"Point"},"properties":{"osm_id":"3028600956","tag":{"amenity":"waste_basket"}},"type":"Feature"},
	{"geometry":{"coordinates":[18.330281,47.628154],"type":"Point"},"properties":{"osm_id":"3050220761","tag":{"amenity":"recycling","recycling:PET":"yes","recycling:glass_bottles":"yes","recycling:paper":"yes","recycling_type":"container"}},"type":"Feature"},
	{"geometry":{"coordinates":[18.36845,47.590417],"type":"Point"},"properties":{"osm_id":"3470068583","tag":{"addr:city":"Tatab\u00c3\u00a1nya","addr:street":"kertv\u00c3\u00a1rosi SPAR m\u00c3\u00b6g\u00c3\u00b6tt (Szent Gy\u00c3\u00b6rgy \u00c3\u00bat)","amenity":"recycling","recycling_type":"container","source:date":"2011-09-03","url":"http://turistautak.hu/poi.php?id=23976"}},"type":"Feature"},
	{"geometry":{"coordinates":[18.340435,47.617967],"type":"Point"},"properties":{"osm_id":"3470078941","tag":{"addr:street":"M1 aut\u00c3\u00b3p\u00c3\u00a1lya 65 km","amenity":"recycling","source:date":"2011-09-19","url":"http://turistautak.hu/poi.php?id=40948"}},"type":"Feature"},
	{"geometry":{"coordinates":[18.340986,47.616455],"type":"Point"},"properties":{"osm_id":"3536037315","tag":{"amenity":"recycling","recycling:PET":"yes","recycling:cans":"yes","recycling:glass_bottles":"yes","recycling:paper":"yes","recycling_type":"container"}},"type":"Feature"}
]
}
