{
"type": "FeatureCollection",
"features": [
	{"geometry":{"coordinates":[18.282145,46.621744],"type":"Point"},"properties":{"osm_id":"3446571110","tag":{"addr:street":"Tam\u00c3\u00a1si,. H\u00c3\u00a1rsfa utca","amenity":"recycling","source:date":"2012-10-14","url":"http://turistautak.hu/poi.php?id=90231"}},"type":"Feature"},
	{"geometry":{"coordinates":[18.282323,46.623031],"type":"Point"},"properties":{"osm_id":"3446571112","tag":{"addr:city":"Tam\u00c3\u00a1si","addr:street":"H\u00c3\u00a1rsfa utca","amenity":"recycling","source:date":"2012-10-14","url":"http://turistautak.hu/poi.php?id=90374"}},"type":"Feature"},
	{"geometry":{"coordinates":[18.29502,46.624237],"type":"Point"},"properties":{"osm_id":"3446571116","tag":{"addr:street":"Tam\u00c3\u00a1si, Szarkahegy","amenity":"recycling","source:date":"2012-10-14","url":"http://turistautak.hu/poi.php?id=90357"}},"type":"Feature"},
	{"geometry":{"coordinates":[18.281869,46.628356],"type":"Point"},"properties":{"osm_id":"3446571119","tag":{"addr:city":"Tam\u00c3\u00a1si","addr:street":"De\u00c3\u00a1k Ferenc utca","amenity":"recycling","description":"Lidl parkol\u00c3\u00b3 mellett","source:date":"2012-10-14","url":"http://turistautak.hu/poi.php?id=90240"}},"type":"Feature"},
	{"geometry":{"coordinates":[18.293527,46.638643],"type":"Point"},"properties":{"osm_id":"3446571131","tag":{"addr:city":"Tam\u00c3\u00a1si","addr:street":"\u00c3\u0081rp\u00c3\u00a1d utca","amenity":"recycling","source:date":"2012-10-14","url":"http://turistautak.hu/poi.php?id=90432"}},"type":"Feature"}
]
}
