{
"type": "FeatureCollection",
"lastupdate": "2020-08-04T00:00:00Z",
"features": [
	{"geometry":{"coordinates":[18.286779,46.092715],"type":"Point"},"properties":{"name":"Lakoss\u00c3\u00a1gi hullad\u00c3\u00a9kudvar","osm_id":"3440860457","tag":{"amenity":"recycling","description":"Mo-Fr 06:00-16:00; Sa 10:00-14:00","recycling_type":"centre","source:date":"2015-01-12","url":"http://turistautak.hu/poi.php?id=97780"}},"type":"Feature"},
	{"geometry":{"coordinates":[18.335306,46.114423],"type":"Point"},"properties":{"osm_id":"3440860618","tag":{"addr:city":"P\u00e9cs","addr:postcode":"7693","addr:street":"J\u00f3zsef Attila t\u00e9r","addr:suburb":"Hird","amenity":"recycling","source:date":"2011-09-08","url":"http://turistautak.hu/poi.php?id=97492"}},"type":"Feature"},
	{"geometry":{"coordinates":[18.322341,46.133105],"type":"Point"},"properties":{"osm_id":"5916612987","tag":{"amenity":"recycling","recycling:glass":"yes","recycling:paper":"yes","recycling:plastic":"yes","recycling_type":"container"}},"type":"Feature"}
]
}
