{
"type": "FeatureCollection",
"features": [
	{"geometry":{"coordinates":[-47.838715,-23.046234],"type":"Point"},"properties":{"osm_id":"5185290676","tag":{"amenity":"recycling","recycling:glass_bottles":"yes","recycling:metal":"yes","recycling:paper":"yes","recycling:plastic":"yes","recycling_type":"container"}},"type":"Feature"},
	{"geometry":{"coordinates":[-47.83889,-23.052443],"type":"Point"},"properties":{"name":"Ecoponto municipal","osm_id":"5226715367","tag":{"addr:city":"Laranjal Paulista","addr:postcode":"18500-000","addr:street":"Rua Suaidan Abud","addr:suburb":"Centro","amenity":"waste_disposal","description":"Destinado para entulhos de constru\u00c3\u00a7\u00c3\u00a3o at\u00c3\u00a9 1 metro c\u00c3\u00babico, poda de \u00c3\u00a1rvore, capina, apara de madeira e m\u00c3\u00b3veis usados. Ajude a manter a cidade limpa! Denuncie: (15) 3283-3610.","fee":"no","opening_hours":"24/7","operator":"Prefeitura Municipal de Laranjal Paulista","waste":"furniture;garden_waste;green_waste;rubble"}},"type":"Feature"},
	{"geometry":{"coordinates":[-47.832938,-23.048943],"type":"Point"},"properties":{"name":"Ecoponto municipal","osm_id":"5226715368","tag":{"addr:city":"Laranjal Paulista","addr:postcode":"18500-000","addr:street":"Avenida L\u00c3\u00a1zaro Pires de Mello","addr:suburb":"Bairro Matadouro","amenity":"waste_disposal","description":"Destinado para entulhos de constru\u00c3\u00a7\u00c3\u00a3o at\u00c3\u00a9 1 metro c\u00c3\u00babico, poda de \u00c3\u00a1rvore, capina, apara de madeira e m\u00c3\u00b3veis usados. Ajude a manter a cidade limpa! Denuncie: (15) 3283-3610.","fee":"no","opening_hours":"24/7","operator":"Prefeitura Municipal de Laranjal Paulista","waste":"furniture;garden_waste;green_waste;rubble"}},"type":"Feature"},
	{"geometry":{"coordinates":[-47.852836,-23.020225],"type":"Point"},"properties":{"name":"Ecoponto municipal","osm_id":"5226715369","tag":{"addr:city":"Laranjal Paulista","addr:postcode":"18500-000","addr:street":"Estrada Municipal Jo\u00c3\u00a3o Bordignon","addr:suburb":"Morro Alto","amenity":"waste_disposal","description":"Destinado para entulhos de constru\u00c3\u00a7\u00c3\u00a3o at\u00c3\u00a9 1 metro c\u00c3\u00babico, poda de \u00c3\u00a1rvore, capina, apara de madeira e m\u00c3\u00b3veis usados. Ajude a manter a cidade limpa! Denuncie: (15) 3283-3610.","fee":"no","opening_hours":"24/7","operator":"Prefeitura Municipal de Laranjal Paulista","waste":"furniture;garden_waste;green_waste;rubble"}},"type":"Feature"},
	{"geometry":{"coordinates":[-47.837409,-23.051795],"type":"Point"},"properties":{"osm_id":"5562939786","tag":{"amenity":"waste_basket","waste":"cigarettes"}},"type":"Feature"},
	{"geometry":{"coordinates":[-47.837955,-23.051987],"type":"Point"},"properties":{"osm_id":"5562939787","tag":{"amenity":"waste_basket","waste":"cigarettes"}},"type":"Feature"},
	{"geometry":{"coordinates":[-47.838109,-23.052103],"type":"Point"},"properties":{"osm_id":"5562939788","tag":{"amenity":"waste_basket","waste":"cigarettes"}},"type":"Feature"},
	{"geometry":{"coordinates":[-47.83659,-23.051139],"type":"Point"},"properties":{"osm_id":"5788187030","tag":{"amenity":"waste_basket","waste":"cigarettes"}},"type":"Feature"},
	{"geometry":{"coordinates":[-47.83584,-23.05543],"type":"Point"},"properties":{"osm_id":"5960626859","tag":{"amenity":"waste_basket","waste":"cigarettes"}},"type":"Feature"},
	{"geometry":{"coordinates":[-47.885847,-23.070712],"type":"Point"},"properties":{"osm_id":"6301888288","tag":{"addr:city":"Laranjal Paulista","addr:postcode":"18500-000","addr:street":"Estrada Vicinal Vereador Giovani Costa","addr:suburb":"Abaulado","amenity":"waste_disposal","fee":"no","opening_hours":"24/7"}},"type":"Feature"},
	{"geometry":{"coordinates":[-47.889897,-23.040266],"type":"Point"},"properties":{"osm_id":"6389802829","tag":{"amenity":"waste_basket","waste":"cigarettes"}},"type":"Feature"},
	{"geometry":{"coordinates":[-47.858831,-23.038281],"type":"Point"},"properties":{"osm_id":"6508688626","tag":{"amenity":"recycling","recycling:glass_bottles":"yes","recycling:metal":"yes","recycling:paper":"yes","recycling:plastic":"yes","recycling:waste":"yes","recycling_type":"container"}},"type":"Feature"},
	{"geometry":{"coordinates":[-47.836473,-23.050186],"type":"Point"},"properties":{"osm_id":"6517545974","tag":{"amenity":"waste_basket","waste":"cigarettes"}},"type":"Feature"},
	{"geometry":{"coordinates":[-47.83676,-23.050388],"type":"Point"},"properties":{"osm_id":"6709897132","tag":{"amenity":"waste_basket","waste":"cigarettes"}},"type":"Feature"},
	{"geometry":{"coordinates":[-47.825447,-23.051067],"type":"Point"},"properties":{"osm_id":"7880257411","tag":{"amenity":"waste_basket","waste":"trash"}},"type":"Feature"},
	{"geometry":{"coordinates":[-47.825659,-23.051086],"type":"Point"},"properties":{"osm_id":"7880257412","tag":{"amenity":"waste_basket","waste":"trash"}},"type":"Feature"},
	{"geometry":{"coordinates":[-47.825817,-23.051012],"type":"Point"},"properties":{"osm_id":"7880257413","tag":{"amenity":"waste_basket","waste":"trash"}},"type":"Feature"}
]
}
