{
"type": "FeatureCollection",
"features": [
	{"geometry":{"coordinates":[42.647488,42.255691],"type":"Point"},"properties":{"osm_id":"4269410651","tag":{"amenity":"waste_basket"}},"type":"Feature"},
	{"geometry":{"coordinates":[42.647624,42.254795],"type":"Point"},"properties":{"osm_id":"4269455397","tag":{"amenity":"waste_basket"}},"type":"Feature"},
	{"geometry":{"coordinates":[42.64647,42.259593],"type":"Point"},"properties":{"osm_id":"4269506691","tag":{"amenity":"waste_basket"}},"type":"Feature"},
	{"geometry":{"coordinates":[42.646403,42.259917],"type":"Point"},"properties":{"osm_id":"4269510506","tag":{"amenity":"waste_basket"}},"type":"Feature"},
	{"geometry":{"coordinates":[42.646737,42.257231],"type":"Point"},"properties":{"osm_id":"4269527190","tag":{"amenity":"waste_basket"}},"type":"Feature"},
	{"geometry":{"coordinates":[42.650558,42.255477],"type":"Point"},"properties":{"osm_id":"4269527248","tag":{"amenity":"waste_basket"}},"type":"Feature"},
	{"geometry":{"coordinates":[42.646487,42.259543],"type":"Point"},"properties":{"osm_id":"4269539490","tag":{"amenity":"waste_basket"}},"type":"Feature"},
	{"geometry":{"coordinates":[42.647139,42.256915],"type":"Point"},"properties":{"osm_id":"4269540589","tag":{"amenity":"waste_basket"}},"type":"Feature"},
	{"geometry":{"coordinates":[42.646809,42.258139],"type":"Point"},"properties":{"osm_id":"4269540789","tag":{"amenity":"waste_basket"}},"type":"Feature"},
	{"geometry":{"coordinates":[42.646599,42.259105],"type":"Point"},"properties":{"osm_id":"4269540989","tag":{"amenity":"waste_basket"}},"type":"Feature"},
	{"geometry":{"coordinates":[42.646411,42.259869],"type":"Point"},"properties":{"osm_id":"4269548695","tag":{"amenity":"waste_basket"}},"type":"Feature"},
	{"geometry":{"coordinates":[42.646401,42.260629],"type":"Point"},"properties":{"osm_id":"4269549491","tag":{"amenity":"waste_basket"}},"type":"Feature"},
	{"geometry":{"coordinates":[42.650559,42.255433],"type":"Point"},"properties":{"osm_id":"4269557393","tag":{"amenity":"waste_basket"}},"type":"Feature"},
	{"geometry":{"coordinates":[42.671082,42.249819],"type":"Point"},"properties":{"osm_id":"4456399797","tag":{"amenity":"recycling","name:en":"makuliteratura","name:ru":"\u00d0\u00bf\u00d1\u0080\u00d0\u00b8\u00d1\u0091\u00d0\u00bc \u00d0\u00bc\u00d0\u00b0\u00d0\u00ba\u00d1\u0083\u00d0\u00bb\u00d0\u00b0\u00d1\u0082\u00d1\u0083\u00d1\u0080\u00d1\u008b","phone":"+995599047732","website":"http://www.makuliteratura.ge"}},"type":"Feature"},
	{"geometry":{"coordinates":[42.646135,42.261432],"type":"Point"},"properties":{"osm_id":"5318753127","tag":{"amenity":"waste_basket"}},"type":"Feature"},
	{"geometry":{"coordinates":[42.647682,42.2543],"type":"Point"},"properties":{"osm_id":"5590280124","tag":{"amenity":"waste_basket"}},"type":"Feature"},
	{"geometry":{"coordinates":[42.647789,42.253701],"type":"Point"},"properties":{"osm_id":"5590280125","tag":{"amenity":"waste_basket"}},"type":"Feature"},
	{"geometry":{"coordinates":[42.690441,42.261553],"type":"Point"},"properties":{"osm_id":"6404107760","tag":{"amenity":"recycling","recycling:plastic":"yes","recycling:plastic_bottles":"yes","recycling_type":"container"}},"type":"Feature"}
]
}
