{
"type": "FeatureCollection",
"features": [
	{"geometry":{"coordinates":[37.954703,59.123691],"type":"Point"},"properties":{"osm_id":"771680460","tag":{"amenity":"waste_disposal"}},"type":"Feature"},
	{"geometry":{"coordinates":[37.955226,59.124965],"type":"Point"},"properties":{"osm_id":"794825575","tag":{"amenity":"waste_disposal"}},"type":"Feature"},
	{"geometry":{"coordinates":[37.957174,59.123739],"type":"Point"},"properties":{"osm_id":"794826092","tag":{"amenity":"waste_disposal"}},"type":"Feature"},
	{"geometry":{"coordinates":[37.961106,59.115948],"type":"Point"},"properties":{"osm_id":"829809517","tag":{"amenity":"waste_disposal"}},"type":"Feature"},
	{"geometry":{"coordinates":[37.961154,59.116403],"type":"Point"},"properties":{"osm_id":"829809622","tag":{"amenity":"waste_disposal"}},"type":"Feature"},
	{"geometry":{"coordinates":[37.889822,59.129866],"type":"Point"},"properties":{"osm_id":"846642215","tag":{"amenity":"recycling","recycling:batteries":"no","recycling:cans":"yes","recycling:clothes":"yes","recycling:glass":"yes","recycling:paper":"yes","recycling:scrap_metal":"yes"}},"type":"Feature"},
	{"geometry":{"coordinates":[37.918444,59.129874],"type":"Point"},"properties":{"osm_id":"945657546","tag":{"amenity":"waste_basket"}},"type":"Feature"},
	{"geometry":{"coordinates":[37.958715,59.117724],"type":"Point"},"properties":{"osm_id":"955576375","tag":{"amenity":"waste_disposal"}},"type":"Feature"},
	{"geometry":{"coordinates":[37.917512,59.130674],"type":"Point"},"properties":{"osm_id":"958062813","tag":{"amenity":"waste_basket"}},"type":"Feature"},
	{"geometry":{"coordinates":[37.917311,59.130855],"type":"Point"},"properties":{"osm_id":"958062816","tag":{"amenity":"waste_basket"}},"type":"Feature"},
	{"geometry":{"coordinates":[37.916936,59.129978],"type":"Point"},"properties":{"osm_id":"958062818","tag":{"amenity":"waste_basket"}},"type":"Feature"},
	{"geometry":{"coordinates":[37.917575,59.130824],"type":"Point"},"properties":{"osm_id":"958062860","tag":{"amenity":"waste_basket"}},"type":"Feature"},
	{"geometry":{"coordinates":[37.917231,59.130666],"type":"Point"},"properties":{"osm_id":"958062865","tag":{"amenity":"waste_basket"}},"type":"Feature"},
	{"geometry":{"coordinates":[37.917245,59.13004],"type":"Point"},"properties":{"osm_id":"958062878","tag":{"amenity":"waste_basket"}},"type":"Feature"},
	{"geometry":{"coordinates":[37.916978,59.130074],"type":"Point"},"properties":{"osm_id":"958062888","tag":{"amenity":"waste_basket"}},"type":"Feature"},
	{"geometry":{"coordinates":[37.916885,59.129838],"type":"Point"},"properties":{"osm_id":"958062891","tag":{"amenity":"waste_basket"}},"type":"Feature"},
	{"geometry":{"coordinates":[37.916993,59.130109],"type":"Point"},"properties":{"osm_id":"958062906","tag":{"amenity":"waste_basket"}},"type":"Feature"},
	{"geometry":{"coordinates":[37.917148,59.129809],"type":"Point"},"properties":{"osm_id":"958062908","tag":{"amenity":"waste_basket"}},"type":"Feature"},
	{"geometry":{"coordinates":[37.917205,59.129945],"type":"Point"},"properties":{"osm_id":"958062911","tag":{"amenity":"waste_basket"}},"type":"Feature"},
	{"geometry":{"coordinates":[37.917287,59.13081],"type":"Point"},"properties":{"osm_id":"958062936","tag":{"amenity":"waste_basket"}},"type":"Feature"},
	{"geometry":{"coordinates":[37.916919,59.129939],"type":"Point"},"properties":{"osm_id":"958062940","tag":{"amenity":"waste_basket"}},"type":"Feature"},
	{"geometry":{"coordinates":[37.917555,59.130778],"type":"Point"},"properties":{"osm_id":"958062956","tag":{"amenity":"waste_basket"}},"type":"Feature"},
	{"geometry":{"coordinates":[37.917245,59.130708],"type":"Point"},"properties":{"osm_id":"958062985","tag":{"amenity":"waste_basket"}},"type":"Feature"},
	{"geometry":{"coordinates":[37.916868,59.129806],"type":"Point"},"properties":{"osm_id":"958063004","tag":{"amenity":"waste_basket"}},"type":"Feature"},
	{"geometry":{"coordinates":[37.917494,59.130632],"type":"Point"},"properties":{"osm_id":"958063016","tag":{"amenity":"waste_basket"}},"type":"Feature"},
	{"geometry":{"coordinates":[37.917259,59.130077],"type":"Point"},"properties":{"osm_id":"958063017","tag":{"amenity":"waste_basket"}},"type":"Feature"},
	{"geometry":{"coordinates":[37.917133,59.129774],"type":"Point"},"properties":{"osm_id":"958063031","tag":{"amenity":"waste_basket"}},"type":"Feature"},
	{"geometry":{"coordinates":[37.917189,59.129908],"type":"Point"},"properties":{"osm_id":"958063035","tag":{"amenity":"waste_basket"}},"type":"Feature"},
	{"geometry":{"coordinates":[37.90918,59.092041],"type":"Point"},"properties":{"osm_id":"1071580252","tag":{"amenity":"waste_basket"}},"type":"Feature"},
	{"geometry":{"coordinates":[37.918112,59.086669],"type":"Point"},"properties":{"osm_id":"1168865479","tag":{"amenity":"recycling"}},"type":"Feature"},
	{"geometry":{"coordinates":[37.917616,59.119389],"type":"Point"},"properties":{"osm_id":"1271035207","tag":{"amenity":"waste_basket"}},"type":"Feature"},
	{"geometry":{"coordinates":[37.907164,59.130517],"type":"Point"},"properties":{"osm_id":"1361930514","tag":{"amenity":"waste_disposal","waste":"trash"}},"type":"Feature"},
	{"geometry":{"coordinates":[37.917668,59.123542],"type":"Point"},"properties":{"osm_id":"1516772744","tag":{"amenity":"waste_basket"}},"type":"Feature"},
	{"geometry":{"coordinates":[37.918469,59.125357],"type":"Point"},"properties":{"osm_id":"1516772768","tag":{"amenity":"waste_basket"}},"type":"Feature"},
	{"geometry":{"coordinates":[37.917312,59.126628],"type":"Point"},"properties":{"osm_id":"1516772773","tag":{"amenity":"waste_basket"}},"type":"Feature"},
	{"geometry":{"coordinates":[37.890644,59.128127],"type":"Point"},"properties":{"osm_id":"1516772775","tag":{"amenity":"waste_basket"}},"type":"Feature"},
	{"geometry":{"coordinates":[37.959073,59.118743],"type":"Point"},"properties":{"osm_id":"1694901973","tag":{"amenity":"waste_disposal"}},"type":"Feature"},
	{"geometry":{"coordinates":[37.932045,59.098008],"type":"Point"},"properties":{"osm_id":"2617380853","tag":{"amenity":"waste_disposal"}},"type":"Feature"},
	{"geometry":{"coordinates":[37.929365,59.101388],"type":"Point"},"properties":{"osm_id":"2617380854","tag":{"amenity":"waste_disposal"}},"type":"Feature"},
	{"geometry":{"coordinates":[37.920544,59.094089],"type":"Point"},"properties":{"osm_id":"2617380874","tag":{"amenity":"waste_disposal"}},"type":"Feature"},
	{"geometry":{"coordinates":[37.934947,59.09835],"type":"Point"},"properties":{"osm_id":"2625916314","tag":{"amenity":"waste_disposal"}},"type":"Feature"},
	{"geometry":{"coordinates":[37.925661,59.0984],"type":"Point"},"properties":{"osm_id":"3041617931","tag":{"amenity":"waste_disposal"}},"type":"Feature"},
	{"geometry":{"coordinates":[37.937578,59.099402],"type":"Point"},"properties":{"osm_id":"3755387725","tag":{"amenity":"recycling"}},"type":"Feature"},
	{"geometry":{"coordinates":[37.932726,59.095207],"type":"Point"},"properties":{"osm_id":"4272125589","tag":{"amenity":"waste_disposal"}},"type":"Feature"},
	{"geometry":{"coordinates":[37.890607,59.130712],"type":"Point"},"properties":{"osm_id":"4309639989","tag":{"amenity":"waste_disposal","operator":"\u00d0\u00a3\u00d0\u009a \u00d0\u0093\u00d0\u00b0\u00d0\u00b3\u00d0\u00b0\u00d1\u0080\u00d0\u00b8\u00d0\u00bd\u00d1\u0081\u00d0\u00ba\u00d0\u00b0\u00d1\u008f \u00d0\u0096\u00d0\u00ad\u00d0\u00a3-3"}},"type":"Feature"},
	{"geometry":{"coordinates":[37.93128,59.094677],"type":"Point"},"properties":{"osm_id":"4338389296","tag":{"amenity":"waste_disposal"}},"type":"Feature"},
	{"geometry":{"coordinates":[37.951142,59.122847],"type":"Point"},"properties":{"osm_id":"4382876289","tag":{"amenity":"waste_disposal","operator":"\u00d0\u0096\u00d0\u00b8\u00d0\u00bb\u00d0\u00a0\u00d0\u00b5\u00d0\u00bc\u00d0\u00a1\u00d1\u0082\u00d1\u0080\u00d0\u00be\u00d0\u00b9"}},"type":"Feature"},
	{"geometry":{"coordinates":[37.933498,59.127607],"type":"Point"},"properties":{"osm_id":"4511590291","tag":{"amenity":"waste_disposal"}},"type":"Feature"},
	{"geometry":{"coordinates":[37.899957,59.130043],"type":"Point"},"properties":{"osm_id":"5176892021","tag":{"amenity":"waste_disposal"}},"type":"Feature"}
]
}
