{
"type": "FeatureCollection",
"features": [
	{"geometry":{"coordinates":[-0.808557,53.073896],"type":"Point"},"properties":{"osm_id":"1111736119","tag":{"amenity":"recycling","recycling:clothes":"yes","recycling:glass":"yes","recycling:paper":"yes","recycling_type":"container"}},"type":"Feature"},
	{"geometry":{"coordinates":[-0.812819,53.072768],"type":"Point"},"properties":{"osm_id":"1111743154","tag":{"amenity":"recycling","recycling:clothes":"yes","recycling:glass":"yes","recycling:paper":"yes"}},"type":"Feature"},
	{"geometry":{"coordinates":[-0.818427,53.085409],"type":"Point"},"properties":{"name":"Briggs Metals","osm_id":"4468112893","tag":{"amenity":"recycling","name:en":"Briggs Metals"}},"type":"Feature"},
	{"geometry":{"coordinates":[-0.799884,53.08228],"type":"Point"},"properties":{"osm_id":"5041381023","tag":{"amenity":"waste_basket"}},"type":"Feature"},
	{"geometry":{"coordinates":[-0.799594,53.081745],"type":"Point"},"properties":{"osm_id":"5041381222","tag":{"amenity":"waste_basket"}},"type":"Feature"},
	{"geometry":{"coordinates":[-0.802485,53.079428],"type":"Point"},"properties":{"osm_id":"6588717203","tag":{"amenity":"waste_basket"}},"type":"Feature"}
]
}
