{
"type": "FeatureCollection",
"features": [
	{"geometry":{"coordinates":[-0.835913,51.724075],"type":"Point"},"properties":{"osm_id":"314948954","tag":{"amenity":"recycling","recycling:batteries":"no","recycling:books":"yes","recycling:cans":"yes","recycling:cardboard":"yes","recycling:cartons":"no","recycling:clothes":"no","recycling:electrical_appliances":"no","recycling:glass":"yes","recycling:glass_bottles":"yes","recycling:magazines":"yes","recycling:newspaper":"yes","recycling:paper":"yes","recycling:paper_packaging":"no","recycling:plastic":"no","recycling:plastic_bottles":"no","recycling:plastic_packaging":"no","recycling:scrap_metal":"no","recycling:small_appliances":"no","recycling:waste":"no","recycling:wood":"no","recycling_type":"container"}},"type":"Feature"},
	{"geometry":{"coordinates":[-0.829117,51.722863],"type":"Point"},"properties":{"osm_id":"356933603","tag":{"amenity":"recycling"}},"type":"Feature"},
	{"geometry":{"coordinates":[-0.830771,51.723326],"type":"Point"},"properties":{"osm_id":"5532121725","tag":{"amenity":"waste_basket","waste":"trash"}},"type":"Feature"},
	{"geometry":{"coordinates":[-0.833387,51.724248],"type":"Point"},"properties":{"osm_id":"5532121788","tag":{"amenity":"waste_basket","waste":"trash"}},"type":"Feature"},
	{"geometry":{"coordinates":[-0.833512,51.724304],"type":"Point"},"properties":{"osm_id":"5532121789","tag":{"amenity":"waste_basket","waste":"trash"}},"type":"Feature"},
	{"geometry":{"coordinates":[-0.833443,51.725611],"type":"Point"},"properties":{"osm_id":"5532121794","tag":{"amenity":"waste_basket","waste":"trash"}},"type":"Feature"},
	{"geometry":{"coordinates":[-0.833132,51.721637],"type":"Point"},"properties":{"osm_id":"5532121798","tag":{"amenity":"waste_basket","waste":"trash"}},"type":"Feature"},
	{"geometry":{"coordinates":[-0.836444,51.724039],"type":"Point"},"properties":{"osm_id":"5532121802","tag":{"amenity":"waste_basket","waste":"trash"}},"type":"Feature"},
	{"geometry":{"coordinates":[-0.835547,51.723665],"type":"Point"},"properties":{"osm_id":"5532121803","tag":{"amenity":"waste_basket","waste":"trash"}},"type":"Feature"},
	{"geometry":{"coordinates":[-0.834462,51.723122],"type":"Point"},"properties":{"osm_id":"5532121804","tag":{"amenity":"waste_basket","waste":"trash"}},"type":"Feature"},
	{"geometry":{"coordinates":[-0.832153,51.721872],"type":"Point"},"properties":{"osm_id":"5532121868","tag":{"amenity":"waste_basket","waste":"trash"}},"type":"Feature"},
	{"geometry":{"coordinates":[-0.83197,51.721889],"type":"Point"},"properties":{"osm_id":"5532121869","tag":{"amenity":"waste_basket","waste":"trash"}},"type":"Feature"},
	{"geometry":{"coordinates":[-0.831856,51.721782],"type":"Point"},"properties":{"osm_id":"5532121870","tag":{"amenity":"waste_basket","waste":"trash"}},"type":"Feature"},
	{"geometry":{"coordinates":[-0.83145,51.722163],"type":"Point"},"properties":{"osm_id":"5532121889","tag":{"amenity":"waste_basket","waste":"trash"}},"type":"Feature"},
	{"geometry":{"coordinates":[-0.832253,51.724651],"type":"Point"},"properties":{"osm_id":"5532121893","tag":{"amenity":"waste_basket","waste":"trash"}},"type":"Feature"},
	{"geometry":{"coordinates":[-0.832395,51.724807],"type":"Point"},"properties":{"osm_id":"5532121894","tag":{"amenity":"waste_basket","waste":"trash"}},"type":"Feature"},
	{"geometry":{"coordinates":[-0.832329,51.724983],"type":"Point"},"properties":{"osm_id":"5532121895","tag":{"amenity":"waste_basket","waste":"trash"}},"type":"Feature"},
	{"geometry":{"coordinates":[-0.832567,51.725419],"type":"Point"},"properties":{"osm_id":"5532121916","tag":{"amenity":"waste_basket","waste":"trash"}},"type":"Feature"},
	{"geometry":{"coordinates":[-0.832227,51.725257],"type":"Point"},"properties":{"osm_id":"5532121917","tag":{"amenity":"waste_basket","waste":"trash"}},"type":"Feature"},
	{"geometry":{"coordinates":[-0.832866,51.72625],"type":"Point"},"properties":{"osm_id":"5532121920","tag":{"amenity":"waste_basket","waste":"trash"}},"type":"Feature"},
	{"geometry":{"coordinates":[-0.831521,51.726541],"type":"Point"},"properties":{"osm_id":"5532122029","tag":{"amenity":"waste_basket","waste":"trash"}},"type":"Feature"},
	{"geometry":{"coordinates":[-0.83109,51.726772],"type":"Point"},"properties":{"osm_id":"5532122038","tag":{"amenity":"waste_basket","waste":"trash"}},"type":"Feature"},
	{"geometry":{"coordinates":[-0.829543,51.723161],"type":"Point"},"properties":{"osm_id":"5532122087","tag":{"amenity":"waste_basket","waste":"trash"}},"type":"Feature"},
	{"geometry":{"coordinates":[-0.829701,51.723328],"type":"Point"},"properties":{"osm_id":"5532122088","tag":{"amenity":"waste_basket","waste":"trash"}},"type":"Feature"},
	{"geometry":{"coordinates":[-0.829302,51.723281],"type":"Point"},"properties":{"osm_id":"5532122093","tag":{"amenity":"waste_basket","waste":"trash"}},"type":"Feature"},
	{"geometry":{"coordinates":[-0.829804,51.72311],"type":"Point"},"properties":{"osm_id":"5532122094","tag":{"amenity":"waste_basket","waste":"trash"}},"type":"Feature"},
	{"geometry":{"coordinates":[-0.830196,51.722836],"type":"Point"},"properties":{"osm_id":"5532122095","tag":{"amenity":"waste_basket","waste":"trash"}},"type":"Feature"},
	{"geometry":{"coordinates":[-0.830255,51.72311],"type":"Point"},"properties":{"osm_id":"5532122116","tag":{"amenity":"waste_basket","waste":"trash"}},"type":"Feature"},
	{"geometry":{"coordinates":[-0.831009,51.723634],"type":"Point"},"properties":{"osm_id":"5532122119","tag":{"amenity":"waste_basket","waste":"trash"}},"type":"Feature"},
	{"geometry":{"coordinates":[-0.830973,51.723475],"type":"Point"},"properties":{"osm_id":"5532122321","tag":{"amenity":"waste_basket","waste":"trash"}},"type":"Feature"},
	{"geometry":{"coordinates":[-0.831444,51.72383],"type":"Point"},"properties":{"osm_id":"5532122331","tag":{"amenity":"waste_basket","waste":"trash"}},"type":"Feature"},
	{"geometry":{"coordinates":[-0.831614,51.723832],"type":"Point"},"properties":{"osm_id":"5532122332","tag":{"amenity":"waste_basket","waste":"trash"}},"type":"Feature"},
	{"geometry":{"coordinates":[-0.831881,51.724135],"type":"Point"},"properties":{"osm_id":"5532122341","tag":{"amenity":"waste_basket","waste":"trash"}},"type":"Feature"},
	{"geometry":{"coordinates":[-0.83221,51.724241],"type":"Point"},"properties":{"osm_id":"5532122356","tag":{"amenity":"waste_basket","waste":"trash"}},"type":"Feature"},
	{"geometry":{"coordinates":[-0.83228,51.72424],"type":"Point"},"properties":{"osm_id":"5532122358","tag":{"amenity":"waste_basket","waste":"trash"}},"type":"Feature"},
	{"geometry":{"coordinates":[-0.83211,51.724318],"type":"Point"},"properties":{"osm_id":"5532122360","tag":{"amenity":"waste_basket","waste":"trash"}},"type":"Feature"},
	{"geometry":{"coordinates":[-0.832207,51.724506],"type":"Point"},"properties":{"osm_id":"5532122366","tag":{"amenity":"waste_basket","waste":"trash"}},"type":"Feature"},
	{"geometry":{"coordinates":[-0.832368,51.724404],"type":"Point"},"properties":{"osm_id":"5532122368","tag":{"amenity":"waste_basket","covered":"yes","waste":"trash"}},"type":"Feature"},
	{"geometry":{"coordinates":[-0.832641,51.724368],"type":"Point"},"properties":{"osm_id":"5532122372","tag":{"amenity":"waste_basket","waste":"trash"}},"type":"Feature"},
	{"geometry":{"coordinates":[-0.832573,51.722105],"type":"Point"},"properties":{"osm_id":"5534653742","tag":{"amenity":"waste_basket","waste":"trash"}},"type":"Feature"},
	{"geometry":{"coordinates":[-0.831336,51.723677],"type":"Point"},"properties":{"osm_id":"5538850379","tag":{"amenity":"waste_basket","waste":"trash"}},"type":"Feature"},
	{"geometry":{"coordinates":[-0.832707,51.724207],"type":"Point"},"properties":{"osm_id":"5538850399","tag":{"amenity":"waste_basket","waste":"trash"}},"type":"Feature"},
	{"geometry":{"coordinates":[-0.83512,51.723995],"type":"Point"},"properties":{"osm_id":"5538850400","tag":{"amenity":"waste_basket","waste":"trash"}},"type":"Feature"},
	{"geometry":{"coordinates":[-0.825233,51.726122],"type":"Point"},"properties":{"osm_id":"5567531393","tag":{"amenity":"waste_basket","waste":"trash"}},"type":"Feature"},
	{"geometry":{"coordinates":[-0.841745,51.718568],"type":"Point"},"properties":{"osm_id":"5567532191","tag":{"amenity":"waste_basket","waste":"trash"}},"type":"Feature"},
	{"geometry":{"coordinates":[-0.836604,51.724137],"type":"Point"},"properties":{"osm_id":"5567532207","tag":{"amenity":"waste_basket","waste":"trash"}},"type":"Feature"},
	{"geometry":{"coordinates":[-0.835302,51.724105],"type":"Point"},"properties":{"osm_id":"5567532229","tag":{"amenity":"waste_basket","waste":"trash"}},"type":"Feature"},
	{"geometry":{"coordinates":[-0.843857,51.71796],"type":"Point"},"properties":{"osm_id":"5567532529","tag":{"amenity":"recycling","recycling:cardboard":"yes","recycling:glass":"yes","recycling:paper":"yes","recycling:plastic":"yes","recycling:scrap_metal":"yes","recycling_type":"container"}},"type":"Feature"},
	{"geometry":{"coordinates":[-0.843857,51.717966],"type":"Point"},"properties":{"osm_id":"5567532530","tag":{"amenity":"waste_basket","waste":"trash"}},"type":"Feature"},
	{"geometry":{"coordinates":[-0.836269,51.720098],"type":"Point"},"properties":{"osm_id":"5567532633","tag":{"amenity":"waste_basket","waste":"trash"}},"type":"Feature"},
	{"geometry":{"coordinates":[-0.834382,51.721038],"type":"Point"},"properties":{"osm_id":"5567532635","tag":{"amenity":"waste_basket","waste":"trash"}},"type":"Feature"},
	{"geometry":{"coordinates":[-0.832837,51.721773],"type":"Point"},"properties":{"osm_id":"5567532636","tag":{"amenity":"waste_basket","waste":"trash"}},"type":"Feature"},
	{"geometry":{"coordinates":[-0.833108,51.721493],"type":"Point"},"properties":{"osm_id":"5567532638","tag":{"amenity":"waste_basket","waste":"trash"}},"type":"Feature"},
	{"geometry":{"coordinates":[-0.836944,51.724149],"type":"Point"},"properties":{"osm_id":"5576844910","tag":{"amenity":"waste_basket","waste":"trash"}},"type":"Feature"},
	{"geometry":{"coordinates":[-0.838352,51.724197],"type":"Point"},"properties":{"osm_id":"5576844916","tag":{"amenity":"waste_basket","waste":"dog_excrement"}},"type":"Feature"},
	{"geometry":{"coordinates":[-0.838527,51.725067],"type":"Point"},"properties":{"osm_id":"5576844918","tag":{"amenity":"waste_basket","waste":"dog_excrement"}},"type":"Feature"},
	{"geometry":{"coordinates":[-0.837615,51.726134],"type":"Point"},"properties":{"osm_id":"5580117115","tag":{"amenity":"waste_basket","waste":"dog_excrement"}},"type":"Feature"},
	{"geometry":{"coordinates":[-0.837679,51.725131],"type":"Point"},"properties":{"osm_id":"5580117120","tag":{"amenity":"waste_basket","waste":"trash"}},"type":"Feature"},
	{"geometry":{"coordinates":[-0.837812,51.725038],"type":"Point"},"properties":{"osm_id":"5580117124","tag":{"amenity":"waste_basket","waste":"trash"}},"type":"Feature"},
	{"geometry":{"coordinates":[-0.834364,51.724615],"type":"Point"},"properties":{"osm_id":"5580117125","tag":{"amenity":"waste_basket","waste":"trash"}},"type":"Feature"},
	{"geometry":{"coordinates":[-0.835739,51.725412],"type":"Point"},"properties":{"osm_id":"5580117128","tag":{"amenity":"waste_basket","waste":"dog_excrement"}},"type":"Feature"},
	{"geometry":{"coordinates":[-0.835826,51.725252],"type":"Point"},"properties":{"osm_id":"5580117130","tag":{"amenity":"waste_basket","waste":"trash"}},"type":"Feature"},
	{"geometry":{"coordinates":[-0.836993,51.724896],"type":"Point"},"properties":{"osm_id":"5580117145","tag":{"amenity":"waste_basket","waste":"trash"}},"type":"Feature"},
	{"geometry":{"coordinates":[-0.836986,51.717536],"type":"Point"},"properties":{"osm_id":"5580117165","tag":{"amenity":"waste_basket","waste":"trash"}},"type":"Feature"},
	{"geometry":{"coordinates":[-0.836643,51.717137],"type":"Point"},"properties":{"osm_id":"5580117168","tag":{"amenity":"waste_basket","waste":"trash"}},"type":"Feature"},
	{"geometry":{"coordinates":[-0.840492,51.718112],"type":"Point"},"properties":{"osm_id":"5580117175","tag":{"amenity":"waste_basket","waste":"dog_excrement"}},"type":"Feature"},
	{"geometry":{"coordinates":[-0.821425,51.724994],"type":"Point"},"properties":{"osm_id":"5589116523","tag":{"amenity":"waste_basket","waste":"dog_excrement"}},"type":"Feature"},
	{"geometry":{"coordinates":[-0.821856,51.725301],"type":"Point"},"properties":{"osm_id":"5589116524","tag":{"amenity":"waste_basket","waste":"trash"}},"type":"Feature"},
	{"geometry":{"coordinates":[-0.822431,51.725584],"type":"Point"},"properties":{"osm_id":"5589116526","tag":{"amenity":"waste_basket","waste":"dog_excrement"}},"type":"Feature"},
	{"geometry":{"coordinates":[-0.821574,51.722343],"type":"Point"},"properties":{"osm_id":"5589116533","tag":{"amenity":"waste_basket","waste":"trash"}},"type":"Feature"},
	{"geometry":{"coordinates":[-0.821261,51.722515],"type":"Point"},"properties":{"osm_id":"5589116534","tag":{"amenity":"waste_basket","waste":"trash"}},"type":"Feature"},
	{"geometry":{"coordinates":[-0.821551,51.722347],"type":"Point"},"properties":{"osm_id":"5589116537","tag":{"amenity":"waste_basket","waste":"dog_excrement"}},"type":"Feature"},
	{"geometry":{"coordinates":[-0.825968,51.722826],"type":"Point"},"properties":{"osm_id":"5589116552","tag":{"amenity":"waste_basket","waste":"dog_excrement"}},"type":"Feature"},
	{"geometry":{"coordinates":[-0.826835,51.723137],"type":"Point"},"properties":{"osm_id":"5589116553","tag":{"amenity":"waste_basket","waste":"dog_excrement"}},"type":"Feature"},
	{"geometry":{"coordinates":[-0.826851,51.72321],"type":"Point"},"properties":{"osm_id":"5589116556","tag":{"amenity":"waste_basket","waste":"trash"}},"type":"Feature"},
	{"geometry":{"coordinates":[-0.827118,51.72306],"type":"Point"},"properties":{"osm_id":"5589116569","tag":{"amenity":"waste_basket","waste":"trash"}},"type":"Feature"},
	{"geometry":{"coordinates":[-0.827695,51.722624],"type":"Point"},"properties":{"osm_id":"5589116572","tag":{"amenity":"waste_basket","waste":"dog_excrement"}},"type":"Feature"},
	{"geometry":{"coordinates":[-0.827705,51.722152],"type":"Point"},"properties":{"osm_id":"5589116573","tag":{"amenity":"waste_basket","waste":"trash"}},"type":"Feature"},
	{"geometry":{"coordinates":[-0.827775,51.722193],"type":"Point"},"properties":{"osm_id":"5589116574","tag":{"amenity":"waste_basket","waste":"dog_excrement"}},"type":"Feature"},
	{"geometry":{"coordinates":[-0.828268,51.72267],"type":"Point"},"properties":{"osm_id":"5589116576","tag":{"amenity":"waste_basket","waste":"trash"}},"type":"Feature"},
	{"geometry":{"coordinates":[-0.828037,51.722905],"type":"Point"},"properties":{"osm_id":"5589116577","tag":{"amenity":"waste_basket","waste":"trash"}},"type":"Feature"},
	{"geometry":{"coordinates":[-0.828084,51.722859],"type":"Point"},"properties":{"osm_id":"5589116578","tag":{"amenity":"waste_basket","waste":"trash"}},"type":"Feature"},
	{"geometry":{"coordinates":[-0.831671,51.726376],"type":"Point"},"properties":{"osm_id":"5589116756","tag":{"amenity":"waste_basket","waste":"dog_excrement"}},"type":"Feature"},
	{"geometry":{"coordinates":[-0.837207,51.724957],"type":"Point"},"properties":{"osm_id":"5599414278","tag":{"amenity":"waste_basket","waste":"trash"}},"type":"Feature"},
	{"geometry":{"coordinates":[-0.827864,51.723892],"type":"Point"},"properties":{"osm_id":"5599414290","tag":{"amenity":"waste_basket","waste":"trash"}},"type":"Feature"},
	{"geometry":{"coordinates":[-0.826863,51.724313],"type":"Point"},"properties":{"osm_id":"5599414291","tag":{"amenity":"waste_basket","waste":"trash"}},"type":"Feature"},
	{"geometry":{"coordinates":[-0.826397,51.724698],"type":"Point"},"properties":{"osm_id":"5599414292","tag":{"amenity":"waste_basket","waste":"trash"}},"type":"Feature"},
	{"geometry":{"coordinates":[-0.828176,51.721103],"type":"Point"},"properties":{"osm_id":"5612608542","tag":{"amenity":"waste_basket","waste":"dog_excrement"}},"type":"Feature"},
	{"geometry":{"coordinates":[-0.826126,51.721186],"type":"Point"},"properties":{"osm_id":"5612608543","tag":{"amenity":"waste_basket","waste":"trash"}},"type":"Feature"},
	{"geometry":{"coordinates":[-0.826067,51.721359],"type":"Point"},"properties":{"osm_id":"5612608544","tag":{"amenity":"waste_basket","waste":"dog_excrement"}},"type":"Feature"},
	{"geometry":{"coordinates":[-0.826629,51.721908],"type":"Point"},"properties":{"osm_id":"5612608545","tag":{"amenity":"waste_basket","waste":"dog_excrement"}},"type":"Feature"},
	{"geometry":{"coordinates":[-0.833828,51.72599],"type":"Point"},"properties":{"osm_id":"5638563357","tag":{"amenity":"recycling","recycling:clothes":"yes","recycling_type":"container"}},"type":"Feature"},
	{"geometry":{"coordinates":[-0.830153,51.721378],"type":"Point"},"properties":{"osm_id":"5638563390","tag":{"amenity":"waste_basket","waste":"trash"}},"type":"Feature"},
	{"geometry":{"coordinates":[-0.82688,51.719561],"type":"Point"},"properties":{"osm_id":"5638563439","tag":{"amenity":"waste_basket","waste":"trash"}},"type":"Feature"},
	{"geometry":{"coordinates":[-0.82268,51.722579],"type":"Point"},"properties":{"osm_id":"5638563442","tag":{"amenity":"waste_basket","waste":"dog_excrement"}},"type":"Feature"},
	{"geometry":{"coordinates":[-0.86243,51.681886],"type":"Point"},"properties":{"osm_id":"5644690838","tag":{"amenity":"waste_basket","waste":"trash"}},"type":"Feature"},
	{"geometry":{"coordinates":[-0.87817,51.711902],"type":"Point"},"properties":{"osm_id":"5644691177","tag":{"amenity":"waste_basket","waste":"trash"}},"type":"Feature"},
	{"geometry":{"coordinates":[-0.844245,51.71773],"type":"Point"},"properties":{"osm_id":"5654728710","tag":{"amenity":"waste_basket","waste":"trash"}},"type":"Feature"},
	{"geometry":{"coordinates":[-0.866709,51.68853],"type":"Point"},"properties":{"osm_id":"5695511042","tag":{"amenity":"recycling","recycling:bulky_waste":"yes","recycling_type":"container"}},"type":"Feature"},
	{"geometry":{"coordinates":[-0.866857,51.6883],"type":"Point"},"properties":{"osm_id":"5695511043","tag":{"amenity":"recycling","recycling:clothes":"yes","recycling_type":"container"}},"type":"Feature"},
	{"geometry":{"coordinates":[-0.86682,51.688367],"type":"Point"},"properties":{"osm_id":"5695511044","tag":{"amenity":"recycling","recycling:cardboard":"yes","recycling_type":"container"}},"type":"Feature"},
	{"geometry":{"coordinates":[-0.866786,51.688425],"type":"Point"},"properties":{"osm_id":"5695511045","tag":{"amenity":"recycling","recycling:paper":"yes","recycling_type":"container"}},"type":"Feature"},
	{"geometry":{"coordinates":[-0.866744,51.688476],"type":"Point"},"properties":{"osm_id":"5695511046","tag":{"amenity":"recycling","recycling:waste":"yes","recycling_type":"container"}},"type":"Feature"},
	{"geometry":{"coordinates":[-0.86667,51.688579],"type":"Point"},"properties":{"osm_id":"5695511047","tag":{"amenity":"recycling","recycling:green_waste":"yes","recycling_type":"container"}},"type":"Feature"},
	{"geometry":{"coordinates":[-0.866537,51.688355],"type":"Point"},"properties":{"osm_id":"5695511048","tag":{"amenity":"recycling","recycling:tv_monitor":"yes","recycling_type":"container"}},"type":"Feature"},
	{"geometry":{"coordinates":[-0.866561,51.68838],"type":"Point"},"properties":{"osm_id":"5695511049","tag":{"amenity":"recycling","recycling:mobile_phones":"yes","recycling_type":"container"}},"type":"Feature"},
	{"geometry":{"coordinates":[-0.866572,51.688366],"type":"Point"},"properties":{"osm_id":"5695511050","tag":{"amenity":"recycling","recycling:printer_cartridges":"yes","recycling_type":"container"}},"type":"Feature"},
	{"geometry":{"coordinates":[-0.866567,51.688323],"type":"Point"},"properties":{"osm_id":"5695511052","tag":{"amenity":"recycling","recycling:soil":"yes","recycling_type":"container"}},"type":"Feature"},
	{"geometry":{"coordinates":[-0.866586,51.688298],"type":"Point"},"properties":{"osm_id":"5695511053","tag":{"amenity":"recycling","recycling:hardcore":"yes","recycling:rubble":"yes","recycling_type":"container"}},"type":"Feature"},
	{"geometry":{"coordinates":[-0.866692,51.688231],"type":"Point"},"properties":{"osm_id":"5695511054","tag":{"amenity":"recycling","recycling:gas_bottles":"yes","recycling_type":"container"}},"type":"Feature"},
	{"geometry":{"coordinates":[-0.866658,51.688244],"type":"Point"},"properties":{"osm_id":"5695511055","tag":{"amenity":"recycling","recycling:car_batteries":"yes","recycling_type":"container"}},"type":"Feature"},
	{"geometry":{"coordinates":[-0.866636,51.688264],"type":"Point"},"properties":{"osm_id":"5695511056","tag":{"amenity":"recycling","recycling:batteries":"yes","recycling_type":"container"}},"type":"Feature"},
	{"geometry":{"coordinates":[-0.866422,51.688515],"type":"Point"},"properties":{"osm_id":"5695511057","tag":{"amenity":"recycling","recycling:cooking_oil":"yes","recycling_type":"container"}},"type":"Feature"},
	{"geometry":{"coordinates":[-0.866415,51.688538],"type":"Point"},"properties":{"osm_id":"5695511058","tag":{"amenity":"recycling","recycling:engine_oil":"yes","recycling_type":"container"}},"type":"Feature"},
	{"geometry":{"coordinates":[-0.866631,51.688641],"type":"Point"},"properties":{"osm_id":"5695511059","tag":{"amenity":"recycling","recycling:man_made_wood":"yes","recycling_type":"container"}},"type":"Feature"},
	{"geometry":{"coordinates":[-0.866593,51.688639],"type":"Point"},"properties":{"osm_id":"5695511060","tag":{"amenity":"recycling","recycling:wood":"yes","recycling_type":"container"}},"type":"Feature"},
	{"geometry":{"coordinates":[-0.866552,51.688637],"type":"Point"},"properties":{"osm_id":"5695511061","tag":{"amenity":"recycling","recycling:cardboard":"yes","recycling_type":"container"}},"type":"Feature"},
	{"geometry":{"coordinates":[-0.86651,51.688638],"type":"Point"},"properties":{"osm_id":"5695511062","tag":{"amenity":"recycling","recycling:scrap_metal":"yes","recycling_type":"container"}},"type":"Feature"},
	{"geometry":{"coordinates":[-0.866467,51.68864],"type":"Point"},"properties":{"osm_id":"5695511063","tag":{"amenity":"recycling","recycling":"white_goods","recycling_type":"container"}},"type":"Feature"},
	{"geometry":{"coordinates":[-0.804223,51.691934],"type":"Point"},"properties":{"osm_id":"5797017179","tag":{"amenity":"waste_basket","waste":"trash"}},"type":"Feature"},
	{"geometry":{"coordinates":[-0.837406,51.708773],"type":"Point"},"properties":{"osm_id":"5806927586","tag":{"amenity":"waste_basket","waste":"trash"}},"type":"Feature"},
	{"geometry":{"coordinates":[-0.83447,51.709849],"type":"Point"},"properties":{"osm_id":"5806927593","tag":{"amenity":"waste_basket","waste":"trash"}},"type":"Feature"},
	{"geometry":{"coordinates":[-0.844251,51.717934],"type":"Point"},"properties":{"osm_id":"5926543707","tag":{"amenity":"waste_basket","waste":"trash"}},"type":"Feature"}
]
}
