{
"type": "FeatureCollection",
"features": [
	{"geometry":{"coordinates":[-0.846321,51.338443],"type":"Point"},"properties":{"osm_id":"410221235","tag":{"amenity":"recycling","recycling:glass_bottles":"yes","recycling:magazines":"yes","recycling:shoes":"yes"}},"type":"Feature"},
	{"geometry":{"coordinates":[-0.82359,51.294696],"type":"Point"},"properties":{"name":"Recycling Bank","osm_id":"1770689936","tag":{"amenity":"recycling","recycling_type":"container"}},"type":"Feature"},
	{"geometry":{"coordinates":[-0.8223,51.295187],"type":"Point"},"properties":{"osm_id":"3545088193","tag":{"amenity":"waste_basket"}},"type":"Feature"},
	{"geometry":{"coordinates":[-0.858047,51.290519],"type":"Point"},"properties":{"osm_id":"4253527426","tag":{"amenity":"waste_basket"}},"type":"Feature"},
	{"geometry":{"coordinates":[-0.857619,51.290572],"type":"Point"},"properties":{"osm_id":"4253527445","tag":{"amenity":"waste_basket"}},"type":"Feature"},
	{"geometry":{"coordinates":[-0.857474,51.290598],"type":"Point"},"properties":{"osm_id":"4253527448","tag":{"amenity":"waste_basket"}},"type":"Feature"},
	{"geometry":{"coordinates":[-0.831904,51.29048],"type":"Point"},"properties":{"osm_id":"5748574546","tag":{"amenity":"recycling","recycling_type":"container"}},"type":"Feature"},
	{"geometry":{"coordinates":[-0.831732,51.292924],"type":"Point"},"properties":{"osm_id":"5757352916","tag":{"amenity":"waste_basket"}},"type":"Feature"}
]
}
