{
"type": "FeatureCollection",
"features": [
	{"geometry":{"coordinates":[-0.816393,49.2641],"type":"Point"},"properties":{"osm_id":"7810323898","tag":{"amenity":"recycling","recycling:bottles":"yes","recycling:cartons":"yes","recycling:glass":"yes","recycling:paper_packaging":"yes"}},"type":"Feature"},
	{"geometry":{"coordinates":[-0.857637,49.251808],"type":"Point"},"properties":{"osm_id":"8193839620","tag":{"amenity":"recycling","recycling_type":"container"}},"type":"Feature"},
	{"geometry":{"coordinates":[-0.869399,49.240822],"type":"Point"},"properties":{"osm_id":"8196061020","tag":{"amenity":"recycling","operator":"Ville du Molay-Littry","recycling_type":"container"}},"type":"Feature"},
	{"geometry":{"coordinates":[-0.874697,49.22724],"type":"Point"},"properties":{"name":"D\u00c3\u00a9ch\u00c3\u00a8terie du Molay-Littry","osm_id":"8280546867","tag":{"addr:city":"Le Molay-Littry","addr:postcode":"14330","addr:street":"Rue des Mesliers","amenity":"recycling","recycling_type":"centre"}},"type":"Feature"},
	{"geometry":{"coordinates":[-0.873657,49.242926],"type":"Point"},"properties":{"osm_id":"8566928278","tag":{"amenity":"waste_disposal"}},"type":"Feature"},
	{"geometry":{"coordinates":[-0.874874,49.227359],"type":"Point"},"properties":{"osm_id":"8632064109","tag":{"amenity":"recycling","recycling_type":"centre"}},"type":"Feature"},
	{"geometry":{"coordinates":[-0.874882,49.227342],"type":"Point"},"properties":{"osm_id":"8632064110","tag":{"amenity":"recycling","recycling_type":"centre"}},"type":"Feature"},
	{"geometry":{"coordinates":[-0.8749,49.227325],"type":"Point"},"properties":{"osm_id":"8632064111","tag":{"amenity":"recycling","recycling_type":"centre"}},"type":"Feature"},
	{"geometry":{"coordinates":[-0.874911,49.22731],"type":"Point"},"properties":{"osm_id":"8632064112","tag":{"amenity":"recycling","recycling_type":"centre"}},"type":"Feature"},
	{"geometry":{"coordinates":[-0.874924,49.227296],"type":"Point"},"properties":{"osm_id":"8632064113","tag":{"amenity":"recycling","recycling_type":"centre"}},"type":"Feature"},
	{"geometry":{"coordinates":[-0.874928,49.227279],"type":"Point"},"properties":{"osm_id":"8632064114","tag":{"amenity":"recycling","recycling_type":"centre"}},"type":"Feature"}
]
}
