{
"type": "FeatureCollection",
"features": [
	{"geometry":{"coordinates":[-0.848854,46.920157],"type":"Point"},"properties":{"osm_id":"4302540191","tag":{"amenity":"recycling","recycling:clothes":"yes","recycling:glass_bottles":"yes","recycling:paper":"yes","recycling_type":"container"}},"type":"Feature"},
	{"geometry":{"coordinates":[-0.865,46.912417],"type":"Point"},"properties":{"osm_id":"4303024312","tag":{"amenity":"recycling","recycling_type":"container"}},"type":"Feature"},
	{"geometry":{"coordinates":[-0.867179,46.910064],"type":"Point"},"properties":{"osm_id":"4306417099","tag":{"amenity":"recycling"}},"type":"Feature"},
	{"geometry":{"coordinates":[-0.800077,46.87003],"type":"Point"},"properties":{"osm_id":"5859584086","tag":{"addr:city":"Saint-Amand-sur-S\u00e8vre","addr:street":"Boulevard Maumusson","amenity":"recycling","phone":"+33 5 49 81 72 07","recycling:cardboard":"yes","recycling:glass_bottles":"yes","recycling:newspaper":"yes","recycling:paper":"yes","recycling:plastic_bottles":"yes","recycling_type":"container","website":"https://www.agglo2b.fr/index.php/environnement/dechets/les-dechetteries/dechetterie-saint-amand-sur-sevre"}},"type":"Feature"},
	{"geometry":{"coordinates":[-0.800056,46.87019],"type":"Point"},"properties":{"osm_id":"5859618403","tag":{"entrance":"main"}},"type":"Feature"},
	{"geometry":{"coordinates":[-0.848478,46.920226],"type":"Point"},"properties":{"osm_id":"6808282189","tag":{"amenity":"waste_basket","waste":"trash"}},"type":"Feature"},
	{"geometry":{"coordinates":[-0.79558,46.868521],"type":"Point"},"properties":{"osm_id":"6815011065","tag":{"amenity":"waste_basket","waste":"trash"}},"type":"Feature"},
	{"geometry":{"coordinates":[-0.793267,46.868624],"type":"Point"},"properties":{"osm_id":"6815011129","tag":{"amenity":"waste_basket","waste":"trash"}},"type":"Feature"}
]
}
