{
"type": "FeatureCollection",
"features": [
	{"geometry":{"coordinates":[-0.796018,43.824131],"type":"Point"},"properties":{"osm_id":"4306300192","tag":{"amenity":"waste_disposal","waste":"trash"}},"type":"Feature"},
	{"geometry":{"coordinates":[-0.83323,43.82968],"type":"Point"},"properties":{"osm_id":"4314511091","tag":{"amenity":"waste_basket"}},"type":"Feature"},
	{"geometry":{"coordinates":[-0.812636,43.824731],"type":"Point"},"properties":{"osm_id":"4315439991","tag":{"amenity":"waste_disposal"}},"type":"Feature"},
	{"geometry":{"coordinates":[-0.807884,43.822197],"type":"Point"},"properties":{"name":"Lacay","osm_id":"4315498990","tag":{"amenity":"recycling","location":"overground","operator":"SIETOM de Chalosse","recycling:beverage_carton":"yes","recycling:glass_bottles":"yes","recycling:paper":"yes","recycling:plastic_bottles":"yes","recycling_type":"container"}},"type":"Feature"},
	{"geometry":{"coordinates":[-0.803814,43.82853],"type":"Point"},"properties":{"osm_id":"4315501092","tag":{"amenity":"waste_disposal"}},"type":"Feature"},
	{"geometry":{"coordinates":[-0.807339,43.830081],"type":"Point"},"properties":{"osm_id":"4315501389","tag":{"amenity":"waste_disposal"}},"type":"Feature"},
	{"geometry":{"coordinates":[-0.809421,43.83448],"type":"Point"},"properties":{"osm_id":"4319958095","tag":{"amenity":"waste_disposal"}},"type":"Feature"},
	{"geometry":{"coordinates":[-0.808665,43.832456],"type":"Point"},"properties":{"osm_id":"4682978391","tag":{"amenity":"waste_basket"}},"type":"Feature"},
	{"geometry":{"coordinates":[-0.808845,43.832571],"type":"Point"},"properties":{"osm_id":"4682978392","tag":{"amenity":"waste_disposal"}},"type":"Feature"},
	{"geometry":{"coordinates":[-0.809408,43.832487],"type":"Point"},"properties":{"osm_id":"4683008989","tag":{"amenity":"waste_basket"}},"type":"Feature"},
	{"geometry":{"coordinates":[-0.798394,43.825779],"type":"Point"},"properties":{"osm_id":"4685086489","tag":{"amenity":"waste_disposal"}},"type":"Feature"},
	{"geometry":{"coordinates":[-0.801851,43.828789],"type":"Point"},"properties":{"osm_id":"4914042421","tag":{"amenity":"waste_basket"}},"type":"Feature"},
	{"geometry":{"coordinates":[-0.801781,43.829445],"type":"Point"},"properties":{"osm_id":"4914042422","tag":{"amenity":"waste_disposal","operator":"Sietom de Chalosse"}},"type":"Feature"},
	{"geometry":{"coordinates":[-0.798322,43.825773],"type":"Point"},"properties":{"osm_id":"4933697421","tag":{"amenity":"waste_disposal"}},"type":"Feature"},
	{"geometry":{"coordinates":[-0.813229,43.830299],"type":"Point"},"properties":{"name":"All\u00c3\u00a9es Marines","osm_id":"4945782729","tag":{"amenity":"recycling","operator":"SIETOM de Chalosse","recycling:glass_bottles":"yes","recycling:magazines":"yes","recycling:paper":"yes","recycling:paper_packaging":"yes","recycling_type":"container"}},"type":"Feature"},
	{"geometry":{"coordinates":[-0.84592,43.816908],"type":"Point"},"properties":{"name":"Lou Basta","osm_id":"4947288322","tag":{"amenity":"recycling","operator":"SIETOM de Chalosse","recycling:beverage_carton":"yes","recycling:glass_bottles":"yes","recycling:paper":"yes","recycling:plastic_bottles":"yes","recycling_type":"container"}},"type":"Feature"},
	{"geometry":{"coordinates":[-0.807033,43.832357],"type":"Point"},"properties":{"osm_id":"6003121885","tag":{"amenity":"waste_basket"}},"type":"Feature"},
	{"geometry":{"coordinates":[-0.808807,43.833361],"type":"Point"},"properties":{"osm_id":"6003178187","tag":{"amenity":"waste_basket"}},"type":"Feature"},
	{"geometry":{"coordinates":[-0.801978,43.827009],"type":"Point"},"properties":{"osm_id":"7393574309","tag":{"amenity":"recycling","operator":"SIETOM","recycling_type":"container"}},"type":"Feature"}
]
}
