{
"type": "FeatureCollection",
"features": [
	{"geometry":{"coordinates":[-0.834413,43.709853],"type":"Point"},"properties":{"osm_id":"7399401207","tag":{"amenity":"recycling","recycling:clothes":"yes","recycling:shoes":"yes","recycling_type":"container"}},"type":"Feature"},
	{"geometry":{"coordinates":[-0.834345,43.7098],"type":"Point"},"properties":{"osm_id":"7399401208","tag":{"amenity":"recycling","recycling:cardboard":"yes","recycling:paper":"yes","recycling_type":"container"}},"type":"Feature"},
	{"geometry":{"coordinates":[-0.83437,43.70982],"type":"Point"},"properties":{"osm_id":"7399401209","tag":{"amenity":"recycling","recycling:cans":"yes","recycling:plastic_bottles":"yes","recycling:plastic_packaging":"no","recycling_type":"container"}},"type":"Feature"},
	{"geometry":{"coordinates":[-0.834394,43.709838],"type":"Point"},"properties":{"osm_id":"7399401210","tag":{"amenity":"recycling","recycling:glass":"yes","recycling_type":"container"}},"type":"Feature"},
	{"geometry":{"coordinates":[-0.836295,43.711468],"type":"Point"},"properties":{"osm_id":"7401530321","tag":{"amenity":"waste_basket"}},"type":"Feature"},
	{"geometry":{"coordinates":[-0.839808,43.709927],"type":"Point"},"properties":{"osm_id":"7728780975","tag":{"access":"private","amenity":"recycling","recycling:garden_waste":"yes","recycling:green_waste":"yes","recycling_type":"centre"}},"type":"Feature"},
	{"geometry":{"coordinates":[-0.839905,43.711414],"type":"Point"},"properties":{"osm_id":"7834481384","tag":{"amenity":"waste_basket"}},"type":"Feature"},
	{"geometry":{"coordinates":[-0.8404,43.711713],"type":"Point"},"properties":{"osm_id":"7834492086","tag":{"amenity":"recycling","recycling:glass_bottles":"yes","recycling_type":"container"}},"type":"Feature"},
	{"geometry":{"coordinates":[-0.838986,43.712022],"type":"Point"},"properties":{"osm_id":"7834492089","tag":{"amenity":"waste_basket"}},"type":"Feature"},
	{"geometry":{"coordinates":[-0.839648,43.712059],"type":"Point"},"properties":{"osm_id":"7834492094","tag":{"amenity":"waste_basket"}},"type":"Feature"},
	{"geometry":{"coordinates":[-0.839935,43.711769],"type":"Point"},"properties":{"osm_id":"7834492095","tag":{"amenity":"waste_basket"}},"type":"Feature"},
	{"geometry":{"coordinates":[-0.838604,43.711348],"type":"Point"},"properties":{"osm_id":"7834492099","tag":{"amenity":"waste_basket"}},"type":"Feature"},
	{"geometry":{"coordinates":[-0.834662,43.714947],"type":"Point"},"properties":{"osm_id":"7834492141","tag":{"amenity":"waste_basket"}},"type":"Feature"},
	{"geometry":{"coordinates":[-0.834663,43.714944],"type":"Point"},"properties":{"osm_id":"7834492142","tag":{"amenity":"recycling","recycling:batteries":"yes","recycling_type":"container"}},"type":"Feature"},
	{"geometry":{"coordinates":[-0.834677,43.714979],"type":"Point"},"properties":{"osm_id":"7834492143","tag":{"amenity":"waste_disposal","waste":"caps"}},"type":"Feature"},
	{"geometry":{"coordinates":[-0.834725,43.714984],"type":"Point"},"properties":{"osm_id":"7834492144","tag":{"amenity":"recycling","recycling:glass_bottles":"yes","recycling_type":"container"}},"type":"Feature"},
	{"geometry":{"coordinates":[-0.834699,43.714972],"type":"Point"},"properties":{"osm_id":"7834492145","tag":{"amenity":"recycling","recycling:beverage_cartons":"yes","recycling:magazines":"yes","recycling:newspaper":"yes","recycling:paper":"yes","recycling_type":"container"}},"type":"Feature"},
	{"geometry":{"coordinates":[-0.834671,43.714963],"type":"Point"},"properties":{"osm_id":"7834492146","tag":{"amenity":"recycling","recycling:cans":"yes","recycling:plastic_bottles":"yes","recycling:plastic_packaging":"yes","recycling_type":"container"}},"type":"Feature"},
	{"geometry":{"coordinates":[-0.834644,43.714934],"type":"Point"},"properties":{"osm_id":"7834492147","tag":{"amenity":"waste_disposal"}},"type":"Feature"},
	{"geometry":{"coordinates":[-0.840701,43.708915],"type":"Point"},"properties":{"osm_id":"7834492177","tag":{"amenity":"recycling","recycling:batteries":"yes","recycling:glass_bottles":"yes","recycling_type":"container"}},"type":"Feature"},
	{"geometry":{"coordinates":[-0.840705,43.708908],"type":"Point"},"properties":{"osm_id":"7834492178","tag":{"amenity":"waste_basket"}},"type":"Feature"},
	{"geometry":{"coordinates":[-0.840647,43.708919],"type":"Point"},"properties":{"osm_id":"7834492179","tag":{"amenity":"waste_basket","description":"R\u00c3\u00a9cup\u00c3\u00a9ration de bouchon","waste":"caps"}},"type":"Feature"},
	{"geometry":{"coordinates":[-0.840622,43.70891],"type":"Point"},"properties":{"osm_id":"7834492181","tag":{"amenity":"recycling","recycling:cans":"yes","recycling:plastic_bottles":"yes","recycling:plastic_packaging":"yes","recycling_type":"container"}},"type":"Feature"},
	{"geometry":{"coordinates":[-0.840647,43.70891],"type":"Point"},"properties":{"osm_id":"7834492182","tag":{"amenity":"recycling","recycling:beverage_cartons":"yes","recycling:magazines":"yes","recycling:newspaper":"yes","recycling:paper":"yes","recycling_type":"container"}},"type":"Feature"},
	{"geometry":{"coordinates":[-0.840678,43.70891],"type":"Point"},"properties":{"osm_id":"7834492183","tag":{"amenity":"recycling","recycling:glass_bottles":"yes","recycling_type":"container"}},"type":"Feature"},
	{"geometry":{"coordinates":[-0.837913,43.709399],"type":"Point"},"properties":{"osm_id":"7834492216","tag":{"amenity":"waste_basket"}},"type":"Feature"},
	{"geometry":{"coordinates":[-0.836288,43.710719],"type":"Point"},"properties":{"osm_id":"7881713715","tag":{"amenity":"waste_disposal"}},"type":"Feature"},
	{"geometry":{"coordinates":[-0.836489,43.71159],"type":"Point"},"properties":{"osm_id":"7881713729","tag":{"amenity":"waste_basket"}},"type":"Feature"},
	{"geometry":{"coordinates":[-0.839396,43.710697],"type":"Point"},"properties":{"osm_id":"7881713740","tag":{"amenity":"waste_basket"}},"type":"Feature"},
	{"geometry":{"coordinates":[-0.839721,43.710599],"type":"Point"},"properties":{"osm_id":"7881713748","tag":{"amenity":"waste_basket"}},"type":"Feature"},
	{"geometry":{"coordinates":[-0.83993,43.714807],"type":"Point"},"properties":{"osm_id":"8071355363","tag":{"amenity":"waste_basket"}},"type":"Feature"},
	{"geometry":{"coordinates":[-0.840794,43.715462],"type":"Point"},"properties":{"osm_id":"8071355366","tag":{"amenity":"waste_basket"}},"type":"Feature"},
	{"geometry":{"coordinates":[-0.841182,43.715747],"type":"Point"},"properties":{"osm_id":"8071355367","tag":{"amenity":"waste_basket","material":"wood"}},"type":"Feature"},
	{"geometry":{"coordinates":[-0.87284,43.717663],"type":"Point"},"properties":{"osm_id":"8475014886","tag":{"amenity":"recycling","recycling_type":"container"}},"type":"Feature"},
	{"geometry":{"coordinates":[-0.815208,43.754253],"type":"Point"},"properties":{"osm_id":"8475473134","tag":{"amenity":"recycling","operator":"SIETOM","recycling:cartons":"yes","recycling:glass_bottles":"yes","recycling:paper":"yes","recycling:plastic":"yes","recycling:plastic_bottles":"yes","recycling_type":"container"}},"type":"Feature"},
	{"geometry":{"coordinates":[-0.838334,43.757186],"type":"Point"},"properties":{"osm_id":"8475476803","tag":{"amenity":"recycling","recycling_type":"container"}},"type":"Feature"},
	{"geometry":{"coordinates":[-0.799599,43.711085],"type":"Point"},"properties":{"osm_id":"8475947711","tag":{"amenity":"recycling","recycling_type":"container"}},"type":"Feature"},
	{"geometry":{"coordinates":[-0.836546,43.711431],"type":"Point"},"properties":{"osm_id":"8500949283","tag":{"amenity":"recycling","capacity":"3","recycling:green_waste":"yes","recycling:organic":"yes","recycling_type":"container"}},"type":"Feature"},
	{"geometry":{"coordinates":[-0.814715,43.755102],"type":"Point"},"properties":{"osm_id":"8511408258","tag":{"amenity":"waste_basket"}},"type":"Feature"},
	{"geometry":{"coordinates":[-0.815011,43.754987],"type":"Point"},"properties":{"osm_id":"8511408266","tag":{"amenity":"waste_basket","material":"wood"}},"type":"Feature"},
	{"geometry":{"coordinates":[-0.815275,43.754985],"type":"Point"},"properties":{"osm_id":"8511408267","tag":{"amenity":"waste_basket","material":"wood"}},"type":"Feature"},
	{"geometry":{"coordinates":[-0.814478,43.754836],"type":"Point"},"properties":{"osm_id":"8511408274","tag":{"amenity":"waste_basket"}},"type":"Feature"},
	{"geometry":{"coordinates":[-0.800245,43.727859],"type":"Point"},"properties":{"osm_id":"8520050311","tag":{"amenity":"waste_basket","colour":"brown","material":"wood"}},"type":"Feature"},
	{"geometry":{"coordinates":[-0.814446,43.755837],"type":"Point"},"properties":{"osm_id":"8522266523","tag":{"amenity":"waste_basket","material":"plastic"}},"type":"Feature"},
	{"geometry":{"coordinates":[-0.872882,43.73491],"type":"Point"},"properties":{"osm_id":"8524675714","tag":{"amenity":"recycling","operator":"SIETOM","recycling:cartons":"yes","recycling:clothes":"yes","recycling:glass":"yes","recycling:glass_bottles":"yes","recycling:paper":"yes","recycling:plastic":"yes","recycling:plastic_bottles":"yes","recycling_type":"container"}},"type":"Feature"},
	{"geometry":{"coordinates":[-0.814196,43.755045],"type":"Point"},"properties":{"osm_id":"8531452595","tag":{"amenity":"waste_basket"}},"type":"Feature"},
	{"geometry":{"coordinates":[-0.839866,43.711981],"type":"Point"},"properties":{"osm_id":"8549313929","tag":{"amenity":"waste_basket","colour":"grey","material":"metal"}},"type":"Feature"},
	{"geometry":{"coordinates":[-0.838528,43.71175],"type":"Point"},"properties":{"osm_id":"8549396875","tag":{"access":"yes","amenity":"waste_disposal"}},"type":"Feature"},
	{"geometry":{"coordinates":[-0.839407,43.712038],"type":"Point"},"properties":{"osm_id":"8549423457","tag":{"access":"yes","amenity":"waste_disposal"}},"type":"Feature"},
	{"geometry":{"coordinates":[-0.837834,43.711812],"type":"Point"},"properties":{"osm_id":"8549494775","tag":{"access":"yes","amenity":"waste_disposal"}},"type":"Feature"},
	{"geometry":{"coordinates":[-0.837052,43.71158],"type":"Point"},"properties":{"osm_id":"8549495224","tag":{"access":"yes","amenity":"waste_disposal"}},"type":"Feature"},
	{"geometry":{"coordinates":[-0.84016,43.711229],"type":"Point"},"properties":{"osm_id":"8549665080","tag":{"amenity":"waste_basket","colour":"grey","material":"metal"}},"type":"Feature"},
	{"geometry":{"coordinates":[-0.840486,43.711684],"type":"Point"},"properties":{"osm_id":"8549696789","tag":{"access":"yes","amenity":"waste_disposal"}},"type":"Feature"},
	{"geometry":{"coordinates":[-0.839981,43.710912],"type":"Point"},"properties":{"osm_id":"8549723060","tag":{"amenity":"waste_basket","colour":"grey","material":"metal"}},"type":"Feature"},
	{"geometry":{"coordinates":[-0.839329,43.710875],"type":"Point"},"properties":{"osm_id":"8549759039","tag":{"amenity":"waste_basket","colour":"grey","material":"metal"}},"type":"Feature"},
	{"geometry":{"coordinates":[-0.859995,43.761025],"type":"Point"},"properties":{"osm_id":"8598759270","tag":{"amenity":"waste_basket"}},"type":"Feature"},
	{"geometry":{"coordinates":[-0.860325,43.758789],"type":"Point"},"properties":{"osm_id":"8598793016","tag":{"amenity":"waste_basket"}},"type":"Feature"},
	{"geometry":{"coordinates":[-0.860145,43.758571],"type":"Point"},"properties":{"osm_id":"8598808717","tag":{"amenity":"waste_basket","material":"wood"}},"type":"Feature"},
	{"geometry":{"coordinates":[-0.859544,43.758775],"type":"Point"},"properties":{"osm_id":"8598808719","tag":{"amenity":"waste_basket"}},"type":"Feature"},
	{"geometry":{"coordinates":[-0.860346,43.759309],"type":"Point"},"properties":{"osm_id":"8598808721","tag":{"amenity":"waste_basket"}},"type":"Feature"},
	{"geometry":{"coordinates":[-0.861072,43.7584],"type":"Point"},"properties":{"osm_id":"8598838241","tag":{"amenity":"waste_basket"}},"type":"Feature"},
	{"geometry":{"coordinates":[-0.860484,43.759785],"type":"Point"},"properties":{"osm_id":"8599154362","tag":{"amenity":"waste_disposal"}},"type":"Feature"},
	{"geometry":{"coordinates":[-0.860648,43.756216],"type":"Point"},"properties":{"osm_id":"8599187937","tag":{"amenity":"waste_disposal"}},"type":"Feature"},
	{"geometry":{"coordinates":[-0.860624,43.760291],"type":"Point"},"properties":{"osm_id":"8599189728","tag":{"amenity":"waste_disposal"}},"type":"Feature"},
	{"geometry":{"coordinates":[-0.861907,43.762712],"type":"Point"},"properties":{"osm_id":"8599196905","tag":{"amenity":"waste_disposal"}},"type":"Feature"},
	{"geometry":{"coordinates":[-0.862077,43.761698],"type":"Point"},"properties":{"osm_id":"8599209739","tag":{"amenity":"waste_disposal"}},"type":"Feature"},
	{"geometry":{"coordinates":[-0.857872,43.763693],"type":"Point"},"properties":{"osm_id":"8599221530","tag":{"amenity":"waste_disposal"}},"type":"Feature"},
	{"geometry":{"coordinates":[-0.85831,43.76177],"type":"Point"},"properties":{"osm_id":"8599240753","tag":{"amenity":"waste_disposal"}},"type":"Feature"},
	{"geometry":{"coordinates":[-0.859353,43.761666],"type":"Point"},"properties":{"osm_id":"8599264533","tag":{"amenity":"waste_disposal"}},"type":"Feature"},
	{"geometry":{"coordinates":[-0.796959,43.756727],"type":"Point"},"properties":{"osm_id":"8655972295","tag":{"amenity":"waste_disposal"}},"type":"Feature"},
	{"geometry":{"coordinates":[-0.796975,43.75673],"type":"Point"},"properties":{"osm_id":"8655972296","tag":{"amenity":"waste_disposal"}},"type":"Feature"},
	{"geometry":{"coordinates":[-0.796992,43.756728],"type":"Point"},"properties":{"osm_id":"8655972297","tag":{"amenity":"waste_disposal"}},"type":"Feature"},
	{"geometry":{"coordinates":[-0.835881,43.756414],"type":"Point"},"properties":{"osm_id":"8725271389","tag":{"amenity":"waste_basket","material":"wood"}},"type":"Feature"},
	{"geometry":{"coordinates":[-0.825328,43.715118],"type":"Point"},"properties":{"osm_id":"9009495795","tag":{"amenity":"recycling","recycling_type":"container"}},"type":"Feature"}
]
}
