{
"type": "FeatureCollection",
"features": [
	{"geometry":{"coordinates":[-0.796598,41.76128],"type":"Point"},"properties":{"osm_id":"3834083863","tag":{"amenity":"waste_basket"}},"type":"Feature"},
	{"geometry":{"coordinates":[-0.796426,41.761247],"type":"Point"},"properties":{"osm_id":"3834083864","tag":{"amenity":"waste_basket"}},"type":"Feature"},
	{"geometry":{"coordinates":[-0.79634,41.761517],"type":"Point"},"properties":{"osm_id":"3834083867","tag":{"amenity":"waste_disposal"}},"type":"Feature"},
	{"geometry":{"coordinates":[-0.796504,41.761501],"type":"Point"},"properties":{"osm_id":"3842567349","tag":{"amenity":"waste_basket"}},"type":"Feature"},
	{"geometry":{"coordinates":[-0.798203,41.760688],"type":"Point"},"properties":{"osm_id":"4115136890","tag":{"amenity":"recycling","recycling:paper":"yes","recycling_type":"container"}},"type":"Feature"},
	{"geometry":{"coordinates":[-0.797798,41.761148],"type":"Point"},"properties":{"osm_id":"4115136891","tag":{"amenity":"recycling","recycling:cans":"yes","recycling:glass":"no","recycling:plastic":"yes","recycling:plastic_bottles":"yes","recycling:plastic_packaging":"yes","recycling_type":"container"}},"type":"Feature"},
	{"geometry":{"coordinates":[-0.798178,41.760684],"type":"Point"},"properties":{"osm_id":"4193433341","tag":{"amenity":"recycling","recycling:glass_bottles":"yes","recycling_type":"container"}},"type":"Feature"},
	{"geometry":{"coordinates":[-0.798226,41.760694],"type":"Point"},"properties":{"osm_id":"4193433342","tag":{"amenity":"waste_disposal","recycling:paper":"yes","recycling_type":"container"}},"type":"Feature"},
	{"geometry":{"coordinates":[-0.797807,41.761132],"type":"Point"},"properties":{"osm_id":"4193433353","tag":{"amenity":"waste_disposal","recycling:paper":"yes","recycling_type":"container"}},"type":"Feature"},
	{"geometry":{"coordinates":[-0.797084,41.762006],"type":"Point"},"properties":{"osm_id":"4193433372","tag":{"amenity":"recycling","recycling:paper":"yes","recycling_type":"container"}},"type":"Feature"},
	{"geometry":{"coordinates":[-0.797111,41.762013],"type":"Point"},"properties":{"osm_id":"4193433373","tag":{"amenity":"recycling","recycling:cans":"yes","recycling:glass":"no","recycling:plastic":"yes","recycling:plastic_bottles":"yes","recycling:plastic_packaging":"yes","recycling_type":"container"}},"type":"Feature"},
	{"geometry":{"coordinates":[-0.797138,41.76202],"type":"Point"},"properties":{"osm_id":"4193433374","tag":{"amenity":"recycling","recycling:glass_bottles":"yes","recycling_type":"container"}},"type":"Feature"},
	{"geometry":{"coordinates":[-0.797166,41.762025],"type":"Point"},"properties":{"osm_id":"4193433375","tag":{"amenity":"waste_disposal","recycling:paper":"yes","recycling_type":"container"}},"type":"Feature"},
	{"geometry":{"coordinates":[-0.794898,41.761487],"type":"Point"},"properties":{"osm_id":"4214914767","tag":{"amenity":"waste_disposal","recycling:paper":"yes","recycling_type":"container"}},"type":"Feature"},
	{"geometry":{"coordinates":[-0.794813,41.761483],"type":"Point"},"properties":{"osm_id":"4214914768","tag":{"amenity":"recycling","recycling:paper":"yes","recycling_type":"container"}},"type":"Feature"},
	{"geometry":{"coordinates":[-0.794838,41.761485],"type":"Point"},"properties":{"osm_id":"4214914769","tag":{"amenity":"recycling","recycling:cans":"yes","recycling:glass":"no","recycling:plastic":"yes","recycling:plastic_bottles":"yes","recycling:plastic_packaging":"yes","recycling_type":"container"}},"type":"Feature"},
	{"geometry":{"coordinates":[-0.794865,41.761487],"type":"Point"},"properties":{"osm_id":"4214914770","tag":{"amenity":"recycling","recycling:glass_bottles":"yes","recycling_type":"container"}},"type":"Feature"},
	{"geometry":{"coordinates":[-0.812205,41.723046],"type":"Point"},"properties":{"osm_id":"4325100030","tag":{"amenity":"waste_disposal"}},"type":"Feature"},
	{"geometry":{"coordinates":[-0.812217,41.723009],"type":"Point"},"properties":{"osm_id":"4325100031","tag":{"amenity":"waste_disposal"}},"type":"Feature"},
	{"geometry":{"coordinates":[-0.812083,41.723523],"type":"Point"},"properties":{"osm_id":"4326579904","tag":{"amenity":"waste_disposal"}},"type":"Feature"},
	{"geometry":{"coordinates":[-0.82124,41.769571],"type":"Point"},"properties":{"osm_id":"5286959675","tag":{"addr:city":"Villanueva de G\u00c3\u00a1llego","addr:postcode":"50830","addr:street":"Calle de Francisco Pradilla","amenity":"waste_disposal"}},"type":"Feature"},
	{"geometry":{"coordinates":[-0.821252,41.769542],"type":"Point"},"properties":{"osm_id":"5286959676","tag":{"addr:city":"Villanueva de G\u00c3\u00a1llego","addr:postcode":"50830","addr:street":"Calle de Francisco Pradilla","amenity":"waste_disposal"}},"type":"Feature"},
	{"geometry":{"coordinates":[-0.821245,41.769558],"type":"Point"},"properties":{"osm_id":"5286959677","tag":{"addr:city":"Villanueva de G\u00c3\u00a1llego","addr:postcode":"50830","addr:street":"Calle de Francisco Pradilla","amenity":"waste_disposal"}},"type":"Feature"},
	{"geometry":{"coordinates":[-0.82126,41.769527],"type":"Point"},"properties":{"osm_id":"5286959678","tag":{"addr:city":"Villanueva de G\u00c3\u00a1llego","addr:postcode":"50830","addr:street":"Calle de Francisco Pradilla","amenity":"recycling","recycling_type":"container"}},"type":"Feature"},
	{"geometry":{"coordinates":[-0.821261,41.769519],"type":"Point"},"properties":{"osm_id":"5286959679","tag":{"addr:city":"Villanueva de G\u00c3\u00a1llego","addr:postcode":"50830","addr:street":"Calle de Francisco Pradilla","amenity":"recycling","recycling_type":"container"}},"type":"Feature"},
	{"geometry":{"coordinates":[-0.821683,41.768715],"type":"Point"},"properties":{"name":"contenedor de papel","osm_id":"5286959844","tag":{"addr:postcode":"50830","amenity":"recycling","recycling_type":"container"}},"type":"Feature"},
	{"geometry":{"coordinates":[-0.821714,41.768728],"type":"Point"},"properties":{"osm_id":"5286959845","tag":{"addr:city":"Villanueva de G\u00c3\u00a1llego","addr:housenumber":"10","addr:postcode":"50830","addr:street":"Calle de Sancho Ramirez","amenity":"waste_disposal"}},"type":"Feature"},
	{"geometry":{"coordinates":[-0.821745,41.768741],"type":"Point"},"properties":{"osm_id":"5286959847","tag":{"addr:city":"Villanueva de G\u00c3\u00a1llego","addr:postcode":"50830","addr:street":"Calle de Sancho Ramirez","amenity":"waste_disposal"}},"type":"Feature"},
	{"geometry":{"coordinates":[-0.821667,41.768188],"type":"Point"},"properties":{"osm_id":"5288676214","tag":{"addr:city":"Villanueva de G\u00c3\u00a1llego","addr:postcode":"50830","addr:street":"Calle de Francisco Pradilla","amenity":"recycling","description":"Contenedor Ropa Usada","recycling_type":"container"}},"type":"Feature"},
	{"geometry":{"coordinates":[-0.821657,41.768188],"type":"Point"},"properties":{"osm_id":"5288676215","tag":{"addr:city":"Villanueva de G\u00c3\u00a1llego","addr:postcode":"50830","addr:street":"Calle de Francisco Pradilla","amenity":"recycling","description":"Contenedor Papel","recycling_type":"container"}},"type":"Feature"},
	{"geometry":{"coordinates":[-0.821645,41.768185],"type":"Point"},"properties":{"osm_id":"5288676216","tag":{"addr:city":"Villanueva de G\u00c3\u00a1llego","addr:postcode":"50830","addr:street":"Calle de Francisco Pradilla","amenity":"waste_disposal"}},"type":"Feature"},
	{"geometry":{"coordinates":[-0.821626,41.768183],"type":"Point"},"properties":{"osm_id":"5288676217","tag":{"addr:city":"Villanueva de G\u00c3\u00a1llego","addr:postcode":"50830","addr:street":"Calle de Francisco Pradilla","amenity":"recycling","description":"Contenedor de Pl\u00c3\u00a1stico","recycling_type":"container"}},"type":"Feature"},
	{"geometry":{"coordinates":[-0.821614,41.768181],"type":"Point"},"properties":{"osm_id":"5288676218","tag":{"addr:city":"Villanueva de G\u00c3\u00a1llego","addr:postcode":"50830","addr:street":"Calle de Francisco Pradilla","amenity":"recycling","description":"Contenedor de Vidrio","recycling_type":"container"}},"type":"Feature"},
	{"geometry":{"coordinates":[-0.821576,41.769748],"type":"Point"},"properties":{"osm_id":"5288886842","tag":{"addr:city":"Villanueva de G\u00c3\u00a1llego","addr:postcode":"50830","addr:street":"Calle Villa de Zuera","amenity":"waste_basket"}},"type":"Feature"},
	{"geometry":{"coordinates":[-0.821489,41.769739],"type":"Point"},"properties":{"osm_id":"5288886843","tag":{"addr:city":"Villanueva de G\u00c3\u00a1llego","addr:postcode":"50830","addr:street":"Calle Villa de Zuera","amenity":"waste_basket"}},"type":"Feature"},
	{"geometry":{"coordinates":[-0.821745,41.770133],"type":"Point"},"properties":{"osm_id":"5290825887","tag":{"addr:city":"Villanueva de G\u00c3\u00a1llego","addr:postcode":"50830","addr:street":"Evaristo Bernal","amenity":"waste_disposal"}},"type":"Feature"},
	{"geometry":{"coordinates":[-0.821752,41.770122],"type":"Point"},"properties":{"osm_id":"5290825888","tag":{"addr:city":"Villanueva de G\u00c3\u00a1llego","addr:postcode":"50830","addr:street":"Evaristo Bernal","amenity":"waste_disposal"}},"type":"Feature"},
	{"geometry":{"coordinates":[-0.822148,41.770719],"type":"Point"},"properties":{"osm_id":"5294670134","tag":{"addr:city":"Villanueva de G\u00c3\u00a1llego","addr:postcode":"50830","addr:street":"Calle Don Juan Gomez Acebo","amenity":"waste_basket"}},"type":"Feature"},
	{"geometry":{"coordinates":[-0.822472,41.769909],"type":"Point"},"properties":{"osm_id":"5294923587","tag":{"addr:city":"Villanueva de G\u00c3\u00a1llego","addr:postcode":"50830","addr:street":"Calle Zaragoza","amenity":"waste_basket"}},"type":"Feature"},
	{"geometry":{"coordinates":[-0.821847,41.767568],"type":"Point"},"properties":{"osm_id":"5294923756","tag":{"addr:city":"Villanueva de G\u00c3\u00a1llego","addr:postcode":"50830","addr:street":"Calle del Arco","amenity":"waste_disposal"}},"type":"Feature"},
	{"geometry":{"coordinates":[-0.821861,41.76755],"type":"Point"},"properties":{"osm_id":"5294923757","tag":{"addr:city":"Villanueva de G\u00c3\u00a1llego","addr:postcode":"50830","addr:street":"Calle del Arco","amenity":"waste_disposal"}},"type":"Feature"},
	{"geometry":{"coordinates":[-0.839964,41.714061],"type":"Point"},"properties":{"osm_id":"5840040185","tag":{"amenity":"recycling","recycling:waste":"yes","recycling_type":"container"}},"type":"Feature"},
	{"geometry":{"coordinates":[-0.83994,41.714048],"type":"Point"},"properties":{"osm_id":"5840040186","tag":{"amenity":"recycling","recycling:plastic":"yes","recycling_type":"container"}},"type":"Feature"},
	{"geometry":{"coordinates":[-0.834974,41.714446],"type":"Point"},"properties":{"osm_id":"5857368036","tag":{"amenity":"recycling","recycling_type":"container"}},"type":"Feature"},
	{"geometry":{"coordinates":[-0.797718,41.761865],"type":"Point"},"properties":{"osm_id":"6036454191","tag":{"amenity":"waste_basket"}},"type":"Feature"},
	{"geometry":{"coordinates":[-0.798937,41.760341],"type":"Point"},"properties":{"osm_id":"6036535542","tag":{"amenity":"waste_basket"}},"type":"Feature"}
]
}
