{
"type": "FeatureCollection",
"features": [
	{"geometry":{"coordinates":[-0.871217,41.644812],"type":"Point"},"properties":{"osm_id":"1181396143","tag":{"amenity":"recycling","location":"underground","mapillary":"LHsJZ6QIofWfRtEn1T24qw","recycling_type":"container","survey:date":"2018-05-15"}},"type":"Feature"},
	{"geometry":{"coordinates":[-0.877932,41.654442],"type":"Point"},"properties":{"osm_id":"1776117886","tag":{"amenity":"recycling","location":"underground","recycling:cardboard":"yes","recycling:glass_bottles":"yes","recycling:paper":"yes","recycling_type":"container"}},"type":"Feature"},
	{"geometry":{"coordinates":[-0.856617,41.677094],"type":"Point"},"properties":{"name":"Punto Limpio de Cogullada","osm_id":"1797750991","tag":{"addr:city":"Zaragoza","addr:street":"Nuestra Se\u00c3\u00b1ora de Lagunas","amenity":"recycling","contact:phone":"+34 615 812503","recycling_type":"centre","ref:ayto_zaragoza":"recurso-2503","source:date":"2011-11-11T10:48:27Z"}},"type":"Feature"},
	{"geometry":{"coordinates":[-0.871788,41.643912],"type":"Point"},"properties":{"osm_id":"2960129018","tag":{"amenity":"recycling","recycling_type":"container"}},"type":"Feature"},
	{"geometry":{"coordinates":[-0.873079,41.644184],"type":"Point"},"properties":{"osm_id":"2960129021","tag":{"amenity":"recycling","recycling:cans":"yes","recycling:glass_bottles":"yes","recycling:paper":"yes","recycling:plastic":"no","recycling:plastic_packaging":"yes","recycling_type":"container"}},"type":"Feature"},
	{"geometry":{"coordinates":[-0.873935,41.644271],"type":"Point"},"properties":{"osm_id":"2960129022","tag":{"amenity":"recycling","recycling_type":"container"}},"type":"Feature"},
	{"geometry":{"coordinates":[-0.872611,41.646091],"type":"Point"},"properties":{"osm_id":"2960129535","tag":{"amenity":"recycling","location":"overground","recycling_type":"container"}},"type":"Feature"},
	{"geometry":{"coordinates":[-0.833433,41.672657],"type":"Point"},"properties":{"osm_id":"3874371863","tag":{"amenity":"recycling","operator":"FCC","recycling:cans":"yes","recycling:glass_bottles":"yes","recycling:paper":"yes","recycling:plastic":"yes","recycling_type":"container"}},"type":"Feature"},
	{"geometry":{"coordinates":[-0.876384,41.643047],"type":"Point"},"properties":{"osm_id":"4020534702","tag":{"amenity":"recycling","operator":"FCC","recycling:cans":"yes","recycling:glass_bottles":"yes","recycling:paper":"yes","recycling:plastic":"yes","recycling_type":"container"}},"type":"Feature"},
	{"geometry":{"coordinates":[-0.874629,41.674128],"type":"Point"},"properties":{"osm_id":"4393500758","tag":{"amenity":"recycling","operator":"FCC","recycling_type":"container"}},"type":"Feature"},
	{"geometry":{"coordinates":[-0.878131,41.653588],"type":"Point"},"properties":{"osm_id":"4408031380","tag":{"amenity":"recycling","recycling:books":"yes","recycling:cartons":"yes","recycling:foil":"yes","recycling:glass_bottles":"yes","recycling:magazines":"yes","recycling:newspaper":"yes","recycling:paper":"yes","recycling:plastic":"yes","recycling:plastic_bottles":"yes","recycling_type":"container"}},"type":"Feature"},
	{"geometry":{"coordinates":[-0.878162,41.653604],"type":"Point"},"properties":{"osm_id":"4408031381","tag":{"amenity":"waste_basket"}},"type":"Feature"},
	{"geometry":{"coordinates":[-0.878712,41.654109],"type":"Point"},"properties":{"osm_id":"4412508274","tag":{"amenity":"waste_basket","check_date":"2021-04-06"}},"type":"Feature"},
	{"geometry":{"coordinates":[-0.878453,41.655449],"type":"Point"},"properties":{"osm_id":"4418201282","tag":{"amenity":"waste_basket"}},"type":"Feature"},
	{"geometry":{"coordinates":[-0.87838,41.655563],"type":"Point"},"properties":{"osm_id":"4418201296","tag":{"amenity":"waste_basket"}},"type":"Feature"},
	{"geometry":{"coordinates":[-0.877053,41.654857],"type":"Point"},"properties":{"osm_id":"4418250004","tag":{"amenity":"waste_basket"}},"type":"Feature"},
	{"geometry":{"coordinates":[-0.876764,41.655159],"type":"Point"},"properties":{"osm_id":"4418250005","tag":{"amenity":"waste_basket"}},"type":"Feature"},
	{"geometry":{"coordinates":[-0.876835,41.655365],"type":"Point"},"properties":{"osm_id":"4418250006","tag":{"amenity":"waste_basket"}},"type":"Feature"},
	{"geometry":{"coordinates":[-0.876667,41.655438],"type":"Point"},"properties":{"osm_id":"4418250007","tag":{"amenity":"waste_basket"}},"type":"Feature"},
	{"geometry":{"coordinates":[-0.877671,41.651138],"type":"Point"},"properties":{"osm_id":"4483871507","tag":{"amenity":"waste_basket","check_date":"2021-03-28"}},"type":"Feature"},
	{"geometry":{"coordinates":[-0.864106,41.640969],"type":"Point"},"properties":{"osm_id":"4637731762","tag":{"amenity":"recycling","recycling_type":"container"}},"type":"Feature"},
	{"geometry":{"coordinates":[-0.871547,41.656886],"type":"Point"},"properties":{"osm_id":"4705441404","tag":{"amenity":"waste_basket"}},"type":"Feature"},
	{"geometry":{"coordinates":[-0.87142,41.656814],"type":"Point"},"properties":{"osm_id":"4705441793","tag":{"amenity":"waste_basket"}},"type":"Feature"},
	{"geometry":{"coordinates":[-0.868231,41.663804],"type":"Point"},"properties":{"name":"aRopa2","osm_id":"4805380757","tag":{"amenity":"recycling","recycling:clothes":"yes","recycling_type":"container"}},"type":"Feature"},
	{"geometry":{"coordinates":[-0.871162,41.680719],"type":"Point"},"properties":{"osm_id":"5370049483","tag":{"amenity":"recycling","mapillary":"kGW-4DBo_3ct1d5-CRBIlQ","recycling:glass_bottles":"yes","recycling:paper":"yes","recycling:plastic":"yes","recycling:waste":"yes","recycling_type":"container"}},"type":"Feature"},
	{"geometry":{"coordinates":[-0.878796,41.65093],"type":"Point"},"properties":{"osm_id":"5612119426","tag":{"amenity":"waste_disposal"}},"type":"Feature"},
	{"geometry":{"coordinates":[-0.878906,41.648634],"type":"Point"},"properties":{"osm_id":"5633574832","tag":{"amenity":"waste_disposal"}},"type":"Feature"},
	{"geometry":{"coordinates":[-0.877747,41.648459],"type":"Point"},"properties":{"osm_id":"5633594126","tag":{"amenity":"waste_disposal"}},"type":"Feature"},
	{"geometry":{"coordinates":[-0.876867,41.647449],"type":"Point"},"properties":{"osm_id":"5633594127","tag":{"amenity":"waste_disposal"}},"type":"Feature"},
	{"geometry":{"coordinates":[-0.868984,41.694921],"type":"Point"},"properties":{"osm_id":"5683042562","tag":{"amenity":"recycling","recycling_type":"container"}},"type":"Feature"},
	{"geometry":{"coordinates":[-0.866157,41.693129],"type":"Point"},"properties":{"osm_id":"5683042563","tag":{"amenity":"recycling","recycling:paper":"yes","recycling:waste":"yes","recycling_type":"container"}},"type":"Feature"},
	{"geometry":{"coordinates":[-0.863596,41.690845],"type":"Point"},"properties":{"osm_id":"5683042564","tag":{"amenity":"recycling","recycling:paper":"yes","recycling:plastic":"yes","recycling:waste":"yes","recycling_type":"container"}},"type":"Feature"},
	{"geometry":{"coordinates":[-0.865391,41.692374],"type":"Point"},"properties":{"osm_id":"5683042565","tag":{"amenity":"waste_basket","waste":"dog_excrement"}},"type":"Feature"},
	{"geometry":{"coordinates":[-0.86318,41.692029],"type":"Point"},"properties":{"osm_id":"5683042566","tag":{"amenity":"waste_basket","waste":"dog_excrement"}},"type":"Feature"},
	{"geometry":{"coordinates":[-0.838199,41.669433],"type":"Point"},"properties":{"osm_id":"6271218982","tag":{"amenity":"waste_basket"}},"type":"Feature"},
	{"geometry":{"coordinates":[-0.875133,41.649285],"type":"Point"},"properties":{"osm_id":"6376776915","tag":{"amenity":"recycling","recycling_type":"container"}},"type":"Feature"},
	{"geometry":{"coordinates":[-0.870118,41.67826],"type":"Point"},"properties":{"osm_id":"7632400540","tag":{"amenity":"recycling","recycling_type":"container"}},"type":"Feature"},
	{"geometry":{"coordinates":[-0.872553,41.640386],"type":"Point"},"properties":{"osm_id":"7902527936","tag":{"amenity":"recycling","recycling_type":"container"}},"type":"Feature"},
	{"geometry":{"coordinates":[-0.86895,41.687877],"type":"Point"},"properties":{"osm_id":"8661555313","tag":{"amenity":"recycling","recycling_type":"container"}},"type":"Feature"},
	{"geometry":{"coordinates":[-0.865927,41.686127],"type":"Point"},"properties":{"osm_id":"8661580622","tag":{"amenity":"recycling","recycling_type":"container"}},"type":"Feature"},
	{"geometry":{"coordinates":[-0.857491,41.653997],"type":"Point"},"properties":{"osm_id":"8691121833","tag":{"amenity":"recycling","recycling_type":"container"}},"type":"Feature"}
]
}
