{
"type": "FeatureCollection",
"features": [
	{"geometry":{"coordinates":[-0.791111,38.480416],"type":"Point"},"properties":{"osm_id":"367602026","tag":{"amenity":"recycling","recycling:waste":"yes","recycling_type":"container"}},"type":"Feature"},
	{"geometry":{"coordinates":[-0.815673,38.538499],"type":"Point"},"properties":{"osm_id":"4198865477","tag":{"amenity":"waste_basket"}},"type":"Feature"},
	{"geometry":{"coordinates":[-0.815631,38.538584],"type":"Point"},"properties":{"osm_id":"4198865478","tag":{"amenity":"recycling","recycling:cans":"yes","recycling:cardboard":"yes","recycling:clothes":"yes","recycling:glass_bottles":"yes","recycling:paper":"yes","recycling:plastic":"no","recycling:waste":"yes","recycling_type":"container"}},"type":"Feature"},
	{"geometry":{"coordinates":[-0.819122,38.538884],"type":"Point"},"properties":{"osm_id":"4198867471","tag":{"amenity":"waste_disposal"}},"type":"Feature"},
	{"geometry":{"coordinates":[-0.816059,38.537599],"type":"Point"},"properties":{"osm_id":"4198877044","tag":{"amenity":"waste_basket"}},"type":"Feature"},
	{"geometry":{"coordinates":[-0.815803,38.538257],"type":"Point"},"properties":{"osm_id":"4198877051","tag":{"amenity":"waste_basket"}},"type":"Feature"},
	{"geometry":{"coordinates":[-0.820848,38.537726],"type":"Point"},"properties":{"osm_id":"4198889776","tag":{"amenity":"waste_disposal"}},"type":"Feature"},
	{"geometry":{"coordinates":[-0.817647,38.539668],"type":"Point"},"properties":{"osm_id":"4199885755","tag":{"amenity":"waste_basket"}},"type":"Feature"},
	{"geometry":{"coordinates":[-0.818157,38.539917],"type":"Point"},"properties":{"osm_id":"4199885765","tag":{"amenity":"waste_basket"}},"type":"Feature"},
	{"geometry":{"coordinates":[-0.815555,38.540862],"type":"Point"},"properties":{"osm_id":"4199900254","tag":{"amenity":"waste_disposal"}},"type":"Feature"},
	{"geometry":{"coordinates":[-0.818361,38.537341],"type":"Point"},"properties":{"osm_id":"4202042689","tag":{"amenity":"waste_basket"}},"type":"Feature"},
	{"geometry":{"coordinates":[-0.815325,38.539681],"type":"Point"},"properties":{"osm_id":"4202470478","tag":{"amenity":"waste_basket"}},"type":"Feature"},
	{"geometry":{"coordinates":[-0.818832,38.536507],"type":"Point"},"properties":{"osm_id":"4202598688","tag":{"amenity":"waste_disposal"}},"type":"Feature"},
	{"geometry":{"coordinates":[-0.818828,38.536511],"type":"Point"},"properties":{"osm_id":"4202599791","tag":{"amenity":"waste_disposal"}},"type":"Feature"},
	{"geometry":{"coordinates":[-0.818994,38.536303],"type":"Point"},"properties":{"osm_id":"4202633876","tag":{"amenity":"waste_basket"}},"type":"Feature"},
	{"geometry":{"coordinates":[-0.818776,38.535511],"type":"Point"},"properties":{"osm_id":"4202672520","tag":{"amenity":"waste_basket"}},"type":"Feature"},
	{"geometry":{"coordinates":[-0.819253,38.535967],"type":"Point"},"properties":{"osm_id":"4202695596","tag":{"amenity":"waste_basket"}},"type":"Feature"},
	{"geometry":{"coordinates":[-0.818376,38.537326],"type":"Point"},"properties":{"osm_id":"4202695597","tag":{"amenity":"waste_disposal"}},"type":"Feature"},
	{"geometry":{"coordinates":[-0.820578,38.534484],"type":"Point"},"properties":{"osm_id":"4202710594","tag":{"amenity":"waste_disposal"}},"type":"Feature"},
	{"geometry":{"coordinates":[-0.820569,38.534492],"type":"Point"},"properties":{"osm_id":"4202710595","tag":{"amenity":"waste_disposal"}},"type":"Feature"},
	{"geometry":{"coordinates":[-0.820273,38.534815],"type":"Point"},"properties":{"osm_id":"4202710596","tag":{"amenity":"waste_disposal"}},"type":"Feature"},
	{"geometry":{"coordinates":[-0.819534,38.535725],"type":"Point"},"properties":{"osm_id":"4202710598","tag":{"amenity":"waste_disposal"}},"type":"Feature"},
	{"geometry":{"coordinates":[-0.819528,38.53573],"type":"Point"},"properties":{"osm_id":"4202710599","tag":{"amenity":"waste_disposal"}},"type":"Feature"},
	{"geometry":{"coordinates":[-0.820501,38.534575],"type":"Point"},"properties":{"osm_id":"4202762339","tag":{"amenity":"waste_basket"}},"type":"Feature"},
	{"geometry":{"coordinates":[-0.821517,38.536581],"type":"Point"},"properties":{"osm_id":"4205101865","tag":{"amenity":"recycling","recycling:clothes":"yes","recycling_type":"container"}},"type":"Feature"},
	{"geometry":{"coordinates":[-0.821497,38.536591],"type":"Point"},"properties":{"osm_id":"4205101866","tag":{"amenity":"recycling","recycling:glass_bottles":"yes","recycling_type":"container"}},"type":"Feature"},
	{"geometry":{"coordinates":[-0.82101,38.534109],"type":"Point"},"properties":{"osm_id":"4205279974","tag":{"amenity":"waste_basket"}},"type":"Feature"},
	{"geometry":{"coordinates":[-0.820744,38.534439],"type":"Point"},"properties":{"osm_id":"4205279975","tag":{"amenity":"waste_basket"}},"type":"Feature"},
	{"geometry":{"coordinates":[-0.816014,38.536285],"type":"Point"},"properties":{"osm_id":"4205473395","tag":{"amenity":"waste_basket"}},"type":"Feature"},
	{"geometry":{"coordinates":[-0.818974,38.534533],"type":"Point"},"properties":{"osm_id":"4205591332","tag":{"amenity":"recycling","recycling:cans":"yes","recycling:cardboard":"yes","recycling:clothes":"yes","recycling:glass_bottles":"yes","recycling:paper":"yes","recycling:plastic":"yes","recycling_type":"container"}},"type":"Feature"},
	{"geometry":{"coordinates":[-0.818375,38.534619],"type":"Point"},"properties":{"osm_id":"4205602493","tag":{"amenity":"waste_basket"}},"type":"Feature"},
	{"geometry":{"coordinates":[-0.818478,38.534776],"type":"Point"},"properties":{"osm_id":"4205602494","tag":{"amenity":"waste_basket"}},"type":"Feature"},
	{"geometry":{"coordinates":[-0.817426,38.535166],"type":"Point"},"properties":{"osm_id":"4205613292","tag":{"amenity":"waste_disposal"}},"type":"Feature"},
	{"geometry":{"coordinates":[-0.817112,38.535302],"type":"Point"},"properties":{"osm_id":"4205621015","tag":{"amenity":"recycling","recycling:cardboard":"yes","recycling:glass_bottles":"yes","recycling:paper":"yes","recycling:plastic":"yes","recycling:plastic_bottles":"yes","recycling:plastic_packaging":"yes","recycling_type":"container"}},"type":"Feature"},
	{"geometry":{"coordinates":[-0.816284,38.536475],"type":"Point"},"properties":{"osm_id":"4205699592","tag":{"amenity":"recycling","recycling:cardboard":"yes","recycling:clothes":"yes","recycling:glass_bottles":"yes","recycling:paper":"yes","recycling:plastic":"yes","recycling:plastic_bottles":"yes","recycling:plastic_packaging":"yes","recycling:waste":"yes","recycling_type":"container"}},"type":"Feature"},
	{"geometry":{"coordinates":[-0.816332,38.53649],"type":"Point"},"properties":{"osm_id":"4205699593","tag":{"amenity":"waste_basket"}},"type":"Feature"},
	{"geometry":{"coordinates":[-0.81623,38.536745],"type":"Point"},"properties":{"osm_id":"4205699594","tag":{"amenity":"waste_basket"}},"type":"Feature"},
	{"geometry":{"coordinates":[-0.816192,38.536988],"type":"Point"},"properties":{"osm_id":"4205699596","tag":{"amenity":"waste_basket"}},"type":"Feature"},
	{"geometry":{"coordinates":[-0.816127,38.537316],"type":"Point"},"properties":{"osm_id":"4205699599","tag":{"amenity":"recycling","recycling:cardboard":"yes","recycling:clothes":"yes","recycling:glass_bottles":"yes","recycling:paper":"yes","recycling:plastic":"yes","recycling:plastic_bottles":"yes","recycling:plastic_packaging":"yes","recycling:waste":"yes","recycling_type":"container"}},"type":"Feature"},
	{"geometry":{"coordinates":[-0.820762,38.533783],"type":"Point"},"properties":{"osm_id":"4205825498","tag":{"amenity":"waste_disposal"}},"type":"Feature"},
	{"geometry":{"coordinates":[-0.820302,38.533863],"type":"Point"},"properties":{"osm_id":"4205825499","tag":{"amenity":"waste_disposal"}},"type":"Feature"},
	{"geometry":{"coordinates":[-0.819908,38.534158],"type":"Point"},"properties":{"osm_id":"4205825503","tag":{"amenity":"waste_disposal"}},"type":"Feature"},
	{"geometry":{"coordinates":[-0.819284,38.534515],"type":"Point"},"properties":{"osm_id":"4205827489","tag":{"amenity":"waste_basket"}},"type":"Feature"},
	{"geometry":{"coordinates":[-0.821895,38.539066],"type":"Point"},"properties":{"osm_id":"4206850090","tag":{"addr:city":"Sax","addr:country":"ES","addr:housenumber":"25","addr:place":"Sax","addr:postcode":"03630","addr:province":"Alicante","addr:street":"Calle Tejera","entrance":"yes"}},"type":"Feature"},
	{"geometry":{"coordinates":[-0.818832,38.535268],"type":"Point"},"properties":{"osm_id":"4208978512","tag":{"amenity":"recycling","recycling:cans":"yes","recycling:cardboard":"yes","recycling:glass_bottles":"yes","recycling:paper":"yes","recycling:plastic":"yes","recycling:plastic_bottles":"yes","recycling:plastic_packaging":"yes","recycling_type":"container"}},"type":"Feature"},
	{"geometry":{"coordinates":[-0.815556,38.536224],"type":"Point"},"properties":{"osm_id":"4208978514","tag":{"amenity":"waste_disposal"}},"type":"Feature"},
	{"geometry":{"coordinates":[-0.818923,38.538723],"type":"Point"},"properties":{"osm_id":"4209011344","tag":{"amenity":"waste_basket"}},"type":"Feature"},
	{"geometry":{"coordinates":[-0.818426,38.539044],"type":"Point"},"properties":{"osm_id":"4209011347","tag":{"amenity":"waste_basket"}},"type":"Feature"},
	{"geometry":{"coordinates":[-0.817505,38.539352],"type":"Point"},"properties":{"osm_id":"4209011348","tag":{"amenity":"waste_basket"}},"type":"Feature"},
	{"geometry":{"coordinates":[-0.818289,38.538749],"type":"Point"},"properties":{"osm_id":"4209019076","tag":{"amenity":"waste_basket"}},"type":"Feature"},
	{"geometry":{"coordinates":[-0.818051,38.538766],"type":"Point"},"properties":{"osm_id":"4209024852","tag":{"amenity":"waste_basket"}},"type":"Feature"},
	{"geometry":{"coordinates":[-0.817163,38.538921],"type":"Point"},"properties":{"osm_id":"4209029820","tag":{"amenity":"waste_basket"}},"type":"Feature"},
	{"geometry":{"coordinates":[-0.81764,38.53893],"type":"Point"},"properties":{"osm_id":"4209029822","tag":{"amenity":"waste_basket"}},"type":"Feature"},
	{"geometry":{"coordinates":[-0.816932,38.539083],"type":"Point"},"properties":{"osm_id":"4209044636","tag":{"amenity":"waste_basket"}},"type":"Feature"},
	{"geometry":{"coordinates":[-0.819569,38.537839],"type":"Point"},"properties":{"osm_id":"4209476302","tag":{"amenity":"waste_basket"}},"type":"Feature"},
	{"geometry":{"coordinates":[-0.821653,38.536682],"type":"Point"},"properties":{"osm_id":"4209489734","tag":{"amenity":"waste_disposal"}},"type":"Feature"},
	{"geometry":{"coordinates":[-0.820916,38.537205],"type":"Point"},"properties":{"osm_id":"4209489740","tag":{"amenity":"waste_basket"}},"type":"Feature"},
	{"geometry":{"coordinates":[-0.826486,38.536127],"type":"Point"},"properties":{"osm_id":"4210277060","tag":{"amenity":"recycling","recycling:cans":"yes","recycling:cardboard":"yes","recycling:glass_bottles":"yes","recycling:paper":"yes","recycling:plastic":"yes","recycling:plastic_bottles":"yes","recycling:plastic_packaging":"yes","recycling:waste":"yes","recycling_type":"container"}},"type":"Feature"},
	{"geometry":{"coordinates":[-0.795919,38.515083],"type":"Point"},"properties":{"osm_id":"4229133624","tag":{"amenity":"recycling","recycling_type":"container"}},"type":"Feature"},
	{"geometry":{"coordinates":[-0.808384,38.536309],"type":"Point"},"properties":{"osm_id":"4229133708","tag":{"amenity":"recycling","recycling_type":"container"}},"type":"Feature"},
	{"geometry":{"coordinates":[-0.800947,38.501725],"type":"Point"},"properties":{"osm_id":"4234713799","tag":{"amenity":"recycling","recycling_type":"container"}},"type":"Feature"},
	{"geometry":{"coordinates":[-0.798277,38.513255],"type":"Point"},"properties":{"osm_id":"7640530314","tag":{"amenity":"recycling","recycling:batteries":"no","recycling:cans":"no","recycling:cardboard":"no","recycling:clothes":"no","recycling:electrical_appliances":"no","recycling:glass":"no","recycling:glass_bottles":"no","recycling:green_waste":"no","recycling:paper":"no","recycling:plastic":"no","recycling:plastic_bottles":"no","recycling:plastic_packaging":"no","recycling:scrap_metal":"no","recycling:shoes":"no","recycling:small_appliances":"no","recycling:waste":"yes","recycling_type":"container"}},"type":"Feature"},
	{"geometry":{"coordinates":[-0.817021,38.513698],"type":"Point"},"properties":{"osm_id":"7880044585","tag":{"amenity":"waste_disposal"}},"type":"Feature"},
	{"geometry":{"coordinates":[-0.815747,38.521279],"type":"Point"},"properties":{"osm_id":"7885307917","tag":{"amenity":"waste_disposal"}},"type":"Feature"}
]
}
