{
"type": "FeatureCollection",
"features": [
	{"geometry":{"coordinates":[-0.839402,38.072779],"type":"Point"},"properties":{"osm_id":"6372548691","tag":{"amenity":"waste_basket"}},"type":"Feature"},
	{"geometry":{"coordinates":[-0.839133,38.072732],"type":"Point"},"properties":{"osm_id":"6372548692","tag":{"amenity":"waste_basket"}},"type":"Feature"},
	{"geometry":{"coordinates":[-0.83912,38.072817],"type":"Point"},"properties":{"osm_id":"6372548693","tag":{"amenity":"waste_basket"}},"type":"Feature"},
	{"geometry":{"coordinates":[-0.875661,38.126646],"type":"Point"},"properties":{"osm_id":"6418213745","tag":{"amenity":"recycling","recycling_type":"container"}},"type":"Feature"},
	{"geometry":{"coordinates":[-0.796446,38.110508],"type":"Point"},"properties":{"osm_id":"6459931886","tag":{"amenity":"waste_disposal","operator":"Reciclaje"}},"type":"Feature"},
	{"geometry":{"coordinates":[-0.875288,38.074101],"type":"Point"},"properties":{"osm_id":"7704350856","tag":{"amenity":"waste_disposal"}},"type":"Feature"},
	{"geometry":{"coordinates":[-0.839726,38.084546],"type":"Point"},"properties":{"osm_id":"7706889228","tag":{"amenity":"waste_disposal"}},"type":"Feature"}
]
}
