{
"type": "FeatureCollection",
"features": [
	{"geometry":{"coordinates":[-0.831059,37.679376],"type":"Point"},"properties":{"osm_id":"6297105305","tag":{"amenity":"waste_basket"}},"type":"Feature"},
	{"geometry":{"coordinates":[-0.830651,37.678833],"type":"Point"},"properties":{"osm_id":"6297106224","tag":{"amenity":"waste_basket"}},"type":"Feature"},
	{"geometry":{"coordinates":[-0.830427,37.680727],"type":"Point"},"properties":{"osm_id":"6321381446","tag":{"addr:street":"Avenida de la Unificaci\u00c3\u00b3n","amenity":"waste_disposal"}},"type":"Feature"},
	{"geometry":{"coordinates":[-0.831632,37.680487],"type":"Point"},"properties":{"osm_id":"6321381447","tag":{"addr:street":"Avenida de la Unificaci\u00c3\u00b3n","amenity":"waste_basket"}},"type":"Feature"},
	{"geometry":{"coordinates":[-0.829691,37.680885],"type":"Point"},"properties":{"osm_id":"6321381448","tag":{"addr:street":"Avenida de la Unificaci\u00c3\u00b3n","amenity":"waste_disposal"}},"type":"Feature"},
	{"geometry":{"coordinates":[-0.832186,37.680383],"type":"Point"},"properties":{"osm_id":"6321381449","tag":{"amenity":"waste_basket"}},"type":"Feature"}
]
}
