{
"type": "FeatureCollection",
"lastupdate": "2020-08-06T00:00:00Z",
"features": [
	{"geometry":{"coordinates":[1.734886,49.483179],"type":"Point"},"properties":{"osm_id":"4808229300","tag":{"amenity":"waste_basket"}},"type":"Feature"},
	{"geometry":{"coordinates":[1.74173,49.480476],"type":"Point"},"properties":{"osm_id":"4818247649","tag":{"amenity":"recycling","recycling:glass":"yes","recycling:paper":"yes","recycling_type":"container"}},"type":"Feature"},
	{"geometry":{"coordinates":[1.744867,49.478507],"type":"Point"},"properties":{"osm_id":"4823536006","tag":{"amenity":"waste_basket"}},"type":"Feature"},
	{"geometry":{"coordinates":[1.738937,49.484036],"type":"Point"},"properties":{"osm_id":"4829255152","tag":{"amenity":"waste_basket"}},"type":"Feature"},
	{"geometry":{"coordinates":[1.741209,49.485766],"type":"Point"},"properties":{"osm_id":"4830824414","tag":{"amenity":"waste_basket"}},"type":"Feature"},
	{"geometry":{"coordinates":[1.744847,49.487805],"type":"Point"},"properties":{"osm_id":"4830883836","tag":{"amenity":"waste_basket"}},"type":"Feature"},
	{"geometry":{"coordinates":[1.747106,49.487663],"type":"Point"},"properties":{"osm_id":"4836817495","tag":{"amenity":"waste_basket"}},"type":"Feature"},
	{"geometry":{"coordinates":[1.743859,49.485161],"type":"Point"},"properties":{"osm_id":"4837301998","tag":{"amenity":"waste_basket"}},"type":"Feature"},
	{"geometry":{"coordinates":[1.742309,49.484843],"type":"Point"},"properties":{"osm_id":"4840033229","tag":{"amenity":"waste_basket"}},"type":"Feature"},
	{"geometry":{"coordinates":[1.710397,49.478982],"type":"Point"},"properties":{"osm_id":"6684769481","tag":{"amenity":"waste_basket","waste":"trash"}},"type":"Feature"},
	{"geometry":{"coordinates":[1.712898,49.471517],"type":"Point"},"properties":{"name":"D\u00c3\u00a9ch\u00c3\u00a8terie\u00c2\u00a0Gournay\u00c2\u00a0en\u00c2\u00a0Bray","osm_id":"6960483091","tag":{"amenity":"recycling","operator":"Communaut\u00e9\u00a0de\u00a0Communes\u00a0des\u00a04\u00a0Rivi\u00e8res","phone":"+33 2 35 90 92 64","recycling_type":"centre","ref:FR:SINOE":"4445","start_date":"1998-11-30"}},"type":"Feature"}
]
}
