{
"type": "FeatureCollection",
"features": [
	{"geometry":{"coordinates":[1.677161,48.315239],"type":"Point"},"properties":{"osm_id":"6138150619","tag":{"amenity":"waste_basket"}},"type":"Feature"},
	{"geometry":{"coordinates":[1.720991,48.286957],"type":"Point"},"properties":{"osm_id":"6138161701","tag":{"amenity":"waste_basket"}},"type":"Feature"},
	{"geometry":{"coordinates":[1.720838,48.286837],"type":"Point"},"properties":{"osm_id":"6138161705","tag":{"amenity":"waste_basket"}},"type":"Feature"},
	{"geometry":{"coordinates":[1.707983,48.291694],"type":"Point"},"properties":{"name":"SMBP d\u00c3\u00a9charge","osm_id":"9013440823","tag":{"amenity":"recycling","recycling_type":"centre"}},"type":"Feature"},
	{"geometry":{"coordinates":[1.707289,48.290593],"type":"Point"},"properties":{"name":"Cemex Beauvilliers","osm_id":"9013440824","tag":{"amenity":"recycling","recycling_type":"centre"}},"type":"Feature"},
	{"geometry":{"coordinates":[1.729786,48.284311],"type":"Point"},"properties":{"name":"SMBP Prasville","osm_id":"9013441020","tag":{"amenity":"recycling","recycling_type":"centre"}},"type":"Feature"}
]
}
