{
"type": "FeatureCollection",
"features": [
	{"geometry":{"coordinates":[1.671266,46.81776],"type":"Point"},"properties":{"osm_id":"5752233693","tag":{"amenity":"waste_basket"}},"type":"Feature"},
	{"geometry":{"coordinates":[1.671334,46.817668],"type":"Point"},"properties":{"osm_id":"5752233695","tag":{"amenity":"recycling","recycling:cans":"yes","recycling:glass":"yes","recycling:glass_bottles":"yes","recycling_type":"container"}},"type":"Feature"},
	{"geometry":{"coordinates":[1.70638,46.80272],"type":"Point"},"properties":{"osm_id":"5758011110","tag":{"amenity":"waste_basket","waste":"trash"}},"type":"Feature"},
	{"geometry":{"coordinates":[1.696496,46.812935],"type":"Point"},"properties":{"osm_id":"6761660114","tag":{"amenity":"waste_basket","waste":"trash"}},"type":"Feature"},
	{"geometry":{"coordinates":[1.694021,46.811762],"type":"Point"},"properties":{"osm_id":"6790294386","tag":{"amenity":"waste_basket","waste":"poubelle"}},"type":"Feature"},
	{"geometry":{"coordinates":[1.694213,46.811924],"type":"Point"},"properties":{"osm_id":"6790295688","tag":{"amenity":"waste_basket","waste":"poubelle"}},"type":"Feature"},
	{"geometry":{"coordinates":[1.694145,46.812002],"type":"Point"},"properties":{"osm_id":"6790295689","tag":{"amenity":"waste_basket","waste":"poubelle"}},"type":"Feature"},
	{"geometry":{"coordinates":[1.693979,46.812019],"type":"Point"},"properties":{"osm_id":"6790300285","tag":{"amenity":"waste_basket","waste":"poubelle"}},"type":"Feature"},
	{"geometry":{"coordinates":[1.702274,46.803877],"type":"Point"},"properties":{"name":"Benne de recyclage du verre","osm_id":"7920980197","tag":{"amenity":"recycling"}},"type":"Feature"}
]
}
