{
"type": "FeatureCollection",
"features": [
	{"geometry":{"coordinates":[1.731156,44.919415],"type":"Point"},"properties":{"osm_id":"3068294620","tag":{"amenity":"waste_basket"}},"type":"Feature"},
	{"geometry":{"coordinates":[1.690984,44.956403],"type":"Point"},"properties":{"osm_id":"3070848312","tag":{"amenity":"recycling","recycling_type":"container"}},"type":"Feature"},
	{"geometry":{"coordinates":[1.73237,44.917371],"type":"Point"},"properties":{"osm_id":"4915225591","tag":{"amenity":"waste_basket","colour":"green","material":"metal"}},"type":"Feature"},
	{"geometry":{"coordinates":[1.732794,44.918843],"type":"Point"},"properties":{"osm_id":"4917320570","tag":{"amenity":"waste_basket","material":"wood"}},"type":"Feature"},
	{"geometry":{"coordinates":[1.732122,44.919186],"type":"Point"},"properties":{"osm_id":"4917320599","tag":{"amenity":"waste_basket","material":"wood"}},"type":"Feature"},
	{"geometry":{"coordinates":[1.732401,44.919072],"type":"Point"},"properties":{"osm_id":"4917320601","tag":{"amenity":"waste_basket","material":"wood"}},"type":"Feature"},
	{"geometry":{"coordinates":[1.733148,44.918427],"type":"Point"},"properties":{"osm_id":"4917320617","tag":{"amenity":"waste_basket"}},"type":"Feature"},
	{"geometry":{"coordinates":[1.73246,44.918155],"type":"Point"},"properties":{"osm_id":"4917320944","tag":{"amenity":"waste_basket","colour":"green","material":"metal"}},"type":"Feature"},
	{"geometry":{"coordinates":[1.732194,44.917411],"type":"Point"},"properties":{"osm_id":"4917320945","tag":{"amenity":"waste_basket","material":"metal"}},"type":"Feature"},
	{"geometry":{"coordinates":[1.731063,44.919474],"type":"Point"},"properties":{"osm_id":"4927037325","tag":{"amenity":"waste_disposal"}},"type":"Feature"},
	{"geometry":{"coordinates":[1.735103,44.917174],"type":"Point"},"properties":{"osm_id":"4931100951","tag":{"amenity":"waste_basket","material":"wood;metal"}},"type":"Feature"},
	{"geometry":{"coordinates":[1.734486,44.917233],"type":"Point"},"properties":{"osm_id":"4931100958","tag":{"amenity":"waste_basket","material":"wood;metal"}},"type":"Feature"},
	{"geometry":{"coordinates":[1.735117,44.917199],"type":"Point"},"properties":{"osm_id":"4931100962","tag":{"amenity":"waste_basket","colour":"green","material":"metal"}},"type":"Feature"},
	{"geometry":{"coordinates":[1.732115,44.919373],"type":"Point"},"properties":{"osm_id":"4931100966","tag":{"amenity":"waste_disposal"}},"type":"Feature"},
	{"geometry":{"coordinates":[1.741153,44.910173],"type":"Point"},"properties":{"osm_id":"4966463403","tag":{"access":"customers","amenity":"recycling","recycling_type":"container"}},"type":"Feature"},
	{"geometry":{"coordinates":[1.718252,44.952085],"type":"Point"},"properties":{"osm_id":"5120328230","tag":{"amenity":"waste_disposal"}},"type":"Feature"},
	{"geometry":{"coordinates":[1.717308,44.953229],"type":"Point"},"properties":{"osm_id":"5120328236","tag":{"amenity":"waste_disposal"}},"type":"Feature"},
	{"geometry":{"coordinates":[1.754166,44.96287],"type":"Point"},"properties":{"osm_id":"7082538856","tag":{"amenity":"recycling","opening_hours":"24/7","recycling:glass_bottles":"yes","recycling:paper":"yes","recycling:plastic_bottles":"yes","recycling:plastic_packaging":"yes","recycling_type":"container"}},"type":"Feature"}
]
}
