{
"type": "FeatureCollection",
"features": [
	{"geometry":{"coordinates":[1.712718,43.744217],"type":"Point"},"properties":{"osm_id":"847875033","tag":{"amenity":"waste_disposal"}},"type":"Feature"},
	{"geometry":{"coordinates":[1.696962,43.770279],"type":"Point"},"properties":{"osm_id":"4584054055","tag":{"amenity":"recycling","recycling:glass_bottles":"yes","recycling_type":"container"}},"type":"Feature"},
	{"geometry":{"coordinates":[1.692478,43.768052],"type":"Point"},"properties":{"osm_id":"4584064507","tag":{"amenity":"recycling","recycling:glass_bottles":"yes","recycling_type":"container"}},"type":"Feature"},
	{"geometry":{"coordinates":[1.687008,43.769844],"type":"Point"},"properties":{"osm_id":"4584064509","tag":{"amenity":"recycling","recycling:glass_bottles":"yes","recycling_type":"container"}},"type":"Feature"},
	{"geometry":{"coordinates":[1.690419,43.767814],"type":"Point"},"properties":{"osm_id":"4584954806","tag":{"amenity":"recycling","recycling:glass_bottles":"yes","recycling_type":"container"}},"type":"Feature"},
	{"geometry":{"coordinates":[1.745463,43.762992],"type":"Point"},"properties":{"osm_id":"8665890037","tag":{"amenity":"waste_basket","colour":"jaune","material":"plastic","operator":"Mairie de Saint-Lieux","waste":"recycling"}},"type":"Feature"},
	{"geometry":{"coordinates":[1.744942,43.764399],"type":"Point"},"properties":{"osm_id":"8713147719","tag":{"amenity":"recycling","opening_hours":"24/7","recycling:glass_bottles":"yes","recycling_type":"container"}},"type":"Feature"},
	{"geometry":{"coordinates":[1.740911,43.753567],"type":"Point"},"properties":{"osm_id":"8713147720","tag":{"amenity":"recycling","opening_hours":"24/7","recycling:glass_bottles":"yes","recycling_type":"container"}},"type":"Feature"}
]
}
