{
"type": "FeatureCollection",
"features": [
	{"geometry":{"coordinates":[1.725834,41.214549],"type":"Point"},"properties":{"osm_id":"3824347071","tag":{"amenity":"recycling","recycling_type":"container"}},"type":"Feature"},
	{"geometry":{"coordinates":[1.726934,41.227344],"type":"Point"},"properties":{"osm_id":"4296073959","tag":{"addr:housenumber":"4","addr:postcode":"08800","addr:street":"Carrer de Josep Freixes","entrance":"yes","source:date":"2015-03-15"}},"type":"Feature"},
	{"geometry":{"coordinates":[1.727097,41.227466],"type":"Point"},"properties":{"osm_id":"4296965549","tag":{"addr:housenumber":"17","addr:postcode":"08800","addr:street":"Carrer de la Pastera","entrance":"yes","source:date":"2015-03-15"}},"type":"Feature"},
	{"geometry":{"coordinates":[1.680301,41.218419],"type":"Point"},"properties":{"osm_id":"4947656237","tag":{"amenity":"recycling","recycling:waste":"yes","recycling_type":"container"}},"type":"Feature"},
	{"geometry":{"coordinates":[1.680322,41.218443],"type":"Point"},"properties":{"osm_id":"4947656238","tag":{"amenity":"recycling","recycling:paper":"yes","recycling_type":"container"}},"type":"Feature"},
	{"geometry":{"coordinates":[1.680347,41.218458],"type":"Point"},"properties":{"osm_id":"4947656239","tag":{"amenity":"recycling","recycling:glass_bottles":"yes","recycling_type":"container"}},"type":"Feature"},
	{"geometry":{"coordinates":[1.68036,41.218469],"type":"Point"},"properties":{"osm_id":"4947656240","tag":{"amenity":"recycling","operator":"Mancomunitat Pened\u00c3\u00a8s-Garraf","recycling:plastic_packaging":"yes","recycling_type":"container"}},"type":"Feature"}
]
}
