{
"type": "FeatureCollection",
"features": [
	{"geometry":{"coordinates":[17.122447,51.158589],"type":"Point"},"properties":{"barrier":"gate","osm_id":"749770088"},"type":"Feature"},
	{"geometry":{"coordinates":[17.119648,51.161302],"type":"Point"},"properties":{"osm_id":"1200531734","tag":{"addr:city":"Wroc\u00c5\u0082aw","addr:housenumber":"4","addr:postcode":"51-212","addr:street":"Chmielna","addr:street:sym_ul":"02768","amenity":"recycling","recycling:cans":"yes","recycling:scrap_metal":"yes","recycling_type":"centre","source:addr":"WroclawGIS"}},"type":"Feature"},
	{"geometry":{"coordinates":[17.136017,51.159325],"type":"Point"},"properties":{"osm_id":"2340597747","tag":{"amenity":"recycling"}},"type":"Feature"},
	{"geometry":{"coordinates":[17.136095,51.159405],"type":"Point"},"properties":{"osm_id":"2340597814","tag":{"amenity":"waste_basket"}},"type":"Feature"},
	{"geometry":{"coordinates":[17.134278,51.159052],"type":"Point"},"properties":{"osm_id":"2340597887","tag":{"amenity":"waste_basket"}},"type":"Feature"},
	{"geometry":{"coordinates":[17.134273,51.159022],"type":"Point"},"properties":{"osm_id":"2340597956","tag":{"amenity":"recycling"}},"type":"Feature"},
	{"geometry":{"coordinates":[17.103356,51.133942],"type":"Point"},"properties":{"osm_id":"2560427164","tag":{"amenity":"recycling"}},"type":"Feature"},
	{"geometry":{"coordinates":[17.071295,51.140128],"type":"Point"},"properties":{"name":"Skup z\u00c5\u0082omu","osm_id":"3256428812","tag":{"amenity":"recycling","recycling:scrap_metal":"yes","recycling_type":"centre"}},"type":"Feature"},
	{"geometry":{"coordinates":[17.073007,51.138271],"type":"Point"},"properties":{"osm_id":"3799817086","tag":{"amenity":"waste_disposal","description":"ulubione miejsce nurk\u00c3\u00b3w"}},"type":"Feature"},
	{"geometry":{"coordinates":[17.052463,51.124347],"type":"Point"},"properties":{"osm_id":"3876149598","tag":{"amenity":"waste_disposal"}},"type":"Feature"},
	{"geometry":{"coordinates":[17.051497,51.124833],"type":"Point"},"properties":{"osm_id":"3876149620","tag":{"amenity":"waste_disposal"}},"type":"Feature"},
	{"geometry":{"coordinates":[17.055998,51.124635],"type":"Point"},"properties":{"osm_id":"4261655089","tag":{"amenity":"recycling"}},"type":"Feature"},
	{"geometry":{"coordinates":[17.122773,51.158031],"type":"Point"},"properties":{"barrier":"gate","osm_id":"5685859737"},"type":"Feature"},
	{"geometry":{"coordinates":[17.109268,51.147295],"type":"Point"},"properties":{"osm_id":"6038930873","tag":{"amenity":"waste_disposal"}},"type":"Feature"},
	{"geometry":{"coordinates":[17.103603,51.164221],"type":"Point"},"properties":{"osm_id":"6516437675","tag":{"amenity":"waste_basket"}},"type":"Feature"},
	{"geometry":{"coordinates":[17.123262,51.151313],"type":"Point"},"properties":{"osm_id":"6970391825","tag":{"amenity":"waste_basket"}},"type":"Feature"},
	{"geometry":{"coordinates":[17.12413,51.143592],"type":"Point"},"properties":{"osm_id":"7124651281","tag":{"amenity":"waste_disposal"}},"type":"Feature"}
]
}
