{
"type": "FeatureCollection",
"lastupdate": "2020-08-01T00:00:00Z",
"features": [
	{"geometry":{"coordinates":[17.089577,49.72262],"type":"Point"},"properties":{"osm_id":"2470506153","tag":{"amenity":"recycling"}},"type":"Feature"},
	{"geometry":{"coordinates":[17.072808,49.703433],"type":"Point"},"properties":{"osm_id":"2470513772","tag":{"amenity":"recycling","recycling_type":"container"}},"type":"Feature"},
	{"geometry":{"coordinates":[17.071193,49.701291],"type":"Point"},"properties":{"osm_id":"2471782326","tag":{"amenity":"recycling","recycling_type":"container"}},"type":"Feature"},
	{"geometry":{"coordinates":[17.083451,49.720008],"type":"Point"},"properties":{"osm_id":"2685854016","tag":{"amenity":"recycling"}},"type":"Feature"},
	{"geometry":{"coordinates":[17.077592,49.720666],"type":"Point"},"properties":{"osm_id":"2685854036","tag":{"amenity":"recycling","recycling_type":"container"}},"type":"Feature"},
	{"geometry":{"coordinates":[17.06544,49.704805],"type":"Point"},"properties":{"osm_id":"3010052026","tag":{"amenity":"recycling"}},"type":"Feature"},
	{"geometry":{"coordinates":[17.072252,49.699006],"type":"Point"},"properties":{"name":"MAD Pap\u00c3\u00adr","osm_id":"3139913782","tag":{"amenity":"recycling","recycling:paper":"yes","recycling_type":"centre"}},"type":"Feature"},
	{"geometry":{"coordinates":[17.074106,49.696931],"type":"Point"},"properties":{"osm_id":"4560151074","tag":{"amenity":"recycling","recycling:glass":"yes","recycling:paper":"yes","recycling:plastic":"yes","recycling_type":"container"}},"type":"Feature"},
	{"geometry":{"coordinates":[17.051484,49.698355],"type":"Point"},"properties":{"osm_id":"6501777783","tag":{"amenity":"recycling","recycling_type":"container"}},"type":"Feature"}
]
}
