{
"type": "FeatureCollection",
"features": [
	{"geometry":{"coordinates":[17.09889,49.558499],"type":"Point"},"properties":{"osm_id":"2971279579","tag":{"amenity":"recycling","recycling_type":"container"}},"type":"Feature"},
	{"geometry":{"coordinates":[17.099846,49.560767],"type":"Point"},"properties":{"osm_id":"2971279580","tag":{"amenity":"waste_basket"}},"type":"Feature"},
	{"geometry":{"coordinates":[17.10084,49.560852],"type":"Point"},"properties":{"osm_id":"3473383176","tag":{"amenity":"recycling","recycling_type":"container"}},"type":"Feature"},
	{"geometry":{"coordinates":[17.121315,49.579512],"type":"Point"},"properties":{"osm_id":"4969187403","tag":{"amenity":"waste_basket"}},"type":"Feature"},
	{"geometry":{"coordinates":[17.122006,49.580904],"type":"Point"},"properties":{"osm_id":"4969187404","tag":{"amenity":"waste_basket"}},"type":"Feature"},
	{"geometry":{"coordinates":[17.075586,49.579223],"type":"Point"},"properties":{"osm_id":"4999246024","tag":{"amenity":"recycling","recycling_type":"container"}},"type":"Feature"},
	{"geometry":{"coordinates":[17.070257,49.600123],"type":"Point"},"properties":{"osm_id":"5370703471","tag":{"amenity":"recycling","recycling_type":"container"}},"type":"Feature"},
	{"geometry":{"coordinates":[17.079699,49.582643],"type":"Point"},"properties":{"osm_id":"5370703510","tag":{"amenity":"waste_basket"}},"type":"Feature"},
	{"geometry":{"coordinates":[17.07975,49.582233],"type":"Point"},"properties":{"osm_id":"5370703517","tag":{"amenity":"recycling","recycling:clothes":"yes","recycling:glass":"yes","recycling:paper":"yes","recycling:plastic":"yes","recycling_type":"container"}},"type":"Feature"},
	{"geometry":{"coordinates":[17.084671,49.601607],"type":"Point"},"properties":{"osm_id":"6087379196","tag":{"amenity":"recycling","recycling_type":"container"}},"type":"Feature"},
	{"geometry":{"coordinates":[17.080684,49.601199],"type":"Point"},"properties":{"osm_id":"6481710430","tag":{"amenity":"recycling","recycling_type":"container"}},"type":"Feature"},
	{"geometry":{"coordinates":[17.087247,49.604642],"type":"Point"},"properties":{"osm_id":"6481710438","tag":{"amenity":"recycling","recycling_type":"container"}},"type":"Feature"},
	{"geometry":{"coordinates":[17.12954,49.591727],"type":"Point"},"properties":{"osm_id":"6506127385","tag":{"amenity":"recycling","recycling:beverage_cartons":"yes","recycling:clothes":"yes","recycling:plastic":"yes","recycling_type":"container"}},"type":"Feature"},
	{"geometry":{"coordinates":[17.1251,49.59413],"type":"Point"},"properties":{"osm_id":"6531912896","tag":{"amenity":"recycling","recycling:beverage_cartons":"yes","recycling:glass":"yes","recycling:paper":"yes","recycling:plastic":"yes","recycling_type":"container"}},"type":"Feature"}
]
}
