{
"type": "FeatureCollection",
"features": [
	{"geometry":{"coordinates":[17.087171,48.926656],"type":"Point"},"properties":{"osm_id":"2290697013","tag":{"amenity":"recycling","recycling:scrap_metal":"yes","recycling_type":"centre"}},"type":"Feature"},
	{"geometry":{"coordinates":[17.127241,48.95542],"type":"Point"},"properties":{"name":"Sb\u00c4\u009brn\u00c3\u00bd dv\u00c5\u00afr Milotice","osm_id":"3335247581","tag":{"addr:conscriptionnumber":"599","addr:housenumber":"599","addr:place":"Milotice","addr:postcode":"69605","amenity":"recycling","recycling_type":"centre","ref:ruian:addr":"73373656"}},"type":"Feature"},
	{"geometry":{"coordinates":[17.082409,48.96918],"type":"Point"},"properties":{"osm_id":"3834524914","tag":{"amenity":"recycling","recycling_type":"container"}},"type":"Feature"},
	{"geometry":{"coordinates":[17.083401,48.971514],"type":"Point"},"properties":{"osm_id":"3834524934","tag":{"amenity":"recycling","recycling:glass":"yes","recycling:paper":"yes","recycling:plastic":"yes","recycling_type":"container"}},"type":"Feature"},
	{"geometry":{"coordinates":[17.13351,48.952952],"type":"Point"},"properties":{"osm_id":"6570406573","tag":{"amenity":"waste_disposal"}},"type":"Feature"},
	{"geometry":{"coordinates":[17.105414,48.922735],"type":"Point"},"properties":{"osm_id":"8758853734","tag":{"amenity":"recycling","recycling_type":"container"}},"type":"Feature"}
]
}
