{
"type": "FeatureCollection",
"features": [
	{"geometry":{"coordinates":[17.135967,48.848671],"type":"Point"},"properties":{"osm_id":"2575469594","tag":{"amenity":"waste_disposal"}},"type":"Feature"},
	{"geometry":{"coordinates":[17.135305,48.848746],"type":"Point"},"properties":{"osm_id":"2575469595","tag":{"amenity":"recycling","recycling_type":"container"}},"type":"Feature"},
	{"geometry":{"coordinates":[17.136566,48.84875],"type":"Point"},"properties":{"osm_id":"2575469596","tag":{"amenity":"waste_disposal"}},"type":"Feature"},
	{"geometry":{"coordinates":[17.135431,48.849023],"type":"Point"},"properties":{"osm_id":"2575469597","tag":{"amenity":"waste_disposal"}},"type":"Feature"},
	{"geometry":{"coordinates":[17.137177,48.851822],"type":"Point"},"properties":{"osm_id":"2575469598","tag":{"amenity":"recycling","location":"overground","recycling_type":"container"}},"type":"Feature"},
	{"geometry":{"coordinates":[17.136523,48.851928],"type":"Point"},"properties":{"osm_id":"2575469599","tag":{"amenity":"waste_disposal"}},"type":"Feature"},
	{"geometry":{"coordinates":[17.136681,48.849027],"type":"Point"},"properties":{"osm_id":"2575478854","tag":{"amenity":"recycling","recycling_type":"container"}},"type":"Feature"},
	{"geometry":{"coordinates":[17.136672,48.84906],"type":"Point"},"properties":{"osm_id":"2575478855","tag":{"amenity":"waste_disposal"}},"type":"Feature"},
	{"geometry":{"coordinates":[17.136674,48.849423],"type":"Point"},"properties":{"osm_id":"2575478856","tag":{"amenity":"waste_disposal"}},"type":"Feature"},
	{"geometry":{"coordinates":[17.13435,48.849561],"type":"Point"},"properties":{"osm_id":"2575478857","tag":{"amenity":"waste_disposal"}},"type":"Feature"},
	{"geometry":{"coordinates":[17.134352,48.849582],"type":"Point"},"properties":{"osm_id":"2575478858","tag":{"amenity":"recycling","recycling_type":"container"}},"type":"Feature"},
	{"geometry":{"coordinates":[17.136152,48.850179],"type":"Point"},"properties":{"osm_id":"2575478859","tag":{"amenity":"waste_disposal"}},"type":"Feature"},
	{"geometry":{"coordinates":[17.136159,48.850198],"type":"Point"},"properties":{"osm_id":"2575478860","tag":{"amenity":"recycling","recycling_type":"container"}},"type":"Feature"},
	{"geometry":{"coordinates":[17.135791,48.850225],"type":"Point"},"properties":{"osm_id":"2575478861","tag":{"amenity":"recycling","recycling_type":"container"}},"type":"Feature"},
	{"geometry":{"coordinates":[17.135501,48.847821],"type":"Point"},"properties":{"osm_id":"2575611204","tag":{"amenity":"recycling","recycling_type":"container"}},"type":"Feature"},
	{"geometry":{"coordinates":[17.135463,48.847838],"type":"Point"},"properties":{"osm_id":"2575611205","tag":{"amenity":"waste_disposal"}},"type":"Feature"},
	{"geometry":{"coordinates":[17.132677,48.849343],"type":"Point"},"properties":{"osm_id":"2575615453","tag":{"amenity":"waste_disposal"}},"type":"Feature"},
	{"geometry":{"coordinates":[17.132223,48.849718],"type":"Point"},"properties":{"osm_id":"2575615455","tag":{"amenity":"recycling","recycling_type":"container"}},"type":"Feature"},
	{"geometry":{"coordinates":[17.13363,48.851734],"type":"Point"},"properties":{"osm_id":"2577446965","tag":{"amenity":"waste_disposal"}},"type":"Feature"},
	{"geometry":{"coordinates":[17.133641,48.851769],"type":"Point"},"properties":{"osm_id":"2577446970","tag":{"amenity":"recycling"}},"type":"Feature"},
	{"geometry":{"coordinates":[17.13373,48.852366],"type":"Point"},"properties":{"osm_id":"2577446988","tag":{"amenity":"waste_disposal"}},"type":"Feature"},
	{"geometry":{"coordinates":[17.137888,48.85338],"type":"Point"},"properties":{"osm_id":"2577857723","tag":{"amenity":"recycling"}},"type":"Feature"},
	{"geometry":{"coordinates":[17.13788,48.853417],"type":"Point"},"properties":{"osm_id":"2577857726","tag":{"amenity":"waste_disposal"}},"type":"Feature"},
	{"geometry":{"coordinates":[17.126456,48.846438],"type":"Point"},"properties":{"osm_id":"4761706626","tag":{"amenity":"recycling","recycling_type":"container"}},"type":"Feature"},
	{"geometry":{"coordinates":[17.106995,48.853581],"type":"Point"},"properties":{"osm_id":"7232616478","tag":{"amenity":"recycling","recycling:glass":"no","recycling:glass_bottles":"yes","recycling_type":"container"}},"type":"Feature"},
	{"geometry":{"coordinates":[17.106987,48.85358],"type":"Point"},"properties":{"osm_id":"7232616479","tag":{"amenity":"recycling","recycling:glass":"yes","recycling_type":"container"}},"type":"Feature"}
]
}
