{
"type": "FeatureCollection",
"features": [
	{"geometry":{"coordinates":[17.077441,48.168851],"type":"Point"},"properties":{"osm_id":"259401057","tag":{"amenity":"recycling"}},"type":"Feature"},
	{"geometry":{"coordinates":[17.055899,48.193779],"type":"Point"},"properties":{"osm_id":"1962458519","tag":{"amenity":"recycling","recycling:cans":"yes","recycling:glass":"yes","recycling:paper":"yes","recycling_type":"container"}},"type":"Feature"},
	{"geometry":{"coordinates":[17.056526,48.194115],"type":"Point"},"properties":{"osm_id":"1962458551","tag":{"amenity":"recycling","recycling:cans":"yes","recycling:glass":"yes","recycling:paper":"yes","recycling_type":"container"}},"type":"Feature"},
	{"geometry":{"coordinates":[17.072546,48.178937],"type":"Point"},"properties":{"osm_id":"3073840487","tag":{"amenity":"waste_basket"}},"type":"Feature"},
	{"geometry":{"coordinates":[17.107683,48.169617],"type":"Point"},"properties":{"osm_id":"3304194407","tag":{"amenity":"recycling","recycling:cans":"yes","recycling:clothes":"yes","recycling:glass":"yes","recycling:paper":"yes","recycling:plastic":"yes","recycling_type":"container"}},"type":"Feature"},
	{"geometry":{"coordinates":[17.110165,48.169874],"type":"Point"},"properties":{"osm_id":"3304194408","tag":{"amenity":"recycling","recycling:cans":"yes","recycling:glass":"yes","recycling:plastic":"yes"}},"type":"Feature"},
	{"geometry":{"coordinates":[17.095326,48.169728],"type":"Point"},"properties":{"osm_id":"3909424128","tag":{"amenity":"waste_basket"}},"type":"Feature"},
	{"geometry":{"coordinates":[17.093736,48.169857],"type":"Point"},"properties":{"osm_id":"3909424130","tag":{"amenity":"waste_basket"}},"type":"Feature"},
	{"geometry":{"coordinates":[17.095196,48.170255],"type":"Point"},"properties":{"osm_id":"3911103909","tag":{"amenity":"waste_basket"}},"type":"Feature"},
	{"geometry":{"coordinates":[17.094239,48.168847],"type":"Point"},"properties":{"osm_id":"3911104673","tag":{"amenity":"waste_basket"}},"type":"Feature"},
	{"geometry":{"coordinates":[17.094627,48.170149],"type":"Point"},"properties":{"osm_id":"3914428556","tag":{"amenity":"waste_basket"}},"type":"Feature"},
	{"geometry":{"coordinates":[17.094605,48.170259],"type":"Point"},"properties":{"osm_id":"3914428757","tag":{"amenity":"waste_basket"}},"type":"Feature"},
	{"geometry":{"coordinates":[17.09344,48.16977],"type":"Point"},"properties":{"osm_id":"3914428770","tag":{"amenity":"waste_basket"}},"type":"Feature"},
	{"geometry":{"coordinates":[17.093646,48.168361],"type":"Point"},"properties":{"osm_id":"3914428814","tag":{"amenity":"waste_basket"}},"type":"Feature"},
	{"geometry":{"coordinates":[17.057973,48.180214],"type":"Point"},"properties":{"osm_id":"4020483492","tag":{"amenity":"recycling","opening_hours":"Mo-Fr 08:30-16:00; Sa-Su 09:00-12:00","recycling:scrap_metal":"yes","recycling_type":"centre"}},"type":"Feature"},
	{"geometry":{"coordinates":[17.127693,48.169243],"type":"Point"},"properties":{"name":"Kovo\u00c5\u00a1rot Palkov","osm_id":"4633248988","tag":{"addr:city":"Bratislava","addr:housenumber":"34","addr:street":"Ra\u00c4\u008dianska","addr:streetnumber":"34","amenity":"recycling","email":"info@palkov.sk","opening_hours":"Mo-Su 08:00-20:00","phone":"+421 948 545 100","recycling:paper":"yes","recycling:scrap_metal":"yes","recycling_type":"centre","website":"https://www.palkov.sk/"}},"type":"Feature"},
	{"geometry":{"coordinates":[17.13411,48.185694],"type":"Point"},"properties":{"osm_id":"4799759823","tag":{"access":"private","amenity":"waste_disposal","collection_times":"Tu 06:00-12:00, Sa 06:00-12:00","operator":"Eproma","waste":"mixed;plastic;recycling"}},"type":"Feature"},
	{"geometry":{"coordinates":[17.135008,48.175595],"type":"Point"},"properties":{"osm_id":"4874483692","tag":{"amenity":"waste_basket"}},"type":"Feature"},
	{"geometry":{"coordinates":[17.135289,48.175608],"type":"Point"},"properties":{"osm_id":"4874483693","tag":{"amenity":"waste_basket"}},"type":"Feature"},
	{"geometry":{"coordinates":[17.138402,48.195722],"type":"Point"},"properties":{"osm_id":"4946954265","tag":{"amenity":"waste_basket"}},"type":"Feature"},
	{"geometry":{"coordinates":[17.135064,48.19189],"type":"Point"},"properties":{"osm_id":"5175028261","tag":{"amenity":"waste_basket"}},"type":"Feature"},
	{"geometry":{"coordinates":[17.134887,48.191921],"type":"Point"},"properties":{"osm_id":"5175028262","tag":{"amenity":"waste_basket"}},"type":"Feature"},
	{"geometry":{"coordinates":[17.135853,48.191634],"type":"Point"},"properties":{"osm_id":"5175028263","tag":{"amenity":"waste_basket"}},"type":"Feature"},
	{"geometry":{"coordinates":[17.136198,48.191237],"type":"Point"},"properties":{"osm_id":"5175028264","tag":{"amenity":"waste_basket"}},"type":"Feature"},
	{"geometry":{"coordinates":[17.137372,48.197998],"type":"Point"},"properties":{"osm_id":"5236525276","tag":{"amenity":"waste_basket"}},"type":"Feature"},
	{"geometry":{"coordinates":[17.134961,48.198936],"type":"Point"},"properties":{"barrier":"gate","osm_id":"5236525316"},"type":"Feature"},
	{"geometry":{"coordinates":[17.134887,48.198935],"type":"Point"},"properties":{"barrier":"gate","osm_id":"5236525317"},"type":"Feature"},
	{"geometry":{"coordinates":[17.137913,48.193689],"type":"Point"},"properties":{"osm_id":"5313697432","tag":{"amenity":"waste_basket"}},"type":"Feature"},
	{"geometry":{"coordinates":[17.132472,48.183078],"type":"Point"},"properties":{"osm_id":"5322960186","tag":{"amenity":"recycling","recycling:paper":"yes","recycling:plastic":"yes","recycling_type":"container"}},"type":"Feature"},
	{"geometry":{"coordinates":[17.137637,48.19564],"type":"Point"},"properties":{"osm_id":"5336795259","tag":{"amenity":"waste_disposal"}},"type":"Feature"},
	{"geometry":{"coordinates":[17.138127,48.19616],"type":"Point"},"properties":{"osm_id":"5336795288","tag":{"amenity":"waste_disposal"}},"type":"Feature"},
	{"geometry":{"coordinates":[17.13862,48.196683],"type":"Point"},"properties":{"osm_id":"5336795297","tag":{"amenity":"waste_disposal"}},"type":"Feature"},
	{"geometry":{"coordinates":[17.13354,48.195238],"type":"Point"},"properties":{"barrier":"gate","osm_id":"5352520229"},"type":"Feature"},
	{"geometry":{"coordinates":[17.13138,48.195274],"type":"Point"},"properties":{"barrier":"gate","osm_id":"5352520287"},"type":"Feature"},
	{"geometry":{"coordinates":[17.132573,48.194832],"type":"Point"},"properties":{"barrier":"gate","osm_id":"5352520313"},"type":"Feature"},
	{"geometry":{"coordinates":[17.132276,48.195007],"type":"Point"},"properties":{"barrier":"gate","osm_id":"5352520318"},"type":"Feature"},
	{"geometry":{"coordinates":[17.126035,48.172454],"type":"Point"},"properties":{"osm_id":"5721273161","tag":{"amenity":"waste_disposal"}},"type":"Feature"},
	{"geometry":{"coordinates":[17.068507,48.21485],"type":"Point"},"properties":{"osm_id":"5864439463","tag":{"amenity":"waste_basket"}},"type":"Feature"},
	{"geometry":{"coordinates":[17.067686,48.21417],"type":"Point"},"properties":{"osm_id":"5864439618","tag":{"amenity":"waste_basket"}},"type":"Feature"},
	{"geometry":{"coordinates":[17.067931,48.213922],"type":"Point"},"properties":{"osm_id":"5864439624","tag":{"amenity":"waste_basket"}},"type":"Feature"},
	{"geometry":{"coordinates":[17.067997,48.213731],"type":"Point"},"properties":{"osm_id":"5864439626","tag":{"amenity":"waste_basket"}},"type":"Feature"},
	{"geometry":{"coordinates":[17.067651,48.213786],"type":"Point"},"properties":{"osm_id":"5864439650","tag":{"amenity":"waste_basket"}},"type":"Feature"},
	{"geometry":{"coordinates":[17.08621,48.215975],"type":"Point"},"properties":{"osm_id":"5869194140","tag":{"amenity":"waste_basket"}},"type":"Feature"},
	{"geometry":{"coordinates":[17.064151,48.197494],"type":"Point"},"properties":{"osm_id":"5869318377","tag":{"amenity":"waste_basket"}},"type":"Feature"},
	{"geometry":{"coordinates":[17.050818,48.193853],"type":"Point"},"properties":{"osm_id":"6451411287","tag":{"amenity":"waste_disposal"}},"type":"Feature"},
	{"geometry":{"coordinates":[17.051048,48.193816],"type":"Point"},"properties":{"osm_id":"6451411385","tag":{"amenity":"waste_basket"}},"type":"Feature"},
	{"geometry":{"coordinates":[17.134029,48.185774],"type":"Point"},"properties":{"osm_id":"7729099421","tag":{"amenity":"recycling","recycling:glass":"yes","recycling:glass_bottles":"yes","recycling_type":"container"}},"type":"Feature"},
	{"geometry":{"coordinates":[17.116966,48.175642],"type":"Point"},"properties":{"osm_id":"7926420765","tag":{"amenity":"recycling","operator":"HUMANA","recycling:clothes":"yes","recycling:shoes":"yes","recycling_type":"container"}},"type":"Feature"},
	{"geometry":{"coordinates":[17.082786,48.167035],"type":"Point"},"properties":{"osm_id":"7929642914","tag":{"amenity":"recycling","recycling:glass":"yes","recycling:paper":"yes","recycling:plastic":"yes","recycling_type":"container"}},"type":"Feature"}
]
}
