{
"type": "FeatureCollection",
"features": [
	{"geometry":{"coordinates":[73.284952,54.973241],"type":"Point"},"properties":{"osm_id":"4181531828","tag":{"amenity":"recycling","covered":"yes","indoor":"no","opening_hours":"24/7","recycling:fluorescent_tubes":"yes","recycling:low_energy_bulbs":"yes","recycling_type":"container"}},"type":"Feature"},
	{"geometry":{"coordinates":[73.284932,54.973252],"type":"Point"},"properties":{"osm_id":"4181531829","tag":{"amenity":"recycling","covered":"yes","indoor":"no","opening_hours":"24/7","recycling:batteries":"yes","recycling_type":"container"}},"type":"Feature"},
	{"geometry":{"coordinates":[73.298836,54.97684],"type":"Point"},"properties":{"osm_id":"4613948282","tag":{"amenity":"waste_disposal"}},"type":"Feature"},
	{"geometry":{"coordinates":[73.282474,54.977026],"type":"Point"},"properties":{"osm_id":"4613948550","tag":{"amenity":"waste_disposal"}},"type":"Feature"},
	{"geometry":{"coordinates":[73.252566,54.969915],"type":"Point"},"properties":{"osm_id":"4894206522","tag":{"amenity":"waste_disposal"}},"type":"Feature"},
	{"geometry":{"coordinates":[73.270266,54.929742],"type":"Point"},"properties":{"osm_id":"5397839555","tag":{"amenity":"waste_disposal"}},"type":"Feature"},
	{"geometry":{"coordinates":[73.289749,54.975736],"type":"Point"},"properties":{"osm_id":"5761842446","tag":{"amenity":"waste_disposal"}},"type":"Feature"},
	{"geometry":{"coordinates":[73.271773,54.930158],"type":"Point"},"properties":{"osm_id":"6072154694","tag":{"amenity":"waste_disposal"}},"type":"Feature"},
	{"geometry":{"coordinates":[73.251474,54.943542],"type":"Point"},"properties":{"osm_id":"6517987560","tag":{"amenity":"waste_disposal"}},"type":"Feature"},
	{"geometry":{"coordinates":[73.291739,54.974058],"type":"Point"},"properties":{"osm_id":"6801208668","tag":{"amenity":"waste_disposal"}},"type":"Feature"}
]
}
