{
"type": "FeatureCollection",
"features": [
	{"geometry":{"coordinates":[61.945347,56.387308],"type":"Point"},"properties":{"osm_id":"2788048266","tag":{"amenity":"waste_disposal"}},"type":"Feature"},
	{"geometry":{"coordinates":[61.936068,56.393278],"type":"Point"},"properties":{"osm_id":"2864629522","tag":{"amenity":"waste_disposal"}},"type":"Feature"},
	{"geometry":{"coordinates":[61.938648,56.389526],"type":"Point"},"properties":{"osm_id":"2879949696","tag":{"amenity":"waste_disposal"}},"type":"Feature"},
	{"geometry":{"coordinates":[61.951509,56.385711],"type":"Point"},"properties":{"osm_id":"2887372473","tag":{"amenity":"waste_disposal"}},"type":"Feature"},
	{"geometry":{"coordinates":[61.960226,56.388594],"type":"Point"},"properties":{"osm_id":"2903159896","tag":{"amenity":"waste_disposal"}},"type":"Feature"},
	{"geometry":{"coordinates":[61.946022,56.375807],"type":"Point"},"properties":{"osm_id":"2904816548","tag":{"amenity":"waste_disposal"}},"type":"Feature"},
	{"geometry":{"coordinates":[61.950741,56.377237],"type":"Point"},"properties":{"osm_id":"2904816563","tag":{"amenity":"waste_disposal"}},"type":"Feature"},
	{"geometry":{"coordinates":[61.932875,56.387203],"type":"Point"},"properties":{"osm_id":"2904836152","tag":{"amenity":"waste_basket"}},"type":"Feature"},
	{"geometry":{"coordinates":[61.947267,56.390251],"type":"Point"},"properties":{"osm_id":"2905923489","tag":{"amenity":"waste_disposal"}},"type":"Feature"},
	{"geometry":{"coordinates":[61.950289,56.383815],"type":"Point"},"properties":{"osm_id":"2932305751","tag":{"amenity":"waste_disposal"}},"type":"Feature"},
	{"geometry":{"coordinates":[61.95143,56.390676],"type":"Point"},"properties":{"osm_id":"2935191974","tag":{"amenity":"waste_disposal"}},"type":"Feature"},
	{"geometry":{"coordinates":[61.948273,56.391975],"type":"Point"},"properties":{"osm_id":"2973339889","tag":{"amenity":"waste_disposal"}},"type":"Feature"},
	{"geometry":{"coordinates":[61.937938,56.381275],"type":"Point"},"properties":{"osm_id":"3084801468","tag":{"amenity":"waste_disposal"}},"type":"Feature"},
	{"geometry":{"coordinates":[61.93632,56.384332],"type":"Point"},"properties":{"osm_id":"3084801472","tag":{"amenity":"waste_disposal"}},"type":"Feature"},
	{"geometry":{"coordinates":[61.917217,56.388078],"type":"Point"},"properties":{"osm_id":"3095340323","tag":{"amenity":"waste_disposal"}},"type":"Feature"},
	{"geometry":{"coordinates":[61.919766,56.385224],"type":"Point"},"properties":{"osm_id":"3133130487","tag":{"amenity":"waste_disposal"}},"type":"Feature"},
	{"geometry":{"coordinates":[61.923785,56.386743],"type":"Point"},"properties":{"osm_id":"3152573752","tag":{"amenity":"waste_disposal"}},"type":"Feature"},
	{"geometry":{"coordinates":[61.925414,56.386978],"type":"Point"},"properties":{"osm_id":"3154047525","tag":{"amenity":"waste_disposal"}},"type":"Feature"},
	{"geometry":{"coordinates":[61.951257,56.379156],"type":"Point"},"properties":{"osm_id":"3199908030","tag":{"amenity":"waste_disposal"}},"type":"Feature"},
	{"geometry":{"coordinates":[61.952711,56.38005],"type":"Point"},"properties":{"osm_id":"3199908035","tag":{"amenity":"waste_disposal"}},"type":"Feature"},
	{"geometry":{"coordinates":[61.943951,56.38745],"type":"Point"},"properties":{"osm_id":"3428363085","tag":{"amenity":"waste_basket"}},"type":"Feature"},
	{"geometry":{"coordinates":[61.95126,56.393688],"type":"Point"},"properties":{"osm_id":"3428796329","tag":{"amenity":"waste_basket"}},"type":"Feature"},
	{"geometry":{"coordinates":[61.94436,56.387714],"type":"Point"},"properties":{"osm_id":"3428811465","tag":{"amenity":"waste_basket"}},"type":"Feature"},
	{"geometry":{"coordinates":[61.941942,56.387528],"type":"Point"},"properties":{"osm_id":"3428962328","tag":{"amenity":"waste_basket"}},"type":"Feature"},
	{"geometry":{"coordinates":[61.942755,56.386782],"type":"Point"},"properties":{"osm_id":"3429052191","tag":{"amenity":"waste_basket"}},"type":"Feature"},
	{"geometry":{"coordinates":[61.942723,56.386654],"type":"Point"},"properties":{"osm_id":"3429052192","tag":{"amenity":"waste_basket"}},"type":"Feature"},
	{"geometry":{"coordinates":[61.938925,56.385853],"type":"Point"},"properties":{"osm_id":"3429056886","tag":{"amenity":"waste_basket"}},"type":"Feature"},
	{"geometry":{"coordinates":[61.940265,56.386141],"type":"Point"},"properties":{"osm_id":"3430436892","tag":{"amenity":"waste_basket"}},"type":"Feature"},
	{"geometry":{"coordinates":[61.933186,56.390752],"type":"Point"},"properties":{"osm_id":"4155872091","tag":{"amenity":"waste_disposal"}},"type":"Feature"},
	{"geometry":{"coordinates":[61.934337,56.390745],"type":"Point"},"properties":{"osm_id":"4155872092","tag":{"amenity":"waste_disposal"}},"type":"Feature"},
	{"geometry":{"coordinates":[61.939315,56.394417],"type":"Point"},"properties":{"name":"\u00d0\u009f\u00d1\u0080\u00d0\u00b8\u00d0\u00b5\u00d0\u00bc \u00d0\u00bc\u00d0\u00b5\u00d1\u0082\u00d0\u00b0\u00d0\u00bb\u00d0\u00bb\u00d0\u00b0","osm_id":"4158797389","tag":{"amenity":"recycling"}},"type":"Feature"}
]
}
