{
"type": "FeatureCollection",
"features": [
	{"geometry":{"coordinates":[25.611939,65.041387],"type":"Point"},"properties":{"osm_id":"297515170","tag":{"amenity":"waste_basket"}},"type":"Feature"},
	{"geometry":{"coordinates":[25.591271,65.041482],"type":"Point"},"properties":{"osm_id":"297554838","tag":{"amenity":"waste_basket"}},"type":"Feature"},
	{"geometry":{"coordinates":[25.605245,65.043755],"type":"Point"},"properties":{"osm_id":"408726503","tag":{"amenity":"waste_basket"}},"type":"Feature"},
	{"geometry":{"coordinates":[25.603324,65.046996],"type":"Point"},"properties":{"osm_id":"408726507","tag":{"amenity":"waste_basket"}},"type":"Feature"},
	{"geometry":{"coordinates":[25.589184,65.048002],"type":"Point"},"properties":{"osm_id":"769863785","tag":{"amenity":"waste_basket"}},"type":"Feature"},
	{"geometry":{"coordinates":[25.597124,65.045499],"type":"Point"},"properties":{"osm_id":"1278454113","tag":{"amenity":"waste_basket"}},"type":"Feature"},
	{"geometry":{"coordinates":[25.612337,65.041205],"type":"Point"},"properties":{"highway":"bus_stop","osm_id":"1280467043","tag":{"amenity":"waste_basket"}},"type":"Feature"},
	{"geometry":{"coordinates":[25.612219,65.046589],"type":"Point"},"properties":{"osm_id":"1280467047","tag":{"amenity":"waste_basket"}},"type":"Feature"},
	{"geometry":{"coordinates":[25.602446,65.051578],"type":"Point"},"properties":{"osm_id":"1286091913","tag":{"amenity":"waste_basket"}},"type":"Feature"},
	{"geometry":{"coordinates":[25.577028,65.03523],"type":"Point"},"properties":{"osm_id":"1289448713","tag":{"amenity":"waste_basket"}},"type":"Feature"},
	{"geometry":{"coordinates":[25.581857,65.036223],"type":"Point"},"properties":{"osm_id":"1289449749","tag":{"amenity":"waste_basket"}},"type":"Feature"},
	{"geometry":{"coordinates":[25.59923,65.041909],"type":"Point"},"properties":{"osm_id":"1290816114","tag":{"amenity":"waste_basket"}},"type":"Feature"}
]
}
