{
"type": "FeatureCollection",
"features": [
	{"geometry":{"coordinates":[25.576438,60.986051],"type":"Point"},"properties":{"osm_id":"356755731","tag":{"amenity":"recycling","recycling:cardboard":"yes","recycling:glass":"yes","recycling:paper":"yes","recycling:scrap_metal":"yes"}},"type":"Feature"},
	{"geometry":{"coordinates":[25.576435,60.985994],"type":"Point"},"properties":{"osm_id":"356755858","tag":{"amenity":"recycling","recycling:clothes":"yes"}},"type":"Feature"},
	{"geometry":{"coordinates":[25.658334,60.976439],"type":"Point"},"properties":{"osm_id":"409448802","tag":{"amenity":"waste_basket"}},"type":"Feature"},
	{"geometry":{"coordinates":[25.6583,60.976267],"type":"Point"},"properties":{"osm_id":"409448804","tag":{"amenity":"waste_basket"}},"type":"Feature"},
	{"geometry":{"coordinates":[25.646253,60.973153],"type":"Point"},"properties":{"osm_id":"449149515","tag":{"amenity":"waste_basket"}},"type":"Feature"},
	{"geometry":{"coordinates":[25.648003,60.982736],"type":"Point"},"properties":{"highway":"bus_stop","name":"Konserttitalo","osm_id":"471569235","tag":{"amenity":"waste_basket","shelter":"yes"}},"type":"Feature"},
	{"geometry":{"coordinates":[25.636904,60.980026],"type":"Point"},"properties":{"highway":"bus_stop","name":"Myt\u00c3\u00a4j\u00c3\u00a4inen","osm_id":"517798836","tag":{"amenity":"waste_basket","shelter":"yes"}},"type":"Feature"},
	{"geometry":{"coordinates":[25.658974,60.982903],"type":"Point"},"properties":{"osm_id":"536511755","tag":{"amenity":"waste_basket","colour":"silver","material":"metal"}},"type":"Feature"},
	{"geometry":{"coordinates":[25.595193,60.978926],"type":"Point"},"properties":{"highway":"bus_stop","name":"Mets\u00c3\u00a4kangas","osm_id":"541638977","tag":{"amenity":"waste_basket","name:fi":"Mets\u00c3\u00a4kangas","shelter":"yes"}},"type":"Feature"},
	{"geometry":{"coordinates":[25.654896,60.983326],"type":"Point"},"properties":{"osm_id":"560913561","tag":{"amenity":"waste_basket"}},"type":"Feature"},
	{"geometry":{"coordinates":[25.654977,60.98313],"type":"Point"},"properties":{"osm_id":"560913563","tag":{"amenity":"waste_basket"}},"type":"Feature"},
	{"geometry":{"coordinates":[25.593861,60.978256],"type":"Point"},"properties":{"highway":"bus_stop","name":"Satulakatu","osm_id":"568459285","tag":{"amenity":"waste_basket","name:fi":"Satulakatu","shelter":"yes"}},"type":"Feature"},
	{"geometry":{"coordinates":[25.578367,60.985723],"type":"Point"},"properties":{"osm_id":"573434531","tag":{"amenity":"waste_basket"}},"type":"Feature"},
	{"geometry":{"coordinates":[25.614502,60.974837],"type":"Point"},"properties":{"highway":"bus_stop","name":"K\u00c3\u00a4rp\u00c3\u00a4nen","osm_id":"579855866","tag":{"amenity":"waste_basket","shelter":"yes"}},"type":"Feature"},
	{"geometry":{"coordinates":[25.617943,60.976052],"type":"Point"},"properties":{"highway":"bus_stop","name":"Harjunalusta","osm_id":"579855868","tag":{"amenity":"waste_basket","shelter":"no"}},"type":"Feature"},
	{"geometry":{"coordinates":[25.613575,60.975518],"type":"Point"},"properties":{"highway":"bus_stop","osm_id":"583316416","tag":{"amenity":"waste_basket","shelter":"no"}},"type":"Feature"},
	{"geometry":{"coordinates":[25.592688,60.979812],"type":"Point"},"properties":{"osm_id":"590087342","tag":{"addr:city":"Lahti","addr:housenumber":"8","addr:street":"Petsamonkatu","amenity":"recycling","recycling:batteries":"yes","recycling:cans":"yes","recycling:clothes":"yes","recycling:glass":"yes","recycling:paper":"yes"}},"type":"Feature"},
	{"geometry":{"coordinates":[25.589465,60.975787],"type":"Point"},"properties":{"highway":"bus_stop","name":"Riimukatu","osm_id":"597287449","tag":{"amenity":"waste_basket","name:fi":"Riimukatu","shelter":"yes"}},"type":"Feature"},
	{"geometry":{"coordinates":[25.591727,60.977045],"type":"Point"},"properties":{"highway":"bus_stop","name":"Suitsikatu","osm_id":"597287475","tag":{"amenity":"waste_basket","name:fi":"Suitsikatu","shelter":"yes"}},"type":"Feature"},
	{"geometry":{"coordinates":[25.592908,60.977971],"type":"Point"},"properties":{"highway":"bus_stop","name":"Satulakatu","osm_id":"597287508","tag":{"amenity":"waste_basket","name:fi":"Satulakatu","shelter":"no"}},"type":"Feature"},
	{"geometry":{"coordinates":[25.584217,60.978751],"type":"Point"},"properties":{"highway":"bus_stop","name":"Hakalankatu","osm_id":"600036494","tag":{"amenity":"waste_basket","name:fi":"Hakalankatu","shelter":"yes"}},"type":"Feature"},
	{"geometry":{"coordinates":[25.593323,60.980983],"type":"Point"},"properties":{"osm_id":"628808636","tag":{"amenity":"recycling","recycling:cans":"yes"}},"type":"Feature"},
	{"geometry":{"coordinates":[25.657433,60.979728],"type":"Point"},"properties":{"osm_id":"691220583","tag":{"amenity":"waste_basket","colour":"black","waste":"trash"}},"type":"Feature"},
	{"geometry":{"coordinates":[25.657706,60.979709],"type":"Point"},"properties":{"osm_id":"691220586","tag":{"amenity":"waste_basket","colour":"black","waste":"trash"}},"type":"Feature"},
	{"geometry":{"coordinates":[25.646959,60.988225],"type":"Point"},"properties":{"osm_id":"811291392","tag":{"amenity":"waste_basket"}},"type":"Feature"},
	{"geometry":{"coordinates":[25.657223,60.973924],"type":"Point"},"properties":{"osm_id":"1844240527","tag":{"amenity":"recycling","location":"overground","recycling:clothes":"yes","recycling:glass":"yes","recycling:paper":"yes","recycling_type":"container"}},"type":"Feature"},
	{"geometry":{"coordinates":[25.591332,60.997076],"type":"Point"},"properties":{"osm_id":"2615064032","tag":{"amenity":"recycling","recycling:cans":"yes","recycling:clothes":"yes","recycling:glass":"yes","recycling:paper":"yes"}},"type":"Feature"},
	{"geometry":{"coordinates":[25.646319,60.979694],"type":"Point"},"properties":{"osm_id":"3689554909","tag":{"amenity":"waste_basket"}},"type":"Feature"},
	{"geometry":{"coordinates":[25.642613,60.988831],"type":"Point"},"properties":{"osm_id":"6633676887","tag":{"amenity":"waste_basket","colour":"silver"}},"type":"Feature"},
	{"geometry":{"coordinates":[25.645241,60.991301],"type":"Point"},"properties":{"osm_id":"6633766692","tag":{"amenity":"waste_basket","colour":"gray","waste":"trash"}},"type":"Feature"},
	{"geometry":{"coordinates":[25.642837,60.988464],"type":"Point"},"properties":{"osm_id":"6633967786","tag":{"amenity":"waste_basket","colour":"gray","waste":"trash"}},"type":"Feature"},
	{"geometry":{"coordinates":[25.643231,60.988586],"type":"Point"},"properties":{"osm_id":"6633967885","tag":{"amenity":"waste_basket","colour":"gray","waste":"trash"}},"type":"Feature"},
	{"geometry":{"coordinates":[25.633683,60.986138],"type":"Point"},"properties":{"osm_id":"6634029485","tag":{"amenity":"waste_basket"}},"type":"Feature"},
	{"geometry":{"coordinates":[25.626607,60.984223],"type":"Point"},"properties":{"osm_id":"6634058887","tag":{"amenity":"waste_basket"}},"type":"Feature"},
	{"geometry":{"coordinates":[25.626581,60.984189],"type":"Point"},"properties":{"osm_id":"6634062486","tag":{"amenity":"waste_basket"}},"type":"Feature"},
	{"geometry":{"coordinates":[25.626424,60.98418],"type":"Point"},"properties":{"osm_id":"6634062488","tag":{"amenity":"recycling"}},"type":"Feature"},
	{"geometry":{"coordinates":[25.589969,60.987324],"type":"Point"},"properties":{"osm_id":"6634104987","tag":{"amenity":"waste_basket"}},"type":"Feature"},
	{"geometry":{"coordinates":[25.589957,60.987353],"type":"Point"},"properties":{"osm_id":"6634104988","tag":{"amenity":"waste_basket"}},"type":"Feature"},
	{"geometry":{"coordinates":[25.642532,60.989046],"type":"Point"},"properties":{"osm_id":"6699305740","tag":{"amenity":"waste_basket"}},"type":"Feature"},
	{"geometry":{"coordinates":[25.643558,60.989885],"type":"Point"},"properties":{"osm_id":"6951334601","tag":{"amenity":"waste_basket","colour":"silver","material":"metal"}},"type":"Feature"},
	{"geometry":{"coordinates":[25.644921,60.991287],"type":"Point"},"properties":{"osm_id":"6951334603","tag":{"amenity":"waste_basket","colour":"silver","material":"metal"}},"type":"Feature"},
	{"geometry":{"coordinates":[25.646048,60.992507],"type":"Point"},"properties":{"osm_id":"6951362461","tag":{"amenity":"waste_basket","colour":"silver","material":"metal"}},"type":"Feature"},
	{"geometry":{"coordinates":[25.653461,60.995098],"type":"Point"},"properties":{"osm_id":"6951452807","tag":{"amenity":"waste_basket","colour":"silver","material":"metal"}},"type":"Feature"},
	{"geometry":{"coordinates":[25.653903,60.994609],"type":"Point"},"properties":{"osm_id":"6951452810","tag":{"amenity":"waste_basket","colour":"green","material":"plastic"}},"type":"Feature"},
	{"geometry":{"coordinates":[25.655154,60.994362],"type":"Point"},"properties":{"osm_id":"6951452811","tag":{"amenity":"waste_basket","colour":"gray"}},"type":"Feature"},
	{"geometry":{"coordinates":[25.65712,60.993918],"type":"Point"},"properties":{"osm_id":"6951479870","tag":{"amenity":"waste_basket","colour":"green","material":"plastic"}},"type":"Feature"},
	{"geometry":{"coordinates":[25.660169,60.992512],"type":"Point"},"properties":{"osm_id":"6951479874","tag":{"amenity":"waste_basket","colour":"green","material":"plastic"}},"type":"Feature"},
	{"geometry":{"coordinates":[25.661425,60.991374],"type":"Point"},"properties":{"osm_id":"6951479875","tag":{"amenity":"waste_basket","colour":"green","material":"plastic"}},"type":"Feature"},
	{"geometry":{"coordinates":[25.661689,60.990981],"type":"Point"},"properties":{"osm_id":"6951479877","tag":{"amenity":"waste_basket","colour":"silver","material":"metal"}},"type":"Feature"},
	{"geometry":{"coordinates":[25.662658,60.990589],"type":"Point"},"properties":{"osm_id":"6951479878","tag":{"amenity":"waste_basket","colour":"green"}},"type":"Feature"},
	{"geometry":{"coordinates":[25.663778,60.982648],"type":"Point"},"properties":{"osm_id":"6951510050","tag":{"amenity":"waste_basket","colour":"silver","material":"metal"}},"type":"Feature"},
	{"geometry":{"coordinates":[25.662865,60.982581],"type":"Point"},"properties":{"osm_id":"6951510053","tag":{"amenity":"waste_basket","colour":"silver","material":"metal"}},"type":"Feature"},
	{"geometry":{"coordinates":[25.644484,60.986022],"type":"Point"},"properties":{"osm_id":"6957244658","tag":{"amenity":"waste_basket","colour":"silver","material":"metal"}},"type":"Feature"},
	{"geometry":{"coordinates":[25.643515,60.985336],"type":"Point"},"properties":{"osm_id":"6957283100","tag":{"amenity":"waste_basket","colour":"silver","material":"metal"}},"type":"Feature"},
	{"geometry":{"coordinates":[25.642982,60.984828],"type":"Point"},"properties":{"osm_id":"6957288683","tag":{"amenity":"waste_basket","colour":"silver","material":"metal"}},"type":"Feature"},
	{"geometry":{"coordinates":[25.642734,60.984422],"type":"Point"},"properties":{"osm_id":"6957289755","tag":{"amenity":"waste_basket","colour":"silver","material":"metal"}},"type":"Feature"},
	{"geometry":{"coordinates":[25.645918,60.984316],"type":"Point"},"properties":{"osm_id":"6957290251","tag":{"amenity":"waste_basket","colour":"green"}},"type":"Feature"},
	{"geometry":{"coordinates":[25.645687,60.984324],"type":"Point"},"properties":{"osm_id":"6957294672","tag":{"amenity":"waste_basket","colour":"green"}},"type":"Feature"},
	{"geometry":{"coordinates":[25.644075,60.98438],"type":"Point"},"properties":{"osm_id":"6957301929","tag":{"amenity":"waste_basket","colour":"green"}},"type":"Feature"},
	{"geometry":{"coordinates":[25.649426,60.983877],"type":"Point"},"properties":{"osm_id":"6957310740","tag":{"amenity":"waste_basket","colour":"silver","material":"metal"}},"type":"Feature"},
	{"geometry":{"coordinates":[25.649544,60.983857],"type":"Point"},"properties":{"osm_id":"6957310741","tag":{"amenity":"waste_basket","colour":"silver","material":"metal"}},"type":"Feature"},
	{"geometry":{"coordinates":[25.644848,60.984127],"type":"Point"},"properties":{"osm_id":"6957311511","tag":{"amenity":"waste_basket","colour":"green"}},"type":"Feature"},
	{"geometry":{"coordinates":[25.647584,60.983971],"type":"Point"},"properties":{"osm_id":"6957311864","tag":{"amenity":"waste_basket","colour":"gray"}},"type":"Feature"},
	{"geometry":{"coordinates":[25.647873,60.983841],"type":"Point"},"properties":{"osm_id":"6957311865","tag":{"amenity":"waste_basket","colour":"silver","material":"metal"}},"type":"Feature"},
	{"geometry":{"coordinates":[25.64673,60.984318],"type":"Point"},"properties":{"osm_id":"6957345221","tag":{"amenity":"waste_basket","colour":"green"}},"type":"Feature"},
	{"geometry":{"coordinates":[25.645833,60.983677],"type":"Point"},"properties":{"osm_id":"6957345653","tag":{"amenity":"waste_basket","colour":"silver","material":"metal"}},"type":"Feature"},
	{"geometry":{"coordinates":[25.648993,60.983841],"type":"Point"},"properties":{"osm_id":"6957345654","tag":{"amenity":"waste_basket","colour":"silver","material":"metal"}},"type":"Feature"},
	{"geometry":{"coordinates":[25.655335,60.983256],"type":"Point"},"properties":{"osm_id":"6957454562","tag":{"amenity":"waste_basket","colour":"gray"}},"type":"Feature"},
	{"geometry":{"coordinates":[25.654229,60.983395],"type":"Point"},"properties":{"osm_id":"6957458443","tag":{"amenity":"waste_basket","colour":"silver","material":"metal"}},"type":"Feature"},
	{"geometry":{"coordinates":[25.654392,60.983387],"type":"Point"},"properties":{"osm_id":"6957458444","tag":{"amenity":"waste_basket","colour":"silver","material":"metal"}},"type":"Feature"},
	{"geometry":{"coordinates":[25.65511,60.983277],"type":"Point"},"properties":{"osm_id":"6957458446","tag":{"amenity":"waste_basket","colour":"silver","material":"metal"}},"type":"Feature"},
	{"geometry":{"coordinates":[25.651425,60.98364],"type":"Point"},"properties":{"osm_id":"6957476702","tag":{"amenity":"waste_basket","colour":"silver","material":"metal"}},"type":"Feature"},
	{"geometry":{"coordinates":[25.658413,60.982988],"type":"Point"},"properties":{"osm_id":"6957481365","tag":{"amenity":"waste_basket","colour":"silver","material":"metal"}},"type":"Feature"},
	{"geometry":{"coordinates":[25.659476,60.982896],"type":"Point"},"properties":{"osm_id":"6957481366","tag":{"amenity":"waste_basket","colour":"silver","material":"metal"}},"type":"Feature"},
	{"geometry":{"coordinates":[25.652577,60.983529],"type":"Point"},"properties":{"osm_id":"6957487206","tag":{"amenity":"waste_basket","colour":"silver","material":"metal"}},"type":"Feature"},
	{"geometry":{"coordinates":[25.65344,60.983459],"type":"Point"},"properties":{"osm_id":"6957487208","tag":{"amenity":"waste_basket","colour":"silver","material":"metal"}},"type":"Feature"},
	{"geometry":{"coordinates":[25.656783,60.983123],"type":"Point"},"properties":{"osm_id":"6957498341","tag":{"amenity":"waste_basket","colour":"silver","material":"metal"}},"type":"Feature"},
	{"geometry":{"coordinates":[25.655609,60.983227],"type":"Point"},"properties":{"osm_id":"6957501158","tag":{"amenity":"waste_basket","colour":"silver","material":"metal"}},"type":"Feature"},
	{"geometry":{"coordinates":[25.655982,60.98319],"type":"Point"},"properties":{"osm_id":"6957501160","tag":{"amenity":"waste_basket","colour":"silver","material":"metal"}},"type":"Feature"},
	{"geometry":{"coordinates":[25.657267,60.983096],"type":"Point"},"properties":{"osm_id":"6957503629","tag":{"amenity":"waste_basket","colour":"silver","material":"metal"}},"type":"Feature"},
	{"geometry":{"coordinates":[25.657726,60.983059],"type":"Point"},"properties":{"osm_id":"6957503630","tag":{"amenity":"waste_basket","colour":"silver","material":"metal"}},"type":"Feature"},
	{"geometry":{"coordinates":[25.646751,60.987606],"type":"Point"},"properties":{"osm_id":"7001083428","tag":{"amenity":"waste_basket","colour":"gray","waste":"trash"}},"type":"Feature"},
	{"geometry":{"coordinates":[25.659123,60.984912],"type":"Point"},"properties":{"osm_id":"7001088486","tag":{"amenity":"waste_basket","colour":"gray","waste":"trash"}},"type":"Feature"},
	{"geometry":{"coordinates":[25.650913,60.985871],"type":"Point"},"properties":{"osm_id":"7001092707","tag":{"amenity":"waste_basket","colour":"silver","material":"metal","waste":"trash"}},"type":"Feature"},
	{"geometry":{"coordinates":[25.646426,60.987965],"type":"Point"},"properties":{"osm_id":"7001093032","tag":{"amenity":"waste_basket","colour":"gray","waste":"trash"}},"type":"Feature"},
	{"geometry":{"coordinates":[25.645164,60.987617],"type":"Point"},"properties":{"osm_id":"7001093033","tag":{"amenity":"waste_basket","colour":"gray","waste":"trash"}},"type":"Feature"},
	{"geometry":{"coordinates":[25.647921,60.988594],"type":"Point"},"properties":{"osm_id":"7001100998","tag":{"amenity":"waste_basket","colour":"gray","waste":"trash"}},"type":"Feature"},
	{"geometry":{"coordinates":[25.647913,60.989397],"type":"Point"},"properties":{"osm_id":"7001113793","tag":{"amenity":"waste_basket","colour":"gray","waste":"trash"}},"type":"Feature"},
	{"geometry":{"coordinates":[25.644446,60.990526],"type":"Point"},"properties":{"osm_id":"7001135244","tag":{"amenity":"waste_basket","colour":"gray","waste":"trash"}},"type":"Feature"},
	{"geometry":{"coordinates":[25.64364,60.989618],"type":"Point"},"properties":{"osm_id":"7001141286","tag":{"amenity":"waste_basket","colour":"gray","waste":"trash"}},"type":"Feature"},
	{"geometry":{"coordinates":[25.6399,60.98846],"type":"Point"},"properties":{"osm_id":"7001159690","tag":{"amenity":"waste_basket","colour":"green","waste":"trash"}},"type":"Feature"},
	{"geometry":{"coordinates":[25.644258,60.981493],"type":"Point"},"properties":{"osm_id":"7001437455","tag":{"amenity":"waste_basket","colour":"silver","material":"metal","waste":"trash"}},"type":"Feature"},
	{"geometry":{"coordinates":[25.657434,60.980132],"type":"Point"},"properties":{"osm_id":"7001437478","tag":{"amenity":"waste_basket","colour":"black","waste":"trash"}},"type":"Feature"},
	{"geometry":{"coordinates":[25.657399,60.980013],"type":"Point"},"properties":{"osm_id":"7001437479","tag":{"amenity":"waste_basket","colour":"black","waste":"trash"}},"type":"Feature"},
	{"geometry":{"coordinates":[25.656165,60.980255],"type":"Point"},"properties":{"osm_id":"7001441543","tag":{"amenity":"waste_basket","colour":"black","waste":"trash"}},"type":"Feature"},
	{"geometry":{"coordinates":[25.650378,60.980766],"type":"Point"},"properties":{"osm_id":"7001454593","tag":{"amenity":"waste_basket","colour":"gray","waste":"trash"}},"type":"Feature"},
	{"geometry":{"coordinates":[25.656125,60.980143],"type":"Point"},"properties":{"osm_id":"7001467808","tag":{"amenity":"waste_basket","colour":"black","waste":"trash"}},"type":"Feature"},
	{"geometry":{"coordinates":[25.658081,60.98086],"type":"Point"},"properties":{"osm_id":"7001498053","tag":{"amenity":"waste_basket","colour":"black","waste":"trash"}},"type":"Feature"},
	{"geometry":{"coordinates":[25.658203,60.981045],"type":"Point"},"properties":{"osm_id":"7001498054","tag":{"amenity":"waste_basket","colour":"black","waste":"trash"}},"type":"Feature"}
]
}
