{
"type": "FeatureCollection",
"features": [
	{"geometry":{"coordinates":[25.649717,60.390981],"type":"Point"},"properties":{"osm_id":"786581588","tag":{"amenity":"recycling","description":"Bioj\u00c3\u00a4te, kartonki, Paperi & Yleisj\u00c3\u00a4te","recycling:biodegradable":"yes","recycling:cardboard":"yes","recycling:paper":"yes"}},"type":"Feature"},
	{"geometry":{"coordinates":[25.625899,60.393035],"type":"Point"},"properties":{"osm_id":"3804055429","tag":{"amenity":"recycling"}},"type":"Feature"},
	{"geometry":{"coordinates":[25.65043,60.397807],"type":"Point"},"properties":{"osm_id":"4436693060","tag":{"amenity":"waste_basket"}},"type":"Feature"},
	{"geometry":{"coordinates":[25.653598,60.399527],"type":"Point"},"properties":{"osm_id":"4436694209","tag":{"amenity":"waste_basket"}},"type":"Feature"},
	{"geometry":{"coordinates":[25.659767,60.395344],"type":"Point"},"properties":{"osm_id":"5644646251","tag":{"amenity":"waste_basket"}},"type":"Feature"},
	{"geometry":{"coordinates":[25.660256,60.395458],"type":"Point"},"properties":{"osm_id":"5644646275","tag":{"amenity":"waste_basket"}},"type":"Feature"},
	{"geometry":{"coordinates":[25.660429,60.395537],"type":"Point"},"properties":{"osm_id":"5644646278","tag":{"amenity":"waste_basket"}},"type":"Feature"},
	{"geometry":{"coordinates":[25.624373,60.371103],"type":"Point"},"properties":{"osm_id":"6018215410","tag":{"amenity":"recycling","recycling_type":"container"}},"type":"Feature"}
]
}
