{
"type": "FeatureCollection",
"features": [
	{"geometry":{"coordinates":[25.587133,55.96773],"type":"Point"},"properties":{"osm_id":"3548036056","tag":{"amenity":"recycling","recycling:glass_bottles":"yes","recycling:paper":"yes","recycling:plastic_bottles":"yes","recycling_type":"container"}},"type":"Feature"},
	{"geometry":{"coordinates":[25.588706,55.949823],"type":"Point"},"properties":{"name":"IKI Taromatas","osm_id":"4010768319","tag":{"amenity":"recycling","opening_hours":"08:00-22:00","recycling:cans":"yes","recycling:glass":"no","recycling:glass_bottles":"yes","recycling:plastic_bottles":"yes","recycling_type":"centre"}},"type":"Feature"},
	{"geometry":{"coordinates":[25.590259,55.95247],"type":"Point"},"properties":{"name":"Maxima XX Taromatas","osm_id":"4324813897","tag":{"amenity":"recycling","opening_hours":"08:00-22:00","recycling:cans":"yes","recycling:glass":"no","recycling:glass_bottles":"yes","recycling:plastic_bottles":"yes","recycling_type":"centre"}},"type":"Feature"},
	{"geometry":{"coordinates":[25.587312,55.949965],"type":"Point"},"properties":{"osm_id":"4417894086","tag":{"amenity":"recycling","recycling_type":"container"}},"type":"Feature"},
	{"geometry":{"coordinates":[25.583689,55.938157],"type":"Point"},"properties":{"name":"Atliek\u00c5\u00b3 surinkimo aik\u00c5\u00a1tel\u00c4\u0097","osm_id":"4609269791","tag":{"amenity":"recycling","name:lt":"Atliek\u00c5\u00b3 surinkimo aik\u00c5\u00a1tel\u00c4\u0097","recycling_type":"centre"}},"type":"Feature"},
	{"geometry":{"coordinates":[25.600866,55.964839],"type":"Point"},"properties":{"osm_id":"7942813403","tag":{"amenity":"waste_basket"}},"type":"Feature"},
	{"geometry":{"coordinates":[25.600767,55.96483],"type":"Point"},"properties":{"osm_id":"7942813405","tag":{"amenity":"waste_basket"}},"type":"Feature"}
]
}
