{
"type": "FeatureCollection",
"features": [
	{"geometry":{"coordinates":[25.643898,49.566617],"type":"Point"},"properties":{"name":"\u00d0\u00a1\u00d0\u00ba\u00d0\u00bb\u00d0\u00be\u00d1\u0082\u00d0\u00b0\u00d1\u0080\u00d0\u00b0","osm_id":"1332099584","tag":{"amenity":"recycling","recycling_type":"centre"}},"type":"Feature"},
	{"geometry":{"coordinates":[25.588969,49.555946],"type":"Point"},"properties":{"osm_id":"2487456431","tag":{"amenity":"waste_basket"}},"type":"Feature"},
	{"geometry":{"coordinates":[25.588703,49.555951],"type":"Point"},"properties":{"osm_id":"2487456434","tag":{"amenity":"waste_basket"}},"type":"Feature"},
	{"geometry":{"coordinates":[25.592059,49.555339],"type":"Point"},"properties":{"osm_id":"2500619953","tag":{"amenity":"waste_basket"}},"type":"Feature"},
	{"geometry":{"coordinates":[25.591148,49.555423],"type":"Point"},"properties":{"osm_id":"2510500902","tag":{"amenity":"waste_basket"}},"type":"Feature"},
	{"geometry":{"coordinates":[25.641823,49.575456],"type":"Point"},"properties":{"osm_id":"2767010787","tag":{"amenity":"waste_basket"}},"type":"Feature"},
	{"geometry":{"coordinates":[25.641222,49.576696],"type":"Point"},"properties":{"osm_id":"2767010936","tag":{"amenity":"waste_basket"}},"type":"Feature"},
	{"geometry":{"coordinates":[25.640943,49.57688],"type":"Point"},"properties":{"osm_id":"2767010938","tag":{"amenity":"waste_basket"}},"type":"Feature"},
	{"geometry":{"coordinates":[25.635438,49.554183],"type":"Point"},"properties":{"osm_id":"2925297133","tag":{"amenity":"waste_basket"}},"type":"Feature"},
	{"geometry":{"coordinates":[25.588639,49.559978],"type":"Point"},"properties":{"osm_id":"3200714174","tag":{"amenity":"waste_disposal"}},"type":"Feature"},
	{"geometry":{"coordinates":[25.619318,49.560548],"type":"Point"},"properties":{"osm_id":"3426350569","tag":{"amenity":"waste_disposal"}},"type":"Feature"},
	{"geometry":{"coordinates":[25.584043,49.568564],"type":"Point"},"properties":{"osm_id":"3432297720","tag":{"amenity":"waste_disposal"}},"type":"Feature"},
	{"geometry":{"coordinates":[25.584525,49.570537],"type":"Point"},"properties":{"osm_id":"3432304796","tag":{"amenity":"waste_disposal"}},"type":"Feature"},
	{"geometry":{"coordinates":[25.577271,49.577604],"type":"Point"},"properties":{"osm_id":"3433514904","tag":{"amenity":"waste_basket"}},"type":"Feature"},
	{"geometry":{"coordinates":[25.577255,49.577692],"type":"Point"},"properties":{"osm_id":"3433514905","tag":{"amenity":"waste_basket"}},"type":"Feature"},
	{"geometry":{"coordinates":[25.590515,49.55517],"type":"Point"},"properties":{"osm_id":"3748874070","tag":{"amenity":"waste_disposal"}},"type":"Feature"},
	{"geometry":{"coordinates":[25.592387,49.558442],"type":"Point"},"properties":{"osm_id":"3749402033","tag":{"amenity":"waste_disposal"}},"type":"Feature"},
	{"geometry":{"coordinates":[25.589467,49.559458],"type":"Point"},"properties":{"osm_id":"3749402096","tag":{"amenity":"waste_basket"}},"type":"Feature"},
	{"geometry":{"coordinates":[25.595415,49.563003],"type":"Point"},"properties":{"osm_id":"3750184786","tag":{"amenity":"waste_disposal"}},"type":"Feature"},
	{"geometry":{"coordinates":[25.59069,49.560795],"type":"Point"},"properties":{"osm_id":"3750317903","tag":{"amenity":"waste_disposal"}},"type":"Feature"},
	{"geometry":{"coordinates":[25.589007,49.560959],"type":"Point"},"properties":{"osm_id":"3750318159","tag":{"amenity":"waste_disposal"}},"type":"Feature"},
	{"geometry":{"coordinates":[25.59168,49.563154],"type":"Point"},"properties":{"osm_id":"3750343151","tag":{"amenity":"waste_disposal"}},"type":"Feature"},
	{"geometry":{"coordinates":[25.592908,49.563597],"type":"Point"},"properties":{"osm_id":"3750353899","tag":{"amenity":"waste_basket"}},"type":"Feature"},
	{"geometry":{"coordinates":[25.588625,49.558121],"type":"Point"},"properties":{"osm_id":"3751293890","tag":{"amenity":"waste_basket"}},"type":"Feature"},
	{"geometry":{"coordinates":[25.587675,49.567575],"type":"Point"},"properties":{"osm_id":"3754249385","tag":{"amenity":"waste_disposal"}},"type":"Feature"},
	{"geometry":{"coordinates":[25.58767,49.566797],"type":"Point"},"properties":{"osm_id":"3759341465","tag":{"amenity":"waste_disposal"}},"type":"Feature"},
	{"geometry":{"coordinates":[25.595081,49.555815],"type":"Point"},"properties":{"osm_id":"3865731387","tag":{"amenity":"waste_basket"}},"type":"Feature"},
	{"geometry":{"coordinates":[25.595193,49.555839],"type":"Point"},"properties":{"osm_id":"3865731396","tag":{"amenity":"waste_basket"}},"type":"Feature"},
	{"geometry":{"coordinates":[25.590797,49.554968],"type":"Point"},"properties":{"osm_id":"3956823843","tag":{"amenity":"waste_basket"}},"type":"Feature"},
	{"geometry":{"coordinates":[25.590795,49.55499],"type":"Point"},"properties":{"osm_id":"3956823846","tag":{"amenity":"waste_basket"}},"type":"Feature"},
	{"geometry":{"coordinates":[25.590764,49.555198],"type":"Point"},"properties":{"osm_id":"3956823856","tag":{"amenity":"waste_basket"}},"type":"Feature"},
	{"geometry":{"coordinates":[25.592891,49.567394],"type":"Point"},"properties":{"osm_id":"3978170067","tag":{"amenity":"waste_basket"}},"type":"Feature"},
	{"geometry":{"coordinates":[25.59282,49.567491],"type":"Point"},"properties":{"osm_id":"3978170074","tag":{"amenity":"waste_basket"}},"type":"Feature"},
	{"geometry":{"coordinates":[25.592341,49.568488],"type":"Point"},"properties":{"osm_id":"3978170099","tag":{"amenity":"waste_basket"}},"type":"Feature"},
	{"geometry":{"coordinates":[25.592455,49.568564],"type":"Point"},"properties":{"osm_id":"3978170109","tag":{"amenity":"waste_basket"}},"type":"Feature"},
	{"geometry":{"coordinates":[25.59256,49.568611],"type":"Point"},"properties":{"osm_id":"3978170117","tag":{"amenity":"waste_basket"}},"type":"Feature"},
	{"geometry":{"coordinates":[25.592342,49.568802],"type":"Point"},"properties":{"osm_id":"3978170127","tag":{"amenity":"waste_basket"}},"type":"Feature"},
	{"geometry":{"coordinates":[25.589306,49.572341],"type":"Point"},"properties":{"osm_id":"3980731951","tag":{"amenity":"waste_disposal"}},"type":"Feature"},
	{"geometry":{"coordinates":[25.589069,49.572574],"type":"Point"},"properties":{"osm_id":"3980731955","tag":{"amenity":"waste_basket"}},"type":"Feature"},
	{"geometry":{"coordinates":[25.588909,49.57263],"type":"Point"},"properties":{"osm_id":"3980733358","tag":{"amenity":"waste_basket"}},"type":"Feature"},
	{"geometry":{"coordinates":[25.589016,49.572644],"type":"Point"},"properties":{"osm_id":"3980733360","tag":{"amenity":"waste_disposal"}},"type":"Feature"},
	{"geometry":{"coordinates":[25.588513,49.57275],"type":"Point"},"properties":{"osm_id":"3980733365","tag":{"amenity":"waste_basket"}},"type":"Feature"},
	{"geometry":{"coordinates":[25.588455,49.572818],"type":"Point"},"properties":{"osm_id":"3980733372","tag":{"amenity":"waste_basket"}},"type":"Feature"},
	{"geometry":{"coordinates":[25.588707,49.572831],"type":"Point"},"properties":{"osm_id":"3980733373","tag":{"amenity":"waste_basket"}},"type":"Feature"},
	{"geometry":{"coordinates":[25.585428,49.576735],"type":"Point"},"properties":{"osm_id":"3980791655","tag":{"amenity":"waste_basket"}},"type":"Feature"},
	{"geometry":{"coordinates":[25.585727,49.576953],"type":"Point"},"properties":{"osm_id":"3980805562","tag":{"amenity":"waste_basket"}},"type":"Feature"},
	{"geometry":{"coordinates":[25.604503,49.556816],"type":"Point"},"properties":{"osm_id":"4003878968","tag":{"amenity":"waste_basket"}},"type":"Feature"},
	{"geometry":{"coordinates":[25.604495,49.556875],"type":"Point"},"properties":{"osm_id":"4003878972","tag":{"amenity":"waste_basket"}},"type":"Feature"},
	{"geometry":{"coordinates":[25.611398,49.558628],"type":"Point"},"properties":{"osm_id":"4004675530","tag":{"amenity":"waste_disposal"}},"type":"Feature"},
	{"geometry":{"coordinates":[25.610819,49.559477],"type":"Point"},"properties":{"osm_id":"4004675552","tag":{"amenity":"waste_basket"}},"type":"Feature"},
	{"geometry":{"coordinates":[25.611114,49.559544],"type":"Point"},"properties":{"osm_id":"4004675553","tag":{"amenity":"waste_basket"}},"type":"Feature"},
	{"geometry":{"coordinates":[25.598891,49.55422],"type":"Point"},"properties":{"osm_id":"4079538631","tag":{"amenity":"waste_basket"}},"type":"Feature"},
	{"geometry":{"coordinates":[25.619023,49.561168],"type":"Point"},"properties":{"osm_id":"4081155806","tag":{"amenity":"waste_basket"}},"type":"Feature"},
	{"geometry":{"coordinates":[25.638319,49.555864],"type":"Point"},"properties":{"osm_id":"4100693260","tag":{"amenity":"waste_basket"}},"type":"Feature"},
	{"geometry":{"coordinates":[25.638235,49.555889],"type":"Point"},"properties":{"osm_id":"4100693261","tag":{"amenity":"waste_basket"}},"type":"Feature"},
	{"geometry":{"coordinates":[25.638108,49.555975],"type":"Point"},"properties":{"osm_id":"4100693263","tag":{"amenity":"waste_disposal"}},"type":"Feature"},
	{"geometry":{"coordinates":[25.645101,49.562752],"type":"Point"},"properties":{"name":"\u00d0\u0097\u00d0\u00b1\u00d1\u0096\u00d1\u0080 \u00d0\u00bc\u00d0\u00b0\u00d0\u00ba\u00d1\u0083\u00d0\u00bb\u00d0\u00b0\u00d1\u0082\u00d1\u0083\u00d1\u0080\u00d0\u00b8, \u00d0\u00bf\u00d0\u00be\u00d0\u00bb\u00d1\u0096\u00d0\u00b5\u00d1\u0082\u00d0\u00b8\u00d0\u00bb\u00d0\u00b5\u00d0\u00bd\u00d1\u0083","osm_id":"4101939013","tag":{"amenity":"recycling"}},"type":"Feature"},
	{"geometry":{"coordinates":[25.644674,49.568333],"type":"Point"},"properties":{"osm_id":"4104278963","tag":{"amenity":"waste_disposal"}},"type":"Feature"},
	{"geometry":{"coordinates":[25.644346,49.568335],"type":"Point"},"properties":{"osm_id":"4104278966","tag":{"amenity":"waste_basket"}},"type":"Feature"},
	{"geometry":{"coordinates":[25.64425,49.568336],"type":"Point"},"properties":{"osm_id":"4104278967","tag":{"amenity":"waste_basket"}},"type":"Feature"},
	{"geometry":{"coordinates":[25.644806,49.568347],"type":"Point"},"properties":{"osm_id":"4104278969","tag":{"amenity":"waste_basket"}},"type":"Feature"},
	{"geometry":{"coordinates":[25.644219,49.568353],"type":"Point"},"properties":{"osm_id":"4104278970","tag":{"amenity":"waste_basket"}},"type":"Feature"},
	{"geometry":{"coordinates":[25.641038,49.568556],"type":"Point"},"properties":{"osm_id":"4104278973","tag":{"amenity":"waste_basket"}},"type":"Feature"},
	{"geometry":{"coordinates":[25.640892,49.568562],"type":"Point"},"properties":{"osm_id":"4104278974","tag":{"amenity":"waste_basket"}},"type":"Feature"},
	{"geometry":{"coordinates":[25.647283,49.568491],"type":"Point"},"properties":{"osm_id":"4104338187","tag":{"amenity":"waste_basket"}},"type":"Feature"},
	{"geometry":{"coordinates":[25.647196,49.568494],"type":"Point"},"properties":{"osm_id":"4104340790","tag":{"amenity":"waste_basket"}},"type":"Feature"},
	{"geometry":{"coordinates":[25.626261,49.562399],"type":"Point"},"properties":{"osm_id":"4159014779","tag":{"amenity":"waste_basket"}},"type":"Feature"},
	{"geometry":{"coordinates":[25.626029,49.562429],"type":"Point"},"properties":{"osm_id":"4159014787","tag":{"amenity":"waste_disposal"}},"type":"Feature"},
	{"geometry":{"coordinates":[25.626351,49.56243],"type":"Point"},"properties":{"osm_id":"4159014788","tag":{"amenity":"waste_basket"}},"type":"Feature"},
	{"geometry":{"coordinates":[25.626424,49.562458],"type":"Point"},"properties":{"osm_id":"4159014792","tag":{"amenity":"waste_basket"}},"type":"Feature"},
	{"geometry":{"coordinates":[25.639335,49.56145],"type":"Point"},"properties":{"name":"\u00d0\u00a1\u00d0\u00ba\u00d0\u00bb\u00d0\u00be\u00d1\u0082\u00d0\u00b0\u00d1\u0080\u00d0\u00b0","osm_id":"4167364590","tag":{"amenity":"recycling"}},"type":"Feature"},
	{"geometry":{"coordinates":[25.639995,49.563924],"type":"Point"},"properties":{"name":"\u00d0\u00a1\u00d0\u00ba\u00d0\u00bb\u00d0\u00be\u00d1\u0082\u00d0\u00b0\u00d1\u0080\u00d0\u00b0","osm_id":"4232065592","tag":{"amenity":"recycling"}},"type":"Feature"},
	{"geometry":{"coordinates":[25.64029,49.563795],"type":"Point"},"properties":{"name":"\u00d0\u00a1\u00d0\u00ba\u00d0\u00bb\u00d0\u00be\u00d1\u0082\u00d0\u00b0\u00d1\u0080\u00d0\u00b0","osm_id":"4265725092","tag":{"amenity":"recycling"}},"type":"Feature"},
	{"geometry":{"coordinates":[25.638536,49.561415],"type":"Point"},"properties":{"osm_id":"4301818652","tag":{"amenity":"waste_disposal"}},"type":"Feature"},
	{"geometry":{"coordinates":[25.644807,49.567545],"type":"Point"},"properties":{"osm_id":"4317959695","tag":{"amenity":"waste_basket"}},"type":"Feature"},
	{"geometry":{"coordinates":[25.645803,49.567426],"type":"Point"},"properties":{"osm_id":"4317972491","tag":{"amenity":"waste_basket"}},"type":"Feature"},
	{"geometry":{"coordinates":[25.628182,49.5546],"type":"Point"},"properties":{"osm_id":"4533957892","tag":{"amenity":"waste_basket"}},"type":"Feature"},
	{"geometry":{"coordinates":[25.594747,49.55737],"type":"Point"},"properties":{"osm_id":"4656704801","tag":{"amenity":"waste_basket"}},"type":"Feature"},
	{"geometry":{"coordinates":[25.640538,49.575687],"type":"Point"},"properties":{"osm_id":"4656705397","tag":{"amenity":"waste_basket"}},"type":"Feature"},
	{"geometry":{"coordinates":[25.629333,49.560589],"type":"Point"},"properties":{"osm_id":"4752179724","tag":{"amenity":"waste_basket"}},"type":"Feature"},
	{"geometry":{"coordinates":[25.629985,49.560899],"type":"Point"},"properties":{"osm_id":"4752179725","tag":{"amenity":"waste_basket"}},"type":"Feature"},
	{"geometry":{"coordinates":[25.628615,49.56034],"type":"Point"},"properties":{"osm_id":"4752195023","tag":{"amenity":"waste_basket"}},"type":"Feature"},
	{"geometry":{"coordinates":[25.630182,49.560726],"type":"Point"},"properties":{"osm_id":"4752209922","tag":{"amenity":"waste_basket"}},"type":"Feature"},
	{"geometry":{"coordinates":[25.639979,49.561341],"type":"Point"},"properties":{"osm_id":"4752209923","tag":{"amenity":"waste_basket"}},"type":"Feature"},
	{"geometry":{"coordinates":[25.639215,49.562751],"type":"Point"},"properties":{"osm_id":"4752832723","tag":{"amenity":"waste_basket"}},"type":"Feature"},
	{"geometry":{"coordinates":[25.617497,49.557987],"type":"Point"},"properties":{"osm_id":"4753131021","tag":{"amenity":"waste_basket"}},"type":"Feature"},
	{"geometry":{"coordinates":[25.619423,49.562278],"type":"Point"},"properties":{"osm_id":"4754933923","tag":{"amenity":"recycling"}},"type":"Feature"},
	{"geometry":{"coordinates":[25.640758,49.560235],"type":"Point"},"properties":{"osm_id":"4761691522","tag":{"amenity":"waste_disposal"}},"type":"Feature"},
	{"geometry":{"coordinates":[25.630221,49.572161],"type":"Point"},"properties":{"osm_id":"4789684221","tag":{"amenity":"waste_disposal"}},"type":"Feature"},
	{"geometry":{"coordinates":[25.640115,49.562356],"type":"Point"},"properties":{"osm_id":"4857672822","tag":{"amenity":"waste_basket"}},"type":"Feature"},
	{"geometry":{"coordinates":[25.642251,49.559641],"type":"Point"},"properties":{"osm_id":"4857694326","tag":{"amenity":"waste_basket"}},"type":"Feature"},
	{"geometry":{"coordinates":[25.600366,49.554569],"type":"Point"},"properties":{"osm_id":"5585755845","tag":{"amenity":"waste_basket"}},"type":"Feature"}
]
}
