{
"type": "FeatureCollection",
"features": [
	{"geometry":{"coordinates":[25.628459,45.653305],"type":"Point"},"properties":{"osm_id":"296454786","tag":{"amenity":"recycling","layer":"1","operator":"REMAT"}},"type":"Feature"},
	{"geometry":{"coordinates":[25.589641,45.647147],"type":"Point"},"properties":{"osm_id":"506467569","tag":{"amenity":"recycling"}},"type":"Feature"},
	{"geometry":{"coordinates":[25.608937,45.659191],"type":"Point"},"properties":{"osm_id":"3473944197","tag":{"amenity":"waste_disposal"}},"type":"Feature"},
	{"geometry":{"coordinates":[25.61019,45.659328],"type":"Point"},"properties":{"osm_id":"3473944202","tag":{"amenity":"waste_disposal"}},"type":"Feature"},
	{"geometry":{"coordinates":[25.632319,45.645194],"type":"Point"},"properties":{"osm_id":"7791411386","tag":{"amenity":"recycling","covered":"yes","indoor":"no","opening_hours":"24/7","recycling:cans":"yes","recycling:cardboard":"yes","recycling:clothes":"no","recycling:glass":"yes","recycling:glass_bottles":"yes","recycling:paper":"yes","recycling:plastic":"yes","recycling:plastic_bottles":"yes","recycling:plastic_packaging":"yes","recycling:waste":"no","recycling_type":"container"}},"type":"Feature"},
	{"geometry":{"coordinates":[25.632281,45.645173],"type":"Point"},"properties":{"osm_id":"7791411387","tag":{"access":"yes","amenity":"waste_disposal","waste":"mixed"}},"type":"Feature"},
	{"geometry":{"coordinates":[25.630563,45.644838],"type":"Point"},"properties":{"osm_id":"9077353208","tag":{"amenity":"waste_disposal"}},"type":"Feature"},
	{"geometry":{"coordinates":[25.627686,45.647488],"type":"Point"},"properties":{"osm_id":"9077353209","tag":{"amenity":"waste_disposal"}},"type":"Feature"},
	{"geometry":{"coordinates":[25.627643,45.647479],"type":"Point"},"properties":{"osm_id":"9077353210","tag":{"amenity":"recycling","recycling_type":"container"}},"type":"Feature"}
]
}
