{
"type": "FeatureCollection",
"features": [
	{"geometry":{"coordinates":[-81.97369,26.605203],"type":"Point"},"properties":{"osm_id":"3655908309","tag":{"amenity":"waste_disposal"}},"type":"Feature"},
	{"geometry":{"coordinates":[-81.974021,26.60598],"type":"Point"},"properties":{"osm_id":"3655909407","tag":{"amenity":"waste_disposal"}},"type":"Feature"},
	{"geometry":{"coordinates":[-81.973699,26.606015],"type":"Point"},"properties":{"osm_id":"3655909430","tag":{"amenity":"waste_disposal"}},"type":"Feature"},
	{"geometry":{"coordinates":[-81.973401,26.607885],"type":"Point"},"properties":{"osm_id":"3655911290","tag":{"amenity":"waste_disposal"}},"type":"Feature"},
	{"geometry":{"coordinates":[-81.977885,26.604788],"type":"Point"},"properties":{"osm_id":"3670856393","tag":{"amenity":"waste_disposal"}},"type":"Feature"},
	{"geometry":{"coordinates":[-81.977115,26.604816],"type":"Point"},"properties":{"osm_id":"3670856418","tag":{"amenity":"waste_disposal"}},"type":"Feature"},
	{"geometry":{"coordinates":[-81.976179,26.604927],"type":"Point"},"properties":{"osm_id":"3670856529","tag":{"amenity":"waste_disposal"}},"type":"Feature"},
	{"geometry":{"coordinates":[-81.975104,26.605308],"type":"Point"},"properties":{"osm_id":"3670856754","tag":{"amenity":"waste_disposal"}},"type":"Feature"},
	{"geometry":{"coordinates":[-81.975106,26.606219],"type":"Point"},"properties":{"osm_id":"3670857014","tag":{"amenity":"waste_disposal"}},"type":"Feature"},
	{"geometry":{"coordinates":[-81.975136,26.607076],"type":"Point"},"properties":{"osm_id":"3670857282","tag":{"amenity":"waste_disposal"}},"type":"Feature"},
	{"geometry":{"coordinates":[-81.975106,26.607158],"type":"Point"},"properties":{"osm_id":"3670857296","tag":{"amenity":"waste_disposal"}},"type":"Feature"},
	{"geometry":{"coordinates":[-81.975228,26.602508],"type":"Point"},"properties":{"osm_id":"3675546470","tag":{"amenity":"waste_disposal"}},"type":"Feature"},
	{"geometry":{"coordinates":[-81.975194,26.602738],"type":"Point"},"properties":{"osm_id":"3675546686","tag":{"amenity":"waste_disposal"}},"type":"Feature"},
	{"geometry":{"coordinates":[-81.976426,26.606863],"type":"Point"},"properties":{"osm_id":"3675548705","tag":{"amenity":"waste_disposal"}},"type":"Feature"},
	{"geometry":{"coordinates":[-81.973399,26.608499],"type":"Point"},"properties":{"osm_id":"3675549499","tag":{"amenity":"waste_disposal"}},"type":"Feature"},
	{"geometry":{"coordinates":[-81.973447,26.609823],"type":"Point"},"properties":{"osm_id":"3675550527","tag":{"amenity":"waste_disposal"}},"type":"Feature"},
	{"geometry":{"coordinates":[-81.973456,26.61058],"type":"Point"},"properties":{"osm_id":"3675551470","tag":{"amenity":"waste_disposal"}},"type":"Feature"},
	{"geometry":{"coordinates":[-81.960707,26.624774],"type":"Point"},"properties":{"osm_id":"3707191059","tag":{"amenity":"waste_disposal"}},"type":"Feature"},
	{"geometry":{"coordinates":[-81.95958,26.625168],"type":"Point"},"properties":{"osm_id":"3707191804","tag":{"amenity":"waste_disposal"}},"type":"Feature"},
	{"geometry":{"coordinates":[-81.957254,26.625438],"type":"Point"},"properties":{"osm_id":"3707191975","tag":{"amenity":"waste_disposal"}},"type":"Feature"},
	{"geometry":{"coordinates":[-81.957307,26.625468],"type":"Point"},"properties":{"osm_id":"3707192006","tag":{"amenity":"waste_disposal"}},"type":"Feature"},
	{"geometry":{"coordinates":[-81.960214,26.625717],"type":"Point"},"properties":{"osm_id":"3707192504","tag":{"amenity":"waste_disposal"}},"type":"Feature"},
	{"geometry":{"coordinates":[-81.958505,26.627246],"type":"Point"},"properties":{"osm_id":"3707194347","tag":{"amenity":"waste_disposal"}},"type":"Feature"},
	{"geometry":{"coordinates":[-81.956083,26.628143],"type":"Point"},"properties":{"osm_id":"3707195296","tag":{"amenity":"waste_disposal"}},"type":"Feature"},
	{"geometry":{"coordinates":[-81.956925,26.629094],"type":"Point"},"properties":{"osm_id":"3707196133","tag":{"amenity":"waste_disposal"}},"type":"Feature"},
	{"geometry":{"coordinates":[-81.958788,26.629133],"type":"Point"},"properties":{"osm_id":"3707196156","tag":{"amenity":"waste_disposal"}},"type":"Feature"},
	{"geometry":{"coordinates":[-81.957934,26.629209],"type":"Point"},"properties":{"osm_id":"3707196225","tag":{"amenity":"waste_disposal"}},"type":"Feature"},
	{"geometry":{"coordinates":[-81.975157,26.612048],"type":"Point"},"properties":{"osm_id":"3775606073","tag":{"amenity":"waste_disposal"}},"type":"Feature"},
	{"geometry":{"coordinates":[-81.974748,26.612388],"type":"Point"},"properties":{"osm_id":"3775607706","tag":{"amenity":"waste_disposal"}},"type":"Feature"},
	{"geometry":{"coordinates":[-81.973381,26.613239],"type":"Point"},"properties":{"osm_id":"3775610343","tag":{"amenity":"waste_disposal"}},"type":"Feature"},
	{"geometry":{"coordinates":[-81.974911,26.613531],"type":"Point"},"properties":{"osm_id":"3775611177","tag":{"amenity":"waste_disposal"}},"type":"Feature"},
	{"geometry":{"coordinates":[-81.974984,26.614082],"type":"Point"},"properties":{"osm_id":"3775612544","tag":{"amenity":"waste_disposal"}},"type":"Feature"},
	{"geometry":{"coordinates":[-81.942134,26.607099],"type":"Point"},"properties":{"osm_id":"3843932127","tag":{"amenity":"waste_disposal"}},"type":"Feature"},
	{"geometry":{"coordinates":[-81.941809,26.608364],"type":"Point"},"properties":{"osm_id":"3843934339","tag":{"amenity":"waste_disposal"}},"type":"Feature"},
	{"geometry":{"coordinates":[-81.941689,26.608468],"type":"Point"},"properties":{"osm_id":"3843934397","tag":{"amenity":"waste_disposal"}},"type":"Feature"},
	{"geometry":{"coordinates":[-81.941687,26.608812],"type":"Point"},"properties":{"osm_id":"3843935207","tag":{"amenity":"waste_disposal"}},"type":"Feature"},
	{"geometry":{"coordinates":[-81.94168,26.608928],"type":"Point"},"properties":{"osm_id":"3843935825","tag":{"amenity":"waste_disposal"}},"type":"Feature"},
	{"geometry":{"coordinates":[-81.940976,26.60916],"type":"Point"},"properties":{"osm_id":"3843936374","tag":{"amenity":"waste_basket"}},"type":"Feature"},
	{"geometry":{"coordinates":[-81.941672,26.609203],"type":"Point"},"properties":{"osm_id":"3843936465","tag":{"amenity":"waste_disposal"}},"type":"Feature"},
	{"geometry":{"coordinates":[-81.941667,26.609312],"type":"Point"},"properties":{"osm_id":"3843936672","tag":{"amenity":"waste_disposal"}},"type":"Feature"},
	{"geometry":{"coordinates":[-81.942041,26.609384],"type":"Point"},"properties":{"osm_id":"3843936883","tag":{"amenity":"waste_disposal"}},"type":"Feature"},
	{"geometry":{"coordinates":[-81.94165,26.609647],"type":"Point"},"properties":{"osm_id":"3843937313","tag":{"amenity":"waste_disposal"}},"type":"Feature"},
	{"geometry":{"coordinates":[-81.940269,26.609684],"type":"Point"},"properties":{"osm_id":"3843937478","tag":{"amenity":"waste_disposal"}},"type":"Feature"},
	{"geometry":{"coordinates":[-81.940285,26.610001],"type":"Point"},"properties":{"osm_id":"3843938161","tag":{"amenity":"waste_disposal"}},"type":"Feature"},
	{"geometry":{"coordinates":[-81.941394,26.6104],"type":"Point"},"properties":{"osm_id":"3843939154","tag":{"amenity":"waste_disposal"}},"type":"Feature"},
	{"geometry":{"coordinates":[-81.941584,26.610849],"type":"Point"},"properties":{"osm_id":"3843940261","tag":{"amenity":"waste_disposal"}},"type":"Feature"},
	{"geometry":{"coordinates":[-81.940185,26.610912],"type":"Point"},"properties":{"osm_id":"3843940858","tag":{"amenity":"waste_basket"}},"type":"Feature"},
	{"geometry":{"coordinates":[-81.941354,26.611663],"type":"Point"},"properties":{"osm_id":"3843942525","tag":{"amenity":"waste_disposal"}},"type":"Feature"},
	{"geometry":{"coordinates":[-81.941574,26.612432],"type":"Point"},"properties":{"osm_id":"3843944722","tag":{"amenity":"waste_disposal"}},"type":"Feature"},
	{"geometry":{"coordinates":[-81.940303,26.612477],"type":"Point"},"properties":{"osm_id":"3843944989","tag":{"amenity":"waste_disposal"}},"type":"Feature"},
	{"geometry":{"coordinates":[-81.941524,26.613318],"type":"Point"},"properties":{"osm_id":"3843947440","tag":{"amenity":"waste_disposal"}},"type":"Feature"},
	{"geometry":{"coordinates":[-81.941549,26.613393],"type":"Point"},"properties":{"osm_id":"3843947707","tag":{"amenity":"waste_disposal"}},"type":"Feature"},
	{"geometry":{"coordinates":[-81.940167,26.613591],"type":"Point"},"properties":{"osm_id":"3843948008","tag":{"amenity":"waste_disposal"}},"type":"Feature"},
	{"geometry":{"coordinates":[-81.941206,26.61373],"type":"Point"},"properties":{"osm_id":"3843948424","tag":{"amenity":"waste_disposal"}},"type":"Feature"},
	{"geometry":{"coordinates":[-81.941517,26.614231],"type":"Point"},"properties":{"osm_id":"3843949706","tag":{"amenity":"waste_disposal"}},"type":"Feature"},
	{"geometry":{"coordinates":[-81.939574,26.60791],"type":"Point"},"properties":{"osm_id":"3882622779","tag":{"amenity":"waste_disposal"}},"type":"Feature"},
	{"geometry":{"coordinates":[-81.938685,26.607955],"type":"Point"},"properties":{"osm_id":"3882622798","tag":{"amenity":"waste_disposal"}},"type":"Feature"},
	{"geometry":{"coordinates":[-81.938873,26.608099],"type":"Point"},"properties":{"osm_id":"3882622845","tag":{"amenity":"waste_disposal"}},"type":"Feature"},
	{"geometry":{"coordinates":[-81.938409,26.608248],"type":"Point"},"properties":{"osm_id":"3882622883","tag":{"amenity":"waste_disposal"}},"type":"Feature"},
	{"geometry":{"coordinates":[-81.938008,26.6084],"type":"Point"},"properties":{"osm_id":"3882622918","tag":{"amenity":"waste_disposal"}},"type":"Feature"},
	{"geometry":{"coordinates":[-81.93719,26.609426],"type":"Point"},"properties":{"osm_id":"3882623308","tag":{"amenity":"waste_disposal"}},"type":"Feature"},
	{"geometry":{"coordinates":[-81.937374,26.611],"type":"Point"},"properties":{"osm_id":"3882623640","tag":{"amenity":"waste_disposal"}},"type":"Feature"},
	{"geometry":{"coordinates":[-81.940277,26.614236],"type":"Point"},"properties":{"osm_id":"3882625166","tag":{"amenity":"waste_disposal"}},"type":"Feature"},
	{"geometry":{"coordinates":[-81.940451,26.615298],"type":"Point"},"properties":{"osm_id":"3882626174","tag":{"amenity":"waste_disposal"}},"type":"Feature"},
	{"geometry":{"coordinates":[-81.940451,26.616292],"type":"Point"},"properties":{"osm_id":"3882626637","tag":{"amenity":"waste_disposal"}},"type":"Feature"},
	{"geometry":{"coordinates":[-81.940442,26.616372],"type":"Point"},"properties":{"osm_id":"3882626666","tag":{"amenity":"waste_disposal"}},"type":"Feature"},
	{"geometry":{"coordinates":[-81.935265,26.619152],"type":"Point"},"properties":{"osm_id":"3897325419","tag":{"amenity":"waste_disposal"}},"type":"Feature"},
	{"geometry":{"coordinates":[-81.934042,26.620021],"type":"Point"},"properties":{"osm_id":"3897325720","tag":{"amenity":"waste_basket"}},"type":"Feature"},
	{"geometry":{"coordinates":[-81.932823,26.620677],"type":"Point"},"properties":{"osm_id":"3897327412","tag":{"amenity":"waste_disposal"}},"type":"Feature"},
	{"geometry":{"coordinates":[-81.931953,26.608286],"type":"Point"},"properties":{"osm_id":"4152180879","tag":{"amenity":"waste_disposal"}},"type":"Feature"},
	{"geometry":{"coordinates":[-81.941479,26.614905],"type":"Point"},"properties":{"osm_id":"4241896674","tag":{"amenity":"waste_disposal"}},"type":"Feature"},
	{"geometry":{"coordinates":[-81.941497,26.615362],"type":"Point"},"properties":{"osm_id":"4241897956","tag":{"amenity":"waste_disposal"}},"type":"Feature"},
	{"geometry":{"coordinates":[-81.941427,26.615837],"type":"Point"},"properties":{"osm_id":"4241898982","tag":{"amenity":"waste_disposal"}},"type":"Feature"},
	{"geometry":{"coordinates":[-81.941463,26.616554],"type":"Point"},"properties":{"osm_id":"4274388186","tag":{"amenity":"waste_disposal"}},"type":"Feature"},
	{"geometry":{"coordinates":[-81.941425,26.617262],"type":"Point"},"properties":{"osm_id":"4274391179","tag":{"amenity":"waste_disposal"}},"type":"Feature"},
	{"geometry":{"coordinates":[-81.939577,26.618092],"type":"Point"},"properties":{"osm_id":"4334570000","tag":{"amenity":"waste_basket"}},"type":"Feature"},
	{"geometry":{"coordinates":[-81.940364,26.618403],"type":"Point"},"properties":{"osm_id":"4334570618","tag":{"amenity":"waste_disposal"}},"type":"Feature"},
	{"geometry":{"coordinates":[-81.941112,26.618668],"type":"Point"},"properties":{"osm_id":"4334571376","tag":{"amenity":"waste_disposal"}},"type":"Feature"},
	{"geometry":{"coordinates":[-81.939033,26.618952],"type":"Point"},"properties":{"osm_id":"4334571963","tag":{"amenity":"waste_disposal"}},"type":"Feature"},
	{"geometry":{"coordinates":[-81.938977,26.619138],"type":"Point"},"properties":{"osm_id":"4334572489","tag":{"amenity":"waste_disposal"}},"type":"Feature"},
	{"geometry":{"coordinates":[-81.940272,26.619493],"type":"Point"},"properties":{"osm_id":"4334573278","tag":{"amenity":"waste_disposal"}},"type":"Feature"},
	{"geometry":{"coordinates":[-81.939087,26.619495],"type":"Point"},"properties":{"osm_id":"4334573285","tag":{"amenity":"waste_disposal"}},"type":"Feature"},
	{"geometry":{"coordinates":[-81.941618,26.619946],"type":"Point"},"properties":{"osm_id":"4334574789","tag":{"amenity":"waste_disposal"}},"type":"Feature"},
	{"geometry":{"coordinates":[-81.938956,26.620133],"type":"Point"},"properties":{"osm_id":"4334575124","tag":{"amenity":"waste_disposal"}},"type":"Feature"},
	{"geometry":{"coordinates":[-81.94169,26.620177],"type":"Point"},"properties":{"osm_id":"4334575167","tag":{"amenity":"waste_disposal"}},"type":"Feature"},
	{"geometry":{"coordinates":[-81.940068,26.620353],"type":"Point"},"properties":{"osm_id":"4334576136","tag":{"amenity":"waste_disposal"}},"type":"Feature"},
	{"geometry":{"coordinates":[-81.941323,26.62052],"type":"Point"},"properties":{"osm_id":"4334577133","tag":{"amenity":"waste_disposal"}},"type":"Feature"},
	{"geometry":{"coordinates":[-81.941327,26.620599],"type":"Point"},"properties":{"osm_id":"4334577267","tag":{"amenity":"waste_disposal"}},"type":"Feature"},
	{"geometry":{"coordinates":[-81.941322,26.62064],"type":"Point"},"properties":{"osm_id":"4334577493","tag":{"amenity":"waste_disposal"}},"type":"Feature"},
	{"geometry":{"coordinates":[-81.941378,26.621292],"type":"Point"},"properties":{"osm_id":"4334579196","tag":{"amenity":"waste_disposal"}},"type":"Feature"},
	{"geometry":{"coordinates":[-81.940196,26.621563],"type":"Point"},"properties":{"osm_id":"4334579856","tag":{"amenity":"waste_disposal"}},"type":"Feature"},
	{"geometry":{"coordinates":[-81.941467,26.621925],"type":"Point"},"properties":{"osm_id":"4334580081","tag":{"amenity":"waste_disposal"}},"type":"Feature"},
	{"geometry":{"coordinates":[-81.941432,26.621928],"type":"Point"},"properties":{"osm_id":"4334580089","tag":{"amenity":"waste_disposal"}},"type":"Feature"},
	{"geometry":{"coordinates":[-81.939838,26.622625],"type":"Point"},"properties":{"osm_id":"4334580558","tag":{"amenity":"waste_disposal"}},"type":"Feature"},
	{"geometry":{"coordinates":[-81.939878,26.62265],"type":"Point"},"properties":{"osm_id":"4334580569","tag":{"amenity":"waste_disposal"}},"type":"Feature"},
	{"geometry":{"coordinates":[-81.920774,26.624225],"type":"Point"},"properties":{"osm_id":"4478032592","tag":{"amenity":"waste_basket"}},"type":"Feature"},
	{"geometry":{"coordinates":[-81.922185,26.624377],"type":"Point"},"properties":{"osm_id":"4478032829","tag":{"amenity":"waste_basket"}},"type":"Feature"},
	{"geometry":{"coordinates":[-81.921638,26.624411],"type":"Point"},"properties":{"osm_id":"4478032945","tag":{"amenity":"recycling","recycling:cans":"yes","recycling:glass_bottles":"yes","recycling:paper":"yes","recycling:plastic":"yes","recycling:plastic_bottles":"yes","recycling:plastic_packaging":"yes","recycling_type":"container"}},"type":"Feature"},
	{"geometry":{"coordinates":[-81.922145,26.624413],"type":"Point"},"properties":{"osm_id":"4478032953","tag":{"amenity":"recycling","recycling:cans":"yes","recycling:glass_bottles":"yes","recycling:paper":"yes","recycling:plastic":"yes","recycling:plastic_bottles":"yes","recycling:plastic_packaging":"yes","recycling_type":"container"}},"type":"Feature"},
	{"geometry":{"coordinates":[-81.921625,26.624425],"type":"Point"},"properties":{"osm_id":"4478033024","tag":{"amenity":"waste_basket"}},"type":"Feature"},
	{"geometry":{"coordinates":[-81.923236,26.624655],"type":"Point"},"properties":{"osm_id":"4478033346","tag":{"amenity":"waste_disposal"}},"type":"Feature"},
	{"geometry":{"coordinates":[-81.921478,26.624673],"type":"Point"},"properties":{"osm_id":"4478033367","tag":{"amenity":"waste_basket"}},"type":"Feature"},
	{"geometry":{"coordinates":[-81.922103,26.624679],"type":"Point"},"properties":{"osm_id":"4478033380","tag":{"amenity":"waste_basket"}},"type":"Feature"},
	{"geometry":{"coordinates":[-81.922066,26.624808],"type":"Point"},"properties":{"osm_id":"4478033652","tag":{"amenity":"waste_basket"}},"type":"Feature"},
	{"geometry":{"coordinates":[-81.939552,26.623532],"type":"Point"},"properties":{"osm_id":"4627210714","tag":{"amenity":"waste_disposal"}},"type":"Feature"},
	{"geometry":{"coordinates":[-81.940162,26.622986],"type":"Point"},"properties":{"osm_id":"4627211199","tag":{"amenity":"waste_disposal"}},"type":"Feature"},
	{"geometry":{"coordinates":[-81.940172,26.623038],"type":"Point"},"properties":{"osm_id":"4627211200","tag":{"amenity":"waste_disposal"}},"type":"Feature"},
	{"geometry":{"coordinates":[-81.941371,26.623836],"type":"Point"},"properties":{"osm_id":"4732639776","tag":{"amenity":"waste_disposal"}},"type":"Feature"},
	{"geometry":{"coordinates":[-81.941245,26.622483],"type":"Point"},"properties":{"osm_id":"4732675165","tag":{"amenity":"waste_basket"}},"type":"Feature"},
	{"geometry":{"coordinates":[-81.941144,26.622573],"type":"Point"},"properties":{"osm_id":"4732675166","tag":{"amenity":"waste_basket"}},"type":"Feature"},
	{"geometry":{"coordinates":[-81.9416,26.622607],"type":"Point"},"properties":{"osm_id":"4732679730","tag":{"amenity":"waste_disposal"}},"type":"Feature"},
	{"geometry":{"coordinates":[-81.941598,26.622697],"type":"Point"},"properties":{"osm_id":"4732679731","tag":{"amenity":"waste_disposal"}},"type":"Feature"},
	{"geometry":{"coordinates":[-81.941391,26.623868],"type":"Point"},"properties":{"osm_id":"4732686075","tag":{"amenity":"waste_disposal"}},"type":"Feature"},
	{"geometry":{"coordinates":[-81.94261,26.626049],"type":"Point"},"properties":{"osm_id":"4732686878","tag":{"amenity":"waste_disposal"}},"type":"Feature"},
	{"geometry":{"coordinates":[-81.942602,26.625028],"type":"Point"},"properties":{"osm_id":"4732686884","tag":{"amenity":"waste_disposal"}},"type":"Feature"},
	{"geometry":{"coordinates":[-81.9426,26.62483],"type":"Point"},"properties":{"osm_id":"4732687312","tag":{"amenity":"waste_disposal"}},"type":"Feature"},
	{"geometry":{"coordinates":[-81.942639,26.625014],"type":"Point"},"properties":{"osm_id":"4732688159","tag":{"amenity":"waste_disposal"}},"type":"Feature"},
	{"geometry":{"coordinates":[-81.942457,26.624499],"type":"Point"},"properties":{"osm_id":"4732688175","tag":{"amenity":"waste_disposal"}},"type":"Feature"},
	{"geometry":{"coordinates":[-81.942489,26.624503],"type":"Point"},"properties":{"osm_id":"4732688707","tag":{"amenity":"waste_disposal"}},"type":"Feature"},
	{"geometry":{"coordinates":[-81.941605,26.624228],"type":"Point"},"properties":{"osm_id":"4732690554","tag":{"amenity":"waste_disposal"}},"type":"Feature"},
	{"geometry":{"coordinates":[-81.941606,26.624256],"type":"Point"},"properties":{"osm_id":"4732690555","tag":{"amenity":"waste_disposal"}},"type":"Feature"},
	{"geometry":{"coordinates":[-81.941606,26.624294],"type":"Point"},"properties":{"osm_id":"4732690556","tag":{"amenity":"waste_disposal"}},"type":"Feature"},
	{"geometry":{"coordinates":[-81.941623,26.624333],"type":"Point"},"properties":{"osm_id":"4732690557","tag":{"amenity":"waste_disposal"}},"type":"Feature"},
	{"geometry":{"coordinates":[-81.941643,26.627449],"type":"Point"},"properties":{"osm_id":"4732694881","tag":{"amenity":"waste_disposal"}},"type":"Feature"},
	{"geometry":{"coordinates":[-81.941613,26.627449],"type":"Point"},"properties":{"osm_id":"4732694882","tag":{"amenity":"waste_disposal"}},"type":"Feature"},
	{"geometry":{"coordinates":[-81.941547,26.627043],"type":"Point"},"properties":{"osm_id":"4732694887","tag":{"amenity":"waste_disposal"}},"type":"Feature"},
	{"geometry":{"coordinates":[-81.940241,26.627243],"type":"Point"},"properties":{"osm_id":"4732704528","tag":{"amenity":"waste_disposal"}},"type":"Feature"},
	{"geometry":{"coordinates":[-81.939833,26.628147],"type":"Point"},"properties":{"osm_id":"4732707100","tag":{"amenity":"waste_disposal"}},"type":"Feature"},
	{"geometry":{"coordinates":[-81.940206,26.628634],"type":"Point"},"properties":{"osm_id":"4732709280","tag":{"amenity":"waste_disposal"}},"type":"Feature"},
	{"geometry":{"coordinates":[-81.941452,26.628245],"type":"Point"},"properties":{"osm_id":"4732710128","tag":{"amenity":"waste_disposal"}},"type":"Feature"},
	{"geometry":{"coordinates":[-81.939861,26.626812],"type":"Point"},"properties":{"osm_id":"4732710522","tag":{"amenity":"waste_disposal"}},"type":"Feature"},
	{"geometry":{"coordinates":[-81.939164,26.625945],"type":"Point"},"properties":{"osm_id":"4732712026","tag":{"amenity":"waste_disposal"}},"type":"Feature"},
	{"geometry":{"coordinates":[-81.939128,26.624844],"type":"Point"},"properties":{"osm_id":"4732713392","tag":{"amenity":"waste_disposal"}},"type":"Feature"},
	{"geometry":{"coordinates":[-81.939477,26.624581],"type":"Point"},"properties":{"osm_id":"4732714153","tag":{"amenity":"waste_disposal"}},"type":"Feature"},
	{"geometry":{"coordinates":[-81.939245,26.626271],"type":"Point"},"properties":{"osm_id":"4732714185","tag":{"amenity":"waste_disposal"}},"type":"Feature"},
	{"geometry":{"coordinates":[-81.939476,26.624557],"type":"Point"},"properties":{"osm_id":"4732716500","tag":{"amenity":"waste_disposal"}},"type":"Feature"},
	{"geometry":{"coordinates":[-81.939252,26.624861],"type":"Point"},"properties":{"osm_id":"4732718124","tag":{"amenity":"waste_disposal"}},"type":"Feature"},
	{"geometry":{"coordinates":[-81.939246,26.62552],"type":"Point"},"properties":{"osm_id":"4732718880","tag":{"amenity":"waste_disposal"}},"type":"Feature"},
	{"geometry":{"coordinates":[-81.939539,26.625806],"type":"Point"},"properties":{"osm_id":"4732719823","tag":{"amenity":"waste_disposal"}},"type":"Feature"},
	{"geometry":{"coordinates":[-81.940247,26.625794],"type":"Point"},"properties":{"osm_id":"4732720615","tag":{"amenity":"waste_disposal"}},"type":"Feature"},
	{"geometry":{"coordinates":[-81.94015,26.626074],"type":"Point"},"properties":{"osm_id":"4732720877","tag":{"amenity":"waste_disposal"}},"type":"Feature"},
	{"geometry":{"coordinates":[-81.940234,26.625424],"type":"Point"},"properties":{"osm_id":"4732736776","tag":{"amenity":"waste_disposal"}},"type":"Feature"},
	{"geometry":{"coordinates":[-81.940259,26.624712],"type":"Point"},"properties":{"osm_id":"4732755959","tag":{"amenity":"waste_disposal"}},"type":"Feature"},
	{"geometry":{"coordinates":[-81.940246,26.623809],"type":"Point"},"properties":{"osm_id":"4732756956","tag":{"amenity":"waste_disposal"}},"type":"Feature"},
	{"geometry":{"coordinates":[-81.940154,26.623229],"type":"Point"},"properties":{"osm_id":"4732757658","tag":{"amenity":"waste_disposal"}},"type":"Feature"},
	{"geometry":{"coordinates":[-81.925422,26.646793],"type":"Point"},"properties":{"osm_id":"5328353931","tag":{"amenity":"waste_basket","waste":"dog_excrement"}},"type":"Feature"},
	{"geometry":{"coordinates":[-81.923528,26.624494],"type":"Point"},"properties":{"osm_id":"5328360321","tag":{"amenity":"waste_basket","waste":"dog_excrement"}},"type":"Feature"}
]
}
