{
"type": "FeatureCollection",
"features": [
	{"geometry":{"coordinates":[151.195149,-33.873977],"type":"Point"},"properties":{"osm_id":"20958870","tag":{"amenity":"recycling"}},"type":"Feature"},
	{"geometry":{"coordinates":[151.181855,-33.896124],"type":"Point"},"properties":{"name":"3x Charity bins","osm_id":"1502675322","tag":{"amenity":"recycling","recycling:clothes":"yes","recycling_type":"container"}},"type":"Feature"},
	{"geometry":{"coordinates":[151.214081,-33.878192],"type":"Point"},"properties":{"osm_id":"1941652129","tag":{"amenity":"waste_basket"}},"type":"Feature"},
	{"geometry":{"coordinates":[151.214974,-33.878888],"type":"Point"},"properties":{"osm_id":"1941652133","tag":{"amenity":"waste_basket"}},"type":"Feature"},
	{"geometry":{"coordinates":[151.215875,-33.879646],"type":"Point"},"properties":{"osm_id":"1941652139","tag":{"amenity":"waste_basket"}},"type":"Feature"},
	{"geometry":{"coordinates":[151.176688,-33.890122],"type":"Point"},"properties":{"osm_id":"2136805461","tag":{"amenity":"waste_basket"}},"type":"Feature"},
	{"geometry":{"coordinates":[151.172699,-33.891066],"type":"Point"},"properties":{"osm_id":"2138828847","tag":{"amenity":"waste_basket"}},"type":"Feature"},
	{"geometry":{"coordinates":[151.174657,-33.891104],"type":"Point"},"properties":{"osm_id":"2138828854","tag":{"amenity":"waste_basket"}},"type":"Feature"},
	{"geometry":{"coordinates":[151.17309,-33.890817],"type":"Point"},"properties":{"osm_id":"2138828868","tag":{"amenity":"recycling"}},"type":"Feature"},
	{"geometry":{"coordinates":[151.17595,-33.890256],"type":"Point"},"properties":{"osm_id":"2142234011","tag":{"amenity":"waste_basket"}},"type":"Feature"},
	{"geometry":{"coordinates":[151.177141,-33.88931],"type":"Point"},"properties":{"osm_id":"2142234013","tag":{"amenity":"waste_basket"}},"type":"Feature"},
	{"geometry":{"coordinates":[151.177202,-33.889847],"type":"Point"},"properties":{"osm_id":"2142234015","tag":{"amenity":"waste_basket"}},"type":"Feature"},
	{"geometry":{"coordinates":[151.177532,-33.889733],"type":"Point"},"properties":{"osm_id":"2142234017","tag":{"amenity":"waste_basket","waste":"dog_excrement"}},"type":"Feature"},
	{"geometry":{"coordinates":[151.177049,-33.888909],"type":"Point"},"properties":{"osm_id":"2142234018","tag":{"amenity":"waste_basket"}},"type":"Feature"},
	{"geometry":{"coordinates":[151.179037,-33.895553],"type":"Point"},"properties":{"osm_id":"2144987220","tag":{"amenity":"waste_basket"}},"type":"Feature"},
	{"geometry":{"coordinates":[151.179882,-33.893411],"type":"Point"},"properties":{"osm_id":"2146139494","tag":{"amenity":"waste_basket"}},"type":"Feature"},
	{"geometry":{"coordinates":[151.209691,-33.925364],"type":"Point"},"properties":{"osm_id":"2172545978","tag":{"amenity":"waste_basket"}},"type":"Feature"},
	{"geometry":{"coordinates":[151.244829,-33.900346],"type":"Point"},"properties":{"osm_id":"2296638510","tag":{"amenity":"waste_basket"}},"type":"Feature"},
	{"geometry":{"coordinates":[151.186698,-33.883944],"type":"Point"},"properties":{"osm_id":"2743996063","tag":{"amenity":"waste_basket"}},"type":"Feature"},
	{"geometry":{"coordinates":[151.187429,-33.92308],"type":"Point"},"properties":{"osm_id":"3585253232","tag":{"amenity":"waste_basket"}},"type":"Feature"},
	{"geometry":{"coordinates":[151.187831,-33.924005],"type":"Point"},"properties":{"osm_id":"3585253235","tag":{"amenity":"waste_basket"}},"type":"Feature"},
	{"geometry":{"coordinates":[151.185188,-33.908976],"type":"Point"},"properties":{"osm_id":"3763636406","tag":{"amenity":"waste_basket"}},"type":"Feature"},
	{"geometry":{"coordinates":[151.193799,-33.876185],"type":"Point"},"properties":{"osm_id":"3925022659","tag":{"amenity":"waste_basket"}},"type":"Feature"},
	{"geometry":{"coordinates":[151.194662,-33.877886],"type":"Point"},"properties":{"osm_id":"3925038960","tag":{"amenity":"waste_basket"}},"type":"Feature"},
	{"geometry":{"coordinates":[151.205979,-33.882405],"type":"Point"},"properties":{"osm_id":"4027001705","tag":{"access":"public","amenity":"waste_basket","level":"1"}},"type":"Feature"},
	{"geometry":{"coordinates":[151.207756,-33.88409],"type":"Point"},"properties":{"osm_id":"4032839637","tag":{"amenity":"waste_basket","level":"-3"}},"type":"Feature"},
	{"geometry":{"coordinates":[151.207548,-33.884355],"type":"Point"},"properties":{"osm_id":"4032839904","tag":{"amenity":"waste_basket","level":"-3"}},"type":"Feature"},
	{"geometry":{"coordinates":[151.207303,-33.884666],"type":"Point"},"properties":{"osm_id":"4032839981","tag":{"amenity":"waste_basket","level":"-3"}},"type":"Feature"},
	{"geometry":{"coordinates":[151.20716,-33.884849],"type":"Point"},"properties":{"osm_id":"4032840300","tag":{"amenity":"waste_basket","level":"-3"}},"type":"Feature"},
	{"geometry":{"coordinates":[151.198901,-33.892969],"type":"Point"},"properties":{"osm_id":"4057661304","tag":{"amenity":"waste_basket"}},"type":"Feature"},
	{"geometry":{"coordinates":[151.201047,-33.879643],"type":"Point"},"properties":{"osm_id":"4094596194","tag":{"access":"customers","amenity":"waste_basket","mapillary":"-K3yAGUNQxLcechBz4Hw4w","recycling":"yes","waste":"general","waste_basket:excrement_bags":"yes"}},"type":"Feature"},
	{"geometry":{"coordinates":[151.201383,-33.880272],"type":"Point"},"properties":{"osm_id":"4094596220","tag":{"access":"customers","amenity":"waste_basket","mapillary":"https://www.mapillary.com/map/im/9c3u-suYYq27t-ng6-3vHQ","recycling":"yes","waste":"general","waste_basket:excrement_bags":"yes"}},"type":"Feature"},
	{"geometry":{"coordinates":[151.20149,-33.880498],"type":"Point"},"properties":{"osm_id":"4094596234","tag":{"access":"customers","amenity":"waste_basket","mapillary":"https://www.mapillary.com/map/im/b7Zvq6yAo7qjCmt1kzCTTA","recycling":"yes","waste":"general","waste_basket:excrement_bags":"yes"}},"type":"Feature"},
	{"geometry":{"coordinates":[151.201986,-33.881683],"type":"Point"},"properties":{"osm_id":"4094610800","tag":{"access":"customers","amenity":"waste_basket"}},"type":"Feature"},
	{"geometry":{"coordinates":[151.202186,-33.882122],"type":"Point"},"properties":{"osm_id":"4094610802","tag":{"amenity":"waste_basket"}},"type":"Feature"},
	{"geometry":{"coordinates":[151.20237,-33.882494],"type":"Point"},"properties":{"osm_id":"4094610805","tag":{"access":"customers","amenity":"waste_basket"}},"type":"Feature"},
	{"geometry":{"coordinates":[151.202527,-33.882815],"type":"Point"},"properties":{"osm_id":"4094610808","tag":{"access":"customers","amenity":"waste_basket"}},"type":"Feature"},
	{"geometry":{"coordinates":[151.198286,-33.895168],"type":"Point"},"properties":{"osm_id":"4125343726","tag":{"access":"customers","amenity":"waste_basket","vending":"excrement_bags","waste":"general"}},"type":"Feature"},
	{"geometry":{"coordinates":[151.19823,-33.8954],"type":"Point"},"properties":{"osm_id":"4125343727","tag":{"access":"customers","amenity":"waste_basket","vending":"excrement_bags","waste":"general"}},"type":"Feature"},
	{"geometry":{"coordinates":[151.197483,-33.894588],"type":"Point"},"properties":{"osm_id":"4152553791","tag":{"amenity":"waste_basket"}},"type":"Feature"},
	{"geometry":{"coordinates":[151.197476,-33.894769],"type":"Point"},"properties":{"osm_id":"4152587489","tag":{"amenity":"waste_basket"}},"type":"Feature"},
	{"geometry":{"coordinates":[151.200236,-33.914033],"type":"Point"},"properties":{"osm_id":"4228107923","tag":{"amenity":"waste_basket"}},"type":"Feature"},
	{"geometry":{"coordinates":[151.184747,-33.914038],"type":"Point"},"properties":{"osm_id":"4465685396","tag":{"amenity":"waste_basket"}},"type":"Feature"},
	{"geometry":{"coordinates":[151.184366,-33.913255],"type":"Point"},"properties":{"osm_id":"4465685397","tag":{"amenity":"waste_basket"}},"type":"Feature"},
	{"geometry":{"coordinates":[151.181802,-33.910899],"type":"Point"},"properties":{"osm_id":"4465685398","tag":{"amenity":"waste_basket"}},"type":"Feature"},
	{"geometry":{"coordinates":[151.204028,-33.872609],"type":"Point"},"properties":{"osm_id":"5102323906","tag":{"amenity":"waste_basket"}},"type":"Feature"},
	{"geometry":{"coordinates":[151.202468,-33.879808],"type":"Point"},"properties":{"osm_id":"5104435918","tag":{"amenity":"waste_basket"}},"type":"Feature"},
	{"geometry":{"coordinates":[151.186232,-33.880282],"type":"Point"},"properties":{"osm_id":"5140746357","tag":{"amenity":"waste_basket"}},"type":"Feature"},
	{"geometry":{"coordinates":[151.249153,-33.922899],"type":"Point"},"properties":{"osm_id":"5154490155","tag":{"amenity":"waste_basket"}},"type":"Feature"},
	{"geometry":{"coordinates":[151.209342,-33.873176],"type":"Point"},"properties":{"osm_id":"5164281923","tag":{"amenity":"waste_basket"}},"type":"Feature"},
	{"geometry":{"coordinates":[151.249476,-33.930886],"type":"Point"},"properties":{"osm_id":"5558081314","tag":{"amenity":"waste_basket"}},"type":"Feature"},
	{"geometry":{"coordinates":[151.23298,-33.917596],"type":"Point"},"properties":{"osm_id":"5565631593","tag":{"amenity":"recycling","recycling_type":"container"}},"type":"Feature"},
	{"geometry":{"coordinates":[151.231294,-33.918279],"type":"Point"},"properties":{"osm_id":"5565631608","tag":{"amenity":"recycling","recycling:aluminium":"yes","recycling:cans":"yes","recycling:cardboard":"yes","recycling:cartons":"yes","recycling:glass":"yes","recycling:glass_bottles":"yes","recycling:newspaper":"yes","recycling:paper":"yes","recycling:paper_packaging":"yes","recycling:plastic":"yes","recycling:plastic_bottles":"yes","recycling:plastic_packaging":"yes","recycling_type":"container"}},"type":"Feature"},
	{"geometry":{"coordinates":[151.231253,-33.918235],"type":"Point"},"properties":{"name":"UNSW Waste Bin","osm_id":"5565659087","tag":{"amenity":"waste_basket"}},"type":"Feature"},
	{"geometry":{"coordinates":[151.258159,-33.925645],"type":"Point"},"properties":{"osm_id":"5572871608","tag":{"amenity":"waste_basket"}},"type":"Feature"},
	{"geometry":{"coordinates":[151.258182,-33.925637],"type":"Point"},"properties":{"osm_id":"5572871609","tag":{"amenity":"recycling","recycling_type":"container"}},"type":"Feature"},
	{"geometry":{"coordinates":[151.231256,-33.916215],"type":"Point"},"properties":{"osm_id":"5636742564","tag":{"amenity":"waste_basket"}},"type":"Feature"},
	{"geometry":{"coordinates":[151.223039,-33.876766],"type":"Point"},"properties":{"osm_id":"5756214410","tag":{"amenity":"recycling","recycling_type":"container"}},"type":"Feature"},
	{"geometry":{"coordinates":[151.211038,-33.906413],"type":"Point"},"properties":{"osm_id":"5797324753","tag":{"amenity":"waste_basket"}},"type":"Feature"},
	{"geometry":{"coordinates":[151.211327,-33.906227],"type":"Point"},"properties":{"osm_id":"5797324754","tag":{"amenity":"waste_basket"}},"type":"Feature"},
	{"geometry":{"coordinates":[151.212449,-33.907337],"type":"Point"},"properties":{"osm_id":"5797326753","tag":{"amenity":"waste_basket"}},"type":"Feature"},
	{"geometry":{"coordinates":[151.210594,-33.906682],"type":"Point"},"properties":{"osm_id":"5797326756","tag":{"amenity":"waste_basket"}},"type":"Feature"},
	{"geometry":{"coordinates":[151.212474,-33.905133],"type":"Point"},"properties":{"osm_id":"5826438953","tag":{"amenity":"waste_basket"}},"type":"Feature"},
	{"geometry":{"coordinates":[151.239461,-33.913137],"type":"Point"},"properties":{"osm_id":"5866529106","tag":{"amenity":"waste_basket"}},"type":"Feature"},
	{"geometry":{"coordinates":[151.239283,-33.910499],"type":"Point"},"properties":{"osm_id":"5872596497","tag":{"amenity":"waste_basket"}},"type":"Feature"},
	{"geometry":{"coordinates":[151.239469,-33.910443],"type":"Point"},"properties":{"osm_id":"5872596661","tag":{"amenity":"waste_basket"}},"type":"Feature"},
	{"geometry":{"coordinates":[151.240105,-33.912947],"type":"Point"},"properties":{"osm_id":"5872617320","tag":{"amenity":"waste_basket"}},"type":"Feature"},
	{"geometry":{"coordinates":[151.240095,-33.912482],"type":"Point"},"properties":{"osm_id":"5872666362","tag":{"amenity":"waste_basket"}},"type":"Feature"},
	{"geometry":{"coordinates":[151.240397,-33.912471],"type":"Point"},"properties":{"osm_id":"5872668974","tag":{"amenity":"waste_basket"}},"type":"Feature"},
	{"geometry":{"coordinates":[151.240453,-33.912403],"type":"Point"},"properties":{"osm_id":"5872668975","tag":{"amenity":"waste_basket"}},"type":"Feature"},
	{"geometry":{"coordinates":[151.239815,-33.913545],"type":"Point"},"properties":{"osm_id":"5872687904","tag":{"amenity":"waste_basket"}},"type":"Feature"},
	{"geometry":{"coordinates":[151.240116,-33.914343],"type":"Point"},"properties":{"osm_id":"5872722409","tag":{"amenity":"waste_basket"}},"type":"Feature"},
	{"geometry":{"coordinates":[151.239958,-33.914549],"type":"Point"},"properties":{"osm_id":"5872722410","tag":{"amenity":"waste_basket"}},"type":"Feature"},
	{"geometry":{"coordinates":[151.239943,-33.914415],"type":"Point"},"properties":{"osm_id":"5872726046","tag":{"amenity":"waste_basket"}},"type":"Feature"},
	{"geometry":{"coordinates":[151.240213,-33.914526],"type":"Point"},"properties":{"osm_id":"5872769354","tag":{"amenity":"waste_basket"}},"type":"Feature"},
	{"geometry":{"coordinates":[151.240139,-33.914775],"type":"Point"},"properties":{"osm_id":"5872769357","tag":{"amenity":"waste_basket"}},"type":"Feature"},
	{"geometry":{"coordinates":[151.241052,-33.911382],"type":"Point"},"properties":{"osm_id":"5873115021","tag":{"amenity":"waste_basket"}},"type":"Feature"},
	{"geometry":{"coordinates":[151.240772,-33.912245],"type":"Point"},"properties":{"osm_id":"5873115022","tag":{"amenity":"waste_basket"}},"type":"Feature"},
	{"geometry":{"coordinates":[151.251603,-33.929443],"type":"Point"},"properties":{"osm_id":"5879868268","tag":{"amenity":"waste_basket"}},"type":"Feature"},
	{"geometry":{"coordinates":[151.240186,-33.916],"type":"Point"},"properties":{"osm_id":"5893803986","tag":{"amenity":"waste_basket"}},"type":"Feature"},
	{"geometry":{"coordinates":[151.22643,-33.918337],"type":"Point"},"properties":{"osm_id":"5960598974","tag":{"amenity":"waste_basket"}},"type":"Feature"},
	{"geometry":{"coordinates":[151.247424,-33.907921],"type":"Point"},"properties":{"osm_id":"5973408608","tag":{"amenity":"waste_basket"}},"type":"Feature"},
	{"geometry":{"coordinates":[151.238468,-33.908983],"type":"Point"},"properties":{"osm_id":"5976671445","tag":{"amenity":"waste_basket"}},"type":"Feature"},
	{"geometry":{"coordinates":[151.213178,-33.877441],"type":"Point"},"properties":{"osm_id":"5976672635","tag":{"amenity":"waste_basket"}},"type":"Feature"},
	{"geometry":{"coordinates":[151.233928,-33.90803],"type":"Point"},"properties":{"osm_id":"5976672642","tag":{"amenity":"waste_basket"}},"type":"Feature"},
	{"geometry":{"coordinates":[151.215492,-33.879327],"type":"Point"},"properties":{"osm_id":"5976672743","tag":{"amenity":"waste_basket"}},"type":"Feature"},
	{"geometry":{"coordinates":[151.21662,-33.880272],"type":"Point"},"properties":{"osm_id":"5976672745","tag":{"amenity":"waste_basket"}},"type":"Feature"},
	{"geometry":{"coordinates":[151.2315,-33.917112],"type":"Point"},"properties":{"osm_id":"5977077627","tag":{"amenity":"waste_basket"}},"type":"Feature"},
	{"geometry":{"coordinates":[151.210233,-33.871627],"type":"Point"},"properties":{"osm_id":"5982624761","tag":{"amenity":"waste_basket"}},"type":"Feature"},
	{"geometry":{"coordinates":[151.214283,-33.885271],"type":"Point"},"properties":{"osm_id":"5982625927","tag":{"amenity":"waste_basket"}},"type":"Feature"},
	{"geometry":{"coordinates":[151.208634,-33.883649],"type":"Point"},"properties":{"osm_id":"5982626052","tag":{"amenity":"waste_basket"}},"type":"Feature"},
	{"geometry":{"coordinates":[151.229734,-33.916108],"type":"Point"},"properties":{"osm_id":"6012081672","tag":{"amenity":"recycling","location":"overground","recycling:clothes":"yes","recycling_type":"container"}},"type":"Feature"},
	{"geometry":{"coordinates":[151.25709,-33.927796],"type":"Point"},"properties":{"osm_id":"6064860781","tag":{"amenity":"waste_basket"}},"type":"Feature"},
	{"geometry":{"coordinates":[151.242738,-33.920069],"type":"Point"},"properties":{"osm_id":"6076113839","tag":{"amenity":"waste_basket"}},"type":"Feature"},
	{"geometry":{"coordinates":[151.240694,-33.915687],"type":"Point"},"properties":{"osm_id":"6243488446","tag":{"amenity":"waste_basket"}},"type":"Feature"},
	{"geometry":{"coordinates":[151.257146,-33.920343],"type":"Point"},"properties":{"osm_id":"6371769255","tag":{"amenity":"waste_basket"}},"type":"Feature"},
	{"geometry":{"coordinates":[151.247983,-33.921748],"type":"Point"},"properties":{"osm_id":"6371770292","tag":{"amenity":"waste_basket"}},"type":"Feature"},
	{"geometry":{"coordinates":[151.258458,-33.91895],"type":"Point"},"properties":{"osm_id":"6371771148","tag":{"amenity":"waste_basket"}},"type":"Feature"},
	{"geometry":{"coordinates":[151.238631,-33.940796],"type":"Point"},"properties":{"osm_id":"6383013341","tag":{"amenity":"waste_basket"}},"type":"Feature"},
	{"geometry":{"coordinates":[151.230104,-33.915566],"type":"Point"},"properties":{"osm_id":"6424615119","tag":{"amenity":"waste_basket"}},"type":"Feature"},
	{"geometry":{"coordinates":[151.236765,-33.914883],"type":"Point"},"properties":{"osm_id":"6562325792","tag":{"amenity":"waste_basket"}},"type":"Feature"},
	{"geometry":{"coordinates":[151.212356,-33.870958],"type":"Point"},"properties":{"osm_id":"6669127067","tag":{"amenity":"waste_basket","colour":"black","material":"metal"}},"type":"Feature"},
	{"geometry":{"coordinates":[151.212636,-33.871976],"type":"Point"},"properties":{"osm_id":"6669141829","tag":{"amenity":"waste_basket","colour":"black","material":"metal"}},"type":"Feature"},
	{"geometry":{"coordinates":[151.212638,-33.871965],"type":"Point"},"properties":{"osm_id":"6669141830","tag":{"amenity":"waste_basket","colour":"black","material":"metal"}},"type":"Feature"},
	{"geometry":{"coordinates":[151.21252,-33.87338],"type":"Point"},"properties":{"osm_id":"6669172660","tag":{"amenity":"waste_basket","colour":"brown","material":"metal"}},"type":"Feature"},
	{"geometry":{"coordinates":[151.211604,-33.873415],"type":"Point"},"properties":{"osm_id":"6669172668","tag":{"amenity":"waste_basket","colour":"brown","material":"metal"}},"type":"Feature"},
	{"geometry":{"coordinates":[151.212308,-33.87334],"type":"Point"},"properties":{"osm_id":"6669189545","tag":{"amenity":"waste_basket"}},"type":"Feature"},
	{"geometry":{"coordinates":[151.211951,-33.872813],"type":"Point"},"properties":{"osm_id":"6669189571","tag":{"amenity":"waste_basket"}},"type":"Feature"},
	{"geometry":{"coordinates":[151.211468,-33.873047],"type":"Point"},"properties":{"osm_id":"6669211687","tag":{"amenity":"waste_basket","colour":"black","material":"metal"}},"type":"Feature"},
	{"geometry":{"coordinates":[151.211526,-33.872226],"type":"Point"},"properties":{"osm_id":"6669211697","tag":{"amenity":"waste_basket","colour":"black","material":"metal"}},"type":"Feature"},
	{"geometry":{"coordinates":[151.211606,-33.872235],"type":"Point"},"properties":{"osm_id":"6669211698","tag":{"amenity":"waste_basket","colour":"black","material":"metal"}},"type":"Feature"},
	{"geometry":{"coordinates":[151.224772,-33.907801],"type":"Point"},"properties":{"osm_id":"6696434687","tag":{"amenity":"waste_basket"}},"type":"Feature"},
	{"geometry":{"coordinates":[151.225096,-33.907979],"type":"Point"},"properties":{"osm_id":"6696439308","tag":{"amenity":"waste_basket"}},"type":"Feature"},
	{"geometry":{"coordinates":[151.223541,-33.909522],"type":"Point"},"properties":{"osm_id":"6698403886","tag":{"amenity":"waste_basket"}},"type":"Feature"},
	{"geometry":{"coordinates":[151.225544,-33.915802],"type":"Point"},"properties":{"osm_id":"6698567712","tag":{"amenity":"waste_basket"}},"type":"Feature"},
	{"geometry":{"coordinates":[151.204251,-33.905172],"type":"Point"},"properties":{"osm_id":"6763101957","tag":{"amenity":"waste_basket"}},"type":"Feature"},
	{"geometry":{"coordinates":[151.203906,-33.905488],"type":"Point"},"properties":{"osm_id":"6763105488","tag":{"amenity":"waste_basket"}},"type":"Feature"},
	{"geometry":{"coordinates":[151.203982,-33.905788],"type":"Point"},"properties":{"osm_id":"6763105496","tag":{"amenity":"waste_basket","colour":"grey","material":"metal"}},"type":"Feature"},
	{"geometry":{"coordinates":[151.206284,-33.909567],"type":"Point"},"properties":{"osm_id":"6771799373","tag":{"amenity":"waste_basket"}},"type":"Feature"},
	{"geometry":{"coordinates":[151.205993,-33.909142],"type":"Point"},"properties":{"osm_id":"6771807329","tag":{"amenity":"waste_basket"}},"type":"Feature"},
	{"geometry":{"coordinates":[151.196815,-33.876861],"type":"Point"},"properties":{"osm_id":"6819720866","tag":{"amenity":"waste_basket"}},"type":"Feature"},
	{"geometry":{"coordinates":[151.21268,-33.908213],"type":"Point"},"properties":{"osm_id":"6849529673","tag":{"amenity":"waste_basket"}},"type":"Feature"},
	{"geometry":{"coordinates":[151.212463,-33.90487],"type":"Point"},"properties":{"osm_id":"6855132603","tag":{"amenity":"waste_basket"}},"type":"Feature"},
	{"geometry":{"coordinates":[151.240182,-33.91708],"type":"Point"},"properties":{"osm_id":"6911050587","tag":{"amenity":"waste_basket","mapillary":"UC3d0UpVildf_LOOCwU9xg","material":"metal","waste":"trash"}},"type":"Feature"},
	{"geometry":{"coordinates":[151.236598,-33.894574],"type":"Point"},"properties":{"osm_id":"7030047188","tag":{"amenity":"waste_basket"}},"type":"Feature"},
	{"geometry":{"coordinates":[151.232671,-33.894556],"type":"Point"},"properties":{"osm_id":"7030068686","tag":{"amenity":"waste_basket"}},"type":"Feature"},
	{"geometry":{"coordinates":[151.239716,-33.89156],"type":"Point"},"properties":{"osm_id":"7030182286","tag":{"amenity":"waste_basket"}},"type":"Feature"},
	{"geometry":{"coordinates":[151.240826,-33.917172],"type":"Point"},"properties":{"osm_id":"7051883650","tag":{"amenity":"waste_basket","mapillary":"zeNxW5pdK73Mgr5c2BzPQQ","material":"metal","waste":"trash"}},"type":"Feature"},
	{"geometry":{"coordinates":[151.205447,-33.904634],"type":"Point"},"properties":{"osm_id":"7066425006","tag":{"amenity":"waste_basket"}},"type":"Feature"},
	{"geometry":{"coordinates":[151.200664,-33.883186],"type":"Point"},"properties":{"osm_id":"7321369749","tag":{"amenity":"waste_basket","colour":"green","material":"metal","waste":"trash"}},"type":"Feature"},
	{"geometry":{"coordinates":[151.200482,-33.883207],"type":"Point"},"properties":{"osm_id":"7321369750","tag":{"amenity":"waste_basket","colour":"white","material":"metal","waste":"trash"}},"type":"Feature"},
	{"geometry":{"coordinates":[151.200641,-33.883066],"type":"Point"},"properties":{"osm_id":"7321381290","tag":{"amenity":"waste_basket","colour":"green","material":"metal","waste":"trash"}},"type":"Feature"},
	{"geometry":{"coordinates":[151.200871,-33.883075],"type":"Point"},"properties":{"osm_id":"7321381295","tag":{"amenity":"waste_basket","colour":"white","material":"metal","waste":"trash"}},"type":"Feature"},
	{"geometry":{"coordinates":[151.241983,-33.908391],"type":"Point"},"properties":{"osm_id":"7330681360","tag":{"amenity":"waste_basket"}},"type":"Feature"},
	{"geometry":{"coordinates":[151.201895,-33.881309],"type":"Point"},"properties":{"osm_id":"7367892041","tag":{"amenity":"waste_basket","waste":"trash"}},"type":"Feature"},
	{"geometry":{"coordinates":[151.202659,-33.882836],"type":"Point"},"properties":{"osm_id":"7367892049","tag":{"amenity":"waste_basket","colour":"black","material":"metal","waste":"trash"}},"type":"Feature"},
	{"geometry":{"coordinates":[151.246304,-33.906199],"type":"Point"},"properties":{"osm_id":"7368620404","tag":{"amenity":"waste_basket"}},"type":"Feature"},
	{"geometry":{"coordinates":[151.247023,-33.887989],"type":"Point"},"properties":{"osm_id":"7504965951","tag":{"amenity":"waste_basket"}},"type":"Feature"},
	{"geometry":{"coordinates":[151.239032,-33.895955],"type":"Point"},"properties":{"osm_id":"7811630837","tag":{"amenity":"waste_basket"}},"type":"Feature"},
	{"geometry":{"coordinates":[151.193269,-33.905036],"type":"Point"},"properties":{"osm_id":"7871008474","tag":{"amenity":"waste_basket"}},"type":"Feature"},
	{"geometry":{"coordinates":[151.182971,-33.909375],"type":"Point"},"properties":{"osm_id":"7952804929","tag":{"amenity":"waste_basket","waste":"trash"}},"type":"Feature"}
]
}
