{
"type": "FeatureCollection",
"features": [
	{"geometry":{"coordinates":[174.775065,-36.890513],"type":"Point"},"properties":{"osm_id":"4218297457","tag":{"amenity":"recycling","recycling:clothes":"yes"}},"type":"Feature"},
	{"geometry":{"coordinates":[174.783907,-36.898438],"type":"Point"},"properties":{"osm_id":"6169956733","tag":{"amenity":"waste_basket"}},"type":"Feature"},
	{"geometry":{"coordinates":[174.758819,-36.921498],"type":"Point"},"properties":{"osm_id":"6655865810","tag":{"amenity":"waste_basket"}},"type":"Feature"},
	{"geometry":{"coordinates":[174.747092,-36.888472],"type":"Point"},"properties":{"osm_id":"8193215465","tag":{"amenity":"waste_basket","waste":"trash"}},"type":"Feature"},
	{"geometry":{"coordinates":[174.756102,-36.900835],"type":"Point"},"properties":{"osm_id":"8260726789","tag":{"amenity":"waste_basket","waste":"dog_excrement"}},"type":"Feature"},
	{"geometry":{"coordinates":[174.81068,-36.898255],"type":"Point"},"properties":{"osm_id":"8512077777","tag":{"amenity":"waste_basket"}},"type":"Feature"},
	{"geometry":{"coordinates":[174.735562,-36.88296],"type":"Point"},"properties":{"osm_id":"8649296230","tag":{"amenity":"recycling","description":"Located on ground floor inside parking garage","location":"indoor","recycling:clothes":"yes","recycling_type":"container"}},"type":"Feature"},
	{"geometry":{"coordinates":[174.787954,-36.93637],"type":"Point"},"properties":{"osm_id":"9127892458","tag":{"amenity":"waste_basket"}},"type":"Feature"}
]
}
