{
"type": "FeatureCollection",
"features": [
	{"geometry":{"coordinates":[-76.619591,39.326651],"type":"Point"},"properties":{"osm_id":"2451200757","tag":{"amenity":"waste_basket"}},"type":"Feature"},
	{"geometry":{"coordinates":[-76.620056,39.326882],"type":"Point"},"properties":{"osm_id":"2451200776","tag":{"amenity":"waste_basket"}},"type":"Feature"},
	{"geometry":{"coordinates":[-76.619932,39.327367],"type":"Point"},"properties":{"osm_id":"2451200811","tag":{"amenity":"waste_basket"}},"type":"Feature"},
	{"geometry":{"coordinates":[-76.621645,39.325998],"type":"Point"},"properties":{"osm_id":"2496874851","tag":{"amenity":"waste_basket"}},"type":"Feature"},
	{"geometry":{"coordinates":[-76.621404,39.326008],"type":"Point"},"properties":{"osm_id":"2496874854","tag":{"amenity":"waste_basket"}},"type":"Feature"},
	{"geometry":{"coordinates":[-76.621244,39.326131],"type":"Point"},"properties":{"osm_id":"2496874861","tag":{"amenity":"waste_basket"}},"type":"Feature"},
	{"geometry":{"coordinates":[-76.621106,39.326568],"type":"Point"},"properties":{"osm_id":"2496874873","tag":{"amenity":"waste_basket"}},"type":"Feature"},
	{"geometry":{"coordinates":[-76.621366,39.327014],"type":"Point"},"properties":{"osm_id":"2496874915","tag":{"amenity":"waste_basket"}},"type":"Feature"},
	{"geometry":{"coordinates":[-76.620575,39.327331],"type":"Point"},"properties":{"osm_id":"2496874931","tag":{"amenity":"waste_basket"}},"type":"Feature"},
	{"geometry":{"coordinates":[-76.611196,39.320165],"type":"Point"},"properties":{"osm_id":"4623015971","tag":{"amenity":"waste_basket","operator":"Charles Village Community Benefits District","owner":"Charles Village Benefits District"}},"type":"Feature"},
	{"geometry":{"coordinates":[-76.609511,39.323583],"type":"Point"},"properties":{"osm_id":"6125843847","tag":{"amenity":"waste_basket"}},"type":"Feature"},
	{"geometry":{"coordinates":[-76.631401,39.331089],"type":"Point"},"properties":{"osm_id":"6439952224","tag":{"amenity":"waste_basket"}},"type":"Feature"},
	{"geometry":{"coordinates":[-76.561938,39.330688],"type":"Point"},"properties":{"osm_id":"7277664515","tag":{"amenity":"recycling","colour":"blue","operator":"discoverbooks.com","recycling:books":"yes","recycling_type":"container"}},"type":"Feature"},
	{"geometry":{"coordinates":[-76.561922,39.330701],"type":"Point"},"properties":{"osm_id":"7277664516","tag":{"amenity":"recycling","colour":"yellow","operator":"Planet Aid","recycling:clothes":"yes","recycling:shoes":"yes","recycling_type":"container"}},"type":"Feature"},
	{"geometry":{"coordinates":[-76.587947,39.323388],"type":"Point"},"properties":{"osm_id":"7285985541","tag":{"amenity":"recycling","colour":"yellow","operator":"Planet Aid","recycling:clothes":"yes","recycling:shoes":"yes","recycling_type":"container"}},"type":"Feature"},
	{"geometry":{"coordinates":[-76.565678,39.347566],"type":"Point"},"properties":{"osm_id":"7289855237","tag":{"amenity":"recycling","colour":"blue","recycling:clothes":"yes","recycling:shoes":"yes","recycling_type":"container"}},"type":"Feature"},
	{"geometry":{"coordinates":[-76.553125,39.362283],"type":"Point"},"properties":{"osm_id":"7295842809","tag":{"amenity":"recycling","colour":"yellow","operator":"Planet Aid","recycling:clothes":"yes","recycling:shoes":"yes","recycling_type":"container"}},"type":"Feature"},
	{"geometry":{"coordinates":[-76.579817,39.315783],"type":"Point"},"properties":{"osm_id":"7364633739","tag":{"amenity":"recycling","colour":"yellow","operator":"Planet Aid","recycling:clothes":"yes","recycling:shoes":"yes","recycling_type":"container"}},"type":"Feature"},
	{"geometry":{"coordinates":[-76.587959,39.323397],"type":"Point"},"properties":{"osm_id":"7365551889","tag":{"amenity":"recycling","colour":"yellow","operator":"Planet Aid","recycling:clothes":"yes","recycling:shoes":"yes","recycling_type":"container"}},"type":"Feature"},
	{"geometry":{"coordinates":[-76.599346,39.312795],"type":"Point"},"properties":{"osm_id":"7365551902","tag":{"amenity":"recycling","colour":"yellow","operator":"Planet Aid","recycling:clothes":"yes","recycling:shoes":"yes","recycling_type":"container"}},"type":"Feature"},
	{"geometry":{"coordinates":[-76.579782,39.334065],"type":"Point"},"properties":{"osm_id":"7535535258","tag":{"amenity":"waste_basket","waste":"trash"}},"type":"Feature"},
	{"geometry":{"coordinates":[-76.61454,39.329828],"type":"Point"},"properties":{"osm_id":"7653678833","tag":{"amenity":"waste_basket"}},"type":"Feature"},
	{"geometry":{"coordinates":[-76.614699,39.329877],"type":"Point"},"properties":{"osm_id":"7653691153","tag":{"amenity":"waste_basket"}},"type":"Feature"},
	{"geometry":{"coordinates":[-76.614792,39.329933],"type":"Point"},"properties":{"osm_id":"7653691155","tag":{"amenity":"waste_basket"}},"type":"Feature"},
	{"geometry":{"coordinates":[-76.614611,39.329829],"type":"Point"},"properties":{"osm_id":"7653691156","tag":{"amenity":"waste_basket"}},"type":"Feature"},
	{"geometry":{"coordinates":[-76.614846,39.329838],"type":"Point"},"properties":{"osm_id":"7653691157","tag":{"amenity":"waste_basket"}},"type":"Feature"},
	{"geometry":{"coordinates":[-76.614244,39.329847],"type":"Point"},"properties":{"osm_id":"7653692115","tag":{"amenity":"waste_basket"}},"type":"Feature"},
	{"geometry":{"coordinates":[-76.614878,39.329805],"type":"Point"},"properties":{"osm_id":"7653738363","tag":{"amenity":"waste_basket"}},"type":"Feature"}
]
}
