{
"type": "FeatureCollection",
"features": [
	{"geometry":{"coordinates":[18.374203,59.3211],"type":"Point"},"properties":{"osm_id":"467112796","tag":{"amenity":"recycling","location":"overground","recycling_type":"container"}},"type":"Feature"},
	{"geometry":{"coordinates":[18.4524,59.313053],"type":"Point"},"properties":{"osm_id":"471705532","tag":{"amenity":"recycling","location":"overground","recycling_type":"container"}},"type":"Feature"},
	{"geometry":{"coordinates":[18.398981,59.333683],"type":"Point"},"properties":{"osm_id":"893329072","tag":{"amenity":"recycling","location":"overground","recycling:glass":"yes","recycling:paper":"yes","recycling_type":"container"}},"type":"Feature"},
	{"geometry":{"coordinates":[18.392315,59.329155],"type":"Point"},"properties":{"name":"Milj\u00c3\u00b6station","osm_id":"2014978456","tag":{"amenity":"recycling","recycling_type":"container"}},"type":"Feature"},
	{"geometry":{"coordinates":[18.393234,59.328484],"type":"Point"},"properties":{"osm_id":"2019848956","tag":{"amenity":"recycling","recycling_type":"centre"}},"type":"Feature"},
	{"geometry":{"coordinates":[18.385837,59.326091],"type":"Point"},"properties":{"osm_id":"2380369397","tag":{"amenity":"waste_basket"}},"type":"Feature"},
	{"geometry":{"coordinates":[18.390045,59.333436],"type":"Point"},"properties":{"osm_id":"2987119577","tag":{"amenity":"waste_basket"}},"type":"Feature"},
	{"geometry":{"coordinates":[18.389859,59.333481],"type":"Point"},"properties":{"osm_id":"2987119581","tag":{"amenity":"waste_disposal"}},"type":"Feature"},
	{"geometry":{"coordinates":[18.388206,59.332706],"type":"Point"},"properties":{"osm_id":"2991123633","tag":{"amenity":"waste_basket"}},"type":"Feature"},
	{"geometry":{"coordinates":[18.393599,59.335582],"type":"Point"},"properties":{"osm_id":"2991123637","tag":{"amenity":"waste_basket"}},"type":"Feature"},
	{"geometry":{"coordinates":[18.394835,59.335982],"type":"Point"},"properties":{"osm_id":"2991123638","tag":{"amenity":"waste_basket"}},"type":"Feature"},
	{"geometry":{"coordinates":[18.392478,59.336682],"type":"Point"},"properties":{"osm_id":"2991123641","tag":{"access":"no","amenity":"waste_disposal"}},"type":"Feature"},
	{"geometry":{"coordinates":[18.391711,59.336977],"type":"Point"},"properties":{"osm_id":"2991123642","tag":{"access":"no","amenity":"waste_disposal"}},"type":"Feature"},
	{"geometry":{"coordinates":[18.388795,59.330991],"type":"Point"},"properties":{"osm_id":"2991206099","tag":{"amenity":"waste_basket"}},"type":"Feature"},
	{"geometry":{"coordinates":[18.388061,59.331385],"type":"Point"},"properties":{"osm_id":"2991210144","tag":{"amenity":"waste_basket"}},"type":"Feature"},
	{"geometry":{"coordinates":[18.387135,59.334482],"type":"Point"},"properties":{"osm_id":"2992824081","tag":{"amenity":"waste_basket"}},"type":"Feature"},
	{"geometry":{"coordinates":[18.384392,59.329837],"type":"Point"},"properties":{"osm_id":"2992878421","tag":{"amenity":"waste_basket"}},"type":"Feature"},
	{"geometry":{"coordinates":[18.384843,59.329868],"type":"Point"},"properties":{"osm_id":"2992878424","tag":{"amenity":"waste_disposal"}},"type":"Feature"},
	{"geometry":{"coordinates":[18.396757,59.338036],"type":"Point"},"properties":{"osm_id":"3016306191","tag":{"amenity":"waste_basket","material":"plastic"}},"type":"Feature"},
	{"geometry":{"coordinates":[18.404728,59.3229],"type":"Point"},"properties":{"osm_id":"3068944284","tag":{"amenity":"recycling","recycling:batteries":"no","recycling:cans":"no","recycling:clothes":"no","recycling:glass":"no","recycling:paper":"yes","recycling:scrap_metal":"no","recycling_type":"container"}},"type":"Feature"},
	{"geometry":{"coordinates":[18.402705,59.318633],"type":"Point"},"properties":{"osm_id":"3073803550","tag":{"amenity":"waste_basket"}},"type":"Feature"},
	{"geometry":{"coordinates":[18.405805,59.319482],"type":"Point"},"properties":{"osm_id":"3101273557","tag":{"amenity":"waste_basket"}},"type":"Feature"},
	{"geometry":{"coordinates":[18.374466,59.328274],"type":"Point"},"properties":{"osm_id":"3522437337","tag":{"amenity":"recycling","recycling:batteries":"yes","recycling:glass_bottles":"yes","recycling:paper":"yes","recycling:scrap_metal":"yes","recycling_type":"container"}},"type":"Feature"},
	{"geometry":{"coordinates":[18.391807,59.327998],"type":"Point"},"properties":{"osm_id":"3542936031","tag":{"amenity":"waste_basket"}},"type":"Feature"},
	{"geometry":{"coordinates":[18.393171,59.338216],"type":"Point"},"properties":{"osm_id":"3570349166","tag":{"amenity":"waste_disposal"}},"type":"Feature"},
	{"geometry":{"coordinates":[18.394575,59.33851],"type":"Point"},"properties":{"osm_id":"3570349191","tag":{"amenity":"recycling","recycling:batteries":"yes","recycling:cans":"yes","recycling:clothes":"yes","recycling:electrical_appliances":"no","recycling:glass_bottles":"yes","recycling:green_waste":"no","recycling:paper":"yes","recycling:plastic":"no","recycling:plastic_packaging":"yes","recycling:scrap_metal":"no","recycling:small_appliances":"no","recycling:waste":"no","recycling:wood":"no","recycling_type":"container"}},"type":"Feature"},
	{"geometry":{"coordinates":[18.409162,59.318219],"type":"Point"},"properties":{"osm_id":"3679545427","tag":{"amenity":"recycling","recycling_type":"container"}},"type":"Feature"},
	{"geometry":{"coordinates":[18.393703,59.338264],"type":"Point"},"properties":{"osm_id":"3888440939","tag":{"amenity":"waste_basket"}},"type":"Feature"},
	{"geometry":{"coordinates":[18.390273,59.33736],"type":"Point"},"properties":{"osm_id":"4149832875","tag":{"amenity":"waste_basket"}},"type":"Feature"},
	{"geometry":{"coordinates":[18.395626,59.324259],"type":"Point"},"properties":{"osm_id":"4585793665","tag":{"amenity":"waste_basket"}},"type":"Feature"},
	{"geometry":{"coordinates":[18.388339,59.327156],"type":"Point"},"properties":{"osm_id":"5169107655","tag":{"amenity":"waste_basket"}},"type":"Feature"},
	{"geometry":{"coordinates":[18.382409,59.322588],"type":"Point"},"properties":{"osm_id":"6350188603","tag":{"amenity":"waste_basket"}},"type":"Feature"},
	{"geometry":{"coordinates":[18.387526,59.321828],"type":"Point"},"properties":{"osm_id":"7149699232","tag":{"amenity":"recycling","recycling_type":"container"}},"type":"Feature"},
	{"geometry":{"coordinates":[18.387032,59.320248],"type":"Point"},"properties":{"osm_id":"7154053273","tag":{"access":"private","amenity":"waste_disposal","waste":"trash"}},"type":"Feature"},
	{"geometry":{"coordinates":[18.38699,59.320239],"type":"Point"},"properties":{"osm_id":"7154053274","tag":{"access":"private","amenity":"waste_disposal","waste":"trash"}},"type":"Feature"},
	{"geometry":{"coordinates":[18.386951,59.320231],"type":"Point"},"properties":{"osm_id":"7154053275","tag":{"access":"private","amenity":"waste_disposal","waste":"trash"}},"type":"Feature"},
	{"geometry":{"coordinates":[18.386821,59.320231],"type":"Point"},"properties":{"osm_id":"7154053276","tag":{"access":"private","amenity":"waste_disposal","waste":"trash"}},"type":"Feature"},
	{"geometry":{"coordinates":[18.386787,59.320225],"type":"Point"},"properties":{"osm_id":"7154053277","tag":{"access":"private","amenity":"waste_disposal","waste":"trash"}},"type":"Feature"},
	{"geometry":{"coordinates":[18.386755,59.32022],"type":"Point"},"properties":{"osm_id":"7154053278","tag":{"access":"private","amenity":"waste_disposal","waste":"trash"}},"type":"Feature"},
	{"geometry":{"coordinates":[18.379113,59.322638],"type":"Point"},"properties":{"osm_id":"7154354863","tag":{"amenity":"waste_basket"}},"type":"Feature"},
	{"geometry":{"coordinates":[18.379584,59.32209],"type":"Point"},"properties":{"osm_id":"7154354869","tag":{"access":"private","amenity":"waste_disposal","waste":"trash"}},"type":"Feature"},
	{"geometry":{"coordinates":[18.379552,59.322091],"type":"Point"},"properties":{"osm_id":"7154354870","tag":{"access":"private","amenity":"waste_disposal","waste":"trash"}},"type":"Feature"},
	{"geometry":{"coordinates":[18.37837,59.322091],"type":"Point"},"properties":{"osm_id":"7154375923","tag":{"access":"private","amenity":"waste_disposal","waste":"trash"}},"type":"Feature"},
	{"geometry":{"coordinates":[18.378373,59.322112],"type":"Point"},"properties":{"osm_id":"7154375924","tag":{"access":"private","amenity":"waste_disposal","waste":"trash"}},"type":"Feature"},
	{"geometry":{"coordinates":[18.423627,59.312038],"type":"Point"},"properties":{"osm_id":"7711246366","tag":{"amenity":"recycling","recycling_type":"container"}},"type":"Feature"}
]
}
