{
"type": "FeatureCollection",
"features": [
	{"geometry":{"coordinates":[18.45309,54.459267],"type":"Point"},"properties":{"osm_id":"1783423832","tag":{"amenity":"waste_basket"}},"type":"Feature"},
	{"geometry":{"coordinates":[18.453059,54.455852],"type":"Point"},"properties":{"osm_id":"4357095646","tag":{"amenity":"waste_basket"}},"type":"Feature"},
	{"geometry":{"coordinates":[18.453475,54.455867],"type":"Point"},"properties":{"osm_id":"4357095647","tag":{"amenity":"waste_basket"}},"type":"Feature"},
	{"geometry":{"coordinates":[18.388773,54.456025],"type":"Point"},"properties":{"osm_id":"5042488447","tag":{"amenity":"waste_basket"}},"type":"Feature"},
	{"geometry":{"coordinates":[18.452397,54.421329],"type":"Point"},"properties":{"osm_id":"6206098869","tag":{"amenity":"waste_basket"}},"type":"Feature"},
	{"geometry":{"coordinates":[18.452487,54.421411],"type":"Point"},"properties":{"osm_id":"6206098870","tag":{"amenity":"waste_basket"}},"type":"Feature"},
	{"geometry":{"coordinates":[18.442402,54.419134],"type":"Point"},"properties":{"osm_id":"7341303453","tag":{"amenity":"waste_basket","material":"concrete","waste":"trash"}},"type":"Feature"},
	{"geometry":{"coordinates":[18.415563,54.42242],"type":"Point"},"properties":{"osm_id":"7398777206","tag":{"amenity":"waste_basket"}},"type":"Feature"},
	{"geometry":{"coordinates":[18.456114,54.432016],"type":"Point"},"properties":{"osm_id":"7479886579","tag":{"amenity":"waste_basket"}},"type":"Feature"}
]
}
