{
"type": "FeatureCollection",
"features": [
	{"geometry":{"coordinates":[18.400074,54.396128],"type":"Point"},"properties":{"osm_id":"6359778979","tag":{"amenity":"waste_basket","waste":"trash"}},"type":"Feature"},
	{"geometry":{"coordinates":[18.401042,54.395419],"type":"Point"},"properties":{"osm_id":"6359778983","tag":{"amenity":"waste_basket","waste":"trash"}},"type":"Feature"},
	{"geometry":{"coordinates":[18.406588,54.392268],"type":"Point"},"properties":{"osm_id":"6902197602","tag":{"amenity":"recycling","image":"https://upload.wikimedia.org/wikipedia/commons/3/35/Kontenerek_na_odpady_selektywne_w_Baninie.jpg","opening_hours":"24/7","operator":"Urz\u00c4\u0085d Gminy w \u00c5\u00bbukowie","recycling:batteries":"yes","recycling:cds":"yes","recycling:fluorescent_tubes":"no","recycling:low_energy_bulbs":"yes","recycling:mobile_phones":"yes","recycling:small_appliances":"yes","recycling_type":"container"}},"type":"Feature"},
	{"geometry":{"coordinates":[18.396832,54.394039],"type":"Point"},"properties":{"osm_id":"7121706093","tag":{"amenity":"waste_basket","waste":"trash"}},"type":"Feature"},
	{"geometry":{"coordinates":[18.398768,54.394243],"type":"Point"},"properties":{"osm_id":"7121706094","tag":{"amenity":"waste_basket","waste":"trash"}},"type":"Feature"},
	{"geometry":{"coordinates":[18.436685,54.417079],"type":"Point"},"properties":{"osm_id":"7296597070","tag":{"amenity":"waste_basket","waste":"trash"}},"type":"Feature"},
	{"geometry":{"coordinates":[18.430374,54.41787],"type":"Point"},"properties":{"osm_id":"7316367936","tag":{"amenity":"waste_basket","waste":"trash"}},"type":"Feature"},
	{"geometry":{"coordinates":[18.44278,54.418643],"type":"Point"},"properties":{"osm_id":"7341303452","tag":{"amenity":"waste_basket","material":"concrete","waste":"trash"}},"type":"Feature"},
	{"geometry":{"coordinates":[18.442614,54.418888],"type":"Point"},"properties":{"osm_id":"7341303454","tag":{"amenity":"waste_basket","material":"concrete","waste":"trash"}},"type":"Feature"},
	{"geometry":{"coordinates":[18.384528,54.372169],"type":"Point"},"properties":{"osm_id":"7439479493","tag":{"amenity":"waste_basket","waste":"trash"}},"type":"Feature"},
	{"geometry":{"coordinates":[18.380359,54.374095],"type":"Point"},"properties":{"osm_id":"7439479508","tag":{"amenity":"waste_basket","waste":"trash"}},"type":"Feature"},
	{"geometry":{"coordinates":[18.446397,54.415283],"type":"Point"},"properties":{"osm_id":"7454664647","tag":{"amenity":"waste_basket"}},"type":"Feature"},
	{"geometry":{"coordinates":[18.445783,54.414128],"type":"Point"},"properties":{"osm_id":"7454664648","tag":{"amenity":"waste_basket"}},"type":"Feature"},
	{"geometry":{"coordinates":[18.399381,54.396612],"type":"Point"},"properties":{"osm_id":"7495053166","tag":{"amenity":"waste_basket","waste":"trash"}},"type":"Feature"},
	{"geometry":{"coordinates":[18.399755,54.396341],"type":"Point"},"properties":{"osm_id":"7495053168","tag":{"amenity":"waste_basket","waste":"trash"}},"type":"Feature"},
	{"geometry":{"coordinates":[18.400991,54.393598],"type":"Point"},"properties":{"osm_id":"7549198270","tag":{"amenity":"waste_disposal","waste":"trash"}},"type":"Feature"},
	{"geometry":{"coordinates":[18.405867,54.391621],"type":"Point"},"properties":{"name":"Skormet Eko","osm_id":"7566107109","tag":{"addr:city":"Banino","addr:country":"PL","addr:housenumber":"4","addr:postcode":"80-297","addr:street":"Lipowa","amenity":"recycling","email":"skormeteco@gmail.com","opening_hours":"Mo-Fr 07:00-16:00; Sa 07:00-11:00; PH,Su off","operator":"SKORMET ECO","phone":"+48 503 526 152","recycling:cans":"yes","recycling:metal":"yes","recycling:scrap_metal":"yes","recycling_type":"centre","website":"http://www.skormeteco.pl/","wheelchair":"yes"}},"type":"Feature"},
	{"geometry":{"coordinates":[18.399895,54.395356],"type":"Point"},"properties":{"osm_id":"8494801653","tag":{"amenity":"waste_basket","waste":"trash"}},"type":"Feature"},
	{"geometry":{"coordinates":[18.399354,54.395962],"type":"Point"},"properties":{"osm_id":"8494801654","tag":{"amenity":"waste_basket","waste":"trash"}},"type":"Feature"},
	{"geometry":{"coordinates":[18.374355,54.392539],"type":"Point"},"properties":{"osm_id":"8565273239","tag":{"amenity":"recycling","recycling:beverage_cartons":"yes","recycling:cans":"yes","recycling:cardboard":"yes","recycling:glass":"yes","recycling:glass_bottles":"yes","recycling:newspaper":"yes","recycling:paper":"yes","recycling:paper_packaging":"yes","recycling:plastic":"yes","recycling:plastic_bottles":"yes","recycling:plastic_packaging":"yes","recycling:waste":"yes","recycling_type":"container"}},"type":"Feature"}
]
}
