{
"type": "FeatureCollection",
"features": [
	{"geometry":{"coordinates":[18.379697,54.347084],"type":"Point"},"properties":{"name":"PSZOK \u00c5\u00bbukowo","osm_id":"9183637193","tag":{"addr:city":"\u00c5\u00bbukowo","addr:country":"PL","addr:housenumber":"70","addr:postcode":"83-330","addr:street":"Polna","amenity":"recycling","official_name":"Punkt Selektywnej Zbi\u00c3\u00b3rki Odpad\u00c3\u00b3w Komunalnych \u00c5\u00bbukowo","opening_hours":"Tu-Fr 08:00-16:00; Th 08:00-18:00; Sa 08:00-14:00; Mo, Su, PH off","phone":"+48 721 040 200","recycling:batteries":"yes","recycling:cans":"yes","recycling:cardboard":"yes","recycling:clothes":"yes","recycling:electrical_appliances":"yes","recycling:glass":"yes","recycling:glass_bottles":"yes","recycling:green_waste":"yes","recycling:paper":"yes","recycling:plastic":"yes","recycling:plastic_bottles":"yes","recycling:plastic_packaging":"yes","recycling:scrap_metal":"yes","recycling:shoes":"yes","recycling:small_appliances":"yes","recycling:waste":"yes","recycling_type":"centre","website":"https://www.zukowo.pl/Informacja_o_Punkcie_Selektywnej_Zbiorki_Odpadow_Komunalnych,97"}},"type":"Feature"}
]
}
