{
"type": "FeatureCollection",
"features": [
	{"geometry":{"coordinates":[18.400264,49.5226],"type":"Point"},"properties":{"osm_id":"2593937333","tag":{"amenity":"waste_disposal"}},"type":"Feature"},
	{"geometry":{"coordinates":[18.392929,49.537886],"type":"Point"},"properties":{"osm_id":"3633304226","tag":{"amenity":"recycling","recycling:glass":"yes","recycling:plastic":"yes","recycling_type":"container","wheelchair":"yes"}},"type":"Feature"},
	{"geometry":{"coordinates":[18.392599,49.53915],"type":"Point"},"properties":{"osm_id":"3633304993","tag":{"amenity":"recycling","recycling:glass":"yes","recycling:plastic":"yes","recycling_type":"container","wheelchair":"yes"}},"type":"Feature"},
	{"geometry":{"coordinates":[18.380409,49.55337],"type":"Point"},"properties":{"osm_id":"3635442698","tag":{"amenity":"recycling","recycling:glass":"yes","recycling:plastic":"yes","recycling_type":"container"}},"type":"Feature"},
	{"geometry":{"coordinates":[18.387071,49.533428],"type":"Point"},"properties":{"osm_id":"4365993513","tag":{"amenity":"waste_basket"}},"type":"Feature"},
	{"geometry":{"coordinates":[18.393476,49.536792],"type":"Point"},"properties":{"osm_id":"4365993532","tag":{"amenity":"recycling","recycling:glass":"yes","recycling:plastic":"yes","recycling_type":"container","wheelchair":"yes"}},"type":"Feature"},
	{"geometry":{"coordinates":[18.393131,49.537074],"type":"Point"},"properties":{"osm_id":"4365993535","tag":{"amenity":"waste_basket"}},"type":"Feature"},
	{"geometry":{"coordinates":[18.39308,49.537187],"type":"Point"},"properties":{"osm_id":"4365993539","tag":{"amenity":"waste_basket"}},"type":"Feature"},
	{"geometry":{"coordinates":[18.393442,49.537574],"type":"Point"},"properties":{"osm_id":"4365993550","tag":{"amenity":"waste_basket"}},"type":"Feature"},
	{"geometry":{"coordinates":[18.393338,49.537666],"type":"Point"},"properties":{"osm_id":"4365993553","tag":{"amenity":"waste_basket","level":"0"}},"type":"Feature"},
	{"geometry":{"coordinates":[18.392484,49.538401],"type":"Point"},"properties":{"osm_id":"4365993561","tag":{"amenity":"recycling","recycling:clothes":"yes","recycling:glass":"yes","recycling:paper":"yes","recycling:plastic":"yes","recycling_type":"container","wheelchair":"yes"}},"type":"Feature"},
	{"geometry":{"coordinates":[18.392845,49.53862],"type":"Point"},"properties":{"osm_id":"4365993563","tag":{"amenity":"waste_basket"}},"type":"Feature"},
	{"geometry":{"coordinates":[18.392577,49.538778],"type":"Point"},"properties":{"osm_id":"4365993565","tag":{"amenity":"waste_basket"}},"type":"Feature"},
	{"geometry":{"coordinates":[18.392286,49.539131],"type":"Point"},"properties":{"osm_id":"4365993567","tag":{"amenity":"waste_basket"}},"type":"Feature"},
	{"geometry":{"coordinates":[18.391596,49.539579],"type":"Point"},"properties":{"osm_id":"4365993569","tag":{"amenity":"waste_basket"}},"type":"Feature"},
	{"geometry":{"coordinates":[18.393556,49.53758],"type":"Point"},"properties":{"osm_id":"5895992948","tag":{"amenity":"waste_basket","level":"0","waste":"trash"}},"type":"Feature"},
	{"geometry":{"coordinates":[18.393582,49.537525],"type":"Point"},"properties":{"osm_id":"5895992949","tag":{"amenity":"waste_basket","level":"0","waste":"trash"}},"type":"Feature"},
	{"geometry":{"coordinates":[18.393475,49.537753],"type":"Point"},"properties":{"osm_id":"5895992952","tag":{"amenity":"waste_basket","level":"0","waste":"trash"}},"type":"Feature"},
	{"geometry":{"coordinates":[18.400198,49.522626],"type":"Point"},"properties":{"osm_id":"7577272041","tag":{"amenity":"recycling","recycling:plastic":"yes","recycling_type":"container"}},"type":"Feature"}
]
}
