{
"type": "FeatureCollection",
"features": [
	{"geometry":{"coordinates":[18.373244,48.625179],"type":"Point"},"properties":{"is_in":"Partiz\u00c3\u00a1nske","osm_id":"991480140","tag":{"amenity":"waste_basket"}},"type":"Feature"},
	{"geometry":{"coordinates":[18.37272,48.625829],"type":"Point"},"properties":{"osm_id":"993670894","tag":{"amenity":"waste_basket"}},"type":"Feature"},
	{"geometry":{"coordinates":[18.37223,48.625964],"type":"Point"},"properties":{"osm_id":"993670921","tag":{"amenity":"waste_basket"}},"type":"Feature"},
	{"geometry":{"coordinates":[18.372087,48.625861],"type":"Point"},"properties":{"osm_id":"993670932","tag":{"amenity":"waste_basket"}},"type":"Feature"},
	{"geometry":{"coordinates":[18.373007,48.625701],"type":"Point"},"properties":{"osm_id":"993670955","tag":{"amenity":"waste_basket"}},"type":"Feature"},
	{"geometry":{"coordinates":[18.373087,48.625078],"type":"Point"},"properties":{"is_in":"Partiz\u00c3\u00a1nske","osm_id":"1000800826","tag":{"amenity":"waste_basket"}},"type":"Feature"},
	{"geometry":{"coordinates":[18.373517,48.62576],"type":"Point"},"properties":{"is_in":"Partiz\u00c3\u00a1nske","osm_id":"1000800874","tag":{"amenity":"waste_basket"}},"type":"Feature"},
	{"geometry":{"coordinates":[18.392804,48.620051],"type":"Point"},"properties":{"osm_id":"4439380293","tag":{"amenity":"waste_disposal"}},"type":"Feature"},
	{"geometry":{"coordinates":[18.395771,48.620699],"type":"Point"},"properties":{"osm_id":"4439389291","tag":{"amenity":"waste_disposal"}},"type":"Feature"},
	{"geometry":{"coordinates":[18.395075,48.620165],"type":"Point"},"properties":{"osm_id":"4439422793","tag":{"amenity":"waste_disposal"}},"type":"Feature"},
	{"geometry":{"coordinates":[18.394216,48.620107],"type":"Point"},"properties":{"osm_id":"4439422794","tag":{"amenity":"waste_disposal"}},"type":"Feature"},
	{"geometry":{"coordinates":[18.397846,48.620382],"type":"Point"},"properties":{"osm_id":"4439428589","tag":{"amenity":"waste_disposal"}},"type":"Feature"},
	{"geometry":{"coordinates":[18.396957,48.620874],"type":"Point"},"properties":{"osm_id":"4439476689","tag":{"amenity":"waste_disposal"}},"type":"Feature"},
	{"geometry":{"coordinates":[18.392589,48.621168],"type":"Point"},"properties":{"osm_id":"4440520993","tag":{"amenity":"waste_disposal"}},"type":"Feature"},
	{"geometry":{"coordinates":[18.393877,48.62155],"type":"Point"},"properties":{"osm_id":"4440520994","tag":{"amenity":"waste_disposal"}},"type":"Feature"},
	{"geometry":{"coordinates":[18.394768,48.623072],"type":"Point"},"properties":{"osm_id":"4440520995","tag":{"amenity":"waste_disposal"}},"type":"Feature"},
	{"geometry":{"coordinates":[18.392147,48.619601],"type":"Point"},"properties":{"osm_id":"4440531290","tag":{"amenity":"waste_disposal"}},"type":"Feature"},
	{"geometry":{"coordinates":[18.389325,48.621918],"type":"Point"},"properties":{"osm_id":"4440531291","tag":{"amenity":"waste_disposal"}},"type":"Feature"},
	{"geometry":{"coordinates":[18.391831,48.622082],"type":"Point"},"properties":{"osm_id":"4440535094","tag":{"amenity":"waste_disposal"}},"type":"Feature"},
	{"geometry":{"coordinates":[18.392433,48.621747],"type":"Point"},"properties":{"osm_id":"4440535095","tag":{"amenity":"waste_disposal"}},"type":"Feature"},
	{"geometry":{"coordinates":[18.395336,48.621641],"type":"Point"},"properties":{"osm_id":"4440535096","tag":{"amenity":"waste_disposal"}},"type":"Feature"},
	{"geometry":{"coordinates":[18.395264,48.623881],"type":"Point"},"properties":{"osm_id":"4440535097","tag":{"amenity":"waste_disposal"}},"type":"Feature"},
	{"geometry":{"coordinates":[18.392784,48.623484],"type":"Point"},"properties":{"osm_id":"4440560691","tag":{"amenity":"waste_disposal"}},"type":"Feature"},
	{"geometry":{"coordinates":[18.391357,48.622165],"type":"Point"},"properties":{"osm_id":"4440567692","tag":{"amenity":"waste_disposal"}},"type":"Feature"},
	{"geometry":{"coordinates":[18.389604,48.622099],"type":"Point"},"properties":{"osm_id":"4440567991","tag":{"amenity":"waste_disposal"}},"type":"Feature"},
	{"geometry":{"coordinates":[18.39464,48.623593],"type":"Point"},"properties":{"osm_id":"4440568590","tag":{"amenity":"waste_disposal"}},"type":"Feature"},
	{"geometry":{"coordinates":[18.391917,48.623137],"type":"Point"},"properties":{"osm_id":"4442099693","tag":{"amenity":"waste_disposal"}},"type":"Feature"},
	{"geometry":{"coordinates":[18.393126,48.622255],"type":"Point"},"properties":{"osm_id":"4442099694","tag":{"amenity":"waste_disposal"}},"type":"Feature"},
	{"geometry":{"coordinates":[18.393757,48.622959],"type":"Point"},"properties":{"osm_id":"4442136491","tag":{"amenity":"waste_disposal"}},"type":"Feature"},
	{"geometry":{"coordinates":[18.392684,48.62081],"type":"Point"},"properties":{"osm_id":"4442136991","tag":{"amenity":"waste_disposal"}},"type":"Feature"},
	{"geometry":{"coordinates":[18.392159,48.62258],"type":"Point"},"properties":{"osm_id":"4442136992","tag":{"amenity":"waste_disposal"}},"type":"Feature"},
	{"geometry":{"coordinates":[18.393306,48.623016],"type":"Point"},"properties":{"osm_id":"4442150789","tag":{"amenity":"waste_disposal"}},"type":"Feature"},
	{"geometry":{"coordinates":[18.369808,48.625215],"type":"Point"},"properties":{"osm_id":"6289806460","tag":{"amenity":"recycling","recycling_type":"container"}},"type":"Feature"},
	{"geometry":{"coordinates":[18.37132,48.625265],"type":"Point"},"properties":{"osm_id":"6289806461","tag":{"amenity":"recycling","recycling_type":"container"}},"type":"Feature"},
	{"geometry":{"coordinates":[18.371748,48.625016],"type":"Point"},"properties":{"osm_id":"6960132539","tag":{"amenity":"recycling","recycling:cans":"yes","recycling:glass_bottles":"yes","recycling:paper":"yes","recycling:plastic":"no","recycling:plastic_packaging":"yes","recycling_type":"container"}},"type":"Feature"},
	{"geometry":{"coordinates":[18.37672,48.623025],"type":"Point"},"properties":{"osm_id":"6960132540","tag":{"amenity":"recycling","recycling:cans":"yes","recycling:glass_bottles":"yes","recycling:paper":"yes","recycling:plastic":"no","recycling:plastic_packaging":"yes","recycling_type":"container"}},"type":"Feature"},
	{"geometry":{"coordinates":[18.369932,48.623449],"type":"Point"},"properties":{"osm_id":"6960132541","tag":{"amenity":"recycling","recycling_type":"container"}},"type":"Feature"},
	{"geometry":{"coordinates":[18.377724,48.623276],"type":"Point"},"properties":{"osm_id":"7286563051","tag":{"amenity":"waste_basket"}},"type":"Feature"},
	{"geometry":{"coordinates":[18.377238,48.623479],"type":"Point"},"properties":{"osm_id":"7286563052","tag":{"amenity":"waste_basket"}},"type":"Feature"},
	{"geometry":{"coordinates":[18.375811,48.624069],"type":"Point"},"properties":{"osm_id":"7286563055","tag":{"amenity":"waste_basket"}},"type":"Feature"},
	{"geometry":{"coordinates":[18.376956,48.624031],"type":"Point"},"properties":{"osm_id":"7286563060","tag":{"amenity":"waste_basket"}},"type":"Feature"},
	{"geometry":{"coordinates":[18.375644,48.624653],"type":"Point"},"properties":{"osm_id":"7286563487","tag":{"amenity":"waste_basket"}},"type":"Feature"},
	{"geometry":{"coordinates":[18.377975,48.623639],"type":"Point"},"properties":{"osm_id":"7286563490","tag":{"amenity":"waste_basket"}},"type":"Feature"},
	{"geometry":{"coordinates":[18.375524,48.624197],"type":"Point"},"properties":{"osm_id":"7286563496","tag":{"amenity":"waste_basket"}},"type":"Feature"},
	{"geometry":{"coordinates":[18.372531,48.62477],"type":"Point"},"properties":{"osm_id":"7807509210","tag":{"amenity":"waste_basket"}},"type":"Feature"},
	{"geometry":{"coordinates":[18.395765,48.625429],"type":"Point"},"properties":{"osm_id":"7807706727","tag":{"entrance":"yes"}},"type":"Feature"},
	{"geometry":{"coordinates":[18.370308,48.626484],"type":"Point"},"properties":{"osm_id":"7869521186","tag":{"amenity":"waste_basket"}},"type":"Feature"},
	{"geometry":{"coordinates":[18.369674,48.626351],"type":"Point"},"properties":{"osm_id":"7869521187","tag":{"amenity":"waste_basket"}},"type":"Feature"},
	{"geometry":{"coordinates":[18.372518,48.625611],"type":"Point"},"properties":{"osm_id":"7872135053","tag":{"amenity":"waste_basket"}},"type":"Feature"},
	{"geometry":{"coordinates":[18.373176,48.625203],"type":"Point"},"properties":{"osm_id":"7872135080","tag":{"amenity":"waste_basket"}},"type":"Feature"},
	{"geometry":{"coordinates":[18.371635,48.626435],"type":"Point"},"properties":{"osm_id":"7872135082","tag":{"amenity":"waste_basket"}},"type":"Feature"},
	{"geometry":{"coordinates":[18.372076,48.626069],"type":"Point"},"properties":{"osm_id":"7872135688","tag":{"amenity":"waste_basket"}},"type":"Feature"},
	{"geometry":{"coordinates":[18.369764,48.625226],"type":"Point"},"properties":{"osm_id":"7897178986","tag":{"amenity":"waste_disposal"}},"type":"Feature"},
	{"geometry":{"coordinates":[18.370579,48.624537],"type":"Point"},"properties":{"osm_id":"7897179001","tag":{"amenity":"waste_disposal"}},"type":"Feature"},
	{"geometry":{"coordinates":[18.372067,48.62685],"type":"Point"},"properties":{"osm_id":"7914398098","tag":{"amenity":"waste_basket"}},"type":"Feature"},
	{"geometry":{"coordinates":[18.372006,48.627024],"type":"Point"},"properties":{"osm_id":"7914398100","tag":{"amenity":"waste_basket"}},"type":"Feature"},
	{"geometry":{"coordinates":[18.376461,48.62781],"type":"Point"},"properties":{"osm_id":"7935218541","tag":{"amenity":"waste_basket"}},"type":"Feature"},
	{"geometry":{"coordinates":[18.374769,48.6276],"type":"Point"},"properties":{"osm_id":"7935218544","tag":{"amenity":"waste_basket"}},"type":"Feature"}
]
}
