{
"type": "FeatureCollection",
"features": [
	{"geometry":{"coordinates":[18.448115,47.662571],"type":"Point"},"properties":{"osm_id":"2424076493","tag":{"amenity":"recycling"}},"type":"Feature"},
	{"geometry":{"coordinates":[18.381662,47.667147],"type":"Point"},"properties":{"osm_id":"2851371060","tag":{"amenity":"recycling","recycling:PET":"yes","recycling:glass_bottles":"yes","recycling:paper":"yes","recycling_type":"container"}},"type":"Feature"},
	{"geometry":{"coordinates":[18.456017,47.663155],"type":"Point"},"properties":{"osm_id":"3470078984","tag":{"addr:street":"Kossuth Lajos utca","amenity":"recycling","description":"A bolt mellett tal\u00c3\u00a1lhat\u00c3\u00b3 ez a gy\u00c5\u00b1jt\u00c5\u0091egys\u00c3\u00a9g.","source:date":"2011-05-08","url":"http://turistautak.hu/poi.php?id=6510"}},"type":"Feature"},
	{"geometry":{"coordinates":[18.42031,47.656486],"type":"Point"},"properties":{"osm_id":"3650938028","tag":{"amenity":"waste_basket"}},"type":"Feature"},
	{"geometry":{"coordinates":[18.415278,47.658697],"type":"Point"},"properties":{"osm_id":"3650938058","tag":{"amenity":"waste_basket"}},"type":"Feature"}
]
}
