{
"type": "FeatureCollection",
"features": [
	{"geometry":{"coordinates":[18.401024,47.583945],"type":"Point"},"properties":{"name":"Szelekt\u00c3\u00adv hullad\u00c3\u00a9k t\u00c3\u00a1rol\u00c3\u00b3","osm_id":"1715011433","tag":{"amenity":"recycling"}},"type":"Feature"},
	{"geometry":{"coordinates":[18.399102,47.576559],"type":"Point"},"properties":{"osm_id":"2700687831","tag":{"amenity":"waste_basket"}},"type":"Feature"},
	{"geometry":{"coordinates":[18.389692,47.594512],"type":"Point"},"properties":{"osm_id":"2700687907","tag":{"amenity":"waste_disposal"}},"type":"Feature"},
	{"geometry":{"coordinates":[18.383422,47.622981],"type":"Point"},"properties":{"osm_id":"2700688011","tag":{"amenity":"recycling","recycling:PET":"yes","recycling:glass":"yes","recycling:paper":"yes","recycling_type":"container"}},"type":"Feature"},
	{"geometry":{"coordinates":[18.3834,47.619867],"type":"Point"},"properties":{"osm_id":"3468026408","tag":{"addr:city":"V\u00c3\u00a9rtessz\u00c5\u0091l\u00c5\u0091s","amenity":"recycling","description":"faluh\u00c3\u00a1zzal szemben","source:date":"2011-05-08","url":"http://turistautak.hu/poi.php?id=29483"}},"type":"Feature"},
	{"geometry":{"coordinates":[18.3881,47.584167],"type":"Point"},"properties":{"osm_id":"3470068554","tag":{"amenity":"recycling","description":"Parkol\u00c3\u00b3ban","source:date":"2011-02-19","url":"http://turistautak.hu/poi.php?id=32892"}},"type":"Feature"},
	{"geometry":{"coordinates":[18.388933,47.585717],"type":"Point"},"properties":{"osm_id":"3470068558","tag":{"addr:street":"Erd\u00c3\u00a9sz \u00c3\u00bat - Kombern\u00c3\u00a9l","amenity":"recycling","recycling_type":"container","source:date":"2011-09-03","url":"http://turistautak.hu/poi.php?id=50068"}},"type":"Feature"},
	{"geometry":{"coordinates":[18.376734,47.618679],"type":"Point"},"properties":{"osm_id":"4053096714","tag":{"amenity":"recycling"}},"type":"Feature"},
	{"geometry":{"coordinates":[18.406863,47.57844],"type":"Point"},"properties":{"name":"Szelekt\u00c3\u00adv hullad\u00c3\u00a9kgy\u00c5\u00b1jt\u00c5\u0091","osm_id":"7020541234","tag":{"amenity":"recycling","recycling:cardboard":"yes","recycling:glass_bottles":"yes","recycling:paper":"yes","recycling:plastic_bottles":"yes","recycling_type":"container"}},"type":"Feature"},
	{"geometry":{"coordinates":[18.398673,47.576705],"type":"Point"},"properties":{"osm_id":"8248010248","tag":{"amenity":"waste_basket"}},"type":"Feature"},
	{"geometry":{"coordinates":[18.371511,47.617074],"type":"Point"},"properties":{"osm_id":"8265347144","tag":{"amenity":"waste_basket","waste":"trash"}},"type":"Feature"},
	{"geometry":{"coordinates":[18.371482,47.617125],"type":"Point"},"properties":{"osm_id":"8265347145","tag":{"amenity":"waste_basket","waste":"trash"}},"type":"Feature"},
	{"geometry":{"coordinates":[18.4093,47.587964],"type":"Point"},"properties":{"osm_id":"8270413788","tag":{"amenity":"waste_basket","waste":"trash"}},"type":"Feature"},
	{"geometry":{"coordinates":[18.407881,47.588249],"type":"Point"},"properties":{"osm_id":"9006843273","tag":{"amenity":"waste_disposal"}},"type":"Feature"},
	{"geometry":{"coordinates":[18.409825,47.590133],"type":"Point"},"properties":{"osm_id":"9006880642","tag":{"amenity":"waste_basket"}},"type":"Feature"},
	{"geometry":{"coordinates":[18.408845,47.596887],"type":"Point"},"properties":{"osm_id":"9006880661","tag":{"amenity":"waste_basket"}},"type":"Feature"}
]
}
