{
"type": "FeatureCollection",
"features": [
	{"geometry":{"coordinates":[18.421004,47.539511],"type":"Point"},"properties":{"name":"AVE szem\u00c3\u00a9ttelep","osm_id":"2502835689","tag":{"amenity":"waste_basket"}},"type":"Feature"},
	{"geometry":{"coordinates":[18.45245,47.5424],"type":"Point"},"properties":{"osm_id":"3470068512","tag":{"addr:street":"Szent I. u. - Templom u. sarka","amenity":"recycling","source:date":"2011-09-03","url":"http://turistautak.hu/poi.php?id=50067"}},"type":"Feature"},
	{"geometry":{"coordinates":[18.409965,47.570053],"type":"Point"},"properties":{"osm_id":"3470068533","tag":{"addr:city":"Tatab\u00c3\u00a1nya","addr:housenumber":"1","addr:postcode":"2800","addr:street":"Bl\u00c3\u00a1thy Ott\u00c3\u00b3 utca","amenity":"recycling","description":"A Tesco \u00c3\u00a1ruh\u00c3\u00a1z parkol\u00c3\u00b3j\u00c3\u00a1nak cs\u00c3\u00bccsk\u00c3\u00a9ben, a f\u00c5\u0091\u00c3\u00bathoz k\u00c3\u00b6zel egy szelekt\u00c3\u00adv hullad\u00c3\u00a9kgy\u00c5\u00b1jt\u00c5\u0091 kont\u00c3\u00a9ner-sziget.","source:date":"2011-09-03","url":"http://turistautak.hu/poi.php?id=1712"}},"type":"Feature"},
	{"geometry":{"coordinates":[18.429217,47.535547],"type":"Point"},"properties":{"osm_id":"4156433138","tag":{"amenity":"recycling"}},"type":"Feature"},
	{"geometry":{"coordinates":[18.423683,47.561622],"type":"Point"},"properties":{"osm_id":"6037555599","tag":{"amenity":"recycling","recycling_type":"container"}},"type":"Feature"}
]
}
