{
"type": "FeatureCollection",
"features": [
	{"geometry":{"coordinates":[18.371376,43.847644],"type":"Point"},"properties":{"osm_id":"761731135","tag":{"amenity":"recycling","recycling_type":"container"}},"type":"Feature"},
	{"geometry":{"coordinates":[18.370679,43.847428],"type":"Point"},"properties":{"osm_id":"761731397","tag":{"amenity":"recycling","recycling_type":"container"}},"type":"Feature"},
	{"geometry":{"coordinates":[18.379703,43.855212],"type":"Point"},"properties":{"osm_id":"1694426788","tag":{"amenity":"waste_basket"}},"type":"Feature"},
	{"geometry":{"coordinates":[18.378877,43.855111],"type":"Point"},"properties":{"osm_id":"1694426790","tag":{"amenity":"waste_basket"}},"type":"Feature"},
	{"geometry":{"coordinates":[18.369841,43.853049],"type":"Point"},"properties":{"name":"KJKP Rad","osm_id":"1812387972","tag":{"amenity":"recycling","recycling_type":"centre"}},"type":"Feature"},
	{"geometry":{"coordinates":[18.388745,43.847045],"type":"Point"},"properties":{"osm_id":"2135247767","tag":{"amenity":"waste_basket"}},"type":"Feature"},
	{"geometry":{"coordinates":[18.390723,43.848154],"type":"Point"},"properties":{"osm_id":"2135248062","tag":{"amenity":"waste_basket"}},"type":"Feature"},
	{"geometry":{"coordinates":[18.385899,43.847483],"type":"Point"},"properties":{"osm_id":"2135250274","tag":{"amenity":"waste_basket"}},"type":"Feature"},
	{"geometry":{"coordinates":[18.402661,43.857975],"type":"Point"},"properties":{"osm_id":"4080179834","tag":{"amenity":"waste_basket"}},"type":"Feature"},
	{"geometry":{"coordinates":[18.402512,43.858066],"type":"Point"},"properties":{"osm_id":"4080179838","tag":{"amenity":"waste_basket"}},"type":"Feature"},
	{"geometry":{"coordinates":[18.401813,43.858094],"type":"Point"},"properties":{"osm_id":"4080179841","tag":{"amenity":"waste_basket"}},"type":"Feature"},
	{"geometry":{"coordinates":[18.401727,43.858159],"type":"Point"},"properties":{"osm_id":"4080179853","tag":{"amenity":"waste_basket"}},"type":"Feature"},
	{"geometry":{"coordinates":[18.403188,43.857467],"type":"Point"},"properties":{"osm_id":"4570784205","tag":{"amenity":"waste_disposal","waste":"trash"}},"type":"Feature"},
	{"geometry":{"coordinates":[18.401514,43.858537],"type":"Point"},"properties":{"osm_id":"4570784206","tag":{"amenity":"waste_disposal","waste":"trash"}},"type":"Feature"},
	{"geometry":{"coordinates":[18.405825,43.85621],"type":"Point"},"properties":{"osm_id":"4794646387","tag":{"amenity":"waste_basket"}},"type":"Feature"},
	{"geometry":{"coordinates":[18.405907,43.856211],"type":"Point"},"properties":{"osm_id":"4794646388","tag":{"amenity":"waste_basket"}},"type":"Feature"},
	{"geometry":{"coordinates":[18.407287,43.855344],"type":"Point"},"properties":{"osm_id":"5068387241","tag":{"amenity":"waste_basket"}},"type":"Feature"},
	{"geometry":{"coordinates":[18.421783,43.859749],"type":"Point"},"properties":{"osm_id":"5314612795","tag":{"amenity":"recycling","recycling:paper":"yes","recycling_type":"container"}},"type":"Feature"},
	{"geometry":{"coordinates":[18.421782,43.859729],"type":"Point"},"properties":{"osm_id":"5314612796","tag":{"amenity":"recycling","recycling:plastic":"yes","recycling_type":"container"}},"type":"Feature"},
	{"geometry":{"coordinates":[18.421781,43.85971],"type":"Point"},"properties":{"osm_id":"5314612797","tag":{"amenity":"recycling","recycling:glass":"yes","recycling_type":"container"}},"type":"Feature"},
	{"geometry":{"coordinates":[18.421781,43.859691],"type":"Point"},"properties":{"osm_id":"5314612798","tag":{"amenity":"waste_disposal","waste":"trash"}},"type":"Feature"},
	{"geometry":{"coordinates":[18.442364,43.866909],"type":"Point"},"properties":{"osm_id":"7083709849","tag":{"amenity":"recycling","recycling:glass":"yes","recycling:paper":"yes","recycling:plastic":"yes","recycling:scrap_metal":"yes","recycling_type":"container"}},"type":"Feature"},
	{"geometry":{"coordinates":[18.430286,43.853902],"type":"Point"},"properties":{"osm_id":"7098437603","tag":{"amenity":"recycling","recycling:small_appliances":"yes","recycling_type":"container"}},"type":"Feature"}
]
}
