{
"type": "FeatureCollection",
"features": [
	{"geometry":{"coordinates":[18.401538,40.299223],"type":"Point"},"properties":{"osm_id":"9050175812","tag":{"amenity":"waste_basket"}},"type":"Feature"},
	{"geometry":{"coordinates":[18.401708,40.299314],"type":"Point"},"properties":{"osm_id":"9050175813","tag":{"amenity":"waste_basket"}},"type":"Feature"},
	{"geometry":{"coordinates":[18.401621,40.299265],"type":"Point"},"properties":{"osm_id":"9050175814","tag":{"amenity":"waste_basket"}},"type":"Feature"},
	{"geometry":{"coordinates":[18.401788,40.299537],"type":"Point"},"properties":{"osm_id":"9050196457","tag":{"amenity":"waste_basket"}},"type":"Feature"},
	{"geometry":{"coordinates":[18.398545,40.305587],"type":"Point"},"properties":{"osm_id":"9050327350","tag":{"amenity":"waste_basket","backrest":"yes","material":"stone"}},"type":"Feature"},
	{"geometry":{"coordinates":[18.398826,40.305243],"type":"Point"},"properties":{"osm_id":"9050327352","tag":{"amenity":"waste_basket","backrest":"yes","material":"stone"}},"type":"Feature"},
	{"geometry":{"coordinates":[18.39908,40.304996],"type":"Point"},"properties":{"osm_id":"9050327355","tag":{"amenity":"waste_basket","backrest":"yes","material":"stone"}},"type":"Feature"},
	{"geometry":{"coordinates":[18.405609,40.301162],"type":"Point"},"properties":{"osm_id":"9050424563","tag":{"amenity":"waste_basket"}},"type":"Feature"},
	{"geometry":{"coordinates":[18.405748,40.301119],"type":"Point"},"properties":{"osm_id":"9050424564","tag":{"amenity":"waste_basket"}},"type":"Feature"},
	{"geometry":{"coordinates":[18.404873,40.302175],"type":"Point"},"properties":{"osm_id":"9050424600","tag":{"amenity":"waste_basket"}},"type":"Feature"},
	{"geometry":{"coordinates":[18.404675,40.302393],"type":"Point"},"properties":{"osm_id":"9050424601","tag":{"amenity":"waste_basket"}},"type":"Feature"},
	{"geometry":{"coordinates":[18.402418,40.299894],"type":"Point"},"properties":{"osm_id":"9050586437","tag":{"amenity":"recycling","recrecycling:cooking_oil":"yes","recycling_type":"container"}},"type":"Feature"}
]
}
