{
"type": "FeatureCollection",
"features": [
	{"geometry":{"coordinates":[18.409849,-33.92905],"type":"Point"},"properties":{"osm_id":"528613050","tag":{"access":"private","amenity":"recycling","recycling:cans":"yes","recycling:glass_bottles":"yes","recycling:paper":"yes"}},"type":"Feature"},
	{"geometry":{"coordinates":[18.407874,-33.934668],"type":"Point"},"properties":{"osm_id":"1438144357","tag":{"amenity":"recycling","recycling:green_waste":"yes","recycling_type":"container"}},"type":"Feature"},
	{"geometry":{"coordinates":[18.416197,-33.93109],"type":"Point"},"properties":{"osm_id":"2415434496","tag":{"amenity":"waste_basket"}},"type":"Feature"},
	{"geometry":{"coordinates":[18.415024,-33.932128],"type":"Point"},"properties":{"osm_id":"2415434497","tag":{"amenity":"waste_basket"}},"type":"Feature"},
	{"geometry":{"coordinates":[18.41509,-33.932183],"type":"Point"},"properties":{"osm_id":"2415434499","tag":{"amenity":"waste_basket"}},"type":"Feature"},
	{"geometry":{"coordinates":[18.418168,-33.926061],"type":"Point"},"properties":{"osm_id":"2415449015","tag":{"amenity":"waste_basket"}},"type":"Feature"},
	{"geometry":{"coordinates":[18.418159,-33.926105],"type":"Point"},"properties":{"osm_id":"2415449017","tag":{"amenity":"waste_basket"}},"type":"Feature"},
	{"geometry":{"coordinates":[18.418087,-33.926117],"type":"Point"},"properties":{"osm_id":"2415449020","tag":{"amenity":"waste_basket"}},"type":"Feature"},
	{"geometry":{"coordinates":[18.415147,-33.930128],"type":"Point"},"properties":{"osm_id":"2415449061","tag":{"amenity":"waste_basket"}},"type":"Feature"},
	{"geometry":{"coordinates":[18.421793,-33.901108],"type":"Point"},"properties":{"osm_id":"2662096942","tag":{"amenity":"waste_basket"}},"type":"Feature"},
	{"geometry":{"coordinates":[18.416095,-33.903481],"type":"Point"},"properties":{"osm_id":"2662096955","tag":{"amenity":"waste_basket"}},"type":"Feature"},
	{"geometry":{"coordinates":[18.416252,-33.903696],"type":"Point"},"properties":{"osm_id":"2662096957","tag":{"amenity":"waste_basket"}},"type":"Feature"},
	{"geometry":{"coordinates":[18.412716,-33.905693],"type":"Point"},"properties":{"osm_id":"2662096973","tag":{"amenity":"waste_basket"}},"type":"Feature"},
	{"geometry":{"coordinates":[18.411565,-33.906697],"type":"Point"},"properties":{"osm_id":"2662096977","tag":{"amenity":"waste_basket"}},"type":"Feature"},
	{"geometry":{"coordinates":[18.411689,-33.906881],"type":"Point"},"properties":{"osm_id":"2662096979","tag":{"amenity":"waste_basket"}},"type":"Feature"},
	{"geometry":{"coordinates":[18.410913,-33.907299],"type":"Point"},"properties":{"osm_id":"2662096984","tag":{"amenity":"waste_basket"}},"type":"Feature"},
	{"geometry":{"coordinates":[18.406583,-33.907707],"type":"Point"},"properties":{"osm_id":"2662097012","tag":{"amenity":"waste_basket"}},"type":"Feature"},
	{"geometry":{"coordinates":[18.38093,-33.92229],"type":"Point"},"properties":{"osm_id":"2683160316","tag":{"amenity":"waste_basket"}},"type":"Feature"},
	{"geometry":{"coordinates":[18.395266,-33.907458],"type":"Point"},"properties":{"osm_id":"2684690414","tag":{"amenity":"waste_basket"}},"type":"Feature"},
	{"geometry":{"coordinates":[18.405955,-33.907707],"type":"Point"},"properties":{"osm_id":"2684690441","tag":{"amenity":"waste_basket"}},"type":"Feature"},
	{"geometry":{"coordinates":[18.405555,-33.907738],"type":"Point"},"properties":{"osm_id":"2684690452","tag":{"amenity":"waste_basket"}},"type":"Feature"},
	{"geometry":{"coordinates":[18.405302,-33.90779],"type":"Point"},"properties":{"osm_id":"2684690471","tag":{"amenity":"waste_basket"}},"type":"Feature"},
	{"geometry":{"coordinates":[18.394419,-33.908486],"type":"Point"},"properties":{"osm_id":"2684734456","tag":{"amenity":"waste_basket"}},"type":"Feature"},
	{"geometry":{"coordinates":[18.392894,-33.909402],"type":"Point"},"properties":{"osm_id":"2684734516","tag":{"amenity":"waste_basket"}},"type":"Feature"},
	{"geometry":{"coordinates":[18.391852,-33.909419],"type":"Point"},"properties":{"osm_id":"2684734524","tag":{"amenity":"waste_basket"}},"type":"Feature"},
	{"geometry":{"coordinates":[18.391906,-33.9095],"type":"Point"},"properties":{"osm_id":"2684734553","tag":{"amenity":"waste_basket"}},"type":"Feature"},
	{"geometry":{"coordinates":[18.389275,-33.911691],"type":"Point"},"properties":{"osm_id":"2684734633","tag":{"amenity":"waste_basket"}},"type":"Feature"},
	{"geometry":{"coordinates":[18.386273,-33.919231],"type":"Point"},"properties":{"osm_id":"2688093434","tag":{"amenity":"waste_basket"}},"type":"Feature"},
	{"geometry":{"coordinates":[18.385339,-33.919671],"type":"Point"},"properties":{"osm_id":"2688093457","tag":{"amenity":"waste_basket"}},"type":"Feature"},
	{"geometry":{"coordinates":[18.388379,-33.917215],"type":"Point"},"properties":{"osm_id":"2692329554","tag":{"amenity":"waste_basket"}},"type":"Feature"},
	{"geometry":{"coordinates":[18.388466,-33.917468],"type":"Point"},"properties":{"osm_id":"2692329599","tag":{"amenity":"waste_basket"}},"type":"Feature"},
	{"geometry":{"coordinates":[18.387845,-33.918129],"type":"Point"},"properties":{"osm_id":"2692329741","tag":{"amenity":"waste_basket"}},"type":"Feature"},
	{"geometry":{"coordinates":[18.391835,-33.913168],"type":"Point"},"properties":{"osm_id":"2694284848","tag":{"amenity":"waste_basket"}},"type":"Feature"},
	{"geometry":{"coordinates":[18.390406,-33.914866],"type":"Point"},"properties":{"osm_id":"2696432217","tag":{"amenity":"waste_basket"}},"type":"Feature"},
	{"geometry":{"coordinates":[18.389697,-33.915667],"type":"Point"},"properties":{"osm_id":"2696432225","tag":{"amenity":"waste_basket"}},"type":"Feature"},
	{"geometry":{"coordinates":[18.389488,-33.91594],"type":"Point"},"properties":{"osm_id":"2696432234","tag":{"amenity":"waste_basket"}},"type":"Feature"},
	{"geometry":{"coordinates":[18.389657,-33.916026],"type":"Point"},"properties":{"osm_id":"2696432238","tag":{"amenity":"waste_basket"}},"type":"Feature"},
	{"geometry":{"coordinates":[18.389279,-33.916154],"type":"Point"},"properties":{"osm_id":"2696432247","tag":{"amenity":"waste_basket"}},"type":"Feature"},
	{"geometry":{"coordinates":[18.391215,-33.913897],"type":"Point"},"properties":{"osm_id":"2696461257","tag":{"amenity":"waste_basket"}},"type":"Feature"},
	{"geometry":{"coordinates":[18.391377,-33.913968],"type":"Point"},"properties":{"osm_id":"2696474848","tag":{"amenity":"waste_basket"}},"type":"Feature"},
	{"geometry":{"coordinates":[18.386778,-33.915225],"type":"Point"},"properties":{"osm_id":"5029238757","tag":{"amenity":"waste_basket"}},"type":"Feature"},
	{"geometry":{"coordinates":[18.389756,-33.91018],"type":"Point"},"properties":{"osm_id":"5029238762","tag":{"amenity":"waste_basket"}},"type":"Feature"},
	{"geometry":{"coordinates":[18.390581,-33.909543],"type":"Point"},"properties":{"osm_id":"5029238764","tag":{"amenity":"waste_basket"}},"type":"Feature"},
	{"geometry":{"coordinates":[18.388711,-33.911101],"type":"Point"},"properties":{"osm_id":"5029238766","tag":{"amenity":"waste_basket"}},"type":"Feature"},
	{"geometry":{"coordinates":[18.391506,-33.909019],"type":"Point"},"properties":{"osm_id":"5029238771","tag":{"amenity":"waste_basket"}},"type":"Feature"},
	{"geometry":{"coordinates":[18.392162,-33.908727],"type":"Point"},"properties":{"osm_id":"5029238772","tag":{"amenity":"waste_basket"}},"type":"Feature"},
	{"geometry":{"coordinates":[18.391835,-33.90887],"type":"Point"},"properties":{"osm_id":"5029238773","tag":{"amenity":"waste_basket"}},"type":"Feature"},
	{"geometry":{"coordinates":[18.392724,-33.908694],"type":"Point"},"properties":{"osm_id":"5029238787","tag":{"amenity":"waste_basket"}},"type":"Feature"}
]
}
