{
"type": "FeatureCollection",
"features": [
	{"geometry":{"coordinates":[-8.22126,43.517697],"type":"Point"},"properties":{"osm_id":"681622495","tag":{"amenity":"recycling","recycling:batteries":"yes","recycling:cans":"yes","recycling:clothes":"yes","recycling:glass":"yes","recycling:paper":"yes","recycling:scrap_metal":"yes"}},"type":"Feature"},
	{"geometry":{"coordinates":[-8.20858,43.519812],"type":"Point"},"properties":{"osm_id":"1718671965","tag":{"amenity":"recycling"}},"type":"Feature"},
	{"geometry":{"coordinates":[-8.191791,43.536486],"type":"Point"},"properties":{"osm_id":"1794645919","tag":{"amenity":"recycling"}},"type":"Feature"},
	{"geometry":{"coordinates":[-8.190047,43.536916],"type":"Point"},"properties":{"name":"Empacadora de Lixo Sogama","osm_id":"1794646305","tag":{"amenity":"recycling"}},"type":"Feature"},
	{"geometry":{"coordinates":[-8.209857,43.546096],"type":"Point"},"properties":{"osm_id":"3239776802","tag":{"amenity":"recycling","recycling:cans":"yes","recycling:glass":"yes","recycling:paper":"yes"}},"type":"Feature"},
	{"geometry":{"coordinates":[-8.187875,43.536153],"type":"Point"},"properties":{"osm_id":"4319473788","tag":{"amenity":"recycling"}},"type":"Feature"},
	{"geometry":{"coordinates":[-8.219381,43.567113],"type":"Point"},"properties":{"osm_id":"4593364867","tag":{"amenity":"recycling","recycling_type":"container"}},"type":"Feature"},
	{"geometry":{"coordinates":[-8.175748,43.53717],"type":"Point"},"properties":{"osm_id":"4681565808","tag":{"amenity":"recycling","recycling_type":"container"}},"type":"Feature"},
	{"geometry":{"coordinates":[-8.199943,43.536253],"type":"Point"},"properties":{"osm_id":"4757775457","tag":{"amenity":"recycling","recycling_type":"container"}},"type":"Feature"},
	{"geometry":{"coordinates":[-8.203765,43.535981],"type":"Point"},"properties":{"osm_id":"4757775480","tag":{"amenity":"recycling","recycling_type":"container"}},"type":"Feature"},
	{"geometry":{"coordinates":[-8.196226,43.53902],"type":"Point"},"properties":{"osm_id":"4757782681","tag":{"amenity":"recycling","recycling_type":"container"}},"type":"Feature"},
	{"geometry":{"coordinates":[-8.202236,43.538277],"type":"Point"},"properties":{"osm_id":"4770248078","tag":{"amenity":"recycling","recycling_type":"container"}},"type":"Feature"},
	{"geometry":{"coordinates":[-8.199928,43.536712],"type":"Point"},"properties":{"osm_id":"4770248079","tag":{"amenity":"recycling","recycling_type":"container"}},"type":"Feature"},
	{"geometry":{"coordinates":[-8.201387,43.535367],"type":"Point"},"properties":{"osm_id":"4770248080","tag":{"amenity":"recycling","recycling_type":"container"}},"type":"Feature"},
	{"geometry":{"coordinates":[-8.192847,43.538036],"type":"Point"},"properties":{"osm_id":"4770271172","tag":{"amenity":"recycling","recycling_type":"container"}},"type":"Feature"},
	{"geometry":{"coordinates":[-8.189922,43.540484],"type":"Point"},"properties":{"osm_id":"4770288143","tag":{"amenity":"recycling","recycling_type":"container"}},"type":"Feature"},
	{"geometry":{"coordinates":[-8.198807,43.532277],"type":"Point"},"properties":{"osm_id":"4770342441","tag":{"amenity":"recycling","recycling_type":"container"}},"type":"Feature"},
	{"geometry":{"coordinates":[-8.190913,43.53368],"type":"Point"},"properties":{"osm_id":"4770372306","tag":{"amenity":"recycling","recycling_type":"container"}},"type":"Feature"},
	{"geometry":{"coordinates":[-8.189302,43.537329],"type":"Point"},"properties":{"osm_id":"4770391921","tag":{"amenity":"recycling","recycling_type":"container"}},"type":"Feature"},
	{"geometry":{"coordinates":[-8.188379,43.518743],"type":"Point"},"properties":{"osm_id":"4770408438","tag":{"amenity":"recycling","recycling_type":"container"}},"type":"Feature"},
	{"geometry":{"coordinates":[-8.190831,43.517484],"type":"Point"},"properties":{"osm_id":"4774409030","tag":{"amenity":"recycling","recycling_type":"container"}},"type":"Feature"},
	{"geometry":{"coordinates":[-8.191509,43.517486],"type":"Point"},"properties":{"osm_id":"4774409037","tag":{"amenity":"recycling","recycling_type":"container"}},"type":"Feature"},
	{"geometry":{"coordinates":[-8.190452,43.517957],"type":"Point"},"properties":{"osm_id":"4774409057","tag":{"amenity":"recycling","recycling_type":"container"}},"type":"Feature"},
	{"geometry":{"coordinates":[-8.189306,43.525276],"type":"Point"},"properties":{"osm_id":"4774442565","tag":{"amenity":"recycling","recycling_type":"container"}},"type":"Feature"},
	{"geometry":{"coordinates":[-8.182904,43.52924],"type":"Point"},"properties":{"osm_id":"4799012398","tag":{"amenity":"recycling","recycling_type":"container"}},"type":"Feature"},
	{"geometry":{"coordinates":[-8.217378,43.524542],"type":"Point"},"properties":{"osm_id":"4803521860","tag":{"amenity":"recycling","recycling_type":"container"}},"type":"Feature"},
	{"geometry":{"coordinates":[-8.208889,43.557029],"type":"Point"},"properties":{"osm_id":"4803776349","tag":{"amenity":"recycling","recycling_type":"container"}},"type":"Feature"},
	{"geometry":{"coordinates":[-8.207725,43.564679],"type":"Point"},"properties":{"osm_id":"4803799057","tag":{"amenity":"recycling","recycling_type":"container"}},"type":"Feature"},
	{"geometry":{"coordinates":[-8.178182,43.542579],"type":"Point"},"properties":{"osm_id":"4803899984","tag":{"amenity":"recycling","recycling_type":"container"}},"type":"Feature"},
	{"geometry":{"coordinates":[-8.177413,43.520377],"type":"Point"},"properties":{"osm_id":"4804611917","tag":{"amenity":"recycling","recycling_type":"container"}},"type":"Feature"},
	{"geometry":{"coordinates":[-8.203425,43.570048],"type":"Point"},"properties":{"osm_id":"4810682856","tag":{"amenity":"recycling","recycling_type":"container"}},"type":"Feature"},
	{"geometry":{"coordinates":[-8.206134,43.517935],"type":"Point"},"properties":{"osm_id":"4823170923","tag":{"amenity":"recycling","recycling_type":"container"}},"type":"Feature"},
	{"geometry":{"coordinates":[-8.185334,43.527474],"type":"Point"},"properties":{"osm_id":"4826583545","tag":{"amenity":"recycling","recycling_type":"container"}},"type":"Feature"},
	{"geometry":{"coordinates":[-8.218059,43.526599],"type":"Point"},"properties":{"osm_id":"4890471773","tag":{"amenity":"recycling","recycling_type":"container"}},"type":"Feature"},
	{"geometry":{"coordinates":[-8.1882,43.520315],"type":"Point"},"properties":{"osm_id":"4890510517","tag":{"amenity":"recycling","recycling_type":"container"}},"type":"Feature"},
	{"geometry":{"coordinates":[-8.201336,43.559164],"type":"Point"},"properties":{"osm_id":"4995692098","tag":{"amenity":"recycling","recycling_type":"container"}},"type":"Feature"}
]
}
