{
"type": "FeatureCollection",
"features": [
	{"geometry":{"coordinates":[-8.250818,43.359919],"type":"Point"},"properties":{"osm_id":"791578499","tag":{"amenity":"recycling","recycling:glass_bottles":"yes","recycling:paper":"yes"}},"type":"Feature"},
	{"geometry":{"coordinates":[-8.250909,43.361007],"type":"Point"},"properties":{"osm_id":"791578516","tag":{"amenity":"recycling"}},"type":"Feature"},
	{"geometry":{"coordinates":[-8.188334,43.376145],"type":"Point"},"properties":{"osm_id":"1795172908","tag":{"amenity":"recycling"}},"type":"Feature"},
	{"geometry":{"coordinates":[-8.191401,43.37543],"type":"Point"},"properties":{"osm_id":"4792274491","tag":{"amenity":"recycling","recycling_type":"container"}},"type":"Feature"},
	{"geometry":{"coordinates":[-8.193919,43.373942],"type":"Point"},"properties":{"osm_id":"4792278262","tag":{"amenity":"recycling","recycling_type":"container"}},"type":"Feature"},
	{"geometry":{"coordinates":[-8.196213,43.372873],"type":"Point"},"properties":{"osm_id":"4792278284","tag":{"amenity":"recycling","recycling_type":"container"}},"type":"Feature"},
	{"geometry":{"coordinates":[-8.181904,43.384568],"type":"Point"},"properties":{"osm_id":"4792315301","tag":{"amenity":"recycling","recycling_type":"container"}},"type":"Feature"},
	{"geometry":{"coordinates":[-8.190573,43.374669],"type":"Point"},"properties":{"osm_id":"4792358381","tag":{"amenity":"recycling","recycling_type":"container"}},"type":"Feature"},
	{"geometry":{"coordinates":[-8.189995,43.377499],"type":"Point"},"properties":{"osm_id":"4792444458","tag":{"amenity":"recycling","recycling_type":"container"}},"type":"Feature"},
	{"geometry":{"coordinates":[-8.183606,43.387163],"type":"Point"},"properties":{"osm_id":"4793114045","tag":{"amenity":"recycling","recycling_type":"container"}},"type":"Feature"},
	{"geometry":{"coordinates":[-8.183441,43.386887],"type":"Point"},"properties":{"osm_id":"4793114048","tag":{"amenity":"recycling","recycling_type":"container"}},"type":"Feature"},
	{"geometry":{"coordinates":[-8.181224,43.385161],"type":"Point"},"properties":{"osm_id":"4793114052","tag":{"amenity":"recycling","recycling_type":"container"}},"type":"Feature"},
	{"geometry":{"coordinates":[-8.181782,43.385694],"type":"Point"},"properties":{"osm_id":"4793114059","tag":{"amenity":"recycling","recycling_type":"container"}},"type":"Feature"},
	{"geometry":{"coordinates":[-8.181456,43.38579],"type":"Point"},"properties":{"osm_id":"4793114060","tag":{"amenity":"recycling","recycling_type":"container"}},"type":"Feature"},
	{"geometry":{"coordinates":[-8.181018,43.386727],"type":"Point"},"properties":{"osm_id":"4793114061","tag":{"amenity":"recycling","recycling_type":"container"}},"type":"Feature"},
	{"geometry":{"coordinates":[-8.180451,43.386988],"type":"Point"},"properties":{"osm_id":"4793114062","tag":{"amenity":"recycling","recycling_type":"container"}},"type":"Feature"},
	{"geometry":{"coordinates":[-8.201521,43.372152],"type":"Point"},"properties":{"osm_id":"4794178672","tag":{"amenity":"recycling","recycling_type":"container"}},"type":"Feature"},
	{"geometry":{"coordinates":[-8.182644,43.387228],"type":"Point"},"properties":{"osm_id":"4794994869","tag":{"amenity":"recycling","recycling_type":"container"}},"type":"Feature"},
	{"geometry":{"coordinates":[-8.182218,43.386459],"type":"Point"},"properties":{"osm_id":"4794994886","tag":{"amenity":"recycling","recycling_type":"container"}},"type":"Feature"},
	{"geometry":{"coordinates":[-8.179982,43.386445],"type":"Point"},"properties":{"osm_id":"4808412931","tag":{"amenity":"recycling","recycling_type":"container"}},"type":"Feature"},
	{"geometry":{"coordinates":[-8.236605,43.330686],"type":"Point"},"properties":{"osm_id":"5347731743","tag":{"amenity":"waste_disposal"}},"type":"Feature"},
	{"geometry":{"coordinates":[-8.238247,43.336866],"type":"Point"},"properties":{"osm_id":"5347756521","tag":{"amenity":"waste_disposal"}},"type":"Feature"},
	{"geometry":{"coordinates":[-8.241597,43.338319],"type":"Point"},"properties":{"osm_id":"5347756621","tag":{"amenity":"waste_disposal"}},"type":"Feature"},
	{"geometry":{"coordinates":[-8.235658,43.327374],"type":"Point"},"properties":{"osm_id":"5347756628","tag":{"amenity":"waste_disposal"}},"type":"Feature"},
	{"geometry":{"coordinates":[-8.235828,43.328942],"type":"Point"},"properties":{"osm_id":"5347756629","tag":{"amenity":"waste_disposal"}},"type":"Feature"},
	{"geometry":{"coordinates":[-8.239089,43.335901],"type":"Point"},"properties":{"osm_id":"5347756630","tag":{"amenity":"waste_disposal"}},"type":"Feature"},
	{"geometry":{"coordinates":[-8.254588,43.353144],"type":"Point"},"properties":{"osm_id":"7072030149","tag":{"amenity":"waste_basket"}},"type":"Feature"}
]
}
