{
"type": "FeatureCollection",
"features": [
	{"geometry":{"coordinates":[2.921256,51.227766],"type":"Point"},"properties":{"osm_id":"1415166588","tag":{"amenity":"recycling","location":"underground","recycling_type":"container"}},"type":"Feature"},
	{"geometry":{"coordinates":[2.963774,51.225378],"type":"Point"},"properties":{"osm_id":"1841809712","tag":{"amenity":"waste_basket"}},"type":"Feature"},
	{"geometry":{"coordinates":[2.971714,51.233777],"type":"Point"},"properties":{"osm_id":"1841809794","tag":{"amenity":"waste_basket"}},"type":"Feature"},
	{"geometry":{"coordinates":[2.971804,51.234013],"type":"Point"},"properties":{"osm_id":"1841809827","tag":{"amenity":"waste_basket"}},"type":"Feature"},
	{"geometry":{"coordinates":[2.956362,51.224359],"type":"Point"},"properties":{"osm_id":"1879493262","tag":{"amenity":"recycling","recycling:glass":"yes"}},"type":"Feature"},
	{"geometry":{"coordinates":[2.956351,51.224439],"type":"Point"},"properties":{"osm_id":"1879493263","tag":{"amenity":"waste_basket"}},"type":"Feature"},
	{"geometry":{"coordinates":[2.908135,51.224268],"type":"Point"},"properties":{"osm_id":"2156988312","tag":{"amenity":"waste_basket"}},"type":"Feature"},
	{"geometry":{"coordinates":[2.90345,51.203505],"type":"Point"},"properties":{"osm_id":"2159305445","tag":{"amenity":"waste_basket"}},"type":"Feature"},
	{"geometry":{"coordinates":[2.908817,51.22383],"type":"Point"},"properties":{"osm_id":"2163291158","tag":{"amenity":"waste_basket"}},"type":"Feature"},
	{"geometry":{"coordinates":[2.929244,51.209729],"type":"Point"},"properties":{"osm_id":"2234152856","tag":{"amenity":"recycling"}},"type":"Feature"},
	{"geometry":{"coordinates":[2.972219,51.223923],"type":"Point"},"properties":{"name":"Gemeentelijk Containerpark Bredene","osm_id":"2685659203","tag":{"amenity":"recycling"}},"type":"Feature"},
	{"geometry":{"coordinates":[2.92162,51.232337],"type":"Point"},"properties":{"osm_id":"4146854597","tag":{"amenity":"waste_basket"}},"type":"Feature"},
	{"geometry":{"coordinates":[2.945696,51.223934],"type":"Point"},"properties":{"osm_id":"5284317392","tag":{"amenity":"waste_basket"}},"type":"Feature"},
	{"geometry":{"coordinates":[2.916745,51.228162],"type":"Point"},"properties":{"osm_id":"6031878255","tag":{"amenity":"waste_basket"}},"type":"Feature"},
	{"geometry":{"coordinates":[2.916049,51.211009],"type":"Point"},"properties":{"osm_id":"6142726960","tag":{"amenity":"recycling","recycling:glass":"yes","recycling_type":"container"}},"type":"Feature"},
	{"geometry":{"coordinates":[2.959682,51.225437],"type":"Point"},"properties":{"osm_id":"6380837291","tag":{"amenity":"waste_basket"}},"type":"Feature"},
	{"geometry":{"coordinates":[2.961768,51.227456],"type":"Point"},"properties":{"osm_id":"6380837321","tag":{"amenity":"waste_basket"}},"type":"Feature"},
	{"geometry":{"coordinates":[2.961474,51.229613],"type":"Point"},"properties":{"osm_id":"6380837328","tag":{"amenity":"waste_basket"}},"type":"Feature"},
	{"geometry":{"coordinates":[2.945361,51.22377],"type":"Point"},"properties":{"osm_id":"6380909871","tag":{"amenity":"waste_basket"}},"type":"Feature"},
	{"geometry":{"coordinates":[2.942843,51.223872],"type":"Point"},"properties":{"osm_id":"6381129584","tag":{"amenity":"waste_basket"}},"type":"Feature"},
	{"geometry":{"coordinates":[2.926483,51.221343],"type":"Point"},"properties":{"osm_id":"6388830919","tag":{"amenity":"waste_basket"}},"type":"Feature"},
	{"geometry":{"coordinates":[2.925857,51.222358],"type":"Point"},"properties":{"osm_id":"6389279198","tag":{"amenity":"waste_basket"}},"type":"Feature"},
	{"geometry":{"coordinates":[2.925424,51.223423],"type":"Point"},"properties":{"osm_id":"6390201657","tag":{"amenity":"waste_basket"}},"type":"Feature"},
	{"geometry":{"coordinates":[2.924752,51.224793],"type":"Point"},"properties":{"osm_id":"6390228480","tag":{"amenity":"waste_basket"}},"type":"Feature"},
	{"geometry":{"coordinates":[2.923998,51.225722],"type":"Point"},"properties":{"osm_id":"6390937419","tag":{"amenity":"waste_basket"}},"type":"Feature"},
	{"geometry":{"coordinates":[2.921419,51.227958],"type":"Point"},"properties":{"osm_id":"6392800069","tag":{"amenity":"recycling","recycling:glass_bottles":"yes","recycling_type":"container"}},"type":"Feature"},
	{"geometry":{"coordinates":[2.919264,51.232173],"type":"Point"},"properties":{"osm_id":"6396804945","tag":{"amenity":"waste_basket"}},"type":"Feature"},
	{"geometry":{"coordinates":[2.922814,51.229616],"type":"Point"},"properties":{"osm_id":"6404735473","tag":{"amenity":"waste_basket"}},"type":"Feature"},
	{"geometry":{"coordinates":[2.92257,51.229576],"type":"Point"},"properties":{"osm_id":"6404735474","tag":{"amenity":"waste_basket"}},"type":"Feature"},
	{"geometry":{"coordinates":[2.922261,51.229509],"type":"Point"},"properties":{"osm_id":"6404735475","tag":{"amenity":"waste_basket"}},"type":"Feature"},
	{"geometry":{"coordinates":[2.912561,51.227999],"type":"Point"},"properties":{"osm_id":"6579651657","tag":{"amenity":"waste_basket"}},"type":"Feature"},
	{"geometry":{"coordinates":[2.913703,51.215955],"type":"Point"},"properties":{"osm_id":"7395521818","tag":{"amenity":"recycling","recycling:glass":"yes","recycling:glass_bottles":"yes","recycling_type":"container"}},"type":"Feature"},
	{"geometry":{"coordinates":[2.912188,51.216469],"type":"Point"},"properties":{"osm_id":"7397028500","tag":{"amenity":"recycling","recycling_type":"container"}},"type":"Feature"},
	{"geometry":{"coordinates":[2.912188,51.216489],"type":"Point"},"properties":{"osm_id":"7397028501","tag":{"amenity":"recycling","recycling_type":"container"}},"type":"Feature"},
	{"geometry":{"coordinates":[2.912188,51.216453],"type":"Point"},"properties":{"osm_id":"7397028502","tag":{"amenity":"recycling","recycling_type":"container"}},"type":"Feature"},
	{"geometry":{"coordinates":[2.912187,51.216438],"type":"Point"},"properties":{"osm_id":"7397028503","tag":{"amenity":"recycling","recycling_type":"container"}},"type":"Feature"},
	{"geometry":{"coordinates":[2.943698,51.231843],"type":"Point"},"properties":{"osm_id":"7398150922","tag":{"amenity":"recycling","recycling:glass":"yes","recycling:glass_bottles":"yes","recycling_type":"container"}},"type":"Feature"},
	{"geometry":{"coordinates":[2.943517,51.231527],"type":"Point"},"properties":{"osm_id":"7398377905","tag":{"amenity":"waste_basket"}},"type":"Feature"},
	{"geometry":{"coordinates":[2.947009,51.232354],"type":"Point"},"properties":{"osm_id":"7399356958","tag":{"amenity":"waste_basket"}},"type":"Feature"},
	{"geometry":{"coordinates":[2.913869,51.230259],"type":"Point"},"properties":{"osm_id":"7742906032","tag":{"amenity":"recycling","recycling:glass_bottles":"yes","recycling_type":"container"}},"type":"Feature"}
]
}
