{
"type": "FeatureCollection",
"features": [
	{"geometry":{"coordinates":[2.980682,50.655984],"type":"Point"},"properties":{"osm_id":"3463660838","tag":{"amenity":"waste_basket"}},"type":"Feature"},
	{"geometry":{"coordinates":[2.987076,50.649078],"type":"Point"},"properties":{"name":"Maison du projet Mitterie","osm_id":"6947654984","tag":{"access":"yes","amenity":"recycling","description":"Composteurs accessibles aux foyers du quartier inscrits. Permanence le jeudi de 10h \u00c3\u00a0 12h","operator":"des Jardins et es Hommes","owner":"M\u00c3\u00a9tropole Europ\u00c3\u00a9enne de Lille","recycling:compost":"yes","recycling:organic":"yes","recycling_type":"container"}},"type":"Feature"},
	{"geometry":{"coordinates":[2.987585,50.638462],"type":"Point"},"properties":{"osm_id":"7007754781","tag":{"amenity":"waste_basket"}},"type":"Feature"},
	{"geometry":{"coordinates":[2.987739,50.638393],"type":"Point"},"properties":{"osm_id":"7007754782","tag":{"amenity":"waste_basket"}},"type":"Feature"},
	{"geometry":{"coordinates":[2.987676,50.638551],"type":"Point"},"properties":{"osm_id":"7007754783","tag":{"amenity":"waste_basket"}},"type":"Feature"},
	{"geometry":{"coordinates":[2.987821,50.638485],"type":"Point"},"properties":{"osm_id":"7007754784","tag":{"amenity":"waste_basket"}},"type":"Feature"},
	{"geometry":{"coordinates":[2.986837,50.637001],"type":"Point"},"properties":{"osm_id":"7007919382","tag":{"amenity":"waste_basket"}},"type":"Feature"},
	{"geometry":{"coordinates":[2.986706,50.636851],"type":"Point"},"properties":{"osm_id":"7007919383","tag":{"amenity":"waste_basket"}},"type":"Feature"},
	{"geometry":{"coordinates":[2.987871,50.636243],"type":"Point"},"properties":{"osm_id":"7007919396","tag":{"amenity":"waste_basket"}},"type":"Feature"},
	{"geometry":{"coordinates":[2.98777,50.636104],"type":"Point"},"properties":{"osm_id":"7007919401","tag":{"amenity":"waste_basket"}},"type":"Feature"},
	{"geometry":{"coordinates":[2.985525,50.637258],"type":"Point"},"properties":{"osm_id":"7007919447","tag":{"amenity":"waste_basket"}},"type":"Feature"}
]
}
