{
"type": "FeatureCollection",
"lastupdate": "2020-08-03T00:00:00Z",
"features": [
	{"geometry":{"coordinates":[2.948651,50.42052],"type":"Point"},"properties":{"osm_id":"4768080539","tag":{"amenity":"waste_basket"}},"type":"Feature"},
	{"geometry":{"coordinates":[2.948217,50.420513],"type":"Point"},"properties":{"osm_id":"4768080555","tag":{"amenity":"waste_basket"}},"type":"Feature"},
	{"geometry":{"coordinates":[2.914427,50.443732],"type":"Point"},"properties":{"osm_id":"5072407351","tag":{"amenity":"waste_basket"}},"type":"Feature"},
	{"geometry":{"coordinates":[2.915618,50.442934],"type":"Point"},"properties":{"osm_id":"5072407377","tag":{"amenity":"waste_basket"}},"type":"Feature"},
	{"geometry":{"coordinates":[2.957452,50.411607],"type":"Point"},"properties":{"osm_id":"5669472322","tag":{"amenity":"recycling","recycling_type":"container"}},"type":"Feature"},
	{"geometry":{"coordinates":[2.946433,50.421877],"type":"Point"},"properties":{"osm_id":"5685474623","tag":{"amenity":"waste_basket"}},"type":"Feature"},
	{"geometry":{"coordinates":[2.948062,50.422584],"type":"Point"},"properties":{"osm_id":"5685474722","tag":{"amenity":"waste_basket"}},"type":"Feature"},
	{"geometry":{"coordinates":[2.95923,50.411222],"type":"Point"},"properties":{"osm_id":"5694600532","tag":{"amenity":"waste_basket"}},"type":"Feature"},
	{"geometry":{"coordinates":[2.944384,50.427511],"type":"Point"},"properties":{"name":"Cuboverre","osm_id":"5731848705","tag":{"amenity":"recycling","recycling:glass_bottles":"yes","recycling_type":"container"}},"type":"Feature"},
	{"geometry":{"coordinates":[2.929511,50.403546],"type":"Point"},"properties":{"osm_id":"5793709799","tag":{"amenity":"waste_basket"}},"type":"Feature"},
	{"geometry":{"coordinates":[2.930612,50.403307],"type":"Point"},"properties":{"osm_id":"5793709800","tag":{"amenity":"waste_basket"}},"type":"Feature"},
	{"geometry":{"coordinates":[2.934902,50.40277],"type":"Point"},"properties":{"osm_id":"5793709802","tag":{"amenity":"waste_basket"}},"type":"Feature"},
	{"geometry":{"coordinates":[2.976553,50.410509],"type":"Point"},"properties":{"osm_id":"5796081401","tag":{"amenity":"waste_basket"}},"type":"Feature"},
	{"geometry":{"coordinates":[2.966545,50.413493],"type":"Point"},"properties":{"osm_id":"5804120841","tag":{"amenity":"waste_basket"}},"type":"Feature"},
	{"geometry":{"coordinates":[2.946661,50.423504],"type":"Point"},"properties":{"osm_id":"7057050972","tag":{"amenity":"waste_basket","waste":"trash","wheelchair":"yes"}},"type":"Feature"},
	{"geometry":{"coordinates":[2.947016,50.424163],"type":"Point"},"properties":{"osm_id":"7057056333","tag":{"access":"yes","amenity":"recycling","fee":"no","recycling:glass":"yes","recycling_type":"container","wheelchair":"no"}},"type":"Feature"},
	{"geometry":{"coordinates":[2.928004,50.441237],"type":"Point"},"properties":{"name":"Composteur Jardin de la plaine du 7","osm_id":"7500131858","tag":{"access":"destination","amenity":"recycling","description":"Point de Compostage Collectif de Proximit\u00e9 avec trappe pour l'accessibilit\u00e9 24/24, pour les adh\u00e9rents","operator":"ajonc","recycling:compost":"yes","recycling:organic":"yes","recycling_type":"container"}},"type":"Feature"}
]
}
