{
"type": "FeatureCollection",
"features": [
	{"geometry":{"coordinates":[2.949534,48.960045],"type":"Point"},"properties":{"osm_id":"3059476045","tag":{"amenity":"waste_basket"}},"type":"Feature"},
	{"geometry":{"coordinates":[2.949194,48.960132],"type":"Point"},"properties":{"osm_id":"3957421413","tag":{"amenity":"waste_basket"}},"type":"Feature"},
	{"geometry":{"coordinates":[2.949034,48.960152],"type":"Point"},"properties":{"osm_id":"3957421438","tag":{"amenity":"waste_basket"}},"type":"Feature"},
	{"geometry":{"coordinates":[2.95028,48.960172],"type":"Point"},"properties":{"osm_id":"3957421453","tag":{"amenity":"waste_basket"}},"type":"Feature"},
	{"geometry":{"coordinates":[2.950798,48.960176],"type":"Point"},"properties":{"osm_id":"3957431158","tag":{"amenity":"waste_basket"}},"type":"Feature"},
	{"geometry":{"coordinates":[2.94877,48.960273],"type":"Point"},"properties":{"osm_id":"3957431174","tag":{"amenity":"waste_basket"}},"type":"Feature"},
	{"geometry":{"coordinates":[2.949346,48.960274],"type":"Point"},"properties":{"osm_id":"3957431180","tag":{"amenity":"waste_basket"}},"type":"Feature"},
	{"geometry":{"coordinates":[2.949655,48.960277],"type":"Point"},"properties":{"osm_id":"3957431186","tag":{"amenity":"waste_basket"}},"type":"Feature"},
	{"geometry":{"coordinates":[2.950242,48.960281],"type":"Point"},"properties":{"osm_id":"3957431191","tag":{"amenity":"waste_basket"}},"type":"Feature"},
	{"geometry":{"coordinates":[2.902929,48.959145],"type":"Point"},"properties":{"osm_id":"4866525009","tag":{"amenity":"waste_basket"}},"type":"Feature"},
	{"geometry":{"coordinates":[2.905104,48.95648],"type":"Point"},"properties":{"osm_id":"7968460036","tag":{"amenity":"waste_basket"}},"type":"Feature"},
	{"geometry":{"coordinates":[2.90549,48.956423],"type":"Point"},"properties":{"osm_id":"7968460037","tag":{"amenity":"recycling","recycling:glass_bottles":"yes","recycling_type":"container"}},"type":"Feature"},
	{"geometry":{"coordinates":[2.949599,48.962338],"type":"Point"},"properties":{"osm_id":"8529477484","tag":{"amenity":"recycling","recycling:glass_bottles":"yes","recycling_type":"container"}},"type":"Feature"},
	{"geometry":{"coordinates":[2.949334,48.965839],"type":"Point"},"properties":{"osm_id":"8537005572","tag":{"amenity":"recycling","recycling:glass_bottles":"yes","recycling_type":"container"}},"type":"Feature"},
	{"geometry":{"coordinates":[2.949341,48.965846],"type":"Point"},"properties":{"osm_id":"8537005573","tag":{"amenity":"waste_basket"}},"type":"Feature"},
	{"geometry":{"coordinates":[2.945721,48.959682],"type":"Point"},"properties":{"osm_id":"8602275912","tag":{"amenity":"recycling","recycling:glass_bottles":"yes","recycling_type":"container"}},"type":"Feature"},
	{"geometry":{"coordinates":[2.911971,48.961346],"type":"Point"},"properties":{"name":"Ressourcerie Horizon","osm_id":"8610835910","tag":{"alt_name":"ARILE","amenity":"recycling","brand":"Ressourcerie","contact:website":"http://www.horizon-77.com","network":"R\u00c3\u00a9seau national des ressourceries","operator":"Association R\u00c3\u00a9gionale pour l'Insertion le Logement et l'Emploi","recycling_type":"centre","ref:FR:SIRET":"31506321400201","shop":"second_hand"}},"type":"Feature"},
	{"geometry":{"coordinates":[2.95237,48.963721],"type":"Point"},"properties":{"osm_id":"8621759530","tag":{"amenity":"waste_basket"}},"type":"Feature"},
	{"geometry":{"coordinates":[2.952351,48.963824],"type":"Point"},"properties":{"osm_id":"8621759531","tag":{"amenity":"waste_basket","waste":"dog_excrement"}},"type":"Feature"},
	{"geometry":{"coordinates":[2.949608,48.962343],"type":"Point"},"properties":{"osm_id":"8621759534","tag":{"amenity":"waste_basket"}},"type":"Feature"},
	{"geometry":{"coordinates":[2.953895,48.963275],"type":"Point"},"properties":{"osm_id":"8624989642","tag":{"amenity":"waste_basket"}},"type":"Feature"},
	{"geometry":{"coordinates":[2.948881,48.961635],"type":"Point"},"properties":{"osm_id":"8634712900","tag":{"amenity":"waste_basket"}},"type":"Feature"},
	{"geometry":{"coordinates":[2.947072,48.958229],"type":"Point"},"properties":{"osm_id":"8634712909","tag":{"amenity":"waste_basket"}},"type":"Feature"},
	{"geometry":{"coordinates":[2.947157,48.958407],"type":"Point"},"properties":{"osm_id":"8634712912","tag":{"amenity":"waste_basket"}},"type":"Feature"},
	{"geometry":{"coordinates":[2.948858,48.967727],"type":"Point"},"properties":{"osm_id":"8635668283","tag":{"amenity":"waste_basket"}},"type":"Feature"}
]
}
