{
"type": "FeatureCollection",
"features": [
	{"geometry":{"coordinates":[2.951689,42.775882],"type":"Point"},"properties":{"osm_id":"5150588856","tag":{"amenity":"recycling","material":"metal","recycling:glass_bottles":"yes","recycling_type":"container"}},"type":"Feature"},
	{"geometry":{"coordinates":[2.90895,42.775826],"type":"Point"},"properties":{"osm_id":"5638477023","tag":{"amenity":"waste_basket"}},"type":"Feature"},
	{"geometry":{"coordinates":[2.913053,42.773553],"type":"Point"},"properties":{"osm_id":"5854781371","tag":{"amenity":"waste_basket"}},"type":"Feature"},
	{"geometry":{"coordinates":[2.913339,42.774469],"type":"Point"},"properties":{"osm_id":"5854781433","tag":{"amenity":"waste_basket"}},"type":"Feature"},
	{"geometry":{"coordinates":[2.913213,42.774343],"type":"Point"},"properties":{"osm_id":"5854781483","tag":{"amenity":"waste_basket"}},"type":"Feature"},
	{"geometry":{"coordinates":[2.913157,42.774195],"type":"Point"},"properties":{"osm_id":"5854781523","tag":{"amenity":"waste_basket"}},"type":"Feature"},
	{"geometry":{"coordinates":[2.913037,42.77396],"type":"Point"},"properties":{"osm_id":"5854781567","tag":{"amenity":"waste_basket"}},"type":"Feature"},
	{"geometry":{"coordinates":[2.913014,42.773879],"type":"Point"},"properties":{"osm_id":"5854781588","tag":{"amenity":"waste_basket"}},"type":"Feature"},
	{"geometry":{"coordinates":[2.987178,42.767108],"type":"Point"},"properties":{"osm_id":"6909537882","tag":{"amenity":"recycling","description":"Verre, v\u00c3\u00aatement t","mapillary":"xXkwthYRzygFpAvuB9-A3A","recycling_type":"container","survey:date":"2018-07-21"}},"type":"Feature"}
]
}
