{
"type": "FeatureCollection",
"features": [
	{"geometry":{"coordinates":[2.969048,36.699504],"type":"Point"},"properties":{"osm_id":"3031574374","tag":{"amenity":"waste_basket"}},"type":"Feature"},
	{"geometry":{"coordinates":[2.953799,36.735985],"type":"Point"},"properties":{"osm_id":"4681609804","tag":{"amenity":"waste_disposal","operator":"Hattab Naim"}},"type":"Feature"},
	{"geometry":{"coordinates":[2.965909,36.68727],"type":"Point"},"properties":{"osm_id":"5640129663","tag":{"amenity":"waste_disposal"}},"type":"Feature"},
	{"geometry":{"coordinates":[2.954558,36.713779],"type":"Point"},"properties":{"osm_id":"6681178158","tag":{"amenity":"waste_basket"}},"type":"Feature"},
	{"geometry":{"coordinates":[2.952841,36.713712],"type":"Point"},"properties":{"osm_id":"6681183680","tag":{"amenity":"waste_basket"}},"type":"Feature"},
	{"geometry":{"coordinates":[2.952391,36.713321],"type":"Point"},"properties":{"osm_id":"6681190112","tag":{"amenity":"waste_basket"}},"type":"Feature"}
]
}
