{
"type": "FeatureCollection",
"features": [
	{"geometry":{"coordinates":[98.975068,18.789678],"type":"Point"},"properties":{"osm_id":"4684565783","tag":{"amenity":"waste_basket"}},"type":"Feature"},
	{"geometry":{"coordinates":[98.974946,18.789672],"type":"Point"},"properties":{"osm_id":"4684565784","tag":{"amenity":"waste_basket"}},"type":"Feature"},
	{"geometry":{"coordinates":[98.995888,18.789941],"type":"Point"},"properties":{"osm_id":"4961026131","tag":{"amenity":"waste_basket"}},"type":"Feature"},
	{"geometry":{"coordinates":[98.992883,18.784347],"type":"Point"},"properties":{"osm_id":"4961026226","tag":{"amenity":"waste_basket"}},"type":"Feature"},
	{"geometry":{"coordinates":[98.98496,18.804132],"type":"Point"},"properties":{"osm_id":"4961026825","tag":{"amenity":"waste_basket"}},"type":"Feature"},
	{"geometry":{"coordinates":[98.98638,18.74448],"type":"Point"},"properties":{"osm_id":"6825279457","tag":{"amenity":"recycling","recycling:batteries":"yes","recycling:hazmat":"yes","recycling_type":"container"}},"type":"Feature"},
	{"geometry":{"coordinates":[99.004945,18.797322],"type":"Point"},"properties":{"osm_id":"7432661018","tag":{"amenity":"waste_basket"}},"type":"Feature"},
	{"geometry":{"coordinates":[99.004794,18.796967],"type":"Point"},"properties":{"osm_id":"7432661022","tag":{"amenity":"waste_basket","waste":"trash"}},"type":"Feature"},
	{"geometry":{"coordinates":[99.004861,18.79699],"type":"Point"},"properties":{"osm_id":"7432661023","tag":{"amenity":"waste_basket"}},"type":"Feature"},
	{"geometry":{"coordinates":[99.004918,18.797104],"type":"Point"},"properties":{"osm_id":"7432661024","tag":{"amenity":"waste_basket"}},"type":"Feature"},
	{"geometry":{"coordinates":[99.017398,18.800957],"type":"Point"},"properties":{"osm_id":"7870987785","tag":{"amenity":"recycling","name:en":"Hazardous Waste Cabinet"}},"type":"Feature"}
]
}
