{
"type": "FeatureCollection",
"features": [
	{"geometry":{"coordinates":[83.765628,28.258273],"type":"Point"},"properties":{"osm_id":"6042144907","tag":{"amenity":"waste_disposal"}},"type":"Feature"},
	{"geometry":{"coordinates":[83.772381,28.255468],"type":"Point"},"properties":{"osm_id":"6042145407","tag":{"amenity":"waste_disposal"}},"type":"Feature"},
	{"geometry":{"coordinates":[83.772903,28.255815],"type":"Point"},"properties":{"osm_id":"6042145408","tag":{"amenity":"waste_disposal"}},"type":"Feature"},
	{"geometry":{"coordinates":[83.767884,28.256074],"type":"Point"},"properties":{"osm_id":"6055339108","tag":{"amenity":"waste_disposal","waste":"Rubish bin"}},"type":"Feature"},
	{"geometry":{"coordinates":[83.767833,28.256142],"type":"Point"},"properties":{"osm_id":"6055339109","tag":{"amenity":"waste_disposal","waste":"Rubish bin"}},"type":"Feature"},
	{"geometry":{"coordinates":[83.767468,28.250045],"type":"Point"},"properties":{"osm_id":"6056328886","tag":{"amenity":"waste_disposal","waste":"Rubish bin"}},"type":"Feature"},
	{"geometry":{"coordinates":[83.762056,28.261116],"type":"Point"},"properties":{"osm_id":"6059770147","tag":{"amenity":"waste_disposal"}},"type":"Feature"},
	{"geometry":{"coordinates":[83.769907,28.266468],"type":"Point"},"properties":{"osm_id":"6060373478","tag":{"amenity":"waste_disposal"}},"type":"Feature"},
	{"geometry":{"coordinates":[83.772201,28.258206],"type":"Point"},"properties":{"osm_id":"6060390302","tag":{"amenity":"waste_disposal"}},"type":"Feature"},
	{"geometry":{"coordinates":[83.772525,28.255805],"type":"Point"},"properties":{"osm_id":"6060390506","tag":{"amenity":"waste_disposal"}},"type":"Feature"},
	{"geometry":{"coordinates":[83.77395,28.258568],"type":"Point"},"properties":{"osm_id":"6060390531","tag":{"amenity":"waste_disposal"}},"type":"Feature"},
	{"geometry":{"coordinates":[83.766401,28.247354],"type":"Point"},"properties":{"osm_id":"6060673427","tag":{"amenity":"waste_disposal"}},"type":"Feature"},
	{"geometry":{"coordinates":[83.767979,28.24871],"type":"Point"},"properties":{"osm_id":"6060673449","tag":{"amenity":"waste_disposal"}},"type":"Feature"},
	{"geometry":{"coordinates":[83.76558,28.232121],"type":"Point"},"properties":{"osm_id":"6066828521","tag":{"amenity":"waste_disposal","waste":"rubbish bin"}},"type":"Feature"},
	{"geometry":{"coordinates":[83.77272,28.254835],"type":"Point"},"properties":{"osm_id":"6068549156","tag":{"amenity":"waste_disposal"}},"type":"Feature"},
	{"geometry":{"coordinates":[83.832879,28.277668],"type":"Point"},"properties":{"osm_id":"6901961003","tag":{"amenity":"waste_disposal"}},"type":"Feature"},
	{"geometry":{"coordinates":[83.82899,28.286919],"type":"Point"},"properties":{"osm_id":"6915291058","tag":{"amenity":"waste_basket"}},"type":"Feature"},
	{"geometry":{"coordinates":[83.766656,28.295988],"type":"Point"},"properties":{"osm_id":"6968340314","tag":{"amenity":"waste_basket","waste":"Dustbin"}},"type":"Feature"},
	{"geometry":{"coordinates":[83.767794,28.298466],"type":"Point"},"properties":{"osm_id":"6970851441","tag":{"amenity":"waste_basket","waste":"Dustbin"}},"type":"Feature"},
	{"geometry":{"coordinates":[83.821274,28.293896],"type":"Point"},"properties":{"osm_id":"6976158118","tag":{"amenity":"waste_basket","waste":"Dustbin"}},"type":"Feature"},
	{"geometry":{"coordinates":[83.81944,28.296939],"type":"Point"},"properties":{"osm_id":"6976352582","tag":{"amenity":"waste_basket"}},"type":"Feature"}
]
}
