{
"type": "FeatureCollection",
"features": [
	{"geometry":{"coordinates":[24.19323,65.84317],"type":"Point"},"properties":{"osm_id":"563639823","tag":{"amenity":"recycling","recycling:glass":"yes","recycling:paper":"yes","recycling:scrap_metal":"yes"}},"type":"Feature"},
	{"geometry":{"coordinates":[24.178634,65.839461],"type":"Point"},"properties":{"osm_id":"598162661","tag":{"amenity":"waste_basket"}},"type":"Feature"},
	{"geometry":{"coordinates":[24.178921,65.839578],"type":"Point"},"properties":{"osm_id":"598162673","tag":{"amenity":"waste_basket"}},"type":"Feature"},
	{"geometry":{"coordinates":[24.170202,65.857282],"type":"Point"},"properties":{"osm_id":"599008972","tag":{"amenity":"waste_basket"}},"type":"Feature"},
	{"geometry":{"coordinates":[24.182895,65.85078],"type":"Point"},"properties":{"osm_id":"621585828","tag":{"amenity":"waste_basket"}},"type":"Feature"},
	{"geometry":{"coordinates":[24.185247,65.850753],"type":"Point"},"properties":{"osm_id":"621585840","tag":{"amenity":"waste_basket"}},"type":"Feature"},
	{"geometry":{"coordinates":[24.181973,65.84453],"type":"Point"},"properties":{"name":"EkoTerminal","osm_id":"663227054","tag":{"addr:housenumber":"8-10","addr:street":"Teollisuuskatu","amenity":"recycling","opening_hours":"Mo-Fr 08:00-15:00","phone":"+358-40-760-0918","website":"http://www.ekoterminal.fi/"}},"type":"Feature"},
	{"geometry":{"coordinates":[24.175806,65.841932],"type":"Point"},"properties":{"osm_id":"724397812","tag":{"amenity":"waste_basket"}},"type":"Feature"}
]
}
