{
"type": "FeatureCollection",
"features": [
	{"geometry":{"coordinates":[-1.281102,54.607308],"type":"Point"},"properties":{"osm_id":"943235848","tag":{"amenity":"recycling","recycling:clothes":"yes","recycling:glass_bottles":"yes","recycling:paper":"yes","recycling:plastic_bottles":"yes","recycling:plastic_packaging":"yes","recycling_type":"centre"}},"type":"Feature"},
	{"geometry":{"coordinates":[-1.283207,54.619793],"type":"Point"},"properties":{"osm_id":"943235872","tag":{"amenity":"recycling"}},"type":"Feature"},
	{"geometry":{"coordinates":[-1.267896,54.610504],"type":"Point"},"properties":{"name":"Sims Recycling Solutions","osm_id":"943235881","tag":{"amenity":"recycling"}},"type":"Feature"},
	{"geometry":{"coordinates":[-1.257714,54.622395],"type":"Point"},"properties":{"osm_id":"6676022364","tag":{"amenity":"waste_basket","waste":"dog_excrement"}},"type":"Feature"},
	{"geometry":{"coordinates":[-1.314478,54.591845],"type":"Point"},"properties":{"osm_id":"9076706358","tag":{"amenity":"waste_basket","colour":"black"}},"type":"Feature"},
	{"geometry":{"coordinates":[-1.313446,54.592074],"type":"Point"},"properties":{"osm_id":"9076706366","tag":{"amenity":"waste_basket","colour":"black"}},"type":"Feature"},
	{"geometry":{"coordinates":[-1.313592,54.592016],"type":"Point"},"properties":{"osm_id":"9076706367","tag":{"amenity":"waste_basket","colour":"black"}},"type":"Feature"},
	{"geometry":{"coordinates":[-1.313281,54.591819],"type":"Point"},"properties":{"osm_id":"9076706368","tag":{"amenity":"waste_basket","colour":"black"}},"type":"Feature"},
	{"geometry":{"coordinates":[-1.309773,54.586902],"type":"Point"},"properties":{"osm_id":"9087749540","tag":{"amenity":"waste_basket","colour":"black","material":"metal"}},"type":"Feature"},
	{"geometry":{"coordinates":[-1.309996,54.586796],"type":"Point"},"properties":{"osm_id":"9089426311","tag":{"amenity":"waste_basket","colour":"black","material":"metal"}},"type":"Feature"}
]
}
