{
"type": "FeatureCollection",
"features": [
	{"geometry":{"coordinates":[-1.295648,54.561491],"type":"Point"},"properties":{"name":"Stockton Campus Recycling Centre","osm_id":"413023317","tag":{"amenity":"recycling"}},"type":"Feature"},
	{"geometry":{"coordinates":[-1.28735,54.571899],"type":"Point"},"properties":{"osm_id":"414039168","tag":{"amenity":"recycling","recycling:cans":"yes","recycling:clothes":"yes","recycling:glass":"yes"}},"type":"Feature"},
	{"geometry":{"coordinates":[-1.263197,54.552411],"type":"Point"},"properties":{"osm_id":"740540284","tag":{"amenity":"recycling"}},"type":"Feature"},
	{"geometry":{"coordinates":[-1.316696,54.569416],"type":"Point"},"properties":{"osm_id":"763128459","tag":{"amenity":"recycling"}},"type":"Feature"},
	{"geometry":{"coordinates":[-1.285886,54.544204],"type":"Point"},"properties":{"osm_id":"4026238743","tag":{"amenity":"waste_basket"}},"type":"Feature"},
	{"geometry":{"coordinates":[-1.289629,54.545577],"type":"Point"},"properties":{"osm_id":"4034692318","tag":{"amenity":"waste_basket"}},"type":"Feature"},
	{"geometry":{"coordinates":[-1.307979,54.562597],"type":"Point"},"properties":{"osm_id":"4034692321","tag":{"amenity":"waste_basket"}},"type":"Feature"},
	{"geometry":{"coordinates":[-1.286408,54.546297],"type":"Point"},"properties":{"osm_id":"4034692324","tag":{"amenity":"waste_basket"}},"type":"Feature"},
	{"geometry":{"coordinates":[-1.283978,54.546504],"type":"Point"},"properties":{"osm_id":"4034692337","tag":{"amenity":"waste_basket"}},"type":"Feature"},
	{"geometry":{"coordinates":[-1.303169,54.562252],"type":"Point"},"properties":{"osm_id":"4034692415","tag":{"amenity":"waste_basket"}},"type":"Feature"},
	{"geometry":{"coordinates":[-1.286788,54.54783],"type":"Point"},"properties":{"osm_id":"4049955762","tag":{"amenity":"waste_basket"}},"type":"Feature"},
	{"geometry":{"coordinates":[-1.30397,54.562809],"type":"Point"},"properties":{"osm_id":"4106531305","tag":{"amenity":"waste_basket"}},"type":"Feature"},
	{"geometry":{"coordinates":[-1.241601,54.560434],"type":"Point"},"properties":{"osm_id":"7187507765","tag":{"amenity":"recycling","recycling:cans":"yes","recycling:glass":"yes","recycling:paper":"yes"}},"type":"Feature"},
	{"geometry":{"coordinates":[-1.283492,54.565606],"type":"Point"},"properties":{"osm_id":"7669192123","tag":{"amenity":"waste_basket"}},"type":"Feature"}
]
}
