{
"type": "FeatureCollection",
"features": [
	{"geometry":{"coordinates":[-1.312249,54.402232],"type":"Point"},"properties":{"name":"Primary School","osm_id":"513412586","tag":{"amenity":"recycling"}},"type":"Feature"},
	{"geometry":{"coordinates":[-1.30898,54.399389],"type":"Point"},"properties":{"osm_id":"4233482444","tag":{"amenity":"waste_basket"}},"type":"Feature"},
	{"geometry":{"coordinates":[-1.303185,54.369742],"type":"Point"},"properties":{"osm_id":"6780027037","tag":{"amenity":"waste_basket"}},"type":"Feature"},
	{"geometry":{"coordinates":[-1.299307,54.367926],"type":"Point"},"properties":{"osm_id":"6830296257","tag":{"amenity":"waste_basket"}},"type":"Feature"},
	{"geometry":{"coordinates":[-1.262094,54.412954],"type":"Point"},"properties":{"osm_id":"8662920750","tag":{"amenity":"waste_basket"}},"type":"Feature"},
	{"geometry":{"coordinates":[-1.259622,54.415404],"type":"Point"},"properties":{"osm_id":"8662920753","tag":{"amenity":"waste_basket"}},"type":"Feature"},
	{"geometry":{"coordinates":[-1.261737,54.407733],"type":"Point"},"properties":{"osm_id":"8662943028","tag":{"amenity":"waste_basket"}},"type":"Feature"},
	{"geometry":{"coordinates":[-1.262706,54.408816],"type":"Point"},"properties":{"osm_id":"8662943036","tag":{"amenity":"waste_basket","waste":"dog_excrement"}},"type":"Feature"},
	{"geometry":{"coordinates":[-1.265657,54.410948],"type":"Point"},"properties":{"osm_id":"8662943054","tag":{"amenity":"waste_basket"}},"type":"Feature"},
	{"geometry":{"coordinates":[-1.267481,54.413363],"type":"Point"},"properties":{"osm_id":"8662943064","tag":{"amenity":"waste_basket"}},"type":"Feature"},
	{"geometry":{"coordinates":[-1.267485,54.413369],"type":"Point"},"properties":{"osm_id":"8662943065","tag":{"amenity":"waste_basket","waste":"dog_excrement"}},"type":"Feature"}
]
}
