{
"type": "FeatureCollection",
"features": [
	{"geometry":{"coordinates":[-1.285063,53.714402],"type":"Point"},"properties":{"osm_id":"7329399397","tag":{"amenity":"waste_basket","colour":"Black","mapillary":"eJyKFb2MY527tZnW-9blKA","material":"plastic","waste":"trash"}},"type":"Feature"},
	{"geometry":{"coordinates":[-1.315437,53.72346],"type":"Point"},"properties":{"osm_id":"8008620505","tag":{"amenity":"waste_basket"}},"type":"Feature"},
	{"geometry":{"coordinates":[-1.315133,53.723431],"type":"Point"},"properties":{"osm_id":"8008620506","tag":{"amenity":"waste_basket"}},"type":"Feature"},
	{"geometry":{"coordinates":[-1.266282,53.697856],"type":"Point"},"properties":{"osm_id":"8017988808","tag":{"amenity":"waste_basket","colour":"black","material":"plastic","operator":"Moto uk","waste":"trash;mixed;recycling"}},"type":"Feature"},
	{"geometry":{"coordinates":[-1.266392,53.697835],"type":"Point"},"properties":{"osm_id":"8017988809","tag":{"amenity":"waste_basket","colour":"black","material":"plastic","operator":"Moto uk","waste":"trash;mixed;recycling"}},"type":"Feature"},
	{"geometry":{"coordinates":[-1.266194,53.697872],"type":"Point"},"properties":{"osm_id":"8017988813","tag":{"amenity":"waste_basket","colour":"black","material":"plastic","operator":"Moto uk","waste":"trash;mixed;recycling"}},"type":"Feature"},
	{"geometry":{"coordinates":[-1.266075,53.697832],"type":"Point"},"properties":{"osm_id":"8017988814","tag":{"amenity":"waste_basket","colour":"black","material":"plastic","operator":"Moto uk","waste":"trash;mixed;recycling"}},"type":"Feature"},
	{"geometry":{"coordinates":[-1.260183,53.724478],"type":"Point"},"properties":{"osm_id":"8292762348","tag":{"amenity":"waste_basket"}},"type":"Feature"},
	{"geometry":{"coordinates":[-1.260186,53.724449],"type":"Point"},"properties":{"osm_id":"8292762349","tag":{"amenity":"waste_basket"}},"type":"Feature"},
	{"geometry":{"coordinates":[-1.260199,53.724282],"type":"Point"},"properties":{"osm_id":"8292762350","tag":{"amenity":"waste_basket"}},"type":"Feature"},
	{"geometry":{"coordinates":[-1.315123,53.696806],"type":"Point"},"properties":{"osm_id":"8425156367","tag":{"amenity":"recycling","recycling:glass_bottles":"yes","recycling:glass_jars":"yes","recycling_type":"container"}},"type":"Feature"},
	{"geometry":{"coordinates":[-1.30988,53.701361],"type":"Point"},"properties":{"osm_id":"8513120722","tag":{"amenity":"recycling","recycling_type":"container"}},"type":"Feature"}
]
}
