{
"type": "FeatureCollection",
"features": [
	{"geometry":{"coordinates":[-1.294499,53.676551],"type":"Point"},"properties":{"osm_id":"1591394398","tag":{"amenity":"waste_basket"}},"type":"Feature"},
	{"geometry":{"coordinates":[-1.302015,53.695644],"type":"Point"},"properties":{"osm_id":"7180445667","tag":{"amenity":"waste_basket","waste":"dog_excrement"}},"type":"Feature"},
	{"geometry":{"coordinates":[-1.307101,53.695407],"type":"Point"},"properties":{"osm_id":"7514404933","tag":{"amenity":"waste_basket","colour":"Black/Dark Grey","location":"On lampost 1","material":"plastic","operator":"Wakefield Council","waste":"trash;dog_excrement;recycling;mixed"}},"type":"Feature"},
	{"geometry":{"coordinates":[-1.316866,53.695401],"type":"Point"},"properties":{"osm_id":"7632225970","tag":{"amenity":"waste_basket","colour":"black","material":"plastic","operator":"Wakefield Council.","waste":"trash;dog_excrement;mixed;recycling"}},"type":"Feature"},
	{"geometry":{"coordinates":[-1.310851,53.69651],"type":"Point"},"properties":{"osm_id":"7721651556","tag":{"access":"yes","amenity":"waste_disposal","waste":"asbestos;general;recycling"}},"type":"Feature"},
	{"geometry":{"coordinates":[-1.309026,53.693518],"type":"Point"},"properties":{"osm_id":"7726343736","tag":{"access":"private","amenity":"waste_disposal","operator":"Metro","waste":"trash;recycling;mixed"}},"type":"Feature"},
	{"geometry":{"coordinates":[-1.309799,53.69239],"type":"Point"},"properties":{"osm_id":"7804470535","tag":{"amenity":"waste_basket","waste":"trash;mixed;dog_excrement;recycling"}},"type":"Feature"},
	{"geometry":{"coordinates":[-1.313671,53.693535],"type":"Point"},"properties":{"osm_id":"7826597121","tag":{"addr:city":"Pontefract","addr:postcode":"WF8 4PQ","addr:street":"Stuart Road","amenity":"recycling","opening_hours":"24/7","opening_hours:covid19":"open","operator":"Shanks","operator:type":"public","recycling:clothes":"yes","recycling:glass":"yes","recycling:mixed":"yes","recycling:paper":"yes","recycling_type":"centre"}},"type":"Feature"},
	{"geometry":{"coordinates":[-1.307815,53.696647],"type":"Point"},"properties":{"osm_id":"7848376097","tag":{"amenity":"waste_basket","colour":"Blue","material":"concrete","operator":"Wakefield Council","waste":"trash;mixed;dog_excrement;recycling"}},"type":"Feature"},
	{"geometry":{"coordinates":[-1.31106,53.695541],"type":"Point"},"properties":{"osm_id":"7850578424","tag":{"amenity":"waste_basket","colour":"Black","material":"metal","operator":"Wakefield Council","waste":"trash;dog_excrement;mixed;recycling"}},"type":"Feature"},
	{"geometry":{"coordinates":[-1.306058,53.693704],"type":"Point"},"properties":{"osm_id":"7852121272","tag":{"amenity":"waste_basket","colour":"Black","material":"cast_iron","operator":"Wakefield Council","waste":"trash;dog_excrement;mixed;recycling"}},"type":"Feature"},
	{"geometry":{"coordinates":[-1.311032,53.689254],"type":"Point"},"properties":{"osm_id":"7855958710","tag":{"amenity":"waste_basket"}},"type":"Feature"},
	{"geometry":{"coordinates":[-1.311016,53.689326],"type":"Point"},"properties":{"osm_id":"7855958711","tag":{"amenity":"waste_basket"}},"type":"Feature"},
	{"geometry":{"coordinates":[-1.313289,53.69187],"type":"Point"},"properties":{"osm_id":"7856483895","tag":{"amenity":"waste_basket","colour":"Black","material":"metal","operator":"Wakefield Council","waste":"trash;mixed;recycling"}},"type":"Feature"},
	{"geometry":{"coordinates":[-1.312968,53.691761],"type":"Point"},"properties":{"osm_id":"7856483896","tag":{"amenity":"waste_basket","colour":"Black","material":"metal","operator":"Wakefield Council","waste":"trash;cans;plastic;glass"}},"type":"Feature"},
	{"geometry":{"coordinates":[-1.313058,53.691704],"type":"Point"},"properties":{"osm_id":"7856483897","tag":{"amenity":"waste_basket","colour":"Black","material":"metal","operator":"Wakefield Council","waste":"trash;cans;plastic;glass;dog_excrement;mixed;recycling"}},"type":"Feature"},
	{"geometry":{"coordinates":[-1.311746,53.69144],"type":"Point"},"properties":{"osm_id":"7860418491","tag":{"amenity":"waste_basket","colour":"Black","material":"metal","operator":"Wakefield Council","waste":"trash;cans;plastic;glass;dog_excrement;mixed;recycling"}},"type":"Feature"},
	{"geometry":{"coordinates":[-1.311589,53.69148],"type":"Point"},"properties":{"osm_id":"7860418492","tag":{"amenity":"waste_basket","colour":"Black","material":"metal","operator":"Wakefield Council","waste":"trash;cans;plastic;glass;dog_excrement;mixed;recycling"}},"type":"Feature"},
	{"geometry":{"coordinates":[-1.310569,53.692376],"type":"Point"},"properties":{"osm_id":"7860418493","tag":{"amenity":"waste_basket","colour":"Black","material":"metal","operator":"Wakefield Council","waste":"trash;cans;plastic;glass;dog_excrement;mixed;recycling"}},"type":"Feature"},
	{"geometry":{"coordinates":[-1.309973,53.692281],"type":"Point"},"properties":{"osm_id":"7860418498","tag":{"amenity":"waste_basket","colour":"Black","material":"metal","operator":"Wakefield Council","waste":"trash;cans;plastic;glass;dog_excrement;mixed;recycling"}},"type":"Feature"},
	{"geometry":{"coordinates":[-1.310332,53.692346],"type":"Point"},"properties":{"osm_id":"7860418499","tag":{"amenity":"waste_basket","colour":"Black","material":"metal","operator":"Wakefield Council","waste":"trash;cans;plastic;glass;dog_excrement;mixed;recycling"}},"type":"Feature"},
	{"geometry":{"coordinates":[-1.311472,53.692113],"type":"Point"},"properties":{"osm_id":"7860418504","tag":{"amenity":"waste_basket","colour":"Black","material":"metal","operator":"Wakefield Council","waste":"trash;cans;plastic;glass;dog_excrement;mixed;recycling"}},"type":"Feature"},
	{"geometry":{"coordinates":[-1.311549,53.692012],"type":"Point"},"properties":{"osm_id":"7860418505","tag":{"amenity":"waste_basket","colour":"Black","material":"metal","operator":"Wakefield Council","waste":"trash;cans;plastic;glass;dog_excrement;mixed;recycling"}},"type":"Feature"},
	{"geometry":{"coordinates":[-1.311951,53.691801],"type":"Point"},"properties":{"osm_id":"7860418509","tag":{"amenity":"waste_basket","colour":"Black","material":"metal","operator":"Wakefield Council","waste":"trash;cans;plastic;glass;dog_excrement;mixed;recycling"}},"type":"Feature"},
	{"geometry":{"coordinates":[-1.312701,53.691585],"type":"Point"},"properties":{"osm_id":"7860418514","tag":{"amenity":"waste_basket","colour":"Black","material":"metal","operator":"Wakefield Council","waste":"trash;cans;plastic;glass;dog_excrement;mixed;recycling"}},"type":"Feature"},
	{"geometry":{"coordinates":[-1.312909,53.69152],"type":"Point"},"properties":{"osm_id":"7860418515","tag":{"amenity":"waste_basket","colour":"Black","material":"metal","operator":"Wakefield Council","waste":"trash;cans;plastic;glass;dog_excrement;mixed;recycling"}},"type":"Feature"},
	{"geometry":{"coordinates":[-1.313476,53.691975],"type":"Point"},"properties":{"osm_id":"7860418518","tag":{"amenity":"waste_basket","colour":"Black","material":"metal","operator":"Wakefield Council","waste":"trash;mixed;recycling"}},"type":"Feature"},
	{"geometry":{"coordinates":[-1.310313,53.692454],"type":"Point"},"properties":{"osm_id":"7860553186","tag":{"amenity":"waste_basket","colour":"Black","material":"metal","operator":"Wakefield Council","waste":"trash;cans;plastic;glass;dog_excrement;mixed;recycling"}},"type":"Feature"},
	{"geometry":{"coordinates":[-1.311015,53.691548],"type":"Point"},"properties":{"osm_id":"7860553187","tag":{"amenity":"waste_basket","colour":"Black","material":"metal","operator":"Wakefield Council","waste":"trash;cans;plastic;glass;dog_excrement;mixed;recycling"}},"type":"Feature"},
	{"geometry":{"coordinates":[-1.312209,53.691206],"type":"Point"},"properties":{"osm_id":"7863569645","tag":{"amenity":"waste_basket","colour":"Black","material":"metal","operator":"Wakefield Council","waste":"trash;cans;plastic;glass;dog_excrement;mixed;recycling"}},"type":"Feature"},
	{"geometry":{"coordinates":[-1.306885,53.695219],"type":"Point"},"properties":{"osm_id":"7865766770","tag":{"amenity":"waste_disposal"}},"type":"Feature"},
	{"geometry":{"coordinates":[-1.304474,53.694367],"type":"Point"},"properties":{"osm_id":"7877409794","tag":{"amenity":"waste_basket","colour":"black/gold","operator":"Wakefield Council","waste":"trash;dog_excrement;mixed;recycling"}},"type":"Feature"},
	{"geometry":{"coordinates":[-1.31821,53.691773],"type":"Point"},"properties":{"osm_id":"7880956714","tag":{"amenity":"recycling","colour":"Green","material":"metal","operator":"The Salvation Army","recycling:clothes":"yes","recycling_type":"container"}},"type":"Feature"},
	{"geometry":{"coordinates":[-1.316016,53.691146],"type":"Point"},"properties":{"osm_id":"7881101025","tag":{"amenity":"waste_basket","colour":"Black","material":"plastic","operator":"Wakefield Council","waste":"trash;dog_excrement;mixed;recycling"}},"type":"Feature"},
	{"geometry":{"coordinates":[-1.310863,53.6933],"type":"Point"},"properties":{"osm_id":"7887766342","tag":{"amenity":"waste_basket","colour":"black","material":"plastic","operator":"Morrisons","waste":"trash;mixed;recycling"}},"type":"Feature"},
	{"geometry":{"coordinates":[-1.311335,53.693578],"type":"Point"},"properties":{"osm_id":"7887766343","tag":{"amenity":"waste_basket","colour":"black","material":"plastic","operator":"Morrisons","waste":"trash;mixed;recycling"}},"type":"Feature"},
	{"geometry":{"coordinates":[-1.307893,53.693104],"type":"Point"},"properties":{"osm_id":"7887797910","tag":{"amenity":"waste_basket","colour":"black","material":"metal","operator":"Wakefield Council","waste":"trash;mixed;recycling;cigarettes"}},"type":"Feature"},
	{"geometry":{"coordinates":[-1.311871,53.692686],"type":"Point"},"properties":{"osm_id":"7889074420","tag":{"amenity":"waste_basket","material":"plastic","operator":"Wakefield Council","waste":"trash;mixed;cigarettes;recycling;litter"}},"type":"Feature"},
	{"geometry":{"coordinates":[-1.312833,53.692674],"type":"Point"},"properties":{"osm_id":"7889074421","tag":{"amenity":"waste_basket","material":"plastic","operator":"Wakefield Council","waste":"trash;mixed;cigarettes;recycling;litter"}},"type":"Feature"},
	{"geometry":{"coordinates":[-1.311334,53.692616],"type":"Point"},"properties":{"osm_id":"7897371858","tag":{"amenity":"waste_basket","colour":"Black","material":"metal","operator":"Wakefield Council","waste":"trash;cans;plastic;glass;dog_excrement;mixed;recycling"}},"type":"Feature"},
	{"geometry":{"coordinates":[-1.317653,53.696154],"type":"Point"},"properties":{"osm_id":"7923508915","tag":{"amenity":"waste_basket","colour":"black","material":"plastic","operator":"Wakefield Council.","waste":"trash;dog_excrement;mixed;recycling"}},"type":"Feature"},
	{"geometry":{"coordinates":[-1.313857,53.692023],"type":"Point"},"properties":{"osm_id":"7938910847","tag":{"amenity":"waste_basket","colour":"Black","material":"metal","operator":"Wakefield Council","waste":"trash;mixed;recycling"}},"type":"Feature"},
	{"geometry":{"coordinates":[-1.314399,53.692035],"type":"Point"},"properties":{"osm_id":"7938910848","tag":{"amenity":"waste_basket","colour":"Black","material":"metal","operator":"Wakefield Council","waste":"trash;mixed;recycling"}},"type":"Feature"},
	{"geometry":{"coordinates":[-1.316443,53.691999],"type":"Point"},"properties":{"osm_id":"7938910850","tag":{"amenity":"waste_basket","colour":"Black","material":"metal","operator":"Wakefield Council","waste":"trash;mixed;recycling"}},"type":"Feature"},
	{"geometry":{"coordinates":[-1.314417,53.691629],"type":"Point"},"properties":{"osm_id":"7972604016","tag":{"amenity":"recycling","recycling_type":"container"}},"type":"Feature"},
	{"geometry":{"coordinates":[-1.301531,53.696046],"type":"Point"},"properties":{"osm_id":"7973516416","tag":{"amenity":"waste_basket","colour":"black","operator":"Wakefield Council","waste":"trash;recycling;mixed"}},"type":"Feature"},
	{"geometry":{"coordinates":[-1.311214,53.693636],"type":"Point"},"properties":{"osm_id":"8005505791","tag":{"amenity":"recycling","colour":"green","indoor":"yes","manufacturer":"Glasdon","operator":"Morrisons","recycling:plastic_packaging":"yes","recycling_type":"container"}},"type":"Feature"},
	{"geometry":{"coordinates":[-1.312233,53.691802],"type":"Point"},"properties":{"osm_id":"8067744592","tag":{"amenity":"recycling","level":"0","operator":"BatteryBack\u00e2\u0084\u00a2","recycling:batteries":"yes","recycling_type":"container"}},"type":"Feature"},
	{"geometry":{"coordinates":[-1.300045,53.678506],"type":"Point"},"properties":{"osm_id":"8070746623","tag":{"amenity":"waste_basket","waste":"dog_excrement"}},"type":"Feature"},
	{"geometry":{"coordinates":[-1.298459,53.678535],"type":"Point"},"properties":{"osm_id":"8070746624","tag":{"amenity":"waste_basket","waste":"dog_excrement"}},"type":"Feature"}
]
}
