{
"type": "FeatureCollection",
"features": [
	{"geometry":{"coordinates":[-1.276609,51.809413],"type":"Point"},"properties":{"osm_id":"28238567","tag":{"amenity":"recycling","recycling:cans":"yes","recycling:clothes":"yes","recycling:electronics":"yes","recycling:glass":"yes","recycling:light_bulbs":"yes","recycling:paper":"yes","recycling:shoes":"yes","recycling_type":"container"}},"type":"Feature"},
	{"geometry":{"coordinates":[-1.304509,51.835241],"type":"Point"},"properties":{"osm_id":"28790108","tag":{"amenity":"recycling"}},"type":"Feature"},
	{"geometry":{"coordinates":[-1.288836,51.820918],"type":"Point"},"properties":{"osm_id":"29934523","tag":{"amenity":"recycling","recycling_type":"container"}},"type":"Feature"},
	{"geometry":{"coordinates":[-1.293358,51.783788],"type":"Point"},"properties":{"osm_id":"745747218","tag":{"amenity":"recycling","recycling:cans":"yes","recycling:cartons":"yes","recycling:clothes":"yes","recycling:glass":"no","recycling:paper":"yes","recycling:plastic":"yes"}},"type":"Feature"},
	{"geometry":{"coordinates":[-1.271892,51.793463],"type":"Point"},"properties":{"osm_id":"1340371018","tag":{"amenity":"waste_basket"}},"type":"Feature"},
	{"geometry":{"coordinates":[-1.237091,51.823458],"type":"Point"},"properties":{"osm_id":"1712344494","tag":{"amenity":"recycling","recycling_type":"container"}},"type":"Feature"},
	{"geometry":{"coordinates":[-1.289399,51.823874],"type":"Point"},"properties":{"osm_id":"1826639357","tag":{"amenity":"recycling"}},"type":"Feature"},
	{"geometry":{"coordinates":[-1.280998,51.829369],"type":"Point"},"properties":{"osm_id":"1834035748","tag":{"amenity":"waste_basket","waste":"dog_excrement"}},"type":"Feature"},
	{"geometry":{"coordinates":[-1.272298,51.802893],"type":"Point"},"properties":{"osm_id":"2080179642","tag":{"amenity":"recycling","recycling:cans":"yes","recycling:clothes":"yes","recycling:electronics":"yes","recycling:glass":"yes","recycling:shoes":"yes","recycling_type":"container"}},"type":"Feature"},
	{"geometry":{"coordinates":[-1.311438,51.804432],"type":"Point"},"properties":{"osm_id":"2081051939","tag":{"amenity":"recycling"}},"type":"Feature"},
	{"geometry":{"coordinates":[-1.281929,51.815507],"type":"Point"},"properties":{"osm_id":"2105734229","tag":{"amenity":"recycling"}},"type":"Feature"},
	{"geometry":{"coordinates":[-1.302432,51.804426],"type":"Point"},"properties":{"osm_id":"2183428507","tag":{"amenity":"recycling","recycling:glass":"yes","recycling:glass:colour":"brown;clear;green"}},"type":"Feature"},
	{"geometry":{"coordinates":[-1.302197,51.830565],"type":"Point"},"properties":{"osm_id":"2478779069","tag":{"amenity":"waste_disposal"}},"type":"Feature"},
	{"geometry":{"coordinates":[-1.260862,51.786205],"type":"Point"},"properties":{"osm_id":"2773590157","tag":{"amenity":"waste_basket"}},"type":"Feature"},
	{"geometry":{"coordinates":[-1.288076,51.786843],"type":"Point"},"properties":{"osm_id":"4827305622","tag":{"amenity":"waste_disposal"}},"type":"Feature"},
	{"geometry":{"coordinates":[-1.287891,51.822403],"type":"Point"},"properties":{"osm_id":"5207197512","tag":{"amenity":"recycling","recycling_type":"container"}},"type":"Feature"},
	{"geometry":{"coordinates":[-1.261944,51.788713],"type":"Point"},"properties":{"osm_id":"5895218672","tag":{"amenity":"waste_basket"}},"type":"Feature"},
	{"geometry":{"coordinates":[-1.290166,51.799522],"type":"Point"},"properties":{"osm_id":"7573523377","tag":{"amenity":"recycling","recycling:glass_bottles":"yes","recycling_type":"container"}},"type":"Feature"}
]
}
