{
"type": "FeatureCollection",
"features": [
	{"geometry":{"coordinates":[-1.304839,51.050416],"type":"Point"},"properties":{"osm_id":"29621067","tag":{"amenity":"recycling","odbl":"clean"}},"type":"Feature"},
	{"geometry":{"coordinates":[-1.305956,51.059274],"type":"Point"},"properties":{"osm_id":"269392231","tag":{"amenity":"recycling"}},"type":"Feature"},
	{"geometry":{"coordinates":[-1.308055,51.050792],"type":"Point"},"properties":{"name":"Winchester Household Waste Recycling Centre","osm_id":"369740349","tag":{"addr:city":"Winchester","addr:housename":"Winchester H W R C","addr:postcode":"SO23 9NP","addr:street":"Bar End Road","amenity":"recycling","operator":"Veolia E S Hampshire Ltd","operator:type":"private","owner":"Hampshire County Council","ownership":"municipal","recycling:animal_waste":"yes","recycling:batteries":"yes","recycling:books":"no","recycling:cans":"yes","recycling:cardboard":"yes","recycling:cartons":"no","recycling:clothes":"yes","recycling:electrical_appliances":"yes","recycling:engine_oil":"yes","recycling:fluorescent_tubes":"yes","recycling:garden_waste":"yes","recycling:gas_bottles":"yes","recycling:glass":"yes","recycling:glass_bottles":"yes","recycling:green_waste":"yes","recycling:low_energy_bulbs":"yes","recycling:magazines":"yes","recycling:newspaper":"yes","recycling:paint":"yes","recycling:paper":"yes","recycling:paper_packaging":"yes","recycling:plasterboard":"yes","recycling:plastic":"no","recycling:plastic_bottles":"no","recycling:plastic_packaging":"no","recycling:rubble":"yes","recycling:scrap_metal":"yes","recycling:small_appliances":"yes","recycling:waste":"no","recycling:wood":"yes","recycling_type":"centre","wikidata":"Q106093323"}},"type":"Feature"},
	{"geometry":{"coordinates":[-1.310365,51.061438],"type":"Point"},"properties":{"osm_id":"4368621334","tag":{"amenity":"waste_basket"}},"type":"Feature"},
	{"geometry":{"coordinates":[-1.309685,51.061525],"type":"Point"},"properties":{"osm_id":"4368621335","tag":{"amenity":"waste_basket"}},"type":"Feature"},
	{"geometry":{"coordinates":[-1.313719,51.061801],"type":"Point"},"properties":{"osm_id":"4368621337","tag":{"amenity":"waste_basket"}},"type":"Feature"},
	{"geometry":{"coordinates":[-1.311804,51.065714],"type":"Point"},"properties":{"osm_id":"4368621342","tag":{"amenity":"waste_basket"}},"type":"Feature"},
	{"geometry":{"coordinates":[-1.311305,51.065796],"type":"Point"},"properties":{"osm_id":"4368621343","tag":{"amenity":"recycling","recycling:clothes":"yes","recycling:shoes":"yes","recycling_type":"container"}},"type":"Feature"},
	{"geometry":{"coordinates":[-1.298459,51.068138],"type":"Point"},"properties":{"osm_id":"6595105018","tag":{"amenity":"recycling","recycling:clothes":"yes","recycling:shoes":"yes","recycling_type":"container"}},"type":"Feature"}
]
}
