{
"type": "FeatureCollection",
"features": [
	{"geometry":{"coordinates":[-1.241126,50.865112],"type":"Point"},"properties":{"osm_id":"244210733","tag":{"amenity":"recycling"}},"type":"Feature"},
	{"geometry":{"coordinates":[-1.236011,50.850106],"type":"Point"},"properties":{"osm_id":"2267497810","tag":{"amenity":"recycling","recycling:batteries":"no","recycling:books":"no","recycling:cans":"no","recycling:cardboard":"no","recycling:cartons":"no","recycling:clothes":"yes","recycling:electrical_appliances":"no","recycling:glass":"no","recycling:glass_bottles":"yes","recycling:green_waste":"no","recycling:magazines":"no","recycling:paper":"no","recycling:paper_packaging":"no","recycling:plastic":"no","recycling:plastic_packaging":"no","recycling:small_appliances":"no","recycling:waste":"no","recycling_type":"container"}},"type":"Feature"},
	{"geometry":{"coordinates":[-1.290099,50.868045],"type":"Point"},"properties":{"osm_id":"2529241061","tag":{"amenity":"recycling","recycling_type":"container"}},"type":"Feature"},
	{"geometry":{"coordinates":[-1.282515,50.859741],"type":"Point"},"properties":{"osm_id":"2529241145","tag":{"amenity":"recycling"}},"type":"Feature"},
	{"geometry":{"coordinates":[-1.274686,50.864485],"type":"Point"},"properties":{"osm_id":"2529264450","tag":{"amenity":"recycling"}},"type":"Feature"},
	{"geometry":{"coordinates":[-1.262992,50.894367],"type":"Point"},"properties":{"osm_id":"2661431806","tag":{"amenity":"recycling"}},"type":"Feature"},
	{"geometry":{"coordinates":[-1.267595,50.872923],"type":"Point"},"properties":{"osm_id":"3703566686","tag":{"amenity":"recycling","recycling:glass":"yes","recycling:glass_bottles":"yes","recycling_type":"container"}},"type":"Feature"},
	{"geometry":{"coordinates":[-1.267612,50.872926],"type":"Point"},"properties":{"osm_id":"3703566687","tag":{"amenity":"recycling","recycling:glass":"yes","recycling:glass_bottles":"yes","recycling_type":"container"}},"type":"Feature"},
	{"geometry":{"coordinates":[-1.26763,50.87293],"type":"Point"},"properties":{"osm_id":"3703566688","tag":{"amenity":"recycling","recycling:glass":"yes","recycling:glass_bottles":"yes","recycling_type":"container"}},"type":"Feature"},
	{"geometry":{"coordinates":[-1.267594,50.87295],"type":"Point"},"properties":{"osm_id":"3703566689","tag":{"amenity":"recycling","recycling:glass":"yes","recycling:glass_bottles":"yes","recycling_type":"container"}},"type":"Feature"},
	{"geometry":{"coordinates":[-1.267667,50.872955],"type":"Point"},"properties":{"osm_id":"3703566690","tag":{"amenity":"recycling","recycling:books":"yes","recycling:cds":"yes","recycling_type":"container"}},"type":"Feature"},
	{"geometry":{"coordinates":[-1.267646,50.872957],"type":"Point"},"properties":{"osm_id":"3703566691","tag":{"amenity":"recycling","recycling:glass":"yes","recycling:glass_bottles":"yes","recycling_type":"container"}},"type":"Feature"},
	{"geometry":{"coordinates":[-1.267605,50.872961],"type":"Point"},"properties":{"osm_id":"3703566692","tag":{"amenity":"recycling","recycling:glass":"yes","recycling:glass_bottles":"yes","recycling_type":"container"}},"type":"Feature"},
	{"geometry":{"coordinates":[-1.267661,50.872966],"type":"Point"},"properties":{"osm_id":"3703566693","tag":{"amenity":"recycling","recycling:clothes":"yes","recycling:shoes":"yes","recycling_type":"container"}},"type":"Feature"},
	{"geometry":{"coordinates":[-1.267639,50.872968],"type":"Point"},"properties":{"osm_id":"3703566694","tag":{"amenity":"recycling","recycling:glass":"yes","recycling:glass_bottles":"yes","recycling_type":"container"}},"type":"Feature"},
	{"geometry":{"coordinates":[-1.267654,50.872976],"type":"Point"},"properties":{"osm_id":"3703566695","tag":{"amenity":"recycling","recycling:clothes":"yes","recycling:shoes":"yes","recycling_type":"container"}},"type":"Feature"},
	{"geometry":{"coordinates":[-1.267633,50.87298],"type":"Point"},"properties":{"osm_id":"3703566696","tag":{"amenity":"recycling","recycling:glass":"yes","recycling:glass_bottles":"yes","recycling_type":"container"}},"type":"Feature"},
	{"geometry":{"coordinates":[-1.267647,50.872987],"type":"Point"},"properties":{"osm_id":"3703566697","tag":{"amenity":"recycling","recycling:shoes":"yes","recycling_type":"container"}},"type":"Feature"},
	{"geometry":{"coordinates":[-1.247414,50.886701],"type":"Point"},"properties":{"osm_id":"3703566719","tag":{"amenity":"recycling","operator":"Scope","recycling:clothes":"yes","recycling:shoes":"yes","recycling_type":"container"}},"type":"Feature"},
	{"geometry":{"coordinates":[-1.247404,50.886713],"type":"Point"},"properties":{"osm_id":"3703566720","tag":{"amenity":"recycling","operator":"Scope","recycling:clothes":"yes","recycling:shoes":"yes","recycling_type":"container"}},"type":"Feature"},
	{"geometry":{"coordinates":[-1.247394,50.886725],"type":"Point"},"properties":{"osm_id":"3703566721","tag":{"amenity":"recycling","operator":"Hampshire and Isle of Wight Air Ambulance","recycling:clothes":"yes","recycling:shoes":"yes","recycling_type":"container"}},"type":"Feature"},
	{"geometry":{"coordinates":[-1.247387,50.886736],"type":"Point"},"properties":{"osm_id":"3703566722","tag":{"amenity":"recycling","operator":"Oxfam","recycling:books":"yes","recycling:cds":"yes","recycling:dvds":"yes","recycling_type":"container"}},"type":"Feature"},
	{"geometry":{"coordinates":[-1.247383,50.88674],"type":"Point"},"properties":{"osm_id":"3703566723","tag":{"amenity":"recycling","recycling:clothes":"no","recycling:shoes":"yes","recycling_type":"container"}},"type":"Feature"},
	{"geometry":{"coordinates":[-1.24738,50.886745],"type":"Point"},"properties":{"osm_id":"3703566724","tag":{"amenity":"recycling","recycling:clothes":"no","recycling:shoes":"yes","recycling_type":"container"}},"type":"Feature"},
	{"geometry":{"coordinates":[-1.247389,50.886762],"type":"Point"},"properties":{"osm_id":"3703566925","tag":{"amenity":"recycling","recycling:glass":"yes","recycling:glass_bottles":"yes","recycling_type":"container"}},"type":"Feature"},
	{"geometry":{"coordinates":[-1.247368,50.886783],"type":"Point"},"properties":{"osm_id":"3703566926","tag":{"amenity":"recycling","recycling:glass":"yes","recycling:glass_bottles":"yes","recycling_type":"container"}},"type":"Feature"},
	{"geometry":{"coordinates":[-1.266645,50.881903],"type":"Point"},"properties":{"osm_id":"3814567479","tag":{"amenity":"waste_basket","waste":"dog_excrement"}},"type":"Feature"},
	{"geometry":{"coordinates":[-1.265518,50.882599],"type":"Point"},"properties":{"osm_id":"3814567584","tag":{"amenity":"waste_basket"}},"type":"Feature"},
	{"geometry":{"coordinates":[-1.250069,50.881708],"type":"Point"},"properties":{"osm_id":"3980934233","tag":{"amenity":"waste_basket"}},"type":"Feature"},
	{"geometry":{"coordinates":[-1.249922,50.884695],"type":"Point"},"properties":{"osm_id":"3996362700","tag":{"amenity":"waste_basket"}},"type":"Feature"},
	{"geometry":{"coordinates":[-1.316374,50.889544],"type":"Point"},"properties":{"osm_id":"4594321872","tag":{"amenity":"waste_basket"}},"type":"Feature"},
	{"geometry":{"coordinates":[-1.316199,50.889664],"type":"Point"},"properties":{"osm_id":"4594322957","tag":{"amenity":"waste_basket"}},"type":"Feature"},
	{"geometry":{"coordinates":[-1.298189,50.853092],"type":"Point"},"properties":{"osm_id":"4770169617","tag":{"amenity":"recycling","recycling:clothes":"yes","recycling:shoes":"yes","recycling_type":"container"}},"type":"Feature"},
	{"geometry":{"coordinates":[-1.312069,50.868031],"type":"Point"},"properties":{"osm_id":"6066077090","tag":{"amenity":"waste_basket"}},"type":"Feature"},
	{"geometry":{"coordinates":[-1.269358,50.854174],"type":"Point"},"properties":{"osm_id":"8349567866","tag":{"amenity":"waste_basket","colour":"black"}},"type":"Feature"},
	{"geometry":{"coordinates":[-1.276958,50.855097],"type":"Point"},"properties":{"osm_id":"8402342796","tag":{"amenity":"waste_basket","waste":"trash"}},"type":"Feature"},
	{"geometry":{"coordinates":[-1.257409,50.861688],"type":"Point"},"properties":{"osm_id":"8501560074","tag":{"amenity":"waste_basket","ashtray":"no","colour":"black","covered":"yes","waste":"dog_excrement;litter","website":"https://www.fareham.gov.uk/clean_and_tidy/street_cleaning/litteranddogbins.aspx"}},"type":"Feature"},
	{"geometry":{"coordinates":[-1.25446,50.861127],"type":"Point"},"properties":{"osm_id":"8501563788","tag":{"amenity":"waste_basket","colour":"green","covered":"yes","material":"plastic"}},"type":"Feature"},
	{"geometry":{"coordinates":[-1.256178,50.864545],"type":"Point"},"properties":{"osm_id":"8508410290","tag":{"amenity":"waste_basket","colour":"black","covered":"yes","material":"metal"}},"type":"Feature"},
	{"geometry":{"coordinates":[-1.256334,50.86452],"type":"Point"},"properties":{"osm_id":"8508420458","tag":{"amenity":"waste_basket","colour":"black","covered":"yes","material":"metal"}},"type":"Feature"},
	{"geometry":{"coordinates":[-1.251252,50.868242],"type":"Point"},"properties":{"osm_id":"8521568979","tag":{"amenity":"waste_basket","ashtray":"no","colour":"black","covered":"yes"}},"type":"Feature"},
	{"geometry":{"coordinates":[-1.249323,50.868425],"type":"Point"},"properties":{"osm_id":"8521709226","tag":{"amenity":"waste_basket","ashtray":"no","colour":"black","covered":"yes"}},"type":"Feature"},
	{"geometry":{"coordinates":[-1.257027,50.881383],"type":"Point"},"properties":{"osm_id":"8525736363","tag":{"amenity":"waste_basket","colour":"black","covered":"yes","waste":"litter;dog_excrement"}},"type":"Feature"},
	{"geometry":{"coordinates":[-1.255433,50.880866],"type":"Point"},"properties":{"osm_id":"8525741798","tag":{"amenity":"waste_basket","colour":"green","covered":"yes","waste":"dog_excrement"}},"type":"Feature"},
	{"geometry":{"coordinates":[-1.257671,50.88122],"type":"Point"},"properties":{"osm_id":"8525898929","tag":{"amenity":"waste_basket","colour":"black","covered":"yes"}},"type":"Feature"},
	{"geometry":{"coordinates":[-1.257722,50.880576],"type":"Point"},"properties":{"osm_id":"8525985781","tag":{"amenity":"waste_basket","colour":"black","covered":"yes","waste":"litter;dog_excrement"}},"type":"Feature"},
	{"geometry":{"coordinates":[-1.257563,50.881368],"type":"Point"},"properties":{"osm_id":"8525986314","tag":{"amenity":"waste_basket","colour":"black","covered":"yes"}},"type":"Feature"},
	{"geometry":{"coordinates":[-1.262457,50.861716],"type":"Point"},"properties":{"osm_id":"8551587690","tag":{"amenity":"waste_basket","colour":"green","covered":"yes","waste":"litter;dog_excrement"}},"type":"Feature"},
	{"geometry":{"coordinates":[-1.263606,50.860655],"type":"Point"},"properties":{"osm_id":"8551619787","tag":{"amenity":"waste_basket","colour":"green","covered":"yes","waste":"litter;dog_excrement"}},"type":"Feature"},
	{"geometry":{"coordinates":[-1.255746,50.865267],"type":"Point"},"properties":{"osm_id":"8551628303","tag":{"amenity":"waste_basket","colour":"black","covered":"yes","waste":"litter;dog_excrement"}},"type":"Feature"},
	{"geometry":{"coordinates":[-1.260382,50.861505],"type":"Point"},"properties":{"osm_id":"8615568574","tag":{"amenity":"waste_basket","colour":"black","covered":"yes","waste":"litter;dog_excrement"}},"type":"Feature"},
	{"geometry":{"coordinates":[-1.257897,50.86377],"type":"Point"},"properties":{"osm_id":"8615578334","tag":{"amenity":"waste_basket","colour":"green","covered":"yes","waste":"litter;dog_excrement"}},"type":"Feature"},
	{"geometry":{"coordinates":[-1.264912,50.8609],"type":"Point"},"properties":{"osm_id":"8615592333","tag":{"amenity":"waste_basket","ashtray":"no","covered":"yes","waste":"litter;dog_excrement"}},"type":"Feature"},
	{"geometry":{"coordinates":[-1.265092,50.860858],"type":"Point"},"properties":{"osm_id":"8615632938","tag":{"amenity":"waste_basket","covered":"no"}},"type":"Feature"},
	{"geometry":{"coordinates":[-1.253768,50.882501],"type":"Point"},"properties":{"osm_id":"8615819117","tag":{"amenity":"waste_basket","colour":"green","covered":"yes","operator":"Winchester City Council","waste":"litter;dog_excrement"}},"type":"Feature"}
]
}
