{
"type": "FeatureCollection",
"features": [
	{"geometry":{"coordinates":[-1.298501,50.760519],"type":"Point"},"properties":{"name":"St. Mary's Road","osm_id":"1111916613","tag":{"amenity":"recycling","opening_hours":"24/7","recycling:cans":"yes","recycling:clothes":"yes","recycling:glass":"yes","recycling:glass_bottles":"yes","recycling:paper":"yes","ref:GB:uprn":"10024247110"}},"type":"Feature"},
	{"geometry":{"coordinates":[-1.28794,50.759526],"type":"Point"},"properties":{"osm_id":"2154623842","tag":{"amenity":"recycling","location":"overground","recycling:paper":"yes","recycling_type":"container"}},"type":"Feature"},
	{"geometry":{"coordinates":[-1.276617,50.749839],"type":"Point"},"properties":{"osm_id":"5458660739","tag":{"amenity":"recycling","recycling_type":"container"}},"type":"Feature"},
	{"geometry":{"coordinates":[-1.287508,50.75815],"type":"Point"},"properties":{"osm_id":"8168426792","tag":{"amenity":"recycling","opening_hours":"24/7","operator":"Isle of Wight Council","recycling:clothes":"yes","recycling:shoes":"yes","recycling_type":"container","ref:GB:uprn":"10024247113"}},"type":"Feature"},
	{"geometry":{"coordinates":[-1.308077,50.739138],"type":"Point"},"properties":{"osm_id":"8168456583","tag":{"amenity":"recycling","mapillary":"DA8uYmSu42R7TvkDn2r0WA","recycling_type":"container","ref:GB:uprn":"10024247132"}},"type":"Feature"},
	{"geometry":{"coordinates":[-1.278179,50.744833],"type":"Point"},"properties":{"osm_id":"8223009156","tag":{"amenity":"recycling","recycling:clothes":"yes","recycling:shoes":"yes","recycling_type":"container"}},"type":"Feature"},
	{"geometry":{"coordinates":[-1.286343,50.75707],"type":"Point"},"properties":{"osm_id":"8223025534","tag":{"amenity":"recycling","recycling:clothes":"yes","recycling:shoes":"yes","recycling_type":"container"}},"type":"Feature"},
	{"geometry":{"coordinates":[-1.283648,50.764371],"type":"Point"},"properties":{"osm_id":"9196465007","tag":{"amenity":"waste_basket","waste":"trash"}},"type":"Feature"},
	{"geometry":{"coordinates":[-1.284071,50.76426],"type":"Point"},"properties":{"osm_id":"9196499125","tag":{"amenity":"waste_basket","waste":"trash"}},"type":"Feature"},
	{"geometry":{"coordinates":[-1.284195,50.764184],"type":"Point"},"properties":{"osm_id":"9196499126","tag":{"amenity":"waste_basket","waste":"trash"}},"type":"Feature"},
	{"geometry":{"coordinates":[-1.28488,50.763951],"type":"Point"},"properties":{"osm_id":"9196499134","tag":{"amenity":"waste_basket","waste":"trash"}},"type":"Feature"}
]
}
