{
"type": "FeatureCollection",
"features": [
	{"geometry":{"coordinates":[-1.258823,48.574904],"type":"Point"},"properties":{"name":"Poubelle Verre","osm_id":"3300152705","tag":{"amenity":"recycling","recycling:glass":"yes","recycling_type":"container"}},"type":"Feature"},
	{"geometry":{"coordinates":[-1.258922,48.574913],"type":"Point"},"properties":{"name":"Poubelle Verre","osm_id":"3300152706","tag":{"amenity":"recycling","recycling:glass":"yes","recycling_type":"container"}},"type":"Feature"},
	{"geometry":{"coordinates":[-1.294105,48.624865],"type":"Point"},"properties":{"osm_id":"5205873425","tag":{"amenity":"waste_basket"}},"type":"Feature"},
	{"geometry":{"coordinates":[-1.27382,48.602196],"type":"Point"},"properties":{"name":"D\u00c3\u00a9ch\u00c3\u00a8terie\u00c2\u00a0de\u00c2\u00a0Ducey","osm_id":"6960930052","tag":{"amenity":"recycling","phone":"+33 2 33 89 80 70","recycling_type":"centre","ref:FR:SINOE":"8025","start_date":"2003-04-01"}},"type":"Feature"},
	{"geometry":{"coordinates":[-1.289188,48.619905],"type":"Point"},"properties":{"osm_id":"8343411460","tag":{"amenity":"recycling","recycling_type":"container"}},"type":"Feature"},
	{"geometry":{"coordinates":[-1.291977,48.618196],"type":"Point"},"properties":{"osm_id":"8343500089","tag":{"amenity":"recycling","recycling_type":"container"}},"type":"Feature"},
	{"geometry":{"coordinates":[-1.293898,48.624994],"type":"Point"},"properties":{"osm_id":"8344854651","tag":{"amenity":"recycling","recycling_type":"container"}},"type":"Feature"},
	{"geometry":{"coordinates":[-1.295532,48.615942],"type":"Point"},"properties":{"osm_id":"8360322786","tag":{"amenity":"recycling","recycling_type":"container"}},"type":"Feature"},
	{"geometry":{"coordinates":[-1.311418,48.57635],"type":"Point"},"properties":{"osm_id":"8777185239","tag":{"amenity":"recycling","recycling:cans":"yes","recycling:glass":"yes","recycling:glass_bottles":"yes","recycling_type":"container","wheelchair":"no"}},"type":"Feature"}
]
}
