{
"type": "FeatureCollection",
"features": [
	{"geometry":{"coordinates":[-1.264611,48.039258],"type":"Point"},"properties":{"osm_id":"2013491465","tag":{"amenity":"recycling","mapillary":"NIA4zlr9Qjs8FzTmoaChKg","recycling_type":"container","survey:date":"2019-04-21"}},"type":"Feature"},
	{"geometry":{"coordinates":[-1.266461,48.035775],"type":"Point"},"properties":{"osm_id":"2013493578","tag":{"amenity":"recycling"}},"type":"Feature"},
	{"geometry":{"coordinates":[-1.266322,48.036668],"type":"Point"},"properties":{"osm_id":"2013555474","tag":{"amenity":"recycling"}},"type":"Feature"},
	{"geometry":{"coordinates":[-1.242537,47.996534],"type":"Point"},"properties":{"osm_id":"8300053598","tag":{"amenity":"waste_basket"}},"type":"Feature"},
	{"geometry":{"coordinates":[-1.242607,47.995187],"type":"Point"},"properties":{"osm_id":"8300409531","tag":{"amenity":"recycling","recycling:clothes":"yes","recycling_type":"container"}},"type":"Feature"},
	{"geometry":{"coordinates":[-1.242366,47.995475],"type":"Point"},"properties":{"osm_id":"8300409537","tag":{"amenity":"waste_basket"}},"type":"Feature"},
	{"geometry":{"coordinates":[-1.236134,47.998106],"type":"Point"},"properties":{"osm_id":"8302935572","tag":{"amenity":"recycling","recycling:glass":"yes","recycling_type":"container"}},"type":"Feature"}
]
}
