{
"type": "FeatureCollection",
"lastupdate": "2020-08-06T00:00:00Z",
"features": [
	{"geometry":{"coordinates":[-1.240367,47.486104],"type":"Point"},"properties":{"name":"Ecocyclerie TroCantons","osm_id":"3382716896","tag":{"addr:city":"Pannec\u00e9","addr:housenumber":"85","addr:postcode":"44440","addr:street":"Rue des C\u00e8dres","amenity":"recycling","phone":"+33 2 40 97 78 55","recycling_type":"centre","website":"http://www.trocantons.org/"}},"type":"Feature"},
	{"geometry":{"coordinates":[-1.250351,47.482943],"type":"Point"},"properties":{"osm_id":"3657444879","tag":{"amenity":"waste_basket"}},"type":"Feature"},
	{"geometry":{"coordinates":[-1.250268,47.482777],"type":"Point"},"properties":{"osm_id":"3657444880","tag":{"amenity":"waste_basket"}},"type":"Feature"},
	{"geometry":{"coordinates":[-1.250415,47.483322],"type":"Point"},"properties":{"osm_id":"3657444881","tag":{"amenity":"recycling","recycling_type":"container"}},"type":"Feature"},
	{"geometry":{"coordinates":[-1.290211,47.513337],"type":"Point"},"properties":{"osm_id":"4729332647","tag":{"amenity":"waste_basket"}},"type":"Feature"},
	{"geometry":{"coordinates":[-1.290386,47.514086],"type":"Point"},"properties":{"osm_id":"6747078805","tag":{"amenity":"waste_basket"}},"type":"Feature"}
]
}
