{
"type": "FeatureCollection",
"features": [
	{"geometry":{"coordinates":[-1.266189,47.179976],"type":"Point"},"properties":{"name":"D\u00c3\u00a9chetterie de Vallet","osm_id":"3811110271","tag":{"addr:city":"Vallet","addr:postcode":"44330","addr:street":"Rue des Ferronniers","amenity":"recycling","recycling:organic":"yes","recycling_type":"centre"}},"type":"Feature"},
	{"geometry":{"coordinates":[-1.271032,47.166734],"type":"Point"},"properties":{"osm_id":"5792479290","tag":{"amenity":"recycling","recycling:glass":"yes","recycling:glass_bottles":"yes","recycling:paper":"yes","recycling_type":"container"}},"type":"Feature"},
	{"geometry":{"coordinates":[-1.265487,47.17939],"type":"Point"},"properties":{"name":"EcoCyclerie du Vignoble Nantais","osm_id":"6580169533","tag":{"amenity":"recycling","charity":"yes","collection_times":"We, Sa 09:30-12:30, 14:30-17:30: Th, Fr 09:30-12:30","contact:city":"Vallet","contact:email":"ecvnvallet@orange.fr","contact:facebook":"https://facebook.com/ecvn44","contact:housenumber":"14","contact:phone":"+33 2 40 43 28 55","contact:postcode":"44300","contact:street":"rue de l'Industrie","contact:website":"http://ecocyclerieduvignoblenantais.blogspot.com/?m=1","description":"Pour le textile, merci de vous diriger vers PATMOUILLE (8 route de la Loire, VALLET).","mapillary":"q0l9w7f3Fb5uFQauShRZEQ","office":"association","opening_hours":"We 14:30-18:00; Sa 09:30-12:30,14:30-18:00","recycling:bicycles":"yes","recycling:books":"yes","recycling:computers":"yes","recycling:dishes":"yes","recycling:furniture":"yes","recycling:interior_decoration":"yes","recycling:small_electrical_appliances":"yes","recycling:toys":"yes","recycling_type":"centre","ref:FR:SIRET":"80203090800023","second_hand":"only","shop":"general"}},"type":"Feature"},
	{"geometry":{"coordinates":[-1.26558,47.180004],"type":"Point"},"properties":{"osm_id":"6638665840","tag":{"addr:street":"ecocyclerie pour professionnels","amenity":"recycling"}},"type":"Feature"}
]
}
