{
"type": "FeatureCollection",
"features": [
	{"geometry":{"coordinates":[-1.305809,47.100188],"type":"Point"},"properties":{"osm_id":"3507346016","tag":{"amenity":"waste_basket"}},"type":"Feature"},
	{"geometry":{"coordinates":[-1.306475,47.100528],"type":"Point"},"properties":{"osm_id":"3507346054","tag":{"amenity":"waste_basket"}},"type":"Feature"},
	{"geometry":{"coordinates":[-1.306853,47.10093],"type":"Point"},"properties":{"osm_id":"3507346086","tag":{"amenity":"waste_basket"}},"type":"Feature"},
	{"geometry":{"coordinates":[-1.304084,47.101171],"type":"Point"},"properties":{"osm_id":"3507346398","tag":{"amenity":"waste_basket"}},"type":"Feature"},
	{"geometry":{"coordinates":[-1.303957,47.101628],"type":"Point"},"properties":{"osm_id":"3507346422","tag":{"amenity":"waste_basket"}},"type":"Feature"},
	{"geometry":{"coordinates":[-1.282072,47.139385],"type":"Point"},"properties":{"osm_id":"4228338389","tag":{"amenity":"recycling","recycling:clothes":"yes","recycling:glass_bottles":"yes","recycling:paper":"yes","recycling_type":"container"}},"type":"Feature"},
	{"geometry":{"coordinates":[-1.28216,47.13965],"type":"Point"},"properties":{"osm_id":"4228338390","tag":{"amenity":"waste_basket"}},"type":"Feature"},
	{"geometry":{"coordinates":[-1.282432,47.139954],"type":"Point"},"properties":{"osm_id":"4228338397","tag":{"amenity":"waste_basket"}},"type":"Feature"},
	{"geometry":{"coordinates":[-1.282098,47.140116],"type":"Point"},"properties":{"osm_id":"4228338401","tag":{"amenity":"waste_basket"}},"type":"Feature"},
	{"geometry":{"coordinates":[-1.266682,47.159088],"type":"Point"},"properties":{"osm_id":"7402179152","tag":{"amenity":"recycling","recycling:clothes":"yes","recycling:glass":"yes","recycling_type":"container"}},"type":"Feature"},
	{"geometry":{"coordinates":[-1.302799,47.101391],"type":"Point"},"properties":{"osm_id":"7886603270","tag":{"amenity":"waste_disposal","authentication:membership_card":"yes","authentication:none":"no","fee":"yes","location":"underground","mapillary":"7aJ31ryOJrT8_sqOPtOGJg","opening_hours":"24/7","operator":"Clisson S\u00c3\u00a8vre et Maine Agglo"}},"type":"Feature"},
	{"geometry":{"coordinates":[-1.302777,47.101388],"type":"Point"},"properties":{"osm_id":"7886603271","tag":{"amenity":"waste_disposal","authentication:membership_card":"yes","authentication:none":"no","fee":"yes","location":"underground","mapillary":"7aJ31ryOJrT8_sqOPtOGJg","opening_hours":"24/7","operator":"Clisson S\u00c3\u00a8vre et Maine Agglo"}},"type":"Feature"},
	{"geometry":{"coordinates":[-1.302651,47.10137],"type":"Point"},"properties":{"osm_id":"7886603272","tag":{"amenity":"recycling","fee":"no","location":"underground","mapillary":"3KaldP_sFKayS5xcGTY_gQ","opening_hours":"24/7","operator":"Clisson S\u00c3\u00a8vre et Maine Agglo","recycling:glass_bottles":"yes","recycling_type":"container"}},"type":"Feature"},
	{"geometry":{"coordinates":[-1.302676,47.101373],"type":"Point"},"properties":{"osm_id":"7886603273","tag":{"amenity":"recycling","fee":"no","location":"underground","mapillary":"3KaldP_sFKayS5xcGTY_gQ","opening_hours":"24/7","operator":"Clisson S\u00c3\u00a8vre et Maine Agglo","recycling:paper":"yes","recycling_type":"container"}},"type":"Feature"}
]
}
