{
"type": "FeatureCollection",
"features": [
	{"geometry":{"coordinates":[-1.291641,47.094831],"type":"Point"},"properties":{"osm_id":"1504130550","tag":{"amenity":"recycling","recycling:cans":"no","recycling:clothes":"yes","recycling:glass_bottles":"yes","recycling_type":"container"}},"type":"Feature"},
	{"geometry":{"coordinates":[-1.274557,47.08578],"type":"Point"},"properties":{"osm_id":"1768152842","tag":{"amenity":"waste_basket"}},"type":"Feature"},
	{"geometry":{"coordinates":[-1.277032,47.085791],"type":"Point"},"properties":{"osm_id":"1778253951","tag":{"amenity":"waste_basket"}},"type":"Feature"},
	{"geometry":{"coordinates":[-1.273499,47.085901],"type":"Point"},"properties":{"osm_id":"1778253952","tag":{"amenity":"waste_basket"}},"type":"Feature"},
	{"geometry":{"coordinates":[-1.275966,47.085298],"type":"Point"},"properties":{"osm_id":"1792374823","tag":{"amenity":"waste_basket"}},"type":"Feature"},
	{"geometry":{"coordinates":[-1.278282,47.093823],"type":"Point"},"properties":{"osm_id":"1805790825","tag":{"amenity":"recycling"}},"type":"Feature"},
	{"geometry":{"coordinates":[-1.24808,47.077353],"type":"Point"},"properties":{"osm_id":"1812589254","tag":{"amenity":"recycling"}},"type":"Feature"},
	{"geometry":{"coordinates":[-1.308245,47.060019],"type":"Point"},"properties":{"osm_id":"1960177238","tag":{"amenity":"recycling","recycling_type":"container"}},"type":"Feature"},
	{"geometry":{"coordinates":[-1.312884,47.060824],"type":"Point"},"properties":{"osm_id":"1967956480","tag":{"amenity":"recycling","fee":"no","opening_hours":"24/7","operator":"Clisson S\u00c3\u00a8vre et Maine Agglo","recycling:glass_bottles":"yes","recycling_type":"container"}},"type":"Feature"},
	{"geometry":{"coordinates":[-1.287237,47.083411],"type":"Point"},"properties":{"osm_id":"2143578408","tag":{"amenity":"recycling","recycling:glass":"yes","recycling_type":"container"}},"type":"Feature"},
	{"geometry":{"coordinates":[-1.276013,47.089167],"type":"Point"},"properties":{"osm_id":"2148111511","tag":{"amenity":"recycling","recycling:glass_bottles":"yes","recycling:paper":"yes","recycling_type":"container"}},"type":"Feature"},
	{"geometry":{"coordinates":[-1.267861,47.050321],"type":"Point"},"properties":{"osm_id":"2292704287","tag":{"amenity":"recycling","recycling:glass_bottles":"yes","recycling:paper":"yes","recycling_type":"container"}},"type":"Feature"},
	{"geometry":{"coordinates":[-1.282363,47.085288],"type":"Point"},"properties":{"osm_id":"2298454509","tag":{"amenity":"recycling","recycling:glass_bottles":"yes","recycling:paper":"yes","recycling_type":"container"}},"type":"Feature"},
	{"geometry":{"coordinates":[-1.291044,47.09221],"type":"Point"},"properties":{"osm_id":"2396470395","tag":{"amenity":"recycling","recycling:glass_bottles":"yes","recycling:paper":"yes","recycling_type":"container"}},"type":"Feature"},
	{"geometry":{"coordinates":[-1.266638,47.04697],"type":"Point"},"properties":{"osm_id":"2990474893","tag":{"amenity":"recycling","recycling:glass_bottles":"yes","recycling:paper":"yes","recycling_type":"container"}},"type":"Feature"},
	{"geometry":{"coordinates":[-1.305282,47.099764],"type":"Point"},"properties":{"osm_id":"3507346002","tag":{"amenity":"waste_basket"}},"type":"Feature"},
	{"geometry":{"coordinates":[-1.287249,47.085755],"type":"Point"},"properties":{"osm_id":"3508180890","tag":{"amenity":"waste_basket"}},"type":"Feature"},
	{"geometry":{"coordinates":[-1.301229,47.088465],"type":"Point"},"properties":{"osm_id":"3551486124","tag":{"amenity":"recycling","recycling:glass_bottles":"yes","recycling:paper":"yes","recycling_type":"container"}},"type":"Feature"},
	{"geometry":{"coordinates":[-1.296144,47.083973],"type":"Point"},"properties":{"osm_id":"3594197889","tag":{"amenity":"waste_disposal"}},"type":"Feature"},
	{"geometry":{"coordinates":[-1.279363,47.085346],"type":"Point"},"properties":{"osm_id":"3656930331","tag":{"amenity":"waste_basket"}},"type":"Feature"},
	{"geometry":{"coordinates":[-1.279783,47.086689],"type":"Point"},"properties":{"osm_id":"3656930393","tag":{"amenity":"waste_basket"}},"type":"Feature"},
	{"geometry":{"coordinates":[-1.283843,47.086533],"type":"Point"},"properties":{"osm_id":"3825550204","tag":{"amenity":"recycling","opening_hours":"24/7","operator":"Clisson S\u00c3\u00a8vre et Maine Agglo","recycling:cans":"no","recycling:clothes":"no","recycling:glass_bottles":"yes","recycling:paper":"no","recycling:plastic":"no","recycling_type":"container"}},"type":"Feature"},
	{"geometry":{"coordinates":[-1.308937,47.063037],"type":"Point"},"properties":{"osm_id":"4228967027","tag":{"amenity":"waste_basket"}},"type":"Feature"},
	{"geometry":{"coordinates":[-1.31042,47.091599],"type":"Point"},"properties":{"osm_id":"4228967190","tag":{"amenity":"recycling","recycling:glass_bottles":"yes","recycling_type":"container"}},"type":"Feature"},
	{"geometry":{"coordinates":[-1.254356,47.065447],"type":"Point"},"properties":{"osm_id":"4271702375","tag":{"amenity":"waste_basket"}},"type":"Feature"},
	{"geometry":{"coordinates":[-1.249831,47.075823],"type":"Point"},"properties":{"osm_id":"4275675015","tag":{"amenity":"waste_basket"}},"type":"Feature"},
	{"geometry":{"coordinates":[-1.289081,47.093111],"type":"Point"},"properties":{"osm_id":"4682054319","tag":{"amenity":"waste_basket"}},"type":"Feature"},
	{"geometry":{"coordinates":[-1.289161,47.093474],"type":"Point"},"properties":{"osm_id":"4682054321","tag":{"amenity":"waste_basket"}},"type":"Feature"},
	{"geometry":{"coordinates":[-1.289321,47.093863],"type":"Point"},"properties":{"osm_id":"4682054330","tag":{"amenity":"waste_basket"}},"type":"Feature"},
	{"geometry":{"coordinates":[-1.312907,47.060811],"type":"Point"},"properties":{"osm_id":"5072109795","tag":{"amenity":"recycling","fee":"no","opening_hours":"24/7","operator":"Le Relais","recycling:clothes":"yes","recycling_type":"container"}},"type":"Feature"},
	{"geometry":{"coordinates":[-1.312896,47.060816],"type":"Point"},"properties":{"osm_id":"5072109796","tag":{"amenity":"recycling","fee":"no","opening_hours":"24/7","operator":"Clisson S\u00c3\u00a8vre et Maine Agglo","recycling:paper":"yes","recycling_type":"container"}},"type":"Feature"},
	{"geometry":{"coordinates":[-1.280973,47.088017],"type":"Point"},"properties":{"osm_id":"5944845212","tag":{"amenity":"waste_basket"}},"type":"Feature"},
	{"geometry":{"coordinates":[-1.278649,47.089542],"type":"Point"},"properties":{"osm_id":"6420440498","tag":{"amenity":"waste_basket"}},"type":"Feature"},
	{"geometry":{"coordinates":[-1.27878,47.089553],"type":"Point"},"properties":{"osm_id":"6420440501","tag":{"amenity":"waste_basket"}},"type":"Feature"},
	{"geometry":{"coordinates":[-1.282954,47.095814],"type":"Point"},"properties":{"osm_id":"6569403075","tag":{"access":"customers","amenity":"recycling","recycling:cans":"yes","recycling:glass_bottles":"yes","recycling:paper":"yes","recycling:plastic_bottles":"yes","recycling:plastic_packaging":"yes","recycling:waste":"yes","recycling_type":"container"}},"type":"Feature"},
	{"geometry":{"coordinates":[-1.281991,47.097811],"type":"Point"},"properties":{"osm_id":"6573332700","tag":{"amenity":"recycling","recycling:clothes":"yes","recycling_type":"container"}},"type":"Feature"},
	{"geometry":{"coordinates":[-1.282838,47.077666],"type":"Point"},"properties":{"name":"La R\u00c3\u00a9cup\u00c3\u00a9rette","osm_id":"6582172285","tag":{"addr:city":"Clisson","addr:housenumber":"4","addr:postcode":"44190","addr:street":"Rue des Ch\u00c3\u00a2taigniers","amenity":"recycling","charity":"yes","contact:city":"Clisson","contact:email":"larecuperette@gmail.com","contact:facebook":"https://www.facebook.com/pages/La-R%C3%A9cup%C3%A9rette/1545686572345192","contact:housenumber":"4","contact:phone":"+33 7 81 95 54 13","contact:postcode":"44190","contact:street":"rue des Ch\u00c3\u00a2taigniers","contact:website":"http://larecuperette.jimdo.com/","description":"R\u00c3\u0089CUP\u00c3\u0088RE le mat\u00c3\u00a9riel en bon \u00c3\u00a9tat sauf : - D\u00c3\u00a9chets verts - Cartouches et toners d'imprimantes - K7 vid\u00c3\u00a9o - T\u00c3\u00a9l\u00c3\u00a9phones portables, chargeurs - T\u00c3\u00a9l\u00c3\u00a9viseurs, t\u00c3\u00a9l\u00c3\u00a9commandes - Mat\u00c3\u00a9riel informatique - V\u00c3\u00aatements sales ou ab\u00c3\u00aem\u00c3\u00a9s","image":"https://www.ouest-france.fr/sites/default/files/styles/image-640x360/public/2014/10/05/la-recuperette-se-structure-et-sinstalle-clisson.jpg?itok=pah-uB34","opening_hours":"We 09:00-13:00,14:00-18:00; Fr 09:00-13:00; Sa[2][4] 10:00-13:00,14:00-18:00; PH Off","operator":"Association La R\u00c3\u00a9cup\u00c3\u00a9rette","recycling:bicycles":"yes","recycling:books":"yes","recycling:cds":"yes","recycling:clothes":"yes","recycling:dishes":"yes","recycling:furniture":"yes","recycling:interior_decoration":"yes","recycling:shoes":"yes","recycling:small_electrical_appliances":"yes","recycling:toys":"yes","recycling_type":"centre","second_hand":"only","shop":"general","vending":"vaisselle et batterie de cuisine;outils de bricolage et de jardin;bibelots et objets de d\u00c3\u00a9coration;v\u00c3\u00aatements propres et en bon \u00c3\u00a9tat;jouets et mat\u00c3\u00a9riel de pu\u00c3\u00a9riculture;livres / cd / vinyles;meubles en bon \u00c3\u00a9tat;luminaires"}},"type":"Feature"},
	{"geometry":{"coordinates":[-1.270487,47.092502],"type":"Point"},"properties":{"name":"Bac a Compost","osm_id":"6697997722","tag":{"amenity":"waste_basket","waste":"trash"}},"type":"Feature"},
	{"geometry":{"coordinates":[-1.284256,47.086121],"type":"Point"},"properties":{"osm_id":"7195309875","tag":{"amenity":"waste_basket","waste":"trash"}},"type":"Feature"},
	{"geometry":{"coordinates":[-1.271199,47.091768],"type":"Point"},"properties":{"osm_id":"7249594979","tag":{"amenity":"waste_disposal","authentication:membership_card":"yes","authentication:none":"no","fee":"yes","opening_hours":"24/7","operator":"Clisson S\u00c3\u00a8vre et Maine Agglo"}},"type":"Feature"},
	{"geometry":{"coordinates":[-1.27118,47.091759],"type":"Point"},"properties":{"osm_id":"7249594980","tag":{"amenity":"waste_disposal","authentication:membership_card":"yes","authentication:none":"no","fee":"yes","opening_hours":"24/7","operator":"Clisson S\u00c3\u00a8vre et Maine Agglo"}},"type":"Feature"},
	{"geometry":{"coordinates":[-1.269181,47.092085],"type":"Point"},"properties":{"osm_id":"7249594981","tag":{"amenity":"waste_disposal","authentication:membership_card":"yes","authentication:none":"no","fee":"yes","opening_hours":"24/7","operator":"Clisson S\u00c3\u00a8vre et Maine Agglo"}},"type":"Feature"},
	{"geometry":{"coordinates":[-1.30271,47.088174],"type":"Point"},"properties":{"osm_id":"7249594982","tag":{"amenity":"recycling","location":"underground","opening_hours":"24/7","operator":"Clisson S\u00c3\u00a8vre et Maine Agglo","recycling:glass_bottles":"yes","recycling_type":"container"}},"type":"Feature"},
	{"geometry":{"coordinates":[-1.30271,47.088192],"type":"Point"},"properties":{"osm_id":"7249594983","tag":{"amenity":"waste_disposal","authentication:membership_card":"yes","authentication:none":"no","fee":"yes","location":"underground","opening_hours":"24/7","operator":"Clisson S\u00c3\u00a8vre et Maine Agglo"}},"type":"Feature"},
	{"geometry":{"coordinates":[-1.302743,47.088194],"type":"Point"},"properties":{"osm_id":"7249594984","tag":{"amenity":"waste_disposal","authentication:membership_card":"yes","authentication:none":"no","fee":"yes","location":"underground","opening_hours":"24/7","operator":"Clisson S\u00c3\u00a8vre et Maine Agglo"}},"type":"Feature"},
	{"geometry":{"coordinates":[-1.302744,47.088175],"type":"Point"},"properties":{"osm_id":"7249599485","tag":{"amenity":"recycling","location":"underground","opening_hours":"24/7","operator":"Clisson S\u00c3\u00a8vre et Maine Agglo","recycling:paper":"yes","recycling_type":"container"}},"type":"Feature"},
	{"geometry":{"coordinates":[-1.284994,47.08326],"type":"Point"},"properties":{"osm_id":"7249599486","tag":{"amenity":"waste_disposal","authentication:membership_card":"yes","authentication:none":"no","fee":"yes","location":"underground","opening_hours":"24/7","operator":"Clisson S\u00c3\u00a8vre et Maine Agglo"}},"type":"Feature"},
	{"geometry":{"coordinates":[-1.284978,47.083271],"type":"Point"},"properties":{"osm_id":"7249599487","tag":{"amenity":"waste_disposal","authentication:membership_card":"yes","authentication:none":"no","fee":"yes","location":"underground","opening_hours":"24/7","operator":"Clisson S\u00c3\u00a8vre et Maine Agglo"}},"type":"Feature"},
	{"geometry":{"coordinates":[-1.283843,47.086545],"type":"Point"},"properties":{"osm_id":"7249599488","tag":{"amenity":"waste_disposal","authentication:membership_card":"yes","authentication:none":"no","fee":"yes","location":"underground","opening_hours":"24/7","operator":"Clisson S\u00c3\u00a8vre et Maine Agglo"}},"type":"Feature"},
	{"geometry":{"coordinates":[-1.283845,47.086522],"type":"Point"},"properties":{"osm_id":"7249599489","tag":{"amenity":"recycling","location":"underground","opening_hours":"24/7","operator":"Clisson S\u00c3\u00a8vre et Maine Agglo","recycling:paper":"yes","recycling_type":"container"}},"type":"Feature"},
	{"geometry":{"coordinates":[-1.312901,47.06082],"type":"Point"},"properties":{"osm_id":"7874920100","tag":{"amenity":"recycling","fee":"no","opening_hours":"24/7","operator":"Clisson S\u00c3\u00a8vre et Maine Agglo","recycling:paper":"yes","recycling_type":"container"}},"type":"Feature"},
	{"geometry":{"coordinates":[-1.253068,47.058791],"type":"Point"},"properties":{"osm_id":"8094025733","tag":{"amenity":"recycling","recycling:clothes":"yes","recycling:glass":"no","recycling:glass_bottles":"yes","recycling:paper":"yes","recycling_type":"container"}},"type":"Feature"},
	{"geometry":{"coordinates":[-1.255362,47.066138],"type":"Point"},"properties":{"osm_id":"8094025734","tag":{"amenity":"recycling","recycling:glass":"no","recycling:glass_bottles":"yes","recycling_type":"container"}},"type":"Feature"},
	{"geometry":{"coordinates":[-1.2512,47.067489],"type":"Point"},"properties":{"osm_id":"8094471654","tag":{"amenity":"waste_basket"}},"type":"Feature"},
	{"geometry":{"coordinates":[-1.252659,47.064904],"type":"Point"},"properties":{"osm_id":"8121207921","tag":{"amenity":"waste_basket"}},"type":"Feature"},
	{"geometry":{"coordinates":[-1.249036,47.067444],"type":"Point"},"properties":{"osm_id":"8121242162","tag":{"amenity":"waste_basket"}},"type":"Feature"},
	{"geometry":{"coordinates":[-1.248814,47.067831],"type":"Point"},"properties":{"osm_id":"8121259916","tag":{"amenity":"waste_basket"}},"type":"Feature"},
	{"geometry":{"coordinates":[-1.255288,47.074301],"type":"Point"},"properties":{"osm_id":"8121291302","tag":{"amenity":"waste_basket"}},"type":"Feature"},
	{"geometry":{"coordinates":[-1.254873,47.073009],"type":"Point"},"properties":{"osm_id":"8121297393","tag":{"amenity":"waste_basket"}},"type":"Feature"},
	{"geometry":{"coordinates":[-1.254555,47.073269],"type":"Point"},"properties":{"osm_id":"8121299928","tag":{"amenity":"waste_basket"}},"type":"Feature"},
	{"geometry":{"coordinates":[-1.254074,47.074474],"type":"Point"},"properties":{"osm_id":"8121319046","tag":{"amenity":"waste_basket"}},"type":"Feature"},
	{"geometry":{"coordinates":[-1.254412,47.066357],"type":"Point"},"properties":{"osm_id":"8121373591","tag":{"amenity":"waste_basket"}},"type":"Feature"},
	{"geometry":{"coordinates":[-1.254583,47.063466],"type":"Point"},"properties":{"osm_id":"8121394772","tag":{"amenity":"waste_basket"}},"type":"Feature"},
	{"geometry":{"coordinates":[-1.250526,47.069204],"type":"Point"},"properties":{"osm_id":"8121431630","tag":{"amenity":"waste_basket"}},"type":"Feature"},
	{"geometry":{"coordinates":[-1.250301,47.065709],"type":"Point"},"properties":{"osm_id":"8121714805","tag":{"amenity":"waste_basket"}},"type":"Feature"},
	{"geometry":{"coordinates":[-1.278473,47.084074],"type":"Point"},"properties":{"osm_id":"8142491390","tag":{"amenity":"recycling"}},"type":"Feature"},
	{"geometry":{"coordinates":[-1.278465,47.084059],"type":"Point"},"properties":{"osm_id":"8142509119","tag":{"amenity":"recycling"}},"type":"Feature"},
	{"geometry":{"coordinates":[-1.278444,47.084032],"type":"Point"},"properties":{"osm_id":"8142509827","tag":{"amenity":"recycling"}},"type":"Feature"},
	{"geometry":{"coordinates":[-1.234327,47.058497],"type":"Point"},"properties":{"osm_id":"8176037218","tag":{"amenity":"recycling","location":"underground","recycling_type":"container"}},"type":"Feature"},
	{"geometry":{"coordinates":[-1.257881,47.061642],"type":"Point"},"properties":{"osm_id":"8176516099","tag":{"amenity":"recycling"}},"type":"Feature"},
	{"geometry":{"coordinates":[-1.263185,47.067499],"type":"Point"},"properties":{"osm_id":"8176586136","tag":{"amenity":"waste_basket"}},"type":"Feature"},
	{"geometry":{"coordinates":[-1.257877,47.061633],"type":"Point"},"properties":{"osm_id":"8177565376","tag":{"amenity":"recycling","recycling:paper":"yes","recycling_type":"container"}},"type":"Feature"},
	{"geometry":{"coordinates":[-1.263348,47.066677],"type":"Point"},"properties":{"osm_id":"8177574263","tag":{"amenity":"recycling","recycling:clothes":"yes","recycling_type":"container"}},"type":"Feature"},
	{"geometry":{"coordinates":[-1.263363,47.066659],"type":"Point"},"properties":{"osm_id":"8177574264","tag":{"amenity":"recycling","recycling:paper":"yes","recycling_type":"container"}},"type":"Feature"},
	{"geometry":{"coordinates":[-1.263379,47.06664],"type":"Point"},"properties":{"osm_id":"8177574265","tag":{"amenity":"recycling","recycling:glass_bottles":"yes","recycling_type":"container"}},"type":"Feature"},
	{"geometry":{"coordinates":[-1.255344,47.066151],"type":"Point"},"properties":{"osm_id":"8177574359","tag":{"amenity":"recycling","recycling:paper":"yes","recycling_type":"container"}},"type":"Feature"},
	{"geometry":{"coordinates":[-1.255373,47.066112],"type":"Point"},"properties":{"osm_id":"8177574360","tag":{"amenity":"recycling","recycling:clothes":"yes","recycling_type":"container"}},"type":"Feature"},
	{"geometry":{"coordinates":[-1.251909,47.074296],"type":"Point"},"properties":{"osm_id":"8196442196","tag":{"amenity":"waste_basket"}},"type":"Feature"},
	{"geometry":{"coordinates":[-1.251844,47.074394],"type":"Point"},"properties":{"osm_id":"8196459352","tag":{"amenity":"waste_basket"}},"type":"Feature"},
	{"geometry":{"coordinates":[-1.282719,47.088361],"type":"Point"},"properties":{"osm_id":"8205238173","tag":{"amenity":"waste_basket"}},"type":"Feature"},
	{"geometry":{"coordinates":[-1.248026,47.078121],"type":"Point"},"properties":{"osm_id":"8243399165","tag":{"amenity":"waste_basket"}},"type":"Feature"},
	{"geometry":{"coordinates":[-1.255545,47.078952],"type":"Point"},"properties":{"osm_id":"8243415155","tag":{"amenity":"recycling","recycling:paper":"yes"}},"type":"Feature"},
	{"geometry":{"coordinates":[-1.252833,47.078764],"type":"Point"},"properties":{"osm_id":"8243415784","tag":{"amenity":"waste_basket"}},"type":"Feature"},
	{"geometry":{"coordinates":[-1.253014,47.078165],"type":"Point"},"properties":{"osm_id":"8243423954","tag":{"amenity":"waste_basket"}},"type":"Feature"},
	{"geometry":{"coordinates":[-1.250661,47.075221],"type":"Point"},"properties":{"osm_id":"8243426034","tag":{"amenity":"waste_basket"}},"type":"Feature"},
	{"geometry":{"coordinates":[-1.246364,47.078676],"type":"Point"},"properties":{"osm_id":"8243426735","tag":{"amenity":"recycling","recycling:glass_bottles":"yes"}},"type":"Feature"},
	{"geometry":{"coordinates":[-1.255548,47.07894],"type":"Point"},"properties":{"osm_id":"8243426736","tag":{"amenity":"recycling","recycling:waste":"yes"}},"type":"Feature"},
	{"geometry":{"coordinates":[-1.252078,47.075555],"type":"Point"},"properties":{"osm_id":"8243427325","tag":{"amenity":"waste_basket"}},"type":"Feature"},
	{"geometry":{"coordinates":[-1.249643,47.075179],"type":"Point"},"properties":{"osm_id":"8243430252","tag":{"amenity":"waste_basket"}},"type":"Feature"},
	{"geometry":{"coordinates":[-1.261131,47.085427],"type":"Point"},"properties":{"osm_id":"8243430741","tag":{"amenity":"waste_basket"}},"type":"Feature"},
	{"geometry":{"coordinates":[-1.251109,47.076038],"type":"Point"},"properties":{"osm_id":"8243431174","tag":{"amenity":"waste_basket"}},"type":"Feature"},
	{"geometry":{"coordinates":[-1.250671,47.076305],"type":"Point"},"properties":{"osm_id":"8243432529","tag":{"amenity":"waste_basket"}},"type":"Feature"},
	{"geometry":{"coordinates":[-1.250795,47.07634],"type":"Point"},"properties":{"osm_id":"8243433079","tag":{"amenity":"waste_basket"}},"type":"Feature"},
	{"geometry":{"coordinates":[-1.251969,47.076418],"type":"Point"},"properties":{"osm_id":"8243433125","tag":{"amenity":"waste_basket"}},"type":"Feature"},
	{"geometry":{"coordinates":[-1.252853,47.078475],"type":"Point"},"properties":{"osm_id":"8243435540","tag":{"amenity":"waste_basket"}},"type":"Feature"},
	{"geometry":{"coordinates":[-1.247964,47.075715],"type":"Point"},"properties":{"osm_id":"8243436421","tag":{"amenity":"waste_basket"}},"type":"Feature"},
	{"geometry":{"coordinates":[-1.2523,47.078135],"type":"Point"},"properties":{"osm_id":"8243999943","tag":{"amenity":"recycling","recycling:paper":"yes","recycling_type":"container"}},"type":"Feature"},
	{"geometry":{"coordinates":[-1.252306,47.078123],"type":"Point"},"properties":{"osm_id":"8243999944","tag":{"amenity":"recycling","recycling:waste":"yes","recycling_type":"container"}},"type":"Feature"},
	{"geometry":{"coordinates":[-1.25231,47.078115],"type":"Point"},"properties":{"osm_id":"8243999945","tag":{"amenity":"recycling","recycling:waste":"yes","recycling_type":"container"}},"type":"Feature"},
	{"geometry":{"coordinates":[-1.252315,47.078105],"type":"Point"},"properties":{"osm_id":"8243999946","tag":{"amenity":"recycling","recycling:glass_bottles":"yes","recycling_type":"container"}},"type":"Feature"},
	{"geometry":{"coordinates":[-1.24839,47.076741],"type":"Point"},"properties":{"osm_id":"8243999983","tag":{"amenity":"waste_basket"}},"type":"Feature"},
	{"geometry":{"coordinates":[-1.248335,47.076968],"type":"Point"},"properties":{"osm_id":"8243999988","tag":{"amenity":"recycling","recycling:glass_bottles":"yes","recycling_type":"container"}},"type":"Feature"},
	{"geometry":{"coordinates":[-1.248343,47.07696],"type":"Point"},"properties":{"osm_id":"8243999989","tag":{"amenity":"recycling","recycling:paper":"yes","recycling_type":"container"}},"type":"Feature"},
	{"geometry":{"coordinates":[-1.24835,47.076952],"type":"Point"},"properties":{"osm_id":"8243999990","tag":{"amenity":"recycling","recycling:waste":"yes","recycling_type":"container"}},"type":"Feature"},
	{"geometry":{"coordinates":[-1.248356,47.076947],"type":"Point"},"properties":{"osm_id":"8243999991","tag":{"amenity":"recycling","recycling:waste":"yes","recycling_type":"container"}},"type":"Feature"},
	{"geometry":{"coordinates":[-1.24935,47.075496],"type":"Point"},"properties":{"osm_id":"8244000078","tag":{"amenity":"waste_basket"}},"type":"Feature"}
]
}
