{
"type": "FeatureCollection",
"features": [
	{"geometry":{"coordinates":[-1.29758,46.671963],"type":"Point"},"properties":{"osm_id":"1260777704","tag":{"amenity":"waste_basket","waste":"cigarette"}},"type":"Feature"},
	{"geometry":{"coordinates":[-1.301125,46.664083],"type":"Point"},"properties":{"osm_id":"3439447350","tag":{"amenity":"waste_basket"}},"type":"Feature"},
	{"geometry":{"coordinates":[-1.29947,46.665206],"type":"Point"},"properties":{"osm_id":"3439447368","tag":{"amenity":"waste_basket"}},"type":"Feature"},
	{"geometry":{"coordinates":[-1.292419,46.672784],"type":"Point"},"properties":{"osm_id":"3635754979","tag":{"amenity":"waste_basket"}},"type":"Feature"},
	{"geometry":{"coordinates":[-1.293531,46.672969],"type":"Point"},"properties":{"osm_id":"3635754980","tag":{"amenity":"waste_basket"}},"type":"Feature"},
	{"geometry":{"coordinates":[-1.288652,46.672258],"type":"Point"},"properties":{"osm_id":"3775256579","tag":{"amenity":"recycling","recycling:glass":"yes","recycling_type":"container"}},"type":"Feature"},
	{"geometry":{"coordinates":[-1.298457,46.673478],"type":"Point"},"properties":{"osm_id":"3775256580","tag":{"amenity":"recycling","recycling:glass":"yes","recycling_type":"container"}},"type":"Feature"},
	{"geometry":{"coordinates":[-1.292605,46.671857],"type":"Point"},"properties":{"osm_id":"3783592467","tag":{"amenity":"waste_basket"}},"type":"Feature"},
	{"geometry":{"coordinates":[-1.296987,46.672597],"type":"Point"},"properties":{"osm_id":"3790160863","tag":{"amenity":"waste_basket"}},"type":"Feature"},
	{"geometry":{"coordinates":[-1.297066,46.672027],"type":"Point"},"properties":{"osm_id":"3790252223","tag":{"amenity":"waste_basket","waste":"cigarette"}},"type":"Feature"},
	{"geometry":{"coordinates":[-1.29703,46.672196],"type":"Point"},"properties":{"osm_id":"3790252227","tag":{"amenity":"recycling","recycling:plastic_caps":"yes","recycling_type":"container"}},"type":"Feature"},
	{"geometry":{"coordinates":[-1.297221,46.672406],"type":"Point"},"properties":{"osm_id":"3790252230","tag":{"amenity":"recycling","operator":"La Croix-Rouge Fran\u00c3\u00a7aise","recycling:clothes":"yes","recycling_type":"container"}},"type":"Feature"},
	{"geometry":{"coordinates":[-1.297178,46.671826],"type":"Point"},"properties":{"osm_id":"3790282306","tag":{"amenity":"waste_basket","waste":"cigarette"}},"type":"Feature"},
	{"geometry":{"coordinates":[-1.29012,46.673182],"type":"Point"},"properties":{"osm_id":"3790294970","tag":{"amenity":"waste_basket","waste":"cigarette"}},"type":"Feature"},
	{"geometry":{"coordinates":[-1.233114,46.657229],"type":"Point"},"properties":{"osm_id":"6481999319","tag":{"amenity":"waste_basket","waste":"trash"}},"type":"Feature"}
]
}
