{
"type": "FeatureCollection",
"features": [
	{"geometry":{"coordinates":[-1.243861,44.629048],"type":"Point"},"properties":{"osm_id":"5543309886","tag":{"amenity":"waste_disposal"}},"type":"Feature"},
	{"geometry":{"coordinates":[-1.247511,44.62576],"type":"Point"},"properties":{"osm_id":"5543319700","tag":{"amenity":"waste_disposal"}},"type":"Feature"},
	{"geometry":{"coordinates":[-1.247058,44.628956],"type":"Point"},"properties":{"osm_id":"5543335890","tag":{"addr:city":"Ledge-Cap-Ferret","addr:postcode":"33950","addr:street":"Angle Franchise et S\u00c3\u00a9maphore","amenity":"waste_disposal","description":"Bacs \u00c3\u00a0 d\u00c3\u00a9chets m\u00c3\u00a9nagers, recyclables et verre"}},"type":"Feature"},
	{"geometry":{"coordinates":[-1.248852,44.634694],"type":"Point"},"properties":{"osm_id":"5543338286","tag":{"amenity":"waste_disposal","description":"D\u00c3\u00a9chets m\u00c3\u00a9nagers uniquement"}},"type":"Feature"},
	{"geometry":{"coordinates":[-1.248258,44.632337],"type":"Point"},"properties":{"osm_id":"5543340197","tag":{"amenity":"waste_disposal","description":"D\u00c3\u00a9chets m\u00c3\u00a9nagers, recyclables et verre"}},"type":"Feature"},
	{"geometry":{"coordinates":[-1.245237,44.646726],"type":"Point"},"properties":{"osm_id":"6848247604","tag":{"amenity":"waste_basket"}},"type":"Feature"}
]
}
