{
"type": "FeatureCollection",
"features": [
	{"geometry":{"coordinates":[-1.238873,44.04516],"type":"Point"},"properties":{"osm_id":"4826713071","tag":{"addr:city":"Saint-Julien-en-Born","addr:postcode":"40170","amenity":"recycling","recycling:aluminium":"yes","recycling:batteries":"yes","recycling:beverage_cartons":"yes","recycling:cans":"yes","recycling:cardboard":"yes","recycling:cartons":"yes","recycling:clothes":"yes","recycling:electrical_appliances":"yes","recycling:glass":"yes","recycling:glass_bottles":"yes","recycling:green_waste":"yes","recycling:newspaper":"yes","recycling:organic":"yes","recycling:paper":"yes","recycling:paper_packaging":"yes","recycling:plastic":"yes","recycling:plastic_bottles":"yes","recycling:plastic_packaging":"yes","recycling:scrap_metal":"yes","recycling:small_appliances":"yes","recycling:tyres":"yes","recycling:waste":"yes","recycling:wood":"yes","recycling_type":"centre","wheelchair":"limited"}},"type":"Feature"},
	{"geometry":{"coordinates":[-1.261627,44.081022],"type":"Point"},"properties":{"osm_id":"6045788823","tag":{"amenity":"waste_disposal"}},"type":"Feature"},
	{"geometry":{"coordinates":[-1.273046,44.040877],"type":"Point"},"properties":{"osm_id":"7440802327","tag":{"amenity":"recycling","operator":"SITCOM - C\u00c3\u00b4te sud des Landes","operator:wikidata":"Q90819597","recycling:batteries":"yes","recycling:cans":"yes","recycling:glass_bottles":"yes","recycling:paper":"yes","recycling:paper_packaging":"yes","recycling:plastic_bottles":"yes","recycling_type":"container","ref:FR:SITCOM":"PAV-395341"}},"type":"Feature"},
	{"geometry":{"coordinates":[-1.313227,44.07821],"type":"Point"},"properties":{"osm_id":"7440802329","tag":{"amenity":"recycling","operator":"SITCOM - C\u00c3\u00b4te sud des Landes","operator:wikidata":"Q90819597","recycling:cans":"yes","recycling:glass_bottles":"yes","recycling:paper":"yes","recycling:paper_packaging":"yes","recycling:plastic_bottles":"yes","recycling_type":"container","ref:FR:SITCOM":"PAV-403141"}},"type":"Feature"},
	{"geometry":{"coordinates":[-1.256137,44.032004],"type":"Point"},"properties":{"osm_id":"7440802332","tag":{"amenity":"waste_disposal","operator":"SITCOM - C\u00c3\u00b4te sud des Landes","operator:wikidata":"Q90819597","ref:FR:SITCOM":"PAV-398544"}},"type":"Feature"},
	{"geometry":{"coordinates":[-1.249363,44.036741],"type":"Point"},"properties":{"osm_id":"7440802338","tag":{"amenity":"waste_disposal","operator":"SITCOM - C\u00c3\u00b4te sud des Landes","operator:wikidata":"Q90819597","ref:FR:SITCOM":"PAV-470241"}},"type":"Feature"},
	{"geometry":{"coordinates":[-1.23385,44.071027],"type":"Point"},"properties":{"osm_id":"7440802346","tag":{"amenity":"waste_disposal","operator":"SITCOM - C\u00c3\u00b4te sud des Landes","operator:wikidata":"Q90819597","ref:FR:SITCOM":"PAV-394842"}},"type":"Feature"},
	{"geometry":{"coordinates":[-1.312511,44.080328],"type":"Point"},"properties":{"osm_id":"7440802355","tag":{"amenity":"recycling","operator":"SITCOM - C\u00c3\u00b4te sud des Landes","operator:wikidata":"Q90819597","recycling:batteries":"yes","recycling:cans":"yes","recycling:glass_bottles":"yes","recycling:paper":"yes","recycling:paper_packaging":"yes","recycling:plastic_bottles":"yes","recycling_type":"container","ref:FR:SITCOM":"PAV-374296"}},"type":"Feature"},
	{"geometry":{"coordinates":[-1.262115,44.032945],"type":"Point"},"properties":{"osm_id":"7440802362","tag":{"amenity":"recycling","operator":"SITCOM - C\u00c3\u00b4te sud des Landes","operator:wikidata":"Q90819597","recycling:cans":"yes","recycling:glass_bottles":"yes","recycling:paper":"yes","recycling:paper_packaging":"yes","recycling:plastic_bottles":"yes","recycling_type":"container","ref:FR:SITCOM":"PAV-441142"}},"type":"Feature"},
	{"geometry":{"coordinates":[-1.231698,44.07301],"type":"Point"},"properties":{"osm_id":"7440802368","tag":{"access":"customers","amenity":"recycling","operator":"SITCOM - C\u00c3\u00b4te sud des Landes","operator:wikidata":"Q90819597","recycling:cans":"yes","recycling:glass_bottles":"yes","recycling:paper":"yes","recycling:paper_packaging":"yes","recycling:plastic_bottles":"yes","recycling_type":"container","ref:FR:SITCOM":"PAV-374378"}},"type":"Feature"},
	{"geometry":{"coordinates":[-1.258404,44.079147],"type":"Point"},"properties":{"osm_id":"7440802372","tag":{"amenity":"recycling","operator":"SITCOM - C\u00c3\u00b4te sud des Landes","operator:wikidata":"Q90819597","recycling:batteries":"yes","recycling:cans":"yes","recycling:glass_bottles":"yes","recycling:paper":"yes","recycling:paper_packaging":"yes","recycling:plastic_bottles":"yes","recycling_type":"container","ref:FR:SITCOM":"PAV-374262"}},"type":"Feature"},
	{"geometry":{"coordinates":[-1.234208,44.069046],"type":"Point"},"properties":{"osm_id":"7440802377","tag":{"amenity":"recycling","operator":"SITCOM - C\u00c3\u00b4te sud des Landes","operator:wikidata":"Q90819597","recycling:batteries":"yes","recycling:cans":"yes","recycling:glass_bottles":"yes","recycling:paper":"yes","recycling:paper_packaging":"yes","recycling:plastic_bottles":"yes","recycling_type":"container","ref:FR:SITCOM":"PAV-374350"}},"type":"Feature"},
	{"geometry":{"coordinates":[-1.259473,44.034854],"type":"Point"},"properties":{"osm_id":"7440802378","tag":{"amenity":"recycling","operator":"SITCOM - C\u00c3\u00b4te sud des Landes","operator:wikidata":"Q90819597","recycling:batteries":"yes","recycling:cans":"yes","recycling:glass_bottles":"yes","recycling:paper":"yes","recycling:paper_packaging":"yes","recycling:plastic_bottles":"yes","recycling_type":"container","ref:FR:SITCOM":"PAV-374301"}},"type":"Feature"},
	{"geometry":{"coordinates":[-1.261765,44.080971],"type":"Point"},"properties":{"osm_id":"7440803493","tag":{"amenity":"recycling","operator":"SITCOM - C\u00c3\u00b4te sud des Landes","operator:wikidata":"Q90819597","recycling:batteries":"yes","recycling:cans":"yes","recycling:glass_bottles":"yes","recycling:paper":"yes","recycling:paper_packaging":"yes","recycling:plastic_bottles":"yes","recycling_type":"container","ref:FR:SITCOM":"PAV-374264"}},"type":"Feature"},
	{"geometry":{"coordinates":[-1.257707,44.029763],"type":"Point"},"properties":{"osm_id":"7440803495","tag":{"access":"customers","amenity":"recycling","operator":"SITCOM - C\u00c3\u00b4te sud des Landes","operator:wikidata":"Q90819597","recycling:cans":"yes","recycling:glass_bottles":"yes","recycling:paper":"yes","recycling:paper_packaging":"yes","recycling:plastic_bottles":"yes","recycling_type":"container","ref:FR:SITCOM":"PAV-374357"}},"type":"Feature"},
	{"geometry":{"coordinates":[-1.238712,44.045276],"type":"Point"},"properties":{"osm_id":"7440803499","tag":{"access":"customers","amenity":"recycling","operator":"SITCOM - C\u00c3\u00b4te sud des Landes","operator:wikidata":"Q90819597","recycling:cans":"yes","recycling:glass_bottles":"yes","recycling:paper":"yes","recycling:paper_packaging":"yes","recycling:plastic_bottles":"yes","recycling_type":"container","ref:FR:SITCOM":"PAV-374586"}},"type":"Feature"},
	{"geometry":{"coordinates":[-1.313235,44.078144],"type":"Point"},"properties":{"osm_id":"7592150198","tag":{"amenity":"waste_disposal","operator":"SITCOM - C\u00c3\u00b4te sud des Landes","operator:wikidata":"Q90819597","ref:FR:SITCOM":"PAV-403141"}},"type":"Feature"},
	{"geometry":{"coordinates":[-1.273056,44.040926],"type":"Point"},"properties":{"osm_id":"7592150201","tag":{"amenity":"waste_disposal","operator":"SITCOM - C\u00c3\u00b4te sud des Landes","operator:wikidata":"Q90819597","ref:FR:SITCOM":"PAV-395341"}},"type":"Feature"},
	{"geometry":{"coordinates":[-1.262123,44.032924],"type":"Point"},"properties":{"osm_id":"7592150263","tag":{"amenity":"waste_disposal","operator":"SITCOM - C\u00c3\u00b4te sud des Landes","operator:wikidata":"Q90819597","ref:FR:SITCOM":"PAV-441142"}},"type":"Feature"},
	{"geometry":{"coordinates":[-1.231695,44.072992],"type":"Point"},"properties":{"osm_id":"7592150285","tag":{"access":"customers","amenity":"waste_disposal","operator":"SITCOM - C\u00c3\u00b4te sud des Landes","operator:wikidata":"Q90819597","ref:FR:SITCOM":"PAV-374378"}},"type":"Feature"},
	{"geometry":{"coordinates":[-1.26165,44.080995],"type":"Point"},"properties":{"osm_id":"7592150299","tag":{"amenity":"waste_disposal","operator":"SITCOM - C\u00c3\u00b4te sud des Landes","operator:wikidata":"Q90819597","ref:FR:SITCOM":"PAV-374264"}},"type":"Feature"},
	{"geometry":{"coordinates":[-1.257171,44.033471],"type":"Point"},"properties":{"osm_id":"8629403845","tag":{"amenity":"waste_disposal"}},"type":"Feature"},
	{"geometry":{"coordinates":[-1.259405,44.025411],"type":"Point"},"properties":{"osm_id":"8980214156","tag":{"amenity":"recycling","recycling_type":"container"}},"type":"Feature"}
]
}
