{
"type": "FeatureCollection",
"features": [
	{"geometry":{"coordinates":[-1.308214,43.911176],"type":"Point"},"properties":{"osm_id":"2956913064","tag":{"amenity":"waste_disposal"}},"type":"Feature"},
	{"geometry":{"coordinates":[-1.306085,43.915873],"type":"Point"},"properties":{"name":"Stade","osm_id":"2986538133","tag":{"amenity":"recycling","operator":"SITCOM - C\u00c3\u00b4te sud des Landes","operator:wikidata":"Q90819597","recycling:batteries":"yes","recycling:cans":"yes","recycling:glass_bottles":"yes","recycling:paper":"yes","recycling:paper_packaging":"yes","recycling:plastic_bottles":"yes","recycling_type":"container","ref:FR:SITCOM":"PAV-374310"}},"type":"Feature"},
	{"geometry":{"coordinates":[-1.312461,43.903375],"type":"Point"},"properties":{"name":"Col Vert","osm_id":"2987339833","tag":{"access":"customers","amenity":"recycling","operator":"SITCOM - C\u00c3\u00b4te sud des Landes","operator:wikidata":"Q90819597","recycling:batteries":"yes","recycling:cans":"yes","recycling:glass_bottles":"yes","recycling:paper":"yes","recycling:paper_packaging":"yes","recycling:plastic_bottles":"yes","recycling_type":"container","ref:FR:SITCOM":"PAV-397041"}},"type":"Feature"},
	{"geometry":{"coordinates":[-1.312949,43.911927],"type":"Point"},"properties":{"osm_id":"4340846944","tag":{"amenity":"waste_disposal"}},"type":"Feature"},
	{"geometry":{"coordinates":[-1.252472,43.920388],"type":"Point"},"properties":{"name":"lot clos Marilys","osm_id":"7440802321","tag":{"amenity":"waste_disposal","operator":"SITCOM - C\u00c3\u00b4te sud des Landes","operator:wikidata":"Q90819597","ref:FR:SITCOM":"PAV-480041"}},"type":"Feature"},
	{"geometry":{"coordinates":[-1.312651,43.912456],"type":"Point"},"properties":{"name":"Airial Des Genets","osm_id":"7440802336","tag":{"amenity":"waste_disposal","operator":"SITCOM - C\u00c3\u00b4te sud des Landes","operator:wikidata":"Q90819597","ref:FR:SITCOM":"PAV-399941"}},"type":"Feature"},
	{"geometry":{"coordinates":[-1.30171,43.947667],"type":"Point"},"properties":{"name":"station St Girons","osm_id":"7440802339","tag":{"amenity":"recycling","operator":"SITCOM - C\u00c3\u00b4te sud des Landes","operator:wikidata":"Q90819597","recycling:cans":"yes","recycling:glass_bottles":"yes","recycling:paper":"yes","recycling:paper_packaging":"yes","recycling:plastic_bottles":"yes","recycling_type":"container","ref:FR:SITCOM":"PAV-492141"}},"type":"Feature"},
	{"geometry":{"coordinates":[-1.301342,43.94885],"type":"Point"},"properties":{"name":"Place de la Mairie","osm_id":"7440802343","tag":{"amenity":"recycling","operator":"SITCOM - C\u00c3\u00b4te sud des Landes","operator:wikidata":"Q90819597","recycling:glass_bottles":"yes","recycling_type":"container","ref:FR:SITCOM":"PAV-374341"}},"type":"Feature"},
	{"geometry":{"coordinates":[-1.288264,43.948142],"type":"Point"},"properties":{"name":"lotissement l'arrayade","osm_id":"7440802348","tag":{"amenity":"waste_disposal","operator":"SITCOM - C\u00c3\u00b4te sud des Landes","operator:wikidata":"Q90819597","ref:FR:SITCOM":"PAV-487941"}},"type":"Feature"},
	{"geometry":{"coordinates":[-1.253677,43.923317],"type":"Point"},"properties":{"name":"Lot Cassagnon","osm_id":"7440802354","tag":{"amenity":"waste_disposal","operator":"SITCOM - C\u00c3\u00b4te sud des Landes","operator:wikidata":"Q90819597","ref:FR:SITCOM":"PAV-394041"}},"type":"Feature"},
	{"geometry":{"coordinates":[-1.257374,43.927412],"type":"Point"},"properties":{"name":"Lot Gougon","osm_id":"7440802361","tag":{"amenity":"waste_disposal","operator":"SITCOM - C\u00c3\u00b4te sud des Landes","operator:wikidata":"Q90819597","ref:FR:SITCOM":"PAV-423141"}},"type":"Feature"},
	{"geometry":{"coordinates":[-1.25897,43.90086],"type":"Point"},"properties":{"name":"Bourg","osm_id":"7440802364","tag":{"amenity":"recycling","operator":"SITCOM - C\u00c3\u00b4te sud des Landes","operator:wikidata":"Q90819597","recycling:batteries":"yes","recycling:cans":"yes","recycling:glass_bottles":"yes","recycling:paper":"yes","recycling:paper_packaging":"yes","recycling:plastic_bottles":"yes","recycling_type":"container","ref:FR:SITCOM":"PAV-374161"}},"type":"Feature"},
	{"geometry":{"coordinates":[-1.248609,43.922943],"type":"Point"},"properties":{"name":"R Des Resiniers","osm_id":"7440802365","tag":{"amenity":"recycling","operator":"SITCOM - C\u00c3\u00b4te sud des Landes","operator:wikidata":"Q90819597","recycling:batteries":"yes","recycling:cans":"yes","recycling:glass_bottles":"yes","recycling:paper":"yes","recycling:paper_packaging":"yes","recycling:plastic_bottles":"yes","recycling_type":"container","ref:FR:SITCOM":"PAV-374235"}},"type":"Feature"},
	{"geometry":{"coordinates":[-1.29447,43.913985],"type":"Point"},"properties":{"name":"Dechetterie","osm_id":"7440802380","tag":{"amenity":"recycling","operator":"SITCOM - C\u00c3\u00b4te sud des Landes","operator:wikidata":"Q90819597","recycling:cans":"yes","recycling:glass_bottles":"yes","recycling:paper":"yes","recycling:paper_packaging":"yes","recycling:plastic_bottles":"yes","recycling_type":"container","ref:FR:SITCOM":"PAV-374572"}},"type":"Feature"},
	{"geometry":{"coordinates":[-1.245077,43.917251],"type":"Point"},"properties":{"name":"Sej Belle Epoque","osm_id":"7440802381","tag":{"access":"customers","amenity":"recycling","operator":"SITCOM - C\u00c3\u00b4te sud des Landes","operator:wikidata":"Q90819597","recycling:glass_bottles":"yes","recycling:paper_packaging":"yes","recycling:plastic_bottles":"yes","recycling_type":"container","ref:FR:SITCOM":"PAV-374318"}},"type":"Feature"},
	{"geometry":{"coordinates":[-1.255957,43.927576],"type":"Point"},"properties":{"name":"Leclerc Express","osm_id":"7440802382","tag":{"amenity":"recycling","operator":"SITCOM - C\u00c3\u00b4te sud des Landes","operator:wikidata":"Q90819597","recycling:batteries":"yes","recycling:cans":"yes","recycling:glass_bottles":"yes","recycling:paper":"yes","recycling:paper_packaging":"yes","recycling:plastic_bottles":"yes","recycling_type":"container","ref:FR:SITCOM":"PAV-374229"}},"type":"Feature"},
	{"geometry":{"coordinates":[-1.305904,43.921869],"type":"Point"},"properties":{"name":"C.Oceane","osm_id":"7440803498","tag":{"access":"customers","amenity":"recycling","operator":"SITCOM - C\u00c3\u00b4te sud des Landes","operator:wikidata":"Q90819597","recycling:batteries":"yes","recycling:cans":"yes","recycling:glass_bottles":"yes","recycling:paper":"yes","recycling:paper_packaging":"yes","recycling:plastic_bottles":"yes","recycling_type":"container","ref:FR:SITCOM":"PAV-374389"}},"type":"Feature"},
	{"geometry":{"coordinates":[-1.249486,43.919109],"type":"Point"},"properties":{"name":"Stade","osm_id":"7440803500","tag":{"amenity":"recycling","operator":"SITCOM - C\u00c3\u00b4te sud des Landes","operator:wikidata":"Q90819597","recycling:batteries":"yes","recycling:cans":"yes","recycling:glass_bottles":"yes","recycling:paper":"yes","recycling:paper_packaging":"yes","recycling:plastic_bottles":"yes","recycling_type":"container","ref:FR:SITCOM":"PAV-374225"}},"type":"Feature"},
	{"geometry":{"coordinates":[-1.308081,43.930422],"type":"Point"},"properties":{"name":"C.La Jaougotte","osm_id":"7440803504","tag":{"amenity":"recycling","operator":"SITCOM - C\u00c3\u00b4te sud des Landes","operator:wikidata":"Q90819597","recycling:batteries":"yes","recycling:cans":"yes","recycling:glass_bottles":"yes","recycling:paper":"yes","recycling:paper_packaging":"yes","recycling:plastic_bottles":"yes","recycling_type":"container","ref:FR:SITCOM":"PAV-374388"}},"type":"Feature"},
	{"geometry":{"coordinates":[-1.257582,43.932151],"type":"Point"},"properties":{"name":"Domaine de Lila","osm_id":"7440803505","tag":{"access":"customers","amenity":"recycling","operator":"SITCOM - C\u00c3\u00b4te sud des Landes","operator:wikidata":"Q90819597","recycling:batteries":"yes","recycling:cans":"yes","recycling:glass_bottles":"yes","recycling:paper_packaging":"yes","recycling:plastic_bottles":"yes","recycling_type":"container","ref:FR:SITCOM":"PAV-374317"}},"type":"Feature"},
	{"geometry":{"coordinates":[-1.294139,43.913701],"type":"Point"},"properties":{"name":"D\u00c3\u00a9ch\u00c3\u00a8terie de Vielle-Saint-Girons","osm_id":"7465988735","tag":{"addr:city":"Vielle-Saint-Girons","addr:housenumber":"182","addr:postcode":"40560","addr:street":"All\u00c3\u00a9e de la Gare","amenity":"recycling","description:covid19":"Uniquement pour les professionnels (munis de la vignette)","opening_hours:covid19":"Mo-Sa 08:00-12:00,13:30-18:00","recycling_type":"centre"}},"type":"Feature"},
	{"geometry":{"coordinates":[-1.301698,43.947651],"type":"Point"},"properties":{"name":"station St Girons","osm_id":"7592150217","tag":{"amenity":"waste_disposal","operator":"SITCOM - C\u00c3\u00b4te sud des Landes","operator:wikidata":"Q90819597","ref:FR:SITCOM":"PAV-492141"}},"type":"Feature"},
	{"geometry":{"coordinates":[-1.305871,43.921861],"type":"Point"},"properties":{"name":"C.Oceane","osm_id":"7592150225","tag":{"access":"customers","amenity":"waste_disposal","operator":"SITCOM - C\u00c3\u00b4te sud des Landes","operator:wikidata":"Q90819597","ref:FR:SITCOM":"PAV-374389"}},"type":"Feature"},
	{"geometry":{"coordinates":[-1.257644,43.932143],"type":"Point"},"properties":{"name":"Domaine de Lila","osm_id":"7592150273","tag":{"access":"customers","amenity":"waste_disposal","operator":"SITCOM - C\u00c3\u00b4te sud des Landes","operator:wikidata":"Q90819597","ref:FR:SITCOM":"PAV-374317"}},"type":"Feature"},
	{"geometry":{"coordinates":[-1.306147,43.915863],"type":"Point"},"properties":{"name":"Stade","osm_id":"7592150288","tag":{"amenity":"waste_disposal","operator":"SITCOM - C\u00c3\u00b4te sud des Landes","operator:wikidata":"Q90819597","ref:FR:SITCOM":"PAV-374310"}},"type":"Feature"},
	{"geometry":{"coordinates":[-1.312466,43.90335],"type":"Point"},"properties":{"name":"Col Vert","osm_id":"7592150313","tag":{"access":"customers","amenity":"waste_disposal","operator":"SITCOM - C\u00c3\u00b4te sud des Landes","operator:wikidata":"Q90819597","ref:FR:SITCOM":"PAV-397041"}},"type":"Feature"}
]
}
