{
"type": "FeatureCollection",
"features": [
	{"geometry":{"coordinates":[-1.269355,43.582432],"type":"Point"},"properties":{"name":"Salle Polyvalente","osm_id":"5758612590","tag":{"amenity":"waste_disposal","operator":"SITCOM - C\u00c3\u00b4te sud des Landes","operator:wikidata":"Q90819597","ref:FR:SITCOM":"PAV-414341"}},"type":"Feature"},
	{"geometry":{"coordinates":[-1.263853,43.623384],"type":"Point"},"properties":{"name":"Lot Mounayre","osm_id":"5882031046","tag":{"amenity":"recycling","operator":"SITCOM - C\u00c3\u00b4te sud des Landes","operator:wikidata":"Q90819597","recycling:cans":"yes","recycling:glass_bottles":"yes","recycling:paper":"yes","recycling:paper_packaging":"yes","recycling:plastic_bottles":"yes","recycling_type":"container","ref:FR:SITCOM":"PAV-462641"}},"type":"Feature"},
	{"geometry":{"coordinates":[-1.253612,43.624006],"type":"Point"},"properties":{"name":"Lot Peyrine","osm_id":"5882073040","tag":{"amenity":"waste_disposal","operator":"SITCOM - C\u00c3\u00b4te sud des Landes","operator:wikidata":"Q90819597","ref:FR:SITCOM":"PAV-438346"}},"type":"Feature"},
	{"geometry":{"coordinates":[-1.273039,43.584821],"type":"Point"},"properties":{"name":"Jardins D Bourg","osm_id":"7440966433","tag":{"amenity":"waste_disposal","operator":"SITCOM - C\u00c3\u00b4te sud des Landes","operator:wikidata":"Q90819597","ref:FR:SITCOM":"PAV-474645"}},"type":"Feature"},
	{"geometry":{"coordinates":[-1.275226,43.585483],"type":"Point"},"properties":{"name":"r\u00c3\u00a9sidence casaou","osm_id":"7440966435","tag":{"amenity":"waste_disposal","operator":"SITCOM - C\u00c3\u00b4te sud des Landes","operator:wikidata":"Q90819597","ref:FR:SITCOM":"PAV-475841"}},"type":"Feature"},
	{"geometry":{"coordinates":[-1.258562,43.626521],"type":"Point"},"properties":{"name":"Jardins De Bellevue","osm_id":"7441357319","tag":{"amenity":"waste_disposal","operator":"SITCOM - C\u00c3\u00b4te sud des Landes","operator:wikidata":"Q90819597","ref:FR:SITCOM":"PAV-459042"}},"type":"Feature"},
	{"geometry":{"coordinates":[-1.316916,43.609084],"type":"Point"},"properties":{"name":"lot la grange neuve","osm_id":"7441357348","tag":{"amenity":"waste_disposal","operator":"SITCOM - C\u00c3\u00b4te sud des Landes","operator:wikidata":"Q90819597","ref:FR:SITCOM":"PAV-489842"}},"type":"Feature"},
	{"geometry":{"coordinates":[-1.263699,43.581321],"type":"Point"},"properties":{"name":"Rte L Eglise 2","osm_id":"7441357358","tag":{"amenity":"waste_disposal","operator":"SITCOM - C\u00c3\u00b4te sud des Landes","operator:wikidata":"Q90819597","ref:FR:SITCOM":"PAV-414344"}},"type":"Feature"},
	{"geometry":{"coordinates":[-1.271426,43.580817],"type":"Point"},"properties":{"name":"Jardins D St Martin","osm_id":"7441357361","tag":{"amenity":"waste_disposal","operator":"SITCOM - C\u00c3\u00b4te sud des Landes","operator:wikidata":"Q90819597","ref:FR:SITCOM":"PAV-413541"}},"type":"Feature"},
	{"geometry":{"coordinates":[-1.265492,43.582018],"type":"Point"},"properties":{"name":"Rte L Eglise 1","osm_id":"7441357376","tag":{"amenity":"waste_disposal","operator":"SITCOM - C\u00c3\u00b4te sud des Landes","operator:wikidata":"Q90819597","ref:FR:SITCOM":"PAV-414343"}},"type":"Feature"},
	{"geometry":{"coordinates":[-1.255872,43.627475],"type":"Point"},"properties":{"name":"Route De Caplane","osm_id":"7441357398","tag":{"amenity":"waste_disposal","operator":"SITCOM - C\u00c3\u00b4te sud des Landes","operator:wikidata":"Q90819597","ref:FR:SITCOM":"PAV-459041"}},"type":"Feature"},
	{"geometry":{"coordinates":[-1.256377,43.625572],"type":"Point"},"properties":{"name":"R Le Saint-Jeannais","osm_id":"7441856212","tag":{"amenity":"waste_disposal","operator":"SITCOM - C\u00c3\u00b4te sud des Landes","operator:wikidata":"Q90819597","ref:FR:SITCOM":"PAV-374052"}},"type":"Feature"},
	{"geometry":{"coordinates":[-1.31553,43.610928],"type":"Point"},"properties":{"name":"Ecoles","osm_id":"7441856260","tag":{"amenity":"recycling","operator":"SITCOM - C\u00c3\u00b4te sud des Landes","operator:wikidata":"Q90819597","recycling:batteries":"yes","recycling:cans":"yes","recycling:glass_bottles":"yes","recycling:paper":"yes","recycling:paper_packaging":"yes","recycling:plastic_bottles":"yes","recycling_type":"container","ref:FR:SITCOM":"PAV-374049"}},"type":"Feature"},
	{"geometry":{"coordinates":[-1.293836,43.613602],"type":"Point"},"properties":{"name":"Dechetterie","osm_id":"7441856277","tag":{"amenity":"recycling","operator":"SITCOM - C\u00c3\u00b4te sud des Landes","operator:wikidata":"Q90819597","recycling:cans":"yes","recycling:glass_bottles":"yes","recycling:paper":"yes","recycling:paper_packaging":"yes","recycling:plastic_bottles":"yes","recycling_type":"container","ref:FR:SITCOM":"PAV-374614"}},"type":"Feature"},
	{"geometry":{"coordinates":[-1.260197,43.62175],"type":"Point"},"properties":{"name":"Bourg","osm_id":"7441937228","tag":{"amenity":"recycling","operator":"SITCOM - C\u00c3\u00b4te sud des Landes","operator:wikidata":"Q90819597","recycling:batteries":"yes","recycling:cans":"yes","recycling:glass_bottles":"yes","recycling:paper":"yes","recycling:paper_packaging":"yes","recycling:plastic_bottles":"yes","recycling_type":"container","ref:FR:SITCOM":"PAV-374050"}},"type":"Feature"},
	{"geometry":{"coordinates":[-1.264781,43.58365],"type":"Point"},"properties":{"name":"Tennis","osm_id":"7441937235","tag":{"amenity":"recycling","operator":"SITCOM - C\u00c3\u00b4te sud des Landes","operator:wikidata":"Q90819597","recycling:batteries":"yes","recycling:cans":"yes","recycling:glass_bottles":"yes","recycling:paper":"yes","recycling:paper_packaging":"yes","recycling:plastic_bottles":"yes","recycling_type":"container","ref:FR:SITCOM":"PAV-374074"}},"type":"Feature"},
	{"geometry":{"coordinates":[-1.263684,43.623322],"type":"Point"},"properties":{"name":"Lot Mounayre","osm_id":"7592150216","tag":{"amenity":"waste_disposal","operator":"SITCOM - C\u00c3\u00b4te sud des Landes","operator:wikidata":"Q90819597","ref:FR:SITCOM":"PAV-462641"}},"type":"Feature"}
]
}
