{
"type": "FeatureCollection",
"features": [
	{"geometry":{"coordinates":[-1.304043,43.549589],"type":"Point"},"properties":{"name":"Bourg","osm_id":"4996776676","tag":{"amenity":"recycling","contact:website":"http://www.sitcom40.fr","operator":"SITCOM - C\u00c3\u00b4te sud des Landes","operator:wikidata":"Q90819597","recycling:batteries":"yes","recycling:beverage_cartons":"yes","recycling:cans":"yes","recycling:glass_bottles":"yes","recycling:paper":"yes","recycling:paper_packaging":"yes","recycling:plastic_bottles":"yes","recycling_type":"container","ref:FR:SITCOM":"PAV-374091"}},"type":"Feature"},
	{"geometry":{"coordinates":[-1.276183,43.559747],"type":"Point"},"properties":{"name":"Bourg","osm_id":"4996776677","tag":{"amenity":"recycling","contact:website":"http://www.sitcom40.fr","operator":"SITCOM - C\u00c3\u00b4te sud des Landes","operator:wikidata":"Q90819597","recycling:batteries":"yes","recycling:beverage_cartons":"yes","recycling:cans":"yes","recycling:glass_bottles":"yes","recycling:paper":"yes","recycling:plastic_bottles":"yes","recycling_type":"container","ref:FR:SITCOM":"PAV-374081"}},"type":"Feature"},
	{"geometry":{"coordinates":[-1.271631,43.561444],"type":"Point"},"properties":{"name":"Salle Des Fetes","osm_id":"4996776678","tag":{"amenity":"recycling","contact:website":"http://www.sitcom40.fr","operator":"SITCOM - C\u00c3\u00b4te sud des Landes","operator:wikidata":"Q90819597","recycling:cans":"yes","recycling:glass_bottles":"yes","recycling:paper":"yes","recycling:paper_packaging":"yes","recycling:plastic_bottles":"yes","recycling_type":"container","ref:FR:SITCOM":"PAV-374078"}},"type":"Feature"},
	{"geometry":{"coordinates":[-1.267501,43.532944],"type":"Point"},"properties":{"name":"Bourg","osm_id":"4996776679","tag":{"amenity":"recycling","contact:website":"http://www.sitcom40.fr","operator":"SITCOM - C\u00c3\u00b4te sud des Landes","recycling:batteries":"yes","recycling:beverage_cartons":"yes","recycling:cans":"yes","recycling:glass_bottles":"yes","recycling:paper":"yes","recycling:plastic_bottles":"yes","recycling_type":"container","ref:FR:SITCOM":"PAV-374084"}},"type":"Feature"},
	{"geometry":{"coordinates":[-1.270757,43.528748],"type":"Point"},"properties":{"name":"Station du bourg 2","osm_id":"5720704922","tag":{"amenity":"recycling","operator":"SITCOM - C\u00c3\u00b4te sud des Landes","operator:wikidata":"Q90819597","recycling:batteries":"yes","recycling:cans":"yes","recycling:glass_bottles":"yes","recycling:paper":"yes","recycling:paper_packaging":"yes","recycling:plastic_bottles":"yes","recycling_type":"container","ref:FR:SITCOM":"PAV-480742"}},"type":"Feature"},
	{"geometry":{"coordinates":[-1.241858,43.558453],"type":"Point"},"properties":{"name":"Lot Pascouaou","osm_id":"5758347699","tag":{"amenity":"recycling","operator":"SITCOM - C\u00c3\u00b4te sud des Landes","operator:wikidata":"Q90819597","recycling:batteries":"yes","recycling:cans":"yes","recycling:glass_bottles":"yes","recycling:paper":"yes","recycling:paper_packaging":"yes","recycling:plastic_bottles":"yes","recycling_type":"container","ref:FR:SITCOM":"PAV-441141"}},"type":"Feature"},
	{"geometry":{"coordinates":[-1.269282,43.533826],"type":"Point"},"properties":{"name":"Lotissement les Ch\u00c3\u00aanes","osm_id":"7438622361","tag":{"amenity":"waste_disposal","operator":"SITCOM - C\u00c3\u00b4te sud des Landes","operator:wikidata":"Q90819597","ref:FR:SITCOM":"PAV-472044"}},"type":"Feature"},
	{"geometry":{"coordinates":[-1.316438,43.549644],"type":"Point"},"properties":{"name":"Rte St Barth Plantine","osm_id":"7438622362","tag":{"amenity":"waste_disposal","operator":"SITCOM - C\u00c3\u00b4te sud des Landes","operator:wikidata":"Q90819597","ref:FR:SITCOM":"PAV-457841"}},"type":"Feature"},
	{"geometry":{"coordinates":[-1.308112,43.551576],"type":"Point"},"properties":{"name":"Ch du haou de latrapat","osm_id":"7438622378","tag":{"amenity":"waste_disposal","operator":"SITCOM - C\u00c3\u00b4te sud des Landes","operator:wikidata":"Q90819597","ref:FR:SITCOM":"PAV-488144"}},"type":"Feature"},
	{"geometry":{"coordinates":[-1.303241,43.550736],"type":"Point"},"properties":{"name":"Bourg Le Roitelet","osm_id":"7438622379","tag":{"amenity":"waste_disposal","operator":"SITCOM - C\u00c3\u00b4te sud des Landes","operator:wikidata":"Q90819597","ref:FR:SITCOM":"PAV-404343"}},"type":"Feature"},
	{"geometry":{"coordinates":[-1.270525,43.57301],"type":"Point"},"properties":{"name":"Le Lanne","osm_id":"7441357356","tag":{"amenity":"recycling","operator":"SITCOM - C\u00c3\u00b4te sud des Landes","operator:wikidata":"Q90819597","recycling:batteries":"yes","recycling:cans":"yes","recycling:glass_bottles":"yes","recycling:paper":"yes","recycling:paper_packaging":"yes","recycling:plastic_bottles":"yes","recycling_type":"container","ref:FR:SITCOM":"PAV-392575"}},"type":"Feature"},
	{"geometry":{"coordinates":[-1.237144,43.558658],"type":"Point"},"properties":{"name":"Services Techn","osm_id":"7441854383","tag":{"amenity":"waste_disposal","operator":"SITCOM - C\u00c3\u00b4te sud des Landes","operator:wikidata":"Q90819597","ref:FR:SITCOM":"PAV-421943"}},"type":"Feature"},
	{"geometry":{"coordinates":[-1.23777,43.556397],"type":"Point"},"properties":{"name":"Bourg","osm_id":"7441854384","tag":{"amenity":"recycling","operator":"SITCOM - C\u00c3\u00b4te sud des Landes","operator:wikidata":"Q90819597","recycling:batteries":"yes","recycling:cans":"yes","recycling:glass_bottles":"yes","recycling:paper":"yes","recycling:paper_packaging":"yes","recycling:plastic_bottles":"yes","recycling_type":"container","ref:FR:SITCOM":"PAV-374066"}},"type":"Feature"},
	{"geometry":{"coordinates":[-1.261351,43.569363],"type":"Point"},"properties":{"name":"Dechetterie","osm_id":"7441856237","tag":{"amenity":"recycling","operator":"SITCOM - C\u00c3\u00b4te sud des Landes","operator:wikidata":"Q90819597","recycling:cans":"yes","recycling:glass_bottles":"yes","recycling:paper":"yes","recycling:paper_packaging":"yes","recycling:plastic_bottles":"yes","recycling_type":"container","ref:FR:SITCOM":"PAV-374624"}},"type":"Feature"},
	{"geometry":{"coordinates":[-1.267484,43.532935],"type":"Point"},"properties":{"name":"Bourg","osm_id":"7591657664","tag":{"amenity":"waste_disposal","contact:website":"http://www.sitcom40.fr","operator":"SITCOM - C\u00c3\u00b4te sud des Landes","ref:FR:SITCOM":"PAV-374084"}},"type":"Feature"},
	{"geometry":{"coordinates":[-1.241867,43.558432],"type":"Point"},"properties":{"name":"Lot Pascouaou","osm_id":"7592117782","tag":{"amenity":"waste_disposal","operator":"SITCOM - C\u00c3\u00b4te sud des Landes","operator:wikidata":"Q90819597","ref:FR:SITCOM":"PAV-441141"}},"type":"Feature"},
	{"geometry":{"coordinates":[-1.237754,43.556407],"type":"Point"},"properties":{"name":"Bourg","osm_id":"7592150186","tag":{"amenity":"waste_disposal","operator":"SITCOM - C\u00c3\u00b4te sud des Landes","operator:wikidata":"Q90819597","ref:FR:SITCOM":"PAV-374066"}},"type":"Feature"},
	{"geometry":{"coordinates":[-1.271631,43.561422],"type":"Point"},"properties":{"name":"Salle Des Fetes","osm_id":"7592150190","tag":{"amenity":"waste_disposal","contact:website":"http://www.sitcom40.fr","operator":"SITCOM - C\u00c3\u00b4te sud des Landes","operator:wikidata":"Q90819597","ref:FR:SITCOM":"PAV-374078"}},"type":"Feature"},
	{"geometry":{"coordinates":[-1.270731,43.528735],"type":"Point"},"properties":{"name":"Station du bourg 2","osm_id":"7592150236","tag":{"amenity":"waste_disposal","operator":"SITCOM - C\u00c3\u00b4te sud des Landes","operator:wikidata":"Q90819597","ref:FR:SITCOM":"PAV-480742"}},"type":"Feature"},
	{"geometry":{"coordinates":[-1.276184,43.559727],"type":"Point"},"properties":{"name":"Bourg","osm_id":"7592150293","tag":{"amenity":"waste_disposal","contact:website":"http://www.sitcom40.fr","operator":"SITCOM - C\u00c3\u00b4te sud des Landes","operator:wikidata":"Q90819597","ref:FR:SITCOM":"PAV-374081"}},"type":"Feature"},
	{"geometry":{"coordinates":[-1.304124,43.549605],"type":"Point"},"properties":{"name":"Bourg","osm_id":"7592150307","tag":{"amenity":"waste_disposal","contact:website":"http://www.sitcom40.fr","operator":"SITCOM - C\u00c3\u00b4te sud des Landes","operator:wikidata":"Q90819597","ref:FR:SITCOM":"PAV-374091"}},"type":"Feature"}
]
}
