{
"type": "FeatureCollection",
"features": [
	{"geometry":{"coordinates":[-1.280191,40.107629],"type":"Point"},"properties":{"osm_id":"5220106561","tag":{"amenity":"recycling","recycling_type":"container","waste":"plastic"}},"type":"Feature"},
	{"geometry":{"coordinates":[-1.287882,40.10802],"type":"Point"},"properties":{"osm_id":"5225349494","tag":{"amenity":"waste_basket"}},"type":"Feature"},
	{"geometry":{"coordinates":[-1.258527,40.096721],"type":"Point"},"properties":{"osm_id":"5225355786","tag":{"amenity":"recycling","recycling:glass_bottles":"yes","recycling_type":"container"}},"type":"Feature"},
	{"geometry":{"coordinates":[-1.25855,40.096719],"type":"Point"},"properties":{"name":"Rinc\u00c3\u00b3n de Ademuz","osm_id":"5225355787","tag":{"amenity":"recycling","hiking":"yes","information":"map","map_size":"region","map_type":"topo","mtb":"yes","recycling:glass_bottles":"yes","recycling_type":"container","tourism":"information"}},"type":"Feature"},
	{"geometry":{"coordinates":[-1.26099,40.09469],"type":"Point"},"properties":{"osm_id":"5225355796","tag":{"amenity":"recycling","recycling:glass_bottles":"yes","recycling_type":"container"}},"type":"Feature"},
	{"geometry":{"coordinates":[-1.26171,40.094577],"type":"Point"},"properties":{"osm_id":"5225387810","tag":{"amenity":"recycling","recycling:paper":"yes","recycling_type":"container"}},"type":"Feature"},
	{"geometry":{"coordinates":[-1.261708,40.094563],"type":"Point"},"properties":{"osm_id":"5225387811","tag":{"amenity":"recycling","recycling:plastic":"yes","recycling_type":"container"}},"type":"Feature"},
	{"geometry":{"coordinates":[-1.281136,40.107233],"type":"Point"},"properties":{"osm_id":"5226441197","tag":{"amenity":"waste_disposal"}},"type":"Feature"},
	{"geometry":{"coordinates":[-1.280164,40.107608],"type":"Point"},"properties":{"osm_id":"5226441212","tag":{"amenity":"recycling","recycling_type":"container","waste":"paper"}},"type":"Feature"},
	{"geometry":{"coordinates":[-1.280137,40.107576],"type":"Point"},"properties":{"osm_id":"5232476462","tag":{"amenity":"recycling","recycling_type":"container","waste":"glass"}},"type":"Feature"},
	{"geometry":{"coordinates":[-1.283261,40.107131],"type":"Point"},"properties":{"osm_id":"5234774943","tag":{"amenity":"waste_basket"}},"type":"Feature"},
	{"geometry":{"coordinates":[-1.263031,40.094413],"type":"Point"},"properties":{"osm_id":"5267759249","tag":{"amenity":"waste_basket"}},"type":"Feature"},
	{"geometry":{"coordinates":[-1.264113,40.093135],"type":"Point"},"properties":{"osm_id":"5267759263","tag":{"amenity":"waste_disposal"}},"type":"Feature"},
	{"geometry":{"coordinates":[-1.263747,40.093479],"type":"Point"},"properties":{"osm_id":"5267759264","tag":{"amenity":"waste_basket"}},"type":"Feature"},
	{"geometry":{"coordinates":[-1.283563,40.107391],"type":"Point"},"properties":{"osm_id":"5287139621","tag":{"amenity":"waste_disposal"}},"type":"Feature"}
]
}
