{
"type": "FeatureCollection",
"features": [
	{"geometry":{"coordinates":[-94.615395,39.217565],"type":"Point"},"properties":{"highway":"traffic_signals","osm_id":"192472529","tag":{"traffic_signals":"signal"}},"type":"Feature"},
	{"geometry":{"coordinates":[-94.576584,39.170148],"type":"Point"},"properties":{"osm_id":"2962240741","tag":{"amenity":"waste_basket"}},"type":"Feature"},
	{"geometry":{"coordinates":[-94.59944,39.169212],"type":"Point"},"properties":{"osm_id":"5800133669","tag":{"amenity":"waste_basket"}},"type":"Feature"},
	{"geometry":{"coordinates":[-94.610396,39.180326],"type":"Point"},"properties":{"osm_id":"5844473287","tag":{"amenity":"waste_basket"}},"type":"Feature"},
	{"geometry":{"coordinates":[-94.613747,39.177201],"type":"Point"},"properties":{"osm_id":"7725663757","tag":{"amenity":"waste_basket","material":"metal","waste":"trash"}},"type":"Feature"},
	{"geometry":{"coordinates":[-94.613433,39.177108],"type":"Point"},"properties":{"osm_id":"7725663758","tag":{"amenity":"waste_basket","material":"metal","waste":"trash"}},"type":"Feature"},
	{"geometry":{"coordinates":[-94.613675,39.176936],"type":"Point"},"properties":{"osm_id":"7725663759","tag":{"amenity":"waste_basket","material":"metal","waste":"trash"}},"type":"Feature"},
	{"geometry":{"coordinates":[-94.614781,39.175333],"type":"Point"},"properties":{"osm_id":"7792537817","tag":{"amenity":"waste_basket"}},"type":"Feature"},
	{"geometry":{"coordinates":[-94.614774,39.175326],"type":"Point"},"properties":{"osm_id":"7792537818","tag":{"amenity":"waste_basket"}},"type":"Feature"},
	{"geometry":{"coordinates":[-94.614818,39.175414],"type":"Point"},"properties":{"osm_id":"7792537819","tag":{"amenity":"waste_basket"}},"type":"Feature"},
	{"geometry":{"coordinates":[-94.615128,39.17568],"type":"Point"},"properties":{"osm_id":"7792645594","tag":{"amenity":"waste_basket"}},"type":"Feature"},
	{"geometry":{"coordinates":[-94.615141,39.175673],"type":"Point"},"properties":{"osm_id":"7792645595","tag":{"amenity":"waste_basket"}},"type":"Feature"},
	{"geometry":{"coordinates":[-94.615344,39.174966],"type":"Point"},"properties":{"osm_id":"7792645596","tag":{"amenity":"waste_basket"}},"type":"Feature"},
	{"geometry":{"coordinates":[-94.615355,39.174957],"type":"Point"},"properties":{"osm_id":"7792645597","tag":{"amenity":"waste_basket"}},"type":"Feature"},
	{"geometry":{"coordinates":[-94.614643,39.175023],"type":"Point"},"properties":{"osm_id":"7792645599","tag":{"amenity":"waste_basket"}},"type":"Feature"},
	{"geometry":{"coordinates":[-94.614631,39.175021],"type":"Point"},"properties":{"osm_id":"7792645600","tag":{"amenity":"waste_basket"}},"type":"Feature"},
	{"geometry":{"coordinates":[-94.614265,39.175557],"type":"Point"},"properties":{"osm_id":"7792645607","tag":{"amenity":"waste_basket"}},"type":"Feature"},
	{"geometry":{"coordinates":[-94.60507,39.183298],"type":"Point"},"properties":{"osm_id":"7851413613","tag":{"amenity":"waste_basket"}},"type":"Feature"},
	{"geometry":{"coordinates":[-94.605153,39.183438],"type":"Point"},"properties":{"osm_id":"7851413614","tag":{"amenity":"waste_basket"}},"type":"Feature"},
	{"geometry":{"coordinates":[-94.571374,39.192293],"type":"Point"},"properties":{"osm_id":"7932068564","tag":{"amenity":"waste_basket","waste":"trash"}},"type":"Feature"},
	{"geometry":{"coordinates":[-94.571272,39.191713],"type":"Point"},"properties":{"osm_id":"7932068565","tag":{"amenity":"waste_basket","waste":"trash"}},"type":"Feature"},
	{"geometry":{"coordinates":[-94.57042,39.192576],"type":"Point"},"properties":{"osm_id":"7932068567","tag":{"amenity":"waste_basket","waste":"trash"}},"type":"Feature"},
	{"geometry":{"coordinates":[-94.570508,39.193186],"type":"Point"},"properties":{"osm_id":"7932068581","tag":{"amenity":"waste_basket","waste":"trash"}},"type":"Feature"},
	{"geometry":{"coordinates":[-94.610097,39.180368],"type":"Point"},"properties":{"osm_id":"7946462175","tag":{"amenity":"waste_basket"}},"type":"Feature"}
]
}
