{
"type": "FeatureCollection",
"features": [
	{"geometry":{"coordinates":[-70.534472,-33.483389],"type":"Point"},"properties":{"name":"Reciclaje","osm_id":"1674117106","tag":{"amenity":"recycling","recycling_type":"container"}},"type":"Feature"},
	{"geometry":{"coordinates":[-70.545817,-33.457542],"type":"Point"},"properties":{"name":"Cooperativa de reciclaje La Reina","osm_id":"2287552493","tag":{"addr:city":"Santiago","addr:country":"CL","addr:district":"La Reina","addr:housenumber":"680","addr:street":"Jorge Alessandri","amenity":"recycling","contact:email":"centroreciclaje@mlareina.cl","contact:mobile":"+56991989649","contact:phone":"+562227319 20","opening_hours":"Mo-Fr 09:00-17:00","operator":"Cooperativa de recicladores de La Reina","recycling:batteries":"yes","recycling:bicycles":"yes","recycling:cans":"yes","recycling:cartons":"yes","recycling:electrical_items":"yes","recycling:furniture":"yes","recycling:magazines":"yes","recycling:newspaper":"yes","recycling:paper":"yes","recycling:paper_packaging":"yes","recycling:scrap_metal":"yes","recycling:sheet_metal":"yes","recycling_type":"centre"}},"type":"Feature"},
	{"geometry":{"coordinates":[-70.54917,-33.487196],"type":"Point"},"properties":{"name":"Esquina El Solar","osm_id":"3200714438","tag":{"addr:city":"Pe\u00c3\u00b1alolen","addr:street":"Avenida Consistorial","amenity":"recycling","recycling:glass_bottles":"yes"}},"type":"Feature"},
	{"geometry":{"coordinates":[-70.5417,-33.476995],"type":"Point"},"properties":{"name":"Grecia (Recinto Municipal)","osm_id":"3200714439","tag":{"addr:city":"Pe\u00c3\u00b1alolen","addr:street":"Grecia","amenity":"recycling","recycling:aluminium":"yes","recycling:cardboard":"yes","recycling:glass_bottles":"yes","recycling:paper":"yes","recycling:plastic_bottles":"yes"}},"type":"Feature"},
	{"geometry":{"coordinates":[-70.574316,-33.499687],"type":"Point"},"properties":{"name":"Punto Limpio Club de Campo Entel","osm_id":"3200714447","tag":{"addr:city":"Pe\u00c3\u00b1alolen","amenity":"recycling","recycling:aluminium":"yes","recycling:cardboard":"yes","recycling:glass_bottles":"yes","recycling:paper":"yes","recycling:plastic_bottles":"yes"}},"type":"Feature"},
	{"geometry":{"coordinates":[-70.56374,-33.470384],"type":"Point"},"properties":{"name":"Punto Tetra Pak - Jard\u00c3\u00adn Infantil Nido de C\u00c3\u00b3ndores","osm_id":"3200714453","tag":{"addr:city":"Pe\u00c3\u00b1alolen","amenity":"recycling","recycling:cartons":"yes"}},"type":"Feature"},
	{"geometry":{"coordinates":[-70.568557,-33.468654],"type":"Point"},"properties":{"name":"Punto Tetra Pak","osm_id":"3200714455","tag":{"addr:city":"Pe\u00c3\u00b1alolen","amenity":"recycling"}},"type":"Feature"},
	{"geometry":{"coordinates":[-70.560755,-33.498181],"type":"Point"},"properties":{"name":"Punto limpio La Escuela","osm_id":"3200714456","tag":{"addr:city":"Pe\u00c3\u00b1alolen","amenity":"recycling","recycling:aluminium":"yes","recycling:cardboard":"yes","recycling:glass_bottles":"yes","recycling:paper":"yes","recycling:plastic_bottles":"yes"}},"type":"Feature"},
	{"geometry":{"coordinates":[-70.557037,-33.486771],"type":"Point"},"properties":{"osm_id":"3200714457","tag":{"addr:city":"Pe\u00c3\u00b1alolen","addr:street":"Los Presidentes","amenity":"recycling","location":"overground","recycling:glass_bottles":"yes","recycling_type":"container"}},"type":"Feature"},
	{"geometry":{"coordinates":[-70.531776,-33.459068],"type":"Point"},"properties":{"osm_id":"3200715961","tag":{"addr:city":"Pe\u00c3\u00b1alolen","addr:street":"Talinay","amenity":"recycling","recycling:glass_bottles":"yes"}},"type":"Feature"},
	{"geometry":{"coordinates":[-70.558662,-33.466962],"type":"Point"},"properties":{"osm_id":"3200715962","tag":{"addr:city":"Pe\u00c3\u00b1alolen","addr:street":"Orientales","amenity":"recycling","recycling:aluminium":"yes","recycling:cardboard":"yes","recycling:glass_bottles":"yes","recycling:paper":"yes","recycling:plastic_bottles":"yes"}},"type":"Feature"},
	{"geometry":{"coordinates":[-70.553083,-33.469182],"type":"Point"},"properties":{"osm_id":"3200715963","tag":{"addr:city":"Pe\u00c3\u00b1alolen","addr:street":"Orientales","amenity":"recycling","recycling:glass_bottles":"yes"}},"type":"Feature"},
	{"geometry":{"coordinates":[-70.575142,-33.469683],"type":"Point"},"properties":{"osm_id":"3200715964","tag":{"addr:city":"Pe\u00c3\u00b1alolen","addr:street":"Grecia","amenity":"recycling","recycling:glass_bottles":"yes"}},"type":"Feature"},
	{"geometry":{"coordinates":[-70.57158,-33.47022],"type":"Point"},"properties":{"osm_id":"3200715965","tag":{"addr:city":"Pe\u00c3\u00b1alolen","addr:street":"Grecia","amenity":"recycling","recycling:glass_bottles":"yes"}},"type":"Feature"},
	{"geometry":{"coordinates":[-70.54389,-33.475819],"type":"Point"},"properties":{"osm_id":"3200715966","tag":{"addr:city":"Pe\u00c3\u00b1alolen","addr:street":"Grecia","amenity":"recycling","recycling:glass_bottles":"yes"}},"type":"Feature"},
	{"geometry":{"coordinates":[-70.56577,-33.477955],"type":"Point"},"properties":{"osm_id":"3200715967","tag":{"addr:city":"Pe\u00c3\u00b1alolen","addr:street":"El Duraznal","amenity":"recycling","recycling:glass_bottles":"yes"}},"type":"Feature"},
	{"geometry":{"coordinates":[-70.558174,-33.481724],"type":"Point"},"properties":{"osm_id":"3200715968","tag":{"addr:city":"Pe\u00c3\u00b1alolen","addr:street":"Tobalaba","amenity":"recycling","recycling:glass_bottles":"yes"}},"type":"Feature"},
	{"geometry":{"coordinates":[-70.534383,-33.48321],"type":"Point"},"properties":{"osm_id":"3200715969","tag":{"addr:city":"Pe\u00c3\u00b1alolen","addr:street":"Antupiren","amenity":"recycling","recycling:glass_bottles":"yes"}},"type":"Feature"},
	{"geometry":{"coordinates":[-70.534546,-33.483321],"type":"Point"},"properties":{"osm_id":"3200715970","tag":{"addr:city":"Pe\u00c3\u00b1alolen","addr:street":"Antupiren","amenity":"recycling","recycling:cardboard":"yes","recycling:cartons":"yes","recycling:paper":"yes"}},"type":"Feature"},
	{"geometry":{"coordinates":[-70.561241,-33.503556],"type":"Point"},"properties":{"osm_id":"3200715971","tag":{"addr:city":"Pe\u00c3\u00b1alolen","addr:street":"Tobalaba","amenity":"recycling","recycling:glass_bottles":"yes"}},"type":"Feature"},
	{"geometry":{"coordinates":[-70.54638,-33.466196],"type":"Point"},"properties":{"name":"Punto Limpio, papel, vidrio, pl\u00c3\u00a1stico, latas","osm_id":"5132060023","tag":{"amenity":"recycling"}},"type":"Feature"},
	{"geometry":{"coordinates":[-70.518026,-33.492946],"type":"Point"},"properties":{"osm_id":"7387784957","tag":{"amenity":"recycling","recycling_type":"centre"}},"type":"Feature"},
	{"geometry":{"coordinates":[-70.539096,-33.477399],"type":"Point"},"properties":{"osm_id":"8005511762","tag":{"amenity":"waste_basket"}},"type":"Feature"},
	{"geometry":{"coordinates":[-70.539052,-33.477342],"type":"Point"},"properties":{"osm_id":"8005511764","tag":{"amenity":"waste_basket"}},"type":"Feature"},
	{"geometry":{"coordinates":[-70.539145,-33.477309],"type":"Point"},"properties":{"osm_id":"8005511767","tag":{"amenity":"waste_basket"}},"type":"Feature"}
]
}
