{
"type": "FeatureCollection",
"features": [
	{"geometry":{"coordinates":[-7.90466,42.353143],"type":"Point"},"properties":{"osm_id":"1984979477","tag":{"amenity":"waste_basket"}},"type":"Feature"},
	{"geometry":{"coordinates":[-7.855131,42.303521],"type":"Point"},"properties":{"osm_id":"3009378354","tag":{"amenity":"waste_disposal"}},"type":"Feature"},
	{"geometry":{"coordinates":[-7.859622,42.335603],"type":"Point"},"properties":{"osm_id":"4829139659","tag":{"amenity":"recycling"}},"type":"Feature"},
	{"geometry":{"coordinates":[-7.859972,42.335632],"type":"Point"},"properties":{"osm_id":"4829140697","tag":{"amenity":"waste_basket"}},"type":"Feature"},
	{"geometry":{"coordinates":[-7.859589,42.335111],"type":"Point"},"properties":{"osm_id":"4829140698","tag":{"amenity":"waste_basket"}},"type":"Feature"},
	{"geometry":{"coordinates":[-7.855342,42.344408],"type":"Point"},"properties":{"osm_id":"6888726415","tag":{"amenity":"recycling","recycling_type":"container"}},"type":"Feature"},
	{"geometry":{"coordinates":[-7.856059,42.345224],"type":"Point"},"properties":{"osm_id":"6888729218","tag":{"amenity":"recycling","description":"XCV","opening_hours":"24/7","operator":"Concello de Ourense","recycling:batteries":"yes","recycling:clothes":"yes","recycling:glass_bottles":"yes","recycling:paper":"yes","recycling:plastic":"yes","recycling:plastic_packaging":"yes","recycling_type":"container"}},"type":"Feature"},
	{"geometry":{"coordinates":[-7.85535,42.344374],"type":"Point"},"properties":{"osm_id":"6895388034","tag":{"amenity":"waste_disposal","operator":"Concello de Ourense"}},"type":"Feature"},
	{"geometry":{"coordinates":[-7.856669,42.344593],"type":"Point"},"properties":{"osm_id":"7002802469","tag":{"amenity":"waste_basket","colour":"gray","material":"metal","operator":"Papeleira","waste":"trash;mixed"}},"type":"Feature"},
	{"geometry":{"coordinates":[-7.855546,42.344406],"type":"Point"},"properties":{"osm_id":"7080677881","tag":{"amenity":"waste_basket","description":"BLOQUE 2: O MUNDO NO QUE VIVIMOS Os refugallos que producimos acumul\u00c3\u00a1molos e elimin\u00c3\u00a1molos, e temos a obriga moral de reciclalos posteriormente. Ademais, as papeleiras te\u00c3\u00b1en a funci\u00c3\u00b3n de manter os espazos limpos."}},"type":"Feature"},
	{"geometry":{"coordinates":[-7.857559,42.344341],"type":"Point"},"properties":{"osm_id":"7112753690","tag":{"amenity":"waste_basket","colour":"grey","material":"metal"}},"type":"Feature"},
	{"geometry":{"coordinates":[-7.855693,42.344335],"type":"Point"},"properties":{"osm_id":"7122290243","tag":{"amenity":"waste_basket","colour":"gray","material":"metal"}},"type":"Feature"},
	{"geometry":{"coordinates":[-7.856804,42.34453],"type":"Point"},"properties":{"name":"Papeleira","osm_id":"7123005816","tag":{"amenity":"waste_basket"}},"type":"Feature"},
	{"geometry":{"coordinates":[-7.856296,42.34474],"type":"Point"},"properties":{"osm_id":"7128786705","tag":{"amenity":"waste_basket","autor\u00c3\u00ada":"Ainhoa Santos L\u00c3\u00b3pez"}},"type":"Feature"},
	{"geometry":{"coordinates":[-7.857409,42.344073],"type":"Point"},"properties":{"osm_id":"7129104715","tag":{"amenity":"waste_basket","autor\u00c3\u00ada":"APP","description":"Papeleira e cabicheiro"}},"type":"Feature"},
	{"geometry":{"coordinates":[-7.856656,42.344725],"type":"Point"},"properties":{"osm_id":"7129480966","tag":{"amenity":"waste_basket"}},"type":"Feature"}
]
}
