{
"type": "FeatureCollection",
"features": [
	{"geometry":{"coordinates":[-7.840322,38.829718],"type":"Point"},"properties":{"osm_id":"5225476785","tag":{"amenity":"recycling","clothes":"yes","mapillary":"z3lGFAvzAgSIxTYm7Xq-6A","recycling_type":"container","survey:date":"2017-10-31"}},"type":"Feature"},
	{"geometry":{"coordinates":[-7.839413,38.829442],"type":"Point"},"properties":{"osm_id":"5279797013","tag":{"amenity":"recycling","recycling:glass_bottles":"yes","recycling_type":"container"}},"type":"Feature"},
	{"geometry":{"coordinates":[-7.83575,38.82968],"type":"Point"},"properties":{"osm_id":"5279797014","tag":{"amenity":"recycling","recycling_type":"container"}},"type":"Feature"},
	{"geometry":{"coordinates":[-7.843542,38.830877],"type":"Point"},"properties":{"osm_id":"5279912352","tag":{"amenity":"recycling","recycling_type":"container"}},"type":"Feature"},
	{"geometry":{"coordinates":[-7.838104,38.829145],"type":"Point"},"properties":{"osm_id":"5280582446","tag":{"amenity":"recycling","recycling:glass_bottles":"yes","recycling_type":"container"}},"type":"Feature"},
	{"geometry":{"coordinates":[-7.837917,38.829283],"type":"Point"},"properties":{"osm_id":"5280582447","tag":{"amenity":"waste_disposal"}},"type":"Feature"},
	{"geometry":{"coordinates":[-7.839004,38.828035],"type":"Point"},"properties":{"osm_id":"5280582449","tag":{"amenity":"waste_disposal"}},"type":"Feature"},
	{"geometry":{"coordinates":[-7.83626,38.829009],"type":"Point"},"properties":{"osm_id":"5280582450","tag":{"amenity":"waste_disposal"}},"type":"Feature"},
	{"geometry":{"coordinates":[-7.835817,38.829753],"type":"Point"},"properties":{"osm_id":"5280582451","tag":{"amenity":"waste_disposal"}},"type":"Feature"},
	{"geometry":{"coordinates":[-7.840514,38.829778],"type":"Point"},"properties":{"osm_id":"5280582464","tag":{"amenity":"waste_disposal"}},"type":"Feature"},
	{"geometry":{"coordinates":[-7.841518,38.831267],"type":"Point"},"properties":{"osm_id":"5280582466","tag":{"amenity":"waste_disposal"}},"type":"Feature"},
	{"geometry":{"coordinates":[-7.841528,38.831248],"type":"Point"},"properties":{"osm_id":"5280582467","tag":{"amenity":"recycling","recycling_type":"container"}},"type":"Feature"},
	{"geometry":{"coordinates":[-7.840291,38.831139],"type":"Point"},"properties":{"osm_id":"5280630895","tag":{"amenity":"waste_disposal"}},"type":"Feature"},
	{"geometry":{"coordinates":[-7.836989,38.832217],"type":"Point"},"properties":{"osm_id":"5280779433","tag":{"amenity":"recycling","recycling_type":"container"}},"type":"Feature"},
	{"geometry":{"coordinates":[-7.836215,38.831934],"type":"Point"},"properties":{"osm_id":"5280779437","tag":{"amenity":"waste_disposal"}},"type":"Feature"},
	{"geometry":{"coordinates":[-7.834739,38.829856],"type":"Point"},"properties":{"osm_id":"5280779440","tag":{"amenity":"waste_disposal"}},"type":"Feature"},
	{"geometry":{"coordinates":[-7.83313,38.829868],"type":"Point"},"properties":{"osm_id":"5280779442","tag":{"amenity":"waste_disposal"}},"type":"Feature"},
	{"geometry":{"coordinates":[-7.840081,38.830344],"type":"Point"},"properties":{"osm_id":"5280842068","tag":{"amenity":"waste_disposal"}},"type":"Feature"},
	{"geometry":{"coordinates":[-7.839415,38.830989],"type":"Point"},"properties":{"osm_id":"5280842075","tag":{"amenity":"waste_disposal"}},"type":"Feature"},
	{"geometry":{"coordinates":[-7.837932,38.833735],"type":"Point"},"properties":{"osm_id":"5280842083","tag":{"amenity":"recycling","recycling_type":"container"}},"type":"Feature"},
	{"geometry":{"coordinates":[-7.837908,38.833731],"type":"Point"},"properties":{"osm_id":"5280842084","tag":{"amenity":"waste_disposal"}},"type":"Feature"},
	{"geometry":{"coordinates":[-7.837568,38.834775],"type":"Point"},"properties":{"osm_id":"5280856002","tag":{"amenity":"waste_disposal"}},"type":"Feature"},
	{"geometry":{"coordinates":[-7.837643,38.830805],"type":"Point"},"properties":{"osm_id":"5280866010","tag":{"amenity":"waste_disposal"}},"type":"Feature"},
	{"geometry":{"coordinates":[-7.838064,38.830531],"type":"Point"},"properties":{"osm_id":"5280866011","tag":{"amenity":"waste_disposal"}},"type":"Feature"},
	{"geometry":{"coordinates":[-7.838029,38.830523],"type":"Point"},"properties":{"osm_id":"5280866012","tag":{"amenity":"recycling","recycling_type":"container"}},"type":"Feature"},
	{"geometry":{"coordinates":[-7.840387,38.832549],"type":"Point"},"properties":{"osm_id":"5280883070","tag":{"amenity":"waste_disposal"}},"type":"Feature"},
	{"geometry":{"coordinates":[-7.841248,38.832535],"type":"Point"},"properties":{"osm_id":"5280883090","tag":{"amenity":"recycling","recycling_type":"container"}},"type":"Feature"},
	{"geometry":{"coordinates":[-7.841242,38.832573],"type":"Point"},"properties":{"osm_id":"5280883091","tag":{"amenity":"waste_disposal"}},"type":"Feature"},
	{"geometry":{"coordinates":[-7.84234,38.832079],"type":"Point"},"properties":{"osm_id":"5280907476","tag":{"amenity":"waste_disposal"}},"type":"Feature"},
	{"geometry":{"coordinates":[-7.842539,38.830485],"type":"Point"},"properties":{"osm_id":"5280985330","tag":{"amenity":"waste_disposal"}},"type":"Feature"},
	{"geometry":{"coordinates":[-7.844639,38.831492],"type":"Point"},"properties":{"osm_id":"5280985335","tag":{"amenity":"waste_disposal"}},"type":"Feature"},
	{"geometry":{"coordinates":[-7.83955,38.832977],"type":"Point"},"properties":{"osm_id":"5280990622","tag":{"amenity":"waste_disposal"}},"type":"Feature"}
]
}
