{
"type": "FeatureCollection",
"features": [
	{"geometry":{"coordinates":[-7.897559,38.706842],"type":"Point"},"properties":{"name":"635 RUA CAPIT\u00c3\u0083O GOMES PEREIRA","osm_id":"7543047627","ref":"635","tag":{"amenity":"recycling","operator":"Gesamb","recycling:cooking_oil":"yes","recycling:glass":"yes","recycling:paper":"yes","recycling:plastic":"yes","recycling_type":"container"}},"type":"Feature"},
	{"geometry":{"coordinates":[-7.898483,38.708668],"type":"Point"},"properties":{"name":"636 RUA 25 DE ABRIL","osm_id":"7543047628","ref":"636","tag":{"amenity":"recycling","operator":"Gesamb","recycling:glass":"yes","recycling:paper":"yes","recycling:plastic":"yes","recycling_type":"container"}},"type":"Feature"},
	{"geometry":{"coordinates":[-7.899543,38.709794],"type":"Point"},"properties":{"name":"637 RUA 25 DE ABRIL","osm_id":"7543047629","ref":"637","tag":{"amenity":"recycling","operator":"Gesamb","recycling:glass":"yes","recycling_type":"container"}},"type":"Feature"},
	{"geometry":{"coordinates":[-7.898429,38.709874],"type":"Point"},"properties":{"name":"631 RUA DAS CASAS NOVAS","osm_id":"7543047630","ref":"631","tag":{"amenity":"recycling","operator":"Gesamb","recycling:glass":"yes","recycling_type":"container"}},"type":"Feature"},
	{"geometry":{"coordinates":[-7.896265,38.709424],"type":"Point"},"properties":{"name":"630 RUA TRASEIRAS DE VAL DE C\u00c3\u0094VO","osm_id":"7543047631","ref":"630","tag":{"amenity":"recycling","operator":"Gesamb","recycling:glass":"yes","recycling_type":"container"}},"type":"Feature"},
	{"geometry":{"coordinates":[-7.897111,38.710173],"type":"Point"},"properties":{"name":"632 RUA CIRCULAR","osm_id":"7543047632","ref":"632","tag":{"amenity":"recycling","operator":"Gesamb","recycling:glass":"yes","recycling_type":"container"}},"type":"Feature"},
	{"geometry":{"coordinates":[-7.898009,38.710653],"type":"Point"},"properties":{"name":"633 RUA ISABEL JORGE","osm_id":"7543047633","ref":"633","tag":{"amenity":"recycling","operator":"Gesamb","recycling:batteries":"yes","recycling:glass":"yes","recycling:paper":"yes","recycling:plastic":"yes","recycling_type":"container"}},"type":"Feature"},
	{"geometry":{"coordinates":[-7.897431,38.711868],"type":"Point"},"properties":{"name":"1001 RUA JOAQUIM LOPES GODINHO","osm_id":"7543047634","ref":"1001","tag":{"amenity":"recycling","operator":"Gesamb","recycling:batteries":"yes","recycling:glass":"yes","recycling:paper":"yes","recycling:plastic":"yes","recycling_type":"container"}},"type":"Feature"},
	{"geometry":{"coordinates":[-7.895734,38.712076],"type":"Point"},"properties":{"name":"638 RUA DE \u00c3\u0089VORA","osm_id":"7543047635","ref":"638","tag":{"amenity":"recycling","operator":"Gesamb","recycling:glass":"yes","recycling_type":"container"}},"type":"Feature"},
	{"geometry":{"coordinates":[-7.901238,38.711871],"type":"Point"},"properties":{"name":"634 EM 528","osm_id":"7543047636","ref":"634","tag":{"amenity":"recycling","operator":"Gesamb","recycling:glass":"yes","recycling:paper":"yes","recycling:plastic":"yes","recycling_type":"container"}},"type":"Feature"},
	{"geometry":{"coordinates":[-7.87799,38.730383],"type":"Point"},"properties":{"name":"639 EM 1044 HERDADE DOS COELHEIROS (MONTE DO PINTOR)","osm_id":"7543047637","ref":"639","tag":{"amenity":"recycling","operator":"Gesamb","recycling:glass":"yes","recycling:paper":"yes","recycling:plastic":"yes","recycling_type":"container"}},"type":"Feature"}
]
}
