{
"type": "FeatureCollection",
"features": [
	{"geometry":{"coordinates":[170.47984,-44.004914],"type":"Point"},"properties":{"osm_id":"6397315985","tag":{"amenity":"waste_basket"}},"type":"Feature"},
	{"geometry":{"coordinates":[170.476403,-44.003639],"type":"Point"},"properties":{"osm_id":"6397370486","tag":{"amenity":"waste_basket"}},"type":"Feature"},
	{"geometry":{"coordinates":[170.461825,-43.998874],"type":"Point"},"properties":{"osm_id":"8277696655","tag":{"access":"private","amenity":"recycling","recycling_type":"container"}},"type":"Feature"},
	{"geometry":{"coordinates":[170.461792,-43.998884],"type":"Point"},"properties":{"osm_id":"8277696656","tag":{"access":"private","amenity":"waste_basket"}},"type":"Feature"},
	{"geometry":{"coordinates":[170.460499,-43.996927],"type":"Point"},"properties":{"osm_id":"8277696689","tag":{"access":"private","amenity":"waste_basket"}},"type":"Feature"},
	{"geometry":{"coordinates":[170.460533,-43.99692],"type":"Point"},"properties":{"osm_id":"8277696690","tag":{"access":"private","amenity":"recycling","recycling_type":"container"}},"type":"Feature"}
]
}
