{
"type": "FeatureCollection",
"features": [
	{"geometry":{"coordinates":[172.634123,-43.54148],"type":"Point"},"properties":{"name":"Metalman","osm_id":"3103353320","tag":{"amenity":"recycling","recycling_type":"centre","url":"http://www.metalman.co.nz/"}},"type":"Feature"},
	{"geometry":{"coordinates":[172.701713,-43.564574],"type":"Point"},"properties":{"osm_id":"3627109493","tag":{"amenity":"waste_basket"}},"type":"Feature"},
	{"geometry":{"coordinates":[172.629023,-43.53091],"type":"Point"},"properties":{"osm_id":"4139951443","tag":{"amenity":"waste_basket"}},"type":"Feature"},
	{"geometry":{"coordinates":[172.6358,-43.543568],"type":"Point"},"properties":{"osm_id":"4553449796","tag":{"amenity":"recycling","recycling:clothes":"yes","recycling_type":"container"}},"type":"Feature"},
	{"geometry":{"coordinates":[172.627312,-43.528309],"type":"Point"},"properties":{"osm_id":"4948102373","tag":{"amenity":"waste_basket"}},"type":"Feature"},
	{"geometry":{"coordinates":[172.636725,-43.543642],"type":"Point"},"properties":{"osm_id":"5339969022","tag":{"amenity":"waste_basket"}},"type":"Feature"},
	{"geometry":{"coordinates":[172.636725,-43.545772],"type":"Point"},"properties":{"osm_id":"5339969023","tag":{"amenity":"waste_basket"}},"type":"Feature"},
	{"geometry":{"coordinates":[172.627402,-43.554122],"type":"Point"},"properties":{"osm_id":"5894559343","tag":{"amenity":"waste_basket"}},"type":"Feature"},
	{"geometry":{"coordinates":[172.656911,-43.529892],"type":"Point"},"properties":{"osm_id":"6199988791","tag":{"amenity":"waste_basket"}},"type":"Feature"},
	{"geometry":{"coordinates":[172.643035,-43.54808],"type":"Point"},"properties":{"osm_id":"6267254381","tag":{"amenity":"waste_basket","waste":"trash"}},"type":"Feature"},
	{"geometry":{"coordinates":[172.62824,-43.533946],"type":"Point"},"properties":{"osm_id":"7192186887","tag":{"amenity":"waste_basket"}},"type":"Feature"},
	{"geometry":{"coordinates":[172.627576,-43.534061],"type":"Point"},"properties":{"osm_id":"7192186889","tag":{"amenity":"waste_basket"}},"type":"Feature"},
	{"geometry":{"coordinates":[172.627725,-43.533754],"type":"Point"},"properties":{"osm_id":"7192188086","tag":{"amenity":"waste_basket"}},"type":"Feature"},
	{"geometry":{"coordinates":[172.630412,-43.534886],"type":"Point"},"properties":{"osm_id":"7192188088","tag":{"amenity":"waste_basket"}},"type":"Feature"},
	{"geometry":{"coordinates":[172.659438,-43.561936],"type":"Point"},"properties":{"osm_id":"7237769601","tag":{"amenity":"waste_basket"}},"type":"Feature"},
	{"geometry":{"coordinates":[172.664843,-43.560869],"type":"Point"},"properties":{"osm_id":"7237769602","tag":{"amenity":"waste_basket"}},"type":"Feature"}
]
}
