{
"type": "FeatureCollection",
"lastupdate": "2020-08-01T00:00:00Z",
"features": [
	{"geometry":{"coordinates":[172.697077,-43.60805],"type":"Point"},"properties":{"osm_id":"1199850513","tag":{"amenity":"waste_basket"}},"type":"Feature"},
	{"geometry":{"coordinates":[172.699545,-43.607134],"type":"Point"},"properties":{"osm_id":"1201336833","tag":{"amenity":"waste_basket"}},"type":"Feature"},
	{"geometry":{"coordinates":[172.7004,-43.606557],"type":"Point"},"properties":{"osm_id":"1201336857","tag":{"amenity":"waste_basket"}},"type":"Feature"},
	{"geometry":{"coordinates":[172.703124,-43.609683],"type":"Point"},"properties":{"osm_id":"3674355330","tag":{"amenity":"waste_basket","source:geometry":"LINZ/NZ Aerial Imagery,2014"}},"type":"Feature"},
	{"geometry":{"coordinates":[172.690955,-43.605644],"type":"Point"},"properties":{"osm_id":"4174112817","tag":{"amenity":"waste_basket"}},"type":"Feature"},
	{"geometry":{"coordinates":[172.690727,-43.605278],"type":"Point"},"properties":{"osm_id":"4174920394","tag":{"amenity":"waste_basket"}},"type":"Feature"},
	{"geometry":{"coordinates":[172.693114,-43.605448],"type":"Point"},"properties":{"osm_id":"4175089438","tag":{"amenity":"waste_basket"}},"type":"Feature"},
	{"geometry":{"coordinates":[172.69287,-43.605401],"type":"Point"},"properties":{"osm_id":"4175239347","tag":{"amenity":"waste_basket"}},"type":"Feature"},
	{"geometry":{"coordinates":[172.700258,-43.609013],"type":"Point"},"properties":{"osm_id":"4182163571","tag":{"amenity":"waste_basket"}},"type":"Feature"},
	{"geometry":{"coordinates":[172.700558,-43.607254],"type":"Point"},"properties":{"osm_id":"4199813366","tag":{"amenity":"waste_basket"}},"type":"Feature"},
	{"geometry":{"coordinates":[172.70052,-43.607276],"type":"Point"},"properties":{"osm_id":"4199813367","tag":{"amenity":"waste_basket"}},"type":"Feature"},
	{"geometry":{"coordinates":[172.635319,-43.580986],"type":"Point"},"properties":{"osm_id":"4918378025","tag":{"amenity":"waste_basket"}},"type":"Feature"},
	{"geometry":{"coordinates":[172.700413,-43.607204],"type":"Point"},"properties":{"osm_id":"7759267541","tag":{"amenity":"waste_basket"}},"type":"Feature"}
]
}
