{
"type": "FeatureCollection",
"features": [
	{"geometry":{"coordinates":[3.032632,36.77219],"type":"Point"},"properties":{"osm_id":"2726613068","tag":{"natural":"tree"}},"type":"Feature"},
	{"geometry":{"coordinates":[3.03272,36.772207],"type":"Point"},"properties":{"osm_id":"2726613071","tag":{"natural":"tree"}},"type":"Feature"},
	{"geometry":{"coordinates":[3.032997,36.772311],"type":"Point"},"properties":{"osm_id":"2726613072","tag":{"natural":"tree"}},"type":"Feature"},
	{"geometry":{"coordinates":[3.034547,36.774155],"type":"Point"},"properties":{"osm_id":"2726613073","tag":{"natural":"tree"}},"type":"Feature"},
	{"geometry":{"coordinates":[3.034463,36.774053],"type":"Point"},"properties":{"osm_id":"2726613074","tag":{"natural":"tree"}},"type":"Feature"},
	{"geometry":{"coordinates":[3.035941,36.774557],"type":"Point"},"properties":{"osm_id":"2726613607","tag":{"natural":"tree"}},"type":"Feature"},
	{"geometry":{"coordinates":[3.0099,36.766589],"type":"Point"},"properties":{"osm_id":"2726745062","tag":{"natural":"tree"}},"type":"Feature"},
	{"geometry":{"coordinates":[3.010128,36.766403],"type":"Point"},"properties":{"osm_id":"2726745063","tag":{"natural":"tree"}},"type":"Feature"},
	{"geometry":{"coordinates":[3.009019,36.766661],"type":"Point"},"properties":{"osm_id":"2726745064","tag":{"natural":"tree"}},"type":"Feature"},
	{"geometry":{"coordinates":[3.009396,36.766227],"type":"Point"},"properties":{"osm_id":"2726745065","tag":{"natural":"tree"}},"type":"Feature"},
	{"geometry":{"coordinates":[3.052555,36.766419],"type":"Point"},"properties":{"osm_id":"2726763857","tag":{"natural":"tree"}},"type":"Feature"},
	{"geometry":{"coordinates":[3.052649,36.766385],"type":"Point"},"properties":{"osm_id":"2726763859","tag":{"natural":"tree"}},"type":"Feature"},
	{"geometry":{"coordinates":[3.052751,36.76635],"type":"Point"},"properties":{"osm_id":"2726763862","tag":{"natural":"tree"}},"type":"Feature"},
	{"geometry":{"coordinates":[3.052858,36.766311],"type":"Point"},"properties":{"osm_id":"2726763867","tag":{"natural":"tree"}},"type":"Feature"},
	{"geometry":{"coordinates":[3.052944,36.766284],"type":"Point"},"properties":{"osm_id":"2726763868","tag":{"natural":"tree"}},"type":"Feature"},
	{"geometry":{"coordinates":[3.052711,36.766256],"type":"Point"},"properties":{"osm_id":"2726763869","tag":{"natural":"tree"}},"type":"Feature"},
	{"geometry":{"coordinates":[3.052493,36.766335],"type":"Point"},"properties":{"osm_id":"2726763870","tag":{"natural":"tree"}},"type":"Feature"},
	{"geometry":{"coordinates":[3.050456,36.789294],"type":"Point"},"properties":{"osm_id":"2731311417","tag":{"natural":"tree"}},"type":"Feature"},
	{"geometry":{"coordinates":[3.050351,36.789231],"type":"Point"},"properties":{"osm_id":"2731311421","tag":{"natural":"tree"}},"type":"Feature"},
	{"geometry":{"coordinates":[3.016742,36.790223],"type":"Point"},"properties":{"osm_id":"2744381173","tag":{"natural":"tree"}},"type":"Feature"},
	{"geometry":{"coordinates":[3.016625,36.790117],"type":"Point"},"properties":{"osm_id":"2744381174","tag":{"natural":"tree"}},"type":"Feature"},
	{"geometry":{"coordinates":[3.016489,36.789994],"type":"Point"},"properties":{"osm_id":"2744381175","tag":{"natural":"tree"}},"type":"Feature"},
	{"geometry":{"coordinates":[3.018674,36.790272],"type":"Point"},"properties":{"osm_id":"2744381176","tag":{"leaf_type":"broadleaved","natural":"tree"}},"type":"Feature"},
	{"geometry":{"coordinates":[3.018178,36.790576],"type":"Point"},"properties":{"osm_id":"2744381177","tag":{"natural":"tree"}},"type":"Feature"},
	{"geometry":{"coordinates":[3.016295,36.790763],"type":"Point"},"properties":{"osm_id":"2744381178","tag":{"natural":"tree"}},"type":"Feature"},
	{"geometry":{"coordinates":[3.015694,36.790909],"type":"Point"},"properties":{"osm_id":"2744381179","tag":{"natural":"tree"}},"type":"Feature"},
	{"geometry":{"coordinates":[3.015842,36.790872],"type":"Point"},"properties":{"osm_id":"2744381180","tag":{"natural":"tree"}},"type":"Feature"},
	{"geometry":{"coordinates":[3.015966,36.790845],"type":"Point"},"properties":{"osm_id":"2744381181","tag":{"natural":"tree"}},"type":"Feature"},
	{"geometry":{"coordinates":[3.016117,36.7908],"type":"Point"},"properties":{"osm_id":"2744381182","tag":{"natural":"tree"}},"type":"Feature"},
	{"geometry":{"coordinates":[3.028393,36.756571],"type":"Point"},"properties":{"osm_id":"2744449388","tag":{"natural":"tree"}},"type":"Feature"},
	{"geometry":{"coordinates":[3.02743,36.756146],"type":"Point"},"properties":{"osm_id":"2744449391","tag":{"natural":"tree"}},"type":"Feature"},
	{"geometry":{"coordinates":[3.028817,36.756353],"type":"Point"},"properties":{"osm_id":"2744449392","tag":{"natural":"tree"}},"type":"Feature"},
	{"geometry":{"coordinates":[3.028311,36.756819],"type":"Point"},"properties":{"osm_id":"2744449393","tag":{"natural":"tree"}},"type":"Feature"},
	{"geometry":{"coordinates":[3.044178,36.781958],"type":"Point"},"properties":{"osm_id":"2744718319","tag":{"natural":"tree"}},"type":"Feature"},
	{"geometry":{"coordinates":[3.007574,36.745843],"type":"Point"},"properties":{"osm_id":"2756882799","tag":{"natural":"tree"}},"type":"Feature"},
	{"geometry":{"coordinates":[3.007645,36.745773],"type":"Point"},"properties":{"osm_id":"2756882800","tag":{"natural":"tree"}},"type":"Feature"},
	{"geometry":{"coordinates":[3.008357,36.745953],"type":"Point"},"properties":{"osm_id":"2756882801","tag":{"natural":"tree"}},"type":"Feature"},
	{"geometry":{"coordinates":[3.008645,36.745219],"type":"Point"},"properties":{"osm_id":"2756882802","tag":{"natural":"tree"}},"type":"Feature"},
	{"geometry":{"coordinates":[3.015501,36.77082],"type":"Point"},"properties":{"osm_id":"2790552101","tag":{"natural":"tree"}},"type":"Feature"},
	{"geometry":{"coordinates":[3.051318,36.775788],"type":"Point"},"properties":{"osm_id":"2956012898","tag":{"natural":"tree"}},"type":"Feature"},
	{"geometry":{"coordinates":[3.051521,36.775833],"type":"Point"},"properties":{"osm_id":"2956012899","tag":{"natural":"tree"}},"type":"Feature"},
	{"geometry":{"coordinates":[3.051658,36.775797],"type":"Point"},"properties":{"osm_id":"2956012900","tag":{"natural":"tree"}},"type":"Feature"},
	{"geometry":{"coordinates":[3.056813,36.786043],"type":"Point"},"properties":{"osm_id":"2956020160","tag":{"natural":"tree"}},"type":"Feature"},
	{"geometry":{"coordinates":[3.05691,36.786099],"type":"Point"},"properties":{"osm_id":"2956020161","tag":{"natural":"tree"}},"type":"Feature"},
	{"geometry":{"coordinates":[3.001978,36.744775],"type":"Point"},"properties":{"osm_id":"2958406805","tag":{"natural":"tree"}},"type":"Feature"},
	{"geometry":{"coordinates":[3.002048,36.744801],"type":"Point"},"properties":{"osm_id":"2958406806","tag":{"natural":"tree"}},"type":"Feature"},
	{"geometry":{"coordinates":[3.002504,36.745095],"type":"Point"},"properties":{"osm_id":"2958406807","tag":{"natural":"tree"}},"type":"Feature"},
	{"geometry":{"coordinates":[3.00229,36.745092],"type":"Point"},"properties":{"osm_id":"2958406808","tag":{"natural":"tree"}},"type":"Feature"},
	{"geometry":{"coordinates":[3.001636,36.746117],"type":"Point"},"properties":{"osm_id":"2958406813","tag":{"natural":"tree"}},"type":"Feature"},
	{"geometry":{"coordinates":[3.001937,36.745822],"type":"Point"},"properties":{"osm_id":"2958406814","tag":{"natural":"tree"}},"type":"Feature"},
	{"geometry":{"coordinates":[3.042668,36.786914],"type":"Point"},"properties":{"osm_id":"2964487995","tag":{"natural":"tree"}},"type":"Feature"},
	{"geometry":{"coordinates":[3.055643,36.765989],"type":"Point"},"properties":{"osm_id":"2968184777","tag":{"natural":"tree"}},"type":"Feature"},
	{"geometry":{"coordinates":[3.055535,36.765969],"type":"Point"},"properties":{"osm_id":"2968184778","tag":{"natural":"tree"}},"type":"Feature"},
	{"geometry":{"coordinates":[3.055585,36.765057],"type":"Point"},"properties":{"osm_id":"2968184779","tag":{"natural":"tree"}},"type":"Feature"},
	{"geometry":{"coordinates":[3.054945,36.765901],"type":"Point"},"properties":{"osm_id":"2968184780","tag":{"natural":"tree"}},"type":"Feature"},
	{"geometry":{"coordinates":[3.054813,36.765884],"type":"Point"},"properties":{"osm_id":"2968184781","tag":{"natural":"tree"}},"type":"Feature"},
	{"geometry":{"coordinates":[3.055063,36.765919],"type":"Point"},"properties":{"osm_id":"2968184782","tag":{"natural":"tree"}},"type":"Feature"},
	{"geometry":{"coordinates":[3.055659,36.765898],"type":"Point"},"properties":{"osm_id":"2968184783","tag":{"natural":"tree"}},"type":"Feature"},
	{"geometry":{"coordinates":[3.055759,36.765909],"type":"Point"},"properties":{"osm_id":"2968184784","tag":{"natural":"tree"}},"type":"Feature"},
	{"geometry":{"coordinates":[3.056001,36.766052],"type":"Point"},"properties":{"osm_id":"2968184785","tag":{"natural":"tree"}},"type":"Feature"},
	{"geometry":{"coordinates":[3.036541,36.774313],"type":"Point"},"properties":{"osm_id":"2968778130","tag":{"natural":"tree"}},"type":"Feature"},
	{"geometry":{"coordinates":[3.036982,36.773769],"type":"Point"},"properties":{"osm_id":"2968778131","tag":{"natural":"tree"}},"type":"Feature"},
	{"geometry":{"coordinates":[3.062782,36.789352],"type":"Point"},"properties":{"osm_id":"2980403040","tag":{"natural":"tree"}},"type":"Feature"},
	{"geometry":{"coordinates":[3.062734,36.78939],"type":"Point"},"properties":{"osm_id":"2980403041","tag":{"natural":"tree"}},"type":"Feature"},
	{"geometry":{"coordinates":[3.062562,36.789534],"type":"Point"},"properties":{"osm_id":"2980403042","tag":{"natural":"tree"}},"type":"Feature"},
	{"geometry":{"coordinates":[3.062396,36.789673],"type":"Point"},"properties":{"osm_id":"2980403043","tag":{"natural":"tree"}},"type":"Feature"},
	{"geometry":{"coordinates":[3.062283,36.78978],"type":"Point"},"properties":{"osm_id":"2980403044","tag":{"natural":"tree"}},"type":"Feature"},
	{"geometry":{"coordinates":[3.06217,36.78989],"type":"Point"},"properties":{"osm_id":"2980403045","tag":{"natural":"tree"}},"type":"Feature"},
	{"geometry":{"coordinates":[3.062098,36.789985],"type":"Point"},"properties":{"osm_id":"2980403046","tag":{"natural":"tree"}},"type":"Feature"},
	{"geometry":{"coordinates":[3.05088,36.790524],"type":"Point"},"properties":{"osm_id":"3087457231","tag":{"landuse":"grass","natural":"tree"}},"type":"Feature"},
	{"geometry":{"coordinates":[3.050949,36.790548],"type":"Point"},"properties":{"osm_id":"3087457232","tag":{"landuse":"grass","natural":"tree"}},"type":"Feature"},
	{"geometry":{"coordinates":[3.051009,36.790566],"type":"Point"},"properties":{"osm_id":"3087457733","tag":{"landuse":"grass","natural":"tree"}},"type":"Feature"},
	{"geometry":{"coordinates":[3.051076,36.790592],"type":"Point"},"properties":{"osm_id":"3087457734","tag":{"landuse":"grass","natural":"tree"}},"type":"Feature"},
	{"geometry":{"coordinates":[3.051135,36.790611],"type":"Point"},"properties":{"osm_id":"3087457735","tag":{"landuse":"grass","natural":"tree"}},"type":"Feature"},
	{"geometry":{"coordinates":[3.051191,36.790633],"type":"Point"},"properties":{"osm_id":"3087457736","tag":{"landuse":"grass","natural":"tree"}},"type":"Feature"},
	{"geometry":{"coordinates":[3.051265,36.790658],"type":"Point"},"properties":{"osm_id":"3087457737","tag":{"landuse":"grass","natural":"tree"}},"type":"Feature"},
	{"geometry":{"coordinates":[3.051329,36.79068],"type":"Point"},"properties":{"osm_id":"3087457738","tag":{"landuse":"grass","natural":"tree"}},"type":"Feature"},
	{"geometry":{"coordinates":[3.051399,36.790704],"type":"Point"},"properties":{"osm_id":"3087457739","tag":{"landuse":"grass","natural":"tree"}},"type":"Feature"},
	{"geometry":{"coordinates":[3.01374,36.763362],"type":"Point"},"properties":{"osm_id":"3095559969","tag":{"natural":"tree"}},"type":"Feature"},
	{"geometry":{"coordinates":[3.013839,36.763296],"type":"Point"},"properties":{"osm_id":"3095559970","tag":{"natural":"tree"}},"type":"Feature"},
	{"geometry":{"coordinates":[3.014212,36.763563],"type":"Point"},"properties":{"osm_id":"3095559971","tag":{"natural":"tree"}},"type":"Feature"},
	{"geometry":{"coordinates":[3.014303,36.763413],"type":"Point"},"properties":{"osm_id":"3095559972","tag":{"natural":"tree"}},"type":"Feature"},
	{"geometry":{"coordinates":[3.010247,36.784716],"type":"Point"},"properties":{"osm_id":"3122555090","tag":{"natural":"tree"}},"type":"Feature"},
	{"geometry":{"coordinates":[3.058956,36.792191],"type":"Point"},"properties":{"osm_id":"3138575645","tag":{"natural":"tree","type":"palm"}},"type":"Feature"},
	{"geometry":{"coordinates":[3.059188,36.79217],"type":"Point"},"properties":{"osm_id":"3138575646","tag":{"natural":"tree"}},"type":"Feature"},
	{"geometry":{"coordinates":[3.059449,36.792274],"type":"Point"},"properties":{"osm_id":"3138575647","tag":{"natural":"tree"}},"type":"Feature"},
	{"geometry":{"coordinates":[3.059619,36.792347],"type":"Point"},"properties":{"osm_id":"3138575648","tag":{"natural":"tree"}},"type":"Feature"},
	{"geometry":{"coordinates":[3.059726,36.792343],"type":"Point"},"properties":{"osm_id":"3138575649","tag":{"natural":"tree"}},"type":"Feature"},
	{"geometry":{"coordinates":[3.05888,36.792053],"type":"Point"},"properties":{"osm_id":"3138575650","tag":{"natural":"tree"}},"type":"Feature"},
	{"geometry":{"coordinates":[3.05568,36.792715],"type":"Point"},"properties":{"osm_id":"3138625254","tag":{"natural":"tree"}},"type":"Feature"},
	{"geometry":{"coordinates":[3.055602,36.792736],"type":"Point"},"properties":{"osm_id":"3138625255","tag":{"natural":"tree"}},"type":"Feature"},
	{"geometry":{"coordinates":[3.061856,36.790664],"type":"Point"},"properties":{"osm_id":"3138625256","tag":{"natural":"tree"}},"type":"Feature"},
	{"geometry":{"coordinates":[3.062666,36.789294],"type":"Point"},"properties":{"osm_id":"3138625257","tag":{"natural":"tree"}},"type":"Feature"},
	{"geometry":{"coordinates":[3.062623,36.78933],"type":"Point"},"properties":{"osm_id":"3138625258","tag":{"natural":"tree"}},"type":"Feature"},
	{"geometry":{"coordinates":[3.061856,36.790712],"type":"Point"},"properties":{"osm_id":"3138625259","tag":{"natural":"tree"}},"type":"Feature"},
	{"geometry":{"coordinates":[3.062583,36.789365],"type":"Point"},"properties":{"osm_id":"3138625261","tag":{"natural":"tree"}},"type":"Feature"},
	{"geometry":{"coordinates":[3.06199,36.789895],"type":"Point"},"properties":{"osm_id":"3138625263","tag":{"natural":"tree"}},"type":"Feature"},
	{"geometry":{"coordinates":[3.055393,36.7928],"type":"Point"},"properties":{"osm_id":"3138625265","tag":{"natural":"tree"}},"type":"Feature"},
	{"geometry":{"coordinates":[3.057677,36.792023],"type":"Point"},"properties":{"osm_id":"3138625267","tag":{"natural":"tree"}},"type":"Feature"},
	{"geometry":{"coordinates":[3.054827,36.793024],"type":"Point"},"properties":{"osm_id":"3138625268","tag":{"natural":"tree"}},"type":"Feature"},
	{"geometry":{"coordinates":[3.054403,36.793204],"type":"Point"},"properties":{"osm_id":"3138625270","tag":{"natural":"tree"}},"type":"Feature"},
	{"geometry":{"coordinates":[3.054963,36.792968],"type":"Point"},"properties":{"osm_id":"3138625273","tag":{"natural":"tree"}},"type":"Feature"},
	{"geometry":{"coordinates":[3.062127,36.789947],"type":"Point"},"properties":{"osm_id":"3138625274","tag":{"natural":"tree"}},"type":"Feature"},
	{"geometry":{"coordinates":[3.062691,36.789427],"type":"Point"},"properties":{"osm_id":"3138625276","tag":{"natural":"tree"}},"type":"Feature"},
	{"geometry":{"coordinates":[3.06176,36.790864],"type":"Point"},"properties":{"osm_id":"3138625277","tag":{"natural":"tree"}},"type":"Feature"},
	{"geometry":{"coordinates":[3.062599,36.789498],"type":"Point"},"properties":{"osm_id":"3138625278","tag":{"natural":"tree"}},"type":"Feature"},
	{"geometry":{"coordinates":[3.06191,36.790119],"type":"Point"},"properties":{"osm_id":"3138625279","tag":{"natural":"tree"}},"type":"Feature"},
	{"geometry":{"coordinates":[3.058157,36.791787],"type":"Point"},"properties":{"osm_id":"3138625280","tag":{"natural":"tree"}},"type":"Feature"},
	{"geometry":{"coordinates":[3.057978,36.791877],"type":"Point"},"properties":{"osm_id":"3138625281","tag":{"natural":"tree"}},"type":"Feature"},
	{"geometry":{"coordinates":[3.062138,36.789766],"type":"Point"},"properties":{"osm_id":"3138625282","tag":{"natural":"tree"}},"type":"Feature"},
	{"geometry":{"coordinates":[3.062366,36.789547],"type":"Point"},"properties":{"osm_id":"3138625283","tag":{"natural":"tree"}},"type":"Feature"},
	{"geometry":{"coordinates":[3.062041,36.79031],"type":"Point"},"properties":{"osm_id":"3138625285","tag":{"natural":"tree"}},"type":"Feature"},
	{"geometry":{"coordinates":[3.061242,36.791599],"type":"Point"},"properties":{"osm_id":"3138625287","tag":{"natural":"tree"}},"type":"Feature"},
	{"geometry":{"coordinates":[3.057806,36.791961],"type":"Point"},"properties":{"osm_id":"3138625288","tag":{"natural":"tree"}},"type":"Feature"},
	{"geometry":{"coordinates":[3.061902,36.790218],"type":"Point"},"properties":{"osm_id":"3138625289","tag":{"natural":"tree"}},"type":"Feature"},
	{"geometry":{"coordinates":[3.062205,36.789855],"type":"Point"},"properties":{"osm_id":"3138625290","tag":{"natural":"tree"}},"type":"Feature"},
	{"geometry":{"coordinates":[3.062449,36.789481],"type":"Point"},"properties":{"osm_id":"3138625291","tag":{"natural":"tree"}},"type":"Feature"},
	{"geometry":{"coordinates":[3.05469,36.793082],"type":"Point"},"properties":{"osm_id":"3138625293","tag":{"natural":"tree"}},"type":"Feature"},
	{"geometry":{"coordinates":[3.061872,36.790512],"type":"Point"},"properties":{"osm_id":"3138625295","tag":{"natural":"tree"}},"type":"Feature"},
	{"geometry":{"coordinates":[3.062409,36.789511],"type":"Point"},"properties":{"osm_id":"3138625296","tag":{"natural":"tree"}},"type":"Feature"},
	{"geometry":{"coordinates":[3.062471,36.789601],"type":"Point"},"properties":{"osm_id":"3138625297","tag":{"natural":"tree"}},"type":"Feature"},
	{"geometry":{"coordinates":[3.062205,36.789691],"type":"Point"},"properties":{"osm_id":"3138625298","tag":{"natural":"tree"}},"type":"Feature"},
	{"geometry":{"coordinates":[3.061497,36.791575],"type":"Point"},"properties":{"osm_id":"3138625299","tag":{"natural":"tree"}},"type":"Feature"},
	{"geometry":{"coordinates":[3.062331,36.789584],"type":"Point"},"properties":{"osm_id":"3138625301","tag":{"natural":"tree"}},"type":"Feature"},
	{"geometry":{"coordinates":[3.057913,36.791899],"type":"Point"},"properties":{"osm_id":"3138625302","tag":{"natural":"tree"}},"type":"Feature"},
	{"geometry":{"coordinates":[3.06232,36.789743],"type":"Point"},"properties":{"osm_id":"3138625305","tag":{"natural":"tree"}},"type":"Feature"},
	{"geometry":{"coordinates":[3.061864,36.790626],"type":"Point"},"properties":{"osm_id":"3138625306","tag":{"natural":"tree"}},"type":"Feature"},
	{"geometry":{"coordinates":[3.06265,36.789462],"type":"Point"},"properties":{"osm_id":"3138625307","tag":{"natural":"tree"}},"type":"Feature"},
	{"geometry":{"coordinates":[3.061894,36.790325],"type":"Point"},"properties":{"osm_id":"3138625308","tag":{"natural":"tree"}},"type":"Feature"},
	{"geometry":{"coordinates":[3.062248,36.78982],"type":"Point"},"properties":{"osm_id":"3138625310","tag":{"natural":"tree"}},"type":"Feature"},
	{"geometry":{"coordinates":[3.054542,36.793144],"type":"Point"},"properties":{"osm_id":"3138625311","tag":{"natural":"tree"}},"type":"Feature"},
	{"geometry":{"coordinates":[3.055535,36.792755],"type":"Point"},"properties":{"osm_id":"3138625312","tag":{"natural":"tree"}},"type":"Feature"},
	{"geometry":{"coordinates":[3.05525,36.792843],"type":"Point"},"properties":{"osm_id":"3138625313","tag":{"natural":"tree"}},"type":"Feature"},
	{"geometry":{"coordinates":[3.062538,36.789408],"type":"Point"},"properties":{"osm_id":"3138625315","tag":{"natural":"tree"}},"type":"Feature"},
	{"geometry":{"coordinates":[3.061905,36.790177],"type":"Point"},"properties":{"osm_id":"3138625316","tag":{"natural":"tree"}},"type":"Feature"},
	{"geometry":{"coordinates":[3.055181,36.792878],"type":"Point"},"properties":{"osm_id":"3138625317","tag":{"natural":"tree"}},"type":"Feature"},
	{"geometry":{"coordinates":[3.062516,36.789569],"type":"Point"},"properties":{"osm_id":"3138625319","tag":{"natural":"tree"}},"type":"Feature"},
	{"geometry":{"coordinates":[3.054615,36.793116],"type":"Point"},"properties":{"osm_id":"3138625322","tag":{"natural":"tree"}},"type":"Feature"},
	{"geometry":{"coordinates":[3.061317,36.791474],"type":"Point"},"properties":{"osm_id":"3138625323","tag":{"natural":"tree"}},"type":"Feature"},
	{"geometry":{"coordinates":[3.061961,36.78993],"type":"Point"},"properties":{"osm_id":"3138625324","tag":{"natural":"tree"}},"type":"Feature"},
	{"geometry":{"coordinates":[3.062438,36.78964],"type":"Point"},"properties":{"osm_id":"3138625328","tag":{"natural":"tree"}},"type":"Feature"},
	{"geometry":{"coordinates":[3.055465,36.792779],"type":"Point"},"properties":{"osm_id":"3138625730","tag":{"natural":"tree"}},"type":"Feature"},
	{"geometry":{"coordinates":[3.058442,36.791886],"type":"Point"},"properties":{"osm_id":"3138625733","tag":{"natural":"tree"}},"type":"Feature"},
	{"geometry":{"coordinates":[3.057734,36.791987],"type":"Point"},"properties":{"osm_id":"3138625735","tag":{"natural":"tree"}},"type":"Feature"},
	{"geometry":{"coordinates":[3.061886,36.790411],"type":"Point"},"properties":{"osm_id":"3138625736","tag":{"natural":"tree"}},"type":"Feature"},
	{"geometry":{"coordinates":[3.057608,36.792047],"type":"Point"},"properties":{"osm_id":"3138625738","tag":{"natural":"tree"}},"type":"Feature"},
	{"geometry":{"coordinates":[3.055315,36.792822],"type":"Point"},"properties":{"osm_id":"3138625739","tag":{"natural":"tree"}},"type":"Feature"},
	{"geometry":{"coordinates":[3.054762,36.793052],"type":"Point"},"properties":{"osm_id":"3138625740","tag":{"natural":"tree"}},"type":"Feature"},
	{"geometry":{"coordinates":[3.062017,36.790177],"type":"Point"},"properties":{"osm_id":"3138625741","tag":{"natural":"tree"}},"type":"Feature"},
	{"geometry":{"coordinates":[3.062296,36.789623],"type":"Point"},"properties":{"osm_id":"3138625742","tag":{"natural":"tree"}},"type":"Feature"},
	{"geometry":{"coordinates":[3.054483,36.79317],"type":"Point"},"properties":{"osm_id":"3138625744","tag":{"natural":"tree"}},"type":"Feature"},
	{"geometry":{"coordinates":[3.062168,36.789732],"type":"Point"},"properties":{"osm_id":"3138625745","tag":{"natural":"tree"}},"type":"Feature"},
	{"geometry":{"coordinates":[3.055036,36.792934],"type":"Point"},"properties":{"osm_id":"3138625747","tag":{"natural":"tree"}},"type":"Feature"},
	{"geometry":{"coordinates":[3.062055,36.789842],"type":"Point"},"properties":{"osm_id":"3138625748","tag":{"natural":"tree"}},"type":"Feature"},
	{"geometry":{"coordinates":[3.05809,36.791815],"type":"Point"},"properties":{"osm_id":"3138625749","tag":{"natural":"tree"}},"type":"Feature"},
	{"geometry":{"coordinates":[3.061819,36.790772],"type":"Point"},"properties":{"osm_id":"3138625752","tag":{"natural":"tree"}},"type":"Feature"},
	{"geometry":{"coordinates":[3.055106,36.792908],"type":"Point"},"properties":{"osm_id":"3138625753","tag":{"natural":"tree"}},"type":"Feature"},
	{"geometry":{"coordinates":[3.055757,36.792687],"type":"Point"},"properties":{"osm_id":"3138625754","tag":{"natural":"tree"}},"type":"Feature"},
	{"geometry":{"coordinates":[3.062363,36.789711],"type":"Point"},"properties":{"osm_id":"3138625755","tag":{"natural":"tree"}},"type":"Feature"},
	{"geometry":{"coordinates":[3.062095,36.789805],"type":"Point"},"properties":{"osm_id":"3138625757","tag":{"natural":"tree"}},"type":"Feature"},
	{"geometry":{"coordinates":[3.054891,36.792992],"type":"Point"},"properties":{"osm_id":"3138625759","tag":{"natural":"tree"}},"type":"Feature"},
	{"geometry":{"coordinates":[3.061862,36.790559],"type":"Point"},"properties":{"osm_id":"3138625761","tag":{"natural":"tree"}},"type":"Feature"},
	{"geometry":{"coordinates":[3.058039,36.791843],"type":"Point"},"properties":{"osm_id":"3138625762","tag":{"natural":"tree"}},"type":"Feature"},
	{"geometry":{"coordinates":[3.061797,36.790813],"type":"Point"},"properties":{"osm_id":"3138625764","tag":{"natural":"tree"}},"type":"Feature"},
	{"geometry":{"coordinates":[3.058444,36.791853],"type":"Point"},"properties":{"osm_id":"3138625766","tag":{"natural":"tree"}},"type":"Feature"},
	{"geometry":{"coordinates":[3.062052,36.790061],"type":"Point"},"properties":{"osm_id":"3138625767","tag":{"natural":"tree"}},"type":"Feature"},
	{"geometry":{"coordinates":[3.062028,36.79023],"type":"Point"},"properties":{"osm_id":"3138625768","tag":{"natural":"tree"}},"type":"Feature"},
	{"geometry":{"coordinates":[3.045182,36.78784],"type":"Point"},"properties":{"osm_id":"3139680613","tag":{"natural":"tree","type":"palm"}},"type":"Feature"},
	{"geometry":{"coordinates":[3.059619,36.771993],"type":"Point"},"properties":{"osm_id":"3507744111","tag":{"natural":"tree"}},"type":"Feature"},
	{"geometry":{"coordinates":[3.057214,36.768362],"type":"Point"},"properties":{"osm_id":"3533106392","tag":{"natural":"tree"}},"type":"Feature"},
	{"geometry":{"coordinates":[3.057186,36.768294],"type":"Point"},"properties":{"osm_id":"3533106393","tag":{"natural":"tree"}},"type":"Feature"},
	{"geometry":{"coordinates":[3.057167,36.768207],"type":"Point"},"properties":{"osm_id":"3533106394","tag":{"natural":"tree"}},"type":"Feature"},
	{"geometry":{"coordinates":[3.057108,36.768127],"type":"Point"},"properties":{"osm_id":"3533106395","tag":{"natural":"tree"}},"type":"Feature"},
	{"geometry":{"coordinates":[3.054596,36.765854],"type":"Point"},"properties":{"osm_id":"3537206126","tag":{"natural":"tree"}},"type":"Feature"},
	{"geometry":{"coordinates":[3.054713,36.76587],"type":"Point"},"properties":{"osm_id":"3537206127","tag":{"natural":"tree"}},"type":"Feature"},
	{"geometry":{"coordinates":[3.054995,36.765791],"type":"Point"},"properties":{"osm_id":"3537206128","tag":{"natural":"tree"}},"type":"Feature"},
	{"geometry":{"coordinates":[3.054847,36.765782],"type":"Point"},"properties":{"osm_id":"3537206129","tag":{"natural":"tree"}},"type":"Feature"},
	{"geometry":{"coordinates":[3.054716,36.765766],"type":"Point"},"properties":{"osm_id":"3537206130","tag":{"natural":"tree"}},"type":"Feature"},
	{"geometry":{"coordinates":[3.054567,36.76574],"type":"Point"},"properties":{"osm_id":"3537206131","tag":{"natural":"tree"}},"type":"Feature"},
	{"geometry":{"coordinates":[3.056004,36.792197],"type":"Point"},"properties":{"osm_id":"3565909841","tag":{"natural":"tree"}},"type":"Feature"},
	{"geometry":{"coordinates":[3.058539,36.776175],"type":"Point"},"properties":{"osm_id":"3611545299","tag":{"natural":"tree"}},"type":"Feature"},
	{"geometry":{"coordinates":[3.058456,36.776394],"type":"Point"},"properties":{"osm_id":"3611545304","tag":{"natural":"tree"}},"type":"Feature"},
	{"geometry":{"coordinates":[3.050038,36.7389],"type":"Point"},"properties":{"osm_id":"4003196074","tag":{"natural":"tree"}},"type":"Feature"},
	{"geometry":{"coordinates":[3.050212,36.73909],"type":"Point"},"properties":{"osm_id":"4003196075","tag":{"natural":"tree"}},"type":"Feature"},
	{"geometry":{"coordinates":[3.050254,36.739197],"type":"Point"},"properties":{"osm_id":"4003196076","tag":{"natural":"tree"}},"type":"Feature"},
	{"geometry":{"coordinates":[3.059513,36.748154],"type":"Point"},"properties":{"osm_id":"4003196080","tag":{"natural":"tree"}},"type":"Feature"},
	{"geometry":{"coordinates":[3.059412,36.748333],"type":"Point"},"properties":{"osm_id":"4003196081","tag":{"natural":"tree"}},"type":"Feature"},
	{"geometry":{"coordinates":[3.059223,36.748151],"type":"Point"},"properties":{"osm_id":"4003196082","tag":{"natural":"tree"}},"type":"Feature"},
	{"geometry":{"coordinates":[3.06067,36.748181],"type":"Point"},"properties":{"osm_id":"4003196083","tag":{"natural":"tree"}},"type":"Feature"},
	{"geometry":{"coordinates":[3.0608,36.748449],"type":"Point"},"properties":{"osm_id":"4003196084","tag":{"natural":"tree"}},"type":"Feature"},
	{"geometry":{"coordinates":[3.059176,36.748394],"type":"Point"},"properties":{"osm_id":"4003196085","tag":{"natural":"tree"}},"type":"Feature"},
	{"geometry":{"coordinates":[3.05991,36.747979],"type":"Point"},"properties":{"osm_id":"4003196086","tag":{"natural":"tree"}},"type":"Feature"},
	{"geometry":{"coordinates":[3.060774,36.747914],"type":"Point"},"properties":{"osm_id":"4003196087","tag":{"natural":"tree"}},"type":"Feature"},
	{"geometry":{"coordinates":[3.05975,36.748525],"type":"Point"},"properties":{"osm_id":"4003196088","tag":{"natural":"tree"}},"type":"Feature"},
	{"geometry":{"coordinates":[3.05939,36.748015],"type":"Point"},"properties":{"osm_id":"4003199789","tag":{"natural":"tree"}},"type":"Feature"},
	{"geometry":{"coordinates":[3.059933,36.747754],"type":"Point"},"properties":{"osm_id":"4003199790","tag":{"natural":"tree"}},"type":"Feature"},
	{"geometry":{"coordinates":[3.060301,36.747835],"type":"Point"},"properties":{"osm_id":"4003199791","tag":{"natural":"tree"}},"type":"Feature"},
	{"geometry":{"coordinates":[3.060503,36.74804],"type":"Point"},"properties":{"osm_id":"4003199792","tag":{"natural":"tree"}},"type":"Feature"},
	{"geometry":{"coordinates":[3.059479,36.748631],"type":"Point"},"properties":{"osm_id":"4003199793","tag":{"natural":"tree"}},"type":"Feature"},
	{"geometry":{"coordinates":[3.058807,36.748472],"type":"Point"},"properties":{"osm_id":"4003199794","tag":{"natural":"tree"}},"type":"Feature"},
	{"geometry":{"coordinates":[3.061118,36.748368],"type":"Point"},"properties":{"osm_id":"4003199795","tag":{"natural":"tree"}},"type":"Feature"},
	{"geometry":{"coordinates":[3.060847,36.74802],"type":"Point"},"properties":{"osm_id":"4003199796","tag":{"natural":"tree"}},"type":"Feature"},
	{"geometry":{"coordinates":[3.060998,36.747641],"type":"Point"},"properties":{"osm_id":"4003199797","tag":{"natural":"tree"}},"type":"Feature"},
	{"geometry":{"coordinates":[3.059784,36.748131],"type":"Point"},"properties":{"osm_id":"4003199798","tag":{"natural":"tree"}},"type":"Feature"},
	{"geometry":{"coordinates":[3.059163,36.74857],"type":"Point"},"properties":{"osm_id":"4003199799","tag":{"natural":"tree"}},"type":"Feature"},
	{"geometry":{"coordinates":[3.058441,36.748426],"type":"Point"},"properties":{"osm_id":"4003199800","tag":{"natural":"tree"}},"type":"Feature"},
	{"geometry":{"coordinates":[3.059135,36.748783],"type":"Point"},"properties":{"osm_id":"4003199801","tag":{"natural":"tree"}},"type":"Feature"},
	{"geometry":{"coordinates":[3.058618,36.748651],"type":"Point"},"properties":{"osm_id":"4003199802","tag":{"natural":"tree"}},"type":"Feature"},
	{"geometry":{"coordinates":[3.058851,36.748914],"type":"Point"},"properties":{"osm_id":"4003199803","tag":{"natural":"tree"}},"type":"Feature"},
	{"geometry":{"coordinates":[3.058217,36.748707],"type":"Point"},"properties":{"osm_id":"4003199804","tag":{"natural":"tree"}},"type":"Feature"},
	{"geometry":{"coordinates":[3.058983,36.748692],"type":"Point"},"properties":{"osm_id":"4003199805","tag":{"natural":"tree"}},"type":"Feature"},
	{"geometry":{"coordinates":[3.059302,36.748874],"type":"Point"},"properties":{"osm_id":"4003199806","tag":{"natural":"tree"}},"type":"Feature"},
	{"geometry":{"coordinates":[3.05905,36.748174],"type":"Point"},"properties":{"osm_id":"4003199807","tag":{"natural":"tree"}},"type":"Feature"},
	{"geometry":{"coordinates":[3.060153,36.747747],"type":"Point"},"properties":{"osm_id":"4003199808","tag":{"natural":"tree"}},"type":"Feature"},
	{"geometry":{"coordinates":[3.060516,36.74782],"type":"Point"},"properties":{"osm_id":"4003199809","tag":{"natural":"tree"}},"type":"Feature"},
	{"geometry":{"coordinates":[3.060797,36.747777],"type":"Point"},"properties":{"osm_id":"4003199810","tag":{"natural":"tree"}},"type":"Feature"},
	{"geometry":{"coordinates":[3.061358,36.748166],"type":"Point"},"properties":{"osm_id":"4003199811","tag":{"natural":"tree"}},"type":"Feature"},
	{"geometry":{"coordinates":[3.061298,36.747777],"type":"Point"},"properties":{"osm_id":"4003199812","tag":{"natural":"tree"}},"type":"Feature"},
	{"geometry":{"coordinates":[3.061005,36.748042],"type":"Point"},"properties":{"osm_id":"4003199813","tag":{"natural":"tree"}},"type":"Feature"},
	{"geometry":{"coordinates":[3.061515,36.747992],"type":"Point"},"properties":{"osm_id":"4003199814","tag":{"natural":"tree"}},"type":"Feature"},
	{"geometry":{"coordinates":[3.060093,36.748191],"type":"Point"},"properties":{"osm_id":"4003199815","tag":{"natural":"tree"}},"type":"Feature"},
	{"geometry":{"coordinates":[3.071302,36.748459],"type":"Point"},"properties":{"osm_id":"4363688719","tag":{"natural":"tree"}},"type":"Feature"},
	{"geometry":{"coordinates":[3.07128,36.748425],"type":"Point"},"properties":{"osm_id":"4363688720","tag":{"natural":"tree"}},"type":"Feature"},
	{"geometry":{"coordinates":[3.071255,36.748397],"type":"Point"},"properties":{"osm_id":"4363688721","tag":{"natural":"tree"}},"type":"Feature"},
	{"geometry":{"coordinates":[3.071237,36.748368],"type":"Point"},"properties":{"osm_id":"4363688722","tag":{"natural":"tree"}},"type":"Feature"},
	{"geometry":{"coordinates":[3.071214,36.74833],"type":"Point"},"properties":{"osm_id":"4363688723","tag":{"natural":"tree"}},"type":"Feature"},
	{"geometry":{"coordinates":[3.071193,36.748298],"type":"Point"},"properties":{"osm_id":"4363688724","tag":{"natural":"tree"}},"type":"Feature"},
	{"geometry":{"coordinates":[3.071171,36.748269],"type":"Point"},"properties":{"osm_id":"4363688725","tag":{"natural":"tree"}},"type":"Feature"},
	{"geometry":{"coordinates":[3.071153,36.748236],"type":"Point"},"properties":{"osm_id":"4363688726","tag":{"natural":"tree"}},"type":"Feature"},
	{"geometry":{"coordinates":[3.071132,36.74821],"type":"Point"},"properties":{"osm_id":"4363688727","tag":{"natural":"tree"}},"type":"Feature"},
	{"geometry":{"coordinates":[3.071109,36.748172],"type":"Point"},"properties":{"osm_id":"4363688728","tag":{"natural":"tree"}},"type":"Feature"},
	{"geometry":{"coordinates":[3.071038,36.748079],"type":"Point"},"properties":{"osm_id":"4363688729","tag":{"natural":"tree"}},"type":"Feature"},
	{"geometry":{"coordinates":[3.024368,36.762237],"type":"Point"},"properties":{"osm_id":"5034082718","tag":{"natural":"tree"}},"type":"Feature"},
	{"geometry":{"coordinates":[3.024686,36.761846],"type":"Point"},"properties":{"osm_id":"5034117947","tag":{"natural":"tree"}},"type":"Feature"},
	{"geometry":{"coordinates":[3.024576,36.761932],"type":"Point"},"properties":{"osm_id":"5034121844","tag":{"natural":"tree"}},"type":"Feature"},
	{"geometry":{"coordinates":[3.024373,36.762228],"type":"Point"},"properties":{"osm_id":"5034121853","tag":{"natural":"tree"}},"type":"Feature"},
	{"geometry":{"coordinates":[3.023708,36.76315],"type":"Point"},"properties":{"osm_id":"5034121854","tag":{"natural":"tree"}},"type":"Feature"},
	{"geometry":{"coordinates":[2.994263,36.739489],"type":"Point"},"properties":{"name":"Fig","osm_id":"5640123643","tag":{"natural":"tree"}},"type":"Feature"},
	{"geometry":{"coordinates":[3.063025,36.784432],"type":"Point"},"properties":{"osm_id":"5640124046","tag":{"natural":"tree"}},"type":"Feature"},
	{"geometry":{"coordinates":[3.03742,36.766586],"type":"Point"},"properties":{"name":"Fruit tree","osm_id":"5640124399","tag":{"natural":"tree"}},"type":"Feature"},
	{"geometry":{"coordinates":[3.061986,36.785315],"type":"Point"},"properties":{"osm_id":"5640124531","tag":{"natural":"tree"}},"type":"Feature"},
	{"geometry":{"coordinates":[3.074784,36.750349],"type":"Point"},"properties":{"osm_id":"5640125953","tag":{"genus":"Morus","genus:ar":"\u00d8\u00aa\u00d9\u0088\u00d8\u00aa","genus:wikidata":"Q44789","genus:wikipedia":"ar:\u00d8\u00aa\u00d9\u0088\u00d8\u00aa (\u00d9\u0086\u00d8\u00a8\u00d8\u00a7\u00d8\u00aa)","natural":"tree"}},"type":"Feature"},
	{"geometry":{"coordinates":[3.039159,36.752167],"type":"Point"},"properties":{"osm_id":"5640126605","tag":{"natural":"tree"}},"type":"Feature"},
	{"geometry":{"coordinates":[2.996341,36.744238],"type":"Point"},"properties":{"osm_id":"5640132165","tag":{"natural":"tree"}},"type":"Feature"},
	{"geometry":{"coordinates":[3.054976,36.76986],"type":"Point"},"properties":{"osm_id":"6404020010","tag":{"leaf_type":"broadleaved","natural":"tree"}},"type":"Feature"},
	{"geometry":{"coordinates":[3.054746,36.769812],"type":"Point"},"properties":{"osm_id":"6404020011","tag":{"leaf_type":"broadleaved","natural":"tree"}},"type":"Feature"},
	{"geometry":{"coordinates":[3.054435,36.769437],"type":"Point"},"properties":{"osm_id":"6404020012","tag":{"natural":"tree"}},"type":"Feature"},
	{"geometry":{"coordinates":[3.055407,36.77036],"type":"Point"},"properties":{"osm_id":"6404024960","tag":{"leaf_type":"broadleaved","natural":"tree"}},"type":"Feature"}
]
}
