{
"type": "FeatureCollection",
"features": [
	{"geometry":{"coordinates":[-25.668991,37.739948],"type":"Point"},"properties":{"osm_id":"4305062257","tag":{"amenity":"waste_basket"}},"type":"Feature"},
	{"geometry":{"coordinates":[-25.67002,37.740515],"type":"Point"},"properties":{"osm_id":"4796851544","tag":{"amenity":"waste_basket"}},"type":"Feature"},
	{"geometry":{"coordinates":[-25.665603,37.739868],"type":"Point"},"properties":{"osm_id":"4797217587","tag":{"amenity":"waste_basket"}},"type":"Feature"},
	{"geometry":{"coordinates":[-25.675718,37.741313],"type":"Point"},"properties":{"osm_id":"4804685559","tag":{"amenity":"waste_basket"}},"type":"Feature"},
	{"geometry":{"coordinates":[-25.677791,37.743305],"type":"Point"},"properties":{"osm_id":"4804687912","tag":{"amenity":"waste_basket"}},"type":"Feature"},
	{"geometry":{"coordinates":[-25.676674,37.748328],"type":"Point"},"properties":{"osm_id":"4805325805","tag":{"amenity":"waste_basket"}},"type":"Feature"},
	{"geometry":{"coordinates":[-25.667312,37.740626],"type":"Point"},"properties":{"osm_id":"4813712871","tag":{"amenity":"waste_disposal"}},"type":"Feature"},
	{"geometry":{"coordinates":[-25.668015,37.746591],"type":"Point"},"properties":{"osm_id":"5267748867","tag":{"amenity":"waste_basket"}},"type":"Feature"},
	{"geometry":{"coordinates":[-25.667985,37.738801],"type":"Point"},"properties":{"osm_id":"5267991126","tag":{"amenity":"waste_basket"}},"type":"Feature"},
	{"geometry":{"coordinates":[-25.664905,37.739601],"type":"Point"},"properties":{"osm_id":"5268105931","tag":{"amenity":"recycling","recycling_type":"container"}},"type":"Feature"},
	{"geometry":{"coordinates":[-25.682556,37.741724],"type":"Point"},"properties":{"name":"Trash cans","osm_id":"5825439109","tag":{"amenity":"waste_basket"}},"type":"Feature"},
	{"geometry":{"coordinates":[-25.668784,37.73845],"type":"Point"},"properties":{"osm_id":"5893576687","tag":{"amenity":"waste_basket"}},"type":"Feature"},
	{"geometry":{"coordinates":[-25.668579,37.738615],"type":"Point"},"properties":{"osm_id":"5893580186","tag":{"amenity":"waste_basket"}},"type":"Feature"},
	{"geometry":{"coordinates":[-25.669,37.73825],"type":"Point"},"properties":{"osm_id":"5893580187","tag":{"amenity":"waste_basket"}},"type":"Feature"}
]
}
