{
"type": "FeatureCollection",
"features": [
	{"geometry":{"coordinates":[-99.112005,19.405038],"type":"Point"},"properties":{"osm_id":"3797143423","tag":{"natural":"tree"}},"type":"Feature"},
	{"geometry":{"coordinates":[-99.111149,19.405185],"type":"Point"},"properties":{"osm_id":"3797143667","tag":{"natural":"tree"}},"type":"Feature"},
	{"geometry":{"coordinates":[-99.109947,19.407169],"type":"Point"},"properties":{"osm_id":"3797166852","tag":{"natural":"tree"}},"type":"Feature"},
	{"geometry":{"coordinates":[-99.109749,19.407211],"type":"Point"},"properties":{"osm_id":"3797166853","tag":{"natural":"tree"}},"type":"Feature"},
	{"geometry":{"coordinates":[-99.11003,19.407047],"type":"Point"},"properties":{"osm_id":"3797166854","tag":{"natural":"tree"}},"type":"Feature"},
	{"geometry":{"coordinates":[-99.091903,19.396162],"type":"Point"},"properties":{"osm_id":"4500824449","tag":{"layer":"1","natural":"tree"}},"type":"Feature"},
	{"geometry":{"coordinates":[-99.092109,19.396292],"type":"Point"},"properties":{"osm_id":"4565735658","tag":{"layer":"1","natural":"tree"}},"type":"Feature"},
	{"geometry":{"coordinates":[-99.091862,19.396373],"type":"Point"},"properties":{"osm_id":"4565735659","tag":{"layer":"1","natural":"tree"}},"type":"Feature"},
	{"geometry":{"coordinates":[-99.09221,19.395761],"type":"Point"},"properties":{"osm_id":"4565735660","tag":{"layer":"1","natural":"tree"}},"type":"Feature"},
	{"geometry":{"coordinates":[-99.091932,19.395627],"type":"Point"},"properties":{"osm_id":"4565735661","tag":{"layer":"1","natural":"tree"}},"type":"Feature"},
	{"geometry":{"coordinates":[-99.091999,19.395479],"type":"Point"},"properties":{"osm_id":"4565735662","tag":{"layer":"1","natural":"tree"}},"type":"Feature"},
	{"geometry":{"coordinates":[-99.132758,19.433445],"type":"Point"},"properties":{"osm_id":"4594598737","tag":{"leaf_type":"broadleaved","natural":"tree"}},"type":"Feature"},
	{"geometry":{"coordinates":[-99.132825,19.433454],"type":"Point"},"properties":{"osm_id":"4594598738","tag":{"leaf_type":"broadleaved","natural":"tree"}},"type":"Feature"},
	{"geometry":{"coordinates":[-99.132893,19.433462],"type":"Point"},"properties":{"osm_id":"4594598739","tag":{"leaf_type":"broadleaved","natural":"tree"}},"type":"Feature"},
	{"geometry":{"coordinates":[-99.132961,19.433471],"type":"Point"},"properties":{"osm_id":"4594598740","tag":{"leaf_type":"broadleaved","natural":"tree"}},"type":"Feature"},
	{"geometry":{"coordinates":[-99.133028,19.433479],"type":"Point"},"properties":{"osm_id":"4594598741","tag":{"leaf_type":"broadleaved","natural":"tree"}},"type":"Feature"},
	{"geometry":{"coordinates":[-99.133096,19.433488],"type":"Point"},"properties":{"osm_id":"4594598742","tag":{"leaf_type":"broadleaved","natural":"tree"}},"type":"Feature"},
	{"geometry":{"coordinates":[-99.133164,19.433496],"type":"Point"},"properties":{"osm_id":"4594598743","tag":{"leaf_type":"broadleaved","natural":"tree"}},"type":"Feature"},
	{"geometry":{"coordinates":[-99.133231,19.433505],"type":"Point"},"properties":{"osm_id":"4594598744","tag":{"leaf_type":"broadleaved","natural":"tree"}},"type":"Feature"},
	{"geometry":{"coordinates":[-99.135277,19.433627],"type":"Point"},"properties":{"name":"El Cardenal","osm_id":"4594598745","tag":{"addr:city":"Ciudad de M\u00c3\u00a9xico","addr:housenumber":"23","addr:street":"Palma","amenity":"restaurant","cuisine":"mexican","leaf_type":"broadleaved","natural":"tree","phone":"+52 55 5521 3080","smoking":"no","website":"http://restauranteelcardenal.com","wheelchair":"yes"}},"type":"Feature"},
	{"geometry":{"coordinates":[-99.133367,19.433522],"type":"Point"},"properties":{"osm_id":"4594598746","tag":{"leaf_type":"broadleaved","natural":"tree"}},"type":"Feature"},
	{"geometry":{"coordinates":[-99.133434,19.433531],"type":"Point"},"properties":{"osm_id":"4594598747","tag":{"leaf_type":"broadleaved","natural":"tree"}},"type":"Feature"},
	{"geometry":{"coordinates":[-99.133502,19.433539],"type":"Point"},"properties":{"osm_id":"4594598748","tag":{"leaf_type":"broadleaved","natural":"tree"}},"type":"Feature"},
	{"geometry":{"coordinates":[-99.133569,19.433548],"type":"Point"},"properties":{"osm_id":"4594598749","tag":{"leaf_type":"broadleaved","natural":"tree"}},"type":"Feature"},
	{"geometry":{"coordinates":[-99.133595,19.434519],"type":"Point"},"properties":{"osm_id":"4594598766","tag":{"leaf_type":"broadleaved","natural":"tree"}},"type":"Feature"},
	{"geometry":{"coordinates":[-99.132623,19.433435],"type":"Point"},"properties":{"osm_id":"5065079168","tag":{"leaf_type":"broadleaved","natural":"tree"}},"type":"Feature"},
	{"geometry":{"coordinates":[-99.132696,19.433443],"type":"Point"},"properties":{"osm_id":"5065079169","tag":{"leaf_type":"broadleaved","natural":"tree"}},"type":"Feature"},
	{"geometry":{"coordinates":[-99.133652,19.434968],"type":"Point"},"properties":{"osm_id":"5065083339","tag":{"leaf_type":"broadleaved","natural":"tree"}},"type":"Feature"},
	{"geometry":{"coordinates":[-99.133586,19.434965],"type":"Point"},"properties":{"osm_id":"5065083340","tag":{"leaf_type":"broadleaved","natural":"tree"}},"type":"Feature"},
	{"geometry":{"coordinates":[-99.133677,19.434762],"type":"Point"},"properties":{"osm_id":"5065083341","tag":{"leaf_type":"broadleaved","natural":"tree"}},"type":"Feature"},
	{"geometry":{"coordinates":[-99.087409,19.419119],"type":"Point"},"properties":{"osm_id":"5392699335","tag":{"leaf_type":"broadleaved","natural":"tree"}},"type":"Feature"},
	{"geometry":{"coordinates":[-99.087478,19.419472],"type":"Point"},"properties":{"osm_id":"5392699336","tag":{"leaf_type":"broadleaved","natural":"tree"}},"type":"Feature"},
	{"geometry":{"coordinates":[-99.086926,19.419163],"type":"Point"},"properties":{"osm_id":"5392699337","tag":{"leaf_type":"broadleaved","natural":"tree"}},"type":"Feature"},
	{"geometry":{"coordinates":[-99.086864,19.419127],"type":"Point"},"properties":{"osm_id":"5392699338","tag":{"leaf_type":"broadleaved","natural":"tree"}},"type":"Feature"},
	{"geometry":{"coordinates":[-99.087016,19.419217],"type":"Point"},"properties":{"osm_id":"5392699339","tag":{"leaf_type":"broadleaved","natural":"tree"}},"type":"Feature"},
	{"geometry":{"coordinates":[-99.086401,19.419975],"type":"Point"},"properties":{"osm_id":"5392699340","tag":{"leaf_type":"broadleaved","natural":"tree"}},"type":"Feature"},
	{"geometry":{"coordinates":[-99.08403,19.414168],"type":"Point"},"properties":{"osm_id":"5392699355","tag":{"denotation":"park","leaf_type":"broadleaved","natural":"tree"}},"type":"Feature"},
	{"geometry":{"coordinates":[-99.083952,19.414154],"type":"Point"},"properties":{"osm_id":"5392699356","tag":{"denotation":"park","leaf_type":"broadleaved","natural":"tree"}},"type":"Feature"},
	{"geometry":{"coordinates":[-99.084174,19.414196],"type":"Point"},"properties":{"osm_id":"5392699357","tag":{"denotation":"park","leaf_type":"broadleaved","natural":"tree"}},"type":"Feature"},
	{"geometry":{"coordinates":[-99.084265,19.413947],"type":"Point"},"properties":{"osm_id":"5392699358","tag":{"addr:city":"Ciudad de M\u00c3\u00a9xico","addr:postcode":"15730","addr:street":"Secretaria del Tabajo","denotation":"natural_monument","leaf_cycle":"semi_evergreen","leaf_type":"broadleaved","natural":"tree"}},"type":"Feature"},
	{"geometry":{"coordinates":[-99.083525,19.414206],"type":"Point"},"properties":{"osm_id":"5392699359","tag":{"denotation":"park","description":"Palmera","leaf_type":"broadleaved","natural":"tree"}},"type":"Feature"},
	{"geometry":{"coordinates":[-99.08349,19.414605],"type":"Point"},"properties":{"osm_id":"5392699360","tag":{"denotation":"single","description":"Palmera","leaf_type":"broadleaved","natural":"tree"}},"type":"Feature"},
	{"geometry":{"coordinates":[-99.083429,19.41488],"type":"Point"},"properties":{"osm_id":"5392699361","tag":{"denotation":"single","description":"Palmera","leaf_type":"broadleaved","natural":"tree"}},"type":"Feature"},
	{"geometry":{"coordinates":[-99.083458,19.414751],"type":"Point"},"properties":{"osm_id":"5392699362","tag":{"denotation":"single","description":"Palmera","leaf_type":"broadleaved","natural":"tree"}},"type":"Feature"},
	{"geometry":{"coordinates":[-99.083847,19.414751],"type":"Point"},"properties":{"osm_id":"5392699363","tag":{"denotation":"park","description":"Palmera","leaf_type":"broadleaved","natural":"tree"}},"type":"Feature"},
	{"geometry":{"coordinates":[-99.0838,19.415103],"type":"Point"},"properties":{"osm_id":"5392699364","tag":{"denotation":"garden","description":"Palmera","leaf_type":"broadleaved","natural":"tree"}},"type":"Feature"},
	{"geometry":{"coordinates":[-99.08432,19.415046],"type":"Point"},"properties":{"osm_id":"5392699365","tag":{"denotation":"single","description":"Arbol","leaf_type":"broadleaved","natural":"tree"}},"type":"Feature"},
	{"geometry":{"coordinates":[-99.083835,19.417022],"type":"Point"},"properties":{"osm_id":"5392699366","tag":{"denotation":"single","description":"Arbol gigante","leaf_type":"broadleaved","natural":"tree"}},"type":"Feature"},
	{"geometry":{"coordinates":[-99.085029,19.416463],"type":"Point"},"properties":{"osm_id":"5392714432","tag":{"denotation":"single","description":"Arbol","leaf_type":"broadleaved","natural":"tree"}},"type":"Feature"},
	{"geometry":{"coordinates":[-99.0838,19.415122],"type":"Point"},"properties":{"osm_id":"5397794590","tag":{"denotation":"garden","description":"Palmera","leaf_type":"broadleaved","natural":"tree"}},"type":"Feature"},
	{"geometry":{"coordinates":[-99.083748,19.415102],"type":"Point"},"properties":{"osm_id":"5397794591","tag":{"denotation":"garden","description":"Palmera","leaf_type":"broadleaved","natural":"tree"}},"type":"Feature"},
	{"geometry":{"coordinates":[-99.083723,19.415115],"type":"Point"},"properties":{"osm_id":"5397794592","tag":{"denotation":"garden","description":"Palmera","leaf_type":"broadleaved","natural":"tree"}},"type":"Feature"},
	{"geometry":{"coordinates":[-99.083687,19.415112],"type":"Point"},"properties":{"osm_id":"5397794593","tag":{"denotation":"garden","description":"Palmera","leaf_type":"broadleaved","natural":"tree"}},"type":"Feature"},
	{"geometry":{"coordinates":[-99.083664,19.415095],"type":"Point"},"properties":{"osm_id":"5397794594","tag":{"denotation":"garden","description":"Palmera","leaf_type":"broadleaved","natural":"tree"}},"type":"Feature"},
	{"geometry":{"coordinates":[-99.083513,19.414485],"type":"Point"},"properties":{"osm_id":"5412010066","tag":{"denotation":"single","description":"Arbol de higos","leaf_type":"needleleaved","natural":"tree"}},"type":"Feature"},
	{"geometry":{"coordinates":[-99.08298,19.415702],"type":"Point"},"properties":{"osm_id":"5412010081","tag":{"denotation":"single","description":"Arbol gigante","leaf_type":"broadleaved","natural":"tree"}},"type":"Feature"},
	{"geometry":{"coordinates":[-99.082999,19.41558],"type":"Point"},"properties":{"osm_id":"5412010082","tag":{"denotation":"single","description":"Arbol gigante","leaf_type":"broadleaved","natural":"tree"}},"type":"Feature"},
	{"geometry":{"coordinates":[-99.082987,19.41565],"type":"Point"},"properties":{"osm_id":"5412010083","tag":{"denotation":"single","description":"Arbol gigante","leaf_type":"broadleaved","natural":"tree"}},"type":"Feature"},
	{"geometry":{"coordinates":[-99.083936,19.415883],"type":"Point"},"properties":{"osm_id":"5412010084","tag":{"denotation":"single","description":"Palmera","leaf_type":"broadleaved","natural":"tree"}},"type":"Feature"},
	{"geometry":{"coordinates":[-99.084806,19.414377],"type":"Point"},"properties":{"osm_id":"5424100527","tag":{"leaf_type":"broadleaved","natural":"tree"}},"type":"Feature"},
	{"geometry":{"coordinates":[-99.084791,19.414301],"type":"Point"},"properties":{"osm_id":"5424100528","tag":{"leaf_type":"broadleaved","natural":"tree"}},"type":"Feature"},
	{"geometry":{"coordinates":[-99.084862,19.414185],"type":"Point"},"properties":{"osm_id":"5424100529","tag":{"leaf_type":"broadleaved","natural":"tree"}},"type":"Feature"},
	{"geometry":{"coordinates":[-99.088348,19.420209],"type":"Point"},"properties":{"osm_id":"5424230838","tag":{"leaf_cycle":"semi_evergreen","leaf_type":"broadleaved","natural":"tree"}},"type":"Feature"},
	{"geometry":{"coordinates":[-99.089139,19.420355],"type":"Point"},"properties":{"osm_id":"5424230868","tag":{"denotation":"park","description":"Palmera","leaf_cycle":"semi_evergreen","leaf_type":"broadleaved","natural":"tree"}},"type":"Feature"},
	{"geometry":{"coordinates":[-99.089168,19.420308],"type":"Point"},"properties":{"osm_id":"5424230869","tag":{"denotation":"park","description":"Palmera","leaf_cycle":"semi_evergreen","leaf_type":"broadleaved","natural":"tree"}},"type":"Feature"},
	{"geometry":{"coordinates":[-99.089539,19.42024],"type":"Point"},"properties":{"osm_id":"5424230870","tag":{"denotation":"park","description":"Palmera","leaf_cycle":"semi_evergreen","leaf_type":"broadleaved","natural":"tree"}},"type":"Feature"},
	{"geometry":{"coordinates":[-99.084353,19.415139],"type":"Point"},"properties":{"osm_id":"5455906133","tag":{"denotation":"single","description":"Arbol gigante","leaf_type":"broadleaved","natural":"tree"}},"type":"Feature"},
	{"geometry":{"coordinates":[-99.082932,19.416298],"type":"Point"},"properties":{"osm_id":"5761278667","tag":{"leaf_cycle":"semi_evergreen","leaf_type":"needleleaved","natural":"tree"}},"type":"Feature"},
	{"geometry":{"coordinates":[-99.083312,19.414833],"type":"Point"},"properties":{"osm_id":"5776590964","tag":{"addr:city":"Ciudad de M\u00c3\u00a9xico","addr:postcode":"15730","addr:street":"Secretaria del Tabajo","denotation":"natural_monument","description":"Gran \u00c3\u0081rbol frutal de Higos con mas de 100 a\u00c3\u00b1os y monumento natural representativo de la apertura del Parque P\u00c3\u00bablico Bah\u00c3\u00ada","leaf_cycle":"evergreen","leaf_type":"needleleaved","natural":"tree"}},"type":"Feature"},
	{"geometry":{"coordinates":[-99.084361,19.415129],"type":"Point"},"properties":{"osm_id":"5776590965","tag":{"addr:city":"Ciudad de M\u00c3\u00a9xico","addr:postcode":"15730","addr:street":"Previsi\u00c3\u00b3n Social","denotation":"street","description":"Gran \u00c3\u0081rbol de la colonia","leaf_cycle":"semi_deciduous","leaf_type":"needleleaved","natural":"tree"}},"type":"Feature"},
	{"geometry":{"coordinates":[-99.083408,19.413881],"type":"Point"},"properties":{"osm_id":"5776590970","tag":{"denotation":"park","description":"Palmera","leaf_type":"broadleaved","natural":"tree"}},"type":"Feature"},
	{"geometry":{"coordinates":[-99.083879,19.413996],"type":"Point"},"properties":{"osm_id":"5776590971","tag":{"denotation":"park","leaf_type":"broadleaved","natural":"tree"}},"type":"Feature"},
	{"geometry":{"coordinates":[-99.084094,19.414034],"type":"Point"},"properties":{"osm_id":"5776590972","tag":{"denotation":"park","leaf_type":"broadleaved","natural":"tree"}},"type":"Feature"},
	{"geometry":{"coordinates":[-99.084394,19.413704],"type":"Point"},"properties":{"osm_id":"5776624781","tag":{"denotation":"park","leaf_type":"broadleaved","natural":"tree"}},"type":"Feature"},
	{"geometry":{"coordinates":[-99.08442,19.41374],"type":"Point"},"properties":{"osm_id":"5776624782","tag":{"denotation":"park","leaf_type":"broadleaved","natural":"tree"}},"type":"Feature"},
	{"geometry":{"coordinates":[-99.084559,19.413738],"type":"Point"},"properties":{"osm_id":"5776624783","tag":{"denotation":"single","leaf_type":"broadleaved","natural":"tree"}},"type":"Feature"},
	{"geometry":{"coordinates":[-99.09062,19.421416],"type":"Point"},"properties":{"osm_id":"5796649879","tag":{"denotation":"urban","leaf_cycle":"semi_evergreen","leaf_type":"broadleaved","natural":"tree"}},"type":"Feature"},
	{"geometry":{"coordinates":[-99.090335,19.42112],"type":"Point"},"properties":{"osm_id":"5796649890","tag":{"denotation":"urban","leaf_cycle":"semi_evergreen","leaf_type":"broadleaved","natural":"tree"}},"type":"Feature"},
	{"geometry":{"coordinates":[-99.090217,19.421182],"type":"Point"},"properties":{"osm_id":"5796649891","tag":{"denotation":"urban","leaf_cycle":"semi_evergreen","leaf_type":"broadleaved","natural":"tree"}},"type":"Feature"},
	{"geometry":{"coordinates":[-99.090112,19.421132],"type":"Point"},"properties":{"osm_id":"5796649892","tag":{"denotation":"urban","leaf_cycle":"semi_evergreen","leaf_type":"broadleaved","natural":"tree"}},"type":"Feature"},
	{"geometry":{"coordinates":[-99.112688,19.41959],"type":"Point"},"properties":{"osm_id":"5805380278","tag":{"addr:city":"Venustiano Carranza","addr:postcode":"15900","addr:street":"Lucas Alam\u00c3\u00a1n","denotation":"urban","leaf_cycle":"semi_evergreen","leaf_type":"broadleaved","natural":"tree"}},"type":"Feature"},
	{"geometry":{"coordinates":[-99.11347,19.418872],"type":"Point"},"properties":{"osm_id":"5805382593","tag":{"addr:city":"Venustiano Carranza","addr:postcode":"15900","addr:street":"Lucas Alam\u00c3\u00a1n","denotation":"urban","leaf_cycle":"semi_evergreen","leaf_type":"broadleaved","natural":"tree"}},"type":"Feature"},
	{"geometry":{"coordinates":[-99.113884,19.418915],"type":"Point"},"properties":{"osm_id":"5805382594","tag":{"addr:city":"Venustiano Carranza","addr:postcode":"15900","addr:street":"Lucas Alam\u00c3\u00a1n","denotation":"urban","leaf_cycle":"semi_evergreen","leaf_type":"broadleaved","natural":"tree"}},"type":"Feature"},
	{"geometry":{"coordinates":[-99.113796,19.418663],"type":"Point"},"properties":{"osm_id":"5805382595","tag":{"addr:city":"Venustiano Carranza","addr:postcode":"15900","addr:street":"Lucas Alam\u00c3\u00a1n","denotation":"urban","leaf_cycle":"semi_evergreen","leaf_type":"broadleaved","natural":"tree"}},"type":"Feature"},
	{"geometry":{"coordinates":[-99.113376,19.418609],"type":"Point"},"properties":{"osm_id":"5805382596","tag":{"addr:city":"Venustiano Carranza","addr:postcode":"15900","addr:street":"Lucas Alam\u00c3\u00a1n","denotation":"urban","leaf_cycle":"semi_evergreen","leaf_type":"broadleaved","natural":"tree"}},"type":"Feature"},
	{"geometry":{"coordinates":[-99.113577,19.418627],"type":"Point"},"properties":{"osm_id":"5805382597","tag":{"addr:city":"Venustiano Carranza","addr:postcode":"15900","addr:street":"Lucas Alam\u00c3\u00a1n","denotation":"urban","leaf_cycle":"semi_evergreen","leaf_type":"broadleaved","natural":"tree"}},"type":"Feature"},
	{"geometry":{"coordinates":[-99.113981,19.418683],"type":"Point"},"properties":{"osm_id":"5805382598","tag":{"addr:city":"Venustiano Carranza","addr:postcode":"15900","addr:street":"Lucas Alam\u00c3\u00a1n","denotation":"urban","leaf_cycle":"semi_evergreen","leaf_type":"broadleaved","natural":"tree"}},"type":"Feature"},
	{"geometry":{"coordinates":[-99.113168,19.41858],"type":"Point"},"properties":{"osm_id":"5805382599","tag":{"addr:city":"Venustiano Carranza","addr:postcode":"15900","addr:street":"Lucas Alam\u00c3\u00a1n","denotation":"urban","leaf_cycle":"semi_evergreen","leaf_type":"broadleaved","natural":"tree"}},"type":"Feature"},
	{"geometry":{"coordinates":[-99.113984,19.418564],"type":"Point"},"properties":{"osm_id":"5805382600","tag":{"addr:city":"Venustiano Carranza","addr:postcode":"15900","addr:street":"Lucas Alam\u00c3\u00a1n","denotation":"urban","leaf_cycle":"semi_evergreen","leaf_type":"broadleaved","natural":"tree"}},"type":"Feature"},
	{"geometry":{"coordinates":[-99.114055,19.419447],"type":"Point"},"properties":{"osm_id":"5805382601","tag":{"addr:city":"Venustiano Carranza","addr:postcode":"15900","addr:street":"Lucas Alam\u00c3\u00a1n","denotation":"urban","leaf_cycle":"semi_evergreen","leaf_type":"broadleaved","natural":"tree"}},"type":"Feature"},
	{"geometry":{"coordinates":[-99.113613,19.41987],"type":"Point"},"properties":{"osm_id":"5805382633","tag":{"addr:city":"Venustiano Carranza","addr:postcode":"15900","addr:street":"Lucas Alam\u00c3\u00a1n","denotation":"urban","leaf_cycle":"semi_evergreen","leaf_type":"broadleaved","natural":"tree"}},"type":"Feature"},
	{"geometry":{"coordinates":[-99.113201,19.419822],"type":"Point"},"properties":{"osm_id":"5805382634","tag":{"addr:city":"Venustiano Carranza","addr:postcode":"15900","addr:street":"Lucas Alam\u00c3\u00a1n","denotation":"urban","leaf_cycle":"semi_evergreen","leaf_type":"broadleaved","natural":"tree"}},"type":"Feature"},
	{"geometry":{"coordinates":[-99.112964,19.419625],"type":"Point"},"properties":{"osm_id":"5805382635","tag":{"addr:city":"Venustiano Carranza","addr:postcode":"15900","addr:street":"Lucas Alam\u00c3\u00a1n","denotation":"urban","leaf_cycle":"semi_evergreen","leaf_type":"broadleaved","natural":"tree"}},"type":"Feature"},
	{"geometry":{"coordinates":[-99.089613,19.42028],"type":"Point"},"properties":{"osm_id":"5850063186","tag":{"denotation":"park","description":"Palmera","leaf_cycle":"semi_evergreen","leaf_type":"broadleaved","natural":"tree"}},"type":"Feature"},
	{"geometry":{"coordinates":[-99.089464,19.420218],"type":"Point"},"properties":{"osm_id":"5850063187","tag":{"denotation":"park","description":"Palmera","leaf_cycle":"semi_evergreen","leaf_type":"broadleaved","natural":"tree"}},"type":"Feature"},
	{"geometry":{"coordinates":[-99.089631,19.420192],"type":"Point"},"properties":{"osm_id":"5850063188","tag":{"denotation":"park","description":"Palmera","leaf_cycle":"semi_evergreen","leaf_type":"broadleaved","natural":"tree"}},"type":"Feature"},
	{"geometry":{"coordinates":[-99.08954,19.420172],"type":"Point"},"properties":{"osm_id":"5850063189","tag":{"denotation":"park","description":"Palmera","leaf_cycle":"semi_evergreen","leaf_type":"broadleaved","natural":"tree"}},"type":"Feature"},
	{"geometry":{"coordinates":[-99.089457,19.420156],"type":"Point"},"properties":{"osm_id":"5850063190","tag":{"denotation":"park","description":"Palmera","leaf_cycle":"semi_evergreen","leaf_type":"broadleaved","natural":"tree"}},"type":"Feature"},
	{"geometry":{"coordinates":[-99.090343,19.417547],"type":"Point"},"properties":{"osm_id":"5872963168","tag":{"addr:city":"Ciudad de M\u00c3\u00a9xico","addr:postcode":"15730","addr:street":"Trabajo y Previsi\u00c3\u00b3n Social","denotation":"natural_monument","description":"Arbol de Naranjas","leaf_cycle":"semi_deciduous","leaf_type":"needleleaved","natural":"tree"}},"type":"Feature"},
	{"geometry":{"coordinates":[-99.083921,19.415912],"type":"Point"},"properties":{"osm_id":"5877001900","tag":{"denotation":"single","description":"Palmera","leaf_type":"broadleaved","natural":"tree"}},"type":"Feature"},
	{"geometry":{"coordinates":[-99.083897,19.415892],"type":"Point"},"properties":{"osm_id":"5877001901","tag":{"denotation":"single","description":"Palmera","leaf_type":"broadleaved","natural":"tree"}},"type":"Feature"},
	{"geometry":{"coordinates":[-99.083888,19.415925],"type":"Point"},"properties":{"osm_id":"5877001902","tag":{"denotation":"single","description":"Palmera","leaf_type":"broadleaved","natural":"tree"}},"type":"Feature"},
	{"geometry":{"coordinates":[-99.089625,19.420231],"type":"Point"},"properties":{"osm_id":"5877001903","tag":{"denotation":"single","description":"Palmera","leaf_type":"broadleaved","natural":"tree"}},"type":"Feature"},
	{"geometry":{"coordinates":[-99.089535,19.420203],"type":"Point"},"properties":{"osm_id":"5877001904","tag":{"denotation":"single","description":"Palmera","leaf_type":"broadleaved","natural":"tree"}},"type":"Feature"},
	{"geometry":{"coordinates":[-99.08947,19.420184],"type":"Point"},"properties":{"osm_id":"5877001905","tag":{"denotation":"single","description":"Palmera","leaf_type":"broadleaved","natural":"tree"}},"type":"Feature"},
	{"geometry":{"coordinates":[-99.09401,19.420318],"type":"Point"},"properties":{"osm_id":"5877110686","tag":{"addr:city":"ciudad de mexico","addr:postcode":"15000","addr:street":"Aviaci\u00c3\u00b3n Civil","denotation":"single","description":"El gran Arbol","leaf_cycle":"evergreen","leaf_type":"broadleaved","natural":"tree"}},"type":"Feature"},
	{"geometry":{"coordinates":[-99.083886,19.415967],"type":"Point"},"properties":{"osm_id":"5877116805","tag":{"denotation":"single","description":"Palmera","leaf_type":"broadleaved","natural":"tree"}},"type":"Feature"},
	{"geometry":{"coordinates":[-99.083908,19.415996],"type":"Point"},"properties":{"osm_id":"5877116806","tag":{"denotation":"single","description":"Palmera","leaf_type":"broadleaved","natural":"tree"}},"type":"Feature"},
	{"geometry":{"coordinates":[-99.083379,19.414961],"type":"Point"},"properties":{"osm_id":"5885934438","tag":{"addr:city":"Ciudad de M\u00c3\u00a9xico","addr:postcode":"15730","addr:street":"Secretaria del Tabajo","denotation":"agricultural","description":"Arbol frutal de duraznos","leaf_cycle":"evergreen","leaf_type":"broadleaved","natural":"tree"}},"type":"Feature"},
	{"geometry":{"coordinates":[-99.112117,19.428741],"type":"Point"},"properties":{"osm_id":"6144467540","tag":{"leaf_cycle":"evergreen","leaf_type":"broadleaved","natural":"tree"}},"type":"Feature"},
	{"geometry":{"coordinates":[-99.136361,19.402117],"type":"Point"},"properties":{"osm_id":"6274638762","tag":{"natural":"tree"}},"type":"Feature"},
	{"geometry":{"coordinates":[-99.132036,19.461339],"type":"Point"},"properties":{"osm_id":"8014223365","tag":{"natural":"tree"}},"type":"Feature"},
	{"geometry":{"coordinates":[-99.131832,19.461373],"type":"Point"},"properties":{"osm_id":"8014223378","tag":{"natural":"tree"}},"type":"Feature"},
	{"geometry":{"coordinates":[-99.133595,19.434519],"type":"Point"},"properties":{"osm_id":"8042581389","tag":{"leaf_type":"broadleaved","level":"1","natural":"tree"}},"type":"Feature"},
	{"geometry":{"coordinates":[-99.133586,19.434965],"type":"Point"},"properties":{"osm_id":"8042581794","tag":{"leaf_type":"broadleaved","level":"1","natural":"tree"}},"type":"Feature"}
]
}
