{
"type": "FeatureCollection",
"features": [
	{"geometry":{"coordinates":[77.624457,12.947678],"type":"Point"},"properties":{"name":"Ravi Chandra's Shop","osm_id":"669245460","tag":{"amenity":"recycling"}},"type":"Feature"},
	{"geometry":{"coordinates":[77.614558,12.952612],"type":"Point"},"properties":{"name":"Nazeer Aahamad","osm_id":"671960254","tag":{"amenity":"recycling"}},"type":"Feature"},
	{"geometry":{"coordinates":[77.615237,12.95288],"type":"Point"},"properties":{"name":"Chinni Raju","osm_id":"671960262","tag":{"amenity":"recycling"}},"type":"Feature"},
	{"geometry":{"coordinates":[77.614264,12.951518],"type":"Point"},"properties":{"osm_id":"672011674","tag":{"amenity":"recycling","description":"dumpsite"}},"type":"Feature"},
	{"geometry":{"coordinates":[77.613906,12.951736],"type":"Point"},"properties":{"osm_id":"672011678","tag":{"amenity":"recycling","description":"dumpsite"}},"type":"Feature"},
	{"geometry":{"coordinates":[77.617473,12.95114],"type":"Point"},"properties":{"name":"Kumar","osm_id":"672011694","tag":{"amenity":"recycling"}},"type":"Feature"},
	{"geometry":{"coordinates":[77.617163,12.95132],"type":"Point"},"properties":{"osm_id":"672011697","tag":{"amenity":"recycling","description":"dumpsite"}},"type":"Feature"},
	{"geometry":{"coordinates":[77.617931,12.951849],"type":"Point"},"properties":{"osm_id":"672011699","tag":{"amenity":"recycling","description":"dumpsite"}},"type":"Feature"},
	{"geometry":{"coordinates":[77.617396,12.952773],"type":"Point"},"properties":{"osm_id":"672011700","tag":{"amenity":"recycling","description":"dumpsite"}},"type":"Feature"},
	{"geometry":{"coordinates":[77.615916,12.953048],"type":"Point"},"properties":{"name":"Sapha","osm_id":"672011704","tag":{"amenity":"recycling"}},"type":"Feature"},
	{"geometry":{"coordinates":[77.616895,12.953734],"type":"Point"},"properties":{"name":"Palani","osm_id":"672011707","tag":{"amenity":"recycling"}},"type":"Feature"},
	{"geometry":{"coordinates":[77.617539,12.952984],"type":"Point"},"properties":{"name":"Muniswamy","osm_id":"672011711","tag":{"amenity":"recycling"}},"type":"Feature"},
	{"geometry":{"coordinates":[77.620137,12.95197],"type":"Point"},"properties":{"name":"Gaja lakshmi","osm_id":"672055792","tag":{"amenity":"recycling"}},"type":"Feature"},
	{"geometry":{"coordinates":[77.617644,12.949572],"type":"Point"},"properties":{"name":"Baba shop","osm_id":"672055796","tag":{"amenity":"recycling"}},"type":"Feature"},
	{"geometry":{"coordinates":[77.619668,12.951947],"type":"Point"},"properties":{"name":"Vinayakai","osm_id":"672055799","tag":{"amenity":"recycling"}},"type":"Feature"},
	{"geometry":{"coordinates":[77.620151,12.949343],"type":"Point"},"properties":{"name":"Anthoni gose","osm_id":"672055802","tag":{"amenity":"recycling"}},"type":"Feature"},
	{"geometry":{"coordinates":[77.617491,12.949285],"type":"Point"},"properties":{"name":"sagai","osm_id":"672055806","tag":{"amenity":"recycling"}},"type":"Feature"},
	{"geometry":{"coordinates":[77.617449,12.949048],"type":"Point"},"properties":{"name":"dumping site","osm_id":"672060567","tag":{"amenity":"recycling"}},"type":"Feature"},
	{"geometry":{"coordinates":[77.61969,12.94949],"type":"Point"},"properties":{"name":"dumping site","osm_id":"672060578","tag":{"amenity":"recycling"}},"type":"Feature"},
	{"geometry":{"coordinates":[77.619207,12.947775],"type":"Point"},"properties":{"name":"dumping site","osm_id":"672060593","tag":{"amenity":"recycling"}},"type":"Feature"},
	{"geometry":{"coordinates":[77.618241,12.950389],"type":"Point"},"properties":{"osm_id":"672060628","tag":{"amenity":"recycling","description":"Transfer location"}},"type":"Feature"},
	{"geometry":{"coordinates":[77.617456,12.94905],"type":"Point"},"properties":{"osm_id":"672071448","tag":{"amenity":"recycling","description":"dumpsite"}},"type":"Feature"},
	{"geometry":{"coordinates":[77.618228,12.950351],"type":"Point"},"properties":{"osm_id":"672071451","tag":{"amenity":"recycling","description":"transfer location"}},"type":"Feature"},
	{"geometry":{"coordinates":[77.619221,12.947729],"type":"Point"},"properties":{"osm_id":"672071453","tag":{"amenity":"recycling","description":"dumpsite"}},"type":"Feature"},
	{"geometry":{"coordinates":[77.61979,12.94944],"type":"Point"},"properties":{"osm_id":"672071467","tag":{"amenity":"recycling","description":"dumpsite"}},"type":"Feature"},
	{"geometry":{"coordinates":[77.619066,12.941691],"type":"Point"},"properties":{"name":"Sakappan","osm_id":"672579813","tag":{"amenity":"recycling"}},"type":"Feature"},
	{"geometry":{"coordinates":[77.618087,12.943371],"type":"Point"},"properties":{"name":"Elumalai","osm_id":"672579825","tag":{"amenity":"recycling"}},"type":"Feature"},
	{"geometry":{"coordinates":[77.61934,12.941969],"type":"Point"},"properties":{"name":"Mukesh","osm_id":"672579826","tag":{"amenity":"recycling"}},"type":"Feature"},
	{"geometry":{"coordinates":[77.619311,12.94303],"type":"Point"},"properties":{"name":"Gajendra","osm_id":"672579834","tag":{"amenity":"recycling","name:kn":"\u00e0\u00b2\u0097\u00e0\u00b2\u009c\u00e0\u00b3\u0087\u00e0\u00b2\u0082\u00e0\u00b2\u00a6\u00e0\u00b3\u008d\u00e0\u00b2\u00b0"}},"type":"Feature"},
	{"geometry":{"coordinates":[77.618734,12.943354],"type":"Point"},"properties":{"osm_id":"672579841","tag":{"amenity":"recycling","description":"dumpsite"}},"type":"Feature"},
	{"geometry":{"coordinates":[77.620425,12.899394],"type":"Point"},"properties":{"osm_id":"2446775057","tag":{"amenity":"waste_basket"}},"type":"Feature"},
	{"geometry":{"coordinates":[77.620822,12.899099],"type":"Point"},"properties":{"osm_id":"2446775058","tag":{"amenity":"waste_basket"}},"type":"Feature"},
	{"geometry":{"coordinates":[77.621471,12.899081],"type":"Point"},"properties":{"osm_id":"2446834694","tag":{"amenity":"waste_basket"}},"type":"Feature"},
	{"geometry":{"coordinates":[77.620756,12.899666],"type":"Point"},"properties":{"osm_id":"2446983582","tag":{"amenity":"waste_basket"}},"type":"Feature"},
	{"geometry":{"coordinates":[77.621201,12.899391],"type":"Point"},"properties":{"osm_id":"2446983583","tag":{"amenity":"waste_basket"}},"type":"Feature"},
	{"geometry":{"coordinates":[77.621239,12.899975],"type":"Point"},"properties":{"osm_id":"2450173733","tag":{"amenity":"waste_basket"}},"type":"Feature"},
	{"geometry":{"coordinates":[77.65606,12.956638],"type":"Point"},"properties":{"osm_id":"3298923876","tag":{"amenity":"recycling","recycling:paper":"yes"}},"type":"Feature"},
	{"geometry":{"coordinates":[77.654547,12.956813],"type":"Point"},"properties":{"osm_id":"3313847819","tag":{"amenity":"recycling","recycling:cans":"yes","recycling:glass":"no","recycling:paper":"yes"}},"type":"Feature"},
	{"geometry":{"coordinates":[77.644488,12.975857],"type":"Point"},"properties":{"osm_id":"3369894895","tag":{"amenity":"recycling","recycling_type":"centre"}},"type":"Feature"},
	{"geometry":{"coordinates":[77.636244,12.979771],"type":"Point"},"properties":{"osm_id":"3647031243","tag":{"amenity":"waste_basket"}},"type":"Feature"},
	{"geometry":{"coordinates":[77.635478,12.978792],"type":"Point"},"properties":{"osm_id":"3647032708","tag":{"amenity":"waste_basket"}},"type":"Feature"},
	{"geometry":{"coordinates":[77.635768,12.978791],"type":"Point"},"properties":{"osm_id":"3647032709","tag":{"amenity":"waste_basket"}},"type":"Feature"},
	{"geometry":{"coordinates":[77.635713,12.979801],"type":"Point"},"properties":{"osm_id":"3647032710","tag":{"amenity":"waste_basket"}},"type":"Feature"},
	{"geometry":{"coordinates":[77.635779,12.980164],"type":"Point"},"properties":{"osm_id":"3647032711","tag":{"amenity":"waste_basket"}},"type":"Feature"},
	{"geometry":{"coordinates":[77.63629,12.98012],"type":"Point"},"properties":{"osm_id":"3647032712","tag":{"amenity":"waste_basket"}},"type":"Feature"},
	{"geometry":{"coordinates":[77.636167,12.979569],"type":"Point"},"properties":{"osm_id":"3647036808","tag":{"amenity":"waste_basket"}},"type":"Feature"},
	{"geometry":{"coordinates":[77.636004,12.978618],"type":"Point"},"properties":{"osm_id":"3836988199","tag":{"amenity":"recycling","recycling:paper":"yes","recycling_type":"centre"}},"type":"Feature"},
	{"geometry":{"coordinates":[77.63932,12.979825],"type":"Point"},"properties":{"osm_id":"3836995409","tag":{"amenity":"waste_basket"}},"type":"Feature"},
	{"geometry":{"coordinates":[77.638514,12.982238],"type":"Point"},"properties":{"osm_id":"3837000798","tag":{"amenity":"waste_basket"}},"type":"Feature"},
	{"geometry":{"coordinates":[77.637437,12.978357],"type":"Point"},"properties":{"osm_id":"3837000895","tag":{"amenity":"waste_basket"}},"type":"Feature"},
	{"geometry":{"coordinates":[77.636663,12.98115],"type":"Point"},"properties":{"osm_id":"3837007713","tag":{"amenity":"waste_basket"}},"type":"Feature"},
	{"geometry":{"coordinates":[77.636781,12.981218],"type":"Point"},"properties":{"osm_id":"3837007715","tag":{"amenity":"waste_basket"}},"type":"Feature"},
	{"geometry":{"coordinates":[77.636685,12.981244],"type":"Point"},"properties":{"osm_id":"3837007716","tag":{"amenity":"waste_basket"}},"type":"Feature"},
	{"geometry":{"coordinates":[77.635643,12.978308],"type":"Point"},"properties":{"osm_id":"3837031339","tag":{"access":"private","amenity":"waste_basket"}},"type":"Feature"},
	{"geometry":{"coordinates":[77.655042,12.957126],"type":"Point"},"properties":{"name":"Sri Vinayaka Old Paper Mart","osm_id":"3993262535","tag":{"amenity":"recycling","recycling:paper":"yes","recycling_type":"centre"}},"type":"Feature"},
	{"geometry":{"coordinates":[77.644494,12.96221],"type":"Point"},"properties":{"osm_id":"4005718301","tag":{"amenity":"recycling","recycling:paper":"yes","recycling:plastic_bottles":"yes","recycling:small_appliances":"yes","recycling_type":"centre"}},"type":"Feature"},
	{"geometry":{"coordinates":[77.62974,12.944494],"type":"Point"},"properties":{"osm_id":"4062942991","tag":{"amenity":"waste_disposal"}},"type":"Feature"},
	{"geometry":{"coordinates":[77.628935,12.944967],"type":"Point"},"properties":{"osm_id":"4063568048","tag":{"amenity":"recycling","recycling:paper":"yes","recycling_type":"centre"}},"type":"Feature"},
	{"geometry":{"coordinates":[77.641296,12.979106],"type":"Point"},"properties":{"osm_id":"4101517625","tag":{"amenity":"waste_basket"}},"type":"Feature"},
	{"geometry":{"coordinates":[77.639908,12.979933],"type":"Point"},"properties":{"osm_id":"4101517672","tag":{"amenity":"waste_basket"}},"type":"Feature"},
	{"geometry":{"coordinates":[77.654632,12.955443],"type":"Point"},"properties":{"osm_id":"4127160593","tag":{"amenity":"waste_disposal"}},"type":"Feature"},
	{"geometry":{"coordinates":[77.655552,12.957463],"type":"Point"},"properties":{"osm_id":"4144220194","tag":{"amenity":"waste_disposal"}},"type":"Feature"},
	{"geometry":{"coordinates":[77.655157,12.95755],"type":"Point"},"properties":{"osm_id":"4144224189","tag":{"amenity":"waste_disposal"}},"type":"Feature"},
	{"geometry":{"coordinates":[77.65516,12.955902],"type":"Point"},"properties":{"osm_id":"4144224290","tag":{"amenity":"waste_disposal"}},"type":"Feature"},
	{"geometry":{"coordinates":[77.656855,12.963322],"type":"Point"},"properties":{"name":"Paper Mart","osm_id":"4782947621","tag":{"amenity":"recycling","name:en":"Paper Mart"}},"type":"Feature"},
	{"geometry":{"coordinates":[77.660625,12.955275],"type":"Point"},"properties":{"osm_id":"5301659525","tag":{"amenity":"recycling"}},"type":"Feature"},
	{"geometry":{"coordinates":[77.662078,12.958217],"type":"Point"},"properties":{"osm_id":"5301679622","tag":{"amenity":"recycling"}},"type":"Feature"},
	{"geometry":{"coordinates":[77.662272,12.957657],"type":"Point"},"properties":{"osm_id":"5301695521","tag":{"amenity":"recycling"}},"type":"Feature"},
	{"geometry":{"coordinates":[77.637834,12.976069],"type":"Point"},"properties":{"name":"Venkateswara Paper Mart","osm_id":"5537917121","tag":{"amenity":"recycling"}},"type":"Feature"},
	{"geometry":{"coordinates":[77.639383,12.974574],"type":"Point"},"properties":{"name":"Paper Mart","osm_id":"5585635622","tag":{"amenity":"recycling"}},"type":"Feature"},
	{"geometry":{"coordinates":[77.638866,12.970626],"type":"Point"},"properties":{"osm_id":"5661149221","tag":{"amenity":"waste_disposal"}},"type":"Feature"},
	{"geometry":{"coordinates":[77.648266,12.96879],"type":"Point"},"properties":{"osm_id":"6422270649","tag":{"amenity":"waste_disposal","operator":"BBMP"}},"type":"Feature"},
	{"geometry":{"coordinates":[77.611278,12.963936],"type":"Point"},"properties":{"osm_id":"9175932899","tag":{"amenity":"waste_disposal"}},"type":"Feature"}
]
}
