{
"type": "FeatureCollection",
"features": [
	{"geometry":{"coordinates":[16.056405,50.456606],"type":"Point"},"properties":{"osm_id":"2248292829","tag":{"amenity":"recycling","recycling:glass":"yes","recycling:plastic":"yes","recycling_type":"container"}},"type":"Feature"},
	{"geometry":{"coordinates":[16.057027,50.456956],"type":"Point"},"properties":{"osm_id":"2248292832","tag":{"amenity":"waste_basket"}},"type":"Feature"},
	{"geometry":{"coordinates":[16.036024,50.454131],"type":"Point"},"properties":{"osm_id":"2271032060","tag":{"amenity":"waste_basket"}},"type":"Feature"},
	{"geometry":{"coordinates":[16.041685,50.452416],"type":"Point"},"properties":{"osm_id":"2271032061","tag":{"amenity":"waste_basket"}},"type":"Feature"},
	{"geometry":{"coordinates":[16.027835,50.454934],"type":"Point"},"properties":{"osm_id":"2271032062","tag":{"amenity":"waste_basket"}},"type":"Feature"},
	{"geometry":{"coordinates":[16.041748,50.452212],"type":"Point"},"properties":{"osm_id":"2271032063","tag":{"amenity":"waste_basket"}},"type":"Feature"},
	{"geometry":{"coordinates":[16.05929,50.451029],"type":"Point"},"properties":{"name":"Odpadov\u00c3\u00bd kontejner","osm_id":"2578033837","tag":{"amenity":"waste_basket"}},"type":"Feature"},
	{"geometry":{"coordinates":[16.027832,50.455012],"type":"Point"},"properties":{"name":"Kontejnery","osm_id":"4166815105","tag":{"amenity":"recycling","recycling:glass":"yes","recycling:plastic":"yes"}},"type":"Feature"},
	{"geometry":{"coordinates":[16.060655,50.409917],"type":"Point"},"properties":{"osm_id":"4286211908","tag":{"amenity":"recycling","recycling_type":"container"}},"type":"Feature"},
	{"geometry":{"coordinates":[16.039795,50.453166],"type":"Point"},"properties":{"osm_id":"4289365161","tag":{"amenity":"recycling","recycling:clothes":"yes","recycling_type":"container"}},"type":"Feature"},
	{"geometry":{"coordinates":[16.038965,50.453822],"type":"Point"},"properties":{"osm_id":"4289365162","tag":{"amenity":"recycling","recycling_type":"container"}},"type":"Feature"},
	{"geometry":{"coordinates":[16.036762,50.454088],"type":"Point"},"properties":{"osm_id":"4289365164","tag":{"amenity":"recycling","recycling:organic":"yes","recycling_type":"container"}},"type":"Feature"},
	{"geometry":{"coordinates":[16.0103,50.428799],"type":"Point"},"properties":{"osm_id":"4291069329","tag":{"amenity":"recycling","recycling:glass":"yes","recycling:paper":"yes","recycling:plastic":"yes","recycling_type":"container"}},"type":"Feature"},
	{"geometry":{"coordinates":[16.0145,50.419936],"type":"Point"},"properties":{"osm_id":"4291081470","tag":{"amenity":"recycling","recycling:glass":"yes","recycling:paper":"yes","recycling:plastic":"yes","recycling_type":"container"}},"type":"Feature"}
]
}
