{
"type": "FeatureCollection",
"features": [
	{"geometry":{"coordinates":[16.027498,47.972269],"type":"Point"},"properties":{"osm_id":"834538964","tag":{"amenity":"waste_basket"}},"type":"Feature"},
	{"geometry":{"coordinates":[16.027709,47.976474],"type":"Point"},"properties":{"osm_id":"840962244","tag":{"amenity":"waste_basket"}},"type":"Feature"},
	{"geometry":{"coordinates":[16.005889,47.971647],"type":"Point"},"properties":{"osm_id":"842691726","tag":{"amenity":"waste_basket"}},"type":"Feature"},
	{"geometry":{"coordinates":[16.013693,47.975802],"type":"Point"},"properties":{"osm_id":"842691756","tag":{"amenity":"waste_basket"}},"type":"Feature"},
	{"geometry":{"coordinates":[16.015422,47.977879],"type":"Point"},"properties":{"osm_id":"843678880","tag":{"amenity":"waste_basket"}},"type":"Feature"},
	{"geometry":{"coordinates":[16.068078,47.934149],"type":"Point"},"properties":{"osm_id":"844397233","tag":{"amenity":"waste_basket"}},"type":"Feature"},
	{"geometry":{"coordinates":[16.027493,47.934074],"type":"Point"},"properties":{"osm_id":"845291426","tag":{"amenity":"waste_basket"}},"type":"Feature"},
	{"geometry":{"coordinates":[16.028084,47.989347],"type":"Point"},"properties":{"osm_id":"1302564614","tag":{"amenity":"waste_basket"}},"type":"Feature"},
	{"geometry":{"coordinates":[16.038576,47.982333],"type":"Point"},"properties":{"name":"Mountainbikestrecken","osm_id":"1423317724","tag":{"amenity":"waste_basket","information":"map","tourism":"information"}},"type":"Feature"},
	{"geometry":{"coordinates":[16.021755,47.97166],"type":"Point"},"properties":{"osm_id":"1501696765","tag":{"amenity":"waste_basket"}},"type":"Feature"},
	{"geometry":{"coordinates":[16.080517,47.967388],"type":"Point"},"properties":{"osm_id":"1501810828","tag":{"amenity":"waste_basket"}},"type":"Feature"},
	{"geometry":{"coordinates":[16.070962,47.96295],"type":"Point"},"properties":{"osm_id":"3802916208","tag":{"amenity":"waste_basket"}},"type":"Feature"},
	{"geometry":{"coordinates":[16.035219,47.98388],"type":"Point"},"properties":{"osm_id":"7499180042","tag":{"amenity":"recycling","recycling_type":"container"}},"type":"Feature"},
	{"geometry":{"coordinates":[16.038517,47.954643],"type":"Point"},"properties":{"osm_id":"7618593003","tag":{"amenity":"waste_basket"}},"type":"Feature"}
]
}
