{
"type": "FeatureCollection",
"features": [
	{"geometry":{"coordinates":[16.05055,47.82805],"type":"Point"},"properties":{"name":"Green-Force-W\u00c3\u00bcrfel","osm_id":"956020714","tag":{"amenity":"waste_basket"}},"type":"Feature"},
	{"geometry":{"coordinates":[16.074851,47.837214],"type":"Point"},"properties":{"osm_id":"1128787485","tag":{"amenity":"waste_basket"}},"type":"Feature"},
	{"geometry":{"coordinates":[16.075082,47.837298],"type":"Point"},"properties":{"osm_id":"1128787551","tag":{"amenity":"waste_basket"}},"type":"Feature"},
	{"geometry":{"coordinates":[16.043315,47.870124],"type":"Point"},"properties":{"osm_id":"1270552615","tag":{"amenity":"waste_basket"}},"type":"Feature"},
	{"geometry":{"coordinates":[16.018719,47.838342],"type":"Point"},"properties":{"osm_id":"1342126224","tag":{"amenity":"waste_basket"}},"type":"Feature"},
	{"geometry":{"coordinates":[16.017156,47.837151],"type":"Point"},"properties":{"osm_id":"1510158336","tag":{"amenity":"waste_basket"}},"type":"Feature"},
	{"geometry":{"coordinates":[16.072855,47.83171],"type":"Point"},"properties":{"osm_id":"1549343484","tag":{"amenity":"waste_basket"}},"type":"Feature"},
	{"geometry":{"coordinates":[16.065264,47.840687],"type":"Point"},"properties":{"osm_id":"1549919526","tag":{"amenity":"waste_basket"}},"type":"Feature"},
	{"geometry":{"coordinates":[16.046948,47.869045],"type":"Point"},"properties":{"osm_id":"1701405497","tag":{"amenity":"waste_basket"}},"type":"Feature"},
	{"geometry":{"coordinates":[16.06329,47.835923],"type":"Point"},"properties":{"osm_id":"2836976700","tag":{"amenity":"waste_basket"}},"type":"Feature"},
	{"geometry":{"coordinates":[16.054458,47.81834],"type":"Point"},"properties":{"osm_id":"3124989913","tag":{"amenity":"recycling","recycling:glass":"yes","recycling:paper":"yes","recycling:scrap_metal":"yes","recycling_type":"container"}},"type":"Feature"},
	{"geometry":{"coordinates":[16.054453,47.818355],"type":"Point"},"properties":{"osm_id":"3124989914","tag":{"amenity":"recycling","operator":"Rotes Kreuz","recycling:clothes":"yes","recycling_type":"container"}},"type":"Feature"},
	{"geometry":{"coordinates":[16.020233,47.835445],"type":"Point"},"properties":{"osm_id":"5109089032","tag":{"amenity":"waste_basket"}},"type":"Feature"}
]
}
