{
"type": "FeatureCollection",
"features": [
	{"geometry":{"coordinates":[16.017695,47.744926],"type":"Point"},"properties":{"osm_id":"1235704773","tag":{"amenity":"waste_basket"}},"type":"Feature"},
	{"geometry":{"coordinates":[16.030083,47.743564],"type":"Point"},"properties":{"osm_id":"1243756127","tag":{"amenity":"waste_basket"}},"type":"Feature"},
	{"geometry":{"coordinates":[16.048848,47.716612],"type":"Point"},"properties":{"osm_id":"1747066762","tag":{"amenity":"waste_basket"}},"type":"Feature"},
	{"geometry":{"coordinates":[16.020329,47.708719],"type":"Point"},"properties":{"osm_id":"3792193572","tag":{"access":"private","amenity":"waste_disposal"}},"type":"Feature"},
	{"geometry":{"coordinates":[16.020893,47.706577],"type":"Point"},"properties":{"osm_id":"3792199740","tag":{"access":"public","amenity":"recycling","recycling:clothes":"yes","recycling:glass_bottles":"yes","recycling:shoes":"yes","recycling_type":"container"}},"type":"Feature"},
	{"geometry":{"coordinates":[16.020986,47.70728],"type":"Point"},"properties":{"osm_id":"3792199741","tag":{"access":"private","amenity":"waste_disposal"}},"type":"Feature"},
	{"geometry":{"coordinates":[16.021207,47.707422],"type":"Point"},"properties":{"osm_id":"3792199742","tag":{"access":"private","amenity":"waste_disposal"}},"type":"Feature"},
	{"geometry":{"coordinates":[16.021391,47.707564],"type":"Point"},"properties":{"osm_id":"3792199743","tag":{"access":"private","amenity":"waste_disposal"}},"type":"Feature"},
	{"geometry":{"coordinates":[16.021693,47.707984],"type":"Point"},"properties":{"osm_id":"3792199744","tag":{"access":"private","amenity":"waste_disposal"}},"type":"Feature"},
	{"geometry":{"coordinates":[16.022438,47.707999],"type":"Point"},"properties":{"osm_id":"3792199745","tag":{"access":"private","amenity":"waste_disposal"}},"type":"Feature"},
	{"geometry":{"coordinates":[16.019755,47.708031],"type":"Point"},"properties":{"osm_id":"3792199746","tag":{"access":"private","amenity":"waste_disposal"}},"type":"Feature"},
	{"geometry":{"coordinates":[16.02204,47.708167],"type":"Point"},"properties":{"osm_id":"3792199747","tag":{"access":"private","amenity":"waste_disposal"}},"type":"Feature"},
	{"geometry":{"coordinates":[16.022455,47.708164],"type":"Point"},"properties":{"osm_id":"3792199748","tag":{"access":"private","amenity":"waste_disposal"}},"type":"Feature"},
	{"geometry":{"coordinates":[16.020024,47.708214],"type":"Point"},"properties":{"osm_id":"3792199749","tag":{"access":"private","amenity":"waste_disposal"}},"type":"Feature"},
	{"geometry":{"coordinates":[16.021161,47.708346],"type":"Point"},"properties":{"osm_id":"3792199750","tag":{"access":"private","amenity":"waste_disposal"}},"type":"Feature"},
	{"geometry":{"coordinates":[16.020694,47.709109],"type":"Point"},"properties":{"osm_id":"3792199751","tag":{"access":"private","amenity":"waste_disposal"}},"type":"Feature"},
	{"geometry":{"coordinates":[16.031104,47.72961],"type":"Point"},"properties":{"osm_id":"5113669530","tag":{"amenity":"waste_basket"}},"type":"Feature"},
	{"geometry":{"coordinates":[16.071218,47.721502],"type":"Point"},"properties":{"osm_id":"6323986852","tag":{"amenity":"waste_basket","waste":"trash"}},"type":"Feature"},
	{"geometry":{"coordinates":[16.048328,47.713323],"type":"Point"},"properties":{"osm_id":"6447291586","tag":{"amenity":"waste_basket"}},"type":"Feature"},
	{"geometry":{"coordinates":[16.041754,47.70849],"type":"Point"},"properties":{"osm_id":"6452298755","tag":{"amenity":"waste_basket"}},"type":"Feature"},
	{"geometry":{"coordinates":[16.040479,47.710764],"type":"Point"},"properties":{"osm_id":"6452298756","tag":{"amenity":"waste_basket"}},"type":"Feature"},
	{"geometry":{"coordinates":[16.040842,47.712224],"type":"Point"},"properties":{"osm_id":"6452298758","tag":{"amenity":"waste_basket"}},"type":"Feature"},
	{"geometry":{"coordinates":[16.040654,47.710991],"type":"Point"},"properties":{"osm_id":"6453163960","tag":{"amenity":"waste_basket"}},"type":"Feature"},
	{"geometry":{"coordinates":[16.050572,47.711919],"type":"Point"},"properties":{"osm_id":"6453163961","tag":{"amenity":"waste_basket"}},"type":"Feature"},
	{"geometry":{"coordinates":[16.023437,47.742242],"type":"Point"},"properties":{"osm_id":"7773247899","tag":{"amenity":"waste_basket"}},"type":"Feature"},
	{"geometry":{"coordinates":[16.02127,47.707707],"type":"Point"},"properties":{"osm_id":"8268749174","tag":{"access":"private","amenity":"waste_disposal"}},"type":"Feature"},
	{"geometry":{"coordinates":[16.019781,47.707466],"type":"Point"},"properties":{"osm_id":"8268749175","tag":{"access":"private","amenity":"waste_disposal"}},"type":"Feature"},
	{"geometry":{"coordinates":[16.020595,47.708054],"type":"Point"},"properties":{"osm_id":"8268749176","tag":{"access":"private","amenity":"waste_disposal"}},"type":"Feature"},
	{"geometry":{"coordinates":[16.007713,47.698539],"type":"Point"},"properties":{"osm_id":"8435816500","tag":{"amenity":"waste_basket","waste":"trash"}},"type":"Feature"},
	{"geometry":{"coordinates":[16.083052,47.724094],"type":"Point"},"properties":{"barrier":"gate","osm_id":"8507466979"},"type":"Feature"},
	{"geometry":{"coordinates":[16.051869,47.717513],"type":"Point"},"properties":{"osm_id":"8688877914","tag":{"amenity":"waste_basket"}},"type":"Feature"}
]
}
