{
"type": "FeatureCollection",
"features": [
	{"geometry":{"coordinates":[15.999554,45.781899],"type":"Point"},"properties":{"osm_id":"567900585","tag":{"amenity":"recycling"}},"type":"Feature"},
	{"geometry":{"coordinates":[15.997608,45.817173],"type":"Point"},"properties":{"osm_id":"963507980","tag":{"amenity":"recycling","location":"overground","recycling:glass":"yes","recycling:paper":"yes","recycling_type":"container"}},"type":"Feature"},
	{"geometry":{"coordinates":[16.003964,45.8222],"type":"Point"},"properties":{"osm_id":"1489538615","tag":{"amenity":"recycling","recycling:batteries":"no","recycling:glass":"yes","recycling:paper":"yes","recycling_type":"container"}},"type":"Feature"},
	{"geometry":{"coordinates":[16.002284,45.817499],"type":"Point"},"properties":{"osm_id":"1575486972","tag":{"amenity":"recycling"}},"type":"Feature"},
	{"geometry":{"coordinates":[16.002152,45.79201],"type":"Point"},"properties":{"osm_id":"1678917870","tag":{"amenity":"waste_basket"}},"type":"Feature"},
	{"geometry":{"coordinates":[16.002557,45.79207],"type":"Point"},"properties":{"osm_id":"1678917875","tag":{"amenity":"waste_basket"}},"type":"Feature"},
	{"geometry":{"coordinates":[16.002121,45.792048],"type":"Point"},"properties":{"osm_id":"1678917877","tag":{"amenity":"waste_basket"}},"type":"Feature"},
	{"geometry":{"coordinates":[16.002419,45.792122],"type":"Point"},"properties":{"osm_id":"1678917879","tag":{"amenity":"waste_basket"}},"type":"Feature"},
	{"geometry":{"coordinates":[16.002224,45.792215],"type":"Point"},"properties":{"osm_id":"1678917911","tag":{"amenity":"waste_basket"}},"type":"Feature"},
	{"geometry":{"coordinates":[16.002763,45.792265],"type":"Point"},"properties":{"osm_id":"1678917919","tag":{"amenity":"waste_basket"}},"type":"Feature"},
	{"geometry":{"coordinates":[16.001294,45.792751],"type":"Point"},"properties":{"osm_id":"1678917944","tag":{"amenity":"waste_basket"}},"type":"Feature"},
	{"geometry":{"coordinates":[16.00439,45.793025],"type":"Point"},"properties":{"osm_id":"1678917964","tag":{"amenity":"waste_basket"}},"type":"Feature"},
	{"geometry":{"coordinates":[16.00035,45.793321],"type":"Point"},"properties":{"osm_id":"1678917982","tag":{"amenity":"waste_basket"}},"type":"Feature"},
	{"geometry":{"coordinates":[16.003057,45.792328],"type":"Point"},"properties":{"osm_id":"1679709382","tag":{"amenity":"waste_disposal"}},"type":"Feature"},
	{"geometry":{"coordinates":[16.003621,45.793061],"type":"Point"},"properties":{"osm_id":"1679709384","tag":{"amenity":"recycling","recycling:paper":"yes","recycling_type":"container"}},"type":"Feature"},
	{"geometry":{"coordinates":[16.00396,45.793074],"type":"Point"},"properties":{"osm_id":"1679709385","tag":{"amenity":"waste_disposal"}},"type":"Feature"},
	{"geometry":{"coordinates":[16.004117,45.792046],"type":"Point"},"properties":{"osm_id":"1680008253","tag":{"amenity":"waste_disposal"}},"type":"Feature"},
	{"geometry":{"coordinates":[16.003436,45.792385],"type":"Point"},"properties":{"osm_id":"1680008257","tag":{"amenity":"recycling","recycling:glass":"yes","recycling:paper":"yes","recycling_type":"container"}},"type":"Feature"},
	{"geometry":{"coordinates":[16.000624,45.792892],"type":"Point"},"properties":{"osm_id":"1680008262","tag":{"amenity":"waste_disposal"}},"type":"Feature"},
	{"geometry":{"coordinates":[16.000501,45.793117],"type":"Point"},"properties":{"osm_id":"1680008267","tag":{"amenity":"waste_disposal"}},"type":"Feature"},
	{"geometry":{"coordinates":[16.000161,45.793484],"type":"Point"},"properties":{"osm_id":"1680008295","tag":{"amenity":"recycling","recycling:glass":"yes","recycling:plastic_bottles":"yes","recycling_type":"container"}},"type":"Feature"},
	{"geometry":{"coordinates":[16.000314,45.793501],"type":"Point"},"properties":{"osm_id":"1680008302","tag":{"amenity":"recycling","recycling:glass":"yes","recycling_type":"container"}},"type":"Feature"},
	{"geometry":{"coordinates":[16.0003,45.793502],"type":"Point"},"properties":{"osm_id":"1680008308","tag":{"amenity":"waste_disposal"}},"type":"Feature"},
	{"geometry":{"coordinates":[16.002202,45.800171],"type":"Point"},"properties":{"osm_id":"1896949724","tag":{"amenity":"waste_basket"}},"type":"Feature"},
	{"geometry":{"coordinates":[16.002779,45.800233],"type":"Point"},"properties":{"osm_id":"1896949743","tag":{"amenity":"waste_basket"}},"type":"Feature"},
	{"geometry":{"coordinates":[16.003173,45.80049],"type":"Point"},"properties":{"osm_id":"1896949761","tag":{"amenity":"recycling","recycling:glass":"yes","recycling:paper":"yes"}},"type":"Feature"},
	{"geometry":{"coordinates":[16.000816,45.790749],"type":"Point"},"properties":{"osm_id":"2009072248","tag":{"amenity":"waste_basket"}},"type":"Feature"},
	{"geometry":{"coordinates":[16.024351,45.768583],"type":"Point"},"properties":{"barrier":"gate","osm_id":"2145248527"},"type":"Feature"},
	{"geometry":{"coordinates":[16.01359,45.824598],"type":"Point"},"properties":{"barrier":"gate","osm_id":"2145342052"},"type":"Feature"},
	{"geometry":{"coordinates":[16.002768,45.819348],"type":"Point"},"properties":{"osm_id":"2157263827","tag":{"amenity":"recycling","recycling:glass":"yes","recycling:paper":"yes","recycling:plastic":"yes","recycling_type":"container"}},"type":"Feature"},
	{"geometry":{"coordinates":[16.001789,45.773759],"type":"Point"},"properties":{"osm_id":"2206804021","tag":{"amenity":"recycling","recycling:motoroil":"yes","recycling_type":"container"}},"type":"Feature"},
	{"geometry":{"coordinates":[16.001544,45.810518],"type":"Point"},"properties":{"osm_id":"2288113529","tag":{"amenity":"waste_basket"}},"type":"Feature"},
	{"geometry":{"coordinates":[16.016607,45.820493],"type":"Point"},"properties":{"osm_id":"2390330829","tag":{"amenity":"waste_basket"}},"type":"Feature"},
	{"geometry":{"coordinates":[16.041005,45.807489],"type":"Point"},"properties":{"osm_id":"2493945595","tag":{"amenity":"waste_basket"}},"type":"Feature"},
	{"geometry":{"coordinates":[16.006238,45.799564],"type":"Point"},"properties":{"osm_id":"2503381113","tag":{"access":"private","amenity":"waste_disposal"}},"type":"Feature"},
	{"geometry":{"coordinates":[16.006237,45.799582],"type":"Point"},"properties":{"osm_id":"2503381114","tag":{"access":"private","amenity":"waste_disposal"}},"type":"Feature"},
	{"geometry":{"coordinates":[16.006237,45.799598],"type":"Point"},"properties":{"osm_id":"2503381115","tag":{"access":"private","amenity":"waste_disposal"}},"type":"Feature"},
	{"geometry":{"coordinates":[16.007595,45.82234],"type":"Point"},"properties":{"osm_id":"2913835706","tag":{"amenity":"waste_basket"}},"type":"Feature"},
	{"geometry":{"coordinates":[16.017646,45.79287],"type":"Point"},"properties":{"osm_id":"3463169593","tag":{"amenity":"recycling","recycling:paper":"yes"}},"type":"Feature"},
	{"geometry":{"coordinates":[16.017658,45.79285],"type":"Point"},"properties":{"osm_id":"3463169793","tag":{"amenity":"recycling","recycling:glass":"yes"}},"type":"Feature"},
	{"geometry":{"coordinates":[15.998046,45.799371],"type":"Point"},"properties":{"osm_id":"3478465707","tag":{"amenity":"recycling","location":"overground","recycling:paper":"yes","recycling_type":"container"}},"type":"Feature"},
	{"geometry":{"coordinates":[15.999082,45.799388],"type":"Point"},"properties":{"osm_id":"3478466809","tag":{"amenity":"recycling","location":"overground","recycling:paper":"yes","recycling_type":"container"}},"type":"Feature"},
	{"geometry":{"coordinates":[15.998064,45.79946],"type":"Point"},"properties":{"osm_id":"3478509793","tag":{"amenity":"recycling","location":"overground","recycling:plastic":"yes","recycling_type":"container"}},"type":"Feature"},
	{"geometry":{"coordinates":[16.001092,45.799503],"type":"Point"},"properties":{"osm_id":"3478509808","tag":{"amenity":"recycling","recycling:glass":"yes"}},"type":"Feature"},
	{"geometry":{"coordinates":[15.999012,45.799367],"type":"Point"},"properties":{"osm_id":"3478510505","tag":{"amenity":"recycling","location":"overground","recycling:plastic":"yes","recycling_type":"container"}},"type":"Feature"},
	{"geometry":{"coordinates":[16.001016,45.799507],"type":"Point"},"properties":{"osm_id":"3478514593","tag":{"amenity":"recycling","recycling:plastic":"yes"}},"type":"Feature"},
	{"geometry":{"coordinates":[16.001058,45.799504],"type":"Point"},"properties":{"osm_id":"3478514793","tag":{"amenity":"recycling","recycling:paper":"yes"}},"type":"Feature"},
	{"geometry":{"coordinates":[16.001136,45.799508],"type":"Point"},"properties":{"osm_id":"3478514794","tag":{"amenity":"recycling","recycling:fabric":"yes"}},"type":"Feature"},
	{"geometry":{"coordinates":[15.998378,45.825931],"type":"Point"},"properties":{"osm_id":"3587476891","tag":{"amenity":"recycling","recycling:clothes":"no","recycling:glass":"yes","recycling:glass_bottles":"yes","recycling:paper":"yes"}},"type":"Feature"},
	{"geometry":{"coordinates":[16.00497,45.786671],"type":"Point"},"properties":{"osm_id":"3671323013","tag":{"addr:city":"Zagreb","addr:postcode":"10000","addr:street":"Grada Chicaga","amenity":"recycling","recycling:clothes":"no","recycling:glass":"yes","recycling:paper":"yes","recycling:plastic":"yes"}},"type":"Feature"},
	{"geometry":{"coordinates":[16.005436,45.787482],"type":"Point"},"properties":{"osm_id":"3698518136","tag":{"addr:street":"Grada Chicaga","amenity":"recycling","recycling:glass":"yes","recycling:paper":"yes","recycling:plastic":"yes"}},"type":"Feature"},
	{"geometry":{"coordinates":[16.006425,45.803682],"type":"Point"},"properties":{"osm_id":"3937762657","tag":{"amenity":"recycling","recycling:cans":"yes","recycling:glass_bottles":"yes","recycling:plastic_bottles":"yes","recycling_type":"centre"}},"type":"Feature"},
	{"geometry":{"coordinates":[16.005861,45.786041],"type":"Point"},"properties":{"osm_id":"3964213840","tag":{"addr:city":"Zagreb","addr:postcode":"10000","addr:street":"Grada Chicaga","amenity":"recycling","operator":"Holding","recycling:cans":"no","recycling:glass":"yes","recycling:glass_bottles":"yes","recycling:paper":"no","recycling:plastic":"yes","recycling_type":"container"}},"type":"Feature"},
	{"geometry":{"coordinates":[15.997653,45.814939],"type":"Point"},"properties":{"osm_id":"4146530820","tag":{"amenity":"waste_basket"}},"type":"Feature"},
	{"geometry":{"coordinates":[15.997466,45.815266],"type":"Point"},"properties":{"osm_id":"4146530821","tag":{"amenity":"waste_basket"}},"type":"Feature"},
	{"geometry":{"coordinates":[16.012198,45.822238],"type":"Point"},"properties":{"osm_id":"4146530829","tag":{"amenity":"waste_basket"}},"type":"Feature"},
	{"geometry":{"coordinates":[16.012226,45.822718],"type":"Point"},"properties":{"osm_id":"4146530833","tag":{"amenity":"waste_basket"}},"type":"Feature"},
	{"geometry":{"coordinates":[16.008074,45.823069],"type":"Point"},"properties":{"osm_id":"4146530835","tag":{"amenity":"waste_basket"}},"type":"Feature"},
	{"geometry":{"coordinates":[16.008034,45.823871],"type":"Point"},"properties":{"osm_id":"4146530837","tag":{"amenity":"waste_basket"}},"type":"Feature"},
	{"geometry":{"coordinates":[16.007939,45.823896],"type":"Point"},"properties":{"osm_id":"4146530839","tag":{"amenity":"waste_basket"}},"type":"Feature"},
	{"geometry":{"coordinates":[16.007193,45.824026],"type":"Point"},"properties":{"osm_id":"4146530841","tag":{"amenity":"waste_basket"}},"type":"Feature"},
	{"geometry":{"coordinates":[16.006552,45.824158],"type":"Point"},"properties":{"osm_id":"4146530844","tag":{"amenity":"waste_basket"}},"type":"Feature"},
	{"geometry":{"coordinates":[16.005699,45.824317],"type":"Point"},"properties":{"osm_id":"4146530851","tag":{"amenity":"waste_basket"}},"type":"Feature"},
	{"geometry":{"coordinates":[16.005148,45.8244],"type":"Point"},"properties":{"osm_id":"4146530854","tag":{"amenity":"waste_basket"}},"type":"Feature"},
	{"geometry":{"coordinates":[16.006486,45.789662],"type":"Point"},"properties":{"osm_id":"4209484325","tag":{"amenity":"recycling","operator":"Zagreba\u00c4\u008dki Holding","recycling:clothes":"yes","recycling:glass":"yes","recycling:glass_bottles":"yes","recycling:paper":"yes","recycling:plastic":"yes"}},"type":"Feature"},
	{"geometry":{"coordinates":[16.006762,45.788222],"type":"Point"},"properties":{"osm_id":"4226358914","tag":{"amenity":"recycling","recycling:glass":"yes","recycling:paper":"yes","recycling:plastic":"yes"}},"type":"Feature"},
	{"geometry":{"coordinates":[16.022062,45.815929],"type":"Point"},"properties":{"osm_id":"4709140483","tag":{"amenity":"recycling","recycling:plastic":"yes","recycling_type":"container"}},"type":"Feature"},
	{"geometry":{"coordinates":[16.021315,45.81592],"type":"Point"},"properties":{"osm_id":"4709140484","tag":{"amenity":"recycling","recycling:paper":"yes","recycling_type":"container"}},"type":"Feature"},
	{"geometry":{"coordinates":[15.998628,45.816981],"type":"Point"},"properties":{"osm_id":"4999933431","tag":{"amenity":"recycling","recycling:PET":"yes","recycling:clothes":"yes","recycling:glass_bottles":"yes","recycling:paper":"yes","recycling_type":"container"}},"type":"Feature"},
	{"geometry":{"coordinates":[15.998444,45.788355],"type":"Point"},"properties":{"osm_id":"5008475193","tag":{"amenity":"waste_basket"}},"type":"Feature"},
	{"geometry":{"coordinates":[16.007622,45.788688],"type":"Point"},"properties":{"osm_id":"5573377319","tag":{"amenity":"recycling","operator":"Zagreba\u00c4\u008dki Holding","recycling:clothes":"yes","recycling:glass":"yes","recycling:glass_bottles":"yes","recycling:paper":"yes","recycling:plastic":"yes"}},"type":"Feature"},
	{"geometry":{"coordinates":[15.997653,45.778648],"type":"Point"},"properties":{"osm_id":"5734371820","tag":{"amenity":"recycling","recycling:paper":"yes","recycling:plastic":"yes","recycling_type":"container"}},"type":"Feature"},
	{"geometry":{"coordinates":[15.996989,45.778732],"type":"Point"},"properties":{"osm_id":"5734375197","tag":{"amenity":"recycling","recycling:glass_bottles":"yes","recycling:paper":"yes","recycling:plastic":"yes","recycling_type":"container"}},"type":"Feature"},
	{"geometry":{"coordinates":[15.999101,45.778631],"type":"Point"},"properties":{"osm_id":"5734376678","tag":{"amenity":"recycling","recycling:paper":"yes","recycling:plastic":"yes","recycling_type":"container"}},"type":"Feature"},
	{"geometry":{"coordinates":[16.005409,45.811919],"type":"Point"},"properties":{"osm_id":"5832099538","tag":{"amenity":"recycling","recycling:clothes":"yes","recycling:glass_bottles":"yes","recycling:paper":"yes","recycling:plastic":"yes","recycling_type":"container"}},"type":"Feature"},
	{"geometry":{"coordinates":[16.014922,45.82469],"type":"Point"},"properties":{"osm_id":"5834150988","tag":{"amenity":"waste_basket"}},"type":"Feature"},
	{"geometry":{"coordinates":[16.01553,45.82606],"type":"Point"},"properties":{"osm_id":"5834150999","tag":{"amenity":"waste_basket"}},"type":"Feature"},
	{"geometry":{"coordinates":[16.015287,45.825515],"type":"Point"},"properties":{"osm_id":"5834151001","tag":{"amenity":"waste_basket"}},"type":"Feature"},
	{"geometry":{"coordinates":[16.0157,45.826751],"type":"Point"},"properties":{"osm_id":"5834156486","tag":{"amenity":"waste_basket"}},"type":"Feature"},
	{"geometry":{"coordinates":[16.015757,45.827534],"type":"Point"},"properties":{"osm_id":"5834161934","tag":{"amenity":"waste_basket"}},"type":"Feature"},
	{"geometry":{"coordinates":[16.040836,45.807597],"type":"Point"},"properties":{"osm_id":"5893051472","tag":{"amenity":"waste_basket"}},"type":"Feature"},
	{"geometry":{"coordinates":[16.045792,45.783198],"type":"Point"},"properties":{"osm_id":"6764943912","tag":{"amenity":"waste_basket"}},"type":"Feature"},
	{"geometry":{"coordinates":[16.004777,45.769461],"type":"Point"},"properties":{"osm_id":"6781181823","tag":{"amenity":"waste_basket"}},"type":"Feature"},
	{"geometry":{"coordinates":[16.021073,45.803478],"type":"Point"},"properties":{"osm_id":"7017141190","tag":{"amenity":"waste_disposal","waste":"trash"}},"type":"Feature"},
	{"geometry":{"coordinates":[16.004459,45.818482],"type":"Point"},"properties":{"osm_id":"7279643529","tag":{"amenity":"recycling","recycling_type":"container"}},"type":"Feature"},
	{"geometry":{"coordinates":[16.048894,45.773084],"type":"Point"},"properties":{"osm_id":"7285392593","tag":{"amenity":"recycling","recycling_type":"container"}},"type":"Feature"}
]
}
