{
"type": "FeatureCollection",
"features": [
	{"geometry":{"coordinates":[16.067468,45.711518],"type":"Point"},"properties":{"osm_id":"1419339781","tag":{"amenity":"recycling","recycling:batteries":"yes","recycling:cans":"yes","recycling:glass":"yes","recycling:paper":"yes"}},"type":"Feature"},
	{"geometry":{"coordinates":[16.006668,45.764304],"type":"Point"},"properties":{"osm_id":"1514375131","tag":{"amenity":"recycling","description":"kontejner za recikli\u00c5\u00beu papira","recycling:paper":"yes","recycling_type":"container"}},"type":"Feature"},
	{"geometry":{"coordinates":[16.070326,45.715959],"type":"Point"},"properties":{"osm_id":"1747613978","tag":{"amenity":"recycling","recycling:glass":"no","recycling:paper":"no"}},"type":"Feature"},
	{"geometry":{"coordinates":[16.075929,45.714886],"type":"Point"},"properties":{"osm_id":"2626675152","tag":{"amenity":"waste_basket"}},"type":"Feature"},
	{"geometry":{"coordinates":[16.015163,45.740921],"type":"Point"},"properties":{"osm_id":"3531949469","tag":{"amenity":"recycling","recycling:glass":"yes","recycling:paper":"yes","recycling:plastic":"yes","recycling_type":"container"}},"type":"Feature"},
	{"geometry":{"coordinates":[16.068072,45.708408],"type":"Point"},"properties":{"osm_id":"3655927202","tag":{"amenity":"waste_basket"}},"type":"Feature"},
	{"geometry":{"coordinates":[16.068134,45.708274],"type":"Point"},"properties":{"osm_id":"3655927203","tag":{"amenity":"waste_basket"}},"type":"Feature"},
	{"geometry":{"coordinates":[16.067204,45.708641],"type":"Point"},"properties":{"osm_id":"3655927204","tag":{"amenity":"waste_basket"}},"type":"Feature"},
	{"geometry":{"coordinates":[16.067711,45.708563],"type":"Point"},"properties":{"osm_id":"3655927205","tag":{"amenity":"waste_basket"}},"type":"Feature"},
	{"geometry":{"coordinates":[16.06822,45.708442],"type":"Point"},"properties":{"osm_id":"3655927206","tag":{"amenity":"waste_basket"}},"type":"Feature"},
	{"geometry":{"coordinates":[16.066371,45.708617],"type":"Point"},"properties":{"osm_id":"3655927209","tag":{"amenity":"waste_basket"}},"type":"Feature"},
	{"geometry":{"coordinates":[16.066764,45.70909],"type":"Point"},"properties":{"osm_id":"3655928636","tag":{"amenity":"waste_basket"}},"type":"Feature"},
	{"geometry":{"coordinates":[16.066666,45.708517],"type":"Point"},"properties":{"osm_id":"3655931898","tag":{"amenity":"waste_basket"}},"type":"Feature"},
	{"geometry":{"coordinates":[16.081324,45.740918],"type":"Point"},"properties":{"osm_id":"5042036099","tag":{"amenity":"waste_basket"}},"type":"Feature"},
	{"geometry":{"coordinates":[16.069452,45.715183],"type":"Point"},"properties":{"osm_id":"5109494477","tag":{"amenity":"waste_basket"}},"type":"Feature"},
	{"geometry":{"coordinates":[16.069815,45.715117],"type":"Point"},"properties":{"osm_id":"5109494478","tag":{"amenity":"waste_basket"}},"type":"Feature"},
	{"geometry":{"coordinates":[16.070273,45.714987],"type":"Point"},"properties":{"osm_id":"5109494481","tag":{"amenity":"waste_basket"}},"type":"Feature"},
	{"geometry":{"coordinates":[16.069678,45.714495],"type":"Point"},"properties":{"osm_id":"6535529093","tag":{"amenity":"waste_basket"}},"type":"Feature"},
	{"geometry":{"coordinates":[16.06704,45.708731],"type":"Point"},"properties":{"osm_id":"6629601605","tag":{"amenity":"recycling","recycling:glass_bottles":"yes","recycling_type":"container"}},"type":"Feature"},
	{"geometry":{"coordinates":[16.066917,45.708775],"type":"Point"},"properties":{"osm_id":"6629601606","tag":{"amenity":"recycling","recycling:paper":"yes","recycling_type":"container"}},"type":"Feature"},
	{"geometry":{"coordinates":[16.06764,45.708474],"type":"Point"},"properties":{"osm_id":"7616240304","tag":{"amenity":"recycling","recycling:paper":"yes","recycling:plastic":"no","recycling:plastic_bottles":"yes","recycling:plastic_packaging":"yes","recycling_type":"container"}},"type":"Feature"},
	{"geometry":{"coordinates":[16.068256,45.708337],"type":"Point"},"properties":{"osm_id":"7616240305","tag":{"amenity":"recycling","recycling:paper":"yes","recycling_type":"container"}},"type":"Feature"},
	{"geometry":{"coordinates":[16.067673,45.707416],"type":"Point"},"properties":{"osm_id":"7769768947","tag":{"amenity":"recycling","recycling:glass":"no","recycling:glass_bottles":"yes","recycling_type":"container"}},"type":"Feature"}
]
}
