{
"type": "FeatureCollection",
"features": [
	{"geometry":{"coordinates":[18.905116,53.15568],"type":"Point"},"properties":{"name":"Skup zlomu Z\u00c5\u0082omlar","osm_id":"8119374572","tag":{"addr:city":"Kowalewo Pomorskie","addr:housenumber":"4a","addr:postcode":"87-410","addr:street":"Dworcowa","amenity":"recycling","opening_hours":"Mo-Fr 08:00-16:00; Sa 08:00-14:00","phone":"+48 537 696 833","recycling:aluminium":"yes","recycling:cans":"yes","recycling:scrap_metal":"yes","recycling_type":"centre"}},"type":"Feature"},
	{"geometry":{"coordinates":[18.902807,53.158869],"type":"Point"},"properties":{"name":"Punktu Selektywnej Zbi\u00c3\u00b3rki Odpad\u00c3\u00b3w Komunalnych","osm_id":"8119490014","tag":{"addr:city":"Kowalewo Pomorskie","addr:housenumber":"1","addr:postcode":"87-410","addr:street":"Brodnicka","amenity":"recycling","email":"pszok.kowalewo@gmail.com","opening_hours":"Mo-Fr 09:00-15:00","phone":"+48 56 684 15 17","recycling_type":"centre","short_name":"PSZOK"}},"type":"Feature"},
	{"geometry":{"coordinates":[18.903025,53.158816],"type":"Point"},"properties":{"name":"Zak\u00c5\u0082ad Gospodarki Komunalnej i Mieszkaniowej","osm_id":"8119507322","tag":{"addr:city":"Kowalewo Pomorskie","addr:housenumber":"1","addr:postcode":"87-410","addr:street":"Brodnicka","amenity":"recycling","email":"zaklad@poczta.onet.pl","opening_hours":"Mo-Fr 09:00-15:00","phone":"+48 56 684 15 17","recycling_type":"centre","short_name":"ZGKiM","website":"http://www.bip.kowalewopomorskie.pl/zgkim"}},"type":"Feature"}
]
}
