{
"type": "FeatureCollection",
"features": [
	{"geometry":{"coordinates":[18.936366,50.337401],"type":"Point"},"properties":{"osm_id":"1789815869","tag":{"amenity":"waste_basket"}},"type":"Feature"},
	{"geometry":{"coordinates":[18.936686,50.337503],"type":"Point"},"properties":{"osm_id":"1789815885","tag":{"amenity":"waste_basket"}},"type":"Feature"},
	{"geometry":{"coordinates":[18.938199,50.325932],"type":"Point"},"properties":{"osm_id":"1829443483","tag":{"amenity":"waste_disposal"}},"type":"Feature"},
	{"geometry":{"coordinates":[18.938206,50.325969],"type":"Point"},"properties":{"osm_id":"1829443492","tag":{"amenity":"recycling","recycling:glass":"yes","recycling:plastic":"yes","recycling_type":"container"}},"type":"Feature"},
	{"geometry":{"coordinates":[18.936252,50.326029],"type":"Point"},"properties":{"osm_id":"1829443504","tag":{"amenity":"waste_disposal"}},"type":"Feature"},
	{"geometry":{"coordinates":[18.936256,50.326067],"type":"Point"},"properties":{"osm_id":"1922324227","tag":{"amenity":"recycling","recycling:plastic":"yes","recycling_type":"container"}},"type":"Feature"},
	{"geometry":{"coordinates":[18.89959,50.325415],"type":"Point"},"properties":{"osm_id":"2156320968","tag":{"amenity":"waste_disposal"}},"type":"Feature"},
	{"geometry":{"coordinates":[18.897305,50.340153],"type":"Point"},"properties":{"osm_id":"2199918200","tag":{"amenity":"waste_disposal"}},"type":"Feature"},
	{"geometry":{"coordinates":[18.89779,50.339857],"type":"Point"},"properties":{"osm_id":"2199940846","tag":{"amenity":"waste_disposal"}},"type":"Feature"},
	{"geometry":{"coordinates":[18.898383,50.340046],"type":"Point"},"properties":{"osm_id":"2199940852","tag":{"amenity":"waste_disposal"}},"type":"Feature"},
	{"geometry":{"coordinates":[18.898214,50.340522],"type":"Point"},"properties":{"osm_id":"2203220541","tag":{"amenity":"waste_disposal"}},"type":"Feature"},
	{"geometry":{"coordinates":[18.899917,50.341049],"type":"Point"},"properties":{"osm_id":"2203220569","tag":{"amenity":"waste_disposal"}},"type":"Feature"},
	{"geometry":{"coordinates":[18.898824,50.341436],"type":"Point"},"properties":{"osm_id":"2203220577","tag":{"amenity":"waste_disposal"}},"type":"Feature"},
	{"geometry":{"coordinates":[18.897826,50.341584],"type":"Point"},"properties":{"osm_id":"2203220592","tag":{"amenity":"waste_disposal"}},"type":"Feature"},
	{"geometry":{"coordinates":[18.898436,50.341964],"type":"Point"},"properties":{"osm_id":"2203220606","tag":{"amenity":"waste_disposal"}},"type":"Feature"},
	{"geometry":{"coordinates":[18.897893,50.342092],"type":"Point"},"properties":{"osm_id":"2203220607","tag":{"amenity":"waste_disposal"}},"type":"Feature"},
	{"geometry":{"coordinates":[18.901093,50.342216],"type":"Point"},"properties":{"osm_id":"2209950832","tag":{"amenity":"waste_disposal"}},"type":"Feature"},
	{"geometry":{"coordinates":[18.903098,50.341481],"type":"Point"},"properties":{"osm_id":"2211007408","tag":{"amenity":"waste_disposal"}},"type":"Feature"},
	{"geometry":{"coordinates":[18.901499,50.341755],"type":"Point"},"properties":{"osm_id":"2211007461","tag":{"amenity":"waste_disposal"}},"type":"Feature"},
	{"geometry":{"coordinates":[18.913195,50.30628],"type":"Point"},"properties":{"osm_id":"2274982972","tag":{"amenity":"waste_basket"}},"type":"Feature"},
	{"geometry":{"coordinates":[18.920984,50.337425],"type":"Point"},"properties":{"name":"Skup Z\u00c5\u0082omu i Makulatury","osm_id":"2958177174","tag":{"amenity":"recycling","recycling:metal":"yes","recycling:paper":"yes"}},"type":"Feature"},
	{"geometry":{"coordinates":[18.96229,50.31627],"type":"Point"},"properties":{"osm_id":"3476252282","tag":{"amenity":"recycling"}},"type":"Feature"},
	{"geometry":{"coordinates":[18.931904,50.325983],"type":"Point"},"properties":{"osm_id":"4089794705","tag":{"amenity":"waste_basket"}},"type":"Feature"},
	{"geometry":{"coordinates":[18.931484,50.326057],"type":"Point"},"properties":{"name":"kosz","osm_id":"4089796189","tag":{"amenity":"waste_basket"}},"type":"Feature"},
	{"geometry":{"coordinates":[18.896884,50.336826],"type":"Point"},"properties":{"osm_id":"4092203525","tag":{"amenity":"waste_basket"}},"type":"Feature"},
	{"geometry":{"coordinates":[18.931475,50.327051],"type":"Point"},"properties":{"osm_id":"4109492792","tag":{"amenity":"waste_basket"}},"type":"Feature"},
	{"geometry":{"coordinates":[18.922982,50.294353],"type":"Point"},"properties":{"osm_id":"4109496705","tag":{"amenity":"waste_basket"}},"type":"Feature"},
	{"geometry":{"coordinates":[18.919,50.294905],"type":"Point"},"properties":{"osm_id":"4117055128","tag":{"amenity":"waste_basket"}},"type":"Feature"},
	{"geometry":{"coordinates":[18.920244,50.294642],"type":"Point"},"properties":{"osm_id":"4117057861","tag":{"amenity":"waste_basket"}},"type":"Feature"},
	{"geometry":{"coordinates":[18.926294,50.320774],"type":"Point"},"properties":{"osm_id":"4120828486","tag":{"amenity":"waste_basket"}},"type":"Feature"},
	{"geometry":{"coordinates":[18.925766,50.320279],"type":"Point"},"properties":{"osm_id":"4120833279","tag":{"amenity":"waste_basket"}},"type":"Feature"},
	{"geometry":{"coordinates":[18.926444,50.320831],"type":"Point"},"properties":{"osm_id":"4120835736","tag":{"amenity":"waste_basket"}},"type":"Feature"},
	{"geometry":{"coordinates":[18.915299,50.342125],"type":"Point"},"properties":{"name":"kosz","osm_id":"4120835737","tag":{"amenity":"waste_basket"}},"type":"Feature"},
	{"geometry":{"coordinates":[18.923446,50.293731],"type":"Point"},"properties":{"osm_id":"4131044645","tag":{"amenity":"waste_basket"}},"type":"Feature"},
	{"geometry":{"coordinates":[18.922294,50.291728],"type":"Point"},"properties":{"osm_id":"4141066094","tag":{"amenity":"waste_basket"}},"type":"Feature"},
	{"geometry":{"coordinates":[18.92237,50.291159],"type":"Point"},"properties":{"osm_id":"4141066095","tag":{"amenity":"waste_basket"}},"type":"Feature"},
	{"geometry":{"coordinates":[18.921023,50.289557],"type":"Point"},"properties":{"osm_id":"4141066096","tag":{"amenity":"waste_basket"}},"type":"Feature"},
	{"geometry":{"coordinates":[18.91997,50.290092],"type":"Point"},"properties":{"osm_id":"4141066099","tag":{"amenity":"waste_basket"}},"type":"Feature"},
	{"geometry":{"coordinates":[18.920372,50.289953],"type":"Point"},"properties":{"osm_id":"4141078871","tag":{"amenity":"waste_basket"}},"type":"Feature"},
	{"geometry":{"coordinates":[18.922147,50.292267],"type":"Point"},"properties":{"osm_id":"4141079544","tag":{"amenity":"waste_basket"}},"type":"Feature"},
	{"geometry":{"coordinates":[18.921612,50.290243],"type":"Point"},"properties":{"osm_id":"4141079545","tag":{"amenity":"waste_basket"}},"type":"Feature"},
	{"geometry":{"coordinates":[18.920715,50.289766],"type":"Point"},"properties":{"osm_id":"4141079546","tag":{"amenity":"waste_basket"}},"type":"Feature"},
	{"geometry":{"coordinates":[18.920133,50.289994],"type":"Point"},"properties":{"osm_id":"4141079547","tag":{"amenity":"waste_basket"}},"type":"Feature"},
	{"geometry":{"coordinates":[18.926769,50.291884],"type":"Point"},"properties":{"osm_id":"4171679567","tag":{"amenity":"waste_basket"}},"type":"Feature"},
	{"geometry":{"coordinates":[18.925539,50.291943],"type":"Point"},"properties":{"osm_id":"4171679568","tag":{"amenity":"waste_basket"}},"type":"Feature"},
	{"geometry":{"coordinates":[18.925578,50.292039],"type":"Point"},"properties":{"osm_id":"4171679569","tag":{"amenity":"waste_basket"}},"type":"Feature"},
	{"geometry":{"coordinates":[18.926245,50.291976],"type":"Point"},"properties":{"osm_id":"4171680010","tag":{"amenity":"waste_basket"}},"type":"Feature"},
	{"geometry":{"coordinates":[18.90172,50.340076],"type":"Point"},"properties":{"osm_id":"4230280554","tag":{"amenity":"waste_basket"}},"type":"Feature"},
	{"geometry":{"coordinates":[18.903598,50.339646],"type":"Point"},"properties":{"osm_id":"4230280556","tag":{"amenity":"waste_basket"}},"type":"Feature"},
	{"geometry":{"coordinates":[18.904339,50.339467],"type":"Point"},"properties":{"osm_id":"4230280557","tag":{"amenity":"waste_basket"}},"type":"Feature"},
	{"geometry":{"coordinates":[18.904775,50.339631],"type":"Point"},"properties":{"osm_id":"4230280558","tag":{"amenity":"waste_basket"}},"type":"Feature"},
	{"geometry":{"coordinates":[18.905196,50.339799],"type":"Point"},"properties":{"osm_id":"4230280560","tag":{"amenity":"waste_basket"}},"type":"Feature"},
	{"geometry":{"coordinates":[18.907578,50.340587],"type":"Point"},"properties":{"osm_id":"4230280561","tag":{"amenity":"waste_basket"}},"type":"Feature"},
	{"geometry":{"coordinates":[18.909056,50.340939],"type":"Point"},"properties":{"osm_id":"4230280564","tag":{"amenity":"waste_basket"}},"type":"Feature"},
	{"geometry":{"coordinates":[18.910319,50.341281],"type":"Point"},"properties":{"osm_id":"4230280565","tag":{"amenity":"waste_basket"}},"type":"Feature"},
	{"geometry":{"coordinates":[18.912065,50.341821],"type":"Point"},"properties":{"osm_id":"4230280566","tag":{"amenity":"waste_basket"}},"type":"Feature"},
	{"geometry":{"coordinates":[18.914183,50.342368],"type":"Point"},"properties":{"osm_id":"4230280567","tag":{"amenity":"waste_basket"}},"type":"Feature"},
	{"geometry":{"coordinates":[18.914691,50.342152],"type":"Point"},"properties":{"osm_id":"4230280568","tag":{"amenity":"waste_basket"}},"type":"Feature"},
	{"geometry":{"coordinates":[18.923047,50.336025],"type":"Point"},"properties":{"osm_id":"4243046285","tag":{"amenity":"waste_basket"}},"type":"Feature"},
	{"geometry":{"coordinates":[18.922866,50.336038],"type":"Point"},"properties":{"osm_id":"4243046287","tag":{"amenity":"waste_basket"}},"type":"Feature"},
	{"geometry":{"coordinates":[18.921204,50.337713],"type":"Point"},"properties":{"osm_id":"4243047190","tag":{"amenity":"waste_basket"}},"type":"Feature"},
	{"geometry":{"coordinates":[18.918865,50.339423],"type":"Point"},"properties":{"osm_id":"4243047193","tag":{"amenity":"waste_basket"}},"type":"Feature"},
	{"geometry":{"coordinates":[18.918885,50.339268],"type":"Point"},"properties":{"osm_id":"4243047194","tag":{"amenity":"waste_basket"}},"type":"Feature"},
	{"geometry":{"coordinates":[18.977913,50.30502],"type":"Point"},"properties":{"name":"ALBA","osm_id":"4279672721","tag":{"addr:city":"Chorz\u00c3\u00b3w","addr:housenumber":"15","addr:postcode":"41-503","addr:street":"Bytkowska","amenity":"recycling","email":"gruz@alba.com.pl","opening_hours":"8:00-16:00","phone":"+48 664 400 000","recycling:rubble":"yes","website":"http://gruz.alba.com.pl/"}},"type":"Feature"},
	{"geometry":{"coordinates":[18.923855,50.291421],"type":"Point"},"properties":{"osm_id":"4279767376","tag":{"amenity":"waste_basket"}},"type":"Feature"},
	{"geometry":{"coordinates":[18.915885,50.293019],"type":"Point"},"properties":{"osm_id":"4756289024","tag":{"amenity":"waste_basket"}},"type":"Feature"},
	{"geometry":{"coordinates":[18.914401,50.293227],"type":"Point"},"properties":{"osm_id":"4756289025","tag":{"amenity":"waste_basket"}},"type":"Feature"},
	{"geometry":{"coordinates":[18.915694,50.297322],"type":"Point"},"properties":{"osm_id":"4756307473","tag":{"amenity":"waste_basket"}},"type":"Feature"},
	{"geometry":{"coordinates":[18.91688,50.293328],"type":"Point"},"properties":{"osm_id":"4756307474","tag":{"amenity":"waste_basket"}},"type":"Feature"},
	{"geometry":{"coordinates":[18.916365,50.292628],"type":"Point"},"properties":{"osm_id":"4756307478","tag":{"amenity":"waste_basket"}},"type":"Feature"},
	{"geometry":{"coordinates":[18.912617,50.299807],"type":"Point"},"properties":{"osm_id":"4756310272","tag":{"amenity":"waste_basket"}},"type":"Feature"},
	{"geometry":{"coordinates":[18.915682,50.298906],"type":"Point"},"properties":{"osm_id":"4756310274","tag":{"amenity":"waste_basket"}},"type":"Feature"},
	{"geometry":{"coordinates":[18.917207,50.298441],"type":"Point"},"properties":{"osm_id":"4756310279","tag":{"amenity":"waste_basket"}},"type":"Feature"},
	{"geometry":{"coordinates":[18.91693,50.294452],"type":"Point"},"properties":{"osm_id":"4756310283","tag":{"amenity":"waste_basket"}},"type":"Feature"},
	{"geometry":{"coordinates":[18.916738,50.295701],"type":"Point"},"properties":{"osm_id":"4756313421","tag":{"amenity":"waste_basket"}},"type":"Feature"},
	{"geometry":{"coordinates":[18.91558,50.293076],"type":"Point"},"properties":{"osm_id":"4756313422","tag":{"amenity":"waste_basket"}},"type":"Feature"},
	{"geometry":{"coordinates":[18.931016,50.295917],"type":"Point"},"properties":{"osm_id":"4766126498","tag":{"amenity":"waste_basket"}},"type":"Feature"},
	{"geometry":{"coordinates":[18.913043,50.305983],"type":"Point"},"properties":{"osm_id":"4784538048","tag":{"amenity":"waste_basket"}},"type":"Feature"},
	{"geometry":{"coordinates":[18.914273,50.306028],"type":"Point"},"properties":{"osm_id":"4784538049","tag":{"amenity":"waste_basket"}},"type":"Feature"},
	{"geometry":{"coordinates":[18.917921,50.302716],"type":"Point"},"properties":{"osm_id":"4784540004","tag":{"amenity":"waste_basket"}},"type":"Feature"},
	{"geometry":{"coordinates":[18.914886,50.302454],"type":"Point"},"properties":{"osm_id":"4784540005","tag":{"amenity":"waste_basket"}},"type":"Feature"},
	{"geometry":{"coordinates":[18.913419,50.306173],"type":"Point"},"properties":{"osm_id":"4784540008","tag":{"amenity":"waste_basket"}},"type":"Feature"},
	{"geometry":{"coordinates":[18.917231,50.305487],"type":"Point"},"properties":{"osm_id":"4784540009","tag":{"amenity":"waste_basket"}},"type":"Feature"},
	{"geometry":{"coordinates":[18.932768,50.302923],"type":"Point"},"properties":{"osm_id":"4784540010","tag":{"amenity":"waste_basket"}},"type":"Feature"},
	{"geometry":{"coordinates":[18.917769,50.292385],"type":"Point"},"properties":{"osm_id":"4784540303","tag":{"amenity":"waste_basket"}},"type":"Feature"},
	{"geometry":{"coordinates":[18.917846,50.302213],"type":"Point"},"properties":{"osm_id":"4784540304","tag":{"amenity":"waste_basket"}},"type":"Feature"},
	{"geometry":{"coordinates":[18.923571,50.304374],"type":"Point"},"properties":{"osm_id":"4784540307","tag":{"amenity":"waste_basket"}},"type":"Feature"},
	{"geometry":{"coordinates":[18.916083,50.30566],"type":"Point"},"properties":{"osm_id":"4784540771","tag":{"amenity":"waste_basket"}},"type":"Feature"},
	{"geometry":{"coordinates":[18.927656,50.303693],"type":"Point"},"properties":{"osm_id":"4784541168","tag":{"amenity":"waste_basket"}},"type":"Feature"},
	{"geometry":{"coordinates":[18.927277,50.327132],"type":"Point"},"properties":{"osm_id":"4788136350","tag":{"amenity":"waste_basket"}},"type":"Feature"},
	{"geometry":{"coordinates":[18.925403,50.32717],"type":"Point"},"properties":{"osm_id":"4788136351","tag":{"amenity":"waste_basket","operator":"ZU KTZ"}},"type":"Feature"},
	{"geometry":{"coordinates":[18.925626,50.327223],"type":"Point"},"properties":{"osm_id":"4788137229","tag":{"amenity":"waste_basket","operator":"MZZiGK"}},"type":"Feature"},
	{"geometry":{"coordinates":[18.926204,50.327396],"type":"Point"},"properties":{"osm_id":"4788140029","tag":{"amenity":"waste_basket"}},"type":"Feature"},
	{"geometry":{"coordinates":[18.924887,50.326351],"type":"Point"},"properties":{"osm_id":"4788140030","tag":{"amenity":"waste_basket","operator":"ZU KTZ"}},"type":"Feature"},
	{"geometry":{"coordinates":[18.916734,50.305057],"type":"Point"},"properties":{"osm_id":"4791121324","tag":{"amenity":"waste_basket"}},"type":"Feature"},
	{"geometry":{"coordinates":[18.960675,50.298131],"type":"Point"},"properties":{"osm_id":"4913569783","tag":{"amenity":"waste_disposal"}},"type":"Feature"},
	{"geometry":{"coordinates":[18.960697,50.298162],"type":"Point"},"properties":{"osm_id":"4913569784","tag":{"amenity":"recycling","recycling_type":"container"}},"type":"Feature"},
	{"geometry":{"coordinates":[18.899519,50.338251],"type":"Point"},"properties":{"osm_id":"5078683495","tag":{"amenity":"waste_disposal"}},"type":"Feature"},
	{"geometry":{"coordinates":[18.961197,50.297244],"type":"Point"},"properties":{"osm_id":"5837032672","tag":{"amenity":"waste_disposal"}},"type":"Feature"},
	{"geometry":{"coordinates":[18.962463,50.297567],"type":"Point"},"properties":{"osm_id":"5837033690","tag":{"amenity":"waste_disposal"}},"type":"Feature"},
	{"geometry":{"coordinates":[18.962484,50.297598],"type":"Point"},"properties":{"osm_id":"5837033691","tag":{"amenity":"recycling","recycling_type":"container"}},"type":"Feature"},
	{"geometry":{"coordinates":[18.960731,50.29909],"type":"Point"},"properties":{"osm_id":"5837033751","tag":{"amenity":"waste_disposal"}},"type":"Feature"},
	{"geometry":{"coordinates":[18.96077,50.299105],"type":"Point"},"properties":{"osm_id":"5837033752","tag":{"amenity":"recycling","recycling_type":"container"}},"type":"Feature"},
	{"geometry":{"coordinates":[18.963344,50.296805],"type":"Point"},"properties":{"osm_id":"5844675456","tag":{"amenity":"waste_disposal"}},"type":"Feature"},
	{"geometry":{"coordinates":[18.963375,50.2968],"type":"Point"},"properties":{"osm_id":"5844675457","tag":{"amenity":"recycling","recycling_type":"container"}},"type":"Feature"},
	{"geometry":{"coordinates":[18.960075,50.297109],"type":"Point"},"properties":{"osm_id":"5844684191","tag":{"amenity":"recycling","recycling_type":"container"}},"type":"Feature"},
	{"geometry":{"coordinates":[18.954279,50.331113],"type":"Point"},"properties":{"osm_id":"5909544767","tag":{"amenity":"recycling"}},"type":"Feature"},
	{"geometry":{"coordinates":[18.953577,50.332777],"type":"Point"},"properties":{"osm_id":"5909544769","tag":{"amenity":"recycling"}},"type":"Feature"},
	{"geometry":{"coordinates":[18.952025,50.332191],"type":"Point"},"properties":{"osm_id":"5909544770","tag":{"amenity":"recycling"}},"type":"Feature"},
	{"geometry":{"coordinates":[18.952866,50.331506],"type":"Point"},"properties":{"osm_id":"5909544772","tag":{"amenity":"recycling"}},"type":"Feature"},
	{"geometry":{"coordinates":[18.953311,50.330712],"type":"Point"},"properties":{"osm_id":"5909544781","tag":{"amenity":"recycling"}},"type":"Feature"},
	{"geometry":{"coordinates":[18.954346,50.330249],"type":"Point"},"properties":{"osm_id":"5909548850","tag":{"amenity":"recycling"}},"type":"Feature"},
	{"geometry":{"coordinates":[18.954233,50.330299],"type":"Point"},"properties":{"osm_id":"5909548851","tag":{"amenity":"recycling"}},"type":"Feature"},
	{"geometry":{"coordinates":[18.964033,50.295035],"type":"Point"},"properties":{"osm_id":"5937818643","tag":{"amenity":"recycling","recycling_type":"container"}},"type":"Feature"},
	{"geometry":{"coordinates":[18.940434,50.334839],"type":"Point"},"properties":{"osm_id":"6331109600","tag":{"amenity":"waste_disposal"}},"type":"Feature"},
	{"geometry":{"coordinates":[18.939965,50.334614],"type":"Point"},"properties":{"osm_id":"6331109639","tag":{"amenity":"waste_disposal"}},"type":"Feature"},
	{"geometry":{"coordinates":[18.939511,50.335411],"type":"Point"},"properties":{"osm_id":"6331109656","tag":{"amenity":"waste_disposal"}},"type":"Feature"},
	{"geometry":{"coordinates":[18.901119,50.30564],"type":"Point"},"properties":{"osm_id":"6447464613","tag":{"amenity":"waste_basket"}},"type":"Feature"},
	{"geometry":{"coordinates":[18.901104,50.305546],"type":"Point"},"properties":{"osm_id":"6447464614","tag":{"amenity":"waste_basket"}},"type":"Feature"},
	{"geometry":{"coordinates":[18.900763,50.306675],"type":"Point"},"properties":{"osm_id":"6447464615","tag":{"amenity":"waste_basket"}},"type":"Feature"},
	{"geometry":{"coordinates":[18.903374,50.306561],"type":"Point"},"properties":{"osm_id":"6452027089","tag":{"amenity":"waste_basket"}},"type":"Feature"},
	{"geometry":{"coordinates":[18.920169,50.31331],"type":"Point"},"properties":{"osm_id":"6524010657","tag":{"amenity":"waste_basket"}},"type":"Feature"},
	{"geometry":{"coordinates":[18.946513,50.295839],"type":"Point"},"properties":{"osm_id":"6776365245","tag":{"amenity":"recycling","recycling:glass":"yes","recycling:paper":"yes","recycling:plastic":"yes","recycling_type":"container"}},"type":"Feature"},
	{"geometry":{"coordinates":[18.946857,50.317908],"type":"Point"},"properties":{"osm_id":"7079749103","tag":{"amenity":"recycling","recycling:glass":"yes","recycling:paper":"yes","recycling:plastic":"yes","recycling:scrap_metal":"yes","recycling_type":"container","source:geometry":"geoportal.gov.pl:Orto/ISOK_CIE\u00c5\u0083-laser/EGB&GPS","source:user":"zVID"}},"type":"Feature"},
	{"geometry":{"coordinates":[18.931576,50.339631],"type":"Point"},"properties":{"osm_id":"7556389193","tag":{"amenity":"waste_disposal"}},"type":"Feature"},
	{"geometry":{"coordinates":[18.933582,50.339696],"type":"Point"},"properties":{"osm_id":"7556389194","tag":{"amenity":"waste_disposal"}},"type":"Feature"},
	{"geometry":{"coordinates":[18.932697,50.340345],"type":"Point"},"properties":{"osm_id":"7556389195","tag":{"amenity":"waste_disposal"}},"type":"Feature"},
	{"geometry":{"coordinates":[18.954365,50.327889],"type":"Point"},"properties":{"osm_id":"7590140071","tag":{"amenity":"waste_basket"}},"type":"Feature"}
]
}
