{
"type": "FeatureCollection",
"features": [
	{"geometry":{"coordinates":[18.970272,50.260748],"type":"Point"},"properties":{"osm_id":"2142694787","tag":{"amenity":"waste_basket"}},"type":"Feature"},
	{"geometry":{"coordinates":[18.970366,50.261463],"type":"Point"},"properties":{"osm_id":"2142694792","tag":{"amenity":"waste_basket"}},"type":"Feature"},
	{"geometry":{"coordinates":[18.972166,50.256608],"type":"Point"},"properties":{"osm_id":"2142698061","tag":{"amenity":"waste_basket"}},"type":"Feature"},
	{"geometry":{"coordinates":[18.973235,50.26605],"type":"Point"},"properties":{"osm_id":"2142701628","tag":{"amenity":"waste_basket"}},"type":"Feature"},
	{"geometry":{"coordinates":[18.981063,50.273548],"type":"Point"},"properties":{"osm_id":"2142737539","tag":{"amenity":"waste_basket"}},"type":"Feature"},
	{"geometry":{"coordinates":[18.976306,50.276835],"type":"Point"},"properties":{"osm_id":"2142741193","tag":{"amenity":"waste_basket"}},"type":"Feature"},
	{"geometry":{"coordinates":[18.971163,50.278786],"type":"Point"},"properties":{"osm_id":"2142747704","tag":{"amenity":"waste_basket"}},"type":"Feature"},
	{"geometry":{"coordinates":[18.964219,50.282557],"type":"Point"},"properties":{"osm_id":"2142747714","tag":{"amenity":"waste_basket"}},"type":"Feature"},
	{"geometry":{"coordinates":[18.966631,50.280314],"type":"Point"},"properties":{"osm_id":"2142751116","tag":{"amenity":"waste_basket"}},"type":"Feature"},
	{"geometry":{"coordinates":[18.972889,50.279781],"type":"Point"},"properties":{"osm_id":"2142757726","tag":{"amenity":"waste_basket"}},"type":"Feature"},
	{"geometry":{"coordinates":[18.971405,50.283821],"type":"Point"},"properties":{"osm_id":"2142759706","tag":{"amenity":"waste_basket"}},"type":"Feature"},
	{"geometry":{"coordinates":[18.966842,50.285503],"type":"Point"},"properties":{"osm_id":"2142762705","tag":{"amenity":"waste_basket"}},"type":"Feature"},
	{"geometry":{"coordinates":[18.958556,50.268094],"type":"Point"},"properties":{"osm_id":"2142995297","tag":{"amenity":"waste_basket"}},"type":"Feature"},
	{"geometry":{"coordinates":[18.959564,50.268207],"type":"Point"},"properties":{"osm_id":"2142995301","tag":{"amenity":"waste_basket"}},"type":"Feature"},
	{"geometry":{"coordinates":[18.968115,50.267029],"type":"Point"},"properties":{"osm_id":"2143030313","tag":{"amenity":"waste_basket"}},"type":"Feature"},
	{"geometry":{"coordinates":[18.968022,50.267179],"type":"Point"},"properties":{"osm_id":"2143030318","tag":{"amenity":"waste_basket"}},"type":"Feature"},
	{"geometry":{"coordinates":[18.979252,50.268197],"type":"Point"},"properties":{"osm_id":"2143071625","tag":{"amenity":"waste_basket"}},"type":"Feature"},
	{"geometry":{"coordinates":[18.979114,50.268418],"type":"Point"},"properties":{"osm_id":"2143071635","tag":{"amenity":"waste_basket"}},"type":"Feature"},
	{"geometry":{"coordinates":[18.98159,50.250817],"type":"Point"},"properties":{"osm_id":"2150429737","tag":{"amenity":"waste_basket"}},"type":"Feature"},
	{"geometry":{"coordinates":[18.975487,50.266708],"type":"Point"},"properties":{"osm_id":"2272634643","tag":{"amenity":"waste_basket"}},"type":"Feature"},
	{"geometry":{"coordinates":[18.935807,50.264358],"type":"Point"},"properties":{"osm_id":"3700179185","tag":{"amenity":"recycling"}},"type":"Feature"},
	{"geometry":{"coordinates":[18.914115,50.281104],"type":"Point"},"properties":{"osm_id":"3790364859","tag":{"amenity":"recycling","recycling:cans":"yes","recycling:clothes":"yes","recycling:glass":"yes","recycling:glass_bottles":"yes","recycling:paper":"yes","recycling:plastic":"yes","recycling:plastic_bottles":"yes","recycling:plastic_packaging":"yes","recycling:scrap_metal":"yes","recycling_type":"container"}},"type":"Feature"},
	{"geometry":{"coordinates":[18.917242,50.282177],"type":"Point"},"properties":{"osm_id":"3790364913","tag":{"amenity":"recycling","recycling:cans":"yes","recycling:clothes":"yes","recycling:glass":"yes","recycling:glass_bottles":"yes","recycling:paper":"yes","recycling:plastic":"yes","recycling:plastic_bottles":"yes","recycling:plastic_packaging":"yes","recycling:scrap_metal":"yes","recycling_type":"container"}},"type":"Feature"},
	{"geometry":{"coordinates":[18.914239,50.282669],"type":"Point"},"properties":{"osm_id":"3790364930","tag":{"amenity":"recycling","recycling:cans":"yes","recycling:clothes":"yes","recycling:glass":"yes","recycling:glass_bottles":"yes","recycling:paper":"yes","recycling:plastic":"yes","recycling:plastic_bottles":"yes","recycling:plastic_packaging":"yes","recycling:scrap_metal":"yes","recycling_type":"container"}},"type":"Feature"},
	{"geometry":{"coordinates":[18.914664,50.282734],"type":"Point"},"properties":{"osm_id":"3790364932","tag":{"amenity":"recycling","recycling:cans":"yes","recycling:clothes":"yes","recycling:glass":"yes","recycling:glass_bottles":"yes","recycling:paper":"yes","recycling:plastic":"yes","recycling:plastic_bottles":"yes","recycling:plastic_packaging":"yes","recycling:scrap_metal":"yes","recycling_type":"container"}},"type":"Feature"},
	{"geometry":{"coordinates":[18.935958,50.263227],"type":"Point"},"properties":{"osm_id":"4109453194","tag":{"amenity":"recycling","recycling_type":"container"}},"type":"Feature"},
	{"geometry":{"coordinates":[18.982988,50.273743],"type":"Point"},"properties":{"osm_id":"4457681586","tag":{"amenity":"waste_basket","waste":"dog_excrement"}},"type":"Feature"},
	{"geometry":{"coordinates":[18.98322,50.274169],"type":"Point"},"properties":{"osm_id":"4457682794","tag":{"amenity":"waste_basket","waste":"dog_excrement"}},"type":"Feature"},
	{"geometry":{"coordinates":[18.980041,50.269354],"type":"Point"},"properties":{"osm_id":"4754888966","tag":{"amenity":"waste_basket"}},"type":"Feature"},
	{"geometry":{"coordinates":[18.975095,50.270162],"type":"Point"},"properties":{"osm_id":"4754888975","tag":{"amenity":"waste_basket"}},"type":"Feature"},
	{"geometry":{"coordinates":[18.975068,50.270057],"type":"Point"},"properties":{"osm_id":"4754888976","tag":{"amenity":"waste_basket"}},"type":"Feature"},
	{"geometry":{"coordinates":[18.964743,50.272591],"type":"Point"},"properties":{"osm_id":"4756391309","tag":{"amenity":"waste_basket","traffic_sign":"PL:D-17"}},"type":"Feature"},
	{"geometry":{"coordinates":[18.964786,50.272688],"type":"Point"},"properties":{"osm_id":"4756391310","tag":{"amenity":"waste_basket"}},"type":"Feature"},
	{"geometry":{"coordinates":[18.96488,50.272762],"type":"Point"},"properties":{"osm_id":"4941954726","tag":{"amenity":"waste_basket"}},"type":"Feature"},
	{"geometry":{"coordinates":[18.944056,50.277573],"type":"Point"},"properties":{"name":"Olmet","osm_id":"5565920551","tag":{"addr:housenumber":"9a","addr:street":"\u00c5\u00bbelazna","amenity":"recycling","email":"chorzow@olmet.pl","fax":"48 32 783 92 90","opening_hours":"Mo-Fr 07:00-17:00; Sa 07:00-15:00","phone":"+48 32 783 92 92","website":"http://www.olmet.pl"}},"type":"Feature"},
	{"geometry":{"coordinates":[18.955309,50.267077],"type":"Point"},"properties":{"osm_id":"6357101865","tag":{"amenity":"waste_basket"}},"type":"Feature"},
	{"geometry":{"coordinates":[18.971424,50.282491],"type":"Point"},"properties":{"osm_id":"6381045267","tag":{"amenity":"waste_basket"}},"type":"Feature"},
	{"geometry":{"coordinates":[18.935679,50.275903],"type":"Point"},"properties":{"osm_id":"6712108711","tag":{"amenity":"recycling","recycling:glass":"yes","recycling:paper":"yes","recycling:plastic":"yes","recycling_type":"container"}},"type":"Feature"},
	{"geometry":{"coordinates":[18.933892,50.275707],"type":"Point"},"properties":{"osm_id":"6712108712","tag":{"amenity":"recycling","recycling:glass":"yes","recycling:paper":"yes","recycling:plastic":"yes","recycling_type":"container"}},"type":"Feature"},
	{"geometry":{"coordinates":[18.930889,50.27533],"type":"Point"},"properties":{"osm_id":"6720386616","tag":{"amenity":"recycling","recycling_type":"container"}},"type":"Feature"},
	{"geometry":{"coordinates":[18.926715,50.275256],"type":"Point"},"properties":{"osm_id":"6720386617","tag":{"amenity":"recycling","recycling_type":"container"}},"type":"Feature"},
	{"geometry":{"coordinates":[18.926792,50.274689],"type":"Point"},"properties":{"osm_id":"6720386618","tag":{"amenity":"recycling","recycling_type":"container"}},"type":"Feature"},
	{"geometry":{"coordinates":[18.926837,50.272813],"type":"Point"},"properties":{"osm_id":"6720386619","tag":{"amenity":"recycling","recycling_type":"container"}},"type":"Feature"},
	{"geometry":{"coordinates":[18.927994,50.272209],"type":"Point"},"properties":{"osm_id":"6720386620","tag":{"amenity":"recycling","recycling_type":"container"}},"type":"Feature"},
	{"geometry":{"coordinates":[18.92913,50.272447],"type":"Point"},"properties":{"osm_id":"6720386621","tag":{"amenity":"recycling","recycling_type":"container"}},"type":"Feature"},
	{"geometry":{"coordinates":[18.930149,50.273663],"type":"Point"},"properties":{"osm_id":"6720386622","tag":{"amenity":"recycling","recycling_type":"container"}},"type":"Feature"},
	{"geometry":{"coordinates":[18.958841,50.284297],"type":"Point"},"properties":{"osm_id":"7442082342","tag":{"access":"yes","amenity":"recycling","recycling_type":"container"}},"type":"Feature"},
	{"geometry":{"coordinates":[18.958841,50.284318],"type":"Point"},"properties":{"osm_id":"7442082343","tag":{"access":"yes","amenity":"recycling","recycling_type":"container"}},"type":"Feature"},
	{"geometry":{"coordinates":[18.958841,50.284335],"type":"Point"},"properties":{"osm_id":"7442082344","tag":{"access":"yes","amenity":"recycling","recycling_type":"container"}},"type":"Feature"},
	{"geometry":{"coordinates":[18.958841,50.284351],"type":"Point"},"properties":{"osm_id":"7442082345","tag":{"access":"yes","amenity":"recycling","recycling_type":"container"}},"type":"Feature"}
]
}
