{
"type": "FeatureCollection",
"features": [
	{"geometry":{"coordinates":[18.95843,47.790494],"type":"Point"},"properties":{"name":"szelekt\u00c3\u00adv hullad\u00c3\u00a9kgy\u00c5\u00b1jt\u00c5\u0091, \u00c3\u00bcveg","osm_id":"3439051515","tag":{"addr:city":"Nagymaros","addr:street":"Magyar utca","amenity":"recycling","recycling:glass_bottles":"yes","recycling_type":"container","source:date":"2013-06-22","url":"http://turistautak.hu/poi.php?id=152711"}},"type":"Feature"},
	{"geometry":{"coordinates":[18.963337,47.79432],"type":"Point"},"properties":{"osm_id":"3439051525","tag":{"addr:street":"12es f\u00c5\u0091\u00c3\u00bat mellett","amenity":"recycling","source:date":"2013-06-22","url":"http://turistautak.hu/poi.php?id=62912"}},"type":"Feature"},
	{"geometry":{"coordinates":[18.911156,47.796715],"type":"Point"},"properties":{"osm_id":"3439051529","tag":{"amenity":"recycling","source:date":"2012-10-03","url":"http://turistautak.hu/poi.php?id=137861"}},"type":"Feature"},
	{"geometry":{"coordinates":[18.96825,47.779583],"type":"Point"},"properties":{"osm_id":"3441705728","tag":{"amenity":"recycling","mapillary":"DgwVqA072UoxvTQl5imlmQ","recycling:glass":"yes","recycling:paper":"yes","recycling:plastic":"yes","recycling_type":"container"}},"type":"Feature"},
	{"geometry":{"coordinates":[18.976628,47.784497],"type":"Point"},"properties":{"osm_id":"3441705732","tag":{"amenity":"recycling","location":"overground","recycling_type":"container","source:date":"2011-04-07","url":"http://turistautak.hu/poi.php?id=3343"}},"type":"Feature"},
	{"geometry":{"coordinates":[18.911689,47.763199],"type":"Point"},"properties":{"osm_id":"3454425918","tag":{"amenity":"recycling","source:date":"2011-06-12","url":"http://turistautak.hu/poi.php?id=119629"}},"type":"Feature"},
	{"geometry":{"coordinates":[18.98124,47.760394],"type":"Point"},"properties":{"osm_id":"3524475923","tag":{"amenity":"waste_basket"}},"type":"Feature"},
	{"geometry":{"coordinates":[18.914185,47.804701],"type":"Point"},"properties":{"osm_id":"3781468900","tag":{"amenity":"recycling","recycling_type":"container"}},"type":"Feature"},
	{"geometry":{"coordinates":[18.955102,47.781172],"type":"Point"},"properties":{"osm_id":"4203164374","tag":{"amenity":"waste_basket"}},"type":"Feature"},
	{"geometry":{"coordinates":[18.944121,47.798343],"type":"Point"},"properties":{"osm_id":"4364516287","tag":{"amenity":"recycling"}},"type":"Feature"},
	{"geometry":{"coordinates":[18.956828,47.78122],"type":"Point"},"properties":{"osm_id":"4364711418","tag":{"amenity":"waste_basket","waste":"trash"}},"type":"Feature"},
	{"geometry":{"coordinates":[18.963351,47.801512],"type":"Point"},"properties":{"osm_id":"4895827912","tag":{"amenity":"waste_disposal"}},"type":"Feature"},
	{"geometry":{"coordinates":[18.951832,47.780323],"type":"Point"},"properties":{"name":"szelekt\u00c3\u00adv hullad\u00c3\u00a9kgy\u00c5\u00b1jt\u00c5\u0091, \u00c3\u00bcveg","osm_id":"5751696595","tag":{"amenity":"recycling","recycling:glass_bottles":"yes","recycling_type":"container"}},"type":"Feature"},
	{"geometry":{"coordinates":[18.958183,47.783579],"type":"Point"},"properties":{"osm_id":"5838465861","tag":{"amenity":"waste_basket","waste":"trash"}},"type":"Feature"},
	{"geometry":{"coordinates":[18.957853,47.789312],"type":"Point"},"properties":{"osm_id":"6374514425","tag":{"amenity":"waste_basket"}},"type":"Feature"},
	{"geometry":{"coordinates":[18.957999,47.789606],"type":"Point"},"properties":{"osm_id":"6374514431","tag":{"amenity":"waste_basket"}},"type":"Feature"},
	{"geometry":{"coordinates":[18.912236,47.780091],"type":"Point"},"properties":{"osm_id":"6737905188","tag":{"amenity":"waste_basket","waste":"trash"}},"type":"Feature"},
	{"geometry":{"coordinates":[18.957265,47.788103],"type":"Point"},"properties":{"name":"szelekt\u00c3\u00adv hullad\u00c3\u00a9kgy\u00c5\u00b1jt\u00c5\u0091, \u00c3\u00bcveg","osm_id":"6738453573","tag":{"amenity":"recycling","recycling:glass_bottles":"yes","recycling_type":"container"}},"type":"Feature"},
	{"geometry":{"coordinates":[18.915545,47.763213],"type":"Point"},"properties":{"osm_id":"7669251741","tag":{"amenity":"waste_basket"}},"type":"Feature"}
]
}
