{
"type": "FeatureCollection",
"lastupdate": "2020-08-03T00:00:00Z",
"features": [
	{"geometry":{"coordinates":[18.914735,47.615411],"type":"Point"},"properties":{"osm_id":"705517729","tag":{"amenity":"recycling"}},"type":"Feature"},
	{"geometry":{"coordinates":[18.900681,47.615703],"type":"Point"},"properties":{"osm_id":"727780027","tag":{"amenity":"recycling"}},"type":"Feature"},
	{"geometry":{"coordinates":[18.905732,47.617744],"type":"Point"},"properties":{"osm_id":"727780036","tag":{"amenity":"recycling"}},"type":"Feature"},
	{"geometry":{"coordinates":[18.911857,47.62162],"type":"Point"},"properties":{"name":"\u00c3\u009cveg kont\u00c3\u00a9ner","osm_id":"1704408816","tag":{"amenity":"recycling","recycling:glass":"yes","recycling_type":"container"}},"type":"Feature"},
	{"geometry":{"coordinates":[18.928885,47.591563],"type":"Point"},"properties":{"osm_id":"2047021015","tag":{"amenity":"recycling","recycling:cans":"no","recycling:glass":"yes","recycling:glass_bottles":"yes","recycling:paper":"no","recycling_type":"container"}},"type":"Feature"},
	{"geometry":{"coordinates":[18.939514,47.578215],"type":"Point"},"properties":{"osm_id":"2284298986","tag":{"amenity":"waste_basket"}},"type":"Feature"},
	{"geometry":{"coordinates":[18.940441,47.579962],"type":"Point"},"properties":{"osm_id":"2284298988","tag":{"amenity":"waste_basket"}},"type":"Feature"},
	{"geometry":{"coordinates":[18.942343,47.581188],"type":"Point"},"properties":{"osm_id":"2284298990","tag":{"amenity":"waste_basket"}},"type":"Feature"},
	{"geometry":{"coordinates":[18.903136,47.587941],"type":"Point"},"properties":{"osm_id":"3151740676","tag":{"amenity":"waste_basket"}},"type":"Feature"},
	{"geometry":{"coordinates":[18.959547,47.598236],"type":"Point"},"properties":{"osm_id":"3226109114","tag":{"amenity":"recycling","recycling:glass":"yes"}},"type":"Feature"},
	{"geometry":{"coordinates":[18.960637,47.598932],"type":"Point"},"properties":{"osm_id":"3226109771","tag":{"amenity":"recycling","recycling:clothes":"yes","recycling_type":"container"}},"type":"Feature"},
	{"geometry":{"coordinates":[18.959566,47.599448],"type":"Point"},"properties":{"osm_id":"3226109830","tag":{"amenity":"recycling","recycling:cans":"yes","recycling:glass":"yes","recycling:paper":"yes","recycling_type":"container"}},"type":"Feature"},
	{"geometry":{"coordinates":[18.962951,47.598857],"type":"Point"},"properties":{"osm_id":"3461930694","tag":{"amenity":"recycling","source:date":"2014-02-04","url":"http://turistautak.hu/poi.php?id=110724"}},"type":"Feature"},
	{"geometry":{"coordinates":[18.921513,47.615428],"type":"Point"},"properties":{"osm_id":"3461930738","tag":{"addr:street":"Budai utca 10-zel szemben, a Vasporta bej\u00e1rata el\u0151tt","amenity":"recycling","source:date":"2011-06-29","url":"http://turistautak.hu/poi.php?id=10931"}},"type":"Feature"},
	{"geometry":{"coordinates":[18.900967,47.623983],"type":"Point"},"properties":{"osm_id":"3461930753","tag":{"addr:city":"Pilisv\u00f6r\u00f6sv\u00e1r","addr:housenumber":"51","addr:postcode":"2085","addr:street":"Pet\u0151fi S\u00e1ndor utca","amenity":"recycling","description":"Szelekt\u00edv hullad\u00e9kgy\u0171jt\u0151 Pilisv\u00f6r\u00f6sv\u00e1ron a Pet\u0151fi S\u00e1ndor u. 51 sz\u00e1mmal szemben.","source:date":"2011-04-18","url":"http://turistautak.hu/poi.php?id=17894"}},"type":"Feature"},
	{"geometry":{"coordinates":[18.898358,47.609255],"type":"Point"},"properties":{"osm_id":"4264531296","tag":{"amenity":"waste_basket"}},"type":"Feature"},
	{"geometry":{"coordinates":[18.931261,47.596189],"type":"Point"},"properties":{"osm_id":"6132423394","tag":{"amenity":"waste_basket"}},"type":"Feature"},
	{"geometry":{"coordinates":[18.932413,47.595658],"type":"Point"},"properties":{"osm_id":"6132423415","tag":{"amenity":"waste_basket"}},"type":"Feature"},
	{"geometry":{"coordinates":[18.926727,47.61151],"type":"Point"},"properties":{"osm_id":"6486470268","tag":{"amenity":"recycling","recycling_type":"centre"}},"type":"Feature"},
	{"geometry":{"coordinates":[18.930929,47.616663],"type":"Point"},"properties":{"name":"Pbf-Triagon\u00c3\u00a1l Kft.","osm_id":"7220962709","tag":{"addr:city":"Pilisv\u00f6r\u00f6sv\u00e1r","addr:housenumber":"11","addr:postcode":"2085","addr:street":"Szent L\u00e1szl\u00f3 utca","amenity":"recycling","recycling_type":"centre"}},"type":"Feature"},
	{"geometry":{"coordinates":[18.908652,47.619479],"type":"Point"},"properties":{"osm_id":"7366992882","tag":{"amenity":"waste_basket"}},"type":"Feature"},
	{"geometry":{"coordinates":[18.909398,47.619],"type":"Point"},"properties":{"osm_id":"7367045586","tag":{"amenity":"waste_basket"}},"type":"Feature"}
]
}
