{
"type": "FeatureCollection",
"features": [
	{"geometry":{"coordinates":[18.959679,47.561038],"type":"Point"},"properties":{"osm_id":"342111106","tag":{"amenity":"recycling","recycling:glass":"yes","recycling_type":"container"}},"type":"Feature"},
	{"geometry":{"coordinates":[18.960826,47.554029],"type":"Point"},"properties":{"osm_id":"342392018","tag":{"amenity":"recycling","recycling:glass":"yes","recycling_type":"container"}},"type":"Feature"},
	{"geometry":{"coordinates":[18.953019,47.55195],"type":"Point"},"properties":{"osm_id":"343688234","tag":{"amenity":"recycling","recycling:glass":"yes","recycling_type":"container"}},"type":"Feature"},
	{"geometry":{"coordinates":[18.965108,47.542103],"type":"Point"},"properties":{"osm_id":"355885656","tag":{"amenity":"recycling","recycling:cans":"yes","recycling:clothes":"yes","recycling:glass":"yes","recycling:paper":"yes","recycling_type":"container"}},"type":"Feature"},
	{"geometry":{"coordinates":[18.96701,47.567384],"type":"Point"},"properties":{"osm_id":"823496243","tag":{"amenity":"recycling","recycling_type":"container","shop":"bicycle"}},"type":"Feature"},
	{"geometry":{"coordinates":[18.96596,47.537627],"type":"Point"},"properties":{"osm_id":"1962347744","tag":{"amenity":"recycling","recycling:clothes":"yes","recycling_type":"container"}},"type":"Feature"},
	{"geometry":{"coordinates":[18.966374,47.538127],"type":"Point"},"properties":{"osm_id":"1962347800","tag":{"amenity":"recycling","recycling:batteries":"yes","recycling:cans":"yes","recycling:fluorescent_tubes":"yes","recycling:glass":"yes","recycling:mobile_phones":"yes","recycling:paper":"yes","recycling:small_appliances":"yes","recycling_type":"container"}},"type":"Feature"},
	{"geometry":{"coordinates":[18.971389,47.522016],"type":"Point"},"properties":{"osm_id":"1985043695","tag":{"amenity":"recycling","recycling:cans":"yes","recycling:glass":"yes","recycling:paper":"yes","recycling_type":"container"}},"type":"Feature"},
	{"geometry":{"coordinates":[18.968394,47.535411],"type":"Point"},"properties":{"osm_id":"2000575783","tag":{"amenity":"waste_basket"}},"type":"Feature"},
	{"geometry":{"coordinates":[18.954079,47.539893],"type":"Point"},"properties":{"osm_id":"2000575794","tag":{"amenity":"waste_basket"}},"type":"Feature"},
	{"geometry":{"coordinates":[18.953097,47.539976],"type":"Point"},"properties":{"osm_id":"2000575797","tag":{"amenity":"waste_basket"}},"type":"Feature"},
	{"geometry":{"coordinates":[18.945976,47.541498],"type":"Point"},"properties":{"osm_id":"2000575811","tag":{"amenity":"waste_basket"}},"type":"Feature"},
	{"geometry":{"coordinates":[18.939092,47.558755],"type":"Point"},"properties":{"osm_id":"2041526024","tag":{"amenity":"recycling","recycling:cans":"no","recycling:glass":"yes","recycling:paper":"no","recycling:plastic":"no","recycling_type":"container"}},"type":"Feature"},
	{"geometry":{"coordinates":[18.967329,47.528213],"type":"Point"},"properties":{"osm_id":"2280423777","tag":{"amenity":"waste_basket"}},"type":"Feature"},
	{"geometry":{"coordinates":[18.965046,47.531838],"type":"Point"},"properties":{"osm_id":"2280423793","tag":{"amenity":"waste_basket"}},"type":"Feature"},
	{"geometry":{"coordinates":[18.962991,47.535901],"type":"Point"},"properties":{"osm_id":"2280423817","tag":{"amenity":"waste_basket"}},"type":"Feature"},
	{"geometry":{"coordinates":[18.964971,47.527912],"type":"Point"},"properties":{"osm_id":"2287195961","tag":{"amenity":"waste_basket"}},"type":"Feature"},
	{"geometry":{"coordinates":[18.957511,47.528106],"type":"Point"},"properties":{"osm_id":"2287195973","tag":{"amenity":"waste_basket"}},"type":"Feature"},
	{"geometry":{"coordinates":[18.960103,47.528498],"type":"Point"},"properties":{"osm_id":"2287195985","tag":{"amenity":"waste_basket"}},"type":"Feature"},
	{"geometry":{"coordinates":[18.957354,47.528555],"type":"Point"},"properties":{"osm_id":"2309927024","tag":{"amenity":"waste_basket","material":"wood"}},"type":"Feature"},
	{"geometry":{"coordinates":[18.957539,47.528861],"type":"Point"},"properties":{"osm_id":"2309927025","tag":{"amenity":"waste_basket","material":"wood"}},"type":"Feature"},
	{"geometry":{"coordinates":[18.983193,47.533485],"type":"Point"},"properties":{"osm_id":"2696629098","tag":{"amenity":"recycling","recycling:cans":"no","recycling:clothes":"no","recycling:glass":"yes","recycling:paper":"no","recycling_type":"container"}},"type":"Feature"},
	{"geometry":{"coordinates":[18.970984,47.528914],"type":"Point"},"properties":{"osm_id":"2876371731","tag":{"amenity":"waste_basket"}},"type":"Feature"},
	{"geometry":{"coordinates":[18.938517,47.54718],"type":"Point"},"properties":{"osm_id":"3246866601","tag":{"amenity":"waste_basket"}},"type":"Feature"},
	{"geometry":{"coordinates":[18.939099,47.547178],"type":"Point"},"properties":{"osm_id":"3246866603","tag":{"amenity":"waste_basket"}},"type":"Feature"},
	{"geometry":{"coordinates":[18.982887,47.536319],"type":"Point"},"properties":{"osm_id":"3389607968","tag":{"amenity":"waste_basket"}},"type":"Feature"},
	{"geometry":{"coordinates":[18.938317,47.519717],"type":"Point"},"properties":{"osm_id":"3454542725","tag":{"addr:city":"Budakeszi","addr:housenumber":"2","addr:postcode":"2092","addr:street":"R\u00c3\u00b3zsa utca","amenity":"recycling","source:date":"2011-04-18","url":"http://turistautak.hu/poi.php?id=89930"}},"type":"Feature"},
	{"geometry":{"coordinates":[18.938517,47.519772],"type":"Point"},"properties":{"osm_id":"3454542727","tag":{"amenity":"recycling","source:date":"2011-06-29","url":"http://turistautak.hu/poi.php?id=20114"}},"type":"Feature"},
	{"geometry":{"coordinates":[18.8979,47.5718],"type":"Point"},"properties":{"osm_id":"3454542783","tag":{"addr:street":"E\u00c3\u00b6tv\u00c3\u00b6s utca","amenity":"recycling","source:date":"2014-02-04","url":"http://turistautak.hu/poi.php?id=32079"}},"type":"Feature"},
	{"geometry":{"coordinates":[18.939788,47.546897],"type":"Point"},"properties":{"osm_id":"3480657875","tag":{"amenity":"waste_basket"}},"type":"Feature"},
	{"geometry":{"coordinates":[18.961326,47.568664],"type":"Point"},"properties":{"osm_id":"3623659613","tag":{"amenity":"waste_basket"}},"type":"Feature"},
	{"geometry":{"coordinates":[18.963691,47.542364],"type":"Point"},"properties":{"osm_id":"3694130382","tag":{"amenity":"waste_basket"}},"type":"Feature"},
	{"geometry":{"coordinates":[18.963565,47.542327],"type":"Point"},"properties":{"osm_id":"3694130383","tag":{"amenity":"waste_basket"}},"type":"Feature"},
	{"geometry":{"coordinates":[18.963612,47.54226],"type":"Point"},"properties":{"osm_id":"3694130384","tag":{"amenity":"waste_basket"}},"type":"Feature"},
	{"geometry":{"coordinates":[18.963947,47.542236],"type":"Point"},"properties":{"osm_id":"3694130385","tag":{"amenity":"waste_basket"}},"type":"Feature"},
	{"geometry":{"coordinates":[18.953736,47.547981],"type":"Point"},"properties":{"osm_id":"4167493245","tag":{"amenity":"waste_basket"}},"type":"Feature"},
	{"geometry":{"coordinates":[18.979219,47.527327],"type":"Point"},"properties":{"osm_id":"4473229296","tag":{"amenity":"waste_basket"}},"type":"Feature"},
	{"geometry":{"coordinates":[18.979421,47.527454],"type":"Point"},"properties":{"osm_id":"4473229297","tag":{"amenity":"waste_basket"}},"type":"Feature"},
	{"geometry":{"coordinates":[18.966077,47.536135],"type":"Point"},"properties":{"osm_id":"4599814335","tag":{"amenity":"waste_basket"}},"type":"Feature"},
	{"geometry":{"coordinates":[18.956154,47.539608],"type":"Point"},"properties":{"osm_id":"4599814343","tag":{"amenity":"waste_basket"}},"type":"Feature"},
	{"geometry":{"coordinates":[18.953193,47.539929],"type":"Point"},"properties":{"osm_id":"4599814345","tag":{"amenity":"waste_basket"}},"type":"Feature"},
	{"geometry":{"coordinates":[18.960677,47.528219],"type":"Point"},"properties":{"osm_id":"4713690453","tag":{"amenity":"waste_basket"}},"type":"Feature"},
	{"geometry":{"coordinates":[18.964654,47.530399],"type":"Point"},"properties":{"osm_id":"4724030273","tag":{"amenity":"waste_basket"}},"type":"Feature"},
	{"geometry":{"coordinates":[18.979777,47.527485],"type":"Point"},"properties":{"osm_id":"4752558003","tag":{"amenity":"recycling","recycling:glass":"yes","recycling_type":"container"}},"type":"Feature"},
	{"geometry":{"coordinates":[18.97576,47.529557],"type":"Point"},"properties":{"osm_id":"4838528098","tag":{"amenity":"waste_disposal"}},"type":"Feature"},
	{"geometry":{"coordinates":[18.949084,47.522786],"type":"Point"},"properties":{"osm_id":"4858042316","tag":{"amenity":"waste_basket"}},"type":"Feature"},
	{"geometry":{"coordinates":[18.965993,47.537895],"type":"Point"},"properties":{"osm_id":"5212491657","tag":{"amenity":"waste_basket"}},"type":"Feature"},
	{"geometry":{"coordinates":[18.966593,47.538232],"type":"Point"},"properties":{"osm_id":"5212491658","tag":{"amenity":"waste_basket"}},"type":"Feature"},
	{"geometry":{"coordinates":[18.966367,47.538183],"type":"Point"},"properties":{"osm_id":"5212491660","tag":{"amenity":"waste_basket"}},"type":"Feature"},
	{"geometry":{"coordinates":[18.964017,47.542641],"type":"Point"},"properties":{"osm_id":"5212491661","tag":{"amenity":"waste_basket"}},"type":"Feature"},
	{"geometry":{"coordinates":[18.966054,47.538125],"type":"Point"},"properties":{"osm_id":"5212491662","tag":{"amenity":"waste_basket"}},"type":"Feature"},
	{"geometry":{"coordinates":[18.966736,47.537858],"type":"Point"},"properties":{"osm_id":"5212509383","tag":{"amenity":"waste_basket"}},"type":"Feature"},
	{"geometry":{"coordinates":[18.966853,47.537943],"type":"Point"},"properties":{"osm_id":"5212509384","tag":{"amenity":"waste_basket"}},"type":"Feature"},
	{"geometry":{"coordinates":[18.967257,47.538128],"type":"Point"},"properties":{"osm_id":"5212541669","tag":{"amenity":"waste_basket"}},"type":"Feature"},
	{"geometry":{"coordinates":[18.983651,47.528568],"type":"Point"},"properties":{"osm_id":"5212541672","tag":{"amenity":"waste_basket"}},"type":"Feature"},
	{"geometry":{"coordinates":[18.983683,47.528378],"type":"Point"},"properties":{"osm_id":"5212541674","tag":{"amenity":"waste_basket"}},"type":"Feature"},
	{"geometry":{"coordinates":[18.983711,47.528351],"type":"Point"},"properties":{"osm_id":"5212541680","tag":{"amenity":"waste_basket"}},"type":"Feature"},
	{"geometry":{"coordinates":[18.970673,47.539297],"type":"Point"},"properties":{"osm_id":"5212541681","tag":{"amenity":"waste_basket"}},"type":"Feature"},
	{"geometry":{"coordinates":[18.980988,47.531901],"type":"Point"},"properties":{"osm_id":"5212541682","tag":{"amenity":"waste_basket"}},"type":"Feature"},
	{"geometry":{"coordinates":[18.970876,47.539312],"type":"Point"},"properties":{"osm_id":"5212541686","tag":{"amenity":"waste_basket"}},"type":"Feature"},
	{"geometry":{"coordinates":[18.983837,47.52839],"type":"Point"},"properties":{"osm_id":"5212541687","tag":{"amenity":"waste_basket"}},"type":"Feature"},
	{"geometry":{"coordinates":[18.981612,47.525164],"type":"Point"},"properties":{"osm_id":"5339715657","tag":{"amenity":"waste_basket"}},"type":"Feature"},
	{"geometry":{"coordinates":[18.963461,47.545066],"type":"Point"},"properties":{"osm_id":"5368018434","tag":{"amenity":"waste_basket"}},"type":"Feature"},
	{"geometry":{"coordinates":[18.963508,47.545177],"type":"Point"},"properties":{"osm_id":"5368018436","tag":{"amenity":"waste_basket"}},"type":"Feature"},
	{"geometry":{"coordinates":[18.96369,47.545607],"type":"Point"},"properties":{"osm_id":"5368018437","tag":{"amenity":"waste_basket"}},"type":"Feature"},
	{"geometry":{"coordinates":[18.963783,47.545557],"type":"Point"},"properties":{"osm_id":"5368018438","tag":{"amenity":"waste_basket"}},"type":"Feature"},
	{"geometry":{"coordinates":[18.926067,47.525471],"type":"Point"},"properties":{"osm_id":"5406373626","tag":{"amenity":"waste_basket"}},"type":"Feature"},
	{"geometry":{"coordinates":[18.930811,47.523953],"type":"Point"},"properties":{"osm_id":"5406373822","tag":{"amenity":"waste_basket"}},"type":"Feature"},
	{"geometry":{"coordinates":[18.9309,47.523889],"type":"Point"},"properties":{"osm_id":"5406373823","tag":{"amenity":"waste_basket"}},"type":"Feature"},
	{"geometry":{"coordinates":[18.921445,47.52456],"type":"Point"},"properties":{"osm_id":"5406373986","tag":{"amenity":"waste_basket"}},"type":"Feature"},
	{"geometry":{"coordinates":[18.921438,47.524808],"type":"Point"},"properties":{"osm_id":"5406373993","tag":{"amenity":"waste_basket"}},"type":"Feature"},
	{"geometry":{"coordinates":[18.921366,47.524687],"type":"Point"},"properties":{"osm_id":"5406373994","tag":{"amenity":"waste_basket"}},"type":"Feature"},
	{"geometry":{"coordinates":[18.921613,47.525201],"type":"Point"},"properties":{"osm_id":"5406374000","tag":{"amenity":"waste_basket"}},"type":"Feature"},
	{"geometry":{"coordinates":[18.924684,47.524902],"type":"Point"},"properties":{"osm_id":"5406420115","tag":{"amenity":"waste_basket"}},"type":"Feature"},
	{"geometry":{"coordinates":[18.924194,47.558687],"type":"Point"},"properties":{"osm_id":"5678314927","tag":{"amenity":"waste_basket"}},"type":"Feature"},
	{"geometry":{"coordinates":[18.92599,47.557814],"type":"Point"},"properties":{"osm_id":"5678314933","tag":{"amenity":"waste_basket"}},"type":"Feature"},
	{"geometry":{"coordinates":[18.927447,47.55709],"type":"Point"},"properties":{"osm_id":"5678314936","tag":{"amenity":"waste_basket"}},"type":"Feature"},
	{"geometry":{"coordinates":[18.928241,47.557581],"type":"Point"},"properties":{"osm_id":"5678314937","tag":{"amenity":"waste_basket"}},"type":"Feature"},
	{"geometry":{"coordinates":[18.925039,47.559145],"type":"Point"},"properties":{"osm_id":"5678314939","tag":{"amenity":"waste_basket"}},"type":"Feature"},
	{"geometry":{"coordinates":[18.962166,47.563918],"type":"Point"},"properties":{"osm_id":"5739016268","tag":{"amenity":"waste_basket"}},"type":"Feature"},
	{"geometry":{"coordinates":[18.961977,47.563881],"type":"Point"},"properties":{"osm_id":"5739016269","tag":{"amenity":"waste_basket"}},"type":"Feature"},
	{"geometry":{"coordinates":[18.961901,47.56395],"type":"Point"},"properties":{"osm_id":"5739016271","tag":{"amenity":"waste_basket"}},"type":"Feature"},
	{"geometry":{"coordinates":[18.949502,47.564876],"type":"Point"},"properties":{"osm_id":"5739072255","tag":{"amenity":"waste_basket"}},"type":"Feature"},
	{"geometry":{"coordinates":[18.947766,47.563379],"type":"Point"},"properties":{"osm_id":"5739072260","tag":{"amenity":"waste_basket"}},"type":"Feature"},
	{"geometry":{"coordinates":[18.947993,47.560417],"type":"Point"},"properties":{"osm_id":"5739126423","tag":{"amenity":"waste_basket"}},"type":"Feature"},
	{"geometry":{"coordinates":[18.949572,47.551786],"type":"Point"},"properties":{"osm_id":"5739164520","tag":{"amenity":"waste_basket"}},"type":"Feature"},
	{"geometry":{"coordinates":[18.962854,47.545706],"type":"Point"},"properties":{"osm_id":"5739207941","tag":{"amenity":"waste_basket"}},"type":"Feature"},
	{"geometry":{"coordinates":[18.965071,47.542169],"type":"Point"},"properties":{"osm_id":"5740436634","tag":{"amenity":"waste_basket"}},"type":"Feature"},
	{"geometry":{"coordinates":[18.963683,47.544328],"type":"Point"},"properties":{"osm_id":"5740901544","tag":{"amenity":"waste_basket"}},"type":"Feature"},
	{"geometry":{"coordinates":[18.966044,47.558601],"type":"Point"},"properties":{"osm_id":"5742808170","tag":{"amenity":"waste_basket"}},"type":"Feature"},
	{"geometry":{"coordinates":[18.964023,47.543356],"type":"Point"},"properties":{"osm_id":"5748532378","tag":{"amenity":"waste_basket"}},"type":"Feature"},
	{"geometry":{"coordinates":[18.964138,47.543397],"type":"Point"},"properties":{"osm_id":"5748532379","tag":{"amenity":"waste_basket"}},"type":"Feature"},
	{"geometry":{"coordinates":[18.956937,47.565941],"type":"Point"},"properties":{"osm_id":"5919999661","tag":{"amenity":"waste_basket"}},"type":"Feature"},
	{"geometry":{"coordinates":[18.947177,47.563897],"type":"Point"},"properties":{"osm_id":"5923833292","tag":{"amenity":"waste_basket"}},"type":"Feature"},
	{"geometry":{"coordinates":[18.954162,47.54772],"type":"Point"},"properties":{"osm_id":"5928600869","tag":{"amenity":"waste_basket"}},"type":"Feature"},
	{"geometry":{"coordinates":[18.914527,47.565658],"type":"Point"},"properties":{"osm_id":"6072550281","tag":{"amenity":"waste_basket"}},"type":"Feature"},
	{"geometry":{"coordinates":[18.913042,47.566728],"type":"Point"},"properties":{"osm_id":"6072635864","tag":{"amenity":"waste_basket"}},"type":"Feature"},
	{"geometry":{"coordinates":[18.912054,47.567287],"type":"Point"},"properties":{"osm_id":"6072635867","tag":{"amenity":"waste_basket"}},"type":"Feature"},
	{"geometry":{"coordinates":[18.910499,47.568314],"type":"Point"},"properties":{"osm_id":"6072635870","tag":{"amenity":"waste_basket"}},"type":"Feature"},
	{"geometry":{"coordinates":[18.964726,47.547081],"type":"Point"},"properties":{"osm_id":"6094973781","tag":{"amenity":"waste_basket"}},"type":"Feature"},
	{"geometry":{"coordinates":[18.96277,47.562843],"type":"Point"},"properties":{"osm_id":"6095613337","tag":{"amenity":"waste_basket"}},"type":"Feature"},
	{"geometry":{"coordinates":[18.948614,47.556668],"type":"Point"},"properties":{"osm_id":"6103464725","tag":{"amenity":"waste_basket"}},"type":"Feature"},
	{"geometry":{"coordinates":[18.983101,47.517936],"type":"Point"},"properties":{"osm_id":"6112867001","tag":{"amenity":"waste_basket"}},"type":"Feature"},
	{"geometry":{"coordinates":[18.980992,47.518996],"type":"Point"},"properties":{"osm_id":"6112867047","tag":{"amenity":"waste_basket"}},"type":"Feature"},
	{"geometry":{"coordinates":[18.977727,47.519652],"type":"Point"},"properties":{"osm_id":"6114949405","tag":{"amenity":"waste_basket"}},"type":"Feature"},
	{"geometry":{"coordinates":[18.977615,47.519672],"type":"Point"},"properties":{"osm_id":"6114949406","tag":{"amenity":"waste_basket"}},"type":"Feature"},
	{"geometry":{"coordinates":[18.977053,47.519752],"type":"Point"},"properties":{"osm_id":"6114949410","tag":{"amenity":"waste_basket"}},"type":"Feature"},
	{"geometry":{"coordinates":[18.973371,47.520201],"type":"Point"},"properties":{"osm_id":"6114949435","tag":{"amenity":"waste_basket"}},"type":"Feature"},
	{"geometry":{"coordinates":[18.969887,47.521297],"type":"Point"},"properties":{"osm_id":"6115241988","tag":{"amenity":"waste_basket"}},"type":"Feature"},
	{"geometry":{"coordinates":[18.969784,47.521709],"type":"Point"},"properties":{"osm_id":"6115241990","tag":{"amenity":"waste_basket"}},"type":"Feature"},
	{"geometry":{"coordinates":[18.96988,47.521819],"type":"Point"},"properties":{"osm_id":"6115241996","tag":{"amenity":"waste_basket"}},"type":"Feature"},
	{"geometry":{"coordinates":[18.967979,47.52167],"type":"Point"},"properties":{"osm_id":"6115469900","tag":{"amenity":"waste_basket"}},"type":"Feature"},
	{"geometry":{"coordinates":[18.953803,47.52768],"type":"Point"},"properties":{"osm_id":"6120692281","tag":{"amenity":"waste_basket"}},"type":"Feature"},
	{"geometry":{"coordinates":[18.941427,47.522539],"type":"Point"},"properties":{"osm_id":"6120900394","tag":{"amenity":"waste_basket"}},"type":"Feature"},
	{"geometry":{"coordinates":[18.94597,47.521706],"type":"Point"},"properties":{"osm_id":"6122993850","tag":{"amenity":"waste_basket","waste":"trash"}},"type":"Feature"},
	{"geometry":{"coordinates":[18.947196,47.521549],"type":"Point"},"properties":{"osm_id":"6122998191","tag":{"amenity":"waste_basket","waste":"trash"}},"type":"Feature"},
	{"geometry":{"coordinates":[18.944056,47.521387],"type":"Point"},"properties":{"osm_id":"6123109124","tag":{"amenity":"waste_basket","waste":"trash"}},"type":"Feature"},
	{"geometry":{"coordinates":[18.938382,47.547133],"type":"Point"},"properties":{"osm_id":"6285492042","tag":{"amenity":"waste_basket"}},"type":"Feature"},
	{"geometry":{"coordinates":[18.950489,47.530392],"type":"Point"},"properties":{"osm_id":"6357960687","tag":{"amenity":"waste_basket"}},"type":"Feature"},
	{"geometry":{"coordinates":[18.959511,47.534321],"type":"Point"},"properties":{"osm_id":"6357960693","tag":{"amenity":"waste_basket"}},"type":"Feature"},
	{"geometry":{"coordinates":[18.956022,47.535679],"type":"Point"},"properties":{"osm_id":"6357968987","tag":{"amenity":"waste_basket"}},"type":"Feature"},
	{"geometry":{"coordinates":[18.949955,47.531257],"type":"Point"},"properties":{"osm_id":"6357969185","tag":{"amenity":"waste_basket"}},"type":"Feature"},
	{"geometry":{"coordinates":[18.965453,47.52999],"type":"Point"},"properties":{"osm_id":"6358007985","tag":{"amenity":"waste_basket"}},"type":"Feature"},
	{"geometry":{"coordinates":[18.939275,47.547379],"type":"Point"},"properties":{"osm_id":"6390656440","tag":{"amenity":"waste_basket"}},"type":"Feature"},
	{"geometry":{"coordinates":[18.93934,47.547564],"type":"Point"},"properties":{"osm_id":"6390656442","tag":{"amenity":"waste_basket"}},"type":"Feature"},
	{"geometry":{"coordinates":[18.939437,47.547797],"type":"Point"},"properties":{"osm_id":"6390656443","tag":{"amenity":"waste_basket"}},"type":"Feature"},
	{"geometry":{"coordinates":[18.939413,47.547987],"type":"Point"},"properties":{"osm_id":"6390656444","tag":{"amenity":"waste_basket"}},"type":"Feature"},
	{"geometry":{"coordinates":[18.939919,47.547565],"type":"Point"},"properties":{"osm_id":"6390656451","tag":{"amenity":"waste_basket"}},"type":"Feature"},
	{"geometry":{"coordinates":[18.940239,47.547435],"type":"Point"},"properties":{"osm_id":"6390656452","tag":{"amenity":"waste_basket"}},"type":"Feature"},
	{"geometry":{"coordinates":[18.940589,47.547241],"type":"Point"},"properties":{"osm_id":"6390656453","tag":{"amenity":"waste_basket"}},"type":"Feature"},
	{"geometry":{"coordinates":[18.940996,47.546912],"type":"Point"},"properties":{"osm_id":"6390656455","tag":{"amenity":"waste_basket"}},"type":"Feature"},
	{"geometry":{"coordinates":[18.941147,47.546906],"type":"Point"},"properties":{"osm_id":"6390656456","tag":{"amenity":"waste_basket"}},"type":"Feature"},
	{"geometry":{"coordinates":[18.940868,47.546873],"type":"Point"},"properties":{"osm_id":"6390656457","tag":{"amenity":"waste_basket"}},"type":"Feature"},
	{"geometry":{"coordinates":[18.941061,47.546586],"type":"Point"},"properties":{"osm_id":"6390656458","tag":{"amenity":"waste_basket"}},"type":"Feature"},
	{"geometry":{"coordinates":[18.940643,47.546749],"type":"Point"},"properties":{"osm_id":"6390656463","tag":{"amenity":"waste_basket"}},"type":"Feature"},
	{"geometry":{"coordinates":[18.94051,47.546859],"type":"Point"},"properties":{"osm_id":"6390656467","tag":{"amenity":"waste_basket"}},"type":"Feature"},
	{"geometry":{"coordinates":[18.940304,47.546953],"type":"Point"},"properties":{"osm_id":"6390656468","tag":{"amenity":"waste_basket"}},"type":"Feature"},
	{"geometry":{"coordinates":[18.939683,47.546818],"type":"Point"},"properties":{"osm_id":"6390656469","tag":{"amenity":"waste_basket"}},"type":"Feature"},
	{"geometry":{"coordinates":[18.93927,47.547098],"type":"Point"},"properties":{"osm_id":"6390656481","tag":{"amenity":"waste_basket"}},"type":"Feature"},
	{"geometry":{"coordinates":[18.939961,47.547111],"type":"Point"},"properties":{"osm_id":"6390656487","tag":{"amenity":"waste_basket"}},"type":"Feature"},
	{"geometry":{"coordinates":[18.939754,47.547181],"type":"Point"},"properties":{"osm_id":"6390656492","tag":{"amenity":"waste_basket"}},"type":"Feature"},
	{"geometry":{"coordinates":[18.939743,47.547168],"type":"Point"},"properties":{"osm_id":"6390656493","tag":{"amenity":"waste_basket"}},"type":"Feature"},
	{"geometry":{"coordinates":[18.940111,47.546921],"type":"Point"},"properties":{"osm_id":"6390656499","tag":{"amenity":"waste_basket"}},"type":"Feature"},
	{"geometry":{"coordinates":[18.939699,47.546828],"type":"Point"},"properties":{"osm_id":"6390656500","tag":{"amenity":"waste_basket"}},"type":"Feature"},
	{"geometry":{"coordinates":[18.976699,47.529758],"type":"Point"},"properties":{"osm_id":"6606614939","tag":{"amenity":"waste_basket"}},"type":"Feature"},
	{"geometry":{"coordinates":[18.942261,47.542176],"type":"Point"},"properties":{"osm_id":"6853054770","tag":{"amenity":"waste_basket"}},"type":"Feature"},
	{"geometry":{"coordinates":[18.942914,47.541972],"type":"Point"},"properties":{"osm_id":"6853054772","tag":{"amenity":"waste_basket"}},"type":"Feature"},
	{"geometry":{"coordinates":[18.943831,47.542129],"type":"Point"},"properties":{"osm_id":"6853054774","tag":{"amenity":"waste_basket"}},"type":"Feature"},
	{"geometry":{"coordinates":[18.952088,47.53612],"type":"Point"},"properties":{"osm_id":"6853054775","tag":{"amenity":"waste_basket"}},"type":"Feature"},
	{"geometry":{"coordinates":[18.954386,47.534256],"type":"Point"},"properties":{"osm_id":"6853054778","tag":{"amenity":"waste_basket"}},"type":"Feature"},
	{"geometry":{"coordinates":[18.977368,47.537001],"type":"Point"},"properties":{"osm_id":"6855637901","tag":{"amenity":"waste_basket"}},"type":"Feature"},
	{"geometry":{"coordinates":[18.976828,47.526016],"type":"Point"},"properties":{"osm_id":"6926811137","tag":{"amenity":"waste_basket"}},"type":"Feature"},
	{"geometry":{"coordinates":[18.959437,47.518161],"type":"Point"},"properties":{"osm_id":"6943882209","tag":{"amenity":"waste_basket"}},"type":"Feature"},
	{"geometry":{"coordinates":[18.979318,47.536214],"type":"Point"},"properties":{"osm_id":"6982865183","tag":{"amenity":"waste_basket"}},"type":"Feature"},
	{"geometry":{"coordinates":[18.959302,47.532331],"type":"Point"},"properties":{"osm_id":"7104405657","tag":{"amenity":"waste_basket"}},"type":"Feature"},
	{"geometry":{"coordinates":[18.954224,47.532546],"type":"Point"},"properties":{"osm_id":"7104405661","tag":{"amenity":"waste_basket"}},"type":"Feature"},
	{"geometry":{"coordinates":[18.953316,47.532602],"type":"Point"},"properties":{"osm_id":"7104410368","tag":{"amenity":"waste_basket"}},"type":"Feature"},
	{"geometry":{"coordinates":[18.952526,47.530894],"type":"Point"},"properties":{"osm_id":"7104410415","tag":{"amenity":"waste_basket"}},"type":"Feature"},
	{"geometry":{"coordinates":[18.953766,47.530119],"type":"Point"},"properties":{"osm_id":"7188167576","tag":{"amenity":"waste_basket"}},"type":"Feature"},
	{"geometry":{"coordinates":[18.945581,47.523718],"type":"Point"},"properties":{"osm_id":"7278243871","tag":{"amenity":"waste_basket"}},"type":"Feature"},
	{"geometry":{"coordinates":[18.959504,47.518015],"type":"Point"},"properties":{"osm_id":"7500022595","tag":{"amenity":"waste_basket"}},"type":"Feature"},
	{"geometry":{"coordinates":[18.959478,47.517992],"type":"Point"},"properties":{"osm_id":"7500022599","tag":{"amenity":"waste_basket"}},"type":"Feature"},
	{"geometry":{"coordinates":[18.958924,47.51833],"type":"Point"},"properties":{"osm_id":"7500033453","tag":{"amenity":"waste_basket"}},"type":"Feature"},
	{"geometry":{"coordinates":[18.95916,47.518426],"type":"Point"},"properties":{"osm_id":"7500033454","tag":{"amenity":"waste_basket"}},"type":"Feature"},
	{"geometry":{"coordinates":[18.959057,47.518472],"type":"Point"},"properties":{"osm_id":"7500033462","tag":{"amenity":"waste_basket"}},"type":"Feature"},
	{"geometry":{"coordinates":[18.958829,47.518498],"type":"Point"},"properties":{"osm_id":"7500033463","tag":{"amenity":"waste_basket"}},"type":"Feature"},
	{"geometry":{"coordinates":[18.959415,47.51828],"type":"Point"},"properties":{"osm_id":"7500033464","tag":{"amenity":"waste_basket"}},"type":"Feature"},
	{"geometry":{"coordinates":[18.958875,47.518428],"type":"Point"},"properties":{"osm_id":"7500033465","tag":{"amenity":"waste_basket"}},"type":"Feature"},
	{"geometry":{"coordinates":[18.959313,47.518089],"type":"Point"},"properties":{"osm_id":"7500033468","tag":{"amenity":"waste_basket"}},"type":"Feature"},
	{"geometry":{"coordinates":[18.958741,47.518563],"type":"Point"},"properties":{"osm_id":"7500052616","tag":{"amenity":"waste_basket"}},"type":"Feature"}
]
}
