{
"type": "FeatureCollection",
"features": [
	{"geometry":{"coordinates":[18.952488,47.464687],"type":"Point"},"properties":{"osm_id":"384340977","tag":{"amenity":"recycling"}},"type":"Feature"},
	{"geometry":{"coordinates":[18.95396,47.486779],"type":"Point"},"properties":{"osm_id":"388373228","tag":{"amenity":"recycling","recycling_type":"container"}},"type":"Feature"},
	{"geometry":{"coordinates":[18.939215,47.459953],"type":"Point"},"properties":{"osm_id":"1603983372","tag":{"amenity":"recycling","recycling:PET":"yes","recycling:aluminium":"yes","recycling:beverage_cartons":"yes","recycling:glass_bottles":"yes","recycling:paper":"yes","recycling_type":"container"}},"type":"Feature"},
	{"geometry":{"coordinates":[18.966949,47.511569],"type":"Point"},"properties":{"osm_id":"1920554082","tag":{"amenity":"recycling","recycling_type":"container"}},"type":"Feature"},
	{"geometry":{"coordinates":[18.932776,47.459262],"type":"Point"},"properties":{"osm_id":"2053037990","tag":{"amenity":"recycling","recycling_type":"centre"}},"type":"Feature"},
	{"geometry":{"coordinates":[18.96534,47.47004],"type":"Point"},"properties":{"osm_id":"2054861468","tag":{"amenity":"waste_basket"}},"type":"Feature"},
	{"geometry":{"coordinates":[18.959508,47.501148],"type":"Point"},"properties":{"osm_id":"2292695598","tag":{"amenity":"waste_basket"}},"type":"Feature"},
	{"geometry":{"coordinates":[18.948898,47.499912],"type":"Point"},"properties":{"osm_id":"2384801810","tag":{"amenity":"waste_basket"}},"type":"Feature"},
	{"geometry":{"coordinates":[18.953391,47.501038],"type":"Point"},"properties":{"osm_id":"2384801811","tag":{"amenity":"waste_basket"}},"type":"Feature"},
	{"geometry":{"coordinates":[18.957062,47.502348],"type":"Point"},"properties":{"osm_id":"2384801814","tag":{"amenity":"waste_basket"}},"type":"Feature"},
	{"geometry":{"coordinates":[18.943825,47.5051],"type":"Point"},"properties":{"osm_id":"2384801819","tag":{"amenity":"waste_basket"}},"type":"Feature"},
	{"geometry":{"coordinates":[18.942634,47.506134],"type":"Point"},"properties":{"osm_id":"2384801821","tag":{"amenity":"waste_basket"}},"type":"Feature"},
	{"geometry":{"coordinates":[18.963893,47.497548],"type":"Point"},"properties":{"osm_id":"3089518633","tag":{"amenity":"recycling","recycling:glass":"yes","recycling:paper":"yes","recycling:plastic":"yes","recycling_type":"container"}},"type":"Feature"},
	{"geometry":{"coordinates":[18.960673,47.461107],"type":"Point"},"properties":{"osm_id":"3141299805","tag":{"amenity":"recycling"}},"type":"Feature"},
	{"geometry":{"coordinates":[18.944102,47.507285],"type":"Point"},"properties":{"osm_id":"3318732722","tag":{"amenity":"waste_basket"}},"type":"Feature"},
	{"geometry":{"coordinates":[18.940907,47.509142],"type":"Point"},"properties":{"osm_id":"3325121307","tag":{"amenity":"waste_basket"}},"type":"Feature"},
	{"geometry":{"coordinates":[18.943917,47.458],"type":"Point"},"properties":{"osm_id":"3454542627","tag":{"addr:city":"Buda\u00c3\u00b6rs","addr:postcode":"2040","addr:street":"Ifj\u00c3\u00bas\u00c3\u00a1g utca","amenity":"recycling","description":"A buda\u00c3\u00b6rsi lak\u00c3\u00b3telep parkol\u00c3\u00b3j\u00c3\u00a1ban tal\u00c3\u00a1lhat\u00c3\u00b3.","recycling:cans":"yes","recycling:glass_bottles":"yes","recycling:paper":"yes","recycling:plastic":"no","recycling:plastic_packaging":"yes","recycling_type":"container","source:date":"2011-04-18","url":"http://turistautak.hu/poi.php?id=19172"}},"type":"Feature"},
	{"geometry":{"coordinates":[18.913637,47.458285],"type":"Point"},"properties":{"osm_id":"3454542628","tag":{"amenity":"recycling","source:date":"2013-05-28","url":"http://turistautak.hu/poi.php?id=153675"}},"type":"Feature"},
	{"geometry":{"coordinates":[18.946524,47.459128],"type":"Point"},"properties":{"osm_id":"3454542631","tag":{"addr:city":"Buda\u00c3\u00b6rs","addr:housenumber":"7","addr:postcode":"2040","addr:street":"L\u00c3\u00a9vai utca","amenity":"recycling","description":"Buda\u00c3\u00b6rs\u00c3\u00b6n, a L\u00c3\u00a9vai utca \u00c3\u00a9s Sport utca keresztez\u00c5\u0091d\u00c3\u00a9s k\u00c3\u00b6zel\u00c3\u00a9ben tal\u00c3\u00a1lhat\u00c3\u00b3.","location":"overground","recycling_type":"container","source:date":"2011-06-29","url":"http://turistautak.hu/poi.php?id=19173"}},"type":"Feature"},
	{"geometry":{"coordinates":[18.920708,47.459741],"type":"Point"},"properties":{"osm_id":"3454542632","tag":{"addr:city":"Buda\u00c3\u00b6rs","addr:housenumber":"13","addr:postcode":"2040","addr:street":"Csiki utca","amenity":"recycling","recycling_type":"container","source:date":"2013-05-17","url":"http://turistautak.hu/poi.php?id=1770"}},"type":"Feature"},
	{"geometry":{"coordinates":[18.921093,47.506987],"type":"Point"},"properties":{"osm_id":"3454542697","tag":{"addr:city":"Budakeszi","addr:housenumber":"1","addr:postcode":"2092","addr:street":"T\u00c3\u00a1ncsics utca","amenity":"recycling","source:date":"2011-04-18","url":"http://turistautak.hu/poi.php?id=79521"}},"type":"Feature"},
	{"geometry":{"coordinates":[18.965902,47.503017],"type":"Point"},"properties":{"osm_id":"3611660187","tag":{"amenity":"recycling","recycling_type":"container"}},"type":"Feature"},
	{"geometry":{"coordinates":[18.971266,47.4997],"type":"Point"},"properties":{"osm_id":"3611735311","tag":{"amenity":"recycling","recycling:cans":"yes","recycling:glass_bottles":"yes","recycling:paper":"yes","recycling:plastic":"yes","recycling_type":"container"}},"type":"Feature"},
	{"geometry":{"coordinates":[18.968124,47.502208],"type":"Point"},"properties":{"osm_id":"3611735326","tag":{"amenity":"waste_basket"}},"type":"Feature"},
	{"geometry":{"coordinates":[18.932826,47.514141],"type":"Point"},"properties":{"osm_id":"3662457032","tag":{"amenity":"waste_basket"}},"type":"Feature"},
	{"geometry":{"coordinates":[18.933021,47.514428],"type":"Point"},"properties":{"osm_id":"3662457037","tag":{"amenity":"waste_basket"}},"type":"Feature"},
	{"geometry":{"coordinates":[18.934231,47.515541],"type":"Point"},"properties":{"osm_id":"3662457070","tag":{"amenity":"waste_basket"}},"type":"Feature"},
	{"geometry":{"coordinates":[18.934563,47.515861],"type":"Point"},"properties":{"osm_id":"3662457076","tag":{"amenity":"waste_basket"}},"type":"Feature"},
	{"geometry":{"coordinates":[18.935096,47.516328],"type":"Point"},"properties":{"osm_id":"3662457102","tag":{"amenity":"waste_basket"}},"type":"Feature"},
	{"geometry":{"coordinates":[18.935391,47.516604],"type":"Point"},"properties":{"osm_id":"3662457106","tag":{"amenity":"waste_basket"}},"type":"Feature"},
	{"geometry":{"coordinates":[18.983266,47.481906],"type":"Point"},"properties":{"osm_id":"4340332325","tag":{"amenity":"waste_basket"}},"type":"Feature"},
	{"geometry":{"coordinates":[18.982862,47.473416],"type":"Point"},"properties":{"osm_id":"4428208972","tag":{"amenity":"waste_basket"}},"type":"Feature"},
	{"geometry":{"coordinates":[18.983402,47.473505],"type":"Point"},"properties":{"osm_id":"4428208977","tag":{"amenity":"waste_basket"}},"type":"Feature"},
	{"geometry":{"coordinates":[18.978626,47.474683],"type":"Point"},"properties":{"osm_id":"4428208995","tag":{"amenity":"waste_basket"}},"type":"Feature"},
	{"geometry":{"coordinates":[18.981297,47.474997],"type":"Point"},"properties":{"osm_id":"4428208999","tag":{"amenity":"waste_basket"}},"type":"Feature"},
	{"geometry":{"coordinates":[18.977937,47.475091],"type":"Point"},"properties":{"osm_id":"4428209001","tag":{"amenity":"waste_basket"}},"type":"Feature"},
	{"geometry":{"coordinates":[18.978915,47.475686],"type":"Point"},"properties":{"osm_id":"4428209015","tag":{"amenity":"waste_basket"}},"type":"Feature"},
	{"geometry":{"coordinates":[18.978343,47.47583],"type":"Point"},"properties":{"osm_id":"4428209017","tag":{"amenity":"waste_basket"}},"type":"Feature"},
	{"geometry":{"coordinates":[18.979411,47.476236],"type":"Point"},"properties":{"osm_id":"4428209093","tag":{"amenity":"waste_basket"}},"type":"Feature"},
	{"geometry":{"coordinates":[18.980177,47.480813],"type":"Point"},"properties":{"osm_id":"4569661826","tag":{"amenity":"waste_basket"}},"type":"Feature"},
	{"geometry":{"coordinates":[18.980568,47.480529],"type":"Point"},"properties":{"osm_id":"4569661827","tag":{"amenity":"waste_basket"}},"type":"Feature"},
	{"geometry":{"coordinates":[18.981664,47.479885],"type":"Point"},"properties":{"osm_id":"4569661828","tag":{"amenity":"waste_basket"}},"type":"Feature"},
	{"geometry":{"coordinates":[18.981698,47.475165],"type":"Point"},"properties":{"osm_id":"4577515480","tag":{"amenity":"waste_basket"}},"type":"Feature"},
	{"geometry":{"coordinates":[18.981288,47.480059],"type":"Point"},"properties":{"osm_id":"4577515481","tag":{"amenity":"waste_basket"}},"type":"Feature"},
	{"geometry":{"coordinates":[18.976714,47.481522],"type":"Point"},"properties":{"osm_id":"4577515485","tag":{"amenity":"waste_basket","waste":"dog_excrement"}},"type":"Feature"},
	{"geometry":{"coordinates":[18.978096,47.46853],"type":"Point"},"properties":{"osm_id":"4974233829","tag":{"amenity":"waste_basket"}},"type":"Feature"},
	{"geometry":{"coordinates":[18.971519,47.465397],"type":"Point"},"properties":{"osm_id":"4974233841","tag":{"amenity":"waste_basket"}},"type":"Feature"},
	{"geometry":{"coordinates":[18.970257,47.464978],"type":"Point"},"properties":{"osm_id":"4974233846","tag":{"amenity":"waste_basket","waste":"dog_excrement"}},"type":"Feature"},
	{"geometry":{"coordinates":[18.976254,47.466897],"type":"Point"},"properties":{"osm_id":"4974233856","tag":{"amenity":"waste_basket","waste":"dog_excrement"}},"type":"Feature"},
	{"geometry":{"coordinates":[18.92896,47.509709],"type":"Point"},"properties":{"osm_id":"5290522554","tag":{"amenity":"waste_basket","mapillary":"rs-tqVpGctwNFuZPZY8nTQ"}},"type":"Feature"},
	{"geometry":{"coordinates":[18.956929,47.46406],"type":"Point"},"properties":{"osm_id":"5326144973","tag":{"amenity":"waste_basket","mapillary":"9GwTS3l6RnGCPwqOOLJTIA","waste":"dog_excrement"}},"type":"Feature"},
	{"geometry":{"coordinates":[18.946471,47.49452],"type":"Point"},"properties":{"osm_id":"5487084738","tag":{"amenity":"waste_basket"}},"type":"Feature"},
	{"geometry":{"coordinates":[18.932238,47.513929],"type":"Point"},"properties":{"osm_id":"5590253222","tag":{"amenity":"waste_basket"}},"type":"Feature"},
	{"geometry":{"coordinates":[18.932293,47.513819],"type":"Point"},"properties":{"osm_id":"5590253223","tag":{"amenity":"waste_basket"}},"type":"Feature"},
	{"geometry":{"coordinates":[18.933016,47.513758],"type":"Point"},"properties":{"osm_id":"5590253226","tag":{"amenity":"waste_basket"}},"type":"Feature"},
	{"geometry":{"coordinates":[18.965463,47.515409],"type":"Point"},"properties":{"osm_id":"5626667622","tag":{"amenity":"waste_basket"}},"type":"Feature"},
	{"geometry":{"coordinates":[18.96567,47.515039],"type":"Point"},"properties":{"osm_id":"5627242824","tag":{"amenity":"waste_basket"}},"type":"Feature"},
	{"geometry":{"coordinates":[18.959897,47.515824],"type":"Point"},"properties":{"osm_id":"5627242825","tag":{"amenity":"waste_basket"}},"type":"Feature"},
	{"geometry":{"coordinates":[18.971638,47.499676],"type":"Point"},"properties":{"osm_id":"5898580741","tag":{"amenity":"waste_basket"}},"type":"Feature"},
	{"geometry":{"coordinates":[18.969756,47.500861],"type":"Point"},"properties":{"osm_id":"5898580751","tag":{"amenity":"waste_basket"}},"type":"Feature"},
	{"geometry":{"coordinates":[18.969001,47.501541],"type":"Point"},"properties":{"osm_id":"5898580760","tag":{"amenity":"waste_basket"}},"type":"Feature"},
	{"geometry":{"coordinates":[18.966369,47.502568],"type":"Point"},"properties":{"osm_id":"5898580764","tag":{"amenity":"waste_basket"}},"type":"Feature"},
	{"geometry":{"coordinates":[18.966309,47.502718],"type":"Point"},"properties":{"osm_id":"5898580765","tag":{"amenity":"waste_basket"}},"type":"Feature"},
	{"geometry":{"coordinates":[18.966227,47.502788],"type":"Point"},"properties":{"osm_id":"5898580766","tag":{"amenity":"waste_basket"}},"type":"Feature"},
	{"geometry":{"coordinates":[18.966072,47.502841],"type":"Point"},"properties":{"osm_id":"5898580767","tag":{"amenity":"waste_basket"}},"type":"Feature"},
	{"geometry":{"coordinates":[18.965969,47.502658],"type":"Point"},"properties":{"osm_id":"5898580768","tag":{"amenity":"waste_basket"}},"type":"Feature"},
	{"geometry":{"coordinates":[18.979402,47.4947],"type":"Point"},"properties":{"osm_id":"5909366088","tag":{"amenity":"waste_basket","waste":"trash"}},"type":"Feature"},
	{"geometry":{"coordinates":[18.978874,47.499021],"type":"Point"},"properties":{"osm_id":"5909473226","tag":{"amenity":"waste_basket","vending":"excrement_bags","waste":"dog_excrement"}},"type":"Feature"},
	{"geometry":{"coordinates":[18.97785,47.500129],"type":"Point"},"properties":{"osm_id":"5909473227","tag":{"amenity":"waste_basket","vending":"excrement_bags","waste":"dog_excrement"}},"type":"Feature"},
	{"geometry":{"coordinates":[18.974123,47.499755],"type":"Point"},"properties":{"osm_id":"5909524966","tag":{"amenity":"waste_basket","waste":"trash"}},"type":"Feature"},
	{"geometry":{"coordinates":[18.976173,47.4996],"type":"Point"},"properties":{"osm_id":"5909524968","tag":{"amenity":"waste_basket","waste":"trash"}},"type":"Feature"},
	{"geometry":{"coordinates":[18.977699,47.495401],"type":"Point"},"properties":{"osm_id":"5909547744","tag":{"amenity":"waste_basket","vending":"excrement_bags","waste":"dog_excrement"}},"type":"Feature"},
	{"geometry":{"coordinates":[18.983644,47.498094],"type":"Point"},"properties":{"osm_id":"5910566568","tag":{"amenity":"waste_basket","vending":"excrement_bags"}},"type":"Feature"},
	{"geometry":{"coordinates":[18.970344,47.501896],"type":"Point"},"properties":{"osm_id":"5910566757","tag":{"amenity":"waste_basket","vending":"excrement_bags"}},"type":"Feature"},
	{"geometry":{"coordinates":[18.97072,47.499894],"type":"Point"},"properties":{"osm_id":"5910566763","tag":{"amenity":"waste_basket"}},"type":"Feature"},
	{"geometry":{"coordinates":[18.971283,47.499617],"type":"Point"},"properties":{"osm_id":"5910566767","tag":{"amenity":"waste_basket","vending":"excrement_bags"}},"type":"Feature"},
	{"geometry":{"coordinates":[18.971943,47.499578],"type":"Point"},"properties":{"osm_id":"5910566769","tag":{"amenity":"waste_basket"}},"type":"Feature"},
	{"geometry":{"coordinates":[18.974118,47.499732],"type":"Point"},"properties":{"osm_id":"5910566781","tag":{"amenity":"waste_basket"}},"type":"Feature"},
	{"geometry":{"coordinates":[18.983486,47.495943],"type":"Point"},"properties":{"osm_id":"5917004397","tag":{"amenity":"waste_basket","waste":"dog_excrement"}},"type":"Feature"},
	{"geometry":{"coordinates":[18.983511,47.49596],"type":"Point"},"properties":{"osm_id":"5917004398","tag":{"amenity":"waste_basket","colour":"green","waste":"trash"}},"type":"Feature"},
	{"geometry":{"coordinates":[18.983124,47.492443],"type":"Point"},"properties":{"osm_id":"5917004417","tag":{"amenity":"waste_basket","colour":"green","waste":"trash"}},"type":"Feature"},
	{"geometry":{"coordinates":[18.98296,47.492555],"type":"Point"},"properties":{"osm_id":"5917004418","tag":{"amenity":"waste_basket","colour":"green","waste":"trash"}},"type":"Feature"},
	{"geometry":{"coordinates":[18.977816,47.493873],"type":"Point"},"properties":{"osm_id":"5917004420","tag":{"amenity":"waste_basket","waste":"dog_excrement"}},"type":"Feature"},
	{"geometry":{"coordinates":[18.966466,47.502679],"type":"Point"},"properties":{"osm_id":"6072823238","tag":{"amenity":"waste_basket"}},"type":"Feature"},
	{"geometry":{"coordinates":[18.965638,47.503068],"type":"Point"},"properties":{"osm_id":"6072823241","tag":{"amenity":"waste_basket"}},"type":"Feature"},
	{"geometry":{"coordinates":[18.954512,47.486651],"type":"Point"},"properties":{"osm_id":"6073430328","tag":{"amenity":"waste_basket"}},"type":"Feature"},
	{"geometry":{"coordinates":[18.954635,47.486849],"type":"Point"},"properties":{"osm_id":"6073430335","tag":{"amenity":"waste_basket"}},"type":"Feature"},
	{"geometry":{"coordinates":[18.977684,47.464622],"type":"Point"},"properties":{"osm_id":"6086721909","tag":{"amenity":"waste_basket","vending":"excrement_bags","waste":"dog_excrement"}},"type":"Feature"},
	{"geometry":{"coordinates":[18.974419,47.466396],"type":"Point"},"properties":{"osm_id":"6090402590","tag":{"amenity":"waste_basket"}},"type":"Feature"},
	{"geometry":{"coordinates":[18.915378,47.499779],"type":"Point"},"properties":{"osm_id":"6123153653","tag":{"amenity":"recycling","opening_hours":"24/7","recycling:clothes":"yes","recycling_type":"container"}},"type":"Feature"},
	{"geometry":{"coordinates":[18.901403,47.470918],"type":"Point"},"properties":{"osm_id":"6142411611","tag":{"amenity":"waste_basket"}},"type":"Feature"},
	{"geometry":{"coordinates":[18.980866,47.463184],"type":"Point"},"properties":{"osm_id":"6187438222","tag":{"amenity":"waste_basket"}},"type":"Feature"},
	{"geometry":{"coordinates":[18.973998,47.483884],"type":"Point"},"properties":{"osm_id":"6269160997","tag":{"amenity":"waste_basket","waste":"dog_excrement"}},"type":"Feature"},
	{"geometry":{"coordinates":[18.984142,47.478289],"type":"Point"},"properties":{"osm_id":"6302261206","tag":{"amenity":"waste_basket","waste":"dog_excrement"}},"type":"Feature"},
	{"geometry":{"coordinates":[18.984159,47.478259],"type":"Point"},"properties":{"osm_id":"6302261208","tag":{"amenity":"waste_basket"}},"type":"Feature"},
	{"geometry":{"coordinates":[18.944445,47.461959],"type":"Point"},"properties":{"osm_id":"6482159061","tag":{"amenity":"recycling","recycling:PET":"yes","recycling:aluminium":"yes","recycling:glass_bottles":"yes","recycling:paper":"yes","recycling_type":"container"}},"type":"Feature"},
	{"geometry":{"coordinates":[18.971945,47.511021],"type":"Point"},"properties":{"osm_id":"6596913218","tag":{"amenity":"waste_basket","waste":"dog_excrement"}},"type":"Feature"},
	{"geometry":{"coordinates":[18.979177,47.476175],"type":"Point"},"properties":{"osm_id":"6698968682","tag":{"amenity":"waste_basket"}},"type":"Feature"},
	{"geometry":{"coordinates":[18.982735,47.504714],"type":"Point"},"properties":{"osm_id":"6712515825","tag":{"amenity":"waste_basket"}},"type":"Feature"},
	{"geometry":{"coordinates":[18.98393,47.508544],"type":"Point"},"properties":{"osm_id":"6732663818","tag":{"amenity":"waste_basket","waste":"dog_excrement"}},"type":"Feature"},
	{"geometry":{"coordinates":[18.979355,47.510865],"type":"Point"},"properties":{"osm_id":"6732663821","tag":{"amenity":"waste_basket","waste":"dog_excrement"}},"type":"Feature"},
	{"geometry":{"coordinates":[18.982093,47.506103],"type":"Point"},"properties":{"osm_id":"6736241486","tag":{"amenity":"waste_basket","waste":"dog_excrement"}},"type":"Feature"},
	{"geometry":{"coordinates":[18.982005,47.506163],"type":"Point"},"properties":{"osm_id":"6736241487","tag":{"amenity":"waste_basket"}},"type":"Feature"},
	{"geometry":{"coordinates":[18.980299,47.50914],"type":"Point"},"properties":{"osm_id":"6736241488","tag":{"amenity":"waste_basket","waste":"dog_excrement"}},"type":"Feature"},
	{"geometry":{"coordinates":[18.975556,47.510289],"type":"Point"},"properties":{"osm_id":"6736288637","tag":{"amenity":"waste_basket","waste":"dog_excrement"}},"type":"Feature"},
	{"geometry":{"coordinates":[18.975803,47.466879],"type":"Point"},"properties":{"osm_id":"6886997176","tag":{"amenity":"waste_basket"}},"type":"Feature"},
	{"geometry":{"coordinates":[18.916631,47.51072],"type":"Point"},"properties":{"osm_id":"6913887090","tag":{"amenity":"waste_basket"}},"type":"Feature"},
	{"geometry":{"coordinates":[18.915519,47.511482],"type":"Point"},"properties":{"osm_id":"6913887092","tag":{"amenity":"waste_basket"}},"type":"Feature"},
	{"geometry":{"coordinates":[18.914778,47.511732],"type":"Point"},"properties":{"osm_id":"6913887094","tag":{"amenity":"waste_basket"}},"type":"Feature"},
	{"geometry":{"coordinates":[18.914517,47.512006],"type":"Point"},"properties":{"osm_id":"6913887097","tag":{"amenity":"waste_basket"}},"type":"Feature"},
	{"geometry":{"coordinates":[18.966817,47.463199],"type":"Point"},"properties":{"osm_id":"7080080080","tag":{"amenity":"waste_basket"}},"type":"Feature"},
	{"geometry":{"coordinates":[18.92054,47.507273],"type":"Point"},"properties":{"osm_id":"7110667578","tag":{"amenity":"waste_basket"}},"type":"Feature"},
	{"geometry":{"coordinates":[18.958454,47.460568],"type":"Point"},"properties":{"osm_id":"7142501424","tag":{"amenity":"waste_basket"}},"type":"Feature"},
	{"geometry":{"coordinates":[18.96593,47.458288],"type":"Point"},"properties":{"osm_id":"7222504818","tag":{"amenity":"recycling","recycling_type":"container"}},"type":"Feature"},
	{"geometry":{"coordinates":[18.981514,47.511413],"type":"Point"},"properties":{"osm_id":"7277188751","tag":{"amenity":"waste_basket","waste":"dog_excrement"}},"type":"Feature"},
	{"geometry":{"coordinates":[18.969931,47.459468],"type":"Point"},"properties":{"osm_id":"7383083776","tag":{"amenity":"waste_basket"}},"type":"Feature"},
	{"geometry":{"coordinates":[18.973891,47.508728],"type":"Point"},"properties":{"osm_id":"7415346198","tag":{"amenity":"waste_basket","waste":"dog_excrement"}},"type":"Feature"},
	{"geometry":{"coordinates":[18.976706,47.511116],"type":"Point"},"properties":{"osm_id":"7415368286","tag":{"amenity":"waste_basket","waste":"dog_excrement"}},"type":"Feature"},
	{"geometry":{"coordinates":[18.975729,47.503852],"type":"Point"},"properties":{"osm_id":"7417413015","tag":{"amenity":"waste_basket","waste":"dog_excrement"}},"type":"Feature"},
	{"geometry":{"coordinates":[18.982849,47.502042],"type":"Point"},"properties":{"osm_id":"7417435752","tag":{"amenity":"waste_basket","waste":"dog_excrement"}},"type":"Feature"},
	{"geometry":{"coordinates":[18.960283,47.516527],"type":"Point"},"properties":{"osm_id":"7500050806","tag":{"amenity":"waste_basket"}},"type":"Feature"},
	{"geometry":{"coordinates":[18.955848,47.463289],"type":"Point"},"properties":{"osm_id":"7528559822","tag":{"amenity":"waste_basket"}},"type":"Feature"},
	{"geometry":{"coordinates":[18.955702,47.463244],"type":"Point"},"properties":{"osm_id":"7528559823","tag":{"amenity":"waste_basket"}},"type":"Feature"},
	{"geometry":{"coordinates":[18.978803,47.495161],"type":"Point"},"properties":{"osm_id":"7805963950","tag":{"amenity":"waste_basket","waste":"trash"}},"type":"Feature"},
	{"geometry":{"coordinates":[18.972516,47.498642],"type":"Point"},"properties":{"osm_id":"7940056107","tag":{"amenity":"waste_basket","waste":"trash"}},"type":"Feature"}
]
}
