{
"type": "FeatureCollection",
"features": [
	{"geometry":{"coordinates":[18.926763,47.410394],"type":"Point"},"properties":{"osm_id":"150831344","tag":{"amenity":"recycling"}},"type":"Feature"},
	{"geometry":{"coordinates":[18.940315,47.403998],"type":"Point"},"properties":{"osm_id":"150837166","tag":{"amenity":"recycling","recycling:glass_bottles":"yes","recycling_type":"container"}},"type":"Feature"},
	{"geometry":{"coordinates":[18.912397,47.425579],"type":"Point"},"properties":{"osm_id":"392542711","tag":{"amenity":"recycling","recycling:PET":"yes","recycling:glass":"yes","recycling:paper":"yes","recycling_type":"container"}},"type":"Feature"},
	{"geometry":{"coordinates":[18.90389,47.457386],"type":"Point"},"properties":{"highway":"bus_stop","name":"Tetra Pak","osm_id":"643519052","tag":{"alt_name":"Buda\u00c3\u00b6rs, Tetra Pak","amenity":"waste_basket","bus":"yes","operator":"BKV;Vol\u00c3\u00a1nbusz","public_transport":"platform","ref:bkk":"F04833","verified":"no"}},"type":"Feature"},
	{"geometry":{"coordinates":[18.904859,47.444889],"type":"Point"},"properties":{"osm_id":"840188498","tag":{"amenity":"recycling"}},"type":"Feature"},
	{"geometry":{"coordinates":[18.920618,47.449659],"type":"Point"},"properties":{"barrier":"gate","osm_id":"1314188890"},"type":"Feature"},
	{"geometry":{"coordinates":[18.929491,47.428652],"type":"Point"},"properties":{"osm_id":"2183245396","tag":{"amenity":"recycling","recycling:PET":"yes","recycling:glass":"yes","recycling:paper":"yes","recycling_type":"container"}},"type":"Feature"},
	{"geometry":{"coordinates":[18.905518,47.404027],"type":"Point"},"properties":{"osm_id":"2328247628","tag":{"amenity":"recycling","recycling:glass_bottles":"yes","recycling_type":"container"}},"type":"Feature"},
	{"geometry":{"coordinates":[18.90554,47.404014],"type":"Point"},"properties":{"osm_id":"2328247629","tag":{"amenity":"recycling","recycling:paper":"yes","recycling_type":"container"}},"type":"Feature"},
	{"geometry":{"coordinates":[18.905566,47.404],"type":"Point"},"properties":{"osm_id":"2328247630","tag":{"amenity":"recycling","recycling:cans":"yes","recycling_type":"container"}},"type":"Feature"},
	{"geometry":{"coordinates":[18.910135,47.41229],"type":"Point"},"properties":{"osm_id":"2328247631","tag":{"amenity":"recycling","recycling:glass":"yes","recycling_type":"container"}},"type":"Feature"},
	{"geometry":{"coordinates":[18.91016,47.41227],"type":"Point"},"properties":{"osm_id":"2328247632","tag":{"amenity":"recycling","recycling:paper":"yes","recycling_type":"container"}},"type":"Feature"},
	{"geometry":{"coordinates":[18.910182,47.412253],"type":"Point"},"properties":{"osm_id":"2328247633","tag":{"amenity":"recycling","recycling:cans":"yes","recycling_type":"container"}},"type":"Feature"},
	{"geometry":{"coordinates":[18.916318,47.430873],"type":"Point"},"properties":{"osm_id":"2926087866","tag":{"amenity":"recycling","recycling:PET":"yes","recycling:glass":"yes","recycling:paper":"yes","recycling_type":"container"}},"type":"Feature"},
	{"geometry":{"coordinates":[18.910924,47.431636],"type":"Point"},"properties":{"osm_id":"2926087867","tag":{"amenity":"recycling","recycling:PET":"yes","recycling:glass":"yes","recycling:paper":"yes","recycling_type":"container"}},"type":"Feature"},
	{"geometry":{"coordinates":[18.915447,47.434757],"type":"Point"},"properties":{"osm_id":"2926087868","tag":{"amenity":"recycling","recycling:PET":"yes","recycling:glass":"yes","recycling:paper":"yes","recycling_type":"container"}},"type":"Feature"},
	{"geometry":{"coordinates":[18.90099,47.439927],"type":"Point"},"properties":{"osm_id":"2926087869","tag":{"amenity":"recycling","recycling:PET":"yes","recycling:glass":"yes","recycling:paper":"yes","recycling_type":"container"}},"type":"Feature"},
	{"geometry":{"coordinates":[18.915697,47.435069],"type":"Point"},"properties":{"osm_id":"3151766349","tag":{"amenity":"recycling"}},"type":"Feature"},
	{"geometry":{"coordinates":[18.97776,47.433284],"type":"Point"},"properties":{"osm_id":"3454542601","tag":{"amenity":"recycling","recycling:glass_bottles":"yes","recycling_type":"container","url":"http://turistautak.hu/poi.php?id=33958"}},"type":"Feature"},
	{"geometry":{"coordinates":[18.965717,47.439683],"type":"Point"},"properties":{"osm_id":"3454542610","tag":{"addr:street":"Kolozsv\u00c3\u00a1ri utca","amenity":"recycling","description":"k\u00c3\u00b6rforgalomn\u00c3\u00a1l","recycling_type":"container","source:date":"2014-02-04","url":"http://turistautak.hu/poi.php?id=79420"}},"type":"Feature"},
	{"geometry":{"coordinates":[18.9642,47.450767],"type":"Point"},"properties":{"osm_id":"3454542619","tag":{"amenity":"waste_basket","description":"A buda\u00c3\u00b6rsi Tesco \u00c3\u00a1ruh\u00c3\u00a1z parkol\u00c3\u00b3j\u00c3\u00a1ban tal\u00c3\u00a1lhat\u00c3\u00b3 2 darab haszn\u00c3\u00a1ltruha lead\u00c3\u00b3 kont\u00c3\u00a9ner.","source:date":"2014-02-04","url":"http://turistautak.hu/poi.php?id=27568"}},"type":"Feature"},
	{"geometry":{"coordinates":[18.93005,47.45276],"type":"Point"},"properties":{"osm_id":"3454542621","tag":{"amenity":"recycling","location":"overground","recycling_type":"container","source:date":"2014-02-04","url":"http://turistautak.hu/poi.php?id=153673"}},"type":"Feature"},
	{"geometry":{"coordinates":[18.9248,47.45279],"type":"Point"},"properties":{"osm_id":"3454542622","tag":{"amenity":"recycling","source:date":"2014-02-04","url":"http://turistautak.hu/poi.php?id=153674"}},"type":"Feature"},
	{"geometry":{"coordinates":[18.920117,47.43345],"type":"Point"},"properties":{"osm_id":"3488447780","tag":{"addr:city":"T\u00c3\u00b6r\u00c3\u00b6kb\u00c3\u00a1lint","addr:housenumber":"1","addr:postcode":"2045","addr:street":"Munk\u00c3\u00a1csy Mih\u00c3\u00a1ly utca","amenity":"recycling","source:date":"2011-06-29","url":"http://turistautak.hu/poi.php?id=78865"}},"type":"Feature"},
	{"geometry":{"coordinates":[18.9194,47.440667],"type":"Point"},"properties":{"osm_id":"3488447786","tag":{"addr:city":"T\u00c3\u00b6r\u00c3\u00b6kb\u00c3\u00a1lint","addr:postcode":"2045","addr:street":"Leh\u00c3\u00a1r Ferenc utca","amenity":"recycling","source:date":"2011-06-29","url":"http://turistautak.hu/poi.php?id=28582"}},"type":"Feature"},
	{"geometry":{"coordinates":[18.899603,47.4068],"type":"Point"},"properties":{"osm_id":"3501044806","tag":{"amenity":"recycling","recycling:clothes":"yes","recycling:glass":"yes","recycling:paper":"yes"}},"type":"Feature"},
	{"geometry":{"coordinates":[18.899595,47.406808],"type":"Point"},"properties":{"osm_id":"3501044807","tag":{"amenity":"recycling","recycling:clothes":"yes","recycling:glass":"yes","recycling:paper":"yes"}},"type":"Feature"},
	{"geometry":{"coordinates":[18.899583,47.406816],"type":"Point"},"properties":{"osm_id":"3501044808","tag":{"amenity":"recycling","recycling:clothes":"yes","recycling:glass":"yes","recycling:paper":"yes"}},"type":"Feature"},
	{"geometry":{"coordinates":[18.899572,47.406827],"type":"Point"},"properties":{"osm_id":"3501044927","tag":{"amenity":"recycling","recycling:clothes":"yes","recycling:glass":"yes","recycling:paper":"yes"}},"type":"Feature"},
	{"geometry":{"coordinates":[18.897011,47.438319],"type":"Point"},"properties":{"osm_id":"3839839663","tag":{"amenity":"waste_basket"}},"type":"Feature"},
	{"geometry":{"coordinates":[18.938146,47.418971],"type":"Point"},"properties":{"osm_id":"4638023815","tag":{"amenity":"waste_basket"}},"type":"Feature"},
	{"geometry":{"coordinates":[18.938278,47.419109],"type":"Point"},"properties":{"osm_id":"4638447825","tag":{"amenity":"waste_basket"}},"type":"Feature"},
	{"geometry":{"coordinates":[18.904077,47.40959],"type":"Point"},"properties":{"osm_id":"4740066528","tag":{"amenity":"waste_basket"}},"type":"Feature"},
	{"geometry":{"coordinates":[18.904139,47.40935],"type":"Point"},"properties":{"osm_id":"4740066529","tag":{"amenity":"waste_basket"}},"type":"Feature"},
	{"geometry":{"coordinates":[18.903982,47.40942],"type":"Point"},"properties":{"osm_id":"4740066530","tag":{"amenity":"waste_basket"}},"type":"Feature"},
	{"geometry":{"coordinates":[18.903916,47.409449],"type":"Point"},"properties":{"osm_id":"4740066531","tag":{"amenity":"waste_basket"}},"type":"Feature"},
	{"geometry":{"coordinates":[18.90435,47.409538],"type":"Point"},"properties":{"osm_id":"4740070526","tag":{"amenity":"waste_basket"}},"type":"Feature"},
	{"geometry":{"coordinates":[18.904169,47.409402],"type":"Point"},"properties":{"osm_id":"4740070527","tag":{"amenity":"waste_basket"}},"type":"Feature"},
	{"geometry":{"coordinates":[18.952046,47.407937],"type":"Point"},"properties":{"osm_id":"4856562849","tag":{"amenity":"waste_basket"}},"type":"Feature"},
	{"geometry":{"coordinates":[18.983453,47.445467],"type":"Point"},"properties":{"name":"Szelekt\u00c3\u00adv hullad\u00c3\u00a9kgy\u00c5\u00b1jt\u00c5\u0091","osm_id":"5160328668","tag":{"amenity":"recycling","recycling:glass":"yes","recycling:plastic":"yes","recycling_type":"container"}},"type":"Feature"},
	{"geometry":{"coordinates":[18.97911,47.446586],"type":"Point"},"properties":{"name":"Szelekt\u00c3\u00adv hullad\u00c3\u00a9kgy\u00c5\u00b1jt\u00c5\u0091","osm_id":"5172608073","tag":{"amenity":"recycling","recycling:glass":"yes","recycling:plastic":"yes","recycling_type":"container"}},"type":"Feature"},
	{"geometry":{"coordinates":[18.927524,47.433849],"type":"Point"},"properties":{"osm_id":"5250569438","tag":{"amenity":"waste_disposal"}},"type":"Feature"},
	{"geometry":{"coordinates":[18.926689,47.43463],"type":"Point"},"properties":{"osm_id":"5250569443","tag":{"amenity":"waste_disposal"}},"type":"Feature"},
	{"geometry":{"coordinates":[18.925868,47.435449],"type":"Point"},"properties":{"osm_id":"5250569450","tag":{"amenity":"waste_disposal"}},"type":"Feature"},
	{"geometry":{"coordinates":[18.925858,47.435459],"type":"Point"},"properties":{"osm_id":"5250569451","tag":{"amenity":"waste_disposal"}},"type":"Feature"},
	{"geometry":{"coordinates":[18.925849,47.435468],"type":"Point"},"properties":{"osm_id":"5250569452","tag":{"amenity":"waste_disposal"}},"type":"Feature"},
	{"geometry":{"coordinates":[18.925839,47.435477],"type":"Point"},"properties":{"osm_id":"5250569453","tag":{"amenity":"waste_disposal"}},"type":"Feature"},
	{"geometry":{"coordinates":[18.92583,47.435486],"type":"Point"},"properties":{"osm_id":"5250569454","tag":{"amenity":"waste_disposal"}},"type":"Feature"},
	{"geometry":{"coordinates":[18.928109,47.434169],"type":"Point"},"properties":{"osm_id":"5250569455","tag":{"amenity":"waste_disposal"}},"type":"Feature"},
	{"geometry":{"coordinates":[18.966029,47.450272],"type":"Point"},"properties":{"osm_id":"5383384158","tag":{"amenity":"recycling","recycling:glass_bottles":"yes","recycling_type":"centre"}},"type":"Feature"},
	{"geometry":{"coordinates":[18.963813,47.450581],"type":"Point"},"properties":{"osm_id":"5383384271","tag":{"amenity":"waste_basket"}},"type":"Feature"},
	{"geometry":{"coordinates":[18.899836,47.441938],"type":"Point"},"properties":{"osm_id":"5571267957","tag":{"amenity":"waste_basket"}},"type":"Feature"},
	{"geometry":{"coordinates":[18.899649,47.441489],"type":"Point"},"properties":{"osm_id":"5571267970","tag":{"amenity":"waste_basket"}},"type":"Feature"},
	{"geometry":{"coordinates":[18.950693,47.410294],"type":"Point"},"properties":{"osm_id":"5584293735","tag":{"amenity":"waste_basket"}},"type":"Feature"},
	{"geometry":{"coordinates":[18.94104,47.399557],"type":"Point"},"properties":{"osm_id":"5695513041","tag":{"amenity":"waste_basket"}},"type":"Feature"},
	{"geometry":{"coordinates":[18.957169,47.410813],"type":"Point"},"properties":{"osm_id":"5754134101","tag":{"amenity":"waste_basket"}},"type":"Feature"},
	{"geometry":{"coordinates":[18.951586,47.407391],"type":"Point"},"properties":{"osm_id":"5754144847","tag":{"amenity":"waste_basket"}},"type":"Feature"},
	{"geometry":{"coordinates":[18.948044,47.405554],"type":"Point"},"properties":{"osm_id":"5755495613","tag":{"amenity":"waste_basket"}},"type":"Feature"},
	{"geometry":{"coordinates":[18.946005,47.404243],"type":"Point"},"properties":{"osm_id":"5755578219","tag":{"amenity":"waste_basket"}},"type":"Feature"},
	{"geometry":{"coordinates":[18.937149,47.402397],"type":"Point"},"properties":{"osm_id":"5755800270","tag":{"amenity":"waste_basket"}},"type":"Feature"},
	{"geometry":{"coordinates":[18.948882,47.408725],"type":"Point"},"properties":{"osm_id":"5758561070","tag":{"amenity":"waste_basket"}},"type":"Feature"},
	{"geometry":{"coordinates":[18.966911,47.440098],"type":"Point"},"properties":{"osm_id":"5810986880","tag":{"amenity":"waste_basket","waste":"dog_excrement"}},"type":"Feature"},
	{"geometry":{"coordinates":[18.951926,47.407393],"type":"Point"},"properties":{"osm_id":"5964524429","tag":{"amenity":"waste_basket"}},"type":"Feature"},
	{"geometry":{"coordinates":[18.950149,47.408152],"type":"Point"},"properties":{"osm_id":"5970245115","tag":{"amenity":"waste_basket"}},"type":"Feature"},
	{"geometry":{"coordinates":[18.899203,47.43791],"type":"Point"},"properties":{"osm_id":"5980924242","tag":{"amenity":"waste_basket"}},"type":"Feature"},
	{"geometry":{"coordinates":[18.98099,47.457772],"type":"Point"},"properties":{"osm_id":"6126065141","tag":{"amenity":"waste_basket"}},"type":"Feature"},
	{"geometry":{"coordinates":[18.935206,47.429916],"type":"Point"},"properties":{"osm_id":"6132161650","tag":{"amenity":"waste_basket"}},"type":"Feature"},
	{"geometry":{"coordinates":[18.93519,47.430014],"type":"Point"},"properties":{"osm_id":"6132161653","tag":{"amenity":"waste_basket"}},"type":"Feature"},
	{"geometry":{"coordinates":[18.929475,47.428736],"type":"Point"},"properties":{"osm_id":"6132184086","tag":{"amenity":"waste_basket"}},"type":"Feature"},
	{"geometry":{"coordinates":[18.928748,47.431299],"type":"Point"},"properties":{"osm_id":"6132254566","tag":{"amenity":"waste_basket"}},"type":"Feature"},
	{"geometry":{"coordinates":[18.950055,47.409643],"type":"Point"},"properties":{"osm_id":"6133603412","tag":{"amenity":"waste_basket"}},"type":"Feature"},
	{"geometry":{"coordinates":[18.921803,47.421035],"type":"Point"},"properties":{"osm_id":"6191430213","tag":{"amenity":"waste_basket"}},"type":"Feature"},
	{"geometry":{"coordinates":[18.921819,47.421073],"type":"Point"},"properties":{"osm_id":"6191430214","tag":{"amenity":"waste_basket"}},"type":"Feature"},
	{"geometry":{"coordinates":[18.921838,47.42111],"type":"Point"},"properties":{"osm_id":"6191430215","tag":{"amenity":"waste_basket"}},"type":"Feature"},
	{"geometry":{"coordinates":[18.921856,47.42115],"type":"Point"},"properties":{"osm_id":"6191430216","tag":{"amenity":"waste_basket"}},"type":"Feature"},
	{"geometry":{"coordinates":[18.921799,47.421351],"type":"Point"},"properties":{"osm_id":"6191430217","tag":{"amenity":"waste_basket"}},"type":"Feature"},
	{"geometry":{"coordinates":[18.951218,47.415025],"type":"Point"},"properties":{"osm_id":"6210593563","tag":{"amenity":"waste_basket"}},"type":"Feature"},
	{"geometry":{"coordinates":[18.929471,47.429251],"type":"Point"},"properties":{"osm_id":"6438176671","tag":{"amenity":"waste_basket"}},"type":"Feature"},
	{"geometry":{"coordinates":[18.947612,47.405026],"type":"Point"},"properties":{"osm_id":"6857830006","tag":{"amenity":"recycling","recycling:cans":"yes","recycling:electrical_items":"yes","recycling:glass_bottles":"yes","recycling_type":"container"}},"type":"Feature"},
	{"geometry":{"coordinates":[18.941712,47.454899],"type":"Point"},"properties":{"osm_id":"6919827796","tag":{"amenity":"recycling","location":"overground","recycling_type":"container"}},"type":"Feature"},
	{"geometry":{"coordinates":[18.97667,47.456987],"type":"Point"},"properties":{"osm_id":"7089753713","tag":{"amenity":"waste_basket","waste":"dog_excrement"}},"type":"Feature"},
	{"geometry":{"coordinates":[18.971411,47.457632],"type":"Point"},"properties":{"osm_id":"7464771099","tag":{"amenity":"waste_basket"}},"type":"Feature"},
	{"geometry":{"coordinates":[18.913671,47.430205],"type":"Point"},"properties":{"osm_id":"7638527473","tag":{"amenity":"waste_basket","waste":"trash"}},"type":"Feature"},
	{"geometry":{"coordinates":[18.969529,47.439825],"type":"Point"},"properties":{"osm_id":"7755531012","tag":{"amenity":"recycling","recycling:glass":"yes","recycling:glass_bottles":"yes","recycling_type":"container"}},"type":"Feature"},
	{"geometry":{"coordinates":[18.905302,47.448493],"type":"Point"},"properties":{"osm_id":"7883242862","tag":{"amenity":"waste_basket"}},"type":"Feature"}
]
}
