{
"type": "FeatureCollection",
"features": [
	{"geometry":{"coordinates":[18.918288,47.3043],"type":"Point"},"properties":{"osm_id":"2885976667","tag":{"amenity":"waste_basket"}},"type":"Feature"},
	{"geometry":{"coordinates":[18.920576,47.309009],"type":"Point"},"properties":{"osm_id":"3488447740","tag":{"amenity":"recycling","recycling:glass_bottles":"yes","recycling_type":"container","source:date":"2011-06-29","url":"http://turistautak.hu/poi.php?id=89444"}},"type":"Feature"},
	{"geometry":{"coordinates":[18.9085,47.318233],"type":"Point"},"properties":{"osm_id":"3488447744","tag":{"amenity":"recycling","description":"A Damjanich \u00c3\u00a9s az ifj\u00c3\u00bas\u00c3\u00a1g utca sark\u00c3\u00a1n, a CBA el\u00c5\u0091tt.","recycling:glass_bottles":"yes","recycling_type":"container","source:date":"2011-10-05","url":"http://turistautak.hu/poi.php?id=18074"}},"type":"Feature"},
	{"geometry":{"coordinates":[18.90985,47.322617],"type":"Point"},"properties":{"osm_id":"3488447749","tag":{"amenity":"recycling","description":"Geszteny\u00c3\u00a9s \u00c3\u00bat, Pann\u00c3\u00b3nia utca sarka.","recycling:glass_bottles":"yes","recycling_type":"container","source:date":"2011-10-05","url":"http://turistautak.hu/poi.php?id=18075"}},"type":"Feature"},
	{"geometry":{"coordinates":[18.960884,47.32208],"type":"Point"},"properties":{"osm_id":"3832410948","tag":{"amenity":"recycling","recycling:cans":"no","recycling:clothes":"no","recycling:glass":"no","recycling:glass_bottles":"no","recycling:paper":"yes","recycling:plastic":"yes","recycling_type":"centre"}},"type":"Feature"},
	{"geometry":{"coordinates":[18.907933,47.317061],"type":"Point"},"properties":{"osm_id":"5049131422","tag":{"amenity":"waste_basket","colour":"green"}},"type":"Feature"},
	{"geometry":{"coordinates":[18.908441,47.316731],"type":"Point"},"properties":{"osm_id":"5049208524","tag":{"amenity":"waste_basket"}},"type":"Feature"},
	{"geometry":{"coordinates":[18.908858,47.316985],"type":"Point"},"properties":{"osm_id":"5049208525","tag":{"amenity":"waste_basket"}},"type":"Feature"},
	{"geometry":{"coordinates":[18.908361,47.31673],"type":"Point"},"properties":{"osm_id":"5056731121","tag":{"amenity":"waste_basket"}},"type":"Feature"},
	{"geometry":{"coordinates":[18.907742,47.317697],"type":"Point"},"properties":{"osm_id":"5056731622","tag":{"amenity":"waste_basket"}},"type":"Feature"},
	{"geometry":{"coordinates":[18.908458,47.317356],"type":"Point"},"properties":{"osm_id":"5117660421","tag":{"amenity":"waste_basket"}},"type":"Feature"},
	{"geometry":{"coordinates":[18.901903,47.313254],"type":"Point"},"properties":{"osm_id":"7721149103","tag":{"amenity":"waste_basket"}},"type":"Feature"},
	{"geometry":{"coordinates":[18.902116,47.313283],"type":"Point"},"properties":{"osm_id":"7721149104","tag":{"amenity":"waste_basket"}},"type":"Feature"},
	{"geometry":{"coordinates":[18.902094,47.313219],"type":"Point"},"properties":{"osm_id":"7721149105","tag":{"amenity":"waste_basket"}},"type":"Feature"},
	{"geometry":{"coordinates":[18.901478,47.312995],"type":"Point"},"properties":{"osm_id":"7721149111","tag":{"amenity":"waste_basket"}},"type":"Feature"},
	{"geometry":{"coordinates":[18.902328,47.312887],"type":"Point"},"properties":{"osm_id":"7721149115","tag":{"amenity":"waste_basket"}},"type":"Feature"},
	{"geometry":{"coordinates":[18.902417,47.312963],"type":"Point"},"properties":{"osm_id":"7721149116","tag":{"amenity":"waste_basket"}},"type":"Feature"},
	{"geometry":{"coordinates":[18.902592,47.312677],"type":"Point"},"properties":{"osm_id":"7721149126","tag":{"amenity":"waste_basket"}},"type":"Feature"},
	{"geometry":{"coordinates":[18.902441,47.312839],"type":"Point"},"properties":{"osm_id":"7721149127","tag":{"amenity":"waste_basket"}},"type":"Feature"},
	{"geometry":{"coordinates":[18.902952,47.312246],"type":"Point"},"properties":{"osm_id":"7721149133","tag":{"amenity":"waste_basket"}},"type":"Feature"},
	{"geometry":{"coordinates":[18.903063,47.31227],"type":"Point"},"properties":{"osm_id":"7721149134","tag":{"amenity":"waste_basket"}},"type":"Feature"},
	{"geometry":{"coordinates":[18.903428,47.312496],"type":"Point"},"properties":{"osm_id":"7721149135","tag":{"amenity":"waste_basket"}},"type":"Feature"},
	{"geometry":{"coordinates":[18.903591,47.312471],"type":"Point"},"properties":{"osm_id":"7721149136","tag":{"amenity":"waste_basket"}},"type":"Feature"},
	{"geometry":{"coordinates":[18.903762,47.312323],"type":"Point"},"properties":{"osm_id":"7721149137","tag":{"amenity":"waste_basket"}},"type":"Feature"},
	{"geometry":{"coordinates":[18.903691,47.312695],"type":"Point"},"properties":{"osm_id":"7721149140","tag":{"amenity":"waste_basket"}},"type":"Feature"},
	{"geometry":{"coordinates":[18.904082,47.312932],"type":"Point"},"properties":{"osm_id":"7721149142","tag":{"amenity":"waste_basket"}},"type":"Feature"},
	{"geometry":{"coordinates":[18.902245,47.313473],"type":"Point"},"properties":{"osm_id":"7721149144","tag":{"amenity":"waste_basket"}},"type":"Feature"},
	{"geometry":{"coordinates":[18.902398,47.313564],"type":"Point"},"properties":{"osm_id":"7721149145","tag":{"amenity":"waste_basket"}},"type":"Feature"},
	{"geometry":{"coordinates":[18.902682,47.31374],"type":"Point"},"properties":{"osm_id":"7721149147","tag":{"amenity":"waste_basket"}},"type":"Feature"},
	{"geometry":{"coordinates":[18.904162,47.312341],"type":"Point"},"properties":{"osm_id":"7721149148","tag":{"amenity":"waste_basket"}},"type":"Feature"},
	{"geometry":{"coordinates":[18.904403,47.31249],"type":"Point"},"properties":{"osm_id":"7721149149","tag":{"amenity":"waste_basket"}},"type":"Feature"},
	{"geometry":{"coordinates":[18.904652,47.312663],"type":"Point"},"properties":{"osm_id":"7721149150","tag":{"amenity":"waste_basket"}},"type":"Feature"},
	{"geometry":{"coordinates":[18.90495,47.31285],"type":"Point"},"properties":{"osm_id":"7721149151","tag":{"amenity":"waste_basket"}},"type":"Feature"},
	{"geometry":{"coordinates":[18.904729,47.312316],"type":"Point"},"properties":{"osm_id":"7721149152","tag":{"amenity":"waste_basket"}},"type":"Feature"},
	{"geometry":{"coordinates":[18.904512,47.31224],"type":"Point"},"properties":{"osm_id":"7721149155","tag":{"amenity":"waste_basket"}},"type":"Feature"},
	{"geometry":{"coordinates":[18.904756,47.312152],"type":"Point"},"properties":{"osm_id":"7721149158","tag":{"amenity":"waste_basket"}},"type":"Feature"},
	{"geometry":{"coordinates":[18.905309,47.3118],"type":"Point"},"properties":{"osm_id":"7721149169","tag":{"amenity":"waste_basket"}},"type":"Feature"},
	{"geometry":{"coordinates":[18.905451,47.312065],"type":"Point"},"properties":{"osm_id":"7721149173","tag":{"amenity":"waste_basket"}},"type":"Feature"},
	{"geometry":{"coordinates":[18.905996,47.311917],"type":"Point"},"properties":{"osm_id":"7721149177","tag":{"amenity":"waste_basket"}},"type":"Feature"},
	{"geometry":{"coordinates":[18.906447,47.312048],"type":"Point"},"properties":{"osm_id":"7721149178","tag":{"amenity":"waste_basket"}},"type":"Feature"},
	{"geometry":{"coordinates":[18.906532,47.311987],"type":"Point"},"properties":{"osm_id":"7721149179","tag":{"amenity":"waste_basket"}},"type":"Feature"},
	{"geometry":{"coordinates":[18.906619,47.311928],"type":"Point"},"properties":{"osm_id":"7721149180","tag":{"amenity":"waste_basket"}},"type":"Feature"},
	{"geometry":{"coordinates":[18.907079,47.312188],"type":"Point"},"properties":{"osm_id":"7721158286","tag":{"amenity":"waste_basket"}},"type":"Feature"},
	{"geometry":{"coordinates":[18.906915,47.312359],"type":"Point"},"properties":{"osm_id":"7721158290","tag":{"amenity":"waste_basket"}},"type":"Feature"},
	{"geometry":{"coordinates":[18.907048,47.313181],"type":"Point"},"properties":{"osm_id":"7721158298","tag":{"amenity":"waste_basket"}},"type":"Feature"},
	{"geometry":{"coordinates":[18.907253,47.313201],"type":"Point"},"properties":{"osm_id":"7721158299","tag":{"amenity":"waste_basket"}},"type":"Feature"},
	{"geometry":{"coordinates":[18.907319,47.313127],"type":"Point"},"properties":{"osm_id":"7721158300","tag":{"amenity":"waste_basket"}},"type":"Feature"},
	{"geometry":{"coordinates":[18.907584,47.312939],"type":"Point"},"properties":{"osm_id":"7721158301","tag":{"amenity":"waste_basket"}},"type":"Feature"},
	{"geometry":{"coordinates":[18.907512,47.313212],"type":"Point"},"properties":{"osm_id":"7721158303","tag":{"amenity":"waste_basket"}},"type":"Feature"},
	{"geometry":{"coordinates":[18.907882,47.312954],"type":"Point"},"properties":{"osm_id":"7721158312","tag":{"amenity":"waste_basket"}},"type":"Feature"},
	{"geometry":{"coordinates":[18.908045,47.31259],"type":"Point"},"properties":{"osm_id":"7721158315","tag":{"amenity":"waste_basket"}},"type":"Feature"},
	{"geometry":{"coordinates":[18.904368,47.313136],"type":"Point"},"properties":{"osm_id":"7721158320","tag":{"amenity":"waste_basket"}},"type":"Feature"},
	{"geometry":{"coordinates":[18.904637,47.313347],"type":"Point"},"properties":{"osm_id":"7721158323","tag":{"amenity":"waste_basket"}},"type":"Feature"},
	{"geometry":{"coordinates":[18.904966,47.313551],"type":"Point"},"properties":{"osm_id":"7721158325","tag":{"amenity":"waste_basket"}},"type":"Feature"},
	{"geometry":{"coordinates":[18.905523,47.313847],"type":"Point"},"properties":{"osm_id":"7721158326","tag":{"amenity":"waste_basket"}},"type":"Feature"},
	{"geometry":{"coordinates":[18.905699,47.313859],"type":"Point"},"properties":{"osm_id":"7721158327","tag":{"amenity":"waste_basket"}},"type":"Feature"},
	{"geometry":{"coordinates":[18.905778,47.313798],"type":"Point"},"properties":{"osm_id":"7721158328","tag":{"amenity":"waste_basket"}},"type":"Feature"},
	{"geometry":{"coordinates":[18.905947,47.313686],"type":"Point"},"properties":{"osm_id":"7721158329","tag":{"amenity":"waste_basket"}},"type":"Feature"},
	{"geometry":{"coordinates":[18.906084,47.31359],"type":"Point"},"properties":{"osm_id":"7721158330","tag":{"amenity":"waste_basket"}},"type":"Feature"},
	{"geometry":{"coordinates":[18.906224,47.313495],"type":"Point"},"properties":{"osm_id":"7721158331","tag":{"amenity":"waste_basket"}},"type":"Feature"},
	{"geometry":{"coordinates":[18.905585,47.313171],"type":"Point"},"properties":{"osm_id":"7721158334","tag":{"amenity":"waste_basket"}},"type":"Feature"},
	{"geometry":{"coordinates":[18.905876,47.312867],"type":"Point"},"properties":{"osm_id":"7721158335","tag":{"amenity":"waste_basket"}},"type":"Feature"},
	{"geometry":{"coordinates":[18.906008,47.312999],"type":"Point"},"properties":{"osm_id":"7721158336","tag":{"amenity":"waste_basket"}},"type":"Feature"},
	{"geometry":{"coordinates":[18.905678,47.313262],"type":"Point"},"properties":{"osm_id":"7721158341","tag":{"amenity":"waste_basket"}},"type":"Feature"},
	{"geometry":{"coordinates":[18.9057,47.313186],"type":"Point"},"properties":{"osm_id":"7721158346","tag":{"amenity":"waste_basket"}},"type":"Feature"},
	{"geometry":{"coordinates":[18.90591,47.314064],"type":"Point"},"properties":{"osm_id":"7721158351","tag":{"amenity":"waste_basket"}},"type":"Feature"},
	{"geometry":{"coordinates":[18.906224,47.314197],"type":"Point"},"properties":{"osm_id":"7721158352","tag":{"amenity":"waste_basket"}},"type":"Feature"},
	{"geometry":{"coordinates":[18.906484,47.313915],"type":"Point"},"properties":{"osm_id":"7721158353","tag":{"amenity":"waste_basket"}},"type":"Feature"},
	{"geometry":{"coordinates":[18.906601,47.313759],"type":"Point"},"properties":{"osm_id":"7721158358","tag":{"amenity":"waste_basket"}},"type":"Feature"},
	{"geometry":{"coordinates":[18.906516,47.313686],"type":"Point"},"properties":{"osm_id":"7721158361","tag":{"amenity":"waste_basket"}},"type":"Feature"},
	{"geometry":{"coordinates":[18.906214,47.313751],"type":"Point"},"properties":{"osm_id":"7721158363","tag":{"amenity":"waste_basket"}},"type":"Feature"},
	{"geometry":{"coordinates":[18.906351,47.314377],"type":"Point"},"properties":{"osm_id":"7721158365","tag":{"amenity":"waste_basket"}},"type":"Feature"},
	{"geometry":{"coordinates":[18.906861,47.314662],"type":"Point"},"properties":{"osm_id":"7721158366","tag":{"amenity":"waste_basket"}},"type":"Feature"},
	{"geometry":{"coordinates":[18.906788,47.314619],"type":"Point"},"properties":{"osm_id":"7721158367","tag":{"amenity":"waste_basket"}},"type":"Feature"},
	{"geometry":{"coordinates":[18.906765,47.314513],"type":"Point"},"properties":{"osm_id":"7721158368","tag":{"amenity":"waste_basket"}},"type":"Feature"},
	{"geometry":{"coordinates":[18.907304,47.314262],"type":"Point"},"properties":{"osm_id":"7721158369","tag":{"amenity":"waste_basket"}},"type":"Feature"},
	{"geometry":{"coordinates":[18.907123,47.314393],"type":"Point"},"properties":{"osm_id":"7721158370","tag":{"amenity":"waste_basket"}},"type":"Feature"},
	{"geometry":{"coordinates":[18.907743,47.314564],"type":"Point"},"properties":{"osm_id":"7721158371","tag":{"amenity":"waste_basket"}},"type":"Feature"},
	{"geometry":{"coordinates":[18.908243,47.313767],"type":"Point"},"properties":{"osm_id":"7721158373","tag":{"amenity":"waste_basket"}},"type":"Feature"},
	{"geometry":{"coordinates":[18.908348,47.313983],"type":"Point"},"properties":{"osm_id":"7721158383","tag":{"amenity":"waste_basket"}},"type":"Feature"},
	{"geometry":{"coordinates":[18.908618,47.314167],"type":"Point"},"properties":{"osm_id":"7721158390","tag":{"amenity":"waste_basket"}},"type":"Feature"}
]
}
