{
"type": "FeatureCollection",
"features": [
	{"geometry":{"coordinates":[18.928081,47.233858],"type":"Point"},"properties":{"osm_id":"3488386037","tag":{"amenity":"recycling","source:date":"2011-06-24","url":"http://turistautak.hu/poi.php?id=26024"}},"type":"Feature"},
	{"geometry":{"coordinates":[18.967277,47.232415],"type":"Point"},"properties":{"osm_id":"5818781492","tag":{"amenity":"waste_disposal"}},"type":"Feature"},
	{"geometry":{"coordinates":[18.957402,47.230819],"type":"Point"},"properties":{"osm_id":"6911654173","tag":{"amenity":"recycling","operator":"Szelekt\u00c3\u00adv hullad\u00c3\u00a9k lerak\u00c3\u00b3","recycling:glass_bottles":"yes","recycling_type":"container"}},"type":"Feature"},
	{"geometry":{"coordinates":[18.94596,47.228082],"type":"Point"},"properties":{"osm_id":"6930074015","tag":{"amenity":"waste_basket"}},"type":"Feature"},
	{"geometry":{"coordinates":[18.94615,47.227558],"type":"Point"},"properties":{"osm_id":"6930074016","tag":{"amenity":"waste_basket"}},"type":"Feature"},
	{"geometry":{"coordinates":[18.958778,47.230023],"type":"Point"},"properties":{"osm_id":"6953275433","tag":{"amenity":"waste_basket"}},"type":"Feature"},
	{"geometry":{"coordinates":[18.958877,47.22965],"type":"Point"},"properties":{"osm_id":"6953275437","tag":{"amenity":"waste_basket"}},"type":"Feature"},
	{"geometry":{"coordinates":[18.956888,47.226863],"type":"Point"},"properties":{"osm_id":"6953275438","tag":{"amenity":"waste_basket"}},"type":"Feature"},
	{"geometry":{"coordinates":[18.956466,47.227027],"type":"Point"},"properties":{"osm_id":"6953275440","tag":{"amenity":"waste_basket"}},"type":"Feature"},
	{"geometry":{"coordinates":[18.946078,47.228783],"type":"Point"},"properties":{"osm_id":"6953275443","tag":{"amenity":"waste_basket"}},"type":"Feature"},
	{"geometry":{"coordinates":[18.958839,47.230557],"type":"Point"},"properties":{"osm_id":"6958263553","tag":{"amenity":"waste_basket"}},"type":"Feature"},
	{"geometry":{"coordinates":[18.961185,47.226222],"type":"Point"},"properties":{"osm_id":"6958263561","tag":{"amenity":"waste_basket"}},"type":"Feature"},
	{"geometry":{"coordinates":[18.961012,47.226152],"type":"Point"},"properties":{"osm_id":"6958263562","tag":{"amenity":"waste_basket"}},"type":"Feature"},
	{"geometry":{"coordinates":[18.95743,47.231012],"type":"Point"},"properties":{"osm_id":"6990615338","tag":{"amenity":"waste_basket"}},"type":"Feature"},
	{"geometry":{"coordinates":[18.957244,47.226453],"type":"Point"},"properties":{"osm_id":"7057284924","tag":{"amenity":"waste_basket"}},"type":"Feature"},
	{"geometry":{"coordinates":[18.957718,47.226925],"type":"Point"},"properties":{"osm_id":"7154639967","tag":{"amenity":"waste_basket"}},"type":"Feature"},
	{"geometry":{"coordinates":[18.957373,47.230829],"type":"Point"},"properties":{"osm_id":"7154639968","tag":{"amenity":"recycling","recycling:glass_bottles":"yes","recycling_type":"container"}},"type":"Feature"},
	{"geometry":{"coordinates":[18.959681,47.230406],"type":"Point"},"properties":{"osm_id":"7154639970","tag":{"amenity":"waste_basket"}},"type":"Feature"},
	{"geometry":{"coordinates":[18.95819,47.22839],"type":"Point"},"properties":{"osm_id":"7197111583","tag":{"amenity":"waste_basket"}},"type":"Feature"},
	{"geometry":{"coordinates":[18.957343,47.230838],"type":"Point"},"properties":{"osm_id":"7197150587","tag":{"amenity":"recycling","recycling:glass_bottles":"yes","recycling_type":"container"}},"type":"Feature"},
	{"geometry":{"coordinates":[18.960576,47.230858],"type":"Point"},"properties":{"osm_id":"7216864352","tag":{"amenity":"recycling","operator":"Elem gy\u00c5\u00b1jt\u00c5\u0091","recycling:electrical_items":"yes","recycling_type":"container"}},"type":"Feature"},
	{"geometry":{"coordinates":[18.959642,47.23029],"type":"Point"},"properties":{"osm_id":"7216864353","tag":{"amenity":"recycling","operator":"Elem gy\u00c5\u00b1jt\u00c5\u0091","recycling:electrical_items":"yes","recycling_type":"container"}},"type":"Feature"},
	{"geometry":{"coordinates":[18.961169,47.231218],"type":"Point"},"properties":{"osm_id":"7228234486","tag":{"amenity":"waste_basket"}},"type":"Feature"},
	{"geometry":{"coordinates":[18.958772,47.228641],"type":"Point"},"properties":{"osm_id":"7228234491","tag":{"amenity":"waste_basket"}},"type":"Feature"},
	{"geometry":{"coordinates":[18.95892,47.228483],"type":"Point"},"properties":{"osm_id":"7228234492","tag":{"amenity":"waste_basket"}},"type":"Feature"},
	{"geometry":{"coordinates":[18.958921,47.228472],"type":"Point"},"properties":{"osm_id":"7228234493","tag":{"amenity":"waste_basket"}},"type":"Feature"},
	{"geometry":{"coordinates":[18.960937,47.23058],"type":"Point"},"properties":{"osm_id":"7228234494","tag":{"amenity":"waste_basket"}},"type":"Feature"},
	{"geometry":{"coordinates":[18.964506,47.22756],"type":"Point"},"properties":{"osm_id":"7727215730","tag":{"amenity":"waste_basket"}},"type":"Feature"},
	{"geometry":{"coordinates":[18.96438,47.227355],"type":"Point"},"properties":{"osm_id":"7727215731","tag":{"amenity":"waste_basket"}},"type":"Feature"},
	{"geometry":{"coordinates":[18.955424,47.226624],"type":"Point"},"properties":{"osm_id":"7727215742","tag":{"amenity":"waste_disposal"}},"type":"Feature"},
	{"geometry":{"coordinates":[18.9554,47.226326],"type":"Point"},"properties":{"osm_id":"7727215770","tag":{"amenity":"waste_disposal"}},"type":"Feature"},
	{"geometry":{"coordinates":[18.95514,47.225381],"type":"Point"},"properties":{"osm_id":"7727215771","tag":{"amenity":"waste_disposal"}},"type":"Feature"},
	{"geometry":{"coordinates":[18.96102,47.226232],"type":"Point"},"properties":{"osm_id":"8018293794","tag":{"amenity":"waste_basket"}},"type":"Feature"},
	{"geometry":{"coordinates":[18.961221,47.226143],"type":"Point"},"properties":{"osm_id":"8018293795","tag":{"amenity":"waste_basket"}},"type":"Feature"}
]
}
