{
"type": "FeatureCollection",
"features": [
	{"geometry":{"coordinates":[127.099529,37.852353],"type":"Point"},"properties":{"name":"\u00eb\u008f\u0099\u00ea\u00b4\u0091\u00eb\u00ac\u00b4\u00ec\u0097\u00ad(\u00ec\u009e\u00ac\u00ed\u0099\u009c\u00ec\u009a\u00a9\u00ec\u009d\u0098\u00eb\u00a5\u0098\u00ec\u0088\u0098\u00ec\u00b6\u009c\u00ea\u00b3\u00b5\u00ec\u009e\u00a5)","osm_id":"4101045495","tag":{"amenity":"recycling","name:ko":"\u00eb\u008f\u0099\u00ea\u00b4\u0091\u00eb\u00ac\u00b4\u00ec\u0097\u00ad(\u00ec\u009e\u00ac\u00ed\u0099\u009c\u00ec\u009a\u00a9\u00ec\u009d\u0098\u00eb\u00a5\u0098\u00ec\u0088\u0098\u00ec\u00b6\u009c\u00ea\u00b3\u00b5\u00ec\u009e\u00a5)"}},"type":"Feature"},
	{"geometry":{"coordinates":[127.099567,37.85236],"type":"Point"},"properties":{"name":"\u00eb\u008f\u0099","osm_id":"4101046299","tag":{"amenity":"recycling","name:ko":"\u00eb\u008f\u0099"}},"type":"Feature"},
	{"geometry":{"coordinates":[127.098101,37.852065],"type":"Point"},"properties":{"name":"\u00eb\u008f\u0099\u00ea\u00b4\u0091\u00eb\u00ac\u00b4\u00ec\u0097\u00ad","osm_id":"4107178289","tag":{"amenity":"recycling","email":"dongkwang555@naver.com","name:en":"Dong kwang trading co.,","name:ko":"\u00eb\u008f\u0099\u00ea\u00b4\u0091\u00eb\u00ac\u00b4\u00ec\u0097\u00ad","phone":"+82 31 866 8161","recycling_type":"centre"}},"type":"Feature"}
]
}
