{
"type": "FeatureCollection",
"features": [
	{"geometry":{"coordinates":[16.956681,51.113165],"type":"Point"},"properties":{"osm_id":"1167997566","tag":{"amenity":"waste_disposal"}},"type":"Feature"},
	{"geometry":{"coordinates":[16.957409,51.112541],"type":"Point"},"properties":{"osm_id":"1168203329","tag":{"amenity":"waste_disposal"}},"type":"Feature"},
	{"geometry":{"coordinates":[16.903191,51.123833],"type":"Point"},"properties":{"name":"Chemeko-System Sp. z o.o.","osm_id":"1201298454","tag":{"WroclawGIS:addr:date":"2011-03-13","WroclawGIS:addr:id":"51632","WroclawGIS:addr:layer":"search/0","WroclawGIS:addr:postcode:id":"48394","WroclawGIS:addr:postcode:layer":"odniesienie_k_lite/1","addr:city":"Wroc\u00c5\u0082aw","addr:country":"PL","addr:housenumber":"4-6","addr:postcode":"54-519","addr:street":"Jerzmanowska","addr:street:sym_ul":"07496","amenity":"recycling","recycling_type":"centre","source:addr":"WroclawGIS"}},"type":"Feature"},
	{"geometry":{"coordinates":[16.95181,51.099356],"type":"Point"},"properties":{"osm_id":"1765083979","tag":{"amenity":"waste_basket"}},"type":"Feature"},
	{"geometry":{"coordinates":[16.951274,51.099417],"type":"Point"},"properties":{"osm_id":"1765083980","tag":{"amenity":"waste_basket"}},"type":"Feature"},
	{"geometry":{"coordinates":[16.951805,51.099616],"type":"Point"},"properties":{"osm_id":"1765083982","tag":{"amenity":"waste_basket"}},"type":"Feature"},
	{"geometry":{"coordinates":[16.951132,51.098836],"type":"Point"},"properties":{"osm_id":"1765083983","tag":{"amenity":"waste_basket"}},"type":"Feature"},
	{"geometry":{"coordinates":[16.936762,51.098176],"type":"Point"},"properties":{"barrier":"gate","osm_id":"3306516693","tag":{"bicycle":"yes","foot":"yes","horse":"yes","motorcar":"yes","motorcycle":"yes"}},"type":"Feature"},
	{"geometry":{"coordinates":[16.885026,51.090665],"type":"Point"},"properties":{"osm_id":"4145230621","tag":{"amenity":"recycling","recycling:glass":"yes","recycling:paper":"yes","recycling:plastic":"yes","recycling_type":"container"}},"type":"Feature"},
	{"geometry":{"coordinates":[16.930471,51.121295],"type":"Point"},"properties":{"osm_id":"5751397932","tag":{"amenity":"waste_disposal"}},"type":"Feature"},
	{"geometry":{"coordinates":[16.956107,51.076899],"type":"Point"},"properties":{"osm_id":"6179368389","tag":{"amenity":"waste_disposal"}},"type":"Feature"},
	{"geometry":{"coordinates":[16.957276,51.077502],"type":"Point"},"properties":{"osm_id":"6179455793","tag":{"amenity":"waste_disposal"}},"type":"Feature"},
	{"geometry":{"coordinates":[16.959217,51.076932],"type":"Point"},"properties":{"osm_id":"6179512453","tag":{"amenity":"waste_disposal"}},"type":"Feature"},
	{"geometry":{"coordinates":[16.950814,51.099858],"type":"Point"},"properties":{"osm_id":"7040502597","tag":{"amenity":"waste_disposal"}},"type":"Feature"},
	{"geometry":{"coordinates":[16.952635,51.102037],"type":"Point"},"properties":{"osm_id":"7049938764","tag":{"amenity":"waste_disposal"}},"type":"Feature"},
	{"geometry":{"coordinates":[16.948307,51.100369],"type":"Point"},"properties":{"osm_id":"7055735539","tag":{"amenity":"waste_disposal"}},"type":"Feature"},
	{"geometry":{"coordinates":[16.94745,51.100969],"type":"Point"},"properties":{"osm_id":"7055735540","tag":{"amenity":"waste_disposal"}},"type":"Feature"},
	{"geometry":{"coordinates":[16.94929,51.099935],"type":"Point"},"properties":{"osm_id":"7055735541","tag":{"amenity":"waste_disposal"}},"type":"Feature"},
	{"geometry":{"coordinates":[16.948004,51.102187],"type":"Point"},"properties":{"osm_id":"7070739903","tag":{"amenity":"waste_disposal"}},"type":"Feature"},
	{"geometry":{"coordinates":[16.947866,51.102104],"type":"Point"},"properties":{"osm_id":"7070739904","tag":{"amenity":"waste_disposal"}},"type":"Feature"},
	{"geometry":{"coordinates":[16.948697,51.102072],"type":"Point"},"properties":{"osm_id":"7070739905","tag":{"amenity":"waste_disposal"}},"type":"Feature"},
	{"geometry":{"coordinates":[16.949356,51.10196],"type":"Point"},"properties":{"osm_id":"7070739914","tag":{"amenity":"waste_disposal"}},"type":"Feature"},
	{"geometry":{"coordinates":[16.950068,51.101837],"type":"Point"},"properties":{"osm_id":"7070739915","tag":{"amenity":"waste_disposal"}},"type":"Feature"},
	{"geometry":{"coordinates":[16.949986,51.101742],"type":"Point"},"properties":{"osm_id":"7070739916","tag":{"amenity":"waste_disposal"}},"type":"Feature"},
	{"geometry":{"coordinates":[16.95087,51.101698],"type":"Point"},"properties":{"osm_id":"7070739921","tag":{"amenity":"waste_disposal"}},"type":"Feature"},
	{"geometry":{"coordinates":[16.951215,51.101328],"type":"Point"},"properties":{"osm_id":"7070739926","tag":{"amenity":"waste_disposal"}},"type":"Feature"},
	{"geometry":{"coordinates":[16.951441,51.101287],"type":"Point"},"properties":{"osm_id":"7070739927","tag":{"amenity":"waste_disposal"}},"type":"Feature"},
	{"geometry":{"coordinates":[16.951535,51.101953],"type":"Point"},"properties":{"osm_id":"7073633338","tag":{"amenity":"waste_disposal"}},"type":"Feature"},
	{"geometry":{"coordinates":[16.946766,51.102597],"type":"Point"},"properties":{"osm_id":"7073787361","tag":{"amenity":"waste_disposal"}},"type":"Feature"},
	{"geometry":{"coordinates":[16.945512,51.102492],"type":"Point"},"properties":{"osm_id":"7073915969","tag":{"amenity":"waste_disposal"}},"type":"Feature"},
	{"geometry":{"coordinates":[16.945134,51.102096],"type":"Point"},"properties":{"osm_id":"7073915970","tag":{"amenity":"waste_disposal"}},"type":"Feature"},
	{"geometry":{"coordinates":[16.946012,51.101568],"type":"Point"},"properties":{"osm_id":"7073915972","tag":{"amenity":"waste_disposal"}},"type":"Feature"},
	{"geometry":{"coordinates":[16.946561,51.101523],"type":"Point"},"properties":{"osm_id":"7073915973","tag":{"amenity":"waste_disposal"}},"type":"Feature"},
	{"geometry":{"coordinates":[16.945906,51.101238],"type":"Point"},"properties":{"osm_id":"7073915974","tag":{"amenity":"waste_disposal"}},"type":"Feature"},
	{"geometry":{"coordinates":[16.946843,51.101767],"type":"Point"},"properties":{"osm_id":"7073915975","tag":{"amenity":"waste_disposal"}},"type":"Feature"},
	{"geometry":{"coordinates":[16.950461,51.09932],"type":"Point"},"properties":{"osm_id":"7076566477","tag":{"amenity":"waste_disposal"}},"type":"Feature"},
	{"geometry":{"coordinates":[16.944143,51.101021],"type":"Point"},"properties":{"osm_id":"7083110107","tag":{"amenity":"waste_disposal"}},"type":"Feature"}
]
}
