{
"type": "FeatureCollection",
"features": [
	{"geometry":{"coordinates":[16.878635,49.545673],"type":"Point"},"properties":{"osm_id":"2212753549","tag":{"amenity":"waste_basket"}},"type":"Feature"},
	{"geometry":{"coordinates":[16.925893,49.549024],"type":"Point"},"properties":{"osm_id":"2248611509","tag":{"amenity":"recycling","recycling_type":"container"}},"type":"Feature"},
	{"geometry":{"coordinates":[16.944414,49.502607],"type":"Point"},"properties":{"osm_id":"2252411838","tag":{"amenity":"recycling"}},"type":"Feature"},
	{"geometry":{"coordinates":[16.945684,49.50286],"type":"Point"},"properties":{"osm_id":"2277023533","tag":{"amenity":"waste_basket"}},"type":"Feature"},
	{"geometry":{"coordinates":[16.962175,49.510419],"type":"Point"},"properties":{"osm_id":"2277023535","tag":{"amenity":"recycling"}},"type":"Feature"},
	{"geometry":{"coordinates":[16.959384,49.510825],"type":"Point"},"properties":{"osm_id":"2277023538","tag":{"amenity":"waste_basket"}},"type":"Feature"},
	{"geometry":{"coordinates":[16.962053,49.511724],"type":"Point"},"properties":{"osm_id":"2277023547","tag":{"amenity":"recycling","recycling:glass":"yes","recycling:plastic":"yes","recycling_type":"container"}},"type":"Feature"},
	{"geometry":{"coordinates":[16.876903,49.51794],"type":"Point"},"properties":{"osm_id":"2298544903","tag":{"amenity":"waste_disposal"}},"type":"Feature"},
	{"geometry":{"coordinates":[16.876855,49.517943],"type":"Point"},"properties":{"osm_id":"2298544905","tag":{"amenity":"recycling","recycling_type":"container"}},"type":"Feature"},
	{"geometry":{"coordinates":[16.896365,49.547143],"type":"Point"},"properties":{"osm_id":"2511525638","tag":{"amenity":"recycling","recycling_type":"container"}},"type":"Feature"},
	{"geometry":{"coordinates":[16.944465,49.502607],"type":"Point"},"properties":{"osm_id":"2511818071","tag":{"amenity":"waste_basket"}},"type":"Feature"},
	{"geometry":{"coordinates":[16.878056,49.542584],"type":"Point"},"properties":{"osm_id":"2518805248","tag":{"amenity":"waste_disposal"}},"type":"Feature"},
	{"geometry":{"coordinates":[16.878417,49.546508],"type":"Point"},"properties":{"osm_id":"2518805337","tag":{"amenity":"recycling","recycling_type":"container"}},"type":"Feature"},
	{"geometry":{"coordinates":[16.881979,49.52086],"type":"Point"},"properties":{"osm_id":"2527295916","tag":{"amenity":"waste_disposal"}},"type":"Feature"},
	{"geometry":{"coordinates":[16.881995,49.520876],"type":"Point"},"properties":{"osm_id":"2527295922","tag":{"amenity":"recycling","recycling_type":"container"}},"type":"Feature"},
	{"geometry":{"coordinates":[16.881483,49.521038],"type":"Point"},"properties":{"osm_id":"2527295931","tag":{"amenity":"recycling","recycling_type":"container"}},"type":"Feature"},
	{"geometry":{"coordinates":[16.886025,49.521578],"type":"Point"},"properties":{"osm_id":"2527296018","tag":{"amenity":"waste_disposal"}},"type":"Feature"},
	{"geometry":{"coordinates":[16.886003,49.5216],"type":"Point"},"properties":{"osm_id":"2527296020","tag":{"amenity":"recycling","recycling_type":"container"}},"type":"Feature"},
	{"geometry":{"coordinates":[16.883284,49.521971],"type":"Point"},"properties":{"osm_id":"2527296046","tag":{"amenity":"waste_basket"}},"type":"Feature"},
	{"geometry":{"coordinates":[16.883402,49.522132],"type":"Point"},"properties":{"osm_id":"2527296054","tag":{"amenity":"waste_basket"}},"type":"Feature"},
	{"geometry":{"coordinates":[16.885404,49.524705],"type":"Point"},"properties":{"osm_id":"2529690515","tag":{"amenity":"waste_basket"}},"type":"Feature"},
	{"geometry":{"coordinates":[16.952838,49.53106],"type":"Point"},"properties":{"osm_id":"2696881646","tag":{"amenity":"recycling","recycling_type":"container"}},"type":"Feature"},
	{"geometry":{"coordinates":[16.954602,49.553473],"type":"Point"},"properties":{"osm_id":"2808133844","tag":{"amenity":"waste_basket"}},"type":"Feature"},
	{"geometry":{"coordinates":[16.946264,49.502116],"type":"Point"},"properties":{"osm_id":"2966874630","tag":{"amenity":"waste_basket"}},"type":"Feature"},
	{"geometry":{"coordinates":[16.958161,49.507523],"type":"Point"},"properties":{"osm_id":"2966874934","tag":{"amenity":"waste_basket"}},"type":"Feature"},
	{"geometry":{"coordinates":[16.956339,49.508448],"type":"Point"},"properties":{"osm_id":"2966874954","tag":{"amenity":"waste_basket"}},"type":"Feature"},
	{"geometry":{"coordinates":[16.961352,49.511139],"type":"Point"},"properties":{"osm_id":"2966875035","tag":{"amenity":"waste_basket"}},"type":"Feature"},
	{"geometry":{"coordinates":[16.94681,49.54445],"type":"Point"},"properties":{"osm_id":"3069282491","tag":{"amenity":"recycling","recycling:glass":"yes","recycling:plastic":"yes","recycling_type":"container"}},"type":"Feature"},
	{"geometry":{"coordinates":[16.883283,49.522025],"type":"Point"},"properties":{"osm_id":"3178634115","tag":{"amenity":"recycling","recycling_type":"container"}},"type":"Feature"},
	{"geometry":{"coordinates":[16.883412,49.522401],"type":"Point"},"properties":{"osm_id":"3178634117","tag":{"amenity":"recycling","recycling_type":"container"}},"type":"Feature"},
	{"geometry":{"coordinates":[16.929572,49.543389],"type":"Point"},"properties":{"osm_id":"3178635714","tag":{"amenity":"recycling","recycling_type":"container"}},"type":"Feature"},
	{"geometry":{"coordinates":[16.955402,49.553004],"type":"Point"},"properties":{"osm_id":"7473226922","tag":{"amenity":"recycling","recycling:glass":"yes"}},"type":"Feature"},
	{"geometry":{"coordinates":[16.954484,49.553561],"type":"Point"},"properties":{"name":"Sb\u00c4\u009br od\u00c4\u009bv\u00c5\u00af a obuvi","osm_id":"7500471007","tag":{"amenity":"recycling"}},"type":"Feature"},
	{"geometry":{"coordinates":[16.95502,49.553119],"type":"Point"},"properties":{"osm_id":"7758238449","tag":{"amenity":"recycling"}},"type":"Feature"}
]
}
