{
"type": "FeatureCollection",
"features": [
	{"geometry":{"coordinates":[16.88959,48.762099],"type":"Point"},"properties":{"name":"Sb\u00c4\u009brn\u00c3\u00bd dv\u00c5\u00afr","osm_id":"7293761272","tag":{"addr:housenumber":"2","addr:street":"Sovadinova","amenity":"recycling","recycling_type":"centre","website":"https://www.ave.cz/cs/jihomoravsky-kraj/provozovna-breclav/sberny-dvur/sberny-dvur-breclav"}},"type":"Feature"},
	{"geometry":{"coordinates":[16.88301,48.762144],"type":"Point"},"properties":{"osm_id":"8197552622","tag":{"amenity":"recycling","recycling:glass":"yes","recycling:paper":"yes","recycling:plastic":"yes","recycling_type":"container"}},"type":"Feature"},
	{"geometry":{"coordinates":[16.883636,48.757258],"type":"Point"},"properties":{"osm_id":"8197552685","tag":{"amenity":"recycling","recycling:glass":"yes","recycling:paper":"yes","recycling:plastic":"yes","recycling_type":"container"}},"type":"Feature"},
	{"geometry":{"coordinates":[16.891396,48.757268],"type":"Point"},"properties":{"osm_id":"8197552775","tag":{"amenity":"recycling","recycling:glass":"yes","recycling:paper":"yes","recycling:plastic":"yes","recycling_type":"container"}},"type":"Feature"}
]
}
