{
"type": "FeatureCollection",
"features": [
	{"geometry":{"coordinates":[16.957426,48.153316],"type":"Point"},"properties":{"osm_id":"1222194415","tag":{"amenity":"waste_basket"}},"type":"Feature"},
	{"geometry":{"coordinates":[16.957891,48.153466],"type":"Point"},"properties":{"osm_id":"1222194436","tag":{"amenity":"waste_basket"}},"type":"Feature"},
	{"geometry":{"coordinates":[16.957134,48.159048],"type":"Point"},"properties":{"osm_id":"1222285032","tag":{"amenity":"waste_basket"}},"type":"Feature"},
	{"geometry":{"coordinates":[16.953047,48.159557],"type":"Point"},"properties":{"osm_id":"1222321044","tag":{"amenity":"waste_basket"}},"type":"Feature"},
	{"geometry":{"coordinates":[16.945674,48.152352],"type":"Point"},"properties":{"osm_id":"1222784938","tag":{"amenity":"waste_basket"}},"type":"Feature"},
	{"geometry":{"coordinates":[16.932642,48.1446],"type":"Point"},"properties":{"osm_id":"1350021310","tag":{"amenity":"recycling","recycling:cans":"yes","recycling:glass":"yes","recycling_type":"container"}},"type":"Feature"},
	{"geometry":{"coordinates":[16.948044,48.148513],"type":"Point"},"properties":{"osm_id":"1350021311","tag":{"amenity":"recycling","recycling_type":"container"}},"type":"Feature"},
	{"geometry":{"coordinates":[16.938339,48.145752],"type":"Point"},"properties":{"osm_id":"1350021312","tag":{"amenity":"recycling","recycling:cans":"yes","recycling:clothes":"yes","recycling:glass":"yes","recycling_type":"container"}},"type":"Feature"},
	{"geometry":{"coordinates":[16.951945,48.145339],"type":"Point"},"properties":{"osm_id":"1350021313","tag":{"amenity":"recycling","recycling:cans":"yes","recycling:glass_bottles":"yes","recycling_type":"container"}},"type":"Feature"},
	{"geometry":{"coordinates":[16.952167,48.15729],"type":"Point"},"properties":{"osm_id":"1681195108","tag":{"amenity":"waste_basket"}},"type":"Feature"},
	{"geometry":{"coordinates":[16.944662,48.149932],"type":"Point"},"properties":{"osm_id":"1828255488","tag":{"amenity":"recycling","recycling:cans":"yes","recycling:clothes":"yes","recycling:glass":"yes","recycling_type":"container"}},"type":"Feature"},
	{"geometry":{"coordinates":[16.947031,48.14659],"type":"Point"},"properties":{"osm_id":"1942375164","tag":{"amenity":"recycling","recycling:cans":"yes","recycling:clothes":"yes","recycling:glass":"yes","recycling:glass_bottles":"yes","recycling_type":"container"}},"type":"Feature"},
	{"geometry":{"coordinates":[16.929816,48.138315],"type":"Point"},"properties":{"osm_id":"1942573737","tag":{"amenity":"recycling","recycling:cans":"yes","recycling:clothes":"no","recycling:glass":"yes","recycling:glass_bottles":"yes","recycling:paper":"no","recycling_type":"container"}},"type":"Feature"},
	{"geometry":{"coordinates":[16.92343,48.145149],"type":"Point"},"properties":{"osm_id":"2402081841","tag":{"amenity":"recycling","recycling:cans":"yes","recycling:glass":"yes","recycling:paper":"yes","recycling_type":"container"}},"type":"Feature"},
	{"geometry":{"coordinates":[16.954039,48.137465],"type":"Point"},"properties":{"osm_id":"2402081851","tag":{"amenity":"recycling","recycling:cans":"yes","recycling:clothes":"yes","recycling:glass_bottles":"yes","recycling_type":"container"}},"type":"Feature"},
	{"geometry":{"coordinates":[16.954828,48.14571],"type":"Point"},"properties":{"osm_id":"3153766926","tag":{"amenity":"recycling","recycling:cans":"yes","recycling:clothes":"yes","recycling:glass_bottles":"yes","recycling_type":"container"}},"type":"Feature"},
	{"geometry":{"coordinates":[16.908675,48.131155],"type":"Point"},"properties":{"osm_id":"4700544091","tag":{"amenity":"waste_basket"}},"type":"Feature"},
	{"geometry":{"coordinates":[16.908228,48.137315],"type":"Point"},"properties":{"osm_id":"5795401878","tag":{"amenity":"waste_basket"}},"type":"Feature"},
	{"geometry":{"coordinates":[16.943399,48.120022],"type":"Point"},"properties":{"osm_id":"6741857990","tag":{"amenity":"waste_basket"}},"type":"Feature"},
	{"geometry":{"coordinates":[16.939995,48.118721],"type":"Point"},"properties":{"osm_id":"6741858416","tag":{"amenity":"recycling","recycling:cans":"yes","recycling:glass_bottles":"yes","recycling_type":"container"}},"type":"Feature"},
	{"geometry":{"coordinates":[16.928882,48.120589],"type":"Point"},"properties":{"osm_id":"6741861150","tag":{"access":"yes","amenity":"recycling","recycling:cans":"yes","recycling:glass_bottles":"yes"}},"type":"Feature"},
	{"geometry":{"coordinates":[16.928761,48.120555],"type":"Point"},"properties":{"osm_id":"6741917464","tag":{"amenity":"waste_basket"}},"type":"Feature"},
	{"geometry":{"coordinates":[16.944159,48.119943],"type":"Point"},"properties":{"osm_id":"6741946920","tag":{"amenity":"waste_basket"}},"type":"Feature"},
	{"geometry":{"coordinates":[16.931686,48.119014],"type":"Point"},"properties":{"osm_id":"6742009737","tag":{"amenity":"waste_basket"}},"type":"Feature"},
	{"geometry":{"coordinates":[16.944567,48.122817],"type":"Point"},"properties":{"name":"Mistk\u00c3\u00bcbel","osm_id":"6742646930","tag":{"amenity":"waste_basket"}},"type":"Feature"},
	{"geometry":{"coordinates":[16.93941,48.11878],"type":"Point"},"properties":{"name":"Feuerwehrplatz","osm_id":"6742646931","tag":{"amenity":"waste_basket","area":"yes"}},"type":"Feature"},
	{"geometry":{"coordinates":[16.936597,48.1178],"type":"Point"},"properties":{"osm_id":"6742646932","tag":{"amenity":"waste_basket"}},"type":"Feature"},
	{"geometry":{"coordinates":[16.93469,48.116865],"type":"Point"},"properties":{"osm_id":"6742655865","tag":{"amenity":"recycling","recycling:clothes":"yes","recycling_type":"container"}},"type":"Feature"},
	{"geometry":{"coordinates":[16.928082,48.12554],"type":"Point"},"properties":{"osm_id":"6750114124","tag":{"amenity":"recycling","recycling:green_waste":"yes","recycling_type":"container"}},"type":"Feature"},
	{"geometry":{"coordinates":[16.945665,48.119795],"type":"Point"},"properties":{"osm_id":"6750114125","tag":{"amenity":"recycling","recycling:green_waste":"yes","recycling_type":"container"}},"type":"Feature"},
	{"geometry":{"coordinates":[16.939153,48.118468],"type":"Point"},"properties":{"osm_id":"6750661599","tag":{"amenity":"waste_basket"}},"type":"Feature"},
	{"geometry":{"coordinates":[16.931415,48.144464],"type":"Point"},"properties":{"osm_id":"7549865277","tag":{"amenity":"waste_basket"}},"type":"Feature"},
	{"geometry":{"coordinates":[16.931791,48.144671],"type":"Point"},"properties":{"osm_id":"7549865278","tag":{"amenity":"waste_basket"}},"type":"Feature"},
	{"geometry":{"coordinates":[16.93218,48.14489],"type":"Point"},"properties":{"osm_id":"7549865281","tag":{"amenity":"waste_basket"}},"type":"Feature"},
	{"geometry":{"coordinates":[16.939672,48.148874],"type":"Point"},"properties":{"osm_id":"7549901408","tag":{"amenity":"waste_basket"}},"type":"Feature"}
]
}
