{
"type": "FeatureCollection",
"features": [
	{"geometry":{"coordinates":[16.926016,47.905227],"type":"Point"},"properties":{"name":"UDB","osm_id":"264257944","tag":{"addr:city":"Gols","addr:country":"AT","addr:housenumber":"2","addr:postcode":"7122","addr:street":"Hoch\u00c3\u00a4cker","amenity":"recycling","at_bev:addr_date":"2019-10-01","opening_hours":"Mo-Fr 07:30-12:00,12:30-16:00","recycling_type":"centre","wheelchair":"yes"}},"type":"Feature"},
	{"geometry":{"coordinates":[16.94269,47.882709],"type":"Point"},"properties":{"highway":"bus_stop","name":"M\u00c3\u00b6nchhof Stiftsgasse","osm_id":"4498455866","tag":{"amenity":"waste_basket","bus":"yes","departures_board":"timetable","network":"VOR","public_transport":"platform","shelter":"yes"}},"type":"Feature"},
	{"geometry":{"coordinates":[16.942626,47.882893],"type":"Point"},"properties":{"highway":"bus_stop","name":"M\u00c3\u00b6nchhof Stiftsgasse","osm_id":"4498488474","tag":{"amenity":"waste_basket","bus":"yes","network":"VOR","public_transport":"platform","shelter":"yes"}},"type":"Feature"},
	{"geometry":{"coordinates":[16.940665,47.876432],"type":"Point"},"properties":{"osm_id":"4907731509","tag":{"amenity":"recycling","recycling_type":"container"}},"type":"Feature"},
	{"geometry":{"coordinates":[16.919467,47.885754],"type":"Point"},"properties":{"name":"Tierk\u00c3\u00b6rpersammelstelle","osm_id":"5537562284","tag":{"addr:city":"Gols","addr:housenumber":"34","addr:postcode":"7122","addr:street":"Am Kanal","amenity":"recycling","recycling:animal_waste":"yes","recycling_type":"container"}},"type":"Feature"},
	{"geometry":{"coordinates":[16.906859,47.898861],"type":"Point"},"properties":{"osm_id":"5585651230","tag":{"addr:city":"Gols","addr:postcode":"7122","addr:street":"Obere Hauptstra\u00c3\u009fe","amenity":"recycling","recycling:clothes":"yes","recycling:shoes":"yes","recycling_type":"container"}},"type":"Feature"},
	{"geometry":{"coordinates":[16.907485,47.897192],"type":"Point"},"properties":{"osm_id":"5589919762","tag":{"addr:city":"Gols","addr:postcode":"7122","addr:street":"Hauptplatz","amenity":"recycling","operator":"humana","recycling:clothes":"yes","recycling:shoes":"yes","recycling_type":"container"}},"type":"Feature"},
	{"geometry":{"coordinates":[16.942214,47.881852],"type":"Point"},"properties":{"osm_id":"5596421855","tag":{"addr:city":"M\u00c3\u00b6nchhof","addr:housenumber":"18","addr:postcode":"7123","addr:street":"Kirchenplatz","amenity":"recycling","operator":"humana","recycling:clothes":"yes","recycling:shoes":"yes","recycling_type":"container"}},"type":"Feature"},
	{"geometry":{"coordinates":[16.914127,47.894555],"type":"Point"},"properties":{"osm_id":"7342358923","tag":{"amenity":"waste_basket"}},"type":"Feature"},
	{"geometry":{"coordinates":[16.904807,47.891877],"type":"Point"},"properties":{"osm_id":"7836480618","tag":{"amenity":"waste_basket"}},"type":"Feature"},
	{"geometry":{"coordinates":[16.940583,47.882162],"type":"Point"},"properties":{"osm_id":"7856078128","tag":{"amenity":"waste_basket"}},"type":"Feature"},
	{"geometry":{"coordinates":[16.943764,47.883234],"type":"Point"},"properties":{"highway":"street_lamp","osm_id":"7856095996","tag":{"amenity":"waste_basket","lamp_type":"led"}},"type":"Feature"},
	{"geometry":{"coordinates":[16.908446,47.890952],"type":"Point"},"properties":{"osm_id":"8471079305","tag":{"amenity":"waste_basket"}},"type":"Feature"},
	{"geometry":{"coordinates":[16.917271,47.893862],"type":"Point"},"properties":{"osm_id":"8917241850","tag":{"amenity":"waste_basket"}},"type":"Feature"}
]
}
