{
"type": "FeatureCollection",
"features": [
	{"geometry":{"coordinates":[16.875494,47.717601],"type":"Point"},"properties":{"osm_id":"1451372097","tag":{"amenity":"waste_basket"}},"type":"Feature"},
	{"geometry":{"coordinates":[16.941205,47.732711],"type":"Point"},"properties":{"name":"Altstoffsammelstelle","osm_id":"4268452522","tag":{"addr:city":"Wallern im Burgenland","addr:housenumber":"22","addr:postcode":"7151","addr:street":"Bergmanngasse","amenity":"recycling","operator":"Marktgemeinde Wallern im Burgenland","recycling:batteries":"yes","recycling:cans":"yes","recycling:cardboard":"yes","recycling:cartons":"yes","recycling:electrical_appliances":"yes","recycling:glass":"yes","recycling:glass_bottles":"yes","recycling:green_waste":"yes","recycling_type":"centre","website":"https://www.marktgemeinde-wallern-im-burgenland.at/Verwaltung/Bauhof-Altstoffsammelstelle/"}},"type":"Feature"},
	{"geometry":{"coordinates":[16.911217,47.699167],"type":"Point"},"properties":{"name":"Recyclingstelle Pamhagen","osm_id":"4444449489","tag":{"amenity":"recycling","name:de":"Recyclingstelle Pamhagen","operator":"Gemeinde Pamhagen","recycling_type":"container","website":"http://www.gemeinde-pamhagen.at/buergerservice/umweltdienst/"}},"type":"Feature"},
	{"geometry":{"coordinates":[16.934219,47.723358],"type":"Point"},"properties":{"osm_id":"8556504521","tag":{"amenity":"waste_basket"}},"type":"Feature"}
]
}
