{
"type": "FeatureCollection",
"features": [
	{"geometry":{"coordinates":[-4.501242,54.151217],"type":"Point"},"properties":{"osm_id":"283485770","tag":{"amenity":"recycling"}},"type":"Feature"},
	{"geometry":{"coordinates":[-4.51011,54.152798],"type":"Point"},"properties":{"highway":"bus_stop","name":"bin","osm_id":"1830297879","tag":{"amenity":"waste_basket","shelter":"yes"}},"type":"Feature"},
	{"geometry":{"coordinates":[-4.485486,54.147954],"type":"Point"},"properties":{"osm_id":"4144258862","tag":{"amenity":"waste_basket"}},"type":"Feature"},
	{"geometry":{"coordinates":[-4.485493,54.148091],"type":"Point"},"properties":{"osm_id":"4144258901","tag":{"amenity":"waste_basket"}},"type":"Feature"},
	{"geometry":{"coordinates":[-4.485738,54.153977],"type":"Point"},"properties":{"name":"litter bin","osm_id":"4333828717","tag":{"amenity":"waste_basket"}},"type":"Feature"},
	{"geometry":{"coordinates":[-4.488995,54.151529],"type":"Point"},"properties":{"name":"litter bin","osm_id":"4333828718","tag":{"amenity":"waste_basket"}},"type":"Feature"},
	{"geometry":{"coordinates":[-4.48731,54.152079],"type":"Point"},"properties":{"name":"litter bin","osm_id":"4333929341","tag":{"amenity":"waste_basket"}},"type":"Feature"},
	{"geometry":{"coordinates":[-4.484423,54.150307],"type":"Point"},"properties":{"osm_id":"4333930356","tag":{"amenity":"waste_basket"}},"type":"Feature"},
	{"geometry":{"coordinates":[-4.518799,54.155671],"type":"Point"},"properties":{"name":"bin 240l","osm_id":"4391474638","tag":{"amenity":"waste_basket"}},"type":"Feature"},
	{"geometry":{"coordinates":[-4.519309,54.156084],"type":"Point"},"properties":{"name":"bin 240l","osm_id":"4391474639","tag":{"amenity":"waste_basket"}},"type":"Feature"},
	{"geometry":{"coordinates":[-4.49129,54.157722],"type":"Point"},"properties":{"name":"Bin","osm_id":"4391516609","tag":{"amenity":"waste_basket"}},"type":"Feature"},
	{"geometry":{"coordinates":[-4.489258,54.158471],"type":"Point"},"properties":{"name":"bin","osm_id":"4391516610","tag":{"amenity":"waste_basket"}},"type":"Feature"},
	{"geometry":{"coordinates":[-4.489837,54.156018],"type":"Point"},"properties":{"name":"bin","osm_id":"4391516611","tag":{"amenity":"waste_basket"}},"type":"Feature"},
	{"geometry":{"coordinates":[-4.494021,54.156906],"type":"Point"},"properties":{"name":"bin","osm_id":"4391516612","tag":{"amenity":"waste_basket"}},"type":"Feature"},
	{"geometry":{"coordinates":[-4.492183,54.156123],"type":"Point"},"properties":{"name":"bin","osm_id":"4391516613","tag":{"amenity":"waste_basket"}},"type":"Feature"},
	{"geometry":{"coordinates":[-4.491687,54.155919],"type":"Point"},"properties":{"name":"bin","osm_id":"4391516614","tag":{"amenity":"waste_basket"}},"type":"Feature"},
	{"geometry":{"coordinates":[-4.489324,54.156244],"type":"Point"},"properties":{"name":"bin","osm_id":"4391516615","tag":{"amenity":"waste_basket"}},"type":"Feature"},
	{"geometry":{"coordinates":[-4.499794,54.156764],"type":"Point"},"properties":{"name":"bin","osm_id":"4391516616","tag":{"amenity":"waste_basket"}},"type":"Feature"},
	{"geometry":{"coordinates":[-4.493594,54.159813],"type":"Point"},"properties":{"name":"bin","osm_id":"4391516617","tag":{"amenity":"waste_basket"}},"type":"Feature"},
	{"geometry":{"coordinates":[-4.524584,54.148019],"type":"Point"},"properties":{"name":"bin","osm_id":"4391522703","tag":{"amenity":"waste_basket"}},"type":"Feature"},
	{"geometry":{"coordinates":[-4.523718,54.14761],"type":"Point"},"properties":{"name":"bin","osm_id":"4391522704","tag":{"amenity":"waste_basket"}},"type":"Feature"},
	{"geometry":{"coordinates":[-4.521541,54.150133],"type":"Point"},"properties":{"name":"bin","osm_id":"4391522705","tag":{"amenity":"waste_basket"}},"type":"Feature"},
	{"geometry":{"coordinates":[-4.520026,54.151199],"type":"Point"},"properties":{"name":"bin","osm_id":"4391522706","tag":{"amenity":"waste_basket"}},"type":"Feature"},
	{"geometry":{"coordinates":[-4.520465,54.15109],"type":"Point"},"properties":{"name":"bin","osm_id":"4391522707","tag":{"amenity":"waste_basket"}},"type":"Feature"},
	{"geometry":{"coordinates":[-4.520805,54.15067],"type":"Point"},"properties":{"name":"bin","osm_id":"4391522708","tag":{"amenity":"waste_basket"}},"type":"Feature"},
	{"geometry":{"coordinates":[-4.518195,54.150758],"type":"Point"},"properties":{"name":"bin","osm_id":"4391522709","tag":{"amenity":"waste_basket"}},"type":"Feature"},
	{"geometry":{"coordinates":[-4.518068,54.150716],"type":"Point"},"properties":{"name":"bin","osm_id":"4391522710","tag":{"amenity":"waste_basket"}},"type":"Feature"},
	{"geometry":{"coordinates":[-4.518963,54.147931],"type":"Point"},"properties":{"name":"bin","osm_id":"4391530196","tag":{"amenity":"waste_basket"}},"type":"Feature"},
	{"geometry":{"coordinates":[-4.51722,54.149125],"type":"Point"},"properties":{"name":"bin","osm_id":"4391530197","tag":{"amenity":"waste_basket"}},"type":"Feature"},
	{"geometry":{"coordinates":[-4.517971,54.148448],"type":"Point"},"properties":{"name":"bin","osm_id":"4391530198","tag":{"amenity":"waste_basket"}},"type":"Feature"}
]
}
