{
"type": "FeatureCollection",
"features": [
	{"geometry":{"coordinates":[-4.490448,48.417015],"type":"Point"},"properties":{"osm_id":"305714181","tag":{"amenity":"recycling","recycling:paper":"yes","recycling:plastic":"yes","recycling_type":"container"}},"type":"Feature"},
	{"geometry":{"coordinates":[-4.489845,48.417019],"type":"Point"},"properties":{"osm_id":"305714185","tag":{"amenity":"recycling","recycling:paper":"yes","recycling:plastic":"yes","recycling_type":"container"}},"type":"Feature"},
	{"geometry":{"coordinates":[-4.489586,48.416889],"type":"Point"},"properties":{"osm_id":"305714189","tag":{"amenity":"recycling","recycling:paper":"yes","recycling:plastic":"yes","recycling_type":"container"}},"type":"Feature"},
	{"geometry":{"coordinates":[-4.489524,48.416633],"type":"Point"},"properties":{"osm_id":"305714192","tag":{"amenity":"recycling","recycling:paper":"yes","recycling:plastic":"yes","recycling_type":"container"}},"type":"Feature"},
	{"geometry":{"coordinates":[-4.488401,48.416321],"type":"Point"},"properties":{"osm_id":"305714223","tag":{"amenity":"recycling","recycling:paper":"yes","recycling:plastic":"yes","recycling_type":"container"}},"type":"Feature"},
	{"geometry":{"coordinates":[-4.48893,48.417103],"type":"Point"},"properties":{"osm_id":"305718192","tag":{"amenity":"recycling","recycling:paper":"yes","recycling:plastic":"yes","recycling_type":"container"}},"type":"Feature"},
	{"geometry":{"coordinates":[-4.493072,48.420771],"type":"Point"},"properties":{"osm_id":"305751635","tag":{"amenity":"recycling","recycling:glass":"yes","recycling:paper":"yes","recycling:plastic":"yes","recycling_type":"container"}},"type":"Feature"},
	{"geometry":{"coordinates":[-4.48665,48.422893],"type":"Point"},"properties":{"osm_id":"305751971","tag":{"amenity":"recycling","recycling_type":"container"}},"type":"Feature"},
	{"geometry":{"coordinates":[-4.492926,48.416814],"type":"Point"},"properties":{"osm_id":"307781103","tag":{"amenity":"recycling","recycling:glass":"yes","recycling:paper":"yes","recycling:plastic":"yes","recycling_type":"container"}},"type":"Feature"},
	{"geometry":{"coordinates":[-4.560867,48.411567],"type":"Point"},"properties":{"osm_id":"721429211","tag":{"amenity":"recycling","recycling_type":"container"}},"type":"Feature"},
	{"geometry":{"coordinates":[-4.559724,48.432912],"type":"Point"},"properties":{"osm_id":"721429224","tag":{"amenity":"recycling","recycling_type":"container"}},"type":"Feature"},
	{"geometry":{"coordinates":[-4.509495,48.401629],"type":"Point"},"properties":{"osm_id":"721429231","tag":{"amenity":"recycling","recycling_type":"container"}},"type":"Feature"},
	{"geometry":{"coordinates":[-4.512687,48.405697],"type":"Point"},"properties":{"osm_id":"721429233","tag":{"amenity":"recycling","recycling_type":"container"}},"type":"Feature"},
	{"geometry":{"coordinates":[-4.492895,48.420817],"type":"Point"},"properties":{"osm_id":"721429234","tag":{"amenity":"recycling","recycling_type":"container"}},"type":"Feature"},
	{"geometry":{"coordinates":[-4.515487,48.404051],"type":"Point"},"properties":{"osm_id":"721429236","tag":{"amenity":"recycling","recycling_type":"container"}},"type":"Feature"},
	{"geometry":{"coordinates":[-4.556609,48.43104],"type":"Point"},"properties":{"osm_id":"721429237","tag":{"amenity":"recycling","recycling_type":"container"}},"type":"Feature"},
	{"geometry":{"coordinates":[-4.521514,48.408924],"type":"Point"},"properties":{"osm_id":"721429247","tag":{"amenity":"recycling","recycling_type":"container"}},"type":"Feature"},
	{"geometry":{"coordinates":[-4.500107,48.409119],"type":"Point"},"properties":{"osm_id":"721429248","tag":{"amenity":"recycling","location":"underground","recycling:cardboard":"yes","recycling:paper":"yes","recycling:plastic":"yes","recycling_type":"container"}},"type":"Feature"},
	{"geometry":{"coordinates":[-4.49939,48.41121],"type":"Point"},"properties":{"osm_id":"721429257","tag":{"amenity":"recycling","recycling_type":"container"}},"type":"Feature"},
	{"geometry":{"coordinates":[-4.514172,48.405338],"type":"Point"},"properties":{"osm_id":"721429259","tag":{"amenity":"recycling","recycling_type":"container"}},"type":"Feature"},
	{"geometry":{"coordinates":[-4.483715,48.402847],"type":"Point"},"properties":{"name":"Rue Leoquet","osm_id":"721429269","tag":{"amenity":"recycling","recycling_type":"container"}},"type":"Feature"},
	{"geometry":{"coordinates":[-4.496939,48.411012],"type":"Point"},"properties":{"osm_id":"721429271","tag":{"amenity":"recycling","recycling_type":"container"}},"type":"Feature"},
	{"geometry":{"coordinates":[-4.496512,48.405825],"type":"Point"},"properties":{"osm_id":"721429298","tag":{"amenity":"recycling","recycling_type":"container"}},"type":"Feature"},
	{"geometry":{"coordinates":[-4.569701,48.423827],"type":"Point"},"properties":{"osm_id":"721429302","tag":{"amenity":"recycling"}},"type":"Feature"},
	{"geometry":{"coordinates":[-4.565223,48.429164],"type":"Point"},"properties":{"osm_id":"721429326","tag":{"amenity":"recycling","recycling_type":"container"}},"type":"Feature"},
	{"geometry":{"coordinates":[-4.51839,48.406634],"type":"Point"},"properties":{"osm_id":"721429327","tag":{"amenity":"waste_disposal"}},"type":"Feature"},
	{"geometry":{"coordinates":[-4.509539,48.401977],"type":"Point"},"properties":{"osm_id":"721429332","tag":{"amenity":"recycling","recycling_type":"container"}},"type":"Feature"},
	{"geometry":{"coordinates":[-4.516723,48.403835],"type":"Point"},"properties":{"osm_id":"721429337","tag":{"amenity":"recycling","recycling_type":"container"}},"type":"Feature"},
	{"geometry":{"coordinates":[-4.491111,48.427105],"type":"Point"},"properties":{"osm_id":"721429345","tag":{"amenity":"recycling","recycling_type":"container"}},"type":"Feature"},
	{"geometry":{"coordinates":[-4.522477,48.408639],"type":"Point"},"properties":{"osm_id":"721429349","tag":{"amenity":"recycling","recycling_type":"container"}},"type":"Feature"},
	{"geometry":{"coordinates":[-4.499497,48.409399],"type":"Point"},"properties":{"osm_id":"721429350","tag":{"amenity":"recycling","recycling_type":"container"}},"type":"Feature"},
	{"geometry":{"coordinates":[-4.515317,48.404945],"type":"Point"},"properties":{"osm_id":"721429361","tag":{"amenity":"recycling","recycling_type":"container"}},"type":"Feature"},
	{"geometry":{"coordinates":[-4.500193,48.407983],"type":"Point"},"properties":{"osm_id":"721429362","tag":{"amenity":"recycling","recycling_type":"container"}},"type":"Feature"},
	{"geometry":{"coordinates":[-4.500058,48.410681],"type":"Point"},"properties":{"osm_id":"721429372","tag":{"amenity":"recycling","recycling_type":"container"}},"type":"Feature"},
	{"geometry":{"coordinates":[-4.562238,48.428891],"type":"Point"},"properties":{"osm_id":"721429375","tag":{"amenity":"recycling","recycling_type":"container"}},"type":"Feature"},
	{"geometry":{"coordinates":[-4.493352,48.427392],"type":"Point"},"properties":{"osm_id":"721429382","tag":{"amenity":"recycling","recycling_type":"container"}},"type":"Feature"},
	{"geometry":{"coordinates":[-4.498102,48.410609],"type":"Point"},"properties":{"osm_id":"721429383","tag":{"amenity":"recycling","recycling_type":"container"}},"type":"Feature"},
	{"geometry":{"coordinates":[-4.491045,48.416763],"type":"Point"},"properties":{"osm_id":"721429397","tag":{"amenity":"recycling","recycling_type":"container"}},"type":"Feature"},
	{"geometry":{"coordinates":[-4.510648,48.40182],"type":"Point"},"properties":{"osm_id":"721429402","tag":{"amenity":"recycling","recycling_type":"container"}},"type":"Feature"},
	{"geometry":{"coordinates":[-4.483603,48.413352],"type":"Point"},"properties":{"osm_id":"721429406","tag":{"amenity":"recycling","recycling_type":"container"}},"type":"Feature"},
	{"geometry":{"coordinates":[-4.512609,48.405874],"type":"Point"},"properties":{"osm_id":"721429407","tag":{"amenity":"recycling","recycling_type":"container"}},"type":"Feature"},
	{"geometry":{"coordinates":[-4.502392,48.404184],"type":"Point"},"properties":{"osm_id":"721429408","tag":{"amenity":"waste_disposal"}},"type":"Feature"},
	{"geometry":{"coordinates":[-4.51067,48.400183],"type":"Point"},"properties":{"osm_id":"721429410","tag":{"amenity":"waste_disposal"}},"type":"Feature"},
	{"geometry":{"coordinates":[-4.515962,48.407762],"type":"Point"},"properties":{"osm_id":"721429418","tag":{"amenity":"recycling","recycling_type":"container"}},"type":"Feature"},
	{"geometry":{"coordinates":[-4.522703,48.408342],"type":"Point"},"properties":{"osm_id":"721429419","tag":{"amenity":"recycling","recycling_type":"container"}},"type":"Feature"},
	{"geometry":{"coordinates":[-4.498379,48.409467],"type":"Point"},"properties":{"osm_id":"721429420","tag":{"amenity":"recycling","recycling_type":"container"}},"type":"Feature"},
	{"geometry":{"coordinates":[-4.488558,48.416418],"type":"Point"},"properties":{"osm_id":"721429421","tag":{"amenity":"recycling","recycling_type":"container"}},"type":"Feature"},
	{"geometry":{"coordinates":[-4.512254,48.400862],"type":"Point"},"properties":{"osm_id":"721429432","tag":{"amenity":"recycling","recycling_type":"container"}},"type":"Feature"},
	{"geometry":{"coordinates":[-4.50065,48.410756],"type":"Point"},"properties":{"osm_id":"721429472","tag":{"amenity":"recycling","recycling_type":"container"}},"type":"Feature"},
	{"geometry":{"coordinates":[-4.503428,48.40422],"type":"Point"},"properties":{"osm_id":"721429479","tag":{"amenity":"recycling","recycling_type":"container"}},"type":"Feature"},
	{"geometry":{"coordinates":[-4.497503,48.410631],"type":"Point"},"properties":{"osm_id":"721429495","tag":{"amenity":"recycling","recycling_type":"container"}},"type":"Feature"},
	{"geometry":{"coordinates":[-4.511486,48.401542],"type":"Point"},"properties":{"osm_id":"721429573","tag":{"amenity":"recycling","recycling_type":"container"}},"type":"Feature"},
	{"geometry":{"coordinates":[-4.517015,48.403352],"type":"Point"},"properties":{"osm_id":"721429587","tag":{"amenity":"recycling","recycling_type":"container"}},"type":"Feature"},
	{"geometry":{"coordinates":[-4.514468,48.405972],"type":"Point"},"properties":{"osm_id":"721429590","tag":{"amenity":"recycling","recycling_type":"container"}},"type":"Feature"},
	{"geometry":{"coordinates":[-4.501268,48.404113],"type":"Point"},"properties":{"osm_id":"721429591","tag":{"amenity":"waste_disposal"}},"type":"Feature"},
	{"geometry":{"coordinates":[-4.499908,48.404197],"type":"Point"},"properties":{"osm_id":"721429624","tag":{"amenity":"recycling","recycling_type":"container"}},"type":"Feature"},
	{"geometry":{"coordinates":[-4.488479,48.416967],"type":"Point"},"properties":{"osm_id":"721429648","tag":{"amenity":"recycling","recycling_type":"container"}},"type":"Feature"},
	{"geometry":{"coordinates":[-4.49216,48.412278],"type":"Point"},"properties":{"osm_id":"721429685","tag":{"amenity":"recycling","recycling_type":"container"}},"type":"Feature"},
	{"geometry":{"coordinates":[-4.512155,48.401016],"type":"Point"},"properties":{"osm_id":"721429718","tag":{"amenity":"recycling","recycling_type":"container"}},"type":"Feature"},
	{"geometry":{"coordinates":[-4.485038,48.417335],"type":"Point"},"properties":{"osm_id":"721429765","tag":{"amenity":"recycling","recycling_type":"container"}},"type":"Feature"},
	{"geometry":{"coordinates":[-4.500874,48.428981],"type":"Point"},"properties":{"osm_id":"721429772","tag":{"amenity":"recycling","recycling_type":"container"}},"type":"Feature"},
	{"geometry":{"coordinates":[-4.527557,48.411097],"type":"Point"},"properties":{"osm_id":"721429792","tag":{"amenity":"recycling"}},"type":"Feature"},
	{"geometry":{"coordinates":[-4.521965,48.410489],"type":"Point"},"properties":{"osm_id":"721429809","tag":{"amenity":"recycling","recycling_type":"container"}},"type":"Feature"},
	{"geometry":{"coordinates":[-4.499538,48.409811],"type":"Point"},"properties":{"osm_id":"721429827","tag":{"amenity":"recycling","recycling_type":"container"}},"type":"Feature"},
	{"geometry":{"coordinates":[-4.554646,48.423004],"type":"Point"},"properties":{"osm_id":"721429899","tag":{"amenity":"recycling","recycling_type":"container"}},"type":"Feature"},
	{"geometry":{"coordinates":[-4.507245,48.401564],"type":"Point"},"properties":{"osm_id":"721429916","tag":{"amenity":"recycling","recycling_type":"container"}},"type":"Feature"},
	{"geometry":{"coordinates":[-4.5152,48.406183],"type":"Point"},"properties":{"osm_id":"721429928","tag":{"amenity":"recycling","recycling_type":"container"}},"type":"Feature"},
	{"geometry":{"coordinates":[-4.500708,48.403696],"type":"Point"},"properties":{"osm_id":"721429930","tag":{"amenity":"waste_disposal"}},"type":"Feature"},
	{"geometry":{"coordinates":[-4.511448,48.400057],"type":"Point"},"properties":{"osm_id":"721429939","tag":{"amenity":"waste_disposal"}},"type":"Feature"},
	{"geometry":{"coordinates":[-4.515963,48.404455],"type":"Point"},"properties":{"osm_id":"721429991","tag":{"amenity":"recycling","recycling_type":"container"}},"type":"Feature"},
	{"geometry":{"coordinates":[-4.488889,48.41704],"type":"Point"},"properties":{"osm_id":"721429996","tag":{"amenity":"recycling","recycling_type":"container"}},"type":"Feature"},
	{"geometry":{"coordinates":[-4.512852,48.400371],"type":"Point"},"properties":{"osm_id":"721430028","tag":{"amenity":"recycling","recycling_type":"container"}},"type":"Feature"},
	{"geometry":{"coordinates":[-4.510931,48.430456],"type":"Point"},"properties":{"osm_id":"721430051","tag":{"amenity":"recycling","recycling_type":"container"}},"type":"Feature"},
	{"geometry":{"coordinates":[-4.487212,48.424143],"type":"Point"},"properties":{"osm_id":"721430052","tag":{"amenity":"recycling","recycling_type":"container"}},"type":"Feature"},
	{"geometry":{"coordinates":[-4.51695,48.428791],"type":"Point"},"properties":{"osm_id":"721430053","tag":{"amenity":"recycling","recycling_type":"container"}},"type":"Feature"},
	{"geometry":{"coordinates":[-4.512528,48.406575],"type":"Point"},"properties":{"osm_id":"721430054","tag":{"amenity":"recycling","recycling_type":"container"}},"type":"Feature"},
	{"geometry":{"coordinates":[-4.566683,48.424629],"type":"Point"},"properties":{"osm_id":"721430057","tag":{"amenity":"recycling","recycling_type":"container"}},"type":"Feature"},
	{"geometry":{"coordinates":[-4.517262,48.406944],"type":"Point"},"properties":{"osm_id":"721430065","tag":{"amenity":"recycling","recycling_type":"container"}},"type":"Feature"},
	{"geometry":{"coordinates":[-4.498613,48.409908],"type":"Point"},"properties":{"osm_id":"721430067","tag":{"amenity":"recycling","recycling_type":"container"}},"type":"Feature"},
	{"geometry":{"coordinates":[-4.558708,48.423006],"type":"Point"},"properties":{"osm_id":"721430068","tag":{"amenity":"recycling","recycling_type":"container"}},"type":"Feature"},
	{"geometry":{"coordinates":[-4.562465,48.421403],"type":"Point"},"properties":{"osm_id":"721430079","tag":{"amenity":"recycling","recycling_type":"container"}},"type":"Feature"},
	{"geometry":{"coordinates":[-4.508787,48.401872],"type":"Point"},"properties":{"osm_id":"721430086","tag":{"amenity":"recycling","recycling_type":"container"}},"type":"Feature"},
	{"geometry":{"coordinates":[-4.513767,48.404978],"type":"Point"},"properties":{"osm_id":"721430090","tag":{"amenity":"recycling","recycling_type":"container"}},"type":"Feature"},
	{"geometry":{"coordinates":[-4.516019,48.403581],"type":"Point"},"properties":{"osm_id":"721430102","tag":{"amenity":"recycling","recycling_type":"container"}},"type":"Feature"},
	{"geometry":{"coordinates":[-4.509202,48.407313],"type":"Point"},"properties":{"osm_id":"721430113","tag":{"amenity":"recycling","recycling_type":"container"}},"type":"Feature"},
	{"geometry":{"coordinates":[-4.519452,48.406426],"type":"Point"},"properties":{"osm_id":"721430114","tag":{"amenity":"recycling","recycling_type":"container"}},"type":"Feature"},
	{"geometry":{"coordinates":[-4.498254,48.408354],"type":"Point"},"properties":{"osm_id":"721430115","tag":{"amenity":"recycling","recycling_type":"container"}},"type":"Feature"},
	{"geometry":{"coordinates":[-4.509669,48.434381],"type":"Point"},"properties":{"osm_id":"721430124","tag":{"amenity":"recycling","recycling_type":"container"}},"type":"Feature"},
	{"geometry":{"coordinates":[-4.484946,48.40945],"type":"Point"},"properties":{"osm_id":"721430125","tag":{"amenity":"recycling","recycling_type":"container"}},"type":"Feature"},
	{"geometry":{"coordinates":[-4.521792,48.419577],"type":"Point"},"properties":{"osm_id":"721430126","tag":{"amenity":"recycling"}},"type":"Feature"},
	{"geometry":{"coordinates":[-4.513271,48.40577],"type":"Point"},"properties":{"osm_id":"721430127","tag":{"amenity":"recycling","recycling_type":"container"}},"type":"Feature"},
	{"geometry":{"coordinates":[-4.500633,48.41107],"type":"Point"},"properties":{"osm_id":"721430128","tag":{"amenity":"recycling","recycling_type":"container"}},"type":"Feature"},
	{"geometry":{"coordinates":[-4.50065,48.410106],"type":"Point"},"properties":{"osm_id":"721430139","tag":{"amenity":"recycling","recycling_type":"container"}},"type":"Feature"},
	{"geometry":{"coordinates":[-4.548908,48.42544],"type":"Point"},"properties":{"osm_id":"721430149","tag":{"amenity":"recycling","recycling_type":"container"}},"type":"Feature"},
	{"geometry":{"coordinates":[-4.489589,48.416459],"type":"Point"},"properties":{"osm_id":"721430150","tag":{"amenity":"recycling","recycling_type":"container"}},"type":"Feature"},
	{"geometry":{"coordinates":[-4.508304,48.401798],"type":"Point"},"properties":{"osm_id":"721430156","tag":{"amenity":"recycling","recycling_type":"container"}},"type":"Feature"},
	{"geometry":{"coordinates":[-4.521089,48.409095],"type":"Point"},"properties":{"osm_id":"721430172","tag":{"amenity":"recycling","recycling_type":"container"}},"type":"Feature"},
	{"geometry":{"coordinates":[-4.541584,48.409781],"type":"Point"},"properties":{"osm_id":"721430173","tag":{"amenity":"recycling","recycling_type":"container"}},"type":"Feature"},
	{"geometry":{"coordinates":[-4.512113,48.401815],"type":"Point"},"properties":{"osm_id":"721430184","tag":{"amenity":"recycling","recycling_type":"container"}},"type":"Feature"},
	{"geometry":{"coordinates":[-4.499489,48.408045],"type":"Point"},"properties":{"osm_id":"721430185","tag":{"amenity":"recycling","recycling_type":"container"}},"type":"Feature"},
	{"geometry":{"coordinates":[-4.497801,48.406275],"type":"Point"},"properties":{"osm_id":"721430187","tag":{"amenity":"recycling","recycling_type":"container"}},"type":"Feature"},
	{"geometry":{"coordinates":[-4.490059,48.407263],"type":"Point"},"properties":{"osm_id":"721430193","tag":{"amenity":"recycling","recycling_type":"container"}},"type":"Feature"},
	{"geometry":{"coordinates":[-4.515462,48.406932],"type":"Point"},"properties":{"osm_id":"721430195","tag":{"amenity":"recycling","recycling_type":"container"}},"type":"Feature"},
	{"geometry":{"coordinates":[-4.500178,48.411079],"type":"Point"},"properties":{"osm_id":"721430196","tag":{"amenity":"recycling","recycling_type":"container"}},"type":"Feature"},
	{"geometry":{"coordinates":[-4.497155,48.419123],"type":"Point"},"properties":{"osm_id":"721430204","tag":{"amenity":"recycling","recycling_type":"container"}},"type":"Feature"},
	{"geometry":{"coordinates":[-4.500359,48.410062],"type":"Point"},"properties":{"osm_id":"721430207","tag":{"amenity":"recycling","recycling_type":"container"}},"type":"Feature"},
	{"geometry":{"coordinates":[-4.55613,48.427904],"type":"Point"},"properties":{"osm_id":"721430208","tag":{"amenity":"recycling","recycling_type":"container"}},"type":"Feature"},
	{"geometry":{"coordinates":[-4.489988,48.416122],"type":"Point"},"properties":{"osm_id":"721430219","tag":{"amenity":"recycling","recycling_type":"container"}},"type":"Feature"},
	{"geometry":{"coordinates":[-4.508069,48.401226],"type":"Point"},"properties":{"osm_id":"721430225","tag":{"amenity":"recycling","recycling_type":"container"}},"type":"Feature"},
	{"geometry":{"coordinates":[-4.499603,48.422116],"type":"Point"},"properties":{"osm_id":"721430228","tag":{"amenity":"recycling","recycling_type":"container"}},"type":"Feature"},
	{"geometry":{"coordinates":[-4.505162,48.400283],"type":"Point"},"properties":{"osm_id":"721430230","tag":{"amenity":"recycling","recycling_type":"container"}},"type":"Feature"},
	{"geometry":{"coordinates":[-4.4976,48.406895],"type":"Point"},"properties":{"osm_id":"721430235","tag":{"amenity":"waste_disposal"}},"type":"Feature"},
	{"geometry":{"coordinates":[-4.490081,48.401718],"type":"Point"},"properties":{"osm_id":"721430240","tag":{"amenity":"recycling","recycling_type":"container"}},"type":"Feature"},
	{"geometry":{"coordinates":[-4.520154,48.409372],"type":"Point"},"properties":{"osm_id":"721430241","tag":{"amenity":"recycling","recycling_type":"container"}},"type":"Feature"},
	{"geometry":{"coordinates":[-4.502092,48.402388],"type":"Point"},"properties":{"osm_id":"721430242","tag":{"amenity":"waste_disposal"}},"type":"Feature"},
	{"geometry":{"coordinates":[-4.512617,48.401439],"type":"Point"},"properties":{"osm_id":"721430252","tag":{"amenity":"recycling","recycling_type":"container"}},"type":"Feature"},
	{"geometry":{"coordinates":[-4.500682,48.408232],"type":"Point"},"properties":{"osm_id":"721430253","tag":{"amenity":"recycling","recycling_type":"container"}},"type":"Feature"},
	{"geometry":{"coordinates":[-4.497919,48.40658],"type":"Point"},"properties":{"osm_id":"721430256","tag":{"amenity":"recycling","recycling_type":"container"}},"type":"Feature"},
	{"geometry":{"coordinates":[-4.498584,48.408981],"type":"Point"},"properties":{"osm_id":"721430257","tag":{"amenity":"recycling","recycling_type":"container"}},"type":"Feature"},
	{"geometry":{"coordinates":[-4.514527,48.407179],"type":"Point"},"properties":{"osm_id":"721430264","tag":{"amenity":"recycling","recycling_type":"container"}},"type":"Feature"},
	{"geometry":{"coordinates":[-4.500009,48.401095],"type":"Point"},"properties":{"osm_id":"721430275","tag":{"amenity":"recycling","recycling_type":"container"}},"type":"Feature"},
	{"geometry":{"coordinates":[-4.499512,48.410538],"type":"Point"},"properties":{"osm_id":"721430276","tag":{"amenity":"recycling","recycling_type":"container"}},"type":"Feature"},
	{"geometry":{"coordinates":[-4.522173,48.406589],"type":"Point"},"properties":{"osm_id":"721430278","tag":{"amenity":"recycling","recycling_type":"container"}},"type":"Feature"},
	{"geometry":{"coordinates":[-4.500199,48.400126],"type":"Point"},"properties":{"osm_id":"721430280","tag":{"amenity":"recycling","recycling_type":"container"}},"type":"Feature"},
	{"geometry":{"coordinates":[-4.491031,48.416352],"type":"Point"},"properties":{"osm_id":"721430288","tag":{"amenity":"recycling","recycling:cans":"yes","recycling:glass":"yes","recycling:glass_bottles":"yes","recycling:magazines":"yes","recycling:newspaper":"yes","recycling:paper":"yes","recycling:plastic":"yes","recycling:plastic_bottles":"yes","recycling_type":"container"}},"type":"Feature"},
	{"geometry":{"coordinates":[-4.509248,48.40033],"type":"Point"},"properties":{"osm_id":"721430302","tag":{"amenity":"waste_disposal"}},"type":"Feature"},
	{"geometry":{"coordinates":[-4.518185,48.405875],"type":"Point"},"properties":{"osm_id":"721430305","tag":{"amenity":"waste_disposal"}},"type":"Feature"},
	{"geometry":{"coordinates":[-4.514804,48.404773],"type":"Point"},"properties":{"osm_id":"721430311","tag":{"amenity":"recycling","recycling_type":"container"}},"type":"Feature"},
	{"geometry":{"coordinates":[-4.513535,48.40062],"type":"Point"},"properties":{"osm_id":"721430322","tag":{"amenity":"recycling","recycling_type":"container"}},"type":"Feature"},
	{"geometry":{"coordinates":[-4.500699,48.408091],"type":"Point"},"properties":{"osm_id":"721430323","tag":{"amenity":"recycling","recycling_type":"container"}},"type":"Feature"},
	{"geometry":{"coordinates":[-4.500469,48.413544],"type":"Point"},"properties":{"osm_id":"721430332","tag":{"amenity":"recycling","recycling_type":"container"}},"type":"Feature"},
	{"geometry":{"coordinates":[-4.511918,48.405781],"type":"Point"},"properties":{"osm_id":"721430335","tag":{"amenity":"recycling","recycling_type":"container"}},"type":"Feature"},
	{"geometry":{"coordinates":[-4.497983,48.401839],"type":"Point"},"properties":{"osm_id":"721430340","tag":{"amenity":"recycling","recycling_type":"container"}},"type":"Feature"},
	{"geometry":{"coordinates":[-4.499288,48.410749],"type":"Point"},"properties":{"osm_id":"721430346","tag":{"amenity":"recycling","recycling_type":"container"}},"type":"Feature"},
	{"geometry":{"coordinates":[-4.491186,48.416333],"type":"Point"},"properties":{"osm_id":"721430359","tag":{"amenity":"recycling","recycling:glass":"yes","recycling:paper":"yes","recycling_type":"container"}},"type":"Feature"},
	{"geometry":{"coordinates":[-4.552986,48.429172],"type":"Point"},"properties":{"osm_id":"721430369","tag":{"amenity":"recycling","recycling_type":"container"}},"type":"Feature"},
	{"geometry":{"coordinates":[-4.519386,48.407453],"type":"Point"},"properties":{"osm_id":"721430378","tag":{"amenity":"waste_disposal"}},"type":"Feature"},
	{"geometry":{"coordinates":[-4.508915,48.411087],"type":"Point"},"properties":{"osm_id":"721430382","tag":{"amenity":"recycling","recycling_type":"container"}},"type":"Feature"},
	{"geometry":{"coordinates":[-4.515389,48.404187],"type":"Point"},"properties":{"osm_id":"721430388","tag":{"amenity":"recycling","recycling_type":"container"}},"type":"Feature"},
	{"geometry":{"coordinates":[-4.570181,48.428114],"type":"Point"},"properties":{"osm_id":"721430389","tag":{"amenity":"recycling"}},"type":"Feature"},
	{"geometry":{"coordinates":[-4.512761,48.400817],"type":"Point"},"properties":{"osm_id":"721430401","tag":{"amenity":"recycling","recycling_type":"container"}},"type":"Feature"},
	{"geometry":{"coordinates":[-4.497751,48.40992],"type":"Point"},"properties":{"osm_id":"721430402","tag":{"amenity":"recycling","recycling_type":"container"}},"type":"Feature"},
	{"geometry":{"coordinates":[-4.492284,48.40135],"type":"Point"},"properties":{"osm_id":"721430405","tag":{"amenity":"recycling","recycling_type":"container"}},"type":"Feature"},
	{"geometry":{"coordinates":[-4.515488,48.405536],"type":"Point"},"properties":{"osm_id":"721430413","tag":{"amenity":"recycling","recycling_type":"container"}},"type":"Feature"},
	{"geometry":{"coordinates":[-4.505534,48.404062],"type":"Point"},"properties":{"osm_id":"721430414","tag":{"amenity":"recycling","recycling:glass":"yes","recycling:glass_bottles":"yes","recycling:green_waste":"no","recycling_type":"container"}},"type":"Feature"},
	{"geometry":{"coordinates":[-4.490824,48.408847],"type":"Point"},"properties":{"osm_id":"721430419","tag":{"amenity":"recycling","recycling_type":"container"}},"type":"Feature"},
	{"geometry":{"coordinates":[-4.487512,48.401697],"type":"Point"},"properties":{"osm_id":"721430423","tag":{"amenity":"recycling","recycling_type":"container"}},"type":"Feature"},
	{"geometry":{"coordinates":[-4.511026,48.400736],"type":"Point"},"properties":{"osm_id":"721430424","tag":{"amenity":"recycling","recycling_type":"container"}},"type":"Feature"},
	{"geometry":{"coordinates":[-4.497853,48.411121],"type":"Point"},"properties":{"osm_id":"721430425","tag":{"amenity":"recycling","recycling_type":"container"}},"type":"Feature"},
	{"geometry":{"coordinates":[-4.483772,48.405458],"type":"Point"},"properties":{"osm_id":"1242481935","tag":{"amenity":"recycling","recycling_type":"container"}},"type":"Feature"},
	{"geometry":{"coordinates":[-4.520687,48.402806],"type":"Point"},"properties":{"osm_id":"1831830372","tag":{"amenity":"waste_basket"}},"type":"Feature"},
	{"geometry":{"coordinates":[-4.520572,48.402676],"type":"Point"},"properties":{"osm_id":"1831830377","tag":{"amenity":"waste_basket"}},"type":"Feature"},
	{"geometry":{"coordinates":[-4.521143,48.402618],"type":"Point"},"properties":{"osm_id":"1831832973","tag":{"amenity":"waste_basket"}},"type":"Feature"},
	{"geometry":{"coordinates":[-4.519189,48.402267],"type":"Point"},"properties":{"osm_id":"1831850710","tag":{"amenity":"waste_basket"}},"type":"Feature"},
	{"geometry":{"coordinates":[-4.518797,48.402342],"type":"Point"},"properties":{"osm_id":"1831850775","tag":{"amenity":"waste_basket"}},"type":"Feature"},
	{"geometry":{"coordinates":[-4.518838,48.402462],"type":"Point"},"properties":{"osm_id":"1831850818","tag":{"amenity":"waste_basket"}},"type":"Feature"},
	{"geometry":{"coordinates":[-4.563141,48.425342],"type":"Point"},"properties":{"osm_id":"2039088013","tag":{"amenity":"recycling","recycling_type":"container"}},"type":"Feature"},
	{"geometry":{"coordinates":[-4.565822,48.424706],"type":"Point"},"properties":{"osm_id":"2517338079","tag":{"amenity":"recycling","recycling_type":"container"}},"type":"Feature"},
	{"geometry":{"coordinates":[-4.489227,48.402448],"type":"Point"},"properties":{"osm_id":"2690029935","tag":{"amenity":"waste_basket"}},"type":"Feature"},
	{"geometry":{"coordinates":[-4.489158,48.402694],"type":"Point"},"properties":{"osm_id":"2690029937","tag":{"amenity":"waste_basket"}},"type":"Feature"},
	{"geometry":{"coordinates":[-4.553204,48.415332],"type":"Point"},"properties":{"osm_id":"3455210162","tag":{"amenity":"recycling","recycling_type":"container"}},"type":"Feature"},
	{"geometry":{"coordinates":[-4.49087,48.416341],"type":"Point"},"properties":{"osm_id":"3726081297","tag":{"amenity":"waste_basket"}},"type":"Feature"},
	{"geometry":{"coordinates":[-4.483137,48.414559],"type":"Point"},"properties":{"osm_id":"3889010164","tag":{"amenity":"recycling","recycling:glass":"yes","recycling_type":"container"}},"type":"Feature"},
	{"geometry":{"coordinates":[-4.485366,48.403877],"type":"Point"},"properties":{"osm_id":"4079866519","tag":{"amenity":"recycling","recycling_type":"container"}},"type":"Feature"},
	{"geometry":{"coordinates":[-4.486436,48.404173],"type":"Point"},"properties":{"osm_id":"4079866520","tag":{"amenity":"recycling","recycling_type":"container"}},"type":"Feature"},
	{"geometry":{"coordinates":[-4.486451,48.404289],"type":"Point"},"properties":{"osm_id":"4079866521","tag":{"amenity":"recycling","recycling_type":"container"}},"type":"Feature"},
	{"geometry":{"coordinates":[-4.486567,48.404717],"type":"Point"},"properties":{"osm_id":"4079866523","tag":{"amenity":"recycling","recycling_type":"container"}},"type":"Feature"},
	{"geometry":{"coordinates":[-4.485437,48.405659],"type":"Point"},"properties":{"osm_id":"4079866529","tag":{"amenity":"recycling","recycling_type":"container"}},"type":"Feature"},
	{"geometry":{"coordinates":[-4.539546,48.410794],"type":"Point"},"properties":{"osm_id":"4160868628","tag":{"amenity":"waste_basket"}},"type":"Feature"},
	{"geometry":{"coordinates":[-4.507587,48.40322],"type":"Point"},"properties":{"osm_id":"4427415589","tag":{"amenity":"waste_disposal"}},"type":"Feature"},
	{"geometry":{"coordinates":[-4.500106,48.409102],"type":"Point"},"properties":{"osm_id":"5298207842","tag":{"amenity":"waste_disposal","location":"underground"}},"type":"Feature"},
	{"geometry":{"coordinates":[-4.504612,48.401032],"type":"Point"},"properties":{"osm_id":"6077559340","tag":{"amenity":"waste_disposal"}},"type":"Feature"},
	{"geometry":{"coordinates":[-4.505292,48.400177],"type":"Point"},"properties":{"osm_id":"6077559379","tag":{"amenity":"waste_disposal"}},"type":"Feature"},
	{"geometry":{"coordinates":[-4.505364,48.400135],"type":"Point"},"properties":{"osm_id":"6077559380","tag":{"amenity":"waste_disposal"}},"type":"Feature"},
	{"geometry":{"coordinates":[-4.490547,48.410479],"type":"Point"},"properties":{"osm_id":"6305750846","tag":{"amenity":"waste_basket"}},"type":"Feature"},
	{"geometry":{"coordinates":[-4.495495,48.416455],"type":"Point"},"properties":{"osm_id":"6808164146","tag":{"amenity":"waste_basket"}},"type":"Feature"},
	{"geometry":{"coordinates":[-4.501532,48.407865],"type":"Point"},"properties":{"osm_id":"6819881094","tag":{"amenity":"waste_basket"}},"type":"Feature"},
	{"geometry":{"coordinates":[-4.488601,48.400988],"type":"Point"},"properties":{"osm_id":"7548829584","tag":{"amenity":"recycling","recycling_type":"container"}},"type":"Feature"}
]
}
