{
"type": "FeatureCollection",
"features": [
	{"geometry":{"coordinates":[-4.520185,43.371488],"type":"Point"},"properties":{"osm_id":"4200086770","tag":{"amenity":"recycling","recycling_type":"container"}},"type":"Feature"},
	{"geometry":{"coordinates":[-4.520314,43.366201],"type":"Point"},"properties":{"osm_id":"5634953426","tag":{"amenity":"waste_basket"}},"type":"Feature"},
	{"geometry":{"coordinates":[-4.53553,43.335161],"type":"Point"},"properties":{"osm_id":"5634953429","tag":{"amenity":"recycling","recycling:glass_bottles":"yes","recycling:paper":"yes","recycling:plastic":"yes","recycling:waste":"yes","recycling_type":"container"}},"type":"Feature"},
	{"geometry":{"coordinates":[-4.519619,43.366261],"type":"Point"},"properties":{"osm_id":"5634969325","tag":{"amenity":"waste_disposal"}},"type":"Feature"},
	{"geometry":{"coordinates":[-4.487347,43.374768],"type":"Point"},"properties":{"osm_id":"8148453546","tag":{"amenity":"recycling","recycling:paper":"yes","recycling_type":"container"}},"type":"Feature"},
	{"geometry":{"coordinates":[-4.487355,43.374747],"type":"Point"},"properties":{"osm_id":"8148453547","tag":{"amenity":"recycling","recycling:plastic":"yes","recycling_type":"container"}},"type":"Feature"},
	{"geometry":{"coordinates":[-4.487425,43.375135],"type":"Point"},"properties":{"osm_id":"8148453548","tag":{"amenity":"recycling","recycling:glass":"yes","recycling_type":"container"}},"type":"Feature"},
	{"geometry":{"coordinates":[-4.485196,43.375575],"type":"Point"},"properties":{"osm_id":"8148478441","tag":{"amenity":"recycling","recycling:paper":"yes","recycling_type":"container"}},"type":"Feature"},
	{"geometry":{"coordinates":[-4.485212,43.375584],"type":"Point"},"properties":{"osm_id":"8148478442","tag":{"amenity":"waste_disposal"}},"type":"Feature"},
	{"geometry":{"coordinates":[-4.485227,43.375594],"type":"Point"},"properties":{"osm_id":"8148478443","tag":{"amenity":"waste_disposal"}},"type":"Feature"},
	{"geometry":{"coordinates":[-4.485239,43.375602],"type":"Point"},"properties":{"osm_id":"8148478444","tag":{"amenity":"waste_disposal"}},"type":"Feature"},
	{"geometry":{"coordinates":[-4.485247,43.375613],"type":"Point"},"properties":{"osm_id":"8148478445","tag":{"amenity":"waste_disposal"}},"type":"Feature"}
]
}
