{
"type": "FeatureCollection",
"lastupdate": "2020-08-01T00:00:00Z",
"features": [
	{"geometry":{"coordinates":[-4.541818,40.543022],"type":"Point"},"properties":{"osm_id":"3787980049","tag":{"amenity":"recycling","recycling:cans":"yes","recycling:glass_bottles":"yes","recycling:paper":"yes","recycling:plastic":"yes","recycling_type":"container"}},"type":"Feature"},
	{"geometry":{"coordinates":[-4.538028,40.544035],"type":"Point"},"properties":{"osm_id":"3789257440","tag":{"addr:street":"Calle de la Paloma","amenity":"recycling","recycling_type":"container"}},"type":"Feature"},
	{"geometry":{"coordinates":[-4.539967,40.543246],"type":"Point"},"properties":{"osm_id":"3789327746","tag":{"addr:street":"Calle del Hogar","amenity":"recycling","recycling:cans":"yes","recycling:glass_bottles":"yes","recycling:paper":"yes","recycling:plastic":"yes","recycling_type":"container"}},"type":"Feature"},
	{"geometry":{"coordinates":[-4.538188,40.543065],"type":"Point"},"properties":{"osm_id":"4439749888","tag":{"amenity":"waste_basket"}},"type":"Feature"}
]
}
