{
"type": "FeatureCollection",
"features": [
	{"geometry":{"coordinates":[-86.555355,39.172337],"type":"Point"},"properties":{"name":"JB Salvage","osm_id":"913623394","tag":{"addr:city":"Bloomington","addr:housenumber":"1803","addr:postcode":"47404","addr:state":"IN","addr:street":"W Vernal Pike","amenity":"recycling","phone":"+1-812-332-0606","website":"http://jbsalvage.com/"}},"type":"Feature"},
	{"geometry":{"coordinates":[-86.512101,39.165448],"type":"Point"},"properties":{"osm_id":"5955479698","tag":{"amenity":"waste_basket","waste":"trash"}},"type":"Feature"},
	{"geometry":{"coordinates":[-86.555866,39.177256],"type":"Point"},"properties":{"osm_id":"8362776858","tag":{"access":"private","amenity":"waste_disposal","waste":"mixed"}},"type":"Feature"},
	{"geometry":{"coordinates":[-86.555346,39.176586],"type":"Point"},"properties":{"osm_id":"8362776859","tag":{"access":"private","amenity":"waste_disposal","waste":"mixed"}},"type":"Feature"},
	{"geometry":{"coordinates":[-86.540436,39.171672],"type":"Point"},"properties":{"name":"Bloomington Iron and Metal (BIM)","osm_id":"8464192187","tag":{"amenity":"recycling","recycling_type":"centre"}},"type":"Feature"}
]
}
