{
"type": "FeatureCollection",
"features": [
	{"geometry":{"coordinates":[151.947454,-27.569587],"type":"Point"},"properties":{"osm_id":"4691997644","tag":{"amenity":"waste_basket"}},"type":"Feature"},
	{"geometry":{"coordinates":[151.94731,-27.569621],"type":"Point"},"properties":{"osm_id":"4691997645","tag":{"amenity":"waste_basket"}},"type":"Feature"},
	{"geometry":{"coordinates":[151.947224,-27.56972],"type":"Point"},"properties":{"osm_id":"4691997646","tag":{"amenity":"waste_basket"}},"type":"Feature"},
	{"geometry":{"coordinates":[151.945981,-27.583971],"type":"Point"},"properties":{"osm_id":"5629674533","tag":{"amenity":"waste_basket","waste":"dog_excrement"}},"type":"Feature"},
	{"geometry":{"coordinates":[151.94577,-27.586715],"type":"Point"},"properties":{"osm_id":"5629674534","tag":{"amenity":"waste_basket"}},"type":"Feature"},
	{"geometry":{"coordinates":[151.954663,-27.568581],"type":"Point"},"properties":{"name":"TOMRA Recycling Centre Toowoomba","osm_id":"6856383123","tag":{"amenity":"recycling","phone:AU":"1300 118 888","recycling:cans":"yes","recycling:glass_bottles":"yes","recycling:plastic_bottles":"yes","recycling_type":"centre","website":"https://www.mytomra.com.au/"}},"type":"Feature"},
	{"geometry":{"coordinates":[151.959473,-27.584497],"type":"Point"},"properties":{"osm_id":"7450452713","tag":{"amenity":"waste_basket"}},"type":"Feature"},
	{"geometry":{"coordinates":[151.936727,-27.582154],"type":"Point"},"properties":{"osm_id":"7499929958","tag":{"amenity":"waste_basket"}},"type":"Feature"}
]
}
