{
"type": "FeatureCollection",
"features": [
	{"geometry":{"coordinates":[47.205655,56.123875],"type":"Point"},"properties":{"osm_id":"2392609185","tag":{"amenity":"waste_disposal"}},"type":"Feature"},
	{"geometry":{"coordinates":[47.197875,56.139529],"type":"Point"},"properties":{"osm_id":"4898952729","tag":{"amenity":"waste_disposal"}},"type":"Feature"},
	{"geometry":{"coordinates":[47.249619,56.15224],"type":"Point"},"properties":{"osm_id":"5058314454","tag":{"amenity":"waste_disposal"}},"type":"Feature"},
	{"geometry":{"coordinates":[47.237468,56.152192],"type":"Point"},"properties":{"osm_id":"5058314782","tag":{"amenity":"waste_disposal"}},"type":"Feature"},
	{"geometry":{"coordinates":[47.251925,56.124398],"type":"Point"},"properties":{"osm_id":"5242866609","tag":{"amenity":"recycling","operator":"\u00d0\u009e\u00d0\u009e\u00d0\u009e \u00c2\u00ab\u00d0\u00a3\u00d1\u0080\u00d0\u00b0\u00d0\u00bb\u00d1\u0082\u00d0\u00b5\u00d0\u00bb\u00d0\u00b5\u00d0\u00ba\u00d0\u00be\u00d0\u00bc-\u00d0\u00a1\u00c2\u00bb","recycling:batteries":"yes","recycling_type":"container"}},"type":"Feature"},
	{"geometry":{"coordinates":[47.267694,56.128154],"type":"Point"},"properties":{"osm_id":"5242889143","tag":{"amenity":"recycling","operator":"\u00d0\u009e\u00d0\u009e\u00d0\u009e \u00c2\u00ab\u00d0\u00a3\u00d1\u0080\u00d0\u00b0\u00d0\u00bb\u00d1\u0082\u00d0\u00b5\u00d0\u00bb\u00d0\u00b5\u00d0\u00ba\u00d0\u00be\u00d0\u00bc-\u00d0\u00a1\u00c2\u00bb","recycling:batteries":"yes","recycling_type":"container"}},"type":"Feature"},
	{"geometry":{"coordinates":[47.214796,56.144722],"type":"Point"},"properties":{"osm_id":"5242892699","tag":{"amenity":"recycling","operator":"\u00d0\u009e\u00d0\u009e\u00d0\u009e \u00c2\u00ab\u00d0\u00a3\u00d1\u0080\u00d0\u00b0\u00d0\u00bb\u00d1\u0082\u00d0\u00b5\u00d0\u00bb\u00d0\u00b5\u00d0\u00ba\u00d0\u00be\u00d0\u00bc-\u00d0\u00a1\u00c2\u00bb","recycling:batteries":"yes","recycling_type":"container"}},"type":"Feature"},
	{"geometry":{"coordinates":[47.232483,56.146035],"type":"Point"},"properties":{"osm_id":"5242915505","tag":{"amenity":"recycling","operator":"\u00d0\u00a1\u00d0\u00b1\u00d0\u00b5\u00d1\u0080\u00d0\u00b1\u00d0\u00b0\u00d0\u00bd\u00d0\u00ba","recycling:batteries":"yes","recycling_type":"container"}},"type":"Feature"},
	{"geometry":{"coordinates":[47.245164,56.133923],"type":"Point"},"properties":{"osm_id":"5242917278","tag":{"amenity":"recycling","operator":"\u00d0\u009e\u00d0\u009e\u00d0\u009e \u00c2\u00ab\u00d0\u00a3\u00d1\u0080\u00d0\u00b0\u00d0\u00bb\u00d1\u0082\u00d0\u00b5\u00d0\u00bb\u00d0\u00b5\u00d0\u00ba\u00d0\u00be\u00d0\u00bc-\u00d0\u00a1\u00c2\u00bb","recycling:batteries":"yes","recycling_type":"container"}},"type":"Feature"},
	{"geometry":{"coordinates":[47.276898,56.126664],"type":"Point"},"properties":{"osm_id":"5242929647","tag":{"amenity":"recycling","operator":"\u00d0\u00a1\u00d0\u00b1\u00d0\u00b5\u00d1\u0080\u00d0\u00b1\u00d0\u00b0\u00d0\u00bd\u00d0\u00ba","recycling:batteries":"yes","recycling_type":"container"}},"type":"Feature"},
	{"geometry":{"coordinates":[47.230273,56.149444],"type":"Point"},"properties":{"osm_id":"5289204308","tag":{"amenity":"recycling","operator":"\u00d0\u00a2\u00d0\u00a1\u00d0\u0096 \"\u00d0\u00a1\u00d1\u0082\u00d0\u00b0\u00d1\u0080\u00d1\u008b\u00d0\u00b9 \u00d0\u00b3\u00d0\u00be\u00d1\u0080\u00d0\u00be\u00d0\u00b4\"","recycling:low_energy_bulbs":"yes","recycling_type":"container"}},"type":"Feature"},
	{"geometry":{"coordinates":[47.214895,56.148446],"type":"Point"},"properties":{"osm_id":"5289204318","tag":{"amenity":"recycling","operator":"\u00d0\u00a2\u00d0\u00a1\u00d0\u0096 \"\u00d0\u009e\u00d1\u0082\u00d1\u0080\u00d0\u00b0\u00d0\u00b4\u00d0\u00b0\"","recycling:low_energy_bulbs":"yes","recycling_type":"container"}},"type":"Feature"},
	{"geometry":{"coordinates":[47.19859,56.148373],"type":"Point"},"properties":{"osm_id":"5289210638","tag":{"amenity":"recycling","operator":"\u00d0\u00a2\u00d0\u00a1\u00d0\u0096 \u00c2\u00ab\u00d0\u009a\u00d0\u00be\u00d0\u00bc\u00d1\u0084\u00d0\u00be\u00d1\u0080\u00d1\u0082\u00d0\u00bd\u00d1\u008b\u00d0\u00b9 \u00d0\u00b4\u00d0\u00be\u00d0\u00bc\u00c2\u00bb","recycling:low_energy_bulbs":"yes","recycling_type":"container"}},"type":"Feature"},
	{"geometry":{"coordinates":[47.204436,56.152354],"type":"Point"},"properties":{"osm_id":"5289210721","tag":{"amenity":"recycling","operator":"\u00d0\u00a2\u00d0\u00a1\u00d0\u0096 \u00c2\u00ab\u00d0\u00a6\u00d0\u00b5\u00d0\u00bd\u00d1\u0082\u00d1\u0080 \u00d0\u009f\u00d0\u00bb\u00d1\u008e\u00d1\u0081\u00c2\u00bb","recycling:low_energy_bulbs":"yes","recycling_type":"container"}},"type":"Feature"},
	{"geometry":{"coordinates":[47.219982,56.146736],"type":"Point"},"properties":{"osm_id":"5445521178","tag":{"amenity":"waste_disposal"}},"type":"Feature"},
	{"geometry":{"coordinates":[47.222591,56.148915],"type":"Point"},"properties":{"osm_id":"5445522286","tag":{"amenity":"waste_disposal"}},"type":"Feature"},
	{"geometry":{"coordinates":[47.214298,56.145914],"type":"Point"},"properties":{"osm_id":"5445522502","tag":{"amenity":"waste_disposal"}},"type":"Feature"},
	{"geometry":{"coordinates":[47.217818,56.147178],"type":"Point"},"properties":{"osm_id":"5445525051","tag":{"amenity":"waste_disposal"}},"type":"Feature"},
	{"geometry":{"coordinates":[47.251136,56.152818],"type":"Point"},"properties":{"osm_id":"5477503075","tag":{"amenity":"waste_disposal"}},"type":"Feature"},
	{"geometry":{"coordinates":[47.215267,56.132811],"type":"Point"},"properties":{"osm_id":"5500328710","tag":{"amenity":"waste_disposal"}},"type":"Feature"},
	{"geometry":{"coordinates":[47.21135,56.132072],"type":"Point"},"properties":{"osm_id":"5500337809","tag":{"amenity":"waste_disposal"}},"type":"Feature"},
	{"geometry":{"coordinates":[47.223436,56.134314],"type":"Point"},"properties":{"osm_id":"5500337810","tag":{"amenity":"waste_disposal"}},"type":"Feature"},
	{"geometry":{"coordinates":[47.221717,56.133036],"type":"Point"},"properties":{"osm_id":"5500364584","tag":{"amenity":"waste_disposal"}},"type":"Feature"},
	{"geometry":{"coordinates":[47.213067,56.129262],"type":"Point"},"properties":{"osm_id":"5500541115","tag":{"amenity":"waste_disposal"}},"type":"Feature"},
	{"geometry":{"coordinates":[47.22221,56.151048],"type":"Point"},"properties":{"osm_id":"5501332708","tag":{"amenity":"waste_disposal"}},"type":"Feature"},
	{"geometry":{"coordinates":[47.256944,56.134291],"type":"Point"},"properties":{"osm_id":"5510624366","tag":{"amenity":"recycling","location":"overground","recycling:batteries":"yes","recycling_type":"container"}},"type":"Feature"},
	{"geometry":{"coordinates":[47.256909,56.1343],"type":"Point"},"properties":{"name":"\u00d0\u009e\u00d1\u0080\u00d0\u00b3\u00d0\u00b0\u00d0\u00bd\u00d0\u00b8\u00d0\u00ba\u00d0\u00b0","osm_id":"5510637832","tag":{"amenity":"recycling","description":"\u00d0\u00a1\u00d0\u00be\u00d0\u00bb\u00d0\u00b5\u00d0\u00bd\u00d0\u00b0\u00d1\u008f \u00d0\u00bf\u00d0\u00b5\u00d1\u0089\u00d0\u00b5\u00d1\u0080\u00d0\u00b0","location":"overground","recycling:batteries":"yes","recycling_type":"container","website":"https://vk.com/club84442928"}},"type":"Feature"},
	{"geometry":{"coordinates":[47.206621,56.12691],"type":"Point"},"properties":{"osm_id":"5510693124","tag":{"amenity":"waste_disposal"}},"type":"Feature"},
	{"geometry":{"coordinates":[47.216357,56.145134],"type":"Point"},"properties":{"osm_id":"5511776710","tag":{"amenity":"waste_disposal"}},"type":"Feature"},
	{"geometry":{"coordinates":[47.204715,56.128144],"type":"Point"},"properties":{"osm_id":"5514415548","tag":{"amenity":"waste_disposal"}},"type":"Feature"},
	{"geometry":{"coordinates":[47.205115,56.127767],"type":"Point"},"properties":{"osm_id":"5514415549","tag":{"amenity":"waste_disposal"}},"type":"Feature"},
	{"geometry":{"coordinates":[47.22041,56.148483],"type":"Point"},"properties":{"osm_id":"5520541652","tag":{"amenity":"waste_disposal"}},"type":"Feature"},
	{"geometry":{"coordinates":[47.220797,56.148732],"type":"Point"},"properties":{"osm_id":"5520541653","tag":{"amenity":"waste_disposal"}},"type":"Feature"},
	{"geometry":{"coordinates":[47.211916,56.141759],"type":"Point"},"properties":{"osm_id":"5524808717","tag":{"amenity":"waste_disposal"}},"type":"Feature"},
	{"geometry":{"coordinates":[47.255478,56.144083],"type":"Point"},"properties":{"osm_id":"5537105074","tag":{"amenity":"waste_disposal"}},"type":"Feature"},
	{"geometry":{"coordinates":[47.219466,56.149364],"type":"Point"},"properties":{"osm_id":"5553875018","tag":{"amenity":"waste_disposal"}},"type":"Feature"},
	{"geometry":{"coordinates":[47.261881,56.146642],"type":"Point"},"properties":{"osm_id":"5606517150","tag":{"amenity":"waste_disposal"}},"type":"Feature"},
	{"geometry":{"coordinates":[47.258633,56.146397],"type":"Point"},"properties":{"osm_id":"5606522228","tag":{"amenity":"waste_disposal"}},"type":"Feature"},
	{"geometry":{"coordinates":[47.271658,56.146826],"type":"Point"},"properties":{"osm_id":"5608500941","tag":{"amenity":"waste_disposal"}},"type":"Feature"},
	{"geometry":{"coordinates":[47.211258,56.144913],"type":"Point"},"properties":{"osm_id":"5622196423","tag":{"amenity":"waste_disposal"}},"type":"Feature"},
	{"geometry":{"coordinates":[47.255645,56.121583],"type":"Point"},"properties":{"osm_id":"5731942453","tag":{"amenity":"waste_disposal"}},"type":"Feature"},
	{"geometry":{"coordinates":[47.252034,56.152767],"type":"Point"},"properties":{"osm_id":"5839937795","tag":{"amenity":"recycling","location":"overground","recycling:bottles":"yes","recycling:paper":"yes","recycling_type":"container"}},"type":"Feature"},
	{"geometry":{"coordinates":[47.226875,56.155068],"type":"Point"},"properties":{"osm_id":"5839952250","tag":{"amenity":"waste_disposal"}},"type":"Feature"},
	{"geometry":{"coordinates":[47.227055,56.155143],"type":"Point"},"properties":{"osm_id":"5839964351","tag":{"amenity":"waste_basket"}},"type":"Feature"},
	{"geometry":{"coordinates":[47.226226,56.15518],"type":"Point"},"properties":{"osm_id":"5839966404","tag":{"amenity":"waste_basket"}},"type":"Feature"},
	{"geometry":{"coordinates":[47.225374,56.155204],"type":"Point"},"properties":{"osm_id":"5839966912","tag":{"amenity":"waste_basket"}},"type":"Feature"},
	{"geometry":{"coordinates":[47.223297,56.155267],"type":"Point"},"properties":{"osm_id":"5843481891","tag":{"amenity":"waste_basket"}},"type":"Feature"},
	{"geometry":{"coordinates":[47.224139,56.155243],"type":"Point"},"properties":{"osm_id":"5843481892","tag":{"amenity":"waste_basket"}},"type":"Feature"},
	{"geometry":{"coordinates":[47.222573,56.155282],"type":"Point"},"properties":{"osm_id":"5843481893","tag":{"amenity":"waste_basket"}},"type":"Feature"},
	{"geometry":{"coordinates":[47.216106,56.15556],"type":"Point"},"properties":{"osm_id":"5843481894","tag":{"amenity":"waste_basket"}},"type":"Feature"},
	{"geometry":{"coordinates":[47.221808,56.155302],"type":"Point"},"properties":{"osm_id":"5843481895","tag":{"amenity":"waste_basket"}},"type":"Feature"},
	{"geometry":{"coordinates":[47.220982,56.155328],"type":"Point"},"properties":{"osm_id":"5843481896","tag":{"amenity":"waste_basket"}},"type":"Feature"},
	{"geometry":{"coordinates":[47.22474,56.155224],"type":"Point"},"properties":{"osm_id":"5843481897","tag":{"amenity":"waste_basket"}},"type":"Feature"},
	{"geometry":{"coordinates":[47.219998,56.155352],"type":"Point"},"properties":{"osm_id":"5843481898","tag":{"amenity":"waste_basket"}},"type":"Feature"},
	{"geometry":{"coordinates":[47.218391,56.155426],"type":"Point"},"properties":{"osm_id":"5843481899","tag":{"amenity":"waste_basket"}},"type":"Feature"},
	{"geometry":{"coordinates":[47.219102,56.155388],"type":"Point"},"properties":{"osm_id":"5843481900","tag":{"amenity":"waste_basket"}},"type":"Feature"},
	{"geometry":{"coordinates":[47.216818,56.155523],"type":"Point"},"properties":{"osm_id":"5843481901","tag":{"amenity":"waste_basket"}},"type":"Feature"},
	{"geometry":{"coordinates":[47.21778,56.155458],"type":"Point"},"properties":{"osm_id":"5843481902","tag":{"amenity":"waste_basket"}},"type":"Feature"},
	{"geometry":{"coordinates":[47.209829,56.139568],"type":"Point"},"properties":{"osm_id":"5979055574","tag":{"amenity":"waste_disposal"}},"type":"Feature"},
	{"geometry":{"coordinates":[47.210223,56.139166],"type":"Point"},"properties":{"osm_id":"5979055575","tag":{"amenity":"waste_disposal"}},"type":"Feature"},
	{"geometry":{"coordinates":[47.208939,56.140479],"type":"Point"},"properties":{"osm_id":"5979064922","tag":{"amenity":"waste_disposal"}},"type":"Feature"},
	{"geometry":{"coordinates":[47.220407,56.151518],"type":"Point"},"properties":{"osm_id":"6036083875","tag":{"amenity":"waste_disposal"}},"type":"Feature"},
	{"geometry":{"coordinates":[47.200761,56.139326],"type":"Point"},"properties":{"osm_id":"6069923830","tag":{"amenity":"waste_disposal"}},"type":"Feature"},
	{"geometry":{"coordinates":[47.209197,56.1287],"type":"Point"},"properties":{"osm_id":"6106598611","tag":{"amenity":"waste_disposal"}},"type":"Feature"},
	{"geometry":{"coordinates":[47.215961,56.149981],"type":"Point"},"properties":{"osm_id":"7705603361","tag":{"amenity":"waste_disposal"}},"type":"Feature"},
	{"geometry":{"coordinates":[47.273977,56.131409],"type":"Point"},"properties":{"osm_id":"7728933017","tag":{"amenity":"waste_disposal"}},"type":"Feature"},
	{"geometry":{"coordinates":[47.273523,56.1315],"type":"Point"},"properties":{"osm_id":"7728933018","tag":{"amenity":"waste_disposal"}},"type":"Feature"}
]
}
