{
"type": "FeatureCollection",
"features": [
	{"geometry":{"coordinates":[3.257413,51.208238],"type":"Point"},"properties":{"osm_id":"807751699","tag":{"amenity":"recycling","location":"overground","recycling:glass_bottles":"yes","recycling_type":"container"}},"type":"Feature"},
	{"geometry":{"coordinates":[3.28622,51.188278],"type":"Point"},"properties":{"osm_id":"2144985231","tag":{"amenity":"waste_basket"}},"type":"Feature"},
	{"geometry":{"coordinates":[3.272211,51.212836],"type":"Point"},"properties":{"osm_id":"2177424268","tag":{"amenity":"waste_basket"}},"type":"Feature"},
	{"geometry":{"coordinates":[3.322699,51.204335],"type":"Point"},"properties":{"osm_id":"3661561326","tag":{"addr:city":"Sijsele","addr:postcode":"8340","addr:street":"Kerkakker","amenity":"recycling","recycling:cans":"no","recycling:clothes":"no","recycling:glass":"yes","recycling:paper":"no"}},"type":"Feature"},
	{"geometry":{"coordinates":[3.309682,51.204104],"type":"Point"},"properties":{"osm_id":"3661584029","tag":{"amenity":"recycling","colour":"green","operator":"Vlaams Internationaal Centrum","recycling:cans":"no","recycling:clothes":"yes","recycling:curtains":"yes","recycling:paper":"no","recycling:shoes":"yes","recycling_type":"container"}},"type":"Feature"},
	{"geometry":{"coordinates":[3.322189,51.201394],"type":"Point"},"properties":{"osm_id":"3664301264","tag":{"amenity":"waste_basket"}},"type":"Feature"},
	{"geometry":{"coordinates":[3.323276,51.201402],"type":"Point"},"properties":{"osm_id":"3664303022","tag":{"amenity":"waste_basket"}},"type":"Feature"},
	{"geometry":{"coordinates":[3.323604,51.201445],"type":"Point"},"properties":{"osm_id":"3664303023","tag":{"amenity":"waste_basket"}},"type":"Feature"},
	{"geometry":{"coordinates":[3.332074,51.201999],"type":"Point"},"properties":{"osm_id":"3664305606","tag":{"addr:city":"Sijsele","addr:housenumber":"5","addr:postcode":"8340","addr:street":"Dorpsstraat","amenity":"recycling","recycling:cans":"no","recycling:clothes":"yes","recycling:glass":"no","recycling:paper":"no"}},"type":"Feature"},
	{"geometry":{"coordinates":[3.332275,51.201864],"type":"Point"},"properties":{"osm_id":"3664305607","tag":{"amenity":"waste_basket"}},"type":"Feature"},
	{"geometry":{"coordinates":[3.315503,51.202637],"type":"Point"},"properties":{"osm_id":"3664306379","tag":{"amenity":"waste_basket"}},"type":"Feature"},
	{"geometry":{"coordinates":[3.314703,51.20302],"type":"Point"},"properties":{"osm_id":"3664314694","tag":{"amenity":"waste_basket"}},"type":"Feature"},
	{"geometry":{"coordinates":[3.31066,51.21382],"type":"Point"},"properties":{"osm_id":"3664321573","tag":{"amenity":"recycling","recycling:cans":"no","recycling:clothes":"no","recycling:glass":"yes","recycling:paper":"no"}},"type":"Feature"},
	{"geometry":{"coordinates":[3.322259,51.203921],"type":"Point"},"properties":{"osm_id":"3664439629","tag":{"amenity":"waste_basket"}},"type":"Feature"},
	{"geometry":{"coordinates":[3.316969,51.199079],"type":"Point"},"properties":{"osm_id":"3715141695","tag":{"addr:city":"Sijsele","addr:postcode":"8340","addr:street":"Kerkweg","amenity":"recycling","operator":"stad Damme","recycling:cans":"no","recycling:clothes":"no","recycling:glass":"no","recycling:paper":"no"}},"type":"Feature"},
	{"geometry":{"coordinates":[3.271349,51.200944],"type":"Point"},"properties":{"osm_id":"3845324676","tag":{"amenity":"recycling","location":"underground","recycling:glass_bottles":"yes","recycling_type":"container"}},"type":"Feature"},
	{"geometry":{"coordinates":[3.278528,51.188282],"type":"Point"},"properties":{"osm_id":"3846439387","tag":{"addr:city":"Brugge","addr:postcode":"8310","addr:street":"Kerkdreef","amenity":"recycling","recycling:cans":"no","recycling:clothes":"no","recycling:glass":"no","recycling:glass_bottles":"yes","recycling:paper":"no","recycling_type":"container"}},"type":"Feature"},
	{"geometry":{"coordinates":[3.271759,51.187929],"type":"Point"},"properties":{"osm_id":"3846449918","tag":{"amenity":"recycling","recycling:glass_bottles":"yes","recycling_type":"container"}},"type":"Feature"},
	{"geometry":{"coordinates":[3.321409,51.201719],"type":"Point"},"properties":{"osm_id":"5174838115","tag":{"amenity":"waste_basket"}},"type":"Feature"},
	{"geometry":{"coordinates":[3.284391,51.224268],"type":"Point"},"properties":{"osm_id":"5600006757","tag":{"amenity":"recycling","location":"surface","recycling:glass_bottles":"yes","recycling_type":"container"}},"type":"Feature"},
	{"geometry":{"coordinates":[3.261081,51.212957],"type":"Point"},"properties":{"osm_id":"5685444348","tag":{"amenity":"recycling","recycling:glass_bottles":"yes","recycling:glass_brown":"yes","recycling:glass_green":"yes","recycling:glass_jars":"yes","recycling:glass_white":"yes","recycling_type":"container"}},"type":"Feature"},
	{"geometry":{"coordinates":[3.278347,51.212388],"type":"Point"},"properties":{"osm_id":"5697630066","tag":{"amenity":"recycling","recycling:glass_bottles":"yes","recycling_type":"container"}},"type":"Feature"},
	{"geometry":{"coordinates":[3.278354,51.212408],"type":"Point"},"properties":{"osm_id":"5697630067","tag":{"amenity":"recycling","recycling:glass_bottles":"yes","recycling_type":"container"}},"type":"Feature"},
	{"geometry":{"coordinates":[3.253924,51.194762],"type":"Point"},"properties":{"osm_id":"6283516197","tag":{"amenity":"waste_basket"}},"type":"Feature"},
	{"geometry":{"coordinates":[3.279809,51.216536],"type":"Point"},"properties":{"osm_id":"6456303973","tag":{"amenity":"recycling","recycling:glass_bottles":"yes","recycling_type":"container"}},"type":"Feature"},
	{"geometry":{"coordinates":[3.279778,51.216578],"type":"Point"},"properties":{"osm_id":"6456303974","tag":{"amenity":"recycling","recycling:clothes":"yes","recycling_type":"container"}},"type":"Feature"},
	{"geometry":{"coordinates":[3.265919,51.202069],"type":"Point"},"properties":{"osm_id":"6498858595","tag":{"amenity":"waste_basket"}},"type":"Feature"},
	{"geometry":{"coordinates":[3.263536,51.207122],"type":"Point"},"properties":{"osm_id":"7231302742","tag":{"amenity":"waste_disposal","waste":"trash"}},"type":"Feature"},
	{"geometry":{"coordinates":[3.276973,51.216424],"type":"Point"},"properties":{"osm_id":"7449687881","tag":{"amenity":"waste_basket"}},"type":"Feature"}
]
}
