{
"type": "FeatureCollection",
"features": [
	{"geometry":{"coordinates":[3.291659,51.111077],"type":"Point"},"properties":{"osm_id":"2707250680","tag":{"amenity":"waste_basket"}},"type":"Feature"},
	{"geometry":{"coordinates":[3.291408,51.114102],"type":"Point"},"properties":{"osm_id":"2707250682","tag":{"amenity":"waste_basket"}},"type":"Feature"},
	{"geometry":{"coordinates":[3.300888,51.115116],"type":"Point"},"properties":{"osm_id":"2707250685","tag":{"amenity":"waste_basket"}},"type":"Feature"},
	{"geometry":{"coordinates":[3.294243,51.115973],"type":"Point"},"properties":{"osm_id":"4112318489","tag":{"amenity":"waste_basket"}},"type":"Feature"},
	{"geometry":{"coordinates":[3.292032,51.117862],"type":"Point"},"properties":{"osm_id":"5794189914","tag":{"amenity":"waste_basket"}},"type":"Feature"},
	{"geometry":{"coordinates":[3.292499,51.117723],"type":"Point"},"properties":{"osm_id":"5794189919","tag":{"amenity":"waste_basket"}},"type":"Feature"},
	{"geometry":{"coordinates":[3.292347,51.117744],"type":"Point"},"properties":{"osm_id":"5794189920","tag":{"amenity":"waste_basket"}},"type":"Feature"},
	{"geometry":{"coordinates":[3.336085,51.085492],"type":"Point"},"properties":{"osm_id":"5987163605","tag":{"amenity":"waste_basket"}},"type":"Feature"},
	{"geometry":{"coordinates":[3.294718,51.111354],"type":"Point"},"properties":{"osm_id":"7105572204","tag":{"amenity":"waste_basket"}},"type":"Feature"},
	{"geometry":{"coordinates":[3.256629,51.075904],"type":"Point"},"properties":{"osm_id":"7151753379","tag":{"amenity":"recycling","recycling:glass":"yes","recycling:glass_bottles":"yes","recycling_type":"container"}},"type":"Feature"},
	{"geometry":{"coordinates":[3.29425,51.115976],"type":"Point"},"properties":{"osm_id":"7203139078","tag":{"amenity":"recycling","recycling:PET":"yes","recycling:aerosol_cans":"yes","recycling:beverage_cartons":"yes","recycling:cans":"yes","recycling:plastic_bottles":"yes","recycling:plastic_packaging":"yes","recycling_type":"container"}},"type":"Feature"}
]
}
