{
"type": "FeatureCollection",
"features": [
	{"geometry":{"coordinates":[3.33549,50.892392],"type":"Point"},"properties":{"osm_id":"6512980948","tag":{"amenity":"waste_basket"}},"type":"Feature"},
	{"geometry":{"coordinates":[3.335393,50.892393],"type":"Point"},"properties":{"osm_id":"6512980949","tag":{"amenity":"waste_basket"}},"type":"Feature"},
	{"geometry":{"coordinates":[3.335587,50.893496],"type":"Point"},"properties":{"osm_id":"6532087992","tag":{"amenity":"recycling","colour":"green","opening_hours":"Mo-Su 08:00-20:00","operator":"IMOG","recycling:glass_bottles":"yes","recycling_type":"container","url":"https://www.imog.be/afval-inzamelen/een-glasbol-in-je-buurt/"}},"type":"Feature"},
	{"geometry":{"coordinates":[3.329748,50.896574],"type":"Point"},"properties":{"osm_id":"6532087995","tag":{"amenity":"recycling","colour":"green","opening_hours":"Mo-Su 08:00-20:00","operator":"IMOG","recycling:glass_bottles":"yes","recycling_type":"container","url":"https://www.imog.be/afval-inzamelen/een-glasbol-in-je-buurt/"}},"type":"Feature"},
	{"geometry":{"coordinates":[3.329325,50.892737],"type":"Point"},"properties":{"osm_id":"6532087996","tag":{"amenity":"recycling","colour":"green","opening_hours":"Mo-Su 08:00-20:00","operator":"IMOG","recycling:glass_bottles":"yes","recycling_type":"container","url":"https://www.imog.be/afval-inzamelen/een-glasbol-in-je-buurt/"}},"type":"Feature"},
	{"geometry":{"coordinates":[3.334045,50.891622],"type":"Point"},"properties":{"osm_id":"6533991747","tag":{"amenity":"recycling","colour":"gray","operator":"De Kringwinkel","recycling:clothes":"yes","recycling:shoes":"yes","recycling_type":"container"}},"type":"Feature"},
	{"geometry":{"coordinates":[3.334029,50.891615],"type":"Point"},"properties":{"osm_id":"6533991748","tag":{"amenity":"recycling","colour":"gray","operator":"De Kringwinkel","recycling:clothes":"yes","recycling:shoes":"yes","recycling_type":"container"}},"type":"Feature"},
	{"geometry":{"coordinates":[3.329285,50.892681],"type":"Point"},"properties":{"osm_id":"6533996211","tag":{"amenity":"recycling","recycling:clothes":"yes","recycling:shoes":"yes","recycling_type":"container"}},"type":"Feature"},
	{"geometry":{"coordinates":[3.329293,50.89269],"type":"Point"},"properties":{"osm_id":"6533996212","tag":{"amenity":"recycling","recycling:oils":"yes","recycling_type":"container"}},"type":"Feature"},
	{"geometry":{"coordinates":[3.323132,50.862363],"type":"Point"},"properties":{"osm_id":"6866434893","tag":{"amenity":"recycling","operator":"Vlaams Internationaal Centrum","recycling:clothes":"yes","recycling:curtains":"yes","recycling:shoes":"yes","recycling_type":"container"}},"type":"Feature"},
	{"geometry":{"coordinates":[3.323104,50.86236],"type":"Point"},"properties":{"osm_id":"6866441980","tag":{"amenity":"recycling","operator":"Vlaams Internationaal Centrum","recycling:clothes":"yes","recycling:curtains":"yes","recycling:shoes":"yes","recycling_type":"container"}},"type":"Feature"},
	{"geometry":{"coordinates":[3.270078,50.850894],"type":"Point"},"properties":{"osm_id":"6882336076","tag":{"amenity":"recycling","operator":"Vlaams Internationaal Centrum","recycling:clothes":"yes","recycling:curtains":"yes","recycling:shoes":"yes","recycling_type":"container"}},"type":"Feature"},
	{"geometry":{"coordinates":[3.312546,50.875846],"type":"Point"},"properties":{"osm_id":"7639847287","tag":{"amenity":"recycling","recycling:glass":"yes","recycling_type":"container"}},"type":"Feature"},
	{"geometry":{"coordinates":[3.312549,50.875821],"type":"Point"},"properties":{"osm_id":"7639847288","tag":{"amenity":"recycling","recycling:clothes":"yes","recycling_type":"container"}},"type":"Feature"},
	{"geometry":{"coordinates":[3.292348,50.848125],"type":"Point"},"properties":{"osm_id":"7653775282","tag":{"amenity":"waste_basket"}},"type":"Feature"},
	{"geometry":{"coordinates":[3.294982,50.849012],"type":"Point"},"properties":{"osm_id":"7653799705","tag":{"amenity":"waste_basket"}},"type":"Feature"},
	{"geometry":{"coordinates":[3.308644,50.873093],"type":"Point"},"properties":{"osm_id":"8227887219","tag":{"amenity":"waste_basket"}},"type":"Feature"},
	{"geometry":{"coordinates":[3.330302,50.852894],"type":"Point"},"properties":{"osm_id":"8414228061","tag":{"amenity":"recycling","recycling:glass_bottles":"yes","recycling_type":"container"}},"type":"Feature"},
	{"geometry":{"coordinates":[3.336267,50.893215],"type":"Point"},"properties":{"osm_id":"8669133453","tag":{"amenity":"waste_basket","colour":"yellow","material":"metal"}},"type":"Feature"}
]
}
