{
"type": "FeatureCollection",
"features": [
	{"geometry":{"coordinates":[3.261205,50.829415],"type":"Point"},"properties":{"osm_id":"3290702245","tag":{"amenity":"recycling","mapillary":"http://mapillary.com/map/im/RPlrUiba-_W3TAN4gnW2tg/photo","recycling:glass_bottles":"yes","recycling_type":"container"}},"type":"Feature"},
	{"geometry":{"coordinates":[3.289188,50.823428],"type":"Point"},"properties":{"osm_id":"3294859812","tag":{"amenity":"waste_basket"}},"type":"Feature"},
	{"geometry":{"coordinates":[3.267856,50.827663],"type":"Point"},"properties":{"osm_id":"3840914984","tag":{"amenity":"waste_basket"}},"type":"Feature"},
	{"geometry":{"coordinates":[3.268845,50.827763],"type":"Point"},"properties":{"osm_id":"3845571029","tag":{"amenity":"waste_basket"}},"type":"Feature"},
	{"geometry":{"coordinates":[3.270121,50.82776],"type":"Point"},"properties":{"osm_id":"3851827548","tag":{"amenity":"waste_basket"}},"type":"Feature"},
	{"geometry":{"coordinates":[3.268715,50.824067],"type":"Point"},"properties":{"osm_id":"3943751567","tag":{"amenity":"waste_basket"}},"type":"Feature"},
	{"geometry":{"coordinates":[3.269176,50.828805],"type":"Point"},"properties":{"osm_id":"4404674486","tag":{"amenity":"waste_basket"}},"type":"Feature"},
	{"geometry":{"coordinates":[3.265969,50.825298],"type":"Point"},"properties":{"osm_id":"5040722236","tag":{"amenity":"recycling","recycling:glass_bottles":"yes","recycling_type":"container"}},"type":"Feature"},
	{"geometry":{"coordinates":[3.265967,50.825322],"type":"Point"},"properties":{"osm_id":"5040722237","tag":{"amenity":"recycling","recycling:glass_bottles":"yes","recycling_type":"container"}},"type":"Feature"},
	{"geometry":{"coordinates":[3.272758,50.82203],"type":"Point"},"properties":{"osm_id":"5122687177","tag":{"amenity":"waste_basket"}},"type":"Feature"},
	{"geometry":{"coordinates":[3.272861,50.823267],"type":"Point"},"properties":{"osm_id":"5122759639","tag":{"amenity":"waste_basket"}},"type":"Feature"},
	{"geometry":{"coordinates":[3.264397,50.824868],"type":"Point"},"properties":{"osm_id":"5200782939","tag":{"amenity":"waste_basket"}},"type":"Feature"},
	{"geometry":{"coordinates":[3.264375,50.825086],"type":"Point"},"properties":{"osm_id":"5200782940","tag":{"amenity":"waste_basket"}},"type":"Feature"},
	{"geometry":{"coordinates":[3.264471,50.824738],"type":"Point"},"properties":{"osm_id":"5200795975","tag":{"amenity":"waste_basket"}},"type":"Feature"},
	{"geometry":{"coordinates":[3.337843,50.815175],"type":"Point"},"properties":{"osm_id":"6553390692","tag":{"amenity":"waste_basket"}},"type":"Feature"},
	{"geometry":{"coordinates":[3.338858,50.814964],"type":"Point"},"properties":{"osm_id":"6553390791","tag":{"amenity":"waste_basket"}},"type":"Feature"},
	{"geometry":{"coordinates":[3.299146,50.832837],"type":"Point"},"properties":{"osm_id":"6866193753","tag":{"amenity":"recycling","operator":"Vlaams Internationaal Centrum","recycling:clothes":"yes","recycling:curtains":"yes","recycling:shoes":"yes","recycling_type":"container"}},"type":"Feature"},
	{"geometry":{"coordinates":[3.283416,50.806332],"type":"Point"},"properties":{"osm_id":"6892550277","tag":{"amenity":"waste_basket"}},"type":"Feature"},
	{"geometry":{"coordinates":[3.28332,50.806307],"type":"Point"},"properties":{"osm_id":"6892550278","tag":{"amenity":"waste_basket"}},"type":"Feature"},
	{"geometry":{"coordinates":[3.281821,50.806421],"type":"Point"},"properties":{"osm_id":"6892785951","tag":{"amenity":"waste_basket"}},"type":"Feature"},
	{"geometry":{"coordinates":[3.282981,50.806201],"type":"Point"},"properties":{"osm_id":"6892902073","tag":{"amenity":"waste_basket"}},"type":"Feature"},
	{"geometry":{"coordinates":[3.282776,50.806149],"type":"Point"},"properties":{"osm_id":"6892902074","tag":{"amenity":"waste_basket"}},"type":"Feature"},
	{"geometry":{"coordinates":[3.282769,50.806147],"type":"Point"},"properties":{"osm_id":"6892902075","tag":{"amenity":"waste_basket"}},"type":"Feature"},
	{"geometry":{"coordinates":[3.28214,50.806343],"type":"Point"},"properties":{"osm_id":"6892945446","tag":{"amenity":"waste_basket"}},"type":"Feature"},
	{"geometry":{"coordinates":[3.282132,50.806354],"type":"Point"},"properties":{"osm_id":"6892945447","tag":{"amenity":"waste_basket"}},"type":"Feature"},
	{"geometry":{"coordinates":[3.281989,50.806185],"type":"Point"},"properties":{"osm_id":"6892955330","tag":{"amenity":"waste_basket"}},"type":"Feature"},
	{"geometry":{"coordinates":[3.264167,50.835166],"type":"Point"},"properties":{"osm_id":"6927767583","tag":{"amenity":"waste_disposal"}},"type":"Feature"},
	{"geometry":{"coordinates":[3.26417,50.835183],"type":"Point"},"properties":{"osm_id":"6927767584","tag":{"amenity":"waste_disposal"}},"type":"Feature"},
	{"geometry":{"coordinates":[3.264171,50.835199],"type":"Point"},"properties":{"osm_id":"6927768585","tag":{"amenity":"waste_disposal"}},"type":"Feature"},
	{"geometry":{"coordinates":[3.264175,50.835214],"type":"Point"},"properties":{"osm_id":"6927768586","tag":{"amenity":"waste_disposal"}},"type":"Feature"},
	{"geometry":{"coordinates":[3.264154,50.835215],"type":"Point"},"properties":{"osm_id":"6927768587","tag":{"amenity":"waste_disposal"}},"type":"Feature"},
	{"geometry":{"coordinates":[3.264131,50.835216],"type":"Point"},"properties":{"osm_id":"6927768588","tag":{"amenity":"waste_disposal"}},"type":"Feature"},
	{"geometry":{"coordinates":[3.264108,50.835216],"type":"Point"},"properties":{"osm_id":"6927768589","tag":{"amenity":"waste_disposal"}},"type":"Feature"},
	{"geometry":{"coordinates":[3.2649,50.83427],"type":"Point"},"properties":{"osm_id":"6927818494","tag":{"amenity":"waste_disposal"}},"type":"Feature"},
	{"geometry":{"coordinates":[3.261216,50.832679],"type":"Point"},"properties":{"osm_id":"6928554449","tag":{"amenity":"waste_basket"}},"type":"Feature"},
	{"geometry":{"coordinates":[3.26116,50.832647],"type":"Point"},"properties":{"osm_id":"6928554450","tag":{"amenity":"recycling","recycling:clothes":"yes","recycling_type":"container"}},"type":"Feature"},
	{"geometry":{"coordinates":[3.261187,50.832658],"type":"Point"},"properties":{"osm_id":"6928554451","tag":{"amenity":"recycling","recycling:glass_bottles":"yes","recycling_type":"container"}},"type":"Feature"},
	{"geometry":{"coordinates":[3.263036,50.794308],"type":"Point"},"properties":{"osm_id":"7154494208","tag":{"amenity":"waste_basket"}},"type":"Feature"},
	{"geometry":{"coordinates":[3.258766,50.83021],"type":"Point"},"properties":{"osm_id":"7653446534","tag":{"amenity":"waste_basket"}},"type":"Feature"},
	{"geometry":{"coordinates":[3.256325,50.829872],"type":"Point"},"properties":{"osm_id":"7653458936","tag":{"amenity":"waste_basket"}},"type":"Feature"},
	{"geometry":{"coordinates":[3.260732,50.831132],"type":"Point"},"properties":{"osm_id":"7653468232","tag":{"amenity":"waste_basket"}},"type":"Feature"},
	{"geometry":{"coordinates":[3.263356,50.832437],"type":"Point"},"properties":{"osm_id":"7653477373","tag":{"amenity":"waste_basket"}},"type":"Feature"},
	{"geometry":{"coordinates":[3.25963,50.830556],"type":"Point"},"properties":{"osm_id":"7653479756","tag":{"amenity":"waste_basket"}},"type":"Feature"},
	{"geometry":{"coordinates":[3.265259,50.833064],"type":"Point"},"properties":{"osm_id":"7653502312","tag":{"amenity":"waste_basket"}},"type":"Feature"},
	{"geometry":{"coordinates":[3.267616,50.833888],"type":"Point"},"properties":{"osm_id":"7653560717","tag":{"amenity":"waste_basket"}},"type":"Feature"},
	{"geometry":{"coordinates":[3.287639,50.845877],"type":"Point"},"properties":{"osm_id":"7653687845","tag":{"amenity":"waste_basket"}},"type":"Feature"},
	{"geometry":{"coordinates":[3.283621,50.841232],"type":"Point"},"properties":{"osm_id":"7653691891","tag":{"amenity":"waste_basket"}},"type":"Feature"},
	{"geometry":{"coordinates":[3.286075,50.84439],"type":"Point"},"properties":{"osm_id":"7653717029","tag":{"amenity":"waste_basket"}},"type":"Feature"},
	{"geometry":{"coordinates":[3.288913,50.84545],"type":"Point"},"properties":{"osm_id":"7656259265","tag":{"amenity":"waste_basket"}},"type":"Feature"},
	{"geometry":{"coordinates":[3.287034,50.843683],"type":"Point"},"properties":{"osm_id":"7656262533","tag":{"amenity":"waste_basket"}},"type":"Feature"},
	{"geometry":{"coordinates":[3.283262,50.837301],"type":"Point"},"properties":{"osm_id":"7656338312","tag":{"amenity":"waste_basket"}},"type":"Feature"}
]
}
