{
"type": "FeatureCollection",
"lastupdate": "2020-08-04T00:00:00Z",
"features": [
	{"geometry":{"coordinates":[3.330078,48.777513],"type":"Point"},"properties":{"name":"\u00c3\u0089tablissements Gurhem","osm_id":"3754067826","tag":{"amenity":"recycling","contact:phone":"+33 1 64 04 09 47","opening_hours":"Mo-Fr 09:00-18:00","recycling:scrap_metal":"yes","recycling_type":"centre","website":"https://www.gurhem-achat-ferraille-metaux.fr/"}},"type":"Feature"},
	{"geometry":{"coordinates":[3.306452,48.781138],"type":"Point"},"properties":{"osm_id":"5085712074","tag":{"amenity":"recycling","recycling_type":"container"}},"type":"Feature"},
	{"geometry":{"coordinates":[3.30587,48.781021],"type":"Point"},"properties":{"osm_id":"5085712095","tag":{"amenity":"recycling","recycling_type":"container"}},"type":"Feature"},
	{"geometry":{"coordinates":[3.335602,48.777973],"type":"Point"},"properties":{"osm_id":"5212196454","tag":{"amenity":"recycling","recycling_type":"container"}},"type":"Feature"}
]
}
