{
"type": "FeatureCollection",
"features": [
	{"geometry":{"coordinates":[3.275216,48.206123],"type":"Point"},"properties":{"osm_id":"1309945968","tag":{"amenity":"recycling","location":"overground","recycling:glass":"yes","recycling:paper":"yes","recycling_type":"container"}},"type":"Feature"},
	{"geometry":{"coordinates":[3.277404,48.199495],"type":"Point"},"properties":{"osm_id":"1312848382","tag":{"amenity":"recycling","recycling:glass":"yes","recycling:paper":"yes"}},"type":"Feature"},
	{"geometry":{"coordinates":[3.296559,48.196561],"type":"Point"},"properties":{"osm_id":"1775940959","tag":{"amenity":"recycling","recycling:glass":"yes","recycling:paper":"yes","recycling_type":"container"}},"type":"Feature"},
	{"geometry":{"coordinates":[3.315297,48.194918],"type":"Point"},"properties":{"osm_id":"1871622900","tag":{"amenity":"recycling","recycling:clothes":"yes","recycling_type":"container"}},"type":"Feature"},
	{"geometry":{"coordinates":[3.280315,48.195211],"type":"Point"},"properties":{"osm_id":"2110378704","tag":{"amenity":"recycling","recycling:glass":"yes"}},"type":"Feature"},
	{"geometry":{"coordinates":[3.281305,48.199671],"type":"Point"},"properties":{"osm_id":"2174065133","tag":{"amenity":"waste_basket"}},"type":"Feature"},
	{"geometry":{"coordinates":[3.275518,48.197515],"type":"Point"},"properties":{"osm_id":"2174178576","tag":{"amenity":"waste_basket"}},"type":"Feature"},
	{"geometry":{"coordinates":[3.275037,48.19747],"type":"Point"},"properties":{"osm_id":"2182754411","tag":{"amenity":"waste_basket"}},"type":"Feature"},
	{"geometry":{"coordinates":[3.275401,48.197427],"type":"Point"},"properties":{"osm_id":"2182790192","tag":{"amenity":"waste_basket"}},"type":"Feature"},
	{"geometry":{"coordinates":[3.275442,48.197021],"type":"Point"},"properties":{"osm_id":"2182804957","tag":{"amenity":"waste_basket"}},"type":"Feature"},
	{"geometry":{"coordinates":[3.276475,48.196894],"type":"Point"},"properties":{"osm_id":"2182806308","tag":{"amenity":"waste_basket"}},"type":"Feature"},
	{"geometry":{"coordinates":[3.276534,48.197107],"type":"Point"},"properties":{"osm_id":"2182806311","tag":{"amenity":"waste_basket"}},"type":"Feature"},
	{"geometry":{"coordinates":[3.281827,48.199382],"type":"Point"},"properties":{"osm_id":"2187700895","tag":{"amenity":"waste_basket"}},"type":"Feature"},
	{"geometry":{"coordinates":[3.282034,48.199404],"type":"Point"},"properties":{"osm_id":"2187700897","tag":{"amenity":"waste_basket"}},"type":"Feature"},
	{"geometry":{"coordinates":[3.282594,48.199557],"type":"Point"},"properties":{"osm_id":"2187723769","tag":{"amenity":"waste_basket"}},"type":"Feature"},
	{"geometry":{"coordinates":[3.272025,48.19783],"type":"Point"},"properties":{"osm_id":"2194576001","tag":{"amenity":"waste_basket"}},"type":"Feature"},
	{"geometry":{"coordinates":[3.273132,48.197822],"type":"Point"},"properties":{"osm_id":"2194576678","tag":{"amenity":"waste_basket"}},"type":"Feature"},
	{"geometry":{"coordinates":[3.276645,48.197541],"type":"Point"},"properties":{"osm_id":"2194592936","tag":{"amenity":"waste_basket"}},"type":"Feature"},
	{"geometry":{"coordinates":[3.276686,48.197742],"type":"Point"},"properties":{"osm_id":"2194592939","tag":{"amenity":"waste_basket"}},"type":"Feature"},
	{"geometry":{"coordinates":[3.276689,48.197853],"type":"Point"},"properties":{"osm_id":"2194592942","tag":{"amenity":"waste_basket"}},"type":"Feature"},
	{"geometry":{"coordinates":[3.267857,48.197953],"type":"Point"},"properties":{"osm_id":"2197756756","tag":{"amenity":"waste_basket"}},"type":"Feature"},
	{"geometry":{"coordinates":[3.26918,48.198179],"type":"Point"},"properties":{"osm_id":"2197756880","tag":{"amenity":"waste_basket"}},"type":"Feature"},
	{"geometry":{"coordinates":[3.267993,48.198193],"type":"Point"},"properties":{"osm_id":"2197756887","tag":{"amenity":"waste_basket"}},"type":"Feature"},
	{"geometry":{"coordinates":[3.267934,48.197639],"type":"Point"},"properties":{"osm_id":"2200321946","tag":{"amenity":"waste_basket"}},"type":"Feature"},
	{"geometry":{"coordinates":[3.267905,48.197639],"type":"Point"},"properties":{"osm_id":"2200321949","tag":{"amenity":"waste_basket"}},"type":"Feature"},
	{"geometry":{"coordinates":[3.27422,48.197564],"type":"Point"},"properties":{"osm_id":"2203545875","tag":{"amenity":"waste_basket"}},"type":"Feature"},
	{"geometry":{"coordinates":[3.274126,48.197691],"type":"Point"},"properties":{"osm_id":"2203545877","tag":{"amenity":"waste_basket"}},"type":"Feature"},
	{"geometry":{"coordinates":[3.274112,48.198521],"type":"Point"},"properties":{"osm_id":"2203563138","tag":{"amenity":"waste_basket"}},"type":"Feature"},
	{"geometry":{"coordinates":[3.269356,48.199484],"type":"Point"},"properties":{"osm_id":"2271916146","tag":{"amenity":"waste_basket"}},"type":"Feature"},
	{"geometry":{"coordinates":[3.269767,48.199527],"type":"Point"},"properties":{"osm_id":"2271916161","tag":{"amenity":"waste_basket"}},"type":"Feature"},
	{"geometry":{"coordinates":[3.276183,48.194335],"type":"Point"},"properties":{"osm_id":"2443334077","tag":{"amenity":"waste_basket"}},"type":"Feature"},
	{"geometry":{"coordinates":[3.281477,48.183772],"type":"Point"},"properties":{"osm_id":"2485445707","tag":{"amenity":"waste_basket"}},"type":"Feature"},
	{"geometry":{"coordinates":[3.28078,48.1839],"type":"Point"},"properties":{"osm_id":"2485445780","tag":{"amenity":"waste_basket"}},"type":"Feature"},
	{"geometry":{"coordinates":[3.281202,48.184462],"type":"Point"},"properties":{"osm_id":"2485446051","tag":{"amenity":"waste_basket"}},"type":"Feature"},
	{"geometry":{"coordinates":[3.281256,48.184672],"type":"Point"},"properties":{"osm_id":"2485446094","tag":{"amenity":"waste_basket"}},"type":"Feature"},
	{"geometry":{"coordinates":[3.280057,48.18477],"type":"Point"},"properties":{"osm_id":"2485446117","tag":{"amenity":"waste_basket"}},"type":"Feature"},
	{"geometry":{"coordinates":[3.277004,48.184907],"type":"Point"},"properties":{"osm_id":"2485446143","tag":{"amenity":"waste_basket"}},"type":"Feature"},
	{"geometry":{"coordinates":[3.277321,48.185259],"type":"Point"},"properties":{"osm_id":"2485446181","tag":{"amenity":"waste_basket"}},"type":"Feature"},
	{"geometry":{"coordinates":[3.278104,48.185748],"type":"Point"},"properties":{"osm_id":"2485446227","tag":{"amenity":"waste_basket"}},"type":"Feature"},
	{"geometry":{"coordinates":[3.279109,48.186152],"type":"Point"},"properties":{"osm_id":"2485446251","tag":{"amenity":"waste_basket"}},"type":"Feature"},
	{"geometry":{"coordinates":[3.28276,48.198348],"type":"Point"},"properties":{"osm_id":"2488722603","tag":{"amenity":"waste_basket"}},"type":"Feature"},
	{"geometry":{"coordinates":[3.282962,48.198473],"type":"Point"},"properties":{"osm_id":"2488722612","tag":{"amenity":"waste_basket"}},"type":"Feature"},
	{"geometry":{"coordinates":[3.280548,48.194973],"type":"Point"},"properties":{"osm_id":"2490075207","tag":{"amenity":"waste_basket"}},"type":"Feature"},
	{"geometry":{"coordinates":[3.283608,48.194948],"type":"Point"},"properties":{"osm_id":"2495098500","tag":{"amenity":"waste_basket"}},"type":"Feature"},
	{"geometry":{"coordinates":[3.282526,48.195075],"type":"Point"},"properties":{"osm_id":"2495098536","tag":{"amenity":"waste_basket"}},"type":"Feature"},
	{"geometry":{"coordinates":[3.282451,48.195079],"type":"Point"},"properties":{"osm_id":"2495098539","tag":{"amenity":"waste_basket"}},"type":"Feature"},
	{"geometry":{"coordinates":[3.297451,48.196863],"type":"Point"},"properties":{"osm_id":"2495140301","tag":{"amenity":"waste_basket"}},"type":"Feature"},
	{"geometry":{"coordinates":[3.305412,48.191229],"type":"Point"},"properties":{"osm_id":"2495206576","tag":{"amenity":"recycling","recycling:glass":"yes"}},"type":"Feature"},
	{"geometry":{"coordinates":[3.305368,48.191351],"type":"Point"},"properties":{"osm_id":"2495206585","tag":{"amenity":"waste_basket"}},"type":"Feature"},
	{"geometry":{"coordinates":[3.305335,48.190679],"type":"Point"},"properties":{"osm_id":"2495239129","tag":{"amenity":"waste_basket"}},"type":"Feature"},
	{"geometry":{"coordinates":[3.29477,48.192771],"type":"Point"},"properties":{"osm_id":"2495362489","tag":{"amenity":"waste_basket"}},"type":"Feature"},
	{"geometry":{"coordinates":[3.290728,48.194902],"type":"Point"},"properties":{"osm_id":"2495393263","tag":{"amenity":"waste_basket"}},"type":"Feature"},
	{"geometry":{"coordinates":[3.290188,48.194992],"type":"Point"},"properties":{"osm_id":"2495393295","tag":{"amenity":"waste_basket"}},"type":"Feature"},
	{"geometry":{"coordinates":[3.278568,48.185733],"type":"Point"},"properties":{"osm_id":"2574665599","tag":{"amenity":"waste_basket"}},"type":"Feature"},
	{"geometry":{"coordinates":[3.276116,48.190565],"type":"Point"},"properties":{"osm_id":"2653886411","tag":{"amenity":"waste_basket"}},"type":"Feature"},
	{"geometry":{"coordinates":[3.294922,48.192744],"type":"Point"},"properties":{"osm_id":"2667545837","tag":{"amenity":"waste_basket"}},"type":"Feature"},
	{"geometry":{"coordinates":[3.295146,48.192921],"type":"Point"},"properties":{"osm_id":"2667545842","tag":{"amenity":"recycling","recycling:glass":"yes"}},"type":"Feature"},
	{"geometry":{"coordinates":[3.294261,48.19305],"type":"Point"},"properties":{"osm_id":"3402687256","tag":{"amenity":"recycling","recycling:glass":"yes"}},"type":"Feature"},
	{"geometry":{"coordinates":[3.27488,48.190826],"type":"Point"},"properties":{"osm_id":"3424981607","tag":{"amenity":"recycling","recycling:glass":"yes"}},"type":"Feature"},
	{"geometry":{"coordinates":[3.263637,48.200554],"type":"Point"},"properties":{"osm_id":"3424981610","tag":{"amenity":"recycling","recycling:clothes":"yes","recycling_type":"container"}},"type":"Feature"},
	{"geometry":{"coordinates":[3.274769,48.200973],"type":"Point"},"properties":{"osm_id":"3544958967","tag":{"amenity":"waste_basket"}},"type":"Feature"},
	{"geometry":{"coordinates":[3.274871,48.200838],"type":"Point"},"properties":{"osm_id":"3544959497","tag":{"amenity":"waste_basket"}},"type":"Feature"},
	{"geometry":{"coordinates":[3.274701,48.20051],"type":"Point"},"properties":{"osm_id":"3544961639","tag":{"amenity":"waste_basket"}},"type":"Feature"},
	{"geometry":{"coordinates":[3.280445,48.184969],"type":"Point"},"properties":{"osm_id":"4293091590","tag":{"amenity":"waste_basket"}},"type":"Feature"},
	{"geometry":{"coordinates":[3.256348,48.215738],"type":"Point"},"properties":{"osm_id":"4295291503","tag":{"amenity":"waste_basket"}},"type":"Feature"},
	{"geometry":{"coordinates":[3.256227,48.215296],"type":"Point"},"properties":{"osm_id":"4295397993","tag":{"amenity":"waste_basket"}},"type":"Feature"},
	{"geometry":{"coordinates":[3.263424,48.216677],"type":"Point"},"properties":{"osm_id":"4313135605","tag":{"amenity":"waste_basket"}},"type":"Feature"},
	{"geometry":{"coordinates":[3.25576,48.215239],"type":"Point"},"properties":{"osm_id":"4313654872","tag":{"amenity":"recycling","recycling:clothes":"yes","recycling_type":"container"}},"type":"Feature"},
	{"geometry":{"coordinates":[3.255745,48.215259],"type":"Point"},"properties":{"osm_id":"4313654873","tag":{"amenity":"recycling","recycling:glass_bottles":"yes","recycling_type":"container"}},"type":"Feature"},
	{"geometry":{"coordinates":[3.279777,48.186215],"type":"Point"},"properties":{"osm_id":"4352757291","tag":{"amenity":"recycling","recycling:glass_bottles":"yes","recycling_type":"container"}},"type":"Feature"},
	{"geometry":{"coordinates":[3.279679,48.186194],"type":"Point"},"properties":{"osm_id":"4352757292","tag":{"amenity":"waste_basket"}},"type":"Feature"},
	{"geometry":{"coordinates":[3.279974,48.18392],"type":"Point"},"properties":{"osm_id":"4352789503","tag":{"amenity":"waste_basket"}},"type":"Feature"},
	{"geometry":{"coordinates":[3.2577,48.211921],"type":"Point"},"properties":{"osm_id":"4652479532","tag":{"amenity":"waste_basket"}},"type":"Feature"},
	{"geometry":{"coordinates":[3.257866,48.21224],"type":"Point"},"properties":{"osm_id":"4652479534","tag":{"amenity":"waste_basket"}},"type":"Feature"},
	{"geometry":{"coordinates":[3.257827,48.212094],"type":"Point"},"properties":{"osm_id":"4652479545","tag":{"amenity":"waste_basket"}},"type":"Feature"},
	{"geometry":{"coordinates":[3.290345,48.171093],"type":"Point"},"properties":{"osm_id":"4974249921","tag":{"amenity":"recycling","recycling:glass":"yes","recycling_type":"container"}},"type":"Feature"},
	{"geometry":{"coordinates":[3.287628,48.207782],"type":"Point"},"properties":{"osm_id":"5216320425","tag":{"amenity":"recycling","recycling:glass":"yes","recycling_type":"container"}},"type":"Feature"},
	{"geometry":{"coordinates":[3.274677,48.201147],"type":"Point"},"properties":{"osm_id":"5340233811","tag":{"amenity":"recycling","recycling:glass":"yes","recycling_type":"container"}},"type":"Feature"},
	{"geometry":{"coordinates":[3.274134,48.198739],"type":"Point"},"properties":{"osm_id":"5344296944","tag":{"amenity":"waste_basket","description":"sanisette pour chiens","waste":"dog_excrement"}},"type":"Feature"},
	{"geometry":{"coordinates":[3.291334,48.206387],"type":"Point"},"properties":{"osm_id":"5361002594","tag":{"amenity":"recycling","recycling:glass":"yes","recycling_type":"container"}},"type":"Feature"},
	{"geometry":{"coordinates":[3.272782,48.201567],"type":"Point"},"properties":{"osm_id":"6865934021","tag":{"amenity":"recycling","recycling:glass_bottles":"yes","recycling_type":"container"}},"type":"Feature"},
	{"geometry":{"coordinates":[3.280957,48.199404],"type":"Point"},"properties":{"osm_id":"7160479448","tag":{"amenity":"waste_basket"}},"type":"Feature"},
	{"geometry":{"coordinates":[3.278696,48.198949],"type":"Point"},"properties":{"osm_id":"7195505496","tag":{"amenity":"waste_basket","waste":"trash"}},"type":"Feature"},
	{"geometry":{"coordinates":[3.278184,48.198779],"type":"Point"},"properties":{"osm_id":"7195505497","tag":{"amenity":"waste_basket","waste":"dog_excrement"}},"type":"Feature"},
	{"geometry":{"coordinates":[3.278538,48.198897],"type":"Point"},"properties":{"osm_id":"7195505498","tag":{"amenity":"waste_basket","waste":"trash"}},"type":"Feature"},
	{"geometry":{"coordinates":[3.27886,48.199003],"type":"Point"},"properties":{"osm_id":"7195505499","tag":{"amenity":"waste_basket","waste":"trash"}},"type":"Feature"},
	{"geometry":{"coordinates":[3.2787,48.199205],"type":"Point"},"properties":{"osm_id":"7195505500","tag":{"amenity":"waste_basket","waste":"trash"}},"type":"Feature"},
	{"geometry":{"coordinates":[3.27851,48.199155],"type":"Point"},"properties":{"osm_id":"7195505501","tag":{"amenity":"waste_basket","waste":"trash"}},"type":"Feature"},
	{"geometry":{"coordinates":[3.278344,48.199101],"type":"Point"},"properties":{"osm_id":"7195505502","tag":{"amenity":"waste_basket","waste":"trash"}},"type":"Feature"},
	{"geometry":{"coordinates":[3.278011,48.199011],"type":"Point"},"properties":{"osm_id":"7195505503","tag":{"amenity":"waste_basket","waste":"trash"}},"type":"Feature"},
	{"geometry":{"coordinates":[3.277768,48.198949],"type":"Point"},"properties":{"osm_id":"7195505504","tag":{"amenity":"waste_basket","waste":"trash"}},"type":"Feature"},
	{"geometry":{"coordinates":[3.278171,48.199057],"type":"Point"},"properties":{"osm_id":"7195505505","tag":{"amenity":"waste_basket","waste":"trash"}},"type":"Feature"},
	{"geometry":{"coordinates":[3.278387,48.198839],"type":"Point"},"properties":{"osm_id":"7195505506","tag":{"amenity":"waste_basket","waste":"mixed"}},"type":"Feature"},
	{"geometry":{"coordinates":[3.277981,48.19871],"type":"Point"},"properties":{"osm_id":"7195505507","tag":{"amenity":"waste_basket"}},"type":"Feature"},
	{"geometry":{"coordinates":[3.288486,48.199444],"type":"Point"},"properties":{"osm_id":"7201248647","tag":{"amenity":"waste_basket"}},"type":"Feature"},
	{"geometry":{"coordinates":[3.287099,48.199425],"type":"Point"},"properties":{"osm_id":"7204220160","tag":{"amenity":"waste_basket","colour":"green"}},"type":"Feature"},
	{"geometry":{"coordinates":[3.28873,48.19941],"type":"Point"},"properties":{"osm_id":"7204220161","tag":{"amenity":"waste_basket","waste":"dog_excrement"}},"type":"Feature"},
	{"geometry":{"coordinates":[3.287746,48.198739],"type":"Point"},"properties":{"osm_id":"7206685587","tag":{"amenity":"waste_basket","waste":"mixed"}},"type":"Feature"},
	{"geometry":{"coordinates":[3.332936,48.182513],"type":"Point"},"properties":{"osm_id":"7632084598","tag":{"amenity":"waste_basket"}},"type":"Feature"},
	{"geometry":{"coordinates":[3.333383,48.182564],"type":"Point"},"properties":{"osm_id":"7632084600","tag":{"amenity":"waste_basket"}},"type":"Feature"},
	{"geometry":{"coordinates":[3.334002,48.182414],"type":"Point"},"properties":{"osm_id":"7632084601","tag":{"amenity":"waste_basket"}},"type":"Feature"},
	{"geometry":{"coordinates":[3.282475,48.197307],"type":"Point"},"properties":{"osm_id":"7684585195","tag":{"amenity":"waste_basket","colour":"green","waste":"trash"}},"type":"Feature"},
	{"geometry":{"coordinates":[3.281623,48.197177],"type":"Point"},"properties":{"osm_id":"7684585197","tag":{"amenity":"waste_basket","colour":"green","waste":"trash"}},"type":"Feature"},
	{"geometry":{"coordinates":[3.280453,48.197141],"type":"Point"},"properties":{"osm_id":"7684585200","tag":{"amenity":"waste_basket","colour":"green","waste":"trash"}},"type":"Feature"}
]
}
