{
"type": "FeatureCollection",
"features": [
	{"geometry":{"coordinates":[3.332866,46.562237],"type":"Point"},"properties":{"osm_id":"576263072","tag":{"amenity":"recycling","location":"overground","recycling:cans":"yes","recycling:paper":"yes","recycling_type":"container"}},"type":"Feature"},
	{"geometry":{"coordinates":[3.329432,46.565569],"type":"Point"},"properties":{"osm_id":"576263077","tag":{"amenity":"recycling","recycling:glass":"yes"}},"type":"Feature"},
	{"geometry":{"coordinates":[3.337675,46.567229],"type":"Point"},"properties":{"osm_id":"606051914","tag":{"amenity":"recycling","recycling:glass":"yes","recycling:paper":"yes"}},"type":"Feature"},
	{"geometry":{"coordinates":[3.333649,46.561331],"type":"Point"},"properties":{"osm_id":"1472526668","tag":{"amenity":"waste_basket"}},"type":"Feature"},
	{"geometry":{"coordinates":[3.33296,46.562298],"type":"Point"},"properties":{"osm_id":"1472526703","tag":{"amenity":"recycling","location":"overground","recycling:glass":"yes","recycling_type":"container"}},"type":"Feature"},
	{"geometry":{"coordinates":[3.33296,46.562316],"type":"Point"},"properties":{"osm_id":"1472526704","tag":{"amenity":"waste_basket"}},"type":"Feature"},
	{"geometry":{"coordinates":[3.332884,46.562504],"type":"Point"},"properties":{"osm_id":"1472526709","tag":{"amenity":"waste_basket"}},"type":"Feature"},
	{"geometry":{"coordinates":[3.329674,46.562022],"type":"Point"},"properties":{"osm_id":"1480051676","tag":{"amenity":"recycling","recycling_type":"container"}},"type":"Feature"},
	{"geometry":{"coordinates":[3.332804,46.563574],"type":"Point"},"properties":{"osm_id":"1580942762","tag":{"amenity":"recycling","recycling:glass_bottles":"yes","recycling_type":"container"}},"type":"Feature"},
	{"geometry":{"coordinates":[3.334972,46.564255],"type":"Point"},"properties":{"osm_id":"1580942864","tag":{"amenity":"waste_basket"}},"type":"Feature"},
	{"geometry":{"coordinates":[3.334477,46.56437],"type":"Point"},"properties":{"osm_id":"1580942867","tag":{"amenity":"waste_basket"}},"type":"Feature"},
	{"geometry":{"coordinates":[3.333155,46.563638],"type":"Point"},"properties":{"osm_id":"1584106730","tag":{"amenity":"waste_basket"}},"type":"Feature"},
	{"geometry":{"coordinates":[3.334307,46.564525],"type":"Point"},"properties":{"osm_id":"1584106757","tag":{"amenity":"waste_basket"}},"type":"Feature"},
	{"geometry":{"coordinates":[3.334291,46.564529],"type":"Point"},"properties":{"osm_id":"1584106764","tag":{"amenity":"recycling","recycling:glass":"yes"}},"type":"Feature"},
	{"geometry":{"coordinates":[3.335329,46.56395],"type":"Point"},"properties":{"highway":"bus_stop","name":"Theatre","osm_id":"1833570724","tag":{"amenity":"waste_basket","bench":"no","lit":"yes","public_transport":"platform","shelter":"no","tactile_paving":"yes","wheelchair":"yes"}},"type":"Feature"},
	{"geometry":{"coordinates":[3.332811,46.5636],"type":"Point"},"properties":{"osm_id":"1833613029","tag":{"amenity":"waste_basket"}},"type":"Feature"},
	{"geometry":{"coordinates":[3.333664,46.566392],"type":"Point"},"properties":{"osm_id":"1836300222","tag":{"amenity":"waste_basket"}},"type":"Feature"},
	{"geometry":{"coordinates":[3.332268,46.566936],"type":"Point"},"properties":{"osm_id":"1836300300","tag":{"amenity":"waste_basket","survey:date":"2017-12-24"}},"type":"Feature"},
	{"geometry":{"coordinates":[3.329581,46.564665],"type":"Point"},"properties":{"osm_id":"2099725123","tag":{"amenity":"waste_basket"}},"type":"Feature"},
	{"geometry":{"coordinates":[3.289521,46.562013],"type":"Point"},"properties":{"osm_id":"3783791977","tag":{"amenity":"recycling"}},"type":"Feature"},
	{"geometry":{"coordinates":[3.324896,46.568685],"type":"Point"},"properties":{"osm_id":"5346660823","tag":{"amenity":"recycling","recycling:glass_bottles":"yes","recycling_type":"container"}},"type":"Feature"},
	{"geometry":{"coordinates":[3.306761,46.586287],"type":"Point"},"properties":{"osm_id":"5346677122","tag":{"amenity":"recycling","recycling:clothes":"yes","recycling_type":"container"}},"type":"Feature"},
	{"geometry":{"coordinates":[3.329673,46.565087],"type":"Point"},"properties":{"osm_id":"6438979685","tag":{"amenity":"waste_basket"}},"type":"Feature"},
	{"geometry":{"coordinates":[3.320961,46.561299],"type":"Point"},"properties":{"osm_id":"7787409968","tag":{"amenity":"waste_basket"}},"type":"Feature"},
	{"geometry":{"coordinates":[3.32036,46.562149],"type":"Point"},"properties":{"osm_id":"7787421047","tag":{"amenity":"waste_basket"}},"type":"Feature"}
]
}
