{
"type": "FeatureCollection",
"features": [
	{"geometry":{"coordinates":[3.334125,46.553994],"type":"Point"},"properties":{"osm_id":"1484679123","tag":{"amenity":"recycling"}},"type":"Feature"},
	{"geometry":{"coordinates":[3.335302,46.555614],"type":"Point"},"properties":{"osm_id":"1536491539","tag":{"amenity":"waste_basket"}},"type":"Feature"},
	{"geometry":{"coordinates":[3.264646,46.546486],"type":"Point"},"properties":{"name":"D\u00c3\u00a9chetterie","osm_id":"2168827996","tag":{"amenity":"recycling","operator":"SICTOM Nord Allier","recycling_type":"centre"}},"type":"Feature"},
	{"geometry":{"coordinates":[3.330152,46.54553],"type":"Point"},"properties":{"osm_id":"2706223237","tag":{"amenity":"waste_basket"}},"type":"Feature"},
	{"geometry":{"coordinates":[3.330542,46.54621],"type":"Point"},"properties":{"osm_id":"2706223279","tag":{"amenity":"waste_basket"}},"type":"Feature"},
	{"geometry":{"coordinates":[3.330217,46.546591],"type":"Point"},"properties":{"osm_id":"2706223294","tag":{"amenity":"waste_basket"}},"type":"Feature"},
	{"geometry":{"coordinates":[3.334444,46.545291],"type":"Point"},"properties":{"osm_id":"3264001900","tag":{"amenity":"waste_disposal"}},"type":"Feature"},
	{"geometry":{"coordinates":[3.333615,46.545609],"type":"Point"},"properties":{"osm_id":"3264004663","tag":{"amenity":"waste_disposal"}},"type":"Feature"},
	{"geometry":{"coordinates":[3.334532,46.545701],"type":"Point"},"properties":{"osm_id":"3264004683","tag":{"amenity":"waste_disposal"}},"type":"Feature"},
	{"geometry":{"coordinates":[3.255683,46.551379],"type":"Point"},"properties":{"osm_id":"3709614939","tag":{"amenity":"recycling"}},"type":"Feature"}
]
}
