{
"type": "FeatureCollection",
"lastupdate": "2020-08-06T00:00:00Z",
"features": [
	{"geometry":{"coordinates":[3.302353,44.022322],"type":"Point"},"properties":{"osm_id":"1818349729","tag":{"amenity":"recycling","recycling:cans":"yes","recycling:glass":"yes","recycling_type":"container"}},"type":"Feature"},
	{"geometry":{"coordinates":[3.302851,44.022392],"type":"Point"},"properties":{"osm_id":"1818349762","tag":{"amenity":"waste_basket"}},"type":"Feature"},
	{"geometry":{"coordinates":[3.302368,44.02272],"type":"Point"},"properties":{"osm_id":"1818349831","tag":{"amenity":"waste_basket"}},"type":"Feature"},
	{"geometry":{"coordinates":[3.261858,43.99139],"type":"Point"},"properties":{"osm_id":"2274565159","tag":{"amenity":"waste_basket"}},"type":"Feature"},
	{"geometry":{"coordinates":[3.302334,44.022315],"type":"Point"},"properties":{"osm_id":"5858898104","tag":{"amenity":"recycling","recycling_type":"centre"}},"type":"Feature"},
	{"geometry":{"coordinates":[3.304788,44.021307],"type":"Point"},"properties":{"osm_id":"6012869787","tag":{"amenity":"recycling","collection_times":"vendredi 6h","recycling_type":"container"}},"type":"Feature"},
	{"geometry":{"coordinates":[3.305575,44.019952],"type":"Point"},"properties":{"osm_id":"6012869795","tag":{"amenity":"recycling","recycling_type":"container"}},"type":"Feature"},
	{"geometry":{"coordinates":[3.306466,44.020296],"type":"Point"},"properties":{"osm_id":"6012869799","tag":{"amenity":"recycling","recycling_type":"container"}},"type":"Feature"},
	{"geometry":{"coordinates":[3.305223,44.02019],"type":"Point"},"properties":{"osm_id":"6012869800","tag":{"amenity":"recycling","recycling_type":"container"}},"type":"Feature"},
	{"geometry":{"coordinates":[3.305792,44.021008],"type":"Point"},"properties":{"osm_id":"6012869803","tag":{"amenity":"recycling","recycling_type":"container"}},"type":"Feature"},
	{"geometry":{"coordinates":[3.304128,44.020185],"type":"Point"},"properties":{"osm_id":"6012869804","tag":{"amenity":"recycling","recycling_type":"container"}},"type":"Feature"},
	{"geometry":{"coordinates":[3.303075,44.021605],"type":"Point"},"properties":{"osm_id":"6012869807","tag":{"amenity":"recycling","recycling_type":"container"}},"type":"Feature"},
	{"geometry":{"coordinates":[3.301934,44.023104],"type":"Point"},"properties":{"osm_id":"6012869808","tag":{"amenity":"recycling","recycling_type":"container;centre"}},"type":"Feature"},
	{"geometry":{"coordinates":[3.301548,44.022799],"type":"Point"},"properties":{"osm_id":"6012869816","tag":{"amenity":"waste_basket"}},"type":"Feature"},
	{"geometry":{"coordinates":[3.329222,44.020235],"type":"Point"},"properties":{"name":"Dechetterie intercomunal de Nant","osm_id":"6069339299","tag":{"amenity":"recycling","operator":"Communaut\u00e9 de Communes de Larzac Et Vall\u00e9es","operator:type":"public","recycling_type":"centre"}},"type":"Feature"},
	{"geometry":{"coordinates":[3.304731,44.016765],"type":"Point"},"properties":{"osm_id":"6069339315","tag":{"amenity":"recycling","recycling_type":"container"}},"type":"Feature"},
	{"geometry":{"coordinates":[3.304097,44.023692],"type":"Point"},"properties":{"osm_id":"6688054063","tag":{"amenity":"waste_basket"}},"type":"Feature"},
	{"geometry":{"coordinates":[3.304289,44.023268],"type":"Point"},"properties":{"osm_id":"6688054064","tag":{"amenity":"waste_basket"}},"type":"Feature"},
	{"geometry":{"coordinates":[3.304677,44.014159],"type":"Point"},"properties":{"osm_id":"6688054080","tag":{"amenity":"recycling","recycling_type":"container"}},"type":"Feature"},
	{"geometry":{"coordinates":[3.303637,44.01566],"type":"Point"},"properties":{"osm_id":"6688054081","tag":{"amenity":"recycling","recycling_type":"container"}},"type":"Feature"},
	{"geometry":{"coordinates":[3.304562,44.016263],"type":"Point"},"properties":{"osm_id":"6688054083","tag":{"amenity":"waste_basket"}},"type":"Feature"},
	{"geometry":{"coordinates":[3.301225,44.01712],"type":"Point"},"properties":{"osm_id":"6688060185","tag":{"amenity":"recycling","recycling_type":"container"}},"type":"Feature"},
	{"geometry":{"coordinates":[3.290943,44.01904],"type":"Point"},"properties":{"osm_id":"6688060186","tag":{"amenity":"recycling","recycling_type":"container"}},"type":"Feature"},
	{"geometry":{"coordinates":[3.293295,44.020706],"type":"Point"},"properties":{"osm_id":"6688060189","tag":{"amenity":"recycling","recycling_type":"container"}},"type":"Feature"},
	{"geometry":{"coordinates":[3.296135,44.022369],"type":"Point"},"properties":{"osm_id":"6688060190","tag":{"amenity":"recycling","recycling_type":"container"}},"type":"Feature"},
	{"geometry":{"coordinates":[3.297543,44.023186],"type":"Point"},"properties":{"osm_id":"6688060194","tag":{"amenity":"recycling","recycling_type":"container"}},"type":"Feature"},
	{"geometry":{"coordinates":[3.29807,44.023861],"type":"Point"},"properties":{"osm_id":"6688060197","tag":{"amenity":"recycling","recycling_type":"container"}},"type":"Feature"},
	{"geometry":{"coordinates":[3.301557,44.021482],"type":"Point"},"properties":{"osm_id":"6688060200","tag":{"amenity":"recycling","recycling_type":"container"}},"type":"Feature"},
	{"geometry":{"coordinates":[3.303584,44.021917],"type":"Point"},"properties":{"osm_id":"6828425881","tag":{"amenity":"recycling","recycling_type":"container"}},"type":"Feature"}
]
}
