{
"type": "FeatureCollection",
"features": [
	{"geometry":{"coordinates":[3.322543,43.729878],"type":"Point"},"properties":{"osm_id":"434685592","tag":{"amenity":"recycling","operator":"CSH","recycling_type":"container"}},"type":"Feature"},
	{"geometry":{"coordinates":[3.330371,43.742663],"type":"Point"},"properties":{"osm_id":"1707541038","tag":{"amenity":"recycling","operator":"CSH","recycling:cans":"yes","recycling:glass":"yes","recycling:paper":"yes","recycling_type":"container"}},"type":"Feature"},
	{"geometry":{"coordinates":[3.311783,43.763498],"type":"Point"},"properties":{"osm_id":"1727205272","tag":{"amenity":"recycling","recycling:cans":"yes","recycling:glass":"yes","recycling:paper":"yes","recycling_type":"container"}},"type":"Feature"},
	{"geometry":{"coordinates":[3.319447,43.730299],"type":"Point"},"properties":{"osm_id":"1885854793","tag":{"amenity":"recycling","operator":"SCH","recycling_type":"container"}},"type":"Feature"},
	{"geometry":{"coordinates":[3.31793,43.733514],"type":"Point"},"properties":{"osm_id":"4316311702","tag":{"amenity":"recycling","operator":"CSH","recycling_type":"container"}},"type":"Feature"},
	{"geometry":{"coordinates":[3.319969,43.731431],"type":"Point"},"properties":{"osm_id":"5827181491","tag":{"amenity":"recycling","recycling:operator":"Terre en Partage","recycling:organic":"yes","recycling_type":"container"}},"type":"Feature"},
	{"geometry":{"coordinates":[3.318421,43.733778],"type":"Point"},"properties":{"osm_id":"5827265387","tag":{"amenity":"recycling","recycling:operator":"Terre en Partage","recycling:organic":"yes","recycling_type":"container"}},"type":"Feature"},
	{"geometry":{"coordinates":[3.319411,43.730314],"type":"Point"},"properties":{"osm_id":"5827271985","tag":{"amenity":"recycling","recycling:operator":"Terre en Partage","recycling:organic":"yes","recycling_type":"container"}},"type":"Feature"},
	{"geometry":{"coordinates":[3.32463,43.732363],"type":"Point"},"properties":{"osm_id":"5827477186","tag":{"amenity":"recycling","recycling:operator":"Terre en Partage","recycling:organic":"yes","recycling_type":"container"}},"type":"Feature"},
	{"geometry":{"coordinates":[3.322919,43.729927],"type":"Point"},"properties":{"osm_id":"5827481385","tag":{"amenity":"recycling","recycling:operator":"Terre en Partage","recycling:organic":"yes","recycling_type":"container"}},"type":"Feature"},
	{"geometry":{"coordinates":[3.318723,43.732377],"type":"Point"},"properties":{"osm_id":"5974553270","tag":{"amenity":"waste_disposal","operator":"ccll","waste":"trash"}},"type":"Feature"},
	{"geometry":{"coordinates":[3.321285,43.730962],"type":"Point"},"properties":{"osm_id":"5974556937","tag":{"amenity":"waste_basket","operator":"Ville Lod\u00c3\u00a8ve"}},"type":"Feature"},
	{"geometry":{"coordinates":[3.318477,43.73162],"type":"Point"},"properties":{"osm_id":"5974768001","tag":{"amenity":"waste_disposal","operator":"ccll","waste":"trash"}},"type":"Feature"},
	{"geometry":{"coordinates":[3.320221,43.731427],"type":"Point"},"properties":{"osm_id":"5974768093","tag":{"amenity":"waste_disposal","operator":"ccll","waste":"trash"}},"type":"Feature"},
	{"geometry":{"coordinates":[3.31984,43.732049],"type":"Point"},"properties":{"osm_id":"5975601686","tag":{"amenity":"waste_disposal","operator":"ccll","waste":"trash"}},"type":"Feature"},
	{"geometry":{"coordinates":[3.320414,43.731559],"type":"Point"},"properties":{"osm_id":"5975802685","tag":{"amenity":"waste_disposal","operator":"ccll","waste":"trash"}},"type":"Feature"},
	{"geometry":{"coordinates":[3.319931,43.730446],"type":"Point"},"properties":{"osm_id":"5984652986","tag":{"amenity":"waste_disposal","operator":"CCLL","waste":"trash"}},"type":"Feature"},
	{"geometry":{"coordinates":[3.320958,43.731863],"type":"Point"},"properties":{"osm_id":"5984653086","tag":{"amenity":"waste_basket","operator":"Ville Lod\u00c3\u00a8ve"}},"type":"Feature"},
	{"geometry":{"coordinates":[3.318043,43.732581],"type":"Point"},"properties":{"osm_id":"6187789185","tag":{"amenity":"waste_disposal","operator":"SCH","waste":"trash"}},"type":"Feature"},
	{"geometry":{"coordinates":[3.322206,43.730955],"type":"Point"},"properties":{"osm_id":"6213066085","tag":{"amenity":"waste_disposal","waste":"trash"}},"type":"Feature"},
	{"geometry":{"coordinates":[3.32249,43.730978],"type":"Point"},"properties":{"osm_id":"6213066086","tag":{"amenity":"waste_disposal","waste":"trash"}},"type":"Feature"},
	{"geometry":{"coordinates":[3.31903,43.732747],"type":"Point"},"properties":{"osm_id":"6246763685","tag":{"amenity":"waste_disposal","operator":"ccll","waste":"trash"}},"type":"Feature"},
	{"geometry":{"coordinates":[3.317959,43.73006],"type":"Point"},"properties":{"osm_id":"6246812286","tag":{"amenity":"waste_disposal","operator":"CCLL","waste":"trash"}},"type":"Feature"},
	{"geometry":{"coordinates":[3.317681,43.731597],"type":"Point"},"properties":{"osm_id":"6246825685","tag":{"amenity":"recycling","operator":"SCH","recycling:glass_bottles":"yes","recycling:paper":"yes"}},"type":"Feature"},
	{"geometry":{"coordinates":[3.31807,43.730721],"type":"Point"},"properties":{"osm_id":"6380469587","tag":{"amenity":"waste_disposal","operator":"CCLL","waste":"trash"}},"type":"Feature"},
	{"geometry":{"coordinates":[3.323646,43.732898],"type":"Point"},"properties":{"osm_id":"6380485086","tag":{"amenity":"recycling","operator":"sch"}},"type":"Feature"},
	{"geometry":{"coordinates":[3.32271,43.731797],"type":"Point"},"properties":{"osm_id":"6399496085","tag":{"amenity":"waste_disposal","operator":"CCLL","waste":"trash"}},"type":"Feature"},
	{"geometry":{"coordinates":[3.316399,43.732289],"type":"Point"},"properties":{"osm_id":"6462567487","tag":{"amenity":"recycling","operator":"SCH","recycling_type":"container"}},"type":"Feature"},
	{"geometry":{"coordinates":[3.316951,43.731219],"type":"Point"},"properties":{"osm_id":"6462567488","tag":{"amenity":"waste_disposal","operator":"CCLL","waste":"trash"}},"type":"Feature"},
	{"geometry":{"coordinates":[3.316847,43.730787],"type":"Point"},"properties":{"osm_id":"6462567489","tag":{"amenity":"waste_disposal","operator":"CCLL","waste":"trash"}},"type":"Feature"},
	{"geometry":{"coordinates":[3.317021,43.730727],"type":"Point"},"properties":{"osm_id":"6462567490","tag":{"amenity":"waste_disposal","operator":"CCLL","waste":"trash"}},"type":"Feature"},
	{"geometry":{"coordinates":[3.317522,43.73031],"type":"Point"},"properties":{"osm_id":"6462567491","tag":{"amenity":"waste_disposal","operator":"CCLL","waste":"trash"}},"type":"Feature"},
	{"geometry":{"coordinates":[3.320741,43.729967],"type":"Point"},"properties":{"osm_id":"6462567492","tag":{"amenity":"waste_disposal","operator":"CCLL","waste":"trash"}},"type":"Feature"},
	{"geometry":{"coordinates":[3.32132,43.7293],"type":"Point"},"properties":{"osm_id":"6462567493","tag":{"amenity":"waste_disposal","operator":"CCLL","waste":"trash"}},"type":"Feature"},
	{"geometry":{"coordinates":[3.320661,43.729085],"type":"Point"},"properties":{"osm_id":"6462567494","tag":{"amenity":"waste_disposal","operator":"CCLL","waste":"trash"}},"type":"Feature"},
	{"geometry":{"coordinates":[3.3219,43.729537],"type":"Point"},"properties":{"osm_id":"6462567495","tag":{"amenity":"waste_disposal","operator":"CCLL","waste":"trash"}},"type":"Feature"},
	{"geometry":{"coordinates":[3.322611,43.729888],"type":"Point"},"properties":{"osm_id":"6462594486","tag":{"amenity":"waste_disposal","operator":"CCLL","waste":"trash"}},"type":"Feature"},
	{"geometry":{"coordinates":[3.323018,43.730436],"type":"Point"},"properties":{"osm_id":"6462594489","tag":{"amenity":"waste_disposal","operator":"CCLL","waste":"trash"}},"type":"Feature"},
	{"geometry":{"coordinates":[3.321591,43.730554],"type":"Point"},"properties":{"osm_id":"6462594490","tag":{"amenity":"waste_disposal","operator":"CCLL","waste":"trash"}},"type":"Feature"},
	{"geometry":{"coordinates":[3.316439,43.732223],"type":"Point"},"properties":{"osm_id":"6462602985","tag":{"amenity":"waste_disposal","operator":"CCLL","waste":"trash"}},"type":"Feature"},
	{"geometry":{"coordinates":[3.31499,43.731865],"type":"Point"},"properties":{"osm_id":"6462602986","tag":{"amenity":"waste_disposal","operator":"CCLL","waste":"trash"}},"type":"Feature"},
	{"geometry":{"coordinates":[3.315524,43.731551],"type":"Point"},"properties":{"osm_id":"6462602987","tag":{"amenity":"waste_disposal","operator":"CCLL","waste":"trash"}},"type":"Feature"},
	{"geometry":{"coordinates":[3.317244,43.730688],"type":"Point"},"properties":{"osm_id":"6462602988","tag":{"amenity":"waste_disposal","operator":"CCLL","waste":"trash"}},"type":"Feature"},
	{"geometry":{"coordinates":[3.321648,43.729802],"type":"Point"},"properties":{"osm_id":"6462602989","tag":{"amenity":"waste_disposal","operator":"CCLL","waste":"trash"}},"type":"Feature"},
	{"geometry":{"coordinates":[3.322074,43.730242],"type":"Point"},"properties":{"osm_id":"6462602990","tag":{"amenity":"waste_disposal","operator":"CCLL","waste":"trash"}},"type":"Feature"},
	{"geometry":{"coordinates":[3.325336,43.738398],"type":"Point"},"properties":{"osm_id":"6472225386","tag":{"amenity":"waste_disposal","operator":"CCLL","waste":"trash"}},"type":"Feature"},
	{"geometry":{"coordinates":[3.32194,43.739268],"type":"Point"},"properties":{"osm_id":"6472225387","tag":{"amenity":"waste_disposal","operator":"CCLL","waste":"trash"}},"type":"Feature"},
	{"geometry":{"coordinates":[3.320482,43.733042],"type":"Point"},"properties":{"osm_id":"6472225388","tag":{"amenity":"waste_disposal","operator":"CCLL","waste":"trash"}},"type":"Feature"},
	{"geometry":{"coordinates":[3.319896,43.733417],"type":"Point"},"properties":{"osm_id":"6472225389","tag":{"amenity":"waste_disposal","operator":"CCLL","waste":"trash"}},"type":"Feature"},
	{"geometry":{"coordinates":[3.321677,43.724616],"type":"Point"},"properties":{"osm_id":"6472232285","tag":{"amenity":"recycling","operator":"SCH","recycling_type":"container"}},"type":"Feature"},
	{"geometry":{"coordinates":[3.321854,43.724625],"type":"Point"},"properties":{"osm_id":"6472232985","tag":{"amenity":"waste_disposal","operator":"CCLL","waste":"trash"}},"type":"Feature"},
	{"geometry":{"coordinates":[3.324021,43.730349],"type":"Point"},"properties":{"osm_id":"6472232987","tag":{"amenity":"waste_disposal","operator":"CCLL","waste":"trash"}},"type":"Feature"},
	{"geometry":{"coordinates":[3.323941,43.731011],"type":"Point"},"properties":{"osm_id":"6472232988","tag":{"amenity":"waste_disposal","operator":"CCLL","waste":"trash"}},"type":"Feature"},
	{"geometry":{"coordinates":[3.322413,43.72982],"type":"Point"},"properties":{"osm_id":"6472232989","tag":{"amenity":"waste_disposal","operator":"CCLL","waste":"trash"}},"type":"Feature"},
	{"geometry":{"coordinates":[3.324217,43.734186],"type":"Point"},"properties":{"osm_id":"6472232990","tag":{"amenity":"waste_disposal","operator":"CCLL","waste":"trash"}},"type":"Feature"},
	{"geometry":{"coordinates":[3.32371,43.727176],"type":"Point"},"properties":{"osm_id":"6472235985","tag":{"amenity":"waste_disposal","operator":"CCLL","waste":"trash"}},"type":"Feature"},
	{"geometry":{"coordinates":[3.32521,43.732567],"type":"Point"},"properties":{"osm_id":"6472235986","tag":{"amenity":"recycling","operator":"SCH","recycling_type":"container"}},"type":"Feature"},
	{"geometry":{"coordinates":[3.325228,43.735921],"type":"Point"},"properties":{"osm_id":"6472235987","tag":{"amenity":"waste_disposal","operator":"CCLL","waste":"trash"}},"type":"Feature"},
	{"geometry":{"coordinates":[3.325907,43.73725],"type":"Point"},"properties":{"osm_id":"6472235988","tag":{"amenity":"waste_disposal","operator":"CCLL","waste":"trash"}},"type":"Feature"},
	{"geometry":{"coordinates":[3.325864,43.738787],"type":"Point"},"properties":{"osm_id":"6472235989","tag":{"amenity":"waste_disposal","operator":"CCLL","waste":"trash"}},"type":"Feature"},
	{"geometry":{"coordinates":[3.324311,43.727963],"type":"Point"},"properties":{"osm_id":"6472236885","tag":{"amenity":"waste_disposal","operator":"CCLL","waste":"trash"}},"type":"Feature"},
	{"geometry":{"coordinates":[3.324451,43.729818],"type":"Point"},"properties":{"osm_id":"6472236886","tag":{"amenity":"recycling","operator":"SCH","recycling_type":"container"}},"type":"Feature"},
	{"geometry":{"coordinates":[3.324837,43.729335],"type":"Point"},"properties":{"osm_id":"6472237585","tag":{"amenity":"waste_disposal","operator":"CCLL","waste":"trash"}},"type":"Feature"},
	{"geometry":{"coordinates":[3.324228,43.729835],"type":"Point"},"properties":{"osm_id":"6472237586","tag":{"amenity":"waste_disposal","operator":"CCLL","waste":"trash"}},"type":"Feature"},
	{"geometry":{"coordinates":[3.323429,43.729492],"type":"Point"},"properties":{"osm_id":"6472237587","tag":{"amenity":"waste_disposal","operator":"CCLL","waste":"trash"}},"type":"Feature"},
	{"geometry":{"coordinates":[3.323863,43.7315],"type":"Point"},"properties":{"osm_id":"6472237588","tag":{"amenity":"waste_disposal","operator":"CCLL","waste":"trash"}},"type":"Feature"},
	{"geometry":{"coordinates":[3.324724,43.732016],"type":"Point"},"properties":{"osm_id":"6472237589","tag":{"amenity":"waste_disposal","operator":"CCLL","waste":"trash"}},"type":"Feature"},
	{"geometry":{"coordinates":[3.324805,43.732393],"type":"Point"},"properties":{"osm_id":"6472237590","tag":{"amenity":"waste_disposal","operator":"CCLL","waste":"trash"}},"type":"Feature"},
	{"geometry":{"coordinates":[3.325188,43.736031],"type":"Point"},"properties":{"osm_id":"6472237591","tag":{"amenity":"waste_disposal","operator":"CCLL","waste":"trash"}},"type":"Feature"},
	{"geometry":{"coordinates":[3.325548,43.736634],"type":"Point"},"properties":{"osm_id":"6472237592","tag":{"amenity":"waste_disposal","operator":"CCLL","waste":"trash"}},"type":"Feature"},
	{"geometry":{"coordinates":[3.323657,43.732861],"type":"Point"},"properties":{"osm_id":"6472243485","tag":{"amenity":"waste_disposal","operator":"CCLL","waste":"trash"}},"type":"Feature"},
	{"geometry":{"coordinates":[3.324612,43.735022],"type":"Point"},"properties":{"osm_id":"6472243486","tag":{"amenity":"waste_disposal","operator":"CCLL","waste":"trash"}},"type":"Feature"},
	{"geometry":{"coordinates":[3.324998,43.737971],"type":"Point"},"properties":{"osm_id":"6472250385","tag":{"amenity":"waste_disposal","operator":"CCLL","waste":"trash"}},"type":"Feature"},
	{"geometry":{"coordinates":[3.321248,43.732392],"type":"Point"},"properties":{"osm_id":"6472250386","tag":{"amenity":"waste_disposal","operator":"CCLL","waste":"trash"}},"type":"Feature"},
	{"geometry":{"coordinates":[3.324196,43.737262],"type":"Point"},"properties":{"osm_id":"6472250785","tag":{"amenity":"waste_disposal","operator":"CCLL","waste":"trash"}},"type":"Feature"},
	{"geometry":{"coordinates":[3.319448,43.733415],"type":"Point"},"properties":{"osm_id":"6472250786","tag":{"amenity":"waste_disposal","operator":"CCLL","waste":"trash"}},"type":"Feature"},
	{"geometry":{"coordinates":[3.323439,43.736613],"type":"Point"},"properties":{"osm_id":"6472251485","tag":{"amenity":"waste_disposal","operator":"CCLL","waste":"trash"}},"type":"Feature"},
	{"geometry":{"coordinates":[3.322452,43.737979],"type":"Point"},"properties":{"osm_id":"6472254786","tag":{"amenity":"waste_disposal","operator":"CCLL","waste":"trash"}},"type":"Feature"},
	{"geometry":{"coordinates":[3.320317,43.733979],"type":"Point"},"properties":{"osm_id":"6472254787","tag":{"amenity":"waste_disposal","operator":"CCLL","waste":"trash"}},"type":"Feature"},
	{"geometry":{"coordinates":[3.318882,43.733867],"type":"Point"},"properties":{"osm_id":"6472254788","tag":{"amenity":"waste_disposal","operator":"CCLL","waste":"trash"}},"type":"Feature"},
	{"geometry":{"coordinates":[3.319867,43.732603],"type":"Point"},"properties":{"osm_id":"6472254789","tag":{"amenity":"waste_disposal","operator":"CCLL","waste":"trash"}},"type":"Feature"}
]
}
