{
"type": "FeatureCollection",
"features": [
	{"geometry":{"coordinates":[3.278915,43.239707],"type":"Point"},"properties":{"osm_id":"3023354135","tag":{"amenity":"recycling","recycling:glass_bottles":"yes","recycling_type":"container"}},"type":"Feature"},
	{"geometry":{"coordinates":[3.278339,43.240506],"type":"Point"},"properties":{"osm_id":"3023354142","tag":{"amenity":"waste_basket","leisure":"dog_park","waste":"dog_excrement"}},"type":"Feature"},
	{"geometry":{"coordinates":[3.292433,43.252105],"type":"Point"},"properties":{"osm_id":"4344183605","tag":{"amenity":"recycling","recycling:cans":"yes","recycling:cardboard":"yes","recycling:glass":"yes","recycling:glass_bottles":"yes","recycling:paper":"yes","recycling:plastic":"yes","recycling:plastic_bottles":"yes","recycling:plastic_packaging":"yes","recycling_type":"container"}},"type":"Feature"},
	{"geometry":{"coordinates":[3.290907,43.254196],"type":"Point"},"properties":{"osm_id":"5975353943","tag":{"amenity":"waste_disposal"}},"type":"Feature"},
	{"geometry":{"coordinates":[3.285314,43.25704],"type":"Point"},"properties":{"osm_id":"5984849236","tag":{"amenity":"waste_disposal"}},"type":"Feature"},
	{"geometry":{"coordinates":[3.312099,43.255051],"type":"Point"},"properties":{"osm_id":"6063759377","tag":{"amenity":"waste_basket"}},"type":"Feature"},
	{"geometry":{"coordinates":[3.309932,43.25751],"type":"Point"},"properties":{"osm_id":"6063759378","tag":{"amenity":"waste_basket"}},"type":"Feature"},
	{"geometry":{"coordinates":[3.311544,43.259174],"type":"Point"},"properties":{"osm_id":"6063759379","tag":{"amenity":"waste_basket"}},"type":"Feature"},
	{"geometry":{"coordinates":[3.303852,43.256143],"type":"Point"},"properties":{"osm_id":"6063759380","tag":{"amenity":"waste_basket"}},"type":"Feature"},
	{"geometry":{"coordinates":[3.300508,43.253527],"type":"Point"},"properties":{"osm_id":"6063759381","tag":{"amenity":"waste_basket"}},"type":"Feature"},
	{"geometry":{"coordinates":[3.299667,43.252347],"type":"Point"},"properties":{"osm_id":"6063759382","tag":{"amenity":"waste_basket"}},"type":"Feature"},
	{"geometry":{"coordinates":[3.29829,43.249306],"type":"Point"},"properties":{"osm_id":"6063759383","tag":{"amenity":"waste_basket"}},"type":"Feature"},
	{"geometry":{"coordinates":[3.298161,43.249626],"type":"Point"},"properties":{"osm_id":"6063784129","tag":{"amenity":"waste_basket"}},"type":"Feature"},
	{"geometry":{"coordinates":[3.294014,43.252845],"type":"Point"},"properties":{"osm_id":"8586089898","tag":{"amenity":"recycling","recycling:glass":"yes","recycling:glass_bottles":"yes","recycling_type":"container"}},"type":"Feature"},
	{"geometry":{"coordinates":[3.298586,43.255728],"type":"Point"},"properties":{"osm_id":"8586124286","tag":{"amenity":"recycling","recycling:glass":"yes","recycling:glass_bottles":"yes","recycling_type":"container"}},"type":"Feature"},
	{"geometry":{"coordinates":[3.29795,43.255293],"type":"Point"},"properties":{"osm_id":"8586124290","tag":{"amenity":"waste_basket","colour":"white","material":"metal"}},"type":"Feature"},
	{"geometry":{"coordinates":[3.297694,43.255031],"type":"Point"},"properties":{"osm_id":"8586124291","tag":{"amenity":"waste_basket","colour":"white","material":"metal"}},"type":"Feature"},
	{"geometry":{"coordinates":[3.295902,43.252912],"type":"Point"},"properties":{"osm_id":"8586124371","tag":{"amenity":"waste_basket","colour":"white","material":"metal"}},"type":"Feature"},
	{"geometry":{"coordinates":[3.296276,43.253379],"type":"Point"},"properties":{"osm_id":"8586124376","tag":{"amenity":"waste_basket","colour":"white","material":"metal"}},"type":"Feature"},
	{"geometry":{"coordinates":[3.296111,43.253526],"type":"Point"},"properties":{"osm_id":"8586124379","tag":{"amenity":"recycling","recycling:glass":"yes","recycling:glass_bottles":"yes","recycling_type":"container"}},"type":"Feature"},
	{"geometry":{"coordinates":[3.29674,43.25412],"type":"Point"},"properties":{"osm_id":"8586124382","tag":{"amenity":"waste_basket","colour":"white","material":"metal"}},"type":"Feature"},
	{"geometry":{"coordinates":[3.295763,43.246715],"type":"Point"},"properties":{"osm_id":"8586145237","tag":{"amenity":"waste_basket","colour":"white","material":"concrete"}},"type":"Feature"},
	{"geometry":{"coordinates":[3.295383,43.246524],"type":"Point"},"properties":{"osm_id":"8586145239","tag":{"amenity":"waste_basket","colour":"white","material":"concrete"}},"type":"Feature"},
	{"geometry":{"coordinates":[3.295262,43.246463],"type":"Point"},"properties":{"osm_id":"8586145241","tag":{"amenity":"waste_basket","colour":"white","material":"concrete"}},"type":"Feature"},
	{"geometry":{"coordinates":[3.289335,43.251871],"type":"Point"},"properties":{"osm_id":"8586985363","tag":{"amenity":"recycling","recycling:glass":"yes","recycling:glass_bottles":"yes","recycling_type":"container"}},"type":"Feature"},
	{"geometry":{"coordinates":[3.284991,43.248531],"type":"Point"},"properties":{"osm_id":"8589338848","tag":{"amenity":"waste_basket","colour":"green","material":"plastic"}},"type":"Feature"},
	{"geometry":{"coordinates":[3.292132,43.248047],"type":"Point"},"properties":{"osm_id":"8591378304","tag":{"amenity":"recycling","recycling:glass":"yes","recycling:glass_bottles":"yes","recycling_type":"container"}},"type":"Feature"},
	{"geometry":{"coordinates":[3.28398,43.241402],"type":"Point"},"properties":{"osm_id":"8591425878","tag":{"amenity":"waste_basket","colour":"white","material":"concrete"}},"type":"Feature"},
	{"geometry":{"coordinates":[3.284709,43.241706],"type":"Point"},"properties":{"osm_id":"8591425880","tag":{"amenity":"waste_basket","colour":"white","material":"concrete"}},"type":"Feature"},
	{"geometry":{"coordinates":[3.285563,43.242065],"type":"Point"},"properties":{"osm_id":"8591425881","tag":{"amenity":"waste_basket","colour":"white","material":"concrete"}},"type":"Feature"},
	{"geometry":{"coordinates":[3.286418,43.242424],"type":"Point"},"properties":{"osm_id":"8591425882","tag":{"amenity":"waste_basket","colour":"white","material":"concrete"}},"type":"Feature"},
	{"geometry":{"coordinates":[3.28728,43.24278],"type":"Point"},"properties":{"osm_id":"8591425884","tag":{"amenity":"waste_basket","colour":"white","material":"concrete"}},"type":"Feature"},
	{"geometry":{"coordinates":[3.288132,43.243139],"type":"Point"},"properties":{"osm_id":"8591425885","tag":{"amenity":"waste_basket","colour":"white","material":"concrete"}},"type":"Feature"},
	{"geometry":{"coordinates":[3.28899,43.243497],"type":"Point"},"properties":{"osm_id":"8591425886","tag":{"amenity":"waste_basket","colour":"white","material":"concrete"}},"type":"Feature"},
	{"geometry":{"coordinates":[3.289851,43.243855],"type":"Point"},"properties":{"osm_id":"8591425888","tag":{"amenity":"waste_basket","colour":"white","material":"concrete"}},"type":"Feature"},
	{"geometry":{"coordinates":[3.290714,43.244221],"type":"Point"},"properties":{"osm_id":"8591425890","tag":{"amenity":"waste_basket","colour":"white","material":"concrete"}},"type":"Feature"},
	{"geometry":{"coordinates":[3.291535,43.244607],"type":"Point"},"properties":{"osm_id":"8591425892","tag":{"amenity":"waste_basket","colour":"white","material":"concrete"}},"type":"Feature"},
	{"geometry":{"coordinates":[3.291132,43.244408],"type":"Point"},"properties":{"osm_id":"8591425893","tag":{"amenity":"waste_basket","colour":"white","material":"concrete"}},"type":"Feature"},
	{"geometry":{"coordinates":[3.287702,43.248192],"type":"Point"},"properties":{"osm_id":"8591426434","tag":{"amenity":"waste_basket","colour":"white","material":"plastic"}},"type":"Feature"},
	{"geometry":{"coordinates":[3.287575,43.248339],"type":"Point"},"properties":{"osm_id":"8591426435","tag":{"amenity":"waste_basket","colour":"white","material":"plastic"}},"type":"Feature"},
	{"geometry":{"coordinates":[3.287442,43.248504],"type":"Point"},"properties":{"osm_id":"8591426438","tag":{"amenity":"waste_basket","colour":"white","material":"plastic"}},"type":"Feature"},
	{"geometry":{"coordinates":[3.287316,43.248659],"type":"Point"},"properties":{"osm_id":"8591426440","tag":{"amenity":"waste_basket","colour":"white","material":"plastic"}},"type":"Feature"},
	{"geometry":{"coordinates":[3.291814,43.244745],"type":"Point"},"properties":{"osm_id":"8591457675","tag":{"amenity":"waste_basket","colour":"white","material":"concrete"}},"type":"Feature"},
	{"geometry":{"coordinates":[3.292156,43.244914],"type":"Point"},"properties":{"osm_id":"8591457676","tag":{"amenity":"waste_basket","colour":"white","material":"concrete"}},"type":"Feature"},
	{"geometry":{"coordinates":[3.292284,43.244976],"type":"Point"},"properties":{"osm_id":"8591457681","tag":{"amenity":"waste_basket","colour":"white","material":"concrete"}},"type":"Feature"},
	{"geometry":{"coordinates":[3.292559,43.245116],"type":"Point"},"properties":{"osm_id":"8591457688","tag":{"amenity":"waste_basket","colour":"white","material":"concrete"}},"type":"Feature"},
	{"geometry":{"coordinates":[3.292832,43.245247],"type":"Point"},"properties":{"osm_id":"8591457693","tag":{"amenity":"waste_basket","colour":"white","material":"concrete"}},"type":"Feature"},
	{"geometry":{"coordinates":[3.293096,43.245377],"type":"Point"},"properties":{"osm_id":"8591457694","tag":{"amenity":"waste_basket","colour":"white","material":"concrete"}},"type":"Feature"},
	{"geometry":{"coordinates":[3.293382,43.245521],"type":"Point"},"properties":{"osm_id":"8591457699","tag":{"amenity":"waste_basket","colour":"white","material":"concrete"}},"type":"Feature"},
	{"geometry":{"coordinates":[3.293631,43.245643],"type":"Point"},"properties":{"osm_id":"8591457702","tag":{"amenity":"waste_basket","colour":"white","material":"concrete"}},"type":"Feature"},
	{"geometry":{"coordinates":[3.293904,43.245781],"type":"Point"},"properties":{"osm_id":"8591457707","tag":{"amenity":"waste_basket","colour":"white","material":"concrete"}},"type":"Feature"},
	{"geometry":{"coordinates":[3.294432,43.246054],"type":"Point"},"properties":{"osm_id":"8591457711","tag":{"amenity":"waste_basket","colour":"white","material":"concrete"}},"type":"Feature"},
	{"geometry":{"coordinates":[3.29504,43.246442],"type":"Point"},"properties":{"osm_id":"8591457718","tag":{"amenity":"waste_basket","colour":"white","material":"concrete"}},"type":"Feature"},
	{"geometry":{"coordinates":[3.295168,43.246503],"type":"Point"},"properties":{"osm_id":"8591457719","tag":{"amenity":"waste_basket","colour":"white","material":"concrete"}},"type":"Feature"},
	{"geometry":{"coordinates":[3.295303,43.246569],"type":"Point"},"properties":{"osm_id":"8591457720","tag":{"amenity":"waste_basket","colour":"white","material":"concrete"}},"type":"Feature"},
	{"geometry":{"coordinates":[3.295417,43.246629],"type":"Point"},"properties":{"osm_id":"8591457721","tag":{"amenity":"waste_basket","colour":"white","material":"concrete"}},"type":"Feature"},
	{"geometry":{"coordinates":[3.295549,43.246695],"type":"Point"},"properties":{"osm_id":"8591457722","tag":{"amenity":"waste_basket","colour":"white","material":"concrete"}},"type":"Feature"},
	{"geometry":{"coordinates":[3.296143,43.246885],"type":"Point"},"properties":{"osm_id":"8591457725","tag":{"amenity":"waste_basket","colour":"white","material":"concrete"}},"type":"Feature"}
]
}
