{
"type": "FeatureCollection",
"features": [
	{"geometry":{"coordinates":[3.27126,39.454401],"type":"Point"},"properties":{"osm_id":"3771895431","tag":{"amenity":"recycling","recycling:cardboard":"yes","recycling:glass":"yes","recycling:glass_bottles":"yes","recycling:paper":"yes","recycling:plastic":"yes","recycling:plastic_bottles":"yes","recycling_type":"container"}},"type":"Feature"},
	{"geometry":{"coordinates":[3.273545,39.447994],"type":"Point"},"properties":{"osm_id":"3772008935","tag":{"amenity":"recycling","recycling:cardboard":"yes","recycling:glass_bottles":"yes","recycling:paper":"yes","recycling:plastic":"yes","recycling:plastic_bottles":"yes","recycling:plastic_packaging":"yes","recycling_type":"container"}},"type":"Feature"},
	{"geometry":{"coordinates":[3.276655,39.457035],"type":"Point"},"properties":{"osm_id":"4939037672","tag":{"amenity":"waste_basket"}},"type":"Feature"},
	{"geometry":{"coordinates":[3.26276,39.452492],"type":"Point"},"properties":{"osm_id":"6467658495","tag":{"amenity":"recycling","opening_hours":"24/7","recycling:PET":"yes","recycling:aluminium":"yes","recycling:cans":"yes","recycling:cardboard":"yes","recycling:coffee_capsules":"yes","recycling:glass_bottles":"yes","recycling:paper":"yes","recycling:plastic":"yes","recycling:plastic_bottles":"yes","recycling:plastic_packaging":"yes","recycling:waste":"yes","recycling_type":"container","source:wheelchair":"survey","wheelchair":"limited","wheelchair:description":"yes, but containers are too high"}},"type":"Feature"},
	{"geometry":{"coordinates":[3.261742,39.450308],"type":"Point"},"properties":{"osm_id":"6468318588","tag":{"amenity":"recycling","opening_hours":"24/7","recycling:PET":"yes","recycling:aluminium":"yes","recycling:cans":"yes","recycling:cardboard":"yes","recycling:coffee_capsules":"yes","recycling:glass_bottles":"yes","recycling:paper":"yes","recycling:plastic":"yes","recycling:plastic_bottles":"yes","recycling:plastic_packaging":"yes","recycling:waste":"yes","recycling_type":"container","wheelchair":"limited"}},"type":"Feature"},
	{"geometry":{"coordinates":[3.262535,39.450468],"type":"Point"},"properties":{"osm_id":"6468318589","tag":{"amenity":"recycling","opening_hours":"24/7","recycling:waste":"yes","recycling_type":"container","wheelchair":"limited"}},"type":"Feature"},
	{"geometry":{"coordinates":[3.262382,39.455372],"type":"Point"},"properties":{"osm_id":"6474643052","tag":{"addr:street":"Via Europa","amenity":"recycling","opening_hours":"24/7","recycling:waste":"yes","recycling_type":"container","wheelchair":"limited"}},"type":"Feature"},
	{"geometry":{"coordinates":[3.260525,39.455782],"type":"Point"},"properties":{"osm_id":"6474643053","tag":{"addr:street":"Via Europa","amenity":"recycling","opening_hours":"24/7","recycling:waste":"yes","recycling_type":"container","wheelchair":"limited"}},"type":"Feature"},
	{"geometry":{"coordinates":[3.261731,39.45527],"type":"Point"},"properties":{"osm_id":"6474643054","tag":{"amenity":"recycling","opening_hours":"24/7","recycling:waste":"yes","recycling_type":"container","wheelchair":"limited"}},"type":"Feature"},
	{"geometry":{"coordinates":[3.264846,39.454927],"type":"Point"},"properties":{"osm_id":"6474643055","tag":{"amenity":"recycling","opening_hours":"24/7","recycling:waste":"yes","recycling_type":"container","wheelchair":"limited"}},"type":"Feature"}
]
}
