{
"type": "FeatureCollection",
"features": [
	{"geometry":{"coordinates":[-123.750479,46.975962],"type":"Point"},"properties":{"name":"Grays Harbor Transfer Station","osm_id":"1666850551","tag":{"addr:city":"Aberdeen","addr:housenumber":"4201","addr:postcode":"98520","addr:state":"WA","addr:street":"Olympic Highway","amenity":"recycling","opening_hours":"Mo-Fr 08:00-17:00, Sa 08:00-16:00","operator":"LeMays","recycling:cans":"yes","recycling:cardboard":"yes","recycling:cartons":"yes","recycling:glass_bottles":"yes","recycling:magazines":"yes","recycling:newspaper":"yes","recycling:paper":"yes","recycling:paper_packaging":"yes","recycling:plastic_bottles":"yes","recycling:waste":"yes","recycling_type":"centre"}},"type":"Feature"},
	{"geometry":{"coordinates":[-123.802561,46.971177],"type":"Point"},"properties":{"osm_id":"2105165998","tag":{"amenity":"recycling","recycling:clothes":"yes","recycling:glass":"yes","recycling_type":"container"}},"type":"Feature"},
	{"geometry":{"coordinates":[-123.812614,46.97655],"type":"Point"},"properties":{"osm_id":"5565443423","tag":{"amenity":"waste_basket"}},"type":"Feature"}
]
}
