{
"type": "FeatureCollection",
"features": [
	{"geometry":{"coordinates":[123.584978,-10.157076],"type":"Point"},"properties":{"osm_id":"1612726304","tag":{"amenity":"waste_basket"}},"type":"Feature"},
	{"geometry":{"coordinates":[123.586594,-10.157655],"type":"Point"},"properties":{"osm_id":"1612726790","tag":{"amenity":"waste_basket"}},"type":"Feature"},
	{"geometry":{"coordinates":[123.587758,-10.157738],"type":"Point"},"properties":{"osm_id":"1612726848","tag":{"amenity":"waste_basket","recycling_type":"P2KP 2008"}},"type":"Feature"},
	{"geometry":{"coordinates":[123.585244,-10.157849],"type":"Point"},"properties":{"osm_id":"1612726903","tag":{"amenity":"waste_basket"}},"type":"Feature"},
	{"geometry":{"coordinates":[123.585745,-10.158961],"type":"Point"},"properties":{"osm_id":"1612726976","tag":{"amenity":"waste_basket"}},"type":"Feature"},
	{"geometry":{"coordinates":[123.586206,-10.159092],"type":"Point"},"properties":{"osm_id":"1612727033","tag":{"amenity":"waste_basket"}},"type":"Feature"},
	{"geometry":{"coordinates":[123.584192,-10.159426],"type":"Point"},"properties":{"osm_id":"1612727051","tag":{"amenity":"waste_basket"}},"type":"Feature"},
	{"geometry":{"coordinates":[123.602074,-10.186837],"type":"Point"},"properties":{"osm_id":"1641360632","tag":{"amenity":"waste_basket"}},"type":"Feature"},
	{"geometry":{"coordinates":[123.60113,-10.188922],"type":"Point"},"properties":{"osm_id":"1641360641","tag":{"amenity":"waste_basket"}},"type":"Feature"},
	{"geometry":{"coordinates":[123.604983,-10.191709],"type":"Point"},"properties":{"osm_id":"1641360660","tag":{"amenity":"waste_basket"}},"type":"Feature"},
	{"geometry":{"coordinates":[123.597589,-10.178876],"type":"Point"},"properties":{"osm_id":"1642693301","tag":{"amenity":"waste_basket"}},"type":"Feature"},
	{"geometry":{"coordinates":[123.605936,-10.168982],"type":"Point"},"properties":{"osm_id":"1643846887","tag":{"amenity":"waste_basket"}},"type":"Feature"},
	{"geometry":{"coordinates":[123.585711,-10.156888],"type":"Point"},"properties":{"osm_id":"2113160344","tag":{"amenity":"waste_basket"}},"type":"Feature"},
	{"geometry":{"coordinates":[123.58695,-10.157753],"type":"Point"},"properties":{"osm_id":"2113160345","tag":{"amenity":"waste_basket"}},"type":"Feature"}
]
}
