{
"type": "FeatureCollection",
"features": [
	{"geometry":{"coordinates":[-95.431677,29.765494],"type":"Point"},"properties":{"osm_id":"2419921931","tag":{"amenity":"waste_basket"}},"type":"Feature"},
	{"geometry":{"coordinates":[-95.440405,29.765694],"type":"Point"},"properties":{"osm_id":"2585122090","tag":{"amenity":"recycling","location":"overground","recycling:cans":"yes","recycling:clothes":"no","recycling:paper":"yes","recycling_type":"container"}},"type":"Feature"},
	{"geometry":{"coordinates":[-95.440428,29.765704],"type":"Point"},"properties":{"osm_id":"2585122100","tag":{"amenity":"waste_basket"}},"type":"Feature"},
	{"geometry":{"coordinates":[-95.436081,29.76543],"type":"Point"},"properties":{"osm_id":"2585122130","tag":{"amenity":"waste_basket"}},"type":"Feature"},
	{"geometry":{"coordinates":[-95.446058,29.768292],"type":"Point"},"properties":{"osm_id":"2585122149","tag":{"amenity":"waste_basket"}},"type":"Feature"},
	{"geometry":{"coordinates":[-95.430456,29.829166],"type":"Point"},"properties":{"name":"Goodwill Donation Center","osm_id":"3768401994","tag":{"addr:city":"Houston","addr:housenumber":"1214","addr:state":"TX","addr:street":"West 43rd Street","addr:unit":"1100","amenity":"recycling","opening_hours":"Mo-Su 08:00-18:00","recycling:clothes":"yes","recycling:shoes":"yes","recycling:small_appliances":"yes","recycling_type":"centre"}},"type":"Feature"},
	{"geometry":{"coordinates":[-95.414143,29.806597],"type":"Point"},"properties":{"osm_id":"6357923378","tag":{"amenity":"waste_basket","waste":"trash"}},"type":"Feature"},
	{"geometry":{"coordinates":[-95.413965,29.806256],"type":"Point"},"properties":{"osm_id":"6357923379","tag":{"amenity":"waste_basket","waste":"trash"}},"type":"Feature"},
	{"geometry":{"coordinates":[-95.413769,29.806526],"type":"Point"},"properties":{"osm_id":"6357923382","tag":{"amenity":"waste_basket","waste":"trash"}},"type":"Feature"},
	{"geometry":{"coordinates":[-95.382794,29.829763],"type":"Point"},"properties":{"osm_id":"7140134084","tag":{"amenity":"recycling","recycling:clothes":"yes","recycling:shoes":"yes","recycling_type":"container"}},"type":"Feature"},
	{"geometry":{"coordinates":[-95.414527,29.783383],"type":"Point"},"properties":{"osm_id":"7572814880","tag":{"amenity":"recycling","recycling_type":"container"}},"type":"Feature"},
	{"geometry":{"coordinates":[-95.414517,29.783383],"type":"Point"},"properties":{"osm_id":"7572814881","tag":{"amenity":"waste_basket"}},"type":"Feature"},
	{"geometry":{"coordinates":[-95.425035,29.800748],"type":"Point"},"properties":{"osm_id":"7572925095","tag":{"amenity":"recycling","recycling_type":"container"}},"type":"Feature"},
	{"geometry":{"coordinates":[-95.425024,29.800742],"type":"Point"},"properties":{"osm_id":"7572925096","tag":{"amenity":"waste_basket"}},"type":"Feature"}
]
}
