{
"type": "FeatureCollection",
"features": [
	{"geometry":{"coordinates":[-95.403848,29.763051],"type":"Point"},"properties":{"osm_id":"2333165099","tag":{"amenity":"waste_basket"}},"type":"Feature"},
	{"geometry":{"coordinates":[-95.403229,29.763488],"type":"Point"},"properties":{"osm_id":"2358510610","tag":{"amenity":"waste_basket"}},"type":"Feature"},
	{"geometry":{"coordinates":[-95.412149,29.697912],"type":"Point"},"properties":{"osm_id":"2609745214","tag":{"amenity":"waste_basket"}},"type":"Feature"},
	{"geometry":{"coordinates":[-95.423888,29.69733],"type":"Point"},"properties":{"osm_id":"2609795540","tag":{"amenity":"waste_basket"}},"type":"Feature"},
	{"geometry":{"coordinates":[-95.423698,29.697287],"type":"Point"},"properties":{"osm_id":"2609797240","tag":{"amenity":"waste_basket"}},"type":"Feature"},
	{"geometry":{"coordinates":[-95.400738,29.761244],"type":"Point"},"properties":{"osm_id":"2696400852","tag":{"amenity":"waste_basket"}},"type":"Feature"},
	{"geometry":{"coordinates":[-95.423866,29.697327],"type":"Point"},"properties":{"osm_id":"3815560291","tag":{"amenity":"recycling","recycling:cans":"yes","recycling:clothes":"no","recycling:paper":"yes","recycling:plastic":"yes","recycling_type":"container"}},"type":"Feature"},
	{"geometry":{"coordinates":[-95.408609,29.761446],"type":"Point"},"properties":{"osm_id":"3838888533","tag":{"amenity":"waste_basket"}},"type":"Feature"},
	{"geometry":{"coordinates":[-95.408625,29.761451],"type":"Point"},"properties":{"osm_id":"3838888534","tag":{"amenity":"recycling","recycling:cans":"yes","recycling:clothes":"no","recycling:plastic":"yes","recycling_type":"container"}},"type":"Feature"},
	{"geometry":{"coordinates":[-95.428253,29.693602],"type":"Point"},"properties":{"osm_id":"5150285252","tag":{"amenity":"waste_basket"}},"type":"Feature"},
	{"geometry":{"coordinates":[-95.42825,29.693611],"type":"Point"},"properties":{"osm_id":"5150285253","tag":{"amenity":"recycling","recycling_type":"container"}},"type":"Feature"},
	{"geometry":{"coordinates":[-95.427088,29.695116],"type":"Point"},"properties":{"osm_id":"5150285255","tag":{"amenity":"waste_basket"}},"type":"Feature"},
	{"geometry":{"coordinates":[-95.433914,29.74213],"type":"Point"},"properties":{"osm_id":"5228348132","tag":{"amenity":"waste_basket"}},"type":"Feature"},
	{"geometry":{"coordinates":[-95.424216,29.732847],"type":"Point"},"properties":{"osm_id":"5904250592","tag":{"amenity":"waste_basket","waste":"dog_excrement"}},"type":"Feature"},
	{"geometry":{"coordinates":[-95.42422,29.732423],"type":"Point"},"properties":{"osm_id":"5904250593","tag":{"amenity":"waste_basket","waste":"dog_excrement"}},"type":"Feature"},
	{"geometry":{"coordinates":[-95.449111,29.742759],"type":"Point"},"properties":{"osm_id":"5906777487","tag":{"amenity":"waste_basket","waste":"dog_excrement"}},"type":"Feature"},
	{"geometry":{"coordinates":[-95.403132,29.76318],"type":"Point"},"properties":{"osm_id":"5927669245","tag":{"amenity":"waste_basket"}},"type":"Feature"},
	{"geometry":{"coordinates":[-95.403128,29.763316],"type":"Point"},"properties":{"osm_id":"5927669246","tag":{"amenity":"waste_basket"}},"type":"Feature"},
	{"geometry":{"coordinates":[-95.404073,29.76364],"type":"Point"},"properties":{"osm_id":"5927669252","tag":{"amenity":"waste_basket"}},"type":"Feature"},
	{"geometry":{"coordinates":[-95.384391,29.761438],"type":"Point"},"properties":{"osm_id":"5983451371","tag":{"amenity":"waste_basket"}},"type":"Feature"},
	{"geometry":{"coordinates":[-95.384381,29.761438],"type":"Point"},"properties":{"osm_id":"5983451372","tag":{"amenity":"recycling","recycling_type":"container"}},"type":"Feature"},
	{"geometry":{"coordinates":[-95.387181,29.761264],"type":"Point"},"properties":{"osm_id":"5983451378","tag":{"amenity":"waste_basket"}},"type":"Feature"},
	{"geometry":{"coordinates":[-95.387171,29.761268],"type":"Point"},"properties":{"osm_id":"5983451379","tag":{"amenity":"recycling","recycling_type":"container"}},"type":"Feature"},
	{"geometry":{"coordinates":[-95.388308,29.761142],"type":"Point"},"properties":{"osm_id":"5983451382","tag":{"amenity":"waste_basket"}},"type":"Feature"},
	{"geometry":{"coordinates":[-95.388296,29.761142],"type":"Point"},"properties":{"osm_id":"5983451383","tag":{"amenity":"recycling","recycling_type":"container"}},"type":"Feature"},
	{"geometry":{"coordinates":[-95.445404,29.720027],"type":"Point"},"properties":{"osm_id":"6047540771","tag":{"amenity":"recycling","recycling_type":"container"}},"type":"Feature"},
	{"geometry":{"coordinates":[-95.445413,29.720018],"type":"Point"},"properties":{"osm_id":"6047540772","tag":{"amenity":"waste_basket"}},"type":"Feature"},
	{"geometry":{"coordinates":[-95.446131,29.719716],"type":"Point"},"properties":{"osm_id":"6047545026","tag":{"amenity":"recycling","recycling_type":"container"}},"type":"Feature"},
	{"geometry":{"coordinates":[-95.446101,29.719701],"type":"Point"},"properties":{"osm_id":"6047545027","tag":{"amenity":"waste_basket"}},"type":"Feature"},
	{"geometry":{"coordinates":[-95.443657,29.712539],"type":"Point"},"properties":{"osm_id":"6047562603","tag":{"amenity":"recycling","recycling_type":"container"}},"type":"Feature"},
	{"geometry":{"coordinates":[-95.443678,29.712548],"type":"Point"},"properties":{"osm_id":"6047562604","tag":{"amenity":"waste_basket"}},"type":"Feature"},
	{"geometry":{"coordinates":[-95.443001,29.713021],"type":"Point"},"properties":{"osm_id":"6047562605","tag":{"amenity":"waste_basket"}},"type":"Feature"},
	{"geometry":{"coordinates":[-95.440062,29.715976],"type":"Point"},"properties":{"osm_id":"6047586819","tag":{"amenity":"waste_basket"}},"type":"Feature"},
	{"geometry":{"coordinates":[-95.441251,29.693587],"type":"Point"},"properties":{"osm_id":"6047591784","tag":{"amenity":"waste_basket"}},"type":"Feature"},
	{"geometry":{"coordinates":[-95.440755,29.694205],"type":"Point"},"properties":{"osm_id":"6047596886","tag":{"amenity":"waste_basket"}},"type":"Feature"},
	{"geometry":{"coordinates":[-95.364318,29.757552],"type":"Point"},"properties":{"osm_id":"6496443066","tag":{"amenity":"waste_basket","waste":"trash"}},"type":"Feature"},
	{"geometry":{"coordinates":[-95.364456,29.757699],"type":"Point"},"properties":{"osm_id":"6496443067","tag":{"amenity":"waste_basket","waste":"trash"}},"type":"Feature"},
	{"geometry":{"coordinates":[-95.37967,29.754388],"type":"Point"},"properties":{"osm_id":"6886703727","tag":{"amenity":"waste_disposal"}},"type":"Feature"},
	{"geometry":{"coordinates":[-95.39829,29.689501],"type":"Point"},"properties":{"osm_id":"7011491385","tag":{"amenity":"waste_basket"}},"type":"Feature"},
	{"geometry":{"coordinates":[-95.437267,29.716763],"type":"Point"},"properties":{"osm_id":"7220764017","tag":{"amenity":"waste_basket","description":"Trash and Recycling Container"}},"type":"Feature"},
	{"geometry":{"coordinates":[-95.437289,29.716511],"type":"Point"},"properties":{"osm_id":"7220764018","tag":{"amenity":"waste_basket","description":"Trash and Recycling Container"}},"type":"Feature"},
	{"geometry":{"coordinates":[-95.437289,29.716482],"type":"Point"},"properties":{"osm_id":"7220764019","tag":{"amenity":"waste_basket","waste":"dog_excrement"}},"type":"Feature"},
	{"geometry":{"coordinates":[-95.40604,29.753809],"type":"Point"},"properties":{"name":"Cost Cutters","osm_id":"7827809740","tag":{"addr:housenumber":"1944","addr:street":"West Gray Street","brand":"Cost Cutters","brand:wikidata":"Q62029366","shop":"hairdresser"}},"type":"Feature"}
]
}
