{
"type": "FeatureCollection",
"features": [
	{"geometry":{"coordinates":[29.601301,60.256594],"type":"Point"},"properties":{"osm_id":"853130076","tag":{"amenity":"waste_disposal"}},"type":"Feature"},
	{"geometry":{"coordinates":[29.579026,60.248829],"type":"Point"},"properties":{"osm_id":"853130085","tag":{"amenity":"waste_disposal"}},"type":"Feature"},
	{"geometry":{"coordinates":[29.607289,60.255933],"type":"Point"},"properties":{"osm_id":"1075564637","tag":{"amenity":"waste_disposal"}},"type":"Feature"},
	{"geometry":{"coordinates":[29.599724,60.254484],"type":"Point"},"properties":{"osm_id":"1214511248","tag":{"amenity":"waste_disposal"}},"type":"Feature"},
	{"geometry":{"coordinates":[29.597839,60.256686],"type":"Point"},"properties":{"osm_id":"1215725864","tag":{"amenity":"waste_disposal"}},"type":"Feature"},
	{"geometry":{"coordinates":[29.616777,60.255852],"type":"Point"},"properties":{"osm_id":"1215725943","tag":{"amenity":"waste_disposal"}},"type":"Feature"},
	{"geometry":{"coordinates":[29.59304,60.255197],"type":"Point"},"properties":{"osm_id":"1215733066","tag":{"amenity":"waste_disposal"}},"type":"Feature"},
	{"geometry":{"coordinates":[29.57848,60.254731],"type":"Point"},"properties":{"osm_id":"1366565750","tag":{"amenity":"waste_disposal"}},"type":"Feature"},
	{"geometry":{"coordinates":[29.593057,60.264447],"type":"Point"},"properties":{"osm_id":"1404558843","tag":{"amenity":"waste_disposal"}},"type":"Feature"},
	{"geometry":{"coordinates":[29.618218,60.252179],"type":"Point"},"properties":{"osm_id":"1426727080","tag":{"amenity":"waste_disposal"}},"type":"Feature"},
	{"geometry":{"coordinates":[29.593076,60.259174],"type":"Point"},"properties":{"osm_id":"1472128856","tag":{"amenity":"waste_disposal"}},"type":"Feature"},
	{"geometry":{"coordinates":[29.615817,60.247333],"type":"Point"},"properties":{"osm_id":"1503619020","tag":{"amenity":"waste_disposal"}},"type":"Feature"},
	{"geometry":{"coordinates":[29.56281,60.249448],"type":"Point"},"properties":{"osm_id":"1781879080","tag":{"amenity":"waste_disposal"}},"type":"Feature"},
	{"geometry":{"coordinates":[29.540783,60.242169],"type":"Point"},"properties":{"osm_id":"1809363659","tag":{"amenity":"waste_basket"}},"type":"Feature"},
	{"geometry":{"coordinates":[29.614282,60.255282],"type":"Point"},"properties":{"osm_id":"2177776459","tag":{"entrance":"main"}},"type":"Feature"},
	{"geometry":{"coordinates":[29.548686,60.263108],"type":"Point"},"properties":{"osm_id":"2341555396","tag":{"amenity":"waste_disposal"}},"type":"Feature"},
	{"geometry":{"coordinates":[29.575561,60.250779],"type":"Point"},"properties":{"osm_id":"2895067334","tag":{"amenity":"waste_disposal"}},"type":"Feature"},
	{"geometry":{"coordinates":[29.578087,60.257823],"type":"Point"},"properties":{"osm_id":"7483148952","tag":{"amenity":"recycling","recycling_type":"centre"}},"type":"Feature"}
]
}
