{
"type": "FeatureCollection",
"features": [
	{"geometry":{"coordinates":[29.616394,-0.96977],"type":"Point"},"properties":{"name":"Composite Pit","osm_id":"6752712347","tag":{"addr:county":"Kinkizi","addr:district":"Kanungu","addr:parish":"Mukono","addr:subcounty":"Kayonza","addr:village":"Buhoma","amenity":"waste_disposal","fee":"no","lit":"no","operator":"Buhoma Mukono Development Association","operator:type":"NGO","start_date":"2018-05-01","waste":"rubbish"}},"type":"Feature"},
	{"geometry":{"coordinates":[29.614767,-0.967518],"type":"Point"},"properties":{"name":"Metallic Dump Pit","osm_id":"6752712360","tag":{"addr:county":"Kinkizi","addr:district":"Kanungu","addr:parish":"Mukono","addr:subcounty":"Kayonza","addr:village":"Buhoma","amenity":"waste_disposal","fee":"no","lit":"no","operator:type":"Community","start_date":"2018-05-01","waste":"rubbish"}},"type":"Feature"},
	{"geometry":{"coordinates":[29.587412,-1.028735],"type":"Point"},"properties":{"name":"Trush Bin","osm_id":"6759525825","tag":{"addr:county":"Bufumbira","addr:district":"Kisoro","addr:parish":"Nteko","addr:subcounty":"Nyabwishenya","addr:village":"Neko","amenity":"waste_basket","fee":"no","lit":"no","operator":"ngo","start_date":"2018-08-01","waste":"waste basket"}},"type":"Feature"},
	{"geometry":{"coordinates":[29.588118,-1.025282],"type":"Point"},"properties":{"name":"Nteko Blessed Pre Primary School Compost Pit","osm_id":"6759525829","tag":{"addr:county":"Bufumbira","addr:district":"Kisoro","addr:parish":"Nteko","addr:subcounty":"Nyabwishenya","addr:village":"Nteko","amenity":"waste_disposal","fee":"no","lit":"no","operator":"community","start_date":"2018-10-01","waste":"compost pit"}},"type":"Feature"},
	{"geometry":{"coordinates":[29.596273,-1.051033],"type":"Point"},"properties":{"name":"Compost","osm_id":"6759533435","tag":{"addr:county":"Bufumbira","addr:district":"Kisoro","addr:parish":"Nteko","addr:subcounty":"Nyabwishenya","addr:village":"Kikobero","amenity":"waste_disposal","fee":"no","lit":"no","operator":"community","start_date":"2021-02-01"}},"type":"Feature"},
	{"geometry":{"coordinates":[29.592713,-1.040792],"type":"Point"},"properties":{"name":"Mountains Compost Pit","osm_id":"6759533450","tag":{"addr:county":"Bufumbira","addr:district":"Kisoro","addr:parish":"Nteko","addr:subcounty":"Nyabwishenya","addr:village":"Kikobero","amenity":"waste_disposal","fee":"no","lit":"no","operator":"ngo","start_date":"2019-03-01","waste":"compost"}},"type":"Feature"}
]
}
