{
"type": "FeatureCollection",
"features": [
	{"geometry":{"coordinates":[29.598332,-1.055508],"type":"Point"},"properties":{"name":"Nkuringo Integrated Model School Composit","osm_id":"6759525816","tag":{"addr:county":"Bufumbira","addr:district":"Kisoro","addr:parish":"Nteko","addr:subcounty":"Nyabwishenya","addr:village":"Kikobero","amenity":"waste_disposal","fee":"no","lit":"no","operator":"community","start_date":"2018-07-01","waste":"compost pit"}},"type":"Feature"},
	{"geometry":{"coordinates":[29.596073,-1.113805],"type":"Point"},"properties":{"name":"Compost Pit","osm_id":"6759525878","tag":{"addr:county":"Bufumbira","addr:district":"Kisoro","addr:parish":"Nyarutembe","addr:subcounty":"Nyabwishenya","addr:village":"Muko","amenity":"waste_disposal","fee":"no","lit":"no","operator":"government","start_date":"2019-01-01","waste":"compost pit"}},"type":"Feature"},
	{"geometry":{"coordinates":[29.601892,-1.058955],"type":"Point"},"properties":{"name":"Sanuriro","osm_id":"6759533405","tag":{"addr:county":"Bufumbira","addr:district":"Kisoro","addr:parish":"Nteko","addr:subcounty":"Nyabwishenya","addr:village":"Kikomo","amenity":"waste_disposal","fee":"no","lit":"no","operator":"community","start_date":"2019-01-01","waste":"composite pit"}},"type":"Feature"},
	{"geometry":{"coordinates":[29.607789,-1.070193],"type":"Point"},"properties":{"name":"Kokoma Health Center","osm_id":"6759533411","tag":{"addr:county":"Bufumbira","addr:district":"Kisoro","addr:parish":"Nteko","addr:subcounty":"Nyabwishenya","addr:village":"Kokoma","amenity":"waste_disposal","fee":"no","lit":"no","operator":"community","start_date":"2019-01-01","waste":"composite pit"}},"type":"Feature"},
	{"geometry":{"coordinates":[29.588373,-1.140137],"type":"Point"},"properties":{"name":"Rubbish Pit","osm_id":"6759533425","tag":{"addr:county":"Bufumbira","addr:district":"Kisoro","addr:parish":"Nyarutembe","addr:subcounty":"Nyabwishenya","addr:village":"Kigezi","amenity":"waste_disposal","fee":"no","lit":"no","operator":"government","start_date":"2017-01-01","waste":"compost pit"}},"type":"Feature"}
]
}
