{
"type": "FeatureCollection",
"features": [
	{"geometry":{"coordinates":[29.607723,-1.29162],"type":"Point"},"properties":{"name":"Bunagana Health Centre II","osm_id":"6759525833","tag":{"addr:county":"Bufumbira","addr:district":"Kisoro","addr:parish":"Bunagana","addr:subcounty":"Muramba","addr:village":"Gatsibo","amenity":"waste_disposal","fee":"no","lit":"no","operator":"government","start_date":"2000-07-01","waste":"incenerator"}},"type":"Feature"},
	{"geometry":{"coordinates":[29.616327,-1.309601],"type":"Point"},"properties":{"name":"School Compost Pit","osm_id":"6759533392","tag":{"addr:county":"Bufumbira","addr:district":"Kisoro","addr:parish":"Bunagana","addr:subcounty":"Muramba","addr:village":"Kigoro","amenity":"waste_disposal","fee":"no","lit":"no","operator":"community","start_date":"2019-05-01","waste":"compost pit"}},"type":"Feature"},
	{"geometry":{"coordinates":[29.61384,-1.309755],"type":"Point"},"properties":{"name":"School Compost Pit","osm_id":"6759533394","tag":{"addr:county":"Bufumbira","addr:district":"Kisoro","addr:parish":"Bunagana","addr:subcounty":"Muramba","addr:village":"Gakoro","amenity":"waste_disposal","fee":"no","lit":"no","operator":"community","start_date":"2017-07-01","waste":"compost pit"}},"type":"Feature"},
	{"geometry":{"coordinates":[29.608123,-1.303305],"type":"Point"},"properties":{"name":"Kanyampiriko Compost Pit","osm_id":"6759533416","tag":{"addr:county":"Bufumbira","addr:district":"Kisoro","addr:parish":"Bunagana","addr:subcounty":"Muramba","addr:village":"Kanyampiriko","amenity":"waste_disposal","fee":"no","lit":"no","operator":"community","start_date":"2015-01-01","waste":"compost pit"}},"type":"Feature"},
	{"geometry":{"coordinates":[29.603748,-1.290921],"type":"Point"},"properties":{"name":"Bunagana Primary School","osm_id":"6759533442","tag":{"addr:county":"Bufumbira","addr:district":"Kisoro","addr:parish":"Bunagana","addr:subcounty":"Muramba","addr:village":"Gastibo","amenity":"waste_disposal","fee":"no","lit":"no","operator":"community","start_date":"1976-07-01","waste":"composit pit"}},"type":"Feature"}
]
}
