{
"type": "FeatureCollection",
"features": [
	{"geometry":{"coordinates":[0.826566,49.434298],"type":"Point"},"properties":{"osm_id":"692430492","tag":{"amenity":"recycling","recycling:glass_bottles":"yes"}},"type":"Feature"},
	{"geometry":{"coordinates":[0.819274,49.432661],"type":"Point"},"properties":{"osm_id":"7201370015","tag":{"amenity":"waste_basket","waste":"trash","wheelchair":"yes"}},"type":"Feature"},
	{"geometry":{"coordinates":[0.819517,49.432796],"type":"Point"},"properties":{"osm_id":"7201370021","tag":{"amenity":"waste_basket","waste":"trash","wheelchair":"yes"}},"type":"Feature"},
	{"geometry":{"coordinates":[0.814219,49.430665],"type":"Point"},"properties":{"osm_id":"7343487879","tag":{"access":"yes","amenity":"recycling","fee":"no","operator":"Syndicat mixte d'\u00e9limination des d\u00e9chets de l'arrondissement de Rouen","recycling:glass":"yes","recycling_type":"container","wheelchair":"no"}},"type":"Feature"},
	{"geometry":{"coordinates":[0.814176,49.430671],"type":"Point"},"properties":{"osm_id":"7343487880","tag":{"access":"yes","amenity":"recycling","fee":"no","operator":"Syndicat mixte d'\u00e9limination des d\u00e9chets de l'arrondissement de Rouen","recycling:glass":"yes","recycling_type":"container","wheelchair":"no"}},"type":"Feature"},
	{"geometry":{"coordinates":[0.814137,49.430677],"type":"Point"},"properties":{"osm_id":"7343487881","tag":{"access":"yes","amenity":"recycling","fee":"no","operator":"Syndicat mixte d'\u00e9limination des d\u00e9chets de l'arrondissement de Rouen","recycling:glass":"yes","recycling_type":"container","wheelchair":"no"}},"type":"Feature"}
]
}
