{
"type": "FeatureCollection",
"features": [
	{"geometry":{"coordinates":[0.827277,47.798818],"type":"Point"},"properties":{"osm_id":"3742981188","tag":{"amenity":"recycling","recycling:glass":"yes"}},"type":"Feature"},
	{"geometry":{"coordinates":[0.79136,47.775191],"type":"Point"},"properties":{"osm_id":"5996234615","tag":{"amenity":"waste_basket"}},"type":"Feature"},
	{"geometry":{"coordinates":[0.851884,47.768428],"type":"Point"},"properties":{"name":"D\u00c3\u00a9ch\u00c3\u00a8terie\u00c2\u00a0de\u00c2\u00a0Montoire-sur-le-loir","osm_id":"6960930048","tag":{"amenity":"recycling","operator":"Sictom\u00a0Montoire-La\u00a0Chartre","phone":"+33 2 54 86 60 20","recycling_type":"centre","ref:FR:SINOE":"3218","start_date":"1993-03-17"}},"type":"Feature"},
	{"geometry":{"coordinates":[0.864082,47.754464],"type":"Point"},"properties":{"osm_id":"7817130458","tag":{"amenity":"waste_basket"}},"type":"Feature"},
	{"geometry":{"coordinates":[0.864344,47.754607],"type":"Point"},"properties":{"osm_id":"7817168960","tag":{"amenity":"waste_basket"}},"type":"Feature"},
	{"geometry":{"coordinates":[0.864843,47.754275],"type":"Point"},"properties":{"osm_id":"7817176495","tag":{"amenity":"waste_basket"}},"type":"Feature"}
]
}
