{
"type": "FeatureCollection",
"features": [
	{"geometry":{"coordinates":[0.817614,47.391445],"type":"Point"},"properties":{"osm_id":"2219755033","tag":{"amenity":"waste_basket"}},"type":"Feature"},
	{"geometry":{"coordinates":[0.817736,47.391523],"type":"Point"},"properties":{"osm_id":"2219755106","tag":{"amenity":"waste_basket"}},"type":"Feature"},
	{"geometry":{"coordinates":[0.850567,47.351075],"type":"Point"},"properties":{"osm_id":"2997698311","tag":{"amenity":"recycling","recycling:batteries":"no","recycling:books":"no","recycling:cans":"no","recycling:cardboard":"no","recycling:cartons":"no","recycling:clothes":"no","recycling:electrical_appliances":"no","recycling:glass":"yes","recycling:glass_bottles":"yes","recycling:green_waste":"no","recycling:magazines":"no","recycling:newspaper":"no","recycling:paper":"no","recycling:paper_packaging":"no","recycling:plastic":"no","recycling:plastic_bottles":"no","recycling:plastic_packaging":"no","recycling:scrap_metal":"no","recycling:small_appliances":"no","recycling:waste":"no","recycling:wood":"no","recycling_type":"container"}},"type":"Feature"},
	{"geometry":{"coordinates":[0.849738,47.351235],"type":"Point"},"properties":{"osm_id":"2997698316","tag":{"amenity":"waste_basket"}},"type":"Feature"},
	{"geometry":{"coordinates":[0.820961,47.371832],"type":"Point"},"properties":{"osm_id":"3901874741","tag":{"amenity":"waste_basket"}},"type":"Feature"},
	{"geometry":{"coordinates":[0.833518,47.369321],"type":"Point"},"properties":{"name":"La Bourdaisi\u00c3\u00a8re","osm_id":"3901878044","tag":{"amenity":"waste_basket","network":"Fil Vert","public_transport":"pole"}},"type":"Feature"},
	{"geometry":{"coordinates":[0.827567,47.370151],"type":"Point"},"properties":{"osm_id":"3901880912","tag":{"amenity":"waste_basket"}},"type":"Feature"},
	{"geometry":{"coordinates":[0.819593,47.371497],"type":"Point"},"properties":{"osm_id":"3901881168","tag":{"amenity":"waste_basket"}},"type":"Feature"},
	{"geometry":{"coordinates":[0.846228,47.349439],"type":"Point"},"properties":{"osm_id":"5968323132","tag":{"amenity":"waste_basket"}},"type":"Feature"},
	{"geometry":{"coordinates":[0.827418,47.38915],"type":"Point"},"properties":{"osm_id":"6033624359","tag":{"amenity":"waste_basket"}},"type":"Feature"},
	{"geometry":{"coordinates":[0.827737,47.389558],"type":"Point"},"properties":{"osm_id":"6050910952","tag":{"amenity":"waste_basket"}},"type":"Feature"},
	{"geometry":{"coordinates":[0.857749,47.382272],"type":"Point"},"properties":{"osm_id":"6154022019","tag":{"amenity":"waste_basket"}},"type":"Feature"},
	{"geometry":{"coordinates":[0.85205,47.375973],"type":"Point"},"properties":{"osm_id":"6220862467","tag":{"amenity":"waste_basket"}},"type":"Feature"},
	{"geometry":{"coordinates":[0.825911,47.387614],"type":"Point"},"properties":{"osm_id":"6253568795","tag":{"amenity":"recycling","recycling_type":"container"}},"type":"Feature"},
	{"geometry":{"coordinates":[0.825936,47.38754],"type":"Point"},"properties":{"osm_id":"6253568796","tag":{"amenity":"recycling","recycling_type":"container"}},"type":"Feature"},
	{"geometry":{"coordinates":[0.825924,47.387577],"type":"Point"},"properties":{"osm_id":"6253568797","tag":{"amenity":"recycling","recycling_type":"container"}},"type":"Feature"},
	{"geometry":{"coordinates":[0.825918,47.387595],"type":"Point"},"properties":{"osm_id":"6253568798","tag":{"amenity":"recycling","recycling_type":"container"}},"type":"Feature"},
	{"geometry":{"coordinates":[0.82593,47.387558],"type":"Point"},"properties":{"osm_id":"6253568799","tag":{"amenity":"recycling","recycling_type":"container"}},"type":"Feature"},
	{"geometry":{"coordinates":[0.825067,47.388247],"type":"Point"},"properties":{"osm_id":"6253654398","tag":{"amenity":"recycling","recycling_type":"container"}},"type":"Feature"},
	{"geometry":{"coordinates":[0.825073,47.388229],"type":"Point"},"properties":{"osm_id":"6253654399","tag":{"amenity":"recycling","recycling_type":"container"}},"type":"Feature"},
	{"geometry":{"coordinates":[0.825123,47.388085],"type":"Point"},"properties":{"osm_id":"6253654404","tag":{"amenity":"recycling","recycling_type":"container"}},"type":"Feature"},
	{"geometry":{"coordinates":[0.825116,47.388103],"type":"Point"},"properties":{"osm_id":"6253654405","tag":{"amenity":"recycling","recycling_type":"container"}},"type":"Feature"},
	{"geometry":{"coordinates":[0.825079,47.388212],"type":"Point"},"properties":{"osm_id":"6253654406","tag":{"amenity":"recycling","recycling_type":"container"}},"type":"Feature"},
	{"geometry":{"coordinates":[0.821354,47.38417],"type":"Point"},"properties":{"osm_id":"6304236834","tag":{"amenity":"waste_basket"}},"type":"Feature"},
	{"geometry":{"coordinates":[0.821749,47.384355],"type":"Point"},"properties":{"osm_id":"6304236838","tag":{"amenity":"waste_basket"}},"type":"Feature"},
	{"geometry":{"coordinates":[0.821954,47.384321],"type":"Point"},"properties":{"osm_id":"6304236839","tag":{"amenity":"waste_basket"}},"type":"Feature"},
	{"geometry":{"coordinates":[0.81178,47.394344],"type":"Point"},"properties":{"osm_id":"7510371381","tag":{"amenity":"recycling","location":"overground","recycling:glass_bottles":"yes","recycling_type":"container"}},"type":"Feature"},
	{"geometry":{"coordinates":[0.827187,47.388022],"type":"Point"},"properties":{"osm_id":"7510402259","tag":{"amenity":"recycling","recycling:cans":"yes","recycling:glass_bottles":"yes","recycling:paper":"yes","recycling:plastic_bottles":"yes","recycling:waste":"yes","recycling_type":"container"}},"type":"Feature"},
	{"geometry":{"coordinates":[0.818346,47.379869],"type":"Point"},"properties":{"osm_id":"7888155271","tag":{"amenity":"recycling","recycling_type":"container"}},"type":"Feature"}
]
}
