{
"type": "FeatureCollection",
"features": [
	{"geometry":{"coordinates":[17.81636,59.379497],"type":"Point"},"properties":{"osm_id":"204116056","tag":{"amenity":"recycling"}},"type":"Feature"},
	{"geometry":{"coordinates":[17.801129,59.389315],"type":"Point"},"properties":{"osm_id":"224334116","tag":{"amenity":"recycling"}},"type":"Feature"},
	{"geometry":{"coordinates":[17.81532,59.390311],"type":"Point"},"properties":{"osm_id":"246862168","tag":{"amenity":"recycling"}},"type":"Feature"},
	{"geometry":{"coordinates":[17.819628,59.392495],"type":"Point"},"properties":{"osm_id":"246865735","tag":{"amenity":"recycling"}},"type":"Feature"},
	{"geometry":{"coordinates":[17.791604,59.386455],"type":"Point"},"properties":{"name":"L\u00c3\u00b6vsta \u00c3\u0085VC","osm_id":"1295205636","tag":{"amenity":"recycling"}},"type":"Feature"},
	{"geometry":{"coordinates":[17.819357,59.383277],"type":"Point"},"properties":{"osm_id":"3404752486","tag":{"amenity":"waste_disposal"}},"type":"Feature"},
	{"geometry":{"coordinates":[17.812929,59.383742],"type":"Point"},"properties":{"osm_id":"3404752763","tag":{"amenity":"waste_disposal"}},"type":"Feature"},
	{"geometry":{"coordinates":[17.819022,59.38519],"type":"Point"},"properties":{"osm_id":"3404757698","tag":{"amenity":"waste_disposal"}},"type":"Feature"},
	{"geometry":{"coordinates":[17.835014,59.369433],"type":"Point"},"properties":{"osm_id":"4069345709","tag":{"amenity":"recycling","location":"overground","recycling_type":"container"}},"type":"Feature"},
	{"geometry":{"coordinates":[17.838263,59.362708],"type":"Point"},"properties":{"osm_id":"6953819292","tag":{"amenity":"recycling"}},"type":"Feature"}
]
}
