{
"type": "FeatureCollection",
"lastupdate": "2020-08-03T00:00:00Z",
"features": [
	{"geometry":{"coordinates":[17.807269,59.008239],"type":"Point"},"properties":{"osm_id":"3142631302","tag":{"amenity":"recycling","location":"overground","recycling_type":"container"}},"type":"Feature"},
	{"geometry":{"coordinates":[17.836702,59.021115],"type":"Point"},"properties":{"name":"Sorunda SRV \u00c3\u0085VC","osm_id":"4793192112","tag":{"addr:country":"SE","addr:housenumber":"8","addr:street":"Sunnerby industriomr\u00e5de","amenity":"recycling","opening_hours":"week 18-40 We 13:00-19:00; Sa 09:00-16:00","operator":"SRV","recycling_type":"centre","url:map":"http://www.srvatervinning.se/Global/bilder/Privat/H%c3%a4r%20sl%c3%a4nger%20du%20dina%20sopor/%c3%85VC/Situationskartor%20pdf/Sorunda.pdf","url:map:jpg":"http://www.srvatervinning.se/Global/bilder/Privat/H%c3%a4r%20sl%c3%a4nger%20du%20dina%20sopor/%c3%85VC/situationsbilder/Sorunda.jpg","wheelchair":"yes"}},"type":"Feature"},
	{"geometry":{"coordinates":[17.827304,59.023677],"type":"Point"},"properties":{"osm_id":"6489393290","tag":{"amenity":"waste_basket","waste":"trash"}},"type":"Feature"},
	{"geometry":{"coordinates":[17.82471,59.020956],"type":"Point"},"properties":{"osm_id":"6489393299","tag":{"amenity":"waste_basket","waste":"trash"}},"type":"Feature"},
	{"geometry":{"coordinates":[17.827184,59.020105],"type":"Point"},"properties":{"osm_id":"6489393301","tag":{"amenity":"waste_basket","waste":"trash"}},"type":"Feature"},
	{"geometry":{"coordinates":[17.827924,59.024423],"type":"Point"},"properties":{"osm_id":"6489394000","tag":{"amenity":"waste_basket","waste":"trash"}},"type":"Feature"},
	{"geometry":{"coordinates":[17.826865,59.02355],"type":"Point"},"properties":{"osm_id":"6489394002","tag":{"amenity":"waste_basket","waste":"trash"}},"type":"Feature"},
	{"geometry":{"coordinates":[17.822787,59.01968],"type":"Point"},"properties":{"osm_id":"6489394003","tag":{"amenity":"waste_basket","waste":"trash"}},"type":"Feature"},
	{"geometry":{"coordinates":[17.825314,59.020729],"type":"Point"},"properties":{"osm_id":"6489394005","tag":{"amenity":"waste_basket","waste":"trash"}},"type":"Feature"},
	{"geometry":{"coordinates":[17.826432,59.019595],"type":"Point"},"properties":{"osm_id":"6489394006","tag":{"amenity":"waste_basket","waste":"trash"}},"type":"Feature"},
	{"geometry":{"coordinates":[17.830105,59.016126],"type":"Point"},"properties":{"osm_id":"6497924836","tag":{"amenity":"waste_basket","waste":"trash"}},"type":"Feature"},
	{"geometry":{"coordinates":[17.813242,59.007676],"type":"Point"},"properties":{"osm_id":"6501994073","tag":{"amenity":"recycling","recycling_type":"container"}},"type":"Feature"},
	{"geometry":{"coordinates":[17.837535,59.019931],"type":"Point"},"properties":{"osm_id":"7611936460","tag":{"amenity":"waste_basket"}},"type":"Feature"}
]
}
