{
"type": "FeatureCollection",
"features": [
	{"geometry":{"coordinates":[17.82828,50.683899],"type":"Point"},"properties":{"osm_id":"8662762091","tag":{"amenity":"waste_basket","waste":"dog_excrement"}},"type":"Feature"},
	{"geometry":{"coordinates":[17.828298,50.683892],"type":"Point"},"properties":{"osm_id":"8662762092","tag":{"amenity":"waste_basket"}},"type":"Feature"},
	{"geometry":{"coordinates":[17.82285,50.684516],"type":"Point"},"properties":{"name":"Miejski Punkt Elektroodpad\u00c3\u00b3w","osm_id":"8696511792","tag":{"addr:city":"Opole","addr:street":"Opole, Mechnicka 1","amenity":"recycling","description":"Gablota na drobne elektroodpady","image":"https://www.smieciopolis.opole.pl/wp-content/uploads/2021/04/IMG_20180829_145554-scaled.jpg","opening_hours":"24/7","opening_hours:covid19":"open","operator":"Urz\u00c4\u0085d Miasta Opola","recycling:batteries":"yes","recycling:cds":"yes","recycling:computers":"yes","recycling:electrical_items":"yes","recycling:light_bulbs":"yes","recycling:mobile_phones":"yes","recycling:printer_toner_cartridges":"yes","recycling_type":"container"}},"type":"Feature"}
]
}
