{
"type": "FeatureCollection",
"features": [
	{"geometry":{"coordinates":[17.83686,50.657772],"type":"Point"},"properties":{"osm_id":"8429539418","tag":{"amenity":"waste_basket"}},"type":"Feature"},
	{"geometry":{"coordinates":[17.82425,50.633731],"type":"Point"},"properties":{"osm_id":"8431787881","tag":{"amenity":"recycling","recycling:electrical_items":"yes","recycling_type":"container"}},"type":"Feature"},
	{"geometry":{"coordinates":[17.817962,50.669736],"type":"Point"},"properties":{"osm_id":"8432877913","tag":{"amenity":"recycling","recycling_type":"container"}},"type":"Feature"},
	{"geometry":{"coordinates":[17.831098,50.638296],"type":"Point"},"properties":{"osm_id":"8669401115","tag":{"amenity":"waste_basket"}},"type":"Feature"},
	{"geometry":{"coordinates":[17.830154,50.637905],"type":"Point"},"properties":{"osm_id":"8669401116","tag":{"amenity":"waste_basket"}},"type":"Feature"},
	{"geometry":{"coordinates":[17.795778,50.640158],"type":"Point"},"properties":{"osm_id":"8773481967","tag":{"amenity":"recycling","recycling:electrical_items":"yes","recycling_type":"container"}},"type":"Feature"},
	{"geometry":{"coordinates":[17.795492,50.640252],"type":"Point"},"properties":{"osm_id":"8773481969","tag":{"amenity":"recycling","recycling_type":"container"}},"type":"Feature"},
	{"geometry":{"coordinates":[17.80771,50.664236],"type":"Point"},"properties":{"osm_id":"8861153060","tag":{"amenity":"recycling","recycling_type":"container"}},"type":"Feature"},
	{"geometry":{"coordinates":[17.810075,50.663488],"type":"Point"},"properties":{"osm_id":"8861153073","tag":{"amenity":"waste_basket","colour":"grey","material":"concrete","waste":"trash"}},"type":"Feature"},
	{"geometry":{"coordinates":[17.810035,50.663454],"type":"Point"},"properties":{"osm_id":"8861153074","tag":{"amenity":"waste_basket","colour":"grey","material":"concrete","waste":"trash"}},"type":"Feature"},
	{"geometry":{"coordinates":[17.810918,50.664303],"type":"Point"},"properties":{"osm_id":"8861153077","tag":{"amenity":"waste_basket","colour":"brown","material":"steel","waste":"trash"}},"type":"Feature"}
]
}
