{
"type": "FeatureCollection",
"features": [
	{"geometry":{"coordinates":[17.810984,50.549818],"type":"Point"},"properties":{"osm_id":"4144860023","tag":{"amenity":"waste_basket"}},"type":"Feature"},
	{"geometry":{"coordinates":[17.805862,50.556677],"type":"Point"},"properties":{"osm_id":"8528864632","tag":{"amenity":"waste_basket"}},"type":"Feature"},
	{"geometry":{"coordinates":[17.837816,50.536658],"type":"Point"},"properties":{"osm_id":"8818350077","tag":{"amenity":"waste_basket","colour":"grey","material":"concrete","waste":"trash"}},"type":"Feature"},
	{"geometry":{"coordinates":[17.828804,50.54106],"type":"Point"},"properties":{"osm_id":"8818350078","tag":{"amenity":"waste_basket","colour":"grey","material":"concrete","waste":"trash"}},"type":"Feature"},
	{"geometry":{"coordinates":[17.770472,50.518767],"type":"Point"},"properties":{"osm_id":"8898287143","tag":{"amenity":"waste_basket","colour":"grey","material":"concrete","operator":"Nadle\u00c5\u009bnictwo Pr\u00c3\u00b3szk\u00c3\u00b3w","waste":"trash"}},"type":"Feature"},
	{"geometry":{"coordinates":[17.770276,50.526775],"type":"Point"},"properties":{"osm_id":"8898287160","tag":{"amenity":"waste_basket","colour":"grey","material":"concrete","operator":"Nadle\u00c5\u009bnictwo Pr\u00c3\u00b3szk\u00c3\u00b3w","waste":"trash"}},"type":"Feature"}
]
}
