{
"type": "FeatureCollection",
"features": [
	{"geometry":{"coordinates":[17.779695,48.426648],"type":"Point"},"properties":{"name":"Zbern\u00c3\u00bd dvor","osm_id":"2690074089","tag":{"amenity":"waste_basket"}},"type":"Feature"},
	{"geometry":{"coordinates":[17.800304,48.426035],"type":"Point"},"properties":{"osm_id":"4886147430","tag":{"amenity":"waste_basket"}},"type":"Feature"},
	{"geometry":{"coordinates":[17.799819,48.426209],"type":"Point"},"properties":{"osm_id":"4886147431","tag":{"amenity":"waste_basket"}},"type":"Feature"},
	{"geometry":{"coordinates":[17.796938,48.427436],"type":"Point"},"properties":{"osm_id":"4887930196","tag":{"amenity":"waste_basket"}},"type":"Feature"},
	{"geometry":{"coordinates":[17.79716,48.427324],"type":"Point"},"properties":{"osm_id":"4887930197","tag":{"amenity":"waste_basket"}},"type":"Feature"},
	{"geometry":{"coordinates":[17.797536,48.42717],"type":"Point"},"properties":{"osm_id":"4887930198","tag":{"amenity":"waste_basket"}},"type":"Feature"},
	{"geometry":{"coordinates":[17.79787,48.426979],"type":"Point"},"properties":{"osm_id":"4887930199","tag":{"amenity":"waste_basket"}},"type":"Feature"}
]
}
