{
"type": "FeatureCollection",
"features": [
	{"geometry":{"coordinates":[17.826427,47.002372],"type":"Point"},"properties":{"osm_id":"2990605478","tag":{"amenity":"recycling","recycling:paper":"yes"}},"type":"Feature"},
	{"geometry":{"coordinates":[17.826395,47.00236],"type":"Point"},"properties":{"osm_id":"2990605558","tag":{"amenity":"recycling","recycling:plastic":"yes"}},"type":"Feature"},
	{"geometry":{"coordinates":[17.826458,47.002397],"type":"Point"},"properties":{"osm_id":"2990605659","tag":{"amenity":"recycling","recycling:clothes":"no","recycling:glass":"yes"}},"type":"Feature"},
	{"geometry":{"coordinates":[17.791492,47.009553],"type":"Point"},"properties":{"osm_id":"3711806696","tag":{"amenity":"recycling","recycling_type":"container"}},"type":"Feature"},
	{"geometry":{"coordinates":[17.791515,47.009561],"type":"Point"},"properties":{"osm_id":"3711806697","tag":{"amenity":"recycling","recycling_type":"container"}},"type":"Feature"},
	{"geometry":{"coordinates":[17.791545,47.009574],"type":"Point"},"properties":{"osm_id":"3711806698","tag":{"amenity":"recycling","recycling_type":"container"}},"type":"Feature"},
	{"geometry":{"coordinates":[17.790985,47.007162],"type":"Point"},"properties":{"osm_id":"3711889564","tag":{"amenity":"waste_basket"}},"type":"Feature"},
	{"geometry":{"coordinates":[17.785809,47.010818],"type":"Point"},"properties":{"osm_id":"3712024836","tag":{"amenity":"waste_basket"}},"type":"Feature"},
	{"geometry":{"coordinates":[17.782526,47.007577],"type":"Point"},"properties":{"osm_id":"3712027136","tag":{"amenity":"recycling","recycling_type":"container"}},"type":"Feature"},
	{"geometry":{"coordinates":[17.782544,47.007552],"type":"Point"},"properties":{"osm_id":"3712028126","tag":{"amenity":"recycling","recycling_type":"container"}},"type":"Feature"},
	{"geometry":{"coordinates":[17.782565,47.007533],"type":"Point"},"properties":{"osm_id":"3712031071","tag":{"amenity":"recycling","recycling_type":"container"}},"type":"Feature"},
	{"geometry":{"coordinates":[17.788039,47.007094],"type":"Point"},"properties":{"osm_id":"3712096883","tag":{"amenity":"waste_disposal"}},"type":"Feature"}
]
}
