{
"type": "FeatureCollection",
"features": [
	{"geometry":{"coordinates":[17.818583,46.826014],"type":"Point"},"properties":{"osm_id":"435170743","tag":{"amenity":"recycling"}},"type":"Feature"},
	{"geometry":{"coordinates":[17.832222,46.825101],"type":"Point"},"properties":{"name":"Szelekt\u00c3\u00adv gy\u00c5\u00b1jt\u00c5\u0091","osm_id":"1696042012","tag":{"amenity":"recycling","recycling_type":"container"}},"type":"Feature"},
	{"geometry":{"coordinates":[17.830721,46.832374],"type":"Point"},"properties":{"osm_id":"2278921641","tag":{"amenity":"recycling"}},"type":"Feature"},
	{"geometry":{"coordinates":[17.777693,46.81006],"type":"Point"},"properties":{"osm_id":"5810961131","tag":{"amenity":"waste_basket"}},"type":"Feature"},
	{"geometry":{"coordinates":[17.776761,46.811242],"type":"Point"},"properties":{"osm_id":"5810961149","tag":{"amenity":"waste_basket"}},"type":"Feature"},
	{"geometry":{"coordinates":[17.775472,46.810943],"type":"Point"},"properties":{"osm_id":"5810961152","tag":{"amenity":"waste_basket"}},"type":"Feature"},
	{"geometry":{"coordinates":[17.77736,46.807331],"type":"Point"},"properties":{"osm_id":"5810961388","tag":{"amenity":"waste_basket"}},"type":"Feature"},
	{"geometry":{"coordinates":[17.777505,46.80729],"type":"Point"},"properties":{"osm_id":"5810961389","tag":{"amenity":"waste_basket"}},"type":"Feature"},
	{"geometry":{"coordinates":[17.777876,46.810135],"type":"Point"},"properties":{"osm_id":"5810961398","tag":{"amenity":"waste_basket"}},"type":"Feature"},
	{"geometry":{"coordinates":[17.77831,46.809667],"type":"Point"},"properties":{"osm_id":"5810961404","tag":{"amenity":"waste_basket"}},"type":"Feature"},
	{"geometry":{"coordinates":[17.778901,46.809155],"type":"Point"},"properties":{"osm_id":"5810961406","tag":{"amenity":"waste_basket"}},"type":"Feature"},
	{"geometry":{"coordinates":[17.780079,46.808034],"type":"Point"},"properties":{"osm_id":"5810961409","tag":{"amenity":"waste_basket"}},"type":"Feature"},
	{"geometry":{"coordinates":[17.779557,46.808392],"type":"Point"},"properties":{"osm_id":"5810961425","tag":{"amenity":"waste_basket"}},"type":"Feature"},
	{"geometry":{"coordinates":[17.778317,46.812135],"type":"Point"},"properties":{"osm_id":"5810961449","tag":{"amenity":"waste_basket"}},"type":"Feature"},
	{"geometry":{"coordinates":[17.775221,46.810742],"type":"Point"},"properties":{"osm_id":"5810961453","tag":{"amenity":"waste_basket"}},"type":"Feature"},
	{"geometry":{"coordinates":[17.774843,46.810571],"type":"Point"},"properties":{"osm_id":"5810961455","tag":{"amenity":"waste_basket"}},"type":"Feature"},
	{"geometry":{"coordinates":[17.77311,46.809818],"type":"Point"},"properties":{"osm_id":"5810961456","tag":{"amenity":"waste_basket"}},"type":"Feature"},
	{"geometry":{"coordinates":[17.778233,46.809612],"type":"Point"},"properties":{"osm_id":"5810961483","tag":{"amenity":"waste_basket"}},"type":"Feature"},
	{"geometry":{"coordinates":[17.780985,46.807575],"type":"Point"},"properties":{"osm_id":"5810961500","tag":{"amenity":"waste_basket"}},"type":"Feature"},
	{"geometry":{"coordinates":[17.769705,46.813937],"type":"Point"},"properties":{"osm_id":"5810961529","tag":{"amenity":"waste_basket"}},"type":"Feature"},
	{"geometry":{"coordinates":[17.770232,46.813293],"type":"Point"},"properties":{"osm_id":"5810961530","tag":{"amenity":"waste_basket"}},"type":"Feature"},
	{"geometry":{"coordinates":[17.771668,46.811397],"type":"Point"},"properties":{"osm_id":"5810961540","tag":{"amenity":"waste_basket"}},"type":"Feature"},
	{"geometry":{"coordinates":[17.77187,46.810925],"type":"Point"},"properties":{"osm_id":"5810961571","tag":{"amenity":"waste_basket"}},"type":"Feature"},
	{"geometry":{"coordinates":[17.771559,46.811364],"type":"Point"},"properties":{"osm_id":"5810961575","tag":{"amenity":"waste_basket"}},"type":"Feature"},
	{"geometry":{"coordinates":[17.771279,46.811578],"type":"Point"},"properties":{"osm_id":"5810961578","tag":{"amenity":"waste_basket"}},"type":"Feature"},
	{"geometry":{"coordinates":[17.771313,46.811687],"type":"Point"},"properties":{"osm_id":"5810961579","tag":{"amenity":"waste_basket"}},"type":"Feature"},
	{"geometry":{"coordinates":[17.768972,46.814863],"type":"Point"},"properties":{"osm_id":"5810961580","tag":{"amenity":"waste_basket"}},"type":"Feature"},
	{"geometry":{"coordinates":[17.784486,46.805171],"type":"Point"},"properties":{"osm_id":"5810961674","tag":{"amenity":"waste_basket"}},"type":"Feature"},
	{"geometry":{"coordinates":[17.78142,46.80805],"type":"Point"},"properties":{"osm_id":"5810961703","tag":{"amenity":"waste_basket"}},"type":"Feature"},
	{"geometry":{"coordinates":[17.796169,46.817791],"type":"Point"},"properties":{"osm_id":"5815899073","tag":{"amenity":"waste_basket","waste":"trash"}},"type":"Feature"},
	{"geometry":{"coordinates":[17.796473,46.814885],"type":"Point"},"properties":{"osm_id":"5815899149","tag":{"amenity":"waste_basket","waste":"trash"}},"type":"Feature"},
	{"geometry":{"coordinates":[17.796403,46.815035],"type":"Point"},"properties":{"osm_id":"5815899150","tag":{"amenity":"waste_basket","waste":"trash"}},"type":"Feature"},
	{"geometry":{"coordinates":[17.79864,46.811454],"type":"Point"},"properties":{"osm_id":"5818709960","tag":{"amenity":"waste_basket","waste":"trash"}},"type":"Feature"},
	{"geometry":{"coordinates":[17.797954,46.81289],"type":"Point"},"properties":{"osm_id":"5818709962","tag":{"amenity":"waste_basket","waste":"trash"}},"type":"Feature"},
	{"geometry":{"coordinates":[17.799007,46.810252],"type":"Point"},"properties":{"osm_id":"5818711138","tag":{"amenity":"waste_basket","waste":"trash"}},"type":"Feature"},
	{"geometry":{"coordinates":[17.801774,46.806602],"type":"Point"},"properties":{"osm_id":"5821330327","tag":{"amenity":"waste_basket","waste":"trash"}},"type":"Feature"},
	{"geometry":{"coordinates":[17.800174,46.806205],"type":"Point"},"properties":{"osm_id":"5821330343","tag":{"amenity":"waste_basket","waste":"trash"}},"type":"Feature"},
	{"geometry":{"coordinates":[17.800098,46.808027],"type":"Point"},"properties":{"osm_id":"5821330743","tag":{"amenity":"waste_basket","waste":"trash"}},"type":"Feature"},
	{"geometry":{"coordinates":[17.80128,46.8067],"type":"Point"},"properties":{"osm_id":"5830329081","tag":{"amenity":"waste_basket","waste":"trash"}},"type":"Feature"},
	{"geometry":{"coordinates":[17.801453,46.806815],"type":"Point"},"properties":{"osm_id":"5830329387","tag":{"amenity":"waste_basket","waste":"trash"}},"type":"Feature"},
	{"geometry":{"coordinates":[17.79958,46.806331],"type":"Point"},"properties":{"osm_id":"5830329388","tag":{"amenity":"waste_basket","waste":"trash"}},"type":"Feature"},
	{"geometry":{"coordinates":[17.798381,46.809894],"type":"Point"},"properties":{"osm_id":"5830329390","tag":{"amenity":"waste_basket","waste":"trash"}},"type":"Feature"},
	{"geometry":{"coordinates":[17.820762,46.829557],"type":"Point"},"properties":{"osm_id":"5893248220","tag":{"amenity":"waste_basket","waste":"trash"}},"type":"Feature"},
	{"geometry":{"coordinates":[17.815934,46.827755],"type":"Point"},"properties":{"osm_id":"5893248230","tag":{"amenity":"waste_basket","waste":"trash"}},"type":"Feature"},
	{"geometry":{"coordinates":[17.813219,46.827231],"type":"Point"},"properties":{"osm_id":"5893248240","tag":{"amenity":"waste_basket","waste":"trash"}},"type":"Feature"},
	{"geometry":{"coordinates":[17.813323,46.827139],"type":"Point"},"properties":{"osm_id":"5893248241","tag":{"amenity":"waste_basket","waste":"trash"}},"type":"Feature"},
	{"geometry":{"coordinates":[17.805829,46.825238],"type":"Point"},"properties":{"osm_id":"5893248386","tag":{"amenity":"waste_basket","waste":"trash"}},"type":"Feature"},
	{"geometry":{"coordinates":[17.806109,46.825317],"type":"Point"},"properties":{"osm_id":"5893248387","tag":{"amenity":"waste_basket","waste":"trash"}},"type":"Feature"},
	{"geometry":{"coordinates":[17.8035,46.804218],"type":"Point"},"properties":{"osm_id":"5893975798","tag":{"amenity":"waste_basket","waste":"trash"}},"type":"Feature"},
	{"geometry":{"coordinates":[17.83312,46.826768],"type":"Point"},"properties":{"osm_id":"6588097323","tag":{"amenity":"waste_basket","waste":"trash"}},"type":"Feature"},
	{"geometry":{"coordinates":[17.835357,46.829968],"type":"Point"},"properties":{"osm_id":"6588097374","tag":{"amenity":"waste_basket","colour":"red","material":"metal","waste":"trash"}},"type":"Feature"}
]
}
