{
"type": "FeatureCollection",
"features": [
	{"geometry":{"coordinates":[14.407299,51.168273],"type":"Point"},"properties":{"name":"Alte Winterlinde (ND)","osm_id":"495353855","tag":{"leaf_cycle":"deciduous","leaf_type":"broadleaved","name:botanical":"Tilia cordata","name:hsb":"Stara lipa","natural":"tree"}},"type":"Feature"},
	{"geometry":{"coordinates":[14.411835,51.177439],"type":"Point"},"properties":{"osm_id":"1599324168","tag":{"natural":"tree"}},"type":"Feature"},
	{"geometry":{"coordinates":[14.411337,51.1775],"type":"Point"},"properties":{"osm_id":"1599324176","tag":{"natural":"tree"}},"type":"Feature"},
	{"geometry":{"coordinates":[14.411085,51.177571],"type":"Point"},"properties":{"osm_id":"1599324181","tag":{"natural":"tree"}},"type":"Feature"},
	{"geometry":{"coordinates":[14.410473,51.1777],"type":"Point"},"properties":{"osm_id":"1599324204","tag":{"natural":"tree"}},"type":"Feature"},
	{"geometry":{"coordinates":[14.412389,51.177717],"type":"Point"},"properties":{"osm_id":"1599324209","tag":{"natural":"tree"}},"type":"Feature"},
	{"geometry":{"coordinates":[14.411951,51.177761],"type":"Point"},"properties":{"osm_id":"1599324211","tag":{"natural":"tree"}},"type":"Feature"},
	{"geometry":{"coordinates":[14.411804,51.177803],"type":"Point"},"properties":{"osm_id":"1599324218","tag":{"natural":"tree"}},"type":"Feature"},
	{"geometry":{"coordinates":[14.410008,51.177844],"type":"Point"},"properties":{"osm_id":"1599324222","tag":{"natural":"tree"}},"type":"Feature"},
	{"geometry":{"coordinates":[14.411004,51.177942],"type":"Point"},"properties":{"osm_id":"1599324258","tag":{"natural":"tree"}},"type":"Feature"},
	{"geometry":{"coordinates":[14.411125,51.178086],"type":"Point"},"properties":{"osm_id":"1599324261","tag":{"natural":"tree"}},"type":"Feature"},
	{"geometry":{"coordinates":[14.410765,51.178109],"type":"Point"},"properties":{"osm_id":"1599324263","tag":{"natural":"tree"}},"type":"Feature"},
	{"geometry":{"coordinates":[14.412125,51.178159],"type":"Point"},"properties":{"osm_id":"1599324288","tag":{"natural":"tree"}},"type":"Feature"},
	{"geometry":{"coordinates":[14.410274,51.178202],"type":"Point"},"properties":{"osm_id":"1599324301","tag":{"natural":"tree"}},"type":"Feature"},
	{"geometry":{"coordinates":[14.411147,51.178209],"type":"Point"},"properties":{"osm_id":"1599324305","tag":{"natural":"tree"}},"type":"Feature"},
	{"geometry":{"coordinates":[14.412128,51.178232],"type":"Point"},"properties":{"osm_id":"1599324307","tag":{"natural":"tree"}},"type":"Feature"},
	{"geometry":{"coordinates":[14.411085,51.178473],"type":"Point"},"properties":{"osm_id":"1599324347","tag":{"natural":"tree"}},"type":"Feature"},
	{"geometry":{"coordinates":[14.411358,51.178492],"type":"Point"},"properties":{"osm_id":"1599324351","tag":{"natural":"tree"}},"type":"Feature"},
	{"geometry":{"coordinates":[14.412302,51.178522],"type":"Point"},"properties":{"osm_id":"1599324353","tag":{"natural":"tree"}},"type":"Feature"},
	{"geometry":{"coordinates":[14.411105,51.178558],"type":"Point"},"properties":{"osm_id":"1599324355","tag":{"natural":"tree"}},"type":"Feature"},
	{"geometry":{"coordinates":[14.413073,51.178595],"type":"Point"},"properties":{"osm_id":"1599324373","tag":{"natural":"tree"}},"type":"Feature"},
	{"geometry":{"coordinates":[14.41123,51.178667],"type":"Point"},"properties":{"osm_id":"1599324379","tag":{"natural":"tree"}},"type":"Feature"},
	{"geometry":{"coordinates":[14.411355,51.178692],"type":"Point"},"properties":{"osm_id":"1599324387","tag":{"natural":"tree"}},"type":"Feature"},
	{"geometry":{"coordinates":[14.412343,51.178751],"type":"Point"},"properties":{"osm_id":"1599324393","tag":{"natural":"tree"}},"type":"Feature"},
	{"geometry":{"coordinates":[14.413913,51.17879],"type":"Point"},"properties":{"osm_id":"1599324397","tag":{"natural":"tree"}},"type":"Feature"},
	{"geometry":{"coordinates":[14.413705,51.178793],"type":"Point"},"properties":{"osm_id":"1599324405","tag":{"natural":"tree"}},"type":"Feature"},
	{"geometry":{"coordinates":[14.412258,51.178844],"type":"Point"},"properties":{"osm_id":"1599324408","tag":{"natural":"tree"}},"type":"Feature"},
	{"geometry":{"coordinates":[14.412053,51.178846],"type":"Point"},"properties":{"osm_id":"1599324417","tag":{"natural":"tree"}},"type":"Feature"},
	{"geometry":{"coordinates":[14.411127,51.178849],"type":"Point"},"properties":{"osm_id":"1599324423","tag":{"natural":"tree"}},"type":"Feature"},
	{"geometry":{"coordinates":[14.411374,51.178862],"type":"Point"},"properties":{"osm_id":"1599324434","tag":{"natural":"tree"}},"type":"Feature"},
	{"geometry":{"coordinates":[14.413384,51.178876],"type":"Point"},"properties":{"osm_id":"1599324445","tag":{"natural":"tree"}},"type":"Feature"},
	{"geometry":{"coordinates":[14.410964,51.17888],"type":"Point"},"properties":{"osm_id":"1599324447","tag":{"natural":"tree"}},"type":"Feature"},
	{"geometry":{"coordinates":[14.41071,51.178888],"type":"Point"},"properties":{"osm_id":"1599324451","tag":{"natural":"tree"}},"type":"Feature"},
	{"geometry":{"coordinates":[14.410511,51.178897],"type":"Point"},"properties":{"osm_id":"1599324456","tag":{"natural":"tree"}},"type":"Feature"},
	{"geometry":{"coordinates":[14.412511,51.178924],"type":"Point"},"properties":{"osm_id":"1599324468","tag":{"natural":"tree"}},"type":"Feature"},
	{"geometry":{"coordinates":[14.411633,51.178926],"type":"Point"},"properties":{"osm_id":"1599324471","tag":{"natural":"tree"}},"type":"Feature"},
	{"geometry":{"coordinates":[14.413725,51.178935],"type":"Point"},"properties":{"osm_id":"1599324492","tag":{"natural":"tree"}},"type":"Feature"},
	{"geometry":{"coordinates":[14.412081,51.178941],"type":"Point"},"properties":{"osm_id":"1599324495","tag":{"natural":"tree"}},"type":"Feature"},
	{"geometry":{"coordinates":[14.411854,51.178953],"type":"Point"},"properties":{"osm_id":"1599324502","tag":{"natural":"tree"}},"type":"Feature"},
	{"geometry":{"coordinates":[14.413482,51.17903],"type":"Point"},"properties":{"osm_id":"1599324533","tag":{"natural":"tree"}},"type":"Feature"},
	{"geometry":{"coordinates":[14.411156,51.179279],"type":"Point"},"properties":{"osm_id":"1599324538","tag":{"natural":"tree"}},"type":"Feature"},
	{"geometry":{"coordinates":[14.411036,51.17928],"type":"Point"},"properties":{"osm_id":"1599324542","tag":{"natural":"tree"}},"type":"Feature"},
	{"geometry":{"coordinates":[14.410647,51.179286],"type":"Point"},"properties":{"osm_id":"1599324549","tag":{"natural":"tree"}},"type":"Feature"},
	{"geometry":{"coordinates":[14.410902,51.179286],"type":"Point"},"properties":{"osm_id":"1599324565","tag":{"natural":"tree"}},"type":"Feature"},
	{"geometry":{"coordinates":[14.410756,51.179287],"type":"Point"},"properties":{"osm_id":"1599324572","tag":{"natural":"tree"}},"type":"Feature"},
	{"geometry":{"coordinates":[14.410363,51.179296],"type":"Point"},"properties":{"osm_id":"1599324576","tag":{"natural":"tree"}},"type":"Feature"},
	{"geometry":{"coordinates":[14.410506,51.179296],"type":"Point"},"properties":{"osm_id":"1599324579","tag":{"natural":"tree"}},"type":"Feature"},
	{"geometry":{"coordinates":[14.412072,51.179327],"type":"Point"},"properties":{"osm_id":"1599324591","tag":{"natural":"tree"}},"type":"Feature"},
	{"geometry":{"coordinates":[14.374879,51.158707],"type":"Point"},"properties":{"osm_id":"3610579870","tag":{"natural":"tree"}},"type":"Feature"},
	{"geometry":{"coordinates":[14.375034,51.158448],"type":"Point"},"properties":{"osm_id":"3610579885","tag":{"natural":"tree"}},"type":"Feature"},
	{"geometry":{"coordinates":[14.373702,51.157191],"type":"Point"},"properties":{"name":"Eiche","osm_id":"3610579886","tag":{"name:hsb":"Dub","natural":"tree"}},"type":"Feature"},
	{"geometry":{"coordinates":[14.371047,51.155655],"type":"Point"},"properties":{"osm_id":"3618331025","tag":{"natural":"tree"}},"type":"Feature"},
	{"geometry":{"coordinates":[14.371352,51.156332],"type":"Point"},"properties":{"osm_id":"3618331026","tag":{"natural":"tree"}},"type":"Feature"},
	{"geometry":{"coordinates":[14.371674,51.156318],"type":"Point"},"properties":{"osm_id":"3618331027","tag":{"natural":"tree"}},"type":"Feature"},
	{"geometry":{"coordinates":[14.375145,51.158456],"type":"Point"},"properties":{"osm_id":"3620132729","tag":{"natural":"tree"}},"type":"Feature"},
	{"geometry":{"coordinates":[14.375155,51.158521],"type":"Point"},"properties":{"osm_id":"3620132730","tag":{"natural":"tree"}},"type":"Feature"},
	{"geometry":{"coordinates":[14.374941,51.158898],"type":"Point"},"properties":{"name":"Apfel","osm_id":"3620268185","tag":{"name:hsb":"Jab\u00c5\u0082u\u00c4\u008dina","natural":"tree"}},"type":"Feature"},
	{"geometry":{"coordinates":[14.375225,51.15877],"type":"Point"},"properties":{"name":"Apfel","osm_id":"3620268186","tag":{"name:hsb":"Jab\u00c5\u0082u\u00c4\u008dina","natural":"tree"}},"type":"Feature"},
	{"geometry":{"coordinates":[14.375238,51.158821],"type":"Point"},"properties":{"name":"Apfel","osm_id":"3620268187","tag":{"natural":"tree"}},"type":"Feature"},
	{"geometry":{"coordinates":[14.375251,51.158869],"type":"Point"},"properties":{"name":"Apfel","osm_id":"3620268188","tag":{"natural":"tree"}},"type":"Feature"},
	{"geometry":{"coordinates":[14.374945,51.158274],"type":"Point"},"properties":{"name":"Birne","osm_id":"3620358236","tag":{"natural":"tree"}},"type":"Feature"},
	{"geometry":{"coordinates":[14.374268,51.158117],"type":"Point"},"properties":{"osm_id":"3625069530","tag":{"natural":"tree"}},"type":"Feature"},
	{"geometry":{"coordinates":[14.374293,51.15818],"type":"Point"},"properties":{"osm_id":"3625069531","tag":{"natural":"tree"}},"type":"Feature"},
	{"geometry":{"coordinates":[14.363358,51.14671],"type":"Point"},"properties":{"osm_id":"3626736326","tag":{"natural":"tree"}},"type":"Feature"},
	{"geometry":{"coordinates":[14.37585,51.158781],"type":"Point"},"properties":{"osm_id":"3626894790","tag":{"natural":"tree"}},"type":"Feature"},
	{"geometry":{"coordinates":[14.375972,51.158829],"type":"Point"},"properties":{"osm_id":"3626894791","tag":{"natural":"tree"}},"type":"Feature"},
	{"geometry":{"coordinates":[14.364787,51.156003],"type":"Point"},"properties":{"osm_id":"3626955781","tag":{"natural":"tree"}},"type":"Feature"},
	{"geometry":{"coordinates":[14.373663,51.157634],"type":"Point"},"properties":{"osm_id":"3627246425","tag":{"natural":"tree"}},"type":"Feature"},
	{"geometry":{"coordinates":[14.373341,51.157612],"type":"Point"},"properties":{"osm_id":"3627246426","tag":{"natural":"tree"}},"type":"Feature"},
	{"geometry":{"coordinates":[14.374605,51.158146],"type":"Point"},"properties":{"osm_id":"3635291007","tag":{"natural":"tree"}},"type":"Feature"},
	{"geometry":{"coordinates":[14.366814,51.133858],"type":"Point"},"properties":{"osm_id":"4471655126","tag":{"natural":"tree"}},"type":"Feature"},
	{"geometry":{"coordinates":[14.402942,51.125141],"type":"Point"},"properties":{"name":"Naturdenkmal alte Eiche","osm_id":"4747232370","tag":{"genus":"Quercus","leaf_cycle":"deciduous","leaf_type":"broadleaved","natural":"tree","start_date":"um 1815"}},"type":"Feature"},
	{"geometry":{"coordinates":[14.334998,51.149892],"type":"Point"},"properties":{"name":"Alte Eiche","osm_id":"4931477275","tag":{"denotation":"natural_monument","leaf_cycle":"semi_evergreen","leaf_type":"broadleaved","name:hsb":"Stary dub","natural":"tree"}},"type":"Feature"},
	{"geometry":{"coordinates":[14.333201,51.149892],"type":"Point"},"properties":{"osm_id":"4931482450","tag":{"natural":"tree"}},"type":"Feature"},
	{"geometry":{"coordinates":[14.333646,51.150285],"type":"Point"},"properties":{"osm_id":"4931482451","tag":{"natural":"tree"}},"type":"Feature"},
	{"geometry":{"coordinates":[14.333768,51.150048],"type":"Point"},"properties":{"osm_id":"4931482452","tag":{"natural":"tree"}},"type":"Feature"},
	{"geometry":{"coordinates":[14.333699,51.14999],"type":"Point"},"properties":{"osm_id":"4931482453","tag":{"natural":"tree"}},"type":"Feature"},
	{"geometry":{"coordinates":[14.333652,51.149941],"type":"Point"},"properties":{"osm_id":"4931482454","tag":{"natural":"tree"}},"type":"Feature"},
	{"geometry":{"coordinates":[14.333786,51.150003],"type":"Point"},"properties":{"osm_id":"4931482455","tag":{"natural":"tree"}},"type":"Feature"},
	{"geometry":{"coordinates":[14.333715,51.14995],"type":"Point"},"properties":{"osm_id":"4931482456","tag":{"natural":"tree"}},"type":"Feature"},
	{"geometry":{"coordinates":[14.333557,51.149835],"type":"Point"},"properties":{"osm_id":"4931482457","tag":{"natural":"tree"}},"type":"Feature"},
	{"geometry":{"coordinates":[14.333966,51.150152],"type":"Point"},"properties":{"osm_id":"4931482458","tag":{"natural":"tree"}},"type":"Feature"},
	{"geometry":{"coordinates":[14.334767,51.149961],"type":"Point"},"properties":{"name":"Wildkirsche","osm_id":"4931482459","tag":{"leaf_cycle":"semi_deciduous","leaf_type":"broadleaved","natural":"tree"}},"type":"Feature"},
	{"geometry":{"coordinates":[14.373637,51.149219],"type":"Point"},"properties":{"osm_id":"6007567848","tag":{"natural":"tree"}},"type":"Feature"},
	{"geometry":{"coordinates":[14.390522,51.168031],"type":"Point"},"properties":{"osm_id":"6403646256","tag":{"natural":"tree"}},"type":"Feature"},
	{"geometry":{"coordinates":[14.388451,51.169622],"type":"Point"},"properties":{"osm_id":"6403646257","tag":{"natural":"tree"}},"type":"Feature"},
	{"geometry":{"coordinates":[14.3467,51.1734],"type":"Point"},"properties":{"osm_id":"6789162410","tag":{"natural":"tree"}},"type":"Feature"},
	{"geometry":{"coordinates":[14.3468,51.173393],"type":"Point"},"properties":{"osm_id":"6789162411","tag":{"natural":"tree"}},"type":"Feature"},
	{"geometry":{"coordinates":[14.363306,51.17332],"type":"Point"},"properties":{"osm_id":"9188503325","tag":{"natural":"tree"}},"type":"Feature"}
]
}
