{
"type": "FeatureCollection",
"features": [
	{"geometry":{"coordinates":[-9.153099,38.905282],"type":"Point"},"properties":{"osm_id":"8045337886","tag":{"amenity":"recycling","operator":"H Sarah Trading","operator:type":"private","recycling:clothes":"yes","recycling:shoes":"yes","recycling:textiles":"yes","recycling:toys":"yes","recycling_type":"container"}},"type":"Feature"},
	{"geometry":{"coordinates":[-9.154371,38.904588],"type":"Point"},"properties":{"osm_id":"8045337887","tag":{"amenity":"recycling","operator":"SIMAR","operator:type":"government","recycling:PET":"yes","recycling:beverage_cartons":"yes","recycling:cans":"yes","recycling:cardboard":"yes","recycling:cartons":"yes","recycling:glass":"yes","recycling:glass_bottles":"yes","recycling:magazines":"yes","recycling:newspaper":"yes","recycling:paper":"yes","recycling:paper_packaging":"yes","recycling:plastic":"yes","recycling:plastic_bags":"yes","recycling:plastic_bottles":"yes","recycling:plastic_packaging":"yes","recycling_type":"container"}},"type":"Feature"},
	{"geometry":{"coordinates":[-9.153017,38.905124],"type":"Point"},"properties":{"osm_id":"8045351185","tag":{"amenity":"recycling","operator":"SIMAR","operator:type":"government","recycling:PET":"yes","recycling:beverage_cartons":"yes","recycling:cans":"yes","recycling:cardboard":"yes","recycling:cartons":"yes","recycling:glass":"yes","recycling:glass_bottles":"yes","recycling:magazines":"yes","recycling:newspaper":"yes","recycling:paper":"yes","recycling:paper_packaging":"yes","recycling:plastic":"yes","recycling:plastic_bags":"yes","recycling:plastic_bottles":"yes","recycling:plastic_packaging":"yes","recycling_type":"container"}},"type":"Feature"},
	{"geometry":{"coordinates":[-9.153558,38.906478],"type":"Point"},"properties":{"osm_id":"8045355185","tag":{"amenity":"recycling","operator":"SIMAR","operator:type":"government","recycling:PET":"yes","recycling:beverage_cartons":"yes","recycling:cans":"yes","recycling:cardboard":"yes","recycling:cartons":"yes","recycling:glass":"yes","recycling:glass_bottles":"yes","recycling:magazines":"yes","recycling:newspaper":"yes","recycling:paper":"yes","recycling:paper_packaging":"yes","recycling:plastic":"yes","recycling:plastic_bags":"yes","recycling:plastic_bottles":"yes","recycling:plastic_packaging":"yes","recycling_type":"container"}},"type":"Feature"},
	{"geometry":{"coordinates":[-9.153114,38.905721],"type":"Point"},"properties":{"osm_id":"8045375785","tag":{"amenity":"waste_disposal","operator":"SIMAR","operator:type":"government","waste":"trash"}},"type":"Feature"},
	{"geometry":{"coordinates":[-9.155841,38.904921],"type":"Point"},"properties":{"osm_id":"8045377085","tag":{"amenity":"waste_disposal","operator":"SIMAR","operator:type":"government","waste":"trash"}},"type":"Feature"},
	{"geometry":{"coordinates":[-9.154644,38.90572],"type":"Point"},"properties":{"osm_id":"8045377485","tag":{"amenity":"waste_disposal","operator":"SIMAR","operator:type":"government","waste":"trash"}},"type":"Feature"},
	{"geometry":{"coordinates":[-9.154186,38.906163],"type":"Point"},"properties":{"osm_id":"8045377486","tag":{"amenity":"waste_disposal","operator":"SIMAR","operator:type":"government","waste":"trash"}},"type":"Feature"},
	{"geometry":{"coordinates":[-9.155311,38.906806],"type":"Point"},"properties":{"osm_id":"8045390385","tag":{"amenity":"recycling","operator":"SIMAR","operator:type":"government","recycling:PET":"yes","recycling:beverage_cartons":"yes","recycling:cans":"yes","recycling:cardboard":"yes","recycling:cartons":"yes","recycling:glass":"yes","recycling:glass_bottles":"yes","recycling:magazines":"yes","recycling:newspaper":"yes","recycling:paper":"yes","recycling:paper_packaging":"yes","recycling:plastic":"yes","recycling:plastic_bags":"yes","recycling:plastic_bottles":"yes","recycling:plastic_packaging":"yes","recycling_type":"container"}},"type":"Feature"},
	{"geometry":{"coordinates":[-9.152966,38.905105],"type":"Point"},"properties":{"osm_id":"8048905655","tag":{"amenity":"waste_disposal","operator":"SIMAR","operator:type":"government","waste":"trash"}},"type":"Feature"},
	{"geometry":{"coordinates":[-9.152875,38.905221],"type":"Point"},"properties":{"osm_id":"8048951916","tag":{"amenity":"waste_basket"}},"type":"Feature"},
	{"geometry":{"coordinates":[-9.154226,38.90717],"type":"Point"},"properties":{"osm_id":"8048983386","tag":{"amenity":"waste_disposal","operator":"SIMAR","operator:type":"government","waste":"trash"}},"type":"Feature"},
	{"geometry":{"coordinates":[-9.16813,38.908307],"type":"Point"},"properties":{"osm_id":"8063276585","tag":{"amenity":"recycling","operator":"SIMAR","operator:type":"government","recycling:PET":"yes","recycling:beverage_cartons":"yes","recycling:cans":"yes","recycling:cardboard":"yes","recycling:cartons":"yes","recycling:glass":"yes","recycling:glass_bottles":"yes","recycling:magazines":"yes","recycling:newspaper":"yes","recycling:paper":"yes","recycling:paper_packaging":"yes","recycling:plastic":"yes","recycling:plastic_bags":"yes","recycling:plastic_bottles":"yes","recycling:plastic_packaging":"yes","recycling_type":"container"}},"type":"Feature"},
	{"geometry":{"coordinates":[-9.146777,38.906659],"type":"Point"},"properties":{"osm_id":"8066912596","tag":{"amenity":"waste_disposal","operator":"SIMAR","operator:type":"government","waste":"trash"}},"type":"Feature"},
	{"geometry":{"coordinates":[-9.143917,38.907569],"type":"Point"},"properties":{"osm_id":"8066912600","tag":{"amenity":"waste_disposal","operator":"SIMAR","operator:type":"government","waste":"trash"}},"type":"Feature"},
	{"geometry":{"coordinates":[-9.153526,38.906505],"type":"Point"},"properties":{"osm_id":"8255052130","tag":{"amenity":"waste_disposal","operator":"SIMAR","operator:type":"government","waste":"trash"}},"type":"Feature"},
	{"geometry":{"coordinates":[-9.154331,38.904625],"type":"Point"},"properties":{"osm_id":"8255052131","tag":{"amenity":"waste_disposal","operator":"SIMAR","operator:type":"government","waste":"trash"}},"type":"Feature"},
	{"geometry":{"coordinates":[-9.155296,38.906778],"type":"Point"},"properties":{"osm_id":"8255052133","tag":{"amenity":"waste_disposal","operator":"SIMAR","operator:type":"government","waste":"trash"}},"type":"Feature"},
	{"geometry":{"coordinates":[-9.149293,38.908001],"type":"Point"},"properties":{"osm_id":"8255052134","tag":{"amenity":"waste_disposal","operator":"SIMAR","operator:type":"government","waste":"trash"}},"type":"Feature"},
	{"geometry":{"coordinates":[-9.147552,38.909921],"type":"Point"},"properties":{"osm_id":"8255052135","tag":{"amenity":"waste_disposal","operator":"SIMAR","operator:type":"government","waste":"trash"}},"type":"Feature"},
	{"geometry":{"coordinates":[-9.149351,38.903251],"type":"Point"},"properties":{"osm_id":"8259797326","tag":{"amenity":"waste_disposal","operator":"SIMAR","operator:type":"government","waste":"trash"}},"type":"Feature"},
	{"geometry":{"coordinates":[-9.151198,38.906317],"type":"Point"},"properties":{"osm_id":"8260441192","tag":{"amenity":"waste_disposal","operator":"SIMAR","operator:type":"government","waste":"trash"}},"type":"Feature"},
	{"geometry":{"coordinates":[-9.168084,38.908292],"type":"Point"},"properties":{"osm_id":"8263135643","tag":{"amenity":"waste_disposal","operator":"SIMAR","operator:type":"government","waste":"trash"}},"type":"Feature"},
	{"geometry":{"coordinates":[-9.16293,38.906821],"type":"Point"},"properties":{"osm_id":"8264704339","tag":{"amenity":"waste_disposal","operator":"SIMAR","operator:type":"government","waste":"trash"}},"type":"Feature"},
	{"geometry":{"coordinates":[-9.163925,38.910019],"type":"Point"},"properties":{"osm_id":"8264704340","tag":{"amenity":"waste_disposal","operator":"SIMAR","operator:type":"government","waste":"trash"}},"type":"Feature"},
	{"geometry":{"coordinates":[-9.164627,38.908653],"type":"Point"},"properties":{"osm_id":"8264704341","tag":{"amenity":"waste_disposal","operator":"SIMAR","operator:type":"government","waste":"trash"}},"type":"Feature"},
	{"geometry":{"coordinates":[-9.165778,38.908532],"type":"Point"},"properties":{"osm_id":"8265477387","tag":{"amenity":"waste_disposal","operator":"SIMAR","operator:type":"government","waste":"trash"}},"type":"Feature"},
	{"geometry":{"coordinates":[-9.166448,38.910004],"type":"Point"},"properties":{"osm_id":"8265477394","tag":{"amenity":"recycling","operator":"SIMAR","operator:type":"government","recycling:PET":"yes","recycling:beverage_cartons":"yes","recycling:cans":"yes","recycling:cardboard":"yes","recycling:cartons":"yes","recycling:glass":"yes","recycling:glass_bottles":"yes","recycling:magazines":"yes","recycling:newspaper":"yes","recycling:paper":"yes","recycling:paper_packaging":"yes","recycling:plastic":"yes","recycling:plastic_bags":"yes","recycling:plastic_bottles":"yes","recycling:plastic_packaging":"yes","recycling_type":"container"}},"type":"Feature"},
	{"geometry":{"coordinates":[-9.166409,38.910008],"type":"Point"},"properties":{"osm_id":"8265477395","tag":{"amenity":"waste_disposal","operator":"SIMAR","operator:type":"government","waste":"trash"}},"type":"Feature"},
	{"geometry":{"coordinates":[-9.142037,38.907805],"type":"Point"},"properties":{"osm_id":"8268396201","tag":{"amenity":"waste_disposal","operator":"SIMAR","operator:type":"government","waste":"trash"}},"type":"Feature"},
	{"geometry":{"coordinates":[-9.149208,38.906129],"type":"Point"},"properties":{"osm_id":"8268396202","tag":{"amenity":"waste_disposal","operator":"SIMAR","operator:type":"government","waste":"trash"}},"type":"Feature"},
	{"geometry":{"coordinates":[-9.165904,38.908539],"type":"Point"},"properties":{"osm_id":"8268396203","tag":{"amenity":"recycling","operator":"SIMAR","operator:type":"government","recycling:PET":"yes","recycling:beverage_cartons":"yes","recycling:cans":"yes","recycling:cardboard":"yes","recycling:cartons":"yes","recycling:glass":"yes","recycling:glass_bottles":"yes","recycling:magazines":"yes","recycling:newspaper":"yes","recycling:paper":"yes","recycling:paper_packaging":"yes","recycling:plastic":"yes","recycling:plastic_bags":"yes","recycling:plastic_bottles":"yes","recycling:plastic_packaging":"yes","recycling_type":"container"}},"type":"Feature"},
	{"geometry":{"coordinates":[-9.16485,38.908436],"type":"Point"},"properties":{"osm_id":"8268396204","tag":{"amenity":"waste_disposal","operator":"SIMAR","operator:type":"government","waste":"trash"}},"type":"Feature"},
	{"geometry":{"coordinates":[-9.167657,38.908088],"type":"Point"},"properties":{"osm_id":"8268396205","tag":{"amenity":"waste_disposal","operator":"SIMAR","operator:type":"government","waste":"trash"}},"type":"Feature"},
	{"geometry":{"coordinates":[-9.177243,38.902567],"type":"Point"},"properties":{"osm_id":"8268396215","tag":{"amenity":"waste_disposal","operator":"SIMAR","operator:type":"government","waste":"trash"}},"type":"Feature"},
	{"geometry":{"coordinates":[-9.180879,38.904075],"type":"Point"},"properties":{"osm_id":"8268427223","tag":{"amenity":"waste_disposal","operator":"SIMAR","operator:type":"government","waste":"trash"}},"type":"Feature"},
	{"geometry":{"coordinates":[-9.178044,38.90225],"type":"Point"},"properties":{"osm_id":"8268427233","tag":{"amenity":"recycling","operator":"SIMAR","operator:type":"government","recycling:PET":"yes","recycling:beverage_cartons":"yes","recycling:cans":"yes","recycling:cardboard":"yes","recycling:cartons":"yes","recycling:glass":"yes","recycling:glass_bottles":"yes","recycling:magazines":"yes","recycling:newspaper":"yes","recycling:paper":"yes","recycling:paper_packaging":"yes","recycling:plastic":"yes","recycling:plastic_bags":"yes","recycling:plastic_bottles":"yes","recycling:plastic_packaging":"yes","recycling_type":"container"}},"type":"Feature"},
	{"geometry":{"coordinates":[-9.178027,38.902251],"type":"Point"},"properties":{"osm_id":"8268427234","tag":{"amenity":"waste_disposal","operator":"SIMAR","operator:type":"government","waste":"trash"}},"type":"Feature"},
	{"geometry":{"coordinates":[-9.178011,38.902251],"type":"Point"},"properties":{"osm_id":"8268427238","tag":{"amenity":"recycling","operator":"FILTEX & reciclagem","operator:type":"private","phone":"+351 961 689 159","recycling:clothes":"yes","recycling:shoes":"yes","recycling:textiles":"yes","recycling_type":"container"}},"type":"Feature"},
	{"geometry":{"coordinates":[-9.18614,38.897011],"type":"Point"},"properties":{"osm_id":"8268427243","tag":{"amenity":"waste_disposal","operator":"SIMAR","operator:type":"government","waste":"trash"}},"type":"Feature"},
	{"geometry":{"coordinates":[-9.191065,38.891469],"type":"Point"},"properties":{"osm_id":"8268427252","tag":{"amenity":"recycling","operator":"SIMAR","operator:type":"government","recycling:PET":"yes","recycling:beverage_cartons":"yes","recycling:cans":"yes","recycling:cardboard":"yes","recycling:cartons":"yes","recycling:glass":"yes","recycling:glass_bottles":"yes","recycling:magazines":"yes","recycling:newspaper":"yes","recycling:paper":"yes","recycling:paper_packaging":"yes","recycling:plastic":"yes","recycling:plastic_bags":"yes","recycling:plastic_bottles":"yes","recycling:plastic_packaging":"yes","recycling_type":"container"}},"type":"Feature"},
	{"geometry":{"coordinates":[-9.191028,38.891487],"type":"Point"},"properties":{"osm_id":"8268427253","tag":{"amenity":"waste_disposal","operator":"SIMAR","operator:type":"government","waste":"trash"}},"type":"Feature"},
	{"geometry":{"coordinates":[-9.190586,38.894033],"type":"Point"},"properties":{"osm_id":"8268427254","tag":{"amenity":"waste_disposal","operator":"SIMAR","operator:type":"government","waste":"trash"}},"type":"Feature"},
	{"geometry":{"coordinates":[-9.190225,38.893522],"type":"Point"},"properties":{"osm_id":"8268427255","tag":{"amenity":"waste_disposal","operator":"SIMAR","operator:type":"government","waste":"trash"}},"type":"Feature"},
	{"geometry":{"coordinates":[-9.192219,38.892994],"type":"Point"},"properties":{"osm_id":"8268427260","tag":{"amenity":"waste_disposal","operator":"SIMAR","operator:type":"government","waste":"trash"}},"type":"Feature"},
	{"geometry":{"coordinates":[-9.189761,38.892769],"type":"Point"},"properties":{"osm_id":"8272113178","tag":{"amenity":"waste_disposal","operator":"SIMAR","operator:type":"government","waste":"trash"}},"type":"Feature"},
	{"geometry":{"coordinates":[-9.178859,38.902549],"type":"Point"},"properties":{"osm_id":"8272113184","tag":{"amenity":"waste_disposal","operator":"SIMAR","operator:type":"government","waste":"trash"}},"type":"Feature"},
	{"geometry":{"coordinates":[-9.181972,38.904542],"type":"Point"},"properties":{"osm_id":"8272113185","tag":{"amenity":"waste_disposal","operator":"SIMAR","operator:type":"government","waste":"trash"}},"type":"Feature"},
	{"geometry":{"coordinates":[-9.175983,38.902267],"type":"Point"},"properties":{"osm_id":"8272113186","tag":{"amenity":"waste_disposal","operator":"SIMAR","operator:type":"government","waste":"trash"}},"type":"Feature"},
	{"geometry":{"coordinates":[-9.17565,38.903604],"type":"Point"},"properties":{"osm_id":"8272113188","tag":{"amenity":"recycling","operator":"SIMAR","operator:type":"government","recycling:PET":"yes","recycling:beverage_cartons":"yes","recycling:cans":"yes","recycling:cardboard":"yes","recycling:cartons":"yes","recycling:glass":"yes","recycling:glass_bottles":"yes","recycling:magazines":"yes","recycling:newspaper":"yes","recycling:paper":"yes","recycling:paper_packaging":"yes","recycling:plastic":"yes","recycling:plastic_bags":"yes","recycling:plastic_bottles":"yes","recycling:plastic_packaging":"yes","recycling_type":"container"}},"type":"Feature"},
	{"geometry":{"coordinates":[-9.175646,38.903577],"type":"Point"},"properties":{"osm_id":"8272113189","tag":{"amenity":"waste_disposal","operator":"SIMAR","operator:type":"government","waste":"trash"}},"type":"Feature"},
	{"geometry":{"coordinates":[-9.174553,38.901524],"type":"Point"},"properties":{"osm_id":"8272113191","tag":{"amenity":"waste_disposal","operator":"SIMAR","operator:type":"government","waste":"trash"}},"type":"Feature"},
	{"geometry":{"coordinates":[-9.16261,38.902872],"type":"Point"},"properties":{"osm_id":"8272113193","tag":{"amenity":"recycling","operator":"FILTEX & reciclagem","operator:type":"private","phone":"+351 961 689 159","recycling:clothes":"yes","recycling:shoes":"yes","recycling:textiles":"yes","recycling_type":"container"}},"type":"Feature"},
	{"geometry":{"coordinates":[-9.162628,38.902854],"type":"Point"},"properties":{"osm_id":"8272113194","tag":{"amenity":"waste_disposal","operator":"SIMAR","operator:type":"government","waste":"trash"}},"type":"Feature"},
	{"geometry":{"coordinates":[-9.162643,38.902842],"type":"Point"},"properties":{"osm_id":"8272113195","tag":{"amenity":"recycling","operator":"C\u00c3\u00a1ritas Diocesana de Lisboa","operator:type":"religious","phone":"+351 213 573 386","recycling:belts":"yes","recycling:clothes":"yes","recycling:handbags":"yes","recycling:shoes":"yes","recycling_type":"container","website":"www.caritas.pt/site/lisboa"}},"type":"Feature"},
	{"geometry":{"coordinates":[-9.1933,38.9028],"type":"Point"},"properties":{"osm_id":"8295344478","tag":{"amenity":"waste_disposal","waste":"trash"}},"type":"Feature"},
	{"geometry":{"coordinates":[-9.190917,38.904105],"type":"Point"},"properties":{"osm_id":"8295344483","tag":{"amenity":"waste_disposal","waste":"trash"}},"type":"Feature"},
	{"geometry":{"coordinates":[-9.190202,38.903958],"type":"Point"},"properties":{"osm_id":"8325690545","tag":{"amenity":"recycling","recycling:PET":"yes","recycling:beverage_cartons":"yes","recycling:cans":"yes","recycling:cardboard":"yes","recycling:cartons":"yes","recycling:glass":"yes","recycling:glass_bottles":"yes","recycling:magazines":"yes","recycling:newspaper":"yes","recycling:paper":"yes","recycling:paper_packaging":"yes","recycling:plastic":"yes","recycling:plastic_bags":"yes","recycling:plastic_bottles":"yes","recycling:plastic_packaging":"yes","recycling_type":"container"}},"type":"Feature"},
	{"geometry":{"coordinates":[-9.1902,38.903937],"type":"Point"},"properties":{"osm_id":"8325690546","tag":{"amenity":"waste_disposal","waste":"trash"}},"type":"Feature"},
	{"geometry":{"coordinates":[-9.189323,38.901129],"type":"Point"},"properties":{"osm_id":"8325690550","tag":{"amenity":"waste_disposal","waste":"trash"}},"type":"Feature"},
	{"geometry":{"coordinates":[-9.190016,38.902227],"type":"Point"},"properties":{"osm_id":"8325690551","tag":{"amenity":"waste_disposal","waste":"trash"}},"type":"Feature"},
	{"geometry":{"coordinates":[-9.190051,38.903197],"type":"Point"},"properties":{"osm_id":"8325690552","tag":{"amenity":"recycling","recycling_type":"container"}},"type":"Feature"},
	{"geometry":{"coordinates":[-9.190051,38.90318],"type":"Point"},"properties":{"osm_id":"8325690553","tag":{"amenity":"waste_disposal","waste":"trash"}},"type":"Feature"},
	{"geometry":{"coordinates":[-9.223848,38.916184],"type":"Point"},"properties":{"osm_id":"8325690555","tag":{"amenity":"waste_disposal","waste":"trash"}},"type":"Feature"},
	{"geometry":{"coordinates":[-9.160374,38.903715],"type":"Point"},"properties":{"osm_id":"8617923534","tag":{"amenity":"waste_disposal","operator":"SIMAR","operator:type":"government","waste":"trash"}},"type":"Feature"},
	{"geometry":{"coordinates":[-9.186993,38.918773],"type":"Point"},"properties":{"osm_id":"9039181830","tag":{"amenity":"recycling","recycling:PET":"yes","recycling:beverage_cartons":"yes","recycling:cans":"yes","recycling:cardboard":"yes","recycling:cartons":"yes","recycling:glass":"yes","recycling:glass_bottles":"yes","recycling:magazines":"yes","recycling:newspaper":"yes","recycling:paper":"yes","recycling:paper_packaging":"yes","recycling:plastic":"yes","recycling:plastic_bags":"yes","recycling:plastic_bottles":"yes","recycling:plastic_packaging":"yes","recycling_type":"container"}},"type":"Feature"},
	{"geometry":{"coordinates":[-9.187079,38.918767],"type":"Point"},"properties":{"osm_id":"9039181831","tag":{"amenity":"waste_disposal","waste":"trash"}},"type":"Feature"}
]
}
