{
"type": "FeatureCollection",
"features": [
	{"geometry":{"coordinates":[-9.161423,38.827715],"type":"Point"},"properties":{"osm_id":"1539891789","tag":{"amenity":"recycling","recycling_type":"container"}},"type":"Feature"},
	{"geometry":{"coordinates":[-9.177893,38.830487],"type":"Point"},"properties":{"osm_id":"1548599436","tag":{"amenity":"recycling"}},"type":"Feature"},
	{"geometry":{"coordinates":[-9.166981,38.828481],"type":"Point"},"properties":{"osm_id":"8312364385","tag":{"amenity":"recycling","operator":"SIMAR","operator:type":"government","recycling:PET":"yes","recycling:beverage_cartons":"yes","recycling:cans":"yes","recycling:cardboard":"yes","recycling:cartons":"yes","recycling:glass":"yes","recycling:glass_bottles":"yes","recycling:magazines":"yes","recycling:newspaper":"yes","recycling:paper":"yes","recycling:paper_packaging":"yes","recycling:plastic":"yes","recycling:plastic_bags":"yes","recycling:plastic_bottles":"yes","recycling:plastic_packaging":"yes","recycling_type":"container"}},"type":"Feature"},
	{"geometry":{"coordinates":[-9.166981,38.828489],"type":"Point"},"properties":{"osm_id":"8312364386","tag":{"amenity":"waste_disposal","operator":"SIMAR","operator:type":"government","waste":"trash"}},"type":"Feature"},
	{"geometry":{"coordinates":[-9.16698,38.828497],"type":"Point"},"properties":{"osm_id":"8312364387","tag":{"amenity":"recycling","operator":"Prio","operator:type":"private","recycling:cooking_oil":"yes","recycling:engine_oil":"no","recycling_type":"container"}},"type":"Feature"},
	{"geometry":{"coordinates":[-9.16698,38.828505],"type":"Point"},"properties":{"osm_id":"8312364388","tag":{"amenity":"recycling","operator":"Humana Portugal","operator:type":"ngo","recycling:belts":"yes","recycling:clothes":"yes","recycling_type":"container"}},"type":"Feature"},
	{"geometry":{"coordinates":[-9.167266,38.829019],"type":"Point"},"properties":{"osm_id":"8312364389","tag":{"amenity":"recycling","operator":"SIMAR","operator:type":"government","recycling:PET":"yes","recycling:beverage_cartons":"yes","recycling:cans":"yes","recycling:cardboard":"yes","recycling:cartons":"yes","recycling:glass":"yes","recycling:glass_bottles":"yes","recycling:magazines":"yes","recycling:newspaper":"yes","recycling:paper":"yes","recycling:paper_packaging":"yes","recycling:plastic":"yes","recycling:plastic_bags":"yes","recycling:plastic_bottles":"yes","recycling:plastic_packaging":"yes","recycling_type":"container"}},"type":"Feature"},
	{"geometry":{"coordinates":[-9.167247,38.829031],"type":"Point"},"properties":{"osm_id":"8312364390","tag":{"amenity":"waste_disposal","operator":"SIMAR","operator:type":"government","waste":"trash"}},"type":"Feature"},
	{"geometry":{"coordinates":[-9.166304,38.829067],"type":"Point"},"properties":{"osm_id":"8312364411","tag":{"amenity":"waste_disposal","operator":"SIMAR","operator:type":"government","waste":"trash"}},"type":"Feature"},
	{"geometry":{"coordinates":[-9.16981,38.829753],"type":"Point"},"properties":{"osm_id":"8316146313","tag":{"amenity":"recycling","operator":"Humana Portugal","operator:type":"ngo","recycling:belts":"yes","recycling:clothes":"yes","recycling_type":"container"}},"type":"Feature"},
	{"geometry":{"coordinates":[-9.170027,38.831253],"type":"Point"},"properties":{"osm_id":"8917336535","tag":{"amenity":"recycling","operator":"SIMAR Loures e Odivelas","recycling:beverage_cartons":"yes","recycling:cardboard":"yes","recycling:cartons":"yes","recycling:glass_bottles":"yes","recycling:paper":"yes","recycling:paper_packaging":"yes","recycling:plastic":"yes","recycling:plastic_bottles":"yes","recycling:plastic_packaging":"yes","recycling:waste":"yes","recycling_type":"container"}},"type":"Feature"},
	{"geometry":{"coordinates":[-9.173975,38.831692],"type":"Point"},"properties":{"osm_id":"8920538827","tag":{"amenity":"recycling","recycling:cardboard":"yes","recycling:glass_bottles":"yes","recycling:paper":"yes","recycling:plastic_bottles":"yes","recycling:plastic_packaging":"yes","recycling:waste":"yes","recycling_type":"container"}},"type":"Feature"}
]
}
