{
"type": "FeatureCollection",
"features": [
	{"geometry":{"coordinates":[-9.172459,38.780697],"type":"Point"},"properties":{"osm_id":"219221494","tag":{"amenity":"recycling"}},"type":"Feature"},
	{"geometry":{"coordinates":[-9.165737,38.7577],"type":"Point"},"properties":{"osm_id":"259114501","tag":{"amenity":"recycling"}},"type":"Feature"},
	{"geometry":{"coordinates":[-9.166141,38.762412],"type":"Point"},"properties":{"osm_id":"259114629","tag":{"amenity":"recycling"}},"type":"Feature"},
	{"geometry":{"coordinates":[-9.170767,38.763804],"type":"Point"},"properties":{"osm_id":"259114738","tag":{"amenity":"recycling","mapillary":"rMDxadNi2LrvO2iWkiPaCQ","recycling_type":"container","survey:date":"2019-11-22"}},"type":"Feature"},
	{"geometry":{"coordinates":[-9.169196,38.760752],"type":"Point"},"properties":{"osm_id":"259114981","tag":{"amenity":"recycling"}},"type":"Feature"},
	{"geometry":{"coordinates":[-9.159969,38.779172],"type":"Point"},"properties":{"osm_id":"454653398","tag":{"amenity":"recycling","recycling:glass":"yes","recycling:glass_bottles":"yes","recycling_type":"container"}},"type":"Feature"},
	{"geometry":{"coordinates":[-9.214685,38.784726],"type":"Point"},"properties":{"osm_id":"580298249","tag":{"amenity":"recycling"}},"type":"Feature"},
	{"geometry":{"coordinates":[-9.215597,38.78297],"type":"Point"},"properties":{"osm_id":"580298254","tag":{"amenity":"recycling"}},"type":"Feature"},
	{"geometry":{"coordinates":[-9.212897,38.782385],"type":"Point"},"properties":{"osm_id":"1229597087","tag":{"amenity":"recycling"}},"type":"Feature"},
	{"geometry":{"coordinates":[-9.162793,38.776561],"type":"Point"},"properties":{"osm_id":"1301495523","tag":{"amenity":"recycling","recycling:glass":"yes","recycling:glass_bottles":"yes","recycling_type":"container"}},"type":"Feature"},
	{"geometry":{"coordinates":[-9.165011,38.817048],"type":"Point"},"properties":{"osm_id":"1672433377","tag":{"amenity":"recycling","recycling_type":"container"}},"type":"Feature"},
	{"geometry":{"coordinates":[-9.184745,38.805459],"type":"Point"},"properties":{"osm_id":"1717010781","tag":{"amenity":"waste_basket"}},"type":"Feature"},
	{"geometry":{"coordinates":[-9.184788,38.805467],"type":"Point"},"properties":{"osm_id":"1717011425","tag":{"amenity":"recycling","recycling_type":"container"}},"type":"Feature"},
	{"geometry":{"coordinates":[-9.18571,38.805818],"type":"Point"},"properties":{"osm_id":"1717011724","tag":{"amenity":"waste_basket"}},"type":"Feature"},
	{"geometry":{"coordinates":[-9.185807,38.805977],"type":"Point"},"properties":{"osm_id":"1717012022","tag":{"amenity":"waste_basket"}},"type":"Feature"},
	{"geometry":{"coordinates":[-9.185818,38.805952],"type":"Point"},"properties":{"osm_id":"1717013582","tag":{"amenity":"recycling","recycling_type":"container"}},"type":"Feature"},
	{"geometry":{"coordinates":[-9.170925,38.761358],"type":"Point"},"properties":{"osm_id":"3190200905","tag":{"addr:street":"Rua Professor Mark Athias","amenity":"recycling","recycling:cans":"no","recycling:clothes":"no","recycling:glass":"yes","recycling:paper":"no","recycling_type":"container"}},"type":"Feature"},
	{"geometry":{"coordinates":[-9.172146,38.762396],"type":"Point"},"properties":{"name":"Glass Recycling Point","osm_id":"3190200906","tag":{"addr:street":"Rua Professor Mark Athias","amenity":"recycling","location":"overground","recycling:cans":"no","recycling:clothes":"no","recycling:glass":"yes","recycling:paper":"no","recycling_type":"container"}},"type":"Feature"},
	{"geometry":{"coordinates":[-9.160497,38.772386],"type":"Point"},"properties":{"name":"Ecoilha Subterr\u00c3\u00a2nea","osm_id":"4951224238","tag":{"addr:street":"Rua Cordeiro Ferreira","alt_name":"Ecoponto;Ponto de Reciclagem","amenity":"recycling","description":"Sa\u00c3\u00adda do Centro Comercial","location":"underground","opening_hours":"24/7","operator":"C\u00c3\u00a2mara Municipal de Lisboa","recycling:cans":"yes","recycling:glass":"yes","recycling:glass_bottles":"yes","recycling:magazines":"yes","recycling:paper":"yes","recycling:plastic":"yes","recycling:plastic_bottles":"yes","recycling_type":"container","source:pkey":"46107ef6-ba78-4ec5-93be-333c03d64a58"}},"type":"Feature"},
	{"geometry":{"coordinates":[-9.161585,38.773289],"type":"Point"},"properties":{"name":"Ecoilha Subterr\u00c3\u00a2nea","osm_id":"4951224239","tag":{"addr:street":"Alameda Linhas Torres","alt_name":"Ecoponto;Ponto de Reciclagem","amenity":"recycling","description":"jt 259","location":"underground","opening_hours":"24/7","operator":"C\u00c3\u00a2mara Municipal de Lisboa","recycling:aluminium":"yes","recycling:batteries":"yes","recycling:cans":"yes","recycling:cardboard":"yes","recycling:glass":"yes","recycling:glass_bottles":"yes","recycling:paper":"yes","recycling:plastic":"yes","recycling:plastic_bottles":"yes","recycling:plastic_packaging":"yes","recycling_type":"container","source:pkey":"be19b4e4-9caf-48da-8cec-1ae928d44122"}},"type":"Feature"},
	{"geometry":{"coordinates":[-9.160258,38.770603],"type":"Point"},"properties":{"name":"Ecoilha Subterr\u00c3\u00a2nea","osm_id":"5121085879","tag":{"addr:street":"Rua Luis Freitas Branco","alt_name":"Ecoponto;Ponto de Reciclagem","amenity":"recycling","description":"Crzt Alm das Linhas de Torres","location":"underground","opening_hours":"24/7","operator":"C\u00c3\u00a2mara Municipal de Lisboa","recycling:glass":"yes","recycling:paper":"yes","recycling:plastic":"yes","recycling_type":"container","source:pkey":"c799b7c2-32ff-4317-a99b-a32d7f6379cd"}},"type":"Feature"},
	{"geometry":{"coordinates":[-9.15407,38.765616],"type":"Point"},"properties":{"osm_id":"5423191218","tag":{"amenity":"recycling","recycling:glass_bottles":"yes","recycling_type":"container"}},"type":"Feature"},
	{"geometry":{"coordinates":[-9.198407,38.756583],"type":"Point"},"properties":{"name":"Ecoilha Subterr\u00c3\u00a2nea","osm_id":"5468970912","tag":{"addr:street":"Rua Quinta Charquinho","alt_name":"Ecoponto;Ponto de Reciclagem","amenity":"recycling","description":"Pr\u00c3\u00b3ximo N\u00c2\u00ba24","location":"underground","opening_hours":"24/7","operator":"C\u00c3\u00a2mara Municipal de Lisboa","recycling_type":"container","source:pkey":"723d049f-e534-4e04-bf5d-d5d415b7feb8"}},"type":"Feature"},
	{"geometry":{"coordinates":[-9.162628,38.779684],"type":"Point"},"properties":{"name":"Ecoilha Subterr\u00c3\u00a2nea","osm_id":"5468972537","tag":{"addr:street":"Rua Jorge Sena","alt_name":"Ecoponto;Ponto de Reciclagem","amenity":"recycling","description":"Ft Jardim","location":"underground","opening_hours":"24/7","operator":"C\u00c3\u00a2mara Municipal de Lisboa","recycling_type":"container","source:pkey":"7d925d3b-2767-427e-ae45-c2f93d7e4abc"}},"type":"Feature"},
	{"geometry":{"coordinates":[-9.150863,38.754631],"type":"Point"},"properties":{"name":"Ecoilha Subterr\u00c3\u00a2nea","osm_id":"5468972545","tag":{"addr:street":"Campo Grande","alt_name":"Ecoponto;Ponto de Reciclagem","amenity":"recycling","description":"Num 250 - 252","location":"underground","opening_hours":"24/7","operator":"C\u00c3\u00a2mara Municipal de Lisboa","recycling_type":"container","source:pkey":"56305a1a-106d-4b0b-a7d0-3fee8a67697f"}},"type":"Feature"},
	{"geometry":{"coordinates":[-9.19667,38.754284],"type":"Point"},"properties":{"name":"Ecoilha Subterr\u00c3\u00a2nea","osm_id":"5468972562","tag":{"addr:street":"Avenida Uruguai","alt_name":"Ecoponto;Ponto de Reciclagem","amenity":"recycling","description":"frt. n\u00c2\u00ba49,","location":"underground","opening_hours":"24/7","operator":"C\u00c3\u00a2mara Municipal de Lisboa","recycling_type":"container","source:pkey":"3fd98bcc-19af-4174-b319-405a9b90e724"}},"type":"Feature"},
	{"geometry":{"coordinates":[-9.176156,38.792188],"type":"Point"},"properties":{"osm_id":"5764743373","tag":{"amenity":"recycling","recycling:glass":"yes","recycling:paper":"yes","recycling:plastic":"yes","recycling:waste":"yes","recycling_type":"container"}},"type":"Feature"},
	{"geometry":{"coordinates":[-9.177091,38.79212],"type":"Point"},"properties":{"osm_id":"5764743374","tag":{"amenity":"recycling","recycling:glass":"yes","recycling:paper":"yes","recycling:plastic":"yes","recycling:waste":"yes","recycling_type":"container"}},"type":"Feature"},
	{"geometry":{"coordinates":[-9.177054,38.791478],"type":"Point"},"properties":{"osm_id":"5764743375","tag":{"amenity":"recycling","recycling:glass":"yes","recycling:paper":"yes","recycling:plastic":"yes","recycling:waste":"yes","recycling_type":"container"}},"type":"Feature"},
	{"geometry":{"coordinates":[-9.176784,38.79076],"type":"Point"},"properties":{"osm_id":"5764743376","tag":{"amenity":"recycling","recycling:glass":"yes","recycling:paper":"yes","recycling:plastic":"yes","recycling:waste":"yes","recycling_type":"underfloor-container"}},"type":"Feature"},
	{"geometry":{"coordinates":[-9.175338,38.796291],"type":"Point"},"properties":{"osm_id":"6018166838","tag":{"amenity":"recycling","recycling:glass":"yes","recycling:packaging":"yes","recycling:paper":"yes","recycling:trash":"yes","recycling_type":"container"}},"type":"Feature"},
	{"geometry":{"coordinates":[-9.177189,38.790285],"type":"Point"},"properties":{"osm_id":"6209890687","tag":{"amenity":"waste_basket"}},"type":"Feature"},
	{"geometry":{"coordinates":[-9.178019,38.789939],"type":"Point"},"properties":{"osm_id":"6382852615","tag":{"amenity":"waste_disposal","operator":"SIMAR"}},"type":"Feature"},
	{"geometry":{"coordinates":[-9.178065,38.789937],"type":"Point"},"properties":{"osm_id":"6382852616","tag":{"amenity":"recycling","recycling:glass":"yes","recycling:metal":"yes","recycling:paper":"yes","recycling:plastic":"yes","recycling_type":"container"}},"type":"Feature"},
	{"geometry":{"coordinates":[-9.14937,38.79594],"type":"Point"},"properties":{"osm_id":"6468583936","tag":{"amenity":"recycling","operator":"SIMAR - Loures | Odivelas","recycling_type":"container"}},"type":"Feature"},
	{"geometry":{"coordinates":[-9.149369,38.79591],"type":"Point"},"properties":{"osm_id":"6468583937","tag":{"amenity":"waste_disposal","operator":"SIMAR - Loures | Odivelas"}},"type":"Feature"},
	{"geometry":{"coordinates":[-9.149865,38.795615],"type":"Point"},"properties":{"osm_id":"6468583938","tag":{"amenity":"waste_disposal"}},"type":"Feature"},
	{"geometry":{"coordinates":[-9.14982,38.795616],"type":"Point"},"properties":{"osm_id":"6468583939","tag":{"amenity":"waste_disposal"}},"type":"Feature"},
	{"geometry":{"coordinates":[-9.149842,38.795616],"type":"Point"},"properties":{"osm_id":"6468583940","tag":{"amenity":"waste_disposal"}},"type":"Feature"},
	{"geometry":{"coordinates":[-9.151947,38.793617],"type":"Point"},"properties":{"osm_id":"6468585353","tag":{"amenity":"waste_disposal"}},"type":"Feature"},
	{"geometry":{"coordinates":[-9.151944,38.793599],"type":"Point"},"properties":{"osm_id":"6468585354","tag":{"amenity":"waste_disposal"}},"type":"Feature"},
	{"geometry":{"coordinates":[-9.151949,38.793543],"type":"Point"},"properties":{"osm_id":"6468585355","tag":{"amenity":"waste_disposal"}},"type":"Feature"},
	{"geometry":{"coordinates":[-9.151947,38.793571],"type":"Point"},"properties":{"osm_id":"6468585356","tag":{"amenity":"recycling","recycling_type":"container"}},"type":"Feature"},
	{"geometry":{"coordinates":[-9.144804,38.787145],"type":"Point"},"properties":{"osm_id":"6468595468","tag":{"amenity":"waste_disposal"}},"type":"Feature"},
	{"geometry":{"coordinates":[-9.144822,38.787139],"type":"Point"},"properties":{"osm_id":"6468595469","tag":{"amenity":"waste_disposal"}},"type":"Feature"},
	{"geometry":{"coordinates":[-9.144857,38.787127],"type":"Point"},"properties":{"osm_id":"6468597572","tag":{"amenity":"recycling","recycling:plastic":"yes","recycling_type":"container"}},"type":"Feature"},
	{"geometry":{"coordinates":[-9.144787,38.787151],"type":"Point"},"properties":{"osm_id":"6468597573","tag":{"amenity":"waste_disposal"}},"type":"Feature"},
	{"geometry":{"coordinates":[-9.144839,38.787133],"type":"Point"},"properties":{"osm_id":"6468597574","tag":{"amenity":"recycling","recycling:paper":"yes","recycling_type":"container"}},"type":"Feature"},
	{"geometry":{"coordinates":[-9.147074,38.776866],"type":"Point"},"properties":{"osm_id":"6758485009","tag":{"amenity":"waste_basket"}},"type":"Feature"},
	{"geometry":{"coordinates":[-9.147231,38.77648],"type":"Point"},"properties":{"osm_id":"6758485017","tag":{"amenity":"waste_basket"}},"type":"Feature"},
	{"geometry":{"coordinates":[-9.147389,38.776094],"type":"Point"},"properties":{"osm_id":"6758485027","tag":{"amenity":"waste_basket"}},"type":"Feature"},
	{"geometry":{"coordinates":[-9.147474,38.775884],"type":"Point"},"properties":{"osm_id":"6758485028","tag":{"amenity":"waste_basket"}},"type":"Feature"},
	{"geometry":{"coordinates":[-9.147607,38.775559],"type":"Point"},"properties":{"osm_id":"6758485036","tag":{"amenity":"waste_basket"}},"type":"Feature"},
	{"geometry":{"coordinates":[-9.147712,38.7753],"type":"Point"},"properties":{"osm_id":"6758485043","tag":{"amenity":"waste_basket"}},"type":"Feature"},
	{"geometry":{"coordinates":[-9.147898,38.774841],"type":"Point"},"properties":{"osm_id":"6758485049","tag":{"amenity":"waste_basket"}},"type":"Feature"},
	{"geometry":{"coordinates":[-9.167798,38.767999],"type":"Point"},"properties":{"osm_id":"6776042641","tag":{"amenity":"recycling","recycling:glass":"yes","recycling:glass_bottles":"yes","recycling_type":"container"}},"type":"Feature"},
	{"geometry":{"coordinates":[-9.167822,38.767989],"type":"Point"},"properties":{"osm_id":"6776042642","tag":{"amenity":"recycling","recycling:batteries":"yes","recycling_type":"container"}},"type":"Feature"},
	{"geometry":{"coordinates":[-9.170728,38.77047],"type":"Point"},"properties":{"osm_id":"6776144698","tag":{"amenity":"recycling","recycling:glass":"yes","recycling:glass_bottles":"yes","recycling_type":"container"}},"type":"Feature"},
	{"geometry":{"coordinates":[-9.170718,38.770482],"type":"Point"},"properties":{"osm_id":"6776144699","tag":{"amenity":"recycling","recycling:batteries":"yes","recycling_type":"container"}},"type":"Feature"},
	{"geometry":{"coordinates":[-9.215164,38.782125],"type":"Point"},"properties":{"osm_id":"6971605199","tag":{"amenity":"waste_disposal"}},"type":"Feature"},
	{"geometry":{"coordinates":[-9.216236,38.782548],"type":"Point"},"properties":{"osm_id":"6971605200","tag":{"amenity":"waste_disposal"}},"type":"Feature"},
	{"geometry":{"coordinates":[-9.216521,38.782598],"type":"Point"},"properties":{"osm_id":"6971605201","tag":{"amenity":"recycling","recycling_type":"container"}},"type":"Feature"},
	{"geometry":{"coordinates":[-9.170546,38.761759],"type":"Point"},"properties":{"osm_id":"7251785742","tag":{"amenity":"recycling","description":"Container to give away clothes","recycling:clothes":"yes","recycling_type":"container"}},"type":"Feature"},
	{"geometry":{"coordinates":[-9.148972,38.795741],"type":"Point"},"properties":{"osm_id":"7522465429","tag":{"amenity":"waste_disposal","operator":"SIMAR - Loures | Odivelas","waste":"trash"}},"type":"Feature"},
	{"geometry":{"coordinates":[-9.148232,38.795365],"type":"Point"},"properties":{"osm_id":"7522465430","tag":{"amenity":"waste_disposal","operator":"SIMAR - Loures | Odivelas","waste":"trash"}},"type":"Feature"},
	{"geometry":{"coordinates":[-9.177224,38.788963],"type":"Point"},"properties":{"osm_id":"7617619071","tag":{"amenity":"recycling","operator":"SIMAR","recycling:glass":"yes","recycling:paper":"yes","recycling:plastic":"yes","recycling_type":"container"}},"type":"Feature"},
	{"geometry":{"coordinates":[-9.176654,38.788442],"type":"Point"},"properties":{"osm_id":"7617619072","tag":{"amenity":"recycling","operator":"SIMAR","recycling:glass":"yes","recycling:paper":"yes","recycling:plastic":"yes","recycling_type":"container"}},"type":"Feature"},
	{"geometry":{"coordinates":[-9.178497,38.792103],"type":"Point"},"properties":{"osm_id":"7656655600","tag":{"amenity":"waste_disposal"}},"type":"Feature"},
	{"geometry":{"coordinates":[-9.157076,38.76837],"type":"Point"},"properties":{"osm_id":"7728482840","tag":{"amenity":"recycling","recycling:glass":"yes","recycling_type":"container"}},"type":"Feature"}
]
}
