{
"type": "FeatureCollection",
"features": [
	{"geometry":{"coordinates":[-9.167913,38.746129],"type":"Point"},"properties":{"osm_id":"387777702","tag":{"amenity":"recycling","recycling_type":"container"}},"type":"Feature"},
	{"geometry":{"coordinates":[-9.156943,38.735781],"type":"Point"},"properties":{"osm_id":"538017626","tag":{"amenity":"recycling"}},"type":"Feature"},
	{"geometry":{"coordinates":[-9.211679,38.705941],"type":"Point"},"properties":{"osm_id":"583879487","ref":"Ecoponto","tag":{"amenity":"recycling"}},"type":"Feature"},
	{"geometry":{"coordinates":[-9.210919,38.708202],"type":"Point"},"properties":{"osm_id":"583879999","ref":"Ecoponto","tag":{"amenity":"recycling"}},"type":"Feature"},
	{"geometry":{"coordinates":[-9.221538,38.743759],"type":"Point"},"properties":{"osm_id":"672368266","tag":{"amenity":"recycling"}},"type":"Feature"},
	{"geometry":{"coordinates":[-9.189638,38.746387],"type":"Point"},"properties":{"osm_id":"1128850007","tag":{"amenity":"recycling"}},"type":"Feature"},
	{"geometry":{"coordinates":[-9.192217,38.745294],"type":"Point"},"properties":{"osm_id":"1128850011","tag":{"amenity":"recycling"}},"type":"Feature"},
	{"geometry":{"coordinates":[-9.191772,38.744653],"type":"Point"},"properties":{"osm_id":"1138174545","tag":{"amenity":"recycling"}},"type":"Feature"},
	{"geometry":{"coordinates":[-9.190423,38.748047],"type":"Point"},"properties":{"osm_id":"1182482360","tag":{"amenity":"recycling"}},"type":"Feature"},
	{"geometry":{"coordinates":[-9.224554,38.72238],"type":"Point"},"properties":{"osm_id":"1268503339","tag":{"amenity":"recycling","recycling:batteries":"yes","recycling:cans":"yes","recycling:glass":"yes","recycling:paper":"yes","recycling:scrap_metal":"yes"}},"type":"Feature"},
	{"geometry":{"coordinates":[-9.223333,38.721138],"type":"Point"},"properties":{"osm_id":"1268503354","tag":{"amenity":"recycling","recycling:batteries":"yes","recycling:cans":"yes","recycling:glass":"yes","recycling:paper":"yes","recycling:scrap_metal":"yes"}},"type":"Feature"},
	{"geometry":{"coordinates":[-9.199139,38.697773],"type":"Point"},"properties":{"osm_id":"1513439554","tag":{"amenity":"recycling"}},"type":"Feature"},
	{"geometry":{"coordinates":[-9.193654,38.744783],"type":"Point"},"properties":{"osm_id":"1705177739","tag":{"amenity":"recycling","recycling:batteries":"yes","recycling:cartons":"yes","recycling:paper":"yes","recycling:plastic":"yes","recycling:plastic_bottles":"yes","recycling:plastic_packaging":"yes","recycling_type":"container"}},"type":"Feature"},
	{"geometry":{"coordinates":[-9.150672,38.729191],"type":"Point"},"properties":{"osm_id":"1800655727","tag":{"amenity":"recycling"}},"type":"Feature"},
	{"geometry":{"coordinates":[-9.212773,38.738721],"type":"Point"},"properties":{"name":"Ecoponto","osm_id":"1912128833","tag":{"amenity":"recycling","recycling:batteries":"yes","recycling:books":"no","recycling:cans":"yes","recycling:cardboard":"yes","recycling:cartons":"yes","recycling:clothes":"no","recycling:electrical_appliances":"no","recycling:glass":"yes","recycling:glass_bottles":"yes","recycling:green_waste":"no","recycling:magazines":"yes","recycling:newspaper":"yes","recycling:paper":"yes","recycling:paper_packaging":"yes","recycling:plastic":"yes","recycling:plastic_bottles":"yes","recycling:plastic_packaging":"yes","recycling:scrap_metal":"no","recycling:small_appliances":"no","recycling:waste":"no","recycling:wood":"no","recycling_type":"container"}},"type":"Feature"},
	{"geometry":{"coordinates":[-9.212011,38.738786],"type":"Point"},"properties":{"osm_id":"1912148983","tag":{"amenity":"waste_basket"}},"type":"Feature"},
	{"geometry":{"coordinates":[-9.212845,38.739318],"type":"Point"},"properties":{"osm_id":"1912208625","tag":{"amenity":"waste_basket"}},"type":"Feature"},
	{"geometry":{"coordinates":[-9.22491,38.720298],"type":"Point"},"properties":{"name":"Recycling","osm_id":"1915804450","tag":{"amenity":"recycling","recycling:cartons":"yes","recycling:glass_bottles":"yes","recycling:magazines":"yes","recycling:newspaper":"yes","recycling:paper":"yes","recycling:plastic":"yes","recycling:plastic_bottles":"yes","recycling_type":"container"}},"type":"Feature"},
	{"geometry":{"coordinates":[-9.20017,38.700884],"type":"Point"},"properties":{"osm_id":"1975540284","tag":{"amenity":"recycling","recycling_type":"container"}},"type":"Feature"},
	{"geometry":{"coordinates":[-9.202564,38.702027],"type":"Point"},"properties":{"osm_id":"1975540797","tag":{"amenity":"recycling"}},"type":"Feature"},
	{"geometry":{"coordinates":[-9.173895,38.701588],"type":"Point"},"properties":{"osm_id":"1975835376","tag":{"amenity":"recycling"}},"type":"Feature"},
	{"geometry":{"coordinates":[-9.213269,38.693498],"type":"Point"},"properties":{"osm_id":"1977650330","tag":{"amenity":"recycling","recycling:glass":"yes","recycling_type":"container"}},"type":"Feature"},
	{"geometry":{"coordinates":[-9.147406,38.709726],"type":"Point"},"properties":{"osm_id":"1978062437","tag":{"amenity":"recycling"}},"type":"Feature"},
	{"geometry":{"coordinates":[-9.159121,38.732614],"type":"Point"},"properties":{"osm_id":"2141195610","tag":{"amenity":"recycling"}},"type":"Feature"},
	{"geometry":{"coordinates":[-9.145107,38.736121],"type":"Point"},"properties":{"osm_id":"2473989652","tag":{"amenity":"waste_basket"}},"type":"Feature"},
	{"geometry":{"coordinates":[-9.142761,38.73616],"type":"Point"},"properties":{"osm_id":"2473989656","tag":{"amenity":"waste_basket"}},"type":"Feature"},
	{"geometry":{"coordinates":[-9.143768,38.736255],"type":"Point"},"properties":{"osm_id":"2473989688","tag":{"amenity":"waste_basket"}},"type":"Feature"},
	{"geometry":{"coordinates":[-9.143815,38.7364],"type":"Point"},"properties":{"osm_id":"2473989770","tag":{"amenity":"waste_basket"}},"type":"Feature"},
	{"geometry":{"coordinates":[-9.141985,38.736529],"type":"Point"},"properties":{"osm_id":"2473989873","tag":{"amenity":"waste_basket"}},"type":"Feature"},
	{"geometry":{"coordinates":[-9.150191,38.749993],"type":"Point"},"properties":{"osm_id":"2509303964","tag":{"amenity":"waste_basket"}},"type":"Feature"},
	{"geometry":{"coordinates":[-9.153093,38.749554],"type":"Point"},"properties":{"osm_id":"2509331160","tag":{"amenity":"recycling","recycling:glass":"yes"}},"type":"Feature"},
	{"geometry":{"coordinates":[-9.154839,38.748963],"type":"Point"},"properties":{"osm_id":"2511326071","tag":{"access":"private","amenity":"recycling"}},"type":"Feature"},
	{"geometry":{"coordinates":[-9.150301,38.706703],"type":"Point"},"properties":{"osm_id":"2516763991","tag":{"amenity":"recycling","recycling:glass":"yes"}},"type":"Feature"},
	{"geometry":{"coordinates":[-9.151832,38.750347],"type":"Point"},"properties":{"osm_id":"2522075056","tag":{"amenity":"recycling","recycling:glass":"yes","recycling:paper":"yes"}},"type":"Feature"},
	{"geometry":{"coordinates":[-9.151282,38.72625],"type":"Point"},"properties":{"highway":"street_lamp","osm_id":"2533859379","tag":{"amenity":"waste_basket"}},"type":"Feature"},
	{"geometry":{"coordinates":[-9.150717,38.726534],"type":"Point"},"properties":{"highway":"street_lamp","osm_id":"2533859385","tag":{"amenity":"waste_basket"}},"type":"Feature"},
	{"geometry":{"coordinates":[-9.151598,38.726623],"type":"Point"},"properties":{"highway":"street_lamp","osm_id":"2533859387","tag":{"amenity":"waste_basket"}},"type":"Feature"},
	{"geometry":{"coordinates":[-9.151053,38.726883],"type":"Point"},"properties":{"highway":"street_lamp","osm_id":"2533859389","tag":{"amenity":"waste_basket"}},"type":"Feature"},
	{"geometry":{"coordinates":[-9.151928,38.726998],"type":"Point"},"properties":{"highway":"street_lamp","osm_id":"2533859392","tag":{"amenity":"waste_basket"}},"type":"Feature"},
	{"geometry":{"coordinates":[-9.151395,38.727276],"type":"Point"},"properties":{"highway":"street_lamp","osm_id":"2533859402","tag":{"amenity":"waste_basket"}},"type":"Feature"},
	{"geometry":{"coordinates":[-9.152264,38.727378],"type":"Point"},"properties":{"highway":"street_lamp","osm_id":"2533859405","tag":{"amenity":"waste_basket"}},"type":"Feature"},
	{"geometry":{"coordinates":[-9.151735,38.72767],"type":"Point"},"properties":{"highway":"street_lamp","osm_id":"2533859422","tag":{"amenity":"waste_basket"}},"type":"Feature"},
	{"geometry":{"coordinates":[-9.152608,38.727777],"type":"Point"},"properties":{"highway":"street_lamp","osm_id":"2533859437","tag":{"amenity":"waste_basket"}},"type":"Feature"},
	{"geometry":{"coordinates":[-9.152064,38.728053],"type":"Point"},"properties":{"highway":"street_lamp","osm_id":"2533859453","tag":{"amenity":"waste_basket"}},"type":"Feature"},
	{"geometry":{"coordinates":[-9.152933,38.728158],"type":"Point"},"properties":{"highway":"street_lamp","osm_id":"2533859461","tag":{"amenity":"waste_basket"}},"type":"Feature"},
	{"geometry":{"coordinates":[-9.15241,38.728446],"type":"Point"},"properties":{"highway":"street_lamp","osm_id":"2533859471","tag":{"amenity":"waste_basket"}},"type":"Feature"},
	{"geometry":{"coordinates":[-9.153272,38.728539],"type":"Point"},"properties":{"highway":"street_lamp","osm_id":"2533859481","tag":{"amenity":"waste_basket"}},"type":"Feature"},
	{"geometry":{"coordinates":[-9.152733,38.728821],"type":"Point"},"properties":{"highway":"street_lamp","osm_id":"2533859489","tag":{"amenity":"waste_basket"}},"type":"Feature"},
	{"geometry":{"coordinates":[-9.153608,38.728922],"type":"Point"},"properties":{"highway":"street_lamp","osm_id":"2533859494","tag":{"amenity":"waste_basket"}},"type":"Feature"},
	{"geometry":{"coordinates":[-9.153076,38.729211],"type":"Point"},"properties":{"highway":"street_lamp","osm_id":"2533859502","tag":{"amenity":"waste_basket"}},"type":"Feature"},
	{"geometry":{"coordinates":[-9.153945,38.729311],"type":"Point"},"properties":{"highway":"street_lamp","osm_id":"2533859505","tag":{"amenity":"waste_basket"}},"type":"Feature"},
	{"geometry":{"coordinates":[-9.153411,38.729597],"type":"Point"},"properties":{"highway":"street_lamp","osm_id":"2533859513","tag":{"amenity":"waste_basket"}},"type":"Feature"},
	{"geometry":{"coordinates":[-9.154279,38.729698],"type":"Point"},"properties":{"highway":"street_lamp","osm_id":"2533859516","tag":{"amenity":"waste_basket"}},"type":"Feature"},
	{"geometry":{"coordinates":[-9.153755,38.729986],"type":"Point"},"properties":{"highway":"street_lamp","osm_id":"2533859530","tag":{"amenity":"waste_basket"}},"type":"Feature"},
	{"geometry":{"coordinates":[-9.140869,38.712192],"type":"Point"},"properties":{"osm_id":"2908623667","tag":{"amenity":"waste_basket"}},"type":"Feature"},
	{"geometry":{"coordinates":[-9.140669,38.711742],"type":"Point"},"properties":{"osm_id":"2908626375","tag":{"amenity":"waste_basket"}},"type":"Feature"},
	{"geometry":{"coordinates":[-9.142947,38.713107],"type":"Point"},"properties":{"osm_id":"2908769409","tag":{"amenity":"waste_basket"}},"type":"Feature"},
	{"geometry":{"coordinates":[-9.144296,38.714778],"type":"Point"},"properties":{"osm_id":"2908769417","tag":{"amenity":"waste_basket"}},"type":"Feature"},
	{"geometry":{"coordinates":[-9.216821,38.69231],"type":"Point"},"properties":{"osm_id":"2908943709","tag":{"amenity":"recycling","recycling:clothes":"no","recycling:glass":"yes","recycling:paper":"yes"}},"type":"Feature"},
	{"geometry":{"coordinates":[-9.145372,38.707479],"type":"Point"},"properties":{"osm_id":"3575238997","tag":{"amenity":"waste_basket"}},"type":"Feature"},
	{"geometry":{"coordinates":[-9.142938,38.710501],"type":"Point"},"properties":{"osm_id":"3575238998","tag":{"amenity":"waste_basket"}},"type":"Feature"},
	{"geometry":{"coordinates":[-9.142998,38.710447],"type":"Point"},"properties":{"osm_id":"3575239115","tag":{"amenity":"waste_basket"}},"type":"Feature"},
	{"geometry":{"coordinates":[-9.158585,38.752685],"type":"Point"},"properties":{"osm_id":"3625367195","tag":{"amenity":"recycling"}},"type":"Feature"},
	{"geometry":{"coordinates":[-9.223149,38.737152],"type":"Point"},"properties":{"osm_id":"4056290634","tag":{"amenity":"waste_disposal"}},"type":"Feature"},
	{"geometry":{"coordinates":[-9.222076,38.737109],"type":"Point"},"properties":{"osm_id":"4056290635","tag":{"amenity":"waste_disposal"}},"type":"Feature"},
	{"geometry":{"coordinates":[-9.222011,38.737125],"type":"Point"},"properties":{"osm_id":"4056290636","tag":{"amenity":"recycling","recycling:cans":"yes","recycling:clothes":"no","recycling:glass":"yes","recycling:glass_bottles":"yes","recycling:paper":"yes","recycling:plastic":"yes","recycling_type":"container"}},"type":"Feature"},
	{"geometry":{"coordinates":[-9.174784,38.703181],"type":"Point"},"properties":{"osm_id":"4102599709","tag":{"amenity":"waste_basket"}},"type":"Feature"},
	{"geometry":{"coordinates":[-9.141779,38.722822],"type":"Point"},"properties":{"name":"Trash2","osm_id":"4140409911","tag":{"amenity":"waste_basket"}},"type":"Feature"},
	{"geometry":{"coordinates":[-9.196402,38.697052],"type":"Point"},"properties":{"osm_id":"4319212678","tag":{"amenity":"recycling","recycling:glass":"yes","recycling_type":"container"}},"type":"Feature"},
	{"geometry":{"coordinates":[-9.14424,38.742444],"type":"Point"},"properties":{"osm_id":"4356536393","tag":{"amenity":"waste_basket"}},"type":"Feature"},
	{"geometry":{"coordinates":[-9.149414,38.724586],"type":"Point"},"properties":{"osm_id":"4448091490","tag":{"amenity":"waste_basket"}},"type":"Feature"},
	{"geometry":{"coordinates":[-9.204836,38.696566],"type":"Point"},"properties":{"osm_id":"4449224589","tag":{"amenity":"waste_disposal"}},"type":"Feature"},
	{"geometry":{"coordinates":[-9.155922,38.737073],"type":"Point"},"properties":{"osm_id":"4630872935","tag":{"amenity":"waste_basket"}},"type":"Feature"},
	{"geometry":{"coordinates":[-9.157955,38.711329],"type":"Point"},"properties":{"osm_id":"4706636063","tag":{"amenity":"recycling","recycling:clothes":"yes","recycling:glass":"yes","recycling:glass_bottles":"yes","recycling:paper":"yes","recycling:plastic":"yes"}},"type":"Feature"},
	{"geometry":{"coordinates":[-9.157613,38.710247],"type":"Point"},"properties":{"osm_id":"4706636082","tag":{"amenity":"recycling","mapillary":"rFP6qZUYzkzYJJLHa6A6J1","recycling:clothes":"no","recycling:glass":"yes","recycling:glass_bottles":"yes","recycling:paper":"yes","recycling:plastic":"yes","recycling_type":"container","survey:date":"2020-01-19"}},"type":"Feature"},
	{"geometry":{"coordinates":[-9.153205,38.709213],"type":"Point"},"properties":{"osm_id":"4711950732","tag":{"amenity":"recycling","mapillary":"1VnJ1km6l2oUFL_fZERM5Q","recycling:clothes":"no","recycling:glass":"yes","recycling:glass_bottles":"yes","recycling:paper":"yes","recycling:plastic":"yes","recycling_type":"container","survey:date":"2019-03-10"}},"type":"Feature"},
	{"geometry":{"coordinates":[-9.152546,38.709599],"type":"Point"},"properties":{"osm_id":"4711950765","tag":{"amenity":"recycling","recycling:clothes":"no","recycling:glass":"yes","recycling:glass_bottles":"yes","recycling:paper":"no","recycling:plastic":"no"}},"type":"Feature"},
	{"geometry":{"coordinates":[-9.150351,38.739114],"type":"Point"},"properties":{"osm_id":"4779431250","tag":{"amenity":"waste_basket"}},"type":"Feature"},
	{"geometry":{"coordinates":[-9.147912,38.687738],"type":"Point"},"properties":{"osm_id":"4823172722","tag":{"amenity":"recycling"}},"type":"Feature"},
	{"geometry":{"coordinates":[-9.140938,38.732379],"type":"Point"},"properties":{"osm_id":"4840802099","tag":{"amenity":"recycling","operator":"Junta de Freguesia de Arroios","recycling:clothes":"yes","recycling:shoes":"yes","recycling_type":"container"}},"type":"Feature"},
	{"geometry":{"coordinates":[-9.202705,38.751132],"type":"Point"},"properties":{"osm_id":"5009265039","tag":{"amenity":"recycling"}},"type":"Feature"},
	{"geometry":{"coordinates":[-9.158884,38.715015],"type":"Point"},"properties":{"osm_id":"5045270524","tag":{"amenity":"waste_disposal"}},"type":"Feature"},
	{"geometry":{"coordinates":[-9.158781,38.714854],"type":"Point"},"properties":{"osm_id":"5045270526","tag":{"amenity":"waste_disposal"}},"type":"Feature"},
	{"geometry":{"coordinates":[-9.159001,38.715128],"type":"Point"},"properties":{"osm_id":"5045272121","tag":{"amenity":"waste_disposal"}},"type":"Feature"},
	{"geometry":{"coordinates":[-9.142934,38.753338],"type":"Point"},"properties":{"osm_id":"5268179412","tag":{"amenity":"recycling","recycling_type":"container"}},"type":"Feature"},
	{"geometry":{"coordinates":[-9.152301,38.748651],"type":"Point"},"properties":{"osm_id":"5322890869","tag":{"amenity":"recycling","recycling:glass":"yes","recycling:paper":"yes","recycling:plastic":"yes","recycling:waste":"yes","recycling_type":"container"}},"type":"Feature"},
	{"geometry":{"coordinates":[-9.146809,38.71728],"type":"Point"},"properties":{"osm_id":"5331790431","tag":{"amenity":"recycling","recycling:cans":"no","recycling:clothes":"yes","recycling:glass":"no","recycling:glass_bottles":"no","recycling:paper":"no","recycling:plastic":"no"}},"type":"Feature"},
	{"geometry":{"coordinates":[-9.14569,38.718],"type":"Point"},"properties":{"osm_id":"5331790466","tag":{"amenity":"recycling","mapillary":"e3ivY8Vg6qUVhIVA_kyzBA","recycling:clothes":"yes","recycling:glass":"yes","recycling:paper":"yes","recycling:plastic":"yes","recycling_type":"container","survey:date":"2017-09-21"}},"type":"Feature"},
	{"geometry":{"coordinates":[-9.148183,38.715949],"type":"Point"},"properties":{"name":"Ecoilha Subterr\u00c3\u00a2nea","osm_id":"5331790507","tag":{"addr:street":"Praca Principe Real","alt_name":"Ecoponto;Ponto de Reciclagem","amenity":"recycling","description":"1","location":"underground","opening_hours":"24/7","operator":"C\u00c3\u00a2mara Municipal de Lisboa","recycling:cans":"yes","recycling:clothes":"no","recycling:glass":"yes","recycling:glass_bottles":"yes","recycling:paper":"yes","recycling:plastic":"yes","recycling_type":"container","source:pkey":"53be67f5-be77-43d6-b5e3-3d82f74bdd83"}},"type":"Feature"},
	{"geometry":{"coordinates":[-9.153429,38.734672],"type":"Point"},"properties":{"osm_id":"5409637179","tag":{"amenity":"recycling","recycling:glass_bottles":"yes","recycling_type":"container"}},"type":"Feature"},
	{"geometry":{"coordinates":[-9.150158,38.729668],"type":"Point"},"properties":{"osm_id":"5417595990","tag":{"amenity":"recycling","recycling:clothes":"yes","recycling_type":"container"}},"type":"Feature"},
	{"geometry":{"coordinates":[-9.150144,38.729648],"type":"Point"},"properties":{"osm_id":"5417595991","tag":{"amenity":"recycling","recycling:glass_bottles":"yes","recycling_type":"container"}},"type":"Feature"},
	{"geometry":{"coordinates":[-9.150678,38.729405],"type":"Point"},"properties":{"osm_id":"5417595992","tag":{"amenity":"recycling","recycling:glass_bottles":"yes","recycling_type":"container"}},"type":"Feature"},
	{"geometry":{"coordinates":[-9.149261,38.727557],"type":"Point"},"properties":{"osm_id":"5417595993","tag":{"amenity":"recycling","recycling:glass_bottles":"yes","recycling_type":"container"}},"type":"Feature"},
	{"geometry":{"coordinates":[-9.146948,38.733493],"type":"Point"},"properties":{"osm_id":"5420790061","tag":{"amenity":"recycling","recycling:glass_bottles":"yes","recycling_type":"container"}},"type":"Feature"},
	{"geometry":{"coordinates":[-9.148618,38.733704],"type":"Point"},"properties":{"osm_id":"5427721818","tag":{"amenity":"recycling","recycling:glass_bottles":"yes","recycling_type":"container"}},"type":"Feature"},
	{"geometry":{"coordinates":[-9.148123,38.732463],"type":"Point"},"properties":{"osm_id":"5427723624","tag":{"amenity":"recycling","recycling:glass_bottles":"yes","recycling_type":"container"}},"type":"Feature"},
	{"geometry":{"coordinates":[-9.150496,38.736653],"type":"Point"},"properties":{"name":"Ecoilha Subterr\u00c3\u00a2nea","osm_id":"5468970905","tag":{"addr:street":"Avenida Miguel Bombarda","alt_name":"Ecoponto;Ponto de Reciclagem","amenity":"recycling","description":"Crzt Av Conde Valbom","location":"underground","opening_hours":"24/7","operator":"C\u00c3\u00a2mara Municipal de Lisboa","recycling_type":"container","source:pkey":"5466cda6-07e2-42bb-8e23-2d464c74c309"}},"type":"Feature"},
	{"geometry":{"coordinates":[-9.145867,38.730541],"type":"Point"},"properties":{"name":"Ecoilha Subterr\u00c3\u00a2nea","osm_id":"5468970906","tag":{"addr:street":"Rua Tomas Ribeiro","alt_name":"Ecoponto;Ponto de Reciclagem","amenity":"recycling","description":"Jt PT","location":"underground","opening_hours":"24/7","operator":"C\u00c3\u00a2mara Municipal de Lisboa","recycling_type":"container","source:pkey":"a9d7bb5a-8e55-4060-abaf-f35f01c51a74"}},"type":"Feature"},
	{"geometry":{"coordinates":[-9.206301,38.702504],"type":"Point"},"properties":{"name":"Ecoilha Subterr\u00c3\u00a2nea","osm_id":"5468970907","tag":{"addr:street":"Rua Goncalves Zarco","alt_name":"Ecoponto;Ponto de Reciclagem","amenity":"recycling","description":"Ft 21G","location":"underground","opening_hours":"24/7","operator":"C\u00c3\u00a2mara Municipal de Lisboa","recycling_type":"container","source:pkey":"11ce0c63-957b-4255-9475-a5fb6a3f3761"}},"type":"Feature"},
	{"geometry":{"coordinates":[-9.143009,38.707271],"type":"Point"},"properties":{"name":"Ecoilha Subterr\u00c3\u00a2nea","osm_id":"5468970908","tag":{"addr:street":"Rua Nova do Carvalho","alt_name":"Ecoponto;Ponto de Reciclagem","amenity":"recycling","description":"Rua S Paulo Ft n\u00c2\u00ba 5","location":"underground","opening_hours":"24/7","operator":"C\u00c3\u00a2mara Municipal de Lisboa","recycling_type":"container","source:pkey":"223362f6-624b-4741-b5f3-83f9d234f296"}},"type":"Feature"},
	{"geometry":{"coordinates":[-9.205084,38.698521],"type":"Point"},"properties":{"name":"Ecoilha Subterr\u00c3\u00a2nea","osm_id":"5468970909","tag":{"addr:street":"Rua Jeronimos","alt_name":"Ecoponto;Ponto de Reciclagem","amenity":"recycling","description":"Pr\u00c3\u00b3ximo n\u00c2\u00ba 8","location":"underground","opening_hours":"24/7","operator":"C\u00c3\u00a2mara Municipal de Lisboa","recycling_type":"container","source:pkey":"4c8c8252-a68e-4355-b5a0-383b9e5f9fba"}},"type":"Feature"},
	{"geometry":{"coordinates":[-9.156164,38.707499],"type":"Point"},"properties":{"name":"Ecoilha Subterr\u00c3\u00a2nea","osm_id":"5468970910","tag":{"addr:street":"Calcada Marques Abrantes","alt_name":"Ecoponto;Ponto de Reciclagem","amenity":"recycling","description":"Pr\u00c3\u00b3ximo n\u00c2\u00ba 150","location":"underground","opening_hours":"24/7","operator":"C\u00c3\u00a2mara Municipal de Lisboa","recycling_type":"container","source:pkey":"cf38bb46-1180-4207-b1a4-cb2d41b2274b"}},"type":"Feature"},
	{"geometry":{"coordinates":[-9.173516,38.741845],"type":"Point"},"properties":{"name":"Ecoilha Subterr\u00c3\u00a2nea","osm_id":"5468970911","tag":{"addr:street":"Rua Raul Carapinha","alt_name":"Ecoponto;Ponto de Reciclagem","amenity":"recycling","description":"Igreja de S. Domingos de Benfica","location":"underground","opening_hours":"24/7","operator":"C\u00c3\u00a2mara Municipal de Lisboa","recycling_type":"container","source:pkey":"b77090ea-d0b0-447a-8d59-63b89dc93c82"}},"type":"Feature"},
	{"geometry":{"coordinates":[-9.207257,38.708572],"type":"Point"},"properties":{"name":"Ecoilha Subterr\u00c3\u00a2nea","osm_id":"5468970913","tag":{"addr:street":"Rua Tristao Vaz","alt_name":"Ecoponto;Ponto de Reciclagem","amenity":"recycling","description":"Frente n\u00c2\u00ba 49","location":"underground","opening_hours":"24/7","operator":"C\u00c3\u00a2mara Municipal de Lisboa","recycling_type":"container","source:pkey":"b78fa869-fc78-4027-b4fc-2e3e599d7088"}},"type":"Feature"},
	{"geometry":{"coordinates":[-9.173799,38.740832],"type":"Point"},"properties":{"name":"Ecoilha Subterr\u00c3\u00a2nea","osm_id":"5468970914","tag":{"addr:street":"Rua Fernando Sylvan","alt_name":"Ecoponto;Ponto de Reciclagem","amenity":"recycling","description":"Pr\u00c3\u00b3ximo ao lote 30","location":"underground","opening_hours":"24/7","operator":"C\u00c3\u00a2mara Municipal de Lisboa","recycling_type":"container","source:pkey":"783241b9-71ad-46ba-99ed-20bf2f563f62"}},"type":"Feature"},
	{"geometry":{"coordinates":[-9.145261,38.727564],"type":"Point"},"properties":{"name":"Ecoilha Subterr\u00c3\u00a2nea","osm_id":"5468970915","tag":{"addr:street":"Rua Bernardo Lima","alt_name":"Ecoponto;Ponto de Reciclagem","amenity":"recycling","description":"Frente n\u00c2\u00ba 62","location":"underground","opening_hours":"24/7","operator":"C\u00c3\u00a2mara Municipal de Lisboa","recycling_type":"container","source:pkey":"02b05334-898a-40fb-8c16-1297cb7657f1"}},"type":"Feature"},
	{"geometry":{"coordinates":[-9.142315,38.717591],"type":"Point"},"properties":{"name":"Ecoilha Subterr\u00c3\u00a2nea","osm_id":"5468970916","tag":{"addr:street":"Largo Anunciada","alt_name":"Ecoponto;Ponto de Reciclagem","amenity":"recycling","description":"Junto ao n\u00c2\u00ba 6","location":"underground","opening_hours":"24/7","operator":"C\u00c3\u00a2mara Municipal de Lisboa","recycling_type":"container","source:pkey":"1cb65709-5d68-4355-af61-1ac0ed8d7a3b"}},"type":"Feature"},
	{"geometry":{"coordinates":[-9.145767,38.72266],"type":"Point"},"properties":{"name":"Ecoilha Subterr\u00c3\u00a2nea","osm_id":"5468970918","tag":{"addr:street":"Rua Barata Salgueiro","alt_name":"Ecoponto;Ponto de Reciclagem","amenity":"recycling","description":"Frente n\u00c2\u00ba 1","location":"underground","opening_hours":"24/7","operator":"C\u00c3\u00a2mara Municipal de Lisboa","recycling_type":"container","source:pkey":"1918a283-f247-4ba1-aa7d-2e892fe80109"}},"type":"Feature"},
	{"geometry":{"coordinates":[-9.167193,38.747594],"type":"Point"},"properties":{"name":"Ecoilha Subterr\u00c3\u00a2nea","osm_id":"5468972521","tag":{"addr:street":"Rua Palmeiras","alt_name":"Ecoponto;Ponto de Reciclagem","amenity":"recycling","description":"Frente ao 16","location":"underground","opening_hours":"24/7","operator":"C\u00c3\u00a2mara Municipal de Lisboa","recycling_type":"container","source:pkey":"f46e8d43-009e-4a23-8159-3b523c60c3d3"}},"type":"Feature"},
	{"geometry":{"coordinates":[-9.142659,38.723209],"type":"Point"},"properties":{"name":"Ecoilha Subterr\u00c3\u00a2nea","osm_id":"5468972522","tag":{"addr:street":"Alameda Santo Antonio Capuchos","alt_name":"Ecoponto;Ponto de Reciclagem","amenity":"recycling","location":"underground","opening_hours":"24/7","operator":"C\u00c3\u00a2mara Municipal de Lisboa","recycling_type":"container","source:pkey":"62bacca0-2823-4bcf-98fb-4221165a8320"}},"type":"Feature"},
	{"geometry":{"coordinates":[-9.173075,38.706686],"type":"Point"},"properties":{"name":"Ecoilha Subterr\u00c3\u00a2nea","osm_id":"5468972524","tag":{"addr:street":"Rua Maria Pia","alt_name":"Ecoponto;Ponto de Reciclagem","amenity":"recycling","description":"Czt Rua da Costa","location":"underground","opening_hours":"24/7","operator":"C\u00c3\u00a2mara Municipal de Lisboa","recycling_type":"container","source:pkey":"32e90129-3117-41da-8202-078c9d24b5f2"}},"type":"Feature"},
	{"geometry":{"coordinates":[-9.14084,38.73126],"type":"Point"},"properties":{"name":"Ecoilha Subterr\u00c3\u00a2nea","osm_id":"5468972525","tag":{"addr:street":"Rua Dona Estefania","alt_name":"Ecoponto;Ponto de Reciclagem","amenity":"recycling","description":"Fte n\u00c2\u00ba 129","location":"underground","opening_hours":"24/7","operator":"C\u00c3\u00a2mara Municipal de Lisboa","recycling_type":"container","source:pkey":"1b55f075-eb4f-400c-a116-651cc169e4a4"}},"type":"Feature"},
	{"geometry":{"coordinates":[-9.151022,38.723464],"type":"Point"},"properties":{"name":"Ecoilha Subterr\u00c3\u00a2nea","osm_id":"5468972527","tag":{"addr:street":"Rua Braamcamp","alt_name":"Ecoponto;Ponto de Reciclagem","amenity":"recycling","description":"Crzt R Mouzinho da Silveira","location":"underground","opening_hours":"24/7","operator":"C\u00c3\u00a2mara Municipal de Lisboa","recycling_type":"container","source:pkey":"0c493110-b27d-4563-80fd-26ae158e15a7"}},"type":"Feature"},
	{"geometry":{"coordinates":[-9.147255,38.723782],"type":"Point"},"properties":{"name":"Ecoilha Subterr\u00c3\u00a2nea","osm_id":"5468972532","tag":{"addr:street":"Rua Rodrigues Sampaio","alt_name":"Ecoponto;Ponto de Reciclagem","amenity":"recycling","description":"Junto n\u00c2\u00ba 132","location":"underground","opening_hours":"24/7","operator":"C\u00c3\u00a2mara Municipal de Lisboa","recycling_type":"container","source:pkey":"9773ce34-315c-478b-ba65-e6621100221f"}},"type":"Feature"},
	{"geometry":{"coordinates":[-9.144859,38.721064],"type":"Point"},"properties":{"name":"Ecoilha Subterr\u00c3\u00a2nea","osm_id":"5468972533","tag":{"addr:street":"Rua Rodrigues Sampaio","alt_name":"Ecoponto;Ponto de Reciclagem","amenity":"recycling","description":"cruz. Rua Manuel Jesus Coelho","location":"underground","opening_hours":"24/7","operator":"C\u00c3\u00a2mara Municipal de Lisboa","recycling_type":"container","source:pkey":"ccb6e89f-5f5e-4373-b6ad-270cec023361"}},"type":"Feature"},
	{"geometry":{"coordinates":[-9.148261,38.72498],"type":"Point"},"properties":{"name":"Ecoilha Subterr\u00c3\u00a2nea","osm_id":"5468972534","tag":{"addr:street":"Rua Rodrigues Sampaio","alt_name":"Ecoponto;Ponto de Reciclagem","amenity":"recycling","description":"Junto n\u00c2\u00ba 174","location":"underground","opening_hours":"24/7","operator":"C\u00c3\u00a2mara Municipal de Lisboa","recycling_type":"container","source:pkey":"d87fc0ce-2026-4ffb-9485-53ae61a17839"}},"type":"Feature"},
	{"geometry":{"coordinates":[-9.146525,38.725031],"type":"Point"},"properties":{"name":"Ecoilha Subterr\u00c3\u00a2nea","osm_id":"5468972535","tag":{"addr:street":"Rua Santa Marta","alt_name":"Ecoponto;Ponto de Reciclagem","amenity":"recycling","description":"Jt 57","location":"underground","opening_hours":"24/7","operator":"C\u00c3\u00a2mara Municipal de Lisboa","recycling_type":"container","source:pkey":"54b74b5c-5eef-4b98-bcba-8c0af0f6c298"}},"type":"Feature"},
	{"geometry":{"coordinates":[-9.176315,38.704258],"type":"Point"},"properties":{"name":"Ecoilha Subterr\u00c3\u00a2nea","osm_id":"5468972536","tag":{"addr:street":"Rua Cozinha Economica","alt_name":"Ecoponto;Ponto de Reciclagem","amenity":"recycling","description":"Junto n.\u00c2\u00ba 30 K","location":"underground","opening_hours":"24/7","operator":"C\u00c3\u00a2mara Municipal de Lisboa","recycling_type":"container","source:pkey":"0aacb1c0-b19b-4546-baaf-7ec0644a6f3c"}},"type":"Feature"},
	{"geometry":{"coordinates":[-9.178068,38.743237],"type":"Point"},"properties":{"name":"Ecoilha Subterr\u00c3\u00a2nea","osm_id":"5468972538","tag":{"addr:street":"Largo Conde Ottolini","alt_name":"Ecoponto;Ponto de Reciclagem","amenity":"recycling","description":"Junto ao Jardim","location":"underground","opening_hours":"24/7","operator":"C\u00c3\u00a2mara Municipal de Lisboa","recycling_type":"container","source:pkey":"6d974b74-50b6-4a0c-95bc-02374c78d7c5"}},"type":"Feature"},
	{"geometry":{"coordinates":[-9.161175,38.723984],"type":"Point"},"properties":{"name":"Ecoilha Subterr\u00c3\u00a2nea","osm_id":"5468972540","tag":{"addr:street":"Avenida Engenheiro Duarte Pacheco","alt_name":"Ecoponto;Ponto de Reciclagem","amenity":"recycling","description":"Ft Amoreiras - Jt CGD","location":"underground","opening_hours":"24/7","operator":"C\u00c3\u00a2mara Municipal de Lisboa","recycling_type":"container","source:pkey":"2a225895-7099-48b1-82af-4723e0ff8b15"}},"type":"Feature"},
	{"geometry":{"coordinates":[-9.170997,38.705305],"type":"Point"},"properties":{"name":"Ecoilha Subterr\u00c3\u00a2nea","osm_id":"5468972541","tag":{"addr:street":"Praca Armada","alt_name":"Ecoponto;Ponto de Reciclagem","amenity":"recycling","description":"Fente n\u00c2\u00ba 15","location":"underground","opening_hours":"24/7","operator":"C\u00c3\u00a2mara Municipal de Lisboa","recycling_type":"container","source:pkey":"da76648e-061c-4d8e-97af-471581ea7ddd"}},"type":"Feature"},
	{"geometry":{"coordinates":[-9.145425,38.743587],"type":"Point"},"properties":{"name":"Ecoilha Subterr\u00c3\u00a2nea","osm_id":"5468972544","tag":{"addr:street":"Campo Pequeno","alt_name":"Ecoponto;Ponto de Reciclagem","amenity":"recycling","description":"Ft 20","location":"underground","opening_hours":"24/7","operator":"C\u00c3\u00a2mara Municipal de Lisboa","recycling_type":"container","source:pkey":"31898088-5c39-440d-a377-7281a5abdeee"}},"type":"Feature"},
	{"geometry":{"coordinates":[-9.168203,38.748234],"type":"Point"},"properties":{"name":"Ecoilha Subterr\u00c3\u00a2nea","osm_id":"5468972548","tag":{"addr:street":"Rua Direita Palma","alt_name":"Ecoponto;Ponto de Reciclagem","amenity":"recycling","description":"Jardim","location":"underground","opening_hours":"24/7","operator":"C\u00c3\u00a2mara Municipal de Lisboa","recycling_type":"container","source:pkey":"7cf537ca-e574-463e-b7e9-1e1ade60c034"}},"type":"Feature"},
	{"geometry":{"coordinates":[-9.155959,38.741478],"type":"Point"},"properties":{"name":"Ecoilha Subterr\u00c3\u00a2nea","osm_id":"5468972549","tag":{"addr:street":"Rua Beneficencia","alt_name":"Ecoponto;Ponto de Reciclagem","amenity":"recycling","description":"Ecoliha Subt Jt Filipe da Mata","location":"underground","opening_hours":"24/7","operator":"C\u00c3\u00a2mara Municipal de Lisboa","recycling_type":"container","source:pkey":"8c407b22-4fa6-4e04-9def-344101823b86"}},"type":"Feature"},
	{"geometry":{"coordinates":[-9.141412,38.709762],"type":"Point"},"properties":{"name":"Ecoilha Subterr\u00c3\u00a2nea","osm_id":"5468972550","tag":{"addr:street":"Rua Capelo","alt_name":"Ecoponto;Ponto de Reciclagem","amenity":"recycling","description":"Crz Serpa Pinto","location":"underground","opening_hours":"24/7","operator":"C\u00c3\u00a2mara Municipal de Lisboa","recycling_type":"container","source:pkey":"8499308d-6a3e-4100-af30-46acb0fe8e89"}},"type":"Feature"},
	{"geometry":{"coordinates":[-9.145,38.706626],"type":"Point"},"properties":{"name":"Ecoilha Subterr\u00c3\u00a2nea","osm_id":"5468972551","tag":{"addr:street":"Avenida 24 de Julho","alt_name":"Ecoponto;Ponto de Reciclagem","amenity":"recycling","description":"Junto ao Mercado","location":"underground","opening_hours":"24/7","operator":"C\u00c3\u00a2mara Municipal de Lisboa","recycling_type":"container","source:pkey":"aad674bb-40a5-40fb-940a-ff294f3734bb"}},"type":"Feature"},
	{"geometry":{"coordinates":[-9.147101,38.706688],"type":"Point"},"properties":{"name":"Ecoilha Subterr\u00c3\u00a2nea","osm_id":"5468972552","tag":{"addr:street":"Pra\u00c3\u00a7a Dom Lu\u00c3\u00ads I","alt_name":"Ecoponto;Ponto de Reciclagem","amenity":"recycling","description":"Jardim P\u00c3\u00a7 D. Lu\u00c3\u00ads","location":"underground","opening_hours":"24/7","operator":"C\u00c3\u00a2mara Municipal de Lisboa","recycling_type":"container","source:pkey":"e33c16df-1ccb-4db4-a7a7-92664741df7a"}},"type":"Feature"},
	{"geometry":{"coordinates":[-9.163487,38.715497],"type":"Point"},"properties":{"name":"Ecoilha Subterr\u00c3\u00a2nea","osm_id":"5468972553","tag":{"addr:street":"Rua Domingos Sequeira","alt_name":"Ecoponto;Ponto de Reciclagem","amenity":"recycling","description":"Fte 74","location":"underground","opening_hours":"24/7","operator":"C\u00c3\u00a2mara Municipal de Lisboa","recycling_type":"container","source:pkey":"5aa1afbb-3676-468f-81d5-878fdc3b6dca"}},"type":"Feature"},
	{"geometry":{"coordinates":[-9.146757,38.708381],"type":"Point"},"properties":{"name":"Ecoilha Subterr\u00c3\u00a2nea","osm_id":"5468972554","tag":{"addr:street":"Rua da Moeda","alt_name":"Ecoponto;Ponto de Reciclagem","amenity":"recycling","description":"Crzt R S\u00c3\u00a3o Paulo","location":"underground","opening_hours":"24/7","operator":"C\u00c3\u00a2mara Municipal de Lisboa","recycling_type":"container","source:pkey":"8704559b-fad4-44b1-80a2-d34d9050a164"}},"type":"Feature"},
	{"geometry":{"coordinates":[-9.155075,38.706905],"type":"Point"},"properties":{"name":"Ecoilha Subterr\u00c3\u00a2nea","osm_id":"5468972557","tag":{"addr:street":"Largo Santos","alt_name":"Ecoponto;Ponto de Reciclagem","amenity":"recycling","description":"EcoIlha Subterr\u00c3\u00a2nea","location":"underground","opening_hours":"24/7","operator":"C\u00c3\u00a2mara Municipal de Lisboa","recycling_type":"container","source:pkey":"5ef3185a-c3b0-4f32-8ebd-ed1c59c7eddf"}},"type":"Feature"},
	{"geometry":{"coordinates":[-9.188766,38.746446],"type":"Point"},"properties":{"name":"Ecoilha Subterr\u00c3\u00a2nea","osm_id":"5468972559","tag":{"addr:street":"Rua Antonio Saude","alt_name":"Ecoponto;Ponto de Reciclagem","amenity":"recycling","description":"Junto ao posto da junta","location":"underground","opening_hours":"24/7","operator":"C\u00c3\u00a2mara Municipal de Lisboa","recycling_type":"container","source:pkey":"ba0a2f86-c264-426c-856a-7ee71e9c58a3"}},"type":"Feature"},
	{"geometry":{"coordinates":[-9.143351,38.709511],"type":"Point"},"properties":{"name":"Ecoilha Subterr\u00c3\u00a2nea","osm_id":"5468972560","tag":{"addr:street":"Largo Barao Quintela","alt_name":"Ecoponto;Ponto de Reciclagem","amenity":"recycling","description":"ecoilha subterr\u00c3\u0082nea","location":"underground","opening_hours":"24/7","operator":"C\u00c3\u00a2mara Municipal de Lisboa","recycling_type":"container","source:pkey":"bf63e278-9afb-4745-86e3-78cbc9654162"}},"type":"Feature"},
	{"geometry":{"coordinates":[-9.162157,38.738983],"type":"Point"},"properties":{"name":"Ecoilha Subterr\u00c3\u00a2nea","osm_id":"5468972566","tag":{"addr:street":"Avenida Madame Curie","alt_name":"Ecoponto;Ponto de Reciclagem","amenity":"recycling","description":"Ld 11C","location":"underground","opening_hours":"24/7","operator":"C\u00c3\u00a2mara Municipal de Lisboa","recycling_type":"container","source:pkey":"bcd93e3d-c833-4ed1-a82b-df46c424d328"}},"type":"Feature"},
	{"geometry":{"coordinates":[-9.20997,38.696305],"type":"Point"},"properties":{"name":"Ecoilha Subterr\u00c3\u00a2nea","osm_id":"5468972567","tag":{"addr:street":"Rua Bartolomeu Dias","alt_name":"Ecoponto;Ponto de Reciclagem","amenity":"recycling","description":"Frente ao CCB ( Recinto Parque Estacionamento )","location":"underground","opening_hours":"24/7","operator":"C\u00c3\u00a2mara Municipal de Lisboa","recycling_type":"container","source:pkey":"f33ebfa8-693e-449f-ac9d-414e1efb8bcd"}},"type":"Feature"},
	{"geometry":{"coordinates":[-9.17735,38.705033],"type":"Point"},"properties":{"name":"Ecoilha Subterr\u00c3\u00a2nea","osm_id":"5468972569","tag":{"addr:street":"Rua Jose Dias Coelho","alt_name":"Ecoponto;Ponto de Reciclagem","amenity":"recycling","description":"Ft 1","location":"underground","opening_hours":"24/7","operator":"C\u00c3\u00a2mara Municipal de Lisboa","recycling_type":"container","source:pkey":"fe1c7f28-29f8-46a1-8e47-303e2b263bf1"}},"type":"Feature"},
	{"geometry":{"coordinates":[-9.155554,38.718597],"type":"Point"},"properties":{"name":"Ecoilha Subterr\u00c3\u00a2nea","osm_id":"5468972570","tag":{"addr:street":"Largo Hintze Ribeiro","alt_name":"Ecoponto;Ponto de Reciclagem","amenity":"recycling","description":"Ft 339 - R S\u00c3\u00a3o Bento (esquerda)","location":"underground","opening_hours":"24/7","operator":"C\u00c3\u00a2mara Municipal de Lisboa","recycling_type":"container","source:pkey":"ff4d0033-6641-40ac-8c20-8fa7280e08b5"}},"type":"Feature"},
	{"geometry":{"coordinates":[-9.167227,38.743665],"type":"Point"},"properties":{"osm_id":"6011025550","tag":{"amenity":"recycling","recycling:clothes":"yes","recycling_type":"container"}},"type":"Feature"},
	{"geometry":{"coordinates":[-9.167509,38.738015],"type":"Point"},"properties":{"osm_id":"6013637289","tag":{"amenity":"recycling","recycling:glass_bottles":"yes","recycling_type":"container"}},"type":"Feature"},
	{"geometry":{"coordinates":[-9.166102,38.738068],"type":"Point"},"properties":{"osm_id":"6013637296","tag":{"amenity":"recycling","recycling:glass_bottles":"yes","recycling_type":"container"}},"type":"Feature"},
	{"geometry":{"coordinates":[-9.150375,38.724782],"type":"Point"},"properties":{"osm_id":"6014615175","tag":{"amenity":"waste_basket","layer":"-1","level":"-1"}},"type":"Feature"},
	{"geometry":{"coordinates":[-9.150379,38.724776],"type":"Point"},"properties":{"osm_id":"6014615176","tag":{"amenity":"waste_basket","layer":"-1","level":"-1"}},"type":"Feature"},
	{"geometry":{"coordinates":[-9.150213,38.72471],"type":"Point"},"properties":{"osm_id":"6014615177","tag":{"amenity":"waste_basket","layer":"-1","level":"-1"}},"type":"Feature"},
	{"geometry":{"coordinates":[-9.150209,38.724716],"type":"Point"},"properties":{"osm_id":"6014615178","tag":{"amenity":"waste_basket","layer":"-1","level":"-1"}},"type":"Feature"},
	{"geometry":{"coordinates":[-9.150318,38.724869],"type":"Point"},"properties":{"osm_id":"6014615179","tag":{"amenity":"waste_basket","layer":"-1","level":"-1"}},"type":"Feature"},
	{"geometry":{"coordinates":[-9.150314,38.724875],"type":"Point"},"properties":{"osm_id":"6014615180","tag":{"amenity":"waste_basket","layer":"-1","level":"-1"}},"type":"Feature"},
	{"geometry":{"coordinates":[-9.150153,38.724802],"type":"Point"},"properties":{"osm_id":"6014615181","tag":{"amenity":"waste_basket","layer":"-1","level":"-1"}},"type":"Feature"},
	{"geometry":{"coordinates":[-9.150149,38.724809],"type":"Point"},"properties":{"osm_id":"6014615182","tag":{"amenity":"waste_basket","layer":"-1","level":"-1"}},"type":"Feature"},
	{"geometry":{"coordinates":[-9.150368,38.724497],"type":"Point"},"properties":{"osm_id":"6014754108","tag":{"amenity":"waste_basket","layer":"-1","level":"-1"}},"type":"Feature"},
	{"geometry":{"coordinates":[-9.150508,38.724553],"type":"Point"},"properties":{"osm_id":"6014754109","tag":{"amenity":"waste_basket","layer":"-1","level":"-1"}},"type":"Feature"},
	{"geometry":{"coordinates":[-9.149989,38.725053],"type":"Point"},"properties":{"osm_id":"6018624985","tag":{"amenity":"waste_basket","layer":"-2","level":"-2"}},"type":"Feature"},
	{"geometry":{"coordinates":[-9.150145,38.725121],"type":"Point"},"properties":{"osm_id":"6018624986","tag":{"amenity":"waste_basket","layer":"-2","level":"-2"}},"type":"Feature"},
	{"geometry":{"coordinates":[-9.150113,38.724869],"type":"Point"},"properties":{"osm_id":"6018624987","tag":{"amenity":"waste_basket","layer":"-2","level":"-2"}},"type":"Feature"},
	{"geometry":{"coordinates":[-9.150272,38.724933],"type":"Point"},"properties":{"osm_id":"6018624988","tag":{"amenity":"waste_basket","layer":"-2","level":"-2"}},"type":"Feature"},
	{"geometry":{"coordinates":[-9.150333,38.724839],"type":"Point"},"properties":{"osm_id":"6018774543","tag":{"amenity":"waste_basket","layer":"-2","level":"-2"}},"type":"Feature"},
	{"geometry":{"coordinates":[-9.150176,38.724774],"type":"Point"},"properties":{"osm_id":"6018774551","tag":{"amenity":"waste_basket","layer":"-2","level":"-2"}},"type":"Feature"},
	{"geometry":{"coordinates":[-9.150434,38.724684],"type":"Point"},"properties":{"osm_id":"6018784133","tag":{"amenity":"waste_basket","layer":"-2","level":"-2"}},"type":"Feature"},
	{"geometry":{"coordinates":[-9.150276,38.724621],"type":"Point"},"properties":{"osm_id":"6018784134","tag":{"amenity":"waste_basket","layer":"-2","level":"-2"}},"type":"Feature"},
	{"geometry":{"coordinates":[-9.213974,38.712044],"type":"Point"},"properties":{"osm_id":"6399185647","tag":{"amenity":"recycling","recycling_type":"container"}},"type":"Feature"},
	{"geometry":{"coordinates":[-9.141784,38.715547],"type":"Point"},"properties":{"osm_id":"6530553985","tag":{"amenity":"waste_basket","layer":"-1","level":"-1"}},"type":"Feature"},
	{"geometry":{"coordinates":[-9.141985,38.715513],"type":"Point"},"properties":{"osm_id":"6530554045","tag":{"amenity":"waste_basket","layer":"-1","level":"-1"}},"type":"Feature"},
	{"geometry":{"coordinates":[-9.141825,38.715594],"type":"Point"},"properties":{"osm_id":"6530554074","tag":{"amenity":"waste_basket","layer":"-1","level":"-1"}},"type":"Feature"},
	{"geometry":{"coordinates":[-9.141917,38.715435],"type":"Point"},"properties":{"osm_id":"6530554309","tag":{"amenity":"waste_basket","layer":"-1","level":"-1"}},"type":"Feature"},
	{"geometry":{"coordinates":[-9.141464,38.715135],"type":"Point"},"properties":{"osm_id":"6530554336","tag":{"amenity":"waste_basket","layer":"-1","level":"-1"}},"type":"Feature"},
	{"geometry":{"coordinates":[-9.141567,38.71516],"type":"Point"},"properties":{"osm_id":"6530554505","tag":{"amenity":"waste_basket","layer":"-1","level":"-1"}},"type":"Feature"},
	{"geometry":{"coordinates":[-9.141705,38.715263],"type":"Point"},"properties":{"osm_id":"6530554629","tag":{"amenity":"waste_basket","layer":"-1","level":"-1"}},"type":"Feature"},
	{"geometry":{"coordinates":[-9.141948,38.715461],"type":"Point"},"properties":{"osm_id":"6530554692","tag":{"amenity":"waste_basket","layer":"-1","level":"-1"}},"type":"Feature"},
	{"geometry":{"coordinates":[-9.141771,38.715474],"type":"Point"},"properties":{"osm_id":"6530554715","tag":{"amenity":"waste_basket","layer":"-1","level":"-1"}},"type":"Feature"},
	{"geometry":{"coordinates":[-9.141632,38.715301],"type":"Point"},"properties":{"osm_id":"6530554767","tag":{"amenity":"waste_basket","layer":"-1","level":"-1"}},"type":"Feature"},
	{"geometry":{"coordinates":[-9.141898,38.715404],"type":"Point"},"properties":{"osm_id":"6530554781","tag":{"amenity":"waste_basket","layer":"-1","level":"-1"}},"type":"Feature"},
	{"geometry":{"coordinates":[-9.214692,38.715889],"type":"Point"},"properties":{"osm_id":"6542679269","tag":{"amenity":"recycling","recycling:glass":"yes","recycling:glass_bottles":"yes","recycling_type":"container"}},"type":"Feature"},
	{"geometry":{"coordinates":[-9.21256,38.71711],"type":"Point"},"properties":{"osm_id":"6724271271","tag":{"amenity":"recycling","recycling_type":"centre"}},"type":"Feature"},
	{"geometry":{"coordinates":[-9.155064,38.72024],"type":"Point"},"properties":{"osm_id":"6731791129","tag":{"amenity":"recycling","recycling:clothes":"yes"}},"type":"Feature"},
	{"geometry":{"coordinates":[-9.157107,38.723261],"type":"Point"},"properties":{"osm_id":"6738445843","tag":{"amenity":"recycling","location":"overground","recycling:clothes":"yes","recycling_type":"container"}},"type":"Feature"},
	{"geometry":{"coordinates":[-9.183765,38.713099],"type":"Point"},"properties":{"osm_id":"6858604408","tag":{"amenity":"recycling","operator":"C\u00c3\u00a2mara Municipal de Lisboa","recycling_type":"container"}},"type":"Feature"},
	{"geometry":{"coordinates":[-9.190891,38.71032],"type":"Point"},"properties":{"osm_id":"6872343154","tag":{"amenity":"recycling","recycling_type":"container"}},"type":"Feature"},
	{"geometry":{"coordinates":[-9.144426,38.733806],"type":"Point"},"properties":{"osm_id":"6923649570","tag":{"amenity":"waste_basket","waste":"trash"}},"type":"Feature"},
	{"geometry":{"coordinates":[-9.171152,38.710534],"type":"Point"},"properties":{"osm_id":"7085217177","tag":{"amenity":"recycling","recycling_type":"container"}},"type":"Feature"},
	{"geometry":{"coordinates":[-9.192447,38.744569],"type":"Point"},"properties":{"osm_id":"7170982806","tag":{"amenity":"recycling","recycling:clothes":"yes","recycling_type":"container"}},"type":"Feature"},
	{"geometry":{"coordinates":[-9.192464,38.744567],"type":"Point"},"properties":{"osm_id":"7170982807","tag":{"amenity":"recycling","recycling:glass":"yes","recycling:glass_bottles":"yes","recycling_type":"container"}},"type":"Feature"},
	{"geometry":{"coordinates":[-9.205933,38.742645],"type":"Point"},"properties":{"osm_id":"7171068579","tag":{"amenity":"recycling","recycling_type":"container"}},"type":"Feature"},
	{"geometry":{"coordinates":[-9.140753,38.712004],"type":"Point"},"properties":{"osm_id":"7184421467","tag":{"amenity":"waste_basket"}},"type":"Feature"},
	{"geometry":{"coordinates":[-9.210607,38.703281],"type":"Point"},"properties":{"osm_id":"7305674198","tag":{"amenity":"recycling","recycling_type":"container"}},"type":"Feature"},
	{"geometry":{"coordinates":[-9.196828,38.750361],"type":"Point"},"properties":{"osm_id":"7929331587","tag":{"amenity":"recycling","building":"yes","recycling:glass_bottles":"yes","recycling_type":"container"}},"type":"Feature"}
]
}
