{
"type": "FeatureCollection",
"features": [
	{"geometry":{"coordinates":[-96.636163,17.046468],"type":"Point"},"properties":{"name":"\u00c3\u0081rbol del Tule","osm_id":"353469160","tag":{"addr:city":"Santa Mar\u00c3\u00ada del Tule","addr:street":"Calle 2 de Abril","circumference":"155","denotation":"natural_monument","description":"Nombre com\u00c3\u00ban: Ahuehuete \u00c3\u00b3 Sabino. Edad m\u00c3\u00a1s de 2000 a\u00c3\u00b1os. Volumen: 816829 m3 . Peso: 636107 t.  \u00c3\u0081rea de copa: 1.403 m2 ,  Per\u00c3\u00admetro de copa: 142.5 m","diameter":"14050","diameter_crown":"58","genus":"Taxodium","height":"42","leaf_cycle":"evergreen","leaf_type":"needleleaved","natural":"tree","species":"Taxodium huegelii","species:es":"Ahuehuete","tourism":"attraction","wikidata":"Q252182","wikipedia":"es:\u00c3\u0081rbol del Tule"}},"type":"Feature"},
	{"geometry":{"coordinates":[-96.635959,17.046016],"type":"Point"},"properties":{"osm_id":"3260945765","tag":{"addr:city":"Santa Mar\u00c3\u00ada del Tule","addr:street":"Calle Centenario","denotation":"park","genus":"Taxodium","leaf_cycle":"evergreen","leaf_type":"needleleaved","natural":"tree","species":"Taxodium huegelii","species:es":"Ahuehuete"}},"type":"Feature"},
	{"geometry":{"coordinates":[-96.635911,17.046417],"type":"Point"},"properties":{"osm_id":"3260958466","tag":{"addr:city":"Santa Mar\u00c3\u00ada del Tule","addr:street":"Calle 2 de Abril","denotation":"park","genus":"Taxodium","leaf_cycle":"evergreen","leaf_type":"needleleaved","natural":"tree","species":"Taxodium huegelii","species:es":"Ahuehuete"}},"type":"Feature"},
	{"geometry":{"coordinates":[-96.636951,17.046536],"type":"Point"},"properties":{"osm_id":"3261001871","tag":{"addr:city":"Santa Mar\u00c3\u00ada del Tule","addr:street":"Calle \u00c3\u0081lvaro Obreg\u00c3\u00b3n","denotation":"park","leaf_cycle":"evergreen","natural":"tree"}},"type":"Feature"},
	{"geometry":{"coordinates":[-96.636199,17.045805],"type":"Point"},"properties":{"osm_id":"3261026763","tag":{"addr:city":"Santa Mar\u00c3\u00ada del Tule","addr:street":"Calle Aldama","denotation":"park","leaf_cycle":"evergreen","leaf_type":"palm","natural":"tree"}},"type":"Feature"},
	{"geometry":{"coordinates":[-96.636611,17.045875],"type":"Point"},"properties":{"osm_id":"3261026764","tag":{"natural":"tree"}},"type":"Feature"},
	{"geometry":{"coordinates":[-96.636657,17.045739],"type":"Point"},"properties":{"osm_id":"3261026861","tag":{"natural":"tree"}},"type":"Feature"},
	{"geometry":{"coordinates":[-96.636063,17.045752],"type":"Point"},"properties":{"osm_id":"3261026862","tag":{"addr:city":"Santa Mar\u00c3\u00ada del Tule","addr:street":"Calle Aldama","denotation":"park","leaf_cycle":"evergreen","leaf_type":"palm","natural":"tree"}},"type":"Feature"},
	{"geometry":{"coordinates":[-96.636362,17.045987],"type":"Point"},"properties":{"osm_id":"3261026863","tag":{"addr:city":"Santa Mar\u00c3\u00ada del Tule","addr:street":"Calle Aldama","denotation":"park","leaf_cycle":"evergreen","leaf_type":"palm","natural":"tree"}},"type":"Feature"},
	{"geometry":{"coordinates":[-96.636271,17.045836],"type":"Point"},"properties":{"osm_id":"3261026961","tag":{"addr:city":"Santa Mar\u00c3\u00ada del Tule","addr:street":"Calle Aldama","denotation":"park","leaf_cycle":"evergreen","leaf_type":"palm","natural":"tree"}},"type":"Feature"},
	{"geometry":{"coordinates":[-96.636384,17.045877],"type":"Point"},"properties":{"osm_id":"3261026962","tag":{"addr:city":"Santa Mar\u00c3\u00ada del Tule","addr:street":"Calle Aldama","denotation":"park","leaf_cycle":"evergreen","leaf_type":"palm","natural":"tree"}},"type":"Feature"},
	{"geometry":{"coordinates":[-96.636553,17.046059],"type":"Point"},"properties":{"osm_id":"3261027161","tag":{"addr:city":"Santa Mar\u00c3\u00ada del Tule","addr:street":"Calle Aldama","denotation":"park","leaf_cycle":"evergreen","leaf_type":"palm","natural":"tree"}},"type":"Feature"},
	{"geometry":{"coordinates":[-96.636646,17.046615],"type":"Point"},"properties":{"osm_id":"3261027162","tag":{"addr:city":"Santa Mar\u00c3\u00ada del Tule","addr:street":"Calle 2 de Abril","denotation":"park","leaf_cycle":"evergreen","leaf_type":"palm","natural":"tree"}},"type":"Feature"},
	{"geometry":{"coordinates":[-96.636725,17.046638],"type":"Point"},"properties":{"osm_id":"3261027163","tag":{"addr:city":"Santa Mar\u00c3\u00ada del Tule","addr:street":"Calle 2 de Abril","denotation":"park","leaf_cycle":"evergreen","leaf_type":"palm","natural":"tree"}},"type":"Feature"},
	{"geometry":{"coordinates":[-96.636687,17.046627],"type":"Point"},"properties":{"osm_id":"3261027361","tag":{"addr:city":"Santa Mar\u00c3\u00ada del Tule","addr:street":"Calle 2 de Abril","denotation":"park","leaf_cycle":"evergreen","leaf_type":"palm","natural":"tree"}},"type":"Feature"},
	{"geometry":{"coordinates":[-96.63577,17.045648],"type":"Point"},"properties":{"osm_id":"7531609593","tag":{"addr:city":"Santa Mar\u00c3\u00ada del Tule","addr:street":"Calle Aldama","denotation":"park","natural":"tree"}},"type":"Feature"},
	{"geometry":{"coordinates":[-96.636031,17.045865],"type":"Point"},"properties":{"osm_id":"7531609660","tag":{"addr:city":"Santa Mar\u00c3\u00ada del Tule","addr:street":"Calle Aldama","denotation":"park","leaf_cycle":"evergreen","leaf_type":"palm","natural":"tree"}},"type":"Feature"},
	{"geometry":{"coordinates":[-96.637099,17.046483],"type":"Point"},"properties":{"osm_id":"7531609661","tag":{"addr:city":"Santa Mar\u00c3\u00ada del Tule","addr:street":"Calle \u00c3\u0081lvaro Obreg\u00c3\u00b3n","denotation":"park","leaf_cycle":"evergreen","leaf_type":"palm","natural":"tree"}},"type":"Feature"},
	{"geometry":{"coordinates":[-96.637121,17.046429],"type":"Point"},"properties":{"osm_id":"7531609662","tag":{"addr:city":"Santa Mar\u00c3\u00ada del Tule","addr:street":"Calle \u00c3\u0081lvaro Obreg\u00c3\u00b3n","denotation":"park","leaf_cycle":"evergreen","leaf_type":"palm","natural":"tree"}},"type":"Feature"},
	{"geometry":{"coordinates":[-96.637138,17.046372],"type":"Point"},"properties":{"osm_id":"7531609663","tag":{"addr:city":"Santa Mar\u00c3\u00ada del Tule","addr:street":"Calle \u00c3\u0081lvaro Obreg\u00c3\u00b3n","denotation":"park","leaf_cycle":"evergreen","leaf_type":"palm","natural":"tree"}},"type":"Feature"},
	{"geometry":{"coordinates":[-96.637159,17.046002],"type":"Point"},"properties":{"osm_id":"7531609671","tag":{"addr:city":"Santa Mar\u00c3\u00ada del Tule","addr:street":"Calle \u00c3\u0081lvaro Obreg\u00c3\u00b3n","denotation":"park","leaf_cycle":"evergreen","leaf_type":"broadleaved","natural":"tree"}},"type":"Feature"},
	{"geometry":{"coordinates":[-96.637031,17.045845],"type":"Point"},"properties":{"osm_id":"7531609672","tag":{"addr:city":"Santa Mar\u00c3\u00ada del Tule","addr:street":"Calle \u00c3\u0081lvaro Obreg\u00c3\u00b3n","denotation":"park","leaf_cycle":"evergreen","natural":"tree"}},"type":"Feature"},
	{"geometry":{"coordinates":[-96.636903,17.045705],"type":"Point"},"properties":{"osm_id":"7531610797","tag":{"addr:city":"Santa Mar\u00c3\u00ada del Tule","addr:street":"Calle \u00c3\u0081lvaro Obreg\u00c3\u00b3n","denotation":"park","leaf_cycle":"evergreen","natural":"tree"}},"type":"Feature"},
	{"geometry":{"coordinates":[-96.636508,17.045623],"type":"Point"},"properties":{"osm_id":"7531610807","tag":{"addr:city":"Santa Mar\u00c3\u00ada del Tule","addr:street":"Calle \u00c3\u0081lvaro Obreg\u00c3\u00b3n","denotation":"park","leaf_cycle":"evergreen","natural":"tree"}},"type":"Feature"},
	{"geometry":{"coordinates":[-96.63722,17.045904],"type":"Point"},"properties":{"osm_id":"7531610808","tag":{"addr:city":"Santa Mar\u00c3\u00ada del Tule","addr:street":"Calle \u00c3\u0081lvaro Obreg\u00c3\u00b3n","denotation":"park","leaf_cycle":"evergreen","leaf_type":"broadleaved","natural":"tree"}},"type":"Feature"},
	{"geometry":{"coordinates":[-96.636953,17.046283],"type":"Point"},"properties":{"osm_id":"7531610843","tag":{"addr:city":"Santa Mar\u00c3\u00ada del Tule","addr:street":"Calle \u00c3\u0081lvaro Obreg\u00c3\u00b3n","denotation":"park","leaf_cycle":"evergreen","leaf_type":"palm","natural":"tree"}},"type":"Feature"},
	{"geometry":{"coordinates":[-96.636305,17.045501],"type":"Point"},"properties":{"osm_id":"7534085658","tag":{"addr:city":"Santa Mar\u00c3\u00ada del Tule","addr:street":"Calle \u00c3\u0081lvaro Obreg\u00c3\u00b3n","denotation":"park","leaf_cycle":"evergreen","natural":"tree"}},"type":"Feature"},
	{"geometry":{"coordinates":[-96.636767,17.045589],"type":"Point"},"properties":{"osm_id":"7535396653","tag":{"addr:city":"Santa Mar\u00c3\u00ada del Tule","addr:street":"Calle \u00c3\u0081lvaro Obreg\u00c3\u00b3n","denotation":"park","leaf_cycle":"evergreen","natural":"tree"}},"type":"Feature"},
	{"geometry":{"coordinates":[-96.636697,17.045564],"type":"Point"},"properties":{"osm_id":"7535396654","tag":{"addr:city":"Santa Mar\u00c3\u00ada del Tule","addr:street":"Calle \u00c3\u0081lvaro Obreg\u00c3\u00b3n","denotation":"park","leaf_cycle":"evergreen","natural":"tree"}},"type":"Feature"},
	{"geometry":{"coordinates":[-96.637295,17.045775],"type":"Point"},"properties":{"osm_id":"7535396663","tag":{"addr:city":"Santa Mar\u00c3\u00ada del Tule","addr:street":"Calle \u00c3\u0081lvaro Obreg\u00c3\u00b3n","denotation":"park","leaf_cycle":"evergreen","natural":"tree"}},"type":"Feature"},
	{"geometry":{"coordinates":[-96.637222,17.045744],"type":"Point"},"properties":{"osm_id":"7535396664","tag":{"addr:city":"Santa Mar\u00c3\u00ada del Tule","addr:street":"Calle \u00c3\u0081lvaro Obreg\u00c3\u00b3n","denotation":"park","leaf_cycle":"evergreen","natural":"tree"}},"type":"Feature"},
	{"geometry":{"coordinates":[-96.637346,17.045791],"type":"Point"},"properties":{"osm_id":"7535396665","tag":{"addr:city":"Santa Mar\u00c3\u00ada del Tule","addr:street":"Calle \u00c3\u0081lvaro Obreg\u00c3\u00b3n","denotation":"park","leaf_cycle":"evergreen","natural":"tree"}},"type":"Feature"},
	{"geometry":{"coordinates":[-96.637339,17.04626],"type":"Point"},"properties":{"osm_id":"7535402624","tag":{"addr:city":"Santa Mar\u00c3\u00ada del Tule","addr:street":"Carretera Crist\u00c3\u00b3bal Col\u00c3\u00b3n","denotation":"street","leaf_cycle":"evergreen","leaf_type":"broadleaved","natural":"tree"}},"type":"Feature"},
	{"geometry":{"coordinates":[-96.637405,17.04629],"type":"Point"},"properties":{"osm_id":"7535402625","tag":{"addr:city":"Santa Mar\u00c3\u00ada del Tule","addr:street":"Carretera Crist\u00c3\u00b3bal Col\u00c3\u00b3n","denotation":"street","leaf_cycle":"evergreen","leaf_type":"broadleaved","natural":"tree"}},"type":"Feature"},
	{"geometry":{"coordinates":[-96.637481,17.046336],"type":"Point"},"properties":{"osm_id":"7535402626","tag":{"addr:city":"Santa Mar\u00c3\u00ada del Tule","addr:street":"Carretera Crist\u00c3\u00b3bal Col\u00c3\u00b3n","denotation":"street","leaf_cycle":"evergreen","leaf_type":"broadleaved","natural":"tree"}},"type":"Feature"},
	{"geometry":{"coordinates":[-96.637563,17.04638],"type":"Point"},"properties":{"osm_id":"7535402627","tag":{"addr:city":"Santa Mar\u00c3\u00ada del Tule","addr:street":"Carretera Crist\u00c3\u00b3bal Col\u00c3\u00b3n","denotation":"street","leaf_cycle":"evergreen","leaf_type":"broadleaved","natural":"tree"}},"type":"Feature"},
	{"geometry":{"coordinates":[-96.63773,17.04647],"type":"Point"},"properties":{"osm_id":"7535402628","tag":{"addr:city":"Santa Mar\u00c3\u00ada del Tule","addr:street":"Carretera Crist\u00c3\u00b3bal Col\u00c3\u00b3n","denotation":"street","leaf_cycle":"evergreen","leaf_type":"broadleaved","natural":"tree"}},"type":"Feature"},
	{"geometry":{"coordinates":[-96.637811,17.046514],"type":"Point"},"properties":{"osm_id":"7535402629","tag":{"addr:city":"Santa Mar\u00c3\u00ada del Tule","addr:street":"Carretera Crist\u00c3\u00b3bal Col\u00c3\u00b3n","denotation":"street","leaf_cycle":"evergreen","leaf_type":"broadleaved","natural":"tree"}},"type":"Feature"},
	{"geometry":{"coordinates":[-96.637975,17.046604],"type":"Point"},"properties":{"osm_id":"7535402630","tag":{"addr:city":"Santa Mar\u00c3\u00ada del Tule","addr:street":"Carretera Crist\u00c3\u00b3bal Col\u00c3\u00b3n","denotation":"street","leaf_cycle":"evergreen","leaf_type":"broadleaved","natural":"tree"}},"type":"Feature"},
	{"geometry":{"coordinates":[-96.637888,17.046565],"type":"Point"},"properties":{"osm_id":"7535402631","tag":{"addr:city":"Santa Mar\u00c3\u00ada del Tule","addr:street":"Carretera Crist\u00c3\u00b3bal Col\u00c3\u00b3n","denotation":"street","leaf_cycle":"evergreen","leaf_type":"broadleaved","natural":"tree"}},"type":"Feature"},
	{"geometry":{"coordinates":[-96.638056,17.046657],"type":"Point"},"properties":{"osm_id":"7535402632","tag":{"addr:city":"Santa Mar\u00c3\u00ada del Tule","addr:street":"Carretera Crist\u00c3\u00b3bal Col\u00c3\u00b3n","denotation":"street","leaf_cycle":"evergreen","leaf_type":"broadleaved","natural":"tree"}},"type":"Feature"},
	{"geometry":{"coordinates":[-96.638139,17.046702],"type":"Point"},"properties":{"osm_id":"7535402633","tag":{"addr:city":"Santa Mar\u00c3\u00ada del Tule","addr:street":"Carretera Crist\u00c3\u00b3bal Col\u00c3\u00b3n","denotation":"street","leaf_cycle":"evergreen","leaf_type":"broadleaved","natural":"tree"}},"type":"Feature"},
	{"geometry":{"coordinates":[-96.637411,17.046429],"type":"Point"},"properties":{"osm_id":"7535703527","tag":{"addr:city":"Santa Mar\u00c3\u00ada del Tule","addr:street":"Carretera Crist\u00c3\u00b3bal Col\u00c3\u00b3n","denotation":"street","leaf_cycle":"evergreen","leaf_type":"broadleaved","natural":"tree"}},"type":"Feature"},
	{"geometry":{"coordinates":[-96.637454,17.046454],"type":"Point"},"properties":{"osm_id":"7535703528","tag":{"addr:city":"Santa Mar\u00c3\u00ada del Tule","addr:street":"Carretera Crist\u00c3\u00b3bal Col\u00c3\u00b3n","denotation":"street","leaf_cycle":"evergreen","leaf_type":"broadleaved","natural":"tree"}},"type":"Feature"},
	{"geometry":{"coordinates":[-96.6375,17.046479],"type":"Point"},"properties":{"osm_id":"7535703529","tag":{"addr:city":"Santa Mar\u00c3\u00ada del Tule","addr:street":"Carretera Crist\u00c3\u00b3bal Col\u00c3\u00b3n","denotation":"street","leaf_cycle":"evergreen","leaf_type":"broadleaved","natural":"tree"}},"type":"Feature"},
	{"geometry":{"coordinates":[-96.637541,17.046501],"type":"Point"},"properties":{"osm_id":"7535703530","tag":{"addr:city":"Santa Mar\u00c3\u00ada del Tule","addr:street":"Carretera Crist\u00c3\u00b3bal Col\u00c3\u00b3n","denotation":"street","leaf_cycle":"evergreen","leaf_type":"broadleaved","natural":"tree"}},"type":"Feature"},
	{"geometry":{"coordinates":[-96.637576,17.046522],"type":"Point"},"properties":{"osm_id":"7535703531","tag":{"addr:city":"Santa Mar\u00c3\u00ada del Tule","addr:street":"Carretera Crist\u00c3\u00b3bal Col\u00c3\u00b3n","denotation":"street","leaf_cycle":"evergreen","leaf_type":"broadleaved","natural":"tree"}},"type":"Feature"},
	{"geometry":{"coordinates":[-96.637787,17.046665],"type":"Point"},"properties":{"osm_id":"7535703540","tag":{"addr:city":"Santa Mar\u00c3\u00ada del Tule","addr:street":"Carretera Crist\u00c3\u00b3bal Col\u00c3\u00b3n","denotation":"street","leaf_cycle":"evergreen","leaf_type":"broadleaved","natural":"tree"}},"type":"Feature"},
	{"geometry":{"coordinates":[-96.637932,17.046888],"type":"Point"},"properties":{"osm_id":"7535703541","tag":{"addr:city":"Santa Mar\u00c3\u00ada del Tule","addr:street":"Carretera Crist\u00c3\u00b3bal Col\u00c3\u00b3n","denotation":"garden","leaf_cycle":"evergreen","leaf_type":"broadleaved","natural":"tree"}},"type":"Feature"},
	{"geometry":{"coordinates":[-96.637867,17.046986],"type":"Point"},"properties":{"osm_id":"7535703542","tag":{"addr:city":"Santa Mar\u00c3\u00ada del Tule","addr:street":"Carretera Crist\u00c3\u00b3bal Col\u00c3\u00b3n","denotation":"garden","leaf_cycle":"evergreen","leaf_type":"broadleaved","natural":"tree"}},"type":"Feature"},
	{"geometry":{"coordinates":[-96.637912,17.047038],"type":"Point"},"properties":{"osm_id":"7535703543","tag":{"addr:city":"Santa Mar\u00c3\u00ada del Tule","addr:street":"Carretera Crist\u00c3\u00b3bal Col\u00c3\u00b3n","denotation":"garden","leaf_cycle":"evergreen","leaf_type":"broadleaved","natural":"tree"}},"type":"Feature"},
	{"geometry":{"coordinates":[-96.637763,17.046986],"type":"Point"},"properties":{"osm_id":"7535703544","tag":{"addr:city":"Santa Mar\u00c3\u00ada del Tule","addr:street":"Carretera Crist\u00c3\u00b3bal Col\u00c3\u00b3n","denotation":"garden","leaf_cycle":"evergreen","leaf_type":"broadleaved","natural":"tree"}},"type":"Feature"},
	{"geometry":{"coordinates":[-96.637871,17.046676],"type":"Point"},"properties":{"osm_id":"7535703565","tag":{"addr:city":"Santa Mar\u00c3\u00ada del Tule","addr:street":"Carretera Crist\u00c3\u00b3bal Col\u00c3\u00b3n","denotation":"street","leaf_cycle":"evergreen","leaf_type":"broadleaved","natural":"tree"}},"type":"Feature"},
	{"geometry":{"coordinates":[-96.637997,17.046751],"type":"Point"},"properties":{"osm_id":"7535703566","tag":{"addr:city":"Santa Mar\u00c3\u00ada del Tule","addr:street":"Carretera Crist\u00c3\u00b3bal Col\u00c3\u00b3n","denotation":"street","leaf_cycle":"evergreen","leaf_type":"broadleaved","natural":"tree"}},"type":"Feature"},
	{"geometry":{"coordinates":[-96.638074,17.046788],"type":"Point"},"properties":{"osm_id":"7535703567","tag":{"addr:city":"Santa Mar\u00c3\u00ada del Tule","addr:street":"Carretera Crist\u00c3\u00b3bal Col\u00c3\u00b3n","denotation":"street","leaf_cycle":"evergreen","leaf_type":"broadleaved","natural":"tree"}},"type":"Feature"},
	{"geometry":{"coordinates":[-96.63812,17.046816],"type":"Point"},"properties":{"osm_id":"7535703568","tag":{"addr:city":"Santa Mar\u00c3\u00ada del Tule","addr:street":"Carretera Crist\u00c3\u00b3bal Col\u00c3\u00b3n","denotation":"street","leaf_cycle":"evergreen","leaf_type":"broadleaved","natural":"tree"}},"type":"Feature"},
	{"geometry":{"coordinates":[-96.638526,17.046919],"type":"Point"},"properties":{"osm_id":"7535703569","tag":{"addr:city":"Santa Mar\u00c3\u00ada del Tule","addr:street":"Carretera Crist\u00c3\u00b3bal Col\u00c3\u00b3n","denotation":"street","leaf_cycle":"evergreen","leaf_type":"broadleaved","natural":"tree"}},"type":"Feature"},
	{"geometry":{"coordinates":[-96.638468,17.046886],"type":"Point"},"properties":{"osm_id":"7535703570","tag":{"addr:city":"Santa Mar\u00c3\u00ada del Tule","addr:street":"Carretera Crist\u00c3\u00b3bal Col\u00c3\u00b3n","denotation":"street","leaf_cycle":"evergreen","leaf_type":"broadleaved","natural":"tree"}},"type":"Feature"},
	{"geometry":{"coordinates":[-96.638409,17.046851],"type":"Point"},"properties":{"osm_id":"7535703571","tag":{"addr:city":"Santa Mar\u00c3\u00ada del Tule","addr:street":"Carretera Crist\u00c3\u00b3bal Col\u00c3\u00b3n","denotation":"street","leaf_cycle":"evergreen","leaf_type":"broadleaved","natural":"tree"}},"type":"Feature"},
	{"geometry":{"coordinates":[-96.638355,17.04682],"type":"Point"},"properties":{"osm_id":"7535703572","tag":{"addr:city":"Santa Mar\u00c3\u00ada del Tule","addr:street":"Carretera Crist\u00c3\u00b3bal Col\u00c3\u00b3n","denotation":"street","leaf_cycle":"evergreen","leaf_type":"broadleaved","natural":"tree"}},"type":"Feature"},
	{"geometry":{"coordinates":[-96.638295,17.046789],"type":"Point"},"properties":{"osm_id":"7535703573","tag":{"addr:city":"Santa Mar\u00c3\u00ada del Tule","addr:street":"Carretera Crist\u00c3\u00b3bal Col\u00c3\u00b3n","denotation":"street","leaf_cycle":"evergreen","leaf_type":"broadleaved","natural":"tree"}},"type":"Feature"},
	{"geometry":{"coordinates":[-96.638235,17.046755],"type":"Point"},"properties":{"osm_id":"7535703574","tag":{"addr:city":"Santa Mar\u00c3\u00ada del Tule","addr:street":"Carretera Crist\u00c3\u00b3bal Col\u00c3\u00b3n","denotation":"street","leaf_cycle":"evergreen","leaf_type":"broadleaved","natural":"tree"}},"type":"Feature"},
	{"geometry":{"coordinates":[-96.638161,17.046836],"type":"Point"},"properties":{"osm_id":"7535703580","tag":{"addr:city":"Santa Mar\u00c3\u00ada del Tule","addr:street":"Carretera Crist\u00c3\u00b3bal Col\u00c3\u00b3n","denotation":"street","leaf_cycle":"evergreen","leaf_type":"broadleaved","natural":"tree"}},"type":"Feature"},
	{"geometry":{"coordinates":[-96.638192,17.046857],"type":"Point"},"properties":{"osm_id":"7535703581","tag":{"addr:city":"Santa Mar\u00c3\u00ada del Tule","addr:street":"Carretera Crist\u00c3\u00b3bal Col\u00c3\u00b3n","denotation":"street","leaf_cycle":"evergreen","leaf_type":"broadleaved","natural":"tree"}},"type":"Feature"},
	{"geometry":{"coordinates":[-96.638228,17.046876],"type":"Point"},"properties":{"osm_id":"7535703582","tag":{"addr:city":"Santa Mar\u00c3\u00ada del Tule","addr:street":"Carretera Crist\u00c3\u00b3bal Col\u00c3\u00b3n","denotation":"street","leaf_cycle":"evergreen","leaf_type":"broadleaved","natural":"tree"}},"type":"Feature"},
	{"geometry":{"coordinates":[-96.638266,17.0469],"type":"Point"},"properties":{"osm_id":"7535703583","tag":{"addr:city":"Santa Mar\u00c3\u00ada del Tule","addr:street":"Carretera Crist\u00c3\u00b3bal Col\u00c3\u00b3n","denotation":"street","leaf_cycle":"evergreen","leaf_type":"broadleaved","natural":"tree"}},"type":"Feature"},
	{"geometry":{"coordinates":[-96.638293,17.04692],"type":"Point"},"properties":{"osm_id":"7535703584","tag":{"addr:city":"Santa Mar\u00c3\u00ada del Tule","addr:street":"Carretera Crist\u00c3\u00b3bal Col\u00c3\u00b3n","denotation":"street","leaf_cycle":"evergreen","leaf_type":"broadleaved","natural":"tree"}},"type":"Feature"},
	{"geometry":{"coordinates":[-96.638336,17.046941],"type":"Point"},"properties":{"osm_id":"7535729985","tag":{"addr:city":"Santa Mar\u00c3\u00ada del Tule","addr:street":"Carretera Crist\u00c3\u00b3bal Col\u00c3\u00b3n","denotation":"street","leaf_cycle":"evergreen","leaf_type":"broadleaved","natural":"tree"}},"type":"Feature"},
	{"geometry":{"coordinates":[-96.638372,17.046963],"type":"Point"},"properties":{"osm_id":"7535729986","tag":{"addr:city":"Santa Mar\u00c3\u00ada del Tule","addr:street":"Carretera Crist\u00c3\u00b3bal Col\u00c3\u00b3n","denotation":"street","leaf_cycle":"evergreen","leaf_type":"broadleaved","natural":"tree"}},"type":"Feature"},
	{"geometry":{"coordinates":[-96.638411,17.046983],"type":"Point"},"properties":{"osm_id":"7535729987","tag":{"addr:city":"Santa Mar\u00c3\u00ada del Tule","addr:street":"Carretera Crist\u00c3\u00b3bal Col\u00c3\u00b3n","denotation":"street","leaf_cycle":"evergreen","leaf_type":"broadleaved","natural":"tree"}},"type":"Feature"},
	{"geometry":{"coordinates":[-96.638555,17.047064],"type":"Point"},"properties":{"osm_id":"7535729988","tag":{"addr:city":"Santa Mar\u00c3\u00ada del Tule","addr:street":"Carretera Crist\u00c3\u00b3bal Col\u00c3\u00b3n","denotation":"street","leaf_cycle":"evergreen","leaf_type":"broadleaved","natural":"tree"}},"type":"Feature"},
	{"geometry":{"coordinates":[-96.63852,17.047045],"type":"Point"},"properties":{"osm_id":"7535729989","tag":{"addr:city":"Santa Mar\u00c3\u00ada del Tule","addr:street":"Carretera Crist\u00c3\u00b3bal Col\u00c3\u00b3n","denotation":"street","leaf_cycle":"evergreen","leaf_type":"broadleaved","natural":"tree"}},"type":"Feature"},
	{"geometry":{"coordinates":[-96.638482,17.047022],"type":"Point"},"properties":{"osm_id":"7535729990","tag":{"addr:city":"Santa Mar\u00c3\u00ada del Tule","addr:street":"Carretera Crist\u00c3\u00b3bal Col\u00c3\u00b3n","denotation":"street","leaf_cycle":"evergreen","leaf_type":"broadleaved","natural":"tree"}},"type":"Feature"},
	{"geometry":{"coordinates":[-96.638441,17.047005],"type":"Point"},"properties":{"osm_id":"7535729991","tag":{"addr:city":"Santa Mar\u00c3\u00ada del Tule","addr:street":"Carretera Crist\u00c3\u00b3bal Col\u00c3\u00b3n","denotation":"street","leaf_cycle":"evergreen","leaf_type":"broadleaved","natural":"tree"}},"type":"Feature"},
	{"geometry":{"coordinates":[-96.638498,17.047009],"type":"Point"},"properties":{"osm_id":"7535729992","tag":{"addr:city":"Santa Mar\u00c3\u00ada del Tule","addr:street":"Carretera Crist\u00c3\u00b3bal Col\u00c3\u00b3n","denotation":"street","leaf_cycle":"evergreen","leaf_type":"broadleaved","natural":"tree"}},"type":"Feature"},
	{"geometry":{"coordinates":[-96.638432,17.046976],"type":"Point"},"properties":{"osm_id":"7535729993","tag":{"addr:city":"Santa Mar\u00c3\u00ada del Tule","addr:street":"Carretera Crist\u00c3\u00b3bal Col\u00c3\u00b3n","denotation":"street","leaf_cycle":"evergreen","leaf_type":"broadleaved","natural":"tree"}},"type":"Feature"},
	{"geometry":{"coordinates":[-96.63837,17.046941],"type":"Point"},"properties":{"osm_id":"7535729994","tag":{"addr:city":"Santa Mar\u00c3\u00ada del Tule","addr:street":"Carretera Crist\u00c3\u00b3bal Col\u00c3\u00b3n","denotation":"street","leaf_cycle":"evergreen","leaf_type":"broadleaved","natural":"tree"}},"type":"Feature"},
	{"geometry":{"coordinates":[-96.638306,17.046905],"type":"Point"},"properties":{"osm_id":"7535729995","tag":{"addr:city":"Santa Mar\u00c3\u00ada del Tule","addr:street":"Carretera Crist\u00c3\u00b3bal Col\u00c3\u00b3n","denotation":"street","leaf_cycle":"evergreen","leaf_type":"broadleaved","natural":"tree"}},"type":"Feature"},
	{"geometry":{"coordinates":[-96.638249,17.046869],"type":"Point"},"properties":{"osm_id":"7535729996","tag":{"addr:city":"Santa Mar\u00c3\u00ada del Tule","addr:street":"Carretera Crist\u00c3\u00b3bal Col\u00c3\u00b3n","denotation":"street","leaf_cycle":"evergreen","leaf_type":"broadleaved","natural":"tree"}},"type":"Feature"},
	{"geometry":{"coordinates":[-96.63902,17.047461],"type":"Point"},"properties":{"osm_id":"7535951595","tag":{"addr:city":"Santa Mar\u00c3\u00ada del Tule","addr:street":"Calle de la Cruz","denotation":"street","genus":"Araucaria","leaf_cycle":"evergreen","leaf_type":"needleleaved","natural":"tree","species":"Araucaria heterophylla","species:es":"Araucaria Excelsa"}},"type":"Feature"},
	{"geometry":{"coordinates":[-96.638871,17.047417],"type":"Point"},"properties":{"osm_id":"7535951598","tag":{"addr:city":"Santa Mar\u00c3\u00ada del Tule","addr:street":"Calle de la Cruz","denotation":"street","genus":"Araucaria","leaf_cycle":"evergreen","leaf_type":"needleleaved","natural":"tree","species":"Araucaria heterophylla","species:es":"Araucaria Excelsa"}},"type":"Feature"}
]
}
