{
"type": "FeatureCollection",
"features": [
	{"geometry":{"coordinates":[37.854113,56.057653],"type":"Point"},"properties":{"osm_id":"621437923","tag":{"amenity":"waste_disposal","waste":"trash"}},"type":"Feature"},
	{"geometry":{"coordinates":[37.857739,56.05328],"type":"Point"},"properties":{"osm_id":"621437927","tag":{"amenity":"waste_disposal","waste":"trash"}},"type":"Feature"},
	{"geometry":{"coordinates":[37.854085,56.054364],"type":"Point"},"properties":{"osm_id":"626358188","tag":{"amenity":"waste_disposal","waste":"trash"}},"type":"Feature"},
	{"geometry":{"coordinates":[37.859102,56.055502],"type":"Point"},"properties":{"osm_id":"626358189","tag":{"amenity":"waste_disposal","waste":"trash"}},"type":"Feature"},
	{"geometry":{"coordinates":[37.850431,56.05585],"type":"Point"},"properties":{"osm_id":"626358375","tag":{"amenity":"waste_disposal","waste":"trash"}},"type":"Feature"},
	{"geometry":{"coordinates":[37.853559,56.039585],"type":"Point"},"properties":{"osm_id":"1169761079","tag":{"amenity":"waste_disposal","waste":"trash"}},"type":"Feature"},
	{"geometry":{"coordinates":[37.868351,56.065139],"type":"Point"},"properties":{"osm_id":"1272234538","tag":{"amenity":"waste_disposal","waste":"trash"}},"type":"Feature"},
	{"geometry":{"coordinates":[37.864275,56.032597],"type":"Point"},"properties":{"osm_id":"1848095409","tag":{"amenity":"waste_disposal","waste":"trash"}},"type":"Feature"},
	{"geometry":{"coordinates":[37.854583,56.037753],"type":"Point"},"properties":{"osm_id":"1848095410","tag":{"amenity":"waste_disposal","waste":"trash"}},"type":"Feature"},
	{"geometry":{"coordinates":[37.824426,56.06553],"type":"Point"},"properties":{"osm_id":"1848095412","tag":{"amenity":"waste_disposal","waste":"trash"}},"type":"Feature"},
	{"geometry":{"coordinates":[37.827814,56.049434],"type":"Point"},"properties":{"osm_id":"1860683393","tag":{"amenity":"waste_disposal","waste":"trash"}},"type":"Feature"},
	{"geometry":{"coordinates":[37.866732,56.06179],"type":"Point"},"properties":{"osm_id":"2357213273","tag":{"amenity":"waste_disposal","waste":"trash"}},"type":"Feature"},
	{"geometry":{"coordinates":[37.870264,56.067053],"type":"Point"},"properties":{"osm_id":"2357213279","tag":{"amenity":"waste_disposal","waste":"trash"}},"type":"Feature"},
	{"geometry":{"coordinates":[37.872472,56.068631],"type":"Point"},"properties":{"osm_id":"2357213282","tag":{"amenity":"waste_disposal","waste":"trash"}},"type":"Feature"},
	{"geometry":{"coordinates":[37.871788,56.07075],"type":"Point"},"properties":{"osm_id":"2357213286","tag":{"amenity":"waste_disposal","waste":"trash"}},"type":"Feature"},
	{"geometry":{"coordinates":[37.834772,56.036963],"type":"Point"},"properties":{"osm_id":"2388387195","tag":{"amenity":"waste_disposal","waste":"trash"}},"type":"Feature"},
	{"geometry":{"coordinates":[37.868407,56.067551],"type":"Point"},"properties":{"osm_id":"2388387216","tag":{"amenity":"waste_disposal","waste":"trash"}},"type":"Feature"},
	{"geometry":{"coordinates":[37.805243,56.064365],"type":"Point"},"properties":{"osm_id":"2650167843","tag":{"amenity":"waste_disposal"}},"type":"Feature"},
	{"geometry":{"coordinates":[37.868028,56.070331],"type":"Point"},"properties":{"osm_id":"2889819280","tag":{"amenity":"waste_disposal"}},"type":"Feature"},
	{"geometry":{"coordinates":[37.863771,56.065808],"type":"Point"},"properties":{"osm_id":"4266925393","tag":{"amenity":"waste_disposal"}},"type":"Feature"},
	{"geometry":{"coordinates":[37.850293,56.06605],"type":"Point"},"properties":{"osm_id":"4277844190","tag":{"amenity":"waste_disposal","operator":"\u00d1\u0081\u00d0\u00bd\u00d1\u0082 \u00d0\u009f\u00d0\u00a0\u00d0\u0090\u00d0\u0092\u00d0\u0094\u00d0\u0090"}},"type":"Feature"},
	{"geometry":{"coordinates":[37.853976,56.039167],"type":"Point"},"properties":{"osm_id":"4285490691","tag":{"amenity":"waste_basket"}},"type":"Feature"},
	{"geometry":{"coordinates":[37.853325,56.025011],"type":"Point"},"properties":{"osm_id":"5062518730","tag":{"amenity":"waste_disposal","waste":"trash"}},"type":"Feature"},
	{"geometry":{"coordinates":[37.854103,56.027539],"type":"Point"},"properties":{"osm_id":"5062518731","tag":{"amenity":"waste_disposal","waste":"trash"}},"type":"Feature"},
	{"geometry":{"coordinates":[37.822531,56.027024],"type":"Point"},"properties":{"osm_id":"5615050821","tag":{"access":"private","amenity":"waste_disposal"}},"type":"Feature"},
	{"geometry":{"coordinates":[37.847938,56.04503],"type":"Point"},"properties":{"osm_id":"6278533905","tag":{"amenity":"waste_disposal"}},"type":"Feature"}
]
}
