{
"type": "FeatureCollection",
"features": [
	{"geometry":{"coordinates":[37.818463,55.976818],"type":"Point"},"properties":{"osm_id":"1072544798","tag":{"amenity":"waste_disposal","waste":"trash"}},"type":"Feature"},
	{"geometry":{"coordinates":[37.818343,55.978012],"type":"Point"},"properties":{"osm_id":"1516298653","tag":{"amenity":"waste_disposal","waste":"trash"}},"type":"Feature"},
	{"geometry":{"coordinates":[37.819835,55.979148],"type":"Point"},"properties":{"osm_id":"1542044368","tag":{"amenity":"waste_disposal","waste":"trash"}},"type":"Feature"},
	{"geometry":{"coordinates":[37.835349,56.011598],"type":"Point"},"properties":{"osm_id":"1721826485","tag":{"amenity":"waste_disposal","waste":"trash"}},"type":"Feature"},
	{"geometry":{"coordinates":[37.837055,56.010622],"type":"Point"},"properties":{"osm_id":"1721847779","tag":{"amenity":"waste_disposal","waste":"trash"}},"type":"Feature"},
	{"geometry":{"coordinates":[37.821178,56.009618],"type":"Point"},"properties":{"osm_id":"1734930294","tag":{"amenity":"waste_disposal","waste":"trash"}},"type":"Feature"},
	{"geometry":{"coordinates":[37.827193,56.011763],"type":"Point"},"properties":{"osm_id":"1734930347","tag":{"amenity":"waste_disposal","waste":"trash"}},"type":"Feature"},
	{"geometry":{"coordinates":[37.835497,56.013163],"type":"Point"},"properties":{"osm_id":"1738116362","tag":{"amenity":"waste_disposal","waste":"trash"}},"type":"Feature"},
	{"geometry":{"coordinates":[37.835108,56.007952],"type":"Point"},"properties":{"osm_id":"1739217194","tag":{"amenity":"waste_disposal","waste":"trash"}},"type":"Feature"},
	{"geometry":{"coordinates":[37.82478,56.010958],"type":"Point"},"properties":{"osm_id":"1739217247","tag":{"amenity":"waste_disposal","waste":"trash"}},"type":"Feature"},
	{"geometry":{"coordinates":[37.827815,56.007927],"type":"Point"},"properties":{"osm_id":"1745875186","tag":{"amenity":"waste_disposal","waste":"trash"}},"type":"Feature"},
	{"geometry":{"coordinates":[37.839806,56.019858],"type":"Point"},"properties":{"osm_id":"1751397164","tag":{"amenity":"waste_disposal","waste":"trash"}},"type":"Feature"},
	{"geometry":{"coordinates":[37.826256,56.010758],"type":"Point"},"properties":{"osm_id":"1766221392","tag":{"amenity":"waste_basket"}},"type":"Feature"},
	{"geometry":{"coordinates":[37.82619,56.010781],"type":"Point"},"properties":{"osm_id":"1766221397","tag":{"amenity":"waste_basket"}},"type":"Feature"},
	{"geometry":{"coordinates":[37.848204,56.016082],"type":"Point"},"properties":{"osm_id":"1936487245","tag":{"amenity":"waste_disposal"}},"type":"Feature"},
	{"geometry":{"coordinates":[37.849782,56.017019],"type":"Point"},"properties":{"osm_id":"1936487282","tag":{"amenity":"waste_disposal"}},"type":"Feature"},
	{"geometry":{"coordinates":[37.858687,56.020143],"type":"Point"},"properties":{"osm_id":"1936487295","tag":{"amenity":"waste_disposal"}},"type":"Feature"},
	{"geometry":{"coordinates":[37.843676,56.010091],"type":"Point"},"properties":{"osm_id":"1946130152","tag":{"amenity":"waste_disposal"}},"type":"Feature"},
	{"geometry":{"coordinates":[37.83671,56.014143],"type":"Point"},"properties":{"osm_id":"1946130218","tag":{"amenity":"waste_disposal"}},"type":"Feature"},
	{"geometry":{"coordinates":[37.849709,55.998519],"type":"Point"},"properties":{"barrier":"gate","osm_id":"1958599042"},"type":"Feature"},
	{"geometry":{"coordinates":[37.83247,56.00411],"type":"Point"},"properties":{"osm_id":"1963069332","tag":{"amenity":"waste_disposal","waste":"trash"}},"type":"Feature"},
	{"geometry":{"coordinates":[37.836356,56.007783],"type":"Point"},"properties":{"osm_id":"2045809710","tag":{"amenity":"recycling","recycling:scrap_metal":"yes","recycling_type":"centre"}},"type":"Feature"},
	{"geometry":{"coordinates":[37.831157,56.013664],"type":"Point"},"properties":{"osm_id":"2064871275","tag":{"amenity":"waste_disposal"}},"type":"Feature"},
	{"geometry":{"coordinates":[37.867009,56.016586],"type":"Point"},"properties":{"osm_id":"2099820083","tag":{"amenity":"waste_disposal"}},"type":"Feature"},
	{"geometry":{"coordinates":[37.821389,55.996137],"type":"Point"},"properties":{"osm_id":"2181443490","tag":{"amenity":"waste_disposal"}},"type":"Feature"},
	{"geometry":{"coordinates":[37.813665,55.999058],"type":"Point"},"properties":{"osm_id":"2181443597","tag":{"amenity":"waste_disposal"}},"type":"Feature"},
	{"geometry":{"coordinates":[37.803885,56.005836],"type":"Point"},"properties":{"osm_id":"2183702453","tag":{"amenity":"waste_disposal"}},"type":"Feature"},
	{"geometry":{"coordinates":[37.831943,56.008302],"type":"Point"},"properties":{"osm_id":"2339553042","tag":{"amenity":"waste_disposal","waste":"trash"}},"type":"Feature"},
	{"geometry":{"coordinates":[37.807623,56.006346],"type":"Point"},"properties":{"osm_id":"2346960373","tag":{"amenity":"waste_disposal"}},"type":"Feature"},
	{"geometry":{"coordinates":[37.818715,56.006936],"type":"Point"},"properties":{"osm_id":"2349265162","tag":{"amenity":"waste_disposal"}},"type":"Feature"},
	{"geometry":{"coordinates":[37.805047,55.994017],"type":"Point"},"properties":{"osm_id":"2358426072","tag":{"amenity":"waste_disposal","waste":"trash"}},"type":"Feature"},
	{"geometry":{"coordinates":[37.832987,56.002272],"type":"Point"},"properties":{"osm_id":"2365513596","tag":{"amenity":"recycling","recycling:scrap_metal":"yes","recycling_type":"centre"}},"type":"Feature"},
	{"geometry":{"coordinates":[37.814397,56.011516],"type":"Point"},"properties":{"osm_id":"2389284096","tag":{"amenity":"waste_disposal","waste":"trash"}},"type":"Feature"},
	{"geometry":{"coordinates":[37.859826,56.003422],"type":"Point"},"properties":{"osm_id":"2450855965","tag":{"amenity":"waste_disposal","waste":"trash"}},"type":"Feature"},
	{"geometry":{"coordinates":[37.862364,56.004218],"type":"Point"},"properties":{"osm_id":"2450855972","tag":{"amenity":"waste_disposal","waste":"trash"}},"type":"Feature"},
	{"geometry":{"coordinates":[37.845933,56.003365],"type":"Point"},"properties":{"osm_id":"2464039932","tag":{"amenity":"waste_disposal"}},"type":"Feature"},
	{"geometry":{"coordinates":[37.85019,56.011754],"type":"Point"},"properties":{"osm_id":"2517573425","tag":{"amenity":"waste_disposal"}},"type":"Feature"},
	{"geometry":{"coordinates":[37.856104,56.002002],"type":"Point"},"properties":{"osm_id":"2632337034","tag":{"amenity":"waste_disposal","waste":"trash"}},"type":"Feature"},
	{"geometry":{"coordinates":[37.878498,55.985321],"type":"Point"},"properties":{"osm_id":"2643379233","tag":{"amenity":"recycling"}},"type":"Feature"},
	{"geometry":{"coordinates":[37.804792,55.998373],"type":"Point"},"properties":{"osm_id":"2866277396","tag":{"amenity":"waste_disposal"}},"type":"Feature"},
	{"geometry":{"coordinates":[37.854624,56.017249],"type":"Point"},"properties":{"osm_id":"3024186826","tag":{"amenity":"waste_disposal"}},"type":"Feature"},
	{"geometry":{"coordinates":[37.821261,55.996235],"type":"Point"},"properties":{"osm_id":"3075074970","tag":{"amenity":"waste_disposal"}},"type":"Feature"},
	{"geometry":{"coordinates":[37.807289,56.000018],"type":"Point"},"properties":{"osm_id":"3075074972","tag":{"amenity":"waste_disposal"}},"type":"Feature"},
	{"geometry":{"coordinates":[37.824238,56.012935],"type":"Point"},"properties":{"osm_id":"3131211116","tag":{"amenity":"waste_basket"}},"type":"Feature"},
	{"geometry":{"coordinates":[37.801024,55.990252],"type":"Point"},"properties":{"osm_id":"3679173941","tag":{"amenity":"waste_disposal","mapillary":"dGf44FBiugGT9hUen3PJwF"}},"type":"Feature"},
	{"geometry":{"coordinates":[37.861516,56.021031],"type":"Point"},"properties":{"osm_id":"5062517711","tag":{"amenity":"waste_disposal","waste":"trash"}},"type":"Feature"},
	{"geometry":{"coordinates":[37.84742,56.018901],"type":"Point"},"properties":{"osm_id":"5062545001","tag":{"amenity":"waste_disposal","waste":"trash"}},"type":"Feature"},
	{"geometry":{"coordinates":[37.852982,56.002219],"type":"Point"},"properties":{"osm_id":"5590235021","tag":{"amenity":"waste_disposal"}},"type":"Feature"},
	{"geometry":{"coordinates":[37.857589,55.99565],"type":"Point"},"properties":{"osm_id":"5976405022","tag":{"amenity":"recycling","recycling:accumulator":"yes","recycling:scrap_metal":"yes","recycling_type":"centre"}},"type":"Feature"},
	{"geometry":{"coordinates":[37.852941,55.988473],"type":"Point"},"properties":{"osm_id":"5987815852","tag":{"amenity":"waste_disposal"}},"type":"Feature"},
	{"geometry":{"coordinates":[37.866096,55.994294],"type":"Point"},"properties":{"osm_id":"6019778728","tag":{"amenity":"waste_disposal"}},"type":"Feature"},
	{"geometry":{"coordinates":[37.843327,56.012039],"type":"Point"},"properties":{"osm_id":"6070008212","tag":{"amenity":"waste_disposal"}},"type":"Feature"},
	{"geometry":{"coordinates":[37.863157,55.994624],"type":"Point"},"properties":{"osm_id":"6158619501","tag":{"amenity":"waste_disposal"}},"type":"Feature"},
	{"geometry":{"coordinates":[37.845597,56.01787],"type":"Point"},"properties":{"osm_id":"6173152467","tag":{"amenity":"waste_disposal"}},"type":"Feature"},
	{"geometry":{"coordinates":[37.826816,55.975537],"type":"Point"},"properties":{"osm_id":"6374343432","tag":{"access":"yes","amenity":"waste_disposal","mapillary":"XPNIX3I2HBZyQpGmk1sXbJ"}},"type":"Feature"},
	{"geometry":{"coordinates":[37.817568,55.975477],"type":"Point"},"properties":{"osm_id":"6374343433","tag":{"amenity":"waste_disposal"}},"type":"Feature"},
	{"geometry":{"coordinates":[37.819893,55.979205],"type":"Point"},"properties":{"osm_id":"6374343434","tag":{"amenity":"waste_disposal"}},"type":"Feature"},
	{"geometry":{"coordinates":[37.832411,55.978735],"type":"Point"},"properties":{"osm_id":"7755632259","tag":{"amenity":"waste_disposal","mapillary":"zFhHzaqPrNgxCnfzqhQXCi"}},"type":"Feature"},
	{"geometry":{"coordinates":[37.83901,55.983791],"type":"Point"},"properties":{"osm_id":"7809218854","tag":{"amenity":"waste_disposal","mapillary":"jwV1V6ai2WOuONhb5x8mJq"}},"type":"Feature"},
	{"geometry":{"coordinates":[37.839434,55.979475],"type":"Point"},"properties":{"osm_id":"7843176709","tag":{"amenity":"waste_disposal","mapillary":"lK0zZMBpKqOrFzQ0aHUPTX"}},"type":"Feature"},
	{"geometry":{"coordinates":[37.83271,55.993694],"type":"Point"},"properties":{"osm_id":"7917877265","tag":{"amenity":"waste_disposal"}},"type":"Feature"},
	{"geometry":{"coordinates":[37.828092,55.985939],"type":"Point"},"properties":{"osm_id":"7921302288","tag":{"amenity":"waste_disposal"}},"type":"Feature"},
	{"geometry":{"coordinates":[37.820821,55.980748],"type":"Point"},"properties":{"osm_id":"7921302336","tag":{"amenity":"waste_disposal"}},"type":"Feature"}
]
}
