{
"type": "FeatureCollection",
"features": [
	{"geometry":{"coordinates":[37.835901,55.879521],"type":"Point"},"properties":{"osm_id":"801296206","tag":{"amenity":"waste_basket"}},"type":"Feature"},
	{"geometry":{"coordinates":[37.809748,55.923075],"type":"Point"},"properties":{"osm_id":"885288379","tag":{"amenity":"recycling","location":"overground","recycling_type":"container"}},"type":"Feature"},
	{"geometry":{"coordinates":[37.868307,55.907632],"type":"Point"},"properties":{"osm_id":"1768781194","tag":{"amenity":"waste_disposal"}},"type":"Feature"},
	{"geometry":{"coordinates":[37.867978,55.908255],"type":"Point"},"properties":{"osm_id":"1768781215","tag":{"amenity":"waste_disposal"}},"type":"Feature"},
	{"geometry":{"coordinates":[37.868619,55.908953],"type":"Point"},"properties":{"osm_id":"1805038459","tag":{"amenity":"waste_disposal"}},"type":"Feature"},
	{"geometry":{"coordinates":[37.872467,55.908526],"type":"Point"},"properties":{"osm_id":"1805118272","tag":{"amenity":"waste_disposal"}},"type":"Feature"},
	{"geometry":{"coordinates":[37.868769,55.910234],"type":"Point"},"properties":{"osm_id":"1805118323","tag":{"amenity":"waste_disposal"}},"type":"Feature"},
	{"geometry":{"coordinates":[37.870592,55.913335],"type":"Point"},"properties":{"osm_id":"1805118496","tag":{"amenity":"waste_disposal"}},"type":"Feature"},
	{"geometry":{"coordinates":[37.869533,55.913624],"type":"Point"},"properties":{"osm_id":"1805118566","tag":{"amenity":"waste_disposal"}},"type":"Feature"},
	{"geometry":{"coordinates":[37.869918,55.914485],"type":"Point"},"properties":{"osm_id":"1805156965","tag":{"amenity":"waste_disposal"}},"type":"Feature"},
	{"geometry":{"coordinates":[37.868534,55.914825],"type":"Point"},"properties":{"osm_id":"1805156977","tag":{"amenity":"waste_disposal"}},"type":"Feature"},
	{"geometry":{"coordinates":[37.869488,55.911547],"type":"Point"},"properties":{"osm_id":"1806184936","tag":{"amenity":"waste_disposal"}},"type":"Feature"},
	{"geometry":{"coordinates":[37.870567,55.911677],"type":"Point"},"properties":{"osm_id":"1806184953","tag":{"amenity":"waste_disposal"}},"type":"Feature"},
	{"geometry":{"coordinates":[37.864511,55.91194],"type":"Point"},"properties":{"osm_id":"1806184968","tag":{"amenity":"waste_disposal"}},"type":"Feature"},
	{"geometry":{"coordinates":[37.869487,55.912255],"type":"Point"},"properties":{"osm_id":"1806184995","tag":{"amenity":"waste_disposal"}},"type":"Feature"},
	{"geometry":{"coordinates":[37.867085,55.907054],"type":"Point"},"properties":{"osm_id":"1884990002","tag":{"amenity":"waste_disposal"}},"type":"Feature"},
	{"geometry":{"coordinates":[37.845385,55.915417],"type":"Point"},"properties":{"osm_id":"2856107189","tag":{"amenity":"recycling","recycling:batteries":"yes","recycling:fluorescent_tubes":"yes","recycling_type":"container"}},"type":"Feature"},
	{"geometry":{"coordinates":[37.846533,55.917976],"type":"Point"},"properties":{"osm_id":"2875342777","tag":{"amenity":"recycling","location":"overground","recycling_type":"container"}},"type":"Feature"},
	{"geometry":{"coordinates":[37.847535,55.920697],"type":"Point"},"properties":{"osm_id":"2875352482","tag":{"amenity":"recycling","location":"overground","recycling_type":"container"}},"type":"Feature"},
	{"geometry":{"coordinates":[37.8135,55.915134],"type":"Point"},"properties":{"osm_id":"2876085655","tag":{"amenity":"recycling","location":"overground","recycling_type":"container"}},"type":"Feature"},
	{"geometry":{"coordinates":[37.799321,55.91508],"type":"Point"},"properties":{"osm_id":"5304710223","tag":{"amenity":"waste_disposal"}},"type":"Feature"},
	{"geometry":{"coordinates":[37.820666,55.914627],"type":"Point"},"properties":{"osm_id":"5740926521","tag":{"amenity":"waste_disposal"}},"type":"Feature"},
	{"geometry":{"coordinates":[37.818373,55.918497],"type":"Point"},"properties":{"osm_id":"6578283995","tag":{"amenity":"recycling","recycling:paper":"yes","recycling:plastic":"yes","recycling_type":"container"}},"type":"Feature"},
	{"geometry":{"coordinates":[37.815436,55.918739],"type":"Point"},"properties":{"osm_id":"6578283997","tag":{"amenity":"recycling","recycling:paper":"yes","recycling:plastic":"yes","recycling_type":"container"}},"type":"Feature"},
	{"geometry":{"coordinates":[37.814491,55.91875],"type":"Point"},"properties":{"osm_id":"6578284000","tag":{"amenity":"recycling","recycling:paper":"yes","recycling:plastic":"yes","recycling_type":"container"}},"type":"Feature"},
	{"geometry":{"coordinates":[37.878669,55.921045],"type":"Point"},"properties":{"osm_id":"6593066250","tag":{"amenity":"waste_disposal"}},"type":"Feature"},
	{"geometry":{"coordinates":[37.811394,55.921138],"type":"Point"},"properties":{"osm_id":"7140048360","tag":{"amenity":"waste_disposal"}},"type":"Feature"},
	{"geometry":{"coordinates":[37.828785,55.909732],"type":"Point"},"properties":{"osm_id":"7394517366","tag":{"amenity":"waste_disposal"}},"type":"Feature"},
	{"geometry":{"coordinates":[37.828877,55.909722],"type":"Point"},"properties":{"osm_id":"7394529079","tag":{"amenity":"recycling","recycling:plastic":"yes","recycling_type":"container"}},"type":"Feature"},
	{"geometry":{"coordinates":[37.862662,55.904587],"type":"Point"},"properties":{"osm_id":"7864263163","tag":{"amenity":"waste_disposal"}},"type":"Feature"},
	{"geometry":{"coordinates":[37.860123,55.903468],"type":"Point"},"properties":{"osm_id":"7865572372","tag":{"amenity":"waste_disposal"}},"type":"Feature"},
	{"geometry":{"coordinates":[37.822919,55.911137],"type":"Point"},"properties":{"osm_id":"7923971295","tag":{"amenity":"waste_disposal"}},"type":"Feature"}
]
}
