{
"type": "FeatureCollection",
"features": [
	{"geometry":{"coordinates":[37.833624,55.751374],"type":"Point"},"properties":{"osm_id":"661063146","tag":{"amenity":"waste_disposal"}},"type":"Feature"},
	{"geometry":{"coordinates":[37.832341,55.750596],"type":"Point"},"properties":{"osm_id":"687488302","tag":{"amenity":"waste_disposal"}},"type":"Feature"},
	{"geometry":{"coordinates":[37.822183,55.749679],"type":"Point"},"properties":{"osm_id":"687509296","tag":{"amenity":"waste_disposal"}},"type":"Feature"},
	{"geometry":{"coordinates":[37.819727,55.747443],"type":"Point"},"properties":{"osm_id":"687514889","tag":{"amenity":"waste_disposal"}},"type":"Feature"},
	{"geometry":{"coordinates":[37.818802,55.747012],"type":"Point"},"properties":{"osm_id":"687514890","tag":{"amenity":"waste_disposal"}},"type":"Feature"},
	{"geometry":{"coordinates":[37.819092,55.748817],"type":"Point"},"properties":{"osm_id":"695471036","tag":{"amenity":"waste_disposal"}},"type":"Feature"},
	{"geometry":{"coordinates":[37.81925,55.734316],"type":"Point"},"properties":{"osm_id":"705506040","tag":{"amenity":"waste_disposal"}},"type":"Feature"},
	{"geometry":{"coordinates":[37.824416,55.734231],"type":"Point"},"properties":{"osm_id":"705506042","tag":{"amenity":"waste_disposal"}},"type":"Feature"},
	{"geometry":{"coordinates":[37.832619,55.737649],"type":"Point"},"properties":{"osm_id":"706479950","tag":{"amenity":"waste_disposal"}},"type":"Feature"},
	{"geometry":{"coordinates":[37.830581,55.743754],"type":"Point"},"properties":{"osm_id":"716702960","tag":{"amenity":"waste_disposal"}},"type":"Feature"},
	{"geometry":{"coordinates":[37.812442,55.740101],"type":"Point"},"properties":{"osm_id":"724153957","tag":{"amenity":"recycling"}},"type":"Feature"},
	{"geometry":{"coordinates":[37.822536,55.748527],"type":"Point"},"properties":{"osm_id":"725155541","tag":{"amenity":"waste_disposal"}},"type":"Feature"},
	{"geometry":{"coordinates":[37.815509,55.73741],"type":"Point"},"properties":{"osm_id":"868458136","tag":{"amenity":"waste_disposal"}},"type":"Feature"},
	{"geometry":{"coordinates":[37.833368,55.75549],"type":"Point"},"properties":{"osm_id":"873652142","tag":{"amenity":"waste_disposal"}},"type":"Feature"},
	{"geometry":{"coordinates":[37.812227,55.733955],"type":"Point"},"properties":{"osm_id":"899209024","tag":{"amenity":"waste_disposal"}},"type":"Feature"},
	{"geometry":{"coordinates":[37.851744,55.737109],"type":"Point"},"properties":{"osm_id":"1082531285","tag":{"amenity":"waste_disposal"}},"type":"Feature"},
	{"geometry":{"coordinates":[37.822924,55.752826],"type":"Point"},"properties":{"osm_id":"1103503421","tag":{"amenity":"waste_disposal"}},"type":"Feature"},
	{"geometry":{"coordinates":[37.854056,55.742069],"type":"Point"},"properties":{"osm_id":"1110479586","tag":{"amenity":"waste_disposal"}},"type":"Feature"},
	{"geometry":{"coordinates":[37.876302,55.745854],"type":"Point"},"properties":{"osm_id":"1139678178","tag":{"amenity":"waste_disposal"}},"type":"Feature"},
	{"geometry":{"coordinates":[37.853501,55.736743],"type":"Point"},"properties":{"osm_id":"1144002109","tag":{"amenity":"waste_disposal"}},"type":"Feature"},
	{"geometry":{"coordinates":[37.830846,55.755104],"type":"Point"},"properties":{"osm_id":"1199945359","tag":{"amenity":"waste_disposal"}},"type":"Feature"},
	{"geometry":{"coordinates":[37.825039,55.752039],"type":"Point"},"properties":{"osm_id":"1281870341","tag":{"amenity":"waste_disposal"}},"type":"Feature"},
	{"geometry":{"coordinates":[37.827634,55.754065],"type":"Point"},"properties":{"osm_id":"1302995756","tag":{"amenity":"waste_basket"}},"type":"Feature"},
	{"geometry":{"coordinates":[37.819754,55.759384],"type":"Point"},"properties":{"osm_id":"1303156947","tag":{"amenity":"waste_disposal"}},"type":"Feature"},
	{"geometry":{"coordinates":[37.824108,55.738352],"type":"Point"},"properties":{"osm_id":"1360078051","tag":{"amenity":"waste_disposal"}},"type":"Feature"},
	{"geometry":{"coordinates":[37.82936,55.737176],"type":"Point"},"properties":{"osm_id":"1363031369","tag":{"amenity":"waste_disposal"}},"type":"Feature"},
	{"geometry":{"coordinates":[37.829224,55.7376],"type":"Point"},"properties":{"osm_id":"1363032666","tag":{"amenity":"waste_disposal"}},"type":"Feature"},
	{"geometry":{"coordinates":[37.83619,55.743549],"type":"Point"},"properties":{"barrier":"gate","osm_id":"1408202555"},"type":"Feature"},
	{"geometry":{"coordinates":[37.833307,55.752516],"type":"Point"},"properties":{"osm_id":"1428069789","tag":{"amenity":"waste_disposal"}},"type":"Feature"},
	{"geometry":{"coordinates":[37.857422,55.754187],"type":"Point"},"properties":{"osm_id":"1664724735","tag":{"amenity":"waste_disposal"}},"type":"Feature"},
	{"geometry":{"coordinates":[37.834128,55.754925],"type":"Point"},"properties":{"osm_id":"1728240676","tag":{"amenity":"waste_disposal"}},"type":"Feature"},
	{"geometry":{"coordinates":[37.833743,55.755096],"type":"Point"},"properties":{"osm_id":"1728240689","tag":{"amenity":"waste_disposal"}},"type":"Feature"},
	{"geometry":{"coordinates":[37.83699,55.754538],"type":"Point"},"properties":{"osm_id":"1729215208","tag":{"amenity":"waste_disposal"}},"type":"Feature"},
	{"geometry":{"coordinates":[37.832541,55.755046],"type":"Point"},"properties":{"osm_id":"1729215281","tag":{"amenity":"waste_basket"}},"type":"Feature"},
	{"geometry":{"coordinates":[37.832893,55.755137],"type":"Point"},"properties":{"osm_id":"1729215293","tag":{"amenity":"waste_basket"}},"type":"Feature"},
	{"geometry":{"coordinates":[37.831038,55.751701],"type":"Point"},"properties":{"osm_id":"1732708234","tag":{"amenity":"waste_disposal"}},"type":"Feature"},
	{"geometry":{"coordinates":[37.83324,55.753106],"type":"Point"},"properties":{"osm_id":"1732708257","tag":{"amenity":"waste_disposal"}},"type":"Feature"},
	{"geometry":{"coordinates":[37.835164,55.755031],"type":"Point"},"properties":{"osm_id":"1732708285","tag":{"amenity":"waste_disposal"}},"type":"Feature"},
	{"geometry":{"coordinates":[37.835897,55.755052],"type":"Point"},"properties":{"osm_id":"1732708286","tag":{"amenity":"waste_disposal"}},"type":"Feature"},
	{"geometry":{"coordinates":[37.834098,55.756484],"type":"Point"},"properties":{"osm_id":"1732708401","tag":{"amenity":"waste_disposal"}},"type":"Feature"},
	{"geometry":{"coordinates":[37.836286,55.756681],"type":"Point"},"properties":{"osm_id":"1732708433","tag":{"amenity":"waste_disposal"}},"type":"Feature"},
	{"geometry":{"coordinates":[37.835417,55.756706],"type":"Point"},"properties":{"osm_id":"1732708441","tag":{"amenity":"waste_disposal"}},"type":"Feature"},
	{"geometry":{"coordinates":[37.834103,55.756725],"type":"Point"},"properties":{"osm_id":"1732708444","tag":{"amenity":"waste_disposal"}},"type":"Feature"},
	{"geometry":{"coordinates":[37.854894,55.75462],"type":"Point"},"properties":{"osm_id":"1762619061","tag":{"amenity":"waste_disposal"}},"type":"Feature"},
	{"geometry":{"coordinates":[37.79867,55.733864],"type":"Point"},"properties":{"osm_id":"1820024233","tag":{"amenity":"waste_basket"}},"type":"Feature"},
	{"geometry":{"coordinates":[37.819179,55.750735],"type":"Point"},"properties":{"osm_id":"1979059013","tag":{"amenity":"waste_disposal"}},"type":"Feature"},
	{"geometry":{"coordinates":[37.818683,55.751197],"type":"Point"},"properties":{"osm_id":"1979061480","tag":{"amenity":"waste_basket"}},"type":"Feature"},
	{"geometry":{"coordinates":[37.818059,55.75126],"type":"Point"},"properties":{"osm_id":"1979062156","tag":{"amenity":"waste_basket"}},"type":"Feature"},
	{"geometry":{"coordinates":[37.818899,55.751593],"type":"Point"},"properties":{"osm_id":"1979063129","tag":{"amenity":"waste_basket"}},"type":"Feature"},
	{"geometry":{"coordinates":[37.818231,55.751661],"type":"Point"},"properties":{"osm_id":"1979063739","tag":{"amenity":"waste_basket"}},"type":"Feature"},
	{"geometry":{"coordinates":[37.819198,55.752393],"type":"Point"},"properties":{"osm_id":"1979066447","tag":{"amenity":"waste_basket"}},"type":"Feature"},
	{"geometry":{"coordinates":[37.819246,55.752452],"type":"Point"},"properties":{"osm_id":"1979066997","tag":{"amenity":"waste_basket"}},"type":"Feature"},
	{"geometry":{"coordinates":[37.817183,55.750267],"type":"Point"},"properties":{"osm_id":"2180792997","tag":{"amenity":"waste_basket"}},"type":"Feature"},
	{"geometry":{"coordinates":[37.81702,55.750274],"type":"Point"},"properties":{"osm_id":"2180792999","tag":{"amenity":"waste_basket"}},"type":"Feature"},
	{"geometry":{"coordinates":[37.817311,55.75037],"type":"Point"},"properties":{"osm_id":"2180793003","tag":{"amenity":"waste_basket"}},"type":"Feature"},
	{"geometry":{"coordinates":[37.817157,55.750386],"type":"Point"},"properties":{"osm_id":"2180793005","tag":{"amenity":"waste_basket"}},"type":"Feature"},
	{"geometry":{"coordinates":[37.818065,55.748023],"type":"Point"},"properties":{"osm_id":"2188527758","tag":{"amenity":"waste_basket"}},"type":"Feature"},
	{"geometry":{"coordinates":[37.819589,55.751093],"type":"Point"},"properties":{"osm_id":"2188632636","tag":{"amenity":"waste_basket"}},"type":"Feature"},
	{"geometry":{"coordinates":[37.817496,55.747929],"type":"Point"},"properties":{"osm_id":"2188728381","tag":{"amenity":"waste_basket"}},"type":"Feature"},
	{"geometry":{"coordinates":[37.817597,55.748089],"type":"Point"},"properties":{"osm_id":"2188728383","tag":{"amenity":"waste_basket"}},"type":"Feature"},
	{"geometry":{"coordinates":[37.818132,55.747737],"type":"Point"},"properties":{"osm_id":"2191354840","tag":{"amenity":"waste_basket"}},"type":"Feature"},
	{"geometry":{"coordinates":[37.818385,55.74811],"type":"Point"},"properties":{"osm_id":"2191354853","tag":{"amenity":"waste_basket"}},"type":"Feature"},
	{"geometry":{"coordinates":[37.818153,55.748142],"type":"Point"},"properties":{"osm_id":"2191354854","tag":{"amenity":"waste_basket"}},"type":"Feature"},
	{"geometry":{"coordinates":[37.817798,55.747345],"type":"Point"},"properties":{"osm_id":"2191408048","tag":{"amenity":"waste_basket"}},"type":"Feature"},
	{"geometry":{"coordinates":[37.817799,55.747354],"type":"Point"},"properties":{"osm_id":"2191408073","tag":{"amenity":"waste_basket"}},"type":"Feature"},
	{"geometry":{"coordinates":[37.817033,55.750155],"type":"Point"},"properties":{"osm_id":"2191422666","tag":{"amenity":"waste_basket"}},"type":"Feature"},
	{"geometry":{"coordinates":[37.849476,55.763237],"type":"Point"},"properties":{"osm_id":"2214719786","tag":{"amenity":"waste_disposal"}},"type":"Feature"},
	{"geometry":{"coordinates":[37.852865,55.752606],"type":"Point"},"properties":{"osm_id":"2214741186","tag":{"amenity":"waste_disposal"}},"type":"Feature"},
	{"geometry":{"coordinates":[37.854944,55.757899],"type":"Point"},"properties":{"osm_id":"2215562914","tag":{"amenity":"waste_disposal"}},"type":"Feature"},
	{"geometry":{"coordinates":[37.847233,55.752017],"type":"Point"},"properties":{"osm_id":"2216245141","tag":{"amenity":"waste_disposal"}},"type":"Feature"},
	{"geometry":{"coordinates":[37.847066,55.752681],"type":"Point"},"properties":{"osm_id":"2216245142","tag":{"amenity":"waste_disposal"}},"type":"Feature"},
	{"geometry":{"coordinates":[37.846862,55.75359],"type":"Point"},"properties":{"osm_id":"2216245716","tag":{"amenity":"waste_disposal"}},"type":"Feature"},
	{"geometry":{"coordinates":[37.846712,55.754284],"type":"Point"},"properties":{"osm_id":"2216246681","tag":{"amenity":"waste_disposal"}},"type":"Feature"},
	{"geometry":{"coordinates":[37.846594,55.755151],"type":"Point"},"properties":{"osm_id":"2216247424","tag":{"amenity":"waste_disposal"}},"type":"Feature"},
	{"geometry":{"coordinates":[37.85043,55.763943],"type":"Point"},"properties":{"osm_id":"2216252344","tag":{"amenity":"waste_disposal"}},"type":"Feature"},
	{"geometry":{"coordinates":[37.847833,55.771315],"type":"Point"},"properties":{"osm_id":"2216279579","tag":{"amenity":"waste_disposal"}},"type":"Feature"},
	{"geometry":{"coordinates":[37.846761,55.770712],"type":"Point"},"properties":{"osm_id":"2216281200","tag":{"amenity":"waste_disposal"}},"type":"Feature"},
	{"geometry":{"coordinates":[37.857459,55.767153],"type":"Point"},"properties":{"osm_id":"2229343893","tag":{"amenity":"waste_disposal"}},"type":"Feature"},
	{"geometry":{"coordinates":[37.860586,55.767804],"type":"Point"},"properties":{"osm_id":"2229356769","tag":{"amenity":"waste_disposal"}},"type":"Feature"},
	{"geometry":{"coordinates":[37.862257,55.767734],"type":"Point"},"properties":{"osm_id":"2229356886","tag":{"amenity":"waste_disposal"}},"type":"Feature"},
	{"geometry":{"coordinates":[37.86251,55.767882],"type":"Point"},"properties":{"osm_id":"2229357224","tag":{"amenity":"waste_disposal"}},"type":"Feature"},
	{"geometry":{"coordinates":[37.864156,55.76828],"type":"Point"},"properties":{"osm_id":"2229359071","tag":{"amenity":"waste_disposal"}},"type":"Feature"},
	{"geometry":{"coordinates":[37.848955,55.761237],"type":"Point"},"properties":{"osm_id":"2232036551","tag":{"amenity":"waste_disposal"}},"type":"Feature"},
	{"geometry":{"coordinates":[37.85836,55.757727],"type":"Point"},"properties":{"osm_id":"2263089939","tag":{"amenity":"waste_disposal"}},"type":"Feature"},
	{"geometry":{"coordinates":[37.865191,55.764162],"type":"Point"},"properties":{"osm_id":"2263099764","tag":{"amenity":"waste_disposal"}},"type":"Feature"},
	{"geometry":{"coordinates":[37.850444,55.751278],"type":"Point"},"properties":{"osm_id":"2297962406","tag":{"amenity":"waste_disposal"}},"type":"Feature"},
	{"geometry":{"coordinates":[37.856001,55.756149],"type":"Point"},"properties":{"osm_id":"2298216847","tag":{"amenity":"waste_disposal"}},"type":"Feature"},
	{"geometry":{"coordinates":[37.857776,55.761372],"type":"Point"},"properties":{"osm_id":"2301536524","tag":{"amenity":"waste_disposal"}},"type":"Feature"},
	{"geometry":{"coordinates":[37.861883,55.760995],"type":"Point"},"properties":{"osm_id":"2301547660","tag":{"amenity":"waste_disposal"}},"type":"Feature"},
	{"geometry":{"coordinates":[37.854459,55.760768],"type":"Point"},"properties":{"osm_id":"2302795729","tag":{"amenity":"waste_disposal"}},"type":"Feature"},
	{"geometry":{"coordinates":[37.855049,55.76171],"type":"Point"},"properties":{"osm_id":"2302796601","tag":{"amenity":"waste_disposal"}},"type":"Feature"},
	{"geometry":{"coordinates":[37.861026,55.765398],"type":"Point"},"properties":{"osm_id":"2302807243","tag":{"amenity":"waste_disposal"}},"type":"Feature"},
	{"geometry":{"coordinates":[37.863246,55.766687],"type":"Point"},"properties":{"osm_id":"2302811520","tag":{"amenity":"waste_disposal"}},"type":"Feature"},
	{"geometry":{"coordinates":[37.863536,55.770731],"type":"Point"},"properties":{"osm_id":"2302814139","tag":{"amenity":"waste_disposal"}},"type":"Feature"},
	{"geometry":{"coordinates":[37.857351,55.758537],"type":"Point"},"properties":{"osm_id":"2304061832","tag":{"amenity":"waste_disposal"}},"type":"Feature"},
	{"geometry":{"coordinates":[37.861117,55.761356],"type":"Point"},"properties":{"osm_id":"2304064533","tag":{"amenity":"waste_disposal"}},"type":"Feature"},
	{"geometry":{"coordinates":[37.857979,55.749356],"type":"Point"},"properties":{"osm_id":"2305358670","tag":{"amenity":"waste_disposal"}},"type":"Feature"},
	{"geometry":{"coordinates":[37.853813,55.753172],"type":"Point"},"properties":{"osm_id":"2308842410","tag":{"amenity":"waste_disposal"}},"type":"Feature"},
	{"geometry":{"coordinates":[37.854543,55.753308],"type":"Point"},"properties":{"osm_id":"2308842414","tag":{"amenity":"waste_disposal"}},"type":"Feature"},
	{"geometry":{"coordinates":[37.858545,55.75714],"type":"Point"},"properties":{"osm_id":"2308850439","tag":{"amenity":"waste_disposal"}},"type":"Feature"},
	{"geometry":{"coordinates":[37.851713,55.752598],"type":"Point"},"properties":{"osm_id":"2314915707","tag":{"amenity":"waste_disposal"}},"type":"Feature"},
	{"geometry":{"coordinates":[37.853189,55.76584],"type":"Point"},"properties":{"osm_id":"2314956874","tag":{"amenity":"waste_disposal"}},"type":"Feature"},
	{"geometry":{"coordinates":[37.852399,55.772031],"type":"Point"},"properties":{"osm_id":"2314959778","tag":{"amenity":"waste_disposal"}},"type":"Feature"},
	{"geometry":{"coordinates":[37.848556,55.767634],"type":"Point"},"properties":{"osm_id":"2314975338","tag":{"amenity":"waste_disposal"}},"type":"Feature"},
	{"geometry":{"coordinates":[37.859002,55.766594],"type":"Point"},"properties":{"osm_id":"2318750945","tag":{"amenity":"waste_disposal"}},"type":"Feature"},
	{"geometry":{"coordinates":[37.864076,55.765346],"type":"Point"},"properties":{"osm_id":"2318758245","tag":{"amenity":"waste_disposal"}},"type":"Feature"},
	{"geometry":{"coordinates":[37.866818,55.763612],"type":"Point"},"properties":{"osm_id":"2318768909","tag":{"amenity":"waste_disposal"}},"type":"Feature"},
	{"geometry":{"coordinates":[37.868175,55.761761],"type":"Point"},"properties":{"osm_id":"2318769543","tag":{"amenity":"waste_disposal"}},"type":"Feature"},
	{"geometry":{"coordinates":[37.851357,55.764187],"type":"Point"},"properties":{"osm_id":"2318827925","tag":{"amenity":"waste_disposal"}},"type":"Feature"},
	{"geometry":{"coordinates":[37.853053,55.759385],"type":"Point"},"properties":{"osm_id":"2326047248","tag":{"amenity":"waste_disposal"}},"type":"Feature"},
	{"geometry":{"coordinates":[37.852465,55.747754],"type":"Point"},"properties":{"osm_id":"2329718248","tag":{"amenity":"waste_disposal"}},"type":"Feature"},
	{"geometry":{"coordinates":[37.849575,55.74799],"type":"Point"},"properties":{"osm_id":"2329737747","tag":{"amenity":"waste_disposal"}},"type":"Feature"},
	{"geometry":{"coordinates":[37.863833,55.760844],"type":"Point"},"properties":{"osm_id":"2332185333","tag":{"amenity":"waste_disposal"}},"type":"Feature"},
	{"geometry":{"coordinates":[37.8672,55.763069],"type":"Point"},"properties":{"osm_id":"2332229815","tag":{"amenity":"waste_disposal"}},"type":"Feature"},
	{"geometry":{"coordinates":[37.860937,55.762498],"type":"Point"},"properties":{"osm_id":"2332284270","tag":{"amenity":"waste_disposal"}},"type":"Feature"},
	{"geometry":{"coordinates":[37.871652,55.744751],"type":"Point"},"properties":{"osm_id":"2389492965","tag":{"amenity":"waste_disposal"}},"type":"Feature"},
	{"geometry":{"coordinates":[37.867433,55.743962],"type":"Point"},"properties":{"osm_id":"2389493036","tag":{"amenity":"waste_disposal"}},"type":"Feature"},
	{"geometry":{"coordinates":[37.856363,55.764138],"type":"Point"},"properties":{"osm_id":"2422153301","tag":{"amenity":"waste_disposal"}},"type":"Feature"},
	{"geometry":{"coordinates":[37.856467,55.768287],"type":"Point"},"properties":{"osm_id":"2422162318","tag":{"amenity":"waste_disposal"}},"type":"Feature"},
	{"geometry":{"coordinates":[37.861612,55.771907],"type":"Point"},"properties":{"osm_id":"2422169313","tag":{"amenity":"waste_disposal"}},"type":"Feature"},
	{"geometry":{"coordinates":[37.861049,55.770201],"type":"Point"},"properties":{"osm_id":"2422181043","tag":{"amenity":"waste_disposal"}},"type":"Feature"},
	{"geometry":{"coordinates":[37.860928,55.770469],"type":"Point"},"properties":{"osm_id":"2422183471","tag":{"amenity":"waste_disposal"}},"type":"Feature"},
	{"geometry":{"coordinates":[37.860346,55.769669],"type":"Point"},"properties":{"osm_id":"2422185348","tag":{"amenity":"waste_disposal"}},"type":"Feature"},
	{"geometry":{"coordinates":[37.859533,55.769012],"type":"Point"},"properties":{"osm_id":"2422185769","tag":{"amenity":"waste_disposal"}},"type":"Feature"},
	{"geometry":{"coordinates":[37.85949,55.767851],"type":"Point"},"properties":{"osm_id":"2422189481","tag":{"amenity":"waste_disposal"}},"type":"Feature"},
	{"geometry":{"coordinates":[37.859112,55.762123],"type":"Point"},"properties":{"osm_id":"2424542174","tag":{"amenity":"waste_disposal"}},"type":"Feature"},
	{"geometry":{"coordinates":[37.82617,55.751413],"type":"Point"},"properties":{"osm_id":"2497871682","tag":{"amenity":"waste_disposal"}},"type":"Feature"},
	{"geometry":{"coordinates":[37.866739,55.759858],"type":"Point"},"properties":{"osm_id":"2514243000","tag":{"amenity":"waste_disposal"}},"type":"Feature"},
	{"geometry":{"coordinates":[37.859893,55.746421],"type":"Point"},"properties":{"osm_id":"2515356147","tag":{"amenity":"waste_disposal"}},"type":"Feature"},
	{"geometry":{"coordinates":[37.855741,55.748903],"type":"Point"},"properties":{"osm_id":"2515397666","tag":{"amenity":"waste_disposal"}},"type":"Feature"},
	{"geometry":{"coordinates":[37.860697,55.748393],"type":"Point"},"properties":{"osm_id":"2522732173","tag":{"amenity":"waste_disposal"}},"type":"Feature"},
	{"geometry":{"coordinates":[37.818697,55.74687],"type":"Point"},"properties":{"osm_id":"2523747970","tag":{"amenity":"waste_disposal"}},"type":"Feature"},
	{"geometry":{"coordinates":[37.820773,55.749607],"type":"Point"},"properties":{"osm_id":"2523751444","tag":{"amenity":"waste_disposal"}},"type":"Feature"},
	{"geometry":{"coordinates":[37.839173,55.762516],"type":"Point"},"properties":{"osm_id":"2523753603","tag":{"amenity":"waste_disposal"}},"type":"Feature"},
	{"geometry":{"coordinates":[37.863881,55.761686],"type":"Point"},"properties":{"osm_id":"2560337000","tag":{"amenity":"waste_disposal"}},"type":"Feature"},
	{"geometry":{"coordinates":[37.818854,55.750863],"type":"Point"},"properties":{"osm_id":"2594363297","tag":{"amenity":"waste_basket"}},"type":"Feature"},
	{"geometry":{"coordinates":[37.817959,55.747974],"type":"Point"},"properties":{"osm_id":"2594504869","tag":{"amenity":"waste_basket"}},"type":"Feature"},
	{"geometry":{"coordinates":[37.819514,55.752293],"type":"Point"},"properties":{"osm_id":"2594504959","tag":{"amenity":"waste_basket"}},"type":"Feature"},
	{"geometry":{"coordinates":[37.874071,55.74831],"type":"Point"},"properties":{"osm_id":"2608336735","tag":{"amenity":"waste_disposal"}},"type":"Feature"},
	{"geometry":{"coordinates":[37.874186,55.750302],"type":"Point"},"properties":{"osm_id":"2608339327","tag":{"amenity":"waste_disposal"}},"type":"Feature"},
	{"geometry":{"coordinates":[37.846935,55.769509],"type":"Point"},"properties":{"osm_id":"2608398355","tag":{"amenity":"waste_disposal"}},"type":"Feature"},
	{"geometry":{"coordinates":[37.851827,55.772154],"type":"Point"},"properties":{"osm_id":"2608410106","tag":{"amenity":"waste_disposal"}},"type":"Feature"},
	{"geometry":{"coordinates":[37.875803,55.741135],"type":"Point"},"properties":{"osm_id":"2643360557","tag":{"amenity":"waste_disposal"}},"type":"Feature"},
	{"geometry":{"coordinates":[37.835016,55.727691],"type":"Point"},"properties":{"osm_id":"2647773987","tag":{"amenity":"waste_disposal"}},"type":"Feature"},
	{"geometry":{"coordinates":[37.84929,55.749239],"type":"Point"},"properties":{"osm_id":"2712770309","tag":{"amenity":"waste_disposal"}},"type":"Feature"},
	{"geometry":{"coordinates":[37.850272,55.762001],"type":"Point"},"properties":{"osm_id":"2848754962","tag":{"amenity":"waste_disposal"}},"type":"Feature"},
	{"geometry":{"coordinates":[37.866058,55.755493],"type":"Point"},"properties":{"osm_id":"2848767522","tag":{"amenity":"waste_disposal"}},"type":"Feature"},
	{"geometry":{"coordinates":[37.855406,55.764352],"type":"Point"},"properties":{"osm_id":"2867042688","tag":{"amenity":"waste_disposal"}},"type":"Feature"},
	{"geometry":{"coordinates":[37.857276,55.765258],"type":"Point"},"properties":{"osm_id":"2867053302","tag":{"amenity":"waste_disposal"}},"type":"Feature"},
	{"geometry":{"coordinates":[37.878638,55.752189],"type":"Point"},"properties":{"osm_id":"2889141048","tag":{"amenity":"waste_disposal"}},"type":"Feature"},
	{"geometry":{"coordinates":[37.828422,55.757403],"type":"Point"},"properties":{"osm_id":"2899830051","tag":{"amenity":"waste_disposal"}},"type":"Feature"},
	{"geometry":{"coordinates":[37.827189,55.757575],"type":"Point"},"properties":{"osm_id":"2899830068","tag":{"amenity":"waste_disposal"}},"type":"Feature"},
	{"geometry":{"coordinates":[37.830067,55.757172],"type":"Point"},"properties":{"osm_id":"2899832502","tag":{"amenity":"waste_disposal"}},"type":"Feature"},
	{"geometry":{"coordinates":[37.82916,55.7573],"type":"Point"},"properties":{"osm_id":"2899832504","tag":{"amenity":"waste_disposal"}},"type":"Feature"},
	{"geometry":{"coordinates":[37.824396,55.757952],"type":"Point"},"properties":{"osm_id":"2899833951","tag":{"amenity":"waste_disposal"}},"type":"Feature"},
	{"geometry":{"coordinates":[37.852241,55.75753],"type":"Point"},"properties":{"osm_id":"2904627799","tag":{"amenity":"waste_disposal"}},"type":"Feature"},
	{"geometry":{"coordinates":[37.860901,55.756118],"type":"Point"},"properties":{"osm_id":"2934630707","tag":{"amenity":"waste_disposal"}},"type":"Feature"},
	{"geometry":{"coordinates":[37.833761,55.77643],"type":"Point"},"properties":{"osm_id":"3111656700","tag":{"amenity":"waste_basket"}},"type":"Feature"},
	{"geometry":{"coordinates":[37.83105,55.77563],"type":"Point"},"properties":{"osm_id":"3111661329","tag":{"amenity":"waste_basket"}},"type":"Feature"},
	{"geometry":{"coordinates":[37.828858,55.775164],"type":"Point"},"properties":{"osm_id":"3111662933","tag":{"amenity":"waste_basket"}},"type":"Feature"},
	{"geometry":{"coordinates":[37.852187,55.754639],"type":"Point"},"properties":{"osm_id":"3112455986","tag":{"amenity":"waste_disposal"}},"type":"Feature"},
	{"geometry":{"coordinates":[37.864796,55.767246],"type":"Point"},"properties":{"osm_id":"3113232830","tag":{"amenity":"waste_disposal"}},"type":"Feature"},
	{"geometry":{"coordinates":[37.821707,55.753852],"type":"Point"},"properties":{"osm_id":"3126530472","tag":{"amenity":"waste_disposal"}},"type":"Feature"},
	{"geometry":{"coordinates":[37.86599,55.748797],"type":"Point"},"properties":{"osm_id":"3282715749","tag":{"amenity":"recycling"}},"type":"Feature"},
	{"geometry":{"coordinates":[37.869751,55.747249],"type":"Point"},"properties":{"osm_id":"3282720760","tag":{"amenity":"waste_disposal"}},"type":"Feature"},
	{"geometry":{"coordinates":[37.848671,55.770065],"type":"Point"},"properties":{"osm_id":"3399279483","tag":{"amenity":"waste_disposal"}},"type":"Feature"},
	{"geometry":{"coordinates":[37.824838,55.746344],"type":"Point"},"properties":{"osm_id":"3481244184","tag":{"amenity":"waste_disposal"}},"type":"Feature"},
	{"geometry":{"coordinates":[37.825527,55.749443],"type":"Point"},"properties":{"osm_id":"3483909746","tag":{"amenity":"waste_disposal"}},"type":"Feature"},
	{"geometry":{"coordinates":[37.819385,55.751132],"type":"Point"},"properties":{"osm_id":"3484026880","tag":{"amenity":"waste_basket"}},"type":"Feature"},
	{"geometry":{"coordinates":[37.819817,55.751075],"type":"Point"},"properties":{"osm_id":"3484027583","tag":{"amenity":"waste_basket"}},"type":"Feature"},
	{"geometry":{"coordinates":[37.831577,55.736132],"type":"Point"},"properties":{"osm_id":"3493200424","tag":{"amenity":"waste_disposal"}},"type":"Feature"},
	{"geometry":{"coordinates":[37.823001,55.746682],"type":"Point"},"properties":{"osm_id":"3530427876","tag":{"amenity":"waste_disposal"}},"type":"Feature"},
	{"geometry":{"coordinates":[37.823082,55.746677],"type":"Point"},"properties":{"osm_id":"3530427877","tag":{"amenity":"waste_disposal"}},"type":"Feature"},
	{"geometry":{"coordinates":[37.854628,55.769171],"type":"Point"},"properties":{"osm_id":"3627770990","tag":{"amenity":"waste_disposal"}},"type":"Feature"},
	{"geometry":{"coordinates":[37.80823,55.757158],"type":"Point"},"properties":{"osm_id":"3689243646","tag":{"amenity":"waste_basket"}},"type":"Feature"},
	{"geometry":{"coordinates":[37.828184,55.748153],"type":"Point"},"properties":{"osm_id":"3870401347","tag":{"amenity":"waste_basket"}},"type":"Feature"},
	{"geometry":{"coordinates":[37.816873,55.746243],"type":"Point"},"properties":{"osm_id":"4081637758","tag":{"amenity":"waste_disposal"}},"type":"Feature"},
	{"geometry":{"coordinates":[37.80721,55.755022],"type":"Point"},"properties":{"osm_id":"4159023037","tag":{"amenity":"waste_disposal"}},"type":"Feature"},
	{"geometry":{"coordinates":[37.829848,55.749542],"type":"Point"},"properties":{"osm_id":"4227377896","tag":{"amenity":"waste_disposal"}},"type":"Feature"},
	{"geometry":{"coordinates":[37.85603,55.733258],"type":"Point"},"properties":{"osm_id":"4323577602","tag":{"amenity":"waste_disposal"}},"type":"Feature"},
	{"geometry":{"coordinates":[37.797499,55.736381],"type":"Point"},"properties":{"name":"\u00d0\u00ad\u00d0\u00ba\u00d0\u00be\u00d1\u0088\u00d0\u00ba\u00d0\u00be\u00d0\u00bb\u00d0\u00b0 \u00d0\u009a\u00d1\u0083\u00d1\u0081\u00d0\u00ba\u00d0\u00be\u00d0\u00b2\u00d0\u00be","osm_id":"4324003044","tag":{"amenity":"recycling","opening_hours":"Mo-Fr 10:00-18:00; Su 09:00-18:00","phone":"+7 495 3700750","recycling:batteries":"yes","recycling:beverage_cartons":"yes","recycling:cans":"yes","recycling:cardboard":"yes","recycling:cds":"yes","recycling:clothes":"yes","recycling:glass_bottles":"yes","recycling:low_energy_bulbs":"yes","recycling:newspaper":"yes","recycling:paper":"yes","recycling:paper_packaging":"yes","recycling:plastic":"yes","recycling:plastic_bottles":"yes","recycling:plastic_packaging":"yes","recycling_type":"centre"}},"type":"Feature"},
	{"geometry":{"coordinates":[37.814685,55.754046],"type":"Point"},"properties":{"osm_id":"4332451911","tag":{"amenity":"waste_disposal"}},"type":"Feature"},
	{"geometry":{"coordinates":[37.863098,55.748458],"type":"Point"},"properties":{"osm_id":"4406017489","tag":{"amenity":"waste_disposal"}},"type":"Feature"},
	{"geometry":{"coordinates":[37.799162,55.756054],"type":"Point"},"properties":{"osm_id":"4706924946","tag":{"amenity":"waste_disposal"}},"type":"Feature"},
	{"geometry":{"coordinates":[37.80834,55.746688],"type":"Point"},"properties":{"osm_id":"4730432125","tag":{"amenity":"waste_basket"}},"type":"Feature"},
	{"geometry":{"coordinates":[37.825854,55.750489],"type":"Point"},"properties":{"osm_id":"4752540123","tag":{"amenity":"waste_basket"}},"type":"Feature"},
	{"geometry":{"coordinates":[37.862394,55.740108],"type":"Point"},"properties":{"osm_id":"4812064384","tag":{"amenity":"waste_basket"}},"type":"Feature"},
	{"geometry":{"coordinates":[37.862444,55.740008],"type":"Point"},"properties":{"osm_id":"4812064387","tag":{"amenity":"waste_basket"}},"type":"Feature"},
	{"geometry":{"coordinates":[37.863625,55.740216],"type":"Point"},"properties":{"osm_id":"4812198861","tag":{"amenity":"waste_disposal"}},"type":"Feature"},
	{"geometry":{"coordinates":[37.795134,55.771104],"type":"Point"},"properties":{"osm_id":"4935702424","tag":{"amenity":"waste_basket"}},"type":"Feature"},
	{"geometry":{"coordinates":[37.795112,55.771653],"type":"Point"},"properties":{"osm_id":"4935702425","tag":{"amenity":"waste_basket"}},"type":"Feature"},
	{"geometry":{"coordinates":[37.795039,55.772016],"type":"Point"},"properties":{"osm_id":"4935702426","tag":{"amenity":"waste_basket"}},"type":"Feature"},
	{"geometry":{"coordinates":[37.794978,55.772892],"type":"Point"},"properties":{"osm_id":"4935702427","tag":{"amenity":"waste_basket"}},"type":"Feature"},
	{"geometry":{"coordinates":[37.794992,55.773208],"type":"Point"},"properties":{"osm_id":"4935726622","tag":{"amenity":"waste_basket"}},"type":"Feature"},
	{"geometry":{"coordinates":[37.794979,55.773796],"type":"Point"},"properties":{"osm_id":"4935726624","tag":{"amenity":"waste_basket"}},"type":"Feature"},
	{"geometry":{"coordinates":[37.794519,55.77387],"type":"Point"},"properties":{"osm_id":"4935731124","tag":{"amenity":"waste_basket"}},"type":"Feature"},
	{"geometry":{"coordinates":[37.814807,55.734586],"type":"Point"},"properties":{"osm_id":"4935731224","tag":{"amenity":"waste_basket"}},"type":"Feature"},
	{"geometry":{"coordinates":[37.875139,55.75199],"type":"Point"},"properties":{"osm_id":"4959126562","tag":{"amenity":"recycling"}},"type":"Feature"},
	{"geometry":{"coordinates":[37.855108,55.737632],"type":"Point"},"properties":{"osm_id":"4989909900","tag":{"amenity":"recycling"}},"type":"Feature"},
	{"geometry":{"coordinates":[37.82198,55.775758],"type":"Point"},"properties":{"osm_id":"5276000154","tag":{"amenity":"waste_disposal","covered":"yes"}},"type":"Feature"},
	{"geometry":{"coordinates":[37.837153,55.771929],"type":"Point"},"properties":{"osm_id":"5403460063","tag":{"amenity":"waste_disposal"}},"type":"Feature"},
	{"geometry":{"coordinates":[37.830025,55.768162],"type":"Point"},"properties":{"osm_id":"5403757624","tag":{"amenity":"waste_disposal"}},"type":"Feature"},
	{"geometry":{"coordinates":[37.824338,55.771583],"type":"Point"},"properties":{"osm_id":"5480462479","tag":{"amenity":"waste_disposal"}},"type":"Feature"},
	{"geometry":{"coordinates":[37.827621,55.772514],"type":"Point"},"properties":{"osm_id":"5480462480","tag":{"amenity":"waste_disposal"}},"type":"Feature"},
	{"geometry":{"coordinates":[37.828628,55.772574],"type":"Point"},"properties":{"osm_id":"5480462481","tag":{"amenity":"waste_disposal"}},"type":"Feature"},
	{"geometry":{"coordinates":[37.831825,55.773391],"type":"Point"},"properties":{"osm_id":"5489068722","tag":{"amenity":"waste_disposal"}},"type":"Feature"},
	{"geometry":{"coordinates":[37.830553,55.772722],"type":"Point"},"properties":{"osm_id":"5489068723","tag":{"amenity":"waste_disposal"}},"type":"Feature"},
	{"geometry":{"coordinates":[37.829989,55.770754],"type":"Point"},"properties":{"osm_id":"5489068724","tag":{"amenity":"waste_disposal"}},"type":"Feature"},
	{"geometry":{"coordinates":[37.828302,55.769381],"type":"Point"},"properties":{"osm_id":"5489068725","tag":{"amenity":"waste_disposal"}},"type":"Feature"},
	{"geometry":{"coordinates":[37.82649,55.768269],"type":"Point"},"properties":{"osm_id":"5489068726","tag":{"amenity":"waste_disposal"}},"type":"Feature"},
	{"geometry":{"coordinates":[37.82469,55.768164],"type":"Point"},"properties":{"osm_id":"5489068727","tag":{"amenity":"waste_disposal"}},"type":"Feature"},
	{"geometry":{"coordinates":[37.823611,55.769674],"type":"Point"},"properties":{"osm_id":"5489068728","tag":{"amenity":"waste_disposal"}},"type":"Feature"},
	{"geometry":{"coordinates":[37.823682,55.771048],"type":"Point"},"properties":{"osm_id":"5489068729","tag":{"amenity":"waste_disposal"}},"type":"Feature"},
	{"geometry":{"coordinates":[37.823862,55.771248],"type":"Point"},"properties":{"osm_id":"5491612621","tag":{"amenity":"waste_disposal"}},"type":"Feature"},
	{"geometry":{"coordinates":[37.834022,55.769209],"type":"Point"},"properties":{"osm_id":"5491612689","tag":{"amenity":"waste_disposal"}},"type":"Feature"},
	{"geometry":{"coordinates":[37.834538,55.768139],"type":"Point"},"properties":{"osm_id":"5493984900","tag":{"amenity":"waste_disposal"}},"type":"Feature"},
	{"geometry":{"coordinates":[37.836837,55.768509],"type":"Point"},"properties":{"osm_id":"5493984901","tag":{"amenity":"waste_disposal"}},"type":"Feature"},
	{"geometry":{"coordinates":[37.836808,55.769329],"type":"Point"},"properties":{"osm_id":"5493984902","tag":{"amenity":"waste_disposal"}},"type":"Feature"},
	{"geometry":{"coordinates":[37.836784,55.771472],"type":"Point"},"properties":{"osm_id":"5493984903","tag":{"amenity":"waste_disposal"}},"type":"Feature"},
	{"geometry":{"coordinates":[37.834784,55.772357],"type":"Point"},"properties":{"osm_id":"5493984904","tag":{"amenity":"waste_disposal"}},"type":"Feature"},
	{"geometry":{"coordinates":[37.83693,55.773732],"type":"Point"},"properties":{"osm_id":"5493984905","tag":{"amenity":"waste_disposal"}},"type":"Feature"},
	{"geometry":{"coordinates":[37.838437,55.773562],"type":"Point"},"properties":{"osm_id":"5493984906","tag":{"amenity":"waste_disposal"}},"type":"Feature"},
	{"geometry":{"coordinates":[37.839694,55.772644],"type":"Point"},"properties":{"osm_id":"5493984907","tag":{"amenity":"waste_disposal"}},"type":"Feature"},
	{"geometry":{"coordinates":[37.834171,55.770845],"type":"Point"},"properties":{"osm_id":"5493984908","tag":{"amenity":"waste_disposal"}},"type":"Feature"},
	{"geometry":{"coordinates":[37.833928,55.773265],"type":"Point"},"properties":{"osm_id":"5493984909","tag":{"amenity":"waste_disposal"}},"type":"Feature"},
	{"geometry":{"coordinates":[37.834569,55.774004],"type":"Point"},"properties":{"osm_id":"5493984910","tag":{"amenity":"waste_disposal"}},"type":"Feature"},
	{"geometry":{"coordinates":[37.826949,55.770876],"type":"Point"},"properties":{"osm_id":"5493984911","tag":{"amenity":"waste_disposal"}},"type":"Feature"},
	{"geometry":{"coordinates":[37.826386,55.769736],"type":"Point"},"properties":{"osm_id":"5493984912","tag":{"amenity":"waste_disposal"}},"type":"Feature"},
	{"geometry":{"coordinates":[37.826707,55.768379],"type":"Point"},"properties":{"osm_id":"5493984913","tag":{"amenity":"waste_disposal"}},"type":"Feature"},
	{"geometry":{"coordinates":[37.814476,55.752251],"type":"Point"},"properties":{"osm_id":"5533905023","tag":{"amenity":"waste_basket"}},"type":"Feature"},
	{"geometry":{"coordinates":[37.815359,55.752629],"type":"Point"},"properties":{"osm_id":"5533914421","tag":{"amenity":"waste_disposal"}},"type":"Feature"},
	{"geometry":{"coordinates":[37.856759,55.755291],"type":"Point"},"properties":{"osm_id":"5569633597","tag":{"amenity":"waste_disposal"}},"type":"Feature"},
	{"geometry":{"coordinates":[37.822582,55.775986],"type":"Point"},"properties":{"osm_id":"5736924894","tag":{"amenity":"waste_basket"}},"type":"Feature"},
	{"geometry":{"coordinates":[37.820566,55.773213],"type":"Point"},"properties":{"osm_id":"5739200651","tag":{"amenity":"waste_disposal"}},"type":"Feature"},
	{"geometry":{"coordinates":[37.845846,55.773123],"type":"Point"},"properties":{"osm_id":"5770286041","tag":{"amenity":"waste_disposal"}},"type":"Feature"},
	{"geometry":{"coordinates":[37.847556,55.733459],"type":"Point"},"properties":{"osm_id":"5885675327","tag":{"amenity":"waste_disposal"}},"type":"Feature"},
	{"geometry":{"coordinates":[37.82131,55.776503],"type":"Point"},"properties":{"osm_id":"5922137348","tag":{"amenity":"waste_disposal"}},"type":"Feature"},
	{"geometry":{"coordinates":[37.821426,55.776542],"type":"Point"},"properties":{"osm_id":"5934681328","tag":{"amenity":"recycling","recycling:plastic_bottles":"yes","recycling_type":"container"}},"type":"Feature"},
	{"geometry":{"coordinates":[37.839437,55.764577],"type":"Point"},"properties":{"osm_id":"5964914254","tag":{"amenity":"waste_disposal"}},"type":"Feature"},
	{"geometry":{"coordinates":[37.852716,55.755801],"type":"Point"},"properties":{"osm_id":"6157204785","tag":{"amenity":"waste_disposal"}},"type":"Feature"},
	{"geometry":{"coordinates":[37.848137,55.741794],"type":"Point"},"properties":{"name":"\u00d0\u009f\u00d1\u0083\u00d0\u00bd\u00d0\u00ba\u00d1\u0082 \u00d1\u0080\u00d0\u00b0\u00d0\u00b7\u00d0\u00b4\u00d0\u00b5\u00d0\u00bb\u00d1\u008c\u00d0\u00bd\u00d0\u00be\u00d0\u00b3\u00d0\u00be \u00d1\u0081\u00d0\u00b1\u00d0\u00be\u00d1\u0080\u00d0\u00b0 \u00d0\u00be\u00d1\u0082\u00d1\u0085\u00d0\u00be\u00d0\u00b4\u00d0\u00be\u00d0\u00b2","osm_id":"6350909606","tag":{"amenity":"recycling"}},"type":"Feature"},
	{"geometry":{"coordinates":[37.821933,55.775816],"type":"Point"},"properties":{"osm_id":"6360525467","tag":{"amenity":"recycling","recycling:glass":"yes","recycling:metal":"yes","recycling:paper":"yes","recycling:plastic":"yes"}},"type":"Feature"},
	{"geometry":{"coordinates":[37.845895,55.774183],"type":"Point"},"properties":{"osm_id":"6412132919","tag":{"amenity":"waste_disposal"}},"type":"Feature"},
	{"geometry":{"coordinates":[37.845827,55.772048],"type":"Point"},"properties":{"osm_id":"6412132921","tag":{"amenity":"waste_disposal"}},"type":"Feature"},
	{"geometry":{"coordinates":[37.858306,55.755357],"type":"Point"},"properties":{"osm_id":"7017890214","tag":{"amenity":"recycling","description":"\u00d0\u009f\u00d1\u0080\u00d0\u00b8\u00d1\u0091\u00d0\u00bc \u00d0\u00b8\u00d1\u0081\u00d0\u00bf\u00d0\u00be\u00d0\u00bb\u00d1\u008c\u00d0\u00b7\u00d0\u00be\u00d0\u00b2\u00d0\u00b0\u00d0\u00bd\u00d0\u00bd\u00d1\u008b\u00d1\u0085 \u00d0\u00b1\u00d0\u00b0\u00d1\u0082\u00d0\u00b0\u00d1\u0080\u00d0\u00b5\u00d0\u00b5\u00d0\u00ba","recycling:batteries":"yes","recycling_type":"container"}},"type":"Feature"},
	{"geometry":{"coordinates":[37.878689,55.755321],"type":"Point"},"properties":{"osm_id":"7041657860","tag":{"amenity":"waste_disposal"}},"type":"Feature"},
	{"geometry":{"coordinates":[37.793226,55.752212],"type":"Point"},"properties":{"osm_id":"7134069587","tag":{"amenity":"recycling","recycling:glass":"yes","recycling:glass_bottles":"yes","recycling:plastic":"yes","recycling_type":"container"}},"type":"Feature"},
	{"geometry":{"coordinates":[37.845863,55.771453],"type":"Point"},"properties":{"osm_id":"7730857530","tag":{"amenity":"waste_disposal"}},"type":"Feature"},
	{"geometry":{"coordinates":[37.845933,55.771368],"type":"Point"},"properties":{"osm_id":"7730857531","tag":{"amenity":"waste_disposal"}},"type":"Feature"},
	{"geometry":{"coordinates":[37.850521,55.773324],"type":"Point"},"properties":{"osm_id":"7855440506","tag":{"amenity":"waste_disposal"}},"type":"Feature"}
]
}
