{
"type": "FeatureCollection",
"features": [
	{"geometry":{"coordinates":[37.831987,55.725475],"type":"Point"},"properties":{"osm_id":"692848054","tag":{"amenity":"waste_disposal"}},"type":"Feature"},
	{"geometry":{"coordinates":[37.814755,55.710248],"type":"Point"},"properties":{"osm_id":"692972741","tag":{"amenity":"waste_disposal"}},"type":"Feature"},
	{"geometry":{"coordinates":[37.827373,55.721731],"type":"Point"},"properties":{"osm_id":"703793984","tag":{"amenity":"waste_disposal"}},"type":"Feature"},
	{"geometry":{"coordinates":[37.827712,55.723522],"type":"Point"},"properties":{"osm_id":"703793985","tag":{"amenity":"waste_disposal"}},"type":"Feature"},
	{"geometry":{"coordinates":[37.822153,55.724234],"type":"Point"},"properties":{"osm_id":"703793986","tag":{"amenity":"waste_disposal"}},"type":"Feature"},
	{"geometry":{"coordinates":[37.830061,55.719049],"type":"Point"},"properties":{"osm_id":"703833854","tag":{"amenity":"waste_disposal"}},"type":"Feature"},
	{"geometry":{"coordinates":[37.835252,55.725375],"type":"Point"},"properties":{"osm_id":"703867173","tag":{"amenity":"waste_disposal"}},"type":"Feature"},
	{"geometry":{"coordinates":[37.832261,55.722563],"type":"Point"},"properties":{"osm_id":"703867175","tag":{"amenity":"waste_disposal"}},"type":"Feature"},
	{"geometry":{"coordinates":[37.834795,55.720946],"type":"Point"},"properties":{"osm_id":"704320827","tag":{"amenity":"waste_disposal"}},"type":"Feature"},
	{"geometry":{"coordinates":[37.830967,55.721287],"type":"Point"},"properties":{"osm_id":"704345189","tag":{"amenity":"waste_disposal"}},"type":"Feature"},
	{"geometry":{"coordinates":[37.834928,55.719365],"type":"Point"},"properties":{"osm_id":"704397791","tag":{"amenity":"waste_disposal"}},"type":"Feature"},
	{"geometry":{"coordinates":[37.820995,55.723997],"type":"Point"},"properties":{"osm_id":"704406074","tag":{"amenity":"waste_disposal"}},"type":"Feature"},
	{"geometry":{"coordinates":[37.819305,55.724749],"type":"Point"},"properties":{"osm_id":"704409357","tag":{"amenity":"waste_disposal"}},"type":"Feature"},
	{"geometry":{"coordinates":[37.82613,55.720278],"type":"Point"},"properties":{"osm_id":"704479509","tag":{"amenity":"waste_disposal"}},"type":"Feature"},
	{"geometry":{"coordinates":[37.829469,55.721575],"type":"Point"},"properties":{"osm_id":"705137414","tag":{"amenity":"waste_disposal"}},"type":"Feature"},
	{"geometry":{"coordinates":[37.830203,55.722401],"type":"Point"},"properties":{"osm_id":"705137418","tag":{"amenity":"waste_disposal"}},"type":"Feature"},
	{"geometry":{"coordinates":[37.818893,55.719621],"type":"Point"},"properties":{"osm_id":"706519231","tag":{"amenity":"waste_disposal"}},"type":"Feature"},
	{"geometry":{"coordinates":[37.820591,55.719681],"type":"Point"},"properties":{"osm_id":"1452127077","tag":{"amenity":"waste_disposal"}},"type":"Feature"},
	{"geometry":{"coordinates":[37.81997,55.709604],"type":"Point"},"properties":{"osm_id":"1803112346","tag":{"amenity":"recycling"}},"type":"Feature"},
	{"geometry":{"coordinates":[37.808166,55.724259],"type":"Point"},"properties":{"osm_id":"1872294387","tag":{"amenity":"waste_disposal"}},"type":"Feature"},
	{"geometry":{"coordinates":[37.804406,55.725527],"type":"Point"},"properties":{"osm_id":"1872294678","tag":{"amenity":"waste_disposal"}},"type":"Feature"},
	{"geometry":{"coordinates":[37.855286,55.689676],"type":"Point"},"properties":{"osm_id":"2067076527","tag":{"amenity":"waste_disposal"}},"type":"Feature"},
	{"geometry":{"coordinates":[37.799903,55.716584],"type":"Point"},"properties":{"osm_id":"2262364285","tag":{"amenity":"waste_disposal"}},"type":"Feature"},
	{"geometry":{"coordinates":[37.800347,55.71853],"type":"Point"},"properties":{"osm_id":"2262364363","tag":{"amenity":"waste_disposal"}},"type":"Feature"},
	{"geometry":{"coordinates":[37.799042,55.718988],"type":"Point"},"properties":{"osm_id":"2262364389","tag":{"amenity":"waste_disposal"}},"type":"Feature"},
	{"geometry":{"coordinates":[37.877793,55.68722],"type":"Point"},"properties":{"osm_id":"2349771997","tag":{"amenity":"waste_disposal"}},"type":"Feature"},
	{"geometry":{"coordinates":[37.811711,55.710387],"type":"Point"},"properties":{"osm_id":"2372890394","tag":{"amenity":"waste_disposal"}},"type":"Feature"},
	{"geometry":{"coordinates":[37.809073,55.710988],"type":"Point"},"properties":{"osm_id":"2372890489","tag":{"amenity":"waste_disposal"}},"type":"Feature"},
	{"geometry":{"coordinates":[37.810684,55.711852],"type":"Point"},"properties":{"osm_id":"2372890606","tag":{"amenity":"waste_disposal"}},"type":"Feature"},
	{"geometry":{"coordinates":[37.840778,55.72253],"type":"Point"},"properties":{"osm_id":"2373351294","tag":{"amenity":"waste_basket"}},"type":"Feature"},
	{"geometry":{"coordinates":[37.813256,55.710825],"type":"Point"},"properties":{"osm_id":"2402864263","tag":{"amenity":"waste_disposal"}},"type":"Feature"},
	{"geometry":{"coordinates":[37.874118,55.717855],"type":"Point"},"properties":{"osm_id":"2407221873","tag":{"amenity":"waste_disposal"}},"type":"Feature"},
	{"geometry":{"coordinates":[37.810657,55.71144],"type":"Point"},"properties":{"osm_id":"2422740712","tag":{"amenity":"waste_disposal"}},"type":"Feature"},
	{"geometry":{"coordinates":[37.809832,55.711821],"type":"Point"},"properties":{"osm_id":"2422740720","tag":{"amenity":"waste_disposal"}},"type":"Feature"},
	{"geometry":{"coordinates":[37.804909,55.711981],"type":"Point"},"properties":{"osm_id":"2422740721","tag":{"amenity":"waste_disposal"}},"type":"Feature"},
	{"geometry":{"coordinates":[37.795612,55.721291],"type":"Point"},"properties":{"osm_id":"2431523136","tag":{"amenity":"waste_disposal"}},"type":"Feature"},
	{"geometry":{"coordinates":[37.793838,55.721466],"type":"Point"},"properties":{"osm_id":"2431523144","tag":{"amenity":"waste_disposal"}},"type":"Feature"},
	{"geometry":{"coordinates":[37.812961,55.711247],"type":"Point"},"properties":{"osm_id":"2514445484","tag":{"amenity":"waste_disposal"}},"type":"Feature"},
	{"geometry":{"coordinates":[37.80799,55.713489],"type":"Point"},"properties":{"osm_id":"2514676788","tag":{"amenity":"waste_disposal"}},"type":"Feature"},
	{"geometry":{"coordinates":[37.808256,55.713837],"type":"Point"},"properties":{"osm_id":"2514676810","tag":{"amenity":"waste_disposal"}},"type":"Feature"},
	{"geometry":{"coordinates":[37.816851,55.700445],"type":"Point"},"properties":{"osm_id":"2519339886","tag":{"amenity":"waste_basket"}},"type":"Feature"},
	{"geometry":{"coordinates":[37.809041,55.709404],"type":"Point"},"properties":{"osm_id":"2525214666","tag":{"amenity":"waste_disposal"}},"type":"Feature"},
	{"geometry":{"coordinates":[37.809919,55.710123],"type":"Point"},"properties":{"osm_id":"2525215005","tag":{"amenity":"waste_disposal"}},"type":"Feature"},
	{"geometry":{"coordinates":[37.807839,55.710057],"type":"Point"},"properties":{"osm_id":"2526854039","tag":{"amenity":"waste_disposal"}},"type":"Feature"},
	{"geometry":{"coordinates":[37.806454,55.71029],"type":"Point"},"properties":{"osm_id":"2526854082","tag":{"amenity":"waste_disposal"}},"type":"Feature"},
	{"geometry":{"coordinates":[37.810694,55.711342],"type":"Point"},"properties":{"osm_id":"2526854549","tag":{"amenity":"waste_disposal"}},"type":"Feature"},
	{"geometry":{"coordinates":[37.807821,55.711523],"type":"Point"},"properties":{"osm_id":"2526854582","tag":{"amenity":"waste_disposal"}},"type":"Feature"},
	{"geometry":{"coordinates":[37.810621,55.711763],"type":"Point"},"properties":{"osm_id":"2526854603","tag":{"amenity":"waste_disposal"}},"type":"Feature"},
	{"geometry":{"coordinates":[37.806463,55.713481],"type":"Point"},"properties":{"osm_id":"2526854657","tag":{"amenity":"waste_disposal"}},"type":"Feature"},
	{"geometry":{"coordinates":[37.853608,55.715325],"type":"Point"},"properties":{"osm_id":"2622204871","tag":{"amenity":"waste_disposal"}},"type":"Feature"},
	{"geometry":{"coordinates":[37.861149,55.717496],"type":"Point"},"properties":{"osm_id":"2622204942","tag":{"amenity":"waste_disposal"}},"type":"Feature"},
	{"geometry":{"coordinates":[37.824396,55.70419],"type":"Point"},"properties":{"osm_id":"2827194762","tag":{"amenity":"recycling"}},"type":"Feature"},
	{"geometry":{"coordinates":[37.855207,55.717196],"type":"Point"},"properties":{"osm_id":"2898913359","tag":{"amenity":"waste_disposal"}},"type":"Feature"},
	{"geometry":{"coordinates":[37.84717,55.71456],"type":"Point"},"properties":{"osm_id":"3193528596","tag":{"amenity":"waste_disposal"}},"type":"Feature"},
	{"geometry":{"coordinates":[37.816752,55.702912],"type":"Point"},"properties":{"osm_id":"3196378030","tag":{"amenity":"waste_basket"}},"type":"Feature"},
	{"geometry":{"coordinates":[37.848509,55.722512],"type":"Point"},"properties":{"osm_id":"3197982562","tag":{"amenity":"waste_basket"}},"type":"Feature"},
	{"geometry":{"coordinates":[37.86314,55.702496],"type":"Point"},"properties":{"osm_id":"3213741459","tag":{"amenity":"waste_disposal"}},"type":"Feature"},
	{"geometry":{"coordinates":[37.818663,55.718366],"type":"Point"},"properties":{"osm_id":"3390005757","tag":{"amenity":"waste_disposal"}},"type":"Feature"},
	{"geometry":{"coordinates":[37.846451,55.715684],"type":"Point"},"properties":{"osm_id":"3407158856","tag":{"amenity":"waste_disposal"}},"type":"Feature"},
	{"geometry":{"coordinates":[37.878657,55.687786],"type":"Point"},"properties":{"osm_id":"3703350973","tag":{"amenity":"waste_disposal"}},"type":"Feature"},
	{"geometry":{"coordinates":[37.873274,55.688125],"type":"Point"},"properties":{"osm_id":"3703368375","tag":{"amenity":"waste_basket"}},"type":"Feature"},
	{"geometry":{"coordinates":[37.866727,55.695249],"type":"Point"},"properties":{"osm_id":"3703594369","tag":{"amenity":"waste_disposal"}},"type":"Feature"},
	{"geometry":{"coordinates":[37.869692,55.686711],"type":"Point"},"properties":{"osm_id":"3705467036","tag":{"amenity":"waste_disposal"}},"type":"Feature"},
	{"geometry":{"coordinates":[37.862467,55.694614],"type":"Point"},"properties":{"osm_id":"3705527116","tag":{"amenity":"waste_disposal"}},"type":"Feature"},
	{"geometry":{"coordinates":[37.877322,55.69048],"type":"Point"},"properties":{"osm_id":"3706903839","tag":{"amenity":"waste_disposal"}},"type":"Feature"},
	{"geometry":{"coordinates":[37.877095,55.690425],"type":"Point"},"properties":{"osm_id":"3706903840","tag":{"amenity":"waste_disposal"}},"type":"Feature"},
	{"geometry":{"coordinates":[37.876622,55.690965],"type":"Point"},"properties":{"osm_id":"3706903842","tag":{"amenity":"waste_disposal"}},"type":"Feature"},
	{"geometry":{"coordinates":[37.875634,55.691175],"type":"Point"},"properties":{"osm_id":"3706910673","tag":{"amenity":"waste_disposal"}},"type":"Feature"},
	{"geometry":{"coordinates":[37.8738,55.692318],"type":"Point"},"properties":{"osm_id":"3706915671","tag":{"amenity":"waste_disposal"}},"type":"Feature"},
	{"geometry":{"coordinates":[37.874748,55.685886],"type":"Point"},"properties":{"osm_id":"3710981783","tag":{"amenity":"waste_disposal"}},"type":"Feature"},
	{"geometry":{"coordinates":[37.816175,55.707814],"type":"Point"},"properties":{"osm_id":"3713301230","tag":{"amenity":"waste_disposal"}},"type":"Feature"},
	{"geometry":{"coordinates":[37.8621,55.699186],"type":"Point"},"properties":{"osm_id":"3730657536","tag":{"amenity":"waste_disposal"}},"type":"Feature"},
	{"geometry":{"coordinates":[37.793952,55.715632],"type":"Point"},"properties":{"osm_id":"3739501504","tag":{"amenity":"waste_disposal"}},"type":"Feature"},
	{"geometry":{"coordinates":[37.793658,55.715113],"type":"Point"},"properties":{"osm_id":"3739501505","tag":{"amenity":"waste_disposal"}},"type":"Feature"},
	{"geometry":{"coordinates":[37.794979,55.715581],"type":"Point"},"properties":{"osm_id":"3739501506","tag":{"amenity":"waste_disposal"}},"type":"Feature"},
	{"geometry":{"coordinates":[37.876012,55.685844],"type":"Point"},"properties":{"osm_id":"3743882016","tag":{"amenity":"waste_disposal"}},"type":"Feature"},
	{"geometry":{"coordinates":[37.875528,55.685635],"type":"Point"},"properties":{"osm_id":"3743882017","tag":{"amenity":"waste_disposal"}},"type":"Feature"},
	{"geometry":{"coordinates":[37.874885,55.684966],"type":"Point"},"properties":{"osm_id":"3743886511","tag":{"amenity":"waste_disposal"}},"type":"Feature"},
	{"geometry":{"coordinates":[37.872114,55.688804],"type":"Point"},"properties":{"osm_id":"3746149979","tag":{"amenity":"waste_basket"}},"type":"Feature"},
	{"geometry":{"coordinates":[37.851456,55.712994],"type":"Point"},"properties":{"osm_id":"3776243806","tag":{"amenity":"waste_disposal"}},"type":"Feature"},
	{"geometry":{"coordinates":[37.862008,55.711686],"type":"Point"},"properties":{"osm_id":"3815401719","tag":{"amenity":"waste_disposal"}},"type":"Feature"},
	{"geometry":{"coordinates":[37.862391,55.68675],"type":"Point"},"properties":{"osm_id":"3821355066","tag":{"amenity":"waste_disposal"}},"type":"Feature"},
	{"geometry":{"coordinates":[37.872785,55.687916],"type":"Point"},"properties":{"osm_id":"3827154665","tag":{"amenity":"waste_basket"}},"type":"Feature"},
	{"geometry":{"coordinates":[37.828218,55.717705],"type":"Point"},"properties":{"osm_id":"4209231602","tag":{"amenity":"waste_disposal"}},"type":"Feature"},
	{"geometry":{"coordinates":[37.872702,55.687059],"type":"Point"},"properties":{"osm_id":"4239825904","tag":{"amenity":"waste_disposal"}},"type":"Feature"},
	{"geometry":{"coordinates":[37.818478,55.691027],"type":"Point"},"properties":{"osm_id":"4250466892","tag":{"amenity":"waste_disposal"}},"type":"Feature"},
	{"geometry":{"coordinates":[37.812128,55.685789],"type":"Point"},"properties":{"osm_id":"4252356591","tag":{"amenity":"waste_basket"}},"type":"Feature"},
	{"geometry":{"coordinates":[37.826734,55.682688],"type":"Point"},"properties":{"osm_id":"4252391594","tag":{"amenity":"waste_basket"}},"type":"Feature"},
	{"geometry":{"coordinates":[37.866004,55.71207],"type":"Point"},"properties":{"osm_id":"4270671167","tag":{"amenity":"waste_disposal"}},"type":"Feature"},
	{"geometry":{"coordinates":[37.873542,55.715484],"type":"Point"},"properties":{"osm_id":"4429189221","tag":{"amenity":"waste_disposal"}},"type":"Feature"},
	{"geometry":{"coordinates":[37.879487,55.687311],"type":"Point"},"properties":{"osm_id":"4589710985","tag":{"amenity":"waste_disposal"}},"type":"Feature"},
	{"geometry":{"coordinates":[37.871031,55.693143],"type":"Point"},"properties":{"name":"\u00d0\u00ad\u00d0\u00ba\u00d0\u00be\u00d0\u00b1\u00d0\u00be\u00d0\u00ba\u00d1\u0081","osm_id":"4664267676","tag":{"amenity":"recycling","recycling:batteries":"yes","recycling:luminescent":"yes","recycling:thermometers":"yes","recycling_type":"container","website":"http://xn--90arbobt2f.xn--p1ai/"}},"type":"Feature"},
	{"geometry":{"coordinates":[37.795663,55.688551],"type":"Point"},"properties":{"osm_id":"4826881821","tag":{"amenity":"waste_disposal"}},"type":"Feature"},
	{"geometry":{"coordinates":[37.795799,55.693437],"type":"Point"},"properties":{"osm_id":"4920678827","tag":{"amenity":"waste_disposal"}},"type":"Feature"},
	{"geometry":{"coordinates":[37.845702,55.716591],"type":"Point"},"properties":{"osm_id":"5283340875","tag":{"amenity":"waste_basket"}},"type":"Feature"},
	{"geometry":{"coordinates":[37.845637,55.716418],"type":"Point"},"properties":{"osm_id":"5283340877","tag":{"amenity":"waste_basket"}},"type":"Feature"},
	{"geometry":{"coordinates":[37.846746,55.716855],"type":"Point"},"properties":{"osm_id":"5283340879","tag":{"amenity":"waste_basket"}},"type":"Feature"},
	{"geometry":{"coordinates":[37.845935,55.717166],"type":"Point"},"properties":{"osm_id":"5283340881","tag":{"amenity":"waste_basket"}},"type":"Feature"},
	{"geometry":{"coordinates":[37.845829,55.717023],"type":"Point"},"properties":{"osm_id":"5283340882","tag":{"amenity":"waste_basket"}},"type":"Feature"},
	{"geometry":{"coordinates":[37.845959,55.717008],"type":"Point"},"properties":{"osm_id":"5283340883","tag":{"amenity":"waste_basket"}},"type":"Feature"},
	{"geometry":{"coordinates":[37.854775,55.717451],"type":"Point"},"properties":{"osm_id":"5387379626","tag":{"amenity":"waste_basket"}},"type":"Feature"},
	{"geometry":{"coordinates":[37.854688,55.717447],"type":"Point"},"properties":{"osm_id":"5387379627","tag":{"amenity":"waste_basket"}},"type":"Feature"},
	{"geometry":{"coordinates":[37.854597,55.717435],"type":"Point"},"properties":{"osm_id":"5387379628","tag":{"amenity":"waste_basket"}},"type":"Feature"},
	{"geometry":{"coordinates":[37.854528,55.717423],"type":"Point"},"properties":{"osm_id":"5387379629","tag":{"amenity":"waste_basket"}},"type":"Feature"},
	{"geometry":{"coordinates":[37.854438,55.717401],"type":"Point"},"properties":{"osm_id":"5387379630","tag":{"amenity":"waste_basket"}},"type":"Feature"},
	{"geometry":{"coordinates":[37.853969,55.713203],"type":"Point"},"properties":{"osm_id":"5447364195","tag":{"amenity":"waste_disposal"}},"type":"Feature"},
	{"geometry":{"coordinates":[37.845593,55.71696],"type":"Point"},"properties":{"osm_id":"5518536365","tag":{"amenity":"waste_basket"}},"type":"Feature"},
	{"geometry":{"coordinates":[37.858338,55.686651],"type":"Point"},"properties":{"osm_id":"5518583761","tag":{"amenity":"waste_basket","waste":"trash"}},"type":"Feature"},
	{"geometry":{"coordinates":[37.874863,55.68741],"type":"Point"},"properties":{"osm_id":"5535124882","tag":{"amenity":"waste_disposal"}},"type":"Feature"},
	{"geometry":{"coordinates":[37.793446,55.683792],"type":"Point"},"properties":{"osm_id":"5608734029","tag":{"amenity":"waste_disposal"}},"type":"Feature"},
	{"geometry":{"coordinates":[37.850029,55.717114],"type":"Point"},"properties":{"osm_id":"5643167323","tag":{"amenity":"waste_basket"}},"type":"Feature"},
	{"geometry":{"coordinates":[37.83978,55.702976],"type":"Point"},"properties":{"osm_id":"5695854821","tag":{"amenity":"waste_basket"}},"type":"Feature"},
	{"geometry":{"coordinates":[37.848147,55.717176],"type":"Point"},"properties":{"osm_id":"5702874834","tag":{"amenity":"waste_disposal"}},"type":"Feature"},
	{"geometry":{"coordinates":[37.846781,55.715972],"type":"Point"},"properties":{"osm_id":"5862922449","tag":{"amenity":"waste_basket"}},"type":"Feature"},
	{"geometry":{"coordinates":[37.85248,55.695689],"type":"Point"},"properties":{"osm_id":"5937301849","tag":{"amenity":"waste_disposal"}},"type":"Feature"},
	{"geometry":{"coordinates":[37.855,55.712075],"type":"Point"},"properties":{"osm_id":"6639053414","tag":{"amenity":"recycling"}},"type":"Feature"},
	{"geometry":{"coordinates":[37.854069,55.689379],"type":"Point"},"properties":{"osm_id":"6680097958","tag":{"amenity":"waste_basket","material":"concrete"}},"type":"Feature"},
	{"geometry":{"coordinates":[37.861128,55.681747],"type":"Point"},"properties":{"osm_id":"6805728919","tag":{"amenity":"waste_disposal"}},"type":"Feature"},
	{"geometry":{"coordinates":[37.851957,55.723661],"type":"Point"},"properties":{"osm_id":"7587904503","tag":{"amenity":"waste_disposal"}},"type":"Feature"},
	{"geometry":{"coordinates":[37.859214,55.677644],"type":"Point"},"properties":{"osm_id":"7600650352","tag":{"amenity":"waste_basket"}},"type":"Feature"},
	{"geometry":{"coordinates":[37.860136,55.679826],"type":"Point"},"properties":{"osm_id":"7600830953","tag":{"amenity":"waste_basket"}},"type":"Feature"},
	{"geometry":{"coordinates":[37.86011,55.679773],"type":"Point"},"properties":{"osm_id":"7600830954","tag":{"amenity":"waste_basket"}},"type":"Feature"},
	{"geometry":{"coordinates":[37.864828,55.717597],"type":"Point"},"properties":{"osm_id":"7617708476","tag":{"amenity":"waste_disposal"}},"type":"Feature"},
	{"geometry":{"coordinates":[37.853229,55.679973],"type":"Point"},"properties":{"osm_id":"7810522928","tag":{"amenity":"waste_disposal"}},"type":"Feature"},
	{"geometry":{"coordinates":[37.857074,55.677998],"type":"Point"},"properties":{"osm_id":"7810522996","tag":{"amenity":"waste_basket"}},"type":"Feature"},
	{"geometry":{"coordinates":[37.856708,55.677936],"type":"Point"},"properties":{"osm_id":"7810522997","tag":{"amenity":"waste_basket"}},"type":"Feature"},
	{"geometry":{"coordinates":[37.856389,55.678078],"type":"Point"},"properties":{"osm_id":"7810522999","tag":{"amenity":"waste_basket"}},"type":"Feature"},
	{"geometry":{"coordinates":[37.856235,55.678318],"type":"Point"},"properties":{"osm_id":"7810523000","tag":{"amenity":"waste_basket"}},"type":"Feature"},
	{"geometry":{"coordinates":[37.855822,55.678712],"type":"Point"},"properties":{"osm_id":"7810523032","tag":{"amenity":"waste_basket"}},"type":"Feature"},
	{"geometry":{"coordinates":[37.855187,55.678757],"type":"Point"},"properties":{"osm_id":"7810523047","tag":{"amenity":"waste_disposal"}},"type":"Feature"},
	{"geometry":{"coordinates":[37.868405,55.683297],"type":"Point"},"properties":{"osm_id":"7896839031","tag":{"amenity":"waste_disposal"}},"type":"Feature"}
]
}
