{
"type": "FeatureCollection",
"features": [
	{"geometry":{"coordinates":[-6.344621,53.360533],"type":"Point"},"properties":{"osm_id":"886347381","tag":{"amenity":"waste_basket"}},"type":"Feature"},
	{"geometry":{"coordinates":[-6.344892,53.360752],"type":"Point"},"properties":{"osm_id":"886347755","tag":{"amenity":"waste_basket"}},"type":"Feature"},
	{"geometry":{"coordinates":[-6.371628,53.355021],"type":"Point"},"properties":{"osm_id":"1648109618","tag":{"amenity":"waste_basket"}},"type":"Feature"},
	{"geometry":{"coordinates":[-6.378706,53.350807],"type":"Point"},"properties":{"osm_id":"2218807507","tag":{"amenity":"recycling"}},"type":"Feature"},
	{"geometry":{"coordinates":[-6.375138,53.350456],"type":"Point"},"properties":{"osm_id":"2218807512","tag":{"amenity":"waste_basket"}},"type":"Feature"},
	{"geometry":{"coordinates":[-6.370878,53.382745],"type":"Point"},"properties":{"osm_id":"2752938565","tag":{"amenity":"waste_basket"}},"type":"Feature"},
	{"geometry":{"coordinates":[-6.354202,53.379213],"type":"Point"},"properties":{"osm_id":"2752967869","tag":{"amenity":"waste_basket"}},"type":"Feature"},
	{"geometry":{"coordinates":[-6.330506,53.371595],"type":"Point"},"properties":{"osm_id":"2752991036","tag":{"amenity":"waste_basket"}},"type":"Feature"},
	{"geometry":{"coordinates":[-6.369623,53.38079],"type":"Point"},"properties":{"osm_id":"2771136050","tag":{"amenity":"waste_basket"}},"type":"Feature"},
	{"geometry":{"coordinates":[-6.363175,53.373702],"type":"Point"},"properties":{"osm_id":"2771162581","tag":{"amenity":"waste_basket"}},"type":"Feature"},
	{"geometry":{"coordinates":[-6.358447,53.378963],"type":"Point"},"properties":{"osm_id":"2771190474","tag":{"amenity":"waste_basket"}},"type":"Feature"},
	{"geometry":{"coordinates":[-6.331812,53.377375],"type":"Point"},"properties":{"osm_id":"5155145891","tag":{"amenity":"waste_basket"}},"type":"Feature"},
	{"geometry":{"coordinates":[-6.332335,53.375274],"type":"Point"},"properties":{"osm_id":"5155208156","tag":{"amenity":"waste_basket"}},"type":"Feature"},
	{"geometry":{"coordinates":[-6.332696,53.376206],"type":"Point"},"properties":{"osm_id":"5155895126","tag":{"amenity":"waste_basket"}},"type":"Feature"},
	{"geometry":{"coordinates":[-6.333077,53.376368],"type":"Point"},"properties":{"osm_id":"5158117145","tag":{"amenity":"waste_basket"}},"type":"Feature"},
	{"geometry":{"coordinates":[-6.332726,53.376454],"type":"Point"},"properties":{"osm_id":"5158117146","tag":{"amenity":"waste_basket"}},"type":"Feature"},
	{"geometry":{"coordinates":[-6.356927,53.371572],"type":"Point"},"properties":{"osm_id":"5560609454","tag":{"amenity":"waste_basket"}},"type":"Feature"},
	{"geometry":{"coordinates":[-6.39979,53.382706],"type":"Point"},"properties":{"osm_id":"5560626633","tag":{"amenity":"waste_basket"}},"type":"Feature"},
	{"geometry":{"coordinates":[-6.41046,53.383119],"type":"Point"},"properties":{"osm_id":"5560626639","tag":{"amenity":"waste_basket"}},"type":"Feature"},
	{"geometry":{"coordinates":[-6.37209,53.378782],"type":"Point"},"properties":{"osm_id":"5565974812","tag":{"amenity":"waste_basket"}},"type":"Feature"},
	{"geometry":{"coordinates":[-6.375089,53.378041],"type":"Point"},"properties":{"osm_id":"5565974818","tag":{"amenity":"waste_basket"}},"type":"Feature"},
	{"geometry":{"coordinates":[-6.375427,53.378065],"type":"Point"},"properties":{"osm_id":"5565998645","tag":{"amenity":"waste_basket"}},"type":"Feature"},
	{"geometry":{"coordinates":[-6.371703,53.379166],"type":"Point"},"properties":{"osm_id":"5565998659","tag":{"amenity":"waste_basket"}},"type":"Feature"},
	{"geometry":{"coordinates":[-6.377238,53.34436],"type":"Point"},"properties":{"osm_id":"5602652774","tag":{"amenity":"waste_basket"}},"type":"Feature"},
	{"geometry":{"coordinates":[-6.376405,53.344445],"type":"Point"},"properties":{"osm_id":"5603182329","tag":{"amenity":"waste_basket"}},"type":"Feature"},
	{"geometry":{"coordinates":[-6.377649,53.350095],"type":"Point"},"properties":{"osm_id":"5603182332","tag":{"amenity":"waste_basket"}},"type":"Feature"},
	{"geometry":{"coordinates":[-6.377846,53.34986],"type":"Point"},"properties":{"osm_id":"5603182333","tag":{"amenity":"waste_basket"}},"type":"Feature"},
	{"geometry":{"coordinates":[-6.355747,53.352006],"type":"Point"},"properties":{"osm_id":"5606087092","ref":"WMS 4461","tag":{"amenity":"waste_basket"}},"type":"Feature"},
	{"geometry":{"coordinates":[-6.355894,53.351923],"type":"Point"},"properties":{"osm_id":"5606087094","ref":"WMS 4460","tag":{"amenity":"waste_basket"}},"type":"Feature"},
	{"geometry":{"coordinates":[-6.391608,53.356175],"type":"Point"},"properties":{"osm_id":"5606369799","tag":{"amenity":"waste_basket"}},"type":"Feature"},
	{"geometry":{"coordinates":[-6.391711,53.35617],"type":"Point"},"properties":{"osm_id":"5606369800","tag":{"amenity":"waste_basket"}},"type":"Feature"},
	{"geometry":{"coordinates":[-6.347168,53.342478],"type":"Point"},"properties":{"osm_id":"5622391882","tag":{"amenity":"waste_basket"}},"type":"Feature"},
	{"geometry":{"coordinates":[-6.341955,53.341902],"type":"Point"},"properties":{"osm_id":"5622391892","tag":{"amenity":"waste_basket"}},"type":"Feature"},
	{"geometry":{"coordinates":[-6.338697,53.342568],"type":"Point"},"properties":{"osm_id":"5622391898","tag":{"amenity":"waste_basket"}},"type":"Feature"},
	{"geometry":{"coordinates":[-6.343516,53.348988],"type":"Point"},"properties":{"osm_id":"5693860888","tag":{"amenity":"waste_basket"}},"type":"Feature"},
	{"geometry":{"coordinates":[-6.344468,53.348164],"type":"Point"},"properties":{"osm_id":"5754862769","tag":{"amenity":"waste_basket"}},"type":"Feature"},
	{"geometry":{"coordinates":[-6.335338,53.34108],"type":"Point"},"properties":{"osm_id":"5838769295","tag":{"amenity":"waste_basket"}},"type":"Feature"},
	{"geometry":{"coordinates":[-6.335886,53.340972],"type":"Point"},"properties":{"osm_id":"5838769301","tag":{"amenity":"waste_basket"}},"type":"Feature"},
	{"geometry":{"coordinates":[-6.33472,53.341209],"type":"Point"},"properties":{"osm_id":"5838769302","tag":{"amenity":"waste_basket"}},"type":"Feature"},
	{"geometry":{"coordinates":[-6.344696,53.34949],"type":"Point"},"properties":{"osm_id":"5894812093","tag":{"amenity":"waste_basket"}},"type":"Feature"},
	{"geometry":{"coordinates":[-6.341294,53.347781],"type":"Point"},"properties":{"osm_id":"5917851288","tag":{"amenity":"waste_basket"}},"type":"Feature"},
	{"geometry":{"coordinates":[-6.341517,53.34778],"type":"Point"},"properties":{"osm_id":"5917858585","tag":{"amenity":"waste_basket"}},"type":"Feature"},
	{"geometry":{"coordinates":[-6.351694,53.342262],"type":"Point"},"properties":{"osm_id":"6253910947","tag":{"amenity":"waste_basket"}},"type":"Feature"},
	{"geometry":{"coordinates":[-6.351971,53.342253],"type":"Point"},"properties":{"osm_id":"6253910948","tag":{"amenity":"waste_basket"}},"type":"Feature"},
	{"geometry":{"coordinates":[-6.351417,53.342267],"type":"Point"},"properties":{"osm_id":"6253910949","tag":{"amenity":"waste_basket"}},"type":"Feature"},
	{"geometry":{"coordinates":[-6.351135,53.342255],"type":"Point"},"properties":{"osm_id":"6253910950","tag":{"amenity":"waste_basket"}},"type":"Feature"},
	{"geometry":{"coordinates":[-6.35086,53.342264],"type":"Point"},"properties":{"osm_id":"6253910951","tag":{"amenity":"waste_basket"}},"type":"Feature"},
	{"geometry":{"coordinates":[-6.35256,53.342261],"type":"Point"},"properties":{"osm_id":"6253910952","tag":{"amenity":"waste_basket"}},"type":"Feature"},
	{"geometry":{"coordinates":[-6.352918,53.342275],"type":"Point"},"properties":{"osm_id":"6253910953","tag":{"amenity":"waste_basket"}},"type":"Feature"},
	{"geometry":{"coordinates":[-6.353205,53.342381],"type":"Point"},"properties":{"osm_id":"6253910961","tag":{"amenity":"waste_basket"}},"type":"Feature"},
	{"geometry":{"coordinates":[-6.353079,53.34237],"type":"Point"},"properties":{"osm_id":"6253910962","tag":{"amenity":"waste_basket"}},"type":"Feature"},
	{"geometry":{"coordinates":[-6.353708,53.34234],"type":"Point"},"properties":{"osm_id":"6253910963","tag":{"amenity":"waste_basket"}},"type":"Feature"},
	{"geometry":{"coordinates":[-6.353804,53.342432],"type":"Point"},"properties":{"osm_id":"6253910964","tag":{"amenity":"waste_basket"}},"type":"Feature"},
	{"geometry":{"coordinates":[-6.354072,53.342455],"type":"Point"},"properties":{"osm_id":"6253910965","tag":{"amenity":"waste_basket"}},"type":"Feature"},
	{"geometry":{"coordinates":[-6.35406,53.342362],"type":"Point"},"properties":{"osm_id":"6253910966","tag":{"amenity":"waste_basket"}},"type":"Feature"},
	{"geometry":{"coordinates":[-6.354376,53.342475],"type":"Point"},"properties":{"osm_id":"6253910967","tag":{"amenity":"waste_basket"}},"type":"Feature"},
	{"geometry":{"coordinates":[-6.354441,53.342386],"type":"Point"},"properties":{"osm_id":"6253910969","tag":{"amenity":"waste_basket"}},"type":"Feature"},
	{"geometry":{"coordinates":[-6.352683,53.342353],"type":"Point"},"properties":{"osm_id":"6253910979","tag":{"amenity":"waste_basket"}},"type":"Feature"},
	{"geometry":{"coordinates":[-6.352382,53.342335],"type":"Point"},"properties":{"osm_id":"6253910980","tag":{"amenity":"waste_basket"}},"type":"Feature"},
	{"geometry":{"coordinates":[-6.352116,53.342344],"type":"Point"},"properties":{"osm_id":"6253910983","tag":{"amenity":"waste_basket"}},"type":"Feature"},
	{"geometry":{"coordinates":[-6.351994,53.342342],"type":"Point"},"properties":{"osm_id":"6253910984","tag":{"amenity":"waste_basket"}},"type":"Feature"},
	{"geometry":{"coordinates":[-6.351392,53.342364],"type":"Point"},"properties":{"osm_id":"6253911085","tag":{"amenity":"waste_basket"}},"type":"Feature"},
	{"geometry":{"coordinates":[-6.35118,53.342368],"type":"Point"},"properties":{"osm_id":"6253911086","tag":{"amenity":"waste_basket"}},"type":"Feature"},
	{"geometry":{"coordinates":[-6.350691,53.342379],"type":"Point"},"properties":{"osm_id":"6253911087","tag":{"amenity":"waste_basket"}},"type":"Feature"},
	{"geometry":{"coordinates":[-6.344294,53.349207],"type":"Point"},"properties":{"osm_id":"6299284387","tag":{"amenity":"waste_basket"}},"type":"Feature"},
	{"geometry":{"coordinates":[-6.344511,53.349576],"type":"Point"},"properties":{"osm_id":"6299330285","tag":{"amenity":"waste_basket"}},"type":"Feature"},
	{"geometry":{"coordinates":[-6.351521,53.350848],"type":"Point"},"properties":{"osm_id":"6363690134","ref":"WMS 3286","tag":{"amenity":"waste_basket"}},"type":"Feature"},
	{"geometry":{"coordinates":[-6.352943,53.350159],"type":"Point"},"properties":{"osm_id":"6363710999","ref":"WMS 3415","tag":{"amenity":"waste_basket"}},"type":"Feature"},
	{"geometry":{"coordinates":[-6.399464,53.382488],"type":"Point"},"properties":{"osm_id":"6555373471","tag":{"amenity":"waste_basket","material":"metal"}},"type":"Feature"},
	{"geometry":{"coordinates":[-6.344091,53.349333],"type":"Point"},"properties":{"osm_id":"6661461982","tag":{"amenity":"waste_basket"}},"type":"Feature"},
	{"geometry":{"coordinates":[-6.343535,53.348256],"type":"Point"},"properties":{"osm_id":"6694722985","tag":{"amenity":"waste_basket"}},"type":"Feature"},
	{"geometry":{"coordinates":[-6.366958,53.353903],"type":"Point"},"properties":{"osm_id":"7293431725","tag":{"amenity":"waste_basket","material":"metal"}},"type":"Feature"},
	{"geometry":{"coordinates":[-6.389527,53.380253],"type":"Point"},"properties":{"osm_id":"7381171969","tag":{"amenity":"waste_basket","waste":"dog_excrement"}},"type":"Feature"},
	{"geometry":{"coordinates":[-6.363432,53.370816],"type":"Point"},"properties":{"osm_id":"7490002941","tag":{"amenity":"waste_basket","waste":"dog_excrement"}},"type":"Feature"},
	{"geometry":{"coordinates":[-6.358682,53.375503],"type":"Point"},"properties":{"osm_id":"7541687756","tag":{"amenity":"waste_basket"}},"type":"Feature"},
	{"geometry":{"coordinates":[-6.356023,53.376561],"type":"Point"},"properties":{"osm_id":"7541806613","tag":{"amenity":"waste_basket","waste":"dog_excrement"}},"type":"Feature"},
	{"geometry":{"coordinates":[-6.366454,53.374254],"type":"Point"},"properties":{"osm_id":"7542041224","tag":{"amenity":"waste_basket","waste":"dog_excrement"}},"type":"Feature"}
]
}
