{
"type": "FeatureCollection",
"features": [
	{"geometry":{"coordinates":[-6.373568,53.281615],"type":"Point"},"properties":{"osm_id":"507061510","tag":{"amenity":"recycling","recycling:cans":"yes","recycling:clothes":"yes","recycling:glass":"yes"}},"type":"Feature"},
	{"geometry":{"coordinates":[-6.389473,53.330781],"type":"Point"},"properties":{"name":"Clondalkin Community Recycling Initiative","osm_id":"539821738","tag":{"amenity":"recycling"}},"type":"Feature"},
	{"geometry":{"coordinates":[-6.334657,53.321216],"type":"Point"},"properties":{"osm_id":"565585938","tag":{"amenity":"recycling","recycling:glass":"yes","recycling_type":"container"}},"type":"Feature"},
	{"geometry":{"coordinates":[-6.343481,53.299004],"type":"Point"},"properties":{"osm_id":"715837743","tag":{"amenity":"recycling","operator":"South Dublin County Council","recycling:glass":"yes","recycling:glass_bottles":"yes","recycling:glass_jars":"yes","recycling_type":"container"}},"type":"Feature"},
	{"geometry":{"coordinates":[-6.330194,53.321288],"type":"Point"},"properties":{"osm_id":"989132696","tag":{"amenity":"recycling","recycling:glass":"yes","recycling_type":"container"}},"type":"Feature"},
	{"geometry":{"coordinates":[-6.403777,53.288837],"type":"Point"},"properties":{"osm_id":"4511472997","tag":{"amenity":"waste_basket"}},"type":"Feature"},
	{"geometry":{"coordinates":[-6.337065,53.303557],"type":"Point"},"properties":{"osm_id":"4775226083","tag":{"amenity":"waste_basket"}},"type":"Feature"},
	{"geometry":{"coordinates":[-6.343692,53.304654],"type":"Point"},"properties":{"osm_id":"4775226084","tag":{"amenity":"waste_basket"}},"type":"Feature"},
	{"geometry":{"coordinates":[-6.340201,53.304411],"type":"Point"},"properties":{"osm_id":"4775226085","tag":{"amenity":"waste_basket"}},"type":"Feature"},
	{"geometry":{"coordinates":[-6.337948,53.300908],"type":"Point"},"properties":{"osm_id":"4775226086","tag":{"amenity":"waste_basket"}},"type":"Feature"},
	{"geometry":{"coordinates":[-6.334763,53.298594],"type":"Point"},"properties":{"osm_id":"4775226087","tag":{"amenity":"waste_basket"}},"type":"Feature"},
	{"geometry":{"coordinates":[-6.332416,53.297921],"type":"Point"},"properties":{"osm_id":"4775226088","tag":{"amenity":"waste_basket"}},"type":"Feature"},
	{"geometry":{"coordinates":[-6.329269,53.296783],"type":"Point"},"properties":{"osm_id":"4775226089","tag":{"amenity":"waste_basket"}},"type":"Feature"},
	{"geometry":{"coordinates":[-6.333807,53.304405],"type":"Point"},"properties":{"osm_id":"4777537194","tag":{"amenity":"waste_basket"}},"type":"Feature"},
	{"geometry":{"coordinates":[-6.333831,53.304312],"type":"Point"},"properties":{"osm_id":"4777537195","tag":{"amenity":"waste_basket"}},"type":"Feature"},
	{"geometry":{"coordinates":[-6.379479,53.296216],"type":"Point"},"properties":{"name":"B2B Office Supplies","osm_id":"4781348722","tag":{"amenity":"recycling","name:en":"B2B Office Supplies"}},"type":"Feature"},
	{"geometry":{"coordinates":[-6.344782,53.301351],"type":"Point"},"properties":{"osm_id":"4781806474","tag":{"amenity":"waste_basket"}},"type":"Feature"},
	{"geometry":{"coordinates":[-6.329535,53.294932],"type":"Point"},"properties":{"osm_id":"4781806502","tag":{"amenity":"waste_basket"}},"type":"Feature"},
	{"geometry":{"coordinates":[-6.328147,53.29557],"type":"Point"},"properties":{"osm_id":"4781806505","tag":{"amenity":"waste_basket"}},"type":"Feature"},
	{"geometry":{"coordinates":[-6.347708,53.306286],"type":"Point"},"properties":{"osm_id":"4787104663","tag":{"amenity":"waste_basket"}},"type":"Feature"},
	{"geometry":{"coordinates":[-6.344293,53.299926],"type":"Point"},"properties":{"osm_id":"4787104690","tag":{"amenity":"waste_basket"}},"type":"Feature"},
	{"geometry":{"coordinates":[-6.34395,53.299411],"type":"Point"},"properties":{"osm_id":"4787104692","tag":{"amenity":"waste_basket"}},"type":"Feature"},
	{"geometry":{"coordinates":[-6.337566,53.302588],"type":"Point"},"properties":{"osm_id":"4790624175","tag":{"amenity":"waste_basket"}},"type":"Feature"},
	{"geometry":{"coordinates":[-6.328131,53.295323],"type":"Point"},"properties":{"osm_id":"4790624184","tag":{"amenity":"waste_basket"}},"type":"Feature"},
	{"geometry":{"coordinates":[-6.336863,53.306789],"type":"Point"},"properties":{"osm_id":"4821062395","tag":{"amenity":"waste_basket"}},"type":"Feature"},
	{"geometry":{"coordinates":[-6.336814,53.307071],"type":"Point"},"properties":{"osm_id":"4821062396","tag":{"amenity":"waste_basket"}},"type":"Feature"},
	{"geometry":{"coordinates":[-6.343143,53.305703],"type":"Point"},"properties":{"osm_id":"4821062404","tag":{"amenity":"waste_basket"}},"type":"Feature"},
	{"geometry":{"coordinates":[-6.32922,53.309368],"type":"Point"},"properties":{"osm_id":"4837170600","tag":{"amenity":"waste_basket"}},"type":"Feature"},
	{"geometry":{"coordinates":[-6.331989,53.310194],"type":"Point"},"properties":{"osm_id":"4837170613","tag":{"amenity":"recycling","recycling_type":"container"}},"type":"Feature"},
	{"geometry":{"coordinates":[-6.351419,53.302626],"type":"Point"},"properties":{"osm_id":"4844370000","tag":{"amenity":"waste_basket"}},"type":"Feature"},
	{"geometry":{"coordinates":[-6.34902,53.301997],"type":"Point"},"properties":{"osm_id":"4844370001","tag":{"amenity":"waste_basket"}},"type":"Feature"},
	{"geometry":{"coordinates":[-6.329207,53.321918],"type":"Point"},"properties":{"osm_id":"4913827388","tag":{"amenity":"recycling","recycling:clothes":"yes","recycling_type":"container"}},"type":"Feature"},
	{"geometry":{"coordinates":[-6.329187,53.321911],"type":"Point"},"properties":{"osm_id":"4913827389","tag":{"amenity":"recycling","recycling:clothes":"yes","recycling_type":"container"}},"type":"Feature"},
	{"geometry":{"coordinates":[-6.329228,53.321926],"type":"Point"},"properties":{"osm_id":"4913827390","tag":{"amenity":"recycling","recycling:clothes":"yes","recycling_type":"container"}},"type":"Feature"},
	{"geometry":{"coordinates":[-6.389795,53.321071],"type":"Point"},"properties":{"osm_id":"5541468541","tag":{"amenity":"waste_basket"}},"type":"Feature"},
	{"geometry":{"coordinates":[-6.390662,53.321277],"type":"Point"},"properties":{"osm_id":"5541468542","tag":{"amenity":"waste_basket"}},"type":"Feature"},
	{"geometry":{"coordinates":[-6.390444,53.321232],"type":"Point"},"properties":{"osm_id":"5541468543","tag":{"amenity":"waste_basket"}},"type":"Feature"},
	{"geometry":{"coordinates":[-6.388699,53.32053],"type":"Point"},"properties":{"osm_id":"5541468556","tag":{"amenity":"waste_basket"}},"type":"Feature"},
	{"geometry":{"coordinates":[-6.385623,53.320079],"type":"Point"},"properties":{"osm_id":"5541468570","tag":{"amenity":"waste_basket"}},"type":"Feature"},
	{"geometry":{"coordinates":[-6.3725,53.317992],"type":"Point"},"properties":{"osm_id":"5555177466","tag":{"amenity":"waste_basket"}},"type":"Feature"},
	{"geometry":{"coordinates":[-6.39195,53.314675],"type":"Point"},"properties":{"osm_id":"5602438428","tag":{"amenity":"waste_basket","material":"metal"}},"type":"Feature"},
	{"geometry":{"coordinates":[-6.394599,53.319678],"type":"Point"},"properties":{"osm_id":"5602947271","tag":{"amenity":"waste_basket"}},"type":"Feature"},
	{"geometry":{"coordinates":[-6.334288,53.315977],"type":"Point"},"properties":{"osm_id":"5602983005","tag":{"amenity":"waste_basket"}},"type":"Feature"},
	{"geometry":{"coordinates":[-6.353064,53.300631],"type":"Point"},"properties":{"osm_id":"5602983017","tag":{"amenity":"waste_basket"}},"type":"Feature"},
	{"geometry":{"coordinates":[-6.402452,53.325393],"type":"Point"},"properties":{"osm_id":"5602987336","tag":{"amenity":"waste_basket"}},"type":"Feature"},
	{"geometry":{"coordinates":[-6.340888,53.283105],"type":"Point"},"properties":{"osm_id":"5610476242","tag":{"amenity":"waste_basket"}},"type":"Feature"},
	{"geometry":{"coordinates":[-6.345074,53.280508],"type":"Point"},"properties":{"osm_id":"5610491455","tag":{"amenity":"waste_basket"}},"type":"Feature"},
	{"geometry":{"coordinates":[-6.342281,53.281434],"type":"Point"},"properties":{"osm_id":"5610491456","tag":{"amenity":"waste_basket"}},"type":"Feature"},
	{"geometry":{"coordinates":[-6.360624,53.284595],"type":"Point"},"properties":{"osm_id":"5618791089","tag":{"amenity":"waste_basket"}},"type":"Feature"},
	{"geometry":{"coordinates":[-6.359924,53.284101],"type":"Point"},"properties":{"osm_id":"5618791094","tag":{"amenity":"waste_basket"}},"type":"Feature"},
	{"geometry":{"coordinates":[-6.390984,53.283252],"type":"Point"},"properties":{"osm_id":"5624390275","tag":{"amenity":"waste_basket"}},"type":"Feature"},
	{"geometry":{"coordinates":[-6.389414,53.285998],"type":"Point"},"properties":{"osm_id":"5629406009","tag":{"amenity":"waste_basket"}},"type":"Feature"},
	{"geometry":{"coordinates":[-6.389736,53.285923],"type":"Point"},"properties":{"osm_id":"5629406010","tag":{"amenity":"waste_basket"}},"type":"Feature"},
	{"geometry":{"coordinates":[-6.378672,53.302314],"type":"Point"},"properties":{"osm_id":"5629458732","tag":{"amenity":"waste_basket","material":"metal"}},"type":"Feature"},
	{"geometry":{"coordinates":[-6.378428,53.302275],"type":"Point"},"properties":{"osm_id":"5629458734","tag":{"amenity":"waste_basket"}},"type":"Feature"},
	{"geometry":{"coordinates":[-6.383267,53.287112],"type":"Point"},"properties":{"osm_id":"5629484881","tag":{"amenity":"waste_basket"}},"type":"Feature"},
	{"geometry":{"coordinates":[-6.372892,53.307043],"type":"Point"},"properties":{"osm_id":"5631085237","tag":{"amenity":"waste_basket"}},"type":"Feature"},
	{"geometry":{"coordinates":[-6.372773,53.306934],"type":"Point"},"properties":{"osm_id":"5631085238","tag":{"amenity":"waste_basket"}},"type":"Feature"},
	{"geometry":{"coordinates":[-6.368404,53.307097],"type":"Point"},"properties":{"osm_id":"5631085247","tag":{"amenity":"waste_basket"}},"type":"Feature"},
	{"geometry":{"coordinates":[-6.367596,53.306726],"type":"Point"},"properties":{"osm_id":"5631085248","tag":{"amenity":"waste_basket"}},"type":"Feature"},
	{"geometry":{"coordinates":[-6.367266,53.306361],"type":"Point"},"properties":{"osm_id":"5631110660","tag":{"amenity":"waste_basket"}},"type":"Feature"},
	{"geometry":{"coordinates":[-6.391847,53.313822],"type":"Point"},"properties":{"osm_id":"5653386838","tag":{"amenity":"waste_basket"}},"type":"Feature"},
	{"geometry":{"coordinates":[-6.393909,53.328286],"type":"Point"},"properties":{"osm_id":"5655581804","tag":{"amenity":"waste_basket"}},"type":"Feature"},
	{"geometry":{"coordinates":[-6.397408,53.327466],"type":"Point"},"properties":{"osm_id":"5655581806","tag":{"amenity":"waste_basket"}},"type":"Feature"},
	{"geometry":{"coordinates":[-6.372412,53.285666],"type":"Point"},"properties":{"osm_id":"5683470289","tag":{"amenity":"waste_basket"}},"type":"Feature"},
	{"geometry":{"coordinates":[-6.375068,53.286626],"type":"Point"},"properties":{"osm_id":"5683470523","tag":{"amenity":"waste_basket"}},"type":"Feature"},
	{"geometry":{"coordinates":[-6.40311,53.279495],"type":"Point"},"properties":{"osm_id":"5688233709","tag":{"amenity":"waste_basket"}},"type":"Feature"},
	{"geometry":{"coordinates":[-6.331581,53.279531],"type":"Point"},"properties":{"osm_id":"6025598931","tag":{"amenity":"waste_basket"}},"type":"Feature"},
	{"geometry":{"coordinates":[-6.330441,53.282493],"type":"Point"},"properties":{"osm_id":"6025915389","tag":{"amenity":"waste_basket"}},"type":"Feature"},
	{"geometry":{"coordinates":[-6.373145,53.286118],"type":"Point"},"properties":{"osm_id":"6025988608","tag":{"amenity":"waste_basket"}},"type":"Feature"},
	{"geometry":{"coordinates":[-6.3408,53.282148],"type":"Point"},"properties":{"osm_id":"6051909929","tag":{"amenity":"waste_basket"}},"type":"Feature"},
	{"geometry":{"coordinates":[-6.374827,53.282441],"type":"Point"},"properties":{"osm_id":"6053323063","tag":{"amenity":"waste_basket"}},"type":"Feature"},
	{"geometry":{"coordinates":[-6.374906,53.282835],"type":"Point"},"properties":{"osm_id":"6053323065","tag":{"amenity":"waste_basket"}},"type":"Feature"},
	{"geometry":{"coordinates":[-6.374939,53.282969],"type":"Point"},"properties":{"osm_id":"6053323066","tag":{"amenity":"waste_basket"}},"type":"Feature"},
	{"geometry":{"coordinates":[-6.375152,53.283947],"type":"Point"},"properties":{"osm_id":"6053323067","tag":{"amenity":"waste_basket"}},"type":"Feature"},
	{"geometry":{"coordinates":[-6.349845,53.285178],"type":"Point"},"properties":{"osm_id":"6189593816","tag":{"amenity":"waste_basket","description":"Home of the evil, brown dog.","waste":"dog_excrement"}},"type":"Feature"},
	{"geometry":{"coordinates":[-6.333444,53.316468],"type":"Point"},"properties":{"osm_id":"6205660782","tag":{"amenity":"waste_basket"}},"type":"Feature"},
	{"geometry":{"coordinates":[-6.368275,53.287262],"type":"Point"},"properties":{"osm_id":"6293672033","tag":{"amenity":"waste_basket"}},"type":"Feature"},
	{"geometry":{"coordinates":[-6.367875,53.290105],"type":"Point"},"properties":{"osm_id":"6309075372","tag":{"amenity":"waste_basket"}},"type":"Feature"},
	{"geometry":{"coordinates":[-6.334678,53.306693],"type":"Point"},"properties":{"osm_id":"6388167375","tag":{"amenity":"waste_basket"}},"type":"Feature"},
	{"geometry":{"coordinates":[-6.336992,53.307257],"type":"Point"},"properties":{"osm_id":"6388296840","tag":{"amenity":"waste_basket"}},"type":"Feature"},
	{"geometry":{"coordinates":[-6.330668,53.317156],"type":"Point"},"properties":{"osm_id":"6393348155","tag":{"amenity":"waste_basket"}},"type":"Feature"},
	{"geometry":{"coordinates":[-6.348614,53.28896],"type":"Point"},"properties":{"osm_id":"6424934893","tag":{"amenity":"waste_basket"}},"type":"Feature"},
	{"geometry":{"coordinates":[-6.371482,53.288317],"type":"Point"},"properties":{"osm_id":"6533787554","tag":{"amenity":"recycling","recycling:glass":"yes","recycling_type":"container"}},"type":"Feature"},
	{"geometry":{"coordinates":[-6.357546,53.289238],"type":"Point"},"properties":{"osm_id":"6576967352","tag":{"amenity":"waste_basket","colour":"green","material":"metal","operator":"South Dublin County Council"}},"type":"Feature"},
	{"geometry":{"coordinates":[-6.37034,53.293347],"type":"Point"},"properties":{"osm_id":"6620959524","tag":{"amenity":"waste_basket"}},"type":"Feature"},
	{"geometry":{"coordinates":[-6.370769,53.293306],"type":"Point"},"properties":{"osm_id":"6620974246","tag":{"amenity":"waste_basket"}},"type":"Feature"},
	{"geometry":{"coordinates":[-6.333683,53.329501],"type":"Point"},"properties":{"osm_id":"7252820063","tag":{"amenity":"waste_basket","material":"metal"}},"type":"Feature"},
	{"geometry":{"coordinates":[-6.358128,53.320943],"type":"Point"},"properties":{"osm_id":"7396184069","tag":{"amenity":"waste_basket"}},"type":"Feature"},
	{"geometry":{"coordinates":[-6.358028,53.321163],"type":"Point"},"properties":{"osm_id":"7396184070","tag":{"amenity":"waste_basket"}},"type":"Feature"},
	{"geometry":{"coordinates":[-6.357959,53.321182],"type":"Point"},"properties":{"osm_id":"7396184071","tag":{"amenity":"waste_basket"}},"type":"Feature"},
	{"geometry":{"coordinates":[-6.346372,53.299468],"type":"Point"},"properties":{"osm_id":"7523771244","tag":{"amenity":"waste_basket"}},"type":"Feature"},
	{"geometry":{"coordinates":[-6.340892,53.295918],"type":"Point"},"properties":{"osm_id":"7523771248","tag":{"amenity":"waste_basket"}},"type":"Feature"},
	{"geometry":{"coordinates":[-6.341243,53.295131],"type":"Point"},"properties":{"osm_id":"7523771253","tag":{"amenity":"waste_basket"}},"type":"Feature"},
	{"geometry":{"coordinates":[-6.342664,53.293007],"type":"Point"},"properties":{"osm_id":"7523771255","tag":{"amenity":"waste_basket"}},"type":"Feature"},
	{"geometry":{"coordinates":[-6.343408,53.290634],"type":"Point"},"properties":{"osm_id":"7523771267","tag":{"amenity":"waste_basket"}},"type":"Feature"},
	{"geometry":{"coordinates":[-6.341028,53.289751],"type":"Point"},"properties":{"osm_id":"7523796911","tag":{"amenity":"waste_basket"}},"type":"Feature"},
	{"geometry":{"coordinates":[-6.339474,53.289112],"type":"Point"},"properties":{"osm_id":"7523796915","tag":{"amenity":"waste_basket"}},"type":"Feature"},
	{"geometry":{"coordinates":[-6.342062,53.325688],"type":"Point"},"properties":{"osm_id":"7581115200","tag":{"amenity":"waste_basket"}},"type":"Feature"},
	{"geometry":{"coordinates":[-6.339432,53.321437],"type":"Point"},"properties":{"osm_id":"7581115257","tag":{"amenity":"waste_basket"}},"type":"Feature"},
	{"geometry":{"coordinates":[-6.336314,53.319129],"type":"Point"},"properties":{"osm_id":"7581115267","tag":{"amenity":"waste_basket"}},"type":"Feature"},
	{"geometry":{"coordinates":[-6.334971,53.318221],"type":"Point"},"properties":{"osm_id":"7581115270","tag":{"amenity":"waste_basket"}},"type":"Feature"},
	{"geometry":{"coordinates":[-6.37632,53.318475],"type":"Point"},"properties":{"osm_id":"7613037057","tag":{"amenity":"waste_basket","material":"metal"}},"type":"Feature"},
	{"geometry":{"coordinates":[-6.388976,53.320536],"type":"Point"},"properties":{"osm_id":"7614673847","tag":{"amenity":"waste_basket"}},"type":"Feature"},
	{"geometry":{"coordinates":[-6.344963,53.329493],"type":"Point"},"properties":{"osm_id":"7643890560","tag":{"amenity":"waste_basket"}},"type":"Feature"},
	{"geometry":{"coordinates":[-6.354501,53.295684],"type":"Point"},"properties":{"osm_id":"7674310638","tag":{"amenity":"waste_basket"}},"type":"Feature"},
	{"geometry":{"coordinates":[-6.347945,53.310731],"type":"Point"},"properties":{"barrier":"gate","osm_id":"7713886219","tag":{"access":"permissive"}},"type":"Feature"}
]
}
