{
"type": "FeatureCollection",
"features": [
	{"geometry":{"coordinates":[-6.33358,40.705353],"type":"Point"},"properties":{"osm_id":"8338953492","tag":{"amenity":"recycling","opening_hours":"24/7","opening_hours:covid19":"same","recycling:paper":"yes","recycling:plastic":"yes","recycling:waste":"yes","recycling_type":"container"}},"type":"Feature"},
	{"geometry":{"coordinates":[-6.334345,40.705307],"type":"Point"},"properties":{"osm_id":"8338956851","tag":{"access":"yes","amenity":"waste_disposal","waste":"organic"}},"type":"Feature"},
	{"geometry":{"coordinates":[-6.333756,40.704872],"type":"Point"},"properties":{"osm_id":"8338970834","tag":{"access":"yes","amenity":"waste_disposal","waste":"organic"}},"type":"Feature"},
	{"geometry":{"coordinates":[-6.3345,40.705498],"type":"Point"},"properties":{"osm_id":"8338970835","tag":{"amenity":"recycling","opening_hours":"24/7","opening_hours:covid19":"same","recycling:glass_bottles":"yes","recycling_type":"container"}},"type":"Feature"}
]
}
