{
"type": "FeatureCollection",
"features": [
	{"geometry":{"coordinates":[-6.357376,40.498021],"type":"Point"},"properties":{"osm_id":"6318132338","tag":{"amenity":"recycling","recycling:plastic":"yes","recycling:plastic_bottles":"yes","recycling_type":"container"}},"type":"Feature"},
	{"geometry":{"coordinates":[-6.357412,40.498009],"type":"Point"},"properties":{"osm_id":"6318132339","tag":{"amenity":"recycling","recycling:paper":"yes","recycling_type":"container"}},"type":"Feature"},
	{"geometry":{"coordinates":[-6.355622,40.501061],"type":"Point"},"properties":{"osm_id":"6318132353","tag":{"amenity":"recycling","recycling:plastic":"yes","recycling:plastic_bottles":"yes","recycling_type":"container"}},"type":"Feature"},
	{"geometry":{"coordinates":[-6.355604,40.50105],"type":"Point"},"properties":{"osm_id":"6318132354","tag":{"amenity":"recycling","recycling:glass_bottles":"yes","recycling_type":"container"}},"type":"Feature"},
	{"geometry":{"coordinates":[-6.355588,40.501037],"type":"Point"},"properties":{"osm_id":"6318132355","tag":{"amenity":"recycling","recycling:paper":"yes","recycling_type":"container"}},"type":"Feature"},
	{"geometry":{"coordinates":[-6.412992,40.502914],"type":"Point"},"properties":{"osm_id":"6320630256","tag":{"amenity":"waste_disposal"}},"type":"Feature"},
	{"geometry":{"coordinates":[-6.413274,40.501397],"type":"Point"},"properties":{"osm_id":"6320630257","tag":{"amenity":"waste_disposal"}},"type":"Feature"},
	{"geometry":{"coordinates":[-6.4128,40.501963],"type":"Point"},"properties":{"osm_id":"6320630281","tag":{"amenity":"waste_disposal"}},"type":"Feature"},
	{"geometry":{"coordinates":[-6.415843,40.502278],"type":"Point"},"properties":{"osm_id":"6320661558","tag":{"amenity":"waste_disposal"}},"type":"Feature"},
	{"geometry":{"coordinates":[-6.415004,40.501914],"type":"Point"},"properties":{"osm_id":"6320661563","tag":{"amenity":"waste_disposal"}},"type":"Feature"},
	{"geometry":{"coordinates":[-6.415038,40.501961],"type":"Point"},"properties":{"osm_id":"6320661564","tag":{"amenity":"waste_disposal"}},"type":"Feature"},
	{"geometry":{"coordinates":[-6.415015,40.501937],"type":"Point"},"properties":{"osm_id":"6320661565","tag":{"amenity":"recycling","recycling:glass_bottles":"yes","recycling_type":"container"}},"type":"Feature"},
	{"geometry":{"coordinates":[-6.414473,40.50215],"type":"Point"},"properties":{"osm_id":"6320661569","tag":{"amenity":"recycling","recycling:paper":"yes","recycling_type":"container"}},"type":"Feature"},
	{"geometry":{"coordinates":[-6.414483,40.502163],"type":"Point"},"properties":{"osm_id":"6320661570","tag":{"amenity":"recycling","recycling:plastic":"yes","recycling:plastic_bottles":"yes","recycling_type":"container"}},"type":"Feature"},
	{"geometry":{"coordinates":[-6.41531,40.503166],"type":"Point"},"properties":{"osm_id":"6320668304","tag":{"amenity":"waste_disposal"}},"type":"Feature"},
	{"geometry":{"coordinates":[-6.414767,40.503743],"type":"Point"},"properties":{"osm_id":"6320683989","tag":{"amenity":"waste_disposal"}},"type":"Feature"}
]
}
