{
"type": "FeatureCollection",
"lastupdate": "2020-07-31T00:00:00Z",
"features": [
	{"geometry":{"coordinates":[-122.676405,49.127729],"type":"Point"},"properties":{"osm_id":"3008143695","tag":{"amenity":"waste_basket"}},"type":"Feature"},
	{"geometry":{"coordinates":[-122.678822,49.111659],"type":"Point"},"properties":{"name":"Willowbrook Recycling Inc.","osm_id":"5642902121","tag":{"amenity":"recycling","opening_hours":"Mo-Su 09:00-16:45","recycling:beverage_cartons":"yes","recycling:cans":"yes","recycling:small_appliances":"yes","recycling_type":"centre","website":"https://willowbrookrecycling.com"}},"type":"Feature"},
	{"geometry":{"coordinates":[-122.671091,49.127383],"type":"Point"},"properties":{"osm_id":"5670149351","tag":{"amenity":"waste_basket","waste":"trash"}},"type":"Feature"},
	{"geometry":{"coordinates":[-122.6711,49.128124],"type":"Point"},"properties":{"osm_id":"5670149353","tag":{"amenity":"waste_basket","waste":"trash"}},"type":"Feature"},
	{"geometry":{"coordinates":[-122.671035,49.129817],"type":"Point"},"properties":{"osm_id":"5670149355","tag":{"amenity":"waste_basket","waste":"trash"}},"type":"Feature"},
	{"geometry":{"coordinates":[-122.671018,49.121019],"type":"Point"},"properties":{"osm_id":"5712452791","tag":{"amenity":"waste_basket","waste":"trash"}},"type":"Feature"},
	{"geometry":{"coordinates":[-122.660725,49.112265],"type":"Point"},"properties":{"name":"Maple leaf disposal","osm_id":"5808930153","tag":{"amenity":"recycling"}},"type":"Feature"},
	{"geometry":{"coordinates":[-122.652905,49.102979],"type":"Point"},"properties":{"osm_id":"5820268018","tag":{"amenity":"recycling","waste":"cigarettes"}},"type":"Feature"},
	{"geometry":{"coordinates":[-122.673123,49.121337],"type":"Point"},"properties":{"osm_id":"6877766001","tag":{"amenity":"waste_basket","waste":"trash"}},"type":"Feature"},
	{"geometry":{"coordinates":[-122.673007,49.120353],"type":"Point"},"properties":{"osm_id":"6877766002","tag":{"amenity":"waste_basket","waste":"trash"}},"type":"Feature"},
	{"geometry":{"coordinates":[-122.672108,49.120057],"type":"Point"},"properties":{"osm_id":"6877766008","tag":{"amenity":"waste_basket","waste":"trash"}},"type":"Feature"},
	{"geometry":{"coordinates":[-122.671323,49.119801],"type":"Point"},"properties":{"osm_id":"6903936647","tag":{"amenity":"waste_basket","colour":"green","material":"metal"}},"type":"Feature"},
	{"geometry":{"coordinates":[-122.664771,49.108857],"type":"Point"},"properties":{"name":"Langley Bottle Depot","osm_id":"7205125749","tag":{"amenity":"recycling","opening_hours":"Mo-Fr 08:30-17:15, Sa 08:00-16:15, Su 09:00-16:15","operator":"Encorp","recycling_type":"centre","website":"https://langleybottledepot.business.site"}},"type":"Feature"},
	{"geometry":{"coordinates":[-122.675307,49.108393],"type":"Point"},"properties":{"name":"West Coast Metal Recycling","osm_id":"7205129255","tag":{"amenity":"recycling","opening_hours":"Tu-Fr 08:00-17:00","recycling:scrap_metal":"yes","recycling_type":"centre","website":"https://www.westcoastmetalrecycling.com"}},"type":"Feature"},
	{"geometry":{"coordinates":[-122.670816,49.123385],"type":"Point"},"properties":{"osm_id":"7368425304","tag":{"amenity":"waste_basket","material":"metal","waste":"trash"}},"type":"Feature"}
]
}
