{
"type": "FeatureCollection",
"features": [
	{"geometry":{"coordinates":[-122.62108,45.569262],"type":"Point"},"properties":{"highway":"turning_circle","osm_id":"40617451"},"type":"Feature"},
	{"geometry":{"coordinates":[-122.611359,45.53063],"type":"Point"},"properties":{"osm_id":"1235279886","tag":{"amenity":"waste_basket"}},"type":"Feature"},
	{"geometry":{"coordinates":[-122.675509,45.523705],"type":"Point"},"properties":{"osm_id":"3292001374","tag":{"amenity":"waste_basket"}},"type":"Feature"},
	{"geometry":{"coordinates":[-122.675573,45.523849],"type":"Point"},"properties":{"osm_id":"3292001385","tag":{"amenity":"waste_basket"}},"type":"Feature"},
	{"geometry":{"coordinates":[-122.675375,45.523919],"type":"Point"},"properties":{"osm_id":"3292001397","tag":{"amenity":"waste_basket"}},"type":"Feature"},
	{"geometry":{"coordinates":[-122.685406,45.525085],"type":"Point"},"properties":{"osm_id":"3293105244","tag":{"amenity":"waste_basket"}},"type":"Feature"},
	{"geometry":{"coordinates":[-122.683034,45.523619],"type":"Point"},"properties":{"osm_id":"3293195901","tag":{"amenity":"waste_basket"}},"type":"Feature"},
	{"geometry":{"coordinates":[-122.631302,45.536531],"type":"Point"},"properties":{"osm_id":"3402963874","tag":{"amenity":"waste_basket","material":"steel","waste":"trash"}},"type":"Feature"},
	{"geometry":{"coordinates":[-122.628434,45.540429],"type":"Point"},"properties":{"osm_id":"3447867780","tag":{"amenity":"waste_basket"}},"type":"Feature"},
	{"geometry":{"coordinates":[-122.627586,45.540862],"type":"Point"},"properties":{"osm_id":"3447867781","tag":{"amenity":"waste_basket"}},"type":"Feature"},
	{"geometry":{"coordinates":[-122.665861,45.528327],"type":"Point"},"properties":{"osm_id":"3451072081","tag":{"amenity":"waste_basket"}},"type":"Feature"},
	{"geometry":{"coordinates":[-122.61936,45.536538],"type":"Point"},"properties":{"osm_id":"3463825248","tag":{"amenity":"waste_basket"}},"type":"Feature"},
	{"geometry":{"coordinates":[-122.620088,45.536588],"type":"Point"},"properties":{"osm_id":"3463825249","tag":{"amenity":"waste_basket"}},"type":"Feature"},
	{"geometry":{"coordinates":[-122.683102,45.525856],"type":"Point"},"properties":{"osm_id":"3476998684","tag":{"amenity":"waste_basket"}},"type":"Feature"},
	{"geometry":{"coordinates":[-122.683388,45.525847],"type":"Point"},"properties":{"osm_id":"3476999397","tag":{"amenity":"waste_basket"}},"type":"Feature"},
	{"geometry":{"coordinates":[-122.681995,45.525767],"type":"Point"},"properties":{"osm_id":"3477026759","tag":{"amenity":"waste_basket"}},"type":"Feature"},
	{"geometry":{"coordinates":[-122.681313,45.52912],"type":"Point"},"properties":{"osm_id":"3477205819","tag":{"amenity":"waste_basket"}},"type":"Feature"},
	{"geometry":{"coordinates":[-122.681045,45.526603],"type":"Point"},"properties":{"osm_id":"3477205821","tag":{"amenity":"waste_basket"}},"type":"Feature"},
	{"geometry":{"coordinates":[-122.681236,45.528389],"type":"Point"},"properties":{"osm_id":"3477205822","tag":{"amenity":"waste_basket"}},"type":"Feature"},
	{"geometry":{"coordinates":[-122.681284,45.529569],"type":"Point"},"properties":{"osm_id":"3477205828","tag":{"amenity":"waste_basket"}},"type":"Feature"},
	{"geometry":{"coordinates":[-122.6822,45.528758],"type":"Point"},"properties":{"osm_id":"3477214647","tag":{"amenity":"waste_basket"}},"type":"Feature"},
	{"geometry":{"coordinates":[-122.681483,45.528768],"type":"Point"},"properties":{"osm_id":"3477214649","tag":{"amenity":"waste_basket"}},"type":"Feature"},
	{"geometry":{"coordinates":[-122.682411,45.528781],"type":"Point"},"properties":{"osm_id":"3477214650","tag":{"amenity":"waste_basket"}},"type":"Feature"},
	{"geometry":{"coordinates":[-122.677332,45.521747],"type":"Point"},"properties":{"osm_id":"3492633651","tag":{"amenity":"recycling","recycling:cans":"yes","recycling:glass_bottles":"yes","recycling:paper":"yes","recycling:plastic_bottles":"yes","recycling_type":"container"}},"type":"Feature"},
	{"geometry":{"coordinates":[-122.681221,45.523829],"type":"Point"},"properties":{"osm_id":"3498112780","tag":{"amenity":"waste_basket"}},"type":"Feature"},
	{"geometry":{"coordinates":[-122.681244,45.524332],"type":"Point"},"properties":{"osm_id":"3498112788","tag":{"amenity":"waste_basket"}},"type":"Feature"},
	{"geometry":{"coordinates":[-122.629884,45.540592],"type":"Point"},"properties":{"osm_id":"3577322470","tag":{"amenity":"waste_basket"}},"type":"Feature"},
	{"geometry":{"coordinates":[-122.681894,45.52505],"type":"Point"},"properties":{"osm_id":"3601494331","tag":{"amenity":"waste_basket"}},"type":"Feature"},
	{"geometry":{"coordinates":[-122.681302,45.525723],"type":"Point"},"properties":{"osm_id":"3647941404","tag":{"amenity":"waste_basket"}},"type":"Feature"},
	{"geometry":{"coordinates":[-122.657024,45.528741],"type":"Point"},"properties":{"osm_id":"3662460812","tag":{"amenity":"waste_basket"}},"type":"Feature"},
	{"geometry":{"coordinates":[-122.657557,45.528944],"type":"Point"},"properties":{"osm_id":"3662460817","tag":{"amenity":"waste_basket"}},"type":"Feature"},
	{"geometry":{"coordinates":[-122.657573,45.529933],"type":"Point"},"properties":{"osm_id":"3662461953","tag":{"amenity":"waste_basket"}},"type":"Feature"},
	{"geometry":{"coordinates":[-122.657674,45.529936],"type":"Point"},"properties":{"osm_id":"3662461954","tag":{"amenity":"waste_basket"}},"type":"Feature"},
	{"geometry":{"coordinates":[-122.653,45.530409],"type":"Point"},"properties":{"osm_id":"3662461966","tag":{"amenity":"waste_basket"}},"type":"Feature"},
	{"geometry":{"coordinates":[-122.675684,45.549978],"type":"Point"},"properties":{"osm_id":"3666083650","tag":{"amenity":"waste_basket"}},"type":"Feature"},
	{"geometry":{"coordinates":[-122.656357,45.530118],"type":"Point"},"properties":{"osm_id":"3672891951","tag":{"amenity":"waste_basket"}},"type":"Feature"},
	{"geometry":{"coordinates":[-122.649385,45.532346],"type":"Point"},"properties":{"osm_id":"3673818380","tag":{"amenity":"waste_basket"}},"type":"Feature"},
	{"geometry":{"coordinates":[-122.673868,45.562801],"type":"Point"},"properties":{"osm_id":"3675969727","tag":{"amenity":"waste_basket"}},"type":"Feature"},
	{"geometry":{"coordinates":[-122.674803,45.562754],"type":"Point"},"properties":{"osm_id":"3676564669","tag":{"amenity":"waste_basket"}},"type":"Feature"},
	{"geometry":{"coordinates":[-122.675214,45.523204],"type":"Point"},"properties":{"osm_id":"3678295138","tag":{"amenity":"waste_basket"}},"type":"Feature"},
	{"geometry":{"coordinates":[-122.675481,45.523252],"type":"Point"},"properties":{"osm_id":"3678295143","tag":{"amenity":"recycling","recycling:cans":"yes","recycling:paper":"yes","recycling:plastic_bottles":"yes","recycling_type":"container"}},"type":"Feature"},
	{"geometry":{"coordinates":[-122.675499,45.523252],"type":"Point"},"properties":{"osm_id":"3678295144","tag":{"amenity":"waste_basket"}},"type":"Feature"},
	{"geometry":{"coordinates":[-122.67536,45.523254],"type":"Point"},"properties":{"osm_id":"3678295145","tag":{"amenity":"waste_basket"}},"type":"Feature"},
	{"geometry":{"coordinates":[-122.67536,45.523267],"type":"Point"},"properties":{"osm_id":"3678295146","tag":{"amenity":"recycling","recycling:cans":"yes","recycling:paper":"yes","recycling:plastic_bottles":"yes","recycling_type":"container"}},"type":"Feature"},
	{"geometry":{"coordinates":[-122.676408,45.523651],"type":"Point"},"properties":{"osm_id":"3678295167","tag":{"amenity":"recycling","recycling:cans":"yes","recycling:paper":"yes","recycling:plastic_bottles":"yes","recycling_type":"container"}},"type":"Feature"},
	{"geometry":{"coordinates":[-122.676381,45.523653],"type":"Point"},"properties":{"osm_id":"3678295168","tag":{"amenity":"waste_basket"}},"type":"Feature"},
	{"geometry":{"coordinates":[-122.675384,45.523681],"type":"Point"},"properties":{"osm_id":"3678295172","tag":{"amenity":"recycling","recycling:cans":"yes","recycling:paper":"yes","recycling:plastic_bottles":"yes","recycling_type":"container"}},"type":"Feature"},
	{"geometry":{"coordinates":[-122.674516,45.523692],"type":"Point"},"properties":{"osm_id":"3678295173","tag":{"amenity":"waste_basket"}},"type":"Feature"},
	{"geometry":{"coordinates":[-122.675388,45.523696],"type":"Point"},"properties":{"osm_id":"3678295174","tag":{"amenity":"waste_basket"}},"type":"Feature"},
	{"geometry":{"coordinates":[-122.675485,45.523704],"type":"Point"},"properties":{"osm_id":"3678295176","tag":{"amenity":"recycling","recycling:cans":"yes","recycling:paper":"yes","recycling:plastic_bottles":"yes","recycling_type":"container"}},"type":"Feature"},
	{"geometry":{"coordinates":[-122.675591,45.523847],"type":"Point"},"properties":{"osm_id":"3678295187","tag":{"amenity":"recycling","recycling:cans":"yes","recycling:paper":"yes","recycling:plastic_bottles":"yes","recycling_type":"container"}},"type":"Feature"},
	{"geometry":{"coordinates":[-122.675393,45.523917],"type":"Point"},"properties":{"osm_id":"3678295189","tag":{"amenity":"recycling","recycling:cans":"yes","recycling:paper":"yes","recycling:plastic_bottles":"yes","recycling_type":"container"}},"type":"Feature"},
	{"geometry":{"coordinates":[-122.675531,45.524364],"type":"Point"},"properties":{"osm_id":"3678295202","tag":{"amenity":"recycling","recycling:cans":"yes","recycling:paper":"yes","recycling:plastic_bottles":"yes","recycling_type":"container"}},"type":"Feature"},
	{"geometry":{"coordinates":[-122.675531,45.524376],"type":"Point"},"properties":{"osm_id":"3678295203","tag":{"amenity":"waste_basket"}},"type":"Feature"},
	{"geometry":{"coordinates":[-122.675393,45.524407],"type":"Point"},"properties":{"osm_id":"3678295205","tag":{"amenity":"waste_basket"}},"type":"Feature"},
	{"geometry":{"coordinates":[-122.675393,45.524417],"type":"Point"},"properties":{"osm_id":"3678295207","tag":{"amenity":"recycling","recycling:cans":"yes","recycling:paper":"yes","recycling:plastic_bottles":"yes","recycling_type":"container"}},"type":"Feature"},
	{"geometry":{"coordinates":[-122.682055,45.523101],"type":"Point"},"properties":{"osm_id":"3681395007","tag":{"amenity":"waste_basket"}},"type":"Feature"},
	{"geometry":{"coordinates":[-122.682377,45.523052],"type":"Point"},"properties":{"osm_id":"3682785822","tag":{"amenity":"recycling","recycling:cans":"yes","recycling:glass_bottles":"yes","recycling:paper":"yes","recycling:plastic_bottles":"yes","recycling_type":"container"}},"type":"Feature"},
	{"geometry":{"coordinates":[-122.682367,45.523052],"type":"Point"},"properties":{"osm_id":"3682785823","tag":{"amenity":"waste_basket"}},"type":"Feature"},
	{"geometry":{"coordinates":[-122.683033,45.523626],"type":"Point"},"properties":{"osm_id":"3682791245","tag":{"amenity":"recycling","recycling:cans":"yes","recycling:glass_bottles":"yes","recycling:paper":"yes","recycling:plastic_bottles":"yes","recycling_type":"container"}},"type":"Feature"},
	{"geometry":{"coordinates":[-122.683439,45.523034],"type":"Point"},"properties":{"osm_id":"3683239567","tag":{"amenity":"waste_basket"}},"type":"Feature"},
	{"geometry":{"coordinates":[-122.683452,45.523035],"type":"Point"},"properties":{"osm_id":"3683239568","tag":{"amenity":"recycling","recycling:cans":"yes","recycling:glass_bottles":"yes","recycling:paper":"yes","recycling:plastic_bottles":"yes","recycling_type":"container"}},"type":"Feature"},
	{"geometry":{"coordinates":[-122.683211,45.523067],"type":"Point"},"properties":{"osm_id":"3683239572","tag":{"amenity":"waste_basket"}},"type":"Feature"},
	{"geometry":{"coordinates":[-122.683223,45.523068],"type":"Point"},"properties":{"osm_id":"3683239573","tag":{"amenity":"recycling","recycling:cans":"yes","recycling:glass_bottles":"yes","recycling:paper":"yes","recycling:plastic_bottles":"yes","recycling_type":"container"}},"type":"Feature"},
	{"geometry":{"coordinates":[-122.683388,45.523624],"type":"Point"},"properties":{"osm_id":"3683239586","tag":{"amenity":"waste_basket"}},"type":"Feature"},
	{"geometry":{"coordinates":[-122.683402,45.523624],"type":"Point"},"properties":{"osm_id":"3683239588","tag":{"amenity":"recycling","recycling:cans":"yes","recycling:glass_bottles":"yes","recycling:paper":"yes","recycling:plastic_bottles":"yes","recycling_type":"container"}},"type":"Feature"},
	{"geometry":{"coordinates":[-122.632442,45.535053],"type":"Point"},"properties":{"osm_id":"3686316612","tag":{"amenity":"waste_basket"}},"type":"Feature"},
	{"geometry":{"coordinates":[-122.63242,45.534896],"type":"Point"},"properties":{"osm_id":"3686316615","tag":{"amenity":"waste_basket"}},"type":"Feature"},
	{"geometry":{"coordinates":[-122.631818,45.536538],"type":"Point"},"properties":{"osm_id":"3692114184","tag":{"amenity":"waste_basket","material":"steel","waste":"trash"}},"type":"Feature"},
	{"geometry":{"coordinates":[-122.630564,45.535715],"type":"Point"},"properties":{"osm_id":"3693984869","tag":{"amenity":"waste_basket"}},"type":"Feature"},
	{"geometry":{"coordinates":[-122.685392,45.52659],"type":"Point"},"properties":{"osm_id":"3697673630","tag":{"amenity":"waste_basket"}},"type":"Feature"},
	{"geometry":{"coordinates":[-122.684064,45.526545],"type":"Point"},"properties":{"osm_id":"3697905248","tag":{"amenity":"waste_basket"}},"type":"Feature"},
	{"geometry":{"coordinates":[-122.678266,45.522132],"type":"Point"},"properties":{"osm_id":"3734911762","tag":{"amenity":"waste_basket"}},"type":"Feature"},
	{"geometry":{"coordinates":[-122.677667,45.522862],"type":"Point"},"properties":{"osm_id":"3734911804","tag":{"amenity":"waste_basket"}},"type":"Feature"},
	{"geometry":{"coordinates":[-122.672248,45.523917],"type":"Point"},"properties":{"osm_id":"3736820733","tag":{"amenity":"waste_basket"}},"type":"Feature"},
	{"geometry":{"coordinates":[-122.671183,45.523921],"type":"Point"},"properties":{"osm_id":"3736820736","tag":{"amenity":"waste_basket"}},"type":"Feature"},
	{"geometry":{"coordinates":[-122.671646,45.523928],"type":"Point"},"properties":{"osm_id":"3736820738","tag":{"amenity":"waste_basket"}},"type":"Feature"},
	{"geometry":{"coordinates":[-122.682241,45.528007],"type":"Point"},"properties":{"osm_id":"3736917439","tag":{"amenity":"waste_basket"}},"type":"Feature"},
	{"geometry":{"coordinates":[-122.681279,45.525235],"type":"Point"},"properties":{"osm_id":"3738142624","tag":{"amenity":"waste_basket"}},"type":"Feature"},
	{"geometry":{"coordinates":[-122.681145,45.525715],"type":"Point"},"properties":{"osm_id":"3738142639","tag":{"amenity":"waste_basket"}},"type":"Feature"},
	{"geometry":{"coordinates":[-122.620812,45.53565],"type":"Point"},"properties":{"osm_id":"3756713775","tag":{"amenity":"waste_basket"}},"type":"Feature"},
	{"geometry":{"coordinates":[-122.621104,45.535702],"type":"Point"},"properties":{"osm_id":"3756713778","tag":{"amenity":"waste_basket"}},"type":"Feature"},
	{"geometry":{"coordinates":[-122.68328,45.528752],"type":"Point"},"properties":{"osm_id":"3780436044","tag":{"amenity":"waste_basket"}},"type":"Feature"},
	{"geometry":{"coordinates":[-122.682178,45.529305],"type":"Point"},"properties":{"osm_id":"3780436266","tag":{"amenity":"waste_basket"}},"type":"Feature"},
	{"geometry":{"coordinates":[-122.6833,45.529308],"type":"Point"},"properties":{"osm_id":"3780436267","tag":{"amenity":"waste_basket"}},"type":"Feature"},
	{"geometry":{"coordinates":[-122.68294,45.530013],"type":"Point"},"properties":{"osm_id":"3780436298","tag":{"amenity":"waste_basket"}},"type":"Feature"},
	{"geometry":{"coordinates":[-122.682934,45.530143],"type":"Point"},"properties":{"osm_id":"3780436304","tag":{"amenity":"waste_basket"}},"type":"Feature"},
	{"geometry":{"coordinates":[-122.684698,45.529974],"type":"Point"},"properties":{"osm_id":"3787099204","tag":{"amenity":"waste_basket"}},"type":"Feature"},
	{"geometry":{"coordinates":[-122.684741,45.529974],"type":"Point"},"properties":{"osm_id":"3787099205","tag":{"amenity":"waste_basket"}},"type":"Feature"},
	{"geometry":{"coordinates":[-122.68401,45.530009],"type":"Point"},"properties":{"osm_id":"3787099214","tag":{"amenity":"waste_basket"}},"type":"Feature"},
	{"geometry":{"coordinates":[-122.685313,45.530094],"type":"Point"},"properties":{"osm_id":"3787099219","tag":{"amenity":"waste_basket"}},"type":"Feature"},
	{"geometry":{"coordinates":[-122.684886,45.530104],"type":"Point"},"properties":{"osm_id":"3787099222","tag":{"amenity":"waste_basket"}},"type":"Feature"},
	{"geometry":{"coordinates":[-122.683829,45.530121],"type":"Point"},"properties":{"osm_id":"3787099230","tag":{"amenity":"waste_basket"}},"type":"Feature"},
	{"geometry":{"coordinates":[-122.685308,45.530242],"type":"Point"},"properties":{"osm_id":"3787099256","tag":{"amenity":"waste_basket"}},"type":"Feature"},
	{"geometry":{"coordinates":[-122.681526,45.530157],"type":"Point"},"properties":{"osm_id":"3798944109","tag":{"amenity":"waste_basket"}},"type":"Feature"},
	{"geometry":{"coordinates":[-122.680855,45.530177],"type":"Point"},"properties":{"osm_id":"3798944116","tag":{"amenity":"waste_basket"}},"type":"Feature"},
	{"geometry":{"coordinates":[-122.680196,45.530218],"type":"Point"},"properties":{"osm_id":"3798944127","tag":{"amenity":"waste_basket"}},"type":"Feature"},
	{"geometry":{"coordinates":[-122.678408,45.530241],"type":"Point"},"properties":{"osm_id":"3798944132","tag":{"amenity":"waste_basket"}},"type":"Feature"},
	{"geometry":{"coordinates":[-122.681342,45.530718],"type":"Point"},"properties":{"osm_id":"3798944215","tag":{"amenity":"waste_basket"}},"type":"Feature"},
	{"geometry":{"coordinates":[-122.680302,45.530747],"type":"Point"},"properties":{"osm_id":"3798944223","tag":{"amenity":"waste_basket"}},"type":"Feature"},
	{"geometry":{"coordinates":[-122.684124,45.525726],"type":"Point"},"properties":{"osm_id":"3807892781","tag":{"amenity":"waste_basket"}},"type":"Feature"},
	{"geometry":{"coordinates":[-122.682383,45.526474],"type":"Point"},"properties":{"osm_id":"3807892797","tag":{"amenity":"waste_basket"}},"type":"Feature"},
	{"geometry":{"coordinates":[-122.68218,45.526624],"type":"Point"},"properties":{"osm_id":"3807892803","tag":{"amenity":"waste_basket"}},"type":"Feature"},
	{"geometry":{"coordinates":[-122.683219,45.527119],"type":"Point"},"properties":{"osm_id":"3807892816","tag":{"amenity":"waste_basket"}},"type":"Feature"},
	{"geometry":{"coordinates":[-122.682207,45.527146],"type":"Point"},"properties":{"osm_id":"3807892818","tag":{"amenity":"waste_basket"}},"type":"Feature"},
	{"geometry":{"coordinates":[-122.683248,45.527898],"type":"Point"},"properties":{"osm_id":"3807892867","tag":{"amenity":"waste_basket"}},"type":"Feature"},
	{"geometry":{"coordinates":[-122.694477,45.52979],"type":"Point"},"properties":{"osm_id":"3840020985","tag":{"amenity":"waste_basket"}},"type":"Feature"},
	{"geometry":{"coordinates":[-122.686455,45.534791],"type":"Point"},"properties":{"osm_id":"3845267105","tag":{"amenity":"waste_disposal"}},"type":"Feature"},
	{"geometry":{"coordinates":[-122.65645,45.535151],"type":"Point"},"properties":{"osm_id":"3850594966","tag":{"amenity":"waste_basket"}},"type":"Feature"},
	{"geometry":{"coordinates":[-122.656467,45.535195],"type":"Point"},"properties":{"osm_id":"3850594982","tag":{"amenity":"waste_basket"}},"type":"Feature"},
	{"geometry":{"coordinates":[-122.677229,45.521848],"type":"Point"},"properties":{"osm_id":"3861909893","tag":{"amenity":"waste_basket"}},"type":"Feature"},
	{"geometry":{"coordinates":[-122.677219,45.521864],"type":"Point"},"properties":{"osm_id":"3861909894","tag":{"amenity":"recycling","recycling:cans":"yes","recycling:glass_bottles":"yes","recycling:paper":"yes","recycling:plastic_bottles":"yes","recycling_type":"container"}},"type":"Feature"},
	{"geometry":{"coordinates":[-122.676802,45.52228],"type":"Point"},"properties":{"osm_id":"3861909913","tag":{"amenity":"waste_basket"}},"type":"Feature"},
	{"geometry":{"coordinates":[-122.676975,45.52228],"type":"Point"},"properties":{"osm_id":"3861909914","tag":{"amenity":"recycling","recycling:cans":"yes","recycling:glass_bottles":"yes","recycling:paper":"yes","recycling:plastic_bottles":"yes","recycling_type":"container"}},"type":"Feature"},
	{"geometry":{"coordinates":[-122.676795,45.522294],"type":"Point"},"properties":{"osm_id":"3861909915","tag":{"amenity":"recycling","recycling:cans":"yes","recycling:glass_bottles":"yes","recycling:paper":"yes","recycling:plastic_bottles":"yes","recycling_type":"container"}},"type":"Feature"},
	{"geometry":{"coordinates":[-122.676963,45.522298],"type":"Point"},"properties":{"osm_id":"3861909916","tag":{"amenity":"waste_basket"}},"type":"Feature"},
	{"geometry":{"coordinates":[-122.676654,45.522462],"type":"Point"},"properties":{"osm_id":"3861909929","tag":{"amenity":"recycling","recycling:cans":"yes","recycling:glass_bottles":"yes","recycling:paper":"yes","recycling:plastic_bottles":"yes","recycling_type":"container"}},"type":"Feature"},
	{"geometry":{"coordinates":[-122.676648,45.522479],"type":"Point"},"properties":{"osm_id":"3861909931","tag":{"amenity":"waste_basket"}},"type":"Feature"},
	{"geometry":{"coordinates":[-122.676819,45.522516],"type":"Point"},"properties":{"osm_id":"3861909933","tag":{"amenity":"waste_basket"}},"type":"Feature"},
	{"geometry":{"coordinates":[-122.676809,45.522531],"type":"Point"},"properties":{"osm_id":"3861909934","tag":{"amenity":"recycling","recycling:cans":"yes","recycling:glass_bottles":"yes","recycling:paper":"yes","recycling:plastic_bottles":"yes","recycling_type":"container"}},"type":"Feature"},
	{"geometry":{"coordinates":[-122.686704,45.58245],"type":"Point"},"properties":{"osm_id":"3899197721","tag":{"amenity":"waste_basket"}},"type":"Feature"},
	{"geometry":{"coordinates":[-122.687015,45.582508],"type":"Point"},"properties":{"osm_id":"3899197729","tag":{"amenity":"waste_basket"}},"type":"Feature"},
	{"geometry":{"coordinates":[-122.687007,45.583203],"type":"Point"},"properties":{"osm_id":"3899197995","tag":{"amenity":"waste_basket"}},"type":"Feature"},
	{"geometry":{"coordinates":[-122.672574,45.521979],"type":"Point"},"properties":{"osm_id":"3926538674","tag":{"amenity":"waste_basket"}},"type":"Feature"},
	{"geometry":{"coordinates":[-122.669462,45.522041],"type":"Point"},"properties":{"osm_id":"3954443058","tag":{"amenity":"waste_basket"}},"type":"Feature"},
	{"geometry":{"coordinates":[-122.670071,45.522227],"type":"Point"},"properties":{"osm_id":"3954443062","tag":{"amenity":"waste_basket"}},"type":"Feature"},
	{"geometry":{"coordinates":[-122.683629,45.521885],"type":"Point"},"properties":{"osm_id":"4002991921","tag":{"amenity":"waste_basket"}},"type":"Feature"},
	{"geometry":{"coordinates":[-122.684329,45.52224],"type":"Point"},"properties":{"osm_id":"4002991945","tag":{"amenity":"recycling","recycling:cans":"yes","recycling:plastic_bottles":"yes","recycling_type":"container"}},"type":"Feature"},
	{"geometry":{"coordinates":[-122.684326,45.522246],"type":"Point"},"properties":{"osm_id":"4002991946","tag":{"amenity":"waste_basket"}},"type":"Feature"},
	{"geometry":{"coordinates":[-122.684091,45.522793],"type":"Point"},"properties":{"osm_id":"4002993924","tag":{"amenity":"recycling","recycling:cans":"yes","recycling:plastic_bottles":"yes","recycling_type":"container"}},"type":"Feature"},
	{"geometry":{"coordinates":[-122.684091,45.5228],"type":"Point"},"properties":{"osm_id":"4002993927","tag":{"amenity":"waste_basket"}},"type":"Feature"},
	{"geometry":{"coordinates":[-122.685529,45.528665],"type":"Point"},"properties":{"osm_id":"4011943935","tag":{"amenity":"waste_basket"}},"type":"Feature"},
	{"geometry":{"coordinates":[-122.686289,45.529252],"type":"Point"},"properties":{"osm_id":"4011943968","tag":{"amenity":"waste_basket"}},"type":"Feature"},
	{"geometry":{"coordinates":[-122.685557,45.52927],"type":"Point"},"properties":{"osm_id":"4011943971","tag":{"amenity":"waste_basket"}},"type":"Feature"},
	{"geometry":{"coordinates":[-122.686169,45.529968],"type":"Point"},"properties":{"osm_id":"4011944192","tag":{"amenity":"waste_basket"}},"type":"Feature"},
	{"geometry":{"coordinates":[-122.683508,45.53141],"type":"Point"},"properties":{"osm_id":"4013421696","tag":{"amenity":"waste_basket"}},"type":"Feature"},
	{"geometry":{"coordinates":[-122.682115,45.524512],"type":"Point"},"properties":{"osm_id":"4017445529","tag":{"amenity":"waste_basket"}},"type":"Feature"},
	{"geometry":{"coordinates":[-122.682113,45.524565],"type":"Point"},"properties":{"osm_id":"4017445531","tag":{"amenity":"waste_basket"}},"type":"Feature"},
	{"geometry":{"coordinates":[-122.682113,45.524575],"type":"Point"},"properties":{"osm_id":"4017445532","tag":{"amenity":"recycling","recycling:cans":"yes","recycling:paper":"yes","recycling:plastic_bottles":"yes","recycling_type":"container"}},"type":"Feature"},
	{"geometry":{"coordinates":[-122.683143,45.526458],"type":"Point"},"properties":{"osm_id":"4017520645","tag":{"amenity":"waste_basket"}},"type":"Feature"},
	{"geometry":{"coordinates":[-122.673201,45.522617],"type":"Point"},"properties":{"osm_id":"4069489752","tag":{"amenity":"waste_basket"}},"type":"Feature"},
	{"geometry":{"coordinates":[-122.673523,45.52287],"type":"Point"},"properties":{"osm_id":"4069489776","tag":{"amenity":"waste_basket"}},"type":"Feature"},
	{"geometry":{"coordinates":[-122.677024,45.521859],"type":"Point"},"properties":{"osm_id":"4071030898","tag":{"amenity":"waste_basket"}},"type":"Feature"},
	{"geometry":{"coordinates":[-122.677013,45.521875],"type":"Point"},"properties":{"osm_id":"4071030899","tag":{"amenity":"recycling","recycling:cans":"yes","recycling:glass_bottles":"yes","recycling:paper":"yes","recycling:plastic_bottles":"yes","recycling_type":"container"}},"type":"Feature"},
	{"geometry":{"coordinates":[-122.676392,45.522906],"type":"Point"},"properties":{"osm_id":"4071030907","tag":{"amenity":"waste_basket"}},"type":"Feature"},
	{"geometry":{"coordinates":[-122.676385,45.52292],"type":"Point"},"properties":{"osm_id":"4071030909","tag":{"amenity":"recycling","recycling:cans":"yes","recycling:glass_bottles":"yes","recycling:paper":"yes","recycling:plastic_bottles":"yes","recycling_type":"container"}},"type":"Feature"},
	{"geometry":{"coordinates":[-122.675543,45.522962],"type":"Point"},"properties":{"osm_id":"4071030911","tag":{"amenity":"recycling","recycling:cans":"yes","recycling:glass_bottles":"yes","recycling:paper":"yes","recycling:plastic_bottles":"yes","recycling_type":"container"}},"type":"Feature"},
	{"geometry":{"coordinates":[-122.675544,45.522975],"type":"Point"},"properties":{"osm_id":"4071030913","tag":{"amenity":"waste_basket"}},"type":"Feature"},
	{"geometry":{"coordinates":[-122.675773,45.521961],"type":"Point"},"properties":{"osm_id":"4106707929","tag":{"amenity":"recycling","recycling:cans":"yes","recycling:glass_bottles":"yes","recycling:paper":"yes","recycling:plastic_bottles":"yes","recycling_type":"container"}},"type":"Feature"},
	{"geometry":{"coordinates":[-122.675768,45.52197],"type":"Point"},"properties":{"osm_id":"4106707930","tag":{"amenity":"waste_basket"}},"type":"Feature"},
	{"geometry":{"coordinates":[-122.675906,45.522052],"type":"Point"},"properties":{"osm_id":"4106707939","tag":{"amenity":"waste_basket"}},"type":"Feature"},
	{"geometry":{"coordinates":[-122.675899,45.522065],"type":"Point"},"properties":{"osm_id":"4106707940","tag":{"amenity":"recycling","recycling:cans":"yes","recycling:glass_bottles":"yes","recycling:paper":"yes","recycling:plastic_bottles":"yes","recycling_type":"container"}},"type":"Feature"},
	{"geometry":{"coordinates":[-122.675829,45.522196],"type":"Point"},"properties":{"osm_id":"4106707943","tag":{"amenity":"recycling","recycling:cans":"yes","recycling:glass_bottles":"yes","recycling:paper":"yes","recycling:plastic_bottles":"yes","recycling_type":"container"}},"type":"Feature"},
	{"geometry":{"coordinates":[-122.675842,45.5222],"type":"Point"},"properties":{"osm_id":"4106707945","tag":{"amenity":"waste_basket"}},"type":"Feature"},
	{"geometry":{"coordinates":[-122.675627,45.522227],"type":"Point"},"properties":{"osm_id":"4106707948","tag":{"amenity":"waste_basket"}},"type":"Feature"},
	{"geometry":{"coordinates":[-122.675619,45.52225],"type":"Point"},"properties":{"osm_id":"4106707949","tag":{"amenity":"recycling","recycling:cans":"yes","recycling:glass_bottles":"yes","recycling:paper":"yes","recycling:plastic_bottles":"yes","recycling_type":"container"}},"type":"Feature"},
	{"geometry":{"coordinates":[-122.675677,45.522627],"type":"Point"},"properties":{"osm_id":"4106707953","tag":{"amenity":"waste_basket"}},"type":"Feature"},
	{"geometry":{"coordinates":[-122.675668,45.52265],"type":"Point"},"properties":{"osm_id":"4106707954","tag":{"amenity":"recycling","recycling:cans":"yes","recycling:glass_bottles":"yes","recycling:paper":"yes","recycling:plastic_bottles":"yes","recycling_type":"container"}},"type":"Feature"},
	{"geometry":{"coordinates":[-122.661677,45.550913],"type":"Point"},"properties":{"osm_id":"4110442509","tag":{"amenity":"waste_basket"}},"type":"Feature"},
	{"geometry":{"coordinates":[-122.661724,45.548397],"type":"Point"},"properties":{"osm_id":"4115163004","tag":{"amenity":"waste_basket"}},"type":"Feature"},
	{"geometry":{"coordinates":[-122.662087,45.548172],"type":"Point"},"properties":{"osm_id":"4115283185","tag":{"amenity":"recycling","recycling:clothes":"yes","recycling_type":"container"}},"type":"Feature"},
	{"geometry":{"coordinates":[-122.661735,45.548188],"type":"Point"},"properties":{"osm_id":"4115283187","tag":{"amenity":"waste_basket"}},"type":"Feature"},
	{"geometry":{"coordinates":[-122.650496,45.548426],"type":"Point"},"properties":{"osm_id":"4115283924","tag":{"amenity":"waste_basket"}},"type":"Feature"},
	{"geometry":{"coordinates":[-122.651033,45.548672],"type":"Point"},"properties":{"osm_id":"4115283965","tag":{"amenity":"waste_basket"}},"type":"Feature"},
	{"geometry":{"coordinates":[-122.65124,45.549367],"type":"Point"},"properties":{"osm_id":"4115284127","tag":{"amenity":"waste_basket"}},"type":"Feature"},
	{"geometry":{"coordinates":[-122.654756,45.559171],"type":"Point"},"properties":{"osm_id":"4115855588","tag":{"amenity":"waste_basket"}},"type":"Feature"},
	{"geometry":{"coordinates":[-122.661293,45.561208],"type":"Point"},"properties":{"osm_id":"4119695711","tag":{"amenity":"waste_basket"}},"type":"Feature"},
	{"geometry":{"coordinates":[-122.653782,45.559044],"type":"Point"},"properties":{"osm_id":"4122305337","tag":{"amenity":"waste_basket"}},"type":"Feature"},
	{"geometry":{"coordinates":[-122.650821,45.559035],"type":"Point"},"properties":{"osm_id":"4122836648","tag":{"amenity":"waste_basket"}},"type":"Feature"},
	{"geometry":{"coordinates":[-122.649541,45.559039],"type":"Point"},"properties":{"osm_id":"4124711742","tag":{"amenity":"waste_basket"}},"type":"Feature"},
	{"geometry":{"coordinates":[-122.649848,45.559041],"type":"Point"},"properties":{"osm_id":"4124711745","tag":{"amenity":"waste_basket"}},"type":"Feature"},
	{"geometry":{"coordinates":[-122.647916,45.559027],"type":"Point"},"properties":{"osm_id":"4124952916","tag":{"amenity":"waste_basket"}},"type":"Feature"},
	{"geometry":{"coordinates":[-122.646966,45.559033],"type":"Point"},"properties":{"osm_id":"4124952918","tag":{"amenity":"waste_basket"}},"type":"Feature"},
	{"geometry":{"coordinates":[-122.646663,45.559141],"type":"Point"},"properties":{"osm_id":"4124952927","tag":{"amenity":"waste_basket"}},"type":"Feature"},
	{"geometry":{"coordinates":[-122.643365,45.558954],"type":"Point"},"properties":{"osm_id":"4126942542","tag":{"amenity":"recycling","recycling:clothes":"yes","recycling_type":"container"}},"type":"Feature"},
	{"geometry":{"coordinates":[-122.64402,45.559022],"type":"Point"},"properties":{"osm_id":"4126942564","tag":{"amenity":"waste_basket"}},"type":"Feature"},
	{"geometry":{"coordinates":[-122.638046,45.559004],"type":"Point"},"properties":{"osm_id":"4127427371","tag":{"amenity":"waste_basket"}},"type":"Feature"},
	{"geometry":{"coordinates":[-122.641094,45.559013],"type":"Point"},"properties":{"osm_id":"4127427378","tag":{"amenity":"waste_basket"}},"type":"Feature"},
	{"geometry":{"coordinates":[-122.64276,45.559017],"type":"Point"},"properties":{"osm_id":"4127427383","tag":{"amenity":"waste_basket"}},"type":"Feature"},
	{"geometry":{"coordinates":[-122.634992,45.558995],"type":"Point"},"properties":{"osm_id":"4131360267","tag":{"amenity":"waste_basket"}},"type":"Feature"},
	{"geometry":{"coordinates":[-122.633967,45.559097],"type":"Point"},"properties":{"osm_id":"4132075057","tag":{"amenity":"waste_basket"}},"type":"Feature"},
	{"geometry":{"coordinates":[-122.636003,45.559105],"type":"Point"},"properties":{"osm_id":"4133739403","tag":{"amenity":"waste_basket"}},"type":"Feature"},
	{"geometry":{"coordinates":[-122.640844,45.559116],"type":"Point"},"properties":{"osm_id":"4134761692","tag":{"amenity":"waste_basket"}},"type":"Feature"},
	{"geometry":{"coordinates":[-122.645704,45.559141],"type":"Point"},"properties":{"osm_id":"4134857733","tag":{"amenity":"waste_basket"}},"type":"Feature"},
	{"geometry":{"coordinates":[-122.646932,45.559136],"type":"Point"},"properties":{"osm_id":"4135982424","tag":{"amenity":"waste_basket"}},"type":"Feature"},
	{"geometry":{"coordinates":[-122.6496,45.559163],"type":"Point"},"properties":{"osm_id":"4136232251","tag":{"amenity":"waste_basket"}},"type":"Feature"},
	{"geometry":{"coordinates":[-122.652807,45.559164],"type":"Point"},"properties":{"osm_id":"4136756673","tag":{"amenity":"waste_basket"}},"type":"Feature"},
	{"geometry":{"coordinates":[-122.674621,45.521939],"type":"Point"},"properties":{"osm_id":"4139796200","tag":{"amenity":"waste_basket"}},"type":"Feature"},
	{"geometry":{"coordinates":[-122.674362,45.522405],"type":"Point"},"properties":{"osm_id":"4139796205","tag":{"amenity":"waste_basket"}},"type":"Feature"},
	{"geometry":{"coordinates":[-122.68621,45.525692],"type":"Point"},"properties":{"osm_id":"4162519947","tag":{"amenity":"waste_basket"}},"type":"Feature"},
	{"geometry":{"coordinates":[-122.686336,45.530079],"type":"Point"},"properties":{"osm_id":"4172543695","tag":{"amenity":"waste_basket"}},"type":"Feature"},
	{"geometry":{"coordinates":[-122.68559,45.530675],"type":"Point"},"properties":{"osm_id":"4172543711","tag":{"amenity":"waste_basket"}},"type":"Feature"},
	{"geometry":{"coordinates":[-122.685616,45.531374],"type":"Point"},"properties":{"osm_id":"4173986937","tag":{"amenity":"waste_basket"}},"type":"Feature"},
	{"geometry":{"coordinates":[-122.686381,45.531391],"type":"Point"},"properties":{"osm_id":"4173986944","tag":{"amenity":"waste_basket"}},"type":"Feature"},
	{"geometry":{"coordinates":[-122.685271,45.531511],"type":"Point"},"properties":{"osm_id":"4173986955","tag":{"amenity":"waste_basket"}},"type":"Feature"},
	{"geometry":{"coordinates":[-122.682283,45.525239],"type":"Point"},"properties":{"osm_id":"4175245455","tag":{"amenity":"waste_basket"}},"type":"Feature"},
	{"geometry":{"coordinates":[-122.682343,45.525047],"type":"Point"},"properties":{"osm_id":"4175453958","tag":{"amenity":"waste_basket"}},"type":"Feature"},
	{"geometry":{"coordinates":[-122.68304,45.523706],"type":"Point"},"properties":{"osm_id":"4177481710","tag":{"amenity":"waste_basket"}},"type":"Feature"},
	{"geometry":{"coordinates":[-122.683039,45.523712],"type":"Point"},"properties":{"osm_id":"4177481712","tag":{"amenity":"recycling","recycling:cans":"yes","recycling:glass_bottles":"yes","recycling:paper":"yes","recycling:plastic_bottles":"yes","recycling_type":"container"}},"type":"Feature"},
	{"geometry":{"coordinates":[-122.682233,45.523801],"type":"Point"},"properties":{"osm_id":"4177481719","tag":{"amenity":"waste_basket"}},"type":"Feature"},
	{"geometry":{"coordinates":[-122.683125,45.524288],"type":"Point"},"properties":{"osm_id":"4177481739","tag":{"amenity":"recycling","recycling:cans":"yes","recycling:glass_bottles":"yes","recycling:paper":"yes","recycling:plastic_bottles":"yes","recycling_type":"container"}},"type":"Feature"},
	{"geometry":{"coordinates":[-122.68314,45.524289],"type":"Point"},"properties":{"osm_id":"4177481740","tag":{"amenity":"waste_basket"}},"type":"Feature"},
	{"geometry":{"coordinates":[-122.683081,45.524433],"type":"Point"},"properties":{"osm_id":"4177481746","tag":{"amenity":"waste_basket"}},"type":"Feature"},
	{"geometry":{"coordinates":[-122.683334,45.523704],"type":"Point"},"properties":{"osm_id":"4178639975","tag":{"amenity":"waste_basket"}},"type":"Feature"},
	{"geometry":{"coordinates":[-122.683321,45.523704],"type":"Point"},"properties":{"osm_id":"4178639976","tag":{"amenity":"recycling","recycling:cans":"yes","recycling:glass_bottles":"yes","recycling:paper":"yes","recycling:plastic_bottles":"yes","recycling_type":"container"}},"type":"Feature"},
	{"geometry":{"coordinates":[-122.684065,45.524316],"type":"Point"},"properties":{"osm_id":"4178671796","tag":{"amenity":"waste_basket"}},"type":"Feature"},
	{"geometry":{"coordinates":[-122.684064,45.524324],"type":"Point"},"properties":{"osm_id":"4178671797","tag":{"amenity":"recycling","recycling:cans":"yes","recycling:glass_bottles":"yes","recycling:paper":"yes","recycling:plastic_bottles":"yes","recycling_type":"container"}},"type":"Feature"},
	{"geometry":{"coordinates":[-122.684244,45.523066],"type":"Point"},"properties":{"osm_id":"4179666175","tag":{"amenity":"waste_basket"}},"type":"Feature"},
	{"geometry":{"coordinates":[-122.684986,45.524991],"type":"Point"},"properties":{"osm_id":"4179670896","tag":{"amenity":"waste_basket"}},"type":"Feature"},
	{"geometry":{"coordinates":[-122.694249,45.523674],"type":"Point"},"properties":{"osm_id":"4216694684","tag":{"amenity":"waste_basket"}},"type":"Feature"},
	{"geometry":{"coordinates":[-122.694442,45.524391],"type":"Point"},"properties":{"osm_id":"4216695311","tag":{"amenity":"waste_basket"}},"type":"Feature"},
	{"geometry":{"coordinates":[-122.661501,45.539675],"type":"Point"},"properties":{"osm_id":"4223878239","tag":{"amenity":"waste_basket"}},"type":"Feature"},
	{"geometry":{"coordinates":[-122.676438,45.528104],"type":"Point"},"properties":{"osm_id":"4234852004","tag":{"amenity":"recycling","recycling:cans":"yes","recycling:glass_bottles":"yes","recycling:paper":"yes","recycling:plastic_bottles":"yes","recycling_type":"container"}},"type":"Feature"},
	{"geometry":{"coordinates":[-122.676438,45.528114],"type":"Point"},"properties":{"osm_id":"4234852005","tag":{"amenity":"waste_basket"}},"type":"Feature"},
	{"geometry":{"coordinates":[-122.666607,45.54139],"type":"Point"},"properties":{"osm_id":"4245606714","tag":{"amenity":"waste_basket"}},"type":"Feature"},
	{"geometry":{"coordinates":[-122.666592,45.542746],"type":"Point"},"properties":{"osm_id":"4245606715","tag":{"amenity":"waste_basket"}},"type":"Feature"},
	{"geometry":{"coordinates":[-122.671283,45.562627],"type":"Point"},"properties":{"osm_id":"4250891789","tag":{"amenity":"waste_basket"}},"type":"Feature"},
	{"geometry":{"coordinates":[-122.672442,45.563059],"type":"Point"},"properties":{"osm_id":"4250896290","tag":{"amenity":"waste_basket"}},"type":"Feature"},
	{"geometry":{"coordinates":[-122.674519,45.563181],"type":"Point"},"properties":{"osm_id":"4250899092","tag":{"amenity":"waste_basket"}},"type":"Feature"},
	{"geometry":{"coordinates":[-122.672465,45.563701],"type":"Point"},"properties":{"osm_id":"4250909192","tag":{"amenity":"waste_basket"}},"type":"Feature"},
	{"geometry":{"coordinates":[-122.674573,45.563776],"type":"Point"},"properties":{"osm_id":"4250909792","tag":{"amenity":"waste_basket"}},"type":"Feature"},
	{"geometry":{"coordinates":[-122.672867,45.563582],"type":"Point"},"properties":{"osm_id":"4254738095","tag":{"amenity":"waste_basket"}},"type":"Feature"},
	{"geometry":{"coordinates":[-122.660397,45.534722],"type":"Point"},"properties":{"osm_id":"4259952840","tag":{"amenity":"waste_basket"}},"type":"Feature"},
	{"geometry":{"coordinates":[-122.660474,45.534722],"type":"Point"},"properties":{"osm_id":"4259952841","tag":{"amenity":"waste_basket"}},"type":"Feature"},
	{"geometry":{"coordinates":[-122.694605,45.529248],"type":"Point"},"properties":{"osm_id":"4265679795","tag":{"amenity":"waste_basket"}},"type":"Feature"},
	{"geometry":{"coordinates":[-122.694266,45.525652],"type":"Point"},"properties":{"osm_id":"4277839463","tag":{"amenity":"waste_basket"}},"type":"Feature"},
	{"geometry":{"coordinates":[-122.694353,45.52618],"type":"Point"},"properties":{"osm_id":"4277839475","tag":{"amenity":"waste_basket"}},"type":"Feature"},
	{"geometry":{"coordinates":[-122.694662,45.526252],"type":"Point"},"properties":{"osm_id":"4277839480","tag":{"amenity":"waste_basket"}},"type":"Feature"},
	{"geometry":{"coordinates":[-122.694582,45.527076],"type":"Point"},"properties":{"osm_id":"4277839699","tag":{"amenity":"waste_basket"}},"type":"Feature"},
	{"geometry":{"coordinates":[-122.694386,45.527139],"type":"Point"},"properties":{"osm_id":"4277839703","tag":{"amenity":"waste_basket"}},"type":"Feature"},
	{"geometry":{"coordinates":[-122.694406,45.527573],"type":"Point"},"properties":{"osm_id":"4277839718","tag":{"amenity":"waste_basket"}},"type":"Feature"},
	{"geometry":{"coordinates":[-122.694437,45.528659],"type":"Point"},"properties":{"osm_id":"4277839742","tag":{"amenity":"waste_basket"}},"type":"Feature"},
	{"geometry":{"coordinates":[-122.629933,45.539692],"type":"Point"},"properties":{"osm_id":"4293341404","tag":{"amenity":"waste_basket","waste":"trash"}},"type":"Feature"},
	{"geometry":{"coordinates":[-122.631063,45.535256],"type":"Point"},"properties":{"osm_id":"4293960674","tag":{"amenity":"waste_basket"}},"type":"Feature"},
	{"geometry":{"coordinates":[-122.622737,45.534211],"type":"Point"},"properties":{"osm_id":"4294164254","tag":{"amenity":"waste_basket"}},"type":"Feature"},
	{"geometry":{"coordinates":[-122.62247,45.534212],"type":"Point"},"properties":{"osm_id":"4294164256","tag":{"amenity":"waste_basket"}},"type":"Feature"},
	{"geometry":{"coordinates":[-122.622522,45.53463],"type":"Point"},"properties":{"osm_id":"4294164278","tag":{"amenity":"waste_basket"}},"type":"Feature"},
	{"geometry":{"coordinates":[-122.623112,45.534986],"type":"Point"},"properties":{"osm_id":"4294164286","tag":{"amenity":"recycling","recycling:cans":"yes","recycling:glass_bottles":"yes","recycling:paper":"yes","recycling:plastic_bottles":"yes","recycling_type":"container"}},"type":"Feature"},
	{"geometry":{"coordinates":[-122.623112,45.534988],"type":"Point"},"properties":{"osm_id":"4294164287","tag":{"amenity":"waste_basket"}},"type":"Feature"},
	{"geometry":{"coordinates":[-122.620433,45.534952],"type":"Point"},"properties":{"osm_id":"4328331603","tag":{"amenity":"waste_basket"}},"type":"Feature"},
	{"geometry":{"coordinates":[-122.620498,45.535194],"type":"Point"},"properties":{"osm_id":"4328331604","tag":{"amenity":"waste_basket"}},"type":"Feature"},
	{"geometry":{"coordinates":[-122.666632,45.538231],"type":"Point"},"properties":{"osm_id":"4384746707","tag":{"amenity":"waste_basket"}},"type":"Feature"},
	{"geometry":{"coordinates":[-122.667847,45.54069],"type":"Point"},"properties":{"osm_id":"4384747523","tag":{"amenity":"waste_basket"}},"type":"Feature"},
	{"geometry":{"coordinates":[-122.669414,45.534432],"type":"Point"},"properties":{"osm_id":"4506676972","tag":{"amenity":"waste_basket"}},"type":"Feature"},
	{"geometry":{"coordinates":[-122.669408,45.534496],"type":"Point"},"properties":{"osm_id":"4506676973","tag":{"amenity":"waste_basket"}},"type":"Feature"},
	{"geometry":{"coordinates":[-122.675665,45.527896],"type":"Point"},"properties":{"osm_id":"4509374282","tag":{"amenity":"waste_basket"}},"type":"Feature"},
	{"geometry":{"coordinates":[-122.675665,45.527912],"type":"Point"},"properties":{"osm_id":"4509374283","tag":{"amenity":"recycling","recycling:cans":"yes","recycling:glass_bottles":"yes","recycling:paper":"yes","recycling:plastic_bottles":"yes","recycling_type":"container"}},"type":"Feature"},
	{"geometry":{"coordinates":[-122.675641,45.527273],"type":"Point"},"properties":{"osm_id":"4509374285","tag":{"amenity":"waste_basket"}},"type":"Feature"},
	{"geometry":{"coordinates":[-122.675625,45.527271],"type":"Point"},"properties":{"osm_id":"4509374286","tag":{"amenity":"recycling","recycling:cans":"yes","recycling:glass_bottles":"yes","recycling:paper":"yes","recycling:plastic_bottles":"yes","recycling_type":"container"}},"type":"Feature"},
	{"geometry":{"coordinates":[-122.675494,45.527264],"type":"Point"},"properties":{"osm_id":"4509374288","tag":{"amenity":"waste_basket"}},"type":"Feature"},
	{"geometry":{"coordinates":[-122.675513,45.527264],"type":"Point"},"properties":{"osm_id":"4509375089","tag":{"amenity":"recycling","recycling:cans":"yes","recycling:glass_bottles":"yes","recycling:paper":"yes","recycling:plastic_bottles":"yes","recycling_type":"container"}},"type":"Feature"},
	{"geometry":{"coordinates":[-122.675486,45.526547],"type":"Point"},"properties":{"osm_id":"4509375094","tag":{"amenity":"waste_basket"}},"type":"Feature"},
	{"geometry":{"coordinates":[-122.675486,45.526526],"type":"Point"},"properties":{"osm_id":"4509375095","tag":{"amenity":"recycling","recycling:cans":"yes","recycling:glass_bottles":"yes","recycling:paper":"yes","recycling:plastic_bottles":"yes","recycling_type":"container"}},"type":"Feature"},
	{"geometry":{"coordinates":[-122.675478,45.526734],"type":"Point"},"properties":{"osm_id":"4509375098","tag":{"amenity":"waste_basket"}},"type":"Feature"},
	{"geometry":{"coordinates":[-122.675478,45.526745],"type":"Point"},"properties":{"osm_id":"4509375099","tag":{"amenity":"recycling","recycling:cans":"yes","recycling:glass_bottles":"yes","recycling:paper":"yes","recycling:plastic_bottles":"yes","recycling_type":"container"}},"type":"Feature"},
	{"geometry":{"coordinates":[-122.675657,45.526693],"type":"Point"},"properties":{"osm_id":"4509375101","tag":{"amenity":"waste_basket"}},"type":"Feature"},
	{"geometry":{"coordinates":[-122.675658,45.526704],"type":"Point"},"properties":{"osm_id":"4509375102","tag":{"amenity":"recycling","recycling:cans":"yes","recycling:glass_bottles":"yes","recycling:paper":"yes","recycling:plastic_bottles":"yes","recycling_type":"container"}},"type":"Feature"},
	{"geometry":{"coordinates":[-122.676525,45.526784],"type":"Point"},"properties":{"osm_id":"4509375103","tag":{"amenity":"waste_basket"}},"type":"Feature"},
	{"geometry":{"coordinates":[-122.676526,45.526766],"type":"Point"},"properties":{"osm_id":"4509375104","tag":{"amenity":"recycling","recycling:cans":"yes","recycling:glass_bottles":"yes","recycling:paper":"yes","recycling:plastic_bottles":"yes","recycling_type":"container"}},"type":"Feature"},
	{"geometry":{"coordinates":[-122.676652,45.526737],"type":"Point"},"properties":{"osm_id":"4509375107","tag":{"amenity":"waste_basket"}},"type":"Feature"},
	{"geometry":{"coordinates":[-122.676653,45.526748],"type":"Point"},"properties":{"osm_id":"4509375108","tag":{"amenity":"recycling","recycling:cans":"yes","recycling:glass_bottles":"yes","recycling:paper":"yes","recycling:plastic_bottles":"yes","recycling_type":"container"}},"type":"Feature"},
	{"geometry":{"coordinates":[-122.676669,45.527192],"type":"Point"},"properties":{"osm_id":"4509375111","tag":{"amenity":"waste_basket"}},"type":"Feature"},
	{"geometry":{"coordinates":[-122.676669,45.52718],"type":"Point"},"properties":{"osm_id":"4509375112","tag":{"amenity":"recycling","recycling:cans":"yes","recycling:glass_bottles":"yes","recycling:paper":"yes","recycling:plastic_bottles":"yes","recycling_type":"container"}},"type":"Feature"},
	{"geometry":{"coordinates":[-122.676678,45.527469],"type":"Point"},"properties":{"osm_id":"4509375114","tag":{"amenity":"waste_basket"}},"type":"Feature"},
	{"geometry":{"coordinates":[-122.676678,45.527485],"type":"Point"},"properties":{"osm_id":"4509375115","tag":{"amenity":"recycling","recycling:cans":"yes","recycling:glass_bottles":"yes","recycling:paper":"yes","recycling:plastic_bottles":"yes","recycling_type":"container"}},"type":"Feature"},
	{"geometry":{"coordinates":[-122.676712,45.527932],"type":"Point"},"properties":{"osm_id":"4509375121","tag":{"amenity":"waste_basket"}},"type":"Feature"},
	{"geometry":{"coordinates":[-122.676696,45.527932],"type":"Point"},"properties":{"osm_id":"4509375122","tag":{"amenity":"recycling","recycling:cans":"yes","recycling:glass_bottles":"yes","recycling:paper":"yes","recycling:plastic_bottles":"yes","recycling_type":"container"}},"type":"Feature"},
	{"geometry":{"coordinates":[-122.675578,45.526045],"type":"Point"},"properties":{"osm_id":"4510119687","tag":{"amenity":"recycling","recycling:cans":"yes","recycling:glass_bottles":"yes","recycling:paper":"yes","recycling:plastic_bottles":"yes","recycling_type":"container"}},"type":"Feature"},
	{"geometry":{"coordinates":[-122.675579,45.526028],"type":"Point"},"properties":{"osm_id":"4510119688","tag":{"amenity":"waste_basket"}},"type":"Feature"},
	{"geometry":{"coordinates":[-122.675468,45.526049],"type":"Point"},"properties":{"osm_id":"4510120990","tag":{"amenity":"recycling","recycling:cans":"yes","recycling:glass_bottles":"yes","recycling:paper":"yes","recycling:plastic_bottles":"yes","recycling_type":"container"}},"type":"Feature"},
	{"geometry":{"coordinates":[-122.675467,45.526031],"type":"Point"},"properties":{"osm_id":"4510120991","tag":{"amenity":"waste_basket"}},"type":"Feature"},
	{"geometry":{"coordinates":[-122.67438,45.524368],"type":"Point"},"properties":{"osm_id":"4514992768","tag":{"amenity":"waste_basket"}},"type":"Feature"},
	{"geometry":{"coordinates":[-122.674275,45.523876],"type":"Point"},"properties":{"osm_id":"4514992776","tag":{"amenity":"waste_basket"}},"type":"Feature"},
	{"geometry":{"coordinates":[-122.673873,45.523884],"type":"Point"},"properties":{"osm_id":"4514992777","tag":{"amenity":"waste_basket"}},"type":"Feature"},
	{"geometry":{"coordinates":[-122.673323,45.523715],"type":"Point"},"properties":{"osm_id":"4514992782","tag":{"amenity":"waste_basket"}},"type":"Feature"},
	{"geometry":{"coordinates":[-122.673348,45.524443],"type":"Point"},"properties":{"osm_id":"4514993458","tag":{"amenity":"waste_basket"}},"type":"Feature"},
	{"geometry":{"coordinates":[-122.672787,45.523792],"type":"Point"},"properties":{"osm_id":"4514993472","tag":{"amenity":"waste_basket"}},"type":"Feature"},
	{"geometry":{"coordinates":[-122.672533,45.524673],"type":"Point"},"properties":{"osm_id":"4514993498","tag":{"amenity":"waste_basket"}},"type":"Feature"},
	{"geometry":{"coordinates":[-122.673363,45.524668],"type":"Point"},"properties":{"osm_id":"4514993514","tag":{"amenity":"waste_basket"}},"type":"Feature"},
	{"geometry":{"coordinates":[-122.661607,45.581014],"type":"Point"},"properties":{"osm_id":"4572468860","tag":{"amenity":"waste_basket"}},"type":"Feature"},
	{"geometry":{"coordinates":[-122.684167,45.52644],"type":"Point"},"properties":{"osm_id":"4704825636","tag":{"amenity":"waste_basket"}},"type":"Feature"},
	{"geometry":{"coordinates":[-122.684426,45.525727],"type":"Point"},"properties":{"osm_id":"4704825647","tag":{"amenity":"waste_basket"}},"type":"Feature"},
	{"geometry":{"coordinates":[-122.671413,45.52368],"type":"Point"},"properties":{"osm_id":"4768043711","tag":{"amenity":"waste_basket"}},"type":"Feature"},
	{"geometry":{"coordinates":[-122.676398,45.523239],"type":"Point"},"properties":{"osm_id":"4768045235","tag":{"amenity":"recycling","recycling:cans":"yes","recycling:paper":"yes","recycling:plastic_bottles":"yes","recycling_type":"container"}},"type":"Feature"},
	{"geometry":{"coordinates":[-122.676372,45.523239],"type":"Point"},"properties":{"osm_id":"4768045236","tag":{"amenity":"waste_basket"}},"type":"Feature"},
	{"geometry":{"coordinates":[-122.683393,45.532123],"type":"Point"},"properties":{"osm_id":"4890765787","tag":{"amenity":"waste_basket"}},"type":"Feature"},
	{"geometry":{"coordinates":[-122.683298,45.531554],"type":"Point"},"properties":{"osm_id":"4890765802","tag":{"amenity":"waste_basket"}},"type":"Feature"},
	{"geometry":{"coordinates":[-122.619782,45.536291],"type":"Point"},"properties":{"osm_id":"4925979833","tag":{"amenity":"waste_basket"}},"type":"Feature"},
	{"geometry":{"coordinates":[-122.619769,45.536551],"type":"Point"},"properties":{"osm_id":"4927361838","tag":{"amenity":"waste_basket"}},"type":"Feature"},
	{"geometry":{"coordinates":[-122.684387,45.527282],"type":"Point"},"properties":{"osm_id":"5042008668","tag":{"amenity":"waste_basket"}},"type":"Feature"},
	{"geometry":{"coordinates":[-122.680826,45.525415],"type":"Point"},"properties":{"osm_id":"5054795293","tag":{"amenity":"waste_basket"}},"type":"Feature"},
	{"geometry":{"coordinates":[-122.6803,45.525078],"type":"Point"},"properties":{"osm_id":"5054795299","tag":{"amenity":"waste_basket"}},"type":"Feature"},
	{"geometry":{"coordinates":[-122.680057,45.523803],"type":"Point"},"properties":{"osm_id":"5059165304","tag":{"amenity":"waste_basket"}},"type":"Feature"},
	{"geometry":{"coordinates":[-122.68248,45.530945],"type":"Point"},"properties":{"osm_id":"5063415265","tag":{"amenity":"waste_basket"}},"type":"Feature"},
	{"geometry":{"coordinates":[-122.681414,45.529992],"type":"Point"},"properties":{"osm_id":"5064751128","tag":{"amenity":"waste_basket"}},"type":"Feature"},
	{"geometry":{"coordinates":[-122.680636,45.530049],"type":"Point"},"properties":{"osm_id":"5065402453","tag":{"amenity":"waste_basket"}},"type":"Feature"},
	{"geometry":{"coordinates":[-122.657951,45.522862],"type":"Point"},"properties":{"osm_id":"5079904238","tag":{"amenity":"waste_basket"}},"type":"Feature"},
	{"geometry":{"coordinates":[-122.658393,45.523694],"type":"Point"},"properties":{"osm_id":"5085236045","tag":{"amenity":"waste_basket"}},"type":"Feature"},
	{"geometry":{"coordinates":[-122.675442,45.554541],"type":"Point"},"properties":{"osm_id":"5133441688","tag":{"amenity":"waste_basket"}},"type":"Feature"},
	{"geometry":{"coordinates":[-122.675448,45.553732],"type":"Point"},"properties":{"osm_id":"5133441713","tag":{"amenity":"waste_basket"}},"type":"Feature"},
	{"geometry":{"coordinates":[-122.675335,45.555468],"type":"Point"},"properties":{"osm_id":"5135935478","tag":{"amenity":"waste_basket"}},"type":"Feature"},
	{"geometry":{"coordinates":[-122.675628,45.552019],"type":"Point"},"properties":{"osm_id":"5141620138","tag":{"amenity":"waste_basket"}},"type":"Feature"},
	{"geometry":{"coordinates":[-122.675762,45.550922],"type":"Point"},"properties":{"osm_id":"5152305118","tag":{"amenity":"recycling","recycling:clothes":"yes","recycling:shoes":"yes","recycling_type":"container"}},"type":"Feature"},
	{"geometry":{"coordinates":[-122.6291,45.539545],"type":"Point"},"properties":{"osm_id":"5752644787","tag":{"amenity":"recycling","recycling:cans":"yes","recycling:glass_bottles":"yes","recycling:plastic":"yes","recycling_type":"container"}},"type":"Feature"},
	{"geometry":{"coordinates":[-122.629092,45.539545],"type":"Point"},"properties":{"osm_id":"5752644788","tag":{"amenity":"waste_basket"}},"type":"Feature"},
	{"geometry":{"coordinates":[-122.691308,45.582769],"type":"Point"},"properties":{"osm_id":"5921053000","tag":{"amenity":"waste_basket"}},"type":"Feature"},
	{"geometry":{"coordinates":[-122.681598,45.530816],"type":"Point"},"properties":{"osm_id":"6250394705","tag":{"amenity":"waste_basket"}},"type":"Feature"},
	{"geometry":{"coordinates":[-122.6328,45.534542],"type":"Point"},"properties":{"osm_id":"6284847676","tag":{"amenity":"recycling","operator":"New Seasons Market","recycling:cans":"yes","recycling:glass_bottles":"yes","recycling:plastic_bottles":"yes","recycling_type":"centre"}},"type":"Feature"},
	{"geometry":{"coordinates":[-122.681303,45.52904],"type":"Point"},"properties":{"osm_id":"6421786972","tag":{"amenity":"waste_basket"}},"type":"Feature"},
	{"geometry":{"coordinates":[-122.681502,45.528744],"type":"Point"},"properties":{"osm_id":"6421832192","tag":{"amenity":"waste_basket"}},"type":"Feature"},
	{"geometry":{"coordinates":[-122.681499,45.528745],"type":"Point"},"properties":{"osm_id":"6421832193","tag":{"amenity":"waste_basket"}},"type":"Feature"},
	{"geometry":{"coordinates":[-122.676547,45.52438],"type":"Point"},"properties":{"osm_id":"6486559266","tag":{"amenity":"waste_basket"}},"type":"Feature"},
	{"geometry":{"coordinates":[-122.676536,45.523891],"type":"Point"},"properties":{"osm_id":"6486559267","tag":{"amenity":"waste_basket"}},"type":"Feature"},
	{"geometry":{"coordinates":[-122.67652,45.523225],"type":"Point"},"properties":{"osm_id":"6486559268","tag":{"amenity":"waste_basket"}},"type":"Feature"},
	{"geometry":{"coordinates":[-122.677615,45.524631],"type":"Point"},"properties":{"osm_id":"6491174966","tag":{"amenity":"waste_basket"}},"type":"Feature"},
	{"geometry":{"coordinates":[-122.677778,45.525118],"type":"Point"},"properties":{"osm_id":"6491174967","tag":{"amenity":"waste_basket"}},"type":"Feature"},
	{"geometry":{"coordinates":[-122.678705,45.524764],"type":"Point"},"properties":{"osm_id":"6492417478","tag":{"amenity":"waste_basket"}},"type":"Feature"},
	{"geometry":{"coordinates":[-122.678931,45.523313],"type":"Point"},"properties":{"osm_id":"6492417479","tag":{"amenity":"waste_basket"}},"type":"Feature"},
	{"geometry":{"coordinates":[-122.678675,45.523346],"type":"Point"},"properties":{"osm_id":"6492855377","tag":{"amenity":"waste_basket"}},"type":"Feature"},
	{"geometry":{"coordinates":[-122.678399,45.523166],"type":"Point"},"properties":{"osm_id":"6492855378","tag":{"amenity":"waste_basket"}},"type":"Feature"},
	{"geometry":{"coordinates":[-122.678609,45.522189],"type":"Point"},"properties":{"osm_id":"6492855379","tag":{"amenity":"waste_basket"}},"type":"Feature"},
	{"geometry":{"coordinates":[-122.678622,45.522199],"type":"Point"},"properties":{"osm_id":"6492855380","tag":{"amenity":"recycling","recycling_type":"container"}},"type":"Feature"},
	{"geometry":{"coordinates":[-122.678146,45.521889],"type":"Point"},"properties":{"osm_id":"6492855381","tag":{"amenity":"waste_basket"}},"type":"Feature"},
	{"geometry":{"coordinates":[-122.676616,45.522928],"type":"Point"},"properties":{"osm_id":"6501382659","tag":{"amenity":"waste_basket"}},"type":"Feature"},
	{"geometry":{"coordinates":[-122.676599,45.525313],"type":"Point"},"properties":{"osm_id":"6505355678","tag":{"amenity":"waste_basket"}},"type":"Feature"},
	{"geometry":{"coordinates":[-122.677261,45.522809],"type":"Point"},"properties":{"osm_id":"6517906481","tag":{"amenity":"waste_basket"}},"type":"Feature"},
	{"geometry":{"coordinates":[-122.676578,45.525106],"type":"Point"},"properties":{"osm_id":"6517906482","tag":{"amenity":"waste_basket"}},"type":"Feature"},
	{"geometry":{"coordinates":[-122.618833,45.537439],"type":"Point"},"properties":{"osm_id":"6541176885","tag":{"amenity":"recycling","recycling:cans":"yes","recycling:glass":"yes","recycling:plastic_bottles":"yes","recycling_type":"centre"}},"type":"Feature"},
	{"geometry":{"coordinates":[-122.627937,45.540622],"type":"Point"},"properties":{"osm_id":"6750950130","tag":{"amenity":"waste_basket","waste":"dog_excrement"}},"type":"Feature"},
	{"geometry":{"coordinates":[-122.650537,45.542265],"type":"Point"},"properties":{"osm_id":"6865291996","tag":{"amenity":"waste_basket"}},"type":"Feature"},
	{"geometry":{"coordinates":[-122.617551,45.537078],"type":"Point"},"properties":{"osm_id":"7196527514","tag":{"amenity":"waste_basket"}},"type":"Feature"},
	{"geometry":{"coordinates":[-122.619805,45.537873],"type":"Point"},"properties":{"osm_id":"7278560392","tag":{"amenity":"waste_basket"}},"type":"Feature"},
	{"geometry":{"coordinates":[-122.692457,45.526596],"type":"Point"},"properties":{"osm_id":"7892170877","tag":{"amenity":"waste_basket","operator":"Portland Parks and Recreation","waste":"trash"}},"type":"Feature"}
]
}
