{
"type": "FeatureCollection",
"features": [
	{"geometry":{"coordinates":[-122.658212,45.419934],"type":"Point"},"properties":{"name":"Recycling Center","osm_id":"566889027","tag":{"amenity":"recycling"}},"type":"Feature"},
	{"geometry":{"coordinates":[-122.665674,45.419424],"type":"Point"},"properties":{"osm_id":"4856146191","tag":{"amenity":"waste_basket"}},"type":"Feature"},
	{"geometry":{"coordinates":[-122.666196,45.419481],"type":"Point"},"properties":{"osm_id":"4856146196","tag":{"amenity":"waste_basket"}},"type":"Feature"},
	{"geometry":{"coordinates":[-122.666627,45.419534],"type":"Point"},"properties":{"osm_id":"4856146220","tag":{"amenity":"waste_basket"}},"type":"Feature"},
	{"geometry":{"coordinates":[-122.666922,45.419582],"type":"Point"},"properties":{"osm_id":"4856153321","tag":{"amenity":"waste_basket"}},"type":"Feature"},
	{"geometry":{"coordinates":[-122.666575,45.419738],"type":"Point"},"properties":{"osm_id":"4862716878","tag":{"amenity":"waste_basket"}},"type":"Feature"},
	{"geometry":{"coordinates":[-122.665312,45.419594],"type":"Point"},"properties":{"osm_id":"4862716889","tag":{"amenity":"waste_basket"}},"type":"Feature"},
	{"geometry":{"coordinates":[-122.664368,45.418173],"type":"Point"},"properties":{"osm_id":"4862716910","tag":{"amenity":"waste_basket"}},"type":"Feature"},
	{"geometry":{"coordinates":[-122.640917,45.443221],"type":"Point"},"properties":{"osm_id":"6522174380","tag":{"amenity":"waste_basket"}},"type":"Feature"},
	{"geometry":{"coordinates":[-122.641296,45.443172],"type":"Point"},"properties":{"osm_id":"6522174383","tag":{"amenity":"waste_basket"}},"type":"Feature"},
	{"geometry":{"coordinates":[-122.617398,45.433077],"type":"Point"},"properties":{"osm_id":"6961022006","tag":{"access":"private","amenity":"waste_disposal"}},"type":"Feature"},
	{"geometry":{"coordinates":[-122.617402,45.433057],"type":"Point"},"properties":{"osm_id":"6961022012","tag":{"access":"private","amenity":"recycling","collection_times":"Fr 07:00","recycling_type":"container"}},"type":"Feature"},
	{"geometry":{"coordinates":[-122.617352,45.432819],"type":"Point"},"properties":{"osm_id":"6961022013","tag":{"access":"private","amenity":"waste_disposal"}},"type":"Feature"},
	{"geometry":{"coordinates":[-122.617273,45.43391],"type":"Point"},"properties":{"osm_id":"6961022014","tag":{"access":"private","amenity":"waste_disposal"}},"type":"Feature"},
	{"geometry":{"coordinates":[-122.617615,45.434067],"type":"Point"},"properties":{"osm_id":"6961022015","tag":{"access":"private","amenity":"waste_disposal"}},"type":"Feature"},
	{"geometry":{"coordinates":[-122.617312,45.43394],"type":"Point"},"properties":{"osm_id":"6961022016","tag":{"access":"private","amenity":"recycling","recycling_type":"container"}},"type":"Feature"},
	{"geometry":{"coordinates":[-122.639502,45.440871],"type":"Point"},"properties":{"osm_id":"7157711321","tag":{"amenity":"waste_basket"}},"type":"Feature"},
	{"geometry":{"coordinates":[-122.639538,45.441669],"type":"Point"},"properties":{"osm_id":"7157711353","tag":{"amenity":"waste_basket"}},"type":"Feature"}
]
}
