{
"type": "FeatureCollection",
"features": [
	{"geometry":{"coordinates":[-5.030645,54.90597],"type":"Point"},"properties":{"osm_id":"8914398029","tag":{"amenity":"recycling","recycling:glass":"yes","recycling_type":"container"}},"type":"Feature"},
	{"geometry":{"coordinates":[-5.032005,54.906017],"type":"Point"},"properties":{"osm_id":"8929353034","tag":{"amenity":"waste_basket"}},"type":"Feature"},
	{"geometry":{"coordinates":[-5.025783,54.905258],"type":"Point"},"properties":{"osm_id":"8935266253","tag":{"amenity":"recycling","clothes":"only","operator":"Salvation Army","recycling:clothes":"yes","recycling_type":"container"}},"type":"Feature"},
	{"geometry":{"coordinates":[-5.023982,54.90069],"type":"Point"},"properties":{"osm_id":"8964235603","tag":{"amenity":"recycling","recycling:clothes":"yes","recycling_type":"container"}},"type":"Feature"},
	{"geometry":{"coordinates":[-5.013712,54.899614],"type":"Point"},"properties":{"name":"Stranraer Household Waste Recycling Centre","osm_id":"9140584133","tag":{"addr:city":"Stranraer","addr:housename":"Stranraer HWRC,Stranraer Zero Waste Park","addr:postcode":"DG9 7UD","addr:street":"Fountain Way","amenity":"recycling","owner":"Dumfries and Galloway Council","ownership":"municipal","recycling_type":"centre","wikidata":"Q106085708"}},"type":"Feature"}
]
}
