{
"type": "FeatureCollection",
"features": [
	{"geometry":{"coordinates":[-5.049241,7.689378],"type":"Point"},"properties":{"osm_id":"3765136704","tag":{"amenity":"waste_basket"}},"type":"Feature"},
	{"geometry":{"coordinates":[-5.049676,7.689977],"type":"Point"},"properties":{"osm_id":"3765136706","tag":{"amenity":"waste_basket"}},"type":"Feature"},
	{"geometry":{"coordinates":[-5.050328,7.689571],"type":"Point"},"properties":{"osm_id":"3767337852","tag":{"amenity":"waste_basket"}},"type":"Feature"},
	{"geometry":{"coordinates":[-5.049703,7.689578],"type":"Point"},"properties":{"osm_id":"3767658837","tag":{"amenity":"waste_basket"}},"type":"Feature"},
	{"geometry":{"coordinates":[-5.052279,7.68268],"type":"Point"},"properties":{"osm_id":"3768682030","tag":{"amenity":"waste_disposal"}},"type":"Feature"},
	{"geometry":{"coordinates":[-5.050754,7.689152],"type":"Point"},"properties":{"osm_id":"3768710473","tag":{"amenity":"waste_basket"}},"type":"Feature"},
	{"geometry":{"coordinates":[-5.050448,7.689986],"type":"Point"},"properties":{"osm_id":"3768710478","tag":{"amenity":"waste_basket"}},"type":"Feature"},
	{"geometry":{"coordinates":[-5.050547,7.689995],"type":"Point"},"properties":{"osm_id":"3768710479","tag":{"amenity":"waste_basket"}},"type":"Feature"},
	{"geometry":{"coordinates":[-5.030216,7.680486],"type":"Point"},"properties":{"osm_id":"3806568630","tag":{"amenity":"waste_basket"}},"type":"Feature"},
	{"geometry":{"coordinates":[-5.030186,7.681294],"type":"Point"},"properties":{"osm_id":"3806578304","tag":{"amenity":"waste_basket"}},"type":"Feature"},
	{"geometry":{"coordinates":[-5.030198,7.681777],"type":"Point"},"properties":{"osm_id":"3806578632","tag":{"amenity":"waste_basket"}},"type":"Feature"},
	{"geometry":{"coordinates":[-5.030202,7.682373],"type":"Point"},"properties":{"osm_id":"3806587241","tag":{"amenity":"waste_basket"}},"type":"Feature"},
	{"geometry":{"coordinates":[-5.030439,7.6832],"type":"Point"},"properties":{"osm_id":"3806589279","tag":{"amenity":"waste_basket"}},"type":"Feature"},
	{"geometry":{"coordinates":[-5.030462,7.684003],"type":"Point"},"properties":{"osm_id":"3806620423","tag":{"amenity":"waste_basket"}},"type":"Feature"},
	{"geometry":{"coordinates":[-5.025874,7.684268],"type":"Point"},"properties":{"osm_id":"4390078054","tag":{"amenity":"waste_basket"}},"type":"Feature"},
	{"geometry":{"coordinates":[-5.066077,7.686102],"type":"Point"},"properties":{"osm_id":"4429157313","tag":{"amenity":"waste_basket"}},"type":"Feature"},
	{"geometry":{"coordinates":[-5.066215,7.68618],"type":"Point"},"properties":{"osm_id":"4429161030","tag":{"amenity":"waste_basket"}},"type":"Feature"},
	{"geometry":{"coordinates":[-5.066469,7.686531],"type":"Point"},"properties":{"osm_id":"4430545222","tag":{"amenity":"waste_basket"}},"type":"Feature"},
	{"geometry":{"coordinates":[-5.07795,7.680356],"type":"Point"},"properties":{"osm_id":"4434312792","tag":{"amenity":"waste_basket"}},"type":"Feature"},
	{"geometry":{"coordinates":[-5.068187,7.685204],"type":"Point"},"properties":{"osm_id":"4434330523","tag":{"amenity":"waste_basket"}},"type":"Feature"},
	{"geometry":{"coordinates":[-5.065935,7.686555],"type":"Point"},"properties":{"osm_id":"4434334943","tag":{"amenity":"waste_basket"}},"type":"Feature"},
	{"geometry":{"coordinates":[-5.066245,7.686857],"type":"Point"},"properties":{"osm_id":"4434334970","tag":{"amenity":"waste_basket"}},"type":"Feature"},
	{"geometry":{"coordinates":[-5.066102,7.686971],"type":"Point"},"properties":{"osm_id":"4434334982","tag":{"amenity":"waste_basket"}},"type":"Feature"},
	{"geometry":{"coordinates":[-5.077431,7.679819],"type":"Point"},"properties":{"osm_id":"4434342622","tag":{"amenity":"waste_basket"}},"type":"Feature"},
	{"geometry":{"coordinates":[-5.068015,7.684985],"type":"Point"},"properties":{"osm_id":"4434346009","tag":{"amenity":"waste_basket"}},"type":"Feature"},
	{"geometry":{"coordinates":[-5.078926,7.679835],"type":"Point"},"properties":{"osm_id":"4434346581","tag":{"amenity":"waste_disposal"}},"type":"Feature"},
	{"geometry":{"coordinates":[-5.076746,7.679955],"type":"Point"},"properties":{"osm_id":"4434363758","tag":{"amenity":"waste_basket"}},"type":"Feature"},
	{"geometry":{"coordinates":[-5.076512,7.679903],"type":"Point"},"properties":{"osm_id":"4434371342","tag":{"amenity":"waste_basket"}},"type":"Feature"},
	{"geometry":{"coordinates":[-5.066602,7.686905],"type":"Point"},"properties":{"osm_id":"4434372681","tag":{"amenity":"waste_basket"}},"type":"Feature"},
	{"geometry":{"coordinates":[-5.067346,7.684801],"type":"Point"},"properties":{"osm_id":"4434376996","tag":{"amenity":"waste_basket"}},"type":"Feature"},
	{"geometry":{"coordinates":[-5.077476,7.680415],"type":"Point"},"properties":{"osm_id":"4434395328","tag":{"amenity":"waste_basket"}},"type":"Feature"},
	{"geometry":{"coordinates":[-5.066231,7.687453],"type":"Point"},"properties":{"osm_id":"4434465875","tag":{"amenity":"waste_basket"}},"type":"Feature"},
	{"geometry":{"coordinates":[-5.067338,7.68703],"type":"Point"},"properties":{"osm_id":"4434630115","tag":{"amenity":"waste_basket"}},"type":"Feature"},
	{"geometry":{"coordinates":[-5.067195,7.687051],"type":"Point"},"properties":{"osm_id":"4434630117","tag":{"amenity":"waste_basket"}},"type":"Feature"},
	{"geometry":{"coordinates":[-5.067139,7.686895],"type":"Point"},"properties":{"osm_id":"4434645398","tag":{"amenity":"waste_basket"}},"type":"Feature"},
	{"geometry":{"coordinates":[-5.037083,7.687724],"type":"Point"},"properties":{"osm_id":"4436185649","tag":{"addr:street":"Rue de l'Avenir","amenity":"waste_disposal"}},"type":"Feature"},
	{"geometry":{"coordinates":[-5.03285,7.688331],"type":"Point"},"properties":{"osm_id":"4436224999","tag":{"amenity":"waste_disposal"}},"type":"Feature"},
	{"geometry":{"coordinates":[-5.034256,7.691784],"type":"Point"},"properties":{"osm_id":"4436450462","tag":{"amenity":"waste_basket"}},"type":"Feature"},
	{"geometry":{"coordinates":[-5.033869,7.6918],"type":"Point"},"properties":{"osm_id":"4436450463","tag":{"amenity":"waste_basket"}},"type":"Feature"},
	{"geometry":{"coordinates":[-5.03255,7.692717],"type":"Point"},"properties":{"osm_id":"4436450464","tag":{"amenity":"waste_basket"}},"type":"Feature"},
	{"geometry":{"coordinates":[-5.032961,7.692732],"type":"Point"},"properties":{"osm_id":"4436450465","tag":{"amenity":"waste_basket"}},"type":"Feature"},
	{"geometry":{"coordinates":[-5.033731,7.692754],"type":"Point"},"properties":{"osm_id":"4436450466","tag":{"amenity":"waste_basket"}},"type":"Feature"},
	{"geometry":{"coordinates":[-5.039578,7.699716],"type":"Point"},"properties":{"osm_id":"5508877572","tag":{"amenity":"recycling","recycling:scrap_metal":"yes"}},"type":"Feature"},
	{"geometry":{"coordinates":[-5.032822,7.690855],"type":"Point"},"properties":{"osm_id":"6612058023","tag":{"amenity":"waste_basket","condition":"poor","informal":"yes","material":"wood","operator":"M\u00c3\u00a9nage","operator:type":"multifamily","waste":"trash"}},"type":"Feature"},
	{"geometry":{"coordinates":[-5.03221,7.692194],"type":"Point"},"properties":{"osm_id":"6612058024","tag":{"amenity":"waste_basket","condition":"fair","informal":"yes","material":"metal","operator:type":"multifamily","waste":"trash"}},"type":"Feature"},
	{"geometry":{"coordinates":[-5.034018,7.69112],"type":"Point"},"properties":{"osm_id":"6612058025","tag":{"amenity":"waste_basket","condition":"fair","informal":"yes","material":"plastic","operator:type":"multifamily","waste":"trash"}},"type":"Feature"},
	{"geometry":{"coordinates":[-5.031411,7.691176],"type":"Point"},"properties":{"osm_id":"6612058026","tag":{"amenity":"waste_basket","condition":"poor","informal":"yes","material":"metal","operator":"Menage","operator:type":"multifamily","waste":"trash"}},"type":"Feature"},
	{"geometry":{"coordinates":[-5.043156,7.700178],"type":"Point"},"properties":{"osm_id":"6612073940","tag":{"amenity":"waste_basket","condition":"poor","informal":"yes","material":"plastic","operator:type":"multifamily","waste":"trash"}},"type":"Feature"},
	{"geometry":{"coordinates":[-5.042487,7.700869],"type":"Point"},"properties":{"osm_id":"6612073941","tag":{"amenity":"waste_basket","condition":"poor","informal":"yes","material":"plastic","operator:type":"multifamily","waste":"trash"}},"type":"Feature"},
	{"geometry":{"coordinates":[-5.042879,7.7008],"type":"Point"},"properties":{"osm_id":"6612073942","tag":{"amenity":"waste_basket","condition":"poor","informal":"yes","material":"plastic","operator:type":"multifamily","waste":"trash"}},"type":"Feature"},
	{"geometry":{"coordinates":[-5.042647,7.701447],"type":"Point"},"properties":{"osm_id":"6612073943","tag":{"amenity":"waste_basket","condition":"poor","informal":"yes","material":"plastic","operator:type":"community","waste":"trash"}},"type":"Feature"},
	{"geometry":{"coordinates":[-5.042958,7.702105],"type":"Point"},"properties":{"osm_id":"6612073944","tag":{"amenity":"waste_basket","condition":"poor","informal":"yes","material":"plastic","operator:type":"community","waste":"trash"}},"type":"Feature"},
	{"geometry":{"coordinates":[-5.043508,7.701553],"type":"Point"},"properties":{"osm_id":"6612073945","tag":{"amenity":"waste_basket","condition":"poor","informal":"yes","material":"plastic","operator:type":"multifamily","waste":"trash"}},"type":"Feature"},
	{"geometry":{"coordinates":[-5.043429,7.700394],"type":"Point"},"properties":{"osm_id":"6612073946","tag":{"amenity":"waste_basket","condition":"poor","informal":"yes","material":"plastic","operator:type":"multifamily","waste":"trash"}},"type":"Feature"},
	{"geometry":{"coordinates":[-5.042446,7.69929],"type":"Point"},"properties":{"osm_id":"6612073947","tag":{"amenity":"waste_basket","condition":"poor","informal":"yes","material":"none","operator:type":"community","waste":"trash"}},"type":"Feature"},
	{"geometry":{"coordinates":[-5.04135,7.699411],"type":"Point"},"properties":{"osm_id":"6612073948","tag":{"amenity":"waste_basket","condition":"poor","informal":"yes","operator:type":"community","waste":"trash","waste_disposal:structure":"no"}},"type":"Feature"},
	{"geometry":{"coordinates":[-5.040957,7.698707],"type":"Point"},"properties":{"osm_id":"6612073949","tag":{"amenity":"waste_basket","condition":"poor","informal":"yes","material":"none","operator:type":"community","waste":"trash"}},"type":"Feature"},
	{"geometry":{"coordinates":[-5.04078,7.698272],"type":"Point"},"properties":{"osm_id":"6612073950","tag":{"amenity":"waste_basket","condition":"poor","informal":"yes","operator:type":"multifamily","waste":"trash","waste_disposal:structure":"no"}},"type":"Feature"},
	{"geometry":{"coordinates":[-5.04013,7.710053],"type":"Point"},"properties":{"osm_id":"6620329152","tag":{"amenity":"waste_disposal","condition":"poor","informal":"yes","material":"none","waste":"trash"}},"type":"Feature"},
	{"geometry":{"coordinates":[-5.041207,7.709363],"type":"Point"},"properties":{"osm_id":"6620329153","tag":{"amenity":"waste_disposal","condition":"fair","material":"plastic","operator:type":"private","waste":"construction_waste"}},"type":"Feature"},
	{"geometry":{"coordinates":[-5.041843,7.70548],"type":"Point"},"properties":{"osm_id":"6620329154","tag":{"amenity":"waste_disposal","condition":"poor","informal":"yes","material":"none","waste":"trash"}},"type":"Feature"},
	{"geometry":{"coordinates":[-5.044242,7.703477],"type":"Point"},"properties":{"osm_id":"6620329155","tag":{"amenity":"waste_disposal","condition":"poor","informal":"yes","material":"plastic","waste":"trash"}},"type":"Feature"},
	{"geometry":{"coordinates":[-5.04112,7.707398],"type":"Point"},"properties":{"osm_id":"6620329156","tag":{"amenity":"waste_disposal","condition":"poor","informal":"yes","material":"none","waste":"trash"}},"type":"Feature"},
	{"geometry":{"coordinates":[-5.04075,7.708245],"type":"Point"},"properties":{"osm_id":"6620329157","tag":{"amenity":"waste_disposal","condition":"poor","informal":"yes","material":"none","waste":"trash"}},"type":"Feature"},
	{"geometry":{"coordinates":[-5.017535,7.6828],"type":"Point"},"properties":{"osm_id":"6624446832","tag":{"amenity":"waste_basket","condition":"fair","material":"metal","operator":"ANAGED","operator:type":"public","waste":"trash"}},"type":"Feature"},
	{"geometry":{"coordinates":[-5.017955,7.682605],"type":"Point"},"properties":{"osm_id":"6624446833","tag":{"amenity":"waste_basket","condition":"fair","material":"metal","operator:type":"public","waste":"trash"}},"type":"Feature"},
	{"geometry":{"coordinates":[-5.016568,7.685788],"type":"Point"},"properties":{"osm_id":"6624446834","tag":{"amenity":"waste_disposal","informal":"yes","waste":"construction_waste","waste_disposal:structure":"no"}},"type":"Feature"},
	{"geometry":{"coordinates":[-5.016253,7.68622],"type":"Point"},"properties":{"osm_id":"6624446835","tag":{"amenity":"waste_disposal","condition":"good","informal":"yes","material":"metal","waste":"trash","waste_disposal:structure":"yes"}},"type":"Feature"},
	{"geometry":{"coordinates":[-5.022137,7.685487],"type":"Point"},"properties":{"osm_id":"6624446836","tag":{"amenity":"waste_disposal","informal":"yes","waste":"construction_waste","waste_disposal:structure":"no"}},"type":"Feature"},
	{"geometry":{"coordinates":[-5.021912,7.685789],"type":"Point"},"properties":{"osm_id":"6624446837","tag":{"amenity":"waste_disposal","informal":"yes","waste":"construction_waste","waste_disposal:structure":"no"}},"type":"Feature"},
	{"geometry":{"coordinates":[-5.01976,7.687527],"type":"Point"},"properties":{"osm_id":"6624446838","tag":{"amenity":"waste_disposal","informal":"yes","waste":"trash","waste_disposal:structure":"no"}},"type":"Feature"},
	{"geometry":{"coordinates":[-5.021106,7.688019],"type":"Point"},"properties":{"osm_id":"6624446839","tag":{"amenity":"waste_disposal","informal":"yes","waste":"trash","waste_disposal:structure":"no"}},"type":"Feature"},
	{"geometry":{"coordinates":[-5.021717,7.688271],"type":"Point"},"properties":{"osm_id":"6624446840","tag":{"amenity":"waste_disposal","informal":"yes","waste":"construction_waste","waste_disposal:structure":"no"}},"type":"Feature"},
	{"geometry":{"coordinates":[-5.021545,7.666385],"type":"Point"},"properties":{"osm_id":"6624585612","tag":{"amenity":"waste_disposal","informal":"yes","waste":"trash","waste_disposal:structure":"no"}},"type":"Feature"},
	{"geometry":{"coordinates":[-5.022433,7.667134],"type":"Point"},"properties":{"osm_id":"6624585613","tag":{"amenity":"waste_disposal","informal":"yes","waste":"trash","waste_disposal:structure":"no"}},"type":"Feature"},
	{"geometry":{"coordinates":[-5.020825,7.667902],"type":"Point"},"properties":{"osm_id":"6624585614","tag":{"amenity":"waste_disposal","informal":"yes","waste":"green_waste","waste_disposal:structure":"no"}},"type":"Feature"},
	{"geometry":{"coordinates":[-5.02057,7.668534],"type":"Point"},"properties":{"osm_id":"6624585615","tag":{"amenity":"waste_disposal","informal":"yes","waste":"trash","waste_disposal:structure":"no"}},"type":"Feature"},
	{"geometry":{"coordinates":[-5.019251,7.669655],"type":"Point"},"properties":{"osm_id":"6624585616","tag":{"amenity":"waste_disposal","informal":"yes","waste":"trash","waste_disposal:structure":"no"}},"type":"Feature"},
	{"geometry":{"coordinates":[-5.0199,7.670422],"type":"Point"},"properties":{"osm_id":"6624585617","tag":{"amenity":"waste_basket","condition":"fair","material":"plastic","operator:type":"multifamily","waste":"trash"}},"type":"Feature"},
	{"geometry":{"coordinates":[-5.019698,7.670991],"type":"Point"},"properties":{"osm_id":"6624585618","tag":{"amenity":"waste_disposal","informal":"yes","waste":"trash","waste_disposal:structure":"no"}},"type":"Feature"},
	{"geometry":{"coordinates":[-5.018759,7.672001],"type":"Point"},"properties":{"osm_id":"6624585619","tag":{"amenity":"waste_basket","condition":"fair","material":"plastic","operator:type":"multifamily","waste":"trash"}},"type":"Feature"},
	{"geometry":{"coordinates":[-5.021943,7.674945],"type":"Point"},"properties":{"osm_id":"6624585620","tag":{"amenity":"waste_disposal","informal":"yes","waste":"trash","waste_disposal:structure":"no"}},"type":"Feature"},
	{"geometry":{"coordinates":[-5.019889,7.673305],"type":"Point"},"properties":{"osm_id":"6624585621","tag":{"amenity":"waste_disposal","informal":"yes","waste":"trash","waste_disposal:structure":"no"}},"type":"Feature"},
	{"geometry":{"coordinates":[-5.019478,7.675132],"type":"Point"},"properties":{"osm_id":"6624585622","tag":{"amenity":"waste_basket","condition":"fair","material":"metal","operator":"Public","operator:type":"public","waste":"trash"}},"type":"Feature"},
	{"geometry":{"coordinates":[-5.017623,7.675328],"type":"Point"},"properties":{"osm_id":"6624585623","tag":{"amenity":"waste_disposal","informal":"yes","waste":"trash","waste_disposal:structure":"no"}},"type":"Feature"},
	{"geometry":{"coordinates":[-5.017792,7.659269],"type":"Point"},"properties":{"osm_id":"6624587993","tag":{"amenity":"waste_basket","condition":"good","material":"metal","operator":"Anaged","operator:type":"public","waste":"trash"}},"type":"Feature"},
	{"geometry":{"coordinates":[-5.015936,7.676978],"type":"Point"},"properties":{"osm_id":"6624632292","tag":{"amenity":"waste_basket","condition":"fair","material":"metal","operator":"ANAGED","operator:type":"public","waste":"trash"}},"type":"Feature"},
	{"geometry":{"coordinates":[-5.016827,7.679152],"type":"Point"},"properties":{"osm_id":"6624632293","tag":{"amenity":"waste_basket","condition":"fair","material":"metal","operator":"ANAGED","operator:type":"public","waste":"trash"}},"type":"Feature"},
	{"geometry":{"coordinates":[-5.017956,7.682608],"type":"Point"},"properties":{"osm_id":"6624632294","tag":{"amenity":"waste_basket","condition":"fair","material":"metal","operator":"ANAGED","operator:type":"public","waste":"trash"}},"type":"Feature"},
	{"geometry":{"coordinates":[-5.017418,7.680397],"type":"Point"},"properties":{"osm_id":"6624632296","tag":{"amenity":"waste_basket","condition":"poor","material":"metal","operator":"ANAGED","operator:type":"public","waste":"trash"}},"type":"Feature"},
	{"geometry":{"coordinates":[-5.015842,7.68073],"type":"Point"},"properties":{"osm_id":"6624632297","tag":{"amenity":"waste_basket","condition":"fair","material":"metal","operator":"ANAGED","operator:type":"public","waste":"trash"}},"type":"Feature"},
	{"geometry":{"coordinates":[-5.015275,7.680462],"type":"Point"},"properties":{"osm_id":"6624632298","tag":{"amenity":"waste_basket","condition":"fair","material":"metal","operator":"ANAGED","operator:type":"public","waste":"trash"}},"type":"Feature"},
	{"geometry":{"coordinates":[-5.015507,7.680375],"type":"Point"},"properties":{"osm_id":"6624632299","tag":{"amenity":"waste_basket","condition":"fair","material":"metal","operator":"ANAGED","operator:type":"public","waste":"trash"}},"type":"Feature"},
	{"geometry":{"coordinates":[-5.016295,7.67996],"type":"Point"},"properties":{"osm_id":"6624632300","tag":{"amenity":"waste_basket","condition":"fair","material":"metal","operator":"ANAGED","operator:type":"public","waste":"trash"}},"type":"Feature"},
	{"geometry":{"coordinates":[-5.016797,7.679655],"type":"Point"},"properties":{"osm_id":"6624632301","tag":{"amenity":"waste_basket","condition":"fair","material":"metal","operator":"ANAGED","operator:type":"public","waste":"trash"}},"type":"Feature"},
	{"geometry":{"coordinates":[-5.01743,7.67939],"type":"Point"},"properties":{"osm_id":"6624632302","tag":{"amenity":"waste_basket","condition":"fair","material":"metal","operator":"ANAGED","operator:type":"public","waste":"trash"}},"type":"Feature"},
	{"geometry":{"coordinates":[-5.016245,7.679487],"type":"Point"},"properties":{"osm_id":"6624632303","tag":{"amenity":"waste_basket","condition":"fair","material":"metal","operator":"ANAGED","operator:type":"public","waste":"trash"}},"type":"Feature"},
	{"geometry":{"coordinates":[-5.014565,7.679858],"type":"Point"},"properties":{"osm_id":"6624632305","tag":{"amenity":"waste_basket","condition":"fair","material":"metal","operator":"ANAGED","operator:type":"public","waste":"trash"}},"type":"Feature"},
	{"geometry":{"coordinates":[-5.016477,7.67881],"type":"Point"},"properties":{"osm_id":"6624632306","tag":{"amenity":"waste_basket","condition":"poor","material":"metal","operator":"ANAGED","operator:type":"public","waste":"trash"}},"type":"Feature"},
	{"geometry":{"coordinates":[-5.016568,7.678305],"type":"Point"},"properties":{"osm_id":"6624632307","tag":{"amenity":"waste_basket","condition":"fair","material":"metal","operator":"ANAGED","operator:type":"public","waste":"trash"}},"type":"Feature"},
	{"geometry":{"coordinates":[-5.016517,7.676758],"type":"Point"},"properties":{"osm_id":"6624632308","tag":{"amenity":"waste_basket","condition":"fair","material":"metal","operator":"ANAGED","operator:type":"public","waste":"trash"}},"type":"Feature"},
	{"geometry":{"coordinates":[-5.015317,7.67717],"type":"Point"},"properties":{"osm_id":"6624632309","tag":{"amenity":"waste_basket","condition":"fair","material":"metal","operator":"ANAGED","operator:type":"public","waste":"trash"}},"type":"Feature"},
	{"geometry":{"coordinates":[-5.015198,7.6771],"type":"Point"},"properties":{"osm_id":"6624632310","tag":{"amenity":"waste_basket","condition":"fair","material":"metal","operator":"ANAGED","operator:type":"public","waste":"trash"}},"type":"Feature"},
	{"geometry":{"coordinates":[-5.01587,7.676505],"type":"Point"},"properties":{"osm_id":"6624632311","tag":{"amenity":"waste_basket","condition":"fair","material":"metal","operator":"ANAGED","operator:type":"public","waste":"trash"}},"type":"Feature"},
	{"geometry":{"coordinates":[-5.01813,7.676837],"type":"Point"},"properties":{"osm_id":"6624632312","tag":{"amenity":"waste_basket","condition":"poor","material":"metal","operator":"ANAGED","operator:type":"public","waste":"trash"}},"type":"Feature"},
	{"geometry":{"coordinates":[-5.020511,7.676174],"type":"Point"},"properties":{"osm_id":"6624632313","tag":{"amenity":"waste_basket","condition":"fair","material":"metal","operator":"ANAGED","operator:type":"public","waste":"trash"}},"type":"Feature"},
	{"geometry":{"coordinates":[-5.020698,7.6761],"type":"Point"},"properties":{"osm_id":"6624632314","tag":{"amenity":"waste_basket","condition":"fair","material":"metal","operator":"ANAGED","operator:type":"public","waste":"trash"}},"type":"Feature"},
	{"geometry":{"coordinates":[-5.018422,7.677833],"type":"Point"},"properties":{"osm_id":"6624632315","tag":{"amenity":"waste_basket","condition":"fair","material":"metal","operator":"ANAGED","operator:type":"public","waste":"trash"}},"type":"Feature"},
	{"geometry":{"coordinates":[-5.018163,7.677967],"type":"Point"},"properties":{"osm_id":"6624632316","tag":{"amenity":"waste_basket","condition":"fair","material":"metal","operator":"ANAGED","operator:type":"public","waste":"trash"}},"type":"Feature"},
	{"geometry":{"coordinates":[-5.018322,7.678381],"type":"Point"},"properties":{"osm_id":"6624632317","tag":{"amenity":"waste_basket","condition":"fair","material":"metal","operator":"ANAGED","operator:type":"public","waste":"trash"}},"type":"Feature"},
	{"geometry":{"coordinates":[-5.019132,7.67793],"type":"Point"},"properties":{"osm_id":"6624632318","tag":{"amenity":"waste_basket","condition":"fair","material":"metal","operator":"ANAGED","operator:type":"public","waste":"trash"}},"type":"Feature"},
	{"geometry":{"coordinates":[-5.02006,7.677958],"type":"Point"},"properties":{"osm_id":"6624632319","tag":{"amenity":"waste_basket","condition":"poor","material":"metal","operator":"ANAGED","operator:type":"public","waste":"trash"}},"type":"Feature"},
	{"geometry":{"coordinates":[-5.019593,7.678223],"type":"Point"},"properties":{"osm_id":"6624632320","tag":{"amenity":"waste_basket","condition":"poor","material":"metal","operator":"ANAGED","operator:type":"public","waste":"trash"}},"type":"Feature"},
	{"geometry":{"coordinates":[-5.019073,7.678513],"type":"Point"},"properties":{"osm_id":"6624632321","tag":{"amenity":"waste_basket","condition":"fair","material":"metal","operator":"ANAGED","operator:type":"public","waste":"trash"}},"type":"Feature"},
	{"geometry":{"coordinates":[-5.01843,7.678877],"type":"Point"},"properties":{"osm_id":"6624632322","tag":{"amenity":"waste_basket","condition":"poor","material":"metal","operator":"ANAGED","operator:type":"public","waste":"trash"}},"type":"Feature"},
	{"geometry":{"coordinates":[-5.017838,7.678975],"type":"Point"},"properties":{"osm_id":"6624632323","tag":{"amenity":"waste_basket","condition":"poor","material":"metal","operator":"ANAGED","operator:type":"public","waste":"trash"}},"type":"Feature"},
	{"geometry":{"coordinates":[-5.018708,7.679222],"type":"Point"},"properties":{"osm_id":"6624632324","tag":{"amenity":"waste_basket","condition":"poor","material":"metal","operator":"ANAGED","operator:type":"public","waste":"trash"}},"type":"Feature"},
	{"geometry":{"coordinates":[-5.019115,7.678997],"type":"Point"},"properties":{"osm_id":"6624632325","tag":{"amenity":"waste_basket","condition":"fair","material":"metal","operator":"ANAGED","operator:type":"public","waste":"trash"}},"type":"Feature"},
	{"geometry":{"coordinates":[-5.020068,7.67849],"type":"Point"},"properties":{"osm_id":"6624632326","tag":{"amenity":"waste_basket","condition":"poor","material":"metal","operator":"ANAGED","operator:type":"public","waste":"trash"}},"type":"Feature"},
	{"geometry":{"coordinates":[-5.018613,7.67976],"type":"Point"},"properties":{"osm_id":"6624632327","tag":{"amenity":"waste_basket","condition":"fair","material":"metal","operator":"ANAGED","operator:type":"public","waste":"trash"}},"type":"Feature"},
	{"geometry":{"coordinates":[-5.018275,7.679827],"type":"Point"},"properties":{"osm_id":"6624632328","tag":{"amenity":"waste_basket","condition":"fair","material":"metal","operator":"ANAGED","operator:type":"public","waste":"trash"}},"type":"Feature"},
	{"geometry":{"coordinates":[-5.019207,7.679957],"type":"Point"},"properties":{"osm_id":"6624632329","tag":{"amenity":"waste_basket","condition":"fair","material":"metal","operator":"ANAGED","operator:type":"public","waste":"trash"}},"type":"Feature"},
	{"geometry":{"coordinates":[-5.019677,7.679757],"type":"Point"},"properties":{"osm_id":"6624632330","tag":{"amenity":"waste_basket","condition":"fair","material":"metal","operator":"ANAGED","operator:type":"public","waste":"trash"}},"type":"Feature"},
	{"geometry":{"coordinates":[-5.02089,7.679114],"type":"Point"},"properties":{"osm_id":"6624632331","tag":{"amenity":"waste_basket","condition":"fair","material":"metal","operator":"ANAGED","operator:type":"public","waste":"trash"}},"type":"Feature"},
	{"geometry":{"coordinates":[-5.019681,7.680768],"type":"Point"},"properties":{"osm_id":"6624632332","tag":{"amenity":"waste_basket","condition":"good","material":"metal","operator":"ANAGED","operator:type":"public","waste":"trash"}},"type":"Feature"},
	{"geometry":{"coordinates":[-5.020875,7.681145],"type":"Point"},"properties":{"osm_id":"6624632333","tag":{"amenity":"waste_basket","condition":"fair","material":"metal","operator":"ANAGED","operator:type":"public","waste":"trash"}},"type":"Feature"},
	{"geometry":{"coordinates":[-5.02179,7.680684],"type":"Point"},"properties":{"osm_id":"6624632334","tag":{"amenity":"waste_basket","condition":"fair","material":"metal","operator":"ANAGED","operator:type":"public","waste":"trash"}},"type":"Feature"},
	{"geometry":{"coordinates":[-5.027432,7.695877],"type":"Point"},"properties":{"osm_id":"6627412336","tag":{"amenity":"waste_disposal","material":"metal"}},"type":"Feature"},
	{"geometry":{"coordinates":[-5.016525,7.6729],"type":"Point"},"properties":{"osm_id":"6631760281","tag":{"amenity":"waste_disposal","informal":"yes","waste":"trash","waste_disposal_structure":"no"}},"type":"Feature"},
	{"geometry":{"coordinates":[-5.014368,7.681402],"type":"Point"},"properties":{"osm_id":"6631801393","tag":{"amenity":"waste_basket","condition":"poor","deviceid":"358638088498485","material":"metal","operator":"ANAGED","operator_type":"public","start":"2019-07-18T15:11:28.218Z","waste":"trash"}},"type":"Feature"},
	{"geometry":{"coordinates":[-5.013194,7.672264],"type":"Point"},"properties":{"osm_id":"6631801394","tag":{"amenity":"waste_basket","condition":"fair","deviceid":"358638088632588","material":"metal","operator":"ANAGED","operator_type":"public","start":"2019-07-18T15:14:08.206Z","waste":"trash"}},"type":"Feature"},
	{"geometry":{"coordinates":[-5.011444,7.668061],"type":"Point"},"properties":{"osm_id":"6631895941","tag":{"amenity":"waste_disposal","informal":"yes","waste":"trash","waste_disposal_structure":"no"}},"type":"Feature"},
	{"geometry":{"coordinates":[-5.011778,7.66807],"type":"Point"},"properties":{"osm_id":"6631895942","tag":{"amenity":"waste_basket","condition":"fair","material":"plastic","operator_type":"private","waste":"trash"}},"type":"Feature"},
	{"geometry":{"coordinates":[-5.012003,7.668357],"type":"Point"},"properties":{"osm_id":"6631895943","tag":{"amenity":"waste_disposal","informal":"yes","waste":"trash","waste_disposal_structure":"no"}},"type":"Feature"},
	{"geometry":{"coordinates":[-5.012128,7.668169],"type":"Point"},"properties":{"osm_id":"6631895944","tag":{"amenity":"waste_disposal","informal":"yes","waste":"trash","waste_disposal_structure":"no"}},"type":"Feature"},
	{"geometry":{"coordinates":[-5.012585,7.668035],"type":"Point"},"properties":{"osm_id":"6631895945","tag":{"amenity":"waste_basket","condition":"fair","material":"plastic","operator_type":"private","waste":"trash"}},"type":"Feature"},
	{"geometry":{"coordinates":[-5.013151,7.668075],"type":"Point"},"properties":{"osm_id":"6631895946","tag":{"amenity":"waste_disposal","informal":"yes","waste":"trash","waste_disposal_structure":"no"}},"type":"Feature"},
	{"geometry":{"coordinates":[-5.01327,7.668592],"type":"Point"},"properties":{"osm_id":"6631895947","tag":{"amenity":"waste_disposal","informal":"yes","waste":"trash","waste_disposal_structure":"no"}},"type":"Feature"},
	{"geometry":{"coordinates":[-5.013101,7.66857],"type":"Point"},"properties":{"osm_id":"6631895948","tag":{"amenity":"waste_disposal","informal":"yes","waste":"trash","waste_disposal_structure":"no"}},"type":"Feature"},
	{"geometry":{"coordinates":[-5.012862,7.668595],"type":"Point"},"properties":{"osm_id":"6631895949","tag":{"amenity":"waste_basket","condition":"fair","material":"metal","operator_type":"private","waste":"trash"}},"type":"Feature"},
	{"geometry":{"coordinates":[-5.012503,7.668575],"type":"Point"},"properties":{"osm_id":"6631895950","tag":{"amenity":"waste_basket","condition":"fair","material":"metal","operator_type":"private","waste":"trash"}},"type":"Feature"},
	{"geometry":{"coordinates":[-5.012427,7.668628],"type":"Point"},"properties":{"osm_id":"6631895951","tag":{"amenity":"waste_basket","condition":"fair","material":"metal","operator_type":"private","waste":"trash"}},"type":"Feature"},
	{"geometry":{"coordinates":[-5.011972,7.668633],"type":"Point"},"properties":{"osm_id":"6631895952","tag":{"amenity":"waste_disposal","informal":"yes","waste":"trash","waste_disposal_structure":"no"}},"type":"Feature"},
	{"geometry":{"coordinates":[-5.01155,7.668633],"type":"Point"},"properties":{"osm_id":"6631895953","tag":{"amenity":"waste_disposal","informal":"yes","waste":"trash","waste_disposal_structure":"no"}},"type":"Feature"},
	{"geometry":{"coordinates":[-5.011203,7.668634],"type":"Point"},"properties":{"osm_id":"6631895954","tag":{"amenity":"waste_disposal","informal":"yes","waste":"trash","waste_disposal_structure":"no"}},"type":"Feature"},
	{"geometry":{"coordinates":[-5.010352,7.669224],"type":"Point"},"properties":{"osm_id":"6631895955","tag":{"amenity":"waste_disposal","informal":"yes","waste":"trash","waste_disposal_structure":"no"}},"type":"Feature"},
	{"geometry":{"coordinates":[-5.010717,7.669843],"type":"Point"},"properties":{"osm_id":"6631895956","tag":{"amenity":"waste_disposal","informal":"yes","waste":"liquid","waste_disposal_structure":"no","waste_liquid":"lavatory"}},"type":"Feature"},
	{"geometry":{"coordinates":[-5.01032,7.670085],"type":"Point"},"properties":{"osm_id":"6631895957","tag":{"amenity":"waste_disposal","informal":"yes","waste":"trash","waste_disposal_structure":"no"}},"type":"Feature"},
	{"geometry":{"coordinates":[-5.010048,7.670601],"type":"Point"},"properties":{"osm_id":"6631895958","tag":{"amenity":"waste_disposal","informal":"yes","waste":"trash","waste_disposal_structure":"no"}},"type":"Feature"},
	{"geometry":{"coordinates":[-5.010657,7.671523],"type":"Point"},"properties":{"osm_id":"6631895959","tag":{"amenity":"waste_disposal","informal":"yes","waste":"trash","waste_disposal_structure":"no"}},"type":"Feature"},
	{"geometry":{"coordinates":[-5.010989,7.671238],"type":"Point"},"properties":{"osm_id":"6631895960","tag":{"amenity":"waste_disposal","informal":"yes","waste":"liquid","waste_disposal_structure":"no","waste_liquid":"lavatory"}},"type":"Feature"},
	{"geometry":{"coordinates":[-5.0112,7.671322],"type":"Point"},"properties":{"osm_id":"6631895961","tag":{"amenity":"waste_disposal","informal":"yes","waste":"trash","waste_disposal_structure":"no"}},"type":"Feature"},
	{"geometry":{"coordinates":[-5.011345,7.67131],"type":"Point"},"properties":{"osm_id":"6631895962","tag":{"amenity":"waste_disposal","informal":"yes","waste":"trash","waste_disposal_structure":"no"}},"type":"Feature"},
	{"geometry":{"coordinates":[-5.011424,7.671237],"type":"Point"},"properties":{"osm_id":"6631895963","tag":{"amenity":"waste_basket","condition":"poor","material":"plastic","operator_type":"private","waste":"trash"}},"type":"Feature"},
	{"geometry":{"coordinates":[-5.01159,7.671288],"type":"Point"},"properties":{"osm_id":"6631895964","tag":{"amenity":"waste_disposal","informal":"yes","waste":"trash","waste_disposal_structure":"no"}},"type":"Feature"},
	{"geometry":{"coordinates":[-5.011333,7.67104],"type":"Point"},"properties":{"osm_id":"6631895965","tag":{"amenity":"waste_basket","condition":"poor","material":"plastic","operator_type":"private","waste":"trash"}},"type":"Feature"},
	{"geometry":{"coordinates":[-5.011242,7.67042],"type":"Point"},"properties":{"osm_id":"6631895966","tag":{"amenity":"waste_basket","condition":"fair","material":"plastic","operator_type":"private","waste":"trash"}},"type":"Feature"},
	{"geometry":{"coordinates":[-5.011145,7.670188],"type":"Point"},"properties":{"osm_id":"6631895967","tag":{"amenity":"waste_disposal","informal":"yes","waste":"trash","waste_disposal_structure":"no"}},"type":"Feature"},
	{"geometry":{"coordinates":[-5.011643,7.670128],"type":"Point"},"properties":{"osm_id":"6631895968","tag":{"amenity":"waste_basket","condition":"fair","material":"metal","operator_type":"private","waste":"trash"}},"type":"Feature"},
	{"geometry":{"coordinates":[-5.011265,7.669812],"type":"Point"},"properties":{"osm_id":"6631895969","tag":{"amenity":"waste_disposal","informal":"yes","waste":"trash","waste_disposal_structure":"no"}},"type":"Feature"},
	{"geometry":{"coordinates":[-5.01121,7.66922],"type":"Point"},"properties":{"osm_id":"6631895970","tag":{"amenity":"waste_disposal","informal":"yes","waste":"trash","waste_disposal_structure":"no"}},"type":"Feature"},
	{"geometry":{"coordinates":[-5.01386,7.66921],"type":"Point"},"properties":{"osm_id":"6631895971","tag":{"amenity":"waste_basket","condition":"fair","material":"metal","waste":"trash"}},"type":"Feature"},
	{"geometry":{"coordinates":[-5.012782,7.668988],"type":"Point"},"properties":{"osm_id":"6631895972","tag":{"amenity":"waste_disposal","informal":"yes","waste":"trash","waste_disposal_structure":"no"}},"type":"Feature"},
	{"geometry":{"coordinates":[-5.012983,7.669075],"type":"Point"},"properties":{"osm_id":"6631895973","tag":{"amenity":"waste_disposal","informal":"yes","waste":"trash","waste_disposal_structure":"no"}},"type":"Feature"},
	{"geometry":{"coordinates":[-5.013161,7.668986],"type":"Point"},"properties":{"osm_id":"6631895974","tag":{"amenity":"waste_disposal","informal":"yes","waste":"trash","waste_disposal_structure":"no"}},"type":"Feature"},
	{"geometry":{"coordinates":[-5.013415,7.669945],"type":"Point"},"properties":{"osm_id":"6631895975","tag":{"amenity":"waste_disposal","informal":"yes","waste":"trash","waste_disposal_structure":"no"}},"type":"Feature"}
]
}
