{
"type": "FeatureCollection",
"features": [
	{"geometry":{"coordinates":[81.571888,28.156812],"type":"Point"},"properties":{"name":"safik rice mill","osm_id":"9116625763","tag":{"addr:city":"khajura rm","addr:place":"ward no 8, raniyapur","amenity":"recycling","contact:phone":"9822555368","opening_hours":"daily","operator":"private","recycling_type":"centre"}},"type":"Feature"},
	{"geometry":{"coordinates":[81.596425,28.156162],"type":"Point"},"properties":{"name":"ishak ali rice mill","osm_id":"9116640012","tag":{"addr:city":"khajura rm","addr:place":"ward no 8, budanapur","amenity":"recycling","contact:phone":"9858044736","opening_hours":"daily","operator":"private","recycling_type":"centre"}},"type":"Feature"},
	{"geometry":{"coordinates":[81.596325,28.154867],"type":"Point"},"properties":{"name":"amir rice mill","osm_id":"9116658860","tag":{"addr:city":"khajura rm","addr:place":"ward no 8, budanapur","amenity":"recycling","opening_hours":"daily","operator":"private","recycling_type":"centre"}},"type":"Feature"}
]
}
