{
"type": "FeatureCollection",
"features": [
	{"geometry":{"coordinates":[77.952299,11.079739],"type":"Point"},"properties":{"name":"Pungai maram(Pangama tree)","osm_id":"6145027162","tag":{"denotation":"landmark","leaf_cycle":"deciduous","leaf_type":"broadleaved","name:ta":"\u00e0\u00ae\u00aa\u00e0\u00af\u0081\u00e0\u00ae\u0099\u00e0\u00af\u008d\u00e0\u00ae\u0095\u00e0\u00af\u0088 \u00e0\u00ae\u00ae\u00e0\u00ae\u00b0\u00e0\u00ae\u00ae\u00e0\u00af\u008d","natural":"tree"}},"type":"Feature"},
	{"geometry":{"coordinates":[77.951782,11.080456],"type":"Point"},"properties":{"name":"Veppa maram(Neem tree)","osm_id":"6145027163","tag":{"denotation":"landmark","leaf_cycle":"evergreen","leaf_type":"broadleaved","name:ta":"\u00e0\u00ae\u00b5\u00e0\u00af\u0087\u00e0\u00ae\u00aa\u00e0\u00af\u008d\u00e0\u00ae\u00aa \u00e0\u00ae\u00ae\u00e0\u00ae\u00b0\u00e0\u00ae\u00ae\u00e0\u00af\u008d","natural":"tree"}},"type":"Feature"},
	{"geometry":{"coordinates":[77.952765,11.077187],"type":"Point"},"properties":{"name":"Banyan tree","osm_id":"6168044573","tag":{"addr:city":"Kallipalayam","addr:postcode":"637208","addr:street":"Kaveri river road","denotation":"landmark","leaf_cycle":"evergreen","leaf_type":"broadleaved","name:ta":"\u00e0\u00ae\u0086\u00e0\u00ae\u00b2\u00e0\u00ae\u00ae\u00e0\u00ae\u00b0\u00e0\u00ae\u00ae\u00e0\u00af\u008d","natural":"tree"}},"type":"Feature"},
	{"geometry":{"coordinates":[77.952723,11.077118],"type":"Point"},"properties":{"name":"Neem Tree","osm_id":"6168044574","tag":{"denotation":"landmark","leaf_cycle":"evergreen","leaf_type":"broadleaved","name:ta":"\u00e0\u00ae\u00b5\u00e0\u00af\u0087\u00e0\u00ae\u00aa\u00e0\u00af\u008d\u00e0\u00ae\u00aa \u00e0\u00ae\u00ae\u00e0\u00ae\u00b0\u00e0\u00ae\u00ae\u00e0\u00af\u008d","natural":"tree"}},"type":"Feature"}
]
}
