{
"type": "FeatureCollection",
"lastupdate": "2020-08-06T00:00:00Z",
"features": [
	{"geometry":{"coordinates":[-75.33409,40.626201],"type":"Point"},"properties":{"osm_id":"5346933413","tag":{"amenity":"waste_basket"}},"type":"Feature"},
	{"geometry":{"coordinates":[-75.332569,40.633232],"type":"Point"},"properties":{"osm_id":"5346933523","tag":{"amenity":"waste_basket"}},"type":"Feature"},
	{"geometry":{"coordinates":[-75.334097,40.632138],"type":"Point"},"properties":{"osm_id":"5346933581","tag":{"amenity":"waste_basket"}},"type":"Feature"},
	{"geometry":{"coordinates":[-75.342921,40.59873],"type":"Point"},"properties":{"name":"Crushcrete Inc","osm_id":"6296124794","tag":{"amenity":"recycling","recycling_type":"centre"}},"type":"Feature"},
	{"geometry":{"coordinates":[-75.390737,40.634394],"type":"Point"},"properties":{"name":"Bethlehem Compost Center","osm_id":"7681872086","tag":{"addr:city":"Bethlehem","addr:housenumber":"1408","addr:postcode":"18018","addr:state":"PA","addr:street":"Schoenersville Road","amenity":"recycling","recycling_type":"centre"}},"type":"Feature"}
]
}
