{
"type": "FeatureCollection",
"features": [
	{"geometry":{"coordinates":[-75.343805,40.57978],"type":"Point"},"properties":{"osm_id":"1315388566","tag":{"amenity":"recycling"}},"type":"Feature"},
	{"geometry":{"coordinates":[-75.370307,40.552338],"type":"Point"},"properties":{"osm_id":"1315388571","tag":{"amenity":"waste_basket"}},"type":"Feature"},
	{"geometry":{"coordinates":[-75.370404,40.552313],"type":"Point"},"properties":{"osm_id":"1315388602","tag":{"amenity":"recycling"}},"type":"Feature"},
	{"geometry":{"coordinates":[-75.362486,40.554274],"type":"Point"},"properties":{"osm_id":"1315388604","tag":{"amenity":"waste_basket"}},"type":"Feature"},
	{"geometry":{"coordinates":[-75.387945,40.538042],"type":"Point"},"properties":{"osm_id":"1315388608","tag":{"amenity":"waste_basket"}},"type":"Feature"},
	{"geometry":{"coordinates":[-75.362561,40.554261],"type":"Point"},"properties":{"osm_id":"1315388614","tag":{"amenity":"recycling"}},"type":"Feature"},
	{"geometry":{"coordinates":[-75.380087,40.548652],"type":"Point"},"properties":{"osm_id":"1315388654","tag":{"amenity":"recycling"}},"type":"Feature"},
	{"geometry":{"coordinates":[-75.343794,40.579735],"type":"Point"},"properties":{"osm_id":"1315388681","tag":{"amenity":"waste_basket"}},"type":"Feature"},
	{"geometry":{"coordinates":[-75.380038,40.548705],"type":"Point"},"properties":{"osm_id":"1315388690","tag":{"amenity":"waste_basket"}},"type":"Feature"},
	{"geometry":{"coordinates":[-75.387988,40.538034],"type":"Point"},"properties":{"osm_id":"1315388705","tag":{"amenity":"recycling"}},"type":"Feature"},
	{"geometry":{"coordinates":[-75.334985,40.563034],"type":"Point"},"properties":{"name":"Saucon Valley Compost Center","osm_id":"3544267123","tag":{"amenity":"recycling","recycling:cans":"no","recycling:clothes":"no","recycling:glass":"no","recycling:paper":"no"}},"type":"Feature"}
]
}
