{
"type": "FeatureCollection",
"lastupdate": "2020-08-02T00:00:00Z",
"features": [
	{"geometry":{"coordinates":[-75.404015,-10.576853],"type":"Point"},"properties":{"osm_id":"4322025165","tag":{"amenity":"waste_basket"}},"type":"Feature"},
	{"geometry":{"coordinates":[-75.404113,-10.576934],"type":"Point"},"properties":{"osm_id":"4322031619","tag":{"amenity":"waste_basket"}},"type":"Feature"},
	{"geometry":{"coordinates":[-75.40416,-10.576909],"type":"Point"},"properties":{"osm_id":"4322034994","tag":{"amenity":"waste_basket","description":"pl\u00e1stico"}},"type":"Feature"},
	{"geometry":{"coordinates":[-75.403987,-10.574243],"type":"Point"},"properties":{"osm_id":"4322297230","tag":{"amenity":"waste_basket"}},"type":"Feature"},
	{"geometry":{"coordinates":[-75.40387,-10.574386],"type":"Point"},"properties":{"osm_id":"4322297231","tag":{"amenity":"waste_basket"}},"type":"Feature"},
	{"geometry":{"coordinates":[-75.39995,-10.578415],"type":"Point"},"properties":{"osm_id":"5893082239","tag":{"amenity":"waste_basket"}},"type":"Feature"},
	{"geometry":{"coordinates":[-75.396435,-10.57834],"type":"Point"},"properties":{"osm_id":"5893082258","tag":{"amenity":"waste_basket"}},"type":"Feature"},
	{"geometry":{"coordinates":[-75.39996,-10.578518],"type":"Point"},"properties":{"osm_id":"5893082259","tag":{"amenity":"waste_basket"}},"type":"Feature"},
	{"geometry":{"coordinates":[-75.404651,-10.578254],"type":"Point"},"properties":{"osm_id":"5893260063","tag":{"amenity":"waste_basket"}},"type":"Feature"}
]
}
