{
"type": "FeatureCollection",
"features": [
	{"geometry":{"coordinates":[-6.816358,57.902647],"type":"Point"},"properties":{"osm_id":"2897996476","tag":{"amenity":"recycling","recycling_type":"container"}},"type":"Feature"},
	{"geometry":{"coordinates":[-6.799265,57.897943],"type":"Point"},"properties":{"osm_id":"5308726473","tag":{"amenity":"waste_basket"}},"type":"Feature"},
	{"geometry":{"coordinates":[-6.802535,57.897795],"type":"Point"},"properties":{"osm_id":"5308726489","tag":{"amenity":"waste_basket"}},"type":"Feature"},
	{"geometry":{"coordinates":[-6.808431,57.898904],"type":"Point"},"properties":{"osm_id":"5308726510","tag":{"amenity":"recycling","recycling:glass":"yes","recycling_type":"container"}},"type":"Feature"},
	{"geometry":{"coordinates":[-6.81272,57.90108],"type":"Point"},"properties":{"osm_id":"5308726518","tag":{"amenity":"waste_basket"}},"type":"Feature"},
	{"geometry":{"coordinates":[-6.782193,57.901419],"type":"Point"},"properties":{"name":"Urgha Household Waste and Recycling Centre","osm_id":"9156294697","tag":{"amenity":"recycling","owner":"Comhairle nan Eilean Siar","ownership":"municipal","recycling_type":"centre","wikidata":"Q106085724"}},"type":"Feature"}
]
}
