{
"type": "FeatureCollection",
"features": [
	{"geometry":{"coordinates":[-6.825838,33.990448],"type":"Point"},"properties":{"name":"Point de collecte","osm_id":"2925490641","tag":{"amenity":"waste_disposal","collection_times":"09:00-12:00"}},"type":"Feature"},
	{"geometry":{"coordinates":[-6.851493,33.990044],"type":"Point"},"properties":{"osm_id":"8286648118","tag":{"amenity":"waste_disposal"}},"type":"Feature"},
	{"geometry":{"coordinates":[-6.85136,33.991509],"type":"Point"},"properties":{"osm_id":"8286686217","tag":{"amenity":"waste_disposal"}},"type":"Feature"},
	{"geometry":{"coordinates":[-6.851593,33.98854],"type":"Point"},"properties":{"osm_id":"8289902412","tag":{"amenity":"waste_disposal"}},"type":"Feature"},
	{"geometry":{"coordinates":[-6.851568,33.989185],"type":"Point"},"properties":{"osm_id":"8289902413","tag":{"amenity":"waste_disposal"}},"type":"Feature"},
	{"geometry":{"coordinates":[-6.851427,33.990372],"type":"Point"},"properties":{"osm_id":"8289904117","tag":{"amenity":"waste_disposal"}},"type":"Feature"},
	{"geometry":{"coordinates":[-6.851345,33.993015],"type":"Point"},"properties":{"osm_id":"8306187617","tag":{"amenity":"waste_disposal"}},"type":"Feature"},
	{"geometry":{"coordinates":[-6.851011,33.999048],"type":"Point"},"properties":{"osm_id":"8308452517","tag":{"amenity":"waste_disposal"}},"type":"Feature"},
	{"geometry":{"coordinates":[-6.851218,34.002819],"type":"Point"},"properties":{"osm_id":"8308461517","tag":{"amenity":"waste_disposal"}},"type":"Feature"},
	{"geometry":{"coordinates":[-6.84916,33.994077],"type":"Point"},"properties":{"osm_id":"8311746617","tag":{"amenity":"waste_disposal"}},"type":"Feature"},
	{"geometry":{"coordinates":[-6.849646,33.994372],"type":"Point"},"properties":{"osm_id":"8311746717","tag":{"amenity":"waste_disposal"}},"type":"Feature"},
	{"geometry":{"coordinates":[-6.853621,33.989218],"type":"Point"},"properties":{"osm_id":"8314103517","tag":{"amenity":"waste_disposal"}},"type":"Feature"},
	{"geometry":{"coordinates":[-6.85415,33.992092],"type":"Point"},"properties":{"osm_id":"8314103617","tag":{"amenity":"waste_disposal"}},"type":"Feature"},
	{"geometry":{"coordinates":[-6.849318,33.988104],"type":"Point"},"properties":{"osm_id":"8316066717","tag":{"amenity":"waste_disposal"}},"type":"Feature"},
	{"geometry":{"coordinates":[-6.849818,33.987411],"type":"Point"},"properties":{"osm_id":"8316069817","tag":{"amenity":"waste_disposal"}},"type":"Feature"},
	{"geometry":{"coordinates":[-6.85542,33.996988],"type":"Point"},"properties":{"osm_id":"8317911517","tag":{"amenity":"waste_disposal"}},"type":"Feature"},
	{"geometry":{"coordinates":[-6.849779,34.000601],"type":"Point"},"properties":{"osm_id":"8321090717","tag":{"amenity":"waste_disposal"}},"type":"Feature"},
	{"geometry":{"coordinates":[-6.847459,34.001389],"type":"Point"},"properties":{"osm_id":"8321090723","tag":{"amenity":"waste_disposal"}},"type":"Feature"},
	{"geometry":{"coordinates":[-6.846683,33.999732],"type":"Point"},"properties":{"osm_id":"8323699726","tag":{"amenity":"waste_disposal"}},"type":"Feature"},
	{"geometry":{"coordinates":[-6.848268,33.989061],"type":"Point"},"properties":{"osm_id":"8334938118","tag":{"amenity":"waste_disposal"}},"type":"Feature"},
	{"geometry":{"coordinates":[-6.843373,34.010192],"type":"Point"},"properties":{"osm_id":"8367998518","tag":{"amenity":"waste_disposal"}},"type":"Feature"},
	{"geometry":{"coordinates":[-6.854431,33.995575],"type":"Point"},"properties":{"osm_id":"8387372417","tag":{"amenity":"waste_disposal"}},"type":"Feature"},
	{"geometry":{"coordinates":[-6.854782,33.995195],"type":"Point"},"properties":{"osm_id":"8387372418","tag":{"amenity":"waste_disposal"}},"type":"Feature"},
	{"geometry":{"coordinates":[-6.822199,34.015362],"type":"Point"},"properties":{"osm_id":"8397434719","tag":{"amenity":"waste_disposal"}},"type":"Feature"},
	{"geometry":{"coordinates":[-6.845652,33.994092],"type":"Point"},"properties":{"osm_id":"8452225017","tag":{"amenity":"waste_disposal"}},"type":"Feature"},
	{"geometry":{"coordinates":[-6.845043,33.995938],"type":"Point"},"properties":{"osm_id":"8452230417","tag":{"amenity":"waste_disposal"}},"type":"Feature"},
	{"geometry":{"coordinates":[-6.844672,33.997348],"type":"Point"},"properties":{"osm_id":"8452281417","tag":{"amenity":"waste_disposal"}},"type":"Feature"},
	{"geometry":{"coordinates":[-6.852515,33.988115],"type":"Point"},"properties":{"osm_id":"8463382917","tag":{"amenity":"waste_disposal"}},"type":"Feature"},
	{"geometry":{"coordinates":[-6.850301,34.001015],"type":"Point"},"properties":{"osm_id":"8482073017","tag":{"amenity":"waste_disposal"}},"type":"Feature"},
	{"geometry":{"coordinates":[-6.853089,33.987468],"type":"Point"},"properties":{"osm_id":"8483768917","tag":{"amenity":"waste_disposal"}},"type":"Feature"},
	{"geometry":{"coordinates":[-6.842463,34.012128],"type":"Point"},"properties":{"osm_id":"8488742520","tag":{"amenity":"waste_disposal"}},"type":"Feature"},
	{"geometry":{"coordinates":[-6.852003,34.00746],"type":"Point"},"properties":{"osm_id":"8488748918","tag":{"amenity":"waste_disposal"}},"type":"Feature"},
	{"geometry":{"coordinates":[-6.851231,33.996139],"type":"Point"},"properties":{"osm_id":"8518355817","tag":{"amenity":"waste_disposal"}},"type":"Feature"}
]
}
