{
"type": "FeatureCollection",
"features": [
	{"geometry":{"coordinates":[27.294527,61.687395],"type":"Point"},"properties":{"osm_id":"535797872","tag":{"amenity":"recycling","recycling:cans":"yes","recycling:cardboard":"yes","recycling:clothes":"yes","recycling:glass":"yes","recycling:paper":"yes"}},"type":"Feature"},
	{"geometry":{"coordinates":[27.309968,61.682685],"type":"Point"},"properties":{"osm_id":"1356289833","tag":{"addr:city":"Mikkeli","addr:country":"FI","addr:postcode":"50190","addr:street":"Talaskatu","amenity":"recycling","recycling:cardboard":"yes","recycling:paper":"yes"}},"type":"Feature"},
	{"geometry":{"coordinates":[27.267459,61.675668],"type":"Point"},"properties":{"osm_id":"5715878227","tag":{"amenity":"recycling","recycling:cardboard":"yes","recycling:glass":"yes","recycling:paper":"yes","recycling:scrap_metal":"yes","recycling_type":"container"}},"type":"Feature"},
	{"geometry":{"coordinates":[27.277169,61.655393],"type":"Point"},"properties":{"osm_id":"7920070606","tag":{"amenity":"waste_basket"}},"type":"Feature"},
	{"geometry":{"coordinates":[27.273395,61.686778],"type":"Point"},"properties":{"osm_id":"8622870220","tag":{"amenity":"waste_basket"}},"type":"Feature"},
	{"geometry":{"coordinates":[27.2724,61.688239],"type":"Point"},"properties":{"osm_id":"8622906226","tag":{"amenity":"waste_basket"}},"type":"Feature"},
	{"geometry":{"coordinates":[27.27336,61.686325],"type":"Point"},"properties":{"osm_id":"8622946217","tag":{"amenity":"waste_basket"}},"type":"Feature"},
	{"geometry":{"coordinates":[27.27228,61.688036],"type":"Point"},"properties":{"osm_id":"8622946221","tag":{"amenity":"waste_basket"}},"type":"Feature"},
	{"geometry":{"coordinates":[27.275066,61.689738],"type":"Point"},"properties":{"osm_id":"8622946226","tag":{"amenity":"waste_basket"}},"type":"Feature"},
	{"geometry":{"coordinates":[27.275156,61.689649],"type":"Point"},"properties":{"osm_id":"8622946227","tag":{"amenity":"waste_basket"}},"type":"Feature"},
	{"geometry":{"coordinates":[27.273188,61.687251],"type":"Point"},"properties":{"osm_id":"8622946317","tag":{"amenity":"waste_basket"}},"type":"Feature"},
	{"geometry":{"coordinates":[27.272831,61.687297],"type":"Point"},"properties":{"osm_id":"8622946418","tag":{"amenity":"waste_basket"}},"type":"Feature"},
	{"geometry":{"coordinates":[27.272257,61.687371],"type":"Point"},"properties":{"osm_id":"8622946421","tag":{"amenity":"waste_basket"}},"type":"Feature"},
	{"geometry":{"coordinates":[27.272037,61.687622],"type":"Point"},"properties":{"osm_id":"8622946422","tag":{"amenity":"waste_basket"}},"type":"Feature"},
	{"geometry":{"coordinates":[27.272117,61.68776],"type":"Point"},"properties":{"osm_id":"8622946517","tag":{"amenity":"waste_basket"}},"type":"Feature"}
]
}
