{
"type": "FeatureCollection",
"features": [
	{"geometry":{"coordinates":[27.320281,53.907008],"type":"Point"},"properties":{"name":"\u00d0\u009f\u00d0\u00b5\u00d1\u0081\u00d1\u0087\u00d0\u00b0\u00d0\u00bd\u00d1\u008b\u00d0\u00b9 \u00d0\u009a\u00d0\u00b0\u00d1\u0080\u00d1\u008c\u00d0\u00b5\u00d1\u0080","osm_id":"1130787465","tag":{"amenity":"recycling"}},"type":"Feature"},
	{"geometry":{"coordinates":[27.304658,53.91307],"type":"Point"},"properties":{"osm_id":"1144731731","tag":{"amenity":"waste_disposal"}},"type":"Feature"},
	{"geometry":{"coordinates":[27.304655,53.913144],"type":"Point"},"properties":{"osm_id":"1682242528","tag":{"amenity":"recycling"}},"type":"Feature"},
	{"geometry":{"coordinates":[27.306318,53.912648],"type":"Point"},"properties":{"osm_id":"1682242557","tag":{"amenity":"recycling"}},"type":"Feature"},
	{"geometry":{"coordinates":[27.333848,53.954495],"type":"Point"},"properties":{"osm_id":"2460389532","tag":{"amenity":"waste_basket"}},"type":"Feature"},
	{"geometry":{"coordinates":[27.329464,53.948958],"type":"Point"},"properties":{"osm_id":"5659974566","tag":{"amenity":"waste_disposal"}},"type":"Feature"},
	{"geometry":{"coordinates":[27.246244,53.954923],"type":"Point"},"properties":{"osm_id":"6568590369","tag":{"amenity":"waste_disposal"}},"type":"Feature"},
	{"geometry":{"coordinates":[27.330471,53.947692],"type":"Point"},"properties":{"osm_id":"6775556107","tag":{"amenity":"waste_basket","colour":"grey","material":"metal"}},"type":"Feature"},
	{"geometry":{"coordinates":[27.330566,53.947989],"type":"Point"},"properties":{"osm_id":"6775556108","tag":{"amenity":"waste_basket","colour":"grey","material":"metal"}},"type":"Feature"},
	{"geometry":{"coordinates":[27.332054,53.947419],"type":"Point"},"properties":{"osm_id":"6809865291","tag":{"amenity":"waste_basket","material":"metal"}},"type":"Feature"},
	{"geometry":{"coordinates":[27.332119,53.947351],"type":"Point"},"properties":{"osm_id":"6809865292","tag":{"amenity":"waste_basket","material":"metal"}},"type":"Feature"},
	{"geometry":{"coordinates":[27.331637,53.947543],"type":"Point"},"properties":{"osm_id":"6809865299","tag":{"amenity":"waste_basket","material":"metal"}},"type":"Feature"},
	{"geometry":{"coordinates":[27.333027,53.946593],"type":"Point"},"properties":{"osm_id":"6809865305","tag":{"amenity":"waste_basket","material":"metal"}},"type":"Feature"},
	{"geometry":{"coordinates":[27.332977,53.946647],"type":"Point"},"properties":{"osm_id":"6809865306","tag":{"amenity":"waste_basket","material":"metal"}},"type":"Feature"},
	{"geometry":{"coordinates":[27.332817,53.946804],"type":"Point"},"properties":{"osm_id":"6809865307","tag":{"amenity":"waste_basket","material":"metal"}},"type":"Feature"},
	{"geometry":{"coordinates":[27.333285,53.946154],"type":"Point"},"properties":{"osm_id":"6809865324","tag":{"amenity":"waste_basket","material":"metal"}},"type":"Feature"},
	{"geometry":{"coordinates":[27.332764,53.947525],"type":"Point"},"properties":{"osm_id":"7178698278","tag":{"amenity":"waste_basket","material":"metal","waste":"mixed"}},"type":"Feature"},
	{"geometry":{"coordinates":[27.333101,53.947255],"type":"Point"},"properties":{"osm_id":"7195647013","tag":{"amenity":"waste_basket","material":"metal"}},"type":"Feature"},
	{"geometry":{"coordinates":[27.333371,53.947581],"type":"Point"},"properties":{"osm_id":"7195647060","tag":{"amenity":"waste_basket","material":"metal","waste":"mixed"}},"type":"Feature"},
	{"geometry":{"coordinates":[27.333155,53.947739],"type":"Point"},"properties":{"osm_id":"7195647062","tag":{"amenity":"waste_basket","material":"metal","waste":"mixed"}},"type":"Feature"},
	{"geometry":{"coordinates":[27.333303,53.947478],"type":"Point"},"properties":{"osm_id":"7195647064","tag":{"amenity":"waste_basket","material":"metal","waste":"mixed"}},"type":"Feature"},
	{"geometry":{"coordinates":[27.33303,53.94754],"type":"Point"},"properties":{"osm_id":"7195647066","tag":{"amenity":"waste_basket","material":"metal","waste":"mixed"}},"type":"Feature"}
]
}
