{
"type": "FeatureCollection",
"features": [
	{"geometry":{"coordinates":[6.69054,53.593073],"type":"Point"},"properties":{"osm_id":"2459673603","tag":{"amenity":"recycling","recycling:glass":"yes","recycling_type":"container"}},"type":"Feature"},
	{"geometry":{"coordinates":[6.720451,53.607471],"type":"Point"},"properties":{"osm_id":"2820109693","tag":{"amenity":"waste_basket"}},"type":"Feature"},
	{"geometry":{"coordinates":[6.681235,53.59721],"type":"Point"},"properties":{"osm_id":"2820229053","tag":{"amenity":"waste_basket"}},"type":"Feature"},
	{"geometry":{"coordinates":[6.75187,53.604477],"type":"Point"},"properties":{"osm_id":"4754430345","tag":{"amenity":"waste_basket"}},"type":"Feature"},
	{"geometry":{"coordinates":[6.699495,53.597434],"type":"Point"},"properties":{"osm_id":"5007322727","tag":{"amenity":"waste_basket"}},"type":"Feature"},
	{"geometry":{"coordinates":[6.702246,53.597919],"type":"Point"},"properties":{"osm_id":"5007322728","tag":{"amenity":"waste_basket"}},"type":"Feature"},
	{"geometry":{"coordinates":[6.716432,53.6099],"type":"Point"},"properties":{"name":"Strandm\u00c3\u00bcllbox","osm_id":"6028028589","tag":{"amenity":"waste_basket"}},"type":"Feature"},
	{"geometry":{"coordinates":[6.710406,53.608409],"type":"Point"},"properties":{"name":"Strandm\u00c3\u00bcllbox","osm_id":"6028051185","tag":{"amenity":"waste_basket"}},"type":"Feature"},
	{"geometry":{"coordinates":[6.694322,53.596858],"type":"Point"},"properties":{"osm_id":"6702754021","tag":{"amenity":"waste_basket"}},"type":"Feature"},
	{"geometry":{"coordinates":[6.739359,53.614054],"type":"Point"},"properties":{"osm_id":"6709867437","tag":{"amenity":"waste_disposal"}},"type":"Feature"}
]
}
