{
"type": "FeatureCollection",
"lastupdate": "2020-08-03T00:00:00Z",
"features": [
	{"geometry":{"coordinates":[6.684836,53.40676],"type":"Point"},"properties":{"osm_id":"1436133253","tag":{"amenity":"waste_basket"}},"type":"Feature"},
	{"geometry":{"coordinates":[6.738659,53.419197],"type":"Point"},"properties":{"osm_id":"1707969607","tag":{"amenity":"waste_basket"}},"type":"Feature"},
	{"geometry":{"coordinates":[6.681232,53.388106],"type":"Point"},"properties":{"osm_id":"1722527551","tag":{"amenity":"recycling","recycling:cans":"yes","recycling:glass":"yes","recycling_type":"centre"}},"type":"Feature"},
	{"geometry":{"coordinates":[6.681553,53.388292],"type":"Point"},"properties":{"osm_id":"2958842471","tag":{"amenity":"waste_basket"}},"type":"Feature"},
	{"geometry":{"coordinates":[6.713105,53.414164],"type":"Point"},"properties":{"osm_id":"3759568404","tag":{"amenity":"waste_basket"}},"type":"Feature"},
	{"geometry":{"coordinates":[6.724683,53.41429],"type":"Point"},"properties":{"osm_id":"4230663618","tag":{"amenity":"waste_basket"}},"type":"Feature"},
	{"geometry":{"coordinates":[6.724387,53.414538],"type":"Point"},"properties":{"osm_id":"4230663620","tag":{"amenity":"waste_basket"}},"type":"Feature"},
	{"geometry":{"coordinates":[6.725437,53.414555],"type":"Point"},"properties":{"osm_id":"4230663621","tag":{"amenity":"waste_basket"}},"type":"Feature"},
	{"geometry":{"coordinates":[6.724351,53.414691],"type":"Point"},"properties":{"osm_id":"4230663623","tag":{"amenity":"waste_basket"}},"type":"Feature"},
	{"geometry":{"coordinates":[6.753639,53.404373],"type":"Point"},"properties":{"osm_id":"4838239921","tag":{"amenity":"waste_basket"}},"type":"Feature"},
	{"geometry":{"coordinates":[6.763988,53.419228],"type":"Point"},"properties":{"osm_id":"4894318235","tag":{"amenity":"recycling","recycling:batteries":"yes","recycling:clothes":"yes","recycling:glass":"yes","recycling_type":"container"}},"type":"Feature"},
	{"geometry":{"coordinates":[6.720501,53.413989],"type":"Point"},"properties":{"osm_id":"5475828066","tag":{"amenity":"waste_basket"}},"type":"Feature"},
	{"geometry":{"coordinates":[6.720095,53.414023],"type":"Point"},"properties":{"osm_id":"5475828068","tag":{"amenity":"waste_basket"}},"type":"Feature"},
	{"geometry":{"coordinates":[6.720897,53.413873],"type":"Point"},"properties":{"osm_id":"5475828084","tag":{"amenity":"waste_basket"}},"type":"Feature"},
	{"geometry":{"coordinates":[6.758302,53.420908],"type":"Point"},"properties":{"osm_id":"5475851422","tag":{"amenity":"waste_basket"}},"type":"Feature"},
	{"geometry":{"coordinates":[6.758478,53.421085],"type":"Point"},"properties":{"osm_id":"5475851423","tag":{"amenity":"waste_basket"}},"type":"Feature"},
	{"geometry":{"coordinates":[6.681576,53.406447],"type":"Point"},"properties":{"osm_id":"7727697563","tag":{"amenity":"waste_basket","waste":"trash"}},"type":"Feature"},
	{"geometry":{"coordinates":[6.758683,53.42114],"type":"Point"},"properties":{"osm_id":"7730954452","tag":{"amenity":"waste_basket","waste":"trash"}},"type":"Feature"}
]
}
