{
"type": "FeatureCollection",
"features": [
	{"geometry":{"coordinates":[6.741426,52.329026],"type":"Point"},"properties":{"osm_id":"1935770689","tag":{"amenity":"waste_basket"}},"type":"Feature"},
	{"geometry":{"coordinates":[6.693926,52.352434],"type":"Point"},"properties":{"osm_id":"1940640776","tag":{"amenity":"waste_basket"}},"type":"Feature"},
	{"geometry":{"coordinates":[6.743181,52.325712],"type":"Point"},"properties":{"osm_id":"2177793566","tag":{"amenity":"waste_basket"}},"type":"Feature"},
	{"geometry":{"coordinates":[6.764861,52.372869],"type":"Point"},"properties":{"osm_id":"2366288313","tag":{"amenity":"waste_basket"}},"type":"Feature"},
	{"geometry":{"coordinates":[6.762016,52.372983],"type":"Point"},"properties":{"osm_id":"2366288319","tag":{"amenity":"recycling","recycling:clothes":"yes","recycling:glass":"yes","recycling_type":"container"}},"type":"Feature"},
	{"geometry":{"coordinates":[6.682142,52.359966],"type":"Point"},"properties":{"osm_id":"2620386816","tag":{"amenity":"waste_basket"}},"type":"Feature"},
	{"geometry":{"coordinates":[6.688993,52.36121],"type":"Point"},"properties":{"osm_id":"2620386821","tag":{"amenity":"waste_basket"}},"type":"Feature"},
	{"geometry":{"coordinates":[6.6867,52.371004],"type":"Point"},"properties":{"osm_id":"2966921238","tag":{"amenity":"waste_basket"}},"type":"Feature"},
	{"geometry":{"coordinates":[6.683401,52.372075],"type":"Point"},"properties":{"osm_id":"3741697042","tag":{"amenity":"waste_basket"}},"type":"Feature"},
	{"geometry":{"coordinates":[6.679758,52.368723],"type":"Point"},"properties":{"osm_id":"3741969079","tag":{"access":"permissive","amenity":"recycling","opening_hours":"24/7","recycling:waste":"yes","recycling_type":"container","wheelchair":"yes"}},"type":"Feature"},
	{"geometry":{"coordinates":[6.689301,52.370283],"type":"Point"},"properties":{"osm_id":"3744096045","tag":{"amenity":"waste_basket"}},"type":"Feature"},
	{"geometry":{"coordinates":[6.717916,52.366557],"type":"Point"},"properties":{"osm_id":"4953305306","tag":{"amenity":"waste_basket"}},"type":"Feature"},
	{"geometry":{"coordinates":[6.76195,52.373379],"type":"Point"},"properties":{"osm_id":"4955433135","tag":{"amenity":"waste_basket"}},"type":"Feature"},
	{"geometry":{"coordinates":[6.745971,52.326747],"type":"Point"},"properties":{"osm_id":"5427396482","tag":{"amenity":"waste_basket","waste":"trash"}},"type":"Feature"},
	{"geometry":{"coordinates":[6.753724,52.323025],"type":"Point"},"properties":{"osm_id":"5429852791","tag":{"amenity":"waste_basket","waste":"trash"}},"type":"Feature"},
	{"geometry":{"coordinates":[6.682989,52.330376],"type":"Point"},"properties":{"osm_id":"7145852000","tag":{"amenity":"waste_basket"}},"type":"Feature"}
]
}
