{
"type": "FeatureCollection",
"features": [
	{"geometry":{"coordinates":[6.766867,52.258521],"type":"Point"},"properties":{"osm_id":"1265692541","tag":{"amenity":"recycling","recycling:beverage_cartons":"yes","recycling:cans":"yes","recycling:cardboard":"yes","recycling:cartons":"yes","recycling:clothes":"yes","recycling:glass_bottles":"yes","recycling:paper":"yes","recycling:plastic_bottles":"yes","recycling:plastic_packaging":"yes","recycling:shoes":"yes","recycling_type":"container"}},"type":"Feature"},
	{"geometry":{"coordinates":[6.712759,52.262328],"type":"Point"},"properties":{"osm_id":"1624346171","tag":{"amenity":"recycling","recycling_type":"container"}},"type":"Feature"},
	{"geometry":{"coordinates":[6.709018,52.261353],"type":"Point"},"properties":{"osm_id":"1624346175","tag":{"amenity":"recycling","recycling:glass":"yes","recycling:plastic":"yes","recycling_type":"container"}},"type":"Feature"},
	{"geometry":{"coordinates":[6.710624,52.259892],"type":"Point"},"properties":{"osm_id":"1624346178","tag":{"amenity":"recycling","recycling_type":"container"}},"type":"Feature"},
	{"geometry":{"coordinates":[6.717105,52.260548],"type":"Point"},"properties":{"osm_id":"1624346179","tag":{"amenity":"recycling","recycling_type":"container"}},"type":"Feature"},
	{"geometry":{"coordinates":[6.681156,52.224637],"type":"Point"},"properties":{"osm_id":"1774158115","tag":{"amenity":"recycling","recycling:glass":"yes","recycling:plastic":"yes","recycling_type":"container"}},"type":"Feature"},
	{"geometry":{"coordinates":[6.760967,52.235274],"type":"Point"},"properties":{"osm_id":"1775305683","tag":{"amenity":"waste_basket"}},"type":"Feature"},
	{"geometry":{"coordinates":[6.761028,52.235698],"type":"Point"},"properties":{"osm_id":"1775305684","tag":{"amenity":"waste_basket"}},"type":"Feature"},
	{"geometry":{"coordinates":[6.744402,52.242107],"type":"Point"},"properties":{"osm_id":"1866409438","tag":{"amenity":"waste_basket"}},"type":"Feature"},
	{"geometry":{"coordinates":[6.71598,52.260505],"type":"Point"},"properties":{"osm_id":"1869215546","tag":{"amenity":"waste_basket"}},"type":"Feature"},
	{"geometry":{"coordinates":[6.749201,52.265039],"type":"Point"},"properties":{"osm_id":"2171992818","tag":{"amenity":"waste_basket"}},"type":"Feature"},
	{"geometry":{"coordinates":[6.755233,52.260144],"type":"Point"},"properties":{"osm_id":"2369370634","tag":{"amenity":"waste_basket"}},"type":"Feature"},
	{"geometry":{"coordinates":[6.756763,52.261094],"type":"Point"},"properties":{"osm_id":"2369370651","tag":{"amenity":"waste_basket"}},"type":"Feature"},
	{"geometry":{"coordinates":[6.75689,52.240543],"type":"Point"},"properties":{"osm_id":"2399664747","tag":{"amenity":"waste_basket"}},"type":"Feature"},
	{"geometry":{"coordinates":[6.756783,52.240638],"type":"Point"},"properties":{"osm_id":"2399664755","tag":{"amenity":"waste_basket"}},"type":"Feature"},
	{"geometry":{"coordinates":[6.747988,52.242996],"type":"Point"},"properties":{"osm_id":"2399681367","tag":{"amenity":"waste_basket"}},"type":"Feature"},
	{"geometry":{"coordinates":[6.706183,52.26443],"type":"Point"},"properties":{"osm_id":"2459130847","tag":{"amenity":"waste_basket"}},"type":"Feature"},
	{"geometry":{"coordinates":[6.710883,52.252685],"type":"Point"},"properties":{"osm_id":"2506552717","tag":{"amenity":"waste_basket"}},"type":"Feature"},
	{"geometry":{"coordinates":[6.759347,52.242988],"type":"Point"},"properties":{"osm_id":"2514484196","tag":{"amenity":"waste_basket"}},"type":"Feature"},
	{"geometry":{"coordinates":[6.739432,52.2506],"type":"Point"},"properties":{"osm_id":"2518708917","tag":{"amenity":"waste_basket"}},"type":"Feature"},
	{"geometry":{"coordinates":[6.69145,52.261466],"type":"Point"},"properties":{"osm_id":"2724307909","tag":{"amenity":"waste_basket"}},"type":"Feature"},
	{"geometry":{"coordinates":[6.725865,52.217996],"type":"Point"},"properties":{"osm_id":"2724375821","tag":{"amenity":"waste_basket"}},"type":"Feature"},
	{"geometry":{"coordinates":[6.762787,52.247104],"type":"Point"},"properties":{"osm_id":"2904774898","tag":{"amenity":"recycling","recycling:cans":"yes","recycling:clothes":"yes","recycling:glass":"yes","recycling:paper":"yes","recycling:plastic":"yes","recycling_type":"container"}},"type":"Feature"},
	{"geometry":{"coordinates":[6.761537,52.2502],"type":"Point"},"properties":{"osm_id":"2904777806","tag":{"amenity":"waste_basket"}},"type":"Feature"},
	{"geometry":{"coordinates":[6.710614,52.217741],"type":"Point"},"properties":{"osm_id":"2905011806","tag":{"amenity":"waste_basket"}},"type":"Feature"},
	{"geometry":{"coordinates":[6.721621,52.252528],"type":"Point"},"properties":{"osm_id":"3499530764","tag":{"amenity":"waste_basket"}},"type":"Feature"},
	{"geometry":{"coordinates":[6.72856,52.25029],"type":"Point"},"properties":{"osm_id":"3499546662","tag":{"amenity":"waste_basket"}},"type":"Feature"},
	{"geometry":{"coordinates":[6.724778,52.251747],"type":"Point"},"properties":{"osm_id":"3499546663","tag":{"amenity":"waste_basket"}},"type":"Feature"},
	{"geometry":{"coordinates":[6.724446,52.251876],"type":"Point"},"properties":{"osm_id":"3499546666","tag":{"amenity":"waste_basket"}},"type":"Feature"},
	{"geometry":{"coordinates":[6.760243,52.250524],"type":"Point"},"properties":{"osm_id":"3957194400","tag":{"amenity":"waste_basket"}},"type":"Feature"},
	{"geometry":{"coordinates":[6.750227,52.244436],"type":"Point"},"properties":{"osm_id":"3957207271","tag":{"amenity":"waste_basket"}},"type":"Feature"},
	{"geometry":{"coordinates":[6.76091,52.234722],"type":"Point"},"properties":{"osm_id":"3957253360","tag":{"amenity":"waste_basket"}},"type":"Feature"},
	{"geometry":{"coordinates":[6.760951,52.234993],"type":"Point"},"properties":{"osm_id":"3957253362","tag":{"amenity":"waste_basket"}},"type":"Feature"},
	{"geometry":{"coordinates":[6.765401,52.235514],"type":"Point"},"properties":{"osm_id":"3957263762","tag":{"amenity":"waste_basket"}},"type":"Feature"},
	{"geometry":{"coordinates":[6.76681,52.256092],"type":"Point"},"properties":{"osm_id":"4072557845","tag":{"amenity":"recycling","recycling:beverage_cartons":"yes","recycling:cans":"yes","recycling:cardboard":"yes","recycling:cartons":"yes","recycling:paper":"yes","recycling:plastic_bottles":"yes","recycling:plastic_packaging":"yes","recycling_type":"container"}},"type":"Feature"},
	{"geometry":{"coordinates":[6.763646,52.258927],"type":"Point"},"properties":{"osm_id":"4072557850","tag":{"amenity":"recycling","recycling:beverage_cartons":"yes","recycling:cans":"yes","recycling:cardboard":"yes","recycling:cartons":"yes","recycling:paper":"yes","recycling:plastic_bottles":"yes","recycling:plastic_packaging":"yes","recycling_type":"container"}},"type":"Feature"},
	{"geometry":{"coordinates":[6.766057,52.255295],"type":"Point"},"properties":{"osm_id":"4177034096","tag":{"amenity":"waste_basket"}},"type":"Feature"},
	{"geometry":{"coordinates":[6.766735,52.255556],"type":"Point"},"properties":{"osm_id":"4177034102","tag":{"amenity":"waste_basket"}},"type":"Feature"},
	{"geometry":{"coordinates":[6.705871,52.265209],"type":"Point"},"properties":{"osm_id":"4291214764","tag":{"amenity":"waste_basket"}},"type":"Feature"},
	{"geometry":{"coordinates":[6.735134,52.217224],"type":"Point"},"properties":{"osm_id":"4348849938","tag":{"amenity":"waste_basket"}},"type":"Feature"},
	{"geometry":{"coordinates":[6.711211,52.262205],"type":"Point"},"properties":{"osm_id":"4352958964","tag":{"amenity":"waste_basket"}},"type":"Feature"},
	{"geometry":{"coordinates":[6.70758,52.260978],"type":"Point"},"properties":{"osm_id":"4468046001","tag":{"amenity":"recycling","location":"underground","recycling:glass":"yes","recycling:waste":"yes","recycling_type":"container"}},"type":"Feature"},
	{"geometry":{"coordinates":[6.755855,52.267306],"type":"Point"},"properties":{"osm_id":"4612542531","tag":{"amenity":"waste_basket"}},"type":"Feature"},
	{"geometry":{"coordinates":[6.717957,52.261448],"type":"Point"},"properties":{"osm_id":"4816426990","tag":{"amenity":"waste_basket"}},"type":"Feature"},
	{"geometry":{"coordinates":[6.711821,52.264327],"type":"Point"},"properties":{"osm_id":"4816514584","tag":{"amenity":"waste_basket"}},"type":"Feature"},
	{"geometry":{"coordinates":[6.76397,52.25524],"type":"Point"},"properties":{"osm_id":"4816610618","tag":{"amenity":"waste_basket"}},"type":"Feature"},
	{"geometry":{"coordinates":[6.762977,52.255873],"type":"Point"},"properties":{"osm_id":"4816611321","tag":{"amenity":"waste_basket"}},"type":"Feature"},
	{"geometry":{"coordinates":[6.755954,52.25601],"type":"Point"},"properties":{"osm_id":"4944613355","tag":{"amenity":"waste_basket"}},"type":"Feature"},
	{"geometry":{"coordinates":[6.76361,52.264772],"type":"Point"},"properties":{"osm_id":"5091528224","tag":{"amenity":"waste_basket"}},"type":"Feature"},
	{"geometry":{"coordinates":[6.764833,52.26454],"type":"Point"},"properties":{"osm_id":"5091528243","tag":{"amenity":"waste_basket"}},"type":"Feature"},
	{"geometry":{"coordinates":[6.762875,52.259652],"type":"Point"},"properties":{"osm_id":"5204886524","tag":{"amenity":"waste_basket"}},"type":"Feature"},
	{"geometry":{"coordinates":[6.759174,52.25948],"type":"Point"},"properties":{"osm_id":"5204958599","tag":{"amenity":"waste_basket"}},"type":"Feature"},
	{"geometry":{"coordinates":[6.760085,52.245639],"type":"Point"},"properties":{"osm_id":"5225524061","tag":{"amenity":"waste_basket"}},"type":"Feature"},
	{"geometry":{"coordinates":[6.761298,52.251597],"type":"Point"},"properties":{"osm_id":"5243321059","tag":{"amenity":"waste_basket"}},"type":"Feature"},
	{"geometry":{"coordinates":[6.752533,52.265132],"type":"Point"},"properties":{"osm_id":"5243382031","tag":{"amenity":"waste_basket"}},"type":"Feature"},
	{"geometry":{"coordinates":[6.707947,52.264581],"type":"Point"},"properties":{"osm_id":"5249403465","tag":{"amenity":"waste_basket"}},"type":"Feature"},
	{"geometry":{"coordinates":[6.714831,52.26363],"type":"Point"},"properties":{"osm_id":"5249479396","tag":{"amenity":"waste_basket"}},"type":"Feature"},
	{"geometry":{"coordinates":[6.715554,52.260094],"type":"Point"},"properties":{"osm_id":"5522570892","tag":{"amenity":"waste_basket"}},"type":"Feature"},
	{"geometry":{"coordinates":[6.715221,52.260083],"type":"Point"},"properties":{"osm_id":"5522570894","tag":{"amenity":"waste_basket"}},"type":"Feature"},
	{"geometry":{"coordinates":[6.714628,52.260137],"type":"Point"},"properties":{"osm_id":"5522570896","tag":{"amenity":"waste_basket"}},"type":"Feature"},
	{"geometry":{"coordinates":[6.76737,52.265652],"type":"Point"},"properties":{"osm_id":"5647576059","tag":{"amenity":"waste_basket"}},"type":"Feature"}
]
}
