{
"type": "FeatureCollection",
"features": [
	{"geometry":{"coordinates":[6.710091,51.637058],"type":"Point"},"properties":{"name":"Kresilaufwirtschaft Maurer & Wissing","osm_id":"865120467","tag":{"amenity":"recycling"}},"type":"Feature"},
	{"geometry":{"coordinates":[6.712037,51.63882],"type":"Point"},"properties":{"barrier":"gate","osm_id":"1117938611"},"type":"Feature"},
	{"geometry":{"coordinates":[6.711671,51.639518],"type":"Point"},"properties":{"osm_id":"1117938652","tag":{"addr:city":"H\u00c3\u00bcnxe","addr:housenumber":"38a","addr:postcode":"46569","addr:street":"In der Beckuhl","entrance":"yes"}},"type":"Feature"},
	{"geometry":{"coordinates":[6.745064,51.636236],"type":"Point"},"properties":{"osm_id":"5597011122","tag":{"amenity":"waste_basket"}},"type":"Feature"},
	{"geometry":{"coordinates":[6.699571,51.6672],"type":"Point"},"properties":{"osm_id":"5761755444","tag":{"amenity":"recycling","recycling_type":"container"}},"type":"Feature"},
	{"geometry":{"coordinates":[6.765789,51.64221],"type":"Point"},"properties":{"osm_id":"7861154212","tag":{"amenity":"waste_basket"}},"type":"Feature"},
	{"geometry":{"coordinates":[6.711682,51.639145],"type":"Point"},"properties":{"barrier":"gate","osm_id":"8087812321"},"type":"Feature"},
	{"geometry":{"coordinates":[6.731512,51.653184],"type":"Point"},"properties":{"osm_id":"8779062295","tag":{"amenity":"waste_basket","colour":"grey","material":"metal"}},"type":"Feature"},
	{"geometry":{"coordinates":[6.731344,51.653253],"type":"Point"},"properties":{"osm_id":"8779090888","tag":{"amenity":"waste_basket"}},"type":"Feature"},
	{"geometry":{"coordinates":[6.693751,51.65065],"type":"Point"},"properties":{"osm_id":"9124473759","tag":{"amenity":"waste_basket","colour":"grey","material":"metal"}},"type":"Feature"}
]
}
