{
"type": "FeatureCollection",
"features": [
	{"geometry":{"coordinates":[6.766229,51.201339],"type":"Point"},"properties":{"osm_id":"274811396","tag":{"amenity":"recycling","history":"retrieved using undelete JOSM plugin","location":"overground","recycling:clothes":"yes","recycling:glass_bottles":"yes","recycling:paper":"yes","recycling_type":"container"}},"type":"Feature"},
	{"geometry":{"coordinates":[6.68502,51.182373],"type":"Point"},"properties":{"osm_id":"281731107","tag":{"amenity":"recycling","recycling:clothes":"yes","recycling:glass":"yes","recycling_type":"container"}},"type":"Feature"},
	{"geometry":{"coordinates":[6.707707,51.188395],"type":"Point"},"properties":{"osm_id":"309247063","tag":{"amenity":"recycling","operator":"Alba","recycling:glass":"yes","recycling_type":"container"}},"type":"Feature"},
	{"geometry":{"coordinates":[6.759324,51.212088],"type":"Point"},"properties":{"osm_id":"310386164","tag":{"amenity":"recycling","location":"overground","recycling:glass_bottles":"yes","recycling:paper":"yes","recycling_type":"container"}},"type":"Feature"},
	{"geometry":{"coordinates":[6.682188,51.204195],"type":"Point"},"properties":{"osm_id":"311263880","tag":{"amenity":"recycling","operator":"Alba","recycling:glass":"yes","recycling_type":"container"}},"type":"Feature"},
	{"geometry":{"coordinates":[6.689532,51.197379],"type":"Point"},"properties":{"osm_id":"313973919","tag":{"amenity":"recycling","recycling:cardboard":"yes","recycling:glass":"no","recycling:glass_bottles":"yes","recycling:paper":"yes","recycling_type":"container"}},"type":"Feature"},
	{"geometry":{"coordinates":[6.681568,51.19198],"type":"Point"},"properties":{"osm_id":"330232500","tag":{"amenity":"recycling","recycling:cardboard":"yes","recycling:glass":"no","recycling:glass_bottles":"yes","recycling:paper":"yes","recycling_type":"container"}},"type":"Feature"},
	{"geometry":{"coordinates":[6.683349,51.195178],"type":"Point"},"properties":{"osm_id":"330232504","tag":{"amenity":"recycling","recycling:glass":"yes","recycling:glass_bottles":"yes","recycling:paper":"no","recycling_type":"container"}},"type":"Feature"},
	{"geometry":{"coordinates":[6.763992,51.208283],"type":"Point"},"properties":{"osm_id":"339318138","tag":{"amenity":"recycling","history":"retrieved using undelete JOSM plugin","location":"overground","recycling:glass_bottles":"yes","recycling_type":"container"}},"type":"Feature"},
	{"geometry":{"coordinates":[6.76381,51.212549],"type":"Point"},"properties":{"osm_id":"339318340","tag":{"amenity":"recycling","location":"overground","recycling:glass":"yes","recycling:glass_bottles":"yes","recycling_type":"container"}},"type":"Feature"},
	{"geometry":{"coordinates":[6.766012,51.212029],"type":"Point"},"properties":{"osm_id":"360872809","tag":{"amenity":"recycling","recycling:glass_bottles":"yes","recycling:paper":"yes"}},"type":"Feature"},
	{"geometry":{"coordinates":[6.766822,51.21274],"type":"Point"},"properties":{"osm_id":"360872814","tag":{"amenity":"recycling","location":"overground","recycling:clothes":"yes","recycling_type":"container"}},"type":"Feature"},
	{"geometry":{"coordinates":[6.691638,51.192077],"type":"Point"},"properties":{"osm_id":"367235097","tag":{"amenity":"recycling","recycling:cardboard":"yes","recycling:glass":"yes","recycling:glass_bottles":"yes","recycling:paper":"yes","recycling_type":"container"}},"type":"Feature"},
	{"geometry":{"coordinates":[6.688629,51.190496],"type":"Point"},"properties":{"osm_id":"367235116","tag":{"amenity":"recycling","operator":"Alba","recycling:cans":"no","recycling:cardboard":"no","recycling:clothes":"no","recycling:glass":"no","recycling:glass_bottles":"yes","recycling:paper":"no","recycling:shoes":"no","recycling_type":"container"}},"type":"Feature"},
	{"geometry":{"coordinates":[6.689259,51.186161],"type":"Point"},"properties":{"osm_id":"367549637","tag":{"amenity":"recycling","recycling:glass":"yes","recycling:paper":"yes"}},"type":"Feature"},
	{"geometry":{"coordinates":[6.688036,51.187265],"type":"Point"},"properties":{"osm_id":"367549641","tag":{"amenity":"recycling","recycling:clothes":"yes"}},"type":"Feature"},
	{"geometry":{"coordinates":[6.687383,51.18763],"type":"Point"},"properties":{"osm_id":"367549648","tag":{"amenity":"recycling","recycling:clothes":"yes"}},"type":"Feature"},
	{"geometry":{"coordinates":[6.685962,51.188517],"type":"Point"},"properties":{"osm_id":"367549654","tag":{"amenity":"recycling","recycling:batteries":"no","recycling:books":"no","recycling:cans":"no","recycling:cardboard":"yes","recycling:cartons":"yes","recycling:clothes":"no","recycling:glass":"no","recycling:glass_bottles":"yes","recycling:paper":"yes","recycling:paper_packaging":"yes","recycling:plastic":"no","recycling:plastic_bottles":"no","recycling:plastic_packaging":"no","recycling:scrap_metal":"no","recycling:small_appliances":"no","recycling:waste":"no","recycling:wood":"no","recycling_type":"container"}},"type":"Feature"},
	{"geometry":{"coordinates":[6.679965,51.212384],"type":"Point"},"properties":{"osm_id":"378303624","tag":{"amenity":"recycling","operator":"Malteser","recycling:clothes":"yes"}},"type":"Feature"},
	{"geometry":{"coordinates":[6.692499,51.194309],"type":"Point"},"properties":{"osm_id":"379559946","tag":{"amenity":"recycling","recycling:cardboard":"yes","recycling:glass":"no","recycling:glass_bottles":"yes","recycling:paper":"yes","recycling_type":"container"}},"type":"Feature"},
	{"geometry":{"coordinates":[6.691411,51.181251],"type":"Point"},"properties":{"osm_id":"384580552","tag":{"amenity":"recycling","recycling:glass":"yes","recycling:paper":"yes","recycling_type":"container"}},"type":"Feature"},
	{"geometry":{"coordinates":[6.698045,51.194925],"type":"Point"},"properties":{"osm_id":"388816702","tag":{"amenity":"recycling","recycling:cardboard":"yes","recycling:paper":"yes","recycling_type":"container"}},"type":"Feature"},
	{"geometry":{"coordinates":[6.684984,51.182034],"type":"Point"},"properties":{"osm_id":"392080230","tag":{"amenity":"recycling","recycling:clothes":"yes"}},"type":"Feature"},
	{"geometry":{"coordinates":[6.721403,51.183909],"type":"Point"},"properties":{"osm_id":"474976836","tag":{"amenity":"recycling","operator":"Alba","recycling:glass":"yes","recycling_type":"container"}},"type":"Feature"},
	{"geometry":{"coordinates":[6.729937,51.182382],"type":"Point"},"properties":{"osm_id":"474977023","tag":{"amenity":"recycling","recycling_type":"container"}},"type":"Feature"},
	{"geometry":{"coordinates":[6.715622,51.179361],"type":"Point"},"properties":{"osm_id":"497276984","tag":{"amenity":"recycling"}},"type":"Feature"},
	{"geometry":{"coordinates":[6.68552,51.203592],"type":"Point"},"properties":{"osm_id":"534632212","tag":{"amenity":"recycling","operator":"EGN","recycling:cardboard":"yes","recycling:paper":"yes","recycling_type":"container"}},"type":"Feature"},
	{"geometry":{"coordinates":[6.688615,51.198465],"type":"Point"},"properties":{"osm_id":"600098494","tag":{"amenity":"waste_basket"}},"type":"Feature"},
	{"geometry":{"coordinates":[6.68816,51.198501],"type":"Point"},"properties":{"osm_id":"600098500","tag":{"amenity":"waste_basket"}},"type":"Feature"},
	{"geometry":{"coordinates":[6.690568,51.197888],"type":"Point"},"properties":{"osm_id":"600098526","tag":{"amenity":"waste_basket"}},"type":"Feature"},
	{"geometry":{"coordinates":[6.688828,51.198615],"type":"Point"},"properties":{"osm_id":"608012413","tag":{"amenity":"waste_basket"}},"type":"Feature"},
	{"geometry":{"coordinates":[6.692423,51.196989],"type":"Point"},"properties":{"osm_id":"614233173","tag":{"amenity":"waste_basket"}},"type":"Feature"},
	{"geometry":{"coordinates":[6.692573,51.196952],"type":"Point"},"properties":{"osm_id":"614233175","tag":{"amenity":"waste_basket"}},"type":"Feature"},
	{"geometry":{"coordinates":[6.693133,51.214509],"type":"Point"},"properties":{"osm_id":"617271033","tag":{"amenity":"recycling","recycling:cardboard":"yes","recycling:glass":"yes","recycling:glass_bottles":"yes","recycling:paper":"yes","recycling_type":"container"}},"type":"Feature"},
	{"geometry":{"coordinates":[6.692441,51.197791],"type":"Point"},"properties":{"osm_id":"635127865","tag":{"amenity":"waste_basket"}},"type":"Feature"},
	{"geometry":{"coordinates":[6.683984,51.200474],"type":"Point"},"properties":{"osm_id":"651865057","tag":{"amenity":"recycling","location":"overground","operator":"Deutsches Rotes Kreuz","recycling:clothes":"yes","recycling_type":"container"}},"type":"Feature"},
	{"geometry":{"coordinates":[6.680085,51.196197],"type":"Point"},"properties":{"osm_id":"652714582","tag":{"amenity":"recycling","recycling:clothes":"yes"}},"type":"Feature"},
	{"geometry":{"coordinates":[6.683451,51.197258],"type":"Point"},"properties":{"osm_id":"663770067","tag":{"amenity":"waste_basket"}},"type":"Feature"},
	{"geometry":{"coordinates":[6.688492,51.19814],"type":"Point"},"properties":{"osm_id":"664563317","tag":{"amenity":"waste_basket"}},"type":"Feature"},
	{"geometry":{"coordinates":[6.682834,51.181919],"type":"Point"},"properties":{"osm_id":"670666910","tag":{"amenity":"recycling","recycling:clothes":"yes","recycling:shoes":"yes","recycling_type":"container"}},"type":"Feature"},
	{"geometry":{"coordinates":[6.691464,51.201623],"type":"Point"},"properties":{"osm_id":"688546837","tag":{"amenity":"recycling","recycling:glass":"yes"}},"type":"Feature"},
	{"geometry":{"coordinates":[6.706891,51.186612],"type":"Point"},"properties":{"osm_id":"725314196","tag":{"amenity":"recycling","recycling:paper":"yes","recycling_type":"container"}},"type":"Feature"},
	{"geometry":{"coordinates":[6.706857,51.186579],"type":"Point"},"properties":{"osm_id":"725314220","tag":{"amenity":"recycling","recycling:glass":"yes","recycling_type":"container"}},"type":"Feature"},
	{"geometry":{"coordinates":[6.68761,51.200832],"type":"Point"},"properties":{"osm_id":"745379028","tag":{"amenity":"waste_basket"}},"type":"Feature"},
	{"geometry":{"coordinates":[6.723634,51.202881],"type":"Point"},"properties":{"osm_id":"748839522","tag":{"amenity":"recycling","recycling:cardboard":"yes","recycling:clothes":"yes","recycling:glass":"yes","recycling:glass_bottles":"yes","recycling:paper":"yes","recycling_type":"container"}},"type":"Feature"},
	{"geometry":{"coordinates":[6.697355,51.187866],"type":"Point"},"properties":{"osm_id":"798704286","tag":{"amenity":"recycling","operator":"Alba","recycling:glass":"yes","recycling_type":"container"}},"type":"Feature"},
	{"geometry":{"coordinates":[6.699962,51.190764],"type":"Point"},"properties":{"osm_id":"799040582","tag":{"amenity":"recycling","operator":"Alba","recycling:glass_bottles":"yes","recycling_type":"container"}},"type":"Feature"},
	{"geometry":{"coordinates":[6.68848,51.180395],"type":"Point"},"properties":{"osm_id":"802005802","tag":{"amenity":"recycling","location":"overground","operator":"Malteser","recycling:clothes":"yes","recycling_type":"container"}},"type":"Feature"},
	{"geometry":{"coordinates":[6.719824,51.227039],"type":"Point"},"properties":{"osm_id":"820991227","tag":{"amenity":"recycling","location":"overground","recycling:clothes":"yes","recycling_type":"container"}},"type":"Feature"},
	{"geometry":{"coordinates":[6.719861,51.227064],"type":"Point"},"properties":{"osm_id":"820991238","tag":{"amenity":"recycling","location":"overground","recycling:glass":"yes","recycling_type":"container"}},"type":"Feature"},
	{"geometry":{"coordinates":[6.72445,51.229582],"type":"Point"},"properties":{"osm_id":"821005487","tag":{"amenity":"waste_basket"}},"type":"Feature"},
	{"geometry":{"coordinates":[6.723288,51.232026],"type":"Point"},"properties":{"osm_id":"844590776","tag":{"amenity":"recycling","location":"overground","recycling:clothes":"yes","recycling:glass":"yes","recycling:paper":"yes","recycling_type":"container"}},"type":"Feature"},
	{"geometry":{"coordinates":[6.716316,51.185791],"type":"Point"},"properties":{"osm_id":"919529619","tag":{"amenity":"recycling","operator":"Alba","recycling:glass":"yes","recycling:glass_bottles":"yes","recycling_type":"container"}},"type":"Feature"},
	{"geometry":{"coordinates":[6.683177,51.22623],"type":"Point"},"properties":{"osm_id":"981702512","tag":{"amenity":"recycling","operator":"Alba","recycling:glass":"yes","recycling_type":"container"}},"type":"Feature"},
	{"geometry":{"coordinates":[6.698992,51.22851],"type":"Point"},"properties":{"osm_id":"997577265","tag":{"amenity":"recycling","recycling:clothes":"yes","recycling:shoes":"yes","recycling_type":"container"}},"type":"Feature"},
	{"geometry":{"coordinates":[6.71634,51.185812],"type":"Point"},"properties":{"osm_id":"1013852815","tag":{"amenity":"recycling","operator":"EGN","recycling:cardboard":"yes","recycling:paper":"yes","recycling_type":"container"}},"type":"Feature"},
	{"geometry":{"coordinates":[6.682411,51.21202],"type":"Point"},"properties":{"osm_id":"1028082162","tag":{"amenity":"recycling","operator":"EGN","recycling:paper":"yes"}},"type":"Feature"},
	{"geometry":{"coordinates":[6.682348,51.212023],"type":"Point"},"properties":{"osm_id":"1028082167","tag":{"amenity":"recycling","operator":"Alba","recycling:glass":"yes"}},"type":"Feature"},
	{"geometry":{"coordinates":[6.69849,51.22852],"type":"Point"},"properties":{"osm_id":"1110708857","tag":{"amenity":"waste_basket"}},"type":"Feature"},
	{"geometry":{"coordinates":[6.704373,51.230133],"type":"Point"},"properties":{"osm_id":"1111999366","tag":{"amenity":"waste_basket"}},"type":"Feature"},
	{"geometry":{"coordinates":[6.708311,51.231048],"type":"Point"},"properties":{"osm_id":"1115047533","tag":{"amenity":"recycling","recycling:clothes":"yes","recycling:glass":"yes","recycling:glass_bottles":"yes","recycling:paper":"yes","recycling_type":"container"}},"type":"Feature"},
	{"geometry":{"coordinates":[6.699264,51.22892],"type":"Point"},"properties":{"osm_id":"1115661650","tag":{"amenity":"waste_basket"}},"type":"Feature"},
	{"geometry":{"coordinates":[6.701508,51.229573],"type":"Point"},"properties":{"osm_id":"1115661654","tag":{"amenity":"recycling","recycling:clothes":"yes","recycling:glass":"yes","recycling:paper":"yes"}},"type":"Feature"},
	{"geometry":{"coordinates":[6.721193,51.232191],"type":"Point"},"properties":{"osm_id":"1120140527","tag":{"amenity":"waste_basket"}},"type":"Feature"},
	{"geometry":{"coordinates":[6.695063,51.227506],"type":"Point"},"properties":{"osm_id":"1120176055","tag":{"amenity":"recycling","recycling:glass":"yes"}},"type":"Feature"},
	{"geometry":{"coordinates":[6.695036,51.227495],"type":"Point"},"properties":{"osm_id":"1120176059","tag":{"amenity":"recycling","recycling:clothes":"yes"}},"type":"Feature"},
	{"geometry":{"coordinates":[6.716994,51.231859],"type":"Point"},"properties":{"osm_id":"1120221632","tag":{"amenity":"recycling","location":"overground","recycling:clothes":"yes","recycling_type":"container"}},"type":"Feature"},
	{"geometry":{"coordinates":[6.717032,51.231871],"type":"Point"},"properties":{"osm_id":"1120221633","tag":{"amenity":"recycling","location":"overground","recycling:glass":"yes","recycling_type":"container"}},"type":"Feature"},
	{"geometry":{"coordinates":[6.720027,51.232124],"type":"Point"},"properties":{"osm_id":"1126047256","tag":{"amenity":"waste_basket"}},"type":"Feature"},
	{"geometry":{"coordinates":[6.720167,51.23226],"type":"Point"},"properties":{"osm_id":"1126047262","tag":{"amenity":"waste_basket"}},"type":"Feature"},
	{"geometry":{"coordinates":[6.681969,51.20197],"type":"Point"},"properties":{"osm_id":"1126739121","tag":{"amenity":"waste_basket"}},"type":"Feature"},
	{"geometry":{"coordinates":[6.688126,51.195792],"type":"Point"},"properties":{"osm_id":"1127718834","tag":{"amenity":"waste_basket"}},"type":"Feature"},
	{"geometry":{"coordinates":[6.711857,51.187373],"type":"Point"},"properties":{"osm_id":"1128535943","tag":{"amenity":"recycling","recycling:clothes":"yes","recycling:glass":"yes","recycling:paper":"yes"}},"type":"Feature"},
	{"geometry":{"coordinates":[6.726269,51.185663],"type":"Point"},"properties":{"osm_id":"1130954376","tag":{"amenity":"waste_basket"}},"type":"Feature"},
	{"geometry":{"coordinates":[6.729605,51.185842],"type":"Point"},"properties":{"osm_id":"1136376234","tag":{"amenity":"waste_basket"}},"type":"Feature"},
	{"geometry":{"coordinates":[6.725937,51.185002],"type":"Point"},"properties":{"osm_id":"1136376252","tag":{"amenity":"waste_basket"}},"type":"Feature"},
	{"geometry":{"coordinates":[6.72956,51.185563],"type":"Point"},"properties":{"osm_id":"1136376304","tag":{"amenity":"waste_basket"}},"type":"Feature"},
	{"geometry":{"coordinates":[6.735431,51.182358],"type":"Point"},"properties":{"osm_id":"1136376305","tag":{"amenity":"waste_basket"}},"type":"Feature"},
	{"geometry":{"coordinates":[6.736979,51.1816],"type":"Point"},"properties":{"osm_id":"1136376350","tag":{"amenity":"waste_basket"}},"type":"Feature"},
	{"geometry":{"coordinates":[6.72931,51.185398],"type":"Point"},"properties":{"osm_id":"1136376369","tag":{"amenity":"waste_basket"}},"type":"Feature"},
	{"geometry":{"coordinates":[6.721431,51.183895],"type":"Point"},"properties":{"osm_id":"1193064445","tag":{"amenity":"recycling","operator":"Alba","recycling:paper":"yes","recycling_type":"container"}},"type":"Feature"},
	{"geometry":{"coordinates":[6.681756,51.197737],"type":"Point"},"properties":{"osm_id":"1212085200","tag":{"amenity":"waste_basket"}},"type":"Feature"},
	{"geometry":{"coordinates":[6.690048,51.193319],"type":"Point"},"properties":{"osm_id":"1233984198","tag":{"amenity":"recycling","location":"overground","operator":"Abfall- und Wertstofflogistik Neuss GmbH (AWL)","recycling:cardboard":"yes","recycling:glass":"no","recycling:glass_bottles":"yes","recycling:paper":"yes","recycling_type":"container"}},"type":"Feature"},
	{"geometry":{"coordinates":[6.686912,51.204213],"type":"Point"},"properties":{"osm_id":"1235150266","tag":{"amenity":"recycling","lastcheck":"2020-03-12","recycling:cardboard":"yes","recycling:glass":"no","recycling:glass_bottles":"yes","recycling:paper":"yes","recycling_type":"container"}},"type":"Feature"},
	{"geometry":{"coordinates":[6.763582,51.21697],"type":"Point"},"properties":{"osm_id":"1235196285","tag":{"amenity":"recycling","recycling:clothes":"yes","recycling_type":"container"}},"type":"Feature"},
	{"geometry":{"coordinates":[6.69861,51.228773],"type":"Point"},"properties":{"osm_id":"1248555360","tag":{"amenity":"waste_basket"}},"type":"Feature"},
	{"geometry":{"coordinates":[6.697634,51.228413],"type":"Point"},"properties":{"osm_id":"1252483457","tag":{"amenity":"waste_basket"}},"type":"Feature"},
	{"geometry":{"coordinates":[6.720458,51.232631],"type":"Point"},"properties":{"osm_id":"1252526196","tag":{"amenity":"waste_basket"}},"type":"Feature"},
	{"geometry":{"coordinates":[6.6896,51.198316],"type":"Point"},"properties":{"osm_id":"1255302361","tag":{"amenity":"waste_basket"}},"type":"Feature"},
	{"geometry":{"coordinates":[6.693753,51.197338],"type":"Point"},"properties":{"osm_id":"1273405899","tag":{"amenity":"waste_basket"}},"type":"Feature"},
	{"geometry":{"coordinates":[6.682484,51.196064],"type":"Point"},"properties":{"osm_id":"1281539100","tag":{"amenity":"waste_basket"}},"type":"Feature"},
	{"geometry":{"coordinates":[6.68262,51.195965],"type":"Point"},"properties":{"osm_id":"1281539104","tag":{"amenity":"waste_basket"}},"type":"Feature"},
	{"geometry":{"coordinates":[6.682858,51.196203],"type":"Point"},"properties":{"osm_id":"1281539105","tag":{"amenity":"waste_basket"}},"type":"Feature"},
	{"geometry":{"coordinates":[6.682801,51.195839],"type":"Point"},"properties":{"osm_id":"1281539107","tag":{"amenity":"waste_basket"}},"type":"Feature"},
	{"geometry":{"coordinates":[6.686016,51.230247],"type":"Point"},"properties":{"osm_id":"1295345308","tag":{"amenity":"recycling","recycling:clothes":"yes","recycling_type":"container"}},"type":"Feature"},
	{"geometry":{"coordinates":[6.686993,51.23113],"type":"Point"},"properties":{"osm_id":"1295345365","tag":{"amenity":"recycling","recycling:clothes":"yes","recycling:shoes":"yes","recycling_type":"container"}},"type":"Feature"},
	{"geometry":{"coordinates":[6.692637,51.197879],"type":"Point"},"properties":{"osm_id":"1352805500","tag":{"amenity":"waste_basket"}},"type":"Feature"},
	{"geometry":{"coordinates":[6.691646,51.197855],"type":"Point"},"properties":{"osm_id":"1369269256","tag":{"amenity":"waste_basket"}},"type":"Feature"},
	{"geometry":{"coordinates":[6.692156,51.197579],"type":"Point"},"properties":{"osm_id":"1403811040","tag":{"amenity":"waste_basket"}},"type":"Feature"},
	{"geometry":{"coordinates":[6.684103,51.179808],"type":"Point"},"properties":{"osm_id":"1407069411","tag":{"amenity":"recycling","recycling:glass":"yes","recycling:paper":"yes","recycling_type":"container"}},"type":"Feature"},
	{"geometry":{"coordinates":[6.691155,51.196831],"type":"Point"},"properties":{"osm_id":"1411458095","tag":{"amenity":"waste_basket"}},"type":"Feature"},
	{"geometry":{"coordinates":[6.690673,51.199789],"type":"Point"},"properties":{"osm_id":"1425123438","tag":{"amenity":"recycling","operator":"Alba","recycling:glass":"yes","recycling:glass_bottles":"yes","recycling_type":"container"}},"type":"Feature"},
	{"geometry":{"coordinates":[6.69066,51.199818],"type":"Point"},"properties":{"osm_id":"1425123453","tag":{"amenity":"recycling","recycling:cardboard":"yes","recycling:paper":"yes","recycling_type":"container"}},"type":"Feature"},
	{"geometry":{"coordinates":[6.69332,51.216322],"type":"Point"},"properties":{"osm_id":"1445728288","tag":{"amenity":"recycling"}},"type":"Feature"},
	{"geometry":{"coordinates":[6.68221,51.20388],"type":"Point"},"properties":{"osm_id":"1449790977","tag":{"amenity":"waste_basket"}},"type":"Feature"},
	{"geometry":{"coordinates":[6.694067,51.197873],"type":"Point"},"properties":{"osm_id":"1491573949","tag":{"amenity":"waste_basket"}},"type":"Feature"},
	{"geometry":{"coordinates":[6.704091,51.202316],"type":"Point"},"properties":{"osm_id":"1528649476","tag":{"amenity":"recycling","recycling:glass":"yes","recycling:paper":"yes","recycling_type":"container"}},"type":"Feature"},
	{"geometry":{"coordinates":[6.757333,51.232997],"type":"Point"},"properties":{"osm_id":"1551459769","tag":{"amenity":"recycling","location":"overground","recycling_type":"container"}},"type":"Feature"},
	{"geometry":{"coordinates":[6.761562,51.231423],"type":"Point"},"properties":{"osm_id":"1551510605","tag":{"amenity":"recycling","operator":"AWISTA Gesellschaft f\u00c3\u00bcr Abfallwirtschaft und Stadtreinigung mbH","recycling:clothes":"yes","recycling:glass_bottles":"yes","recycling:paper":"yes","recycling_type":"container"}},"type":"Feature"},
	{"geometry":{"coordinates":[6.752031,51.231882],"type":"Point"},"properties":{"osm_id":"1551562756","tag":{"amenity":"waste_basket"}},"type":"Feature"},
	{"geometry":{"coordinates":[6.752365,51.231907],"type":"Point"},"properties":{"osm_id":"1551562783","tag":{"amenity":"waste_basket"}},"type":"Feature"},
	{"geometry":{"coordinates":[6.747196,51.231404],"type":"Point"},"properties":{"osm_id":"1551671643","tag":{"amenity":"recycling","operator":"Awista Gesellschaft f\u00c3\u00bcr Abfallwirtschaft und Stadtreinigung mbH","recycling:glass_bottles":"yes","recycling:paper":"yes","recycling_type":"container"}},"type":"Feature"},
	{"geometry":{"coordinates":[6.766331,51.218138],"type":"Point"},"properties":{"osm_id":"1588478795","tag":{"amenity":"recycling","recycling_type":"container"}},"type":"Feature"},
	{"geometry":{"coordinates":[6.766683,51.215525],"type":"Point"},"properties":{"osm_id":"1588865777","tag":{"amenity":"recycling","recycling:cans":"no","recycling:clothes":"yes","recycling:glass_bottles":"yes","recycling:paper":"no","recycling_type":"container"}},"type":"Feature"},
	{"geometry":{"coordinates":[6.763869,51.217185],"type":"Point"},"properties":{"osm_id":"1588868133","tag":{"amenity":"recycling","location":"overground","recycling:glass_bottles":"yes","recycling:paper":"yes","recycling_type":"container"}},"type":"Feature"},
	{"geometry":{"coordinates":[6.695252,51.199009],"type":"Point"},"properties":{"osm_id":"1646223820","tag":{"amenity":"waste_basket"}},"type":"Feature"},
	{"geometry":{"coordinates":[6.69515,51.199159],"type":"Point"},"properties":{"osm_id":"1646223856","tag":{"amenity":"waste_basket"}},"type":"Feature"},
	{"geometry":{"coordinates":[6.695976,51.196128],"type":"Point"},"properties":{"osm_id":"1678325238","tag":{"amenity":"waste_basket"}},"type":"Feature"},
	{"geometry":{"coordinates":[6.757706,51.230298],"type":"Point"},"properties":{"osm_id":"1717731643","tag":{"amenity":"recycling","operator":"AWISTA Gesellschaft f\u00c3\u00bcr Abfallwirtschaft und Stadtreinigung mbH","recycling:clothes":"yes","recycling:glass":"yes","recycling:glass_bottles":"yes","recycling_type":"container"}},"type":"Feature"},
	{"geometry":{"coordinates":[6.742404,51.198785],"type":"Point"},"properties":{"osm_id":"1721678022","tag":{"amenity":"recycling","recycling:batteries":"no","recycling:books":"no","recycling:cans":"no","recycling:cardboard":"yes","recycling:cartons":"yes","recycling:glass_bottles":"yes","recycling:magazines":"yes","recycling:newspaper":"yes","recycling:paper":"yes","recycling:paper_packaging":"yes","recycling_type":"container"}},"type":"Feature"},
	{"geometry":{"coordinates":[6.700761,51.19307],"type":"Point"},"properties":{"osm_id":"1725277792","tag":{"amenity":"waste_basket"}},"type":"Feature"},
	{"geometry":{"coordinates":[6.700562,51.193187],"type":"Point"},"properties":{"osm_id":"1725277796","tag":{"amenity":"waste_basket"}},"type":"Feature"},
	{"geometry":{"coordinates":[6.700416,51.193282],"type":"Point"},"properties":{"osm_id":"1725277799","tag":{"amenity":"waste_basket"}},"type":"Feature"},
	{"geometry":{"coordinates":[6.694931,51.197761],"type":"Point"},"properties":{"osm_id":"1789851785","tag":{"amenity":"waste_basket"}},"type":"Feature"},
	{"geometry":{"coordinates":[6.693312,51.197577],"type":"Point"},"properties":{"osm_id":"1799608063","tag":{"amenity":"waste_basket"}},"type":"Feature"},
	{"geometry":{"coordinates":[6.693645,51.197282],"type":"Point"},"properties":{"osm_id":"1804356473","tag":{"amenity":"waste_basket"}},"type":"Feature"},
	{"geometry":{"coordinates":[6.695297,51.198175],"type":"Point"},"properties":{"osm_id":"1804356488","tag":{"amenity":"waste_basket"}},"type":"Feature"},
	{"geometry":{"coordinates":[6.695221,51.198338],"type":"Point"},"properties":{"osm_id":"1804356497","tag":{"amenity":"waste_basket"}},"type":"Feature"},
	{"geometry":{"coordinates":[6.697697,51.194839],"type":"Point"},"properties":{"osm_id":"1808687959","tag":{"amenity":"waste_basket"}},"type":"Feature"},
	{"geometry":{"coordinates":[6.691888,51.196485],"type":"Point"},"properties":{"osm_id":"1814935620","tag":{"amenity":"waste_basket"}},"type":"Feature"},
	{"geometry":{"coordinates":[6.695342,51.197849],"type":"Point"},"properties":{"osm_id":"1820730504","tag":{"amenity":"waste_basket"}},"type":"Feature"},
	{"geometry":{"coordinates":[6.694691,51.198334],"type":"Point"},"properties":{"osm_id":"1827878098","tag":{"amenity":"waste_basket"}},"type":"Feature"},
	{"geometry":{"coordinates":[6.703852,51.185744],"type":"Point"},"properties":{"osm_id":"1834625924","tag":{"amenity":"waste_basket"}},"type":"Feature"},
	{"geometry":{"coordinates":[6.702319,51.184485],"type":"Point"},"properties":{"osm_id":"1838647612","tag":{"amenity":"waste_basket"}},"type":"Feature"},
	{"geometry":{"coordinates":[6.702641,51.184666],"type":"Point"},"properties":{"osm_id":"1838647668","tag":{"amenity":"waste_basket"}},"type":"Feature"},
	{"geometry":{"coordinates":[6.702318,51.184675],"type":"Point"},"properties":{"osm_id":"1838647671","tag":{"amenity":"waste_basket"}},"type":"Feature"},
	{"geometry":{"coordinates":[6.702077,51.184063],"type":"Point"},"properties":{"osm_id":"1838749620","tag":{"amenity":"waste_basket"}},"type":"Feature"},
	{"geometry":{"coordinates":[6.708712,51.188132],"type":"Point"},"properties":{"osm_id":"1840268852","tag":{"amenity":"recycling","recycling:clothes":"yes","recycling_type":"container"}},"type":"Feature"},
	{"geometry":{"coordinates":[6.688456,51.199289],"type":"Point"},"properties":{"osm_id":"1844474794","tag":{"amenity":"waste_basket"}},"type":"Feature"},
	{"geometry":{"coordinates":[6.694148,51.198923],"type":"Point"},"properties":{"osm_id":"1845948003","tag":{"amenity":"waste_basket"}},"type":"Feature"},
	{"geometry":{"coordinates":[6.694201,51.197707],"type":"Point"},"properties":{"osm_id":"1855759357","tag":{"amenity":"waste_basket"}},"type":"Feature"},
	{"geometry":{"coordinates":[6.698136,51.195983],"type":"Point"},"properties":{"osm_id":"1878274249","tag":{"amenity":"waste_basket"}},"type":"Feature"},
	{"geometry":{"coordinates":[6.697741,51.196369],"type":"Point"},"properties":{"osm_id":"1878274337","tag":{"amenity":"waste_basket"}},"type":"Feature"},
	{"geometry":{"coordinates":[6.681817,51.212826],"type":"Point"},"properties":{"osm_id":"1915612434","tag":{"amenity":"waste_basket"}},"type":"Feature"},
	{"geometry":{"coordinates":[6.681827,51.212898],"type":"Point"},"properties":{"osm_id":"1915612436","tag":{"amenity":"waste_basket"}},"type":"Feature"},
	{"geometry":{"coordinates":[6.681867,51.213137],"type":"Point"},"properties":{"osm_id":"1915612438","tag":{"amenity":"waste_basket"}},"type":"Feature"},
	{"geometry":{"coordinates":[6.682632,51.213166],"type":"Point"},"properties":{"osm_id":"1915612444","tag":{"amenity":"waste_basket"}},"type":"Feature"},
	{"geometry":{"coordinates":[6.681875,51.213204],"type":"Point"},"properties":{"osm_id":"1915612445","tag":{"amenity":"waste_basket"}},"type":"Feature"},
	{"geometry":{"coordinates":[6.682646,51.213235],"type":"Point"},"properties":{"osm_id":"1915612446","tag":{"amenity":"waste_basket"}},"type":"Feature"},
	{"geometry":{"coordinates":[6.682632,51.213272],"type":"Point"},"properties":{"osm_id":"1915612447","tag":{"amenity":"waste_basket"}},"type":"Feature"},
	{"geometry":{"coordinates":[6.682579,51.213273],"type":"Point"},"properties":{"osm_id":"1915612448","tag":{"amenity":"waste_basket"}},"type":"Feature"},
	{"geometry":{"coordinates":[6.681348,51.213634],"type":"Point"},"properties":{"osm_id":"1915612449","tag":{"amenity":"waste_basket"}},"type":"Feature"},
	{"geometry":{"coordinates":[6.685694,51.203325],"type":"Point"},"properties":{"osm_id":"1930911774","tag":{"amenity":"waste_basket"}},"type":"Feature"},
	{"geometry":{"coordinates":[6.680318,51.205006],"type":"Point"},"properties":{"osm_id":"1931888788","tag":{"amenity":"waste_basket"}},"type":"Feature"},
	{"geometry":{"coordinates":[6.693312,51.193706],"type":"Point"},"properties":{"osm_id":"2042668296","tag":{"amenity":"recycling","recycling:glass":"yes","recycling:glass_bottles":"yes","recycling_type":"container"}},"type":"Feature"},
	{"geometry":{"coordinates":[6.695415,51.198169],"type":"Point"},"properties":{"osm_id":"2044475727","tag":{"amenity":"waste_basket"}},"type":"Feature"},
	{"geometry":{"coordinates":[6.680136,51.189699],"type":"Point"},"properties":{"osm_id":"2056517760","tag":{"amenity":"waste_basket"}},"type":"Feature"},
	{"geometry":{"coordinates":[6.680282,51.190102],"type":"Point"},"properties":{"osm_id":"2056517762","tag":{"amenity":"waste_basket"}},"type":"Feature"},
	{"geometry":{"coordinates":[6.692075,51.184959],"type":"Point"},"properties":{"osm_id":"2082063276","tag":{"amenity":"recycling","recycling:glass":"yes","recycling_type":"container"}},"type":"Feature"},
	{"geometry":{"coordinates":[6.686931,51.204705],"type":"Point"},"properties":{"osm_id":"2082084020","tag":{"amenity":"waste_basket"}},"type":"Feature"},
	{"geometry":{"coordinates":[6.694265,51.198274],"type":"Point"},"properties":{"osm_id":"2103241407","tag":{"amenity":"waste_basket"}},"type":"Feature"},
	{"geometry":{"coordinates":[6.696143,51.198313],"type":"Point"},"properties":{"osm_id":"2103241408","tag":{"amenity":"waste_basket"}},"type":"Feature"},
	{"geometry":{"coordinates":[6.695088,51.198377],"type":"Point"},"properties":{"osm_id":"2103241409","tag":{"amenity":"waste_basket"}},"type":"Feature"},
	{"geometry":{"coordinates":[6.695011,51.197545],"type":"Point"},"properties":{"osm_id":"2119221679","tag":{"amenity":"waste_basket"}},"type":"Feature"},
	{"geometry":{"coordinates":[6.696827,51.190573],"type":"Point"},"properties":{"osm_id":"2172075182","tag":{"amenity":"waste_basket"}},"type":"Feature"},
	{"geometry":{"coordinates":[6.693892,51.198436],"type":"Point"},"properties":{"osm_id":"2180056612","tag":{"amenity":"waste_basket"}},"type":"Feature"},
	{"geometry":{"coordinates":[6.688971,51.192737],"type":"Point"},"properties":{"osm_id":"2245335611","tag":{"amenity":"waste_basket"}},"type":"Feature"},
	{"geometry":{"coordinates":[6.691287,51.222886],"type":"Point"},"properties":{"osm_id":"2264677249","tag":{"amenity":"recycling","recycling:glass":"yes","recycling:paper":"yes","recycling_type":"container"}},"type":"Feature"},
	{"geometry":{"coordinates":[6.766715,51.212606],"type":"Point"},"properties":{"osm_id":"2412941135","tag":{"amenity":"waste_basket"}},"type":"Feature"},
	{"geometry":{"coordinates":[6.766809,51.212686],"type":"Point"},"properties":{"osm_id":"2412941147","tag":{"amenity":"waste_basket"}},"type":"Feature"},
	{"geometry":{"coordinates":[6.767196,51.213189],"type":"Point"},"properties":{"osm_id":"2412941216","tag":{"amenity":"recycling","recycling:clothes":"yes","recycling:glass_bottles":"yes","recycling_type":"container"}},"type":"Feature"},
	{"geometry":{"coordinates":[6.767312,51.213232],"type":"Point"},"properties":{"osm_id":"2412941239","tag":{"amenity":"recycling","recycling:clothes":"no","recycling:glass":"no","recycling:paper":"yes","recycling_type":"container"}},"type":"Feature"},
	{"geometry":{"coordinates":[6.686105,51.231782],"type":"Point"},"properties":{"osm_id":"2467879734","tag":{"amenity":"recycling","recycling:cardboard":"yes","recycling:glass":"no","recycling:glass_bottles":"yes","recycling:magazines":"yes","recycling:newspaper":"yes","recycling:paper":"yes","recycling:paper_packaging":"yes","recycling_type":"container"}},"type":"Feature"},
	{"geometry":{"coordinates":[6.69707,51.196077],"type":"Point"},"properties":{"osm_id":"2528366535","tag":{"amenity":"waste_basket"}},"type":"Feature"},
	{"geometry":{"coordinates":[6.696744,51.196133],"type":"Point"},"properties":{"osm_id":"2528366536","tag":{"amenity":"waste_basket"}},"type":"Feature"},
	{"geometry":{"coordinates":[6.696808,51.196165],"type":"Point"},"properties":{"osm_id":"2528366538","tag":{"amenity":"waste_basket"}},"type":"Feature"},
	{"geometry":{"coordinates":[6.767484,51.208064],"type":"Point"},"properties":{"osm_id":"2616147813","tag":{"amenity":"waste_basket","bicycle":"yes","information":"guidepost","network":"rcn","tourism":"information"}},"type":"Feature"},
	{"geometry":{"coordinates":[6.766124,51.209984],"type":"Point"},"properties":{"osm_id":"2629657533","tag":{"amenity":"recycling","recycling:paper":"yes","recycling_type":"container"}},"type":"Feature"},
	{"geometry":{"coordinates":[6.753284,51.213511],"type":"Point"},"properties":{"osm_id":"2663608783","tag":{"amenity":"recycling","operator":"AWISTA","recycling:clothes":"yes","recycling_type":"container"}},"type":"Feature"},
	{"geometry":{"coordinates":[6.708474,51.192671],"type":"Point"},"properties":{"osm_id":"2772481972","tag":{"amenity":"recycling","recycling:clothes":"yes"}},"type":"Feature"},
	{"geometry":{"coordinates":[6.691957,51.195955],"type":"Point"},"properties":{"osm_id":"3083213878","tag":{"amenity":"waste_basket"}},"type":"Feature"},
	{"geometry":{"coordinates":[6.690756,51.196536],"type":"Point"},"properties":{"osm_id":"3083213880","tag":{"amenity":"waste_basket"}},"type":"Feature"},
	{"geometry":{"coordinates":[6.720075,51.181642],"type":"Point"},"properties":{"osm_id":"3084179572","tag":{"amenity":"recycling","operator":"AWL","recycling:paper":"yes","recycling_type":"container"}},"type":"Feature"},
	{"geometry":{"coordinates":[6.719415,51.181726],"type":"Point"},"properties":{"osm_id":"3084179573","tag":{"amenity":"recycling","operator":"Alba","recycling:glass":"yes","recycling_type":"container"}},"type":"Feature"},
	{"geometry":{"coordinates":[6.684877,51.192193],"type":"Point"},"properties":{"osm_id":"3107610709","tag":{"amenity":"waste_basket"}},"type":"Feature"},
	{"geometry":{"coordinates":[6.691515,51.196313],"type":"Point"},"properties":{"osm_id":"3107610715","tag":{"amenity":"waste_basket"}},"type":"Feature"},
	{"geometry":{"coordinates":[6.69126,51.196425],"type":"Point"},"properties":{"osm_id":"3107610719","tag":{"amenity":"waste_basket"}},"type":"Feature"},
	{"geometry":{"coordinates":[6.690962,51.196555],"type":"Point"},"properties":{"osm_id":"3107610722","tag":{"amenity":"waste_basket"}},"type":"Feature"},
	{"geometry":{"coordinates":[6.692153,51.197479],"type":"Point"},"properties":{"osm_id":"3137186753","tag":{"amenity":"waste_basket"}},"type":"Feature"},
	{"geometry":{"coordinates":[6.687,51.200442],"type":"Point"},"properties":{"osm_id":"3200109757","tag":{"amenity":"waste_basket"}},"type":"Feature"},
	{"geometry":{"coordinates":[6.698123,51.222745],"type":"Point"},"properties":{"osm_id":"3203003398","tag":{"amenity":"recycling","recycling:glass":"yes","recycling:glass_bottles":"yes","recycling_type":"container"}},"type":"Feature"},
	{"geometry":{"coordinates":[6.742126,51.193369],"type":"Point"},"properties":{"name":"Kompostierungsanlage D\u00c3\u00bcsseldorf-Hamm","osm_id":"3265886942","tag":{"addr:city":"D\u00c3\u00bcsseldorf","addr:country":"DE","addr:housenumber":"40","addr:postcode":"40221","addr:state":"NRW","addr:street":"Auf dem Draap","amenity":"recycling","contact:email":"mail@awista.de","contact:phone":"+49 211 153599","contact:website":"http://www.awista-duesseldorf.de","opening_hours":"Mo-Fr 07:00-16:00; Sa 10:00-14:00","operator":"AWISTA GmbH","recycling:garden_waste":"yes","recycling_type":"centre"}},"type":"Feature"},
	{"geometry":{"coordinates":[6.740882,51.186802],"type":"Point"},"properties":{"osm_id":"3265887412","tag":{"amenity":"waste_basket"}},"type":"Feature"},
	{"geometry":{"coordinates":[6.739817,51.187622],"type":"Point"},"properties":{"osm_id":"3265887458","tag":{"amenity":"waste_basket"}},"type":"Feature"},
	{"geometry":{"coordinates":[6.741756,51.191435],"type":"Point"},"properties":{"osm_id":"3265887775","tag":{"amenity":"recycling","recycling:glass_bottles":"yes"}},"type":"Feature"},
	{"geometry":{"coordinates":[6.73693,51.191476],"type":"Point"},"properties":{"osm_id":"3265887781","tag":{"amenity":"waste_basket"}},"type":"Feature"},
	{"geometry":{"coordinates":[6.736451,51.196281],"type":"Point"},"properties":{"osm_id":"3265888074","tag":{"amenity":"waste_basket"}},"type":"Feature"},
	{"geometry":{"coordinates":[6.734443,51.203821],"type":"Point"},"properties":{"osm_id":"3265888764","tag":{"amenity":"waste_basket"}},"type":"Feature"},
	{"geometry":{"coordinates":[6.734447,51.204017],"type":"Point"},"properties":{"osm_id":"3265888785","tag":{"amenity":"waste_basket"}},"type":"Feature"},
	{"geometry":{"coordinates":[6.734045,51.205737],"type":"Point"},"properties":{"osm_id":"3265888905","tag":{"amenity":"waste_basket"}},"type":"Feature"},
	{"geometry":{"coordinates":[6.734052,51.20579],"type":"Point"},"properties":{"osm_id":"3265888920","tag":{"amenity":"waste_basket"}},"type":"Feature"},
	{"geometry":{"coordinates":[6.733787,51.207202],"type":"Point"},"properties":{"osm_id":"3265889028","tag":{"amenity":"waste_basket"}},"type":"Feature"},
	{"geometry":{"coordinates":[6.733688,51.207421],"type":"Point"},"properties":{"osm_id":"3265889054","tag":{"amenity":"waste_basket"}},"type":"Feature"},
	{"geometry":{"coordinates":[6.739855,51.208073],"type":"Point"},"properties":{"osm_id":"3265889112","tag":{"amenity":"waste_basket"}},"type":"Feature"},
	{"geometry":{"coordinates":[6.740487,51.208206],"type":"Point"},"properties":{"osm_id":"3265889135","tag":{"amenity":"waste_basket"}},"type":"Feature"},
	{"geometry":{"coordinates":[6.741836,51.209797],"type":"Point"},"properties":{"osm_id":"3265889235","tag":{"amenity":"waste_basket"}},"type":"Feature"},
	{"geometry":{"coordinates":[6.741646,51.209939],"type":"Point"},"properties":{"osm_id":"3265889240","tag":{"amenity":"recycling","location":"overground","recycling:clothes":"yes","recycling:glass_bottles":"yes","recycling_type":"container"}},"type":"Feature"},
	{"geometry":{"coordinates":[6.764994,51.204378],"type":"Point"},"properties":{"osm_id":"3271248511","tag":{"amenity":"recycling","recycling:clothes":"yes","recycling:glass_bottles":"yes","recycling:paper":"yes","recycling_type":"container"}},"type":"Feature"},
	{"geometry":{"coordinates":[6.760569,51.207142],"type":"Point"},"properties":{"osm_id":"3271248530","tag":{"amenity":"waste_basket"}},"type":"Feature"},
	{"geometry":{"coordinates":[6.760494,51.207234],"type":"Point"},"properties":{"osm_id":"3271248550","tag":{"amenity":"recycling","recycling:clothes":"yes","recycling:glass_bottles":"yes","recycling:paper":"yes","recycling_type":"container"}},"type":"Feature"},
	{"geometry":{"coordinates":[6.694582,51.199635],"type":"Point"},"properties":{"osm_id":"3325645061","tag":{"amenity":"waste_basket","layer":"1","level":"1"}},"type":"Feature"},
	{"geometry":{"coordinates":[6.692255,51.20085],"type":"Point"},"properties":{"osm_id":"3325645062","tag":{"amenity":"waste_basket"}},"type":"Feature"},
	{"geometry":{"coordinates":[6.754236,51.199915],"type":"Point"},"properties":{"osm_id":"3385740533","tag":{"amenity":"waste_basket"}},"type":"Feature"},
	{"geometry":{"coordinates":[6.754033,51.200167],"type":"Point"},"properties":{"osm_id":"3385740606","tag":{"amenity":"waste_basket"}},"type":"Feature"},
	{"geometry":{"coordinates":[6.754522,51.200183],"type":"Point"},"properties":{"osm_id":"3385740611","tag":{"amenity":"waste_basket"}},"type":"Feature"},
	{"geometry":{"coordinates":[6.755501,51.200254],"type":"Point"},"properties":{"osm_id":"3385740630","tag":{"amenity":"recycling","recycling:clothes":"yes","recycling_type":"container"}},"type":"Feature"},
	{"geometry":{"coordinates":[6.755387,51.200315],"type":"Point"},"properties":{"osm_id":"3385740647","tag":{"amenity":"waste_basket"}},"type":"Feature"},
	{"geometry":{"coordinates":[6.75642,51.20049],"type":"Point"},"properties":{"osm_id":"3385740676","tag":{"amenity":"waste_basket"}},"type":"Feature"},
	{"geometry":{"coordinates":[6.755583,51.200562],"type":"Point"},"properties":{"osm_id":"3385740686","tag":{"amenity":"recycling","recycling:glass_bottles":"yes","recycling_type":"container"}},"type":"Feature"},
	{"geometry":{"coordinates":[6.755312,51.200686],"type":"Point"},"properties":{"osm_id":"3385740713","tag":{"amenity":"waste_basket"}},"type":"Feature"},
	{"geometry":{"coordinates":[6.742632,51.198803],"type":"Point"},"properties":{"osm_id":"3387446517","tag":{"amenity":"recycling","recycling:glass_bottles":"yes","recycling_type":"container"}},"type":"Feature"},
	{"geometry":{"coordinates":[6.745993,51.232351],"type":"Point"},"properties":{"osm_id":"3430833513","tag":{"amenity":"recycling","operator":"Awista Gesellschaft f\u00c3\u00bcr Abfallwirtschaft und Stadtreinigung mbH","recycling:clothes":"yes","recycling:glass_bottles":"yes","recycling:paper":"yes","recycling_type":"container"}},"type":"Feature"},
	{"geometry":{"coordinates":[6.734002,51.211252],"type":"Point"},"properties":{"osm_id":"3445480981","tag":{"amenity":"recycling","recycling:glass_bottles":"yes","recycling_type":"container"}},"type":"Feature"},
	{"geometry":{"coordinates":[6.764457,51.207818],"type":"Point"},"properties":{"osm_id":"3447300090","tag":{"amenity":"waste_basket"}},"type":"Feature"},
	{"geometry":{"coordinates":[6.689861,51.196934],"type":"Point"},"properties":{"osm_id":"3452193343","tag":{"amenity":"waste_basket"}},"type":"Feature"},
	{"geometry":{"coordinates":[6.685138,51.220797],"type":"Point"},"properties":{"barrier":"gate","osm_id":"3479549769"},"type":"Feature"},
	{"geometry":{"coordinates":[6.725369,51.199138],"type":"Point"},"properties":{"osm_id":"3590764324","tag":{"amenity":"recycling","recycling:clothes":"yes","recycling:shoes":"yes","recycling_type":"container"}},"type":"Feature"},
	{"geometry":{"coordinates":[6.714139,51.231839],"type":"Point"},"properties":{"osm_id":"3649076284","tag":{"amenity":"waste_basket"}},"type":"Feature"},
	{"geometry":{"coordinates":[6.740588,51.208346],"type":"Point"},"properties":{"osm_id":"3730410087","tag":{"amenity":"waste_basket"}},"type":"Feature"},
	{"geometry":{"coordinates":[6.686315,51.203992],"type":"Point"},"properties":{"osm_id":"3741708026","tag":{"amenity":"waste_basket"}},"type":"Feature"},
	{"geometry":{"coordinates":[6.686296,51.204052],"type":"Point"},"properties":{"osm_id":"3741708028","tag":{"amenity":"waste_basket"}},"type":"Feature"},
	{"geometry":{"coordinates":[6.683839,51.204464],"type":"Point"},"properties":{"osm_id":"3811433575","tag":{"amenity":"waste_basket","layer":"1","level":"1"}},"type":"Feature"},
	{"geometry":{"coordinates":[6.731212,51.184471],"type":"Point"},"properties":{"osm_id":"3840916999","tag":{"amenity":"waste_basket"}},"type":"Feature"},
	{"geometry":{"coordinates":[6.731133,51.184584],"type":"Point"},"properties":{"osm_id":"3840917006","tag":{"amenity":"waste_basket"}},"type":"Feature"},
	{"geometry":{"coordinates":[6.726165,51.185502],"type":"Point"},"properties":{"osm_id":"3840917015","tag":{"amenity":"waste_basket"}},"type":"Feature"},
	{"geometry":{"coordinates":[6.725448,51.188042],"type":"Point"},"properties":{"osm_id":"3840917027","tag":{"amenity":"waste_basket"}},"type":"Feature"},
	{"geometry":{"coordinates":[6.750438,51.229471],"type":"Point"},"properties":{"osm_id":"3910435414","tag":{"amenity":"recycling","operator":"AWISTA Gesellschaft f\u00c3\u00bcr Abfallwirtschaft und Stadtreinigung mbH","recycling:clothes":"yes"}},"type":"Feature"},
	{"geometry":{"coordinates":[6.752834,51.231073],"type":"Point"},"properties":{"osm_id":"3910442230","tag":{"amenity":"recycling","operator":"AWISTA Gesellschaft f\u00c3\u00bcr Abfallwirtschaft und Stadtreinigung mbH","recycling:clothes":"yes","recycling:glass_bottles":"yes","recycling:paper":"yes","recycling_type":"container"}},"type":"Feature"},
	{"geometry":{"coordinates":[6.752628,51.231757],"type":"Point"},"properties":{"osm_id":"3910443378","tag":{"amenity":"recycling","operator":"AWISTA Gesellschaft f\u00c3\u00bcr Abfallwirtschaft und Stadtreinigung mbH","recycling:clothes":"yes","recycling:glass_bottles":"yes","recycling:paper":"no","recycling_type":"container"}},"type":"Feature"},
	{"geometry":{"coordinates":[6.752479,51.228978],"type":"Point"},"properties":{"osm_id":"3910446088","tag":{"amenity":"recycling","recycling:clothes":"yes"}},"type":"Feature"},
	{"geometry":{"coordinates":[6.7494,51.227282],"type":"Point"},"properties":{"osm_id":"3910449224","tag":{"amenity":"recycling","operator":"AWISTA Gesellschaft f\u00c3\u00bcr Abfallwirtschaft und Stadtreinigung mbH","recycling:clothes":"yes","recycling:glass_bottles":"yes"}},"type":"Feature"},
	{"geometry":{"coordinates":[6.753931,51.227573],"type":"Point"},"properties":{"osm_id":"3910450035","tag":{"amenity":"recycling","location":"overground","operator":"AWISTA Gesellschaft f\u00c3\u00bcr Abfallwirtschaft und Stadtreinigung mbH","recycling:glass_bottles":"yes","recycling_type":"container"}},"type":"Feature"},
	{"geometry":{"coordinates":[6.748531,51.231933],"type":"Point"},"properties":{"osm_id":"3911079679","tag":{"amenity":"recycling","operator":"Awista Gesellschaft f\u00c3\u00bcr Abfallwirtschaft und Stadtreinigung mbH","recycling:paper":"yes","recycling_type":"container"}},"type":"Feature"},
	{"geometry":{"coordinates":[6.681565,51.191967],"type":"Point"},"properties":{"osm_id":"3921993537","tag":{"amenity":"recycling","operator":"Abfall- und Wertstofflogistik Neuss GmbH (AWL)","recycling:clothes":"yes","recycling:shoes":"yes","recycling_type":"container"}},"type":"Feature"},
	{"geometry":{"coordinates":[6.686949,51.204228],"type":"Point"},"properties":{"osm_id":"4003022563","tag":{"amenity":"recycling","lastcheck":"2020-03-12","operator":"Abfall- und Wertstofflogistik Neuss GmbH (AWL)","recycling:clothes":"yes","recycling:shoes":"yes","recycling_type":"container"}},"type":"Feature"},
	{"geometry":{"coordinates":[6.69098,51.201311],"type":"Point"},"properties":{"osm_id":"4024283021","tag":{"amenity":"waste_basket"}},"type":"Feature"},
	{"geometry":{"coordinates":[6.686144,51.23177],"type":"Point"},"properties":{"osm_id":"4031177262","tag":{"amenity":"recycling","recycling:clothes":"yes","recycling:shoes":"yes","recycling_type":"container"}},"type":"Feature"},
	{"geometry":{"coordinates":[6.686282,51.193203],"type":"Point"},"properties":{"osm_id":"4114942244","tag":{"amenity":"waste_basket"}},"type":"Feature"},
	{"geometry":{"coordinates":[6.700346,51.193596],"type":"Point"},"properties":{"osm_id":"4117116067","tag":{"amenity":"waste_basket"}},"type":"Feature"},
	{"geometry":{"coordinates":[6.700164,51.19376],"type":"Point"},"properties":{"osm_id":"4117116068","tag":{"amenity":"waste_basket"}},"type":"Feature"},
	{"geometry":{"coordinates":[6.701245,51.193192],"type":"Point"},"properties":{"osm_id":"4119441796","tag":{"amenity":"waste_basket"}},"type":"Feature"},
	{"geometry":{"coordinates":[6.700734,51.193818],"type":"Point"},"properties":{"osm_id":"4119441799","tag":{"amenity":"waste_basket"}},"type":"Feature"},
	{"geometry":{"coordinates":[6.700619,51.193809],"type":"Point"},"properties":{"osm_id":"4119441800","tag":{"amenity":"waste_basket"}},"type":"Feature"},
	{"geometry":{"coordinates":[6.700445,51.193691],"type":"Point"},"properties":{"osm_id":"4121879974","tag":{"amenity":"waste_basket"}},"type":"Feature"},
	{"geometry":{"coordinates":[6.697087,51.195337],"type":"Point"},"properties":{"osm_id":"4121879978","tag":{"amenity":"waste_basket"}},"type":"Feature"},
	{"geometry":{"coordinates":[6.69844,51.19364],"type":"Point"},"properties":{"osm_id":"4133715936","tag":{"amenity":"waste_basket"}},"type":"Feature"},
	{"geometry":{"coordinates":[6.696571,51.195657],"type":"Point"},"properties":{"osm_id":"4133715944","tag":{"amenity":"waste_basket"}},"type":"Feature"},
	{"geometry":{"coordinates":[6.696353,51.195774],"type":"Point"},"properties":{"osm_id":"4133715946","tag":{"amenity":"waste_basket"}},"type":"Feature"},
	{"geometry":{"coordinates":[6.6984,51.195932],"type":"Point"},"properties":{"osm_id":"4136529869","tag":{"amenity":"waste_basket"}},"type":"Feature"},
	{"geometry":{"coordinates":[6.69515,51.196394],"type":"Point"},"properties":{"osm_id":"4136529872","tag":{"amenity":"waste_basket"}},"type":"Feature"},
	{"geometry":{"coordinates":[6.70045,51.193906],"type":"Point"},"properties":{"osm_id":"4141289542","tag":{"amenity":"waste_basket"}},"type":"Feature"},
	{"geometry":{"coordinates":[6.700209,51.194289],"type":"Point"},"properties":{"osm_id":"4141289543","tag":{"amenity":"waste_basket"}},"type":"Feature"},
	{"geometry":{"coordinates":[6.696837,51.195396],"type":"Point"},"properties":{"osm_id":"4141289545","tag":{"amenity":"waste_basket"}},"type":"Feature"},
	{"geometry":{"coordinates":[6.696215,51.195749],"type":"Point"},"properties":{"osm_id":"4141289546","tag":{"amenity":"waste_basket"}},"type":"Feature"},
	{"geometry":{"coordinates":[6.691614,51.198481],"type":"Point"},"properties":{"osm_id":"4248936983","tag":{"amenity":"waste_basket"}},"type":"Feature"},
	{"geometry":{"coordinates":[6.688602,51.199156],"type":"Point"},"properties":{"osm_id":"4304685036","tag":{"amenity":"waste_basket"}},"type":"Feature"},
	{"geometry":{"coordinates":[6.688568,51.199288],"type":"Point"},"properties":{"osm_id":"4304685037","tag":{"amenity":"waste_basket"}},"type":"Feature"},
	{"geometry":{"coordinates":[6.688477,51.19934],"type":"Point"},"properties":{"osm_id":"4304685038","tag":{"amenity":"waste_basket"}},"type":"Feature"},
	{"geometry":{"coordinates":[6.688737,51.199464],"type":"Point"},"properties":{"osm_id":"4304685039","tag":{"amenity":"waste_basket"}},"type":"Feature"},
	{"geometry":{"coordinates":[6.685707,51.193721],"type":"Point"},"properties":{"osm_id":"4434732199","tag":{"amenity":"waste_basket"}},"type":"Feature"},
	{"geometry":{"coordinates":[6.683378,51.193506],"type":"Point"},"properties":{"osm_id":"4436462052","tag":{"amenity":"waste_basket"}},"type":"Feature"},
	{"geometry":{"coordinates":[6.739083,51.209968],"type":"Point"},"properties":{"osm_id":"4498974671","tag":{"amenity":"waste_basket"}},"type":"Feature"},
	{"geometry":{"coordinates":[6.689252,51.197713],"type":"Point"},"properties":{"osm_id":"4645397754","tag":{"amenity":"waste_basket"}},"type":"Feature"},
	{"geometry":{"coordinates":[6.689569,51.197624],"type":"Point"},"properties":{"osm_id":"4645397755","tag":{"amenity":"waste_basket"}},"type":"Feature"},
	{"geometry":{"coordinates":[6.766131,51.220496],"type":"Point"},"properties":{"osm_id":"4758522731","tag":{"amenity":"waste_basket"}},"type":"Feature"},
	{"geometry":{"coordinates":[6.765557,51.220017],"type":"Point"},"properties":{"osm_id":"4758522732","tag":{"amenity":"waste_basket"}},"type":"Feature"},
	{"geometry":{"coordinates":[6.763199,51.216935],"type":"Point"},"properties":{"osm_id":"4758522739","tag":{"amenity":"waste_basket"}},"type":"Feature"},
	{"geometry":{"coordinates":[6.763165,51.215384],"type":"Point"},"properties":{"osm_id":"4758522741","tag":{"amenity":"waste_basket"}},"type":"Feature"},
	{"geometry":{"coordinates":[6.763612,51.214927],"type":"Point"},"properties":{"osm_id":"4758522743","tag":{"amenity":"waste_basket"}},"type":"Feature"},
	{"geometry":{"coordinates":[6.767317,51.213387],"type":"Point"},"properties":{"osm_id":"4758522750","tag":{"amenity":"waste_basket"}},"type":"Feature"},
	{"geometry":{"coordinates":[6.765811,51.220228],"type":"Point"},"properties":{"osm_id":"4758524974","tag":{"amenity":"waste_basket"}},"type":"Feature"},
	{"geometry":{"coordinates":[6.765091,51.219193],"type":"Point"},"properties":{"osm_id":"4758524975","tag":{"amenity":"waste_basket"}},"type":"Feature"},
	{"geometry":{"coordinates":[6.763434,51.216856],"type":"Point"},"properties":{"osm_id":"4758524978","tag":{"amenity":"waste_basket"}},"type":"Feature"},
	{"geometry":{"coordinates":[6.762991,51.215621],"type":"Point"},"properties":{"osm_id":"4758524980","tag":{"amenity":"waste_basket"}},"type":"Feature"},
	{"geometry":{"coordinates":[6.765903,51.213802],"type":"Point"},"properties":{"osm_id":"4758524986","tag":{"amenity":"waste_basket"}},"type":"Feature"},
	{"geometry":{"coordinates":[6.76589,51.214006],"type":"Point"},"properties":{"osm_id":"4758524987","tag":{"amenity":"waste_basket"}},"type":"Feature"},
	{"geometry":{"coordinates":[6.767078,51.213345],"type":"Point"},"properties":{"osm_id":"4758524989","tag":{"amenity":"waste_basket"}},"type":"Feature"},
	{"geometry":{"coordinates":[6.767396,51.213242],"type":"Point"},"properties":{"osm_id":"4758524990","tag":{"amenity":"waste_basket"}},"type":"Feature"},
	{"geometry":{"coordinates":[6.744923,51.221796],"type":"Point"},"properties":{"osm_id":"4782900587","tag":{"amenity":"waste_basket"}},"type":"Feature"},
	{"geometry":{"coordinates":[6.74052,51.222051],"type":"Point"},"properties":{"name":"TSR Recycling","osm_id":"4782900589","tag":{"amenity":"recycling","recycling_type":"centre"}},"type":"Feature"},
	{"geometry":{"coordinates":[6.761986,51.216372],"type":"Point"},"properties":{"osm_id":"4782903289","tag":{"amenity":"waste_basket"}},"type":"Feature"},
	{"geometry":{"coordinates":[6.761875,51.217666],"type":"Point"},"properties":{"osm_id":"4782903290","tag":{"amenity":"waste_basket"}},"type":"Feature"},
	{"geometry":{"coordinates":[6.747442,51.220937],"type":"Point"},"properties":{"osm_id":"4782903294","tag":{"amenity":"waste_basket"}},"type":"Feature"},
	{"geometry":{"coordinates":[6.730168,51.222662],"type":"Point"},"properties":{"osm_id":"4782903299","tag":{"amenity":"waste_basket"}},"type":"Feature"},
	{"geometry":{"coordinates":[6.729156,51.220793],"type":"Point"},"properties":{"osm_id":"4782903300","tag":{"amenity":"waste_basket"}},"type":"Feature"},
	{"geometry":{"coordinates":[6.729775,51.215122],"type":"Point"},"properties":{"osm_id":"4782903301","tag":{"amenity":"waste_basket"}},"type":"Feature"},
	{"geometry":{"coordinates":[6.765511,51.211388],"type":"Point"},"properties":{"osm_id":"4782904219","tag":{"amenity":"recycling"}},"type":"Feature"},
	{"geometry":{"coordinates":[6.764266,51.212427],"type":"Point"},"properties":{"osm_id":"4782907427","tag":{"amenity":"waste_basket"}},"type":"Feature"},
	{"geometry":{"coordinates":[6.749595,51.220113],"type":"Point"},"properties":{"osm_id":"4782907432","tag":{"amenity":"waste_basket"}},"type":"Feature"},
	{"geometry":{"coordinates":[6.748065,51.220684],"type":"Point"},"properties":{"osm_id":"4782907433","tag":{"amenity":"waste_basket"}},"type":"Feature"},
	{"geometry":{"coordinates":[6.746939,51.221124],"type":"Point"},"properties":{"osm_id":"4782907434","tag":{"amenity":"waste_basket"}},"type":"Feature"},
	{"geometry":{"coordinates":[6.745786,51.221535],"type":"Point"},"properties":{"osm_id":"4782907435","tag":{"amenity":"waste_basket"}},"type":"Feature"},
	{"geometry":{"coordinates":[6.744486,51.221912],"type":"Point"},"properties":{"osm_id":"4782907436","tag":{"amenity":"waste_basket"}},"type":"Feature"},
	{"geometry":{"coordinates":[6.762867,51.21725],"type":"Point"},"properties":{"osm_id":"4782909025","tag":{"amenity":"waste_basket"}},"type":"Feature"},
	{"geometry":{"coordinates":[6.748779,51.220414],"type":"Point"},"properties":{"osm_id":"4782909028","tag":{"amenity":"waste_basket"}},"type":"Feature"},
	{"geometry":{"coordinates":[6.746356,51.221342],"type":"Point"},"properties":{"osm_id":"4782909030","tag":{"amenity":"waste_basket"}},"type":"Feature"},
	{"geometry":{"coordinates":[6.763571,51.213516],"type":"Point"},"properties":{"osm_id":"4782909312","tag":{"amenity":"waste_basket"}},"type":"Feature"},
	{"geometry":{"coordinates":[6.762352,51.216921],"type":"Point"},"properties":{"osm_id":"4782909314","tag":{"amenity":"waste_basket"}},"type":"Feature"},
	{"geometry":{"coordinates":[6.734589,51.205207],"type":"Point"},"properties":{"osm_id":"4782910719","tag":{"amenity":"waste_basket"}},"type":"Feature"},
	{"geometry":{"coordinates":[6.729183,51.21744],"type":"Point"},"properties":{"osm_id":"4782910723","tag":{"amenity":"waste_basket"}},"type":"Feature"},
	{"geometry":{"coordinates":[6.734862,51.204792],"type":"Point"},"properties":{"osm_id":"4782910732","tag":{"amenity":"waste_basket"}},"type":"Feature"},
	{"geometry":{"coordinates":[6.75333,51.206463],"type":"Point"},"properties":{"osm_id":"4782910743","tag":{"amenity":"waste_basket"}},"type":"Feature"},
	{"geometry":{"coordinates":[6.755094,51.206743],"type":"Point"},"properties":{"osm_id":"4782910744","tag":{"amenity":"waste_basket"}},"type":"Feature"},
	{"geometry":{"coordinates":[6.752796,51.206289],"type":"Point"},"properties":{"osm_id":"4782911558","tag":{"amenity":"recycling","location":"overground","recycling_type":"container"}},"type":"Feature"},
	{"geometry":{"coordinates":[6.754588,51.206666],"type":"Point"},"properties":{"osm_id":"4782911559","tag":{"amenity":"waste_basket"}},"type":"Feature"},
	{"geometry":{"coordinates":[6.764721,51.211326],"type":"Point"},"properties":{"osm_id":"4782911568","tag":{"amenity":"recycling","location":"overground","recycling:clothes":"yes","recycling:glass_bottles":"yes","recycling:paper":"yes","recycling:shoes":"yes","recycling_type":"container"}},"type":"Feature"},
	{"geometry":{"coordinates":[6.73572,51.223744],"type":"Point"},"properties":{"osm_id":"4782915057","tag":{"amenity":"waste_basket"}},"type":"Feature"},
	{"geometry":{"coordinates":[6.735819,51.223724],"type":"Point"},"properties":{"osm_id":"4782916523","tag":{"amenity":"waste_basket"}},"type":"Feature"},
	{"geometry":{"coordinates":[6.766306,51.192668],"type":"Point"},"properties":{"osm_id":"5518612035","tag":{"amenity":"waste_basket","ashtray":"yes"}},"type":"Feature"},
	{"geometry":{"coordinates":[6.684477,51.197908],"type":"Point"},"properties":{"osm_id":"5746668521","tag":{"amenity":"waste_basket"}},"type":"Feature"},
	{"geometry":{"coordinates":[6.761234,51.231287],"type":"Point"},"properties":{"osm_id":"5759034624","tag":{"amenity":"waste_basket"}},"type":"Feature"},
	{"geometry":{"coordinates":[6.701578,51.186484],"type":"Point"},"properties":{"osm_id":"5783646442","tag":{"amenity":"waste_basket"}},"type":"Feature"},
	{"geometry":{"coordinates":[6.726668,51.232125],"type":"Point"},"properties":{"osm_id":"6256865031","tag":{"amenity":"recycling","location":"outdoor","recycling:glass":"no","recycling:glass_bottles":"no","recycling:paper":"yes","recycling:plastic_packaging":"yes","recycling:waste":"yes","recycling_type":"container"}},"type":"Feature"},
	{"geometry":{"coordinates":[6.725281,51.231105],"type":"Point"},"properties":{"osm_id":"6256865041","tag":{"amenity":"recycling","location":"underground","recycling:glass":"yes","recycling:glass_bottles":"yes","recycling:paper":"yes","recycling_type":"container"}},"type":"Feature"},
	{"geometry":{"coordinates":[6.699925,51.184461],"type":"Point"},"properties":{"osm_id":"6343238524","tag":{"amenity":"waste_basket"}},"type":"Feature"},
	{"geometry":{"coordinates":[6.704623,51.184449],"type":"Point"},"properties":{"osm_id":"6343238530","tag":{"amenity":"waste_basket"}},"type":"Feature"},
	{"geometry":{"coordinates":[6.704245,51.184596],"type":"Point"},"properties":{"osm_id":"6343238531","tag":{"amenity":"waste_basket"}},"type":"Feature"},
	{"geometry":{"coordinates":[6.704165,51.184609],"type":"Point"},"properties":{"osm_id":"6343238532","tag":{"amenity":"waste_basket"}},"type":"Feature"},
	{"geometry":{"coordinates":[6.703445,51.184414],"type":"Point"},"properties":{"osm_id":"6343238533","tag":{"amenity":"waste_basket"}},"type":"Feature"},
	{"geometry":{"coordinates":[6.727958,51.182414],"type":"Point"},"properties":{"osm_id":"6358620439","tag":{"amenity":"waste_basket"}},"type":"Feature"},
	{"geometry":{"coordinates":[6.690064,51.193302],"type":"Point"},"properties":{"osm_id":"6695816886","tag":{"amenity":"recycling","operator":"Abfall- und Wertstofflogistik Neuss GmbH (AWL)","recycling:clothes":"yes","recycling:shoes":"yes","recycling_type":"container"}},"type":"Feature"},
	{"geometry":{"coordinates":[6.755864,51.214296],"type":"Point"},"properties":{"osm_id":"6742299269","tag":{"amenity":"recycling","recycling:glass":"yes","recycling:glass_bottles":"yes","recycling_type":"container"}},"type":"Feature"},
	{"geometry":{"coordinates":[6.748998,51.231365],"type":"Point"},"properties":{"osm_id":"6968523327","tag":{"amenity":"waste_basket","colour":"orange","material":"plastic","waste":"trash"}},"type":"Feature"},
	{"geometry":{"coordinates":[6.690618,51.192705],"type":"Point"},"properties":{"osm_id":"7012409589","tag":{"amenity":"waste_basket"}},"type":"Feature"},
	{"geometry":{"coordinates":[6.680578,51.208316],"type":"Point"},"properties":{"osm_id":"7201411232","tag":{"amenity":"recycling","brand":"Sch\u00c3\u00b6nmackers","check_date":"2020-02-10","operator":"Sch\u00c3\u00b6nmackers Umweltdienste GmbH & Co. KG","recycling:glass":"yes","recycling:glass_bottles":"yes","recycling_type":"container"}},"type":"Feature"},
	{"geometry":{"coordinates":[6.759059,51.184514],"type":"Point"},"properties":{"osm_id":"7274481835","tag":{"amenity":"recycling"}},"type":"Feature"},
	{"geometry":{"coordinates":[6.692985,51.208914],"type":"Point"},"properties":{"osm_id":"7609776504","tag":{"amenity":"waste_basket"}},"type":"Feature"},
	{"geometry":{"coordinates":[6.718553,51.233464],"type":"Point"},"properties":{"osm_id":"7700834008","tag":{"amenity":"recycling","location":"overground","recycling_type":"container"}},"type":"Feature"},
	{"geometry":{"coordinates":[6.755317,51.212163],"type":"Point"},"properties":{"osm_id":"7717584642","tag":{"amenity":"recycling","operator":"AWISTA","recycling:clothes":"yes","recycling:glass":"yes","recycling:paper":"yes","recycling_type":"container"}},"type":"Feature"},
	{"geometry":{"coordinates":[6.75945,51.215547],"type":"Point"},"properties":{"osm_id":"7750386655","tag":{"amenity":"recycling"}},"type":"Feature"},
	{"geometry":{"coordinates":[6.689373,51.193097],"type":"Point"},"properties":{"osm_id":"7775697609","tag":{"amenity":"waste_basket"}},"type":"Feature"},
	{"geometry":{"coordinates":[6.687286,51.193065],"type":"Point"},"properties":{"osm_id":"7775697610","tag":{"amenity":"waste_basket"}},"type":"Feature"},
	{"geometry":{"coordinates":[6.697976,51.194889],"type":"Point"},"properties":{"osm_id":"7778728220","tag":{"amenity":"recycling","recycling:glass":"no","recycling:glass_bottles":"yes","recycling_type":"container"}},"type":"Feature"},
	{"geometry":{"coordinates":[6.752151,51.194426],"type":"Point"},"properties":{"osm_id":"7808317939","tag":{"amenity":"waste_disposal"}},"type":"Feature"},
	{"geometry":{"coordinates":[6.752134,51.1944],"type":"Point"},"properties":{"osm_id":"7808317940","tag":{"amenity":"recycling","recycling:green_waste":"yes","recycling_type":"container"}},"type":"Feature"},
	{"geometry":{"coordinates":[6.751569,51.194977],"type":"Point"},"properties":{"osm_id":"7808317944","tag":{"amenity":"recycling","recycling:green_waste":"yes","recycling_type":"container"}},"type":"Feature"},
	{"geometry":{"coordinates":[6.751617,51.194972],"type":"Point"},"properties":{"osm_id":"7808317945","tag":{"amenity":"waste_disposal"}},"type":"Feature"},
	{"geometry":{"coordinates":[6.751228,51.195312],"type":"Point"},"properties":{"osm_id":"7808317948","tag":{"amenity":"recycling","recycling:green_waste":"yes","recycling_type":"container"}},"type":"Feature"},
	{"geometry":{"coordinates":[6.751273,51.195326],"type":"Point"},"properties":{"osm_id":"7808317950","tag":{"amenity":"waste_disposal"}},"type":"Feature"},
	{"geometry":{"coordinates":[6.751859,51.195359],"type":"Point"},"properties":{"osm_id":"7808317952","tag":{"amenity":"recycling","recycling:green_waste":"yes","recycling_type":"container"}},"type":"Feature"},
	{"geometry":{"coordinates":[6.751848,51.195341],"type":"Point"},"properties":{"osm_id":"7808317953","tag":{"amenity":"waste_disposal"}},"type":"Feature"},
	{"geometry":{"coordinates":[6.75255,51.194817],"type":"Point"},"properties":{"osm_id":"7808317965","tag":{"amenity":"recycling","recycling:green_waste":"yes","recycling_type":"container"}},"type":"Feature"},
	{"geometry":{"coordinates":[6.752566,51.194844],"type":"Point"},"properties":{"osm_id":"7808317967","tag":{"amenity":"waste_disposal"}},"type":"Feature"},
	{"geometry":{"coordinates":[6.751576,51.194636],"type":"Point"},"properties":{"osm_id":"7808317974","tag":{"amenity":"recycling","recycling:green_waste":"yes","recycling_type":"container"}},"type":"Feature"},
	{"geometry":{"coordinates":[6.751607,51.194666],"type":"Point"},"properties":{"osm_id":"7808317975","tag":{"amenity":"waste_disposal"}},"type":"Feature"},
	{"geometry":{"coordinates":[6.751418,51.194816],"type":"Point"},"properties":{"osm_id":"7808317982","tag":{"amenity":"recycling","recycling:green_waste":"yes","recycling_type":"container"}},"type":"Feature"},
	{"geometry":{"coordinates":[6.751448,51.194816],"type":"Point"},"properties":{"osm_id":"7808317983","tag":{"amenity":"waste_disposal"}},"type":"Feature"},
	{"geometry":{"coordinates":[6.751926,51.195765],"type":"Point"},"properties":{"osm_id":"7808355507","tag":{"amenity":"waste_disposal"}},"type":"Feature"},
	{"geometry":{"coordinates":[6.751898,51.195769],"type":"Point"},"properties":{"osm_id":"7808355508","tag":{"amenity":"recycling","recycling:green_waste":"yes","recycling_type":"container"}},"type":"Feature"},
	{"geometry":{"coordinates":[6.752843,51.197494],"type":"Point"},"properties":{"osm_id":"7808355523","tag":{"amenity":"recycling","recycling:green_waste":"yes","recycling_type":"container"}},"type":"Feature"},
	{"geometry":{"coordinates":[6.752835,51.197474],"type":"Point"},"properties":{"osm_id":"7808355524","tag":{"amenity":"waste_disposal"}},"type":"Feature"},
	{"geometry":{"coordinates":[6.753014,51.197578],"type":"Point"},"properties":{"osm_id":"7808355525","tag":{"amenity":"waste_disposal"}},"type":"Feature"},
	{"geometry":{"coordinates":[6.755129,51.199469],"type":"Point"},"properties":{"osm_id":"7808355535","tag":{"amenity":"waste_disposal"}},"type":"Feature"},
	{"geometry":{"coordinates":[6.759168,51.212216],"type":"Point"},"properties":{"osm_id":"7811083009","tag":{"amenity":"waste_basket"}},"type":"Feature"},
	{"geometry":{"coordinates":[6.683316,51.195208],"type":"Point"},"properties":{"osm_id":"7822126303","tag":{"amenity":"recycling","recycling:clothes":"yes","recycling:shoes":"yes","recycling_type":"container"}},"type":"Feature"},
	{"geometry":{"coordinates":[6.692733,51.202028],"type":"Point"},"properties":{"osm_id":"7847075589","tag":{"amenity":"recycling","check_date":"2020-08-26","recycling:glass_bottles":"yes","recycling_type":"container"}},"type":"Feature"},
	{"geometry":{"coordinates":[6.692763,51.201998],"type":"Point"},"properties":{"osm_id":"7847075590","tag":{"amenity":"recycling","check_date":"2020-08-26","recycling:paper":"yes","recycling_type":"container"}},"type":"Feature"},
	{"geometry":{"coordinates":[6.68599,51.193238],"type":"Point"},"properties":{"osm_id":"7921610590","tag":{"amenity":"waste_basket"}},"type":"Feature"}
]
}
