{
"type": "FeatureCollection",
"features": [
	{"geometry":{"coordinates":[6.696698,51.16956],"type":"Point"},"properties":{"osm_id":"290004212","tag":{"amenity":"recycling","recycling:clothes":"yes","recycling:glass":"yes","recycling:paper":"yes","recycling_type":"container"}},"type":"Feature"},
	{"geometry":{"coordinates":[6.684996,51.167594],"type":"Point"},"properties":{"osm_id":"290004230","tag":{"amenity":"recycling","location":"overground","recycling:glass":"yes","recycling:paper":"yes","recycling_type":"container"}},"type":"Feature"},
	{"geometry":{"coordinates":[6.740908,51.137742],"type":"Point"},"properties":{"osm_id":"311401552","tag":{"amenity":"recycling","operator":"AWL","recycling:clothes":"yes","recycling:glass":"yes","recycling:paper":"yes","recycling_type":"container"}},"type":"Feature"},
	{"geometry":{"coordinates":[6.744418,51.135816],"type":"Point"},"properties":{"osm_id":"311534058","tag":{"amenity":"recycling","recycling:glass":"yes","recycling:paper":"yes","recycling_type":"container"}},"type":"Feature"},
	{"geometry":{"coordinates":[6.74873,51.138689],"type":"Point"},"properties":{"osm_id":"311534066","tag":{"amenity":"recycling","recycling:glass":"yes","recycling:paper":"yes","recycling_type":"container"}},"type":"Feature"},
	{"geometry":{"coordinates":[6.749398,51.138951],"type":"Point"},"properties":{"osm_id":"311534068","tag":{"amenity":"recycling","opening_hours":"24/7","recycling:clothes":"yes","recycling:shoes":"yes","recycling_type":"container"}},"type":"Feature"},
	{"geometry":{"coordinates":[6.749268,51.136938],"type":"Point"},"properties":{"osm_id":"312158715","tag":{"amenity":"recycling","mapillary":"UDmnXiEcpRQvHOuoC-KRtw","recycling:glass":"yes","recycling:paper":"yes","recycling_type":"container","survey:date":"2019-11-04"}},"type":"Feature"},
	{"geometry":{"coordinates":[6.725683,51.136605],"type":"Point"},"properties":{"osm_id":"312265749","tag":{"amenity":"recycling","recycling:clothes":"yes"}},"type":"Feature"},
	{"geometry":{"coordinates":[6.727551,51.131692],"type":"Point"},"properties":{"osm_id":"312265764","tag":{"amenity":"recycling","recycling:clothes":"yes","recycling:glass":"yes","recycling:paper":"yes"}},"type":"Feature"},
	{"geometry":{"coordinates":[6.735197,51.135556],"type":"Point"},"properties":{"osm_id":"312751288","tag":{"amenity":"recycling","recycling:glass":"yes"}},"type":"Feature"},
	{"geometry":{"coordinates":[6.753328,51.148286],"type":"Point"},"properties":{"osm_id":"317243825","tag":{"amenity":"recycling","recycling:glass":"yes","recycling_type":"container"}},"type":"Feature"},
	{"geometry":{"coordinates":[6.726839,51.12507],"type":"Point"},"properties":{"osm_id":"317244259","tag":{"amenity":"recycling","recycling:cardboard":"yes","recycling:glass":"yes","recycling:glass_bottles":"yes","recycling:paper":"yes","recycling_type":"container"}},"type":"Feature"},
	{"geometry":{"coordinates":[6.724313,51.156714],"type":"Point"},"properties":{"osm_id":"319498264","tag":{"amenity":"recycling","recycling:glass":"yes","recycling:paper":"yes"}},"type":"Feature"},
	{"geometry":{"coordinates":[6.729883,51.157045],"type":"Point"},"properties":{"osm_id":"319498283","tag":{"amenity":"recycling","recycling:glass":"yes","recycling:paper":"yes","recycling_type":"container"}},"type":"Feature"},
	{"geometry":{"coordinates":[6.736192,51.152475],"type":"Point"},"properties":{"osm_id":"319498294","tag":{"amenity":"recycling","mapillary":"eSWrsbEVVlV8_L8WwpB_fQ","recycling:glass":"yes","recycling:paper":"yes","recycling_type":"container","survey:date":"2019-09-08"}},"type":"Feature"},
	{"geometry":{"coordinates":[6.733281,51.151474],"type":"Point"},"properties":{"osm_id":"319498296","tag":{"amenity":"recycling","recycling:batteries":"no","recycling:clothes":"no","recycling:glass":"yes","recycling:paper":"yes","recycling_type":"container"}},"type":"Feature"},
	{"geometry":{"coordinates":[6.721118,51.156699],"type":"Point"},"properties":{"osm_id":"334170452","tag":{"amenity":"recycling","recycling:glass":"yes"}},"type":"Feature"},
	{"geometry":{"coordinates":[6.719772,51.149551],"type":"Point"},"properties":{"osm_id":"334170485","tag":{"amenity":"recycling","recycling:clothes":"yes"}},"type":"Feature"},
	{"geometry":{"coordinates":[6.745084,51.143288],"type":"Point"},"properties":{"osm_id":"339669864","tag":{"amenity":"recycling","mapillary":"4DnsJI2pyYxv5gbJ9ru79Q","recycling:cardboard":"yes","recycling:glass_bottles":"yes","recycling:paper":"yes","recycling_type":"container","survey:date":"2019-10-10"}},"type":"Feature"},
	{"geometry":{"coordinates":[6.731452,51.162353],"type":"Point"},"properties":{"osm_id":"346324402","tag":{"amenity":"recycling","recycling:glass":"yes","recycling:paper":"yes"}},"type":"Feature"},
	{"geometry":{"coordinates":[6.693947,51.15489],"type":"Point"},"properties":{"osm_id":"370189159","tag":{"amenity":"recycling","recycling:glass":"yes","recycling:paper":"yes","recycling_type":"container"}},"type":"Feature"},
	{"geometry":{"coordinates":[6.693217,51.155039],"type":"Point"},"properties":{"osm_id":"370189161","tag":{"amenity":"recycling","recycling:clothes":"yes","recycling_type":"container"}},"type":"Feature"},
	{"geometry":{"coordinates":[6.692725,51.157364],"type":"Point"},"properties":{"osm_id":"370189175","tag":{"amenity":"recycling","recycling:cardboard":"no","recycling:glass":"no","recycling:glass_bottles":"yes","recycling:paper":"no","recycling_type":"container"}},"type":"Feature"},
	{"geometry":{"coordinates":[6.695568,51.156159],"type":"Point"},"properties":{"osm_id":"384580544","tag":{"amenity":"recycling","recycling:glass":"yes","recycling:paper":"yes"}},"type":"Feature"},
	{"geometry":{"coordinates":[6.686012,51.173592],"type":"Point"},"properties":{"osm_id":"386161803","tag":{"amenity":"recycling","operator":"Deutsches Rotes Kreuz","recycling:glass_bottles":"yes","recycling:shoes":"yes","recycling_type":"container"}},"type":"Feature"},
	{"geometry":{"coordinates":[6.689758,51.16788],"type":"Point"},"properties":{"osm_id":"386161804","tag":{"amenity":"recycling","recycling:glass":"yes","recycling_type":"container"}},"type":"Feature"},
	{"geometry":{"coordinates":[6.742381,51.158272],"type":"Point"},"properties":{"osm_id":"434538011","tag":{"amenity":"recycling","recycling:glass":"yes","recycling_type":"container"}},"type":"Feature"},
	{"geometry":{"coordinates":[6.737896,51.178409],"type":"Point"},"properties":{"osm_id":"474977037","tag":{"amenity":"recycling","operator":"EGN","recycling:paper":"yes"}},"type":"Feature"},
	{"geometry":{"coordinates":[6.737639,51.161212],"type":"Point"},"properties":{"osm_id":"474977348","tag":{"amenity":"recycling","location":"overground","recycling:glass_bottles":"yes","recycling_type":"container"}},"type":"Feature"},
	{"geometry":{"coordinates":[6.734162,51.166761],"type":"Point"},"properties":{"osm_id":"474977609","tag":{"amenity":"recycling"}},"type":"Feature"},
	{"geometry":{"coordinates":[6.751031,51.139708],"type":"Point"},"properties":{"osm_id":"475693973","tag":{"amenity":"waste_basket"}},"type":"Feature"},
	{"geometry":{"coordinates":[6.735553,51.16251],"type":"Point"},"properties":{"osm_id":"496852592","tag":{"amenity":"recycling","location":"overground","recycling:paper":"yes","recycling_type":"container"}},"type":"Feature"},
	{"geometry":{"coordinates":[6.741436,51.13815],"type":"Point"},"properties":{"osm_id":"514375136","tag":{"amenity":"waste_basket"}},"type":"Feature"},
	{"geometry":{"coordinates":[6.750613,51.140168],"type":"Point"},"properties":{"osm_id":"526968175","tag":{"amenity":"waste_basket"}},"type":"Feature"},
	{"geometry":{"coordinates":[6.688827,51.164016],"type":"Point"},"properties":{"osm_id":"619319500","tag":{"amenity":"recycling","recycling:paper":"yes"}},"type":"Feature"},
	{"geometry":{"coordinates":[6.688781,51.163984],"type":"Point"},"properties":{"osm_id":"619319501","tag":{"amenity":"recycling","recycling:clothes":"yes"}},"type":"Feature"},
	{"geometry":{"coordinates":[6.734568,51.154787],"type":"Point"},"properties":{"osm_id":"630465503","tag":{"amenity":"recycling"}},"type":"Feature"},
	{"geometry":{"coordinates":[6.722011,51.169686],"type":"Point"},"properties":{"osm_id":"658439658","tag":{"amenity":"recycling","recycling:glass":"yes","recycling:paper":"yes"}},"type":"Feature"},
	{"geometry":{"coordinates":[6.681238,51.168444],"type":"Point"},"properties":{"osm_id":"763600435","tag":{"amenity":"recycling","recycling:glass":"yes"}},"type":"Feature"},
	{"geometry":{"coordinates":[6.683267,51.167101],"type":"Point"},"properties":{"osm_id":"763600468","tag":{"amenity":"recycling","recycling:glass":"yes","recycling:paper":"yes","recycling_type":"container"}},"type":"Feature"},
	{"geometry":{"coordinates":[6.713379,51.178359],"type":"Point"},"properties":{"osm_id":"839192006","tag":{"amenity":"recycling"}},"type":"Feature"},
	{"geometry":{"coordinates":[6.693678,51.160457],"type":"Point"},"properties":{"osm_id":"994840952","tag":{"amenity":"recycling","recycling_type":"container"}},"type":"Feature"},
	{"geometry":{"coordinates":[6.737874,51.178384],"type":"Point"},"properties":{"osm_id":"1013891760","tag":{"amenity":"recycling","operator":"Alba","recycling:glass":"yes"}},"type":"Feature"},
	{"geometry":{"coordinates":[6.745691,51.17185],"type":"Point"},"properties":{"osm_id":"1079673219","tag":{"amenity":"recycling"}},"type":"Feature"},
	{"geometry":{"coordinates":[6.747303,51.133461],"type":"Point"},"properties":{"osm_id":"1108812001","tag":{"amenity":"recycling","comment":"Nur noch Glascontainer, kein Papier mehr.","recycling:glass":"yes","recycling:paper":"no","recycling_type":"container"}},"type":"Feature"},
	{"geometry":{"coordinates":[6.724513,51.153467],"type":"Point"},"properties":{"osm_id":"1287699918","tag":{"amenity":"recycling","recycling:glass":"yes","recycling:paper":"yes"}},"type":"Feature"},
	{"geometry":{"coordinates":[6.732986,51.15943],"type":"Point"},"properties":{"osm_id":"1347290234","tag":{"amenity":"waste_basket"}},"type":"Feature"},
	{"geometry":{"coordinates":[6.732795,51.159538],"type":"Point"},"properties":{"osm_id":"1347290240","tag":{"amenity":"waste_basket"}},"type":"Feature"},
	{"geometry":{"coordinates":[6.732621,51.159645],"type":"Point"},"properties":{"osm_id":"1347290242","tag":{"amenity":"waste_basket"}},"type":"Feature"},
	{"geometry":{"coordinates":[6.732421,51.159765],"type":"Point"},"properties":{"osm_id":"1347290249","tag":{"amenity":"waste_basket"}},"type":"Feature"},
	{"geometry":{"coordinates":[6.73228,51.159851],"type":"Point"},"properties":{"osm_id":"1347290250","tag":{"amenity":"waste_basket"}},"type":"Feature"},
	{"geometry":{"coordinates":[6.732152,51.159929],"type":"Point"},"properties":{"osm_id":"1347290255","tag":{"amenity":"waste_basket"}},"type":"Feature"},
	{"geometry":{"coordinates":[6.731952,51.160048],"type":"Point"},"properties":{"osm_id":"1347290262","tag":{"amenity":"waste_basket"}},"type":"Feature"},
	{"geometry":{"coordinates":[6.731888,51.160093],"type":"Point"},"properties":{"osm_id":"1347290265","tag":{"amenity":"waste_basket"}},"type":"Feature"},
	{"geometry":{"coordinates":[6.731525,51.160308],"type":"Point"},"properties":{"osm_id":"1347290283","tag":{"amenity":"waste_basket"}},"type":"Feature"},
	{"geometry":{"coordinates":[6.73165,51.160469],"type":"Point"},"properties":{"osm_id":"1347290301","tag":{"amenity":"waste_basket"}},"type":"Feature"},
	{"geometry":{"coordinates":[6.731319,51.160664],"type":"Point"},"properties":{"osm_id":"1347290306","tag":{"amenity":"waste_basket"}},"type":"Feature"},
	{"geometry":{"coordinates":[6.731017,51.160852],"type":"Point"},"properties":{"man_made":"surveillance","osm_id":"1347290316","tag":{"amenity":"waste_basket","surveillance":"public"}},"type":"Feature"},
	{"geometry":{"coordinates":[6.740857,51.17745],"type":"Point"},"properties":{"osm_id":"1524584760","tag":{"amenity":"waste_basket"}},"type":"Feature"},
	{"geometry":{"coordinates":[6.686173,51.171832],"type":"Point"},"properties":{"osm_id":"1616755480","tag":{"amenity":"recycling","operator":"Malteser","recycling:clothes":"yes"}},"type":"Feature"},
	{"geometry":{"coordinates":[6.743444,51.177574],"type":"Point"},"properties":{"osm_id":"1711526357","tag":{"amenity":"recycling","recycling:glass":"yes","recycling:glass_bottles":"yes","recycling:paper":"yes","recycling_type":"container"}},"type":"Feature"},
	{"geometry":{"coordinates":[6.726785,51.154524],"type":"Point"},"properties":{"osm_id":"1716577740","tag":{"amenity":"recycling","recycling:glass":"yes","recycling:paper":"yes"}},"type":"Feature"},
	{"geometry":{"coordinates":[6.752121,51.141043],"type":"Point"},"properties":{"osm_id":"1724435555","tag":{"amenity":"waste_basket"}},"type":"Feature"},
	{"geometry":{"coordinates":[6.754217,51.14216],"type":"Point"},"properties":{"osm_id":"1724435566","tag":{"amenity":"waste_basket"}},"type":"Feature"},
	{"geometry":{"coordinates":[6.685983,51.168457],"type":"Point"},"properties":{"osm_id":"1801893427","tag":{"amenity":"recycling","recycling:shoes":"yes","recycling_type":"container"}},"type":"Feature"},
	{"geometry":{"coordinates":[6.686745,51.172324],"type":"Point"},"properties":{"osm_id":"1801894032","tag":{"amenity":"recycling","recycling:glass":"yes","recycling:glass_bottles":"yes","recycling:paper":"yes","recycling_type":"container"}},"type":"Feature"},
	{"geometry":{"coordinates":[6.687453,51.173927],"type":"Point"},"properties":{"osm_id":"1801894564","tag":{"amenity":"recycling","recycling:cardboard":"yes","recycling:glass":"yes","recycling:glass_bottles":"yes","recycling:paper":"yes","recycling_type":"container"}},"type":"Feature"},
	{"geometry":{"coordinates":[6.685428,51.174218],"type":"Point"},"properties":{"osm_id":"1820547332","tag":{"amenity":"recycling","operator":"Deutsches Rotes Kreuz","recycling:clothes":"yes"}},"type":"Feature"},
	{"geometry":{"coordinates":[6.697374,51.170207],"type":"Point"},"properties":{"osm_id":"1827629345","tag":{"amenity":"waste_basket"}},"type":"Feature"},
	{"geometry":{"coordinates":[6.696565,51.170968],"type":"Point"},"properties":{"osm_id":"1827629349","tag":{"amenity":"waste_basket"}},"type":"Feature"},
	{"geometry":{"coordinates":[6.686085,51.173757],"type":"Point"},"properties":{"osm_id":"1835805860","tag":{"amenity":"recycling","operator":"Deutsches Rotes Kreuz","recycling:clothes":"yes","recycling_type":"container"}},"type":"Feature"},
	{"geometry":{"coordinates":[6.687011,51.173501],"type":"Point"},"properties":{"osm_id":"1838608420","tag":{"amenity":"waste_basket"}},"type":"Feature"},
	{"geometry":{"coordinates":[6.684945,51.168623],"type":"Point"},"properties":{"osm_id":"1871419907","tag":{"amenity":"waste_basket"}},"type":"Feature"},
	{"geometry":{"coordinates":[6.685124,51.168868],"type":"Point"},"properties":{"osm_id":"1871419926","tag":{"amenity":"waste_basket"}},"type":"Feature"},
	{"geometry":{"coordinates":[6.685088,51.169214],"type":"Point"},"properties":{"osm_id":"1871419948","tag":{"amenity":"waste_basket"}},"type":"Feature"},
	{"geometry":{"coordinates":[6.687702,51.172179],"type":"Point"},"properties":{"osm_id":"1871420188","tag":{"amenity":"recycling","operator":"Malteser","recycling:clothes":"yes","recycling_type":"container"}},"type":"Feature"},
	{"geometry":{"coordinates":[6.682081,51.16629],"type":"Point"},"properties":{"osm_id":"1873423352","tag":{"amenity":"waste_basket"}},"type":"Feature"},
	{"geometry":{"coordinates":[6.680889,51.168007],"type":"Point"},"properties":{"osm_id":"1873423558","tag":{"amenity":"waste_basket"}},"type":"Feature"},
	{"geometry":{"coordinates":[6.684809,51.168143],"type":"Point"},"properties":{"osm_id":"1874939268","tag":{"amenity":"waste_basket"}},"type":"Feature"},
	{"geometry":{"coordinates":[6.685259,51.168181],"type":"Point"},"properties":{"osm_id":"1874939290","tag":{"amenity":"waste_basket"}},"type":"Feature"},
	{"geometry":{"coordinates":[6.68523,51.168008],"type":"Point"},"properties":{"osm_id":"1881065640","tag":{"amenity":"waste_basket"}},"type":"Feature"},
	{"geometry":{"coordinates":[6.688746,51.165906],"type":"Point"},"properties":{"osm_id":"1882600446","tag":{"amenity":"waste_basket"}},"type":"Feature"},
	{"geometry":{"coordinates":[6.685227,51.16621],"type":"Point"},"properties":{"osm_id":"1882600459","tag":{"amenity":"waste_basket"}},"type":"Feature"},
	{"geometry":{"coordinates":[6.684714,51.167184],"type":"Point"},"properties":{"osm_id":"1882600473","tag":{"amenity":"waste_basket"}},"type":"Feature"},
	{"geometry":{"coordinates":[6.688625,51.163891],"type":"Point"},"properties":{"osm_id":"1885960039","tag":{"amenity":"recycling","operator":"Malteser","recycling:clothes":"yes"}},"type":"Feature"},
	{"geometry":{"coordinates":[6.686565,51.172084],"type":"Point"},"properties":{"osm_id":"1915181386","tag":{"amenity":"waste_basket"}},"type":"Feature"},
	{"geometry":{"coordinates":[6.686681,51.172127],"type":"Point"},"properties":{"osm_id":"1915181388","tag":{"amenity":"waste_basket"}},"type":"Feature"},
	{"geometry":{"coordinates":[6.699389,51.170767],"type":"Point"},"properties":{"osm_id":"1929381054","tag":{"amenity":"waste_basket"}},"type":"Feature"},
	{"geometry":{"coordinates":[6.701959,51.173738],"type":"Point"},"properties":{"osm_id":"1929381129","tag":{"amenity":"waste_basket"}},"type":"Feature"},
	{"geometry":{"coordinates":[6.701644,51.175492],"type":"Point"},"properties":{"osm_id":"1930180138","tag":{"amenity":"recycling","recycling:glass":"yes","recycling_type":"container"}},"type":"Feature"},
	{"geometry":{"coordinates":[6.694219,51.172401],"type":"Point"},"properties":{"osm_id":"1930768560","tag":{"amenity":"waste_basket"}},"type":"Feature"},
	{"geometry":{"coordinates":[6.693397,51.172663],"type":"Point"},"properties":{"osm_id":"1930768694","tag":{"amenity":"waste_basket"}},"type":"Feature"},
	{"geometry":{"coordinates":[6.685076,51.167342],"type":"Point"},"properties":{"osm_id":"1937832082","tag":{"amenity":"waste_basket"}},"type":"Feature"},
	{"geometry":{"coordinates":[6.685179,51.167831],"type":"Point"},"properties":{"osm_id":"1937832108","tag":{"amenity":"waste_basket"}},"type":"Feature"},
	{"geometry":{"coordinates":[6.699143,51.170235],"type":"Point"},"properties":{"osm_id":"1946333176","tag":{"amenity":"waste_basket"}},"type":"Feature"},
	{"geometry":{"coordinates":[6.699973,51.170691],"type":"Point"},"properties":{"osm_id":"1946333207","tag":{"amenity":"waste_basket"}},"type":"Feature"},
	{"geometry":{"coordinates":[6.704333,51.171618],"type":"Point"},"properties":{"osm_id":"1946333387","tag":{"amenity":"recycling","recycling:glass":"yes","recycling:paper":"yes","recycling_type":"container"}},"type":"Feature"},
	{"geometry":{"coordinates":[6.704693,51.171976],"type":"Point"},"properties":{"osm_id":"1946333536","tag":{"amenity":"recycling","operator":"Malteser","recycling:clothes":"yes","recycling_type":"container"}},"type":"Feature"},
	{"geometry":{"coordinates":[6.705585,51.172312],"type":"Point"},"properties":{"osm_id":"1946333819","tag":{"amenity":"recycling","recycling:glass":"yes","recycling:paper":"yes","recycling_type":"container"}},"type":"Feature"},
	{"geometry":{"coordinates":[6.703861,51.173894],"type":"Point"},"properties":{"osm_id":"1948010568","tag":{"amenity":"waste_basket"}},"type":"Feature"},
	{"geometry":{"coordinates":[6.683236,51.165456],"type":"Point"},"properties":{"osm_id":"1949046818","tag":{"amenity":"recycling","recycling:glass":"yes","recycling:paper":"yes","recycling_type":"container"}},"type":"Feature"},
	{"geometry":{"coordinates":[6.70454,51.168118],"type":"Point"},"properties":{"osm_id":"1949603559","tag":{"amenity":"waste_basket"}},"type":"Feature"},
	{"geometry":{"coordinates":[6.705479,51.168655],"type":"Point"},"properties":{"osm_id":"1949603565","tag":{"amenity":"waste_basket"}},"type":"Feature"},
	{"geometry":{"coordinates":[6.705577,51.169483],"type":"Point"},"properties":{"osm_id":"1949603578","tag":{"amenity":"waste_basket"}},"type":"Feature"},
	{"geometry":{"coordinates":[6.702924,51.169652],"type":"Point"},"properties":{"osm_id":"1949603587","tag":{"amenity":"waste_basket"}},"type":"Feature"},
	{"geometry":{"coordinates":[6.70645,51.170301],"type":"Point"},"properties":{"osm_id":"1949603669","tag":{"amenity":"waste_basket"}},"type":"Feature"},
	{"geometry":{"coordinates":[6.707666,51.170452],"type":"Point"},"properties":{"osm_id":"1949603720","tag":{"amenity":"waste_basket"}},"type":"Feature"},
	{"geometry":{"coordinates":[6.71935,51.161095],"type":"Point"},"properties":{"osm_id":"1958952731","tag":{"amenity":"waste_basket"}},"type":"Feature"},
	{"geometry":{"coordinates":[6.718858,51.160333],"type":"Point"},"properties":{"osm_id":"1962699281","tag":{"amenity":"waste_basket"}},"type":"Feature"},
	{"geometry":{"coordinates":[6.719687,51.161133],"type":"Point"},"properties":{"osm_id":"1962699694","tag":{"amenity":"waste_basket"}},"type":"Feature"},
	{"geometry":{"coordinates":[6.721198,51.164782],"type":"Point"},"properties":{"osm_id":"1967296737","tag":{"amenity":"waste_basket"}},"type":"Feature"},
	{"geometry":{"coordinates":[6.718482,51.166975],"type":"Point"},"properties":{"osm_id":"1967296739","tag":{"amenity":"waste_basket"}},"type":"Feature"},
	{"geometry":{"coordinates":[6.719941,51.160229],"type":"Point"},"properties":{"osm_id":"1972385436","tag":{"amenity":"waste_basket"}},"type":"Feature"},
	{"geometry":{"coordinates":[6.721551,51.160288],"type":"Point"},"properties":{"osm_id":"1972385513","tag":{"amenity":"waste_basket"}},"type":"Feature"},
	{"geometry":{"coordinates":[6.719143,51.160714],"type":"Point"},"properties":{"osm_id":"1972385946","tag":{"amenity":"waste_basket"}},"type":"Feature"},
	{"geometry":{"coordinates":[6.71958,51.160789],"type":"Point"},"properties":{"osm_id":"1972386104","tag":{"amenity":"waste_basket"}},"type":"Feature"},
	{"geometry":{"coordinates":[6.722366,51.160947],"type":"Point"},"properties":{"osm_id":"1972386376","tag":{"amenity":"waste_basket"}},"type":"Feature"},
	{"geometry":{"coordinates":[6.721426,51.16272],"type":"Point"},"properties":{"osm_id":"1972386395","tag":{"amenity":"waste_basket"}},"type":"Feature"},
	{"geometry":{"coordinates":[6.686819,51.16459],"type":"Point"},"properties":{"osm_id":"2004988093","tag":{"amenity":"waste_basket"}},"type":"Feature"},
	{"geometry":{"coordinates":[6.687486,51.164904],"type":"Point"},"properties":{"osm_id":"2004988144","tag":{"amenity":"waste_basket"}},"type":"Feature"},
	{"geometry":{"coordinates":[6.687136,51.165008],"type":"Point"},"properties":{"osm_id":"2004988153","tag":{"amenity":"waste_basket"}},"type":"Feature"},
	{"geometry":{"coordinates":[6.715715,51.174844],"type":"Point"},"properties":{"osm_id":"2036415027","tag":{"amenity":"waste_basket"}},"type":"Feature"},
	{"geometry":{"coordinates":[6.713314,51.17099],"type":"Point"},"properties":{"osm_id":"2375236170","tag":{"amenity":"waste_basket"}},"type":"Feature"},
	{"geometry":{"coordinates":[6.715922,51.171922],"type":"Point"},"properties":{"osm_id":"2375236186","tag":{"amenity":"waste_basket"}},"type":"Feature"},
	{"geometry":{"coordinates":[6.750383,51.140373],"type":"Point"},"properties":{"osm_id":"2413267626","tag":{"amenity":"waste_basket"}},"type":"Feature"},
	{"geometry":{"coordinates":[6.680182,51.177476],"type":"Point"},"properties":{"osm_id":"2510682688","tag":{"amenity":"waste_basket"}},"type":"Feature"},
	{"geometry":{"coordinates":[6.680883,51.177677],"type":"Point"},"properties":{"osm_id":"2510682689","tag":{"amenity":"waste_basket"}},"type":"Feature"},
	{"geometry":{"coordinates":[6.731217,51.152359],"type":"Point"},"properties":{"osm_id":"2532720807","tag":{"amenity":"waste_basket"}},"type":"Feature"},
	{"geometry":{"coordinates":[6.731114,51.15255],"type":"Point"},"properties":{"osm_id":"2532720830","tag":{"amenity":"waste_basket"}},"type":"Feature"},
	{"geometry":{"coordinates":[6.733723,51.151833],"type":"Point"},"properties":{"osm_id":"2542067421","tag":{"amenity":"waste_basket"}},"type":"Feature"},
	{"geometry":{"coordinates":[6.732841,51.151872],"type":"Point"},"properties":{"osm_id":"2542067500","tag":{"amenity":"waste_basket"}},"type":"Feature"},
	{"geometry":{"coordinates":[6.733822,51.151942],"type":"Point"},"properties":{"osm_id":"2542067544","tag":{"amenity":"waste_basket"}},"type":"Feature"},
	{"geometry":{"coordinates":[6.734164,51.151771],"type":"Point"},"properties":{"osm_id":"2542988090","tag":{"amenity":"waste_basket"}},"type":"Feature"},
	{"geometry":{"coordinates":[6.731001,51.153015],"type":"Point"},"properties":{"osm_id":"2543506579","tag":{"amenity":"recycling","recycling:glass":"yes","recycling:paper":"yes","recycling_type":"container"}},"type":"Feature"},
	{"geometry":{"coordinates":[6.743818,51.15978],"type":"Point"},"properties":{"osm_id":"2543675675","tag":{"amenity":"recycling","recycling:glass":"yes","recycling:paper":"yes","recycling_type":"container"}},"type":"Feature"},
	{"geometry":{"coordinates":[6.735117,51.151562],"type":"Point"},"properties":{"osm_id":"2560351297","tag":{"amenity":"waste_basket"}},"type":"Feature"},
	{"geometry":{"coordinates":[6.735612,51.151624],"type":"Point"},"properties":{"osm_id":"2560351322","tag":{"amenity":"waste_basket"}},"type":"Feature"},
	{"geometry":{"coordinates":[6.732917,51.151949],"type":"Point"},"properties":{"osm_id":"2560351470","tag":{"amenity":"waste_basket"}},"type":"Feature"},
	{"geometry":{"coordinates":[6.73584,51.151959],"type":"Point"},"properties":{"osm_id":"2560351474","tag":{"amenity":"waste_basket"}},"type":"Feature"},
	{"geometry":{"coordinates":[6.735918,51.152036],"type":"Point"},"properties":{"osm_id":"2560351477","tag":{"amenity":"waste_basket"}},"type":"Feature"},
	{"geometry":{"coordinates":[6.735749,51.152141],"type":"Point"},"properties":{"osm_id":"2560351485","tag":{"amenity":"waste_basket"}},"type":"Feature"},
	{"geometry":{"coordinates":[6.745912,51.141059],"type":"Point"},"properties":{"osm_id":"2808086848","tag":{"amenity":"waste_basket"}},"type":"Feature"},
	{"geometry":{"coordinates":[6.745597,51.141205],"type":"Point"},"properties":{"osm_id":"2808086853","tag":{"amenity":"waste_basket"}},"type":"Feature"},
	{"geometry":{"coordinates":[6.749264,51.139797],"type":"Point"},"properties":{"osm_id":"2811520096","tag":{"amenity":"waste_basket"}},"type":"Feature"},
	{"geometry":{"coordinates":[6.727029,51.125021],"type":"Point"},"properties":{"osm_id":"3111443897","tag":{"amenity":"recycling","recycling:clothes":"yes"}},"type":"Feature"},
	{"geometry":{"coordinates":[6.699798,51.169509],"type":"Point"},"properties":{"osm_id":"3126367539","tag":{"amenity":"waste_basket"}},"type":"Feature"},
	{"geometry":{"coordinates":[6.679916,51.125517],"type":"Point"},"properties":{"osm_id":"3351961855","tag":{"amenity":"waste_basket"}},"type":"Feature"},
	{"geometry":{"coordinates":[6.750508,51.139467],"type":"Point"},"properties":{"osm_id":"3636578080","tag":{"amenity":"waste_basket"}},"type":"Feature"},
	{"geometry":{"coordinates":[6.752468,51.140058],"type":"Point"},"properties":{"osm_id":"3636579901","tag":{"amenity":"waste_basket"}},"type":"Feature"},
	{"geometry":{"coordinates":[6.752933,51.140301],"type":"Point"},"properties":{"osm_id":"3636579926","tag":{"amenity":"waste_basket"}},"type":"Feature"},
	{"geometry":{"coordinates":[6.711435,51.126374],"type":"Point"},"properties":{"osm_id":"3639226477","tag":{"amenity":"waste_basket"}},"type":"Feature"},
	{"geometry":{"coordinates":[6.748506,51.142385],"type":"Point"},"properties":{"osm_id":"3655512364","tag":{"amenity":"waste_basket"}},"type":"Feature"},
	{"geometry":{"coordinates":[6.756487,51.14492],"type":"Point"},"properties":{"osm_id":"3667066341","tag":{"amenity":"recycling","recycling:cardboard":"no","recycling:clothes":"yes","recycling:glass_bottles":"yes","recycling:paper":"no","recycling:shoes":"yes","recycling_type":"container","wheelchair":"yes"}},"type":"Feature"},
	{"geometry":{"coordinates":[6.747884,51.144938],"type":"Point"},"properties":{"osm_id":"3887426078","tag":{"amenity":"waste_basket"}},"type":"Feature"},
	{"geometry":{"coordinates":[6.751068,51.147061],"type":"Point"},"properties":{"osm_id":"3887426081","tag":{"amenity":"waste_basket"}},"type":"Feature"},
	{"geometry":{"coordinates":[6.751741,51.14844],"type":"Point"},"properties":{"osm_id":"3887426088","tag":{"amenity":"waste_basket"}},"type":"Feature"},
	{"geometry":{"coordinates":[6.750658,51.140769],"type":"Point"},"properties":{"osm_id":"4036150453","tag":{"amenity":"waste_basket"}},"type":"Feature"},
	{"geometry":{"coordinates":[6.750206,51.141179],"type":"Point"},"properties":{"osm_id":"4036150458","tag":{"amenity":"waste_basket"}},"type":"Feature"},
	{"geometry":{"coordinates":[6.752466,51.141324],"type":"Point"},"properties":{"osm_id":"4036150459","tag":{"amenity":"waste_basket"}},"type":"Feature"},
	{"geometry":{"coordinates":[6.701941,51.170608],"type":"Point"},"properties":{"osm_id":"4266194713","tag":{"amenity":"waste_basket"}},"type":"Feature"},
	{"geometry":{"coordinates":[6.702378,51.170942],"type":"Point"},"properties":{"osm_id":"4266194714","tag":{"amenity":"waste_basket"}},"type":"Feature"},
	{"geometry":{"coordinates":[6.745983,51.175149],"type":"Point"},"properties":{"osm_id":"5062836950","tag":{"amenity":"recycling","recycling:glass_bottles":"yes","recycling_type":"container"}},"type":"Feature"},
	{"geometry":{"coordinates":[6.741322,51.177388],"type":"Point"},"properties":{"osm_id":"5473143927","tag":{"amenity":"waste_basket"}},"type":"Feature"},
	{"geometry":{"coordinates":[6.741108,51.177186],"type":"Point"},"properties":{"osm_id":"5473143928","tag":{"amenity":"waste_basket"}},"type":"Feature"},
	{"geometry":{"coordinates":[6.741218,51.177139],"type":"Point"},"properties":{"osm_id":"5473143929","tag":{"amenity":"waste_basket"}},"type":"Feature"},
	{"geometry":{"coordinates":[6.740978,51.17714],"type":"Point"},"properties":{"osm_id":"5473143930","tag":{"amenity":"waste_basket"}},"type":"Feature"},
	{"geometry":{"coordinates":[6.740888,51.177292],"type":"Point"},"properties":{"osm_id":"5473143933","tag":{"amenity":"waste_basket"}},"type":"Feature"},
	{"geometry":{"coordinates":[6.750515,51.177321],"type":"Point"},"properties":{"osm_id":"5841652491","tag":{"amenity":"recycling","recycling:glass":"no","recycling:glass_bottles":"yes","recycling_type":"container"}},"type":"Feature"},
	{"geometry":{"coordinates":[6.750509,51.177281],"type":"Point"},"properties":{"osm_id":"5841652492","tag":{"amenity":"recycling","operator":"Abfall- und Wertstofflogistik Neuss GmbH (AWL)","recycling:clothes":"yes","recycling:shoes":"yes","recycling_type":"container"}},"type":"Feature"},
	{"geometry":{"coordinates":[6.758305,51.138921],"type":"Point"},"properties":{"osm_id":"6357064860","tag":{"amenity":"waste_basket"}},"type":"Feature"},
	{"geometry":{"coordinates":[6.759115,51.13929],"type":"Point"},"properties":{"osm_id":"6357064870","tag":{"amenity":"waste_basket"}},"type":"Feature"},
	{"geometry":{"coordinates":[6.759692,51.138943],"type":"Point"},"properties":{"osm_id":"6357064877","tag":{"amenity":"waste_basket"}},"type":"Feature"},
	{"geometry":{"coordinates":[6.759725,51.138717],"type":"Point"},"properties":{"osm_id":"6357064882","tag":{"amenity":"waste_basket"}},"type":"Feature"},
	{"geometry":{"coordinates":[6.759315,51.138381],"type":"Point"},"properties":{"osm_id":"6357064884","tag":{"amenity":"waste_basket"}},"type":"Feature"},
	{"geometry":{"coordinates":[6.758763,51.138087],"type":"Point"},"properties":{"osm_id":"6357064985","tag":{"amenity":"waste_basket"}},"type":"Feature"},
	{"geometry":{"coordinates":[6.751836,51.143014],"type":"Point"},"properties":{"osm_id":"6357159889","tag":{"amenity":"waste_basket"}},"type":"Feature"},
	{"geometry":{"coordinates":[6.748825,51.140554],"type":"Point"},"properties":{"osm_id":"6418373585","tag":{"amenity":"waste_basket","waste":"trash"}},"type":"Feature"},
	{"geometry":{"coordinates":[6.748643,51.140488],"type":"Point"},"properties":{"osm_id":"6418373586","tag":{"amenity":"waste_basket","waste":"trash"}},"type":"Feature"},
	{"geometry":{"coordinates":[6.708551,51.135649],"type":"Point"},"properties":{"osm_id":"6561580446","tag":{"amenity":"waste_basket"}},"type":"Feature"},
	{"geometry":{"coordinates":[6.714741,51.145636],"type":"Point"},"properties":{"osm_id":"6609222541","tag":{"amenity":"recycling","recycling:glass":"yes","recycling_type":"container"}},"type":"Feature"},
	{"geometry":{"coordinates":[6.742302,51.175113],"type":"Point"},"properties":{"osm_id":"7009265209","tag":{"amenity":"waste_basket","waste":"trash"}},"type":"Feature"},
	{"geometry":{"coordinates":[6.73976,51.175324],"type":"Point"},"properties":{"osm_id":"7149680463","tag":{"amenity":"recycling","recycling:gas_bottles":"yes","recycling_type":"container"}},"type":"Feature"},
	{"geometry":{"coordinates":[6.739703,51.175331],"type":"Point"},"properties":{"osm_id":"7149680464","tag":{"amenity":"recycling","recycling:paper":"yes","recycling_type":"container"}},"type":"Feature"},
	{"geometry":{"coordinates":[6.752354,51.144774],"type":"Point"},"properties":{"osm_id":"7160923010","tag":{"amenity":"waste_basket"}},"type":"Feature"},
	{"geometry":{"coordinates":[6.728594,51.16265],"type":"Point"},"properties":{"osm_id":"7195806782","tag":{"amenity":"waste_basket"}},"type":"Feature"},
	{"geometry":{"coordinates":[6.728932,51.162928],"type":"Point"},"properties":{"osm_id":"7195806783","tag":{"amenity":"waste_basket"}},"type":"Feature"},
	{"geometry":{"coordinates":[6.754205,51.139468],"type":"Point"},"properties":{"osm_id":"7546047708","tag":{"amenity":"recycling","recycling:glass_bottles":"yes","recycling:paper":"yes","recycling_type":"container"}},"type":"Feature"},
	{"geometry":{"coordinates":[6.702077,51.168869],"type":"Point"},"properties":{"osm_id":"7575445501","tag":{"amenity":"waste_basket"}},"type":"Feature"},
	{"geometry":{"coordinates":[6.74538,51.135786],"type":"Point"},"properties":{"osm_id":"7598293729","tag":{"amenity":"recycling","operator":"Deutsches Rotes Kreuz","recycling:clothes":"yes","recycling_type":"container"}},"type":"Feature"},
	{"geometry":{"coordinates":[6.736632,51.12849],"type":"Point"},"properties":{"osm_id":"7638492220","tag":{"amenity":"recycling","operator":"Deutsches Rotes Kreuz","recycling:clothes":"yes","recycling_type":"container"}},"type":"Feature"},
	{"geometry":{"coordinates":[6.73479,51.158981],"type":"Point"},"properties":{"osm_id":"7661412416","tag":{"amenity":"recycling","recycling:glass":"yes","recycling:paper":"yes","recycling_type":"container"}},"type":"Feature"},
	{"geometry":{"coordinates":[6.749211,51.140067],"type":"Point"},"properties":{"osm_id":"7746251153","tag":{"amenity":"recycling","recycling:paper":"yes","recycling_type":"container"}},"type":"Feature"},
	{"geometry":{"coordinates":[6.741835,51.140664],"type":"Point"},"properties":{"osm_id":"7778055992","tag":{"amenity":"recycling","recycling:clothes":"yes","recycling:shoes":"yes","recycling_type":"container"}},"type":"Feature"},
	{"geometry":{"coordinates":[6.759113,51.141903],"type":"Point"},"properties":{"osm_id":"7857225041","tag":{"amenity":"recycling","recycling:glass_bottles":"yes","recycling:paper":"yes","recycling_type":"container"}},"type":"Feature"},
	{"geometry":{"coordinates":[6.753196,51.140801],"type":"Point"},"properties":{"osm_id":"7869463093","tag":{"amenity":"waste_basket"}},"type":"Feature"},
	{"geometry":{"coordinates":[6.754272,51.140012],"type":"Point"},"properties":{"osm_id":"7869463096","tag":{"amenity":"waste_basket"}},"type":"Feature"},
	{"geometry":{"coordinates":[6.756354,51.140934],"type":"Point"},"properties":{"osm_id":"7881492152","tag":{"amenity":"waste_basket"}},"type":"Feature"},
	{"geometry":{"coordinates":[6.756283,51.14095],"type":"Point"},"properties":{"osm_id":"7881492153","tag":{"amenity":"waste_basket"}},"type":"Feature"},
	{"geometry":{"coordinates":[6.698625,51.156353],"type":"Point"},"properties":{"osm_id":"7948824514","tag":{"amenity":"recycling","recycling:glass":"no","recycling:glass_bottles":"yes","recycling_type":"container"}},"type":"Feature"}
]
}
