{
"type": "FeatureCollection",
"features": [
	{"geometry":{"coordinates":[6.765951,51.091847],"type":"Point"},"properties":{"osm_id":"298251773","tag":{"amenity":"recycling","recycling:clothes":"yes","recycling:glass_bottles":"yes","recycling_type":"container"}},"type":"Feature"},
	{"geometry":{"coordinates":[6.751417,51.10735],"type":"Point"},"properties":{"osm_id":"299721579","tag":{"amenity":"recycling","recycling:clothes":"yes"}},"type":"Feature"},
	{"geometry":{"coordinates":[6.763725,51.110333],"type":"Point"},"properties":{"osm_id":"300572229","tag":{"amenity":"recycling","recycling:clothes":"yes","recycling:glass_bottles":"yes"}},"type":"Feature"},
	{"geometry":{"coordinates":[6.763373,51.113938],"type":"Point"},"properties":{"osm_id":"300605399","tag":{"amenity":"recycling","recycling:clothes":"yes","recycling:glass_bottles":"yes"}},"type":"Feature"},
	{"geometry":{"coordinates":[6.758562,51.093897],"type":"Point"},"properties":{"osm_id":"305463278","tag":{"amenity":"recycling","recycling:clothes":"yes","recycling:glass_bottles":"yes"}},"type":"Feature"},
	{"geometry":{"coordinates":[6.690981,51.090709],"type":"Point"},"properties":{"osm_id":"362484628","tag":{"amenity":"recycling","recycling:glass":"yes","recycling:glass_bottles":"yes","recycling_type":"container"}},"type":"Feature"},
	{"geometry":{"coordinates":[6.695358,51.06989],"type":"Point"},"properties":{"osm_id":"362533426","tag":{"amenity":"recycling","recycling:clothes":"yes","recycling:glass":"yes"}},"type":"Feature"},
	{"geometry":{"coordinates":[6.748659,51.11024],"type":"Point"},"properties":{"osm_id":"375858582","tag":{"amenity":"recycling","recycling:clothes":"yes","recycling:glass":"yes"}},"type":"Feature"},
	{"geometry":{"coordinates":[6.718216,51.103734],"type":"Point"},"properties":{"osm_id":"443372014","tag":{"amenity":"recycling","recycling:glass":"yes"}},"type":"Feature"},
	{"geometry":{"coordinates":[6.721536,51.094475],"type":"Point"},"properties":{"osm_id":"443372039","tag":{"amenity":"recycling","recycling:glass":"yes"}},"type":"Feature"},
	{"geometry":{"coordinates":[6.720948,51.104134],"type":"Point"},"properties":{"osm_id":"571482733","tag":{"amenity":"recycling"}},"type":"Feature"},
	{"geometry":{"coordinates":[6.718154,51.103733],"type":"Point"},"properties":{"osm_id":"1314208427","tag":{"amenity":"recycling","recycling:clothes":"yes"}},"type":"Feature"},
	{"geometry":{"coordinates":[6.736518,51.122758],"type":"Point"},"properties":{"osm_id":"2362924913","tag":{"amenity":"waste_basket"}},"type":"Feature"},
	{"geometry":{"coordinates":[6.736303,51.122867],"type":"Point"},"properties":{"osm_id":"2362924918","tag":{"amenity":"waste_basket"}},"type":"Feature"},
	{"geometry":{"coordinates":[6.750939,51.076733],"type":"Point"},"properties":{"osm_id":"3057898417","tag":{"amenity":"waste_basket"}},"type":"Feature"},
	{"geometry":{"coordinates":[6.750557,51.076738],"type":"Point"},"properties":{"osm_id":"3057898418","tag":{"amenity":"waste_basket"}},"type":"Feature"},
	{"geometry":{"coordinates":[6.75085,51.076792],"type":"Point"},"properties":{"osm_id":"3057898424","tag":{"amenity":"waste_basket"}},"type":"Feature"},
	{"geometry":{"coordinates":[6.750587,51.076955],"type":"Point"},"properties":{"osm_id":"3057898429","tag":{"amenity":"waste_basket"}},"type":"Feature"},
	{"geometry":{"coordinates":[6.750768,51.076971],"type":"Point"},"properties":{"osm_id":"3057898431","tag":{"amenity":"waste_basket"}},"type":"Feature"},
	{"geometry":{"coordinates":[6.726451,51.123463],"type":"Point"},"properties":{"osm_id":"3111454123","tag":{"amenity":"recycling","recycling:clothes":"yes","recycling:glass":"yes","recycling:paper":"yes"}},"type":"Feature"},
	{"geometry":{"coordinates":[6.680735,51.115497],"type":"Point"},"properties":{"osm_id":"3465753721","tag":{"amenity":"waste_basket"}},"type":"Feature"},
	{"geometry":{"coordinates":[6.684214,51.121439],"type":"Point"},"properties":{"osm_id":"3594808639","tag":{"amenity":"waste_basket"}},"type":"Feature"},
	{"geometry":{"coordinates":[6.688402,51.095122],"type":"Point"},"properties":{"osm_id":"3637021082","tag":{"amenity":"waste_basket"}},"type":"Feature"},
	{"geometry":{"coordinates":[6.686385,51.09629],"type":"Point"},"properties":{"osm_id":"3637021084","tag":{"amenity":"waste_basket"}},"type":"Feature"},
	{"geometry":{"coordinates":[6.688256,51.121431],"type":"Point"},"properties":{"osm_id":"3639417550","tag":{"amenity":"waste_basket"}},"type":"Feature"},
	{"geometry":{"coordinates":[6.683643,51.121567],"type":"Point"},"properties":{"osm_id":"3651239463","tag":{"amenity":"waste_basket"}},"type":"Feature"},
	{"geometry":{"coordinates":[6.681272,51.097931],"type":"Point"},"properties":{"osm_id":"3757606508","tag":{"amenity":"waste_basket"}},"type":"Feature"},
	{"geometry":{"coordinates":[6.765953,51.09183],"type":"Point"},"properties":{"osm_id":"4880530447","tag":{"amenity":"waste_basket"}},"type":"Feature"},
	{"geometry":{"coordinates":[6.757343,51.094996],"type":"Point"},"properties":{"osm_id":"5637940094","tag":{"amenity":"waste_basket","waste":"dog_excrement"}},"type":"Feature"},
	{"geometry":{"coordinates":[6.757366,51.095008],"type":"Point"},"properties":{"osm_id":"5637940096","tag":{"amenity":"waste_basket"}},"type":"Feature"},
	{"geometry":{"coordinates":[6.758547,51.093882],"type":"Point"},"properties":{"osm_id":"5637940097","tag":{"amenity":"recycling","operator":"cbf Dormagen e. V.","recycling:clothes":"yes","recycling:shoes":"yes","recycling_type":"container"}},"type":"Feature"},
	{"geometry":{"coordinates":[6.694366,51.071566],"type":"Point"},"properties":{"osm_id":"5922811297","tag":{"amenity":"recycling","contact:email":"info@fws.de","contact:phone":"+49421346250","contact:website":"http://www.fws.de/","operator":"FWS GmbH","recycling:clothes":"yes","recycling:shoes":"yes","recycling_type":"container"}},"type":"Feature"}
]
}
