{
"type": "FeatureCollection",
"features": [
	{"geometry":{"coordinates":[6.680812,51.017568],"type":"Point"},"properties":{"osm_id":"361167003","tag":{"amenity":"recycling","recycling:clothes":"yes","recycling:shoes":"yes","recycling_type":"container"}},"type":"Feature"},
	{"geometry":{"coordinates":[6.682139,51.033801],"type":"Point"},"properties":{"osm_id":"370815373","tag":{"amenity":"recycling","check_date:recycling":"2021-06-25","operator":"FWS","recycling:clothes":"yes","recycling_type":"container"}},"type":"Feature"},
	{"geometry":{"coordinates":[6.680626,51.029575],"type":"Point"},"properties":{"osm_id":"370815416","tag":{"amenity":"recycling","location":"overground","recycling:glass":"no","recycling:glass_bottles":"yes","recycling_type":"container"}},"type":"Feature"},
	{"geometry":{"coordinates":[6.708661,51.054507],"type":"Point"},"properties":{"osm_id":"372795067","tag":{"amenity":"recycling","location":"overground","recycling:clothes":"yes","recycling:glass_bottles":"yes","recycling_type":"container"}},"type":"Feature"},
	{"geometry":{"coordinates":[6.717498,51.061098],"type":"Point"},"properties":{"osm_id":"372795296","tag":{"amenity":"recycling","recycling:glass":"yes"}},"type":"Feature"},
	{"geometry":{"coordinates":[6.708805,51.048884],"type":"Point"},"properties":{"osm_id":"372795929","tag":{"amenity":"recycling","colour":"blue","material":"metal","operator":"FWS GmbH","recycling:clothes":"yes","recycling_type":"container"}},"type":"Feature"},
	{"geometry":{"coordinates":[6.750679,51.023762],"type":"Point"},"properties":{"osm_id":"395818619","tag":{"amenity":"recycling","recycling:glass_bottles":"yes","recycling_type":"container"}},"type":"Feature"},
	{"geometry":{"coordinates":[6.758742,51.025912],"type":"Point"},"properties":{"osm_id":"395818690","tag":{"amenity":"recycling","recycling:glass_bottles":"yes","recycling_type":"container"}},"type":"Feature"},
	{"geometry":{"coordinates":[6.762471,51.017033],"type":"Point"},"properties":{"osm_id":"395819023","tag":{"amenity":"recycling","location":"overground","recycling:glass_bottles":"yes","recycling_type":"container"}},"type":"Feature"},
	{"geometry":{"coordinates":[6.697565,51.032437],"type":"Point"},"properties":{"osm_id":"412209818","tag":{"amenity":"recycling","recycling:clothes":"yes","recycling:glass_bottles":"yes","recycling_type":"container"}},"type":"Feature"},
	{"geometry":{"coordinates":[6.685584,51.030614],"type":"Point"},"properties":{"osm_id":"412449158","tag":{"amenity":"recycling","recycling:clothes":"yes"}},"type":"Feature"},
	{"geometry":{"coordinates":[6.750839,51.017054],"type":"Point"},"properties":{"osm_id":"412461797","tag":{"amenity":"recycling","location":"overground","recycling:glass":"yes","recycling_type":"container"}},"type":"Feature"},
	{"geometry":{"coordinates":[6.755092,51.018364],"type":"Point"},"properties":{"osm_id":"412461859","tag":{"amenity":"recycling","recycling:glass_bottles":"yes","recycling_type":"container"}},"type":"Feature"},
	{"geometry":{"coordinates":[6.684883,51.038841],"type":"Point"},"properties":{"osm_id":"3801928832","tag":{"amenity":"waste_basket"}},"type":"Feature"},
	{"geometry":{"coordinates":[6.756092,51.03015],"type":"Point"},"properties":{"osm_id":"4532912430","tag":{"amenity":"waste_basket"}},"type":"Feature"},
	{"geometry":{"coordinates":[6.701183,51.039446],"type":"Point"},"properties":{"osm_id":"5252529755","tag":{"amenity":"waste_basket","ashtray":"yes","check_date":"2017-11-28"}},"type":"Feature"},
	{"geometry":{"coordinates":[6.713432,51.049707],"type":"Point"},"properties":{"osm_id":"5995578190","tag":{"amenity":"recycling","contact:email":"info@fws.de","contact:phone":"+49421346250","contact:website":"http://www.fws.de/","operator":"FWS GmbH","recycling:clothes":"yes","recycling:shoes":"yes","recycling_type":"container"}},"type":"Feature"},
	{"geometry":{"coordinates":[6.764558,51.027783],"type":"Point"},"properties":{"osm_id":"7340671706","tag":{"amenity":"recycling","location":"overground","recycling:glass_bottles":"yes","recycling_type":"container"}},"type":"Feature"},
	{"geometry":{"coordinates":[6.760158,51.030394],"type":"Point"},"properties":{"osm_id":"8138513726","tag":{"amenity":"recycling","recycling:glass_bottles":"yes","recycling_type":"container"}},"type":"Feature"},
	{"geometry":{"coordinates":[6.760145,51.030434],"type":"Point"},"properties":{"osm_id":"8587119023","tag":{"amenity":"recycling","recycling:clothes":"yes","recycling:shoes":"yes","recycling_type":"container"}},"type":"Feature"},
	{"geometry":{"coordinates":[6.76457,51.027803],"type":"Point"},"properties":{"osm_id":"8587119025","tag":{"amenity":"recycling","location":"overground","operator":"Malteser","recycling:clothes":"yes","recycling:shoes":"yes","recycling_type":"container"}},"type":"Feature"},
	{"geometry":{"coordinates":[6.750684,51.023787],"type":"Point"},"properties":{"osm_id":"8587119035","tag":{"amenity":"recycling","recycling:clothes":"yes","recycling:shoes":"yes","recycling_type":"container"}},"type":"Feature"},
	{"geometry":{"coordinates":[6.758784,51.025893],"type":"Point"},"properties":{"osm_id":"8846596324","tag":{"amenity":"recycling","recycling:clothes":"yes","recycling_type":"container"}},"type":"Feature"},
	{"geometry":{"coordinates":[6.680835,51.017572],"type":"Point"},"properties":{"osm_id":"8847603874","tag":{"amenity":"recycling","recycling:glass_bottles":"yes","recycling_type":"container"}},"type":"Feature"},
	{"geometry":{"coordinates":[6.690272,51.037341],"type":"Point"},"properties":{"osm_id":"8869450800","tag":{"amenity":"waste_basket","material":"metal","waste":"trash"}},"type":"Feature"},
	{"geometry":{"coordinates":[6.681815,51.029291],"type":"Point"},"properties":{"osm_id":"8904920911","tag":{"access":"customers","amenity":"waste_disposal","waste":"trash"}},"type":"Feature"},
	{"geometry":{"coordinates":[6.683068,51.029875],"type":"Point"},"properties":{"osm_id":"8904923863","tag":{"access":"customers","amenity":"waste_disposal","waste":"trash"}},"type":"Feature"},
	{"geometry":{"coordinates":[6.694696,51.039338],"type":"Point"},"properties":{"osm_id":"8926881417","tag":{"amenity":"waste_basket","waste":"trash"}},"type":"Feature"},
	{"geometry":{"coordinates":[6.691938,51.03769],"type":"Point"},"properties":{"osm_id":"8926881421","tag":{"amenity":"waste_basket","waste":"trash"}},"type":"Feature"},
	{"geometry":{"coordinates":[6.696517,51.032065],"type":"Point"},"properties":{"osm_id":"8928958915","tag":{"amenity":"recycling","recycling:clothes":"yes","recycling_type":"container"}},"type":"Feature"},
	{"geometry":{"coordinates":[6.689539,51.04052],"type":"Point"},"properties":{"osm_id":"8939623456","tag":{"amenity":"waste_basket","colour":"black","material":"metal","waste":"trash"}},"type":"Feature"},
	{"geometry":{"coordinates":[6.765339,51.018143],"type":"Point"},"properties":{"osm_id":"8967844255","tag":{"amenity":"waste_basket"}},"type":"Feature"},
	{"geometry":{"coordinates":[6.765967,51.020368],"type":"Point"},"properties":{"osm_id":"8967844256","tag":{"amenity":"waste_basket"}},"type":"Feature"},
	{"geometry":{"coordinates":[6.76743,51.01948],"type":"Point"},"properties":{"osm_id":"8967844263","tag":{"amenity":"waste_basket"}},"type":"Feature"},
	{"geometry":{"coordinates":[6.705733,51.056022],"type":"Point"},"properties":{"osm_id":"9026028680","tag":{"amenity":"waste_basket","waste":"trash"}},"type":"Feature"},
	{"geometry":{"coordinates":[6.707788,51.055648],"type":"Point"},"properties":{"osm_id":"9026028681","tag":{"amenity":"waste_basket","waste":"trash"}},"type":"Feature"},
	{"geometry":{"coordinates":[6.709253,51.055134],"type":"Point"},"properties":{"osm_id":"9026028682","tag":{"amenity":"waste_basket"}},"type":"Feature"},
	{"geometry":{"coordinates":[6.706267,51.05584],"type":"Point"},"properties":{"osm_id":"9026734890","tag":{"amenity":"waste_basket"}},"type":"Feature"}
]
}
