{
"type": "FeatureCollection",
"features": [
	{"geometry":{"coordinates":[6.766118,50.955849],"type":"Point"},"properties":{"osm_id":"271147136","tag":{"amenity":"recycling","recycling:glass_bottles":"yes","recycling:paper":"yes","recycling_type":"container"}},"type":"Feature"},
	{"geometry":{"coordinates":[6.696668,50.936473],"type":"Point"},"properties":{"osm_id":"1255217045","tag":{"amenity":"recycling","recycling:glass":"yes","recycling_type":"container"}},"type":"Feature"},
	{"geometry":{"coordinates":[6.681912,50.941535],"type":"Point"},"properties":{"osm_id":"1338770984","tag":{"amenity":"recycling","location":"overground","recycling:clothes":"yes","recycling:glass":"yes","recycling_type":"container"}},"type":"Feature"},
	{"geometry":{"coordinates":[6.717721,50.917041],"type":"Point"},"properties":{"osm_id":"1338771004","tag":{"amenity":"recycling","recycling:glass":"yes"}},"type":"Feature"},
	{"geometry":{"coordinates":[6.684724,50.937805],"type":"Point"},"properties":{"osm_id":"1339396023","tag":{"amenity":"recycling","recycling:clothes":"yes"}},"type":"Feature"},
	{"geometry":{"coordinates":[6.700595,50.933537],"type":"Point"},"properties":{"osm_id":"1339396045","tag":{"amenity":"recycling","recycling:clothes":"yes","recycling_type":"container"}},"type":"Feature"},
	{"geometry":{"coordinates":[6.691483,50.938512],"type":"Point"},"properties":{"osm_id":"1339396053","tag":{"amenity":"recycling","recycling:clothes":"yes","recycling:glass":"yes","recycling_type":"container"}},"type":"Feature"},
	{"geometry":{"coordinates":[6.685152,50.936097],"type":"Point"},"properties":{"osm_id":"1379097675","tag":{"amenity":"recycling","recycling:clothes":"yes"}},"type":"Feature"},
	{"geometry":{"coordinates":[6.691667,50.908296],"type":"Point"},"properties":{"osm_id":"3773229835","tag":{"amenity":"waste_basket"}},"type":"Feature"},
	{"geometry":{"coordinates":[6.69181,50.908348],"type":"Point"},"properties":{"osm_id":"3773229838","tag":{"amenity":"waste_basket"}},"type":"Feature"},
	{"geometry":{"coordinates":[6.713759,50.916214],"type":"Point"},"properties":{"osm_id":"4302418344","tag":{"amenity":"waste_basket"}},"type":"Feature"},
	{"geometry":{"coordinates":[6.713513,50.916265],"type":"Point"},"properties":{"osm_id":"4302418346","tag":{"amenity":"waste_basket","level":"0"}},"type":"Feature"},
	{"geometry":{"coordinates":[6.713844,50.916394],"type":"Point"},"properties":{"osm_id":"4302418347","tag":{"amenity":"waste_basket"}},"type":"Feature"},
	{"geometry":{"coordinates":[6.714047,50.916469],"type":"Point"},"properties":{"osm_id":"4302418349","tag":{"amenity":"waste_basket"}},"type":"Feature"},
	{"geometry":{"coordinates":[6.715565,50.918697],"type":"Point"},"properties":{"osm_id":"4985957839","tag":{"amenity":"waste_basket"}},"type":"Feature"},
	{"geometry":{"coordinates":[6.764906,50.945377],"type":"Point"},"properties":{"osm_id":"5035278837","tag":{"amenity":"recycling"}},"type":"Feature"},
	{"geometry":{"coordinates":[6.764858,50.945374],"type":"Point"},"properties":{"osm_id":"5035278838","tag":{"amenity":"recycling"}},"type":"Feature"},
	{"geometry":{"coordinates":[6.765135,50.957504],"type":"Point"},"properties":{"osm_id":"5809968882","tag":{"amenity":"waste_basket"}},"type":"Feature"},
	{"geometry":{"coordinates":[6.766085,50.955696],"type":"Point"},"properties":{"osm_id":"5826982742","tag":{"amenity":"waste_basket"}},"type":"Feature"},
	{"geometry":{"coordinates":[6.757215,50.95636],"type":"Point"},"properties":{"osm_id":"5827132401","tag":{"amenity":"waste_basket"}},"type":"Feature"},
	{"geometry":{"coordinates":[6.713726,50.916042],"type":"Point"},"properties":{"osm_id":"6242317695","tag":{"amenity":"waste_basket"}},"type":"Feature"},
	{"geometry":{"coordinates":[6.705999,50.908596],"type":"Point"},"properties":{"osm_id":"7353961238","tag":{"amenity":"recycling","recycling:clothes":"yes","recycling_type":"container","wheelchair":"limited"}},"type":"Feature"},
	{"geometry":{"coordinates":[6.706046,50.908223],"type":"Point"},"properties":{"osm_id":"7353961240","tag":{"amenity":"recycling","opening_hours":"Mo-Su 07:00-20:00","recycling:glass_bottles":"yes","recycling_type":"container","wheelchair":"limited"}},"type":"Feature"},
	{"geometry":{"coordinates":[6.73156,50.913326],"type":"Point"},"properties":{"osm_id":"7822861826","tag":{"amenity":"recycling","recycling:clothes":"yes","recycling_type":"container"}},"type":"Feature"},
	{"geometry":{"coordinates":[6.731528,50.913336],"type":"Point"},"properties":{"osm_id":"7822861827","tag":{"amenity":"recycling","recycling:glass_bottles":"yes","recycling_type":"container"}},"type":"Feature"}
]
}
