{
"type": "FeatureCollection",
"features": [
	{"geometry":{"coordinates":[6.69654,50.879664],"type":"Point"},"properties":{"osm_id":"497303515","tag":{"amenity":"recycling","location":"overground","recycling:glass":"yes","recycling_type":"container"}},"type":"Feature"},
	{"geometry":{"coordinates":[6.697106,50.875938],"type":"Point"},"properties":{"osm_id":"497303526","tag":{"amenity":"recycling","location":"overground","recycling:glass":"yes","recycling:glass_bottles":"yes","recycling_type":"container"}},"type":"Feature"},
	{"geometry":{"coordinates":[6.737718,50.865414],"type":"Point"},"properties":{"osm_id":"706701702","tag":{"amenity":"recycling","check_date":"2020-09-18","recycling:clothes":"yes","recycling:glass_bottles":"yes","recycling_type":"container"}},"type":"Feature"},
	{"geometry":{"coordinates":[6.756247,50.852092],"type":"Point"},"properties":{"osm_id":"706701708","tag":{"amenity":"recycling","recycling:clothes":"yes","recycling:glass":"yes","recycling_type":"container"}},"type":"Feature"},
	{"geometry":{"coordinates":[6.748997,50.857925],"type":"Point"},"properties":{"osm_id":"706701711","tag":{"amenity":"recycling","recycling:glass":"yes","recycling_type":"container"}},"type":"Feature"},
	{"geometry":{"coordinates":[6.751351,50.856086],"type":"Point"},"properties":{"osm_id":"706701714","tag":{"amenity":"recycling","recycling:glass":"yes","recycling_type":"container"}},"type":"Feature"},
	{"geometry":{"coordinates":[6.751893,50.860782],"type":"Point"},"properties":{"osm_id":"706701717","tag":{"amenity":"recycling","recycling:clothes":"yes","recycling:glass":"yes","recycling_type":"container"}},"type":"Feature"},
	{"geometry":{"coordinates":[6.748032,50.864247],"type":"Point"},"properties":{"osm_id":"706701720","tag":{"amenity":"recycling","recycling:glass":"yes","recycling_type":"container"}},"type":"Feature"},
	{"geometry":{"coordinates":[6.750912,50.866133],"type":"Point"},"properties":{"osm_id":"706701724","tag":{"amenity":"recycling","recycling:clothes":"yes","recycling:glass":"yes","recycling_type":"container"}},"type":"Feature"},
	{"geometry":{"coordinates":[6.762507,50.858329],"type":"Point"},"properties":{"osm_id":"706701726","tag":{"amenity":"recycling","recycling:glass":"yes","recycling_type":"container"}},"type":"Feature"},
	{"geometry":{"coordinates":[6.737075,50.867121],"type":"Point"},"properties":{"osm_id":"706701729","tag":{"amenity":"recycling","recycling:glass":"yes","recycling_type":"container"}},"type":"Feature"},
	{"geometry":{"coordinates":[6.757013,50.869853],"type":"Point"},"properties":{"osm_id":"706701731","tag":{"amenity":"recycling","recycling:clothes":"yes","recycling:glass":"yes"}},"type":"Feature"},
	{"geometry":{"coordinates":[6.76287,50.851286],"type":"Point"},"properties":{"osm_id":"746711207","tag":{"amenity":"recycling","recycling:glass_bottles":"yes","recycling_type":"container"}},"type":"Feature"},
	{"geometry":{"coordinates":[6.765615,50.848702],"type":"Point"},"properties":{"osm_id":"746711238","tag":{"amenity":"recycling","recycling:glass":"yes","recycling_type":"container"}},"type":"Feature"},
	{"geometry":{"coordinates":[6.692562,50.88116],"type":"Point"},"properties":{"osm_id":"1793501932","ref":"glass","tag":{"amenity":"recycling","recycling:glass":"yes","recycling_type":"container"}},"type":"Feature"},
	{"geometry":{"coordinates":[6.691465,50.875891],"type":"Point"},"properties":{"osm_id":"2831014647","tag":{"amenity":"recycling","recycling:glass":"yes","recycling_type":"container"}},"type":"Feature"},
	{"geometry":{"coordinates":[6.688401,50.871527],"type":"Point"},"properties":{"osm_id":"2878545749","tag":{"amenity":"recycling","recycling:glass":"yes","recycling_type":"container"}},"type":"Feature"},
	{"geometry":{"coordinates":[6.68682,50.875901],"type":"Point"},"properties":{"osm_id":"2878545773","tag":{"amenity":"recycling","recycling:clothes":"yes","recycling_type":"container"}},"type":"Feature"},
	{"geometry":{"coordinates":[6.6827,50.869437],"type":"Point"},"properties":{"osm_id":"2878606647","tag":{"amenity":"recycling","recycling:clothes":"yes","recycling_type":"container"}},"type":"Feature"},
	{"geometry":{"coordinates":[6.683578,50.874556],"type":"Point"},"properties":{"osm_id":"2878606667","tag":{"amenity":"recycling","check_date":"2020-09-18","recycling:clothes":"no","recycling:glass_bottles":"yes","recycling_type":"container"}},"type":"Feature"},
	{"geometry":{"coordinates":[6.683976,50.875321],"type":"Point"},"properties":{"osm_id":"4437953393","tag":{"amenity":"waste_basket"}},"type":"Feature"},
	{"geometry":{"coordinates":[6.68453,50.876021],"type":"Point"},"properties":{"osm_id":"4437955691","tag":{"amenity":"waste_basket"}},"type":"Feature"},
	{"geometry":{"coordinates":[6.683688,50.875234],"type":"Point"},"properties":{"osm_id":"4437955695","tag":{"amenity":"waste_basket"}},"type":"Feature"},
	{"geometry":{"coordinates":[6.6855,50.876602],"type":"Point"},"properties":{"osm_id":"4437964189","tag":{"amenity":"waste_basket"}},"type":"Feature"},
	{"geometry":{"coordinates":[6.681371,50.874044],"type":"Point"},"properties":{"osm_id":"4437964589","tag":{"amenity":"waste_basket"}},"type":"Feature"},
	{"geometry":{"coordinates":[6.684273,50.875565],"type":"Point"},"properties":{"osm_id":"4441104471","tag":{"amenity":"waste_basket"}},"type":"Feature"},
	{"geometry":{"coordinates":[6.687012,50.881184],"type":"Point"},"properties":{"osm_id":"4476171897","tag":{"amenity":"waste_basket"}},"type":"Feature"},
	{"geometry":{"coordinates":[6.705696,50.88623],"type":"Point"},"properties":{"osm_id":"4476175192","tag":{"amenity":"waste_basket"}},"type":"Feature"},
	{"geometry":{"coordinates":[6.714737,50.901625],"type":"Point"},"properties":{"osm_id":"6893184851","tag":{"amenity":"waste_basket"}},"type":"Feature"}
]
}
