{
"type": "FeatureCollection",
"features": [
	{"geometry":{"coordinates":[6.740004,50.687471],"type":"Point"},"properties":{"osm_id":"4120897506","tag":{"amenity":"recycling","recycling:glass_bottles":"yes","recycling_type":"container"}},"type":"Feature"},
	{"geometry":{"coordinates":[6.73813,50.684121],"type":"Point"},"properties":{"osm_id":"5632537600","tag":{"amenity":"waste_basket"}},"type":"Feature"},
	{"geometry":{"coordinates":[6.735714,50.693679],"type":"Point"},"properties":{"osm_id":"6284609480","tag":{"amenity":"waste_basket","material":"metal"}},"type":"Feature"},
	{"geometry":{"coordinates":[6.739823,50.689073],"type":"Point"},"properties":{"osm_id":"7126147403","tag":{"amenity":"waste_basket","colour":"gray","material":"metal"}},"type":"Feature"},
	{"geometry":{"coordinates":[6.739764,50.68897],"type":"Point"},"properties":{"osm_id":"7126147404","tag":{"amenity":"waste_basket","colour":"gray","material":"metal"}},"type":"Feature"},
	{"geometry":{"coordinates":[6.740014,50.687493],"type":"Point"},"properties":{"osm_id":"7126147424","tag":{"amenity":"recycling","recycling:glass_bottles":"yes","recycling_type":"container"}},"type":"Feature"},
	{"geometry":{"coordinates":[6.739855,50.68741],"type":"Point"},"properties":{"osm_id":"7126147426","tag":{"amenity":"recycling","colour":"green","recycling:clothes":"yes","recycling:shoes":"yes","recycling_type":"container"}},"type":"Feature"},
	{"geometry":{"coordinates":[6.739891,50.687408],"type":"Point"},"properties":{"osm_id":"7126147427","tag":{"amenity":"recycling","colour":"green","recycling:clothes":"yes","recycling:shoes":"yes","recycling_type":"container"}},"type":"Feature"},
	{"geometry":{"coordinates":[6.739875,50.687409],"type":"Point"},"properties":{"osm_id":"7126147428","tag":{"amenity":"recycling","colour":"green","recycling:clothes":"yes","recycling:shoes":"yes","recycling_type":"container"}},"type":"Feature"},
	{"geometry":{"coordinates":[6.739861,50.686698],"type":"Point"},"properties":{"osm_id":"7699480592","tag":{"amenity":"waste_basket","colour":"black","material":"metal"}},"type":"Feature"},
	{"geometry":{"coordinates":[6.743408,50.68716],"type":"Point"},"properties":{"osm_id":"8286478057","tag":{"amenity":"waste_basket"}},"type":"Feature"},
	{"geometry":{"coordinates":[6.742992,50.687236],"type":"Point"},"properties":{"osm_id":"8286478059","tag":{"amenity":"waste_basket"}},"type":"Feature"},
	{"geometry":{"coordinates":[6.742744,50.687281],"type":"Point"},"properties":{"osm_id":"8286478061","tag":{"amenity":"waste_basket"}},"type":"Feature"},
	{"geometry":{"coordinates":[6.7427,50.687291],"type":"Point"},"properties":{"osm_id":"8286478062","tag":{"amenity":"waste_basket"}},"type":"Feature"},
	{"geometry":{"coordinates":[6.743426,50.686427],"type":"Point"},"properties":{"osm_id":"8286478065","tag":{"amenity":"waste_basket"}},"type":"Feature"},
	{"geometry":{"coordinates":[6.74244,50.686611],"type":"Point"},"properties":{"osm_id":"8286478066","tag":{"amenity":"waste_basket"}},"type":"Feature"},
	{"geometry":{"coordinates":[6.74239,50.686617],"type":"Point"},"properties":{"osm_id":"8286478067","tag":{"amenity":"waste_basket"}},"type":"Feature"},
	{"geometry":{"coordinates":[6.742461,50.686482],"type":"Point"},"properties":{"osm_id":"8286478073","tag":{"amenity":"waste_basket","colour":"yellow"}},"type":"Feature"},
	{"geometry":{"coordinates":[6.742875,50.686525],"type":"Point"},"properties":{"osm_id":"8286478077","tag":{"amenity":"waste_basket"}},"type":"Feature"},
	{"geometry":{"coordinates":[6.684924,50.708729],"type":"Point"},"properties":{"osm_id":"8293260393","tag":{"amenity":"recycling","recycling:glass_bottles":"yes","recycling_type":"container"}},"type":"Feature"},
	{"geometry":{"coordinates":[6.684947,50.708709],"type":"Point"},"properties":{"osm_id":"8293260394","tag":{"amenity":"recycling","recycling:clothes":"yes","recycling_type":"container"}},"type":"Feature"},
	{"geometry":{"coordinates":[6.686701,50.688224],"type":"Point"},"properties":{"osm_id":"8520081931","tag":{"amenity":"recycling","recycling:clothes":"yes","recycling_type":"container"}},"type":"Feature"},
	{"geometry":{"coordinates":[6.686678,50.688244],"type":"Point"},"properties":{"osm_id":"8520081932","tag":{"amenity":"recycling","recycling:glass":"yes","recycling_type":"container"}},"type":"Feature"},
	{"geometry":{"coordinates":[6.706854,50.699834],"type":"Point"},"properties":{"osm_id":"8791594892","tag":{"amenity":"recycling","recycling:clothes":"yes","recycling_type":"container"}},"type":"Feature"},
	{"geometry":{"coordinates":[6.706818,50.699823],"type":"Point"},"properties":{"osm_id":"8791594893","tag":{"amenity":"recycling","recycling:glass_bottles":"yes","recycling_type":"container"}},"type":"Feature"},
	{"geometry":{"coordinates":[6.739226,50.686537],"type":"Point"},"properties":{"osm_id":"8836713799","tag":{"amenity":"waste_basket","colour":"green","material":"metal"}},"type":"Feature"},
	{"geometry":{"coordinates":[6.738828,50.692669],"type":"Point"},"properties":{"osm_id":"8836839044","tag":{"amenity":"waste_basket","colour":"orange","material":"metal"}},"type":"Feature"}
]
}
