{
"type": "FeatureCollection",
"features": [
	{"geometry":{"coordinates":[6.752121,50.535538],"type":"Point"},"properties":{"osm_id":"278296859","tag":{"amenity":"recycling"}},"type":"Feature"},
	{"geometry":{"coordinates":[6.764994,50.559981],"type":"Point"},"properties":{"osm_id":"674868023","tag":{"amenity":"recycling","recycling:glass":"yes"}},"type":"Feature"},
	{"geometry":{"coordinates":[6.76248,50.552099],"type":"Point"},"properties":{"osm_id":"3493670557","tag":{"amenity":"waste_basket"}},"type":"Feature"},
	{"geometry":{"coordinates":[6.761124,50.554632],"type":"Point"},"properties":{"osm_id":"4398166731","tag":{"amenity":"waste_basket"}},"type":"Feature"},
	{"geometry":{"coordinates":[6.763711,50.554139],"type":"Point"},"properties":{"osm_id":"5351333329","tag":{"amenity":"waste_basket"}},"type":"Feature"},
	{"geometry":{"coordinates":[6.765156,50.545886],"type":"Point"},"properties":{"osm_id":"5351333362","tag":{"amenity":"recycling","operator":"Sch\u00c3\u00b6nmackers","recycling:glass_bottles":"yes","recycling_type":"container"}},"type":"Feature"}
]
}
