{
"type": "FeatureCollection",
"features": [
	{"geometry":{"coordinates":[6.699468,50.255941],"type":"Point"},"properties":{"osm_id":"299719364","tag":{"amenity":"recycling","recycling:glass":"yes","recycling_type":"container"}},"type":"Feature"},
	{"geometry":{"coordinates":[6.735693,50.279407],"type":"Point"},"properties":{"osm_id":"352733918","tag":{"amenity":"recycling","recycling:clothes":"yes","recycling:shoes":"yes","recycling_type":"container","wheelchair":"yes"}},"type":"Feature"},
	{"geometry":{"coordinates":[6.689397,50.237937],"type":"Point"},"properties":{"osm_id":"2147935957","tag":{"amenity":"waste_basket"}},"type":"Feature"},
	{"geometry":{"coordinates":[6.701577,50.24764],"type":"Point"},"properties":{"osm_id":"2251020150","tag":{"amenity":"waste_basket"}},"type":"Feature"},
	{"geometry":{"coordinates":[6.706432,50.250015],"type":"Point"},"properties":{"osm_id":"2251020194","tag":{"amenity":"waste_basket"}},"type":"Feature"},
	{"geometry":{"coordinates":[6.684158,50.239044],"type":"Point"},"properties":{"osm_id":"2262785006","tag":{"amenity":"waste_basket"}},"type":"Feature"},
	{"geometry":{"coordinates":[6.683944,50.239049],"type":"Point"},"properties":{"osm_id":"2262785010","tag":{"amenity":"waste_basket"}},"type":"Feature"},
	{"geometry":{"coordinates":[6.683401,50.23909],"type":"Point"},"properties":{"osm_id":"2262785036","tag":{"amenity":"waste_basket"}},"type":"Feature"},
	{"geometry":{"coordinates":[6.682772,50.239592],"type":"Point"},"properties":{"osm_id":"2262785138","tag":{"amenity":"waste_basket"}},"type":"Feature"},
	{"geometry":{"coordinates":[6.706322,50.285806],"type":"Point"},"properties":{"barrier":"gate","osm_id":"4160671907"},"type":"Feature"},
	{"geometry":{"coordinates":[6.735661,50.279401],"type":"Point"},"properties":{"osm_id":"5111361921","tag":{"amenity":"recycling","opening_hours":"Mo-Sa 07:00-20:00; Su,PH off","operator":"Zweckverband Abfallwirtschaft Region Trier","recycling:glass_bottles":"yes","recycling_type":"container"}},"type":"Feature"},
	{"geometry":{"coordinates":[6.687774,50.240885],"type":"Point"},"properties":{"osm_id":"6356629289","tag":{"amenity":"waste_basket"}},"type":"Feature"},
	{"geometry":{"coordinates":[6.688089,50.239655],"type":"Point"},"properties":{"osm_id":"6356629291","tag":{"amenity":"waste_basket"}},"type":"Feature"},
	{"geometry":{"coordinates":[6.754208,50.252643],"type":"Point"},"properties":{"osm_id":"8176075886","tag":{"amenity":"recycling","opening_hours":"Mo-Sa 07:00-20:00; PH,Su off","operator":"Zweckverband Abfallwirtschaft Region Trier","recycling:glass_bottles":"yes","recycling_type":"container"}},"type":"Feature"}
]
}
