{
"type": "FeatureCollection",
"features": [
	{"geometry":{"coordinates":[6.75059,49.817273],"type":"Point"},"properties":{"osm_id":"345723137","tag":{"amenity":"recycling","opening_hours":"24/7","operator":"DRK-Kreisverband Trier-Saarburg e.V.","recycling:clothes":"yes","recycling:shoes":"yes","recycling_type":"container"}},"type":"Feature"},
	{"geometry":{"coordinates":[6.696892,49.786363],"type":"Point"},"properties":{"osm_id":"663318307","tag":{"amenity":"recycling","opening_hours":"Mo-Sa 07:00-20:00; Su,PH off","operator":"Zweckverband Abfallwirtschaft Region Trier","recycling:glass_bottles":"yes","recycling_type":"container"}},"type":"Feature"},
	{"geometry":{"coordinates":[6.694863,49.782723],"type":"Point"},"properties":{"osm_id":"663329188","tag":{"amenity":"recycling","opening_hours":"Mo-Sa 07:00-20:00; Su,PH off","operator":"Zweckverband Abfallwirtschaft Region Trier","recycling:glass_bottles":"yes","recycling_type":"container"}},"type":"Feature"},
	{"geometry":{"coordinates":[6.75323,49.821842],"type":"Point"},"properties":{"osm_id":"1420394642","tag":{"amenity":"waste_basket"}},"type":"Feature"},
	{"geometry":{"coordinates":[6.747502,49.825111],"type":"Point"},"properties":{"osm_id":"1423332446","tag":{"amenity":"waste_basket"}},"type":"Feature"},
	{"geometry":{"coordinates":[6.742768,49.828143],"type":"Point"},"properties":{"osm_id":"1423332475","tag":{"amenity":"waste_basket"}},"type":"Feature"},
	{"geometry":{"coordinates":[6.693571,49.823698],"type":"Point"},"properties":{"osm_id":"1437763916","tag":{"amenity":"waste_basket"}},"type":"Feature"},
	{"geometry":{"coordinates":[6.689133,49.818971],"type":"Point"},"properties":{"osm_id":"1438711087","tag":{"amenity":"recycling","opening_hours":"Mo-Sa 07:00-20:00; Su,PH off","operator":"Zweckverband Abfallwirtschaft Region Trier","recycling:glass_bottles":"yes","recycling_type":"container"}},"type":"Feature"},
	{"geometry":{"coordinates":[6.682591,49.79824],"type":"Point"},"properties":{"osm_id":"1443439579","tag":{"amenity":"recycling","recycling:clothes":"yes","recycling:shoes":"yes","recycling_type":"container"}},"type":"Feature"},
	{"geometry":{"coordinates":[6.708675,49.797871],"type":"Point"},"properties":{"osm_id":"1850328497","tag":{"amenity":"waste_basket"}},"type":"Feature"},
	{"geometry":{"coordinates":[6.700082,49.81859],"type":"Point"},"properties":{"osm_id":"2379417613","tag":{"amenity":"recycling","recycling:clothes":"yes","recycling:shoes":"yes","recycling_type":"container"}},"type":"Feature"},
	{"geometry":{"coordinates":[6.700006,49.818626],"type":"Point"},"properties":{"osm_id":"2379417617","tag":{"amenity":"recycling","opening_hours":"Mo-Sa 07:00-20:00; Su,PH off","operator":"Zweckverband Abfallwirtschaft Region Trier","recycling:glass_bottles":"yes","recycling_type":"container"}},"type":"Feature"},
	{"geometry":{"coordinates":[6.765852,49.804698],"type":"Point"},"properties":{"osm_id":"2913092506","tag":{"amenity":"waste_basket"}},"type":"Feature"},
	{"geometry":{"coordinates":[6.76477,49.803958],"type":"Point"},"properties":{"osm_id":"2913321955","tag":{"amenity":"waste_basket"}},"type":"Feature"},
	{"geometry":{"coordinates":[6.704665,49.82599],"type":"Point"},"properties":{"osm_id":"3094709352","tag":{"amenity":"waste_basket","operator":"DB Station&Service AG"}},"type":"Feature"},
	{"geometry":{"coordinates":[6.704698,49.826014],"type":"Point"},"properties":{"osm_id":"3094709356","tag":{"amenity":"waste_basket","operator":"DB Station&Service AG"}},"type":"Feature"},
	{"geometry":{"coordinates":[6.706303,49.818306],"type":"Point"},"properties":{"osm_id":"3127997083","tag":{"amenity":"waste_basket"}},"type":"Feature"},
	{"geometry":{"coordinates":[6.764429,49.807198],"type":"Point"},"properties":{"osm_id":"4395328402","tag":{"amenity":"recycling","opening_hours":"Mo-Fr 07:00-20:00; Su,PH off","operator":"Zweckverband Abfallwirtschaft Region Trier","recycling:glass_bottles":"yes","recycling_type":"container"}},"type":"Feature"},
	{"geometry":{"coordinates":[6.686619,49.806826],"type":"Point"},"properties":{"osm_id":"4415243488","tag":{"amenity":"recycling","opening_hours":"Mo-Sa 07:00-20:00; Su,PH off","operator":"Zweckverband Abfallwirtschaft Region Trier","recycling:glass_bottles":"yes","recycling_type":"container","wheelchair":"no"}},"type":"Feature"},
	{"geometry":{"coordinates":[6.686645,49.806836],"type":"Point"},"properties":{"osm_id":"4415243689","tag":{"amenity":"recycling","recycling:clothes":"yes","recycling_type":"container"}},"type":"Feature"},
	{"geometry":{"coordinates":[6.688771,49.809258],"type":"Point"},"properties":{"osm_id":"4418855802","tag":{"amenity":"recycling","operator":"DRK-Kreisverband Trier-Saarburg e.V.","recycling:clothes":"yes","recycling:shoes":"yes","recycling_type":"container","wheelchair":"no"}},"type":"Feature"},
	{"geometry":{"coordinates":[6.692404,49.810145],"type":"Point"},"properties":{"osm_id":"4587263431","tag":{"amenity":"recycling","opening_hours":"Mo-Sa 07:00-20:00; Su,PH off","operator":"Zweckverband Abfallwirtschaft Region Trier","recycling:glass_bottles":"yes","recycling_type":"container"}},"type":"Feature"},
	{"geometry":{"coordinates":[6.692355,49.810104],"type":"Point"},"properties":{"osm_id":"4587263432","tag":{"amenity":"recycling","recycling:clothes":"yes","recycling:shoes":"yes","recycling_type":"container"}},"type":"Feature"},
	{"geometry":{"coordinates":[6.701586,49.816644],"type":"Point"},"properties":{"osm_id":"4700827324","tag":{"amenity":"recycling","opening_hours":"Mo-Sa 07:00-20:00; Su,PH off","operator":"Zweckverband Abfallwirtschaft Region Trier","recycling:glass_bottles":"yes","recycling_type":"container"}},"type":"Feature"},
	{"geometry":{"coordinates":[6.701612,49.816669],"type":"Point"},"properties":{"osm_id":"4700827325","tag":{"amenity":"recycling","operator":"Malteser Hilfsdienst e.V.","recycling:clothes":"yes","recycling:shoes":"yes","recycling_type":"container"}},"type":"Feature"},
	{"geometry":{"coordinates":[6.701663,49.81675],"type":"Point"},"properties":{"osm_id":"4700827326","tag":{"amenity":"recycling","operator":"Malteser Hilfsdienst e.V.","recycling:clothes":"yes","recycling:shoes":"yes","recycling_type":"container"}},"type":"Feature"},
	{"geometry":{"coordinates":[6.70941,49.794856],"type":"Point"},"properties":{"osm_id":"5370763530","tag":{"amenity":"recycling","opening_hours":"Mo-Sa 07:00-20:00; Su,PH off","operator":"Zweckverband Abfallwirtschaft Region Trier","recycling:glass_bottles":"yes","recycling_type":"container"}},"type":"Feature"},
	{"geometry":{"coordinates":[6.714234,49.803353],"type":"Point"},"properties":{"osm_id":"5405891872","tag":{"amenity":"recycling","recycling:clothes":"yes","recycling:glass":"yes","recycling_type":"container"}},"type":"Feature"},
	{"geometry":{"coordinates":[6.751727,49.815915],"type":"Point"},"properties":{"osm_id":"6732030191","tag":{"amenity":"recycling","count":"2","opening_hours":"24/7","operator":"CityGreenPoint Deutschland GmbH","recycling:clothes":"yes","recycling:shoes":"yes","recycling_type":"container","wheelchair":"no"}},"type":"Feature"},
	{"geometry":{"coordinates":[6.753266,49.824316],"type":"Point"},"properties":{"osm_id":"6746038128","tag":{"amenity":"waste_basket"}},"type":"Feature"},
	{"geometry":{"coordinates":[6.753207,49.824142],"type":"Point"},"properties":{"osm_id":"6747134801","tag":{"amenity":"waste_basket"}},"type":"Feature"},
	{"geometry":{"coordinates":[6.686587,49.80681],"type":"Point"},"properties":{"osm_id":"7093456934","tag":{"amenity":"recycling","count":"2","operator":"Zweckverband Abfallwirtschaft Region Trier","recycling:green_waste":"yes","recycling_type":"container","wheelchair":"no"}},"type":"Feature"},
	{"geometry":{"coordinates":[6.686598,49.806816],"type":"Point"},"properties":{"osm_id":"7093456935","tag":{"amenity":"recycling","operator":"Zweckverband Abfallwirtschaft Region Trier","recycling:green_waste":"yes","recycling_type":"container","wheelchair":"no"}},"type":"Feature"},
	{"geometry":{"coordinates":[6.74235,49.821007],"type":"Point"},"properties":{"osm_id":"7106860639","tag":{"amenity":"recycling","opening_hours":"Mo-Fr 07:00-20:00; SU, PH off","operator":"Zweckverband Abfallwirtschaft Region Trier","recycling:clothes":"yes","recycling:shoes":"yes","recycling_type":"container","wheelchair":"yes"}},"type":"Feature"},
	{"geometry":{"coordinates":[6.764387,49.80721],"type":"Point"},"properties":{"osm_id":"7638821572","tag":{"amenity":"recycling","operator":"ART","recycling:green_waste":"yes","recycling_type":"container"}},"type":"Feature"},
	{"geometry":{"coordinates":[6.743318,49.829379],"type":"Point"},"properties":{"osm_id":"7638857144","tag":{"amenity":"recycling","operator":"ART","recycling:green_waste":"yes","recycling_type":"container"}},"type":"Feature"},
	{"geometry":{"coordinates":[6.763008,49.809199],"type":"Point"},"properties":{"osm_id":"7638857623","tag":{"amenity":"recycling","recycling:clothes":"yes","recycling_type":"container"}},"type":"Feature"}
]
}
