{
"type": "FeatureCollection",
"features": [
	{"geometry":{"coordinates":[6.681321,49.77043],"type":"Point"},"properties":{"osm_id":"78260102","tag":{"amenity":"recycling","opening_hours":"Mo-Sa 07:00-20:00; Su,PH off","operator":"Zweckverband Abfallwirtschaft Region Trier","recycling:glass_bottles":"yes","recycling_type":"container"}},"type":"Feature"},
	{"geometry":{"coordinates":[6.764477,49.727278],"type":"Point"},"properties":{"osm_id":"241872555","tag":{"amenity":"recycling","opening_hours":"Mo-Sa 07:00-20:00; PH,Su off","operator":"Zweckverband Abfallwirtschaft Region Trier","operator:wikidata":"Q82980882","recycling:glass_bottles":"yes","recycling_type":"container"}},"type":"Feature"},
	{"geometry":{"coordinates":[6.741871,49.766064],"type":"Point"},"properties":{"osm_id":"245394836","tag":{"amenity":"recycling","opening_hours":"Mo-Fr 07:00-20:00; Su,PH off","operator":"Zweckverband Abfallwirtschaft Region Trier","recycling:glass_bottles":"yes","recycling_type":"container"}},"type":"Feature"},
	{"geometry":{"coordinates":[6.680926,49.752753],"type":"Point"},"properties":{"osm_id":"246522902","tag":{"amenity":"recycling","opening_hours":"Mo-Sa 07:00-20:00; Su,PH off","operator":"Zweckverband Abfallwirtschaft Region Trier","recycling:glass_bottles":"yes","recycling_type":"container"}},"type":"Feature"},
	{"geometry":{"coordinates":[6.680689,49.758539],"type":"Point"},"properties":{"osm_id":"247329103","tag":{"amenity":"recycling","opening_hours":"Mo-Sa 07:00-20:00; Su,PH off","operator":"Zweckverband Abfallwirtschaft Region Trier","recycling:glass_bottles":"yes","recycling_type":"container"}},"type":"Feature"},
	{"geometry":{"coordinates":[6.680156,49.753836],"type":"Point"},"properties":{"osm_id":"247357730","tag":{"amenity":"recycling","opening_hours":"Mo-Sa 07:00-20:00; Su,PH off","operator":"Zweckverband Abfallwirtschaft Region Trier","recycling:glass_bottles":"yes","recycling_type":"container"}},"type":"Feature"},
	{"geometry":{"coordinates":[6.680156,49.753829],"type":"Point"},"properties":{"osm_id":"247357768","tag":{"amenity":"recycling","recycling:clothes":"yes"}},"type":"Feature"},
	{"geometry":{"coordinates":[6.685572,49.726449],"type":"Point"},"properties":{"osm_id":"262420472","tag":{"amenity":"recycling","opening_hours":"Mo-Sa 07:00-20:00; Su,PH off","operator":"Zweckverband Abfallwirtschaft Region Trier","recycling:glass_bottles":"yes","recycling_type":"container"}},"type":"Feature"},
	{"geometry":{"coordinates":[6.703157,49.728537],"type":"Point"},"properties":{"osm_id":"262552979","tag":{"amenity":"recycling","opening_hours":"Mo-Sa 07:00-20:00; Su,PH off","operator":"Zweckverband Abfallwirtschaft Region Trier","recycling:glass_bottles":"yes","recycling_type":"container"}},"type":"Feature"},
	{"geometry":{"coordinates":[6.693544,49.740353],"type":"Point"},"properties":{"osm_id":"272065966","tag":{"amenity":"recycling","opening_hours":"Mo-Sa 07:00-20:00; Su,PH off","operator":"Zweckverband Abfallwirtschaft Region Trier","recycling:glass_bottles":"yes","recycling_type":"container"}},"type":"Feature"},
	{"geometry":{"coordinates":[6.703055,49.737277],"type":"Point"},"properties":{"osm_id":"278582711","tag":{"amenity":"recycling","opening_hours":"Mo-Sa 07:00-20:00; Su,PH off","operator":"Zweckverband Abfallwirtschaft Region Trier","recycling:glass_bottles":"yes","recycling_type":"container","wheelchair":"limited"}},"type":"Feature"},
	{"geometry":{"coordinates":[6.686986,49.750797],"type":"Point"},"properties":{"osm_id":"289519002","tag":{"amenity":"recycling","opening_hours":"Mo-Sa 07:00-20:00; Su,PH off","operator":"Zweckverband Abfallwirtschaft Region Trier","recycling:glass_bottles":"yes","recycling_type":"container"}},"type":"Feature"},
	{"geometry":{"coordinates":[6.683912,49.753528],"type":"Point"},"properties":{"osm_id":"289519319","tag":{"amenity":"recycling","opening_hours":"Mo-Sa 07:00-20:00; Su,PH off","operator":"Zweckverband Abfallwirtschaft Region Trier","recycling:glass_bottles":"yes","recycling_type":"container"}},"type":"Feature"},
	{"geometry":{"coordinates":[6.684429,49.737141],"type":"Point"},"properties":{"osm_id":"290831497","tag":{"amenity":"recycling","recycling:clothes":"yes","recycling:shoes":"yes","recycling_type":"container"}},"type":"Feature"},
	{"geometry":{"coordinates":[6.689299,49.75056],"type":"Point"},"properties":{"osm_id":"322903424","tag":{"amenity":"recycling","opening_hours":"Mo-Sa 07:00-20:00; Su,PH off","operator":"Zweckverband Abfallwirtschaft Region Trier","recycling:glass_bottles":"yes","recycling_type":"container"}},"type":"Feature"},
	{"geometry":{"coordinates":[6.684369,49.750412],"type":"Point"},"properties":{"osm_id":"444539728","tag":{"amenity":"recycling","recycling:clothes":"yes","recycling:shoes":"yes","recycling_type":"container"}},"type":"Feature"},
	{"geometry":{"coordinates":[6.720789,49.772456],"type":"Point"},"properties":{"osm_id":"759774149","tag":{"amenity":"recycling","opening_hours":"Mo-Fr 07:00-20:00; Su,PH off","operator":"Zweckverband Abfallwirtschaft Region Trier","recycling:glass_bottles":"yes","recycling_type":"container"}},"type":"Feature"},
	{"geometry":{"coordinates":[6.733752,49.773998],"type":"Point"},"properties":{"osm_id":"759774150","tag":{"amenity":"recycling","opening_hours":"Mo-Fr 07:00-20:00; Su,PH off","operator":"Zweckverband Abfallwirtschaft Region Trier","recycling:glass_bottles":"yes","recycling_type":"container"}},"type":"Feature"},
	{"geometry":{"coordinates":[6.695691,49.74142],"type":"Point"},"properties":{"osm_id":"1168050061","tag":{"amenity":"recycling","recycling:clothes":"yes","recycling:shoes":"yes","recycling_type":"container"}},"type":"Feature"},
	{"geometry":{"coordinates":[6.687022,49.742369],"type":"Point"},"properties":{"osm_id":"1241646829","tag":{"amenity":"recycling","recycling:clothes":"yes","recycling:glass_bottles":"yes","recycling_type":"container"}},"type":"Feature"},
	{"geometry":{"coordinates":[6.75591,49.77218],"type":"Point"},"properties":{"barrier":"gate","osm_id":"1362850032"},"type":"Feature"},
	{"geometry":{"coordinates":[6.687399,49.743894],"type":"Point"},"properties":{"osm_id":"1388476418","tag":{"amenity":"waste_basket"}},"type":"Feature"},
	{"geometry":{"coordinates":[6.686435,49.744357],"type":"Point"},"properties":{"osm_id":"1388476419","tag":{"amenity":"waste_basket"}},"type":"Feature"},
	{"geometry":{"coordinates":[6.688041,49.744621],"type":"Point"},"properties":{"osm_id":"1388476423","tag":{"amenity":"waste_basket"}},"type":"Feature"},
	{"geometry":{"coordinates":[6.685039,49.745687],"type":"Point"},"properties":{"osm_id":"1388476427","tag":{"amenity":"waste_basket"}},"type":"Feature"},
	{"geometry":{"coordinates":[6.684329,49.749224],"type":"Point"},"properties":{"osm_id":"1388476440","tag":{"amenity":"waste_basket"}},"type":"Feature"},
	{"geometry":{"coordinates":[6.684147,49.743311],"type":"Point"},"properties":{"osm_id":"1484873000","tag":{"amenity":"recycling","recycling:clothes":"yes","recycling:glass_bottles":"yes","recycling_type":"container"}},"type":"Feature"},
	{"geometry":{"coordinates":[6.68589,49.751275],"type":"Point"},"properties":{"osm_id":"2361000928","tag":{"amenity":"recycling","recycling:clothes":"yes","recycling_type":"container"}},"type":"Feature"},
	{"geometry":{"coordinates":[6.687039,49.742373],"type":"Point"},"properties":{"osm_id":"2428574155","tag":{"amenity":"recycling","opening_hours":"Mo-Sa 07:00-20:00; Su,PH off","operator":"Zweckverband Abfallwirtschaft Region Trier","recycling:glass_bottles":"yes","recycling_type":"container"}},"type":"Feature"},
	{"geometry":{"coordinates":[6.737056,49.756101],"type":"Point"},"properties":{"osm_id":"2495960020","tag":{"amenity":"waste_basket"}},"type":"Feature"},
	{"geometry":{"coordinates":[6.726966,49.762778],"type":"Point"},"properties":{"osm_id":"3172260469","tag":{"amenity":"recycling","operator":"DRK-Kreisverband Trier-Saarburg e.V.","recycling:clothes":"yes","recycling:shoes":"yes","recycling_type":"container"}},"type":"Feature"},
	{"geometry":{"coordinates":[6.735338,49.755048],"type":"Point"},"properties":{"osm_id":"4239420917","tag":{"amenity":"recycling","opening_hours":"Mo-Sa 07:00-20:00; Su,PH off","operator":"Zweckverband Abfallwirtschaft Region Trier","recycling:glass_bottles":"yes","recycling_type":"container"}},"type":"Feature"},
	{"geometry":{"coordinates":[6.68475,49.747183],"type":"Point"},"properties":{"osm_id":"4555595899","tag":{"amenity":"waste_disposal","operator":"studiwerk Trier"}},"type":"Feature"},
	{"geometry":{"coordinates":[6.755854,49.772183],"type":"Point"},"properties":{"barrier":"gate","osm_id":"4694255457"},"type":"Feature"},
	{"geometry":{"coordinates":[6.691688,49.741154],"type":"Point"},"properties":{"osm_id":"4697778040","tag":{"amenity":"waste_basket"}},"type":"Feature"},
	{"geometry":{"coordinates":[6.690535,49.74214],"type":"Point"},"properties":{"osm_id":"4697778041","tag":{"amenity":"waste_basket"}},"type":"Feature"},
	{"geometry":{"coordinates":[6.691686,49.742157],"type":"Point"},"properties":{"osm_id":"4697778042","tag":{"amenity":"waste_basket"}},"type":"Feature"},
	{"geometry":{"coordinates":[6.689388,49.742315],"type":"Point"},"properties":{"osm_id":"4697778043","tag":{"amenity":"waste_basket"}},"type":"Feature"},
	{"geometry":{"coordinates":[6.691758,49.742349],"type":"Point"},"properties":{"osm_id":"4697778044","tag":{"amenity":"waste_basket"}},"type":"Feature"},
	{"geometry":{"coordinates":[6.691104,49.742395],"type":"Point"},"properties":{"osm_id":"4697778045","tag":{"amenity":"waste_basket"}},"type":"Feature"},
	{"geometry":{"coordinates":[6.69044,49.742623],"type":"Point"},"properties":{"osm_id":"4697778049","tag":{"amenity":"waste_basket"}},"type":"Feature"},
	{"geometry":{"coordinates":[6.689072,49.742722],"type":"Point"},"properties":{"osm_id":"4697778050","tag":{"amenity":"waste_basket"}},"type":"Feature"},
	{"geometry":{"coordinates":[6.6898,49.742765],"type":"Point"},"properties":{"osm_id":"4697778051","tag":{"amenity":"waste_basket"}},"type":"Feature"},
	{"geometry":{"coordinates":[6.689354,49.742802],"type":"Point"},"properties":{"osm_id":"4697778052","tag":{"amenity":"waste_basket"}},"type":"Feature"},
	{"geometry":{"coordinates":[6.690307,49.743518],"type":"Point"},"properties":{"osm_id":"4697778063","tag":{"amenity":"waste_basket"}},"type":"Feature"},
	{"geometry":{"coordinates":[6.689859,49.742969],"type":"Point"},"properties":{"osm_id":"4697811483","tag":{"amenity":"waste_basket"}},"type":"Feature"},
	{"geometry":{"coordinates":[6.688512,49.747763],"type":"Point"},"properties":{"osm_id":"5010920906","tag":{"amenity":"recycling","opening_hours":"24/7","operator":"Malteser Hilfsdienst e.V.","recycling:clothes":"yes","recycling_type":"container","wheelchair":"yes"}},"type":"Feature"},
	{"geometry":{"coordinates":[6.684382,49.75044],"type":"Point"},"properties":{"osm_id":"5071411043","tag":{"amenity":"recycling","opening_hours":"Mo-Sa 07:00-20:00; Su,PH off","operator":"Zweckverband Abfallwirtschaft Region Trier","recycling:glass_bottles":"yes","recycling_type":"container"}},"type":"Feature"},
	{"geometry":{"coordinates":[6.684301,49.737142],"type":"Point"},"properties":{"osm_id":"5111301971","tag":{"amenity":"recycling","opening_hours":"Mo-Sa 07:00-20:00; Su,PH off","operator":"Zweckverband Abfallwirtschaft Region Trier","recycling:glass_bottles":"yes","recycling_type":"container"}},"type":"Feature"},
	{"geometry":{"coordinates":[6.693497,49.740281],"type":"Point"},"properties":{"osm_id":"5111301973","tag":{"amenity":"recycling","recycling:clothes":"yes","recycling:shoes":"yes","recycling_type":"container"}},"type":"Feature"},
	{"geometry":{"coordinates":[6.685885,49.751287],"type":"Point"},"properties":{"osm_id":"5111301979","tag":{"amenity":"recycling","opening_hours":"Mo-Sa 07:00-20:00; Su,PH off","operator":"Zweckverband Abfallwirtschaft Region Trier","recycling:glass_bottles":"yes","recycling_type":"container"}},"type":"Feature"},
	{"geometry":{"coordinates":[6.688546,49.747786],"type":"Point"},"properties":{"osm_id":"5127855307","tag":{"amenity":"recycling","opening_hours":"Mo-Sa 07:00-20:00; Sa,Su,PH off","operator":"Zweckverband Abfallwirtschaft Region Trier","recycling:glass_bottles":"yes","recycling_type":"container"}},"type":"Feature"},
	{"geometry":{"coordinates":[6.686549,49.745515],"type":"Point"},"properties":{"osm_id":"5363905617","tag":{"amenity":"waste_basket"}},"type":"Feature"},
	{"geometry":{"coordinates":[6.686571,49.745677],"type":"Point"},"properties":{"osm_id":"5363905620","tag":{"amenity":"waste_basket"}},"type":"Feature"},
	{"geometry":{"coordinates":[6.686619,49.746329],"type":"Point"},"properties":{"osm_id":"5363907321","tag":{"amenity":"waste_basket"}},"type":"Feature"},
	{"geometry":{"coordinates":[6.695623,49.741425],"type":"Point"},"properties":{"osm_id":"5520618103","tag":{"amenity":"recycling","opening_hours":"Mo-Sa 07:00-20:00; Su,PH off","operator":"Zweckverband Abfallwirtschaft Region Trier","recycling:glass_bottles":"yes","recycling_type":"container"}},"type":"Feature"},
	{"geometry":{"coordinates":[6.703974,49.736746],"type":"Point"},"properties":{"osm_id":"5520777066","tag":{"amenity":"waste_basket"}},"type":"Feature"},
	{"geometry":{"coordinates":[6.689415,49.746036],"type":"Point"},"properties":{"osm_id":"6416265928","tag":{"amenity":"waste_basket"}},"type":"Feature"},
	{"geometry":{"coordinates":[6.689331,49.746123],"type":"Point"},"properties":{"osm_id":"6416265929","tag":{"amenity":"waste_basket"}},"type":"Feature"},
	{"geometry":{"coordinates":[6.687795,49.747247],"type":"Point"},"properties":{"osm_id":"6416265934","tag":{"amenity":"waste_disposal"}},"type":"Feature"},
	{"geometry":{"coordinates":[6.681519,49.749947],"type":"Point"},"properties":{"osm_id":"6965779944","tag":{"amenity":"waste_basket","waste":"trash"}},"type":"Feature"},
	{"geometry":{"coordinates":[6.748689,49.730757],"type":"Point"},"properties":{"osm_id":"7284238344","tag":{"amenity":"recycling","recycling_type":"container"}},"type":"Feature"},
	{"geometry":{"coordinates":[6.688892,49.752278],"type":"Point"},"properties":{"osm_id":"7680986654","tag":{"amenity":"waste_basket","waste":"trash"}},"type":"Feature"},
	{"geometry":{"coordinates":[6.764475,49.727268],"type":"Point"},"properties":{"osm_id":"7780652386","tag":{"amenity":"recycling","recycling:clothes":"yes","recycling_type":"container"}},"type":"Feature"}
]
}
