{
"type": "FeatureCollection",
"features": [
	{"geometry":{"coordinates":[6.72387,49.354558],"type":"Point"},"properties":{"osm_id":"496380320","tag":{"amenity":"recycling","recycling_type":"container"}},"type":"Feature"},
	{"geometry":{"coordinates":[6.713155,49.360586],"type":"Point"},"properties":{"osm_id":"496382729","tag":{"amenity":"recycling"}},"type":"Feature"},
	{"geometry":{"coordinates":[6.718773,49.361272],"type":"Point"},"properties":{"osm_id":"1265601801","tag":{"amenity":"recycling","recycling:glass_bottles":"yes","recycling:paper":"yes","recycling_type":"container"}},"type":"Feature"},
	{"geometry":{"coordinates":[6.755842,49.370043],"type":"Point"},"properties":{"osm_id":"1265653891","tag":{"amenity":"recycling"}},"type":"Feature"},
	{"geometry":{"coordinates":[6.703869,49.382365],"type":"Point"},"properties":{"osm_id":"1297137533","tag":{"amenity":"recycling","recycling_type":"container"}},"type":"Feature"},
	{"geometry":{"coordinates":[6.765447,49.330829],"type":"Point"},"properties":{"osm_id":"1736301998","tag":{"amenity":"recycling","recycling:clothes":"yes","recycling:glass":"yes","recycling_type":"container"}},"type":"Feature"},
	{"geometry":{"coordinates":[6.765369,49.334903],"type":"Point"},"properties":{"osm_id":"1736315893","tag":{"amenity":"recycling","recycling:clothes":"yes","recycling:glass_bottles":"yes","recycling:paper":"yes","recycling_type":"container"}},"type":"Feature"},
	{"geometry":{"coordinates":[6.759674,49.334732],"type":"Point"},"properties":{"osm_id":"1739520707","tag":{"amenity":"recycling","recycling:clothes":"yes","recycling:glass":"yes","recycling:paper":"yes","recycling_type":"container"}},"type":"Feature"},
	{"geometry":{"coordinates":[6.744908,49.340558],"type":"Point"},"properties":{"osm_id":"1793744472","tag":{"amenity":"recycling","recycling:glass":"yes","recycling:paper":"yes"}},"type":"Feature"},
	{"geometry":{"coordinates":[6.74215,49.328571],"type":"Point"},"properties":{"osm_id":"1961374920","tag":{"amenity":"recycling","recycling:glass":"yes","recycling_type":"container"}},"type":"Feature"},
	{"geometry":{"coordinates":[6.757344,49.339246],"type":"Point"},"properties":{"osm_id":"2187851921","tag":{"amenity":"recycling","recycling:clothes":"yes","recycling_type":"container"}},"type":"Feature"},
	{"geometry":{"coordinates":[6.757142,49.339248],"type":"Point"},"properties":{"osm_id":"2187851924","tag":{"amenity":"recycling","recycling:glass":"yes","recycling_type":"container"}},"type":"Feature"},
	{"geometry":{"coordinates":[6.762849,49.367123],"type":"Point"},"properties":{"osm_id":"2378426899","tag":{"amenity":"recycling","recycling:glass":"yes","recycling:paper":"yes","recycling_type":"container"}},"type":"Feature"},
	{"geometry":{"coordinates":[6.741371,49.339893],"type":"Point"},"properties":{"osm_id":"2607922234","tag":{"amenity":"recycling","recycling:clothes":"yes","recycling:glass":"yes","recycling:paper":"yes","recycling_type":"container"}},"type":"Feature"},
	{"geometry":{"coordinates":[6.745652,49.337016],"type":"Point"},"properties":{"osm_id":"2749238156","tag":{"amenity":"recycling","recycling:clothes":"yes","recycling:glass_bottles":"yes","recycling:paper":"no","recycling_type":"container"}},"type":"Feature"},
	{"geometry":{"coordinates":[6.712048,49.349769],"type":"Point"},"properties":{"osm_id":"3799209515","tag":{"amenity":"recycling","recycling:glass_bottles":"yes","recycling:paper":"yes","recycling_type":"container","wheelchair":"yes"}},"type":"Feature"},
	{"geometry":{"coordinates":[6.748579,49.326926],"type":"Point"},"properties":{"osm_id":"4018930051","tag":{"amenity":"recycling","recycling_type":"container"}},"type":"Feature"},
	{"geometry":{"coordinates":[6.737775,49.361112],"type":"Point"},"properties":{"osm_id":"4345424507","tag":{"amenity":"recycling","recycling:clothes":"no","recycling:glass":"yes","recycling:glass_bottles":"yes","recycling:paper":"yes","recycling_type":"container"}},"type":"Feature"},
	{"geometry":{"coordinates":[6.716841,49.358673],"type":"Point"},"properties":{"osm_id":"4345426354","tag":{"amenity":"recycling","recycling:clothes":"no","recycling:glass_bottles":"yes","recycling:paper":"no","recycling_type":"container"}},"type":"Feature"},
	{"geometry":{"coordinates":[6.718998,49.355599],"type":"Point"},"properties":{"osm_id":"4345428520","tag":{"amenity":"recycling","recycling:glass":"yes","recycling:paper":"yes","recycling_type":"container"}},"type":"Feature"},
	{"geometry":{"coordinates":[6.736587,49.359166],"type":"Point"},"properties":{"osm_id":"4345433994","tag":{"amenity":"recycling","recycling:clothes":"yes","recycling:glass_bottles":"yes","recycling:paper":"yes","recycling_type":"container"}},"type":"Feature"},
	{"geometry":{"coordinates":[6.756804,49.371622],"type":"Point"},"properties":{"osm_id":"4950481828","tag":{"amenity":"recycling","recycling:glass":"yes","recycling:paper":"yes","recycling_type":"container"}},"type":"Feature"},
	{"geometry":{"coordinates":[6.762992,49.371073],"type":"Point"},"properties":{"osm_id":"4950491022","tag":{"amenity":"recycling","recycling:glass":"yes","recycling:paper":"yes","recycling_type":"container"}},"type":"Feature"},
	{"geometry":{"coordinates":[6.750815,49.327402],"type":"Point"},"properties":{"osm_id":"6179566269","tag":{"amenity":"waste_basket","waste":"trash"}},"type":"Feature"},
	{"geometry":{"coordinates":[6.693769,49.372056],"type":"Point"},"properties":{"osm_id":"6388537658","tag":{"amenity":"recycling","recycling:clothes":"yes","recycling_type":"container"}},"type":"Feature"},
	{"geometry":{"coordinates":[6.69377,49.372025],"type":"Point"},"properties":{"osm_id":"6388537659","tag":{"amenity":"recycling","recycling:clothes":"yes","recycling_type":"container"}},"type":"Feature"},
	{"geometry":{"coordinates":[6.693744,49.371912],"type":"Point"},"properties":{"osm_id":"6388537660","tag":{"amenity":"recycling","recycling:glass_bottles":"yes","recycling_type":"container"}},"type":"Feature"},
	{"geometry":{"coordinates":[6.693744,49.371888],"type":"Point"},"properties":{"osm_id":"6388537661","tag":{"amenity":"recycling","recycling:glass":"yes","recycling_type":"container"}},"type":"Feature"},
	{"geometry":{"coordinates":[6.693745,49.371866],"type":"Point"},"properties":{"osm_id":"6388537662","tag":{"amenity":"recycling","recycling:glass":"yes","recycling_type":"container"}},"type":"Feature"},
	{"geometry":{"coordinates":[6.693746,49.371843],"type":"Point"},"properties":{"osm_id":"6388537663","tag":{"amenity":"recycling","recycling:glass":"yes","recycling_type":"container"}},"type":"Feature"},
	{"geometry":{"coordinates":[6.693747,49.371821],"type":"Point"},"properties":{"osm_id":"6388537664","tag":{"amenity":"recycling","recycling:paper":"yes","recycling_type":"container"}},"type":"Feature"},
	{"geometry":{"coordinates":[6.693748,49.371801],"type":"Point"},"properties":{"osm_id":"6388537665","tag":{"amenity":"recycling","recycling:paper":"yes","recycling_type":"container"}},"type":"Feature"},
	{"geometry":{"coordinates":[6.693747,49.371779],"type":"Point"},"properties":{"osm_id":"6388537666","tag":{"amenity":"recycling","recycling:paper":"yes","recycling_type":"container"}},"type":"Feature"},
	{"geometry":{"coordinates":[6.693748,49.371761],"type":"Point"},"properties":{"osm_id":"6388537667","tag":{"amenity":"recycling","recycling:paper":"yes","recycling_type":"container"}},"type":"Feature"},
	{"geometry":{"coordinates":[6.729004,49.360907],"type":"Point"},"properties":{"osm_id":"7364695325","tag":{"amenity":"waste_basket"}},"type":"Feature"},
	{"geometry":{"coordinates":[6.721107,49.361164],"type":"Point"},"properties":{"osm_id":"7364695368","tag":{"amenity":"waste_basket"}},"type":"Feature"},
	{"geometry":{"coordinates":[6.723839,49.354578],"type":"Point"},"properties":{"osm_id":"7367376561","tag":{"amenity":"recycling","recycling:shoes":"yes","recycling_type":"container"}},"type":"Feature"},
	{"geometry":{"coordinates":[6.729117,49.351526],"type":"Point"},"properties":{"osm_id":"7367585024","tag":{"amenity":"waste_basket"}},"type":"Feature"},
	{"geometry":{"coordinates":[6.717052,49.346473],"type":"Point"},"properties":{"osm_id":"7368687909","tag":{"amenity":"waste_basket"}},"type":"Feature"},
	{"geometry":{"coordinates":[6.71682,49.346365],"type":"Point"},"properties":{"osm_id":"7368687910","tag":{"amenity":"recycling","recycling:clothes":"yes","recycling:glass_bottles":"yes","recycling:paper":"yes","recycling_type":"container"}},"type":"Feature"},
	{"geometry":{"coordinates":[6.721749,49.345384],"type":"Point"},"properties":{"osm_id":"7368687911","tag":{"amenity":"recycling","recycling:clothes":"yes","recycling_type":"container"}},"type":"Feature"},
	{"geometry":{"coordinates":[6.717303,49.343252],"type":"Point"},"properties":{"osm_id":"7368719711","tag":{"amenity":"recycling","recycling:clothes":"yes","recycling:glass_bottles":"yes","recycling:paper":"yes","recycling_type":"container"}},"type":"Feature"},
	{"geometry":{"coordinates":[6.720841,49.349823],"type":"Point"},"properties":{"osm_id":"7369500112","tag":{"amenity":"waste_basket"}},"type":"Feature"},
	{"geometry":{"coordinates":[6.708223,49.35844],"type":"Point"},"properties":{"osm_id":"7394332900","tag":{"amenity":"waste_basket"}},"type":"Feature"},
	{"geometry":{"coordinates":[6.708795,49.35907],"type":"Point"},"properties":{"osm_id":"7394332905","tag":{"amenity":"waste_basket"}},"type":"Feature"},
	{"geometry":{"coordinates":[6.709056,49.359307],"type":"Point"},"properties":{"osm_id":"7394332910","tag":{"amenity":"waste_basket"}},"type":"Feature"},
	{"geometry":{"coordinates":[6.710251,49.361248],"type":"Point"},"properties":{"osm_id":"7394332911","tag":{"amenity":"waste_basket"}},"type":"Feature"},
	{"geometry":{"coordinates":[6.710227,49.361507],"type":"Point"},"properties":{"osm_id":"7394332912","tag":{"amenity":"waste_basket"}},"type":"Feature"},
	{"geometry":{"coordinates":[6.714765,49.357641],"type":"Point"},"properties":{"osm_id":"7394454806","tag":{"amenity":"recycling","recycling:glass_bottles":"yes","recycling:paper":"yes","recycling_type":"container"}},"type":"Feature"},
	{"geometry":{"coordinates":[6.71165,49.355206],"type":"Point"},"properties":{"osm_id":"7394669681","tag":{"amenity":"waste_basket"}},"type":"Feature"},
	{"geometry":{"coordinates":[6.713252,49.353812],"type":"Point"},"properties":{"osm_id":"7397228638","tag":{"amenity":"waste_basket"}},"type":"Feature"},
	{"geometry":{"coordinates":[6.708041,49.346839],"type":"Point"},"properties":{"osm_id":"7397870612","tag":{"amenity":"waste_basket"}},"type":"Feature"},
	{"geometry":{"coordinates":[6.708545,49.346896],"type":"Point"},"properties":{"osm_id":"7397870613","tag":{"amenity":"waste_basket"}},"type":"Feature"},
	{"geometry":{"coordinates":[6.709447,49.346798],"type":"Point"},"properties":{"osm_id":"7397870614","tag":{"amenity":"recycling","recycling:clothes":"yes","recycling_type":"container"}},"type":"Feature"},
	{"geometry":{"coordinates":[6.715382,49.34822],"type":"Point"},"properties":{"osm_id":"7397870671","tag":{"amenity":"waste_basket"}},"type":"Feature"},
	{"geometry":{"coordinates":[6.71691,49.348784],"type":"Point"},"properties":{"osm_id":"7397870678","tag":{"amenity":"waste_basket"}},"type":"Feature"},
	{"geometry":{"coordinates":[6.714058,49.350602],"type":"Point"},"properties":{"osm_id":"7397870701","tag":{"amenity":"waste_basket"}},"type":"Feature"},
	{"geometry":{"coordinates":[6.713971,49.350935],"type":"Point"},"properties":{"osm_id":"7397870706","tag":{"amenity":"waste_basket"}},"type":"Feature"},
	{"geometry":{"coordinates":[6.707515,49.349308],"type":"Point"},"properties":{"osm_id":"7397870738","tag":{"amenity":"waste_basket"}},"type":"Feature"},
	{"geometry":{"coordinates":[6.706931,49.349313],"type":"Point"},"properties":{"osm_id":"7397870739","tag":{"amenity":"waste_basket"}},"type":"Feature"},
	{"geometry":{"coordinates":[6.703111,49.348072],"type":"Point"},"properties":{"osm_id":"7397921736","tag":{"amenity":"waste_basket"}},"type":"Feature"},
	{"geometry":{"coordinates":[6.702254,49.330001],"type":"Point"},"properties":{"osm_id":"7824353994","tag":{"amenity":"recycling","recycling:glass_bottles":"yes","recycling:paper":"yes","recycling_type":"container"}},"type":"Feature"},
	{"geometry":{"coordinates":[6.695511,49.329055],"type":"Point"},"properties":{"osm_id":"7826821746","tag":{"amenity":"recycling","recycling:glass_bottles":"yes","recycling:paper":"yes","recycling_type":"container"}},"type":"Feature"},
	{"geometry":{"coordinates":[6.691921,49.327152],"type":"Point"},"properties":{"osm_id":"7827467255","tag":{"amenity":"recycling","recycling:glass_bottles":"yes","recycling:paper":"yes","recycling_type":"container"}},"type":"Feature"},
	{"geometry":{"coordinates":[6.715769,49.328959],"type":"Point"},"properties":{"osm_id":"7830487956","tag":{"amenity":"recycling","recycling:clothes":"yes","recycling:glass_bottles":"yes","recycling:paper":"yes","recycling_type":"container"}},"type":"Feature"},
	{"geometry":{"coordinates":[6.716961,49.328232],"type":"Point"},"properties":{"osm_id":"7830487964","tag":{"amenity":"recycling","recycling:glass_bottles":"yes","recycling:paper":"yes","recycling_type":"container"}},"type":"Feature"},
	{"geometry":{"coordinates":[6.689504,49.329987],"type":"Point"},"properties":{"osm_id":"7834556148","tag":{"amenity":"waste_basket"}},"type":"Feature"}
]
}
