{
"type": "FeatureCollection",
"features": [
	{"geometry":{"coordinates":[6.683268,47.530484],"type":"Point"},"properties":{"name":"D\u00c3\u00a9ch\u00c3\u00a8terie de D\u00c3\u00a9sandans","osm_id":"555071514","tag":{"amenity":"recycling","recycling:green_waste":"yes","recycling_type":"centre"}},"type":"Feature"},
	{"geometry":{"coordinates":[6.701547,47.549714],"type":"Point"},"properties":{"osm_id":"2788146495","tag":{"amenity":"recycling","recycling:clothes":"yes","recycling:glass":"yes","recycling:paper":"yes"}},"type":"Feature"},
	{"geometry":{"coordinates":[6.695701,47.55331],"type":"Point"},"properties":{"osm_id":"2803816727","tag":{"amenity":"recycling","recycling:cans":"no","recycling:clothes":"no","recycling:glass":"yes","recycling:paper":"no"}},"type":"Feature"},
	{"geometry":{"coordinates":[6.699854,47.542871],"type":"Point"},"properties":{"osm_id":"2810111779","tag":{"amenity":"recycling","recycling:glass":"yes","recycling:paper":"yes"}},"type":"Feature"},
	{"geometry":{"coordinates":[6.72706,47.535071],"type":"Point"},"properties":{"osm_id":"4663211877","tag":{"amenity":"recycling","recycling:glass":"yes","recycling_type":"container"}},"type":"Feature"},
	{"geometry":{"coordinates":[6.69714,47.523641],"type":"Point"},"properties":{"osm_id":"7305979409","tag":{"amenity":"waste_disposal","operator":"PMA"}},"type":"Feature"}
]
}
