{
"type": "FeatureCollection",
"features": [
	{"geometry":{"coordinates":[6.688892,46.501359],"type":"Point"},"properties":{"osm_id":"265614521","tag":{"amenity":"recycling","location":"underground","recycling:aluminium":"yes","recycling:batteries":"yes","recycling:cans":"yes","recycling:glass":"yes","recycling:glass_bottles":"yes","recycling:plastic_bottles":"yes","recycling:scrap_metal":"yes","recycling_type":"container"}},"type":"Feature"},
	{"geometry":{"coordinates":[6.681233,46.512989],"type":"Point"},"properties":{"name":"Ecopoint","osm_id":"268638654","tag":{"amenity":"recycling","location":"underground","operator":"Commune de Lutry","recycling:aluminium":"yes","recycling:batteries":"yes","recycling:cans":"yes","recycling:clothes":"yes","recycling:glass":"yes","recycling:glass_bottles":"yes","recycling:plastic_bottles":"yes","recycling:scrap_metal":"yes","recycling:shoes":"yes","recycling_type":"container"}},"type":"Feature"},
	{"geometry":{"coordinates":[6.693666,46.506985],"type":"Point"},"properties":{"name":"Ecopoint de Savuit","osm_id":"269218404","tag":{"amenity":"recycling","operator":"Commune de Lutry","recycling:aluminium":"yes","recycling:batteries":"yes","recycling:cans":"yes","recycling:glass":"yes","recycling:glass_bottles":"yes","recycling:paper":"yes","recycling:scrap_metal":"yes"}},"type":"Feature"},
	{"geometry":{"coordinates":[6.700195,46.514955],"type":"Point"},"properties":{"osm_id":"269218619","tag":{"amenity":"recycling","building":"no","recycling_type":"centre"}},"type":"Feature"},
	{"geometry":{"coordinates":[6.707154,46.507368],"type":"Point"},"properties":{"osm_id":"279858804","tag":{"amenity":"recycling"}},"type":"Feature"},
	{"geometry":{"coordinates":[6.71171,46.50356],"type":"Point"},"properties":{"osm_id":"294666332","tag":{"amenity":"recycling","recycling:glass":"yes","recycling:pet":"yes"}},"type":"Feature"},
	{"geometry":{"coordinates":[6.699629,46.524575],"type":"Point"},"properties":{"osm_id":"414178829","tag":{"amenity":"recycling","recycling:clothes":"yes","recycling:glass":"yes","recycling:pet":"yes"}},"type":"Feature"},
	{"geometry":{"coordinates":[6.692108,46.533249],"type":"Point"},"properties":{"osm_id":"414204142","tag":{"amenity":"recycling","recycling:glass":"yes","recycling:pet":"yes"}},"type":"Feature"},
	{"geometry":{"coordinates":[6.687822,46.525885],"type":"Point"},"properties":{"name":"Ecopoint Chemin des Dailles","osm_id":"414225658","tag":{"addr:city":"Belmont-sur-Lausanne","addr:postcode":"1092","addr:street":"Chemin des Dailles","amenity":"recycling","opening_hours":"Mo-Su 08:00-20:00","recycling:glass":"yes","recycling:organic":"yes","recycling:pet":"yes","recycling_type":"centre"}},"type":"Feature"},
	{"geometry":{"coordinates":[6.684678,46.510274],"type":"Point"},"properties":{"osm_id":"414227254","tag":{"amenity":"recycling","recycling:paper":"yes"}},"type":"Feature"},
	{"geometry":{"coordinates":[6.684375,46.520189],"type":"Point"},"properties":{"name":"Ecopoint Chemin de la Le\u00cc\u0081chire","osm_id":"700334437","tag":{"addr:city":"Belmont-sur-Lausanne","addr:housenumber":"1","addr:postcode":"1092","addr:street":"Chemin de la L\u00c3\u00a9chire","amenity":"recycling","opening_hours":"Mo-Sa 08:00-20:00","recycling:batteries":"yes","recycling:cans":"yes","recycling:clothes":"yes","recycling:fer_blanc":"yes","recycling:glass":"yes","recycling:glass_bottles":"yes","recycling:nespresso":"yes","recycling:organic":"yes","recycling:paper":"yes","recycling:pet":"yes","recycling:plastic":"yes","recycling:scrap_metal":"yes","recycling_type":"centre"}},"type":"Feature"},
	{"geometry":{"coordinates":[6.688758,46.504344],"type":"Point"},"properties":{"osm_id":"1187356650","tag":{"amenity":"recycling","location":"overground","recycling_type":"container"}},"type":"Feature"},
	{"geometry":{"coordinates":[6.684283,46.504385],"type":"Point"},"properties":{"osm_id":"1187356696","tag":{"amenity":"recycling"}},"type":"Feature"},
	{"geometry":{"coordinates":[6.684257,46.522533],"type":"Point"},"properties":{"osm_id":"1244775668","tag":{"amenity":"waste_basket"}},"type":"Feature"},
	{"geometry":{"coordinates":[6.708889,46.505413],"type":"Point"},"properties":{"osm_id":"4159785503","tag":{"amenity":"waste_basket"}},"type":"Feature"},
	{"geometry":{"coordinates":[6.709117,46.505214],"type":"Point"},"properties":{"osm_id":"4159806617","tag":{"amenity":"waste_basket"}},"type":"Feature"},
	{"geometry":{"coordinates":[6.70924,46.505092],"type":"Point"},"properties":{"osm_id":"4159806618","tag":{"amenity":"waste_basket"}},"type":"Feature"},
	{"geometry":{"coordinates":[6.709028,46.50499],"type":"Point"},"properties":{"osm_id":"4159806619","tag":{"amenity":"waste_basket"}},"type":"Feature"},
	{"geometry":{"coordinates":[6.709008,46.504924],"type":"Point"},"properties":{"osm_id":"4159806620","tag":{"amenity":"waste_basket"}},"type":"Feature"},
	{"geometry":{"coordinates":[6.708969,46.505363],"type":"Point"},"properties":{"osm_id":"4159806621","tag":{"amenity":"waste_basket"}},"type":"Feature"},
	{"geometry":{"coordinates":[6.708843,46.505162],"type":"Point"},"properties":{"osm_id":"4159806623","tag":{"amenity":"waste_basket"}},"type":"Feature"},
	{"geometry":{"coordinates":[6.709243,46.50535],"type":"Point"},"properties":{"osm_id":"4159806624","tag":{"amenity":"waste_basket"}},"type":"Feature"},
	{"geometry":{"coordinates":[6.709412,46.505173],"type":"Point"},"properties":{"osm_id":"4159806625","tag":{"amenity":"waste_basket"}},"type":"Feature"},
	{"geometry":{"coordinates":[6.708532,46.505269],"type":"Point"},"properties":{"osm_id":"4159819184","tag":{"amenity":"waste_basket"}},"type":"Feature"},
	{"geometry":{"coordinates":[6.708797,46.505009],"type":"Point"},"properties":{"osm_id":"4159819185","tag":{"amenity":"waste_basket"}},"type":"Feature"},
	{"geometry":{"coordinates":[6.708661,46.504974],"type":"Point"},"properties":{"osm_id":"4159819186","tag":{"amenity":"waste_basket"}},"type":"Feature"},
	{"geometry":{"coordinates":[6.708408,46.505229],"type":"Point"},"properties":{"osm_id":"4159819188","tag":{"amenity":"waste_basket"}},"type":"Feature"},
	{"geometry":{"coordinates":[6.708529,46.505098],"type":"Point"},"properties":{"osm_id":"4159820689","tag":{"amenity":"waste_basket"}},"type":"Feature"},
	{"geometry":{"coordinates":[6.708575,46.505428],"type":"Point"},"properties":{"osm_id":"4159820691","tag":{"amenity":"waste_basket"}},"type":"Feature"},
	{"geometry":{"coordinates":[6.683684,46.503615],"type":"Point"},"properties":{"name":"Ecopoint de la Combe","osm_id":"4200543783","tag":{"amenity":"recycling","location":"underground","opening_hours":"Mo-Fr 08:00-20:00","operator":"Commune de Lutry","recycling:aluminium":"yes","recycling:batteries":"yes","recycling:cans":"yes","recycling:clothes":"yes","recycling:glass":"yes","recycling:glass_bottles":"yes","recycling:paper":"yes","recycling:plastic_bottles":"yes","recycling:shoes":"yes","recycling_type":"container"}},"type":"Feature"},
	{"geometry":{"coordinates":[6.68269,46.505143],"type":"Point"},"properties":{"name":"Ecopoint de Taillepied","osm_id":"4200596677","tag":{"amenity":"recycling","location":"underground","operator":"Commune de Lutry","recycling:aluminium":"yes","recycling:batteries":"yes","recycling:cans":"yes","recycling:clothes":"yes","recycling:plastic_bottles":"yes","recycling:shoes":"yes","recycling_type":"container"}},"type":"Feature"},
	{"geometry":{"coordinates":[6.696285,46.502115],"type":"Point"},"properties":{"name":"Ecopoint","osm_id":"4269402479","tag":{"amenity":"recycling","location":"overground","operator":"Commune de Lutry","recycling:aluminium":"yes","recycling:batteries":"yes","recycling:cans":"yes","recycling:glass":"yes","recycling:glass_bottles":"yes","recycling:plastic_bottles":"yes","recycling_type":"container"}},"type":"Feature"},
	{"geometry":{"coordinates":[6.710166,46.505678],"type":"Point"},"properties":{"osm_id":"4383856762","tag":{"amenity":"waste_basket"}},"type":"Feature"},
	{"geometry":{"coordinates":[6.710005,46.506021],"type":"Point"},"properties":{"osm_id":"4383856764","tag":{"amenity":"waste_basket"}},"type":"Feature"},
	{"geometry":{"coordinates":[6.710718,46.505283],"type":"Point"},"properties":{"osm_id":"4383856765","tag":{"amenity":"waste_basket"}},"type":"Feature"},
	{"geometry":{"coordinates":[6.7104,46.505275],"type":"Point"},"properties":{"osm_id":"4383856766","tag":{"amenity":"waste_basket"}},"type":"Feature"},
	{"geometry":{"coordinates":[6.709624,46.50498],"type":"Point"},"properties":{"osm_id":"4383856767","tag":{"amenity":"recycling","recycling:cans":"no","recycling:clothes":"no","recycling:glass":"no","recycling:glass_bottles":"yes","recycling:paper":"no","recycling:plastic":"no","recycling_type":"container"}},"type":"Feature"},
	{"geometry":{"coordinates":[6.710665,46.505105],"type":"Point"},"properties":{"osm_id":"4383856771","tag":{"amenity":"waste_basket"}},"type":"Feature"},
	{"geometry":{"coordinates":[6.710571,46.505424],"type":"Point"},"properties":{"osm_id":"4383856772","tag":{"amenity":"waste_basket"}},"type":"Feature"},
	{"geometry":{"coordinates":[6.710422,46.505366],"type":"Point"},"properties":{"osm_id":"4383856779","tag":{"amenity":"waste_basket"}},"type":"Feature"},
	{"geometry":{"coordinates":[6.709883,46.505004],"type":"Point"},"properties":{"osm_id":"4383856780","tag":{"amenity":"recycling","recycling:cans":"no","recycling:clothes":"no","recycling:glass":"no","recycling:glass_bottles":"yes","recycling:paper":"no","recycling:plastic":"no","recycling_type":"container"}},"type":"Feature"},
	{"geometry":{"coordinates":[6.710968,46.505195],"type":"Point"},"properties":{"osm_id":"4383856784","tag":{"amenity":"waste_basket"}},"type":"Feature"},
	{"geometry":{"coordinates":[6.709965,46.505832],"type":"Point"},"properties":{"osm_id":"4383856785","tag":{"amenity":"waste_basket"}},"type":"Feature"},
	{"geometry":{"coordinates":[6.710289,46.505486],"type":"Point"},"properties":{"osm_id":"4383856786","tag":{"amenity":"waste_basket"}},"type":"Feature"},
	{"geometry":{"coordinates":[6.709914,46.505018],"type":"Point"},"properties":{"osm_id":"4383856787","tag":{"amenity":"waste_basket"}},"type":"Feature"},
	{"geometry":{"coordinates":[6.70889,46.504087],"type":"Point"},"properties":{"osm_id":"4383856788","tag":{"amenity":"waste_basket"}},"type":"Feature"},
	{"geometry":{"coordinates":[6.710228,46.505796],"type":"Point"},"properties":{"osm_id":"4383856792","tag":{"amenity":"waste_basket"}},"type":"Feature"},
	{"geometry":{"coordinates":[6.710461,46.505417],"type":"Point"},"properties":{"osm_id":"4383856793","tag":{"amenity":"waste_basket"}},"type":"Feature"},
	{"geometry":{"coordinates":[6.709859,46.505045],"type":"Point"},"properties":{"osm_id":"4383856794","tag":{"amenity":"waste_basket"}},"type":"Feature"},
	{"geometry":{"coordinates":[6.71031,46.505662],"type":"Point"},"properties":{"osm_id":"4383856797","tag":{"amenity":"waste_basket"}},"type":"Feature"},
	{"geometry":{"coordinates":[6.709726,46.50605],"type":"Point"},"properties":{"osm_id":"4383856799","tag":{"amenity":"waste_basket"}},"type":"Feature"},
	{"geometry":{"coordinates":[6.710618,46.505278],"type":"Point"},"properties":{"osm_id":"4383856800","tag":{"amenity":"waste_basket"}},"type":"Feature"},
	{"geometry":{"coordinates":[6.709571,46.506226],"type":"Point"},"properties":{"osm_id":"4384950570","tag":{"amenity":"waste_basket"}},"type":"Feature"},
	{"geometry":{"coordinates":[6.709799,46.5062],"type":"Point"},"properties":{"osm_id":"4384950571","tag":{"amenity":"waste_basket"}},"type":"Feature"},
	{"geometry":{"coordinates":[6.696373,46.502097],"type":"Point"},"properties":{"osm_id":"5325898259","tag":{"amenity":"waste_basket","fee":"no","vending":"excrement_bags"}},"type":"Feature"},
	{"geometry":{"coordinates":[6.680009,46.519728],"type":"Point"},"properties":{"osm_id":"5598946680","tag":{"amenity":"waste_disposal"}},"type":"Feature"},
	{"geometry":{"coordinates":[6.685569,46.523637],"type":"Point"},"properties":{"osm_id":"5604303040","tag":{"amenity":"waste_basket"}},"type":"Feature"},
	{"geometry":{"coordinates":[6.685,46.523244],"type":"Point"},"properties":{"osm_id":"5604303041","tag":{"amenity":"waste_basket"}},"type":"Feature"},
	{"geometry":{"coordinates":[6.681048,46.524393],"type":"Point"},"properties":{"name":"Dep\u00c3\u00b4t Voirie","osm_id":"5754306883","tag":{"addr:city":"Belmont-sur-Lausanne","addr:housenumber":"80","addr:postcode":"1092","addr:street":"Route d'Arnier","amenity":"recycling","opening_hours":"Mo-Sa 08:00-20:00","recycling:bottles":"yes","recycling:clothes":"yes","recycling:cooking_oil":"yes","recycling:green_waste":"yes","recycling:mineral_oil":"yes","recycling:oils":"yes","recycling:organic":"yes","recycling:pet":"yes","recycling:shoes":"yes","recycling_type":"centre"}},"type":"Feature"},
	{"geometry":{"coordinates":[6.716441,46.510373],"type":"Point"},"properties":{"osm_id":"6350385907","tag":{"amenity":"recycling","recycling:magazines":"yes","recycling:newspaper":"yes","recycling:paper":"yes","recycling_type":"container"}},"type":"Feature"},
	{"geometry":{"coordinates":[6.716495,46.510319],"type":"Point"},"properties":{"osm_id":"6350385908","tag":{"amenity":"recycling","recycling:cans":"yes","recycling_type":"container"}},"type":"Feature"},
	{"geometry":{"coordinates":[6.716517,46.51034],"type":"Point"},"properties":{"osm_id":"6350385909","tag":{"amenity":"recycling","recycling:glass_bottles":"yes","recycling_type":"container"}},"type":"Feature"},
	{"geometry":{"coordinates":[6.716469,46.510336],"type":"Point"},"properties":{"osm_id":"6350385910","tag":{"amenity":"recycling","recycling:aluminium":"yes","recycling_type":"container"}},"type":"Feature"},
	{"geometry":{"coordinates":[6.716489,46.510356],"type":"Point"},"properties":{"osm_id":"6350385911","tag":{"amenity":"recycling","recycling:plastic_bottles":"yes","recycling_type":"container"}},"type":"Feature"},
	{"geometry":{"coordinates":[6.70871,46.504166],"type":"Point"},"properties":{"osm_id":"6425236193","tag":{"amenity":"waste_basket"}},"type":"Feature"},
	{"geometry":{"coordinates":[6.708702,46.504293],"type":"Point"},"properties":{"osm_id":"6425236194","tag":{"amenity":"waste_basket"}},"type":"Feature"},
	{"geometry":{"coordinates":[6.70866,46.504256],"type":"Point"},"properties":{"osm_id":"6425236195","tag":{"amenity":"waste_basket"}},"type":"Feature"},
	{"geometry":{"coordinates":[6.68388,46.554016],"type":"Point"},"properties":{"osm_id":"6595200131","tag":{"amenity":"recycling","material":"metal","recycling_type":"container"}},"type":"Feature"},
	{"geometry":{"coordinates":[6.730432,46.540052],"type":"Point"},"properties":{"osm_id":"7360406322","tag":{"amenity":"waste_basket"}},"type":"Feature"},
	{"geometry":{"coordinates":[6.739147,46.543356],"type":"Point"},"properties":{"osm_id":"7360429779","tag":{"amenity":"waste_basket"}},"type":"Feature"}
]
}
