{
"type": "FeatureCollection",
"features": [
	{"geometry":{"coordinates":[6.723635,46.082522],"type":"Point"},"properties":{"osm_id":"1389947878","tag":{"amenity":"waste_basket"}},"type":"Feature"},
	{"geometry":{"coordinates":[6.726951,46.085473],"type":"Point"},"properties":{"osm_id":"1389947887","tag":{"amenity":"waste_basket"}},"type":"Feature"},
	{"geometry":{"coordinates":[6.724944,46.083489],"type":"Point"},"properties":{"osm_id":"1389947901","tag":{"amenity":"waste_basket"}},"type":"Feature"},
	{"geometry":{"coordinates":[6.728931,46.083319],"type":"Point"},"properties":{"osm_id":"1389947934","tag":{"amenity":"recycling","recycling:glass_bottles":"yes","recycling_type":"container"}},"type":"Feature"},
	{"geometry":{"coordinates":[6.727471,46.082942],"type":"Point"},"properties":{"osm_id":"1389947961","tag":{"amenity":"waste_basket"}},"type":"Feature"},
	{"geometry":{"coordinates":[6.726879,46.085659],"type":"Point"},"properties":{"osm_id":"1389947978","tag":{"amenity":"waste_basket"}},"type":"Feature"},
	{"geometry":{"coordinates":[6.72628,46.084926],"type":"Point"},"properties":{"osm_id":"1389947996","tag":{"amenity":"waste_basket"}},"type":"Feature"},
	{"geometry":{"coordinates":[6.727809,46.083105],"type":"Point"},"properties":{"osm_id":"1389948009","tag":{"amenity":"waste_basket"}},"type":"Feature"},
	{"geometry":{"coordinates":[6.726487,46.084329],"type":"Point"},"properties":{"osm_id":"1389948015","tag":{"amenity":"waste_basket"}},"type":"Feature"},
	{"geometry":{"coordinates":[6.713702,46.078067],"type":"Point"},"properties":{"osm_id":"1393546275","tag":{"amenity":"waste_basket"}},"type":"Feature"},
	{"geometry":{"coordinates":[6.718964,46.076414],"type":"Point"},"properties":{"osm_id":"1393546296","tag":{"amenity":"waste_basket"}},"type":"Feature"},
	{"geometry":{"coordinates":[6.725598,46.083734],"type":"Point"},"properties":{"osm_id":"1393546369","tag":{"amenity":"waste_basket"}},"type":"Feature"},
	{"geometry":{"coordinates":[6.713133,46.079432],"type":"Point"},"properties":{"osm_id":"1393546470","tag":{"amenity":"waste_basket"}},"type":"Feature"},
	{"geometry":{"coordinates":[6.730728,46.079868],"type":"Point"},"properties":{"osm_id":"1393546495","tag":{"amenity":"waste_basket"}},"type":"Feature"},
	{"geometry":{"coordinates":[6.726156,46.083395],"type":"Point"},"properties":{"osm_id":"1393546580","tag":{"amenity":"waste_basket"}},"type":"Feature"},
	{"geometry":{"coordinates":[6.734097,46.083318],"type":"Point"},"properties":{"osm_id":"1393546690","tag":{"amenity":"recycling","recycling:glass_bottles":"yes","recycling_type":"container"}},"type":"Feature"},
	{"geometry":{"coordinates":[6.709083,46.079992],"type":"Point"},"properties":{"osm_id":"1393546699","tag":{"amenity":"waste_basket"}},"type":"Feature"},
	{"geometry":{"coordinates":[6.728007,46.083878],"type":"Point"},"properties":{"osm_id":"1393546701","tag":{"amenity":"waste_basket"}},"type":"Feature"},
	{"geometry":{"coordinates":[6.726977,46.083558],"type":"Point"},"properties":{"osm_id":"1393546820","tag":{"amenity":"waste_basket"}},"type":"Feature"},
	{"geometry":{"coordinates":[6.728948,46.083353],"type":"Point"},"properties":{"osm_id":"1393546832","tag":{"amenity":"recycling","recycling:paper":"yes","recycling_type":"container"}},"type":"Feature"},
	{"geometry":{"coordinates":[6.730229,46.079436],"type":"Point"},"properties":{"osm_id":"1401047149","tag":{"amenity":"waste_basket"}},"type":"Feature"},
	{"geometry":{"coordinates":[6.713341,46.102331],"type":"Point"},"properties":{"osm_id":"1401047207","tag":{"amenity":"recycling","recycling:glass_bottles":"yes","recycling_type":"container"}},"type":"Feature"},
	{"geometry":{"coordinates":[6.72116,46.098351],"type":"Point"},"properties":{"osm_id":"1401047287","tag":{"amenity":"waste_basket"}},"type":"Feature"},
	{"geometry":{"coordinates":[6.713264,46.102344],"type":"Point"},"properties":{"osm_id":"1401047303","tag":{"amenity":"waste_basket"}},"type":"Feature"},
	{"geometry":{"coordinates":[6.734097,46.083323],"type":"Point"},"properties":{"osm_id":"1401175650","tag":{"amenity":"waste_basket"}},"type":"Feature"},
	{"geometry":{"coordinates":[6.720646,46.084757],"type":"Point"},"properties":{"osm_id":"1403567944","tag":{"amenity":"waste_basket"}},"type":"Feature"},
	{"geometry":{"coordinates":[6.72375,46.084536],"type":"Point"},"properties":{"osm_id":"1403567974","tag":{"amenity":"recycling","recycling:glass_bottles":"yes","recycling_type":"container"}},"type":"Feature"},
	{"geometry":{"coordinates":[6.720592,46.084737],"type":"Point"},"properties":{"osm_id":"1403568038","tag":{"amenity":"recycling","recycling:cans":"yes","recycling_type":"container"}},"type":"Feature"},
	{"geometry":{"coordinates":[6.716249,46.08579],"type":"Point"},"properties":{"osm_id":"2885575993","tag":{"amenity":"recycling","recycling:cans":"yes","recycling:glass_bottles":"yes","recycling:paper":"yes","recycling_type":"container"}},"type":"Feature"},
	{"geometry":{"coordinates":[6.722473,46.083979],"type":"Point"},"properties":{"osm_id":"3987099185","tag":{"amenity":"recycling","recycling_type":"container"}},"type":"Feature"},
	{"geometry":{"coordinates":[6.722053,46.077137],"type":"Point"},"properties":{"osm_id":"4199632489","tag":{"amenity":"waste_basket"}},"type":"Feature"},
	{"geometry":{"coordinates":[6.727146,46.080365],"type":"Point"},"properties":{"osm_id":"4199984844","tag":{"amenity":"waste_basket"}},"type":"Feature"},
	{"geometry":{"coordinates":[6.714859,46.080013],"type":"Point"},"properties":{"osm_id":"4247454372","tag":{"amenity":"waste_basket"}},"type":"Feature"},
	{"geometry":{"coordinates":[6.732858,46.079063],"type":"Point"},"properties":{"osm_id":"4456516776","tag":{"amenity":"recycling","mapillary":"ekFaXyDjEa6D3xOjahZT9Q","recycling:cardboard":"yes","recycling:glass_bottles":"yes","recycling:paper":"yes","recycling:plastic":"yes","recycling:plastic_bottles":"yes","recycling:plastic_packaging":"yes","recycling:waste":"yes","recycling_type":"container"}},"type":"Feature"},
	{"geometry":{"coordinates":[6.719485,46.076355],"type":"Point"},"properties":{"osm_id":"5660458559","tag":{"amenity":"waste_basket"}},"type":"Feature"},
	{"geometry":{"coordinates":[6.730693,46.079777],"type":"Point"},"properties":{"osm_id":"5827039785","tag":{"amenity":"waste_basket"}},"type":"Feature"},
	{"geometry":{"coordinates":[6.728867,46.079744],"type":"Point"},"properties":{"osm_id":"5828951324","tag":{"amenity":"recycling","recycling:clothes":"no","recycling:glass_bottles":"yes","recycling_type":"container"}},"type":"Feature"},
	{"geometry":{"coordinates":[6.703175,46.085797],"type":"Point"},"properties":{"osm_id":"6753723038","tag":{"amenity":"recycling","recycling_type":"container"}},"type":"Feature"},
	{"geometry":{"coordinates":[6.709751,46.081378],"type":"Point"},"properties":{"osm_id":"7832739186","tag":{"amenity":"waste_basket"}},"type":"Feature"},
	{"geometry":{"coordinates":[6.711397,46.080302],"type":"Point"},"properties":{"osm_id":"7832745285","tag":{"amenity":"waste_basket"}},"type":"Feature"},
	{"geometry":{"coordinates":[6.710694,46.081219],"type":"Point"},"properties":{"osm_id":"7832757885","tag":{"amenity":"waste_basket"}},"type":"Feature"},
	{"geometry":{"coordinates":[6.710465,46.08127],"type":"Point"},"properties":{"osm_id":"7832761485","tag":{"amenity":"waste_basket"}},"type":"Feature"},
	{"geometry":{"coordinates":[6.714941,46.07891],"type":"Point"},"properties":{"osm_id":"7832953123","tag":{"amenity":"waste_basket","waste":"trash"}},"type":"Feature"},
	{"geometry":{"coordinates":[6.714378,46.079021],"type":"Point"},"properties":{"osm_id":"7832968185","tag":{"amenity":"waste_basket"}},"type":"Feature"},
	{"geometry":{"coordinates":[6.726918,46.08328],"type":"Point"},"properties":{"osm_id":"7835239720","tag":{"amenity":"waste_basket","waste":"trash"}},"type":"Feature"}
]
}
