{
"type": "FeatureCollection",
"features": [
	{"geometry":{"coordinates":[6.694458,45.083283],"type":"Point"},"properties":{"osm_id":"5759385991","tag":{"amenity":"waste_disposal"}},"type":"Feature"},
	{"geometry":{"coordinates":[6.69442,45.08328],"type":"Point"},"properties":{"osm_id":"5776577106","tag":{"amenity":"recycling","recycling:glass":"yes","recycling:green_waste":"yes","recycling:paper":"yes","recycling:plastic":"yes","recycling_type":"container"}},"type":"Feature"},
	{"geometry":{"coordinates":[6.695214,45.081895],"type":"Point"},"properties":{"osm_id":"5776580076","tag":{"amenity":"recycling","recycling:glass":"yes","recycling:green_waste":"yes","recycling:paper":"yes","recycling:plastic":"yes","recycling_type":"container"}},"type":"Feature"},
	{"geometry":{"coordinates":[6.757605,45.045392],"type":"Point"},"properties":{"osm_id":"7835436567","tag":{"amenity":"recycling","recycling:clothes":"yes","recycling_type":"container"}},"type":"Feature"},
	{"geometry":{"coordinates":[6.757822,45.046387],"type":"Point"},"properties":{"osm_id":"7835436571","tag":{"amenity":"waste_basket","waste":"dog_excrement"}},"type":"Feature"},
	{"geometry":{"coordinates":[6.71427,45.074319],"type":"Point"},"properties":{"osm_id":"8531185901","tag":{"amenity":"waste_basket","colour":"green","material":"steel"}},"type":"Feature"},
	{"geometry":{"coordinates":[6.71417,45.074471],"type":"Point"},"properties":{"osm_id":"8531185902","tag":{"amenity":"waste_basket","colour":"green","material":"steel"}},"type":"Feature"},
	{"geometry":{"coordinates":[6.688792,45.065607],"type":"Point"},"properties":{"osm_id":"8532117275","tag":{"amenity":"waste_basket"}},"type":"Feature"},
	{"geometry":{"coordinates":[6.688718,45.065343],"type":"Point"},"properties":{"osm_id":"8532117278","tag":{"amenity":"waste_basket"}},"type":"Feature"},
	{"geometry":{"coordinates":[6.692769,45.080987],"type":"Point"},"properties":{"osm_id":"8534405732","tag":{"amenity":"waste_basket","material":"wood"}},"type":"Feature"},
	{"geometry":{"coordinates":[6.697452,45.080461],"type":"Point"},"properties":{"osm_id":"8534405746","tag":{"amenity":"waste_basket","material":"wood"}},"type":"Feature"},
	{"geometry":{"coordinates":[6.69677,45.080699],"type":"Point"},"properties":{"osm_id":"8534405752","tag":{"amenity":"waste_basket"}},"type":"Feature"},
	{"geometry":{"coordinates":[6.696991,45.080089],"type":"Point"},"properties":{"osm_id":"8534405758","tag":{"amenity":"waste_basket"}},"type":"Feature"},
	{"geometry":{"coordinates":[6.697198,45.080209],"type":"Point"},"properties":{"osm_id":"8534405759","tag":{"amenity":"waste_basket"}},"type":"Feature"},
	{"geometry":{"coordinates":[6.707669,45.078013],"type":"Point"},"properties":{"osm_id":"8540387169","tag":{"amenity":"waste_basket"}},"type":"Feature"},
	{"geometry":{"coordinates":[6.704478,45.078697],"type":"Point"},"properties":{"osm_id":"8540520082","tag":{"amenity":"waste_basket"}},"type":"Feature"},
	{"geometry":{"coordinates":[6.708212,45.075241],"type":"Point"},"properties":{"osm_id":"8540658344","tag":{"amenity":"waste_basket"}},"type":"Feature"},
	{"geometry":{"coordinates":[6.712129,45.076734],"type":"Point"},"properties":{"osm_id":"8543857507","tag":{"amenity":"waste_basket"}},"type":"Feature"},
	{"geometry":{"coordinates":[6.710785,45.077294],"type":"Point"},"properties":{"osm_id":"8543857513","tag":{"amenity":"waste_basket"}},"type":"Feature"},
	{"geometry":{"coordinates":[6.684565,45.060733],"type":"Point"},"properties":{"osm_id":"8592279937","tag":{"amenity":"waste_basket"}},"type":"Feature"},
	{"geometry":{"coordinates":[6.722389,45.065569],"type":"Point"},"properties":{"barrier":"gate","osm_id":"8658112019","tag":{"access":"permit","material":"steel"}},"type":"Feature"}
]
}
