{
"type": "FeatureCollection",
"features": [
	{"geometry":{"coordinates":[6.732953,43.432575],"type":"Point"},"properties":{"osm_id":"1813077237","tag":{"amenity":"waste_basket"}},"type":"Feature"},
	{"geometry":{"coordinates":[6.73295,43.43293],"type":"Point"},"properties":{"osm_id":"1813077256","tag":{"amenity":"waste_basket"}},"type":"Feature"},
	{"geometry":{"coordinates":[6.745201,43.42289],"type":"Point"},"properties":{"osm_id":"1998565367","tag":{"amenity":"recycling","recycling_type":"container"}},"type":"Feature"},
	{"geometry":{"coordinates":[6.742302,43.420697],"type":"Point"},"properties":{"osm_id":"2000312708","tag":{"amenity":"recycling"}},"type":"Feature"},
	{"geometry":{"coordinates":[6.766657,43.430568],"type":"Point"},"properties":{"osm_id":"3452855006","tag":{"amenity":"recycling"}},"type":"Feature"},
	{"geometry":{"coordinates":[6.766852,43.426902],"type":"Point"},"properties":{"osm_id":"3511924437","tag":{"amenity":"recycling"}},"type":"Feature"},
	{"geometry":{"coordinates":[6.76675,43.425434],"type":"Point"},"properties":{"osm_id":"3511944179","tag":{"amenity":"recycling","recycling_type":"container"}},"type":"Feature"},
	{"geometry":{"coordinates":[6.733538,43.429336],"type":"Point"},"properties":{"osm_id":"3573044698","tag":{"amenity":"recycling"}},"type":"Feature"},
	{"geometry":{"coordinates":[6.764613,43.424242],"type":"Point"},"properties":{"osm_id":"5519036792","tag":{"amenity":"recycling","recycling_type":"container"}},"type":"Feature"},
	{"geometry":{"coordinates":[6.764602,43.424258],"type":"Point"},"properties":{"osm_id":"5562339348","tag":{"amenity":"waste_basket"}},"type":"Feature"},
	{"geometry":{"coordinates":[6.764525,43.424266],"type":"Point"},"properties":{"osm_id":"5562339349","tag":{"amenity":"waste_basket"}},"type":"Feature"},
	{"geometry":{"coordinates":[6.737125,43.433969],"type":"Point"},"properties":{"osm_id":"5753968518","tag":{"amenity":"recycling"}},"type":"Feature"},
	{"geometry":{"coordinates":[6.741276,43.437043],"type":"Point"},"properties":{"osm_id":"5753968530","tag":{"amenity":"recycling"}},"type":"Feature"},
	{"geometry":{"coordinates":[6.766548,43.42162],"type":"Point"},"properties":{"osm_id":"5760020248","tag":{"amenity":"recycling"}},"type":"Feature"},
	{"geometry":{"coordinates":[6.724069,43.452198],"type":"Point"},"properties":{"osm_id":"5829965638","tag":{"amenity":"recycling","recycling_type":"container"}},"type":"Feature"},
	{"geometry":{"coordinates":[6.728131,43.391399],"type":"Point"},"properties":{"osm_id":"5832844307","tag":{"amenity":"recycling","recycling_type":"container"}},"type":"Feature"},
	{"geometry":{"coordinates":[6.735196,43.433009],"type":"Point"},"properties":{"osm_id":"6446341811","tag":{"amenity":"waste_basket"}},"type":"Feature"},
	{"geometry":{"coordinates":[6.688061,43.446456],"type":"Point"},"properties":{"barrier":"gate","osm_id":"6645937992"},"type":"Feature"},
	{"geometry":{"coordinates":[6.689107,43.446107],"type":"Point"},"properties":{"barrier":"gate","osm_id":"6645938007"},"type":"Feature"},
	{"geometry":{"coordinates":[6.751667,43.42175],"type":"Point"},"properties":{"osm_id":"6935000986","tag":{"amenity":"waste_disposal","survey:date":"2019-10-31"}},"type":"Feature"},
	{"geometry":{"coordinates":[6.751706,43.421764],"type":"Point"},"properties":{"osm_id":"6935001085","tag":{"amenity":"recycling","recycling:glass_bottles":"yes","recycling_type":"container","survey:date":"2019-10-31"}},"type":"Feature"},
	{"geometry":{"coordinates":[6.751647,43.421738],"type":"Point"},"properties":{"osm_id":"6935001086","tag":{"amenity":"waste_disposal","survey:date":"2019-10-31"}},"type":"Feature"},
	{"geometry":{"coordinates":[6.751656,43.421748],"type":"Point"},"properties":{"osm_id":"6935001087","tag":{"amenity":"waste_disposal","survey:date":"2019-10-31"}},"type":"Feature"}
]
}
