{
"type": "FeatureCollection",
"features": [
	{"geometry":{"coordinates":[40.341632,56.107938],"type":"Point"},"properties":{"osm_id":"2286502884","tag":{"amenity":"waste_disposal"}},"type":"Feature"},
	{"geometry":{"coordinates":[40.340727,56.10793],"type":"Point"},"properties":{"osm_id":"2286502885","tag":{"amenity":"waste_disposal"}},"type":"Feature"},
	{"geometry":{"coordinates":[40.339436,56.108871],"type":"Point"},"properties":{"osm_id":"2286502890","tag":{"access":"private","amenity":"waste_disposal"}},"type":"Feature"},
	{"geometry":{"coordinates":[40.34132,56.108908],"type":"Point"},"properties":{"osm_id":"2286502891","tag":{"amenity":"waste_disposal"}},"type":"Feature"},
	{"geometry":{"coordinates":[40.338598,56.110202],"type":"Point"},"properties":{"osm_id":"2286502900","tag":{"amenity":"waste_disposal"}},"type":"Feature"},
	{"geometry":{"coordinates":[40.337528,56.111192],"type":"Point"},"properties":{"osm_id":"2286502906","tag":{"amenity":"waste_disposal"}},"type":"Feature"},
	{"geometry":{"coordinates":[40.314079,56.109915],"type":"Point"},"properties":{"osm_id":"2394976414","tag":{"amenity":"waste_disposal"}},"type":"Feature"},
	{"geometry":{"coordinates":[40.332057,56.114311],"type":"Point"},"properties":{"osm_id":"2394976603","tag":{"amenity":"waste_basket"}},"type":"Feature"},
	{"geometry":{"coordinates":[40.33388,56.114718],"type":"Point"},"properties":{"osm_id":"2394976615","tag":{"amenity":"waste_basket"}},"type":"Feature"},
	{"geometry":{"coordinates":[40.333815,56.114733],"type":"Point"},"properties":{"osm_id":"2394976616","tag":{"amenity":"waste_basket"}},"type":"Feature"},
	{"geometry":{"coordinates":[40.314037,56.117955],"type":"Point"},"properties":{"osm_id":"2394976674","tag":{"amenity":"waste_disposal"}},"type":"Feature"},
	{"geometry":{"coordinates":[40.280982,56.102423],"type":"Point"},"properties":{"osm_id":"2399868180","tag":{"amenity":"waste_basket"}},"type":"Feature"},
	{"geometry":{"coordinates":[40.302028,56.106308],"type":"Point"},"properties":{"osm_id":"2399868303","tag":{"amenity":"waste_disposal"}},"type":"Feature"},
	{"geometry":{"coordinates":[40.30639,56.107247],"type":"Point"},"properties":{"osm_id":"2399868358","tag":{"amenity":"waste_disposal"}},"type":"Feature"},
	{"geometry":{"coordinates":[40.341476,56.111588],"type":"Point"},"properties":{"osm_id":"2417416829","tag":{"amenity":"waste_disposal"}},"type":"Feature"},
	{"geometry":{"coordinates":[40.284516,56.110465],"type":"Point"},"properties":{"osm_id":"2430326881","tag":{"amenity":"waste_disposal"}},"type":"Feature"},
	{"geometry":{"coordinates":[40.281884,56.110454],"type":"Point"},"properties":{"osm_id":"2818432024","tag":{"amenity":"waste_disposal"}},"type":"Feature"},
	{"geometry":{"coordinates":[40.286414,56.110543],"type":"Point"},"properties":{"osm_id":"2818432052","tag":{"amenity":"waste_disposal"}},"type":"Feature"},
	{"geometry":{"coordinates":[40.329113,56.113203],"type":"Point"},"properties":{"osm_id":"2955404201","tag":{"amenity":"waste_disposal"}},"type":"Feature"},
	{"geometry":{"coordinates":[40.330637,56.109414],"type":"Point"},"properties":{"osm_id":"3277207630","tag":{"amenity":"waste_basket"}},"type":"Feature"},
	{"geometry":{"coordinates":[40.334993,56.10982],"type":"Point"},"properties":{"osm_id":"3277207632","tag":{"amenity":"waste_basket"}},"type":"Feature"},
	{"geometry":{"coordinates":[40.254328,56.094679],"type":"Point"},"properties":{"osm_id":"3727748014","tag":{"amenity":"waste_disposal"}},"type":"Feature"},
	{"geometry":{"coordinates":[40.264351,56.098325],"type":"Point"},"properties":{"osm_id":"3727748188","tag":{"amenity":"waste_disposal"}},"type":"Feature"},
	{"geometry":{"coordinates":[40.274789,56.09822],"type":"Point"},"properties":{"osm_id":"3728302496","tag":{"amenity":"waste_disposal"}},"type":"Feature"},
	{"geometry":{"coordinates":[40.280889,56.099626],"type":"Point"},"properties":{"osm_id":"3728302977","tag":{"amenity":"waste_disposal"}},"type":"Feature"},
	{"geometry":{"coordinates":[40.277876,56.100341],"type":"Point"},"properties":{"osm_id":"3728303074","tag":{"amenity":"waste_disposal"}},"type":"Feature"},
	{"geometry":{"coordinates":[40.282748,56.101248],"type":"Point"},"properties":{"osm_id":"3728849486","tag":{"amenity":"waste_disposal"}},"type":"Feature"},
	{"geometry":{"coordinates":[40.282144,56.10168],"type":"Point"},"properties":{"osm_id":"3728849505","tag":{"amenity":"waste_basket"}},"type":"Feature"},
	{"geometry":{"coordinates":[40.299543,56.105759],"type":"Point"},"properties":{"osm_id":"3728849513","tag":{"amenity":"waste_basket"}},"type":"Feature"},
	{"geometry":{"coordinates":[40.281229,56.10454],"type":"Point"},"properties":{"osm_id":"3908622064","tag":{"amenity":"waste_disposal"}},"type":"Feature"},
	{"geometry":{"coordinates":[40.280711,56.105524],"type":"Point"},"properties":{"osm_id":"3908622123","tag":{"amenity":"waste_disposal"}},"type":"Feature"},
	{"geometry":{"coordinates":[40.284738,56.104824],"type":"Point"},"properties":{"osm_id":"3909659352","tag":{"amenity":"waste_disposal"}},"type":"Feature"},
	{"geometry":{"coordinates":[40.283593,56.106918],"type":"Point"},"properties":{"osm_id":"3909659709","tag":{"amenity":"waste_disposal"}},"type":"Feature"},
	{"geometry":{"coordinates":[40.279545,56.108461],"type":"Point"},"properties":{"osm_id":"3910966198","tag":{"amenity":"waste_basket"}},"type":"Feature"},
	{"geometry":{"coordinates":[40.279387,56.108551],"type":"Point"},"properties":{"osm_id":"3910966207","tag":{"amenity":"waste_basket"}},"type":"Feature"},
	{"geometry":{"coordinates":[40.279298,56.108559],"type":"Point"},"properties":{"osm_id":"3910966208","tag":{"amenity":"waste_basket"}},"type":"Feature"},
	{"geometry":{"coordinates":[40.279394,56.108573],"type":"Point"},"properties":{"osm_id":"3910966211","tag":{"amenity":"waste_basket"}},"type":"Feature"},
	{"geometry":{"coordinates":[40.279305,56.108579],"type":"Point"},"properties":{"osm_id":"3910966212","tag":{"amenity":"waste_basket"}},"type":"Feature"},
	{"geometry":{"coordinates":[40.279409,56.108632],"type":"Point"},"properties":{"osm_id":"3910966226","tag":{"amenity":"waste_basket"}},"type":"Feature"},
	{"geometry":{"coordinates":[40.279326,56.108639],"type":"Point"},"properties":{"osm_id":"3910966228","tag":{"amenity":"waste_basket"}},"type":"Feature"},
	{"geometry":{"coordinates":[40.279461,56.108806],"type":"Point"},"properties":{"osm_id":"3910966251","tag":{"amenity":"waste_basket"}},"type":"Feature"},
	{"geometry":{"coordinates":[40.279377,56.108814],"type":"Point"},"properties":{"osm_id":"3910966252","tag":{"amenity":"waste_basket"}},"type":"Feature"},
	{"geometry":{"coordinates":[40.279483,56.108862],"type":"Point"},"properties":{"osm_id":"3910968065","tag":{"amenity":"waste_basket"}},"type":"Feature"},
	{"geometry":{"coordinates":[40.279391,56.10887],"type":"Point"},"properties":{"osm_id":"3910968066","tag":{"amenity":"waste_basket"}},"type":"Feature"},
	{"geometry":{"coordinates":[40.279489,56.108884],"type":"Point"},"properties":{"osm_id":"3910968070","tag":{"amenity":"waste_basket"}},"type":"Feature"},
	{"geometry":{"coordinates":[40.279397,56.108892],"type":"Point"},"properties":{"osm_id":"3910968071","tag":{"amenity":"waste_basket"}},"type":"Feature"},
	{"geometry":{"coordinates":[40.279843,56.108976],"type":"Point"},"properties":{"osm_id":"3910968091","tag":{"amenity":"waste_basket"}},"type":"Feature"},
	{"geometry":{"coordinates":[40.279807,56.10901],"type":"Point"},"properties":{"osm_id":"3910968107","tag":{"amenity":"waste_basket"}},"type":"Feature"},
	{"geometry":{"coordinates":[40.279715,56.109017],"type":"Point"},"properties":{"osm_id":"3910968113","tag":{"amenity":"waste_basket"}},"type":"Feature"},
	{"geometry":{"coordinates":[40.28002,56.109037],"type":"Point"},"properties":{"osm_id":"3910968132","tag":{"amenity":"waste_basket"}},"type":"Feature"},
	{"geometry":{"coordinates":[40.279772,56.109057],"type":"Point"},"properties":{"osm_id":"3910968142","tag":{"amenity":"waste_basket"}},"type":"Feature"},
	{"geometry":{"coordinates":[40.280002,56.10907],"type":"Point"},"properties":{"osm_id":"3910968149","tag":{"amenity":"waste_basket"}},"type":"Feature"},
	{"geometry":{"coordinates":[40.279511,56.109077],"type":"Point"},"properties":{"osm_id":"3910968156","tag":{"amenity":"waste_basket"}},"type":"Feature"},
	{"geometry":{"coordinates":[40.279786,56.109087],"type":"Point"},"properties":{"osm_id":"3910968561","tag":{"amenity":"waste_basket"}},"type":"Feature"},
	{"geometry":{"coordinates":[40.27953,56.109106],"type":"Point"},"properties":{"osm_id":"3910968565","tag":{"amenity":"waste_basket"}},"type":"Feature"},
	{"geometry":{"coordinates":[40.286633,56.110738],"type":"Point"},"properties":{"osm_id":"3910968962","tag":{"amenity":"waste_disposal"}},"type":"Feature"},
	{"geometry":{"coordinates":[40.284718,56.111682],"type":"Point"},"properties":{"osm_id":"3910969221","tag":{"amenity":"waste_disposal"}},"type":"Feature"},
	{"geometry":{"coordinates":[40.282133,56.111687],"type":"Point"},"properties":{"osm_id":"3910969222","tag":{"amenity":"waste_disposal"}},"type":"Feature"},
	{"geometry":{"coordinates":[40.2782,56.111869],"type":"Point"},"properties":{"osm_id":"3910969245","tag":{"amenity":"waste_disposal"}},"type":"Feature"},
	{"geometry":{"coordinates":[40.341266,56.105344],"type":"Point"},"properties":{"osm_id":"3924335415","tag":{"amenity":"waste_disposal"}},"type":"Feature"},
	{"geometry":{"coordinates":[40.340204,56.105767],"type":"Point"},"properties":{"osm_id":"3924335468","tag":{"amenity":"waste_disposal"}},"type":"Feature"},
	{"geometry":{"coordinates":[40.340884,56.106037],"type":"Point"},"properties":{"osm_id":"3924335540","tag":{"amenity":"waste_disposal"}},"type":"Feature"},
	{"geometry":{"coordinates":[40.341739,56.10656],"type":"Point"},"properties":{"osm_id":"3924335616","tag":{"amenity":"waste_disposal"}},"type":"Feature"},
	{"geometry":{"coordinates":[40.337264,56.111465],"type":"Point"},"properties":{"osm_id":"3925697699","tag":{"amenity":"waste_disposal"}},"type":"Feature"},
	{"geometry":{"coordinates":[40.337071,56.112499],"type":"Point"},"properties":{"osm_id":"3925698004","tag":{"amenity":"waste_disposal","covered":"yes"}},"type":"Feature"},
	{"geometry":{"coordinates":[40.339945,56.112299],"type":"Point"},"properties":{"osm_id":"4133653003","tag":{"amenity":"waste_basket"}},"type":"Feature"},
	{"geometry":{"coordinates":[40.281737,56.102277],"type":"Point"},"properties":{"osm_id":"5079127088","tag":{"access":"private","amenity":"waste_disposal"}},"type":"Feature"},
	{"geometry":{"coordinates":[40.283142,56.099274],"type":"Point"},"properties":{"osm_id":"5166427707","tag":{"amenity":"waste_disposal"}},"type":"Feature"},
	{"geometry":{"coordinates":[40.254397,56.09302],"type":"Point"},"properties":{"osm_id":"5166431911","tag":{"amenity":"waste_disposal"}},"type":"Feature"}
]
}
