{
"type": "FeatureCollection",
"features": [
	{"geometry":{"coordinates":[7.376498,44.979299],"type":"Point"},"properties":{"name":"Pinus strobus","osm_id":"5682466175","tag":{"circumference":"4.80","denotation":"natural_monument","description":"a) et\u00c3\u00a0 e/o dimensioni                                d) rarit\u00c3\u00a0 botanica","height":"28.5","leaf_cycle":"evergreen","leaf_type":"needleleaved","name:de":"Weymouth-Kiefer","name:en":"Eastern white pine","name:es":"Pino de Weymouth","name:fr":"Pin blanc","name:it":"Pino strobo","natural":"tree","protected":"yes","species":"Pinus strobus L.","species:de":"Weymouth-Kiefer","species:en":"Eastern white pine","species:es":"Pino de Weymouth","species:fr":"Pin Blanc","species:it":"Pino strobo","wikidata":"Q56629579"}},"type":"Feature"},
	{"geometry":{"coordinates":[7.368374,44.971959],"type":"Point"},"properties":{"osm_id":"5682466176","tag":{"circumference":"3.85","denotation":"natural_monument","description":"a) et\u00c3\u00a0 e/o dimensioni d) rarit\u00c3\u00a0 botanica","height":"20.0","leaf_cycle":"deciduous","leaf_type":"broadleaved","natural":"tree","protected":"yes","species":"Ulmus laevis","species:it":"Olmo bianco","wikidata":"Q55742352"}},"type":"Feature"}
]
}
