{
"type": "FeatureCollection",
"features": [
	{"geometry":{"coordinates":[7.336432,44.93815],"type":"Point"},"properties":{"osm_id":"5618450102","tag":{"natural":"tree"}},"type":"Feature"},
	{"geometry":{"coordinates":[7.374678,44.941079],"type":"Point"},"properties":{"name":"Aesculus hippocastanum","osm_id":"5682414518","tag":{"circumference":"2.70","denotation":"natural_monument","description":"e) architettura vegetale f) pregio paesaggistico","height":"21.0","leaf_cycle":"deciduous","leaf_type":"broadleaved","name:de":"Gew\u00c3\u00b6hnliche Rosskastanie","name:en":"Horse Chestnut","name:es":"Casta\u00c3\u00b1o de Indias","name:fr":"Marronnier commun","name:it":"Ippocastano","natural":"tree","protected":"yes","species":"Aesculus hippocastanum","species:de":"Gew\u00c3\u00b6hnliche Rosskastanie","species:en":"Horse-Chestnut","species:es":"Casta\u00c3\u00b1o de Indias","species:fr":"Marronnier commun","species:it":"Ippocastano","wikidata":"Q55742350"}},"type":"Feature"},
	{"geometry":{"coordinates":[7.33269,44.940257],"type":"Point"},"properties":{"osm_id":"8962918361","tag":{"natural":"tree"}},"type":"Feature"}
]
}
