{
"type": "FeatureCollection",
"features": [
	{"geometry":{"coordinates":[-77.067114,38.88783],"type":"Point"},"properties":{"osm_id":"514342557","tag":{"leaf_type":"broadleaved","natural":"tree"}},"type":"Feature"},
	{"geometry":{"coordinates":[-77.067217,38.887877],"type":"Point"},"properties":{"osm_id":"514342561","tag":{"leaf_type":"broadleaved","natural":"tree"}},"type":"Feature"},
	{"geometry":{"coordinates":[-77.067354,38.887857],"type":"Point"},"properties":{"osm_id":"514342568","tag":{"leaf_type":"broadleaved","natural":"tree"}},"type":"Feature"},
	{"geometry":{"coordinates":[-77.067543,38.887783],"type":"Point"},"properties":{"name":"005","osm_id":"514342574","tag":{"leaf_type":"broadleaved","natural":"tree","wpt_description":"29-SEP-09 4:10:49PM","wpt_symbol":"Park"}},"type":"Feature"},
	{"geometry":{"coordinates":[-77.067586,38.887736],"type":"Point"},"properties":{"osm_id":"514342587","tag":{"leaf_type":"broadleaved","natural":"tree"}},"type":"Feature"},
	{"geometry":{"coordinates":[-77.066899,38.887877],"type":"Point"},"properties":{"osm_id":"514342608","tag":{"leaf_type":"broadleaved","natural":"tree","wpt_symbol":"Park"}},"type":"Feature"},
	{"geometry":{"coordinates":[-77.066951,38.887903],"type":"Point"},"properties":{"name":"009","osm_id":"514342613","tag":{"leaf_type":"broadleaved","natural":"tree"}},"type":"Feature"},
	{"geometry":{"coordinates":[-77.073782,38.876013],"type":"Point"},"properties":{"osm_id":"516917654","tag":{"natural":"tree"}},"type":"Feature"},
	{"geometry":{"coordinates":[-77.069785,38.878625],"type":"Point"},"properties":{"name":"325th Glider Regiment","osm_id":"564589751","tag":{"addr:country":"US","addr:state":"VA","historic":"memorial","natural":"tree"}},"type":"Feature"},
	{"geometry":{"coordinates":[-77.07339,38.879026],"type":"Point"},"properties":{"name":"2nd Infantry","osm_id":"564589756","tag":{"addr:country":"US","addr:sector":"37","addr:state":"VA","historic":"memorial","natural":"tree"}},"type":"Feature"},
	{"geometry":{"coordinates":[-77.071622,38.879059],"type":"Point"},"properties":{"name":"11th Airborne Division","osm_id":"564589764","tag":{"addr:country":"US","addr:state":"VA","historic":"memorial","natural":"tree"}},"type":"Feature"},
	{"geometry":{"coordinates":[-77.07163,38.87916],"type":"Point"},"properties":{"name":"Airborne - 50th Anniversary","osm_id":"564589793","tag":{"addr:country":"US","addr:state":"VA","historic":"memorial","natural":"tree"}},"type":"Feature"},
	{"geometry":{"coordinates":[-77.073553,38.879247],"type":"Point"},"properties":{"name":"83rd Infantry","osm_id":"564589798","tag":{"addr:country":"US","addr:state":"VA","historic":"memorial","natural":"tree"}},"type":"Feature"},
	{"geometry":{"coordinates":[-77.070223,38.878745],"type":"Point"},"properties":{"name":"82nd Airborne","osm_id":"564589803","tag":{"addr:country":"US","addr:state":"VA","historic":"memorial","natural":"tree"}},"type":"Feature"},
	{"geometry":{"coordinates":[-77.072463,38.8791],"type":"Point"},"properties":{"name":"Korean War - POW","osm_id":"564589841","tag":{"addr:country":"US","addr:state":"VA","historic":"memorial","natural":"tree"}},"type":"Feature"},
	{"geometry":{"coordinates":[-77.070094,38.878752],"type":"Point"},"properties":{"name":"China-Burma-India Veterans","osm_id":"564589857","tag":{"addr:country":"US","addr:state":"VA","historic":"memorial","natural":"tree"}},"type":"Feature"},
	{"geometry":{"coordinates":[-77.070712,38.879039],"type":"Point"},"properties":{"name":"Military Chaplains","osm_id":"564589864","tag":{"addr:country":"US","addr:state":"VA","historic":"memorial","natural":"tree"}},"type":"Feature"},
	{"geometry":{"coordinates":[-77.02272,38.889003],"type":"Point"},"properties":{"osm_id":"917744036","tag":{"natural":"tree"}},"type":"Feature"},
	{"geometry":{"coordinates":[-77.02272,38.888891],"type":"Point"},"properties":{"osm_id":"917744058","tag":{"natural":"tree"}},"type":"Feature"},
	{"geometry":{"coordinates":[-77.02254,38.888935],"type":"Point"},"properties":{"osm_id":"917744145","tag":{"natural":"tree"}},"type":"Feature"},
	{"geometry":{"coordinates":[-77.022651,38.889086],"type":"Point"},"properties":{"osm_id":"917744387","tag":{"natural":"tree"}},"type":"Feature"},
	{"geometry":{"coordinates":[-77.02259,38.889003],"type":"Point"},"properties":{"osm_id":"917744431","tag":{"natural":"tree"}},"type":"Feature"},
	{"geometry":{"coordinates":[-77.022568,38.88886],"type":"Point"},"properties":{"name":"Wish Tree for Washington, DC","osm_id":"917744599","tag":{"artist_name":"Yoko Ono","description":"2007","natural":"tree","wikidata":"Q8027544","wikipedia":"en:Wish Tree for Washington, DC"}},"type":"Feature"},
	{"geometry":{"coordinates":[-77.022349,38.888861],"type":"Point"},"properties":{"osm_id":"917744730","tag":{"natural":"tree"}},"type":"Feature"},
	{"geometry":{"coordinates":[-77.022723,38.88893],"type":"Point"},"properties":{"osm_id":"917753313","tag":{"natural":"tree"}},"type":"Feature"},
	{"geometry":{"coordinates":[-77.022765,38.888928],"type":"Point"},"properties":{"osm_id":"917753508","tag":{"natural":"tree"}},"type":"Feature"},
	{"geometry":{"coordinates":[-77.024759,38.828454],"type":"Point"},"properties":{"osm_id":"1662865990","tag":{"genus":"Morus","genus:en":"Mulberry","leaf_type":"broadleaved","natural":"tree"}},"type":"Feature"},
	{"geometry":{"coordinates":[-77.047128,38.887761],"type":"Point"},"properties":{"osm_id":"1846739788","tag":{"leaf_type":"broadleaved","natural":"tree"}},"type":"Feature"},
	{"geometry":{"coordinates":[-77.047072,38.887708],"type":"Point"},"properties":{"osm_id":"1846739793","tag":{"leaf_type":"broadleaved","natural":"tree"}},"type":"Feature"},
	{"geometry":{"coordinates":[-77.047284,38.887903],"type":"Point"},"properties":{"osm_id":"1846739795","tag":{"leaf_type":"broadleaved","natural":"tree"}},"type":"Feature"},
	{"geometry":{"coordinates":[-77.047137,38.887609],"type":"Point"},"properties":{"osm_id":"1846739812","tag":{"leaf_type":"broadleaved","natural":"tree"}},"type":"Feature"},
	{"geometry":{"coordinates":[-77.047145,38.887671],"type":"Point"},"properties":{"osm_id":"1846739813","tag":{"leaf_type":"broadleaved","natural":"tree"}},"type":"Feature"},
	{"geometry":{"coordinates":[-77.04718,38.887828],"type":"Point"},"properties":{"osm_id":"1846739815","tag":{"leaf_type":"broadleaved","natural":"tree"}},"type":"Feature"},
	{"geometry":{"coordinates":[-77.047143,38.887861],"type":"Point"},"properties":{"osm_id":"1846739816","tag":{"leaf_type":"broadleaved","natural":"tree"}},"type":"Feature"},
	{"geometry":{"coordinates":[-77.047425,38.887601],"type":"Point"},"properties":{"osm_id":"1846739819","tag":{"leaf_type":"broadleaved","natural":"tree"}},"type":"Feature"},
	{"geometry":{"coordinates":[-77.047197,38.887578],"type":"Point"},"properties":{"osm_id":"1846739820","tag":{"leaf_type":"broadleaved","natural":"tree"}},"type":"Feature"},
	{"geometry":{"coordinates":[-77.047074,38.887771],"type":"Point"},"properties":{"osm_id":"1846739822","tag":{"leaf_type":"broadleaved","natural":"tree"}},"type":"Feature"},
	{"geometry":{"coordinates":[-77.047282,38.887563],"type":"Point"},"properties":{"osm_id":"1846739827","tag":{"leaf_type":"broadleaved","natural":"tree"}},"type":"Feature"},
	{"geometry":{"coordinates":[-77.047127,38.887711],"type":"Point"},"properties":{"osm_id":"1846739828","tag":{"leaf_type":"broadleaved","natural":"tree"}},"type":"Feature"},
	{"geometry":{"coordinates":[-77.047391,38.88783],"type":"Point"},"properties":{"osm_id":"1846739831","tag":{"leaf_type":"broadleaved","natural":"tree"}},"type":"Feature"},
	{"geometry":{"coordinates":[-77.047148,38.887798],"type":"Point"},"properties":{"osm_id":"1846739832","tag":{"leaf_type":"broadleaved","natural":"tree"}},"type":"Feature"},
	{"geometry":{"coordinates":[-77.047272,38.887607],"type":"Point"},"properties":{"osm_id":"1846739835","tag":{"leaf_type":"broadleaved","natural":"tree"}},"type":"Feature"},
	{"geometry":{"coordinates":[-77.0471,38.887821],"type":"Point"},"properties":{"osm_id":"1846739838","tag":{"leaf_type":"broadleaved","natural":"tree"}},"type":"Feature"},
	{"geometry":{"coordinates":[-77.047215,38.88762],"type":"Point"},"properties":{"osm_id":"1846739839","tag":{"leaf_type":"broadleaved","natural":"tree"}},"type":"Feature"},
	{"geometry":{"coordinates":[-77.047285,38.887859],"type":"Point"},"properties":{"osm_id":"1846739841","tag":{"leaf_type":"broadleaved","natural":"tree"}},"type":"Feature"},
	{"geometry":{"coordinates":[-77.047357,38.887572],"type":"Point"},"properties":{"osm_id":"1846739842","tag":{"leaf_type":"broadleaved","natural":"tree"}},"type":"Feature"},
	{"geometry":{"coordinates":[-77.047339,38.887613],"type":"Point"},"properties":{"osm_id":"1846739843","tag":{"leaf_type":"broadleaved","natural":"tree"}},"type":"Feature"},
	{"geometry":{"coordinates":[-77.047389,38.887635],"type":"Point"},"properties":{"osm_id":"1846739846","tag":{"leaf_type":"broadleaved","natural":"tree"}},"type":"Feature"},
	{"geometry":{"coordinates":[-77.047342,38.887852],"type":"Point"},"properties":{"osm_id":"1846739851","tag":{"leaf_type":"broadleaved","natural":"tree"}},"type":"Feature"},
	{"geometry":{"coordinates":[-77.047227,38.88785],"type":"Point"},"properties":{"osm_id":"1846739852","tag":{"leaf_type":"broadleaved","natural":"tree"}},"type":"Feature"},
	{"geometry":{"coordinates":[-77.047206,38.887891],"type":"Point"},"properties":{"osm_id":"1846739853","tag":{"leaf_type":"broadleaved","natural":"tree"}},"type":"Feature"},
	{"geometry":{"coordinates":[-77.047427,38.887863],"type":"Point"},"properties":{"osm_id":"1846739856","tag":{"leaf_type":"broadleaved","natural":"tree"}},"type":"Feature"},
	{"geometry":{"coordinates":[-77.047176,38.887641],"type":"Point"},"properties":{"osm_id":"1846739858","tag":{"leaf_type":"broadleaved","natural":"tree"}},"type":"Feature"},
	{"geometry":{"coordinates":[-77.047361,38.887893],"type":"Point"},"properties":{"osm_id":"1846739860","tag":{"leaf_type":"broadleaved","natural":"tree"}},"type":"Feature"},
	{"geometry":{"coordinates":[-77.047095,38.887651],"type":"Point"},"properties":{"osm_id":"1846739861","tag":{"leaf_type":"broadleaved","natural":"tree"}},"type":"Feature"},
	{"geometry":{"coordinates":[-77.059587,38.830223],"type":"Point"},"properties":{"osm_id":"2280381971","tag":{"natural":"tree"}},"type":"Feature"},
	{"geometry":{"coordinates":[-77.039188,38.890937],"type":"Point"},"properties":{"osm_id":"2504794003","tag":{"natural":"tree"}},"type":"Feature"},
	{"geometry":{"coordinates":[-77.007668,38.890379],"type":"Point"},"properties":{"osm_id":"2504829343","tag":{"natural":"tree"}},"type":"Feature"},
	{"geometry":{"coordinates":[-77.007541,38.890322],"type":"Point"},"properties":{"osm_id":"2504829488","tag":{"natural":"tree"}},"type":"Feature"},
	{"geometry":{"coordinates":[-77.007775,38.890857],"type":"Point"},"properties":{"osm_id":"2504829532","tag":{"natural":"tree"}},"type":"Feature"},
	{"geometry":{"coordinates":[-77.007012,38.890362],"type":"Point"},"properties":{"osm_id":"2504829539","tag":{"natural":"tree"}},"type":"Feature"},
	{"geometry":{"coordinates":[-77.047947,38.887777],"type":"Point"},"properties":{"osm_id":"2550712223","tag":{"leaf_type":"broadleaved","natural":"tree"}},"type":"Feature"},
	{"geometry":{"coordinates":[-77.047875,38.887847],"type":"Point"},"properties":{"osm_id":"2550712224","tag":{"leaf_type":"broadleaved","natural":"tree"}},"type":"Feature"},
	{"geometry":{"coordinates":[-77.047952,38.887862],"type":"Point"},"properties":{"osm_id":"2550712225","tag":{"leaf_type":"broadleaved","natural":"tree"}},"type":"Feature"},
	{"geometry":{"coordinates":[-77.047902,38.887922],"type":"Point"},"properties":{"osm_id":"2550712226","tag":{"leaf_type":"broadleaved","natural":"tree"}},"type":"Feature"},
	{"geometry":{"coordinates":[-77.047965,38.887929],"type":"Point"},"properties":{"osm_id":"2550712228","tag":{"leaf_type":"broadleaved","natural":"tree"}},"type":"Feature"},
	{"geometry":{"coordinates":[-77.047959,38.888011],"type":"Point"},"properties":{"osm_id":"2550712231","tag":{"leaf_type":"broadleaved","natural":"tree"}},"type":"Feature"},
	{"geometry":{"coordinates":[-77.077469,38.859995],"type":"Point"},"properties":{"osm_id":"2563965138","tag":{"natural":"tree"}},"type":"Feature"},
	{"geometry":{"coordinates":[-77.077339,38.85997],"type":"Point"},"properties":{"osm_id":"2563965139","tag":{"natural":"tree"}},"type":"Feature"},
	{"geometry":{"coordinates":[-77.076793,38.860067],"type":"Point"},"properties":{"osm_id":"2563965140","tag":{"natural":"tree"}},"type":"Feature"},
	{"geometry":{"coordinates":[-77.076139,38.860854],"type":"Point"},"properties":{"osm_id":"2563976381","tag":{"natural":"tree"}},"type":"Feature"},
	{"geometry":{"coordinates":[-77.079314,38.861301],"type":"Point"},"properties":{"osm_id":"2563976466","tag":{"natural":"tree"}},"type":"Feature"},
	{"geometry":{"coordinates":[-77.07436,38.85629],"type":"Point"},"properties":{"osm_id":"2563978741","tag":{"natural":"tree"}},"type":"Feature"},
	{"geometry":{"coordinates":[-77.074744,38.855759],"type":"Point"},"properties":{"osm_id":"2563978742","tag":{"natural":"tree"}},"type":"Feature"},
	{"geometry":{"coordinates":[-77.075031,38.855757],"type":"Point"},"properties":{"osm_id":"2563978743","tag":{"natural":"tree"}},"type":"Feature"},
	{"geometry":{"coordinates":[-77.077278,38.852175],"type":"Point"},"properties":{"osm_id":"2563978762","tag":{"natural":"tree"}},"type":"Feature"},
	{"geometry":{"coordinates":[-77.076989,38.85225],"type":"Point"},"properties":{"osm_id":"2563978763","tag":{"natural":"tree"}},"type":"Feature"},
	{"geometry":{"coordinates":[-77.076442,38.852035],"type":"Point"},"properties":{"osm_id":"2563978764","tag":{"natural":"tree"}},"type":"Feature"},
	{"geometry":{"coordinates":[-77.079902,38.851744],"type":"Point"},"properties":{"osm_id":"2563978765","tag":{"natural":"tree"}},"type":"Feature"},
	{"geometry":{"coordinates":[-77.080002,38.856311],"type":"Point"},"properties":{"osm_id":"2563979009","tag":{"natural":"tree"}},"type":"Feature"},
	{"geometry":{"coordinates":[-77.079875,38.856434],"type":"Point"},"properties":{"osm_id":"2563979010","tag":{"natural":"tree"}},"type":"Feature"},
	{"geometry":{"coordinates":[-77.071834,38.859341],"type":"Point"},"properties":{"osm_id":"2563984641","tag":{"natural":"tree"}},"type":"Feature"},
	{"geometry":{"coordinates":[-77.072394,38.859556],"type":"Point"},"properties":{"osm_id":"2563984644","tag":{"natural":"tree"}},"type":"Feature"},
	{"geometry":{"coordinates":[-77.07292,38.859661],"type":"Point"},"properties":{"osm_id":"2563984646","tag":{"natural":"tree"}},"type":"Feature"},
	{"geometry":{"coordinates":[-77.024322,38.86287],"type":"Point"},"properties":{"osm_id":"2570974916","tag":{"natural":"tree"}},"type":"Feature"},
	{"geometry":{"coordinates":[-77.024214,38.86399],"type":"Point"},"properties":{"osm_id":"2571013871","tag":{"natural":"tree"}},"type":"Feature"},
	{"geometry":{"coordinates":[-77.024043,38.864104],"type":"Point"},"properties":{"osm_id":"2571013872","tag":{"natural":"tree"}},"type":"Feature"},
	{"geometry":{"coordinates":[-77.024284,38.864292],"type":"Point"},"properties":{"osm_id":"2571013873","tag":{"natural":"tree"}},"type":"Feature"},
	{"geometry":{"coordinates":[-77.024721,38.863979],"type":"Point"},"properties":{"osm_id":"2571013874","tag":{"natural":"tree"}},"type":"Feature"},
	{"geometry":{"coordinates":[-77.024689,38.863839],"type":"Point"},"properties":{"osm_id":"2571013875","tag":{"natural":"tree"}},"type":"Feature"},
	{"geometry":{"coordinates":[-77.024483,38.863814],"type":"Point"},"properties":{"osm_id":"2571013876","tag":{"natural":"tree"}},"type":"Feature"},
	{"geometry":{"coordinates":[-77.024517,38.863729],"type":"Point"},"properties":{"osm_id":"2571013877","tag":{"natural":"tree"}},"type":"Feature"},
	{"geometry":{"coordinates":[-77.02456,38.863605],"type":"Point"},"properties":{"osm_id":"2571013878","tag":{"natural":"tree"}},"type":"Feature"},
	{"geometry":{"coordinates":[-77.024853,38.863996],"type":"Point"},"properties":{"osm_id":"2571013879","tag":{"natural":"tree"}},"type":"Feature"},
	{"geometry":{"coordinates":[-77.024397,38.863474],"type":"Point"},"properties":{"osm_id":"2571013880","tag":{"natural":"tree"}},"type":"Feature"},
	{"geometry":{"coordinates":[-77.02331,38.862912],"type":"Point"},"properties":{"osm_id":"2571013881","tag":{"natural":"tree"}},"type":"Feature"},
	{"geometry":{"coordinates":[-77.023297,38.863689],"type":"Point"},"properties":{"osm_id":"2571013882","tag":{"natural":"tree"}},"type":"Feature"},
	{"geometry":{"coordinates":[-77.023839,38.863649],"type":"Point"},"properties":{"osm_id":"2571013883","tag":{"natural":"tree"}},"type":"Feature"},
	{"geometry":{"coordinates":[-77.023959,38.863766],"type":"Point"},"properties":{"osm_id":"2571013884","tag":{"natural":"tree"}},"type":"Feature"},
	{"geometry":{"coordinates":[-77.023925,38.863138],"type":"Point"},"properties":{"osm_id":"2571013885","tag":{"natural":"tree"}},"type":"Feature"},
	{"geometry":{"coordinates":[-77.023949,38.863336],"type":"Point"},"properties":{"osm_id":"2571013886","tag":{"natural":"tree"}},"type":"Feature"},
	{"geometry":{"coordinates":[-77.023249,38.865481],"type":"Point"},"properties":{"osm_id":"2571013887","tag":{"natural":"tree"}},"type":"Feature"},
	{"geometry":{"coordinates":[-77.023136,38.865305],"type":"Point"},"properties":{"osm_id":"2571013888","tag":{"natural":"tree"}},"type":"Feature"},
	{"geometry":{"coordinates":[-77.023337,38.865784],"type":"Point"},"properties":{"osm_id":"2571013889","tag":{"natural":"tree"}},"type":"Feature"},
	{"geometry":{"coordinates":[-77.023541,38.866481],"type":"Point"},"properties":{"osm_id":"2571013890","tag":{"natural":"tree"}},"type":"Feature"},
	{"geometry":{"coordinates":[-77.023463,38.866118],"type":"Point"},"properties":{"osm_id":"2571013891","tag":{"natural":"tree"}},"type":"Feature"},
	{"geometry":{"coordinates":[-77.023911,38.866995],"type":"Point"},"properties":{"osm_id":"2571013892","tag":{"natural":"tree"}},"type":"Feature"},
	{"geometry":{"coordinates":[-77.023815,38.867239],"type":"Point"},"properties":{"osm_id":"2571013893","tag":{"natural":"tree"}},"type":"Feature"},
	{"geometry":{"coordinates":[-77.023694,38.867387],"type":"Point"},"properties":{"osm_id":"2571013894","tag":{"natural":"tree"}},"type":"Feature"},
	{"geometry":{"coordinates":[-77.023884,38.867344],"type":"Point"},"properties":{"osm_id":"2571013895","tag":{"natural":"tree"}},"type":"Feature"},
	{"geometry":{"coordinates":[-77.023498,38.867281],"type":"Point"},"properties":{"osm_id":"2571013896","tag":{"natural":"tree"}},"type":"Feature"},
	{"geometry":{"coordinates":[-77.024711,38.867878],"type":"Point"},"properties":{"osm_id":"2571013897","tag":{"natural":"tree"}},"type":"Feature"},
	{"geometry":{"coordinates":[-77.024059,38.868254],"type":"Point"},"properties":{"osm_id":"2571013898","tag":{"natural":"tree"}},"type":"Feature"},
	{"geometry":{"coordinates":[-77.023965,38.868077],"type":"Point"},"properties":{"osm_id":"2571013899","tag":{"natural":"tree"}},"type":"Feature"},
	{"geometry":{"coordinates":[-77.023777,38.867824],"type":"Point"},"properties":{"osm_id":"2571013900","tag":{"natural":"tree"}},"type":"Feature"},
	{"geometry":{"coordinates":[-77.023933,38.867966],"type":"Point"},"properties":{"osm_id":"2571013901","tag":{"natural":"tree"}},"type":"Feature"},
	{"geometry":{"coordinates":[-77.023656,38.867617],"type":"Point"},"properties":{"osm_id":"2571013902","tag":{"natural":"tree"}},"type":"Feature"},
	{"geometry":{"coordinates":[-77.023673,38.868517],"type":"Point"},"properties":{"osm_id":"2571013903","tag":{"natural":"tree"}},"type":"Feature"},
	{"geometry":{"coordinates":[-77.023404,38.868634],"type":"Point"},"properties":{"osm_id":"2571013904","tag":{"natural":"tree"}},"type":"Feature"},
	{"geometry":{"coordinates":[-77.02353,38.868722],"type":"Point"},"properties":{"osm_id":"2571013905","tag":{"natural":"tree"}},"type":"Feature"},
	{"geometry":{"coordinates":[-77.023404,38.868344],"type":"Point"},"properties":{"osm_id":"2571013906","tag":{"natural":"tree"}},"type":"Feature"},
	{"geometry":{"coordinates":[-77.025319,38.867701],"type":"Point"},"properties":{"osm_id":"2571013907","tag":{"natural":"tree"}},"type":"Feature"},
	{"geometry":{"coordinates":[-77.02677,38.868498],"type":"Point"},"properties":{"osm_id":"2571013908","tag":{"natural":"tree"}},"type":"Feature"},
	{"geometry":{"coordinates":[-77.025912,38.868592],"type":"Point"},"properties":{"osm_id":"2571013909","tag":{"natural":"tree"}},"type":"Feature"},
	{"geometry":{"coordinates":[-77.026575,38.869921],"type":"Point"},"properties":{"osm_id":"2571013911","tag":{"natural":"tree"}},"type":"Feature"},
	{"geometry":{"coordinates":[-77.027275,38.86944],"type":"Point"},"properties":{"osm_id":"2571013914","tag":{"natural":"tree"}},"type":"Feature"},
	{"geometry":{"coordinates":[-77.027626,38.869632],"type":"Point"},"properties":{"osm_id":"2571013916","tag":{"natural":"tree"}},"type":"Feature"},
	{"geometry":{"coordinates":[-77.027087,38.869167],"type":"Point"},"properties":{"osm_id":"2571013918","tag":{"natural":"tree"}},"type":"Feature"},
	{"geometry":{"coordinates":[-77.026988,38.868977],"type":"Point"},"properties":{"osm_id":"2571013921","tag":{"natural":"tree"}},"type":"Feature"},
	{"geometry":{"coordinates":[-77.026363,38.869415],"type":"Point"},"properties":{"osm_id":"2571013923","tag":{"natural":"tree"}},"type":"Feature"},
	{"geometry":{"coordinates":[-77.028222,38.870025],"type":"Point"},"properties":{"osm_id":"2571013926","tag":{"natural":"tree"}},"type":"Feature"},
	{"geometry":{"coordinates":[-77.027996,38.870083],"type":"Point"},"properties":{"osm_id":"2571013928","tag":{"natural":"tree"}},"type":"Feature"},
	{"geometry":{"coordinates":[-77.027983,38.870171],"type":"Point"},"properties":{"osm_id":"2571013930","tag":{"natural":"tree"}},"type":"Feature"},
	{"geometry":{"coordinates":[-77.027897,38.870023],"type":"Point"},"properties":{"osm_id":"2571013933","tag":{"natural":"tree"}},"type":"Feature"},
	{"geometry":{"coordinates":[-77.027819,38.86991],"type":"Point"},"properties":{"osm_id":"2571013935","tag":{"natural":"tree"}},"type":"Feature"},
	{"geometry":{"coordinates":[-77.027752,38.869931],"type":"Point"},"properties":{"osm_id":"2571013938","tag":{"natural":"tree"}},"type":"Feature"},
	{"geometry":{"coordinates":[-77.027876,38.870121],"type":"Point"},"properties":{"osm_id":"2571013940","tag":{"natural":"tree"}},"type":"Feature"},
	{"geometry":{"coordinates":[-77.027897,38.870211],"type":"Point"},"properties":{"osm_id":"2571013942","tag":{"natural":"tree"}},"type":"Feature"},
	{"geometry":{"coordinates":[-77.027972,38.870269],"type":"Point"},"properties":{"osm_id":"2571013945","tag":{"natural":"tree"}},"type":"Feature"},
	{"geometry":{"coordinates":[-77.023128,38.86243],"type":"Point"},"properties":{"osm_id":"2571019872","tag":{"natural":"tree"}},"type":"Feature"},
	{"geometry":{"coordinates":[-77.023099,38.862287],"type":"Point"},"properties":{"osm_id":"2571019873","tag":{"natural":"tree"}},"type":"Feature"},
	{"geometry":{"coordinates":[-77.023077,38.86216],"type":"Point"},"properties":{"osm_id":"2571019874","tag":{"natural":"tree"}},"type":"Feature"},
	{"geometry":{"coordinates":[-77.023624,38.861968],"type":"Point"},"properties":{"osm_id":"2571019875","tag":{"natural":"tree"}},"type":"Feature"},
	{"geometry":{"coordinates":[-77.023587,38.861803],"type":"Point"},"properties":{"osm_id":"2571019876","tag":{"natural":"tree"}},"type":"Feature"},
	{"geometry":{"coordinates":[-77.023064,38.861485],"type":"Point"},"properties":{"osm_id":"2571019877","tag":{"natural":"tree"}},"type":"Feature"},
	{"geometry":{"coordinates":[-77.02334,38.861519],"type":"Point"},"properties":{"osm_id":"2571019878","tag":{"natural":"tree"}},"type":"Feature"},
	{"geometry":{"coordinates":[-77.022441,38.861653],"type":"Point"},"properties":{"osm_id":"2571019879","tag":{"natural":"tree"}},"type":"Feature"},
	{"geometry":{"coordinates":[-77.022584,38.862054],"type":"Point"},"properties":{"osm_id":"2571019880","tag":{"natural":"tree"}},"type":"Feature"},
	{"geometry":{"coordinates":[-77.022468,38.862164],"type":"Point"},"properties":{"osm_id":"2571019881","tag":{"natural":"tree"}},"type":"Feature"},
	{"geometry":{"coordinates":[-77.022653,38.863925],"type":"Point"},"properties":{"osm_id":"2571019902","tag":{"natural":"tree"}},"type":"Feature"},
	{"geometry":{"coordinates":[-77.022602,38.863733],"type":"Point"},"properties":{"osm_id":"2571019903","tag":{"natural":"tree"}},"type":"Feature"},
	{"geometry":{"coordinates":[-77.024717,38.862246],"type":"Point"},"properties":{"osm_id":"2571019962","tag":{"natural":"tree"}},"type":"Feature"},
	{"geometry":{"coordinates":[-77.025321,38.864213],"type":"Point"},"properties":{"osm_id":"2571019963","tag":{"natural":"tree"}},"type":"Feature"},
	{"geometry":{"coordinates":[-77.025412,38.864295],"type":"Point"},"properties":{"osm_id":"2571019964","tag":{"natural":"tree"}},"type":"Feature"},
	{"geometry":{"coordinates":[-77.024913,38.864157],"type":"Point"},"properties":{"osm_id":"2571019965","tag":{"natural":"tree"}},"type":"Feature"},
	{"geometry":{"coordinates":[-77.02494,38.86434],"type":"Point"},"properties":{"osm_id":"2571019966","tag":{"natural":"tree"}},"type":"Feature"},
	{"geometry":{"coordinates":[-77.025503,38.863695],"type":"Point"},"properties":{"osm_id":"2571019967","tag":{"natural":"tree"}},"type":"Feature"},
	{"geometry":{"coordinates":[-77.025554,38.863883],"type":"Point"},"properties":{"osm_id":"2571019968","tag":{"natural":"tree"}},"type":"Feature"},
	{"geometry":{"coordinates":[-77.025659,38.864063],"type":"Point"},"properties":{"osm_id":"2571019969","tag":{"natural":"tree"}},"type":"Feature"},
	{"geometry":{"coordinates":[-77.025007,38.864733],"type":"Point"},"properties":{"osm_id":"2571019970","tag":{"natural":"tree"}},"type":"Feature"},
	{"geometry":{"coordinates":[-77.024352,38.864992],"type":"Point"},"properties":{"osm_id":"2571019971","tag":{"natural":"tree"}},"type":"Feature"},
	{"geometry":{"coordinates":[-77.024409,38.865299],"type":"Point"},"properties":{"osm_id":"2571019972","tag":{"natural":"tree"}},"type":"Feature"},
	{"geometry":{"coordinates":[-77.024433,38.865529],"type":"Point"},"properties":{"osm_id":"2571019973","tag":{"natural":"tree"}},"type":"Feature"},
	{"geometry":{"coordinates":[-77.024599,38.865631],"type":"Point"},"properties":{"osm_id":"2571019974","tag":{"natural":"tree"}},"type":"Feature"},
	{"geometry":{"coordinates":[-77.024532,38.865767],"type":"Point"},"properties":{"osm_id":"2571019975","tag":{"natural":"tree"}},"type":"Feature"},
	{"geometry":{"coordinates":[-77.024664,38.865873],"type":"Point"},"properties":{"osm_id":"2571019976","tag":{"natural":"tree"}},"type":"Feature"},
	{"geometry":{"coordinates":[-77.025425,38.865347],"type":"Point"},"properties":{"osm_id":"2571019977","tag":{"natural":"tree"}},"type":"Feature"},
	{"geometry":{"coordinates":[-77.025428,38.865679],"type":"Point"},"properties":{"osm_id":"2571019978","tag":{"natural":"tree"}},"type":"Feature"},
	{"geometry":{"coordinates":[-77.025538,38.865863],"type":"Point"},"properties":{"osm_id":"2571019979","tag":{"natural":"tree"}},"type":"Feature"},
	{"geometry":{"coordinates":[-77.025667,38.866047],"type":"Point"},"properties":{"osm_id":"2571019980","tag":{"natural":"tree"}},"type":"Feature"},
	{"geometry":{"coordinates":[-77.025771,38.866233],"type":"Point"},"properties":{"osm_id":"2571019981","tag":{"natural":"tree"}},"type":"Feature"},
	{"geometry":{"coordinates":[-77.025863,38.866341],"type":"Point"},"properties":{"osm_id":"2571019982","tag":{"natural":"tree"}},"type":"Feature"},
	{"geometry":{"coordinates":[-77.025954,38.866533],"type":"Point"},"properties":{"osm_id":"2571019983","tag":{"natural":"tree"}},"type":"Feature"},
	{"geometry":{"coordinates":[-77.026184,38.866667],"type":"Point"},"properties":{"osm_id":"2571019984","tag":{"natural":"tree"}},"type":"Feature"},
	{"geometry":{"coordinates":[-77.026431,38.866753],"type":"Point"},"properties":{"osm_id":"2571019985","tag":{"natural":"tree"}},"type":"Feature"},
	{"geometry":{"coordinates":[-77.026064,38.866786],"type":"Point"},"properties":{"osm_id":"2571019986","tag":{"natural":"tree"}},"type":"Feature"},
	{"geometry":{"coordinates":[-77.026203,38.866874],"type":"Point"},"properties":{"osm_id":"2571019987","tag":{"natural":"tree"}},"type":"Feature"},
	{"geometry":{"coordinates":[-77.026597,38.866863],"type":"Point"},"properties":{"osm_id":"2571019988","tag":{"natural":"tree"}},"type":"Feature"},
	{"geometry":{"coordinates":[-77.026801,38.86618],"type":"Point"},"properties":{"osm_id":"2571019989","tag":{"natural":"tree"}},"type":"Feature"},
	{"geometry":{"coordinates":[-77.026399,38.865951],"type":"Point"},"properties":{"osm_id":"2571019990","tag":{"natural":"tree"}},"type":"Feature"},
	{"geometry":{"coordinates":[-77.026445,38.865581],"type":"Point"},"properties":{"osm_id":"2571019991","tag":{"natural":"tree"}},"type":"Feature"},
	{"geometry":{"coordinates":[-77.026863,38.866473],"type":"Point"},"properties":{"osm_id":"2571019992","tag":{"natural":"tree"}},"type":"Feature"},
	{"geometry":{"coordinates":[-77.027086,38.866738],"type":"Point"},"properties":{"osm_id":"2571019993","tag":{"natural":"tree"}},"type":"Feature"},
	{"geometry":{"coordinates":[-77.024913,38.866932],"type":"Point"},"properties":{"osm_id":"2571020002","tag":{"natural":"tree"}},"type":"Feature"},
	{"geometry":{"coordinates":[-77.025018,38.8667],"type":"Point"},"properties":{"osm_id":"2571020003","tag":{"natural":"tree"}},"type":"Feature"},
	{"geometry":{"coordinates":[-77.024878,38.866598],"type":"Point"},"properties":{"osm_id":"2571020004","tag":{"natural":"tree"}},"type":"Feature"},
	{"geometry":{"coordinates":[-77.024776,38.866496],"type":"Point"},"properties":{"osm_id":"2571020005","tag":{"natural":"tree"}},"type":"Feature"},
	{"geometry":{"coordinates":[-77.024985,38.867076],"type":"Point"},"properties":{"osm_id":"2571020006","tag":{"natural":"tree"}},"type":"Feature"},
	{"geometry":{"coordinates":[-77.025187,38.867162],"type":"Point"},"properties":{"osm_id":"2571020007","tag":{"natural":"tree"}},"type":"Feature"},
	{"geometry":{"coordinates":[-77.025227,38.866995],"type":"Point"},"properties":{"osm_id":"2571020008","tag":{"natural":"tree"}},"type":"Feature"},
	{"geometry":{"coordinates":[-77.025152,38.867277],"type":"Point"},"properties":{"osm_id":"2571020009","tag":{"natural":"tree"}},"type":"Feature"},
	{"geometry":{"coordinates":[-77.0259,38.867085],"type":"Point"},"properties":{"osm_id":"2571020010","tag":{"natural":"tree"}},"type":"Feature"},
	{"geometry":{"coordinates":[-77.025972,38.867227],"type":"Point"},"properties":{"osm_id":"2571020011","tag":{"natural":"tree"}},"type":"Feature"},
	{"geometry":{"coordinates":[-77.026968,38.867682],"type":"Point"},"properties":{"osm_id":"2571020012","tag":{"natural":"tree"}},"type":"Feature"},
	{"geometry":{"coordinates":[-77.029044,38.870589],"type":"Point"},"properties":{"osm_id":"2571020013","tag":{"natural":"tree"}},"type":"Feature"},
	{"geometry":{"coordinates":[-77.028791,38.870662],"type":"Point"},"properties":{"osm_id":"2571020014","tag":{"natural":"tree"}},"type":"Feature"},
	{"geometry":{"coordinates":[-77.029215,38.870695],"type":"Point"},"properties":{"osm_id":"2571020015","tag":{"natural":"tree"}},"type":"Feature"},
	{"geometry":{"coordinates":[-77.029312,38.870814],"type":"Point"},"properties":{"osm_id":"2571020016","tag":{"natural":"tree"}},"type":"Feature"},
	{"geometry":{"coordinates":[-77.027496,38.87132],"type":"Point"},"properties":{"osm_id":"2571022531","tag":{"natural":"tree"}},"type":"Feature"},
	{"geometry":{"coordinates":[-77.027343,38.871439],"type":"Point"},"properties":{"osm_id":"2571022532","tag":{"natural":"tree"}},"type":"Feature"},
	{"geometry":{"coordinates":[-77.027405,38.872003],"type":"Point"},"properties":{"osm_id":"2571022533","tag":{"natural":"tree"}},"type":"Feature"},
	{"geometry":{"coordinates":[-77.028311,38.871919],"type":"Point"},"properties":{"osm_id":"2571022534","tag":{"natural":"tree"}},"type":"Feature"},
	{"geometry":{"coordinates":[-77.029543,38.871993],"type":"Point"},"properties":{"osm_id":"2571022535","tag":{"natural":"tree"}},"type":"Feature"},
	{"geometry":{"coordinates":[-77.030825,38.873568],"type":"Point"},"properties":{"osm_id":"2571022536","tag":{"natural":"tree"}},"type":"Feature"},
	{"geometry":{"coordinates":[-77.030213,38.874115],"type":"Point"},"properties":{"osm_id":"2571022537","tag":{"natural":"tree"}},"type":"Feature"},
	{"geometry":{"coordinates":[-77.033131,38.875017],"type":"Point"},"properties":{"osm_id":"2571022538","tag":{"natural":"tree"}},"type":"Feature"},
	{"geometry":{"coordinates":[-77.031307,38.875594],"type":"Point"},"properties":{"osm_id":"2571022564","tag":{"natural":"tree"}},"type":"Feature"},
	{"geometry":{"coordinates":[-77.031262,38.875095],"type":"Point"},"properties":{"osm_id":"2571022565","tag":{"natural":"tree"}},"type":"Feature"},
	{"geometry":{"coordinates":[-77.031124,38.876928],"type":"Point"},"properties":{"osm_id":"2571022818","tag":{"natural":"tree"}},"type":"Feature"},
	{"geometry":{"coordinates":[-77.03218,38.876128],"type":"Point"},"properties":{"osm_id":"2571022893","tag":{"natural":"tree"}},"type":"Feature"},
	{"geometry":{"coordinates":[-77.032068,38.876238],"type":"Point"},"properties":{"osm_id":"2571022895","tag":{"natural":"tree"}},"type":"Feature"},
	{"geometry":{"coordinates":[-77.031816,38.876491],"type":"Point"},"properties":{"osm_id":"2571022898","tag":{"natural":"tree"}},"type":"Feature"},
	{"geometry":{"coordinates":[-77.031695,38.876641],"type":"Point"},"properties":{"osm_id":"2571022900","tag":{"natural":"tree"}},"type":"Feature"},
	{"geometry":{"coordinates":[-77.030048,38.877257],"type":"Point"},"properties":{"osm_id":"2571022974","tag":{"natural":"tree"}},"type":"Feature"},
	{"geometry":{"coordinates":[-77.029917,38.877427],"type":"Point"},"properties":{"osm_id":"2571022977","tag":{"natural":"tree"}},"type":"Feature"},
	{"geometry":{"coordinates":[-77.030338,38.877663],"type":"Point"},"properties":{"osm_id":"2571022980","tag":{"natural":"tree"}},"type":"Feature"},
	{"geometry":{"coordinates":[-77.02945,38.877347],"type":"Point"},"properties":{"osm_id":"2571022982","tag":{"natural":"tree"}},"type":"Feature"},
	{"geometry":{"coordinates":[-77.029219,38.877189],"type":"Point"},"properties":{"osm_id":"2571022985","tag":{"natural":"tree"}},"type":"Feature"},
	{"geometry":{"coordinates":[-77.029294,38.872448],"type":"Point"},"properties":{"osm_id":"2571027240","tag":{"natural":"tree"}},"type":"Feature"},
	{"geometry":{"coordinates":[-77.02853,38.87309],"type":"Point"},"properties":{"osm_id":"2571027248","tag":{"natural":"tree"}},"type":"Feature"},
	{"geometry":{"coordinates":[-77.028468,38.873156],"type":"Point"},"properties":{"osm_id":"2571027249","tag":{"natural":"tree"}},"type":"Feature"},
	{"geometry":{"coordinates":[-77.028372,38.873213],"type":"Point"},"properties":{"osm_id":"2571027250","tag":{"natural":"tree"}},"type":"Feature"},
	{"geometry":{"coordinates":[-77.028286,38.873292],"type":"Point"},"properties":{"osm_id":"2571027251","tag":{"natural":"tree"}},"type":"Feature"},
	{"geometry":{"coordinates":[-77.028382,38.873119],"type":"Point"},"properties":{"osm_id":"2571027252","tag":{"natural":"tree"}},"type":"Feature"},
	{"geometry":{"coordinates":[-77.028114,38.872643],"type":"Point"},"properties":{"osm_id":"2571027253","tag":{"natural":"tree"}},"type":"Feature"},
	{"geometry":{"coordinates":[-77.028455,38.8714],"type":"Point"},"properties":{"osm_id":"2571027254","tag":{"natural":"tree"}},"type":"Feature"},
	{"geometry":{"coordinates":[-77.025397,38.872524],"type":"Point"},"properties":{"osm_id":"2571027255","tag":{"natural":"tree"}},"type":"Feature"},
	{"geometry":{"coordinates":[-77.02537,38.872365],"type":"Point"},"properties":{"osm_id":"2571027256","tag":{"natural":"tree"}},"type":"Feature"},
	{"geometry":{"coordinates":[-77.025344,38.873445],"type":"Point"},"properties":{"osm_id":"2571032252","tag":{"natural":"tree"}},"type":"Feature"},
	{"geometry":{"coordinates":[-77.025244,38.873121],"type":"Point"},"properties":{"osm_id":"2571032253","tag":{"natural":"tree"}},"type":"Feature"},
	{"geometry":{"coordinates":[-77.024067,38.87035],"type":"Point"},"properties":{"osm_id":"2571032258","tag":{"natural":"tree"}},"type":"Feature"},
	{"geometry":{"coordinates":[-77.024332,38.871384],"type":"Point"},"properties":{"osm_id":"2571032336","tag":{"natural":"tree"}},"type":"Feature"},
	{"geometry":{"coordinates":[-77.025507,38.871399],"type":"Point"},"properties":{"osm_id":"2571032337","tag":{"natural":"tree"}},"type":"Feature"},
	{"geometry":{"coordinates":[-77.025204,38.87085],"type":"Point"},"properties":{"osm_id":"2571032338","tag":{"natural":"tree"}},"type":"Feature"},
	{"geometry":{"coordinates":[-77.025188,38.8707],"type":"Point"},"properties":{"osm_id":"2571032339","tag":{"natural":"tree"}},"type":"Feature"},
	{"geometry":{"coordinates":[-77.025142,38.87056],"type":"Point"},"properties":{"osm_id":"2571032340","tag":{"natural":"tree"}},"type":"Feature"},
	{"geometry":{"coordinates":[-77.025038,38.870489],"type":"Point"},"properties":{"osm_id":"2571032341","tag":{"natural":"tree"}},"type":"Feature"},
	{"geometry":{"coordinates":[-77.025799,38.870422],"type":"Point"},"properties":{"osm_id":"2571032342","tag":{"natural":"tree"}},"type":"Feature"},
	{"geometry":{"coordinates":[-77.024689,38.870743],"type":"Point"},"properties":{"osm_id":"2571032343","tag":{"natural":"tree"}},"type":"Feature"},
	{"geometry":{"coordinates":[-77.024745,38.870326],"type":"Point"},"properties":{"osm_id":"2571032344","tag":{"natural":"tree"}},"type":"Feature"},
	{"geometry":{"coordinates":[-77.025035,38.870004],"type":"Point"},"properties":{"osm_id":"2571032345","tag":{"natural":"tree"}},"type":"Feature"},
	{"geometry":{"coordinates":[-77.024791,38.869457],"type":"Point"},"properties":{"osm_id":"2571032346","tag":{"natural":"tree"}},"type":"Feature"},
	{"geometry":{"coordinates":[-77.023372,38.870994],"type":"Point"},"properties":{"osm_id":"2571032418","tag":{"natural":"tree"}},"type":"Feature"},
	{"geometry":{"coordinates":[-77.02467,38.873744],"type":"Point"},"properties":{"osm_id":"2571032419","tag":{"natural":"tree"}},"type":"Feature"},
	{"geometry":{"coordinates":[-77.024542,38.873665],"type":"Point"},"properties":{"osm_id":"2571032420","tag":{"natural":"tree"}},"type":"Feature"},
	{"geometry":{"coordinates":[-77.024356,38.873435],"type":"Point"},"properties":{"osm_id":"2571032421","tag":{"natural":"tree"}},"type":"Feature"},
	{"geometry":{"coordinates":[-77.024204,38.873143],"type":"Point"},"properties":{"osm_id":"2571032422","tag":{"natural":"tree"}},"type":"Feature"},
	{"geometry":{"coordinates":[-77.024064,38.872907],"type":"Point"},"properties":{"osm_id":"2571032423","tag":{"natural":"tree"}},"type":"Feature"},
	{"geometry":{"coordinates":[-77.023925,38.872598],"type":"Point"},"properties":{"osm_id":"2571032424","tag":{"natural":"tree"}},"type":"Feature"},
	{"geometry":{"coordinates":[-77.023726,38.872151],"type":"Point"},"properties":{"osm_id":"2571032425","tag":{"natural":"tree"}},"type":"Feature"},
	{"geometry":{"coordinates":[-77.02367,38.871836],"type":"Point"},"properties":{"osm_id":"2571032426","tag":{"natural":"tree"}},"type":"Feature"},
	{"geometry":{"coordinates":[-77.023713,38.872003],"type":"Point"},"properties":{"osm_id":"2571032427","tag":{"natural":"tree"}},"type":"Feature"},
	{"geometry":{"coordinates":[-77.023622,38.871602],"type":"Point"},"properties":{"osm_id":"2571032428","tag":{"natural":"tree"}},"type":"Feature"},
	{"geometry":{"coordinates":[-77.025572,38.871792],"type":"Point"},"properties":{"osm_id":"2571032429","tag":{"natural":"tree"}},"type":"Feature"},
	{"geometry":{"coordinates":[-77.025893,38.871932],"type":"Point"},"properties":{"osm_id":"2571032430","tag":{"natural":"tree"}},"type":"Feature"},
	{"geometry":{"coordinates":[-77.025636,38.871907],"type":"Point"},"properties":{"osm_id":"2571032431","tag":{"natural":"tree"}},"type":"Feature"},
	{"geometry":{"coordinates":[-77.026494,38.871539],"type":"Point"},"properties":{"osm_id":"2571032432","tag":{"natural":"tree"}},"type":"Feature"},
	{"geometry":{"coordinates":[-77.026561,38.871739],"type":"Point"},"properties":{"osm_id":"2571032433","tag":{"natural":"tree"}},"type":"Feature"},
	{"geometry":{"coordinates":[-77.026636,38.871965],"type":"Point"},"properties":{"osm_id":"2571032434","tag":{"natural":"tree"}},"type":"Feature"},
	{"geometry":{"coordinates":[-77.026703,38.872115],"type":"Point"},"properties":{"osm_id":"2571032435","tag":{"natural":"tree"}},"type":"Feature"},
	{"geometry":{"coordinates":[-77.026717,38.872268],"type":"Point"},"properties":{"osm_id":"2571032436","tag":{"natural":"tree"}},"type":"Feature"},
	{"geometry":{"coordinates":[-77.026057,38.873024],"type":"Point"},"properties":{"osm_id":"2571032437","tag":{"natural":"tree"}},"type":"Feature"},
	{"geometry":{"coordinates":[-77.026025,38.872892],"type":"Point"},"properties":{"osm_id":"2571032438","tag":{"natural":"tree"}},"type":"Feature"},
	{"geometry":{"coordinates":[-77.026049,38.87332],"type":"Point"},"properties":{"osm_id":"2571032439","tag":{"natural":"tree"}},"type":"Feature"},
	{"geometry":{"coordinates":[-77.026108,38.8735],"type":"Point"},"properties":{"osm_id":"2571032440","tag":{"natural":"tree"}},"type":"Feature"},
	{"geometry":{"coordinates":[-77.026458,38.874543],"type":"Point"},"properties":{"osm_id":"2571032453","tag":{"natural":"tree"}},"type":"Feature"},
	{"geometry":{"coordinates":[-77.026658,38.873834],"type":"Point"},"properties":{"osm_id":"2571032481","tag":{"natural":"tree"}},"type":"Feature"},
	{"geometry":{"coordinates":[-77.026789,38.873575],"type":"Point"},"properties":{"osm_id":"2571032482","tag":{"natural":"tree"}},"type":"Feature"},
	{"geometry":{"coordinates":[-77.026972,38.873742],"type":"Point"},"properties":{"osm_id":"2571032483","tag":{"natural":"tree"}},"type":"Feature"},
	{"geometry":{"coordinates":[-77.027414,38.872614],"type":"Point"},"properties":{"osm_id":"2571032484","tag":{"natural":"tree"}},"type":"Feature"},
	{"geometry":{"coordinates":[-77.027312,38.873279],"type":"Point"},"properties":{"osm_id":"2571032485","tag":{"natural":"tree"}},"type":"Feature"},
	{"geometry":{"coordinates":[-77.026824,38.873159],"type":"Point"},"properties":{"osm_id":"2571032486","tag":{"natural":"tree"}},"type":"Feature"},
	{"geometry":{"coordinates":[-77.026875,38.873251],"type":"Point"},"properties":{"osm_id":"2571032487","tag":{"natural":"tree"}},"type":"Feature"},
	{"geometry":{"coordinates":[-77.026803,38.873043],"type":"Point"},"properties":{"osm_id":"2571032488","tag":{"natural":"tree"}},"type":"Feature"},
	{"geometry":{"coordinates":[-77.059329,38.869819],"type":"Point"},"properties":{"osm_id":"3519900200","tag":{"leaf_type":"broadleaved","natural":"tree"}},"type":"Feature"},
	{"geometry":{"coordinates":[-77.059395,38.869847],"type":"Point"},"properties":{"osm_id":"3519900201","tag":{"leaf_type":"broadleaved","natural":"tree"}},"type":"Feature"},
	{"geometry":{"coordinates":[-77.059252,38.869849],"type":"Point"},"properties":{"osm_id":"3519900202","tag":{"leaf_type":"broadleaved","natural":"tree"}},"type":"Feature"},
	{"geometry":{"coordinates":[-77.059174,38.869876],"type":"Point"},"properties":{"osm_id":"3519900203","tag":{"leaf_type":"broadleaved","natural":"tree"}},"type":"Feature"},
	{"geometry":{"coordinates":[-77.059321,38.869876],"type":"Point"},"properties":{"osm_id":"3519900204","tag":{"leaf_type":"broadleaved","natural":"tree"}},"type":"Feature"},
	{"geometry":{"coordinates":[-77.059242,38.869905],"type":"Point"},"properties":{"osm_id":"3519900205","tag":{"leaf_type":"broadleaved","natural":"tree"}},"type":"Feature"},
	{"geometry":{"coordinates":[-77.059097,38.869907],"type":"Point"},"properties":{"osm_id":"3519900206","tag":{"leaf_type":"broadleaved","natural":"tree"}},"type":"Feature"},
	{"geometry":{"coordinates":[-77.059166,38.869936],"type":"Point"},"properties":{"osm_id":"3519900208","tag":{"leaf_type":"broadleaved","natural":"tree"}},"type":"Feature"},
	{"geometry":{"coordinates":[-77.051531,38.868672],"type":"Point"},"properties":{"osm_id":"3520831209","tag":{"leaf_type":"broadleaved","natural":"tree"}},"type":"Feature"},
	{"geometry":{"coordinates":[-77.052067,38.863141],"type":"Point"},"properties":{"osm_id":"3527184182","tag":{"leaf_type":"broadleaved","natural":"tree"}},"type":"Feature"},
	{"geometry":{"coordinates":[-77.052056,38.863285],"type":"Point"},"properties":{"osm_id":"3527184194","tag":{"leaf_type":"broadleaved","natural":"tree"}},"type":"Feature"},
	{"geometry":{"coordinates":[-77.052047,38.863378],"type":"Point"},"properties":{"osm_id":"3527184199","tag":{"leaf_type":"broadleaved","natural":"tree"}},"type":"Feature"},
	{"geometry":{"coordinates":[-77.052029,38.863477],"type":"Point"},"properties":{"osm_id":"3527184201","tag":{"leaf_type":"broadleaved","natural":"tree"}},"type":"Feature"},
	{"geometry":{"coordinates":[-77.052027,38.863527],"type":"Point"},"properties":{"osm_id":"3527184202","tag":{"leaf_type":"broadleaved","natural":"tree"}},"type":"Feature"},
	{"geometry":{"coordinates":[-77.052024,38.863577],"type":"Point"},"properties":{"osm_id":"3527184204","tag":{"leaf_type":"broadleaved","natural":"tree"}},"type":"Feature"},
	{"geometry":{"coordinates":[-77.052022,38.863626],"type":"Point"},"properties":{"osm_id":"3527184206","tag":{"leaf_type":"broadleaved","natural":"tree"}},"type":"Feature"},
	{"geometry":{"coordinates":[-77.059732,38.863923],"type":"Point"},"properties":{"osm_id":"3527184219","tag":{"leaf_type":"broadleaved","natural":"tree"}},"type":"Feature"},
	{"geometry":{"coordinates":[-77.059709,38.864015],"type":"Point"},"properties":{"osm_id":"3527184224","tag":{"leaf_type":"broadleaved","natural":"tree"}},"type":"Feature"},
	{"geometry":{"coordinates":[-77.059673,38.864088],"type":"Point"},"properties":{"osm_id":"3527184229","tag":{"leaf_type":"broadleaved","natural":"tree"}},"type":"Feature"},
	{"geometry":{"coordinates":[-77.047715,38.864329],"type":"Point"},"properties":{"osm_id":"3527184264","tag":{"leaf_type":"broadleaved","natural":"tree"}},"type":"Feature"},
	{"geometry":{"coordinates":[-77.054207,38.86434],"type":"Point"},"properties":{"osm_id":"3527184266","tag":{"leaf_type":"broadleaved","natural":"tree"}},"type":"Feature"},
	{"geometry":{"coordinates":[-77.047805,38.86442],"type":"Point"},"properties":{"osm_id":"3527184281","tag":{"leaf_type":"broadleaved","natural":"tree"}},"type":"Feature"},
	{"geometry":{"coordinates":[-77.047539,38.864424],"type":"Point"},"properties":{"osm_id":"3527184282","tag":{"leaf_type":"needleleaved","natural":"tree"}},"type":"Feature"},
	{"geometry":{"coordinates":[-77.047681,38.864426],"type":"Point"},"properties":{"osm_id":"3527184283","tag":{"leaf_type":"needleleaved","natural":"tree"}},"type":"Feature"},
	{"geometry":{"coordinates":[-77.047462,38.864479],"type":"Point"},"properties":{"osm_id":"3527184287","tag":{"leaf_type":"needleleaved","natural":"tree"}},"type":"Feature"},
	{"geometry":{"coordinates":[-77.059436,38.864496],"type":"Point"},"properties":{"osm_id":"3527184289","tag":{"leaf_type":"broadleaved","natural":"tree"}},"type":"Feature"},
	{"geometry":{"coordinates":[-77.047645,38.864519],"type":"Point"},"properties":{"osm_id":"3527184290","tag":{"leaf_type":"broadleaved","natural":"tree"}},"type":"Feature"},
	{"geometry":{"coordinates":[-77.047896,38.864521],"type":"Point"},"properties":{"osm_id":"3527184291","tag":{"leaf_type":"broadleaved","natural":"tree"}},"type":"Feature"},
	{"geometry":{"coordinates":[-77.047776,38.864522],"type":"Point"},"properties":{"osm_id":"3527184292","tag":{"leaf_type":"broadleaved","natural":"tree"}},"type":"Feature"},
	{"geometry":{"coordinates":[-77.059394,38.864555],"type":"Point"},"properties":{"osm_id":"3527184295","tag":{"leaf_type":"broadleaved","natural":"tree"}},"type":"Feature"},
	{"geometry":{"coordinates":[-77.04742,38.864572],"type":"Point"},"properties":{"osm_id":"3527184300","tag":{"leaf_type":"broadleaved","natural":"tree"}},"type":"Feature"},
	{"geometry":{"coordinates":[-77.047734,38.864609],"type":"Point"},"properties":{"osm_id":"3527184303","tag":{"leaf_type":"broadleaved","natural":"tree"}},"type":"Feature"},
	{"geometry":{"coordinates":[-77.047869,38.864615],"type":"Point"},"properties":{"osm_id":"3527184304","tag":{"leaf_type":"broadleaved","natural":"tree"}},"type":"Feature"},
	{"geometry":{"coordinates":[-77.047971,38.864615],"type":"Point"},"properties":{"osm_id":"3527184305","tag":{"leaf_type":"broadleaved","natural":"tree"}},"type":"Feature"},
	{"geometry":{"coordinates":[-77.059364,38.864621],"type":"Point"},"properties":{"osm_id":"3527184307","tag":{"leaf_type":"broadleaved","natural":"tree"}},"type":"Feature"},
	{"geometry":{"coordinates":[-77.047393,38.864669],"type":"Point"},"properties":{"osm_id":"3527184317","tag":{"leaf_type":"broadleaved","natural":"tree"}},"type":"Feature"},
	{"geometry":{"coordinates":[-77.047536,38.864674],"type":"Point"},"properties":{"osm_id":"3527184319","tag":{"leaf_type":"broadleaved","natural":"tree"}},"type":"Feature"},
	{"geometry":{"coordinates":[-77.059329,38.864683],"type":"Point"},"properties":{"osm_id":"3527184322","tag":{"leaf_type":"broadleaved","natural":"tree"}},"type":"Feature"},
	{"geometry":{"coordinates":[-77.047978,38.864701],"type":"Point"},"properties":{"osm_id":"3527184327","tag":{"leaf_type":"broadleaved","natural":"tree"}},"type":"Feature"},
	{"geometry":{"coordinates":[-77.047707,38.864708],"type":"Point"},"properties":{"osm_id":"3527184329","tag":{"leaf_type":"broadleaved","natural":"tree"}},"type":"Feature"},
	{"geometry":{"coordinates":[-77.047863,38.864738],"type":"Point"},"properties":{"osm_id":"3527184332","tag":{"leaf_type":"broadleaved","natural":"tree"}},"type":"Feature"},
	{"geometry":{"coordinates":[-77.059289,38.864742],"type":"Point"},"properties":{"osm_id":"3527184334","tag":{"leaf_type":"broadleaved","natural":"tree"}},"type":"Feature"},
	{"geometry":{"coordinates":[-77.047765,38.864774],"type":"Point"},"properties":{"osm_id":"3527184338","tag":{"leaf_type":"broadleaved","natural":"tree"}},"type":"Feature"},
	{"geometry":{"coordinates":[-77.059251,38.864806],"type":"Point"},"properties":{"osm_id":"3527184341","tag":{"leaf_type":"broadleaved","natural":"tree"}},"type":"Feature"},
	{"geometry":{"coordinates":[-77.047668,38.86481],"type":"Point"},"properties":{"osm_id":"3527184342","tag":{"leaf_type":"broadleaved","natural":"tree"}},"type":"Feature"},
	{"geometry":{"coordinates":[-77.047402,38.864816],"type":"Point"},"properties":{"osm_id":"3527184344","tag":{"leaf_type":"broadleaved","natural":"tree"}},"type":"Feature"},
	{"geometry":{"coordinates":[-77.047272,38.864827],"type":"Point"},"properties":{"osm_id":"3527184346","tag":{"leaf_type":"broadleaved","natural":"tree"}},"type":"Feature"},
	{"geometry":{"coordinates":[-77.047572,38.864848],"type":"Point"},"properties":{"osm_id":"3527184349","tag":{"leaf_type":"broadleaved","natural":"tree"}},"type":"Feature"},
	{"geometry":{"coordinates":[-77.047476,38.864891],"type":"Point"},"properties":{"osm_id":"3527184359","tag":{"leaf_type":"broadleaved","natural":"tree"}},"type":"Feature"},
	{"geometry":{"coordinates":[-77.047249,38.86491],"type":"Point"},"properties":{"osm_id":"3527184364","tag":{"leaf_type":"broadleaved","natural":"tree"}},"type":"Feature"},
	{"geometry":{"coordinates":[-77.047386,38.864933],"type":"Point"},"properties":{"osm_id":"3527184368","tag":{"leaf_type":"broadleaved","natural":"tree"}},"type":"Feature"},
	{"geometry":{"coordinates":[-77.047292,38.864983],"type":"Point"},"properties":{"osm_id":"3527184384","tag":{"leaf_type":"broadleaved","natural":"tree"}},"type":"Feature"},
	{"geometry":{"coordinates":[-77.047465,38.865025],"type":"Point"},"properties":{"osm_id":"3527184403","tag":{"leaf_type":"broadleaved","natural":"tree"}},"type":"Feature"},
	{"geometry":{"coordinates":[-77.047202,38.865029],"type":"Point"},"properties":{"osm_id":"3527184405","tag":{"leaf_type":"broadleaved","natural":"tree"}},"type":"Feature"},
	{"geometry":{"coordinates":[-77.05285,38.865045],"type":"Point"},"properties":{"osm_id":"3527184411","tag":{"leaf_type":"broadleaved","natural":"tree"}},"type":"Feature"},
	{"geometry":{"coordinates":[-77.047118,38.865081],"type":"Point"},"properties":{"osm_id":"3527184417","tag":{"leaf_type":"broadleaved","natural":"tree"}},"type":"Feature"},
	{"geometry":{"coordinates":[-77.047299,38.865119],"type":"Point"},"properties":{"osm_id":"3527184421","tag":{"leaf_type":"broadleaved","natural":"tree"}},"type":"Feature"},
	{"geometry":{"coordinates":[-77.052857,38.865171],"type":"Point"},"properties":{"osm_id":"3527184435","tag":{"leaf_type":"broadleaved","natural":"tree"}},"type":"Feature"},
	{"geometry":{"coordinates":[-77.04722,38.865172],"type":"Point"},"properties":{"osm_id":"3527184436","tag":{"leaf_type":"broadleaved","natural":"tree"}},"type":"Feature"},
	{"geometry":{"coordinates":[-77.052852,38.865251],"type":"Point"},"properties":{"osm_id":"3527184466","tag":{"leaf_type":"broadleaved","natural":"tree"}},"type":"Feature"},
	{"geometry":{"coordinates":[-77.047139,38.865361],"type":"Point"},"properties":{"osm_id":"3527184528","tag":{"leaf_type":"broadleaved","natural":"tree"}},"type":"Feature"},
	{"geometry":{"coordinates":[-77.047211,38.865433],"type":"Point"},"properties":{"osm_id":"3527184549","tag":{"leaf_type":"broadleaved","natural":"tree"}},"type":"Feature"},
	{"geometry":{"coordinates":[-77.047284,38.865505],"type":"Point"},"properties":{"osm_id":"3527184578","tag":{"leaf_type":"broadleaved","natural":"tree"}},"type":"Feature"},
	{"geometry":{"coordinates":[-77.04739,38.865618],"type":"Point"},"properties":{"osm_id":"3527184606","tag":{"leaf_type":"broadleaved","natural":"tree"}},"type":"Feature"},
	{"geometry":{"coordinates":[-77.047635,38.865874],"type":"Point"},"properties":{"osm_id":"3527184669","tag":{"leaf_type":"broadleaved","natural":"tree"}},"type":"Feature"},
	{"geometry":{"coordinates":[-77.047858,38.866096],"type":"Point"},"properties":{"osm_id":"3527184800","tag":{"leaf_type":"broadleaved","natural":"tree"}},"type":"Feature"},
	{"geometry":{"coordinates":[-77.047931,38.866171],"type":"Point"},"properties":{"osm_id":"3527184809","tag":{"leaf_type":"broadleaved","natural":"tree"}},"type":"Feature"},
	{"geometry":{"coordinates":[-77.048003,38.86624],"type":"Point"},"properties":{"osm_id":"3527184813","tag":{"leaf_type":"broadleaved","natural":"tree"}},"type":"Feature"},
	{"geometry":{"coordinates":[-77.048078,38.866315],"type":"Point"},"properties":{"osm_id":"3527184828","tag":{"leaf_type":"broadleaved","natural":"tree"}},"type":"Feature"},
	{"geometry":{"coordinates":[-77.048153,38.86639],"type":"Point"},"properties":{"osm_id":"3527184839","tag":{"leaf_type":"broadleaved","natural":"tree"}},"type":"Feature"},
	{"geometry":{"coordinates":[-77.054068,38.872586],"type":"Point"},"properties":{"osm_id":"3527377493","tag":{"leaf_type":"broadleaved","natural":"tree"}},"type":"Feature"},
	{"geometry":{"coordinates":[-77.054128,38.872685],"type":"Point"},"properties":{"osm_id":"3527377494","tag":{"leaf_type":"broadleaved","natural":"tree"}},"type":"Feature"},
	{"geometry":{"coordinates":[-77.05418,38.872783],"type":"Point"},"properties":{"osm_id":"3527377495","tag":{"leaf_type":"broadleaved","natural":"tree"}},"type":"Feature"},
	{"geometry":{"coordinates":[-77.054246,38.872888],"type":"Point"},"properties":{"osm_id":"3527377496","tag":{"leaf_type":"broadleaved","natural":"tree"}},"type":"Feature"},
	{"geometry":{"coordinates":[-77.054293,38.872987],"type":"Point"},"properties":{"osm_id":"3527377499","tag":{"leaf_type":"broadleaved","natural":"tree"}},"type":"Feature"},
	{"geometry":{"coordinates":[-77.052632,38.872987],"type":"Point"},"properties":{"osm_id":"3527377500","tag":{"leaf_type":"broadleaved","natural":"tree"}},"type":"Feature"},
	{"geometry":{"coordinates":[-77.052462,38.872999],"type":"Point"},"properties":{"osm_id":"3527377501","tag":{"leaf_type":"broadleaved","natural":"tree"}},"type":"Feature"},
	{"geometry":{"coordinates":[-77.052339,38.873043],"type":"Point"},"properties":{"osm_id":"3527377507","tag":{"leaf_type":"broadleaved","natural":"tree"}},"type":"Feature"},
	{"geometry":{"coordinates":[-77.054351,38.873089],"type":"Point"},"properties":{"osm_id":"3527377510","tag":{"leaf_type":"broadleaved","natural":"tree"}},"type":"Feature"},
	{"geometry":{"coordinates":[-77.052511,38.873105],"type":"Point"},"properties":{"osm_id":"3527377514","tag":{"leaf_type":"broadleaved","natural":"tree"}},"type":"Feature"},
	{"geometry":{"coordinates":[-77.053019,38.873155],"type":"Point"},"properties":{"osm_id":"3527377520","tag":{"leaf_type":"broadleaved","natural":"tree"}},"type":"Feature"},
	{"geometry":{"coordinates":[-77.054401,38.873187],"type":"Point"},"properties":{"osm_id":"3527377522","tag":{"leaf_type":"broadleaved","natural":"tree"}},"type":"Feature"},
	{"geometry":{"coordinates":[-77.053089,38.873267],"type":"Point"},"properties":{"osm_id":"3527377528","tag":{"leaf_type":"broadleaved","natural":"tree"}},"type":"Feature"},
	{"geometry":{"coordinates":[-77.054468,38.873289],"type":"Point"},"properties":{"osm_id":"3527377530","tag":{"leaf_type":"broadleaved","natural":"tree"}},"type":"Feature"},
	{"geometry":{"coordinates":[-77.052741,38.873291],"type":"Point"},"properties":{"osm_id":"3527377531","tag":{"leaf_type":"broadleaved","natural":"tree"}},"type":"Feature"},
	{"geometry":{"coordinates":[-77.052858,38.873309],"type":"Point"},"properties":{"osm_id":"3527377532","tag":{"leaf_type":"broadleaved","natural":"tree"}},"type":"Feature"},
	{"geometry":{"coordinates":[-77.052935,38.873335],"type":"Point"},"properties":{"osm_id":"3527377534","tag":{"leaf_type":"needleleaved","natural":"tree"}},"type":"Feature"},
	{"geometry":{"coordinates":[-77.052734,38.873364],"type":"Point"},"properties":{"osm_id":"3527377535","tag":{"leaf_type":"broadleaved","natural":"tree"}},"type":"Feature"},
	{"geometry":{"coordinates":[-77.052846,38.873377],"type":"Point"},"properties":{"osm_id":"3527377538","tag":{"leaf_type":"broadleaved","natural":"tree"}},"type":"Feature"},
	{"geometry":{"coordinates":[-77.054527,38.873383],"type":"Point"},"properties":{"osm_id":"3527377539","tag":{"leaf_type":"broadleaved","natural":"tree"}},"type":"Feature"},
	{"geometry":{"coordinates":[-77.053009,38.873397],"type":"Point"},"properties":{"osm_id":"3527377540","tag":{"leaf_type":"needleleaved","natural":"tree"}},"type":"Feature"},
	{"geometry":{"coordinates":[-77.053304,38.873408],"type":"Point"},"properties":{"osm_id":"3527377541","tag":{"leaf_type":"broadleaved","natural":"tree"}},"type":"Feature"},
	{"geometry":{"coordinates":[-77.052712,38.873427],"type":"Point"},"properties":{"osm_id":"3527377545","tag":{"leaf_type":"broadleaved","natural":"tree"}},"type":"Feature"},
	{"geometry":{"coordinates":[-77.052837,38.873441],"type":"Point"},"properties":{"osm_id":"3527377546","tag":{"leaf_type":"broadleaved","natural":"tree"}},"type":"Feature"},
	{"geometry":{"coordinates":[-77.053101,38.873448],"type":"Point"},"properties":{"osm_id":"3527377548","tag":{"leaf_type":"broadleaved","natural":"tree"}},"type":"Feature"},
	{"geometry":{"coordinates":[-77.052931,38.873452],"type":"Point"},"properties":{"osm_id":"3527377549","tag":{"leaf_type":"needleleaved","natural":"tree"}},"type":"Feature"},
	{"geometry":{"coordinates":[-77.05459,38.873486],"type":"Point"},"properties":{"osm_id":"3527377552","tag":{"leaf_type":"broadleaved","natural":"tree"}},"type":"Feature"},
	{"geometry":{"coordinates":[-77.052997,38.873496],"type":"Point"},"properties":{"osm_id":"3527377553","tag":{"leaf_type":"broadleaved","natural":"tree"}},"type":"Feature"},
	{"geometry":{"coordinates":[-77.053077,38.873499],"type":"Point"},"properties":{"osm_id":"3527377554","tag":{"leaf_type":"broadleaved","natural":"tree"}},"type":"Feature"},
	{"geometry":{"coordinates":[-77.052687,38.873502],"type":"Point"},"properties":{"osm_id":"3527377556","tag":{"leaf_type":"broadleaved","natural":"tree"}},"type":"Feature"},
	{"geometry":{"coordinates":[-77.052815,38.873514],"type":"Point"},"properties":{"osm_id":"3527377558","tag":{"leaf_type":"broadleaved","natural":"tree"}},"type":"Feature"},
	{"geometry":{"coordinates":[-77.052916,38.873546],"type":"Point"},"properties":{"osm_id":"3527377560","tag":{"leaf_type":"broadleaved","natural":"tree"}},"type":"Feature"},
	{"geometry":{"coordinates":[-77.052663,38.873557],"type":"Point"},"properties":{"osm_id":"3527377562","tag":{"leaf_type":"broadleaved","natural":"tree"}},"type":"Feature"},
	{"geometry":{"coordinates":[-77.052793,38.873574],"type":"Point"},"properties":{"osm_id":"3527377563","tag":{"leaf_type":"broadleaved","natural":"tree"}},"type":"Feature"},
	{"geometry":{"coordinates":[-77.054655,38.873582],"type":"Point"},"properties":{"osm_id":"3527377564","tag":{"leaf_type":"broadleaved","natural":"tree"}},"type":"Feature"},
	{"geometry":{"coordinates":[-77.053394,38.873592],"type":"Point"},"properties":{"osm_id":"3527377566","tag":{"leaf_type":"broadleaved","natural":"tree"}},"type":"Feature"},
	{"geometry":{"coordinates":[-77.052636,38.873617],"type":"Point"},"properties":{"osm_id":"3527377569","tag":{"leaf_type":"broadleaved","natural":"tree"}},"type":"Feature"},
	{"geometry":{"coordinates":[-77.05276,38.873635],"type":"Point"},"properties":{"osm_id":"3527377572","tag":{"leaf_type":"broadleaved","natural":"tree"}},"type":"Feature"},
	{"geometry":{"coordinates":[-77.052725,38.8737],"type":"Point"},"properties":{"osm_id":"3527377575","tag":{"leaf_type":"broadleaved","natural":"tree"}},"type":"Feature"},
	{"geometry":{"coordinates":[-77.053633,38.873756],"type":"Point"},"properties":{"osm_id":"3527377580","tag":{"leaf_type":"broadleaved","natural":"tree"}},"type":"Feature"},
	{"geometry":{"coordinates":[-77.052858,38.873784],"type":"Point"},"properties":{"osm_id":"3527377582","tag":{"leaf_type":"broadleaved","natural":"tree"}},"type":"Feature"},
	{"geometry":{"coordinates":[-77.053911,38.874032],"type":"Point"},"properties":{"osm_id":"3527377591","tag":{"leaf_type":"broadleaved","natural":"tree"}},"type":"Feature"},
	{"geometry":{"coordinates":[-77.05302,38.874087],"type":"Point"},"properties":{"osm_id":"3527377595","tag":{"leaf_type":"broadleaved","natural":"tree"}},"type":"Feature"},
	{"geometry":{"coordinates":[-77.031508,38.886067],"type":"Point"},"properties":{"osm_id":"3533319405","tag":{"leaf_type":"broadleaved","natural":"tree"}},"type":"Feature"},
	{"geometry":{"coordinates":[-77.031598,38.886068],"type":"Point"},"properties":{"osm_id":"3533319406","tag":{"leaf_type":"broadleaved","natural":"tree"}},"type":"Feature"},
	{"geometry":{"coordinates":[-77.031039,38.886083],"type":"Point"},"properties":{"osm_id":"3533319408","tag":{"leaf_type":"broadleaved","natural":"tree"}},"type":"Feature"},
	{"geometry":{"coordinates":[-77.031093,38.886083],"type":"Point"},"properties":{"osm_id":"3533319409","tag":{"leaf_type":"broadleaved","natural":"tree"}},"type":"Feature"},
	{"geometry":{"coordinates":[-77.031602,38.886106],"type":"Point"},"properties":{"osm_id":"3533319410","tag":{"leaf_type":"broadleaved","natural":"tree"}},"type":"Feature"},
	{"geometry":{"coordinates":[-77.048828,38.888313],"type":"Point"},"properties":{"osm_id":"4015169187","tag":{"natural":"tree"}},"type":"Feature"},
	{"geometry":{"coordinates":[-77.048711,38.888341],"type":"Point"},"properties":{"osm_id":"4015169188","tag":{"natural":"tree"}},"type":"Feature"},
	{"geometry":{"coordinates":[-77.048657,38.888408],"type":"Point"},"properties":{"osm_id":"4015169289","tag":{"natural":"tree"}},"type":"Feature"},
	{"geometry":{"coordinates":[-77.048711,38.888483],"type":"Point"},"properties":{"osm_id":"4015169290","tag":{"natural":"tree"}},"type":"Feature"},
	{"geometry":{"coordinates":[-77.048898,38.88847],"type":"Point"},"properties":{"osm_id":"4015169291","tag":{"natural":"tree"}},"type":"Feature"},
	{"geometry":{"coordinates":[-77.048774,38.888544],"type":"Point"},"properties":{"osm_id":"4015169293","tag":{"natural":"tree"}},"type":"Feature"},
	{"geometry":{"coordinates":[-77.048569,38.888351],"type":"Point"},"properties":{"osm_id":"4015169296","tag":{"natural":"tree"}},"type":"Feature"},
	{"geometry":{"coordinates":[-77.048569,38.888244],"type":"Point"},"properties":{"osm_id":"4015169297","tag":{"natural":"tree"}},"type":"Feature"},
	{"geometry":{"coordinates":[-77.048636,38.888303],"type":"Point"},"properties":{"osm_id":"4015169298","tag":{"natural":"tree"}},"type":"Feature"},
	{"geometry":{"coordinates":[-77.048503,38.888333],"type":"Point"},"properties":{"osm_id":"4015169299","tag":{"natural":"tree"}},"type":"Feature"},
	{"geometry":{"coordinates":[-77.048462,38.888276],"type":"Point"},"properties":{"osm_id":"4015169300","tag":{"natural":"tree"}},"type":"Feature"},
	{"geometry":{"coordinates":[-77.048573,38.888416],"type":"Point"},"properties":{"osm_id":"4015169301","tag":{"natural":"tree"}},"type":"Feature"},
	{"geometry":{"coordinates":[-77.048768,38.888209],"type":"Point"},"properties":{"osm_id":"4015169302","tag":{"natural":"tree"}},"type":"Feature"},
	{"geometry":{"coordinates":[-77.048888,38.888206],"type":"Point"},"properties":{"osm_id":"4015169303","tag":{"natural":"tree"}},"type":"Feature"},
	{"geometry":{"coordinates":[-77.048693,38.888151],"type":"Point"},"properties":{"osm_id":"4015169304","tag":{"natural":"tree"}},"type":"Feature"},
	{"geometry":{"coordinates":[-77.048665,38.888048],"type":"Point"},"properties":{"osm_id":"4015169305","tag":{"natural":"tree"}},"type":"Feature"},
	{"geometry":{"coordinates":[-77.048606,38.888158],"type":"Point"},"properties":{"osm_id":"4015169306","tag":{"natural":"tree"}},"type":"Feature"},
	{"geometry":{"coordinates":[-77.049077,38.888625],"type":"Point"},"properties":{"osm_id":"4015169307","tag":{"natural":"tree"}},"type":"Feature"},
	{"geometry":{"coordinates":[-77.048974,38.88874],"type":"Point"},"properties":{"osm_id":"4015169308","tag":{"natural":"tree"}},"type":"Feature"},
	{"geometry":{"coordinates":[-77.049075,38.888263],"type":"Point"},"properties":{"osm_id":"4015169309","tag":{"natural":"tree"}},"type":"Feature"},
	{"geometry":{"coordinates":[-77.048985,38.888171],"type":"Point"},"properties":{"osm_id":"4015169310","tag":{"natural":"tree"}},"type":"Feature"},
	{"geometry":{"coordinates":[-77.048469,38.888488],"type":"Point"},"properties":{"osm_id":"4015169313","tag":{"natural":"tree"}},"type":"Feature"},
	{"geometry":{"coordinates":[-77.048366,38.888501],"type":"Point"},"properties":{"osm_id":"4015169314","tag":{"natural":"tree"}},"type":"Feature"},
	{"geometry":{"coordinates":[-77.048432,38.888414],"type":"Point"},"properties":{"osm_id":"4015169315","tag":{"natural":"tree"}},"type":"Feature"},
	{"geometry":{"coordinates":[-77.048355,38.888371],"type":"Point"},"properties":{"osm_id":"4015169316","tag":{"natural":"tree"}},"type":"Feature"},
	{"geometry":{"coordinates":[-77.048274,38.888376],"type":"Point"},"properties":{"osm_id":"4015169317","tag":{"natural":"tree"}},"type":"Feature"},
	{"geometry":{"coordinates":[-77.048134,38.888422],"type":"Point"},"properties":{"osm_id":"4015169318","tag":{"natural":"tree"}},"type":"Feature"},
	{"geometry":{"coordinates":[-77.048796,38.887984],"type":"Point"},"properties":{"osm_id":"4015169319","tag":{"natural":"tree"}},"type":"Feature"},
	{"geometry":{"coordinates":[-77.048644,38.887811],"type":"Point"},"properties":{"osm_id":"4015169320","tag":{"natural":"tree"}},"type":"Feature"},
	{"geometry":{"coordinates":[-77.048631,38.887941],"type":"Point"},"properties":{"osm_id":"4015169321","tag":{"natural":"tree"}},"type":"Feature"},
	{"geometry":{"coordinates":[-77.048522,38.887992],"type":"Point"},"properties":{"osm_id":"4015169322","tag":{"natural":"tree"}},"type":"Feature"},
	{"geometry":{"coordinates":[-77.048509,38.887912],"type":"Point"},"properties":{"osm_id":"4015169323","tag":{"natural":"tree"}},"type":"Feature"},
	{"geometry":{"coordinates":[-77.048464,38.887764],"type":"Point"},"properties":{"osm_id":"4015169324","tag":{"natural":"tree"}},"type":"Feature"},
	{"geometry":{"coordinates":[-77.048374,38.887871],"type":"Point"},"properties":{"osm_id":"4015169325","tag":{"natural":"tree"}},"type":"Feature"},
	{"geometry":{"coordinates":[-77.048306,38.887807],"type":"Point"},"properties":{"osm_id":"4015169326","tag":{"natural":"tree"}},"type":"Feature"},
	{"geometry":{"coordinates":[-77.048169,38.887756],"type":"Point"},"properties":{"osm_id":"4015169327","tag":{"natural":"tree"}},"type":"Feature"},
	{"geometry":{"coordinates":[-77.048085,38.887796],"type":"Point"},"properties":{"osm_id":"4015169328","tag":{"natural":"tree"}},"type":"Feature"},
	{"geometry":{"coordinates":[-77.04804,38.887742],"type":"Point"},"properties":{"osm_id":"4015169329","tag":{"natural":"tree"}},"type":"Feature"},
	{"geometry":{"coordinates":[-77.048076,38.887942],"type":"Point"},"properties":{"osm_id":"4015169330","tag":{"natural":"tree"}},"type":"Feature"},
	{"geometry":{"coordinates":[-77.048055,38.887872],"type":"Point"},"properties":{"osm_id":"4015169331","tag":{"natural":"tree"}},"type":"Feature"},
	{"geometry":{"coordinates":[-77.048186,38.887921],"type":"Point"},"properties":{"osm_id":"4015169332","tag":{"natural":"tree"}},"type":"Feature"},
	{"geometry":{"coordinates":[-77.048192,38.887839],"type":"Point"},"properties":{"osm_id":"4015169333","tag":{"natural":"tree"}},"type":"Feature"},
	{"geometry":{"coordinates":[-77.048246,38.888064],"type":"Point"},"properties":{"osm_id":"4015169334","tag":{"natural":"tree"}},"type":"Feature"},
	{"geometry":{"coordinates":[-77.048404,38.888164],"type":"Point"},"properties":{"osm_id":"4015169335","tag":{"natural":"tree"}},"type":"Feature"},
	{"geometry":{"coordinates":[-77.048306,38.888133],"type":"Point"},"properties":{"osm_id":"4015169336","tag":{"natural":"tree"}},"type":"Feature"},
	{"geometry":{"coordinates":[-77.048381,38.888101],"type":"Point"},"properties":{"osm_id":"4015169337","tag":{"natural":"tree"}},"type":"Feature"},
	{"geometry":{"coordinates":[-77.048473,38.888119],"type":"Point"},"properties":{"osm_id":"4015169338","tag":{"natural":"tree"}},"type":"Feature"},
	{"geometry":{"coordinates":[-77.048447,38.888032],"type":"Point"},"properties":{"osm_id":"4015169339","tag":{"natural":"tree"}},"type":"Feature"},
	{"geometry":{"coordinates":[-77.04837,38.888012],"type":"Point"},"properties":{"osm_id":"4015169340","tag":{"natural":"tree"}},"type":"Feature"},
	{"geometry":{"coordinates":[-77.048306,38.887954],"type":"Point"},"properties":{"osm_id":"4015169341","tag":{"natural":"tree"}},"type":"Feature"},
	{"geometry":{"coordinates":[-77.048411,38.887937],"type":"Point"},"properties":{"osm_id":"4015169342","tag":{"natural":"tree"}},"type":"Feature"},
	{"geometry":{"coordinates":[-77.048344,38.888218],"type":"Point"},"properties":{"osm_id":"4015169343","tag":{"natural":"tree"}},"type":"Feature"},
	{"geometry":{"coordinates":[-77.048278,38.888196],"type":"Point"},"properties":{"osm_id":"4015169344","tag":{"natural":"tree"}},"type":"Feature"},
	{"geometry":{"coordinates":[-77.048214,38.888141],"type":"Point"},"properties":{"osm_id":"4015169345","tag":{"natural":"tree"}},"type":"Feature"},
	{"geometry":{"coordinates":[-77.048115,38.888022],"type":"Point"},"properties":{"osm_id":"4015169346","tag":{"natural":"tree"}},"type":"Feature"},
	{"geometry":{"coordinates":[-77.048207,38.887999],"type":"Point"},"properties":{"osm_id":"4015169347","tag":{"natural":"tree"}},"type":"Feature"},
	{"geometry":{"coordinates":[-77.048134,38.888091],"type":"Point"},"properties":{"osm_id":"4015169348","tag":{"natural":"tree"}},"type":"Feature"},
	{"geometry":{"coordinates":[-77.048055,38.888074],"type":"Point"},"properties":{"osm_id":"4015169349","tag":{"natural":"tree"}},"type":"Feature"},
	{"geometry":{"coordinates":[-77.04816,38.888136],"type":"Point"},"properties":{"osm_id":"4015169350","tag":{"natural":"tree"}},"type":"Feature"},
	{"geometry":{"coordinates":[-77.047948,38.888146],"type":"Point"},"properties":{"osm_id":"4015169351","tag":{"natural":"tree"}},"type":"Feature"},
	{"geometry":{"coordinates":[-77.048021,38.888179],"type":"Point"},"properties":{"osm_id":"4015169352","tag":{"natural":"tree"}},"type":"Feature"},
	{"geometry":{"coordinates":[-77.048074,38.888246],"type":"Point"},"properties":{"osm_id":"4015169353","tag":{"natural":"tree"}},"type":"Feature"},
	{"geometry":{"coordinates":[-77.04822,38.888271],"type":"Point"},"properties":{"osm_id":"4015169354","tag":{"natural":"tree"}},"type":"Feature"},
	{"geometry":{"coordinates":[-77.048139,38.888221],"type":"Point"},"properties":{"osm_id":"4015169355","tag":{"natural":"tree"}},"type":"Feature"},
	{"geometry":{"coordinates":[-77.047946,38.888359],"type":"Point"},"properties":{"osm_id":"4015169356","tag":{"natural":"tree"}},"type":"Feature"},
	{"geometry":{"coordinates":[-77.048064,38.888343],"type":"Point"},"properties":{"osm_id":"4015169357","tag":{"natural":"tree"}},"type":"Feature"},
	{"geometry":{"coordinates":[-77.048021,38.888316],"type":"Point"},"properties":{"osm_id":"4015169358","tag":{"natural":"tree"}},"type":"Feature"},
	{"geometry":{"coordinates":[-77.049195,38.88798],"type":"Point"},"properties":{"osm_id":"4015169361","tag":{"natural":"tree"}},"type":"Feature"},
	{"geometry":{"coordinates":[-77.049571,38.888056],"type":"Point"},"properties":{"osm_id":"4015169362","tag":{"natural":"tree"}},"type":"Feature"},
	{"geometry":{"coordinates":[-77.048962,38.887882],"type":"Point"},"properties":{"osm_id":"4015169364","tag":{"natural":"tree"}},"type":"Feature"},
	{"geometry":{"coordinates":[-77.04863,38.887397],"type":"Point"},"properties":{"osm_id":"4015169365","tag":{"natural":"tree"}},"type":"Feature"},
	{"geometry":{"coordinates":[-77.04927,38.887288],"type":"Point"},"properties":{"osm_id":"4015169366","tag":{"natural":"tree"}},"type":"Feature"},
	{"geometry":{"coordinates":[-77.048623,38.887253],"type":"Point"},"properties":{"osm_id":"4015169367","tag":{"natural":"tree"}},"type":"Feature"},
	{"geometry":{"coordinates":[-77.048765,38.887299],"type":"Point"},"properties":{"osm_id":"4015169368","tag":{"natural":"tree"}},"type":"Feature"},
	{"geometry":{"coordinates":[-77.049044,38.887274],"type":"Point"},"properties":{"osm_id":"4015169369","tag":{"natural":"tree"}},"type":"Feature"},
	{"geometry":{"coordinates":[-77.048471,38.887378],"type":"Point"},"properties":{"osm_id":"4015169370","tag":{"natural":"tree"}},"type":"Feature"},
	{"geometry":{"coordinates":[-77.048619,38.887523],"type":"Point"},"properties":{"osm_id":"4015169371","tag":{"natural":"tree"}},"type":"Feature"},
	{"geometry":{"coordinates":[-77.035126,38.88698],"type":"Point"},"properties":{"osm_id":"4022725944","tag":{"natural":"tree"}},"type":"Feature"},
	{"geometry":{"coordinates":[-77.035072,38.886893],"type":"Point"},"properties":{"osm_id":"4022725945","tag":{"natural":"tree"}},"type":"Feature"},
	{"geometry":{"coordinates":[-77.034964,38.886871],"type":"Point"},"properties":{"osm_id":"4022725946","tag":{"natural":"tree"}},"type":"Feature"},
	{"geometry":{"coordinates":[-77.03478,38.886949],"type":"Point"},"properties":{"osm_id":"4022725947","tag":{"natural":"tree"}},"type":"Feature"},
	{"geometry":{"coordinates":[-77.03487,38.887014],"type":"Point"},"properties":{"osm_id":"4022725948","tag":{"natural":"tree"}},"type":"Feature"},
	{"geometry":{"coordinates":[-77.034993,38.887039],"type":"Point"},"properties":{"osm_id":"4022725949","tag":{"natural":"tree"}},"type":"Feature"},
	{"geometry":{"coordinates":[-77.034805,38.887101],"type":"Point"},"properties":{"osm_id":"4022725950","tag":{"natural":"tree"}},"type":"Feature"},
	{"geometry":{"coordinates":[-77.034599,38.887194],"type":"Point"},"properties":{"osm_id":"4022725951","tag":{"natural":"tree"}},"type":"Feature"},
	{"geometry":{"coordinates":[-77.033896,38.887514],"type":"Point"},"properties":{"osm_id":"4022725952","tag":{"natural":"tree"}},"type":"Feature"},
	{"geometry":{"coordinates":[-77.033982,38.887477],"type":"Point"},"properties":{"osm_id":"4022725953","tag":{"natural":"tree"}},"type":"Feature"},
	{"geometry":{"coordinates":[-77.034123,38.887444],"type":"Point"},"properties":{"osm_id":"4022725954","tag":{"natural":"tree"}},"type":"Feature"},
	{"geometry":{"coordinates":[-77.034199,38.887399],"type":"Point"},"properties":{"osm_id":"4022725955","tag":{"natural":"tree"}},"type":"Feature"},
	{"geometry":{"coordinates":[-77.034278,38.887343],"type":"Point"},"properties":{"osm_id":"4022725956","tag":{"natural":"tree"}},"type":"Feature"},
	{"geometry":{"coordinates":[-77.034332,38.887303],"type":"Point"},"properties":{"osm_id":"4022725957","tag":{"natural":"tree"}},"type":"Feature"},
	{"geometry":{"coordinates":[-77.034448,38.887247],"type":"Point"},"properties":{"osm_id":"4022725958","tag":{"natural":"tree"}},"type":"Feature"},
	{"geometry":{"coordinates":[-77.034369,38.887225],"type":"Point"},"properties":{"osm_id":"4022725959","tag":{"natural":"tree"}},"type":"Feature"},
	{"geometry":{"coordinates":[-77.034184,38.88725],"type":"Point"},"properties":{"osm_id":"4022725960","tag":{"natural":"tree"}},"type":"Feature"},
	{"geometry":{"coordinates":[-77.034044,38.887354],"type":"Point"},"properties":{"osm_id":"4022725961","tag":{"natural":"tree"}},"type":"Feature"},
	{"geometry":{"coordinates":[-77.034065,38.887216],"type":"Point"},"properties":{"osm_id":"4022725962","tag":{"natural":"tree"}},"type":"Feature"},
	{"geometry":{"coordinates":[-77.033964,38.887269],"type":"Point"},"properties":{"osm_id":"4022725963","tag":{"natural":"tree"}},"type":"Feature"},
	{"geometry":{"coordinates":[-77.033917,38.887421],"type":"Point"},"properties":{"osm_id":"4022725964","tag":{"natural":"tree"}},"type":"Feature"},
	{"geometry":{"coordinates":[-77.033935,38.887365],"type":"Point"},"properties":{"osm_id":"4022725965","tag":{"natural":"tree"}},"type":"Feature"},
	{"geometry":{"coordinates":[-77.034087,38.887312],"type":"Point"},"properties":{"osm_id":"4022725966","tag":{"natural":"tree"}},"type":"Feature"},
	{"geometry":{"coordinates":[-77.034765,38.886851],"type":"Point"},"properties":{"osm_id":"4022725967","tag":{"natural":"tree"}},"type":"Feature"},
	{"geometry":{"coordinates":[-77.034737,38.886581],"type":"Point"},"properties":{"osm_id":"4022725968","tag":{"natural":"tree"}},"type":"Feature"},
	{"geometry":{"coordinates":[-77.034957,38.886792],"type":"Point"},"properties":{"osm_id":"4022725969","tag":{"natural":"tree"}},"type":"Feature"},
	{"geometry":{"coordinates":[-77.034845,38.886823],"type":"Point"},"properties":{"osm_id":"4022725970","tag":{"natural":"tree"}},"type":"Feature"},
	{"geometry":{"coordinates":[-77.034921,38.886958],"type":"Point"},"properties":{"osm_id":"4022725971","tag":{"natural":"tree"}},"type":"Feature"},
	{"geometry":{"coordinates":[-77.034899,38.886741],"type":"Point"},"properties":{"osm_id":"4022725972","tag":{"natural":"tree"}},"type":"Feature"},
	{"geometry":{"coordinates":[-77.034744,38.886705],"type":"Point"},"properties":{"osm_id":"4022725973","tag":{"natural":"tree"}},"type":"Feature"},
	{"geometry":{"coordinates":[-77.034866,38.886609],"type":"Point"},"properties":{"osm_id":"4022725974","tag":{"natural":"tree"}},"type":"Feature"},
	{"geometry":{"coordinates":[-77.034661,38.886309],"type":"Point"},"properties":{"osm_id":"4022725975","tag":{"natural":"tree"}},"type":"Feature"},
	{"geometry":{"coordinates":[-77.034708,38.886407],"type":"Point"},"properties":{"osm_id":"4022725976","tag":{"natural":"tree"}},"type":"Feature"},
	{"geometry":{"coordinates":[-77.033896,38.886646],"type":"Point"},"properties":{"osm_id":"4022725977","tag":{"natural":"tree"}},"type":"Feature"},
	{"geometry":{"coordinates":[-77.033889,38.886441],"type":"Point"},"properties":{"osm_id":"4022725978","tag":{"natural":"tree"}},"type":"Feature"},
	{"geometry":{"coordinates":[-77.033885,38.886298],"type":"Point"},"properties":{"osm_id":"4022725979","tag":{"natural":"tree"}},"type":"Feature"},
	{"geometry":{"coordinates":[-77.033914,38.88618],"type":"Point"},"properties":{"osm_id":"4022725980","tag":{"natural":"tree"}},"type":"Feature"},
	{"geometry":{"coordinates":[-77.033798,38.887399],"type":"Point"},"properties":{"osm_id":"4022725981","tag":{"natural":"tree"}},"type":"Feature"},
	{"geometry":{"coordinates":[-77.033795,38.887152],"type":"Point"},"properties":{"osm_id":"4022725982","tag":{"natural":"tree"}},"type":"Feature"},
	{"geometry":{"coordinates":[-77.033798,38.886966],"type":"Point"},"properties":{"osm_id":"4022725983","tag":{"natural":"tree"}},"type":"Feature"},
	{"geometry":{"coordinates":[-77.033795,38.886722],"type":"Point"},"properties":{"osm_id":"4022725984","tag":{"natural":"tree"}},"type":"Feature"},
	{"geometry":{"coordinates":[-77.033896,38.886893],"type":"Point"},"properties":{"osm_id":"4022725985","tag":{"natural":"tree"}},"type":"Feature"},
	{"geometry":{"coordinates":[-77.034018,38.885466],"type":"Point"},"properties":{"osm_id":"4022725986","tag":{"natural":"tree"}},"type":"Feature"},
	{"geometry":{"coordinates":[-77.034246,38.885396],"type":"Point"},"properties":{"osm_id":"4022725987","tag":{"natural":"tree"}},"type":"Feature"},
	{"geometry":{"coordinates":[-77.034379,38.885491],"type":"Point"},"properties":{"osm_id":"4022725988","tag":{"natural":"tree"}},"type":"Feature"},
	{"geometry":{"coordinates":[-77.034177,38.885317],"type":"Point"},"properties":{"osm_id":"4022729589","tag":{"natural":"tree"}},"type":"Feature"},
	{"geometry":{"coordinates":[-77.033892,38.88523],"type":"Point"},"properties":{"osm_id":"4022729590","tag":{"natural":"tree"}},"type":"Feature"},
	{"geometry":{"coordinates":[-77.033889,38.885511],"type":"Point"},"properties":{"osm_id":"4022729591","tag":{"natural":"tree"}},"type":"Feature"},
	{"geometry":{"coordinates":[-77.033972,38.885604],"type":"Point"},"properties":{"osm_id":"4022729592","tag":{"natural":"tree"}},"type":"Feature"},
	{"geometry":{"coordinates":[-77.034524,38.885789],"type":"Point"},"properties":{"osm_id":"4022729593","tag":{"natural":"tree"}},"type":"Feature"},
	{"geometry":{"coordinates":[-77.034022,38.885983],"type":"Point"},"properties":{"osm_id":"4022729594","tag":{"natural":"tree"}},"type":"Feature"},
	{"geometry":{"coordinates":[-77.034148,38.886067],"type":"Point"},"properties":{"osm_id":"4022729595","tag":{"natural":"tree"}},"type":"Feature"},
	{"geometry":{"coordinates":[-77.034396,38.885844],"type":"Point"},"properties":{"osm_id":"4022729596","tag":{"natural":"tree"}},"type":"Feature"},
	{"geometry":{"coordinates":[-77.033979,38.885772],"type":"Point"},"properties":{"osm_id":"4022729597","tag":{"natural":"tree"}},"type":"Feature"},
	{"geometry":{"coordinates":[-77.03408,38.885764],"type":"Point"},"properties":{"osm_id":"4022729598","tag":{"natural":"tree"}},"type":"Feature"},
	{"geometry":{"coordinates":[-77.034069,38.885674],"type":"Point"},"properties":{"osm_id":"4022729599","tag":{"natural":"tree"}},"type":"Feature"},
	{"geometry":{"coordinates":[-77.034123,38.88555],"type":"Point"},"properties":{"osm_id":"4022729600","tag":{"natural":"tree"}},"type":"Feature"},
	{"geometry":{"coordinates":[-77.034156,38.885168],"type":"Point"},"properties":{"osm_id":"4022729601","tag":{"natural":"tree"}},"type":"Feature"},
	{"geometry":{"coordinates":[-77.034015,38.885166],"type":"Point"},"properties":{"osm_id":"4022729602","tag":{"natural":"tree"}},"type":"Feature"},
	{"geometry":{"coordinates":[-77.033943,38.885036],"type":"Point"},"properties":{"osm_id":"4022729603","tag":{"natural":"tree"}},"type":"Feature"},
	{"geometry":{"coordinates":[-77.033979,38.884947],"type":"Point"},"properties":{"osm_id":"4022729604","tag":{"natural":"tree"}},"type":"Feature"},
	{"geometry":{"coordinates":[-77.033795,38.885312],"type":"Point"},"properties":{"osm_id":"4022729605","tag":{"natural":"tree"}},"type":"Feature"},
	{"geometry":{"coordinates":[-77.033795,38.885185],"type":"Point"},"properties":{"osm_id":"4022729606","tag":{"natural":"tree"}},"type":"Feature"},
	{"geometry":{"coordinates":[-77.033791,38.885028],"type":"Point"},"properties":{"osm_id":"4022729607","tag":{"natural":"tree"}},"type":"Feature"},
	{"geometry":{"coordinates":[-77.019525,38.890865],"type":"Point"},"properties":{"osm_id":"4261234428","tag":{"natural":"tree"}},"type":"Feature"},
	{"geometry":{"coordinates":[-77.020235,38.890854],"type":"Point"},"properties":{"osm_id":"4261234429","tag":{"natural":"tree"}},"type":"Feature"},
	{"geometry":{"coordinates":[-77.0338,38.884538],"type":"Point"},"properties":{"osm_id":"4303513614","tag":{"natural":"tree"}},"type":"Feature"},
	{"geometry":{"coordinates":[-77.033907,38.8846],"type":"Point"},"properties":{"osm_id":"4303513615","tag":{"natural":"tree"}},"type":"Feature"},
	{"geometry":{"coordinates":[-77.034029,38.88472],"type":"Point"},"properties":{"osm_id":"4303513616","tag":{"natural":"tree"}},"type":"Feature"},
	{"geometry":{"coordinates":[-77.034156,38.884818],"type":"Point"},"properties":{"osm_id":"4303513617","tag":{"natural":"tree"}},"type":"Feature"},
	{"geometry":{"coordinates":[-77.034316,38.88505],"type":"Point"},"properties":{"osm_id":"4303513618","tag":{"natural":"tree"}},"type":"Feature"},
	{"geometry":{"coordinates":[-77.034412,38.885157],"type":"Point"},"properties":{"osm_id":"4303513619","tag":{"natural":"tree"}},"type":"Feature"},
	{"geometry":{"coordinates":[-77.034052,38.88508],"type":"Point"},"properties":{"osm_id":"4303513620","tag":{"natural":"tree"}},"type":"Feature"},
	{"geometry":{"coordinates":[-77.034458,38.885315],"type":"Point"},"properties":{"osm_id":"4303513621","tag":{"natural":"tree"}},"type":"Feature"},
	{"geometry":{"coordinates":[-77.034687,38.88555],"type":"Point"},"properties":{"osm_id":"4303513622","tag":{"natural":"tree"}},"type":"Feature"},
	{"geometry":{"coordinates":[-77.034714,38.885666],"type":"Point"},"properties":{"osm_id":"4303513623","tag":{"natural":"tree"}},"type":"Feature"},
	{"geometry":{"coordinates":[-77.034779,38.885791],"type":"Point"},"properties":{"osm_id":"4303513624","tag":{"natural":"tree"}},"type":"Feature"},
	{"geometry":{"coordinates":[-77.034817,38.885913],"type":"Point"},"properties":{"osm_id":"4303513625","tag":{"natural":"tree"}},"type":"Feature"},
	{"geometry":{"coordinates":[-77.034974,38.886095],"type":"Point"},"properties":{"osm_id":"4303513626","tag":{"natural":"tree"}},"type":"Feature"},
	{"geometry":{"coordinates":[-77.035131,38.886277],"type":"Point"},"properties":{"osm_id":"4303513627","tag":{"natural":"tree"}},"type":"Feature"},
	{"geometry":{"coordinates":[-77.034924,38.886247],"type":"Point"},"properties":{"osm_id":"4303513628","tag":{"natural":"tree"}},"type":"Feature"},
	{"geometry":{"coordinates":[-77.034538,38.88594],"type":"Point"},"properties":{"osm_id":"4303513629","tag":{"natural":"tree"}},"type":"Feature"},
	{"geometry":{"coordinates":[-77.034634,38.886083],"type":"Point"},"properties":{"osm_id":"4303513630","tag":{"natural":"tree"}},"type":"Feature"},
	{"geometry":{"coordinates":[-77.03536,38.886497],"type":"Point"},"properties":{"osm_id":"4303513631","tag":{"natural":"tree"}},"type":"Feature"},
	{"geometry":{"coordinates":[-77.035181,38.886634],"type":"Point"},"properties":{"osm_id":"4303513632","tag":{"natural":"tree"}},"type":"Feature"},
	{"geometry":{"coordinates":[-77.035644,38.886691],"type":"Point"},"properties":{"osm_id":"4303513633","tag":{"natural":"tree"}},"type":"Feature"},
	{"geometry":{"coordinates":[-77.035858,38.886792],"type":"Point"},"properties":{"osm_id":"4303513634","tag":{"natural":"tree"}},"type":"Feature"},
	{"geometry":{"coordinates":[-77.035911,38.886908],"type":"Point"},"properties":{"osm_id":"4303513635","tag":{"natural":"tree"}},"type":"Feature"},
	{"geometry":{"coordinates":[-77.036049,38.886863],"type":"Point"},"properties":{"osm_id":"4303513636","tag":{"natural":"tree"}},"type":"Feature"},
	{"geometry":{"coordinates":[-77.035728,38.886854],"type":"Point"},"properties":{"osm_id":"4303513637","tag":{"natural":"tree"}},"type":"Feature"},
	{"geometry":{"coordinates":[-77.03533,38.886628],"type":"Point"},"properties":{"osm_id":"4303513638","tag":{"natural":"tree"}},"type":"Feature"},
	{"geometry":{"coordinates":[-77.035441,38.886836],"type":"Point"},"properties":{"osm_id":"4303513639","tag":{"natural":"tree"}},"type":"Feature"},
	{"geometry":{"coordinates":[-77.035579,38.886839],"type":"Point"},"properties":{"osm_id":"4303513640","tag":{"natural":"tree"}},"type":"Feature"},
	{"geometry":{"coordinates":[-77.035617,38.886932],"type":"Point"},"properties":{"osm_id":"4303513641","tag":{"natural":"tree"}},"type":"Feature"},
	{"geometry":{"coordinates":[-77.035525,38.886926],"type":"Point"},"properties":{"osm_id":"4303513642","tag":{"natural":"tree"}},"type":"Feature"},
	{"geometry":{"coordinates":[-77.035391,38.886777],"type":"Point"},"properties":{"osm_id":"4303513643","tag":{"natural":"tree"}},"type":"Feature"},
	{"geometry":{"coordinates":[-77.035349,38.886842],"type":"Point"},"properties":{"osm_id":"4303513644","tag":{"natural":"tree"}},"type":"Feature"},
	{"geometry":{"coordinates":[-77.036218,38.887211],"type":"Point"},"properties":{"osm_id":"4303519608","tag":{"natural":"tree"}},"type":"Feature"},
	{"geometry":{"coordinates":[-77.036101,38.887192],"type":"Point"},"properties":{"osm_id":"4303519609","tag":{"natural":"tree"}},"type":"Feature"},
	{"geometry":{"coordinates":[-77.036306,38.887288],"type":"Point"},"properties":{"osm_id":"4303519610","tag":{"natural":"tree"}},"type":"Feature"},
	{"geometry":{"coordinates":[-77.03614,38.887059],"type":"Point"},"properties":{"osm_id":"4303519611","tag":{"natural":"tree"}},"type":"Feature"},
	{"geometry":{"coordinates":[-77.035927,38.88707],"type":"Point"},"properties":{"osm_id":"4303519612","tag":{"natural":"tree"}},"type":"Feature"},
	{"geometry":{"coordinates":[-77.035881,38.887142],"type":"Point"},"properties":{"osm_id":"4303519613","tag":{"natural":"tree"}},"type":"Feature"},
	{"geometry":{"coordinates":[-77.035842,38.887087],"type":"Point"},"properties":{"osm_id":"4303519614","tag":{"natural":"tree"}},"type":"Feature"},
	{"geometry":{"coordinates":[-77.035772,38.887098],"type":"Point"},"properties":{"osm_id":"4303519615","tag":{"natural":"tree"}},"type":"Feature"},
	{"geometry":{"coordinates":[-77.037453,38.887426],"type":"Point"},"properties":{"osm_id":"4303519616","tag":{"natural":"tree"}},"type":"Feature"},
	{"geometry":{"coordinates":[-77.037318,38.887489],"type":"Point"},"properties":{"osm_id":"4303519617","tag":{"natural":"tree"}},"type":"Feature"},
	{"geometry":{"coordinates":[-77.037407,38.887558],"type":"Point"},"properties":{"osm_id":"4303519618","tag":{"natural":"tree"}},"type":"Feature"},
	{"geometry":{"coordinates":[-77.037453,38.887255],"type":"Point"},"properties":{"osm_id":"4303519619","tag":{"natural":"tree"}},"type":"Feature"},
	{"geometry":{"coordinates":[-77.037276,38.887219],"type":"Point"},"properties":{"osm_id":"4303519620","tag":{"natural":"tree"}},"type":"Feature"},
	{"geometry":{"coordinates":[-77.037361,38.887178],"type":"Point"},"properties":{"osm_id":"4303519621","tag":{"natural":"tree"}},"type":"Feature"},
	{"geometry":{"coordinates":[-77.037347,38.887255],"type":"Point"},"properties":{"osm_id":"4303519622","tag":{"natural":"tree"}},"type":"Feature"},
	{"geometry":{"coordinates":[-77.037216,38.887263],"type":"Point"},"properties":{"osm_id":"4303519623","tag":{"natural":"tree"}},"type":"Feature"},
	{"geometry":{"coordinates":[-77.037672,38.88677],"type":"Point"},"properties":{"osm_id":"4303519624","tag":{"natural":"tree"}},"type":"Feature"},
	{"geometry":{"coordinates":[-77.037571,38.886634],"type":"Point"},"properties":{"osm_id":"4303519625","tag":{"natural":"tree"}},"type":"Feature"},
	{"geometry":{"coordinates":[-77.037971,38.886822],"type":"Point"},"properties":{"osm_id":"4303519626","tag":{"natural":"tree"}},"type":"Feature"},
	{"geometry":{"coordinates":[-77.037965,38.886755],"type":"Point"},"properties":{"osm_id":"4303519627","tag":{"natural":"tree"}},"type":"Feature"},
	{"geometry":{"coordinates":[-77.038041,38.88679],"type":"Point"},"properties":{"osm_id":"4303519628","tag":{"natural":"tree"}},"type":"Feature"},
	{"geometry":{"coordinates":[-77.037122,38.887644],"type":"Point"},"properties":{"osm_id":"4303519629","tag":{"natural":"tree"}},"type":"Feature"},
	{"geometry":{"coordinates":[-77.036849,38.887669],"type":"Point"},"properties":{"osm_id":"4303519630","tag":{"natural":"tree"}},"type":"Feature"},
	{"geometry":{"coordinates":[-77.036338,38.88746],"type":"Point"},"properties":{"osm_id":"4303519631","tag":{"natural":"tree"}},"type":"Feature"},
	{"geometry":{"coordinates":[-77.036054,38.887499],"type":"Point"},"properties":{"osm_id":"4303519632","tag":{"natural":"tree"}},"type":"Feature"},
	{"geometry":{"coordinates":[-77.035706,38.887469],"type":"Point"},"properties":{"osm_id":"4303519633","tag":{"natural":"tree"}},"type":"Feature"},
	{"geometry":{"coordinates":[-77.035569,38.887458],"type":"Point"},"properties":{"osm_id":"4303519634","tag":{"natural":"tree"}},"type":"Feature"},
	{"geometry":{"coordinates":[-77.035355,38.887449],"type":"Point"},"properties":{"osm_id":"4303519635","tag":{"natural":"tree"}},"type":"Feature"},
	{"geometry":{"coordinates":[-77.035232,38.88744],"type":"Point"},"properties":{"osm_id":"4303519636","tag":{"natural":"tree"}},"type":"Feature"},
	{"geometry":{"coordinates":[-77.03517,38.88744],"type":"Point"},"properties":{"osm_id":"4303519637","tag":{"natural":"tree"}},"type":"Feature"},
	{"geometry":{"coordinates":[-77.035008,38.887471],"type":"Point"},"properties":{"osm_id":"4303519638","tag":{"natural":"tree"}},"type":"Feature"},
	{"geometry":{"coordinates":[-77.034824,38.887505],"type":"Point"},"properties":{"osm_id":"4303519639","tag":{"natural":"tree"}},"type":"Feature"},
	{"geometry":{"coordinates":[-77.034661,38.88754],"type":"Point"},"properties":{"osm_id":"4303519640","tag":{"natural":"tree"}},"type":"Feature"},
	{"geometry":{"coordinates":[-77.034483,38.887573],"type":"Point"},"properties":{"osm_id":"4303519641","tag":{"natural":"tree"}},"type":"Feature"},
	{"geometry":{"coordinates":[-77.034328,38.887518],"type":"Point"},"properties":{"osm_id":"4303519642","tag":{"natural":"tree"}},"type":"Feature"},
	{"geometry":{"coordinates":[-77.034278,38.887628],"type":"Point"},"properties":{"osm_id":"4303519643","tag":{"natural":"tree"}},"type":"Feature"},
	{"geometry":{"coordinates":[-77.034205,38.887589],"type":"Point"},"properties":{"osm_id":"4303519644","tag":{"natural":"tree"}},"type":"Feature"},
	{"geometry":{"coordinates":[-77.034132,38.887656],"type":"Point"},"properties":{"osm_id":"4303519645","tag":{"natural":"tree"}},"type":"Feature"},
	{"geometry":{"coordinates":[-77.035637,38.887248],"type":"Point"},"properties":{"osm_id":"4303519646","tag":{"natural":"tree"}},"type":"Feature"},
	{"geometry":{"coordinates":[-77.035564,38.887226],"type":"Point"},"properties":{"osm_id":"4303519647","tag":{"natural":"tree"}},"type":"Feature"},
	{"geometry":{"coordinates":[-77.035448,38.887222],"type":"Point"},"properties":{"osm_id":"4303519648","tag":{"natural":"tree"}},"type":"Feature"},
	{"geometry":{"coordinates":[-77.035317,38.88724],"type":"Point"},"properties":{"osm_id":"4303519649","tag":{"natural":"tree"}},"type":"Feature"},
	{"geometry":{"coordinates":[-77.035223,38.887236],"type":"Point"},"properties":{"osm_id":"4303519650","tag":{"natural":"tree"}},"type":"Feature"},
	{"geometry":{"coordinates":[-77.035155,38.887201],"type":"Point"},"properties":{"osm_id":"4303519651","tag":{"natural":"tree"}},"type":"Feature"},
	{"geometry":{"coordinates":[-77.03501,38.887309],"type":"Point"},"properties":{"osm_id":"4303519652","tag":{"natural":"tree"}},"type":"Feature"},
	{"geometry":{"coordinates":[-77.035525,38.887609],"type":"Point"},"properties":{"osm_id":"4303519653","tag":{"natural":"tree"}},"type":"Feature"},
	{"geometry":{"coordinates":[-77.035352,38.88761],"type":"Point"},"properties":{"osm_id":"4303519654","tag":{"natural":"tree"}},"type":"Feature"},
	{"geometry":{"coordinates":[-77.035196,38.887615],"type":"Point"},"properties":{"osm_id":"4303519655","tag":{"natural":"tree"}},"type":"Feature"},
	{"geometry":{"coordinates":[-77.035016,38.88763],"type":"Point"},"properties":{"osm_id":"4303519656","tag":{"natural":"tree"}},"type":"Feature"},
	{"geometry":{"coordinates":[-77.034843,38.887658],"type":"Point"},"properties":{"osm_id":"4303519657","tag":{"natural":"tree"}},"type":"Feature"},
	{"geometry":{"coordinates":[-77.035195,38.887814],"type":"Point"},"properties":{"osm_id":"4303519658","tag":{"natural":"tree"}},"type":"Feature"},
	{"geometry":{"coordinates":[-77.035209,38.887749],"type":"Point"},"properties":{"osm_id":"4303519659","tag":{"natural":"tree"}},"type":"Feature"},
	{"geometry":{"coordinates":[-77.035122,38.887743],"type":"Point"},"properties":{"osm_id":"4303519660","tag":{"natural":"tree"}},"type":"Feature"},
	{"geometry":{"coordinates":[-77.034981,38.887751],"type":"Point"},"properties":{"osm_id":"4303519661","tag":{"natural":"tree"}},"type":"Feature"},
	{"geometry":{"coordinates":[-77.035343,38.887717],"type":"Point"},"properties":{"osm_id":"4303519662","tag":{"natural":"tree"}},"type":"Feature"},
	{"geometry":{"coordinates":[-77.034977,38.887852],"type":"Point"},"properties":{"osm_id":"4303519663","tag":{"natural":"tree"}},"type":"Feature"},
	{"geometry":{"coordinates":[-77.034892,38.887995],"type":"Point"},"properties":{"osm_id":"4303519664","tag":{"natural":"tree"}},"type":"Feature"},
	{"geometry":{"coordinates":[-77.034907,38.888113],"type":"Point"},"properties":{"osm_id":"4303519665","tag":{"natural":"tree"}},"type":"Feature"},
	{"geometry":{"coordinates":[-77.03466,38.887833],"type":"Point"},"properties":{"osm_id":"4303519666","tag":{"natural":"tree"}},"type":"Feature"},
	{"geometry":{"coordinates":[-77.034726,38.887904],"type":"Point"},"properties":{"osm_id":"4303519667","tag":{"natural":"tree"}},"type":"Feature"},
	{"geometry":{"coordinates":[-77.034784,38.888154],"type":"Point"},"properties":{"osm_id":"4303519668","tag":{"natural":"tree"}},"type":"Feature"},
	{"geometry":{"coordinates":[-77.034531,38.888083],"type":"Point"},"properties":{"osm_id":"4303519669","tag":{"natural":"tree"}},"type":"Feature"},
	{"geometry":{"coordinates":[-77.03465,38.887696],"type":"Point"},"properties":{"osm_id":"4303519670","tag":{"natural":"tree"}},"type":"Feature"},
	{"geometry":{"coordinates":[-77.034502,38.887737],"type":"Point"},"properties":{"osm_id":"4303519671","tag":{"natural":"tree"}},"type":"Feature"},
	{"geometry":{"coordinates":[-77.033987,38.88785],"type":"Point"},"properties":{"osm_id":"4303519672","tag":{"natural":"tree"}},"type":"Feature"},
	{"geometry":{"coordinates":[-77.034321,38.887775],"type":"Point"},"properties":{"osm_id":"4303519673","tag":{"natural":"tree"}},"type":"Feature"},
	{"geometry":{"coordinates":[-77.034177,38.887803],"type":"Point"},"properties":{"osm_id":"4303519674","tag":{"natural":"tree"}},"type":"Feature"},
	{"geometry":{"coordinates":[-77.034554,38.887808],"type":"Point"},"properties":{"osm_id":"4303519675","tag":{"natural":"tree"}},"type":"Feature"},
	{"geometry":{"coordinates":[-77.03449,38.887894],"type":"Point"},"properties":{"osm_id":"4303519676","tag":{"natural":"tree"}},"type":"Feature"},
	{"geometry":{"coordinates":[-77.034424,38.887993],"type":"Point"},"properties":{"osm_id":"4303519677","tag":{"natural":"tree"}},"type":"Feature"},
	{"geometry":{"coordinates":[-77.034377,38.887846],"type":"Point"},"properties":{"osm_id":"4303519678","tag":{"natural":"tree"}},"type":"Feature"},
	{"geometry":{"coordinates":[-77.03421,38.887898],"type":"Point"},"properties":{"osm_id":"4303519679","tag":{"natural":"tree"}},"type":"Feature"},
	{"geometry":{"coordinates":[-77.034184,38.887967],"type":"Point"},"properties":{"osm_id":"4303519680","tag":{"natural":"tree"}},"type":"Feature"},
	{"geometry":{"coordinates":[-77.034078,38.888011],"type":"Point"},"properties":{"osm_id":"4303519681","tag":{"natural":"tree"}},"type":"Feature"},
	{"geometry":{"coordinates":[-77.033996,38.88796],"type":"Point"},"properties":{"osm_id":"4303519682","tag":{"natural":"tree"}},"type":"Feature"},
	{"geometry":{"coordinates":[-77.033913,38.887967],"type":"Point"},"properties":{"osm_id":"4303519683","tag":{"natural":"tree"}},"type":"Feature"},
	{"geometry":{"coordinates":[-77.034498,38.888228],"type":"Point"},"properties":{"osm_id":"4303519684","tag":{"natural":"tree"}},"type":"Feature"},
	{"geometry":{"coordinates":[-77.03445,38.888261],"type":"Point"},"properties":{"osm_id":"4303519685","tag":{"natural":"tree"}},"type":"Feature"},
	{"geometry":{"coordinates":[-77.034403,38.888291],"type":"Point"},"properties":{"osm_id":"4303519686","tag":{"natural":"tree"}},"type":"Feature"},
	{"geometry":{"coordinates":[-77.034368,38.888323],"type":"Point"},"properties":{"osm_id":"4303519687","tag":{"natural":"tree"}},"type":"Feature"},
	{"geometry":{"coordinates":[-77.034271,38.888239],"type":"Point"},"properties":{"osm_id":"4303519688","tag":{"natural":"tree"}},"type":"Feature"},
	{"geometry":{"coordinates":[-77.034024,38.888478],"type":"Point"},"properties":{"osm_id":"4303519689","tag":{"natural":"tree"}},"type":"Feature"},
	{"geometry":{"coordinates":[-77.034188,38.888279],"type":"Point"},"properties":{"osm_id":"4303519690","tag":{"natural":"tree"}},"type":"Feature"},
	{"geometry":{"coordinates":[-77.033998,38.888219],"type":"Point"},"properties":{"osm_id":"4303519691","tag":{"natural":"tree"}},"type":"Feature"},
	{"geometry":{"coordinates":[-77.033929,38.888252],"type":"Point"},"properties":{"osm_id":"4303519692","tag":{"natural":"tree"}},"type":"Feature"},
	{"geometry":{"coordinates":[-77.034065,38.888111],"type":"Point"},"properties":{"osm_id":"4303519693","tag":{"natural":"tree"}},"type":"Feature"},
	{"geometry":{"coordinates":[-77.034312,38.888471],"type":"Point"},"properties":{"osm_id":"4303519694","tag":{"natural":"tree"}},"type":"Feature"},
	{"geometry":{"coordinates":[-77.033779,38.888331],"type":"Point"},"properties":{"osm_id":"4303519695","tag":{"natural":"tree"}},"type":"Feature"},
	{"geometry":{"coordinates":[-77.033835,38.888246],"type":"Point"},"properties":{"osm_id":"4303519696","tag":{"natural":"tree"}},"type":"Feature"},
	{"geometry":{"coordinates":[-77.033748,38.888422],"type":"Point"},"properties":{"osm_id":"4303519697","tag":{"natural":"tree"}},"type":"Feature"},
	{"geometry":{"coordinates":[-77.03222,38.888827],"type":"Point"},"properties":{"osm_id":"4303519698","tag":{"natural":"tree"}},"type":"Feature"},
	{"geometry":{"coordinates":[-77.032187,38.88912],"type":"Point"},"properties":{"osm_id":"4303519699","tag":{"natural":"tree"}},"type":"Feature"},
	{"geometry":{"coordinates":[-77.032205,38.890093],"type":"Point"},"properties":{"osm_id":"4303519700","tag":{"natural":"tree"}},"type":"Feature"},
	{"geometry":{"coordinates":[-77.032208,38.888967],"type":"Point"},"properties":{"osm_id":"4303519701","tag":{"natural":"tree"}},"type":"Feature"},
	{"geometry":{"coordinates":[-77.033042,38.888269],"type":"Point"},"properties":{"osm_id":"4303519702","tag":{"natural":"tree"}},"type":"Feature"},
	{"geometry":{"coordinates":[-77.032996,38.888397],"type":"Point"},"properties":{"osm_id":"4303519703","tag":{"natural":"tree"}},"type":"Feature"},
	{"geometry":{"coordinates":[-77.032957,38.888488],"type":"Point"},"properties":{"osm_id":"4303519704","tag":{"natural":"tree"}},"type":"Feature"},
	{"geometry":{"coordinates":[-77.032875,38.888527],"type":"Point"},"properties":{"osm_id":"4303519705","tag":{"natural":"tree"}},"type":"Feature"},
	{"geometry":{"coordinates":[-77.032839,38.888356],"type":"Point"},"properties":{"osm_id":"4303519706","tag":{"natural":"tree"}},"type":"Feature"},
	{"geometry":{"coordinates":[-77.032812,38.888458],"type":"Point"},"properties":{"osm_id":"4303519707","tag":{"natural":"tree"}},"type":"Feature"},
	{"geometry":{"coordinates":[-77.032751,38.888542],"type":"Point"},"properties":{"osm_id":"4303519708","tag":{"natural":"tree"}},"type":"Feature"},
	{"geometry":{"coordinates":[-77.032705,38.888437],"type":"Point"},"properties":{"osm_id":"4303519709","tag":{"natural":"tree"}},"type":"Feature"},
	{"geometry":{"coordinates":[-77.032473,38.888484],"type":"Point"},"properties":{"osm_id":"4303519710","tag":{"natural":"tree"}},"type":"Feature"},
	{"geometry":{"coordinates":[-77.033202,38.888346],"type":"Point"},"properties":{"osm_id":"4303519711","tag":{"natural":"tree"}},"type":"Feature"},
	{"geometry":{"coordinates":[-77.033292,38.888273],"type":"Point"},"properties":{"osm_id":"4303519712","tag":{"natural":"tree"}},"type":"Feature"},
	{"geometry":{"coordinates":[-77.033338,38.888165],"type":"Point"},"properties":{"osm_id":"4303519713","tag":{"natural":"tree"}},"type":"Feature"},
	{"geometry":{"coordinates":[-77.033408,38.888129],"type":"Point"},"properties":{"osm_id":"4303519714","tag":{"natural":"tree"}},"type":"Feature"},
	{"geometry":{"coordinates":[-77.033493,38.887971],"type":"Point"},"properties":{"osm_id":"4303519716","tag":{"natural":"tree"}},"type":"Feature"},
	{"geometry":{"coordinates":[-77.033139,38.888061],"type":"Point"},"properties":{"osm_id":"4303519717","tag":{"natural":"tree"}},"type":"Feature"},
	{"geometry":{"coordinates":[-77.032965,38.888148],"type":"Point"},"properties":{"osm_id":"4303519718","tag":{"natural":"tree"}},"type":"Feature"},
	{"geometry":{"coordinates":[-77.032673,38.888144],"type":"Point"},"properties":{"osm_id":"4303519719","tag":{"natural":"tree"}},"type":"Feature"},
	{"geometry":{"coordinates":[-77.032763,38.888107],"type":"Point"},"properties":{"osm_id":"4303519720","tag":{"natural":"tree"}},"type":"Feature"},
	{"geometry":{"coordinates":[-77.032822,38.888248],"type":"Point"},"properties":{"osm_id":"4303519721","tag":{"natural":"tree"}},"type":"Feature"},
	{"geometry":{"coordinates":[-77.032502,38.888301],"type":"Point"},"properties":{"osm_id":"4303519722","tag":{"natural":"tree"}},"type":"Feature"},
	{"geometry":{"coordinates":[-77.032374,38.888389],"type":"Point"},"properties":{"osm_id":"4303519723","tag":{"natural":"tree"}},"type":"Feature"},
	{"geometry":{"coordinates":[-77.032187,38.888409],"type":"Point"},"properties":{"osm_id":"4303519724","tag":{"natural":"tree"}},"type":"Feature"},
	{"geometry":{"coordinates":[-77.032102,38.888276],"type":"Point"},"properties":{"osm_id":"4303519725","tag":{"natural":"tree"}},"type":"Feature"},
	{"geometry":{"coordinates":[-77.032291,38.888167],"type":"Point"},"properties":{"osm_id":"4303519726","tag":{"natural":"tree"}},"type":"Feature"},
	{"geometry":{"coordinates":[-77.032286,38.88828],"type":"Point"},"properties":{"osm_id":"4303519727","tag":{"natural":"tree"}},"type":"Feature"},
	{"geometry":{"coordinates":[-77.032373,38.887969],"type":"Point"},"properties":{"osm_id":"4303519728","tag":{"natural":"tree"}},"type":"Feature"},
	{"geometry":{"coordinates":[-77.032577,38.887931],"type":"Point"},"properties":{"osm_id":"4303519729","tag":{"natural":"tree"}},"type":"Feature"},
	{"geometry":{"coordinates":[-77.032206,38.88792],"type":"Point"},"properties":{"osm_id":"4303519730","tag":{"natural":"tree"}},"type":"Feature"},
	{"geometry":{"coordinates":[-77.032213,38.888037],"type":"Point"},"properties":{"osm_id":"4303519731","tag":{"natural":"tree"}},"type":"Feature"},
	{"geometry":{"coordinates":[-77.03224,38.887842],"type":"Point"},"properties":{"osm_id":"4303519732","tag":{"natural":"tree"}},"type":"Feature"},
	{"geometry":{"coordinates":[-77.032104,38.887892],"type":"Point"},"properties":{"osm_id":"4303519733","tag":{"natural":"tree"}},"type":"Feature"},
	{"geometry":{"coordinates":[-77.032104,38.88805],"type":"Point"},"properties":{"osm_id":"4303519734","tag":{"natural":"tree"}},"type":"Feature"},
	{"geometry":{"coordinates":[-77.032359,38.887778],"type":"Point"},"properties":{"osm_id":"4303519735","tag":{"natural":"tree"}},"type":"Feature"},
	{"geometry":{"coordinates":[-77.032509,38.887816],"type":"Point"},"properties":{"osm_id":"4303519736","tag":{"natural":"tree"}},"type":"Feature"},
	{"geometry":{"coordinates":[-77.032761,38.887867],"type":"Point"},"properties":{"osm_id":"4303519737","tag":{"natural":"tree"}},"type":"Feature"},
	{"geometry":{"coordinates":[-77.032957,38.887912],"type":"Point"},"properties":{"osm_id":"4303519738","tag":{"natural":"tree"}},"type":"Feature"},
	{"geometry":{"coordinates":[-77.033224,38.887942],"type":"Point"},"properties":{"osm_id":"4303519739","tag":{"natural":"tree"}},"type":"Feature"},
	{"geometry":{"coordinates":[-77.033583,38.890263],"type":"Point"},"properties":{"osm_id":"4303519743","tag":{"natural":"tree"}},"type":"Feature"},
	{"geometry":{"coordinates":[-77.033544,38.890142],"type":"Point"},"properties":{"osm_id":"4303519744","tag":{"natural":"tree"}},"type":"Feature"},
	{"geometry":{"coordinates":[-77.033506,38.890046],"type":"Point"},"properties":{"osm_id":"4303519745","tag":{"natural":"tree"}},"type":"Feature"},
	{"geometry":{"coordinates":[-77.033248,38.88907],"type":"Point"},"properties":{"osm_id":"4303519746","tag":{"natural":"tree"}},"type":"Feature"},
	{"geometry":{"coordinates":[-77.033368,38.889684],"type":"Point"},"properties":{"osm_id":"4303519747","tag":{"natural":"tree"}},"type":"Feature"},
	{"geometry":{"coordinates":[-77.033361,38.889846],"type":"Point"},"properties":{"osm_id":"4303519748","tag":{"natural":"tree"}},"type":"Feature"},
	{"geometry":{"coordinates":[-77.033305,38.88981],"type":"Point"},"properties":{"osm_id":"4303519749","tag":{"natural":"tree"}},"type":"Feature"},
	{"geometry":{"coordinates":[-77.03327,38.889884],"type":"Point"},"properties":{"osm_id":"4303519750","tag":{"natural":"tree"}},"type":"Feature"},
	{"geometry":{"coordinates":[-77.032223,38.889947],"type":"Point"},"properties":{"osm_id":"4303519752","tag":{"natural":"tree"}},"type":"Feature"},
	{"geometry":{"coordinates":[-77.032195,38.8902],"type":"Point"},"properties":{"osm_id":"4303519753","tag":{"natural":"tree"}},"type":"Feature"},
	{"geometry":{"coordinates":[-77.0323,38.890082],"type":"Point"},"properties":{"osm_id":"4303519754","tag":{"natural":"tree"}},"type":"Feature"},
	{"geometry":{"coordinates":[-77.03628,38.889002],"type":"Point"},"properties":{"osm_id":"4303519775","tag":{"natural":"tree"}},"type":"Feature"},
	{"geometry":{"coordinates":[-77.036438,38.888994],"type":"Point"},"properties":{"osm_id":"4303519776","tag":{"natural":"tree"}},"type":"Feature"},
	{"geometry":{"coordinates":[-77.036323,38.888935],"type":"Point"},"properties":{"osm_id":"4303519777","tag":{"natural":"tree"}},"type":"Feature"},
	{"geometry":{"coordinates":[-77.036057,38.886319],"type":"Point"},"properties":{"osm_id":"8939320290","tag":{"natural":"tree"}},"type":"Feature"},
	{"geometry":{"coordinates":[-76.994173,38.889881],"type":"Point"},"properties":{"osm_id":"8939320307","tag":{"natural":"tree"}},"type":"Feature"},
	{"geometry":{"coordinates":[-76.994227,38.889754],"type":"Point"},"properties":{"osm_id":"8939320308","tag":{"natural":"tree"}},"type":"Feature"},
	{"geometry":{"coordinates":[-76.99351,38.88968],"type":"Point"},"properties":{"osm_id":"8939320309","tag":{"natural":"tree"}},"type":"Feature"},
	{"geometry":{"coordinates":[-76.993422,38.889893],"type":"Point"},"properties":{"osm_id":"8939320310","tag":{"natural":"tree"}},"type":"Feature"},
	{"geometry":{"coordinates":[-77.051432,38.857922],"type":"Point"},"properties":{"osm_id":"9101976081","tag":{"natural":"tree"}},"type":"Feature"},
	{"geometry":{"coordinates":[-77.051388,38.85792],"type":"Point"},"properties":{"osm_id":"9101976082","tag":{"natural":"tree"}},"type":"Feature"},
	{"geometry":{"coordinates":[-77.051343,38.857918],"type":"Point"},"properties":{"osm_id":"9101976083","tag":{"natural":"tree"}},"type":"Feature"},
	{"geometry":{"coordinates":[-77.051599,38.85787],"type":"Point"},"properties":{"osm_id":"9101976084","tag":{"natural":"tree"}},"type":"Feature"},
	{"geometry":{"coordinates":[-77.051269,38.857945],"type":"Point"},"properties":{"osm_id":"9101976085","tag":{"natural":"tree"}},"type":"Feature"},
	{"geometry":{"coordinates":[-77.05149,38.857821],"type":"Point"},"properties":{"osm_id":"9101976086","tag":{"natural":"tree"}},"type":"Feature"}
]
}
