{
"type": "FeatureCollection",
"features": [
	{"geometry":{"coordinates":[28.861614,47.042801],"type":"Point"},"properties":{"osm_id":"937339457","tag":{"amenity":"waste_disposal"}},"type":"Feature"},
	{"geometry":{"coordinates":[28.866467,47.08903],"type":"Point"},"properties":{"osm_id":"1217769582","tag":{"amenity":"waste_disposal"}},"type":"Feature"},
	{"geometry":{"coordinates":[28.86379,47.089264],"type":"Point"},"properties":{"osm_id":"1217769618","tag":{"amenity":"recycling"}},"type":"Feature"},
	{"geometry":{"coordinates":[28.864716,47.088104],"type":"Point"},"properties":{"osm_id":"1217769702","tag":{"amenity":"recycling"}},"type":"Feature"},
	{"geometry":{"coordinates":[28.867227,47.097041],"type":"Point"},"properties":{"osm_id":"1396335676","tag":{"amenity":"recycling"}},"type":"Feature"},
	{"geometry":{"coordinates":[28.871988,47.096059],"type":"Point"},"properties":{"osm_id":"1398429570","tag":{"amenity":"recycling"}},"type":"Feature"},
	{"geometry":{"coordinates":[28.866003,47.091573],"type":"Point"},"properties":{"osm_id":"1790060392","tag":{"amenity":"recycling"}},"type":"Feature"},
	{"geometry":{"coordinates":[28.869742,47.095861],"type":"Point"},"properties":{"osm_id":"1829925718","tag":{"amenity":"recycling"}},"type":"Feature"},
	{"geometry":{"coordinates":[28.869086,47.095799],"type":"Point"},"properties":{"osm_id":"1829925734","tag":{"amenity":"recycling"}},"type":"Feature"},
	{"geometry":{"coordinates":[28.83235,47.095639],"type":"Point"},"properties":{"osm_id":"2283941455","tag":{"amenity":"recycling"}},"type":"Feature"},
	{"geometry":{"coordinates":[28.832084,47.09569],"type":"Point"},"properties":{"osm_id":"2283941456","tag":{"amenity":"recycling"}},"type":"Feature"},
	{"geometry":{"coordinates":[28.833598,47.09708],"type":"Point"},"properties":{"osm_id":"2283941464","tag":{"amenity":"recycling"}},"type":"Feature"},
	{"geometry":{"coordinates":[28.828671,47.098453],"type":"Point"},"properties":{"osm_id":"2283941473","tag":{"amenity":"recycling"}},"type":"Feature"},
	{"geometry":{"coordinates":[28.82852,47.098519],"type":"Point"},"properties":{"osm_id":"2283941474","tag":{"amenity":"recycling"}},"type":"Feature"},
	{"geometry":{"coordinates":[28.82947,47.099449],"type":"Point"},"properties":{"osm_id":"2283941482","tag":{"amenity":"recycling"}},"type":"Feature"},
	{"geometry":{"coordinates":[28.828169,47.099989],"type":"Point"},"properties":{"osm_id":"2283941484","tag":{"amenity":"recycling"}},"type":"Feature"},
	{"geometry":{"coordinates":[28.850961,47.057819],"type":"Point"},"properties":{"osm_id":"2351958680","tag":{"amenity":"waste_basket"}},"type":"Feature"},
	{"geometry":{"coordinates":[28.863321,47.042415],"type":"Point"},"properties":{"osm_id":"2454082287","tag":{"amenity":"waste_disposal"}},"type":"Feature"},
	{"geometry":{"coordinates":[28.846603,47.066492],"type":"Point"},"properties":{"osm_id":"3779853077","tag":{"amenity":"waste_disposal"}},"type":"Feature"},
	{"geometry":{"coordinates":[28.849094,47.064301],"type":"Point"},"properties":{"osm_id":"3785913772","tag":{"amenity":"recycling"}},"type":"Feature"},
	{"geometry":{"coordinates":[28.845167,47.06701],"type":"Point"},"properties":{"osm_id":"3788771832","tag":{"amenity":"recycling","recycling:plastic_bottles":"yes","recycling_type":"container"}},"type":"Feature"},
	{"geometry":{"coordinates":[28.84438,47.065604],"type":"Point"},"properties":{"osm_id":"3788885348","tag":{"amenity":"recycling","recycling:plastic_bottles":"yes","recycling_type":"container"}},"type":"Feature"},
	{"geometry":{"coordinates":[28.84323,47.064233],"type":"Point"},"properties":{"osm_id":"3796731861","tag":{"amenity":"recycling"}},"type":"Feature"},
	{"geometry":{"coordinates":[28.842273,47.066098],"type":"Point"},"properties":{"osm_id":"3796731872","tag":{"amenity":"recycling"}},"type":"Feature"},
	{"geometry":{"coordinates":[28.843815,47.062188],"type":"Point"},"properties":{"osm_id":"3796756159","tag":{"amenity":"recycling"}},"type":"Feature"},
	{"geometry":{"coordinates":[28.841242,47.064381],"type":"Point"},"properties":{"osm_id":"3796844365","tag":{"amenity":"recycling"}},"type":"Feature"},
	{"geometry":{"coordinates":[28.84134,47.064054],"type":"Point"},"properties":{"osm_id":"3796844369","tag":{"amenity":"recycling"}},"type":"Feature"},
	{"geometry":{"coordinates":[28.841778,47.063149],"type":"Point"},"properties":{"osm_id":"3796844372","tag":{"amenity":"recycling"}},"type":"Feature"},
	{"geometry":{"coordinates":[28.841169,47.063336],"type":"Point"},"properties":{"osm_id":"3796916537","tag":{"amenity":"recycling"}},"type":"Feature"},
	{"geometry":{"coordinates":[28.835343,47.064393],"type":"Point"},"properties":{"osm_id":"3799273407","tag":{"amenity":"recycling"}},"type":"Feature"},
	{"geometry":{"coordinates":[28.837847,47.060593],"type":"Point"},"properties":{"osm_id":"3799273408","tag":{"amenity":"recycling"}},"type":"Feature"},
	{"geometry":{"coordinates":[28.836675,47.062562],"type":"Point"},"properties":{"osm_id":"3799273423","tag":{"amenity":"recycling"}},"type":"Feature"},
	{"geometry":{"coordinates":[28.837424,47.062895],"type":"Point"},"properties":{"osm_id":"3799273428","tag":{"amenity":"recycling"}},"type":"Feature"},
	{"geometry":{"coordinates":[28.850486,47.054879],"type":"Point"},"properties":{"osm_id":"3804603663","tag":{"amenity":"recycling"}},"type":"Feature"},
	{"geometry":{"coordinates":[28.847001,47.060077],"type":"Point"},"properties":{"osm_id":"3813527355","tag":{"amenity":"recycling"}},"type":"Feature"},
	{"geometry":{"coordinates":[28.847339,47.057312],"type":"Point"},"properties":{"osm_id":"4058579146","tag":{"amenity":"waste_disposal"}},"type":"Feature"},
	{"geometry":{"coordinates":[28.891056,47.044026],"type":"Point"},"properties":{"osm_id":"4193097914","tag":{"amenity":"waste_disposal"}},"type":"Feature"},
	{"geometry":{"coordinates":[28.892841,47.041776],"type":"Point"},"properties":{"osm_id":"4193333259","tag":{"amenity":"waste_disposal"}},"type":"Feature"},
	{"geometry":{"coordinates":[28.862517,47.044683],"type":"Point"},"properties":{"osm_id":"4336248881","tag":{"amenity":"waste_disposal"}},"type":"Feature"},
	{"geometry":{"coordinates":[28.860408,47.045406],"type":"Point"},"properties":{"osm_id":"4336248882","tag":{"amenity":"waste_disposal"}},"type":"Feature"},
	{"geometry":{"coordinates":[28.866006,47.045029],"type":"Point"},"properties":{"osm_id":"4336248883","tag":{"amenity":"waste_disposal"}},"type":"Feature"},
	{"geometry":{"coordinates":[28.860938,47.040577],"type":"Point"},"properties":{"osm_id":"4674563091","tag":{"amenity":"waste_disposal"}},"type":"Feature"},
	{"geometry":{"coordinates":[28.844338,47.065674],"type":"Point"},"properties":{"osm_id":"4718783290","tag":{"amenity":"waste_disposal"}},"type":"Feature"},
	{"geometry":{"coordinates":[28.888729,47.055359],"type":"Point"},"properties":{"osm_id":"4760503221","tag":{"amenity":"waste_disposal"}},"type":"Feature"},
	{"geometry":{"coordinates":[28.889061,47.055064],"type":"Point"},"properties":{"osm_id":"4760503222","tag":{"amenity":"waste_disposal"}},"type":"Feature"},
	{"geometry":{"coordinates":[28.867061,47.054109],"type":"Point"},"properties":{"osm_id":"5355690924","tag":{"amenity":"waste_disposal"}},"type":"Feature"},
	{"geometry":{"coordinates":[28.863382,47.046569],"type":"Point"},"properties":{"osm_id":"6166650185","tag":{"amenity":"waste_disposal"}},"type":"Feature"},
	{"geometry":{"coordinates":[28.843356,47.063247],"type":"Point"},"properties":{"osm_id":"6514019885","tag":{"amenity":"waste_disposal"}},"type":"Feature"},
	{"geometry":{"coordinates":[28.834691,47.063261],"type":"Point"},"properties":{"name":"Paleti","osm_id":"6631032385","tag":{"amenity":"recycling","name:en":"Pallets","name:ru":"\u00d0\u009f\u00d0\u00be\u00d0\u00b4\u00d0\u00b4\u00d0\u00be\u00d0\u00bd\u00d1\u008b","operator":"191/1","phone":"060110210","website":"http://www.europalet.md"}},"type":"Feature"},
	{"geometry":{"coordinates":[28.845109,47.067003],"type":"Point"},"properties":{"osm_id":"7028627338","tag":{"amenity":"waste_disposal"}},"type":"Feature"}
]
}
