{
"type": "FeatureCollection",
"features": [
	{"geometry":{"coordinates":[28.851489,46.9807],"type":"Point"},"properties":{"osm_id":"830589532","tag":{"amenity":"waste_basket"}},"type":"Feature"},
	{"geometry":{"coordinates":[28.860602,47.039069],"type":"Point"},"properties":{"osm_id":"937348185","tag":{"amenity":"waste_disposal"}},"type":"Feature"},
	{"geometry":{"coordinates":[28.863566,47.03878],"type":"Point"},"properties":{"osm_id":"937348186","tag":{"amenity":"waste_disposal"}},"type":"Feature"},
	{"geometry":{"coordinates":[28.860578,47.035308],"type":"Point"},"properties":{"osm_id":"939440350","tag":{"amenity":"waste_disposal"}},"type":"Feature"},
	{"geometry":{"coordinates":[28.832567,47.018827],"type":"Point"},"properties":{"osm_id":"1133509411","tag":{"amenity":"recycling"}},"type":"Feature"},
	{"geometry":{"coordinates":[28.847307,46.9873],"type":"Point"},"properties":{"osm_id":"1233362313","tag":{"amenity":"waste_basket"}},"type":"Feature"},
	{"geometry":{"coordinates":[28.849383,46.998161],"type":"Point"},"properties":{"osm_id":"1246313262","tag":{"amenity":"waste_basket"}},"type":"Feature"},
	{"geometry":{"coordinates":[28.836418,47.02166],"type":"Point"},"properties":{"osm_id":"1317344267","tag":{"amenity":"waste_basket"}},"type":"Feature"},
	{"geometry":{"coordinates":[28.839936,47.010721],"type":"Point"},"properties":{"osm_id":"2422307689","tag":{"amenity":"waste_basket"}},"type":"Feature"},
	{"geometry":{"coordinates":[28.845884,47.014099],"type":"Point"},"properties":{"osm_id":"2422307718","tag":{"amenity":"waste_disposal"}},"type":"Feature"},
	{"geometry":{"coordinates":[28.914376,46.987851],"type":"Point"},"properties":{"name":"Molauto","osm_id":"4100689198","tag":{"amenity":"recycling","name:ro":"Molauto","name:ru":"\u041c\u043e\u043b\u0430\u0443\u0442\u043e","operator":"Molauto","phone":"068660607","website":"www.molauto.md"}},"type":"Feature"},
	{"geometry":{"coordinates":[28.842432,47.030566],"type":"Point"},"properties":{"osm_id":"4117789330","tag":{"amenity":"waste_basket"}},"type":"Feature"},
	{"geometry":{"coordinates":[28.842735,47.030103],"type":"Point"},"properties":{"osm_id":"4117796229","tag":{"amenity":"waste_disposal"}},"type":"Feature"},
	{"geometry":{"coordinates":[28.833674,47.003113],"type":"Point"},"properties":{"osm_id":"4354772165","tag":{"amenity":"waste_disposal"}},"type":"Feature"},
	{"geometry":{"coordinates":[28.856902,46.989661],"type":"Point"},"properties":{"osm_id":"4497923928","tag":{"amenity":"waste_basket"}},"type":"Feature"},
	{"geometry":{"coordinates":[28.874328,46.997255],"type":"Point"},"properties":{"osm_id":"4768258121","tag":{"amenity":"recycling","name:ru":"\u043f\u0440\u0438\u0451\u043c \u043c\u0430\u043a\u0443\u043b\u0430\u0442\u0443\u0440\u044b \u0438 \u0431\u0443\u0442\u044b\u043b\u043e\u043a"}},"type":"Feature"},
	{"geometry":{"coordinates":[28.867824,46.994123],"type":"Point"},"properties":{"osm_id":"4768258122","tag":{"amenity":"waste_disposal"}},"type":"Feature"},
	{"geometry":{"coordinates":[28.868005,46.994216],"type":"Point"},"properties":{"osm_id":"4768264121","tag":{"amenity":"recycling","name:ru":"\u043f\u0440\u0438\u0451\u043c \u0431\u0443\u0442\u044b\u043b\u043e\u043a"}},"type":"Feature"},
	{"geometry":{"coordinates":[28.839414,47.023858],"type":"Point"},"properties":{"osm_id":"4848925622","tag":{"amenity":"waste_disposal"}},"type":"Feature"},
	{"geometry":{"coordinates":[28.865514,46.987497],"type":"Point"},"properties":{"osm_id":"4993916926","tag":{"amenity":"waste_disposal"}},"type":"Feature"},
	{"geometry":{"coordinates":[28.89728,46.980377],"type":"Point"},"properties":{"osm_id":"5621904724","tag":{"amenity":"waste_disposal"}},"type":"Feature"},
	{"geometry":{"coordinates":[28.866778,47.039955],"type":"Point"},"properties":{"name":"Colectarea sticlei","osm_id":"5643568441","tag":{"amenity":"recycling","name:ru":"\u041f\u0440\u0438\u0451\u043c \u0441\u0442\u0435\u043a\u043b\u043e\u0442\u0430\u0440\u044b","recycling_type":"centre"}},"type":"Feature"},
	{"geometry":{"coordinates":[28.897533,46.980997],"type":"Point"},"properties":{"osm_id":"5647008421","tag":{"amenity":"waste_disposal"}},"type":"Feature"},
	{"geometry":{"coordinates":[28.850825,46.982313],"type":"Point"},"properties":{"osm_id":"5871505185","tag":{"amenity":"waste_disposal"}},"type":"Feature"},
	{"geometry":{"coordinates":[28.838791,46.986056],"type":"Point"},"properties":{"osm_id":"6147610985","tag":{"amenity":"waste_disposal","operator":"\u0423\u043f\u0440\u0430\u0432\u043b\u0435\u043d\u0438\u0435 \u043a\u043e\u043c\u043c\u0443\u043d\u0430\u043b\u044c\u043d\u043e\u0439 \u0441\u043b\u0443\u0436\u0431\u044b"}},"type":"Feature"},
	{"geometry":{"coordinates":[28.836049,46.985507],"type":"Point"},"properties":{"osm_id":"6147632185","tag":{"amenity":"waste_disposal","operator":"\u0423\u043f\u0440\u0430\u0432\u043b\u0435\u043d\u0438\u0435 \u043a\u043e\u043c\u043c\u0443\u043d\u0430\u043b\u044c\u043d\u043e\u0439 \u0441\u043b\u0443\u0436\u0431\u044b"}},"type":"Feature"},
	{"geometry":{"coordinates":[28.852575,47.007986],"type":"Point"},"properties":{"osm_id":"6147989985","tag":{"amenity":"waste_disposal"}},"type":"Feature"},
	{"geometry":{"coordinates":[28.870434,46.992651],"type":"Point"},"properties":{"osm_id":"6148126686","tag":{"amenity":"waste_disposal"}},"type":"Feature"},
	{"geometry":{"coordinates":[28.861464,46.999566],"type":"Point"},"properties":{"osm_id":"6148129586","tag":{"amenity":"waste_disposal"}},"type":"Feature"},
	{"geometry":{"coordinates":[28.861702,47.002192],"type":"Point"},"properties":{"osm_id":"6148161985","tag":{"amenity":"waste_disposal"}},"type":"Feature"},
	{"geometry":{"coordinates":[28.875464,46.994641],"type":"Point"},"properties":{"osm_id":"6148202388","tag":{"amenity":"waste_disposal"}},"type":"Feature"},
	{"geometry":{"coordinates":[28.847341,47.012617],"type":"Point"},"properties":{"osm_id":"6807214286","tag":{"amenity":"waste_disposal"}},"type":"Feature"},
	{"geometry":{"coordinates":[28.835306,47.011532],"type":"Point"},"properties":{"osm_id":"6913574285","tag":{"amenity":"waste_disposal"}},"type":"Feature"},
	{"geometry":{"coordinates":[28.834037,47.005772],"type":"Point"},"properties":{"osm_id":"6917511885","tag":{"amenity":"waste_disposal"}},"type":"Feature"},
	{"geometry":{"coordinates":[28.835541,47.005041],"type":"Point"},"properties":{"osm_id":"6938193485","tag":{"amenity":"waste_disposal"}},"type":"Feature"},
	{"geometry":{"coordinates":[28.849938,47.006743],"type":"Point"},"properties":{"osm_id":"6938940885","tag":{"amenity":"waste_disposal"}},"type":"Feature"},
	{"geometry":{"coordinates":[28.832911,47.008289],"type":"Point"},"properties":{"osm_id":"7006323300","tag":{"amenity":"waste_disposal"}},"type":"Feature"},
	{"geometry":{"coordinates":[28.849339,46.993573],"type":"Point"},"properties":{"osm_id":"7589147485","tag":{"amenity":"waste_disposal"}},"type":"Feature"},
	{"geometry":{"coordinates":[28.849116,46.983247],"type":"Point"},"properties":{"osm_id":"7643955485","tag":{"amenity":"waste_disposal"}},"type":"Feature"}
]
}
