{
"type": "FeatureCollection",
"features": [
	{"geometry":{"coordinates":[28.849249,40.979399],"type":"Point"},"properties":{"osm_id":"5225369831","tag":{"amenity":"recycling","opening_hours":"24/7","recycling_type":"container","underground":"yes","wheelchair":"yes"}},"type":"Feature"},
	{"geometry":{"coordinates":[28.84927,40.979457],"type":"Point"},"properties":{"osm_id":"5225369832","tag":{"amenity":"recycling","opening_hours":"24/7","recycling_type":"container","underground":"yes","wheelchair":"yes"}},"type":"Feature"},
	{"geometry":{"coordinates":[28.849292,40.97947],"type":"Point"},"properties":{"osm_id":"5225369833","tag":{"amenity":"recycling","opening_hours":"24/7","recycling_type":"container","underground":"yes","wheelchair":"yes"}},"type":"Feature"},
	{"geometry":{"coordinates":[28.849324,40.979476],"type":"Point"},"properties":{"osm_id":"5225369834","tag":{"amenity":"recycling","opening_hours":"24/7","recycling_type":"container","underground":"yes","wheelchair":"yes"}},"type":"Feature"}
]
}
