{
"type": "FeatureCollection",
"features": [
	{"geometry":{"coordinates":[-79.277023,43.864587],"type":"Point"},"properties":{"osm_id":"437974725","tag":{"amenity":"waste_basket"}},"type":"Feature"},
	{"geometry":{"coordinates":[-79.271951,43.865778],"type":"Point"},"properties":{"osm_id":"437974726","tag":{"amenity":"waste_basket"}},"type":"Feature"},
	{"geometry":{"coordinates":[-79.271883,43.864797],"type":"Point"},"properties":{"osm_id":"437974728","tag":{"amenity":"waste_basket"}},"type":"Feature"},
	{"geometry":{"coordinates":[-79.27171,43.864787],"type":"Point"},"properties":{"osm_id":"437974729","tag":{"amenity":"waste_basket"}},"type":"Feature"},
	{"geometry":{"coordinates":[-79.271864,43.864022],"type":"Point"},"properties":{"osm_id":"437974730","tag":{"amenity":"waste_basket"}},"type":"Feature"},
	{"geometry":{"coordinates":[-79.272774,43.863018],"type":"Point"},"properties":{"osm_id":"437974731","tag":{"amenity":"waste_basket"}},"type":"Feature"},
	{"geometry":{"coordinates":[-79.274947,43.862397],"type":"Point"},"properties":{"osm_id":"437974732","tag":{"amenity":"waste_basket"}},"type":"Feature"},
	{"geometry":{"coordinates":[-79.27669,43.862445],"type":"Point"},"properties":{"osm_id":"437974733","tag":{"amenity":"waste_basket"}},"type":"Feature"},
	{"geometry":{"coordinates":[-79.27655,43.862315],"type":"Point"},"properties":{"osm_id":"437974734","tag":{"amenity":"waste_basket"}},"type":"Feature"},
	{"geometry":{"coordinates":[-79.270453,43.884262],"type":"Point"},"properties":{"osm_id":"437974766","tag":{"amenity":"waste_basket"}},"type":"Feature"},
	{"geometry":{"coordinates":[-79.270403,43.884264],"type":"Point"},"properties":{"osm_id":"437974767","tag":{"amenity":"recycling","recycling_type":"container"}},"type":"Feature"},
	{"geometry":{"coordinates":[-79.273079,43.883286],"type":"Point"},"properties":{"osm_id":"437974768","tag":{"amenity":"waste_basket"}},"type":"Feature"},
	{"geometry":{"coordinates":[-79.267202,43.881756],"type":"Point"},"properties":{"osm_id":"437974780","tag":{"amenity":"waste_basket"}},"type":"Feature"},
	{"geometry":{"coordinates":[-79.264562,43.880641],"type":"Point"},"properties":{"osm_id":"437974782","tag":{"amenity":"waste_basket"}},"type":"Feature"},
	{"geometry":{"coordinates":[-79.265888,43.881545],"type":"Point"},"properties":{"osm_id":"437974783","tag":{"amenity":"waste_basket"}},"type":"Feature"},
	{"geometry":{"coordinates":[-79.273098,43.864369],"type":"Point"},"properties":{"osm_id":"437975205","tag":{"amenity":"waste_basket"}},"type":"Feature"},
	{"geometry":{"coordinates":[-79.272435,43.864735],"type":"Point"},"properties":{"osm_id":"437975206","tag":{"amenity":"waste_basket"}},"type":"Feature"},
	{"geometry":{"coordinates":[-79.269531,43.836611],"type":"Point"},"properties":{"osm_id":"5155830521","tag":{"amenity":"waste_basket"}},"type":"Feature"},
	{"geometry":{"coordinates":[-79.257947,43.873671],"type":"Point"},"properties":{"name":"Markham Village Recycling Depot","osm_id":"5278837076","tag":{"addr:city":"Markham","addr:housenumber":"6041","addr:street":"Highway 7 East","amenity":"recycling","opening_hours":"Mo 08:00-16:00, We 08:00-16:00, Th 12:00-20:00, Fr 08:00-16:00, Sa 08:00-16:00,","phone":"+1-905-472-1548","recycling_type":"centre","website":"https://www.markham.ca/wps/portal/Markham/Residents/RecyclingWaste/RecyclingDepots"}},"type":"Feature"}
]
}
