{
"type": "FeatureCollection",
"features": [
	{"geometry":{"coordinates":[-79.229476,43.824075],"type":"Point"},"properties":{"osm_id":"429668675","tag":{"amenity":"waste_basket"}},"type":"Feature"},
	{"geometry":{"coordinates":[-79.229349,43.824036],"type":"Point"},"properties":{"osm_id":"429668679","tag":{"amenity":"recycling","recycling_type":"container"}},"type":"Feature"},
	{"geometry":{"coordinates":[-79.225451,43.822101],"type":"Point"},"properties":{"osm_id":"429668910","tag":{"amenity":"recycling","recycling_type":"container"}},"type":"Feature"},
	{"geometry":{"coordinates":[-79.192853,43.778828],"type":"Point"},"properties":{"osm_id":"542826183","tag":{"amenity":"waste_basket"}},"type":"Feature"},
	{"geometry":{"coordinates":[-79.268143,43.787765],"type":"Point"},"properties":{"osm_id":"678894009","tag":{"amenity":"recycling","recycling_type":"container"}},"type":"Feature"},
	{"geometry":{"coordinates":[-79.268004,43.787788],"type":"Point"},"properties":{"osm_id":"678894027","tag":{"amenity":"waste_basket"}},"type":"Feature"},
	{"geometry":{"coordinates":[-79.200042,43.827545],"type":"Point"},"properties":{"osm_id":"896535554","tag":{"addr:city":"Toronto","addr:housenumber":"1100","addr:street":"Sewells Road"}},"type":"Feature"},
	{"geometry":{"coordinates":[-79.202346,43.83051],"type":"Point"},"properties":{"osm_id":"896535616","tag":{"addr:city":"Toronto","addr:housenumber":"1100","addr:street":"Sewells Road"}},"type":"Feature"},
	{"geometry":{"coordinates":[-79.222682,43.823924],"type":"Point"},"properties":{"osm_id":"896535746","tag":{"addr:city":"Toronto","addr:housenumber":"57","addr:street":"Mantis Road"}},"type":"Feature"},
	{"geometry":{"coordinates":[-79.227139,43.82468],"type":"Point"},"properties":{"osm_id":"896535807","tag":{"addr:city":"Toronto","addr:housenumber":"54","addr:street":"Nightstar Road"}},"type":"Feature"},
	{"geometry":{"coordinates":[-79.207042,43.817901],"type":"Point"},"properties":{"osm_id":"896536011","tag":{"addr:city":"Toronto","addr:housenumber":"501","addr:street":"Sewells Road"}},"type":"Feature"},
	{"geometry":{"coordinates":[-79.218763,43.82488],"type":"Point"},"properties":{"osm_id":"896536438","tag":{"addr:city":"Toronto","addr:housenumber":"48","addr:street":"Point Rouge Trail"}},"type":"Feature"},
	{"geometry":{"coordinates":[-79.208731,43.817374],"type":"Point"},"properties":{"osm_id":"896536680","tag":{"addr:city":"Toronto","addr:housenumber":"501","addr:street":"Sewells Road"}},"type":"Feature"},
	{"geometry":{"coordinates":[-79.217603,43.824815],"type":"Point"},"properties":{"osm_id":"896536720","tag":{"addr:city":"Toronto","addr:housenumber":"36","addr:street":"Point Rouge Trail"}},"type":"Feature"},
	{"geometry":{"coordinates":[-79.229341,43.823845],"type":"Point"},"properties":{"osm_id":"896537021","tag":{"addr:city":"Toronto","addr:housenumber":"18","addr:street":"Nightstar Road"}},"type":"Feature"},
	{"geometry":{"coordinates":[-79.229968,43.834289],"type":"Point"},"properties":{"osm_id":"896537582","tag":{"addr:city":"Toronto","addr:housenumber":"70","addr:street":"Rivendell Trail"}},"type":"Feature"},
	{"geometry":{"coordinates":[-79.219073,43.817028],"type":"Point"},"properties":{"osm_id":"896537670","tag":{"addr:city":"Toronto","addr:housenumber":"31","addr:street":"Overlord Crescent"}},"type":"Feature"},
	{"geometry":{"coordinates":[-79.215391,43.816248],"type":"Point"},"properties":{"osm_id":"896538300","tag":{"addr:city":"Toronto","addr:housenumber":"200","addr:street":"Hupfield Trail"}},"type":"Feature"},
	{"geometry":{"coordinates":[-79.206609,43.819739],"type":"Point"},"properties":{"osm_id":"896538389","tag":{"addr:city":"Toronto","addr:housenumber":"33","addr:street":"Darby Court"}},"type":"Feature"},
	{"geometry":{"coordinates":[-79.227365,43.833466],"type":"Point"},"properties":{"osm_id":"896538748","tag":{"addr:city":"Toronto","addr:housenumber":"36","addr:street":"Rivendell Trail"}},"type":"Feature"},
	{"geometry":{"coordinates":[-79.227293,43.833497],"type":"Point"},"properties":{"osm_id":"896539982","tag":{"addr:city":"Toronto","addr:housenumber":"10","addr:street":"Solitude Street"}},"type":"Feature"},
	{"geometry":{"coordinates":[-79.227176,43.833923],"type":"Point"},"properties":{"osm_id":"896540026","tag":{"addr:city":"Toronto","addr:housenumber":"12","addr:street":"Solitude Street"}},"type":"Feature"},
	{"geometry":{"coordinates":[-79.222702,43.823995],"type":"Point"},"properties":{"osm_id":"896540125","tag":{"addr:city":"Toronto","addr:housenumber":"57","addr:street":"Mantis Road"}},"type":"Feature"},
	{"geometry":{"coordinates":[-79.214254,43.815551],"type":"Point"},"properties":{"osm_id":"896540849","tag":{"addr:city":"Toronto","addr:housenumber":"218","addr:street":"Hupfield Trail"}},"type":"Feature"},
	{"geometry":{"coordinates":[-79.217491,43.816134],"type":"Point"},"properties":{"osm_id":"896541055","tag":{"addr:city":"Toronto","addr:housenumber":"63","addr:street":"Overlord Crescent"}},"type":"Feature"},
	{"geometry":{"coordinates":[-79.206418,43.818733],"type":"Point"},"properties":{"osm_id":"896541517","tag":{"addr:city":"Toronto","addr:housenumber":"1","addr:street":"Darby Court"}},"type":"Feature"},
	{"geometry":{"coordinates":[-79.216792,43.779992],"type":"Point"},"properties":{"osm_id":"1459392655","tag":{"amenity":"waste_basket"}},"type":"Feature"},
	{"geometry":{"coordinates":[-79.209032,43.81192],"type":"Point"},"properties":{"osm_id":"2882494684","tag":{"amenity":"waste_basket"}},"type":"Feature"},
	{"geometry":{"coordinates":[-79.209003,43.811931],"type":"Point"},"properties":{"osm_id":"2882494685","tag":{"amenity":"recycling","recycling_type":"container"}},"type":"Feature"},
	{"geometry":{"coordinates":[-79.256812,43.773001],"type":"Point"},"properties":{"osm_id":"3601429595","tag":{"amenity":"waste_basket"}},"type":"Feature"},
	{"geometry":{"coordinates":[-79.256815,43.77302],"type":"Point"},"properties":{"osm_id":"3601429596","tag":{"amenity":"recycling","recycling_type":"container"}},"type":"Feature"},
	{"geometry":{"coordinates":[-79.256826,43.773154],"type":"Point"},"properties":{"osm_id":"3601429603","tag":{"amenity":"waste_basket"}},"type":"Feature"},
	{"geometry":{"coordinates":[-79.194292,43.788073],"type":"Point"},"properties":{"osm_id":"3638173929","tag":{"amenity":"recycling","recycling:clothes":"yes","recycling_type":"container"}},"type":"Feature"},
	{"geometry":{"coordinates":[-79.230577,43.784024],"type":"Point"},"properties":{"osm_id":"3755250810","tag":{"amenity":"waste_basket","colour":"brown"}},"type":"Feature"},
	{"geometry":{"coordinates":[-79.229416,43.784497],"type":"Point"},"properties":{"osm_id":"3760342493","tag":{"amenity":"waste_basket","colour":"brown"}},"type":"Feature"},
	{"geometry":{"coordinates":[-79.227356,43.785215],"type":"Point"},"properties":{"osm_id":"3760344372","tag":{"amenity":"waste_basket"}},"type":"Feature"},
	{"geometry":{"coordinates":[-79.247284,43.780441],"type":"Point"},"properties":{"osm_id":"3775859578","tag":{"amenity":"waste_basket","colour":"grey","operator":"Astral","sidewalk_orientation":"between"}},"type":"Feature"},
	{"geometry":{"coordinates":[-79.263154,43.80863],"type":"Point"},"properties":{"osm_id":"4199009035","tag":{"amenity":"recycling","operator":"Astral","recycling_type":"container","sidewalk_orientation":"between","waste_basket":"yes"}},"type":"Feature"},
	{"geometry":{"coordinates":[-79.228551,43.784658],"type":"Point"},"properties":{"osm_id":"4236615466","tag":{"amenity":"recycling","colour":"green","recycling_type":"container","waste_basket":"yes"}},"type":"Feature"},
	{"geometry":{"coordinates":[-79.249477,43.78021],"type":"Point"},"properties":{"osm_id":"4264628695","tag":{"amenity":"recycling","colour":"grey","operator":"Astral","recycling_type":"container","sidewalk_orientation":"between","waste_basket":"yes"}},"type":"Feature"},
	{"geometry":{"coordinates":[-79.269568,43.828989],"type":"Point"},"properties":{"osm_id":"4355444807","tag":{"amenity":"waste_basket"}},"type":"Feature"},
	{"geometry":{"coordinates":[-79.269966,43.829578],"type":"Point"},"properties":{"osm_id":"4355444815","tag":{"amenity":"waste_basket"}},"type":"Feature"},
	{"geometry":{"coordinates":[-79.270941,43.829884],"type":"Point"},"properties":{"osm_id":"4355444816","tag":{"amenity":"waste_basket"}},"type":"Feature"},
	{"geometry":{"coordinates":[-79.233996,43.792496],"type":"Point"},"properties":{"osm_id":"6406872691","tag":{"amenity":"waste_basket"}},"type":"Feature"},
	{"geometry":{"coordinates":[-79.233535,43.792701],"type":"Point"},"properties":{"osm_id":"6406872692","tag":{"amenity":"waste_basket"}},"type":"Feature"},
	{"geometry":{"coordinates":[-79.249428,43.786967],"type":"Point"},"properties":{"osm_id":"6406873816","tag":{"amenity":"waste_basket"}},"type":"Feature"},
	{"geometry":{"coordinates":[-79.228477,43.7847],"type":"Point"},"properties":{"osm_id":"7126991152","tag":{"amenity":"waste_basket","colour":"brown"}},"type":"Feature"}
]
}
