{
"type": "FeatureCollection",
"features": [
	{"geometry":{"coordinates":[-79.213495,42.992297],"type":"Point"},"properties":{"osm_id":"819602760","tag":{"addr:city":"Welland","addr:housenumber":"58","addr:street":"Silverthorn Street"}},"type":"Feature"},
	{"geometry":{"coordinates":[-79.275869,42.997744],"type":"Point"},"properties":{"osm_id":"819622937","tag":{"addr:city":"Welland","addr:housenumber":"1","addr:street":"Andora Court"}},"type":"Feature"},
	{"geometry":{"coordinates":[-79.235642,42.995563],"type":"Point"},"properties":{"osm_id":"819631305","tag":{"addr:city":"Welland","addr:housenumber":"434","addr:street":"McAlpine Avenue"}},"type":"Feature"},
	{"geometry":{"coordinates":[-79.213471,42.9923],"type":"Point"},"properties":{"osm_id":"819667955","tag":{"addr:city":"Welland","addr:housenumber":"58","addr:street":"Silverthorn Street"}},"type":"Feature"},
	{"geometry":{"coordinates":[-79.276777,42.997748],"type":"Point"},"properties":{"osm_id":"819672970","tag":{"addr:city":"Welland","addr:housenumber":"21","addr:street":"Andora Court"}},"type":"Feature"},
	{"geometry":{"coordinates":[-79.235649,42.996282],"type":"Point"},"properties":{"osm_id":"819695374","tag":{"addr:city":"Welland","addr:housenumber":"454","addr:street":"McAlpine Avenue"}},"type":"Feature"}
]
}
