{
"type": "FeatureCollection",
"features": [
	{"geometry":{"coordinates":[-79.233241,37.405063],"type":"Point"},"properties":{"osm_id":"3994580450","tag":{"amenity":"waste_basket"}},"type":"Feature"},
	{"geometry":{"coordinates":[-79.232991,37.405356],"type":"Point"},"properties":{"osm_id":"3994580464","tag":{"amenity":"waste_basket"}},"type":"Feature"},
	{"geometry":{"coordinates":[-79.233094,37.405542],"type":"Point"},"properties":{"osm_id":"3994580469","tag":{"amenity":"waste_basket"}},"type":"Feature"},
	{"geometry":{"coordinates":[-79.233063,37.405702],"type":"Point"},"properties":{"osm_id":"3994580473","tag":{"amenity":"waste_basket"}},"type":"Feature"},
	{"geometry":{"coordinates":[-79.23344,37.405854],"type":"Point"},"properties":{"osm_id":"3994580476","tag":{"amenity":"waste_basket"}},"type":"Feature"},
	{"geometry":{"coordinates":[-79.233484,37.405995],"type":"Point"},"properties":{"osm_id":"3994580481","tag":{"amenity":"recycling","recycling:monofilament":"yes","recycling_type":"container"}},"type":"Feature"},
	{"geometry":{"coordinates":[-79.22473,37.418772],"type":"Point"},"properties":{"osm_id":"4637901302","tag":{"amenity":"waste_basket","waste":"trash"}},"type":"Feature"},
	{"geometry":{"coordinates":[-79.233091,37.405031],"type":"Point"},"properties":{"osm_id":"5284511720","tag":{"amenity":"waste_basket"}},"type":"Feature"},
	{"geometry":{"coordinates":[-79.232393,37.405005],"type":"Point"},"properties":{"osm_id":"5284590810","tag":{"amenity":"waste_basket"}},"type":"Feature"},
	{"geometry":{"coordinates":[-79.22555,37.4169],"type":"Point"},"properties":{"osm_id":"7495120961","tag":{"amenity":"waste_basket","waste":"trash"}},"type":"Feature"},
	{"geometry":{"coordinates":[-79.225498,37.416962],"type":"Point"},"properties":{"osm_id":"7495120963","tag":{"amenity":"waste_basket","waste":"trash"}},"type":"Feature"},
	{"geometry":{"coordinates":[-79.223947,37.419646],"type":"Point"},"properties":{"osm_id":"7495326938","tag":{"amenity":"waste_basket","waste":"dog_excrement"}},"type":"Feature"},
	{"geometry":{"coordinates":[-79.22385,37.419778],"type":"Point"},"properties":{"osm_id":"7495326943","tag":{"amenity":"recycling","recycling:fishing_line":"yes","recycling_type":"container"}},"type":"Feature"}
]
}
