{
"type": "FeatureCollection",
"features": [
	{"geometry":{"coordinates":[-79.274386,37.363992],"type":"Point"},"properties":{"name":"Forest Dump","osm_id":"463761551","tag":{"amenity":"recycling"}},"type":"Feature"},
	{"geometry":{"coordinates":[-79.226238,37.354751],"type":"Point"},"properties":{"osm_id":"499724890","tag":{"amenity":"recycling","recycling:cans":"yes","recycling:paper":"yes"}},"type":"Feature"},
	{"geometry":{"coordinates":[-79.225156,37.339581],"type":"Point"},"properties":{"osm_id":"6368492784","tag":{"amenity":"waste_basket"}},"type":"Feature"},
	{"geometry":{"coordinates":[-79.224419,37.340581],"type":"Point"},"properties":{"osm_id":"6368508863","tag":{"amenity":"waste_basket"}},"type":"Feature"},
	{"geometry":{"coordinates":[-79.224611,37.34067],"type":"Point"},"properties":{"osm_id":"6368509493","tag":{"amenity":"waste_basket"}},"type":"Feature"},
	{"geometry":{"coordinates":[-79.243962,37.33543],"type":"Point"},"properties":{"osm_id":"6580184432","tag":{"amenity":"recycling","opening_hours":"24/7","recycling:paper":"yes","recycling:plastic_packaging":"yes","recycling_type":"container"}},"type":"Feature"}
]
}
