{
"type": "FeatureCollection",
"features": [
	{"geometry":{"coordinates":[-105.141513,39.726218],"type":"Point"},"properties":{"highway":"turning_circle","osm_id":"177352306"},"type":"Feature"},
	{"geometry":{"coordinates":[-105.14141,39.739978],"type":"Point"},"properties":{"osm_id":"1704734534","tag":{"amenity":"waste_basket"}},"type":"Feature"},
	{"geometry":{"coordinates":[-105.141018,39.740077],"type":"Point"},"properties":{"osm_id":"1704734559","tag":{"amenity":"waste_basket"}},"type":"Feature"},
	{"geometry":{"coordinates":[-105.123562,39.732677],"type":"Point"},"properties":{"barrier":"gate","osm_id":"3700621623"},"type":"Feature"},
	{"geometry":{"coordinates":[-105.118313,39.71555],"type":"Point"},"properties":{"osm_id":"4785308207","tag":{"amenity":"recycling","recycling_type":"container"}},"type":"Feature"},
	{"geometry":{"coordinates":[-105.118768,39.720295],"type":"Point"},"properties":{"osm_id":"4806937956","tag":{"amenity":"recycling"}},"type":"Feature"},
	{"geometry":{"coordinates":[-105.117263,39.717981],"type":"Point"},"properties":{"osm_id":"4806937971","tag":{"amenity":"waste_basket"}},"type":"Feature"},
	{"geometry":{"coordinates":[-105.12222,39.719532],"type":"Point"},"properties":{"osm_id":"4810855593","tag":{"amenity":"recycling","recycling_type":"container"}},"type":"Feature"},
	{"geometry":{"coordinates":[-105.124273,39.720964],"type":"Point"},"properties":{"osm_id":"4817046453","tag":{"amenity":"recycling","recycling_type":"container"}},"type":"Feature"},
	{"geometry":{"coordinates":[-105.121191,39.717839],"type":"Point"},"properties":{"osm_id":"4819131385","tag":{"amenity":"recycling","recycling_type":"container"}},"type":"Feature"},
	{"geometry":{"coordinates":[-105.123053,39.713863],"type":"Point"},"properties":{"osm_id":"4821676365","tag":{"amenity":"recycling","recycling_type":"container"}},"type":"Feature"},
	{"geometry":{"coordinates":[-105.12222,39.716925],"type":"Point"},"properties":{"name":"Demolition Recycling","osm_id":"4821676400","tag":{"amenity":"recycling","recycling_type":"centre"}},"type":"Feature"},
	{"geometry":{"coordinates":[-105.118706,39.716981],"type":"Point"},"properties":{"osm_id":"4821762196","tag":{"amenity":"recycling","recycling_type":"container"}},"type":"Feature"},
	{"geometry":{"coordinates":[-105.118092,39.718384],"type":"Point"},"properties":{"osm_id":"4821839741","tag":{"amenity":"waste_basket"}},"type":"Feature"},
	{"geometry":{"coordinates":[-105.138072,39.726364],"type":"Point"},"properties":{"highway":"crossing","osm_id":"7544910510","tag":{"crossing":"uncontrolled"}},"type":"Feature"},
	{"geometry":{"coordinates":[-105.14005,39.726222],"type":"Point"},"properties":{"highway":"crossing","osm_id":"7662579805","tag":{"crossing":"uncontrolled"}},"type":"Feature"}
]
}
