{
"type": "FeatureCollection",
"features": [
	{"geometry":{"coordinates":[20.342029,43.892574],"type":"Point"},"properties":{"osm_id":"3625556635","tag":{"natural":"tree"}},"type":"Feature"},
	{"geometry":{"coordinates":[20.342087,43.892801],"type":"Point"},"properties":{"osm_id":"3625559478","tag":{"natural":"tree"}},"type":"Feature"},
	{"geometry":{"coordinates":[20.341987,43.892407],"type":"Point"},"properties":{"osm_id":"3625559690","tag":{"natural":"tree"}},"type":"Feature"},
	{"geometry":{"coordinates":[20.342043,43.89263],"type":"Point"},"properties":{"osm_id":"3625563319","tag":{"natural":"tree"}},"type":"Feature"},
	{"geometry":{"coordinates":[20.342067,43.892718],"type":"Point"},"properties":{"osm_id":"3625563584","tag":{"natural":"tree"}},"type":"Feature"},
	{"geometry":{"coordinates":[20.342006,43.8925],"type":"Point"},"properties":{"osm_id":"3625563944","tag":{"natural":"tree"}},"type":"Feature"},
	{"geometry":{"coordinates":[20.341956,43.892305],"type":"Point"},"properties":{"osm_id":"3625563994","tag":{"natural":"tree"}},"type":"Feature"},
	{"geometry":{"coordinates":[20.341916,43.892111],"type":"Point"},"properties":{"osm_id":"3625564204","tag":{"natural":"tree"}},"type":"Feature"},
	{"geometry":{"coordinates":[20.34992,43.891939],"type":"Point"},"properties":{"name":"\u00d0\u00a1\u00d0\u00bf\u00d0\u00be\u00d0\u00bc\u00d0\u00b5\u00d0\u00bd\u00d0\u00b8\u00d0\u00ba \u00d0\u00bf\u00d1\u0080\u00d0\u00b8\u00d1\u0080\u00d0\u00be\u00d0\u00b4\u00d0\u00b5 \u00d0\u00a4\u00d0\u00b8\u00d0\u00ba\u00d1\u0083\u00d1\u0081","osm_id":"6548472618","tag":{"denotation":"natural_monument","height":"41 m","natural":"tree","protected":"yes"}},"type":"Feature"},
	{"geometry":{"coordinates":[20.3689,43.8664],"type":"Point"},"properties":{"name":"\u00d0\u0097\u00d0\u00b0\u00d0\u00bf\u00d0\u00b8\u00d1\u0081 \u00d0\u00bb\u00d0\u00b8\u00d0\u00bf\u00d0\u00b0 \u00d0\u00ba\u00d0\u00be\u00d0\u00b4 \u00d1\u0086\u00d1\u0080\u00d0\u00ba\u00d0\u00b2\u00d0\u00b5 \u00d1\u0083 \u00d0\u0090\u00d1\u0082\u00d0\u00b5\u00d0\u00bd\u00d0\u00b8\u00d1\u0086\u00d0\u00b8","osm_id":"8788275522","tag":{"amenity":"place_of_worship","denomination":"serbian_orthodox","genus":"Tilia","leaf_type":"broadleaved","name:sr":"\u00d0\u0097\u00d0\u00b0\u00d0\u00bf\u00d0\u00b8\u00d1\u0081 \u00d0\u00bb\u00d0\u00b8\u00d0\u00bf\u00d0\u00b0 \u00d0\u00ba\u00d0\u00be\u00d0\u00b4 \u00d1\u0086\u00d1\u0080\u00d0\u00ba\u00d0\u00b2\u00d0\u00b5 \u00d1\u0083 \u00d0\u0090\u00d1\u0082\u00d0\u00b5\u00d0\u00bd\u00d0\u00b8\u00d1\u0086\u00d0\u00b8","name:sr-Latn":"Zapis lipa kod crkve u Atenici","natural":"tree","ref:zapis":"0610","religion":"christian","wikidata":"Q31186544","wikipedia":"sr:\u00d0\u0097\u00d0\u00b0\u00d0\u00bf\u00d0\u00b8\u00d1\u0081 \u00d0\u00bb\u00d0\u00b8\u00d0\u00bf\u00d0\u00b0 \u00d0\u00ba\u00d0\u00be\u00d0\u00b4 \u00d1\u0086\u00d1\u0080\u00d0\u00ba\u00d0\u00b2\u00d0\u00b5 (\u00d0\u00a7\u00d0\u00b0\u00d1\u0087\u00d0\u00b0\u00d0\u00ba)"}},"type":"Feature"},
	{"geometry":{"coordinates":[20.3707,43.8363],"type":"Point"},"properties":{"name":"\u00d0\u0097\u00d0\u00b0\u00d0\u00bf\u00d0\u00b8\u00d1\u0081 \u00d0\u00a1\u00d1\u0082\u00d0\u00b0\u00d0\u00bd\u00d0\u00b8\u00d1\u009b\u00d0\u00b0 \u00d0\u00b3\u00d1\u0080\u00d0\u00bc","osm_id":"8788277121","tag":{"amenity":"place_of_worship","denomination":"serbian_orthodox","genus":"Quercus","leaf_type":"broadleaved","name:sr":"\u00d0\u0097\u00d0\u00b0\u00d0\u00bf\u00d0\u00b8\u00d1\u0081 \u00d0\u00a1\u00d1\u0082\u00d0\u00b0\u00d0\u00bd\u00d0\u00b8\u00d1\u009b\u00d0\u00b0 \u00d0\u00b3\u00d1\u0080\u00d0\u00bc","name:sr-Latn":"Zapis Stani\u00c4\u0087a grm","natural":"tree","ref:zapis":"0606","religion":"christian","wikidata":"Q31186537","wikipedia":"sr:\u00d0\u0097\u00d0\u00b0\u00d0\u00bf\u00d0\u00b8\u00d1\u0081 \u00d0\u00a1\u00d1\u0082\u00d0\u00b0\u00d0\u00bd\u00d0\u00b8\u00d1\u009b\u00d0\u00b0 \u00d0\u00b3\u00d1\u0080\u00d0\u00bc (\u00d0\u00a2\u00d1\u0080\u00d0\u00bd\u00d0\u00b0\u00d0\u00b2\u00d0\u00b0)"}},"type":"Feature"},
	{"geometry":{"coordinates":[20.378,43.8479],"type":"Point"},"properties":{"name":"\u00d0\u0097\u00d0\u00b0\u00d0\u00bf\u00d0\u00b8\u00d1\u0081 \u00d0\u009f\u00d1\u0080\u00d0\u00be\u00d1\u0082\u00d0\u00b8\u00d1\u009b\u00d0\u00b0 \u00d0\u00b3\u00d1\u0080\u00d0\u00bc","osm_id":"8788295617","tag":{"amenity":"place_of_worship","denomination":"serbian_orthodox","genus":"Quercus","leaf_type":"broadleaved","name:sr":"\u00d0\u0097\u00d0\u00b0\u00d0\u00bf\u00d0\u00b8\u00d1\u0081 \u00d0\u009f\u00d1\u0080\u00d0\u00be\u00d1\u0082\u00d0\u00b8\u00d1\u009b\u00d0\u00b0 \u00d0\u00b3\u00d1\u0080\u00d0\u00bc","name:sr-Latn":"Zapis Proti\u00c4\u0087a grm","natural":"tree","ref:zapis":"0605","religion":"christian","wikidata":"Q31186535","wikipedia":"sr:\u00d0\u0097\u00d0\u00b0\u00d0\u00bf\u00d0\u00b8\u00d1\u0081 \u00d0\u009f\u00d1\u0080\u00d0\u00be\u00d1\u0082\u00d0\u00b8\u00d1\u009b\u00d0\u00b0 \u00d0\u00b3\u00d1\u0080\u00d0\u00bc (\u00d0\u00a2\u00d1\u0080\u00d0\u00bd\u00d0\u00b0\u00d0\u00b2\u00d0\u00b0)"}},"type":"Feature"},
	{"geometry":{"coordinates":[20.3867,43.8725],"type":"Point"},"properties":{"name":"\u00d0\u0097\u00d0\u00b0\u00d0\u00bf\u00d0\u00b8\u00d1\u0081 \u00d0\u008b\u00d0\u00b8\u00d1\u0080\u00d0\u00ba\u00d0\u00be\u00d0\u00b2\u00d0\u00b8\u00d1\u009b\u00d0\u00b0 \u00d0\u00b3\u00d1\u0080\u00d0\u00bc","osm_id":"8788302717","tag":{"amenity":"place_of_worship","denomination":"serbian_orthodox","genus":"Quercus","leaf_type":"broadleaved","name:sr":"\u00d0\u0097\u00d0\u00b0\u00d0\u00bf\u00d0\u00b8\u00d1\u0081 \u00d0\u008b\u00d0\u00b8\u00d1\u0080\u00d0\u00ba\u00d0\u00be\u00d0\u00b2\u00d0\u00b8\u00d1\u009b\u00d0\u00b0 \u00d0\u00b3\u00d1\u0080\u00d0\u00bc","name:sr-Latn":"Zapis \u00c4\u0086irkovi\u00c4\u0087a grm","natural":"tree","ref:zapis":"0609","religion":"christian","wikidata":"Q31186543","wikipedia":"sr:\u00d0\u0097\u00d0\u00b0\u00d0\u00bf\u00d0\u00b8\u00d1\u0081 \u00d0\u008b\u00d0\u00b8\u00d1\u0080\u00d0\u00ba\u00d0\u00be\u00d0\u00b2\u00d0\u00b8\u00d1\u009b\u00d0\u00b0 \u00d0\u00b3\u00d1\u0080\u00d0\u00bc (\u00d0\u0090\u00d1\u0082\u00d0\u00b5\u00d0\u00bd\u00d0\u00b8\u00d1\u0086\u00d0\u00b0)"}},"type":"Feature"},
	{"geometry":{"coordinates":[20.3431,43.8531],"type":"Point"},"properties":{"name":"\u00d0\u0097\u00d0\u00b0\u00d0\u00bf\u00d0\u00b8\u00d1\u0081 \u00d0\u00ba\u00d1\u0080\u00d1\u0083\u00d1\u0088\u00d0\u00ba\u00d0\u00b0 \u00d0\u00ba\u00d0\u00be\u00d0\u00b4 \u00d1\u0088\u00d0\u00ba\u00d0\u00be\u00d0\u00bb\u00d0\u00b5","osm_id":"8794842123","tag":{"amenity":"place_of_worship","denomination":"serbian_orthodox","genus":"Pyrus","leaf_type":"broadleaved","name:sr":"\u00d0\u0097\u00d0\u00b0\u00d0\u00bf\u00d0\u00b8\u00d1\u0081 \u00d0\u00ba\u00d1\u0080\u00d1\u0083\u00d1\u0088\u00d0\u00ba\u00d0\u00b0 \u00d0\u00ba\u00d0\u00be\u00d0\u00b4 \u00d1\u0088\u00d0\u00ba\u00d0\u00be\u00d0\u00bb\u00d0\u00b5","name:sr-Latn":"Zapis kru\u00c5\u00a1ka kod \u00c5\u00a1kole","natural":"tree","ref:zapis":"0612","religion":"christian","wikidata":"Q31186550","wikipedia":"sr:\u00d0\u0097\u00d0\u00b0\u00d0\u00bf\u00d0\u00b8\u00d1\u0081 \u00d0\u00ba\u00d1\u0080\u00d1\u0083\u00d1\u0088\u00d0\u00ba\u00d0\u00b0 \u00d0\u00ba\u00d0\u00be\u00d0\u00b4 \u00d1\u0088\u00d0\u00ba\u00d0\u00be\u00d0\u00bb\u00d0\u00b5 (\u00d0\u0090\u00d1\u0082\u00d0\u00b5\u00d0\u00bd\u00d0\u00b8\u00d1\u0086\u00d0\u00b0)"}},"type":"Feature"},
	{"geometry":{"coordinates":[20.349728,43.885317],"type":"Point"},"properties":{"osm_id":"8892503319","tag":{"natural":"tree"}},"type":"Feature"},
	{"geometry":{"coordinates":[20.349624,43.885348],"type":"Point"},"properties":{"osm_id":"8892503320","tag":{"natural":"tree"}},"type":"Feature"},
	{"geometry":{"coordinates":[20.349549,43.885371],"type":"Point"},"properties":{"osm_id":"8892503321","tag":{"natural":"tree"}},"type":"Feature"},
	{"geometry":{"coordinates":[20.349449,43.885402],"type":"Point"},"properties":{"osm_id":"8892503322","tag":{"natural":"tree"}},"type":"Feature"},
	{"geometry":{"coordinates":[20.349369,43.885427],"type":"Point"},"properties":{"osm_id":"8892503323","tag":{"natural":"tree"}},"type":"Feature"},
	{"geometry":{"coordinates":[20.34927,43.88546],"type":"Point"},"properties":{"osm_id":"8892503324","tag":{"natural":"tree"}},"type":"Feature"},
	{"geometry":{"coordinates":[20.350235,43.885174],"type":"Point"},"properties":{"osm_id":"8892503325","tag":{"natural":"tree"}},"type":"Feature"},
	{"geometry":{"coordinates":[20.350326,43.885149],"type":"Point"},"properties":{"osm_id":"8892503326","tag":{"natural":"tree"}},"type":"Feature"},
	{"geometry":{"coordinates":[20.350408,43.885129],"type":"Point"},"properties":{"osm_id":"8892503327","tag":{"natural":"tree"}},"type":"Feature"},
	{"geometry":{"coordinates":[20.350503,43.885102],"type":"Point"},"properties":{"osm_id":"8892503328","tag":{"natural":"tree"}},"type":"Feature"},
	{"geometry":{"coordinates":[20.350586,43.88508],"type":"Point"},"properties":{"osm_id":"8892503329","tag":{"natural":"tree"}},"type":"Feature"},
	{"geometry":{"coordinates":[20.350671,43.885056],"type":"Point"},"properties":{"osm_id":"8892503330","tag":{"natural":"tree"}},"type":"Feature"},
	{"geometry":{"coordinates":[20.350748,43.885037],"type":"Point"},"properties":{"osm_id":"8892503331","tag":{"natural":"tree"}},"type":"Feature"},
	{"geometry":{"coordinates":[20.350937,43.884978],"type":"Point"},"properties":{"osm_id":"8892503332","tag":{"natural":"tree"}},"type":"Feature"},
	{"geometry":{"coordinates":[20.351013,43.884956],"type":"Point"},"properties":{"osm_id":"8892503333","tag":{"natural":"tree"}},"type":"Feature"},
	{"geometry":{"coordinates":[20.349348,43.885566],"type":"Point"},"properties":{"osm_id":"8892503334","tag":{"natural":"tree"}},"type":"Feature"},
	{"geometry":{"coordinates":[20.349448,43.885539],"type":"Point"},"properties":{"osm_id":"8892503335","tag":{"natural":"tree"}},"type":"Feature"},
	{"geometry":{"coordinates":[20.349542,43.88551],"type":"Point"},"properties":{"osm_id":"8892503336","tag":{"natural":"tree"}},"type":"Feature"},
	{"geometry":{"coordinates":[20.349626,43.885483],"type":"Point"},"properties":{"osm_id":"8892503337","tag":{"natural":"tree"}},"type":"Feature"},
	{"geometry":{"coordinates":[20.349721,43.885457],"type":"Point"},"properties":{"osm_id":"8892503338","tag":{"natural":"tree"}},"type":"Feature"},
	{"geometry":{"coordinates":[20.349803,43.885435],"type":"Point"},"properties":{"osm_id":"8892503339","tag":{"natural":"tree"}},"type":"Feature"},
	{"geometry":{"coordinates":[20.350036,43.885468],"type":"Point"},"properties":{"osm_id":"8892503340","tag":{"natural":"tree"}},"type":"Feature"},
	{"geometry":{"coordinates":[20.348773,43.885746],"type":"Point"},"properties":{"osm_id":"8892503341","tag":{"natural":"tree"}},"type":"Feature"},
	{"geometry":{"coordinates":[20.349298,43.885714],"type":"Point"},"properties":{"osm_id":"8892503342","tag":{"natural":"tree"}},"type":"Feature"},
	{"geometry":{"coordinates":[20.349344,43.885108],"type":"Point"},"properties":{"osm_id":"8892503343","tag":{"natural":"tree"}},"type":"Feature"},
	{"geometry":{"coordinates":[20.349177,43.885196],"type":"Point"},"properties":{"osm_id":"8892503344","tag":{"natural":"tree"}},"type":"Feature"},
	{"geometry":{"coordinates":[20.351288,43.88499],"type":"Point"},"properties":{"osm_id":"8892503345","tag":{"natural":"tree"}},"type":"Feature"},
	{"geometry":{"coordinates":[20.351132,43.885036],"type":"Point"},"properties":{"osm_id":"8892503346","tag":{"natural":"tree"}},"type":"Feature"},
	{"geometry":{"coordinates":[20.350969,43.885081],"type":"Point"},"properties":{"osm_id":"8892503347","tag":{"natural":"tree"}},"type":"Feature"},
	{"geometry":{"coordinates":[20.350886,43.885103],"type":"Point"},"properties":{"osm_id":"8892503348","tag":{"natural":"tree"}},"type":"Feature"},
	{"geometry":{"coordinates":[20.350236,43.885331],"type":"Point"},"properties":{"osm_id":"8892503349","tag":{"natural":"tree"}},"type":"Feature"},
	{"geometry":{"coordinates":[20.347707,43.886084],"type":"Point"},"properties":{"osm_id":"8892515539","tag":{"natural":"tree"}},"type":"Feature"},
	{"geometry":{"coordinates":[20.347338,43.886199],"type":"Point"},"properties":{"osm_id":"8892515540","tag":{"natural":"tree"}},"type":"Feature"},
	{"geometry":{"coordinates":[20.347543,43.885922],"type":"Point"},"properties":{"osm_id":"8892515541","tag":{"natural":"tree"}},"type":"Feature"},
	{"geometry":{"coordinates":[20.348404,43.885656],"type":"Point"},"properties":{"osm_id":"8892515542","tag":{"natural":"tree"}},"type":"Feature"},
	{"geometry":{"coordinates":[20.348555,43.885611],"type":"Point"},"properties":{"osm_id":"8892515543","tag":{"natural":"tree"}},"type":"Feature"},
	{"geometry":{"coordinates":[20.348903,43.885501],"type":"Point"},"properties":{"osm_id":"8892515544","tag":{"natural":"tree"}},"type":"Feature"},
	{"geometry":{"coordinates":[20.348709,43.885566],"type":"Point"},"properties":{"osm_id":"8892515545","tag":{"natural":"tree"}},"type":"Feature"},
	{"geometry":{"coordinates":[20.349362,43.886336],"type":"Point"},"properties":{"osm_id":"8892515546","tag":{"natural":"tree"}},"type":"Feature"},
	{"geometry":{"coordinates":[20.349192,43.886353],"type":"Point"},"properties":{"osm_id":"8892515547","tag":{"natural":"tree"}},"type":"Feature"},
	{"geometry":{"coordinates":[20.354393,43.883599],"type":"Point"},"properties":{"osm_id":"8892515548","tag":{"natural":"tree"}},"type":"Feature"},
	{"geometry":{"coordinates":[20.356169,43.883396],"type":"Point"},"properties":{"osm_id":"8892515549","tag":{"natural":"tree"}},"type":"Feature"},
	{"geometry":{"coordinates":[20.355909,43.883479],"type":"Point"},"properties":{"osm_id":"8892515550","tag":{"natural":"tree"}},"type":"Feature"},
	{"geometry":{"coordinates":[20.355265,43.883674],"type":"Point"},"properties":{"osm_id":"8892515551","tag":{"natural":"tree"}},"type":"Feature"},
	{"geometry":{"coordinates":[20.355125,43.883721],"type":"Point"},"properties":{"osm_id":"8892515552","tag":{"natural":"tree"}},"type":"Feature"},
	{"geometry":{"coordinates":[20.355463,43.883099],"type":"Point"},"properties":{"osm_id":"8892515553","tag":{"natural":"tree"}},"type":"Feature"},
	{"geometry":{"coordinates":[20.354105,43.89005],"type":"Point"},"properties":{"osm_id":"8892515554","tag":{"natural":"tree"}},"type":"Feature"},
	{"geometry":{"coordinates":[20.353679,43.889768],"type":"Point"},"properties":{"osm_id":"8892515555","tag":{"natural":"tree"}},"type":"Feature"},
	{"geometry":{"coordinates":[20.353423,43.889901],"type":"Point"},"properties":{"osm_id":"8892515556","tag":{"natural":"tree"}},"type":"Feature"},
	{"geometry":{"coordinates":[20.353039,43.889883],"type":"Point"},"properties":{"osm_id":"8892515557","tag":{"natural":"tree"}},"type":"Feature"},
	{"geometry":{"coordinates":[20.352737,43.889875],"type":"Point"},"properties":{"osm_id":"8892515558","tag":{"natural":"tree"}},"type":"Feature"},
	{"geometry":{"coordinates":[20.353011,43.89014],"type":"Point"},"properties":{"osm_id":"8892515559","tag":{"natural":"tree"}},"type":"Feature"},
	{"geometry":{"coordinates":[20.354262,43.890386],"type":"Point"},"properties":{"osm_id":"8892515560","tag":{"natural":"tree"}},"type":"Feature"},
	{"geometry":{"coordinates":[20.351877,43.884703],"type":"Point"},"properties":{"osm_id":"8892553636","tag":{"natural":"tree"}},"type":"Feature"},
	{"geometry":{"coordinates":[20.352413,43.884551],"type":"Point"},"properties":{"osm_id":"8892553637","tag":{"natural":"tree"}},"type":"Feature"},
	{"geometry":{"coordinates":[20.348515,43.890357],"type":"Point"},"properties":{"osm_id":"8892553639","tag":{"natural":"tree"}},"type":"Feature"},
	{"geometry":{"coordinates":[20.348608,43.890254],"type":"Point"},"properties":{"osm_id":"8892553640","tag":{"natural":"tree"}},"type":"Feature"},
	{"geometry":{"coordinates":[20.348692,43.890252],"type":"Point"},"properties":{"osm_id":"8892553641","tag":{"natural":"tree"}},"type":"Feature"},
	{"geometry":{"coordinates":[20.348759,43.89025],"type":"Point"},"properties":{"osm_id":"8892553642","tag":{"natural":"tree"}},"type":"Feature"},
	{"geometry":{"coordinates":[20.348823,43.890248],"type":"Point"},"properties":{"osm_id":"8892553643","tag":{"natural":"tree"}},"type":"Feature"},
	{"geometry":{"coordinates":[20.348882,43.890246],"type":"Point"},"properties":{"osm_id":"8892553644","tag":{"natural":"tree"}},"type":"Feature"},
	{"geometry":{"coordinates":[20.349089,43.890237],"type":"Point"},"properties":{"osm_id":"8892553645","tag":{"natural":"tree"}},"type":"Feature"},
	{"geometry":{"coordinates":[20.349179,43.890234],"type":"Point"},"properties":{"osm_id":"8892553646","tag":{"natural":"tree"}},"type":"Feature"},
	{"geometry":{"coordinates":[20.349293,43.89023],"type":"Point"},"properties":{"osm_id":"8892553647","tag":{"natural":"tree"}},"type":"Feature"},
	{"geometry":{"coordinates":[20.349369,43.89023],"type":"Point"},"properties":{"osm_id":"8892553648","tag":{"natural":"tree"}},"type":"Feature"},
	{"geometry":{"coordinates":[20.350528,43.890956],"type":"Point"},"properties":{"osm_id":"8892553649","tag":{"natural":"tree"}},"type":"Feature"},
	{"geometry":{"coordinates":[20.350688,43.89104],"type":"Point"},"properties":{"osm_id":"8892553650","tag":{"natural":"tree"}},"type":"Feature"},
	{"geometry":{"coordinates":[20.350317,43.891079],"type":"Point"},"properties":{"osm_id":"8892553651","tag":{"natural":"tree"}},"type":"Feature"},
	{"geometry":{"coordinates":[20.350236,43.890942],"type":"Point"},"properties":{"osm_id":"8892553652","tag":{"natural":"tree"}},"type":"Feature"},
	{"geometry":{"coordinates":[20.349083,43.885191],"type":"Point"},"properties":{"osm_id":"8892553653","tag":{"natural":"tree"}},"type":"Feature"},
	{"geometry":{"coordinates":[20.349024,43.885779],"type":"Point"},"properties":{"osm_id":"8892553654","tag":{"natural":"tree"}},"type":"Feature"},
	{"geometry":{"coordinates":[20.348124,43.886046],"type":"Point"},"properties":{"osm_id":"8892553655","tag":{"natural":"tree"}},"type":"Feature"},
	{"geometry":{"coordinates":[20.350658,43.896715],"type":"Point"},"properties":{"osm_id":"8898495206","tag":{"natural":"tree"}},"type":"Feature"},
	{"geometry":{"coordinates":[20.350588,43.896661],"type":"Point"},"properties":{"osm_id":"8898495207","tag":{"natural":"tree"}},"type":"Feature"},
	{"geometry":{"coordinates":[20.350529,43.896541],"type":"Point"},"properties":{"osm_id":"8898495208","tag":{"natural":"tree"}},"type":"Feature"},
	{"geometry":{"coordinates":[20.352806,43.896589],"type":"Point"},"properties":{"osm_id":"8898495209","tag":{"natural":"tree"}},"type":"Feature"},
	{"geometry":{"coordinates":[20.352886,43.895098],"type":"Point"},"properties":{"osm_id":"8898495210","tag":{"natural":"tree"}},"type":"Feature"},
	{"geometry":{"coordinates":[20.351414,43.897798],"type":"Point"},"properties":{"osm_id":"8947515384","tag":{"natural":"tree"}},"type":"Feature"},
	{"geometry":{"coordinates":[20.351208,43.897875],"type":"Point"},"properties":{"osm_id":"8947515385","tag":{"natural":"tree"}},"type":"Feature"},
	{"geometry":{"coordinates":[20.351275,43.89785],"type":"Point"},"properties":{"osm_id":"8947515388","tag":{"natural":"tree"}},"type":"Feature"},
	{"geometry":{"coordinates":[20.351343,43.897825],"type":"Point"},"properties":{"osm_id":"8947515389","tag":{"natural":"tree"}},"type":"Feature"},
	{"geometry":{"coordinates":[20.339072,43.881586],"type":"Point"},"properties":{"name":"\u00d0\u009c\u00d0\u00b8\u00d1\u0098\u00d0\u00b0\u00d1\u0082\u00d0\u00be\u00d0\u00b2\u00d0\u00b8\u00d1\u009b\u00d0\u00b0 \u00d1\u0085\u00d1\u0080\u00d0\u00b0\u00d1\u0081\u00d1\u0082","osm_id":"9038839188","tag":{"denotation":"natural_monument","diameter":"1.07 m","height":"16 m","natural":"tree","protected":"yes","species":"Quercus robur L."}},"type":"Feature"}
]
}
